0198825710999992001010100004-05500-045260FM-12+017499999V0202301N001012200019N0100001N1+02781+02481101101ADDAA199000091GF103991031001017501031001KA1240M+03281MA1999999099141MD1999999+0011REMSYN088AAXX  01004 82571 32797 32302 10278 20248 39914 40110 83030 333 10328 29078 55037 58001;EQDQ01  00002PRCP99
0193825710999992001010112004-05500-045260FM-12+017499999V0201401N001010075019N0100001N1+02241+02121101451ADDAA124007991AY161061GF108991081051008001999999KA1240N+01991MA1999999099461MD1999999+0011MW1021REMSYN088AAXX  01124 82571 21597 81402 10224 20212 39946 40145 7026/ 885// 333 20199 58001 60084;
0167825710999992001010118004-05500-045260FM-12+017499999V0202301N001010450019N0100001N1+02931+02331101111ADDAA199000091GF106991031021008001031011MA1999999099141MD1999999+0031REMSYN070AAXX  01184 82571 32597 62302 10293 20233 39914 40111 83231 333 58003;EQDQ01  00002PRCP99
0198825710999992001010200004-05500-045260FM-12+017499999V0201401N001010075019N0100001N1+02541+02311101241ADDAA199000091GF105991051051008001001001KA1240M+03111MA1999999099251MD1999999+0111REMSYN088AAXX  02004 82571 32597 51402 10254 20231 39925 40124 85500 333 10311 29084 55028 58011;EQDQ01  00002PRCP99
0186825710999992001010212004-05500-045260FM-12+017499999V0201401N003110450019N0100001N1+02521+02231101511ADDAA199000091GF106991031051008001031011KA1240N+02181MA1999999099531MD1999999+0071REMSYN076AAXX  02124 82571 32597 61406 10252 20223 39953 40151 83531 333 20218 58007;EQDQ01  00002PRCP99
0174825710999992001010218004-05500-045260FM-12+017499999V0200501N001010450019N0100001N1+03071+02291101041ADDAA106000191AY161061GF106991021021008001031011MA1999999099081MD1999999-0061MW1011REMSYN082AAXX  02184 82571 21597 60502 10307 20229 39908 40104 7016/ 82231 333 59006 69921;
0198825710999992001010300004-05500-045260FM-12+017499999V0203201N001012200019N0100001N1+02641+02271101261ADDAA199000091GF102991021001017501031001KA1240M+03171MA1999999099291MD1999999+0011REMSYN088AAXX  03004 82571 32797 23202 10264 20227 39929 40126 82030 333 10317 29077 55069 58001;EQDQ01  00002PRCP99
0167825710999992001010318004-05500-045260FM-12+017499999V0200501N001011050019N0100001N1+03051+02051101131ADDAA199000091GF105991021021008001031011MA1999999099171MD1999999+0091REMSYN070AAXX  03184 82571 32597 50502 10305 20205 39917 40113 82231 333 58009;EQDQ01  00002PRCP99
0186825710999992001010412004-05500-045260FM-12+017499999V0202301N001012200019N0100001N1+02581+02231101441ADDAA199000091GF103991011011004501031011KA1240N+02041MA1999999099461MD1999999+0001REMSYN076AAXX  04124 82571 32497 32302 10258 20223 39946 40144 81131 333 20204 58000;EQDQ01  00002PRCP99
0167825710999992001010418004-05500-045260FM-12+017499999V0201401N001010450019N0100001N1+03131+02101101041ADDAA199000091GF106991021021008001011011MA1999999099081MD1999999-0091REMSYN070AAXX  04184 82571 32597 61402 10313 20210 39908 40104 82211 333 59009;EQDQ01  00002PRCP99
0198825710999992001010500004-05500-045260FM-12+017499999V0200501N002112200019N0100001N1+02631+02311101271ADDAA199000091GF103991031001017501031001KA1240M+03191MA1999999099301MD1999999+0071REMSYN088AAXX  05004 82571 32797 30504 10263 20231 39930 40127 83030 333 10319 29075 55093 58007;EQDQ01  00002PRCP99
0193825710999992001010512004-05500-045260FM-12+017499999V0202301N001010042019N0100001N1+02361+02291101501ADDAA124009991AY161061GF107991051051004501031001KA1240N+02051MA1999999099511MD1999999+0051MW1021REMSYN088AAXX  05124 82571 21497 72302 10236 20229 39951 40150 7026/ 85530 333 20205 58005 60104;
0167825710999992001010518004-05500-045260FM-12+017499999V0203201N001010450019N0100001N1+03001+02291101101ADDAA199000091GF107991031021008001011011MA1999999099141MD1999999+0061REMSYN070AAXX  05184 82571 32597 73202 10300 20229 39914 40110 83211 333 58006;EQDQ01  00002PRCP99
0210825710999992001010600004-05500-045260FM-12+017499999V0201801N001010150019N0100001N1+02581+02351101251ADDAA199000091GF106991061001017501071001KA1240M+03151MA1999999099261MD1999999-0041MW1131REMSYN094AAXX  06004 82571 31797 61802 10258 20235 39926 40125 713// 86070 333 10315 29084 55032 59004;EQDQ01  00002PRCP99
0186825710999992001010612004-05500-045260FM-12+017499999V0200501N001010450019N0100001N1+02551+02381101491ADDAA199000091GF107991041021004501051001KA1240N+02231MA1999999099511MD1999999+0001REMSYN076AAXX  06124 82571 32497 70502 10255 20238 39951 40149 84250 333 20223 58000;EQDQ01  00002PRCP99
0167825710999992001010618004-05500-045260FM-12+017499999V0201401N002112200019N0100001N1+03071+02271100981ADDAA199000091GF104991031081008001001011MA1999999099031MD1999999-0111REMSYN070AAXX  06184 82571 32597 41404 10307 20227 39903 40098 83801 333 59011;EQDQ01  00002PRCP99
0198825710999992001010700004-05500-045260FM-12+017499999V0200501N002112200019N0100001N1+02611+02351101201ADDAA199000091GF104991041001017501031001KA1240M+03141MA1999999099231MD1999999-0031REMSYN088AAXX  07004 82571 32797 40504 10261 20235 39923 40120 84030 333 10314 29080 55040 59003;EQDQ01  00002PRCP99
0185825710999992001010712004-05500-045260FM-12+017499999V0200501N001010042019N0100001N1+02461+02391101321ADDAA124001091GF107991071051004501001001KA1240N+02251MA1999999099341MD1999999-0171MW1611REMSYN088AAXX  07124 82571 21497 70502 10246 20239 39934 40132 761// 87500 333 20225 59017 60014;
0182825710999992001010718004-05500-045260FM-12+017499999V0201401N002110450019N0100001N1+02771+02381100921ADDAA106002091AY191061AY261061GF105991031021008001041001MA1999999098961MD1999999-0071MW1171REMSYN082AAXX  07184 82571 21597 51404 10277 20238 39896 40092 71796 83240 333 59007 60021;
0179825710999992001010800004-05500-045260FM-12+017499999V0200501N003110042019N0100001N1+02421+02251101271ADDAA199000021GF106991061051004501001001KA1240M+03091MA1999999099281MD1999999+0051REMSYN088AAXX  08004 82571 32497 60506 10242 20225 39928 40127 86500 333 10309 29089 55046 58005;
0173825710999992001010812004-05500-045260FM-12+017499999V0203201N001012200019N0100001N1+02601+02271101241ADDAA124002091GF103991021011004501031001KA1240N+02181MA1999999099261MD1999999-0081REMSYN082AAXX  08124 82571 22497 33202 10260 20227 39926 40124 82130 333 20218 59008 60024;
0174825710999992001010818004-05500-045260FM-12+017499999V0200501N001010075019N0100001N1+03061+02381100801ADDAA106001091AY161061GF105991051021008001001001MA1999999098851MD1999999-0111MW1011REMSYN082AAXX  08184 82571 21597 50502 10306 20238 39885 40080 7016/ 85200 333 59011 69991;
0173825710999992001010912004-05500-045260FM-12+017499999V0203201N001010042019N0100001N1+02451+02361101351ADDAA124001091GF108991081051004501999999KA1240N+02101MA1999999099671MD1999999+0111REMSYN082AAXX  09124 82571 22497 83202 10245 20236 39967 40135 885// 333 20210 58011 69994;
0179825710999992001010918004-05500-045260FM-12+017499999V0200901N003110450019N0100001N1+03041+02281100931ADDAA199000091GF107991041051008001011001MA1999999098971MD1999999+0121MW1171REMSYN076AAXX  09184 82571 31597 70906 10304 20228 39897 40093 717// 84510 333 58012;EQDQ01  00002PRCP99
0198825710999992001011000004-05500-045260FM-12+017499999V0200501N002110450019N0100001N1+02581+02371101131ADDAA199000091GF106991021011004501071001KA1240M+03091MA1999999099151MD1999999+0031REMSYN088AAXX  10004 82571 32497 60504 10258 20237 39915 40113 82170 333 10309 29084 55032 58003;EQDQ01  00002PRCP99
0186825710999992001011012004-05500-045260FM-12+017499999V0202301N001010042019N0100001N1+02541+02361101341ADDAA199000091GF107991061051004501011001KA1240N+02181MA1999999099361MD1999999-0011REMSYN076AAXX  10124 82571 32497 72302 10254 20236 39936 40134 86510 333 20218 59001;EQDQ01  00002PRCP99
0167825710999992001011018004-05500-045260FM-12+017499999V0203601N001010450019N0100001N1+02901+02321101001ADDAA199000091GF107991031021008001071001MA1999999099041MD1999999+0071REMSYN070AAXX  10184 82571 32597 73602 10290 20232 39904 40100 83270 333 58007;EQDQ01  00002PRCP99
0198825710999992001011100004-05500-045260FM-12+017499999V0202301N003110150019N0100001N1+02581+02441101291ADDAA199000091GF106991061001017501071001KA1240M+02951MA1999999099311MD1999999+0161REMSYN088AAXX  11004 82571 32797 62306 10258 20244 39931 40129 86070 333 10295 29086 55000 58016;EQDQ01  00002PRCP99
0193825710999992001011112004-05500-045260FM-12+017499999V0202701N001010090019N0100001N1+02281+02161101431ADDAA124007991AY161061GF107991071081004501001001KA1240N+02021MA1999999099441MD1999999+0081MW1011REMSYN088AAXX  11124 82571 21497 72702 10228 20216 39944 40143 7016/ 87800 333 20202 58008 60084;
0167825710999992001011118004-05500-045260FM-12+017499999V0200501N001010120019N0100001N1+02651+02311101141ADDAA199000091GF107991071081008001001001MA1999999099161MD1999999+0121REMSYN070AAXX  11184 82571 32597 70502 10265 20231 39916 40114 87800 333 58012;EQDQ01  00002PRCP99
0205825710999992001011200004-05500-045260FM-12+017499999V0201801N001010450019N0100001N1+02461+02361101271ADDAA106000191AY161061GF106991021021004501041001KA1240M+02841MA1999999099281MD1999999-0031MW1021REMSYN100AAXX  12004 82571 21497 61802 10246 20236 39928 40127 7026/ 82240 333 10284 29090 55011 59003 69911;
0173825710999992001011212004-05500-045260FM-12+017499999V0203601N001010042019N0100001N1+02401+02301101401ADDAA124000191GF108991081051004501999999KA1240N+02141MA1999999099411MD1999999-0031REMSYN082AAXX  12124 82571 22497 83602 10240 20230 39941 40140 885// 333 20214 59003 69914;
0167825710999992001011218004-05500-045260FM-12+017499999V0202301N001010450019N0100001N1+02981+02231101001ADDAA199000091GF107991041021008001011001MA1999999099041MD1999999-0121REMSYN070AAXX  12184 82571 32597 72302 10298 20223 39904 40100 84210 333 59012;EQDQ01  00002PRCP99
0213825710999992001011300004-05500-045260FM-12+017499999V0200501N001010450019N0040001N1+02211+02171101381ADDAA106021191AY191061AY261061GF108991031071004501021999KA1240M+03071MA1999999099381MD1999999+0101MW1911REMSYN100AAXX  13004 82571 21496 80502 10221 20217 39938 40138 79196 8372/ 333 10307 29088 55043 58010 60211;
0193825710999992001011312004-05500-045260FM-12+017499999V0201401N001010090019N0100001N1+02281+02071101541ADDAA124034091AY161061GF107991071081004501001001KA1240N+01961MA1999999099531MD1999999+0121MW1021REMSYN088AAXX  13124 82571 21497 71402 10228 20207 39953 40154 7026/ 87800 333 20196 58012 60344;
0167825710999992001011318004-05500-045260FM-12+017499999V0200501N001010120019N0100001N1+02741+02211101131ADDAA199000091GF107991051081008001011001MA1999999099151MD1999999+0111REMSYN070AAXX  13184 82571 32597 70502 10274 20221 39915 40113 85810 333 58011;EQDQ01  00002PRCP99
0198825710999992001011400004-05500-045260FM-12+017499999V0200901N001012200019N0100001N1+02361+02131101291ADDAA199000091GF101991011001017501041001KA1240M+02801MA1999999099291MD1999999-0081REMSYN088AAXX  14004 82571 32797 10902 10236 20213 39929 40129 81040 333 10280 29084 55005 59008;EQDQ01  00002PRCP99
0186825710999992001011412004-05500-045260FM-12+017499999V0202301N001010450019N0100001N1+02321+02221101431ADDAA199000091GF107991041051004501051001KA1240N+01941MA1999999099431MD1999999-0101REMSYN076AAXX  14124 82571 32497 72302 10232 20222 39943 40143 84550 333 20194 59010;EQDQ01  00002PRCP99
0167825710999992001011418004-05500-045260FM-12+017499999V0203601N001012200019N0100001N1+03091+02291101011ADDAA199000091GF105991041021008001001011MA1999999099051MD1999999-0101REMSYN070AAXX  14184 82571 32597 53602 10309 20229 39905 40101 84201 333 59010;EQDQ01  00002PRCP99
0205825710999992001011500004-05500-045260FM-12+017499999V0201401N001010042019N0100001N1+02591+02371101181ADDAA106007991AY161061GF108991081051004501999999KA1240M+03171MA1999999099201MD1999999-0091MW1021REMSYN100AAXX  15004 82571 21497 81402 10259 20237 39920 40118 7026/ 885// 333 10317 29082 55056 59009 60081;
0173825710999992001011512004-05500-045260FM-12+017499999V0202301N001012200019N0100001N1+02551+02311101361ADDAA124007991GF103991031001004501031001KA1240N+02121MA1999999099381MD1999999-0051REMSYN082AAXX  15124 82571 22497 32302 10255 20231 39938 40136 83030 333 20212 59005 60084;
0167825710999992001011518004-05500-045260FM-12+017499999V0200901N002112200019N0100001N1+03151+02171100951ADDAA199000091GF105991041021008001001011MA1999999099001MD1999999-0051REMSYN070AAXX  15184 82571 32597 50904 10315 20217 39900 40095 84201 333 59005;EQDQ01  00002PRCP99
0210825710999992001011600004-05500-045260FM-12+017499999V0200501N001012200019N0100001N1+02701+02261101171ADDAA199000091GF102991021001017501041001KA1240M+03201MA1999999099201MD1999999+0001MW1131REMSYN094AAXX  16004 82571 31797 20502 10270 20226 39920 40117 713// 82040 333 10320 29074 55095 58000;EQDQ01  00002PRCP99
0186825710999992001011612004-05500-045260FM-12+017499999V0201401N001010042019N0100001N1+02381+02171101381ADDAA199000091GF108991081051004501999999KA1240N+02061MA1999999099401MD1999999+0021REMSYN076AAXX  16124 82571 32497 81402 10238 20217 39940 40138 885// 333 20206 58002;EQDQ01  00002PRCP99
0167825710999992001011618004-05500-045260FM-12+017499999V0201401N002110450019N0100001N1+03041+02231101011ADDAA199000091GF105991041021008001011001MA1999999099051MD1999999+0051REMSYN070AAXX  16184 82571 32597 51404 10304 20223 39905 40101 84210 333 58005;EQDQ01  00002PRCP99
0210825710999992001011700004-05500-045260FM-12+017499999V0201401N001012200019N0100001N1+02601+02311101171ADDAA199000091GF101991011001017501041001KA1240M+03131MA1999999099191MD1999999-0011MW1131REMSYN094AAXX  17004 82571 31797 11402 10260 20231 39919 40117 713// 81040 333 10313 29080 55041 59001;EQDQ01  00002PRCP99
0193825710999992001011712004-05500-045260FM-12+017499999V0202301N001010042019N0100001N1+02391+02231101321ADDAA124002091AY161061GF106991051051004501011001KA1240N+02001MA1999999099341MD1999999-0061MW1011REMSYN088AAXX  17124 82571 21497 62302 10239 20223 39934 40132 7016/ 85510 333 20200 59006 60024;
0167825710999992001011718004-05500-045260FM-12+017499999V0201401N002110450019N0100001N1+03071+02271100991ADDAA199000091GF105991031021008001011011MA1999999099041MD1999999-0011REMSYN070AAXX  17184 82571 32597 51404 10307 20227 39904 40099 83211 333 59001;EQDQ01  00002PRCP99
0210825710999992001011800004-05500-045260FM-12+017499999V0200501N001012200019N0100001N1+02621+02311101231ADDAA199000091GF102991021001017501041001KA1240M+03151MA1999999099251MD1999999+0061MW1131REMSYN094AAXX  18004 82571 31797 20502 10262 20231 39925 40123 713// 82040 333 10315 29080 55057 58006;EQDQ01  00002PRCP99
0206825710999992001011812004-05500-045260FM-12+017499999V0202301N001010042019N0100001N1+02401+02311101381ADDAA199000091AY141061GF108991081051004501999999KA1240N+02081MA1999999099401MD1999999+0061MW1021REMSYN082AAXX  18124 82571 31497 82302 10240 20231 39940 40138 7024/ 885// 333 20208 58006;EQDQ01  00002PRCP99
0167825710999992001011818004-05500-045260FM-12+017499999V0201401N002110450019N0100001N1+02991+02241101061ADDAA199000091GF107991031021008001071001MA1999999099101MD1999999+0061REMSYN070AAXX  18184 82571 32597 71404 10299 20224 39910 40106 83270 333 58006;EQDQ01  00002PRCP99
0198825710999992001011900004-05500-045260FM-12+017499999V0202701N001012200019N0100001N1+02661+02391101281ADDAA199000091GF102991021001017501071001KA1240M+03071MA1999999099301MD1999999+0051REMSYN088AAXX  19004 82571 32797 22702 10266 20239 39930 40128 82070 333 10307 29082 55018 58005;EQDQ01  00002PRCP99
0186825710999992001011912004-05500-045260FM-12+017499999V0200501N001010450019N0100001N1+02601+02391101441ADDAA199000091GF105991041021004501011001KA1240N+02061MA1999999099471MD1999999+0071REMSYN076AAXX  19124 82571 32497 50502 10260 20239 39947 40144 84210 333 20206 58007;EQDQ01  00002PRCP99
0167825710999992001011918004-05500-045260FM-12+017499999V0200901N001012200019N0100001N1+03091+02231101131ADDAA199000091GF104991021021008001011011MA1999999099171MD1999999+0071REMSYN070AAXX  19184 82571 32597 40902 10309 20223 39917 40113 82211 333 58007;EQDQ01  00002PRCP99
0228825710999992001012000004-05500-045260FM-12+017499999V0202301N002112200019N0100001N1+02561+02291101321ADDAA199000091AY191061GA1001+999999999GF100991001001999999001001KA1240M+03241MA1999999099351MD1999999+0051MW1021REMSYN088AAXX  20004 82571 31997 02304 10256 20229 39935 40132 7029/ 333 10324 29080 55089 58005;EQDQ01  00002PRCP99
0186825710999992001012012004-05500-045260FM-12+017499999V0202301N001010042019N0100001N1+02411+02311101641ADDAA199000091GF108991081051004501999999KA1240N+02081MA1999999099651MD1999999+0181REMSYN076AAXX  20124 82571 32497 82302 10241 20231 39965 40164 885// 333 20208 58018;EQDQ01  00002PRCP99
0174825710999992001012018004-05500-045260FM-12+017499999V0202701N001010450019N0100001N1+03151+02321101111ADDAA106000191AY161061GF106991041051004501071001MA1999999099151MD1999999-0021MW1021REMSYN082AAXX  20184 82571 21497 62702 10315 20232 39915 40111 7026/ 84570 333 59002 69911;
0218825710999992001012100004-05500-045260FM-12+017499999V0202701N001012200019N0100001N1+02341+02181101371ADDAA199000091AY191061GF102991021001017501041001KA1240M+03211MA1999999099381MD1999999+0031MW1021REMSYN094AAXX  21004 82571 31797 22702 10234 20218 39938 40137 7029/ 82040 333 10321 29084 55045 58003;EQDQ01  00002PRCP99
0173825710999992001012112004-05500-045260FM-12+017499999V0201401N001010042019N0100001N1+02441+02251101531ADDAA124000191GF108991081051004501999999KA1240N+02111MA1999999099541MD1999999-0111REMSYN082AAXX  21124 82571 22497 81402 10244 20225 39954 40153 885// 333 20211 59011 69914;
0179825710999992001012118004-05500-045260FM-12+017499999V0202301N003110450019N0100001N1+02741+02361101231ADDAA199000091GF107991041091004501071001MA1999999099251MD1999999+0101MW1171REMSYN076AAXX  21184 82571 31497 72306 10274 20236 39925 40123 717// 84970 333 58010;EQDQ01  00002PRCP99
0193825710999992001012200004-05500-045260FM-12+017499999V0203201N001010120019N0100001N1+02341+02241101391ADDAA106014091AY191061AY261061GF106991061081008001001001KA1240M+03041MA1999999099401MW1131REMSYN094AAXX  22004 82571 21597 63202 10234 20224 39940 40139 71396 86800 333 10304 29089 55019 60141;
0167825710999992001012218004-05500-045260FM-12+017499999V0200901N001010450019N0100001N1+02931+02331101111ADDAA199000091GF106991021021008001041011MA1999999099141MD1999999-0111REMSYN070AAXX  22184 82571 32597 60902 10293 20233 39914 40111 82241 333 59011;EQDQ01  00002PRCP99
0208825710999992001012300004-05500-045260FM-12+017499999V0209999C000012200019N0100001N1+02671+02391101331ADDAA199000091GA1001+999999999GF100991001001999999001001KA1240M+03031MA1999999099351MD1999999-0051REMSYN082AAXX  23004 82571 32997 00000 10267 20239 39935 40133 333 10303 29083 55075 59005;EQDQ01  00002PRCP99
0186825710999992001012312004-05500-045260FM-12+017499999V0200901N002110042019N0100001N1+02461+02301101571ADDAA199000091GF107991071051004501001001KA1240N+02131MA1999999099591MD1999999+0011REMSYN076AAXX  23124 82571 32497 70904 10246 20230 39959 40157 87500 333 20213 58001;EQDQ01  00002PRCP99
0167825710999992001012318004-05500-045260FM-12+017499999V0200501N003112200019N0100001N1+03061+02331101081ADDAA199000091GF104991031021008001011001MA1999999099121MD1999999-0021REMSYN070AAXX  23184 82571 32597 40506 10306 20233 39912 40108 83210 333 59002;EQDQ01  00002PRCP99
0208825710999992001012400004-05500-045260FM-12+017499999V0202301N001012200019N0100001N1+02671+02241101301ADDAA199000091GA1001+999999999GF100991001001999999001001KA1240M+03171MA1999999099321MD1999999-0031REMSYN082AAXX  24004 82571 32997 02302 10267 20224 39932 40130 333 10317 29078 55071 59003;EQDQ01  00002PRCP99
0186825710999992001012412004-05500-045260FM-12+017499999V0202301N001010042019N0100001N1+02361+02241101611ADDAA199000091GF108991081051004501999999KA1240N+02091MA1999999099621MD1999999+0031REMSYN076AAXX  24124 82571 32497 82302 10236 20224 39962 40161 885// 333 20209 58003;EQDQ01  00002PRCP99
0167825710999992001012418004-05500-045260FM-12+017499999V0202301N001010450019N0100001N1+02841+02421101241ADDAA199000091GF107991041051008001071011MA1999999099271MD1999999+0151REMSYN070AAXX  24184 82571 32597 72302 10284 20242 39927 40124 84571 333 58015;EQDQ01  00002PRCP99
0210825710999992001012500004-05500-045260FM-12+017499999V0202301N001012200019N0100001N1+02611+02421101401ADDAA199000091GF101991011031004501001001KA1240M+02931MA1999999099421MD1999999+0101MW1131REMSYN094AAXX  25004 82571 31497 12302 10261 20242 39942 40140 713// 81300 333 10293 29087 55011 58010;EQDQ01  00002PRCP99
0186825710999992001012512004-05500-045260FM-12+017499999V0201401N001010450019N0100001N1+02481+02341101521ADDAA199000091GF107991021021004501051001KA1240N+02131MA1999999099541MD1999999-0081REMSYN076AAXX  25124 82571 32497 71402 10248 20234 39954 40152 82250 333 20213 59008;EQDQ01  00002PRCP99
0167825710999992001012518004-05500-045260FM-12+017499999V0203601N004112200019N0100001N1+03041+02201101081ADDAA199000091GF103991021021008001001011MA1999999099121MD1999999-0151REMSYN070AAXX  25184 82571 32597 33608 10304 20220 39912 40108 82201 333 59015;EQDQ01  00002PRCP99
0186825710999992001012612004-05500-045260FM-12+017499999V0200501N003110042019N0100001N1+02631+02371101471ADDAA199000091GF106991061021004501001001KA1240N+02121MA1999999099491MD1999999-0051REMSYN076AAXX  26124 82571 32497 60506 10263 20237 39949 40147 86200 333 20212 59005;EQDQ01  00002PRCP99
0167825710999992001012618004-05500-045260FM-12+017499999V0200501N001012200019N0100001N1+03091+02361101051ADDAA199000091GF104991041021008001001001MA1999999099091MD1999999+0031REMSYN070AAXX  26184 82571 32597 40502 10309 20236 39909 40105 84200 333 58003;EQDQ01  00002PRCP99
0218825710999992001012700004-05500-045260FM-12+017499999V0203601N001012200019N0100001N1+02561+02291101251ADDAA199000091AY191061GF102991021001017501041001KA1240M+03181MA1999999099281MD1999999-0091MW1131REMSYN094AAXX  27004 82571 31797 23602 10256 20229 39928 40125 7139/ 82040 333 10318 29080 55081 59009;EQDQ01  00002PRCP99
0186825710999992001012712004-05500-045260FM-12+017499999V0200501N002110042019N0100001N1+02471+02341101421ADDAA199000091GF108991081051004501999999KA1240N+02121MA1999999099441MD1999999-0051REMSYN076AAXX  27124 82571 32497 80504 10247 20234 39944 40142 885// 333 20212 59005;EQDQ01  00002PRCP99
0167825710999992001012718004-05500-045260FM-12+017499999V0203201N001012200019N0100001N1+03111+02331101051ADDAA199000091GF104991041021008001001001MA1999999099091MD1999999+0001REMSYN070AAXX  27184 82571 32597 43202 10311 20233 39909 40105 84200 333 58000;EQDQ01  00002PRCP99
0205825710999992001012800004-05500-045260FM-12+017499999V0200501N001012200019N0100001N1+02581+02351101261ADDAA106000191AY161061GF102991021011004501001001KA1240M+03191MA1999999099181MD1999999+0001MW1021REMSYN100AAXX  28004 82571 21497 20502 10258 20235 39918 40126 7026/ 82100 333 10319 29082 55063 58000 69911;
0173825710999992001012812004-05500-045260FM-12+017499999V0200501N003110042019N0100001N1+02571+02371101411ADDAA124000191GF107991071021004501001001KA1240N+02181MA1999999099441MD1999999+0001REMSYN082AAXX  28124 82571 22497 70506 10257 20237 39944 40141 87200 333 20218 58000 69914;
0174825710999992001012818004-05500-045260FM-12+017499999V0200901N003112200019N0100001N1+03011+02341101011ADDAA106001091AY161061GF104991031021008001011001MA1999999099051MD1999999-0041MW1011REMSYN082AAXX  28184 82571 21597 40906 10301 20234 39905 40101 7016/ 83210 333 59004 60011;
0205825710999992001012900004-05500-045260FM-12+017499999V0200901N001012200019N0100001N1+02621+02411101221ADDAA106002091AY161061GF103991031001017501051001KA1240M+03131MA1999999099251MD1999999-0031MW1021REMSYN100AAXX  29004 82571 21797 30902 10262 20241 39925 40122 7026/ 83050 333 10313 29083 55077 59003 60021;
0173825710999992001012912004-05500-045260FM-12+017499999V0202301N001010042019N0100001N1+02431+02371101391ADDAA124003091GF108991081051004501999999KA1240N+02161MA1999999099411MD1999999-0031REMSYN082AAXX  29124 82571 22497 82302 10243 20237 39941 40139 885// 333 20216 59003 60034;
0167825710999992001012918004-05500-045260FM-12+017499999V0202301N001012200019N0100001N1+03041+02311100871ADDAA199000091GF104991031021008001011001MA1999999098921MD1999999-0131REMSYN070AAXX  29184 82571 32597 42302 10304 20231 39892 40087 83210 333 59013;EQDQ01  00002PRCP99
0218825710999992001013000004-05500-045260FM-12+017499999V0202301N001012200019N0100001N1+02341+02181101101ADDAA199000091AY191061GF102991021001017501041001KA1240M+03141MA1999999099111MD1999999-0141MW1011REMSYN094AAXX  30004 82571 31797 22302 10234 20218 39911 40110 7019/ 82040 333 10314 29086 55057 59014;EQDQ01  00002PRCP99
0186825710999992001013012004-05500-045260FM-12+017499999V0202701N001010042019N0100001N1+02391+02281101281ADDAA199000091GF108991081051004501999999KA1240N+02041MA1999999099291MD1999999-0121REMSYN076AAXX  30124 82571 32497 82702 10239 20228 39929 40128 885// 333 20204 59012;EQDQ01  00002PRCP99
0218825710999992001013100004-05500-045260FM-12+017499999V0203201N002110075019N0100001N1+02481+02361101111ADDAA199000091AY191061GF106991061021008001001001KA1240M+03101MA1999999099131MD1999999+0021MW1021REMSYN094AAXX  31004 82571 31597 63204 10248 20236 39913 40111 7029/ 86200 333 10310 29086 55014 58002;EQDQ01  00002PRCP99
0201825710999992001013112004-05500-045260FM-12+017499999V0202301N001010450019N0100001N1+02221+02191101401ADDAA124026991AY191061AY261061GF108991031071004501021999KA1240N+02051MA1999999099401MD1999999+0111MW1911REMSYN088AAXX  31124 82571 21497 82302 10222 20219 39940 40140 79196 8372/ 333 20205 58011 60274;
0148825710999992001013118004-05500-045260FM-12+017499999V0202701N001010450019N0100001N1+02861+02331100991ADDAA199000021GF106991031021008001011011MA1999999099021MD1999999+0191REMSYN070AAXX  31184 82571 32597 62702 10286 20233 39902 40099 83211 333 58019;
0213825710999992001020100004-05500-045260FM-12+017499999V0202301N001010042019N0100001N1+02221+02141101311ADDAA106002091AY191061AY261061GF107991051051004501011001KA1240M+02971MA1999999099301MD1999999+0171MW1911REMSYN100AAXX  01004 82571 21497 72302 10222 20214 39930 40131 79196 85510 333 10297 29090 55018 58017 60021;
0173825710999992001020112004-05500-045260FM-12+017499999V0202301N002110450019N0100001N1+02321+02181101271ADDAA124002091GF105991041021004501031001KA1240N+02001MA1999999099271MD1999999-0131REMSYN082AAXX  01124 82571 22497 52304 10232 20218 39927 40127 84230 333 20200 59013 60024;
0174825710999992001020118004-05500-045260FM-12+017499999V0202701N001010450019N0100001N1+02731+02301100851ADDAA106001091AY161061GF105991031021008001071001MA1999999098881MD1999999-0141MW1021REMSYN082AAXX  01184 82571 21597 52702 10273 20230 39888 40085 7026/ 83270 333 59014 60011;
0210825710999992001020200004-05500-045260FM-12+017499999V0203201N001010450019N0100001N1+02501+02401101131ADDAA199000091GF105991031021008001071001KA1240M+02841MA1999999099141MD1999999-0161MW1131REMSYN094AAXX  02004 82571 31597 53202 10250 20240 39914 40113 713// 83270 333 10284 29089 55033 59016;EQDQ01  00002PRCP99
0174825710999992001020218004-05500-045260FM-12+017499999V0202301N001010450019N0100001N1+02881+02301100861ADDAA106000191AY161061GF106991041021008001011001MA1999999098901MD1999999+0021MW1021REMSYN082AAXX  02184 82571 21597 62302 10288 20230 39890 40086 7026/ 84210 333 58002 69921;
0192825710999992001020312004-05500-045260FM-12+017499999V0200501N001010075019N0100001N1+02441+02251101341ADDAA124018091GF108991999051008001001001KA1240N+01981MA1999999099351MD1999999+0021REMSYN082AAXX  03124 82571 22597 80502 10244 20225 39935 40134 86500 333 20198 58002 60184;EQDQ01+000062SCOTLC
0167825710999992001020318004-05500-045260FM-12+017499999V0200501N001012200019N0100001N1+02991+02271100921ADDAA199000091GF104991041021008001001001MA1999999098951MD1999999+0051REMSYN070AAXX  03184 82571 32597 40502 10299 20227 39895 40092 84200 333 58005;EQDQ01  00002PRCP99
0198825710999992001020400004-05500-045260FM-12+017499999V0203201N003110075019N0100001N1+02541+02311101121ADDAA199000091GF105991051041008001001001KA1240M+03111MA1999999099141MD1999999-0051REMSYN088AAXX  04004 82571 32597 53206 10254 20231 39914 40112 85400 333 10311 29082 55072 59005;EQDQ01  00002PRCP99
0186825710999992001020412004-05500-045260FM-12+017499999V0203601N003110450019N0100001N1+02521+02311101381ADDAA199000091GF106991041051008001031001KA1240N+02081MA1999999099401MD1999999+0051REMSYN076AAXX  04124 82571 32597 63606 10252 20231 39940 40138 84530 333 20208 58005;EQDQ01  00002PRCP99
0174825710999992001020418004-05500-045260FM-12+017499999V0200501N003110450019N0100001N1+02921+02451101021ADDAA106000591AY161061GF106991031051008001031011MA1999999099051MD1999999+0101MW1031REMSYN082AAXX  04184 82571 21597 60506 10292 20245 39905 40102 7036/ 83531 333 58010 69961;
0213825710999992001020500004-05500-045260FM-12+017499999V0202301N000510042019N0100001N1+02381+02241101291ADDAA106003091AY191061AY261061GF108991081051004501999999KA1240M+02991MA1999999099301MD1999999+0161MW1021REMSYN100AAXX  05004 82571 21497 82301 10238 20224 39930 40129 70296 885// 333 10299 29087 55050 58016 60031;
0179825710999992001020512004-05500-045260FM-12+017499999V0200901N001010450019N0100001N1+02421+02351101441ADDAA124004191AY161061GF105991041021004501011001KA1240N+02061MA1999999099451MW1011REMSYN088AAXX  05124 82571 21497 50902 10242 20235 39945 40144 7016/ 84210 333 20206 50805 60044;
0167825710999992001020518004-05500-045260FM-12+017499999V0201801N002112200019N0100001N1+03061+02351101001ADDAA199000091GF104991031021008001011001MA1999999099041MD1999999-0011REMSYN070AAXX  05184 82571 32597 41804 10306 20235 39904 40100 83210 333 59001;EQDQ01  00002PRCP99
0210825710999992001020600004-05500-045260FM-12+017499999V0201801N003110450019N0100001N1+02721+02451101341ADDAA199000091GF105991031031004501011001KA1240M+03171MA1999999099361MD1999999+0061MW1171REMSYN094AAXX  06004 82571 31497 51806 10272 20245 39936 40134 717// 83310 333 10317 29083 55077 58006;EQDQ01  00002PRCP99
0201825710999992001020612004-05500-045260FM-12+017499999V0202301N001010042019N0100001N1+02351+02261101491ADDAA124004191AY191061AY261061GF107991071051004501001001KA1240N+01981MA1999999099511MD1999999+0061MW1011REMSYN088AAXX  06124 82571 21497 72302 10235 20226 39951 40149 70196 87500 333 20198 58006 60044;
0167825710999992001020618004-05500-045260FM-12+017499999V0200501N001012200019N0100001N1+03101+02291100991ADDAA199000091GF104991031021008001001011MA1999999099031MD1999999-0011REMSYN070AAXX  06184 82571 32597 40502 10310 20229 39903 40099 83201 333 59001;EQDQ01  00002PRCP99
0210825710999992001020700004-05500-045260FM-12+017499999V0202701N001012200019N0100001N1+02621+02461101151ADDAA199000091GF102991021001017501041001KA1240M+03181MA1999999099171MD1999999-0191MW1131REMSYN094AAXX  07004 82571 31797 22702 10262 20246 39917 40115 713// 82040 333 10318 29084 55071 59019;EQDQ01  00002PRCP99
0186825710999992001020712004-05500-045260FM-12+017499999V0203201N001010042019N0100001N1+02481+02361101371ADDAA199000091GF108991081051004501999999KA1240N+02141MA1999999099391MD1999999-0121REMSYN076AAXX  07124 82571 32497 83202 10248 20236 39939 40137 885// 333 20214 59012;EQDQ01  00002PRCP99
0167825710999992001020718004-05500-045260FM-12+017499999V0203601N002112200019N0100001N1+03101+02311100981ADDAA199000091GF104991031021008001001011MA1999999099031MD1999999+0001REMSYN070AAXX  07184 82571 32597 43604 10310 20231 39903 40098 83201 333 58000;EQDQ01  00002PRCP99
0198825710999992001020800004-05500-045260FM-12+017499999V0203201N001012200019N0100001N1+02711+02451101091ADDAA199000091GF101991011001017501031001KA1240M+03161MA1999999099121MD1999999-0051REMSYN088AAXX  08004 82571 32797 13202 10271 20245 39912 40109 81030 333 10316 29082 55080 59005;EQDQ01  00002PRCP99
0180825710999992001020812004-05500-045260FM-12+017499999V0200501N002110042019N0100001N1+99999+99999101321ADDAA199000091GF106991061021004501001001KA1240N+02181MA1999999099351MD1999999-0041REMSYN070AAXX  08124 82571 32497 60504 20237 39935 40132 86200 333 20218 59004;EQDQ01  00002PRCP99
0167825710999992001020818004-05500-045260FM-12+017499999V0200501N001012200019N0100001N1+03181+02251100911ADDAA199000091GF103991031021008001001001MA1999999098961MD1999999-0071REMSYN070AAXX  08184 82571 32597 30502 10318 20225 39896 40091 83200 333 59007;EQDQ01  00002PRCP99
0193825710999992001020912004-05500-045260FM-12+017499999V0202301N001010450019N0100001N1+02321+02241101221ADDAA124002091AY161061GF106991031021004501031001KA1240N+02061MA1999999099241MD1999999-0111MW1011REMSYN088AAXX  09124 82571 21497 62302 10232 20224 39924 40122 7016/ 83230 333 20206 59011 60024;
0167825710999992001020918004-05500-045260FM-12+017499999V0201801N002110450019N0100001N1+03041+02331100731ADDAA199000091GF105991031051008001011001MA1999999098781MD1999999-0181REMSYN070AAXX  09184 82571 32597 51804 10304 20233 39878 40073 83510 333 59018;EQDQ01  00002PRCP99
0210825710999992001021000004-05500-045260FM-12+017499999V0200501N004110042019N0100001N1+02391+02151101131ADDAA199000091GF107991071051004501001001KA1240M+03111MA1999999099141MD1999999+0111MW1131REMSYN094AAXX  10004 82571 31497 70508 10239 20215 39914 40113 713// 87500 333 10311 29083 55043 58011;EQDQ01  00002PRCP99
0186825710999992001021012004-05500-045260FM-12+017499999V0201401N001010042019N0100001N1+02481+02191101251ADDAA199000091GF107991071021004501001001KA1240N+02031MA1999999099261MD1999999+0021REMSYN076AAXX  10124 82571 32497 71402 10248 20219 39926 40125 87200 333 20203 58002;EQDQ01  00002PRCP99
0198825710999992001021100004-05500-045260FM-12+017499999V0202301N001012200019N0100001N1+02681+02431101071ADDAA199000091GF103991031001017501041001KA1240M+03081MA1999999099101MD1999999-0041REMSYN088AAXX  11004 82571 32797 32302 10268 20243 39910 40107 83040 333 10308 29081 55068 59004;EQDQ01  00002PRCP99
0186825710999992001021112004-05500-045260FM-12+017499999V0202301N001010450019N0100001N1+02381+02281101361ADDAA199000091GF106991031021004501031001KA1240N+02061MA1999999099381MD1999999+0121REMSYN076AAXX  11124 82571 32497 62302 10238 20228 39938 40136 83230 333 20206 58012;EQDQ01  00002PRCP99
0167825710999992001021118004-05500-045260FM-12+017499999V0200901N002112200019N0100001N1+03011+02291100941ADDAA199000091GF103991021021008001011001MA1999999098981MD1999999+0101REMSYN070AAXX  11184 82571 32597 30904 10301 20229 39898 40094 82210 333 58010;EQDQ01  00002PRCP99
0218825710999992001021200004-05500-045260FM-12+017499999V0202701N001012200019N0100001N1+02521+02341101191ADDAA199000091AY191061GF103991021021004501041001KA1240M+03121MA1999999099211MD1999999+0111MW1131REMSYN094AAXX  12004 82571 31497 32702 10252 20234 39921 40119 7139/ 82240 333 10312 29085 55046 58011;EQDQ01  00002PRCP99
0186825710999992001021212004-05500-045260FM-12+017499999V0200501N001010042019N0100001N1+02531+02401101301ADDAA199000091GF107991071021004501001001KA1240N+02121MA1999999099321MD1999999-0061REMSYN076AAXX  12124 82571 32497 70502 10253 20240 39932 40130 87200 333 20212 59006;EQDQ01  00002PRCP99
0167825710999992001021218004-05500-045260FM-12+017499999V0201401N001012200019N0100001N1+03121+02411100981ADDAA199000091GF104991031021004501001011MA1999999099031MD1999999+0051REMSYN070AAXX  12184 82571 32497 41402 10312 20241 39903 40098 83201 333 58005;EQDQ01  00002PRCP99
0213825710999992001021300004-05500-045260FM-12+017499999V0203601N004112200019N0100001N1+02521+02231101251ADDAA106000191AY191061AY261061GF103991031021004501001001KA1240M+03171MA1999999099271MD1999999+0061MW1131REMSYN100AAXX  13004 82571 21497 33608 10252 20223 39927 40125 71396 83200 333 10317 29082 55066 58006 69911;
0173825710999992001021312004-05500-045260FM-12+017499999V0200501N003110450019N0100001N1+02481+02191101251ADDAA124000191GF106991021051008001031011KA1240N+02121MA1999999099271MD1999999-0051REMSYN082AAXX  13124 82571 22597 60506 10248 20219 39927 40125 82531 333 20212 59005 69914;
0167825710999992001021318004-05500-045260FM-12+017499999V0201401N001011050019N0100001N1+03031+02231100931ADDAA199000091GF105991021021008001031011MA1999999098971MD1999999-0061REMSYN070AAXX  13184 82571 32597 51402 10303 20223 39897 40093 82231 333 59006;EQDQ01  00002PRCP99
0208825710999992001021400004-05500-045260FM-12+017499999V0201801N001012200019N0100001N1+02661+02371101111ADDAA199000091GA1001+999999999GF100991001001999999001001KA1240M+03141MA1999999099141MD1999999-0131REMSYN082AAXX  14004 82571 32997 01802 10266 20237 39914 40111 333 10314 29078 55065 59013;EQDQ01  00002PRCP99
0193825710999992001021412004-05500-045260FM-12+017499999V0202301N001010075019N0100001N1+02271+02231101331ADDAA124023191AY161061GF108991081051008001999999KA1240N+02051MA1999999099341MD1999999+0071MW1021REMSYN088AAXX  14124 82571 21597 82302 10227 20223 39934 40133 7026/ 885// 333 20205 58007 60234;
0193825710999992001021418004-05500-045260FM-12+017499999V0203601N001010075019N0100001N1+02711+02221101021ADDAA106000191AY161061GF108991999051008001001001MA1999999099041MD1999999+0071MW1011REMSYN082AAXX  14184 82571 21597 83602 10271 20222 39904 40102 7016/ 86500 333 58007 69911;EQDQ01+000062SCOTLC
0220825710999992001021500004-05500-045260FM-12+017499999V0203201N001012200019N0100001N1+02501+02291101121ADDAA199000091GA1001+999999999GF100991001001999999001001KA1240M+02791MA1999999099131MD1999999+0011MW1131REMSYN088AAXX  15004 82571 31997 03202 10250 20229 39913 40112 713// 333 10279 29087 55016 58001;EQDQ01  00002PRCP99
0173825710999992001021512004-05500-045260FM-12+017499999V0200501N001011050019N0100001N1+02561+02381101301ADDAA124000191GF105991021021008001031011KA1240N+02061MA1999999099321MD1999999-0021REMSYN082AAXX  15124 82571 22597 50502 10256 20238 39932 40130 82231 333 20206 59002 69914;
0167825710999992001021518004-05500-045260FM-12+017499999V0201801N003111050019N0100001N1+03001+02291100861ADDAA199000091GF105991021031008001031011MA1999999098901MD1999999-0141REMSYN070AAXX  15184 82571 32597 51806 10300 20229 39890 40086 82331 333 59014;EQDQ01  00002PRCP99
0208825710999992001021600004-05500-045260FM-12+017499999V0209999C000012200019N0100001N1+02561+02291101051ADDAA199000091GA1001+999999999GF100991001001999999001001KA1240M+03131MA1999999099081MD1999999-0051REMSYN082AAXX  16004 82571 32997 00000 10256 20229 39908 40105 333 10313 29082 55068 59005;EQDQ01  00002PRCP99
0186825710999992001021612004-05500-045260FM-12+017499999V0203201N001010450019N0100001N1+02501+02381101301ADDAA199000091GF106991041051008001031001KA1240N+02151MA1999999099331MD1999999+0011REMSYN076AAXX  16124 82571 32597 63202 10250 20238 39933 40130 84530 333 20215 58001;EQDQ01  00002PRCP99
0167825710999992001021618004-05500-045260FM-12+017499999V0201401N001010075019N0100001N1+02841+02241101011ADDAA199000091GF108991081051008001999999MA1999999099041MD1999999+0141REMSYN070AAXX  16184 82571 32597 81402 10284 20224 39904 40101 885// 333 58014;EQDQ01  00002PRCP99
0210825710999992001021700004-05500-045260FM-12+017499999V0201801N001010042019N0100001N1+02321+02181101191ADDAA199000091GF108991081051004501999999KA1240M+03041MA1999999099201MD1999999+0121MW1131REMSYN094AAXX  17004 82571 31497 81802 10232 20218 39920 40119 713// 885// 333 10304 29087 55020 58012;EQDQ01  00002PRCP99
0186825710999992001021712004-05500-045260FM-12+017499999V0202301N001010075019N0100001N1+02371+02281101441ADDAA199000091GF108991081051008001999999KA1240N+02111MA1999999099441MD1999999+0111REMSYN076AAXX  17124 82571 32597 82302 10237 20228 39944 40144 885// 333 20211 58011;EQDQ01  00002PRCP99
0167825710999992001021718004-05500-045260FM-12+017499999V0203601N001010450019N0100001N1+03111+02361101041ADDAA199000091GF105991031021008001031001MA1999999099081MD1999999+0041REMSYN070AAXX  17184 82571 32597 53602 10311 20236 39908 40104 83230 333 58004;EQDQ01  00002PRCP99
0213825710999992001021800004-05500-045260FM-12+017499999V0202301N001010042019N0100001N1+02451+02281101381ADDAA106002091AY191061AY261061GF108991081051004501999999KA1240M+03171MA1999999099391MD1999999+0191MW1131REMSYN100AAXX  18004 82571 21497 82302 10245 20228 39939 40138 71396 885// 333 10317 29084 55050 58019 60021;
0193825710999992001021812004-05500-045260FM-12+017499999V0200501N001010450019N0100001N1+02491+02321101541ADDAA124003091AY161061GF106991041051008001031001KA1240N+02151MA1999999099551MD1999999+0111MW1021REMSYN088AAXX  18124 82571 21597 60502 10249 20232 39955 40154 7026/ 84530 333 20215 58011 60034;
0167825710999992001021818004-05500-045260FM-12+017499999V0200501N001010450019N0100001N1+02901+02171101221ADDAA199000091GF106991041051008001031001MA1999999099251MD1999999+0171REMSYN070AAXX  18184 82571 32597 60502 10290 20217 39925 40122 84530 333 58017;EQDQ01  00002PRCP99
0208825710999992001021900004-05500-045260FM-12+017499999V0200501N001012200019N0100001N1+02541+02361101371ADDAA199000091GA1001+999999999GF100991001001999999001001KA1240M+02991MA1999999099391MD1999999+0001REMSYN082AAXX  19004 82571 32997 00502 10254 20236 39939 40137 333 10299 29084 55041 58000;EQDQ01  00002PRCP99
0201825710999992001021912004-05500-045260FM-12+017499999V0201801N001010042019N0100001N1+02341+02261101511ADDAA124014091AY191061AY261061GF107991071051004501001001KA1240N+02061MA1999999099521MD1999999-0031MW1601REMSYN088AAXX  19124 82571 21497 71802 10234 20226 39952 40151 76096 87500 333 20206 59003 60144;
0148825710999992001021918004-05500-045260FM-12+017499999V0201401N001010075019N0100001N1+02861+02261101281ADDAA199000021GF107991061021008001051001MA1999999099311MD1999999+0061REMSYN070AAXX  19184 82571 32597 71402 10286 20226 39931 40128 86250 333 58006;
0179825710999992001022000004-05500-045260FM-12+017499999V0202701N001012200019N0100001N1+02541+02381101381ADDAA199000021GF101991011021004501001001KA1240M+02921MA1999999099391MD1999999+0001REMSYN088AAXX  20004 82571 32497 12702 10254 20238 39939 40138 81200 333 10292 29087 55003 58000;
0193825710999992001022012004-05500-045260FM-12+017499999V0202701N001010042019N0100001N1+02411+02301101501ADDAA124002091AY161061GF108991081051004501999999KA1240N+02151MA1999999099511MD1999999-0011MW1021REMSYN088AAXX  20124 82571 21497 82702 10241 20230 39951 40150 7026/ 885// 333 20215 59001 60024;
0167825710999992001022018004-05500-045260FM-12+017499999V0201401N001010450019N0100001N1+02961+02231101031ADDAA199000091GF105991031021008001031001MA1999999099071MD1999999-0241REMSYN070AAXX  20184 82571 32597 51402 10296 20223 39907 40103 83230 333 59024;EQDQ01  00002PRCP99
0198825710999992001022100004-05500-045260FM-12+017499999V0201401N004112200019N0100001N1+02461+02171101361ADDAA199000091GF104991041021004501001001KA1240M+03041MA1999999099371MD1999999-0021REMSYN088AAXX  21004 82571 32497 41408 10246 20217 39937 40136 84200 333 10304 29082 55025 59002;EQDQ01  00002PRCP99
0186825710999992001022112004-05500-045260FM-12+017499999V0201401N001010042019N0100001N1+02381+02241101301ADDAA199000091GF108991081051004501999999KA1240N+02051MA1999999099311MD1999999-0201REMSYN076AAXX  21124 82571 32497 81402 10238 20224 39931 40130 885// 333 20205 59020;EQDQ01  00002PRCP99
0174825710999992001022118004-05500-045260FM-12+017499999V0203601N002110450019N0100001N1+02781+02341101001ADDAA106000591AY161061GF106991031021008001071001MA1999999099031MD1999999-0041MW1021REMSYN082AAXX  21184 82571 21597 63604 10278 20234 39903 40100 7026/ 83270 333 59004 69941;
0198825710999992001022200004-05500-045260FM-12+017499999V0201801N001012200019N0100001N1+02541+02351101151ADDAA199000091GF103991031021008001001001KA1240M+02921MA1999999099171MD1999999-0201REMSYN088AAXX  22004 82571 32597 31802 10254 20235 39917 40115 83200 333 10292 29087 55022 59020;EQDQ01  00002PRCP99
0193825710999992001022212004-05500-045260FM-12+017499999V0202301N001012200019N0100001N1+02401+02231101281ADDAA124006191AY161061GF104991031021004501031001KA1240N+02031MA1999999099291MD1999999-0021MW1011REMSYN088AAXX  22124 82571 21497 42302 10240 20223 39929 40128 7016/ 83230 333 20203 59002 60064;
0174825710999992001022218004-05500-045260FM-12+017499999V0201401N002112200019N0100001N1+02941+02381100891ADDAA106000191AY161061GF104991031021008001001011MA1999999098931MD1999999-0101MW1031REMSYN082AAXX  22184 82571 21597 41404 10294 20238 39893 40089 7036/ 83201 333 59010 69911;
0198825710999992001022300004-05500-045260FM-12+017499999V0200901N001012200019N0100001N1+02621+02421101051ADDAA199000091GF102991021001017501011001KA1240M+03051MA1999999099071MD1999999-0101REMSYN088AAXX  23004 82571 32797 20902 10262 20242 39907 40105 82010 333 10305 29085 55077 59010;EQDQ01  00002PRCP99
0193825710999992001022312004-05500-045260FM-12+017499999V0202301N001010075019N0100001N1+02151+02091101341ADDAA124016091AY161061GF108991081051008001999999KA1240N+01921MA1999999099351MD1999999+0061MW1021REMSYN088AAXX  23124 82571 21597 82302 10215 20209 39935 40134 7026/ 885// 333 20192 58006 60164;
0167825710999992001022318004-05500-045260FM-12+017499999V0200501N001010450019N0100001N1+02801+02381101051ADDAA199000091GF106991031051008001031011MA1999999099091MD1999999+0161REMSYN070AAXX  23184 82571 32597 60502 10280 20238 39909 40105 83531 333 58016;EQDQ01  00002PRCP99
0208825710999992001022400004-05500-045260FM-12+017499999V0200501N001012200019N0100001N1+02521+02421101181ADDAA199000091GA1001+999999999GF100991001001999999001001KA1240M+02891MA1999999099191MD1999999+0021REMSYN082AAXX  24004 82571 32997 00502 10252 20242 39919 40118 333 10289 29090 55021 58002;EQDQ01  00002PRCP99
0193825710999992001022412004-05500-045260FM-12+017499999V0203201N001010450019N0100001N1+02321+02091101311ADDAA124003091AY161061GF106991021051008001031011KA1240N+01951MA1999999099321MD1999999-0031MW1011REMSYN088AAXX  24124 82571 21597 63202 10232 20209 39932 40131 7016/ 82531 333 20195 59003 60034;
0167825710999992001022418004-05500-045260FM-12+017499999V0200501N001010450019N0100001N1+03041+02451100911ADDAA199000091GF106991031021008001031001MA1999999098951MD1999999-0141REMSYN070AAXX  24184 82571 32597 60502 10304 20245 39895 40091 83230 333 59014;EQDQ01  00002PRCP99
0213825710999992001022500004-05500-045260FM-12+017499999V0203201N000510042019N0100001N1+02311+02151101111ADDAA106002091AY191061AY261061GF108991081051004501999999KA1240M+03151MA1999999099121MD1999999-0071MW1131REMSYN100AAXX  25004 82571 21497 83201 10231 20215 39912 40111 71396 885// 333 10315 29084 55049 59007 60021;
0193825710999992001022512004-05500-045260FM-12+017499999V0202701N001012200019N0100001N1+02481+02231101271ADDAA124003091AY161061GF106991031001017501031011KA1240N+02001MA1999999099281MD1999999-0041MW1011REMSYN088AAXX  25124 82571 21797 62702 10248 20223 39928 40127 7016/ 83031 333 20200 59004 60034;
0210825710999992001022600004-05500-045260FM-12+017499999V0202301N001010075019N0100001N1+02461+02361100881ADDAA199000091GF108991081051008001999999KA1240M+03041MA1999999098901MD1999999-0221MW1131REMSYN094AAXX  26004 82571 31597 82302 10246 20236 39890 40088 713// 885// 333 10304 29085 55066 59022;EQDQ01  00002PRCP99
0173825710999992001022612004-05500-045260FM-12+017499999V0202701N001010075019N0100001N1+02421+02231101261ADDAA124000191GF108991081051008001999999KA1240N+02011MA1999999099271MD1999999-0011REMSYN082AAXX  26124 82571 22597 82702 10242 20223 39927 40126 885// 333 20201 59001 69914;
0174825710999992001022618004-05500-045260FM-12+017499999V0203201N001010450019N0100001N1+02861+02351100901ADDAA106000191AY161061GF106991031051008001031011MA1999999098941MD1999999+0111MW1031REMSYN082AAXX  26184 82571 21597 63202 10286 20235 39894 40090 7036/ 83531 333 58011 69911;
0205825710999992001022700004-05500-045260FM-12+017499999V0202301N001010042019N0100001N1+02451+02211101151ADDAA106001091AY161061GF108991081051004501999999KA1240M+02891MA1999999099171MD1999999+0271MW1021REMSYN100AAXX  27004 82571 21497 82302 10245 20221 39917 40115 7026/ 885// 333 10289 29084 55003 58027 60011;
0193825710999992001022712004-05500-045260FM-12+017499999V0201801N001010075019N0100001N1+02361+02221101331ADDAA124002091AY161061GF108991081051008001999999KA1240N+01981MA1999999099341MD1999999+0071MW1031REMSYN088AAXX  27124 82571 21597 81802 10236 20222 39934 40133 7036/ 885// 333 20198 58007 60024;
0167825710999992001022718004-05500-045260FM-12+017499999V0202301N001012200019N0100001N1+02921+02341100961ADDAA199000091GF104991021021008001031001MA1999999098991MD1999999-0051REMSYN070AAXX  27184 82571 32597 42302 10292 20234 39899 40096 82230 333 59005;EQDQ01  00002PRCP99
0210825710999992001022800004-05500-045260FM-12+017499999V0200501N001010150019N0100001N1+02651+02351101171ADDAA199000091GF105991051001017501031001KA1240M+03071MA1999999099191MD1999999+0021MW1131REMSYN094AAXX  28004 82571 31797 50502 10265 20235 39919 40117 713// 85030 333 10307 29082 55042 58002;EQDQ01  00002PRCP99
0167825710999992001022812004-05500-045260FM-12+017499999V0202301N001019999999N0100001N1+02321+02251101381ADDAA124003091AY161061KA1240N+02111MA1999999099401MD1999999+0061MW1021REMSYN088AAXX  28124 82571 21597 /2302 10232 20225 39940 40138 7026/ 885// 333 20211 58006 60034;
0167825710999992001022818004-05500-045260FM-12+017499999V0202301N001012200019N0100001N1+03041+02431100941ADDAA199000091GF105991041021008001001011MA1999999098981MD1999999-0011REMSYN070AAXX  28184 82571 32597 52302 10304 20243 39898 40094 84201 333 59001;EQDQ01  00002PRCP99
0213825710999992001030100004-05500-045260FM-12+017499999V0201401N001010042019N0100001N1+02411+02371101151ADDAA106019191AY191061AY261061GF108991081051004501999999KA1240M+03171MA1999999099161MD1999999-0031MW1611REMSYN100AAXX  01004 82571 21497 81402 10241 20237 39916 40115 76196 885// 333 10317 29090 55036 59003 60191;
0193825710999992001030112004-05500-045260FM-12+017499999V0201401N001010075019N0100001N1+02311+02241101401ADDAA124050091AY161061GF108991081051008001999999KA1240N+02061MA1999999099401MD1999999+0001MW1021REMSYN088AAXX  01124 82571 21597 81402 10231 20224 39940 40140 7026/ 885// 333 20206 58000 60504;
0167825710999992001030118004-05500-045260FM-12+017499999V0203601N001010450019N0100001N1+02921+02361101031ADDAA199000091GF106991021021008001031011MA1999999099061MD1999999+0081REMSYN070AAXX  01184 82571 32597 63602 10292 20236 39906 40103 82231 333 58008;EQDQ01  00002PRCP99
0213825710999992001030200004-05500-045260FM-12+017499999V0200501N001010075019N0100001N1+02581+02441101151ADDAA106000191AY101061AY261061GF106991061061008001001001KA1240M+03181MA1999999099271MD1999999+0011MW1131REMSYN100AAXX  02004 82571 21597 60502 10258 20244 39927 40115 71306 86600 333 10318 29088 55031 58001 69921;
0173825710999992001030212004-05500-045260FM-12+017499999V0202301N001010075019N0100001N1+02431+02391101431ADDAA124000191GF108991081051008001999999KA1240N+02131MA1999999099451MD1999999+0051REMSYN082AAXX  02124 82571 22597 82302 10243 20239 39945 40143 885// 333 20213 58005 69924;
0174825710999992001030218004-05500-045260FM-12+017499999V0203601N001010075019N0100001N1+02661+02411101131ADDAA106000191AY161061GF108991081051008001999999MA1999999099151MD1999999+0091MW1021REMSYN082AAXX  02184 82571 21597 83602 10266 20241 39915 40113 7026/ 885// 333 58009 69911;
0198825710999992001030300004-05500-045260FM-12+017499999V0201801N001010075019N0100001N1+02361+02331101291ADDAA199000091GF108991081071008001999999KA1240M+02881MA1999999099301MD1999999+0131REMSYN088AAXX  03004 82571 32597 81802 10236 20233 39930 40129 887// 333 10288 29094 5505/ 58013;EQDQ01  00002PRCP99
0201825710999992001030312004-05500-045260FM-12+017499999V0202301N001010075019N0100001N1+02341+02291101531ADDAA124013091AY191061AY261061GF108991081051008001999999KA1240N+02111MA1999999099531MD1999999+0081MW1601REMSYN088AAXX  03124 82571 21597 82302 10234 20229 39953 40153 76096 885// 333 20211 58008 60134;
0148825710999992001030318004-05500-045260FM-12+017499999V0202301N001012200019N0100001N1+02841+02461101181ADDAA199000021GF106991041051008001001011MA1999999099201MD1999999+0051REMSYN070AAXX  03184 82571 32597 62302 10284 20246 39920 40118 84501 333 58005;
0236825710999992001030400004-05500-045260FM-12+017499999V0203201N001012200019N0100001N1+02591+02551101291ADDAA106002091AY161061AY211061GA1001+999999999GF100991001001999999001001KA1240M+03161MA1999999099301MD1999999+0001REMSYN094AAXX  04004 82571 21597 03202 10259 20255 39930 40129 76361 333 10316 29093 55024 58000 60021;EQDQ01+000632PRSWM1
0193825710999992001030412004-05500-045260FM-12+017499999V0203201N001012200019N0100001N1+02561+02491101391ADDAA124002091AY141061GF106991041021008001001011KA1240N+02141MA1999999099411MD1999999-0121MW1011REMSYN088AAXX  04124 82571 21597 63202 10256 20249 39941 40139 7014/ 84201 333 20214 59012 60024;
0167825710999992001030418004-05500-045260FM-12+017499999V0201801N001012200019N0100001N1+03191+02481101011ADDAA199000091GF103991031021008001001001MA1999999099061MD1999999-0141REMSYN070AAXX  04184 82571 32597 31802 10319 20248 39906 40101 83200 333 59014;EQDQ01  00002PRCP99
0210825710999992001030500004-05500-045260FM-12+017499999V0202301N001012200019N0100001N1+02571+02291101281ADDAA199000091GF102991021001017501031001KA1240M+03271MA1999999099301MD1999999+0001MW1131REMSYN094AAXX  05004 82571 31797 22302 10257 20229 39930 40128 713// 82030 333 10327 29082 55073 58000;EQDQ01  00002PRCP99
0186825710999992001030512004-05500-045260FM-12+017499999V0200501N001012200019N0100001N1+02531+02441101391ADDAA199000091GF103991031021004501001001KA1240N+02061MA1999999099411MD1999999+0001REMSYN076AAXX  05124 82571 32497 30502 10253 20244 39941 40139 83200 333 20206 58000;EQDQ01  00002PRCP99
0182825710999992001030518004-05500-045260FM-12+017499999V0201401N002110450019N0100001N1+02951+02511100971ADDAA106007191AY191061AY261061GF105991031051004501041001MA1999999099011MD1999999-0051MW1171REMSYN082AAXX  05184 82571 21497 51404 10295 20251 39901 40097 71796 83540 333 59005 60071;
0218825710999992001030600004-05500-045260FM-12+017499999V0201801N001012200019N0100001N1+02391+02311101181ADDAA199000091AY191061GF102991021001017501041001KA1240M+03051MA1999999099201MD1999999-0101MW1131REMSYN094AAXX  06004 82571 31797 21802 10239 20231 39920 40118 7139/ 82040 333 10305 29090 55053 59010;EQDQ01  00002PRCP99
0173825710999992001030612004-05500-045260FM-12+017499999V0202301N001010450019N0100001N1+02391+02351101501ADDAA124007191GF106991031021004501011001KA1240N+02021MA1999999099511MD1999999+0101REMSYN082AAXX  06124 82571 22497 62302 10239 20235 39951 40150 83210 333 20202 58010 60074;
0167825710999992001030618004-05500-045260FM-12+017499999V0200901N002111050019N0100001N1+03071+02371101091ADDAA199000091GF105991021021008001041011MA1999999099131MD1999999+0121REMSYN070AAXX  06184 82571 32597 50904 10307 20237 39913 40109 82241 333 58012;EQDQ01  00002PRCP99
0198825710999992001030700004-05500-045260FM-12+017499999V0209999C000012200019N0100001N1+02711+02481101271ADDAA199000091GF102991011011008001011001KA1240M+03171MA1999999099291MD1999999+0091REMSYN088AAXX  07004 82571 32597 20000 10271 20248 39929 40127 81110 333 10317 29084 55063 58009;EQDQ01  00002PRCP99
0206825710999992001030712004-05500-045260FM-12+017499999V0202301N001010450019N0100001N1+02481+02411101541ADDAA199000091AY141061GF107991041021004501051001KA1240N+02141MA1999999099561MD1999999+0051MW1021REMSYN082AAXX  07124 82571 31497 72302 10248 20241 39956 40154 7024/ 84250 333 20214 58005;EQDQ01  00002PRCP99
0152825710999992001030718004-05500-045260FM-12+017499999V0202301N001010450019N0100001N1+02691+02391101201ADDAA106001091GF106991041051004501041001MA1999999099221MW1951REMSYN082AAXX  07184 82571 21497 62302 10269 20239 39922 40120 795// 84540 333 5809/ 60011;
0173825710999992001030812004-05500-045260FM-12+017499999V0200501N002110042019N0100001N1+02491+02311101531ADDAA124001091GF106991051021004501031001KA1240N+02111MA1999999099541MD1999999-0021REMSYN082AAXX  08124 82571 22497 60504 10249 20231 39954 40153 85230 333 20211 59002 60014;
0167825710999992001030818004-05500-045260FM-12+017499999V0200501N002112200019N0100001N1+03121+02331101161ADDAA199000091GF103991021021008001011001MA1999999099201MD1999999-0021REMSYN070AAXX  08184 82571 32597 30504 10312 20233 39920 40116 82210 333 59002;EQDQ01  00002PRCP99
0198825710999992001030900004-05500-045260FM-12+017499999V0200501N001012200019N0100001N1+02451+02231101281ADDAA199000091GF102991021001017501031001KA1240M+03221MA1999999099291MD1999999-0181REMSYN088AAXX  09004 82571 32797 20502 10245 20223 39929 40128 82030 333 10322 29082 55068 59018;EQDQ01  00002PRCP99
0186825710999992001030912004-05500-045260FM-12+017499999V0203601N002110042019N0100001N1+02631+02441101391ADDAA199000091GF106991061021004501001001KA1240N+02111MA1999999099411MD1999999-0131REMSYN076AAXX  09124 82571 32497 63604 10263 20244 39941 40139 86200 333 20211 59013;EQDQ01  00002PRCP99
0210825710999992001031000004-05500-045260FM-12+017499999V0200501N005110450019N0100001N1+02481+02301101231ADDAA199000091GF106991021011004501041001KA1240M+03161MA1999999099251MD1999999-0041MW1131REMSYN094AAXX  10004 82571 31497 60510 10248 20230 39925 40123 713// 82140 333 10316 29084 55082 59004;EQDQ01  00002PRCP99
0186825710999992001031012004-05500-045260FM-12+017499999V0200501N001010042019N0100001N1+02591+02331101301ADDAA199000091GF106991051021004501011001KA1240N+02141MA1999999099321MD1999999-0091REMSYN076AAXX  10124 82571 32497 60502 10259 20233 39932 40130 85210 333 20214 59009;EQDQ01  00002PRCP99
0167825710999992001031018004-05500-045260FM-12+017499999V0200501N002110450019N0100001N1+02991+02371100901ADDAA199000091GF105991031021008001011011MA1999999098941MD1999999+0001REMSYN070AAXX  10184 82571 32597 50504 10299 20237 39894 40090 83211 333 58000;EQDQ01  00002PRCP99
0198825710999992001031100004-05500-045260FM-12+017499999V0200501N001010150019N0100001N1+02581+02381101211ADDAA199000091GF105991051001017501071001KA1240M+03121MA1999999099241MD1999999-0011REMSYN088AAXX  11004 82571 32797 50502 10258 20238 39924 40121 85070 333 10312 29083 55082 59001;EQDQ01  00002PRCP99
0186825710999992001031112004-05500-045260FM-12+017499999V0202701N002110450019N0100001N1+02561+02351101381ADDAA199000091GF106991031021004501051001KA1240N+02201MA1999999099401MD1999999+0081REMSYN076AAXX  11124 82571 32497 62704 10256 20235 39940 40138 83250 333 20220 58008;EQDQ01  00002PRCP99
0167825710999992001031118004-05500-045260FM-12+017499999V0203201N002110450019N0100001N1+02861+02351100931ADDAA199000091GF105991031021008001041001MA1999999098971MD1999999+0031REMSYN070AAXX  11184 82571 32597 53204 10286 20235 39897 40093 83240 333 58003;EQDQ01  00002PRCP99
0210825710999992001031200004-05500-045260FM-12+017499999V0202701N001010042019N0100001N1+02561+02361101301ADDAA199000091GF106991061051004501001001KA1240M+02991MA1999999099321MD1999999+0081MW1131REMSYN094AAXX  12004 82571 31497 62702 10256 20236 39932 40130 713// 86500 333 10299 29085 55016 58008;EQDQ01  00002PRCP99
0193825710999992001031212004-05500-045260FM-12+017499999V0202301N001010042019N0100001N1+02311+02291101561ADDAA124013091AY161061GF108991081051004501999999KA1240N+02111MA1999999099571MD1999999+0171MW1611REMSYN088AAXX  12124 82571 21497 82302 10231 20229 39957 40156 7616/ 885// 333 20211 58017 60134;
0174825710999992001031218004-05500-045260FM-12+017499999V0202701N001010450019N0100001N1+02731+02431101191ADDAA106000891AY161061GF106991041031008001031001MA1999999099211MD1999999+0241MW1011REMSYN082AAXX  12184 82571 21597 62702 10273 20243 39921 40119 7016/ 84330 333 58024 69981;
0179825710999992001031300004-05500-045260FM-12+017499999V0202301N001010075019N0100001N1+02441+02301101401ADDAA199000021GF108991081051008001999999KA1240M+03091MA1999999099401MD1999999+0081REMSYN088AAXX  13004 82571 32597 82302 10244 20230 39940 40140 885// 333 10309 29091 55016 58008;
0193825710999992001031312004-05500-045260FM-12+017499999V0200501N001010075019N0100001N1+02341+02261101591ADDAA124011991AY161061GF108991081051008001999999KA1240N+02101MA1999999099591MD1999999+0021MW1611REMSYN088AAXX  13124 82571 21597 80502 10234 20226 39959 40159 7616/ 885// 333 20210 58002 60124;
0174825710999992001031318004-05500-045260FM-12+017499999V0200501N003111050019N0100001N1+02971+02281101091ADDAA106000191AY161061GF105991021021008001031011MA1999999099131MD1999999-0081MW1011REMSYN082AAXX  13184 82571 21597 50506 10297 20228 39913 40109 7016/ 82231 333 59008 69911;
0179825710999992001031400004-05500-045260FM-12+017499999V0200501N001010075019N0200001N1+02661+02401101291ADDAA199000021GF108991081051008001999999KA1240M+03021MA1999999099311MD1999999-0091REMSYN088AAXX  14004 82571 32598 80502 10266 20240 39931 40129 885// 333 10302 29083 55041 59009;
0193825710999992001031412004-05500-045260FM-12+017499999V0202301N003110075019N0100001N1+02221+02151101511ADDAA124087991AY161061GF108991081051008001999999KA1240N+02091MA1999999099521MD1999999-0071MW1631REMSYN088AAXX  14124 82571 21597 82306 10222 20215 39952 40151 7636/ 885// 333 20209 59007 60884;
0182825710999992001031418004-05500-045260FM-12+017499999V0200501N001010075019N0100001N1+02391+02301101271ADDAA106023191AY161061AY261061GF108991081051008001999999MA1999999099281MD1999999+0151MW1611REMSYN082AAXX  14184 82571 21597 80502 10239 20230 39928 40127 76166 885// 333 58015 60231;
0205825710999992001031500004-05500-045260FM-12+017499999V0201801N001010042019N0100001N1+02231+02191101221ADDAA106000191AY161061GF108991081051004501999999KA1240M+02691MA1999999099221MD1999999-0091MW1021REMSYN100AAXX  15004 82571 21497 81802 10223 20219 39922 40122 7026/ 885// 333 10269 29096 55000 59009 69911;
0193825710999992001031512004-05500-045260FM-12+017499999V0201401N001010075019N0100001N1+02381+02261101441ADDAA124023191AY161061GF108991081051008001999999KA1240N+02021MA1999999099441MD1999999-0081MW1021REMSYN088AAXX  15124 82571 21597 81402 10238 20226 39944 40144 7026/ 885// 333 20202 59008 60234;
0167825710999992001031518004-05500-045260FM-12+017499999V0201401N001012200019N0100001N1+03011+02181100881ADDAA199000091GF105991041031008001001011MA1999999098911MD1999999-0371REMSYN070AAXX  15184 82571 32597 51402 10301 20218 39891 40088 84301 333 59037;EQDQ01  00002PRCP99
0192825710999992001031600004-05500-045260FM-12+017499999V0202301N001012200019N0100001N1+02461+02341101211ADDAA199000091GA1001+999999999GF100991001001999999001001MA1999999099221MW1131REMSYN087AAXX  16004 82571 31997 02302 10246 20234 39922 40121 713// 33 10307 29085 55048 58000;EQDQ01  00002PRCP99
0193825710999992001031612004-05500-045260FM-12+017499999V0201401N001010450019N0100001N1+02491+02341101481ADDAA124008991AY161061GF106991031021008001031001KA1240N+02051MA1999999099491MD1999999+0051MW1021REMSYN088AAXX  16124 82571 21597 61402 10249 20234 39949 40148 7026/ 83230 333 20205 58005 60094;
0167825710999992001031618004-05500-045260FM-12+017499999V0203601N001010450019N0100001N1+03051+02331101011ADDAA199000091GF105991031021008001031001MA1999999099051MD1999999+0141REMSYN070AAXX  16184 82571 32597 53602 10305 20233 39905 40101 83230 333 58014;EQDQ01  00002PRCP99
0213825710999992001031700004-05500-045260FM-12+017499999V0202301N001010042019N0100001N1+02381+02351101371ADDAA106006191AY191061AY261061GF108991081051004501999999KA1240M+03111MA1999999099381MD1999999+0161MW1131REMSYN100AAXX  17004 82571 21497 82302 10238 20235 39938 40137 71396 885// 333 10311 29088 55061 58016 60061;
0193825710999992001031712004-05500-045260FM-12+017499999V0202301N001010450019N0100001N1+02431+02341101421ADDAA124007991AY161061GF106991031051008001031011KA1240N+02141MA1999999099431MD1999999-0061MW1021REMSYN088AAXX  17124 82571 21597 62302 10243 20234 39943 40142 7026/ 83531 333 20214 59006 60084;
0167825710999992001031718004-05500-045260FM-12+017499999V0200501N001010450019N0100001N1+02991+02371100981ADDAA199000091GF106991031031008001031011MA1999999099021MD1999999-0031REMSYN070AAXX  17184 82571 32597 60502 10299 20237 39902 40098 83331 333 59003;EQDQ01  00002PRCP99
0220825710999992001031800004-05500-045260FM-12+017499999V0203601N001012200019N0100001N1+02551+02421101221ADDAA199000091GA1001+999999999GF100991001001999999001001KA1240M+03051MA1999999099241MD1999999-0141MW1131REMSYN088AAXX  18004 82571 31997 03602 10255 20242 39924 40122 713// 333 10305 29087 55021 59014;EQDQ01  00002PRCP99
0193825710999992001031812004-05500-045260FM-12+017499999V0203201N001010450019N0100001N1+02441+02411101271ADDAA124000191AY141061GF106991031051008001031011KA1240N+02061MA1999999099291MD1999999-0141MW1021REMSYN088AAXX  18124 82571 21597 63202 10244 20241 39929 40127 7024/ 83531 333 20206 59014 69914;
0167825710999992001031818004-05500-045260FM-12+017499999V0201401N001010450019N0100001N1+03081+02161100831ADDAA199000091GF106991021031008001041011MA1999999098871MD1999999-0151REMSYN070AAXX  18184 82571 32597 61402 10308 20216 39887 40083 82341 333 59015;EQDQ01  00002PRCP99
0208825710999992001031900004-05500-045260FM-12+017499999V0203601N001012200019N0100001N1+02541+02381101101ADDAA199000091GA1001+999999999GF100991001001999999001001KA1240M+03161MA1999999099141MD1999999+0121REMSYN082AAXX  19004 82571 32997 03602 10254 20238 39914 40110 333 10316 29084 55047 58012;EQDQ01  00002PRCP99
0186825710999992001031912004-05500-045260FM-12+017499999V0203601N001010450019N0100001N1+02481+02361101311ADDAA199000091GF106991041021004501011001KA1240N+02061MA1999999099331MD1999999+0041REMSYN076AAXX  19124 82571 32497 63602 10248 20236 39933 40131 84210 333 20206 58004;EQDQ01  00002PRCP99
0167825710999992001031918004-05500-045260FM-12+017499999V0200901N002112200019N0100001N1+03081+02321100831ADDAA199000091GF104991021021008001011001MA1999999098871MD1999999+0001REMSYN070AAXX  19184 82571 32597 40904 10308 20232 39887 40083 82210 333 58000;EQDQ01  00002PRCP99
0210825710999992001032000004-05500-045260FM-12+017499999V0209999C000012200019N0100001N1+02701+02461101051ADDAA199000091GF102991021001017501041001KA1240M+03141MA1999999099081MD1999999-0041MW1131REMSYN094AAXX  20004 82571 31797 20000 10270 20246 39908 40105 713// 82040 333 10314 29083 55063 59004;EQDQ01  00002PRCP99
0186825710999992001032012004-05500-045260FM-12+017499999V0200501N001010450019N0100001N1+02461+02271101511ADDAA199000091GF106991031021004501031001KA1240N+02151MA1999999099531MD1999999+0201REMSYN076AAXX  20124 82571 32497 60502 10246 20227 39953 40151 83230 333 20215 58020;EQDQ01  00002PRCP99
0167825710999992001032018004-05500-045260FM-12+017499999V0200901N001012200019N0100001N1+03071+02421101071ADDAA199000091GF104991031021008001011001MA1999999099121MD1999999+0251REMSYN070AAXX  20184 82571 32597 40902 10307 20242 39912 40107 83210 333 58025;EQDQ01  00002PRCP99
0208825710999992001032100004-05500-045260FM-12+017499999V0202301N001012200019N0100001N1+02641+02351101291ADDAA199000091GA1001+999999999GF100991001001999999001001KA1240M+03171MA1999999099311MD1999999+0231REMSYN082AAXX  21004 82571 32997 02302 10264 20235 39931 40129 333 10317 29081 55042 58023;EQDQ01  00002PRCP99
0186825710999992001032112004-05500-045260FM-12+017499999V0203601N002110450019N0100001N1+02651+02411101421ADDAA199000091GF105991031021004501011001KA1240N+02091MA1999999099451MD1999999-0081REMSYN076AAXX  21124 82571 32497 53604 10265 20241 39945 40142 83210 333 20209 59008;EQDQ01  00002PRCP99
0167825710999992001032118004-05500-045260FM-12+017499999V0200901N003112200019N0100001N1+03161+02321100981ADDAA199000091GF103991021021008001011001MA1999999099031MD1999999-0091REMSYN070AAXX  21184 82571 32597 30906 10316 20232 39903 40098 82210 333 59009;EQDQ01  00002PRCP99
0205825710999992001032200004-05500-045260FM-12+017499999V0200901N001012200019N0100001N1+02741+02471101131ADDAA124000191AY161061GF101991011031004501001001KA1240M+03241MA1999999099171MD1999999-0141MW1131REMSYN100AAXX  22004 82571 21497 10902 10274 20247 39917 40113 7136/ 81300 333 10324 29079 55088 59014 69914;
0193825710999992001032212004-05500-045260FM-12+017499999V0201801N001010042019N0100001N1+02351+02281101351ADDAA100064091AY161061GF107991051051004501041001KA1240N+02161MA1999999099371MD1999999-0081MW1601REMSYN088AAXX  22124 82571 21497 71802 10235 20228 39937 40135 7606/ 85540 333 20216 59008 6064/;
0174825710999992001032218004-05500-045260FM-12+017499999V0201401N002110450019N0100001N1+03021+02341100821ADDAA106000191AY161061GF106991021021004501011011MA1999999098871MD1999999-0161MW1021REMSYN082AAXX  22184 82571 21497 61404 10302 20234 39887 40082 7026/ 82211 333 59016 69911;
0191825710999992001032300004-05500-045260FM-12+017499999V0200901N001012200019N0100001N1+02561+02421101051ADDAA199000021GF101991011001017501041001KA1240M+03071MA1999999099071MD1999999-0101MW1131REMSYN094AAXX  23004 82571 31797 10902 10256 20242 39907 40105 713// 81040 333 10307 29086 55026 59010;
0173825710999992001032312004-05500-045260FM-12+017499999V0202701N001010042019N0100001N1+02461+02341101111ADDAA124000191GF107991061021004501041001KA1240N+02111MA1999999099131MD1999999-0241REMSYN082AAXX  23124 82571 22497 72702 10246 20234 39913 40111 86240 333 20211 59024 69914;
0182825710999992001032318004-05500-045260FM-12+017499999V0202301N001010042019N0100001N1+02381+02311100821ADDAA106030091AY191061AY261061GF108991081051004501999999MA1999999098841MD1999999-0031MW1951REMSYN082AAXX  23184 82571 21497 82302 10238 20231 39884 40082 79596 885// 333 59003 60301;
0179825710999992001032400004-05500-045260FM-12+017499999V0200501N001010042019N0100001N1+02441+02391101161ADDAA199000021GF108991081051004501999999KA1240M+03091MA1999999099181MD1999999+0111REMSYN088AAXX  24004 82571 32497 80502 10244 20239 39918 40116 885// 333 10309 29096 55028 58011;
0193825710999992001032412004-05500-045260FM-12+017499999V0203201N001012200019N0100001N1+02281+02211101261ADDAA124030091AY161061GF103991021021004501031001KA1240N+01991MA1999999099271MD1999999+0141MW1011REMSYN088AAXX  24124 82571 21497 33202 10228 20221 39927 40126 7016/ 82230 333 20199 58014 60304;
0167825710999992001032418004-05500-045260FM-12+017499999V0200901N001010450019N0100001N1+03001+02491100941ADDAA199000091GF105991021021008001031001MA1999999098971MD1999999+0131REMSYN070AAXX  24184 82571 32597 50902 10300 20249 39897 40094 82230 333 58013;EQDQ01  00002PRCP99
0210825710999992001032500004-05500-045260FM-12+017499999V0200501N001012200019N0100001N1+02651+02461101211ADDAA199000091GF103991021021008001041001KA1240M+03091MA1999999099231MD1999999-0051MW1131REMSYN094AAXX  25004 82571 31597 30502 10265 20246 39923 40121 713// 82240 333 10309 29087 55043 59005;EQDQ01  00002PRCP99
0193825710999992001032512004-05500-045260FM-12+017499999V0202301N001010042019N0100001N1+02291+02201101441ADDAA124003091AY161061GF107991071051004501001001KA1240N+02051MA1999999099451MD1999999+0181MW1011REMSYN088AAXX  25124 82571 21497 72302 10229 20220 39945 40144 7016/ 87500 333 20205 58018 60034;
0167825710999992001032518004-05500-045260FM-12+017499999V0201401N002112200019N0100001N1+03041+02451101031ADDAA199000091GF103991021021008001041001MA1999999099071MD1999999+0101REMSYN070AAXX  25184 82571 32597 31404 10304 20245 39907 40103 82240 333 58010;EQDQ01  00002PRCP99
0208825710999992001032600004-05500-045260FM-12+017499999V0201801N001012200019N0100001N1+02621+02461101251ADDAA199000091GA1001+999999999GF100991001001999999001001KA1240M+03141MA1999999099261MD1999999+0031REMSYN082AAXX  26004 82571 32997 01802 10262 20246 39926 40125 333 10314 29087 55051 58003;EQDQ01  00002PRCP99
0186825710999992001032612004-05500-045260FM-12+017499999V0201401N001010450019N0100001N1+02481+02231101371ADDAA199000091GF106991031081004501041001KA1240N+02171MA1999999099391MD1999999-0061REMSYN076AAXX  26124 82571 32497 61402 10248 20223 39939 40137 83840 333 20217 59006;EQDQ01  00002PRCP99
0167825710999992001032618004-05500-045260FM-12+017499999V0202301N002110042019N0100001N1+03201+02461100881ADDAA199000091GF105991051051004501001001MA1999999098931MD1999999-0141REMSYN070AAXX  26184 82571 32497 52304 10320 20246 39893 40088 85500 333 59014;EQDQ01  00002PRCP99
0167825710999992001032718004-05500-045260FM-12+017499999V0200901N001010450019N0100001N1+03151+02451100841ADDAA199000091GF105991031021008001031001MA1999999098891MD1999999-0041REMSYN070AAXX  27184 82571 32597 50902 10315 20245 39889 40084 83230 333 59004;EQDQ01  00002PRCP99
0213825710999992001032800004-05500-045260FM-12+017499999V0200501N001010075019N0100001N1+02431+02251101151ADDAA106005191AY191061AY261061GF108991081051008001999999KA1240M+03221MA1999999099171MD1999999-0051MW1021REMSYN100AAXX  28004 82571 21597 80502 10243 20225 39917 40115 70296 885// 333 10322 29083 55082 59005 60051;
0173825710999992001032812004-05500-045260FM-12+017499999V0202301N001010450019N0100001N1+02611+02441101311ADDAA124005191GF108991041021008001031011KA1240N+02181MA1999999099331MD1999999-0091REMSYN082AAXX  28124 82571 22597 82302 10261 20244 39933 40131 84231 333 20218 59009 60054;
0213825710999992001032900004-05500-045260FM-12+017499999V0202301N001010042019N0100001N1+02301+02251101291ADDAA106008991AY191061AY261061GF108991081051004501999999KA1240M+02981MA1999999099301MD1999999+0131MW1611REMSYN100AAXX  29004 82571 21497 82302 10230 20225 39930 40129 76196 885// 333 10298 29092 55025 58013 60091;
0193825710999992001032912004-05500-045260FM-12+017499999V0202301N001010075019N0100001N1+02371+02311101501ADDAA124017091AY161061GF108991081051008001999999KA1240N+02081MA1999999099501MD1999999+0171MW1021REMSYN088AAXX  29124 82571 21597 82302 10237 20231 39950 40150 7026/ 885// 333 20208 58017 60174;
0167825710999992001032918004-05500-045260FM-12+017499999V0202701N003110075019N0100001N1+03011+02531101041ADDAA199000091GF108991081051008001999999MA1999999099081MD1999999+0081REMSYN070AAXX  29184 82571 32597 82706 10301 20253 39908 40104 885// 333 58008;EQDQ01  00002PRCP99
0197825710999992001033000004-05500-045260FM-12+017499999V0200501N001010042019N0100001N1+02321+02181101411ADDAA106000591GF108991081051004501999999KA1240M+03151MA1999999099411MD1999999+0111MW1951REMSYN100AAXX  30004 82571 21497 80502 10232 20218 39941 40141 795// 885// 333 10315 29089 55018 58011 69941;
0193825710999992001033012004-05500-045260FM-12+017499999V0202301N001010450019N0100001N1+02481+02341101481ADDAA124015091AY161061GF106991031051008001031001KA1240N+02081MA1999999099491MD1999999-0011MW1011REMSYN088AAXX  30124 82571 21597 62302 10248 20234 39949 40148 7016/ 83530 333 20208 59001 60154;
0167825710999992001033018004-05500-045260FM-12+017499999V0200501N003110450019N0100001N1+03041+02411101071ADDAA199000091GF106991041031008001031001MA1999999099111MD1999999+0031REMSYN070AAXX  30184 82571 32597 60506 10304 20241 39911 40107 84330 333 58003;EQDQ01  00002PRCP99
0213825710999992001033100004-05500-045260FM-12+017499999V0202701N001010042019N0100001N1+02351+02311101351ADDAA106004191AY191061AY261061GF108991081051004501999999KA1240M+03091MA1999999099361MD1999999-0051MW1611REMSYN100AAXX  31004 82571 21497 82702 10235 20231 39936 40135 76196 885// 333 10309 29089 55062 59005 60041;
0193825710999992001033112004-05500-045260FM-12+017499999V0201401N001010075019N0100001N1+02441+02301101321ADDAA124005191AY161061GF108991081051008001999999KA1240N+02081MA1999999099331MD1999999-0161MW1021REMSYN088AAXX  31124 82571 21597 81402 10244 20230 39933 40132 7026/ 885// 333 20208 59016 60054;
0167825710999992001033118004-05500-045260FM-12+017499999V0200901N001012200019N0100001N1+03051+02381100891ADDAA199000091GF103991021021008001001011MA1999999098931MD1999999-0181REMSYN070AAXX  31184 82571 32597 30902 10305 20238 39893 40089 82201 333 59018;EQDQ01  00002PRCP99
0198825710999992001040100004-05500-045260FM-12+017499999V0200501N003112200019N0100001N1+02601+02421101151ADDAA199000091GF102991021021008001001001KA1240M+03171MA1999999099171MD1999999-0191REMSYN088AAXX  01004 82571 32597 20506 10260 20242 39917 40115 82200 333 10317 29085 55053 59019;EQDQ01  00002PRCP99
0167825710999992001040118004-05500-045260FM-12+017499999V0200501N001012200019N0100001N1+03011+02411100981ADDAA199000091GF103991021031008001001011MA1999999099021MD1999999+0091REMSYN070AAXX  01184 82571 32597 30502 10301 20241 39902 40098 82301 333 58009;EQDQ01  00002PRCP99
0208825710999992001040200004-05500-045260FM-12+017499999V0209999C000012200019N0100001N1+02541+02421101181ADDAA199000091GA1001+999999999GF100991001001999999001001KA1240M+03111MA1999999099201MD1999999+0031REMSYN082AAXX  02004 82571 32597 00000 10254 20242 39920 40118 333 10311 29084 55086 58003;EQDQ01  00002PRCP99
0193825710999992001040212004-05500-045260FM-12+017499999V0203601N002110042019N0100001N1+02351+02241101541ADDAA124002091AY161061GF107991061051004501041001KA1240N+02051MA1999999099551MD1999999+0151MW1021REMSYN088AAXX  02124 82571 21497 73604 10235 20224 39955 40154 7026/ 86540 333 20205 58015 60024;
0167825710999992001040218004-05500-045260FM-12+017499999V0200501N002110450019N0100001N1+03051+02191101101ADDAA199000091GF105991031021008001011011MA1999999099141MD1999999+0121REMSYN070AAXX  02184 82571 32597 50504 10305 20219 39914 40110 83211 333 58012;EQDQ01  00002PRCP99
0210825710999992001040300004-05500-045260FM-12+017499999V0201401N001010450019N0100001N1+02601+02391101351ADDAA199000091GF106991021021004501031001KA1240M+03171MA1999999099371MD1999999+0171MW1131REMSYN094AAXX  03004 82571 31497 61402 10260 20239 39937 40135 713// 82230 333 10317 29082 55054 58017;EQDQ01  00002PRCP99
0193825710999992001040312004-05500-045260FM-12+017499999V0201401N002110450019N0100001N1+02441+02321101471ADDAA124014091AY161061GF106991041021004501041011KA1240N+02141MA1999999099481MD1999999-0071MW1011REMSYN088AAXX  03124 82571 21497 61404 10244 20232 39948 40147 7016/ 84241 333 20214 59007 60144;
0167825710999992001040318004-05500-045260FM-12+017499999V0201401N001010120019N0100001N1+03161+02371100951ADDAA199000091GF105991051081008001001001MA1999999099001MD1999999-0141REMSYN070AAXX  03184 82571 32597 51402 10316 20237 39900 40095 85800 333 59014;EQDQ01  00002PRCP99
0213825710999992001040400004-05500-045260FM-12+017499999V0202301N002110450019N0100001N1+02501+02361101331ADDAA106004191AY191061AY261061GF105991021021004501041001KA1240M+03231MA1999999099341MD1999999-0031MW1131REMSYN100AAXX  04004 82571 21497 52304 10250 20236 39934 40133 71396 82240 333 10323 29085 55050 59003 60041;
0193825710999992001040412004-05500-045260FM-12+017499999V0203201N001010042019N0100001N1+02381+02261101391ADDAA124004191AY161061GF107991071051004501001001KA1240N+02081MA1999999099401MD1999999-0081MW1011REMSYN088AAXX  04124 82571 21497 73202 10238 20226 39940 40139 7016/ 87500 333 20208 59008 60044;
0174825710999992001040418004-05500-045260FM-12+017499999V0200501N001010450019N0100001N1+02821+02501100941ADDAA106001091AY161061GF105991031021008001041001MA1999999098971MD1999999-0031MW1601REMSYN082AAXX  04184 82571 21597 50502 10282 20250 39897 40094 7606/ 83240 333 59003 60011;
0191825710999992001040500004-05500-045260FM-12+017499999V0209999C000012200019N0100001N1+02551+02461101151ADDAA199000021GF103991031001017501041001KA1240M+02971MA1999999099171MD1999999-0171MW1131REMSYN094AAXX  05004 82571 31797 30000 10255 20246 39917 40115 713// 83040 333 10297 29091 55020 59017;
0173825710999992001040512004-05500-045260FM-12+017499999V0201401N001010042019N0100001N1+02501+02381101421ADDAA124001091GF107991071051004501001001KA1240N+02111MA1999999099441MD1999999+0041REMSYN082AAXX  05124 82571 22497 71402 10250 20238 39944 40142 87500 333 20211 58004 60014;
0167825710999992001040518004-05500-045260FM-12+017499999V0201401N002112200019N0100001N1+03121+02361100911ADDAA199000091GF104991031021008001011001MA1999999098961MD1999999-0011REMSYN070AAXX  05184 82571 32597 41404 10312 20236 39896 40091 83210 333 59001;EQDQ01  00002PRCP99
0198825710999992001040600004-05500-045260FM-12+017499999V0200501N001012200019N0100001N1+02621+02481101291ADDAA199000091GF101991011001017501011001KA1240M+03171MA1999999099311MD1999999+0141REMSYN088AAXX  06004 82571 32797 10502 10262 20248 39931 40129 81010 333 10317 29085 55048 58014;EQDQ01  00002PRCP99
0186825710999992001040612004-05500-045260FM-12+017499999V0200901N002110042019N0100001N1+02511+02421101541ADDAA199000091GF107991071051004501001001KA1240N+02121MA1999999099561MD1999999+0121REMSYN076AAXX  06124 82571 32497 70904 10251 20242 39956 40154 87500 333 20212 58012;EQDQ01  00002PRCP99
0167825710999992001040618004-05500-045260FM-12+017499999V0201401N002112200019N0100001N1+03171+02331101011ADDAA199000091GF103991021021008001001011MA1999999099061MD1999999+0101REMSYN070AAXX  06184 82571 32597 31404 10317 20233 39906 40101 82201 333 58010;EQDQ01  00002PRCP99
0198825710999992001040700004-05500-045260FM-12+017499999V0200901N001012200019N0100001N1+02651+02391101351ADDAA199000091GF103991011021008001011001KA1240M+03231MA1999999099381MD1999999+0071REMSYN088AAXX  07004 82571 32597 30902 10265 20239 39938 40135 81210 333 10323 29081 55087 58007;EQDQ01  00002PRCP99
0186825710999992001040712004-05500-045260FM-12+017499999V0200501N001010042019N0100001N1+02471+02341101471ADDAA199000091GF107991071051004501001001KA1240N+02111MA1999999099491MD1999999-0071REMSYN076AAXX  07124 82571 32497 70502 10247 20234 39949 40147 87500 333 20211 59007;EQDQ01  00002PRCP99
0198825710999992001040800004-05500-045260FM-12+017499999V0201401N001012200019N0100001N1+02661+02461101251ADDAA199000091GF104991041001017501041001KA1240M+03161MA1999999099271MD1999999-0111REMSYN088AAXX  08004 82571 32797 41402 10266 20246 39927 40125 84040 333 10316 29084 55048 59011;EQDQ01  00002PRCP99
0186825710999992001040812004-05500-045260FM-12+017499999V0201801N001010042019N0100001N1+02411+02371101421ADDAA199000091GF108991081051004501999999KA1240N+02141MA1999999099441MD1999999-0051REMSYN076AAXX  08124 82571 32497 81802 10241 20237 39944 40142 885// 333 20214 59005;EQDQ01  00002PRCP99
0167825710999992001040818004-05500-045260FM-12+017499999V0201401N002112200019N0100001N1+03181+02311100871ADDAA199000091GF104991011021008001031011MA1999999098921MD1999999-0101REMSYN070AAXX  08184 82571 32597 41404 10318 20231 39892 40087 81231 333 59010;EQDQ01  00002PRCP99
0198825710999992001040900004-05500-045260FM-12+017499999V0209999C000012200019N0100001N1+02681+02331101151ADDAA199000091GF103991031001017501031001KA1240M+03241MA1999999099171MD1999999-0101REMSYN088AAXX  09004 82571 32797 30000 10268 20233 39917 40115 83030 333 10324 29080 55077 59010;EQDQ01  00002PRCP99
0193825710999992001040912004-05500-045260FM-12+017499999V0202301N001010075019N0100001N1+02381+02361101241ADDAA124000191AY161061GF108991081051008001999999KA1240N+02081MA1999999099261MD1999999-0181MW1021REMSYN088AAXX  09124 82571 21597 82302 10238 20236 39926 40124 7026/ 885// 333 20208 59018 69914;
0167825710999992001040918004-05500-045260FM-12+017499999V0200501N001010450019N0100001N1+03101+02201100781ADDAA199000091GF106991021031008001031011MA1999999098831MD1999999-0091REMSYN070AAXX  09184 82571 32597 60502 10310 20220 39883 40078 82331 333 59009;EQDQ01  00002PRCP99
0210825710999992001041000004-05500-045260FM-12+017499999V0200501N003110075019N0100001N1+02581+02291101121ADDAA199000091GF108991081071008001999999KA1240M+03221MA1999999099141MD1999999-0031MW1131REMSYN094AAXX  10004 82571 31597 80506 10258 20229 39914 40112 713// 887// 333 10322 29082 55061 59003;EQDQ01  00002PRCP99
0186825710999992001041012004-05500-045260FM-12+017499999V0203601N001010075019N0100001N1+02481+02271101381ADDAA199000091GF108991081051008001999999KA1240N+02221MA1999999099401MD1999999+0141REMSYN076AAXX  10124 82571 32597 83602 10248 20227 39940 40138 885// 333 20222 58014;EQDQ01  00002PRCP99
0167825710999992001041018004-05500-045260FM-12+017499999V0203201N001010450019N0100001N1+03031+02331100971ADDAA199000091GF105991031021008001031001MA1999999099011MD1999999+0181REMSYN070AAXX  10184 82571 32597 53202 10303 20233 39901 40097 83230 333 58018;EQDQ01  00002PRCP99
0210825710999992001041100004-05500-045260FM-12+017499999V0209999C000010075019N0100001N1+02511+02381101261ADDAA199000091GF108991081051008001999999KA1240M+03111MA1999999099281MD1999999+0141MW1131REMSYN094AAXX  11004 82571 31597 80000 10251 20238 39928 40126 713// 885// 333 10311 29084 55038 58014;EQDQ01  00002PRCP99
0193825710999992001041112004-05500-045260FM-12+017499999V0200501N001010450019N0100001N1+02521+02271101521ADDAA124000191AY161061GF106991031051008001031011KA1240N+02151MA1999999099531MD1999999+0121MW1021REMSYN088AAXX  11124 82571 21597 60502 10252 20227 39953 40152 7026/ 83531 333 20215 58012 69914;
0167825710999992001041118004-05500-045260FM-12+017499999V0200501N001012200019N0100001N1+03021+02311101091ADDAA199000091GF104991041021008001001001MA1999999099131MD1999999+0131REMSYN070AAXX  11184 82571 32597 40502 10302 20231 39913 40109 84200 333 58013;EQDQ01  00002PRCP99
0208825710999992001041200004-05500-045260FM-12+017499999V0209999C000012200019N0100001N1+02531+02421101331ADDAA199000091GA1001+999999999GF100991001001999999001001KA1240M+03081MA1999999099351MD1999999+0071REMSYN082AAXX  12004 82571 32997 00000 10253 20242 39935 40133 333 10308 29084 55059 58007;EQDQ01  00002PRCP99
0186825710999992001041212004-05500-045260FM-12+017499999V0203201N001010120019N0100001N1+02501+02381101381ADDAA199000091GF107991071081008001001001KA1240N+02161MA1999999099401MD1999999-0131REMSYN076AAXX  12124 82571 32597 73202 10250 20238 39940 40138 87800 333 20216 59013;EQDQ01  00002PRCP99
0167825710999992001041218004-05500-045260FM-12+017499999V0200501N003110450019N0100001N1+03201+02411100961ADDAA199000091GF106991031021008001031001MA1999999099011MD1999999-0121REMSYN070AAXX  12184 82571 32597 60506 10320 20241 39901 40096 83230 333 59012;EQDQ01  00002PRCP99
0223825710999992001041300004-05500-045260FM-12+017499999V0202301N001012200019N0100001N1+02401+02261101191ADDAA106002091AY191061AY231061GA1001+999999999GF100991001001999999001001KA1240M+03271MA1999999099211MD1999999-0141MW1131REMSYN094AAXX  13004 82571 21997 02302 10240 20226 39921 40119 71393 333 10327 29058 55068 59014 60021;
0193825710999992001041312004-05500-045260FM-12+017499999V0202701N001010450019N0100001N1+02541+02361101301ADDAA124002091AY161061GF106991031051008001031011KA1240N+02161MA1999999099311MD1999999-0091MW1011REMSYN088AAXX  13124 82571 21597 62702 10254 20236 39931 40130 7016/ 83531 333 20216 59009 60024;
0167825710999992001041318004-05500-045260FM-12+017499999V0203201N001012200019N0100001N1+03141+02351100791ADDAA199000091GF105991031021008001001011MA1999999098831MD1999999-0181REMSYN070AAXX  13184 82571 32597 53202 10314 20235 39883 40079 83201 333 59018;EQDQ01  00002PRCP99
0208825710999992001041400004-05500-045260FM-12+017499999V0200501N001012200019N0100001N1+02541+02381101101ADDAA199000091GA1001+999999999GF100991001001999999001001KA1240M+03281MA1999999099131MD1999999-0081REMSYN082AAXX  14004 82571 32997 00502 10254 20238 39913 40110 333 10328 29084 55061 59008;EQDQ01  00002PRCP99
0186825710999992001041412004-05500-045260FM-12+017499999V0200501N001010075019N0100001N1+02491+02341101271ADDAA199000091GF108991081051008001999999KA1240N+02131MA1999999099291MD1999999-0021REMSYN076AAXX  14124 82571 32597 80502 10249 20234 39929 40127 885// 333 20213 59002;EQDQ01  00002PRCP99
0167825710999992001041418004-05500-045260FM-12+017499999V0203201N001010450019N0100001N1+03101+02361100791ADDAA199000091GF106991021021008001031011MA1999999098841MD1999999+0011REMSYN070AAXX  14184 82571 32597 63202 10310 20236 39884 40079 82231 333 58001;EQDQ01  00002PRCP99
0218825710999992001041500004-05500-045260FM-12+017499999V0200501N003110075019N0100001N1+02471+02341101271ADDAA199000091AY191061GF108991081051008001999999KA1240M+03201MA1999999099291MD1999999+0161MW1131REMSYN094AAXX  15004 82571 31597 80506 10247 20234 39929 40127 7139/ 885// 333 10320 29085 55039 58016;EQDQ01  00002PRCP99
0193825710999992001041512004-05500-045260FM-12+017499999V0202301N001010450019N0100001N1+02471+02301101491ADDAA124000191AY161061GF106991041051008001031001KA1240N+02061MA1999999099501MD1999999+0211MW1011REMSYN088AAXX  15124 82571 21597 62302 10247 20230 39950 40149 7016/ 84530 333 20206 58021 69914;
0167825710999992001041618004-05500-045260FM-12+017499999V0203601N002112200019N0100001N1+03121+02461101101ADDAA199000091GF105991041021008001001011MA1999999099141MD1999999+0061REMSYN070AAXX  16184 82571 32597 53604 10312 20246 39914 40110 84201 333 58006;EQDQ01  00002PRCP99
0193825710999992001041712004-05500-045260FM-12+017499999V0201401N001012200019N0100001N1+02661+02371101491ADDAA124011991AY161061GF104991031021004501011001KA1240N+02161MA1999999099501MD1999999-0081MW1011REMSYN088AAXX  17124 82571 21497 41402 10266 20237 39950 40149 7016/ 83210 333 20216 59008 60124;
0167825710999992001041718004-05500-045260FM-12+017499999V0203601N001010450019N0100001N1+02901+02501101051ADDAA199000091GF106991041021008001041001MA1999999099091MD1999999-0051REMSYN070AAXX  17184 82571 32597 63602 10290 20250 39909 40105 84240 333 59005;EQDQ01  00002PRCP99
0205825710999992001041800004-05500-045260FM-12+017499999V0202301N001012200019N0100001N1+02481+02411101411ADDAA106006191AY161061GF104991021021004501041001KA1240M+03081MA1999999099431MD1999999-0141MW1131REMSYN100AAXX  18004 82571 21497 42302 10248 20241 39943 40141 7136/ 82240 333 10308 29089 55060 59014 60061;
0193825710999992001041812004-05500-045260FM-12+017499999V0202701N001010042019N0100001N1+02451+02371101411ADDAA124006191AY161061GF108991081051004501999999KA1240N+02151MA1999999099421MD1999999-0081MW1021REMSYN088AAXX  18124 82571 21497 82702 10245 20237 39942 40141 7026/ 885// 333 20215 59008 60064;
0174825710999992001041818004-05500-045260FM-12+017499999V0201401N001012200019N0100001N1+03181+02441100831ADDAA106000391AY161061GF105991041021008001001011MA1999999098881MD1999999-0211MW1011REMSYN082AAXX  18184 82571 21597 51402 10318 20244 39888 40083 7016/ 84201 333 59021 69931;
0213825710999992001041900004-05500-045260FM-12+017499999V0200501N002110450019N0040001N1+02341+02311101391ADDAA106024991AY191061AY261061GF108991031071004501021999KA1240M+03271MA1999999099401MD1999999-0031MW1911REMSYN100AAXX  19004 82571 21496 80504 10234 20231 39940 40139 79196 8372/ 333 10327 29089 55030 59003 60251;
0193825710999992001041912004-05500-045260FM-12+017499999V0202301N001010042019N0100001N1+02431+02341101471ADDAA124030091AY161061GF108991081051004501999999KA1240N+02141MA1999999099481MD1999999+0061MW1021REMSYN088AAXX  19124 82571 21497 82302 10243 20234 39948 40147 7026/ 885// 333 20214 58006 60304;
0167825710999992001041918004-05500-045260FM-12+017499999V0203201N001010450019N0100001N1+03061+02381100911ADDAA199000091GF105991041021008001031001MA1999999098951MD1999999+0071REMSYN070AAXX  19184 82571 32597 53202 10306 20238 39895 40091 84230 333 58007;EQDQ01  00002PRCP99
0205825710999992001042000004-05500-045260FM-12+017499999V0200501N004112200019N0100001N1+02481+02381101311ADDAA106000391AY161061GF102991021001017501041001KA1240M+03171MA1999999099321MD1999999-0081MW1011REMSYN100AAXX  20004 82571 21797 20508 10248 20238 39932 40131 7016/ 82040 333 10317 29087 55048 59008 69931;
0173825710999992001042012004-05500-045260FM-12+017499999V0202701N001010042019N0100001N1+02461+02271101561ADDAA124000391GF108991081051004501999999KA1240N+02121MA1999999099571MD1999999+0091REMSYN082AAXX  20124 82571 22497 82702 10246 20227 39957 40156 885// 333 20212 58009 69934;
0167825710999992001042018004-05500-045260FM-12+017499999V0203601N001010450019N0100001N1+02841+02351101051ADDAA199000091GF106991021021008001011011MA1999999099081MD1999999+0131REMSYN070AAXX  20184 82571 32597 63602 10284 20235 39908 40105 82211 333 58013;EQDQ01  00002PRCP99
0210825710999992001042100004-05500-045260FM-12+017499999V0200501N003112200019N0100001N1+02521+02421101371ADDAA199000091GF103991021021004501041001KA1240M+03021MA1999999099391MD1999999+0071MW1131REMSYN094AAXX  21004 82571 31497 30506 10252 20242 39939 40137 713// 82240 333 10302 29088 55024 58007;EQDQ01  00002PRCP99
0186825710999992001042112004-05500-045260FM-12+017499999V0201801N001010042019N0100001N1+02541+02311101581ADDAA199000091GF107991071051004501001001KA1240N+02141MA1999999099601MD1999999+0031REMSYN076AAXX  21124 82571 32497 71802 10254 20231 39960 40158 87500 333 20214 58003;EQDQ01  00002PRCP99
0166825710999992001042118004-05500-045260FM-12+017499999V0201801N002110450019N0100001N1+02731+02431101051ADDAA106000191GF105991031021004501071001MA1999999099081MD1999999+0001MW1611REMSYN082AAXX  21184 82571 21497 51804 10273 20243 39908 40105 761// 83270 333 58000 69921;
0197825710999992001042200004-05500-045260FM-12+017499999V0201401N001012200019N0100001N1+02481+02301101371ADDAA106000191GF102991021021004501001001KA1240M+03041MA1999999099391MD1999999+0001MW1611REMSYN100AAXX  22004 82571 21497 21402 10248 20230 39939 40137 761// 82200 333 10304 29088 55031 58000 69911;
0193825710999992001042212004-05500-045260FM-12+017499999V0202701N001010042019N0100001N1+02441+02281101451ADDAA124022191AY161061GF106991051021004501001011KA1240N+02021MA1999999099461MD1999999-0141MW1011REMSYN088AAXX  22124 82571 21497 62702 10244 20228 39946 40145 7016/ 85201 333 20202 59014 60224;
0167825710999992001042218004-05500-045260FM-12+017499999V0200901N002110450019N0100001N1+02961+02261100891ADDAA199000091GF105991031021008001011001MA1999999098921MD1999999-0161REMSYN070AAXX  22184 82571 32597 50904 10296 20226 39892 40089 83210 333 59016;EQDQ01  00002PRCP99
0208825710999992001042300004-05500-045260FM-12+017499999V0209999C000012200019N0100001N1+02521+02341101171ADDAA199000091GA1001+999999999GF100991001001999999001001KA1240M+03071MA1999999099191MD1999999-0201REMSYN082AAXX  23004 82571 32997 00000 10252 20234 39919 40117 333 10307 29084 55092 59020;EQDQ01  00002PRCP99
0193825710999992001042312004-05500-045260FM-12+017499999V0202301N001012200019N0100001N1+02361+02311101391ADDAA124000191AY141061GF104991021021008001031001KA1240N+01991MA1999999099401MD1999999-0061MW1021REMSYN088AAXX  23124 82571 21597 42302 10236 20231 39940 40139 7024/ 82230 333 20199 59006 69914;
0167825710999992001042318004-05500-045260FM-12+017499999V0200501N003112200019N0100001N1+03171+02331100961ADDAA199000091GF102991021021008001001001MA1999999099011MD1999999+0091REMSYN070AAXX  23184 82571 32597 20506 10317 20233 39901 40096 82200 333 58009;EQDQ01  00002PRCP99
0208825710999992001042400004-05500-045260FM-12+017499999V0209999C000012200019N0100001N1+02601+02421101101ADDAA199000091GA1001+999999999GF100991001001999999001001KA1240M+03221MA1999999099121MD1999999-0071REMSYN082AAXX  24004 82571 32997 00000 10260 20242 39912 40110 333 10322 29084 55084 59007;EQDQ01  00002PRCP99
0186825710999992001042412004-05500-045260FM-12+017499999V0202301N001012200019N0100001N1+02751+02351101421ADDAA199000091GF103991021001017501031011KA1240N+02011MA1999999099451MD1999999+0051REMSYN076AAXX  24124 82571 32797 32302 10275 20235 39945 40142 82031 333 20201 58005;EQDQ01  00002PRCP99
0167825710999992001042418004-05500-045260FM-12+017499999V0201401N003112200019N0100001N1+03151+02231101051ADDAA199000091GF103991021021008001001011MA1999999099091MD1999999+0081REMSYN070AAXX  24184 82571 32597 31406 10315 20223 39909 40105 82201 333 58008;EQDQ01  00002PRCP99
0208825710999992001042500004-05500-045260FM-12+017499999V0202301N001012200019N0100001N1+02561+02331101311ADDAA199000091GA1001+999999999GF100991001001999999001001KA1240M+03231MA1999999099331MD1999999+0211REMSYN082AAXX  25004 82571 32997 02302 10256 20233 39933 40131 333 10323 29080 55105 58021;EQDQ01  00002PRCP99
0186825710999992001042512004-05500-045260FM-12+017499999V0202301N001010075019N0100001N1+02481+02341101671ADDAA199000091GF108991081051008001999999KA1240N+02021MA1999999099681MD1999999+0231REMSYN076AAXX  25124 82571 32597 82302 10248 20234 39968 40167 885// 333 20202 58023;EQDQ01  00002PRCP99
0167825710999992001042518004-05500-045260FM-12+017499999V0200501N003110450019N0100001N1+02941+02331101271ADDAA199000091GF106991041051008001031001MA1999999099301MD1999999+0211REMSYN070AAXX  25184 82571 32597 60506 10294 20233 39930 40127 84530 333 58021;EQDQ01  00002PRCP99
0208825710999992001042600004-05500-045260FM-12+017499999V0202301N001012200019N0100001N1+02441+02431101431ADDAA199000091GA1001+999999999GF100991001001999999001001KA1240M+03121MA1999999099441MD1999999+0111REMSYN082AAXX  26004 82571 32997 02302 10244 20243 39944 40143 333 10312 29088 55029 58011;EQDQ01  00002PRCP99
0193825710999992001042612004-05500-045260FM-12+017499999V0203201N001012200019N0100001N1+02521+02331101451ADDAA124000191AY141061GF102991001001999999001011KA1240N+02001MA1999999099461MD1999999-0221MW1011REMSYN088AAXX  26124 82571 21997 23202 10252 20233 39946 40145 7014/ 80001 333 20200 59022 69914;
0167825710999992001042618004-05500-045260FM-12+017499999V0201401N001012200019N0100001N1+03191+02211101091ADDAA199000091GF103991021021008001001011MA1999999099131MD1999999-0171REMSYN070AAXX  26184 82571 32597 31402 10319 20221 39913 40109 82201 333 59017;EQDQ01  00002PRCP99
0208825710999992001042700004-05500-045260FM-12+017499999V0202301N001012200019N0100001N1+02631+02441101301ADDAA199000091GA1001+999999999GF100991001001999999001001KA1240M+03261MA1999999099321MD1999999-0121REMSYN082AAXX  27004 82571 32997 02302 10263 20244 39932 40130 333 10326 29081 55072 59012;EQDQ01  00002PRCP99
0186825710999992001042712004-05500-045260FM-12+017499999V0203201N001010075019N0100001N1+02521+02361101361ADDAA199000091GF108991081051008001999999KA1240N+02001MA1999999099391MD1999999-0071REMSYN076AAXX  27124 82571 32597 83202 10252 20236 39939 40136 885// 333 20200 59007;EQDQ01  00002PRCP99
0167825710999992001042718004-05500-045260FM-12+017499999V0200501N003112200019N0100001N1+03181+02281101011ADDAA199000091GF103991021021008001001011MA1999999099051MD1999999-0081REMSYN070AAXX  27184 82571 32597 30506 10318 20228 39905 40101 82201 333 59008;EQDQ01  00002PRCP99
0193825710999992001042812004-05500-045260FM-12+017499999V0201401N001010075019N0100001N1+02481+02391101561ADDAA124006191AY161061GF108991081051008001999999KA1240N+02181MA1999999099581MD1999999+0191MW1021REMSYN088AAXX  28124 82571 21597 81402 10248 20239 39958 40156 7026/ 885// 333 20218 58019 60064;
0182825710999992001042818004-05500-045260FM-12+017499999V0200901N001010075019N0100001N1+02451+02371101211ADDAA106007991AY191061AY261061GF108991081051008001999999MA1999999099221MD1999999+0171MW1951REMSYN082AAXX  28184 82571 21597 80902 10245 20237 39922 40121 79596 885// 333 58017 60081;
0197825710999992001042900004-05500-045260FM-12+017499999V0201401N001010042019N0100001N1+02351+02281101421ADDAA106001091GF108991081051004501999999KA1240M+02951MA1999999099431MD1999999+0121MW1601REMSYN100AAXX  29004 82571 21497 81402 10235 20228 39943 40142 760// 885// 333 10295 29095 55026 58012 60011;
0193825710999992001042912004-05500-045260FM-12+017499999V0202301N001010450019N0100001N1+02461+02411101461ADDAA124009991AY161061GF106991041051008001031001KA1240N+02101MA1999999099471MD1999999-0111MW1021REMSYN088AAXX  29124 82571 21597 62302 10246 20241 39947 40146 7026/ 84530 333 20210 59011 60104;
0167825710999992001042918004-05500-045260FM-12+017499999V0200901N001012200019N0100001N1+03081+02271101081ADDAA199000091GF104991021021008001031001MA1999999099121MD1999999-0101REMSYN070AAXX  29184 82571 32597 40902 10308 20227 39912 40108 82230 333 59010;EQDQ01  00002PRCP99
0208825710999992001043000004-05500-045260FM-12+017499999V0209999C000012200019N0100001N1+02531+02401101301ADDAA199000091GA1001+999999999GF100991001001999999001001KA1240M+03171MA1999999099311MD1999999-0121REMSYN082AAXX  30004 82571 32997 00000 10253 20240 39931 40130 333 10317 29086 55084 59012;EQDQ01  00002PRCP99
0206825710999992001043012004-05500-045260FM-12+017499999V0200501N001010042019N0100001N1+02541+02381101381ADDAA199000091AY141061GF107991071051004501001001KA1240N+02161MA1999999099401MD1999999-0071MW1011REMSYN082AAXX  30124 82571 31497 70502 10254 20238 39940 40138 7014/ 87500 333 20216 59007;EQDQ01  00002PRCP99
0167825710999992001043018004-05500-045260FM-12+017499999V0201401N003112200019N0100001N1+03041+02411100921ADDAA199000091GF104991021021008001011011MA1999999098961MD1999999-0161REMSYN070AAXX  30184 82571 32597 41406 10304 20241 39896 40092 82211 333 59016;EQDQ01  00002PRCP99
0198825710999992001050100004-05500-045260FM-12+017499999V0209999C000012200019N0100001N1+02641+02411101141ADDAA199000091GF103991031001017501031001KA1240M+03151MA1999999099171MD1999999-0141REMSYN088AAXX  01004 82571 32797 30000 10264 20241 39917 40114 83030 333 10315 29084 55055 59014;EQDQ01  00002PRCP99
0206825710999992001050112004-05500-045260FM-12+017499999V0203201N001010042019N0100001N1+02461+02371101351ADDAA199000091AY141061GF108991081051004501999999KA1240N+02151MA1999999099371MD1999999-0031MW1021REMSYN082AAXX  01124 82571 31497 83202 10246 20237 39937 40135 7024/ 885// 333 20215 59003;EQDQ01  00002PRCP99
0167825710999992001050118004-05500-045260FM-12+017499999V0201401N001012200019N0100001N1+02991+02441100951ADDAA199000091GF104991011011008001031011MA1999999098991MD1999999+0031REMSYN070AAXX  01184 82571 32597 41402 10299 20244 39899 40095 81131 333 58003;EQDQ01  00002PRCP99
0213825710999992001050200004-05500-045260FM-12+017499999V0201801N001012200019N0100001N1+02441+02351101231ADDAA106021191AY191061AY261061GF102991021001017501031001KA1240M+03131MA1999999099251MD1999999+0081MW1021REMSYN100AAXX  02004 82571 21797 21802 10244 20235 39925 40123 70296 82030 333 10313 29089 55038 58008 60211;
0173825710999992001050212004-05500-045260FM-12+017499999V0201801N001010042019N0100001N1+02441+02421101461ADDAA124021191GF108991081051004501999999KA1240N+02111MA1999999099471MD1999999+0101REMSYN082AAXX  02124 82571 22497 81802 10244 20242 39947 40146 885// 333 20211 58010 60214;
0174825710999992001050218004-05500-045260FM-12+017499999V0201401N001012200019N0100001N1+03011+02391101111ADDAA106004191AY161061GF104991021021008001031011MA1999999099151MD1999999+0161MW1011REMSYN082AAXX  02184 82571 21597 41402 10301 20239 39915 40111 7016/ 82231 333 58016 60041;
0208825710999992001050300004-05500-045260FM-12+017499999V0202301N001012200019N0100001N1+02601+02461101361ADDAA199000091GA1001+999999999GF100991001001999999001001KA1240M+03131MA1999999099381MD1999999-0131REMSYN082AAXX  03004 82571 32997 02302 10260 20246 39938 40136 333 10313 29088 55037 59013;EQDQ01  00002PRCP99
0193825710999992001050312004-05500-045260FM-12+017499999V0203601N001012200019N0100001N1+02541+02381101401ADDAA124004191AY141061GF102991011011004501001011KA1240N+02031MA1999999099421MD1999999-0051MW1011REMSYN088AAXX  03124 82571 21497 23602 10254 20238 39942 40140 7014/ 81101 333 20203 59005 60044;
0167825710999992001050318004-05500-045260FM-12+017499999V0200501N001012200019N0100001N1+03171+02391101041ADDAA199000091GF103991021021008001001011MA1999999099081MD1999999-0071REMSYN070AAXX  03184 82571 32597 30502 10317 20239 39908 40104 82201 333 59007;EQDQ01  00002PRCP99
0208825710999992001050400004-05500-045260FM-12+017499999V0203201N001012200019N0100001N1+02661+02441101211ADDAA199000091GA1001+999999999GF100991001001999999001001KA1240M+03251MA1999999099241MD1999999-0141REMSYN082AAXX  04004 82571 32997 03202 10266 20244 39924 40121 333 10325 29082 55093 59014;EQDQ01  00002PRCP99
0186825710999992001050412004-05500-045260FM-12+017499999V0201401N002110042019N0100001N1+02371+02351101361ADDAA199000091GF108991081051004501999999KA1240N+02081MA1999999099381MD1999999-0041REMSYN076AAXX  04124 82571 32497 81404 10237 20235 39938 40136 885// 333 20208 59004;EQDQ01  00002PRCP99
0167825710999992001050418004-05500-045260FM-12+017499999V0201401N001010450019N0100001N1+03131+02401100921ADDAA199000091GF105991031021008001041001MA1999999098971MD1999999-0111REMSYN070AAXX  04184 82571 32597 51402 10313 20240 39897 40092 83240 333 59011;EQDQ01  00002PRCP99
0198825710999992001050500004-05500-045260FM-12+017499999V0200501N002112200019N0100001N1+02531+02381101181ADDAA199000091GF103991031001017501031001KA1240M+03231MA1999999099201MD1999999-0041REMSYN088AAXX  05004 82571 32797 30504 10253 20238 39920 40118 83030 333 10323 29086 55033 59004;EQDQ01  00002PRCP99
0186825710999992001050512004-05500-045260FM-12+017499999V0202701N001012200019N0100001N1+02571+02371101321ADDAA199000091GF105991031021008001001011KA1240N+02111MA1999999099411MD1999999-0041REMSYN076AAXX  05124 82571 32597 52702 10257 20237 39941 40132 83201 333 20211 59004;EQDQ01  00002PRCP99
0167825710999992001050518004-05500-045260FM-12+017499999V0203601N001012200019N0100001N1+03161+02321100771ADDAA199000091GF105991021021008001001011MA1999999098821MD1999999-0151REMSYN070AAXX  05184 82571 32597 53602 10316 20232 39882 40077 82201 333 59015;EQDQ01  00002PRCP99
0198825710999992001050600004-05500-045260FM-12+017499999V0202301N001010450019N0100001N1+02701+02481101111ADDAA199000091GF105991031051008001031001KA1240M+03221MA1999999099141MD1999999-0061REMSYN088AAXX  06004 82571 32597 52302 10270 20248 39914 40111 83530 333 10322 29081 55087 59006;EQDQ01  00002PRCP99
0186825710999992001050612004-05500-045260FM-12+017499999V0202701N001010075019N0100001N1+02601+02421101381ADDAA199000091GF108991081051008001999999KA1240N+02281MA1999999099411MD1999999+0031REMSYN076AAXX  06124 82571 32597 82702 10260 20242 39941 40138 885// 333 20228 58003;EQDQ01  00002PRCP99
0174825710999992001050618004-05500-045260FM-12+017499999V0200501N001010450019N0100001N1+02651+02461100991ADDAA106002091AY161061GF106991041051008001031001MA1999999099021MD1999999+0201MW1021REMSYN082AAXX  06184 82571 21597 60502 10265 20246 39902 40099 7026/ 84530 333 58020 60021;
0198825710999992001050700004-05500-045260FM-12+017499999V0200501N001012200019N0100001N1+02471+02411101251ADDAA199000091GF104991041001017501071021KA1240M+03151MA1999999099271MD1999999+0131REMSYN088AAXX  07004 82571 32797 40502 10247 20241 39927 40125 84072 333 10315 29093 55013 58013;EQDQ01  00002PRCP99
0159825710999992001050712004-05500-045260FM-12+017499999V0202701N001010450019N0100001N1+02621+02411101421ADDAA124002091GF106991041051008001031001KA1240N+02231MA1999999099441REMSYN082AAXX  07124 82571 22597 62702 10262 20241 39944 40142 84530 333 20223 5803/ 60024;
0167825710999992001050718004-05500-045260FM-12+017499999V0200901N001012200019N0100001N1+03171+02441100921ADDAA199000091GF104991041021008001001001MA1999999098971MD1999999-0051REMSYN070AAXX  07184 82571 32597 40902 10317 20244 39897 40092 84200 333 59005;EQDQ01  00002PRCP99
0208825710999992001050800004-05500-045260FM-12+017499999V0202301N001012200019N0100001N1+02661+02461101131ADDAA199000091GA1001+999999999GF100991001001999999001001KA1240M+03241MA1999999099161MD1999999-0111REMSYN082AAXX  08004 82571 32997 02302 10266 20246 39916 40113 333 10324 29083 55071 59011;EQDQ01  00002PRCP99
0186825710999992001050812004-05500-045260FM-12+017499999V0200501N001010075019N0100001N1+02641+02481101291ADDAA199000091GF106991061051008001001001KA1240N+02211MA1999999099321MD1999999-0121REMSYN076AAXX  08124 82571 32597 60502 10264 20248 39932 40129 86500 333 20221 59012;EQDQ01  00002PRCP99
0167825710999992001050818004-05500-045260FM-12+017499999V0200501N001012200019N0100001N1+03141+02351101101ADDAA199000091GF105991031021008001001011MA1999999099011MD1999999+0041REMSYN070AAXX  08184 82571 32597 50502 10314 20235 39901 40110 83201 333 58004;EQDQ01  00002PRCP99
0198825710999992001050900004-05500-045260FM-12+017499999V0209999C000012200019N0100001N1+02631+02501101171ADDAA199000091GF103991031001017501061001KA1240M+03231MA1999999099201MD1999999+0041REMSYN088AAXX  09004 82571 32797 30000 10263 20250 39920 40117 83060 333 10323 29084 55041 58004;EQDQ01  00002PRCP99
0206825710999992001050912004-05500-045260FM-12+017499999V0203201N001010075019N0100001N1+02621+02441101241ADDAA199000091AY141061GF106991061051008001001001KA1240N+02211MA1999999099271MD1999999-0051MW1021REMSYN082AAXX  09124 82571 32597 63202 10262 20244 39927 40124 7024/ 86500 333 20221 59005;EQDQ01  00002PRCP99
0167825710999992001050918004-05500-045260FM-12+017499999V0200501N001012200019N0100001N1+03031+02481100871ADDAA199000091GF103991021021008001031001MA1999999098911MD1999999-0101REMSYN070AAXX  09184 82571 32597 30502 10303 20248 39891 40087 82230 333 59010;EQDQ01  00002PRCP99
0208825710999992001051000004-05500-045260FM-12+017499999V0209999C000012200019N0100001N1+02621+02481101051ADDAA199000091GA1001+999999999GF100991001001999999001001KA1240M+03171MA1999999099081MD1999999-0121REMSYN082AAXX  10004 82571 32997 00000 10262 20248 39908 40105 333 10317 29086 55043 59012;EQDQ01  00002PRCP99
0186825710999992001051012004-05500-045260FM-12+017499999V0200501N001010075019N0100001N1+02541+02451101291ADDAA199000091GF108991081051008001999999KA1240N+02171MA1999999099321MD1999999+0051REMSYN076AAXX  10124 82571 32597 80502 10254 20245 39932 40129 885// 333 20217 58005;EQDQ01  00002PRCP99
0174825710999992001051018004-05500-045260FM-12+017499999V0201401N001010075019N0100001N1+02921+02451101011ADDAA106000591AY161061GF108991081051008001999999MA1999999099051MD1999999+0141MW1031REMSYN082AAXX  10184 82571 21597 81402 10292 20245 39905 40101 7036/ 885// 333 58014 69941;
0198825710999992001051100004-05500-045260FM-12+017499999V0201401N001010075019N0100001N1+02541+02381101181ADDAA199000091GF108991081051008001999999KA1240M+02981MA1999999099201MD1999999+0121REMSYN088AAXX  11004 82571 32597 81402 10254 20238 39920 40118 885// 333 10298 29088 55011 58012;EQDQ01  00002PRCP99
0201825710999992001051112004-05500-045260FM-12+017499999V0202701N001010075019N0100001N1+02501+02401101421ADDAA124000591AY161061AY241061GF108991081051008001999999KA1240N+02191MA1999999099441MD1999999+0121MW1021REMSYN088AAXX  11124 82571 21597 82702 10250 20240 39944 40142 70264 885// 333 20219 58012 69954;
0167825710999992001051118004-05500-045260FM-12+017499999V0200501N001010450019N0100001N1+03021+02291101061ADDAA199000091GF106991041051008001031001MA1999999099101MD1999999+0051REMSYN070AAXX  11184 82571 32597 60502 10302 20229 39910 40106 84530 333 58005;EQDQ01  00002PRCP99
0208825710999992001051200004-05500-045260FM-12+017499999V0202701N001012200019N0100001N1+02611+02481101311ADDAA199000091GA1001+999999999GF100991001001999999001001KA1240M+03051MA1999999099331MD1999999+0131REMSYN082AAXX  12004 82571 32997 02702 10261 20248 39933 40131 333 10305 29086 55033 58013;EQDQ01  00002PRCP99
0193825710999992001051212004-05500-045260FM-12+017499999V0200901N001010450019N0100001N1+02661+02441101481ADDAA124000591AY161061GF106991041051008001031001KA1240N+02221MA1999999099511MD1999999+0071MW1031REMSYN088AAXX  12124 82571 21597 60902 10266 20244 39951 40148 7036/ 84530 333 20222 58007 69944;
0167825710999992001051218004-05500-045260FM-12+017499999V0200501N003110450019N0100001N1+03181+02391101081ADDAA199000091GF105991031021008001031001MA1999999099131MD1999999+0031REMSYN070AAXX  12184 82571 32597 50506 10318 20239 39913 40108 83230 333 58003;EQDQ01  00002PRCP99
0208825710999992001051300004-05500-045260FM-12+017499999V0202301N001012200019N0100001N1+02481+02341101411ADDAA199000091GA1001+999999999GF100991001001999999001001KA1240M+03241MA1999999099431MD1999999+0101REMSYN082AAXX  13004 82571 32997 02302 10248 20234 39943 40141 333 10324 29084 55075 58010;EQDQ01  00002PRCP99
0186825710999992001051312004-05500-045260FM-12+017499999V0202701N001010120019N0100001N1+02411+02331101571ADDAA199000091GF106991061081008001001001KA1240N+02021MA1999999099581MD1999999+0071REMSYN076AAXX  13124 82571 32597 62702 10241 20233 39958 40157 86800 333 20202 58007;EQDQ01  00002PRCP99
0167825710999992001051318004-05500-045260FM-12+017499999V0201401N003112200019N0100001N1+03161+02391101161ADDAA199000091GF103991031021008001001001MA1999999099201MD1999999+0071REMSYN070AAXX  13184 82571 32597 31406 10316 20239 39920 40116 83200 333 58007;EQDQ01  00002PRCP99
0186825710999992001051412004-05500-045260FM-12+017499999V0200501N001010042019N0100001N1+02481+02411101461ADDAA199000091GF108991081051004501999999KA1240N+02101MA1999999099481MD1999999-0101REMSYN076AAXX  14124 82571 32497 80502 10248 20241 39948 40146 885// 333 20210 59010;EQDQ01  00002PRCP99
0167825710999992001051418004-05500-045260FM-12+017499999V0201801N001012200019N0100001N1+03211+02451100981ADDAA199000091GF104991031021008001001011MA1999999099031MD1999999-0171REMSYN070AAXX  14184 82571 32597 41802 10321 20245 39903 40098 83201 333 59017;EQDQ01  00002PRCP99
0208825710999992001051500004-05500-045260FM-12+017499999V0209999C000012200019N0100001N1+02641+02481101151ADDAA199000091GA1001+999999999GF100991001001999999001001KA1240M+03251MA1999999099171MD1999999-0131REMSYN082AAXX  15004 82571 32997 00000 10264 20248 39917 40115 333 10325 29086 55064 59013;EQDQ01  00002PRCP99
0206825710999992001051512004-05500-045260FM-12+017499999V0200501N001010042019N0100001N1+02581+02441101331ADDAA199000091AY141061GF106991061021004501001001KA1240N+02141MA1999999099361MD1999999-0121MW1011REMSYN082AAXX  15124 82571 31497 60502 10258 20244 39936 40133 7014/ 86200 333 20214 59012;EQDQ01  00002PRCP99
0208825710999992001051600004-05500-045270FM-12+017499999V0200501N001012200019N0100001N1+02561+02401101191ADDAA199000091GA1001+999999999GF100991001001999999001001KA1240M+03191MA1999999099211MD1999999+0041REMSYN082AAXX  16004 82571 32997 00502 10256 20240 39921 40119 333 10319 29086 55069 58004;EQDQ01  00002PRCP99
0193825710999992001051612004-05500-045270FM-12+017499999V0202301N001010450019N0100001N1+02431+02371101431ADDAA124001091AY141061GF106991031021004501011011KA1240N+02041MA1999999099451MD1999999+0091MW1011REMSYN088AAXX  16124 82571 21497 62302 10243 20237 39945 40143 7014/ 83211 333 20204 58009 69994;
0208825710999992001051700004-05500-045260FM-12+017499999V0209999C000012200019N0100001N1+02591+02421101321ADDAA199000091GA1001+999999999GF100991001001999999001001KA1240M+03161MA1999999099341MD1999999+0131REMSYN082AAXX  17004 82571 32997 00000 10259 20242 39934 40132 333 10316 29085 55076 58013;EQDQ01  00002PRCP99
0206825710999992001051712004-05500-045260FM-12+017499999V0202301N001010450019N0100001N1+02461+02361101551ADDAA199000091AY141061GF105991031021004501031001KA1240N+01941MA1999999099561MD1999999+0111MW1031REMSYN082AAXX  17124 82571 31497 52302 10246 20236 39956 40155 7034/ 83230 333 20194 58011;EQDQ01  00002PRCP99
0167825710999992001051718004-05500-045260FM-12+017499999V0202301N001012200019N0100001N1+03151+02341101281ADDAA199000091GF103991021021008001031001MA1999999099321MD1999999+0221REMSYN070AAXX  17184 82571 32597 32302 10315 20234 39932 40128 82230 333 58022;EQDQ01  00002PRCP99
0186825710999992001051800004-05500-045260FM-12+017499999V0203201N001010042019N0100001N1+02461+02371101621ADDAA199000091GF108991081051004501999999KA1240N+02111MA1999999099641MD1999999+0081REMSYN076AAXX  18004 82571 32497 83202 10246 20237 39964 40162 885// 333 20211 58008;EQDQ01  00002PRCP99
0186825710999992001051812004-05500-045260FM-12+017499999V0203201N001010042019N0100001N1+02461+02371101621ADDAA199000091GF108991081051004501999999KA1240N+02111MA1999999099641MD1999999+0081REMSYN076AAXX  18124 82571 32497 83202 10246 20237 39964 40162 885// 333 20211 58008;EQDQ01  00002PRCP99
0167825710999992001051818004-05500-045260FM-12+017499999V0202701N001012200019N0100001N1+03191+02381101231ADDAA199000091GF104991041021008001001001MA1999999099271MD1999999-0051REMSYN070AAXX  18184 82571 32597 42702 10319 20238 39927 40123 84200 333 59005;EQDQ01  00002PRCP99
0208825710999992001051900004-05500-045260FM-12+017499999V0202701N001012200019N0100001N1+02641+02421101431ADDAA199000091GA1001+999999999GF100991001001999999001001KA1240M+03271MA1999999099451MD1999999-0081REMSYN082AAXX  19004 82571 32997 02702 10264 20242 39945 40143 333 10327 29083 55057 59008;EQDQ01  00002PRCP99
0186825710999992001051912004-05500-045260FM-12+017499999V0200501N003112200019N0100001N1+02681+02411101571ADDAA199000091GF103991031021004501001001KA1240N+02111MA1999999099601MD1999999-0041REMSYN076AAXX  19124 82571 32497 30506 10268 20241 39960 40157 83200 333 20211 59004;EQDQ01  00002PRCP99
0167825710999992001051918004-05500-045260FM-12+017499999V0203601N001012200019N0100001N1+03181+02391101101ADDAA199000091GF103991021021008001031001MA1999999099151MD1999999-0121REMSYN070AAXX  19184 82571 32597 33602 10318 20239 39915 40110 82230 333 59012;EQDQ01  00002PRCP99
0210825710999992001052000004-05500-045260FM-12+017499999V0200901N002112200019N0100001N1+02641+02411101321ADDAA199000091GF101991011001017501041001KA1240M+03261MA1999999099351MD1999999-0101MW1131REMSYN094AAXX  20004 82571 31797 10904 10264 20241 39935 40132 713// 81040 333 10326 29080 55090 59010;EQDQ01  00002PRCP99
0206825710999992001052012004-05500-045260FM-12+017499999V0200401N002612200019N0100001N1+02561+02361101411ADDAA199000091AY141061GF103991031021004501001001KA1240N+02071MA1999999099441MD1999999-0161MW1031REMSYN082AAXX  20124 82571 31497 30405 10256 20236 39944 40141 7034/ 83200 333 20207 59016;EQDQ01  00002PRCP99
0167825710999992001052018004-05500-045260FM-12+017499999V0200501N003110450019N0100001N1+03131+02381101011ADDAA199000091GF106991031021008001011011MA1999999099061MD1999999-0091REMSYN070AAXX  20184 82571 32597 60506 10313 20238 39906 40101 83211 333 59009;EQDQ01  00002PRCP99
0197825710999992001052100004-05500-045260FM-12+017499999V0203201N001010042019N0100001N1+02531+02421101311ADDAA106001091GF108991081051004501999999KA1240M+03171MA1999999099331MD1999999-0021MW1811REMSYN100AAXX  21004 82571 21497 83202 10253 20242 39933 40131 781// 885// 333 10317 29085 55063 59002 60011;
0173825710999992001052112004-05500-045260FM-12+017499999V0200501N001010075019N0100001N1+02451+02371101501ADDAA124001091GF108991081051008001999999KA1240N+02231MA1999999099511MD1999999+0071REMSYN082AAXX  21124 82571 21597 80502 10245 20237 39951 40150 885// 333 20223 58007 60014;
0154825710999992001052118004-05500-045260FM-12+017499999V0201401N003112200019N0100001N1+02991+02341101091ADDAA106000191GF104991031021008001001011MA1999999099131MD1999999+0071REMSYN076AAXX  21184 82571 21597 41406 10299 20234 39913 40109 83201 333 58007 69911;
0208825710999992001052200004-05500-045260FM-12+017499999V0200501N001012200019N0100001N1+02531+02331101301ADDAA199000091GA1001+999999999GF100991001001999999001001KA1240M+03061MA1999999099321MD1999999-0011REMSYN082AAXX  22004 82571 32997 00502 10253 20233 39932 40130 333 10306 29085 55042 59001;EQDQ01  00002PRCP99
0173825710999992001052212004-05500-045260FM-12+017499999V0203201N001012200019N0100001N1+02601+02351101441ADDAA124000191GF104991021021008001001011KA1240N+01981MA1999999099461MD1999999-0051REMSYN082AAXX  22124 82571 22597 43202 10260 20235 39946 40144 82201 333 20198 59005 69914;
0183825710999992001052218004-05500-045260FM-12+017499999V0200501N003119999999N0100001N1+03181+02161101061ADDAA199000091GF105991999021008001001001MA1999999099101MD1999999-0031REMSYN070AAXX  22184 82571 32597 50506 10318 20216 39910 40106 82200 333 59003;EQDQ01+000022SCOTLCQ02  00002PRCP99
0186825710999992001052312004-05500-045260FM-12+017499999V0201401N001012200019N0100001N1+02601+02291101451ADDAA199000091GF102991021021008001001001KA1240N+02001MA1999999099471MD1999999+0011REMSYN076AAXX  23124 82571 32597 21402 10260 20229 39947 40145 82200 333 20200 58001;EQDQ01  00002PRCP99
0167825710999992001052318004-05500-045260FM-12+017499999V0201801N001012200019N0100001N1+03161+02261101051ADDAA199000091GF104991041021008001001001MA1999999099091MD1999999-0011REMSYN070AAXX  23184 82571 32597 41802 10316 20226 39909 40105 84200 333 59001;EQDQ01  00002PRCP99
0208825710999992001052400004-05500-045260FM-12+017499999V0201401N001012200019N0100001N1+02631+02351101251ADDAA199000091GA1001+999999999GF100991001001999999001001KA1240M+03291MA1999999099281MD1999999-0011REMSYN082AAXX  24004 82571 32997 01402 10263 20235 39928 40125 333 10329 29078 55096 59001;EQDQ01  00002PRCP99
0186825710999992001052412004-05500-045260FM-12+017499999V0200501N001010450019N0100001N1+02541+02381101561ADDAA199000091GF106991031051008001051011KA1240N+02031MA1999999099581MD1999999+0111REMSYN076AAXX  24124 82571 32597 60502 10254 20238 39958 40156 83551 333 20203 58011;EQDQ01  00002PRCP99
0167825710999992001052418004-05500-045260FM-12+017499999V0201401N001012200019N0100001N1+03161+02341101151ADDAA199000091GF103991031021008001001001MA1999999099191MD1999999+0101REMSYN070AAXX  24184 82571 32597 31402 10316 20234 39919 40115 83200 333 58010;EQDQ01  00002PRCP99
0208825710999992001052500004-05500-045260FM-12+017499999V0201401N001012200019N0100001N1+02661+02411101391ADDAA199000091GA1001+999999999GF100991001001999999001001KA1240M+03241MA1999999099421MD1999999+0141REMSYN082AAXX  25004 82571 32997 01402 10266 20241 39942 40139 333 10324 29081 55077 58014;EQDQ01  00002PRCP99
0186825710999992001052512004-05500-045260FM-12+017499999V0203201N001010075019N0100001N1+02531+02401101551ADDAA199000091GF108991081051008001999999KA1240N+02131MA1999999099571MD1999999-0011REMSYN076AAXX  25124 82571 32597 83202 10253 20240 39957 40155 885// 333 20213 59001;EQDQ01  00002PRCP99
0174825710999992001052518004-05500-045260FM-12+017499999V0201801N003110450019N0100001N1+03021+02341101171ADDAA106000191AY161061GF105991031031008001031001MA1999999099211MD1999999+0021MW1031REMSYN082AAXX  25184 82571 21597 51806 10302 20234 39921 40117 7036/ 83330 333 58002 69911;
0223825710999992001052600004-05500-045260FM-12+017499999V0202301N001012200019N0100001N1+02361+02261101411ADDAA106008991AY191061AY261061GA1001+999999999GF100991001001999999001001KA1240M+03181MA1999999099421MD1999999+0001MW1001REMSYN094AAXX  26004 82571 21997 02302 10236 20226 39942 40141 70096 333 10318 29087 55063 58000 60091;
0193825710999992001052612004-05500-045260FM-12+017499999V0203601N001010075019N0100001N1+02461+02361101481ADDAA124008991AY141061GF108991061051008001001011KA1240N+01961MA1999999099491MD1999999-0081MW1021REMSYN088AAXX  26124 82571 21597 83602 10246 20236 39949 40148 7024/ 86501 333 20196 59008 60094;
0167825710999992001052618004-05500-045260FM-12+017499999V0200501N003110450019N0100001N1+03011+02341101011ADDAA199000091GF106991021031008001041011MA1999999099051MD1999999-0161REMSYN070AAXX  26184 82571 32597 60506 10301 20234 39905 40101 82341 333 59016;EQDQ01  00002PRCP99
0208825710999992001052700004-05500-045260FM-12+017499999V0209999C000012200019N0100001N1+02511+02401101271ADDAA199000091GA1001+999999999GF100991001001999999001001KA1240M+03201MA1999999099291MD1999999-0131REMSYN082AAXX  27004 82571 32997 00000 10251 20240 39929 40127 333 10320 29087 55049 59013;EQDQ01  00002PRCP99
0186825710999992001052712004-05500-045260FM-12+017499999V0202301N001010075019N0100001N1+02601+02391101481ADDAA199000091GF108991081051008001999999KA1240N+02111MA1999999099501MD1999999+0011REMSYN076AAXX  27124 82571 32597 82302 10260 20239 39950 40148 885// 333 20211 58001;EQDQ01  00002PRCP99
0167825710999992001052718004-05500-045260FM-12+017499999V0200501N001012200019N0100001N1+03181+02251101061ADDAA199000091GF103991021021008001001011MA1999999099501MD1999999+0061REMSYN070AAXX  27184 82571 32597 30502 10318 20225 39950 40106 82201 333 58006;EQDQ01  00002PRCP99
0208825710999992001052800004-05500-045260FM-12+017499999V0209999C000012200019N0100001N1+02551+02381101341ADDAA199000091GA1001+999999999GF100991001001999999001001KA1240M+03251MA1999999099361MD1999999+0071REMSYN082AAXX  28004 82571 32997 00000 10255 20238 39936 40134 333 10325 29082 55054 58007;EQDQ01  00002PRCP99
0186825710999992001052812004-05500-045260FM-12+017499999V0203601N001010042019N0100001N1+02491+02401101571ADDAA199000091GF107991071051004501001001KA1240N+02101MA1999999099581MD1999999+0081REMSYN076AAXX  28124 82571 32497 73602 10249 20240 39958 40157 87500 333 20210 58008;EQDQ01  00002PRCP99
0198825710999992001052900004-05500-045260FM-12+017499999V0209999C000012200019N0100001N1+02651+02441101301ADDAA199000091GF102991021001017501031001KA1240M+03231MA1999999099321MD1999999-0041REMSYN088AAXX  29004 82571 32797 20000 10265 20244 39932 40130 82030 333 10323 29083 55066 59004;EQDQ01  00002PRCP99
0206825710999992001052912004-05500-045260FM-12+017499999V0201801N001010042019N0100001N1+02381+02361101591ADDAA199000091AY141061GF108991081051004501999999KA1240N+02081MA1999999099601MD1999999+0021MW1021REMSYN082AAXX  29124 82571 31497 81802 10238 20236 39960 40159 7024/ 885// 333 20208 58002;EQDQ01  00002PRCP99
0137825710999992001052918004-05500-045260FM-12+017499999V0200901N003112200019N0100001N1+03221+02371101161ADDGF103991031021008001001001MA1999999099211MD1999999+0011REMSYN070AAXX  29184 82571 22597 30906 10322 20237 39921 40116 83200 333 58001;
0198825710999992001053000004-05500-045260FM-12+017499999V0202701N001012200019N0100001N1+02641+02461101381ADDAA199000091GF101991011001017501011001KA1240M+03291MA1999999099401MD1999999+0081REMSYN088AAXX  30004 82571 32797 12702 10264 20246 39940 40138 81010 333 10329 29085 55070 58008;EQDQ01  00002PRCP99
0174825710999992001053018004-05500-045260FM-12+017499999V0200501N002112200019N0100001N1+03161+02321101121ADDAA106000191AY161061GF103991021021008001031001MA1999999099171MD1999999-0041MW1011REMSYN082AAXX  30184 82571 21597 30504 10316 20232 39917 40112 7016/ 82230 333 59004 69911;
0215825710999992001053100004-05500-045260FM-12+017499999V0209999C000012200019N0100001N1+02401+02281101341ADDAA106000191AY161061GA1001+999999999GF100991001001999999001001KA1240M+03231MA1999999099361MD1999999-0041MW1021REMSYN094AAXX  31004 82571 21997 00000 10240 20228 39936 40134 7026/ 333 10323 29084 55070 59004 69911;
0173825710999992001053112004-05500-045260FM-12+017499999V0200501N002110450019N0100001N1+02581+02401101541ADDAA124000191GF105991031051004501031001KA1240N+02061MA1999999099551MD1999999-0061REMSYN082AAXX  31124 82571 22497 50504 10258 20240 39955 40154 83530 333 20206 59006 69924;
0167825710999992001053118004-05500-045260FM-12+017499999V0200901N003110450019N0100001N1+02941+02261101191ADDAA199000091GF106991041081008001041001MA1999999099231MD1999999+0061REMSYN070AAXX  31184 82571 32597 60906 10294 20226 39923 40119 84840 333 58006;EQDQ01  00002PRCP99
0198825710999992001060100004-05500-045260FM-12+017499999V0202301N001012200019N0100001N1+02511+02381101321ADDAA199000091GF103991031001017501041001KA1240M+03011MA1999999099341MD1999999-0021REMSYN088AAXX  01004 82571 32797 32302 10251 20238 39934 40132 83040 333 10301 29085 55059 59002;EQDQ01  00002PRCP99
0186825710999992001060112004-05500-045260FM-12+017499999V0202701N001010042019N0100001N1+02321+02291101501ADDAA199000091GF107991051021004501031001KA1240N+02041MA1999999099511MD1999999-0041REMSYN076AAXX  01124 82571 32497 72702 10232 20229 39951 40150 85230 333 20204 59004;EQDQ01  00002PRCP99
0174825710999992001060118004-05500-045260FM-12+017499999V0200501N003110450019N0100001N1+03061+02401101101ADDAA106000191AY161061GF106991041051004501011011MA1999999099141MD1999999-0091MW1031REMSYN082AAXX  01184 82571 21497 60506 10306 20240 39914 40110 7036/ 84511 333 59009 69911;
0205825710999992001060200004-05500-045260FM-12+017499999V0209999C000012200019N0100001N1+02301+02161101271ADDAA106000191AY161061GF104991041001017501041001KA1240M+03121MA1999999099271MD1999999-0071MW1131REMSYN100AAXX  02004 82571 21797 40000 10230 20216 39927 40127 7136/ 84040 333 10312 29088 55035 59007 69911;
0173825710999992001060212004-05500-045260FM-12+017499999V0200901N002110042019N0100001N1+02481+02341101491ADDAA124000191GF105991051021004501001001KA1240N+02071MA1999999099501MD1999999-0011REMSYN082AAXX  02124 82571 22497 50904 10248 20234 39950 40149 85200 333 20207 59001 69924;
0167825710999992001060218004-05500-045260FM-12+017499999V0200501N001011050019N0100001N1+02901+02341101081ADDAA199000091GF105991021021008001041011MA1999999099111MD1999999+0031REMSYN070AAXX  02184 82571 32597 50502 10290 20234 39911 40108 82241 333 58003;EQDQ01  00002PRCP99
0198825710999992001060300004-05500-045260FM-12+017499999V0200501N002110150019N0100001N1+02441+02321101381ADDAA199000091GF105991051001017501051001KA1240M+03051MA1999999099391MD1999999+0121REMSYN088AAXX  03004 82571 32797 50504 10244 20232 39939 40138 85050 333 10305 29088 55026 58012;EQDQ01  00002PRCP99
0206825710999992001060312004-05500-045260FM-12+017499999V0200501N001012200019N0100001N1+02621+02331101521ADDAA199000091AY141061GF104991031021004501011001KA1240N+02071MA1999999099541MD1999999+0041MW1031REMSYN082AAXX  03124 82571 31497 40502 10262 20233 39954 40152 7034/ 83210 333 20207 58004;EQDQ01  00002PRCP99
0167825710999992001060318004-05500-045260FM-12+017499999V0201401N003112200019N0100001N1+03111+02191101101ADDAA199000091GF103991011021008001011011MA1999999099141MD1999999+0031REMSYN070AAXX  03184 82571 32597 31406 10311 20219 39914 40110 81211 333 58003;EQDQ01  00002PRCP99
0198825710999992001060400004-05500-045260FM-12+017499999V0200501N001012200019N0100001N1+02561+02251101351ADDAA199000091GF102991021001017501031001KA1240M+03171MA1999999099381MD1999999-0011REMSYN088AAXX  04004 82571 32797 20502 10256 20225 39938 40135 82030 333 10317 29077 55085 59001;EQDQ01  00002PRCP99
0186825710999992001060412004-05500-045260FM-12+017499999V0202301N001010450019N0100001N1+02431+02281101631ADDAA199000091GF106991021021008001031011KA1240N+01971MA1999999099641MD1999999+0101REMSYN076AAXX  04124 82571 32597 62302 10243 20228 39964 40163 82231 333 20197 58010;EQDQ01  00002PRCP99
0167825710999992001060418004-05500-045260FM-12+017499999V0200901N003110450019N0100001N1+03021+02181101251ADDAA199000091GF106991021021008001031011MA1999999099281MD1999999+0141REMSYN070AAXX  04184 82571 32597 60906 10302 20218 39928 40125 82231 333 58014;EQDQ01  00002PRCP99
0198825710999992001060500004-05500-045260FM-12+017499999V0203201N000512200019N0100001N1+02461+02271101401ADDAA199000091GF105991031001017501031011KA1240M+03141MA1999999099411MD1999999+0031REMSYN088AAXX  05004 82571 32797 53201 10246 20227 39941 40140 83031 333 10314 29082 55052 58003;EQDQ01  00002PRCP99
0185825710999992001060512004-05500-045260FM-12+017499999V0200501N001010075019N0100001N1+02331+02271101661ADDAA124000191GF108991081051008001999999KA1240N+02021MA1999999099661MD1999999+0021MW1611REMSYN088AAXX  05124 82571 21597 80502 10233 20227 39966 40166 761// 885// 333 20202 58002 69924;
0148825710999992001060518004-05500-045260FM-12+017499999V0200901N003110450019N0100001N1+02991+02241101281ADDAA199000021GF106991021021008001031011MA1999999099311MD1999999+0031REMSYN070AAXX  05184 82571 32597 60906 10299 20224 39931 40128 82231 333 58003;
0179825710999992001060600004-05500-045260FM-12+017499999V0209999C000012200019N0100001N1+02461+02271101461ADDAA199000021GF106991041001017501031011KA1240M+03051MA1999999099471MD1999999+0061REMSYN088AAXX  06004 82571 32797 60000 10246 20227 39947 40146 84031 333 10305 29084 55022 58006;
0198825710999992001060612004-05500-045260FM-12+017499999V0203601N001010075019N0100001N1+02261+02181101581ADDAA199000091GF108991081051008001999999KA1240N+01921MA1999999099581MD1999999-0081MW1101REMSYN082AAXX  06124 82571 31597 83602 10226 20218 39958 40158 710// 885// 333 20192 59008;EQDQ01  00002PRCP99
0177825710999992001060618004-05500-045260FM-12+017499999V0201401N003112200019N0100001N1+03061+02221101221ADDAA199000091GF104991041021008001001001MA1999999099271MD1999999-0061REMSYN064AAXX  06184 82571 32597 41406 10306 20222 40122 84200 333 59006;EQDQ01+999990APOSP Q02  00002PRCP99
0198825710999992001060700004-05500-045260FM-12+017499999V0203601N001012200019N0100001N1+02571+02351101451ADDAA199000091GF102991021001017501031001KA1240M+03111MA1999999099461MD1999999-0011REMSYN088AAXX  07004 82571 32797 23602 10257 20235 39946 40145 82030 333 10311 29082 55053 59001;EQDQ01  00002PRCP99
0186825710999992001060712004-05500-045260FM-12+017499999V0203601N001010075019N0100001N1+02581+02311101581ADDAA199000091GF106991061051008001001001KA1240N+02051MA1999999099601MD1999999+0021REMSYN076AAXX  07124 82571 32597 63602 10258 20231 39960 40158 86500 333 20205 58002;EQDQ01  00002PRCP99
0167825710999992001060718004-05500-045260FM-12+017499999V0201401N001010450019N0100001N1+02861+02281101211ADDAA199000091GF106991021021008001031011MA1999999099231MD1999999-0021REMSYN070AAXX  07184 82571 32597 61402 10286 20228 39923 40121 82231 333 59002;EQDQ01  00002PRCP99
0193825710999992001060812004-05500-045260FM-12+017499999V0202301N001010450019N0100001N1+02211+02121101701ADDAA124014091AY161061GF106991041051008001041001KA1240N+02021MA1999999099701MD1999999+0101MW1611REMSYN088AAXX  08124 82571 21597 62302 10221 20212 39970 40170 7616/ 84540 333 20202 58010 60144;
0148825710999992001060818004-05500-045260FM-12+017499999V0200901N001012200019N0100001N1+03041+02181101221ADDAA199000021GF104991031021008001001011MA1999999099251MD1999999+0021REMSYN070AAXX  08184 82571 32597 40902 10304 20218 39925 40122 83201 333 58002;
0189825710999992001060900004-05500-045260FM-12+017499999V0203601N001012200019N0100001N1+02491+02291101471ADDAA199000021GA1001+999999999GF100991001001999999001001KA1240M+03111MA1999999099471MD1999999+0061REMSYN082AAXX  09004 82571 32997 03602 10249 20229 39947 40147 333 10311 29082 55066 58006;
0186825710999992001060912004-05500-045260FM-12+017499999V0202301N001012200019N0100001N1+02421+02331101611ADDAA199000091GF104991031021008001001011KA1240N+02081MA1999999099621MD1999999-0081REMSYN076AAXX  09124 82571 32597 42302 10242 20233 39962 40161 83201 333 20208 59008;EQDQ01  00002PRCP99
0167825710999992001060918004-05500-045260FM-12+017499999V0201401N001012200019N0100001N1+03051+02051101321ADDAA199000091GF103991031021008001001001MA1999999099351MD1999999+0101REMSYN070AAXX  09184 82571 32597 31402 10305 20205 39935 40132 83200 333 58010;EQDQ01  00002PRCP99
0192825710999992001061000004-05500-045260FM-12+017499999V0209999C000019999999N0100001N1+02491+99999101451ADDAA199000091GF107991999999999999999999KA1240M+03111MA1999999099461MD1999999-0011REMSYN082AAXX  10004 82571 32997 70000 10249 20251 39946 40145 333 10311 29082 55077 59001;EQDQ01  00002PRCP99
0167825710999992001061018004-05500-045260FM-12+017499999V0200901N003112200019N0100001N1+03161+02171101321ADDAA199000091GF103991021021008001001011MA1999999099351MD1999999+0001REMSYN070AAXX  10184 82571 32597 30906 10316 20217 39935 40132 82201 333 58000;EQDQ01  00002PRCP99
0208825710999992001061100004-05500-045260FM-12+017499999V0203201N001012200019N0100001N1+02591+02371101411ADDAA199000091GA1001+999999999GF100991001001999999001001KA1240M+03241MA1999999099431MD1999999-0031REMSYN082AAXX  11004 82571 32997 03202 10259 20237 39943 40141 333 10324 29077 55090 59003;EQDQ01  00002PRCP99
0206825710999992001061112004-05500-045260FM-12+017499999V0201401N001012200019N0100001N1+02561+02171101491ADDAA199000091AY141061GF101991011011004501001001KA1240N+01961MA1999999099511MD1999999-0181MW1021REMSYN082AAXX  11124 82571 31497 11402 10256 20217 39951 40149 7024/ 81100 333 20196 59018;EQDQ01  00002PRCP99
0167825710999992001061118004-05500-045260FM-12+017499999V0200901N003112200019N0100001N1+03111+02141101181ADDAA199000091GF103991031021008001001001MA1999999099211MD1999999-0141REMSYN070AAXX  11184 82571 32597 30906 10311 20214 39921 40118 83200 333 59014;EQDQ01  00002PRCP99
0206825710999992001061212004-05500-045260FM-12+017499999V0201401N004112200019N0100001N1+02611+01931101451ADDAA199000091AY141061GF102991011001017501011011KA1240N+01981MA1999999099471MD1999999-0041MW1021REMSYN082AAXX  12124 82571 31797 21408 10261 20193 39947 40145 7024/ 81011 333 20198 59004;EQDQ01  00002PRCP99
0167825710999992001061218004-05500-045260FM-12+017499999V0200901N003112200019N0100001N1+03041+01881101161ADDAA199000091GF102991011011008001001011MA1999999099201MD1999999-0011REMSYN070AAXX  12184 82571 32597 20906 10304 20188 39920 40116 81101 333 59001;EQDQ01  00002PRCP99
0208825710999992001061300004-05500-045260FM-12+017499999V0209999C000012200019N0100001N1+02411+02091101391ADDAA199000091GA1001+999999999GF100991001001999999001001KA1240M+03111MA1999999099411MD1999999+0001REMSYN082AAXX  13004 82571 32997 00000 10241 20209 39941 40139 333 10311 29070 55101 58000;EQDQ01  00002PRCP99
0196825710999992001061312004-05500-045260FM-12+017499999V0201401N002112200019N0100001N1+02381+02071101511ADDAA199000091GA1001+999999999GF100991001001999999001001KA1240N+01781MA1999999099521MD1999999+0051REMSYN070AAXX  13124 82571 32997 01404 10238 20207 39952 40151 333 20178 58005;EQDQ01  00002PRCP99
0167825710999992001061318004-05500-045260FM-12+017499999V0201401N002112200019N0100001N1+03061+01961101191ADDAA199000091GF103991021021008001041001MA1999999099221MD1999999+0021REMSYN070AAXX  13184 82571 32597 31404 10306 20196 39922 40119 82240 333 58002;EQDQ01  00002PRCP99
0208825710999992001061400004-05500-045260FM-12+017499999V0209999C000012200019N0100001N1+02491+02191101441ADDAA199000091GA1001+999999999GF100991001001999999001001KA1240M+03141MA1999999099451MD1999999+0041REMSYN082AAXX  14004 82571 32997 00000 10249 20219 39945 40144 333 10314 29075 55105 58004;EQDQ01  00002PRCP99
0186825710999992001061412004-05500-045260FM-12+017499999V0201401N001012200019N0100001N1+02161+02041101441ADDAA199000091GF103991031001017501031001KA1240N+01821MA1999999099441MD1999999-0081REMSYN076AAXX  14124 82571 32797 31402 10216 20204 39944 40144 83030 333 20182 59008;EQDQ01  00002PRCP99
0167825710999992001061418004-05500-045260FM-12+017499999V0201401N003112200019N0100001N1+03161+01961101071ADDAA199000091GF103991021021008001001011MA1999999099111MD1999999-0111REMSYN070AAXX  14184 82571 32597 31406 10316 20196 39911 40107 82201 333 59011;EQDQ01  00002PRCP99
0208825710999992001061500004-05500-045260FM-12+017499999V0209999C000012200019N0100001N1+02541+02251101291ADDAA199000091GA1001+999999999GF100991001001999999001001KA1240M+03221MA1999999099301MD1999999-0151REMSYN082AAXX  15004 82571 32997 00000 10254 20225 39930 40129 333 10322 29078 55091 59015;EQDQ01  00002PRCP99
0186825710999992001061512004-05500-045260FM-12+017499999V0201401N001010042019N0100001N1+02301+02281101461ADDAA199000091GF108991081051004501999999KA1240N+01981MA1999999099471MD1999999+0031REMSYN076AAXX  15124 82571 32497 81402 10230 20228 39947 40146 885// 333 20198 58003;EQDQ01  00002PRCP99
0167825710999992001061518004-05500-045260FM-12+017499999V0201401N004112200019N0100001N1+03071+02131101081ADDAA199000091GF103991021021008001001011MA1999999099121MD1999999+0011REMSYN070AAXX  15184 82571 32597 31408 10307 20213 39912 40108 82201 333 58001;EQDQ01  00002PRCP99
0208825710999992001061600004-05500-045260FM-12+017499999V0202701N001012200019N0100001N1+02521+02251101271ADDAA199000091GA1001+999999999GF100991001001999999001001KA1240M+03131MA1999999099281MD1999999-0021REMSYN082AAXX  16004 82571 32997 02702 10252 20225 39928 40127 333 10313 29082 55073 59002;EQDQ01  00002PRCP99
0186825710999992001061612004-05500-045260FM-12+017499999V0201401N001010042019N0100001N1+02521+02311101481ADDAA199000091GF106991061021004501001001KA1240N+01901MA1999999099491MD1999999+0021REMSYN076AAXX  16124 82571 32497 61402 10252 20231 39949 40148 86200 333 20190 58002;EQDQ01  00002PRCP99
0167825710999992001061618004-05500-045260FM-12+017499999V0201401N003112200019N0100001N1+03121+01891101081ADDAA199000091GF101991011011008001001001MA1999999099121MD1999999+0001REMSYN070AAXX  16184 82571 32597 11406 10312 20189 39912 40108 81100 333 58000;EQDQ01  00002PRCP99
0208825710999992001061700004-05500-045260FM-12+017499999V0209999C000012200019N0100001N1+02411+02071101251ADDAA199000091GA1001+999999999GF100991001001999999001001KA1240M+03171MA1999999099261MD1999999-0021REMSYN082AAXX  17004 82571 32997 00000 10241 20207 39926 40125 333 10317 29074 55099 59002;EQDQ01  00002PRCP99
0168825710999992001061712004-05500-045260FM-12+017499999V0201801N001012200019N0100001N1+02401+02071101501ADDAA199000091GA1001+999999999GF100991001001999999001001MA1999999099511REMSYN069AAXX  17124 82571 32997 01802 10240 20207 39951 40150 333 2175 58002;EQDQ01  00002PRCP99
0208825710999992001061800004-05500-045260FM-12+017499999V0209999C000012200019N0100001N1+02531+02171101261ADDAA199000091GA1001+999999999GF100991001001999999001001KA1240M+03271MA1999999099271MD1999999+0011REMSYN082AAXX  18004 82571 32997 00000 10253 20217 39927 40126 333 10327 29073 55102 58001;EQDQ01  00002PRCP99
0186825710999992001061812004-05500-045260FM-12+017499999V0202701N001010075019N0100001N1+02311+02091101521ADDAA199000091GF108991081051008001999999KA1240N+01811MA1999999099531MD1999999-0021REMSYN076AAXX  18124 82571 32597 82702 10231 20209 39953 40152 885// 333 20181 59002;EQDQ01  00002PRCP99
0167825710999992001061818004-05500-045260FM-12+017499999V0201401N003112200019N0100001N1+03181+02131101141ADDAA199000091GF103991031021008001001001MA1999999099171MD1999999-0061REMSYN070AAXX  18184 82571 32597 31406 10318 20213 39917 40114 83200 333 59006;EQDQ01  00002PRCP99
0208825710999992001061900004-05500-045260FM-12+017499999V0203201N001012200019N0100001N1+02571+02291101291ADDAA199000091GA1001+999999999GF100991001001999999001001KA1240M+03271MA1999999099291MD1999999+0021REMSYN082AAXX  19004 82571 32997 03202 10257 20229 39929 40129 333 10327 29077 55084 58002;EQDQ01  00002PRCP99
0186825710999992001061912004-05500-045260FM-12+017499999V0201401N003112200019N0100001N1+02631+02031101491ADDAA199000091GF101991001001999999001011KA1240N+01861MA1999999099511MD1999999-0021REMSYN076AAXX  19124 82571 32997 11406 10263 20203 39951 40149 80001 333 20186 59002;EQDQ01  00002PRCP99
0224825710999992001062000004-05500-045260FM-12+017499999V0209999C000012200019N0100001N1+02481+02171101301ADDAA199000091GA1001+999999999GF100991001001999999001001KA1240M+99999MA1999999099321MD1999999-0031REMSYN082AAXX  20004 82571 32997 00000 10248 20217 39932 40130 333 10239 29070 55103 59003;EQDQ01  00002PRCP99Q02 +02392ATMX  
0186825710999992001062012004-05500-045260FM-12+017499999V0201401N001012200019N0100001N1+02441+02111101651ADDAA199000091GF102991021001017501031001KA1240N+01771MA1999999099661MD1999999+0151REMSYN076AAXX  20124 82571 32797 21402 10244 20211 39966 40165 82030 333 20177 58015;EQDQ01  00002PRCP99
0167825710999992001062018004-05500-045260FM-12+017499999V0201401N001012200019N0100001N1+03181+01871101331ADDAA199000091GF102991021001008001031001MA1999999099361MD1999999+0251REMSYN070AAXX  20184 82571 32597 21402 10318 20187 39936 40133 82030 333 58025;EQDQ01  00002PRCP99
0186825710999992001062112004-05500-045260FM-12+017499999V0201401N002112200019N0100001N1+02551+02111101631ADDAA199000091GF102991021001017501031001KA1240N+01981MA1999999099651MD1999999-0011REMSYN076AAXX  21124 82571 32797 21404 10255 20211 39965 40163 82030 333 20198 59001;EQDQ01  00002PRCP99
0167825710999992001062118004-05500-045260FM-12+017499999V0201401N003112200019N0100001N1+03201+02091101301ADDAA199000091GF102991011021008001031001MA1999999099341MD1999999-0021REMSYN070AAXX  21184 82571 32597 21406 10320 20209 39934 40130 81230 333 59002;EQDQ01  00002PRCP99
0208825710999992001062200004-05500-045260FM-12+017499999V0209999C000012200019N0100001N1+02571+02271101481ADDAA199000091GA1001+999999999GF100991001001999999001001KA1240M+03241MA1999999099501MD1999999-0021REMSYN082AAXX  22004 82571 32597 00000 10257 20227 39950 40148 333 10324 29074 55094 59002;EQDQ01  00002PRCP99
0186825710999992001062212004-05500-045260FM-12+017499999V0203201N001010075019N0100001N1+02581+02351101711ADDAA199000091GF108991081051008001999999KA1240N+02101MA1999999099721MD1999999-0071REMSYN076AAXX  22124 82571 32597 83202 10258 20235 39972 40171 885// 333 20210 59007;EQDQ01  00002PRCP99
0167825710999992001062218004-05500-045260FM-12+017499999V0200901N003112200019N0100001N1+03241+02251101291ADDAA199000091GF103991021021008001031001MA1999999099331MD1999999-0011REMSYN070AAXX  22184 82571 32597 30906 10324 20225 39933 40129 82230 333 59001;EQDQ01  00002PRCP99
0208825710999992001062300004-05500-045260FM-12+017499999V0203201N001012200019N0100001N1+02681+02391101471ADDAA199000091GA1001+999999999GF100991001001999999001001KA1240M+03321MA1999999099501MD1999999+0001REMSYN082AAXX  23004 82571 32997 03202 10268 20239 39950 40147 333 10332 29078 55067 58000;EQDQ01  00002PRCP99
0186825710999992001062312004-05500-045260FM-12+017499999V0201401N001010075019N0100001N1+02561+02291101671ADDAA199000091GF106991051051008001031001KA1240N+02181MA1999999099691MD1999999-0031REMSYN076AAXX  23124 82571 32597 61402 10256 20229 39969 40167 85530 333 20218 59003;EQDQ01  00002PRCP99
0167825710999992001062318004-05500-045260FM-12+017499999V0200901N001012200019N0100001N1+03181+02221101261ADDAA199000091GF103991031021008001001001MA1999999099301MD1999999-0031REMSYN070AAXX  23184 82571 32597 30902 10318 20222 39930 40126 83200 333 59003;EQDQ01  00002PRCP99
0208825710999992001062400004-05500-045260FM-12+017499999V0200501N001012200019N0100001N1+02661+02241101451ADDAA199000091GA1001+999999999GF100991001001999999001001KA1240M+03261MA1999999099471MD1999999-0031REMSYN082AAXX  24004 82571 32997 00502 10266 20224 39947 40145 333 10326 29074 55082 59003;EQDQ01  00002PRCP99
0193825710999992001062412004-05500-045260FM-12+017499999V0200501N001010450019N0100001N1+02461+02271101701ADDAA124001091AY161061GF106991031051008001031001KA1240N+02191MA1999999099711MD1999999+0021MW1021REMSYN088AAXX  24124 82571 21597 60502 10246 20227 39971 40170 7026/ 83530 333 20219 58002 60014;
0167825710999992001062418004-05500-045260FM-12+017499999V0201401N003110450019N0100001N1+03071+02001101381ADDAA199000091GF106991021021008001031011MA1999999099411MD1999999+0111REMSYN070AAXX  24184 82571 32597 61406 10307 20200 39941 40138 82231 333 58011;EQDQ01  00002PRCP99
0192825710999992001062500004-05500-045260FM-12+017499999V0209999C000019999999N0100001N1+02461+02211101521ADDAA199000091GF108991999999008001999999KA1240M+03091MA1999999099531MD1999999-0791REMSYN082AAXX  25004 82571 32597 80000 10246 20221 39953 40152 333 10309 59079 55030 58006;EQDQ01  00002PRCP99
0186825710999992001062512004-05500-045260FM-12+017499999V0202301N003112200019N0100001N1+02591+01941101781ADDAA199000091GF102991021001017501031001KA1240N+01911MA1999999099791MD1999999+0081REMSYN076AAXX  25124 82571 32797 22306 10259 20194 39979 40178 82030 333 20191 58008;EQDQ01  00002PRCP99
0167825710999992001062518004-05500-045260FM-12+017499999V0202301N003112200019N0100001N1+03121+01951101451ADDAA199000091GF102991021021008001001001MA1999999099471MD1999999+0061REMSYN070AAXX  25184 82571 32597 22306 10312 20195 39947 40145 82200 333 58006;EQDQ01  00002PRCP99
0208825710999992001062600004-05500-045260FM-12+017499999V0209999C000012200019N0100001N1+02521+02191101571ADDAA199000091GA1001+999999999GF100991001001999999001001KA1240M+03191MA1999999099591MD1999999+0061REMSYN082AAXX  26004 82571 32997 00000 10252 20219 39959 40157 333 10319 29070 55093 58006;EQDQ01  00002PRCP99
0186825710999992001062612004-05500-045260FM-12+017499999V0201401N001012200019N0100001N1+02501+02051101851ADDAA199000091GF103991031001017501031001KA1240N+01861MA1999999099861MD1999999+0071REMSYN076AAXX  26124 82571 32797 31402 10250 20205 39986 40185 83030 333 20186 58007;EQDQ01  00002PRCP99
0167825710999992001062618004-05500-045260FM-12+017499999V0200901N003112200019N0100001N1+03201+01891101531ADDAA199000091GF102991021011008001001001MA1999999099561MD1999999-0091REMSYN070AAXX  26184 82571 32597 20906 10320 20189 39956 40153 82100 333 59009;EQDQ01  00002PRCP99
0208825710999992001062700004-05500-045260FM-12+017499999V0209999C000012200019N0100001N1+02541+02171101661ADDAA199000091GA1001+999999999GF100991001001999999001001KA1240M+03271MA1999999099671MD1999999+0081REMSYN082AAXX  27004 82571 32997 00000 10254 20217 39967 40166 333 10327 29070 55105 58008;EQDQ01  00002PRCP99
0186825710999992001062712004-05500-045260FM-12+017499999V0201401N001012200019N0100001N1+02541+02151101761ADDAA199000091GF101991011001017501031001KA1240N+01801MA1999999099771MD1999999-0091REMSYN076AAXX  27124 82571 32797 11402 10254 20215 39977 40176 81030 333 20180 59009;EQDQ01  00002PRCP99
0167825710999992001062718004-05500-045260FM-12+017499999V0201401N003112200019N0100001N1+03231+01931101371ADDAA199000091GF103991031021008001001001MA1999999099401MD1999999-0161REMSYN070AAXX  27184 82571 32597 31406 10323 20193 39940 40137 83200 333 59016;EQDQ01  00002PRCP99
0208825710999992001062800004-05500-045260FM-12+017499999V0202301N001012200019N0100001N1+02601+02171101501ADDAA199000091GA1001+999999999GF100991001001999999001001KA1240M+03301MA1999999099521MD1999999-0151REMSYN082AAXX  28004 82571 32997 02302 10260 20217 39952 40150 333 10330 29070 55104 59015;EQDQ01  00002PRCP99
0186825710999992001062812004-05500-045260FM-12+017499999V0200501N001010042019N0100001N1+02461+02341101681ADDAA199000091GF107991071051004501001001KA1240N+02001MA1999999099691MD1999999-0081REMSYN076AAXX  28124 82571 32497 70502 10246 20234 39969 40168 87500 333 20200 59008;EQDQ01  00002PRCP99
0167825710999992001062818004-05500-045260FM-12+017499999V0203201N002110450019N0100001N1+02901+02301101321ADDAA199000091GF106991041021004501041001MA1999999099341MD1999999-0061REMSYN070AAXX  28184 82571 32497 63204 10290 20230 39934 40132 84240 333 59006;EQDQ01  00002PRCP99
0198825710999992001062900004-05500-045260FM-12+017499999V0202301N001010150019N0100001N1+02471+02301101521ADDAA199000091GF105991051001017501051001KA1240M+02991MA1999999099531MD1999999+0011REMSYN088AAXX  29004 82571 32797 52302 10247 20230 39953 40152 85050 333 10299 29086 55016 58001;EQDQ01  00002PRCP99
0193825710999992001062912004-05500-045260FM-12+017499999V0200501N001010042019N0100001N1+02251+02241101741ADDAA124007991AY161061GF108991081051004501999999KA1240N+02061MA1999999099741MD1999999+0051MW1601REMSYN088AAXX  29124 82571 21497 80502 10225 20224 39974 40174 7606/ 885// 333 20206 58005 60084;
0174825710999992001062918004-05500-045260FM-12+017499999V0201401N003110450019N0100001N1+03031+02231101261ADDAA106000591AY161061GF105991031021008001011001MA1999999099291MD1999999-0051MW1011REMSYN082AAXX  29184 82571 21597 51406 10303 20223 39929 40126 7016/ 83210 333 59005 69961;
0179825710999992001063000004-05500-045260FM-12+017499999V0202301N001012200019N0100001N1+02561+02361101401ADDAA199000021GF103991031001017501011001KA1240M+03101MA1999999099411MD1999999-0121REMSYN088AAXX  30004 82571 32797 32302 10256 20236 39941 40140 83010 333 10310 29085 55046 59012;
0193825710999992001063012004-05500-045260FM-12+017499999V0201401N005112200019N0100001N1+02621+01881101561ADDAA124000591AY141061GF102991011001004501011011KA1240N+02001MA1999999099581MD1999999-0161MW1021REMSYN088AAXX  30124 82571 21497 21410 10262 20188 39958 40156 7024/ 81011 333 20200 59016 69964;
0167825710999992001063018004-05500-045260FM-12+017499999V0200901N003112200019N0100001N1+03121+01921101141ADDAA199000091GF102991011011008001011001MA1999999099181MD1999999-0111REMSYN070AAXX  30184 82571 32597 20906 10312 20192 39918 40114 81110 333 59011;EQDQ01  00002PRCP99
0208825710999992001070100004-05500-045260FM-12+017499999V0203201N001012200019N0100001N1+02471+02171101341ADDAA199000091GA1001+999999999GF100991001001999999001001KA1240M+03201MA1999999099361MD1999999-0051REMSYN082AAXX  01004 82571 32997 03202 10247 20217 39936 40134 333 10320 29070 55104 59005;EQDQ01  00002PRCP99
0186825710999992001070112004-05500-045260FM-12+017499999V0200901N001012200019N0100001N1+02501+02171101541ADDAA199000091GF102991011001017501031011KA1240N+01811MA1999999099551MD1999999+0031REMSYN076AAXX  01124 82571 32797 20902 10250 20217 39955 40154 81031 333 20181 58003;EQDQ01  00002PRCP99
0167825710999992001070118004-05500-045260FM-12+017499999V0201401N001012200019N0100001N1+03101+02091101171ADDAA199000091GF103991011021008001031011MA1999999099201MD1999999+0021REMSYN070AAXX  01184 82571 32597 31402 10310 20209 39920 40117 81231 333 58002;EQDQ01  00002PRCP99
0198825710999992001070200004-05500-045260FM-12+017499999V0202301N001012200019N0100001N1+02481+02191101361ADDAA199000091GF101991001001999999001011KA1240M+03151MA1999999099381MD1999999+0021REMSYN088AAXX  02004 82571 32997 12302 10248 20219 39938 40136 80001 333 10315 29076 55095 58002;EQDQ01  00002PRCP99
0186825710999992001070212004-05500-045260FM-12+017499999V0201401N001010042019N0100001N1+02431+02321101641ADDAA199000091GF108991081051004501999999KA1240N+01921MA1999999099651MD1999999+0101REMSYN076AAXX  02124 82571 32497 81402 10243 20232 39965 40164 885// 333 20192 58010;EQDQ01  00002PRCP99
0167825710999992001070218004-05500-045260FM-12+017499999V0201401N002112200019N0100001N1+03171+02071101181ADDAA199000091GF103991031021008001001001MA1999999099221MD1999999+0021REMSYN070AAXX  02184 82571 32597 31404 10317 20207 39922 40118 83200 333 58002;EQDQ01  00002PRCP99
0198825710999992001070300004-05500-045260FM-12+017499999V0209999C000012200019N0100001N1+02591+02351101401ADDAA199000091GF104991041001017501041001KA1240M+03251MA1999999099421MD1999999+0041REMSYN088AAXX  03004 82571 32797 40000 10259 20235 39942 40140 84040 333 10325 29079 55073 58004;EQDQ01  00002PRCP99
0186825710999992001070312004-05500-045260FM-12+017499999V0200901N001010450019N0100001N1+02561+02291101651ADDAA199000091GF106991041051008001031001KA1240N+01971MA1999999099661MD1999999+0011REMSYN076AAXX  03124 82571 32597 60902 10256 20229 39966 40165 84530 333 20197 58001;EQDQ01  00002PRCP99
0167825710999992001070318004-05500-045260FM-12+017499999V0200901N001012200019N0100001N1+03081+02191101271ADDAA199000091GF103991031021008001001001MA1999999099301MD1999999+0081REMSYN070AAXX  03184 82571 32597 30902 10308 20219 39930 40127 83200 333 58008;EQDQ01  00002PRCP99
0208825710999992001070400004-05500-045260FM-12+017499999V0201801N001012200019N0100001N1+02561+02291101431ADDAA199000091GA1001+999999999GF100991001001999999001001KA1240M+03211MA1999999099451MD1999999+0031REMSYN082AAXX  04004 82571 32997 01802 10256 20229 39945 40143 333 10321 29078 55088 58003;EQDQ01  00002PRCP99
0186825710999992001070412004-05500-045260FM-12+017499999V0200501N001010450019N0100001N1+02521+02251101581ADDAA199000091GF105991041021008001031001KA1240N+01981MA1999999099601MD1999999-0061REMSYN076AAXX  04124 82571 32597 50502 10252 20225 39960 40158 84230 333 20198 59006;EQDQ01  00002PRCP99
0167825710999992001070418004-05500-045260FM-12+017499999V0200501N005112200019N0100001N1+03241+02061101291ADDAA199000091GF103991031021008001001001MA1999999099331MD1999999+0031REMSYN070AAXX  04184 82571 32597 30510 10324 20206 39933 40129 83200 333 58003;EQDQ01  00002PRCP99
0208825710999992001070500004-05500-045260FM-12+017499999V0202301N001012200019N0100001N1+02621+02251101411ADDAA199000091GA1001+999999999GF100991001001999999001001KA1240M+03281MA1999999099431MD1999999-0021REMSYN082AAXX  05004 82571 32997 02302 10262 20225 39943 40141 333 10328 29074 55084 59002;EQDQ01  00002PRCP99
0186825710999992001070512004-05500-045260FM-12+017499999V0200901N001010450019N0100001N1+02501+02251101681ADDAA199000091GF106991031051008001031001KA1240N+01921MA1999999099691MD1999999+0091REMSYN076AAXX  05124 82571 32597 60902 10250 20225 39969 40168 83530 333 20192 58009;EQDQ01  00002PRCP99
0167825710999992001070518004-05500-045260FM-12+017499999V0200901N003112200019N0100001N1+03181+02221101281ADDAA199000091GF104991021021008001001011MA1999999099321MD1999999-0011REMSYN070AAXX  05184 82571 32597 40906 10318 20222 39932 40128 82201 333 59001;EQDQ01  00002PRCP99
0208825710999992001070600004-05500-045260FM-12+017499999V0209999C000012200019N0100001N1+02601+02291101331ADDAA199000091GA1001+999999999GF100991001001999999001001KA1240M+03231MA1999999099351MD1999999-0081REMSYN082AAXX  06004 82571 32997 00000 10260 20229 39935 40133 333 10323 29077 55076 59008;EQDQ01  00002PRCP99
0196825710999992001070612004-05500-045260FM-12+017499999V0202301N001012200019N0100001N1+02561+02271101481ADDAA199000091GA1001+999999999GF100991001001999999001001KA1240N+01881MA1999999099501MD1999999-0191REMSYN070AAXX  06124 82571 32997 02302 10256 20227 39950 40148 333 20188 59019;EQDQ01  00002PRCP99
0167825710999992001070618004-05500-045260FM-12+017499999V0200901N006012200019N0100001N1+03241+01861101081ADDAA199000091GF102991021021008001001001MA1999999099121MD1999999-0201REMSYN070AAXX  06180 82571 32597 20906 10324 20186 39912 40108 82200 333 59020;EQDQ01  00002PRCP99
0214825710999992001070700004-05500-045260FM-12+017499999V0209999C000012200019N0100001N1+02581+02211101301ADDAA199000091GA1001+999999999GF100991001001999999001001KA1240M+03311MA1999999099321MD1999999-0031REMSYN088AAXX  07004 82571 32797 00000 10258 20221 39932 40130 83030 333 10331 29072 55103 59003;EQDQ01  00002PRCP99
0186825710999992001070712004-05500-045260FM-12+017499999V0201401N007212200019N0100001N1+02681+01991101521ADDAA199000091GF106991031001017501031011KA1240N+02131MA1999999099551MD1999999+0051REMSYN076AAXX  07124 82571 32797 61414 10268 20199 39955 40152 83031 333 20213 58005;EQDQ01  00002PRCP99
0167825710999992001070718004-05500-045260FM-12+017499999V0200901N001012200019N0100001N1+03201+01961101201ADDAA199000091GF103991031021008001001001MA1999999099241MD1999999+0121REMSYN070AAXX  07184 82571 32597 30902 10320 20196 39924 40120 83200 333 58012;EQDQ01  00002PRCP99
0208825710999992001070800004-05500-045260FM-12+017499999V0209999C000012200019N0100001N1+02531+02171101351ADDAA199000091GA1001+999999999GF100991001001999999001001KA1240M+03261MA1999999099381MD1999999+0061REMSYN082AAXX  08004 82571 32997 00000 10253 20217 39938 40135 333 10326 29068 55092 58006;EQDQ01  00002PRCP99
0202825710999992001070812004-05500-045260FM-12+017499999V0201801N001012200019N0100001N1+02551+01931101671ADDAA199000091GF104991001001999999001011KA1240N+01771MA1999999099681MD1999999+0131REMSYN076AAXX  08124 82571 32597 41802 10255 20193 39968 40167 80001 333 20177 58013;EQDQ01+008002SCOLCBQ02  00002PRCP99
0167825710999992001070818004-05500-045260FM-12+017499999V0200901N001012200019N0100001N1+03261+01951101301ADDAA199000091GF103991021021008001001011MA1999999099341MD1999999+0101REMSYN070AAXX  08184 82571 32597 30902 10326 20195 39934 40130 82201 333 58010;EQDQ01  00002PRCP99
0208825710999992001070900004-05500-045260FM-12+017499999V0209999C000012200019N0100001N1+02621+02181101361ADDAA199000091GA1001+999999999GF100991001001999999001001KA1240M+03311MA1999999099391MD1999999+0011REMSYN082AAXX  09004 82571 32997 00000 10262 20218 39939 40136 333 10331 29067 55103 58001;EQDQ01  00002PRCP99
0186825710999992001070912004-05500-045260FM-12+017499999V0201401N005112200019N0100001N1+02561+01971101571ADDAA199000091GF102991021001008001031001KA1240N+02001MA1999999099591MD1999999-0091REMSYN076AAXX  09124 82571 32597 21410 10256 20197 39959 40157 82030 333 20200 59009;EQDQ01  00002PRCP99
0167825710999992001070918004-05500-045260FM-12+017499999V0200901N003110180019N0100001N1+03181+01941101231ADDAA199000091GF106991061081017501001001MA1999999099271MD1999999-0071REMSYN070AAXX  09184 82571 32797 60906 10318 20194 39927 40123 86800 333 59007;EQDQ01  00002PRCP99
0208825710999992001071000004-05500-045260FM-12+017499999V0203201N001012200019N0100001N1+02641+02181101351ADDAA199000091GA1001+999999999GF100991001001999999001001KA1240M+03271MA1999999099381MD1999999-0011REMSYN082AAXX  10004 82571 32997 03202 10264 20218 39938 40135 333 10327 29068 55065 59001;EQDQ01  00002PRCP99
0186825710999992001071012004-05500-045260FM-12+017499999V0200501N003112200019N0100001N1+02601+01991101411ADDAA199000091GF104991001001999999001011KA1240N+01881MA1999999099441MD1999999-0151REMSYN076AAXX  10124 82571 32997 40506 10260 20199 39944 40141 80001 333 20188 59015;EQDQ01  00002PRCP99
0167825710999992001071018004-05500-045260FM-12+017499999V0201401N003112200019N0100001N1+03201+02031101051ADDAA199000091GF104991031021008001031001MA1999999099091MD1999999-0181REMSYN070AAXX  10184 82571 32597 41406 10320 20203 39909 40105 83230 333 59018;EQDQ01  00002PRCP99
0208825710999992001071100004-05500-045260FM-12+017499999V0209999C000012200019N0100001N1+02581+02211101281ADDAA199000091GA1001+999999999GF100991001001999999001001KA1240M+03341MA1999999099311MD1999999-0071REMSYN082AAXX  11004 82571 32997 00000 10258 20221 39931 40128 333 10334 29070 55096 59007;EQDQ01  00002PRCP99
0196825710999992001071112004-05500-045260FM-12+017499999V0201401N002112200019N0100001N1+02541+02211101521ADDAA199000091GA1001+999999999GF100991001001999999001001KA1240N+01861MA1999999099541MD1999999+0101REMSYN070AAXX  11124 82571 32997 01404 10254 20221 39954 40152 333 20186 58010;EQDQ01  00002PRCP99
0167825710999992001071118004-05500-045260FM-12+017499999V0203201N001012200019N0100001N1+03291+01911101111ADDAA199000091GF102991021011008001001001MA1999999099231MD1999999+0141REMSYN070AAXX  11184 82571 32597 23202 10329 20191 39923 40111 82100 333 58014;EQDQ01  00002PRCP99
0208825710999992001071200004-05500-045260FM-12+017499999V0209999C000012200019N0100001N1+02571+02151101351ADDAA199000091GA1001+999999999GF100991001001999999001001KA1240M+03381MA1999999099371MD1999999+0061REMSYN082AAXX  12004 82571 32997 00000 10257 20215 39937 40135 333 10338 29070 55104 58006;EQDQ01  00002PRCP99
0206825710999992001071212004-05500-045260FM-12+017499999V0202301N001010075019N0100001N1+02141+02071101711ADDAA199000091AY141061GF108991081051008001999999KA1240N+01841MA1999999099711MD1999999+0171MW1021REMSYN082AAXX  12124 82571 31597 82302 10214 20207 39971 40171 7024/ 885// 333 20184 58017;EQDQ01  00002PRCP99
0167825710999992001071218004-05500-045260FM-12+017499999V0202701N001012200019N0100001N1+03211+02231101291ADDAA199000091GF103991031021008001001001MA1999999099321MD1999999+0091REMSYN070AAXX  12184 82571 32597 32702 10321 20223 39932 40129 83200 333 58009;EQDQ01  00002PRCP99
0208825710999992001071300004-05500-045260FM-12+017499999V0209999C000012200019N0100001N1+02631+01971101381ADDAA199000091GA1001+999999999GF100991001001999999001001KA1240M+03341MA1999999099391MD1999999+0021REMSYN082AAXX  13004 82571 32997 00000 10263 20197 39939 40138 333 10334 29078 55064 58002;EQDQ01  00002PRCP99
0186825710999992001071312004-05500-045260FM-12+017499999V0200501N001010450019N0100001N1+02641+02311101551ADDAA199000091GF105991031021008001031001KA1240N+02041MA1999999099581MD1999999-0131REMSYN076AAXX  13124 82571 32597 50502 10264 20231 39958 40155 83230 333 20204 59013;EQDQ01  00002PRCP99
0167825710999992001071318004-05500-045260FM-12+017499999V0200501N001012200019N0100001N1+03281+02291101191ADDAA199000091GF103991031021008001001001MA1999999099231MD1999999-0091REMSYN070AAXX  13184 82571 32597 30502 10328 20229 39923 40119 83200 333 59009;EQDQ01  00002PRCP99
0222825710999992001071612004-05500-045260FM-12+017499999V0201401N003112200019N0100001N1+02481+01981101551ADDAA199000091AY141061GF102991001001999999001011KA1240N+01901MA1999999099561MD1999999+0041MW1011REMSYN082AAXX  16124 82571 32597 21406 10248 20198 39956 40155 7014/ 80001 333 20190 58004;EQDQ01+008002SCOLCBQ02  00002PRCP99
0167825710999992001071618004-05500-045260FM-12+017499999V0200901N003112200019N0100001N1+03181+02041101221ADDAA199000091GF103991031021008001001001MA1999999099251MD1999999+0101REMSYN070AAXX  16184 82571 32597 30906 10318 20204 39925 40122 83200 333 58010;EQDQ01  00002PRCP99
0208825710999992001071700004-05500-045260FM-12+017499999V0209999C000012200019N0100001N1+02501+02191101451ADDAA199000091GA1001+999999999GF100991001001999999001001KA1240M+03181MA1999999099461MD1999999+0171REMSYN082AAXX  17004 82571 32997 00000 10250 20219 39946 40145 333 10318 29073 55098 58017;EQDQ01  00002PRCP99
0186825710999992001071712004-05500-045260FM-12+017499999V0201401N001012200019N0100001N1+02541+02131101611ADDAA199000091GF102991001001999999001011KA1240N+01921MA1999999099621MD1999999+0061REMSYN076AAXX  17124 82571 32997 21402 10254 20213 39962 40161 80001 333 20192 58006;EQDQ01  00002PRCP99
0167825710999992001071718004-05500-045260FM-12+017499999V0201401N001012200019N0100001N1+03151+01991101291ADDAA199000091GF102991021021008001001001MA1999999099331MD1999999+0081REMSYN070AAXX  17184 82571 32597 21402 10315 20199 39933 40129 82200 333 58008;EQDQ01  00002PRCP99
0186825710999992001071812004-05500-045260FM-12+017499999V0202301N001012200019N0100001N1+02481+02191101631ADDAA199000091GF103991021021008001031001KA1240N+01881MA1999999099641MD1999999+0021REMSYN076AAXX  18124 82571 32597 32302 10248 20219 39964 40163 82230 333 20188 58002;EQDQ01  00002PRCP99
0208825710999992001071900004-05500-045260FM-12+017499999V0203201N001012200019N0100001N1+02601+02191101371ADDAA199000091GA1001+999999999GF100991001001999999001001KA1240M+03311MA1999999099391MD1999999-0061REMSYN082AAXX  19004 82571 32597 03202 10260 20219 39939 40137 333 10331 29073 55099 59006;EQDQ01  00002PRCP99
0186825710999992001071912004-05500-045260FM-12+017499999V0200501N001010075019N0100001N1+02381+02221101621ADDAA199000091GF108991081051008001999999KA1240N+01971MA1999999099631MD1999999-0011REMSYN076AAXX  19124 82571 32597 80502 10238 20222 39963 40162 885// 333 20197 59001;EQDQ01  00002PRCP99
0167825710999992001071918004-05500-045260FM-12+017499999V0201401N003112200019N0100001N1+03141+02131101161ADDAA199000091GF103991031021008001001001MA1999999099191MD1999999-0061REMSYN070AAXX  19184 82571 32597 31406 10314 20213 39919 40116 83200 333 59006;EQDQ01  00002PRCP99
0208825710999992001072000004-05500-045260FM-12+017499999V0209999C000012200019N0100001N1+02611+02181101231ADDAA199000091GA1001+999999999GF100991001001999999001001KA1240M+03221MA1999999099251MD1999999-0141REMSYN082AAXX  20004 82571 32997 00000 10261 20218 39925 40123 333 10322 29075 55065 59014;EQDQ01  00002PRCP99
0193825710999992001072012004-05500-045260FM-12+017499999V0201401N001012200019N0100001N1+02571+02351101401ADDAA124001091AY161061GF103991021021008001001011KA1240N+01951MA1999999099431MD1999999-0021MW1011REMSYN088AAXX  20124 82571 21597 31402 10257 20235 39943 40140 7016/ 82201 333 20195 59002 69994;
0167825710999992001072018004-05500-045260FM-12+017499999V0200501N003112200019N0100001N1+03201+02121101051ADDAA199000091GF103991031021008001001001MA1999999099091MD1999999-0101REMSYN070AAXX  20184 82571 32597 30506 10320 20212 39909 40105 83200 333 59010;EQDQ01  00002PRCP99
0208825710999992001072100004-05500-045260FM-12+017499999V0202301N001012200019N0100001N1+02601+02251101221ADDAA199000091GA1001+999999999GF100991001001999999001001KA1240M+03291MA1999999099251MD1999999+0001REMSYN082AAXX  21004 82571 32597 02302 10260 20225 39925 40122 333 10329 29076 55094 58000;EQDQ01  00002PRCP99
0186825710999992001072112004-05500-045260FM-12+017499999V0200901N001012200019N0100001N1+02621+02291101481ADDAA199000091GF103991021021008001031001KA1240N+02011MA1999999099501MD1999999+0071REMSYN076AAXX  21124 82571 32597 30902 10262 20229 39950 40148 82230 333 20201 58007;EQDQ01  00002PRCP99
0208825710999992001072200004-05500-045260FM-12+017499999V0209999C000012200019N0100001N1+02561+02311101291ADDAA199000091GA1001+999999999GF100991001001999999001001KA1240M+03301MA1999999099321MD1999999+0071REMSYN082AAXX  22004 82571 32997 00000 10256 20231 39932 40129 333 10330 29076 55100 58007;EQDQ01  00002PRCP99
0186825710999992001072212004-05500-045260FM-12+017499999V0200501N003110075019N0100001N1+02461+02321101591ADDAA199000091GF108991081051008001999999KA1240N+02081MA1999999099601MD1999999+0101REMSYN076AAXX  22124 82571 32597 80506 10246 20232 39960 40159 885// 333 20208 58010;EQDQ01  00002PRCP99
0183825710999992001072218004-05500-045260FM-12+017499999V0202901N001012200019N0100001N1+03211+02171101161ADDAA199000091GA1001+999999999GF100991001001999999001001MA1999999099201MD1999999-0011REMSYN070AAXX  22184 82571 32597 02902 10321 20217 39920 40116 82200 333 59001;EQDQ01  00002PRCP99
0167825710999992001072318004-05500-045260FM-12+017499999V0200901N001012200019N0100001N1+03201+02121101181ADDAA199000091GF104991021021008001001011MA1999999099221MD1999999+0021REMSYN070AAXX  23184 82571 32597 40902 10320 20212 39922 40118 82201 333 58002;EQDQ01  00002PRCP99
0208825710999992001072400004-05500-045260FM-12+017499999V0209999C000012200019N0100001N1+02601+02121101281ADDAA199000091GA1001+999999999GF100991001001999999001001KA1240M+03281MA1999999099301MD1999999-0121REMSYN082AAXX  24004 82571 32997 00000 10260 20212 39930 40128 333 10328 29072 55080 59012;EQDQ01  00002PRCP99
0186825710999992001072412004-05500-045260FM-12+017499999V0202301N001010075019N0100001N1+02481+02271101661ADDAA199000091GF108991081051008001999999KA1240N+01911MA1999999099671MD1999999+0151REMSYN076AAXX  24124 82571 32597 82302 10248 20227 39967 40166 885// 333 20191 58015;EQDQ01  00002PRCP99
0174825710999992001072418004-05500-045260FM-12+017499999V0201401N001012200019N0100001N1+03181+01981101261ADDAA106000891AY161061GF103991031021008001001001MA1999999099301MD1999999+0081MW1011REMSYN082AAXX  24184 82571 21597 31402 10318 20198 39930 40126 7016/ 83200 333 58008 69981;
0208825710999992001072500004-05500-045260FM-12+017499999V0209999C000012200019N0100001N1+02531+02191101341ADDAA199000091GA1001+999999999GF100991001001999999001001KA1240M+03141MA1999999099361MD1999999+0061REMSYN082AAXX  25004 82571 32997 00000 10253 20219 39936 40134 333 10314 29075 55070 58006;EQDQ01  00002PRCP99
0173825710999992001072512004-05500-045260FM-12+017499999V0201401N003112200019N0100001N1+02531+02171101581ADDAA124000891GF102991021021008001001001KA1240N+01751MA1999999099601MD1999999-0071REMSYN082AAXX  25124 82571 22597 21406 10253 20217 39960 40158 82200 333 20175 59007 69984;
0167825710999992001072518004-05500-045260FM-12+017499999V0201401N001012200019N0100001N1+03181+01801101221ADDAA199000091GF102991021021008001001001MA1999999099251MD1999999-0051REMSYN070AAXX  25184 82571 32597 21402 10318 20180 39925 40122 82200 333 59005;EQDQ01  00002PRCP99
0208825710999992001072600004-05500-045260FM-12+017499999V0209999C000012200019N0100001N1+02481+02011101371ADDAA199000091GA1001+999999999GF100991001001999999001001KA1240M+03271MA1999999099391MD1999999+0031REMSYN082AAXX  26004 82571 32997 00000 10248 20201 39939 40137 333 10327 29068 55105 58003;EQDQ01  00002PRCP99
0196825710999992001072612004-05500-045260FM-12+017499999V0203601N001012200019N0100001N1+02471+02131101651ADDAA199000091GA1001+999999999GF100991001001999999001001KA1240N+01711MA1999999099661MD1999999+0061REMSYN070AAXX  26124 82571 32997 03602 10247 20213 39966 40165 333 20171 58006;EQDQ01  00002PRCP99
0208825710999992001072700004-05500-045260FM-12+017499999V0209999C000012200019N0100001N1+02541+02111101381ADDAA199000091GA1001+999999999GF100991001001999999001001KA1240M+03271MA1999999099401MD1999999+0011REMSYN082AAXX  27004 82571 32997 00000 10254 20211 39940 40138 333 10327 29070 55106 58001;EQDQ01  00002PRCP99
0196825710999992001072712004-05500-045260FM-12+017499999V0200901N003112200019N0100001N1+02531+01851101691ADDAA199000091GA1001+999999999GF100991001001999999001001KA1240N+01731MA1999999099701MD1999999+0041REMSYN070AAXX  27124 82571 32997 00906 10253 20185 39970 40169 333 20173 58004;EQDQ01  00002PRCP99
0167825710999992001072718004-05500-045260FM-12+017499999V0202301N001012200019N0100001N1+03301+01681101321ADDAA199000091GF102991021021008001001001MA1999999099351MD1999999+0011REMSYN070AAXX  27184 82571 32597 22302 10330 20168 39935 40132 82200 333 58001;EQDQ01  00002PRCP99
0208825710999992001072800004-05500-045260FM-12+017499999V0209999C000012200019N0100001N1+02591+02011101451ADDAA199000091GA1001+999999999GF100991001001999999001001KA1240M+03411MA1999999099471MD1999999+0071REMSYN082AAXX  28004 82571 32997 00000 10259 20201 39947 40145 333 10341 29061 55102 58007;EQDQ01  00002PRCP99
0167825710999992001072818004-05500-045260FM-12+017499999V0200501N001012200019N0100001N1+03271+01531101341ADDAA199000091GF102991021021008001001001MA1999999099371MD1999999+0021REMSYN070AAXX  28184 82571 32597 20502 10327 20153 39937 40134 82200 333 58002;EQDQ01  00002PRCP99
0208825710999992001072900004-05500-045260FM-12+017499999V0203601N001012200019N0100001N1+02481+01831101551ADDAA199000091GA1001+999999999GF100991001001999999001001KA1240M+03351MA1999999099561MD1999999+0091REMSYN082AAXX  29004 82571 32997 03602 10248 20183 39956 40155 333 10335 29058 55104 58009;EQDQ01  00002PRCP99
0196825710999992001072912004-05500-045260FM-12+017499999V0200501N001012200019N0100001N1+02401+01801101601ADDAA199000091GA1001+999999999GF100991001001999999001001KA1240N+02021MA1999999099611MD1999999-0161REMSYN070AAXX  29124 82571 32997 00502 10240 20180 39961 40160 333 20202 59016;EQDQ01  00002PRCP99
0167825710999992001072918004-05500-045260FM-12+017499999V0203601N001012200019N0100001N1+03321+01611101211ADDAA199000091GF101991011011008001001001MA1999999099251MD1999999-0121REMSYN070AAXX  29184 82571 32597 13602 10332 20161 39925 40121 81100 333 59012;EQDQ01  00002PRCP99
0208825710999992001073000004-05500-045260FM-12+017499999V0201401N001012200019N0100001N1+02561+01901101481ADDAA199000091GA1001+999999999GF100991001001999999001001KA1240M+03391MA1999999099491MD1999999-0071REMSYN082AAXX  30004 82571 32997 01402 10256 20190 39949 40148 333 10339 29061 55105 59007;EQDQ01  00002PRCP99
0186825710999992001073012004-05500-045260FM-12+017499999V0200901N001010042019N0100001N1+02351+02171101731ADDAA199000091GF108991081051004501999999KA1240N+01721MA1999999099741MD1999999+0131REMSYN076AAXX  30124 82571 32497 80902 10235 20217 39974 40173 885// 333 20172 58013;EQDQ01  00002PRCP99
0167825710999992001073018004-05500-045260FM-12+017499999V0201801N001012200019N0100001N1+03261+01841101301ADDAA199000091GF103991021021008001001011MA1999999099341MD1999999+0091REMSYN070AAXX  30184 82571 32597 31802 10326 20184 39934 40130 82201 333 58009;EQDQ01  00002PRCP99
0208825710999992001073100004-05500-045260FM-12+017499999V0202301N001012200019N0100001N1+02551+02111101571ADDAA199000091GA1001+999999999GF100991001001999999001001KA1240M+03321MA1999999099581MD1999999+0091REMSYN082AAXX  31004 82571 32997 02302 10255 20211 39958 40157 333 10332 29071 55085 58009;EQDQ01  00002PRCP99
0196825710999992001073112004-05500-045260FM-12+017499999V0202301N001012200019N0100001N1+02521+02051101751ADDAA199000091GA1001+999999999GF100991001001999999001001KA1240N+01661MA1999999099761MD1999999+0021REMSYN070AAXX  31124 82571 32997 02302 10252 20205 39976 40175 333 20166 58002;EQDQ01  00002PRCP99
0208825710999992001080100004-05500-045260FM-12+017499999V0203601N001012200019N0100001N1+02601+01921101531ADDAA199000091GA1001+999999999GF100991001001999999001001KA1240M+03451MA1999999099551MD1999999-0031REMSYN082AAXX  01004 82571 32997 03602 10260 20192 39955 40153 333 10345 29060 55107 59003;EQDQ01  00002PRCP99
0196825710999992001080112004-05500-045260FM-12+017499999V0201401N001012200019N0100001N1+02561+01701101841ADDAA199000091GA1001+999999999GF100991001001999999001001KA1240N+01691MA1999999099861MD1999999+0101REMSYN070AAXX  01124 82571 32997 01402 10256 20170 39986 40184 333 20169 58010;EQDQ01  00002PRCP99
0152825710999992001080118004-05500-045260FM-12+017499999V0200501N001012200019N0100001N1+99999+99999999999ADDAA199000091GF102991021011008001001001MD1999999+0171REMSYN070AAXX  01184 82571 32597 20502 10/// 20/// 3//// 4//// 82100 333 58017;EQDQ01  00002PRCP99
0195825710999992001080200004-05500-045260FM-12+017499999V0209999C000012200019N0100001N1+99999+99999999999ADDAA199000091GA1001+999999999GF100991001001999999001001MA1999999099651MD1999999+0101REMSYN082AAXX  02004 82571 32997 00000 10/// 20/// 39965 4//// 333 10/// 29/// 55096 58010;EQDQ01  00002PRCP99
0183825710999992001080212004-05500-045260FM-12+017499999V0200501N002112200019N0100001N1+99999+99999999999ADDAA199000091GA1001+999999999GF100991001001999999001001MA1999999099801MD1999999-0061REMSYN070AAXX  02124 82571 32497 00504 10/// 20/// 39980 4//// 333 20/// 59006;EQDQ01  00002PRCP99
0167825710999992001080218004-05500-045260FM-12+017499999V0202301N001012200019N0100001N1+99999+99999999999ADDAA199000091GF101991011011008001001001MA1999999099371MD1999999-0121REMSYN070AAXX  02184 82571 32597 12302 10/// 20/// 39937 40/// 81100 333 59012;EQDQ01  00002PRCP99
0195825710999992001080300004-05500-045260FM-12+017499999V0209999C000012200019N0100001N1+99999+99999999999ADDAA199000091GA1001+999999999GF100991001001999999001001MA1999999099551MD1999999+0101REMSYN082AAXX  03004 82571 32597 00000 10/// 20/// 39955 4//// 333 10/// 29/// 55103 58010;EQDQ01  00002PRCP99
0183825710999992001080312004-05500-045260FM-12+017499999V0200501N001012200019N0100001N1+99999+99999999999ADDAA199000091GA1001+999999999GF100991001001999999001001MA1999999099731MD1999999-0071REMSYN070AAXX  03124 82571 32997 00502 10/// 20/// 39973 4//// 333 20/// 59007;EQDQ01  00002PRCP99
0161825710999992001080318004-05500-045260FM-12+017499999V0200501N005112200019N0100001N1+99999+99999999999ADDAA199000091GF102991999999008001999999MA1999999099341MD1999999-0031REMSYN064AAXX  03184 82571 32597 20510 10/// 20/// 39934 4//// 333 59003;EQDQ01  00002PRCP99
0173825710999992001080412004-05500-045260FM-12+017499999V0201401N003112200019N0100001N1+99999+99999999999ADDAA199000091GF102991021001017501031001MA1999999099751MD1999999+0021REMSYN076AAXX  04124 82571 32797 21406 10/// 20/// 39975 4//// 82030 333 20/// 58002;EQDQ01  00002PRCP99
0167825710999992001080418004-05500-045260FM-12+017499999V0201401N003112200019N0100001N1+99999+99999999999ADDAA199000091GF101991011011008001001001MA1999999099341MD1999999+0001REMSYN070AAXX  04184 82571 32597 11406 10/// 20/// 39934 4//// 81100 333 58000;EQDQ01  00002PRCP99
0181825710999992001080500004-05500-045260FM-12+017499999V0201401N001012200019N0100001N1+99999+99999999999ADDAA199000091GA1001+999999999GF100991001001999999001001MA1999999099551REMSYN082AAXX  05004 82571 32997 01402 10/// 20/// 39955 4//// 333 10/// 59/// 55091 58002;EQDQ01  00002PRCP99
0183825710999992001080512004-05500-045260FM-12+017499999V0201401N003112200019N0100001N1+99999+99999999999ADDAA199000091GA1001+999999999GF100991001001999999001001MA1999999099701MD1999999-0051REMSYN070AAXX  05124 82571 32997 01406 10/// 20/// 39970 4//// 333 20/// 59005;EQDQ01  00002PRCP99
0167825710999992001080518004-05500-045260FM-12+017499999V0200501N003112200019N0100001N1+03221+01801999999ADDAA199000091GF101991011011008001001001MA1999999099361MD1999999+0021REMSYN070AAXX  05184 82571 32597 10506 10322 20180 39936 4//// 81100 333 58002;EQDQ01  00002PRCP99
0208825710999992001080600004-05500-045260FM-12+017499999V0203201N001012200019N0100001N1+02581+02121999999ADDAA199000091GA1001+999999999GF100991001001999999001001KA1240M+03471MA1999999099501MD1999999-0051REMSYN082AAXX  06004 82571 32997 03202 10258 20212 39950 40/// 333 10347 29065 55108 59005;EQDQ01  00002PRCP99
0196825710999992001080612004-05500-045260FM-12+017499999V0200501N001012200019N0100001N1+02451+01921101731ADDAA199000091GA1001+999999999GF100991001001999999001001KA1240N+01721MA1999999099741MD1999999+0041REMSYN070AAXX  06124 82571 32997 00502 10245 20192 39974 40173 333 20172 58004;EQDQ01  00002PRCP99
0167825710999992001080618004-05500-045260FM-12+017499999V0202301N001012200019N0100001N1+03341+01711101291ADDAA199000091GF102991021011008001001001MA1999999099331MD1999999-0031REMSYN070AAXX  06184 82571 32597 22302 10334 20171 39933 40129 82100 333 59003;EQDQ01  00002PRCP99
0198825710999992001080700004-05500-045260FM-12+017499999V0200501N001012200019N0100001N1+02631+02071101571ADDAA199000091GF101991011001017501031001KA1240M+03451MA1999999099591MD1999999+0091REMSYN088AAXX  07004 82571 32797 10502 10263 20207 39959 40157 81030 333 10345 29063 55108 58009;EQDQ01  00002PRCP99
0196825710999992001080712004-05500-045260FM-12+017499999V0201401N003112200019N0100001N1+02521+01551101861ADDAA199000091GA1001+999999999GF100991001001999999001001KA1240N+01701MA1999999099881MD1999999+0141REMSYN070AAXX  07124 82571 32997 01406 10252 20155 39988 40186 333 20170 58014;EQDQ01  00002PRCP99
0177825710999992001080718004-05500-045260FM-12+017499999V0201801N003112200019N0100001N1+03221+01431101401ADDAA199000091GA1001+999999999GF100991001001999999001001MA1999999099431MD1999999+0101REMSYN064AAXX  07184 82571 32997 01806 10322 20143 39943 40140 333 58010;EQDQ01  00002PRCP99
0208825710999992001080800004-05500-045260FM-12+017499999V0203201N001012200019N0100001N1+02421+01971101581ADDAA199000091GA1001+999999999GF100991001001999999001001KA1240M+03341MA1999999099591MD1999999+0001REMSYN082AAXX  08004 82571 32997 03202 10242 20197 39959 40158 333 10334 29060 55104 58000;EQDQ01  00002PRCP99
0196825710999992001080812004-05500-045260FM-12+017499999V0201401N003112200019N0100001N1+02431+01611101811ADDAA199000091GA1001+999999999GF100991001001999999001001KA1240N+01531MA1999999099811MD1999999-0071REMSYN070AAXX  08124 82571 32997 01406 10243 20161 39981 40181 333 20153 59007;EQDQ01  00002PRCP99
0167825710999992001080818004-05500-045260FM-12+017499999V0200901N003112200019N0100001N1+03271+01741101461ADDAA199000091GF103991031021008001001001MA1999999099481MD1999999+0051REMSYN070AAXX  08184 82571 32597 30906 10327 20174 39948 40146 83200 333 58005;EQDQ01  00002PRCP99
0208825710999992001080900004-05500-045260FM-12+017499999V0209999C000012200019N0100001N1+02541+02111101541ADDAA199000091GA1001+999999999GF100991001001999999001001KA1240M+03351MA1999999099551MD1999999-0041REMSYN082AAXX  09004 82571 32997 00000 10254 20211 39955 40154 333 10335 29064 55108 59004;EQDQ01  00002PRCP99
0196825710999992001080912004-05500-045260FM-12+017499999V0200901N002112200019N0100001N1+02541+01811101781ADDAA199000091GA1001+999999999GF100991001001999999001001KA1240N+01701MA1999999099791MD1999999-0021REMSYN070AAXX  09124 82571 32997 00904 10254 20181 39979 40178 333 20170 59002;EQDQ01  00002PRCP99
0167825710999992001080918004-05500-045260FM-12+017499999V0200901N001012200019N0100001N1+03281+01861101361ADDAA199000091GF103991031021008001001001MA1999999099391MD1999999-0091REMSYN070AAXX  09184 82571 32597 30902 10328 20186 39939 40136 83200 333 59009;EQDQ01  00002PRCP99
0208825710999992001081000004-05500-045260FM-12+017499999V0209999C000012200019N0100001N1+02641+02181101541ADDAA199000091GA1001+999999999GF100991001001999999001001KA1240M+03351MA1999999099561MD1999999+0011REMSYN082AAXX  10004 82571 32997 00000 10264 20218 39956 40154 333 10335 29065 55104 58001;EQDQ01  00002PRCP99
0165825710999992001081012004-05500-045260FM-12+017499999V0201401N003112200019N0100001N1+02671+01861101801ADDAA199000091GF101991011011004501001001KA1240N+01911MD1999999+0031REMSYN070AAXX  10124 82571 32497 11406 10267 20186 40180 81100 333 20191 58003;EQDQ01  00002PRCP99
0208825710999992001081100004-05500-045260FM-12+017499999V0200501N001012200019N0100001N1+02681+02161101541ADDAA199000091GA1001+999999999GF100991001001999999001001KA1240M+03391MA1999999099571MD1999999+0011REMSYN082AAXX  11004 82571 32997 00502 10268 20216 39957 40154 333 10339 29063 55107 58001;EQDQ01  00002PRCP99
0167825710999992001081118004-05500-045260FM-12+017499999V0201401N003112200019N0100001N1+03341+01671101341ADDAA199000091GF104991041021008001001001MA1999999099381MD1999999-0051REMSYN070AAXX  11184 82571 32597 41406 10334 20167 39938 40134 84200 333 59005;EQDQ01  00002PRCP99
0208825710999992001081200004-05500-045260FM-12+017499999V0202301N001012200019N0100001N1+02611+02071101571ADDAA199000091GA1001+999999999GF100991001001999999001001KA1240M+03471MA1999999099591MD1999999+0021REMSYN082AAXX  12004 82571 32597 02302 10261 20207 39959 40157 333 10347 29066 55102 58002;EQDQ01  00002PRCP99
0167825710999992001081218004-05500-045260FM-12+017499999V0201401N003110450019N0100001N1+03291+01761101331ADDAA199000091GF106991021011008001071011MA1999999099361MD1999999-0021REMSYN070AAXX  12184 82571 32597 61406 10329 20176 39936 40133 82171 333 59002;EQDQ01  00002PRCP99
0208825710999992001081300004-05500-045260FM-12+017499999V0209999C000012200019N0100001N1+02621+02181101481ADDAA199000091GA1001+999999999GF100991001001999999001001KA1240M+03401MA1999999099491MD1999999-0101REMSYN082AAXX  13000 82571 32997 00000 10262 20218 39949 40148 333 10340 29068 55097 59010;EQDQ01  00002PRCP99
0186825710999992001081312004-05500-045260FM-12+017499999V0201401N005112200019N0100001N1+02591+01791101771ADDAA199000091GF102991011011008001001011KA1240N+02021MA1999999099791MD1999999-0011REMSYN076AAXX  13124 82571 32597 21410 10259 20179 39979 40177 81101 333 20202 59001;EQDQ01  00002PRCP99
0167825710999992001081318004-05500-045260FM-12+017499999V0201401N001012200019N0100001N1+03231+01781101261ADDAA199000091GF103991031021008001001001MA1999999099301MD1999999-0061REMSYN070AAXX  13184 82571 32597 31402 10323 20178 39930 40126 83200 333 59006;EQDQ01  00002PRCP99
0208825710999992001081400004-05500-045260FM-12+017499999V0209999C000012200019N0100001N1+02621+02121101461ADDAA199000091GA1001+999999999GF100991001001999999001001KA1240M+03381MA1999999099481MD1999999-0011REMSYN082AAXX  14004 82571 32997 00000 10262 20212 39948 40146 333 10338 29063 55108 59001;EQDQ01  00002PRCP99
0196825710999992001081412004-05500-045260FM-12+017499999V0201401N003112200019N0100001N1+02521+01791101681ADDAA199000091GA1001+999999999GF100991001001999999001001KA1240N+01751MA1999999099691MD1999999-0101REMSYN070AAXX  14124 82571 32997 01406 10252 20179 39969 40168 333 20175 59010;EQDQ01  00002PRCP99
0177825710999992001081418004-05500-045260FM-12+017499999V0201401N003112200019N0100001N1+03391+01641101191ADDAA199000091GA1001+999999999GF100991001001999999001001MA1999999099241MD1999999-0061REMSYN064AAXX  14184 82571 32997 01406 10339 20164 39924 40119 333 59006;EQDQ01  00002PRCP99
0208825710999992001081500004-05500-045260FM-12+017499999V0200501N001012200019N0100001N1+02621+01861101451ADDAA199000091GA1001+999999999GF100991001001999999001001KA1240M+03471MA1999999099471MD1999999-0011REMSYN082AAXX  15004 82571 32997 00502 10262 20186 39947 40145 333 10347 29056 55106 59001;EQDQ01  00002PRCP99
0196825710999992001081512004-05500-045260FM-12+017499999V0200901N001012200019N0100001N1+02511+01661101731ADDAA199000091GA1001+999999999GF100991001001999999001001KA1240N+01691MA1999999099741MD1999999+0051REMSYN070AAXX  15124 82571 32997 00902 10251 20166 39974 40173 333 20169 58005;EQDQ01  00002PRCP99
0167825710999992001081518004-05500-045260FM-12+017499999V0201401N003112200019N0100001N1+03251+01841101321ADDAA199000091GF103991031021008001001001MA1999999099351MD1999999+0111REMSYN070AAXX  15184 82571 32597 31406 10325 20184 39935 40132 83200 333 58011;EQDQ01  00002PRCP99
0208825710999992001081600004-05500-045260FM-12+017499999V0209999C000012200019N0100001N1+02681+02061101551ADDAA199000091GA1001+999999999GF100991001001999999001001KA1240M+03401MA1999999099571MD1999999+0101REMSYN082AAXX  16004 82571 32997 00000 10268 20206 39957 40155 333 10340 29060 55109 58010;EQDQ01  00002PRCP99
0196825710999992001081612004-05500-045260FM-12+017499999V0201401N007212200019N0100001N1+02691+01831101841ADDAA199000091GA1001+999999999GF100991001001999999001001KA1240N+01971MA1999999099861MD1999999+0121REMSYN070AAXX  16124 82571 32997 01414 10269 20183 39986 40184 333 20197 58012;EQDQ01  00002PRCP99
0183825710999992001081618004-05500-045260FM-12+017499999V0200501N003112200019N0100001N1+03341+01951101291ADDAA199000091GF103991999021008001001001MA1999999099341MD1999999-0011REMSYN070AAXX  16184 82571 32597 30506 10334 20195 39934 40129 82200 333 59001;EQDQ01+000022SCOTLCQ02  00002PRCP99
0208825710999992001081700004-05500-045260FM-12+017499999V0209999C000012200019N0100001N1+02671+02111101511ADDAA199000091GA1001+999999999GF100991001001999999001001KA1240M+03421MA1999999099541MD1999999-0031REMSYN082AAXX  17004 82571 32997 00000 10267 20211 39954 40151 333 10342 29061 55102 59003;EQDQ01  00002PRCP99
0196825710999992001081712004-05500-045260FM-12+017499999V0200501N003112200019N0100001N1+02591+01761101721ADDAA199000091GA1001+999999999GF100991001001999999001001KA1240N+01851MA1999999099471MD1999999-0121REMSYN070AAXX  17124 82571 32997 00506 10259 20176 39947 40172 333 20185 59012;EQDQ01  00002PRCP99
0167825710999992001081718004-05500-045260FM-12+017499999V0201401N001012200019N0100001N1+03411+01701101221ADDAA199000091GF103991021021008001001011MA1999999099271MD1999999-0071REMSYN070AAXX  17184 82571 32597 31402 10341 20170 39927 40122 82201 333 59007;EQDQ01  00002PRCP99
0208825710999992001081800004-05500-045260FM-12+017499999V0209999C000012200019N0100001N1+02691+01991101401ADDAA199000091GA1001+999999999GF100991001001999999001001KA1240M+03521MA1999999099431MD1999999-0111REMSYN082AAXX  18004 82571 32997 00000 10269 20199 39943 40140 333 10352 29056 55102 59011;EQDQ01  00002PRCP99
0212825710999992001081812004-05500-045260FM-12+017499999V0201401N003112200019N0100001N1+02571+01641999999ADDAA199000091GA1001+999999999GF100991001001999999001001KA1240N+01761MA1999999099631MD1999999-0111REMSYN070AAXX  18124 82571 32997 01406 10257 20164 39963 4060/ 333 20176 59011;EQDQ01  00002PRCP99Q02 106003APOSLP
0183825710999992001081818004-05500-045260FM-12+017499999V0201401N003112200019N0100001N1+03421+01701101232ADDAA199000091GF102991021021008001001001MA1999999099271MD1999999+0001REMSYN070AAXX  18184 82571 32597 21406 10342 20170 39927 40123 82200 333 58000;EQDQ01+101233APOSLPQ02  00002PRCP99
0208825710999992001081900004-05500-045260FM-12+017499999V0209999C000012200019N0100001N1+02721+02221101481ADDAA199000091GA1001+999999999GF100991001001999999001001KA1240M+03501MA1999999099511MD1999999+0081REMSYN082AAXX  19004 82571 32997 00000 10272 20222 39951 40148 333 10350 29060 55106 58008;EQDQ01  00002PRCP99
0186825710999992001081912004-05500-045260FM-12+017499999V0200501N005112200019N0100001N1+02791+01661101671ADDAA199000091GF102991021001017501031001KA1240N+02101MA1999999099701MD1999999+0071REMSYN076AAXX  19124 82571 32797 20510 10279 20166 39970 40167 82030 333 20210 58007;EQDQ01  00002PRCP99
0167825710999992001081918004-05500-045260FM-12+017499999V0200901N005112200019N0100001N1+03421+01741101201ADDAA199000091GF103991021021008001001011MA1999999099251MD1999999-0021REMSYN070AAXX  19184 82571 32597 30910 10342 20174 39925 40120 82201 333 59002;EQDQ01  00002PRCP99
0198825710999992001082000004-05500-045260FM-12+017499999V0203201N001012200019N0100001N1+02791+02061101421ADDAA199000091GF102991021001017501031001KA1240M+03501MA1999999099461MD1999999-0051REMSYN088AAXX  20004 82571 32797 23202 10279 20206 39946 40142 82030 333 10350 29054 55103 59005;EQDQ01  00002PRCP99
0196825710999992001082012004-05500-045260FM-12+017499999V0200901N004112200019N0100001N1+02721+02051101881ADDAA199000091GA1001+999999999GF100991001001999999001001KA1240N+02031MA1999999099911MD1999999+0211REMSYN070AAXX  20124 82571 32997 00908 10272 20205 39991 40188 333 20203 58021;EQDQ01  00002PRCP99
0167825710999992001082018004-05500-045260FM-12+017499999V0200901N005112200019N0100001N1+03411+01871101291ADDAA199000091GF103991031021008001001001MA1999999099341MD1999999+0091REMSYN070AAXX  20184 82571 32597 30910 10341 20187 39934 40129 83200 333 58009;EQDQ01  00002PRCP99
0196825710999992001082112004-05500-045260FM-12+017499999V0201401N004112200019N0100001N1+02781+01871101751ADDAA199000091GA1001+999999999GF100991001001999999001001KA1240N+02101MA1999999099781MD1999999-0131REMSYN070AAXX  21124 82571 32597 01408 10278 20187 39978 40175 333 20210 59013;EQDQ01  00002PRCP99
0167825710999992001082118004-05500-045260FM-12+017499999V0201401N002112200019N0100001N1+03471+01841101321ADDAA199000091GF103991031021008001001001MA1999999099371MD1999999+0031REMSYN070AAXX  21184 82571 32597 31404 10347 20184 39937 40132 83200 333 58003;EQDQ01  00002PRCP99
0208825710999992001082200004-05500-045260FM-12+017499999V0209999C000012200019N0100001N1+02781+02111101461ADDAA199000091GA1001+999999999GF100991001001999999001001KA1240M+03551MA1999999099501MD1999999-0031REMSYN082AAXX  22004 82571 32997 00000 10278 20211 39950 40146 333 10355 29057 55106 59003;EQDQ01  00002PRCP99
0186825710999992001082212004-05500-045260FM-12+017499999V0203201N001012200019N0100001N1+02651+02181101801ADDAA199000091GF102991021011004501001001KA1240N+02061MA1999999099831MD1999999+0051REMSYN076AAXX  22124 82571 32497 23202 10265 20218 39983 40180 82100 333 20206 58005;EQDQ01  00002PRCP99
0167825710999992001082218004-05500-045260FM-12+017499999V0201401N002112200019N0100001N1+03471+01711101231ADDAA199000091GF101991011011008001001001MA1999999099291MD1999999-0081REMSYN070AAXX  22184 82571 32597 11404 10347 20171 39929 40123 81100 333 59008;EQDQ01  00002PRCP99
0208825710999992001082300004-05500-045260FM-12+017499999V0200501N001012200019N0100001N1+02771+01961101431ADDAA199000091GA1001+999999999GF100991001001999999001001KA1240M+03581MA1999999099461MD1999999-0041REMSYN082AAXX  23004 82571 32997 00502 10277 20196 39946 40143 333 10358 29058 55097 59004;EQDQ01  00002PRCP99
0186825710999992001082312004-05500-045260FM-12+017499999V0200501N002112200019N0100001N1+02631+02181101731ADDAA199000091GF101991011021004501001001KA1240N+02021MA1999999099761MD1999999-0071REMSYN076AAXX  23124 82571 32497 10504 10263 20218 39976 40173 81200 333 20202 59007;EQDQ01  00002PRCP99
0167825710999992001082318004-05500-045260FM-12+017499999V0200901N003112200019N0100001N1+03521+01791101161ADDAA199000091GF102991021021008001001001MA1999999099221MD1999999-0071REMSYN070AAXX  23184 82571 32597 20906 10352 20179 39922 40116 82200 333 59007;EQDQ01  00002PRCP99
0208825710999992001082400004-05500-045260FM-12+017499999V0200501N001012200019N0100001N1+02811+02121101371ADDAA199000091GA1001+999999999GF100991001001999999001001KA1240M+03601MA1999999099401MD1999999-0061REMSYN082AAXX  24004 82571 32997 00502 10281 20212 39940 40137 333 10360 29061 55097 59006;EQDQ01  00002PRCP99
0186825710999992001082412004-05500-045260FM-12+017499999V0202301N001012200019N0100001N1+02671+02241101721ADDAA199000091GF102991021021004501001001KA1240N+02101MA1999999099751MD1999999-0011REMSYN076AAXX  24124 82571 32497 22302 10267 20224 39975 40172 82200 333 20210 59001;EQDQ01  00002PRCP99
0167825710999992001082418004-05500-045260FM-12+017499999V0201401N003112200019N0100001N1+03501+01771101101ADDAA199000091GF101991011011008001001001MA1999999099161MD1999999-0061REMSYN070AAXX  24184 82571 32597 11406 10350 20177 39916 40110 81100 333 59006;EQDQ01  00002PRCP99
0208825710999992001082500004-05500-045260FM-12+017499999V0200501N001012200019N0100001N1+02751+02041101221ADDAA199000091GA1001+999999999GF100991001001999999001001KA1240M+03581MA1999999099261MD1999999-0141REMSYN082AAXX  25004 82571 32997 00502 10275 20204 39926 40122 333 10358 29061 55100 59014;EQDQ01  00002PRCP99
0198825710999992001082600004-05500-045260FM-12+017499999V0200501N002112200019N0100001N1+02771+02111101361ADDAA199000091GF102991021001017501031001KA1240M+03561MA1999999099391MD1999999+0131REMSYN088AAXX  26004 82571 32797 20504 10277 20211 39939 40136 82030 333 10356 29064 55094 58013;EQDQ01  00002PRCP99
0186825710999992001082712004-05500-045260FM-12+017499999V0202301N001010042019N0100001N1+02611+02181101691ADDAA199000091GF106991061021004501001001KA1240N+02241MA1999999099721MD1999999+0081REMSYN076AAXX  27124 82571 32497 62302 10261 20218 39972 40169 86200 333 20224 58008;EQDQ01  00002PRCP99
0167825710999992001082718004-05500-045260FM-12+017499999V0201401N001012200019N0100001N1+03471+01961101141ADDAA199000091GF103991031021008001001001MA1999999099201MD1999999+0001REMSYN070AAXX  27184 82571 32597 31402 10347 20196 39920 40114 83200 333 58000;EQDQ01  00002PRCP99
0208825710999992001082800004-05500-045260FM-12+017499999V0200501N001012200019N0100001N1+02821+02151101301ADDAA199000091GA1001+999999999GF100991001001999999001001KA1240M+03551MA1999999099341MD1999999-0011REMSYN082AAXX  28004 82571 32997 00502 10282 20215 39934 40130 333 10355 29063 55081 59001;EQDQ01  00002PRCP99
0186825710999992001082812004-05500-045260FM-12+017499999V0200501N003112200019N0100001N1+02631+02181101691ADDAA199000091GF104991041021004501001001KA1240N+02141MA1999999099721MD1999999+0001REMSYN076AAXX  28124 82571 32497 40506 10263 20218 39972 40169 84200 333 20214 58000;EQDQ01  00002PRCP99
0167825710999992001082818004-05500-045260FM-12+017499999V0203601N001012200019N0100001N1+03491+01981101161ADDAA199000091GF103991031021008001001001MA1999999099221MD1999999+0021REMSYN070AAXX  28184 82571 32597 33602 10349 20198 39922 40116 83200 333 58002;EQDQ01  00002PRCP99
0208825710999992001082900004-05500-045260FM-12+017499999V0203201N001012200019N0100001N1+02791+02181101301ADDAA199000091GA1001+999999999GF100991001001999999001001KA1240M+03631MA1999999099341MD1999999+0001REMSYN082AAXX  29004 82571 32997 03202 10279 20218 39934 40130 333 10363 29064 55094 58000;EQDQ01  00002PRCP99
0186825710999992001082912004-05500-045260FM-12+017499999V0200901N003110042019N0100001N1+02551+02231101561ADDAA199000091GF108991081051004501999999KA1240N+02331MA1999999099591MD1999999-0131REMSYN076AAXX  29124 82571 32497 80906 10255 20223 39959 40156 885// 333 20233 59013;EQDQ01  00002PRCP99
0167825710999992001082918004-05500-045260FM-12+017499999V0200901N001012200019N0100001N1+03411+01161101041ADDAA199000091GF104991041021008001001001MA1999999099101MD1999999-0121REMSYN070AAXX  29184 82571 32597 40902 10341 20116 39910 40104 84200 333 59012;EQDQ01  00002PRCP99
0198825710999992001083000004-05500-045260FM-12+017499999V0202301N001012200019N0100001N1+02711+02301101341ADDAA199000091GF103991031001017501031001KA1240M+03551MA1999999099371MD1999999+0021REMSYN088AAXX  30004 82571 32797 32302 10271 20230 39937 40134 83030 333 10355 29072 55050 58002;EQDQ01  00002PRCP99
0193825710999992001083012004-05500-045260FM-12+017499999V0202301N001010450019N0100001N1+02351+02191101651ADDAA124002091AY161061GF105991011021004501031001KA1240N+02181MA1999999099661MD1999999+0071MW1011REMSYN088AAXX  30124 82571 21497 52302 10235 20219 39966 40165 7016/ 81230 333 20218 58007 60024;
0183825710999992001083018004-05500-045260FM-12+017499999V0201401N002112200019N0100001N1+03381+02091101101ADDAA199000091GF104991999021008001001001MA1999999099151MD1999999+0051REMSYN070AAXX  30184 82571 32597 41404 10338 20209 39915 40110 83200 333 58005;EQDQ01+000032SCOTLCQ02  00002PRCP99
0198825710999992001083100004-05500-045260FM-12+017499999V0203201N001012200019N0100001N1+02811+02401101301ADDAA199000091GF102991011021004501031001KA1240M+03471MA1999999099331MD1999999-0041REMSYN088AAXX  31004 82571 32497 23202 10281 20240 39933 40130 81230 333 10347 29073 55081 59004;EQDQ01  00002PRCP99
0186825710999992001083112004-05500-045260FM-12+017499999V0200501N001010042019N0100001N1+02531+02251101651ADDAA199000091GF107991071051004501001001KA1240N+02271MA1999999099671MD1999999+0011REMSYN076AAXX  31124 82571 32497 70502 10253 20225 39967 40165 87500 333 20227 58001;EQDQ01  00002PRCP99
0167825710999992001083118004-05500-045260FM-12+017499999V0201401N004112200019N0100001N1+03411+01941101031ADDAA199000091GF104991031021008001011001MA1999999099091MD1999999-0061REMSYN070AAXX  31184 82571 32597 41408 10341 20194 39909 40103 83210 333 59006;EQDQ01  00002PRCP99
0198825710999992001090100004-05500-045260FM-12+017499999V0203201N001012200019N0100001N1+02821+02241101201ADDAA199000091GF101991011001017501031001KA1240M+03541MA1999999099241MD1999999-0091REMSYN088AAXX  01004 82571 32797 13202 10282 20224 39924 40120 81030 333 10354 29067 55068 59009;EQDQ01  00002PRCP99
0167825710999992001090118004-05500-045260FM-12+017499999V0202301N002112200019N0100001N1+03351+01931101081ADDAA199000091GF103991031021008001001001MA1999999099141MD1999999+0051REMSYN070AAXX  01184 82571 32597 32304 10335 20193 39914 40108 83200 333 58005;EQDQ01  00002PRCP99
0198825710999992001090200004-05500-045260FM-12+017499999V0200501N001012200019N0100001N1+02771+02131101231ADDAA199000091GF102991021001017501031001KA1240M+03501MA1999999099261MD1999999+0021REMSYN088AAXX  02004 82571 32797 20502 10277 20213 39926 40123 82030 333 10350 29065 55076 58002;EQDQ01  00002PRCP99
0186825710999992001090212004-05500-045260FM-12+017499999V0200901N001012200019N0100001N1+02611+02141101541ADDAA199000091GF103991031021004501001001KA1240N+02071MA1999999099571MD1999999-0071REMSYN076AAXX  02124 82571 32497 30902 10261 20214 39957 40154 83200 333 20207 59007;EQDQ01  00002PRCP99
0167825710999992001090218004-05500-045260FM-12+017499999V0201401N002112200019N0100001N1+03411+02131101011ADDAA199000091GF103991031021008001001001MA1999999099071MD1999999-0071REMSYN070AAXX  02184 82571 32597 31404 10341 20213 39907 40101 83200 333 59007;EQDQ01  00002PRCP99
0208825710999992001090300004-05500-045260FM-12+017499999V0203201N001012200019N0100001N1+02781+02131101111ADDAA199000091GA1001+999999999GF100991001001999999001001KA1240M+03541MA1999999099151MD1999999-0111REMSYN082AAXX  03004 82571 32997 03202 10278 20213 39915 40111 333 10354 29064 55099 59011;EQDQ01  00002PRCP99
0186825710999992001090312004-05500-045260FM-12+017499999V0201401N002112200019N0100001N1+02731+02141101501ADDAA199000091GF104991041021004501001001KA1240N+02251MA1999999099541MD1999999-0031REMSYN076AAXX  03124 82571 32497 41404 10273 20214 39954 40150 84200 333 20225 59003;EQDQ01  00002PRCP99
0167825710999992001090318004-05500-045260FM-12+017499999V0200901N001010450019N0100001N1+03391+01931100981ADDAA199000091GF105991041021008001011001MA1999999099041MD1999999-0031REMSYN070AAXX  03184 82571 32597 50902 10339 20193 39904 40098 84210 333 59003;EQDQ01  00002PRCP99
0198825710999992001090400004-05500-045260FM-12+017499999V0200501N001012200019N0100001N1+02811+02241101161ADDAA199000091GF101991011001017501011001KA1240M+03451MA1999999099201MD1999999+0051REMSYN088AAXX  04004 82571 32797 10502 10281 20224 39920 40116 81010 333 10345 29064 55087 58005;EQDQ01  00002PRCP99
0186825710999992001090412004-05500-045260FM-12+017499999V0202301N001012200019N0100001N1+02681+02221101521ADDAA199000091GF103991011021004501051011KA1240N+02311MA1999999099551MD1999999+0011REMSYN076AAXX  04124 82571 32497 32302 10268 20222 39955 40152 81251 333 20231 58001;EQDQ01  00002PRCP99
0167825710999992001090418004-05500-045260FM-12+017499999V0201401N002112200019N0100001N1+03511+02031100971ADDAA199000091GF105991041021008001001011MA1999999099041MD1999999+0001REMSYN070AAXX  04184 82571 32597 51404 10351 20203 39904 40097 84201 333 58000;EQDQ01  00002PRCP99
0208825710999992001090500004-05500-045260FM-12+017499999V0200501N001012200019N0100001N1+02891+02221101151ADDAA199000091GA1001+999999999GF100991001001999999001001KA1240M+03621MA1999999099201MD1999999+0001REMSYN082AAXX  05004 82571 32997 00502 10289 20222 39920 40115 333 10362 29063 55092 58000;EQDQ01  00002PRCP99
0186825710999992001090512004-05500-045260FM-12+017499999V0200501N001010042019N0100001N1+02771+02211101501ADDAA199000091GF106991061021004501001001KA1240N+02351MA1999999099541MD1999999-0011REMSYN076AAXX  05124 82571 32497 60502 10277 20221 39954 40150 86200 333 20235 59001;EQDQ01  00002PRCP99
0167825710999992001090518004-05500-045260FM-12+017499999V0200901N003112200019N0100001N1+03491+02091100991ADDAA199000091GF104991041021008001001001MA1999999099061MD1999999+0021REMSYN070AAXX  05184 82571 32597 40906 10349 20209 39906 40099 84200 333 58002;EQDQ01  00002PRCP99
0208825710999992001090600004-05500-045260FM-12+017499999V0203601N001012200019N0100001N1+02851+02211101141ADDAA199000091GA1001+999999999GF100991001001999999001001KA1240M+03571MA1999999099191MD1999999-0011REMSYN082AAXX  06004 82571 32997 03602 10285 20221 39919 40114 333 10357 29063 55098 59001;EQDQ01  00002PRCP99
0186825710999992001090612004-05500-045260FM-12+017499999V0203601N003110450019N0100001N1+02691+02241101441ADDAA199000091GF106991041041008001031001KA1240N+02461MA1999999099481MD1999999-0061REMSYN076AAXX  06124 82571 32597 63606 10269 20224 39948 40144 84430 333 20246 59006;EQDQ01  00002PRCP99
0167825710999992001090618004-05500-045260FM-12+017499999V0202301N001012200019N0100001N1+03341+02121100911ADDAA199000091GF103991031021008001001001MA1999999098981MD1999999-0081REMSYN070AAXX  06184 82571 32597 32302 10334 20212 39898 40091 83200 333 59008;EQDQ01  00002PRCP99
0208825710999992001090700004-05500-045260FM-12+017499999V0203601N001012200019N0100001N1+02831+02191101041ADDAA199000091GA1001+999999999GF100991001001999999001001KA1240M+03581MA1999999099081MD1999999-0111REMSYN082AAXX  07004 82571 32997 03602 10283 20219 39908 40104 333 10358 29065 55062 59011;EQDQ01  00002PRCP99
0186825710999992001090712004-05500-045260FM-12+017499999V0203201N003110075019N0100001N1+02671+02261101341ADDAA199000091GF106991051031008001031001KA1240N+02331MA1999999099381MD1999999-0101REMSYN076AAXX  07124 82571 32597 63206 10267 20226 39938 40134 85330 333 20233 59010;EQDQ01  00002PRCP99
0167825710999992001090718004-05500-045260FM-12+017499999V0202301N001012200019N0100001N1+03391+02071100841ADDAA199000091GF103991031021008001001001MA1999999098871MD1999999-0111REMSYN070AAXX  07184 82571 32597 32302 10339 20207 39887 40084 83200 333 59011;EQDQ01  00002PRCP99
0208825710999992001090800004-05500-045260FM-12+017499999V0203601N001012200019N0100001N1+02801+02201100981ADDAA199000091GA1001+999999999GF100991001001999999001001KA1240M+03531MA1999999099031MD1999999-0051REMSYN082AAXX  08004 82571 32997 03602 10280 20220 39903 40098 333 10353 29066 55063 59005;EQDQ01  00002PRCP99
0167825710999992001090818004-05500-045260FM-12+017499999V0201401N001012200019N0100001N1+03381+02061100851ADDAA199000091GF103991021021008001001011MA1999999098911MD1999999+0041REMSYN070AAXX  08184 82571 32597 31402 10338 20206 39891 40085 82201 333 58004;EQDQ01  00002PRCP99
0208825710999992001090900004-05500-045260FM-12+017499999V0203201N001012200019N0100001N1+02841+02241101081ADDAA199000091GA1001+999999999GF100991001001999999001001KA1240M+03511MA1999999099121MD1999999+0041REMSYN082AAXX  09004 82571 32997 03202 10284 20224 39912 40108 333 10351 29065 55061 58004;EQDQ01  00002PRCP99
0167825710999992001090918004-05500-045260FM-12+017499999V0203201N000512200019N0100001N1+03411+02091101031ADDAA199000091GF103991021011008001001011MA1999999099091MD1999999+0181REMSYN070AAXX  09184 82571 32597 33201 10341 20209 39909 40103 82101 333 58018;EQDQ01  00002PRCP99
0208825710999992001091000004-05500-045260FM-12+017499999V0200501N001012200019N0100001N1+02821+02201101161ADDAA199000091GA1001+999999999GF100991001001999999001001KA1240M+03501MA1999999099201MD1999999+0081REMSYN082AAXX  10004 82571 32997 00502 10282 20220 39920 40116 333 10350 29066 55073 58008;EQDQ01  00002PRCP99
0167825710999992001091018004-05500-045260FM-12+017499999V0201801N002112200019N0100001N1+03421+02161101011ADDAA199000091GF103991011021008001011011MA1999999099071MD1999999-0021REMSYN070AAXX  10184 82571 32597 31804 10342 20216 39907 40101 81211 333 59002;EQDQ01  00002PRCP99
0208825710999992001091100004-05500-045260FM-12+017499999V0203201N001012200019N0100001N1+02881+02281101171ADDAA199000091GA1001+999999999GF100991001001999999001001KA1240M+03571MA1999999099211MD1999999+0011REMSYN082AAXX  11004 82571 32997 03202 10288 20228 39921 40117 333 10357 29068 55065 58001;EQDQ01  00002PRCP99
0186825710999992001091112004-05500-045260FM-12+017499999V0200501N003110042019N0100001N1+02651+02241101461ADDAA199000091GF107991071051004501001001KA1240N+02491MA1999999099501MD1999999-0051REMSYN076AAXX  11124 82571 32497 70506 10265 20224 39950 40146 87500 333 20249 59005;EQDQ01  00002PRCP99
0167825710999992001091118004-05500-045260FM-12+017499999V0203601N002112200019N0100001N1+03381+02191100991ADDAA199000091GF103991031021008001001001MA1999999099061MD1999999-0011REMSYN070AAXX  11184 82571 32597 33604 10338 20219 39906 40099 83200 333 59001;EQDQ01  00002PRCP99
0186825710999992001091212004-05500-045260FM-12+017499999V0200501N003110042019N0100001N1+02571+02271101421ADDAA199000091GF108991081051004501999999KA1240N+02451MA1999999099451MD1999999-0051REMSYN076AAXX  12124 82571 32497 80506 10257 20227 39945 40142 885// 333 20245 59005;EQDQ01  00002PRCP99
0167825710999992001091218004-05500-045260FM-12+017499999V0200501N002112200019N0100001N1+03351+02171100921ADDAA199000091GF104991031021008001001011MA1999999098991MD1999999-0071REMSYN070AAXX  12184 82571 32597 40504 10335 20217 39899 40092 83201 333 59007;EQDQ01  00002PRCP99
0208825710999992001091300004-05500-045260FM-12+017499999V0203201N001012200019N0100001N1+02851+02331101121ADDAA199000091GA1001+999999999GF100991001001999999001001KA1240M+03421MA1999999099161MD1999999+0081REMSYN082AAXX  13004 82571 32997 03202 10285 20233 39916 40112 333 10342 29070 55043 58008;EQDQ01  00002PRCP99
0186825710999992001091312004-05500-045260FM-12+017499999V0200501N004112200019N0100001N1+02651+02071101551ADDAA199000091GF105991041021004501001011KA1240N+02371MA1999999099581MD1999999+0131REMSYN076AAXX  13124 82571 32497 50508 10265 20207 39958 40155 84201 333 20237 58013;EQDQ01  00002PRCP99
0167825710999992001091318004-05500-045260FM-12+017499999V0203601N002110075019N0100001N1+03321+02041101081ADDAA199000091GF106991051021008001011001MA1999999099141MD1999999+0151REMSYN070AAXX  13184 82571 32597 63604 10332 20204 39914 40108 85210 333 58015;EQDQ01  00002PRCP99
0208825710999992001091400004-05500-045260FM-12+017499999V0209999C000012200019N0100001N1+02791+02201101281ADDAA199000091GA1001+999999999GF100991001001999999001001KA1240M+03371MA1999999099321MD1999999+0161REMSYN082AAXX  14004 82571 32997 00000 10279 20220 39932 40128 333 10337 29064 55055 58016;EQDQ01  00002PRCP99
0186825710999992001091412004-05500-045260FM-12+017499999V0200501N001010042019N0100001N1+02591+02121101551ADDAA199000091GF106991061021004501001001KA1240N+02231MA1999999099581MD1999999+0001REMSYN076AAXX  14124 82571 32497 60502 10259 20212 39958 40155 86200 333 20223 58000;EQDQ01  00002PRCP99
0167825710999992001091418004-05500-045260FM-12+017499999V0201801N001012200019N0100001N1+03461+02091100911ADDAA199000091GF103991031021008001001001MA1999999098981MD1999999-0161REMSYN070AAXX  14184 82571 32597 31802 10346 20209 39898 40091 83200 333 59016;EQDQ01  00002PRCP99
0167825710999992001091518004-05500-045260FM-12+017499999V0201401N001012200019N0100001N1+03541+02051100831ADDAA199000091GF103991031021008001001001MA1999999098901MD1999999-0081REMSYN070AAXX  15184 82571 32597 31402 10354 20205 39890 40083 83200 333 59008;EQDQ01  00002PRCP99
0208825710999992001091600004-05500-045260FM-12+017499999V0209999C000012200019N0100001N1+02921+02191101101ADDAA199000091GA1001+999999999GF100991001001999999001001KA1240M+03621MA1999999099141MD1999999-0011REMSYN082AAXX  16004 82571 32997 00000 10292 20219 39914 40110 333 10362 29064 55073 59001;EQDQ01  00002PRCP99
0186825710999992001091612004-05500-045260FM-12+017499999V0200501N003110075019N0100001N1+02571+02191101541ADDAA199000091GF108991081051008001999999KA1240N+02331MA1999999099571MD1999999+0051REMSYN076AAXX  16124 82571 32597 80506 10257 20219 39957 40154 885// 333 20233 58005;EQDQ01  00002PRCP99
0167825710999992001091618004-05500-045260FM-12+017499999V0202301N001012200019N0100001N1+03241+02281101081ADDAA199000091GF103991031021008001001001MA1999999099141MD1999999+0241REMSYN070AAXX  16184 82571 32597 32302 10324 20228 39914 40108 83200 333 58024;EQDQ01  00002PRCP99
0208825710999992001091700004-05500-045260FM-12+017499999V0209999C000012200019N0100001N1+02721+02401101291ADDAA199000091GA1001+999999999GF100991001001999999001001KA1240M+03401MA1999999099321MD1999999+0181REMSYN082AAXX  17004 82571 32597 00000 10272 20240 39932 40129 333 10340 29074 55032 58018;EQDQ01  00002PRCP99
0186825710999992001091712004-05500-045260FM-12+017499999V0200501N003110042019N0100001N1+02541+02271101611ADDAA199000091GF108991081051004501999999KA1240N+02331MA1999999099641MD1999999+0071REMSYN076AAXX  17124 82571 32497 80506 10254 20227 39964 40161 885// 333 20233 58007;EQDQ01  00002PRCP99
0182825710999992001091718004-05500-045260FM-12+017499999V0202301N003110042019N0100001N1+02141+02061101561ADDAA106004191AY191061AY261061GF108991081031004501999999MA1999999099561MD1999999+0421MW1911REMSYN082AAXX  17184 82571 21497 82306 10214 20206 39956 40156 79196 883// 333 58042 60041;
0189825710999992001091800004-05500-045260FM-12+017499999V0202301N000512200019N0100001N1+02141+02071101491ADDAA199000021GA1001+999999999GF100991001001999999001001KA1240M+02791MA1999999099491MD1999999+0171REMSYN082AAXX  18004 82571 32997 02301 10214 20207 39949 40149 333 10279 29093 50000 58017;
0173825710999992001091818004-05500-045260FM-12+017499999V0201401N001010042019N0100001N1+02431+02131101671ADDAA124004191GF108991081051004501999999KA1240N+02011MA1999999099661MD1999999+0021REMSYN082AAXX  18184 82571 22497 81402 10243 20213 39966 40167 885// 333 20201 58002 60044;
0232825710999992001091900004-05500-045260FM-12+017499999V0202301N001019999999N0040001N1+02521+02231101381ADDAA106000191AY191061AY261061GF105991999001017501061001KA1240M+03421MA1999999099391MD1999999-0101MW1131REMSYN100AAXX  19004 82571 21796 52302 10252 20223 39939 40138 71396 84060 333 10342 29076 55048 59010 69911;EQDQ01+000042SCOTLC
0201825710999992001091912004-05500-045260FM-12+017499999V0201801N001010042019N0100001N1+02471+02271101591ADDAA124000891AY161061AY221061GF108991081051004501999999KA1240N+02281MA1999999099601MD1999999-0061MW1021REMSYN088AAXX  19124 82571 21497 81802 10247 20227 39960 40159 70262 885// 333 20228 59006 69984;
0167825710999992001091918004-05500-045260FM-12+017499999V0201401N003110075019N0100001N1+03161+01991101091ADDAA199000091GF106991051021008001001011MA1999999099141MD1999999+0001REMSYN070AAXX  19184 82571 32597 61406 10316 20199 39914 40109 85201 333 58000;EQDQ01  00002PRCP99
0208825710999992001092000004-05500-045260FM-12+017499999V0209999C000012200019N0100001N1+02631+02351101251ADDAA199000091GA1001+999999999GF100991001001999999001001KA1240M+03271MA1999999099271MD1999999-0121REMSYN082AAXX  20004 82571 32997 00000 10263 20235 39927 40125 333 10327 29076 55032 59012;EQDQ01  00002PRCP99
0186825710999992001092012004-05500-045260FM-12+017499999V0200501N003110075019N0100001N1+02651+02141101501ADDAA199000091GF105991051041008001001001KA1240N+02191MA1999999099531MD1999999-0071REMSYN076AAXX  20124 82571 32597 50506 10265 20214 39953 40150 85400 333 20219 59007;EQDQ01  00002PRCP99
0167825710999992001092018004-05500-045260FM-12+017499999V0201401N001012200019N0100001N1+03401+01931100981ADDAA199000091GF103991031021008001001001MA1999999099041MD1999999-0101REMSYN070AAXX  20184 82571 32597 31402 10340 20193 39904 40098 83200 333 59010;EQDQ01  00002PRCP99
0198825710999992001092100004-05500-045260FM-12+017499999V0202701N001012200019N0100001N1+02811+02221101131ADDAA199000091GF102991021001017501031001KA1240M+03501MA1999999099171MD1999999-0101REMSYN088AAXX  21004 82571 32797 22702 10281 20222 39917 40113 82030 333 10350 29064 55079 59010;EQDQ01  00002PRCP99
0186825710999992001092112004-05500-045260FM-12+017499999V0201401N005112200019N0100001N1+02731+02171101521ADDAA199000091GF104991011021008001031011KA1240N+02181MA1999999099551MD1999999+0021REMSYN076AAXX  21124 82571 32597 41410 10273 20217 39955 40152 81231 333 20218 58002;EQDQ01  00002PRCP99
0167825710999992001092118004-05500-045260FM-12+017499999V0201401N005112200019N0100001N1+03531+01931100921ADDAA199000091GF104991031021008001001011MA1999999098991MD1999999-0051REMSYN070AAXX  21184 82571 32597 41410 10353 20193 39899 40092 83201 333 59005;EQDQ01  00002PRCP99
0208825710999992001092200004-05500-045260FM-12+017499999V0200501N001012200019N0100001N1+02911+02091101141ADDAA199000091GA1001+999999999GF100991001001999999001001KA1240M+03631MA1999999099191MD1999999+0021REMSYN082AAXX  22004 82571 32997 00502 10291 20209 39919 40114 333 10363 29058 55097 58002;EQDQ01  00002PRCP99
0186825710999992001092212004-05500-045260FM-12+017499999V0200501N003110450019N0100001N1+02731+02211101561ADDAA199000091GF106991031021008001031011KA1240N+02261MA1999999099601MD1999999+0051REMSYN076AAXX  22124 82571 32597 60506 10273 20221 39960 40156 83231 333 20226 58005;EQDQ01  00002PRCP99
0167825710999992001092218004-05500-045260FM-12+017499999V0202301N001012200019N0100001N1+03491+02051100991ADDAA199000091GF103991021021008001001011MA1999999099061MD1999999+0071REMSYN070AAXX  22184 82571 32597 32302 10349 20205 39906 40099 82201 333 58007;EQDQ01  00002PRCP99
0208825710999992001092300004-05500-045260FM-12+017499999V0201401N001012200019N0100001N1+02851+02161101151ADDAA199000091GA1001+999999999GF100991001001999999001001KA1240M+03581MA1999999099201MD1999999+0011REMSYN082AAXX  23004 82571 32997 01402 10285 20216 39920 40115 333 10358 29062 55079 58001;EQDQ01  00002PRCP99
0167825710999992001092318004-05500-045260FM-12+017499999V0200901N003112200019N0100001N1+03481+01961100881ADDAA199000091GF103991031021008001001001MA1999999098951MD1999999-0111REMSYN070AAXX  23184 82571 32597 30906 10348 20196 39895 40088 83200 333 59011;EQDQ01  00002PRCP99
0208825710999992001092400004-05500-045260FM-12+017499999V0200501N001012200019N0100001N1+02891+02151101051ADDAA199000091GA1001+999999999GF100991001001999999001001KA1240M+03581MA1999999099101MD1999999-0101REMSYN082AAXX  24004 82571 32997 00502 10289 20215 39910 40105 333 10358 29060 55090 59010;EQDQ01  00002PRCP99
0186825710999992001092412004-05500-045260FM-12+017499999V0200501N003110042019N0100001N1+02611+02161101521ADDAA199000091GF108991081051004501999999KA1240N+02351MA1999999099551MD1999999+0061REMSYN076AAXX  24124 82571 32497 80506 10261 20216 39955 40152 885// 333 20235 58006;EQDQ01  00002PRCP99
0167825710999992001092418004-05500-045260FM-12+017499999V0201801N003112200019N0100001N1+03511+02031100921ADDAA199000091GF104991021021004501031011MA1999999098991MD1999999+0041REMSYN070AAXX  24184 82571 32497 41806 10351 20203 39899 40092 82231 333 58004;EQDQ01  00002PRCP99
0186825710999992001092512004-05500-045260FM-12+017499999V0203601N001010042019N0100001N1+02531+02251101521ADDAA199000091GF108991081051004501999999KA1240N+02351MA1999999099551MD1999999+0001REMSYN076AAXX  25124 82571 32497 83602 10253 20225 39955 40152 885// 333 20235 58000;EQDQ01  00002PRCP99
0167825710999992001092518004-05500-045260FM-12+017499999V0203601N003112200019N0100001N1+03461+02161100901ADDAA199000091GF103991031021004501001001MA1999999098971MD1999999-0021REMSYN070AAXX  25184 82571 32497 33606 10346 20216 39897 40090 83200 333 59002;EQDQ01  00002PRCP99
0208825710999992001092600004-05500-045260FM-12+017499999V0203201N001012200019N0100001N1+02851+02371101181ADDAA199000091GA1001+999999999GF100991001001999999001001KA1240M+03551MA1999999099221MD1999999+0081REMSYN082AAXX  26004 82571 32997 03202 10285 20237 39922 40118 333 10355 29070 55058 58008;EQDQ01  00002PRCP99
0186825710999992001092612004-05500-045260FM-12+017499999V0201401N002110042019N0100001N1+02631+02231101491ADDAA199000091GF107991071051004501001001KA1240N+02441MA1999999099531MD1999999-0021REMSYN076AAXX  26124 82571 32497 71404 10263 20223 39953 40149 87500 333 20244 59002;EQDQ01  00002PRCP99
0167825710999992001092618004-05500-045260FM-12+017499999V0200501N002112200019N0100001N1+03491+02051100871ADDAA199000091GF102991021011004501001001MA1999999098941MD1999999-0031REMSYN070AAXX  26184 82571 32497 20504 10349 20205 39894 40087 82100 333 59003;EQDQ01  00002PRCP99
0198825710999992001092700004-05500-045260FM-12+017499999V0200501N001012200019N0100001N1+02911+02191101031ADDAA199000091GF101991011001017501031001KA1240M+03591MA1999999099071MD1999999-0151REMSYN088AAXX  27004 82571 32797 10502 10291 20219 39907 40103 81030 333 10359 29063 55066 59015;EQDQ01  00002PRCP99
0186825710999992001092712004-05500-045260FM-12+017499999V0200501N002112200019N0100001N1+02841+02221101401ADDAA199000091GF102991021011004501001001KA1240N+02491MA1999999099451MD1999999-0081REMSYN076AAXX  27124 82571 32497 20504 10284 20222 39945 40140 82100 333 20249 59008;EQDQ01  00002PRCP99
0167825710999992001092718004-05500-045260FM-12+017499999V0200501N002112200019N0100001N1+03591+02031100771ADDAA199000091GF103991031021004501001001MA1999999098851MD1999999-0091REMSYN070AAXX  27184 82571 32497 30504 10359 20203 39885 40077 83200 333 59009;EQDQ01  00002PRCP99
0214825710999992001092800004-05500-045260FM-12+017499999V0200501N001012200019N0100001N1+02971+02331101111ADDAA199000091GF102991999001017501031001KA1240M+03731MA1999999099161MD1999999+0091REMSYN088AAXX  28004 82571 32797 20502 10297 20233 39916 40111 81030 333 10373 29061 55087 58009;EQDQ01+000012SCOTLCQ02  00002PRCP99
0186825710999992001092812004-05500-045260FM-12+017499999V0203601N001012200019N0100001N1+02741+02171101481ADDAA199000091GF104991041021004501001001KA1240N+02471MA1999999099521MD1999999+0071REMSYN076AAXX  28124 82571 32497 43602 10274 20217 39952 40148 84200 333 20247 58007;EQDQ01  00002PRCP99
0208825710999992001092900004-05500-045260FM-12+017499999V0203201N001012200019N0100001N1+02971+02281101131ADDAA199000091GA1001+999999999GF100991001001999999001001KA1240M+03571MA1999999099181MD1999999+0021REMSYN082AAXX  29004 82571 32997 03202 10297 20228 39918 40113 333 10357 29062 55077 58002;EQDQ01  00002PRCP99
0186825710999992001092912004-05500-045260FM-12+017499999V0201401N001010042019N0100001N1+02671+02181101591ADDAA199000091GF106991061051004501001001KA1240N+02431MA1999999099631MD1999999+0111REMSYN076AAXX  29124 82571 32497 61402 10267 20218 39963 40159 86500 333 20243 58011;EQDQ01  00002PRCP99
0167825710999992001092918004-05500-045260FM-12+017499999V0200501N001012200019N0100001N1+03431+02141101081ADDAA199000091GF102991021021004501001001MA1999999099151MD1999999+0151REMSYN070AAXX  29184 82571 32497 20502 10343 20214 39915 40108 82200 333 58015;EQDQ01  00002PRCP99
0198825710999992001093000004-05500-045260FM-12+017499999V0200501N005112200019N0100001N1+02861+02091101301ADDAA199000091GF102991021001017501011001KA1240M+03611MA1999999099341MD1999999+0161REMSYN088AAXX  30004 82571 32797 20510 10286 20209 39934 40130 82010 333 10361 29062 55054 58016;EQDQ01  00002PRCP99
0186825710999992001093012004-05500-045260FM-12+017499999V0203201N001010450019N0100001N1+02711+02171101591ADDAA199000091GF106991031021004501031011KA1240N+02371MA1999999099631MD1999999+0001REMSYN076AAXX  30124 82571 32497 63202 10271 20217 39963 40159 83231 333 20237 58000;EQDQ01  00002PRCP99
0167825710999992001093018004-05500-045260FM-12+017499999V0201401N003112200019N0100001N1+03541+01891101001ADDAA199000091GF102991021021004501001001MA1999999099071MD1999999-0081REMSYN070AAXX  30184 82571 32497 21406 10354 20189 39907 40100 82200 333 59008;EQDQ01  00002PRCP99
0208825710999992001100100004-05500-045260FM-12+017499999V0202301N001012200019N0100001N1+02871+02131101361ADDAA199000091GA1001+999999999GF100991001001999999001001KA1240M+03651MA1999999099401MD1999999+0061REMSYN082AAXX  01004 82571 32997 02302 10287 20213 39940 40136 333 10365 29060 55082 58006;EQDQ01  00002PRCP99
0186825710999992001100112004-05500-045260FM-12+017499999V0201401N001012200019N0100001N1+02831+02241101551ADDAA199000091GF102991001001999999001011KA1240N+02311MA1999999099591MD1999999-0041REMSYN076AAXX  01124 82571 32997 21402 10283 20224 39959 40155 80001 333 20231 59004;EQDQ01  00002PRCP99
0167825710999992001100118004-05500-045260FM-12+017499999V0201801N001012200019N0100001N1+03621+01921100981ADDAA199000091GF103991031021004501001001MA1999999099051MD1999999-0021REMSYN070AAXX  01184 82571 32497 31802 10362 20192 39905 40098 83200 333 59002;EQDQ01  00002PRCP99
0198825710999992001100200004-05500-045260FM-12+017499999V0200501N001012200019N0100001N1+02941+02031101211ADDAA199000091GF102991021001017501031001KA1240M+03731MA1999999099261MD1999999-0141REMSYN088AAXX  02004 82571 32797 20502 10294 20203 39926 40121 82030 333 10373 29056 55092 59014;EQDQ01  00002PRCP99
0186825710999992001100212004-05500-045260FM-12+017499999V0200501N002110042019N0100001N1+02621+02181101691ADDAA199000091GF108991081051004501999999KA1240N+02401MA1999999099731MD1999999+0141REMSYN076AAXX  02124 82571 32497 80504 10262 20218 39973 40169 885// 333 20240 58014;EQDQ01  00002PRCP99
0167825710999992001100218004-05500-045260FM-12+017499999V0200501N002112200019N0100001N1+03591+02111101051ADDAA199000091GF103991031021004501001001MA1999999099131MD1999999+0081REMSYN070AAXX  02184 82571 32497 30504 10359 20211 39913 40105 83200 333 58008;EQDQ01  00002PRCP99
0198825710999992001100300004-05500-045260FM-12+017499999V0202701N001012200019N0100001N1+02931+02191101281ADDAA199000091GF101991011001017501031001KA1240M+03671MA1999999099321MD1999999+0061REMSYN088AAXX  03004 82571 32797 12702 10293 20219 39932 40128 81030 333 10367 29062 55065 58006;EQDQ01  00002PRCP99
0167825710999992001100318004-05500-045260FM-12+017499999V0202301N001012200019N0100001N1+03511+02071101161ADDAA199000091GF103991031021004501001001MA1999999099231MD1999999+0101REMSYN070AAXX  03184 82571 32497 32302 10351 20207 39923 40116 83200 333 58010;EQDQ01  00002PRCP99
0198825710999992001100400004-05500-045260FM-12+017499999V0202701N001012200019N0100001N1+02991+02321101351ADDAA199000091GF102991021001017501011001KA1240M+03651MA1999999099401MD1999999+0081REMSYN088AAXX  04004 82571 32797 22702 10299 20232 39940 40135 82010 333 10365 29062 55068 58008;EQDQ01  00002PRCP99
0186825710999992001100412004-05500-045260FM-12+017499999V0200501N003112200019N0100001N1+02821+02171101601ADDAA199000091GF102991021011004501001001KA1240N+02271MA1999999099651MD1999999-0151REMSYN076AAXX  04124 82571 32497 20506 10282 20217 39965 40160 82100 333 20227 59015;EQDQ01  00002PRCP99
0167825710999992001100418004-05500-045260FM-12+017499999V0203601N002112200019N0100001N1+03631+01981100991ADDAA199000091GF103991031021004501001001MA1999999099071MD1999999-0161REMSYN070AAXX  04184 82571 32497 33604 10363 20198 39907 40099 83200 333 59016;EQDQ01  00002PRCP99
0208825710999992001100500004-05500-045260FM-12+017499999V0203601N001012200019N0100001N1+02971+02091101221ADDAA199000091GA1001+999999999GF100991001001999999001001KA1240M+03731MA1999999099271MD1999999-0131REMSYN082AAXX  05004 82571 32997 03602 10297 20209 39927 40122 333 10373 29056 55099 59013;EQDQ01  00002PRCP99
0186825710999992001100512004-05500-045260FM-12+017499999V0200501N005110042019N0100001N1+02651+02141101741ADDAA199000091GF106991051051004501031001KA1240N+02411MA1999999099771MD1999999+0121REMSYN076AAXX  05124 82571 32497 60510 10265 20214 39977 40174 85530 333 20241 58012;EQDQ01  00002PRCP99
0167825710999992001100518004-05500-045260FM-12+017499999V0201401N003112200019N0100001N1+03511+02151101091ADDAA199000091GF103991031021004501001001MA1999999099131MD1999999+0061REMSYN070AAXX  05184 82571 32497 31406 10351 20215 39913 40109 83200 333 58006;EQDQ01  00002PRCP99
0208825710999992001100600004-05500-045260FM-12+017499999V0202701N001012200019N0100001N1+02821+02311101231ADDAA199000091GA1001+999999999GF100991001001999999001001KA1240M+03621MA1999999099271MD1999999+0001REMSYN082AAXX  06004 82571 32997 02702 10282 20231 39927 40123 333 10362 29066 55071 58000;EQDQ01  00002PRCP99
0186825710999992001100612004-05500-045260FM-12+017499999V0200501N003110450019N0100001N1+02731+02171101681ADDAA199000091GF106991031021004501031011KA1240N+02481MA1999999099721MD1999999-0051REMSYN076AAXX  06124 82571 32497 60506 10273 20217 39972 40168 83231 333 20248 59005;EQDQ01  00002PRCP99
0167825710999992001100718004-05500-045260FM-12+017499999V0203601N001010450019N0100001N1+03461+02161101031ADDAA199000091GF105991041021004501031001MA1999999099101MD1999999-0171REMSYN070AAXX  07184 82571 32497 53602 10346 20216 39910 40103 84230 333 59017;EQDQ01  00002PRCP99
0198825710999992001100800004-05500-045260FM-12+017499999V0202301N001012200019N0100001N1+02831+02171101341ADDAA199000091GF102991021001017501041001KA1240M+03571MA1999999099381MD1999999+0111REMSYN088AAXX  08004 82571 32797 22302 10283 20217 39938 40134 82040 333 10357 29064 55073 58011;EQDQ01  00002PRCP99
0193825710999992001100812004-05500-045260FM-12+017499999V0200501N003110042019N0100001N1+02691+02241101501ADDAA124000591AY161061GF106991051021004501031001KA1240N+02381MA1999999099541MD1999999-0011MW1011REMSYN088AAXX  08124 82571 21497 60506 10269 20224 39954 40150 7016/ 85230 333 20238 59001 69944;
0167825710999992001100818004-05500-045260FM-12+017499999V0201401N003112200019N0100001N1+03401+02071100981ADDAA199000091GF103991021021004501031001MA1999999099051MD1999999-0051REMSYN070AAXX  08184 82571 32497 31406 10340 20207 39905 40098 82230 333 59005;EQDQ01  00002PRCP99
0198825710999992001100900004-05500-045260FM-12+017499999V0200501N001012200019N0100001N1+02901+02271101231ADDAA199000091GF101991011021004501001001KA1240M+03551MA1999999099271MD1999999-0111REMSYN088AAXX  09004 82571 32497 10502 10290 20227 39927 40123 81200 333 10355 29065 55083 59011;EQDQ01  00002PRCP99
0186825710999992001100912004-05500-045260FM-12+017499999V0200501N002110042019N0100001N1+02651+02201101471ADDAA199000091GF107991071051004501001001KA1240N+02371MA1999999099511MD1999999-0031REMSYN076AAXX  09124 82571 32497 70504 10265 20220 39951 40147 87500 333 20237 59003;EQDQ01  00002PRCP99
0167825710999992001100918004-05500-045260FM-12+017499999V0203601N003112200019N0100001N1+03441+02211100941ADDAA199000091GF104991031021004501001011MA1999999099011MD1999999-0041REMSYN070AAXX  09184 82571 32497 43606 10344 20221 39901 40094 83201 333 59004;EQDQ01  00002PRCP99
0198825710999992001101000004-05500-045260FM-12+017499999V0200501N001012200019N0100001N1+02911+02361101121ADDAA199000091GF101991011001017501011001KA1240M+03571MA1999999099171MD1999999-0101REMSYN088AAXX  10004 82571 32797 10502 10291 20236 39917 40112 81010 333 10357 29067 55061 59010;EQDQ01  00002PRCP99
0186825710999992001101012004-05500-045260FM-12+017499999V0203201N002110042019N0100001N1+02531+02351101591ADDAA199000091GF108991081051004501999999KA1240N+02511MA1999999099621MD1999999+0111REMSYN076AAXX  10124 82571 32497 83204 10253 20235 39962 40159 885// 333 20251 58011;EQDQ01  00002PRCP99
0167825710999992001101018004-05500-045260FM-12+017499999V0203601N001010042019N0100001N1+03151+02261101101ADDAA199000091GF106991051021004501011001MA1999999099161MD1999999-0151REMSYN070AAXX  10184 82571 32497 63602 10315 20226 39916 40110 85210 333 59015;EQDQ01  00002PRCP99
0208825710999992001101100004-05500-045260FM-12+017499999V0209999C000012200019N0100001N1+02811+02441101191ADDAA199000091GA1001+999999999GF100991001001999999001001KA1240M+03321MA1999999099221MD1999999+0051REMSYN082AAXX  11004 82571 32997 00000 10281 20244 39922 40119 333 10332 29077 55026 58005;EQDQ01  00002PRCP99
0186825710999992001101112004-05500-045260FM-12+017499999V0200901N005112200019N0100001N1+02751+02211101441ADDAA199000091GF103991031001017501031001KA1240N+02311MA1999999099481MD1999999-0141REMSYN076AAXX  11124 82571 32797 30910 10275 20221 39948 40144 83030 333 20231 59014;EQDQ01  00002PRCP99
0182825710999992001101118004-05500-045260FM-12+017499999V0200501N005112200019N0100001N1+03391+02141101001ADDAA124000191AY161061AY201061GF103991031021004501001001MA1999999099601MD1999999-0101MW1021REMSYN082AAXX  11184 82571 21497 30510 10339 20214 39960 40100 70260 83200 333 59010 69914;
0208825710999992001101200004-05500-045260FM-12+017499999V0203601N001012200019N0100001N1+02891+02271101151ADDAA199000091GA1001+999999999GF100991001001999999001001KA1240M+03471MA1999999099201MD1999999-0021REMSYN082AAXX  12004 82571 32997 03602 10289 20227 39920 40115 333 10347 29064 55062 59002;EQDQ01  00002PRCP99
0173825710999992001101212004-05500-045260FM-12+017499999V0200501N005110042019N0100001N1+02671+02141101511ADDAA124000191GF108991081051004501999999KA1240N+02381MA1999999099551MD1999999+0071REMSYN082AAXX  12124 82571 22497 80510 10267 20214 39955 40151 885// 333 20238 58007 69914;
0167825710999992001101218004-05500-045260FM-12+017499999V0200501N001010450019N0100001N1+03221+02141101161ADDAA199000091GF106991031021008001031011MA1999999099221MD1999999+0161REMSYN070AAXX  12184 82571 32597 60502 10322 20214 39922 40116 83231 333 58016;EQDQ01  00002PRCP99
0208825710999992001101300004-05500-045260FM-12+017499999V0202301N001012200019N0100001N1+02771+02251101341ADDAA199000091GA1001+999999999GF100991001001999999001001KA1240M+03311MA1999999099371MD1999999+0171REMSYN082AAXX  13004 82571 32997 02302 10277 20225 39937 40134 333 10331 29068 55020 58017;EQDQ01  00002PRCP99
0186825710999992001101312004-05500-045260FM-12+017499999V0200501N001010042019N0100001N1+02751+02161101621ADDAA199000091GF108991081051004501999999KA1240N+02361MA1999999099651MD1999999+0101REMSYN076AAXX  13124 82571 32497 80502 10275 20216 39965 40162 885// 333 20236 58010;EQDQ01  00002PRCP99
0167825710999992001101318004-05500-045260FM-12+017499999V0202701N001012200019N0100001N1+03371+02091101051ADDAA199000091GF104991041021004501001001MA1999999099111MD1999999-0111REMSYN070AAXX  13184 82571 32497 42702 10337 20209 39911 40105 84200 333 59011;EQDQ01  00002PRCP99
0208825710999992001101400004-05500-045260FM-12+017499999V0202301N001012200019N0100001N1+02881+02281101261ADDAA199000091GA1001+999999999GF100991001001999999001001KA1240M+03471MA1999999099301MD1999999-0071REMSYN082AAXX  14004 82571 32997 02302 10288 20228 39930 40126 333 10347 29064 55063 59007;EQDQ01  00002PRCP99
0186825710999992001101412004-05500-045260FM-12+017499999V0200501N001010450019N0100001N1+02751+02211101591ADDAA199000091GF105991031021004501031001KA1240N+02461MA1999999099631MD1999999-0021REMSYN076AAXX  14124 82571 32497 50502 10275 20221 39963 40159 83230 333 20246 59002;EQDQ01  00002PRCP99
0167825710999992001101418004-05500-045260FM-12+017499999V0201801N001010450019N0100001N1+03441+02111101011ADDAA199000091GF106991031031004501031011MA1999999099081MD1999999-0031REMSYN070AAXX  14184 82571 32497 61802 10344 20211 39908 40101 83331 333 59003;EQDQ01  00002PRCP99
0208825710999992001101500004-05500-045260FM-12+017499999V0200901N001012200019N0100001N1+02881+02231101121ADDAA199000091GA1001+999999999GF100991001001999999001001KA1240M+03561MA1999999099171MD1999999-0131REMSYN082AAXX  15004 82571 32997 00902 10288 20223 39917 40112 333 10356 29064 55036 59013;EQDQ01  00002PRCP99
0186825710999992001101512004-05500-045260FM-12+017499999V0200501N005112200019N0100001N1+02831+02071101391ADDAA199000091GF103991031021004501001001KA1240N+02351MA1999999099441MD1999999-0191REMSYN076AAXX  15124 82571 32497 30510 10283 20207 39944 40139 83200 333 20235 59019;EQDQ01  00002PRCP99
0167825710999992001101518004-05500-045260FM-12+017499999V0200501N001012200019N0100001N1+03341+02121100971ADDAA199000091GF104991031021004501011001MA1999999099041MD1999999-0041REMSYN070AAXX  15184 82571 32497 40502 10334 20212 39904 40097 83210 333 59004;EQDQ01  00002PRCP99
0198825710999992001101600004-05500-045260FM-12+017499999V0209999C000012200019N0100001N1+02951+02351101161ADDAA199000091GF102991021021004501001001KA1240M+03471MA1999999099211MD1999999+0041REMSYN088AAXX  16004 82571 32497 20000 10295 20235 39921 40116 82200 333 10347 29063 55061 58004;EQDQ01  00002PRCP99
0158825710999992001101612004-05500-045260FM-12+017499999V0200501N002110090019N0100001N1+02671+02091101471ADDAA199000091GF107991071081004501001001MA1999999099511REMSYN075AAXX  16124 82571 32497 70504 10267 20209 39951 40147 87800 333 2026 58007;EQDQ01  00002PRCP99
0167825710999992001101618004-05500-045260FM-12+017499999V0200501N004012200019N0100001N1+03281+02101100961ADDAA199000091GF104991031021004501011001MA1999999099021MD1999999-0021REMSYN070AAXX  16181 82571 32497 40504 10328 20210 39902 40096 83210 333 59002;EQDQ01  00002PRCP99
0208825710999992001101700004-05500-045260FM-12+017499999V0201401N001012200019N0100001N1+02851+02161101151ADDAA199000091GA1001+999999999GF100991001001999999001001KA1240M+03371MA1999999099191MD1999999-0021REMSYN082AAXX  17004 82571 32997 01402 10285 20216 39919 40115 333 10337 29063 55058 59002;EQDQ01  00002PRCP99
0186825710999992001101712004-05500-045260FM-12+017499999V0200501N001012200019N0100001N1+02831+02221101311ADDAA199000091GF103991011011004501011001KA1240N+02391MA1999999099361MD1999999-0151REMSYN076AAXX  17124 82571 32497 30502 10283 20222 39936 40131 81110 333 20239 59015;EQDQ01  00002PRCP99
0167825710999992001101718004-05500-045260FM-12+017499999V0201401N003112200019N0100001N1+03531+01931100751ADDAA199000091GF103991031021004501001001MA1999999098831MD1999999-0191REMSYN070AAXX  17184 82571 32497 31406 10353 20193 39883 40075 83200 333 59019;EQDQ01  00002PRCP99
0198825710999992001101800004-05500-045260FM-12+017499999V0200501N001012200019N0100001N1+03011+02161100921ADDAA199000091GF101991011021004501001001KA1240M+03701MA1999999098981MD1999999-0211REMSYN088AAXX  18004 82571 32497 10502 10301 20216 39898 40092 81200 333 10370 29057 55091 59021;EQDQ01  00002PRCP99
0186825710999992001101812004-05500-045260FM-12+017499999V0200501N001010450019N0100001N1+02771+02161101311ADDAA199000091GF105991031021004501011001KA1240N+02411MA1999999099361MD1999999+0001REMSYN076AAXX  18124 82571 32497 50502 10277 20216 39936 40131 83210 333 20241 58000;EQDQ01  00002PRCP99
0167825710999992001101818004-05500-045260FM-12+017499999V0201801N003112200019N0100001N1+03571+02051100721ADDAA199000091GF104991021021004501011011MA1999999098801MD1999999-0031REMSYN070AAXX  18184 82571 32497 41806 10357 20205 39880 40072 82211 333 59003;EQDQ01  00002PRCP99
0208825710999992001101900004-05500-045260FM-12+017499999V0202301N001012200019N0100001N1+03071+02351100951ADDAA199000091GA1001+999999999GF100991001001999999001001KA1240M+03731MA1999999099011MD1999999+0031REMSYN082AAXX  19004 82571 32997 02302 10307 20235 39901 40095 333 10373 29060 55096 58003;EQDQ01  00002PRCP99
0186825710999992001101912004-05500-045260FM-12+017499999V0200501N001012200019N0100001N1+02791+02181101261ADDAA199000091GF104991021021004501011001KA1240N+02451MA1999999099321MD1999999-0041REMSYN076AAXX  19124 82571 32497 40502 10279 20218 39932 40126 82210 333 20245 59004;EQDQ01  00002PRCP99
0167825710999992001101918004-05500-045260FM-12+017499999V0203601N002112200019N0100001N1+03521+02111100721ADDAA199000091GF104991031021004501001011MA1999999098801MD1999999+0001REMSYN070AAXX  19184 82571 32497 43604 10352 20211 39880 40072 83201 333 58000;EQDQ01  00002PRCP99
0208825710999992001102000004-05500-045260FM-12+017499999V0203201N001012200019N0100001N1+03031+02281100971ADDAA199000091GA1001+999999999GF100991001001999999001001KA1240M+03651MA1999999099031MD1999999+0021REMSYN082AAXX  20004 82571 32997 03202 10303 20228 39903 40097 333 10365 29060 55074 58002;EQDQ01  00002PRCP99
0186825710999992001102012004-05500-045260FM-12+017499999V0203601N003110450019N0100001N1+02801+02181101401ADDAA199000091GF106991031021004501031001KA1240N+02471MA1999999099451MD1999999+0131REMSYN076AAXX  20124 82571 32497 63606 10280 20218 39945 40140 83230 333 20247 58013;EQDQ01  00002PRCP99
0167825710999992001102018004-05500-045260FM-12+017499999V0203201N002110450019N0100001N1+03391+02181100951ADDAA199000091GF106991031021004501031011MA1999999099021MD1999999+0221REMSYN070AAXX  20184 82571 32497 63204 10339 20218 39902 40095 83231 333 58022;EQDQ01  00002PRCP99
0208825710999992001102100004-05500-045260FM-12+017499999V0202301N001012200019N0100001N1+02971+02251101241ADDAA199000091GA1001+999999999GF100991001001999999001001KA1240M+03521MA1999999099291MD1999999+0261REMSYN082AAXX  21004 82571 32997 02302 10297 20225 39929 40124 333 10352 29062 55092 58026;EQDQ01  00002PRCP99
0196825710999992001102112004-05500-045260FM-12+017499999V0200901N003112200019N0100001N1+02871+02211101351ADDAA199000091GA1001+999999999GF100991001001999999001001KA1240N+02511MA1999999099401MD1999999-0051REMSYN070AAXX  21124 82571 32997 00906 10287 20221 39940 40135 333 20251 59005;EQDQ01  00002PRCP99
0208825710999992001102200004-05500-045260FM-12+017499999V0203201N001012200019N0100001N1+02991+02321101121ADDAA199000091GA1001+999999999GF100991001001999999001001KA1240M+03601MA1999999099171MD1999999-0121REMSYN082AAXX  22004 82571 32997 03202 10299 20232 39917 40112 333 10360 29061 55085 59012;EQDQ01  00002PRCP99
0186825710999992001102212004-05500-045260FM-12+017499999V0200501N001010042019N0100001N1+02671+02201101471ADDAA199000091GF108991081051004501999999KA1240N+02561MA1999999099511MD1999999+0111REMSYN076AAXX  22124 82571 32497 80502 10267 20220 39951 40147 885// 333 20256 58011;EQDQ01  00002PRCP99
0167825710999992001102218004-05500-045260FM-12+017499999V0202301N001012200019N0100001N1+03511+02111100811ADDAA199000091GF104991041021004501001001MA1999999098891MD1999999-0091REMSYN070AAXX  22184 82571 32497 42302 10351 20211 39889 40081 84200 333 59009;EQDQ01  00002PRCP99
0208825710999992001102300004-05500-045260FM-12+017499999V0202301N001012200019N0100001N1+03051+02271100991ADDAA199000091GA1001+999999999GF100991001001999999001001KA1240M+03601MA1999999099041MD1999999-0131REMSYN082AAXX  23004 82571 32997 02302 10305 20227 39904 40099 333 10360 29061 55055 59013;EQDQ01  00002PRCP99
0208825710999992001102312004-05500-045260FM-12+017499999V0202301N001012200019N0100001N1+03051+02271100991ADDAA199000091GA1001+999999999GF100991001001999999001001KA1240M+03601MA1999999099041MD1999999-0131REMSYN082AAXX  23124 82571 32997 02302 10305 20227 39904 40099 333 10360 29061 55055 59013;EQDQ01  00002PRCP99
0167825710999992001102318004-05500-045260FM-12+017499999V0203601N001012200019N0100001N1+03561+02111100881ADDAA199000091GF104991041021004501001001MA1999999098961MD1999999+0071REMSYN070AAXX  23184 82571 32497 43602 10356 20211 39896 40088 84200 333 58007;EQDQ01  00002PRCP99
0210825710999992001102400004-05500-045260FM-12+017499999V0203601N005110042019N0100001N1+02651+01821101331ADDAA199000091GF108991081051004501999999KA1240M+03731MA1999999099361MD1999999+0321MW1171REMSYN094AAXX  24004 82571 31497 83610 10265 20182 39936 40133 717// 885// 333 10373 29059 55057 58032;EQDQ01  00002PRCP99
0186825710999992001102412004-05500-045260FM-12+017499999V0203601N001010042019N0100001N1+02691+02301101591ADDAA199000091GF105991051051004501001001KA1240N+02491MA1999999099621MD1999999+0191REMSYN076AAXX  24124 82571 32497 53602 10269 20230 39962 40159 85500 333 20249 58019;EQDQ01  00002PRCP99
0236825710999992001102500004-05500-045260FM-12+017499999V0201401N001012200019N0100001N1+02911+02361101291ADDAA199000091AY191061AY211061GA1001+999999999GF100991001001999999001001KA1240M+03601MA1999999099331MD1999999-0031MW1131REMSYN088AAXX  25004 82571 32997 01402 10291 20236 39933 40129 71391 333 10360 29068 55045 59003;EQDQ01  00002PRCP99
0201825710999992001102512004-05500-045260FM-12+017499999V0200501N001010042019N0100001N1+02341+02241101691ADDAA124007191AY191061AY261061GF108991081051004501999999KA1240N+02291MA1999999099711MD1999999+0091MW1021REMSYN088AAXX  25124 82571 21497 80502 10234 20224 39971 40169 70296 885// 333 20229 58009 60074;
0167825710999992001102518004-05500-045260FM-12+017499999V0202301N001010042019N0100001N1+02831+02331101311ADDAA199000091GF108991081051004501999999MA1999999099341MD1999999+0231REMSYN070AAXX  25184 82571 32497 82302 10283 20233 39934 40131 885// 333 58023;EQDQ01  00002PRCP99
0208825710999992001102600004-05500-045260FM-12+017499999V0202301N002012200019N0100001N1+02571+02371101411ADDAA199000091GA1001+999999999GF100991001001999999001001KA1240M+02941MA1999999099421MD1999999+0091REMSYN082AAXX  26000 82571 32997 02302 10257 20237 39942 40141 333 10294 29086 55000 58009;EQDQ01  00002PRCP99
0186825710999992001102612004-05500-045260FM-12+017499999V0200501N003110450019N0100001N1+02621+02201101661ADDAA199000091GF106991031041004501031011KA1240N+02341MA1999999099681MD1999999-0031REMSYN076AAXX  26124 82571 32497 60506 10262 20220 39968 40166 83431 333 20234 59003;EQDQ01  00002PRCP99
0167825710999992001102618004-05500-045260FM-12+017499999V0203601N001010450019N0100001N1+03301+02021101171ADDAA199000091GF106991031031004501031011MA1999999099221MD1999999-0121REMSYN070AAXX  26184 82571 32497 63602 10330 20202 39922 40117 83331 333 59012;EQDQ01  00002PRCP99
0198825710999992001102700004-05500-045260FM-12+017499999V0202301N001019999999N0100001N1+02831+02351101311ADDAA199000091GF106991061001999999031001KA1240M+03371MA1999999099351MD1999999-0071REMSYN088AAXX  27004 82571 32997 62302 10283 20235 39935 40131 86030 333 10337 29068 55037 59007;EQDQ01  00002PRCP99
0186825710999992001102712004-05500-045260FM-12+017499999V0200901N001011050019N0100001N1+02641+02181101491ADDAA199000091GF105991021021004501031011KA1240N+02311MA1999999099531MD1999999-0151REMSYN076AAXX  27124 82571 32497 50902 10264 20218 39953 40149 82231 333 20231 59015;EQDQ01  00002PRCP99
0167825710999992001102718004-05500-045260FM-12+017499999V0201401N001010450019N0100001N1+03231+02161101041ADDAA199000091GF106991031031004501031011MA1999999099101MD1999999-0121REMSYN070AAXX  27184 82571 32497 61402 10323 20216 39910 40104 83331 333 59012;EQDQ01  00002PRCP99
0223825710999992001102800004-05500-045260FM-12+017499999V0201401N001012200019N0100001N1+02391+02231101331ADDAA106000591AY191061AY261061GA1001+999999999GF100991001001999999001001KA1240M+03461MA1999999099351MD1999999+0001MW1131REMSYN094AAXX  28004 82571 21997 01402 10239 20223 39935 40133 71396 333 10346 29077 55045 58000 69961;
0173825710999992001102812004-05500-045260FM-12+017499999V0201401N001010450019N0100001N1+02631+02251101531ADDAA124000591GF106991031041004501031011KA1240N+02181MA1999999099541MD1999999+0011REMSYN082AAXX  28124 82571 22497 61402 10263 20225 39954 40153 83431 333 20218 58001 69964;
0167825710999992001102818004-05500-045260FM-12+017499999V0203601N001012200019N0100001N1+03411+01981100951ADDAA199000091GF104991031021004501001011MA1999999099001MD1999999-0101REMSYN070AAXX  28184 82571 32497 43602 10341 20198 39900 40095 83201 333 59010;EQDQ01  00002PRCP99
0208825710999992001102900004-05500-045260FM-12+017499999V0202301N001012200019N0100001N1+02951+02331101231ADDAA199000091GA1001+999999999GF100991001001999999001001KA1240M+03531MA1999999099271MD1999999-0081REMSYN082AAXX  29004 82571 32997 02302 10295 20233 39927 40123 333 10353 29056 55085 59008;EQDQ01  00002PRCP99
0186825710999992001102912004-05500-045260FM-12+017499999V0200501N001010042019N0100001N1+02731+02281101571ADDAA199000091GF107991071051004501001001KA1240N+02531MA1999999099611MD1999999+0071REMSYN076AAXX  29124 82571 32497 70502 10273 20228 39961 40157 87500 333 20253 58007;EQDQ01  00002PRCP99
0167825710999992001102918004-05500-045260FM-12+017499999V0201401N002112200019N0100001N1+03451+02131100921ADDAA199000091GF103991031021004501001001MA1999999098991MD1999999-0011REMSYN070AAXX  29184 82571 32497 31404 10345 20213 39899 40092 83200 333 59001;EQDQ01  00002PRCP99
0218825710999992001103000004-05500-045260FM-12+017499999V0202301N001012200019N0100001N1+02971+02421101191ADDAA199000091AY191061GF101991011001017501031001KA1240M+03571MA1999999099241MD1999999-0031MW1011REMSYN094AAXX  30004 82571 31797 12302 10297 20242 39924 40119 7019/ 81030 333 10357 29066 55058 59003;EQDQ01  00002PRCP99
0186825710999992001103012004-05500-045260FM-12+017499999V0200501N003110042019N0100001N1+02731+02241101551ADDAA199000091GF108991081051004501999999KA1240N+02561MA1999999099591MD1999999-0021REMSYN076AAXX  30124 82571 32497 80506 10273 20224 39959 40155 885// 333 20256 59002;EQDQ01  00002PRCP99
0167825710999992001103018004-05500-045260FM-12+017499999V0201401N003112200019N0100001N1+03471+02111100901ADDAA199000091GF103991031021004501001001MA1999999098971MD1999999-0021REMSYN070AAXX  30184 82571 32497 31406 10347 20211 39897 40090 83200 333 59002;EQDQ01  00002PRCP99
0198825710999992001103100004-05500-045260FM-12+017499999V0209999C000012200019N0100001N1+03031+02311101141ADDAA199000091GF102991021001017501011001KA1240M+03681MA1999999099191MD1999999-0051REMSYN088AAXX  31004 82571 32797 20000 10303 20231 39919 40114 82010 333 10368 29062 55066 59005;EQDQ01  00002PRCP99
0186825710999992001103112004-05500-045260FM-12+017499999V0200501N003112200019N0100001N1+02751+02251101391ADDAA199000091GF104991041021004501001001KA1240N+02401MA1999999099441MD1999999-0151REMSYN076AAXX  31124 82571 32497 40506 10275 20225 39944 40139 84200 333 20240 59015;EQDQ01  00002PRCP99
0167825710999992001103118004-05500-045260FM-12+017499999V0203601N002112200019N0100001N1+03551+02151100721ADDAA199000091GF104991041021008001001001MA1999999098801MD1999999-0171REMSYN070AAXX  31184 82571 32597 43604 10355 20215 39880 40072 84200 333 59017;EQDQ01  00002PRCP99
0208825710999992001110100004-05500-045260FM-12+017499999V0209999C000012200019N0100001N1+03061+02401100921ADDAA199000091GA1001+999999999GF100991001001999999001001KA1240M+03681MA1999999098981MD1999999-0211REMSYN082AAXX  01004 82571 32997 00000 10306 20240 39898 40092 333 10368 29064 55074 59021;EQDQ01  00002PRCP99
0186825710999992001110112004-05500-045260FM-12+017499999V0202301N001010042019N0100001N1+02651+02331101281ADDAA199000091GF108991081051004501999999KA1240N+02561MA1999999099331MD1999999-0111REMSYN076AAXX  01124 82571 32497 82302 10265 20233 39933 40128 885// 333 20256 59011;EQDQ01  00002PRCP99
0167825710999992001110118004-05500-045260FM-12+017499999V0202301N001010042019N0100001N1+02941+02381100901ADDAA199000091GF108991081051004501999999MA1999999098961MD1999999+0161REMSYN070AAXX  01184 82571 32497 82302 10294 20238 39896 40090 885// 333 58016;EQDQ01  00002PRCP99
0198825710999992001110200004-05500-045260FM-12+017499999V0202301N001010150019N0100001N1+02651+02371101131ADDAA199000091GF108991081001017501071999KA1240M+03101MA1999999099161MD1999999+0181REMSYN088AAXX  02004 82571 32797 82302 10265 20237 39916 40113 8807/ 333 10310 29080 55004 58018;EQDQ01  00002PRCP99
0201825710999992001110212004-05500-045260FM-12+017499999V0202301N001010042019N0100001N1+02221+02141101471ADDAA124077091AY191061AY261061GF108991081051004501999999KA1240N+02191MA1999999099481MD1999999+0151MW1971REMSYN088AAXX  02124 82571 21497 82302 10222 20214 39948 40147 79796 885// 333 20219 58015 60774;
0182825710999992001110218004-05500-045260FM-12+017499999V0202301N001010042019N0100001N1+02331+02241101151ADDAA106021191AY191061AY261061GF108991081051004501999999MA1999999099161MD1999999+0201MW1021REMSYN082AAXX  02184 82571 21497 82302 10233 20224 39916 40115 70296 885// 333 58020 60211;
0179825710999992001110300004-05500-045260FM-12+017499999V0202301N001010042019N0100001N1+02251+02191101311ADDAA199000021GF108991081051004501999999KA1240M+02661MA1999999099301MD1999999+0141REMSYN088AAXX  03004 82571 32497 82302 10225 20219 39930 40131 885// 333 10266 29095 55000 58014;
0173825710999992001110312004-05500-045260FM-12+017499999V0202301N001010042019N0100001N1+02271+02161101411ADDAA124021191GF108991081051004501999999KA1240N+02021MA1999999099411MD1999999-0071REMSYN082AAXX  03124 82571 22497 82302 10227 20216 39941 40141 885// 333 20202 59007 60214;
0167825710999992001110318004-05500-045260FM-12+017499999V0201401N001012200019N0100001N1+03251+02181100951ADDAA199000091GF103991031021004501001001MA1999999098991MD1999999-0171REMSYN070AAXX  03184 82571 32497 31402 10325 20218 39899 40095 83200 333 59017;EQDQ01  00002PRCP99
0208825710999992001110400004-05500-045260FM-12+017499999V0202301N001012200019N0100001N1+02821+02401101081ADDAA199000091GA1001+999999999GF100991001001999999001001KA1240M+03421MA1999999099111MD1999999-0191REMSYN082AAXX  04004 82571 32997 02302 10282 20240 39911 40108 333 10342 29076 55064 59019;EQDQ01  00002PRCP99
0186825710999992001110412004-05500-045260FM-12+017499999V0202301N001010450019N0100001N1+02651+02351101551ADDAA199000091GF106991031021004501031001KA1240N+02331MA1999999099581MD1999999+0171REMSYN076AAXX  04124 82571 32497 62302 10265 20235 39958 40155 83230 333 20233 58017;EQDQ01  00002PRCP99
0167825710999992001110418004-05500-045260FM-12+017499999V0200501N001012200019N0100001N1+03351+02211101001ADDAA199000091GF106991041021004501001011MA1999999099061MD1999999+0071REMSYN070AAXX  04184 82571 32497 60502 10335 20221 39906 40100 84201 333 58007;EQDQ01  00002PRCP99
0208825710999992001110500004-05500-045260FM-12+017499999V0201401N001012200019N0100001N1+02821+02361101181ADDAA199000091GA1001+999999999GF100991001001999999001001KA1240M+03241MA1999999099221MD1999999+0111REMSYN082AAXX  05004 82571 32997 01402 10282 20236 39922 40118 333 10324 29072 55071 58011;EQDQ01  00002PRCP99
0186825710999992001110512004-05500-045260FM-12+017499999V0200501N003110042019N0100001N1+02731+02281101571ADDAA199000091GF107991071051004501001001KA1240N+02401MA1999999099511MD1999999-0071REMSYN076AAXX  05124 82571 32497 70506 10273 20228 39951 40157 87500 333 20240 59007;EQDQ01  00002PRCP99
0167825710999992001110518004-05500-045260FM-12+017499999V0200501N002112200019N0100001N1+03371+02121100971ADDAA199000091GF104991031021004501001011MA1999999099041MD1999999-0021REMSYN070AAXX  05184 82571 32497 40504 10337 20212 39904 40097 83201 333 59002;EQDQ01  00002PRCP99
0208825710999992001110600004-05500-045260FM-12+017499999V0203201N001012200019N0100001N1+02971+02331101131ADDAA199000091GA1001+999999999GF100991001001999999001001KA1240M+03501MA1999999099181MD1999999-0041REMSYN082AAXX  06004 82571 32997 03202 10297 20233 39918 40113 333 10350 29065 55076 59004;EQDQ01  00002PRCP99
0186825710999992001110612004-05500-045260FM-12+017499999V0203201N001012200019N0100001N1+02731+02301101461ADDAA199000091GF103991031021004501001001KA1240N+02341MA1999999099501MD1999999-0011REMSYN076AAXX  06124 82571 32497 33202 10273 20230 39950 40146 83200 333 20234 59001;EQDQ01  00002PRCP99
0167825710999992001110618004-05500-045260FM-12+017499999V0203201N001010450019N0100001N1+03421+02261100981ADDAA199000091GF105991031021004501011011MA1999999099051MD1999999+0011REMSYN070AAXX  06184 82571 32497 53202 10342 20226 39905 40098 83211 333 58001;EQDQ01  00002PRCP99
0208825710999992001110700004-05500-045260FM-12+017499999V0209999C000012200019N0100001N1+03011+02481101191ADDAA199000091GA1001+999999999GF100991001001999999001001KA1240M+03571MA1999999099241MD1999999+0061REMSYN082AAXX  07001 82571 32997 00000 10301 20248 39924 40119 333 10357 29068 55077 58006;EQDQ01  00002PRCP99
0186825710999992001110712004-05500-045260FM-12+017499999V0200501N001010042019N0100001N1+02621+02331101581ADDAA199000091GF108991081051004501999999KA1240N+02541MA1999999099621MD1999999+0121REMSYN076AAXX  07124 82571 32497 80502 10262 20233 39962 40158 885// 333 20254 58012;EQDQ01  00002PRCP99
0167825710999992001110718004-05500-045260FM-12+017499999V0200901N002112200019N0100001N1+02931+02361101201ADDAA199000091GF104991021021004501011001MA1999999099251MD1999999+0201REMSYN070AAXX  07184 82571 32497 40904 10293 20236 39925 40120 82210 333 58020;EQDQ01  00002PRCP99
0208825710999992001110800004-05500-045260FM-12+017499999V0209999C000012200019N0100001N1+02771+02501101331ADDAA199000091GA1001+999999999GF100991001001999999001001KA1240M+03161MA1999999099361MD1999999+0121REMSYN082AAXX  08004 82571 32997 00000 10277 20250 39936 40133 333 10316 29081 55022 58012;EQDQ01  00002PRCP99
0193825710999992001110812004-05500-045260FM-12+017499999V0200501N001010450019N0100001N1+02541+02381101651ADDAA124013091AY161061GF107991021021004501031001KA1240N+02291MA1999999099671MD1999999+0051MW1021REMSYN088AAXX  08124 82571 21497 70502 10254 20238 39967 40165 7026/ 82230 333 20229 58005 60134;
0167825710999992001110818004-05500-045260FM-12+017499999V0200901N003112200019N0100001N1+03111+02251101181ADDAA199000091GF104991021021004501011011MA1999999099231MD1999999-0021REMSYN070AAXX  08184 82571 32497 40906 10311 20225 39923 40118 82211 333 59002;EQDQ01  00002PRCP99
0208825710999992001110900004-05500-045260FM-12+017499999V0202701N001012200019N0100001N1+02761+02421101251ADDAA199000091GA1001+999999999GF100991001001999999001001KA1240M+03201MA1999999099281MD1999999-0081REMSYN082AAXX  09004 82571 32997 02702 10276 20242 39928 40125 333 10320 29079 55057 59008;EQDQ01  00002PRCP99
0186825710999992001110912004-05500-045260FM-12+017499999V0200501N005112200019N0100001N1+02711+02191101501ADDAA199000091GF102991021021004501001001KA1240N+02331MA1999999099541MD1999999-0131REMSYN076AAXX  09124 82571 32497 20510 10271 20219 39954 40150 82200 333 20233 59013;EQDQ01  00002PRCP99
0167825710999992001110918004-05500-045260FM-12+017499999V0201401N003112200019N0100001N1+03271+02201101151ADDAA199000091GF103991011021004501011011MA1999999099201MD1999999-0031REMSYN070AAXX  09184 82571 32497 31406 10327 20220 39920 40115 81211 333 59003;EQDQ01  00002PRCP99
0208825710999992001111000004-05500-045260FM-12+017499999V0202301N001012200019N0100001N1+02771+02361101311ADDAA199000091GA1001+999999999GF100991001001999999001001KA1240M+03361MA1999999099351MD1999999+0071REMSYN082AAXX  10004 82571 32997 02302 10277 20236 39935 40131 333 10336 29070 55096 58007;EQDQ01  00002PRCP99
0186825710999992001111012004-05500-045260FM-12+017499999V0200501N003112200019N0100001N1+02641+02251101651ADDAA199000091GF104991041021004501001001KA1240N+02331MA1999999099681MD1999999+0141REMSYN076AAXX  10124 82571 32497 40506 10264 20225 39968 40165 84200 333 20233 58014;EQDQ01  00002PRCP99
0167825710999992001111018004-05500-045260FM-12+017499999V0201401N003112200019N0100001N1+03341+02151101031ADDAA199000091GF104991031021004501011001MA1999999099091MD1999999-0111REMSYN070AAXX  10184 82571 32497 41406 10334 20215 39909 40103 83210 333 59011;EQDQ01  00002PRCP99
0208825710999992001111100004-05500-045260FM-12+017499999V0202701N001012200019N0100001N1+02731+02211101351ADDAA199000091GA1001+999999999GF100991001001999999001001KA1240M+03451MA1999999099381MD1999999+0031REMSYN082AAXX  11004 82571 32997 02702 10273 20221 39938 40135 333 10345 29069 55077 58003;EQDQ01  00002PRCP99
0167825710999992001111118004-05500-045260FM-12+017499999V0201801N003112200019N0100001N1+03251+02151101081ADDAA199000091GF104991031021004501011001MA1999999099141MD1999999+0051REMSYN070AAXX  11184 82571 32497 41806 10325 20215 39914 40108 83210 333 58005;EQDQ01  00002PRCP99
0208825710999992001111200004-05500-045260FM-12+017499999V0209999C000012200019N0100001N1+02871+02461101291ADDAA199000091GA1001+999999999GF100991001001999999001001KA1240M+03401MA1999999099331MD1999999-0051REMSYN082AAXX  12004 82571 32997 00000 10287 20246 39933 40129 333 10340 29073 55062 59005;EQDQ01  00002PRCP99
0186825710999992001111212004-05500-045260FM-12+017499999V0200501N003110450019N0100001N1+02691+02231101621ADDAA199000091GF106991041051004501031001KA1240N+02381MA1999999099661MD1999999+0021REMSYN076AAXX  12124 82571 32497 60506 10269 20223 39966 40162 84530 333 20238 58002;EQDQ01  00002PRCP99
0167825710999992001111218004-05500-045260FM-12+017499999V0202301N001012200019N0100001N1+03351+02271101131ADDAA199000091GF103991031021004501001001MA1999999099191MD1999999+0051REMSYN070AAXX  12184 82571 32497 32302 10335 20227 39919 40113 83200 333 58005;EQDQ01  00002PRCP99
0208825710999992001111300004-05500-045260FM-12+017499999V0201401N001012200019N0100001N1+02891+02521101311ADDAA199000091GA1001+999999999GF100991001001999999001001KA1240M+03481MA1999999099351MD1999999+0021REMSYN082AAXX  13004 82571 32997 01402 10289 20252 39935 40131 333 10348 29073 55065 58002;EQDQ01  00002PRCP99
0186825710999992001111312004-05500-045260FM-12+017499999V0200501N003110450019N0100001N1+02681+02241101481ADDAA199000091GF106991031051008001031001KA1240N+02351MA1999999099531MD1999999-0141REMSYN076AAXX  13124 82571 32597 60506 10268 20224 39953 40148 83530 333 20235 59014;EQDQ01  00002PRCP99
0167825710999992001111318004-05500-045260FM-12+017499999V0200501N001012200019N0100001N1+03291+02301101011ADDAA199000091GF104991041021004501001001MA1999999099071MD1999999-0121REMSYN070AAXX  13184 82571 32497 40502 10329 20230 39907 40101 84200 333 59012;EQDQ01  00002PRCP99
0208825710999992001111400004-05500-045260FM-12+017499999V0209999C000012200019N0100001N1+02841+02501101111ADDAA199000091GA1001+999999999GF100991001001999999001001KA1240M+03451MA1999999099151MD1999999-0201REMSYN082AAXX  14004 82571 32997 00000 10284 20250 39915 40111 333 10345 29074 55056 59020;EQDQ01  00002PRCP99
0186825710999992001111412004-05500-045260FM-12+017499999V0200501N005110042019N0100001N1+02791+02151101401ADDAA199000091GF106991061051004501001001KA1240N+02431MA1999999099441MD1999999-0081REMSYN076AAXX  14124 82571 32497 60510 10279 20215 39944 40140 86500 333 20243 59008;EQDQ01  00002PRCP99
0167825710999992001111418004-05500-045260FM-12+017499999V0203201N001010450019N0100001N1+03211+02201100831ADDAA199000091GF106991031021004501031001MA1999999098891MD1999999-0181REMSYN070AAXX  14184 82571 32497 63202 10321 20220 39889 40083 83230 333 59018;EQDQ01  00002PRCP99
0186825710999992001111512004-05500-045260FM-12+017499999V0200501N003112200019N0100001N1+02751+02161101371ADDAA199000091GF103991021021004501001011KA1240N+02411MA1999999099411MD1999999-0031REMSYN076AAXX  15124 82571 32497 30506 10275 20216 39941 40137 82201 333 20241 59003;EQDQ01  00002PRCP99
0167825710999992001111518004-05500-045260FM-12+017499999V0203201N001012200019N0100001N1+03341+02221100881ADDAA199000091GF105991041021004501001011MA1999999098951MD1999999+0061REMSYN070AAXX  15184 82571 32497 53202 10334 20222 39895 40088 84201 333 58006;EQDQ01  00002PRCP99
0198825710999992001111600004-05500-045260FM-12+017499999V0209999C000012200019N0100001N1+02951+02311101151ADDAA199000091GF103991001001999999001021KA1240M+03501MA1999999099201MD1999999+0091REMSYN088AAXX  16004 82571 32997 30000 10295 20231 39920 40115 80002 333 10350 29064 55075 58009;EQDQ01  00002PRCP99
0193825710999992001111612004-05500-045260FM-12+017499999V0203601N001010450019N0100001N1+02691+02301101481ADDAA124000191AY161061GF106991031021004501031011KA1240N+02411MA1999999099521MD1999999+0111MW1021REMSYN088AAXX  16124 82571 21497 63602 10269 20230 39952 40148 7026/ 83231 333 20241 58011 69914;
0167825710999992001111618004-05500-045260FM-12+017499999V0200501N001012200019N0100001N1+03271+02321101161ADDAA199000091GF106991031021004501001011MA1999999099221MD1999999+0271REMSYN070AAXX  16184 82571 32497 60502 10327 20232 39922 40116 83201 333 58027;EQDQ01  00002PRCP99
0208825710999992001111700004-05500-045260FM-12+017499999V0201401N001012200019N0100001N1+02861+02291101271ADDAA199000091GA1001+999999999GF100991001001999999001001KA1240M+03371MA1999999099311MD1999999+0111REMSYN082AAXX  17004 82571 32997 01402 10286 20229 39931 40127 333 10337 29075 55056 58011;EQDQ01  00002PRCP99
0186825710999992001111712004-05500-045260FM-12+017499999V0200501N003112200019N0100001N1+02781+02251101491ADDAA199000091GF103991021021004501001011KA1240N+02441MA1999999099531MD1999999+0011REMSYN076AAXX  17124 82571 32497 30506 10278 20225 39953 40149 82201 333 20244 58001;EQDQ01  00002PRCP99
0167825710999992001111718004-05500-045260FM-12+017499999V0202301N001012200019N0100001N1+03391+02241101061ADDAA199000091GF104991031021004501001011MA1999999099121MD1999999-0101REMSYN070AAXX  17184 82571 32497 42302 10339 20224 39912 40106 83201 333 59010;EQDQ01  00002PRCP99
0208825710999992001111800004-05500-045260FM-12+017499999V0209999C000012200019N0100001N1+02971+02551101101ADDAA199000091GA1001+999999999GF100991001001999999001001KA1240M+03501MA1999999099151MD1999999-0161REMSYN082AAXX  18004 82571 32997 00000 10297 20255 39915 40110 333 10350 29070 55076 59016;EQDQ01  00002PRCP99
0186825710999992001111812004-05500-045260FM-12+017499999V0200501N003112200019N0100001N1+02771+02231101491ADDAA199000091GF106991041051004501001011KA1240N+02521MA1999999099531MD1999999+0001REMSYN076AAXX  18124 82571 32497 60506 10277 20223 39953 40149 84501 333 20252 58000;EQDQ01  00002PRCP99
0167825710999992001111818004-05500-045260FM-12+017499999V0201401N001012200019N0100001N1+03291+02211101051ADDAA199000091GF106991041021004501001011MA1999999099111MD1999999-0011REMSYN070AAXX  18184 82571 32497 61402 10329 20221 39911 40105 84201 333 59001;EQDQ01  00002PRCP99
0208825710999992001111900004-05500-045260FM-12+017499999V0201401N001012200019N0100001N1+02751+02321101211ADDAA199000091GA1001+999999999GF100991001001999999001001KA1240M+03381MA1999999099271MD1999999+0101REMSYN082AAXX  19004 82571 32997 01402 10275 20232 39927 40121 333 10338 29070 55044 58010;EQDQ01  00002PRCP99
0186825710999992001111912004-05500-045260FM-12+017499999V0201401N001012200019N0100001N1+02781+02321101481ADDAA199000091GF103991021011004501011001KA1240N+02441MA1999999099521MD1999999-0011REMSYN076AAXX  19124 82571 32497 31402 10278 20232 39952 40148 82110 333 20244 59001;EQDQ01  00002PRCP99
0167825710999992001111918004-05500-045260FM-12+017499999V0200901N002112200019N0100001N1+03481+02151100941ADDAA199000091GF104991031021004501001011MA1999999099011MD1999999-0101REMSYN070AAXX  19184 82571 32497 40904 10348 20215 39901 40094 83201 333 59010;EQDQ01  00002PRCP99
0198825710999992001112000004-05500-045260FM-12+017499999V0201401N001012200019N0100001N1+02831+02221101161ADDAA199000091GF103991031021004501001001KA1240M+03601MA1999999099211MD1999999-0041REMSYN088AAXX  20004 82571 32497 31402 10283 20222 39921 40116 83200 333 10360 29065 55084 59004;EQDQ01  00002PRCP99
0186825710999992001112012004-05500-045260FM-12+017499999V0200501N003110042019N0100001N1+02691+02241101421ADDAA199000091GF107991071051004501001001KA1240N+02501MA1999999099461MD1999999-0061REMSYN076AAXX  20124 82571 32497 70506 10269 20224 39946 40142 87500 333 20250 59006;EQDQ01  00002PRCP99
0167825710999992001112018004-05500-045260FM-12+017499999V0201801N002112200019N0100001N1+03211+02231100981ADDAA199000091GF103991021021004501031001MA1999999099041MD1999999+0031REMSYN070AAXX  20184 82571 32497 31804 10321 20223 39904 40098 82230 333 58003;EQDQ01  00002PRCP99
0208825710999992001112100004-05500-045260FM-12+017499999V0202301N001012200019N0100001N1+02911+02341101151ADDAA199000091GA1001+999999999GF100991001001999999001001KA1240M+03401MA1999999099201MD1999999-0011REMSYN082AAXX  21004 82571 32997 02302 10291 20234 39920 40115 333 10340 29068 55048 59001;EQDQ01  00002PRCP99
0186825710999992001112112004-05500-045260FM-12+017499999V0200501N003110042019N0100001N1+02761+02231101421ADDAA199000091GF107991071051004501001001KA1240N+02501MA1999999099461MD1999999+0001REMSYN076AAXX  21124 82571 32497 70506 10276 20223 39946 40142 87500 333 20250 58000;EQDQ01  00002PRCP99
0167825710999992001112118004-05500-045260FM-12+017499999V0202301N001010450019N0100001N1+03121+02331101081ADDAA199000091GF107991041021004501011001MA1999999099141MD1999999+0101REMSYN070AAXX  21184 82571 32497 72302 10312 20233 39914 40108 84210 333 58010;EQDQ01  00002PRCP99
0186825710999992001112212004-05500-045260FM-12+017499999V0200501N001010090019N0100001N1+02681+02311101481ADDAA199000091GF106991051081004501031001KA1240N+02391MA1999999099511MD1999999+0051REMSYN076AAXX  22124 82571 32497 60502 10268 20231 39951 40148 85830 333 20239 58005;EQDQ01  00002PRCP99
0167825710999992001112218004-05500-045260FM-12+017499999V0201401N005110450019N0100001N1+03191+02121101061ADDAA199000091GF105991041051004501031001MA1999999099111MD1999999-0031REMSYN070AAXX  22184 82571 32497 51410 10319 20212 39911 40106 84530 333 59003;EQDQ01  00002PRCP99
0198825710999992001112300004-05500-045260FM-12+017499999V0202301N001012200019N0100001N1+02691+02391101121ADDAA199000091GF102991011021004501031001KA1240M+03361MA1999999099161MD1999999-0231REMSYN088AAXX  23004 82571 32497 22302 10269 20239 39916 40112 81230 333 10336 29075 55054 59023;EQDQ01  00002PRCP99
0186825710999992001112312004-05500-045260FM-12+017499999V0200501N002110042019N0100001N1+02731+02301101241ADDAA199000091GF107991071051004501001001KA1240N+02451MA1999999099281MD1999999-0231REMSYN076AAXX  23124 82571 32497 70504 10273 20230 39928 40124 87500 333 20245 59023;EQDQ01  00002PRCP99
0167825710999992001112318004-05500-045260FM-12+017499999V0200901N001012200019N0100001N1+03311+02321100771ADDAA199000091GF104991041021004501001001MA1999999098841MD1999999-0271REMSYN070AAXX  23184 82571 32497 40902 10331 20232 39884 40077 84200 333 59027;EQDQ01  00002PRCP99
0198825710999992001112400004-05500-045260FM-12+017499999V0209999C000012200019N0100001N1+02841+02401100891ADDAA199000091GF102991021001017501031001KA1240M+03421MA1999999098941MD1999999-0221REMSYN088AAXX  24004 82571 32797 20000 10284 20240 39894 40089 82030 333 10342 29072 55043 59022;EQDQ01  00002PRCP99
0193825710999992001112412004-05500-045260FM-12+017499999V0200901N001010042019N0100001N1+02531+02311101261ADDAA124000191AY161061GF108991081051004501999999KA1240N+02461MA1999999099301MD1999999+0021MW1021REMSYN088AAXX  24124 82571 21497 80902 10253 20231 39930 40126 7026/ 885// 333 20246 58002 69914;
0182825710999992001112418004-05500-045260FM-12+017499999V0201801N003110042019N0100001N1+02681+02351101021ADDAA106000191AY161061AY221061GF108991081051004501999999MA1999999099061MD1999999+0221MW1021REMSYN082AAXX  24184 82571 21497 81806 10268 20235 39906 40102 70262 885// 333 58022 69911;
0198825710999992001112500004-05500-045260FM-12+017499999V0202301N001010042019N0100001N1+02451+02321101121ADDAA199000091GF108991081051004501999999KA1240M+02871MA1999999099141MD1999999+0201REMSYN088AAXX  25004 82571 32497 82302 10245 20232 39914 40112 885// 333 10287 29088 55000 58020;EQDQ01  00002PRCP99
0173825710999992001112512004-05500-045260FM-12+017499999V0200501N001010042019N0100001N1+02641+02311101301ADDAA124000191GF106991061051004501001001KA1240N+02311MA1999999099321MD1999999+0021REMSYN082AAXX  25124 82571 22497 60502 10264 20231 39932 40130 86500 333 20231 58002 69914;
0166825710999992001112518004-05500-045260FM-12+017499999V0202301N001010042019N0100001N1+02611+02331100881ADDAA106014091GF108991081051004501999999MA1999999098911MD1999999-0151MW1921REMSYN082AAXX  25184 82571 21497 82302 10261 20233 39891 40088 792// 885// 333 59015 60141;
0213825710999992001112600004-05500-045260FM-12+017499999V0200501N003110042019N0100001N1+02481+02361101181ADDAA106004191AY161061AY221061GF108991081051004501999999KA1240M+03321MA1999999099201MD1999999+0061MW1021REMSYN100AAXX  26004 82571 21497 80506 10248 20236 39920 40118 70262 885// 333 10332 29088 55034 58006 60041;
0193825710999992001112612004-05500-045260FM-12+017499999V0202301N001010042019N0100001N1+02541+02331101311ADDAA124022191AY161061GF108991081051004501999999KA1240N+02361MA1999999099331MD1999999+0011MW1021REMSYN088AAXX  26124 82571 21497 82302 10254 20233 39933 40131 7026/ 885// 333 20236 58001 60224;
0167825710999992001112618004-05500-045260FM-12+017499999V0203201N001010450019N0100001N1+03221+02341100841ADDAA199000091GF106991031041004501031001MA1999999098891MD1999999-0021REMSYN070AAXX  26184 82571 32497 63202 10322 20234 39889 40084 83430 333 59002;EQDQ01  00002PRCP99
0198825710999992001112700004-05500-045260FM-12+017499999V0202301N006012200019N0100001N1+02641+02251101081ADDAA199000091GF102991021001017501031001KA1240M+03301MA1999999099111MD1999999-0091REMSYN088AAXX  27000 82571 32797 22306 10264 20225 39911 40108 82030 333 10330 29076 55046 59009;EQDQ01  00002PRCP99
0186825710999992001112712004-05500-045260FM-12+017499999V0201801N001010042019N0100001N1+02621+02411101321ADDAA199000091GF108991081051004501999999KA1240N+02401MA1999999099351MD1999999+0021REMSYN076AAXX  27124 82571 32497 81802 10262 20241 39935 40132 885// 333 20240 58002;EQDQ01  00002PRCP99
0167825710999992001112718004-05500-045260FM-12+017499999V0202301N001010450019N0100001N1+02801+02441100991ADDAA199000091GF107991041021004501071001MA1999999099031MD1999999+0141REMSYN070AAXX  27184 82571 32497 72302 10280 20244 39903 40099 84270 333 58014;EQDQ01  00002PRCP99
0198825710999992001112800004-05500-045260FM-12+017499999V0201801N001010150019N0100001N1+02621+02481101131ADDAA199000091GF106991061001017501031001KA1240M+02921MA1999999099161MD1999999+0051REMSYN088AAXX  28004 82571 32797 61802 10262 20248 39916 40113 86030 333 10292 29088 55001 58005;EQDQ01  00002PRCP99
0201825710999992001112812004-05500-045260FM-12+017499999V0202701N001010450019N0040001N1+02491+02431101421ADDAA124002091AY161061AY221061GF108991031071004501021999KA1240N+02361MA1999999099441MD1999999+0091MW1601REMSYN088AAXX  28124 82571 21496 82702 10249 20243 39944 40142 76062 8372/ 333 20236 58009 60024;
0148825710999992001112818004-05500-045260FM-12+017499999V0201801N001010450019N0100001N1+02731+02501101041ADDAA199000021GF107991021021004501071001MA1999999099771MD1999999+0041REMSYN070AAXX  28184 82571 32497 71802 10273 20250 39977 40104 82270 333 58004;
0213825710999992001112900004-05500-045260FM-12+017499999V0201401N001010150019N0100001N1+02411+02351101191ADDAA106000191AY161061AY221061GF106991061001017501051001KA1240M+02981MA1999999099211MD1999999+0051MW1011REMSYN100AAXX  29004 82571 21797 61402 10241 20235 39921 40119 70162 86050 333 10298 29094 55002 58005 69911;
0193825710999992001112912004-05500-045260FM-12+017499999V0202301N001010042019N0100001N1+02451+02371101441ADDAA124000391AY121061GF108991081051004501999999KA1240N+02331MA1999999099451MD1999999+0011MW1611REMSYN088AAXX  29124 82571 21497 82302 10245 20237 39945 40144 7612/ 885// 333 20233 58001 69934;
0182825710999992001112918004-05500-045260FM-12+017499999V0200901N001010450019N0100001N1+02851+02371100981ADDAA106002091AY161061AY221061GF106991031021004501011011MA1999999099011MD1999999-0061MW1011REMSYN082AAXX  29184 82571 21497 60902 10285 20237 39901 40098 70162 83211 333 59006 60021;
0179825710999992001113000004-05500-045260FM-12+017499999V0209999C000012200019N0100001N1+02651+02481101111ADDAA199000021GF104991041001017501011001KA1240M+02991MA1999999099141MD1999999-0071REMSYN088AAXX  30004 82571 32797 40000 10265 20248 39914 40111 84010 333 10299 29088 55030 59007;
0173825710999992001113012004-05500-045260FM-12+017499999V0200501N003110090019N0100001N1+02641+02181101381ADDAA124002091GF107991071081004501001001KA1240N+02441MA1999999099411MD1999999-0041REMSYN082AAXX  30124 82571 22497 70506 10264 20218 39941 40138 87800 333 20244 59004 60024;
0167825710999992001113018004-05500-045260FM-12+017499999V0201401N003110450019N0100001N1+03201+02211100911ADDAA199000091GF105991041021004501011001MA1999999098961MD1999999-0051REMSYN070AAXX  30184 82571 32497 51406 10320 20221 39896 40091 84210 333 59005;EQDQ01  00002PRCP99
0198825710999992001120100004-05500-045260FM-12+017499999V0209999C000012200019N0100001N1+02681+02521101091ADDAA199000091GF103991011011004501011001KA1240M+03281MA1999999099131MD1999999-0011REMSYN088AAXX  01004 82571 32497 30000 10268 20252 39913 40109 81110 333 10328 29078 55048 59001;EQDQ01  00002PRCP99
0186825710999992001120112004-05500-045260FM-12+017499999V0200501N005110042019N0100001N1+02701+02281101341ADDAA199000091GF106991051051004501031011KA1240N+02391MA1999999099371MD1999999-0041REMSYN076AAXX  01124 82571 32497 60510 10270 20228 39937 40134 85531 333 20239 59004;EQDQ01  00002PRCP99
0167825710999992001120118004-05500-045260FM-12+017499999V0200501N003110450019N0100001N1+03251+02301100951ADDAA199000091GF106991041021004501031001MA1999999098981MD1999999+0021REMSYN070AAXX  01184 82571 32497 60506 10325 20230 39898 40095 84230 333 58002;EQDQ01  00002PRCP99
0208825710999992001120200004-05500-045260FM-12+017499999V0209999C000012200019N0100001N1+02801+02481101061ADDAA199000091GA1001+999999999GF100991001001999999001001KA1240M+03401MA1999999099101MD1999999-0031REMSYN082AAXX  02004 82571 32997 00000 10280 20248 39910 40106 333 10340 29075 55076 59003;EQDQ01  00002PRCP99
0186825710999992001120212004-05500-045260FM-12+017499999V0200501N001012200019N0100001N1+02711+02301101261ADDAA199000091GF104991031021004501001011KA1240N+02371MA1999999099301MD1999999-0071REMSYN076AAXX  02124 82571 32497 40502 10271 20230 39930 40126 83201 333 20237 59007;EQDQ01  00002PRCP99
0167825710999992001120218004-05500-045260FM-12+017499999V0202301N001012200019N0100001N1+03391+02311100821ADDAA199000091GF103991031021004501001001MA1999999098891MD1999999-0091REMSYN070AAXX  02184 82571 32497 32302 10339 20231 39889 40082 83200 333 59009;EQDQ01  00002PRCP99
0208825710999992001120300004-05500-045260FM-12+017499999V0202301N001012200019N0100001N1+02951+02581101011ADDAA199000091GA1001+999999999GF100991001001999999001001KA1240M+03521MA1999999099061MD1999999-0041REMSYN082AAXX  03004 82571 32997 02302 10295 20258 39906 40101 333 10352 29072 55090 59004;EQDQ01  00002PRCP99
0201825710999992001120312004-05500-045260FM-12+017499999V0200501N001010450019N0040001N1+02251+02181101331ADDAA124006191AY191061AY261061GF108991031071004501021999KA1240N+02251MA1999999099361MD1999999+0061MW1951REMSYN088AAXX  03124 82571 21496 80502 10225 20218 39936 40133 79596 8372/ 333 20225 58006 60064;
0182825710999992001120318004-05500-045260FM-12+017499999V0202301N001010042019N0100001N1+02381+02281101131ADDAA106008991AY191061AY261061GF108991081051004501999999MA1999999099151MD1999999+0261MW1021REMSYN082AAXX  03184 82571 21497 82302 10238 20228 39915 40113 70296 885// 333 58026 60091;
0205825710999992001120400004-05500-045260FM-12+017499999V0209999C000010042019N0100001N1+02331+02291101191ADDAA106000191AY161061GF108991081051004501999999KA1240M+02961MA1999999099191MD1999999+0131MW1021REMSYN100AAXX  04004 82571 21497 80000 10233 20229 39919 40119 7026/ 885// 333 10296 29096 55000 58013 69921;
0193825710999992001120412004-05500-045260FM-12+017499999V0209999C000010090019N0100001N1+02411+02281101461ADDAA124014091AY161061GF108991081081004501999999KA1240N+02261MA1999999099461MD1999999+0101MW1021REMSYN088AAXX  04124 82571 21497 80000 10241 20228 39946 40146 7026/ 888// 333 20226 58010 60144;
0167825710999992001120418004-05500-045260FM-12+017499999V0200501N003112200019N0100001N1+02881+02131101101ADDAA199000091GF104991021021004501031001MA1999999099131MD1999999-0021REMSYN070AAXX  04184 82571 32497 40506 10288 20213 39913 40110 82230 333 59002;EQDQ01  00002PRCP99
0205825710999992001120500004-05500-045260FM-12+017499999V0201401N001010450019N0100001N1+02251+02161101401ADDAA106007191AY161061GF108991041071004501021999KA1240M+02931MA1999999099401MD1999999+0211MW1021REMSYN100AAXX  05004 82571 21497 81402 10225 20216 39940 40140 7026/ 8472/ 333 10293 29086 55016 58021 60071;
0173825710999992001120512004-05500-045260FM-12+017499999V0200501N001010042019N0100001N1+02421+02251101361ADDAA124007191GF106991051021004501031001KA1240N+02181MA1999999099361MD1999999-0101REMSYN082AAXX  05124 82571 22497 60502 10242 20225 39936 40136 85230 333 20218 59010 60074;
0174825710999992001120518004-05500-045260FM-12+017499999V0200901N003112200019N0100001N1+02891+02301101091ADDAA106000191AY161061GF103991021021004501031001MA1999999099121MD1999999-0011MW1011REMSYN082AAXX  05184 82571 21497 30906 10289 20230 39912 40109 7016/ 82230 333 59001 69921;
0208825710999992001120600004-05500-045260FM-12+017499999V0202301N001012200019N0100001N1+02631+02391101151ADDAA199000091GA1001+999999999GF100991001001999999001001KA1240M+02991MA1999999099171MD1999999-0231REMSYN082AAXX  06004 82571 32997 02302 10263 20239 39917 40115 333 10299 29083 55049 59023;EQDQ01  00002PRCP99
0173825710999992001120612004-05500-045260FM-12+017499999V0200501N001012200019N0100001N1+02651+02391101261ADDAA124000191GF103991021021004501001011KA1240N+02241MA1999999099291MD1999999-0071REMSYN082AAXX  06124 82571 22497 30502 10265 20239 39929 40126 82201 333 20224 59007 69924;
0167825710999992001120618004-05500-045260FM-12+017499999V0201401N003110042019N0100001N1+03171+02331100891ADDAA199000091GF106991051051004501041001MA1999999098941MD1999999-0181REMSYN070AAXX  06184 82571 32497 61406 10317 20233 39894 40089 85540 333 59018;EQDQ01  00002PRCP99
0223825710999992001120700004-05500-045260FM-12+017499999V0202301N001012200019N0100001N1+02711+02481101071ADDAA106000191AY161061AY211061GA1001+999999999GF100991001001999999001001KA1240M+03261MA1999999099111MD1999999-0061MW1021REMSYN094AAXX  07004 82571 21997 02302 10271 20248 39911 40107 70261 333 10326 29080 55077 59006 69911;
0173825710999992001120712004-05500-045260FM-12+017499999V0200901N003112200019N0100001N1+02721+02371101181ADDAA124000191GF102991021021004501001001KA1240N+02311MA1999999099221MD1999999-0071REMSYN082AAXX  07124 82571 22497 20906 10272 20237 39922 40118 82200 333 20231 59007 69914;
0167825710999992001120718004-05500-045260FM-12+017499999V0200901N003112200019N0100001N1+03271+02261100761ADDAA199000091GF103991031021004501001001MA1999999098821MD1999999-0121REMSYN070AAXX  07184 82571 32497 30906 10327 20226 39882 40076 83200 333 59012;EQDQ01  00002PRCP99
0186825710999992001121012004-05500-045260FM-12+017499999V0200501N003110450019N0100001N1+02721+02341101301ADDAA199000091GF106991031021004501031001KA1240N+02381MA1999999099341MD1999999-0011REMSYN076AAXX  10124 82571 32497 60506 10272 20234 39934 40130 83230 333 20238 59001;EQDQ01  00002PRCP99
0167825710999992001121018004-05500-045260FM-12+017499999V0200901N003112200019N0100001N1+03201+02271100941ADDAA199000091GF103991021021004501001011MA1999999099001MD1999999+0071REMSYN070AAXX  10184 82571 32497 30906 10320 20227 39900 40094 82201 333 58007;EQDQ01  00002PRCP99
0208825710999992001121100004-05500-045260FM-12+017499999V0209999C000012200019N0100001N1+02821+02541101111ADDAA199000091GA1001+999999999GF100991001001999999001001KA1240M+03271MA1999999099151MD1999999+0071REMSYN082AAXX  11004 82571 32997 00000 10282 20254 39915 40111 333 10327 29077 55073 58007;EQDQ01  00002PRCP99
0186825710999992001121112004-05500-045260FM-12+017499999V0200901N001010450019N0100001N1+02621+02391101421ADDAA199000091GF106991041041004501031001KA1240N+02361MA1999999099451MD1999999+0111REMSYN076AAXX  11124 82571 32497 60902 10262 20239 39945 40142 84430 333 20236 58011;EQDQ01  00002PRCP99
0167825710999992001121118004-05500-045260FM-12+017499999V0201401N001010450019N0100001N1+03221+02291100991ADDAA199000091GF105991031021004501031001MA1999999099051MD1999999+0051REMSYN070AAXX  11184 82571 32497 51402 10322 20229 39905 40099 83230 333 58005;EQDQ01  00002PRCP99
0208825710999992001121200004-05500-045260FM-12+017499999V0209999C000012200019N0100001N1+02811+02481101101ADDAA199000091GA1001+999999999GF100991001001999999001001KA1240M+03331MA1999999099141MD1999999-0011REMSYN082AAXX  12004 82571 32997 00000 10281 20248 39914 40110 333 10333 29077 55082 59001;EQDQ01  00002PRCP99
0186825710999992001121212004-05500-045260FM-12+017499999V0200501N003112200019N0100001N1+02701+02301101261ADDAA199000091GF103991031021004501001001KA1240N+02431MA1999999099301MD1999999-0151REMSYN076AAXX  12124 82571 32497 30506 10270 20230 39930 40126 83200 333 20243 59015;EQDQ01  00002PRCP99
0167825710999992001121218004-05500-045260FM-12+017499999V0200501N003110450019N0100001N1+03111+02301100851ADDAA199000091GF106991041021004501031001MA1999999098911MD1999999-0141REMSYN070AAXX  12184 82571 32497 60506 10311 20230 39891 40085 84230 333 59014;EQDQ01  00002PRCP99
0220825710999992001121300004-05500-045260FM-12+017499999V0209999C000012200019N0100001N1+02721+02451100981ADDAA199000091GA1001+999999999GF100991001001999999001001KA1240M+03231MA1999999099021MD1999999-0121MW1131REMSYN088AAXX  13004 82571 31997 00000 10272 20245 39902 40098 713// 333 10323 29078 55065 59012;EQDQ01  00002PRCP99
0186825710999992001121312004-05500-045260FM-12+017499999V0200501N001010450019N0100001N1+02621+02291101171ADDAA199000091GF105991041021004501031001KA1240N+02471MA1999999099201MD1999999-0101REMSYN076AAXX  13124 82571 32497 50502 10262 20229 39920 40117 84230 333 20247 59010;EQDQ01  00002PRCP99
0167825710999992001121318004-05500-045260FM-12+017499999V0200501N001010450019N0100001N1+03171+02331100751ADDAA199000091GF106991031031004501031011MA1999999098811MD1999999-0101REMSYN070AAXX  13184 82571 32497 60502 10317 20233 39881 40075 83331 333 59010;EQDQ01  00002PRCP99
0208825710999992001121400004-05500-045260FM-12+017499999V0209999C000012200019N0100001N1+02761+02461100891ADDAA199000091GA1001+999999999GF100991001001999999001001KA1240M+03231MA1999999098931MD1999999-0091REMSYN082AAXX  14004 82571 32997 00000 10276 20246 39893 40089 333 10323 29078 55046 59009;EQDQ01  00002PRCP99
0186825710999992001121412004-05500-045260FM-12+017499999V0200901N001010042019N0100001N1+02621+02251101341ADDAA199000091GF108991081051004501999999KA1240N+02281MA1999999099371MD1999999+0171REMSYN076AAXX  14124 82571 32497 80902 10262 20225 39937 40134 885// 333 20228 58017;EQDQ01  00002PRCP99
0167825710999992001121418004-05500-045260FM-12+017499999V0201401N005112200019N0100001N1+03351+02111100771ADDAA199000091GF102991021021004501001001MA1999999098841MD1999999+0031REMSYN070AAXX  14184 82571 32497 21410 10335 20211 39884 40077 82200 333 58003;EQDQ01  00002PRCP99
0208825710999992001121500004-05500-045260FM-12+017499999V0209999C000012200019N0100001N1+02841+02381100991ADDAA199000091GA1001+999999999GF100991001001999999001001KA1240M+03451MA1999999099041MD1999999+0111REMSYN082AAXX  15004 82571 32997 00000 10284 20238 39904 40099 333 10345 29070 55074 58011;EQDQ01  00002PRCP99
0186825710999992001121512004-05500-045260FM-12+017499999V0200501N005110450019N0100001N1+02841+02291101291ADDAA199000091GF106991021021004501031011KA1240N+02441MA1999999099341MD1999999-0031REMSYN076AAXX  15124 82571 32497 60510 10284 20229 39934 40129 82231 333 20244 59003;EQDQ01  00002PRCP99
0167825710999992001121518004-05500-045260FM-12+017499999V0201401N003112200019N0100001N1+03371+02121100831ADDAA199000091GF102991021021004501001001MA1999999098901MD1999999+0061REMSYN070AAXX  15184 82571 32497 21406 10337 20212 39890 40083 82200 333 58006;EQDQ01  00002PRCP99
0208825710999992001121600004-05500-045260FM-12+017499999V0209999C000012200019N0100001N1+02921+02471101011ADDAA199000091GA1001+999999999GF100991001001999999001001KA1240M+03471MA1999999099071MD1999999+0031REMSYN082AAXX  16004 82571 32997 00000 10292 20247 39907 40101 333 10347 29068 55096 58003;EQDQ01  00002PRCP99
0173825710999992001121612004-05500-045260FM-12+017499999V0200901N001010450019N0100001N1+02761+02321101351ADDAA199000091GF106991041051004501031001MA1999999099401MD1999999+0061REMSYN076AAXX  16124 82571 32497 60902 10276 20232 39940 40135 84530 333 29252 58006;EQDQ01  00002PRCP99
0167825710999992001121618004-05500-045260FM-12+017499999V0200501N001012200019N0100001N1+03381+02261100851ADDAA199000091GF102991021021004501001001MA1999999098921MD1999999+0021REMSYN070AAXX  16184 82571 32497 20502 10338 20226 39892 40085 82200 333 58002;EQDQ01  00002PRCP99
0208825710999992001121700004-05500-045260FM-12+017499999V0200501N001012200019N0100001N1+02891+02271101001ADDAA199000091GA1001+999999999GF100991001001999999001001KA1240M+03481MA1999999099051MD1999999-0021REMSYN082AAXX  17004 82571 32997 00502 10289 20227 39905 40100 333 10348 29067 55084 59002;EQDQ01  00002PRCP99
0186825710999992001121712004-05500-045260FM-12+017499999V0200901N003112200019N0100001N1+02831+02291101241ADDAA199000091GF103991011011004501011011KA1240N+02511MA1999999099291MD1999999-0111REMSYN076AAXX  17124 82571 32497 30906 10283 20229 39929 40124 81111 333 20251 59011;EQDQ01  00002PRCP99
0167825710999992001121718004-05500-045260FM-12+017499999V0201401N003112200019N0100001N1+03451+02091100731ADDAA199000091GF104991021021004501011011MA1999999098811MD1999999-0111REMSYN070AAXX  17184 82571 32497 41406 10345 20209 39881 40073 82211 333 59011;EQDQ01  00002PRCP99
0208825710999992001121800004-05500-045260FM-12+017499999V0209999C000012200019N0100001N1+02971+02371100901ADDAA199000091GA1001+999999999GF100991001001999999001001KA1240M+03541MA1999999098961MD1999999-0091REMSYN082AAXX  18004 82571 32997 00000 10297 20237 39896 40090 333 10354 29064 55101 59009;EQDQ01  00002PRCP99
0186825710999992001121812004-05500-045260FM-12+017499999V0200501N002112200019N0100001N1+02871+02251101291ADDAA199000091GF102991011011004501001011KA1240N+02531MA1999999099341MD1999999+0051REMSYN076AAXX  18124 82571 32497 20504 10287 20225 39934 40129 81101 333 20253 58005;EQDQ01  00002PRCP99
0167825710999992001121818004-05500-045260FM-12+017499999V0201401N002110450019N0100001N1+03411+02161100841ADDAA199000091GF106991021021004501011011MA1999999098921MD1999999+0111REMSYN070AAXX  18184 82571 32497 61404 10341 20216 39892 40084 82211 333 58011;EQDQ01  00002PRCP99
0208825710999992001121900004-05500-045260FM-12+017499999V0201401N001012200019N0100001N1+02911+02341101011ADDAA199000091GA1001+999999999GF100991001001999999001001KA1240M+03451MA1999999099071MD1999999+0111REMSYN082AAXX  19004 82571 32997 01402 10291 20234 39907 40101 333 10345 29065 55067 58011;EQDQ01  00002PRCP99
0186825710999992001121912004-05500-045260FM-12+017499999V0201401N003112200019N0100001N1+02741+02261101371ADDAA199000091GF104991041001017501051001KA1240N+02431MA1999999099411MD1999999+0071REMSYN076AAXX  19124 82571 32797 41406 10274 20226 39941 40137 84050 333 20243 58007;EQDQ01  00002PRCP99
0167825710999992001121918004-05500-045260FM-12+017499999V0201401N002112200019N0100001N1+03441+02041100911ADDAA199000091GF103991031021004501001001MA1999999098981MD1999999+0061REMSYN070AAXX  19184 82571 32497 31404 10344 20204 39898 40091 83200 333 58006;EQDQ01  00002PRCP99
0186825710999992001122012004-05500-045260FM-12+017499999V0200501N004110150019N0100001N1+02751+02211101331ADDAA199000091GF106991061001017501071001KA1240N+02561MA1999999099381MD1999999-0031REMSYN076AAXX  20124 82571 32797 60508 10275 20221 39938 40133 86070 333 20256 59003;EQDQ01  00002PRCP99
0167825710999992001122018004-05500-045260FM-12+017499999V0200901N002110450019N0100001N1+03401+02141100851ADDAA199000091GF106991031021004501011011MA1999999098931MD1999999-0051REMSYN070AAXX  20184 82571 32497 60904 10340 20214 39893 40085 83211 333 59005;EQDQ01  00002PRCP99
0198825710999992001122100004-05500-045260FM-12+017499999V0202301N001012200019N0100001N1+03051+02451101111ADDAA199000091GF103991031021004501001001KA1240M+03501MA1999999099161MD1999999+0021REMSYN088AAXX  21004 82571 32497 32302 10305 20245 39916 40111 83200 333 10350 29065 55054 58002;EQDQ01  00002PRCP99
0186825710999992001122112004-05500-045260FM-12+017499999V0201401N001010450019N0100001N1+02761+02321101401ADDAA199000091GF106991041021004501031001KA1240N+02551MA1999999099451MD1999999+0071REMSYN076AAXX  21124 82571 32497 61402 10276 20232 39945 40140 84230 333 20255 58007;EQDQ01  00002PRCP99
0167825710999992001122118004-05500-045260FM-12+017499999V0200901N003110450019N0100001N1+03471+02111100891ADDAA199000091GF106991031021004501011011MA1999999098971MD1999999+0041REMSYN070AAXX  21184 82571 32497 60906 10347 20211 39897 40089 83211 333 58004;EQDQ01  00002PRCP99
0208825710999992001122200004-05500-045260FM-12+017499999V0202301N001012200019N0100001N1+02971+02421101051ADDAA199000091GA1001+999999999GF100991001001999999001001KA1240M+03541MA1999999099101MD1999999-0061REMSYN082AAXX  22004 82571 32997 02302 10297 20242 39910 40105 333 10354 29066 55069 59006;EQDQ01  00002PRCP99
0201825710999992001122212004-05500-045260FM-12+017499999V0203601N001010450019N0040001N1+02311+02241101541ADDAA124002091AY161061AY221061GF108991031071004501021999KA1240N+02301MA1999999099571MD1999999+0121MW1611REMSYN088AAXX  22124 82571 21496 83602 10231 20224 39957 40154 76162 8372/ 333 20230 58012 60024;
0182825710999992001122218004-05500-045260FM-12+017499999V0200901N002112200019N0100001N1+03091+02291101101ADDAA106001091AY161061AY211061GF104991021021004501011011MA1999999099151MD1999999+0181MW1011REMSYN082AAXX  22184 82571 21497 40904 10309 20229 39915 40110 70161 82211 333 58018 60011;
0179825710999992001122300004-05500-045260FM-12+017499999V0202301N001012200019N0100001N1+02731+02471101261ADDAA199000021GF102991021001017501041001KA1240M+03201MA1999999099281MD1999999+0181REMSYN088AAXX  23004 82571 32797 22302 10273 20247 39928 40126 82040 333 10320 29082 55056 58018;
0167825710999992001122318004-05500-045260FM-12+017499999V0201401N001010042019N0100001N1+03231+02251101111ADDAA199000091GF108991081051004501999999MA1999999099131MD1999999-0021REMSYN070AAXX  23184 82571 32497 81402 10323 20225 39913 40111 885// 333 59002;EQDQ01  00002PRCP99
0208825710999992001122400004-05500-045260FM-12+017499999V0201801N001012200019N0100001N1+02731+02501101211ADDAA199000091GA1001+999999999GF100991001001999999001001KA1240M+03351MA1999999099251MD1999999-0031REMSYN082AAXX  24004 82571 32997 01802 10273 20250 39925 40121 333 10335 29077 55041 59003;EQDQ01  00002PRCP99
0186825710999992001122412004-05500-045260FM-12+017499999V0200901N001010450019N0100001N1+02771+02251101531ADDAA199000091GF106991031021004501031001KA1240N+02391MA1999999099561MD1999999+0021REMSYN076AAXX  24124 82571 32497 60902 10277 20225 39956 40153 83230 333 20239 58002;EQDQ01  00002PRCP99
0167825710999992001122418004-05500-045260FM-12+017499999V0200501N001012200019N0100001N1+03391+02181101071ADDAA199000091GF106991041021004501001011MA1999999099131MD1999999+0001REMSYN070AAXX  24184 82571 32497 60502 10339 20218 39913 40107 84201 333 58000;EQDQ01  00002PRCP99
0186825710999992001122512004-05500-045260FM-12+017499999V0200501N001012200019N0100001N1+02781+02301101511ADDAA199000091GF102991021011004501001001KA1240N+02341MA1999999099551MD1999999-0011REMSYN076AAXX  25124 82571 32497 20502 10278 20230 39955 40151 82100 333 20234 59001;EQDQ01  00002PRCP99
0167825710999992001122518004-05500-045260FM-12+017499999V0200901N001012200019N0100001N1+03441+02111101011ADDAA199000091GF105991031031004501001011MA1999999099081MD1999999-0051REMSYN070AAXX  25184 82571 32497 50902 10344 20211 39908 40101 83301 333 59005;EQDQ01  00002PRCP99
0208825710999992001122600004-05500-045260FM-12+017499999V0209999C000012200019N0100001N1+02891+02491101191ADDAA199000091GA1001+999999999GF100991001001999999001001KA1240M+03531MA1999999099241MD1999999-0061REMSYN082AAXX  26004 82571 32997 00000 10289 20249 39924 40119 333 10353 29068 55084 59006;EQDQ01  00002PRCP99
0186825710999992001122612004-05500-045260FM-12+017499999V0200501N001010450019N0100001N1+02821+02311101401ADDAA199000091GF106991041051004501031001KA1240N+02511MA1999999099451MD1999999-0101REMSYN076AAXX  26124 82571 32497 60502 10282 20231 39945 40140 84530 333 20251 59010;EQDQ01  00002PRCP99
0167825710999992001122618004-05500-045260FM-12+017499999V0203601N001010450019N0100001N1+03311+02321100951ADDAA199000091GF106991031021004501031011MA1999999099021MD1999999-0061REMSYN070AAXX  26184 82571 32497 63602 10331 20232 39902 40095 83231 333 59006;EQDQ01  00002PRCP99
0214825710999992001122700004-05500-045260FM-12+017499999V0209999C000010150019N0100001N1+02851+02331101151ADDAA199000091GF106991999001017501031001KA1240M+03381MA1999999099201MD1999999-0041REMSYN088AAXX  27004 82571 32797 60000 10285 20233 39920 40115 85030 333 10338 29069 55036 59004;EQDQ01+000052SCOTLCQ02  00002PRCP99
0186825710999992001122712004-05500-045260FM-12+017499999V0200501N003110042019N0100001N1+02771+02341101411ADDAA199000091GF107991071051004501001001KA1240N+02431MA1999999099451MD1999999+0001REMSYN076AAXX  27124 82571 32497 70506 10277 20234 39945 40141 87500 333 20243 58000;EQDQ01  00002PRCP99
0201825710999992001122812004-05500-045260FM-12+017499999V0200901N001010450019N0040001N1+02171+02151101711ADDAA124126091AY191061AY261061GF108991031071004501021999KA1240N+02121MA1999999099721MD1999999+0271MW1911REMSYN088AAXX  28124 82571 21496 80902 10217 20215 39972 40171 79196 8372/ 333 20212 58027 61264;
0182825710999992001122818004-05500-045260FM-12+017499999V0201401N002110450019N0100001N1+02901+02251101301ADDAA106000191AY161061AY211061GF106991011021004501041011MA1999999099341MD1999999+0241MW1011REMSYN082AAXX  28184 82571 21497 61404 10290 20225 39934 40130 70161 81241 333 58024 69911;
0173825710999992001122912004-05500-045260FM-12+017499999V0202301N001010042019N0100001N1+02581+02401101551ADDAA124000191GF106991051051004501031001KA1240N+02171MA1999999099571MD1999999-0151REMSYN082AAXX  29124 82571 22497 62302 10258 20240 39957 40155 85530 333 20217 59015 69914;
0167825710999992001122918004-05500-045260FM-12+017499999V0200901N003112200019N0100001N1+03191+02271101151ADDAA199000091GF103991021021004501001011MA1999999099161MD1999999-0181REMSYN070AAXX  29184 82571 32497 30906 10319 20227 39916 40115 82201 333 59018;EQDQ01  00002PRCP99
0210825710999992001123000004-05500-045260FM-12+017499999V0200501N003110150019N0100001N1+02711+02391101261ADDAA199000091GF108991081001017501011999KA1240M+03281MA1999999099291MD1999999-0131MW1131REMSYN094AAXX  30004 82571 32797 80506 10271 20239 39929 40126 713// 8801/ 333 10328 29078 55068 59013;EQDQ01  00002PRCP99
0186825710999992001123012004-05500-045260FM-12+017499999V0200501N003110042019N0100001N1+02631+02391101471ADDAA199000091GF108991081051004501999999KA1240N+02481MA1999999099501MD1999999-0071REMSYN076AAXX  30124 82571 32497 80506 10263 20239 39950 40147 885// 333 20248 59007;EQDQ01  00002PRCP99
0167825710999992001123018004-05500-045260FM-12+017499999V0201401N001010450019N0100001N1+03051+02221101141ADDAA199000091GF106991021021004501031011MA1999999099191MD1999999+0031REMSYN070AAXX  30184 82571 32497 61402 10305 20222 39919 40114 82231 333 58003;EQDQ01  00002PRCP99
0198825710999992001123100004-05500-045260FM-12+017499999V0202301N002010042019N0100001N1+02691+02521101391ADDAA199000091GF108991081071004501999999KA1240M+03151MA1999999099421MD1999999+0131REMSYN088AAXX  31000 82571 32497 82302 10269 20252 39942 40139 887// 333 10315 29082 55050 58013;EQDQ01  00002PRCP99
0186825710999992001123112004-05500-045260FM-12+017499999V0202301N001010450019N0100001N1+02591+02421101321ADDAA199000091GF106991021021004501031001KA1240N+02441MA1999999099351MD1999999-0151REMSYN076AAXX  31124 82571 32497 62302 10259 20242 39935 40132 82230 333 20244 59015;EQDQ01  00002PRCP99
0167825710999992001123118004-05500-045260FM-12+017499999V0200901N002110450019N0100001N1+03031+02411100981ADDAA199000091GF106991031021004501031001MA1999999099031MD1999999-0161REMSYN070AAXX  31184 82571 32497 60904 10303 20241 39903 40098 83230 333 59016;EQDQ01  00002PRCP99
