0186825860999992001010100004-05190-039300FM-12+021199999V0200501N001519999999N0010001N1+02821+02171100881ADDAA199000091GF105991999999008001999999KA1240M+03581MA1999999098531MD1999999-0021REMSYN076AAXX  01004 82586 32594 50503 10282 20217 39853 40088 8//// 333 10358 59002;EQDQ01  00002PRCP99
0186825860999992001010112004-05190-039300FM-12+021199999V0200901N003112200019N0200001N1+02861+02161101021ADDAA199000091GF104991041011008001001001KA1240N+02441MA1999999098661MD1999999-0031REMSYN076AAXX  01124 82586 32598 40906 10286 20216 39866 40102 84100 333 20244 59003;EQDQ01  00002PRCP99
0167825860999992001010118004-05190-039300FM-12+021199999V0201401N001512200019N0200001N1+03561+01821100761ADDAA199000091GF103991031011008001001001MA1999999098431MD1999999+0001REMSYN070AAXX  01184 82586 32598 31403 10356 20182 39843 40076 83100 333 58000;EQDQ01  00002PRCP99
0186825860999992001010200004-05190-039300FM-12+021199999V0200501N005112200019N0010001N1+02781+02361100931ADDAA199000091GF104991041001008001051001KA1240M+03571MA1999999098571MD1999999+0041REMSYN076AAXX  02004 82586 32594 40510 10278 20236 39857 40093 84050 333 10357 58004;EQDQ01  00002PRCP99
0186825860999992001010212004-05190-039300FM-12+021199999V0200501N003112200019N0200001N1+02801+02331101091ADDAA199000091GF104991041021008001001001KA1240N+02451MA1999999098731MD1999999+0071REMSYN076AAXX  02124 82586 32598 40506 10280 20233 39873 40109 84200 333 20245 58007;EQDQ01  00002PRCP99
0167825860999992001010218004-05190-039300FM-12+021199999V0200901N001512200019N0200001N1+03501+01941100791ADDAA199000091GF104991041021008001001001MA1999999098451MD1999999+0021REMSYN070AAXX  02184 82586 32598 40903 10350 20194 39845 40079 84200 333 58002;EQDQ01  00002PRCP99
0202825860999992001010300004-05190-039300FM-12+021199999V02099999999999999999N0010001N1+02801+02271100921ADDAA199000091GF105991999021008001001001KA1240M+03541MA1999999098561MD1999999-0011REMSYN076AAXX  03004 82586 32594 505// 10280 20227 39856 40092 86200 333 10354 59001;EQDQ01+000062SCOTLCQ02  00002PRCP99
0186825860999992001010312004-05190-039300FM-12+021199999V0201401N004612200019N0200001N1+02881+02251101091ADDAA199000091GF104991041011008001001001KA1240N+02431MA1999999098731MD1999999+0001REMSYN076AAXX  03124 82586 32598 41409 10288 20225 39873 40109 84100 333 20243 58000;EQDQ01  00002PRCP99
0167825860999992001010318004-05190-039300FM-12+021199999V02099999999990075019N0200001N1+03521+01741100771ADDAA199000091GF105991051021008001001001MA1999999098431MD1999999-0021REMSYN070AAXX  03184 82586 32598 509// 10352 20174 39843 40077 85200 333 59002;EQDQ01  00002PRCP99
0186825860999992001010400004-05190-039300FM-12+021199999V0200501N003610075019N0010001N1+02851+02121100941ADDAA199000091GF106991061051008001001001KA1240M+03561MA1999999098581MD1999999+0021REMSYN076AAXX  04004 82586 32594 60507 10285 20212 39858 40094 86500 333 10356 58002;EQDQ01  00002PRCP99
0202825860999992001010412004-05190-039300FM-12+021199999V0200901N002119999999N0200001N1+02841+02221101091ADDAA199000091GF106991999021008001001001KA1240N+02481MA1999999098721MD1999999+0001REMSYN076AAXX  04124 82586 32598 60904 10284 20222 39872 40109 84200 333 20248 58000;EQDQ01+000042SCOTLCQ02  00002PRCP99
0184825860999992001010418004-05190-039300FM-12+021199999V0201401N002119999999N0200001N1+03181+02041100831ADDAA199000091GF108991999021008001001001MD1999999+0051REMSYN070AAXX  04184 82586 32598 81404 10318 20204 39448 40083 84200 333 58005;EQDQ01+000042SCOTLCQ02+094483APOSP Q03  00002PRCP99
0186825860999992001010500004-05190-039300FM-12+021199999V0200501N005110120019N0010001N1+02751+02321101001ADDAA199000091GF108991081051012501999999KA1240M+03221MA1999999098641MD1999999+0061REMSYN076AAXX  05004 82586 32694 80510 10275 20232 39864 40100 885// 333 10322 58006;EQDQ01  00002PRCP99
0186825860999992001010512004-05190-039300FM-12+021199999V0200901N003110450019N0200001N1+02881+02321101101ADDAA199000091GF105991031021008001051001KA1240N+02321MA1999999098741MD1999999+0011REMSYN076AAXX  05124 82586 32598 50906 10288 20232 39874 40110 83250 333 20232 58001;EQDQ01  00002PRCP99
0168825860999992001010518004-05190-039300FM-12+021199999V0200901N002112200019N0200001N1+03501+01771100771ADDAA199000091GF104991041011008001001001MD1999999-0051REMSYN070AAXX  05184 82586 32598 40904 10350 20177 39243 40077 84100 333 59005;EQDQ01+092433APOSP Q02  00002PRCP99
0186825860999992001010600004-05190-039300FM-12+021199999V0200501N005119999999N0010001N1+02821+02201100891ADDAA199000091GF105991051001012501051001KA1240M+03601MA1999999098541MD1999999-0101REMSYN076AAXX  06004 82586 32694 50510 10282 20220 39854 40089 85050 333 10360 59010;EQDQ01  00002PRCP99
0186825860999992001010612004-05190-039300FM-12+021199999V0200501N002110075019N0200001N1+02901+02351101061ADDAA199000091GF105991051021008001001001KA1240N+02401MA1999999098701MD1999999-0041REMSYN076AAXX  06124 82586 32598 50504 10290 20235 39870 40106 85200 333 20240 59004;EQDQ01  00002PRCP99
0183825860999992001010618004-05190-039300FM-12+021199999V0201801N001519999999N0200001N1+03531+01701100711ADDAA199000091GF106991999021008001001001MA1999999098371MD1999999-0061REMSYN070AAXX  06184 82586 32598 61803 10353 20170 39837 40071 83200 333 59006;EQDQ01+000032SCOTLCQ02  00002PRCP99
0180825860999992001010700004-05190-039300FM-12+021199999V0200501N003112200019N0010001N1+02841+02291100831ADDAA199000091GF103991999999999999999999KA1240M+03621MA1999999098481MD1999999-0061REMSYN070AAXX  07004 82586 32994 30506 10284 20229 39848 40083 333 10362 59006;EQDQ01  00002PRCP99
0201825860999992001010712004-05190-039300FM-12+021199999V0200501N004110075019N0200001N1+02721+02301101111ADDAA124000391AY151061AY251061GF108991081071008001999999KA1240N+02501MA1999999098751MD1999999+0051MW1031REMSYN088AAXX  07124 82586 21598 80508 10272 20230 39875 40111 70355 887// 333 20250 58005 69934;
0167825860999992001010718004-05190-039300FM-12+021199999V0201401N002110450019N0200001N1+03161+02171100771ADDAA199000091GF108991041021008001021999MA1999999098421MD1999999+0061REMSYN070AAXX  07184 82586 32598 81404 10316 20217 39842 40077 8422/ 333 58006;EQDQ01  00002PRCP99
0186825860999992001010800004-05190-039300FM-12+021199999V0200501N002110120019N0010001N1+02761+02121100861ADDAA199000091GF106991061001012501021001KA1240M+03181MA1999999098501MD1999999+0021REMSYN076AAXX  08004 82586 32694 60504 10276 20212 39850 40086 86020 333 10318 58002;EQDQ01  00002PRCP99
0186825860999992001010812004-05190-039300FM-12+021199999V0200501N001512200019N0200001N1+02781+02341100981ADDAA199000091GF106991041041008001001011KA1240N+02361MA1999999098621MD1999999-0131REMSYN076AAXX  08124 82586 32598 60503 10278 20234 39862 40098 84401 333 20236 59013;EQDQ01  00002PRCP99
0167825860999992001010818004-05190-039300FM-12+021199999V0200501N002110075019N0200001N1+03521+01961100641ADDAA199000091GF106991061021008001001001MA1999999098311MD1999999-0121REMSYN070AAXX  08184 82586 32598 60504 10352 20196 39831 40064 86200 333 59012;EQDQ01  00002PRCP99
0186825860999992001010912004-05190-039300FM-12+021199999V0200501N003612200019N0200001N1+02861+02231101051ADDAA199000091GF106991041041008001001011KA1240N+02361MA1999999098691MD1999999+0071REMSYN076AAXX  09124 82586 32598 60507 10286 20223 39869 40105 84401 333 20236 58007;EQDQ01  00002PRCP99
0167825860999992001010918004-05190-039300FM-12+021199999V0201401N001510075019N0200001N1+03401+01891100731ADDAA199000091GF105991051021008001001001MA1999999098391MD1999999+0081REMSYN070AAXX  09184 82586 32598 51403 10340 20189 39839 40073 85200 333 58008;EQDQ01  00002PRCP99
0186825860999992001011000004-05190-039300FM-12+021199999V0200501N005112200019N0010001N1+02861+02161100831ADDAA199000091GF102991011021008001001011KA1240M+03441MA1999999098481MD1999999-0041REMSYN076AAXX  10004 82586 32594 20510 10286 20216 39848 40083 81201 333 10344 59004;EQDQ01  00002PRCP99
0186825860999992001011012004-05190-039300FM-12+021199999V0200501N003110075019N0200001N1+02761+02341101011ADDAA199000091GF108991081071008001999999KA1240N+02491MA1999999098651MD1999999-0041REMSYN076AAXX  10124 82586 32598 80506 10276 20234 39865 40101 887// 333 20249 59004;EQDQ01  00002PRCP99
0167825860999992001011018004-05190-039300FM-12+021199999V0201401N002112200019N0200001N1+03471+01821100711ADDAA199000091GF106991031021008001001041MA1999999098371MD1999999-0021REMSYN070AAXX  10184 82586 32598 61404 10347 20182 39837 40071 83204 333 59002;EQDQ01  00002PRCP99
0186825860999992001011100004-05190-039300FM-12+021199999V02099999999990075019N0010001N1+02721+02391100941ADDAA199000091GF108991081071008001999999KA1240M+03501MA1999999098581MD1999999+0101REMSYN076AAXX  11004 82586 32594 805// 10272 20239 39858 40094 887// 333 10350 58010;EQDQ01  00002PRCP99
0202825860999992001011112004-05190-039300FM-12+021199999V0200901N003110075019N0200001N1+02701+02131101081ADDAA199000091GF108991081071008001999999KA1240N+99999MA1999999098721MD1999999+0071REMSYN076AAXX  11124 82586 32598 80906 10270 20213 39872 40108 887// 333 20278 58007;EQDQ01  00002PRCP99Q02 +02782ATMN  
0167825860999992001011118004-05190-039300FM-12+021199999V0200901N001519999999N0200001N1+03121+01891100891ADDAA199000091GF107991041001008001051041MA1999999098541MD1999999+0171REMSYN070AAXX  11184 82586 32598 70903 10312 20189 39854 40089 84054 333 58017;EQDQ01  00002PRCP99
0202825860999992001011200004-05190-039300FM-12+021199999V0203601N005119999999N0010001N1+02741+02221100961ADDAA199000091GF108991999021012501001001KA1240M+03161MA1999999098601MD1999999+0021REMSYN076AAXX  12004 82586 32694 83610 10274 20222 39860 40096 84200 333 10316 58002;EQDQ01+000042SCOTLCQ02  00002PRCP99
0186825860999992001011212004-05190-039300FM-12+021199999V0200501N005710075019N0200001N1+02761+02391101041ADDAA199000091GF108991081071008001999999KA1240N+02461MA1999999098861MD1999999-0041REMSYN076AAXX  12124 82586 32598 80511 10276 20239 39886 40104 887// 333 20246 59004;EQDQ01  00002PRCP99
0182825860999992001011218004-05190-039300FM-12+021199999V0200501N003610075019N0200001N1+02781+02501100851ADDAA106002091AY161061AY221061GF107991071071008001001001MA1999999098491MD1999999-0031MW1031REMSYN082AAXX  12184 82586 21598 70507 10278 20250 39849 40085 70362 87700 333 59003 60021;
0220825860999992001011300004-05190-039300FM-12+021199999V02099999999990075019N0010001N1+02281+02141101091ADDAA106000591AY161061AY221061GF108991999051008001071999KA1240M+02981MA1999999098691MD1999999+0091MW1031REMSYN088AAXX  13004 82586 21594 814// 10228 20214 39869 40109 70362 8857/ 333 10298 58009 69961;EQDQ01+000082SCOTLC
0201825860999992001011312004-05190-039300FM-12+021199999V0201401N001510075019N0200001N1+02541+02401101151ADDAA124003091AY151061AY221061GF108991081071008001999999KA1240N+02201MA1999999098751MD1999999+0071MW1031REMSYN088AAXX  13124 82586 21598 81403 10254 20240 39875 40115 70352 887// 333 20220 58007 60034;
0167825860999992001011318004-05190-039300FM-12+021199999V0200901N002610450019N0200001N1+03181+02041100861ADDAA199000091GF107991041041008001051001MA1999999098501MD1999999+0011REMSYN070AAXX  13184 82586 32598 70905 10318 20204 39850 40086 84450 333 58001;EQDQ01  00002PRCP99
0201825860999992001011400004-05190-039300FM-12+021199999V0202701N001510075019N0010001N1+02261+02181101191ADDAA106027991AY161061AY261061GF108991081071008001999999KA1240M+03221MA1999999098791MD1999999+0101MW1511REMSYN088AAXX  14004 82586 21594 82703 10226 20218 39879 40119 75166 887// 333 10322 58010 60281;
0220825860999992001011412004-05190-039300FM-12+021199999V0200501N001010075019N0200001N1+02341+02271101171ADDAA124030091AY161061AY251061GF108991999041008001001001KA1240N+02201MA1999999098761MD1999999+0011MW1031REMSYN088AAXX  14124 82586 21598 80502 10234 20227 39876 40117 70365 86400 333 20220 58001 60304;EQDQ01+000062SCOTLC
0183825860999992001011418004-05190-039300FM-12+021199999V0200901N005119999999N0200001N1+03001+01911100911ADDAA199000091GF106991999021008001001001MA1999999098551MD1999999+0051REMSYN070AAXX  14184 82586 32598 60910 10300 20191 39855 40091 83200 333 58005;EQDQ01+000032SCOTLCQ02  00002PRCP99
0186825860999992001011500004-05190-039300FM-12+021199999V0200501N001510075019N0010001N1+02661+02441100971ADDAA199000091GF106991061021008001001001KA1240M+03081MA1999999098581MD1999999-0211REMSYN076AAXX  15004 82586 32594 60503 10266 20244 39858 40097 86200 333 10308 59021;EQDQ01  00002PRCP99
0186825860999992001011512004-05190-039300FM-12+021199999V02099999999992200019N0200001N1+02761+02041101081ADDAA199000091GF102991011011008001001021KA1240N+02341MA1999999098721MD1999999-0041REMSYN076AAXX  15124 82586 32598 209// 10276 20204 39872 40108 81102 333 20234 59004;EQDQ01  00002PRCP99
0167825860999992001011518004-05190-039300FM-12+021199999V0201401N004611050019N0200001N1+03281+01741100831ADDAA199000091GF105991031021008001001021MA1999999098481MD1999999-0071REMSYN070AAXX  15184 82586 32598 51409 10328 20174 39848 40083 83202 333 59007;EQDQ01  00002PRCP99
0186825860999992001011600004-05190-039300FM-12+021199999V0200501N005112200019N0010001N1+02661+02271100981ADDAA199000091GF103991031021008001001001KA1240M+03301MA1999999098621MD1999999+0041REMSYN076AAXX  16004 82586 32594 30510 10266 20227 39862 40098 83200 333 10330 58004;EQDQ01  00002PRCP99
0186825860999992001011612004-05190-039300FM-12+021199999V0200901N003610075019N0200001N1+02781+02251101071ADDAA199000091GF106991061041008001001001KA1240N+02381MA1999999098711MD1999999-0011REMSYN076AAXX  16124 82586 32598 60907 10278 20225 39871 40107 86400 333 20238 59001;EQDQ01  00002PRCP99
0167825860999992001011618004-05190-039300FM-12+021199999V02099999999990075019N0200001N1+03361+01891100821ADDAA199000091GF106991061021008001001001MA1999999098481MD1999999+0001REMSYN070AAXX  16184 82586 32598 609// 10336 20189 39848 40082 86200 333 58000;EQDQ01  00002PRCP99
0186825860999992001011700004-05190-039300FM-12+021199999V0200501N003112200019N0010001N1+02821+02121100951ADDAA199000091GF103991031021008001001001KA1240M+03391MA1999999098591MD1999999-0041REMSYN076AAXX  17004 82586 32594 30506 10282 20212 39859 40095 83200 333 10339 59004;EQDQ01  00002PRCP99
0186825860999992001011712004-05190-039300FM-12+021199999V0200901N003612200019N0200001N1+02881+01731100991ADDAA199000091GF102991011011008001001021KA1240N+02301MA1999999098631MD1999999-0081REMSYN076AAXX  17124 82586 32598 20907 10288 20173 39863 40099 81102 333 20230 59008;EQDQ01  00002PRCP99
0167825860999992001011718004-05190-039300FM-12+021199999V0201401N002110075019N0200001N1+03441+01631100761ADDAA199000091GF106991061021008001001001MA1999999098421MD1999999-0061REMSYN070AAXX  17184 82586 32598 61404 10344 20163 39842 40076 86200 333 59006;EQDQ01  00002PRCP99
0196825860999992001011800004-05190-039300FM-12+021199999V0200501N004112200019N0010001N1+02821+02151100911ADDAA199000091GA1001+999999999GF100991001001999999001001KA1240M+03391MA1999999098551MD1999999-0041REMSYN070AAXX  18004 82586 32994 00508 10282 20215 39855 40091 333 10339 59004;EQDQ01  00002PRCP99
0186825860999992001011812004-05190-039300FM-12+021199999V0200901N004612200019N0200001N1+02821+01941101081ADDAA199000091GF106991021011008001001041KA1240N+02401MA1999999098721MD1999999+0091REMSYN076AAXX  18124 82586 32598 60909 10282 20194 39872 40108 82104 333 20240 58009;EQDQ01  00002PRCP99
0167825860999992001011818004-05190-039300FM-12+021199999V0200901N003110075019N0200001N1+03431+01701100791ADDAA199000091GF106991061021008001001001MA1999999098451MD1999999+0031REMSYN070AAXX  18184 82586 32598 60906 10343 20170 39845 40079 86200 333 58003;EQDQ01  00002PRCP99
0196825860999992001011900004-05190-039300FM-12+021199999V02099999999992200019N0010001N1+02821+02221100981ADDAA199000091GA1001+999999999GF100991001001999999001001KA1240M+03491MA1999999098621MD1999999+0071REMSYN070AAXX  19004 82586 32994 005// 10282 20222 39862 40098 333 10349 58007;EQDQ01  00002PRCP99
0186825860999992001011912004-05190-039300FM-12+021199999V0200901N003612200019N0200001N1+02841+02071101191ADDAA199000091GF104991041011008001001001KA1240N+02341MA1999999098831MD1999999+0131REMSYN076AAXX  19124 82586 32598 40907 10284 20207 39883 40119 84100 333 20234 58013;EQDQ01  00002PRCP99
0167825860999992001011918004-05190-039300FM-12+021199999V0200901N003110075019N0200001N1+03431+01651100811ADDAA199000091GF106991061021008001001001MA1999999098471MD1999999+0021REMSYN070AAXX  19184 82586 32598 60906 10343 20165 39847 40081 86200 333 58002;EQDQ01  00002PRCP99
0196825860999992001012000004-05190-039300FM-12+021199999V0200501N005112200019N0010001N1+02861+02191101031ADDAA199000091GA1001+999999999GF100991001001999999001001KA1240M+03521MA1999999098671MD1999999+0051REMSYN070AAXX  20004 82586 32994 00510 10286 20219 39867 40103 333 10352 58005;EQDQ01  00002PRCP99
0186825860999992001012012004-05190-039300FM-12+021199999V0200901N003112200019N0200001N1+02861+02231101191ADDAA199000091GF104991021021008001061011KA1240N+02351MA1999999098831MD1999999+0001REMSYN076AAXX  20124 82586 32598 40906 10286 20223 39883 40119 82261 333 20235 58000;EQDQ01  00002PRCP99
0167825860999992001012018004-05190-039300FM-12+021199999V0200901N003110075019N0200001N1+03561+01681100851ADDAA199000091GF105991051021008001001001MA1999999098511MD1999999+0041REMSYN070AAXX  20184 82586 32598 50906 10356 20168 39851 40085 85200 333 58004;EQDQ01  00002PRCP99
0196825860999992001012100004-05190-039300FM-12+021199999V0200501N005112200019N0010001N1+02821+02171101011ADDAA199000091GA1001+999999999GF100991001001999999001001KA1240M+03581MA1999999098651MD1999999-0021REMSYN070AAXX  21004 82586 32994 00510 10282 20217 39865 40101 333 10358 59002;EQDQ01  00002PRCP99
0186825860999992001012112004-05190-039300FM-12+021199999V0200501N003110450019N0200001N1+02801+02271101151ADDAA199000091GF108991031021008001021999KA1240N+02351MA1999999098791MD1999999-0041REMSYN076AAXX  21124 82586 32598 80506 10280 20227 39879 40115 8322/ 333 20235 59004;EQDQ01  00002PRCP99
0167825860999992001012118004-05190-039300FM-12+021199999V02099999999990450019N0200001N1+03241+01961100831ADDAA199000091GF108991041021008001021999MA1999999098481MD1999999-0031REMSYN070AAXX  21184 82586 32598 805// 10324 20196 39848 40083 8422/ 333 59003;EQDQ01  00002PRCP99
0196825860999992001012200004-05190-039300FM-12+021199999V02099999999992200019N0010001N1+02761+02281101051ADDAA199000091GA1001+999999999GF100991001001999999001001KA1240M+03221MA1999999098691MD1999999+0041REMSYN070AAXX  22004 82586 32994 005// 10276 20228 39869 40105 333 10322 58004;EQDQ01  00002PRCP99
0186825860999992001012212004-05190-039300FM-12+021199999V0200501N004610075019N0200001N1+02701+02371101171ADDAA199000091GF107991071041008001001001KA1240N+02421MA1999999098811MD1999999+0021REMSYN076AAXX  22124 82586 32598 70509 10270 20237 39881 40117 87400 333 20242 58002;EQDQ01  00002PRCP99
0167825860999992001012218004-05190-039300FM-12+021199999V0200501N005110450019N0200001N1+03441+01841100821ADDAA199000091GF107991031021008001021001MA1999999098481MD1999999+0001REMSYN070AAXX  22184 82586 32598 70510 10344 20184 39848 40082 83220 333 58000;EQDQ01  00002PRCP99
0196825860999992001012300004-05190-039300FM-12+021199999V0200501N000512200019N0010001N1+02761+02341100951ADDAA199000091GA1001+999999999GF100991001001999999001001KA1240M+03521MA1999999098591MD1999999-0101REMSYN070AAXX  23004 82586 32994 00501 10276 20234 39859 40095 333 10352 59010;EQDQ01  00002PRCP99
0186825860999992001012312004-05190-039300FM-12+021199999V0200901N003110075019N0200001N1+02801+02201101061ADDAA199000091GF106991061041008001001001KA1240N+02401MA1999999098701MD1999999-0111REMSYN076AAXX  23124 82586 32598 60906 10280 20220 39870 40106 86400 333 20240 59011;EQDQ01  00002PRCP99
0167825860999992001012318004-05190-039300FM-12+021199999V0200901N003112200019N0200001N1+03491+01521100741ADDAA199000091GF104991041021008001001001MA1999999098401MD1999999-0081REMSYN070AAXX  23184 82586 32598 40906 10349 20152 39840 40074 84200 333 59008;EQDQ01  00002PRCP99
0196825860999992001012400004-05190-039300FM-12+021199999V0200501N005112200019N0010001N1+02851+02071100911ADDAA199000091GA1001+999999999GF100991001001999999001001KA1240M+03561MA1999999098551MD1999999-0041REMSYN070AAXX  24004 82586 32994 00510 10285 20207 39855 40091 333 10356 59004;EQDQ01  00002PRCP99
0186825860999992001012412004-05190-039300FM-12+021199999V0200901N004110075019N0200001N1+02801+02131101151ADDAA199000091GF106991061041008001001001KA1240N+02481MA1999999098791MD1999999+0091REMSYN076AAXX  24124 82586 32598 60908 10280 20213 39879 40115 86400 333 20248 58009;EQDQ01  00002PRCP99
0167825860999992001012418004-05190-039300FM-12+021199999V0200501N001510075019N0200001N1+03501+01721100811ADDAA199000091GF105991051021008001001001MA1999999098471MD1999999+0071REMSYN070AAXX  24184 82586 32598 50503 10350 20172 39847 40081 85200 333 58007;EQDQ01  00002PRCP99
0196825860999992001012500004-05190-039300FM-12+021199999V0200501N004112200019N0010001N1+02701+02261101011ADDAA199000091GA1001+999999999GF100991001001999999001001KA1240M+03571MA1999999098651MD1999999+0101REMSYN070AAXX  25004 82586 32994 00508 10270 20226 39865 40101 333 10357 58010;EQDQ01  00002PRCP99
0186825860999992001012512004-05190-039300FM-12+021199999V0200901N003610075019N0200001N1+02741+02321101081ADDAA199000091GF106991061041008001001001KA1240N+02401MA1999999098721MD1999999-0071REMSYN076AAXX  25124 82586 32598 60907 10274 20232 39872 40108 86400 333 20240 59007;EQDQ01  00002PRCP99
0167825860999992001012518004-05190-039300FM-12+021199999V0201401N001510075019N0200001N1+03461+01901100761ADDAA199000091GF105991051041008001001001MA1999999098471MD1999999-0051REMSYN070AAXX  25184 82586 32598 51403 10346 20190 39847 40076 85400 333 59005;EQDQ01  00002PRCP99
0196825860999992001012600004-05190-039300FM-12+021199999V0200501N005112200019N0010001N1+02741+01971101001ADDAA199000091GA1001+999999999GF100991001001999999001001KA1240M+03501MA1999999098641MD1999999-0011REMSYN070AAXX  26004 82586 32994 00510 10274 20197 39864 40100 333 10350 59001;EQDQ01  00002PRCP99
0186825860999992001012612004-05190-039300FM-12+021199999V0200501N003110075019N0200001N1+02781+02091101111ADDAA199000091GF105991051021008001001001KA1240N+02381MA1999999098751MD1999999+0031REMSYN076AAXX  26124 82586 32598 50506 10278 20209 39875 40111 85200 333 20238 58003;EQDQ01  00002PRCP99
0167825860999992001012618004-05190-039300FM-12+021199999V0200901N004112200019N0200001N1+03491+01661100771ADDAA199000091GF104991041021008001001001MA1999999098431MD1999999+0011REMSYN070AAXX  26184 82586 32598 40908 10349 20166 39843 40077 84200 333 58001;EQDQ01  00002PRCP99
0196825860999992001012700004-05190-039300FM-12+021199999V0200501N003112200019N0010001N1+02841+02041100891ADDAA199000091GA1001+999999999GF100991001001999999001001KA1240M+03531MA1999999098541MD1999999-0101REMSYN070AAXX  27004 82586 32994 00506 10284 20204 39854 40089 333 10353 59010;EQDQ01  00002PRCP99
0186825860999992001012712004-05190-039300FM-12+021199999V0200901N003110075019N0200001N1+02781+02231101091ADDAA199000091GF106991061021008001001001KA1240N+02441MA1999999098731MD1999999-0021REMSYN076AAXX  27124 82586 32598 60906 10278 20223 39873 40109 86200 333 20244 59002;EQDQ01  00002PRCP99
0167825860999992001012718004-05190-039300FM-12+021199999V0201401N002112200019N0200001N1+03421+01911100821ADDAA199000091GF104991041021008001001001MA1999999098481MD1999999+0051REMSYN070AAXX  27184 82586 32598 41404 10342 20191 39848 40082 84200 333 58005;EQDQ01  00002PRCP99
0196825860999992001012800004-05190-039300FM-12+021199999V0200501N003112200019N0010001N1+02751+02121100951ADDAA199000091GA1001+999999999GF100991001001999999001001KA1240M+03501MA1999999098591MD1999999+0051REMSYN070AAXX  28004 82586 32994 00506 10275 20212 39859 40095 333 10350 58005;EQDQ01  00002PRCP99
0186825860999992001012812004-05190-039300FM-12+021199999V0200901N002110075019N0200001N1+02781+02341101031ADDAA199000091GF106991061021008001001001KA1240N+02361MA1999999098671MD1999999-0011REMSYN076AAXX  28124 82586 32598 60904 10278 20234 39867 40103 86200 333 20236 59001;EQDQ01  00002PRCP99
0167825860999992001012818004-05190-039300FM-12+021199999V02099999999992200019N0200001N1+03441+01761100781ADDAA199000091GF104991041021008001001001MA1999999098441MD1999999-0041REMSYN070AAXX  28184 82586 32598 414// 10344 20176 39844 40078 84200 333 59004;EQDQ01  00002PRCP99
0196825860999992001012900004-05190-039300FM-12+021199999V0200501N005112200019N0010001N1+02781+02061100871ADDAA199000091GA1001+999999999GF100991001001999999001001KA1240M+03501MA1999999098251MD1999999-0071REMSYN070AAXX  29004 82586 32994 00510 10278 20206 39825 40087 333 10350 59007;EQDQ01  00002PRCP99
0186825860999992001012912004-05190-039300FM-12+021199999V0200901N005710075019N0200001N1+02761+02231101031ADDAA199000091GF106991061041008001001001KA1240N+02421MA1999999098671MD1999999+0001REMSYN076AAXX  29124 82586 32598 60911 10276 20223 39867 40103 86400 333 20242 58000;EQDQ01  00002PRCP99
0167825860999992001012918004-05190-039300FM-12+021199999V0200901N001510075019N0200001N1+03391+01621100871ADDAA199000091GF106991061041008001001001MA1999999098531MD1999999+0091REMSYN070AAXX  29184 82586 32598 60903 10339 20162 39853 40087 86400 333 58009;EQDQ01  00002PRCP99
0196825860999992001013000004-05190-039300FM-12+021199999V0200501N005112200019N0010001N1+02841+01961100731ADDAA199000091GA1001+999999999GF100991001001999999001001KA1240M+03491MA1999999098381MD1999999-0141REMSYN070AAXX  30004 82586 32994 00510 10284 20196 39838 40073 333 10349 59014;EQDQ01  00002PRCP99
0202825860999992001013012004-05190-039300FM-12+021199999V0200501N001512200019N0200001N1+02821+02271100921ADDAA199000091GF102991999021008001001011KA1240N+02321MA1999999098561MD1999999-0111REMSYN076AAXX  30124 82586 32598 20503 10282 20227 39856 40092 84201 333 20232 59011;EQDQ01+000042SCOTLCQ02  00002PRCP99
0167825860999992001013018004-05190-039300FM-12+021199999V0200501N002110075019N0200001N1+03391+01791100591ADDAA199000091GF106991061021008001001001MA1999999098521MD1999999-0321REMSYN070AAXX  30184 82586 32598 60504 10339 20179 39852 40059 86200 333 59032;EQDQ01  00002PRCP99
0196825860999992001013100004-05190-039300FM-12+021199999V0200501N003612200019N0010001N1+02801+02081100681ADDAA199000091GA1001+999999999GF100991001001999999001001KA1240M+03361MA1999999098331MD1999999-0061REMSYN070AAXX  31004 82586 32994 00507 10280 20208 39833 40068 333 10336 59006;EQDQ01  00002PRCP99
0201825860999992001013112004-05190-039300FM-12+021199999V0200501N002110450019N0200001N1+02481+02391100941ADDAA124006191AY161061AY251061GF108991041021008001021999KA1240N+02261MA1999999098581MD1999999+0021MW1031REMSYN088AAXX  31124 82586 21598 80504 10248 20239 39858 40094 70365 8422/ 333 20226 58002 60064;
0167825860999992001013118004-05190-039300FM-12+021199999V02099999999992200019N0200001N1+03051+02061100721ADDAA199000091GF106991031021008001001041MA1999999098631MD1999999+0111REMSYN070AAXX  31184 82586 32598 614// 10305 20206 39863 40072 83204 333 58011;EQDQ01  00002PRCP99
0196825860999992001020100004-05190-039300FM-12+021199999V0203601N001512200019N0010001N1+02661+02391100851ADDAA199000091GA1001+999999999GF100991001001999999001001KA1240M+03111MA1999999098471MD1999999+0141REMSYN070AAXX  01004 82586 32994 03603 10266 20239 39847 40085 333 10311 58014;EQDQ01  00002PRCP99
0186825860999992001020112004-05190-039300FM-12+021199999V0200501N001510075019N0200001N1+02621+02411100981ADDAA199000091GF106991061041008001001001KA1240N+02341MA1999999098521MD1999999-0061REMSYN076AAXX  01124 82586 32598 60503 10262 20241 39852 40098 86400 333 20234 59006;EQDQ01  00002PRCP99
0167825860999992001020118004-05190-039300FM-12+021199999V0200501N002610075019N0200001N1+03331+01781100591ADDAA199000091GF106991061021008001001001MA1999999098251MD1999999-0111REMSYN070AAXX  01184 82586 32598 60505 10333 20178 39825 40059 86200 333 59011;EQDQ01  00002PRCP99
0196825860999992001020200004-05190-039300FM-12+021199999V0200501N003112200019N0010001N1+02741+02321100741ADDAA199000091GA1001+999999999GF100991001001999999001001KA1240M+03381MA1999999098381MD1999999-0091REMSYN070AAXX  02004 82586 32994 00506 10274 20232 39838 40074 333 10338 59009;EQDQ01  00002PRCP99
0186825860999992001020212004-05190-039300FM-12+021199999V0200901N001012200019N0200001N1+02721+02281100931ADDAA199000091GF106991041041008001001011KA1240N+02241MA1999999098571MD1999999+0051REMSYN076AAXX  02124 82586 32598 60902 10272 20228 39857 40093 84401 333 20224 58005;EQDQ01  00002PRCP99
0182825860999992001020218004-05190-039300FM-12+021199999V0201801N000510075019N0200001N1+02801+02621100631ADDAA106004191AY161061AY221061GF106991061041008001001001MA1999999098261MD1999999+0011MW1211REMSYN082AAXX  02184 82586 21598 61801 10280 20262 39826 40063 72162 86400 333 58001 60041;
0201825860999992001020300004-05190-039300FM-12+021199999V0203601N001510075019N0010001N1+02481+02341100791ADDAA106007191AY161061AY221061GF106991061021008001001001KA1240M+03351MA1999999098421MD1999999-0041MW1031REMSYN088AAXX  03004 82586 21594 63603 10248 20234 39842 40079 70362 86200 333 10335 59004 60071;
0173825860999992001020312004-05190-039300FM-12+021199999V0200501N003610075019N0200001N1+02781+02461100901ADDAA124009991GF106991061041008001001001KA1240N+02281MA1999999098541MD1999999-0031REMSYN082AAXX  03124 82586 22598 60507 10278 20246 39854 40090 86400 333 20228 59003 60104;
0167825860999992001020318004-05190-039300FM-12+021199999V0200901N004112200019N0200001N1+03321+01971100611ADDAA199000091GF106991031021008001001041MA1999999098271MD1999999+0011REMSYN070AAXX  03184 82586 32598 60908 10332 20197 39827 40061 83204 333 58001;EQDQ01  00002PRCP99
0214825860999992001020400004-05190-039300FM-12+021199999V02099999999992200019N0010001N1+02721+02451100811ADDAA199000091AY121061AY221061GF104991041031008001001001KA1240M+03441MA1999999098451MD1999999+0031MW1131REMSYN082AAXX  04004 82586 31594 405// 10272 20245 39845 40081 71322 84300 333 10344 58003;EQDQ01  00002PRCP99
0202825860999992001020412004-05190-039300FM-12+021199999V0201401N001519999999N0200001N1+02361+02011101061ADDAA199000091GF106991999021008001001001KA1240N+02251MA1999999098681MD1999999+0141REMSYN076AAXX  04124 82586 32598 61403 10236 20201 39868 40106 84200 333 20225 58014;EQDQ01+000042SCOTLCQ02  00002PRCP99
0201825860999992001020418004-05190-039300FM-12+021199999V0201801N000519999999N0200001N1+03221+01571100831ADDAA106000391AY151061AY221061GF106991999021008001001001MA1999999098481MD1999999+0211MW1031REMSYN082AAXX  04184 82586 21598 61801 10322 20157 39848 40083 70352 83200 333 58021 69931;EQDQ01+000032SCOTLC
0202825860999992001020500004-05190-039300FM-12+021199999V0200501N003119999999N0010001N1+02701+02001100941ADDAA199000091GF105991999021008001001001KA1240M+03301MA1999999098581MD1999999+0131REMSYN076AAXX  05004 82586 32594 50506 10270 20200 39858 40094 83200 333 10330 58013;EQDQ01+000032SCOTLCQ02  00002PRCP99
0173825860999992001020512004-05190-039300FM-12+021199999V0200501N003110075019N0200001N1+02741+01761101041ADDAA124000391GF106991061041008001001001KA1240N+02321MA1999999098681MD1999999+0001REMSYN082AAXX  05124 82586 22598 60506 10274 20176 39868 40104 86400 333 20232 58000 69934;
0167825860999992001020518004-05190-039300FM-12+021199999V0200901N003112200019N0200001N1+03361+01141100731ADDAA199000091GF105991021011008001001041MA1999999098391MD1999999-0091REMSYN070AAXX  05184 82586 32598 50906 10336 20114 39839 40073 82104 333 59009;EQDQ01  00002PRCP99
0196825860999992001020600004-05190-039300FM-12+021199999V0200501N005112200019N0010001N1+02801+01301100851ADDAA199000091GA1001+999999999GF100991001001999999001001KA1240M+03421MA1999999098491MD1999999-0091REMSYN070AAXX  06004 82586 32994 00510 10280 20130 39849 40085 333 10342 59009;EQDQ01  00002PRCP99
0186825860999992001020612004-05190-039300FM-12+021199999V0200501N001510075019N0200001N1+02871+01721101051ADDAA199000091GF107991071041008001001001KA1240N+02321MA1999999098691MD1999999+0011REMSYN076AAXX  06124 82586 32598 70503 10287 20172 39869 40105 87400 333 20232 58001;EQDQ01  00002PRCP99
0167825860999992001020618004-05190-039300FM-12+021199999V0200901N001510075019N0200001N1+03421+01311100731ADDAA199000091GF105991051021008001001001MA1999999098391MD1999999+0001REMSYN070AAXX  06184 82586 32598 50903 10342 20131 39839 40073 85200 333 58000;EQDQ01  00002PRCP99
0196825860999992001020700004-05190-039300FM-12+021199999V0200501N003112200019N0010001N1+02801+01841100951ADDAA199000091GA1001+999999999GF100991001001999999001001KA1240M+03521MA1999999098591MD1999999+0101REMSYN070AAXX  07004 82586 32994 00506 10280 20184 39859 40095 333 10352 58010;EQDQ01  00002PRCP99
0167825860999992001020718004-05190-039300FM-12+021199999V0200501N003112200019N0200001N1+03501+00871100691ADDAA199000091GF103991031011008001001001MA1999999098351MD1999999-0041REMSYN070AAXX  07184 82586 32598 30506 10350 20087 39835 40069 83100 333 59004;EQDQ01  00002PRCP99
0196825860999992001020800004-05190-039300FM-12+021199999V0200501N003612200019N0010001N1+02881+01221101001ADDAA199000091GA1001+999999999GF100991001001999999001001KA1240M+03561MA1999999098641MD1999999+0051REMSYN070AAXX  08004 82586 32994 00507 10288 20122 39864 40100 333 10356 58005;EQDQ01  00002PRCP99
0186825860999992001020812004-05190-039300FM-12+021199999V0200901N003612200019N0200001N1+02881+01671100981ADDAA199000091GF104991041021008001001001KA1240N+02381MA1999999098631MD1999999-0041REMSYN076AAXX  08124 82586 32598 40907 10288 20167 39863 40098 84200 333 20238 59004;EQDQ01  00002PRCP99
0167825860999992001020818004-05190-039300FM-12+021199999V0201401N002110075019N0200001N1+03491+01251100611ADDAA199000091GF105991051021008001001001MA1999999098271MD1999999-0081REMSYN070AAXX  08184 82586 32598 51404 10349 20125 39827 40061 85200 333 59008;EQDQ01  00002PRCP99
0186825860999992001020900004-05190-039300FM-12+021199999V0200501N005110075019N0010001N1+02731+01931100791ADDAA199000091GF106991061021008001001001KA1240M+03551MA1999999098441MD1999999-0201REMSYN076AAXX  09004 82586 32594 60510 10273 20193 39844 40079 86200 333 10355 59020;EQDQ01  00002PRCP99
0201825860999992001020912004-05190-039300FM-12+021199999V0200901N003610120019N0200001N1+02761+01991100881ADDAA124000191AY151061AY221061GF108991081081008001999999KA1240N+02461MA1999999098521MD1999999-0111MW1031REMSYN088AAXX  09124 82586 21598 80907 10276 20199 39852 40088 70352 888// 333 20246 59011 69924;
0167825860999992001020918004-05190-039300FM-12+021199999V0201401N003611050019N0200001N1+03441+01631100581ADDAA199000091GF106991031021008001001021MA1999999098241MD1999999-0031REMSYN070AAXX  09184 82586 32598 61407 10344 20163 39824 40058 83202 333 59003;EQDQ01  00002PRCP99
0201825860999992001021000004-05190-039300FM-12+021199999V0200501N003110075019N0010001N1+02661+02331100841ADDAA199000091AY121061AY221061GF108991081091008001999999MA1999999098481MD1999999+0041MW1131REMSYN082AAXX  10004 82586 31594 80506 10266 20233 39848 40084 71322 889// 333 10/// 58004;EQDQ01  00002PRCP99
0201825860999992001021012004-05190-039300FM-12+021199999V0200901N002612200019N0200001N1+02841+02191100891ADDAA124000191AY151061AY221061GF104991041021008001001021KA1240N+02401MA1999999098531MD1999999+0011MW1031REMSYN088AAXX  10124 82586 21598 40905 10284 20219 39853 40089 70352 84202 333 20240 58001 69924;
0167825860999992001021018004-05190-039300FM-12+021199999V0200901N001510075019N0200001N1+03361+01931100581ADDAA199000091GF105991051021008001001001MA1999999098241MD1999999+0001REMSYN070AAXX  10184 82586 32598 50903 10336 20193 39824 40058 85200 333 58000;EQDQ01  00002PRCP99
0183825860999992001021100004-05190-039300FM-12+021199999V0200501N003112200019N0010001N1+02801+02001100801ADDAA199000091GA1001+999999999GF100991001001999999001001MA1999999098451MD1999999-0031REMSYN070AAXX  11004 82586 32994 00506 10280 20200 39845 40080 333 10/// 59003;EQDQ01  00002PRCP99
0186825860999992001021112004-05190-039300FM-12+021199999V02099999999990075019N0200001N1+02721+02051101061ADDAA199000091GF107991071051008001001001KA1240N+02341MA1999999098701MD1999999+0171REMSYN076AAXX  11124 82586 32598 705// 10272 20205 39870 40106 87500 333 20234 58017;EQDQ01  00002PRCP99
0167825860999992001021118004-05190-039300FM-12+021199999V02099999999992200019N0200001N1+03421+01911100721ADDAA199000091GF104991041011008001001001MA1999999098381MD1999999+0141REMSYN070AAXX  11184 82586 32598 409// 10342 20191 39838 40072 84100 333 58014;EQDQ01  00002PRCP99
0183825860999992001021200004-05190-039300FM-12+021199999V0200501N003112200019N0010001N1+02761+02191100891ADDAA199000091GA1001+999999999GF100991001001999999001001MA1999999098531MD1999999+0081REMSYN070AAXX  12004 82586 32994 00506 10276 20219 39853 40089 333 10/// 58008;EQDQ01  00002PRCP99
0186825860999992001021212004-05190-039300FM-12+021199999V0200901N003110075019N0200001N1+02721+02451101001ADDAA199000091GF106991061041008001001001KA1240N+02361MA1999999098641MD1999999-0061REMSYN076AAXX  12124 82586 32598 60906 10272 20245 39864 40100 86400 333 20236 59006;EQDQ01  00002PRCP99
0174825860999992001021218004-05190-039300FM-12+021199999V0202701N000510075019N0200001N1+03031+02391100721ADDAA199000091AY121061AY221061GF107991071071008001001001MD1999999-0021MW1151REMSYN070AAXX  12184 82586 31598 72701 10303 20239 40072 71522 87700 333 59002;EQDQ01  00002PRCP99
0188825860999992001021300004-05190-039300FM-12+021199999V0209999C000010075019N0010001N1+02481+02181100961ADDAA106004191AY161061AY221061GF106991061021008001001001MA1999999098591MD1999999+0061MW1031REMSYN088AAXX  13004 82586 21594 60000 10248 20218 39859 40096 70362 86200 333 10/// 58006 60041;
0173825860999992001021312004-05190-039300FM-12+021199999V0201401N002610075019N0200001N1+02761+01891100951ADDAA124004191GF106991061041008001001001KA1240N+02361MA1999999098581MD1999999-0061REMSYN082AAXX  13124 82586 22598 61405 10276 20189 39858 40095 86400 333 20236 59006 60044;
0167825860999992001021318004-05190-039300FM-12+021199999V02099999999990075019N0200001N1+03351+01451100551ADDAA199000091GF105991051021008001001001MA1999999098211MD1999999-0151REMSYN070AAXX  13184 82586 32598 514// 10335 20145 39821 40055 85200 333 59015;EQDQ01  00002PRCP99
0160825860999992001021400004-05190-039300FM-12+021199999V02099999999990075019N0010001N1+02631+02211100901ADDAA106006191GF106991061031008001001001MA1999999098441MD1999999-0151REMSYN082AAXX  14004 82586 21594 605// 10263 20221 39844 40090 86300 333 10/// 59015 60061;
0173825860999992001021412004-05190-039300FM-12+021199999V0200501N003612200019N0200001N1+02741+02001100941ADDAA124006191GF104991041021008001001001KA1240N+02441MA1999999098581MD1999999+0001REMSYN082AAXX  14124 82586 22598 40507 10274 20200 39858 40094 84200 333 20244 58000 60064;
0167825860999992001021418004-05190-039300FM-12+021199999V0200501N003112200019N0200001N1+03461+00981100581ADDAA199000091GF104991021011008001001041MA1999999098241MD1999999+0031REMSYN070AAXX  14184 82586 32598 40506 10346 20098 39824 40058 82104 333 58003;EQDQ01  00002PRCP99
0183825860999992001021500004-05190-039300FM-12+021199999V0200501N003112200019N0010001N1+02861+01651100721ADDAA199000091GA1001+999999999GF100991001001999999001001MA1999999098371MD1999999-0071REMSYN070AAXX  15004 82586 32994 00506 10286 20165 39837 40072 333 10/// 59007;EQDQ01  00002PRCP99
0186825860999992001021512004-05190-039300FM-12+021199999V0200501N003612200019N0200001N1+02741+01611100951ADDAA199000091GF104991041051008001001001KA1240N+02331MA1999999098591MD1999999+0011REMSYN076AAXX  15124 82586 32598 40507 10274 20161 39859 40095 84500 333 20233 58001;EQDQ01  00002PRCP99
0167825860999992001021518004-05190-039300FM-12+021199999V0201801N001510075019N0200001N1+03381+01381100661ADDAA199000091GF106991061021008001001001MA1999999098321MD1999999+0081REMSYN070AAXX  15184 82586 32598 61803 10338 20138 39832 40066 86200 333 58008;EQDQ01  00002PRCP99
0183825860999992001021600004-05190-039300FM-12+021199999V0200901N003112200019N0010001N1+02881+01801100781ADDAA199000091GA1001+999999999GF100991001001999999001001MA1999999098431MD1999999+0061REMSYN070AAXX  16004 82586 32994 00906 10288 20180 39843 40078 333 10/// 58006;EQDQ01  00002PRCP99
0186825860999992001021612004-05190-039300FM-12+021199999V0200901N003110075019N0200001N1+02901+01691101011ADDAA199000091GF106991061021008001001001KA1240N+02321MA1999999098661MD1999999+0031REMSYN076AAXX  16124 82586 32598 60906 10290 20169 39866 40101 86200 333 20232 58003;EQDQ01  00002PRCP99
0167825860999992001021618004-05190-039300FM-12+021199999V0201401N003112200019N0200001N1+03471+01341100711ADDAA199000091GF104991041011008001001001MA1999999098371MD1999999+0051REMSYN070AAXX  16184 82586 32598 41406 10347 20134 39837 40071 84100 333 58005;EQDQ01  00002PRCP99
0196825860999992001021700004-05190-039300FM-12+021199999V0200901N003112200019N0010001N1+02871+01581100851ADDAA199000091GA1001+999999999GF100991001001999999001001KA1240M+03601MA1999999098511MD1999999+0081REMSYN070AAXX  17004 82586 32994 00906 10287 20158 39851 40085 333 10360 58008;EQDQ01  00002PRCP99
0202825860999992001021712004-05190-039300FM-12+021199999V0200901N002619999999N0200001N1+02901+01721101041ADDAA199000091GF106991999011008001001001KA1240N+02381MA1999999098691MD1999999+0031REMSYN076AAXX  17124 82586 32598 60905 10290 20172 39869 40104 82100 333 20238 58003;EQDQ01+000022SCOTLCQ02  00002PRCP99
0167825860999992001021718004-05190-039300FM-12+021199999V0200901N002110075019N0200001N1+03501+01141100751ADDAA199000091GF106991061021008001001001MA1999999098411MD1999999+0041REMSYN070AAXX  17184 82586 32598 60904 10350 20114 39841 40075 86200 333 58004;EQDQ01  00002PRCP99
0196825860999992001021800004-05190-039300FM-12+021199999V0200501N004112200019N0010001N1+02831+01681100881ADDAA199000091GA1001+999999999GF100991001001999999001001KA1240M+03681MA1999999098531MD1999999+0021REMSYN070AAXX  18004 82586 32994 00508 10283 20168 39853 40088 333 10368 58002;EQDQ01  00002PRCP99
0186825860999992001021812004-05190-039300FM-12+021199999V0200901N002110075019N0200001N1+02741+01951101211ADDAA199000091GF107991071071008001001001KA1240N+02521MA1999999098851MD1999999+0161REMSYN076AAXX  18124 82586 32598 70904 10274 20195 39885 40121 87700 333 20252 58016;EQDQ01  00002PRCP99
0167825860999992001021818004-05190-039300FM-12+021199999V0200901N002610075019N0200001N1+03421+01311100861ADDAA199000091GF106991061051008001001001MA1999999098521MD1999999+0111REMSYN070AAXX  18184 82586 32598 60905 10342 20131 39852 40086 86500 333 58011;EQDQ01  00002PRCP99
0196825860999992001021900004-05190-039300FM-12+021199999V0200901N003112200019N0010001N1+02951+01721101011ADDAA199000091GA1001+999999999GF100991001001999999001001KA1240M+03541MA1999999098651MD1999999-0121REMSYN070AAXX  19004 82586 32994 00906 10295 20172 39865 40101 333 10354 59012;EQDQ01  00002PRCP99
0186825860999992001021912004-05190-039300FM-12+021199999V0200501N001510075019N0200001N1+02781+01921101071ADDAA199000091GF106991061071008001001001KA1240N+02481MA1999999098721MD1999999-0131REMSYN076AAXX  19124 82586 32598 60503 10278 20192 39872 40107 86700 333 20248 59013;EQDQ01  00002PRCP99
0167825860999992001021918004-05190-039300FM-12+021199999V0200501N003110075019N0200001N1+03421+01411100821ADDAA199000091GF106991061041008001001001MA1999999098481MD1999999-0041REMSYN070AAXX  19184 82586 32598 60506 10342 20141 39848 40082 86400 333 59004;EQDQ01  00002PRCP99
0186825860999992001022012004-05190-039300FM-12+021199999V0200901N004110075019N0200001N1+02961+01961101001ADDAA199000091GF106991061041008001001001KA1240N+02481MA1999999098651MD1999999-0071REMSYN076AAXX  20124 82586 32598 60908 10296 20196 39865 40100 86400 333 20248 59007;EQDQ01  00002PRCP99
0167825860999992001022018004-05190-039300FM-12+021199999V0201401N004112200019N0200001N1+03521+01391100661ADDAA199000091GF106991031021008001001041MA1999999098331MD1999999-0151REMSYN070AAXX  20184 82586 32598 61408 10352 20139 39833 40066 83204 333 59015;EQDQ01  00002PRCP99
0186825860999992001022100004-05190-039300FM-12+021199999V0200901N003112200019N0010001N1+02851+01761100831ADDAA199000091GF104991041021008001001001KA1240M+03601MA1999999098491MD1999999-0091REMSYN076AAXX  21004 82586 32594 40906 10285 20176 39849 40083 84200 333 10360 59009;EQDQ01  00002PRCP99
0186825860999992001022112004-05190-039300FM-12+021199999V0200901N004610450019N0200001N1+02881+01891100941ADDAA199000091GF108991041021008001021999KA1240N+02521MA1999999098591MD1999999-0061REMSYN076AAXX  21124 82586 32598 80909 10288 20189 39859 40094 8422/ 333 20252 59006;EQDQ01  00002PRCP99
0183825860999992001022118004-05190-039300FM-12+021199999V0201801N002619999999N0200001N1+03321+01611100671ADDAA199000091GF106991999021008001001001MA1999999098331MD1999999+0001REMSYN070AAXX  21184 82586 32598 61805 10332 20161 39833 40067 82200 333 58000;EQDQ01+000022SCOTLCQ02  00002PRCP99
0196825860999992001022200004-05190-039300FM-12+021199999V0200501N004112200019N0010001N1+02821+01911100771ADDAA199000091GA1001+999999999GF100991001001999999001001KA1240M+03461MA1999999098421MD1999999-0071REMSYN070AAXX  22004 82586 32994 00508 10282 20191 39842 40077 333 10346 59007;EQDQ01  00002PRCP99
0186825860999992001022212004-05190-039300FM-12+021199999V0201401N003610450019N0200001N1+02801+01901100961ADDAA199000091GF108991041021008001021999KA1240N+02501MA1999999098601MD1999999+0011REMSYN076AAXX  22124 82586 32598 81407 10280 20190 39860 40096 8422/ 333 20250 58001;EQDQ01  00002PRCP99
0183825860999992001022218004-05190-039300FM-12+021199999V0201401N002119999999N0200001N1+03391+01481100651ADDAA199000091GF106991999021008001001001MA1999999098311MD1999999-0021REMSYN070AAXX  22184 82586 32598 61404 10339 20148 39831 40065 83200 333 59002;EQDQ01+000032SCOTLCQ02  00002PRCP99
0196825860999992001022300004-05190-039300FM-12+021199999V0201401N004612200019N0010001N1+02891+01941100831ADDAA199000091GA1001+999999999GF100991001001999999001001KA1240M+03521MA1999999098481MD1999999+0061REMSYN070AAXX  23004 82586 32994 01409 10289 20194 39848 40083 333 10352 58006;EQDQ01  00002PRCP99
0186825860999992001022312004-05190-039300FM-12+021199999V0200901N001510450019N0200001N1+02841+01961100931ADDAA199000091GF108991041041008001011999KA1240N+02461MA1999999098581MD1999999-0021REMSYN076AAXX  23124 82586 32598 80903 10284 20196 39858 40093 8441/ 333 20246 59002;EQDQ01  00002PRCP99
0167825860999992001022318004-05190-039300FM-12+021199999V0200901N001510075019N0200001N1+03331+01481100681ADDAA199000091GF106991061041008001001001MA1999999098341MD1999999+0031REMSYN070AAXX  23184 82586 32598 60903 10333 20148 39834 40068 86400 333 58003;EQDQ01  00002PRCP99
0186825860999992001022400004-05190-039300FM-12+021199999V02099999999992200019N0010001N1+02721+01791100831ADDAA199000091GF104991041041008001001001KA1240M+03421MA1999999098481MD1999999+0001REMSYN076AAXX  24004 82586 32594 405// 10272 20179 39848 40083 84400 333 10342 58000;EQDQ01  00002PRCP99
0202825860999992001022412004-05190-039300FM-12+021199999V0200901N002619999999N0200001N1+02961+01931100941ADDAA199000091GF105991999011008001001001KA1240N+02401MA1999999098581MD1999999+0001REMSYN076AAXX  24124 82586 32598 50905 10296 20193 39858 40094 82100 333 20240 58000;EQDQ01+000022SCOTLCQ02  00002PRCP99
0202825860999992001022500004-05190-039300FM-12+021199999V0203601N001519999999N0010001N1+03021+01761100761ADDAA199000091GF105991999011008001001001KA1240M+03641MA1999999098421MD1999999-0061REMSYN076AAXX  25004 82586 32594 53603 10302 20176 39842 40076 82100 333 10364 59006;EQDQ01+000022SCOTLCQ02  00002PRCP99
0186825860999992001022512004-05190-039300FM-12+021199999V0200501N003610075019N0200001N1+02881+02031100841ADDAA199000091GF106991061051008001001001KA1240N+02521MA1999999098501MD1999999-0081REMSYN076AAXX  25124 82586 32598 60507 10288 20203 39850 40084 86500 333 20252 59008;EQDQ01  00002PRCP99
0167825860999992001022518004-05190-039300FM-12+021199999V0200501N003112200019N0200001N1+03561+01641100511ADDAA199000091GF104991041021008001001001MA1999999098191MD1999999-0041REMSYN070AAXX  25184 82586 32598 40506 10356 20164 39819 40051 84200 333 59004;EQDQ01  00002PRCP99
0230825860999992001022600004-05190-039300FM-12+021199999V0203601N003619999999N0010001N1+02821+01971100711ADDAA199000091AY121061AY221061GF106991999001008001001001KA1240M+03691MA1999999098371MD1999999-0051MW1131REMSYN082AAXX  26004 82586 31594 63607 10282 20197 39837 40071 71322 83000 333 10369 59005;EQDQ01+000032SCOTLCQ02  00002PRCP99
0186825860999992001022612004-05190-039300FM-12+021199999V0200501N005110075019N0200001N1+02881+01891100861ADDAA199000091GF106991061021008001001001KA1240N+02561MA1999999098511MD1999999+0011REMSYN076AAXX  26124 82586 32598 60510 10288 20189 39851 40086 86200 333 20256 58001;EQDQ01  00002PRCP99
0167825860999992001022618004-05190-039300FM-12+021199999V0201401N001510075019N0200001N1+03421+01561100621ADDAA199000091GF106991061041008001001001MA1999999098281MD1999999+0091REMSYN070AAXX  26184 82586 32598 61403 10342 20156 39828 40062 86400 333 58009;EQDQ01  00002PRCP99
0214825860999992001022700004-05190-039300FM-12+021199999V0200901N003110075019N0010001N1+02761+02041100831ADDAA199000091AY121061AY221061GF106991061031008001001001KA1240M+03541MA1999999098471MD1999999+0101MW1131REMSYN082AAXX  27004 82586 31594 60906 10276 20204 39847 40083 71322 86300 333 10354 58010;EQDQ01  00002PRCP99
0186825860999992001022712004-05190-039300FM-12+021199999V0203601N001510075019N0200001N1+02741+01841100891ADDAA199000091GF105991051021008001001001KA1240N+02401MA1999999098531MD1999999+0021REMSYN076AAXX  27124 82586 32598 53603 10274 20184 39853 40089 85200 333 20240 58002;EQDQ01  00002PRCP99
0167825860999992001022718004-05190-039300FM-12+021199999V02099999999990075019N0200001N1+03361+01461100621ADDAA199000091GF106991061041008001001001MA1999999098221MD1999999+0001REMSYN070AAXX  27184 82586 32598 614// 10336 20146 39822 40062 86400 333 58000;EQDQ01  00002PRCP99
0186825860999992001022800004-05190-039300FM-12+021199999V02099999999992200019N0200001N1+02961+01871100831ADDAA199000091GF104991041021008001001001KA1240M+03651MA1999999098481MD1999999+0011REMSYN076AAXX  28004 82586 32598 405// 10296 20187 39848 40083 84200 333 10365 58001;EQDQ01  00002PRCP99
0186825860999992001022812004-05190-039300FM-12+021199999V0200501N002610075019N0200001N1+02821+02051101001ADDAA199000091GF106991061041008001001001KA1240N+02421MA1999999098651MD1999999-0121REMSYN076AAXX  28124 82586 32598 60505 10282 20205 39865 40100 86400 333 20242 59012;EQDQ01  00002PRCP99
0182825860999992001022818004-05190-039300FM-12+021199999V0202701N002112200019N0200001N1+02941+02241100751ADDAA106005191AY151061AY221061GF104991041041008001001001MA1999999098391MD1999999+0111MW1031REMSYN082AAXX  28184 82586 21598 42704 10294 20224 39839 40075 70352 84400 333 58011 60051;
0226825860999992001030100004-05190-039300FM-12+021199999V0202701N000510075019N0010001N1+02601+02271100921ADDAA199000091AY121061AY221061GF106991061021008001001001KA1240M+03461MA1999999098561MD1999999+0051MW1131REMSYN094AAXX  01004 82586 31594 62701 10260 20227 39856 40092 71322 86200 333 10346 29070 55035 58005;EQDQ01  00002PRCP99
0201825860999992001030112004-05190-039300FM-12+021199999V0201401N002110075019N0200001N1+02681+02181100961ADDAA124007191AY161061AY221061GF107991071041008001001001KA1240N+02281MA1999999098601MD1999999-0051MW1021REMSYN088AAXX  01124 82586 21598 71404 10268 20218 39860 40096 70262 87400 333 20228 59005 60074;
0167825860999992001030118004-05190-039300FM-12+021199999V0201801N003112200019N0200001N1+03141+01841100731ADDAA199000091GF106991031021008001001041MA1999999098371MD1999999-0021REMSYN070AAXX  01184 82586 32598 61806 10314 20184 39837 40073 83204 333 59002;EQDQ01  00002PRCP99
0213825860999992001030200004-05190-039300FM-12+021199999V0202301N001510075019N0010001N1+02421+02261100971ADDAA106015091AY161061AY221061GF108991081091008001999999KA1240M+03291MA1999999098591MD1999999+0031MW1131REMSYN100AAXX  02004 82586 21594 82303 10242 20226 39859 40097 71362 889// 333 10329 29075 55061 58003 60151;
0173825860999992001030212004-05190-039300FM-12+021199999V0201801N003112200019N0200001N1+02621+02281101111ADDAA124015091GF106991031021008001001041KA1240N+02301MA1999999098721MD1999999+0121REMSYN082AAXX  02124 82586 22598 61806 10262 20228 39872 40111 83204 333 20230 58012 60154;
0167825860999992001030218004-05190-039300FM-12+021199999V0203601N005110075019N0200001N1+03341+01491100811ADDAA199000091GF106991061041008001001001MA1999999098471MD1999999+0101REMSYN070AAXX  02184 82586 32598 63610 10334 20149 39847 40081 86400 333 58010;EQDQ01  00002PRCP99
0226825860999992001030300004-05190-039300FM-12+021199999V0201401N005110075019N0010001N1+02761+02161101101ADDAA199000091AY121061AY221061GF107991071031008001001001KA1240M+03441MA1999999098741MD1999999+0151MW1131REMSYN094AAXX  03004 82586 31594 71410 10276 20216 39874 40110 71322 87300 333 10344 29063 55074 58015;EQDQ01  00002PRCP99
0202825860999992001030312004-05190-039300FM-12+021199999V0200901N005719999999N0200001N1+02881+01911101131ADDAA199000091GF105991999011008001001001KA1240N+02261MA1999999097771MD1999999+0051REMSYN076AAXX  03124 82586 32598 50911 10288 20191 39777 40113 82100 333 20226 58005;EQDQ01+000022SCOTLCQ02  00002PRCP99
0167825860999992001030318004-05190-039300FM-12+021199999V0200901N003112200019N0200001N1+03321+01481100931ADDAA199000091GF104991041021008001001001MA1999999098581MD1999999+0111REMSYN070AAXX  03184 82586 32598 40906 10332 20148 39858 40093 84200 333 58011;EQDQ01  00002PRCP99
0213825860999992001030400004-05190-039300FM-12+021199999V0200501N000512200019N0010001N1+02781+02131101021ADDAA106000591AY151061AY221061GF104991041021008001001001KA1240M+03501MA1999999098661MD1999999-0081MW1031REMSYN100AAXX  04004 82586 21594 40501 10278 20213 39866 40102 70352 84200 333 10350 29054 55096 59008 69941;
0173825860999992001030412004-05190-039300FM-12+021199999V0201401N002110075019N0200001N1+02821+01971101191ADDAA124000591GF105991051021008001001001KA1240N+02481MA1999999098831MD1999999+0061REMSYN082AAXX  04124 82586 22598 51404 10282 20197 39883 40119 85200 333 20248 58006 69944;
0167825860999992001030418004-05190-039300FM-12+021199999V0201801N003612200019N0200001N1+03461+01451100791ADDAA199000091GF104991041021008001001001MA1999999098451MD1999999-0131REMSYN070AAXX  04184 82586 32598 41807 10346 20145 39845 40079 84200 333 59013;EQDQ01  00002PRCP99
0198825860999992001030500004-05190-039300FM-12+021199999V0200501N005112200019N0010001N1+02911+01961100951ADDAA199000091GF102991021021008001001001KA1240M+03561MA1999999098571MD1999999-0071REMSYN088AAXX  05004 82586 32594 20510 10291 20196 39857 40095 82200 333 10356 29051 55100 59007;EQDQ01  00002PRCP99
0186825860999992001030512004-05190-039300FM-12+021199999V0200901N003112200019N0200001N1+02961+01871101101ADDAA199000091GF102991021011008001001001KA1240N+02501MA1999999098751MD1999999-0081REMSYN076AAXX  05124 82586 32598 20906 10296 20187 39875 40110 82100 333 20250 59008;EQDQ01  00002PRCP99
0167825860999992001030518004-05190-039300FM-12+021199999V0200501N001512200019N0200001N1+03541+01171100781ADDAA199000091GF104991021011008001001041MA1999999098441MD1999999-0011REMSYN070AAXX  05184 82586 32598 40503 10354 20117 39844 40078 82104 333 59001;EQDQ01  00002PRCP99
0208825860999992001030600004-05190-039300FM-12+021199999V0200501N005112200019N0010001N1+02861+01781100931ADDAA199000091GA1001+999999999GF100991001001999999001001KA1240M+03601MA1999999098611MD1999999+0021REMSYN082AAXX  06004 82586 32994 00510 10286 20178 39861 40093 333 10360 29045 55098 58002;EQDQ01  00002PRCP99
0186825860999992001030612004-05190-039300FM-12+021199999V0200901N005710075019N0200001N1+02921+01891101131ADDAA199000091GF106991061021008001001001KA1240N+02501MA1999999098781MD1999999+0031REMSYN076AAXX  06124 82586 32598 60911 10292 20189 39878 40113 86200 333 20250 58003;EQDQ01  00002PRCP99
0167825860999992001030618004-05190-039300FM-12+021199999V02099999999990075019N0200001N1+03581+01141100801ADDAA199000091GF106991061021008001001001MA1999999098461MD1999999+0021REMSYN070AAXX  06184 82586 32598 614// 10358 20114 39846 40080 86200 333 58002;EQDQ01  00002PRCP99
0208825860999992001030700004-05190-039300FM-12+021199999V0200901N002112200019N0010001N1+02921+01831100951ADDAA199000091GA1001+999999999GF100991001001999999001001KA1240M+03601MA1999999098601MD1999999-0011REMSYN082AAXX  07004 82586 32994 00904 10292 20183 39860 40095 333 10360 29045 55097 59001;EQDQ01  00002PRCP99
0186825860999992001030712004-05190-039300FM-12+021199999V0200901N004112200019N0200001N1+02881+01801101251ADDAA199000091GF106991031011008001001011KA1240N+02421MA1999999098901MD1999999-0121REMSYN076AAXX  07124 82586 32598 60908 10288 20180 39890 40125 83101 333 20242 59012;EQDQ01  00002PRCP99
0167825860999992001030718004-05190-039300FM-12+021199999V0201401N002110075019N0200001N1+03481+01191100931ADDAA199000091GF106991061021008001001001MA1999999098591MD1999999+0131REMSYN070AAXX  07184 82586 32598 61404 10348 20119 39859 40093 86200 333 58013;EQDQ01  00002PRCP99
0198825860999992001030800004-05190-039300FM-12+021199999V0203601N003119999999N0010001N1+02921+01601101071ADDAA199000091GF105991021001008001051041KA1240M+03561MA1999999098721MD1999999+0121REMSYN088AAXX  08004 82586 32594 53606 10292 20160 39872 40107 82054 333 10356 29042 55089 58012;EQDQ01  00002PRCP99
0186825860999992001030812004-05190-039300FM-12+021199999V0200901N003110075019N0200001N1+02941+01971101171ADDAA199000091GF106991061021008001001001KA1240N+02321MA1999999098821MD1999999-0081REMSYN076AAXX  08124 82586 32598 60906 10294 20197 39882 40117 86200 333 20232 59008;EQDQ01  00002PRCP99
0167825860999992001030818004-05190-039300FM-12+021199999V0201801N001510075019N0200001N1+03521+01391100781ADDAA199000091GF106991061041008001001001MA1999999098441MD1999999-0151REMSYN070AAXX  08184 82586 32598 61803 10352 20139 39844 40078 86400 333 59015;EQDQ01  00002PRCP99
0213825860999992001030900004-05190-039300FM-12+021199999V0203601N003110075019N0010001N1+02391+02351101041ADDAA106030091AY191061AY261061GF108991081051008001999999KA1240M+03501MA1999999098681MD1999999-0041MW1621REMSYN100AAXX  09004 82586 21594 83606 10239 20235 39868 40104 76296 885// 333 10350 29070 55070 59004 60301;
0201825860999992001030912004-05190-039300FM-12+021199999V0201401N001510075019N0200001N1+02341+02201101201ADDAA124068191AY161061AY261061GF108991081071008001999999KA1240N+02161MA1999999098801MD1999999-0021MW1511REMSYN088AAXX  09124 82586 21598 81403 10234 20220 39880 40120 75166 887// 333 20216 59002 60684;
0148825860999992001030918004-05190-039300FM-12+021199999V02099999999990075019N0200001N1+02951+02041100891ADDAA199000021GF106991061041008001001001MA1999999098531MD1999999+0111REMSYN070AAXX  09184 82586 32598 605// 10295 20204 39853 40089 86400 333 58011;
0207825860999992001031000004-05190-039300FM-12+021199999V0200501N003110075019N0010001N1+02661+02221101091ADDAA199000021AY121061AY221061GF108991081091008001999999KA1240M+03031MA1999999098701MD1999999+0021MW1131REMSYN094AAXX  10004 82586 31594 80506 10266 20222 39870 40109 71322 889// 333 10303 29076 55025 58002;
0186825860999992001031012004-05190-039300FM-12+021199999V0200501N002110075019N0200001N1+02641+02121101041ADDAA199000091GF106991061021008001001001KA1240N+02301MA1999999098681MD1999999-0121REMSYN076AAXX  10124 82586 32598 60504 10264 20212 39868 40104 86200 333 20230 59012;EQDQ01  00002PRCP99
0167825860999992001031018004-05190-039300FM-12+021199999V0203601N002110075019N0200001N1+03041+02191100841ADDAA199000091GF106991061021008001001001MA1999999098481MD1999999-0051REMSYN070AAXX  10184 82586 32598 63604 10304 20219 39848 40084 86200 333 59005;EQDQ01  00002PRCP99
0178825860999992001031100004-05190-039300FM-12+021199999V0203601N000519999999N0010001N1+02501+02211101041ADDAA199000091GF105991051001008001051001KA1240M+03281MA1999999098661REMSYN082AAXX  11004 82586 32594 53601 10250 20221 39866 40104 85050 333 10328 29076 55071;EQDQ01  00002PRCP99
0186825860999992001031112004-05190-039300FM-12+021199999V0203601N003110075019N0200001N1+02681+02201101061ADDAA199000091GF108991081071008001999999KA1240N+02301MA1999999098691MD1999999+0011REMSYN076AAXX  11124 82586 32598 83606 10268 20220 39869 40106 887// 333 20230 58001;EQDQ01  00002PRCP99
0182825860999992001031118004-05190-039300FM-12+021199999V0200501N003110075019N0200001N1+02571+02401100851ADDAA106000191AY151061AY221061GF108991081071008001999999MA1999999098461MD1999999-0021MW1031REMSYN082AAXX  11184 82586 21598 80506 10257 20240 39846 40085 70352 887// 333 59002 69921;
0213825860999992001031200004-05190-039300FM-12+021199999V0203601N003110075019N0010001N1+02521+02271101021ADDAA106003091AY151061AY221061GF106991061031008001001001KA1240M+03301MA1999999098651MD1999999-0011MW1131REMSYN100AAXX  12004 82586 21594 63606 10252 20227 39865 40102 71352 86300 333 10330 29085 55029 59001 60031;
0201825860999992001031212004-05190-039300FM-12+021199999V0200901N001510075019N0200001N1+02521+02311101131ADDAA124007991AY161061AY251061GF108991081071008001999999KA1240N+02141MA1999999098741MD1999999+0051MW1031REMSYN088AAXX  12124 82586 21598 80903 10252 20231 39874 40113 70365 887// 333 20214 58005 60084;
0182825860999992001031218004-05190-039300FM-12+021199999V0200501N004110075019N0200001N1+02541+02331100991ADDAA106000191AY151061AY221061GF108991081071008001999999MA1999999098591MD1999999+0131MW1031REMSYN082AAXX  12184 82586 21598 80508 10254 20233 39859 40099 70352 887// 333 58013 69921;
0232825860999992001031300004-05190-039300FM-12+021199999V02099999999990075019N0010001N1+02441+02361101191ADDAA106001091AY121061AY221061GF108991081071008001999999KA1240M+99999MA1999999098801MD1999999+0151MW1611REMSYN100AAXX  13004 82586 21594 805// 10244 20236 39880 40119 76122 887// 333 10238 29090 55025 58015 60011;EQDQ01 +02382ATMX  
0173825860999992001031312004-05190-039300FM-12+021199999V0200901N001510075019N0200001N1+02501+02251101171ADDAA124002091GF106991061051008001001001KA1240N+02281MA1999999098801MD1999999+0061REMSYN082AAXX  13124 82586 22598 60903 10250 20225 39880 40117 86500 333 20228 58006 60024;
0167825860999992001031318004-05190-039300FM-12+021199999V0200901N002110075019N0200001N1+03061+01831100861ADDAA199000091GF106991061051008001001001MA1999999098491MD1999999-0101REMSYN070AAXX  13184 82586 32598 60904 10306 20183 39849 40086 86500 333 59010;EQDQ01  00002PRCP99
0198825860999992001031400004-05190-039300FM-12+021199999V0200501N001510075019N0010001N1+02661+02181101001ADDAA199000091GF107991071041008001001001KA1240M+03201MA1999999098631MD1999999-0171REMSYN088AAXX  14004 82586 32594 70503 10266 20218 39863 40100 87400 333 10320 29071 55068 59017;EQDQ01  00002PRCP99
0201825860999992001031412004-05190-039300FM-12+021199999V0201801N002610075019N0200001N1+02421+02351101021ADDAA124005191AY161061AY251061GF108991081071008001999999KA1240N+02321MA1999999098631MD1999999-0171MW1031REMSYN088AAXX  14124 82586 21598 81805 10242 20235 39863 40102 70365 887// 333 20232 59017 60054;
0182825860999992001031418004-05190-039300FM-12+021199999V0202701N000510075019N0200001N1+02761+02211100831ADDAA106005191AY161061AY251061GF106991061051008001001001MA1999999098451MD1999999-0041MW1031REMSYN082AAXX  14184 82586 21598 62701 10276 20221 39845 40083 70365 86500 333 59004 60051;
0232825860999992001031500004-05190-039300FM-12+021199999V0200901N000519999999N0200001N1+02201+02171101011ADDAA106005191AY191061AY261061GF108991999011008001001001KA1240M+02931MA1999999098611MD1999999-0021MW1131REMSYN100AAXX  15004 82586 21598 80901 10220 20217 39861 40101 71396 82100 333 10293 29091 55012 59002 60051;EQDQ01+000022SCOTLC
0201825860999992001031512004-05190-039300FM-12+021199999V0200901N001512200019N0200001N1+02511+02201101131ADDAA124009991AY151061AY221061GF106991031021008001001041KA1240N+02161MA1999999098731MD1999999+0101MW1021REMSYN088AAXX  15124 82586 21598 60903 10251 20220 39873 40113 70252 83204 333 20216 58010 60104;
0167825860999992001031518004-05190-039300FM-12+021199999V0201401N002611050019N0200001N1+02971+02021100861ADDAA199000091GF106991021021008001051041MA1999999098491MD1999999+0041REMSYN070AAXX  15184 82586 32598 61405 10297 20202 39849 40086 82254 333 58004;EQDQ01  00002PRCP99
0198825860999992001031600004-05190-039300FM-12+021199999V02099999999992200019N0010001N1+02491+02231101071ADDAA199000091GF104991041021008001001001KA1240M+03081MA1999999098681MD1999999+0071REMSYN088AAXX  16004 82586 32594 405// 10249 20223 39868 40107 84200 333 10308 29078 55044 58007;EQDQ01  00002PRCP99
0201825860999992001031612004-05190-039300FM-12+021199999V0200501N003110075019N0200001N1+02701+02431101161ADDAA124003091AY161061AY221061GF106991061041008001001001KA1240N+02241MA1999999098731MD1999999+0051MW1031REMSYN088AAXX  16124 82586 21598 60506 10270 20243 39873 40116 70362 86400 333 20224 58005 60034;
0167825860999992001031618004-05190-039300FM-12+021199999V0200901N003110075019N0200001N1+03281+01841100871ADDAA199000091GF106991061041008001001001MA1999999098521MD1999999+0031REMSYN070AAXX  16184 82586 32598 60906 10328 20184 39852 40087 86400 333 58003;EQDQ01  00002PRCP99
0198825860999992001031700004-05190-039300FM-12+021199999V02099999999992200019N0010001N1+02661+02221100991ADDAA199000091GF102991021021008001001001KA1240M+03261MA1999999098631MD1999999-0051REMSYN088AAXX  17004 82586 32594 236// 10266 20222 39863 40099 82200 333 10326 29071 55088 59005;EQDQ01  00002PRCP99
0186825860999992001031712004-05190-039300FM-12+021199999V0203601N001510075019N0200001N1+02731+02171101041ADDAA199000091GF106991061021008001001001KA1240N+02271MA1999999098691MD1999999-0101REMSYN076AAXX  17124 82586 32598 63603 10273 20217 39869 40104 86200 333 20227 59010;EQDQ01  00002PRCP99
0183825860999992001031718004-05190-039300FM-12+021199999V0201401N002119999999N0200001N1+03231+01771100821ADDAA199000091GF105991999021008001001001MA1999999098471MD1999999-0051REMSYN070AAXX  17184 82586 32598 51404 10323 20177 39847 40082 83200 333 59005;EQDQ01+000032SCOTLCQ02  00002PRCP99
0208825860999992001031800004-05190-039300FM-12+021199999V0203201N001512200019N0010001N1+02771+02321100941ADDAA199000091GA1001+999999999GF100991001001999999001001KA1240M+03321MA1999999098581MD1999999-0051REMSYN082AAXX  18004 82586 32994 03203 10277 20232 39858 40094 333 10332 29067 55010 59005;EQDQ01  00002PRCP99
0202825860999992001031812004-05190-039300FM-12+021199999V0200501N003610075019N0200001N1+02721+02121101001ADDAA199000091GF106991999021008001001001KA1240N+02241MA1999999098641MD1999999-0081REMSYN076AAXX  18124 82586 32598 60507 10272 20212 39864 40100 85200 333 20224 59008;EQDQ01+000052SCOTLCQ02  00002PRCP99
0167825860999992001031818004-05190-039300FM-12+021199999V0200901N002612200019N0200001N1+03251+01711100731ADDAA199000091GF104991041011008001001001MA1999999098681MD1999999-0091REMSYN070AAXX  18184 82586 32598 40905 10325 20171 39868 40073 84100 333 59009;EQDQ01  00002PRCP99
0226825860999992001031900004-05190-039300FM-12+021199999V02099999999990075019N0010001N1+02721+02301100871ADDAA199000091AY121061AY221061GF105991051031008001001001KA1240M+03361MA1999999098511MD1999999-0071MW1131REMSYN094AAXX  19004 82586 31594 536// 10272 20230 39851 40087 71322 85300 333 10336 29063 55092 59007;EQDQ01  00002PRCP99
0186825860999992001031912004-05190-039300FM-12+021199999V0200901N002110075019N0200001N1+02681+02181101021ADDAA199000091GF107991071041008001001001KA1240N+02341MA1999999098661MD1999999+0021REMSYN076AAXX  19124 82586 32598 70904 10268 20218 39866 40102 87400 333 20234 58002;EQDQ01  00002PRCP99
0182825860999992001031918004-05190-039300FM-12+021199999V0200501N001510075019N0200001N1+02961+02401100781ADDAA106002091AY161061AY221061GF106991061041008001001001MA1999999098421MD1999999+0041MW1031REMSYN082AAXX  19184 82586 21598 60503 10296 20240 39842 40078 70362 86400 333 58004 60021;
0213825860999992001032000004-05190-039300FM-12+021199999V02099999999990075019N0010001N1+02651+02311100961ADDAA106002091AY161061AY221061GF105991051041008001001001KA1240M+03071MA1999999098601MD1999999+0091MW1031REMSYN100AAXX  20004 82586 21594 505// 10265 20231 39860 40096 70362 85400 333 10307 29078 55029 58009 60021;
0173825860999992001032012004-05190-039300FM-12+021199999V0200901N002110075019N0200001N1+02781+02231101141ADDAA124004191GF106991061041008001001001KA1240N+02321MA1999999098781MD1999999+0121REMSYN082AAXX  20124 82586 22598 60904 10278 20223 39878 40114 86400 333 20232 58012 60044;
0167825860999992001032018004-05190-039300FM-12+021199999V02099999999992200019N0200001N1+03141+01541100911ADDAA199000091GF106991031021008001001041MA1999999098551MD1999999+0131REMSYN070AAXX  20184 82586 32598 605// 10314 20154 39855 40091 83204 333 58013;EQDQ01  00002PRCP99
0198825860999992001032100004-05190-039300FM-12+021199999V0201801N001510075019N0010001N1+02721+02171101071ADDAA199000091GF106991061021008001001001KA1240M+03291MA1999999098711MD1999999+0111REMSYN088AAXX  21004 82586 32594 61803 10272 20217 39871 40107 86200 333 10329 29066 55080 58011;EQDQ01  00002PRCP99
0186825860999992001032112004-05190-039300FM-12+021199999V0201401N003610075019N0200001N1+02861+02141101121ADDAA199000091GF106991061041008001001001KA1240N+02341MA1999999098761MD1999999-0021REMSYN076AAXX  21124 82586 32598 61407 10286 20214 39876 40112 86400 333 20234 59002;EQDQ01  00002PRCP99
0167825860999992001032118004-05190-039300FM-12+021199999V0201801N002610075019N0200001N1+03241+01931100841ADDAA199000091GF106991061041008001001001MA1999999098491MD1999999-0061REMSYN070AAXX  21184 82586 32598 61805 10324 20193 39849 40084 86400 333 59006;EQDQ01  00002PRCP99
0208825860999992001032200004-05190-039300FM-12+021199999V0200501N001512200019N0010001N1+02721+02301100981ADDAA199000091GA1001+999999999GF100991001001999999001001KA1240M+03331MA1999999098621MD1999999-0091REMSYN082AAXX  22004 82586 32994 00503 10272 20230 39862 40098 333 10333 29067 55089 59009;EQDQ01  00002PRCP99
0201825860999992001032212004-05190-039300FM-12+021199999V0201801N001510075019N0200001N1+02421+02211100991ADDAA124002091AY161061AY251061GF106991061041008001001001KA1240N+02161MA1999999098621MD1999999-0141MW1031REMSYN088AAXX  22124 82586 21598 61803 10242 20221 39862 40099 70365 86400 333 20216 59014 60024;
0167825860999992001032218004-05190-039300FM-12+021199999V0201401N004612200019N0200001N1+03091+02011100781ADDAA199000091GF106991031021008001001041MA1999999098421MD1999999-0071REMSYN070AAXX  22184 82586 32598 61409 10309 20201 39842 40078 83204 333 59007;EQDQ01  00002PRCP99
0208825860999992001032300004-05190-039300FM-12+021199999V0200501N002612200019N0010001N1+02621+02071100871ADDAA199000091GA1001+999999999GF100991001001999999001001KA1240M+03171MA1999999098491MD1999999-0131REMSYN082AAXX  23004 82586 32994 00505 10262 20207 39849 40087 333 10317 29071 55061 59013;EQDQ01  00002PRCP99
0186825860999992001032312004-05190-039300FM-12+021199999V0200901N003610075019N0200001N1+02621+02181100961ADDAA199000091GF106991061041008001001001KA1240N+02421MA1999999098591MD1999999-0031REMSYN076AAXX  23124 82586 32598 60907 10262 20218 39859 40096 86400 333 20242 59003;EQDQ01  00002PRCP99
0167825860999992001032318004-05190-039300FM-12+021199999V0201801N002612200019N0200001N1+03201+01891100661ADDAA199000091GF105991021021008001001041MA1999999098311MD1999999-0111REMSYN070AAXX  23184 82586 32598 51805 10320 20189 39831 40066 82204 333 59011;EQDQ01  00002PRCP99
0198825860999992001032400004-05190-039300FM-12+021199999V0209999C000010075019N0010001N1+02661+02221100821ADDAA199000091GF105991051021008001001001KA1240M+03321MA1999999098461MD1999999-0031REMSYN088AAXX  24004 82586 32594 50000 10266 20222 39846 40082 85200 333 10332 29069 55053 59003;EQDQ01  00002PRCP99
0186825860999992001032412004-05190-039300FM-12+021199999V0200901N003112200019N0200001N1+02861+02091100951ADDAA199000091GF104991041021008001001001KA1240N+02301MA1999999098591MD1999999+0001REMSYN076AAXX  24124 82586 32598 40906 10286 20209 39859 40095 84200 333 20230 58000;EQDQ01  00002PRCP99
0167825860999992001032418004-05190-039300FM-12+021199999V0200501N005110075019N0200001N1+03221+01931100761ADDAA199000091GF106991061021008001001001MA1999999098421MD1999999+0111REMSYN070AAXX  24184 82586 32598 60510 10322 20193 39842 40076 86200 333 58011;EQDQ01  00002PRCP99
0208825860999992001032500004-05190-039300FM-12+021199999V0200501N004112200019N0010001N1+02771+02191100951ADDAA199000091GA1001+999999999GF100991001001999999001001KA1240M+03401MA1999999098591MD1999999+0131REMSYN082AAXX  25004 82586 32994 00508 10277 20219 39859 40095 333 10340 29063 55101 58013;EQDQ01  00002PRCP99
0186825860999992001032512004-05190-039300FM-12+021199999V0200901N004110075019N0200001N1+02981+02251101061ADDAA199000091GF106991061041008001001001KA1240N+02421MA1999999098711MD1999999+0121REMSYN076AAXX  25124 82586 32598 60908 10298 20225 39871 40106 86400 333 20242 58012;EQDQ01  00002PRCP99
0182825860999992001032518004-05190-039300FM-12+021199999V0201801N001510075019N0200001N1+03061+02451100851ADDAA106001091AY161061AY221061GF106991061041008001001001MA1999999098501MD1999999+0081MW1031REMSYN082AAXX  25184 82586 21598 61803 10306 20245 39850 40085 70362 86400 333 58008 60011;
0213825860999992001032600004-05190-039300FM-12+021199999V02099999999990075019N0010001N1+02561+02491100961ADDAA106006191AY161061AY221061GF106991061031008001001001KA1240M+03421MA1999999098601MD1999999+0011MW1131REMSYN100AAXX  26004 82586 21594 605// 10256 20249 39860 40096 71362 86300 333 10342 29082 55083 58001 60061;
0201825860999992001032612004-05190-039300FM-12+021199999V0200501N003112200019N0200001N1+02781+02231101041ADDAA124007991AY151061AY221061GF106991041021008001001011KA1240N+02281MA1999999098681MD1999999-0031MW1031REMSYN088AAXX  26124 82586 21598 60506 10278 20223 39868 40104 70352 84201 333 20228 59003 60084;
0167825860999992001032618004-05190-039300FM-12+021199999V0200901N004112200019N0200001N1+03241+01491100841ADDAA199000091GF106991031021008001001041MA1999999098491MD1999999-0011REMSYN070AAXX  26184 82586 32598 60908 10324 20149 39849 40084 83204 333 59001;EQDQ01  00002PRCP99
0186825860999992001032712004-05190-039300FM-12+021199999V0200501N003612200019N0200001N1+02861+02141101031ADDAA199000091GF106991041021008001001011KA1240N+02321MA1999999098671MD1999999-0011REMSYN076AAXX  27124 82586 32598 60507 10286 20214 39867 40103 84201 333 20232 59001;EQDQ01  00002PRCP99
0167825860999992001032718004-05190-039300FM-12+021199999V0201401N000512200019N0100001N1+03181+02311100781ADDAA199000091GF104991031011012501041001MA1999999098971MD1999999-0081REMSYN070AAXX  27184 82586 32697 41401 10318 20231 39897 40078 83140 333 59008;EQDQ01  00002PRCP99
0208825860999992001032800004-05190-039300FM-12+021199999V0200501N002112200019N0010001N1+02691+02061100891ADDAA199000091GA1001+999999999GF100991001001999999001001KA1240M+03421MA1999999098541MD1999999-0051REMSYN082AAXX  28004 82586 32994 00504 10269 20206 39854 40089 333 10342 29060 55098 59005;EQDQ01  00002PRCP99
0202825860999992001032812004-05190-039300FM-12+021199999V0200501N003610075019N0200001N1+02261+02261100991ADDAA199000091GF107991071041008001001001KA1240N+99999MA1999999098631MD1999999-0041REMSYN076AAXX  28124 82586 32598 70507 10226 20226 39863 40099 87400 333 20238 59004;EQDQ01  00002PRCP99Q02 +02382ATMN  
0167825860999992001032818004-05190-039300FM-12+021199999V0201801N002610075019N0200001N1+03321+01971100661ADDAA199000091GF106991061041008001001001MA1999999098321MD1999999+0021REMSYN070AAXX  28184 82586 32598 61805 10332 20197 39832 40066 86400 333 58002;EQDQ01  00002PRCP99
0213825860999992001032900004-05190-039300FM-12+021199999V0200501N003110075019N0010001N1+02601+02391100911ADDAA106030091AY191061AY261061GF106991061041008001001001KA1240M+03501MA1999999098551MD1999999+0011MW1131REMSYN100AAXX  29004 82586 21594 60506 10260 20239 39855 40091 71396 86400 333 10350 29073 55066 58001 60301;
0173825860999992001032912004-05190-039300FM-12+021199999V0200901N003612200019N0200001N1+02761+02231101091ADDAA124025991GF106991041041008001001011KA1240N+02341MA1999999098731MD1999999+0101REMSYN082AAXX  29124 82586 22598 60907 10276 20223 39873 40109 84401 333 20234 58010 60264;
0167825860999992001032918004-05190-039300FM-12+021199999V02099999999990075019N0200001N1+03111+02341100831ADDAA199000091GF106991061041008001001001MA1999999098471MD1999999+0151REMSYN070AAXX  29184 82586 32598 605// 10311 20234 39847 40083 86400 333 58015;EQDQ01  00002PRCP99
0213825860999992001033000004-05190-039300FM-12+021199999V02099999999990075019N0010001N1+02321+02281101051ADDAA106011991AY191061AY261061GF108991081051008001999999KA1240M+03321MA1999999098671MD1999999+0121MW1611REMSYN100AAXX  30004 82586 21594 836// 10232 20228 39867 40105 76196 885// 333 10332 29082 55073 58012 60121;
0201825860999992001033012004-05190-039300FM-12+021199999V0200901N001510075019N0200001N1+02441+02301101121ADDAA124015091AY161061AY251061GF106991061041008001001001KA1240N+02221MA1999999098721MD1999999-0011MW1031REMSYN088AAXX  30124 82586 21598 60903 10244 20230 39872 40112 70365 86400 333 20222 59001 60154;
0167825860999992001033018004-05190-039300FM-12+021199999V0200901N000510450019N0200001N1+03061+02051100911ADDAA199000091GF106991031021008001021001MA1999999098551MD1999999+0081REMSYN070AAXX  30184 82586 32598 60901 10306 20205 39855 40091 83220 333 58008;EQDQ01  00002PRCP99
0198825860999992001033100004-05190-039300FM-12+021199999V0201801N001010075019N0010001N1+02621+02461101051ADDAA199000091GF106991061041008001001001KA1240M+03121MA1999999098661MD1999999-0011REMSYN088AAXX  31004 82586 32594 61802 10262 20246 39866 40105 86400 333 10312 29083 55059 59001;EQDQ01  00002PRCP99
0218825860999992001033112004-05190-039300FM-12+021199999V0201801N000510075019N0200001N1+02501+02211101011ADDAA199000091GF107991999021008001001001KA1240N+02281MA1999999999999MD1999999-0091REMSYN076AAXX  31124 82586 32598 71801 10250 20221 39663 40101 86200 333 20228 59009;EQDQ01+000062SCOTLCQ02  00002PRCP99Q03 096633APOSP 
0199825860999992001033118004-05190-039300FM-12+021199999V0201801N001019999999N0200001N1+02921+02121100851ADDAA199000091GF105991999021008001001001MA1999999098492MD1999999-0061REMSYN070AAXX  31184 82586 32598 51802 10292 20212 39849 40085 82200 333 59006;EQDQ01+000022SCOTLCQ02+098493APOSP Q03  00002PRCP99
0214825860999992001040100004-05190-039300FM-12+021199999V02099999999999999999N0010001N1+02581+02131100941ADDAA199000091GF106991999011012501001001KA1240M+03081MA1999999098591MD1999999-0081REMSYN088AAXX  01004 82586 32694 636// 10258 20213 39859 40094 82100 333 10308 29075 55018 59008;EQDQ01+000022SCOTLCQ02  00002PRCP99
0201825860999992001040112004-05190-039300FM-12+021199999V0201801N003110075019N0200001N1+02521+02091101121ADDAA124000591AY151061AY221061GF106991061051008001001001KA1240N+02291MA1999999098741MD1999999+0111MW1031REMSYN088AAXX  01124 82586 21598 61806 10252 20209 39874 40112 70352 86500 333 20229 58011 69944;
0195825860999992001040118004-05190-039300FM-12+021199999V0201401N003110075019N0200001N1+03141+01971100841ADDAA199000091AY121061AY221061GF106991061071008001001001MA1999999098481MD1999999-0011MW1151REMSYN076AAXX  01184 82586 31598 61406 10314 20197 39848 40084 71522 86700 333 59001;EQDQ01  00002PRCP99
0198825860999992001040200004-05190-039300FM-12+021199999V0200501N003110075019N0010001N1+02581+02151101041ADDAA199000091GF108991081041008001999999KA1240M+03261MA1999999098661MD1999999+0071REMSYN088AAXX  02004 82586 32594 80506 10258 20215 39866 40104 884// 333 10326 29070 55076 58007;EQDQ01  00002PRCP99
0186825860999992001040212004-05190-039300FM-12+021199999V0200501N001510075019N0200001N1+02601+02251101091ADDAA199000091GF108991081071008001999999KA1240N+02241MA1999999098721MD1999999-0021REMSYN076AAXX  02124 82586 32598 80503 10260 20225 39872 40109 887// 333 20224 59002;EQDQ01  00002PRCP99
0167825860999992001040218004-05190-039300FM-12+021199999V0201401N002610075019N0200001N1+03171+02201100891ADDAA199000091GF106991061021008001001001MA1999999098531MD1999999+0051REMSYN070AAXX  02184 82586 32598 61405 10317 20220 39853 40089 86200 333 58005;EQDQ01  00002PRCP99
0213825860999992001040300004-05190-039300FM-12+021199999V0209999C000010075019N0010001N1+02471+02391101091ADDAA106006191AY191061AY261061GF108991081091008001999999KA1240M+03261MA1999999098701MD1999999+0041MW1131REMSYN100AAXX  03004 82586 21594 80000 10247 20239 39870 40109 71396 889// 333 10326 29083 55058 58004 60061;
0201825860999992001040312004-05190-039300FM-12+021199999V0200901N002610075019N0200001N1+02561+02351101111ADDAA124023191AY161061AY251061GF106991061041008001001001KA1240N+02281MA1999999098721MD1999999+0001MW1031REMSYN088AAXX  03124 82586 21598 60905 10256 20235 39872 40111 70365 86400 333 20228 58000 60234;
0182825860999992001040318004-05190-039300FM-12+021199999V0200901N001510075019N0200001N1+02381+02291100921ADDAA106003091AY161061AY221061GF108991081071008001999999MA1999999098521MD1999999-0031MW1201REMSYN082AAXX  03184 82586 21598 80903 10238 20229 39852 40092 72062 887// 333 59003 60031;
0213825860999992001040400004-05190-039300FM-12+021199999V0209999C000010075019N0010001N1+02341+02291101071ADDAA106005191AY161061AY251061GF108991081051008001999999KA1240M+03151MA1999999098671MD1999999-0051MW1031REMSYN100AAXX  04004 82586 21594 80000 10234 20229 39867 40107 70365 885// 333 10315 29092 55043 59005 60051;
0173825860999992001040412004-05190-039300FM-12+021199999V0200901N003110075019N0200001N1+02641+02371101021ADDAA124007191GF108991081071008001999999KA1240N+02261MA1999999098631MD1999999-0091REMSYN082AAXX  04124 82586 22598 80906 10264 20237 39863 40102 887// 333 20226 59009 60074;
0167825860999992001040418004-05190-039300FM-12+021199999V0201401N003110075019N0200001N1+03041+02291100731ADDAA199000091GF105991051011008001001001MA1999999098731MD1999999-0151REMSYN070AAXX  04184 82586 32598 51406 10304 20229 39873 40073 85100 333 59015;EQDQ01  00002PRCP99
0213825860999992001040500004-05190-039300FM-12+021199999V02099999999990075019N0010001N1+02421+02391100981ADDAA106007191AY161061AY221061GF106991061041008001001001KA1240M+03111MA1999999098601MD1999999-0071MW1211REMSYN100AAXX  05004 82586 21594 636// 10242 20239 39860 40098 72162 86400 333 10311 29084 55068 59007 60071;
0173825860999992001040512004-05190-039300FM-12+021199999V0200901N002610075019N0200001N1+02681+02241101051ADDAA124006191GF106991061041008001001001KA1240N+02321MA1999999098681MD1999999+0051REMSYN082AAXX  05124 82586 22598 60905 10268 20224 39868 40105 86400 333 20232 58005 60064;
0167825860999992001040518004-05190-039300FM-12+021199999V0201401N003112200019N0200001N1+03081+02011100841ADDAA199000091GF104991041021008001001001MA1999999098481MD1999999+0111REMSYN070AAXX  05184 82586 32598 41406 10308 20201 39848 40084 84200 333 58011;EQDQ01  00002PRCP99
0208825860999992001040600004-05190-039300FM-12+021199999V0209999C000012200019N0020001N1+02661+02241100991ADDAA199000091GA1001+999999999GF100991001001999999001001KA1240M+03111MA1999999098671MD1999999+0031REMSYN082AAXX  06004 82586 32595 00000 10266 20224 39867 40099 333 10311 29072 55076 58003;EQDQ01  00002PRCP99
0186825860999992001040612004-05190-039300FM-12+021199999V0200901N003612200019N0200001N1+02761+02161101091ADDAA199000091GF106991041021008001001011KA1240N+02201MA1999999098731MD1999999+0051REMSYN076AAXX  06124 82586 32598 60907 10276 20216 39873 40109 84201 333 20220 58005;EQDQ01  00002PRCP99
0167825860999992001040618004-05190-039300FM-12+021199999V02099999999992200019N0200001N1+03161+01991100901ADDAA199000091GF106991031021008001001041MA1999999098541MD1999999+0061REMSYN070AAXX  06184 82586 32598 614// 10316 20199 39854 40090 83204 333 58006;EQDQ01  00002PRCP99
0192825860999992001040700004-05190-039300FM-12+021199999V02099999999999999999N0010001N1+02641+02291101091ADDAA199000091GF106991999999999999999999KA1240M+03201MA1999999098691MD1999999+0061REMSYN082AAXX  07004 82586 32994 636// 10264 20229 39869 40109 333 10320 29071 55103 58006;EQDQ01  00002PRCP99
0186825860999992001040712004-05190-039300FM-12+021199999V0200901N003610075019N0200001N1+02721+02281101151ADDAA199000091GF108991081071008001999999KA1240N+02281MA1999999098781MD1999999+0051REMSYN076AAXX  07124 82586 32598 80907 10272 20228 39878 40115 887// 333 20228 58005;EQDQ01  00002PRCP99
0167825860999992001040718004-05190-039300FM-12+021199999V0200901N003612200019N0200001N1+03061+02051100851ADDAA199000091GF106991031021008001001041MA1999999098491MD1999999-0051REMSYN070AAXX  07184 82586 32598 60907 10306 20205 39849 40085 83204 333 59005;EQDQ01  00002PRCP99
0198825860999992001040800004-05190-039300FM-12+021199999V0200501N000512200019N0010001N1+02661+02241100951ADDAA199000091GF106991041021008001001041KA1240M+03221MA1999999098591MD1999999-0101REMSYN088AAXX  08004 82586 32594 60501 10266 20224 39859 40095 84204 333 10322 29072 55024 59010;EQDQ01  00002PRCP99
0202825860999992001040812004-05190-039300FM-12+021199999V0201401N003119999999N0200001N1+02731+02151100951ADDAA199000091GF106991999021008001001001KA1240N+02301MA1999999098591MD1999999-0191REMSYN076AAXX  08124 82586 32598 61406 10273 20215 39859 40095 83200 333 20230 59019;EQDQ01+000032SCOTLCQ02  00002PRCP99
0183825860999992001040818004-05190-039300FM-12+021199999V0201801N001519999999N0200001N1+03061+02081100811ADDAA199000091GF105991999021008001001001MA1999999098451MD1999999-0041REMSYN070AAXX  08184 82586 32598 51803 10306 20208 39845 40081 83200 333 59004;EQDQ01+000032SCOTLCQ02  00002PRCP99
0214825860999992001040900004-05190-039300FM-12+021199999V0203601N001019999999N0010001N1+02721+02131100891ADDAA199000091GF106991001001999999001041KA1240M+03221MA1999999098531MD1999999-0061REMSYN088AAXX  09004 82586 32594 63602 10272 20213 39853 40089 80004 333 10322 29067 55068 59006;EQDQ01+008002SCOLCBQ02  00002PRCP99
0186825860999992001040912004-05190-039300FM-12+021199999V0200901N003111050019N0200001N1+02741+02101100941ADDAA199000091GF106991031021008001001021KA1240N+02401MA1999999098581MD1999999-0011REMSYN076AAXX  09124 82586 32598 60906 10274 20210 39858 40094 83202 333 20240 59001;EQDQ01  00002PRCP99
0167825860999992001040918004-05190-039300FM-12+021199999V0201401N003110075019N0200001N1+03061+01831100711ADDAA199000091GF108991081051008001999999MA1999999098371MD1999999-0081REMSYN070AAXX  09184 82586 32598 81406 10306 20183 39837 40071 885// 333 59008;EQDQ01  00002PRCP99
0214825860999992001041000004-05190-039300FM-12+021199999V0200501N001019999999N0010001N1+02721+02171100831ADDAA199000091GF107991999021008001001001KA1240M+03201MA1999999098471MD1999999-0061REMSYN088AAXX  10004 82586 32594 70502 10272 20217 39847 40083 84200 333 10320 29065 55049 59006;EQDQ01+000042SCOTLCQ02  00002PRCP99
0202825860999992001041012004-05190-039300FM-12+021199999V0200901N002119999999N0200001N1+02801+02181100931ADDAA199000091GF106991999071008001001001KA1240N+02381MA1999999098571MD1999999-0011REMSYN076AAXX  10124 82586 32598 60904 10280 20218 39857 40093 87700 333 20238 59001;EQDQ01+000072SCOTLCQ02  00002PRCP99
0167825860999992001041018004-05190-039300FM-12+021199999V0201801N004010075019N0200001N1+03021+02311100731ADDAA199000091GF108991081071008001999999MA1999999098371MD1999999+0001REMSYN070AAXX  10181 82586 32598 81804 10302 20231 39837 40073 887// 333 58000;EQDQ01  00002PRCP99
0198825860999992001041100004-05190-039300FM-12+021199999V02099999999990075019N0010001N1+02501+02471100921ADDAA199000091GF108991081071008001999999KA1240M+03201MA1999999098561MD1999999+0091REMSYN088AAXX  11004 82586 32594 836// 10250 20247 39856 40092 887// 333 10320 29083 55059 58009;EQDQ01  00002PRCP99
0201825860999992001041112004-05190-039300FM-12+021199999V0203601N001010075019N0200001N1+02301+02161101171ADDAA124032091AY161061AY251061GF108991081071008001999999KA1240N+02161MA1999999098771MD1999999+0201MW1511REMSYN088AAXX  11124 82586 21598 83602 10230 20216 39877 40117 75165 887// 333 20216 58020 60324;
0134825860999992001041118004-05190-039300FM-12+021199999V0201401N001510075019N0200001N1+02801+02221100951ADDAA199000021GF107991071041008001041001MA1999999098571REMSYN070AAXX  11184 82586 32598 71403 10280 20222 39857 40095 87440 333 05802;
0179825860999992001041200004-05190-039300FM-12+021199999V0203601N002110075019N0010001N1+02541+02401101081ADDAA199000021GF106991061021008001001001KA1240M+03541MA1999999098691MD1999999+0151REMSYN088AAXX  12004 82586 32594 63604 10254 20240 39869 40108 86200 333 10354 29087 55000 58015;
0186825860999992001041212004-05190-039300FM-12+021199999V0201401N001510075019N0200001N1+02641+02291101011ADDAA199000091GF107991071041008001001001KA1240N+02281MA1999999098641MD1999999-0131REMSYN076AAXX  12124 82586 32598 71403 10264 20229 39864 40101 87400 333 20228 59013;EQDQ01  00002PRCP99
0167825860999992001041218004-05190-039300FM-12+021199999V0200901N002110075019N0200001N1+03101+02121100851ADDAA199000091GF106991061021008001001001MA1999999098491MD1999999-0061REMSYN070AAXX  12184 82586 32598 60904 10310 20212 39849 40085 86200 333 59006;EQDQ01  00002PRCP99
0226825860999992001041300004-05190-039300FM-12+021199999V0203601N001510075019N0010001N1+02631+02291100931ADDAA199000091AY121061AY221061GF106991061021008001001001KA1240M+03221MA1999999098571MD1999999-0121MW1131REMSYN094AAXX  13004 82586 31594 63603 10263 20229 39857 40093 71322 86200 333 10322 29075 55056 59012;EQDQ01  00002PRCP99
0186825860999992001041312004-05190-039300FM-12+021199999V0201801N001510450019N0200001N1+02601+02231101011ADDAA199000091GF107991041041008001021001KA1240N+02301MA1999999098641MD1999999+0001REMSYN076AAXX  13124 82586 32598 71803 10260 20223 39864 40101 84420 333 20230 58000;EQDQ01  00002PRCP99
0167825860999992001041318004-05190-039300FM-12+021199999V0200901N003111050019N0200001N1+02901+01941100781ADDAA199000091GF106991031021008001001051MA1999999098421MD1999999-0071REMSYN070AAXX  13184 82586 32598 60906 10290 20194 39842 40078 83205 333 59007;EQDQ01  00002PRCP99
0198825860999992001041400004-05190-039300FM-12+021199999V0209999C000010075019N0010001N1+02591+02311100941ADDAA199000091GF106991061041008001001001KA1240M+03061MA1999999098571MD1999999+0001REMSYN088AAXX  14004 82586 32594 60000 10259 20231 39857 40094 86400 333 10306 29082 55047 58000;EQDQ01  00002PRCP99
0186825860999992001041412004-05190-039300FM-12+021199999V0200501N002110075019N0200001N1+02621+02231100991ADDAA199000091GF107991071041008001001001KA1240N+02281MA1999999098621MD1999999-0021REMSYN076AAXX  14124 82586 32598 70504 10262 20223 39862 40099 87400 333 20228 59002;EQDQ01  00002PRCP99
0167825860999992001041418004-05190-039300FM-12+021199999V02099999999990075019N0200001N1+02541+02471100801ADDAA199000091GF107991071071008001001001MA1999999098421MD1999999+0001REMSYN070AAXX  14184 82586 32598 718// 10254 20247 39842 40080 87700 333 58000;EQDQ01  00002PRCP99
0213825860999992001041500004-05190-039300FM-12+021199999V0203601N002110075019N0010001N1+02361+02331101021ADDAA106004191AY161061AY251061GF108991081071008001999999KA1240M+03181MA1999999098631MD1999999-0061MW1211REMSYN100AAXX  15004 82586 21594 83604 10236 20233 39863 40102 72165 887// 333 10318 29093 55035 59006 60041;
0201825860999992001041512004-05190-039300FM-12+021199999V0200501N001010075019N0200001N1+02461+02071101241ADDAA124005191AY151061AY221061GF107991071071008001001001KA1240N+02201MA1999999098841MD1999999+0221MW1031REMSYN088AAXX  15124 82586 21598 70502 10246 20207 39884 40124 70352 87700 333 20220 58022 60054;
0183825860999992001041518004-05190-039300FM-12+021199999V0203601N001519999999N0200001N1+02711+02261100961ADDAA199000091GF108991999021008001001001MA1999999098581MD1999999+0161REMSYN070AAXX  15184 82586 32598 83603 10271 20226 39858 40096 84200 333 58016;EQDQ01+000042SCOTLCQ02  00002PRCP99
0226825860999992001041600004-05190-039300FM-12+021199999V0201801N001510075019N0010001N1+02331+02181101191ADDAA199000091AY121061AY221061GF106991061021008001001001KA1240M+02821MA1999999098761MD1999999+0161MW1131REMSYN094AAXX  16004 82586 31594 61803 10233 20218 39876 40119 71322 86200 333 10282 29085 55010 58016;EQDQ01  00002PRCP99
0186825860999992001041612004-05190-039300FM-12+021199999V0200901N002610075019N0200001N1+02521+02271101281ADDAA199000091GF108991081071008001999999KA1240N+02201MA1999999098881MD1999999+0041REMSYN076AAXX  16124 82586 32598 80905 10252 20227 39888 40128 887// 333 20220 58004;EQDQ01  00002PRCP99
0145825860999992001041618004-05190-039300FM-12+021199999V0200501N004110075019N0200001N1+02891+02181101031ADDAY151061AY221061GF106991061041008001001001MA1999999098661MW1031REMSYN070AAXX  16184 82586 21598 60508 10289 20218 39866 40103 70352 86400 333;
0173825860999992001041712004-05190-039300FM-12+021199999V0200901N004110075019N0200001N1+02641+02141101131ADDAA124000191GF106991061041008001001001KA1240N+02261MA1999999098751MD1999999-0131REMSYN082AAXX  17124 82586 22598 60908 10264 20214 39875 40113 86400 333 20226 59013 69924;
0167825860999992001041718004-05190-039300FM-12+021199999V0200501N003110075019N0200001N1+03031+02101100891ADDAA199000091GF106991061041008001001001MA1999999098531MD1999999-0131REMSYN070AAXX  17184 82586 32598 60506 10303 20210 39853 40089 86400 333 59013;EQDQ01  00002PRCP99
0214825860999992001041800004-05190-039300FM-12+021199999V0201401N001019999999N0010001N1+02461+02391101011ADDAA199000091GF106991999021008001001001KA1240M+03111MA1999999098631MD1999999-0031REMSYN088AAXX  18004 82586 32594 61402 10246 20239 39863 40101 83200 333 10311 29081 55061 59003;EQDQ01+000032SCOTLCQ02  00002PRCP99
0186825860999992001041812004-05190-039300FM-12+021199999V0200501N004610075019N0200001N1+02701+02281101011ADDAA199000091GF108991081071008001999999KA1240N+02201MA1999999098641MD1999999-0111REMSYN076AAXX  18124 82586 32598 80509 10270 20228 39864 40101 887// 333 20220 59011;EQDQ01  00002PRCP99
0182825860999992001041818004-05190-039300FM-12+021199999V0201801N001510075019N0200001N1+02801+02601100761ADDAA106001091AY161061AY221061GF108991081071008001999999MA1999999098381MD1999999-0151MW1511REMSYN082AAXX  18184 82586 21598 81803 10280 20260 39838 40076 75162 887// 333 59015 60011;
0232825860999992001041900004-05190-039300FM-12+021199999V0209999C000019999999N0100001N1+02321+02291101001ADDAA106025991AY191061AY261061GF108991999011008001001001KA1240M+03091MA1999999098611MD1999999-0021MW1131REMSYN100AAXX  19004 82586 21597 80000 10232 20229 39861 40100 71396 82100 333 10309 29091 55061 59002 60261;EQDQ01+000022SCOTLC
0201825860999992001041912004-05190-039300FM-12+021199999V0200501N001510075019N0200001N1+02561+02331101071ADDAA124029091AY161061AY221061GF108991081071008001999999KA1240N+02281MA1999999098671MD1999999+0031MW1031REMSYN088AAXX  19124 82586 21598 80503 10256 20233 39867 40107 70362 887// 333 20228 58003 60294;
0182825860999992001041918004-05190-039300FM-12+021199999V0201401N001510075019N0200001N1+02511+02241100851ADDAA106006191AY161061AY221061GF108991081071008001999999MA1999999098461MD1999999+0091MW1611REMSYN082AAXX  19184 82586 21598 81403 10251 20224 39846 40085 76162 887// 333 58009 60061;
0198825860999992001042000004-05190-039300FM-12+021199999V0209999C000019999999N0010001N1+02471+02391100991ADDAA199000021GF106991999021008001001001KA1240M+02831MA1999999098601MD1999999-0011REMSYN088AAXX  20004 82586 32594 60000 10247 20239 39860 40099 84200 333 10283 29093 55000 59001;EQDQ01+000042SCOTLC
0201825860999992001042012004-05190-039300FM-12+021199999V0200501N003110075019N0200001N1+02781+02231101111ADDAA124007991AY161061AY251061GF106991061041008001001001KA1240N+02241MA1999999098741MD1999999+0071MW1031REMSYN088AAXX  20124 82586 21598 60506 10278 20223 39874 40111 70365 86400 333 20224 58007 60084;
0167825860999992001042018004-05190-039300FM-12+021199999V0200901N002610075019N0200001N1+02941+02211100831ADDAA199000091GF106991061041008001001001MA1999999098471MD1999999+0011REMSYN070AAXX  20184 82586 32598 60905 10294 20221 39847 40083 86400 333 58001;EQDQ01  00002PRCP99
0213825860999992001042100004-05190-039300FM-12+021199999V0209999C000010075019N0010001N1+02461+02371101041ADDAA106002091AY161061AY221061GF106991061041008001001001KA1240M+03091MA1999999098671MD1999999+0071MW1031REMSYN100AAXX  21004 82586 21594 60000 10246 20237 39867 40104 70362 86400 333 10309 29082 55083 58007 60021;
0201825860999992001042112004-05190-039300FM-12+021199999V0200501N003110075019N0200001N1+02681+02351101171ADDAA124003091AY161061AY221061GF106991061021008001001001KA1240N+02341MA1999999098791MD1999999+0041MW1031REMSYN088AAXX  21124 82586 21598 60506 10268 20235 39879 40117 70362 86200 333 20234 58004 60034;
0183825860999992001042118004-05190-039300FM-12+021199999V02099999999999999999N0200001N1+03011+02001100911ADDAA199000091GF106991999021008001001001MA1999999098551MD1999999+0081REMSYN070AAXX  21184 82586 32598 605// 10301 20200 39855 40091 83200 333 58008;EQDQ01+000032SCOTLCQ02  00002PRCP99
0213825860999992001042200004-05190-039300FM-12+021199999V0203601N001510075019N0010001N1+02431+02281101121ADDAA106000191AY151061AY221061GF105991051041008001001001KA1240M+03161MA1999999098741MD1999999+0071MW1031REMSYN100AAXX  22004 82586 21594 53603 10243 20228 39874 40112 70352 85400 333 10316 29080 55049 58007 69921;
0173825860999992001042212004-05190-039300FM-12+021199999V0200501N004610075019N0200001N1+02641+01981101111ADDAA124000191GF106991061041008001001001KA1240N+02221MA1999999098731MD1999999-0061REMSYN082AAXX  22124 82586 22598 60509 10264 20198 39873 40111 86400 333 20222 59006 69924;
0167825860999992001042218004-05190-039300FM-12+021199999V0200501N004112200019N0200001N1+03041+01761100791ADDAA199000091GF104991041021008001001001MA1999999098431MD1999999-0111REMSYN070AAXX  22184 82586 32598 40508 10304 20176 39843 40079 84200 333 59011;EQDQ01  00002PRCP99
0208825860999992001042300004-05190-039300FM-12+021199999V0203601N002612200019N0010001N1+02631+02271100881ADDAA199000091GA1001+999999999GF100991001001999999001001KA1240M+03201MA1999999098511MD1999999-0231REMSYN082AAXX  23004 82586 32994 03605 10263 20227 39851 40088 333 10320 29072 55104 59023;EQDQ01  00002PRCP99
0186825860999992001042312004-05190-039300FM-12+021199999V0200901N003112200019N0200001N1+02701+01801101011ADDAA199000091GF102991021011008001001001KA1240N+02221MA1999999098641MD1999999-0091REMSYN076AAXX  23124 82586 32598 20906 10270 20180 39864 40101 82100 333 20222 59009;EQDQ01  00002PRCP99
0167825860999992001042318004-05190-039300FM-12+021199999V0201401N003112200019N0200001N1+03081+01821100811ADDAA199000091GF104991041011008001001001MA1999999098451MD1999999+0021REMSYN070AAXX  23184 82586 32598 41406 10308 20182 39845 40081 84100 333 58002;EQDQ01  00002PRCP99
0208825860999992001042400004-05190-039300FM-12+021199999V0203601N001012200019N0010001N1+02581+02251100931ADDAA199000091GA1001+999999999GF100991001001999999001001KA1240M+03181MA1999999098571MD1999999+0061REMSYN082AAXX  24004 82586 32994 03602 10258 20225 39857 40093 333 10318 29067 55108 58006;EQDQ01  00002PRCP99
0186825860999992001042412004-05190-039300FM-12+021199999V0200901N004612200019N0200001N1+02701+02171101071ADDAA199000091GF104991041021008001001041KA1240N+02321MA1999999098701MD1999999+0061REMSYN076AAXX  24124 82586 32598 40909 10270 20217 39870 40107 84204 333 20232 58006;EQDQ01  00002PRCP99
0167825860999992001042418004-05190-039300FM-12+021199999V02099999999992200019N0200001N1+03091+02011100901ADDAA199000091GF106991021021008001001041MA1999999098541MD1999999+0091REMSYN070AAXX  24184 82586 32598 605// 10309 20201 39854 40090 82204 333 58009;EQDQ01  00002PRCP99
0208825860999992001042500004-05190-039300FM-12+021199999V0209999C000012200019N0010001N1+02641+02291101071ADDAA199000091GA1001+999999999GF100991001001999999001001KA1240M+03201MA1999999098701MD1999999+0131REMSYN082AAXX  25004 82586 32994 00000 10264 20229 39870 40107 333 10320 29072 55095 58013;EQDQ01  00002PRCP99
0186825860999992001042512004-05190-039300FM-12+021199999V0200901N002610075019N0200001N1+02721+02081101221ADDAA199000091GF107991071041008001001001KA1240N+02241MA1999999098851MD1999999+0151REMSYN076AAXX  25124 82586 32598 70905 10272 20208 39885 40122 87400 333 20224 58015;EQDQ01  00002PRCP99
0167825860999992001042518004-05190-039300FM-12+021199999V0200501N003110450019N0200001N1+02921+01891101071ADDAA199000091GF107991041011008001021001MA1999999098701MD1999999+0161REMSYN070AAXX  25184 82586 32598 70506 10292 20189 39870 40107 84120 333 58016;EQDQ01  00002PRCP99
0214825860999992001042600004-05190-039300FM-12+021199999V0209999C000019999999N0010001N1+02601+02331101101ADDAA199000091GF106991999011008001001001KA1240M+03111MA1999999098421MD1999999+0031REMSYN088AAXX  26004 82586 32594 60000 10260 20233 39842 40110 82100 333 10311 29073 55017 58003;EQDQ01+000022SCOTLCQ02  00002PRCP99
0186825860999992001042612004-05190-039300FM-12+021199999V0201401N004110075019N0200001N1+02741+02211101161ADDAA199000091GF106991061021008001001001KA1240N+02281MA1999999098791MD1999999-0061REMSYN076AAXX  26124 82586 32598 61408 10274 20221 39879 40116 86200 333 20228 59006;EQDQ01  00002PRCP99
0167825860999992001042618004-05190-039300FM-12+021199999V0200901N003112200019N0200001N1+03181+01731100891ADDAA199000091GF103991021011008001001041MA1999999098531MD1999999-0171REMSYN070AAXX  26184 82586 32598 30906 10318 20173 39853 40089 82104 333 59017;EQDQ01  00002PRCP99
0198825860999992001042700004-05190-039300FM-12+021199999V0209999C000012200019N0010001N1+02661+02241101021ADDAA199000091GF104991041021008001001001KA1240M+03261MA1999999098661MD1999999-0071REMSYN088AAXX  27004 82586 32594 40000 10266 20224 39866 40102 84200 333 10326 29068 55093 59007;EQDQ01  00002PRCP99
0201825860999992001042712004-05190-039300FM-12+021199999V0201401N003110075019N0200001N1+02541+02451101151ADDAA124002091AY121061AY221061GF107991071071008001001001KA1240N+02421MA1999999098771MD1999999-0021MW1611REMSYN088AAXX  27124 82586 21598 71406 10254 20245 39877 40115 76122 87700 333 20242 59002 60024;
0148825860999992001042718004-05190-039300FM-12+021199999V0201401N001510075019N0200001N1+02941+02291100861ADDAA199000021GF106991061041008001001001MA1999999098501MD1999999-0031REMSYN070AAXX  27184 82586 32598 61403 10294 20229 39850 40086 86400 333 59003;
0213825860999992001042800004-05190-039300FM-12+021199999V0201801N002610075019N0010001N1+02371+02331101021ADDAA106027991AY191061AY261061GF108991081091008001999999KA1240M+03081MA1999999098621MD1999999-0041MW1131REMSYN100AAXX  28004 82586 21594 81805 10237 20233 39862 40102 71396 889// 333 10308 29090 55027 59004 60281;
0201825860999992001042812004-05190-039300FM-12+021199999V0201401N004610075019N0200001N1+02621+02251101251ADDAA124046091AY161061AY261061GF108991081071008001999999KA1240N+02241MA1999999098821MD1999999+0051MW1031REMSYN088AAXX  28124 82586 21598 81409 10262 20225 39882 40125 70366 887// 333 20224 58005 60464;
0167825860999992001042818004-05190-039300FM-12+021199999V0201401N001510075019N0200001N1+02821+02271100951ADDAA199000091GF106991061021008001001001MA1999999098581MD1999999+0081REMSYN070AAXX  28184 82586 32598 61403 10282 20227 39858 40095 86200 333 58008;EQDQ01  00002PRCP99
0198825860999992001042900004-05190-039300FM-12+021199999V0203601N001010075019N0010001N1+02521+02381101111ADDAA199000091GF106991061041008001001001KA1240M+02911MA1999999098731MD1999999+0091REMSYN088AAXX  29004 82586 32594 63602 10252 20238 39873 40111 86400 333 10291 29084 55024 58009;EQDQ01  00002PRCP99
0202825860999992001042912004-05190-039300FM-12+021199999V0201401N003112200019N0020001N1+02521+02151101171ADDAA199000091GF104991999051008001999999KA1240N+02261MA1999999098781MD1999999-0041REMSYN076AAXX  29124 82586 32595 41406 10252 20215 39878 40117 885// 333 20226 59004;EQDQ01+000082SCOTLCQ02  00002PRCP99
0167825860999992001042918004-05190-039300FM-12+021199999V0201801N003110075019N0200001N1+02931+01951100851ADDAA199000091GF106991061021008001001001MA1999999098491MD1999999-0091REMSYN070AAXX  29184 82586 32598 61806 10293 20195 39849 40085 86200 333 59009;EQDQ01  00002PRCP99
0198825860999992001043000004-05190-039300FM-12+021199999V0201801N000510075019N0010001N1+02531+02191101051ADDAA199000091GF106991061021008001001001KA1240M+03051MA1999999098611MD1999999-0051REMSYN088AAXX  30004 82586 32594 61801 10253 20219 39861 40105 86200 333 10305 29075 55082 59005;EQDQ01  00002PRCP99
0201825860999992001043012004-05190-039300FM-12+021199999V02099999999992200019N0200001N1+02681+02161101061ADDAA124001091AY161061AY221061GF104991021011008001001011KA1240N+02281MA1999999098691MD1999999-0091MW1031REMSYN088AAXX  30124 82586 21598 405// 10268 20216 39869 40106 70362 82101 333 20228 59009 60014;
0167825860999992001043018004-05190-039300FM-12+021199999V0200901N002610075019N0200001N1+03001+02081100811ADDAA199000091GF106991061041008001001001MA1999999098451MD1999999-0041REMSYN070AAXX  30184 82586 32598 60905 10300 20208 39845 40081 86400 333 59004;EQDQ01  00002PRCP99
0208825860999992001050100004-05190-039300FM-12+021199999V02099999999992200019N0010001N1+02621+02371100951ADDAA199000091GA1001+999999999GF100991001001999999001001KA1240M+03111MA1999999098591MD1999999-0091REMSYN082AAXX  01004 82586 32994 036// 10262 20237 39859 40095 333 10311 29076 55082 59009;EQDQ01  00002PRCP99
0186825860999992001050112004-05190-039300FM-12+021199999V0200501N003110075019N0200001N1+02741+02261101091ADDAA199000091GF106991061041008001001001KA1240N+02321MA1999999098731MD1999999+0041REMSYN076AAXX  01124 82586 32598 60506 10274 20226 39873 40109 86400 333 20232 58004;EQDQ01  00002PRCP99
0167825860999992001050118004-05190-039300FM-12+021199999V0201401N003112200019N0200001N1+03041+02031100881ADDAA199000091GF106991031021008001001041MA1999999098521MD1999999+0071REMSYN070AAXX  01184 82586 32598 61406 10304 20203 39852 40088 83204 333 58007;EQDQ01  00002PRCP99
0214825860999992001050200004-05190-039300FM-12+021199999V0201401N001512200019N0010001N1+02571+02291100991ADDAA199000091GF104991999021008001001001KA1240M+03111MA1999999098631MD1999999+0041REMSYN088AAXX  02004 82586 32594 41403 10257 20229 39863 40099 83200 333 10311 29075 55066 58004;EQDQ01+000032SCOTLCQ02  00002PRCP99
0186825860999992001050212004-05190-039300FM-12+021199999V0200501N003610075019N0200001N1+02761+02041101201ADDAA199000091GF106991061021008001001001KA1240N+02261MA1999999098821MD1999999+0091REMSYN076AAXX  02124 82586 32598 60507 10276 20204 39882 40120 86200 333 20226 58009;EQDQ01  00002PRCP99
0167825860999992001050218004-05190-039300FM-12+021199999V0201401N003112200019N0200001N1+03021+01861101001ADDAA199000091GF104991041011008001001001MA1999999098641MD1999999+0121REMSYN070AAXX  02184 82586 32598 41406 10302 20186 39864 40100 84100 333 58012;EQDQ01  00002PRCP99
0208825860999992001050300004-05190-039300FM-12+021199999V0209999C000012200019N0010001N1+02521+02231101091ADDAA199000091GA1001+999999999GF100991001001999999001001KA1240M+03151MA1999999098721MD1999999+0091REMSYN082AAXX  03004 82586 32994 00000 10252 20223 39872 40109 333 10315 29071 55108 58009;EQDQ01  00002PRCP99
0186825860999992001050312004-05190-039300FM-12+021199999V0200901N004610075019N0200001N1+02761+02161101141ADDAA199000091GF105991051021008001001001KA1240N+02281MA1999999098761MD1999999+0061REMSYN076AAXX  03124 82586 32598 50909 10276 20216 39876 40114 85200 333 20228 58006;EQDQ01  00002PRCP99
0167825860999992001050318004-05190-039300FM-12+021199999V0201401N003612200019N0200001N1+02111+01771100891ADDAA199000091GF102991021021008001001001MA1999999098531MD1999999-0111REMSYN070AAXX  03184 82586 32598 21407 10211 20177 39853 40089 82200 333 59011;EQDQ01  00002PRCP99
0214825860999992001050400004-05190-039300FM-12+021199999V0200501N001012200019N0010001N1+02541+02331100991ADDAA199000091GF103991999011008001001001KA1240M+03201MA1999999098631MD1999999-0091REMSYN088AAXX  04004 82586 32594 30502 10254 20233 39863 40099 82100 333 10320 29073 55099 59009;EQDQ01+000022SCOTLCQ02  00002PRCP99
0186825860999992001050412004-05190-039300FM-12+021199999V0200901N002610075019N0200001N1+02561+02081101061ADDAA199000091GF106991061041008001001001KA1240N+02281MA1999999098681MD1999999-0081REMSYN076AAXX  04124 82586 32598 60905 10256 20208 39868 40106 86400 333 20228 59008;EQDQ01  00002PRCP99
0182825860999992001050418004-05190-039300FM-12+021199999V0201801N002610075019N0200001N1+02761+02341100871ADDAA106001091AY161061AY221061GF108991081071008001999999MA1999999098501MD1999999-0031MW1031REMSYN082AAXX  04184 82586 21598 81805 10276 20234 39850 40087 70362 887// 333 59003 60011;
0198825860999992001050500004-05190-039300FM-12+021199999V0203601N003119999999N0010001N1+02601+02311100961ADDAA199000091GF105991051001012501051001KA1240M+02861MA1999999098591MD1999999-0041REMSYN088AAXX  05004 82586 32694 53606 10260 20231 39859 40096 85050 333 10286 29080 55024 59004;EQDQ01  00002PRCP99
0173825860999992001050512004-05190-039300FM-12+021199999V0200901N002110075019N0200001N1+02621+02211101041ADDAA124001091GF107991071041008001001001KA1240N+02381MA1999999098671MD1999999-0011REMSYN082AAXX  05124 82586 22598 70904 10262 20221 39867 40104 87400 333 20238 59001 60014;
0167825860999992001050518004-05190-039300FM-12+021199999V02099999999990075019N0200001N1+03001+02171100781ADDAA199000091GF105991051021008001001001MA1999999098421MD1999999-0081REMSYN070AAXX  05184 82586 32598 514// 10300 20217 39842 40078 85200 333 59008;EQDQ01  00002PRCP99
0198825860999992001050600004-05190-039300FM-12+021199999V0209999C000012200019N0010001N1+02581+02371100901ADDAA199000091GF103991031021008001001001KA1240M+03111MA1999999098531MD1999999-0061REMSYN088AAXX  06004 82586 32594 30000 10258 20237 39853 40090 83200 333 10311 29079 55057 59006;EQDQ01  00002PRCP99
0186825860999992001050612004-05190-039300FM-12+021199999V0200501N002110075019N0200001N1+02781+02211101081ADDAA199000091GF106991061021008001001001KA1240N+02361MA1999999098721MD1999999+0051REMSYN076AAXX  06124 82586 32598 60504 10278 20221 39872 40108 86200 333 20236 58005;EQDQ01  00002PRCP99
0183825860999992001050618004-05190-039300FM-12+021199999V0201401N001519999999N0200001N1+03081+02101100941ADDAA199000091GF105991999021008001001001MA1999999098481MD1999999+0061REMSYN070AAXX  06184 82586 32598 51403 10308 20210 39848 40094 83200 333 58006;EQDQ01+000032SCOTLCQ02  00002PRCP99
0184825860999992001050700004-05190-039300FM-12+021199999V0203601N001510120019N0010001N1+02661+02371100981ADDAA199000091GF105991051021012501001001KA1240M+03241MA1999999098621REMSYN088AAXX  07004 82586 32694 53603 10266 20237 39862 40098 85200 333 10324 29074 55060 5800/;EQDQ01  00002PRCP99
0186825860999992001050712004-05190-039300FM-12+021199999V0200501N002112200019N0200001N1+02801+02001101091ADDAA199000091GF107991031011008001001041KA1240N+02361MA1999999098731MD1999999+0011REMSYN076AAXX  07124 82586 32598 70504 10280 20200 39873 40109 83104 333 20236 58001;EQDQ01  00002PRCP99
0167825860999992001050718004-05190-039300FM-12+021199999V0200501N001512200019N0200001N1+03161+02121100781ADDAA199000091GF104991041011008001001001MA1999999098431MD1999999-0051REMSYN070AAXX  07184 82586 32598 40503 10316 20212 39843 40078 84100 333 59005;EQDQ01  00002PRCP99
0208825860999992001050800004-05190-039300FM-12+021199999V0203601N003112200019N0010001N1+02631+02311100881ADDAA199000091GA1001+999999999GF100991001001999999001001KA1240M+03221MA1999999098521MD1999999-0101REMSYN082AAXX  08004 82586 32994 03606 10263 20231 39852 40088 333 10322 29071 55086 59010;EQDQ01  00002PRCP99
0186825860999992001050812004-05190-039300FM-12+021199999V0200501N004110075019N0200001N1+02721+02191101021ADDAA199000091GF106991061041008001001001KA1240N+02201MA1999999098661MD1999999-0071REMSYN076AAXX  08124 82586 32598 60508 10272 20219 39866 40102 86400 333 20220 59007;EQDQ01  00002PRCP99
0167825860999992001050818004-05190-039300FM-12+021199999V02099999999990075019N0200001N1+03161+02051100771ADDAA199000091GF106991061041008001001001MA1999999098411MD1999999-0021REMSYN070AAXX  08184 82586 32598 636// 10316 20205 39841 40077 86400 333 59002;EQDQ01  00002PRCP99
0192825860999992001050900004-05190-039300FM-12+021199999V02099999999999999999N0010001N1+02661+02331100891ADDAA199000091GF106991999999999999999999KA1240M+03221MA1999999098531MD1999999+0011REMSYN082AAXX  09004 82586 32994 605// 10266 20233 39853 40089 333 10322 29072 55088 58001;EQDQ01  00002PRCP99
0186825860999992001050912004-05190-039300FM-12+021199999V0200501N004110075019N0200001N1+02701+02131100901ADDAA199000091GF108991081071008001999999KA1240N+02281MA1999999098541MD1999999-0121REMSYN076AAXX  09124 82586 32598 80508 10270 20213 39854 40090 887// 333 20228 59012;EQDQ01  00002PRCP99
0167825860999992001050918004-05190-039300FM-12+021199999V0200501N002610075019N0200001N1+03201+01991100701ADDAA199000091GF105991051021008001001001MA1999999098341MD1999999-0071REMSYN070AAXX  09184 82586 32598 50505 10320 20199 39834 40070 85200 333 59007;EQDQ01  00002PRCP99
0232825860999992001051000004-05190-039300FM-12+021199999V0209999C000012200019N0010001N1+02541+02441100861ADDAA106001091AY161061AY221061GF102991999021008001001001KA1240M+03301MA1999999098491MD1999999-0041MW1031REMSYN100AAXX  10004 82586 21594 20000 10254 20244 39849 40086 70362 83200 333 10330 29077 55058 59004 60011;EQDQ01+000032SCOTLC
0173825860999992001051012004-05190-039300FM-12+021199999V0200501N003110075019N0200001N1+02721+02321100941ADDAA124001091GF107991071071008001001001KA1240N+02401MA1999999098581MD1999999+0041REMSYN082AAXX  10124 82586 22598 70506 10272 20232 39858 40094 87700 333 20240 58004 60014;
0167825860999992001051018004-05190-039300FM-12+021199999V0201801N003110450019N0200001N1+03091+02011100731ADDAA199000091GF108991041021008001021999MA1999999098371MD1999999+0031REMSYN070AAXX  10184 82586 32598 81806 10309 20201 39837 40073 8422/ 333 58003;EQDQ01  00002PRCP99
0192825860999992001051100004-05190-039300FM-12+021199999V0203601N001512200019N0010001N1+02541+02331100881ADDAA199000091GF104991999999999999999999KA1240M+03241MA1999999098521MD1999999+0031REMSYN082AAXX  11004 82586 32994 43603 10254 20233 39852 40088 333 10324 29078 55052 58003;EQDQ01  00002PRCP99
0186825860999992001051112004-05190-039300FM-12+021199999V0200501N003611050019N0200001N1+02781+02131101061ADDAA199000091GF106991041021008001001021KA1240N+02361MA1999999098691MD1999999+0111REMSYN076AAXX  11124 82586 32598 60507 10278 20213 39869 40106 84202 333 20236 58011;EQDQ01  00002PRCP99
0167825860999992001051118004-05190-039300FM-12+021199999V0203601N003112200019N0200001N1+03161+01821100831ADDAA199000091GF104991041021008001001001MA1999999098481MD1999999+0111REMSYN070AAXX  11184 82586 32598 43606 10316 20182 39848 40083 84200 333 58011;EQDQ01  00002PRCP99
0208825860999992001051200004-05190-039300FM-12+021199999V0203601N001512200019N0010001N1+02711+02281100981ADDAA199000091GA1001+999999999GF100991001001999999001001KA1240M+03341MA1999999098621MD1999999+0101REMSYN082AAXX  12004 82586 32994 03603 10271 20228 39862 40098 333 10334 29067 55092 58010;EQDQ01  00002PRCP99
0186825860999992001051212004-05190-039300FM-12+021199999V0200501N004110075019N0200001N1+02801+02251101131ADDAA199000091GF106991061041008001001001KA1240N+02381MA1999999098771MD1999999+0081REMSYN076AAXX  12124 82586 32598 60508 10280 20225 39877 40113 86400 333 20238 58008;EQDQ01  00002PRCP99
0167825860999992001051218004-05190-039300FM-12+021199999V0200501N001510075019N0200001N1+03281+01821100921ADDAA199000091GF106991061041008001001001MA1999999098561MD1999999+0081REMSYN070AAXX  12184 82586 32598 60503 10328 20182 39856 40092 86400 333 58008;EQDQ01  00002PRCP99
0208825860999992001051300004-05190-039300FM-12+021199999V0203601N003112200019N0010001N1+02791+02521101081ADDAA199000091GA1001+999999999GF100991001001999999001001KA1240M+03421MA1999999098731MD1999999+0111REMSYN082AAXX  13004 82586 32994 03606 10279 20252 39873 40108 333 10342 29073 55085 58011;EQDQ01  00002PRCP99
0186825860999992001051312004-05190-039300FM-12+021199999V0200501N005710075019N0200001N1+02821+02201101141ADDAA199000091GF106991061041008001001001KA1240N+02301MA1999999098791MD1999999+0021REMSYN076AAXX  13124 82586 32598 60511 10282 20220 39879 40114 86400 333 20230 58002;EQDQ01  00002PRCP99
0167825860999992001051318004-05190-039300FM-12+021199999V0200901N003112200019N0200001N1+03401+01591100901ADDAA199000091GF104991041021008001001001MA1999999098551MD1999999-0011REMSYN070AAXX  13184 82586 32598 40906 10340 20159 39855 40090 84200 333 59001;EQDQ01  00002PRCP99
0208825860999992001051400004-05190-039300FM-12+021199999V0200501N002112200019N0010001N1+02741+02171101031ADDAA199000091GA1001+999999999GF100991001001999999001001KA1240M+03481MA1999999098671MD1999999-0061REMSYN082AAXX  14004 82586 32994 00504 10274 20217 39867 40103 333 10348 29061 55106 59006;EQDQ01  00002PRCP99
0186825860999992001051412004-05190-039300FM-12+021199999V0200501N003110075019N0200001N1+02711+02061101221ADDAA199000091GF105991051021008001001001KA1240N+02301MA1999999098851MD1999999+0061REMSYN076AAXX  14124 82586 32598 50506 10271 20206 39885 40122 85200 333 20230 58006;EQDQ01  00002PRCP99
0167825860999992001051418004-05190-039300FM-12+021199999V0200501N004612200019N0200001N1+03261+01561100821ADDAA199000091GF104991041021008001001001MA1999999098471MD1999999-0081REMSYN070AAXX  14184 82586 32598 40509 10326 20156 39847 40082 84200 333 59008;EQDQ01  00002PRCP99
0208825860999992001051500004-05190-039300FM-12+021199999V0200501N005112200019N0010001N1+02621+01961100911ADDAA199000091GA1001+999999999GF100991001001999999001001KA1240M+03321MA1999999098551MD1999999-0121REMSYN082AAXX  15004 82586 32994 00510 10262 20196 39855 40091 333 10332 29059 55105 59012;EQDQ01  00002PRCP99
0186825860999992001051512004-05190-039300FM-12+021199999V0201401N003112200019N0200001N1+02721+02001101061ADDAA199000091GF102991021011008001001001KA1240N+02161MA1999999098691MD1999999-0161REMSYN076AAXX  15124 82586 32598 21406 10272 20200 39869 40106 82100 333 20216 59016;EQDQ01  00002PRCP99
0208825860999992001051600004-05200-039300FM-12+021199999V0200501N005112200019N0010001N1+02651+02201100881ADDAA199000091GA1001+999999999GF100991001001999999001001KA1240M+03381MA1999999098521MD1999999-0031REMSYN082AAXX  16004 82586 32994 00510 10265 20220 39852 40088 333 10338 29063 55107 59003;EQDQ01  00002PRCP99
0186825860999992001051612004-05200-039300FM-12+021199999V0201401N003112200019N0200001N1+02701+01991101081ADDAA199000091GF102991021011008001001001KA1240N+02161MA1999999098711MD1999999+0021REMSYN076AAXX  16124 82586 32598 21406 10270 20199 39871 40108 82100 333 20216 58002;EQDQ01  00002PRCP99
0208825860999992001051700004-05190-039300FM-12+021199999V0200501N001512200019N0010001N1+02521+01961101001ADDAA199000091GA1001+999999999GF100991001001999999001001KA1240M+03291MA1999999098631MD1999999+0111REMSYN082AAXX  17004 82586 32994 00503 10252 20196 39863 40100 333 10329 29061 55105 58011;EQDQ01  00002PRCP99
0186825860999992001051712004-05190-039300FM-12+021199999V0200901N003112200019N0200001N1+02821+01941101151ADDAA199000091GF101991011011008001001001KA1240N+02121MA1999999098771MD1999999+0061REMSYN076AAXX  17124 82586 32598 10906 10282 20194 39877 40115 81100 333 20212 58006;EQDQ01  00002PRCP99
0167825860999992001051718004-05190-039300FM-12+021199999V02099999999992200019N0200001N1+03401+01401100931ADDAA199000091GF102991021011008001001001MA1999999098571MD1999999+0081REMSYN070AAXX  17184 82586 32598 205// 10340 20140 39857 40093 82100 333 58008;EQDQ01  00002PRCP99
0208825860999992001051800004-05190-039300FM-12+021199999V02099999999992200019N0010001N1+02701+02031101101ADDAA199000091GA1001+999999999GF100991001001999999001001KA1240M+03491MA1999999098741MD1999999+0111REMSYN082AAXX  18004 82586 32994 005// 10270 20203 39874 40110 333 10349 29056 55107 58011;EQDQ01  00002PRCP99
0186825860999992001051812004-05190-039300FM-12+021199999V0200501N004112200019N0200001N1+02921+01831101211ADDAA199000091GF102991021011008001001001KA1240N+02321MA1999999098851MD1999999+0081REMSYN076AAXX  18124 82586 32598 20508 10292 20183 39885 40121 82100 333 20232 58008;EQDQ01  00002PRCP99
0167825860999992001051818004-05190-039300FM-12+021199999V0201801N002112200019N0200001N1+03321+01611100911ADDAA199000091GF101991011011008001001001MA1999999098551MD1999999-0021REMSYN070AAXX  18184 82586 32598 11804 10332 20161 39855 40091 81100 333 59002;EQDQ01  00002PRCP99
0240825860999992001051900004-05190-039300FM-12+021199999V0200501N003112200019N0010001N1+02721+02081101091ADDAA199000091GA1001+999999999GF100991001001999999001001KA1240M+03421MA1999999999999MD1999999-0011REMSYN082AAXX  19004 82586 32994 00506 10272 20208 39273 40109 333 10342 29056 55105 59001;EQDQ01+092733APOSP Q02  00002PRCP99Q03 092733APOSP 
0186825860999992001051912004-05190-039300FM-12+021199999V0200901N001010075019N0200001N1+02721+02151101221ADDAA199000091GF106991061041008001001001KA1240N+02161MA1999999098851MD1999999+0001REMSYN076AAXX  19124 82586 32598 60902 10272 20215 39885 40122 86400 333 20216 58000;EQDQ01  00002PRCP99
0167825860999992001051918004-05190-039300FM-12+021199999V0201801N001510075019N0200001N1+03311+01761100871ADDAA199000091GF105991051021008001001001MA1999999098521MD1999999-0031REMSYN070AAXX  19184 82586 32598 51803 10331 20176 39852 40087 85200 333 59003;EQDQ01  00002PRCP99
0208825860999992001052000004-05190-039300FM-12+021199999V0200501N001512200019N0010001N1+02791+02131100991ADDAA199000091GA1001+999999999GF100991001001999999001001KA1240M+03481MA1999999098631MD1999999-0101REMSYN082AAXX  20004 82586 32994 00503 10279 20213 39863 40099 333 10348 29062 55065 59010;EQDQ01  00002PRCP99
0201825860999992001052012004-05190-039300FM-12+021199999V0200501N005110075019N0200001N1+02561+02291101151ADDAA124003091AY161061AY221061GF108991081071008001999999KA1240N+02301MA1999999098771MD1999999-0081MW1031REMSYN088AAXX  20124 82586 21598 80510 10256 20229 39877 40115 70362 887// 333 20230 59008 60034;
0186825860999992001052018004-05190-039300FM-12+021199999V0203601N002610075019N0200001N1+02801+02311100881ADDAA106000191AY151061AY221061GF106991061041008001001001MD1999999-0011MW1031REMSYN082AAXX  20184 82586 21598 63605 10280 20231 31851 40088 70352 86400 333 59001 69921;EQDQ01+018511APOSP 
0198825860999992001052100004-05190-039300FM-12+021199999V0200501N004610075019N0010001N1+02601+02351101011ADDAA199000091GF105991051041008001001001KA1240M+03181MA1999999098641MD1999999+0011REMSYN088AAXX  21004 82586 32594 50509 10260 20235 39864 40101 85400 333 10318 29081 55016 58001;EQDQ01  00002PRCP99
0173825860999992001052112004-05190-039300FM-12+021199999V0200501N001510075019N0200001N1+02721+02121101091ADDAA124000191GF106991061051008001001001KA1240N+02381MA1999999098721MD1999999-0051REMSYN082AAXX  21124 82586 22598 60503 10272 20212 39872 40109 86500 333 20238 59005 69924;
0167825860999992001052118004-05190-039300FM-12+021199999V0201801N001510075019N0200001N1+03111+01871100831ADDAA199000091GF105991051021008001001001MA1999999098481MD1999999-0031REMSYN070AAXX  21184 82586 32598 51803 10311 20187 39848 40083 85200 333 59003;EQDQ01  00002PRCP99
0208825860999992001052200004-05190-039300FM-12+021199999V0201401N001012200019N0010001N1+02701+02281100941ADDAA199000091GA1001+999999999GF100991001001999999001001KA1240M+03231MA1999999098591MD1999999-0041REMSYN082AAXX  22004 82586 32994 01402 10270 20228 39859 40094 333 10323 29069 55067 59004;EQDQ01  00002PRCP99
0186825860999992001052212004-05190-039300FM-12+021199999V0200901N002112200019N0200001N1+02781+01981101041ADDAA199000091GF104991041011008001001001KA1240N+02321MA1999999098681MD1999999-0041REMSYN076AAXX  22124 82586 32598 40904 10278 20198 39868 40104 84100 333 20232 59004;EQDQ01  00002PRCP99
0167825860999992001052218004-05190-039300FM-12+021199999V0201801N002112200019N0200001N1+03161+01731100791ADDAA199000091GF102991021011008001001001MA1999999098441MD1999999-0041REMSYN070AAXX  22184 82586 32598 21804 10316 20173 39844 40079 82100 333 59004;EQDQ01  00002PRCP99
0208825860999992001052300004-05190-039300FM-12+021199999V0209999C000012200019N0010001N1+02721+01931100921ADDAA199000091GA1001+999999999GF100991001001999999001001KA1240M+03321MA1999999098561MD1999999-0031REMSYN082AAXX  23000 82586 32994 00000 10272 20193 39856 40092 333 10332 29058 55084 59003;EQDQ01  00002PRCP99
0186825860999992001052312004-05190-039300FM-12+021199999V0201401N002112200019N0200001N1+02801+02001101061ADDAA199000091GF104991041021008001001001KA1240N+02241MA1999999098701MD1999999+0021REMSYN076AAXX  23124 82586 32598 41404 10280 20200 39870 40106 84200 333 20224 58002;EQDQ01  00002PRCP99
0167825860999992001052318004-05190-039300FM-12+021199999V0201401N003612200019N0200001N1+03301+01641100791ADDAA199000091GF102991021021008001001001MA1999999098451MD1999999+0011REMSYN070AAXX  23184 82586 32598 21407 10330 20164 39845 40079 82200 333 58001;EQDQ01  00002PRCP99
0224825860999992001052400004-05190-039300FM-12+021199999V0200501N004112200019N0010001N1+02631+02271100951ADDAA199000091GA1001+999999999GF100991001001999999001001KA1240M+03341MA1999999097562MD1999999+0031REMSYN082AAXX  24004 82586 32994 00508 10263 20227 39756 40095 333 10334 29065 55106 58003;EQDQ01+097563APOSP Q02  00002PRCP99
0186825860999992001052412004-05190-039300FM-12+021199999V0200901N004110075019N0200001N1+02821+01941101171ADDAA199000091GF105991051021008001001001KA1240N+02401MA1999999098801MD1999999+0101REMSYN076AAXX  24124 82586 32598 50908 10282 20194 39880 40117 85200 333 20240 58010;EQDQ01  00002PRCP99
0167825860999992001052418004-05190-039300FM-12+021199999V0201401N001510075019N0200001N1+03201+01551100891ADDAA199000091GF105991051041008001001001MA1999999098541MD1999999+0091REMSYN070AAXX  24184 82586 32598 51403 10320 20155 39854 40089 85400 333 58009;EQDQ01  00002PRCP99
0208825860999992001052500004-05190-039300FM-12+021199999V0200501N003112200019N0010001N1+02631+02211101021ADDAA199000091GA1001+999999999GF100991001001999999001001KA1240M+03321MA1999999098661MD1999999+0071REMSYN082AAXX  25004 82586 32994 00506 10263 20221 39866 40102 333 10332 29063 55058 58007;EQDQ01  00002PRCP99
0186825860999992001052512004-05190-039300FM-12+021199999V0200501N005110075019N0200001N1+02841+01881101161ADDAA199000091GF105991051021008001001001KA1240N+02321MA1999999098801MD1999999+0001REMSYN076AAXX  25124 82586 32598 50510 10284 20188 39880 40116 85200 333 20232 58000;EQDQ01  00002PRCP99
0167825860999992001052518004-05190-039300FM-12+021199999V0200501N003110075019N0200001N1+03161+01921100961ADDAA199000091GF106991051041008001051001MA1999999098601MD1999999+0061REMSYN070AAXX  25184 82586 32598 60506 10316 20192 39860 40096 85450 333 58006;EQDQ01  00002PRCP99
0208825860999992001052600004-05190-039300FM-12+021199999V0200501N005112200019N0010001N1+02601+02031101051ADDAA199000091GA1001+999999999GF100991001001999999001001KA1240M+03321MA1999999098691MD1999999+0021REMSYN082AAXX  26004 82586 32594 00510 10260 20203 39869 40105 333 10332 29065 55075 58002;EQDQ01  00002PRCP99
0201825860999992001052612004-05190-039300FM-12+021199999V0200501N004612200019N0200001N1+02821+01861101061ADDAA124000191AY151061AY221061GF104991041021008001001001KA1240N+02301MA1999999098701MD1999999-0101MW1031REMSYN088AAXX  26124 82586 21598 40509 10282 20186 39870 40106 70352 84200 333 20230 59010 69924;
0167825860999992001052618004-05190-039300FM-12+021199999V0200901N001510075019N0200001N1+03241+01631100851ADDAA199000091GF105991051021008001001001MA1999999098491MD1999999+0111REMSYN070AAXX  26184 82586 32598 50903 10324 20163 39849 40085 85200 333 58011;EQDQ01  00002PRCP99
0208825860999992001052700004-05190-039300FM-12+021199999V0203601N003112200019N0010001N1+02641+01981100901ADDAA199000091GA1001+999999999GF100991001001999999001001KA1240M+03301MA1999999098541MD1999999-0151REMSYN082AAXX  27004 82586 32994 03606 10264 20198 39854 40090 333 10330 29057 55091 59015;EQDQ01  00002PRCP99
0186825860999992001052712004-05190-039300FM-12+021199999V0200501N003110075019N0200001N1+02821+02021101141ADDAA199000091GF105991051021008001001001KA1240N+02251MA1999999098781MD1999999+0081REMSYN076AAXX  27124 82586 32598 50506 10282 20202 39878 40114 85200 333 20225 58008;EQDQ01  00002PRCP99
0167825860999992001052718004-05190-039300FM-12+021199999V0200501N004612200019N0200001N1+03361+01461100821ADDAA199000091GF104991041021008001001001MA1999999098461MD1999999-0031REMSYN070AAXX  27184 82586 32598 40509 10336 20146 39846 40082 84200 333 59003;EQDQ01  00002PRCP99
0208825860999992001052800004-05190-039300FM-12+021199999V0200501N005112200019N0010001N1+02721+01821101001ADDAA199000091GA1001+999999999GF100991001001999999001001KA1240M+03481MA1999999098641MD1999999+0101REMSYN082AAXX  28004 82586 32994 00510 10272 20182 39864 40100 333 10348 29053 55089 58010;EQDQ01  00002PRCP99
0186825860999992001052812004-05190-039300FM-12+021199999V02099999999990075019N0200001N1+02901+02071101171ADDAA199000091GF106991061021008001001001KA1240N+02401MA1999999098811MD1999999+0031REMSYN076AAXX  28124 82586 32598 605// 10290 20207 39881 40117 86200 333 20240 58003;EQDQ01  00002PRCP99
0167825860999992001052818004-05190-039300FM-12+021199999V0200901N002610075019N0200001N1+03341+01801100901ADDAA199000091GF105991051021008001001001MA1999999098551MD1999999+0111REMSYN070AAXX  28184 82586 32598 50905 10334 20180 39855 40090 85200 333 58011;EQDQ01  00002PRCP99
0224825860999992001052900004-05190-039300FM-12+021199999V0200501N002612200019N0010001N1+02721+01901101041ADDAA199000091GA1001+999999999GF100991001001999999001001KA1240M+99999MA1999999098681MD1999999+0041REMSYN082AAXX  29004 82586 32994 00505 10272 20190 39868 40104 333 10249 29056 55088 58004;EQDQ01  00002PRCP99Q02 +02492ATMX  
0186825860999992001052912004-05190-039300FM-12+021199999V0200901N003610075019N0200001N1+02741+01951101251ADDAA199000091GF107991071041008001001001KA1240N+02321MA1999999098881MD1999999+0071REMSYN076AAXX  29124 82586 32598 70907 10274 20195 39888 40125 87400 333 20232 58007;EQDQ01  00002PRCP99
0167825860999992001052918004-05190-039300FM-12+021199999V0200901N003112200019N0200001N1+03321+01821100981ADDAA199000091GF104991041021008001001001MA1999999098621MD1999999+0071REMSYN070AAXX  29184 82586 32598 40906 10332 20182 39862 40098 84200 333 58007;EQDQ01  00002PRCP99
0208825860999992001053000004-05190-039300FM-12+021199999V0200501N005112200019N0010001N1+02661+02041101141ADDAA199000091GA1001+999999999GF100991001001999999001001KA1240M+03421MA1999999098771MD1999999+0091REMSYN082AAXX  30004 82586 32994 00510 10266 20204 39877 40114 333 10342 29060 55074 58009;EQDQ01  00002PRCP99
0186825860999992001053012004-05190-039300FM-12+021199999V0200901N004612200019N0200001N1+02861+02031101241ADDAA199000091GF104991041021008001001001KA1240N+02421MA1999999098871MD1999999-0011REMSYN076AAXX  30124 82586 32598 40909 10286 20203 39887 40124 84200 333 20242 59001;EQDQ01  00002PRCP99
0167825860999992001053018004-05190-039300FM-12+021199999V0200901N002112200019N0200001N1+03311+01841100951ADDAA199000091GF104991041021008001001001MA1999999098591MD1999999-0031REMSYN070AAXX  30184 82586 32598 40904 10331 20184 39859 40095 84200 333 59003;EQDQ01  00002PRCP99
0208825860999992001053100004-05190-039300FM-12+021199999V0200501N003112200019N0010001N1+02701+01911101031ADDAA199000091GA1001+999999999GF100991001001999999001001KA1240M+03441MA1999999098671MD1999999-0101REMSYN082AAXX  31004 82586 32994 00506 10270 20191 39867 40103 333 10344 29057 55096 59010;EQDQ01  00002PRCP99
0202825860999992001053112004-05190-039300FM-12+021199999V0200901N003119999999N0200001N1+02921+02221101161ADDAA199000091GF106991999021008001001001KA1240N+02321MA1999999098801MD1999999-0071REMSYN076AAXX  31124 82586 32598 60906 10292 20222 39880 40116 87200 333 20232 59007;EQDQ01+000072SCOTLCQ02  00002PRCP99
0183825860999992001053118004-05190-039300FM-12+021199999V0200901N003119999999N0200001N1+03361+01851100861ADDAA199000091GF105991999021008001001001MA1999999098511MD1999999-0081REMSYN070AAXX  31184 82586 32598 50906 10336 20185 39851 40086 84200 333 59008;EQDQ01+000042SCOTLCQ02  00002PRCP99
0198825860999992001060100004-05190-039300FM-12+021199999V0200901N002612200019N0010001N1+02701+02111101021ADDAA199000091GF103991031021008001001001KA1240M+03481MA1999999098661MD1999999-0011REMSYN088AAXX  01004 82586 32594 30905 10270 20211 39866 40102 83200 333 10348 29062 55099 59001;EQDQ01  00002PRCP99
0201825860999992001060112004-05190-039300FM-12+021199999V0200901N002110075019N0200001N1+02701+02081101161ADDAA124000891AY151061AY221061GF106991061041008001001001KA1240N+02361MA1999999098791MD1999999-0011MW1031REMSYN088AAXX  01124 82586 21598 60904 10270 20208 39879 40116 70352 86400 333 20236 59001 69984;
0167825860999992001060118004-05190-039300FM-12+021199999V0200901N003110075019N0200001N1+03261+01761100881ADDAA199000091GF106991061041008001001001MA1999999098531MD1999999+0021REMSYN070AAXX  01184 82586 32598 60906 10326 20176 39853 40088 86400 333 58002;EQDQ01  00002PRCP99
0198825860999992001060200004-05190-039300FM-12+021199999V0203601N001512200019N0010001N1+02561+02191101081ADDAA199000091GF104991041051008001001001KA1240M+03341MA1999999098711MD1999999+0051REMSYN088AAXX  02004 82586 32594 43603 10256 20219 39871 40108 84500 333 10334 29068 55071 58005;EQDQ01  00002PRCP99
0201825860999992001060212004-05190-039300FM-12+021199999V0200901N002110075019N0200001N1+02521+02211101171ADDAA124008991AY161061AY251061GF107991071021008001001001KA1240N+02181MA1999999098791MD1999999+0001MW1031REMSYN088AAXX  02124 82586 21598 70904 10252 20221 39879 40117 70365 87200 333 20218 58000 60094;
0167825860999992001060218004-05190-039300FM-12+021199999V0200501N001510075019N0200001N1+03111+01971100941ADDAA199000091GF106991061021008001001001MA1999999098581MD1999999+0051REMSYN070AAXX  02184 82586 32598 60503 10311 20197 39858 40094 86200 333 58005;EQDQ01  00002PRCP99
0192825860999992001060300004-05190-039300FM-12+021199999V0200501N003112200019N0010001N1+02621+02211101051ADDAA199000091GF104991999999999999999999KA1240M+03221MA1999999098671MD1999999+0041REMSYN082AAXX  03004 82586 32994 40506 10262 20221 39867 40105 333 10322 29073 55079 58004;EQDQ01  00002PRCP99
0186825860999992001060312004-05190-039300FM-12+021199999V0200901N004612200019N0200001N1+02781+01881101021ADDAA199000091GF102991021011008001001001KA1240N+02221MA1999999098661MD1999999-0131REMSYN076AAXX  03124 82586 32598 20909 10278 20188 39866 40102 82100 333 20222 59013;EQDQ01  00002PRCP99
0167825860999992001060318004-05190-039300FM-12+021199999V0201401N003112200019N0200001N1+03241+01751100901ADDAA199000091GF103991031021008001001001MA1999999098541MD1999999-0041REMSYN070AAXX  03184 82586 32598 31406 10324 20175 39854 40090 83200 333 59004;EQDQ01  00002PRCP99
0198825860999992001060400004-05190-039300FM-12+021199999V0203601N005112200019N0010001N1+02641+01951101051ADDAA199000091GF104991041051008001001001KA1240M+03321MA1999999098691MD1999999+0021REMSYN088AAXX  04004 82586 32594 43610 10264 20195 39869 40105 84500 333 10332 29057 55102 58002;EQDQ01  00002PRCP99
0201825860999992001060412004-05190-039300FM-12+021199999V0200901N003110075019N0200001N1+02621+02311101261ADDAA124007991AY161061AY251061GF106991061041008001001001KA1240N+02241MA1999999098881MD1999999+0221MW1031REMSYN088AAXX  04124 82586 21598 60906 10262 20231 39888 40126 70365 86400 333 20224 58022 60084;
0214825860999992001060500004-05190-039300FM-12+021199999V0209999C000012200019N0010001N1+02541+02091101061ADDAA199000091GF102991999021008001001001KA1240M+03221MA1999999098691MD1999999+0001REMSYN088AAXX  05004 82586 32594 20000 10254 20209 39869 40106 83200 333 10322 29071 55100 58000;EQDQ01+000032SCOTLCQ02  00002PRCP99
0201825860999992001060512004-05190-039300FM-12+021199999V0201401N002610075019N0200001N1+02461+02231101191ADDAA124002091AY161061AY221061GF108991081071008001999999KA1240N+02201MA1999999098801MD1999999-0081MW1031REMSYN088AAXX  05124 82586 21598 81405 10246 20223 39880 40119 70362 887// 333 20220 59008 60024;
0167825860999992001060518004-05190-039300FM-12+021199999V0200501N001510075019N0200001N1+03001+01881100991ADDAA199000091GF108991081071008001999999MA1999999098631MD1999999+0021REMSYN070AAXX  05184 82586 32598 80503 10300 20188 39863 40099 887// 333 58002;EQDQ01  00002PRCP99
0213825860999992001060600004-05190-039300FM-12+021199999V0200901N000510075019N0010001N1+02461+02091101171ADDAA106000191AY151061AY221061GF106991061051008001001001KA1240M+03111MA1999999098771MD1999999+0071MW1031REMSYN100AAXX  06004 82586 21594 60901 10246 20209 39877 40117 70352 86500 333 10311 29075 55035 58007 69921;
0173825860999992001060612004-05190-039300FM-12+021199999V0200901N002110075019N0200001N1+02581+02191101231ADDAA124000191GF106991061041008001001001KA1240N+02221MA1999999098841MD1999999+0041REMSYN082AAXX  06124 82586 22598 60904 10258 20219 39884 40123 86400 333 20222 58004 69924;
0167825860999992001060618004-05190-039300FM-12+021199999V0200901N003110075019N0200001N1+03061+01991100891ADDAA199000091GF106991061041008001001001MA1999999098531MD1999999-0101REMSYN070AAXX  06184 82586 32598 60906 10306 20199 39853 40089 86400 333 59010;EQDQ01  00002PRCP99
0214825860999992001060700004-05190-039300FM-12+021199999V0200501N001519999999N0010001N1+02621+02131101031ADDAA199000091GF106991999011008001001001KA1240M+03221MA1999999098751MD1999999-0021REMSYN088AAXX  07004 82586 32594 60503 10262 20213 39875 40103 82100 333 10322 29071 55035 59002;EQDQ01+000022SCOTLCQ02  00002PRCP99
0186825860999992001060712004-05190-039300FM-12+021199999V0200501N003610075019N0200001N1+02601+02191101171ADDAA199000091GF108991081071008001999999KA1240N+02281MA1999999098791MD1999999-0051REMSYN076AAXX  07124 82586 32598 80507 10260 20219 39879 40117 887// 333 20228 59005;EQDQ01  00002PRCP99
0182825860999992001060718004-05190-039300FM-12+021199999V02099999999990075019N0200001N1+02981+02061100951ADDAA106004191AY161061AY221061GF106991061041008001001001MA1999999098591MD1999999+0061MW1031REMSYN082AAXX  07184 82586 21598 618// 10298 20206 39859 40095 70362 86400 333 58006 60041;
0226825860999992001060800004-05190-039300FM-12+021199999V02099999999990075019N0010001N1+02541+02211101111ADDAA199000091AY121061AY221061GF107991071031008001001001KA1240M+03111MA1999999098731MD1999999-0021MW1131REMSYN094AAXX  08004 82586 31594 709// 10254 20221 39873 40111 71322 87300 333 10311 29076 55059 59002;EQDQ01  00002PRCP99
0173825860999992001060812004-05190-039300FM-12+021199999V0200501N003110075019N0200001N1+02621+02161101251ADDAA124004191GF106991061041008001001001KA1240N+02141MA1999999098871MD1999999+0081REMSYN082AAXX  08124 82586 22598 60506 10262 20216 39887 40125 86400 333 20214 58008 60044;
0167825860999992001060818004-05190-039300FM-12+021199999V0201401N001510075019N0200001N1+02901+01901101081ADDAA199000091GF106991061021008001001001MA1999999098711MD1999999+0121REMSYN070AAXX  08184 82586 32598 61403 10290 20190 39871 40108 86200 333 58012;EQDQ01  00002PRCP99
0198825860999992001060900004-05190-039300FM-12+021199999V0203601N004612200019N0010001N1+02501+02001101191ADDAA199000091GF102991021011008001001001KA1240M+03071MA1999999098811MD1999999+0081REMSYN088AAXX  09004 82586 32594 23609 10250 20200 39881 40119 82100 333 10307 29070 55054 58008;EQDQ01  00002PRCP99
0186825860999992001060912004-05190-039300FM-12+021199999V0200901N002610075019N0200001N1+02561+02061101221ADDAA199000091GF106991061021008001001001KA1240N+02181MA1999999098841MD1999999-0031REMSYN076AAXX  09124 82586 32598 60905 10256 20206 39884 40122 86200 333 20218 59003;EQDQ01  00002PRCP99
0208825860999992001061000004-05190-039300FM-12+021199999V0209999C000012200019N0010001N1+02501+02241101131ADDAA199000091GA1001+999999999GF100991001001999999001001KA1240M+03181MA1999999098751MD1999999-0061REMSYN082AAXX  10004 82586 32994 00000 10250 20224 39875 40113 333 10318 29075 55076 59006;EQDQ01  00002PRCP99
0202825860999992001061012004-05190-039300FM-12+021199999V0201801N002119999999N0200001N1+02541+02151101291ADDAA199000091GF105991999021008001001021KA1240N+02101MA1999999098871MD1999999+0031REMSYN076AAXX  10124 82586 32598 51804 10254 20215 39887 40129 86202 333 20210 58003;EQDQ01+000062SCOTLCQ02  00002PRCP99
0167825860999992001061018004-05190-039300FM-12+021199999V0201401N002112200019N0200001N1+03011+01861101021ADDAA199000091GF102991021011008001001001MA1999999098651MD1999999-0041REMSYN070AAXX  10184 82586 32598 21404 10301 20186 39865 40102 82100 333 59004;EQDQ01  00002PRCP99
0214825860999992001061100004-05190-039300FM-12+021199999V0200501N001519999999N0010001N1+02541+02021101131ADDAA199000091GF105991999011008001001001KA1240M+03321MA1999999098731MD1999999-0021REMSYN088AAXX  11004 82586 32594 50503 10254 20202 39873 40113 82100 333 10332 29068 55097 59002;EQDQ01+000022SCOTLCQ02  00002PRCP99
0201825860999992001061112004-05190-039300FM-12+021199999V0201401N003112200019N0200001N1+02501+02071101231ADDAA124020191AY161061AY251061GF103991031011008001001001KA1240N+02141MA1999999098841MD1999999-0031MW1031REMSYN088AAXX  11124 82586 21598 31406 10250 20207 39884 40123 70365 83100 333 20214 59003 60204;
0167825860999992001061118004-05190-039300FM-12+021199999V02099999999990075019N0200001N1+03001+01841100991ADDAA199000091GF106991061041008001001001MA1999999098621MD1999999-0031REMSYN070AAXX  11184 82586 32598 609// 10300 20184 39862 40099 86400 333 59003;EQDQ01  00002PRCP99
0198825860999992001061200004-05190-039300FM-12+021199999V0200501N001510075019N0010001N1+02561+02061101161ADDAA199000091GF105991051021008001001001KA1240M+03131MA1999999098781MD1999999+0051REMSYN088AAXX  12004 82586 32594 50503 10256 20206 39878 40116 85200 333 10313 29069 55095 58005;EQDQ01  00002PRCP99
0201825860999992001061212004-05190-039300FM-12+021199999V0200901N004112200019N0200001N1+02601+02121101191ADDAA124000591AY151061AY221061GF102991021051008001001001KA1240N+02161MA1999999098811MD1999999-0031MW1031REMSYN088AAXX  12124 82586 21598 20908 10260 20212 39881 40119 70352 82500 333 20216 59003 69964;
0167825860999992001061218004-05190-039300FM-12+021199999V02099999999992200019N0200001N1+02961+01901100951ADDAA199000091GF104991041021008001001001MA1999999098591MD1999999-0031REMSYN070AAXX  12184 82586 32598 409// 10296 20190 39859 40095 84200 333 59003;EQDQ01  00002PRCP99
0208825860999992001061300004-05190-039300FM-12+021199999V0201801N001512200019N0010001N1+02381+02011101081ADDAA199000091GA1001+999999999GF100991001001999999001001KA1240M+03071MA1999999098691MD1999999-0091REMSYN082AAXX  13004 82586 32994 01803 10238 20201 39869 40108 333 10307 29072 55094 59009;EQDQ01  00002PRCP99
0201825860999992001061312004-05190-039300FM-12+021199999V0201401N001510075019N0200001N1+02601+02031101181ADDAA124000591AY101061AY221061GF106991061021008001001001KA1240N+02161MA1999999098791MD1999999-0021MW1531REMSYN088AAXX  13124 82586 21598 61403 10260 20203 39879 40118 75302 86200 333 20216 59002 69964;
0148825860999992001061318004-05190-039300FM-12+021199999V02099999999990075019N0200001N1+02941+01881100841ADDAA199000021GF106991061041008001001001MA1999999098471MD1999999-0121REMSYN070AAXX  13184 82586 32598 618// 10294 20188 39847 40084 86400 333 59012;
0189825860999992001061400004-05190-039300FM-12+021199999V0209999C000012200019N0010001N1+02561+01991101091ADDAA199000021GA1001+999999999GF100991001001999999001001KA1240M+03061MA1999999098711MD1999999+0021REMSYN082AAXX  14004 82586 32994 00000 10256 20199 39871 40109 333 10306 29067 55081 58002;
0186825860999992001061412004-05190-039300FM-12+021199999V02099999999990075019N0200001N1+02201+02061101191ADDAA199000091GF108991081071008001999999KA1240N+02141MA1999999098791MD1999999+0001REMSYN076AAXX  14124 82586 32598 814// 10220 20206 39879 40119 887// 333 20214 58000;EQDQ01  00002PRCP99
0167825860999992001061418004-05190-039300FM-12+021199999V0200901N002612200019N0200001N1+02901+01901100911ADDAA199000091GF104991041021008001001001MA1999999098531MD1999999+0061REMSYN070AAXX  14184 82586 32598 40905 10290 20190 39853 40091 84200 333 58006;EQDQ01  00002PRCP99
0208825860999992001061500004-05190-039300FM-12+021199999V0209999C000012200019N0010001N1+02571+02091101081ADDAA199000091GA1001+999999999GF100991001001999999001001KA1240M+03091MA1999999098741MD1999999+0001REMSYN082AAXX  15004 82586 32994 00000 10257 20209 39874 40108 333 10309 29075 55051 58000;EQDQ01  00002PRCP99
0186825860999992001061512004-05190-039300FM-12+021199999V0201401N002112200019N0200001N1+02621+02211101161ADDAA199000091GF104991041041008001001001KA1240N+02201MA1999999098781MD1999999-0011REMSYN076AAXX  15124 82586 32598 41404 10262 20221 39878 40116 84400 333 20220 59001;EQDQ01  00002PRCP99
0167825860999992001061518004-05190-039300FM-12+021199999V0201401N003112200019N0200001N1+03081+01681100861ADDAA199000091GF102991021011008001001001MA1999999098501MD1999999-0031REMSYN070AAXX  15184 82586 32598 21406 10308 20168 39850 40086 82100 333 59003;EQDQ01  00002PRCP99
0208825860999992001061600004-05190-039300FM-12+021199999V0209999C000012200019N0010001N1+02561+01751101111ADDAA199000091GA1001+999999999GF100991001001999999001001KA1240M+03201MA1999999098741MD1999999+0031REMSYN082AAXX  16004 82586 32994 00000 10256 20175 39874 40111 333 10320 29061 55102 58003;EQDQ01  00002PRCP99
0186825860999992001061612004-05190-039300FM-12+021199999V0200901N003610075019N0200001N1+02681+02161101161ADDAA199000091GF105991051021008001001001KA1240N+02121MA1999999098781MD1999999+0001REMSYN076AAXX  16124 82586 32598 50907 10268 20216 39878 40116 85200 333 20212 58000;EQDQ01  00002PRCP99
0167825860999992001061618004-05190-039300FM-12+021199999V0200901N003612200019N0200001N1+03141+01621100891ADDAA199000091GF103991031021008001001001MA1999999098531MD1999999+0031REMSYN070AAXX  16184 82586 32598 30907 10314 20162 39853 40089 83200 333 58003;EQDQ01  00002PRCP99
0208825860999992001061700004-05190-039300FM-12+021199999V0203601N004112200019N0010001N1+02541+01681100971ADDAA199000091GA1001+999999999GF100991001001999999001001KA1240M+03221MA1999999098601MD1999999-0141REMSYN082AAXX  17004 82586 32994 03608 10254 20168 39860 40097 333 10322 29067 55102 59014;EQDQ01  00002PRCP99
0186825860999992001061712004-05190-039300FM-12+021199999V0201401N002612200019N0200001N1+02661+02071101141ADDAA199000091GF104991041021008001001001KA1240N+02101MA1999999098761MD1999999-0021REMSYN076AAXX  17124 82586 32598 41405 10266 20207 39876 40114 84200 333 20210 59002;EQDQ01  00002PRCP99
0208825860999992001061800004-05190-039300FM-12+021199999V0200501N001512200019N0010001N1+02661+01681101081ADDAA199000091GA1001+999999999GF100991001001999999001001KA1240M+03171MA1999999098681MD1999999+0081REMSYN082AAXX  18004 82586 32994 00503 10266 20168 39868 40108 333 10317 29058 55054 58008;EQDQ01  00002PRCP99
0186825860999992001061812004-05190-039300FM-12+021199999V0201401N004110075019N0200001N1+02701+02171101091ADDAA199000091GF106991061041008001001001KA1240N+02221MA1999999098731MD1999999-0031REMSYN076AAXX  18124 82586 32598 61408 10270 20217 39873 40109 86400 333 20222 59003;EQDQ01  00002PRCP99
0167825860999992001061818004-05190-039300FM-12+021199999V0201401N001510075019N0200001N1+03141+01941100851ADDAA199000091GF107991071041008001001001MA1999999098491MD1999999-0051REMSYN070AAXX  18184 82586 32598 71403 10314 20194 39849 40085 87400 333 59005;EQDQ01  00002PRCP99
0198825860999992001061900004-05190-039300FM-12+021199999V0209999C000010075019N0010001N1+02721+02001101081ADDAA199000091GF105991051021008001001001KA1240M+03261MA1999999098721MD1999999+0041REMSYN088AAXX  19004 82586 32594 50000 10272 20200 39872 40108 85200 333 10326 29063 55077 58004;EQDQ01  00002PRCP99
0186825860999992001061912004-05190-039300FM-12+021199999V0201401N003612200019N0200001N1+02721+01981101101ADDAA199000091GF102991021051008001001001KA1240N+02241MA1999999098741MD1999999+0011REMSYN076AAXX  19124 82586 32598 21407 10272 20198 39874 40110 82500 333 20224 58001;EQDQ01  00002PRCP99
0208825860999992001062000004-05190-039300FM-12+021199999V02099999999992200019N0010001N1+02791+01441101091ADDAA199000091GA1001+999999999GF100991001001999999001001KA1240M+03221MA1999999098731MD1999999+0011REMSYN082AAXX  20004 82586 32994 036// 10279 20144 39873 40109 333 10322 29047 55078 58001;EQDQ01  00002PRCP99
0186825860999992001062012004-05190-039300FM-12+021199999V0200901N001510075019N0200001N1+02701+02131101191ADDAA199000091GF105991051051008001001001KA1240N+02301MA1999999098831MD1999999+0091REMSYN076AAXX  20124 82586 32598 50903 10270 20213 39883 40119 85500 333 20230 58009;EQDQ01  00002PRCP99
0167825860999992001062018004-05190-039300FM-12+021199999V0200901N001010075019N0200001N1+03001+01911101061ADDAA199000091GF108991081071008001999999MA1999999098691MD1999999+0181REMSYN070AAXX  20184 82586 32598 80902 10300 20191 39869 40106 887// 333 58018;EQDQ01  00002PRCP99
0208825860999992001062100004-05190-039300FM-12+021199999V0201401N001012200019N0010001N1+02641+01801101161ADDAA199000091GA1001+999999999GF100991001001999999001001KA1240M+03071MA1999999098791MD1999999+0061REMSYN082AAXX  21004 82586 32994 01402 10264 20180 39879 40116 333 10307 29065 55008 58006;EQDQ01  00002PRCP99
0186825860999992001062112004-05190-039300FM-12+021199999V0200501N003110075019N0200001N1+02701+02131101261ADDAA199000091GF105991051011008001001001KA1240N+02181MA1999999098881MD1999999+0051REMSYN076AAXX  21124 82586 32598 50506 10270 20213 39888 40126 85100 333 20218 58005;EQDQ01  00002PRCP99
0167825860999992001062118004-05190-039300FM-12+021199999V0203601N002610075019N0200001N1+03141+01941100981ADDAA199000091GF108991081051008001999999MA1999999098621MD1999999-0071REMSYN070AAXX  21184 82586 32598 83605 10314 20194 39862 40098 885// 333 59007;EQDQ01  00002PRCP99
0198825860999992001062200004-05190-039300FM-12+021199999V0200501N004612200019N0010001N1+02661+02001101171ADDAA199000091GF104991041051008001001001KA1240M+03201MA1999999098801MD1999999+0011REMSYN088AAXX  22004 82586 32594 40509 10266 20200 39880 40117 84500 333 10320 29064 55068 58001;EQDQ01  00002PRCP99
0186825860999992001062212004-05190-039300FM-12+021199999V0200901N002610075019N0200001N1+02661+02161101311ADDAA199000091GF107991071041008001001001KA1240N+02281MA1999999098931MD1999999+0051REMSYN076AAXX  22124 82586 32598 70905 10266 20216 39893 40131 87400 333 20228 58005;EQDQ01  00002PRCP99
0167825860999992001062218004-05190-039300FM-12+021199999V0200901N002610075019N0200001N1+03161+01991101041ADDAA199000091GF106991061051008001001001MA1999999098681MD1999999+0061REMSYN070AAXX  22184 82586 32598 60905 10316 20199 39868 40104 86500 333 58006;EQDQ01  00002PRCP99
0226825860999992001062300004-05190-039300FM-12+021199999V0200501N005110075019N0010001N1+02781+02061101171ADDAA199000091AY121061AY221061GF106991061021008001001001KA1240M+03221MA1999999098801MD1999999+0001MW1131REMSYN094AAXX  23004 82586 31594 60510 10278 20206 39880 40117 71322 86200 333 10322 29064 55066 58000;EQDQ01  00002PRCP99
0201825860999992001062312004-05190-039300FM-12+021199999V0200901N003610450019N0200001N1+02641+02161101321ADDAA124000191AY151061AY221061GF106991031021008001051001KA1240N+02201MA1999999098951MD1999999+0021MW1031REMSYN088AAXX  23124 82586 21598 60907 10264 20216 39895 40132 70352 83250 333 20220 58002 69924;
0167825860999992001062318004-05190-039300FM-12+021199999V02099999999990450019N0200001N1+03081+01851101061ADDAA199000091GF106991031021008001051001MA1999999098701MD1999999+0021REMSYN070AAXX  23184 82586 32598 614// 10308 20185 39870 40106 83250 333 58002;EQDQ01  00002PRCP99
0208825860999992001062400004-05190-039300FM-12+021199999V02099999999992200019N0010001N1+02481+01871101071ADDAA199000091GA1001+999999999GF100991001001999999001001KA1240M+03171MA1999999098691MD1999999-0111REMSYN082AAXX  24004 82586 32994 005// 10248 20187 39869 40107 333 10317 29065 55056 59011;EQDQ01  00002PRCP99
0186825860999992001062412004-05190-039300FM-12+021199999V0201401N002112200019N0200001N1+02681+01941101221ADDAA199000091GF102991021011008001001001KA1240N+02061MA1999999098841MD1999999-0111REMSYN076AAXX  24124 82586 32598 21404 10268 20194 39884 40122 82100 333 20206 59011;EQDQ01  00002PRCP99
0208825860999992001062500004-05190-039300FM-12+021199999V0200501N004112200019N0010001N1+02561+01901101171ADDAA199000091GA1001+999999999GF100991001001999999001001KA1240M+03281MA1999999098761MD1999999+0031REMSYN082AAXX  25004 82586 32994 00508 10256 20190 39876 40117 333 10328 29061 55103 58003;EQDQ01  00002PRCP99
0186825860999992001062512004-05190-039300FM-12+021199999V0201401N003112200019N0200001N1+02721+01981101361ADDAA199000091GF104991041021008001001001KA1240N+02271MA1999999098981MD1999999+0141REMSYN076AAXX  25124 82586 32598 41406 10272 20198 39898 40136 84200 333 20227 58014;EQDQ01  00002PRCP99
0167825860999992001062518004-05190-039300FM-12+021199999V0201401N001512200019N0200001N1+03261+01761101131ADDAA199000091GF104991041021008001001001MA1999999098771MD1999999+0041REMSYN070AAXX  25184 82586 32598 41403 10326 20176 39877 40113 84200 333 58004;EQDQ01  00002PRCP99
0186825860999992001062612004-05190-039300FM-12+021199999V0201401N002110450019N0200001N1+02641+02001101381ADDAA199000091GF107991021011008001051001KA1240N+02261MA1999999099001MD1999999+0021REMSYN076AAXX  26124 82586 32598 71404 10264 20200 39900 40138 82150 333 20226 58002;EQDQ01  00002PRCP99
0167825860999992001062618004-05190-039300FM-12+021199999V0201401N002610075019N0200001N1+03271+02021101151ADDAA199000091GF106991061021008001001001MA1999999098791MD1999999+0021REMSYN070AAXX  26184 82586 32598 61405 10327 20202 39879 40115 86200 333 58002;EQDQ01  00002PRCP99
0213825860999992001062700004-05190-039300FM-12+021199999V02099999999990075019N0010001N1+02711+02061101311ADDAA106000191AY161061AY221061GF106991061021008001001001KA1240M+03421MA1999999098941MD1999999+0111MW1031REMSYN100AAXX  27004 82586 21594 609// 10271 20206 39894 40131 70362 86200 333 10342 29063 55073 58011 69921;
0201825860999992001062712004-05190-039300FM-12+021199999V0200901N003110075019N0200001N1+02581+02211101361ADDAA124034091AY191061AY261061GF107991071071008001001001KA1240N+02161MA1999999098981MD1999999-0021MW1031REMSYN088AAXX  27124 82586 21598 70906 10258 20221 39898 40136 70396 87700 333 20216 59002 60344;
0167825860999992001062718004-05190-039300FM-12+021199999V0201401N000512200019N0200001N1+03041+02001101091ADDAA199000091GF104991041011008001001001MA1999999098721MD1999999-0071REMSYN070AAXX  27184 82586 32598 41401 10304 20200 39872 40109 84100 333 59007;EQDQ01  00002PRCP99
0226825860999992001062800004-05190-039300FM-12+021199999V0200501N002610075019N0010001N1+02561+02191101251ADDAA199000091AY121061AY221061GF106991061031008001001001KA1240M+03201MA1999999098871MD1999999-0071MW1131REMSYN094AAXX  28004 82586 31594 60505 10256 20219 39887 40125 71322 86300 333 10320 29074 55065 59007;EQDQ01  00002PRCP99
0201825860999992001062812004-05190-039300FM-12+021199999V0200501N004110075019N0200001N1+02581+02121101311ADDAA124000891AY161061AY221061GF108991081071008001999999KA1240N+02261MA1999999098831MD1999999-0051MW1031REMSYN088AAXX  28124 82586 21598 80508 10258 20212 39883 40131 70362 887// 333 20226 59005 69984;
0167825860999992001062818004-05190-039300FM-12+021199999V02099999999990075019N0200001N1+02861+02231101091ADDAA199000091GF106991061041008001001001MA1999999098721MD1999999+0001REMSYN070AAXX  28184 82586 32598 636// 10286 20223 39872 40109 86400 333 58000;EQDQ01  00002PRCP99
0186825860999992001062912004-05190-039300FM-12+021199999V0200901N003112200019N0200001N1+02701+02131101331ADDAA199000091GF104991041021008001001001KA1240N+02401MA1999999098951MD1999999+0021REMSYN076AAXX  29124 82586 32598 40906 10270 20213 39895 40133 84200 333 20240 58002;EQDQ01  00002PRCP99
0167825860999992001062918004-05190-039300FM-12+021199999V02099999999992200019N0200001N1+03161+01861101041ADDAA199000091GF104991041021008001001001MA1999999098681MD1999999-0041REMSYN070AAXX  29184 82586 32598 409// 10316 20186 39868 40104 84200 333 59004;EQDQ01  00002PRCP99
0198825860999992001063000004-05190-039300FM-12+021199999V0203601N001010075019N0010001N1+02661+01681101141ADDAA199000091GF105991051021008001001001KA1240M+03221MA1999999098701MD1999999-0101REMSYN088AAXX  30004 82586 32594 53602 10266 20168 39870 40114 85200 333 10322 29057 55104 59010;EQDQ01  00002PRCP99
0186825860999992001063012004-05190-039300FM-12+021199999V0201401N002610075019N0200001N1+02521+02151101241ADDAA199000091GF107991071041008001001001KA1240N+02121MA1999999098861MD1999999-0091REMSYN076AAXX  30124 82586 32598 71405 10252 20215 39886 40124 87400 333 20212 59009;EQDQ01  00002PRCP99
0167825860999992001063018004-05190-039300FM-12+021199999V0200901N003612200019N0200001N1+03231+01691100911ADDAA199000091GF104991021021008001001041MA1999999098551MD1999999-0131REMSYN070AAXX  30184 82586 32598 40907 10323 20169 39855 40091 82204 333 59013;EQDQ01  00002PRCP99
0208825860999992001070100004-05190-039300FM-12+021199999V0203601N000512200019N0010001N1+02671+01851101061ADDAA199000091GA1001+999999999GF100991001001999999001001KA1240M+03301MA1999999098651MD1999999-0081REMSYN082AAXX  01004 82586 32994 03601 10267 20185 39865 40106 333 10330 29061 55099 59008;EQDQ01  00002PRCP99
0166825860999992001072112004-05190-039300FM-12+021199999V0200901N002610075019N0200001N1+02521+02191999999ADDAA199000091GF106991061041008001001001KA1999N+02121MA1999999098881REMSYN070AAXX  21124 82586 32598 60905 10252 20219 39888 4//// 86400 333 20212;EQDQ01  00002PRCP99
0147825860999992001072118004-05190-039300FM-12+021199999V0200901N002110075019N0200001N1+03061+01991100991ADDAA199000091GF105991051021008001001001MA1999999098631REMSYN064AAXX  21184 82586 32598 50904 10306 20199 39863 40099 85200 333;EQDQ01  00002PRCP99
0188825860999992001072200004-05190-039300FM-12+021199999V0203601N003112200019N0010001N1+02561+02111101181ADDAA199000091GA1001+999999999GF100991001001999999001001KA1240M+03201MA1999999098801REMSYN076AAXX  22004 82586 32994 03606 10256 20211 39880 40118 333 10320 29072 55000;EQDQ01  00002PRCP99
0186825860999992001072212004-05190-039300FM-12+021199999V0201401N003110075019N0200001N1+02661+02071101261ADDAA199000091GF106991061041008001001001KA1240N+02241MA1999999098881MD1999999+0001REMSYN076AAXX  22124 82586 32598 61406 10266 20207 39888 40126 86400 333 20224 58000;EQDQ01  00002PRCP99
0167825860999992001072218004-05190-039300FM-12+021199999V0200901N005112200019N0200001N1+03181+01611101011ADDAA199000091GF102991021021008001001001MA1999999098651MD1999999+0021REMSYN070AAXX  22184 82586 32598 20910 10318 20161 39865 40101 82200 333 58002;EQDQ01  00002PRCP99
0208825860999992001072300004-05190-039300FM-12+021199999V0203601N001512200019N0010001N1+02541+01511101191ADDAA199000091GA1001+999999999GF100991001001999999001001KA1240M+03321MA1999999098721MD1999999-0081REMSYN082AAXX  23004 82586 32994 03603 10254 20151 39872 40119 333 10332 29054 55096 59008;EQDQ01  00002PRCP99
0186825860999992001072312004-05190-039300FM-12+021199999V0200901N002110075019N0200001N1+02601+02031101211ADDAA199000091GF106991061021008001001001KA1240N+02101MA1999999098831MD1999999-0051REMSYN076AAXX  23124 82586 32598 60904 10260 20203 39883 40121 86200 333 20210 59005;EQDQ01  00002PRCP99
0167825860999992001072318004-05190-039300FM-12+021199999V0201401N003112200019N0200001N1+03201+01711100941ADDAA199000091GF104991041021008001001001MA1999999098581MD1999999-0071REMSYN070AAXX  23184 82586 32598 41406 10320 20171 39858 40094 84200 333 59007;EQDQ01  00002PRCP99
0208825860999992001072400004-05190-039300FM-12+021199999V0203601N003612200019N0010001N1+02661+02071101021ADDAA199000091GA1001+999999999GF100991001001999999001001KA1240M+03291MA1999999098651MD1999999-0071REMSYN082AAXX  24004 82586 32994 03607 10266 20207 39865 40102 333 10329 29063 55100 59007;EQDQ01  00002PRCP99
0186825860999992001072412004-05190-039300FM-12+021199999V0201401N003112200019N0200001N1+02561+01991101221ADDAA199000091GF102991021011008001001001KA1240N+02161MA1999999098841MD1999999+0011REMSYN076AAXX  24124 82586 32598 21406 10256 20199 39884 40122 82100 333 20216 58001;EQDQ01  00002PRCP99
0167825860999992001072418004-05190-039300FM-12+021199999V0201801N003612200019N0200001N1+03241+01501101001ADDAA199000091GF101991011011008001001001MA1999999098641MD1999999+0061REMSYN070AAXX  24184 82586 32598 11807 10324 20150 39864 40100 81100 333 58006;EQDQ01  00002PRCP99
0198825860999992001072500004-05190-039300FM-12+021199999V0209999C000012200019N0010001N1+02711+01571101061ADDAA199000091GF104991041001012501051001KA1240M+03321MA1999999098691MD1999999+0041REMSYN088AAXX  25004 82586 32694 40000 10271 20157 39869 40106 84050 333 10332 29052 55095 58004;EQDQ01  00002PRCP99
0186825860999992001072512004-05190-039300FM-12+021199999V0201401N001512200019N0200001N1+02541+02111101211ADDAA199000091GF102991021011008001001001KA1240N+02121MA1999999098831MD1999999-0011REMSYN076AAXX  25124 82586 32598 21403 10254 20211 39883 40121 82100 333 20212 59001;EQDQ01  00002PRCP99
0167825860999992001072518004-05190-039300FM-12+021199999V0201401N003112200019N0200001N1+03141+01621100971ADDAA199000091GF103991031021008001001001MA1999999098611MD1999999-0031REMSYN070AAXX  25184 82586 32598 31406 10314 20162 39861 40097 83200 333 59003;EQDQ01  00002PRCP99
0192825860999992001072600004-05190-039300FM-12+021199999V0209999C000012200019N0010001N1+02571+01731101081ADDAA199000091GF102991999999999999999999KA1240M+03221MA1999999098701MD1999999+0011REMSYN082AAXX  26004 82586 32994 20000 10257 20173 39870 40108 333 10322 29059 55050 58001;EQDQ01  00002PRCP99
0201825860999992001072612004-05190-039300FM-12+021199999V0200901N002110075019N0200001N1+02401+02091101321ADDAA124003091AY161061AY251061GF106991061041008001001001KA1240N+02181MA1999999098931MD1999999+0101MW1511REMSYN088AAXX  26124 82586 21598 60904 10240 20209 39893 40132 75165 86400 333 20218 58010 60034;
0148825860999992001072618004-05190-039300FM-12+021199999V0201401N005112200019N0200001N1+03161+01751101011ADDAA199000021GF104991041021008001001001MA1999999098651MD1999999+0041REMSYN070AAXX  26184 82586 32598 41410 10316 20175 39865 40101 84200 333 58004;
0179825860999992001072700004-05190-039300FM-12+021199999V0209999C000012200019N0010001N1+02641+01691101141ADDAA199000021GF104991041001012501051001KA1240M+03301MA1999999098751MD1999999+0051REMSYN088AAXX  27004 82586 32694 40000 10264 20169 39875 40114 84050 333 10330 29060 55073 58005;
0186825860999992001072712004-05190-039300FM-12+021199999V0201401N003612200019N0200001N1+02621+01831101291ADDAA199000091GF101991011011008001001001KA1240N+02021MA1999999098911MD1999999-0021REMSYN076AAXX  27124 82586 32598 11407 10262 20183 39891 40129 81100 333 20202 59002;EQDQ01  00002PRCP99
0167825860999992001072718004-05190-039300FM-12+021199999V02099999999992200019N0200001N1+03201+01511101011ADDAA199000091GF104991041011008001001001MA1999999098651MD1999999+0001REMSYN070AAXX  27184 82586 32598 409// 10320 20151 39865 40101 84100 333 58000;EQDQ01  00002PRCP99
0198825860999992001072800004-05190-039300FM-12+021199999V0209999C000012200019N0010001N1+02561+01671101161ADDAA199000091GF104991041001012501051001KA1240M+03281MA1999999098781MD1999999+0031REMSYN088AAXX  28004 82586 32694 40000 10256 20167 39878 40116 84050 333 10328 29054 55107 58003;EQDQ01  00002PRCP99
0186825860999992001072812004-05190-039300FM-12+021199999V0201401N001512200019N0200001N1+02601+01871101351ADDAA199000091GF104991041021008001001001KA1240N+02101MA1999999098971MD1999999+0061REMSYN076AAXX  28124 82586 32598 41403 10260 20187 39897 40135 84200 333 20210 58006;EQDQ01  00002PRCP99
0167825860999992001072818004-05190-039300FM-12+021199999V0201401N002612200019N0200001N1+03181+01441101061ADDAA199000091GF105991031011008001001041MA1999999098701MD1999999+0051REMSYN070AAXX  28184 82586 32598 51405 10318 20144 39870 40106 83104 333 58005;EQDQ01  00002PRCP99
0198825860999992001072900004-05190-039300FM-12+021199999V0203601N005112200019N0010001N1+02661+01951101231ADDAA199000091GF102991021001012501051001KA1240M+03301MA1999999098851MD1999999+0071REMSYN088AAXX  29004 82586 32694 23610 10266 20195 39885 40123 82050 333 10330 29057 55101 58007;EQDQ01  00002PRCP99
0186825860999992001072912004-05190-039300FM-12+021199999V0201401N003112200019N0200001N1+02681+01891101301ADDAA199000091GF103991021011008001001041KA1240N+02101MA1999999098921MD1999999-0051REMSYN076AAXX  29124 82586 32598 31406 10268 20189 39892 40130 82104 333 20210 59005;EQDQ01  00002PRCP99
0167825860999992001072918004-05190-039300FM-12+021199999V0200901N003112200019N0200001N1+03261+01561101011ADDAA199000091GF104991041021008001001001MA1999999098651MD1999999-0051REMSYN070AAXX  29184 82586 32598 40906 10326 20156 39865 40101 84200 333 59005;EQDQ01  00002PRCP99
0198825860999992001073000004-05190-039300FM-12+021199999V0203601N001519999999N0010001N1+02711+01991101201ADDAA199000091GF106991061001012501051001KA1240M+03411MA1999999098831MD1999999-0021REMSYN088AAXX  30004 82586 32694 63603 10271 20199 39883 40120 86050 333 10341 29057 55105 59002;EQDQ01  00002PRCP99
0186825860999992001073012004-05190-039300FM-12+021199999V0201401N002612200019N0200001N1+02601+02031101361ADDAA199000091GF104991041021008001001001KA1240N+02221MA1999999098981MD1999999+0061REMSYN076AAXX  30124 82586 32598 41405 10260 20203 39898 40136 84200 333 20222 58006;EQDQ01  00002PRCP99
0167825860999992001073018004-05190-039300FM-12+021199999V0200901N002112200019N0200001N1+03321+01781101021ADDAA199000091GF104991041021008001001001MA1999999098661MD1999999+0011REMSYN070AAXX  30184 82586 32598 40904 10332 20178 39866 40102 84200 333 58001;EQDQ01  00002PRCP99
0198825860999992001073100004-05190-039300FM-12+021199999V0203601N003119999999N0010001N1+02801+01901101201ADDAA199000091GF106991061001012501051001KA1240M+03421MA1999999098831MD1999999+0001REMSYN088AAXX  31004 82586 32694 63606 10280 20190 39883 40120 86050 333 10342 29057 55095 58000;EQDQ01  00002PRCP99
0186825860999992001073112004-05190-039300FM-12+021199999V0200901N003612200019N0200001N1+02761+02121101381ADDAA199000091GF102991021011008001001001KA1240N+02241MA1999999099011MD1999999+0031REMSYN076AAXX  31124 82586 32598 20907 10276 20212 39901 40138 82100 333 20224 58003;EQDQ01  00002PRCP99
0167825860999992001073118004-05190-039300FM-12+021199999V0201401N001512200019N0200001N1+03341+01631101051ADDAA199000091GF102991021011008001001001MA1999999098691MD1999999+0031REMSYN070AAXX  31184 82586 32598 21403 10334 20163 39869 40105 82100 333 58003;EQDQ01  00002PRCP99
0214825860999992001080100004-05190-039300FM-12+021199999V0200501N003112200019N0010001N1+02781+01701101261ADDAA199000091GF103991999041008001001001KA1240M+03401MA1999999098891MD1999999+0061REMSYN088AAXX  01004 82586 32594 30506 10278 20170 39889 40126 84400 333 10340 29052 55103 58006;EQDQ01+000042SCOTLCQ02  00002PRCP99
0201825860999992001080112004-05190-039300FM-12+021199999V0201401N003112200019N0200001N1+02561+01781101461ADDAA124000191AY151061AY221061GF102991021001008001051001KA1240N+02021MA1999999099081MD1999999+0071MW1021REMSYN088AAXX  01124 82586 21598 21406 10256 20178 39908 40146 70252 82050 333 20202 58007 69924;
0167825860999992001080118004-05190-039300FM-12+021199999V0201401N001512200019N0200001N1+03341+01241101151ADDAA199000091GF102991021011008001001001MA1999999098791MD1999999+0101REMSYN070AAXX  01184 82586 32598 21403 10334 20124 39879 40115 82100 333 58010;EQDQ01  00002PRCP99
0198825860999992001080200004-05190-039300FM-12+021199999V0203601N002112200019N0010001N1+02801+01351101311ADDAA199000091GF104991041021012501051001KA1240M+03301MA1999999098941MD1999999+0051REMSYN088AAXX  02004 82586 32694 43604 10280 20135 39894 40131 84250 333 10330 29043 55104 58005;EQDQ01  00002PRCP99
0186825860999992001080212004-05190-039300FM-12+021199999V0201401N003612200019N0200001N1+02541+01881101441ADDAA199000091GF101991011011008001001001KA1240N+02001MA1999999099061MD1999999-0021REMSYN076AAXX  02124 82586 32598 11407 10254 20188 39906 40144 81100 333 20200 59002;EQDQ01  00002PRCP99
0167825860999992001080218004-05190-039300FM-12+021199999V0200901N003112200019N0200001N1+03201+01281101131ADDAA199000091GF102991021011008001001001MA1999999098751MD1999999-0041REMSYN070AAXX  02184 82586 32598 20906 10320 20128 39875 40113 82100 333 59004;EQDQ01  00002PRCP99
0198825860999992001080300004-05190-039300FM-12+021199999V0209999C000012200019N0010001N1+02701+01571101211ADDAA199000091GF103991031021012501001001KA1240M+03281MA1999999098831MD1999999-0111REMSYN088AAXX  03004 82586 32694 30000 10270 20157 39883 40121 83200 333 10328 29050 55108 59011;EQDQ01  00002PRCP99
0186825860999992001080312004-05190-039300FM-12+021199999V0200901N005110075019N0200001N1+02561+02021101411ADDAA199000091GF108991081071008001999999KA1240N+02121MA1999999099901MD1999999-0031REMSYN076AAXX  03124 82586 32598 80910 10256 20202 39990 40141 887// 333 20212 59003;EQDQ01  00002PRCP99
0201825860999992001080318004-05190-039300FM-12+021199999V0201401N003110075019N0200001N1+02771+01891101201ADDAA106000591AY151061AY221061GF106991061041008001001001MA1999999098812MD1999999+0061MW1031REMSYN082AAXX  03184 82586 21598 61406 10277 20189 39881 40120 70352 86400 333 58006 69951;EQDQ01+098813APOSP 
0198825860999992001080400004-05190-039300FM-12+021199999V02099999999990120019N0010001N1+02541+01861101271ADDAA199000091GF108991081051012501999999KA1240M+02931MA1999999098891MD1999999+0031REMSYN088AAXX  04004 82586 32694 805// 10254 20186 39889 40127 885// 333 10293 29066 55024 58003;EQDQ01  00002PRCP99
0173825860999992001080412004-05190-039300FM-12+021199999V0201401N005112200019N0200001N1+02501+02211101451ADDAA124000591GF102991021011008001001001KA1240N+01941MA1999999099051MD1999999+0021REMSYN082AAXX  04124 82586 22598 21410 10250 20221 39905 40145 82100 333 20194 58002 69954;
0167825860999992001080418004-05190-039300FM-12+021199999V0201401N003112200019N0200001N1+03181+01381101061ADDAA199000091GF103991031021008001001001MA1999999098701MD1999999-0111REMSYN070AAXX  04184 82586 32598 31406 10318 20138 39870 40106 83200 333 59011;EQDQ01  00002PRCP99
0198825860999992001080500004-05190-039300FM-12+021199999V0203601N001012200019N0010001N1+02661+01301101221ADDAA199000091GF102991021011008001001001KA1240M+03391MA1999999098841MD1999999-0061REMSYN088AAXX  05004 82586 32594 23602 10266 20130 39884 40122 82100 333 10339 29051 55106 59006;EQDQ01  00002PRCP99
0196825860999992001080512004-05190-039300FM-12+021199999V0201401N003112200019N0200001N1+02581+01581101411ADDAA199000091GA1001+999999999GF100991001001999999001001KA1240N+01961MA1999999099031MD1999999-0021REMSYN070AAXX  05124 82586 32998 01406 10258 20158 39903 40141 333 20196 59002;EQDQ01  00002PRCP99
0177825860999992001080518004-05190-039300FM-12+021199999V0201401N002612200019N0200001N1+03371+01261101081ADDAA199000091GA1001+999999999GF100991001001999999001001MA1999999098721MD1999999+0021REMSYN064AAXX  05184 82586 32998 01405 10337 20126 39872 40108 333 58002;EQDQ01  00002PRCP99
0208825860999992001080600004-05190-039300FM-12+021199999V02099999999992200019N0010001N1+02761+01121101221ADDAA199000091GA1001+999999999GF100991001001999999001001KA1240M+03421MA1999999098851MD1999999+0011REMSYN082AAXX  06004 82586 32994 036// 10276 20112 39885 40122 333 10342 29039 55107 58001;EQDQ01  00002PRCP99
0186825860999992001080612004-05190-039300FM-12+021199999V0201401N006012200019N0200001N1+02461+01941101421ADDAA199000091GF102991021011008001001001KA1240N+02081MA1999999099041MD1999999+0011REMSYN076AAXX  06121 82586 32598 21406 10246 20194 39904 40142 82100 333 20208 58001;EQDQ01  00002PRCP99
0177825860999992001080618004-05190-039300FM-12+021199999V0201401N004112200019N0200001N1+03301+01261101071ADDAA199000091GA1001+999999999GF100991001001999999001001MA1999999098711MD1999999-0011REMSYN064AAXX  06184 82586 32998 01408 10330 20126 39871 40107 333 59001;EQDQ01  00002PRCP99
0208825860999992001080700004-05190-039300FM-12+021199999V0209999C000012200019N0010001N1+02701+01231101271ADDAA199000091GA1001+999999999GF100991001001999999001001KA1240M+03381MA1999999098891MD1999999+0041REMSYN082AAXX  07004 82586 32994 00000 10270 20123 39889 40127 333 10338 29046 55100 58004;EQDQ01  00002PRCP99
0196825860999992001080712004-05190-039300FM-12+021199999V0200901N003612200019N0200001N1+02601+02191101381ADDAA199000091GA1001+999999999GF100991001001999999001001KA1240N+02001MA1999999099001MD1999999+0041REMSYN070AAXX  07124 82586 32998 00907 10260 20219 39900 40138 333 20200 58004;EQDQ01  00002PRCP99
0167825860999992001080718004-05190-039300FM-12+021199999V02099999999992200019N0200001N1+03231+01521101121ADDAA199000091GF104991041021008001001001MA1999999098751MD1999999+0041REMSYN070AAXX  07184 82586 32598 409// 10323 20152 39875 40112 84200 333 58004;EQDQ01  00002PRCP99
0198825860999992001080800004-05190-039300FM-12+021199999V0203601N003110075019N0010001N1+02701+01521101301ADDAA199000091GF105991051021008001001001KA1240M+03401MA1999999098921MD1999999+0031REMSYN088AAXX  08004 82586 32594 53606 10270 20152 39892 40130 85200 333 10340 29053 55101 58003;EQDQ01  00002PRCP99
0220825860999992001080812004-05190-039300FM-12+021199999V0200901N004112200019N0200001N1+02541+01881101431ADDAA124006191AY161061AY251061GF103991999011008001001001KA1240N+01981MA1999999099061MD1999999+0051MW1031REMSYN088AAXX  08124 82586 21598 30908 10254 20188 39906 40143 70365 84100 333 20198 58005 60064;EQDQ01+000042SCOTLC
0167825860999992001080818004-05190-039300FM-12+021199999V0201401N001512200019N0200001N1+03171+01671101101ADDAA199000091GF102991021021008001001001MA1999999098731MD1999999-0021REMSYN070AAXX  08184 82586 32598 21403 10317 20167 39873 40110 82200 333 59002;EQDQ01  00002PRCP99
0208825860999992001080900004-05190-039300FM-12+021199999V0200501N005112200019N0010001N1+02691+01671101241ADDAA199000091GA1001+999999999GF100991001001999999001001KA1240M+03261MA1999999098861MD1999999-0061REMSYN082AAXX  09004 82586 32994 00510 10269 20167 39886 40124 333 10326 29054 55099 59006;EQDQ01  00002PRCP99
0186825860999992001080912004-05190-039300FM-12+021199999V0200901N007010075019N0200001N1+02601+02191101461ADDAA199000091GF106991061021008001001001KA1240N+02021MA1999999099081MD1999999+0031REMSYN076AAXX  09120 82586 32598 60907 10260 20219 39908 40146 86200 333 20202 58003;EQDQ01  00002PRCP99
0167825860999992001080918004-05190-039300FM-12+021199999V0200901N005112200019N0200001N1+03111+01701101141ADDAA199000091GF104991041021008001001001MA1999999098761MD1999999+0031REMSYN070AAXX  09184 82586 32598 40910 10311 20170 39876 40114 84200 333 58003;EQDQ01  00002PRCP99
0198825860999992001081000004-05190-039300FM-12+021199999V02099999999992200019N0010001N1+02681+01671101231ADDAA199000091GF102991021021008001001001KA1240M+03241MA1999999098851MD1999999-0011REMSYN088AAXX  10004 82586 32594 236// 10268 20167 39885 40123 82200 333 10324 29057 55104 59001;EQDQ01  00002PRCP99
0201825860999992001081012004-05190-039300FM-12+021199999V0201401N001010075019N0200001N1+02301+02071101451ADDAA124001091AY161061AY221061GF107991071071008001001001KA1240N+02081MA1999999099051MD1999999-0031MW1031REMSYN088AAXX  10124 82586 21598 71402 10230 20207 39905 40145 70362 87700 333 20208 59003 60014;
0167825860999992001081018004-05190-039300FM-12+021199999V0201401N003110075019N0200001N1+03231+01521101121ADDAA199000091GF105991051021008001001001MA1999999098751MD1999999-0011REMSYN070AAXX  10184 82586 32598 51406 10323 20152 39875 40112 85200 333 59001;EQDQ01  00002PRCP99
0198825860999992001081100004-05190-039300FM-12+021199999V0201401N001012200019N0010001N1+02721+01211101271ADDAA199000091GF102991021021008001001001KA1240M+03321MA1999999098891MD1999999+0041REMSYN088AAXX  11004 82586 32594 21402 10272 20121 39889 40127 82200 333 10332 29058 55072 58004;EQDQ01  00002PRCP99
0167825860999992001081118004-05190-039300FM-12+021199999V02099999999992200019N0200001N1+03401+01061101071ADDAA199000091GF104991021011008001001041MA1999999098711MD1999999-0041REMSYN070AAXX  11184 82586 32598 409// 10340 20106 39871 40107 82104 333 59004;EQDQ01  00002PRCP99
0208825860999992001081200004-05190-039300FM-12+021199999V02099999999992200019N0010001N1+02561+01761101261ADDAA199000091GA1001+999999999GF100991001001999999001001KA1240M+03401MA1999999098881MD1999999-0011REMSYN082AAXX  12004 82586 32994 036// 10256 20176 39888 40126 333 10340 29054 55102 59001;EQDQ01  00002PRCP99
0183825860999992001081218004-05190-039300FM-12+021199999V0200901N002612200019N0200001N1+03321+01571101101ADDAA199000091GF104991999011008001001001MA1999999098741MD1999999+0031REMSYN070AAXX  12184 82586 32598 40905 10332 20157 39874 40110 82100 333 58003;EQDQ01+000022SCOTLCQ02  00002PRCP99
0208825860999992001081300004-05190-039300FM-12+021199999V02099999999992200019N0010001N1+02661+01921101321ADDAA199000091GA1001+999999999GF100991001001999999001001KA1240M+03421MA1999999098941MD1999999+0061REMSYN082AAXX  13004 82586 32994 036// 10266 20192 39894 40132 333 10342 29057 55103 58006;EQDQ01  00002PRCP99
0220825860999992001081312004-05190-039300FM-12+021199999V0200901N002119999999N0200001N1+02501+01911101431ADDAA124010991AY161061AY251061GF105991999021008001001001KA1240N+02061MA1999999099051MD1999999-0071MW1021REMSYN088AAXX  13124 82586 21598 50904 10250 20191 39905 40143 70265 88200 333 20206 59007 60114;EQDQ01+000082SCOTLC
0167825860999992001081318004-05190-039300FM-12+021199999V0200501N003112200019N0200001N1+03201+01591101021ADDAA199000091GF105991021011008001001041MA1999999098661MD1999999-0081REMSYN070AAXX  13184 82586 32598 50506 10320 20159 39866 40102 82104 333 59008;EQDQ01  00002PRCP99
0208825860999992001081400004-05190-039300FM-12+021199999V0209999C000012200019N0010001N1+02721+01651101161ADDAA199000091GA1001+999999999GF100991001001999999001001KA1240M+03321MA1999999098781MD1999999-0161REMSYN082AAXX  14004 82586 32994 00000 10272 20165 39878 40116 333 10332 29053 55105 59016;EQDQ01  00002PRCP99
0186825860999992001081412004-05190-039300FM-12+021199999V0201401N004112200019N0200001N1+02521+02231101381ADDAA199000091GF101991011011008001001001KA1240N+02001MA1999999099001MD1999999-0051REMSYN076AAXX  14124 82586 32598 11408 10252 20223 39900 40138 81100 333 20200 59005;EQDQ01  00002PRCP99
0167825860999992001081418004-05190-039300FM-12+021199999V0200901N002612200019N0200001N1+03221+01341101051ADDAA199000091GF101991011011008001001001MA1999999098691MD1999999+0031REMSYN070AAXX  14184 82586 32598 10905 10322 20134 39869 40105 81100 333 58003;EQDQ01  00002PRCP99
0208825860999992001081500004-05190-039300FM-12+021199999V0209999C000012200019N0010001N1+02781+01551101141ADDAA199000091GA1001+999999999GF100991001001999999001001KA1240M+03321MA1999999098761MD1999999-0011REMSYN082AAXX  15004 82586 32994 00000 10278 20155 39876 40114 333 10332 29053 55106 59001;EQDQ01  00002PRCP99
0186825860999992001081512004-05190-039300FM-12+021199999V0200901N003112200019N0200001N1+02661+01921101351ADDAA199000091GF104991041011008001001001KA1240N+02021MA1999999098981MD1999999-0021REMSYN076AAXX  15124 82586 32598 40906 10266 20192 39898 40135 84100 333 20202 59002;EQDQ01  00002PRCP99
0167825860999992001081518004-05190-039300FM-12+021199999V0200901N002112200019N0200001N1+03261+01601101091ADDAA199000091GF103991031021008001001001MA1999999098731MD1999999+0041REMSYN070AAXX  15184 82586 32598 30904 10326 20160 39873 40109 83200 333 58004;EQDQ01  00002PRCP99
0224825860999992001081600004-05190-039300FM-12+021199999V0203601N003112200019N0010001N1+02721+02031101311ADDAA199000091GA1001+999999999GF100991001001999999001001KA1240M+99999MA1999999098941MD1999999+0181REMSYN082AAXX  16004 82586 32994 03606 10272 20203 39894 40131 333 10131 29058 55101 58018;EQDQ01  00002PRCP99Q02 +01312ATMX  
0186825860999992001081612004-05190-039300FM-12+021199999V0201401N004110075019N0200001N1+02761+02021101501ADDAA199000091GF105991051021008001001001KA1240N+02281MA1999999099131MD1999999+0151REMSYN076AAXX  16124 82586 32598 51408 10276 20202 39913 40150 85200 333 20228 58015;EQDQ01  00002PRCP99
0167825860999992001081618004-05190-039300FM-12+021199999V0201401N001510075019N0200001N1+03201+01631101131ADDAA199000091GF105991051021008001001001MA1999999098771MD1999999+0041REMSYN070AAXX  16184 82586 32598 51403 10320 20163 39877 40113 85200 333 58004;EQDQ01  00002PRCP99
0208825860999992001081700004-05190-039300FM-12+021199999V0203601N005112200019N0010001N1+02701+01861101361ADDAA199000091GA1001+999999999GF100991001001999999001001KA1240M+03221MA1999999098991MD1999999+0051REMSYN082AAXX  17004 82586 32994 03610 10270 20186 39899 40136 333 10322 29056 55097 58005;EQDQ01  00002PRCP99
0186825860999992001081712004-05190-039300FM-12+021199999V0200901N001512200019N0200001N1+02641+02031101431ADDAA199000091GF101991011011008001001001KA1240N+02161MA1999999099051MD1999999-0081REMSYN076AAXX  17124 82586 32598 10903 10264 20203 39905 40143 81100 333 20216 59008;EQDQ01  00002PRCP99
0208825860999992001081800004-05190-039300FM-12+021199999V0203601N003112200019N0010001N1+02861+01371101141ADDAA199000091GA1001+999999999GF100991001001999999001001KA1240M+03421MA1999999098781MD1999999-0211REMSYN082AAXX  18004 82586 32994 03606 10286 20137 39878 40114 333 10342 29045 55105 59021;EQDQ01  00002PRCP99
0186825860999992001081812004-05190-039300FM-12+021199999V0201401N002612200019N0200001N1+02771+02131101361ADDAA199000091GF102991021011008001001001KA1240N+02181MA1999999098981MD1999999-0071REMSYN076AAXX  18124 82586 32598 21405 10277 20213 39898 40136 82100 333 20218 59007;EQDQ01  00002PRCP99
0183825860999992001081818004-05190-039300FM-12+021199999V0201401N003112200019N0200001N1+03321+01331101051ADDAA199000091GF103991999011008001001001MA1999999098691MD1999999+0021REMSYN070AAXX  18184 82586 32598 31406 10332 20133 39869 40105 82100 333 58002;EQDQ01+000022SCOTLCQ02  00002PRCP99
0208825860999992001081900004-05190-039300FM-12+021199999V0209999C000012200019N0010001N1+02821+01211101191ADDAA199000091GA1001+999999999GF100991001001999999001001KA1240M+03401MA1999999098831MD1999999+0051REMSYN082AAXX  19004 82586 32994 00000 10282 20121 39883 40119 333 10340 29044 55106 58005;EQDQ01  00002PRCP99
0186825860999992001081912004-05190-039300FM-12+021199999V0201401N002612200019N0200001N1+02721+02031101391ADDAA199000091GF104991041021008001001001KA1240N+02201MA1999999099021MD1999999+0041REMSYN076AAXX  19124 82586 32598 41405 10272 20203 39902 40139 84200 333 20220 58004;EQDQ01  00002PRCP99
0167825860999992001081918004-05190-039300FM-12+021199999V0201401N003112200019N0200001N1+03381+01571101061ADDAA199000091GF104991041011008001001001MA1999999098711MD1999999+0021REMSYN070AAXX  19184 82586 32598 41406 10338 20157 39871 40106 84100 333 58002;EQDQ01  00002PRCP99
0208825860999992001082000004-05190-039300FM-12+021199999V0200501N003112200019N0010001N1+02801+01441101231ADDAA199000091GA1001+999999999GF100991001001999999001001KA1240M+03481MA1999999098871MD1999999+0041REMSYN082AAXX  20004 82586 32994 00506 10280 20144 39887 40123 333 10348 29043 55106 58004;EQDQ01  00002PRCP99
0186825860999992001082012004-05190-039300FM-12+021199999V0200901N004112200019N0200001N1+02761+01801101471ADDAA199000091GF101991011011008001001001KA1240N+02241MA1999999099101MD1999999+0081REMSYN076AAXX  20124 82586 32598 10908 10276 20180 39910 40147 81100 333 20224 58008;EQDQ01  00002PRCP99
0167825860999992001082018004-05190-039300FM-12+021199999V0200901N004610075019N0200001N1+03221+01691101161ADDAA199000091GF106991061041008001001001MA1999999098801MD1999999+0091REMSYN070AAXX  20184 82586 32598 60909 10322 20169 39880 40116 86400 333 58009;EQDQ01  00002PRCP99
0208825860999992001082100004-05190-039300FM-12+021199999V02099999999992200019N0020001N1+02851+01601101371ADDAA199000091GA1001+999999999GF100991001001999999001001KA1240M+03441MA1999999099001MD1999999+0131REMSYN082AAXX  21004 82586 32995 036// 10285 20160 39900 40137 333 10344 29048 55104 58013;EQDQ01  00002PRCP99
0186825860999992001082112004-05190-039300FM-12+021199999V0200901N004612200019N0200001N1+02681+01941101421ADDAA199000091GF102991021011008001001001KA1240N+02081MA1999999099051MD1999999-0051REMSYN076AAXX  21124 82586 32598 20909 10268 20194 39905 40142 82100 333 20208 59005;EQDQ01  00002PRCP99
0167825860999992001082118004-05190-039300FM-12+021199999V0200501N003112200019N0200001N1+03391+01221101091ADDAA199000091GF101991011011008001001001MA1999999098731MD1999999+0071REMSYN070AAXX  21184 82586 32598 10506 10339 20122 39873 40109 81100 333 58007;EQDQ01  00002PRCP99
0208825860999992001082200004-05190-039300FM-12+021199999V0203601N005112200019N0010001N1+02751+01701101201ADDAA199000091GA1001+999999999GF100991001001999999001001KA1240M+03441MA1999999098831MD1999999-0171REMSYN082AAXX  22004 82586 32994 03610 10275 20170 39883 40120 333 10344 29049 55104 59017;EQDQ01  00002PRCP99
0186825860999992001082212004-05190-039300FM-12+021199999V0200901N003612200019N0200001N1+02661+01911101471ADDAA199000091GF103991031021008001001001KA1240N+02121MA1999999099101MD1999999+0051REMSYN076AAXX  22124 82586 32598 30907 10266 20191 39910 40147 83200 333 20212 58005;EQDQ01  00002PRCP99
0167825860999992001082218004-05190-039300FM-12+021199999V0200901N003112200019N0200001N1+03441+01331101081ADDAA199000091GF104991041011008001001001MA1999999098721MD1999999-0011REMSYN070AAXX  22184 82586 32598 40906 10344 20133 39872 40108 84100 333 59001;EQDQ01  00002PRCP99
0208825860999992001082300004-05190-039300FM-12+021199999V0200501N006712200019N0010001N1+02761+01671101261ADDAA199000091GA1001+999999999GF100991001001999999001001KA1240M+03501MA1999999098891MD1999999+0081REMSYN082AAXX  23004 82586 32994 00513 10276 20167 39889 40126 333 10350 29051 55105 58008;EQDQ01  00002PRCP99
0186825860999992001082312004-05190-039300FM-12+021199999V0200901N004110075019N0200001N1+02621+01861101381ADDAA199000091GF107991071071008001001001KA1240N+02421MA1999999099011MD1999999-0091REMSYN076AAXX  23124 82586 32598 70908 10262 20186 39901 40138 87700 333 20242 59009;EQDQ01  00002PRCP99
0167825860999992001082318004-05190-039300FM-12+021199999V0200901N005112200019N0200001N1+03401+01291101021ADDAA199000091GF101991011011008001001001MA1999999098691MD1999999-0041REMSYN070AAXX  23184 82586 32598 10910 10340 20129 39869 40102 81100 333 59004;EQDQ01  00002PRCP99
0208825860999992001082400004-05190-039300FM-12+021199999V0203601N001512200019N0010001N1+02841+01391101181ADDAA199000091GA1001+999999999GF100991001001999999001001KA1240M+03481MA1999999098821MD1999999-0071REMSYN082AAXX  24004 82586 32994 03603 10284 20139 39882 40118 333 10348 29043 55078 59007;EQDQ01  00002PRCP99
0186825860999992001082412004-05190-039300FM-12+021199999V0200901N004612200019N0200001N1+02681+01861101411ADDAA199000091GF102991021011008001001001KA1240N+02181MA1999999099031MD1999999+0021REMSYN076AAXX  24124 82586 32598 20909 10268 20186 39903 40141 82100 333 20218 58002;EQDQ01  00002PRCP99
0177825860999992001082418004-05190-039300FM-12+021199999V0201401N004112200019N0010001N1+03401+01241100991ADDAA199000091GA1001+999999999GF100991001001999999001001MA1999999098631MD1999999-0051REMSYN064AAXX  24184 82586 32994 01408 10340 20124 39863 40099 333 59005;EQDQ01  00002PRCP99
0208825860999992001082500004-05190-039300FM-12+021199999V0203601N003112200019N0010001N1+02901+01201101091ADDAA199000091GA1001+999999999GF100991001001999999001001KA1240M+03501MA1999999098731MD1999999-0091REMSYN082AAXX  25004 82586 32994 03606 10290 20120 39873 40109 333 10350 29040 55105 59009;EQDQ01  00002PRCP99
0186825860999992001082512004-05190-039300FM-12+021199999V0201901N004612200019N0200001N1+02821+02171101261ADDAA199000091GF104991041021008001001001KA1240N+02241MA1999999098901MD1999999-0131REMSYN076AAXX  25124 82586 32598 41909 10282 20217 39890 40126 84200 333 20224 59013;EQDQ01  00002PRCP99
0167825860999992001082518004-05190-039300FM-12+021199999V0201401N002612200019N0200001N1+03421+01311100981ADDAA199000091GF103991031011008001001001MA1999999098621MD1999999-0011REMSYN070AAXX  25184 82586 32598 31405 10342 20131 39862 40098 83100 333 59001;EQDQ01  00002PRCP99
0208825860999992001082600004-05190-039300FM-12+021199999V0200501N006712200019N0010001N1+02721+01931101181ADDAA199000091GA1001+999999999GF100991001001999999001001KA1240M+03501MA1999999098821MD1999999+0091REMSYN082AAXX  26004 82586 32994 00513 10272 20193 39882 40118 333 10350 29055 55105 58009;EQDQ01  00002PRCP99
0186825860999992001082612004-05190-039300FM-12+021199999V0200901N005112200019N0200001N1+02761+01801101321ADDAA199000091GF104991041021008001001001KA1240N+02181MA1999999098951MD1999999+0051REMSYN076AAXX  26124 82586 32598 40910 10276 20180 39895 40132 84200 333 20218 58005;EQDQ01  00002PRCP99
0167825860999992001082618004-05190-039300FM-12+021199999V0200501N003112200019N0200001N1+03391+01571101051ADDAA199000091GF103991031011008001001001MA1999999098691MD1999999+0071REMSYN070AAXX  26184 82586 32598 30506 10339 20157 39869 40105 83100 333 58007;EQDQ01  00002PRCP99
0208825860999992001082700004-05190-039300FM-12+021199999V02099999999992200019N0010001N1+02641+02031101161ADDAA199000091GA1001+999999999GF100991001001999999001001KA1240M+03401MA1999999098791MD1999999+0041REMSYN082AAXX  27004 82586 32994 005// 10264 20203 39879 40116 333 10340 29057 55105 58004;EQDQ01  00002PRCP99
0186825860999992001082712004-05190-039300FM-12+021199999V0200901N005112200019N0200001N1+02701+01961101411ADDAA199000091GF101991011011008001001001KA1240N+02181MA1999999099031MD1999999+0081REMSYN076AAXX  27124 82586 32598 10910 10270 20196 39903 40141 81100 333 20218 58008;EQDQ01  00002PRCP99
0177825860999992001082718004-05190-039300FM-12+021199999V0200501N003112200019N0200001N1+03421+01141101051ADDAA199000091GA1001+999999999GF100991001001999999001001MA1999999098691MD1999999+0001REMSYN064AAXX  27184 82586 32598 00506 10342 20114 39869 40105 333 58000;EQDQ01  00002PRCP99
0208825860999992001082800004-05190-039300FM-12+021199999V0200501N001512200019N0010001N1+02741+01701101171ADDAA199000091GA1001+999999999GF100991001001999999001001KA1240M+03521MA1999999098801MD1999999+0011REMSYN082AAXX  28004 82586 32994 00503 10274 20170 39880 40117 333 10352 29050 55105 58001;EQDQ01  00002PRCP99
0186825860999992001082812004-05190-039300FM-12+021199999V0200501N004612200019N0200001N1+02831+01831101321ADDAA199000091GF104991041021008001001001KA1240N+02221MA1999999098851MD1999999-0081REMSYN076AAXX  28124 82586 32598 40509 10283 20183 39885 40132 84200 333 20222 59008;EQDQ01  00002PRCP99
0167825860999992001082818004-05190-039300FM-12+021199999V0200901N002112200019N0200001N1+03501+01531100971ADDAA199000091GF104991041021008001001001MA1999999098631MD1999999-0061REMSYN070AAXX  28184 82586 32598 40904 10350 20153 39863 40097 84200 333 59006;EQDQ01  00002PRCP99
0192825860999992001082900004-05190-039300FM-12+021199999V02099999999992200019N0010001N1+02721+02031101141ADDAA199000091GF101991999999999999999999KA1240M+03541MA1999999098721MD1999999-0021REMSYN082AAXX  29004 82586 32994 105// 10272 20203 39872 40114 333 10354 29055 55104 59002;EQDQ01  00002PRCP99
0186825860999992001082912004-05190-039300FM-12+021199999V0200501N003112200019N0200001N1+02741+02121101261ADDAA199000091GF102991021011008001001001KA1240N+02261MA1999999098891MD1999999-0061REMSYN076AAXX  29124 82586 32598 20506 10274 20212 39889 40126 82100 333 20226 59006;EQDQ01  00002PRCP99
0167825860999992001082918004-05190-039300FM-12+021199999V0201401N001512200019N0200001N1+03411+01501100941ADDAA199000091GF104991041021008001001001MA1999999098581MD1999999-0051REMSYN070AAXX  29184 82586 32598 41403 10341 20150 39858 40094 84200 333 59005;EQDQ01  00002PRCP99
0208825860999992001083000004-05190-039300FM-12+021199999V0200501N001012200019N0002001N1+02761+01971101141ADDAA199000091GA1001+999999999GF100991001001999999001001KA1240M+03511MA1999999098781MD1999999+0001REMSYN082AAXX  30001 82586 32992 00501 10276 20197 39878 40114 333 10351 29056 55103 58000;EQDQ01  00002PRCP99
0186825860999992001083012004-05190-039300FM-12+021199999V0200901N005712200019N0200001N1+02841+01911101271ADDAA199000091GF101991011011008001001001KA1240N+02221MA1999999098911MD1999999+0021REMSYN076AAXX  30124 82586 32598 10911 10284 20191 39891 40127 81100 333 20222 58002;EQDQ01  00002PRCP99
0167825860999992001083018004-05190-039300FM-12+021199999V0201401N002612200019N0200001N1+03501+01261100921ADDAA199000091GF101991011011008001001001MA1999999098571MD1999999-0011REMSYN070AAXX  30184 82586 32598 11405 10350 20126 39857 40092 81100 333 59001;EQDQ01  00002PRCP99
0214825860999992001083100004-05190-039300FM-12+021199999V0203601N005112200019N0010001N1+02761+01991101081ADDAA199000091GF101991999011012501001001KA1240M+03601MA1999999098721MD1999999-0061REMSYN088AAXX  31004 82586 32694 13610 10276 20199 39872 40108 82100 333 10360 29056 55101 59006;EQDQ01+000022SCOTLCQ02  00002PRCP99
0196825860999992001083112004-05190-039300FM-12+021199999V0200901N005112200019N0200001N1+02801+01921101201ADDAA199000091GA1001+999999999GF100991001001999999001001KA1240N+02221MA1999999098841MD1999999-0071REMSYN070AAXX  31124 82586 32998 00910 10280 20192 39884 40120 333 20222 59007;EQDQ01  00002PRCP99
0177825860999992001083118004-05190-039300FM-12+021199999V0200901N003612200019N0200001N1+03421+01241100911ADDAA199000091GA1001+999999999GF100991001001999999001001MA1999999098561MD1999999-0011REMSYN064AAXX  31184 82586 32998 00907 10342 20124 39856 40091 333 59001;EQDQ01  00002PRCP99
0208825860999992001090100004-05190-039300FM-12+021199999V0200501N005112200019N0010001N1+02701+02031101031ADDAA199000091GA1001+999999999GF100991001001999999001001KA1240M+03501MA1999999098671MD1999999-0051REMSYN082AAXX  01004 82586 32994 00510 10270 20203 39867 40103 333 10350 29055 55103 59005;EQDQ01  00002PRCP99
0202825860999992001090112004-05190-039300FM-12+021199999V0200901N004112200019N0200001N1+02801+02031101291ADDAA199000091GF101991999011008001001001KA1240N+02221MA1999999098921MD1999999+0011REMSYN076AAXX  01124 82586 32598 10908 10280 20203 39892 40129 82100 333 20222 58001;EQDQ01+000022SCOTLCQ02  00002PRCP99
0183825860999992001090118004-05190-039300FM-12+021199999V0200901N003112200019N0200001N1+03411+01181100941ADDAA199000091GF101991999011008001001001MA1999999098581MD1999999+0031REMSYN070AAXX  01184 82586 32598 10906 10341 20118 39858 40094 82100 333 58003;EQDQ01+000022SCOTLCQ02  00002PRCP99
0198825860999992001090200004-05190-039300FM-12+021199999V0203601N003112200019N0010001N1+02741+01641101051ADDAA199000091GF102991021011012501001001KA1240M+03491MA1999999098691MD1999999+0021REMSYN088AAXX  02004 82586 32694 23606 10274 20164 39869 40105 82100 333 10349 29048 55103 58002;EQDQ01  00002PRCP99
0186825860999992001090212004-05190-039300FM-12+021199999V0200901N004612200019N0200001N1+02841+01671101231ADDAA199000091GF103991031011008001001001KA1240N+02331MA1999999098871MD1999999-0051REMSYN076AAXX  02124 82586 32598 30909 10284 20167 39887 40123 83100 333 20233 59005;EQDQ01  00002PRCP99
0167825860999992001090218004-05190-039300FM-12+021199999V02099999999990075019N0200001N1+03421+01251100911ADDAA199000091GF105991051021008001001001MA1999999098561MD1999999-0021REMSYN070AAXX  02184 82586 32598 514// 10342 20125 39856 40091 85200 333 59002;EQDQ01  00002PRCP99
0192825860999992001090300004-05190-039300FM-12+021199999V0200501N005112200019N0010001N1+02771+01891101011ADDAA199000091GF102991999999999999999999KA1240M+03501MA1999999098651MD1999999-0041REMSYN082AAXX  03004 82586 32994 20510 10277 20189 39865 40101 333 10350 29049 55092 59004;EQDQ01  00002PRCP99
0186825860999992001090312004-05190-039300FM-12+021199999V02099999999990075019N0200001N1+02701+01991101181ADDAA199000091GF108991081071008001999999KA1240N+02221MA1999999098821MD1999999-0051REMSYN076AAXX  03124 82586 32598 805// 10270 20199 39882 40118 887// 333 20222 59005;EQDQ01  00002PRCP99
0167825860999992001090318004-05190-039300FM-12+021199999V0201401N005110075019N0200001N1+03201+01891100891ADDAA199000091GF106991061041008001001001MA1999999098541MD1999999-0021REMSYN070AAXX  03184 82586 32598 61410 10320 20189 39854 40089 86400 333 59002;EQDQ01  00002PRCP99
0198825860999992001090400004-05190-039300FM-12+021199999V0200501N005112200019N0010001N1+02721+01901101061ADDAA199000091GF101991011021012501001001KA1240M+03341MA1999999098701MD1999999+0051REMSYN088AAXX  04004 82586 32694 10510 10272 20190 39870 40106 81200 333 10334 29058 55048 58005;EQDQ01  00002PRCP99
0186825860999992001090412004-05190-039300FM-12+021199999V0200901N003112200019N0200001N1+02801+01921101201ADDAA199000091GF101991011011008001001001KA1240N+02241MA1999999098841MD1999999+0021REMSYN076AAXX  04124 82586 32598 10906 10280 20192 39884 40120 81100 333 20224 58002;EQDQ01  00002PRCP99
0198825860999992001090500004-05190-039300FM-12+021199999V0200501N003112200019N0010001N1+02761+02021100991ADDAA199000091GF103991031001012501051001KA1240M+03561MA1999999098631MD1999999-0071REMSYN088AAXX  05004 82586 32694 30506 10276 20202 39863 40099 83050 333 10356 29054 55103 59007;EQDQ01  00002PRCP99
0186825860999992001090512004-05190-039300FM-12+021199999V0200901N003110075019N0200001N1+02821+02101101171ADDAA199000091GF106991061021008001001001KA1240N+02321MA1999999098811MD1999999-0031REMSYN076AAXX  05124 82586 32598 60906 10282 20210 39881 40117 86200 333 20232 59003;EQDQ01  00002PRCP99
0167825860999992001090518004-05190-039300FM-12+021199999V0201401N003112200019N0200001N1+03421+01611100861ADDAA199000091GF104991041011008001001001MA1999999098511MD1999999+0021REMSYN070AAXX  05184 82586 32598 41406 10342 20161 39851 40086 84100 333 58002;EQDQ01  00002PRCP99
0186825860999992001090612004-05190-039300FM-12+021199999V0200501N004612200019N0200001N1+02721+01981101141ADDAA199000091GF101991011011008001001001KA1240N+02061MA1999999098771MD1999999-0041REMSYN076AAXX  06124 82586 32598 10509 10272 20198 39877 40114 81100 333 20206 59004;EQDQ01  00002PRCP99
0167825860999992001090618004-05190-039300FM-12+021199999V0201401N001512200019N0200001N1+03501+01261100811ADDAA199000091GF101991011011008001001001MA1999999098471MD1999999-0041REMSYN070AAXX  06184 82586 32598 11403 10350 20126 39847 40081 81100 333 59004;EQDQ01  00002PRCP99
0192825860999992001090700004-05190-039300FM-12+021199999V0203601N005112200019N0010001N1+02661+01951100901ADDAA199000091GF101991999999999999999999KA1240M+03581MA1999999098541MD1999999-0061REMSYN082AAXX  07004 82586 32994 13610 10266 20195 39854 40090 333 10358 29055 55103 59006;EQDQ01  00002PRCP99
0186825860999992001090712004-05190-039300FM-12+021199999V0201401N002612200019N0200001N1+02661+01921101071ADDAA199000091GF105991031011008001001041KA1240N+02221MA1999999098701MD1999999-0071REMSYN076AAXX  07124 82586 32598 51405 10266 20192 39870 40107 83104 333 20222 59007;EQDQ01  00002PRCP99
0167825860999992001090718004-05190-039300FM-12+021199999V0201401N003112200019N0200001N1+03501+01581100691ADDAA199000091GF104991041011008001001001MA1999999098351MD1999999-0121REMSYN070AAXX  07184 82586 32598 41406 10350 20158 39835 40069 84100 333 59012;EQDQ01  00002PRCP99
0208825860999992001090800004-05190-039300FM-12+021199999V0203601N004112200019N0010001N1+02721+01741100911ADDAA199000091GA1001+999999999GF100991001001999999001001KA1240M+03601MA1999999098551MD1999999+0011REMSYN082AAXX  08004 82586 32994 03608 10272 20174 39855 40091 333 10360 29052 55096 58001;EQDQ01  00002PRCP99
0186825860999992001090812004-05190-039300FM-12+021199999V0201401N003112200019N0200001N1+02801+02151101121ADDAA199000091GF102991021011008001001001KA1240N+02241MA1999999098761MD1999999+0061REMSYN076AAXX  08124 82586 32598 21406 10280 20215 39876 40112 82100 333 20224 58006;EQDQ01  00002PRCP99
0183825860999992001090818004-05190-039300FM-12+021199999V0201601N005112200019N0200001N1+03481+01751100711ADDAA199000091GF103991999011008001001001MA1999999098371MD1999999+0021REMSYN070AAXX  08184 82586 32598 31610 10348 20175 39837 40071 81100 333 58002;EQDQ01+000012SCOTLCQ02  00002PRCP99
0208825860999992001090900004-05190-039300FM-12+021199999V0203601N004612200019N0010001N1+02721+01881100931ADDAA199000091GA1001+999999999GF100991001001999999001001KA1240M+03561MA1999999098571MD1999999+0021REMSYN082AAXX  09004 82586 32994 03609 10272 20188 39857 40093 333 10356 29055 55102 58002;EQDQ01  00002PRCP99
0202825860999992001090912004-05190-039300FM-12+021199999V0200901N003112200019N0200001N1+02741+01841101261ADDAA199000091GF104991999011008001001001KA1240N+02231MA1999999098891MD1999999+0131REMSYN076AAXX  09124 82586 32598 40906 10274 20184 39889 40126 82100 333 20223 58013;EQDQ01+000022SCOTLCQ02  00002PRCP99
0183825860999992001090918004-05190-039300FM-12+021199999V0201401N002612200019N0200001N1+03501+01431100841ADDAA199000091GF103991999011008001001001MA1999999098501MD1999999+0131REMSYN070AAXX  09184 82586 32598 31405 10350 20143 39850 40084 82100 333 58013;EQDQ01+000022SCOTLCQ02  00002PRCP99
0208825860999992001091000004-05190-039300FM-12+021199999V0203601N005112200019N0010001N1+02821+02001101051ADDAA199000091GA1001+999999999GF100991001001999999001001KA1240M+03581MA1999999098651MD1999999+0081REMSYN082AAXX  10004 82586 32994 03610 10282 20200 39865 40105 333 10358 29052 55096 58008;EQDQ01  00002PRCP99
0186825860999992001091012004-05190-039300FM-12+021199999V0200501N003110075019N0200001N1+02781+02251101251ADDAA199000091GF107991071071008001001001KA1240N+02401MA1999999098891MD1999999+0001REMSYN076AAXX  10124 82586 32598 70506 10278 20225 39889 40125 87700 333 20240 58000;EQDQ01  00002PRCP99
0208825860999992001091100004-05190-039300FM-12+021199999V02099999999992200019N0010001N1+02641+02141100991ADDAA199000091GA1001+999999999GF100991001001999999001001KA1240M+03601MA1999999098631MD1999999-0021REMSYN082AAXX  11004 82586 32994 036// 10264 20214 39863 40099 333 10360 29064 55103 59002;EQDQ01  00002PRCP99
0186825860999992001091112004-05190-039300FM-12+021199999V0203601N005112200019N0200001N1+02801+02081101061ADDAA199000091GF104991041011008001001001KA1240N+02421MA1999999098791MD1999999-0101REMSYN076AAXX  11124 82586 32598 43610 10280 20208 39879 40106 84100 333 20242 59010;EQDQ01  00002PRCP99
0167825860999992001091118004-05190-039300FM-12+021199999V0201401N003112200019N0200001N1+03581+01791100801ADDAA199000091GF104991041021008001001001MA1999999098461MD1999999-0011REMSYN070AAXX  11184 82586 32598 41406 10358 20179 39846 40080 84200 333 59001;EQDQ01  00002PRCP99
0208825860999992001091200004-05190-039300FM-12+021199999V0203601N003612200019N0010001N1+02581+01971100971ADDAA199000091GA1001+999999999GF100991001001999999001001KA1240M+03621MA1999999098611MD1999999-0021REMSYN082AAXX  12004 82586 32994 03607 10258 20197 39861 40097 333 10362 29060 55092 59002;EQDQ01  00002PRCP99
0186825860999992001091212004-05190-039300FM-12+021199999V0200501N005110075019N0200001N1+02701+02131101171ADDAA199000091GF105991051021008001001001KA1240N+02341MA1999999098791MD1999999+0001REMSYN076AAXX  12124 82586 32598 50510 10270 20213 39879 40117 85200 333 20234 58000;EQDQ01  00002PRCP99
0167825860999992001091218004-05190-039300FM-12+021199999V0200901N003112200019N0200001N1+03471+01341100801ADDAA199000091GF104991041011008001001001MA1999999098461MD1999999+0001REMSYN070AAXX  12184 82586 32598 40906 10347 20134 39846 40080 84100 333 58000;EQDQ01  00002PRCP99
0208825860999992001091300004-05190-039300FM-12+021199999V02099999999992200019N0010001N1+02601+01821100991ADDAA199000091GA1001+999999999GF100991001001999999001001KA1240M+03541MA1999999098631MD1999999+0021REMSYN082AAXX  13004 82586 32994 036// 10260 20182 39863 40099 333 10354 29056 55095 58002;EQDQ01  00002PRCP99
0186825860999992001091312004-05190-039300FM-12+021199999V0200501N005110075019N0200001N1+02641+02071101311ADDAA199000091GF106991061041008001001001KA1240N+02241MA1999999098931MD1999999+0141REMSYN076AAXX  13124 82586 32598 60510 10264 20207 39893 40131 86400 333 20224 58014;EQDQ01  00002PRCP99
0167825860999992001091318004-05190-039300FM-12+021199999V0200901N003110075019N0200001N1+03361+01461100931ADDAA199000091GF106991061021008001001001MA1999999098571MD1999999+0111REMSYN070AAXX  13184 82586 32598 60906 10336 20146 39857 40093 86200 333 58011;EQDQ01  00002PRCP99
0217825860999992001091400004-05190-039300FM-12+021199999V0203601N005112200019N0010001N1+02701+01721999999ADDAA199000091GA1001+999999999GF100991001001999999001001KA1240M+03501MA1999999098731MD1999999+0101ME1101009REMSYN082AAXX  14004 82586 32994 03610 10270 20172 39873 41100 333 10350 29053 55084 58010;EQDQ01  00002PRCP99
0186825860999992001091412004-05190-039300FM-12+021199999V0200501N003610075019N0200001N1+02801+02081101231ADDAA199000091GF105991051011008001001001KA1240N+02221MA1999999098861MD1999999-0071REMSYN076AAXX  14124 82586 32598 50507 10280 20208 39886 40123 85100 333 20222 59007;EQDQ01  00002PRCP99
0167825860999992001091418004-05190-039300FM-12+021199999V0200901N001510075019N0200001N1+03411+01451100831ADDAA199000091GF105991051011008001001001MA1999999098481MD1999999-0091REMSYN070AAXX  14184 82586 32598 50903 10341 20145 39848 40083 85100 333 59009;EQDQ01  00002PRCP99
0208825860999992001091500004-05190-039300FM-12+021199999V02099999999992200019N0010001N1+02721+01791100941ADDAA199000091GA1001+999999999GF100991001001999999001001KA1240M+03521MA1999999098581MD1999999-0151REMSYN082AAXX  15004 82586 32994 036// 10272 20179 39858 40094 333 10352 29053 55095 59015;EQDQ01  00002PRCP99
0202825860999992001091512004-05190-039300FM-12+021199999V0200501N003112200019N0200001N1+02841+01911101131ADDAA199000091GF101991999011008001001001KA1240N+02221MA1999999098771MD1999999-0091REMSYN076AAXX  15124 82586 32598 10506 10284 20191 39877 40113 82100 333 20222 59009;EQDQ01+000022SCOTLCQ02  00002PRCP99
0167825860999992001091518004-05190-039300FM-12+021199999V0200901N001512200019N0200001N1+03521+01391100691ADDAA199000091GF102991021011008001001001MA1999999098351MD1999999-0131REMSYN070AAXX  15184 82586 32598 20903 10352 20139 39835 40069 82100 333 59013;EQDQ01  00002PRCP99
0208825860999992001091600004-05190-039300FM-12+021199999V0203601N005112200019N0010001N1+02721+01901100931ADDAA199000091GA1001+999999999GF100991001001999999001001KA1240M+03601MA1999999098531MD1999999-0011REMSYN082AAXX  16004 82586 32994 03610 10272 20190 39853 40093 333 10360 29052 55101 59001;EQDQ01  00002PRCP99
0186825860999992001091612004-05190-039300FM-12+021199999V0200501N004612200019N0200001N1+02871+01901101081ADDAA199000091GF104991041011008001001001KA1240N+02401MA1999999098721MD1999999-0051REMSYN076AAXX  16124 82586 32598 40509 10287 20190 39872 40108 84100 333 20240 59005;EQDQ01  00002PRCP99
0167825860999992001091618004-05190-039300FM-12+021199999V0200901N004112200019N0200001N1+03561+01591100791ADDAA199000091GF102991021011008001001001MA1999999098451MD1999999+0101REMSYN070AAXX  16184 82586 32598 20908 10356 20159 39845 40079 82100 333 58010;EQDQ01  00002PRCP99
0208825860999992001091700004-05190-039300FM-12+021199999V0203601N005112200019N0010001N1+02901+01871100921ADDAA199000091GA1001+999999999GF100991001001999999001001KA1240M+03681MA1999999098571MD1999999+0001REMSYN082AAXX  17004 82586 32994 03610 10290 20187 39857 40092 333 10368 29049 55097 58000;EQDQ01  00002PRCP99
0186825860999992001091712004-05190-039300FM-12+021199999V0203601N004110075019N0200001N1+02801+02081101241ADDAA199000091GF107991071071008001001001KA1240N+02101MA1999999098881MD1999999+0161REMSYN076AAXX  17124 82586 32598 73608 10280 20208 39888 40124 87700 333 20210 58016;EQDQ01  00002PRCP99
0167825860999992001091718004-05190-039300FM-12+021199999V0200501N001512200019N0200001N1+03501+01671100831ADDAA199000091GF102991021011008001001001MA1999999098491MD1999999+0041REMSYN070AAXX  17184 82586 32598 20503 10350 20167 39849 40083 82100 333 58004;EQDQ01  00002PRCP99
0208825860999992001091800004-05190-039300FM-12+021199999V0203601N005112200019N0010001N1+02841+01931101011ADDAA199000091GA1001+999999999GF100991001001999999001001KA1240M+03601MA1999999098651MD1999999+0081REMSYN082AAXX  18004 82586 32994 03610 10284 20193 39865 40101 333 10360 29053 55078 58008;EQDQ01  00002PRCP99
0186825860999992001091812004-05190-039300FM-12+021199999V0203601N004610075019N0200001N1+02781+01961101181ADDAA199000091GF106991061021008001001001KA1240N+02381MA1999999098821MD1999999-0061REMSYN076AAXX  18124 82586 32598 63609 10278 20196 39882 40118 86200 333 20238 59006;EQDQ01  00002PRCP99
0167825860999992001091818004-05190-039300FM-12+021199999V0200501N003112200019N0200001N1+03501+01581100821ADDAA199000091GF104991041011008001001001MA1999999098481MD1999999-0011REMSYN070AAXX  18184 82586 32598 40506 10350 20158 39848 40082 84100 333 59001;EQDQ01  00002PRCP99
0256825860999992001091900004-05190-039300FM-12+021199999V0200501N003112200019N0010001N1+02701+01991101992ADDAA199000091GA1001+999999999GF100991001001999999001001KA1240M+03581MA1999999999999MD1999999-0021REMSYN082AAXX  19004 82586 32994 00506 10270 20199 30163 40199 333 10358 29056 55076 59002;EQDQ01+101633APOSP Q02+101993APOSLPQ03  00002PRCP99Q04 101633APOSP 
0186825860999992001091912004-05190-039300FM-12+021199999V0200501N005110075019N0200001N1+02801+01921101151ADDAA199000091GF107991071071008001001001KA1240N+02401MA1999999098791MD1999999-0031REMSYN076AAXX  19124 82586 32598 70510 10280 20192 39879 40115 87700 333 20240 59003;EQDQ01  00002PRCP99
0167825860999992001091918004-05190-039300FM-12+021199999V0200501N002110075019N0200001N1+03361+01511100821ADDAA199000091GF105991051021008001001001MA1999999098481MD1999999+0001REMSYN070AAXX  19184 82586 32598 50504 10336 20151 39848 40082 85200 333 58000;EQDQ01  00002PRCP99
0208825860999992001092000004-05190-039300FM-12+021199999V0203601N005112200019N0010001N1+02701+02011100951ADDAA199000091GA1001+999999999GF100991001001999999001001KA1240M+03481MA1999999098591MD1999999-0041REMSYN082AAXX  20004 82586 32994 03610 10270 20201 39859 40095 333 10348 29056 55083 59004;EQDQ01  00002PRCP99
0186825860999992001092012004-05190-039300FM-12+021199999V0200901N005110075019N0200001N1+02841+01911101151ADDAA199000091GF105991051021008001001001KA1240N+02301MA1999999098791MD1999999+0001REMSYN076AAXX  20124 82586 32598 50910 10284 20191 39879 40115 85200 333 20230 58000;EQDQ01  00002PRCP99
0183825860999992001092018004-05190-039300FM-12+021199999V0200901N002110075019N0200001N1+03441+01211100791ADDAA199000091GF106991999011008001001001MA1999999098451MD1999999-0031REMSYN070AAXX  20184 82586 32598 60904 10344 20121 39845 40079 85100 333 59003;EQDQ01+000052SCOTLCQ02  00002PRCP99
0208825860999992001092100004-05190-039300FM-12+021199999V0203601N004112200019N0010001N1+02801+01691100921ADDAA199000091GA1001+999999999GF100991001001999999001001KA1240M+03501MA1999999098561MD1999999-0031REMSYN082AAXX  21004 82586 32994 03608 10280 20169 39856 40092 333 10350 29046 55088 59003;EQDQ01  00002PRCP99
0186825860999992001092112004-05190-039300FM-12+021199999V0200901N004612200019N0200001N1+02841+01761101101ADDAA199000091GF104991041011008001001001KA1240N+02221MA1999999098741MD1999999-0051REMSYN076AAXX  21124 82586 32598 40909 10284 20176 39874 40110 84100 333 20222 59005;EQDQ01  00002PRCP99
0167825860999992001092118004-05190-039300FM-12+021199999V0200501N002112200019N0200001N1+03541+01241100761ADDAA199000091GF104991041021008001001001MA1999999098421MD1999999-0031REMSYN070AAXX  21184 82586 32598 40504 10354 20124 39842 40076 84200 333 59003;EQDQ01  00002PRCP99
0208825860999992001092200004-05190-039300FM-12+021199999V02099999999992200019N0010001N1+02641+01881101011ADDAA199000091GA1001+999999999GF100991001001999999001001KA1240M+03561MA1999999098651MD1999999+0091REMSYN082AAXX  22004 82586 32994 036// 10264 20188 39865 40101 333 10356 29052 55095 58009;EQDQ01  00002PRCP99
0186825860999992001092212004-05190-039300FM-12+021199999V0200501N005112200019N0200001N1+02881+02081101191ADDAA199000091GF104991041021008001001001KA1240N+02201MA1999999098831MD1999999+0091REMSYN076AAXX  22124 82586 32598 40510 10288 20208 39883 40119 84200 333 20220 58009;EQDQ01  00002PRCP99
0167825860999992001092218004-05190-039300FM-12+021199999V0200901N003110075019N0200001N1+03401+01501100761ADDAA199000091GF105991051021008001001001MA1999999098421MD1999999+0001REMSYN070AAXX  22184 82586 32598 50906 10340 20150 39842 40076 85200 333 58000;EQDQ01  00002PRCP99
0208825860999992001092300004-05190-039300FM-12+021199999V0203601N005112200019N0200001N1+02641+01931101001ADDAA199000091GA1001+999999999GF100991001001999999001001KA1240M+03551MA1999999098641MD1999999-0011REMSYN082AAXX  23004 82586 32998 03610 10264 20193 39864 40100 333 10355 29055 55092 59001;EQDQ01  00002PRCP99
0186825860999992001092312004-05190-039300FM-12+021199999V0200501N001512200019N0200001N1+02881+01771101151ADDAA199000091GF102991021011008001001001KA1240N+02221MA1999999098791MD1999999-0041REMSYN076AAXX  23124 82586 32598 20503 10288 20177 39879 40115 82100 333 20222 59004;EQDQ01  00002PRCP99
0183825860999992001092318004-05190-039300FM-12+021199999V0200901N003112200019N0200001N1+03561+01311100741ADDAA199000091GF103991999011008001001001MA1999999098401MD1999999-0021REMSYN070AAXX  23184 82586 32598 30906 10356 20131 39840 40074 82100 333 59002;EQDQ01+000022SCOTLCQ02  00002PRCP99
0208825860999992001092400004-05190-039300FM-12+021199999V0203601N005112200019N0010001N1+02661+01871100971ADDAA199000091GA1001+999999999GF100991001001999999001001KA1240M+03661MA1999999098611MD1999999-0051REMSYN082AAXX  24004 82586 32994 03610 10266 20187 39861 40097 333 10366 29050 55095 59005;EQDQ01  00002PRCP99
0196825860999992001092412004-05190-039300FM-12+021199999V0200501N004612200019N0200001N1+02821+01911101241ADDAA199000091GA1001+999999999GF100991001001999999001001KA1240N+02281MA1999999098871MD1999999+0081REMSYN070AAXX  24124 82586 32998 00509 10282 20191 39887 40124 333 20228 58008;EQDQ01  00002PRCP99
0177825860999992001092418004-05190-039300FM-12+021199999V0200501N003112200019N0200001N1+03491+01261100801ADDAA199000091GA1001+999999999GF100991001001999999001001MA1999999098461MD1999999+0061REMSYN064AAXX  24184 82586 32998 00506 10349 20126 39846 40080 333 58006;EQDQ01  00002PRCP99
0208825860999992001092500004-05190-039300FM-12+021199999V0203601N005112200019N0010001N1+02701+01881100981ADDAA199000091GA1001+999999999GF100991001001999999001001KA1240M+03541MA1999999098621MD1999999+0011REMSYN082AAXX  25004 82586 32994 03610 10270 20188 39862 40098 333 10354 29052 55094 58001;EQDQ01  00002PRCP99
0186825860999992001092512004-05190-039300FM-12+021199999V0200501N005110075019N0200001N1+02841+02071101201ADDAA199000091GF105991051021008001001001KA1240N+02281MA1999999098841MD1999999-0031REMSYN076AAXX  25124 82586 32598 50510 10284 20207 39884 40120 85200 333 20228 59003;EQDQ01  00002PRCP99
0168825860999992001092518004-05190-039300FM-12+021199999V0201401N002612200019N0500001N1+02801+01461101041ADDAA199000091GF104991021051008001061001MD1999999-0011REMSYN070AAXX  25184 82586 32599 41405 10280 20146 39000 40104 82560 333 59001;EQDQ01+090003APOSP Q02  00002PRCP99
0208825860999992001092600004-05190-039300FM-12+021199999V0203601N005112200019N0010001N1+02621+01961101101ADDAA199000091GA1001+999999999GF100991001001999999001001KA1240M+03501MA1999999098741MD1999999+0121REMSYN082AAXX  26004 82586 32994 03610 10262 20196 39874 40110 333 10350 29057 55096 58012;EQDQ01  00002PRCP99
0186825860999992001092612004-05190-039300FM-12+021199999V0200501N003612200019N0200001N1+02861+01781101251ADDAA199000091GF104991041021008001001001KA1240N+02361MA1999999098881MD1999999+0041REMSYN076AAXX  26124 82586 32598 40507 10286 20178 39888 40125 84200 333 20236 58004;EQDQ01  00002PRCP99
0167825860999992001092618004-05190-039300FM-12+021199999V0200501N003112200019N0200001N1+03441+01531100821ADDAA199000091GF102991021011008001001001MA1999999098481MD1999999+0001REMSYN070AAXX  26184 82586 32598 20506 10344 20153 39848 40082 82100 333 58000;EQDQ01  00002PRCP99
0208825860999992001092700004-05190-039300FM-12+021199999V0203601N006212200019N0010001N1+02641+01901101001ADDAA199000091GA1001+999999999GF100991001001999999001001KA1240M+03521MA1999999098641MD1999999-0101REMSYN082AAXX  27004 82586 32994 03612 10264 20190 39864 40100 333 10352 29053 55090 59010;EQDQ01  00002PRCP99
0186825860999992001092712004-05190-039300FM-12+021199999V0200501N002610075019N0200001N1+02601+01961101251ADDAA199000091GF107991071071008001001001KA1240N+02241MA1999999098871MD1999999-0011REMSYN076AAXX  27124 82586 32598 70505 10260 20196 39887 40125 87700 333 20224 59001;EQDQ01  00002PRCP99
0167825860999992001092718004-05190-039300FM-12+021199999V0200501N001512200019N0200001N1+03341+01711100881ADDAA199000091GF102991021011008001001001MA1999999098521MD1999999+0041REMSYN070AAXX  27184 82586 32598 20503 10334 20171 39852 40088 82100 333 58004;EQDQ01  00002PRCP99
0208825860999992001092800004-05190-039300FM-12+021199999V0203601N006712200019N0010001N1+02581+01971101031ADDAA199000091GA1001+999999999GF100991001001999999001001KA1240M+03441MA1999999098661MD1999999+0021REMSYN082AAXX  28004 82586 32994 03613 10258 20197 39866 40103 333 10344 29061 55063 58002;EQDQ01  00002PRCP99
0186825860999992001092812004-05190-039300FM-12+021199999V0203601N004612200019N0200001N1+02781+02011101261ADDAA199000091GF104991041011008001001001KA1240N+02201MA1999999098891MD1999999+0021REMSYN076AAXX  28124 82586 32598 43609 10278 20201 39889 40126 84100 333 20220 58002;EQDQ01  00002PRCP99
0167825860999992001092818004-05190-039300FM-12+021199999V0200501N003112200019N0200001N1+03521+01451100861ADDAA199000091GF101991011011008001001001MA1999999098511MD1999999-0011REMSYN070AAXX  28184 82586 32598 10506 10352 20145 39851 40086 81100 333 59001;EQDQ01  00002PRCP99
0208825860999992001092900004-05190-039300FM-12+021199999V0203601N005112200019N0010001N1+02651+01851101091ADDAA199000091GA1001+999999999GF100991001001999999001001KA1240M+03591MA1999999098731MD1999999+0071REMSYN082AAXX  29004 82586 32994 03610 10265 20185 39873 40109 333 10359 29054 55093 58007;EQDQ01  00002PRCP99
0186825860999992001092912004-05190-039300FM-12+021199999V0200501N003112200019N0200001N1+02741+02121101301ADDAA199000091GF104991041011008001001001KA1240N+02301MA1999999098931MD1999999+0041REMSYN076AAXX  29124 82586 32598 40506 10274 20212 39893 40130 84100 333 20230 58004;EQDQ01  00002PRCP99
0167825860999992001092918004-05190-039300FM-12+021199999V0200501N005112200019N0200001N1+03561+01311100891ADDAA199000091GF104991041021008001001001MA1999999098551MD1999999+0041REMSYN070AAXX  29184 82586 32598 40510 10356 20131 39855 40089 84200 333 58004;EQDQ01  00002PRCP99
0198825860999992001093000004-05190-039300FM-12+021199999V0203601N005112200019N0010001N1+02761+01891101081ADDAA199000091GF102991021011008001001001KA1240M+03641MA1999999098721MD1999999-0011REMSYN088AAXX  30004 82586 32594 23610 10276 20189 39872 40108 82100 333 10364 29053 55091 59001;EQDQ01  00002PRCP99
0186825860999992001093012004-05190-039300FM-12+021199999V02099999999992200019N0200001N1+02901+01811101271ADDAA199000091GF102991021011008001001001KA1240N+02401MA1999999098911MD1999999-0021REMSYN076AAXX  30124 82586 32598 205// 10290 20181 39891 40127 82100 333 20240 59002;EQDQ01  00002PRCP99
0167825860999992001093018004-05190-039300FM-12+021199999V0200901N003112200019N0200001N1+03521+01221100891ADDAA199000091GF104991041021008001001001MA1999999098551MD1999999+0001REMSYN070AAXX  30184 82586 32598 40906 10352 20122 39855 40089 84200 333 58000;EQDQ01  00002PRCP99
0208825860999992001100100004-05190-039300FM-12+021199999V0203601N005112200019N0010001N1+02781+01981101141ADDAA199000091GA1001+999999999GF100991001001999999001001KA1240M+03681MA1999999098781MD1999999+0061REMSYN082AAXX  01004 82586 32994 03610 10278 20198 39878 40114 333 10368 29050 55095 58006;EQDQ01  00002PRCP99
0202825860999992001100112004-05190-039300FM-12+021199999V0200301N005112200019N0200001N1+02901+01871101321ADDAA199000091GF101991001001999999001011KA1240N+02241MA1999999098961MD1999999+0051REMSYN076AAXX  01124 82586 32598 10310 10290 20187 39896 40132 80001 333 20224 58005;EQDQ01+008002SCOLCBQ02  00002PRCP99
0161825860999992001100118004-05190-039300FM-12+021199999V0200501N003112200019N0010001N1+03561+01251100881ADDAA199000091GF103991999999999999999999MA1999999098541MD1999999-0011REMSYN064AAXX  01184 82586 32994 30506 10356 20125 39854 40088 333 59001;EQDQ01  00002PRCP99
0192825860999992001100200004-05190-039300FM-12+021199999V0203601N007212200019N0010001N1+02691+01811101111ADDAA199000091GF103991999999999999999999KA1240M+03641MA1999999098751MD1999999-0031REMSYN082AAXX  02004 82586 32994 33614 10269 20181 39875 40111 333 10364 29045 55097 59003;EQDQ01  00002PRCP99
0186825860999992001100212004-05190-039300FM-12+021199999V0200501N004612200019N0200001N1+02901+01961101371ADDAA199000091GF103991031011008001001001KA1240N+02261MA1999999099001MD1999999+0041REMSYN076AAXX  02124 82586 32598 30509 10290 20196 39900 40137 83100 333 20226 58004;EQDQ01  00002PRCP99
0198825860999992001100300004-05190-039300FM-12+021199999V0203601N005112200019N0010001N1+02641+01931101181ADDAA199000091GF104991041011008001001001KA1240M+03601MA1999999098821MD1999999+0071REMSYN088AAXX  03004 82586 32594 43610 10264 20193 39882 40118 84100 333 10360 29054 55095 58007;EQDQ01  00002PRCP99
0186825860999992001100312004-05190-039300FM-12+021199999V0200501N002110075019N0200001N1+02821+01911101421ADDAA199000091GF105991051011008001001001KA1240N+02021MA1999999099051MD1999999+0051REMSYN076AAXX  03124 82586 32598 50504 10282 20191 39905 40142 85100 333 20202 58005;EQDQ01  00002PRCP99
0167825860999992001100318004-05190-039300FM-12+021199999V0200501N005112200019N0200001N1+03481+01521101061ADDAA199000091GF104991041011008001001001MA1999999098711MD1999999+0091REMSYN070AAXX  03184 82586 32598 40510 10348 20152 39871 40106 84100 333 58009;EQDQ01  00002PRCP99
0208825860999992001100400004-05190-039300FM-12+021199999V0203601N004612200019N0010001N1+02791+01671101211ADDAA199000091GA1001+999999999GF100991001001999999001001KA1240M+03521MA1999999098851MD1999999+0031REMSYN082AAXX  04004 82586 32994 03609 10279 20167 39885 40121 333 10352 29048 55097 58003;EQDQ01  00002PRCP99
0186825860999992001100412004-05190-039300FM-12+021199999V0200501N004612200019N0200001N1+02901+01871101271ADDAA199000091GF102991021011008001001001KA1240N+02101MA1999999098911MD1999999-0141REMSYN076AAXX  04124 82586 32598 20509 10290 20187 39891 40127 82100 333 20210 59014;EQDQ01  00002PRCP99
0183825860999992001100418004-05190-039300FM-12+021199999V0200501N003612200019N0200001N1+03621+01421100871ADDAA199000091GF103991999011008001001001MA1999999098531MD1999999-0181REMSYN070AAXX  04184 82586 32598 30507 10362 20142 39853 40087 84100 333 59018;EQDQ01+000042SCOTLCQ02  00002PRCP99
0208825860999992001100500004-05190-039300FM-12+021199999V0203601N002112200019N0010001N1+02841+01911100971ADDAA199000091GA1001+999999999GF100991001001999999001001KA1240M+03741MA1999999098611MD1999999-0241REMSYN082AAXX  05004 82586 32994 03604 10284 20191 39861 40097 333 10374 29049 55096 59024;EQDQ01  00002PRCP99
0186825860999992001100512004-05190-039300FM-12+021199999V0200501N003112200019N0200001N1+02861+02161101291ADDAA199000091GF102991021011008001001001KA1240N+02341MA1999999098931MD1999999+0021REMSYN076AAXX  05124 82586 32598 20506 10286 20216 39893 40129 82100 333 20234 58002;EQDQ01  00002PRCP99
0177825860999992001100518004-05190-039300FM-12+021199999V0200501N003112200019N0010001N1+03601+01291100821ADDAA199000091GA1001+999999999GF100991001001999999001001MA1999999098481MD1999999-0051REMSYN064AAXX  05184 82586 32994 00506 10360 20129 39848 40082 333 59005;EQDQ01  00002PRCP99
0208825860999992001100600004-05190-039300FM-12+021199999V0203601N005112200019N0010001N1+02921+01461100921ADDAA199000091GA1001+999999999GF100991001001999999001001KA1240M+03601MA1999999098571MD1999999-0051REMSYN082AAXX  06004 82586 32994 03610 10292 20146 39857 40092 333 10360 29041 55097 59005;EQDQ01  00002PRCP99
0186825860999992001100612004-05190-039300FM-12+021199999V0203601N004112200019N0200001N1+02841+01911101191ADDAA199000091GF104991041021008001001001KA1240N+02361MA1999999098841MD1999999-0091REMSYN076AAXX  06124 82586 32598 43608 10284 20191 39884 40119 84200 333 20236 59009;EQDQ01  00002PRCP99
0186825860999992001100712004-05190-039300FM-12+021199999V02099999999990075019N0200001N1+02761+01991101161ADDAA199000091GF106991061021008001001001KA1240N+02321MA1999999098801MD1999999-0041REMSYN076AAXX  07124 82586 32598 605// 10276 20199 39880 40116 86200 333 20232 59004;EQDQ01  00002PRCP99
0183825860999992001100718004-05190-039300FM-12+021199999V0200501N004119999999N0200001N1+03471+01641100821ADDAA199000091GF105991999011008001001001MA1999999098481MD1999999-0071REMSYN070AAXX  07184 82586 32598 50508 10347 20164 39848 40082 82100 333 59007;EQDQ01+000022SCOTLCQ02  00002PRCP99
0208825860999992001100800004-05190-039300FM-12+021199999V02099999999992200019N0010001N1+02721+01931101021ADDAA199000091GA1001+999999999GF100991001001999999001001KA1240M+03521MA1999999098661MD1999999+0041REMSYN082AAXX  08004 82586 32994 036// 10272 20193 39866 40102 333 10352 29053 55068 58004;EQDQ01  00002PRCP99
0186825860999992001100812004-05190-039300FM-12+021199999V0200201N004110450019N0200001N1+02841+01911101151ADDAA199000091GF105991031021008001011001KA1240N+02481MA1999999098791MD1999999-0011REMSYN076AAXX  08124 82586 32598 50208 10284 20191 39879 40115 83210 333 20248 59001;EQDQ01  00002PRCP99
0167825860999992001100818004-05190-039300FM-12+021199999V02099999999992200019N0200001N1+03521+01391100751ADDAA199000091GF104991041011008001001001MA1999999098411MD1999999-0071REMSYN070AAXX  08184 82586 32598 409// 10352 20139 39841 40075 84100 333 59007;EQDQ01  00002PRCP99
0208825860999992001100900004-05190-039300FM-12+021199999V0203601N003112200019N0010001N1+02721+01931100941ADDAA199000091GA1001+999999999GF100991001001999999001001KA1240M+03681MA1999999098581MD1999999-0081REMSYN082AAXX  09004 82586 32994 03606 10272 20193 39858 40094 333 10368 29052 55089 59008;EQDQ01  00002PRCP99
0186825860999992001100912004-05190-039300FM-12+021199999V0203601N004112200019N0200001N1+02861+02061101091ADDAA199000091GF104991041021008001001001KA1240N+02381MA1999999098691MD1999999-0101REMSYN076AAXX  09124 82586 32598 43608 10286 20206 39869 40109 84200 333 20238 59010;EQDQ01  00002PRCP99
0167825860999992001100918004-05190-039300FM-12+021199999V02099999999992200019N0200001N1+03581+01501100671ADDAA199000091GF103991031011008001001001MA1999999098341MD1999999-0071REMSYN070AAXX  09184 82586 32598 314// 10358 20150 39834 40067 83100 333 59007;EQDQ01  00002PRCP99
0208825860999992001101000004-05190-039300FM-12+021199999V02099999999992200019N0010001N1+02721+02051100821ADDAA199000091GA1001+999999999GF100991001001999999001001KA1240M+03651MA1999999098451MD1999999-0111REMSYN082AAXX  10004 82586 32994 036// 10272 20205 39845 40082 333 10365 29056 55099 59011;EQDQ01  00002PRCP99
0186825860999992001101012004-05190-039300FM-12+021199999V02099999999992200019N0200001N1+02901+01871101111ADDAA199000091GF103991031011008001001001KA1240N+02361MA1999999098751MD1999999+0061REMSYN076AAXX  10124 82586 32598 336// 10290 20187 39875 40111 83100 333 20236 58006;EQDQ01  00002PRCP99
0167825860999992001101018004-05190-039300FM-12+021199999V0200901N004112200019N0200001N1+03551+01461100771ADDAA199000091GF101991011011008001001001MA1999999098431MD1999999+0091REMSYN070AAXX  10184 82586 32598 10908 10355 20146 39843 40077 81100 333 58009;EQDQ01  00002PRCP99
0208825860999992001101100004-05190-039300FM-12+021199999V0203601N005112200019N0010001N1+02721+01791100891ADDAA199000091GA1001+999999999GF100991001001999999001001KA1240M+03561MA1999999098541MD1999999+0071REMSYN082AAXX  11004 82586 32994 03610 10272 20179 39854 40089 333 10356 29049 55087 58007;EQDQ01  00002PRCP99
0186825860999992001101112004-05190-039300FM-12+021199999V0200501N002610075019N0200001N1+02801+01921101111ADDAA199000091GF106991061041008001001001KA1240N+02381MA1999999098751MD1999999+0001REMSYN076AAXX  11124 82586 32598 60505 10280 20192 39875 40111 86400 333 20238 58000;EQDQ01  00002PRCP99
0167825860999992001101118004-05190-039300FM-12+021199999V0200501N003112200019N0200001N1+03501+01381100751ADDAA199000091GF104991041021008001001001MA1999999098411MD1999999-0021REMSYN070AAXX  11184 82586 32598 40506 10350 20138 39841 40075 84200 333 59002;EQDQ01  00002PRCP99
0208825860999992001101200004-05190-039300FM-12+021199999V0203601N005112200019N0010001N1+02821+01941100891ADDAA199000091GA1001+999999999GF100991001001999999001001KA1240M+03621MA1999999098541MD1999999+0001REMSYN082AAXX  12004 82586 32994 03610 10282 20194 39854 40089 333 10362 29051 55089 58000;EQDQ01  00002PRCP99
0186825860999992001101212004-05190-039300FM-12+021199999V0200501N001510075019N0200001N1+02841+02121101111ADDAA199000091GF107991071041008001001001KA1240N+02441MA1999999098751MD1999999+0001REMSYN076AAXX  12124 82586 32598 70503 10284 20212 39875 40111 87400 333 20244 58000;EQDQ01  00002PRCP99
0167825860999992001101218004-05190-039300FM-12+021199999V02099999999992200019N0200001N1+03441+01631100681ADDAA199000091GF104991041021008001001001MA1999999098341MD1999999-0071REMSYN070AAXX  12184 82586 32598 405// 10344 20163 39834 40068 84200 333 59007;EQDQ01  00002PRCP99
0208825860999992001101300004-05190-039300FM-12+021199999V0203601N003112200019N0010001N1+02721+01901101031ADDAA199000091GA1001+999999999GF100991001001999999001001KA1240M+03501MA1999999098671MD1999999+0131REMSYN082AAXX  13004 82586 32994 03606 10272 20190 39867 40103 333 10350 29055 55087 58013;EQDQ01  00002PRCP99
0186825860999992001101312004-05190-039300FM-12+021199999V0200501N001510075019N0200001N1+02541+02041101261ADDAA199000091GF108991081051008001999999KA1240N+02401MA1999999098851MD1999999+0101REMSYN076AAXX  13124 82586 32598 80503 10254 20204 39885 40126 885// 333 20240 58010;EQDQ01  00002PRCP99
0167825860999992001101318004-05190-039300FM-12+021199999V0200501N003112200019N0200001N1+03181+01911100861ADDAA199000091GF104991041021008001001001MA1999999098511MD1999999+0171REMSYN070AAXX  13184 82586 32598 40506 10318 20191 39851 40086 84200 333 58017;EQDQ01  00002PRCP99
0213825860999992001101400004-05190-039300FM-12+021199999V0203601N003110075019N0010001N1+02841+01961100971ADDAA106002091AY121061AY221061GF108991081061008001001001KA1240M+03331MA1999999098611MD1999999-0061MW1211REMSYN100AAXX  14004 82586 21594 83606 10284 20196 39861 40097 72122 88600 333 10333 29060 55047 59006 60021;
0173825860999992001101412004-05190-039300FM-12+021199999V0200501N005110075019N0200001N1+02761+01891101211ADDAA124002091GF106991061041008001001001KA1240N+02221MA1999999098851MD1999999+0001REMSYN082AAXX  14124 82586 22598 60510 10276 20189 39885 40121 86400 333 20222 58000 60024;
0208825860999992001101500004-05190-039300FM-12+021199999V0203601N003112200019N0010001N1+02721+01981101011ADDAA199000091GA1001+999999999GF100991001001999999001001KA1240M+03461MA1999999098651MD1999999+0041REMSYN082AAXX  15004 82586 32994 03606 10272 20198 39865 40101 333 10346 29055 55084 58004;EQDQ01  00002PRCP99
0201825860999992001101512004-05190-039300FM-12+021199999V0203601N004610075019N0200001N1+02661+02041101101ADDAA124000591AY151061AY221061GF106991061041008001001001KA1240N+02341MA1999999098741MD1999999-0111MW1031REMSYN088AAXX  15124 82586 21598 63609 10266 20204 39874 40110 70352 86400 333 20234 59011 69954;
0167825860999992001101518004-05190-039300FM-12+021199999V02099999999992200019N0200001N1+03521+01601100721ADDAA199000091GF104991041011008001001001MA1999999098381MD1999999-0101REMSYN070AAXX  15184 82586 32598 405// 10352 20160 39838 40072 84100 333 59010;EQDQ01  00002PRCP99
0208825860999992001101600004-05190-039300FM-12+021199999V0203601N003612200019N0010001N1+02781+01881100901ADDAA199000091GA1001+999999999GF100991001001999999001001KA1240M+03601MA1999999098541MD1999999-0111REMSYN082AAXX  16004 82586 32994 03607 10278 20188 39854 40090 333 10360 29054 55086 59011;EQDQ01  00002PRCP99
0186825860999992001101612004-05190-039300FM-12+021199999V0200501N005112200019N0200001N1+02921+01891101061ADDAA199000091GF104991041021008001001001KA1240N+02361MA1999999098701MD1999999-0041REMSYN076AAXX  16124 82586 32598 40510 10292 20189 39870 40106 84200 333 20236 59004;EQDQ01  00002PRCP99
0167825860999992001101618004-05190-039300FM-12+021199999V0200901N003110075019N0200001N1+03321+01651100721ADDAA199000091GF105991051021008001001001MA1999999098381MD1999999+0001REMSYN070AAXX  16184 82586 32598 50906 10332 20165 39838 40072 85200 333 58000;EQDQ01  00002PRCP99
0208825860999992001101700004-05190-039300FM-12+021199999V0203601N005112200019N0010001N1+02691+01841100891ADDAA199000091GA1001+999999999GF100991001001999999001001KA1240M+03441MA1999999098531MD1999999-0011REMSYN082AAXX  17004 82586 32994 03610 10269 20184 39853 40089 333 10344 29053 55082 59001;EQDQ01  00002PRCP99
0186825860999992001101712004-05190-039300FM-12+021199999V0203601N006212200019N0200001N1+02901+02101100991ADDAA199000091GF104991041011008001001001KA1240N+02301MA1999999098631MD1999999-0071REMSYN076AAXX  17124 82586 32598 43612 10290 20210 39863 40099 84100 333 20230 59007;EQDQ01  00002PRCP99
0167825860999992001101718004-05190-039300FM-12+021199999V0200501N005112200019N0200001N1+03601+01461100631ADDAA199000091GF103991031011008001001001MA1999999098291MD1999999-0091REMSYN070AAXX  17184 82586 32598 30510 10360 20146 39829 40063 83100 333 59009;EQDQ01  00002PRCP99
0208825860999992001101800004-05190-039300FM-12+021199999V0203601N003112200019N0010001N1+02701+01911100841ADDAA199000091GA1001+999999999GF100991001001999999001001KA1240M+03681MA1999999098491MD1999999-0041REMSYN082AAXX  18004 82586 32994 03606 10270 20191 39849 40084 333 10368 29051 55101 59004;EQDQ01  00002PRCP99
0186825860999992001101812004-05190-039300FM-12+021199999V0203601N007210075019N0200001N1+02821+01911100671ADDAA199000091GF106991061041008001001001KA1240N+02321MA1999999098611MD1999999-0021REMSYN076AAXX  18124 82586 32598 63614 10282 20191 39861 40067 86400 333 20232 59002;EQDQ01  00002PRCP99
0167825860999992001101818004-05190-039300FM-12+021199999V0200501N004612200019N0200001N1+03501+01481100611ADDAA199000091GF104991041011008001001001MA1999999098271MD1999999-0021REMSYN070AAXX  18184 82586 32598 40509 10350 20148 39827 40061 84100 333 59002;EQDQ01  00002PRCP99
0208825860999992001101900004-05190-039300FM-12+021199999V0203601N003612200019N0010001N1+02741+01891100791ADDAA199000091GA1001+999999999GF100991001001999999001001KA1240M+03691MA1999999098441MD1999999-0051REMSYN082AAXX  19004 82586 32994 03607 10274 20189 39844 40079 333 10369 29052 55100 59005;EQDQ01  00002PRCP99
0186825860999992001101912004-05190-039300FM-12+021199999V0200501N004612200019N0200001N1+02841+01911100971ADDAA199000091GF104991041011008001001001KA1240N+02241MA1999999098611MD1999999+0001REMSYN076AAXX  19124 82586 32598 40509 10284 20191 39861 40097 84100 333 20224 58000;EQDQ01  00002PRCP99
0167825860999992001101918004-05190-039300FM-12+021199999V0200501N004112200019N0200001N1+03581+01391100991ADDAA199000091GF105991021011008001001041MA1999999098251MD1999999-0021REMSYN070AAXX  19184 82586 32598 50508 10358 20139 39825 40099 82104 333 59002;EQDQ01  00002PRCP99
0208825860999992001102000004-05190-039300FM-12+021199999V0203601N008212200019N0010001N1+02681+01841100821ADDAA199000091GA1001+999999999GF100991001001999999001001KA1240M+03661MA1999999098471MD1999999+0031REMSYN082AAXX  20004 82586 32994 03616 10268 20184 39847 40082 333 10366 29051 55102 58003;EQDQ01  00002PRCP99
0186825860999992001102012004-05190-039300FM-12+021199999V0203601N003612200019N0200001N1+02901+01871101211ADDAA199000091GF104991021011008001001011KA1240N+02301MA1999999098851MD1999999+0241REMSYN076AAXX  20124 82586 32598 43607 10290 20187 39885 40121 82101 333 20230 58024;EQDQ01  00002PRCP99
0167825860999992001102018004-05190-039300FM-12+021199999V0200901N001512200019N0200001N1+03581+01391100701ADDAA199000091GF103991011011008001001041MA1999999098361MD1999999+0111REMSYN070AAXX  20184 82586 32598 30903 10358 20139 39836 40070 81104 333 58011;EQDQ01  00002PRCP99
0208825860999992001102100004-05190-039300FM-12+021199999V02099999999992200019N0010001N1+02801+01841100861ADDAA199000091GA1001+999999999GF100991001001999999001001KA1240M+03681MA1999999098541MD1999999+0071REMSYN082AAXX  21004 82586 32994 036// 10280 20184 39854 40086 333 10368 29048 55094 58007;EQDQ01  00002PRCP99
0186825860999992001102112004-05190-039300FM-12+021199999V0203601N005112200019N0200001N1+02881+01831101061ADDAA199000091GF103991031021008001001001KA1240N+02331MA1999999098701MD1999999-0151REMSYN076AAXX  21124 82586 32598 33610 10288 20183 39870 40106 83200 333 20233 59015;EQDQ01  00002PRCP99
0167825860999992001102118004-05190-039300FM-12+021199999V02099999999992200019N0200001N1+03601+01351100731ADDAA199000091GF102991021011008001001001MA1999999098391MD1999999+0031REMSYN070AAXX  21184 82586 32598 205// 10360 20135 39839 40073 82100 333 58003;EQDQ01  00002PRCP99
0208825860999992001102200004-05190-039300FM-12+021199999V0203601N001012200019N0010001N1+02781+01701100931ADDAA199000091GA1001+999999999GF100991001001999999001001KA1240M+03661MA1999999098571MD1999999+0031REMSYN082AAXX  22004 82586 32994 03602 10278 20170 39857 40093 333 10366 29046 55092 58003;EQDQ01  00002PRCP99
0186825860999992001102212004-05190-039300FM-12+021199999V0203601N003610075019N0200001N1+02881+01891101071ADDAA199000091GF106991061041008001001001KA1240N+02361MA1999999098711MD1999999+0011REMSYN076AAXX  22124 82586 32598 63607 10288 20189 39871 40107 86400 333 20236 58001;EQDQ01  00002PRCP99
0167825860999992001102218004-05190-039300FM-12+021199999V0200501N002112200019N0200001N1+03641+01401100631ADDAA199000091GF102991021011008001001001MA1999999098301MD1999999-0091REMSYN070AAXX  22184 82586 32598 20504 10364 20140 39830 40063 82100 333 59009;EQDQ01  00002PRCP99
0208825860999992001102300004-05190-039300FM-12+021199999V0203601N005112200019N0010001N1+02731+01881100771ADDAA199000091GA1001+999999999GF100991001001999999001001KA1240M+03581MA1999999098421MD1999999-0151REMSYN082AAXX  23004 82586 32994 03610 10273 20188 39842 40077 333 10358 29051 55089 59015;EQDQ01  00002PRCP99
0186825860999992001102312004-05190-039300FM-12+021199999V0200501N005110075019N0200001N1+02821+02021100981ADDAA199000091GF107991071071008001001001KA1240N+02381MA1999999098621MD1999999-0091REMSYN076AAXX  23124 82586 32598 70510 10282 20202 39862 40098 87700 333 20238 59009;EQDQ01  00002PRCP99
0167825860999992001102318004-05190-039300FM-12+021199999V0200501N005112200019N0200001N1+03581+01651100661ADDAA199000091GF104991041021008001001001MA1999999098331MD1999999+0031REMSYN070AAXX  23184 82586 32598 40510 10358 20165 39833 40066 84200 333 58003;EQDQ01  00002PRCP99
0208825860999992001102400004-05190-039300FM-12+021199999V0200501N003112200019N0010001N1+02821+01891100921ADDAA199000091GA1001+999999999GF100991001001999999001001KA1240M+03661MA1999999098561MD1999999+0141REMSYN082AAXX  24004 82586 32994 00506 10282 20189 39856 40092 333 10366 29052 55095 58014;EQDQ01  00002PRCP99
0201825860999992001102412004-05190-039300FM-12+021199999V0200901N003110075019N0200001N1+02841+02221101191ADDAA124000591AY151061AY221061GF107991071041008001001001KA1240N+02321MA1999999098831MD1999999+0211MW1031REMSYN088AAXX  24124 82586 21598 70906 10284 20222 39883 40119 70352 87400 333 20232 58021 69954;
0167825860999992001102418004-05190-039300FM-12+021199999V0200901N003112200019N0200001N1+03501+01631100811ADDAA199000091GF104991041021008001001001MA1999999098471MD1999999+0141REMSYN070AAXX  24184 82586 32598 40906 10350 20163 39847 40081 84200 333 58014;EQDQ01  00002PRCP99
0208825860999992001102500004-05190-039300FM-12+021199999V0200501N005712200019N0010001N1+02681+01991100991ADDAA199000091GA1001+999999999GF100991001001999999001001KA1240M+03551MA1999999098631MD1999999+0071REMSYN082AAXX  25004 82586 32994 00511 10268 20199 39863 40099 333 10355 29059 55086 58007;EQDQ01  00002PRCP99
0180825860999992001102512004-05190-039300FM-12+021199999V0200501N005119999999N0010001N1+02881+02031101221ADDAA199000091GF105991999999999999999999KA1240N+02341MA1999999098861MD1999999+0031REMSYN070AAXX  25124 82586 32994 50510 10288 20203 39886 40122 333 20234 58003;EQDQ01  00002PRCP99
0167825860999992001102518004-05190-039300FM-12+021199999V0200901N003612200019N0200001N1+03561+01321100831ADDAA199000091GF105991011011008001001041MA1999999098491MD1999999+0021REMSYN070AAXX  25184 82586 32598 50907 10356 20132 39849 40083 81104 333 58002;EQDQ01  00002PRCP99
0208825860999992001102600004-05190-039300FM-12+021199999V0200501N006712200019N0010001N1+02721+01821101011ADDAA199000091GA1001+999999999GF100991001001999999001001KA1240M+03541MA1999999098651MD1999999+0021REMSYN082AAXX  26004 82586 32994 00513 10272 20182 39865 40101 333 10354 29051 55100 58002;EQDQ01  00002PRCP99
0186825860999992001102612004-05190-039300FM-12+021199999V0200501N003610075019N0200001N1+02761+01941101161ADDAA199000091GF107991071071008001001001KA1240N+02261MA1999999098801MD1999999-0061REMSYN076AAXX  26124 82586 32598 70507 10276 20194 39880 40116 87700 333 20226 59006;EQDQ01  00002PRCP99
0167825860999992001102618004-05190-039300FM-12+021199999V0201401N002112200019N0200001N1+03241+01361100761ADDAA199000091GF107991021021008001001041MA1999999098411MD1999999-0081REMSYN070AAXX  26184 82586 32598 71404 10324 20136 39841 40076 82204 333 59008;EQDQ01  00002PRCP99
0198825860999992001102700004-05190-039300FM-12+021199999V0203601N003112200019N0010001N1+02821+01911100961ADDAA199000091GF106991031011008001001041KA1240M+03321MA1999999098601MD1999999-0051REMSYN088AAXX  27004 82586 32594 63606 10282 20191 39860 40096 83104 333 10332 29052 55032 59005;EQDQ01  00002PRCP99
0186825860999992001102712004-05190-039300FM-12+021199999V0200901N004112200019N0200001N1+02821+01941101131ADDAA199000091GF106991031021008001001041KA1240N+02021MA1999999098771MD1999999-0031REMSYN076AAXX  27124 82586 32598 60908 10282 20194 39877 40113 83204 333 20202 59003;EQDQ01  00002PRCP99
0167825860999992001102718004-05190-039300FM-12+021199999V0201401N003110450019N0200001N1+03241+01711100861ADDAA199000091GF108991031021008001021999MA1999999098511MD1999999+0101REMSYN070AAXX  27184 82586 32598 81406 10324 20171 39851 40086 8322/ 333 58010;EQDQ01  00002PRCP99
0198825860999992001102800004-05190-039300FM-12+021199999V0200501N004119999999N0010001N1+02721+02031100991ADDAA199000091GF105991031001012501051041KA1240M+03321MA1999999098631MD1999999+0031REMSYN088AAXX  28004 82586 32694 50508 10272 20203 39863 40099 83054 333 10332 29058 55049 58003;EQDQ01  00002PRCP99
0186825860999992001102812004-05190-039300FM-12+021199999V0201401N003610075019N0200001N1+02821+02001101121ADDAA199000091GF106991061041008001001001KA1240N+02401MA1999999098761MD1999999-0011REMSYN076AAXX  28124 82586 32598 61407 10282 20200 39876 40112 86400 333 20240 59001;EQDQ01  00002PRCP99
0167825860999992001102818004-05190-039300FM-12+021199999V0201401N003112200019N0200001N1+03461+01691100761ADDAA199000091GF104991041021008001001001MA1999999098411MD1999999-0101REMSYN070AAXX  28184 82586 32598 41406 10346 20169 39841 40076 84200 333 59010;EQDQ01  00002PRCP99
0210825860999992001102900004-05190-039300FM-12+021199999V0200501N006212200019N0010001N1+02721+02001101011ADDAA199000091GF106991031011008001001041KA1999M+03561KA2999N+00571MA1999999098651MD1999999+0021REMSYN087AAXX  29004 82586 32594 60512 10272 20200 39865 40101 83104333 10356 29057 55094 58002;EQDQ01  00002PRCP99
0186825860999992001102912004-05190-039300FM-12+021199999V0200901N005110075019N0200001N1+02821+02171101191ADDAA199000091GF107991071071008001001001KA1240N+02461MA1999999098831MD1999999+0071REMSYN076AAXX  29124 82586 32598 70910 10282 20217 39883 40119 87700 333 20246 58007;EQDQ01  00002PRCP99
0167825860999992001102918004-05190-039300FM-12+021199999V0201401N003110450019N0200001N1+03381+01791100811ADDAA199000091GF106991031011008001021001MA1999999098451MD1999999+0061REMSYN070AAXX  29184 82586 32598 61406 10338 20179 39845 40081 83120 333 58006;EQDQ01  00002PRCP99
0192825860999992001103000004-05190-039300FM-12+021199999V0200501N005119999999N0010001N1+02721+02071100981ADDAA199000091GF106991999999999999999999KA1240M+03481MA1999999098621MD1999999-0031REMSYN082AAXX  30004 82586 32994 60510 10272 20207 39862 40098 333 10348 29060 55032 59003;EQDQ01  00002PRCP99
0186825860999992001103012004-05190-039300FM-12+021199999V0200501N005710075019N0200001N1+02861+02031101281ADDAA199000091GF107991071071008001001001KA1240N+02421MA1999999098921MD1999999+0091REMSYN076AAXX  30124 82586 32598 70511 10286 20203 39892 40128 87700 333 20242 58009;EQDQ01  00002PRCP99
0183825860999992001103018004-05190-039300FM-12+021199999V0200901N003119999999N0200001N1+03491+01751100971ADDAA199000091GF105991999021008001001001MA1999999098571MD1999999+0101REMSYN070AAXX  30184 82586 32598 50906 10349 20175 39857 40097 86200 333 58010;EQDQ01+000062SCOTLCQ02  00002PRCP99
0208825860999992001103100004-05190-039300FM-12+021199999V0200501N004612200019N0010001N1+02671+02091101061ADDAA199000091GA1001+999999999GF100991001001999999001001KA1240M+03581MA1999999098701MD1999999+0081REMSYN082AAXX  31004 82586 32994 00509 10267 20209 39870 40106 333 10358 29060 55083 58008;EQDQ01  00002PRCP99
0186825860999992001103112004-05190-039300FM-12+021199999V0200901N003112200019N0200001N1+02881+02001101161ADDAA199000091GF104991021011008001031001KA1240N+02321MA1999999098801MD1999999-0121REMSYN076AAXX  31124 82586 32598 40906 10288 20200 39880 40116 82130 333 20232 59012;EQDQ01  00002PRCP99
0167825860999992001103118004-05190-039300FM-12+021199999V0201401N002112200019N0200001N1+03641+01551100691ADDAA199000091GF102991021011008001001001MA1999999098351MD1999999-0221REMSYN070AAXX  31184 82586 32598 21404 10364 20155 39835 40069 82100 333 59022;EQDQ01  00002PRCP99
0208825860999992001110100004-05190-039300FM-12+021199999V0200501N005712200019N0010001N1+02801+02081100821ADDAA199000091GA1001+999999999GF100991001001999999001001KA1240M+03751MA1999999098471MD1999999-0231REMSYN082AAXX  01004 82586 32994 00511 10280 20208 39847 40082 333 10375 29055 55100 59023;EQDQ01  00002PRCP99
0186825860999992001110112004-05190-039300FM-12+021199999V0200901N002610075019N0200001N1+02641+01931101031ADDAA199000091GF108991081071008001999999KA1240N+02441MA1999999098671MD1999999-0131REMSYN076AAXX  01124 82586 32598 80905 10264 20193 39867 40103 887// 333 20244 59013;EQDQ01  00002PRCP99
0167825860999992001110118004-05190-039300FM-12+021199999V0200501N001512200019N0200001N1+03561+01311100581ADDAA199000091GF102991021011008001001001MA1999999098251MD1999999-0101REMSYN070AAXX  01184 82586 32598 20503 10356 20131 39825 40058 82100 333 59010;EQDQ01  00002PRCP99
0208825860999992001110200004-05190-039300FM-12+021199999V0200501N005112200019N0010001N1+02821+02051100851ADDAA199000091GA1001+999999999GF100991001001999999001001KA1240M+03701MA1999999098491MD1999999+0021REMSYN082AAXX  02004 82586 32994 00510 10282 20205 39849 40085 333 10370 29054 55075 58002;EQDQ01  00002PRCP99
0186825860999992001110212004-05190-039300FM-12+021199999V0200901N003110075019N0200001N1+02681+01991100931ADDAA199000091GF107991071071008001001001KA1240N+02481MA1999999098571MD1999999-0101REMSYN076AAXX  02124 82586 32598 70906 10268 20199 39857 40093 87700 333 20248 59010;EQDQ01  00002PRCP99
0167825860999992001110218004-05190-039300FM-12+021199999V0200901N002112200019N0200001N1+03521+01701100661ADDAA199000091GF104991021011008001001041MA1999999098331MD1999999+0081REMSYN070AAXX  02184 82586 32598 40904 10352 20170 39833 40066 82104 333 58008;EQDQ01  00002PRCP99
0208825860999992001110300004-05190-039300FM-12+021199999V0200501N005112200019N0010001N1+02661+02181100901ADDAA199000091GA1001+999999999GF100991001001999999001001KA1240M+03601MA1999999098541MD1999999+0051REMSYN082AAXX  03004 82586 32994 00510 10266 20218 39854 40090 333 10360 29062 55079 58005;EQDQ01  00002PRCP99
0186825860999992001110312004-05190-039300FM-12+021199999V0200901N003610075019N0200001N1+02901+02041101101ADDAA199000091GF105991051041008001001001KA1240N+02461MA1999999098741MD1999999+0171REMSYN076AAXX  03124 82586 32598 50907 10290 20204 39874 40110 85400 333 20246 58017;EQDQ01  00002PRCP99
0167825860999992001110318004-05190-039300FM-12+021199999V0201401N003112200019N0200001N1+03361+01731100801ADDAA199000091GF104991041021008001001001MA1999999098461MD1999999+0131REMSYN070AAXX  03184 82586 32598 41406 10336 20173 39846 40080 84200 333 58013;EQDQ01  00002PRCP99
0208825860999992001110400004-05190-039300FM-12+021199999V0200501N005112200019N0010001N1+02621+02101100931ADDAA199000091GA1001+999999999GF100991001001999999001001KA1240M+03541MA1999999098571MD1999999+0031REMSYN082AAXX  04004 82586 32994 00510 10262 20210 39857 40093 333 10354 29061 55093 58003;EQDQ01  00002PRCP99
0186825860999992001110412004-05190-039300FM-12+021199999V0200901N005712200019N0200001N1+02801+01751101181ADDAA199000091GF104991041021008001001001KA1240N+02421MA1999999098811MD1999999+0071REMSYN076AAXX  04124 82586 32598 40911 10280 20175 39881 40118 84200 333 20242 58007;EQDQ01  00002PRCP99
0183825860999992001110418004-05190-039300FM-12+021199999V0200501N003112200019N0200001N1+03621+01641100791ADDAA199000091GF104991999011008001001001MA1999999098451MD1999999-0011REMSYN070AAXX  04184 82586 32598 40506 10362 20164 39845 40079 82100 333 59001;EQDQ01+000022SCOTLCQ02  00002PRCP99
0208825860999992001110500004-05190-039300FM-12+021199999V0200501N006212200019N0010001N1+02781+01971100971ADDAA199000091GA1001+999999999GF100991001001999999001001KA1240M+03601MA1999999098611MD1999999+0041REMSYN082AAXX  05004 82586 32994 00512 10278 20197 39861 40097 333 10360 29054 55107 58004;EQDQ01  00002PRCP99
0186825860999992001110512004-05190-039300FM-12+021199999V0200901N004110075019N0200001N1+02801+02031101181ADDAA199000091GF107991071071008001001001KA1240N+02461MA1999999098821MD1999999+0011REMSYN076AAXX  05124 82586 32598 70908 10280 20203 39882 40118 87700 333 20246 58001;EQDQ01  00002PRCP99
0167825860999992001110518004-05190-039300FM-12+021199999V0200901N003112200019N0200001N1+03521+01601100801ADDAA199000091GF104991041021008001001001MA1999999098461MD1999999+0011REMSYN070AAXX  05184 82586 32598 40906 10352 20160 39846 40080 84200 333 58001;EQDQ01  00002PRCP99
0208825860999992001110600004-05190-039300FM-12+021199999V0200501N005112200019N0010001N1+02721+01931101031ADDAA199000091GA1001+999999999GF100991001001999999001001KA1240M+03621MA1999999098671MD1999999+0061REMSYN082AAXX  06004 82586 32994 00510 10272 20193 39867 40103 333 10362 29054 55080 58006;EQDQ01  00002PRCP99
0186825860999992001110612004-05190-039300FM-12+021199999V0200501N003610075019N0200001N1+02801+02081101221ADDAA199000091GF108991081071008001999999KA1240N+02501MA1999999098851MD1999999+0031REMSYN076AAXX  06124 82586 32598 80507 10280 20208 39885 40122 887// 333 20250 58003;EQDQ01  00002PRCP99
0167825860999992001110618004-05190-039300FM-12+021199999V0201401N002112200019N0200001N1+03461+01901100881ADDAA199000091GF104991041021008001001001MA1999999098541MD1999999+0081REMSYN070AAXX  06184 82586 32598 41404 10346 20190 39854 40088 84200 333 58008;EQDQ01  00002PRCP99
0208825860999992001110700004-05190-039300FM-12+021199999V0200501N005112200019N0010001N1+02711+02131101041ADDAA199000091GA1001+999999999GF100991001001999999001001KA1240M+03541MA1999999098681MD1999999+0011REMSYN082AAXX  07004 82586 32994 00510 10271 20213 39868 40104 333 10354 29062 55075 58001;EQDQ01  00002PRCP99
0186825860999992001110712004-05190-039300FM-12+021199999V0200901N005110075019N0200001N1+02841+02071101241ADDAA199000091GF107991071071008001001001KA1240N+02461MA1999999098881MD1999999+0031REMSYN076AAXX  07124 82586 32598 70910 10284 20207 39888 40124 87700 333 20246 58003;EQDQ01  00002PRCP99
0167825860999992001110718004-05190-039300FM-12+021199999V0201401N008010075019N0200001N1+03241+01861100981ADDAA199000091GF105991051021008001001001MA1999999098621MD1999999+0081REMSYN070AAXX  07180 82586 32598 51408 10324 20186 39862 40098 85200 333 58008;EQDQ01  00002PRCP99
0208825860999992001110800004-05190-039300FM-12+021199999V0200501N005112200019N0010001N1+02621+02051101151ADDAA199000091GA1001+999999999GF100991001001999999001001KA1240M+03381MA1999999098791MD1999999+0111REMSYN082AAXX  08004 82586 32994 00510 10262 20205 39879 40115 333 10338 29062 55065 58011;EQDQ01  00002PRCP99
0186825860999992001110812004-05190-039300FM-12+021199999V0200501N006210075019N0200001N1+02901+01871101321ADDAA199000091GF106991061041008001001001KA1240N+02441MA1999999098961MD1999999+0081REMSYN076AAXX  08124 82586 32598 60512 10290 20187 39896 40132 86400 333 20244 58008;EQDQ01  00002PRCP99
0183825860999992001110818004-05190-039300FM-12+021199999V02099999999992200019N0200001N1+03511+01481100971ADDAA199000091GF104991999021008001001001MA1999999098631MD1999999+0011REMSYN070AAXX  08184 82586 32598 405// 10351 20148 39863 40097 85200 333 58001;EQDQ01+000052SCOTLCQ02  00002PRCP99
0208825860999992001110900004-05190-039300FM-12+021199999V0200501N005112200019N0010001N1+02761+01531101121ADDAA199000091GA1001+999999999GF100991001001999999001001KA1240M+03601MA1999999098761MD1999999-0021REMSYN082AAXX  09004 82586 32994 00510 10276 20153 39876 40112 333 10360 29045 55106 59002;EQDQ01  00002PRCP99
0186825860999992001110912004-05190-039300FM-12+021199999V0200901N004610075019N0200001N1+02801+02081101301ADDAA199000091GF107991071041008001001001KA1240N+02421MA1999999098941MD1999999-0021REMSYN076AAXX  09124 82586 32598 70909 10280 20208 39894 40130 87400 333 20242 59002;EQDQ01  00002PRCP99
0167825860999992001110918004-05190-039300FM-12+021199999V0200901N002112200019N0200001N1+03541+01621100901ADDAA199000091GF104991041011008001001001MA1999999098561MD1999999-0071REMSYN070AAXX  09184 82586 32598 40904 10354 20162 39856 40090 84100 333 59007;EQDQ01  00002PRCP99
0208825860999992001111000004-05190-039300FM-12+021199999V0200501N003112200019N0010001N1+02741+01891101141ADDAA199000091GA1001+999999999GF100991001001999999001001KA1240M+03601MA1999999098781MD1999999+0021REMSYN082AAXX  10004 82586 32994 00506 10274 20189 39878 40114 333 10360 29054 55081 58002;EQDQ01  00002PRCP99
0186825860999992001111012004-05190-039300FM-12+021199999V0200901N005112200019N0200001N1+02941+01761101311ADDAA199000091GF102991021011008001001001KA1240N+02381MA1999999098951MD1999999+0011REMSYN076AAXX  10124 82586 32598 20910 10294 20176 39895 40131 82100 333 20238 58001;EQDQ01  00002PRCP99
0167825860999992001111018004-05190-039300FM-12+021199999V0200901N003112200019N0200001N1+03521+01451100941ADDAA199000091GF102991021011008001001001MA1999999098601MD1999999+0041REMSYN070AAXX  10184 82586 32598 20906 10352 20145 39860 40094 82100 333 58004;EQDQ01  00002PRCP99
0208825860999992001111100004-05190-039300FM-12+021199999V0200501N006212200019N0010001N1+02741+01811101111ADDAA199000091GA1001+999999999GF100991001001999999001001KA1240M+03601MA1999999098751MD1999999-0031REMSYN082AAXX  11004 82586 32994 00512 10274 20181 39875 40111 333 10360 29048 55109 59003;EQDQ01  00002PRCP99
0186825860999992001111112004-05190-039300FM-12+021199999V0201401N003110075019N0200001N1+02781+02161101351ADDAA199000091GF106991061041008001001001KA1240N+02431MA1999999098881MD1999999+0031REMSYN076AAXX  11124 82586 32598 61406 10278 20216 39888 40135 86400 333 20243 58003;EQDQ01  00002PRCP99
0167825860999992001111118004-05190-039300FM-12+021199999V0200901N003112200019N0200001N1+03541+01681100831ADDAA199000091GF104991041021008001001001MA1999999098491MD1999999-0111REMSYN070AAXX  11184 82586 32598 40906 10354 20168 39849 40083 84200 333 59011;EQDQ01  00002PRCP99
0208825860999992001111200004-05190-039300FM-12+021199999V0200501N005712200019N0010001N1+02741+01951101141ADDAA199000091GA1001+999999999GF100991001001999999001001KA1240M+03621MA1999999098781MD1999999+0031REMSYN082AAXX  12004 82586 32994 00511 10274 20195 39878 40114 333 10362 29057 55099 58003;EQDQ01  00002PRCP99
0186825860999992001111212004-05190-039300FM-12+021199999V0200501N005112200019N0200001N1+02961+01871101301ADDAA199000091GF102991021011008001001001KA1240N+02521MA1999999098941MD1999999-0041REMSYN076AAXX  12124 82586 32598 20510 10296 20187 39894 40130 82100 333 20252 59004;EQDQ01  00002PRCP99
0167825860999992001111218004-05190-039300FM-12+021199999V0200901N004112200019N0200001N1+03621+01691100911ADDAA199000091GF104991041021008001001001MA1999999098571MD1999999+0081REMSYN070AAXX  12184 82586 32598 40908 10362 20169 39857 40091 84200 333 58008;EQDQ01  00002PRCP99
0208825860999992001111300004-05190-039300FM-12+021199999V0200501N006712200019N0010001N1+02721+01981101101ADDAA199000091GA1001+999999999GF100991001001999999001001KA1240M+03701MA1999999098741MD1999999-0041REMSYN082AAXX  13004 82586 32994 00513 10272 20198 39874 40110 333 10370 29053 55110 59004;EQDQ01  00002PRCP99
0186825860999992001111312004-05190-039300FM-12+021199999V0200501N005112200019N0200001N1+02861+01841101181ADDAA199000091GF103991031011008001001001KA1240N+02441MA1999999098821MD1999999-0121REMSYN076AAXX  13124 82586 32598 30510 10286 20184 39882 40118 83100 333 20244 59012;EQDQ01  00002PRCP99
0167825860999992001111318004-05190-039300FM-12+021199999V0200901N004612200019N0200001N1+03561+01601100791ADDAA199000091GF104991041011008001001001MA1999999098451MD1999999-0121REMSYN070AAXX  13184 82586 32598 40909 10356 20160 39845 40079 84100 333 59012;EQDQ01  00002PRCP99
0208825860999992001111400004-05190-039300FM-12+021199999V0200501N005112200019N0010001N1+02661+02091100971ADDAA199000091GA1001+999999999GF100991001001999999001001KA1240M+03661MA1999999098611MD1999999-0131REMSYN082AAXX  14004 82586 32994 00510 10266 20209 39861 40097 333 10366 29057 55111 59013;EQDQ01  00002PRCP99
0201825860999992001111412004-05190-039300FM-12+021199999V0200501N003610075019N0200001N1+02581+02191101071ADDAA124000391AY151061AY221061GF107991071071008001001001KA1240N+02381MA1999999098701MD1999999-0121MW1031REMSYN088AAXX  14124 82586 21598 70507 10258 20219 39870 40107 70352 87700 333 20238 59012 69934;
0167825860999992001111418004-05190-039300FM-12+021199999V0200501N004112200019N0200001N1+03781+01571100661ADDAA199000091GF104991041011008001001001MA1999999098351MD1999999-0131REMSYN070AAXX  14184 82586 32598 40508 10378 20157 39835 40066 84100 333 59013;EQDQ01  00002PRCP99
0208825860999992001111500004-05190-039300FM-12+021199999V0200501N001512200019N0010001N1+02681+01951100941ADDAA199000091GA1001+999999999GF100991001001999999001001KA1240M+03541MA1999999098581MD1999999-0031REMSYN082AAXX  15004 82586 32994 00503 10268 20195 39858 40094 333 10354 29059 55063 59003;EQDQ01  00002PRCP99
0186825860999992001111512004-05190-039300FM-12+021199999V0200501N005110075019N0200001N1+02701+02201101061ADDAA199000091GF108991081071008001999999KA1240N+02361MA1999999098701MD1999999+0001REMSYN076AAXX  15124 82586 32598 80510 10270 20220 39870 40106 887// 333 20236 58000;EQDQ01  00002PRCP99
0167825860999992001111518004-05190-039300FM-12+021199999V0200501N003112200019N0200001N1+03551+01671100741ADDAA199000091GF104991041011008001001001MA1999999098401MD1999999+0081REMSYN070AAXX  15184 82586 32598 40506 10355 20167 39840 40074 84100 333 58008;EQDQ01  00002PRCP99
0208825860999992001111600004-05190-039300FM-12+021199999V0200501N003612200019N0010001N1+02641+02001100991ADDAA199000091GA1001+999999999GF100991001001999999001001KA1240M+03621MA1999999098631MD1999999+0021REMSYN082AAXX  16004 82586 32994 00507 10264 20200 39863 40099 333 10362 29061 55072 58002;EQDQ01  00002PRCP99
0186825860999992001111612004-05190-039300FM-12+021199999V0200901N004610075019N0200001N1+02801+02151101241ADDAA199000091GF107991071071008001001001KA1240N+02481MA1999999098841MD1999999+0141REMSYN076AAXX  16124 82586 32598 70909 10280 20215 39884 40124 87700 333 20248 58014;EQDQ01  00002PRCP99
0167825860999992001111618004-05190-039300FM-12+021199999V0201401N003610075019N0200001N1+03501+01581100871ADDAA199000091GF105991051021008001001001MA1999999098531MD1999999+0131REMSYN070AAXX  16184 82586 32598 51407 10350 20158 39853 40087 85200 333 58013;EQDQ01  00002PRCP99
0208825860999992001111700004-05190-039300FM-12+021199999V0200501N005112200019N0010001N1+02761+02091101011ADDAA199000091GA1001+999999999GF100991001001999999001001KA1240M+03591MA1999999098651MD1999999+0021REMSYN082AAXX  17004 82586 32994 00510 10276 20209 39865 40101 333 10359 29075 55096 58002;EQDQ01  00002PRCP99
0186825860999992001111712004-05190-039300FM-12+021199999V0200501N005112200019N0200001N1+02961+02021101201ADDAA199000091GF102991021011008001001001KA1240N+02461MA1999999098841MD1999999+0001REMSYN076AAXX  17124 82586 32598 20510 10296 20202 39884 40120 82100 333 20246 58000;EQDQ01  00002PRCP99
0167825860999992001111718004-05190-039300FM-12+021199999V0200501N003612200019N0200001N1+03621+01241100831ADDAA199000091GF105991021011008001001041MA1999999098491MD1999999-0041REMSYN070AAXX  17184 82586 32598 50507 10362 20124 39849 40083 82104 333 59004;EQDQ01  00002PRCP99
0208825860999992001111800004-05190-039300FM-12+021199999V0200501N005112200019N0010001N1+02731+02121101041ADDAA199000091GA1001+999999999GF100991001001999999001001KA1240M+03661MA1999999098681MD1999999+0031REMSYN082AAXX  18004 82586 32994 00510 10273 20212 39868 40104 333 10366 29055 55112 58003;EQDQ01  00002PRCP99
0186825860999992001111812004-05190-039300FM-12+021199999V0200501N006210075019N0200001N1+02951+01851101191ADDAA199000091GF105991051021008001001001KA1240N+02551MA1999999098831MD1999999-0011REMSYN076AAXX  18124 82586 32598 50512 10295 20185 39883 40119 85200 333 20255 59001;EQDQ01  00002PRCP99
0167825860999992001111818004-05190-039300FM-12+021199999V0200901N002612200019N0200001N1+03581+01501100831ADDAA199000091GF104991041021008001001001MA1999999098491MD1999999+0001REMSYN070AAXX  18184 82586 32598 40905 10358 20150 39849 40083 84200 333 58000;EQDQ01  00002PRCP99
0208825860999992001111900004-05190-039300FM-12+021199999V0200501N004112200019N0010001N1+02881+01831100971ADDAA199000091GA1001+999999999GF100991001001999999001001KA1240M+03721MA1999999098631MD1999999-0051REMSYN082AAXX  19004 82586 32994 00508 10288 20183 39863 40097 333 10372 29047 55103 59005;EQDQ01  00002PRCP99
0186825860999992001111912004-05190-039300FM-12+021199999V0201401N003110075019N0200001N1+02841+02071101201ADDAA199000091GF107991071041008001001001KA1240N+02371MA1999999098841MD1999999+0011REMSYN076AAXX  19124 82586 32598 71406 10284 20207 39884 40120 87400 333 20237 58001;EQDQ01  00002PRCP99
0167825860999992001111918004-05190-039300FM-12+021199999V0200901N003110075019N0200001N1+03481+01571100841ADDAA199000091GF106991061021008001001001MA1999999098501MD1999999+0011REMSYN070AAXX  19184 82586 32598 60906 10348 20157 39850 40084 86200 333 58001;EQDQ01  00002PRCP99
0208825860999992001112000004-05190-039300FM-12+021199999V0200501N004612200019N0010001N1+02721+01951101011ADDAA199000091GA1001+999999999GF100991001001999999001001KA1240M+03601MA1999999098651MD1999999+0021REMSYN082AAXX  20004 82586 32994 00509 10272 20195 39865 40101 333 10360 29056 55102 58002;EQDQ01  00002PRCP99
0186825860999992001112012004-05190-039300FM-12+021199999V0200501N005110075019N0200001N1+02901+02041101151ADDAA199000091GF105991051021008001001001KA1240N+02441MA1999999098791MD1999999-0051REMSYN076AAXX  20124 82586 32598 50510 10290 20204 39879 40115 85200 333 20244 59005;EQDQ01  00002PRCP99
0167825860999992001112018004-05190-039300FM-12+021199999V0200501N003112200019N0200001N1+03481+01571100791ADDAA199000091GF104991041021008001001001MA1999999098751MD1999999-0051REMSYN070AAXX  20184 82586 32598 40506 10348 20157 39875 40079 84200 333 59005;EQDQ01  00002PRCP99
0208825860999992001112100004-05190-039300FM-12+021199999V0200501N006712200019N0010001N1+02701+01991100991ADDAA199000091GA1001+999999999GF100991001001999999001001KA1240M+03601MA1999999098631MD1999999-0021REMSYN082AAXX  21004 82586 32994 00513 10270 20199 39863 40099 333 10360 29056 55113 59002;EQDQ01  00002PRCP99
0186825860999992001112112004-05190-039300FM-12+021199999V0200501N004610075019N0200001N1+02861+02161101141ADDAA199000091GF106991061041008001001001KA1240N+02481MA1999999098781MD1999999-0011REMSYN076AAXX  21124 82586 32598 60509 10286 20216 39878 40114 86400 333 20248 59001;EQDQ01  00002PRCP99
0167825860999992001112118004-05190-039300FM-12+021199999V0201401N003112200019N0200001N1+03481+01661100841ADDAA199000091GF104991041021008001001001MA1999999098501MD1999999+0051REMSYN070AAXX  21184 82586 32598 41406 10348 20166 39850 40084 84200 333 58005;EQDQ01  00002PRCP99
0208825860999992001112200004-05190-039300FM-12+021199999V0200501N005112200019N0010001N1+02701+02131101081ADDAA199000091GA1001+999999999GF100991001001999999001001KA1240M+03541MA1999999098721MD1999999+0091REMSYN082AAXX  22004 82586 32994 00510 10270 20213 39872 40108 333 10354 29061 55097 58009;EQDQ01  00002PRCP99
0186825860999992001112212004-05190-039300FM-12+021199999V0200501N003112200019N0200001N1+02861+02161101181ADDAA199000091GF106991041021008001001011KA1240N+02441MA1999999098821MD1999999+0041REMSYN076AAXX  22124 82586 32598 60506 10286 20216 39882 40118 84201 333 20244 58004;EQDQ01  00002PRCP99
0167825860999992001112218004-05190-039300FM-12+021199999V0201401N006012200019N0200001N1+03561+01591100831ADDAA199000091GF105991031011008001001041MA1999999098491MD1999999-0011REMSYN070AAXX  22181 82586 32598 51406 10356 20159 39849 40083 83104 333 59001;EQDQ01  00002PRCP99
0208825860999992001112300004-05190-039300FM-12+021199999V0200501N005712200019N0010001N1+02701+02241100941ADDAA199000091GA1001+999999999GF100991001001999999001001KA1240M+03601MA1999999098581MD1999999-0141REMSYN082AAXX  23004 82586 32994 00511 10270 20224 39858 40094 333 10360 29062 55105 59014;EQDQ01  00002PRCP99
0186825860999992001112312004-05190-039300FM-12+021199999V0200901N004110075019N0200001N1+02881+02211101011ADDAA199000091GF106991061021008001001001KA1240N+02481MA1999999098651MD1999999-0171REMSYN076AAXX  23124 82586 32598 60908 10288 20221 39865 40101 86200 333 20248 59017;EQDQ01  00002PRCP99
0167825860999992001112318004-05190-039300FM-12+021199999V0200901N003112200019N0200001N1+03501+01721100661ADDAA199000091GF104991041021008001001001MA1999999098331MD1999999-0161REMSYN070AAXX  23184 82586 32598 40906 10350 20172 39833 40066 84200 333 59016;EQDQ01  00002PRCP99
0208825860999992001112400004-05190-039300FM-12+021199999V0200501N005712200019N0010001N1+02731+02171100801ADDAA199000091GA1001+999999999GF100991001001999999001001KA1240M+03581MA1999999098451MD1999999-0131REMSYN082AAXX  24004 82586 32994 00511 10273 20217 39845 40080 333 10358 29062 55103 59013;EQDQ01  00002PRCP99
0186825860999992001112412004-05190-039300FM-12+021199999V0200901N004610075019N0200001N1+02821+02071100941ADDAA199000091GF107991071071008001001001KA1240N+02461MA1999999098581MD1999999-0071REMSYN076AAXX  24124 82586 32598 70909 10282 20207 39858 40094 87700 333 20246 59007;EQDQ01  00002PRCP99
0167825860999992001112418004-05190-039300FM-12+021199999V0200501N003110450019N0200001N1+03381+01781100681ADDAA199000091GF107991021011008001021001MA1999999098341MD1999999+0011REMSYN070AAXX  24184 82586 32598 70506 10338 20178 39834 40068 82120 333 58001;EQDQ01  00002PRCP99
0198825860999992001112500004-05190-039300FM-12+021199999V0200501N005112200019N0010001N1+02741+02021100831ADDAA199000091GF104991021011008001001041KA1240M+03441MA1999999098481MD1999999+0031REMSYN088AAXX  25004 82586 32594 40510 10274 20202 39848 40083 82104 333 10344 29059 55031 58003;EQDQ01  00002PRCP99
0201825860999992001112512004-05190-039300FM-12+021199999V0200501N005110075019N0200001N1+02711+02131101051ADDAA124001091AY161061AY221061GF106991061021008001001001KA1240N+02401MA1999999098691MD1999999+0111MW1031REMSYN088AAXX  25124 82586 21598 60510 10271 20213 39869 40105 70362 86200 333 20240 58011 60014;
0201825860999992001112612004-05190-039300FM-12+021199999V0200501N006210075019N0200001N1+02801+02151101041ADDAA124006191AY161061AY221061GF106991061041008001001001KA1240N+02281MA1999999098681MD1999999-0011MW1031REMSYN088AAXX  26124 82586 21598 60512 10280 20215 39868 40104 70362 86400 333 20228 59001 60064;
0167825860999992001112618004-05190-039300FM-12+021199999V0200501N004610075019N0200001N1+03341+01801100751ADDAA199000091GF106991061041008001001001MA1999999098411MD1999999+0061REMSYN070AAXX  26184 82586 32598 60509 10334 20180 39841 40075 86400 333 58006;EQDQ01  00002PRCP99
0192825860999992001112700004-05190-039300FM-12+021199999V0200501N003112200019N0010001N1+02681+02161100931ADDAA199000091GF102991999999999999999999KA1240M+03501MA1999999098571MD1999999+0041REMSYN082AAXX  27004 82586 32994 20506 10268 20216 39857 40093 333 10350 29064 55066 58004;EQDQ01  00002PRCP99
0186825860999992001112712004-05190-039300FM-12+021199999V0200501N004112200019N0200001N1+02861+02231101091ADDAA199000091GF104991041021008001001001KA1240N+02461MA1999999098731MD1999999+0051REMSYN076AAXX  27124 82586 32598 40508 10286 20223 39873 40109 84200 333 20246 58005;EQDQ01  00002PRCP99
0167825860999992001112718004-05190-039300FM-12+021199999V0200901N003112200019N0200001N1+03461+01691100711ADDAA199000091GF106991031021008001001041MA1999999098371MD1999999-0041REMSYN070AAXX  27184 82586 32598 60906 10346 20169 39837 40071 83204 333 59004;EQDQ01  00002PRCP99
0242825860999992001112800004-05190-039300FM-12+021199999V0200501N005712200019N0010001N1+02761+02281100891ADDAA199000091AY121061AY221061GF103991999031008001001001KA1240M+03521MA1999999098541MD1999999-0031MW1131REMSYN094AAXX  28004 82586 31594 30511 10276 20228 39854 40089 71322 82300 333 10352 29065 55079 59003;EQDQ01+000022SCOTLCQ02  00002PRCP99
0186825860999992001112812004-05190-039300FM-12+021199999V0200501N001510075019N0200001N1+02861+02061101081ADDAA199000091GF107991071071008001001001KA1240N+02501MA1999999098721MD1999999-0011REMSYN076AAXX  28124 82586 32598 70503 10286 20206 39872 40108 87700 333 20250 59001;EQDQ01  00002PRCP99
0167825860999992001112818004-05190-039300FM-12+021199999V0200901N003110075019N0200001N1+03521+01601100741ADDAA199000091GF106991061021008001001001MA1999999098401MD1999999+0021REMSYN070AAXX  28184 82586 32598 60906 10352 20160 39840 40074 86200 333 58002;EQDQ01  00002PRCP99
0208825860999992001112900004-05190-039300FM-12+021199999V0200501N005112200019N0010001N1+02701+02201100941ADDAA199000091GA1001+999999999GF100991001001999999001001KA1240M+03551MA1999999098581MD1999999+0041REMSYN082AAXX  29004 82586 32994 00510 10270 20220 39858 40094 333 10355 29061 55092 58004;EQDQ01  00002PRCP99
0186825860999992001112912004-05190-039300FM-12+021199999V0200901N006210075019N0200001N1+03001+02001101101ADDAA199000091GF106991061071008001001001KA1240N+02481MA1999999098741MD1999999+0021REMSYN076AAXX  29124 82586 32598 60912 10300 20200 39874 40110 86700 333 20248 58002;EQDQ01  00002PRCP99
0167825860999992001112918004-05190-039300FM-12+021199999V0200501N005112200019N0200001N1+03601+01571100721ADDAA199000091GF106991041021008001001041MA1999999098381MD1999999-0021REMSYN070AAXX  29184 82586 32598 60510 10360 20157 39838 40072 84204 333 59002;EQDQ01  00002PRCP99
0208825860999992001113000004-05190-039300FM-12+021199999V0200501N005712200019N0010001N1+02711+02031100921ADDAA199000091GA1001+999999999GF100991001001999999001001KA1240M+03641MA1999999098561MD1999999-0021REMSYN082AAXX  30004 82586 32994 00511 10271 20203 39856 40092 333 10364 29055 55107 59002;EQDQ01  00002PRCP99
0186825860999992001113012004-05190-039300FM-12+021199999V0200501N003110075019N0200001N1+02891+02181101081ADDAA199000091GF106991061041008001001001KA1240N+02521MA1999999098721MD1999999-0021REMSYN076AAXX  30124 82586 32598 60506 10289 20218 39872 40108 86400 333 20252 59002;EQDQ01  00002PRCP99
0167825860999992001113018004-05190-039300FM-12+021199999V0200501N003112200019N0200001N1+03431+01741100741ADDAA199000091GF106991041021008001001041MA1999999098401MD1999999+0021REMSYN070AAXX  30184 82586 32598 60506 10343 20174 39840 40074 84204 333 58002;EQDQ01  00002PRCP99
0208825860999992001120100004-05190-039300FM-12+021199999V0200501N004612200019N0010001N1+02801+02131100981ADDAA199000091GA1001+999999999GF100991001001999999001001KA1240M+03621MA1999999098621MD1999999+0061REMSYN082AAXX  01004 82586 32994 00509 10280 20213 39862 40098 333 10362 29058 55077 58006;EQDQ01  00002PRCP99
0186825860999992001120112004-05190-039300FM-12+021199999V0200501N005110075019N0200001N1+02941+02191101071ADDAA199000091GF106991061041008001001001KA1240N+02501MA1999999098711MD1999999-0011REMSYN076AAXX  01124 82586 32598 60510 10294 20219 39871 40107 86400 333 20250 59001;EQDQ01  00002PRCP99
0167825860999992001120118004-05190-039300FM-12+021199999V0200501N005110450019N0200001N1+03441+01921100771ADDAA199000091GF108991041041008001021999MA1999999098431MD1999999+0031REMSYN070AAXX  01184 82586 32598 80510 10344 20192 39843 40077 8442/ 333 58003;EQDQ01  00002PRCP99
0208825860999992001120200004-05190-039300FM-12+021199999V0200501N003112200019N0010001N1+02821+02151100961ADDAA199000091GA1001+999999999GF100991001001999999001001KA1240M+03581MA1999999098611MD1999999-0011REMSYN082AAXX  02004 82586 32994 00506 10282 20215 39861 40096 333 10358 29060 55074 59001;EQDQ01  00002PRCP99
0186825860999992001120212004-05190-039300FM-12+021199999V0200901N003110075019N0200001N1+02841+02291101041ADDAA199000091GF106991061041008001001001KA1240N+02521MA1999999098681MD1999999-0031REMSYN076AAXX  02124 82586 32598 60906 10284 20229 39868 40104 86400 333 20252 59003;EQDQ01  00002PRCP99
0167825860999992001120218004-05190-039300FM-12+021199999V0200901N003110075019N0200001N1+03401+01901100901ADDAA199000091GF106991061041008001001001MA1999999098401MD1999999+0081REMSYN070AAXX  02184 82586 32598 60906 10340 20190 39840 40090 86400 333 58008;EQDQ01  00002PRCP99
0208825860999992001120300004-05190-039300FM-12+021199999V0200501N005712200019N0010001N1+02881+02081100891ADDAA199000091GA1001+999999999GF100991001001999999001001KA1240M+03601MA1999999098541MD1999999-0071REMSYN082AAXX  03004 82586 32994 00511 10288 20208 39854 40089 333 10360 29059 55081 59007;EQDQ01  00002PRCP99
0186825860999992001120312004-05190-039300FM-12+021199999V0200901N006210075019N0200001N1+02881+02211100981ADDAA199000091GF107991071041008001001001KA1240N+02461MA1999999098621MD1999999-0061REMSYN076AAXX  03124 82586 32598 70912 10288 20221 39862 40098 87400 333 20246 59006;EQDQ01  00002PRCP99
0167825860999992001120318004-05190-039300FM-12+021199999V0201401N004612200019N0200001N1+03591+01551100591ADDAA199000091GF104991041021008001001001MA1999999098271MD1999999-0241REMSYN070AAXX  03184 82586 32598 41409 10359 20155 39827 40059 84200 333 59024;EQDQ01  00002PRCP99
0198825860999992001120400004-05190-039300FM-12+021199999V0200501N005112200019N0010001N1+02801+02131100841ADDAA199000091GF102991021021008001001001KA1240M+03661MA1999999098491MD1999999-0051REMSYN088AAXX  04004 82586 32594 20510 10280 20213 39849 40084 82200 333 10366 29058 55090 59005;EQDQ01  00002PRCP99
0186825860999992001120412004-05190-039300FM-12+021199999V0200501N005710075019N0200001N1+02941+02111101051ADDAA199000091GF107991071041008001001001KA1240N+02441MA1999999098691MD1999999+0071REMSYN076AAXX  04124 82586 32598 70511 10294 20211 39869 40105 87400 333 20244 58007;EQDQ01  00002PRCP99
0167825860999992001120418004-05190-039300FM-12+021199999V0201401N003112200019N0200001N1+03581+01551100771ADDAA199000091GF106991031021008001001041MA1999999098431MD1999999+0161REMSYN070AAXX  04184 82586 32598 61406 10358 20155 39843 40077 83204 333 58016;EQDQ01  00002PRCP99
0208825860999992001120500004-05190-039300FM-12+021199999V0200501N005112200019N0010001N1+02781+01881100971ADDAA199000091GA1001+999999999GF100991001001999999001001KA1240M+03681MA1999999098611MD1999999+0121REMSYN082AAXX  05004 82586 32994 00510 10278 20188 39861 40097 333 10368 29050 55107 58012;EQDQ01  00002PRCP99
0186825860999992001120512004-05190-039300FM-12+021199999V0200901N001510075019N0200001N1+02901+02041101041ADDAA199000091GF107991071041008001001001KA1240N+02401MA1999999098681MD1999999-0011REMSYN076AAXX  05124 82586 32598 70903 10290 20204 39868 40104 87400 333 20240 59001;EQDQ01  00002PRCP99
0167825860999992001120518004-05190-039300FM-12+021199999V0201401N004110075019N0200001N1+03441+01671100771ADDAA199000091GF106991061041008001001001MA1999999098431MD1999999+0001REMSYN070AAXX  05184 82586 32598 61408 10344 20167 39843 40077 86400 333 58000;EQDQ01  00002PRCP99
0208825860999992001120600004-05190-039300FM-12+021199999V0200501N004612200019N0010001N1+02741+02301100911ADDAA199000091GA1001+999999999GF100991001001999999001001KA1240M+03521MA1999999098551MD1999999-0061REMSYN082AAXX  06004 82586 32994 00509 10274 20230 39855 40091 333 10352 29061 55096 59006;EQDQ01  00002PRCP99
0186825860999992001120612004-05190-039300FM-12+021199999V0200901N007210075019N0200001N1+02961+02021101041ADDAA199000091GF107991071041008001001001KA1240N+02461MA1999999098681MD1999999+0001REMSYN076AAXX  06124 82586 32598 70914 10296 20202 39868 40104 87400 333 20246 58000;EQDQ01  00002PRCP99
0167825860999992001120618004-05190-039300FM-12+021199999V0201401N004110075019N0200001N1+03501+01681100741ADDAA199000091GF106991061041008001001001MA1999999098401MD1999999-0031REMSYN070AAXX  06184 82586 32598 61408 10350 20168 39840 40074 86400 333 59003;EQDQ01  00002PRCP99
0208825860999992001120700004-05190-039300FM-12+021199999V0200501N001512200019N0010001N1+02821+02271100881ADDAA199000091GA1001+999999999GF100991001001999999001001KA1240M+03601MA1999999098541MD1999999-0011REMSYN082AAXX  07004 82586 32994 00503 10282 20227 39854 40088 333 10360 29059 55100 59001;EQDQ01  00002PRCP99
0186825860999992001120712004-05190-039300FM-12+021199999V0200901N005112200019N0200001N1+02901+02041101011ADDAA199000091GF104991041011008001001001KA1240N+02461MA1999999098651MD1999999-0031REMSYN076AAXX  07124 82586 32598 40910 10290 20204 39865 40101 84100 333 20246 59003;EQDQ01  00002PRCP99
0167825860999992001120718004-05190-039300FM-12+021199999V0200901N003112200019N0200001N1+03581+01601100611ADDAA199000091GF104991041011008001001001MA1999999098291MD1999999-0111REMSYN070AAXX  07184 82586 32598 40906 10358 20160 39829 40061 84100 333 59011;EQDQ01  00002PRCP99
0186825860999992001121012004-05190-039300FM-12+021199999V0200901N005710075019N0200001N1+02921+02061101001ADDAA199000091GF106991061041008001001001KA1240N+02521MA1999999098651MD1999999+0101REMSYN076AAXX  10124 82586 32598 60911 10292 20206 39865 40100 86400 333 20252 58010;EQDQ01  00002PRCP99
0167825860999992001121018004-05190-039300FM-12+021199999V0201401N003110075019N0200001N1+03271+01981100841ADDAA199000091GF107991071071008001001001MA1999999098501MD1999999+0131REMSYN070AAXX  10184 82586 32598 71406 10327 20198 39850 40084 87700 333 58013;EQDQ01  00002PRCP99
0208825860999992001121100004-05190-039300FM-12+021199999V0200501N004112200019N0010001N1+02861+02161100971ADDAA199000091GA1001+999999999GF100991001001999999001001KA1240M+03421MA1999999098621MD1999999+0081REMSYN082AAXX  11004 82586 32994 00508 10286 20216 39862 40097 333 10342 29060 55086 58008;EQDQ01  00002PRCP99
0167825860999992001121118004-05190-039300FM-12+021199999V0201401N004110075019N0200001N1+03521+01741100781ADDAA199000091GF105991051021008001001001MA1999999098441MD1999999-0061REMSYN070AAXX  11184 82586 32598 51408 10352 20174 39844 40078 85200 333 59006;EQDQ01  00002PRCP99
0208825860999992001121200004-05190-039300FM-12+021199999V0200501N003112200019N0010001N1+02701+02281101001ADDAA199000091GA1001+999999999GF100991001001999999001001KA1240M+03601MA1999999098641MD1999999+0021REMSYN082AAXX  12004 82586 32994 00506 10270 20228 39864 40100 333 10360 29067 55079 58002;EQDQ01  00002PRCP99
0186825860999992001121212004-05190-039300FM-12+021199999V0200501N005710075019N0200001N1+02961+02181101091ADDAA199000091GF106991061041008001001001KA1240N+02461MA1999999098731MD1999999+0011REMSYN076AAXX  12124 82586 32598 60511 10296 20218 39873 40109 86400 333 20246 58001;EQDQ01  00002PRCP99
0167825860999992001121218004-05190-039300FM-12+021199999V0200901N003110075019N0200001N1+03411+01851100721ADDAA199000091GF106991061021008001001001MA1999999098381MD1999999-0061REMSYN070AAXX  12184 82586 32598 60906 10341 20185 39838 40072 86200 333 59006;EQDQ01  00002PRCP99
0208825860999992001121300004-05190-039300FM-12+021199999V0200501N005112200019N0010001N1+02751+02141100941ADDAA199000091GA1001+999999999GF100991001001999999001001KA1240M+03251MA1999999098541MD1999999-0101REMSYN082AAXX  13004 82586 32994 00510 10275 20214 39854 40094 333 10325 29060 55076 59010;EQDQ01  00002PRCP99
0186825860999992001121312004-05190-039300FM-12+021199999V0200901N005110075019N0200001N1+02941+02081100981ADDAA199000091GF105991051021008001001001KA1240N+02491MA1999999098631MD1999999-0101REMSYN076AAXX  13124 82586 32598 50910 10294 20208 39863 40098 85200 333 20249 59010;EQDQ01  00002PRCP99
0183825860999992001121318004-05190-039300FM-12+021199999V0200901N004612200019N0200001N1+03521+01501100631ADDAA199000091GF104991999011008001001001MA1999999098291MD1999999-0091REMSYN070AAXX  13184 82586 32598 40909 10352 20150 39829 40063 82100 333 59009;EQDQ01+000022SCOTLCQ02  00002PRCP99
0208825860999992001121400004-05190-039300FM-12+021199999V0200501N005112200019N0010001N1+02881+01941100811ADDAA199000091GA1001+999999999GF100991001001999999001001KA1240M+03541MA1999999098471MD1999999-0071REMSYN082AAXX  14004 82586 32994 00510 10288 20194 39847 40081 333 10354 29051 55106 59007;EQDQ01  00002PRCP99
0186825860999992001121412004-05190-039300FM-12+021199999V0200901N005710075019N0200001N1+03001+02171101101ADDAA199000091GF106991061021008001001001KA1240N+02501MA1999999098751MD1999999+0121REMSYN076AAXX  14124 82586 32598 60911 10300 20217 39875 40110 86200 333 20250 58012;EQDQ01  00002PRCP99
0167825860999992001121418004-05190-039300FM-12+021199999V0200901N005112200019N0200001N1+03561+01911100761ADDAA199000091GF104991041021008001001001MA1999999098391MD1999999+0101REMSYN070AAXX  14184 82586 32598 40910 10356 20191 39839 40076 84200 333 58010;EQDQ01  00002PRCP99
0208825860999992001121500004-05190-039300FM-12+021199999V0200501N005112200019N0010001N1+02811+02251100881ADDAA199000091GA1001+999999999GF100991001001999999001001KA1240M+03621MA1999999098541MD1999999+0071REMSYN082AAXX  15004 82586 32994 00510 10281 20225 39854 40088 333 10362 29061 55109 58007;EQDQ01  00002PRCP99
0186825860999992001121512004-05190-039300FM-12+021199999V0200901N007710075019N0200001N1+03021+02221101021ADDAA199000091GF106991061021008001001001KA1240N+02521MA1999999098671MD1999999-0081REMSYN076AAXX  15124 82586 32598 60915 10302 20222 39867 40102 86200 333 20252 59008;EQDQ01  00002PRCP99
0167825860999992001121518004-05190-039300FM-12+021199999V0200501N005110075019N0200001N1+03481+02001100771ADDAA199000091GF106991061021008001001001MA1999999098431MD1999999+0041REMSYN070AAXX  15184 82586 32598 60510 10348 20200 39843 40077 86200 333 58004;EQDQ01  00002PRCP99
0208825860999992001121600004-05190-039300FM-12+021199999V0200501N005112200019N0010001N1+02801+02381100961ADDAA199000091GA1001+999999999GF100991001001999999001001KA1240M+03541MA1999999098611MD1999999+0071REMSYN082AAXX  16004 82586 32994 00510 10280 20238 39861 40096 333 10354 29065 55097 58007;EQDQ01  00002PRCP99
0186825860999992001121612004-05190-039300FM-12+021199999V0201401N004110075019N0200001N1+02971+02281100991ADDAA199000091GF106991061021008001001001KA1240N+02461MA1999999098641MD1999999-0021REMSYN076AAXX  16124 82586 32598 61408 10297 20228 39864 40099 86200 333 20246 59002;EQDQ01  00002PRCP99
0167825860999992001121618004-05190-039300FM-12+021199999V0200901N005110075019N0200001N1+03481+02071100771ADDAA199000091GF105991051021008001001001MA1999999098431MD1999999+0001REMSYN070AAXX  16184 82586 32598 50910 10348 20207 39843 40077 85200 333 58000;EQDQ01  00002PRCP99
0208825860999992001121700004-05190-039300FM-12+021199999V0200501N004612200019N0010001N1+02881+02101100881ADDAA199000091GA1001+999999999GF100991001001999999001001KA1240M+03561MA1999999098541MD1999999-0071REMSYN082AAXX  17004 82586 32994 00509 10288 20210 39854 40088 333 10356 29054 55108 59007;EQDQ01  00002PRCP99
0186825860999992001121712004-05190-039300FM-12+021199999V0200901N005110075019N0200001N1+02841+02291101041ADDAA199000091GF108991081071008001999999KA1240N+02521MA1999999098681MD1999999+0041REMSYN076AAXX  17124 82586 32598 80910 10284 20229 39868 40104 887// 333 20252 58004;EQDQ01  00002PRCP99
0168825860999992001121718004-05190-039300FM-12+021199999V0200501N005110075019N0200001N1+03331+02291100791ADDAA199000091GF106991061041008001001001MD1999999+0021REMSYN070AAXX  17184 82586 32598 60510 10333 20229 32845 40079 86400 333 58002;EQDQ01+028451APOSP Q02  00002PRCP99
0208825860999992001121800004-05190-039300FM-12+021199999V0200501N004612200019N0010001N1+02791+02131100941ADDAA199000091GA1001+999999999GF100991001001999999001001KA1240M+03421MA1999999098581MD1999999+0041REMSYN082AAXX  18004 82586 32994 00509 10279 20213 39858 40094 333 10342 29066 55065 58004;EQDQ01  00002PRCP99
0180825860999992001121812004-05190-039300FM-12+021199999V0200501N006712200019N0200001N1+02981+02171101231ADDAA199000091GF103991999999999999999999KA1240N+02381MA1999999098681MD1999999+0001REMSYN070AAXX  18124 82586 32998 30513 10298 20217 39868 40123 333 20238 58000;EQDQ01  00002PRCP99
0167825860999992001121818004-05190-039300FM-12+021199999V0200501N004612200019N0200001N1+03501+02021100811ADDAA199000091GF104991041021008001001001MA1999999098471MD1999999+0021REMSYN070AAXX  18184 82586 32598 40509 10350 20202 39847 40081 84200 333 58002;EQDQ01  00002PRCP99
0208825860999992001121900004-05190-039300FM-12+021199999V0200501N005112200019N0010001N1+02921+01891100961ADDAA199000091GA1001+999999999GF100991001001999999001001KA1240M+03561MA1999999098621MD1999999+0041REMSYN082AAXX  19004 82586 32994 00510 10292 20189 39862 40096 333 10356 29053 55108 58004;EQDQ01  00002PRCP99
0186825860999992001121912004-05190-039300FM-12+021199999V0200901N005112200019N0200001N1+03001+02321101071ADDAA199000091GF104991041011008001001001KA1240N+02461MA1999999098751MD1999999+0021REMSYN076AAXX  19124 82586 32598 40910 10300 20232 39875 40107 84100 333 20246 58002;EQDQ01  00002PRCP99
0167825860999992001121918004-05190-039300FM-12+021199999V0200901N005110075019N0200001N1+03491+02001100881ADDAA199000091GF105991051011008001001001MA1999999098541MD1999999+0071REMSYN070AAXX  19184 82586 32598 50910 10349 20200 39854 40088 85100 333 58007;EQDQ01  00002PRCP99
0198825860999992001122000004-05190-039300FM-12+021199999V0200501N005712200019N0200001N1+02921+02171100981ADDAA199000091GF103991031021008001001001KA1240M+03561MA1999999098641MD1999999-0041REMSYN088AAXX  20004 82586 32598 30511 10292 20217 39864 40098 83200 333 10356 29059 55110 59004;EQDQ01  00002PRCP99
0186825860999992001122012004-05190-039300FM-12+021199999V0200501N004112200019N0200001N1+02981+02171101121ADDAA199000091GF104991041021008001001001KA1240N+02501MA1999999098771MD1999999+0021REMSYN076AAXX  20124 82586 32598 40508 10298 20217 39877 40112 84200 333 20250 58002;EQDQ01  00002PRCP99
0167825860999992001122018004-05190-039300FM-12+021199999V0200501N005111050019N0200001N1+03561+01871100811ADDAA199000091GF105991031021008001001021MA1999999098471MD1999999-0071REMSYN070AAXX  20184 82586 32598 50510 10356 20187 39847 40081 83202 333 59007;EQDQ01  00002PRCP99
0208825860999992001122100004-05190-039300FM-12+021199999V0200501N006712200019N0010001N1+02861+02031100991ADDAA199000091GA1001+999999999GF100991001001999999001001KA1240M+03641MA1999999098641MD1999999+0001REMSYN082AAXX  21004 82586 32994 00513 10286 20203 39864 40099 333 10364 29055 55105 58000;EQDQ01  00002PRCP99
0186825860999992001122112004-05190-039300FM-12+021199999V0200901N005710075019N0200001N1+02881+02211101161ADDAA199000091GF107991071041008001001001KA1240N+02521MA1999999098801MD1999999+0031REMSYN076AAXX  21124 82586 32598 70911 10288 20221 39880 40116 87400 333 20252 58003;EQDQ01  00002PRCP99
0183825860999992001122118004-05190-039300FM-12+021199999V0201401N005710075019N0200001N1+03541+01891100791ADDAA199000091GF106991999021008001001001MA1999999098451MD1999999-0021REMSYN070AAXX  21184 82586 32598 61411 10354 20189 39845 40079 85200 333 59002;EQDQ01+000052SCOTLCQ02  00002PRCP99
0208825860999992001122200004-05190-039300FM-12+021199999V0200501N006212200019N0010001N1+02801+02311100911ADDAA199000091GA1001+999999999GF100991001001999999001001KA1240M+03621MA1999999098561MD1999999-0091REMSYN082AAXX  22004 82586 32994 00512 10280 20231 39856 40091 333 10362 29064 55111 59009;EQDQ01  00002PRCP99
0186825860999992001122212004-05190-039300FM-12+021199999V0200901N005110075019N0200001N1+03001+02171101171ADDAA199000091GF105991051021008001001001KA1240N+02521MA1999999098821MD1999999+0021REMSYN076AAXX  22124 82586 32598 50910 10300 20217 39882 40117 85200 333 20252 58002;EQDQ01  00002PRCP99
0167825860999992001122218004-05190-039300FM-12+021199999V0200901N004612200019N0200001N1+03581+01601100881ADDAA199000091GF104991041021008001001001MA1999999098531MD1999999+0111REMSYN070AAXX  22184 82586 32598 40909 10358 20160 39853 40088 84200 333 58011;EQDQ01  00002PRCP99
0208825860999992001122300004-05190-039300FM-12+021199999V0200501N005112200019N0010001N1+02901+02111100921ADDAA199000091GA1001+999999999GF100991001001999999001001KA1240M+03661MA1999999098581MD1999999+0031REMSYN082AAXX  23004 82586 32994 00510 10290 20211 39858 40092 333 10366 29056 55111 58003;EQDQ01  00002PRCP99
0186825860999992001122312004-05190-039300FM-12+021199999V0201401N003112200019N0200001N1+02961+02131101241ADDAA199000091GF104991041021008001001001KA1240N+02511MA1999999098891MD1999999-0071REMSYN076AAXX  23124 82586 32598 41406 10296 20213 39889 40124 84200 333 20251 59007;EQDQ01  00002PRCP99
0167825860999992001122318004-05190-039300FM-12+021199999V0200501N003610075019N0200001N1+03561+01821100921ADDAA199000091GF105991051021008001001001MA1999999098581MD1999999+0051REMSYN070AAXX  23184 82586 32598 50507 10356 20182 39858 40092 85200 333 58005;EQDQ01  00002PRCP99
0208825860999992001122400004-05190-039300FM-12+021199999V0200501N005112200019N0010001N1+02901+02031101031ADDAA199000091GA1001+999999999GF100991001001999999001001KA1240M+03641MA1999999098691MD1999999+0111REMSYN082AAXX  24004 82586 32994 00510 10290 20203 39869 40103 333 10364 29056 55112 58011;EQDQ01  00002PRCP99
0186825860999992001122412004-05190-039300FM-12+021199999V0200901N005710075019N0200001N1+02921+02291101201ADDAA199000091GF106991061041008001001001KA1240N+02501MA1999999098851MD1999999-0041REMSYN076AAXX  24124 82586 32598 60911 10292 20229 39885 40120 86400 333 20250 59004;EQDQ01  00002PRCP99
0167825860999992001122418004-05190-039300FM-12+021199999V0200901N005110075019N0200001N1+03601+01861100831ADDAA199000091GF105991051021008001001001MA1999999098491MD1999999-0091REMSYN070AAXX  24184 82586 32598 50910 10360 20186 39849 40083 85200 333 59009;EQDQ01  00002PRCP99
0208825860999992001122500004-05190-039300FM-12+021199999V0200501N004112200019N0010001N1+02911+02201100991ADDAA199000091GA1001+999999999GF100991001001999999001001KA1240M+03681MA1999999098651MD1999999-0041REMSYN082AAXX  25004 82586 32994 00508 10291 20220 39865 40099 333 10368 29059 55103 59004;EQDQ01  00002PRCP99
0186825860999992001122512004-05190-039300FM-12+021199999V0201401N005112200019N0200001N1+03061+02141101081ADDAA199000091GF101991011011008001001001KA1240N+02521MA1999999098741MD1999999-0111REMSYN076AAXX  25124 82586 32598 11410 10306 20214 39874 40108 81100 333 20252 59011;EQDQ01  00002PRCP99
0167825860999992001122518004-05190-039300FM-12+021199999V0201401N003112200019N0200001N1+03701+01761100761ADDAA199000091GF104991041011008001001001MA1999999098431MD1999999-0061REMSYN070AAXX  25184 82586 32598 41406 10370 20176 39843 40076 84100 333 59006;EQDQ01  00002PRCP99
0208825860999992001122600004-05190-039300FM-12+021199999V0200501N005112200019N0010001N1+02981+02281100921ADDAA199000091GA1001+999999999GF100991001001999999001001KA1240M+03781MA1999999098581MD1999999-0071REMSYN082AAXX  26004 82586 32994 00510 10298 20228 39858 40092 333 10378 29056 55113 59007;EQDQ01  00002PRCP99
0186825860999992001122612004-05190-039300FM-12+021199999V0200901N004110075019N0200001N1+02941+02191101111ADDAA199000091GF105991051021008001001001KA1240N+02501MA1999999098761MD1999999+0021REMSYN076AAXX  26124 82586 32598 50908 10294 20219 39876 40111 85200 333 20250 58002;EQDQ01  00002PRCP99
0167825860999992001122618004-05190-039300FM-12+021199999V0200901N005110075019N0200001N1+03611+01861100731ADDAA199000091GF105991051021008001001001MA1999999098391MD1999999-0041REMSYN070AAXX  26184 82586 32598 50910 10361 20186 39839 40073 85200 333 59004;EQDQ01  00002PRCP99
0208825860999992001122700004-05190-039300FM-12+021199999V0200501N005112200019N0010001N1+02981+02151100881ADDAA199000091GA1001+999999999GF100991001001999999001001KA1240M+03701MA1999999098541MD1999999-0041REMSYN082AAXX  27004 82586 32994 00510 10298 20215 39854 40088 333 10370 29056 55104 59004;EQDQ01  00002PRCP99
0186825860999992001122712004-05190-039300FM-12+021199999V0200501N005112200019N0200001N1+02921+02361101071ADDAA199000091GF104991041021008001001001KA1240N+02541MA1999999098731MD1999999-0031REMSYN076AAXX  27124 82586 32598 40510 10292 20236 39873 40107 84200 333 20254 59003;EQDQ01  00002PRCP99
0167825860999992001122718004-05190-039300FM-12+021199999V0201401N003110075019N0200001N1+03621+02001100811ADDAA199000091GF105991051021008001001001MA1999999098481MD1999999+0091REMSYN070AAXX  27184 82586 32598 51406 10362 20200 39848 40081 85200 333 58009;EQDQ01  00002PRCP99
0208825860999992001122800004-05190-039300FM-12+021199999V0200501N006212200019N0010001N1+02941+02241100931ADDAA199000091GA1001+999999999GF100991001001999999001001KA1240M+03741MA1999999098591MD1999999+0011REMSYN082AAXX  28004 82586 32994 00512 10294 20224 39859 40093 333 10374 29060 55104 58001;EQDQ01  00002PRCP99
0186825860999992001122812004-05190-039300FM-12+021199999V0200901N003610075019N0200001N1+02961+02391101151ADDAA199000091GF106991061041008001001001KA1240N+02601MA1999999098801MD1999999+0071REMSYN076AAXX  28124 82586 32598 60907 10296 20239 39880 40115 86400 333 20260 58007;EQDQ01  00002PRCP99
0167825860999992001122818004-05190-039300FM-12+021199999V0200901N003110075019N0200001N1+03461+02061100851ADDAA199000091GF106991061071008001001001MA1999999098511MD1999999+0031REMSYN070AAXX  28184 82586 32598 60906 10346 20206 39851 40085 86700 333 58003;EQDQ01  00002PRCP99
0208825860999992001122900004-05190-039300FM-12+021199999V0200501N005112200019N0010001N1+02921+02221101011ADDAA199000091GA1001+999999999GF100991001001999999001001KA1240M+03421MA1999999098671MD1999999+0081REMSYN082AAXX  29004 82586 32994 00510 10292 20222 39867 40101 333 10342 29062 55054 58008;EQDQ01  00002PRCP99
0186825860999992001122912004-05190-039300FM-12+021199999V0200501N004612200019N0200001N1+02901+02341101131ADDAA199000091GF106991041041008001001011KA1240N+02601MA1999999098781MD1999999-0021REMSYN076AAXX  29124 82586 32598 60509 10290 20234 39878 40113 84401 333 20260 59002;EQDQ01  00002PRCP99
0167825860999992001122918004-05190-039300FM-12+021199999V0200901N005110075019N0200001N1+03631+02081100801ADDAA199000091GF106991061041008001001001MA1999999098481MD1999999-0031REMSYN070AAXX  29184 82586 32598 60910 10363 20208 39848 40080 86400 333 59003;EQDQ01  00002PRCP99
0198825860999992001123000004-05190-039300FM-12+021199999V0200501N005110120019N0010001N1+02801+02421101011ADDAA199000091GF107991071001012501021001KA1240M+03661MA1999999098651MD1999999-0021REMSYN088AAXX  30004 82586 32694 70510 10280 20242 39865 40101 87020 333 10366 29068 55073 59002;EQDQ01  00002PRCP99
0201825860999992001123012004-05190-039300FM-12+021199999V0200501N005110075019N0200001N1+02681+02411101061ADDAA124003091AY161061AY221061GF108991081051008001999999KA1240N+02441MA1999999098701MD1999999-0081MW1031REMSYN088AAXX  30124 82586 21598 80510 10268 20241 39870 40106 70362 885// 333 20244 59008 60034;
0183825860999992001123018004-05190-039300FM-12+021199999V0203601N004119999999N0200001N1+03231+02041100781ADDAA199000091GF107991999021008001001001MA1999999098441MD1999999-0041REMSYN070AAXX  30184 82586 32598 73608 10323 20204 39844 40078 83200 333 59004;EQDQ01+000032SCOTLCQ02  00002PRCP99
0192825860999992001123100004-05190-039300FM-12+021199999V0203601N005719999999N0010001N1+02861+02211100931ADDAA199000091GF106991999999999999999999KA1240M+03421MA1999999098571MD1999999+0081REMSYN082AAXX  31004 82586 32994 63611 10286 20221 39857 40093 333 10342 29066 55029 58008;EQDQ01  00002PRCP99
0186825860999992001123112004-05190-039300FM-12+021199999V0200901N003110075019N0200001N1+02741+02401101091ADDAA199000091GF108991081071008001999999KA1240N+02521MA1999999098731MD1999999+0031REMSYN076AAXX  31124 82586 32598 80906 10274 20240 39873 40109 887// 333 20252 58003;EQDQ01  00002PRCP99
0167825860999992001123118004-05190-039300FM-12+021199999V0201401N003110450019N0200001N1+03301+01841100791ADDAA199000091GF108991031021008001021999MA1999999098451MD1999999+0011REMSYN070AAXX  31184 82586 32598 81406 10330 20184 39845 40079 8322/ 333 58001;EQDQ01  00002PRCP99
