0153825830999992001010112004-05170-040670FM-12+029999999V0200901N003110075019N0500001N1+02651+02041999999ADDAA199000091GF107991071051008001001001MA1999999097911REMSYN070AAXX  01124 82583 32599 70906 10265 20204 39791 40/// 87500 333 20///;EQDQ01  00002PRCP99
0153825830999992001010118004-05170-040670FM-12+029999999V0201401N001512200019N0500001N1+03431+01611999999ADDAA199000091GF102991011011008001001011MA1999999097511REMSYN070AAXX  01184 82583 32599 21403 10343 20161 39751 40/// 81101 333 58///;EQDQ01  00002PRCP99
0200825830999992001010200004-05170-040670FM-12+029999999V0203201N003610120019N0040001N1+02981+02041101101ADDAA199000091AY121061AY211061GF107991071081008001001001KA1240M+03571MA1999999097751MW1131REMSYN082AAXX  02004 82583 31596 73207 10298 20204 39775 40110 71321 87800 333 10357 58///;EQDQ01  00002PRCP99
0186825830999992001010212004-05170-040670FM-12+029999999V0200501N002610075019N0500001N1+02811+02101101271ADDAA199000091GF106991061021008001001001KA1240N+02451MA1999999097931MD1999999+0021REMSYN076AAXX  02124 82583 32599 60505 10281 20210 39793 40127 86200 333 20245 58002;EQDQ01  00002PRCP99
0167825830999992001010218004-05170-040670FM-12+029999999V0200501N002612200019N0500001N1+03471+01751100831ADDAA199000091GF103991031011008001001001MA1999999097511MD1999999+0001REMSYN070AAXX  02184 82583 32599 30505 10347 20175 39751 40083 83100 333 58000;EQDQ01  00002PRCP99
0214825830999992001010300004-05170-040670FM-12+029999999V0203601N002610075019N0040001N1+02771+02091101101ADDAA199000091AY121061AY211061GF108991081051008001999999KA1240M+03531MA1999999097751MD1999999+0001MW1171REMSYN082AAXX  03004 82583 31596 83605 10277 20209 39775 40110 71721 885// 333 10353 58000;EQDQ01  00002PRCP99
0186825830999992001010312004-05170-040670FM-12+029999999V0200901N004610075019N0500001N1+02811+02001101291ADDAA199000091GF106991051021008001041001KA1240N+02391MA1999999097941MD1999999+0011REMSYN076AAXX  03124 82583 32599 60909 10281 20200 39794 40129 85240 333 20239 58001;EQDQ01  00002PRCP99
0167825830999992001010318004-05170-040670FM-12+029999999V0201401N002610075019N0500001N1+03411+01561100811ADDAA199000091GF106991061021008001001001MA1999999097491MD1999999-0021REMSYN070AAXX  03184 82583 32599 61405 10341 20156 39749 40081 86200 333 59002;EQDQ01  00002PRCP99
0186825830999992001010400004-05170-040670FM-12+029999999V0209999C001510120019N0040001N1+02841+01701101001ADDAA199000091GF108991081081008001999999KA1240M+03531MA1999999097661MD1999999-0091REMSYN076AAXX  04004 82583 32596 80003 10284 20170 39766 40100 888// 333 10353 59009;EQDQ01  00002PRCP99
0186825830999992001010412004-05170-040670FM-12+029999999V0200501N039610075019N0500001N1+02701+02371101341ADDAA199000091GF107991071021008001999999KA1240N+02351MA1999999097981MD1999999+0041REMSYN076AAXX  04124 82583 32599 70577 10270 20237 39798 40134 872// 333 20235 58004;EQDQ01  00002PRCP99
0186825830999992001010500004-05170-040670FM-12+029999999V0203201N001510075019N0040001N1+02501+02111101331ADDAA199000091GF108991081021008001999999KA1240M+03101MA1999999097951MD1999999+0291REMSYN076AAXX  05004 82583 32596 83203 10250 20211 39795 40133 882// 333 10310 58029;EQDQ01  00002PRCP99
0186825830999992001010512004-05170-040670FM-12+029999999V0200901N004110075019N0500001N1+02761+01971101451ADDAA199000091GF106991061021008001001001KA1240N+02271MA1999999098071MD1999999+0091REMSYN076AAXX  05124 82583 32599 60908 10276 20197 39807 40145 86200 333 20227 58009;EQDQ01  00002PRCP99
0167825830999992001010518004-05170-040670FM-12+029999999V0200901N004112200019N0500001N1+03451+01731100911ADDAA199000091GF102991021021008001001001MA1999999097581MD1999999-0101REMSYN070AAXX  05184 82583 32599 20908 10345 20173 39758 40091 82200 333 59010;EQDQ01  00002PRCP99
0202825830999992001010600004-05170-040670FM-12+029999999V0201801N000519999999N0040001N1+03001+01911101041ADDAA199000091GF106991999021008001001001KA1240M+03521MA1999999097701MD1999999-0251REMSYN076AAXX  06004 82583 32596 61801 10300 20191 39770 40104 82200 333 10352 59025;EQDQ01+000022SCOTLCQ02  00002PRCP99
0186825830999992001010612004-05170-040670FM-12+029999999V0200501N004112200019N0500001N1+02831+01961101251ADDAA199000091GF103991021011008001001011KA1240N+02451MA1999999097911MD1999999-0131REMSYN076AAXX  06124 82583 32599 30508 10283 20196 39791 40125 82101 333 20245 59013;EQDQ01  00002PRCP99
0167825830999992001010618004-05170-040670FM-12+029999999V0200901N001510075019N0040001N1+03371+01661100811ADDAA199000091GF106991061021008001001001MA1999999097491MD1999999-0091REMSYN070AAXX  06184 82583 32596 60903 10337 20166 39749 40081 86200 333 59009;EQDQ01  00002PRCP99
0202825830999992001010700004-05170-040670FM-12+029999999V0201401N000519999999N0040001N1+03001+01911101041ADDAA199000091GF106991999011008001001001KA1240M+03521MA1999999097701MD1999999-0251REMSYN076AAXX  07004 82583 32596 61401 10300 20191 39770 40104 82100 333 10352 59025;EQDQ01+000022SCOTLCQ02  00002PRCP99
0201825830999992001010712004-05170-040670FM-12+029999999V0200901N001010075019N0500001N1+02421+02171101211ADDAA124004191AY161061AY261061GF108991081051008001999999KA1240N+02291MA1999999097851MD1999999-0061MW1021REMSYN088AAXX  07124 82583 21599 80902 10242 20217 39785 40121 70266 885// 333 20229 59006 60044;
0167825830999992001010718004-05170-040670FM-12+029999999V0200901N005110075019N0500001N1+03001+02051100941ADDAA199000091GF106991061021008001001001MA1999999097591MD1999999+0101REMSYN070AAXX  07184 82583 32599 60910 10300 20205 39759 40094 86200 333 58010;EQDQ01  00002PRCP99
0186825830999992001010800004-05170-040670FM-12+029999999V0203601N003110075019N0040001N1+02621+02051101241ADDAA199000091GF105991051021008001001001KA1240M+03051MA1999999097851MD1999999+0221REMSYN076AAXX  08004 82583 32596 53606 10262 20205 39785 40124 85200 333 10305 58022;EQDQ01  00002PRCP99
0186825830999992001010812004-05170-040670FM-12+029999999V0200901N003610075019N0500001N1+02631+01211101181ADDAA199000091GF106991051021008001001011KA1240N+02191MA1999999097821MD1999999-0031REMSYN076AAXX  08124 82583 32599 60907 10263 20121 39782 40118 85201 333 20219 59003;EQDQ01  00002PRCP99
0167825830999992001010818004-05170-040670FM-12+029999999V0201801N004612200019N0500001N1+03251+02021100751ADDAA199000091GF104991041021008001001001MA1999999097411MD1999999-0181REMSYN070AAXX  08184 82583 32599 41809 10325 20202 39741 40075 84200 333 59018;EQDQ01  00002PRCP99
0186825830999992001010912004-05170-040670FM-12+029999999V0200501N003110075019N0500001N1+02701+01991101271ADDAA199000091GF106991061021008001001001KA1240N+02371MA1999999097911MD1999999+0091REMSYN076AAXX  09124 82583 32599 60506 10270 20199 39791 40127 86200 333 20237 58009;EQDQ01  00002PRCP99
0167825830999992001010918004-05170-040670FM-12+029999999V0200901N003112200019N0500001N1+03251+01801100801ADDAA199000091GF105991041021008001001011MA1999999097461MD1999999+0051REMSYN070AAXX  09184 82583 32599 50906 10325 20180 39746 40080 84201 333 58005;EQDQ01  00002PRCP99
0180825830999992001011000004-05170-040670FM-12+029999999V0201401N001512200019N0040001N1+02751+01721100971ADDAA199000091GF102991999999999999999999KA1240M+03391MA1999999097621MD1999999-0021REMSYN070AAXX  10004 82583 32996 21403 10275 20172 39762 40097 333 10339 59002;EQDQ01  00002PRCP99
0186825830999992001011012004-05170-040670FM-12+029999999V0201401N001510120019N0500001N1+02621+02051101181ADDAA199000091GF107991061081008001041001KA1240N+02371MA1999999097821MD1999999+0091REMSYN076AAXX  10124 82583 32599 71403 10262 20205 39782 40118 86840 333 20237 58009;EQDQ01  00002PRCP99
0167825830999992001011018004-05170-040670FM-12+029999999V0200901N004610075019N0500001N1+03491+01811100741ADDAA199000091GF107991061021008001001021MA1999999097411MD1999999-0051REMSYN070AAXX  10184 82583 32599 70909 10349 20181 39741 40074 86202 333 59005;EQDQ01  00002PRCP99
0186825830999992001011100004-05170-040670FM-12+029999999V0203201N001510075019N0040001N1+02781+01981101111ADDAA199000091GF106991061021008001001001KA1240M+03501MA1999999097751MD1999999+0131REMSYN076AAXX  11004 82583 32596 63203 10278 20198 39775 40111 86200 333 10350 58013;EQDQ01  00002PRCP99
0201825830999992001011112004-05170-040670FM-12+029999999V0201801N001010075019N0500001N1+02601+02121101331ADDAA124002091AY161061AY261061GF108991081051008001999999KA1240N+02431MA1999999097961MD1999999+0141MW1021REMSYN088AAXX  11124 82583 21599 81802 10260 20212 39796 40133 70266 885// 333 20243 58014 60024;
0167825830999992001011118004-05170-040670FM-12+029999999V0201401N003110450019N0500001N1+02971+01791101061ADDAA199000091GF107991021011008001031001MA1999999097701MD1999999+0291REMSYN070AAXX  11184 82583 32599 71406 10297 20179 39770 40106 82130 333 58029;EQDQ01  00002PRCP99
0186825830999992001011200004-05170-040670FM-12+029999999V0200901N001510075019N0040001N1+02671+01781101211ADDAA199000091GF108991081051008001999999KA1240M+03011MA1999999097761MD1999999+0011REMSYN076AAXX  12004 82583 32596 80903 10267 20178 39776 40121 885// 333 10301 58001;EQDQ01  00002PRCP99
0201825830999992001011212004-05170-040670FM-12+029999999V0201801N002110120019N0500001N1+02301+02091101371ADDAA124000591AY161061AY261061GF108991081081008001999999KA1240N+02221MA1999999097981MD1999999+0021MW1031REMSYN088AAXX  12124 82583 21599 81804 10230 20209 39798 40137 70366 888// 333 20222 58002 69944;
0167825830999992001011218004-05170-040670FM-12+029999999V0200901N005110075019N0500001N1+02991+01881100911ADDAA199000091GF108991081021008001999999MA1999999097551MD1999999-0151REMSYN070AAXX  12184 82583 32599 80910 10299 20188 39755 40091 882// 333 59015;EQDQ01  00002PRCP99
0220825830999992001011300004-05170-040670FM-12+029999999V0203601N002110075019N0040001N1+02501+02231101341ADDAA106000191AY121061AY221061GF108991999051008001001001KA1240M+03151MA1999999097931MD1999999+0171MW1601REMSYN088AAXX  13004 82583 21596 83604 10250 20223 39793 40134 76022 86500 333 10315 58017 69911;EQDQ01+000062SCOTLC
0173825830999992001011312004-05170-040670FM-12+029999999V0201801N003110450019N0500001N1+02361+02031101351ADDAA124000191GF107991011011008001021001KA1240N+02151MA1999999097941MD1999999-0041REMSYN082AAXX  13124 82583 22599 71806 10236 20203 39794 40135 81120 333 20215 59004 69914;
0167825830999992001011318004-05170-040670FM-12+029999999V0201401N003110450019N0500001N1+03061+01901101021ADDAA199000091GF106991041021008001031001MA1999999097641MD1999999-0091REMSYN070AAXX  13184 82583 32599 61406 10306 20190 39764 40102 84230 333 59009;EQDQ01  00002PRCP99
0186825830999992001011400004-05170-040670FM-12+029999999V0201401N001510075019N0040001N1+02661+01971101281ADDAA199000091GF106991061021008001001001KA1240M+03131MA1999999097891MD1999999-0041REMSYN076AAXX  14004 82583 32596 61403 10266 20197 39789 40128 86200 333 10313 59004;EQDQ01  00002PRCP99
0201825830999992001011412004-05170-040670FM-12+029999999V0200901N001510075019N0500001N1+02361+02131101331ADDAA124004191AY161061AY251061GF107991071051008001001001KA1240N+02151MA1999999097941MD1999999+0001MW1031REMSYN088AAXX  14124 82583 21599 70903 10236 20213 39794 40133 70365 87500 333 20215 58000 60044;
0167825830999992001011418004-05170-040670FM-12+029999999V0200901N004610075019N0500001N1+03191+01821101081ADDAA199000091GF106991061021008001001001MA1999999097711MD1999999+0071REMSYN070AAXX  14184 82583 32599 60909 10319 20182 39771 40108 86200 333 58007;EQDQ01  00002PRCP99
0186825830999992001011500004-05170-040670FM-12+029999999V0200501N001512200019N0040001N1+02631+01801101171ADDAA199000091GF102991021011008001001001KA1240M+03321MA1999999097791MD1999999-0101REMSYN076AAXX  15004 82583 32596 20503 10263 20180 39779 40117 82100 333 10332 59010;EQDQ01  00002PRCP99
0186825830999992001011512004-05170-040670FM-12+029999999V0200901N005710075019N0500001N1+02751+02041101211ADDAA199000091GF106991061021008001001001KA1240N+02291MA1999999097851MD1999999-0091REMSYN076AAXX  15124 82583 32599 60911 10275 20204 39785 40121 86200 333 20229 59009;EQDQ01  00002PRCP99
0167825830999992001011518004-05170-040670FM-12+029999999V0200901N003612200019N0500001N1+03441+01331100891ADDAA199000091GF102991021011008001001001MA1999999097551MD1999999-0161REMSYN070AAXX  15184 82583 32599 20907 10344 20133 39755 40089 82100 333 59016;EQDQ01  00002PRCP99
0186825830999992001011600004-05170-040670FM-12+029999999V0201401N001512200019N0040001N1+02691+01541101101ADDAA199000091GF101991011011008001001001KA1240M+03471MA1999999097741MD1999999-0051REMSYN076AAXX  16004 82583 32596 11403 10269 20154 39774 40110 81100 333 10347 59005;EQDQ01  00002PRCP99
0186825830999992001011612004-05170-040670FM-12+029999999V0200901N003110120019N0500001N1+02641+01981101261ADDAA199000091GF108991081081008001999999KA1240N+02291MA1999999097891MD1999999+0041REMSYN076AAXX  16124 82583 32599 80906 10264 20198 39789 40126 888// 333 20229 58004;EQDQ01  00002PRCP99
0167825830999992001011618004-05170-040670FM-12+029999999V0200901N004610075019N0500001N1+03241+01671100881ADDAA199000091GF107991061021008001001021MA1999999097541MD1999999-0011REMSYN070AAXX  16184 82583 32599 70909 10324 20167 39754 40088 86202 333 59001;EQDQ01  00002PRCP99
0186825830999992001011700004-05170-040670FM-12+029999999V0201401N001012200019N0040001N1+02791+01661101111ADDAA199000091GF101991011011008001001001KA1240M+03381MA1999999097751MD1999999+0011REMSYN076AAXX  17004 82583 32596 11402 10279 20166 39775 40111 81100 333 10338 58001;EQDQ01  00002PRCP99
0202825830999992001011712004-05170-040670FM-12+029999999V0200901N002110075019N0500001N1+01711+99999101171ADDAA199000091GF106991051011008001001011KA1240N+99999MA1999999097811MD1999999-0081REMSYN076AAXX  17124 82583 32599 60904 10171 20198 39781 40117 85101 333 20223 59008;EQDQ01  00002PRCP99Q02 +02232ATMN  
0167825830999992001011718004-05170-040670FM-12+029999999V0200901N003610120019N0500001N1+03321+01481100851ADDAA199000091GF107991071081008001001001MA1999999097511MD1999999-0031REMSYN070AAXX  17184 82583 32599 70907 10332 20148 39751 40085 87800 333 59003;EQDQ01  00002PRCP99
0186825830999992001011800004-05170-040670FM-12+029999999V0201401N002110075019N0040001N1+02731+01891101201ADDAA199000091GF105991051021008001001001KA1240M+03421MA1999999097841MD1999999+0091REMSYN076AAXX  18004 82583 32596 51404 10273 20189 39784 40120 85200 333 10342 58009;EQDQ01  00002PRCP99
0186825830999992001011812004-05170-040670FM-12+029999999V0200501N002610450019N0500001N1+02651+01971101261ADDAA199000091GF107991021011008001021001KA1240N+02171MA1999999097901MD1999999-0091REMSYN076AAXX  18124 82583 32599 70505 10265 20197 39790 40126 82120 333 20217 59009;EQDQ01  00002PRCP99
0167825830999992001011818004-05170-040670FM-12+029999999V0201401N002112200019N0500001N1+03271+01741100911ADDAA199000091GF103991031021008001001001MA1999999097571MD1999999+0061REMSYN070AAXX  18184 82583 32599 31404 10327 20174 39757 40091 83200 333 58006;EQDQ01  00002PRCP99
0196825830999992001011900004-05170-040670FM-12+029999999V0201801N002612200019N0040001N1+02731+01571101151ADDAA199000091GA1001+999999999GF100991001001999999001001KA1240M+03381MA1999999097791MD1999999-0051REMSYN070AAXX  19004 82583 32996 01805 10273 20157 39779 40115 333 10338 59005;EQDQ01  00002PRCP99
0186825830999992001011912004-05170-040670FM-12+029999999V0200901N004112200019N0500001N1+02781+01881101361ADDAA199000091GF102991021011008001001001KA1240N+02251MA1999999098001MD1999999+0101REMSYN076AAXX  19124 82583 32599 20908 10278 20188 39800 40136 82100 333 20225 58010;EQDQ01  00002PRCP99
0167825830999992001011918004-05170-040670FM-12+029999999V0201401N003112200019N0500001N1+03501+01431100971ADDAA199000091GF104991041011008001001001MA1999999097641MD1999999+0071REMSYN070AAXX  19184 82583 32599 41406 10350 20143 39764 40097 84100 333 58007;EQDQ01  00002PRCP99
0202825830999992001012000004-05170-040670FM-12+029999999V0201401N001012200019N0040001N1+03001+01491101161ADDAA199000091GF101991999021008001001001KA1240M+03621MA1999999097821MD1999999-0031REMSYN076AAXX  20004 82583 32596 11402 10300 20149 39782 40116 85200 333 10362 59003;EQDQ01+000052SCOTLCQ02  00002PRCP99
0186825830999992001012012004-05170-040670FM-12+029999999V0200501N003112200019N0500001N1+02801+02001101441ADDAA199000091GF103991031011008001001001KA1240N+02341MA1999999098091MD1999999+0091REMSYN076AAXX  20124 82583 32599 30506 10280 20200 39809 40144 83100 333 20234 58009;EQDQ01  00002PRCP99
0167825830999992001012018004-05170-040670FM-12+029999999V0200501N002112200019N0500001N1+03521+01531100931ADDAA199000091GF103991031021008001001001MA1999999097611MD1999999-0031REMSYN070AAXX  20184 82583 32599 30504 10352 20153 39761 40093 83200 333 59003;EQDQ01  00002PRCP99
0196825830999992001012100004-05170-040670FM-12+029999999V0200501N001512200019N0040001N1+02921+01571101141ADDAA199000091GA1001+999999999GF100991001001999999001001KA1240M+03581MA1999999097801MD1999999-0021REMSYN070AAXX  21004 82583 32996 00503 10292 20157 39780 40114 333 10358 59002;EQDQ01  00002PRCP99
0186825830999992001012112004-05170-040670FM-12+029999999V0200501N001512200019N0500001N1+02661+02161101431ADDAA199000091GF103991031011008001001001KA1240N+02241MA1999999098071MD1999999-0021REMSYN076AAXX  21124 82583 32599 30503 10266 20216 39807 40143 83100 333 20224 59002;EQDQ01  00002PRCP99
0167825830999992001012118004-05170-040670FM-12+029999999V0200501N003612200019N0500001N1+03371+01981100921ADDAA199000091GF103991031011008001001001MA1999999097591MD1999999-0021REMSYN070AAXX  21184 82583 32599 30507 10337 20198 39759 40092 83100 333 59002;EQDQ01  00002PRCP99
0186825830999992001012200004-05170-040670FM-12+029999999V0203601N004612200019N0040001N1+02501+02051101311ADDAA199000091GF102991021011008001001001KA1240M+03501MA1999999097931MD1999999-0131REMSYN076AAXX  22004 82583 32596 23609 10250 20205 39793 40131 82100 333 10350 59013;EQDQ01  00002PRCP99
0186825830999992001012212004-05170-040670FM-12+029999999V0200501N002610450019N0500001N1+02631+02091101411ADDAA199000091GF107991041081008001021001KA1240N+02351MA1999999098061MD1999999-0011REMSYN076AAXX  22124 82583 32599 70505 10263 20209 39806 40141 84820 333 20235 59001;EQDQ01  00002PRCP99
0167825830999992001012218004-05170-040670FM-12+029999999V0200901N004112200019N0500001N1+03461+01641100901ADDAA199000091GF104991031021008001001011MA1999999097581MD1999999-0011REMSYN070AAXX  22184 82583 32599 40908 10346 20164 39758 40090 83201 333 59001;EQDQ01  00002PRCP99
0186825830999992001012300004-05170-040670FM-12+029999999V0203601N002112200019N0040001N1+02771+02131101211ADDAA199000091GF101991011081008001001001KA1240M+03521MA1999999097851MD1999999-0081REMSYN076AAXX  23004 82583 32596 13604 10277 20213 39785 40121 81800 333 10352 59008;EQDQ01  00002PRCP99
0186825830999992001012312004-05170-040670FM-12+029999999V0200901N003110120019N0500001N1+02781+02011101341ADDAA199000091GF107991061081008001001011KA1240N+02351MA1999999097981MD1999999-0081REMSYN076AAXX  23124 82583 32599 70906 10278 20201 39798 40134 86801 333 20235 59008;EQDQ01  00002PRCP99
0167825830999992001012318004-05170-040670FM-12+029999999V0201401N003612200019N0500001N1+03511+01601100861ADDAA199000091GF103991031011008001001001MA1999999097541MD1999999-0041REMSYN070AAXX  23184 82583 32599 31407 10351 20160 39754 40086 83100 333 59004;EQDQ01  00002PRCP99
0202825830999992001012400004-05170-040670FM-12+029999999V0201401N001012200019N0040001N1+02931+01281101081ADDAA199000091GF101991011011008001001001KA1240M+99999MA1999999097741MD1999999-0111REMSYN076AAXX  24004 82583 32596 11402 10293 20128 39774 40108 81100 333 10274 59011;EQDQ01  00002PRCP99Q02 +02742ATMX  
0186825830999992001012412004-05170-040670FM-12+029999999V0200501N003610120019N0500001N1+02661+02021101411ADDAA199000091GF107991071081008001001001KA1240N+02401MA1999999098051MD1999999+0071REMSYN076AAXX  24124 82583 32599 70507 10266 20202 39805 40141 87800 333 20240 58007;EQDQ01  00002PRCP99
0167825830999992001012418004-05170-040670FM-12+029999999V0200501N002612200019N0500001N1+03461+01671101011ADDAA199000091GF104991031011008001001011MA1999999097681MD1999999+0141REMSYN070AAXX  24184 82583 32599 40505 10346 20167 39768 40101 83101 333 58014;EQDQ01  00002PRCP99
0186825830999992001012500004-05170-040670FM-12+029999999V0200501N002112200019N0040001N1+03001+01641101141ADDAA199000091GF102991021011008001011001KA1240M+03521MA1999999097791MD1999999+0051REMSYN076AAXX  25004 82583 32596 20504 10300 20164 39779 40114 82110 333 10352 58005;EQDQ01  00002PRCP99
0186825830999992001012512004-05170-040670FM-12+029999999V0200901N003610075019N0500001N1+02811+01941101381ADDAA199000091GF106991061021008001001001KA1240N+02311MA1999999098021MD1999999-0031REMSYN076AAXX  25124 82583 32599 60907 10281 20194 39802 40138 86200 333 20231 59003;EQDQ01  00002PRCP99
0167825830999992001012518004-05170-040670FM-12+029999999V0200901N002112200019N0500001N1+03521+01651100951ADDAA199000091GF102991021021008001001001MA1999999097631MD1999999-0051REMSYN070AAXX  25184 82583 32599 20904 10352 20165 39763 40095 82200 333 59005;EQDQ01  00002PRCP99
0186825830999992001012600004-05170-040670FM-12+029999999V0200501N002112200019N0040001N1+03001+01611101131ADDAA199000091GF101991011011008001001001KA1240M+03561MA1999999097791MD1999999-0231REMSYN076AAXX  26004 82583 32596 10504 10300 20161 39779 40113 81100 333 10356 59023;EQDQ01  00002PRCP99
0186825830999992001012612004-05170-040670FM-12+029999999V0200501N004110075019N0500001N1+02731+01891101361ADDAA199000091GF106991051021008001001011KA1240N+02421MA1999999098001MD1999999-0021REMSYN076AAXX  26124 82583 32599 60508 10273 20189 39800 40136 85201 333 20242 59002;EQDQ01  00002PRCP99
0167825830999992001012618004-05170-040670FM-12+029999999V0200901N003610075019N0500001N1+03311+01651100951ADDAA199000091GF106991051021008001001011MA1999999097621MD1999999-0011REMSYN070AAXX  26184 82583 32599 60907 10331 20165 39762 40095 85201 333 59001;EQDQ01  00002PRCP99
0196825830999992001012700004-05170-040670FM-12+029999999V0203601N001512200019N0040001N1+02881+01771101111ADDAA199000091GA1001+999999999GF100991001001999999001001KA1240M+03571MA1999999097761MD1999999-0021REMSYN070AAXX  27004 82583 32996 03603 10288 20177 39776 40111 333 10357 59002;EQDQ01  00002PRCP99
0186825830999992001012712004-05170-040670FM-12+029999999V0200501N003610075019N0500001N1+02731+02021101321ADDAA199000091GF105991051011008001001001KA1240N+02351MA1999999097961MD1999999-0041REMSYN076AAXX  27124 82583 32599 50507 10273 20202 39796 40132 85100 333 20235 59004;EQDQ01  00002PRCP99
0167825830999992001012718004-05170-040670FM-12+029999999V0201401N003110075019N0500001N1+03381+01791100891ADDAA199000091GF105991051021008001001001MA1999999097561MD1999999-0061REMSYN070AAXX  27184 82583 32599 51406 10338 20179 39756 40089 85200 333 59006;EQDQ01  00002PRCP99
0186825830999992001012800004-05170-040670FM-12+029999999V0203601N002612200019N0040001N1+02801+01981101211ADDAA199000091GF102991021011008001001001KA1240M+03521MA1999999097861MD1999999+0101REMSYN076AAXX  28004 82583 32596 23605 10280 20198 39786 40121 82100 333 10352 58010;EQDQ01  00002PRCP99
0202825830999992001012812004-05170-040670FM-12+029999999V0200501N003619999999N0500001N1+02641+01951101361ADDAA199000091GF106991999011008001001001KA1240N+01891MA1999999097991MD1999999+0031REMSYN076AAXX  28124 82583 32599 60507 10264 20195 39799 40136 82100 333 20189 58003;EQDQ01+000022SCOTLCQ02  00002PRCP99
0167825830999992001012818004-05170-040670FM-12+029999999V0200901N003112200019N0500001N1+03401+01541100921ADDAA199000091GF103991031011008001001001MA1999999097591MD1999999+0031REMSYN070AAXX  28184 82583 32599 30906 10340 20154 39759 40092 83100 333 58003;EQDQ01  00002PRCP99
0186825830999992001012900004-05170-040670FM-12+029999999V0200901N000512200019N0040001N1+02931+01551101071ADDAA199000091GF102991021011008001001001KA1240M+03511MA1999999097721MD1999999-0141REMSYN076AAXX  29004 82583 32596 20901 10293 20155 39772 40107 82100 333 10351 59014;EQDQ01  00002PRCP99
0186825830999992001012912004-05170-040670FM-12+029999999V0200901N003110120019N0500001N1+02631+02001101211ADDAA199000091GF106991061081008001001001KA1240N+02311MA1999999097861MD1999999-0131REMSYN076AAXX  29124 82583 32599 60906 10263 20200 39786 40121 86800 333 20231 59013;EQDQ01  00002PRCP99
0167825830999992001012918004-05170-040670FM-12+029999999V0200901N004110075019N0500001N1+03331+01631100731ADDAA199000091GF106991061021008001001001MA1999999097401MD1999999-0191REMSYN070AAXX  29184 82583 32599 60908 10333 20163 39740 40073 86200 333 59019;EQDQ01  00002PRCP99
0186825830999992001013000004-05170-040670FM-12+029999999V0200501N001512200019N0040001N1+03001+01751100871ADDAA199000091GF101991011011008001001001KA1240M+03461MA1999999097531MD1999999-0191REMSYN076AAXX  30004 82583 32596 10503 10300 20175 39753 40087 81100 333 10346 59019;EQDQ01  00002PRCP99
0186825830999992001013012004-05170-040670FM-12+029999999V0200501N002112200019N0500001N1+02701+01941101141ADDAA199000091GF104991041011008001001001KA1240N+02371MA1999999097801MD1999999-0061REMSYN076AAXX  30124 82583 32599 40504 10270 20194 39780 40114 84100 333 20237 59006;EQDQ01  00002PRCP99
0167825830999992001013018004-05170-040670FM-12+029999999V0200901N004110450019N0500001N1+03301+01681100661ADDAA199000091GF106991041021008001041011MA1999999097341MD1999999-0061REMSYN070AAXX  30184 82583 32599 60908 10330 20168 39734 40066 84241 333 59006;EQDQ01  00002PRCP99
0202825830999992001013100004-05170-040670FM-12+029999999V0200501N003112200019N0040001N1+02851+01881100961ADDAA199000091GF101991011011008001001001KA1240M+99999MA1999999097621MD1999999+0021REMSYN076AAXX  31004 82583 32596 10506 10285 20188 39762 40096 81100 333 10257 58002;EQDQ01  00002PRCP99Q02 +02572ATMX  
0186825830999992001013112004-05170-040670FM-12+029999999V0200901N002110120019N0500001N1+02661+02171101171ADDAA199000091GF107991051081008001001011KA1240N+02351MA1999999097811MD1999999+0011REMSYN076AAXX  31124 82583 32599 70904 10266 20217 39781 40117 85801 333 20235 58001;EQDQ01  00002PRCP99
0167825830999992001013118004-05170-040670FM-12+029999999V0200901N003110120019N0500001N1+03071+01981100831ADDAA199000091GF108991081081008001999999MA1999999097491MD1999999+0151REMSYN070AAXX  31184 82583 32599 80906 10307 20198 39749 40083 888// 333 58015;EQDQ01  00002PRCP99
0201825830999992001020100004-05170-040670FM-12+029999999V0203601N003610120019N0040001N1+02631+02001101111ADDAA106001091AY161061AY261061GF108991081081008001999999KA1240M+03171MA1999999097751MD1999999+0131MW1021REMSYN088AAXX  01004 82583 21596 83607 10263 20200 39775 40111 70266 888// 333 10317 58013 69991;
0173825830999992001020112004-05170-040670FM-12+029999999V0200901N000510120019N0500001N1+02601+02081101141ADDAA124001091GF107991061081008001001011KA1240N+02261MA1999999097771MD1999999-0041REMSYN082AAXX  01124 82583 22599 70901 10260 20208 39777 40114 86801 333 20226 59004 69994;
0167825830999992001020118004-05170-040670FM-12+029999999V0200501N003610075019N0500001N1+03381+01751100641ADDAA199000091GF106991061021008001001001MA1999999097321MD1999999-0171REMSYN070AAXX  01184 82583 32599 60507 10338 20175 39732 40064 86200 333 59017;EQDQ01  00002PRCP99
0186825830999992001020200004-05170-040670FM-12+029999999V0203601N003610120019N0040001N1+02671+02111100911ADDAA199000091GF108991061081008001021999KA1240M+03471MA1999999097551MD1999999-0201REMSYN076AAXX  02004 82583 32596 83607 10267 20211 39755 40091 8682/ 333 10347 59020;EQDQ01  00002PRCP99
0186825830999992001020212004-05170-040670FM-12+029999999V0200501N001010075019N0500001N1+02641+02091101191ADDAA199000091GF107991071011008001001001KA1240N+02341MA1999999097831MD1999999+0061REMSYN076AAXX  02124 82583 32599 70502 10264 20209 39783 40119 87100 333 20234 58006;EQDQ01  00002PRCP99
0167825830999992001020218004-05170-040670FM-12+029999999V0200501N003112200019N0500001N1+03401+01771100651ADDAA199000091GF104991041021008001001001MA1999999097381MD1999999+0001REMSYN070AAXX  02184 82583 32599 40506 10340 20177 39738 40065 84200 333 58000;EQDQ01  00002PRCP99
0201825830999992001020300004-05170-040670FM-12+029999999V0202701N001510120019N0040001N1+02361+02271101101ADDAA106050091AY161061AY261061GF108991081081008001999999KA1240M+03151MA1999999097721MD1999999+0201MW1021REMSYN088AAXX  03004 82583 21596 82703 10236 20227 39772 40110 70266 888// 333 10315 58020 60501;
0173825830999992001020312004-05170-040670FM-12+029999999V0203601N000510075019N0500001N1+02581+02211101251ADDAA124050091GF107991071021008001001001KA1240N+02201MA1999999097861MD1999999+0031REMSYN082AAXX  03124 82583 22599 73601 10258 20221 39786 40125 87200 333 20220 58003 60504;
0167825830999992001020318004-05170-040670FM-12+029999999V0203201N003610075019N0500001N1+03001+02191100841ADDAA199000091GF106991061021008001001001MA1999999097481MD1999999+0161REMSYN070AAXX  03184 82583 32599 63207 10300 20219 39748 40084 86200 333 58016;EQDQ01  00002PRCP99
0201825830999992001020400004-05170-040670FM-12+029999999V0203201N003110075019N0040001N1+02321+02111101111ADDAA106000591AY161061AY261061GF108991081051008001999999KA1240M+03101MA1999999097731MD1999999+0011MW1021REMSYN088AAXX  04004 82583 21596 83206 10232 20211 39773 40111 70266 885// 333 10310 58001 69961;
0173825830999992001020412004-05170-040670FM-12+029999999V0200501N001510075019N0500001N1+02601+02171101311ADDAA124000591GF106991061021008001001001KA1240N+02211MA1999999097911MD1999999+0051REMSYN082AAXX  04124 82583 22599 60503 10260 20217 39791 40131 86200 333 20221 58005 69964;
0182825830999992001020418004-05170-040670FM-12+029999999V0203601N002610075019N0500001N1+03101+02091101091ADDAA106000591AY161061AY261061GF106991061021008001001001MA1999999097551MD1999999+0071MW1021REMSYN082AAXX  04184 82583 21599 63605 10310 20209 39755 40109 70266 86200 333 58007 69961;
0201825830999992001020500004-05170-040670FM-12+029999999V0203201N001510075019N0040001N1+02511+02071101191ADDAA106001091AY161061AY261061GF105991051021008001001001KA1240M+03421MA1999999097811MD1999999+0081MW1021REMSYN088AAXX  05004 82583 21596 53203 10251 20207 39781 40119 70266 85200 333 10342 58008 69991;
0173825830999992001020512004-05170-040670FM-12+029999999V0200901N001510075019N0200001N1+02471+02091101351ADDAA124002091GF108991081051008001999999KA1240N+02151MA1999999097961MD1999999+0051REMSYN082AAXX  05124 82583 22598 80903 10247 20209 39796 40135 885// 333 20215 58005 60024;
0167825830999992001020518004-05170-040670FM-12+029999999V0200501N001010075019N0500001N1+03321+01741100841ADDAA199000091GF106991051021008001001011MA1999999097501MD1999999-0051REMSYN070AAXX  05184 82583 32599 60502 10332 20174 39750 40084 85201 333 59005;EQDQ01  00002PRCP99
0186825830999992001020600004-05170-040670FM-12+029999999V0201401N002112200019N0040001N1+02831+01911101081ADDAA199000091GF102991021011008001001001KA1240M+03461MA1999999097721MD1999999-0091REMSYN076AAXX  06004 82583 32596 21404 10283 20191 39772 40108 82100 333 10346 59009;EQDQ01  00002PRCP99
0186825830999992001020612004-05170-040670FM-12+029999999V0200501N002112200019N0500001N1+02631+02091101331ADDAA199000091GF105991041021008001001011KA1240N+02201MA1999999097971MD1999999+0011REMSYN076AAXX  06124 82583 32599 50504 10263 20209 39797 40133 84201 333 20220 58001;EQDQ01  00002PRCP99
0167825830999992001020618004-05170-040670FM-12+029999999V0201401N002112200019N0500001N1+03391+01761100871ADDAA199000091GF104991041021008001001001MA1999999097541MD1999999+0041REMSYN070AAXX  06184 82583 32599 41404 10339 20176 39754 40087 84200 333 58004;EQDQ01  00002PRCP99
0201825830999992001020700004-05170-040670FM-12+029999999V0209999C000010075019N0040001N1+02931+01911101011ADDAA106000891AY161061AY261061GF107991071051008001999999KA1240M+03451MA1999999097661MD1999999-0061MW1021REMSYN088AAXX  07004 82583 21596 73600 10293 20191 39766 40101 70266 875// 333 10345 59006 69971;
0173825830999992001020712004-05170-040670FM-12+029999999V0200501N001512200019N0500001N1+02731+02021101251ADDAA124000891GF104991041011008001001001KA1240N+02271MA1999999097911MD1999999-0061REMSYN082AAXX  07124 82583 22599 40503 10273 20202 39791 40125 84100 333 20227 59006 69974;
0167825830999992001020718004-05170-040670FM-12+029999999V0200901N003612200019N0500001N1+03511+01651100761ADDAA199000091GF104991031011008001001011MA1999999097441MD1999999-0101REMSYN070AAXX  07184 82583 32599 40907 10351 20165 39744 40076 83101 333 59010;EQDQ01  00002PRCP99
0186825830999992001020800004-05170-040670FM-12+029999999V0200901N001512200019N0040001N1+02051+01621101071ADDAA199000091GF102991021011008001001001KA1240M+03531MA1999999097721MD1999999+0061REMSYN076AAXX  08004 82583 32596 20903 10205 20162 39772 40107 82100 333 10353 58006;EQDQ01  00002PRCP99
0186825830999992001020812004-05170-040670FM-12+029999999V0209999C000010075019N0500001N1+02541+02191101241ADDAA199000091GF106991061021008001001001KA1240N+02271MA1999999097881MD1999999-0031REMSYN076AAXX  08124 82583 32599 61800 10254 20219 39788 40124 86200 333 20227 59003;EQDQ01  00002PRCP99
0167825830999992001020818004-05170-040670FM-12+029999999V0200901N003110075019N0500001N1+03491+01771100671ADDAA199000091GF106991061021008001001001MA1999999097351MD1999999-0091REMSYN070AAXX  08184 82583 32599 60906 10349 20177 39735 40067 86200 333 59009;EQDQ01  00002PRCP99
0186825830999992001020912004-05170-040670FM-12+029999999V0200501N000510075019N0500001N1+02681+02161101091ADDAA199000091GF107991051021008001021001KA1240N+02391MA1999999097731MD1999999-0151REMSYN076AAXX  09124 82583 32599 70501 10268 20216 39773 40109 85220 333 20239 59015;EQDQ01  00002PRCP99
0182825830999992001020918004-05170-040670FM-12+029999999V0201801N001010120019N0500001N1+02411+02171100891ADDAA106000591AY161061AY261061GF108991081081008001999999MA1999999097501MD1999999+0151MW1211REMSYN082AAXX  09184 82583 21599 81802 10241 20217 39750 40089 72166 888// 333 58015 69961;
0201825830999992001021000004-05170-040670FM-12+029999999V0203201N001010120019N0040001N1+02301+02161101011ADDAA106001091AY161061AY261061GF106991061081008001001001KA1240M+03101MA1999999097631MD1999999+0011MW1021REMSYN088AAXX  10004 82583 21596 63202 10230 20216 39763 40101 70266 86800 333 10310 58001 60011;
0173825830999992001021012004-05170-040670FM-12+029999999V0203601N001010120019N0500001N1+02481+02191101191ADDAA124002091GF107991071081008001001001KA1240N+02191MA1999999097791MD1999999+0061REMSYN082AAXX  10124 82583 22599 73602 10248 20219 39779 40119 87800 333 20219 58006 60024;
0167825830999992001021018004-05170-040670FM-12+029999999V0200901N001512200019N0500001N1+03261+01881100681ADDAA199000091GF104991041021008001001001MA1999999097341MD1999999-0161REMSYN070AAXX  10184 82583 32599 40903 10326 20188 39734 40068 84200 333 59016;EQDQ01  00002PRCP99
0186825830999992001021100004-05170-040670FM-12+029999999V0203201N002610075019N0040001N1+02481+02171101091ADDAA199000091GF105991051021008001001001KA1240M+03401MA1999999097711MD1999999+0011REMSYN076AAXX  11004 82583 32596 53205 10248 20217 39771 40109 85200 333 10340 58001;EQDQ01  00002PRCP99
0167825830999992001021118004-05170-040670FM-12+029999999V0200901N002110075019N0500001N1+03151+01821100971ADDAA199000091GF105991051021008001001001MA1999999097631MD1999999+0291REMSYN070AAXX  11184 82583 32599 50904 10315 20182 39763 40097 85200 333 58029;EQDQ01  00002PRCP99
0186825830999992001021200004-05170-040670FM-12+029999999V0203601N003612200019N0040001N1+02701+02081101111ADDAA199000091GF101991011011008001001001KA1240M+03331MA1999999097751MD1999999+0041REMSYN076AAXX  12004 82583 32596 13607 10270 20208 39775 40111 81100 333 10333 58004;EQDQ01  00002PRCP99
0186825830999992001021212004-05170-040670FM-12+029999999V0200901N004610450019N0500001N1+02711+02051101241ADDAA199000091GF106991041021008001031001KA1240N+02351MA1999999097881MD1999999-0111REMSYN076AAXX  12124 82583 32599 60909 10271 20205 39788 40124 84230 333 20235 59011;EQDQ01  00002PRCP99
0167825830999992001021218004-05170-040670FM-12+029999999V0201801N003610075019N0500001N1+03231+01861100821ADDAA199000091GF106991051031008001001011MA1999999097481MD1999999-0151REMSYN070AAXX  12184 82583 32599 61807 10323 20186 39748 40082 85301 333 59015;EQDQ01  00002PRCP99
0201825830999992001021300004-05170-040670FM-12+029999999V0200501N001510450019N0020001N1+02271+02201101271ADDAA106007191AY161061AY261061GF108991021061008001021001KA1240M+03371MA1999999097881MD1999999+0131MW1611REMSYN088AAXX  13004 82583 21595 80503 10227 20220 39788 40127 76166 82620 333 10337 58013 60071;
0201825830999992001021312004-05170-040670FM-12+029999999V0200901N002612200019N0500001N1+02631+02251101171ADDAA124007191AY151061AY251061GF106991041011008001001011KA1240N+02231MA1999999097781MD1999999-0101MW1031REMSYN088AAXX  13124 82583 21599 60905 10263 20225 39778 40117 70355 84101 333 20223 59010 60074;
0167825830999992001021318004-05170-040670FM-12+029999999V0201801N001510075019N0500001N1+03091+02061100731ADDAA199000091GF106991051021008001001011MA1999999097371MD1999999-0111REMSYN070AAXX  13184 82583 32599 61803 10309 20206 39737 40073 85201 333 59011;EQDQ01  00002PRCP99
0201825830999992001021400004-05170-040670FM-12+029999999V0202701N001510042019N0010001N1+02291+02291101071ADDAA106023191AY161061AY261061GF108991081091004501999999KA1240M+03231MA1999999097691MD1999999-0191MW1951REMSYN088AAXX  14004 82583 21494 82703 10229 20229 39769 40107 79566 889// 333 10323 59019 60231;
0201825830999992001021412004-05170-040670FM-12+029999999V0201801N000510075019N0500001N1+02301+02201101241ADDAA124038191AY191061AY261061GF108991071051008001021999KA1240N+02131MA1999999097831MD1999999+0051MW1031REMSYN088AAXX  14124 82583 21599 81801 10230 20220 39783 40124 70396 8752/ 333 20213 58005 60384;
0167825830999992001021418004-05170-040670FM-12+029999999V0201801N002110075019N0500001N1+03101+02261100751ADDAA199000091GF106991051031008001001021MA1999999097391MD1999999+0021REMSYN070AAXX  14184 82583 32599 61804 10310 20226 39739 40075 85302 333 58002;EQDQ01  00002PRCP99
0202825830999992001021500004-05170-040670FM-12+029999999V0201801N002612200019N0040001N1+02631+02271100971ADDAA199000091GF101991999021008001001001KA1240M+03151MA1999999097591MD1999999-0101REMSYN076AAXX  15004 82583 32596 11805 10263 20227 39759 40097 85200 333 10315 59010;EQDQ01+000052SCOTLCQ02  00002PRCP99
0186825830999992001021512004-05170-040670FM-12+029999999V0200501N001010120019N0500001N1+02511+02151101261ADDAA199000091GF106991061081008001001001KA1240N+02251MA1999999097881MD1999999+0051REMSYN076AAXX  15124 82583 32599 60502 10251 20215 39788 40126 86800 333 20225 58005;EQDQ01  00002PRCP99
0167825830999992001021518004-05170-040670FM-12+029999999V0203201N003112200019N0500001N1+03051+02141100851ADDAA199000091GF105991041021008001001011MA1999999097501MD1999999+0111REMSYN070AAXX  15184 82583 32599 53206 10305 20214 39750 40085 84201 333 58011;EQDQ01  00002PRCP99
0196825830999992001021600004-05170-040670FM-12+029999999V0209999C000012200019N0040001N1+02691+02301100921ADDAA199000091GA1001+999999999GF100991001001999999001001KA1240M+03291MA1999999097551MD1999999-0041REMSYN070AAXX  16004 82583 32996 00500 10269 20230 39755 40092 333 10329 59004;EQDQ01  00002PRCP99
0186825830999992001021612004-05170-040670FM-12+029999999V0200501N001510075019N0500001N1+02571+02101101331ADDAA199000091GF106991051021008001001011KA1240N+02231MA1999999097951MD1999999+0071REMSYN076AAXX  16124 82583 32599 60503 10257 20210 39795 40133 85201 333 20223 58007;EQDQ01  00002PRCP99
0167825830999992001021618004-05170-040670FM-12+029999999V0203601N001512200019N0500001N1+03231+01961100861ADDAA199000091GF102991021021008001001001MA1999999097521MD1999999+0021REMSYN070AAXX  16184 82583 32599 23603 10323 20196 39752 40086 82200 333 58002;EQDQ01  00002PRCP99
0202825830999992001021700004-05170-040670FM-12+029999999V0202301N002112200019N0040001N1+02661+02111101091ADDAA199000091GF102991999011008001001001KA1240M+03281MA1999999097721MD1999999+0171REMSYN076AAXX  17004 82583 32596 22304 10266 20211 39772 40109 81100 333 10328 58017;EQDQ01+000012SCOTLCQ02  00002PRCP99
0186825830999992001021712004-05170-040670FM-12+029999999V0203601N001010120019N0500001N1+02561+02131101331ADDAA199000091GF107991071081008001001001KA1240N+02321MA1999999097951MD1999999+0001REMSYN076AAXX  17124 82583 32599 73602 10256 20213 39795 40133 87800 333 20232 58000;EQDQ01  00002PRCP99
0183825830999992001021718004-05170-040670FM-12+029999999V0200501N003110075019N0500001N1+03061+02141100971ADDAA199000091GF107991999021008001001001MA1999999097621MD1999999+0101REMSYN070AAXX  17184 82583 32599 70506 10306 20214 39762 40097 86200 333 58010;EQDQ01+000062SCOTLCQ02  00002PRCP99
0186825830999992001021800004-05170-040670FM-12+029999999V0203601N002112200019N0040001N1+02701+02131101171ADDAA199000091GF104991041021008001001001KA1240M+03231MA1999999097811MD1999999+0091REMSYN076AAXX  18004 82583 32596 43604 10270 20213 39781 40117 84200 333 10323 58009;EQDQ01  00002PRCP99
0186825830999992001021812004-05170-040670FM-12+029999999V0203601N001510075019N0500001N1+02531+02251101581ADDAA199000091GF106991061021008001001001KA1240N+02361MA1999999098141MD1999999+0191REMSYN076AAXX  18124 82583 32599 63603 10253 20225 39814 40158 86200 333 20236 58019;EQDQ01  00002PRCP99
0167825830999992001021818004-05170-040670FM-12+029999999V0201801N000510075019N0500001N1+03021+02101101061ADDAA199000091GF106991061021008001001001MA1999999097701MD1999999+0081REMSYN070AAXX  18184 82583 32599 61801 10302 20210 39770 40106 86200 333 58008;EQDQ01  00002PRCP99
0201825830999992001021900004-05170-040670FM-12+029999999V0202701N002110120019N0040001N1+02401+02191101411ADDAA106000191AY161061AY261061GF108991081081008001999999KA1240M+03101MA1999999098011MD1999999+0201MW1021REMSYN088AAXX  19004 82583 21596 82704 10240 20219 39801 40141 70266 888// 333 10310 58020 69921;
0201825830999992001021912004-05170-040670FM-12+029999999V0203201N001010120019N0500001N1+02511+02231101381ADDAA124000591AY161061AY251061GF108991081081008001999999KA1240N+02271MA1999999098001MD1999999-0141MW1031REMSYN088AAXX  19124 82583 21599 83202 10251 20223 39800 40138 70365 888// 333 20227 59014 69954;
0167825830999992001021918004-05170-040670FM-12+029999999V0202701N001510120019N0500001N1+02911+02221101061ADDAA199000091GF106991061081008001001001MA1999999097691MD1999999-0011REMSYN070AAXX  19184 82583 32599 62703 10291 20222 39769 40106 86800 333 59001;EQDQ01  00002PRCP99
0186825830999992001022000004-05170-040670FM-12+029999999V0203201N001510075019N0040001N1+02431+02111101231ADDAA199000091GF108991081051008001999999KA1240M+03091MA1999999097871MD1999999-0171REMSYN076AAXX  20004 82583 32596 83203 10243 20211 39787 40123 885// 333 10309 59017;EQDQ01  00002PRCP99
0186825830999992001022012004-05170-040670FM-12+029999999V0202701N001010075019N0500001N1+02471+02191101401ADDAA199000091GF108991081051008001999999KA1240N+02281MA1999999098001MD1999999+0001REMSYN076AAXX  20124 82583 32599 82702 10247 20219 39800 40140 885// 333 20228 58000;EQDQ01  00002PRCP99
0167825830999992001022018004-05170-040670FM-12+029999999V0203201N003110120019N0500001N1+02911+02221100951ADDAA199000091GF108991081081008001999999MA1999999097581MD1999999-0111REMSYN070AAXX  20184 82583 32599 83206 10291 20222 39758 40095 888// 333 59011;EQDQ01  00002PRCP99
0201825830999992001022100004-05170-040670FM-12+029999999V0202701N001010120019N0040001N1+02301+02181101131ADDAA106011991AY161061AY261061GF108991081081008001999999KA1240M+03101MA1999999097741MD1999999-0101MW1021REMSYN088AAXX  21004 82583 21596 82702 10230 20218 39774 40113 70266 888// 333 10310 59010 60121;
0201825830999992001022112004-05170-040670FM-12+029999999V0201401N001010075019N0500001N1+02331+02291101251ADDAA124013091AY161061AY261061GF108991081051008001999999KA1240N+02111MA1999999097841MD1999999-0161MW1031REMSYN088AAXX  21124 82583 21599 81402 10233 20229 39784 40125 70366 885// 333 20211 59016 60134;
0167825830999992001022118004-05170-040670FM-12+029999999V0200501N000510075019N0500001N1+03081+02421100911ADDAA199000091GF108991081051008001999999MA1999999097551MD1999999-0031REMSYN070AAXX  21184 82583 32599 80501 10308 20242 39755 40091 885// 333 59003;EQDQ01  00002PRCP99
0186825830999992001022200004-05170-040670FM-12+029999999V0202301N001510075019N0040001N1+02491+02151100931ADDAA199000091GF108991081051008001999999KA1240M+03151MA1999999097541MD1999999-0201REMSYN076AAXX  22004 82583 32596 82303 10249 20215 39754 40093 885// 333 10315 59020;EQDQ01  00002PRCP99
0186825830999992001022212004-05170-040670FM-12+029999999V0200501N001010075019N0500001N1+02581+02251101211ADDAA199000091GF108991051051008001021999KA1240N+02351MA1999999097831MD1999999-0011REMSYN076AAXX  22124 82583 32599 80502 10258 20225 39783 40121 8552/ 333 20235 59001;EQDQ01  00002PRCP99
0167825830999992001022218004-05170-040670FM-12+029999999V0201801N002110120019N0500001N1+03031+02151100791ADDAA199000091GF107991061081008001041001MA1999999097451MD1999999+0001REMSYN070AAXX  22184 82583 32599 71804 10303 20215 39745 40079 86840 333 58000;EQDQ01  00002PRCP99
0186825830999992001022300004-05170-040670FM-12+029999999V0200901N001010120019N0020001N1+02711+02031100941ADDAA199000091GF106991061081008001001001KA1240M+03151MA1999999097581MD1999999+0041REMSYN076AAXX  23004 82583 32595 60902 10271 20203 39758 40094 86800 333 10315 58004;EQDQ01  00002PRCP99
0186825830999992001022312004-05170-040670FM-12+029999999V0200901N000510075019N0500001N1+02511+02191101181ADDAA199000091GF108991081051008001999999KA1240N+02291MA1999999097811MD1999999-0021REMSYN076AAXX  23124 82583 32599 80901 10251 20219 39781 40118 885// 333 20229 59002;EQDQ01  00002PRCP99
0167825830999992001022318004-05170-040670FM-12+029999999V0202301N002110450019N0500001N1+03041+02091100901ADDAA199000091GF107991021011008001021001MA1999999097551MD1999999+0101REMSYN070AAXX  23184 82583 32599 72304 10304 20209 39755 40090 82120 333 58010;EQDQ01  00002PRCP99
0201825830999992001022400004-05170-040670FM-12+029999999V0203201N003110120019N0040001N1+02421+02251101091ADDAA106007991AY161061AY261061GF108991081081008001999999KA1240M+03081MA1999999097711MD1999999+0131MW1021REMSYN088AAXX  24004 82583 21596 83206 10242 20225 39771 40109 70266 888// 333 10308 58013 60081;
0173825830999992001022412004-05170-040670FM-12+029999999V0201401N001011050019N0500001N1+02611+02231101171ADDAA124007991GF107991021011008001001021KA1240N+02191MA1999999097791MD1999999-0021REMSYN082AAXX  24124 82583 22599 71402 10261 20223 39779 40117 82102 333 20219 59002 60084;
0167825830999992001022418004-05170-040670FM-12+029999999V0201801N003110120019N0500001N1+03171+02161100711ADDAA199000091GF107991051081008001021001MA1999999097371MD1999999-0181REMSYN070AAXX  24184 82583 32599 71806 10317 20216 39737 40071 85820 333 59018;EQDQ01  00002PRCP99
0186825830999992001022500004-05170-040670FM-12+029999999V0203201N001012200019N0040001N1+02681+02331100971ADDAA199000091GF104991041021008001001001KA1240M+03201MA1999999097611MD1999999-0101REMSYN076AAXX  25004 82583 32596 43202 10268 20233 39761 40097 84200 333 10320 59010;EQDQ01  00002PRCP99
0202825830999992001022512004-05170-040670FM-12+029999999V0200901N001010075019N0500001N1+02601+02231101141ADDAA199000091GF107991999021008001001001KA1240N+02281MA1999999097781MD1999999+0071REMSYN076AAXX  25124 82583 32599 70902 10260 20223 39778 40114 85200 333 20228 58007;EQDQ01+000052SCOTLCQ02  00002PRCP99
0167825830999992001022518004-05170-040670FM-12+029999999V0203201N001512200019N0500001N1+03201+02271100661ADDAA199000091GF104991041021008001001001MA1999999097341MD1999999-0031REMSYN070AAXX  25184 82583 32599 43203 10320 20227 39734 40066 84200 333 59003;EQDQ01  00002PRCP99
0201825830999992001022600004-05170-040670FM-12+029999999V0203201N001510075019N0040001N1+02281+02111100941ADDAA106007991AY161061AY261061GF108991081051008001999999KA1240M+03301MA1999999097561MD1999999-0051MW1611REMSYN088AAXX  26004 82583 21596 83203 10228 20211 39756 40094 76166 885// 333 10330 59005 60081;
0201825830999992001022612004-05170-040670FM-12+029999999V0200901N000510075019N0500001N1+02301+02251101171ADDAA124014091AY191061AY261061GF108991081051008001999999KA1240N+02131MA1999999097761MD1999999-0021MW1211REMSYN088AAXX  26124 82583 21599 80901 10230 20225 39776 40117 72196 885// 333 20213 59002 60144;
0148825830999992001022618004-05170-040670FM-12+029999999V0203201N001010075019N0500001N1+02831+02221100861ADDAA199000021GF107991051071008001021001MA1999999097491MD1999999+0041REMSYN070AAXX  26184 82583 32599 73202 10283 20222 39749 40086 85720 333 58004;
0201825830999992001022700004-05170-040670FM-12+029999999V0203601N002610120019N0040001N1+02431+02331101001ADDAA106002091AY161061AY261061GF106991061081008001001001KA1240M+02851MA1999999097601MD1999999+0041MW1021REMSYN088AAXX  27004 82583 21596 63605 10243 20233 39760 40100 70266 86800 333 10285 58004 60021;
0201825830999992001022712004-05170-040670FM-12+029999999V0203201N000510120019N0500001N1+02451+02191101211ADDAA124007991AY161061AY261061GF107991051081008001031011KA1240N+02111MA1999999097821MD1999999+0061MW1031REMSYN088AAXX  27124 82583 21599 73201 10245 20219 39782 40121 70366 85831 333 20211 58006 60084;
0167825830999992001022718004-05170-040670FM-12+029999999V0200501N002112200019N0500001N1+03031+02151100841ADDAA199000091GF103991031021008001001001MA1999999097481MD1999999-0011REMSYN070AAXX  27184 82583 32599 30504 10303 20215 39748 40084 83200 333 59001;EQDQ01  00002PRCP99
0201825830999992001022800004-05170-040670FM-12+029999999V0203601N001510075019N0040001N1+02481+02171101091ADDAA106000191AY161061AY261061GF108991081051008001999999KA1240M+03131MA1999999097711MD1999999+0111MW1021REMSYN088AAXX  28004 82583 21596 83603 10248 20217 39771 40109 70266 885// 333 10313 58011 69911;
0173825830999992001022812004-05170-040670FM-12+029999999V0200501N000510075019N0500001N1+02641+02231101241ADDAA124000191GF106991051021008001001011KA1240N+02301MA1999999097861MD1999999+0041REMSYN082AAXX  28124 82583 22599 60501 10264 20223 39786 40124 85201 333 20230 58004 69914;
0195825830999992001022818004-05170-040670FM-12+029999999V0202301N001010120019N0100001N1+03011+02071100821ADDAA199000091AY121061AY221061GF108991061081008001041999MA1999999097471MD1999999-0011MW1151REMSYN076AAXX  28184 82583 31597 82302 10301 20207 39747 40082 71522 8684/ 333 59001;EQDQ01  00002PRCP99
0213825830999992001030100004-05170-040670FM-12+029999999V0203601N001510075019N0040001N1+02261+02211101101ADDAA106013091AY161061AY261061GF108991081051008001999999KA1240M+03071MA1999999097721MD1999999+0011MW1021REMSYN100AAXX  01004 82583 21596 83603 10226 20221 39772 40110 70266 885// 333 10307 29082 55004 58001 60131;
0201825830999992001030112004-05170-040670FM-12+029999999V0201401N001510075019N0500001N1+02431+02231101241ADDAA124032091AY161061AY261061GF107991061051008001001011KA1240N+02101MA1999999097841MD1999999-0021MW1021REMSYN088AAXX  01124 82583 21599 71403 10243 20223 39784 40124 70266 86501 333 20210 59002 60324;
0167825830999992001030118004-05170-040670FM-12+029999999V0201801N001010075019N0500001N1+03091+02341100881ADDAA199000091GF106991061021008001001001MA1999999097521MD1999999+0051REMSYN070AAXX  01184 82583 32599 61802 10309 20234 39752 40088 86200 333 58005;EQDQ01  00002PRCP99
0213825830999992001030200004-05170-040670FM-12+029999999V0203601N001010120019N0010001N1+02201+02161101311ADDAA106018091AY191061AY261061GF108991081081008001999999KA1240M+03201MA1999999097901MD1999999+0181MW1951REMSYN100AAXX  02004 82583 21594 83602 10220 20216 39790 40131 79596 888// 333 10320 29087 55063 58018 60181;
0201825830999992001030212004-05170-040670FM-12+029999999V0202301N001510075019N0500001N1+02391+02281101371ADDAA124026991AY161061AY291061GF108991081051008001999999KA1240N+02111MA1999999097951MD1999999+0111MW1021REMSYN088AAXX  02124 82583 21599 82303 10239 20228 39795 40137 70269 885// 333 20211 58011 60274;
0167825830999992001030218004-05170-040670FM-12+029999999V0201401N002610450019N0500001N1+03031+02231101031ADDAA199000091GF106991021011008001051001MA1999999097661MD1999999+0141REMSYN070AAXX  02184 82583 32599 61405 10303 20223 39766 40103 82150 333 58014;EQDQ01  00002PRCP99
0198825830999992001030300004-05170-040670FM-12+029999999V0200901N000512200019N0040001N1+02561+02251101241ADDAA199000091GF104991041021008001001001KA1240M+03151MA1999999097851MD1999999-0051REMSYN088AAXX  03004 82583 32596 40901 10256 20225 39785 40124 84200 333 10315 29080 55043 59005;EQDQ01  00002PRCP99
0186825830999992001030312004-05170-040670FM-12+029999999V0200901N001010120019N0500001N1+02591+02251101411ADDAA199000091GF106991051081008001001011KA1240N+02241MA1999999098031MD1999999+0081REMSYN076AAXX  03124 82583 32599 60902 10259 20225 39803 40141 85801 333 20224 58008;EQDQ01  00002PRCP99
0183825830999992001030318004-05170-040670FM-12+029999999V0200501N002619999999N0500001N1+03161+02201101101ADDAA199000091GF106991999021008001001001MA1999999097741MD1999999+0081REMSYN070AAXX  03184 82583 32599 60505 10316 20220 39774 40110 84200 333 58008;EQDQ01+000042SCOTLCQ02  00002PRCP99
0208825830999992001030400004-05170-040670FM-12+029999999V0201401N003112200019N0040001N1+02511+02231101221ADDAA199000091GA1001+999999999GF100991001001999999001001KA1240M+03201MA1999999097841MD1999999-0011REMSYN082AAXX  04004 82583 32996 01406 10251 20223 39784 40122 333 10320 29077 55094 59001;EQDQ01  00002PRCP99
0186825830999992001030412004-05170-040670FM-12+029999999V0201401N001510075019N0500001N1+02701+02101101451ADDAA199000091GF106991061021008001001001KA1240N+02341MA1999999098071MD1999999+0041REMSYN076AAXX  04124 82583 32599 61403 10270 20210 39807 40145 86200 333 20234 58004;EQDQ01  00002PRCP99
0167825830999992001030418004-05170-040670FM-12+029999999V0201401N003112200019N0500001N1+03171+02131101011ADDAA199000091GF103991031011008001001001MA1999999097661MD1999999-0081REMSYN070AAXX  04184 82583 32599 31406 10317 20213 39766 40101 83100 333 59008;EQDQ01  00002PRCP99
0208825830999992001030500004-05170-040670FM-12+029999999V0201801N003612200019N0040001N1+02601+01991101121ADDAA199000091GA1001+999999999GF100991001001999999001001KA1240M+03201MA1999999097761MD1999999-0081REMSYN082AAXX  05004 82583 32996 01807 10260 20199 39776 40112 333 10320 29066 55095 59008;EQDQ01  00002PRCP99
0186825830999992001030512004-05170-040670FM-12+029999999V0200901N004112200019N0500001N1+02711+02191101361ADDAA199000091GF104991021011008001001011KA1240N+02271MA1999999097961MD1999999-0111REMSYN076AAXX  05124 82583 32599 40908 10271 20219 39796 40136 82101 333 20227 59011;EQDQ01  00002PRCP99
0167825830999992001030518004-05170-040670FM-12+029999999V0200901N002612200019N0500001N1+03191+02061100891ADDAA199000091GF103991021021008001001011MA1999999097551MD1999999-0111REMSYN070AAXX  05184 82583 32599 30905 10319 20206 39755 40089 82201 333 59011;EQDQ01  00002PRCP99
0198825830999992001030600004-05170-040670FM-12+029999999V0203601N002612200019N0040001N1+02311+02051101121ADDAA199000091GF102991021001017501031001KA1240M+03251MA1999999097761MD1999999+0001REMSYN088AAXX  06004 82583 32796 23605 10231 20205 39776 40112 82030 333 10325 29067 55102 58000;EQDQ01  00002PRCP99
0186825830999992001030612004-05170-040670FM-12+029999999V0200901N001010120019N0500001N1+02631+02271101381ADDAA199000091GF107991071081008001001001KA1240N+02241MA1999999098001MD1999999+0041REMSYN076AAXX  06124 82583 32599 70902 10263 20227 39800 40138 87800 333 20224 58004;EQDQ01  00002PRCP99
0167825830999992001030618004-05170-040670FM-12+029999999V0200901N003112200019N0500001N1+03221+01951100991ADDAA199000091GF102991011021008001001011MA1999999097631MD1999999+0081REMSYN070AAXX  06184 82583 32599 20906 10322 20195 39763 40099 81201 333 58008;EQDQ01  00002PRCP99
0198825830999992001030700004-05170-040670FM-12+029999999V0201801N002612200019N0040001N1+02711+01851101081ADDAA199000091GF102991021011008001001001KA1240M+03291MA1999999097721MD1999999-0041REMSYN088AAXX  07004 82583 32596 21805 10271 20185 39772 40108 82100 333 10329 29061 55089 59004;EQDQ01  00002PRCP99
0186825830999992001030712004-05170-040670FM-12+029999999V0200901N004610075019N0500001N1+02691+02081101561ADDAA199000091GF106991051051008001001011KA1240N+02321MA1999999098181MD1999999+0181REMSYN076AAXX  07124 82583 32599 60909 10269 20208 39818 40156 85501 333 20232 58018;EQDQ01  00002PRCP99
0167825830999992001030718004-05170-040670FM-12+029999999V0201401N003111050019N0500001N1+03131+02131101171ADDAA199000091GF105991011011008001031021MA1999999097811MD1999999+0181REMSYN070AAXX  07184 82583 32599 51406 10313 20213 39781 40117 81132 333 58018;EQDQ01  00002PRCP99
0198825830999992001030800004-05170-040670FM-12+029999999V0201401N001012200019N0040001N1+02601+99999101251ADDAA199000091GF103991031011008001001001KA1240M+03151MA1999999097881MD1999999+0161REMSYN088AAXX  08004 82583 32596 31402 10260 20296 39788 40125 83100 333 10315 29065 55095 58016;EQDQ01  00002PRCP99
0186825830999992001030812004-05170-040670FM-12+029999999V0201401N001011050019N0500001N1+02621+02071101431ADDAA199000091GF107991011011008001001021KA1240N+02151MA1999999098051MD1999999-0131REMSYN076AAXX  08124 82583 32599 71402 10262 20207 39805 40143 81102 333 20215 59013;EQDQ01  00002PRCP99
0167825830999992001030818004-05170-040670FM-12+029999999V0200901N002110075019N0500001N1+03251+02181100991ADDAA199000091GF106991051021008001001011MA1999999097641MD1999999-0171REMSYN070AAXX  08184 82583 32599 60904 10325 20218 39764 40099 85201 333 59017;EQDQ01  00002PRCP99
0213825830999992001030900004-05170-040670FM-12+029999999V0203201N001510075019N0040001N1+02431+02251101221ADDAA106003091AY161061AY261061GF106991061021008001001001KA1240M+03301MA1999999097901MD1999999+0021MW1021REMSYN100AAXX  09004 82583 21596 63203 10243 20225 39790 40122 70266 86200 333 10330 29076 55070 58002 60031;
0201825830999992001030912004-05170-040670FM-12+029999999V0200901N003610075019N0500001N1+02411+02261101401ADDAA124005191AY121061AY221061GF108991081071008001999999KA1240N+02341MA1999999098001MD1999999-0051MW1631REMSYN088AAXX  09124 82583 21599 80907 10241 20226 39800 40140 76322 887// 333 20234 59005 60054;
0182825830999992001030918004-05170-040670FM-12+029999999V0203201N001510120019N0500001N1+02761+02251100981ADDAA106002091AY161061AY261061GF107991061081008001041001MA1999999097601MD1999999+0041MW1031REMSYN082AAXX  09184 82583 21599 73203 10276 20225 39760 40098 70366 86840 333 58004 60021;
0204825830999992001031000004-05170-040670FM-12+029999999V0203601N003110075019N0040001N1+02481+02321101211ADDAA106000091GF106991061051008001001001KA1240M+02831MA1999999097821MD1999999-0081REMSYN094AAXX  10004 82583 22596 63606 10248 20232 39782 40121 86500 333 10283 29087 55004 59008 60001;EQDQ01  00002PRCP06
0173825830999992001031012004-05170-040670FM-12+029999999V0200901N001010120019N0500001N1+02541+02251101271ADDAA124002091GF106991061081008001001001KA1240N+02271MA1999999097881MD1999999-0121REMSYN082AAXX  10124 82583 22599 60902 10254 20225 39788 40127 86800 333 20227 59012 60024;
0167825830999992001031018004-05170-040670FM-12+029999999V0202701N001512200019N0500001N1+03141+02161100771ADDAA199000091GF103991021021008001001011MA1999999097421MD1999999-0181REMSYN070AAXX  10184 82583 32599 32703 10314 20216 39742 40077 82201 333 59018;EQDQ01  00002PRCP99
0178825830999992001031100004-05170-040670FM-12+029999999V0203601N002610075019N0040001N1+02481+02171101191ADDAA199000091GF106991061021008001001001KA1240M+03221MA1999999097811REMSYN082AAXX  11004 82583 32596 63605 10248 20217 39781 40119 86200 333 10322 29077 55074;EQDQ01  00002PRCP99
0186825830999992001031112004-05170-040670FM-12+029999999V0200901N001510075019N0500001N1+02501+02251101341ADDAA199000091GF106991061021008001001001KA1240N+02141MA1999999097951MD1999999+0071REMSYN076AAXX  11124 82583 32599 60903 10250 20225 39795 40134 86200 333 20214 58007;EQDQ01  00002PRCP99
0167825830999992001031118004-05170-040670FM-12+029999999V0203601N001012200019N0500001N1+02921+02141100891ADDAA199000091GF104991041021008001001001MA1999999097531MD1999999+0111REMSYN070AAXX  11184 82583 32599 43602 10292 20214 39753 40089 84200 333 58011;EQDQ01  00002PRCP99
0213825830999992001031200004-05170-040670FM-12+029999999V0203201N003110120019N0040001N1+02201+02171101341ADDAA106007991AY161061AY261061GF108991081081008001999999KA1240M+03061MA1999999097941MD1999999+0131MW1621REMSYN100AAXX  12004 82583 21596 83206 10220 20217 39794 40134 76266 888// 333 10306 29086 55023 58013 60081;
0201825830999992001031212004-05170-040670FM-12+029999999V0202701N001010075019N0500001N1+02471+02291101411ADDAA124026991AY161061AY261061GF108991071051008001031999KA1240N+01931MA1999999097991MD1999999+0041MW1021REMSYN088AAXX  12124 82583 21599 82702 10247 20229 39799 40141 70266 8753/ 333 20193 58004 60274;
0182825830999992001031218004-05170-040670FM-12+029999999V0203201N003110075019N0500001N1+02721+02241100981ADDAA106005191AY161061AY261061GF107991061031008001031021MA1999999097601MD1999999+0071MW1021REMSYN082AAXX  12184 82583 21599 73206 10272 20224 39760 40098 70266 86332 333 58007 60051;
0213825830999992001031300004-05170-040670FM-12+029999999V0203201N001510075019N0200001N1+02311+02201101311ADDAA106000391AY151061AY251061GF108991081051008001999999KA1240M+02971MA1999999097901MD1999999-0041MW1201REMSYN100AAXX  13004 82583 21598 83203 10231 20220 39790 40131 72055 885// 333 10297 29088 55020 59004 69931;
0201825830999992001031312004-05170-040670FM-12+029999999V0201801N000510120019N0500001N1+02561+02271101381ADDAA124006191AY151061AY251061GF107991071081008001001001KA1240N+02251MA1999999097981MD1999999-0011MW1021REMSYN088AAXX  13124 82583 21599 71801 10256 20227 39798 40138 70255 87800 333 20225 59001 60064;
0182825830999992001031318004-05170-040670FM-12+029999999V0202301N001010075019N0500001N1+02891+02101100921ADDAA106002091AY161061AY261061GF107991061091008001031001MA1999999097551MD1999999-0051MW1201REMSYN082AAXX  13184 82583 21599 72302 10289 20210 39755 40092 72066 86930 333 59005 60021;
0137825830999992001031406004-05170-040670FM-12+029999999V0201001N004012200019N0200001N1+02121+01851101311ADDAA199000021GA1001+999999999GF100991001001999999001001MD1999999+0021REMSYN058AAXX  14060 82583 32970 01004 10212 20185 40131 333 58002;
0201825830999992001031412004-05170-040670FM-12+029999999V0201401N001510075019N0500001N1+02231+02161101271ADDAA124008991AY161061AY261061GF108991081051008001999999KA1240N+02151MA1999999097861MD1999999-0121MW1021REMSYN088AAXX  14124 82583 21599 81403 10223 20216 39786 40127 70266 885// 333 20215 59012 60094;
0195825830999992001031418004-05170-040670FM-12+029999999V0200901N003610120019N0100001N1+02651+02291100961ADDAA199000091AY121061AY221061GF107991061081008001031001MA1999999097581MD1999999+0031MW1161REMSYN076AAXX  14184 82583 31597 70907 10265 20229 39758 40096 71622 86830 333 58003;EQDQ01  00002PRCP99
0213825830999992001031500004-05170-040670FM-12+029999999V0203201N001010120019N0040001N1+02371+02281101241ADDAA106001091AY151061AY251061GF108991081081008001999999KA1240M+02331MA1999999097831MD1999999+0071MW1531REMSYN100AAXX  15004 82583 21596 83202 10237 20228 39783 40124 75355 888// 333 10233 29091 55015 58007 60011;
0201825830999992001031512004-05170-040670FM-12+029999999V0200901N001510120019N0500001N1+02471+02271101311ADDAA124007191AY161061AY261061GF107991071081008001001001KA1240N+02071MA1999999097911MD1999999+0051MW1021REMSYN088AAXX  15124 82583 21599 70903 10247 20227 39791 40131 70266 87800 333 20207 58005 60074;
0182825830999992001031518004-05170-040670FM-12+029999999V0202701N002110120019N0500001N1+02511+02311100971ADDAA106002091AY161061AY261061GF107991061081008001041001MA1999999097791MD1999999+0011MW1021REMSYN082AAXX  15184 82583 21599 72704 10251 20231 39779 40097 70266 86840 333 58001 60021;
0192825830999992001031600004-05170-040670FM-12+029999999V0203201N001019999999N0040001N1+02271+02231101151ADDAA199000091GF108991999999999999999999KA1240M+02951MA1999999097751MD1999999-0081REMSYN082AAXX  16004 82583 32996 83202 10227 20223 39775 40115 333 10295 29093 55004 59008;EQDQ01  00002PRCP99
0173825830999992001031612004-05170-040670FM-12+029999999V0209999C000010120019N0500001N1+02511+02211101441ADDAA124002091GF107991071081008001001001KA1240N+02181MA1999999098041MD1999999+0131REMSYN082AAXX  16124 82583 22599 71400 10251 20221 39804 40144 87800 333 20218 58013 60024;
0182825830999992001031618004-05170-040670FM-12+029999999V0203601N001512200019N0500001N1+03031+02281101011ADDAA106001091AY161061AY261061GF105991041021008001001011MA1999999097641MD1999999+0051MW1031REMSYN082AAXX  16184 82583 21599 53603 10303 20228 39764 40101 70366 84201 333 58005 60011;
0208825830999992001031700004-05170-040670FM-12+029999999V0203601N000512200019N0040001N1+02521+02381101251ADDAA199000091GA1001+999999999GF100991001001999999001001KA1240M+03101MA1999999097861MD1999999+0111REMSYN082AAXX  17004 82583 32996 03601 10252 20238 39786 40125 333 10310 29072 55051 58011;EQDQ01  00002PRCP99
0173825830999992001031712004-05170-040670FM-12+029999999V0200501N001510120019N0500001N1+02471+02191101331ADDAA124001091GF107991071081008001001001KA1240N+02151MA1999999097941MD1999999-0101REMSYN082AAXX  17124 82583 22599 70503 10247 20219 39794 40133 87800 333 20215 59010 60014;
0167825830999992001031718004-05170-040670FM-12+029999999V0202701N001010120019N0500001N1+03021+02101100971ADDAA199000091GF106991061081008001001001MA1999999097601MD1999999-0041REMSYN070AAXX  17184 82583 32599 62702 10302 20210 39760 40097 86800 333 59004;EQDQ01  00002PRCP99
0208825830999992001031800004-05170-040670FM-12+029999999V0201401N001012200019N0040001N1+02501+02291101171ADDAA199000091GA1001+999999999GF100991001001999999001001KA1240M+03181MA1999999097791MD1999999+0071REMSYN082AAXX  18004 82583 32996 01402 10250 20229 39779 40117 333 10318 29078 55061 58007;EQDQ01  00002PRCP99
0186825830999992001031812004-05170-040670FM-12+029999999V0200501N002110075019N0500001N1+02571+02121101231ADDAA199000091GF106991061021008001001001KA1240N+01941MA1999999097851MD1999999-0091REMSYN076AAXX  18124 82583 32599 60504 10257 20212 39785 40123 86200 333 20194 59009;EQDQ01  00002PRCP99
0167825830999992001031818004-05170-040670FM-12+029999999V0201401N001510075019N0500001N1+03021+02181100851ADDAA199000091GF105991051021008001001001MA1999999097491MD1999999-0111REMSYN070AAXX  18184 82583 32599 51403 10302 20218 39749 40085 85200 333 59011;EQDQ01  00002PRCP99
0198825830999992001031900004-05170-040670FM-12+029999999V0200501N000512200019N0040001N1+02551+02211101071ADDAA199000091GF101991011011008001001001KA1240M+03081MA1999999097691MD1999999-0101REMSYN088AAXX  19004 82583 32596 10501 10255 20221 39769 40107 81100 333 10308 29075 55084 59010;EQDQ01  00002PRCP99
0186825830999992001031912004-05170-040670FM-12+029999999V0200901N001010120019N0500001N1+02511+02231101251ADDAA199000091GF108991081081008001999999KA1240N+02251MA1999999097871MD1999999+0021REMSYN076AAXX  19124 82583 32599 80902 10251 20223 39787 40125 888// 333 20225 58002;EQDQ01  00002PRCP99
0167825830999992001031918004-05170-040670FM-12+029999999V0203201N000510075019N0500001N1+03091+02341100821ADDAA199000091GF106991051031008001001011MA1999999097461MD1999999-0031REMSYN070AAXX  19184 82583 32599 63201 10309 20234 39746 40082 85301 333 59003;EQDQ01  00002PRCP99
0213825830999992001032000004-05170-040670FM-12+029999999V0203601N001010120019N0040001N1+02351+02241101101ADDAA106002091AY191061AY291061GF107991071081008001001001KA1240M+03291MA1999999097721MD1999999+0031MW1021REMSYN100AAXX  20004 82583 21596 73602 10235 20224 39772 40110 70299 87800 333 10329 29084 55041 58003 60021;
0173825830999992001032012004-05170-040670FM-12+029999999V0200901N003610120019N0500001N1+02581+02211101411ADDAA124002091GF106991051081008001001011KA1240N+02231MA1999999098011MD1999999+0141REMSYN082AAXX  20124 82583 22599 60907 10258 20221 39801 40141 85801 333 20223 58014 60024;
0167825830999992001032018004-05170-040670FM-12+029999999V0200901N002611050019N0500001N1+03111+02221101041ADDAA199000091GF106991041021008001001021MA1999999097681MD1999999+0221REMSYN070AAXX  20184 82583 32599 60905 10311 20222 39768 40104 84202 333 58022;EQDQ01  00002PRCP99
0198825830999992001032100004-05170-040670FM-12+029999999V0201401N001012200019N0040001N1+02511+02311101251ADDAA199000091GF101991011011008001001001KA1240M+03151MA1999999097871MD1999999+0151REMSYN088AAXX  21004 82583 32596 11402 10251 20231 39787 40125 81100 333 10315 29079 55093 58015;EQDQ01  00002PRCP99
0167825830999992001032118004-05170-040670FM-12+029999999V0201401N002612200019N0500001N1+03111+02251100931ADDAA199000091GF103991031021008001001001MA1999999097571MD1999999-0111REMSYN070AAXX  21184 82583 32599 31405 10311 20225 39757 40093 83200 333 59011;EQDQ01  00002PRCP99
0208825830999992001032200004-05170-040670FM-12+029999999V0200501N001512200019N0040001N1+02581+02191101101ADDAA199000091GA1001+999999999GF100991001001999999001001KA1240M+03141MA1999999097731MD1999999-0141REMSYN082AAXX  22004 82583 32996 00503 10258 20219 39773 40110 333 10314 29074 55086 59014;EQDQ01  00002PRCP99
0186825830999992001032212004-05170-040670FM-12+029999999V0201401N001510120019N0500001N1+02431+02231101211ADDAA199000091GF106991051081008001001011KA1240N+02291MA1999999097831MD1999999-0151REMSYN076AAXX  22124 82583 32599 61403 10243 20223 39783 40121 85801 333 20229 59015;EQDQ01  00002PRCP99
0167825830999992001032218004-05170-040670FM-12+029999999V0200501N004610075019N0500001N1+02911+02241100781ADDAA199000091GF107991051021008001001021MA1999999097421MD1999999-0151REMSYN070AAXX  22184 82583 32599 70509 10291 20224 39742 40078 85202 333 59015;EQDQ01  00002PRCP99
0198825830999992001032300004-05170-040670FM-12+029999999V0201401N001010075019N0040001N1+02431+02131101001ADDAA199000091GF105991051021008001001001KA1240M+02971MA1999999097621MD1999999-0111REMSYN088AAXX  23004 82583 32596 51402 10243 20213 39762 40100 85200 333 10297 29080 55036 59011;EQDQ01  00002PRCP99
0201825830999992001032312004-05170-040670FM-12+029999999V0200901N001510120019N0500001N1+02541+02331101111ADDAA124000191AY151061AY251061GF107991071081008001001001KA1240N+02331MA1999999097731MD1999999-0101MW1201REMSYN088AAXX  23124 82583 21599 70903 10254 20233 39773 40111 72055 87800 333 20233 59010 69924;
0148825830999992001032318004-05170-040670FM-12+029999999V0200901N003611050019N0500001N1+03031+02181100701ADDAA199000021GF106991031021008001001021MA1999999097351MD1999999-0071REMSYN070AAXX  23184 82583 32599 60907 10303 20218 39735 40070 83202 333 59007;
0179825830999992001032400004-05170-040670FM-12+029999999V0201801N001010120019N0040001N1+02541+02331101001ADDAA199000021GF108991081081008001999999KA1240M+03101MA1999999097621MD1999999+0001REMSYN088AAXX  24004 82583 32596 81802 10254 20233 39762 40100 888// 333 10310 29081 55047 58000;
0186825830999992001032412004-05170-040670FM-12+029999999V0200901N003612200019N0500001N1+02741+02051101161ADDAA199000091GF101991011011008001001001KA1240N+02181MA1999999097791MD1999999+0061REMSYN076AAXX  24124 82583 32599 10907 10274 20205 39779 40116 81100 333 20218 58006;EQDQ01  00002PRCP99
0183825830999992001032418004-05170-040670FM-12+029999999V0200901N002610075019N0500001N1+03131+02071100831ADDAA199000091GF106991999021008001001001MA1999999097481MD1999999+0131REMSYN070AAXX  24184 82583 32599 60905 10313 20207 39748 40083 85200 333 58013;EQDQ01+000052SCOTLCQ02  00002PRCP99
0213825830999992001032500004-05170-040670FM-12+029999999V0203201N001510075019N0040001N1+02321+02111101211ADDAA106000191AY191061AY291061GF108991081051008001999999KA1240M+03241MA1999999097831MD1999999+0211MW1021REMSYN100AAXX  25004 82583 21596 83203 10232 20211 39783 40121 70299 885// 333 10324 29074 55079 58021 69921;
0173825830999992001032512004-05170-040670FM-12+029999999V0200901N001010075019N0500001N1+02481+02251101401ADDAA124000191GF106991061021008001001001KA1240N+02141MA1999999098001MD1999999+0211REMSYN082AAXX  25124 82583 22599 60902 10248 20225 39800 40140 86200 333 20214 58021 69924;
0167825830999992001032518004-05170-040670FM-12+029999999V0201401N003110075019N0500001N1+03201+01931100951ADDAA199000091GF105991051021008001001001MA1999999097591MD1999999+0111REMSYN070AAXX  25184 82583 32599 51406 10320 20193 39759 40095 85200 333 58011;EQDQ01  00002PRCP99
0213825830999992001032600004-05170-040670FM-12+029999999V0203601N000510120019N0040001N1+02301+02161101271ADDAA106001091AY161061AY261061GF108991081081008001999999KA1240M+03281MA1999999097871MD1999999+0041MW1021REMSYN100AAXX  26004 82583 21596 83601 10230 20216 39787 40127 70266 888// 333 10328 29081 55061 58004 69991;
0173825830999992001032612004-05170-040670FM-12+029999999V0200901N003111050019N0500001N1+02661+02271101271ADDAA124001091GF105991011011008001031011KA1240N+02231MA1999999097881MD1999999-0121REMSYN082AAXX  26124 82583 22599 50906 10266 20227 39788 40127 81131 333 20223 59012 69994;
0167825830999992001032618004-05170-040670FM-12+029999999V0200901N002611050019N0500001N1+03011+02161100921ADDAA199000091GF106991021011008001001021MA1999999097561MD1999999-0031REMSYN070AAXX  26184 82583 32599 60905 10301 20216 39756 40092 82102 333 59003;EQDQ01  00002PRCP99
0167825830999992001032718004-05170-040670FM-12+029999999V0200901N004112200019N0500001N1+03211+02081100791ADDAA199000091GF104991031021008001001011MA1999999097441MD1999999-0121REMSYN070AAXX  27184 82583 32599 40908 10321 20208 39744 40079 83201 333 59012;EQDQ01  00002PRCP99
0198825830999992001032800004-05170-040670FM-12+029999999V0200501N000512200019N0040001N1+02591+02331101051ADDAA199000091GF101991011011008001001001KA1240M+03271MA1999999097691MD1999999-0071REMSYN088AAXX  28004 82583 32596 10501 10259 20233 39769 40105 81100 333 10327 29074 55082 59007;EQDQ01  00002PRCP99
0186825830999992001032812004-05170-040670FM-12+029999999V0200901N001510120019N0500001N1+02641+02231101211ADDAA199000091GF107991061081008001001011KA1240N+02171MA1999999097911MD1999999+0001REMSYN076AAXX  28124 82583 32599 70903 10264 20223 39791 40121 86801 333 20217 58000;EQDQ01  00002PRCP99
0167825830999992001032818004-05170-040670FM-12+029999999V0202701N002612200019N0500001N1+03101+02261100731ADDAA199000091GF104991041081008001001001MA1999999097381MD1999999-0061REMSYN070AAXX  28184 82583 32599 42705 10310 20226 39738 40073 84800 333 59006;EQDQ01  00002PRCP99
0213825830999992001032900004-05170-040670FM-12+029999999V0203201N002112200019N0040001N1+02371+02111101151ADDAA106000191AY161061AY261061GF102991021011008001001001KA1240M+03231MA1999999097771MD1999999+0081MW1021REMSYN100AAXX  29004 82583 21596 23204 10237 20211 39777 40115 70266 82100 333 10323 29077 55052 58008 69921;
0173825830999992001032912004-05170-040670FM-12+029999999V0201401N000510120019N0500001N1+02591+02291101341ADDAA124000191GF108991081081008001999999KA1240N+02261MA1999999097951MD1999999+0041REMSYN082AAXX  29124 82583 22599 81401 10259 20229 39795 40134 888// 333 20226 58004 69924;
0182825830999992001032918004-05170-040670FM-12+029999999V0201801N001510120019N0500001N1+02831+02421101001ADDAA106009991AY161061AY261061GF107991071081008001001001MA1999999097621MD1999999+0241MW1031REMSYN082AAXX  29184 82583 21599 71803 10283 20242 39762 40100 70366 87800 333 58024 60101;
0214825830999992001033000004-05170-040670FM-12+029999999V0203601N002619999999N0200001N1+02421+02251101281ADDAA199000091GF108991999021008001001001KA1240M+02891MA1999999097891MD1999999+0121REMSYN088AAXX  30004 82583 32598 83605 10242 20225 39789 40128 81200 333 10289 29085 55012 58012;EQDQ01+000012SCOTLCQ02  00002PRCP99
0201825830999992001033012004-05170-040670FM-12+029999999V0200901N002110075019N0500001N1+02441+02281101411ADDAA124009991AY161061AY261061GF108991081051008001999999KA1240N+02251MA1999999098011MD1999999+0061MW1021REMSYN088AAXX  30124 82583 21599 80904 10244 20228 39801 40141 70266 885// 333 20225 58006 60104;
0167825830999992001033018004-05170-040670FM-12+029999999V0202301N002110075019N0500001N1+02851+02311101061ADDAA199000091GF108991061021008001021999MA1999999097681MD1999999+0061REMSYN070AAXX  30184 82583 32599 82304 10285 20231 39768 40106 8622/ 333 58006;EQDQ01  00002PRCP99
0198825830999992001033100004-05170-040670FM-12+029999999V0203201N001012200019N0040001N1+02501+02501101231ADDAA199000091GF104991041021008001001001KA1240M+02951MA1999999097841MD1999999-0051REMSYN088AAXX  31004 82583 32596 43202 10250 20250 39784 40123 84200 333 10295 29086 55017 59005;EQDQ01  00002PRCP99
0202825830999992001033112004-05170-040670FM-12+029999999V0203201N001510075019N0500001N1+02481+02251101241ADDAA199000091GF107991999021008001001001KA1240N+02271MA1999999097851MD1999999-0161REMSYN076AAXX  31124 82583 32599 73203 10248 20225 39785 40124 86200 333 20227 59016;EQDQ01+000062SCOTLCQ02  00002PRCP99
0167825830999992001033118004-05170-040670FM-12+029999999V0201801N002110450019N0500001N1+02911+02271100871ADDAA199000091GF106991031021008001021001MA1999999097511MD1999999-0171REMSYN070AAXX  31184 82583 32599 61804 10291 20227 39751 40087 83220 333 59017;EQDQ01  00002PRCP99
0198825830999992001040100004-05170-040670FM-12+029999999V0200501N001510075019N0040001N1+02511+02291101211ADDAA199000091GF106991061021008001001001KA1240M+03021MA1999999097831MD1999999-0011REMSYN088AAXX  01004 82583 32596 60503 10251 20229 39783 40121 86200 333 10302 29082 55018 59001;EQDQ01  00002PRCP99
0186825830999992001040112004-05170-040670FM-12+029999999V0200901N003112200019N0500001N1+02621+02371101371ADDAA199000091GF103991031021008001001001KA1240N+02201MA1999999097971MD1999999+0131REMSYN076AAXX  01124 82583 32599 30906 10262 20237 39797 40137 83200 333 20220 58013;EQDQ01  00002PRCP99
0167825830999992001040118004-05170-040670FM-12+029999999V0201801N001510075019N0500001N1+03161+02081100881ADDAA199000091GF106991061021008001021001MA1999999097541MD1999999+0031REMSYN070AAXX  01184 82583 32599 61803 10316 20208 39754 40088 86220 333 58003;EQDQ01  00002PRCP99
0213825830999992001040200004-05170-040670FM-12+029999999V0203201N002110075019N0040001N1+02311+02241101281ADDAA106002091AY161061AY261061GF108991081051008001999999KA1240M+03321MA1999999097891MD1999999+0061MW1021REMSYN100AAXX  02004 82583 21596 83204 10231 20224 39789 40128 70266 885// 333 10332 29082 55047 58006 60021;
0201825830999992001040212004-05170-040670FM-12+029999999V0200501N001510075019N0500001N1+02511+02231101441ADDAA124005191AY161061AY261061GF107991061021008001031001KA1240N+02251MA1999999098041MD1999999+0071MW1021REMSYN088AAXX  02124 82583 21599 70503 10251 20223 39804 40144 70266 86230 333 20225 58007 60054;
0195825830999992001040218004-05170-040670FM-12+029999999V0201801N002110075019N0500001N1+03071+02161100951ADDAA199000091AY121061AY221061GF106991051031008001001021MA1999999097591MD1999999+0051MW1171REMSYN076AAXX  02184 82583 31599 61804 10307 20216 39759 40095 71722 85302 333 58005;EQDQ01  00002PRCP99
0213825830999992001040300004-05170-040670FM-12+029999999V0202701N000510075019N0040001N1+02431+02341101261ADDAA106003091AY191061AY261061GF107991051091008001021001KA1240M+03171MA1999999097861MD1999999-0031MW1131REMSYN100AAXX  03004 82583 21596 72701 10243 20234 39786 40126 71396 85920 333 10317 29083 55039 59003 60031;
0201825830999992001040312004-05170-040670FM-12+029999999V0203601N000510042019N0040001N1+02341+02271101361ADDAA124007991AY161061AY261061GF108991081051004501999999KA1240N+02191MA1999999097981MD1999999-0061MW1631REMSYN088AAXX  03124 82583 21496 83601 10234 20227 39798 40136 76366 885// 333 20219 59006 60084;
0182825830999992001040318004-05170-040670FM-12+029999999V0201401N001010075019N0500001N1+02671+02371100991ADDAA106009991AY161061AY261061GF108991081091008001999999MA1999999097611MD1999999+0021MW1031REMSYN082AAXX  03184 82583 21599 81402 10267 20237 39761 40099 70366 889// 333 58002 60101;
0213825830999992001040400004-05170-040670FM-12+029999999V0202301N001010075019N0040001N1+02221+02191101271ADDAA106003091AY161061AY261061GF108991081051008001999999KA1240M+02731MA1999999097861MD1999999+0001MW1021REMSYN100AAXX  04004 82583 21596 82302 10222 20219 39786 40127 70266 885// 333 10273 29094 55008 58000 60031;
0173825830999992001040412004-05170-040670FM-12+029999999V0200901N002612200019N0500001N1+02601+02291101281ADDAA124013091GF106991041021008001001041KA1240N+02191MA1999999097881MD1999999-0101REMSYN082AAXX  04124 82583 22599 60905 10260 20229 39788 40128 84204 333 20219 59010 60134;
0167825830999992001040418004-05170-040670FM-12+029999999V0200501N002110075019N0500001N1+03031+02231100841ADDAA199000091GF106991061021008001001001MA1999999097471MD1999999-0141REMSYN070AAXX  04184 82583 32599 60504 10303 20223 39747 40084 86200 333 59014;EQDQ01  00002PRCP99
0213825830999992001040500004-05170-040670FM-12+029999999V0202701N001510075019N0040001N1+02381+02191101241ADDAA106001091AY161061AY261061GF106991061051008001001001KA1240M+03121MA1999999097851MD1999999-0011MW1131REMSYN100AAXX  05004 82583 21596 62703 10238 20219 39785 40124 71366 86500 333 10312 29081 55062 59001 60011;
0173825830999992001040512004-05170-040670FM-12+029999999V0200901N001510450019N0500001N1+02581+02291101311ADDAA124001091GF107991041021008001031001KA1240N+02221MA1999999097921MD1999999+0041REMSYN082AAXX  05124 82583 22599 70903 10258 20229 39792 40131 84230 333 20222 58004 60014;
0167825830999992001040518004-05170-040670FM-12+029999999V0201401N002110075019N0500001N1+03111+02191100861ADDAA199000091GF105991051021008001001001MA1999999097501MD1999999+0031REMSYN070AAXX  05184 82583 32599 51404 10311 20219 39750 40086 85200 333 58003;EQDQ01  00002PRCP99
0198825830999992001040600004-05170-040670FM-12+029999999V0200501N001012200019N0040001N1+02531+02231101181ADDAA199000091GF102991021001017501041001KA1240M+03171MA1999999097801MD1999999-0051REMSYN088AAXX  06004 82583 32796 20502 10253 20223 39780 40118 82040 333 10317 29077 55085 59005;EQDQ01  00002PRCP99
0186825830999992001040612004-05170-040670FM-12+029999999V0200901N001512200019N0500001N1+02631+02181101351ADDAA199000091GF103991011011008001001011KA1240N+02051MA1999999097971MD1999999+0051REMSYN076AAXX  06124 82583 32599 30903 10263 20218 39797 40135 81101 333 20205 58005;EQDQ01  00002PRCP99
0167825830999992001040618004-05170-040670FM-12+029999999V0201401N001010075019N0500001N1+03111+02291101021ADDAA199000091GF106991051021008001001011MA1999999097641MD1999999+0141REMSYN070AAXX  06184 82583 32599 61402 10311 20229 39764 40102 85201 333 58014;EQDQ01  00002PRCP99
0198825830999992001040700004-05170-040670FM-12+029999999V0202701N001012200019N0040001N1+02431+02271101321ADDAA199000091GF104991041021008001001001KA1240M+03201MA1999999097941MD1999999+0141REMSYN088AAXX  07004 82583 32596 42702 10243 20227 39794 40132 84200 333 10320 29079 55079 58014;EQDQ01  00002PRCP99
0186825830999992001040712004-05170-040670FM-12+029999999V0200901N001010120019N0500001N1+02571+02331101401ADDAA199000091GF107991071081008001001001KA1240N+01941MA1999999098011MD1999999+0041REMSYN076AAXX  07124 82583 32599 70902 10257 20233 39801 40140 87800 333 20194 58004;EQDQ01  00002PRCP99
0167825830999992001040718004-05170-040670FM-12+029999999V0200901N002612200019N0500001N1+03151+02081100961ADDAA199000091GF103991021021008001001011MA1999999097601MD1999999-0041REMSYN070AAXX  07184 82583 32599 30905 10315 20208 39760 40096 82201 333 59004;EQDQ01  00002PRCP99
0213825830999992001040800004-05170-040670FM-12+029999999V0203201N000510075019N0040001N1+02471+02271101321ADDAA106002091AY161061AY261061GF105991051021008001001001KA1240M+03221MA1999999097931MD1999999-0011MW1021REMSYN100AAXX  08004 82583 21596 53201 10247 20227 39793 40132 70266 85200 333 10322 29079 55070 59001 60021;
0173825830999992001040812004-05170-040670FM-12+029999999V0201401N002110075019N0500001N1+02571+02311101311ADDAA124002091GF105991051021008001001001KA1240N+02191MA1999999097921MD1999999-0091REMSYN082AAXX  08124 82583 22599 51404 10257 20231 39792 40131 85200 333 20219 59009 60024;
0183825830999992001040818004-05170-040670FM-12+029999999V0201401N002119999999N0500001N1+03121+02021100791ADDAA199000091GF105991999011008001001001MA1999999097441MD1999999-0161REMSYN070AAXX  08184 82583 32599 51404 10312 20202 39744 40079 83100 333 59016;EQDQ01+000032SCOTLCQ02  00002PRCP99
0198825830999992001040900004-05170-040670FM-12+029999999V0203601N001512200019N0040001N1+02591+02251101101ADDAA199000091GF104991041021008001001001KA1240M+03221MA1999999097731MD1999999-0201REMSYN088AAXX  09004 82583 32596 43603 10259 20225 39773 40110 84200 333 10322 29075 55079 59020;EQDQ01  00002PRCP99
0201825830999992001040912004-05170-040670FM-12+029999999V0200901N001010120019N0500001N1+02541+02351101141ADDAA124000191AY121061AY221061GF107991071081008001001001KA1240N+02181MA1999999097761MD1999999-0161MW1211REMSYN088AAXX  09124 82583 21599 70902 10254 20235 39776 40114 72122 87800 333 20218 59016 69924;
0148825830999992001040918004-05170-040670FM-12+029999999V0200501N003110075019N0500001N1+03011+02241100771ADDAA199000021GF106991051021008001041001MA1999999097411MD1999999-0031REMSYN070AAXX  09184 82583 32599 60506 10301 20224 39741 40077 85240 333 59003;
0213825830999992001041000004-05170-040670FM-12+029999999V0203601N002110120019N0040001N1+02361+02291101081ADDAA106040991AY161061AY261061GF108991081081008001999999KA1240M+03031MA1999999097701MD1999999-0031MW1021REMSYN100AAXX  10004 82583 21596 83604 10236 20229 39770 40108 70266 888// 333 10303 29086 55038 59003 60411;
0173825830999992001041012004-05170-040670FM-12+029999999V0202701N001010120019N0500001N1+02541+02291101221ADDAA124040991GF107991071081008001001001KA1240N+02241MA1999999097831MD1999999+0071REMSYN082AAXX  10124 82583 22599 72702 10254 20229 39783 40122 87800 333 20224 58007 60414;
0195825830999992001041018004-05170-040670FM-12+029999999V0200901N004610120019N0100001N1+02731+02301100891ADDAA199000091AY121061AY221061GF107991061081008001041001MA1999999097521MD1999999+0111MW1151REMSYN076AAXX  10184 82583 31597 70909 10273 20230 39752 40089 71522 86840 333 58011;EQDQ01  00002PRCP99
0213825830999992001041100004-05170-040670FM-12+029999999V0202701N002610120019N0040001N1+02311+02271101171ADDAA106029091AY191061AY261061GF108991081081008001999999KA1240M+03061MA1999999097771MD1999999+0071MW1211REMSYN100AAXX  11004 82583 21596 82705 10231 20227 39777 40117 72196 888// 333 10306 29089 55033 58007 60291;
0201825830999992001041112004-05170-040670FM-12+029999999V0203601N001010075019N0500001N1+02331+02261101461ADDAA124030091AY161061AY251061GF108991081051008001999999KA1240N+02241MA1999999098041MD1999999+0211MW1211REMSYN088AAXX  11124 82583 21599 83602 10233 20226 39804 40146 72165 885// 333 20224 58021 60304;
0148825830999992001041118004-05170-040670FM-12+029999999V0202301N001510450019N0500001N1+02871+02231101081ADDAA199000021GF106991041021008001031001MA1999999097701MD1999999+0181REMSYN070AAXX  11184 82583 32599 62303 10287 20223 39770 40108 84230 333 58018;
0232825830999992001041200004-05170-040670FM-12+029999999V0202301N000519999999N0040001N1+02281+02231101431ADDAA106018091AY161061AY261061GF106991999051008001999999KA1240M+03001MA1999999098011MD1999999+0241MW1021REMSYN100AAXX  12004 82583 21596 62301 10228 20223 39801 40143 70266 885// 333 10300 29089 55029 58024 60181;EQDQ01+000082SCOTLC
0173825830999992001041212004-05170-040670FM-12+029999999V0200901N001010075019N0500001N1+02571+02251101341ADDAA124019191GF105991051021008001001001KA1240N+02171MA1999999097941MD1999999-0101REMSYN082AAXX  12124 82583 22599 50902 10257 20225 39794 40134 85200 333 20217 59010 60194;
0167825830999992001041218004-05170-040670FM-12+029999999V0201801N002610450019N0500001N1+03071+02351100861ADDAA199000091GF106991031021008001031011MA1999999097501MD1999999-0201REMSYN070AAXX  12184 82583 32599 61805 10307 20235 39750 40086 83231 333 59020;EQDQ01  00002PRCP99
0213825830999992001041300004-05170-040670FM-12+029999999V0203601N003610075019N0020001N1+02381+02261101221ADDAA106000191AY191061AY291061GF108991081051008001999999KA1240M+03171MA1999999097841MD1999999-0171MW1951REMSYN100AAXX  13004 82583 21595 83607 10238 20226 39784 40122 79599 885// 333 10317 29084 55029 59017 69921;
0201825830999992001041312004-05170-040670FM-12+029999999V0202301N000512200019N0500001N1+02541+02351101251ADDAA124000891AY191061AY261061GF102991021011008001001001KA1240N+02201MA1999999097871MD1999999-0071MW1021REMSYN088AAXX  13124 82583 21599 22301 10254 20235 39787 40125 70296 82100 333 20220 59007 69974;
0167825830999992001041318004-05170-040670FM-12+029999999V0201801N001010075019N0500001N1+03141+02211100741ADDAA199000091GF106991061021008001001001MA1999999097391MD1999999-0111REMSYN070AAXX  13184 82583 32599 61802 10314 20221 39739 40074 86200 333 59011;EQDQ01  00002PRCP99
0213825830999992001041400004-05170-040670FM-12+029999999V0203201N002110075019N0010001N1+02261+02181101241ADDAA106000591AY161061AY261061GF108991081051008001999999KA1240M+03201MA1999999097841MD1999999+0001MW1021REMSYN100AAXX  14004 82583 21594 83204 10226 20218 39784 40124 70266 885// 333 10320 29084 55083 58000 69961;
0173825830999992001041412004-05170-040670FM-12+029999999V0200501N001510075019N0500001N1+02601+02271101221ADDAA124000591GF107991051021008001031001KA1240N+02231MA1999999097831MD1999999-0041REMSYN082AAXX  14124 82583 22599 70503 10260 20227 39783 40122 85230 333 20223 59004 69964;
0195825830999992001041418004-05170-040670FM-12+029999999V0200901N001010075019N0500001N1+03011+02341100801ADDAA199000091AY121061AY221061GF107991051091008001051001MA1999999097441MD1999999+0051MW1171REMSYN076AAXX  14184 82583 31599 70902 10301 20234 39744 40080 71722 85950 333 58005;EQDQ01  00002PRCP99
0213825830999992001041500004-05170-040670FM-12+029999999V0203201N001010120019N0040001N1+02221+02171101301ADDAA106005191AY161061AY261061GF108991081081008001999999KA1240M+03081MA1999999097901MD1999999+0061MW1021REMSYN100AAXX  15004 82583 21596 83202 10222 20217 39790 40130 70266 888// 333 10308 29086 55027 58006 60051;
0173825830999992001041512004-05170-040670FM-12+029999999V0200501N000510075019N0020001N1+02371+02281101551ADDAA124005191GF106991061021008001001001KA1240N+02241MA1999999098131MD1999999+0301REMSYN082AAXX  15124 82583 22595 60501 10237 20228 39813 40155 86200 333 20224 58030 60054;
0167825830999992001041518004-05170-040670FM-12+029999999V0200901N001010075019N0500001N1+02871+02251101121ADDAA199000091GF106991061021008001001001MA1999999097741MD1999999+0091REMSYN070AAXX  15184 82583 32599 60902 10287 20225 39774 40112 86200 333 58009;EQDQ01  00002PRCP99
0198825830999992001041600004-05170-040670FM-12+029999999V0200901N001010075019N0040001N1+02481+02301101411ADDAA199000091GF108991081051008001999999KA1240M+03001MA1999999098011MD1999999+0111REMSYN088AAXX  16004 82583 32596 80902 10248 20230 39801 40141 885// 333 10300 29086 55023 58011;EQDQ01  00002PRCP99
0186825830999992001041612004-05170-040670FM-12+029999999V0201401N002110075019N0500001N1+02411+02231101541ADDAA199000091GF107991061051008001041001KA1240N+02151MA1999999098141MD1999999+0011REMSYN076AAXX  16124 82583 32599 71404 10241 20223 39814 40154 86540 333 20215 58001;EQDQ01  00002PRCP99
0182825830999992001041618004-05170-040670FM-12+029999999V0200901N002610075019N0500001N1+02771+02321101131ADDAA106000191AY161061AY261061GF106991051031008001001021MA1999999097751MD1999999+0011MW1031REMSYN082AAXX  16184 82583 21599 60905 10277 20232 39775 40113 70366 85302 333 58001 69921;
0213825830999992001041700004-05170-040670FM-12+029999999V0203601N001010075019N0040001N1+02361+02261101471ADDAA106005191AY161061AY261061GF106991061031008001001001KA1240M+03031MA1999999098031MD1999999+0011MW1021REMSYN100AAXX  17004 82583 21596 63602 10236 20226 39803 40147 70266 86300 333 10303 29088 55026 58001 60051;
0173825830999992001041712004-05170-040670FM-12+029999999V0200901N002610120019N0500001N1+02551+02231101511ADDAA124006191GF107991071081008001001001KA1240N+02181MA1999999098111MD1999999-0031REMSYN082AAXX  17124 82583 22599 70905 10255 20223 39811 40151 87800 333 20218 59003 60064;
0167825830999992001041718004-05170-040670FM-12+029999999V0201401N002112200019N0500001N1+02971+02231101041ADDAA199000091GF103991031021008001001001MA1999999097671MD1999999+0081REMSYN070AAXX  17184 82583 32599 31404 10297 20223 39767 40104 83200 333 58008;EQDQ01  00002PRCP99
0198825830999992001041800004-05170-040670FM-12+029999999V0201801N002612200019N0040001N1+02361+02291101351ADDAA199000091GF103991031061008001001001KA1240M+03021MA1999999097951MD1999999-0081REMSYN088AAXX  18004 82583 32596 31805 10236 20229 39795 40135 83600 333 10302 29085 55054 59008;EQDQ01  00002PRCP99
0201825830999992001041812004-05170-040670FM-12+029999999V0203201N001010075019N0200001N1+02371+02331101301ADDAA124000591AY161061AY261061GF108991081051008001999999KA1240N+02251MA1999999097901MD1999999-0211MW1531REMSYN088AAXX  18124 82583 21598 83202 10237 20233 39790 40130 75366 885// 333 20225 59021 69954;
0148825830999992001041818004-05170-040670FM-12+029999999V0200901N001012200019N0500001N1+03001+02241100831ADDAA199000021GF105991041021008001001011MA1999999097471MD1999999-0201REMSYN070AAXX  18184 82583 32599 50902 10300 20224 39747 40083 84201 333 59020;
0213825830999992001041900004-05170-040670FM-12+029999999V0201401N000510075019N0040001N1+02301+02221101371ADDAA106001091AY161061AY261061GF108991081051008001999999KA1240M+03101MA1999999097951MD1999999+0001MW1021REMSYN100AAXX  19004 82583 21596 81401 10230 20222 39795 40137 70266 885// 333 10310 29087 55038 58000 60011;
0201825830999992001041912004-05170-040670FM-12+029999999V0201801N001010075019N0500001N1+02431+02271101331ADDAA124002091AY161061AY251061GF108991081051008001999999KA1240N+02181MA1999999097931MD1999999+0031MW1031REMSYN088AAXX  19124 82583 21599 81802 10243 20227 39793 40133 70365 885// 333 20218 58003 60024;
0182825830999992001041918004-05170-040670FM-12+029999999V0200501N004610120019N0040001N1+02431+02271100981ADDAA106005191AY121061AY221061GF108991081081008001999999MA1999999097581MD1999999+0111MW1951REMSYN082AAXX  19184 82583 21596 80509 10243 20227 39758 40098 79522 888// 333 58011 60051;
0213825830999992001042000004-05170-040670FM-12+029999999V0203201N001010075019N0040001N1+02341+02261101341ADDAA106005191AY161061AY261061GF108991081051008001999999KA1240M+03001MA1999999097941MD1999999+0011MW1021REMSYN100AAXX  20004 82583 21596 83202 10234 20226 39794 40134 70266 885// 333 10300 29093 55018 58001 60051;
0173825830999992001042012004-05170-040670FM-12+029999999V0200501N000510075019N0500001N1+02581+02211101431ADDAA124005191GF106991061021008001001001KA1240N+02271MA1999999098031MD1999999+0101REMSYN082AAXX  20124 82583 22599 60501 10258 20221 30803 40143 86200 333 20227 58010 60054;
0167825830999992001042018004-05170-040670FM-12+029999999V0201401N002612200019N0500001N1+03011+02261100951ADDAA199000091GF104991041021008001001001MA1999999097591MD1999999+0011REMSYN070AAXX  20184 82583 32599 41405 10301 20226 39759 40095 84200 333 58001;EQDQ01  00002PRCP99
0186825830999992001042112004-05170-040670FM-12+029999999V0200501N003110120019N0500001N1+02631+02271101461ADDAA199000091GF107991061081008001041001KA1240N+02251MA1999999098061MD1999999+0031REMSYN076AAXX  21124 82583 32599 70506 10263 20227 39806 40146 86840 333 20225 58003;EQDQ01  00002PRCP99
0182825830999992001042118004-05170-040670FM-12+029999999V0200901N002110075019N0020001N1+02611+02371101111ADDAA106000191AY121061AY221061GF106991061021008001001001MA1999999097731MD1999999+0141MW1211REMSYN082AAXX  21184 82583 21595 60904 10261 20237 39773 40111 72122 86200 333 58014 69921;
0189825830999992001042200004-05170-040670FM-12+029999999V0200901N000512200019N0040001N1+02311+02201101351ADDAA199000021GA1001+999999999GF100991001001999999001001KA1240M+03041MA1999999097961MD1999999-0011REMSYN082AAXX  22004 82583 32996 00901 10231 20220 39796 40135 333 10304 29088 55047 59001;
0186825830999992001042212004-05170-040670FM-12+029999999V0200901N005112200019N0500001N1+02621+02291101371ADDAA199000091GF104991041011008001001001KA1240N+02091MA1999999097951MD1999999+0111REMSYN076AAXX  22124 82583 32599 40910 10262 20229 39795 40137 84100 333 20209 58011;EQDQ01  00002PRCP99
0167825830999992001042218004-05170-040670FM-12+029999999V0200901N005112200019N0500001N1+02981+02011100951ADDAA199000091GF102991021011008001001001MA1999999097581MD1999999-0151REMSYN070AAXX  22184 82583 32599 20910 10298 20201 39758 40095 82100 333 59015;EQDQ01  00002PRCP99
0208825830999992001042300004-05170-040670FM-12+029999999V0200901N001512200019N0040001N1+02341+02031101091ADDAA199000091GA1001+999999999GF100991001001999999001001KA1240M+03021MA1999999097711MD1999999-0251REMSYN082AAXX  23004 82583 32996 00903 10234 20203 39771 40109 333 10302 29076 55095 59025;EQDQ01  00002PRCP99
0186825830999992001042312004-05170-040670FM-12+029999999V0200901N003610075019N0500001N1+02561+02151101281ADDAA199000091GF106991061021008001001001KA1240N+02051MA1999999097881MD1999999-0071REMSYN076AAXX  23124 82583 32599 60907 10256 20215 39788 40128 86200 333 20205 59007;EQDQ01  00002PRCP99
0167825830999992001042318004-05170-040670FM-12+029999999V0200901N002612200019N0500001N1+03091+02061100931ADDAA199000091GF102991021011008001001001MA1999999097551MD1999999-0031REMSYN070AAXX  23184 82583 32599 20905 10309 20206 39755 40093 82100 333 59003;EQDQ01  00002PRCP99
0208825830999992001042400004-05170-040670FM-12+029999999V0200501N001512200019N0040001N1+02371+02131101091ADDAA199000091GA1001+999999999GF100991001001999999001001KA1240M+03111MA1999999097711MD1999999+0001REMSYN082AAXX  24004 82583 32596 00503 10237 20213 39771 40109 333 10311 29076 55098 58000;EQDQ01  00002PRCP99
0186825830999992001042412004-05170-040670FM-12+029999999V0200901N003112200019N0500001N1+02641+02181101281ADDAA199000091GF104991031011008001001011KA1240N+02051MA1999999097891MD1999999+0011REMSYN076AAXX  24124 82583 32599 40906 10264 20218 39789 40128 83101 333 20205 58001;EQDQ01  00002PRCP99
0167825830999992001042418004-05170-040670FM-12+029999999V0200901N002611050019N0500001N1+03031+02121100961ADDAA199000091GF106991031021008001001021MA1999999097581MD1999999+0031REMSYN070AAXX  24184 82583 32599 60905 10303 20212 39758 40096 83202 333 58003;EQDQ01  00002PRCP99
0208825830999992001042500004-05170-040670FM-12+029999999V0200901N000512200019N0040001N1+02481+02131101281ADDAA199000091GA1001+999999999GF100991001001999999001001KA1240M+03061MA1999999097901MD1999999+0191REMSYN082AAXX  25004 82583 32596 00901 10248 20213 39790 40128 333 10306 29074 55076 58019;EQDQ01  00002PRCP99
0186825830999992001042512004-05170-040670FM-12+029999999V0201801N001510075019N0500001N1+02611+02211101521ADDAA199000091GF106991051021008001001011KA1240N+02191MA1999999098131MD1999999+0241REMSYN076AAXX  25124 82583 32599 61803 10261 20221 39813 40152 85201 333 20219 58024;EQDQ01  00002PRCP99
0167825830999992001042518004-05170-040670FM-12+029999999V0200901N003110450019N0500001N1+03031+02151101151ADDAA199000091GF106991031021008001031001MA1999999097791MD1999999+0211REMSYN070AAXX  25184 82583 32599 60906 10303 20215 39779 40115 83230 333 58021;EQDQ01  00002PRCP99
0198825830999992001042600004-05170-040670FM-12+029999999V0200501N001010075019N0040001N1+02551+02251101271ADDAA199000091GF105991051021008001001001KA1240M+03071MA1999999097991MD1999999+0091REMSYN088AAXX  26004 82583 32596 50502 10255 20225 39799 40127 85200 333 10307 29076 55083 58009;EQDQ01  00002PRCP99
0198825830999992001042700004-05170-040670FM-12+029999999V0203601N000512200019N0040001N1+02621+02161101251ADDAA199000091GF104991041011008001001001KA1240M+03101MA1999999097861MD1999999-0131REMSYN088AAXX  27004 82583 32596 43601 10262 20216 39786 40125 84100 333 10310 29071 55078 59013;EQDQ01  00002PRCP99
0186825830999992001042712004-05170-040670FM-12+029999999V0201401N000510075019N0500001N1+02671+02281101331ADDAA199000091GF106991061021008001001001KA1240N+02171MA1999999097951MD1999999-0071REMSYN076AAXX  27124 82583 32599 61401 10267 20228 39795 40133 86200 333 20217 59007;EQDQ01  00002PRCP99
0167825830999992001042718004-05170-040670FM-12+029999999V0200901N001010120019N0500001N1+02631+02201101061ADDAA199000091GF107991071081008001001001MA1999999097671MD1999999+0041REMSYN070AAXX  27184 82583 32599 70902 10263 20220 39767 40106 87800 333 58004;EQDQ01  00002PRCP99
0198825830999992001042800004-05170-040670FM-12+029999999V0203201N001010075019N0040001N1+02471+02271101321ADDAA199000091GF106991061021008001001001KA1240M+02921MA1999999097941MD1999999+0061REMSYN088AAXX  28004 82583 32596 63202 10247 20227 39794 40132 86200 333 10292 29083 55032 58006;EQDQ01  00002PRCP99
0201825830999992001042812004-05170-040670FM-12+029999999V0200901N005110120019N0040001N1+02281+02201101501ADDAA124014091AY161061AY261061GF108991081081008001999999KA1240N+02271MA1999999098091MD1999999+0141MW1631REMSYN088AAXX  28124 82583 21596 80910 10228 20220 39809 40150 76366 888// 333 20227 58014 60144;
0182825830999992001042818004-05170-040670FM-12+029999999V0201801N003110075019N0500001N1+02691+02261101161ADDAA106000591AY161061AY261061GF106991061021008001001001MA1999999097781MD1999999+0111MW1021REMSYN082AAXX  28184 82583 21599 61806 10269 20226 39778 40116 70266 86200 333 58011 69961;
0179825830999992001042900004-05170-040670FM-12+029999999V0200501N000510120019N0040001N1+02471+02321101391ADDAA199000021GF108991081081008001999999KA1240M+02761MA1999999097991MD1999999+0051REMSYN088AAXX  29004 82583 32596 80501 10247 20232 39799 40139 888// 333 10276 29089 55002 58005;
0201825830999992001042912004-05170-040670FM-12+029999999V0201401N003610075019N0020001N1+02361+02341101441ADDAA124001091AY161061AY261061GF106991061021008001001001KA1240N+02191MA1999999098051MD1999999-0051MW1611REMSYN088AAXX  29124 82583 21595 61407 10236 20234 39805 40144 76166 86200 333 20219 59005 60014;
0148825830999992001042918004-05170-040670FM-12+029999999V0201401N001010075019N0200001N1+02961+02281101021ADDAA199000021GF107991071011008001001001MA1999999097651MD1999999-0131REMSYN070AAXX  29184 82583 32598 71402 10296 20228 39765 40102 87100 333 59013;
0213825830999992001043000004-05170-040670FM-12+029999999V0200901N000510075019N0040001N1+02501+02291101281ADDAA106000191AY121061AY221061GF106991061021008001001001KA1240M+03001MA1999999097881MD1999999-0111MW1531REMSYN100AAXX  30004 82583 21596 60901 10250 20229 39788 40128 75322 86200 333 10300 29086 55026 59011 69911;
0173825830999992001043012004-05170-040670FM-12+029999999V0201401N003110120019N0500001N1+02471+02321101271ADDAA124000191GF108991081081008001999999KA1240N+02231MA1999999097901MD1999999-0141REMSYN082AAXX  30124 82583 22599 81406 10247 20232 39790 40127 888// 333 20223 59014 69914;
0182825830999992001043018004-05170-040670FM-12+029999999V0201401N001510075019N0500001N1+02891+02301100891ADDAA106007191AY161061AY251061GF106991051021008001001011MA1999999097531MD1999999-0121MW1031REMSYN082AAXX  30184 82583 21599 61403 10289 20230 39753 40089 70365 85201 333 59012 60071;
0192825830999992001050100004-05170-040670FM-12+029999999V0201401N001512200019N0040001N1+02471+02271101141ADDAA199000091GF101991999999999999999999KA1240M+03011MA1999999097751MD1999999-0131REMSYN082AAXX  01004 82583 32996 11403 10247 20227 39775 40114 333 10301 29084 55037 59013;EQDQ01  00002PRCP99
0173825830999992001050112004-05170-040670FM-12+029999999V0200901N001010075019N0500001N1+02631+02271101291ADDAA124000891GF106991051021008001031001KA1240N+02151MA1999999097911MD1999999+0011REMSYN082AAXX  01124 82583 22599 60902 10263 20227 39791 40129 85230 333 20215 58001 69974;
0167825830999992001050118004-05170-040670FM-12+029999999V0200901N003112200019N0500001N1+03111+02141100911ADDAA199000091GF103991021021008001001011MA1999999097551MD1999999+0021REMSYN070AAXX  01184 82583 32599 30906 10311 20214 39755 40091 82201 333 58002;EQDQ01  00002PRCP99
0186825830999992001050212004-05170-040670FM-12+029999999V0200901N004610075019N0500001N1+02621+02211101441ADDAA199000091GF106991061021008001001001KA1240N+02151MA1999999098051MD1999999+0141REMSYN076AAXX  02124 82583 32599 60909 10262 20221 39805 40144 86200 333 20215 58014;EQDQ01  00002PRCP99
0167825830999992001050218004-05170-040670FM-12+029999999V0200901N003112200019N0500001N1+03071+02101101071ADDAA199000091GF103991021011008001001011MA1999999097711MD1999999+0161REMSYN070AAXX  02184 82583 32599 30906 10307 20210 39771 40107 82101 333 58016;EQDQ01  00002PRCP99
0208825830999992001050300004-05170-040670FM-12+029999999V0200901N002112200019N0040001N1+02361+02091101341ADDAA199000091GA1001+999999999GF100991001001999999001001KA1240M+03101MA1999999097951MD1999999+0091REMSYN082AAXX  03004 82583 32996 00904 10236 20209 39795 40134 333 10310 29076 55096 58009;EQDQ01  00002PRCP99
0186825830999992001050312004-05170-040670FM-12+029999999V0200901N003610075019N0500001N1+02611+02251101381ADDAA199000091GF106991061021008001001001KA1240N+02011MA1999999097991MD1999999-0061REMSYN076AAXX  03124 82583 32599 60907 10261 20225 39799 40138 86200 333 20201 59006;EQDQ01  00002PRCP99
0198825830999992001050400004-05170-040670FM-12+029999999V0200901N001012200019N0040001N1+02401+02131101271ADDAA199000091GF102991021011008001001001KA1240M+03201MA1999999097891MD1999999-0061REMSYN088AAXX  04004 82583 32596 20902 10240 20213 39789 40127 82100 333 10320 29073 55003 59006;EQDQ01  00002PRCP99
0186825830999992001050412004-05170-040670FM-12+029999999V0200901N001510075019N0500001N1+02631+02231101261ADDAA199000091GF106991051021008001001011KA1240N+02011MA1999999097881MD1999999-0111REMSYN076AAXX  04124 82583 32599 60903 10263 20223 39788 40126 85201 333 20201 59011;EQDQ01  00002PRCP99
0167825830999992001050418004-05170-040670FM-12+029999999V0203601N003610075019N0500001N1+03011+02291100841ADDAA199000091GF106991061021008001001001MA1999999097481MD1999999-0111REMSYN070AAXX  04184 82583 32599 63607 10301 20229 39748 40084 86200 333 59011;EQDQ01  00002PRCP99
0213825830999992001050500004-05170-040670FM-12+029999999V0202701N001010075019N0040001N1+02241+02161101231ADDAA106019191AY161061AY261061GF106991061021008001001001KA1240M+03231MA1999999097841MD1999999-0051MW1021REMSYN100AAXX  05004 82583 21596 62702 10224 20216 39784 40123 70266 86200 333 10323 29083 55064 59005 60191;
0173825830999992001050512004-05170-040670FM-12+029999999V0200501N002610075019N0500001N1+02621+02271101231ADDAA124019191GF107991061021008001001011KA1240N+02101MA1999999097841MD1999999-0041REMSYN082AAXX  05124 82583 22599 70505 10262 20227 39784 40123 86201 333 20210 59004 60194;
0167825830999992001050518004-05170-040670FM-12+029999999V0201401N003110075019N0500001N1+02891+02371100791ADDAA199000091GF106991061021008001001001MA1999999097421MD1999999-0061REMSYN070AAXX  05184 82583 32599 61406 10289 20237 39742 40079 86200 333 59006;EQDQ01  00002PRCP99
0198825830999992001050600004-05170-040670FM-12+029999999V0203601N001512200019N0040001N1+02481+02271101131ADDAA199000091GF102991021011008001001001KA1240M+03121MA1999999097751MD1999999-0091REMSYN088AAXX  06004 82583 32596 23603 10248 20227 39775 40113 82100 333 10312 29083 55057 59009;EQDQ01  00002PRCP99
0186825830999992001050612004-05170-040670FM-12+029999999V0200901N002610075019N0500001N1+02631+02271101341ADDAA199000091GF106991061021008001001001KA1240N+02171MA1999999097951MD1999999-0111REMSYN076AAXX  06124 82583 32599 60905 10263 20227 39795 40134 86200 333 20217 59011;EQDQ01  00002PRCP99
0183825830999992001050618004-05170-040670FM-12+029999999V0200501N002610075019N0500001N1+02971+02351100881ADDAA199000091GF107991999021008001001001MA1999999097521MD1999999+0101REMSYN070AAXX  06184 82583 32599 70505 10297 20235 39752 40088 86200 333 58010;EQDQ01+000062SCOTLCQ02  00002PRCP99
0198825830999992001050700004-05170-040670FM-12+029999999V0203601N001512200019N0040001N1+02571+02331101241ADDAA199000091GF102991021011008001001001KA1240M+03101MA1999999097861MD1999999-0111REMSYN088AAXX  07004 82583 32596 23603 10257 20233 39786 40124 82100 333 10310 29080 55046 59011;EQDQ01  00002PRCP99
0186825830999992001050712004-05170-040670FM-12+029999999V0200501N003110120019N0500001N1+02651+02201101361ADDAA199000091GF107991051081008001001011KA1240N+02301MA1999999097981MD1999999+0031REMSYN076AAXX  07124 82583 32599 70506 10265 20220 39798 40136 85801 333 20230 58003;EQDQ01  00002PRCP99
0167825830999992001050718004-05170-040670FM-12+029999999V0203601N002610075019N0500001N1+03011+02341100921ADDAA199000091GF106991051021008001001011MA1999999097561MD1999999+0041REMSYN070AAXX  07184 82583 32599 63605 10301 20234 39756 40092 85201 333 58004;EQDQ01  00002PRCP99
0198825830999992001050800004-05170-040670FM-12+029999999V0203601N001012200019N0040001N1+02531+02331101121ADDAA199000091GF101991011011008001001001KA1240M+03091MA1999999097751MD1999999-0111REMSYN088AAXX  08004 82583 32596 13602 10253 20233 39775 40112 81100 333 10309 29080 55054 59011;EQDQ01  00002PRCP99
0186825830999992001050812004-05170-040670FM-12+029999999V0200501N004610075019N0500001N1+02631+02161101301ADDAA199000091GF106991051021008001041001KA1240N+02291MA1999999097921MD1999999-0081REMSYN076AAXX  08124 82583 32599 60509 10263 20216 39792 40130 85240 333 20229 59008;EQDQ01  00002PRCP99
0167825830999992001050818004-05170-040670FM-12+029999999V0200501N004112200019N0500001N1+03101+02091100911ADDAA199000091GF103991021021008001001011MA1999999097561MD1999999+0001REMSYN070AAXX  08184 82583 32599 30508 10310 20209 39756 40091 82201 333 58000;EQDQ01  00002PRCP99
0192825830999992001050900004-05170-040670FM-12+029999999V0209999C000012200019N0040001N1+02471+02291101131ADDAA199000091GF103991999999999999999999KA1240M+03131MA1999999097751MD1999999+0001REMSYN082AAXX  09004 82583 32996 30900 10247 20229 39775 40113 333 10313 29077 55056 58000;EQDQ01  00002PRCP99
0186825830999992001050912004-05170-040670FM-12+029999999V0200901N001510075019N0500001N1+02491+02191101211ADDAA199000091GF108991081051008001999999KA1240N+02131MA1999999097831MD1999999-0091REMSYN076AAXX  09124 82583 32599 80903 10249 20219 39783 40121 885// 333 20213 59009;EQDQ01  00002PRCP99
0167825830999992001050918004-05170-040670FM-12+029999999V0200901N001510075019N0500001N1+02991+02321100841ADDAA199000091GF105991051021008001001001MA1999999097471MD1999999-0091REMSYN070AAXX  09184 82583 32599 50903 10299 20232 39747 40084 85200 333 59009;EQDQ01  00002PRCP99
0198825830999992001051000004-05170-040670FM-12+029999999V0203601N001012200019N0040001N1+02431+02271101071ADDAA199000091GF101991011011008001001001KA1240M+03121MA1999999097691MD1999999-0061REMSYN088AAXX  10004 82583 32596 13602 10243 20227 39769 40107 81100 333 10312 29083 55046 59006;EQDQ01  00002PRCP99
0186825830999992001051012004-05170-040670FM-12+029999999V0203601N002110120019N0500001N1+03611+02231101211ADDAA199000091GF108991081081008001999999KA1240N+02271MA1999999097831MD1999999+0001REMSYN076AAXX  10124 82583 32599 83604 10361 20223 39783 40121 888// 333 20227 58000;EQDQ01  00002PRCP99
0182825830999992001051018004-05170-040670FM-12+029999999V0203201N002110450019N0500001N1+02631+02391100901ADDAA106001091AY161061AY251061GF108991041021008001021001MA1999999097541MD1999999+0071MW1171REMSYN082AAXX  10184 82583 21599 83204 10263 20239 39754 40090 71765 84220 333 58007 60011;
0198825830999992001051100004-05170-040670FM-12+029999999V0203201N002112200019N0040001N1+02431+02301101191ADDAA199000091GF104991041021008001001001KA1240M+02901MA1999999097811MD1999999+0121REMSYN088AAXX  11004 82583 32596 43204 10243 20230 39781 40119 84200 333 10290 29087 55015 58012;EQDQ01  00002PRCP99
0173825830999992001051112004-05170-040670FM-12+029999999V0200901N000510120019N0500001N1+02471+02231101291ADDAA124001091GF108991081081008001999999KA1240N+02231MA1999999097891MD1999999+0061REMSYN082AAXX  11124 82583 22599 80901 10247 20223 39789 40129 888// 333 20223 58006 60014;
0167825830999992001051118004-05170-040670FM-12+029999999V0200901N001510450019N0500001N1+02961+02261101001ADDAA199000091GF106991041021008001021001MA1999999097631MD1999999+0091REMSYN070AAXX  11184 82583 32599 60903 10296 20226 39763 40100 84220 333 58009;EQDQ01  00002PRCP99
0208825830999992001051200004-05170-040670FM-12+029999999V0200501N002112200019N0040001N1+02481+02091101281ADDAA199000091GA1001+999999999GF100991001001999999001001KA1240M+03101MA1999999097891MD1999999+0081REMSYN082AAXX  12004 82583 32996 00504 10248 20209 39789 40128 333 10310 29078 55026 58008;EQDQ01  00002PRCP99
0186825830999992001051212004-05170-040670FM-12+029999999V0200901N003110075019N0500001N1+02701+02221101431ADDAA199000091GF106991051021008001001011KA1240N+02081MA1999999098051MD1999999+0161REMSYN076AAXX  12124 82583 32599 60906 10270 20222 39805 40143 85201 333 20208 58016;EQDQ01  00002PRCP99
0167825830999992001051218004-05170-040670FM-12+029999999V0200901N003612200019N0500001N1+03111+02021101061ADDAA199000091GF105991041021008001001011MA1999999097691MD1999999+0061REMSYN070AAXX  12184 82583 32599 50907 10311 20202 39769 40106 84201 333 58006;EQDQ01  00002PRCP99
0208825830999992001051300004-05170-040670FM-12+029999999V0200901N001512200019N0040001N1+02531+02041101351ADDAA199000091GA1001+999999999GF100991001001999999001001KA1240M+03201MA1999999097971MD1999999+0081REMSYN082AAXX  13004 82583 32996 00903 10253 20204 39797 40135 333 10320 29069 55073 58008;EQDQ01  00002PRCP99
0202825830999992001051312004-05170-040670FM-12+029999999V0200901N005712200019N0500001N1+02771+02121101511ADDAA199000091GF102991999021008001001001KA1240N+02011MA1999999098131MD1999999+0081REMSYN076AAXX  13124 82583 32599 20911 10277 20212 39813 40151 81200 333 20201 58008;EQDQ01+000012SCOTLCQ02  00002PRCP99
0167825830999992001051318004-05170-040670FM-12+029999999V0200901N003612200019N0500001N1+03291+01911101071ADDAA199000091GF102991021011008001001001MA1999999097711MD1999999+0021REMSYN070AAXX  13184 82583 32599 20907 10329 20191 39771 40107 82100 333 58002;EQDQ01  00002PRCP99
0208825830999992001051400004-05170-040670FM-12+029999999V0201801N002112200019N0040001N1+02481+02111101261ADDAA199000091GA1001+999999999GF100991001001999999001001KA1240M+03331MA1999999097891MD1999999-0081REMSYN082AAXX  14004 82583 32996 01804 10248 20211 39789 40126 333 10333 29069 55103 59008;EQDQ01  00002PRCP99
0186825830999992001051412004-05170-040670FM-12+029999999V0200901N004612200019N0500001N1+02761+02091101411ADDAA199000091GF104991041011008001001001KA1240N+02031MA1999999098031MD1999999+0101REMSYN076AAXX  14124 82583 32599 40909 10276 20209 39803 40141 84100 333 20203 58010;EQDQ01  00002PRCP99
0167825830999992001051418004-05170-040670FM-12+029999999V0200901N004612200019N0500001N1+03231+02001100961ADDAA199000091GF103991031011008001001001MA1999999097601MD1999999-0111REMSYN070AAXX  14184 82583 32599 30909 10323 20200 39760 40096 83100 333 59011;EQDQ01  00002PRCP99
0208825830999992001051500004-05170-040670FM-12+029999999V0203601N002112200019N0040001N1+02521+01961101151ADDAA199000091GA1001+999999999GF100991001001999999001001KA1240M+03241MA1999999097791MD1999999-0101REMSYN082AAXX  15004 82583 32996 03604 10252 20196 39779 40115 333 10324 29064 55103 59010;EQDQ01  00002PRCP99
0208825830999992001051600004-05170-040670FM-12+029999999V0202701N002112200019N0040001N1+02481+01841101121ADDAA199000091GA1001+999999999GF100991001001999999001001KA1240M+03231MA1999999097751MD1999999-0041REMSYN082AAXX  16004 82583 32996 02704 10248 20184 39775 40112 333 10323 29063 55098 59004;EQDQ01  00002PRCP99
0186825830999992001051612004-05170-040670FM-12+029999999V0200901N003112200019N0500001N1+02681+02091101301ADDAA199000091GF103991031011008001001001KA1240N+01931MA1999999097921MD1999999+0001REMSYN076AAXX  16124 82583 32599 30906 10268 20209 39792 40130 83100 333 20193 58000;EQDQ01  00002PRCP99
0208825830999992001051700004-05170-040670FM-12+029999999V0209999C000012200019N0040001N1+02431+01861101291ADDAA199000091GA1001+999999999GF100991001001999999001001KA1240M+03311MA1999999097911MD1999999+0161REMSYN082AAXX  17004 82583 32996 00900 10243 20186 39791 40129 333 10331 29063 55099 58016;EQDQ01  00002PRCP99
0186825830999992001051712004-05170-040670FM-12+029999999V0201401N001512200019N0500001N1+02611+02011101431ADDAA199000091GF101991011011008001001001KA1240N+01831MA1999999098041MD1999999+0121REMSYN076AAXX  17124 82583 32599 11403 10261 20201 39804 40143 81100 333 20183 58012;EQDQ01  00002PRCP99
0167825830999992001051718004-05170-040670FM-12+029999999V0201401N002612200019N0500001N1+03381+01981101341ADDAA199000091GF103991031011008001001001MA1999999097711MD1999999+0121REMSYN070AAXX  17184 82583 32599 31405 10338 20198 39771 40134 83100 333 58012;EQDQ01  00002PRCP99
0198825830999992001051800004-05170-040670FM-12+029999999V0202701N001012200019N0040001N1+02631+02071101451ADDAA199000091GF102991021011008001001001KA1240M+03461MA1999999098071MD1999999+0161REMSYN088AAXX  18004 82583 32596 22702 10263 20207 39807 40145 82100 333 10346 29064 55097 58016;EQDQ01  00002PRCP99
0186825830999992001051812004-05170-040670FM-12+029999999V0200901N003112200019N0500001N1+02751+02091101501ADDAA199000091GF101991011011008001001001KA1240N+02031MA1999999098131MD1999999+0091REMSYN076AAXX  18124 82583 32599 10906 10275 20209 39813 40150 81100 333 20203 58009;EQDQ01  00002PRCP99
0167825830999992001051818004-05170-040670FM-12+029999999V0200901N003112200019N0500001N1+03331+02051101091ADDAA199000091GF102991011021008001001011MA1999999097731MD1999999+0021REMSYN070AAXX  18184 82583 32599 20906 10333 20205 39773 40109 81201 333 58002;EQDQ01  00002PRCP99
0224825830999992001051900004-05170-040670FM-12+029999999V0203601N002112200019N0040001N1+02651+02201101952ADDAA199000091GA1001+999999999GF100991001001999999001001KA1240M+03391MA1999999097981MD1999999-0091REMSYN082AAXX  19004 82583 32996 03604 10265 20220 39798 40195 333 10339 29067 55096 59009;EQDQ01+101953APOSLPQ02  00002PRCP99
0186825830999992001051912004-05170-040670FM-12+029999999V0200501N000510075019N0500001N1+02521+02071101491ADDAA199000091GF108991081051008001999999KA1240N+02251MA1999999097111MD1999999-0021REMSYN076AAXX  19124 82583 32599 80501 10252 20207 39711 40149 885// 333 20225 59002;EQDQ01  00002PRCP99
0167825830999992001051918004-05170-040670FM-12+029999999V0203201N002612200019N0500001N1+03101+02151101091ADDAA199000091GF101991011011008001001001MA1999999097731MD1999999+0001REMSYN070AAXX  19184 82583 32599 13205 10310 20215 39773 40109 81100 333 58000;EQDQ01  00002PRCP99
0208825830999992001052000004-05170-040670FM-12+029999999V0203201N000512200019N0040001N1+02581+02151101281ADDAA199000091GA1001+999999999GF100991001001999999001001KA1240M+03401MA1999999097901MD1999999-0081REMSYN082AAXX  20004 82583 32996 03201 10258 20215 39790 40128 333 10340 29072 55061 59008;EQDQ01  00002PRCP99
0186825830999992001052012004-05170-040670FM-12+029999999V0200901N002610075019N0500001N1+02511+02191101411ADDAA199000091GF106991061021008001001001KA1240N+02141MA1999999098021MD1999999-0091REMSYN076AAXX  20124 82583 32599 60905 10251 20219 39802 40141 86200 333 20214 59009;EQDQ01  00002PRCP99
0167825830999992001052018004-05170-040670FM-12+029999999V0200501N002110075019N0500001N1+03051+02171101021ADDAA199000091GF106991061021008001001001MA1999999097661MD1999999-0071REMSYN070AAXX  20184 82583 32599 60504 10305 20217 39766 40102 86200 333 59007;EQDQ01  00002PRCP99
0208825830999992001052100004-05170-040670FM-12+029999999V0202701N000512200019N0040001N1+02421+02211101251ADDAA199000091GA1001+999999999GF100991001001999999001001KA1240M+03111MA1999999097861MD1999999+0041REMSYN082AAXX  21004 82583 32996 02701 10242 20221 39786 40125 333 10311 29079 55038 58004;EQDQ01  00002PRCP99
0201825830999992001052112004-05170-040670FM-12+029999999V0200901N001510120019N0500001N1+02561+02211101391ADDAA124000891AY161061AY261061GF107991071081008001001001KA1240N+02191MA1999999097971MD1999999-0051MW1031REMSYN088AAXX  21124 82583 21599 70903 10256 20221 39797 40139 70366 87800 333 20219 59005 69974;
0182825830999992001052118004-05170-040670FM-12+029999999V0201801N002110075019N0500001N1+03171+02041100921ADDAA106001091AY161061AY261061GF106991061021008001001001MA1999999097561MD1999999-0101MW1021REMSYN082AAXX  21184 82583 21599 61804 10317 20204 39756 40092 70266 86200 333 59010 60011;
0213825830999992001052200004-05170-040670FM-12+029999999V0203201N002110075019N0040001N1+02521+02191101191ADDAA106000191AY161061AY261061GF106991061021008001001001KA1240M+03271MA1999999097811MD1999999-0051MW1021REMSYN100AAXX  22004 82583 21596 63204 10252 20219 39781 40119 70266 86200 333 10327 29074 55037 59005 69911;
0173825830999992001052212004-05170-040670FM-12+029999999V0200501N002110075019N0500001N1+02631+02231101321ADDAA124001091GF106991061021008001001001KA1240N+02081MA1999999097941MD1999999-0031REMSYN082AAXX  22124 82583 22599 60504 10263 20223 39794 40132 86200 333 20208 59003 60014;
0167825830999992001052218004-05170-040670FM-12+029999999V0202301N002612200019N0500001N1+03181+01691100941ADDAA199000091GF103991021021008001001011MA1999999097571MD1999999+0011REMSYN070AAXX  22184 82583 32599 32305 10318 20169 39757 40094 82201 333 58001;EQDQ01  00002PRCP99
0208825830999992001052300004-05170-040670FM-12+029999999V0209999C000012200019N0040001N1+02541+02131101171ADDAA199000091GA1001+999999999GF100991001001999999001001KA1240M+03311MA1999999097801MD1999999-0011REMSYN082AAXX  23000 82583 32996 03600 10254 20213 39780 40117 333 10331 29070 55069 59001;EQDQ01  00002PRCP99
0186825830999992001052312004-05170-040670FM-12+029999999V0200901N001512200019N0500001N1+02701+02111101341ADDAA199000091GF102991011011008001001011KA1240N+02061MA1999999097901MD1999999+0021REMSYN076AAXX  23124 82583 32599 20903 10270 20211 39790 40134 81101 333 20206 58002;EQDQ01  00002PRCP99
0167825830999992001052318004-05170-040670FM-12+029999999V0201401N002112200019N0500001N1+03301+01801100891ADDAA199000091GF104991041021008001001001MA1999999097541MD1999999-0031REMSYN070AAXX  23184 82583 32599 41404 10330 20180 39754 40089 84200 333 59003;EQDQ01  00002PRCP99
0213825830999992001052400004-05170-040670FM-12+029999999V0203201N002110075019N0040001N1+02701+01781101181ADDAA106000191AY191061AY261061GF105991051021008001001001KA1240M+03391MA1999999097821MD1999999+0021MW1021REMSYN100AAXX  24004 82583 21596 53204 10270 20178 39782 40118 70296 85200 333 10339 29061 55090 58002 69911;
0173825830999992001052412004-05170-040670FM-12+029999999V0200901N004610075019N0500001N1+02821+02101101451ADDAA124000191GF106991061021008001001001KA1240N+02291MA1999999098091MD1999999+0131REMSYN082AAXX  24124 82583 22599 60909 10282 20210 39809 40145 86200 333 20229 58013 69914;
0167825830999992001052418004-05170-040670FM-12+029999999V0200901N003110075019N0500001N1+03121+01951101071ADDAA199000091GF107991071021008001001001MA1999999097711MD1999999+0171REMSYN070AAXX  24184 82583 32599 70906 10312 20195 39771 40107 87200 333 58017;EQDQ01  00002PRCP99
0198825830999992001052500004-05170-040670FM-12+029999999V0203201N001512200019N0040001N1+02511+02111101271ADDAA199000091GF102991021011008001001001KA1240M+03201MA1999999097901MD1999999+0081REMSYN088AAXX  25004 82583 32596 23203 10251 20211 39790 40127 82100 333 10320 29068 55063 58008;EQDQ01  00002PRCP99
0186825830999992001052512004-05170-040670FM-12+029999999V0200901N003110120019N0500001N1+02591+02081101451ADDAA199000091GF107991071081008001001001KA1240N+02061MA1999999098061MD1999999-0031REMSYN076AAXX  25124 82583 32599 70906 10259 20208 39806 40145 87800 333 20206 59003;EQDQ01  00002PRCP99
0167825830999992001052518004-05170-040670FM-12+029999999V0200501N003610075019N0500001N1+03211+01771101061ADDAA199000091GF106991061021008001001001MA1999999097701MD1999999-0011REMSYN070AAXX  25184 82583 32599 60507 10321 20177 39770 40106 86200 333 59001;EQDQ01  00002PRCP99
0208825830999992001052600004-05170-040670FM-12+029999999V0203201N001512200019N0040001N1+02471+02071101361ADDAA199000091GA1001+999999999GF100991001001999999001001KA1240M+03271MA1999999097971MD1999999+0071REMSYN082AAXX  26004 82583 32996 03203 10247 20207 39797 40136 333 10327 29086 55052 58007;EQDQ01  00002PRCP99
0186825830999992001052612004-05170-040670FM-12+029999999V0201401N001519999999N0500001N1+02521+02131101381ADDAA199000091GF108991081999008001999999KA1240N+02181MA1999999097991MD1999999-0071REMSYN076AAXX  26124 82583 32599 81403 10252 20213 39799 40138 88/// 333 20218 59007;EQDQ01  00002PRCP99
0167825830999992001052618004-05170-040670FM-12+029999999V0200901N003612200019N0500001N1+03211+01801100901ADDAA199000091GF103991031021008001001001MA1999999097541MD1999999-0161REMSYN070AAXX  26184 82583 32599 30907 10321 20180 39754 40090 83200 333 59016;EQDQ01  00002PRCP99
0195825830999992001052700004-05170-040670FM-12+029999999V0203201N001512200019N0040001N1+02511+01931101221ADDAA199000091GA1001+999999999GF100991001001999999001001MA1999999097841MD1999999-0131REMSYN082AAXX  27004 82583 32996 03203 10251 20193 39784 40122 333 13333 29066 55063 59013;EQDQ01  00002PRCP99
0186825830999992001052712004-05170-040670FM-12+029999999V0200901N002610075019N0020001N1+02621+02161101431ADDAA199000091GF106991061021008001001001KA1240N+01851MA1999999098051MD1999999+0061REMSYN076AAXX  27124 82583 32595 60905 10262 20216 39805 40143 86200 333 20185 58006;EQDQ01  00002PRCP99
0167825830999992001052718004-05170-040670FM-12+029999999V0200901N000512200019N0500001N1+03251+01721101351ADDAA199000091GF104991041011008001001001MA1999999097581MD1999999+0041REMSYN070AAXX  27184 82583 32599 40901 10325 20172 39758 40135 84100 333 58004;EQDQ01  00002PRCP99
0198825830999992001052800004-05170-040670FM-12+029999999V0200501N000512200019N0040001N1+02651+02111101271ADDAA199000091GF102991021011008001001001KA1240M+03441MA1999999097891MD1999999-0041REMSYN088AAXX  28004 82583 32596 20501 10265 20211 39789 40127 82100 333 10344 29065 55057 59004;EQDQ01  00002PRCP99
0186825830999992001052812004-05170-040670FM-12+029999999V0200901N004610075019N0500001N1+02691+02131101471ADDAA199000091GF106991061021008001001001KA1240N+02251MA1999999098091MD1999999+0041REMSYN076AAXX  28124 82583 32599 60909 10269 20213 39809 40147 86200 333 20225 58004;EQDQ01  00002PRCP99
0167825830999992001052818004-05170-040670FM-12+029999999V0200901N003612200019N0500001N1+03311+01781101011ADDAA199000091GF104991031021008001001011MA1999999097661MD1999999+0081REMSYN070AAXX  28184 82583 32599 40907 10331 20178 39766 40101 83201 333 58008;EQDQ01  00002PRCP99
0208825830999992001052900004-05170-040670FM-12+029999999V0203201N000512200019N0040001N1+02671+01991101251ADDAA199000091GA1001+999999999GF100991001001999999001001KA1240M+03411MA1999999097891MD1999999+0001REMSYN082AAXX  29004 82583 32996 03201 10267 20199 39789 40125 333 10341 29061 55077 58000;EQDQ01  00002PRCP99
0186825830999992001052912004-05170-040670FM-12+029999999V0200901N004112200019N0500001N1+02861+02031101451ADDAA199000091GF102991021021008001001001KA1240N+02111MA1999999098091MD1999999+0001REMSYN076AAXX  29124 82583 32599 20908 10286 20203 39809 40145 82200 333 20211 58000;EQDQ01  00002PRCP99
0167825830999992001052918004-05170-040670FM-12+029999999V0200901N002612200019N0500001N1+03451+01901101041ADDAA199000091GF104991031021008001001011MA1999999097691MD1999999+0031REMSYN070AAXX  29184 82583 32599 40905 10345 20190 39769 40104 83201 333 58003;EQDQ01  00002PRCP99
0208825830999992001053000004-05170-040670FM-12+029999999V0202701N001012200019N0040001N1+02591+01961101331ADDAA199000091GA1001+999999999GF100991001001999999001001KA1240M+03481MA1999999097951MD1999999+0061REMSYN082AAXX  30004 82583 32996 02702 10259 20196 39795 40133 333 10348 29059 55969 58006;EQDQ01  00002PRCP99
0167825830999992001053018004-05170-040670FM-12+029999999V0200901N004112200019N0500001N1+03261+01881101041ADDAA199000091GF103991031021008001001001MA1999999097681MD1999999-0011REMSYN070AAXX  30184 82583 32599 30908 10326 20188 39768 40104 83200 333 59001;EQDQ01  00002PRCP99
0208825830999992001053100004-05170-040670FM-12+029999999V0200501N000512200019N0040001N1+02651+01871101211ADDAA199000091GA1001+999999999GF100991001001999999001001KA1240M+03431MA1999999097851MD1999999-0101REMSYN082AAXX  31004 82583 32996 00501 10265 20187 39785 40121 333 10343 29058 55094 59010;EQDQ01  00002PRCP99
0186825830999992001053112004-05170-040670FM-12+029999999V0201401N001510120019N0500001N1+02531+02091101411ADDAA199000091GF108991081081008001999999KA1240N+02171MA1999999098021MD1999999-0081REMSYN076AAXX  31124 82583 32599 81403 10253 20209 39802 40141 888// 333 20217 59008;EQDQ01  00002PRCP99
0167825830999992001053118004-05170-040670FM-12+029999999V0200901N002110075019N0500001N1+03311+01891100941ADDAA199000091GF106991051021008001001011MA1999999097591MD1999999-0091REMSYN070AAXX  31184 82583 32599 60904 10331 20189 39759 40094 85201 333 59009;EQDQ01  00002PRCP99
0213825830999992001060100004-05170-040670FM-12+029999999V0203601N002110075019N0040001N1+02331+02321101281ADDAA106003091AY161061AY261061GF106991061021008001001001KA1240M+03341MA1999999097881MD1999999+0031MW1131REMSYN100AAXX  01004 82583 21596 63604 10233 20232 39788 40128 71366 86200 333 10334 29079 55057 58003 60031;
0201825830999992001060112004-05170-040670FM-12+029999999V0200501N002611050019N0500001N1+02531+02171101361ADDAA124003091AY151061AY251061GF106991041051008001001021KA1240N+02091MA1999999097961MD1999999-0061MW1031REMSYN088AAXX  01124 82583 21599 60505 10253 20217 39796 40136 70355 84502 333 20209 59006 60034;
0167825830999992001060118004-05170-040670FM-12+029999999V0200901N003610075019N0500001N1+03131+01941100961ADDAA199000091GF106991051021008001001011MA1999999097601MD1999999+0011REMSYN070AAXX  01184 82583 32599 60907 10313 20194 39760 40096 85201 333 58001;EQDQ01  00002PRCP99
0198825830999992001060200004-05170-040670FM-12+029999999V0201801N001010075019N0040001N1+02501+02171101281ADDAA199000091GF106991061021008001001001KA1240M+03231MA1999999097891MD1999999+0011REMSYN088AAXX  02004 82583 32596 61802 10250 20217 39789 40128 86200 333 10323 29073 55054 58001;EQDQ01  00002PRCP99
0201825830999992001060212004-05170-040670FM-12+029999999V0200901N003610075019N0040001N1+02271+02231101441ADDAA124019191AY191061AY261061GF108991081051008001999999KA1240N+02171MA1999999098041MD1999999+0081MW1511REMSYN088AAXX  02124 82583 21596 80907 10227 20223 39804 40144 75196 885// 333 20217 58008 60194;
0201825830999992001060218004-05170-040670FM-12+029999999V0201401N002612200019N0020001N1+03131+01971101021ADDAA106000391AY161061AY261061GF104991999021008001001001MA1999999097661MD1999999+0061MW1021REMSYN082AAXX  02184 82583 21595 41405 10313 20197 39766 40102 70266 83200 333 58006 69931;EQDQ01+000032SCOTLC
0179825830999992001060300004-05170-040670FM-12+029999999V0200901N001510075019N0040001N1+02481+02031101611ADDAA199000021GF106991061021008001001001KA1240M+03141MA1999999097911MD1999999+0021REMSYN088AAXX  03004 82583 32596 60903 10248 20203 39791 40161 86200 333 10314 29070 55036 58002;
0186825830999992001060312004-05170-040670FM-12+029999999V0200901N003112200019N0500001N1+02701+02171101441ADDAA199000091GF103991031011008001001001KA1240N+02141MA1999999098061MD1999999+0021REMSYN076AAXX  03124 82583 32599 30906 10270 20217 39806 40144 83100 333 20214 58002;EQDQ01  00002PRCP99
0167825830999992001060318004-05170-040670FM-12+029999999V0200901N003612200019N0500001N1+03271+01581101051ADDAA199000091GF101991011011008001001001MA1999999097691MD1999999+0031REMSYN070AAXX  03184 82583 32599 10907 10327 20158 39769 40105 81100 333 58003;EQDQ01  00002PRCP99
0198825830999992001060400004-05170-040670FM-12+029999999V0201801N001512200019N0040001N1+02451+01921101281ADDAA199000091GF103991031011008001001001KA1240M+03281MA1999999097901MD1999999-0011REMSYN088AAXX  04004 82583 32596 31803 10245 20192 39790 40128 83100 333 10328 29063 55095 59001;EQDQ01  00002PRCP99
0201825830999992001060412004-05170-040670FM-12+029999999V0201401N001510450019N0500001N1+02411+02171101531ADDAA124005191AY161061AY261061GF106991031051008001041001KA1240N+02131MA1999999098131MD1999999+0081MW1211REMSYN088AAXX  04124 82583 21599 61403 10241 20217 39813 40153 72166 83540 333 20213 58008 60054;
0148825830999992001060418004-05170-040670FM-12+029999999V0200901N002612200019N0500001N1+03131+01941101091ADDAA199000021GF103991021011008001001011MA1999999097721MD1999999+0031REMSYN070AAXX  04184 82583 32599 30905 10313 20194 39772 40109 82101 333 58003;
0179825830999992001060500004-05170-040670FM-12+029999999V0200501N001012200019N0040001N1+02411+01991101411ADDAA199000021GF101991011011008001001001KA1240M+03171MA1999999098011MD1999999+0111REMSYN088AAXX  05004 82583 32596 10502 10241 20199 39801 40141 81100 333 10317 29072 55076 58011;
0186825830999992001060512004-05170-040670FM-12+029999999V0200901N002112200019N0500001N1+02641+02161101491ADDAA199000091GF103991021011008001001011KA1240N+02091MA1999999098101MD1999999-0031REMSYN076AAXX  05124 82583 32599 30904 10264 20216 39810 40149 82101 333 20209 59003;EQDQ01  00002PRCP99
0182825830999992001060518004-05170-040670FM-12+029999999V0200901N003110120019N0500001N1+02941+02001101191ADDAA106000191AY161061AY261061GF106991061081008001001001MA1999999097811MD1999999+0091MW1031REMSYN082AAXX  05184 82583 21599 60906 10294 20200 39781 40119 70366 86800 333 58009 69921;
0198825830999992001060600004-05170-040670FM-12+029999999V0203201N000512200019N0040001N1+02431+02171101411ADDAA199000091GF102991021011008001001001KA1240M+03021MA1999999098031MD1999999+0021REMSYN088AAXX  06004 82583 32596 23201 10243 20217 39803 40141 82100 333 10302 29076 55055 58002;EQDQ01  00002PRCP99
0173825830999992001060612004-05170-040670FM-12+029999999V0200901N004110075019N0500001N1+02621+01981101501ADDAA124000191GF106991061021008001001001KA1240N+02181MA1999999098111MD1999999+0011REMSYN082AAXX  06124 82583 22599 60908 10262 20198 39811 40150 86200 333 20218 58001 69924;
0167825830999992001060618004-05170-040670FM-12+029999999V0201401N002110075019N0500001N1+03131+01911101111ADDAA199000091GF106991061021008001001001MA1999999097751MD1999999-0061REMSYN070AAXX  06184 82583 32599 61404 10313 20191 39775 40111 86200 333 59006;EQDQ01  00002PRCP99
0198825830999992001060700004-05170-040670FM-12+029999999V0200501N001012200019N0040001N1+02561+02111101411ADDAA199000091GF102991021011008001001001KA1240M+03171MA1999999098031MD1999999+0001REMSYN088AAXX  07004 82583 32596 20502 10256 20211 39803 40141 82100 333 10317 29067 55083 58000;EQDQ01  00002PRCP99
0186825830999992001060712004-05170-040670FM-12+029999999V0201401N001010075019N0500001N1+02511+02131101481ADDAA199000091GF106991061021008001001001KA1240N+02181MA1999999098091MD1999999-0021REMSYN076AAXX  07124 82583 32599 61402 10251 20213 39809 40148 86200 333 20218 59002;EQDQ01  00002PRCP99
0198825830999992001060800004-05170-040670FM-12+029999999V0203201N000510075019N0040001N1+02581+02151101421ADDAA199000091GF105991051021008001001001KA1240M+03151MA1999999098041MD1999999+0011REMSYN088AAXX  08004 82583 32596 53201 10258 20215 39804 40142 85200 333 10315 29070 55063 58001;EQDQ01  00002PRCP99
0201825830999992001060812004-05170-040670FM-12+029999999V0200901N002610075019N0500001N1+02311+02111101611ADDAA124010991AY161061AY261061GF108991081051008001999999KA1240N+02111MA1999999098211MD1999999+0121MW1031REMSYN088AAXX  08124 82583 21599 80905 10231 20211 39821 40161 70366 885// 333 20211 58012 60114;
0167825830999992001060818004-05170-040670FM-12+029999999V0200901N003610075019N0500001N1+02971+01921101191ADDAA199000091GF106991051021008001001011MA1999999097831MD1999999+0111REMSYN070AAXX  08184 82583 32599 60907 10297 20192 39783 40119 85201 333 58011;EQDQ01  00002PRCP99
0198825830999992001060900004-05170-040670FM-12+029999999V0200501N001512200019N0040001N1+02371+02031101481ADDAA199000091GF101991011011008001001001KA1240M+03091MA1999999098061MD1999999+0021REMSYN088AAXX  09004 82583 32596 10503 10237 20203 39806 40148 81100 333 10309 29076 55043 58002;EQDQ01  00002PRCP99
0186825830999992001060912004-05170-040670FM-12+029999999V0200901N000510120019N0500001N1+02481+02131101551ADDAA199000091GF106991061081008001001001KA1240N+02071MA1999999098151MD1999999-0061REMSYN076AAXX  09124 82583 32599 60901 10248 20213 39815 40155 86800 333 20207 59006;EQDQ01  00002PRCP99
0167825830999992001060918004-05170-040670FM-12+029999999V0201401N003610075019N0500001N1+03031+01821101231ADDAA199000091GF106991061021008001001001MA1999999097851MD1999999+0021REMSYN070AAXX  09184 82583 32599 61407 10303 20182 39785 40123 86200 333 58002;EQDQ01  00002PRCP99
0198825830999992001061000004-05170-040670FM-12+029999999V0200901N001512200019N0040001N1+02511+02131101411ADDAA199000091GF104991041011008001001001KA1240M+03171MA1999999098021MD1999999-0041REMSYN088AAXX  10004 82583 32596 40903 10251 20213 39802 40141 84100 333 10317 29072 55062 59004;EQDQ01  00002PRCP99
0186825830999992001061012004-05170-040670FM-12+029999999V0200901N001510075019N0500001N1+02551+02111101601ADDAA199000091GF105991051021008001001001KA1240N+01991MA1999999098201MD1999999+0051REMSYN076AAXX  10124 82583 32599 50903 10255 20211 39820 40160 85200 333 20199 58005;EQDQ01  00002PRCP99
0167825830999992001061018004-05170-040670FM-12+029999999V0201401N000512200019N0020001N1+03181+01731101201ADDAA199000091GF102991021011008001001001MA1999999097841MD1999999-0011REMSYN070AAXX  10184 82583 32595 21401 10318 20173 39784 40120 82100 333 59001;EQDQ01  00002PRCP99
0208825830999992001061100004-05170-040670FM-12+029999999V0200901N000512200019N0020001N1+02541+01761101351ADDAA199000091GA1001+999999999GF100991001001999999001001KA1240M+03221MA1999999097971MD1999999-0051REMSYN082AAXX  11004 82583 32595 00901 10254 20176 39797 40135 333 10322 29061 55094 59005;EQDQ01  00002PRCP99
0186825830999992001061112004-05170-040670FM-12+029999999V0201401N004612200019N0500001N1+02561+01971101401ADDAA199000091GF102991021011008001001001KA1240N+02141MA1999999098021MD1999999-0181REMSYN076AAXX  11124 82583 32599 21409 10256 20197 39802 40140 82100 333 20214 59018;EQDQ01  00002PRCP99
0167825830999992001061118004-05170-040670FM-12+029999999V0201401N002610120019N0500001N1+02951+01841101151ADDAA199000091GF106991061081008001001001MA1999999097791MD1999999-0051REMSYN070AAXX  11184 82583 32599 61405 10295 20184 39779 40115 86800 333 59005;EQDQ01  00002PRCP99
0198825830999992001061200004-05170-040670FM-12+029999999V0201801N002112200019N0040001N1+02421+02071101691ADDAA199000091GF101991011011008001001001KA1240M+03121MA1999999098001MD1999999+0031REMSYN088AAXX  12004 82583 32596 11804 10242 20207 39800 40169 81100 333 10312 29071 55062 58003;EQDQ01  00002PRCP99
0186825830999992001061212004-05170-040670FM-12+029999999V0201401N005112200019N0500001N1+02571+01901101411ADDAA199000091GF102991011011008001001011KA1240N+02041MA1999999098021MD1999999+0001REMSYN076AAXX  12124 82583 32599 21410 10257 20190 39802 40141 81101 333 20204 58000;EQDQ01  00002PRCP99
0167825830999992001061218004-05170-040670FM-12+029999999V0200901N004612200019N0500001N1+03041+01971101101ADDAA199000091GF102991021011008001001001MA1999999097731MD1999999-0061REMSYN070AAXX  12184 82583 32599 20909 10304 20197 39773 40110 82100 333 59006;EQDQ01  00002PRCP99
0208825830999992001061300004-05170-040670FM-12+029999999V0201801N002112200019N0040001N1+02371+01831101361ADDAA199000091GA1001+999999999GF100991001001999999001001KA1240M+03031MA1999999097971MD1999999-0031REMSYN082AAXX  13004 82583 32996 01804 10237 20183 39797 40136 333 10303 29066 55101 59003;EQDQ01  00002PRCP99
0186825830999992001061312004-05170-040670FM-12+029999999V0201401N005112200019N0500001N1+02581+01941101461ADDAA199000091GF103991021011008001001011KA1240N+01971MA1999999098061MD1999999+0041REMSYN076AAXX  13124 82583 32599 31410 10258 20194 39806 40146 82101 333 20197 58004;EQDQ01  00002PRCP99
0167825830999992001061318004-05170-040670FM-12+029999999V0200901N004610075019N0500001N1+02971+01981101111ADDAA199000091GF106991051021008001001011MA1999999097731MD1999999+0001REMSYN070AAXX  13184 82583 32599 60909 10297 20198 39773 40111 85201 333 58000;EQDQ01  00002PRCP99
0198825830999992001061400004-05170-040670FM-12+029999999V0200901N001010075019N0040001N1+02591+02031101371ADDAA199000091GF106991061021008001001001KA1240M+03111MA1999999097991MD1999999+0021REMSYN088AAXX  14004 82583 32596 60902 10259 20203 39799 40137 86200 333 10311 29066 55071 58002;EQDQ01  00002PRCP99
0186825830999992001061412004-05170-040670FM-12+029999999V0201401N004612200019N0500001N1+02661+02091101381ADDAA199000091GF101991011011008001001001KA1240N+02151MA1999999098001MD1999999-0061REMSYN076AAXX  14124 82583 32599 11409 10266 20209 39800 40138 81100 333 20215 59006;EQDQ01  00002PRCP99
0167825830999992001061418004-05170-040670FM-12+029999999V0201401N003610075019N0500001N1+03051+02191100981ADDAA199000091GF106991061021008001001001MA1999999097621MD1999999-0111REMSYN070AAXX  14184 82583 32599 61407 10305 20219 39762 40098 86200 333 59011;EQDQ01  00002PRCP99
0208825830999992001061500004-05170-040670FM-12+029999999V0200901N002112200019N0040001N1+02571+02061101301ADDAA199000091GA1001+999999999GF100991001001999999001001KA1240M+03201MA1999999097921MD1999999-0071REMSYN082AAXX  15004 82583 32996 00904 10257 20206 39792 40130 333 10320 29068 55081 59007;EQDQ01  00002PRCP99
0186825830999992001061512004-05170-040670FM-12+029999999V0201401N004612200019N0500001N1+02611+02031101371ADDAA199000091GF102991011011008001001011KA1240N+01931MA1999999097991MD1999999-0011REMSYN076AAXX  15124 82583 32599 21409 10261 20203 39799 40137 81101 333 20193 59001;EQDQ01  00002PRCP99
0167825830999992001061518004-05170-040670FM-12+029999999V0200901N004612200019N0500001N1+03181+01801100961ADDAA199000091GF103991011011008001031001MA1999999097601MD1999999-0021REMSYN070AAXX  15184 82583 32599 30909 10318 20180 39760 40096 81130 333 59002;EQDQ01  00002PRCP99
0208825830999992001061600004-05170-040670FM-12+029999999V0200901N001012200019N0040001N1+02501+01721101241ADDAA199000091GA1001+999999999GF100991001001999999001001KA1240M+03221MA1999999097861MD1999999-0061REMSYN082AAXX  16004 82583 32996 00902 10250 20172 39786 40124 333 10322 29060 55083 59006;EQDQ01  00002PRCP99
0186825830999992001061612004-05170-040670FM-12+029999999V0201401N002112200019N0500001N1+02501+02031101461ADDAA199000091GF102991021021008001001001KA1240N+01861MA1999999098061MD1999999+0071REMSYN076AAXX  16124 82583 32599 21404 10250 20203 39806 40146 82200 333 20186 58007;EQDQ01  00002PRCP99
0167825830999992001061618004-05170-040670FM-12+029999999V0201401N003112200019N0500001N1+03151+01601101001ADDAA199000091GF102991021011008001001001MA1999999097401MD1999999+0041REMSYN070AAXX  16184 82583 32599 21406 10315 20160 39740 40100 82100 333 58004;EQDQ01  00002PRCP99
0208825830999992001061700004-05170-040670FM-12+029999999V0200901N001012200019N0040001N1+02481+01651101261ADDAA199000091GA1001+999999999GF100991001001999999001001KA1240M+03221MA1999999097871MD1999999+0011REMSYN082AAXX  17004 82583 32996 00902 10248 20165 39787 40126 333 10322 29059 55102 58001;EQDQ01  00002PRCP99
0186825830999992001061712004-05170-040670FM-12+029999999V0200901N002612200019N0500001N1+02651+02021101451ADDAA199000091GF103991031011008001001001KA1240N+02161MA1999999098071MD1999999+0011REMSYN076AAXX  17124 82583 32599 30905 10265 20202 39807 40145 83100 333 20216 58001;EQDQ01  00002PRCP99
0208825830999992001061800004-05170-040670FM-12+029999999V0200901N001012200019N0040001N1+02601+01821101251ADDAA199000091GA1001+999999999GF100991001001999999001001KA1240M+03311MA1999999097881MD1999999+0011REMSYN082AAXX  18004 82583 32996 00902 10260 20182 39788 40125 333 10331 29058 55094 58001;EQDQ01  00002PRCP99
0186825830999992001061812004-05170-040670FM-12+029999999V0200901N003610075019N0500001N1+02631+02141101371ADDAA199000091GF106991061021008001001001KA1240N+02031MA1999999097991MD1999999-0081REMSYN076AAXX  18124 82583 32599 60907 10263 20214 39799 40137 86200 333 20203 59008;EQDQ01  00002PRCP99
0167825830999992001061818004-05170-040670FM-12+029999999V0201401N002112200019N0500001N1+03171+01841100941ADDAA199000091GF103991031011008001001001MA1999999097581MD1999999-0151REMSYN070AAXX  18184 82583 32599 31404 10317 20184 39758 40094 83100 333 59015;EQDQ01  00002PRCP99
0198825830999992001061900004-05170-040670FM-12+029999999V0201401N000510075019N0040001N1+02791+01921101201ADDAA199000091GF105991051021008001001001KA1240M+03211MA1999999097841MD1999999-0041REMSYN088AAXX  19004 82583 32596 51401 10279 20192 39784 40120 85200 333 10321 29059 55091 59004;EQDQ01  00002PRCP99
0186825830999992001061912004-05170-040670FM-12+029999999V0201401N004612200019N0500001N1+02711+01621101411ADDAA199000091GF101991011011008001001001KA1240N+02201MA1999999098051MD1999999+0061REMSYN076AAXX  19124 82583 32599 11409 10271 20162 39805 40141 81100 333 20220 58006;EQDQ01  00002PRCP99
0167825830999992001061918004-05170-040670FM-12+029999999V0201401N004612200019N0500001N1+03311+01281100931ADDAA199000091GF101991011011008001001001MA1999999097851MD1999999+0011REMSYN070AAXX  19184 82583 32599 11409 10331 20128 39785 40093 81100 333 58001;EQDQ01  00002PRCP99
0198825830999992001062000004-05170-040670FM-12+029999999V0201401N001512200019N0040001N1+02691+01511101241ADDAA199000091GF102991021011008001001001KA1240M+03401MA1999999097881MD1999999+0041REMSYN088AAXX  20004 82583 32596 21403 10269 20151 39788 40124 82100 333 10340 29044 55103 58004;EQDQ01  00002PRCP99
0186825830999992001062012004-05170-040670FM-12+029999999V0201401N004612200019N0500001N1+02791+01561101501ADDAA199000091GF102991021001008001031001KA1240N+02151MA1999999098141MD1999999+0091REMSYN076AAXX  20124 82583 32599 21409 10279 20156 39814 40150 82030 333 20215 58009;EQDQ01  00002PRCP99
0167825830999992001062018004-05170-040670FM-12+029999999V0201401N002110075019N0500001N1+03041+01491101281ADDAA199000091GF108991081051008001999999MA1999999097911MD1999999+0321REMSYN070AAXX  20184 82583 32599 81404 10304 20149 39791 40128 885// 333 58032;EQDQ01  00002PRCP99
0214825830999992001062100004-05170-040670FM-12+029999999V0201801N001012200019N0040001N1+02601+01681101401ADDAA199000091GF103991999011008001001001KA1240M+03151MA1999999098031MD1999999+0151REMSYN088AAXX  21004 82583 32596 31802 10260 20168 39803 40140 82100 333 10315 29050 55032 58015;EQDQ01+000022SCOTLCQ02  00002PRCP99
0202825830999992001062112004-05170-040670FM-12+029999999V0200901N003112200019N0500001N1+02711+01901101581ADDAA199000091GF103991999001017501041001KA1240N+02091MA1999999098201MD1999999+0061REMSYN076AAXX  21124 82583 32799 30906 10271 20190 39820 40158 81040 333 20209 58006;EQDQ01+000012SCOTLCQ02  00002PRCP99
0167825830999992001062118004-05170-040670FM-12+029999999V0200901N002610075019N0500001N1+03261+01881101181ADDAA199000091GF106991051021008001031001MA1999999097821MD1999999-0091REMSYN070AAXX  21184 82583 32599 60905 10326 20188 39782 40118 85230 333 59009;EQDQ01  00002PRCP99
0208825830999992001062200004-05170-040670FM-12+029999999V0200901N001512200019N0040001N1+02651+01741101421ADDAA199000091GA1001+999999999GF100991001001999999001001KA1240M+03271MA1999999098051MD1999999+0021REMSYN082AAXX  22004 82583 32996 00903 10265 20174 39805 40142 333 10327 29055 55071 58002;EQDQ01  00002PRCP99
0186825830999992001062212004-05170-040670FM-12+029999999V0200901N002112200019N0500001N1+02721+02031101581ADDAA199000091GF104991041011008001001001KA1240N+02311MA1999999098201MD1999999+0001REMSYN076AAXX  22124 82583 32599 40904 10272 20203 39820 40158 84100 333 20231 58000;EQDQ01  00002PRCP99
0167825830999992001062218004-05170-040670FM-12+029999999V0200901N003610075019N0500001N1+03311+01891101141ADDAA199000091GF105991051021008001001001MA1999999097801MD1999999-0021REMSYN070AAXX  22184 82583 32599 50907 10331 20189 39780 40114 85200 333 59002;EQDQ01  00002PRCP99
0198825830999992001062300004-05170-040670FM-12+029999999V0200901N000510075019N0040001N1+02661+01901101531ADDAA199000091GF105991051021008001001001KA1240M+03331MA1999999098151MD1999999+0101REMSYN088AAXX  23004 82583 32596 50901 10266 20190 39815 40153 85200 333 10333 29059 55078 58010;EQDQ01  00002PRCP99
0186825830999992001062312004-05170-040670FM-12+029999999V0200901N003610120019N0500001N1+02531+02021101611ADDAA199000091GF107991071081008001001001KA1240N+02361MA1999999098221MD1999999+0021REMSYN076AAXX  23124 82583 32599 70907 10253 20202 39822 40161 87800 333 20236 58002;EQDQ01  00002PRCP99
0167825830999992001062318004-05170-040670FM-12+029999999V0200901N004610075019N0500001N1+03141+01841101191ADDAA199000091GF106991051021008001031001MA1999999097841MD1999999+0041REMSYN070AAXX  23184 82583 32599 60909 10314 20184 39784 40119 85230 333 58004;EQDQ01  00002PRCP99
0208825830999992001062400004-05170-040670FM-12+029999999V0200901N001512200019N0040001N1+02521+01771101441ADDAA199000091GA1001+999999999GF100991001001999999001001KA1240M+03211MA1999999098051MD1999999-0101REMSYN082AAXX  24004 82583 32996 00903 10252 20177 39805 40144 333 10321 29061 55042 59010;EQDQ01  00002PRCP99
0186825830999992001062412004-05170-040670FM-12+029999999V0200901N003112200019N0500001N1+02681+01971101621ADDAA199000091GF101991011011008001001001KA1240N+02041MA1999999098231MD1999999+0011REMSYN076AAXX  24124 82583 32599 10906 10268 20197 39823 40162 81100 333 20204 58001;EQDQ01  00002PRCP99
0167825830999992001062418004-05170-040670FM-12+029999999V0200901N005112200019N0020001N1+03301+01461101241ADDAA199000091GF102991021011008001001001MA1999999097891MD1999999+0001REMSYN070AAXX  24184 82583 32595 20910 10330 20146 39789 40124 82100 333 58000;EQDQ01  00002PRCP99
0198825830999992001062500004-05170-040670FM-12+029999999V0200901N001512200019N0040001N1+02571+01661101461ADDAA199000091GF102991021011008001001001KA1240M+03341MA1999999098081MD1999999+0051REMSYN088AAXX  25004 82583 32596 20903 10257 20166 39808 40146 82100 333 10334 29053 55086 58005;EQDQ01  00002PRCP99
0186825830999992001062512004-05170-040670FM-12+029999999V0200901N002610120019N0500001N1+02481+02031101661ADDAA199000091GF106991061081008001001001KA1240N+02081MA1999999098321MD1999999+0091REMSYN076AAXX  25124 82583 32599 60905 10248 20203 39832 40166 86800 333 20208 58009;EQDQ01  00002PRCP99
0167825830999992001062518004-05170-040670FM-12+029999999V0200901N003112200019N0500001N1+03231+01711101321ADDAA199000091GF102991021011008001001001MA1999999097951MD1999999+0061REMSYN070AAXX  25184 82583 32599 20906 10323 20171 39795 40132 82100 333 58006;EQDQ01  00002PRCP99
0167825830999992001062618004-05170-040670FM-12+029999999V0200901N002612200019N0500001N1+03381+01621101311ADDAA199000091GF102991021021008001001001MA1999999097951MD1999999+0001REMSYN070AAXX  26184 82583 32599 20905 10338 20162 39795 40131 82200 333 58000;EQDQ01  00002PRCP99
0214825830999992001062700004-05170-040670FM-12+029999999V0200901N000512200019N0040001N1+02601+01541101501ADDAA199000091GF101991999011008001001001KA1240M+03421MA1999999098131MD1999999+0011REMSYN088AAXX  27004 82583 32596 10901 10260 20154 39813 40150 82100 333 10342 29049 55077 58001;EQDQ01+000022SCOTLCQ02  00002PRCP99
0186825830999992001062712004-05170-040670FM-12+029999999V0200901N003110075019N0500001N1+02701+02061101681ADDAA199000091GF106991061021008001001001KA1240N+02291MA1999999098301MD1999999-0041REMSYN076AAXX  27124 82583 32599 60906 10270 20206 39830 40168 86200 333 20229 59004;EQDQ01  00002PRCP99
0167825830999992001062718004-05170-040670FM-12+029999999V0200901N004612200019N0500001N1+03261+01881101231ADDAA199000091GF104991041021008001001001MA1999999097881MD1999999-0071REMSYN070AAXX  27184 82583 32599 40909 10326 20188 39788 40123 84200 333 59007;EQDQ01  00002PRCP99
0198825830999992001062800004-05170-040670FM-12+029999999V0201801N001010075019N0040001N1+02701+01991101441ADDAA199000091GF106991061021008001001001KA1240M+03311MA1999999098071MD1999999-0061REMSYN088AAXX  28004 82583 32596 61802 10270 20199 39807 40144 86200 333 10331 29061 55063 59006;EQDQ01  00002PRCP99
0201825830999992001062812004-05170-040670FM-12+029999999V0200901N005110120019N0500001N1+02561+02131101531ADDAA124000891AY161061AY261061GF108991081081008001999999KA1240N+02281MA1999999098151MD1999999-0151MW1031REMSYN088AAXX  28124 82583 21599 80910 10256 20213 39815 40153 70366 888// 333 20228 59015 69984;
0167825830999992001062818004-05170-040670FM-12+029999999V0200901N005112200019N0500001N1+03051+02021101221ADDAA199000091GF104991041021008001001001MA1999999097861MD1999999-0021REMSYN070AAXX  28184 82583 32599 40910 10305 20202 39786 40122 84200 333 59002;EQDQ01  00002PRCP99
0214825830999992001062900004-05170-040670FM-12+029999999V0201401N001012200019N0040001N1+02431+02071101521ADDAA199000091GF101991999021008001001001KA1240M+03111MA1999999098121MD1999999+0051REMSYN088AAXX  29004 82583 32596 11402 10243 20207 39812 40152 85200 333 10311 29073 55036 58005;EQDQ01+000052SCOTLCQ02  00002PRCP99
0186825830999992001062912004-05170-040670FM-12+029999999V0200901N004110120019N0500001N1+02661+02001101611ADDAA199000091GF108991081081008001999999KA1240N+02151MA1999999098211MD1999999+0061REMSYN076AAXX  29124 82583 32599 80908 10266 20200 39821 40161 888// 333 20215 58006;EQDQ01  00002PRCP99
0167825830999992001062918004-05170-040670FM-12+029999999V0201401N002612200019N0500001N1+03251+01841101181ADDAA199000091GF103991031021008001001001MA1999999097821MD1999999-0041REMSYN070AAXX  29184 82583 32599 31405 10325 20184 39782 40118 83200 333 59004;EQDQ01  00002PRCP99
0198825830999992001063000004-05170-040670FM-12+029999999V0200901N002612200019N0040001N1+02621+01761101371ADDAA199000091GF101991011011008001001001KA1240M+03301MA1999999097991MD1999999-0131REMSYN088AAXX  30004 82583 32596 10905 10262 20176 39799 40137 81100 333 10330 29057 55066 59013;EQDQ01  00002PRCP99
0186825830999992001063012004-05170-040670FM-12+029999999V0200901N003612200019N0500001N1+02641+01901101451ADDAA199000091GF105991041021008001001041KA1240N+01991MA1999999098071MD1999999-0141REMSYN076AAXX  30124 82583 32599 50907 10264 20190 39807 40145 84204 333 20199 59014;EQDQ01  00002PRCP99
0167825830999992001063018004-05170-040670FM-12+029999999V0200901N005112200019N0500001N1+03211+01691101061ADDAA199000091GF104991041011008001001001MA1999999097691MD1999999-0131REMSYN070AAXX  30184 82583 32599 40910 10321 20169 39769 40106 84100 333 59013;EQDQ01  00002PRCP99
0198825830999992001070100004-05170-040670FM-12+029999999V0201401N001012200019N0040001N1+02631+01661101261ADDAA199000091GF101991011011008001001001KA1240M+03391MA1999999097891MD1999999+0101REMSYN088AAXX  01004 82583 32596 11402 10263 20166 39789 40126 81100 333 10339 29054 55090 58010;EQDQ01  00002PRCP99
0186825830999992001070112004-05170-040670FM-12+029999999V0200901N005710075019N0500001N1+02681+02021101481ADDAA199000091GF106991061021008001001001KA1240N+02051MA1999999098111MD1999999+0041REMSYN076AAXX  01124 82583 32599 60911 10268 20202 39811 40148 86200 333 20205 58004;EQDQ01  00002PRCP99
0167825830999992001070118004-05170-040670FM-12+029999999V0201401N003612200019N0500001N1+03161+01791101111ADDAA199000091GF102991021011008001001001MA1999999097751MD1999999+0061REMSYN070AAXX  01184 82583 32599 21407 10316 20179 39775 40111 82100 333 58006;EQDQ01  00002PRCP99
0214825830999992001070200004-05170-040670FM-12+029999999V0201401N002112200019N0040001N1+02401+01981101321ADDAA199000091GF101991999011008001001001KA1240M+03211MA1999999097941MD1999999+0041REMSYN088AAXX  02004 82583 32596 11404 10240 20198 39794 40132 82100 333 10321 29058 55080 58004;EQDQ01+000022SCOTLCQ02  00002PRCP99
0186825830999992001070212004-05170-040670FM-12+029999999V0200901N004612200019N0500001N1+02651+01901101561ADDAA199000091GF104991041011008001001001KA1240N+02101MA1999999098161MD1999999+0051REMSYN076AAXX  02124 82583 32599 40909 10265 20190 39816 40156 84100 333 20210 58005;EQDQ01  00002PRCP99
0167825830999992001070218004-05170-040670FM-12+029999999V0200901N002610075019N0500001N1+03101+01771101131ADDAA199000091GF106991061021008001001001MA1999999097771MD1999999+0021REMSYN070AAXX  02184 82583 32599 60905 10310 20177 39777 40113 86200 333 58002;EQDQ01  00002PRCP99
0208825830999992001070300004-05170-040670FM-12+029999999V0200901N002612200019N0040001N1+02541+01761101371ADDAA199000091GA1001+999999999GF100991001001999999001001KA1240M+03271MA1999999097991MD1999999+0051REMSYN082AAXX  03004 82583 32996 00905 10254 20176 39799 40137 333 10327 29058 55044 58005;EQDQ01  00002PRCP99
0186825830999992001070312004-05170-040670FM-12+029999999V0200901N003110120019N0500001N1+02481+01961101631ADDAA199000091GF107991071081008001001001KA1240N+02091MA1999999098231MD1999999+0071REMSYN076AAXX  03124 82583 32599 70906 10248 20196 39823 40163 87800 333 20209 58007;EQDQ01  00002PRCP99
0167825830999992001070318004-05170-040670FM-12+029999999V0200901N004612200019N0500001N1+03261+01801101161ADDAA199000091GF103991031021008001001001MA1999999097801MD1999999+0031REMSYN070AAXX  03184 82583 32599 30909 10326 20180 39780 40116 83200 333 58003;EQDQ01  00002PRCP99
0198825830999992001070400004-05170-040670FM-12+029999999V0200901N001012200019N0040001N1+02701+01831101431ADDAA199000091GF103991031021008001001001KA1240M+03331MA1999999098051MD1999999+0061REMSYN088AAXX  04004 82583 32596 30902 10270 20183 39805 40143 83200 333 10333 29058 55065 58006;EQDQ01  00002PRCP99
0186825830999992001070412004-05170-040670FM-12+029999999V0200901N004112200019N0500001N1+02771+01931101551ADDAA199000091GF103991031011008001001001KA1240N+02291MA1999999098181MD1999999-0051REMSYN076AAXX  04124 82583 32599 30908 10277 20193 39818 40155 83100 333 20229 59005;EQDQ01  00002PRCP99
0167825830999992001070418004-05170-040670FM-12+029999999V0200901N004610075019N0500001N1+03171+01731101221ADDAA199000091GF106991051021008001041001MA1999999097861MD1999999+0061REMSYN070AAXX  04184 82583 32599 60909 10317 20173 39786 40122 85240 333 58006;EQDQ01  00002PRCP99
0198825830999992001070500004-05170-040670FM-12+029999999V0201401N000512200019N0040001N1+02671+01671101401ADDAA199000091GF101991011011008001001001KA1240M+03251MA1999999098031MD1999999-0021REMSYN088AAXX  05004 82583 32596 11401 10267 20167 39803 40140 81100 333 10325 29053 55075 59002;EQDQ01  00002PRCP99
0186825830999992001070512004-05170-040670FM-12+029999999V0200901N006712200019N0500001N1+02731+01921101561ADDAA199000091GF102991021011008001001001KA1240N+01941MA1999999098181MD1999999+0001REMSYN076AAXX  05124 82583 32599 20913 10273 20192 39818 40156 82100 333 20194 58000;EQDQ01  00002PRCP99
0167825830999992001070518004-05170-040670FM-12+029999999V0201401N005712200019N0500001N1+03321+01571101201ADDAA199000091GF102991021011008001001001MA1999999097841MD1999999-0021REMSYN070AAXX  05184 82583 32599 21411 10332 20157 39784 40120 82100 333 59002;EQDQ01  00002PRCP99
0208825830999992001070600004-05170-040670FM-12+029999999V0200901N001512200019N0040001N1+02601+01601101371ADDAA199000091GA1001+999999999GF100991001001999999001001KA1240M+03381MA1999999098001MD1999999-0031REMSYN082AAXX  06004 82583 32996 00903 10260 20160 39800 40137 333 10338 29051 55095 59003;EQDQ01  00002PRCP99
0186825830999992001070612004-05170-040670FM-12+029999999V0200901N004612200019N0500001N1+02731+01921101451ADDAA199000091GF103991031011008001001001KA1240N+02071MA1999999098071MD1999999-0111REMSYN076AAXX  06124 82583 32599 30909 10273 20192 39807 40145 83100 333 20207 59011;EQDQ01  00002PRCP99
0167825830999992001070618004-05170-040670FM-12+029999999V0200901N003612200019N0500001N1+03131+01771101091ADDAA199000091GF103991031011008001001001MA1999999097731MD1999999-0111REMSYN070AAXX  06184 82583 32599 30907 10313 20177 39773 40109 83100 333 59011;EQDQ01  00002PRCP99
0198825830999992001070700004-05170-040670FM-12+029999999V0200901N002110075019N0040001N1+02751+01891101291ADDAA199000091GF105991051021008001001001KA1240M+03251MA1999999097931MD1999999-0071REMSYN088AAXX  07004 82583 32596 50904 10275 20189 39793 40129 85200 333 10325 29056 55087 59007;EQDQ01  00002PRCP99
0201825830999992001070712004-05170-040670FM-12+029999999V0200901N005110075019N0500001N1+02531+01981101521ADDAA124001091AY161061AY261061GF106991061021008001001001KA1240N+02181MA1999999098141MD1999999+0071MW1021REMSYN088AAXX  07124 82583 21599 60910 10253 20198 39814 40152 70266 86200 333 20218 58007 60014;
0167825830999992001070718004-05170-040670FM-12+029999999V0200901N005112200019N0500001N1+03161+01601101171ADDAA199000091GF102991021011008001001001MA1999999097811MD1999999+0081REMSYN070AAXX  07184 82583 32599 20910 10316 20160 39781 40117 82100 333 58008;EQDQ01  00002PRCP99
0208825830999992001070800004-05170-040670FM-12+029999999V0200901N001012200019N0040001N1+02501+01421101431ADDAA199000091GA1001+999999999GF100991001001999999001001KA1240M+03201MA1999999098041MD1999999+0111REMSYN082AAXX  08004 82583 32996 00902 10250 20142 39804 40143 333 10320 29053 55086 58011;EQDQ01  00002PRCP99
0186825830999992001070812004-05170-040670FM-12+029999999V0201401N003612200019N0500001N1+02571+01871101651ADDAA199000091GF102991021011008001001001KA1240N+01761MA1999999098251MD1999999+0111REMSYN076AAXX  08124 82583 32599 21407 10257 20187 39825 40165 82100 333 20176 58011;EQDQ01  00002PRCP99
0167825830999992001070818004-05170-040670FM-12+029999999V0201401N005110075019N0500001N1+03121+01711101321ADDAA199000091GF106991061021008001001001MA1999999097931MD1999999+0121REMSYN070AAXX  08184 82583 32599 61410 10312 20171 39793 40132 86200 333 58012;EQDQ01  00002PRCP99
0198825830999992001070900004-05170-040670FM-12+029999999V0200501N002112200019N0040001N1+02581+01721101321ADDAA199000091GF102991021011008001001001KA1240M+03201MA1999999098001MD1999999-0041REMSYN088AAXX  09004 82583 32596 20504 10258 20172 39800 40132 82100 333 10320 29057 55096 59004;EQDQ01  00002PRCP99
0180825830999992001070912004-05170-040670FM-12+029999999V0201401N006712200019N0500001N1+02561+01591101581ADDAA199000091GF102991999999999999999999KA1240N+02191MA1999999098181MD1999999-0071REMSYN070AAXX  09124 82583 32999 21413 10256 20159 39818 40158 333 20219 59007;EQDQ01  00002PRCP99
0167825830999992001070918004-05170-040670FM-12+029999999V0200901N005712200019N0500001N1+03251+01511101151ADDAA199000091GF102991011011012501041001MA1999999097791MD1999999-0141REMSYN070AAXX  09184 82583 32699 20911 10325 20151 39779 40115 81140 333 59014;EQDQ01  00002PRCP99
0208825830999992001071000004-05170-040670FM-12+029999999V0200901N001512200019N0040001N1+02531+01711101411ADDAA199000091GA1001+999999999GF100991001001999999001001KA1240M+03291MA1999999098031MD1999999+0031REMSYN082AAXX  10004 82583 32996 00903 10253 20171 39803 40141 333 10329 29053 55079 58003;EQDQ01  00002PRCP99
0186825830999992001071012004-05170-040670FM-12+029999999V0200901N004610075019N0500001N1+02661+01951101331ADDAA199000091GF106991061021008001001001KA1240N+01931MA1999999097951MD1999999-0231REMSYN076AAXX  10124 82583 32599 60909 10266 20195 39795 40133 86200 333 20193 59023;EQDQ01  00002PRCP99
0167825830999992001071018004-05170-040670FM-12+029999999V0200901N005110075019N0500001N1+03001+01641101041ADDAA199000091GF107991071021008001001001MA1999999097681MD1999999-0111REMSYN070AAXX  10184 82583 32599 70910 10300 20164 39768 40104 87200 333 59011;EQDQ01  00002PRCP99
0214825830999992001071100004-05170-040670FM-12+029999999V0209999C000012200019N0040001N1+02511+01741101271ADDAA199000091GF102991999011008001001001KA1240M+03101MA1999999097891MD1999999-0141REMSYN088AAXX  11004 82583 32596 20900 10251 20174 39789 40127 81100 333 10310 29058 55016 59014;EQDQ01+000012SCOTLCQ02  00002PRCP99
0186825830999992001071112004-05170-040670FM-12+029999999V0201401N004612200019N0500001N1+02661+01771101471ADDAA199000091GF101991011011008001001001KA1240N+01951MA1999999098091MD1999999+0141REMSYN076AAXX  11124 82583 32599 11409 10266 20177 39809 40147 81100 333 20195 58014;EQDQ01  00002PRCP99
0167825830999992001071118004-05170-040670FM-12+029999999V0200901N002612200019N0500001N1+03411+01561101091ADDAA199000091GF103991021011008001001011MA1999999097731MD1999999+0051REMSYN070AAXX  11184 82583 32599 30905 10341 20156 39773 40109 82101 333 58005;EQDQ01  00002PRCP99
0208825830999992001071200004-05170-040670FM-12+029999999V0200901N001512200019N0040001N1+02631+01601101361ADDAA199000091GA1001+999999999GF100991001001999999001001KA1240M+03431MA1999999097981MD1999999+0091REMSYN082AAXX  12004 82583 32996 00903 10263 20160 39798 40136 333 10343 29049 55099 58009;EQDQ01  00002PRCP99
0186825830999992001071212004-05170-040670FM-12+029999999V0200501N001510075019N0500001N1+02651+02041101571ADDAA199000091GF106991061021008001001001KA1240N+02161MA1999999098191MD1999999+0101REMSYN076AAXX  12124 82583 32599 60503 10265 20204 39819 40157 86200 333 20216 58010;EQDQ01  00002PRCP99
0167825830999992001071218004-05170-040670FM-12+029999999V0200901N004112200019N0500001N1+02311+01821101201ADDAA199000091GF102991021011008001001001MA1999999097841MD1999999+0111REMSYN070AAXX  12184 82583 32599 20908 10231 20182 39784 40120 82100 333 58011;EQDQ01  00002PRCP99
0208825830999992001071300004-05170-040670FM-12+029999999V0200901N000512200019N0040001N1+02701+01831101351ADDAA199000091GA1001+999999999GF100991001001999999001001KA1240M+03381MA1999999097981MD1999999+0001REMSYN082AAXX  13004 82583 32996 00901 10270 20183 39798 40135 333 10338 29057 55077 58000;EQDQ01  00002PRCP99
0186825830999992001071312004-05170-040670FM-12+029999999V0200501N004610075019N0500001N1+02781+02061101431ADDAA199000091GF106991061011008001001001KA1240N+02311MA1999999098071MD1999999-0121REMSYN076AAXX  13124 82583 32599 60509 10278 20206 39807 40143 86100 333 20231 59012;EQDQ01  00002PRCP99
0167825830999992001071318004-05170-040670FM-12+029999999V0201401N004112200019N0500001N1+03261+01881101091ADDAA199000091GF104991041021008001001001MA1999999097741MD1999999-0101REMSYN070AAXX  13184 82583 32599 41408 10326 20188 39774 40109 84200 333 59010;EQDQ01  00002PRCP99
0186825830999992001071612004-05170-040670FM-12+029999999V0200901N006210120019N0500001N1+02511+01791101561ADDAA199000091GF108991081081008001999999KA1240N+02011MA1999999098161MD1999999+0051REMSYN076AAXX  16124 82583 32599 80912 10251 20179 39816 40156 888// 333 20201 58005;EQDQ01  00002PRCP99
0167825830999992001071618004-05170-040670FM-12+029999999V0200901N004612200019N0500001N1+03211+01651101131ADDAA199000091GF103991031011008001001001MA1999999097771MD1999999+0001REMSYN070AAXX  16184 82583 32599 30909 10321 20165 39777 40113 83100 333 58000;EQDQ01  00002PRCP99
0208825830999992001071700004-05170-040670FM-12+029999999V0200901N001512200019N0040001N1+02571+01581101401ADDAA199000091GA1001+999999999GF100991001001999999001001KA1240M+03301MA1999999098021MD1999999+0041REMSYN082AAXX  17004 82583 32996 00903 10257 20158 39802 40140 333 10330 29053 55068 58004;EQDQ01  00002PRCP99
0186825830999992001071712004-05170-040670FM-12+029999999V0200901N006712200019N0500001N1+02761+01941101521ADDAA199000091GF104991041021008001001001KA1240N+02131MA1999999098141MD1999999-0021REMSYN076AAXX  17124 82583 32599 40913 10276 20194 39814 40152 84200 333 20213 59002;EQDQ01  00002PRCP99
0167825830999992001071718004-05170-040670FM-12+029999999V0200901N003612200019N0500001N1+03201+01671101141ADDAA199000091GF103991031021008001001001MA1999999097781MD1999999+0011REMSYN070AAXX  17184 82583 32599 30907 10320 20167 30778 40114 83200 333 58001;EQDQ01  00002PRCP99
0208825830999992001071800004-05170-040670FM-12+029999999V0200901N003112200019N0040001N1+02621+01761101461ADDAA199000091GA1001+999999999GF100991001001999999001001KA1240M+03321MA1999999098091MD1999999+0071REMSYN082AAXX  18004 82583 32996 00906 10262 20176 39809 40146 333 10332 29055 55086 58007;EQDQ01  00002PRCP99
0186825830999992001071812004-05170-040670FM-12+029999999V0200901N004612200019N0500001N1+02701+02011101541ADDAA199000091GF104991031021008001041001KA1240N+02141MA1999999098161MD1999999+0021REMSYN076AAXX  18124 82583 32599 40909 10270 20201 39816 40154 83240 333 20214 58002;EQDQ01  00002PRCP99
0208825830999992001071900004-05170-040670FM-12+029999999V0200901N001512200019N0040001N1+02701+01661101341ADDAA199000091GA1001+999999999GF100991001001999999001001KA1240M+03401MA1999999097971MD1999999-0121REMSYN082AAXX  19004 82583 32996 00903 10270 20166 39797 40134 333 10340 29051 55097 59012;EQDQ01  00002PRCP99
0186825830999992001071912004-05170-040670FM-12+029999999V0200501N003112200019N0500001N1+02691+01941101551ADDAA199000091GF103991031011008001001001KA1240N+02001MA1999999098171MD1999999+0011REMSYN076AAXX  19124 82583 32599 30506 10269 20194 39817 40155 83100 333 20200 58001;EQDQ01  00002PRCP99
0167825830999992001071918004-05170-040670FM-12+029999999V0201401N005112200019N0500001N1+03251+01651101041ADDAA199000091GF104991041011008001001001MA1999999097681MD1999999-0051REMSYN070AAXX  19184 82583 32599 41410 10325 20165 39768 40104 84100 333 59005;EQDQ01  00002PRCP99
0198825830999992001072000004-05170-040670FM-12+029999999V0200901N002112200019N0040001N1+02781+01701101291ADDAA199000091GF102991021011008001001001KA1240M+03471MA1999999097931MD1999999-0041REMSYN088AAXX  20004 82583 32596 20904 10278 20170 39793 40129 82100 333 10347 29051 55095 59004;EQDQ01  00002PRCP99
0186825830999992001072012004-05170-040670FM-12+029999999V0200901N004610075019N0500001N1+02741+01891101391ADDAA199000091GF106991061021008001001001KA1240N+02251MA1999999098031MD1999999-0141REMSYN076AAXX  20124 82583 32599 60909 10274 20189 39803 40139 86200 333 20225 59014;EQDQ01  00002PRCP99
0167825830999992001072018004-05170-040670FM-12+029999999V0200901N005110075019N0500001N1+03171+01911101071ADDAA199000091GF106991061021008001001001MA1999999097711MD1999999+0031REMSYN070AAXX  20184 82583 32599 60910 10317 20191 39771 40107 86200 333 58003;EQDQ01  00002PRCP99
0198825830999992001072100004-05170-040670FM-12+029999999V0200901N003610075019N0040001N1+02681+01971101291ADDAA199000091GF106991061021008001001001KA1240M+03201MA1999999097931MD1999999+0001REMSYN088AAXX  21004 82583 32596 60907 10268 20197 39793 40129 86200 333 10320 29059 55055 58000;EQDQ01  00002PRCP99
0201825830999992001072112004-05170-040670FM-12+029999999V0200901N004610075019N0500001N1+02531+02021101431ADDAA124002091AY161061AY261061GF105991051021008001001001KA1240N+02141MA1999999098051MD1999999+0021MW1021REMSYN088AAXX  21124 82583 21599 50909 10253 20202 39805 40143 70266 85200 333 20214 58002 60024;
0167825830999992001072118004-05170-040670FM-12+029999999V0200901N004610075019N0500001N1+03181+01841101101ADDAA199000091GF106991061021008001001001MA1999999097741MD1999999+0031REMSYN070AAXX  21184 82583 32599 60909 10318 20184 39774 40110 86200 333 58003;EQDQ01  00002PRCP99
0208825830999992001072200004-05170-040670FM-12+029999999V0201401N002112200019N0040001N1+02691+01801101301ADDAA199000091GA1001+999999999GF100991001001999999001001KA1240M+03221MA1999999097921MD1999999+0011REMSYN082AAXX  22004 82583 32996 01404 10269 20180 39792 40130 333 10322 29059 55071 58001;EQDQ01  00002PRCP99
0201825830999992001072212004-05170-040670FM-12+029999999V0200901N002110075019N0500001N1+02501+02111101511ADDAA124000591AY161061AY261061GF106991061021008001001001KA1240N+02141MA1999999098131MD1999999+0081MW1021REMSYN088AAXX  22124 82583 21599 60904 10250 20211 39813 40151 70266 86200 333 20214 58008 69954;
0167825830999992001072218004-05170-040670FM-12+029999999V0200901N004112200019N0500001N1+03251+01721101141ADDAA199000091GF102991021011008001001001MA1999999097781MD1999999+0041REMSYN070AAXX  22184 82583 32599 20908 10325 20172 39778 40114 82100 333 58004;EQDQ01  00002PRCP99
0208825830999992001072300004-05170-040670FM-12+029999999V0200501N002112200019N0040001N1+02581+01491101281ADDAA199000091GA1001+999999999GF100991001001999999001001KA1240M+03331MA1999999097901MD1999999-0021REMSYN082AAXX  23004 82583 32996 00504 10258 20149 39790 40128 333 10333 29055 55081 59002;EQDQ01  00002PRCP99
0202825830999992001072312004-05170-040670FM-12+029999999V0200501N002112200019N0500001N1+02611+01761101441ADDAA199000091GF102991999011008001001001KA1240N+01881MA1999999098061MD1999999-0071REMSYN076AAXX  23124 82583 32599 20504 10261 20176 39806 40144 81100 333 20188 59007;EQDQ01+000012SCOTLCQ02  00002PRCP99
0167825830999992001072318004-05170-040670FM-12+029999999V0201401N003612200019N0500001N1+03321+01481101021ADDAA199000091GF102991021011008001001001MA1999999097661MD1999999-0121REMSYN070AAXX  23184 82583 32599 21407 10332 20148 39766 40102 82100 333 59012;EQDQ01  00002PRCP99
0208825830999992001072400004-05170-040670FM-12+029999999V0200901N001512200019N0040001N1+02641+01601101251ADDAA199000091GA1001+999999999GF100991001001999999001001KA1240M+03441MA1999999097881MD1999999-0021REMSYN082AAXX  24004 82583 32996 00903 10264 20160 39788 40125 333 10344 29050 55105 59002;EQDQ01  00002PRCP99
0186825830999992001072412004-05170-040670FM-12+029999999V0201401N004612200019N0500001N1+02631+01771101531ADDAA199000091GF101991011011008001001001KA1240N+02161MA1999999098151MD1999999+0091REMSYN076AAXX  24124 82583 32599 11409 10263 20177 39815 40153 81100 333 20216 58009;EQDQ01  00002PRCP99
0167825830999992001072418004-05170-040670FM-12+029999999V0201401N003112200019N0500001N1+03321+01431101121ADDAA199000091GF101991011011008001001001MA1999999097771MD1999999+0111REMSYN070AAXX  24184 82583 32599 11406 10332 20143 39777 40112 81100 333 58011;EQDQ01  00002PRCP99
0208825830999992001072500004-05170-040670FM-12+029999999V0201401N003112200019N0040001N1+02631+02141101301ADDAA199000091GA1001+999999999GF100991001001999999001001KA1240M+03391MA1999999097921MD1999999-0041REMSYN082AAXX  25004 82583 32996 01406 10263 20214 39792 40130 333 10339 29060 55103 59004;EQDQ01  00002PRCP99
0186825830999992001072512004-05170-040670FM-12+029999999V0200901N001012200019N0500001N1+02661+01621101451ADDAA199000091GF101991011011008001001001KA1240N+01921MA1999999098071MD1999999+0081REMSYN076AAXX  25124 82583 32599 10902 10266 20162 39807 40145 81100 333 20192 58008;EQDQ01  00002PRCP99
0167825830999992001072518004-05170-040670FM-12+029999999V0200901N001512200019N0500001N1+03231+01581101101ADDAA199000091GF101991011011008001001001MA1999999097741MD1999999-0031REMSYN070AAXX  25184 82583 32599 10903 10323 20158 39774 40110 81100 333 59003;EQDQ01  00002PRCP99
0208825830999992001072600004-05170-040670FM-12+029999999V0200901N003112200019N0040001N1+02661+01621101301ADDAA199000091GA1001+999999999GF100991001001999999001001KA1240M+03281MA1999999097931MD1999999+0011REMSYN082AAXX  26004 82583 32996 00906 10266 20162 39793 40130 333 10328 29047 55106 58001;EQDQ01  00002PRCP99
0186825830999992001072612004-05170-040670FM-12+029999999V0201401N003610075019N0500001N1+02511+01861101621ADDAA199000091GF106991061021008001001001KA1240N+02031MA1999999098231MD1999999+0161REMSYN076AAXX  26124 82583 32599 61407 10251 20186 39823 40162 86200 333 20203 58016;EQDQ01  00002PRCP99
0167825830999992001072618004-05170-040670FM-12+029999999V0201401N004112200019N0500001N1+03191+01511101181ADDAA199000091GF104991031021008001001011MA1999999097821MD1999999+0081REMSYN070AAXX  26184 82583 32599 41408 10319 20151 39782 40118 83201 333 58008;EQDQ01  00002PRCP99
0198825830999992001072700004-05170-040670FM-12+029999999V0200901N002112200019N0040001N1+02661+01471101391ADDAA199000091GF104991041021008001001001KA1240M+03331MA1999999098011MD1999999+0081REMSYN088AAXX  27004 82583 32596 40904 10266 20147 39801 40139 84200 333 10333 29050 55068 58008;EQDQ01  00002PRCP99
0186825830999992001072712004-05170-040670FM-12+029999999V0201401N006212200019N0500001N1+02571+01661101611ADDAA199000091GF101991011011008001001001KA1240N+01951MA1999999098221MD1999999-0011REMSYN076AAXX  27124 82583 32599 11412 10257 20166 39822 40161 81100 333 20195 59001;EQDQ01  00002PRCP99
0167825830999992001072718004-05170-040670FM-12+029999999V0200901N003112200019N0500001N1+03341+01191101171ADDAA199000091GF102991011011008001001011MA1999999097811MD1999999-0011REMSYN070AAXX  27184 82583 32599 20906 10334 20119 39781 40117 81101 333 59001;EQDQ01  00002PRCP99
0208825830999992001072800004-05170-040670FM-12+029999999V0200901N001512200019N0040001N1+02651+01471101401ADDAA199000091GA1001+999999999GF100991001001999999001001KA1240M+03381MA1999999098021MD1999999+0011REMSYN082AAXX  28004 82583 32996 00903 10265 20147 39802 40140 333 10338 29045 55103 58001;EQDQ01  00002PRCP99
0186825830999992001072812004-05170-040670FM-12+029999999V0200901N004612200019N0500001N1+02711+01621101161ADDAA199000091GF102991011011008001001011KA1240N+02131MA1999999098281MD1999999+0061REMSYN076AAXX  28124 82583 32599 20909 10271 20162 39828 40116 81101 333 20213 58006;EQDQ01  00002PRCP99
0167825830999992001072818004-05170-040670FM-12+029999999V0201401N002112200019N0500001N1+03301+01311101451ADDAA199000091GF103991031011008001001001MA1999999097821MD1999999+0011REMSYN070AAXX  28184 82583 32599 31404 10330 20131 39782 40145 83100 333 58001;EQDQ01  00002PRCP99
0198825830999992001072900004-05170-040670FM-12+029999999V0200501N001012200019N0040001N1+02601+01831101461ADDAA199000091GF101991011011008001001001KA1240M+03351MA1999999098081MD1999999+0061REMSYN088AAXX  29004 82583 32596 10502 10260 20183 39808 40146 81100 333 10335 29044 55088 58006;EQDQ01  00002PRCP99
0186825830999992001072912004-05170-040670FM-12+029999999V0201401N003610075019N0500001N1+02631+01901101631ADDAA199000091GF106991061021008001001001KA1240N+01991MA1999999098241MD1999999-0041REMSYN076AAXX  29124 82583 32599 61407 10263 20190 39824 40163 86200 333 20199 59004;EQDQ01  00002PRCP99
0167825830999992001072918004-05170-040670FM-12+029999999V0200901N002612200019N0500001N1+03351+01411101171ADDAA199000091GF103991031011008001001001MA1999999097811MD1999999-0011REMSYN070AAXX  29184 82583 32599 30905 10335 20141 39781 40117 83100 333 59001;EQDQ01  00002PRCP99
0208825830999992001073000004-05170-040670FM-12+029999999V0200901N002612200019N0040001N1+02681+01391101461ADDAA199000091GA1001+999999999GF100991001001999999001001KA1240M+03401MA1999999098081MD1999999+0001REMSYN082AAXX  30004 82583 32996 00905 10268 20139 39808 40146 333 10340 29046 55083 58000;EQDQ01  00002PRCP99
0186825830999992001073012004-05170-040670FM-12+029999999V0200901N004610075019N0500001N1+02721+01791101591ADDAA199000091GF106991061051008001001001KA1240N+02131MA1999999098211MD1999999-0031REMSYN076AAXX  30124 82583 32599 60909 10272 20179 39821 40159 86500 333 20213 59003;EQDQ01  00002PRCP99
0167825830999992001073018004-05170-040670FM-12+029999999V0200901N004612200019N0500001N1+03231+01501101171ADDAA199000091GF104991041021008001001001MA1999999097811MD1999999+0001REMSYN070AAXX  30184 82583 32599 40909 10323 20150 39781 40117 84200 333 58000;EQDQ01  00002PRCP99
0198825830999992001073100004-05170-040670FM-12+029999999V0200901N001510075019N0040001N1+02841+01501101461ADDAA199000091GF105991051021008001001001KA1240M+03411MA1999999098101MD1999999+0021REMSYN088AAXX  31004 82583 32596 50903 10284 20150 39810 40146 85200 333 10341 29045 55072 58002;EQDQ01  00002PRCP99
0186825830999992001073112004-05170-040670FM-12+029999999V0201401N006212200019N0500001N1+02781+01561101661ADDAA199000091GF101991011011008001001001KA1240N+02141MA1999999098291MD1999999+0081REMSYN076AAXX  31124 82583 32599 11412 10278 20156 39829 40166 81100 333 20214 58008;EQDQ01  00002PRCP99
0183825830999992001073118004-05170-040670FM-12+029999999V0200901N004619999999N0500001N1+03401+01351101181ADDAA199000091GF108991999011008001001001MA1999999097841MD1999999+0031REMSYN070AAXX  31184 82583 32599 80909 10340 20135 39784 40118 81100 333 58003;EQDQ01+000012SCOTLCQ02  00002PRCP99
0208825830999992001080100004-05170-040670FM-12+029999999V0200901N001512200019N0040001N1+02681+01281101491ADDAA199000091GA1001+999999999GF100991001001999999001001KA1240M+03431MA1999999098121MD1999999+0021REMSYN082AAXX  01004 82583 32996 00903 10268 20128 39812 40149 333 10343 29040 55108 58002;EQDQ01  00002PRCP99
0186825830999992001080112004-05170-040670FM-12+029999999V0201401N004610075019N0500001N1+02581+01461101051ADDAA199000091GF106991061021008001001001KA1240N+02191MA1999999098471MD1999999+0181REMSYN076AAXX  01124 82583 32599 61409 10258 20146 39847 40105 86200 333 20219 58018;EQDQ01  00002PRCP99
0167825830999992001080118004-05170-040670FM-12+029999999V0200901N002112200019N0500001N1+03331+01991101291ADDAA199000091GF101991011011008001001001MA1999999097931MD1999999+0091REMSYN070AAXX  01184 82583 32599 10904 10333 20199 39793 40129 81100 333 58009;EQDQ01  00002PRCP99
0208825830999992001080200004-05170-040670FM-12+029999999V0200901N002112200019N0040001N1+02601+01211101611ADDAA199000091GA1001+999999999GF100991001001999999001001KA1240M+03401MA1999999098221MD1999999+0101REMSYN082AAXX  02004 82583 32996 00904 10260 20121 39822 40161 333 10340 29040 55072 58010;EQDQ01  00002PRCP99
0186825830999992001080212004-05170-040670FM-12+029999999V0200901N006712200019N0500001N1+02691+01021101731ADDAA199000091GF101991011011012501001001KA1240N+01871MA1999999098351MD1999999-0121REMSYN076AAXX  02124 82583 32699 10913 10269 20102 39835 40173 81100 333 20187 59012;EQDQ01  00002PRCP99
0177825830999992001080218004-05170-040670FM-12+029999999V0200901N004612200019N0500001N1+03231+00991101291ADDAA199000091GA1001+999999999GF100991001001999999001001MA1999999097931MD1999999+0001REMSYN064AAXX  02184 82583 32999 00909 10323 20099 39793 40129 333 58000;EQDQ01  00002PRCP99
0192825830999992001080300004-05170-040670FM-12+029999999V0200901N002612200019N0040001N1+02581+00881101661ADDAA199000091GF101991999999999999999999KA1240M+03321MA1999999098271MD1999999+0051REMSYN082AAXX  03004 82583 32996 10905 10258 20088 39827 40166 333 10332 29032 55108 58005;EQDQ01  00002PRCP99
0186825830999992001080312004-05170-040670FM-12+029999999V0200901N007710120019N0500001N1+02651+01711101651ADDAA199000091GF106991061081008001001001KA1240N+01861MA1999999098261MD1999999-0091REMSYN076AAXX  03124 82583 32599 60915 10265 20171 39826 40165 86800 333 20186 59009;EQDQ01  00002PRCP99
0152825830999992001080318004-05170-040670FM-12+029999999V0200901N006719999999N0500001N1+02961+01781999999ADDAA199000091GF106991999999008001999999MA1999999097951REMSYN069AAXX  03184 82583 32599 60913 10296 20178 39795 4034 85201 333 58002;EQDQ01  00002PRCP99
0214825830999992001080400004-05170-040670FM-12+029999999V0200501N003112200019N0040001N1+02621+01561101531ADDAA199000091GF101991999011008001001001KA1240M+03311MA1999999098151MD1999999-0121REMSYN088AAXX  04004 82583 32596 10506 10262 20156 39815 40153 82100 333 10331 29052 55050 59012;EQDQ01+000022SCOTLCQ02  00002PRCP99
0202825830999992001080412004-05170-040670FM-12+029999999V0201401N006712200019N0500001N1+02541+01191101711ADDAA199000091GF101991001001999999001011KA1240N+02031MA1999999098321MD1999999+0061REMSYN076AAXX  04124 82583 32599 11413 10254 20119 39832 40171 80001 333 20203 58006;EQDQ01+008002SCOLCBQ02  00002PRCP99
0167825830999992001080418004-05170-040670FM-12+029999999V0200901N003612200019N0500001N1+03251+01331101261ADDAA199000091GF101991011011008001001001MA1999999097921MD1999999-0031REMSYN070AAXX  04184 82583 32599 10907 10325 20133 39792 40126 81100 333 59003;EQDQ01  00002PRCP99
0198825830999992001080500004-05170-040670FM-12+029999999V0200901N003112200019N0040001N1+02521+01421101561ADDAA199000091GF101991011011008001001001KA1240M+03331MA1999999098161MD1999999+0011REMSYN088AAXX  05004 82583 32596 10906 10252 20142 39816 40156 81100 333 10333 29041 55107 58001;EQDQ01  00002PRCP99
0186825830999992001080512004-05170-040670FM-12+029999999V0201401N005112200019N0500001N1+02681+01611101751ADDAA199000091GF101991011011008001001001KA1240N+01931MA1999999098361MD1999999+0021REMSYN076AAXX  05124 82583 32599 11410 10268 20161 39836 40175 81100 333 20193 58002;EQDQ01  00002PRCP99
0208825830999992001080600004-05170-040670FM-12+029999999V0200901N002112200019N0040001N1+02631+01131101491ADDAA199000091GA1001+999999999GF100991001001999999001001KA1240M+03421MA1999999098111MD1999999-0051REMSYN082AAXX  06004 82583 32996 00904 10263 20113 39811 40149 333 10342 29040 55108 59005;EQDQ01  00002PRCP99
0186825830999992001080612004-05170-040670FM-12+029999999V0200901N010012200019N0500001N1+02711+01391101651ADDAA199000091GF101991011011012501001001KA1240N+01931MA1999999098271MD1999999-0091REMSYN076AAXX  06121 82583 32699 10910 10271 20139 39827 40165 81100 333 20193 59009;EQDQ01  00002PRCP99
0177825830999992001080618004-05170-040670FM-12+029999999V0200901N003612200019N0500001N1+03401+01121101251ADDAA199000091GA1001+999999999GF100991001001999999001001MA1999999098781MD1999999+0141REMSYN064AAXX  06184 82583 32999 00907 10340 20112 39878 40125 333 58014;EQDQ01  00002PRCP99
0208825830999992001080700004-05170-040670FM-12+029999999V0200901N002112200019N0040001N1+02601+00981101641ADDAA199000091GA1001+999999999GF100991001001999999001001KA1240M+03431MA1999999098261MD1999999+0151REMSYN082AAXX  07004 82583 32996 00904 10260 20098 39826 40164 333 10343 29035 55109 58015;EQDQ01  00002PRCP99
0196825830999992001080712004-05170-040670FM-12+029999999V0200901N004612200019N0500001N1+02641+01281101831ADDAA199000091GA1001+999999999GF100991001001999999001001KA1240N+01861MA1999999098441MD1999999+0171REMSYN070AAXX  07124 82583 32999 00909 10264 20128 39844 40183 333 20186 58017;EQDQ01  00002PRCP99
0167825830999992001080718004-05170-040670FM-12+029999999V0200901N005712200019N0500001N1+03331+01351101271ADDAA199000091GF101991011011012501001001MA1999999097901MD1999999+0031REMSYN070AAXX  07184 82583 32699 10911 10333 20135 39790 40127 81100 333 58003;EQDQ01  00002PRCP99
0198825830999992001080800004-05170-040670FM-12+029999999V0200901N002110075019N0040001N1+02681+01451101571ADDAA199000091GF105991051021008001001001KA1240M+03391MA1999999098191MD1999999-0071REMSYN088AAXX  08004 82583 32596 50904 10268 20145 39819 40157 85200 333 10339 29042 55108 59007;EQDQ01  00002PRCP99
0186825830999992001080812004-05170-040670FM-12+029999999V0200901N007212200019N0500001N1+02671+01521101701ADDAA199000091GF103991031011008001001001KA1240N+02261MA1999999098321MD1999999-0121REMSYN076AAXX  08124 82583 32599 30914 10267 20152 39832 40170 83100 333 20226 59012;EQDQ01  00002PRCP99
0167825830999992001080818004-05170-040670FM-12+029999999V0200901N004612200019N0500001N1+03271+01501101251ADDAA199000091GF103991031011008001001001MA1999999097901MD1999999+0081REMSYN070AAXX  08184 82583 32599 30909 10327 20150 39790 40125 83100 333 58008;EQDQ01  00002PRCP99
0208825830999992001080900004-05170-040670FM-12+029999999V0200901N002112200019N0040001N1+02661+01401101461ADDAA199000091GA1001+999999999GF100991001001999999001001KA1240M+03321MA1999999098081MD1999999-0111REMSYN082AAXX  09004 82583 32996 00904 10266 20140 39808 40146 333 10332 29044 55087 59011;EQDQ01  00002PRCP99
0186825830999992001080912004-05170-040670FM-12+029999999V0200901N007710120019N0500001N1+02531+01651101751ADDAA199000091GF107991071081008001001001KA1240N+02021MA1999999098371MD1999999+0051REMSYN076AAXX  09124 82583 32599 70915 10253 20165 39837 40175 87800 333 20202 58005;EQDQ01  00002PRCP99
0167825830999992001080918004-05170-040670FM-12+029999999V0200901N004112200019N0500001N1+03251+01511101251ADDAA199000091GF102991021011008001001001MA1999999097891MD1999999-0011REMSYN070AAXX  09184 82583 32599 20908 10325 20151 39789 40125 82100 333 59001;EQDQ01  00002PRCP99
0198825830999992001081000004-05170-040670FM-12+029999999V0200901N002112200019N0040001N1+02631+01391101541ADDAA199000091GF101991011011008001001001KA1240M+03301MA1999999098151MD1999999+0071REMSYN088AAXX  10004 82583 32596 10904 10263 20139 39815 40154 81100 333 10330 29046 55096 58007;EQDQ01  00002PRCP99
0186825830999992001081012004-05170-040670FM-12+029999999V0200901N005110075019N0500001N1+02611+01671101711ADDAA199000091GF106991061051008001001001KA1240N+02331MA1999999098321MD1999999-0051REMSYN076AAXX  10124 82583 32599 60910 10261 20167 39832 40171 86500 333 20233 59005;EQDQ01  00002PRCP99
0167825830999992001081018004-05170-040670FM-12+029999999V0200901N004612200019N0500001N1+03281+01441101251ADDAA199000091GF102991021011008001001001MA1999999097911MD1999999+0021REMSYN070AAXX  10184 82583 32599 20909 10328 20144 39791 40125 82100 333 58002;EQDQ01  00002PRCP99
0208825830999992001081100004-05170-040670FM-12+029999999V0200501N005012200019N0040001N1+02781+01011101501ADDAA199000091GA1001+999999999GF100991001001999999001001KA1240M+03331MA1999999098131MD1999999-0021REMSYN082AAXX  11000 82583 32996 00505 10278 20101 39813 40150 333 10333 29047 55084 59002;EQDQ01  00002PRCP99
0186825830999992001081112004-05170-040670FM-12+029999999V0201401N004612200019N0500001N1+02691+01341101731ADDAA199000091GF102991021011008001001001KA1240N+01821MA1999999098351MD1999999+0031REMSYN076AAXX  11124 82583 32599 21409 10269 20134 39835 40173 82100 333 20182 58003;EQDQ01  00002PRCP99
0167825830999992001081118004-05170-040670FM-12+029999999V0201401N002112200019N0500001N1+03381+01101101281ADDAA199000091GF101991011011008001001001MA1999999097921MD1999999+0011REMSYN070AAXX  11184 82583 32599 11404 10338 20110 39792 40128 81100 333 58001;EQDQ01  00002PRCP99
0198825830999992001081200004-05170-040670FM-12+029999999V0201401N000512200019N0040001N1+02751+99999101491ADDAA199000091GF101991011011008001001001KA1240M+03491MA1999999098101MD1999999-0011REMSYN088AAXX  12004 82583 32596 11401 10275 20291 39810 40149 81100 333 10349 29033 55110 59001;EQDQ01  00002PRCP99
0167825830999992001081218004-05170-040670FM-12+029999999V0200901N004610075019N0500001N1+03311+01481101271ADDAA199000091GF105991051021008001001001MA1999999097911MD1999999-0011REMSYN070AAXX  12184 82583 32599 50909 10331 20148 39791 40127 85200 333 59001;EQDQ01  00002PRCP99
0198825830999992001081300004-05170-040670FM-12+029999999V0200901N003012200019N0040001N1+02801+01311101481ADDAA199000091GF101991011011008001001001KA1240M+03421MA1999999098111MD1999999+0011REMSYN088AAXX  13000 82583 32596 10903 10280 20131 39811 40148 81100 333 10342 29045 55082 58001;EQDQ01  00002PRCP99
0186825830999992001081312004-05170-040670FM-12+029999999V0200901N005712200019N0500001N1+02691+01661101671ADDAA199000091GF102991021011008001001001KA1240N+02151MA1999999098291MD1999999-0151REMSYN076AAXX  13124 82583 32599 20911 10269 20166 39829 40167 82100 333 20215 59015;EQDQ01  00002PRCP99
0167825830999992001081318004-05170-040670FM-12+029999999V0200901N004612200019N0500001N1+03321+01111101111ADDAA199000091GF102991011011012501001011MA1999999097771MD1999999-0141REMSYN070AAXX  13184 82583 32699 20909 10332 20111 39777 40111 81101 333 59014;EQDQ01  00002PRCP99
0208825830999992001081400004-05170-040670FM-12+029999999V0200901N002112200019N0040001N1+02701+01301101451ADDAA199000091GA1001+999999999GF100991001001999999001001KA1240M+03381MA1999999098081MD1999999-0031REMSYN082AAXX  14004 82583 32996 00904 10270 20130 39808 40145 333 10338 29041 55105 59003;EQDQ01  00002PRCP99
0196825830999992001081412004-05170-040670FM-12+029999999V0201401N007212200019N0500001N1+02601+01351101661ADDAA199000091GA1001+999999999GF100991001001999999001001KA1240N+02141MA1999999098281MD1999999-0011REMSYN070AAXX  14124 82583 32999 01414 10260 20135 39828 40166 333 20214 59001;EQDQ01  00002PRCP99
0161825830999992001081418004-05170-040670FM-12+029999999V0200901N004112200019N0500001N1+03291+01211101111ADDAA199000091GF101991999999999999999999MA1999999097761MD1999999-0011REMSYN064AAXX  14184 82583 32999 10908 10329 20121 39776 40111 333 59001;EQDQ01  00002PRCP99
0208825830999992001081500004-05170-040670FM-12+029999999V0200901N002112200019N0040001N1+02671+01351101481ADDAA199000091GA1001+999999999GF100991001001999999001001KA1240M+03351MA1999999098101MD1999999+0021REMSYN082AAXX  15004 82583 32996 00904 10267 20135 39810 40148 333 10335 29041 55107 58002;EQDQ01  00002PRCP99
0186825830999992001081512004-05170-040670FM-12+029999999V0200901N004612200019N0500001N1+02651+01791101681ADDAA199000091GF103991031011008001001001KA1240N+02201MA1999999098301MD1999999+0021REMSYN076AAXX  15124 82583 32599 30909 10265 20179 39830 40168 83100 333 20220 58002;EQDQ01  00002PRCP99
0167825830999992001081518004-05170-040670FM-12+029999999V0200901N006212200019N0500001N1+03321+01521101231ADDAA199000091GF102991021011008001001001MA1999999097871MD1999999+0111REMSYN070AAXX  15184 82583 32599 20912 10332 20152 39787 40123 82100 333 58011;EQDQ01  00002PRCP99
0209825830999992001081600004-05170-040670FM-12+029999999V0200901N004012200019N0040001N1+02771+01581101571ADDAA199000091GA1001+999999999GF100991001001999999001001KA1240M+03391MD1999999+0091REMSYN082AAXX  16000 82583 32996 00904 10277 20158 31819 40157 333 10339 29047 55093 58009;EQDQ01+018191APOSP Q02  00002PRCP99
0186825830999992001081612004-05170-040670FM-12+029999999V0201401N005110120019N0500001N1+02531+01711101801ADDAA199000091GF107991071081008001001001KA1240N+02291MA1999999098421MD1999999+0121REMSYN076AAXX  16124 82583 32599 71410 10253 20171 39842 40180 87800 333 20229 58012;EQDQ01  00002PRCP99
0167825830999992001081618004-05170-040670FM-12+029999999V0200901N003612200019N0500001N1+03271+01581101251ADDAA199000091GF103991031021008001001001MA1999999097911MD1999999+0041REMSYN070AAXX  16184 82583 32599 30907 10327 20158 39791 40125 83200 333 58004;EQDQ01  00002PRCP99
0208825830999992001081700004-05170-040670FM-12+029999999V0200901N002112200019N0040001N1+02661+01471101481ADDAA199000091GA1001+999999999GF100991001001999999001001KA1240M+03351MA1999999098101MD1999999-0091REMSYN082AAXX  17004 82583 32996 00904 10266 20147 39810 40148 333 10335 29048 55076 59009;EQDQ01  00002PRCP99
0186825830999992001081712004-05170-040670FM-12+029999999V0200901N005112200019N0500001N1+02701+01571101711ADDAA199000091GF101991011011008001001001KA1240N+02051MA1999999098331MD1999999-0091REMSYN076AAXX  17124 82583 32599 10910 10270 20157 39833 40171 81100 333 20205 59009;EQDQ01  00002PRCP99
0167825830999992001081718004-05170-040670FM-12+029999999V0201401N003112200019N0500001N1+03381+01431101131ADDAA199000091GF101991011011008001001001MA1999999097791MD1999999-0121REMSYN070AAXX  17184 82583 32599 11406 10338 20143 39779 40113 81100 333 59012;EQDQ01  00002PRCP99
0208825830999992001081800004-05170-040670FM-12+029999999V0200901N002612200019N0040001N1+02771+01371101371ADDAA199000091GA1001+999999999GF100991001001999999001001KA1240M+03391MA1999999098011MD1999999-0091REMSYN082AAXX  18004 82583 32996 00905 10277 20137 39801 40137 333 10339 29041 55104 59009;EQDQ01  00002PRCP99
0202825830999992001081812004-05170-040670FM-12+029999999V0200901N005112200019N0500001N1+02701+01341101601ADDAA199000091GF101991999011008001001001KA1240N+02081MA1999999098231MD1999999-0101REMSYN076AAXX  18124 82583 32599 10910 10270 20134 39823 40160 82100 333 20208 59010;EQDQ01+000022SCOTLCQ02  00002PRCP99
0208825830999992001081900004-05170-040670FM-12+029999999V0200901N002112200019N0040001N1+02771+01421101441ADDAA199000091GA1001+999999999GF100991001001999999001001KA1240M+03451MA1999999098081MD1999999+0071REMSYN082AAXX  19004 82583 32996 00904 10277 20142 39808 40144 333 10345 29039 55017 58007;EQDQ01  00002PRCP99
0186825830999992001081912004-05170-040670FM-12+029999999V0200901N007212200019N0500001N1+02781+01821101691ADDAA199000091GF102991021011008001001001KA1240N+01211MA1999999098321MD1999999+0091REMSYN076AAXX  19124 82583 32599 20914 10278 20182 39832 40169 82100 333 20121 58009;EQDQ01  00002PRCP99
0167825830999992001081918004-05170-040670FM-12+029999999V0200901N006712200019N0500001N1+03401+01451101191ADDAA199000091GF101991011011008001001001MA1999999097841MD1999999+0001REMSYN070AAXX  19184 82583 32599 10913 10340 20145 39784 40119 81100 333 58000;EQDQ01  00002PRCP99
0198825830999992001082000004-05170-040670FM-12+029999999V0201401N003112200019N0040001N1+02881+01351101521ADDAA199000091GF101991011011008001001001KA1240M+03431MA1999999098161MD1999999+0081REMSYN088AAXX  20004 82583 32596 11406 10288 20135 39816 40152 81100 333 10343 29041 55107 58008;EQDQ01  00002PRCP99
0186825830999992001082012004-05170-040670FM-12+029999999V0200901N005712200019N0500001N1+02811+01801101731ADDAA199000091GF102991021011008001001001KA1240N+02231MA1999999098371MD1999999+0051REMSYN076AAXX  20124 82583 32599 20911 10281 20180 39837 40173 82100 333 20223 58005;EQDQ01  00002PRCP99
0167825830999992001082018004-05170-040670FM-12+029999999V0200901N004112200019N0500001N1+03451+01501101211ADDAA199000091GF102991021011008001001001MA1999999097871MD1999999+0031REMSYN070AAXX  20184 82583 32599 20908 10345 20150 39787 40121 82100 333 58003;EQDQ01  00002PRCP99
0208825830999992001082100004-05170-040670FM-12+029999999V0200901N002112200019N0040001N1+02801+01501101511ADDAA199000091GA1001+999999999GF100991001001999999001001KA1240M+03491MA1999999098151MD1999999+0011REMSYN082AAXX  21004 82583 32696 00904 10280 20150 39815 40151 333 10349 29044 55094 58001;EQDQ01  00002PRCP99
0186825830999992001082112004-05170-040670FM-12+029999999V0200901N004612200019N0500001N1+02721+01681101701ADDAA199000091GF102991021011008001001001KA1240N+02171MA1999999098321MD1999999-0051REMSYN076AAXX  21124 82583 32599 20909 10272 20168 39832 40170 82100 333 20217 59005;EQDQ01  00002PRCP99
0167825830999992001082118004-05170-040670FM-12+029999999V0200901N004612200019N0500001N1+03441+01031101221ADDAA199000091GF101991011011012501001001MA1999999097881MD1999999+0011REMSYN070AAXX  21184 82583 32699 10909 10344 20103 39788 40122 81100 333 58001;EQDQ01  00002PRCP99
0208825830999992001082200004-05170-040670FM-12+029999999V0200901N001012200019N0040001N1+02731+01141101461ADDAA199000091GA1001+999999999GF100991001001999999001001KA1240M+03501MA1999999098101MD1999999-0051REMSYN082AAXX  22004 82583 32996 00902 10273 20114 39810 40146 333 10350 29038 55105 59005;EQDQ01  00002PRCP99
0186825830999992001082212004-05170-040670FM-12+029999999V0201401N004612200019N0500001N1+02671+01781101741ADDAA199000091GF102991021011008001001001KA1240N+02071MA1999999098361MD1999999+0041REMSYN076AAXX  22124 82583 32599 21409 10267 20178 39836 40174 82100 333 20207 58004;EQDQ01  00002PRCP99
0177825830999992001082218004-05170-040670FM-12+029999999V0200901N005112200019N0500001N1+03481+00991101181ADDAA199000091GA1001+999999999GF100991001001999999001001MA1999999097841MD1999999-0041REMSYN064AAXX  22184 82583 32999 00910 10348 20099 39784 40118 333 59004;EQDQ01  00002PRCP99
0208825830999992001082300004-05170-040670FM-12+029999999V0200901N001512200019N0040001N1+02841+01231101461ADDAA199000091GA1001+999999999GF100991001001999999001001KA1240M+03521MA1999999098101MD1999999+0001REMSYN082AAXX  23004 82583 32596 00903 10284 20123 39810 40146 333 10352 29039 55107 58000;EQDQ01  00002PRCP99
0186825830999992001082312004-05170-040670FM-12+029999999V0201401N005110075019N0500001N1+02771+02041101641ADDAA199000091GF105991051021008001001001KA1240N+02471MA1999999098261MD1999999+0101REMSYN076AAXX  23124 82583 32599 51410 10277 20204 39826 40164 85200 333 20247 58010;EQDQ01  00002PRCP99
0167825830999992001082318004-05170-040670FM-12+029999999V0200901N004612200019N0500001N1+03431+01481101131ADDAA199000091GF102991021011008001001001MA1999999097791MD1999999-0051REMSYN070AAXX  23184 82583 32599 20909 10343 20148 39779 40113 82100 333 59005;EQDQ01  00002PRCP99
0208825830999992001082400004-05170-040670FM-12+029999999V0200501N001012200019N0040001N1+02751+01351101321ADDAA199000091GA1001+999999999GF100991001001999999001001KA1240M+03491MA1999999097961MD1999999-0141REMSYN082AAXX  24004 82583 32996 00502 10275 20135 39796 40132 333 10349 29045 55100 59014;EQDQ01  00002PRCP99
0186825830999992001082412004-05170-040670FM-12+029999999V0200901N006212200019N0500001N1+02771+01851101641ADDAA199000091GF104991041021008001001001KA1240N+02051MA1999999098261MD1999999+0001REMSYN076AAXX  24124 82583 32599 40912 10277 20185 39826 40164 84200 333 20205 58000;EQDQ01  00002PRCP99
0177825830999992001082418004-05170-040670FM-12+029999999V0200901N004612200019N0500001N1+03431+01151101081ADDAA199000091GA1001+999999999GF100991001001999999001001MA1999999097731MD1999999-0061REMSYN064AAXX  24184 82583 32999 00909 10343 20115 39773 40108 333 59006;EQDQ01  00002PRCP99
0208825830999992001082500004-05170-040670FM-12+029999999V0200901N001512200019N0040001N1+02751+01081101351ADDAA199000091GA1001+999999999GF100991001001999999001001KA1240M+03501MA1999999097951MD1999999-0011REMSYN082AAXX  25004 82583 32996 00903 10275 20108 39795 40135 333 10350 29038 55105 59001;EQDQ01  00002PRCP99
0167825830999992001082518004-05170-040670FM-12+029999999V0200901N004112200019N0500001N1+03431+01481101101ADDAA199000091GF102991021011008001001001MA1999999097751MD1999999+0021REMSYN070AAXX  25184 82583 32599 20908 10343 20148 39775 40110 82100 333 58002;EQDQ01  00002PRCP99
0198825830999992001082600004-05170-040670FM-12+029999999V0200901N002112200019N0040001N1+02901+01441101371ADDAA199000091GF102991021011008001001001KA1240M+03521MA1999999098011MD1999999+0061REMSYN088AAXX  26004 82583 32596 20904 10290 20144 39801 40137 82100 333 10352 29042 55106 58006;EQDQ01  00002PRCP99
0186825830999992001082612004-05170-040670FM-12+029999999V0200901N005712200019N0500001N1+02781+01761101591ADDAA199000091GF101991011011008001001001KA1240N+01281MA1999999098231MD1999999+0141REMSYN076AAXX  26124 82583 32599 10911 10278 20176 39823 40159 81100 333 20128 58014;EQDQ01  00002PRCP99
0167825830999992001082618004-05170-040670FM-12+029999999V0200901N005112200019N0500001N1+03521+01281101121ADDAA199000091GF102991021011008001001001MA1999999097781MD1999999+0031REMSYN070AAXX  26184 82583 32599 20910 10352 20128 39778 40112 82100 333 58003;EQDQ01  00002PRCP99
0208825830999992001082700004-05170-040670FM-12+029999999V0200901N003112200019N0040001N1+02901+01521101311ADDAA199000091GA1001+999999999GF100991001001999999001001KA1240M+03551MA1999999097951MD1999999-0061REMSYN082AAXX  27004 82583 32996 00906 10290 20152 39795 40131 333 10355 29042 55103 59006;EQDQ01  00002PRCP99
0186825830999992001082712004-05170-040670FM-12+029999999V0200901N006210075019N0500001N1+02711+01851101601ADDAA199000091GF105991051011008001001001KA1240N+02251MA1999999098241MD1999999+0011REMSYN076AAXX  27124 82583 32599 50912 10271 20185 39824 40160 85100 333 20225 58001;EQDQ01  00002PRCP99
0167825830999992001082718004-05170-040670FM-12+029999999V0201401N004112200019N0500001N1+03371+01381101111ADDAA199000091GF101991011011008001001001MA1999999097771MD1999999-0011REMSYN070AAXX  27184 82583 32599 11408 10337 20138 39777 40111 81100 333 59001;EQDQ01  00002PRCP99
0208825830999992001082800004-05170-040670FM-12+029999999V0200901N003112200019N0040001N1+02871+01621101361ADDAA199000091GA1001+999999999GF100991001001999999001001KA1240M+03491MA1999999098001MD1999999+0051REMSYN082AAXX  28004 82583 32996 00906 10287 20162 39800 40136 333 10349 29040 55106 58005;EQDQ01  00002PRCP99
0186825830999992001082812004-05170-040670FM-12+029999999V0200501N004610075019N0500001N1+02811+01771101541ADDAA199000091GF106991061021008001001001KA1240N+02241MA1999999098181MD1999999-0061REMSYN076AAXX  28124 82583 32599 60509 10281 20177 39818 40154 86200 333 20224 59006;EQDQ01  00002PRCP99
0167825830999992001082818004-05170-040670FM-12+029999999V0200501N004612200019N0500001N1+03411+01651101111ADDAA199000091GF103991031021008001001001MA1999999097761MD1999999-0011REMSYN070AAXX  28184 82583 32599 30509 10341 20165 39776 40111 83200 333 59001;EQDQ01  00002PRCP99
0208825830999992001082900004-05170-040670FM-12+029999999V0200901N002612200019N0040001N1+02871+01601101281ADDAA199000091GA1001+999999999GF100991001001999999001001KA1240M+03521MA1999999097941MD1999999-0061REMSYN082AAXX  29004 82583 32996 00905 10287 20160 39794 40128 333 10352 29045 55097 59006;EQDQ01  00002PRCP99
0186825830999992001082912004-05170-040670FM-12+029999999V0200901N004110075019N0500001N1+02711+01951101481ADDAA199000091GF106991061021008001001001KA1240N+02451MA1999999098121MD1999999-0061REMSYN076AAXX  29124 82583 32599 60908 10271 20195 39812 40148 86200 333 20245 59006;EQDQ01  00002PRCP99
0167825830999992001082918004-05170-040670FM-12+029999999V0200901N004112200019N0500001N1+03421+01911101031ADDAA199000091GF103991031021008001001001MA1999999097691MD1999999-0071REMSYN070AAXX  29184 82583 32599 30908 10342 20191 39769 40103 83200 333 59007;EQDQ01  00002PRCP99
0213825830999992001083000004-05170-040670FM-12+029999999V0200901N001512200019N0040001N1+02801+99999101281ADDAA106000391AY161061AY261061GF102991021011008001001001KA1240M+03491MA1999999097921MD1999999-0021MW1021REMSYN100AAXX  30004 82583 21596 20903 10280 20292 39792 40128 70266 82100 333 10349 29055 55084 59002 69931;
0173825830999992001083012004-05170-040670FM-12+029999999V0200901N005112200019N0500001N1+02691+01941101541ADDAA124000391GF103991031011008001001001KA1240N+02201MA1999999098161MD1999999+0041REMSYN082AAXX  30124 82583 22599 30910 10269 20194 39816 40154 83100 333 20220 58004 69934;
0177825830999992001083018004-05170-040670FM-12+029999999V0200901N005112200019N0500001N1+03601+01161100981ADDAA199000091GA1001+999999999GF100991001001999999001001MA1999999097661MD1999999-0031REMSYN064AAXX  30184 82583 32999 00910 10360 20116 39766 40098 333 59003;EQDQ01  00002PRCP99
0186825830999992001083112004-05170-040670FM-12+029999999V0200901N006712200019N0500001N1+02811+01771101511ADDAA199000091GF103991031011008001001001KA1240N+02301MA1999999098151MD1999999-0011REMSYN076AAXX  31124 82583 32599 30913 10281 20177 39815 40151 83100 333 20230 59001;EQDQ01  00002PRCP99
0177825830999992001083118004-05170-040670FM-12+029999999V0200901N004112200019N0500001N1+03511+01091100951ADDAA199000091GA1001+999999999GF100991001001999999001001MA1999999097631MD1999999+0031REMSYN064AAXX  31184 82583 32999 00908 10351 20109 39763 40095 333 58003;EQDQ01  00002PRCP99
0188825830999992001090100004-05170-040670FM-12+029999999V0200901N002112200019N0040001N1+02871+01351101281ADDAA199000091GA1001+999999999GF100991001001999999001001KA1240M+03561MA1999999097941REMSYN076AAXX  01004 82583 32996 00904 10287 20135 39794 40128 333 10356 29038 55903;EQDQ01  00002PRCP99
0186825830999992001090112004-05170-040670FM-12+029999999V0200901N005112200019N0020001N1+02761+01701101501ADDAA199000091GF102991021011008001001001KA1240N+02251MA1999999098141MD1999999-0051REMSYN076AAXX  01124 82583 32595 20910 10276 20170 39814 40150 82100 333 20225 59005;EQDQ01  00002PRCP99
0183825830999992001090118004-05170-040670FM-12+029999999V0200901N005112200019N0500001N1+03341+01241101051ADDAA199000091GF101991999011008001001001MA1999999097711MD1999999+0081REMSYN070AAXX  01184 82583 32599 10910 10334 20124 39771 40105 82100 333 58008;EQDQ01+000022SCOTLCQ02  00002PRCP99
0198825830999992001090200004-05170-040670FM-12+029999999V0201401N002612200019N0040001N1+02771+01481101241ADDAA199000091GF101991011011008001001001KA1240M+03481MA1999999097891MD1999999-0011REMSYN088AAXX  02004 82583 32596 11405 10277 20148 39789 40124 81100 333 10348 29043 55106 59001;EQDQ01  00002PRCP99
0186825830999992001090212004-05170-040670FM-12+029999999V0200901N004610075019N0500001N1+02641+01931101501ADDAA199000091GF105991051021008001001001KA1240N+02241MA1999999098131MD1999999-0011REMSYN076AAXX  02124 82583 32599 50909 10264 20193 39813 40150 85200 333 20224 59001;EQDQ01  00002PRCP99
0167825830999992001090218004-05170-040670FM-12+029999999V0200901N005112200019N0500001N1+03431+01381101001ADDAA199000091GF102991021011008001001001MA1999999097661MD1999999-0051REMSYN070AAXX  02184 82583 32599 20910 10343 20138 39766 40100 82100 333 59005;EQDQ01  00002PRCP99
0198825830999992001090300004-05170-040670FM-12+029999999V0200901N002112200019N0040001N1+02831+01391101221ADDAA199000091GF101991011011008001001001KA1240M+03521MA1999999097861MD1999999-0031REMSYN088AAXX  03004 82583 32596 10904 10283 20139 39786 40122 81100 333 10352 29044 55102 59003;EQDQ01  00002PRCP99
0186825830999992001090312004-05170-040670FM-12+029999999V0200901N005710075019N0500001N1+02721+01881101381ADDAA199000091GF106991061021008001001001KA1240N+02381MA1999999098021MD1999999-0111REMSYN076AAXX  03124 82583 32599 60911 10272 20188 39802 40138 86200 333 20238 59011;EQDQ01  00002PRCP99
0167825830999992001090318004-05170-040670FM-12+029999999V0200901N004610075019N0500001N1+03311+01741101011ADDAA199000091GF105991051021008001001001MA1999999097671MD1999999+0011REMSYN070AAXX  03184 82583 32599 50909 10331 20174 39767 40101 85200 333 58001;EQDQ01  00002PRCP99
0198825830999992001090400004-05170-040670FM-12+029999999V0200901N002112200019N0040001N1+02701+01721101241ADDAA199000091GF101991011011008001001001KA1240M+03351MA1999999097881MD1999999+0021REMSYN088AAXX  04004 82583 32596 10904 10270 20172 39788 40124 81100 333 10335 29052 55106 58002;EQDQ01  00002PRCP99
0186825830999992001090412004-05170-040670FM-12+029999999V0200901N005110120019N0500001N1+02701+01881101411ADDAA199000091GF107991071081008001001001KA1240N+02291MA1999999098041MD1999999+0021REMSYN076AAXX  04124 82583 32599 70910 10270 20188 39804 40141 87800 333 20229 58002;EQDQ01  00002PRCP99
0167825830999992001090418004-05170-040670FM-12+029999999V0201401N003112200019N0500001N1+03491+01531100911ADDAA199000091GF102991021011008001001001MA1999999097591MD1999999-0081REMSYN070AAXX  04184 82583 32599 21406 10349 20153 39759 40091 82100 333 59008;EQDQ01  00002PRCP99
0208825830999992001090500004-05170-040670FM-12+029999999V0200901N003112200019N0040001N1+02941+01441101131ADDAA199000091GA1001+999999999GF100991001001999999001001KA1240M+03531MA1999999097781MD1999999-0101REMSYN082AAXX  05004 82583 32996 00906 10294 20144 39778 40113 333 10353 29043 55090 59010;EQDQ01  00002PRCP99
0186825830999992001090512004-05170-040670FM-12+029999999V0200901N003110120019N0500001N1+02651+01971101421ADDAA199000091GF108991081081008001999999KA1240N+02271MA1999999098061MD1999999+0021REMSYN076AAXX  05124 82583 32599 80906 10265 20197 39806 40142 888// 333 20227 58002;EQDQ01  00002PRCP99
0167825830999992001090518004-05170-040670FM-12+029999999V0200901N005112200019N0500001N1+03421+01561100941ADDAA199000091GF103991031011008001001001MA1999999097601MD1999999+0011REMSYN070AAXX  05184 82583 32599 30910 10342 20156 39760 40094 83100 333 58001;EQDQ01  00002PRCP99
0208825830999992001090600004-05170-040670FM-12+029999999V0200901N002612200019N0040001N1+02871+01421101091ADDAA199000091GA1001+999999999GF100991001001999999001001KA1240M+03521MA1999999097741MD1999999-0041REMSYN082AAXX  06004 82583 32996 00905 10287 20142 39774 40109 333 10352 29045 55079 59004;EQDQ01  00002PRCP99
0186825830999992001090612004-05170-040670FM-12+029999999V0200901N004110075019N0500001N1+02861+01841101321ADDAA199000091GF105991051021008001001001KA1240N+02211MA1999999097971MD1999999-0091REMSYN076AAXX  06124 82583 32599 50908 10286 20184 39797 40132 85200 333 20221 59009;EQDQ01  00002PRCP99
0167825830999992001090618004-05170-040670FM-12+029999999V0201801N003612200019N0500001N1+03501+01481100821ADDAA199000091GF102991021011008001001001MA1999999097491MD1999999-0111REMSYN070AAXX  06184 82583 32599 21807 10350 20148 39749 40082 82100 333 59011;EQDQ01  00002PRCP99
0208825830999992001090700004-05170-040670FM-12+029999999V0200901N001512200019N0040001N1+02901+01361100921ADDAA199000091GA1001+999999999GF100991001001999999001001KA1240M+03581MA1999999097591MD1999999-0151REMSYN082AAXX  07004 82583 32996 00903 10290 20136 39759 40092 333 10358 29041 55107 59015;EQDQ01  00002PRCP99
0186825830999992001090712004-05170-040670FM-12+029999999V0200901N002610075019N0500001N1+02711+01931101251ADDAA199000091GF106991051021008001001011KA1240N+02321MA1999999097901MD1999999-0071REMSYN076AAXX  07124 82583 32599 60905 10271 20193 39790 40125 85201 333 20232 59007;EQDQ01  00002PRCP99
0167825830999992001090718004-05170-040670FM-12+029999999V0200901N001012200019N0500001N1+03391+01481100741ADDAA199000091GF103991031021008001001001MA1999999097411MD1999999-0081REMSYN070AAXX  07184 82583 32599 30902 10339 20148 39741 40074 83200 333 59008;EQDQ01  00002PRCP99
0208825830999992001090800004-05170-040670FM-12+029999999V0200501N001012200019N0040001N1+02881+01501100951ADDAA199000091GA1001+999999999GF100991001001999999001001KA1240M+03521MA1999999097611MD1999999+0021REMSYN082AAXX  08004 82583 32996 00502 10288 20150 39761 40095 333 10352 29046 55096 58002;EQDQ01  00002PRCP99
0167825830999992001090818004-05170-040670FM-12+029999999V0200901N003112200019N0500001N1+03441+01431100841ADDAA199000091GF102991021011008001001001MA1999999097511MD1999999+0101REMSYN070AAXX  08184 82583 32599 20906 10344 20143 39751 40084 82100 333 58010;EQDQ01  00002PRCP99
0198825830999992001090900004-05170-040670FM-12+029999999V0200901N001512200019N0040001N1+03021+01431101031ADDAA199000091GF101991011011008001001001KA1240M+03571MA1999999097701MD1999999+0091REMSYN088AAXX  09004 82583 32596 10903 10302 20143 39770 40103 81100 333 10357 29041 55102 58009;EQDQ01  00002PRCP99
0202825830999992001090912004-05170-040670FM-12+029999999V0200901N005712200019N0500001N1+02771+01911101531ADDAA199000091GF102991999021008001001001KA1240N+02301MA1999999098171MD1999999+0221REMSYN076AAXX  09124 82583 32599 20911 10277 20191 39817 40153 83200 333 20230 58022;EQDQ01+000032SCOTLCQ02  00002PRCP99
0167825830999992001090918004-05170-040670FM-12+029999999V0201401N003112200019N0500001N1+03441+01581100991ADDAA199000091GF102991021011008001001001MA1999999097651MD1999999+0141REMSYN070AAXX  09184 82583 32599 21406 10344 20158 39765 40099 82100 333 58014;EQDQ01  00002PRCP99
0208825830999992001091000004-05170-040670FM-12+029999999V0200501N001512200019N0040001N1+02941+01481101181ADDAA199000091GA1001+999999999GF100991001001999999001001KA1240M+03521MA1999999097841MD1999999+0141REMSYN082AAXX  10004 82583 32996 00503 10294 20148 39784 40118 333 10352 29044 55105 58014;EQDQ01  00002PRCP99
0186825830999992001091012004-05170-040670FM-12+029999999V0200501N004610075019N0500001N1+02781+01981101441ADDAA199000091GF106991061021008001001001KA1240N+02311MA1999999098081MD1999999-0091REMSYN076AAXX  10124 82583 32599 60509 10278 20198 39808 40144 86200 333 20231 59009;EQDQ01  00002PRCP99
0208825830999992001091100004-05170-040670FM-12+029999999V0200901N000512200019N0040001N1+03001+01461101111ADDAA199000091GA1001+999999999GF100991001001999999001001KA1240M+03601MA1999999097771MD1999999-0071REMSYN082AAXX  11004 82583 32996 00901 10300 20146 39777 40111 333 10360 29046 55081 59007;EQDQ01  00002PRCP99
0186825830999992001091112004-05170-040670FM-12+029999999V0203601N005112200019N0500001N1+02781+01981101351ADDAA199000091GF102991011011008001031001KA1240N+02431MA1999999098001MD1999999-0081REMSYN076AAXX  11124 82583 32599 23610 10278 20198 39800 40135 81130 333 20243 59008;EQDQ01  00002PRCP99
0167825830999992001091118004-05170-040670FM-12+029999999V0200901N005112200019N0500001N1+03591+01581100871ADDAA199000091GF104991041021008001001001MA1999999097551MD1999999-0021REMSYN070AAXX  11184 82583 32599 40910 10359 20158 39755 40087 84200 333 59002;EQDQ01  00002PRCP99
0208825830999992001091200004-05170-040670FM-12+029999999V0200501N001512200019N0040001N1+03011+01621101021ADDAA199000091GA1001+999999999GF100991001001999999001001KA1240M+03651MA1999999097681MD1999999-0071REMSYN082AAXX  12004 82583 32996 00503 10301 20162 39768 40102 333 10365 29045 55096 59007;EQDQ01  00002PRCP99
0202825830999992001091212004-05170-040670FM-12+029999999V0200501N004612200019N0500001N1+02791+01811101371ADDAA199000091GF102991999011008001001001KA1240N+02371MA1999999098021MD1999999+0021REMSYN076AAXX  12124 82583 32599 20509 10279 20181 39802 40137 81100 333 20237 58002;EQDQ01+000012SCOTLCQ02  00002PRCP99
0167825830999992001091218004-05170-040670FM-12+029999999V0200901N003612200019N0500001N1+03591+01571100801ADDAA199000091GF102991021011008001001001MA1999999097481MD1999999-0071REMSYN070AAXX  12184 82583 32599 20907 10359 20157 39748 40080 82100 333 59007;EQDQ01  00002PRCP99
0208825830999992001091300004-05170-040670FM-12+029999999V0203601N003612200019N0040001N1+03021+01591101121ADDAA199000091GA1001+999999999GF100991001001999999001001KA1240M+03631MA1999999097781MD1999999+0101REMSYN082AAXX  13004 82583 32996 03607 10302 20159 39778 40112 333 10363 29042 55094 58010;EQDQ01  00002PRCP99
0186825830999992001091312004-05170-040670FM-12+029999999V0200501N006212200019N0500001N1+02771+01701101511ADDAA199000091GF104991041011008001001001KA1240N+02211MA1999999098161MD1999999+0141REMSYN076AAXX  13124 82583 32599 40512 10277 20170 39816 40151 84100 333 20221 58014;EQDQ01  00002PRCP99
0167825830999992001091318004-05170-040670FM-12+029999999V0200501N005112200019N0500001N1+03421+01251101021ADDAA199000091GF101991011011008001001001MA1999999097681MD1999999+0201REMSYN070AAXX  13184 82583 32599 10510 10342 20125 39768 40102 81100 333 58020;EQDQ01  00002PRCP99
0208825830999992001091400004-05170-040670FM-12+029999999V0200501N001512200019N0040001N1+02821+01371101291ADDAA199000091GA1001+999999999GF100991001001999999001001KA1240M+03501MA1999999097941MD1999999+0161REMSYN082AAXX  14004 82583 32996 00503 10282 20137 39794 40129 333 10350 29040 55090 58016;EQDQ01  00002PRCP99
0186825830999992001091412004-05170-040670FM-12+029999999V0200901N002110120019N0500001N1+02651+01901101481ADDAA199000091GF107991071081008001001001KA1240N+02171MA1999999098121MD1999999-0041REMSYN076AAXX  14124 82583 32599 70904 10265 20190 39812 40148 87800 333 20217 59004;EQDQ01  00002PRCP99
0167825830999992001091418004-05170-040670FM-12+029999999V0200901N002112200019N0500001N1+03411+01561100861ADDAA199000091GF102991021011008001001001MA1999999097521MD1999999-0161REMSYN070AAXX  14184 82583 32599 20904 10341 20156 39752 40086 82100 333 59016;EQDQ01  00002PRCP99
0198825830999992001091500004-05170-040670FM-12+029999999V0200501N001512200019N0040001N1+02881+01531101121ADDAA199000091GF101991011011008001001001KA1240M+03481MA1999999097771MD1999999-0171REMSYN088AAXX  15004 82583 32596 10503 10288 20153 39777 40112 81100 333 10348 29046 55074 59017;EQDQ01  00002PRCP99
0202825830999992001091512004-05170-040670FM-12+029999999V0200901N003612200019N0500001N1+02861+01841101331ADDAA199000091GF101991999011008001001001KA1240N+02191MA1999999097971MD1999999-0151REMSYN076AAXX  15124 82583 32599 10907 10286 20184 39797 40133 82100 333 20219 59015;EQDQ01+000022SCOTLCQ02  00002PRCP99
0167825830999992001091518004-05170-040670FM-12+029999999V0200901N002112200019N0020001N1+03541+01411100781ADDAA199000091GF102991021011008001001001MA1999999097451MD1999999-0071REMSYN070AAXX  15184 82583 32595 20904 10354 20141 39745 40078 82100 333 59007;EQDQ01  00002PRCP99
0208825830999992001091600004-05170-040670FM-12+029999999V0200901N001512200019N0040001N1+02971+01311101321ADDAA199000091GA1001+999999999GF100991001001999999001001KA1240M+03621MA1999999097681MD1999999-0091REMSYN082AAXX  16004 82583 32996 00903 10297 20131 39768 40132 333 10362 29039 55098 59009;EQDQ01  00002PRCP99
0186825830999992001091612004-05170-040670FM-12+029999999V0200901N003112200019N0500001N1+02751+02011101461ADDAA199000091GF102991021011008001001001KA1240N+02281MA1999999098111MD1999999+0141REMSYN076AAXX  16124 82583 32599 20906 10275 20201 39811 40146 82100 333 20228 58014;EQDQ01  00002PRCP99
0208825830999992001091700004-05170-040670FM-12+029999999V0203601N002112200019N0040001N1+03111+01301101151ADDAA199000091GA1001+999999999GF100991001001999999001001KA1240M+03781MA1999999097811MD1999999+0131REMSYN082AAXX  17004 82583 32996 03604 10311 20130 39781 40115 333 10378 29040 55094 58013;EQDQ01  00002PRCP99
0186825830999992001091712004-05170-040670FM-12+029999999V0200501N002610075019N0500001N1+02831+01881101441ADDAA199000091GF106991061021008001001001KA1240N+02251MA1999999098101MD1999999-0011REMSYN076AAXX  17124 82583 32599 60505 10283 20188 39810 40144 86200 333 20225 59001;EQDQ01  00002PRCP99
0167825830999992001091718004-05170-040670FM-12+029999999V0203201N001512200019N0500001N1+03541+01571100921ADDAA199000091GF102991021011008001001001MA1999999097601MD1999999-0031REMSYN070AAXX  17184 82583 32599 23203 10354 20157 39760 40092 82100 333 59003;EQDQ01  00002PRCP99
0208825830999992001091800004-05170-040670FM-12+029999999V0202701N003112200019N0040001N1+03041+01451101231ADDAA199000091GA1001+999999999GF100991001001999999001001KA1240M+03621MA1999999097891MD1999999+0081REMSYN082AAXX  18004 82583 32996 02706 10304 20145 39789 40123 333 10362 29041 55086 58008;EQDQ01  00002PRCP99
0186825830999992001091812004-05170-040670FM-12+029999999V0200901N001510075019N0500001N1+02731+02001101441ADDAA199000091GF106991061021008001001001KA1240N+02331MA1999999098091MD1999999-0011REMSYN076AAXX  18124 82583 32599 60903 10273 20200 39809 40144 86200 333 20233 59001;EQDQ01  00002PRCP99
0167825830999992001091818004-05170-040670FM-12+029999999V0200501N004612200019N0500001N1+03451+01641100921ADDAA199000091GF104991041021008001001001MA1999999097591MD1999999-0011REMSYN070AAXX  18184 82583 32599 40509 10345 20164 39759 40092 84200 333 59001;EQDQ01  00002PRCP99
0208825830999992001091900004-05170-040670FM-12+029999999V0201401N003112200019N0040001N1+02911+01421101121ADDAA199000091GA1001+999999999GF100991001001999999001001KA1240M+03571MA1999999097771MD1999999-0121REMSYN082AAXX  19004 82583 32996 01406 10291 20142 39777 40112 333 10357 29045 55071 59012;EQDQ01  00002PRCP99
0186825830999992001091912004-05170-040670FM-12+029999999V0200901N004610120019N0500001N1+02521+02021101401ADDAA199000091GF107991071081008001001001KA1240N+02451MA1999999098081MD1999999-0061REMSYN076AAXX  19124 82583 32599 70909 10252 20202 39808 40140 87800 333 20245 59006;EQDQ01  00002PRCP99
0198825830999992001092000004-05170-040670FM-12+029999999V0200901N000512200019N0040001N1+02771+01441101201ADDAA199000091GF102991021011008001001001KA1240M+03481MA1999999097841MD1999999+0071REMSYN088AAXX  20004 82583 32596 20901 10277 20144 39784 40120 82100 333 10348 29049 55072 58007;EQDQ01  00002PRCP99
0167825830999992001092018004-05170-040670FM-12+029999999V0200901N003112200019N0500001N1+03411+01311100881ADDAA199000091GF102991021011008001001001MA1999999097551MD1999999-0071REMSYN070AAXX  20184 82583 32599 20906 10341 20131 39755 40088 82100 333 59007;EQDQ01  00002PRCP99
0208825830999992001092100004-05170-040670FM-12+029999999V0200901N002112200019N0040001N1+02781+01371101101ADDAA199000091GA1001+999999999GF100991001001999999001001KA1240M+03481MA1999999097761MD1999999-0081REMSYN082AAXX  21004 82583 32996 00904 10278 20137 39776 40110 333 10348 29041 55089 59008;EQDQ01  00002PRCP99
0186825830999992001092112004-05170-040670FM-12+029999999V0200901N004110075019N0500001N1+02831+01881101321ADDAA199000091GF106991061021008001001001KA1240N+02241MA1999999097971MD1999999+0011REMSYN076AAXX  21124 82583 32599 60908 10283 20188 39797 40132 86200 333 20224 58001;EQDQ01  00002PRCP99
0167825830999992001092118004-05170-040670FM-12+029999999V0200901N004112200019N0500001N1+03491+01431100871ADDAA199000091GF104991041021008001001001MA1999999097541MD1999999-0011REMSYN070AAXX  21184 82583 32599 40908 10349 20143 39754 40087 84200 333 59001;EQDQ01  00002PRCP99
0208825830999992001092200004-05170-040670FM-12+029999999V0200901N002612200019N0040001N1+02901+01321101111ADDAA199000091GA1001+999999999GF100991001001999999001001KA1240M+03521MA1999999097771MD1999999+0011REMSYN082AAXX  22004 82583 32996 00905 10290 20132 39777 40111 333 10352 29040 55091 58001;EQDQ01  00002PRCP99
0186825830999992001092212004-05170-040670FM-12+029999999V0200901N005712200019N0500001N1+02851+01811101411ADDAA199000091GF102991021011008001001001KA1240N+02411MA1999999098061MD1999999+0101REMSYN076AAXX  22124 82583 32599 20911 10285 20181 39806 40141 82100 333 20241 58010;EQDQ01  00002PRCP99
0167825830999992001092218004-05170-040670FM-12+029999999V0200901N004112200019N0500001N1+03431+01081100951ADDAA199000091GF104991041021008001001001MA1999999097621MD1999999+0081REMSYN070AAXX  22184 82583 32599 40908 10343 20108 39762 40095 84200 333 58008;EQDQ01  00002PRCP99
0208825830999992001092300004-05170-040670FM-12+029999999V0200901N002112200019N0040001N1+02861+01411101101ADDAA199000091GA1001+999999999GF100991001001999999001001KA1240M+03491MA1999999097761MD1999999-0011REMSYN082AAXX  23004 82583 32996 00904 10286 20141 39776 40110 333 10349 29042 55083 59001;EQDQ01  00002PRCP99
0186825830999992001092312004-05170-040670FM-12+029999999V0200901N004612200019N0500001N1+02801+01841101371ADDAA199000091GF102991021011008001001001KA1240N+02241MA1999999098011MD1999999-0051REMSYN076AAXX  23124 82583 32599 20909 10280 20184 39801 40137 82100 333 20224 59005;EQDQ01  00002PRCP99
0167825830999992001092318004-05170-040670FM-12+029999999V0200901N002112200019N0500001N1+03471+01521100821ADDAA199000091GF103991031021008001001001MA1999999097481MD1999999-0141REMSYN070AAXX  23184 82583 32599 30904 10347 20152 39748 40082 83200 333 59014;EQDQ01  00002PRCP99
0198825830999992001092400004-05170-040670FM-12+029999999V0200901N001512200019N0040001N1+03081+01361101031ADDAA199000091GF101991011011008001001001KA1240M+03661MA1999999097701MD1999999-0061REMSYN088AAXX  24004 82583 32596 10903 10308 20136 39770 40103 81100 333 10366 29039 55105 59006;EQDQ01  00002PRCP99
0186825830999992001092412004-05170-040670FM-12+029999999V0200901N005712200019N0500001N1+02821+01651101361ADDAA199000091GF102991011011008001001011KA1240N+02351MA1999999098021MD1999999+0011REMSYN076AAXX  24124 82583 32599 20911 10282 20165 39802 40136 81101 333 20235 58001;EQDQ01  00002PRCP99
0167825830999992001092418004-05170-040670FM-12+029999999V0200901N004612200019N0500001N1+03531+01351100851ADDAA199000091GF102991011011008001001011MA1999999097531MD1999999+0051REMSYN070AAXX  24184 82583 32599 20909 10353 20135 39753 40085 81101 333 58005;EQDQ01  00002PRCP99
0208825830999992001092500004-05170-040670FM-12+029999999V0200501N002112200019N0040001N1+02901+01061101121ADDAA199000091GA1001+999999999GF100991001001999999001001KA1240M+03601MA1999999097781MD1999999+0081REMSYN082AAXX  25004 82583 32996 00504 10290 20106 39778 40112 333 10360 29035 55108 58008;EQDQ01  00002PRCP99
0186825830999992001092512004-05170-040670FM-12+029999999V0200901N004610075019N0500001N1+02871+01891101371ADDAA199000091GF106991061021008001001001KA1240N+02401MA1999999098021MD1999999+0001REMSYN076AAXX  25124 82583 32599 60909 10287 20189 39802 40137 86200 333 20240 58000;EQDQ01  00002PRCP99
0167825830999992001092518004-05170-040670FM-12+029999999V0200501N004612200019N0500001N1+03491+01531100861ADDAA199000091GF102991011011008001001011MA1999999097541MD1999999+0011REMSYN070AAXX  25184 82583 32599 20509 10349 20153 39754 40086 81101 333 58001;EQDQ01  00002PRCP99
0214825830999992001092600004-05170-040670FM-12+029999999V0200501N003112200019N0040001N1+02951+01531101281ADDAA199000091GF101991999011008001001001KA1240M+03581MA1999999097841MD1999999+0051REMSYN088AAXX  26004 82583 32596 10506 10295 20153 39784 40128 82100 333 10358 29042 55100 58005;EQDQ01+000022SCOTLCQ02  00002PRCP99
0186825830999992001092612004-05170-040670FM-12+029999999V0200901N006210075019N0500001N1+02751+01831101451ADDAA199000091GF107991071021008001001001KA1240N+02441MA1999999098091MD1999999+0071REMSYN076AAXX  26124 82583 32599 70912 10275 20183 39809 40145 87200 333 20244 58007;EQDQ01  00002PRCP99
0167825830999992001092618004-05170-040670FM-12+029999999V0200901N004612200019N0500001N1+03531+01621100841ADDAA199000091GF102991021011008001001001MA1999999097521MD1999999-0021REMSYN070AAXX  26184 82583 32599 20909 10353 20162 39752 40084 82100 333 59002;EQDQ01  00002PRCP99
0208825830999992001092700004-05170-040670FM-12+029999999V0200901N002112200019N0040001N1+02901+01441101091ADDAA199000091GA1001+999999999GF100991001001999999001001KA1240M+03581MA1999999097751MD1999999-0091REMSYN082AAXX  27004 82583 32996 00904 10290 20144 39775 40109 333 10358 29043 55095 59009;EQDQ01  00002PRCP99
0186825830999992001092712004-05170-040670FM-12+029999999V0200501N006710075019N0500001N1+02711+01791101441ADDAA199000091GF106991061021008001001001KA1240N+02331MA1999999098081MD1999999-0011REMSYN076AAXX  27124 82583 32599 60513 10271 20179 39808 40144 86200 333 20233 59001;EQDQ01  00002PRCP99
0167825830999992001092718004-05170-040670FM-12+029999999V0200501N003112200019N0500001N1+03511+01551100871ADDAA199000091GF102991021011008001001001MA1999999097541MD1999999+0021REMSYN070AAXX  27184 82583 32599 20506 10351 20155 39754 40087 82100 333 58002;EQDQ01  00002PRCP99
0208825830999992001092800004-05170-040670FM-12+029999999V0200901N002612200019N0040001N1+02921+01551101111ADDAA199000091GA1001+999999999GF100991001001999999001001KA1240M+03521MA1999999097771MD1999999+0021REMSYN082AAXX  28004 82583 32996 00905 10292 20155 39777 40111 333 10352 29043 55091 58002;EQDQ01  00002PRCP99
0183825830999992001092818004-05170-040670FM-12+029999999V0200901N003612200019N0500001N1+03561+01481100901ADDAA199000091GF102991999011008001001001MA1999999097581MD1999999+0041REMSYN070AAXX  28184 82583 32599 20907 10356 20148 39758 40090 81100 333 58004;EQDQ01+000012SCOTLCQ02  00002PRCP99
0208825830999992001092900004-05170-040670FM-12+029999999V0200901N003112200019N0040001N1+02961+01341101181ADDAA199000091GA1001+999999999GF100991001001999999001001KA1240M+03631MA1999999097841MD1999999+0071REMSYN082AAXX  29004 82583 32996 00906 10296 20134 39784 40118 333 10363 29039 55093 58007;EQDQ01  00002PRCP99
0186825830999992001092912004-05170-040670FM-12+029999999V0200901N004610075019N0500001N1+02801+01751101501ADDAA199000091GF106991061021008001001001KA1240N+02301MA1999999098151MD1999999+0041REMSYN076AAXX  29124 82583 32599 60909 10280 20175 39815 40150 86200 333 20230 58004;EQDQ01  00002PRCP99
0167825830999992001092918004-05170-040670FM-12+029999999V0200901N005112200019N0500001N1+03061+01471101071ADDAA199000091GF102991021011008001001001MA1999999097711MD1999999+0131REMSYN070AAXX  29184 82583 32599 20910 10306 20147 39771 40107 82100 333 58013;EQDQ01  00002PRCP99
0198825830999992001093000004-05170-040670FM-12+029999999V0200501N001012200019N0040001N1+02931+01361101271ADDAA199000091GF101991011011008001001001KA1240M+03591MA1999999097931MD1999999+0091REMSYN088AAXX  30004 82583 32596 10502 10293 20136 39793 40127 81100 333 10359 29042 55085 58009;EQDQ01  00002PRCP99
0186825830999992001093012004-05170-040670FM-12+029999999V0200901N006212200019N0500001N1+02901+01781101521ADDAA199000091GF101991011011008001001001KA1240N+02361MA1999999098171MD1999999+0021REMSYN076AAXX  30124 82583 32599 10912 10290 20178 39817 40152 81100 333 20236 58002;EQDQ01  00002PRCP99
0167825830999992001093018004-05170-040670FM-12+029999999V0200901N005112200019N0500001N1+03481+01251101041ADDAA199000091GF102991021011008001001001MA1999999097701MD1999999-0011REMSYN070AAXX  30184 82583 32599 20910 10348 20125 39770 40104 82100 333 59001;EQDQ01  00002PRCP99
0198825830999992001100100004-05170-040670FM-12+029999999V0200901N001012200019N0040001N1+02871+01181101251ADDAA199000091GF102991021011008001001001KA1240M+03601MA1999999097911MD1999999-0021REMSYN088AAXX  01004 82583 32596 20902 10287 20118 39791 40125 82100 333 10360 29037 55101 59002;EQDQ01  00002PRCP99
0161825830999992001100118004-05170-040670FM-12+029999999V0200901N004112200019N0500001N1+03611+00891100941ADDAA199000091GF101991999999999999999999MA1999999097621MD1999999-0081REMSYN064AAXX  01184 82583 32999 10908 10361 20089 39762 40094 333 59008;EQDQ01  00002PRCP99
0208825830999992001100200004-05170-040670FM-12+029999999V0200901N001512200019N0040001N1+02821+00971101251ADDAA199000091GA1001+999999999GF100991001001999999001001KA1240M+03581MA1999999097911MD1999999+0001REMSYN082AAXX  02004 82583 32996 00903 10282 20097 39791 40125 333 10358 29034 55101 58000;EQDQ01  00002PRCP99
0202825830999992001100212004-05170-040670FM-12+029999999V0200501N004619999999N0500001N1+02941+01661101621ADDAA199000091GF108991999011008001001001KA1240N+02371MA1999999098261MD1999999+0121REMSYN076AAXX  02124 82583 32599 80509 10294 20166 39826 40162 81100 333 20237 58012;EQDQ01+000012SCOTLCQ02  00002PRCP99
0167825830999992001100218004-05170-040670FM-12+029999999V0200901N004612200019N0500001N1+03571+01211101031ADDAA199000091GF102991011011008001001011MA1999999097711MD1999999+0091REMSYN070AAXX  02184 82583 32599 20909 10357 20121 39771 40103 81101 333 58009;EQDQ01  00002PRCP99
0208825830999992001100300004-05170-040670FM-12+029999999V0200501N002612200019N0040001N1+03001+01331101321ADDAA199000091GA1001+999999999GF100991001001999999001001KA1240M+03641MA1999999097981MD1999999+0071REMSYN082AAXX  03004 82583 32996 00505 10300 20133 39798 40132 333 10364 29036 55105 58007;EQDQ01  00002PRCP99
0186825830999992001100312004-05170-040670FM-12+029999999V0200501N005112200019N0500001N1+02881+01701101641ADDAA199000091GF102991021011008001001001KA1240N+02281MA1999999098281MD1999999+0021REMSYN076AAXX  03124 82583 32599 20510 10288 20170 39828 40164 82100 333 20228 58002;EQDQ01  00002PRCP99
0167825830999992001100318004-05170-040670FM-12+029999999V0200501N006212200019N0500001N1+03511+01221101141ADDAA199000091GF101991011011008001001001MA1999999097801MD1999999+0091REMSYN070AAXX  03184 82583 32599 10512 10351 20122 39780 40114 81100 333 58009;EQDQ01  00002PRCP99
0208825830999992001100400004-05170-040670FM-12+029999999V0200901N003612200019N0040001N1+02991+01371101381ADDAA199000091GA1001+999999999GF100991001001999999001001KA1240M+03601MA1999999098041MD1999999-0061REMSYN082AAXX  04004 82583 32996 00907 10299 20137 39804 40138 333 10360 29037 55101 59006;EQDQ01  00002PRCP99
0186825830999992001100412004-05170-040670FM-12+029999999V0200901N006212200019N0500001N1+02991+01781101441ADDAA199000091GF101991011011008001001001KA1240N+02311MA1999999097811MD1999999-0181REMSYN076AAXX  04124 82583 32599 10912 10299 20178 39781 40144 81100 333 20231 59018;EQDQ01  00002PRCP99
0167825830999992001100418004-05170-040670FM-12+029999999V0200901N004612200019N0500001N1+03741+00911100931ADDAA199000091GF101991011011008001001001MA1999999097621MD1999999-0181REMSYN070AAXX  04184 82583 32599 10909 10374 20091 39762 40093 81100 333 59018;EQDQ01  00002PRCP99
0208825830999992001100500004-05170-040670FM-12+029999999V0200501N002112200019N0040001N1+03021+01211101171ADDAA199000091GA1001+999999999GF100991001001999999001001KA1240M+03761MA1999999097841MD1999999-0201REMSYN082AAXX  05004 82583 32996 00504 10302 20121 39784 40117 333 10376 29033 55108 59020;EQDQ01  00002PRCP99
0186825830999992001100512004-05170-040670FM-12+029999999V0200501N003612200019N0500001N1+02911+01861101491ADDAA199000091GF101991011011008001001001KA1240N+02351MA1999999098151MD1999999+0051REMSYN076AAXX  05124 82583 32599 10507 10291 20186 39815 40149 81100 333 20235 58005;EQDQ01  00002PRCP99
0167825830999992001100518004-05170-040670FM-12+029999999V0200901N004612200019N0500001N1+03751+01001100841ADDAA199000091GF102991011011008001001011MA1999999097531MD1999999-0091REMSYN070AAXX  05184 82583 32599 20909 10375 20100 39753 40084 81101 333 59009;EQDQ01  00002PRCP99
0208825830999992001100600004-05170-040670FM-12+029999999V0200501N003112200019N0040001N1+03041+01231101051ADDAA199000091GA1001+999999999GF100991001001999999001001KA1240M+03791MA1999999097731MD1999999-0111REMSYN082AAXX  06004 82583 32996 00506 10304 20123 39773 40105 333 10379 29035 55101 59011;EQDQ01  00002PRCP99
0186825830999992001100612004-05170-040670FM-12+029999999V0200501N002610075019N0500001N1+02741+01891101431ADDAA199000091GF106991061021008001001001KA1240N+02361MA1999999098081MD1999999-0071REMSYN076AAXX  06124 82583 32599 60505 10274 20189 39808 40143 86200 333 20236 59007;EQDQ01  00002PRCP99
0186825830999992001100712004-05170-040670FM-12+029999999V0200901N003110075019N0500001N1+02641+02021101351ADDAA199000091GF106991061021008001001001KA1240N+02101MA1999999098001MD1999999-0081REMSYN076AAXX  07124 82583 32599 60906 10264 20202 39800 40135 86200 333 20210 59008;EQDQ01  00002PRCP99
0167825830999992001100718004-05170-040670FM-12+029999999V0200901N003612200019N0500001N1+03431+01581100871ADDAA199000091GF103991031021008001001001MA1999999097541MD1999999-0031REMSYN070AAXX  07184 82583 32599 30907 10343 20158 39754 40087 83200 333 59003;EQDQ01  00002PRCP99
0208825830999992001100800004-05170-040670FM-12+029999999V0200501N002112200019N0040001N1+02971+01511101121ADDAA199000091GA1001+999999999GF100991001001999999001001KA1240M+03521MA1999999097771MD1999999+0061REMSYN082AAXX  08004 82583 32996 00504 10297 20151 39777 40112 333 10352 29046 55063 58006;EQDQ01  00002PRCP99
0186825830999992001100812004-05170-040670FM-12+029999999V0200901N004612200019N0500001N1+02841+01821101301ADDAA199000091GF104991031011008001001011KA1240N+02431MA1999999097961MD1999999-0041REMSYN076AAXX  08124 82583 32599 40909 10284 20182 39796 40130 83101 333 20243 59004;EQDQ01  00002PRCP99
0167825830999992001100818004-05170-040670FM-12+029999999V0200901N004112200019N0500001N1+03531+01461100781ADDAA199000091GF105991041021008001001011MA1999999097461MD1999999-0081REMSYN070AAXX  08184 82583 32599 50908 10353 20146 39746 40078 84201 333 59008;EQDQ01  00002PRCP99
0186825830999992001100912004-05170-040670FM-12+029999999V0200901N004610075019N0500001N1+02811+01891101231ADDAA199000091GF106991061021008001001001KA1240N+02461MA1999999097891MD1999999-0071REMSYN076AAXX  09124 82583 32599 60909 10281 20189 39789 40123 86200 333 20246 59007;EQDQ01  00002PRCP99
0167825830999992001100918004-05170-040670FM-12+029999999V0200901N003612200019N0500001N1+03601+01571100681ADDAA199000091GF103991031011008001001001MA1999999097361MD1999999-0101REMSYN070AAXX  09184 82583 32599 30907 10360 20157 39736 40068 83100 333 59010;EQDQ01  00002PRCP99
0208825830999992001101000004-05170-040670FM-12+029999999V0200501N001512200019N0040001N1+03001+01491100911ADDAA199000091GA1001+999999999GF100991001001999999001001KA1240M+03671MA1999999097581MD1999999-0111REMSYN082AAXX  10004 82583 32996 00503 10300 20149 39758 40091 333 10367 29042 55076 59011;EQDQ01  00002PRCP99
0186825830999992001101012004-05170-040670FM-12+029999999V0200501N005112200019N0500001N1+02901+01901101301ADDAA199000091GF104991041021008001001001KA1240N+02391MA1999999097961MD1999999+0071REMSYN076AAXX  10124 82583 32599 40510 10290 20190 39796 40130 84200 333 20239 58007;EQDQ01  00002PRCP99
0167825830999992001101018004-05170-040670FM-12+029999999V0200901N002612200019N0500001N1+03571+01651100791ADDAA199000091GF104991041011008001001001MA1999999097471MD1999999+0111REMSYN070AAXX  10184 82583 32599 40905 10357 20165 39747 40079 84100 333 58011;EQDQ01  00002PRCP99
0208825830999992001101100004-05170-040670FM-12+029999999V0200501N002612200019N0040001N1+03021+01511101001ADDAA199000091GA1001+999999999GF100991001001999999001001KA1240M+03601MA1999999097681MD1999999+0101REMSYN082AAXX  11004 82583 32996 00505 10302 20151 39768 40100 333 10360 29042 55092 58010;EQDQ01  00002PRCP99
0186825830999992001101112004-05170-040670FM-12+029999999V0200501N005112200019N0500001N1+02931+01791101261ADDAA199000091GF104991041011008001001001KA1240N+02391MA1999999097931MD1999999-0031REMSYN076AAXX  11124 82583 32599 40510 10293 20179 39793 40126 84100 333 20239 59003;EQDQ01  00002PRCP99
0167825830999992001101118004-05170-040670FM-12+029999999V0200901N004612200019N0500001N1+03501+01631100801ADDAA199000091GF103991031011008001001001MA1999999097481MD1999999+0011REMSYN070AAXX  11184 82583 32599 30909 10350 20163 39748 40080 83100 333 58001;EQDQ01  00002PRCP99
0208825830999992001101200004-05170-040670FM-12+029999999V0200501N001012200019N0040001N1+02991+01531100951ADDAA199000091GA1001+999999999GF100991001001999999001001KA1240M+03571MA1999999097631MD1999999-0051REMSYN082AAXX  12004 82583 32996 00502 10299 20153 39763 40095 333 10357 29041 55095 59005;EQDQ01  00002PRCP99
0186825830999992001101212004-05170-040670FM-12+029999999V0200901N006210075019N0500001N1+02871+01911101321ADDAA199000091GF106991061021008001001001KA1240N+02441MA1999999097971MD1999999+0041REMSYN076AAXX  12124 82583 32599 60912 10287 20191 39797 40132 86200 333 20244 58004;EQDQ01  00002PRCP99
0167825830999992001101218004-05170-040670FM-12+029999999V0200901N004612200019N0500001N1+03701+01551100831ADDAA199000091GF104991041021008001001001MA1999999097521MD1999999+0041REMSYN070AAXX  12184 82583 32599 40909 10370 20155 39752 40083 84200 333 58004;EQDQ01  00002PRCP99
0208825830999992001101300004-05170-040670FM-12+029999999V0200501N001512200019N0040001N1+02991+01641101121ADDAA199000091GA1001+999999999GF100991001001999999001001KA1240M+03601MA1999999097781MD1999999+0151REMSYN082AAXX  13004 82583 32996 00503 10299 20164 39778 40112 333 10360 29043 55090 58015;EQDQ01  00002PRCP99
0186825830999992001101312004-05170-040670FM-12+029999999V0200501N005110075019N0500001N1+02721+01851101421ADDAA199000091GF107991071021008001001001KA1240N+02471MA1999999098061MD1999999+0091REMSYN076AAXX  13124 82583 32599 70510 10272 20185 39806 40142 87200 333 20247 58009;EQDQ01  00002PRCP99
0167825830999992001101318004-05170-040670FM-12+029999999V0200901N004610075019N0500001N1+03181+01871101021ADDAA199000091GF106991061021008001001001MA1999999097681MD1999999+0061REMSYN070AAXX  13184 82583 32599 60909 10318 20187 39768 40102 86200 333 58006;EQDQ01  00002PRCP99
0198825830999992001101400004-05170-040670FM-12+029999999V0200901N002612200019N0040001N1+02661+01971101211ADDAA199000091GF102991021011008001001001KA1240M+03241MA1999999097851MD1999999+0071REMSYN088AAXX  14004 82583 32596 20905 10266 20197 39785 40121 82100 333 10324 29059 55047 58007;EQDQ01  00002PRCP99
0186825830999992001101412004-05170-040670FM-12+029999999V0200501N005112200019N0500001N1+02801+02061101441ADDAA199000091GF102991021011008001001001KA1240N+02441MA1999999098081MD1999999+0021REMSYN076AAXX  14124 82583 32599 20510 10280 20206 39808 40144 82100 333 20244 58002;EQDQ01  00002PRCP99
0167825830999992001101418004-05170-040670FM-12+029999999V0200901N003612200019N0500001N1+03421+01701101051ADDAA199000091GF102991021011008001001001MA1999999097631MD1999999-0051REMSYN070AAXX  14184 82583 32599 20907 10342 20170 39763 40105 82100 333 59005;EQDQ01  00002PRCP99
0208825830999992001101500004-05170-040670FM-12+029999999V0201401N002112200019N0040001N1+02881+01641101051ADDAA199000091GA1001+999999999GF100991001001999999001001KA1240M+03471MA1999999097711MD1999999-0141REMSYN082AAXX  15004 82583 32996 01404 10288 20164 39771 40105 333 10347 29047 55999 59014;EQDQ01  00002PRCP99
0186825830999992001101512004-05170-040670FM-12+029999999V0200501N005710120019N0500001N1+02731+01871101241ADDAA199000091GF108991081081008001999999KA1240N+02191MA1999999097891MD1999999-0191REMSYN076AAXX  15124 82583 32599 80511 10273 20187 39789 40124 888// 333 20219 59019;EQDQ01  00002PRCP99
0167825830999992001101518004-05170-040670FM-12+029999999V0200501N002112200019N0500001N1+03461+01691100801ADDAA199000091GF103991031011008001001001MA1999999097481MD1999999-0151REMSYN070AAXX  15184 82583 32599 30504 10346 20169 39748 40080 83100 333 59015;EQDQ01  00002PRCP99
0198825830999992001101600004-05170-040670FM-12+029999999V0203601N001512200019N0040001N1+02701+01721101051ADDAA199000091GF102991021011008001001001KA1240M+03561MA1999999097691MD1999999-0021REMSYN088AAXX  16004 82583 32596 23603 10270 20172 39769 40105 82100 333 10356 29055 55077 59002;EQDQ01  00002PRCP99
0186825830999992001101612004-05170-040670FM-12+029999999V0200901N005710120019N0500001N1+02611+02011101261ADDAA199000091GF108991081081008001999999KA1240N+02391MA1999999097921MD1999999+0031REMSYN076AAXX  16124 82583 32599 80911 10261 20201 39792 40126 888// 333 20239 58003;EQDQ01  00002PRCP99
0167825830999992001101618004-05170-040670FM-12+029999999V0200901N003112200019N0500001N1+03471+01571100731ADDAA199000091GF104991041021008001001001MA1999999097411MD1999999-0071REMSYN070AAXX  16184 82583 32599 40906 10347 20157 39741 40073 84200 333 59007;EQDQ01  00002PRCP99
0198825830999992001101700004-05170-040670FM-12+029999999V0200901N003112200019N0040001N1+02901+01651100981ADDAA199000091GF102991021011008001001001KA1240M+03361MA1999999097631MD1999999-0061REMSYN088AAXX  17004 82583 32596 20906 10290 20165 39763 40098 82100 333 10336 29049 55066 59006;EQDQ01  00002PRCP99
0186825830999992001101712004-05170-040670FM-12+029999999V0200501N005710075019N0500001N1+02831+01821101181ADDAA199000091GF106991061021008001001001KA1240N+02281MA1999999097841MD1999999-0081REMSYN076AAXX  17124 82583 32599 60511 10283 20182 39784 40118 86200 333 20228 59008;EQDQ01  00002PRCP99
0167825830999992001101718004-05170-040670FM-12+029999999V0200501N005712200019N0500001N1+03591+01411100661ADDAA199000091GF102991021011008001001001MA1999999097341MD1999999-0071REMSYN070AAXX  17184 82583 32599 20511 10359 20141 39734 40066 82100 333 59007;EQDQ01  00002PRCP99
0208825830999992001101800004-05170-040670FM-12+029999999V0200901N011812200019N0040001N1+02981+01311100861ADDAA199000091GA1001+999999999GF100991001001999999001001KA1240M+03641MA1999999097531MD1999999+0021REMSYN082AAXX  18004 82583 32996 00923 10298 20131 39753 40086 333 10364 29038 55102 58002;EQDQ01  00002PRCP99
0166825830999992001102912004-05170-040670FM-12+029999999V0200901N004110075019N0500001N1+02911+01921999999ADDAA199000091GF106991051021008001001011KA1999N+02191MA1999999098041REMSYN070AAXX  29124 82583 32599 60908 10291 20192 39804 40/// 85201 333 20219;EQDQ01  00002PRCP99
0147825830999992001102918004-05170-040670FM-12+029999999V0200501N003610450019N0500001N1+03371+01751999999ADDAA199000091GF106991041021008001021001MA1999999097551REMSYN064AAXX  29184 82583 32599 60507 10337 20175 39755 4//// 84220 333;EQDQ01  00002PRCP99
0178825830999992001103000004-05170-040670FM-12+029999999V0200901N002110075019N0040001N1+02931+01621101101ADDAA199000091GF106991061021008001001001KA1240M+03431MA1999999097761REMSYN082AAXX  30004 82583 32596 60904 10293 20162 39776 40110 86200 333 10343 29046 55030;EQDQ01  00002PRCP99
0186825830999992001103012004-05170-040670FM-12+029999999V0200501N004610075019N0500001N1+02871+02001101441ADDAA199000091GF107991071021008001001001KA1240N+02491MA1999999098091MD1999999+0051REMSYN076AAXX  30124 82583 32599 70509 10287 20200 39809 40144 87200 333 20249 58005;EQDQ01  00002PRCP99
0167825830999992001103018004-05170-040670FM-12+029999999V0200901N004612200019N0500001N1+03541+01311100851ADDAA199000091GF103991031021008001001001MA1999999097531MD1999999-0021REMSYN070AAXX  30184 82583 32599 30909 10354 20131 39753 40085 83200 333 59002;EQDQ01  00002PRCP99
0208825830999992001103100004-05170-040670FM-12+029999999V0200501N003612200019N0040001N1+03041+01641101051ADDAA199000091GA1001+999999999GF100991001001999999001001KA1240M+03571MA1999999097731MD1999999-0031REMSYN082AAXX  31004 82583 32996 00507 10304 20164 39773 40105 333 10357 29045 55078 59003;EQDQ01  00002PRCP99
0186825830999992001103112004-05170-040670FM-12+029999999V0200901N006210075019N0500001N1+02911+01921101201ADDAA199000091GF106991061021008001001001KA1240N+02431MA1999999097891MD1999999-0221REMSYN076AAXX  31124 82583 32599 60912 10291 20192 39789 40120 86200 333 20243 59022;EQDQ01  00002PRCP99
0167825830999992001103118004-05170-040670FM-12+029999999V0200501N003612200019N0500001N1+03771+01441100541ADDAA199000091GF102991011011008001001011MA1999999097241MD1999999-0291REMSYN070AAXX  31184 82583 32599 20507 10377 20144 39724 40054 81101 333 59029;EQDQ01  00002PRCP99
0208825830999992001110100004-05170-040670FM-12+029999999V0200901N000512200019N0040001N1+03071+01461100781ADDAA199000091GA1001+999999999GF100991001001999999001001KA1240M+03781MA1999999097461MD1999999-0271REMSYN082AAXX  01004 82583 32996 00901 10307 20146 39746 40078 333 10378 29038 55094 59027;EQDQ01  00002PRCP99
0186825830999992001110112004-05170-040670FM-12+029999999V0200501N003612200019N0500001N1+02911+01951101021ADDAA199000091GF102991021011008001001001KA1240N+02371MA1999999097691MD1999999-0181REMSYN076AAXX  01124 82583 32599 20507 10291 20195 39769 40102 82100 333 20237 59018;EQDQ01  00002PRCP99
0167825830999992001110118004-05170-040670FM-12+029999999V0200501N001512200019N0500001N1+03551+01641100581ADDAA199000091GF102991021011008001001001MA1999999097271MD1999999+0031REMSYN070AAXX  01184 82583 32599 20503 10355 20164 39727 40058 82100 333 58003;EQDQ01  00002PRCP99
0208825830999992001110200004-05170-040670FM-12+029999999V0200501N002112200019N0040001N1+03601+01511100761ADDAA199000091GA1001+999999999GF100991001001999999001001KA1240M+03661MA1999999097441MD1999999-0021REMSYN082AAXX  02004 82583 32996 00504 10360 20151 39744 40076 333 10366 29042 55092 59002;EQDQ01  00002PRCP99
0186825830999992001110212004-05170-040670FM-12+029999999V0200501N003110120019N0500001N1+02811+02021101051ADDAA199000091GF108991081081008001999999KA1240N+02451MA1999999097721MD1999999+0031REMSYN076AAXX  02124 82583 32599 80506 10281 20202 39772 40105 888// 333 20245 58003;EQDQ01  00002PRCP99
0167825830999992001110218004-05170-040670FM-12+029999999V0202301N002110075019N0500001N1+03521+01651100601ADDAA199000091GF106991051021008001001011MA1999999097291MD1999999+0021REMSYN070AAXX  02184 82583 32599 62304 10352 20165 39729 40060 85201 333 58002;EQDQ01  00002PRCP99
0186825830999992001110312004-05170-040670FM-12+029999999V0200901N004110075019N0500001N1+02941+02031101131ADDAA199000091GF106991061021008001001001KA1240N+02481MA1999999097801MD1999999+0081REMSYN076AAXX  03124 82583 32599 60908 10294 20203 39780 40113 86200 333 20248 58008;EQDQ01  00002PRCP99
0167825830999992001110318004-05170-040670FM-12+029999999V0200901N003612200019N0500001N1+03601+01571100691ADDAA199000091GF103991031021008001001001MA1999999097391MD1999999+0101REMSYN070AAXX  03184 82583 32599 30907 10360 20157 39739 40069 83200 333 58010;EQDQ01  00002PRCP99
0186825830999992001110412004-05170-040670FM-12+029999999V0200901N005712200019N0500001N1+02871+01831101241ADDAA199000091GF103991031021008001001001KA1240N+02281MA1999999097901MD1999999+0101REMSYN076AAXX  04124 82583 32599 30911 10287 20183 39790 40124 83200 333 20228 58010;EQDQ01  00002PRCP99
0183825830999992001110418004-05170-040670FM-12+029999999V0203201N002112200019N0500001N1+03661+01511100711ADDAA199000091GF101991999011008001001001MA1999999097411MD1999999+0021REMSYN070AAXX  04184 82583 32599 13204 10366 20151 39741 40071 82100 333 58002;EQDQ01+000022SCOTLCQ02  00002PRCP99
0208825830999992001110600004-05170-040670FM-12+029999999V0200501N002112200019N0040001N1+03021+01571100951ADDAA199000091GA1001+999999999GF100991001001999999001001KA1240M+03571MA1999999097631MD1999999+0151REMSYN082AAXX  06004 82583 32996 00504 10302 20157 39763 40095 333 10357 29044 55093 58015;EQDQ01  00002PRCP99
0186825830999992001110612004-05170-040670FM-12+029999999V0200901N003110120019N0500001N1+02741+01971101331ADDAA199000091GF108991081081008001999999KA1240N+02401MA1999999097981MD1999999+0081REMSYN076AAXX  06124 82583 32599 80906 10274 20197 39798 40133 888// 333 20240 58008;EQDQ01  00002PRCP99
0167825830999992001110618004-05170-040670FM-12+029999999V0200901N004612200019N0500001N1+03551+01821100791ADDAA199000091GF103991031021008001001001MA1999999097471MD1999999+0051REMSYN070AAXX  06184 82583 32599 30909 10355 20182 39747 40079 83200 333 58005;EQDQ01  00002PRCP99
0208825830999992001110700004-05170-040670FM-12+029999999V0200501N001512200019N0040001N1+03051+01771101001ADDAA199000091GA1001+999999999GF100991001001999999001001KA1240M+03591MA1999999097661MD1999999+0031REMSYN082AAXX  07004 82583 32996 00503 10305 20177 39766 40100 333 10359 29048 55069 58003;EQDQ01  00002PRCP99
0186825830999992001110712004-05170-040670FM-12+029999999V0200901N005110075019N0500001N1+02831+01961101341ADDAA199000091GF107991071051008001001001KA1240N+02471MA1999999097991MD1999999+0011REMSYN076AAXX  07124 82583 32599 70910 10283 20196 39799 40134 87500 333 20247 58001;EQDQ01  00002PRCP99
0167825830999992001110718004-05170-040670FM-12+029999999V0201401N005112200019N0500001N1+03401+01851100921ADDAA199000091GF101991011011008001001001MA1999999097591MD1999999+0121REMSYN070AAXX  07184 82583 32599 11410 10340 20185 39759 40092 81100 333 58012;EQDQ01  00002PRCP99
0208825830999992001110800004-05170-040670FM-12+029999999V0200501N002112200019N0040001N1+02831+01631101061ADDAA199000091GA1001+999999999GF100991001001999999001001KA1240M+03411MA1999999097721MD1999999+0061REMSYN082AAXX  08004 82583 32996 00504 10283 20163 39772 40106 333 10341 29049 55089 58006;EQDQ01  00002PRCP99
0186825830999992001110812004-05170-040670FM-12+029999999V0200501N005110075019N0500001N1+02871+01941101421ADDAA199000091GF106991061021008001001001KA1240N+02351MA1999999098061MD1999999+0071REMSYN076AAXX  08124 82583 32599 60510 10287 20194 39806 40142 86200 333 20235 58007;EQDQ01  00002PRCP99
0167825830999992001110818004-05170-040670FM-12+029999999V0200901N004112200019N0500001N1+03501+01431100921ADDAA199000091GF103991031021008001001001MA1999999097601MD1999999+0011REMSYN070AAXX  08184 82583 32599 30908 10350 20143 39760 40092 83200 333 58001;EQDQ01  00002PRCP99
0208825830999992001110900004-05170-040670FM-12+029999999V0200901N002112200019N0040001N1+02901+01361101151ADDAA199000091GA1001+999999999GF100991001001999999001001KA1240M+03591MA1999999097811MD1999999+0091REMSYN082AAXX  09004 82583 32996 00904 10290 20136 39781 40115 333 10359 29041 55082 58009;EQDQ01  00002PRCP99
0186825830999992001110912004-05170-040670FM-12+029999999V0200901N005110120019N0040001N1+02761+01891101421ADDAA199000091GF107991071081008001001001KA1240N+02161MA1999999098061MD1999999+0001REMSYN076AAXX  09124 82583 32596 70910 10276 20189 39806 40142 87800 333 20216 58000;EQDQ01  00002PRCP99
0167825830999992001110918004-05170-040670FM-12+029999999V0200901N003612200019N0500001N1+03491+01941100901ADDAA199000091GF103991031021008001001001MA1999999097571MD1999999-0031REMSYN070AAXX  09184 82583 32599 30907 10349 20194 39757 40090 83200 333 59003;EQDQ01  00002PRCP99
0208825830999992001111000004-05170-040670FM-12+029999999V0200501N001512200019N0040001N1+02921+01461101101ADDAA199000091GA1001+999999999GF100991001001999999001001KA1240M+03581MA1999999097751MD1999999-0061REMSYN082AAXX  10004 82583 32996 00503 10292 20146 39775 40110 333 10358 29045 55077 59006;EQDQ01  00002PRCP99
0202825830999992001111012004-05170-040670FM-12+029999999V0200901N008212200019N0500001N1+02981+01401101411ADDAA199000091GF101991999011008001001001KA1240N+02141MA1999999098081MD1999999+0021REMSYN076AAXX  10124 82583 32599 10916 10298 20140 39808 40141 82100 333 20214 58002;EQDQ01+000022SCOTLCQ02  00002PRCP99
0167825830999992001111018004-05170-040670FM-12+029999999V0200501N004612200019N0500001N1+03531+01571100901ADDAA199000091GF102991021011008001001001MA1999999097581MD1999999+0011REMSYN070AAXX  10184 82583 32599 20509 10353 20157 39758 40090 82100 333 58001;EQDQ01  00002PRCP99
0186825830999992001111112004-05170-040670FM-12+029999999V0200501N004610075019N0500001N1+02771+01981101471ADDAA199000091GF106991061021008001001001KA1240N+02281MA1999999098111MD1999999+0031REMSYN076AAXX  11124 82583 32599 60509 10277 20198 39811 40147 86200 333 20228 58003;EQDQ01  00002PRCP99
0167825830999992001111118004-05170-040670FM-12+029999999V0200901N003112200019N0500001N1+03541+01621100911ADDAA199000091GF102991021011008001001001MA1999999097581MD1999999+0001REMSYN070AAXX  11184 82583 32599 20906 10354 20162 39758 40091 82100 333 58000;EQDQ01  00002PRCP99
0208825830999992001111200004-05170-040670FM-12+029999999V0200501N003112200019N0040001N1+03601+01581101081ADDAA199000091GA1001+999999999GF100991001001999999001001KA1240M+03561MA1999999097741MD1999999-0021REMSYN082AAXX  12004 82583 32996 00506 10360 20158 39774 40108 333 10356 29044 55076 59002;EQDQ01  00002PRCP99
0186825830999992001111212004-05170-040670FM-12+029999999V0200501N002110075019N0500001N1+02831+01961101441ADDAA199000091GF106991061021008001001001KA1240N+02161MA1999999098101MD1999999-0011REMSYN076AAXX  12124 82583 32599 60504 10283 20196 39810 40144 86200 333 20216 59001;EQDQ01  00002PRCP99
0167825830999992001111218004-05170-040670FM-12+029999999V0200501N003612200019N0500001N1+03601+01671100891ADDAA199000091GF102991021021008001001001MA1999999097571MD1999999-0011REMSYN070AAXX  12184 82583 32599 20507 10360 20167 39757 40089 82200 333 59001;EQDQ01  00002PRCP99
0224825830999992001111300004-05170-040670FM-12+029999999V0200501N001512200019N0040001N1+03801+01561101031ADDAA199000091GA1001+999999999GF100991001001999999001001KA1240M+99999MA1999999097711MD1999999-0031REMSYN082AAXX  13004 82583 32996 00503 10380 20156 39771 40103 333 10365 29043 55081 59003;EQDQ01  00002PRCP99Q02 +03652ATMX  
0186825830999992001111312004-05170-040670FM-12+029999999V0200501N005112200019N0500001N1+99999+99999101271ADDAA199000091GF103991031011008001001001KA1240N+02371MA1999999097931MD1999999-0171REMSYN076AAXX  13124 82583 32599 30510 10872 20186 39793 40127 83100 333 20237 59017;EQDQ01  00002PRCP99
0167825830999992001111318004-05170-040670FM-12+029999999V0201401N002612200019N0500001N1+03591+01621100691ADDAA199000091GF103991031011008001001001MA1999999097371MD1999999-0201REMSYN070AAXX  13184 82583 32599 31405 10359 20162 39737 40069 83100 333 59020;EQDQ01  00002PRCP99
0208825830999992001111400004-05170-040670FM-12+029999999V0200501N002612200019N0040001N1+03111+01661100871ADDAA199000091GA1001+999999999GF100991001001999999001001KA1240M+03651MA1999999097551MD1999999-0161REMSYN082AAXX  14004 82583 32996 00505 10311 20166 39755 40087 333 10365 29042 55098 59016;EQDQ01  00002PRCP99
0186825830999992001111412004-05170-040670FM-12+029999999V0200901N006710075019N0500001N1+02811+01821101121ADDAA199000091GF106991061021008001001001KA1240N+02341MA1999999097791MD1999999-0141REMSYN076AAXX  14124 82583 32599 60913 10281 20182 39779 40112 86200 333 20234 59014;EQDQ01  00002PRCP99
0167825830999992001111418004-05170-040670FM-12+029999999V0200501N003112200019N0500001N1+03381+01831100631ADDAA199000091GF102991021011008001001001MA1999999097311MD1999999-0241REMSYN070AAXX  14184 82583 32599 20506 10338 20183 39731 40063 82100 333 59024;EQDQ01  00002PRCP99
0186825830999992001111512004-05170-040670FM-12+029999999V0200901N004610075019N0500001N1+02671+01941101151ADDAA199000091GF108991081051008001999999KA1240N+02271MA1999999097811MD1999999+0021REMSYN076AAXX  15124 82583 32599 80909 10267 20194 39781 40115 885// 333 20227 58002;EQDQ01  00002PRCP99
0167825830999992001111518004-05170-040670FM-12+029999999V0200901N007712200019N0500001N1+03461+01821100861ADDAA199000091GF101991011011008001001001MA1999999097461MD1999999+0151REMSYN070AAXX  15184 82583 32599 10915 10346 20182 39746 40086 81100 333 58015;EQDQ01  00002PRCP99
0208825830999992001111600004-05170-040670FM-12+029999999V0200901N003112200019N0040001N1+03011+01511100931ADDAA199000091GA1001+999999999GF100991001001999999001001KA1240M+03561MA1999999097591MD1999999+0131REMSYN082AAXX  16004 82583 32996 00906 10301 20151 39759 40093 333 10356 29046 55061 58013;EQDQ01  00002PRCP99
0186825830999992001111612004-05170-040670FM-12+029999999V0200501N005710075019N0500001N1+02861+01951101281ADDAA199000091GF106991061021008001001001KA1240N+02351MA1999999097941MD1999999+0131REMSYN076AAXX  16124 82583 32599 60511 10286 20195 39794 40128 86200 333 20235 58013;EQDQ01  00002PRCP99
0167825830999992001111618004-05170-040670FM-12+029999999V0200501N004612200019N0500001N1+03521+01741100871ADDAA199000091GF103991021011008001001011MA1999999097551MD1999999+0091REMSYN070AAXX  16184 82583 32599 30509 10352 20174 39755 40087 82101 333 58009;EQDQ01  00002PRCP99
0224825830999992001111700004-05170-040670FM-12+029999999V0200901N003112200019N0040001N1+03031+01571101001ADDAA199000091GA1001+999999999GF100991001001999999001001KA1240M+03581MA1999999098762MD1999999+0081REMSYN082AAXX  17004 82583 32996 00906 10303 20157 39876 40100 333 10358 29044 55083 58008;EQDQ01+098763APOSP Q02  00002PRCP99
0186825830999992001111712004-05170-040670FM-12+029999999V0200901N005112200019N0500001N1+02991+01911101251ADDAA199000091GF103991031011008001001001KA1240N+02411MA1999999097921MD1999999-0021REMSYN076AAXX  17124 82583 32599 30910 10299 20191 39792 40125 83100 333 20241 59002;EQDQ01  00002PRCP99
0167825830999992001111718004-05170-040670FM-12+029999999V0200501N003112200019N0500001N1+03661+01621100791ADDAA199000091GF101991011011008001001001MA1999999097471MD1999999-0081REMSYN070AAXX  17184 82583 32599 10506 10366 20162 39747 40079 81100 333 59008;EQDQ01  00002PRCP99
0208825830999992001111800004-05170-040670FM-12+029999999V0200501N003612200019N0040001N1+03051+01511100961ADDAA199000091GA1001+999999999GF100991001001999999001001KA1240M+03721MA1999999097641MD1999999-0031REMSYN082AAXX  18004 82583 32996 00507 10305 20151 39764 40096 333 10372 29040 55091 59003;EQDQ01  00002PRCP99
0186825830999992001111812004-05170-040670FM-12+029999999V0200901N005112200019N0500001N1+03871+02081101301ADDAA199000091GF102991021011008001001001KA1240N+02461MA1999999097961MD1999999+0041REMSYN076AAXX  18124 82583 32599 20910 10387 20208 39796 40130 82100 333 20246 58004;EQDQ01  00002PRCP99
0183825830999992001111818004-05170-040670FM-12+029999999V0200501N005112200019N0500001N1+03571+01501100791ADDAA199000091GF102991999021008001001001MA1999999097471MD1999999+0001REMSYN070AAXX  18184 82583 32599 20510 10357 20150 39747 40079 83200 333 58000;EQDQ01+000032SCOTLCQ02  00002PRCP99
0208825830999992001111900004-05170-040670FM-12+029999999V0200901N002112200019N0040001N1+02921+01501101031ADDAA199000091GA1001+999999999GF100991001001999999001001KA1240M+03621MA1999999097691MD1999999+0051REMSYN082AAXX  19004 82583 32996 00904 10292 20150 39769 40103 333 10362 29044 55095 58005;EQDQ01  00002PRCP99
0186825830999992001111912004-05170-040670FM-12+029999999V0200901N005110075019N0500001N1+02931+01791101281ADDAA199000091GF106991061021008001001001KA1240N+02421MA1999999097941MD1999999-0021REMSYN076AAXX  19124 82583 32599 60910 10293 20179 39794 40128 86200 333 20242 59002;EQDQ01  00002PRCP99
0167825830999992001111918004-05170-040670FM-12+029999999V0200501N004612200019N0500001N1+03451+01731100841ADDAA199000091GF103991031021008001001001MA1999999097521MD1999999+0051REMSYN070AAXX  19184 82583 32599 30509 10345 20173 39752 40084 83200 333 58005;EQDQ01  00002PRCP99
0208825830999992001112000004-05170-040670FM-12+029999999V0200501N001512200019N0040001N1+03001+01611100951ADDAA199000091GA1001+999999999GF100991001001999999001001KA1240M+03551MA1999999097631MD1999999-0061REMSYN082AAXX  20004 82583 32996 00503 10300 20161 39763 40095 333 10355 29043 55093 59006;EQDQ01  00002PRCP99
0186825830999992001112012004-05170-040670FM-12+029999999V0200501N004612200019N0500001N1+02961+01781101231ADDAA199000091GF104991041021008001001001KA1240N+02081MA1999999097901MD1999999-0041REMSYN076AAXX  20124 82583 32599 40509 10296 20178 39790 40123 84200 333 20208 59004;EQDQ01  00002PRCP99
0167825830999992001112018004-05170-040670FM-12+029999999V0200501N004612200019N0500001N1+03491+01631100811ADDAA199000091GF103991031011008001001001MA1999999097491MD1999999-0031REMSYN070AAXX  20184 82583 32599 30509 10349 20163 39749 40081 83100 333 59003;EQDQ01  00002PRCP99
0208825830999992001112100004-05170-040670FM-12+029999999V0200501N002612200019N0040001N1+02981+01511100951ADDAA199000091GA1001+999999999GF100991001001999999001001KA1240M+03551MA1999999097631MD1999999+0001REMSYN082AAXX  21004 82583 32996 00505 10298 20151 39763 40095 333 10355 29041 55100 58000;EQDQ01  00002PRCP99
0186825830999992001112112004-05170-040670FM-12+029999999V0200901N006210120019N0500001N1+02851+02101101251ADDAA199000091GF106991061081008001001001KA1240N+02321MA1999999097911MD1999999+0011REMSYN076AAXX  21124 82583 32599 60912 10285 20210 39791 40125 86800 333 20232 58001;EQDQ01  00002PRCP99
0167825830999992001112118004-05170-040670FM-12+029999999V0200901N003112200019N0500001N1+03401+01641100851ADDAA199000091GF104991041021008001001001MA1999999097521MD1999999+0031REMSYN070AAXX  21184 82583 32599 40906 10340 20164 39752 40085 84200 333 58003;EQDQ01  00002PRCP99
0208825830999992001112200004-05170-040670FM-12+029999999V0200901N003112200019N0040001N1+02981+01591101061ADDAA199000091GA1001+999999999GF100991001001999999001001KA1240M+03531MA1999999097731MD1999999+0101REMSYN082AAXX  22004 82583 32996 00906 10298 20159 39773 40106 333 10353 29045 55080 58010;EQDQ01  00002PRCP99
0186825830999992001112212004-05170-040670FM-12+029999999V0200901N006212200019N0500001N1+02961+01811101291ADDAA199000091GF103991031021008001001001KA1240N+02331MA1999999097951MD1999999+0041REMSYN076AAXX  22124 82583 32599 30912 10296 20181 39795 40129 83200 333 20233 58004;EQDQ01  00002PRCP99
0167825830999992001112218004-05170-040670FM-12+029999999V0200901N002112200019N0500001N1+03501+01631100811ADDAA199000091GF102991021011008001001001MA1999999097491MD1999999-0031REMSYN070AAXX  22184 82583 32599 20904 10350 20163 39749 40081 82100 333 59003;EQDQ01  00002PRCP99
0208825830999992001112300004-05170-040670FM-12+029999999V0200501N002112200019N0020001N1+03061+01581100801ADDAA199000091GA1001+999999999GF100991001001999999001001KA1240M+03601MA1999999097561MD1999999-0171REMSYN082AAXX  23004 82583 32595 00504 10306 20158 39756 40080 333 10360 29041 55098 59017;EQDQ01  00002PRCP99
0186825830999992001112312004-05170-040670FM-12+029999999V0200901N004610075019N0500001N1+02871+01911101001ADDAA199000091GF106991061021008001001001KA1240N+02521MA1999999097671MD1999999-0281REMSYN076AAXX  23124 82583 32599 60909 10287 20191 39767 40100 86200 333 20252 59028;EQDQ01  00002PRCP99
0167825830999992001112318004-05170-040670FM-12+029999999V0201401N002110075019N0500001N1+03451+01341100591ADDAA199000091GF105991051021008001001001MA1999999097281MD1999999-0211REMSYN070AAXX  23184 82583 32599 51404 10345 20134 39728 40059 85200 333 59021;EQDQ01  00002PRCP99
0208825830999992001112400004-05170-040670FM-12+029999999V0200501N002112200019N0040001N1+02981+01621100711ADDAA199000091GA1001+999999999GF100991001001999999001001KA1240M+03521MA1999999097391MD1999999-0241REMSYN082AAXX  24004 82583 32996 00504 10298 20162 39739 40071 333 10352 29046 55079 59024;EQDQ01  00002PRCP99
0186825830999992001112412004-05170-040670FM-12+029999999V0200501N005710120019N0500001N1+02751+01941101121ADDAA199000091GF108991081081008001999999KA1240N+02301MA1999999097781MD1999999+0111REMSYN076AAXX  24124 82583 32599 80511 10275 20194 39778 40112 888// 333 20230 58011;EQDQ01  00002PRCP99
0167825830999992001112418004-05170-040670FM-12+029999999V0200901N005110075019N0500001N1+03431+01721100621ADDAA199000091GF105991051021008001001001MA1999999097301MD1999999+0021REMSYN070AAXX  24184 82583 32599 50910 10343 20172 39730 40062 85200 333 58002;EQDQ01  00002PRCP99
0186825830999992001112512004-05170-040670FM-12+029999999V0200901N004610075019N0500001N1+02781+02011101121ADDAA199000091GF106991061021008001001001KA1240N+02361MA1999999097781MD1999999+0001REMSYN076AAXX  25124 82583 32599 60909 10278 20201 39778 40112 86200 333 20236 58000;EQDQ01  00002PRCP99
0167825830999992001112518004-05170-040670FM-12+029999999V0200901N003610075019N0500001N1+03371+02791100641ADDAA199000091GF105991051021008001001001MA1999999097321MD1999999+0021REMSYN070AAXX  25184 82583 32599 50907 10337 20279 39732 40064 85200 333 58002;EQDQ01  00002PRCP99
0198825830999992001112600004-05170-040670FM-12+029999999V0200901N002112200019N0040001N1+02901+01591100781ADDAA199000091GF104991041021008001001001KA1240M+03481MA1999999097441MD1999999-0041REMSYN088AAXX  26004 82583 32596 40904 10290 20159 39744 40078 84200 333 10348 29048 55056 59004;EQDQ01  00002PRCP99
0202825830999992001112612004-05170-040670FM-12+029999999V0200901N007219999999N0500001N1+02801+02111101101ADDAA199000091GF106991999021008001001001KA1240N+02491MA1999999097761MD1999999-0021REMSYN076AAXX  26124 82583 32599 60914 10280 20211 39776 40110 84200 333 20249 59002;EQDQ01+000042SCOTLCQ02  00002PRCP99
0167825830999992001112618004-05170-040670FM-12+029999999V0200901N005710075019N0500001N1+03351+01811100701ADDAA199000091GF106991061021008001001001MA1999999097371MD1999999+0051REMSYN070AAXX  26184 82583 32599 60911 10335 20181 39737 40070 86200 333 58005;EQDQ01  00002PRCP99
0198825830999992001112700004-05170-040670FM-12+029999999V0200501N002112200019N0040001N1+03021+02091100861ADDAA199000091GF102991021011008001001001KA1240M+03041MA1999999097531MD1999999-0091REMSYN088AAXX  27004 82583 32596 20504 10302 20209 39753 40086 82100 333 10304 29055 55040 59009;EQDQ01  00002PRCP99
0186825830999992001112712004-05170-040670FM-12+029999999V0200901N006210075019N0500001N1+02911+01951101041ADDAA199000091GF106991061021008001001001KA1240N+02501MA1999999097711MD1999999-0051REMSYN076AAXX  27124 82583 32599 60912 10291 20195 39771 40104 86200 333 20250 59005;EQDQ01  00002PRCP99
0167825830999992001112718004-05170-040670FM-12+029999999V0200901N002612200019N0500001N1+03521+01791100631ADDAA199000091GF106991041021008001001011MA1999999097321MD1999999-0011REMSYN070AAXX  27184 82583 32599 60905 10352 20179 39732 40063 84201 333 59001;EQDQ01  00002PRCP99
0208825830999992001112800004-05170-040670FM-12+029999999V0200501N002112200019N0040001N1+03001+01681100811ADDAA199000091GA1001+999999999GF100991001001999999001001KA1240M+03551MA1999999097491MD1999999+0041REMSYN082AAXX  28004 82583 32996 00504 10300 20168 39749 40081 333 10355 29046 55096 58004;EQDQ01  00002PRCP99
0186825830999992001112812004-05170-040670FM-12+029999999V0200901N004610120019N0500001N1+02871+02081101131ADDAA199000091GF107991051081008001031001KA1240N+02591MA1999999097791MD1999999+0081REMSYN076AAXX  28124 82583 32599 70909 10287 20208 39779 40113 85830 333 20259 58008;EQDQ01  00002PRCP99
0167825830999992001112818004-05170-040670FM-12+029999999V0200901N004110450019N0500001N1+03571+01841100581ADDAA199000091GF105991041021008001021001MA1999999097281MD1999999-0041REMSYN070AAXX  28184 82583 32599 50908 10357 20184 39728 40058 84220 333 59004;EQDQ01  00002PRCP99
0198825830999992001112900004-05170-040670FM-12+029999999V0203601N002112200019N0040001N1+03151+01711100831ADDAA199000091GF102991021011008001001001KA1240M+03631MA1999999097511MD1999999+0021REMSYN088AAXX  29004 82583 32596 23604 10315 20171 39751 40083 82100 333 10363 29046 55049 58002;EQDQ01  00002PRCP99
0186825830999992001112912004-05170-040670FM-12+029999999V0200501N004610120019N0500001N1+02801+02031101121ADDAA199000091GF108991081081008001999999KA1240N+02441MA1999999097791MD1999999+0001REMSYN076AAXX  29124 82583 32599 80509 10280 20203 39779 40112 888// 333 20244 58000;EQDQ01  00002PRCP99
0198825830999992001113000004-05170-040670FM-12+029999999V0200501N007712200019N0040001N1+02951+01961100791ADDAA199000091GF102991021011008001001001KA1240M+03571MA1999999097461MD1999999-0051REMSYN088AAXX  30004 82583 32596 20515 10295 20196 39746 40079 82100 333 10357 29052 55053 59005;EQDQ01  00002PRCP99
0186825830999992001113012004-05170-040670FM-12+029999999V0203601N002610075019N0500001N1+02761+01991101131ADDAA199000091GF106991051021008001001011KA1240N+02381MA1999999097791MD1999999+0001REMSYN076AAXX  30124 82583 32599 63605 10276 20199 39779 40113 85201 333 20238 58000;EQDQ01  00002PRCP99
0167825830999992001113018004-05170-040670FM-12+029999999V0203601N002110075019N0500001N1+03471+01881100621ADDAA199000091GF107991061021008001001011MA1999999097301MD1999999-0031REMSYN070AAXX  30184 82583 32599 73604 10347 20188 39730 40062 86201 333 59003;EQDQ01  00002PRCP99
0198825830999992001120100004-05170-040670FM-12+029999999V0202701N003110120019N0040001N1+02911+02091100961ADDAA199000091GF108991081081008001999999KA1240M+03501MA1999999097621MD1999999+0161REMSYN088AAXX  01004 82583 32596 82706 10291 20209 39762 40096 888// 333 10350 29056 55026 58016;EQDQ01  00002PRCP99
