0201826780999992001010100004-06760-043010FM-12+013899999V0201401N002610075019N0002001N1+02321+02131101551ADDAA106010991AY161061AY221061GF108991081041008001999999KA1240M+03391MA1999999099961MD1999999+0281MW1511REMSYN088AAXX  01004 82678 21592 81405 10232 20213 39996 40155 75162 884// 333 10339 58028 60111;
0201826780999992001010112004-06760-043010FM-12+013899999V0201801N000510450019N0040001N1+02381+02231101651ADDAA124015091AY161061AY221061GF107991041051008001031001KA1240N+02181MA1999999100051MD1999999+0051MW1021REMSYN088AAXX  01124 82678 21596 71801 10238 20223 30005 40165 70262 84530 333 20218 58005 60154;
0167826780999992001010118004-06760-043010FM-12+013899999V0202301N001010450019N0040001N1+02871+02311101291ADDAA199000091GF108991021021008001031021MA1999999099701MD1999999+0141REMSYN070AAXX  01184 82678 32596 82302 10287 20231 39970 40129 82232 333 58014;EQDQ01  00002PRCP99
0186826780999992001010200004-06760-043010FM-12+013899999V0200501N001510450019N0002001N1+02521+02381101501ADDAA199000091GF106991041041008001021001KA1240M+02941MA1999999099901MD1999999-0061REMSYN076AAXX  02004 82678 32592 60503 10252 20238 39990 40150 84420 333 10294 59006;EQDQ01  00002PRCP99
0202826780999992001010212004-06760-043010FM-12+013899999V0203201N001019999999N0040001N1+02621+02251101631ADDAA199000091GF106991999011008001001001KA1240N+02321MA1999999100041MD1999999-0011REMSYN076AAXX  02124 82678 32596 63202 10262 20225 30004 40163 82100 333 20232 59001;EQDQ01+000022SCOTLCQ02  00002PRCP99
0201826780999992001010218004-06760-043010FM-12+013899999V0201801N000519999999N0200001N1+03181+02361101181ADDAA106005191AY161061AY221061GF105991999021008001001001MA1999999099611MD1999999-0071MW1021REMSYN082AAXX  02184 82678 21598 51801 10318 20236 39961 40118 70262 83200 333 59007 60051;EQDQ01+000032SCOTLC
0186826780999992001010300004-06760-043010FM-12+013899999V0209999C000012200019N0002001N1+02721+02501101361ADDAA199000091GF103991011041008001021001KA1240M+03331MA1999999099781MD1999999-0121REMSYN076AAXX  03004 82678 32592 30000 10272 20250 39978 40136 81420 333 10333 59012;EQDQ01  00002PRCP99
0201826780999992001010312004-06760-043010FM-12+013899999V0209999C000012200019N0040001N1+02561+02171101621ADDAA124016091AY161061AY221061GF102991011041008001021001KA1240N+02181MA1999999100041MD1999999+0001MW1021REMSYN088AAXX  03124 82678 21596 20000 10256 20217 30004 40162 70262 81420 333 20218 58000 60164;
0167826780999992001010318004-06760-043010FM-12+013899999V0201401N001012200019N0040001N1+03221+02251101221ADDAA199000091GF104991021021008001001011MA1999999099641MD1999999+0031REMSYN070AAXX  03184 82678 32596 41402 10322 20225 39964 40122 82201 333 58003;EQDQ01  00002PRCP99
0196826780999992001010400004-06760-043010FM-12+013899999V0209999C000012200019N0002001N1+02601+02311101351ADDAA199000091GA1001+999999999GF100991001001999999001001KA1240M+03331MA1999999099771MD1999999-0011REMSYN070AAXX  04004 82678 32992 00000 10260 20231 39977 40135 333 10333 59001;EQDQ01  00002PRCP99
0196826780999992001010412004-06760-043010FM-12+013899999V0200501N001012200019N0040001N1+02621+02141101671ADDAA199000091GA1001+999999999GF100991001001999999001001KA1240N+02141MA1999999100081MD1999999+0041REMSYN070AAXX  04124 82678 32796 00502 10262 20214 30008 40167 333 20214 58004;EQDQ01  00002PRCP99
0183826780999992001010418004-06760-043010FM-12+013899999V0201401N001019999999N0040001N1+03321+02381101141ADDAA199000091GF105991999021008001001001MA1999999099571MD1999999-0071REMSYN070AAXX  04184 82678 32596 51402 10332 20238 39957 40114 86200 333 59007;EQDQ01+000062SCOTLCQ02  00002PRCP99
0202826780999992001010500004-06760-043010FM-12+013899999V0200501N002619999999N0002001N1+02561+02151101501ADDAA199000091GF107991999021008001001001KA1240M+03391MA1999999099911MD1999999+0141REMSYN076AAXX  05004 82678 32592 70505 10256 20215 39991 40150 84200 333 10339 58014;EQDQ01+000042SCOTLCQ02  00002PRCP99
0201826780999992001010512004-06760-043010FM-12+013899999V0201401N001511050019N0040001N1+02621+02311101671ADDAA124000191AY151061AY211061GF105991031021008001001021KA1240N+02381MA1999999100081MD1999999+0001MW1021REMSYN088AAXX  05124 82678 21596 51403 10262 20231 30008 40167 70251 83202 333 20238 58000 69924;
0167826780999992001010518004-06760-043010FM-12+013899999V0200901N001510450019N0040001N1+03121+02251101261ADDAA199000091GF108991031031008001021021MA1999999099701MD1999999+0111REMSYN070AAXX  05184 82678 32596 80903 10312 20225 39970 40126 83322 333 58011;EQDQ01  00002PRCP99
0186826780999992001010600004-06760-043010FM-12+013899999V0201401N000512200019N0002001N1+02651+02331101361ADDAA199000091GF103991011001017501011021KA1240M+03181MA1999999099781MD1999999-0131REMSYN076AAXX  06004 82678 32792 31401 10265 20233 39978 40136 81012 333 10318 59013;EQDQ01  00002PRCP99
0186826780999992001010612004-06760-043010FM-12+013899999V0201401N002610450019N0040001N1+02731+02191101551ADDAA199000091GF108991011021008001011041KA1240N+02301MA1999999099971MD1999999-0111REMSYN076AAXX  06124 82678 32596 81405 10273 20219 39997 40155 81214 333 20230 59011;EQDQ01  00002PRCP99
0167826780999992001010618004-06760-043010FM-12+013899999V0200501N000510120019N0040001N1+03161+02371101141ADDAA199000091GF108991051081008001041021MA1999999099571MD1999999-0111REMSYN070AAXX  06184 82678 32596 80501 10316 20237 39957 40114 85842 333 59011;EQDQ01  00002PRCP99
0202826780999992001010700004-06760-043010FM-12+013899999V0201801N001512200019N0002001N1+02751+02211101291ADDAA199000091GF104991999001008001031001KA1240M+03331MA1999999099721MD1999999-0041REMSYN076AAXX  07004 82678 32592 41803 10275 20221 39972 40129 82030 333 10333 59004;EQDQ01+000022SCOTLCQ02  00002PRCP99
0186826780999992001010712004-06760-043010FM-12+013899999V0201401N002110075019N0040001N1+02681+02201101441ADDAA199000091GF108991061021008001001021KA1240N+02351MA1999999099861MD1999999-0111REMSYN076AAXX  07124 82678 32596 81404 10268 20220 39986 40144 86202 333 20235 59011;EQDQ01  00002PRCP99
0167826780999992001010718004-06760-043010FM-12+013899999V0200501N001510075019N0040001N1+03221+02451100991ADDAA199000091GF108991051021008001001021MA1999999099431MD1999999-0141REMSYN070AAXX  07184 82678 32596 80503 10322 20245 39943 40099 85202 333 59014;EQDQ01  00002PRCP99
0201826780999992001010800004-06760-043010FM-12+013899999V0203601N001510075019N0002001N1+02661+02391101381ADDAA106002091AY161061AY221061GF108991051051008001021999KA1240M+03351MA1999999099801MD1999999+0081MW1621REMSYN088AAXX  08004 82678 21592 83603 10266 20239 39980 40138 76262 8552/ 333 10335 58008 60021;
0173826780999992001010812004-06760-043010FM-12+013899999V0200901N002610075019N0040001N1+02491+02301101501ADDAA124011991GF108991081051008001999999KA1240N+02281MA1999999099911MD1999999+0051REMSYN082AAXX  08124 82678 22596 80905 10249 20230 39991 40150 885// 333 20228 58005 60124;
0167826780999992001010818004-06760-043010FM-12+013899999V0203601N001510450019N0040001N1+03161+02391101021ADDAA199000091GF106991041021008001031021MA1999999099451MD1999999+0021REMSYN070AAXX  08184 82678 32596 63603 10316 20239 39945 40102 84232 333 58002;EQDQ01  00002PRCP99
0173826780999992001010912004-06760-043010FM-12+013899999V0209999C000010450019N0040001N1+02681+02351101531ADDAA124000891GF108991021021008001011011KA1240N+02261MA1999999099941MD1999999+0031REMSYN082AAXX  09124 82678 22596 80000 10268 20235 39994 40153 82211 333 20226 58003 69984;
0167826780999992001010918004-06760-043010FM-12+013899999V0203201N001511050019N0040001N1+03231+02401101051ADDAA199000091GF106991041021008001001021MA1999999099481MD1999999+0031REMSYN070AAXX  09184 82678 32596 63203 10323 20240 39948 40105 84202 333 58003;EQDQ01  00002PRCP99
0186826780999992001011000004-06760-043010FM-12+013899999V0209999C000010150019N0002001N1+02731+02341101201ADDAA199000091GF108991051001017501031021KA1240M+03331MA1999999099631MD1999999+0011REMSYN076AAXX  10004 82678 32792 80000 10273 20234 39963 40120 85032 333 10333 58001;EQDQ01  00002PRCP99
0186826780999992001011012004-06760-043010FM-12+013899999V0200501N001510075019N0040001N1+02681+02241101501ADDAA199000091GF108991061021008001001011KA1240N+02251MA1999999099921MD1999999-0021REMSYN076AAXX  10124 82678 32596 80503 10268 20224 39992 40150 86201 333 20225 59002;EQDQ01  00002PRCP99
0167826780999992001011018004-06760-043010FM-12+013899999V0201401N001510075019N0040001N1+03321+02351101061ADDAA199000091GF108991051021008001001021MA1999999099501MD1999999+0021REMSYN070AAXX  10184 82678 32596 81403 10332 20235 39950 40106 85202 333 58002;EQDQ01  00002PRCP99
0186826780999992001011100004-06760-043010FM-12+013899999V0200501N001010450019N0002001N1+02721+02321101301ADDAA199000091GF105991031051008001021999KA1240M+03451MA1999999099721MD1999999+0091REMSYN076AAXX  11004 82678 32592 50502 10272 20232 39972 40130 8352/ 333 10345 58009;EQDQ01  00002PRCP99
0201826780999992001011112004-06760-043010FM-12+013899999V0209999C000012200019N0040001N1+02661+02431101601ADDAA124004191AY191061AY261061GF103991021021008001001011KA1240N+02321MA1999999100021MD1999999+0101MW1021REMSYN088AAXX  11124 82678 21596 30000 10266 20243 30002 40160 70296 82201 333 20232 58010 60044;
0167826780999992001011118004-06760-043010FM-12+013899999V0201401N001510450019N0040001N1+02981+02351101241ADDAA199000091GF108991041021008001031021MA1999999099661MD1999999+0161REMSYN070AAXX  11184 82678 32596 81403 10298 20235 39966 40124 84232 333 58016;EQDQ01  00002PRCP99
0196826780999992001011200004-06760-043010FM-12+013899999V0209999C000012200019N0002001N1+02541+02381101331ADDAA199000091GA1001+999999999GF100991001001999999001001KA1240M+03121MA1999999099751MD1999999+0031REMSYN070AAXX  12004 82678 32992 00000 10254 20238 39975 40133 333 10312 58003;EQDQ01  00002PRCP99
0186826780999992001011212004-06760-043010FM-12+013899999V0200501N001510120019N0040001N1+02591+02211101551ADDAA199000091GF108991061081008001021999KA1240N+02291MA1999999099961MD1999999-0061REMSYN076AAXX  12124 82678 32596 80503 10259 20221 39996 40155 8682/ 333 20229 59006;EQDQ01  00002PRCP99
0182826780999992001011218004-06760-043010FM-12+013899999V0203601N000510150019N0040001N1+02721+02321101171ADDAA106004191AY161061AY221061GF108991081001017501021999MA1999999099581MD1999999-0081MW1021REMSYN082AAXX  12184 82678 21796 83601 10272 20232 39958 40117 70262 8802/ 333 59008 60041;
0201826780999992001011300004-06760-043010FM-12+013899999V0201401N002110075019N0002001N1+02201+02081101651ADDAA106014091AY121061AY221061GF108991081071008001999999KA1240M+02871MA1999999100051MD1999999+0301MW1291REMSYN088AAXX  13004 82678 21592 81404 10220 20208 30005 40165 72922 887// 333 10287 58030 60141;
0201826780999992001011312004-06760-043010FM-12+013899999V0209999C000010075019N0040001N1+02201+02061101781ADDAA124047091AY161061AY261061GF108991051051008001021999KA1240N+02021MA1999999100161MD1999999+0201MW1021REMSYN088AAXX  13124 82678 21596 80000 10220 20206 30016 40178 70266 8552/ 333 20202 58020 60474;
0167826780999992001011318004-06760-043010FM-12+013899999V0200901N003110075019N0040001N1+02761+02251101311ADDAA199000091GF108991051051008001021021MA1999999099711MD1999999+0131REMSYN070AAXX  13184 82678 32596 80906 10276 20225 39971 40131 85522 333 58013;EQDQ01  00002PRCP99
0186826780999992001011400004-06760-043010FM-12+013899999V0209999C000010075019N0002001N1+02501+02341101491ADDAA199000091GF108991061051008001021999KA1240M+02831MA1999999099891MD1999999-0161REMSYN076AAXX  14004 82678 32592 80000 10250 20234 39989 40149 8652/ 333 10283 59016;EQDQ01  00002PRCP99
0202826780999992001011412004-06760-043010FM-12+013899999V0201401N003610075019N0040001N1+02661+02161101581ADDAA199000091GF108991999021008001001001KA1240N+02221MA1999999099991MD1999999-0171REMSYN076AAXX  14124 82678 32596 81407 10266 20216 39999 40158 85200 333 20222 59017;EQDQ01+000052SCOTLCQ02  00002PRCP99
0183826780999992001011418004-06760-043010FM-12+013899999V0201401N003619999999N0040001N1+03121+02221101241ADDAA199000091GF108991999021008001001001MA1999999099661MD1999999-0051REMSYN070AAXX  14184 82678 32596 81407 10312 20222 39966 40124 84200 333 59005;EQDQ01+000042SCOTLCQ02  00002PRCP99
0196826780999992001011500004-06760-043010FM-12+013899999V0209999C000012200019N0002001N1+02461+02211101361ADDAA199000091GA1001+999999999GF100991001001999999001001KA1240M+03331MA1999999099771MD1999999-0121REMSYN070AAXX  15004 82678 32992 00000 10246 20221 39977 40136 333 10333 59012;EQDQ01  00002PRCP99
0186826780999992001011512004-06760-043010FM-12+013899999V0201401N003612200019N0040001N1+02761+02121101541ADDAA199000091GF102991021011008001001001KA1240N+02141MA1999999099951MD1999999-0041REMSYN076AAXX  15124 82678 32596 21407 10276 20212 39995 40154 82100 333 20214 59004;EQDQ01  00002PRCP99
0167826780999992001011518004-06760-043010FM-12+013899999V0201401N003110075019N0040001N1+03201+02211101201ADDAA199000091GF105991051021008001001001MA1999999099631MD1999999-0031REMSYN070AAXX  15184 82678 32596 51406 10320 20221 39963 40120 85200 333 59003;EQDQ01  00002PRCP99
0180826780999992001011600004-06760-043010FM-12+013899999V0202301N000512200019N0002001N1+02541+02151101311ADDAA199000091GF101991999999999999999999KA1240M+03301MA1999999099731MD1999999-0041REMSYN070AAXX  16004 82678 32992 12301 10254 20215 39973 40131 333 10330 59004;EQDQ01  00002PRCP99
0186826780999992001011612004-06760-043010FM-12+013899999V0200901N001510450019N0040001N1+02751+02171101531ADDAA199000091GF108991021021008001011041KA1240N+02341MA1999999099951MD1999999+0001REMSYN076AAXX  16124 82678 32596 80903 10275 20217 39995 40153 82214 333 20234 58000;EQDQ01  00002PRCP99
0167826780999992001011618004-06760-043010FM-12+013899999V0202301N001510120019N0040001N1+03161+02391101161ADDAA199000091GF108991061081008001001011MA1999999099591MD1999999-0041REMSYN070AAXX  16184 82678 32596 82303 10316 20239 39959 40116 86801 333 59004;EQDQ01  00002PRCP99
0196826780999992001011700004-06760-043010FM-12+013899999V0209999C000012200019N0002001N1+02551+02211101221ADDAA199000091GA1001+999999999GF100991001001999999001001KA1240M+03241MA1999999099701MD1999999-0031REMSYN070AAXX  17004 82678 32992 00000 10255 20221 39970 40122 333 10324 59003;EQDQ01  00002PRCP99
0186826780999992001011712004-06760-043010FM-12+013899999V0200901N001011050019N0040001N1+02761+02281101471ADDAA199000091GF108991041021008001001021KA1240N+02201MA1999999099891MD1999999-0061REMSYN076AAXX  17124 82678 32596 80902 10276 20228 39989 40147 84202 333 20220 59006;EQDQ01  00002PRCP99
0167826780999992001011718004-06760-043010FM-12+013899999V0209999C000010120019N0040001N1+03161+02291101141ADDAA199000091GF108991061081008001001011MA1999999099571MD1999999-0021REMSYN070AAXX  17184 82678 32596 80000 10316 20229 39957 40114 86801 333 59002;EQDQ01  00002PRCP99
0196826780999992001011800004-06760-043010FM-12+013899999V0209999C000012200019N0002001N1+02581+02331101301ADDAA199000091GA1001+999999999GF100991001001999999001001KA1240M+03251MA1999999099721MD1999999+0021REMSYN070AAXX  18004 82678 32992 00000 10258 20233 39972 40130 333 10325 58002;EQDQ01  00002PRCP99
0186826780999992001011812004-06760-043010FM-12+013899999V0201401N004610150019N0040001N1+02781+01981101561ADDAA199000091GF108991051001017501021011KA1240N+02241MA1999999099981MD1999999+0091REMSYN076AAXX  18124 82678 32796 81409 10278 20198 39998 40156 85021 333 20224 58009;EQDQ01  00002PRCP99
0167826780999992001011818004-06760-043010FM-12+013899999V0200901N002610450019N0040001N1+03181+02191101201ADDAA199000091GF108991021021008001021021MA1999999099631MD1999999+0061REMSYN070AAXX  18184 82678 32596 80905 10318 20219 39963 40120 82222 333 58006;EQDQ01  00002PRCP99
0196826780999992001011900004-06760-043010FM-12+013899999V0209999C000012200019N0002001N1+02561+02231101371ADDAA199000091GA1001+999999999GF100991001001999999001001KA1240M+03251MA1999999099791MD1999999+0071REMSYN070AAXX  19004 82678 32992 00000 10256 20223 39979 40137 333 10325 58007;EQDQ01  00002PRCP99
0186826780999992001011912004-06760-043010FM-12+013899999V0209999C000010450019N0040001N1+02581+02121101691ADDAA199000091GF108991041021008001031021KA1240N+02141MA1999999100101MD1999999+0121REMSYN076AAXX  19124 82678 32596 80000 10258 20212 30010 40169 84232 333 20214 58012;EQDQ01  00002PRCP99
0167826780999992001011918004-06760-043010FM-12+013899999V0202701N001012200019N0040001N1+03221+02251101271ADDAA199000091GF105991031021008001001011MA1999999099691MD1999999+0061REMSYN070AAXX  19184 82678 32596 52702 10322 20225 39969 40127 83201 333 58006;EQDQ01  00002PRCP99
0201826780999992001012000004-06760-043010FM-12+013899999V0201801N000512200019N0002001N1+02691+02371101371ADDAA106000191AY161061AY211061GF103991031041008001001001KA1240M+03421MA1999999099791MD1999999+0001MW1021REMSYN088AAXX  20004 82678 21592 31801 10269 20237 39979 40137 70261 83400 333 10342 58000 69911;
0173826780999992001012012004-06760-043010FM-12+013899999V0202701N002110075019N0040001N1+02741+02281101721ADDAA124000191GF106991061021008001001001KA1240N+02351MA1999999100141MD1999999+0041REMSYN082AAXX  20124 82678 22596 62704 10274 20228 30014 40172 86200 333 20235 58004 69924;
0167826780999992001012018004-06760-043010FM-12+013899999V0200501N003610450019N0040001N1+03291+02341101261ADDAA199000091GF108991021031008001031021MA1999999099701MD1999999+0011REMSYN070AAXX  20184 82678 32596 80507 10329 20234 39970 40126 82332 333 58001;EQDQ01  00002PRCP99
0202826780999992001012100004-06760-043010FM-12+013899999V0200501N004119999999N0002001N1+02731+02261101401ADDAA199000091GF106991999011008001001001KA1240M+03361MA1999999099831MD1999999+0041REMSYN076AAXX  21004 82678 32592 60508 10273 20226 39983 40140 82100 333 10336 58004;EQDQ01+000022SCOTLCQ02  00002PRCP99
0201826780999992001012112004-06760-043010FM-12+013899999V0200501N001010075019N0040001N1+02601+02271101671ADDAA124005191AY161061AY211061GF108991051021008001001011KA1240N+02401MA1999999100081MD1999999-0061MW1021REMSYN088AAXX  21124 82678 21596 80502 10260 20227 30008 40167 70261 85201 333 20240 59006 60054;
0167826780999992001012118004-06760-043010FM-12+013899999V0200501N001510075019N0040001N1+03021+02311101271ADDAA199000091GF108991061021008001001021MA1999999099711MD1999999+0011REMSYN070AAXX  21184 82678 32596 80503 10302 20231 39971 40127 86202 333 58001;EQDQ01  00002PRCP99
0201826780999992001012212004-06760-043010FM-12+013899999V0209999C000010075019N0040001N1+02421+02231101791ADDAA124000191AY121061AY221061GF108991061051008001021999KA1240N+02311MA1999999100191MD1999999+0011MW1201REMSYN088AAXX  22124 82678 21596 80000 10242 20223 30019 40179 72022 8652/ 333 20231 58001 69914;
0148826780999992001012218004-06760-043010FM-12+013899999V0201401N001010450019N0040001N1+02831+02221101291ADDAA199000021GF108991021021008001021021MA1999999099711MD1999999+0001REMSYN070AAXX  22184 82678 32596 81402 10283 20222 39971 40129 82222 333 58000;
0177826780999992001012300004-06760-043010FM-12+013899999V0201801N001012200019N0002001N1+02481+02231101541ADDAA199000021GA1001+999999999GF100991001001999999001001KA1240M+02901MA1999999099941MD1999999+0101REMSYN070AAXX  23004 82678 32992 01802 10248 20223 39994 40154 333 10290 58010;
0186826780999992001012312004-06760-043010FM-12+013899999V0209999C000010075019N0040001N1+02521+02191101721ADDAA199000091GF108991061021008001001021KA1240N+02221MA1999999100121MD1999999-0071REMSYN076AAXX  23124 82678 32596 80000 10252 20219 30012 40172 86202 333 20222 59007;EQDQ01  00002PRCP99
0167826780999992001012318004-06760-043010FM-12+013899999V0201801N001510450019N0040001N1+03301+02271101231ADDAA199000091GF108991041021008001021011MA1999999099661MD1999999-0051REMSYN070AAXX  23184 82678 32596 81803 10330 20227 39966 40123 84221 333 59005;EQDQ01  00002PRCP99
0196826780999992001012400004-06760-043010FM-12+013899999V0209999C000012200019N0002001N1+02721+02281101381ADDAA199000091GA1001+999999999GF100991001001999999001001KA1240M+03411MA1999999099801MD1999999-0141REMSYN070AAXX  24004 82678 32992 00000 10272 20228 39980 40138 333 10341 59014;EQDQ01  00002PRCP99
0201826780999992001012412004-06760-043010FM-12+013899999V0203201N001510075019N0040001N1+02521+02311101751ADDAA124000191AY121061AY221061GF108991081051008001999999KA1240N+02441MA1999999100161MD1999999+0041MW1211REMSYN088AAXX  24124 82678 21596 83203 10252 20231 30016 40175 72122 885// 333 20244 58004 69914;
0148826780999992001012418004-06760-043010FM-12+013899999V0202701N001510075019N0040001N1+03281+02131101271ADDAA199000021GF106991051021008001001021MA1999999099711MD1999999+0051REMSYN070AAXX  24184 82678 32596 62703 10328 20213 39971 40127 85202 333 58005;
0186826780999992001012512004-06760-043010FM-12+013899999V0200501N001010075019N0040001N1+02601+02231101701ADDAA199000091GF108991061051008001021999KA1240N+02311MA1999999100121MD1999999-0041REMSYN076AAXX  25124 82678 32596 80502 10260 20223 30012 40170 8652/ 333 20231 59004;EQDQ01  00002PRCP99
0167826780999992001012518004-06760-043010FM-12+013899999V0201801N001510075019N0040001N1+03001+02291101311ADDAA199000091GF108991051021008001001021MA1999999099731MD1999999+0021REMSYN070AAXX  25184 82678 32596 81803 10300 20229 39973 40131 85202 333 58002;EQDQ01  00002PRCP99
0196826780999992001012600004-06760-043010FM-12+013899999V0202701N001512200019N0002001N1+02481+02221101421ADDAA199000091GA1001+999999999GF100991001001999999001001KA1240M+03021MA1999999099861MD1999999-0021REMSYN070AAXX  26004 82678 32992 02703 10248 20222 39986 40142 333 10302 59002;EQDQ01  00002PRCP99
0186826780999992001012612004-06760-043010FM-12+013899999V0200901N001010075019N0040001N1+02621+02251101721ADDAA199000091GF108991061051008001021999KA1240N+02301MA1999999100131MD1999999+0011REMSYN076AAXX  26124 82678 32596 80902 10262 20225 30013 40172 8652/ 333 20230 58001;EQDQ01  00002PRCP99
0182826780999992001012618004-06760-043010FM-12+013899999V0202701N001510450019N0040001N1+02981+02351101341ADDAA106008991AY161061AY221061GF108991041051008001021011MA1999999099761MD1999999+0031MW1021REMSYN082AAXX  26184 82678 21596 82703 10298 20235 39976 40134 70262 84521 333 58003 60091;
0196826780999992001012700004-06760-043010FM-12+013899999V0209999C000012200019N0002001N1+02541+02441101281ADDAA199000091GA1001+999999999GF100991001001999999001001KA1240M+03041MA1999999099701MD1999999-0161REMSYN070AAXX  27004 82678 32992 00000 10254 20244 39970 40128 333 10304 59016;EQDQ01  00002PRCP99
0173826780999992001012712004-06760-043010FM-12+013899999V0202701N000510075019N0040001N1+02601+02331101611ADDAA124008991GF106991061051008001001001KA1240N+02351MA1999999100021MD1999999-0111REMSYN082AAXX  27124 82678 22596 62701 10260 20233 30002 40161 86500 333 20235 59011 60094;
0167826780999992001012718004-06760-043010FM-12+013899999V0202701N002110450019N0040001N1+02861+02331101291ADDAA199000091GF107991031031008001021021MA1999999099711MD1999999-0051REMSYN070AAXX  27184 82678 32596 72704 10286 20233 39971 40129 83322 333 59005;EQDQ01  00002PRCP99
0196826780999992001012800004-06760-043010FM-12+013899999V0202301N000512200019N0002001N1+02561+02361101331ADDAA199000091GA1001+999999999GF100991001001999999001001KA1240M+03031MA1999999099751MD1999999+0051REMSYN070AAXX  28004 82678 32992 02301 10256 20236 39975 40133 333 10303 58005;EQDQ01  00002PRCP99
0202826780999992001012812004-06760-043010FM-12+013899999V0200501N001019999999N0040001N1+02571+02291101611ADDAA199000091GF108991999011008001001001KA1240N+02311MA1999999100021MD1999999+0001REMSYN076AAXX  28124 82678 32596 80502 10257 20229 30002 40161 82100 333 20231 58000;EQDQ01+000022SCOTLCQ02  00002PRCP99
0201826780999992001012818004-06760-043010FM-12+013899999V0202701N000510075019N0040001N1+02541+02251101341ADDAA106002091AY161061AY221061GF108991999021008001001001MA1999999099751MD1999999+0041MW1021REMSYN082AAXX  28184 82678 21596 82701 10254 20225 39975 40134 70262 86200 333 58004 60021;EQDQ01+000062SCOTLC
0173826780999992001012912004-06760-043010FM-12+013899999V0202701N001010075019N0040001N1+02641+02331101471ADDAA124002091GF108991051051008001021999KA1240N+02411MA1999999099881MD1999999-0141REMSYN082AAXX  29124 82678 22596 82702 10264 20233 39988 40147 8552/ 333 20241 59014 60024;
0182826780999992001012918004-06760-043010FM-12+013899999V0203201N001510075019N0040001N1+02401+02261101191ADDAA106018091AY161061AY221061GF108991051051008001021999MA1999999099601MD1999999-0151MW1021REMSYN082AAXX  29184 82678 21596 83203 10240 20226 39960 40119 70262 8552/ 333 59015 60181;
0186826780999992001013000004-06760-043010FM-12+013899999V0209999C000012200019N0002001N1+02361+02221101201ADDAA199000091GF104991031051008001011999KA1240M+02951MA1999999099611MD1999999-0151REMSYN076AAXX  30004 82678 32592 40000 10236 20222 39961 40120 8351/ 333 10295 59015;EQDQ01  00002PRCP99
0173826780999992001013012004-06760-043010FM-12+013899999V0202701N001010075019N0040001N1+02471+02271101451ADDAA124018091GF108991081061008001999999KA1240N+02321MA1999999099851MD1999999-0031REMSYN082AAXX  30124 82678 22596 82702 10247 20227 39985 40145 886// 333 20232 59003 60184;
0182826780999992001013018004-06760-043010FM-12+013899999V0202701N000510450019N0040001N1+02451+02131101101ADDAA106008991AY191061AY261061GF108991031051008001021999MA1999999099511MD1999999-0091MW1021REMSYN082AAXX  30184 82678 21596 82701 10245 20213 39951 40110 70296 8352/ 333 59009 60091;
0202826780999992001013100004-06760-043010FM-12+013899999V0202301N001510075019N0002001N1+02401+02311101141ADDAA199000091GF108991999021008001001001KA1240M+02671MA1999999099151MD1999999-0061REMSYN076AAXX  31004 82678 32592 82303 10240 20231 39915 40114 85200 333 10267 59006;EQDQ01+000052SCOTLCQ02  00002PRCP99
0201826780999992001013112004-06760-043010FM-12+013899999V0200901N000510075019N0040001N1+02301+02131101561ADDAA124014091AY161061AY221061GF108991061051008001021999KA1240N+02201MA1999999099961MD1999999+0111MW1031REMSYN088AAXX  31124 82678 21596 80901 10230 20213 39996 40156 70362 8652/ 333 20220 58011 60144;
0182826780999992001013118004-06760-043010FM-12+013899999V0201401N000510450019N0040001N1+02821+02241101261ADDAA106002091AY161061AY221061GF108991041051008001031021MA1999999099671MD1999999+0161MW1021REMSYN082AAXX  31184 82678 21596 81401 10282 20224 39967 40126 70262 84532 333 58016 60021;
0186826780999992001020100004-06760-043010FM-12+013899999V0209999C000010450019N0002001N1+02421+02231101351ADDAA199000091GF106991041051008001021001KA1240M+02891MA1999999099751MD1999999+0281REMSYN076AAXX  01004 82678 32592 60000 10242 20223 39975 40135 84520 333 10289 58028;EQDQ01  00002PRCP99
0173826780999992001020112004-06760-043010FM-12+013899999V0209999C000010450019N0040001N1+02381+02151101481ADDAA124002091GF108991041051008001021999KA1240N+02221MA1999999099181MD1999999-0081REMSYN082AAXX  01124 82678 22596 80000 10238 20215 39918 40148 8452/ 333 20222 59008 60024;
0182826780999992001020118004-06760-043010FM-12+013899999V0200901N001510075019N0040001N1+02721+02241101081ADDAA106001091AY161061AY221061GF108991051051008001021999MA1999999099491MD1999999-0181MW1021REMSYN082AAXX  01184 82678 21596 80903 10272 20224 39949 40108 70262 8552/ 333 59018 60011;
0186826780999992001020200004-06760-043010FM-12+013899999V0209999C000010450019N0002001N1+02501+02341101151ADDAA199000091GF108991041051008001031021KA1240M+02991MA1999999099561MD1999999-0191REMSYN076AAXX  02004 82678 32592 80000 10250 20234 39956 40115 84532 333 10299 59019;EQDQ01  00002PRCP99
0173826780999992001020212004-06760-043010FM-12+013899999V0200901N000510075019N0040001N1+02501+02191101531ADDAA124001091GF108991051051008001071999KA1240N+02221MA1999999099941MD1999999+0061REMSYN082AAXX  02124 82678 22596 80901 10250 20219 39994 40153 8557/ 333 20222 58006 60014;
0167826780999992001020218004-06760-043010FM-12+013899999V0202301N001011050019N0040001N1+03081+02291101071ADDAA199000091GF106991041051008001001021MA1999999099491MD1999999+0001REMSYN070AAXX  02184 82678 32596 62302 10308 20229 39949 40107 84502 333 58000;EQDQ01  00002PRCP99
0186826780999992001020300004-06760-043010FM-12+013899999V0209999C000010150019N0002001N1+02601+02441101191ADDAA199000091GF105991051021017501001001KA1240M+03211MA1999999099611MD1999999+0051REMSYN076AAXX  03004 82678 32792 50000 10260 20244 39961 40119 85200 333 10321 58005;EQDQ01  00002PRCP99
0186826780999992001020312004-06760-043010FM-12+013899999V0200501N000510075019N0040001N1+02481+02171101551ADDAA199000091GF108991071051008001061999KA1240N+02161MA1999999099961MD1999999+0021REMSYN076AAXX  03124 82678 32596 80501 10248 20217 39996 40155 8756/ 333 20216 58002;EQDQ01  00002PRCP99
0167826780999992001020318004-06760-043010FM-12+013899999V0200901N000510450019N0040001N1+03101+02361101131ADDAA199000091GF106991031021008001031021MA1999999099551MD1999999+0061REMSYN070AAXX  03184 82678 32596 60901 10310 20236 39955 40113 83232 333 58006;EQDQ01  00002PRCP99
0186826780999992001020400004-06760-043010FM-12+013899999V0209999C000012200019N0002001N1+02561+02311101261ADDAA199000091GF103991031001017501031001KA1240M+03111MA1999999099671MD1999999+0061REMSYN076AAXX  04004 82678 32792 30000 10256 20231 39967 40126 83030 333 10311 58006;EQDQ01  00002PRCP99
0202826780999992001020412004-06760-043010FM-12+013899999V0209999C000010075019N0040001N1+02521+02311101651ADDAA199000091GF108991999021008001001001KA1240N+02201MA1999999100061MD1999999+0101REMSYN076AAXX  04124 82678 32596 80000 10252 20231 30006 40165 86200 333 20220 58010;EQDQ01+000062SCOTLCQ02  00002PRCP99
0201826780999992001020418004-06760-043010FM-12+013899999V0201801N000519999999N0040001N1+02541+01981101471ADDAA106000391AY161061AY221061GF108991999021008001001001MA1999999099881MD1999999+0331MW1021REMSYN082AAXX  04184 82678 21596 81801 10254 20198 39988 40147 70262 84200 333 58033 69931;EQDQ01+000042SCOTLC
0180826780999992001020500004-06760-043010FM-12+013899999V0209999C000012200019N0002001N1+02361+02111101341ADDAA199000091GF103991999999999999999999KA1240M+02731MA1999999099841MD1999999+0141REMSYN070AAXX  05004 82678 32992 30000 10236 20211 39984 40134 333 10273 58014;EQDQ01  00002PRCP99
0173826780999992001020512004-06760-043010FM-12+013899999V0201401N001010075019N0040001N1+02341+02111101681ADDAA124000391GF108991071051008001021999KA1240N+02041MA1999999100081MD1999999+0021REMSYN082AAXX  05124 82678 22596 81402 10234 20211 30008 40168 8752/ 333 20204 58002 69934;
0167826780999992001020518004-06760-043010FM-12+013899999V0201801N001511050019N0040001N1+03141+02241101301ADDAA199000091GF106991041021008001001021MA1999999099711MD1999999-0171REMSYN070AAXX  05184 82678 32596 61803 10314 20224 39971 40130 84202 333 59017;EQDQ01  00002PRCP99
0186826780999992001020600004-06760-043010FM-12+013899999V0209999C000011050019N0002001N1+02661+02391101371ADDAA199000091GF105991031051008001001021KA1240M+03211MA1999999099781MD1999999-0061REMSYN076AAXX  06004 82678 32592 50000 10266 20239 39978 40137 83502 333 10321 59006;EQDQ01  00002PRCP99
0186826780999992001020612004-06760-043010FM-12+013899999V0203601N000510075019N0040001N1+02601+02291101591ADDAA199000091GF108991061051008001001021KA1240N+02251MA1999999100011MD1999999-0071REMSYN076AAXX  06124 82678 32596 83601 10260 20229 30001 40159 86502 333 20225 59007;EQDQ01  00002PRCP99
0167826780999992001020618004-06760-043010FM-12+013899999V0200501N001011050019N0040001N1+03321+02411101131ADDAA199000091GF105991031021008001001021MA1999999099561MD1999999-0151REMSYN070AAXX  06184 82678 32596 50502 10332 20241 39956 40113 83202 333 59015;EQDQ01  00002PRCP99
0180826780999992001020700004-06760-043010FM-12+013899999V0209999C000019999999N0002001N1+02641+02461101281ADDAA199000091GF108991999999999999999999KA1240M+03421MA1999999099701MD1999999-0081REMSYN070AAXX  07004 82678 32992 80000 10264 20246 39970 40128 333 10342 59008;EQDQ01  00002PRCP99
0186826780999992001020712004-06760-043010FM-12+013899999V0209999C000010450019N0040001N1+02521+02361101531ADDAA199000091GF108991041051008001021999KA1240N+02311MA1999999099941MD1999999-0071REMSYN076AAXX  07124 82678 32596 80000 10252 20236 39994 40153 8452/ 333 20231 59007;EQDQ01  00002PRCP99
0167826780999992001020718004-06760-043010FM-12+013899999V0203201N001012200019N0040001N1+03181+02221101141ADDAA199000091GF106991031021008001001011MA1999999099571MD1999999+0011REMSYN070AAXX  07184 82678 32596 63202 10318 20222 39957 40114 83201 333 58001;EQDQ01  00002PRCP99
0186826780999992001020800004-06760-043010FM-12+013899999V0209999C000012200019N0002001N1+02701+02431101161ADDAA199000091GF104991031021008001001021KA1240M+03281MA1999999099581MD1999999-0121REMSYN076AAXX  08004 82678 32592 40000 10270 20243 39958 40116 83202 333 10328 59012;EQDQ01  00002PRCP99
0186826780999992001020812004-06760-043010FM-12+013899999V0200501N001010075019N0040001N1+02621+02331101501ADDAA199000091GF108991051051008001021999KA1240N+02341MA1999999099921MD1999999-0021REMSYN076AAXX  08124 82678 32596 80502 10262 20233 39992 40150 8552/ 333 20234 59002;EQDQ01  00002PRCP99
0167826780999992001020818004-06760-043010FM-12+013899999V0200901N000512200019N0040001N1+03221+02231101141ADDAA199000091GF105991041021008001001011MA1999999099571MD1999999+0001REMSYN070AAXX  08184 82678 32596 50901 10322 20223 39957 40114 84201 333 58000;EQDQ01  00002PRCP99
0202826780999992001020900004-06760-043010FM-12+013899999V0200901N001019999999N0020001N1+02661+02331101211ADDAA199000091GF107991999021008001001001KA1240M+03411MA1999999099631MD1999999+0021REMSYN076AAXX  09004 82678 32595 70902 10266 20233 39963 40121 84200 333 10341 58002;EQDQ01+000042SCOTLCQ02  00002PRCP99
0186826780999992001020912004-06760-043010FM-12+013899999V0200901N001510075019N0040001N1+02601+02211101421ADDAA199000091GF108991051051008001001021KA1240N+02231MA1999999099841MD1999999-0081REMSYN076AAXX  09124 82678 32596 80903 10260 20221 39984 40142 85502 333 20223 59008;EQDQ01  00002PRCP99
0167826780999992001020918004-06760-043010FM-12+013899999V0200901N001010075019N0040001N1+03321+02141100981ADDAA199000091GF107991051021008001001021MA1999999099421MD1999999-0151REMSYN070AAXX  09184 82678 32596 70902 10332 20214 39942 40098 85202 333 59015;EQDQ01  00002PRCP99
0186826780999992001021000004-06760-043010FM-12+013899999V0200501N002610075019N0002001N1+02501+02251101201ADDAA199000091GF108991061051008001021999KA1240M+03291MA1999999099621MD1999999-0011REMSYN076AAXX  10004 82678 32592 80505 10250 20225 39962 40120 8652/ 333 10329 59001;EQDQ01  00002PRCP99
0202826780999992001021012004-06760-043010FM-12+013899999V0203601N000510075019N0040001N1+02521+02251101491ADDAA199000091GF107991999021008001001001KA1240N+02221MA1999999099901MD1999999+0061REMSYN076AAXX  10124 82678 32596 73601 10252 20225 39990 40149 86200 333 20222 58006;EQDQ01+000062SCOTLCQ02  00002PRCP99
0167826780999992001021018004-06760-043010FM-12+013899999V0200901N003112200019N0040001N1+03301+02181101001ADDAA199000091GF103991021021008001001021MA1999999099441MD1999999+0021REMSYN070AAXX  10184 82678 32596 30906 10330 20218 39944 40100 82202 333 58002;EQDQ01  00002PRCP99
0196826780999992001021100004-06760-043010FM-12+013899999V0209999C000012200019N0002001N1+02721+02401101311ADDAA199000091GA1001+999999999GF100991001001999999001001KA1240M+03431MA1999999099731MD1999999+0111REMSYN070AAXX  11004 82678 32592 00000 10272 20240 39973 40131 333 10343 58011;EQDQ01  00002PRCP99
0182826780999992001021118004-06760-043010FM-12+013899999V0203201N001510075019N0040001N1+03041+02331101141ADDAA106001091AY161061AY221061GF108991061051008001001021MA1999999099561MD1999999+0121MW1021REMSYN082AAXX  11184 82678 21596 83203 10304 20233 39956 40114 70262 86502 333 58012 60011;
0173826780999992001021212004-06760-043010FM-12+013899999V0200901N000510075019N0040001N1+02561+02191101651ADDAA124000891GF108991071051008001031999KA1240N+02241MA1999999100061MD1999999+0061REMSYN082AAXX  12124 82678 22596 80901 10256 20219 30006 40165 8753/ 333 20224 58006 69984;
0167826780999992001021218004-06760-043010FM-12+013899999V0203601N001011050019N0040001N1+03181+02221101271ADDAA199000091GF106991031011008001001021MA1999999099701MD1999999+0141REMSYN070AAXX  12184 82678 32596 63602 10318 20222 39970 40127 83102 333 58014;EQDQ01  00002PRCP99
0186826780999992001021300004-06760-043010FM-12+013899999V0209999C000012200019N0020001N1+02681+02351101311ADDAA199000091GF102991021011017501001001KA1240M+03311MA1999999099731MD1999999+0011REMSYN076AAXX  13004 82678 32795 20000 10268 20235 39973 40131 82100 333 10331 58001;EQDQ01  00002PRCP99
0186826780999992001021312004-06760-043010FM-12+013899999V0200901N001510450019N0040001N1+02561+02171101531ADDAA199000091GF107991041051008001031011KA1240N+02251MA1999999099941MD1999999-0121REMSYN076AAXX  13124 82678 32596 70903 10256 20217 39994 40153 84531 333 20225 59012;EQDQ01  00002PRCP99
0167826780999992001021318004-06760-043010FM-12+013899999V0202701N001510450019N0040001N1+02921+02221101211ADDAA199000091GF107991031051008001031021MA1999999099631MD1999999-0071REMSYN070AAXX  13184 82678 32596 72703 10292 20222 39963 40121 83532 333 59007;EQDQ01  00002PRCP99
0201826780999992001021400004-06760-043010FM-12+013899999V0209999C000010075019N0002001N1+02341+02241101461ADDAA106000391AY161061AY221061GF108991061051008001021999KA1240M+03011MA1999999099861MD1999999+0131MW1031REMSYN088AAXX  14004 82678 21592 80000 10234 20224 39986 40146 70362 8652/ 333 10301 58013 69931;
0201826780999992001021412004-06760-043010FM-12+013899999V0209999C000010075019N0040001N1+02321+99999101491ADDAA124002091AY161061AY221061GF108991051051008001021999KA1240N+02321MA1999999099891MD1999999-0051MW1021REMSYN088AAXX  14124 82678 21596 80000 10232 20246 39989 40149 70262 8552/ 333 20232 59005 60024;
0167826780999992001021418004-06760-043010FM-12+013899999V0209999C000010450019N0040001N1+02721+02281101121ADDAA199000091GF108991041051008001021011MA1999999099531MD1999999-0101REMSYN070AAXX  14184 82678 32596 80000 10272 20228 39953 40112 84521 333 59010;EQDQ01  00002PRCP99
0202826780999992001021500004-06760-043010FM-12+013899999V0209999C000010075019N0002001N1+02421+02191101391ADDAA199000091GF108991999021008001001001KA1240M+02841MA1999999099801MD1999999-0061REMSYN076AAXX  15004 82678 32592 80000 10242 20219 39980 40139 86200 333 10284 59006;EQDQ01+000062SCOTLCQ02  00002PRCP99
0201826780999992001021512004-06760-043010FM-12+013899999V0200501N001010075019N0040001N1+02381+02241101621ADDAA124001091AY161061AY221061GF108991051051008001021999KA1240N+02211MA1999999100021MD1999999+0131MW1021REMSYN088AAXX  15124 82678 21596 80502 10238 20224 30002 40162 70262 8552/ 333 20221 58013 60014;
0167826780999992001021518004-06760-043010FM-12+013899999V0200901N001510450019N0040001N1+03181+02191101071ADDAA199000091GF108991041051008001031021MA1999999099501MD1999999-0031REMSYN070AAXX  15184 82678 32596 80903 10318 20219 39950 40107 84532 333 59003;EQDQ01  00002PRCP99
0196826780999992001021600004-06760-043010FM-12+013899999V0209999C000012200019N0002001N1+02541+02331101231ADDAA199000091GA1001+999999999GF100991001001999999001001KA1240M+03271MA1999999099641MD1999999-0161REMSYN070AAXX  16004 82678 32992 00000 10254 20233 39964 40123 333 10327 59016;EQDQ01  00002PRCP99
0186826780999992001021612004-06760-043010FM-12+013899999V0200501N001010075019N0040001N1+02581+02251101561ADDAA199000091GF108991071051008001061999KA1240N+02351MA1999999099971MD1999999-0051REMSYN076AAXX  16124 82678 32596 80502 10258 20225 39997 40156 8756/ 333 20235 59005;EQDQ01  00002PRCP99
0167826780999992001021618004-06760-043010FM-12+013899999V0201801N001510075019N0040001N1+02781+02321101331ADDAA199000091GF108991061051008001021999MA1999999099751MD1999999+0251REMSYN070AAXX  16184 82678 32596 81803 10278 20232 39975 40133 8652/ 333 58025;EQDQ01  00002PRCP99
0186826780999992001021700004-06760-043010FM-12+013899999V0202701N002110075019N0002001N1+02461+02361101421ADDAA199000091GF108991061051008001021999KA1240M+03011MA1999999099831MD1999999+0191REMSYN076AAXX  17004 82678 32592 82704 10246 20236 39983 40142 8652/ 333 10301 58019;EQDQ01  00002PRCP99
0186826780999992001021712004-06760-043010FM-12+013899999V0201801N001010075019N0040001N1+02481+02321101681ADDAA199000091GF108991081051008001999999KA1240N+02301MA1999999100081MD1999999+0111REMSYN076AAXX  17124 82678 32596 81802 10248 20232 30008 40168 885// 333 20230 58011;EQDQ01  00002PRCP99
0201826780999992001021718004-06760-043010FM-12+013899999V0202701N000510075019N0040001N1+02501+02251101551ADDAA106021191AY161061AY221061GF108991999051008001001001MA1999999099951MD1999999+0201MW1031REMSYN082AAXX  17184 82678 21596 82701 10250 20225 39995 40155 70362 87500 333 58020 60211;EQDQ01+000072SCOTLC
0186826780999992001021800004-06760-043010FM-12+013899999V0209999C000010075019N0002001N1+02401+02301101581ADDAA199000091GF108991071051008001021001KA1240M+02551MA1999999099981MD1999999+0151REMSYN076AAXX  18004 82678 32592 80000 10240 20230 39998 40158 87520 333 10255 58015;EQDQ01  00002PRCP99
0173826780999992001021812004-06760-043010FM-12+013899999V0200901N001010075019N0040001N1+02521+02271101821ADDAA124021191GF108991051051008001021011KA1240N+02161MA1999999100221MD1999999+0141REMSYN082AAXX  18124 82678 22596 80902 10252 20227 30022 40182 85521 333 20216 58014 60214;
0167826780999992001021818004-06760-043010FM-12+013899999V0202701N000510450019N0040001N1+03081+02241101491ADDAA199000091GF106991041021008001031001MA1999999099911MD1999999-0041REMSYN070AAXX  18184 82678 32596 62701 10308 20224 39991 40149 84230 333 59004;EQDQ01  00002PRCP99
0201826780999992001021900004-06760-043010FM-12+013899999V0200501N001010450019N0002001N1+02241+02171101641ADDAA106002091AY161061AY221061GF108991041051008001021999KA1240M+03221MA1999999100041MD1999999+0061MW1021REMSYN088AAXX  19004 82678 21592 80502 10224 20217 30004 40164 70262 8452/ 333 10322 58006 60021;
0173826780999992001021912004-06760-043010FM-12+013899999V0202701N001010075019N0040001N1+02421+02171101811ADDAA124002091GF108991051051008001021999KA1240N+02211MA1999999100201MD1999999-0021REMSYN082AAXX  19124 82678 22596 82702 10242 20217 30020 40181 8552/ 333 20221 59002 60024;
0167826780999992001021918004-06760-043010FM-12+013899999V0209999C000010075019N0040001N1+03001+02321101411ADDAA199000091GF108991061051008001001021MA1999999099831MD1999999-0081REMSYN070AAXX  19184 82678 32596 80000 10300 20232 39983 40141 86502 333 59008;EQDQ01  00002PRCP99
0186826780999992001022000004-06760-043010FM-12+013899999V0209999C000010075019N0002001N1+02581+02381101441ADDAA199000091GF108991061051008001021999KA1240M+03061MA1999999099851MD1999999-0191REMSYN076AAXX  20004 82678 32592 80000 10258 20238 39985 40144 8652/ 333 10306 59019;EQDQ01  00002PRCP99
0186826780999992001022012004-06760-043010FM-12+013899999V0200501N000510075019N0040001N1+02461+02281101701ADDAA199000091GF108991071051008001021999KA1240N+02301MA1999999100101MD1999999-0101REMSYN076AAXX  20124 82678 32596 80501 10246 20228 30010 40170 8752/ 333 20230 59010;EQDQ01  00002PRCP99
0182826780999992001022018004-06760-043010FM-12+013899999V0201801N000510075019N0040001N1+02461+02301101421ADDAA106008991AY161061AY221061GF108991061051008001021999MA1999999099831MD1999999+0001MW1021REMSYN082AAXX  20184 82678 21596 81801 10246 20230 39983 40142 70262 8652/ 333 58000 60091;
0201826780999992001022100004-06760-043010FM-12+013899999V0202701N000510075019N0002001N1+02301+02251101521ADDAA106000591AY161061AY221061GF108991061051008001021999KA1240M+02601MA1999999099921MD1999999+0071MW1611REMSYN088AAXX  21004 82678 21592 82701 10230 20225 39992 40152 76162 8652/ 333 10260 58007 69941;
0201826780999992001022112004-06760-043010FM-12+013899999V0200901N000510075019N0040001N1+02461+02271101631ADDAA124008991AY161061AY221061GF108991071051008001061999KA1240N+02241MA1999999100031MD1999999-0071MW1021REMSYN088AAXX  21124 82678 21596 80901 10246 20227 30003 40163 70262 8756/ 333 20224 59007 60094;
0167826780999992001022118004-06760-043010FM-12+013899999V0200901N001010450019N0040001N1+02741+02321101321ADDAA199000091GF108991041051008001071999MA1999999099731MD1999999-0101REMSYN070AAXX  21184 82678 32596 80902 10274 20232 39973 40132 8457/ 333 59010;EQDQ01  00002PRCP99
0186826780999992001022200004-06760-043010FM-12+013899999V0209999C000012200019N0002001N1+02481+02321101261ADDAA199000091GF103991031001017501031001KA1240M+02911MA1999999099671MD1999999-0251REMSYN076AAXX  22004 82678 32792 30000 10248 20232 39967 40126 83030 333 10291 59025;EQDQ01  00002PRCP99
0186826780999992001022212004-06760-043010FM-12+013899999V0209999C000010075019N0040001N1+02581+02571101531ADDAA199000091GF108991051021008001001011KA1240N+02221MA1999999099941MD1999999-0091REMSYN076AAXX  22124 82678 32596 80000 10258 20257 39994 40153 85201 333 20222 59009;EQDQ01  00002PRCP99
0167826780999992001022218004-06760-043010FM-12+013899999V0200901N001511050019N0040001N1+03101+02361101071ADDAA199000091GF108991041021008001001021MA1999999099501MD1999999-0231REMSYN070AAXX  22184 82678 32596 80903 10310 20236 39950 40107 84202 333 59023;EQDQ01  00002PRCP99
0196826780999992001022300004-06760-043010FM-12+013899999V0209999C000012200019N0002001N1+02541+02381101191ADDAA199000091GA1001+999999999GF100991001001999999001001KA1240M+03141MA1999999099611MD1999999-0061REMSYN070AAXX  23004 82678 32992 00000 10254 20238 39961 40119 333 10314 59006;EQDQ01  00002PRCP99
0186826780999992001022312004-06760-043010FM-12+013899999V0201401N001510075019N0040001N1+02601+02351101511ADDAA199000091GF108991051021008001001011KA1240N+02311MA1999999099921MD1999999-0021REMSYN076AAXX  23124 82678 32596 81403 10260 20235 39992 40151 85201 333 20231 59002;EQDQ01  00002PRCP99
0167826780999992001022318004-06760-043010FM-12+013899999V0201401N002110075019N0040001N1+03001+02371101161ADDAA199000091GF108991061021008001001021MA1999999099591MD1999999+0091REMSYN070AAXX  23184 82678 32596 81404 10300 20237 39959 40116 86202 333 58009;EQDQ01  00002PRCP99
0196826780999992001022400004-06760-043010FM-12+013899999V0209999C000012200019N0002001N1+02521+02361101281ADDAA199000091GA1001+999999999GF100991001001999999001001KA1240M+03071MA1999999099691MD1999999+0081REMSYN070AAXX  24004 82678 32992 00000 10252 20236 39969 40128 333 10307 58008;EQDQ01  00002PRCP99
0202826780999992001022412004-06760-043010FM-12+013899999V0202301N000519999999N0040001N1+02581+02371101551ADDAA199000091GF105991999011008001001001KA1240N+02171MA1999999099961MD1999999+0041REMSYN076AAXX  24124 82678 32596 52301 10258 20237 39996 40155 82100 333 20217 58004;EQDQ01+000022SCOTLCQ02  00002PRCP99
0183826780999992001022418004-06760-043010FM-12+013899999V0201401N002619999999N0040001N1+03161+02201101171ADDAA199000091GF106991999021008001001001MA1999999099601MD1999999+0011REMSYN070AAXX  24184 82678 32596 61405 10316 20220 39960 40117 83200 333 58001;EQDQ01+000032SCOTLCQ02  00002PRCP99
0202826780999992001022500004-06760-043010FM-12+013899999V0209999C000019999999N0002001N1+02621+02271101161ADDAA199000091GF106991999021008001001001KA1240M+03291MA1999999099581MD1999999-0111REMSYN076AAXX  25004 82678 32592 60000 10262 20227 39958 40116 84200 333 10329 59011;EQDQ01+000042SCOTLCQ02  00002PRCP99
0202826780999992001022512004-06760-043010FM-12+013899999V0203601N000519999999N0040001N1+02641+02271101441ADDAA199000091GF107991999001017501031001KA1240N+02221MA1999999099861MD1999999-0101REMSYN076AAXX  25124 82678 32796 73601 10264 20227 39986 40144 84030 333 20222 59010;EQDQ01+000042SCOTLCQ02  00002PRCP99
0167826780999992001022518004-06760-043010FM-12+013899999V0200901N001010450019N0040001N1+03221+02071101001ADDAA199000091GF106991021021008001031021MA1999999099441MD1999999-0161REMSYN070AAXX  25184 82678 32596 60902 10322 20207 39944 40100 82232 333 59016;EQDQ01  00002PRCP99
0186826780999992001022600004-06760-043010FM-12+013899999V0209999C000010075019N0002001N1+02761+02401101101ADDAA199000091GF105991051051008001001001KA1240M+03371MA1999999099531MD1999999-0051REMSYN076AAXX  26004 82678 32592 50000 10276 20240 39953 40110 85500 333 10337 59005;EQDQ01  00002PRCP99
0186826780999992001022612004-06760-043010FM-12+013899999V0200901N001510075019N0040001N1+02581+02371101401ADDAA199000091GF108991061021008001001021KA1240N+02341MA1999999099811MD1999999-0051REMSYN076AAXX  26124 82678 32596 80903 10258 20237 39981 40140 86202 333 20234 59005;EQDQ01  00002PRCP99
0167826780999992001022618004-06760-043010FM-12+013899999V0209999C000012200019N0040001N1+03181+02331100961ADDAA199000091GF105991031021008001001011MA1999999099401MD1999999-0041REMSYN070AAXX  26184 82678 32596 50000 10318 20233 39940 40096 83201 333 59004;EQDQ01  00002PRCP99
0202826780999992001022700004-06760-043010FM-12+013899999V0203601N000510075019N0002001N1+02381+01971101211ADDAA199000091GF108991999021008001001001KA1240M+03311MA1999999099621MD1999999+0091REMSYN076AAXX  27004 82678 32592 83601 10238 20197 39962 40121 86200 333 10331 58009;EQDQ01+000062SCOTLCQ02  00002PRCP99
0186826780999992001022712004-06760-043010FM-12+013899999V0209999C000010075019N0040001N1+02541+02151101521ADDAA199000091GF108991051051008001021011KA1240N+02201MA1999999099921MD1999999+0111REMSYN076AAXX  27124 82678 32596 80000 10254 20215 39992 40152 85521 333 20220 58011;EQDQ01  00002PRCP99
0182826780999992001022718004-06760-043010FM-12+013899999V0200901N000510450019N0040001N1+02841+02331101221ADDAA106001091AY161061AY221061GF107991041051008001031021MA1999999099641MD1999999+0241MW1021REMSYN082AAXX  27184 82678 21596 70901 10284 20233 39964 40122 70262 84532 333 58024 60011;
0220826780999992001022800004-06760-043010FM-12+013899999V0209999C000019999999N0002001N1+02461+02411101381ADDAA106002091AY161061AY221061GF108991999021008001001001KA1240M+03091MA1999999099791MD1999999+0011MW1031REMSYN088AAXX  28004 82678 21592 80000 10246 20241 39979 40138 70362 83200 333 10309 58001 60021;EQDQ01+000032SCOTLC
0173826780999992001022812004-06760-043010FM-12+013899999V0203601N001010075019N0040001N1+02701+02351101551ADDAA124004191GF108991071051008001061999KA1240N+02301MA1999999099961MD1999999+0041REMSYN082AAXX  28124 82678 22596 83602 10270 20235 39996 40155 8756/ 333 20230 58004 60044;
0182826780999992001022818004-06760-043010FM-12+013899999V0201401N003110075019N0040001N1+02541+02291101341ADDAA106007991AY161061AY221061GF108991061051008001021999MA1999999099751MD1999999+0111MW1611REMSYN082AAXX  28184 82678 21596 81406 10254 20229 39975 40134 76162 8652/ 333 58011 60081;
0232826780999992001030100004-06760-043010FM-12+013899999V0209999C000010075019N0002001N1+02321+02131101381ADDAA106007191AY161061AY221061GF108991999021008001001001KA1240M+03061MA1999999099791MD1999999+0001MW1031REMSYN100AAXX  01004 82678 21592 80000 10232 20213 39979 40138 70362 85200 333 10306 29086 55013 58000 60071;EQDQ01+000052SCOTLC
0201826780999992001030112004-06760-043010FM-12+013899999V0209999C000010075019N0040001N1+02381+02211101661ADDAA124018091AY161061AY221061GF108991071051008001061999KA1240N+02121MA1999999100061MD1999999+0101MW1021REMSYN088AAXX  01124 82678 21596 80000 10238 20221 30006 40166 70262 8756/ 333 20212 58010 60184;
0167826780999992001030118004-06760-043010FM-12+013899999V0202301N001510450019N0040001N1+03801+02381101351ADDAA199000091GF107991041051008001031021MA1999999099761MD1999999+0011REMSYN070AAXX  01184 82678 32596 72303 10380 20238 39976 40135 84532 333 58001;EQDQ01  00002PRCP99
0198826780999992001030200004-06760-043010FM-12+013899999V0209999C000012200019N0002001N1+02461+02361101411ADDAA199000091GF104991021001017501031021KA1240M+02931MA1999999099811MD1999999+0021REMSYN088AAXX  02004 82678 32792 40000 10246 20236 39981 40141 82032 333 10293 29089 55019 58002;EQDQ01  00002PRCP99
0201826780999992001030212004-06760-043010FM-12+013899999V0200901N001010075019N0040001N1+02481+02291101681ADDAA124000391AY161061AY221061GF108991051051008001021999KA1240N+02321MA1999999100081MD1999999+0021MW1021REMSYN088AAXX  02124 82678 21596 80902 10248 20229 30008 40168 70262 8552/ 333 20232 58002 69934;
0167826780999992001030218004-06760-043010FM-12+013899999V0200501N002110075019N0040001N1+02941+02261101281ADDAA199000091GF108991061051008001001021MA1999999099701MD1999999-0061REMSYN070AAXX  02184 82678 32596 80504 10294 20226 39970 40128 86502 333 59006;EQDQ01  00002PRCP99
0198826780999992001030300004-06760-043010FM-12+013899999V0209999C000010075019N0002001N1+02561+02401101411ADDAA199000091GF108991051051008001021999KA1240M+03061MA1999999099821MD1999999+0011REMSYN088AAXX  03004 82678 32592 80000 10256 20240 39982 40141 8552/ 333 10306 29084 55022 58001;EQDQ01  00002PRCP99
0202826780999992001030312004-06760-043010FM-12+013899999V0200901N000519999999N0040001N1+02611+02351101661ADDAA199000091GF108991999021008001001001KA1240N+02251MA1999999100071MD1999999-0011REMSYN076AAXX  03124 82678 32596 80901 10261 20235 30007 40166 83200 333 20225 59001;EQDQ01+000032SCOTLCQ02  00002PRCP99
0183826780999992001030318004-06760-043010FM-12+013899999V0200501N001519999999N0040001N1+03321+02231101291ADDAA199000091GF106991999021008001001001MA1999999099721MD1999999+0021REMSYN070AAXX  03184 82678 32596 60503 10332 20223 39972 40129 83200 333 58002;EQDQ01+000032SCOTLCQ02  00002PRCP99
0198826780999992001030400004-06760-043010FM-12+013899999V0209999C000012200019N0002001N1+02671+02461101471ADDAA199000091GF104991021021008001031011KA1240M+03381MA1999999099891MD1999999+0071REMSYN088AAXX  04004 82678 32592 40000 10267 20246 39989 40147 82231 333 10338 29079 55071 58007;EQDQ01  00002PRCP99
0186826780999992001030412004-06760-043010FM-12+013899999V0203601N000510075019N0040001N1+02541+02321101701ADDAA199000091GF107991051051008001031001KA1240N+02241MA1999999100111MD1999999+0041REMSYN076AAXX  04124 82678 32596 73601 10254 20232 30011 40170 85530 333 20224 58004;EQDQ01  00002PRCP99
0167826780999992001030418004-06760-043010FM-12+013899999V0200901N000511050019N0040001N1+03361+02331101291ADDAA199000091GF106991041021008001001021MA1999999099731MD1999999+0011REMSYN070AAXX  04184 82678 32596 60901 10336 20233 39973 40129 84202 333 58001;EQDQ01  00002PRCP99
0192826780999992001030500004-06760-043010FM-12+013899999V0209999C000012200019N0002001N1+02621+02311101391ADDAA199000091GF104991999999999999999999KA1240M+03391MA1999999099811MD1999999-0081REMSYN082AAXX  05004 82678 32992 40000 10262 20231 39981 40139 333 10339 29078 55085 59008;EQDQ01  00002PRCP99
0186826780999992001030512004-06760-043010FM-12+013899999V0209999C000010075019N0040001N1+02541+02311101591ADDAA199000091GF108991051051008001021999KA1240N+02241MA1999999100001MD1999999-0111REMSYN076AAXX  05124 82678 32596 80000 10254 20231 30000 40159 8552/ 333 20224 59011;EQDQ01  00002PRCP99
0167826780999992001030518004-06760-043010FM-12+013899999V0203601N001511050019N0040001N1+03341+02481101101ADDAA199000091GF108991041051008001001021MA1999999099541MD1999999-0191REMSYN070AAXX  05184 82678 32596 83603 10334 20248 39954 40110 84502 333 59019;EQDQ01  00002PRCP99
0198826780999992001030600004-06760-043010FM-12+013899999V0200901N001010075019N0002001N1+02521+02231101301ADDAA199000091GF108991081051008001999999KA1240M+03381MA1999999099711MD1999999-0101REMSYN088AAXX  06004 82678 32592 80902 10252 20223 39971 40130 885// 333 10338 29079 55085 59010;EQDQ01  00002PRCP99
0201826780999992001030612004-06760-043010FM-12+013899999V0203601N000510075019N0040001N1+02661+02391101671ADDAA124002091AY161061AY221061GF108991071051008001061999KA1240N+02301MA1999999100081MD1999999+0081MW1031REMSYN088AAXX  06124 82678 21596 83601 10266 20239 30008 40167 70362 8756/ 333 20230 58008 60024;
0167826780999992001030618004-06760-043010FM-12+013899999V0201401N002110450019N0040001N1+03211+02151101291ADDAA199000091GF108991031021008001021021MA1999999099721MD1999999+0181REMSYN070AAXX  06184 82678 32596 81404 10321 20215 39972 40129 83222 333 58018;EQDQ01  00002PRCP99
0214826780999992001030700004-06760-043010FM-12+013899999V0200901N000519999999N0002001N1+02681+02351101431ADDAA199000091GF108991999021017501001001KA1240M+03311MA1999999099851MD1999999+0141REMSYN088AAXX  07004 82678 32792 80901 10268 20235 39985 40143 83200 333 10331 29076 55071 58014;EQDQ01+000032SCOTLCQ02  00002PRCP99
0186826780999992001030712004-06760-043010FM-12+013899999V0200901N000511050019N0040001N1+02781+02341101781ADDAA199000091GF106991031011008001001021KA1240N+02321MA1999999100201MD1999999+0121REMSYN076AAXX  07124 82678 32596 60901 10278 20234 30020 40178 83102 333 20232 58012;EQDQ01  00002PRCP99
0167826780999992001030718004-06760-043010FM-12+013899999V0200901N001010075019N0040001N1+03221+02261101421ADDAA199000091GF108991051021008001001021MA1999999099851MD1999999+0131REMSYN070AAXX  07184 82678 32596 80902 10322 20226 39985 40142 85202 333 58013;EQDQ01  00002PRCP99
0192826780999992001030800004-06760-043010FM-12+013899999V0209999C000019999999N0002001N1+02681+02351101511ADDAA199000091GF105991999999999999999999KA1240M+03321MA1999999099931MD1999999+0081REMSYN082AAXX  08004 82678 32992 50000 10268 20235 39993 40151 333 10332 29074 55069 58008;EQDQ01  00002PRCP99
0186826780999992001030812004-06760-043010FM-12+013899999V0200501N001010075019N0040001N1+02621+02331101751ADDAA199000091GF108991051051008001001011KA1240N+02311MA1999999100161MD1999999+0311REMSYN076AAXX  08124 82678 32596 80502 10262 20233 30016 40175 85501 333 20231 58031;EQDQ01  00002PRCP99
0167826780999992001030818004-06760-043010FM-12+013899999V0203601N001512200019N0040001N1+03241+02251101301ADDAA199000091GF104991021021008001001011MA1999999099731MD1999999-0121REMSYN070AAXX  08184 82678 32596 43603 10324 20225 39973 40130 82201 333 59012;EQDQ01  00002PRCP99
0208826780999992001030900004-06760-043010FM-12+013899999V0209999C000012200019N0040001N1+02621+02311101351ADDAA199000091GA1001+999999999GF100991001001999999001001KA1240M+03331MA1999999099771MD1999999-0161REMSYN082AAXX  09004 82678 32996 00000 10262 20231 39977 40135 333 10333 29076 55054 59016;EQDQ01  00002PRCP99
0186826780999992001030912004-06760-043010FM-12+013899999V0200501N002110075019N0040001N1+02761+02341101551ADDAA199000091GF108991061021008001031011KA1240N+02311MA1999999099971MD1999999-0191REMSYN076AAXX  09124 82678 32596 80504 10276 20234 39997 40155 86231 333 20231 59019;EQDQ01  00002PRCP99
0167826780999992001030918004-06760-043010FM-12+013899999V0202701N001510450019N0040001N1+02801+02361101161ADDAA199000091GF106991041081008001021011MA1999999099581MD1999999-0151REMSYN070AAXX  09184 82678 32596 62703 10280 20236 39958 40116 84821 333 59015;EQDQ01  00002PRCP99
0198826780999992001031000004-06760-043010FM-12+013899999V0200501N001012200019N0002001N1+02551+02381101321ADDAA199000091GF108991021001017501031011KA1240M+03251MA1999999099741MD1999999-0031REMSYN088AAXX  10004 82678 32792 80502 10255 20238 39974 40132 82031 333 10325 29084 55065 59003;EQDQ01  00002PRCP99
0186826780999992001031012004-06760-043010FM-12+013899999V0200501N001010075019N0040001N1+02641+02251101501ADDAA199000091GF106991061051008001001001KA1240N+02241MA1999999099911MD1999999-0061REMSYN076AAXX  10124 82678 32596 60502 10264 20225 39991 40150 86500 333 20224 59006;EQDQ01  00002PRCP99
0183826780999992001031018004-06760-043010FM-12+013899999V0203601N001019999999N0040001N1+03141+02211101171ADDAA199000091GF106991999021008001001001MA1999999099601MD1999999+0021REMSYN070AAXX  10184 82678 32596 63602 10314 20221 39960 40117 83200 333 58002;EQDQ01+000032SCOTLCQ02  00002PRCP99
0194826780999992001031100004-06760-043010FM-12+013899999V0209999C000010075019N0002001N1+02701+02261101341ADDAA199000091GF107991999051008001001001KA1240M+03251MA1999999099761REMSYN082AAXX  11004 82678 32592 70000 10270 20226 39976 40134 85500 333 10325 29073 55083;EQDQ01+000052SCOTLCQ02  00002PRCP99
0201826780999992001031112004-06760-043010FM-12+013899999V0200501N001510075019N0040001N1+02521+02331101571ADDAA124000391AY161061AY221061GF108991051051008001021999KA1240N+02401MA1999999099981MD1999999+0071MW1021REMSYN088AAXX  11124 82678 21596 80503 10252 20233 39998 40157 70262 8552/ 333 20240 58007 69934;
0182826780999992001031118004-06760-043010FM-12+013899999V0200901N002610075019N0040001N1+02601+02231101181ADDAA106000191AY161061AY221061GF108991051051008001021011MA1999999099591MD1999999-0011MW1021REMSYN082AAXX  11184 82678 21596 80905 10260 20223 39959 40118 70262 85521 333 59001 69921;
0213826780999992001031200004-06760-043010FM-12+013899999V0209999C000010075019N0002001N1+02341+02221101481ADDAA106000591AY161061AY221061GF108991051051008001021999KA1240M+03001MA1999999099881MD1999999+0121MW1021REMSYN100AAXX  12004 82678 21592 80000 10234 20222 39988 40148 70262 8552/ 333 10300 29008 55089 58012 69941;
0201826780999992001031212004-06760-043010FM-12+013899999V0201801N000510075019N0040001N1+02321+02241101801ADDAA124004191AY161061AY221061GF108991071051008001021999KA1240N+02201MA1999999100191MD1999999+0211MW1611REMSYN088AAXX  12124 82678 21596 81801 10232 20224 30019 40180 76162 8752/ 333 20220 58021 60044;
0148826780999992001031218004-06760-043010FM-12+013899999V0203201N002110450019N0040001N1+02781+02301101271ADDAA199000021GF108991041031008001021011MA1999999099681MD1999999+0091REMSYN070AAXX  12184 82678 32596 83204 10278 20230 39968 40127 84321 333 58009;
0198826780999992001031300004-06760-043010FM-12+013899999V0203601N000510075019N0002001N1+02261+02181101561ADDAA199000021GF108991999021008001001001KA1240M+02851MA1999999099951MD1999999+0071REMSYN088AAXX  13004 82678 32592 83601 10226 20218 39995 40156 86200 333 10285 29090 55004 58007;EQDQ01+000062SCOTLC
0189826780999992001031312004-06760-043010FM-12+013899999V0202701N000519999999N0040001N1+02361+02191101791ADDAY161061AY221061GF108991999999008001999999KA1240N+02261MA1999999100181MD1999999-0011MW1031REMSYN087AAXX  13124 82678 21596 82701 10236 20219 30018 40179 70362 85// 333 20226 59001 60034;
0167826780999992001031318004-06760-043010FM-12+013899999V0203601N001010450019N0040001N1+02981+02231101241ADDAA199000091GF106991041031008001031001MA1999999099661MD1999999-0021REMSYN070AAXX  13184 82678 32596 63602 10298 20223 39966 40124 84330 333 59002;EQDQ01  00002PRCP99
0198826780999992001031400004-06760-043010FM-12+013899999V0200901N001010075019N0002001N1+02611+02291101481ADDAA199000091GF108991081041008001999999KA1240M+03171MA1999999099891MD1999999-0061REMSYN088AAXX  14004 82678 32592 80902 10261 20229 39989 40148 884// 333 10317 29080 55046 59006;EQDQ01  00002PRCP99
0201826780999992001031412004-06760-043010FM-12+013899999V0201801N000510075019N0040001N1+02341+02271101571ADDAA124005191AY161061AY221061GF108991081071008001999999KA1240N+02241MA1999999099981MD1999999-0201MW1511REMSYN088AAXX  14124 82678 21596 81801 10234 20227 39998 40157 75162 887// 333 20224 59020 60054;
0182826780999992001031418004-06760-043010FM-12+013899999V0200501N000510075019N0040001N1+02691+02261101261ADDAA106000891AY161061AY261061GF108991081071008001999999MA1999999099681MD1999999+0021MW1021REMSYN082AAXX  14184 82678 21596 80501 10269 20226 39968 40126 70266 887// 333 58002 69981;
0213826780999992001031500004-06760-043010FM-12+013899999V0209999C000010075019N0002001N1+02281+02231101421ADDAA106001091AY161061AY221061GF107991071051008001001001KA1240M+02711MA1999999099821MD1999999-0071MW1021REMSYN100AAXX  15004 82678 21592 70000 10228 20223 39982 40142 70262 87500 333 10271 29092 55000 59007 60011;
0173826780999992001031512004-06760-043010FM-12+013899999V0200901N003110075019N0040001N1+02421+02251101651ADDAA124002091GF108991081051008001999999KA1240N+02231MA1999999100051MD1999999+0011REMSYN082AAXX  15124 82678 22596 80906 10242 20225 30005 40165 885// 333 20223 58001 60024;
0167826780999992001031518004-06760-043010FM-12+013899999V0200901N001511050019N0040001N1+03001+02341101081ADDAA199000091GF105991031021008001001021MA1999999099501MD1999999-0181REMSYN070AAXX  15184 82678 32596 50903 10300 20234 39950 40108 83202 333 59018;EQDQ01  00002PRCP99
0192826780999992001031600004-06760-043010FM-12+013899999V0209999C000019999999N0002001N1+02521+02271101441ADDAA199000091GF108991999999008001999999KA1240M+03081MA1999999099851MD1999999+0031REMSYN082AAXX  16004 82678 32592 80000 10252 20227 39985 40144 333 10308 29082 55030 58003;EQDQ01  00002PRCP99
0186826780999992001031612004-06760-043010FM-12+013899999V0209999C000010075019N0040001N1+02481+02291101681ADDAA199000091GF108991051051008001021999KA1240N+02231MA1999999100081MD1999999+0031REMSYN076AAXX  16124 82678 32596 80000 10248 20229 30008 40168 8552/ 333 20223 58003;EQDQ01  00002PRCP99
0182826780999992001031618004-06760-043010FM-12+013899999V0209999C000010450019N0040001N1+02601+02421101321ADDAA106002091AY161061AY221061GF108991041051008001021999MA1999999099731MD1999999+0231MW1021REMSYN082AAXX  16184 82678 21596 80000 10260 20242 39973 40132 70262 8452/ 333 58023 60021;
0213826780999992001031700004-06760-043010FM-12+013899999V0209999C000010075019N0002001N1+02381+02331101491ADDAA106008991AY161061AY221061GF108991081051008001999999KA1240M+02971MA1999999099891MD1999999+0041MW1611REMSYN100AAXX  17004 82678 21592 80000 10238 20233 39989 40149 76162 885// 333 10297 29093 55016 58004 60091;
0220826780999992001031712004-06760-043010FM-12+013899999V0209999C000019999999N0040001N1+02541+02381101621ADDAA124011991AY161061AY221061GF108991999021008001001001KA1240N+02341MA1999999100011MD1999999-0071MW1031REMSYN088AAXX  17124 82678 21596 80000 10254 20238 30001 40162 70362 84200 333 20234 59007 60124;EQDQ01+000042SCOTLC
0183826780999992001031718004-06760-043010FM-12+013899999V0200901N002119999999N0040001N1+03191+02101101151ADDAA199000091GF105991999021008001001001MA1999999099581MD1999999-0151REMSYN070AAXX  17184 82678 32596 50904 10319 20210 39958 40115 83200 333 59015;EQDQ01+000032SCOTLCQ02  00002PRCP99
0208826780999992001031800004-06760-043010FM-12+013899999V0209999C000012200019N0020001N1+02621+02461101381ADDAA199000091GA1001+999999999GF100991001001999999001001KA1240M+03291MA1999999099801MD1999999-0091REMSYN082AAXX  18004 82678 32595 00000 10262 20246 39980 40138 333 10329 29081 55055 59009;EQDQ01  00002PRCP99
0186826780999992001031812004-06760-043010FM-12+013899999V0202701N000510075019N0040001N1+02641+02331101481ADDAA199000091GF108991071051008001061999KA1240N+02281MA1999999099901MD1999999-0111REMSYN076AAXX  18124 82678 32596 82701 10264 20233 39990 40148 8756/ 333 20228 59011;EQDQ01  00002PRCP99
0167826780999992001031818004-06760-043010FM-12+013899999V0201401N001511050019N0040001N1+03251+02101100981ADDAA199000091GF106991041021008001001021MA1999999099421MD1999999-0161REMSYN070AAXX  18184 82678 32596 61403 10325 20210 39942 40098 84202 333 59016;EQDQ01  00002PRCP99
0198826780999992001031900004-06760-043010FM-12+013899999V0200901N000512200019N0002001N1+02621+02441101251ADDAA199000091GF102991021001017501011001KA1240M+03341MA1999999099671MD1999999-0131REMSYN088AAXX  19004 82678 32792 20901 10262 20244 39967 40125 82010 333 10334 29078 55065 59013;EQDQ01  00002PRCP99
0186826780999992001031912004-06760-043010FM-12+013899999V0203601N001010075019N0040001N1+02501+02341101521ADDAA199000091GF108991081051008001999999KA1240N+02341MA1999999099931MD1999999+0031REMSYN076AAXX  19124 82678 32596 83602 10250 20234 39993 40152 885// 333 20234 58003;EQDQ01  00002PRCP99
0182826780999992001031918004-06760-043010FM-12+013899999V0200901N001010075019N0040001N1+03061+02301101071ADDAA106000191AY161061AY221061GF108991071051008001021999MA1999999099501MD1999999+0081MW1021REMSYN082AAXX  19184 82678 21596 80902 10306 20230 39950 40107 70262 8752/ 333 58008 69911;
0208826780999992001032000004-06760-043010FM-12+013899999V0209999C000012200019N0002001N1+02601+02461101191ADDAA199000091GA1001+999999999GF100991001001999999001001KA1240M+03091MA1999999099611MD1999999-0061REMSYN082AAXX  20004 82678 32992 00000 10260 20246 39961 40119 333 10309 29085 55015 59006;EQDQ01  00002PRCP99
0173826780999992001032012004-06760-043010FM-12+013899999V0209999C000010075019N0040001N1+02601+02391101731ADDAA124000191GF108991051051008001021999KA1240N+02421MA1999999100141MD1999999+0211REMSYN082AAXX  20124 82678 22596 80000 10260 20239 30014 40173 8552/ 333 20242 58021 69914;
0182826780999992001032018004-06760-043010FM-12+013899999V0200901N002111050019N0040001N1+03321+02231101231ADDAA106003091AY161061AY221061GF108991041021008001001021MA1999999099661MD1999999+0161MW1021REMSYN082AAXX  20184 82678 21596 80904 10332 20223 39966 40123 70262 84202 333 58016 60031;
0198826780999992001032100004-06760-043010FM-12+013899999V0209999C000012200019N0002001N1+02641+02371101481ADDAA199000091GF103991021021008001001011KA1240M+03331MA1999999099891MD1999999+0281REMSYN088AAXX  21004 82678 32592 30000 10264 20237 39989 40148 82201 333 10333 29078 55039 58028;EQDQ01  00002PRCP99
0201826780999992001032112004-06760-043010FM-12+013899999V0200501N002110450019N0040001N1+02781+02341101571ADDAA124003091AY121061AY261061GF106991031021008001031021KA1240N+02281MA1999999099991MD1999999-0151MW1021REMSYN088AAXX  21124 82678 21596 60504 10278 20234 39999 40157 70226 83232 333 20228 59015 60034;
0167826780999992001032118004-06760-043010FM-12+013899999V0200901N002610120019N0040001N1+03281+02201101171ADDAA199000091GF106991051081008001001011MA1999999099601MD1999999-0061REMSYN070AAXX  21184 82678 32596 60905 10328 20220 39960 40117 85801 333 59006;EQDQ01  00002PRCP99
0198826780999992001032200004-06760-043010FM-12+013899999V0209999C000012200019N0002001N1+02661+02431101271ADDAA199000091GF102991021001017501031001KA1240M+03331MA1999999099691MD1999999-0201REMSYN088AAXX  22004 82678 32792 20000 10266 20243 39969 40127 82030 333 10333 29076 55090 59020;EQDQ01  00002PRCP99
0186826780999992001032212004-06760-043010FM-12+013899999V0200901N002610450019N0040001N1+02761+02211101441ADDAA199000091GF106991031011008001031021KA1240N+02381MA1999999099861MD1999999-0131REMSYN076AAXX  22124 82678 32596 60905 10276 20221 39986 40144 83132 333 20238 59013;EQDQ01  00002PRCP99
0167826780999992001032218004-06760-043010FM-12+013899999V0200901N003110450019N0040001N1+03221+02111101021ADDAA199000091GF106991041051008001031021MA1999999099461MD1999999-0141REMSYN070AAXX  22184 82678 32596 60906 10322 20211 39946 40102 84532 333 59014;EQDQ01  00002PRCP99
0208826780999992001032300004-06760-043010FM-12+013899999V0200901N000512200019N0010001N1+02571+02311101181ADDAA199000091GA1001+999999999GF100991001001999999001001KA1240M+03281MA1999999099601MD1999999-0091REMSYN082AAXX  23004 82678 32994 00901 10257 20231 39960 40118 333 10328 29074 55072 59009;EQDQ01  00002PRCP99
0186826780999992001032312004-06760-043010FM-12+013899999V0200901N001510075019N0040001N1+02821+02331101351ADDAA199000091GF108991051021008001001021KA1240N+02281MA1999999099771MD1999999-0091REMSYN076AAXX  23124 82678 32596 80903 10282 20233 39977 40135 85202 333 20228 59009;EQDQ01  00002PRCP99
0167826780999992001032318004-06760-043010FM-12+013899999V0200901N003112200019N0040001N1+03161+02321100941ADDAA199000091GF108991041021008001001011MA1999999099371MD1999999-0091REMSYN070AAXX  23184 82678 32596 80906 10316 20232 39937 40094 84201 333 59009;EQDQ01  00002PRCP99
0198826780999992001032400004-06760-043010FM-12+013899999V0200901N001510075019N0002001N1+02541+02211101241ADDAA199000091GF108991061051008001021999KA1240M+03241MA1999999099661MD1999999+0061REMSYN088AAXX  24004 82678 32592 80903 10254 20221 39966 40124 8652/ 333 10324 29075 55072 58006;EQDQ01  00002PRCP99
0202826780999992001032412004-06760-043010FM-12+013899999V0200501N002610075019N0040001N1+02731+02281101421ADDAA199000091GF108991999051008001001001KA1240N+02221MA1999999099841MD1999999+0081REMSYN076AAXX  24124 82678 32596 80505 10273 20228 39984 40142 85500 333 20222 58008;EQDQ01+000052SCOTLCQ02  00002PRCP99
0183826780999992001032418004-06760-043010FM-12+013899999V0202301N001519999999N0040001N1+03281+02101101061ADDAA199000091GF106991999051008001001001MA1999999099491MD1999999-0121REMSYN070AAXX  24184 82678 32596 62303 10328 20210 39949 40106 82500 333 59012;EQDQ01+000022SCOTLCQ02  00002PRCP99
0198826780999992001032500004-06760-043010FM-12+013899999V0200501N001012200019N0002001N1+02661+02391101331ADDAA199000091GF104991041021008001001001KA1240M+03391MA1999999099751MD1999999+0051REMSYN088AAXX  25004 82678 32592 40502 10266 20239 39975 40133 84200 333 10339 29074 55086 58005;EQDQ01  00002PRCP99
0201826780999992001032512004-06760-043010FM-12+013899999V0200501N000510075019N0040001N1+02421+02111101611ADDAA124000391AY161061AY221061GF108991051051008001071999KA1240N+02161MA1999999100021MD1999999+0141MW1031REMSYN088AAXX  25124 82678 21596 80501 10242 20211 30002 40161 70362 8557/ 333 20216 58014 69934;
0167826780999992001032518004-06760-043010FM-12+013899999V0200901N001010450019N0040001N1+03201+02351101271ADDAA199000091GF106991041051008001031021MA1999999099691MD1999999+0201REMSYN070AAXX  25184 82678 32596 60902 10320 20235 39969 40127 84532 333 58020;EQDQ01  00002PRCP99
0208826780999992001032600004-06760-043010FM-12+013899999V0200901N001012200019N0002001N1+02641+02331101361ADDAA199000091GA1001+999999999GF100991001001999999001001KA1240M+03301MA1999999099771MD1999999+0021REMSYN082AAXX  26004 82678 32992 00902 10264 20233 39977 40136 333 10330 29078 55038 58002;EQDQ01  00002PRCP99
0186826780999992001032612004-06760-043010FM-12+013899999V0200901N001010075019N0040001N1+02601+02231101581ADDAA199000091GF108991051021008001001021KA1240N+02271MA1999999099991MD1999999-0031REMSYN076AAXX  26124 82678 32596 80902 10260 20223 39999 40158 85202 333 20227 59003;EQDQ01  00002PRCP99
0167826780999992001032618004-06760-043010FM-12+013899999V0200901N001010075019N0040001N1+03121+02281101151ADDAA199000091GF108991061021008001001011MA1999999099581MD1999999-0111REMSYN070AAXX  26184 82678 32596 80902 10312 20228 39958 40115 86201 333 59011;EQDQ01  00002PRCP99
0167826780999992001032718004-06760-043010FM-12+013899999V0200501N001511050019N0040001N1+03261+02181100991ADDAA199000091GF107991041021008001001021MA1999999099431MD1999999-0151REMSYN070AAXX  27184 82678 32596 70503 10326 20218 39943 40099 84202 333 59015;EQDQ01  00002PRCP99
0208826780999992001032800004-06760-043010FM-12+013899999V0209999C000012200019N0002001N1+02661+02331101301ADDAA199000091GA1001+999999999GF100991001001999999001001KA1240M+03411MA1999999099721MD1999999-0041REMSYN082AAXX  28004 82678 32992 00000 10266 20233 39972 40130 333 10341 29074 55074 59004;EQDQ01  00002PRCP99
0186826780999992001032812004-06760-043010FM-12+013899999V0202701N000510075019N0040001N1+02641+02331101461ADDAA199000091GF108991071051008001031999KA1240N+02281MA1999999099881MD1999999-0091REMSYN076AAXX  28124 82678 32596 82701 10264 20233 39988 40146 8753/ 333 20228 59009;EQDQ01  00002PRCP99
0182826780999992001032818004-06760-043010FM-12+013899999V0200901N001510075019N0040001N1+03141+02351101051ADDAA106000191AY161061AY221061GF107991051051008001001021MA1999999099481MD1999999+0051MW1021REMSYN082AAXX  28184 82678 21596 70903 10314 20235 39948 40105 70262 85502 333 58005 69911;
0198826780999992001032900004-06760-043010FM-12+013899999V0209999C000010075019N0002001N1+02521+02361101251ADDAA199000091GF105991051051008001001001KA1240M+03191MA1999999099671MD1999999-0051REMSYN088AAXX  29004 82678 32592 50000 10252 20236 39967 40125 85500 333 10319 29082 55032 59005;EQDQ01  00002PRCP99
0173826780999992001032912004-06760-043010FM-12+013899999V0201401N001510075019N0040001N1+02621+02211101661ADDAA124000191GF108991061051008001021999KA1240N+02251MA1999999100071MD1999999+0191REMSYN082AAXX  29124 82678 22596 81403 10262 20221 30007 40166 8652/ 333 20225 58019 69914;
0182826780999992001032918004-06760-043010FM-12+013899999V0203601N001011050019N0040001N1+03101+02391101161ADDAA106008991AY161061AY221061GF108991041021008001001021MA1999999099571MD1999999+0091MW1021REMSYN082AAXX  29184 82678 21596 83602 10310 20239 39957 40116 70262 84202 333 58009 60091;
0214826780999992001033000004-06760-043010FM-12+013899999V0209999C000019999999N0002001N1+02421+02131101551ADDAA199000091GF106991999021008001001001KA1240M+03161MA1999999099961MD1999999+0291REMSYN088AAXX  30004 82678 32592 60000 10242 20213 39996 40155 84200 333 10316 29078 55040 58029;EQDQ01+000042SCOTLCQ02  00002PRCP99
0152826780999992001033012004-06760-043010FM-12+013899999V0200901N000510075019N0040001N1+02621+02291101671ADDAA124008991GF108991051051008001021999KA1240N+02311MD1999999+0001REMSYN076AAXX  30124 82678 22596 80901 10262 20229 40167 8552/ 333 20231 58000 60094;
0182826780999992001033018004-06760-043010FM-12+013899999V0203601N001010450019N0040001N1+02821+02361101291ADDAA106004191AY121061AY261061GF108991021041008001021999MA1999999099701MD1999999+0131MW1021REMSYN082AAXX  30184 82678 21596 83602 10282 20236 39970 40129 70226 8242/ 333 58013 60041;
0198826780999992001033100004-06760-043010FM-12+013899999V0200901N001011050019N0002001N1+02511+02381101451ADDAA199000091GF106991041001017501021021KA1240M+02871MA1999999099361MD1999999-0101REMSYN088AAXX  31004 82678 32792 60902 10251 20238 39936 40145 84022 333 10287 29086 55000 59010;EQDQ01  00002PRCP99
0173826780999992001033112004-06760-043010FM-12+013899999V0209999C000010075019N0040001N1+02481+02271101491ADDAA124004191GF108991071051008001061001KA1240N+02201MA1999999099901MD1999999-0171REMSYN082AAXX  31124 82678 22596 80000 10248 20227 39990 40149 87560 333 20220 59017 60044;
0183826780999992001033118004-06760-043010FM-12+013899999V0203601N001019999999N0040001N1+03021+02341101191ADDAA199000091GF107991999021008001001001MA1999999099601MD1999999-0091REMSYN070AAXX  31184 82678 32596 73602 10302 20234 39960 40119 84200 333 59009;EQDQ01+000042SCOTLCQ02  00002PRCP99
0214826780999992001040100004-06760-043010FM-12+013899999V0209999C000012200019N0020001N1+02521+02381101391ADDAA199000091GF103991999021017501001001KA1240M+03051MA1999999099771MD1999999-0091REMSYN088AAXX  01004 82678 32795 30000 10252 20238 39977 40139 81200 333 10305 29085 55023 59009;EQDQ01+000012SCOTLCQ02  00002PRCP99
0186826780999992001040112004-06760-043010FM-12+013899999V0203601N000512200019N0040001N1+02661+02311101591ADDAA199000091GF105991041021008001001011KA1240N+02281MA1999999100001MD1999999+0101REMSYN076AAXX  01124 82678 32596 53601 10266 20231 30000 40159 84201 333 20228 58010;EQDQ01  00002PRCP99
0167826780999992001040118004-06760-043010FM-12+013899999V0201401N001511050019N0040001N1+03301+02271101121ADDAA199000091GF106991041021008001001021MA1999999099551MD1999999-0061REMSYN070AAXX  01184 82678 32596 61403 10330 20227 39955 40112 84202 333 59006;EQDQ01  00002PRCP99
0198826780999992001040200004-06760-043010FM-12+013899999V0209999C000012200019N0002001N1+02631+02421101331ADDAA199000091GF104991031001017501031011KA1240M+03351MA1999999099751MD1999999+0021REMSYN088AAXX  02004 82678 32792 40000 10263 20242 39975 40133 83031 333 10335 29078 55072 58002;EQDQ01  00002PRCP99
0186826780999992001040212004-06760-043010FM-12+013899999V0200501N000510450019N0040001N1+02601+02401101711ADDAA199000091GF107991041051008001031021KA1240N+02221MA1999999100121MD1999999+0121REMSYN076AAXX  02124 82678 32596 70501 10260 20240 30012 40171 84532 333 20222 58012;EQDQ01  00002PRCP99
0167826780999992001040218004-06760-043010FM-12+013899999V0200501N001510450019N0040001N1+02991+02351101291ADDAA199000091GF108991031021008001021011MA1999999099711MD1999999+0161REMSYN070AAXX  02184 82678 32596 80503 10299 20235 39971 40129 83221 333 58016;EQDQ01  00002PRCP99
0198826780999992001040300004-06760-043010FM-12+013899999V0209999C000012200019N0002001N1+02601+02331101471ADDAA199000091GF105991031021008001001011KA1240M+03171MA1999999099881MD1999999+0131REMSYN088AAXX  03004 82678 32592 50000 10260 20233 39988 40147 83201 333 10317 29082 55034 58013;EQDQ01  00002PRCP99
0201826780999992001040312004-06760-043010FM-12+013899999V0203601N001010450019N0040001N1+02561+02251101671ADDAA124000391AY161061AY221061GF108991041021008001021011KA1240N+02401MA1999999100081MD1999999-0041MW1021REMSYN088AAXX  03124 82678 21596 83602 10256 20225 30008 40167 70262 84221 333 20240 59004 69934;
0183826780999992001040318004-06760-043010FM-12+013899999V0200901N003112200019N0040001N1+03281+02201999999ADDAA199000091GF106991041051008001001011MA1999999099601MD1999999-0111REMSYN070AAXX  03184 82678 32596 60906 10328 20220 39960 40016 84501 333 59011;EQDQ01+100163APOSLPQ02  00002PRCP99
0232826780999992001040400004-06760-043010FM-12+013899999V0200501N001510075019N0020001N1+02601+02441101501ADDAA106002091AY161061AY221061GF108991999021008001001001KA1240M+03331MA1999999099911MD1999999+0031MW1611REMSYN100AAXX  04004 82678 21595 80503 10260 20244 39991 40150 76162 87200 333 10333 29080 55057 58003 60021;EQDQ01+000072SCOTLC
0201826780999992001040412004-06760-043010FM-12+013899999V0203601N001010075019N0040001N1+02561+02311101621ADDAA124002091AY161061AY221061GF108991051051008001021999KA1240N+02251MA1999999100031MD1999999-0051MW1021REMSYN088AAXX  04124 82678 21596 83602 10256 20231 30003 40162 70262 8552/ 333 20225 59005 60024;
0167826780999992001040418004-06760-043010FM-12+013899999V0200901N001511050019N0040001N1+03261+02441101101ADDAA199000091GF108991041021008001001021MA1999999099531MD1999999-0071REMSYN070AAXX  04184 82678 32596 80903 10326 20244 39953 40110 84202 333 59007;EQDQ01  00002PRCP99
0208826780999992001040500004-06760-043010FM-12+013899999V0209999C000012200019N0002001N1+02601+02071101281ADDAA199000091GA1001+999999999GF100991001001999999001001KA1240M+03331MA1999999099701MD1999999-0211REMSYN082AAXX  05004 82678 32992 00000 10260 20207 39970 40128 333 10333 29078 55048 59021;EQDQ01  00002PRCP99
0186826780999992001040512004-06760-043010FM-12+013899999V0200901N003112200019N0040001N1+02921+02091101591ADDAA199000091GF105991031011008001001011KA1240N+02241MA1999999100011MD1999999-0021REMSYN076AAXX  05124 82678 32596 50906 10292 20209 30001 40159 83101 333 20224 59002;EQDQ01  00002PRCP99
0167826780999992001040518004-06760-043010FM-12+013899999V0200901N002110075019N0040001N1+03341+01871101081ADDAA199000091GF106991051021008001001011MA1999999099511MD1999999-0021REMSYN070AAXX  05184 82678 32596 60904 10334 20187 39951 40108 85201 333 59002;EQDQ01  00002PRCP99
0198826780999992001040600004-06760-043010FM-12+013899999V0209999C000012200019N0002001N1+02601+02191101371ADDAA199000091GF103991031021017501001001KA1240M+03421MA1999999099801MD1999999+0101REMSYN088AAXX  06004 82678 32792 30000 10260 20219 39980 40137 83200 333 10342 29065 55103 58010;EQDQ01  00002PRCP99
0186826780999992001040612004-06760-043010FM-12+013899999V0200901N005112200019N0040001N1+02941+01811101681ADDAA199000091GF105991031021008001001011KA1240N+02141MA1999999100101MD1999999+0091REMSYN076AAXX  06124 82678 32596 50910 10294 20181 30010 40168 83201 333 20214 58009;EQDQ01  00002PRCP99
0167826780999992001040618004-06760-043010FM-12+013899999V0200901N002612200019N0040001N1+03361+01931101271ADDAA199000091GF105991041021008001001011MA1999999099701MD1999999+0191REMSYN070AAXX  06184 82678 32596 50905 10336 20193 39970 40127 84201 333 58019;EQDQ01  00002PRCP99
0192826780999992001040700004-06760-043010FM-12+013899999V0209999C000019999999N0002001N1+02621+02051101471ADDAA199000091GF106991999999999999999999KA1240M+03491MA1999999099901MD1999999+0101REMSYN082AAXX  07004 82678 32992 60000 10262 20205 39990 40147 333 10349 29060 55106 58010;EQDQ01  00002PRCP99
0186826780999992001040712004-06760-043010FM-12+013899999V0200901N003110450019N0040001N1+02841+02141101721ADDAA199000091GF107991031011008001031021KA1240N+02151MA1999999100141MD1999999+0041REMSYN076AAXX  07124 82678 32596 70906 10284 20214 30014 40172 83132 333 20215 58004;EQDQ01  00002PRCP99
0167826780999992001040718004-06760-043010FM-12+013899999V0201401N003612200019N0040001N1+03381+02061101201ADDAA199000091GF104991021021008001001011MA1999999099631MD1999999-0071REMSYN070AAXX  07184 82678 32596 41407 10338 20206 39963 40120 82201 333 59007;EQDQ01  00002PRCP99
0198826780999992001040800004-06760-043010FM-12+013899999V0209999C000012200019N0002001N1+02601+02101101431ADDAA199000091GF103991021001017501031011KA1240M+03471MA1999999099851MD1999999-0051REMSYN088AAXX  08004 82678 32792 30000 10260 20210 39985 40143 82031 333 10347 29065 55085 59005;EQDQ01  00002PRCP99
0202826780999992001040812004-06760-043010FM-12+013899999V0201401N005119999999N0040001N1+02881+01861101561ADDAA199000091GF106991999021008001001001KA1240N+02201MA1999999099981MD1999999-0161REMSYN076AAXX  08124 82678 32596 61410 10288 20186 39998 40156 81200 333 20220 59016;EQDQ01+000012SCOTLCQ02  00002PRCP99
0183826780999992001040818004-06760-043010FM-12+013899999V0201401N003119999999N0040001N1+03361+01771101021ADDAA199000091GF108991999021008001001001MA1999999099461MD1999999-0171REMSYN070AAXX  08184 82678 32596 81406 10336 20177 39946 40102 84200 333 59017;EQDQ01+000042SCOTLCQ02  00002PRCP99
0194826780999992001040900004-06760-043010FM-12+013899999V0209999C000019999999N0020001N1+02601+02031101271ADDAA199000091GF108991999011008001001001KA1240M+03451MA1999999099701REMSYN082AAXX  09004 82678 32595 80000 10260 20203 39970 40127 82100 333 10345 29059 55103;EQDQ01+000022SCOTLCQ02  00002PRCP99
0180826780999992001040912004-06760-043010FM-12+013899999V0200901N005119999999N0040001N1+02971+01761101421ADDAA199000091GF105991999999999999999999KA1240N+02201MA1999999099851MD1999999-0131REMSYN070AAXX  09124 82678 32996 50910 10297 20176 39985 40142 333 20220 59013;EQDQ01  00002PRCP99
0167826780999992001040918004-06760-043010FM-12+013899999V0200901N002610450019N0040001N1+03421+01911100971ADDAA199000091GF106991031021008001031021MA1999999099411MD1999999-0051REMSYN070AAXX  09184 82678 32596 60905 10342 20191 39941 40097 83232 333 59005;EQDQ01  00002PRCP99
0214826780999992001041000004-06760-043010FM-12+013899999V0209999C000019999999N0002001N1+02781+02211101191ADDAA199000091GF107991999001017501051001KA1240M+03491MA1999999099631MD1999999+0071REMSYN088AAXX  10004 82678 32792 70000 10278 20221 39963 40119 80050 333 10349 29058 55105 58007;EQDQ01+000002SCOTLCQ02  00002PRCP99
0201826780999992001041012004-06760-043010FM-12+013899999V0203601N003110450019N0040001N1+02461+02251101581ADDAA124000191AY161061AY221061GF108991041051008001021999KA1240N+02421MA1999999099991MD1999999+0141MW1021REMSYN088AAXX  10124 82678 21596 83606 10246 20225 39999 40158 70262 8452/ 333 20242 58014 69924;
0182826780999992001041018004-06760-043010FM-12+013899999V0202701N001510075019N0040001N1+03281+02161101001ADDAA106002091AY161061AY221061GF108991051021008001001021MA1999999099441MD1999999+0031MW1611REMSYN082AAXX  10184 82678 21596 82703 10328 20216 39944 40100 76162 85202 333 58003 60021;
0179826780999992001041100004-06760-043010FM-12+013899999V0209999C000010450019N0002001N1+02601+02351101311ADDAA199000021GF105991031051008001021999KA1240M+03321MA1999999099721MD1999999+0091REMSYN088AAXX  11004 82678 32592 50000 10260 20235 39972 40131 8352/ 333 10332 29078 55028 58009;
0173826780999992001041112004-06760-043010FM-12+013899999V0209999C000010075019N0020001N1+02481+02291101761ADDAA124002091GF108991061051008001021999KA1240N+02281MA1999999100171MD1999999+0181REMSYN082AAXX  11124 82678 22595 80000 10248 20229 30017 40176 8652/ 333 20228 58018 60024;
0167826780999992001041118004-06760-043010FM-12+013899999V0203601N001010450019N0040001N1+03201+02151101261ADDAA199000091GF108991031021008001021011MA1999999099691MD1999999+0251REMSYN070AAXX  11184 82678 32596 83602 10320 20215 39969 40126 83221 333 58025;EQDQ01  00002PRCP99
0208826780999992001041200004-06760-043010FM-12+013899999V0200501N002112200019N0002001N1+02591+02331101501ADDAA199000091GA1001+999999999GF100991001001999999001001KA1240M+03281MA1999999099911MD1999999+0191REMSYN082AAXX  12004 82678 32992 00504 10259 20233 39991 40150 333 10328 29079 55029 58019;EQDQ01  00002PRCP99
0186826780999992001041212004-06760-043010FM-12+013899999V0200501N000512200019N0040001N1+02751+02301101521ADDAA199000091GF103991021001017501031011KA1240N+02171MA1999999099941MD1999999-0231REMSYN076AAXX  12124 82678 32796 30501 10275 20230 39994 40152 82031 333 20217 59023;EQDQ01  00002PRCP99
0167826780999992001041218004-06760-043010FM-12+013899999V0201801N002111050019N0040001N1+03601+01941101021ADDAA199000091GF105991041021008001001021MA1999999099471MD1999999-0221REMSYN070AAXX  12184 82678 32596 51804 10360 20194 39947 40102 84202 333 59022;EQDQ01  00002PRCP99
0208826780999992001041300004-06760-043010FM-12+013899999V0209999C000012200019N0002001N1+02701+02261101241ADDAA199000091GA1001+999999999GF100991001001999999001001KA1240M+03611MA1999999099661MD1999999-0251REMSYN082AAXX  13004 82678 32992 00000 10270 20226 39966 40124 333 10361 29067 55085 59025;EQDQ01  00002PRCP99
0186826780999992001041312004-06760-043010FM-12+013899999V0202301N000510075019N0040001N1+02701+02221101461ADDAA199000091GF108991071051008001061999KA1240N+02441MA1999999099881MD1999999-0061REMSYN076AAXX  13124 82678 32596 82301 10270 20222 39988 40146 8756/ 333 20244 59006;EQDQ01  00002PRCP99
0167826780999992001041318004-06760-043010FM-12+013899999V0202701N000510075019N0040001N1+03301+02151101041ADDAA199000091GF107991051051008001001021MA1999999099481MD1999999+0011REMSYN070AAXX  13184 82678 32596 72701 10330 20215 39948 40104 85502 333 58001;EQDQ01  00002PRCP99
0223826780999992001041400004-06760-043010FM-12+013899999V0209999C000012200019N0002001N1+02601+02331101261ADDAA106003091AY161061AY221061GA1001+999999999GF100991001001999999001001KA1240M+03301MA1999999099681MD1999999+0021MW1011REMSYN094AAXX  14004 82678 21992 00000 10260 20233 39968 40126 70162 333 10330 29074 55040 58002 60031;
0173826780999992001041412004-06760-043010FM-12+013899999V0200901N001510075019N0040001N1+02661+02291101561ADDAA124003091GF108991051051008001061999KA1240N+02301MA1999999099981MD1999999+0101REMSYN082AAXX  14124 82678 22596 80903 10266 20229 39998 40156 8556/ 333 20230 58010 60034;
0167826780999992001041418004-06760-043010FM-12+013899999V0200901N001510450019N0040001N1+03361+02071100931ADDAA199000091GF108991041051008001021011MA1999999099371MD1999999-0111REMSYN070AAXX  14184 82678 32596 80903 10336 20207 39937 40093 84521 333 59011;EQDQ01  00002PRCP99
0192826780999992001041500004-06760-043010FM-12+013899999V0209999C000010075019N0002001N1+02681+02331999999ADDAA199000091GF108991061051008001021999KA1240M+03361MA1999999099771MD1999999+0091REMSYN082AAXX  15004 82678 32592 80000 10268 20233 39977 8652/ 333 10336 29072 55041 58009;EQDQ01  00002PRCP99
0186826780999992001041512004-06760-043010FM-12+013899999V0201801N000510075019N0040001N1+02721+02101101721ADDAA199000091GF105991051051008001001001KA1240N+02281MA1999999100141MD1999999+0161REMSYN076AAXX  15124 82678 32596 51801 10272 20210 30014 40172 85500 333 20228 58016;EQDQ01  00002PRCP99
0182826780999992001041518004-06760-043010FM-12+013899999V0201401N001010075019N0040001N1+03081+02401101261ADDAA106000591AY161061AY221061GF105991051031008001001001MA1999999099691MD1999999+0321MW1911REMSYN082AAXX  15184 82678 21596 51402 10308 20240 39969 40126 79162 85300 333 58032 69961;
0198826780999992001041600004-06760-043010FM-12+013899999V0209999C000012200019N0020001N1+02701+02351101461ADDAA199000021GF103991999011008001001001KA1240M+03451MA1999999099881MD1999999+0111REMSYN088AAXX  16004 82678 32595 30000 10270 20235 39988 40146 82100 333 10345 29075 55073 58011;EQDQ01+000022SCOTLC
0173826780999992001041612004-06760-043010FM-12+013899999V0200901N001510075019N0040001N1+02741+02301101731ADDAA124000591GF108991061021008001001021KA1240N+02341MA1999999100151MD1999999+0011REMSYN082AAXX  16124 82678 22596 80903 10274 20230 30015 40173 86202 333 20234 58001 69964;
0167826780999992001041618004-06760-043010FM-12+013899999V0200901N002110450019N0040001N1+03421+02131101191ADDAA199000091GF108991041021008001021011MA1999999099631MD1999999-0061REMSYN070AAXX  16184 82678 32596 80904 10342 20213 39963 40119 84221 333 59006;EQDQ01  00002PRCP99
0213826780999992001041700004-06760-043010FM-12+013899999V0202701N001010075019N0002001N1+02461+02361101751ADDAA106002091AY161061AY221061GF108991051051008001021999KA1240M+03461MA1999999100161MD1999999+0281MW1021REMSYN100AAXX  17004 82678 21592 82702 10246 20236 30016 40175 70262 8552/ 333 10346 29077 55050 58028 60021;
0201826780999992001041712004-06760-043010FM-12+013899999V0201401N000510075019N0040001N1+02601+02351101821ADDAA124006191AY161061AY221061GF108991071051008001061999KA1240N+02301MA1999999100231MD1999999+0081MW1021REMSYN088AAXX  17124 82678 21596 81401 10260 20235 30023 40182 70262 8756/ 333 20230 58008 60064;
0182826780999992001041718004-06760-043010FM-12+013899999V0203201N000510450019N0040001N1+03001+02271101351ADDAA106001091AY161061AY221061GF107991041081008001031021MA1999999099671MD1999999+0041MW1021REMSYN082AAXX  17184 82678 21596 73201 10300 20227 39967 40135 70262 84832 333 58004 60011;
0214826780999992001041800004-06760-043010FM-12+013899999V0209999C000010075019N0002001N1+02581+02331101541ADDAA199000091GF108991999021008001001001KA1240M+03141MA1999999099951MD1999999-0211REMSYN088AAXX  18004 82678 32592 80000 10258 20233 39995 40154 85200 333 10314 29081 55032 59021;EQDQ01+000052SCOTLCQ02  00002PRCP99
0173826780999992001041812004-06760-043010FM-12+013899999V0200901N001510075019N0040001N1+02671+02271101571ADDAA124001091GF108991071051008001041999KA1240N+02361MA1999999099981MD1999999-0251REMSYN082AAXX  18124 82678 22596 80903 10267 20227 39998 40157 8754/ 333 20236 59025 60014;
0167826780999992001041818004-06760-043010FM-12+013899999V0203601N000511050019N0040001N1+03161+02231101101ADDAA199000091GF106991031051008001001021MA1999999099531MD1999999-0141REMSYN070AAXX  18184 82678 32596 63601 10316 20223 39953 40110 83502 333 59014;EQDQ01  00002PRCP99
0208826780999992001041900004-06760-043010FM-12+013899999V0209999C000012200019N0020001N1+02661+02411101411ADDAA199000091GA1001+999999999GF100991001001999999001001KA1240M+03281MA1999999099831MD1999999-0121REMSYN082AAXX  19004 82678 32595 00000 10266 20241 39983 40141 333 10328 29077 55051 59012;EQDQ01  00002PRCP99
0186826780999992001041912004-06760-043010FM-12+013899999V0203601N001510075019N0040001N1+02581+02271101591ADDAA199000091GF108991061051008001031999KA1240N+02341MA1999999100001MD1999999+0021REMSYN076AAXX  19124 82678 32596 83603 10258 20227 30000 40159 8653/ 333 20234 58002;EQDQ01  00002PRCP99
0167826780999992001041918004-06760-043010FM-12+013899999V0202701N001511050019N0040001N1+02981+02471101131ADDAA199000091GF108991041021008001001021MA1999999099561MD1999999+0031REMSYN070AAXX  19184 82678 32596 82703 10298 20247 39956 40113 84202 333 58003;EQDQ01  00002PRCP99
0214826780999992001042000004-06760-043010FM-12+013899999V0200501N000510075019N0002001N1+02621+02351101371ADDAA199000091GF108991999021008001001001KA1240M+03101MA1999999099791MD1999999-0041REMSYN088AAXX  20004 82678 32592 80501 10262 20235 39979 40137 86200 333 10310 29082 55018 59004;EQDQ01+000062SCOTLCQ02  00002PRCP99
0186826780999992001042012004-06760-043010FM-12+013899999V0209999C000010450019N0040001N1+02581+02271101681ADDAA199000091GF108991041051008001021999KA1240N+02321MA1999999100091MD1999999+0091REMSYN076AAXX  20124 82678 32596 80000 10258 20227 30009 40168 8452/ 333 20232 58009;EQDQ01  00002PRCP99
0167826780999992001042018004-06760-043010FM-12+013899999V0201801N000510075019N0040001N1+03001+02271101271ADDAA199000091GF107991051051008001031021MA1999999099691MD1999999+0131REMSYN070AAXX  20184 82678 32596 71801 10300 20227 39969 40127 85532 333 58013;EQDQ01  00002PRCP99
0208826780999992001042100004-06760-043010FM-12+013899999V0202701N000512200019N0002001N1+02581+02371101491ADDAA199000091GA1001+999999999GF100991001001999999001001KA1240M+03091MA1999999099901MD1999999+0111REMSYN082AAXX  21004 82678 32992 02701 10258 20237 39990 40149 333 10309 29081 55010 58011;EQDQ01  00002PRCP99
0220826780999992001042112004-06760-043010FM-12+013899999V0201401N000510075019N0040001N1+02321+02181101821ADDAA124018091AY161061AY221061GF108991999021008001001001KA1240N+02141MA1999999100021MD1999999+0131MW1031REMSYN088AAXX  21124 82678 21596 81401 10232 20218 30002 40182 70362 87200 333 20214 58013 60184;EQDQ01+000072SCOTLC
0183826780999992001042118004-06760-043010FM-12+013899999V0203601N001019999999N0040001N1+02901+02301101401ADDAA199000091GF106991999021008001001001MA1999999099811MD1999999+0121REMSYN070AAXX  21184 82678 32596 63602 10290 20230 39981 40140 83200 333 58012;EQDQ01+000032SCOTLCQ02  00002PRCP99
0173826780999992001042212004-06760-043010FM-12+013899999V0209999C000012200019N0040001N1+02561+02291101611ADDAA124009991GF105991031021008001001011KA1240N+02231MA1999999100011MD1999999-0211REMSYN082AAXX  22124 82678 22596 50000 10256 20229 30001 40161 83201 333 20223 59021 60104;
0167826780999992001042218004-06760-043010FM-12+013899999V0200901N001511050019N0040001N1+03181+02311999999ADDAA199000091GF105991041021008001001021MA1999999099481MD1999999-0331REMSYN070AAXX  22184 82678 32596 50903 10318 20231 39948 4//// 84202 333 59033;EQDQ01  00002PRCP99
0213826780999992001042300004-06760-043010FM-12+013899999V0209999C000010450019N0002001N1+02321+02221101361ADDAA106009991AY161061AY221061GF108991041051008001021999KA1240M+03261MA1999999099771MD1999999-0291MW1021REMSYN100AAXX  23004 82678 21592 80000 10232 20222 39977 40136 70262 8452/ 333 10326 29083 55093 59029 60101;
0186826780999992001042312004-06760-043010FM-12+013899999V0201401N001010150019N0040001N1+02701+02221101521ADDAA199000091GF105991051001017501071001KA1240N+02181MA1999999099931MD1999999-0081REMSYN076AAXX  23124 82678 32796 51402 10270 20222 39993 40152 85070 333 20218 59008;EQDQ01  00002PRCP99
0167826780999992001042318004-06760-043010FM-12+013899999V0201401N003110075019N0040001N1+03311+01981101101ADDAA199000091GF106991061021008001001001MA1999999099531MD1999999+0051REMSYN070AAXX  23184 82678 32596 61406 10331 20198 39953 40110 86200 333 58005;EQDQ01  00002PRCP99
0208826780999992001042400004-06760-043010FM-12+013899999V0209999C000012200019N0002001N1+02561+02231101201ADDAA199000091GA1001+999999999GF100991001001999999001001KA1240M+03311MA1999999099621MD1999999-0151REMSYN082AAXX  24004 82678 32992 00000 10256 20223 39962 40120 333 10331 29071 55098 59015;EQDQ01  00002PRCP99
0196826780999992001042412004-06760-043010FM-12+013899999V0200901N005712200019N0040001N1+02721+01771101561ADDAA199000091GA1001+999999999GF100991001001999999001001KA1240N+02021MA1999999099981MD1999999+0051REMSYN070AAXX  24124 82678 32996 00911 10272 20177 39998 40156 333 20202 58005;EQDQ01  00002PRCP99
0167826780999992001042418004-06760-043010FM-12+013899999V0201401N002612200019N0040001N1+03321+01781101211ADDAA199000091GF104991021011008001001021MA1999999099641MD1999999+0111REMSYN070AAXX  24184 82678 32596 41405 10332 20178 39964 40121 82102 333 58011;EQDQ01  00002PRCP99
0208826780999992001042500004-06760-043010FM-12+013899999V0209999C000012200019N0002001N1+02521+02131101361ADDAA199000091GA1001+999999999GF100991001001999999001001KA1240M+03411MA1999999099781MD1999999+0161REMSYN082AAXX  25004 82678 32992 00000 10252 20213 39978 40136 333 10341 29064 55107 58016;EQDQ01  00002PRCP99
0186826780999992001042512004-06760-043010FM-12+013899999V0200901N004112200019N0040001N1+02901+01901101781ADDAA199000091GF104991021011008001001011KA1240N+02131MA1999999100201MD1999999+0221REMSYN076AAXX  25124 82678 32596 40908 10290 20190 30020 40178 82101 333 20213 58022;EQDQ01  00002PRCP99
0167826780999992001042518004-06760-043010FM-12+013899999V0200901N001512200019N0040001N1+03281+01961101321ADDAA199000091GF105991031021008001001011MA1999999099751MD1999999+0141REMSYN070AAXX  25184 82678 32596 50903 10328 20196 39975 40132 83201 333 58014;EQDQ01  00002PRCP99
0208826780999992001042600004-06760-043010FM-12+013899999V0209999C000012200019N0002001N1+02601+02211101491ADDAA199000091GA1001+999999999GF100991001001999999001001KA1240M+03371MA1999999099911MD1999999+0131REMSYN082AAXX  26004 82678 32992 00000 10260 20221 39991 40149 333 10337 29065 55098 58013;EQDQ01  00002PRCP99
0167826780999992001042618004-06760-043010FM-12+013899999V0200501N002610075019N0040001N1+03281+01931101211ADDAA199000091GF105991051021008001001001MA1999999099641MD1999999-0111REMSYN070AAXX  26184 82678 32596 50505 10328 20193 39964 40121 85200 333 59011;EQDQ01  00002PRCP99
0208826780999992001042700004-06760-043010FM-12+013899999V0200901N000512200019N0002001N1+02601+02291101431ADDAA199000091GA1001+999999999GF100991001001999999001001KA1240M+03401MA1999999099851MD1999999-0061REMSYN082AAXX  27004 82678 32992 00901 10260 20229 39985 40143 333 10340 29068 55071 59006;EQDQ01  00002PRCP99
0180826780999992001042712004-06760-043010FM-12+013899999V0200901N005112200019N0040001N1+02921+02171101541ADDAA199000091GF103991999999999999999999KA1240N+02121MA1999999099961MD1999999-0121REMSYN070AAXX  27124 82678 32996 30910 10292 20217 39996 40154 333 20212 59012;EQDQ01  00002PRCP99
0167826780999992001042718004-06760-043010FM-12+013899999V0200901N001012200019N0040001N1+03281+02071101111ADDAA199000091GF105991041021008001001011MA1999999099541MD1999999-0101REMSYN070AAXX  27184 82678 32596 50902 10328 20207 39954 40111 84201 333 59010;EQDQ01  00002PRCP99
0208826780999992001042800004-06760-043010FM-12+013899999V0209999C000012200019N0002001N1+02641+02271101341ADDAA199000091GA1001+999999999GF100991001001999999001001KA1240M+03431MA1999999099771MD1999999-0081REMSYN082AAXX  28004 82678 32992 00000 10264 20227 39977 40134 333 10343 29067 55090 59008;EQDQ01  00002PRCP99
0186826780999992001042812004-06760-043010FM-12+013899999V0201401N001511050019N0040001N1+02761+02141101711ADDAA199000091GF108991041021008001001021KA1240N+02441MA1999999100131MD1999999+0171REMSYN076AAXX  28124 82678 32596 81403 10276 20214 30013 40171 84202 333 20244 58017;EQDQ01  00002PRCP99
0167826780999992001042818004-06760-043010FM-12+013899999V0200501N002610075019N0040001N1+03001+02391101321ADDAA199000091GF108991051021008001001021MA1999999099751MD1999999+0211REMSYN070AAXX  28184 82678 32596 80505 10300 20239 39975 40132 85202 333 58021;EQDQ01  00002PRCP99
0198826780999992001042900004-06760-043010FM-12+013899999V0209999C000012200019N0040001N1+02641+02351101501ADDAA199000091GF108991041021008001001011KA1240M+03171MA1999999099921MD1999999+0151REMSYN088AAXX  29004 82678 32596 80000 10264 20235 39992 40150 84201 333 10317 29077 55029 58015;EQDQ01  00002PRCP99
0186826780999992001042912004-06760-043010FM-12+013899999V0200901N003610075019N0040001N1+02881+01941101641ADDAA199000091GF108991051011008001031001KA1240N+02251MA1999999100061MD1999999-0071REMSYN076AAXX  29124 82678 32596 80907 10288 20194 30006 40164 85130 333 20225 59007;EQDQ01  00002PRCP99
0183826780999992001042918004-06760-043010FM-12+013899999V0201401N001019999999N0040001N1+03501+01861101141ADDAA199000091GF105991999021008001001001MA1999999099591MD1999999-0161REMSYN070AAXX  29184 82678 32596 51402 10350 20186 39959 40114 84200 333 59016;EQDQ01+000042SCOTLCQ02  00002PRCP99
0214826780999992001043000004-06760-043010FM-12+013899999V0201401N001012200019N0002001N1+02661+02001101321ADDAA199000091GF103991999011008001001001KA1240M+03521MA1999999099751MD1999999-0171REMSYN088AAXX  30004 82678 32592 31402 10266 20200 39975 40132 82100 333 10352 29057 55088 59017;EQDQ01+000022SCOTLCQ02  00002PRCP99
0186826780999992001043012004-06760-043010FM-12+013899999V0200901N004110450019N0040001N1+02881+01861101551ADDAA199000091GF105991021011008001031001KA1240N+02201MA1999999099971MD1999999-0091REMSYN076AAXX  30124 82678 32596 50908 10288 20186 39997 40155 82130 333 20220 59009;EQDQ01  00002PRCP99
0167826780999992001043018004-06760-043010FM-12+013899999V0201401N001512200019N0040001N1+03421+01781101031ADDAA199000091GF107991041021008001001011MA1999999099471MD1999999-0121REMSYN070AAXX  30184 82678 32596 71403 10342 20178 39947 40103 84201 333 59012;EQDQ01  00002PRCP99
0198826780999992001050100004-06760-043010FM-12+013899999V0200901N000510075019N0002001N1+02811+02251101291ADDAA199000091GF107991071041008001001001KA1240M+03501MA1999999099721MD1999999-0031REMSYN088AAXX  01004 82678 32592 70901 10281 20225 39972 40129 87400 333 10350 29059 55089 59003;EQDQ01  00002PRCP99
0186826780999992001050112004-06760-043010FM-12+013899999V0201401N004611050019N0040001N1+02961+01961101491ADDAA199000091GF108991021001017501031021KA1240N+02351MA1999999099921MD1999999-0051REMSYN076AAXX  01124 82678 32796 81409 10296 20196 39992 40149 82032 333 20235 59005;EQDQ01  00002PRCP99
0167826780999992001050118004-06760-043010FM-12+013899999V0200501N001010450019N0040001N1+03401+01851101071ADDAA199000091GF108991031081008001011011MA1999999099511MD1999999+0041REMSYN070AAXX  01184 82678 32596 80502 10340 20185 39951 40107 83811 333 58004;EQDQ01  00002PRCP99
0208826780999992001050200004-06760-043010FM-12+013899999V0209999C000012200019N0002001N1+02661+02271101321ADDAA199000091GA1001+999999999GF100991001001999999001001KA1240M+03451MA1999999099751MD1999999+0031REMSYN082AAXX  02004 82678 32992 00000 10266 20227 39975 40132 333 10345 29063 55070 58003;EQDQ01  00002PRCP99
0186826780999992001050212004-06760-043010FM-12+013899999V0200901N003110075019N0040001N1+02791+02041101671ADDAA199000091GF107991051041008001001011KA1240N+02361MA1999999100091MD1999999+0171REMSYN076AAXX  02124 82678 32596 70906 10279 20204 30009 40167 85401 333 20236 58017;EQDQ01  00002PRCP99
0167826780999992001050218004-06760-043010FM-12+013899999V0200901N002612200019N0040001N1+03431+01781101211ADDAA199000091GF105991041021008001001011MA1999999099651MD1999999+0141REMSYN070AAXX  02184 82678 32596 50905 10343 20178 39965 40121 84201 333 58014;EQDQ01  00002PRCP99
0198826780999992001050300004-06760-043010FM-12+013899999V0209999C000012200019N0002001N1+02741+02141101441ADDAA199000091GF103991031001008001031001KA1240M+03481MA1999999099861MD1999999+0111REMSYN088AAXX  03004 82678 32592 30000 10274 20214 39986 40144 83030 333 10348 29060 55069 58011;EQDQ01  00002PRCP99
0186826780999992001050312004-06760-043010FM-12+013899999V0201401N004612200019N0040001N1+02941+02051101601ADDAA199000091GF104991021011008001031001KA1240N+02141MA1999999100031MD1999999-0061REMSYN076AAXX  03124 82678 32596 41409 10294 20205 30003 40160 82130 333 20214 59006;EQDQ01  00002PRCP99
0208826780999992001050400004-06760-043010FM-12+013899999V0209999C000012200019N0040001N1+02761+02231101131ADDAA199000091GA1001+999999999GF100991001001999999001001KA1240M+03591MA1999999099741MD1999999-0121REMSYN082AAXX  04004 82678 32596 00000 10276 20223 39974 40113 333 10359 29061 55094 59012;EQDQ01  00002PRCP99
0201826780999992001050412004-06760-043010FM-12+013899999V0200901N005712200019N0040001N1+03041+01781101491ADDAA124000191AY161061AY221061GF103991021011008001001011KA1240N+02381MA1999999099921MD1999999-0111MW1011REMSYN088AAXX  04124 82678 21596 30911 10304 20178 39992 40149 70162 82101 333 20238 59011 69924;
0167826780999992001050418004-06760-043010FM-12+013899999V0200901N001512200019N0040001N1+03501+01811100991ADDAA199000091GF105991031021008001001011MA1999999099441MD1999999-0091REMSYN070AAXX  04184 82678 32596 50903 10350 20181 39944 40099 83201 333 59009;EQDQ01  00002PRCP99
0208826780999992001050500004-06760-043010FM-12+013899999V0209999C000012200019N0002001N1+02641+02031101261ADDAA199000091GA1001+999999999GF100991001001999999001001KA1240M+03551MA1999999099691MD1999999-0051REMSYN082AAXX  05004 82678 32992 00000 10264 20203 39969 40126 333 10355 29066 55107 59005;EQDQ01  00002PRCP99
0186826780999992001050512004-06760-043010FM-12+013899999V0200901N001510075019N0040001N1+02851+01961101491ADDAA199000091GF108991051051008001001011KA1240N+02171MA1999999099911MD1999999-0011REMSYN076AAXX  05124 82678 32596 80903 10285 20196 39991 40149 85501 333 20217 59001;EQDQ01  00002PRCP99
0167826780999992001050518004-06760-043010FM-12+013899999V0200501N001510450019N0040001N1+03371+01851100951ADDAA199000091GF108991021021008001011011MA1999999099391MD1999999-0051REMSYN070AAXX  05184 82678 32596 80503 10337 20185 39939 40095 82211 333 59005;EQDQ01  00002PRCP99
0192826780999992001050600004-06760-043010FM-12+013899999V0209999C000019999999N0002001N1+02701+02221101211ADDAA199000091GF107991999999999999999999KA1240M+03551MA1999999099641MD1999999-0051REMSYN082AAXX  06004 82678 32992 70000 10270 20222 39964 40121 333 10355 29062 55054 59005;EQDQ01  00002PRCP99
0186826780999992001050612004-06760-043010FM-12+013899999V0203601N000510450019N0040001N1+02921+02341101451ADDAA199000091GF107991031011008001021001KA1240N+02371MA1999999099881MD1999999-0031REMSYN076AAXX  06124 82678 32596 73601 10292 20234 39988 40145 83120 333 20237 59003;EQDQ01  00002PRCP99
0167826780999992001050618004-06760-043010FM-12+013899999V0203201N002611050019N0040001N1+03301+02391101081ADDAA199000091GF107991041051008001001021MA1999999099521MD1999999+0131REMSYN070AAXX  06184 82678 32596 73205 10330 20239 39952 40108 84502 333 58013;EQDQ01  00002PRCP99
0214826780999992001050700004-06760-043010FM-12+013899999V0203601N000510150019N0002001N1+02781+02121101321ADDAA199000091GF108991999021017501001001KA1240M+03461MA1999999099751MD1999999+0111REMSYN088AAXX  07004 82678 32792 83601 10278 20212 39975 40132 85200 333 10346 29073 55075 58011;EQDQ01+000052SCOTLCQ02  00002PRCP99
0220826780999992001050712004-06760-043010FM-12+013899999V0200501N000510075019N0040001N1+00641+99999101601ADDAA124016091AY161061AY221061GF108991071051008001061999KA1240N+99999MA1999999100021MD1999999+0141MW1031REMSYN088AAXX  07124 82678 21596 80501 10064 20235 30002 40160 70362 8756/ 333 20230 58014 60164;EQDQ01 +02302ATMN  
0183826780999992001050718004-06760-043010FM-12+013899999V0209999C000012200019N0040001N1+03202+02581101091ADDAA199000091GF104991031021008001001011MA1999999099521MD1999999+0001REMSYN070AAXX  07184 82678 32596 40000 10320 20258 39952 40109 83201 333 58000;EQDQ01+003203ATOT  Q02  00002PRCP99
0198826780999992001050800004-06760-043010FM-12+013899999V0209999C000012200019N0002001N1+02701+02331101251ADDAA199000091GF104991021011008001001011KA1240M+03331MA1999999099671MD1999999-0081REMSYN088AAXX  08004 82678 32592 40000 10270 20233 39967 40125 82101 333 10333 29078 55048 59008;EQDQ01  00002PRCP99
0186826780999992001050812004-06760-043010FM-12+013899999V0202701N001010075019N0040001N1+02741+02381101491ADDAA199000091GF106991061021008001001001KA1240N+02371MA1999999099911MD1999999-0111REMSYN076AAXX  08124 82678 32596 62702 10274 20238 39991 40149 86200 333 20237 59011;EQDQ01  00002PRCP99
0167826780999992001050818004-06760-043010FM-12+013899999V0203201N003110450019N0040001N1+03261+02301101051ADDAA199000091GF108991021031008001011021MA1999999099491MD1999999-0031REMSYN070AAXX  08184 82678 32596 83206 10326 20230 39949 40105 82312 333 59003;EQDQ01  00002PRCP99
0198826780999992001050900004-06760-043010FM-12+013899999V0209999C000011050019N0002001N1+02751+02401101291ADDAA199000091GF107991011001017501031021KA1240M+03341MA1999999099721MD1999999+0051REMSYN088AAXX  09004 82678 32792 70000 10275 20240 39972 40129 81032 333 10334 29076 55075 58005;EQDQ01  00002PRCP99
0186826780999992001050912004-06760-043010FM-12+013899999V0200901N000510075019N0040001N1+02821+02401101401ADDAA199000091GF107991051021008001001011KA1240N+02361MA1999999099831MD1999999-0081REMSYN076AAXX  09124 82678 32596 70901 10282 20240 39983 40140 85201 333 20236 59008;EQDQ01  00002PRCP99
0167826780999992001050918004-06760-043010FM-12+013899999V0203601N001511050019N0040001N1+03421+02261100971ADDAA199000091GF106991041051008001001021MA1999999099421MD1999999-0071REMSYN070AAXX  09184 82678 32596 63603 10342 20226 39942 40097 84502 333 59007;EQDQ01  00002PRCP99
0192826780999992001051000004-06760-043010FM-12+013899999V0209999C000012200019N0020001N1+02761+02321101101ADDAA199000091GF103991999999999999999999KA1240M+03471MA1999999099531MD1999999-0191REMSYN082AAXX  10004 82678 32995 30000 10276 20232 39953 40110 333 10347 29076 55088 59019;EQDQ01  00002PRCP99
0186826780999992001051012004-06760-043010FM-12+013899999V0203601N004110450019N0040001N1+02621+02351101471ADDAA199000091GF108991041051008001021011KA1240N+02411MA1999999099891MD1999999+0061REMSYN076AAXX  10124 82678 32596 83608 10262 20235 39989 40147 84521 333 20241 58006;EQDQ01  00002PRCP99
0167826780999992001051018004-06760-043010FM-12+013899999V0203601N006710075019N0040001N1+02981+02331101101ADDAA199000091GF108991051021008001001021MA1999999099531MD1999999+0111REMSYN070AAXX  10184 82678 32596 83613 10298 20233 39953 40110 85202 333 58011;EQDQ01  00002PRCP99
0213826780999992001051100004-06760-043010FM-12+013899999V0209999C000010450019N0002001N1+02501+02251101391ADDAA106000591AY161061AY221061GF108991041051008001021999KA1240M+03031MA1999999099801MD1999999+0271MW1021REMSYN100AAXX  11004 82678 21592 80000 10250 20225 39980 40139 70262 8452/ 333 10303 29081 55000 58027 69961;
0173826780999992001051112004-06760-043010FM-12+013899999V0203201N000510075019N0040001N1+02691+02331101601ADDAA124000591GF108991081051008001999999KA1240N+02301MA1999999100011MD1999999+0121REMSYN082AAXX  11124 82678 22596 83201 10269 20233 30001 40160 885// 333 20230 58012 69964;
0182826780999992001051118004-06760-043010FM-12+013899999V0200501N000510450019N0040001N1+03151+02271101131ADDAA106003091AY161061AY221061GF108991031081008001021011MA1999999099561MD1999999+0031MW1021REMSYN082AAXX  11184 82678 21596 80501 10315 20227 39956 40113 70262 83821 333 58003 60031;
0214826780999992001051200004-06760-043010FM-12+013899999V0202701N001019999999N0002001N1+02581+02371101421ADDAA199000091GF108991999021008001001001KA1240M+03281MA1999999099841MD1999999+0041REMSYN088AAXX  12004 82678 32592 82702 10258 20237 39984 40142 84200 333 10328 29079 55031 58004;EQDQ01+000042SCOTLCQ02  00002PRCP99
0173826780999992001051212004-06760-043010FM-12+013899999V0200901N000510075019N0040001N1+02661+02351101761ADDAA124003091GF107991061051008001031001KA1240N+02341MA1999999100171MD1999999+0161REMSYN082AAXX  12124 82678 22596 70901 10266 20235 30017 40176 86530 333 20234 58016 60034;
0167826780999992001051218004-06760-043010FM-12+013899999V0200901N001012200019N0040001N1+03361+02111101281ADDAA199000091GF106991041051008001001011MA1999999099721MD1999999+0161REMSYN070AAXX  12184 82678 32596 60902 10336 20211 39972 40128 84501 333 58016;EQDQ01  00002PRCP99
0198826780999992001051300004-06760-043010FM-12+013899999V0201801N000510075019N0002001N1+02641+02181101501ADDAA199000091GF105991051051008001001001KA1240M+03361MA1999999099921MD1999999+0081REMSYN088AAXX  13004 82678 32592 51801 10264 20218 39992 40150 85500 333 10336 29071 55084 58008;EQDQ01  00002PRCP99
0186826780999992001051312004-06760-043010FM-12+013899999V0203601N006712200019N0040001N1+02921+02341101731ADDAA199000091GF104991021021008001001011KA1240N+02261MA1999999100151MD1999999-0061REMSYN076AAXX  13124 82678 32596 43613 10292 20234 30015 40173 82201 333 20226 59006;EQDQ01  00002PRCP99
0183826780999992001051318004-06760-043010FM-12+013899999V0203601N008219999999N0040001N1+03481+02251101241ADDAA199000091GF105991999021008001001001MA1999999099681MD1999999-0041REMSYN070AAXX  13184 82678 32596 53616 10348 20225 39968 40124 83200 333 59004;EQDQ01+000032SCOTLCQ02  00002PRCP99
0186826780999992001051412004-06760-043010FM-12+013899999V0200501N001510120019N0040001N1+02941+02331101631ADDAA199000091GF106991051081008001041001KA1240N+02301MA1999999100061MD1999999-0091REMSYN076AAXX  14124 82678 32596 60503 10294 20233 30006 40163 85840 333 20230 59009;EQDQ01  00002PRCP99
0167826780999992001051418004-06760-043010FM-12+013899999V0200901N001510075019N0040001N1+03441+02001101071ADDAA199000091GF105991051021008001001001MA1999999099511MD1999999-0171REMSYN070AAXX  14184 82678 32596 50903 10344 20200 39951 40107 85200 333 59017;EQDQ01  00002PRCP99
0208826780999992001051500004-06760-043010FM-12+013899999V0209999C000012200019N0002001N1+02751+02261101261ADDAA199000091GA1001+999999999GF100991001001999999001001KA1240M+03611MA1999999099661MD1999999-0171REMSYN082AAXX  15004 82678 32992 00000 10275 20226 39966 40126 333 10361 29066 55091 59017;EQDQ01  00002PRCP99
0186826780999992001051512004-06760-043010FM-12+013899999V0200901N001512200019N0040001N1+02901+02151101571ADDAA199000091GF103991031011008001001001KA1240N+02421MA1999999100001MD1999999-0061REMSYN076AAXX  15124 82678 32596 30903 10290 20215 30000 40157 83100 333 20242 59006;EQDQ01  00002PRCP99
0208826780999992001051600004-06770-043020FM-12+013899999V0209999C000012200019N0002001N1+02621+02101101241ADDAA199000091GA1001+999999999GF100991001001999999001001KA1240M+03511MA1999999099671MD1999999+0011REMSYN082AAXX  16004 82678 32992 00000 10262 20210 39967 40124 333 10351 29063 55101 58001;EQDQ01  00002PRCP99
0186826780999992001051612004-06770-043020FM-12+013899999V0200901N022112200019N0040001N1+02921+01891101591ADDAA199000091GF102991021011008001001001KA1240N+02191MA1999999100011MD1999999+0011REMSYN076AAXX  16124 82678 32596 20943 10292 20189 30001 40159 82100 333 20219 58001;EQDQ01  00002PRCP99
0186826780999992001051712004-06760-043010FM-12+013899999V0201801N001012200019N0040001N1+02901+02101101691ADDAA199000091GF103991021011008001001021KA1240N+02151MA1999999100111MD1999999+0101REMSYN076AAXX  17124 82678 32596 31802 10290 20210 30011 40169 82102 333 20215 58010;EQDQ01  00002PRCP99
0167826780999992001051718004-06760-043010FM-12+013899999V0200501N001510075019N0040001N1+03421+01781101351ADDAA199000091GF106991061021008001001001MA1999999099781MD1999999+0211REMSYN070AAXX  17184 82678 32596 60503 10342 20178 39978 40135 86200 333 58021;EQDQ01  00002PRCP99
0208826780999992001051800004-06760-043010FM-12+013899999V0209999C000012200019N0002001N1+02701+02061101611ADDAA199000091GA1001+999999999GF100991001001999999001001KA1240M+03551MA1999999100041MD1999999+0211REMSYN082AAXX  18004 82678 32992 00000 10270 20206 30004 40161 333 10355 29059 55085 58021;EQDQ01  00002PRCP99
0186826780999992001051812004-06760-043010FM-12+013899999V0200901N001512200019N0040001N1+02881+02251101731ADDAA199000091GF104991031021008001001011KA1240N+02121MA1999999100151MD1999999+0041REMSYN076AAXX  18124 82678 32596 40903 10288 20225 30015 40173 83201 333 20212 58004;EQDQ01  00002PRCP99
0167826780999992001051818004-06760-043010FM-12+013899999V0203601N001510075019N0040001N1+03521+02111101321ADDAA199000091GF105991051051008001001001MA1999999099751MD1999999-0031REMSYN070AAXX  18184 82678 32596 53603 10352 20211 39975 40132 85500 333 59003;EQDQ01  00002PRCP99
0208826780999992001051900004-06760-043010FM-12+013899999V0200901N000512200019N0002001N1+02801+02181101521ADDAA199000091GA1001+999999999GF100991001001999999001001KA1240M+03571MA1999999099951MD1999999-0091REMSYN082AAXX  19004 82678 32992 00901 10280 20218 39995 40152 333 10357 29063 55098 59009;EQDQ01  00002PRCP99
0202826780999992001051912004-06760-043010FM-12+013899999V0202701N001519999999N0040001N1+02721+02301101681ADDAA199000091GF106991999021008001001001KA1240N+02371MA1999999100101MD1999999-0051REMSYN076AAXX  19124 82678 32596 62703 10272 20230 30010 40168 83200 333 20237 59005;EQDQ01+000032SCOTLCQ02  00002PRCP99
0167826780999992001051918004-06760-043010FM-12+013899999V0203201N001512200019N0040001N1+03221+02371101191ADDAA199000091GF104991021021008001001011MA1999999099621MD1999999-0131REMSYN070AAXX  19184 82678 32596 43203 10322 20237 39962 40119 82201 333 59013;EQDQ01  00002PRCP99
0208826780999992001052000004-06760-043010FM-12+013899999V0209999C000012200019N0002001N1+02781+02091101531ADDAA199000091GA1001+999999999GF100991001001999999001001KA1240M+03531MA1999999099951MD1999999-0121REMSYN082AAXX  20004 82678 32992 00000 10278 20209 39995 40153 333 10353 29068 55075 59012;EQDQ01  00002PRCP99
0186826780999992001052012004-06760-043010FM-12+013899999V0200501N001010075019N0040001N1+02741+02261101621ADDAA199000091GF108991071051008001061999KA1240N+02401MA1999999100041MD1999999-0061REMSYN076AAXX  20124 82678 32596 80502 10274 20226 30004 40162 8756/ 333 20240 59006;EQDQ01  00002PRCP99
0182826780999992001052018004-06760-043010FM-12+013899999V0203601N000510450019N0040001N1+02841+02261101261ADDAA106019191AY161061AY221061GF108991031031008001021021MA1999999099681MD1999999+0061MW1021REMSYN082AAXX  20184 82678 21596 83601 10284 20226 39968 40126 70262 83322 333 58006 60191;
0198826780999992001052100004-06760-043010FM-12+013899999V0201401N001010075019N0002001N1+02541+02291101461ADDAA199000091GF105991051041008001001001KA1240M+02911MA1999999099881MD1999999-0071REMSYN088AAXX  21004 82678 32592 51402 10254 20229 39988 40146 85400 333 10291 29080 55011 59007;EQDQ01  00002PRCP99
0173826780999992001052112004-06760-043010FM-12+013899999V0209999C000010450019N0040001N1+02501+02211101711ADDAA124019191GF107991031051008001021001KA1240N+02301MA1999999100121MD1999999+0081REMSYN082AAXX  21124 82678 22596 70000 10250 20221 30012 40171 83520 333 20230 58008 60194;
0167826780999992001052118004-06760-043010FM-12+013899999V0200901N002610450019N0040001N1+03061+01991101381ADDAA199000091GF106991031051008001031011MA1999999099811MD1999999+0131REMSYN070AAXX  21184 82678 32596 60905 10306 20199 39981 40138 83531 333 58013;EQDQ01  00002PRCP99
0208826780999992001052200004-06760-043010FM-12+013899999V0209999C000012200019N0002001N1+02461+02171101411ADDAA199000091GA1001+999999999GF100991001001999999001001KA1240M+03111MA1999999099851MD1999999-0061REMSYN082AAXX  22004 82678 32992 00000 10246 20217 39985 40141 333 10311 29076 55031 59006;EQDQ01  00002PRCP99
0202826780999992001052212004-06760-043010FM-12+013899999V0200901N004612200019N0040001N1+02821+01861101601ADDAA199000091GF102991999001008001001011KA1240N+02111MA1999999100021MD1999999-0101REMSYN076AAXX  22124 82678 32596 20909 10282 20186 30002 40160 83001 333 20211 59010;EQDQ01+000032SCOTLCQ02  00002PRCP99
0167826780999992001052218004-06760-043010FM-12+013899999V0200901N001512200019N0040001N1+03301+01911101221ADDAA199000091GF104991021021008001001011MA1999999099651MD1999999-0161REMSYN070AAXX  22184 82678 32596 40903 10330 20191 39965 40122 82201 333 59016;EQDQ01  00002PRCP99
0208826780999992001052300004-06760-043010FM-12+013899999V0209999C000012200019N0002001N1+02581+02121101381ADDAA199000091GA1001+999999999GF100991001001999999001001KA1240M+03361MA1999999099801MD1999999-0021REMSYN082AAXX  23000 82678 32992 00000 10258 20212 39980 40138 333 10336 29063 55102 59002;EQDQ01  00002PRCP99
0196826780999992001052312004-06760-043010FM-12+013899999V0200901N002112200019N0040001N1+02801+01921101611ADDAA199000091GA1001+999999999GF100991001001999999001001KA1240N+02071MA1999999100031MD1999999+0011REMSYN070AAXX  23124 82678 32996 00904 10280 20192 30003 40161 333 20207 58001;EQDQ01  00002PRCP99
0167826780999992001052318004-06760-043010FM-12+013899999V0200901N003112200019N0040001N1+03361+01891101131ADDAA199000091GF105991041051008001001011MA1999999099561MD1999999-0091REMSYN070AAXX  23184 82678 32596 50906 10336 20189 39956 40113 84501 333 59009;EQDQ01  00002PRCP99
0198826780999992001052400004-06760-043010FM-12+013899999V0209999C000012200019N0002001N1+02661+02181101411ADDAA199000091GF102991021011017501001001KA1240M+03471MA1999999099841MD1999999+0041REMSYN088AAXX  24004 82678 32792 20000 10266 20218 39984 40141 82100 333 10347 29063 55091 58004;EQDQ01  00002PRCP99
0186826780999992001052412004-06760-043010FM-12+013899999V0200901N001512200019N0040001N1+02941+01881101741ADDAA199000091GF103991021011008001031001KA1240N+02201MA1999999100161MD1999999+0131REMSYN076AAXX  24124 82678 32596 30903 10294 20188 30016 40174 82130 333 20220 58013;EQDQ01  00002PRCP99
0167826780999992001052418004-06760-043010FM-12+013899999V0200901N002610075019N0040001N1+03361+01891101291ADDAA199000091GF105991051021008001001001MA1999999099721MD1999999+0161REMSYN070AAXX  24184 82678 32596 50905 10336 20189 39972 40129 85200 333 58016;EQDQ01  00002PRCP99
0208826780999992001052500004-06760-043010FM-12+013899999V0200901N000512200019N0002001N1+02761+02121101441ADDAA199000091GA1001+999999999GF100991001001999999001001KA1240M+03491MA1999999099871MD1999999+0031REMSYN082AAXX  25004 82678 32992 00901 10276 20212 39987 40144 333 10349 29058 55104 58003;EQDQ01  00002PRCP99
0201826780999992001052512004-06760-043010FM-12+013899999V0209999C000010075019N0040001N1+02401+02261101761ADDAA124002091AY161061AY221061GF108991051051008001021999KA1240N+02241MA1999999100171MD1999999+0011MW1621REMSYN088AAXX  25124 82678 21596 80000 10240 20226 30017 40176 76262 8552/ 333 20224 58001 60024;
0148826780999992001052518004-06760-043010FM-12+013899999V0200501N001511050019N0040001N1+03301+02151101261ADDAA199000021GF108991041021008001001021MA1999999099691MD1999999-0031REMSYN070AAXX  25184 82678 32596 80503 10330 20215 39969 40126 84202 333 59003;
0189826780999992001052600004-06760-043010FM-12+013899999V0209999C000012200019N0040001N1+02681+02221101491ADDAA199000021GA1001+999999999GF100991001001999999001001KA1240M+03361MA1999999099901MD1999999+0031REMSYN082AAXX  26004 82678 32996 00000 10268 20222 39990 40149 333 10336 29074 55062 58003;
0186826780999992001052612004-06760-043010FM-12+013899999V0200501N001012200019N0040001N1+02791+02361101601ADDAA199000091GF107991041021008001001011KA1240N+02401MA1999999100021MD1999999-0151REMSYN076AAXX  26124 82678 32596 70502 10279 20236 30002 40160 84201 333 20240 59015;EQDQ01  00002PRCP99
0167826780999992001052618004-06760-043010FM-12+013899999V0200901N002112200019N0040001N1+03321+01971101051ADDAA199000091GF104991021021008001021011MA1999999099491MD1999999-0201REMSYN070AAXX  26184 82678 32596 40904 10332 20197 39949 40105 82221 333 59020;EQDQ01  00002PRCP99
0213826780999992001052700004-06760-043010FM-12+013899999V0200501N001010075019N0002001N1+02641+02231101381ADDAA106000191AY161061AY221061GF106991061041008001001001KA1240M+03471MA1999999099801MD1999999-0101MW1021REMSYN100AAXX  27004 82678 21592 60502 10264 20223 39980 40138 70262 86400 333 10347 29070 55079 59010 69921;
0173826780999992001052712004-06760-043010FM-12+013899999V0201401N001512200019N0040001N1+02801+02201101651ADDAA124000191GF102991021011008001001001KA1240N+02321MA1999999100071MD1999999+0051REMSYN082AAXX  27124 82678 22596 21403 10280 20220 30007 40165 82100 333 20232 58005 69924;
0183826780999992001052718004-06760-043010FM-12+013899999V0201401N005119999999N0040001N1+03381+01871101181ADDAA199000091GF105991999021008001001001MA1999999099641MD1999999+0131REMSYN070AAXX  27184 82678 32596 51410 10338 20187 39964 40118 83200 333 58013;EQDQ01+000032SCOTLCQ02  00002PRCP99
0192826780999992001052800004-06760-043010FM-12+013899999V0200501N000512200019N0002001N1+02791+02091101371ADDAA199000091GF104991999999999999999999KA1240M+03551MA1999999099801MD1999999+0001REMSYN082AAXX  28004 82678 32992 40501 10279 20209 39980 40137 333 10355 29061 55095 58000;EQDQ01  00002PRCP99
0201826780999992001052812004-06760-043010FM-12+013899999V0200501N001010075019N0040001N1+02341+02261101751ADDAA124009991AY161061AY221061GF108991051051008001021999KA1240N+02281MA1999999100161MD1999999+0091MW1021REMSYN088AAXX  28124 82678 21596 80502 10234 20226 30016 40175 70262 8552/ 333 20228 58009 60104;
0167826780999992001052818004-06760-043010FM-12+013899999V0203601N001512200019N0040001N1+03021+02241101301ADDAA199000091GF105991031021008001001011MA1999999099731MD1999999+0111REMSYN070AAXX  28184 82678 32596 53603 10302 20224 39973 40130 83201 333 58011;EQDQ01  00002PRCP99
0208826780999992001052900004-06760-043010FM-12+013899999V0209999C000012200019N0002001N1+02561+02331101471ADDAA199000091GA1001+999999999GF100991001001999999001001KA1240M+03141MA1999999099871MD1999999+0071REMSYN082AAXX  29004 82678 32992 00000 10256 20233 39987 40147 333 10314 29083 55062 58007;EQDQ01  00002PRCP99
0186826780999992001052912004-06760-043010FM-12+013899999V0200501N001012200019N0040001N1+02741+02321101711ADDAA199000091GF104991031021008001031001KA1240N+02301MA1999999100121MD1999999-0041REMSYN076AAXX  29124 82678 32596 40502 10274 20232 30012 40171 83230 333 20230 59004;EQDQ01  00002PRCP99
0167826780999992001052918004-06760-043010FM-12+013899999V0200901N001010450019N0040001N1+03441+02071101241ADDAA199000091GF105991041021008001031001MA1999999099681MD1999999-0051REMSYN070AAXX  29184 82678 32596 50902 10344 20207 39968 40124 84230 333 59005;EQDQ01  00002PRCP99
0208826780999992001053000004-06760-043010FM-12+013899999V0200501N000512200019N0002001N1+02771+02301101481ADDAA199000091GA1001+999999999GF100991001001999999001001KA1240M+03511MA1999999099901MD1999999+0031REMSYN082AAXX  30004 82678 32992 00501 10277 20230 39990 40148 333 10351 29069 55091 58003;EQDQ01  00002PRCP99
0182826780999992001053018004-06760-043010FM-12+013899999V0203201N000510450019N0040001N1+03121+02191101401ADDAA106000391AY161061AY221061GF106991021011008001031021MA1999999099831MD1999999+0151MW1011REMSYN082AAXX  30184 82678 21596 63201 10312 20219 39983 40140 70162 82132 333 58015 69931;
0214826780999992001053100004-06760-043010FM-12+013899999V0209999C000012200019N0002001N1+02641+02371101391ADDAA199000091GF103991999011017501001001KA1240M+03211MA1999999099801MD1999999-0101REMSYN088AAXX  31004 82678 32792 30000 10264 20237 39980 40139 82100 333 10321 29081 55057 59010;EQDQ01+000022SCOTLCQ02  00002PRCP99
0173826780999992001053112004-06760-043010FM-12+013899999V0209999C000012200019N0040001N1+02781+02341101661ADDAA124000391GF104991021021008001001011KA1240N+02161MA1999999100081MD1999999-0211REMSYN082AAXX  31124 82678 22596 40000 10278 20234 30008 40166 82201 333 20216 59021 69934;
0167826780999992001053118004-06760-043010FM-12+013899999V0203601N001510075019N0040001N1+03061+02271101281ADDAA199000091GF108991051021008001001031MA1999999099701MD1999999-0131REMSYN070AAXX  31184 82678 32596 83603 10306 20227 39970 40128 85203 333 59013;EQDQ01  00002PRCP99
0214826780999992001060100004-06760-043010FM-12+013899999V0209999C000012200019N0002001N1+02581+02311101381ADDAA199000091GF103991999011008001001001KA1240M+03211MA1999999099801MD1999999+0001REMSYN088AAXX  01004 82678 32592 30000 10258 20231 39980 40138 82100 333 10321 29078 55063 58000;EQDQ01+000022SCOTLCQ02  00002PRCP99
0186826780999992001060112004-06760-043010FM-12+013899999V0202701N000510120019N0040001N1+02701+02281101681ADDAA199000091GF107991051081008001031001KA1240N+02341MA1999999100091MD1999999+0011REMSYN076AAXX  01124 82678 32596 72701 10270 20228 30009 40168 85830 333 20234 58001;EQDQ01  00002PRCP99
0182826780999992001060118004-06760-043010FM-12+013899999V0200501N002610450019N0040001N1+03071+02191101261ADDAA106007991AY161061AY221061GF106991031081008001031021MA1999999099691MD1999999-0011MW1021REMSYN082AAXX  01184 82678 21596 60505 10307 20219 39969 40126 70262 83832 333 59001 60081;
0198826780999992001060200004-06760-043010FM-12+013899999V0200901N001010150019N0002001N1+02541+02291101401ADDAA199000091GF107991051001017501031021KA1240M+03051MA1999999099821MD1999999+0021REMSYN088AAXX  02004 82678 32792 70902 10254 20229 39982 40140 85032 333 10305 29078 55044 58002;EQDQ01  00002PRCP99
0192826780999992001060212004-06760-043010FM-12+013899999V0200901N005119999999N0040001N1+02581+02061101671ADDAA124007991GF107991999011008001001001KA1240N+02201MA1999999100081MD1999999-0011REMSYN082AAXX  02124 82678 22596 70910 10258 20206 30008 40167 83100 333 20220 59001 60084;EQDQ01+000032SCOTLC
0183826780999992001060218004-06760-043010FM-12+013899999V0200901N000519999999N0040001N1+03061+02191101321ADDAA199000091GF107991999021008001001001MA1999999099741MD1999999+0051REMSYN070AAXX  02184 82678 32596 70901 10306 20219 39974 40132 84200 333 58005;EQDQ01+000042SCOTLCQ02  00002PRCP99
0214826780999992001060300004-06760-043010FM-12+013899999V0209999C000019999999N0002001N1+02561+02311101491ADDAA199000091GF106991999021017501001001KA1240M+03091MA1999999099901MD1999999+0081REMSYN088AAXX  03004 82678 32792 60000 10256 20231 39990 40149 84200 333 10309 29076 55043 58008;EQDQ01+000042SCOTLCQ02  00002PRCP99
0186826780999992001060312004-06760-043010FM-12+013899999V0200901N002610450019N0040001N1+02781+01961101741ADDAA199000091GF105991031011008001031001KA1240N+02161MA1999999100151MD1999999+0071REMSYN076AAXX  03124 82678 32596 50905 10278 20196 30015 40174 83130 333 20216 58007;EQDQ01  00002PRCP99
0167826780999992001060318004-06760-043010FM-12+013899999V0200501N002610450019N0040001N1+03221+01881101361ADDAA199000091GF105991021011008001031001MA1999999099791MD1999999+0051REMSYN070AAXX  03184 82678 32596 50505 10322 20188 39979 40136 82130 333 58005;EQDQ01  00002PRCP99
0224826780999992001060400004-06760-043010FM-12+013899999V0209999C000012200019N0040001N1+03521+02091101481ADDAA199000091GA1001+999999999GF100991001001999999001001KA1240M+99999MA1999999099881MD1999999-0021REMSYN082AAXX  04004 82678 32996 00000 10352 20209 39988 40148 333 10329 29065 55084 59002;EQDQ01  00002PRCP99Q02 +03292ATMX  
0186826780999992001060412004-06760-043010FM-12+013899999V0200901N003112200019N0040001N1+02841+01881101761ADDAA199000091GF108991031001017501031011KA1240N+02231MA1999999100181MD1999999+0031REMSYN076AAXX  04124 82678 32796 80906 10284 20188 30018 40176 83031 333 20223 58003;EQDQ01  00002PRCP99
0167826780999992001060418004-06760-043010FM-12+013899999V0200501N002110450019N0040001N1+03371+01891101281ADDAA199000091GF107991031021008001021011MA1999999099711MD1999999-0081REMSYN070AAXX  04184 82678 32596 70504 10337 20189 39971 40128 83221 333 59008;EQDQ01  00002PRCP99
0214826780999992001060500004-06760-043010FM-12+013899999V0200501N000519999999N0002001N1+02651+02201101541ADDAA199000091GF105991999011017501001001KA1240M+03431MA1999999099961MD1999999+0081REMSYN088AAXX  05004 82678 32792 50501 10265 20220 39996 40154 82100 333 10343 29063 55081 58008;EQDQ01+000022SCOTLCQ02  00002PRCP99
0186826780999992001060512004-06760-043010FM-12+013899999V0200901N003112200019N0040001N1+02721+01981101791ADDAA199000091GF104991011011008001001021KA1240N+02161MA1999999100211MD1999999+0031REMSYN076AAXX  05124 82678 32596 40906 10272 20198 30021 40179 81102 333 20216 58003;EQDQ01  00002PRCP99
0167826780999992001060518004-06760-043010FM-12+013899999V0200901N001511050019N0040001N1+03301+01841101431ADDAA199000091GF105991021011008001001021MA1999999099861MD1999999+0151REMSYN070AAXX  05184 82678 32596 50903 10330 20184 39986 40143 82102 333 58015;EQDQ01  00002PRCP99
0198826780999992001060600004-06760-043010FM-12+013899999V0209999C000012200019N0002001N1+02601+01961101571ADDAA199000091GF103991011001017501031021KA1240M+03381MA1999999099991MD1999999+0031REMSYN088AAXX  06004 82678 32792 30000 10260 20196 39999 40157 81032 333 10338 29060 55092 58003;EQDQ01  00002PRCP99
0186826780999992001060612004-06760-043010FM-12+013899999V0200901N004612200019N0040001N1+02801+01691101741ADDAA199000091GF104991021011008001001021KA1240N+02191MA1999999100161MD1999999-0051REMSYN076AAXX  06124 82678 32596 40909 10280 20169 30016 40174 82102 333 20219 59005;EQDQ01  00002PRCP99
0167826780999992001060618004-06760-043010FM-12+013899999V0200501N001512200019N0040001N1+03381+01911101341ADDAA199000091GF103991021021008001001011MA1999999099771MD1999999-0091REMSYN070AAXX  06184 82678 32596 30503 10338 20191 39977 40134 82201 333 59009;EQDQ01  00002PRCP99
0246826780999992001060700004-06760-043010FM-12+013899999V0209999C000012200019N0002001N1+02721+02001101551ADDAA199000091AY151061AY251061GA1001+999999999GF100991001001999999001001KA1240M+03411MA1999999099971MD1999999-0021MW1011REMSYN082AAXX  07004 82678 32992 00000 10272 20200 39997 70155 333 10341 29056 55101 59002;EQDQ01+999990APOSLPQ02  00002PRCP99
0196826780999992001060712004-06760-043010FM-12+013899999V0200901N002612200019N0040001N1+02881+01941101731ADDAA199000091GA1001+999999999GF100991001001999999001001KA1240N+02361MA1999999100151MD1999999-0011REMSYN070AAXX  07124 82678 32796 00905 10288 20194 30015 40173 333 20236 59001;EQDQ01  00002PRCP99
0167826780999992001060718004-06760-043010FM-12+013899999V0200901N001010075019N0040001N1+03401+02141101261ADDAA199000091GF105991051051008001001001MA1999999099701MD1999999-0071REMSYN070AAXX  07184 82678 32596 50902 10340 20214 39970 40126 85500 333 59007;EQDQ01  00002PRCP99
0198826780999992001060800004-06760-043010FM-12+013899999V0200501N001010450019N0040001N1+02761+02141101541ADDAA199000091GF105991021021017501031001KA1240M+03511MA1999999099971MD1999999+0001REMSYN088AAXX  08004 82678 32796 50502 10276 20214 39997 40154 82230 333 10351 29061 55094 58000;EQDQ01  00002PRCP99
0186826780999992001060812004-06760-043010FM-12+013899999V0200901N003611050019N0040001N1+02801+01901101851ADDAA199000091GF106991011001017501031021KA1240N+02361MA1999999100271MD1999999+0121REMSYN076AAXX  08124 82678 32796 60907 10280 20190 30027 40185 81032 333 20236 58012;EQDQ01  00002PRCP99
0167826780999992001060818004-06760-043010FM-12+013899999V0201401N003112200019N0040001N1+03411+01681101291ADDAA199000091GF106991041021008001001011MA1999999099731MD1999999+0031REMSYN070AAXX  08184 82678 32596 61406 10341 20168 39973 40129 84201 333 58003;EQDQ01  00002PRCP99
0198826780999992001060900004-06760-043010FM-12+013899999V0201401N000512200019N0002001N1+02861+01751101561ADDAA199000091GF104991041021017501001001KA1240M+03491MA1999999099991MD1999999+0021REMSYN088AAXX  09004 82678 32792 41401 10286 20175 39999 40156 84200 333 10349 29049 55098 58002;EQDQ01  00002PRCP99
0186826780999992001060912004-06760-043010FM-12+013899999V0201401N004112200019N0040001N1+02741+01761101871ADDAA199000091GF102991011011008001001011KA1240N+02281MA1999999100291MD1999999+0021REMSYN076AAXX  09124 82678 32596 21408 10274 20176 30029 40187 81101 333 20228 58002;EQDQ01  00002PRCP99
0167826780999992001060918004-06760-043010FM-12+013899999V0200901N002111050019N0040001N1+03241+01891101411ADDAA199000091GF105991031021008001001021MA1999999099851MD1999999+0121REMSYN070AAXX  09184 82678 32596 50904 10324 20189 39985 40141 83202 333 58012;EQDQ01  00002PRCP99
0202826780999992001061012004-06760-043010FM-12+013899999V0201401N004119999999N0040001N1+02741+01921101871ADDAA199000091GF105991999011008001001001KA1240N+02271MA1999999100291MD1999999+0001REMSYN076AAXX  10124 82678 32596 51408 10274 20192 30029 40187 82100 333 20227 58000;EQDQ01+000022SCOTLCQ02  00002PRCP99
0183826780999992001061018004-06760-043010FM-12+013899999V0201401N001519999999N0040001N1+03401+01811101431ADDAA199000091GF105991999021008001001001MA1999999099861MD1999999+0011REMSYN070AAXX  10184 82678 32596 51403 10340 20181 39986 40143 84200 333 58001;EQDQ01+000042SCOTLCQ02  00002PRCP99
0208826780999992001061100004-06760-043010FM-12+013899999V0201401N005712200019N0010001N1+02871+01031101741ADDAA199000091GA1001+999999999GF100991001001999999001001KA1240M+03511MA1999999100031MD1999999+0021REMSYN082AAXX  11004 82678 32594 01411 10287 20103 30003 40174 333 10351 29053 55010 58002;EQDQ01  00002PRCP99
0186826780999992001061112004-06760-043010FM-12+013899999V0201401N004112200019N0040001N1+02851+01931101661ADDAA199000091GF103991031011008001001001KA1240N+02231MA1999999100091MD1999999-0201REMSYN076AAXX  11124 82678 32596 31408 10285 20193 30009 40166 83100 333 20223 59020;EQDQ01  00002PRCP99
0167826780999992001061118004-06760-043010FM-12+013899999V0201401N004110075019N0040001N1+03101+01871101481ADDAA199000091GF107991071051008001001001MA1999999099911MD1999999+0051REMSYN070AAXX  11184 82678 32596 71408 10310 20187 39991 40148 87500 333 58005;EQDQ01  00002PRCP99
0208826780999992001061200004-06760-043010FM-12+013899999V0209999C000012200019N0002001N1+02541+02021101591ADDAA199000091GA1001+999999999GF100991001001999999001001KA1240M+03211MA1999999100011MD1999999-0021REMSYN082AAXX  12004 82678 32992 00000 10254 20202 30001 40159 333 10321 29063 55077 59002;EQDQ01  00002PRCP99
0186826780999992001061212004-06760-043010FM-12+013899999V0200901N006712200019N0040001N1+02601+01651101791ADDAA199000091GF103991021011008001001011KA1240N+02301MA1999999100201MD1999999+0111REMSYN076AAXX  12124 82678 32596 30913 10260 20165 30020 40179 82101 333 20230 58011;EQDQ01  00002PRCP99
0167826780999992001061218004-06760-043010FM-12+013899999V0200901N003610075019N0040001N1+03221+01691101301ADDAA199000091GF108991061021008001001021MA1999999099731MD1999999-0181REMSYN070AAXX  12184 82678 32596 80907 10322 20169 39973 40130 86202 333 59018;EQDQ01  00002PRCP99
0208826780999992001061300004-06760-043010FM-12+013899999V0209999C000012200019N0002001N1+02601+01821101471ADDAA199000091GA1001+999999999GF100991001001999999001001KA1240M+03261MA1999999099881MD1999999-0121REMSYN082AAXX  13004 82678 32992 00000 10260 20182 39988 40147 333 10326 29055 55084 59012;EQDQ01  00002PRCP99
0180826780999992001061312004-06760-043010FM-12+013899999V0201401N005112200019N0040001N1+02791+01581101681ADDAA199000091GF102991999999999999999999KA1240N+02001MA1999999100101MD1999999-0101REMSYN070AAXX  13124 82678 32996 21410 10279 20158 30010 40168 333 20200 59010;EQDQ01  00002PRCP99
0167826780999992001061318004-06760-043010FM-12+013899999V0200901N002110450019N0040001N1+03271+01761101301ADDAA199000091GF105991041021008001031001MA1999999099721MD1999999-0011REMSYN070AAXX  13184 82678 32596 50904 10327 20176 39972 40130 84230 333 59001;EQDQ01  00002PRCP99
0208826780999992001061400004-06760-043010FM-12+013899999V0209999C000012200019N0002001N1+02571+01951101571ADDAA199000091GA1001+999999999GF100991001001999999001001KA1240M+03351MA1999999099991MD1999999+0111REMSYN082AAXX  14004 82678 32992 00000 10257 20195 39999 40157 333 10335 29057 55084 58011;EQDQ01  00002PRCP99
0186826780999992001061412004-06760-043010FM-12+013899999V0200901N004112200019N0040001N1+02801+01751101701ADDAA199000091GF102991021001017501031001KA1240N+02061MA1999999100121MD1999999+0021REMSYN076AAXX  14124 82678 32796 20908 10280 20175 30012 40170 82030 333 20206 58002;EQDQ01  00002PRCP99
0167826780999992001061418004-06760-043010FM-12+013899999V0201401N001512200019N0040001N1+03441+01631101241ADDAA199000091GF104991041021008001001001MA1999999099671MD1999999-0021REMSYN070AAXX  14184 82678 32596 41403 10344 20163 39967 40124 84200 333 59002;EQDQ01  00002PRCP99
0198826780999992001061500004-06760-043010FM-12+013899999V0209999C000010075019N0010001N1+02921+02061101421ADDAA199000091GF106991061021008001001001KA1240M+03511MA1999999099861MD1999999-0141REMSYN088AAXX  15004 82678 32594 60000 10292 20206 39986 40142 86200 333 10351 29052 55102 59014;EQDQ01  00002PRCP99
0196826780999992001061512004-06760-043010FM-12+013899999V0200901N005112200019N0040001N1+02881+01701101641ADDAA199000091GA1001+999999999GF100991001001999999001001KA1240N+02311MA1999999100071MD1999999-0051REMSYN070AAXX  15124 82678 32596 00910 10288 20170 30007 40164 333 20231 59005;EQDQ01  00002PRCP99
0183826780999992001061518004-06760-043010FM-12+013899999V0200901N001512200019N0040001N1+03481+01711101091ADDAA199000091GF102991021021008001001001MA1999999099142MD1999999-0131REMSYN070AAXX  15184 82678 32596 20903 10348 20171 39914 40109 82200 333 59013;EQDQ01+099143APOSP Q02  00002PRCP99
0208826780999992001061600004-06760-043010FM-12+013899999V0201401N001012200019N0002001N1+02861+02281101351ADDAA199000091GA1001+999999999GF100991001001999999001001KA1240M+03541MA1999999099781MD1999999-0071REMSYN082AAXX  16004 82678 32992 01402 10286 20228 39978 40135 333 10354 29056 55106 59007;EQDQ01  00002PRCP99
0196826780999992001061612004-06760-043010FM-12+013899999V0201401N004112200019N0040001N1+02741+01671101691ADDAA199000091GA1001+999999999GF100991001001999999001001KA1240N+02181MA1999999100111MD1999999+0041REMSYN070AAXX  16124 82678 32996 01408 10274 20167 30011 40169 333 20218 58004;EQDQ01  00002PRCP99
0167826780999992001061618004-06760-043010FM-12+013899999V0200901N002612200019N0040001N1+03461+01341101161ADDAA199000091GF101991011011008001001001MA1999999099601MD1999999+0061REMSYN070AAXX  16184 82678 32596 10905 10346 20134 39960 40116 81100 333 58006;EQDQ01  00002PRCP99
0208826780999992001061700004-06760-043010FM-12+013899999V0201401N000512200019N0002001N1+02841+01601101291ADDAA199000091GA1001+999999999GF100991001001999999001001KA1240M+03491MA1999999099721MD1999999-0061REMSYN082AAXX  17004 82678 32992 01401 10284 20160 39972 40129 333 10349 29044 55106 59006;EQDQ01  00002PRCP99
0186826780999992001061712004-06760-043010FM-12+013899999V0200901N004110075019N0040001N1+02841+02121101691ADDAA199000091GF105991051021008001001001KA1240N+02121MA1999999100121MD1999999+0011REMSYN076AAXX  17124 82678 32596 50908 10284 20212 30012 40169 85200 333 20212 58001;EQDQ01  00002PRCP99
0208826780999992001061800004-06760-043010FM-12+013899999V0209999C000012200019N0002001N1+02721+01791101351ADDAA199000091GA1001+999999999GF100991001001999999001001KA1240M+03571MA1999999099781MD1999999+0061REMSYN082AAXX  18004 82678 32992 00000 10272 20179 39978 40135 333 10357 29055 55104 58006;EQDQ01  00002PRCP99
0186826780999992001061812004-06760-043010FM-12+013899999V0200901N003612200019N0040001N1+02841+01911101661ADDAA199000091GF103991031021008001001001KA1240N+02321MA1999999100081MD1999999-0041REMSYN076AAXX  18124 82678 32596 30907 10284 20191 30008 40166 83200 333 20232 59004;EQDQ01  00002PRCP99
0167826780999992001061818004-06760-043010FM-12+013899999V0200501N001512200019N0040001N1+03481+01791101121ADDAA199000091GF104991021021008001001011MA1999999099571MD1999999-0121REMSYN070AAXX  18184 82678 32596 40503 10348 20179 39957 40112 82201 333 59012;EQDQ01  00002PRCP99
0208826780999992001061900004-06760-043010FM-12+013899999V0209999C000012200019N0002001N1+02641+01851101411ADDAA199000091GA1001+999999999GF100991001001999999001001KA1240M+03531MA1999999099841MD1999999+0061REMSYN082AAXX  19004 82678 32992 00000 10264 20185 39984 40141 333 10353 29054 55099 58006;EQDQ01  00002PRCP99
0186826780999992001061912004-06760-043010FM-12+013899999V0200901N002612200019N0040001N1+02821+01681101721ADDAA199000091GF101991011001017501031001KA1240N+02361MA1999999100141MD1999999+0061REMSYN076AAXX  19124 82678 32796 10905 10282 20168 30014 40172 81030 333 20236 58006;EQDQ01  00002PRCP99
0167826780999992001061918004-06760-043010FM-12+013899999V0201401N002612200019N0040001N1+03521+01161101131ADDAA199000091GF102991021011008001001001MA1999999099571MD1999999+0001REMSYN070AAXX  19184 82678 32596 21405 10352 20116 39957 40113 82100 333 58000;EQDQ01  00002PRCP99
0208826780999992001062000004-06760-043010FM-12+013899999V0201401N000512200019N0002001N1+02621+01461101441ADDAA199000091GA1001+999999999GF100991001001999999001001KA1240M+03571MA1999999099861MD1999999+0021REMSYN082AAXX  20004 82678 32992 01401 10262 20146 39986 40144 333 10357 29043 55105 58002;EQDQ01  00002PRCP99
0186826780999992001062012004-06760-043010FM-12+013899999V0201401N004112200019N0040001N1+02861+01481101791ADDAA199000091GF102991021001017501031001KA1240N+02311MA1999999100211MD1999999+0071REMSYN076AAXX  20124 82678 32796 21408 10286 20148 30021 40179 82030 333 20231 58007;EQDQ01  00002PRCP99
0167826780999992001062018004-06760-043010FM-12+013899999V0201401N002610450019N0040001N1+03421+01411101371ADDAA199000091GF106991041021008001031001MA1999999099811MD1999999+0241REMSYN070AAXX  20184 82678 32596 61405 10342 20141 39981 40137 84230 333 58024;EQDQ01  00002PRCP99
0198826780999992001062100004-06760-043010FM-12+013899999V0209999C000012200019N0002001N1+02721+01711101591ADDAA199000091GF103991031021017501001001KA1240M+03511MA1999999100021MD1999999+0161REMSYN088AAXX  21004 82678 32792 30000 10272 20171 30002 40159 83200 333 10351 29045 55089 58016;EQDQ01  00002PRCP99
0186826780999992001062112004-06760-043010FM-12+013899999V0200501N001510075019N0040001N1+02621+01731101821ADDAA199000091GF108991061021008001001021KA1240N+02281MA1999999100231MD1999999+0021REMSYN076AAXX  21124 82678 32596 80503 10262 20173 30023 40182 86202 333 20228 58002;EQDQ01  00002PRCP99
0167826780999992001062118004-06760-043010FM-12+013899999V0201401N002112200019N0040001N1+03481+01661101341ADDAA199000091GF106991041021008001001011MA1999999099781MD1999999-0031REMSYN070AAXX  21184 82678 32596 61404 10348 20166 39978 40134 84201 333 59003;EQDQ01  00002PRCP99
0208826780999992001062200004-06760-043010FM-12+013899999V0209999C000012200019N0002001N1+02821+01831101561ADDAA199000091GA1001+999999999GF100991001001999999001001KA1240M+03551MA1999999099981MD1999999-0041REMSYN082AAXX  22004 82678 32992 00000 10282 20183 39998 40156 333 10355 29050 55063 59004;EQDQ01  00002PRCP99
0186826780999992001062212004-06760-043010FM-12+013899999V0200501N003111050019N0040001N1+02951+01721101841ADDAA199000091GF105991011011008001031081KA1240N+02321MA1999999100271MD1999999+0041REMSYN076AAXX  22124 82678 32596 50506 10295 20172 30027 40184 81138 333 20232 58004;EQDQ01  00002PRCP99
0167826780999992001062218004-06760-043010FM-12+013899999V0201401N002610075019N0040001N1+03461+01641101361ADDAA199000091GF106991051021008001031001MA1999999099781MD1999999+0001REMSYN070AAXX  22184 82678 32596 61405 10346 20164 39978 40136 85230 333 58000;EQDQ01  00002PRCP99
0198826780999992001062300004-06760-043010FM-12+013899999V0209999C000012200019N0002001N1+02921+01831101571ADDAA199000091GF104991041001008001031001KA1240M+03531MA1999999100011MD1999999+0031REMSYN088AAXX  23004 82678 32592 40000 10292 20183 30001 40157 84030 333 10353 29046 55084 58003;EQDQ01  00002PRCP99
0186826780999992001062312004-06760-043010FM-12+013899999V0200901N002612200019N0040001N1+02841+01961101891ADDAA199000091GF102991011011008001031001KA1240N+02261MA1999999100321MD1999999+0051REMSYN076AAXX  23124 82678 32596 20905 10284 20196 30032 40189 81130 333 20226 58005;EQDQ01  00002PRCP99
0167826780999992001062318004-06760-043010FM-12+013899999V0201401N001510075019N0040001N1+03381+01831101431ADDAA199000091GF106991051051008001031001MA1999999099861MD1999999+0081REMSYN070AAXX  23184 82678 32596 61403 10338 20183 39986 40143 85530 333 58008;EQDQ01  00002PRCP99
0208826780999992001062400004-06760-043010FM-12+013899999V0201401N001512200019N0002001N1+02901+01651101631ADDAA199000091GA1001+999999999GF100991001001999999001001KA1240M+03491MA1999999100061MD1999999+0051REMSYN082AAXX  24004 82678 32992 01403 10290 20165 30006 40163 333 10349 29048 55092 58005;EQDQ01  00002PRCP99
0202826780999992001062412004-06760-043010FM-12+013899999V0201401N003612200019N0040001N1+02741+01701101901ADDAA199000091GF104991999011008001001001KA1240N+02241MA1999999100321MD1999999+0001REMSYN076AAXX  24124 82678 32596 41407 10274 20170 30032 40190 82100 333 20224 58000;EQDQ01+000022SCOTLCQ02  00002PRCP99
0208826780999992001062500004-06760-043010FM-12+013899999V0201401N002112200019N0002001N1+02881+01501101621ADDAA199000091GA1001+999999999GF100991001001999999001001KA1240M+03471MA1999999100051MD1999999+0001REMSYN082AAXX  25004 82678 32992 01404 10288 20150 30005 40162 333 10347 29044 55101 58000;EQDQ01  00002PRCP99
0186826780999992001062512004-06760-043010FM-12+013899999V0200901N003610075019N0040001N1+02691+01841102021ADDAA199000091GF105991051021008001001001KA1240N+02251MA1999999100441MD1999999+0121REMSYN076AAXX  25124 82678 32596 50907 10269 20184 30044 40202 85200 333 20225 58012;EQDQ01  00002PRCP99
0167826780999992001062518004-06760-043010FM-12+013899999V0201401N000512200019N0040001N1+03411+01641101521ADDAA199000091GF103991031021008001001001MA1999999099961MD1999999+0071REMSYN070AAXX  25184 82678 32596 31401 10341 20164 39996 40152 83200 333 58007;EQDQ01  00002PRCP99
0186826780999992001062612004-06760-043010FM-12+013899999V0200901N004112200019N0040001N1+02781+01701102041ADDAA199000091GF102991021011008001001001KA1240N+02441MA1999999100451MD1999999+0011REMSYN076AAXX  26124 82678 32596 20908 10278 20170 30045 40204 82100 333 20244 58001;EQDQ01  00002PRCP99
0167826780999992001062618004-06760-043010FM-12+013899999V0200901N001510075019N0040001N1+03541+01571101601ADDAA199000091GF105991051021008001001001MA1999999100051MD1999999+0091REMSYN070AAXX  26184 82678 32596 50903 10354 20157 30005 40160 85200 333 58009;EQDQ01  00002PRCP99
0214826780999992001062700004-06760-043010FM-12+013899999V0209999C000019999999N0002001N1+02721+01881101711ADDAA199000091GF105991999011008001001001KA1240M+03611MA1999999100131MD1999999+0021REMSYN088AAXX  27004 82678 32592 50000 10272 20188 30013 40171 82100 333 10361 29051 55091 58002;EQDQ01+000022SCOTLCQ02  00002PRCP99
0187826780999992001062712004-06760-043010FM-12+013899999V0200901N001519999999N0040001N1+02721+01681101941ADDAA199000091GF108991999999008001999999KA1240N+02141MA1999999100351REMSYN075AAXX  27124 82678 32596 80903 10272 20168 30035 4014 88100 333 20214 59010;EQDQ01+999990APOSLPQ02  00002PRCP99
0167826780999992001062718004-06760-043010FM-12+013899999V0201401N001512200019N0040001N1+03521+01651101421ADDAA199000091GF105991031021008001001011MA1999999099861MD1999999-0191REMSYN070AAXX  27184 82678 32596 51403 10352 20165 39986 40142 83201 333 59019;EQDQ01  00002PRCP99
0208826780999992001062800004-06760-043010FM-12+013899999V0209999C000012200019N0002001N1+02921+01771101491ADDAA199000091GA1001+999999999GF100991001001999999001001KA1240M+03541MA1999999099921MD1999999-0211REMSYN082AAXX  28004 82678 32992 00000 10292 20177 39992 40149 333 10354 29046 55052 59021;EQDQ01  00002PRCP99
0186826780999992001062812004-06760-043010FM-12+013899999V0200501N002110120019N0040001N1+02831+02071101781ADDAA199000091GF108991051081008001031021KA1240N+02521MA1999999100211MD1999999-0141REMSYN076AAXX  28124 82678 32596 80504 10283 20207 30021 40178 85832 333 20252 59014;EQDQ01  00002PRCP99
0182826780999992001062818004-06760-043010FM-12+013899999V0201401N004610075019N0040001N1+03261+02051101441ADDAA106000191AY121061AY221061GF108991081071008001999999MA1999999099881MD1999999+0021MW1631REMSYN082AAXX  28184 82678 21596 81409 10326 20205 39988 40144 76322 887// 333 58002 69911;
0213826780999992001062900004-06760-043010FM-12+013899999V0201401N001510075019N0020001N1+02561+02421101761ADDAA106007991AY161061AY221061GF108991081051008001999999KA1240M+03371MA1999999100181MD1999999+0261MW1611REMSYN100AAXX  29004 82678 21595 81403 10256 20242 30018 40176 76162 885// 333 10337 29074 55027 58026 60081;
0201826780999992001062912004-06760-043010FM-12+013899999V0201401N001010450019N0040001N1+02601+02141101911ADDAA124008991AY161061AY221061GF106991041051008001031001KA1240N+02321MA1999999100321MD1999999+0111MW1021REMSYN088AAXX  29124 82678 21596 61402 10260 20214 30032 40191 70262 84530 333 20232 58011 60094;
0167826780999992001062918004-06760-043010FM-12+013899999V0200901N001510075019N0040001N1+03261+01881101461ADDAA199000091GF107991071041008001001001MA1999999099891MD1999999+0011REMSYN070AAXX  29184 82678 32596 70903 10326 20188 39989 40146 87400 333 58001;EQDQ01  00002PRCP99
0214826780999992001063000004-06760-043010FM-12+013899999V0201401N002119999999N0002001N1+02801+01751101541ADDAA199000091GF107991999011008001001001KA1240M+03351MA1999999099961MD1999999-0221REMSYN088AAXX  30004 82678 32592 71404 10280 20175 39996 40154 82100 333 10335 29056 55062 59022;EQDQ01+000022SCOTLCQ02  00002PRCP99
0186826780999992001063012004-06760-043010FM-12+013899999V0201401N005110150019N0040001N1+02741+01731101771ADDAA199000091GF107991051001017501021011KA1240N+02301MA1999999100191MD1999999-0131REMSYN076AAXX  30124 82678 32796 71410 10274 20173 30019 40177 85021 333 20230 59013;EQDQ01  00002PRCP99
0167826780999992001063018004-06760-043010FM-12+013899999V0201401N001512200019N0040001N1+03301+01551101261ADDAA199000091GF104991031021008001001011MA1999999099701MD1999999-0191REMSYN070AAXX  30184 82678 32596 41403 10330 20155 39970 40126 83201 333 59019;EQDQ01  00002PRCP99
0208826780999992001070100004-06760-043010FM-12+013899999V0201401N001012200019N0002001N1+02561+01851101441ADDAA199000091GA1001+999999999GF100991001001999999001001KA1240M+03421MA1999999099861MD1999999-0101REMSYN082AAXX  01004 82678 32992 01402 10256 20185 39986 40144 333 10342 29055 55097 59010;EQDQ01  00002PRCP99
0186826780999992001070112004-06760-043010FM-12+013899999V0200901N006212200019N0040001N1+02761+01861101721ADDAA199000091GF104991021011008001001011KA1240N+02161MA1999999100131MD1999999-0061REMSYN076AAXX  01124 82678 32596 40912 10276 20186 30013 40172 82101 333 20216 59006;EQDQ01  00002PRCP99
0167826780999992001070118004-06760-043010FM-12+013899999V0200901N001510075019N0040001N1+03361+01811101241ADDAA199000091GF105991051021008001001001MA1999999099671MD1999999-0031REMSYN070AAXX  01184 82678 32596 50903 10336 20181 39967 40124 85200 333 59003;EQDQ01  00002PRCP99
0214826780999992001070200004-06760-043010FM-12+013899999V0200901N000510075019N0002001N1+02901+01841101491ADDAA199000091GF107991999021008001001001KA1240M+03491MA1999999099921MD1999999+0061REMSYN088AAXX  02004 82678 32592 70901 10290 20184 39992 40149 86200 333 10349 29051 55098 58006;EQDQ01+000062SCOTLCQ02  00002PRCP99
0186826780999992001070212004-06760-043010FM-12+013899999V0200901N002610450019N0040001N1+02661+01851101861ADDAA199000091GF105991041051008001031001KA1240N+02401MA1999999100281MD1999999+0151REMSYN076AAXX  02124 82678 32596 50905 10266 20185 30028 40186 84530 333 20240 58015;EQDQ01  00002PRCP99
0167826780999992001070218004-06760-043010FM-12+013899999V0200901N002610075019N0040001N1+03481+01791101381ADDAA199000091GF106991061041008001001001MA1999999099821MD1999999+0151REMSYN070AAXX  02184 82678 32596 60905 10348 20179 39982 40138 86400 333 58015;EQDQ01  00002PRCP99
0198826780999992001070300004-06760-043010FM-12+013899999V0200901N000510150019N0002001N1+02701+02061101521ADDAA199000091GF106991051001017501031011KA1240M+03531MA1999999099941MD1999999+0021REMSYN088AAXX  03004 82678 32792 60901 10270 20206 39994 40152 85031 333 10353 29058 55067 58002;EQDQ01  00002PRCP99
0186826780999992001070312004-06760-043010FM-12+013899999V0201401N005112200019N0040001N1+02821+01831101861ADDAA199000091GF102991011011008001001011KA1240N+02261MA1999999100281MD1999999+0001REMSYN076AAXX  03124 82678 32596 21410 10282 20183 30028 40186 81101 333 20226 58000;EQDQ01  00002PRCP99
0167826780999992001070318004-06760-043010FM-12+013899999V0200901N002612200019N0040001N1+03481+01661101291ADDAA199000091GF104991021021008001001011MA1999999099731MD1999999-0021REMSYN070AAXX  03184 82678 32596 40905 10348 20166 39973 40129 82201 333 59002;EQDQ01  00002PRCP99
0208826780999992001070400004-06760-043010FM-12+013899999V0209999C000012200019N0002001N1+02801+01841101521ADDAA199000091GA1001+999999999GF100991001001999999001001KA1240M+03531MA1999999099951MD1999999+0011REMSYN082AAXX  04004 82678 32992 00000 10280 20184 39995 40152 333 10353 29050 55106 58001;EQDQ01  00002PRCP99
0180826780999992001070412004-06760-043010FM-12+013899999V0200501N003612200019N0040001N1+02941+01661101771ADDAA199000091GF101991999999999999999999KA1240N+02341MA1999999100201MD1999999-0081REMSYN070AAXX  04124 82678 32996 10507 10294 20166 30020 40177 333 20234 59008;EQDQ01  00002PRCP99
0137826780999992001070418004-06760-043010FM-12+013899999V0200901N002119999999N0040001N1+03511+01631999999ADDAA199000091GF105991999999008001999999REMSYN069AAXX  04184 82678 32596 50904 10351 20163 3976 40131 84230 333 58003;EQDQ01  00002PRCP99
0198826780999992001070500004-06760-043010FM-12+013899999V0200901N000512200019N0002001N1+02861+01951101521ADDAA199000091GF102991011011008001031001KA1240M+03641MA1999999099951MD1999999+0001REMSYN088AAXX  05004 82678 32592 20901 10286 20195 39995 40152 81130 333 10364 29049 55104 58000;EQDQ01  00002PRCP99
0186826780999992001070512004-06760-043010FM-12+013899999V0200901N002612200019N0040001N1+02921+01831101871ADDAA199000091GF102991021001008001031001KA1240N+02301MA1999999100301MD1999999+0101REMSYN076AAXX  05124 82678 32596 20905 10292 20183 30030 40187 82030 333 20230 58010;EQDQ01  00002PRCP99
0167826780999992001070518004-06760-043010FM-12+013899999V0201401N001510075019N0040001N1+03501+01681101441ADDAA199000091GF105991051021008001001001MA1999999099881MD1999999+0101REMSYN070AAXX  05184 82678 32596 51403 10350 20168 39988 40144 85200 333 58010;EQDQ01  00002PRCP99
0208826780999992001070600004-06760-043010FM-12+013899999V0209999C000012200019N0002001N1+02801+01871101571ADDAA199000091GA1001+999999999GF100991001001999999001001KA1240M+03531MA1999999100001MD1999999+0051REMSYN082AAXX  06004 82678 32992 00000 10280 20187 30000 40157 333 10353 29050 55099 58005;EQDQ01  00002PRCP99
0202826780999992001070612004-06760-043010FM-12+013899999V0201401N005119999999N0040001N1+02841+01851101721ADDAA199000091GF106991999001008001031001KA1240N+02341MA1999999100141MD1999999-0161REMSYN076AAXX  06124 82678 32596 61410 10284 20185 30014 40172 83030 333 20234 59016;EQDQ01+000032SCOTLCQ02  00002PRCP99
0167826780999992001070618004-06760-043010FM-12+013899999V0201401N005112200019N0040001N1+03501+01681101181ADDAA199000091GF104991021021008001001021MA1999999099631MD1999999-0251REMSYN070AAXX  06184 82678 32596 41410 10350 20168 39963 40118 82202 333 59025;EQDQ01  00002PRCP99
0198826780999992001070700004-06760-043010FM-12+013899999V0201401N004612200019N0002001N1+03021+01801101511ADDAA199000091GF103991021021008001001011KA1240M+03541MA1999999099951MD1999999-0051REMSYN088AAXX  07004 82678 32592 31409 10302 20180 39995 40151 82201 333 10354 29046 55102 59005;EQDQ01  00002PRCP99
0186826780999992001070712004-06760-043010FM-12+013899999V0201401N005712200019N0040001N1+02741+01671101841ADDAA199000091GF103991021001017501031021KA1240N+02371MA1999999100271MD1999999+0131REMSYN076AAXX  07124 82678 32796 31411 10274 20167 30027 40184 82032 333 20237 58013;EQDQ01  00002PRCP99
0167826780999992001070718004-06760-043010FM-12+013899999V0200901N004110075019N0040001N1+03371+01561101361ADDAA199000091GF106991051021008001031001MA1999999099801MD1999999+0171REMSYN070AAXX  07184 82678 32596 60908 10337 20156 39980 40136 85230 333 58017;EQDQ01  00002PRCP99
0208826780999992001070800004-06760-043010FM-12+013899999V0201401N002612200019N0002001N1+02821+01771101671ADDAA199000091GA1001+999999999GF100991001001999999001001KA1240M+03491MA1999999100091MD1999999+0141REMSYN082AAXX  08004 82678 32992 01405 10282 20177 30009 40167 333 10349 29048 55103 58014;EQDQ01  00002PRCP99
0186826780999992001070812004-06760-043010FM-12+013899999V0201401N005712200019N0040001N1+02741+01891101941ADDAA199000091GF102991011011008001001011KA1240N+02321MA1999999100361MD1999999+0091REMSYN076AAXX  08124 82678 32596 21411 10274 20189 30036 40194 81101 333 20232 58009;EQDQ01  00002PRCP99
0167826780999992001070818004-06760-043010FM-12+013899999V0201401N004110075019N0040001N1+03401+01891101531ADDAA199000091GF106991051021008001001011MA1999999100001MD1999999+0201REMSYN070AAXX  08184 82678 32596 61408 10340 20189 30000 40153 85201 333 58020;EQDQ01  00002PRCP99
0198826780999992001070900004-06760-043010FM-12+013899999V0201401N002110150019N0002001N1+02861+01811101621ADDAA199000091GF106991061001017501031001KA1240M+03441MA1999999100051MD1999999-0041REMSYN088AAXX  09004 82678 32792 61404 10286 20181 30005 40162 86030 333 10344 29052 55087 59004;EQDQ01  00002PRCP99
0186826780999992001070912004-06760-043010FM-12+013899999V0201401N005712200019N0040001N1+02621+01731101941ADDAA199000091GF104991021011008001001011KA1240N+02341MA1999999100361MD1999999+0001REMSYN076AAXX  09124 82678 32596 41411 10262 20173 30036 40194 82101 333 20234 58000;EQDQ01  00002PRCP99
0167826780999992001070918004-06760-043010FM-12+013899999V0201401N002110450019N0040001N1+03401+01681101371ADDAA199000091GF106991011011008001031011MA1999999099811MD1999999-0191REMSYN070AAXX  09184 82678 32596 61404 10340 20168 39981 40137 81131 333 59019;EQDQ01  00002PRCP99
0208826780999992001071000004-06760-043010FM-12+013899999V0201401N003112200019N0002001N1+02921+01741101661ADDAA199000091GA1001+999999999GF100991001001999999001001KA1240M+03431MA1999999100081MD1999999+0031REMSYN082AAXX  10004 82678 32992 01406 10292 20174 30008 40166 333 10343 29048 55089 58003;EQDQ01  00002PRCP99
0186826780999992001071012004-06760-043010FM-12+013899999V0201401N005112200019N0040001N1+02761+01861101751ADDAA199000091GF103991011011008001031011KA1240N+02381MA1999999100181MD1999999+0181REMSYN076AAXX  10124 82678 32596 31410 10276 20186 30018 40175 81131 333 20238 58018;EQDQ01  00002PRCP99
0167826780999992001071018004-06760-043010FM-12+013899999V0200901N002612200019N0040001N1+03331+01851101201ADDAA199000091GF104991031021008001001011MA1999999099641MD1999999-0171REMSYN070AAXX  10184 82678 32596 40905 10333 20185 39964 40120 83201 333 59017;EQDQ01  00002PRCP99
0208826780999992001071100004-06760-043010FM-12+013899999V0201401N001512200019N0002001N1+02871+01481101421ADDAA199000091GA1001+999999999GF100991001001999999001001KA1240M+03451MA1999999099851MD1999999-0231REMSYN082AAXX  11004 82678 32992 01403 10287 20148 39985 40142 333 10345 29046 55101 59023;EQDQ01  00002PRCP99
0180826780999992001071112004-06760-043010FM-12+013899999V0201401N003112200019N0040001N1+02811+01921101791ADDAA199000091GF101991999999999999999999KA1240N+02241MA1999999100221MD1999999+0041REMSYN070AAXX  11124 82678 32996 11406 10281 20192 30022 40179 333 20224 58004;EQDQ01  00002PRCP99
0167826780999992001071118004-06760-043010FM-12+013899999V0200901N002112200019N0040001N1+03551+01851101231ADDAA199000091GF105991041011008001001011MA1999999099671MD1999999+0031REMSYN070AAXX  11184 82678 32596 50904 10355 20185 39967 40123 84101 333 58003;EQDQ01  00002PRCP99
0208826780999992001071200004-06760-043010FM-12+013899999V0209999C000012200019N0002001N1+02821+01581101481ADDAA199000091GA1001+999999999GF100991001001999999001001KA1240M+03581MA1999999099911MD1999999+0061REMSYN082AAXX  12004 82678 32592 00000 10282 20158 39991 40148 333 10358 29048 55107 58006;EQDQ01  00002PRCP99
0196826780999992001071212004-06760-043010FM-12+013899999V0201401N004112200019N0040001N1+02881+01861101821ADDAA199000091GA1001+999999999GF100991001001999999001001KA1240N+02241MA1999999100251MD1999999+0031REMSYN070AAXX  12124 82678 32996 01408 10288 20186 30025 40182 333 20224 58003;EQDQ01  00002PRCP99
0167826780999992001071218004-06760-043010FM-12+013899999V0200901N001512200019N0040001N1+03611+01721101331ADDAA199000091GF104991041011008001001001MA1999999099771MD1999999+0101REMSYN070AAXX  12184 82678 32596 40903 10361 20172 39977 40133 84100 333 58010;EQDQ01  00002PRCP99
0208826780999992001071300004-06760-043010FM-12+013899999V0200901N000512200019N0002001N1+02961+01961101571ADDAA199000091GA1001+999999999GF100991001001999999001001KA1240M+03701MA1999999100001MD1999999+0091REMSYN082AAXX  13004 82678 32992 00901 10296 20196 30000 40157 333 10370 29049 55104 58009;EQDQ01  00002PRCP99
0186826780999992001071312004-06760-043010FM-12+013899999V0203601N001010450019N0040001N1+02601+02211101831ADDAA199000091GF105991041051008001031001KA1240N+02341MA1999999100251MD1999999+0001REMSYN076AAXX  13124 82678 32596 53602 10260 20221 30025 40183 84530 333 20234 58000;EQDQ01  00002PRCP99
0167826780999992001071318004-06760-043010FM-12+013899999V0201401N001510075019N0040001N1+03501+01811101221ADDAA199000091GF105991051021008001001001MA1999999099661MD1999999-0111REMSYN070AAXX  13184 82678 32596 51403 10350 20181 39966 40122 85200 333 59011;EQDQ01  00002PRCP99
0186826780999992001071612004-06760-043010FM-12+013899999V0201401N004612200019N0040001N1+02721+01771101831ADDAA199000091GF104991041011008001001001KA1240N+02341MA1999999100251MD1999999-0061REMSYN076AAXX  16124 82678 32596 41409 10272 20177 30025 40183 84100 333 20234 59006;EQDQ01  00002PRCP99
0167826780999992001071618004-06760-043010FM-12+013899999V0201401N002610075019N0040001N1+03331+01571101331ADDAA199000091GF105991051011008001001001MA1999999099771MD1999999-0031REMSYN070AAXX  16184 82678 32596 51405 10333 20157 39977 40133 85100 333 59003;EQDQ01  00002PRCP99
0192826780999992001071700004-06760-043010FM-12+013899999V0201401N001512200019N0002001N1+02901+01721101551ADDAA199000091GF104991999999999999999999KA1240M+03441MA1999999099981MD1999999+0001REMSYN082AAXX  17004 82678 32992 41403 10290 20172 39998 40155 333 10344 29047 55100 58000;EQDQ01  00002PRCP99
0186826780999992001071712004-06760-043010FM-12+013899999V0200901N004112200019N0040001N1+02781+01821101891ADDAA199000091GF102991021011008001001001KA1240N+02421MA1999999100311MD1999999+0061REMSYN076AAXX  17124 82678 32596 20908 10278 20182 30031 40189 82100 333 20242 58006;EQDQ01  00002PRCP99
0167826780999992001071718004-06760-043010FM-12+013899999V0200901N003610075019N0040001N1+03491+01611101311ADDAA199000091GF105991051021008001001001MA1999999099761MD1999999-0011REMSYN070AAXX  17184 82678 32596 50907 10349 20161 39976 40131 85200 333 59001;EQDQ01  00002PRCP99
0208826780999992001071800004-06760-043010FM-12+013899999V0201401N000512200019N0002001N1+02901+01651101551ADDAA199000091GA1001+999999999GF100991001001999999001001KA1240M+03581MA1999999099981MD1999999+0001REMSYN082AAXX  18004 82678 32992 01401 10290 20165 39998 40155 333 10358 29046 55101 58000;EQDQ01  00002PRCP99
0186826780999992001071812004-06760-043010FM-12+013899999V0200901N004112200019N0040001N1+02781+01981101871ADDAA199000091GF102991021011008001001001KA1240N+02401MA1999999100291MD1999999-0021REMSYN076AAXX  18124 82678 32596 20908 10278 20198 30029 40187 82100 333 20240 59002;EQDQ01  00002PRCP99
0208826780999992001071900004-06760-043010FM-12+013899999V0209999C000012200019N0002001N1+02721+01711101501ADDAA199000091GA1001+999999999GF100991001001999999001001KA1240M+03611MA1999999099921MD1999999-0061REMSYN082AAXX  19004 82678 32992 00000 10272 20171 39992 40150 333 10361 29050 55095 59006;EQDQ01  00002PRCP99
0196826780999992001071912004-06760-043010FM-12+013899999V0200901N001512200019N0040001N1+02881+01771101821ADDAA199000091GA1001+999999999GF100991001001999999001001KA1240N+02441MA1999999100241MD1999999-0051REMSYN070AAXX  19124 82678 32996 00903 10288 20177 30024 40182 333 20244 59005;EQDQ01  00002PRCP99
0167826780999992001071918004-06760-043010FM-12+013899999V0201401N002110075019N0040001N1+03531+01741101191ADDAA199000091GF105991051021008001001001MA1999999099641MD1999999-0071REMSYN070AAXX  19184 82678 32596 51404 10353 20174 39964 40119 85200 333 59007;EQDQ01  00002PRCP99
0208826780999992001072000004-06760-043010FM-12+013899999V0201401N002112200019N0002001N1+03081+01511101391ADDAA199000091GA1001+999999999GF100991001001999999001001KA1240M+03631MA1999999099831MD1999999-0091REMSYN082AAXX  20004 82678 32992 01404 10308 20151 39983 40139 333 10363 29044 55101 59009;EQDQ01  00002PRCP99
0186826780999992001072012004-06760-043010FM-12+013899999V0200901N002612200019N0040001N1+02841+01881101631ADDAA199000091GF102991021011008001001001KA1240N+02421MA1999999100061MD1999999-0181REMSYN076AAXX  20124 82678 32596 20905 10284 20188 30006 40163 82100 333 20242 59018;EQDQ01  00002PRCP99
0167826780999992001072018004-06760-043010FM-12+013899999V0200901N003112200019N0040001N1+03441+01641101221ADDAA199000091GF104991041021008001001001MA1999999099661MD1999999+0021REMSYN070AAXX  20184 82678 32596 40906 10344 20164 39966 40122 84200 333 58002;EQDQ01  00002PRCP99
0208826780999992001072100004-06760-043010FM-12+013899999V0201401N001512200019N0002001N1+02981+01591101381ADDAA199000091GA1001+999999999GF100991001001999999001001KA1240M+03551MA1999999099821MD1999999-0011REMSYN082AAXX  21004 82678 32992 01403 10298 20159 39982 40138 333 10355 29044 55106 59001;EQDQ01  00002PRCP99
0186826780999992001072112004-06760-043010FM-12+013899999V0201401N003110450019N0040001N1+02841+01671101731ADDAA199000091GF105991031051008001031001KA1240N+02141MA1999999100161MD1999999+0101REMSYN076AAXX  21124 82678 32596 51406 10284 20167 30016 40173 83530 333 20214 58010;EQDQ01  00002PRCP99
0167826780999992001072118004-06760-043010FM-12+013899999V0201401N002110075019N0040001N1+02841+01791101241ADDAA199000091GF106991051021008001001021MA1999999099681MD1999999+0021REMSYN070AAXX  21184 82678 32596 61404 10284 20179 39968 40124 85202 333 58002;EQDQ01  00002PRCP99
0198826780999992001072200004-06760-043010FM-12+013899999V0209999C000012200019N0002001N1+02801+01921101411ADDAA199000091GF104991041051008001001001KA1240M+03551MA1999999099841MD1999999+0021REMSYN088AAXX  22004 82678 32592 40000 10280 20192 39984 40141 84500 333 10355 29051 55089 58002;EQDQ01  00002PRCP99
0186826780999992001072212004-06760-043010FM-12+013899999V0203601N000512200019N0040001N1+02781+02061101741ADDAA199000091GF104991031051008001031001KA1240N+02461MA1999999100161MD1999999+0001REMSYN076AAXX  22124 82678 32596 43601 10278 20206 30016 40174 83530 333 20246 58000;EQDQ01  00002PRCP99
0167826780999992001072218004-06760-043010FM-12+013899999V0201401N004110075019N0040001N1+03441+01841101321ADDAA199000091GF107991061041008001031001MA1999999099761MD1999999+0061REMSYN070AAXX  22184 82678 32596 71408 10344 20184 39976 40132 86430 333 58006;EQDQ01  00002PRCP99
0208826780999992001072300004-06760-043010FM-12+013899999V0200901N000512200019N0002001N1+02801+01921101421ADDAA199000091GA1001+999999999GF100991001001999999001001KA1240M+03511MA1999999099851MD1999999+0011REMSYN082AAXX  23004 82678 32992 00901 10280 20192 39985 40142 333 10351 29056 55047 58001;EQDQ01  00002PRCP99
0186826780999992001072312004-06760-043010FM-12+013899999V0200501N001512200019N0040001N1+02801+02001101691ADDAA199000091GF104991021001017501021011KA1240N+02071MA1999999100111MD1999999-0051REMSYN076AAXX  23124 82678 32796 40503 10280 20200 30011 40169 82021 333 20207 59005;EQDQ01  00002PRCP99
0167826780999992001072318004-06760-043010FM-12+013899999V0200901N004611050019N0040001N1+03711+01491101151ADDAA199000091GF106991041021008001001021MA1999999099591MD1999999-0171REMSYN070AAXX  23184 82678 32596 60909 10371 20149 39959 40115 84202 333 59017;EQDQ01  00002PRCP99
0208826780999992001072400004-06760-043010FM-12+013899999V0201401N001012200019N0002001N1+02871+01481101421ADDAA199000091GA1001+999999999GF100991001001999999001001KA1240M+03751MA1999999099851MD1999999+0001REMSYN082AAXX  24004 82678 32992 01402 10287 20148 39985 40142 333 10375 29044 55097 58000;EQDQ01  00002PRCP99
0196826780999992001072412004-06760-043010FM-12+013899999V0201401N004112200019N0040001N1+02721+01621101851ADDAA199000091GA1001+999999999GF100991001001999999001001KA1240N+02461MA1999999100271MD1999999+0161REMSYN070AAXX  24124 82678 32996 01408 10272 20162 30027 40185 333 20246 58016;EQDQ01  00002PRCP99
0167826780999992001072418004-06760-043010FM-12+013899999V0201401N001512200019N0040001N1+03401+01641101441ADDAA199000091GF102991021011008001001001MA1999999099881MD1999999+0291REMSYN070AAXX  24184 82678 32596 21403 10340 20164 39988 40144 82100 333 58029;EQDQ01  00002PRCP99
0208826780999992001072500004-06760-043010FM-12+013899999V0209999C000012200019N0002001N1+02661+01401101481ADDAA199000091GA1001+999999999GF100991001001999999001001KA1240M+03511MA1999999099901MD1999999+0051REMSYN082AAXX  25004 82678 32992 00000 10266 20140 39990 40148 333 10351 29044 55107 58005;EQDQ01  00002PRCP99
0180826780999992001072512004-06760-043010FM-12+013899999V0201401N004612200019N0040001N1+02681+01581101781ADDAA199000091GF104991999999999999999999KA1240N+02231MA1999999100201MD1999999-0071REMSYN070AAXX  25124 82678 32996 41409 10268 20158 30020 40178 333 20223 59007;EQDQ01  00002PRCP99
0161826780999992001072518004-06760-043010FM-12+013899999V0201401N002112200019N0040001N1+03481+01471101281ADDAA199000091GF101991999999999999999999MA1999999099721MD1999999-0161REMSYN064AAXX  25184 82678 32996 11404 10348 20147 39972 40128 333 59016;EQDQ01  00002PRCP99
0198826780999992001072600004-06760-043010FM-12+013899999V0209999C000012200019N0002001N1+02681+01671101421ADDAA199000091GF102991021001017501031001KA1240M+03531MA1999999099841MD1999999-0061REMSYN088AAXX  26004 82678 32792 20000 10268 20167 39984 40142 82030 333 10353 29047 55107 59006;EQDQ01  00002PRCP99
0186826780999992001072612004-06760-043010FM-12+013899999V0201401N003112200019N0040001N1+02541+01861101891ADDAA199000091GF102991021011008001001001KA1240N+02081MA1999999100301MD1999999+0101REMSYN076AAXX  26124 82678 32596 21406 10254 20186 30030 40189 82100 333 20208 58010;EQDQ01  00002PRCP99
0167826780999992001072618004-06760-043010FM-12+013899999V0200901N001012200019N0040001N1+03401+01641101431ADDAA199000091GF104991031011008001001011MA1999999099861MD1999999+0141REMSYN070AAXX  26184 82678 32596 40902 10340 20164 39986 40143 83101 333 58014;EQDQ01  00002PRCP99
0198826780999992001072700004-06760-043010FM-12+013899999V0209999C000012200019N0002001N1+02641+01541101541ADDAA199000091GF104991041001017501031001KA1240M+03531MA1999999099961MD1999999+0121REMSYN088AAXX  27004 82678 32792 40000 10264 20154 39996 40154 84030 333 10353 29048 55104 58012;EQDQ01  00002PRCP99
0196826780999992001072712004-06760-043010FM-12+013899999V0201401N004112200019N0040001N1+02721+01791101971ADDAA199000091GA1001+999999999GF100991001001999999001001KA1240N+02321MA1999999100381MD1999999+0081REMSYN070AAXX  27124 82678 32996 01408 10272 20179 30038 40197 333 20232 58008;EQDQ01  00002PRCP99
0167826780999992001072718004-06760-043010FM-12+013899999V0201401N002612200019N0040001N1+03381+01481101471ADDAA199000091GF102991021011008001001001MA1999999099911MD1999999+0051REMSYN070AAXX  27184 82678 32596 21405 10338 20148 39991 40147 82100 333 58005;EQDQ01  00002PRCP99
0208826780999992001072800004-06760-043010FM-12+013899999V0201401N001012200019N0002001N1+02661+01331101691ADDAA199000091GA1001+999999999GF100991001001999999001001KA1240M+03471MA1999999100111MD1999999+0151REMSYN082AAXX  28004 82678 32992 01402 10266 20133 30011 40169 333 10347 29044 55106 58015;EQDQ01  00002PRCP99
0196826780999992001072812004-06760-043010FM-12+013899999V0201401N003112200019N0040001N1+02741+01511101981ADDAA199000091GA1001+999999999GF100991001001999999001001KA1240N+02141MA1999999100391MD1999999+0011REMSYN070AAXX  28124 82678 32996 01406 10274 20151 30039 40198 333 20214 58001;EQDQ01  00002PRCP99
0167826780999992001072818004-06760-043010FM-12+013899999V0202701N001512200019N0040001N1+03461+01341101441ADDAA199000091GF103991031011008001001001MA1999999099871MD1999999-0041REMSYN070AAXX  28184 82678 32596 32703 10346 20134 39987 40144 83100 333 59004;EQDQ01  00002PRCP99
0198826780999992001072900004-06760-043010FM-12+013899999V0209999C000010150019N0002001N1+02671+01531101641ADDAA199000091GF106991061001017501031001KA1240M+03551MA1999999100061MD1999999-0051REMSYN088AAXX  29004 82678 32792 60000 10267 20153 30006 40164 86030 333 10355 29044 55106 59005;EQDQ01  00002PRCP99
0196826780999992001072912004-06760-043010FM-12+013899999V0201401N005112200019N0040001N1+02831+01551101841ADDAA199000091GA1001+999999999GF100991001001999999001001KA1240N+02061MA1999999100261MD1999999-0131REMSYN070AAXX  29124 82678 32996 01410 10283 20155 30026 40184 333 20206 59013;EQDQ01  00002PRCP99
0167826780999992001072918004-06760-043010FM-12+013899999V0201401N001512200019N0040001N1+03461+01641101371ADDAA199000091GF102991021011008001001001MA1999999099801MD1999999-0071REMSYN070AAXX  29184 82678 32596 21403 10346 20164 39980 40137 82100 333 59007;EQDQ01  00002PRCP99
0198826780999992001073000004-06760-043010FM-12+013899999V0209999C000010075019N0002001N1+02901+01621101561ADDAA199000091GF107991051051008001031001KA1240M+03551MA1999999099991MD1999999-0071REMSYN088AAXX  30004 82678 32592 70000 10290 20162 39999 40156 85530 333 10355 29043 55108 59007;EQDQ01  00002PRCP99
0186826780999992001073012004-06760-043010FM-12+013899999V0200901N004112200019N0040001N1+02781+01701101941ADDAA199000091GF102991021011008001001001KA1240N+02461MA1999999100361MD1999999+0101REMSYN076AAXX  30124 82678 32596 20908 10278 20170 30036 40194 82100 333 20246 58010;EQDQ01  00002PRCP99
0167826780999992001073018004-06760-043010FM-12+013899999V0201401N001512200019N0040001N1+03401+01591101431ADDAA199000091GF104991041011008001001001MA1999999099871MD1999999+0071REMSYN070AAXX  30184 82678 32596 41403 10340 20159 39987 40143 84100 333 58007;EQDQ01  00002PRCP99
0208826780999992001073100004-06760-043010FM-12+013899999V0201401N001012200019N0002001N1+02961+01381101691ADDAA199000091GA1001+999999999GF100991001001999999001001KA1240M+03511MA1999999100121MD1999999+0131REMSYN082AAXX  31004 82678 32992 01402 10296 20138 30012 40169 333 10351 29041 55105 58013;EQDQ01  00002PRCP99
0186826780999992001073112004-06760-043010FM-12+013899999V0200901N005112200019N0040001N1+02841+01571102001ADDAA199000091GF101991011001017501031001KA1240N+02461MA1999999100431MD1999999+0071REMSYN076AAXX  31124 82678 32796 10910 10284 20157 30043 40200 81030 333 20246 58007;EQDQ01  00002PRCP99
0167826780999992001073118004-06760-043010FM-12+013899999V0201401N002112200019N0040001N1+03461+01501101461ADDAA199000091GF103991031011008001001001MA1999999099901MD1999999+0031REMSYN070AAXX  31184 82678 32596 31404 10346 20150 39990 40146 83100 333 58003;EQDQ01  00002PRCP99
0198826780999992001080100004-06760-043010FM-12+013899999V0201401N001512200019N0002001N1+02901+01241101761ADDAA199000091GF103991031001017501031001KA1240M+03571MA1999999100191MD1999999+0071REMSYN088AAXX  01004 82678 32792 31403 10290 20124 30019 40176 83030 333 10357 29037 55107 58007;EQDQ01  00002PRCP99
0196826780999992001080112004-06760-043010FM-12+013899999V0201401N004112200019N0040001N1+02701+01411102101ADDAA199000091GA1001+999999999GF100991001001999999001001KA1240N+02321MA1999999100521MD1999999+0091REMSYN070AAXX  01124 82678 32996 01408 10270 20141 30052 40210 333 20232 58009;EQDQ01  00002PRCP99
0167826780999992001080118004-06760-043010FM-12+013899999V0201801N003112200019N0040001N1+03491+01521101561ADDAA199000091GF101991011011008001001001MA1999999100001MD1999999+0101REMSYN070AAXX  01184 82678 32596 11806 10349 20152 30000 40156 81100 333 58010;EQDQ01  00002PRCP99
0208826780999992001080200004-06760-043010FM-12+013899999V0201401N002112200019N0002001N1+02901+01351101831ADDAA199000091GA1001+999999999GF100991001001999999001001KA1240M+03531MA1999999100251MD1999999+0061REMSYN082AAXX  02004 82678 32992 01404 10290 20135 30025 40183 333 10353 29036 55108 58006;EQDQ01  00002PRCP99
0196826780999992001080212004-06760-043010FM-12+013899999V0201401N005112200019N0040001N1+02761+01431102011ADDAA199000091GA1001+999999999GF100991001001999999001001KA1240N+02281MA1999999100431MD1999999-0091REMSYN070AAXX  02124 82678 32996 01410 10276 20143 30043 40201 333 20228 59009;EQDQ01  00002PRCP99
0177826780999992001080218004-06760-043010FM-12+013899999V0201401N004112200019N0040001N1+03441+01291101521ADDAA199000091GA1001+999999999GF100991001001999999001001MA1999999099961MD1999999-0041REMSYN064AAXX  02184 82678 32996 01408 10344 20129 39996 40152 333 59004;EQDQ01  00002PRCP99
0208826780999992001080300004-06760-043010FM-12+013899999V0201401N000512200019N0002001N1+02621+01121101721ADDAA199000091GA1001+999999999GF100991001001999999001001KA1240M+03491MA1999999100141MD1999999-0111REMSYN082AAXX  03004 82678 32992 01401 10262 20112 30014 40172 333 10349 29038 55108 59011;EQDQ01  00002PRCP99
0196826780999992001080312004-06760-043010FM-12+013899999V0201401N005112200019N0040001N1+02641+01451102011ADDAA199000091GA1001+999999999GF100991001001999999001001KA1240N+02181MA1999999100421MD1999999-0011REMSYN070AAXX  03124 82678 32996 01410 10264 20145 30042 40201 333 20218 59001;EQDQ01  00002PRCP99
0167826780999992001080318004-06760-043010FM-12+013899999V0200901N003110075019N0040001N1+03161+01711101621ADDAA199000091GF108991061051008001071999MA1999999100041MD1999999+0081REMSYN070AAXX  03184 82678 32596 80906 10316 20171 30004 40162 8657/ 333 58008;EQDQ01  00002PRCP99
0214826780999992001080400004-06760-043010FM-12+013899999V0201401N000510075019N0002001N1+02901+01651101721ADDAA199000091GF108991999051008001001001KA1240M+03311MA1999999100141MD1999999+0041REMSYN088AAXX  04004 82678 32592 81401 10290 20165 30014 40172 87500 333 10331 29046 55062 58004;EQDQ01+000072SCOTLCQ02  00002PRCP99
0196826780999992001080412004-06760-043010FM-12+013899999V0201401N005112200019N0040001N1+02641+01511102101ADDAA199000091GA1001+999999999GF100991001001999999001001KA1240N+02341MA1999999100521MD1999999+0101REMSYN070AAXX  04124 82678 32996 01410 10264 20151 30052 40210 333 20234 58010;EQDQ01  00002PRCP99
0167826780999992001080418004-06760-043010FM-12+013899999V0201401N003112200019N0040001N1+03311+01461101501ADDAA199000091GF101991011011008001001001MA1999999099941MD1999999-0101REMSYN070AAXX  04184 82678 32596 11406 10331 20146 39994 40150 81100 333 59010;EQDQ01  00002PRCP99
0214826780999992001080500004-06760-043010FM-12+013899999V0201801N001012200019N0020001N1+02511+01291101701ADDAA199000091GF101991999011008001001001KA1240M+03371MA1999999100111MD1999999-0031REMSYN088AAXX  05004 82678 32595 11802 10251 20129 30011 40170 82100 333 10337 29044 55108 59003;EQDQ01+000022SCOTLCQ02  00002PRCP99
0196826780999992001080512004-06760-043010FM-12+013899999V0201401N004612200019N0040001N1+02721+01771101971ADDAA199000091GA1001+999999999GF100991001001999999001001KA1240N+02341MA1999999100381MD1999999-0141REMSYN070AAXX  05124 82678 32996 01409 10272 20177 30038 40197 333 20234 59014;EQDQ01  00002PRCP99
0167826780999992001080518004-06760-043010FM-12+013899999V0200901N002612200019N0040001N1+03541+01521101381ADDAA199000091GF101991011011008001001001MA1999999099831MD1999999-0111REMSYN070AAXX  05184 82678 32596 10905 10354 20152 39983 40138 81100 333 59011;EQDQ01  00002PRCP99
0208826780999992001080600004-06760-043010FM-12+013899999V0201401N001012200019N0002001N1+03001+01371101601ADDAA199000091GA1001+999999999GF100991001001999999001001KA1240M+03491MA1999999100031MD1999999-0081REMSYN082AAXX  06004 82678 32992 01402 10300 20137 30003 40160 333 10349 29040 55108 59008;EQDQ01  00002PRCP99
0196826780999992001080612004-06760-043010FM-12+013899999V0201401N006012200019N0040001N1+02741+01611101941ADDAA199000091GA1001+999999999GF100991001001999999001001KA1240N+02421MA1999999100361MD1999999-0021REMSYN070AAXX  06121 82678 32996 01406 10274 20161 30036 40194 333 20242 59002;EQDQ01  00002PRCP99
0177826780999992001080618004-06760-043010FM-12+013899999V0201401N003612200019N0040001N1+03491+01571101381ADDAA199000091GA1001+999999999GF100991001001999999001001MA1999999099831MD1999999+0001REMSYN064AAXX  06184 82678 32996 01407 10349 20157 39983 40138 333 58000;EQDQ01  00002PRCP99
0208826780999992001080700004-06760-043010FM-12+013899999V0201401N001012200019N0002001N1+02881+01461101701ADDAA199000091GA1001+999999999GF100991001001999999001001KA1240M+03531MA1999999100121MD1999999+0091REMSYN082AAXX  07004 82678 32992 01402 10288 20146 30012 40170 333 10353 29042 55108 58009;EQDQ01  00002PRCP99
0186826780999992001080712004-06760-043010FM-12+013899999V0201401N005112200019N0040001N1+02561+01671102171ADDAA199000091GF103991031011008001001001KA1240N+02201MA1999999100581MD1999999+0221REMSYN076AAXX  07124 82678 32596 31410 10256 20167 30058 40217 83100 333 20220 58022;EQDQ01  00002PRCP99
0167826780999992001080718004-06760-043010FM-12+013899999V0201401N004112200019N0040001N1+03341+01451101591ADDAA199000091GF103991031011008001001001MA1999999100021MD1999999+0191REMSYN070AAXX  07184 82678 32596 31408 10334 20145 30002 40159 83100 333 58019;EQDQ01  00002PRCP99
0198826780999992001080800004-06760-043010FM-12+013899999V0201401N002112200019N0020001N1+02881+01531101851ADDAA199000091GF104991041021008001001001KA1240M+03441MA1999999100261MD1999999+0141REMSYN088AAXX  08004 82678 32595 41404 10288 20153 30026 40185 84200 333 10344 29044 55106 58014;EQDQ01  00002PRCP99
0196826780999992001080812004-06760-043010FM-12+013899999V0201401N003112200019N0040001N1+02721+01491102061ADDAA199000091GA1001+999999999GF100991001001999999001001KA1240N+02321MA1999999100481MD1999999-0101REMSYN070AAXX  08124 82678 32996 01406 10272 20149 30048 40206 333 20232 59010;EQDQ01  00002PRCP99
0167826780999992001080818004-06760-043010FM-12+013899999V0201401N002612200019N0040001N1+03451+01481101501ADDAA199000091GF101991011011008001001001MA1999999099941MD1999999-0081REMSYN070AAXX  08184 82678 32596 11405 10345 20148 39994 40150 81100 333 59008;EQDQ01  00002PRCP99
0208826780999992001080900004-06760-043010FM-12+013899999V0209999C000012200019N0002001N1+02621+01461101681ADDAA199000091GA1001+999999999GF100991001001999999001001KA1240M+03551MA1999999100091MD1999999-0171REMSYN082AAXX  09004 82678 32992 00000 10262 20146 30009 40168 333 10355 29044 55108 59017;EQDQ01  00002PRCP99
0186826780999992001080912004-06760-043010FM-12+013899999V0201401N005112200019N0040001N1+02741+01841102001ADDAA199000091GF104991021021008001001011KA1240N+02341MA1999999100411MD1999999-0071REMSYN076AAXX  09124 82678 32596 41410 10274 20184 30041 40200 82201 333 20234 59007;EQDQ01  00002PRCP99
0167826780999992001080918004-06760-043010FM-12+013899999V0201401N004612200019N0040001N1+03421+01781101521ADDAA199000091GF103991031011008001001001MA1999999099961MD1999999+0021REMSYN070AAXX  09184 82678 32596 31409 10342 20178 39996 40152 83100 333 58002;EQDQ01  00002PRCP99
0208826780999992001081000004-06760-043010FM-12+013899999V0201401N001512200019N0002001N1+02871+01651101811ADDAA199000091GA1001+999999999GF100991001001999999001001KA1240M+03481MA1999999100231MD1999999+0141REMSYN082AAXX  10004 82678 32992 01403 10287 20165 30023 40181 333 10348 29048 55108 58014;EQDQ01  00002PRCP99
0186826780999992001081012004-06760-043010FM-12+013899999V0201401N004112200019N0040001N1+02641+01721102011ADDAA199000091GF104991041001017501031001KA1240N+02401MA1999999100431MD1999999+0021REMSYN076AAXX  10124 82678 32796 41408 10264 20172 30043 40201 84030 333 20240 58002;EQDQ01  00002PRCP99
0167826780999992001081018004-06760-043010FM-12+013899999V0201401N003110075019N0040001N1+03481+01611101521ADDAA199000091GF105991051011008001001001MA1999999099961MD1999999+0001REMSYN070AAXX  10184 82678 32596 51406 10348 20161 39996 40152 85100 333 58000;EQDQ01  00002PRCP99
0208826780999992001081100004-06760-043010FM-12+013899999V0200901N000512200019N0002001N1+02841+01461101661ADDAA199000091GA1001+999999999GF100991001001999999001001KA1240M+03541MA1999999100081MD1999999-0151REMSYN082AAXX  11004 82678 32992 00901 10284 20146 30008 40166 333 10354 29044 55091 59015;EQDQ01  00002PRCP99
0180826780999992001081112004-06760-043010FM-12+013899999V0201401N005712200019N0040001N1+02791+01671101951ADDAA199000091GF103991999999999999999999KA1240N+02301MA1999999100371MD1999999-0061REMSYN070AAXX  11124 82678 32996 31411 10279 20167 30037 40195 333 20230 59006;EQDQ01  00002PRCP99
0167826780999992001081118004-06760-043010FM-12+013899999V0201401N001512200019N0040001N1+03541+01411101491ADDAA199000091GF104991021021008001001011MA1999999099931MD1999999-0031REMSYN070AAXX  11184 82678 32596 41403 10354 20141 39993 40149 82201 333 59003;EQDQ01  00002PRCP99
0208826780999992001081200004-06760-043010FM-12+013899999V0201401N002112200019N0002001N1+02921+01421101771ADDAA199000091GA1001+999999999GF100991001001999999001001KA1240M+03621MA1999999100201MD1999999+0121REMSYN082AAXX  12004 82678 32992 01404 10292 20142 30020 40177 333 10362 29040 55107 58012;EQDQ01  00002PRCP99
0183826780999992001081218004-06760-043010FM-12+013899999V0201401N002619999999N0040001N1+03501+01631101461ADDAA199000091GF106991999021008001001001MA1999999099871MD1999999-0061REMSYN070AAXX  12184 82678 32596 61405 10350 20163 39987 40146 83200 333 59006;EQDQ01+000032SCOTLCQ02  00002PRCP99
0208826780999992001081300004-06760-043010FM-12+013899999V0201401N005112200019N0040001N1+03021+01691101751ADDAA199000091GA1001+999999999GF100991001001999999001001KA1240M+03611MA1999999100181MD1999999-0021REMSYN082AAXX  13004 82678 32996 01410 10302 20169 30018 40175 333 10361 29046 55102 59002;EQDQ01  00002PRCP99
0186826780999992001081312004-06760-043010FM-12+013899999V0201401N004611050019N0040001N1+02621+01671101971ADDAA199000091GF106991011011008001001021KA1240N+02221MA1999999100391MD1999999-0031REMSYN076AAXX  13124 82678 32596 61409 10262 20167 30039 40197 81102 333 20222 59003;EQDQ01  00002PRCP99
0167826780999992001081318004-06760-043010FM-12+013899999V0201401N005111050019N0040001N1+03441+01631101391ADDAA199000091GF105991041011008001001021MA1999999099831MD1999999-0041REMSYN070AAXX  13184 82678 32596 51410 10344 20163 39983 40139 84102 333 59004;EQDQ01  00002PRCP99
0208826780999992001081400004-06760-043010FM-12+013899999V0201401N001512200019N0002001N1+02961+01571101691ADDAA199000091GA1001+999999999GF100991001001999999001001KA1240M+03491MA1999999100111MD1999999-0071REMSYN082AAXX  14004 82678 32992 01403 10296 20157 30011 40169 333 10349 29044 55102 59007;EQDQ01  00002PRCP99
0196826780999992001081412004-06760-043010FM-12+013899999V0201401N006712200019N0040001N1+02681+01521101941ADDAA199000091GA1001+999999999GF100991001001999999001001KA1240N+02291MA1999999100361MD1999999-0031REMSYN070AAXX  14124 82678 32996 01413 10268 20152 30036 40194 333 20229 59003;EQDQ01  00002PRCP99
0177826780999992001081418004-06760-043010FM-12+013899999V0201401N001512200019N0040001N1+03441+01381101361ADDAA199000091GA1001+999999999GF100991001001999999001001MA1999999099801MD1999999-0031REMSYN064AAXX  14184 82678 32996 01403 10344 20138 39980 40136 333 59003;EQDQ01  00002PRCP99
0208826780999992001081500004-06760-043010FM-12+013899999V0201401N002112200019N0002001N1+03001+01451101681ADDAA199000091GA1001+999999999GF100991001001999999001001KA1240M+03001MA1999999100111MD1999999+0001REMSYN082AAXX  15004 82678 32992 01404 10300 20145 30011 40168 333 10300 29039 55108 58000;EQDQ01  00002PRCP99
0186826780999992001081512004-06760-043010FM-12+013899999V0201401N004112200019N0040001N1+02721+01741101991ADDAA199000091GF101991011011008001001001KA1240N+02301MA1999999100411MD1999999+0051REMSYN076AAXX  15124 82678 32596 11408 10272 20174 30041 40199 81100 333 20230 58005;EQDQ01  00002PRCP99
0167826780999992001081518004-06760-043010FM-12+013899999V0201401N003112200019N0040001N1+03481+01711101421ADDAA199000091GF103991031011008001001001MA1999999099861MD1999999+0061REMSYN070AAXX  15184 82678 32596 31406 10348 20171 39986 40142 83100 333 58006;EQDQ01  00002PRCP99
0224826780999992001081600004-06760-043010FM-12+013899999V0201401N003112200019N0002001N1+03061+01621101751ADDAA199000091GA1001+999999999GF100991001001999999001001KA1240M+03551MA1999999100682MD1999999+0071REMSYN082AAXX  16004 82678 32992 01406 10306 20162 30068 40175 333 10355 29044 55107 58007;EQDQ01+100683APOSP Q02  00002PRCP99
0186826780999992001081612004-06760-043010FM-12+013899999V0200901N003112200019N0040001N1+02681+01781102081ADDAA199000091GF103991031011008001001001KA1240N+02301MA1999999100501MD1999999+0091REMSYN076AAXX  16124 82678 32596 30906 10268 20178 30050 40208 83100 333 20230 58009;EQDQ01  00002PRCP99
0167826780999992001081618004-06760-043010FM-12+013899999V0201401N001012200019N0040001N1+03461+01731101471ADDAA199000091GF104991041021008001001001MA1999999099911MD1999999+0051REMSYN070AAXX  16184 82678 32596 41402 10346 20173 39991 40147 84200 333 58005;EQDQ01  00002PRCP99
0208826780999992001081700004-06760-043010FM-12+013899999V0201401N001012200019N0002001N1+02901+01481101641ADDAA199000091GA1001+999999999GF100991001001999999001001KA1240M+03531MA1999999100061MD1999999-0121REMSYN082AAXX  17004 82678 32992 01402 10290 20148 30006 40164 333 10353 29044 55103 59012;EQDQ01  00002PRCP99
0186826780999992001081712004-06760-043010FM-12+013899999V0201401N005112200019N0040001N1+02581+01611102051ADDAA199000091GF103991031011008001001001KA1240N+02401MA1999999100471MD1999999-0031REMSYN076AAXX  17124 82678 32596 31410 10258 20161 30047 40205 83100 333 20240 59003;EQDQ01  00002PRCP99
0167826780999992001081718004-06760-043010FM-12+013899999V0201401N003112200019N0040001N1+03421+01651101501ADDAA199000091GF103991021021008001001011MA1999999099911MD1999999+0001REMSYN070AAXX  17184 82678 32596 31406 10342 20165 39991 40150 82201 333 58000;EQDQ01  00002PRCP99
0209826780999992001081800004-06760-043010FM-12+013899999V0201401N001512200019N0002001N1+02921+01381101651ADDAA199000091GA1001+999999999GF100991001001999999001001KA1240M+03531MD1999999+0011REMSYN082AAXX  18004 82678 32992 01403 10292 20138 31007 40165 333 10353 29042 55089 58001;EQDQ01+010071APOSP Q02  00002PRCP99
0180826780999992001081812004-06760-043010FM-12+013899999V0201401N004612200019N0040001N1+02711+01721101951ADDAA199000091GF101991999999999999999999KA1240N+02331MA1999999100371MD1999999-0101REMSYN070AAXX  18124 82678 32996 11409 10271 20172 30037 40195 333 20233 59010;EQDQ01  00002PRCP99
0167826780999992001081818004-06760-043010FM-12+013899999V0201401N003112200019N0040001N1+03481+01661101391ADDAA199000091GF103991031021008001001001MA1999999099831MD1999999-0081REMSYN070AAXX  18184 82678 32596 31406 10348 20166 39983 40139 83200 333 59008;EQDQ01  00002PRCP99
0208826780999992001081900004-06760-043010FM-12+013899999V0201401N000512200019N0002001N1+03001+01571101591ADDAA199000091GA1001+999999999GF100991001001999999001001KA1240M+03531MA1999999100021MD1999999-0031REMSYN082AAXX  19004 82678 32992 01401 10300 20157 30002 40159 333 10353 29043 55106 59003;EQDQ01  00002PRCP99
0181826780999992001081912004-06760-043010FM-12+013899999V0201401N004112200019N0040001N1+02821+01771101931ADDAA199000091GA1001+999999999GF100991001001999999001001KA1240N+02481MA1999999100361REMSYN069AAXX  19124 82678 32996 01408 10282 20177 30036 40193 333 20248 5901;EQDQ01  00002PRCP99
0167826780999992001081918004-06760-043010FM-12+013899999V0201401N003110075019N0040001N1+03521+01551101401ADDAA199000091GF105991051011008001001001MA1999999099851MD1999999+0021REMSYN070AAXX  19184 82678 32596 51406 10352 20155 39985 40140 85100 333 58002;EQDQ01  00002PRCP99
0208826780999992001082000004-06760-043010FM-12+013899999V0201401N001512200019N0002001N1+03011+01451101671ADDAA199000091GA1001+999999999GF100991001001999999001001KA1240M+03611MA1999999100101MD1999999+0081REMSYN082AAXX  20004 82678 32992 01403 10301 20145 30010 40167 333 10361 29040 55108 58008;EQDQ01  00002PRCP99
0186826780999992001082012004-06760-043010FM-12+013899999V0201401N003112200019N0040001N1+02901+01811102091ADDAA199000091GF102991021011008001001001KA1240N+02481MA1999999100521MD1999999+0161REMSYN076AAXX  20124 82678 32596 21406 10290 20181 30052 40209 82100 333 20248 58016;EQDQ01  00002PRCP99
0167826780999992001082018004-06760-043010FM-12+013899999V0201401N003112200019N0040001N1+03421+01651101491ADDAA199000091GF104991021021008001001011MA1999999099931MD1999999+0081REMSYN070AAXX  20184 82678 32596 41406 10342 20165 39993 40149 82201 333 58008;EQDQ01  00002PRCP99
0208826780999992001082100004-06760-043010FM-12+013899999V0201401N001012200019N0020001N1+02981+01621101781ADDAA199000091GA1001+999999999GF100991001001999999001001KA1240M+03621MA1999999100211MD1999999+0111REMSYN082AAXX  21004 82678 32995 01402 10298 20162 30021 40178 333 10362 29044 55108 58011;EQDQ01  00002PRCP99
0196826780999992001082112004-06760-043010FM-12+013899999V0201401N004112200019N0040001N1+02801+01721101971ADDAA199000091GA1001+999999999GF100991001001999999001001KA1240N+02441MA1999999100401MD1999999-0121REMSYN070AAXX  21124 82678 32996 01408 10280 20172 30040 40197 333 20244 59012;EQDQ01  00002PRCP99
0167826780999992001082118004-06760-043010FM-12+013899999V0201401N003612200019N0040001N1+03571+01591101461ADDAA199000091GF103991031011008001001001MA1999999099911MD1999999-0021REMSYN070AAXX  21184 82678 32596 31407 10357 20159 39991 40146 83100 333 59002;EQDQ01  00002PRCP99
0208826780999992001082200004-06760-043010FM-12+013899999V0201401N001512200019N0002001N1+02981+01441101631ADDAA199000091GA1001+999999999GF100991001001999999001001KA1240M+03641MA1999999100061MD1999999-0151REMSYN082AAXX  22004 82678 32992 01403 10298 20144 30006 40163 333 10364 29040 55107 59015;EQDQ01  00002PRCP99
0196826780999992001082212004-06760-043010FM-12+013899999V0201401N004112200019N0040001N1+02841+01851102001ADDAA199000091GA1001+999999999GF100991001001999999001001KA1240N+02521MA1999999100431MD1999999+0031REMSYN070AAXX  22124 82678 32996 01408 10284 20185 30043 40200 333 20252 58003;EQDQ01  00002PRCP99
0167826780999992001082218004-06760-043010FM-12+013899999V0201401N001512200019N0040001N1+03601+01621101351ADDAA199000091GF104991041021008001001001MA1999999099811MD1999999-0101REMSYN070AAXX  22184 82678 32596 41403 10360 20162 39981 40135 84200 333 59010;EQDQ01  00002PRCP99
0208826780999992001082300004-06760-043010FM-12+013899999V0201401N001512200019N0002001N1+03161+01431101561ADDAA199000091GA1001+999999999GF100991001001999999001001KA1240M+03731MA1999999100001MD1999999-0061REMSYN082AAXX  23004 82678 32992 01403 10316 20143 30000 40156 333 10373 29039 55107 59006;EQDQ01  00002PRCP99
0196826780999992001082312004-06760-043010FM-12+013899999V0201401N002112200019N0040001N1+02941+01721101951ADDAA199000091GA1001+999999999GF100991001001999999001001KA1240N+02521MA1999999100391MD1999999-0041REMSYN070AAXX  23124 82678 32996 01404 10294 20172 30039 40195 333 20252 59004;EQDQ01  00002PRCP99
0167826780999992001082318004-06760-043010FM-12+013899999V0201401N001512200019N0040001N1+03641+01551101321ADDAA199000091GF103991031011008001001001MA1999999099781MD1999999-0031REMSYN070AAXX  23184 82678 32596 31403 10364 20155 39978 40132 83100 333 59003;EQDQ01  00002PRCP99
0208826780999992001082400004-06760-043010FM-12+013899999V0201401N001512200019N0002001N1+03081+01171101531ADDAA199000091GA1001+999999999GF100991001001999999001001KA1240M+03661MA1999999099971MD1999999-0031REMSYN082AAXX  24004 82678 32992 01403 10308 20117 39997 40153 333 10366 29035 55107 59003;EQDQ01  00002PRCP99
0196826780999992001082412004-06760-043010FM-12+013899999V0201401N003612200019N0040001N1+02861+01781101951ADDAA199000091GA1001+999999999GF100991001001999999001001KA1240N+02461MA1999999100381MD1999999-0011REMSYN070AAXX  24124 82678 32996 01407 10286 20178 30038 40195 333 20246 59001;EQDQ01  00002PRCP99
0167826780999992001082418004-06760-043010FM-12+013899999V0201401N004112200019N0040001N1+03651+01551101281ADDAA199000091GF105991011011008001001011MA1999999099731MD1999999-0051REMSYN070AAXX  24184 82678 32596 51408 10365 20155 39973 40128 81101 333 59005;EQDQ01  00002PRCP99
0192826780999992001082500004-06760-043010FM-12+013899999V0201401N001512200019N0002001N1+02861+01411101411ADDAA199000091GF103991999999999999999999KA1240M+03691MA1999999099841MD1999999-0131REMSYN082AAXX  25004 82678 32992 31403 10286 20141 39984 40141 333 10369 29041 55109 59013;EQDQ01  00002PRCP99
0202826780999992001082512004-06760-043010FM-12+013899999V0200901N003112200019N0040001N1+02921+01921101801ADDAA199000091GF103991999011008001001001KA1240N+02321MA1999999100231MD1999999-0151REMSYN076AAXX  25124 82678 32596 30906 10292 20192 30023 40180 84100 333 20232 59015;EQDQ01+000042SCOTLCQ02  00002PRCP99
0167826780999992001082518004-06760-043010FM-12+013899999V0201401N001510075019N0040001N1+03681+01791101271ADDAA199000091GF105991051011008001001001MA1999999099721MD1999999-0011REMSYN070AAXX  25184 82678 32596 51403 10368 20179 39972 40127 85100 333 59001;EQDQ01  00002PRCP99
0208826780999992001082600004-06760-043010FM-12+013899999V0201401N001512200019N0002001N1+03141+01501101461ADDAA199000091GA1001+999999999GF100991001001999999001001KA1240M+03711MA1999999099901MD1999999+0061REMSYN082AAXX  26004 82678 32992 01403 10314 20150 39990 40146 333 10371 29040 55109 58006;EQDQ01  00002PRCP99
0186826780999992001082612004-06760-043010FM-12+013899999V0201401N001512200019N0040001N1+03021+01691101771ADDAA199000091GF102991011021008001001011KA1240N+02421MA1999999100211MD1999999-0021REMSYN076AAXX  26124 82678 32596 21403 10302 20169 30021 40177 81201 333 20242 59002;EQDQ01  00002PRCP99
0167826780999992001082618004-06760-043010FM-12+013899999V0200901N001512200019N0040001N1+03701+01991101221ADDAA199000091GF103991021011008001001011MA1999999099681MD1999999-0041REMSYN070AAXX  26184 82678 32596 30903 10370 20199 39968 40122 82101 333 59004;EQDQ01  00002PRCP99
0208826780999992001082700004-06760-043010FM-12+013899999V0201401N001012200019N0020001N1+03161+01501101361ADDAA199000091GA1001+999999999GF100991001001999999001001KA1240M+03741MA1999999099841MD1999999-0091REMSYN082AAXX  27004 82678 32595 01402 10316 20150 39984 40136 333 10374 29038 55109 59009;EQDQ01  00002PRCP99
0186826780999992001082712004-06760-043010FM-12+013899999V0201401N004612200019N0040001N1+02961+01711101811ADDAA199000091GF101991011001017501031001KA1240N+02491MA1999999100251MD1999999+0041REMSYN076AAXX  27124 82678 32796 11409 10296 20171 30025 40181 81030 333 20249 58004;EQDQ01  00002PRCP99
0167826780999992001082718004-06760-043010FM-12+013899999V0201401N002612200019N0040001N1+03661+01671101231ADDAA199000091GF103991031011008001001001MA1999999099691MD1999999+0011REMSYN070AAXX  27184 82678 32596 31405 10366 20167 39969 40123 83100 333 58001;EQDQ01  00002PRCP99
0210826780999992001082800004-06760-043010FM-12+013899999V0200901N001012200019N0002001N1+03161+01511101381ADDAA199000091GA1051+000609019GF199999001001999999001001KA1240M+03711MA1999999099831REMSYN082AAXX  28004 82678 32992 00902 10316 20151 39983 40138 333 10371 29038 55075 85002;EQDQ01+000002SCOTCVQ02  00002PRCP99
0196826780999992001082812004-06760-043010FM-12+013899999V0200901N001512200019N0040001N1+03001+01751101771ADDAA199000091GA1001+999999999GF100991001001999999001001KA1240N+02501MA1999999100211MD1999999-0041REMSYN070AAXX  28124 82678 32996 00903 10300 20175 30021 40177 333 20250 59004;EQDQ01  00002PRCP99
0167826780999992001082818004-06760-043010FM-12+013899999V0200901N000512200019N0040001N1+03701+01651101251ADDAA199000091GF103991031021008001001001MA1999999099711MD1999999+0021REMSYN070AAXX  28184 82678 32596 30901 10370 20165 39971 40125 83200 333 58002;EQDQ01  00002PRCP99
0198826780999992001082900004-06760-043010FM-12+013899999V0209999C000010075019N0002001N1+02941+01661101361ADDAA199000091GF106991061021008001001001KA1240M+03831MA1999999099801MD1999999-0031REMSYN088AAXX  29004 82678 32592 60000 10294 20166 39980 40136 86200 333 10383 29042 55109 59003;EQDQ01  00002PRCP99
0186826780999992001082912004-06760-043010FM-12+013899999V0201401N004112200019N0040001N1+03071+01801101701ADDAA199000091GF104991011011008001031001KA1240N+02801MA1999999100141MD1999999-0071REMSYN076AAXX  29124 82678 32596 41408 10307 20180 30014 40170 81130 333 20280 59007;EQDQ01  00002PRCP99
0167826780999992001082918004-06760-043010FM-12+013899999V0200901N002610075019N0040001N1+03641+01851101131ADDAA199000091GF106991061021008001001001MA1999999099601MD1999999-0111REMSYN070AAXX  29184 82678 32596 60905 10364 20185 39960 40113 86200 333 59011;EQDQ01  00002PRCP99
0214826780999992001083000004-06760-043010FM-12+013899999V0209999C000019999999N0002001N1+03281+01741101431ADDAA199000091GF105991999021008001001001KA1240M+03741MA1999999099881MD1999999+0081REMSYN088AAXX  30004 82678 32592 50000 10328 20174 39988 40143 84200 333 10374 29040 55102 58008;EQDQ01+000042SCOTLCQ02  00002PRCP99
0186826780999992001083012004-06760-043010FM-12+013899999V0201401N003612200019N0040001N1+02981+01891101791ADDAA199000091GF103991021011008001001011KA1240N+02661MA1999999100241MD1999999+0101REMSYN076AAXX  30124 82678 32596 31407 10298 20189 30024 40179 82101 333 20266 58010;EQDQ01  00002PRCP99
0167826780999992001083018004-06760-043010FM-12+013899999V0201401N005112200019N0040001N1+03071+01711101171ADDAA199000091GF103991031011008001001001MA1999999099641MD1999999+0041REMSYN070AAXX  30184 82678 32596 31410 10307 20171 39964 40117 83100 333 58004;EQDQ01  00002PRCP99
0208826780999992001083100004-06760-043010FM-12+013899999V0201401N003112200019N0005001N1+03121+01441101391ADDAA199000091GA1001+999999999GF100991001001999999001001KA1240M+03781MA1999999099841MD1999999-0041REMSYN082AAXX  31004 82678 32993 01406 10312 20144 39984 40139 333 10378 29039 55107 59004;EQDQ01  00002PRCP99
0186826780999992001083112004-06760-043010FM-12+013899999V0201401N003112200019N0040001N1+02901+01841101781ADDAA199000091GF102991021011008001001001KA1240N+02581MA1999999100221MD1999999-0021REMSYN076AAXX  31124 82678 32596 21406 10290 20184 30022 40178 82100 333 20258 59002;EQDQ01  00002PRCP99
0167826780999992001083118004-06760-043010FM-12+013899999V0200901N002610075019N0040001N1+03721+01721101151ADDAA199000091GF105991051021008001001001MA1999999099611MD1999999-0031REMSYN070AAXX  31184 82678 32596 50905 10372 20172 39961 40115 85200 333 59003;EQDQ01  00002PRCP99
0208826780999992001090100004-06760-043010FM-12+013899999V0201401N002612200019N0002001N1+03221+01651101331ADDAA199000091GA1001+999999999GF100991001001999999001001KA1240M+03801MA1999999099781MD1999999-0061REMSYN082AAXX  01004 82678 32992 01405 10322 20165 39978 40133 333 10380 29040 55108 59006;EQDQ01  00002PRCP99
0202826780999992001090112004-06760-043010FM-12+013899999V0201401N003612200019N0040001N1+02841+01791101811ADDAA199000091GF102991999021008001001001KA1240N+02481MA1999999100251MD1999999+0031REMSYN076AAXX  01124 82678 32596 21407 10284 20179 30025 40181 83200 333 20248 58003;EQDQ01+000032SCOTLCQ02  00002PRCP99
0183826780999992001090118004-06760-043010FM-12+013899999V0201401N001512200019N0040001N1+03521+01701101221ADDAA199000091GF104991999021008001001001MA1999999099671MD1999999+0061REMSYN070AAXX  01184 82678 32596 41403 10352 20170 39967 40122 83200 333 58006;EQDQ01+000032SCOTLCQ02  00002PRCP99
0208826780999992001090200004-06760-043010FM-12+013899999V0201401N001512200019N0002001N1+03121+01751101331ADDAA199000091GA1001+999999999GF100991001001999999001001KA1240M+03821MA1999999099771MD1999999-0011REMSYN082AAXX  02004 82678 32592 01403 10312 20175 39977 40133 333 10382 29044 55108 59001;EQDQ01  00002PRCP99
0180826780999992001090212004-06760-043010FM-12+013899999V0200901N003612200019N0040001N1+02981+01791101661ADDAA199000091GF101991999999999999999999KA1240N+02561MA1999999100101MD1999999-0151REMSYN070AAXX  02124 82678 32996 10907 10298 20179 30010 40166 333 20256 59015;EQDQ01  00002PRCP99
0167826780999992001090218004-06760-043010FM-12+013899999V0201401N001512200019N0040001N1+03661+01571101091ADDAA199000091GF106991041021008001001011MA1999999099551MD1999999-0121REMSYN070AAXX  02184 82678 32596 61403 10366 20157 39955 40109 84201 333 59012;EQDQ01  00002PRCP99
0208826780999992001090300004-06760-043010FM-12+013899999V0201401N002112200019N0002001N1+03141+01451101231ADDAA199000091GA1001+999999999GF100991001001999999001001KA1240M+03751MA1999999099681MD1999999-0091REMSYN082AAXX  03004 82678 32992 01404 10314 20145 39968 40123 333 10375 29038 55108 59009;EQDQ01  00002PRCP99
0196826780999992001090312004-06760-043010FM-12+013899999V0201401N003112200019N0040001N1+02881+01731101631ADDAA199000091GA1001+999999999GF100991001001999999001001KA1240N+02561MA1999999100071MD1999999-0031REMSYN070AAXX  03124 82678 32996 01406 10288 20173 30007 40163 333 20256 59003;EQDQ01  00002PRCP99
0167826780999992001090318004-06760-043010FM-12+013899999V0201401N001510075019N0040001N1+02601+01811101201ADDAA199000091GF106991051021008001001011MA1999999099661MD1999999+0111REMSYN070AAXX  03184 82678 32596 61403 10260 20181 39966 40120 85201 333 58011;EQDQ01  00002PRCP99
0198826780999992001090400004-06760-043010FM-12+013899999V0201401N001510075019N0002001N1+03241+01671101281ADDAA199000091GF105991051011008001001001KA1240M+03681MA1999999099731MD1999999+0051REMSYN088AAXX  04004 82678 32592 51403 10324 20167 39973 40128 85100 333 10368 29041 55103 58005;EQDQ01  00002PRCP99
0186826780999992001090412004-06760-043010FM-12+013899999V0201401N003112200019N0040001N1+03001+01941101671ADDAA199000091GF103991021011008001001011KA1240N+02641MA1999999100111MD1999999+0041REMSYN076AAXX  04124 82678 32596 31406 10300 20194 30011 40167 82101 333 20264 58004;EQDQ01  00002PRCP99
0167826780999992001090418004-06760-043010FM-12+013899999V0200901N001512200019N0040001N1+03621+01781101081ADDAA199000091GF104991031021008001001011MA1999999099551MD1999999-0111REMSYN070AAXX  04184 82678 32596 40903 10362 20178 39955 40108 83201 333 59011;EQDQ01  00002PRCP99
0208826780999992001090500004-06760-043010FM-12+013899999V0201401N001512200019N0002001N1+03201+01671101281ADDAA199000091GA1001+999999999GF100991001001999999001001KA1240M+03741MA1999999099731MD1999999+0001REMSYN082AAXX  05004 82678 32992 01403 10320 20167 39973 40128 333 10374 29042 55108 58000;EQDQ01  00002PRCP99
0196826780999992001090512004-06760-043010FM-12+013899999V0200901N004112200019N0002001N1+03011+01941101641ADDAA199000091GA1001+999999999GF100991001001999999001001KA1240N+02611MA1999999100081MD1999999-0031REMSYN070AAXX  05124 82678 32992 00908 10301 20194 30008 40164 333 20261 59003;EQDQ01  00002PRCP99
0167826780999992001090518004-06760-043010FM-12+013899999V0201401N003110075019N0040001N1+03771+01651101051ADDAA199000091GF105991051021008001001001MA1999999099521MD1999999-0031REMSYN070AAXX  05184 82678 32596 51406 10377 20165 39952 40105 85200 333 59003;EQDQ01  00002PRCP99
0198826780999992001090600004-06760-043010FM-12+013899999V0201401N002110075019N0040001N1+03311+01591101221ADDAA199000091GF106991061021008001001001KA1240M+03851MA1999999099671MD1999999-0061REMSYN088AAXX  06004 82678 32596 61404 10331 20159 39967 40122 86200 333 10385 29035 55109 59006;EQDQ01  00002PRCP99
0186826780999992001090612004-06760-043010FM-12+013899999V0201401N004112200019N0040001N1+03041+01681101561ADDAA199000091GF103991011011008001031001KA1240N+02761MA1999999100011MD1999999-0071REMSYN076AAXX  06124 82678 32596 31408 10304 20168 30001 40156 81130 333 20276 59007;EQDQ01  00002PRCP99
0177826780999992001090618004-06760-043010FM-12+013899999V0200901N001512200019N0040001N1+03721+01621100951ADDAA199000091GA1001+999999999GF100991001001999999001001MA1999999099421MD1999999-0101REMSYN064AAXX  06184 82678 32996 00903 10372 20162 39942 40095 333 59010;EQDQ01  00002PRCP99
0208826780999992001090700004-06760-043010FM-12+013899999V0201401N001012200019N0002001N1+03241+01501101071ADDAA199000091GA1001+999999999GF100991001001999999001001KA1240M+03911MA1999999099031MD1999999-0141REMSYN082AAXX  07004 82678 32992 01402 10324 20150 39903 40107 333 10391 29036 55100 59014;EQDQ01  00002PRCP99
0196826780999992001090712004-06760-043010FM-12+013899999V0201401N001512200019N0040001N1+03101+01841101481ADDAA199000091GA1001+999999999GF100991001001999999001001KA1240N+02581MA1999999099931MD1999999-0081REMSYN070AAXX  07124 82678 32996 01403 10310 20184 39993 40148 333 20258 59008;EQDQ01  00002PRCP99
0167826780999992001090718004-06760-043010FM-12+013899999V0201801N001512200019N0040001N1+03661+01821100921ADDAA199000091GF104991031021008001001011MA1999999099381MD1999999-0041REMSYN070AAXX  07184 82678 32596 41803 10366 20182 39938 40092 83201 333 59004;EQDQ01  00002PRCP99
0208826780999992001090800004-06760-043010FM-12+013899999V0209999C000012200019N0002001N1+02961+01641101091ADDAA199000091GA1001+999999999GF100991001001999999001001KA1240M+03751MA1999999099541MD1999999+0011REMSYN082AAXX  08004 82678 32992 00000 10296 20164 39954 40109 333 10375 29043 55102 58001;EQDQ01  00002PRCP99
0180826780999992001090812004-06760-043010FM-12+013899999V0200901N002619999999N0040001N1+03181+01731101441ADDAA199000091GF105991999999999999999999KA1240N+02401MA1999999099881MD1999999-0051REMSYN070AAXX  08124 82678 32996 50905 10318 20173 39988 40144 333 20240 59005;EQDQ01  00002PRCP99
0167826780999992001090818004-06760-043010FM-12+013899999V0200901N001512200019N0040001N1+03701+01711100941ADDAA199000091GF106991041021008001001011MA1999999099391MD1999999+0011REMSYN070AAXX  08184 82678 32596 60903 10370 20171 39939 40094 84201 333 58001;EQDQ01  00002PRCP99
0208826780999992001090900004-06760-043010FM-12+013899999V0201401N002112200019N0002001N1+03191+01491101151ADDAA199000091GA1001+999999999GF100991001001999999001001KA1240M+03831MA1999999099611MD1999999+0071REMSYN082AAXX  09004 82678 32992 01404 10319 20149 39961 40115 333 10383 29036 55102 58007;EQDQ01  00002PRCP99
0180826780999992001090912004-06760-043010FM-12+013899999V0200901N004119999999N0040001N1+03241+01671101591ADDAA199000091GF108991999999999999999999KA1240N+02681MA1999999100041MD1999999+0161REMSYN070AAXX  09124 82678 32996 80908 10324 20167 30004 40159 333 20268 58016;EQDQ01  00002PRCP99
0183826780999992001090918004-06760-043010FM-12+013899999V0202701N000519999999N0040001N1+03721+01721101081ADDAA199000091GF106991999011008001001001MA1999999099551MD1999999+0161REMSYN070AAXX  09184 82678 32596 62701 10372 20172 39955 40108 83100 333 58016;EQDQ01+000032SCOTLCQ02  00002PRCP99
0208826780999992001091000004-06760-043010FM-12+013899999V0209999C000012200019N0002001N1+03061+01731101231ADDAA199000091GA1001+999999999GF100991001001999999001001KA1240M+03811MA1999999099681MD1999999+0071REMSYN082AAXX  10004 82678 32992 00000 10306 20173 39968 40123 333 10381 29040 55080 58007;EQDQ01  00002PRCP99
0186826780999992001091012004-06760-043010FM-12+013899999V0202701N001512200019N0040001N1+03081+01401101591ADDAA199000091GF106991031021008001001011KA1240N+02421MA1999999100031MD1999999-0011REMSYN076AAXX  10124 82678 32596 62703 10308 20140 30003 40159 83201 333 20242 59001;EQDQ01  00002PRCP99
0167826780999992001091018004-06760-043010FM-12+013899999V0203601N001011050019N0040001N1+03861+01791100951ADDAA199000091GF105991021021008001001021MA1999999099421MD1999999-0131REMSYN070AAXX  10184 82678 32596 53602 10386 20179 39942 40095 82202 333 59013;EQDQ01  00002PRCP99
0208826780999992001091100004-06760-043010FM-12+013899999V0201401N001512200019N0002001N1+03181+01871101231ADDAA199000091GA1001+999999999GF100991001001999999001001KA1240M+03921MA1999999099681MD1999999+0001REMSYN082AAXX  11004 82678 32992 01403 10318 20187 39968 40123 333 10392 29044 55098 58000;EQDQ01  00002PRCP99
0186826780999992001091112004-06760-043010FM-12+013899999V0200501N001512200019N0040001N1+03051+02121101561ADDAA199000091GF103991011011008001031011KA1240N+02481MA1999999100011MD1999999-0021REMSYN076AAXX  11124 82678 32596 30503 10305 20212 30001 40156 81131 333 20248 59002;EQDQ01  00002PRCP99
0167826780999992001091118004-06760-043010FM-12+013899999V0200501N001010075019N0040001N1+03801+01891100961ADDAA199000091GF106991051021008001001021MA1999999099431MD1999999+0011REMSYN070AAXX  11184 82678 32596 60502 10380 20189 39943 40096 85202 333 58001;EQDQ01  00002PRCP99
0208826780999992001091200004-06760-043010FM-12+013899999V0200501N001012200019N0002001N1+03071+01931101131ADDAA199000091GA1001+999999999GF100991001001999999001001KA1240M+03911MA1999999099581MD1999999-0101REMSYN082AAXX  12004 82678 32992 00502 10307 20193 39958 40113 333 10391 29048 55094 59010;EQDQ01  00002PRCP99
0186826780999992001091212004-06760-043010FM-12+013899999V0200501N003110075019N0040001N1+03001+02221101501ADDAA199000091GF106991061021008001001001KA1240N+02461MA1999999099941MD1999999-0071REMSYN076AAXX  12124 82678 32596 60506 10300 20222 39994 40150 86200 333 20246 59007;EQDQ01  00002PRCP99
0167826780999992001091218004-06760-043010FM-12+013899999V0203201N002110075019N0040001N1+03801+01941100911ADDAA199000091GF105991051021008001001001MA1999999099391MD1999999-0041REMSYN070AAXX  12184 82678 32596 53204 10380 20194 39939 40091 85200 333 59004;EQDQ01  00002PRCP99
0208826780999992001091300004-06760-043010FM-12+013899999V0202701N000512200019N0002001N1+03341+01911101061ADDAA199000091GA1001+999999999GF100991001001999999001001KA1240M+03911MA1999999099521MD1999999-0061REMSYN082AAXX  13004 82678 32992 02701 10334 20191 39952 40106 333 10391 29046 55100 59006;EQDQ01  00002PRCP99
0186826780999992001091312004-06760-043010FM-12+013899999V0200901N001510075019N0040001N1+03101+02031101661ADDAA199000091GF108991061021008001001021KA1240N+02631MA1999999100111MD1999999+0171REMSYN076AAXX  13124 82678 32596 80903 10310 20203 30011 40166 86202 333 20263 58017;EQDQ01  00002PRCP99
0167826780999992001091318004-06760-043010FM-12+013899999V0201401N001510075019N0040001N1+03721+01771101051ADDAA199000091GF108991051021008001001021MA1999999099511MD1999999+0121REMSYN070AAXX  13184 82678 32596 81403 10372 20177 39951 40105 85202 333 58012;EQDQ01  00002PRCP99
0208826780999992001091400004-06760-043010FM-12+013899999V0209999C000012200019N0020001N1+02981+01661101311ADDAA199000091GA1001+999999999GF100991001001999999001001KA1240M+03791MA1999999099761MD1999999+0241REMSYN082AAXX  14004 82678 32595 00000 10298 20166 39976 40131 333 10379 29044 55091 58024;EQDQ01  00002PRCP99
0186826780999992001091412004-06760-043010FM-12+013899999V0203201N000512200019N0040001N1+02901+02041101691ADDAA199000091GF104991021011008001001011KA1240N+02641MA1999999100121MD1999999+0011REMSYN076AAXX  14124 82678 32596 43201 10290 20204 30012 40169 82101 333 20264 58001;EQDQ01  00002PRCP99
0167826780999992001091418004-06760-043010FM-12+013899999V0203201N000512200019N0040001N1+03621+01831101061ADDAA199000091GF105991031011008001001011MA1999999099521MD1999999+0011REMSYN070AAXX  14184 82678 32596 53201 10362 20183 39952 40106 83101 333 58001;EQDQ01  00002PRCP99
0208826780999992001091500004-06760-043010FM-12+013899999V0209999C000012200019N0002001N1+03081+01821101151ADDAA199000091GA1001+999999999GF100991001001999999001001KA1240M+03711MA1999999099601MD1999999-0161REMSYN082AAXX  15004 82678 32992 00000 10308 20182 39960 40115 333 10371 29047 55099 59016;EQDQ01  00002PRCP99
0196826780999992001091512004-06760-043010FM-12+013899999V0203201N000512200019N0040001N1+02901+02171101571ADDAA199000091GA1001+999999999GF100991001001999999001001KA1240N+02561MA1999999100011MD1999999-0111REMSYN070AAXX  15124 82678 32996 03201 10290 20217 30001 40157 333 20256 59011;EQDQ01  00002PRCP99
0167826780999992001091518004-06760-043010FM-12+013899999V0203601N000510075019N0040001N1+03781+01771100911ADDAA199000091GF105991051011008001001001MA1999999099381MD1999999-0141REMSYN070AAXX  15184 82678 32596 53601 10378 20177 39938 40091 85100 333 59014;EQDQ01  00002PRCP99
0208826780999992001091600004-06760-043010FM-12+013899999V0209999C000012200019N0002001N1+03141+01691101041ADDAA199000091GA1001+999999999GF100991001001999999001001KA1240M+03971MA1999999099491MD1999999-0111REMSYN082AAXX  16004 82678 32992 00000 10314 20169 39949 40104 333 10397 29045 55098 59011;EQDQ01  00002PRCP99
0186826780999992001091612004-06760-043010FM-12+013899999V0203601N001512200019N0040001N1+02941+02191101671ADDAA199000091GF103991011011008001001011KA1240N+02561MA1999999100111MD1999999+0101REMSYN076AAXX  16124 82678 32596 33603 10294 20219 30011 40167 81101 333 20256 58010;EQDQ01  00002PRCP99
0208826780999992001091700004-06760-043010FM-12+013899999V0202701N001012200019N0002001N1+03021+02021101221ADDAA199000091GA1001+999999999GF100991001001999999001001KA1240M+03941MA1999999099671MD1999999+0181REMSYN082AAXX  17004 82678 32992 02702 10302 20202 39967 40122 333 10394 29050 55097 58018;EQDQ01  00002PRCP99
0201826780999992001091712004-06760-043010FM-12+013899999V0209999C000010075019N0040001N1+02281+02091101861ADDAA124036191AY161061AY261061GF108991061051008001071999KA1240N+02001MA1999999100271MD1999999+0161MW1021REMSYN088AAXX  17124 82678 21596 80000 10228 20209 30027 40186 70266 8657/ 333 20200 58016 60364;
0167826780999992001091718004-06760-043010FM-12+013899999V0203601N002111050019N0040001N1+03111+02091101321ADDAA199000091GF105991011031008001031021MA1999999099761MD1999999+0391REMSYN070AAXX  17184 82678 32596 53604 10311 20209 39976 40132 81332 333 58039;EQDQ01  00002PRCP99
0198826780999992001091800004-06760-043010FM-12+013899999V0202701N000512200019N0002001N1+02621+02011101531ADDAA199000091GF102991021011017501001001KA1240M+03181MA1999999099931MD1999999+0261REMSYN088AAXX  18004 82678 32792 22701 10262 20201 39993 40153 82100 333 10318 29074 55040 58026;EQDQ01  00002PRCP99
0186826780999992001091812004-06760-043010FM-12+013899999V0209999C000010450019N0040001N1+02701+02131101781ADDAA199000091GF106991041051008001031001KA1240N+02241MA1999999100191MD1999999-0081REMSYN076AAXX  18124 82678 32596 60000 10270 20213 30019 40178 84530 333 20224 59008;EQDQ01  00002PRCP99
0167826780999992001091818004-06760-043010FM-12+013899999V0201401N002110075019N0040001N1+03011+02071101351ADDAA199000091GF108991061051008001021999MA1999999099771MD1999999+0011REMSYN070AAXX  18184 82678 32596 81404 10301 20207 39977 40135 8652/ 333 58001;EQDQ01  00002PRCP99
0198826780999992001091900004-06760-043010FM-12+013899999V0209999C000010075019N0002001N1+02681+02021101411ADDAA199000091GF108991061051008001021999KA1240M+03111MA1999999099831MD1999999-0101REMSYN088AAXX  19004 82678 32592 80000 10268 20202 39983 40141 8652/ 333 10311 29045 55066 59010;EQDQ01  00002PRCP99
0186826780999992001091912004-06760-043010FM-12+013899999V0201401N006210075019N0040001N1+02771+01941101741ADDAA199000091GF106991051021008001011001KA1240N+02441MA1999999100161MD1999999-0031REMSYN076AAXX  19124 82678 32596 61412 10277 20194 30016 40174 85210 333 20244 59003;EQDQ01  00002PRCP99
0167826780999992001091918004-06760-043010FM-12+013899999V0201401N002610075019N0040001N1+03321+01851101251ADDAA199000091GF108991061021008001001021MA1999999099691MD1999999-0081REMSYN070AAXX  19184 82678 32596 81405 10332 20185 39969 40125 86202 333 59008;EQDQ01  00002PRCP99
0208826780999992001092000004-06760-043010FM-12+013899999V0201401N003112200019N0020001N1+02841+01731101401ADDAA199000091GA1001+999999999GF100991001001999999001001KA1240M+03421MA1999999099831MD1999999+0001REMSYN082AAXX  20004 82678 32995 01406 10284 20173 39983 40140 333 10342 29051 55093 58000;EQDQ01  00002PRCP99
0186826780999992001092012004-06760-043010FM-12+013899999V0201401N003112200019N0040001N1+02781+01911101661ADDAA199000091GF104991021011008001001011KA1240N+02401MA1999999100081MD1999999-0081REMSYN076AAXX  20124 82678 32596 41406 10278 20191 30008 40166 82101 333 20240 59008;EQDQ01  00002PRCP99
0167826780999992001092018004-06760-043010FM-12+013899999V0201401N003110075019N0040001N1+03501+01721101091ADDAA199000091GF105991051021008001001001MA1999999099541MD1999999-0151REMSYN070AAXX  20184 82678 32596 51406 10350 20172 39954 40109 85200 333 59015;EQDQ01  00002PRCP99
0208826780999992001092100004-06760-043010FM-12+013899999V0201401N001012200019N0002001N1+03041+01711101271ADDAA199000091GA1001+999999999GF100991001001999999001001KA1240M+03591MA1999999099711MD1999999-0121REMSYN082AAXX  21004 82678 32992 01402 10304 20171 39971 40127 333 10359 29046 55105 59012;EQDQ01  00002PRCP99
0186826780999992001092112004-06760-043010FM-12+013899999V0201401N002612200019N0040001N1+02941+01881101631ADDAA199000091GF104991041011008001001001KA1240N+02501MA1999999100071MD1999999-0011REMSYN076AAXX  21124 82678 32596 41405 10294 20188 30007 40163 84100 333 20250 59001;EQDQ01  00002PRCP99
0167826780999992001092118004-06760-043010FM-12+013899999V0201401N002610075019N0040001N1+03701+01811101021ADDAA199000091GF105991051021008001001001MA1999999099481MD1999999-0061REMSYN070AAXX  21184 82678 32596 51405 10370 20181 39948 40102 85200 333 59006;EQDQ01  00002PRCP99
0208826780999992001092200004-06760-043010FM-12+013899999V0201401N002612200019N0010001N1+03181+01731101281ADDAA199000091GA1001+999999999GF100991001001999999001001KA1240M+03741MA1999999099731MD1999999+0021REMSYN082AAXX  22004 82678 32994 01405 10318 20173 39973 40128 333 10374 29042 55108 58002;EQDQ01  00002PRCP99
0186826780999992001092212004-06760-043010FM-12+013899999V0201401N003611050019N0040001N1+02901+01841101751ADDAA199000091GF105991031021008001001021KA1240N+02601MA1999999100191MD1999999+0121REMSYN076AAXX  22124 82678 32596 51407 10290 20184 30019 40175 83202 333 20260 58012;EQDQ01  00002PRCP99
0167826780999992001092218004-06760-043010FM-12+013899999V0201401N001511050019N0040001N1+03521+01871101131ADDAA199000091GF105991041021008001001021MA1999999099581MD1999999+0101REMSYN070AAXX  22184 82678 32596 51403 10352 20187 39958 40113 84202 333 58010;EQDQ01  00002PRCP99
0208826780999992001092300004-06760-043010FM-12+013899999V0209999C000012200019N0002001N1+03061+01931101311ADDAA199000091GA1001+999999999GF100991001001999999001001KA1240M+03641MA1999999099751MD1999999+0021REMSYN082AAXX  23004 82678 32992 00000 10306 20193 39975 40131 333 10364 29048 55095 58002;EQDQ01  00002PRCP99
0196826780999992001092312004-06760-043010FM-12+013899999V0201401N004112200019N0040001N1+02971+01841101561ADDAA199000091GA1001+999999999GF100991001001999999001001KA1240N+02561MA1999999100001MD1999999-0191REMSYN070AAXX  23124 82678 32996 01408 10297 20184 30000 40156 333 20256 59019;EQDQ01  00002PRCP99
0167826780999992001092318004-06760-043010FM-12+013899999V0201401N002612200019N0040001N1+03691+01791100931ADDAA199000091GF104991041021008001001001MA1999999099401MD1999999-0181REMSYN070AAXX  23184 82678 32596 41405 10369 20179 39940 40093 84200 333 59018;EQDQ01  00002PRCP99
0208826780999992001092400004-06760-043010FM-12+013899999V0200901N001012200019N0002001N1+03031+01731101171ADDAA199000091GA1001+999999999GF100991001001999999001001KA1240M+03751MA1999999099621MD1999999-0131REMSYN082AAXX  24004 82678 32992 00902 10303 20173 39962 40117 333 10375 29044 55110 59013;EQDQ01  00002PRCP99
0180826780999992001092412004-06760-043010FM-12+013899999V0200901N001512200019N0040001N1+03021+01661101571ADDAA199000091GF103991999999999999999999KA1240N+02601MA1999999100011MD1999999+0011REMSYN070AAXX  24124 82678 32996 30903 10302 20166 30001 40157 333 20260 58001;EQDQ01  00002PRCP99
0161826780999992001092418004-06760-043010FM-12+013899999V0201401N000512200019N0040001N1+03701+01601101001ADDAA199000091GF102991999999999999999999MA1999999099471MD1999999+0071REMSYN064AAXX  24184 82678 32996 21401 10370 20160 39947 40100 333 58007;EQDQ01  00002PRCP99
0208826780999992001092500004-06760-043010FM-12+013899999V0209999C000012200019N0002001N1+03001+01641101131ADDAA199000091GA1001+999999999GF100991001001999999001001KA1240M+03811MA1999999099581MD1999999-0041REMSYN082AAXX  25004 82678 32992 00000 10300 20164 39958 40113 333 10381 29040 55104 59004;EQDQ01  00002PRCP99
0196826780999992001092512004-06760-043010FM-12+013899999V0201401N001512200019N0040001N1+03061+01801101631ADDAA199000091GA1001+999999999GF100991001001999999001001KA1240N+02521MA1999999100071MD1999999+0061REMSYN070AAXX  25124 82678 32996 01403 10306 20180 30007 40163 333 20252 58006;EQDQ01  00002PRCP99
0167826780999992001092518004-06760-043010FM-12+013899999V0200901N001512200019N0040001N1+03721+01721100951ADDAA199000091GF102991021001008001001021MA1999999099421MD1999999+0051REMSYN070AAXX  25184 82678 32596 20903 10372 20172 39942 40095 82002 333 58005;EQDQ01  00002PRCP99
0208826780999992001092600004-06760-043010FM-12+013899999V0209999C000012200019N0002001N1+02971+01741101251ADDAA199000091GA1001+999999999GF100991001001999999001001KA1240M+03801MA1999999099691MD1999999+0111REMSYN082AAXX  26004 82678 32992 00000 10297 20174 39969 40125 333 10380 29044 55111 58011;EQDQ01  00002PRCP99
0186826780999992001092612004-06760-043010FM-12+013899999V0200501N003612200019N0040001N1+03161+01921101591ADDAA199000091GF102991021021008001001001KA1240N+02581MA1999999100031MD1999999-0041REMSYN076AAXX  26124 82678 32596 20507 10316 20192 30003 40159 82200 333 20258 59004;EQDQ01  00002PRCP99
0167826780999992001092618004-06760-043010FM-12+013899999V0200901N003112200019N0040001N1+03761+01711100961ADDAA199000091GF103991031011008001001001MA1999999099431MD1999999+0011REMSYN070AAXX  26184 82678 32596 30906 10376 20171 39943 40096 83100 333 58001;EQDQ01  00002PRCP99
0208826780999992001092700004-06760-043010FM-12+013899999V0201401N000512200019N0002001N1+03241+01711101031ADDAA199000091GA1001+999999999GF100991001001999999001001KA1240M+03811MA1999999099491MD1999999-0201REMSYN082AAXX  27004 82678 32992 01401 10324 20171 39949 40103 333 10381 29040 55110 59020;EQDQ01  00002PRCP99
0196826780999992001092712004-06760-043010FM-12+013899999V0200901N002612200019N0040001N1+03181+01771101461ADDAA199000091GA1001+999999999GF100991001001999999001001KA1240N+02521MA1999999099911MD1999999-0121REMSYN070AAXX  27124 82678 32996 00905 10318 20177 39991 40146 333 20252 59012;EQDQ01  00002PRCP99
0167826780999992001092718004-06760-043010FM-12+013899999V0202301N002612200019N0040001N1+03861+01741100881ADDAA199000091GF102991021011008001001001MA1999999099351MD1999999-0081REMSYN070AAXX  27184 82678 32596 22305 10386 20174 39935 40088 82100 333 59008;EQDQ01  00002PRCP99
0208826780999992001092800004-06760-043010FM-12+013899999V0209999C000012200019N0002001N1+03101+01701101091ADDAA199000091GA1001+999999999GF100991001001999999001001KA1240M+03911MA1999999099551MD1999999+0061REMSYN082AAXX  28004 82678 32992 00000 10310 20170 39955 40109 333 10391 29040 55110 58006;EQDQ01  00002PRCP99
0186826780999992001092812004-06760-043010FM-12+013899999V0201401N001512200019N0040001N1+03001+02111101561ADDAA199000091GF104991031021008001001011KA1240N+02381MA1999999100001MD1999999+0091REMSYN076AAXX  28124 82678 32596 41403 10300 20211 30000 40156 83201 333 20238 58009;EQDQ01  00002PRCP99
0167826780999992001092818004-06760-043010FM-12+013899999V0201401N001012200019N0040001N1+03701+01851101011ADDAA199000091GF104991031021008001001021MA1999999099461MD1999999+0111REMSYN070AAXX  28184 82678 32596 41402 10370 20185 39946 40101 83202 333 58011;EQDQ01  00002PRCP99
0198826780999992001092900004-06760-043010FM-12+013899999V0209999C000012200019N0002001N1+02941+01881101181ADDAA199000091GF103991031021008001001001KA1240M+03741MA1999999099621MD1999999+0071REMSYN088AAXX  29004 82678 32592 30000 10294 20188 39962 40118 83200 333 10374 29050 55103 58007;EQDQ01  00002PRCP99
0186826780999992001092912004-06760-043010FM-12+013899999V0200501N001510075019N0040001N1+03061+02021101701ADDAA199000091GF105991051021008001001001KA1240N+02621MA1999999100141MD1999999+0141REMSYN076AAXX  29124 82678 32596 50503 10306 20202 30014 40170 85200 333 20262 58014;EQDQ01  00002PRCP99
0167826780999992001092918004-06760-043010FM-12+013899999V0200501N002610075019N0040001N1+03581+01791101151ADDAA199000091GF106991051021008001001011MA1999999099621MD1999999+0161REMSYN070AAXX  29184 82678 32596 60505 10358 20179 39962 40115 85201 333 58016;EQDQ01  00002PRCP99
0192826780999992001093000004-06760-043010FM-12+013899999V0201401N002112200019N0002001N1+03211+01631101341ADDAA199000091GF103991999999999999999999KA1240M+03711MA1999999099791MD1999999+0171REMSYN082AAXX  30004 82678 32992 31404 10321 20163 39979 40134 333 10371 29042 55105 58017;EQDQ01  00002PRCP99
0186826780999992001093012004-06760-043010FM-12+013899999V0200901N002612200019N0040001N1+03201+01711101651ADDAA199000091GF103991011011008001001011KA1240N+02501MA1999999100101MD1999999-0041REMSYN076AAXX  30124 82678 32596 30905 10320 20171 30010 40165 81101 333 20250 59004;EQDQ01  00002PRCP99
0167826780999992001093018004-06760-043010FM-12+013899999V0200901N003112200019N0040001N1+03721+01621101111ADDAA199000091GF104991041021008001001001MA1999999099571MD1999999-0051REMSYN070AAXX  30184 82678 32596 40906 10372 20162 39957 40111 84200 333 59005;EQDQ01  00002PRCP99
0208826780999992001100100004-06760-043010FM-12+013899999V0200901N001012200019N0002001N1+03201+01321101311ADDAA199000091GA1001+999999999GF100991001001999999001001KA1240M+03791MA1999999099771MD1999999-0021REMSYN082AAXX  01004 82678 32992 00902 10320 20132 39977 40131 333 10379 29034 55106 59002;EQDQ01  00002PRCP99
0186826780999992001100112004-06760-043010FM-12+013899999V0200901N001512200019N0040001N1+03201+01781101651ADDAA199000091GF103991031001008001001011KA1240N+02541MA1999999100101MD1999999+0001REMSYN076AAXX  01124 82678 32596 30903 10320 20178 30010 40165 83001 333 20254 58000;EQDQ01  00002PRCP99
0167826780999992001100118004-06760-043010FM-12+013899999V0201401N001512200019N0040001N1+03841+01611101011ADDAA199000091GF105991041021008001001011MA1999999099481MD1999999-0091REMSYN070AAXX  01184 82678 32596 51403 10384 20161 39948 40101 84201 333 59009;EQDQ01  00002PRCP99
0192826780999992001100200004-06760-043010FM-12+013899999V0209999C000012200019N0002001N1+03221+01481101261ADDAA199000091GF103991999999999999999999KA1240M+03931MA1999999099721MD1999999-0051REMSYN082AAXX  02004 82678 32992 30000 10322 20148 39972 40126 333 10393 29035 55109 59005;EQDQ01  00002PRCP99
0196826780999992001100212004-06760-043010FM-12+013899999V0203601N003112200019N0040001N1+03121+02081101671ADDAA199000091GA1001+999999999GF100991001001999999001001KA1240N+02541MA1999999100121MD1999999+0021REMSYN070AAXX  02124 82678 32996 03606 10312 20208 30012 40167 333 20254 58002;EQDQ01  00002PRCP99
0167826780999992001100218004-06760-043010FM-12+013899999V0202301N001512200019N0040001N1+03901+01601101051ADDAA199000091GF104991041021008001001001MA1999999099521MD1999999+0041REMSYN070AAXX  02184 82678 32596 42303 10390 20160 39952 40105 84200 333 58004;EQDQ01  00002PRCP99
0198826780999992001100300004-06760-043010FM-12+013899999V0200901N000511050019N0002001N1+03021+01391101341ADDAA199000091GF108991041001017501031021KA1240M+03971MA1999999099791MD1999999+0071REMSYN088AAXX  03004 82678 32792 80901 10302 20139 39979 40134 84032 333 10397 29038 55109 58007;EQDQ01  00002PRCP99
0186826780999992001100312004-06760-043010FM-12+013899999V0203601N001512200019N0040001N1+03101+02001101811ADDAA199000091GF101991011021008001001001KA1240N+02381MA1999999100251MD1999999+0131REMSYN076AAXX  03124 82678 32596 13603 10310 20200 30025 40181 81200 333 20238 58013;EQDQ01  00002PRCP99
0167826780999992001100318004-06760-043010FM-12+013899999V0201801N000512200019N0040001N1+03821+01761101291ADDAA199000091GF104991041021008001001001MA1999999099741MD1999999+0221REMSYN070AAXX  03184 82678 32596 41801 10382 20176 39974 40129 84200 333 58022;EQDQ01  00002PRCP99
0208826780999992001100400004-06760-043010FM-12+013899999V0209999C000012200019N0002001N1+03021+01591101321ADDAA199000091GA1001+999999999GF100991001001999999001001KA1240M+03971MA1999999099771MD1999999-0021REMSYN082AAXX  04004 82678 32992 00000 10302 20159 39977 40132 333 10397 29042 55107 59002;EQDQ01  00002PRCP99
0186826780999992001100412004-06760-043010FM-12+013899999V0200901N001512200019N0040001N1+03081+01981101581ADDAA199000091GF103991031001008001001011KA1240N+02181MA1999999100031MD1999999-0221REMSYN076AAXX  04124 82678 32596 30903 10308 20198 30003 40158 83001 333 20218 59022;EQDQ01  00002PRCP99
0167826780999992001100418004-06760-043010FM-12+013899999V0201401N001511050019N0040001N1+03921+01681101011ADDAA199000091GF105991041021008001001021MA1999999099471MD1999999-0271REMSYN070AAXX  04184 82678 32596 51403 10392 20168 39947 40101 84202 333 59027;EQDQ01  00002PRCP99
0208826780999992001100500004-06760-043010FM-12+013899999V0209999C000012200019N0002001N1+02961+01501101241ADDAA199000091GA1001+999999999GF100991001001999999001001KA1240M+04021MA1999999099681MD1999999-0091REMSYN082AAXX  05004 82678 32992 00000 10296 20150 39968 40124 333 10402 29040 55101 59009;EQDQ01  00002PRCP99
0180826780999992001100512004-06760-043010FM-12+013899999V0203201N002612200019N0040001N1+03041+02181101691ADDAA199000091GF103991999999999999999999KA1240N+02601MA1999999100131MD1999999+0101REMSYN070AAXX  05124 82678 32996 33205 10304 20218 30013 40169 333 20260 58010;EQDQ01  00002PRCP99
0167826780999992001100518004-06760-043010FM-12+013899999V0202301N001510075019N0040001N1+03841+01881101001ADDAA199000091GF105991051021008001001001MA1999999099471MD1999999+0001REMSYN070AAXX  05184 82678 32596 52303 10384 20188 39947 40100 85200 333 58000;EQDQ01  00002PRCP99
0198826780999992001100600004-06760-043010FM-12+013899999V0209999C000010075019N0040001N1+03281+01961101071ADDAA199000091GF108991081041008001999999KA1240M+03961MA1999999099531MD1999999-0151REMSYN088AAXX  06004 82678 32596 80000 10328 20196 39953 40107 884// 333 10396 29046 55103 59015;EQDQ01  00002PRCP99
0196826780999992001100612004-06760-043010FM-12+013899999V0203201N003112200019N0040001N1+02941+02111101671ADDAA199000091GA1001+999999999GF100991001001999999001001KA1240N+02641MA1999999100111MD1999999-0021REMSYN070AAXX  06124 82678 32996 03206 10294 20211 30011 40167 333 20264 59002;EQDQ01  00002PRCP99
0167826780999992001100618004-06760-043010FM-12+013899999V0203201N001510075019N0040001N1+02701+02161101081ADDAA199000091GF108991061021008001001011MA1999999099551MD1999999+0081REMSYN070AAXX  06184 82678 32596 83203 10270 20216 39955 40108 86201 333 58008;EQDQ01  00002PRCP99
0202826780999992001100712004-06760-043010FM-12+013899999V0203601N001510075019N0040001N1+02881+02181101561ADDAA199000091GF108991999021008001001001KA1240N+02541MA1999999100001MD1999999-0111REMSYN076AAXX  07124 82678 32596 83603 10288 20218 30000 40156 86200 333 20254 59011;EQDQ01+000062SCOTLCQ02  00002PRCP99
0167826780999992001100718004-06760-043010FM-12+013899999V0202701N001010075019N0040001N1+03561+02111101021ADDAA199000091GF107991051051008001041001MA1999999099481MD1999999-0071REMSYN070AAXX  07184 82678 32596 72702 10356 20211 39948 40102 85540 333 59007;EQDQ01  00002PRCP99
0198826780999992001100800004-06760-043010FM-12+013899999V0202301N001010075019N0002001N1+02761+02021101271ADDAA199000091GF108991081051008001999999KA1240M+03771MA1999999099701MD1999999+0111REMSYN088AAXX  08004 82678 32592 82302 10276 20202 39970 40127 885// 333 10377 29059 55055 58011;EQDQ01  00002PRCP99
0186826780999992001100812004-06760-043010FM-12+013899999V0200501N001510075019N0040001N1+02861+02191101591ADDAA199000091GF108991061021008001001011KA1240N+02451MA1999999100021MD1999999+0021REMSYN076AAXX  08124 82678 32596 80503 10286 20219 30002 40159 86201 333 20245 58002;EQDQ01  00002PRCP99
0167826780999992001100818004-06760-043010FM-12+013899999V0201801N002110075019N0040001N1+03581+02011100961ADDAA199000091GF105991051021008001001001MA1999999099421MD1999999-0061REMSYN070AAXX  08184 82678 32596 51804 10358 20201 39942 40096 85200 333 59006;EQDQ01  00002PRCP99
0208826780999992001100900004-06760-043010FM-12+013899999V0209999C000012200019N0002001N1+03041+01941101131ADDAA199000091GA1001+999999999GF100991001001999999001001KA1240M+03711MA1999999099571MD1999999-0131REMSYN082AAXX  09004 82678 32992 00000 10304 20194 39957 40113 333 10371 29053 55087 59013;EQDQ01  00002PRCP99
0186826780999992001100912004-06760-043010FM-12+013899999V0203601N000511050019N0040001N1+02961+02261101481ADDAA199000091GF106991031021008001001021KA1240N+02621MA1999999099911MD1999999-0111REMSYN076AAXX  09124 82678 32596 63601 10296 20226 39991 40148 83202 333 20262 59011;EQDQ01  00002PRCP99
0167826780999992001100918004-06760-043010FM-12+013899999V0202701N001510075019N0040001N1+03741+01841100841ADDAA199000091GF106991051021008001001011MA1999999099311MD1999999-0111REMSYN070AAXX  09184 82678 32596 62703 10374 20184 39931 40084 85201 333 59011;EQDQ01  00002PRCP99
0208826780999992001101000004-06760-043010FM-12+013899999V0201801N000512200019N0002001N1+03121+01921101041ADDAA199000091GA1001+999999999GF100991001001999999001001KA1240M+03781MA1999999099491MD1999999-0081REMSYN082AAXX  10004 82678 32992 01801 10312 20192 39949 40104 333 10378 29049 55106 59008;EQDQ01  00002PRCP99
0186826780999992001101012004-06760-043010FM-12+013899999V0203601N001510075019N0040001N1+02801+02181101581ADDAA199000091GF108991061021008001001011KA1240N+02561MA1999999100011MD1999999+0101REMSYN076AAXX  10124 82678 32596 83603 10280 20218 30001 40158 86201 333 20256 58010;EQDQ01  00002PRCP99
0167826780999992001101018004-06760-043010FM-12+013899999V0209999C000010075019N0040001N1+03521+02111101031ADDAA199000091GF108991051021008001001021MA1999999099491MD1999999+0181REMSYN070AAXX  10184 82678 32596 80000 10352 20211 39949 40103 85202 333 58018;EQDQ01  00002PRCP99
0208826780999992001101100004-06760-043010FM-12+013899999V0201401N001512200019N0002001N1+03041+02091101141ADDAA199000091GA1001+999999999GF100991001001999999001001KA1240M+03631MA1999999099581MD1999999+0091REMSYN082AAXX  11004 82678 32992 01403 10304 20209 39958 40114 333 10363 29057 55058 58009;EQDQ01  00002PRCP99
0202826780999992001101112004-06760-043010FM-12+013899999V0200501N003110075019N0040001N1+03071+02251101511ADDAA199000091GF106991999021008001001001KA1240N+02721MA1999999099951MD1999999-0061REMSYN076AAXX  11124 82678 32596 60506 10307 20225 39995 40151 85200 333 20272 59006;EQDQ01+000052SCOTLCQ02  00002PRCP99
0167826780999992001101118004-06760-043010FM-12+013899999V0201401N001510075019N0040001N1+03641+01851100961ADDAA199000091GF108991051021008001001011MA1999999099421MD1999999-0071REMSYN070AAXX  11184 82678 32596 81403 10364 20185 39942 40096 85201 333 59007;EQDQ01  00002PRCP99
0208826780999992001101200004-06760-043010FM-12+013899999V0201801N001012200019N0002001N1+02981+01861101101ADDAA199000091GA1001+999999999GF100991001001999999001001KA1240M+03771MA1999999099551MD1999999-0031REMSYN082AAXX  12004 82678 32992 01802 10298 20186 39955 40110 333 10377 29050 55092 59003;EQDQ01  00002PRCP99
0186826780999992001101212004-06760-043010FM-12+013899999V0203601N000510075019N0040001N1+02861+02191101591ADDAA199000091GF108991071051008001061999KA1240N+02691MA1999999100021MD1999999+0071REMSYN076AAXX  12124 82678 32596 83601 10286 20219 30002 40159 8756/ 333 20269 58007;EQDQ01  00002PRCP99
0167826780999992001101218004-06760-043010FM-12+013899999V0200501N001510075019N0040001N1+03541+01851101061ADDAA199000091GF108991051021008001021011MA1999999099521MD1999999+0101REMSYN070AAXX  12184 82678 32596 80503 10354 20185 39952 40106 85221 333 58010;EQDQ01  00002PRCP99
0249826780999992001101300004-06760-043010FM-12+013899999V0209999C000012200019N0002001N1+02951+01941999999ADDAA199000091GA1001+999999999GF100991001001999999001001KA1240M+03611MA1999999999999MD1999999+0171ME1100289REMSYN082AAXX  13004 82678 32992 00000 10295 20194 39007 41028 333 10361 29054 55067 58017;EQDQ01+090073APOSP Q02  00002PRCP99Q03 090073APOSP 
0202826780999992001101312004-06760-043010FM-12+013899999V0200901N003112200019N0040001N1+03041+02031101651ADDAA199000091GF104991999011008001001001KA1240N+02681MA1999999100091MD1999999+0071REMSYN076AAXX  13124 82678 32596 40906 10304 20203 30009 40165 82100 333 20268 58007;EQDQ01+000022SCOTLCQ02  00002PRCP99
0183826780999992001101318004-06760-043010FM-12+013899999V0201401N001519999999N0040001N1+03581+02051101001ADDAA199000091GF105991999021008001001001MA1999999099471MD1999999-0051REMSYN070AAXX  13184 82678 32596 51403 10358 20205 39947 40100 84200 333 59005;EQDQ01+000042SCOTLCQ02  00002PRCP99
0198826780999992001101400004-06760-043010FM-12+013899999V0209999C000012200019N0002001N1+03021+02021101271ADDAA199000091GF103991031021008001001001KA1240M+03641MA1999999099721MD1999999+0001REMSYN088AAXX  14004 82678 32592 30000 10302 20202 39972 40127 83200 333 10364 29052 55073 58000;EQDQ01  00002PRCP99
0186826780999992001101412004-06760-043010FM-12+013899999V0200901N000510075019N0040001N1+03041+02031101571ADDAA199000091GF107991071051008001001001KA1240N+02701MA1999999100011MD1999999-0081REMSYN076AAXX  14124 82678 32596 70901 10304 20203 30001 40157 87500 333 20270 59008;EQDQ01  00002PRCP99
0167826780999992001101418004-06760-043010FM-12+013899999V0202701N001010075019N0040001N1+03681+02011101011ADDAA199000091GF107991051051008001001021MA1999999099471MD1999999+0001REMSYN070AAXX  14184 82678 32596 72702 10368 20201 39947 40101 85502 333 58000;EQDQ01  00002PRCP99
0198826780999992001101500004-06760-043010FM-12+013899999V0209999C000019999999N0002001N1+02981+02121101071ADDAA199000091GF105991051001008001001001KA1240M+03791MA1999999099521MD1999999-0201REMSYN088AAXX  15004 82678 32592 50000 10298 20212 39952 40107 85000 333 10379 29053 55077 59020;EQDQ01  00002PRCP99
0186826780999992001101512004-06760-043010FM-12+013899999V0200901N000510075019N0040001N1+02721+02151101491ADDAA199000091GF108991071051008001061999KA1240N+02501MA1999999099921MD1999999-0091REMSYN076AAXX  15124 82678 32596 80901 10272 20215 39992 40149 8756/ 333 20250 59009;EQDQ01  00002PRCP99
0167826780999992001101518004-06760-043010FM-12+013899999V0202301N000511050019N0040001N1+03521+02111101011ADDAA199000091GF106991041051008001001021MA1999999099461MD1999999-0011REMSYN070AAXX  15184 82678 32596 62301 10352 20211 39946 40101 84502 333 59001;EQDQ01  00002PRCP99
0208826780999992001101600004-06760-043010FM-12+013899999V0202301N000512200019N0002001N1+03021+02161101081ADDAA199000091GA1001+999999999GF100991001001999999001001KA1240M+03621MA1999999099521MD1999999+0001REMSYN082AAXX  16004 82678 32992 02301 10302 20216 39952 40108 333 10362 29059 55048 58000;EQDQ01  00002PRCP99
0201826780999992001101612004-06760-043010FM-12+013899999V0202301N001010450019N0040001N1+02401+02281101571ADDAA106014091AY161061AY221061GF108991041021008001031011KA1240N+02301MA1999999099991MD1999999+0071MW1021REMSYN088AAXX  16124 82678 21596 82302 10240 20228 39999 40157 70262 84231 333 20230 58007 60141;
0167826780999992001101618004-06760-043010FM-12+013899999V0202301N002110450019N0040001N1+02931+02241101101ADDAA199000091GF108991021031008001021999MA1999999099521MD1999999+0061REMSYN070AAXX  16184 82678 32596 82304 10293 20224 39952 40110 8232/ 333 58006;EQDQ01  00002PRCP99
0198826780999992001101700004-06760-043010FM-12+013899999V0209999C000012200019N0002001N1+02641+02311101251ADDAA199000091GF104991041011008001001001KA1240M+03031MA1999999099661MD1999999+0141REMSYN088AAXX  17004 82678 32592 40000 10264 20231 39966 40125 84100 333 10303 29081 55013 58014;EQDQ01  00002PRCP99
0186826780999992001101712004-06760-043010FM-12+013899999V0200901N003610075019N0040001N1+02991+02201101341ADDAA199000091GF105991051021008001001001KA1240N+02371MA1999999099771MD1999999-0221REMSYN076AAXX  17124 82678 32596 50907 10299 20220 39977 40134 85200 333 20237 59022;EQDQ01  00002PRCP99
0167826780999992001101718004-06760-043010FM-12+013899999V0200501N002610075019N0040001N1+03601+01811100801ADDAA199000091GF105991051021008001001001MA1999999099251MD1999999-0271REMSYN070AAXX  17184 82678 32596 50505 10360 20181 39925 40080 85200 333 59027;EQDQ01  00002PRCP99
0214826780999992001101800004-06760-043010FM-12+013899999V0200901N001519999999N0002001N1+03191+01981100941ADDAA199000091GF106991999011008001001001KA1240M+03771MA1999999099401MD1999999-0261REMSYN088AAXX  18004 82678 32592 60903 10319 20198 39940 40094 82100 333 10377 29049 55109 59026;EQDQ01+000022SCOTLCQ02  00002PRCP99
0186826780999992001101812004-06760-043010FM-12+013899999V0200501N003112200019N0040001N1+03101+02031101281ADDAA199000091GF102991021011008001001001KA1240N+02541MA1999999099731MD1999999-0041REMSYN076AAXX  18124 82678 32596 20506 10310 20203 39973 40128 82100 333 20254 59004;EQDQ01  00002PRCP99
0167826780999992001101818004-06760-043010FM-12+013899999V0203201N002112200019N0040001N1+03701+02031100741ADDAA199000091GF104991031021008001001011MA1999999099211MD1999999-0041REMSYN070AAXX  18184 82678 32596 43204 10370 20203 39921 40074 83201 333 59004;EQDQ01  00002PRCP99
0208826780999992001101900004-06760-043010FM-12+013899999V0209999C000012200019N0002001N1+03101+02291100811ADDAA199000091GA1001+999999999GF100991001001999999001001KA1240M+03711MA1999999099271MD1999999-0131REMSYN082AAXX  19004 82678 32992 00000 10310 20229 39927 40081 333 10371 29054 55110 59013;EQDQ01  00002PRCP99
0186826780999992001101912004-06760-043010FM-12+013899999V0203601N000510450019N0040001N1+02941+02111101301ADDAA199000091GF108991041051008001031021KA1240N+02711MA1999999099741MD1999999+0011REMSYN076AAXX  19124 82678 32596 83601 10294 20211 39974 40130 84532 333 20271 58001;EQDQ01  00002PRCP99
0167826780999992001101918004-06760-043010FM-12+013899999V0202701N001012200019N0040001N1+03741+01931100751ADDAA199000091GF105991031021008001001011MA1999999099221MD1999999+0011REMSYN070AAXX  19184 82678 32596 52702 10374 20193 39922 40075 83201 333 58001;EQDQ01  00002PRCP99
0208826780999992001102000004-06760-043010FM-12+013899999V0209999C000012200019N0002001N1+03101+02091100771ADDAA199000091GA1001+999999999GF100991001001999999001001KA1240M+03911MA1999999099221MD1999999-0051REMSYN082AAXX  20004 82678 32992 00000 10310 20209 39922 40077 333 10391 29052 55079 59005;EQDQ01  00002PRCP99
0186826780999992001102012004-06760-043010FM-12+013899999V0200501N001510150019N0040001N1+02981+02061101421ADDAA199000091GF108991051001017501021011KA1240N+02641MA1999999099861MD1999999+0121REMSYN076AAXX  20124 82678 32796 80503 10298 20206 39986 40142 85021 333 20264 58012;EQDQ01  00002PRCP99
0167826780999992001102018004-06760-043010FM-12+013899999V0202301N003110450019N0040001N1+03151+02181101081ADDAA199000091GF108991031041008001021021MA1999999099531MD1999999+0311REMSYN070AAXX  20184 82678 32596 82306 10315 20218 39953 40108 83422 333 58031;EQDQ01  00002PRCP99
0192826780999992001102100004-06760-043010FM-12+013899999V0202301N001012200019N0002001N1+02801+02151101271ADDAA199000091GF102991999999999999999999KA1240M+03381MA1999999099711MD1999999+0491REMSYN082AAXX  21004 82678 32992 22302 10280 20215 39971 40127 333 10338 29063 55027 58049;EQDQ01  00002PRCP99
0202826780999992001102112004-06760-043010FM-12+013899999V0209999C000019999999N0040001N1+03001+02221101381ADDAA199000091GF105991999021008001001001KA1240N+02421MA1999999099821MD1999999+0041REMSYN076AAXX  21124 82678 32596 50000 10300 20222 39982 40138 84200 333 20242 58004;EQDQ01+000042SCOTLCQ02  00002PRCP99
0167826780999992001102118004-06760-043010FM-12+013899999V0200901N000510075019N0040001N1+03701+02031100871ADDAA199000091GF105991051021008001001001MA1999999099311MD1999999-0221REMSYN070AAXX  21184 82678 32596 50901 10370 20203 39931 40087 85200 333 59022;EQDQ01  00002PRCP99
0208826780999992001102200004-06760-043010FM-12+013899999V0209999C000012200019N0002001N1+03041+02021100961ADDAA199000091GA1001+999999999GF100991001001999999001001KA1240M+03821MA1999999099421MD1999999-0301REMSYN082AAXX  22004 82678 32992 00000 10304 20202 39942 40096 333 10382 29051 55097 59030;EQDQ01  00002PRCP99
0186826780999992001102212004-06760-043010FM-12+013899999V0200501N001012200019N0040001N1+03141+02241101411ADDAA199000091GF104991031021008001001011KA1240N+02621MA1999999099861MD1999999+0041REMSYN076AAXX  22124 82678 32596 40502 10314 20224 39986 40141 83201 333 20262 58004;EQDQ01  00002PRCP99
0167826780999992001102218004-06760-043010FM-12+013899999V0200501N001511050019N0040001N1+03761+02081100781ADDAA199000091GF105991041021008001001021MA1999999099251MD1999999-0061REMSYN070AAXX  22184 82678 32596 50503 10376 20208 39925 40078 84202 333 59006;EQDQ01  00002PRCP99
0208826780999992001102300004-06760-043010FM-12+013899999V0209999C000012200019N0002001N1+03101+02181100891ADDAA199000091GA1001+999999999GF100991001001999999001001KA1240M+03841MA1999999099351MD1999999-0061REMSYN082AAXX  23004 82678 32992 00000 10310 20218 39935 40089 333 10384 29083 55098 59006;EQDQ01  00002PRCP99
0180826780999992001102312004-06760-043010FM-12+013899999V0203201N000512200019N0040001N1+02981+02171101271ADDAA199000091GF104991999999999999999999KA1240N+02561MA1999999099721MD1999999-0141REMSYN070AAXX  23124 82678 32996 43201 10298 20217 39972 40127 333 20256 59014;EQDQ01  00002PRCP99
0167826780999992001102318004-06760-043010FM-12+013899999V0203201N001011050019N0040001N1+03731+01961100801ADDAA199000091GF106991021031008001001021MA1999999099261MD1999999+0011REMSYN070AAXX  23184 82678 32596 63202 10373 20196 39926 40080 82302 333 58001;EQDQ01  00002PRCP99
0213826780999992001102400004-06760-043010FM-12+013899999V0201801N001010075019N0002001N1+02491+02051101241ADDAA106007991AY191061AY221061GF108991061041008001021999KA1240M+03831MA1999999099671MD1999999+0321MW1021REMSYN100AAXX  24004 82678 21592 81802 10249 20205 39967 40124 70292 8642/ 333 10383 29063 55085 58032 60081;
0173826780999992001102412004-06760-043010FM-12+013899999V0202701N001510120019N0040001N1+02891+02181101631ADDAA124007991GF108991071081008001001011KA1240N+02161MA1999999100051MD1999999+0331REMSYN082AAXX  24124 82678 22596 82703 10289 20218 30005 40163 87801 333 20216 58033 60084;
0167826780999992001102418004-06760-043010FM-12+013899999V0203601N002610450019N0040001N1+03651+02021100971ADDAA199000091GF108991041021008001011011MA1999999099421MD1999999+0161REMSYN070AAXX  24184 82678 32596 83605 10365 20202 39942 40097 84211 333 58016;EQDQ01  00002PRCP99
0198826780999992001102500004-06760-043010FM-12+013899999V0200501N001011050019N0002001N1+03081+02131101161ADDAA199000091GF106991031051008001001021KA1240M+03701MA1999999099611MD1999999-0061REMSYN088AAXX  25004 82678 32592 60502 10308 20213 39961 40116 83502 333 10370 29055 55076 59006;EQDQ01  00002PRCP99
0201826780999992001102512004-06760-043010FM-12+013899999V0200901N003610075019N0040001N1+03121+01991101651ADDAA124009991AY191061AY221061GF108991061021008001001011KA1240N+02381MA1999999100091MD1999999+0041MW1021REMSYN088AAXX  25124 82678 21596 80907 10312 20199 30009 40165 70292 86201 333 20238 58004 60104;
0167826780999992001102518004-06760-043010FM-12+013899999V0201401N002110450019N0040001N1+03641+01701101031ADDAA199000091GF108991041021008001031021MA1999999099481MD1999999+0061REMSYN070AAXX  25184 82678 32596 81404 10364 20170 39948 40103 84232 333 58006;EQDQ01  00002PRCP99
0214826780999992001102600004-06760-043010FM-12+013899999V0201401N001012200019N0040001N1+03121+01791101241ADDAA199000091GF104991999021008001001001KA1240M+03671MA1999999099691MD1999999+0081REMSYN088AAXX  26004 82678 32596 41402 10312 20179 39969 40124 86200 333 10367 29043 55087 58008;EQDQ01+000062SCOTLCQ02  00002PRCP99
0201826780999992001102612004-06760-043010FM-12+013899999V0202301N000510075019N0040001N1+02481+02341101671ADDAA124009991AY161061AY221061GF108991061051008001021999KA1240N+02281MA1999999100091MD1999999+0001MW1921REMSYN088AAXX  26124 82678 21596 82301 10248 20234 30009 40167 79262 8652/ 333 20228 58000 60104;
0148826780999992001102618004-06760-043010FM-12+013899999V0202701N002110075019N0040001N1+03241+02131101131ADDAA199000021GF108991051051008001071011MA1999999099571MD1999999+0091REMSYN070AAXX  26184 82678 32596 82704 10324 20213 39957 40113 85571 333 58009;
0179826780999992001102700004-06760-043010FM-12+013899999V0202301N000510450019N0002001N1+02841+02291101281ADDAA199000021GF106991031051008001031021KA1240M+03371MA1999999099701MD1999999+0011REMSYN088AAXX  27004 82678 32592 62301 10284 20229 39970 40128 83532 333 10337 29072 55048 58001;
0201826780999992001102712004-06760-043010FM-12+013899999V0209999C000010075019N0040001N1+02361+02191101681ADDAA124005191AY161061AY221061GF108991051051008001021999KA1240N+02141MA1999999100091MD1999999+0001MW1021REMSYN088AAXX  27124 82678 21596 80000 10236 20219 30009 40168 70262 8552/ 333 20214 58000 60054;
0167826780999992001102718004-06760-043010FM-12+013899999V0202301N001012200019N0040001N1+03421+02091101021ADDAA199000091GF106991031021008001001011MA1999999099501MD1999999-0071REMSYN070AAXX  27184 82678 32596 62302 10342 20209 39950 40102 83201 333 59007;EQDQ01  00002PRCP99
0208826780999992001102800004-06760-043010FM-12+013899999V0209999C000012200019N0002001N1+02781+02361101281ADDAA199000091GA1001+999999999GF100991001001999999001001KA1240M+03461MA1999999099711MD1999999+0011REMSYN082AAXX  28004 82678 32992 00000 10278 20236 39971 40128 333 10346 29073 55060 58001;EQDQ01  00002PRCP99
0186826780999992001102812004-06760-043010FM-12+013899999V0200901N002111050019N0040001N1+03001+02031101541ADDAA199000091GF106991041021008001001021KA1240N+02341MA1999999099981MD1999999-0111REMSYN076AAXX  28124 82678 32596 60904 10300 20203 39998 40154 84202 333 20234 59011;EQDQ01  00002PRCP99
0167826780999992001102818004-06760-043010FM-12+013899999V0203601N001512200019N0040001N1+03541+01971100931ADDAA199000091GF104991031021008001001021MA1999999099381MD1999999-0121REMSYN070AAXX  28184 82678 32596 43603 10354 20197 39938 40093 83202 333 59012;EQDQ01  00002PRCP99
0198826780999992001102900004-06760-043010FM-12+013899999V0209999C000010075019N0002001N1+02901+02271101181ADDAA199000091GF105991051051008001001001KA1240M+03651MA1999999099621MD1999999-0091REMSYN088AAXX  29004 82678 32592 50000 10290 20227 39962 40118 85500 333 10365 29058 55113 59009;EQDQ01  00002PRCP99
0186826780999992001102912004-06760-043010FM-12+013899999V0200501N002112200019N0040001N1+03141+02161101551ADDAA199000091GF105991031011008001001011KA1240N+02481MA1999999099991MD1999999+0011REMSYN076AAXX  29124 82678 32596 50504 10314 20216 39999 40155 83101 333 20248 58001;EQDQ01  00002PRCP99
0167826780999992001102918004-06760-043010FM-12+013899999V0200901N002612200019N0040001N1+03691+01881100891ADDAA199000091GF108991031021008001001011MA1999999099351MD1999999-0031REMSYN070AAXX  29184 82678 32596 80905 10369 20188 39935 40089 83201 333 59003;EQDQ01  00002PRCP99
0198826780999992001103000004-06760-043010FM-12+013899999V0200901N000510075019N0002001N1+03161+02121101141ADDAA199000091GF108991071041008001031999KA1240M+03891MA1999999099601MD1999999-0021REMSYN088AAXX  30004 82678 32592 80901 10316 20212 39960 40114 8743/ 333 10389 29050 55106 59002;EQDQ01  00002PRCP99
0186826780999992001103012004-06760-043010FM-12+013899999V0203601N002112200019N0040001N1+03071+02221101581ADDAA199000091GF105991041021008001001011KA1240N+02481MA1999999100031MD1999999+0041REMSYN076AAXX  30124 82678 32596 53604 10307 20222 30003 40158 84201 333 20248 58004;EQDQ01  00002PRCP99
0167826780999992001103018004-06760-043010FM-12+013899999V0200901N001510450019N0040001N1+03721+02011100901ADDAA199000091GF106991041021008001031001MA1999999099371MD1999999+0021REMSYN070AAXX  30184 82678 32596 60903 10372 20201 39937 40090 84230 333 58002;EQDQ01  00002PRCP99
0198826780999992001103100004-06760-043010FM-12+013899999V0200901N001512200019N0002001N1+03151+01911101151ADDAA199000091GF103991021001017501031011KA1240M+03791MA1999999099601MD1999999+0001REMSYN088AAXX  31004 82678 32792 30903 10315 20191 39960 40115 82031 333 10379 29048 55095 58000;EQDQ01  00002PRCP99
0186826780999992001103112004-06760-043010FM-12+013899999V0200901N003112200019N0040001N1+03281+02071101381ADDAA199000091GF104991021021008001001011KA1240N+02611MA1999999099841MD1999999-0191REMSYN076AAXX  31124 82678 32596 40906 10328 20207 39984 40138 82201 333 20261 59019;EQDQ01  00002PRCP99
0183826780999992001103118004-06760-043010FM-12+013899999V0201401N002112200019N0040001N1+03861+01941100641ADDAA199000091GF104991999021008001001001MA1999999099121MD1999999-0251REMSYN070AAXX  31184 82678 32596 41404 10386 20194 39912 40064 83200 333 59025;EQDQ01+000032SCOTLCQ02  00002PRCP99
0198826780999992001110100004-06760-043010FM-12+013899999V0209999C000011050019N0020001N1+03001+01941100831ADDAA199000091GF105991021021008001031011KA1240M+03971MA1999999099291MD1999999-0311REMSYN088AAXX  01004 82678 32595 50000 10300 20194 39929 40083 82231 333 10397 29047 55104 59031;EQDQ01  00002PRCP99
0186826780999992001110112004-06760-043010FM-12+013899999V0202701N000512200019N0040001N1+03061+02271101211ADDAA199000091GF102991021011008001001001KA1240N+02421MA1999999099661MD1999999-0181REMSYN076AAXX  01124 82678 32596 22701 10306 20227 39966 40121 82100 333 20242 59018;EQDQ01  00002PRCP99
0167826780999992001110118004-06760-043010FM-12+013899999V0203201N001012200019N0040001N1+03731+02051100651ADDAA199000091GF104991041021008001001001MA1999999099111MD1999999-0011REMSYN070AAXX  01184 82678 32596 43202 10373 20205 39911 40065 84200 333 59001;EQDQ01  00002PRCP99
0192826780999992001110200004-06760-043010FM-12+013899999V0203201N001512200019N0002001N1+03051+02261100941ADDAA199000091GF104991999999999999999999KA1240M+03811MA1999999099391MD1999999+0101REMSYN082AAXX  02004 82678 32992 43203 10305 20226 39939 40094 333 10381 29057 55107 58010;EQDQ01  00002PRCP99
0201826780999992001110212004-06760-043010FM-12+013899999V0202301N000510075019N0040001N1+02201+02151101441ADDAA124091991AY161061AY221061GF108991061051008001021999KA1240N+02101MA1999999099861MD1999999+0201MW1031REMSYN088AAXX  02124 82678 21596 82301 10220 20215 39986 40144 70362 8652/ 333 20210 58020 60924;
0182826780999992001110218004-06760-043010FM-12+013899999V0202301N000510450019N0040001N1+02801+02311101091ADDAA106000191AY161061AY221061GF107991041021008001031021MA1999999099521MD1999999+0411MW1021REMSYN082AAXX  02184 82678 21596 72301 10280 20231 39952 40109 70262 84232 333 58041 69921;
0214826780999992001110300004-06760-043010FM-12+013899999V0209999C000019999999N0002001N1+02521+02271101161ADDAA199000091GF107991999021008001001001KA1240M+03051MA1999999099561MD1999999+0171REMSYN088AAXX  03004 82678 32592 70000 10252 20227 39956 40116 84200 333 10305 29086 55025 58017;EQDQ01+000042SCOTLCQ02  00002PRCP99
0173826780999992001110312004-06760-043010FM-12+013899999V0202701N000510075019N0040001N1+02701+02281101391ADDAA124000191GF107991071051008001001001KA1240N+02201MA1999999099811MD1999999-0051REMSYN082AAXX  03124 82678 22596 72701 10270 20228 39981 40139 87500 333 20220 59005 69924;
0167826780999992001110318004-06760-043010FM-12+013899999V0203601N000510075019N0040001N1+03541+02051100901ADDAA199000091GF105991051021008001001001MA1999999099331MD1999999-0191REMSYN070AAXX  03184 82678 32596 53601 10354 20205 39933 40090 85200 333 59019;EQDQ01  00002PRCP99
0198826780999992001110400004-06760-043010FM-12+013899999V0209999C000010075019N0002001N1+02861+02231100921ADDAA199000091GF105991051041008001001001KA1240M+03611MA1999999099361MD1999999-0201REMSYN088AAXX  04004 82678 32592 50000 10286 20223 39936 40092 85400 333 10361 29064 55091 59020;EQDQ01  00002PRCP99
0202826780999992001110412004-06760-043010FM-12+013899999V0203601N001519999999N0040001N1+02791+02271101531ADDAA199000091GF108991999011008001001001KA1240N+02501MA1999999099961MD1999999+0151REMSYN076AAXX  04124 82678 32596 83603 10279 20227 39996 40153 82100 333 20250 58015;EQDQ01+000022SCOTLCQ02  00002PRCP99
0183826780999992001110418004-06760-043010FM-12+013899999V0202701N001019999999N0040001N1+03481+02131100961ADDAA199000091GF106991999021008001001001MA1999999099421MD1999999+0091REMSYN070AAXX  04184 82678 32596 62702 10348 20213 39942 40096 84200 333 58009;EQDQ01+000042SCOTLCQ02  00002PRCP99
0208826780999992001110500004-06760-043010FM-12+013899999V0202701N001012200019N0002001N1+02921+02411101091ADDAA199000091GA1001+999999999GF100991001001999999001001KA1240M+03351MA1999999099531MD1999999+0101REMSYN082AAXX  05004 82678 32992 02702 10292 20241 39953 40109 333 10335 29064 55070 58010;EQDQ01  00002PRCP99
0186826780999992001110512004-06760-043010FM-12+013899999V0203601N000512200019N0040001N1+02841+02261101491ADDAA199000091GF106991031001017501031011KA1240N+02501MA1999999099921MD1999999-0041REMSYN076AAXX  05124 82678 32796 63601 10284 20226 39992 40149 83031 333 20250 59004;EQDQ01  00002PRCP99
0168826780999992001110518004-06760-043010FM-12+013899999V0202701N000511050019N0040001N1+03441+02141101001ADDAA199000091GF105991031051008001001021MD1999999+0031REMSYN070AAXX  05184 82678 32596 52701 10344 20214 39545 40100 83502 333 58003;EQDQ01+095453APOSP Q02  00002PRCP99
0208826780999992001110600004-06760-043010FM-12+013899999V0209999C000012200019N0002001N1+02881+02391101061ADDAA199000091GA1001+999999999GF100991001001999999001001KA1240M+03501MA1999999099501MD1999999-0031REMSYN082AAXX  06004 82678 32992 00000 10288 20239 39950 40106 333 10350 29067 55050 59003;EQDQ01  00002PRCP99
0186826780999992001110612004-06760-043010FM-12+013899999V0203601N001519999999N0040001N1+02841+02311101591ADDAA199000091GF105991031001008001031011KA1240N+02431MA1999999100021MD1999999+0101REMSYN076AAXX  06124 82678 32596 53603 10284 20231 30002 40159 83031 333 20243 58010;EQDQ01  00002PRCP99
0167826780999992001110618004-06760-043010FM-12+013899999V0200901N001012200019N0040001N1+03601+02221100951ADDAA199000091GF104991021021008001001011MA1999999099401MD1999999-0051REMSYN070AAXX  06184 82678 32596 40902 10360 20222 39940 40095 82201 333 59005;EQDQ01  00002PRCP99
0208826780999992001110700004-06760-043010FM-12+013899999V0209999C000012200019N0020001N1+03021+02341101101ADDAA199000091GA1001+999999999GF100991001001999999001001KA1240M+03661MA1999999099541MD1999999+0041REMSYN082AAXX  07004 82678 32995 00000 10302 20234 39954 40110 333 10366 29063 55084 58004;EQDQ01  00002PRCP99
0156826780999992001110712004-06760-043010FM-12+013899999V0203601N001010120019N0040001N1+03001+02241101501ADDGF108991051081008001031011KA1240N+02461MA1999999099941MD1999999-0081REMSYN076AAXX  07124 82678 22596 83602 10300 20224 39994 40150 85831 333 20246 59008;
0167826780999992001110718004-06760-043010FM-12+013899999V0203201N001512200019N0040001N1+03611+02181101001ADDAA199000091GF104991041021008001001001MA1999999099461MD1999999+0061REMSYN070AAXX  07184 82678 32596 43203 10361 20218 39946 40100 84200 333 58006;EQDQ01  00002PRCP99
0198826780999992001110800004-06760-043010FM-12+013899999V0201801N000512200019N0002001N1+02991+02301101181ADDAA199000091GF102991021041008001001001KA1240M+03651MA1999999099631MD1999999+0091REMSYN088AAXX  08004 82678 32592 21801 10299 20230 39963 40118 82400 333 10365 29060 55091 58009;EQDQ01  00002PRCP99
0186826780999992001110812004-06760-043010FM-12+013899999V0200501N000510075019N0040001N1+02881+02281101641ADDAA199000091GF107991051051008001001021KA1240N+02441MA1999999100051MD1999999+0131REMSYN076AAXX  08124 82678 32596 70501 10288 20228 30005 40164 85502 333 20244 58013;EQDQ01  00002PRCP99
0167826780999992001110818004-06760-043010FM-12+013899999V0200901N000511050019N0040001N1+03601+01901101131ADDAA199000091GF105991041021008001001021MA1999999099581MD1999999+0121REMSYN070AAXX  08184 82678 32596 50901 10360 20190 39958 40113 84202 333 58012;EQDQ01  00002PRCP99
0208826780999992001110900004-06760-043010FM-12+013899999V0209999C000012200019N0002001N1+02841+02221101081ADDAA199000091GA1001+999999999GF100991001001999999001001KA1240M+03641MA1999999099521MD1999999-0111REMSYN082AAXX  09004 82678 32992 00000 10284 20222 39952 40108 333 10364 29061 55092 59011;EQDQ01  00002PRCP99
0197826780999992001110912004-06760-043010FM-12+013899999V0200901N001512200019N0005001N1+03041+02151101561ADDAA199000091GA1001+999999999GF100991001001999999001001KA1240N+02441MD1999999-0071REMSYN070AAXX  09124 82678 32993 00903 10304 20215 31000 40156 333 20244 59007;EQDQ01+010001APOSP Q02  00002PRCP99
0167826780999992001110918004-06760-043010FM-12+013899999V0200901N001011050019N0040001N1+03741+01691101041ADDAA199000091GF105991031021008001001021MA1999999099501MD1999999-0081REMSYN070AAXX  09184 82678 32596 50902 10374 20169 39950 40104 83202 333 59008;EQDQ01  00002PRCP99
0208826780999992001111000004-06760-043010FM-12+013899999V0209999C000012200019N0002001N1+02981+02011101191ADDAA199000091GA1001+999999999GF100991001001999999001001KA1240M+03811MA1999999099641MD1999999+0121REMSYN082AAXX  10004 82678 32992 00000 10298 20201 39964 40119 333 10381 29050 55108 58012;EQDQ01  00002PRCP99
0202826780999992001111012004-06760-043010FM-12+013899999V0200501N001510075019N0040001N1+03001+02141101641ADDAA199000091GF108991999021008001001001KA1240N+02621MA1999999100081MD1999999+0081REMSYN076AAXX  10124 82678 32596 80503 10300 20214 30008 40164 86200 333 20262 58008;EQDQ01+000062SCOTLCQ02  00002PRCP99
0167826780999992001111018004-06760-043010FM-12+013899999V0202301N001512200019N0040001N1+03641+01851100991ADDAA199000091GF104991041021008001001001MA1999999099451MD1999999-0051REMSYN070AAXX  10184 82678 32596 42303 10364 20185 39945 40099 84200 333 59005;EQDQ01  00002PRCP99
0213826780999992001111100004-06760-043010FM-12+013899999V0201801N001010075019N0040001N1+02801+02131101391ADDAA106001091AY161061AY221061GF108991081051008001999999KA1240M+03721MA1999999099831MD1999999+0191MW1021REMSYN100AAXX  11004 82678 21596 81802 10280 20213 39983 40139 70262 885// 333 10372 29058 55098 58019 60011;
0173826780999992001111112004-06760-043010FM-12+013899999V0203601N000512200019N0040001N1+02981+02151101611ADDAA124001091GF104991021021008001031001KA1240N+02521MA1999999100041MD1999999-0041REMSYN082AAXX  11124 82678 22596 43601 10298 20215 30004 40161 82230 333 20252 59004 60014;
0167826780999992001111118004-06760-043010FM-12+013899999V02099999999992200019N0040001N1+03641+02061101061ADDAA199000091GF104991041021008001001001MA1999999099521MD1999999+0071REMSYN070AAXX  11184 82678 32596 43703 10364 20206 39952 40106 84200 333 58007;EQDQ01  00002PRCP99
0214826780999992001111200004-06760-043010FM-12+013899999V0209999C000012200019N0002001N1+03041+02281101131ADDAA199000091GF104991999011008001001001KA1240M+03711MA1999999099581MD1999999-0251REMSYN088AAXX  12004 82678 32592 40000 10304 20228 39958 40113 83100 333 10371 29057 55103 59025;EQDQ01+000032SCOTLCQ02  00002PRCP99
0201826780999992001111212004-06760-043010FM-12+013899999V0200901N000512200019N0040001N1+03041+02231101611ADDAA124000591AY161061AY211061GF103991021011008001001011KA1240N+02621MA1999999100051MD1999999+0011MW1011REMSYN088AAXX  12124 82678 21596 30901 10304 20223 30005 40161 70161 82101 333 20262 58001 69944;
0167826780999992001111218004-06760-043010FM-12+013899999V0203201N000512200019N0040001N1+02661+02121101051ADDAA199000091GF104991041021008001001001MA1999999099511MD1999999-0011REMSYN070AAXX  12184 82678 32596 43201 10266 20212 39951 40105 84200 333 59001;EQDQ01  00002PRCP99
0214826780999992001111300004-06760-043010FM-12+013899999V0201801N001012200019N0040001N1+03121+02111101021ADDAA199000091GF103991999011008001001001KA1240M+03791MA1999999099471MD1999999-0111REMSYN088AAXX  13004 82678 32596 31802 10312 20211 39947 40102 82100 333 10379 29056 55105 59011;EQDQ01+000022SCOTLCQ02  00002PRCP99
0186826780999992001111312004-06760-043010FM-12+013899999V0202701N000510075019N0040001N1+02801+02251101471ADDAA199000091GF108991061051008001061999KA1240N+02581MA1999999099911MD1999999-0141REMSYN076AAXX  13124 82678 32596 82701 10280 20225 39991 40147 8656/ 333 20258 59014;EQDQ01  00002PRCP99
0167826780999992001111318004-06760-043010FM-12+013899999V0202701N002111050019N0040001N1+03461+02231100911ADDAA199000091GF105991041031008001001021MA1999999099371MD1999999-0141REMSYN070AAXX  13184 82678 32596 52704 10346 20223 39937 40091 84302 333 59014;EQDQ01  00002PRCP99
0208826780999992001111400004-06760-043010FM-12+013899999V0202301N001012200019N0002001N1+02971+02071101041ADDAA199000091GA1001+999999999GF100991001001999999001001KA1240M+03551MA1999999099481MD1999999+0011REMSYN082AAXX  14004 82678 32992 02302 10297 20207 39948 40104 333 10355 29060 55076 58001;EQDQ01  00002PRCP99
0186826780999992001111412004-06760-043010FM-12+013899999V0202701N001010120019N0040001N1+02891+02211101331ADDAA199000091GF108991051081008001011999KA1240N+02501MA1999999099771MD1999999-0141REMSYN076AAXX  14124 82678 32596 82702 10289 20221 39977 40133 8581/ 333 20250 59014;EQDQ01  00002PRCP99
0167826780999992001111418004-06760-043010FM-12+013899999V0203601N001010450019N0040001N1+03551+02201100691ADDAA199000091GF105991041021008001031001MA1999999099151MD1999999-0221REMSYN070AAXX  14184 82678 32596 53602 10355 20220 39915 40069 84230 333 59022;EQDQ01  00002PRCP99
0208826780999992001111500004-06760-043010FM-12+013899999V0202301N001012200019N0002001N1+03091+02221100921ADDAA199000091GA1001+999999999GF100991001001999999001001KA1240M+03631MA1999999099371MD1999999-0111REMSYN082AAXX  15004 82678 32992 02302 10309 20222 39937 40092 333 10363 29059 55084 59011;EQDQ01  00002PRCP99
0201826780999992001111512004-06760-043010FM-12+013899999V0202701N001010120019N0040001N1+02881+02261101331ADDAA124000891AY161061AY211061GF108991051081008001021999KA1240N+02441MA1999999099771MD1999999+0001MW1021REMSYN088AAXX  15124 82678 21596 82702 10288 20226 39977 40133 70261 8582/ 333 20244 58000 69974;
0167826780999992001111518004-06760-043010FM-12+013899999V0201401N001512200019N0040001N1+03441+02211100801ADDAA199000091GF105991031021008001001011MA1999999099251MD1999999+0101REMSYN070AAXX  15184 82678 32596 51403 10344 20221 39925 40080 83201 333 58010;EQDQ01  00002PRCP99
0198826780999992001111600004-06760-043010FM-12+013899999V0209999C000010075019N0002001N1+02881+02081101071ADDAA199000091GF108991061051008001021999KA1240M+03491MA1999999099501MD1999999+0131REMSYN088AAXX  16004 82678 32592 80000 10288 20208 39950 40107 8652/ 333 10349 29061 55058 58013;EQDQ01  00002PRCP99
0186826780999992001111612004-06760-043010FM-12+013899999V0201801N000510075019N0040001N1+02701+02261101601ADDAA199000091GF108991071051008001021999KA1240N+02501MA1999999100031MD1999999+0261REMSYN076AAXX  16124 82678 32596 81801 10270 20226 30003 40160 8752/ 333 20250 58026;EQDQ01  00002PRCP99
0167826780999992001111618004-06760-043010FM-12+013899999V0202301N001011050019N0040001N1+03421+02231101121ADDAA199000091GF106991031011008001001021MA1999999099571MD1999999+0321REMSYN070AAXX  16184 82678 32596 62302 10342 20223 39957 40112 83102 333 58032;EQDQ01  00002PRCP99
0208826780999992001111700004-06760-043010FM-12+013899999V0202301N001012200019N0002001N1+02911+02301101271ADDAA199000091GA1001+999999999GF100991001001999999001001KA1240M+03471MA1999999099701MD1999999+0201REMSYN082AAXX  17004 82678 32992 02302 10291 20230 39970 40127 333 10347 29067 55059 58020;EQDQ01  00002PRCP99
0186826780999992001111712004-06760-043010FM-12+013899999V0202701N000510075019N0040001N1+02821+02241101501ADDAA199000091GF108991061051008001001021KA1240N+02421MA1999999099931MD1999999-0101REMSYN076AAXX  17124 82678 32596 82701 10282 20224 39993 40150 86502 333 20242 59010;EQDQ01  00002PRCP99
0167826780999992001111718004-06760-043010FM-12+013899999V0201401N001510450019N0040001N1+03541+02161101021ADDAA199000091GF107991041021008001031021MA1999999099471MD1999999-0101REMSYN070AAXX  17184 82678 32596 71403 10354 20216 39947 40102 84232 333 59010;EQDQ01  00002PRCP99
0208826780999992001111800004-06760-043010FM-12+013899999V0202701N001012200019N0002001N1+02821+02241101071ADDAA199000091GA1001+999999999GF100991001001999999001001KA1240M+03631MA1999999099501MD1999999-0201REMSYN082AAXX  18004 82678 32992 02702 10282 20224 39950 40107 333 10363 29064 55083 59020;EQDQ01  00002PRCP99
0202826780999992001111812004-06760-043010FM-12+013899999V0203201N001010075019N0040001N1+02921+02141101401ADDAA199000091GF108991999021008001001001KA1240N+02441MA1999999099831MD1999999-0101REMSYN076AAXX  18124 82678 32596 83202 10292 20214 39983 40140 85200 333 20244 59010;EQDQ01+000052SCOTLCQ02  00002PRCP99
0183826780999992001111818004-06760-043010FM-12+013899999V0200501N001012200019N0040001N1+03721+02011100901ADDAA199000091GF104991999021008001001001MA1999999099361MD1999999-0111REMSYN070AAXX  18184 82678 32596 40502 10372 20201 39936 40090 83200 333 59011;EQDQ01+000032SCOTLCQ02  00002PRCP99
0208826780999992001111900004-06760-043010FM-12+013899999V0202301N001512200019N0002001N1+03001+02241101151ADDAA199000091GA1001+999999999GF100991001001999999001001KA1240M+03841MA1999999099591MD1999999+0091REMSYN082AAXX  19004 82678 32992 02303 10300 20224 39959 40115 333 10384 29057 55105 58009;EQDQ01  00002PRCP99
0186826780999992001111912004-06760-043010FM-12+013899999V0202701N000510450019N0040001N1+02821+02291101591ADDAA199000091GF106991041051008001031001KA1240N+02421MA1999999100021MD1999999+0191REMSYN076AAXX  19124 82678 32596 62701 10282 20229 30002 40159 84530 333 20242 58019;EQDQ01  00002PRCP99
0167826780999992001111918004-06760-043010FM-12+013899999V0202701N001512200019N0040001N1+03551+02241101011ADDAA199000091GF103991031021008001001001MA1999999099461MD1999999+0101REMSYN070AAXX  19184 82678 32596 32703 10355 20224 39946 40101 83200 333 58010;EQDQ01  00002PRCP99
0198826780999992001112000004-06760-043010FM-12+013899999V0209999C000012200019N0002001N1+03021+02261101071ADDAA199000091GF102991021001017501031001KA1240M+03591MA1999999099511MD1999999-0081REMSYN088AAXX  20004 82678 32792 20000 10302 20226 39951 40107 82030 333 10359 29062 55083 59008;EQDQ01  00002PRCP99
0201826780999992001112012004-06760-043010FM-12+013899999V0209999C000010075019N0040001N1+02401+02311101511ADDAA124026991AY161061AY221061GF108991071051008001021999KA1240N+02281MA1999999099931MD1999999-0091MW1921REMSYN088AAXX  20124 82678 21596 80000 10240 20231 39993 40151 79262 8752/ 333 20228 59009 60274;
0148826780999992001112018004-06760-043010FM-12+013899999V0202301N002610450019N0040001N1+02721+02371101071ADDAA199000021GF107991041051008001031001MA1999999099501MD1999999+0041REMSYN070AAXX  20184 82678 32596 72305 10272 20237 39950 40107 84530 333 58004;
0198826780999992001112100004-06760-043010FM-12+013899999V0202301N001019999999N0002001N1+02541+02381101181ADDAA199000021GF106991999021008001001001KA1240M+03041MA1999999099591MD1999999+0081REMSYN088AAXX  21004 82678 32592 62302 10254 20238 39959 40118 83200 333 10304 29090 55000 58008;EQDQ01+000032SCOTLC
0201826780999992001112112004-06760-043010FM-12+013899999V0202701N001010075019N0002001N1+02701+02431101511ADDAA124001091AY161061AY211061GF108991061051008001021999KA1240N+02311MA1999999099921MD1999999-0011MW1021REMSYN088AAXX  21124 82678 21592 82702 10270 20243 39992 40151 70261 8652/ 333 20231 59001 60014;
0182826780999992001112118004-06760-043010FM-12+013899999V0202701N002110450019N0040001N1+02861+02421101111ADDAA106005191AY161061AY221061GF108991041051008001031011MA1999999099531MD1999999+0031MW1091REMSYN082AAXX  21184 82678 21596 82704 10286 20242 39953 40111 70962 84531 333 58003 60051;
0198826780999992001112200004-06760-043010FM-12+013899999V0202301N000510450019N0002001N1+02571+02311101331ADDAA199000091GF105991031051008001031001KA1240M+02911MA1999999099751MD1999999+0161REMSYN088AAXX  22004 82678 32592 52301 10257 20231 39975 40133 83530 333 10291 29084 55004 58016;EQDQ01  00002PRCP99
0173826780999992001112212004-06760-043010FM-12+013899999V0209999C000012200019N0040001N1+02821+02441101521ADDAA124005191GF103991021011008001001011KA1240N+02381MA1999999099951MD1999999+0031REMSYN082AAXX  22124 82678 22596 30000 10282 20244 39995 40152 82101 333 20238 58003 60054;
0167826780999992001112218004-06760-043010FM-12+013899999V0202301N001510450019N0040001N1+03371+02211101001ADDAA199000091GF105991041021008001031001MA1999999099451MD1999999-0081REMSYN070AAXX  22184 82678 32596 52303 10337 20221 39945 40100 84230 333 59008;EQDQ01  00002PRCP99
0214826780999992001112300004-06760-043010FM-12+013899999V0201801N001019999999N0002001N1+02841+02351101041ADDAA199000091GF105991999021008001001001KA1240M+03491MA1999999099481MD1999999-0271REMSYN088AAXX  23004 82678 32592 51802 10284 20235 39948 40104 84200 333 10349 29070 55072 59027;EQDQ01+000042SCOTLCQ02  00002PRCP99
0186826780999992001112312004-06760-043010FM-12+013899999V0203201N000510075019N0040001N1+02741+02301101251ADDAA199000091GF108991071051008001061999KA1240N+02441MA1999999099681MD1999999-0271REMSYN076AAXX  23124 82678 32596 83201 10274 20230 39968 40125 8756/ 333 20244 59027;EQDQ01  00002PRCP99
0182826780999992001112318004-06760-043010FM-12+013899999V0202701N000510450019N0040001N1+03241+02311100821ADDAA106008991AY161061AY221061GF107991041051008001031011MA1999999099261MD1999999-0191MW1021REMSYN082AAXX  23184 82678 21596 72701 10324 20231 39926 40082 70262 84531 333 59019 60091;
0198826780999992001112400004-06760-043010FM-12+013899999V0201801N000510075019N0002001N1+02861+02231100931ADDAA199000091GF107991051051008001031001KA1240M+03311MA1999999099371MD1999999-0111REMSYN088AAXX  24004 82678 32592 71801 10286 20223 39937 40093 85530 333 10331 29068 55036 59011;EQDQ01  00002PRCP99
0201826780999992001112412004-06760-043010FM-12+013899999V0202301N001010075019N0040001N1+02401+02311101231ADDAA124013091AY161061AY211061GF108991051051008001021999KA1240N+02301MA1999999099651MD1999999-0031MW1611REMSYN088AAXX  24124 82678 21596 82302 10240 20231 39965 40123 76161 8552/ 333 20230 59003 60134;
0148826780999992001112418004-06760-043010FM-12+013899999V0202701N001510075019N0040001N1+02761+02401100971ADDAA199000021GF108991061051008001021011MA1999999099401MD1999999+0141REMSYN070AAXX  24184 82678 32596 82703 10276 20240 39940 40097 86521 333 58014;
0179826780999992001112500004-06760-043010FM-12+013899999V0209999C000010075019N0002001N1+02581+02331101091ADDAA199000021GF108991061051008001021999KA1240M+02931MA1999999099501MD1999999+0131REMSYN088AAXX  25004 82678 32592 80000 10258 20233 39950 40109 8652/ 333 10293 29087 55000 58013;
0202826780999992001112512004-06760-043010FM-12+013899999V0201801N001010075019N0040001N1+02641+02271101341ADDAA199000091GF108991999021008001001001KA1240N+02341MA1999999099771MD1999999+0121REMSYN076AAXX  25124 82678 32596 81802 10264 20227 39977 40134 86200 333 20234 58012;EQDQ01+000062SCOTLCQ02  00002PRCP99
0182826780999992001112518004-06760-043010FM-12+013899999V0203201N001510075019N0040001N1+02791+02211100931ADDAA106000191AY191061AY261061GF108991051051008001021021MA1999999099351MD1999999-0051MW1021REMSYN082AAXX  25184 82678 21596 83203 10279 20221 39935 40093 70296 85522 333 59005 69921;
0214826780999992001112600004-06760-043010FM-12+013899999V0201401N001010075019N0002001N1+02581+02311101181ADDAA199000091GF108991061051008001021999KA1240M+99999MA1999999099601MD1999999+0101REMSYN088AAXX  26004 82678 32592 81402 10258 20231 39960 40118 8652/ 333 10205 29080 55034 58010;EQDQ01  00002PRCP99Q02 +02052ATMX  
0173826780999992001112612004-06760-043010FM-12+013899999V0200901N001010450019N0040001N1+02861+02261101331ADDAA124000191GF107991041051008001031011KA1240N+02301MA1999999099751MD1999999-0021REMSYN082AAXX  26124 82678 22596 70902 10286 20226 39975 40133 84531 333 20230 59002 69924;
0167826780999992001112618004-06760-043010FM-12+013899999V0200901N000510075019N0040001N1+03321+02171100891ADDAA199000091GF107991051051008001031011MA1999999099331MD1999999-0021REMSYN070AAXX  26184 82678 32596 70901 10332 20217 39933 40089 85531 333 59002;EQDQ01  00002PRCP99
0232826780999992001112700004-06760-043010FM-12+013899999V0203201N001010075019N0020001N1+02481+02191101091ADDAA106001091AY161061AY221061GF108991999021008001001001KA1240M+03411MA1999999099511MD1999999-0091MW1911REMSYN100AAXX  27004 82678 21595 83202 10248 20219 39951 40109 79162 86200 333 10341 29072 55051 59009 60011;EQDQ01+000062SCOTLC
0173826780999992001112712004-06760-043010FM-12+013899999V0200901N001012200019N0040001N1+02721+02301101311ADDAA124001091GF104991031021008001001011KA1240N+02311MA1999999099731MD1999999-0021REMSYN082AAXX  27124 82678 22596 40902 10272 20230 39973 40131 83201 333 20231 59002 60014;
0167826780999992001112718004-06760-043010FM-12+013899999V0209999C000012200019N0040001N1+03441+02141100781ADDAA199000091GF103991021011008001001011MA1999999099231MD1999999-0101REMSYN070AAXX  27184 82678 32596 30000 10344 20214 39923 40078 82101 333 59010;EQDQ01  00002PRCP99
0213826780999992001112800004-06760-043010FM-12+013899999V0209999C000010075019N0002001N1+02421+02231101171ADDAA106008991AY161061AY211061GF108991061051008001021999KA1240M+03551MA1999999099591MD1999999+0081MW1021REMSYN100AAXX  28004 82678 21592 80000 10242 20223 39959 40117 70261 8652/ 333 10355 29076 55070 58008 60091;
0173826780999992001112812004-06760-043010FM-12+013899999V0202701N001510075019N0040001N1+02601+02371101451ADDAA124008991GF108991051051008001061999KA1240N+02291MA1999999099861MD1999999+0131REMSYN082AAXX  28124 82678 22596 82703 10260 20237 39986 40145 8556/ 333 20229 58013 60094;
0167826780999992001112818004-06760-043010FM-12+013899999V0201401N001010450019N0040001N1+03311+02211100871ADDAA199000091GF108991041021008001031011MA1999999099311MD1999999+0081REMSYN070AAXX  28184 82678 32596 81402 10331 20221 39931 40087 84231 333 58008;EQDQ01  00002PRCP99
0214826780999992001112900004-06760-043010FM-12+013899999V0200901N000512200019N0002001N1+02781+02211101071ADDAA199000091GF103991999011008001001001KA1240M+03451MA1999999099701MD1999999-0091REMSYN088AAXX  29004 82678 32592 30901 10278 20221 39970 40107 82100 333 10345 29070 55068 59009;EQDQ01+000022SCOTLCQ02  00002PRCP99
0201826780999992001112912004-06760-043010FM-12+013899999V0200501N001510075019N0040001N1+02421+02281101561ADDAA124001091AY161061AY221061GF108991061051008001021999KA1240N+02381MA1999999099971MD1999999+0111MW1911REMSYN088AAXX  29124 82678 21596 80503 10242 20228 39997 40156 79162 8652/ 333 20238 58011 60014;
0148826780999992001112918004-06760-043010FM-12+013899999V0203201N001010075019N0040001N1+02821+02291101071ADDAA199000021GF108991071051008001071999MA1999999099501MD1999999+0191REMSYN070AAXX  29184 82678 32596 83202 10282 20229 39950 40107 8757/ 333 58019;
0179826780999992001113000004-06760-043010FM-12+013899999V0209999C000011050019N0002001N1+02561+02291101081ADDAA199000021GF106991031001017501031021KA1240M+02911MA1999999099491MD1999999-0011REMSYN088AAXX  30004 82678 32792 60000 10256 20229 39949 40108 83032 333 10291 29084 55000 59001;
0186826780999992001113012004-06760-043010FM-12+013899999V0200501N001510075019N0040001N1+02741+02301101401ADDAA199000091GF108991051051008001021999KA1240N+02321MA1999999099821MD1999999-0151REMSYN076AAXX  30124 82678 32596 80503 10274 20230 39982 40140 8552/ 333 20232 59015;EQDQ01  00002PRCP99
0167826780999992001113018004-06760-043010FM-12+013899999V0200501N001510450019N0040001N1+03141+02271100991ADDAA199000091GF108991041051008001021011MA1999999099421MD1999999-0081REMSYN070AAXX  30184 82678 32596 80503 10314 20227 39942 40099 84521 333 59008;EQDQ01  00002PRCP99
0198826780999992001120100004-06760-043010FM-12+013899999V0209999C000010450019N0002001N1+02641+02391101141ADDAA199000091GF105991031051008001021999KA1240M+03161MA1999999099571MD1999999+0081REMSYN088AAXX  01004 82678 32592 50000 10264 20239 39957 40114 8352/ 333 10316 29078 55015 58008;EQDQ01  00002PRCP99
0186826780999992001120112004-06760-043010FM-12+013899999V0201401N001511050019N0040001N1+02871+02191101381ADDAA199000091GF105991041081008001001021KA1240N+02341MA1999999099811MD1999999-0011REMSYN076AAXX  01124 82678 32596 51403 10287 20219 39981 40138 84802 333 20234 59001;EQDQ01  00002PRCP99
0167826780999992001120118004-06760-043010FM-12+013899999V0200901N001011050019N0040001N1+03481+01961100891ADDAA199000091GF106991041021008001001021MA1999999099341MD1999999-0081REMSYN070AAXX  01184 82678 32596 60902 10348 20196 39934 40089 84202 333 59008;EQDQ01  00002PRCP99
0183826780999992001120200004-06760-043010FM-12+013899999V0209999C000012200019N0002001N1+02861+02461999999ADDAA199000091GF102991999999017501999999KA1240M+03541MA1999999099471REMSYN087AAXX  02004 82678 32792 20000 10286 20246 39947 4103 82030 333 10354 29066 55098 59010;EQDQ01  00002PRCP99
0186826780999992001120212004-06760-043010FM-12+013899999V0200901N001012200019N0040001N1+03021+02211101231ADDAA199000091GF102991021011008001001001KA1240N+02411MA1999999099671MD1999999-0141REMSYN076AAXX  02124 82678 32596 20902 10302 20221 39967 40123 82100 333 20241 59014;EQDQ01  00002PRCP99
0167826780999992001120218004-06760-043010FM-12+013899999V0202701N000510450019N0040001N1+03561+02111100761ADDAA199000091GF106991041021008001031001MA1999999099221MD1999999-0121REMSYN070AAXX  02184 82678 32596 62701 10356 20211 39922 40076 84230 333 59012;EQDQ01  00002PRCP99
0198826780999992001120300004-06760-043010FM-12+013899999V0202301N001012200019N0002001N1+02981+02331100881ADDAA199000091GF104991021001017501031011KA1240M+03591MA1999999099331MD1999999-0141REMSYN088AAXX  03004 82678 32792 42302 10298 20233 39933 40088 82031 333 10359 29060 55105 59014;EQDQ01  00002PRCP99
0201826780999992001120312004-06760-043010FM-12+013899999V0202701N001010075019N0040001N1+02521+02361101281ADDAA124022191AY161061AY221061GF108991051051008001021999KA1240N+02391MA1999999099711MD1999999+0041MW1611REMSYN088AAXX  03124 82678 21596 82702 10252 20236 39971 40128 76162 8552/ 333 20239 58004 60224;
0182826780999992001120318004-06760-043010FM-12+013899999V0202701N001010075019N0040001N1+02681+02411100981ADDAA106021191AY161061AY211061GF108991061051008001021011MA1999999099401MD1999999+0181MW1611REMSYN082AAXX  03184 82678 21596 82702 10268 20241 39940 40098 76161 86521 333 58018 60211;
0179826780999992001120400004-06760-043010FM-12+013899999V0202301N001010075019N0002001N1+02521+02331101201ADDAA199000021GF108991051051008001021999KA1240M+03011MA1999999099611MD1999999+0281REMSYN088AAXX  04004 82678 32592 82302 10252 20233 39961 40120 8552/ 333 10301 29088 55000 58028;
0201826780999992001120412004-06760-043010FM-12+013899999V0209999C000010075019N0040001N1+02341+02261101551ADDAA124043991AY161061AY211061GF108991061051008001021999KA1240N+02241MA1999999099951MD1999999+0241MW1611REMSYN088AAXX  04124 82678 21596 80000 10234 20226 39995 40155 76161 8652/ 333 20224 58024 60444;
0182826780999992001120418004-06760-043010FM-12+013899999V0202301N001510075019N0040001N1+02441+02301101281ADDAA106007991AY161061AY231061GF108991051051008001021999MA1999999099681MD1999999+0281MW1611REMSYN082AAXX  04184 82678 21596 82303 10244 20230 39968 40128 76163 8552/ 333 58028 60081;
0213826780999992001120500004-06760-043010FM-12+013899999V0209999C000010075019N0002001N1+02341+02261101241ADDAA106000591AY161061AY211061GF108991051051008001021011KA1240M+02541MA1999999099741MD1999999+0131MW1021REMSYN100AAXX  05004 82678 21592 80000 10234 20226 39974 40124 70261 85521 333 10254 29094 55000 58013 69941;
0173826780999992001120512004-06760-043010FM-12+013899999V0200501N000510075019N0040001N1+02461+02251101451ADDAA124007991GF108991071051008001021999KA1240N+02161MA1999999099851MD1999999-0101REMSYN082AAXX  05124 82678 22596 80501 10246 20225 39985 40145 8752/ 333 20216 59010 60084;
0167826780999992001120518004-06760-043010FM-12+013899999V0200901N001510075019N0040001N1+02961+02261101171ADDAA199000091GF108991061051008001071999MA1999999099591MD1999999-0091REMSYN070AAXX  05184 82678 32596 80903 10296 20226 39959 40117 8657/ 333 59009;EQDQ01  00002PRCP99
0198826780999992001120600004-06760-043010FM-12+013899999V0209999C000010075019N0002001N1+02661+02441101141ADDAA199000091GF108991071051008001021999KA1240M+03011MA1999999099561MD1999999-0181REMSYN088AAXX  06004 82678 32592 80000 10266 20244 39956 40114 8752/ 333 10301 29082 55017 59018;EQDQ01  00002PRCP99
0201826780999992001120612004-06760-043010FM-12+013899999V0200501N000510075019N0040001N1+02621+02411101411ADDAA124000591AY161061AY221061GF108991061051008001021999KA1240N+02351MA1999999099851MD1999999-0021MW1021REMSYN088AAXX  06124 82678 21596 80501 10262 20241 39985 40141 70262 8652/ 333 20235 59002 69944;
0167826780999992001120618004-06760-043010FM-12+013899999V0200501N000510075019N0040001N1+03301+02091100991ADDAA199000091GF106991061051008001001001MA1999999099431MD1999999-0161REMSYN070AAXX  06184 82678 32596 60501 10330 20209 39943 40099 86500 333 59016;EQDQ01  00002PRCP99
0208826780999992001120700004-06760-043010FM-12+013899999V0209999C000012200019N0002001N1+02721+02321101041ADDAA199000091GA1001+999999999GF100991001001999999001001KA1240M+03391MA1999999099461MD1999999-0101REMSYN082AAXX  07004 82678 32992 00000 10272 20232 39946 40104 333 10339 29074 55081 59010;EQDQ01  00002PRCP99
0186826780999992001120712004-06760-043010FM-12+013899999V0200901N001012200019N0040001N1+02941+02031101211ADDAA199000091GF103991021011008001001011KA1240N+02321MA1999999099651MD1999999-0181REMSYN076AAXX  07124 82678 32596 30902 10294 20203 39965 40121 82101 333 20232 59018;EQDQ01  00002PRCP99
0167826780999992001120718004-06760-043010FM-12+013899999V0201401N001512200019N0040001N1+03441+01881100791ADDAA199000091GF104991021021008001001011MA1999999099241MD1999999-0191REMSYN070AAXX  07184 82678 32596 41403 10344 20188 39924 40079 82201 333 59019;EQDQ01  00002PRCP99
0186826780999992001121012004-06760-043010FM-12+013899999V0201401N001511050019N0040001N1+03041+01881101311ADDAA199000091GF105991031021008001001021KA1240N+02401MA1999999099751MD1999999+0001REMSYN076AAXX  10124 82678 32596 51403 10304 20188 39975 40131 83202 333 20240 58000;EQDQ01  00002PRCP99
0167826780999992001121018004-06760-043010FM-12+013899999V0201801N002111050019N0040001N1+03461+02061100911ADDAA199000091GF105991031031008001001021MA1999999099361MD1999999-0011REMSYN070AAXX  10184 82678 32596 51804 10346 20206 39936 40091 83302 333 59001;EQDQ01  00002PRCP99
0198826780999992001121100004-06760-043010FM-12+013899999V0201401N000512200019N0002001N1+02801+02181101121ADDAA199000091GF102991021001017501031001KA1240M+03541MA1999999099561MD1999999+0091REMSYN088AAXX  11004 82678 32792 21401 10280 20218 39956 40112 82030 333 10354 29058 55110 58009;EQDQ01  00002PRCP99
0167826780999992001121118004-06760-043010FM-12+013899999V0201801N000511050019N0040001N1+03421+02021100991ADDAA199000091GF106991031051008001001021MA1999999099441MD1999999+0081REMSYN070AAXX  11184 82678 32596 61801 10342 20202 39944 40099 83502 333 58008;EQDQ01  00002PRCP99
0223826780999992001121200004-06760-043010FM-12+013899999V0209999C000012200019N0002001N1+02521+02421101121ADDAA106003091AY161061AY221061GA1001+999999999GF100991001001999999001001KA1240M+03511MA1999999099541MD1999999-0021MW1011REMSYN094AAXX  12004 82678 21992 00000 10252 20242 39954 40112 70162 333 10351 29075 55051 59002 60031;
0201826780999992001121212004-06760-043010FM-12+013899999V0209999C000010075019N0040001N1+02641+02331101351ADDAA124004191AY161061AY221061GF108991061051008001021999KA1240N+02311MA1999999099771MD1999999-0061MW1031REMSYN088AAXX  12124 82678 21596 80000 10264 20233 39977 40135 70362 8652/ 333 20231 59006 60044;
0167826780999992001121218004-06760-043010FM-12+013899999V0201401N003610075019N0040001N1+03081+02241100851ADDAA199000091GF108991051051008001031999MA1999999099281MD1999999-0161REMSYN070AAXX  12184 82678 32596 81407 10308 20224 39928 40085 8553/ 333 59016;EQDQ01  00002PRCP99
0214826780999992001121300004-06760-043010FM-12+013899999V0209999C000012200019N0002001N1+02741+02451100981ADDAA199000091GF104991999011008001001001KA1240M+03441MA1999999099411MD1999999-0131REMSYN088AAXX  13004 82678 32592 40000 10274 20245 39941 40098 82100 333 10344 29078 55066 59013;EQDQ01+000022SCOTLCQ02  00002PRCP99
0186826780999992001121312004-06760-043010FM-12+013899999V0200901N001010450019N0040001N1+02801+02291101221ADDAA199000091GF106991031081008001031011KA1240N+02381MA1999999099651MD1999999-0121REMSYN076AAXX  13124 82678 32596 60902 10280 20229 39965 40122 83831 333 20238 59012;EQDQ01  00002PRCP99
0167826780999992001121318004-06760-043010FM-12+013899999V0200901N001511050019N0040001N1+03461+02061100711ADDAA199000091GF106991031021008001001021MA1999999099161MD1999999-0121REMSYN070AAXX  13184 82678 32596 60903 10346 20206 39916 40071 83202 333 59012;EQDQ01  00002PRCP99
0198826780999992001121400004-06760-043010FM-12+013899999V0209999C000010075019N0002001N1+02881+02391100831ADDAA199000091GF106991061041008001001001KA1240M+03551MA1999999099271MD1999999-0141REMSYN088AAXX  14004 82678 32592 60000 10288 20239 39927 40083 86400 333 10355 29067 55089 59014;EQDQ01  00002PRCP99
0186826780999992001121412004-06760-043010FM-12+013899999V0200501N000512200019N0040001N1+02961+01991101211ADDAA199000091GF104991021011008001001021KA1240N+02261MA1999999099651MD1999999+0001REMSYN076AAXX  14124 82678 32596 40501 10296 20199 39965 40121 82102 333 20226 58000;EQDQ01  00002PRCP99
0167826780999992001121418004-06760-043010FM-12+013899999V0200901N001511050019N0040001N1+03601+01941100711ADDAA199000091GF106991041021008001001021MA1999999099161MD1999999+0001REMSYN070AAXX  14184 82678 32596 60903 10360 20194 39916 40071 84202 333 58000;EQDQ01  00002PRCP99
0208826780999992001121500004-06760-043010FM-12+013899999V0209999C000012200019N0002001N1+02861+02141100881ADDAA199000091GA1001+999999999GF100991001001999999001001KA1240M+03711MA1999999099321MD1999999+0051REMSYN082AAXX  15004 82678 32992 00000 10286 20214 39932 40088 333 10371 29056 55100 58005;EQDQ01  00002PRCP99
0186826780999992001121512004-06760-043010FM-12+013899999V0209999C000012200019N0040001N1+03021+02041101291ADDAA199000091GF105991041021008001001011KA1240N+02281MA1999999099731MD1999999+0081REMSYN076AAXX  15124 82678 32596 50000 10302 20204 39973 40129 84201 333 20228 58008;EQDQ01  00002PRCP99
0167826780999992001121518004-06760-043010FM-12+013899999V0201801N001511050019N0040001N1+03721+01771100761ADDAA199000091GF105991031021008001001021MA1999999099221MD1999999+0061REMSYN070AAXX  15184 82678 32596 51803 10372 20177 39922 40076 83202 333 58006;EQDQ01  00002PRCP99
0213826780999992001121600004-06760-043010FM-12+013899999V0209999C000012200019N0002001N1+02681+02331100951ADDAA106002091AY161061AY221061GF103991021021008001031999KA1240M+03761MA1999999099391MD1999999+0071MW1021REMSYN100AAXX  16004 82678 21592 30000 10268 20233 39939 40095 70262 8223/ 333 10376 29062 55091 58007 60021;
0173826780999992001121612004-06760-043010FM-12+013899999V0200501N001012200019N0040001N1+03041+02201101331ADDAA124002091GF104991041011008001001001KA1240N+02391MA1999999099761MD1999999+0031REMSYN082AAXX  16124 82678 22596 40502 10304 20220 39976 40133 84100 333 20239 58003 60024;
0167826780999992001121618004-06760-043010FM-12+013899999V0200901N003610120019N0040001N1+03611+01941100751ADDAA199000091GF106991051081008001031001MA1999999099181MD1999999-0011REMSYN070AAXX  16184 82678 32596 60907 10361 20194 39918 40075 85830 333 59001;EQDQ01  00002PRCP99
0214826780999992001121700004-06760-043010FM-12+013899999V0202301N001512200019N0002001N1+02901+02301100971ADDAA199000091GF102991999021008001001001KA1240M+03711MA1999999099391MD1999999+0001REMSYN088AAXX  17004 82678 32592 22303 10290 20230 39939 40097 85200 333 10371 29060 55093 58000;EQDQ01+000052SCOTLCQ02  00002PRCP99
0186826780999992001121712004-06760-043010FM-12+013899999V0200501N000511050019N0040001N1+03001+02171101231ADDAA199000091GF105991021011008001001021KA1240N+02401MA1999999099671MD1999999-0091REMSYN076AAXX  17124 82678 32596 50501 10300 20217 39967 40123 82102 333 20240 59009;EQDQ01  00002PRCP99
0167826780999992001121718004-06760-043010FM-12+013899999V0200501N001012200019N0040001N1+03621+01961100761ADDAA199000091GF107991041051008001001041MA1999999099221MD1999999+0011REMSYN070AAXX  17184 82678 32596 70502 10362 20196 39922 40076 84504 333 58001;EQDQ01  00002PRCP99
0198826780999992001121800004-06760-043010FM-12+013899999V0200901N000510075019N0002001N1+02981+02091100921ADDAA199000091GF106991061051008001001001KA1240M+03711MA1999999099401MD1999999+0011REMSYN088AAXX  18004 82678 32592 60901 10298 20209 39940 40092 86500 333 10371 29054 55094 58001;EQDQ01  00002PRCP99
0186826780999992001121812004-06760-043010FM-12+013899999V0200901N001512200019N0040001N1+03061+02051101201ADDAA199000091GF104991021011008001001011KA1240N+02581MA1999999099741MD1999999+0071REMSYN076AAXX  18124 82678 32596 40903 10306 20205 39974 40120 82101 333 20258 58007;EQDQ01  00002PRCP99
0167826780999992001121818004-06760-043010FM-12+013899999V0200501N002612200019N0040001N1+03741+01691100781ADDAA199000091GF104991031021008001001011MA1999999099251MD1999999+0031REMSYN070AAXX  18184 82678 32596 40505 10374 20169 39925 40078 83201 333 58003;EQDQ01  00002PRCP99
0208826780999992001121900004-06760-043010FM-12+013899999V0209999C000012200019N0002001N1+02941+02051101001ADDAA199000091GA1001+999999999GF100991001001999999001001KA1240M+03781MA1999999099451MD1999999+0051REMSYN082AAXX  19004 82678 32992 00000 10294 20205 39945 40100 333 10378 29051 55092 58005;EQDQ01  00002PRCP99
0186826780999992001121912004-06760-043010FM-12+013899999V0200501N001012200019N0040001N1+03111+02001101321ADDAA199000091GF102991011011008001001011KA1240N+02361MA1999999099761MD1999999+0021REMSYN076AAXX  19124 82678 32596 20502 10311 20200 39976 40132 81101 333 20236 58002;EQDQ01  00002PRCP99
0167826780999992001121918004-06760-043010FM-12+013899999V0200501N001010075019N0040001N1+03721+01821100861ADDAA199000091GF107991061021008001001021MA1999999099321MD1999999+0071REMSYN070AAXX  19184 82678 32596 70502 10372 20182 39932 40086 86202 333 58007;EQDQ01  00002PRCP99
0198826780999992001122000004-06760-043010FM-12+013899999V0202701N001012200019N0002001N1+03221+01981101071ADDAA199000091GF104991041041008001001001KA1240M+03811MA1999999099531MD1999999+0081REMSYN088AAXX  20004 82678 32592 42702 10322 20198 39953 40107 84400 333 10381 29045 55086 58008;EQDQ01  00002PRCP99
0186826780999992001122012004-06760-043010FM-12+013899999V0200501N001512200019N0040001N1+03081+02071101321ADDAA199000091GF104991021011017501031021KA1240N+02521MA1999999099771MD1999999+0011REMSYN076AAXX  20124 82678 32796 40503 10308 20207 39977 40132 82132 333 20252 58001;EQDQ01  00002PRCP99
0167826780999992001122018004-06760-043010FM-12+013899999V0200501N001510075019N0040001N1+03681+01931100781ADDAA199000091GF107991051051008001001021MA1999999099251MD1999999-0071REMSYN070AAXX  20184 82678 32596 70503 10368 20193 39925 40078 85502 333 59007;EQDQ01  00002PRCP99
0198826780999992001122100004-06760-043010FM-12+013899999V0202701N000512200019N0020001N1+03001+02051100971ADDAA199000091GF104991041021008001001001KA1240M+03871MA1999999099421MD1999999-0111REMSYN088AAXX  21004 82678 32595 42701 10300 20205 39942 40097 84200 333 10387 29051 55100 59011;EQDQ01  00002PRCP99
0186826780999992001122112004-06760-043010FM-12+013899999V0202301N001012200019N0040001N1+02981+02281101391ADDAA199000091GF105991031031008001001011KA1240N+02441MA1999999099831MD1999999+0061REMSYN076AAXX  21124 82678 32596 52302 10298 20228 39983 40139 83301 333 20244 58006;EQDQ01  00002PRCP99
0167826780999992001122118004-06760-043010FM-12+013899999V0202301N002112200019N0040001N1+03681+01931100821ADDAA199000091GF104991031021008001001021MA1999999099281MD1999999+0031REMSYN070AAXX  21184 82678 32596 42304 10368 20193 39928 40082 83202 333 58003;EQDQ01  00002PRCP99
0213826780999992001122200004-06760-043010FM-12+013899999V0201401N001510075019N0002001N1+02641+02231101181ADDAA106003091AY161061AY211061GF108991051021008001031999KA1240M+03761MA1999999099611MD1999999+0191MW1021REMSYN100AAXX  22004 82678 21592 81403 10264 20223 39961 40118 70261 8523/ 333 10376 29064 55090 58019 60031;
0173826780999992001122212004-06760-043010FM-12+013899999V0202701N001510075019N0040001N1+02741+02301101501ADDAA124003091GF108991081051008001999999KA1240N+02461MA1999999099921MD1999999+0091REMSYN082AAXX  22124 82678 22596 82703 10274 20230 39992 40150 885// 333 20246 58009 60034;
0167826780999992001122218004-06760-043010FM-12+013899999V0202701N001510120019N0040001N1+03381+02191100961ADDAA199000091GF108991051081008001031021MA1999999099411MD1999999+0131REMSYN070AAXX  22184 82678 32596 82703 10338 20219 39941 40096 85832 333 58013;EQDQ01  00002PRCP99
0198826780999992001122300004-06760-043010FM-12+013899999V0209999C000012200019N9999999N1+02721+02371101261ADDAA199000091GF103991031021017501001001KA1240M+03441MA1999999099691MD1999999+0081REMSYN088AAXX  23004 82678 327// 30000 10272 20237 39969 40126 83200 333 10344 29072 55043 58008;EQDQ01  00002PRCP99
0186826780999992001122312004-06760-043010FM-12+013899999V0202701N001010450019N0040001N1+02901+02341101511ADDAA199000091GF107991041051008001031011KA1240N+02441MA1999999099941MD1999999+0221REMSYN076AAXX  23124 82678 32596 72702 10290 20234 39994 40151 84531 333 20244 58022;EQDQ01  00002PRCP99
0167826780999992001122318004-06760-043010FM-12+013899999V0202301N001012200019N0040001N1+03221+02261101091ADDAA199000091GF107991031051008001001041MA1999999099531MD1999999+0121REMSYN070AAXX  23184 82678 32596 72302 10322 20226 39953 40109 83504 333 58012;EQDQ01  00002PRCP99
0192826780999992001122400004-06760-043010FM-12+013899999V0209999C000019999999N0002001N1+02861+02351101141ADDAA199000091GF105991999999999999999999KA1240M+03311MA1999999099581MD1999999-0111REMSYN082AAXX  24004 82678 32992 50000 10286 20235 39958 40114 333 10331 29069 55054 59011;EQDQ01  00002PRCP99
0186826780999992001122412004-06760-043010FM-12+013899999V0200901N001011050019N0040001N1+02921+02411101521ADDAA199000091GF105991031021008001001021KA1240N+02341MA1999999099621MD1999999+0021REMSYN076AAXX  24124 82678 32596 50902 10292 20241 39962 40152 83202 333 20234 58002;EQDQ01  00002PRCP99
0167826780999992001122418004-06760-043010FM-12+013899999V0200501N000510450019N0040001N1+03621+01961100961ADDAA199000091GF105991031021008001031021MA1999999099411MD1999999-0121REMSYN070AAXX  24184 82678 32596 50501 10362 20196 39941 40096 83232 333 59012;EQDQ01  00002PRCP99
0192826780999992001122500004-06760-043010FM-12+013899999V0209999C000012200019N0002001N1+03001+01971101221ADDAA199000091GF104991999999999999999999KA1240M+03741MA1999999099661MD1999999+0081REMSYN082AAXX  25004 82678 32992 40000 10300 20197 39966 40122 333 10374 29055 55082 58008;EQDQ01  00002PRCP99
0186826780999992001122512004-06760-043010FM-12+013899999V0203201N001010450019N0040001N1+02971+02181101481ADDAA199000091GF106991031021008001031001KA1240N+02401MA1999999099921MD1999999-0041REMSYN076AAXX  25124 82678 32596 63202 10297 20218 39992 40148 83230 333 20240 59004;EQDQ01  00002PRCP99
0167826780999992001122518004-06760-043010FM-12+013899999V0200901N001510075019N0040001N1+03671+01821100871ADDAA199000091GF106991061021008001001001MA1999999099331MD1999999-0081REMSYN070AAXX  25184 82678 32596 60903 10367 20182 39933 40087 86200 333 59008;EQDQ01  00002PRCP99
0198826780999992001122600004-06760-043010FM-12+013899999V0202701N001510150019N0002001N1+03001+01941101111ADDAA199000091GF107991051001017501031021KA1240M+03761MA1999999099561MD1999999-0101REMSYN088AAXX  26004 82678 32792 72703 10300 20194 39956 40111 85032 333 10376 29051 55085 59010;EQDQ01  00002PRCP99
0186826780999992001122612004-06760-043010FM-12+013899999V0200901N001012200019N0040001N1+03081+02101101381ADDAA199000091GF103991011011008001031011KA1240N+02361MA1999999099831MD1999999-0091REMSYN076AAXX  26124 82678 32596 30902 10308 20210 39983 40138 81131 333 20236 59009;EQDQ01  00002PRCP99
0167826780999992001122618004-06760-043010FM-12+013899999V0202301N001510075019N0040001N1+03661+01821100831ADDAA199000091GF106991061021008001001001MA1999999099291MD1999999-0041REMSYN070AAXX  26184 82678 32596 62303 10366 20182 39929 40083 86200 333 59004;EQDQ01  00002PRCP99
0198826780999992001122700004-06760-043010FM-12+013899999V0209999C000010450019N0002001N1+02861+02151101031ADDAA199000091GF105991031051008001031001KA1240M+03871MA1999999099471MD1999999-0091REMSYN088AAXX  27004 82678 32592 50000 10286 20215 39947 40103 83530 333 10387 29056 55095 59009;EQDQ01  00002PRCP99
0186826780999992001122712004-06760-043010FM-12+013899999V0209999C000012200019N0040001N1+03101+02291101391ADDAA199000091GF104991021021008001001011KA1240N+02501MA1999999099831MD1999999+0001REMSYN076AAXX  27124 82678 32596 40000 10310 20229 39983 40139 82201 333 20250 58000;EQDQ01  00002PRCP99
0167826780999992001122718004-06760-043010FM-12+013899999V0209999C000010075019N0040001N1+03641+01891100891ADDAA199000091GF108991051021008001001021MA1999999099341MD1999999+0051REMSYN070AAXX  27184 82678 32596 80000 10364 20189 39934 40089 85202 333 58005;EQDQ01  00002PRCP99
0213826780999992001122800004-06760-043010FM-12+013899999V0209999C000010075019N0002001N1+02361+02221101331ADDAA106007991AY161061AY291061GF108991051051008001021999KA1240M+03611MA1999999099761MD1999999+0291MW1611REMSYN100AAXX  28004 82678 21592 80000 10236 20222 39976 40133 76169 8552/ 333 10361 29070 55087 58029 60081;
0212826780999992001122812004-06760-043010FM-12+013899999V0200901N000510075019N0002001N1+02401+02261101821ADDAJ199999999999999AY161061AY261061GF108991081051008001999999IA1179KA1240N+02261MA1999999100221MW1021REMSYN082AAXX  28124 82678 21592 80901 10240 20226 30022 40182 70266 885// 333 20226 40124;EQDQ01  01242SNDP  
0182826780999992001122818004-06760-043010FM-12+013899999V0201801N001510075019N0040001N1+02801+02311101361ADDAA106000191AY121061AY261061GF108991061051008001021999MA1999999099771MD1999999+0431MW1021REMSYN082AAXX  28184 82678 21596 81803 10280 20231 39977 40136 70226 8652/ 333 58043 69921;
0214826780999992001122900004-06760-043010FM-12+013899999V0201801N002119999999N0005001N1+02571+02311101411ADDAA199000091GF108991999021008001001001KA1240M+02911MA1999999099821MD1999999+0061REMSYN088AAXX  29004 82678 32593 81804 10257 20231 39982 40141 84200 333 10291 29085 55011 58006;EQDQ01+000042SCOTLCQ02  00002PRCP99
0201826780999992001122912004-06760-043010FM-12+013899999V0209999C000010075019N0040001N1+02401+02381101591ADDAA124006191AY161061AY221061GF108991061051008001021999KA1240N+02321MA1999999100001MD1999999-0221MW1611REMSYN088AAXX  29124 82678 21596 80000 10240 20238 30000 40159 76162 8652/ 333 20232 59022 60064;
0148826780999992001122918004-06760-043010FM-12+013899999V0200501N001012200019N0040001N1+03141+02211101121ADDAA199000021GF105991031021008001001011MA1999999099551MD1999999-0221REMSYN070AAXX  29184 82678 32596 50502 10314 20221 39955 40112 83201 333 59022;
0179826780999992001123000004-06760-043010FM-12+013899999V0201801N001010075019N0002001N1+02661+02221101291ADDAA199000021GF107991051051008001031001KA1240M+03291MA1999999099701MD1999999-0121REMSYN088AAXX  30004 82678 32592 71802 10266 20222 39970 40129 85530 333 10329 29077 55040 59012;
0201826780999992001123012004-06760-043010FM-12+013899999V0200901N000510075019N0040001N1+02401+02311101521ADDAA124002091AY161061AY211061GF108991081051008001999999KA1240N+02321MA1999999099931MD1999999-0071MW1021REMSYN088AAXX  30124 82678 21596 80901 10240 20231 39993 40152 70261 885// 333 20232 59007 60024;
0182826780999992001123018004-06760-043010FM-12+013899999V0200901N000510075019N0040001N1+02521+02401101261ADDAA106001091AY161061AY211061GF108991081051008001999999MA1999999099671MD1999999+0121MW1611REMSYN082AAXX  30184 82678 21596 80901 10252 20240 39967 40126 76161 885// 333 58012 60011;
0213826780999992001123100004-06760-043010FM-12+013899999V0202301N000510075019N0002001N1+02421+02331101321ADDAA106000191AY161061AY211061GF108991081051008001999999KA1240M+02721MA1999999099721MD1999999+0021MW1021REMSYN100AAXX  31004 82678 21592 82301 10242 20233 39972 40132 70261 885// 333 10272 29095 55000 58002 69921;
0173826780999992001123112004-06760-043010FM-12+013899999V0200901N001510075019N0040001N1+02541+02311101421ADDAA124004191GF108991061051008001031999KA1240N+02301MA1999999099831MD1999999-0101REMSYN082AAXX  31124 82678 22596 80903 10254 20231 39983 40142 8653/ 333 20230 59010 60044;
0167826780999992001123118004-06760-043010FM-12+013899999V0201401N002610450019N0040001N1+02811+02201101151ADDAA199000091GF108991031051008001031999MA1999999099571MD1999999-0101REMSYN070AAXX  31184 82678 32596 81405 10281 20220 39957 40115 8353/ 333 59010;EQDQ01  00002PRCP99
