0236827650999992001010100004-07320-047460FM-12+021299999V0209999C000019999999N0200001N1+02361+02071101521ADDAA199000091AY191061AY291061GA1091+999999999GF109991091999999999999999KA1240M+03061MA1999999099091MD1999999+0161MW1131REMSYN088AAXX  01004 82765 31/98 90000 10236 20207 39909 40152 71399 333 10306 29083 55042 58016;EQDQ01  00002PRCP99
0201827650999992001010112004-07320-047460FM-12+021299999V0200901N001510075019N0200001N1+02341+02181101801ADDAA124000891AY151061AY251061GF108991061051008001021999KA1240N+02251MA1999999099371MD1999999+0051MW1511REMSYN088AAXX  01124 82765 21598 80903 10234 20218 39937 40180 75155 8652/ 333 20225 58005 69984;
0160827650999992001010118004-07320-047460FM-12+021299999V0203601N001510450019N0200001N1+02841+02191101391ADDAA106000891GF105991041011008001041001MA1999999098991MD1999999+0051REMSYN082AAXX  01184 82765 21598 53603 10284 20219 39899 40139 7//55 84140 333 58005 69981;
0189827650999992001010200004-07320-047460FM-12+021299999V0209999C000019999999N0200001N1+02641+02351101541ADDAA199000021GA1091+999999999GF109991091999999999999999KA1240M+02881MA1999999099131MD1999999+0041REMSYN082AAXX  02004 82765 32/98 90000 10264 20235 39913 40154 333 10288 29082 55022 58004;
0179827650999992001010212004-07320-047460FM-12+021299999V0209999C000010120019N0200001N1+02581+02371101711ADDAA124001091GF106991051081008001041001KA1240N+02311MA1999999099301MD1999999-0071REMSYN088AAXX  02124 82765 21598 60000 10258 20237 39930 40171 7//55 85840 333 20231 59007 69994;
0182827650999992001010218004-07320-047460FM-12+021299999V0200501N003610075019N0200001N1+02461+02281101451ADDAA106017091AY161061AY261061GF108991081051008001999999MA1999999099041MD1999999+0051MW1641REMSYN082AAXX  02184 82765 21598 80507 10246 20228 39904 40145 76466 885// 333 58005 60171;
0201827650999992001010300004-07320-047460FM-12+021299999V0209999C000019999999N0200001N1+02361+02241101571ADDAA106014091GA1091+999999999GF109991091999999999999999KA1240M+03241MA1999999099151MD1999999+0021REMSYN094AAXX  03004 82765 21/98 90000 10236 20224 39915 40157 7//66 333 10324 29090 55054 58002 60141;
0179827650999992001010312004-07320-047460FM-12+021299999V0209999C000010120019N0200001N1+02381+02261101811ADDAA124031091GF107991051081008001041001KA1240N+02291MA1999999099381MD1999999+0081REMSYN088AAXX  03124 82765 21598 70000 10238 20226 39938 40181 7//55 85840 333 20229 58008 60314;
0167827650999992001010318004-07320-047460FM-12+021299999V0201801N001010450019N0200001N1+03061+02401101321ADDAA199000091GF105991041021008001041001MA1999999098931MD1999999-0111REMSYN070AAXX  03184 82765 32598 51802 10306 20240 39893 40132 84240 333 59011;EQDQ01  00002PRCP99
0208827650999992001010400004-07320-047460FM-12+021299999V0209999C000019999999N0200001N1+02821+02461101381ADDAA199000091GA1091+999999999GF109991091999999999999999KA1240M+03201MA1999999098981MD1999999-0171REMSYN082AAXX  04004 82765 32/98 90000 10282 20246 39898 40138 333 10320 29081 55065 59017;EQDQ01  00002PRCP99
0186827650999992001010412004-07320-047460FM-12+021299999V0209999C000012200019N0200001N1+02701+02261101661ADDAA199000091GF102991011011008001031001KA1240N+02291MA1999999099271MD1999999-0111REMSYN076AAXX  04124 82765 32598 20000 10270 20226 39927 40166 81130 333 20229 59011;EQDQ01  00002PRCP99
0167827650999992001010418004-07320-047460FM-12+021299999V0201801N000510450019N0200001N1+03281+02261101181ADDAA199000091GF105991031021008001041001MA1999999098811MD1999999-0121REMSYN070AAXX  04184 82765 32598 51801 10328 20226 39881 40118 83240 333 59012;EQDQ01  00002PRCP99
0198827650999992001010500004-07320-047460FM-12+021299999V0209999C000012200019N0200001N1+02721+02321101341ADDAA199000091GF103991021011008001031001KA1240M+03341MA1999999098951MD1999999-0031REMSYN088AAXX  05004 82765 32598 30000 10272 20232 39895 40134 82130 333 10334 29072 55100 59003;EQDQ01  00002PRCP99
0160827650999992001010518004-07320-047460FM-12+021299999V0201401N001510450019N0200001N1+03141+02241101251ADDAA106001091GF106991041021008001041001MA1999999098871MD1999999+0061REMSYN082AAXX  05184 82765 21598 61403 10314 20224 39887 40125 7//55 84240 333 58006 60011;
0198827650999992001010600004-07320-047460FM-12+021299999V0209999C000010450019N0200001N1+02741+02501101421ADDAA199000091GF106991041021008001041001KA1240M+03201MA1999999099021MD1999999+0071REMSYN088AAXX  06004 82765 32598 60000 10274 20250 39902 40142 84240 333 10320 29081 55062 58007;EQDQ01  00002PRCP99
0173827650999992001010612004-07320-047460FM-12+021299999V0209999C000010120019N0200001N1+02581+02381101631ADDAA124001091GF108991081081008001999999KA1240N+02311MA1999999099231MD1999999+0151REMSYN082AAXX  06124 82765 22598 80000 10258 20238 39923 40163 888// 333 20231 58015 60014;
0173827650999992001010618004-07320-047460FM-12+021299999V0200901N003110075019N0200001N1+03081+02421101211ADDAA199000091GF107991051021008001041001MA1999999098841MD1999999-0401REMSYN076AAXX  06184 82765 31598 70906 10308 20242 39884 40121 7//99 85240 333 59040;EQDQ01  00002PRCP99
0198827650999992001010700004-07320-047460FM-12+021299999V0209999C000010450019N0200001N1+02761+02481101371ADDAA199000091GF106991041021008001031001KA1240M+03161MA1999999098991MD1999999+0031REMSYN088AAXX  07004 82765 32598 60000 10276 20248 39899 40137 84230 333 10316 29082 55062 58003;EQDQ01  00002PRCP99
0186827650999992001010712004-07320-047460FM-12+021299999V0209999C000010450019N0200001N1+02721+02471101451ADDAA199000091GF105991041021008001041001KA1240N+02331MA1999999099061MD1999999-0171REMSYN076AAXX  07124 82765 32598 50000 10272 20247 39906 40145 84240 333 20233 59017;EQDQ01  00002PRCP99
0160827650999992001010718004-07320-047460FM-12+021299999V0209999C000010075019N0200001N1+02841+02401101131ADDAA106001091GF107991051021008001031001MA1999999098751MD1999999-0091REMSYN082AAXX  07184 82765 21598 70000 10284 20240 39875 40113 7//95 85230 333 59009 60011;
0210827650999992001010800004-07320-047460FM-12+021299999V0209999C000010450019N0200001N1+02661+02431101271ADDAA199000091GF106991031011008001031001KA1240M+03141MA1999999098881MD1999999-0111MW1131REMSYN094AAXX  08004 82765 31598 60000 10266 20243 39888 40127 713// 83130 333 10314 29084 55044 59011;EQDQ01  00002PRCP99
0173827650999992001010812004-07320-047460FM-12+021299999V0203601N000510450019N0200001N1+02581+02341101491ADDAA124001091GF106991041081008001041001KA1240N+02331MA1999999099091MD1999999+0031REMSYN082AAXX  08124 82765 22598 63601 10258 20234 39909 40149 84840 333 20233 58003 60014;
0179827650999992001010818004-07320-047460FM-12+021299999V0200501N002110450019N0200001N1+03141+02431101021ADDAA199000091GF105991021031008001021001MA1999999098651MD1999999-0101MW1291REMSYN076AAXX  08184 82765 31598 50504 10314 20243 39865 40102 729// 82320 333 59010;EQDQ01  00002PRCP99
0179827650999992001010912004-07320-047460FM-12+021299999V0209999C000010450019N0200001N1+02541+02351101551ADDAA124000191GF107991031021008001021001KA1240N+02351MA1999999099131MD1999999+0041REMSYN088AAXX  09124 82765 21598 70000 10254 20235 39913 40155 7//55 83220 333 20235 58004 69924;
0167827650999992001010918004-07320-047460FM-12+021299999V0209999C000010450019N0200001N1+03021+02291101201ADDAA199000091GF107991041011008001021001MA1999999098821MD1999999+0171REMSYN070AAXX  09184 82765 32598 70000 10302 20229 39882 40120 84120 333 58017;EQDQ01  00002PRCP99
0214827650999992001011000004-07320-047460FM-12+021299999V0209999C000012200019N0200001N1+02741+02501101271ADDAA199000091GF104991999011008001001001KA1240M+03061MA1999999098881MD1999999+0061REMSYN088AAXX  10004 82765 32598 40000 10274 20250 39888 40127 83100 333 10306 29082 55014 58006;EQDQ01+000032SCOTLCQ02  00002PRCP99
0186827650999992001011012004-07320-047460FM-12+021299999V0209999C000010120019N0200001N1+02661+02331101541ADDAA199000091GF107991061081008001021001KA1240N+02411MA1999999099151MD1999999+0021REMSYN076AAXX  10124 82765 32598 70000 10266 20233 39915 40154 86820 333 20241 58002;EQDQ01  00002PRCP99
0179827650999992001011018004-07320-047460FM-12+021299999V0203201N001010450019N0200001N1+02841+02401101231ADDAA199000091GF106991031031008001041001MA1999999098841MD1999999+0021MW1291REMSYN076AAXX  10184 82765 31598 63202 10284 20240 39884 40123 729// 83340 333 58002;EQDQ01  00002PRCP99
0201827650999992001011100004-07320-047460FM-12+021299999V0202701N001019999999N0200001N1+02301+02091101441ADDAA106000891GA1091+999999999GF109991091999999999999999KA1240M+03081MA1999999099031MD1999999+0151REMSYN094AAXX  11004 82765 21/98 92702 10230 20209 39903 40144 7//95 333 10308 29084 55063 58015 69971;
0173827650999992001011112004-07320-047460FM-12+021299999V0209999C000010120019N0200001N1+02381+02211101741ADDAA124000891GF108991061081008001021999KA1240N+02251MA1999999099311MD1999999+0161REMSYN082AAXX  11124 82765 22598 80000 10238 20221 39931 40174 8682/ 333 20225 58016 69984;
0167827650999992001011118004-07320-047460FM-12+021299999V0200501N002110450019N0200001N1+03041+02431101331ADDAA199000091GF106991041081008001021001MA1999999098941MD1999999+0101REMSYN070AAXX  11184 82765 32598 60504 10304 20243 39894 40133 84820 333 58010;EQDQ01  00002PRCP99
0208827650999992001011200004-07320-047460FM-12+021299999V0209999C000019999999N0200001N1+02521+02251101391ADDAA199000091GA1091+999999999GF109991091999999999999999KA1240M+03061MA1999999098981MD1999999-0051REMSYN082AAXX  12004 82765 32/98 90000 10252 20225 39898 40139 333 10306 29082 55031 59005;EQDQ01  00002PRCP99
0186827650999992001011212004-07320-047460FM-12+021299999V0209999C000010075019N0200001N1+02521+02291101591ADDAA199000091GF107991051021008001021001KA1240N+02291MA1999999099181MD1999999-0131REMSYN076AAXX  12124 82765 32598 70000 10252 20229 39918 40159 85220 333 20229 59013;EQDQ01  00002PRCP99
0167827650999992001011218004-07320-047460FM-12+021299999V0209999C000010450019N0200001N1+02681+02301101291ADDAA199000091GF108991041021008001021999MA1999999098891MD1999999-0051REMSYN070AAXX  12184 82765 32598 80000 10268 20230 39889 40129 8422/ 333 59005;EQDQ01  00002PRCP99
0201827650999992001011300004-07320-047460FM-12+021299999V0209999C000019999999N0200001N1+02461+02171101441ADDAA106000191GA1091+999999999GF109991091999999999999999KA1240M+02901MA1999999099031MD1999999+0051REMSYN094AAXX  13004 82765 21/98 90000 10246 20217 39903 40144 7//55 333 10290 29082 55014 58005 69911;
0179827650999992001011312004-07320-047460FM-12+021299999V0209999C000010120019N0200001N1+02321+02091101751ADDAA124006191GF108991061081008001021999KA1240N+02171MA1999999099321MD1999999+0141REMSYN088AAXX  13124 82765 21598 80000 10232 20209 39932 40175 7//66 8682/ 333 20217 58014 60064;
0167827650999992001011318004-07320-047460FM-12+021299999V0209999C000010120019N0200001N1+02961+02831101341ADDAA199000091GF108991071081008001021999MA1999999098941MD1999999+0051REMSYN070AAXX  13184 82765 32598 80000 10296 20283 39894 40134 8782/ 333 58005;EQDQ01  00002PRCP99
0208827650999992001011400004-07320-047460FM-12+021299999V0209999C000019999999N0200001N1+02621+02351101421ADDAA199000091GA1091+999999999GF109991091999999999999999KA1240M+03021MA1999999099011MD1999999+0001REMSYN082AAXX  14004 82765 32/98 90000 10262 20235 39901 40142 333 10302 29080 55012 59000;EQDQ01  00002PRCP99
0186827650999992001011412004-07320-047460FM-12+021299999V0200501N001012200019N0200001N1+02641+02181101681ADDAA199000091GF102991021011008001001001KA1240N+02211MA1999999099281MD1999999-0041REMSYN076AAXX  14124 82765 32598 20502 10264 20218 39928 40168 82100 333 20221 59004;EQDQ01  00002PRCP99
0167827650999992001011418004-07320-047460FM-12+021299999V0200501N002112200019N0200001N1+03241+02191101341ADDAA199000091GF104991031021008001041001MA1999999098961MD1999999+0021REMSYN070AAXX  14184 82765 32598 40504 10324 20219 39896 40134 83240 333 58002;EQDQ01  00002PRCP99
0208827650999992001011500004-07320-047460FM-12+021299999V0209999C000019999999N0200001N1+02841+02311101301ADDAA199000091GA1091+999999999GF109991091999999999999999KA1240M+03301MA1999999098921MD1999999-0091REMSYN082AAXX  15004 82765 32/98 90000 10284 20231 39892 40130 333 10330 29069 55111 59009;EQDQ01  00002PRCP99
0186827650999992001011512004-07320-047460FM-12+021299999V0200501N001012200019N0200001N1+02721+02221101581ADDAA199000091GF103991021011008001041001KA1240N+02231MA1999999099201MD1999999-0081REMSYN076AAXX  15124 82765 32598 30502 10272 20222 39920 40158 82140 333 20223 59008;EQDQ01  00002PRCP99
0186827650999992001011612004-07320-047460FM-12+021299999V0209999C000010450019N0200001N1+02681+02311101511ADDAA199000091GF106991031011008001021001KA1240N+02331MA1999999099121MD1999999-0081REMSYN076AAXX  16124 82765 32598 60000 10268 20231 39912 40151 83120 333 20233 59008;EQDQ01  00002PRCP99
0167827650999992001011618004-07320-047460FM-12+021299999V0209999C000010450019N0200001N1+03021+02131101311ADDAA199000091GF107991041011008001021001MA1999999098931MD1999999+0081REMSYN070AAXX  16184 82765 32598 70000 10302 20213 39893 40131 84120 333 58008;EQDQ01  00002PRCP99
0208827650999992001011700004-07320-047460FM-12+021299999V0209999C000019999999N0200001N1+02701+02301101291ADDAA199000091GA1091+999999999GF109991091999999999999999KA1240M+03061MA1999999098901MD1999999-0021REMSYN082AAXX  17004 82765 32/98 90000 10270 20230 39890 40129 333 10306 29074 55032 59002;EQDQ01  00002PRCP99
0186827650999992001011712004-07320-047460FM-12+021299999V0209999C000012200019N0200001N1+02621+02311101541ADDAA199000091GF104991021011008001031001KA1240N+02251MA1999999099131MD1999999+0011REMSYN076AAXX  17124 82765 32598 40000 10262 20231 39913 40154 82130 333 20225 58001;EQDQ01  00002PRCP99
0167827650999992001011718004-07320-047460FM-12+021299999V0200501N003110450019N0200001N1+03361+02211101191ADDAA199000091GF106991041021008001041001MA1999999098821MD1999999-0111REMSYN070AAXX  17184 82765 32598 60506 10336 20221 39882 40119 84240 333 59011;EQDQ01  00002PRCP99
0208827650999992001011800004-07320-047460FM-12+021299999V0209999C000019999999N0200001N1+02821+02361101341ADDAA199000091GA1091+999999999GF109991091999999999999999KA1240M+03401MA1999999098951MD1999999+0051REMSYN082AAXX  18004 82765 32/98 90000 10282 20236 39895 40134 333 10340 29072 55080 58005;EQDQ01  00002PRCP99
0186827650999992001011812004-07320-047460FM-12+021299999V0209999C000012200019N0200001N1+02721+02301101561ADDAA199000091GF104991021011008001031001KA1240N+02471MA1999999099151MD1999999+0021REMSYN076AAXX  18124 82765 32598 40000 10272 20230 39915 40156 82130 333 20247 58002;EQDQ01  00002PRCP99
0167827650999992001011818004-07320-047460FM-12+021299999V0200501N001510450019N0200001N1+03341+02051101171ADDAA199000091GF106991041021008001041001MA1999999098811MD1999999-0011REMSYN070AAXX  18184 82765 32598 60503 10334 20205 39881 40117 84240 333 59001;EQDQ01  00002PRCP99
0208827650999992001011900004-07320-047460FM-12+021299999V0209999C000019999999N0200001N1+02821+02401101391ADDAA199000091GA1091+999999999GF109991091999999999999999KA1240M+03381MA1999999099011MD1999999+0061REMSYN082AAXX  19004 82765 32/98 90000 10282 20240 39901 40139 333 10338 29070 55081 58006;EQDQ01  00002PRCP99
0167827650999992001011918004-07320-047460FM-12+021299999V0200501N001010450019N0200001N1+03361+02171101321ADDAA199000091GF106991041021008001041001MA1999999098941MD1999999+0131REMSYN070AAXX  19184 82765 32598 60502 10336 20217 39894 40132 84240 333 58013;EQDQ01  00002PRCP99
0208827650999992001012000004-07320-047460FM-12+021299999V0209999C000019999999N0200001N1+02701+02261101511ADDAA199000091GA1091+999999999GF109991091999999999999999KA1240M+03421MA1999999099121MD1999999+0111REMSYN082AAXX  20004 82765 32/98 90000 10270 20226 39912 40151 333 10342 29069 55085 58011;EQDQ01  00002PRCP99
0186827650999992001012012004-07320-047460FM-12+021299999V0209999C000010450019N0200001N1+02721+02371101851ADDAA199000091GF106991041021008001041001KA1240N+02231MA1999999099451MD1999999+0141REMSYN076AAXX  20124 82765 32598 60000 10272 20237 39945 40185 84240 333 20223 58014;EQDQ01  00002PRCP99
0167827650999992001012018004-07320-047460FM-12+021299999V0203601N001010075019N0200001N1+03241+02191101341ADDAA199000091GF106991051021008001041001MA1999999098971MD1999999+0031REMSYN070AAXX  20184 82765 32598 63602 10324 20219 39897 40134 85240 333 58003;EQDQ01  00002PRCP99
0220827650999992001012100004-07320-047460FM-12+021299999V0203601N007219999999N0200001N1+02801+02151101611ADDAA199000091GA1091+999999999GF109991091999999999999999KA1240M+03361MA1999999099221MD1999999+0101MW1291REMSYN088AAXX  21004 82765 31/98 93614 10280 20215 39922 40161 729// 333 10336 29068 55091 58010;EQDQ01  00002PRCP99
0179827650999992001012112004-07320-047460FM-12+021299999V0209999C000010120019N0200001N1+02461+02271101821ADDAA124017091GF108991061081008001021999KA1240N+02271MA1999999099421MD1999999-0031REMSYN088AAXX  21124 82765 21598 80000 10246 20227 39942 40182 7//96 8682/ 333 20227 59003 60174;
0167827650999992001012118004-07320-047460FM-12+021299999V0209999C000010450019N0200001N1+03051+02311101251ADDAA199000091GF106991041021008001041001MA1999999098961MD1999999-0011REMSYN070AAXX  21184 82765 32598 60000 10305 20231 39896 40125 84240 333 59001;EQDQ01  00002PRCP99
0220827650999992001012200004-07320-047460FM-12+021299999V0209999C000019999999N0200001N1+02601+02351101631ADDAA199000091GA1091+999999999GF109991091999999999999999KA1240M+03121MA1999999099221MD1999999+0001MW1131REMSYN088AAXX  22004 82765 31/98 90000 10260 20235 39922 40163 713// 333 10312 29082 55035 58000;EQDQ01  00002PRCP99
0178827650999992001012212004-07320-047460FM-12+021299999V0209999C000010120019N0200001N1+02581+02421101801ADDAA124002091GF107991051081008001041001KA1240N+02331MA1999999099391MD1999999-0031REMSYN087AAXX  22124 82765 21598 70000 10258 20242 39939 40180 7//55 85840 333 20233 5900360024;
0173827650999992001012218004-07320-047460FM-12+021299999V0203601N001510075019N0200001N1+03141+02241101291ADDAA199000091GF107991061021008001041001MA1999999098911MD1999999-0051REMSYN076AAXX  22184 82765 31598 73603 10314 20224 39891 40129 7//99 86240 333 59005;EQDQ01  00002PRCP99
0220827650999992001012300004-07320-047460FM-12+021299999V0209999C000019999999N0200001N1+02461+02271101601ADDAA199000091GA1091+999999999GF109991091999999999999999KA1240M+03181MA1999999099191MD1999999-0031MW1131REMSYN088AAXX  23004 82765 31/98 90000 10246 20227 39919 40160 713// 333 10318 29082 55049 59003;EQDQ01  00002PRCP99
0186827650999992001012312004-07320-047460FM-12+021299999V0209999C000010075019N0200001N1+02521+02251101821ADDAA199000091GF107991051021008001041001KA1240N+02231MA1999999099401MD1999999+0011REMSYN076AAXX  23124 82765 32598 70000 10252 20225 39940 40182 85240 333 20223 58001;EQDQ01  00002PRCP99
0160827650999992001012318004-07320-047460FM-12+021299999V0209999C000010450019N0200001N1+03041+02311101351ADDAA106010991GF106991041021008001041001MA1999999098961MD1999999+0051REMSYN082AAXX  23184 82765 21598 60000 10304 20231 39896 40135 7//96 84240 333 58005 60111;
0220827650999992001012400004-07320-047460FM-12+021299999V0209999C000019999999N0200001N1+02621+02371101651ADDAA199000091GA1091+999999999GF109991091999999999999999KA1240M+03061MA1999999099251MD1999999+0061MW1131REMSYN088AAXX  24004 82765 31/98 90000 10262 20237 39925 40165 713// 333 10306 29080 55045 58006;EQDQ01  00002PRCP99
0173827650999992001012412004-07320-047460FM-12+021299999V0209999C000010075019N0200001N1+02501+02151101811ADDAA124010991GF107991051021008001041001KA1240N+02291MA1999999099401MD1999999+0001REMSYN082AAXX  24124 82765 22598 70000 10250 20215 39940 40181 85240 333 20229 58000 60114;
0160827650999992001012418004-07320-047460FM-12+021299999V0203201N000510120019N0200001N1+02441+02171101461ADDAA106020191GF108991051081008001021999MA1999999099041MD1999999+0081REMSYN082AAXX  24184 82765 21598 83201 10244 20217 39904 40146 7//96 8582/ 333 58008 60201;
0208827650999992001012500004-07320-047460FM-12+021299999V0209999C000019999999N0200001N1+02421+02211101651ADDAA199000091GA1091+999999999GF109991091999999999999999KA1240M+03061MA1999999099231MD1999999-0021REMSYN082AAXX  25004 82765 32/98 90000 10242 20221 39923 40165 333 10306 29086 55042 59002;EQDQ01  00002PRCP99
0173827650999992001012512004-07320-047460FM-12+021299999V0209999C000010120019N0200001N1+02381+02261101851ADDAA124020191GF108991061081008001021999KA1240N+02211MA1999999099421MD1999999+0021REMSYN082AAXX  25124 82765 22598 80000 10238 20226 39942 40185 8682/ 333 20221 58002 60204;
0167827650999992001012518004-07320-047460FM-12+021299999V0203601N001510450019N0200001N1+03081+02241101351ADDAA199000091GF105991041021008001041001MA1999999098961MD1999999-0081REMSYN070AAXX  25184 82765 32598 53603 10308 20224 39896 40135 84240 333 59008;EQDQ01  00002PRCP99
0223827650999992001012600004-07320-047460FM-12+021299999V0209999C000019999999N0200001N1+02561+02271101601ADDAA106000191AY191061AY251061GA1091+999999999GF109991091999999999999999KA1240M+03221MA1999999099181MD1999999-0051MW1131REMSYN094AAXX  26004 82765 21/98 90000 10256 20227 39918 40160 71395 333 10322 29080 55059 59005 69911;
0173827650999992001012612004-07320-047460FM-12+021299999V0209999C000012200019N0200001N1+02521+02311101771ADDAA124000191GF104991041021008001041001KA1240N+02191MA1999999099361MD1999999-0061REMSYN082AAXX  26124 82765 22598 40000 10252 20231 39936 40177 84240 333 20219 59006 69914;
0167827650999992001012618004-07320-047460FM-12+021299999V0209999C000010075019N0200001N1+03181+02311101311ADDAA199000091GF106991051021008001041001MA1999999098921MD1999999-0041REMSYN070AAXX  26184 82765 32598 60000 10318 20231 39892 40131 85240 333 59004;EQDQ01  00002PRCP99
0201827650999992001012700004-07320-047460FM-12+021299999V0209999C000019999999N0200001N1+02701+02411101381ADDAA106002091GA1091+999999999GF109991091999999999999999KA1240M+03281MA1999999098981MD1999999-0201REMSYN094AAXX  27004 82765 21/98 90000 10270 20241 39898 40138 7//65 333 10328 29080 55087 59020 60021;
0173827650999992001012712004-07320-047460FM-12+021299999V0203201N001510450019N0200001N1+02681+02311101661ADDAA124002091GF106991041021008001041001KA1240N+02331MA1999999099261MD1999999-0101REMSYN082AAXX  27124 82765 22598 63203 10268 20231 39926 40166 84240 333 20233 59010 60024;
0167827650999992001012718004-07320-047460FM-12+021299999V0203601N001012200019N0200001N1+03221+02341101241ADDAA199000091GF104991031021008001041001MA1999999098881MD1999999-0051REMSYN070AAXX  27184 82765 32598 43602 10322 20234 39888 40124 83240 333 59005;EQDQ01  00002PRCP99
0220827650999992001012800004-07320-047460FM-12+021299999V0203601N001019999999N0200001N1+03001+02491101381ADDAA199000091GA1091+999999999GF109991091999999999999999KA1240M+03301MA1999999099011MD1999999+0031MW1131REMSYN088AAXX  28004 82765 31/98 93602 10300 20249 39901 40138 713// 333 10330 29072 55097 58003;EQDQ01  00002PRCP99
0186827650999992001012812004-07320-047460FM-12+021299999V0200501N001510120019N0200001N1+02681+02311101641ADDAA199000091GF108991081081008001999999KA1240N+02371MA1999999099261MD1999999+0001REMSYN076AAXX  28124 82765 32598 80503 10268 20231 39926 40164 888// 333 20237 58000;EQDQ01  00002PRCP99
0167827650999992001012818004-07320-047460FM-12+021299999V0209999C000012200019N0200001N1+03221+02371101171ADDAA199000091GF103991031021008001001001MA1999999098801MD1999999-0081REMSYN070AAXX  28184 82765 32598 30000 10322 20237 39880 40117 83200 333 59008;EQDQ01  00002PRCP99
0220827650999992001012900004-07320-047460FM-12+021299999V0209999C000019999999N0200001N1+02701+02221101391ADDAA199000091GA1091+999999999GF109991091999999999999999KA1240M+03321MA1999999099001MD1999999-0011MW1131REMSYN088AAXX  29004 82765 31/98 90000 10270 20222 39900 40139 713// 333 10332 29073 55086 59001;EQDQ01  00002PRCP99
0179827650999992001012912004-07320-047460FM-12+021299999V0209999C000010075019N0200001N1+02601+02371101571ADDAA124009991GF107991051021008001041001KA1240N+02351MA1999999099171MD1999999-0091REMSYN088AAXX  29124 82765 21598 70000 10260 20237 39917 40157 7//66 85240 333 20235 59009 60104;
0167827650999992001012918004-07320-047460FM-12+021299999V0203201N001510450019N0200001N1+02921+02411101131ADDAA199000091GF105991041021008001041001MA1999999098741MD1999999+0061REMSYN070AAXX  29184 82765 32598 53203 10292 20241 39874 40113 84240 333 58006;EQDQ01  00002PRCP99
0220827650999992001013000004-07320-047460FM-12+021299999V0209999C000019999999N0200001N1+02601+02351101301ADDAA199000091GA1091+999999999GF109991091999999999999999KA1240M+03101MA1999999098901MD1999999-0101MW1131REMSYN088AAXX  30004 82765 31/98 90000 10260 20235 39890 40130 713// 333 10310 29083 55056 59010;EQDQ01  00002PRCP99
0179827650999992001013012004-07320-047460FM-12+021299999V0209999C000010450019N0200001N1+02621+02351101461ADDAA124000191GF106991041021008001041001KA1240N+02311MA1999999099061MD1999999-0111REMSYN088AAXX  30124 82765 21598 60000 10262 20235 39906 40146 7//55 84240 333 20231 59011 69924;
0236827650999992001013100004-07320-047460FM-12+021299999V0209999C000019999999N0200001N1+02281+02071101461ADDAA199000091AY191061AY291061GA1091+999999999GF109991091999999999999999KA1240M+02821MA1999999099051MD1999999+0151MW1291REMSYN088AAXX  31004 82765 31/98 90000 10228 20207 39905 40146 72999 333 10282 29086 55010 58015;EQDQ01  00002PRCP99
0179827650999992001013112004-07320-047460FM-12+021299999V0203601N000510120019N0200001N1+02381+02171101631ADDAA124011991GF108991081081008001999999KA1240N+02151MA1999999099201MD1999999+0141REMSYN088AAXX  31124 82765 21598 83601 10238 20217 39920 40163 7//96 888// 333 20215 58014 60124;
0167827650999992001013118004-07320-047460FM-12+021299999V0202301N001010075019N0200001N1+03001+02291101201ADDAA199000091GF106991051021008001041001MA1999999098811MD1999999+0111REMSYN070AAXX  31184 82765 32598 62302 10300 20229 39881 40120 85240 333 58011;EQDQ01  00002PRCP99
0201827650999992001020100004-07320-047460FM-12+021299999V0209999C000019999999N0200001N1+02281+02201101491ADDAA106022191GA1091+999999999GF109991091999999999999999KA1240M+03061MA1999999099061MD1999999+0011REMSYN094AAXX  01004 82765 21/98 90000 10228 20220 39906 40149 7//96 333 10306 29086 55045 58001 60221;
0173827650999992001020112004-07320-047460FM-12+021299999V0209999C000010450019N0200001N1+02421+02151101541ADDAA124022191GF106991031021008001031001KA1240N+02151MA1999999099111MD1999999-0091REMSYN082AAXX  01124 82765 22598 60000 10242 20215 39911 40154 83230 333 20215 59009 60224;
0182827650999992001020118004-07320-047460FM-12+021299999V0203601N002610075019N0200001N1+02671+02291101121ADDAA106002091AY161061AY221061GF106991061031008001001001MA1999999098711MD1999999-0101MW1151REMSYN082AAXX  01184 82765 21598 63605 10267 20229 39871 40112 71562 86300 333 59010 60021;
0226827650999992001020200004-07320-047460FM-12+021299999V0209999C000012200019N0200001N1+02611+02391101291ADDAA199000091AY121061AY221061GF104991041021008001001001KA1240M+03021MA1999999098881MD1999999-0181MW1131REMSYN094AAXX  02004 82765 31598 40000 10261 20239 39888 40129 71322 84200 333 10302 29085 55082 59018;EQDQ01  00002PRCP99
0167827650999992001020218004-07320-047460FM-12+021299999V0203601N000510075019N0200001N1+02771+02231101121ADDAA199000091GF106991061021008001001001MA1999999098721MD1999999+0011REMSYN070AAXX  02184 82765 32598 63601 10277 20223 39872 40112 86200 333 58001;EQDQ01  00002PRCP99
0201827650999992001020312004-07320-047460FM-12+021299999V0209999C000010450019N0200001N1+02341+02171101521ADDAA124007991AY161061AY221061GF107991041081004501031001KA1240N+02121MA1999999099101MD1999999+0011MW1031REMSYN088AAXX  03124 82765 21498 70000 10234 20217 39910 40152 70362 84830 333 20212 58001 60084;
0198827650999992001020400004-07320-047460FM-12+021299999V0209999C000010120019N0200001N1+02731+02431101291ADDAA199000091GF108991051081008001021999KA1240M+03091MA1999999098891MD1999999+0041REMSYN088AAXX  04004 82765 32598 80000 10273 20243 39889 40129 8582/ 333 10309 29081 55044 58004;EQDQ01  00002PRCP99
0186827650999992001020412004-07320-047460FM-12+021299999V0203601N001010450019N0200001N1+02621+02311101621ADDAA199000091GF106991041081008001041001KA1240N+02331MA1999999099231MD1999999+0131REMSYN076AAXX  04124 82765 32598 63602 10262 20231 39923 40162 84840 333 20233 58013;EQDQ01  00002PRCP99
0173827650999992001020418004-07320-047460FM-12+021299999V0203601N000512200019N0200001N1+02941+02401101221ADDAA199000091GF104991031021008001041001MA1999999098831MD1999999+0031REMSYN076AAXX  04184 82765 31598 43601 10294 20240 39883 40122 7//99 83240 333 58003;EQDQ01  00002PRCP99
0179827650999992001020512004-07320-047460FM-12+021299999V0209999C000010120019N0200001N1+02321+02161101711ADDAA124020191GF107991051081008001041001KA1240N+02051MA1999999099271MD1999999+0041REMSYN088AAXX  05124 82765 21598 70000 10232 20216 39927 40171 7//55 85840 333 20205 58004 60204;
0179827650999992001020518004-07320-047460FM-12+021299999V0202301N000510450019N0200001N1+03041+02451101331ADDAA199000091GF105991031021008001041001MA1999999098931MD1999999+0101MW1011REMSYN076AAXX  05184 82765 31598 52301 10304 20245 39893 40133 701// 83240 333 58010;EQDQ01  00002PRCP99
0201827650999992001020600004-07320-047460FM-12+021299999V0209999C000019999999N0200001N1+02421+02301101451ADDAA106011991GA1091+999999999GF109991091999999999999999KA1240M+03061MA1999999099031MD1999999-0571REMSYN094AAXX  06004 82765 21/98 90000 10242 20230 39903 40145 7//96 333 10306 29087 55053 59057 60121;
0173827650999992001020612004-07320-047460FM-12+021299999V0209999C000012200019N0200001N1+02561+02361101641ADDAA124011991GF102991021011008001001001KA1240N+02171MA1999999099271MD1999999+0001REMSYN082AAXX  06124 82765 22598 20000 10256 20236 39927 40164 82100 333 20217 58000 60124;
0198827650999992001020700004-07320-047460FM-12+021299999V0209999C000012200019N0200001N1+02661+02331101361ADDAA199000091GF103991021011008001041001KA1240M+03341MA1999999098961MD1999999-0071REMSYN088AAXX  07004 82765 32598 30000 10266 20233 39896 40136 82140 333 10334 29078 55102 59007;EQDQ01  00002PRCP99
0186827650999992001020712004-07320-047460FM-12+021299999V0203601N002110120019N0200001N1+02711+02281101551ADDAA199000091GF107991071081008001001001KA1240N+02291MA1999999099161MD1999999-0111REMSYN076AAXX  07124 82765 32598 73604 10271 20228 39916 40155 87800 333 20229 59011;EQDQ01  00002PRCP99
0167827650999992001020718004-07320-047460FM-12+021299999V0203601N001010075019N0200001N1+03141+02351101171ADDAA199000091GF106991061021008001001001MA1999999098791MD1999999-0031REMSYN070AAXX  07184 82765 32598 63602 10314 20235 39879 40117 86200 333 59003;EQDQ01  00002PRCP99
0198827650999992001020800004-07320-047460FM-12+021299999V0209999C000010450019N0200001N1+02811+02521101231ADDAA199000091GF107991041081008001021001KA1240M+03301MA1999999098851MD1999999-0111REMSYN088AAXX  08004 82765 32598 70000 10281 20252 39885 40123 84820 333 10330 29078 55074 59011;EQDQ01  00002PRCP99
0186827650999992001020812004-07320-047460FM-12+021299999V0203601N002110120019N0200001N1+02681+02351101461ADDAA199000091GF106991061081008001001001KA1240N+02451MA1999999099071MD1999999-0091REMSYN076AAXX  08124 82765 32598 63604 10268 20235 39907 40146 86800 333 20245 59009;EQDQ01  00002PRCP99
0167827650999992001020818004-07320-047460FM-12+021299999V0203601N001510075019N0200001N1+03231+02291101051ADDAA199000091GF105991051021008001001001MA1999999098681MD1999999-0111REMSYN070AAXX  08184 82765 32598 53603 10323 20229 39868 40105 85200 333 59011;EQDQ01  00002PRCP99
0198827650999992001020900004-07320-047460FM-12+021299999V0209999C000010450019N0200001N1+02621+02411101181ADDAA199000091GF107991031021008001021001KA1240M+03311MA1999999098791MD1999999-0061REMSYN088AAXX  09004 82765 32598 70000 10262 20241 39879 40118 83220 333 10331 29079 55064 59006;EQDQ01  00002PRCP99
0186827650999992001020912004-07320-047460FM-12+021299999V0209999C000010075019N0200001N1+02661+02461101421ADDAA199000091GF106991061021008001001001KA1240N+02411MA1999999099031MD1999999-0041REMSYN076AAXX  09124 82765 32598 60000 10266 20246 39903 40142 86200 333 20241 59004;EQDQ01  00002PRCP99
0226827650999992001021000004-07320-047460FM-12+021299999V0209999C000010075019N0200001N1+02611+02371101111ADDAA199000091AY121061AY221061GF107991071021008001001001KA1240M+03321MA1999999098721MD1999999-0071MW1131REMSYN094AAXX  10004 82765 31598 70000 10261 20237 39872 40111 71322 87200 333 10332 29081 55072 59007;EQDQ01  00002PRCP99
0179827650999992001021012004-07320-047460FM-12+021299999V0209999C000010450019N0200001N1+02481+02291101511ADDAA124026991GF106991041021008001041001KA1240N+02271MA1999999099101MD1999999+0071REMSYN088AAXX  10124 82765 21598 60000 10248 20229 39910 40151 7//96 84240 333 20227 58007 60274;
0201827650999992001021100004-07320-047460FM-12+021299999V0209999C000019999999N0200001N1+02341+02221101311ADDAA106023991GA1091+999999999GF109991091999999999999999KA1240M+03241MA1999999098891MD1999999+0171REMSYN094AAXX  11004 82765 21/98 90000 10234 20222 39889 40131 7//96 333 10324 29084 55063 58017 60241;
0173827650999992001021112004-07320-047460FM-12+021299999V0209999C000010450019N0200001N1+02601+02351101471ADDAA124023991GF105991021011008001041001KA1240N+02271MA1999999099061MD1999999-0041REMSYN082AAXX  11124 82765 22598 50000 10260 20235 39906 40147 82140 333 20227 59004 60244;
0167827650999992001021118004-07320-047460FM-12+021299999V0209999C000010450019N0200001N1+03161+02421101151ADDAA199000091GF105991041021008001041001MA1999999098771MD1999999+0101REMSYN070AAXX  11184 82765 32598 50000 10316 20242 39877 40115 84240 333 58010;EQDQ01  00002PRCP99
0208827650999992001021200004-07320-047460FM-12+021299999V0209999C000019999999N0200001N1+02801+02341101231ADDAA199000091GA1091+999999999GF109991091999999999999999KA1240M+03261MA1999999098851MD1999999-0041REMSYN082AAXX  12000 82765 32/98 90000 10280 20234 39885 40123 333 10326 29076 55098 59004;EQDQ01  00002PRCP99
0182827650999992001021218004-07320-047460FM-12+021299999V0209999C000010450019N0200001N1+03201+02351101251ADDAA106000591AY151061AY251061GF106991041021008001041001MA1999999098881MD1999999+0111MW1291REMSYN082AAXX  12184 82765 21598 60000 10320 20235 39888 40125 72955 84240 333 58011 69951;
0173827650999992001021312004-07320-047460FM-12+021299999V0200501N002110120019N0200001N1+02571+02291101571ADDAA124000591GF107991071081008001001001KA1240N+02341MA1999999099171MD1999999+0031REMSYN082AAXX  13124 82765 22598 70504 10257 20229 39917 40157 87800 333 20234 58003 69964;
0167827650999992001021318004-07320-047460FM-12+021299999V0209999C000010450019N0200001N1+03071+02271101151ADDAA199000091GF106991041031008001021001MA1999999098771MD1999999-0111REMSYN070AAXX  13184 82765 32598 60000 10307 20227 39877 40115 84320 333 59011;EQDQ01  00002PRCP99
0236827650999992001021400004-07320-047460FM-12+021299999V0209999C000019999999N0200001N1+02761+02461101271ADDAA199000091AY121061AY221061GA1091+999999999GF109991091999999999999999KA1240M+03141MA1999999098881MD1999999-0021MW1131REMSYN088AAXX  14004 82765 31/98 90000 10276 20246 39888 40127 71322 333 10314 29079 55036 59002;EQDQ01  00002PRCP99
0186827650999992001021412004-07320-047460FM-12+021299999V0209999C000010120019N0200001N1+02631+02331101441ADDAA199000091GF107991071081008001001001KA1240N+02441MA1999999099051MD1999999-0121REMSYN076AAXX  14124 82765 32598 70000 10263 20233 39905 40144 87800 333 20244 59012;EQDQ01  00002PRCP99
0195827650999992001021418004-07320-047460FM-12+021299999V0202301N002110120019N0200001N1+03121+02551101101ADDAA199000091AY121061AY221061GF107991051081008001031001MA1999999098721MD1999999-0051MW1171REMSYN076AAXX  14184 82765 31598 72304 10312 20255 39872 40110 71722 85830 333 59005;EQDQ01  00002PRCP99
0223827650999992001021500004-07320-047460FM-12+021299999V0209999C000019999999N0200001N1+02441+02281101251ADDAA106002091AY161061AY221061GA1091+999999999GF109991091999999999999999KA1240M+03171MA1999999098851MD1999999-0031MW1131REMSYN094AAXX  15004 82765 21/98 90000 10244 20228 39885 40125 71362 333 10317 29084 55047 59003 60021;
0201827650999992001021512004-07320-047460FM-12+021299999V0209999C000010090019N0200001N1+02441+02301101561ADDAA124002091AY161061AY221061GF107991071081004501001001KA1240N+02351MA1999999099141MD1999999+0091MW1031REMSYN088AAXX  15124 82765 21498 70000 10244 20230 39914 40156 70362 87800 333 20235 58009 60024;
0167827650999992001021518004-07320-047460FM-12+021299999V0209999C000010450019N0200001N1+03131+02251101041ADDAA199000091GF105991031021008001051001MA1999999098661MD1999999-0061REMSYN070AAXX  15184 82765 32598 50000 10313 20225 39866 40104 83250 333 59006;EQDQ01  00002PRCP99
0223827650999992001021600004-07320-047460FM-12+021299999V0209999C000019999999N0200001N1+02441+02281101331ADDAA106001091AY161061AY221061GA1091+999999999GF109991091999999999999999KA1240M+03221MA1999999098921MD1999999+0071MW1131REMSYN094AAXX  16004 82765 21/98 90000 10244 20228 39892 40133 71362 333 10322 29084 55047 58007 69991;
0179827650999992001021612004-07320-047460FM-12+021299999V0209999C000010120019N0200001N1+02421+02301101651ADDAA124014091GF108991061081008001041999KA1240N+02311MA1999999099231MD1999999+0091REMSYN088AAXX  16124 82765 21598 80000 10242 20230 39923 40165 7//66 8684/ 333 20231 58009 60144;
0167827650999992001021618004-07320-047460FM-12+021299999V0203601N001510075019N0200001N1+02761+02301101311ADDAA199000091GF107991051021008001041001MA1999999098911MD1999999+0251REMSYN070AAXX  16184 82765 32598 73603 10276 20230 39891 40131 85240 333 58025;EQDQ01  00002PRCP99
0232827650999992001021700004-07320-047460FM-12+021299999V0201401N002110075019N9999999N1+02321+02131101641ADDAA106019191AY161061AY261061GF108991081051008001999999KA1240M+02901MA1999999099211MD1999999+0291MW1651REMSYN100AAXX  17004 82765 21598 81404 10232 20213 39921 40164 76566 885// 333 10290 29087 55010 58029 60191;EQDQ01+200002VODIS 
0167827650999992001021718004-07320-047460FM-12+021299999V0209999C000010450019N0200001N1+03021+02361101371ADDAA199000091GF105991041021008001041001MA1999999098971MD1999999+0061REMSYN070AAXX  17184 82765 32598 50000 10302 20236 39897 40137 84240 333 58006;EQDQ01  00002PRCP99
0201827650999992001021800004-07320-047460FM-12+021299999V0209999C000019999999N0200001N1+02181+02061101721ADDAA106055991GA1091+999999999GF109991091999999999999999KA1240M+03141MA1999999099331MD1999999+0121REMSYN094AAXX  18004 82765 21/98 90000 10218 20206 39933 40172 7//96 333 10314 29086 55051 58012 60561;
0179827650999992001021812004-07320-047460FM-12+021299999V0209999C000010120019N0200001N1+02241+02121101871ADDAA124056991GF108991061081008001041999KA1240N+02111MA1999999099421MD1999999+0021REMSYN088AAXX  18124 82765 21598 80000 10224 20212 39942 40187 7//55 8684/ 333 20211 58002 60574;
0167827650999992001021818004-07320-047460FM-12+021299999V0209999C000010450019N0200001N1+03081+02291101471ADDAA199000091GF105991031021008001041001MA1999999099021MD1999999+0051REMSYN070AAXX  18184 82765 32598 50000 10308 20229 39902 40147 83240 333 58005;EQDQ01  00002PRCP99
0208827650999992001021900004-07320-047460FM-12+021299999V0209999C000019999999N0200001N1+02541+02311101541ADDAA199000091GA1091+999999999GF109991091999999999999999KA1240M+03221MA1999999099121MD1999999-0211REMSYN082AAXX  19004 82765 32/98 90000 10254 20231 39912 40154 333 10322 29082 55050 59021;EQDQ01  00002PRCP99
0186827650999992001021912004-07320-047460FM-12+021299999V0209999C000010450019N0200001N1+02591+02251101721ADDAA199000091GF105991031021008001031001KA1240N+02291MA1999999099311MD1999999-0111REMSYN076AAXX  19124 82765 32598 50000 10259 20225 39931 40172 83230 333 20229 59011;EQDQ01  00002PRCP99
0167827650999992001021918004-07320-047460FM-12+021299999V0203601N001510075019N0200001N1+03091+02271101331ADDAA199000091GF107991051021008001021001MA1999999098951MD1999999-0071REMSYN070AAXX  19184 82765 32598 73603 10309 20227 39895 40133 85220 333 59007;EQDQ01  00002PRCP99
0223827650999992001022000004-07320-047460FM-12+021299999V0209999C000019999999N0200001N1+02361+02241101641ADDAA106001091AY191061AY291061GA1091+999999999GF109991091999999999999999KA1240M+03141MA1999999099231MD1999999+0111MW1511REMSYN094AAXX  20004 82765 21/98 90000 10236 20224 39923 40164 75199 333 10314 29082 55048 58011 60011;
0201827650999992001022012004-07320-047460FM-12+021299999V0209999C000010450019N0100001N1+02351+02221101751ADDAA124002091AY161061AY221061GF108991041081004501021999KA1240N+02301MA1999999099321MD1999999+0011MW1511REMSYN088AAXX  20124 82765 21497 80000 10235 20222 39932 40175 75162 8482/ 333 20230 58001 60024;
0182827650999992001022018004-07320-047460FM-12+021299999V0209999C000010450019N0100001N1+02781+02321101311ADDAA106000391AY151061AY221061GF107991041081004501021001MA1999999098911MD1999999-0041MW1501REMSYN082AAXX  20184 82765 21497 70000 10278 20232 39891 40131 75052 84820 333 59004 69931;
0189827650999992001022100004-07320-047460FM-12+021299999V0209999C000019999999N0200001N1+02621+02391101471ADDAA199000021GA1091+999999999GF109991091999999999999999KA1240M+02901MA1999999099061MD1999999-0171REMSYN082AAXX  21004 82765 32/98 90000 10262 20239 39906 40147 333 10290 29086 55003 59017;
0201827650999992001022112004-07320-047460FM-12+021299999V0209999C000010450019N0100001N1+02271+02111101601ADDAA124002091AY161061AY221061GF108991041021004501021999KA1240N+02251MA1999999099181MD1999999-0141MW1541REMSYN088AAXX  21124 82765 21497 80000 10227 20211 39918 40160 75462 8422/ 333 20225 59014 60024;
0182827650999992001022118004-07320-047460FM-12+021299999V0209999C000010075019N0200001N1+02571+02231101201ADDAA106000591AY151061AY221061GF107991051021008001021001MA1999999098791MD1999999-0121MW1501REMSYN082AAXX  21184 82765 21598 70000 10257 20223 39879 40120 75052 85220 333 59012 69951;
0189827650999992001022200004-07320-047460FM-12+021299999V0209999C000012200019N0200001N1+02671+02461101311ADDAA199000021GA1001+999999999GF100991001001999999001001KA1240M+02921MA1999999098901MD1999999-0161REMSYN082AAXX  22004 82765 32998 00000 10267 20246 39890 40131 333 10292 29088 55027 59016;
0179827650999992001022212004-07320-047460FM-12+021299999V0209999C000010120019N0200001N1+02381+02261101531ADDAA124036191GF107991061081008001041001KA1240N+02151MA1999999099121MD1999999-0061REMSYN088AAXX  22124 82765 21598 70000 10238 20226 39912 40153 7//66 86840 333 20215 59006 60364;
0167827650999992001022218004-07320-047460FM-12+021299999V0201801N001010450019N0200001N1+03121+02411101061ADDAA199000091GF106991041021008001041001MA1999999098671MD1999999-0121REMSYN070AAXX  22184 82765 32598 61802 10312 20241 39867 40106 84240 333 59012;EQDQ01  00002PRCP99
0223827650999992001022300004-07320-047460FM-12+021299999V0202701N001019999999N0200001N1+02281+02201101291ADDAA106017091AY161061AY261061GA1091+999999999GF109991091999999999999999KA1240M+03201MA1999999098871MD1999999-0031MW1511REMSYN094AAXX  23004 82765 21/98 92702 10228 20220 39887 40129 75166 333 10320 29087 55066 59003 60171;
0179827650999992001022312004-07320-047460FM-12+021299999V0209999C000010120019N0200001N1+02401+02311101691ADDAA124017091GF108991081081008001999999KA1240N+02211MA1999999099261MD1999999+0141REMSYN088AAXX  23124 82765 21598 80000 10240 20231 39926 40169 7//55 888// 333 20221 58014 60174;
0166827650999992001022318004-07320-047460FM-12+021299999V0203201N001510450019N0200001N1+02701+02391101231ADDAA106000891GF106991021031008001041001MA1999999098831MD1999999+0161MW1291REMSYN082AAXX  23184 82765 21598 63203 10270 20239 39883 40123 729// 82340 333 58016 69981;
0173827650999992001022412004-07320-047460FM-12+021299999V0209999C000010450019N0200001N1+02481+02351101601ADDAA124000891GF105991041021008001041001KA1240N+02231MA1999999099191MD1999999-0071REMSYN082AAXX  24124 82765 22598 50000 10248 20235 39919 40160 84240 333 20223 59007 69984;
0167827650999992001022418004-07320-047460FM-12+021299999V0209999C000010075019N0200001N1+03061+02351101201ADDAA199000091GF107991051021008001041001MA1999999098821MD1999999-0011REMSYN070AAXX  24184 82765 32598 70000 10306 20235 39882 40120 85240 333 59001;EQDQ01  00002PRCP99
0214827650999992001022500004-07320-047460FM-12+021299999V0209999C000019999999N0200001N1+02481+02171101321ADDAA199000091GA1091+999999999GF109991091999999999999999KA1240M+03141MA1999999098911MD1999999-0031REMSYN088AAXX  25004 82765 31/98 90000 10248 20217 39891 40132 7//99 333 10314 29081 55030 59003;EQDQ01  00002PRCP99
0186827650999992001022512004-07320-047460FM-12+021299999V0209999C000010450019N0200001N1+02531+02401101481ADDAA199000091GF106991031081008001031001KA1240N+02351MA1999999099071MD1999999-0121REMSYN076AAXX  25124 82765 32598 60000 10253 20240 39907 40148 83830 333 20235 59012;EQDQ01  00002PRCP99
0207827650999992001022600004-07320-047460FM-12+021299999V0203601N001010120019N0100001N1+02411+02191101251ADDAA199000021AY121061AY221061GF108991051081008001021999KA1240M+03311MA1999999098841MD1999999-0071MW1501REMSYN094AAXX  26004 82765 31597 83602 10241 20219 39884 40125 75022 8582/ 333 10331 29082 55044 59007;
0201827650999992001022612004-07320-047460FM-12+021299999V0209999C000010450019N0200001N1+02361+02241101511ADDAA124001091AY161061AY251061GF108991041081004501021999KA1240N+02221MA1999999099091MD1999999+0021MW1031REMSYN088AAXX  26124 82765 21498 80000 10236 20224 39909 40151 70365 8482/ 333 20222 58002 69994;
0167827650999992001022618004-07320-047460FM-12+021299999V0209999C000010450019N0200001N1+02951+02311101121ADDAA199000091GF106991031031008001021001MA1999999098731MD1999999+0141REMSYN070AAXX  26184 82765 32598 60000 10295 20231 39873 40112 83320 333 58014;EQDQ01  00002PRCP99
0198827650999992001022700004-07320-047460FM-12+021299999V0209999C000010450019N0200001N1+02391+02111101381ADDAA199000091GF108991041081008001021999KA1240M+03131MA1999999098951MD1999999+0111REMSYN088AAXX  27004 82765 32598 80000 10239 20211 39895 40138 8482/ 333 10313 29083 55037 58011;EQDQ01  00002PRCP99
0179827650999992001022712004-07320-047460FM-12+021299999V0209999C000010120019N0200001N1+02341+02221101581ADDAA124000191GF108991071081008001041999KA1240N+02231MA1999999099151MD1999999+0061REMSYN088AAXX  27124 82765 21598 80000 10234 20222 39915 40158 7//55 8784/ 333 20223 58006 69914;
0167827650999992001022718004-07320-047460FM-12+021299999V0209999C000010075019N0200001N1+02681+02331101351ADDAA199000091GF107991051021008001041001MA1999999098941MD1999999+0211REMSYN070AAXX  27184 82765 32598 70000 10268 20233 39894 40135 85240 333 58021;EQDQ01  00002PRCP99
0208827650999992001022800004-07320-047460FM-12+021299999V0209999C000019999999N0200001N1+02521+02311101461ADDAA199000091GA1091+999999999GF109991091999999999999999KA1240M+02861MA1999999099051MD1999999+0101REMSYN082AAXX  28004 82765 32/98 90000 10252 20231 39905 40146 333 10286 29087 55010 58010;EQDQ01  00002PRCP99
0186827650999992001022812004-07320-047460FM-12+021299999V0209999C000010075019N0200001N1+02321+02131101691ADDAA199000091GF107991051021008001041001KA1240N+02211MA1999999099261MD1999999+0111REMSYN076AAXX  28124 82765 32598 70000 10232 20213 39926 40169 85240 333 20221 58011;EQDQ01  00002PRCP99
0167827650999992001022818004-07320-047460FM-12+021299999V0200901N000510450019N0200001N1+02961+02381101251ADDAA199000091GF106991041021008001041001MA1999999098861MD1999999-0081REMSYN070AAXX  28184 82765 32598 60901 10296 20238 39886 40125 84240 333 59008;EQDQ01  00002PRCP99
0220827650999992001030100004-07320-047460FM-12+021299999V0209999C000019999999N0200001N1+02701+02391101341ADDAA199000091GA1091+999999999GF109991091999999999999999KA1240M+03001MA1999999098931MD1999999-0121MW1131REMSYN088AAXX  01004 82765 31/98 90000 10270 20239 39893 40134 713// 333 10300 29082 55023 59012;EQDQ01  00002PRCP99
0186827650999992001030112004-07320-047460FM-12+021299999V0209999C000010120019N0200001N1+02441+02301101631ADDAA199000091GF108991081081008001999999KA1240N+02311MA1999999099221MD1999999-0041REMSYN076AAXX  01124 82765 32598 80000 10244 20230 39922 40163 888// 333 20231 59004;EQDQ01  00002PRCP99
0160827650999992001030118004-07320-047460FM-12+021299999V0209999C000010120019N0200001N1+02421+02331101461ADDAA106025991GF108991081081008001999999MA1999999099041MD1999999+0181REMSYN082AAXX  01184 82765 21598 80000 10242 20233 39904 40146 7//66 888// 333 58018 60261;
0201827650999992001030200004-07320-047460FM-12+021299999V0209999C000019999999N0200001N1+02261+02211101431ADDAA106003091GA1091+999999999GF109991091999999999999999KA1240M+02781MA1999999099011MD1999999+0081REMSYN094AAXX  02004 82765 21/98 90000 10226 20221 39901 40143 7//65 333 10278 29095 55001 58008 60031;
0173827650999992001030212004-07320-047460FM-12+021299999V0209999C000010450019N0200001N1+02501+02251101631ADDAA124029091GF105991031011008001031001KA1240N+02141MA1999999099211MD1999999-0011REMSYN082AAXX  02124 82765 22598 50000 10250 20225 39921 40163 83130 333 20214 59001 60294;
0182827650999992001030218004-07320-047460FM-12+021299999V0201401N000510450019N0100001N1+02551+02361101411ADDAA106004191AY161061AY221061GF108991041071004501021999MA1999999098991MD1999999-0051MW1601REMSYN082AAXX  02184 82765 21497 81401 10255 20236 39899 40141 76062 8472/ 333 59005 60041;
0213827650999992001030300004-07320-047460FM-12+021299999V0209999C000010120019N0100001N1+02361+02311101521ADDAA106000191AY161061AY251061GF108991081001012501021999KA1240M+03261MA1999999099101MD1999999+0091MW1461REMSYN100AAXX  03004 82765 21697 80000 10236 20231 39910 40152 74665 8802/ 333 10326 29092 55067 58009 69911;
0201827650999992001030312004-07320-047460FM-12+021299999V0209999C000010021019N0020001N1+02441+02351101801ADDAA124004191AY151061AY241061GF108991081071002501999999KA1240N+02311MA1999999099371MD1999999+0161MW1461REMSYN088AAXX  03124 82765 21395 80000 10244 20235 39937 40180 74654 887// 333 20231 58016 60044;
0182827650999992001030318004-07320-047460FM-12+021299999V0209999C000010450019N0200001N1+02961+02471101371ADDAA106001091AY161061AY221061GF105991031031008001021001MA1999999098981MD1999999-0011MW1021REMSYN082AAXX  03184 82765 21598 50000 10296 20247 39898 40137 70262 83320 333 59001 60011;
0198827650999992001030400004-07320-047460FM-12+021299999V0209999C000010450019N0200001N1+02601+02501101481ADDAA199000091GF105991031011008001021001KA1240M+03031MA1999999099071MD1999999-0031REMSYN088AAXX  04004 82765 32598 50000 10260 20250 39907 40148 83120 333 10303 29089 55017 59003;EQDQ01  00002PRCP99
0173827650999992001030412004-07320-047460FM-12+021299999V0209999C000012200019N0200001N1+02661+02441101641ADDAA124001091GF104991021021008001051001KA1240N+02341MA1999999099241MD1999999-0131REMSYN082AAXX  04124 82765 22598 40000 10266 20244 39924 40164 82250 333 20234 59013 60014;
0167827650999992001030418004-07320-047460FM-12+021299999V0209999C000010075019N0200001N1+02991+02331101221ADDAA199000091GF107991071031008001001001MA1999999098831MD1999999-0151REMSYN070AAXX  04184 82765 32598 70000 10299 20233 39883 40122 87300 333 59015;EQDQ01  00002PRCP99
0213827650999992001030500004-07320-047460FM-12+021299999V0209999C000010120019N0200001N1+02311+02251101501ADDAA106016091AY191061AY261061GF108991051081008001021999KA1240M+03251MA1999999099091MD1999999+0021MW1131REMSYN100AAXX  05004 82765 21598 80000 10231 20225 39909 40150 71396 8582/ 333 10325 29088 55071 58002 60161;
0173827650999992001030512004-07320-047460FM-12+021299999V0209999C000012200019N0200001N1+02601+02351101641ADDAA124016091GF102991011011008001031001KA1240N+02201MA1999999099221MD1999999-0021REMSYN082AAXX  05124 82765 22598 20000 10260 20235 39922 40164 81130 333 20220 59002 60164;
0167827650999992001030518004-07320-047460FM-12+021299999V0209999C000012200019N0200001N1+03251+02391101081ADDAA199000091GF104991041021008001001001MA1999999098701MD1999999-0131REMSYN070AAXX  05184 82765 32598 40000 10325 20239 39870 40108 84200 333 59013;EQDQ01  00002PRCP99
0208827650999992001030600004-07320-047460FM-12+021299999V0209999C000019999999N0200001N1+02681+02371101311ADDAA199000091GA1091+999999999GF109991091999999999999999KA1240M+03421MA1999999098921MD1999999-0171REMSYN082AAXX  06004 82765 32/98 90000 10268 20237 39892 40131 333 10342 29078 55092 59017;EQDQ01  00002PRCP99
0186827650999992001030612004-07320-047460FM-12+021299999V0203601N002110120019N0200001N1+02681+02331101721ADDAA199000091GF108991061081008001041999KA1240N+02311MA1999999099321MD1999999-0101REMSYN076AAXX  06124 82765 32598 83604 10268 20233 39932 40172 8684/ 333 20231 59010;EQDQ01  00002PRCP99
0167827650999992001030618004-07320-047460FM-12+021299999V0200501N001510450019N0200001N1+03241+02221101251ADDAA199000091GF106991041021008001041001MA1999999098881MD1999999+0181REMSYN070AAXX  06184 82765 32598 60503 10324 20222 39888 40125 84240 333 58018;EQDQ01  00002PRCP99
0208827650999992001030700004-07320-047460FM-12+021299999V0209999C000019999999N0200001N1+02421+02191101611ADDAA199000091GA1091+999999999GF109991091999999999999999KA1240M+03281MA1999999099201MD1999999+0281REMSYN082AAXX  07004 82765 32/98 90000 10242 20219 39920 40161 333 10328 29076 55067 58028;EQDQ01  00002PRCP99
0186827650999992001030712004-07320-047460FM-12+021299999V0209999C000012200019N0200001N1+02401+02191101821ADDAA199000091GF104991041021008001001001KA1240N+02191MA1999999099391MD1999999+0071REMSYN076AAXX  07124 82765 32598 40000 10240 20219 30939 40182 84200 333 20219 58007;EQDQ01  00002PRCP99
0167827650999992001030718004-07320-047460FM-12+021299999V0201801N000510450019N0200001N1+03241+02521101381ADDAA199000091GF105991041021008001041001MA1999999099001MD1999999+0121REMSYN070AAXX  07184 82765 32598 51801 10324 20252 39900 40138 84240 333 58012;EQDQ01  00002PRCP99
0186827650999992001030812004-07320-047460FM-12+021299999V0209999C000012200019N0200001N1+02621+02351101721ADDAA199000091GF102991021011008001001001KA1240N+02351MA1999999099321MD1999999-0071REMSYN076AAXX  08124 82765 32598 20000 10262 20235 39932 40172 82100 333 20235 59007;EQDQ01  00002PRCP99
0179827650999992001030818004-07320-047460FM-12+021299999V0201401N002110450019N0200001N1+03281+02401101381ADDAA199000091GF106991021031008001041001MA1999999099011MD1999999+0011MW1291REMSYN076AAXX  08184 82765 31598 61404 10328 20240 39901 40138 729// 82340 333 58001;EQDQ01  00002PRCP99
0198827650999992001030900004-07320-047460FM-12+021299999V0209999C000012200019N0200001N1+02681+02391101391ADDAA199000091GF101991011011008001001001KA1240M+03341MA1999999099001MD1999999-0151REMSYN088AAXX  09004 82765 32598 10000 10268 20239 39900 40139 81100 333 10334 29078 55089 59015;EQDQ01  00002PRCP99
0186827650999992001030912004-07320-047460FM-12+021299999V0203601N001010075019N0200001N1+02791+02381101601ADDAA199000091GF105991051021008001001001KA1240N+02321MA1999999099211MD1999999-0111REMSYN076AAXX  09124 82765 32598 53602 10279 20238 39921 40160 85200 333 20232 59011;EQDQ01  00002PRCP99
0182827650999992001030918004-07320-047460FM-12+021299999V0200501N004110450019N0200001N1+02351+02151101251ADDAA106022191AY161061AY221061GF105991031031008001021001MA1999999098841MD1999999-0171MW1621REMSYN082AAXX  09184 82765 21598 50508 10235 20215 39884 40125 76262 83320 333 59017 60221;
0179827650999992001031000004-07320-047460FM-12+021299999V0209999C000010075019N0200001N1+02691+02501101281ADDAA199000021GF106991061021008001001001KA1240M+03181MA1999999098901MD1999999-0101REMSYN088AAXX  10004 82765 32598 60000 10269 20250 39890 40128 86200 333 10318 29087 55066 59010;
0173827650999992001031012004-07320-047460FM-12+021299999V0203601N000510450019N0200001N1+02681+02311101521ADDAA124022191GF106991041021008001051001KA1240N+02321MA1999999099131MD1999999-0081REMSYN082AAXX  10124 82765 22598 63601 10268 20231 39913 40152 84250 333 20232 59008 60224;
0167827650999992001031018004-07320-047460FM-12+021299999V0203601N001010075019N0200001N1+03081+02541101111ADDAA199000091GF106991051021008001021001MA1999999098741MD1999999-0101REMSYN070AAXX  10184 82765 32598 63602 10308 20254 39874 40111 85220 333 59010;EQDQ01  00002PRCP99
0226827650999992001031100004-07320-047460FM-12+021299999V0209999C000010450019N0200001N1+02631+02391101421ADDAA199000091AY121061AY221061GF108991041081008001021999KA1240M+03131MA1999999099031MD1999999+0131MW1131REMSYN094AAXX  11004 82765 31598 80000 10263 20239 39903 40142 71322 8482/ 333 10313 29082 55045 58013;EQDQ01  00002PRCP99
0201827650999992001031112004-07320-047460FM-12+021299999V0209999C000010450019N0020001N1+02271+02191101701ADDAA124103191AY161061AY261061GF108991041071002501021999KA1240N+02211MA1999999099281MD1999999+0151MW1511REMSYN088AAXX  11124 82765 21395 80000 10227 20219 39928 40170 75166 8472/ 333 20221 58015 61034;
0182827650999992001031118004-07320-047460FM-12+021299999V0203201N001012200019N0200001N1+02911+02271101211ADDAA106000591AY151061AY221061GF104991031021008001051001MA1999999098831MD1999999+0091MW1021REMSYN082AAXX  11184 82765 21598 43202 10291 20227 39883 40121 70252 83250 333 58009 69941;
0179827650999992001031200004-07320-047460FM-12+021299999V0203201N000510120019N0200001N1+02591+02311101511ADDAA199000021GF108991081081008001999999KA1240M+03091MA1999999099111MD1999999+0081REMSYN088AAXX  12004 82765 32598 83201 10259 20231 39911 40151 888// 333 10309 29084 55044 58008;
0173827650999992001031212004-07320-047460FM-12+021299999V0209999C000010120019N0200001N1+02541+02251101791ADDAA124000591GF108991081081008001999999KA1240N+02271MA1999999099381MD1999999+0101REMSYN082AAXX  12124 82765 22598 80000 10254 20225 39938 40179 888// 333 20227 58010 69944;
0154827650999992001031218004-07320-047460FM-12+021299999V0203601N001510450019N0200001N1+02601+02271101431ADDAA106010991GF106991041021008001041001MA1999999099021MD1999999+0191REMSYN076AAXX  12184 82765 21598 63603 10260 20227 39902 40143 84240 333 58019 60111;
0173827650999992001031312004-07320-047460FM-12+021299999V0209999C000010120019N0200001N1+02481+02291101791ADDAA124010991GF108991081081008001999999KA1240N+02311MA1999999099371MD1999999-0011REMSYN082AAXX  13124 82765 22598 80000 10248 20229 39937 40179 888// 333 20231 59001 60114;
0160827650999992001031318004-07320-047460FM-12+021299999V0203601N002110120019N0200001N1+02541+02311101441ADDAA106023991GF108991081081008001999999MA1999999099021MD1999999+0001REMSYN082AAXX  13184 82765 21598 83604 10254 20231 39902 40144 7//66 888// 333 58000 60241;
0208827650999992001031400004-07320-047460FM-12+021299999V0209999C000019999999N0200001N1+02481+02381101541ADDAA199000091GA1091+999999999GF109991091999999999999999KA1240M+02681MA1999999099131MD1999999+0001REMSYN082AAXX  14004 82765 32/98 90000 10248 20238 39913 40154 333 10268 29091 55000 58000;EQDQ01  00002PRCP99
0201827650999992001031412004-07320-047460FM-12+021299999V0209999C000010075019N0200001N1+02161+02111101771ADDAA124127091AY161061AY261061GF108991051051008001999999KA1240N+02131MA1999999099331MD1999999-0041MW1511REMSYN088AAXX  14124 82765 21598 80000 10216 20211 39933 40177 75166 855// 333 20213 59004 61274;
0189827650999992001031500004-07320-047460FM-12+021299999V0209999C000019999999N0200001N1+02501+02361101461ADDAA199000021GA1091+999999999GF109991091999999999999999KA1240M+02801MA1999999099041MD1999999-0091REMSYN082AAXX  15000 82765 32/98 90000 10250 20236 39904 40146 333 10280 29090 55017 59009;
0173827650999992001031512004-07320-047460FM-12+021299999V0209999C000010075019N0200001N1+02501+02291101611ADDAA124002091GF107991071021008001001001KA1240N+02171MA1999999099201MD1999999-0131REMSYN082AAXX  15124 82765 22598 70000 10250 20229 39920 40161 87200 333 20217 59013 60024;
0195827650999992001031518004-07320-047460FM-12+021299999V0200501N002110090019N0200001N1+03081+02291101141ADDAA199000091AY121061AY221061GF107991071081004501001001MA1999999098751MD1999999-0221MW1151REMSYN076AAXX  15184 82765 31498 70504 10308 20229 39875 40114 71522 87800 333 59022;EQDQ01  00002PRCP99
0223827650999992001031600004-07320-047460FM-12+021299999V0209999C000010024019N0100001N1+02411+02311101401ADDAA106025991AY161061AY261061GA1091+999999999GF109991091999999999999999KA1240M+03151MA1999999098991MD1999999-0051MW1501REMSYN094AAXX  16004 82765 21/97 90000 10241 20231 39899 40140 75066 333 10315 29085 55037 59005 60261;
0201827650999992001031612004-07320-047460FM-12+021299999V0201401N001010450019N0200001N1+02511+02271101741ADDAA124025991AY151061AY221061GF107991041081008001021001KA1240N+02301MA1999999099321MD1999999+0121MW1031REMSYN088AAXX  16124 82765 21598 71402 10251 20227 39932 40174 70352 84820 333 20230 58012 60264;
0182827650999992001031618004-07320-047460FM-12+021299999V0209999C000010120019N0100001N1+02851+02461101291ADDAA106000191AY121061AY221061GF107991071081008001001001MA1999999098891MD1999999+0141MW1201REMSYN082AAXX  16184 82765 21597 70000 10285 20246 39889 40129 72022 87800 333 58014 69911;
0189827650999992001031700004-07320-047460FM-12+021299999V0209999C000019999999N0200001N1+02401+02211101641ADDAA199000021GA1091+999999999GF109991091999999999999999KA1240M+03051MA1999999099221MD1999999+0231REMSYN082AAXX  17004 82765 32/98 90000 10240 20221 39922 40164 333 10305 29086 55034 58023;
0179827650999992001031712004-07320-047460FM-12+021299999V0209999C000010450019N0200001N1+02541+02351101641ADDAA124004191GF106991041021008001041001KA1240N+02251MA1999999099211MD1999999-0011REMSYN088AAXX  17124 82765 21598 60000 10254 20235 39921 40164 7//65 84240 333 20225 59001 60044;
0160827650999992001031718004-07320-047460FM-12+021299999V0202301N001510120019N0200001N1+02621+02481101251ADDAA106008991GF107991051081008001041001MA1999999098841MD1999999-0051REMSYN082AAXX  17184 82765 21598 72303 10262 20248 39884 40125 7//66 85840 333 59005 60091;
0208827650999992001031800004-07320-047460FM-12+021299999V0209999C000019999999N0200001N1+02601+02421101421ADDAA199000091GA1091+999999999GF109991091999999999999999KA1240M+02901MA1999999099021MD1999999-0301REMSYN082AAXX  18004 82765 32/98 90000 10260 20242 39902 40142 333 10290 29090 55038 59030;EQDQ01  00002PRCP99
0179827650999992001031812004-07320-047460FM-12+021299999V0209999C000010450019N0200001N1+02481+02351101521ADDAA124008991GF106991041021008001041001KA1240N+02231MA1999999099111MD1999999-0101REMSYN088AAXX  18124 82765 21598 60000 10248 20235 39911 40152 7//55 84240 333 20223 59010 60094;
0160827650999992001031818004-07320-047460FM-12+021299999V0209999C000012200019N0200001N1+03021+02361101081ADDAA106002091GF104991031021008001041001MA1999999098691MD1999999-0151REMSYN082AAXX  18184 82765 21598 40000 10302 20236 39869 40108 7//55 83240 333 59015 60021;
0207827650999992001031900004-07320-047460FM-12+021299999V0209999C000019999999N0200001N1+02721+02471101311ADDAA199000091GA1091+999999999GF109991091999999999999999KA1240M+03161MA1999999098911MD1999999-0111REMSYN081AAXX  19004 82765 32/98 90000 10272 20247 3989140131 333 10316 29083 55050 59011;EQDQ01  00002PRCP99
0173827650999992001031912004-07320-047460FM-12+021299999V0209999C000012200019N0200001N1+02561+02361101521ADDAA124002091GF103991021011008001041001KA1240N+02311MA1999999099121MD1999999+0011REMSYN082AAXX  19124 82765 22598 30000 10256 20236 39912 40152 82140 333 20231 58001 60024;
0179827650999992001031918004-07320-047460FM-12+021299999V0209999C000012200019N0200001N1+03261+02331101031ADDAA199000091GF103991011031008001041001MA1999999098661MD1999999+0031MW1291REMSYN076AAXX  19184 82765 31598 30000 10326 20233 39866 40103 729// 81340 333 58003;EQDQ01  00002PRCP99
0201827650999992001032000004-07320-047460FM-12+021299999V0209999C000019999999N0200001N1+02321+02201101401ADDAA106005191GA1091+999999999GF109991091999999999999999KA1240M+03321MA1999999098991MD1999999+0081REMSYN094AAXX  20004 82765 21/98 90000 10232 20220 39899 40140 7//96 333 10332 29083 55069 58008 60051;
0173827650999992001032012004-07320-047460FM-12+021299999V0209999C000012200019N0200001N1+02461+02271101761ADDAA124005191GF104991021011008001031001KA1240N+02171MA1999999099331MD1999999+0211REMSYN082AAXX  20124 82765 22598 40000 10246 20227 39933 40176 82130 333 20217 58021 60054;
0160827650999992001032018004-07320-047460FM-12+021299999V0209999C000010450019N0200001N1+02441+02231101431ADDAA106011991GF106991041081008001041001MA1999999099001MD1999999+0341REMSYN082AAXX  20184 82765 21598 60000 10244 20223 39900 40143 7//96 84840 333 58034 60121;
0208827650999992001032100004-07320-047460FM-12+021299999V0209999C000019999999N0200001N1+02501+02321101541ADDAA199000091GA1091+999999999GF109991091999999999999999KA1240M+03081MA1999999099131MD1999999+0141REMSYN082AAXX  21004 82765 32/98 90000 10250 20232 39913 40154 333 10308 29089 55047 58014;EQDQ01  00002PRCP99
0173827650999992001032112004-07320-047460FM-12+021299999V0209999C000012200019N0200001N1+02611+02211101651ADDAA124011991GF103991031021008001001001KA1240N+02221MA1999999099241MD1999999-0091REMSYN082AAXX  21124 82765 22598 30000 10261 20221 39924 40165 83200 333 20222 59009 60124;
0182827650999992001032118004-07320-047460FM-12+021299999V0209999C000010075019N0200001N1+02811+02521101281ADDAA106009991AY161061AY221061GF107991051031008001051001MA1999999098871MD1999999-0131MW1031REMSYN082AAXX  21184 82765 21598 70000 10281 20252 39887 40128 70362 85350 333 59013 60101;
0208827650999992001032200004-07320-047460FM-12+021299999V0209999C000019999999N0200001N1+02491+02321101351ADDAA199000091GA1091+999999999GF109991091999999999999999KA1240M+03141MA1999999098951MD1999999-0181REMSYN082AAXX  22004 82765 32/98 90000 10249 20232 39895 40135 333 10314 29086 55049 59018;EQDQ01  00002PRCP99
0173827650999992001032212004-07320-047460FM-12+021299999V0209999C000012200019N0200001N1+02621+02411101481ADDAA124009991GF103991021011008001031001KA1240N+02271MA1999999099071MD1999999-0171REMSYN082AAXX  22124 82765 22598 30000 10262 20241 39907 40148 82130 333 20227 59017 60104;
0182827650999992001032218004-07320-047460FM-12+021299999V0200501N001510450019N0200001N1+02681+02391101091ADDAA106000591AY161061AY221061GF106991041031008001031001MA1999999098691MD1999999-0181MW1031REMSYN082AAXX  22184 82765 21598 60503 10268 20239 39869 40109 70362 84330 333 59018 69961;
0208827650999992001032300004-07320-047460FM-12+021299999V0209999C000019999999N0200001N1+02601+02481101141ADDAA199000091GA1091+999999999GF109991091999999999999999KA1240M+03161MA1999999098751MD1999999-0201REMSYN082AAXX  23004 82765 32/98 90000 10260 20248 39875 40114 333 10316 29090 55043 59020;EQDQ01  00002PRCP99
0173827650999992001032312004-07320-047460FM-12+021299999V0209999C000012200019N0200001N1+02801+02421101381ADDAA124000591GF103991021021008001041001KA1240N+02361MA1999999098991MD1999999-0081REMSYN082AAXX  23124 82765 22598 30000 10280 20242 39899 40138 82240 333 20236 59008 69964;
0167827650999992001032318004-07320-047460FM-12+021299999V0209999C000010450019N0200001N1+03191+02471100881ADDAA199000091GF107991041021008001021001MA1999999098511MD1999999-0181REMSYN070AAXX  23184 82765 32598 70000 10319 20247 39851 40088 84220 333 59018;EQDQ01  00002PRCP99
0208827650999992001032400004-07320-047460FM-12+021299999V0209999C000019999999N0200001N1+02711+02451101111ADDAA199000091GA1091+999999999GF109991091999999999999999KA1240M+03281MA1999999098731MD1999999-0021REMSYN082AAXX  24004 82765 32/98 90000 10271 20245 39873 40111 333 10328 29080 55043 59002;EQDQ01  00002PRCP99
0201827650999992001032412004-07320-047460FM-12+021299999V02099999999990450019N0200001N1+02541+02311101411ADDAA124013091AY161061AY221061GF106991031021008001021001KA1240N+02231MA1999999099011MD1999999+0021MW1031REMSYN088AAXX  24124 82765 21598 6//// 10254 20231 39901 40141 70362 83220 333 20223 58002 60134;
0182827650999992001032418004-07320-047460FM-12+021299999V0202301N002110450019N0100001N1+03051+02381101151ADDAA106000191AY121061AY221061GF107991041081004501021001MA1999999098771MD1999999+0261MW1601REMSYN082AAXX  24184 82765 21497 72304 10305 20238 39877 40115 76022 84820 333 58026 69921;
0201827650999992001032500004-07320-047460FM-12+021299999V0209999C000010024019N0100001N1+02331+02221101391ADDAA106005191GA1091+999999999GF109991091999999999999999KA1240M+03241MA1999999098981MD1999999+0251REMSYN094AAXX  25004 82765 21/97 90000 10233 20222 39898 40139 7//62 333 10324 29086 55044 58025 60051;
0173827650999992001032512004-07320-047460FM-12+021299999V0209999C000010450019N0200001N1+02661+02311101691ADDAA124005191GF106991041021008001051001KA1240N+02331MA1999999099271MD1999999+0261REMSYN082AAXX  25124 82765 22598 60000 10266 20231 39927 40169 84250 333 20233 58026 60054;
0167827650999992001032518004-07320-047460FM-12+021299999V0203201N002110120019N0200001N1+03161+02521101241ADDAA199000091GF107991051081008001041001MA1999999098861MD1999999+0091REMSYN070AAXX  25184 82765 32598 73204 10316 20252 39886 40124 85840 333 58009;EQDQ01  00002PRCP99
0201827650999992001032600004-07320-047460FM-12+021299999V0209999C000010024019N0100001N1+02671+02481101411ADDAA106000891GA1091+999999999GF109991091999999999999999KA1240M+03251MA1999999099021MD1999999+0041REMSYN094AAXX  26004 82765 21/97 90000 10267 20248 39902 40141 7//62 333 10325 29082 55047 58004 69971;
0179827650999992001032612004-07320-047460FM-12+021299999V0209999C000010450019N0200001N1+02521+02381101601ADDAA124000891GF106991041081008001031001KA1240N+02391MA1999999099201MD1999999-0071REMSYN088AAXX  26124 82765 21598 60000 10252 20238 39920 40160 7//55 84830 333 20239 59007 69984;
0173827650999992001032618004-07320-047460FM-12+021299999V0209999C000010075019N0200001N1+03101+02341101201ADDAA199000091GF106991051021008001041001MA1999999098831MD1999999-0031REMSYN076AAXX  26184 82765 31598 60000 10310 20234 39883 40120 7//99 85240 333 59003;EQDQ01  00002PRCP99
0182827650999992001032718004-07320-047460FM-12+021299999V0200901N000510450019N0200001N1+02881+02251101091ADDAA106000191AY161061AY221061GF105991031021008001061001MA1999999098701MD1999999-0131MW1031REMSYN082AAXX  27184 82765 21598 50901 10288 20225 39870 40109 70362 83260 333 59013 69911;
0208827650999992001032800004-07320-047460FM-12+021299999V0209999C000019999999N0200001N1+02671+02461101331ADDAA199000091GA1091+999999999GF109991091999999999999999KA1240M+03151MA1999999098931MD1999999-0071REMSYN082AAXX  28004 82765 32/98 90000 10267 20246 39893 40133 333 10315 29084 55051 59007;EQDQ01  00002PRCP99
0173827650999992001032812004-07320-047460FM-12+021299999V0209999C000010450019N0200001N1+02631+02331101561ADDAA124000191GF105991031011008001061001KA1240N+02311MA1999999099161MD1999999-0021REMSYN082AAXX  28124 82765 22598 50000 10263 20233 39916 40156 83160 333 20231 59002 69914;
0167827650999992001032818004-07320-047460FM-12+021299999V0203601N003110450019N0200001N1+03241+02551101021ADDAA199000091GF105991031021008001021001MA1999999098651MD1999999-0051REMSYN070AAXX  28184 82765 32598 53606 10324 20255 39865 40102 83220 333 59005;EQDQ01  00002PRCP99
0226827650999992001032900004-07320-047460FM-12+021299999V0209999C000010450019N0200001N1+02751+02441101391ADDAA199000091AY121061AY221061GF106991041031008001021001KA1240M+03301MA1999999099001MD1999999+0071MW1131REMSYN094AAXX  29004 82765 31598 60000 10275 20244 39900 40139 71322 84320 333 10330 29082 55050 58007;EQDQ01  00002PRCP99
0201827650999992001032912004-07320-047460FM-12+021299999V0209999C000010090019N0200001N1+02471+02301101721ADDAA124002091AY161061AY221061GF108991051081004501021999KA1240N+02351MA1999999099311MD1999999+0151MW1031REMSYN088AAXX  29124 82765 21498 80000 10247 20230 39931 40172 70362 8582/ 333 20235 58015 60024;
0182827650999992001032918004-07320-047460FM-12+021299999V0209999C000010450019N0200001N1+02631+02411101371ADDAA106008991AY161061AY221061GF105991031091008001021001MA1999999098961MD1999999+0311MW1031REMSYN082AAXX  29184 82765 21598 50000 10263 20241 39896 40137 70362 83920 333 58031 60091;
0236827650999992001033000004-07320-047460FM-12+021299999V0209999C000019999999N0200001N1+02591+02371101591ADDAA199000091AY121061AY221061GA1091+999999999GF109991091999999999999999KA1240M+03051MA1999999099181MD1999999+0181MW1171REMSYN088AAXX  30004 82765 31/98 90000 10259 20237 39918 40159 71722 333 10305 29089 55024 58018;EQDQ01  00002PRCP99
0201827650999992001033012004-07320-047460FM-12+021299999V0209999C000010075019N0200001N1+02401+02281101741ADDAA124011991AY161061AY251061GF108991081051008001999999KA1240N+02331MA1999999099321MD1999999+0011MW1511REMSYN088AAXX  30124 82765 21598 80000 10240 20228 39932 40174 75165 885// 333 20233 58001 60124;
0160827650999992001033018004-07320-047460FM-12+021299999V0209999C000010075019N0200001N1+02961+02381101341ADDAA106000891GF107991051021008001041001MA1999999098951MD1999999-0011REMSYN082AAXX  30184 82765 21598 70000 10296 20238 39895 40134 7//55 85240 333 59001 69971;
0189827650999992001033100004-07320-047460FM-12+021299999V0209999C000019999999N0200001N1+02541+02311101591ADDAA199000021GA1091+999999999GF109991091999999999999999KA1240M+03001MA1999999099181MD1999999+0001REMSYN082AAXX  31004 82765 32/98 90000 10254 20231 39918 40159 333 10300 29084 55006 58000;
0173827650999992001033112004-07320-047460FM-12+021299999V0209999C000010120019N0200001N1+02441+02301101601ADDAA124000891GF108991081081008001999999KA1240N+02271MA1999999099191MD1999999-0131REMSYN082AAXX  31124 82765 22598 80000 10244 20230 39919 40160 888// 333 20227 59013 69974;
0173827650999992001033118004-07320-047460FM-12+021299999V0202701N002610450019N0200001N1+02881+02351101141ADDAA199000091GF107991041021008001041001MA1999999098751MD1999999-0201REMSYN076AAXX  31184 82765 31598 72705 10288 20235 39875 40114 7//99 84240 333 59020;EQDQ01  00002PRCP99
0208827650999992001040100004-07320-047460FM-12+021299999V0209999C000019999999N0200001N1+02641+02391101311ADDAA199000091GA1091+999999999GF109991091999999999999999KA1240M+03101MA1999999098911MD1999999-0271REMSYN082AAXX  01004 82765 32/98 90000 10264 20239 39891 40131 333 10310 29084 55047 59027;EQDQ01  00002PRCP99
0201827650999992001040112004-07320-047460FM-12+021299999V0209999C000010075019N0200001N1+02261+02141101701ADDAA124021191AY191061AY261061GF108991081051008001999999KA1240N+02231MA1999999099281MD1999999+0091MW1511REMSYN088AAXX  01124 82765 21598 80000 10226 20214 39928 40170 75196 885// 333 20223 58009 60214;
0160827650999992001040118004-07320-047460FM-12+021299999V0209999C000010450019N0200001N1+02801+02421101271ADDAA106003091GF106991041021008001041001MA1999999098871MD1999999+0121REMSYN082AAXX  01184 82765 21598 60000 10280 20242 39887 40127 7//65 84240 333 58012 60031;
0223827650999992001040200004-07320-047460FM-12+021299999V0209999C000019999999N0200001N1+02561+02361101421ADDAA106000191AY191061AY251061GA1091+999999999GF109991091999999999999999KA1240M+03101MA1999999099001MD1999999+0091MW1291REMSYN094AAXX  02004 82765 21/98 90000 10256 20236 39900 40142 72995 333 10310 29088 55034 58009 69921;
0201827650999992001040212004-07320-047460FM-12+021299999V0202301N003110090019N0100001N1+02341+02261101771ADDAA124006191AY161061AY221061GF108991051081004501021999KA1240N+02241MA1999999099351MD1999999+0071MW1501REMSYN088AAXX  02124 82765 21497 82306 10234 20226 39935 40177 75062 8582/ 333 20224 58007 60064;
0148827650999992001040218004-07320-047460FM-12+021299999V0203201N003110120019N0200001N1+02611+02251101431ADDAA199000021GF107991051081008001021001MA1999999099021MD1999999+0021REMSYN070AAXX  02184 82765 32598 73206 10261 20225 39902 40143 85820 333 58002;
0189827650999992001040300004-07320-047460FM-12+021299999V0209999C000019999999N0200001N1+02401+02241101621ADDAA199000021GA1091+999999999GF109991091999999999999999KA1240M+02681MA1999999099201MD1999999+0201REMSYN082AAXX  03004 82765 32/98 90000 10240 20224 39920 40162 333 10268 29090 55013 58020;
0201827650999992001040312004-07320-047460FM-12+021299999V0209999C000010090019N0200001N1+02321+02221101781ADDAA124018091AY161061AY221061GF107991051081004501041001KA1240N+02221MA1999999099331MD1999999-0021MW1031REMSYN088AAXX  03124 82765 21498 70000 10232 20222 39933 40178 70362 85840 333 20222 59002 60184;
0167827650999992001040318004-07320-047460FM-12+021299999V0202301N001510450019N0200001N1+03011+02341101241ADDAA199000091GF105991031021008001041001MA1999999098851MD1999999-0171REMSYN070AAXX  03184 82765 32598 52303 10301 20234 39885 40124 83240 333 59017;EQDQ01  00002PRCP99
0223827650999992001040400004-07320-047460FM-12+021299999V0209999C000010024019N0040001N1+02301+02201101631ADDAA106004191AY161061AY221061GA1091+999999999GF109991091999999999999999KA1240M+03101MA1999999099201MD1999999+0001MW1611REMSYN094AAXX  04004 82765 21/96 90000 10230 20220 39920 40163 76162 333 10310 29088 55071 58000 60041;
0201827650999992001040412004-07320-047460FM-12+021299999V0209999C000010042019N0200001N1+02461+02301101631ADDAA124007191AY161061AY221061GF108991061071004501021999KA1240N+02271MA1999999099211MD1999999-0121MW1031REMSYN088AAXX  04124 82765 21498 80000 10246 20230 39921 40163 70362 8672/ 333 20227 59012 60074;
0167827650999992001040418004-07320-047460FM-12+021299999V0209999C000010450019N0200001N1+03011+02291101181ADDAA199000091GF106991041021008001031001MA1999999098791MD1999999-0061REMSYN070AAXX  04184 82765 32598 60000 10301 20229 39879 40118 84230 333 59006;EQDQ01  00002PRCP99
0198827650999992001040500004-07320-047460FM-12+021299999V0209999C000010450019N0200001N1+02691+02481101301ADDAA199000091GF106991041021008001061001KA1240M+03161MA1999999098901MD1999999-0301REMSYN088AAXX  05004 82765 32598 60000 10269 20248 39890 40130 84260 333 10316 29084 55049 59030;EQDQ01  00002PRCP99
0186827650999992001040512004-07320-047460FM-12+021299999V0209999C000012200019N0200001N1+02661+02431101611ADDAA199000091GF104991031021008001041001KA1240N+02271MA1999999099221MD1999999+0011REMSYN076AAXX  05124 82765 32598 40000 10266 20243 39922 40161 83240 333 20227 58001;EQDQ01  00002PRCP99
0160827650999992001040518004-07320-047460FM-12+021299999V0209999C000010450019N0200001N1+02881+02481101181ADDAA106004191GF105991031021008001031001MA1999999098791MD1999999+0001REMSYN082AAXX  05184 82765 21598 50000 10288 20248 39879 40118 7//96 83230 333 58000 60041;
0198827650999992001040600004-07320-047460FM-12+021299999V0209999C000012200019N0200001N1+02741+02581101371ADDAA199000091GF104991041021008001001001KA1240M+03221MA1999999098981MD1999999+0081REMSYN088AAXX  06004 82765 32598 40000 10274 20258 39898 40137 84200 333 10322 29087 55072 58008;EQDQ01  00002PRCP99
0173827650999992001040612004-07320-047460FM-12+021299999V0209999C000010450019N0200001N1+02681+02481101721ADDAA124004191GF106991041021008001041001KA1240N+02431MA1999999099321MD1999999+0101REMSYN082AAXX  06124 82765 22598 60000 10268 20248 39932 40172 84240 333 20243 58010 60044;
0167827650999992001040618004-07320-047460FM-12+021299999V0201401N001010450019N0200001N1+03301+02361101261ADDAA199000091GF106991041021008001041001MA1999999098891MD1999999+0101REMSYN070AAXX  06184 82765 32598 61402 10330 20236 39889 40126 84240 333 58010;EQDQ01  00002PRCP99
0208827650999992001040700004-07320-047460FM-12+021299999V0209999C000012200019N0200001N1+02841+02521101511ADDAA199000091GA1001+999999999GF100991001001999999001001KA1240M+03361MA1999999099121MD1999999+0141REMSYN082AAXX  07004 82765 32998 00000 10284 20252 39912 40151 333 10336 29078 55081 58014;EQDQ01  00002PRCP99
0186827650999992001040712004-07320-047460FM-12+021299999V0209999C000012200019N0200001N1+02561+02331101661ADDAA199000091GF104991031011008001031001KA1240N+02311MA1999999099261MD1999999-0061REMSYN076AAXX  07124 82765 32598 40000 10256 20233 39926 40166 83130 333 20231 59006;EQDQ01  00002PRCP99
0167827650999992001040718004-07320-047460FM-12+021299999V0201401N001010450019N0200001N1+03261+02381101291ADDAA199000091GF106991041011008001041001MA1999999098921MD1999999+0031REMSYN070AAXX  07184 82765 32598 61402 10326 20238 39892 40129 84140 333 58003;EQDQ01  00002PRCP99
0186827650999992001040912004-07320-047460FM-12+021299999V0209999C000010450019N0200001N1+02541+02331101461ADDAA199000091GF105991031011008001021001KA1240N+02221MA1999999099061MD1999999-0111REMSYN076AAXX  09124 82765 32598 50000 10254 20233 39906 40146 83120 333 20222 59011;EQDQ01  00002PRCP99
0167827650999992001040918004-07320-047460FM-12+021299999V0209999C000010450019N0200001N1+03051+02261101071ADDAA199000091GF107991041021008001021001MA1999999098691MD1999999-0081REMSYN070AAXX  09184 82765 32598 70000 10305 20226 39869 40107 84220 333 59008;EQDQ01  00002PRCP99
0198827650999992001041000004-07320-047460FM-12+021299999V0209999C000012200019N0200001N1+02701+02461101281ADDAA199000091GF103991021011008001031001KA1240M+03161MA1999999098881MD1999999-0051REMSYN088AAXX  10004 82765 32598 30000 10270 20246 39888 40128 82130 333 10316 29081 55000 59005;EQDQ01  00002PRCP99
0186827650999992001041012004-07320-047460FM-12+021299999V0201401N001510120019N0200001N1+02591+02251101551ADDAA199000091GF108991061081008001021999KA1240N+02311MA1999999099151MD1999999+0091REMSYN076AAXX  10124 82765 32598 81403 10259 20225 39915 40155 8682/ 333 20231 58009;EQDQ01  00002PRCP99
0167827650999992001041018004-07320-047460FM-12+021299999V0209999C000010450019N0200001N1+03181+02331101131ADDAA199000091GF105991041091008001051001MA1999999098751MD1999999+0061REMSYN070AAXX  10184 82765 32598 50000 10318 20233 39875 40113 84950 333 58006;EQDQ01  00002PRCP99
0208827650999992001041100004-07320-047460FM-12+021299999V0209999C000019999999N0200001N1+02561+02291101351ADDAA199000091GA1091+999999999GF109991091999999999999999KA1240M+03341MA1999999098951MD1999999+0071REMSYN082AAXX  11004 82765 32/98 90000 10256 20229 39895 40135 333 10334 29078 55052 58007;EQDQ01  00002PRCP99
0179827650999992001041112004-07320-047460FM-12+021299999V0200901N000510450019N0200001N1+02761+02361101641ADDAA124000191GF106991041011008001031001KA1240N+02391MA1999999099241MD1999999+0091REMSYN088AAXX  11124 82765 21598 60901 10276 20236 39924 40164 7//55 84130 333 20239 58009 69914;
0173827650999992001041118004-07320-047460FM-12+021299999V0200501N001510450019N0200001N1+02841+02261101331ADDAA199000091GF107991041021008001011001MA1999999098941MD1999999+0191REMSYN076AAXX  11184 82765 31598 70503 10284 20226 39894 40133 7//99 84210 333 58019;EQDQ01  00002PRCP99
0208827650999992001041200004-07320-047460FM-12+021299999V0209999C000019999999N0200001N1+02461+02281101251ADDAA199000091GA1091+999999999GF109991091999999999999999KA1240M+03241MA1999999099151MD1999999+0201REMSYN082AAXX  12004 82765 32/98 90000 10246 20228 39915 40125 333 10324 29082 55041 58020;EQDQ01  00002PRCP99
0186827650999992001041212004-07320-047460FM-12+021299999V0209999C000010075019N0200001N1+02481+02341101711ADDAA199000091GF105991051021008001001001KA1240N+02251MA1999999099291MD1999999+0051REMSYN076AAXX  12124 82765 32598 50000 10248 20234 39929 40171 85200 333 20225 58005;EQDQ01  00002PRCP99
0167827650999992001041218004-07320-047460FM-12+021299999V0201801N000510075019N0200001N1+03321+02381101241ADDAA199000091GF105991051021008001001001MA1999999098861MD1999999-0081REMSYN070AAXX  12184 82765 32598 51801 10332 20238 39886 40124 85200 333 59008;EQDQ01  00002PRCP99
0208827650999992001041300004-07320-047460FM-12+021299999V0209999C000012200019N0200001N1+02901+02521101291ADDAA199000091GA1001+999999999GF100991001001999999001001KA1240M+03401MA1999999098901MD1999999-0251REMSYN082AAXX  13004 82765 32998 00000 10290 20252 39890 40129 333 10340 29078 55088 59025;EQDQ01  00002PRCP99
0220827650999992001041312004-07320-047460FM-12+021299999V0209999C000010075019N9999999N1+02301+02181101551ADDAA124020191AY191061AY261061GF108991081051008001999999KA1240N+02211MA1999999099151MD1999999-0041MW1551REMSYN088AAXX  13124 82765 21598 80000 10230 20218 39915 40155 75596 885// 333 20221 59004 60204;EQDQ01+200002VODIS 
0148827650999992001041318004-07320-047460FM-12+021299999V0201401N000510120019N0200001N1+02861+02441101181ADDAA199000021GF108991081081008001999999MA1999999098801MD1999999-0061REMSYN070AAXX  13184 82765 32598 81401 10286 20244 39880 40118 888// 333 59006;
0189827650999992001041400004-07320-047460FM-12+021299999V0209999C999999999999N0200001N1+02721+02501101291ADDAA199000021GA1091+999999999GF109991091999999999999999KA1240M+03021MA1999999098881MD1999999-0021REMSYN082AAXX  14004 82765 32/98 98000 10272 20250 39888 40129 333 10302 29087 55014 59002;
0186827650999992001041412004-07320-047460FM-12+021299999V02099999999990450019N0200001N1+02711+02411101451ADDAA199000091GF105991041021008001051001KA1240N+02301MA1999999099061MD1999999-0091REMSYN076AAXX  14124 82765 32598 5000/ 10271 20241 39906 40145 84250 333 20230 59009;EQDQ01  00002PRCP99
0167827650999992001041418004-07320-047460FM-12+021299999V0203201N001510450019N0200001N1+03031+02591101071ADDAA199000091GF106991041031008001021001MA1999999098691MD1999999-0111REMSYN070AAXX  14184 82765 32598 63203 10303 20259 39869 40107 84320 333 59011;EQDQ01  00002PRCP99
0223827650999992001041500004-07320-047460FM-12+021299999V0202701N002610024019N0040001N1+02411+02191101491ADDAA106015091AY161061AY221061GA1091+999999999GF109991091999999999999999KA1240M+03211MA1999999099081MD1999999+0201MW1291REMSYN094AAXX  15004 82765 21/96 92705 10241 20219 39908 40149 72962 333 10321 29084 55062 58020 60151;
0201827650999992001041512004-07320-047460FM-12+021299999V0209999C000010450019N0200001N1+02561+02291101681ADDAA124017091AY161061AY221061GF107991041081008001021001KA1240N+02301MA1999999099261MD1999999+0201MW1031REMSYN088AAXX  15124 82765 21598 70000 10256 20229 39926 40168 70362 84820 333 20230 58020 60174;
0167827650999992001041618004-07320-047460FM-12+021299999V0209999C000010450019N0200001N1+02541+02351101451ADDAA199000091GF108991041021008001021999MA1999999099041MD1999999+0111REMSYN070AAXX  16184 82765 32598 80000 10254 20235 39904 40145 8422/ 333 58011;EQDQ01  00002PRCP99
0186827650999992001041712004-07320-047460FM-12+021299999V0209999C000012200019N0200001N1+02701+02261101741ADDAA199000091GF104991021011008001051001KA1240N+02351MA1999999099331MD1999999-0021REMSYN076AAXX  17124 82765 32598 40000 10270 20226 39933 40174 82150 333 20235 59002;EQDQ01  00002PRCP99
0179827650999992001041718004-07320-047460FM-12+021299999V0209999C000012200019N0200001N1+03281+02371101251ADDAA199000091GF104991021031008001041001MA1999999098881MD1999999-0161MW1291REMSYN076AAXX  17184 82765 31598 40000 10328 20237 39888 40125 729// 82340 333 59016;EQDQ01  00002PRCP99
0223827650999992001041800004-07320-047460FM-12+021299999V0209999C000019999999N0200001N1+02541+02441101571ADDAA106022191AY191061AY261061GA1091+999999999GF109991091999999999999999KA1240M+03361MA1999999099171MD1999999-0171MW1291REMSYN094AAXX  18004 82765 21/98 90000 10254 20244 39917 40157 72996 333 10336 29081 55077 59017 60221;
0179827650999992001041812004-07320-047460FM-12+021299999V0209999C000010120019N0200001N1+02501+02361101641ADDAA124023991GF108991081081008001999999KA1240N+02351MA1999999099231MD1999999-0101REMSYN088AAXX  18124 82765 21598 80000 10250 20236 39923 40164 7//65 888// 333 20235 59010 60244;
0167827650999992001041818004-07320-047460FM-12+021299999V0209999C000010450019N0200001N1+02921+02471101141ADDAA199000091GF106991041021008001041001MA1999999098751MD1999999-0131REMSYN070AAXX  18184 82765 32598 60000 10292 20247 39875 40114 84240 333 59013;EQDQ01  00002PRCP99
0223827650999992001041900004-07320-047460FM-12+021299999V0209999C000019999999N0200001N1+02421+02331101571ADDAA106037191AY161061AY261061GA1091+999999999GF109991091999999999999999KA1240M+03041MA1999999099151MD1999999-0021MW1511REMSYN094AAXX  19004 82765 21/98 90000 10242 20233 39915 40157 75166 333 10304 29090 55032 59002 60371;
0179827650999992001041912004-07320-047460FM-12+021299999V0209999C000010120019N0200001N1+02521+02341101711ADDAA124038191GF108991081081008001999999KA1240N+02331MA1999999099291MD1999999+0061REMSYN088AAXX  19124 82765 21598 80000 10252 20234 39929 40171 7//56 888// 333 20233 58006 60384;
0182827650999992001041918004-07320-047460FM-12+021299999V0202701N000510120019N0200001N1+02621+02411101231ADDAA106007191AY161061AY261061GF108991081081008001999999MA1999999098821MD1999999+0071MW1511REMSYN082AAXX  19184 82765 21598 82701 10262 20241 39882 40123 75166 888// 333 58007 60071;
0189827650999992001042000004-07320-047460FM-12+021299999V0209999C000019999999N0200001N1+02521+02341101551ADDAA199000021GA1091+999999999GF109991091999999999999999KA1240M+02901MA1999999099141MD1999999-0011REMSYN082AAXX  20004 82765 32/98 90000 10252 20234 39914 40155 333 10290 29089 55004 59001;
0201827650999992001042012004-07320-047460FM-12+021299999V0209999C000010021019N0040001N1+02341+02241101751ADDAA124026991AY161061AY261061GF108991081071002501999999KA1240N+02241MA1999999099331MD1999999+0041MW1511REMSYN088AAXX  20124 82765 21396 80000 10234 20224 39933 40175 75166 887// 333 20224 58004 60274;
0182827650999992001042018004-07320-047460FM-12+021299999V0203601N001512200019N0200001N1+02951+02261101301ADDAA106000191AY151061AY221061GF104991021021008001051001MA1999999098901MD1999999+0081MW1031REMSYN082AAXX  20184 82765 21598 43603 10295 20226 39890 40130 70352 82250 333 58008 69911;
0189827650999992001042100004-07320-047460FM-12+021299999V0209999C000019999999N0200001N1+02621+02441101551ADDAA199000021GA1091+999999999GF109991091999999999999999KA1240M+03001MA1999999099141MD1999999+0001REMSYN082AAXX  21004 82765 32/98 90000 10262 20244 39914 40155 333 10300 29082 55029 58000;
0201827650999992001042112004-07320-047460FM-12+021299999V0209999C000010120019N0200001N1+02601+02311101781ADDAA124001091AY161061AY221061GF107991051081008001031001KA1240N+02251MA1999999099371MD1999999+0041MW1031REMSYN088AAXX  21124 82765 21598 70000 10260 20231 39937 40178 70362 85830 333 20225 58004 60014;
0167827650999992001042118004-07320-047460FM-12+021299999V0209999C000012200019N0200001N1+03051+02331101251ADDAA199000091GF104991041031008001001001MA1999999098871MD1999999-0031REMSYN070AAXX  21184 82765 32598 40000 10305 20233 39887 40125 84300 333 59003;EQDQ01  00002PRCP99
0201827650999992001042200004-07320-047460FM-12+021299999V0202301N001510024019N0100001N1+02511+02311101611ADDAA106002091GA1091+999999999GF109991091999999999999999KA1240M+03201MA1999999099201MD1999999+0061REMSYN094AAXX  22004 82765 21/97 92303 10251 20231 39920 40161 7//62 333 10320 29082 55035 58006 60021;
0201827650999992001042212004-07320-047460FM-12+021299999V0202301N000510090019N0200001N1+02571+02331101621ADDAA124009991AY161061AY221061GF107991051081004501031001KA1240N+02301MA1999999099211MD1999999-0161MW1031REMSYN088AAXX  22124 82765 21498 72301 10257 20233 39921 40162 70362 85830 333 20230 59016 60104;
0167827650999992001042218004-07320-047460FM-12+021299999V0209999C000010120019N0200001N1+02731+02281101171ADDAA199000091GF107991071081008001001001MA1999999098771MD1999999-0101REMSYN070AAXX  22184 82765 32598 70000 10273 20228 39877 40117 87800 333 59010;EQDQ01  00002PRCP99
0208827650999992001042300004-07320-047460FM-12+021299999V0209999C000010024019N0100001N1+02461+02341101441ADDAA199000091GA1091+999999999GF109991091999999999999999KA1240M+03161MA1999999099031MD1999999-0171REMSYN082AAXX  23004 82765 32/97 90000 10246 20234 39903 40144 333 10316 29088 55050 59017;EQDQ01  00002PRCP99
0179827650999992001042312004-07320-047460FM-12+021299999V0209999C000010120019N0200001N1+02461+02321101611ADDAA124004191GF108991081081008001999999KA1240N+02311MA1999999099191MD1999999-0021REMSYN088AAXX  23124 82765 21598 80000 10246 20232 39919 40161 7//66 888// 333 20231 59002 60044;
0167827650999992001042318004-07320-047460FM-12+021299999V0209999C000010075019N0200001N1+03061+02351101231ADDAA199000091GF106991061021008001001001MA1999999098851MD1999999+0081REMSYN070AAXX  23184 82765 32598 60000 10306 20235 39885 40123 86200 333 58008;EQDQ01  00002PRCP99
0208827650999992001042400004-07320-047460FM-12+021299999V0209999C000012200019N0200001N1+02761+02501101321ADDAA199000091GA1001+999999999GF100991001001999999001001KA1240M+03201MA1999999098921MD1999999-0111REMSYN082AAXX  24004 82765 32998 00000 10276 20250 39892 40132 333 10320 29082 55074 59011;EQDQ01  00002PRCP99
0196827650999992001042412004-07320-047460FM-12+021299999V0209999C000012200019N0200001N1+02521+02381101661ADDAA199000091GA1001+999999999GF100991001001999999001001KA1240N+02231MA1999999099261MD1999999+0071REMSYN070AAXX  24124 82765 32998 00000 10252 20238 39926 40166 333 20223 58007;EQDQ01  00002PRCP99
0167827650999992001042418004-07320-047460FM-12+021299999V0201401N000512200019N0200001N1+03301+02151101301ADDAA199000091GF104991041011008001001001MA1999999098921MD1999999+0071REMSYN070AAXX  24184 82765 32598 41401 10330 20215 39892 40130 84100 333 58007;EQDQ01  00002PRCP99
0208827650999992001042500004-07320-047460FM-12+021299999V0209999C000012200019N0200001N1+02741+02431101421ADDAA199000091GA1001+999999999GF100991001001999999001001KA1240M+03361MA1999999099031MD1999999+0111REMSYN082AAXX  25004 82765 32998 00000 10274 20243 39903 40142 333 10336 29077 55097 58011;EQDQ01  00002PRCP99
0186827650999992001042512004-07320-047460FM-12+021299999V0209999C000010075019N0200001N1+02521+02231101811ADDAA199000091GF106991051021008001041001KA1240N+02171MA1999999099411MD1999999+0111REMSYN076AAXX  25124 82765 32598 60000 10252 20223 39941 40181 85240 333 20217 58011;EQDQ01  00002PRCP99
0167827650999992001042518004-07320-047460FM-12+021299999V0201401N001510450019N0200001N1+03281+02161101451ADDAA199000091GF105991041021008001041001MA1999999099061MD1999999+0141REMSYN070AAXX  25184 82765 32598 51403 10328 20216 39906 40145 84240 333 58014;EQDQ01  00002PRCP99
0208827650999992001042600004-07320-047460FM-12+021299999V0209999C000012200019N0200001N1+02701+02331101601ADDAA199000091GA1001+999999999GF100991001001999999001001KA1240M+03341MA1999999099201MD1999999+0171REMSYN082AAXX  26004 82765 32998 00000 10270 20233 39920 40160 333 10334 29074 55089 58017;EQDQ01  00002PRCP99
0186827650999992001042612004-07320-047460FM-12+021299999V0209999C000012200019N0200001N1+02711+02171101661ADDAA199000091GF102991011021008001031001KA1240N+02261MA1999999099261MD1999999-0151REMSYN076AAXX  26124 82765 32598 20000 10271 20217 39926 40166 81230 333 20226 59015;EQDQ01  00002PRCP99
0167827650999992001042618004-07320-047460FM-12+021299999V0201401N002112200019N0200001N1+03301+02051101311ADDAA199000091GF104991041011008001001001MA1999999098931MD1999999-0131REMSYN070AAXX  26184 82765 32598 41404 10330 20205 39893 40131 84100 333 59013;EQDQ01  00002PRCP99
0208827650999992001042700004-07320-047460FM-12+021299999V0209999C000019999999N0200001N1+02681+02351101471ADDAA199000091GA1091+999999999GF109991091999999999999999KA1240M+03381MA1999999099081MD1999999-0121REMSYN082AAXX  27004 82765 32/98 90000 10268 20235 39908 40147 333 10338 29071 55106 59012;EQDQ01  00002PRCP99
0196827650999992001042712004-07320-047460FM-12+021299999V0209999C000012200019N0200001N1+02681+02351101621ADDAA199000091GA1001+999999999GF100991001001999999001001KA1240N+02201MA1999999099231MD1999999-0031REMSYN070AAXX  27124 82765 32998 00000 10268 20235 39923 40162 333 20220 59003;EQDQ01  00002PRCP99
0167827650999992001042718004-07320-047460FM-12+021299999V0201401N002112200019N0200001N1+03291+02031101251ADDAA199000091GF103991031011008001001001MA1999999098871MD1999999-0061REMSYN070AAXX  27184 82765 32598 31404 10329 20203 39887 40125 83100 333 59006;EQDQ01  00002PRCP99
0186827650999992001042812004-07320-047460FM-12+021299999V0201401N003110075019N0200001N1+02671+02311101721ADDAA199000091GF106991061021008001001001KA1240N+02221MA1999999099321MD1999999+0091REMSYN076AAXX  28124 82765 32598 61406 10267 20231 39932 40172 86200 333 20222 58009;EQDQ01  00002PRCP99
0167827650999992001042818004-07320-047460FM-12+021299999V0200901N000510450019N0200001N1+03001+02241101381ADDAA199000091GF107991041021008001021001MA1999999098991MD1999999+0121REMSYN070AAXX  28184 82765 32598 70901 10300 20224 39899 40138 84220 333 58012;EQDQ01  00002PRCP99
0198827650999992001042900004-07320-047460FM-12+021299999V0209999C000010075019N0200001N1+02701+02501101481ADDAA199000091GF105991051021008001001001KA1240M+03201MA1999999099091MD1999999+0051REMSYN088AAXX  29004 82765 32598 50000 10270 20250 39909 40148 85200 333 10320 29081 55033 58005;EQDQ01  00002PRCP99
0186827650999992001042912004-07320-047460FM-12+021299999V0209999C000010075019N0200001N1+02641+02391101701ADDAA199000091GF106991051021008001041001KA1240N+02211MA1999999099301MD1999999-0021REMSYN076AAXX  29124 82765 32598 60000 10264 20239 39930 40170 85240 333 20221 59002;EQDQ01  00002PRCP99
0167827650999992001042918004-07320-047460FM-12+021299999V0200901N000510450019N0200001N1+03201+02211101321ADDAA199000091GF105991031021008001041001MA1999999098941MD1999999-0051REMSYN070AAXX  29184 82765 32598 50901 10320 20221 39894 40132 83240 333 59005;EQDQ01  00002PRCP99
0208827650999992001043000004-07320-047460FM-12+021299999V0209999C000012200019N0200001N1+02801+02361101431ADDAA199000091GA1001+999999999GF100991001001999999001001KA1240M+03301MA1999999099041MD1999999-0051REMSYN082AAXX  30004 82765 32998 00000 10280 20236 39904 40143 333 10330 29074 55085 59005;EQDQ01  00002PRCP99
0186827650999992001043012004-07320-047460FM-12+021299999V0209999C000012200019N0200001N1+02601+02251101561ADDAA199000091GF103991021011008001031001KA1240N+02211MA1999999099171MD1999999-0131REMSYN076AAXX  30124 82765 32598 30000 10260 20225 39917 40156 82130 333 20221 59013;EQDQ01  00002PRCP99
0167827650999992001043018004-07320-047460FM-12+021299999V0201401N003112200019N0200001N1+03321+02071101181ADDAA199000091GF103991021011008001031001MA1999999098811MD1999999-0131REMSYN070AAXX  30184 82765 32598 31406 10332 20207 39881 40118 82130 333 59013;EQDQ01  00002PRCP99
0208827650999992001050100004-07320-047460FM-12+021299999V0209999C000012200019N0200001N1+02821+02311101331ADDAA199000091GA1001+999999999GF100991001001999999001001KA1240M+03401MA1999999098941MD1999999-0101REMSYN082AAXX  01004 82765 32998 00000 10282 20231 39894 40133 333 10340 29069 55106 59010;EQDQ01  00002PRCP99
0196827650999992001050112004-07320-047460FM-12+021299999V0209999C000012200019N0200001N1+02661+02241101511ADDAA199000091GA1001+999999999GF100991001001999999001001KA1240N+02211MA1999999099121MD1999999-0051REMSYN070AAXX  01124 82765 32998 00000 10266 20224 39912 40151 333 20221 59005;EQDQ01  00002PRCP99
0167827650999992001050118004-07320-047460FM-12+021299999V0201401N001510450019N0200001N1+03401+02141101121ADDAA199000091GF105991031021008001041001MA1999999098751MD1999999+0061REMSYN070AAXX  01184 82765 32598 51403 10340 20214 39875 40112 83240 333 58006;EQDQ01  00002PRCP99
0208827650999992001050200004-07320-047460FM-12+021299999V0209999C000012200019N0200001N1+02921+02521101351ADDAA199000091GA1001+999999999GF100991001001999999001001KA1240M+02981MA1999999098971MD1999999+0031REMSYN082AAXX  02004 82765 32998 00000 10292 20252 39897 40135 333 10298 29071 55102 58003;EQDQ01  00002PRCP99
0186827650999992001050212004-07320-047460FM-12+021299999V0209999C000010075019N0200001N1+02811+02361101661ADDAA199000091GF105991051011008001001001KA1240N+02351MA1999999099281MD1999999+0161REMSYN076AAXX  02124 82765 32598 50000 10281 20236 39928 40166 85100 333 20235 58016;EQDQ01  00002PRCP99
0167827650999992001050218004-07320-047460FM-12+021299999V0201401N002612200019N0200001N1+03251+02161101251ADDAA199000091GF103991031021008001001001MA1999999098871MD1999999+0121REMSYN070AAXX  02184 82765 32598 31405 10325 20216 39887 40125 83200 333 58012;EQDQ01  00002PRCP99
0198827650999992001050300004-07320-047460FM-12+021299999V0209999C000012200019N0200001N1+02831+02361101511ADDAA199000091GF103991031011008001001001KA1240M+03431MA1999999099131MD1999999+0161REMSYN088AAXX  03004 82765 32598 30000 10283 20236 39913 40151 83100 333 10343 29070 55103 58016;EQDQ01  00002PRCP99
0186827650999992001050312004-07320-047460FM-12+021299999V0209999C000012200019N0200001N1+02771+02341101681ADDAA199000091GF102991011011008001051001KA1240N+02301MA1999999099291MD1999999+0011REMSYN076AAXX  03124 82765 32598 20000 10277 20234 39929 40168 81150 333 20230 58001;EQDQ01  00002PRCP99
0167827650999992001050318004-07320-047460FM-12+021299999V0201401N002612200019N0200001N1+03351+02091101201ADDAA199000091GF103991021011008001061001MA1999999098841MD1999999-0031REMSYN070AAXX  03184 82765 32598 31405 10335 20209 39884 40120 82160 333 59003;EQDQ01  00002PRCP99
0208827650999992001050400004-07320-047460FM-12+021299999V0209999C000012200019N0200001N1+02851+02381101371ADDAA199000091GA1001+999999999GF100991001001999999001001KA1240M+03451MA1999999098991MD1999999-0141REMSYN082AAXX  04004 82765 32998 00000 10285 20238 39899 40137 333 10345 29070 55106 59014;EQDQ01  00002PRCP99
0186827650999992001050412004-07320-047460FM-12+021299999V0209999C000012200019N0200001N1+02781+02301101571ADDAA199000091GF103991011021008001051001KA1240N+02241MA1999999099191MD1999999-0101REMSYN076AAXX  04124 82765 32598 30000 10278 20230 39919 40157 81250 333 20224 59010;EQDQ01  00002PRCP99
0167827650999992001050418004-07320-047460FM-12+021299999V0201401N002112200019N0200001N1+03401+02241101091ADDAA199000091GF104991021021008001051001MA1999999098731MD1999999-0111REMSYN070AAXX  04184 82765 32598 41404 10340 20224 39873 40109 82250 333 59011;EQDQ01  00002PRCP99
0208827650999992001050500004-07320-047460FM-12+021299999V0209999C000012200019N0200001N1+02861+02461101261ADDAA199000091GA1001+999999999GF100991001001999999001001KA1240M+03501MA1999999098881MD1999999-0111REMSYN082AAXX  05004 82765 32998 00000 10286 20246 39888 40126 333 10350 29071 55102 59011;EQDQ01  00002PRCP99
0186827650999992001050512004-07320-047460FM-12+021299999V0209999C000010450019N0200001N1+02741+02341101501ADDAA199000091GF106991031011008001051001KA1240N+02311MA1999999099131MD1999999-0061REMSYN076AAXX  05124 82765 32598 60000 10274 20234 39913 40150 83150 333 20231 59006;EQDQ01  00002PRCP99
0167827650999992001050518004-07320-047460FM-12+021299999V0201801N000510450019N0200001N1+03361+02271101081ADDAA199000091GF106991041021008001041001MA1999999098711MD1999999-0021REMSYN070AAXX  05184 82765 32598 61801 10336 20227 39871 40108 84240 333 59002;EQDQ01  00002PRCP99
0198827650999992001050600004-07320-047460FM-12+021299999V02099999999990450019N0200001N1+02921+02501101281ADDAA199000091GF106991031021008001041001KA1240M+03381MA1999999098911MD1999999+0031REMSYN088AAXX  06004 82765 32598 6000/ 10292 20250 39891 40128 83240 333 10338 29072 55075 58003;EQDQ01  00002PRCP99
0186827650999992001050612004-07320-047460FM-12+021299999V0209999C000012200019N0200001N1+02741+02431101531ADDAA199000091GF103991021011008001041001KA1240N+02411MA1999999099151MD1999999+0021REMSYN076AAXX  06124 82765 32598 30000 10274 20243 39915 40153 82140 333 20241 58002;EQDQ01  00002PRCP99
0167827650999992001050618004-07320-047460FM-12+021299999V0202701N001010450019N0200001N1+03461+02331101081ADDAA199000091GF105991031021008001041001MA1999999098731MD1999999+0021REMSYN070AAXX  06184 82765 32598 52702 10346 20233 39873 40108 83240 333 58002;EQDQ01  00002PRCP99
0198827650999992001050700004-07320-047460FM-12+021299999V0209999C000012200019N0200001N1+02881+02371101371ADDAA199000091GF104991021011008001041001KA1240M+03581MA1999999098991MD1999999+0081REMSYN088AAXX  07004 82765 32598 40000 10288 20237 39899 40137 82140 333 10358 29071 55099 58008;EQDQ01  00002PRCP99
0186827650999992001050712004-07320-047460FM-12+021299999V0202701N002112200019N0200001N1+02901+02341101561ADDAA199000091GF104991021011008001041001KA1240N+02511MA1999999099191MD1999999+0041REMSYN076AAXX  07124 82765 32598 42704 10290 20234 39919 40156 82140 333 20251 58004;EQDQ01  00002PRCP99
0167827650999992001050718004-07320-047460FM-12+021299999V0209999C000012200019N0200001N1+03321+02411101081ADDAA199000091GF104991031021008001031001MA1999999098731MD1999999+0001REMSYN070AAXX  07184 82765 32598 40000 10332 20241 39873 40108 83230 333 58000;EQDQ01  00002PRCP99
0210827650999992001050800004-07320-047460FM-12+021299999V0209999C000012200019N0200001N1+03021+02641101211ADDAA199000091GF102991021021008001001001KA1240M+03461MA1999999098851MD1999999+0141MW1131REMSYN094AAXX  08004 82765 31598 20000 10302 20264 39885 40121 713// 82200 333 10346 29072 55102 58014;EQDQ01  00002PRCP99
0186827650999992001050812004-07320-047460FM-12+021299999V0209999C000012200019N0200001N1+02991+02491101421ADDAA199000091GF104991021021008001031001KA1240N+02521MA1999999099061MD1999999-0131REMSYN076AAXX  08124 82765 32598 40000 10299 20249 39906 40142 82230 333 20252 59013;EQDQ01  00002PRCP99
0182827650999992001050818004-07320-047460FM-12+021299999V0203601N002610075019N0100001N1+03241+02441101111ADDAA106000391AY161061AY221061GF107991051021008001021001MA1999999098751MD1999999+0021MW1171REMSYN082AAXX  08184 82765 21597 73605 10324 20244 39875 40111 71762 85220 333 58002 69931;
0198827650999992001050900004-07320-047460FM-12+021299999V0209999C000010120019N0200001N1+02611+02391101341ADDAA199000091GF108991081081008001999999KA1240M+03301MA1999999098961MD1999999+0111REMSYN088AAXX  09004 82765 32598 80000 10261 20239 39896 40134 888// 333 10330 29078 55041 58011;EQDQ01  00002PRCP99
0173827650999992001050912004-07320-047460FM-12+021299999V0203601N001012200019N0200001N1+02881+02391101391ADDAA124000391GF103991011011008001051001KA1240N+02411MA1999999099011MD1999999-0051REMSYN082AAXX  09124 82765 22598 33602 10288 20239 39901 40139 81150 333 20241 59005 69934;
0167827650999992001050918004-07320-047460FM-12+021299999V0203601N000510450019N0200001N1+03361+02421100981ADDAA199000091GF107991041031008001021001MA1999999098621MD1999999-0131REMSYN070AAXX  09184 82765 32598 73601 10336 20242 39862 40098 84320 333 59013;EQDQ01  00002PRCP99
0226827650999992001051000004-07320-047460FM-12+021299999V0209999C000010075019N0200001N1+02801+02441101131ADDAA199000091AY121061AY221061GF107991051031008001021001KA1240M+03451MA1999999098761MD1999999-0201MW1131REMSYN094AAXX  10004 82765 31598 70000 10280 20244 39876 40113 71322 85320 333 10345 29074 55073 59020;EQDQ01  00002PRCP99
0201827650999992001051012004-07320-047460FM-12+021299999V0203601N002610042019N0200001N1+02381+02241101561ADDAA124009991AY161061AY221061GF108991051071004501021999KA1240N+02371MA1999999099161MD1999999+0151MW1031REMSYN088AAXX  10124 82765 21498 83605 10238 20224 39916 40156 70362 8572/ 333 20237 58015 60104;
0167827650999992001051018004-07320-047460FM-12+021299999V0209999C000010120019N0200001N1+02751+02281101241ADDAA199000091GF107991051081008001021001MA1999999098851MD1999999+0231REMSYN070AAXX  10184 82765 32598 70000 10275 20228 39885 40124 85820 333 58023;EQDQ01  00002PRCP99
0208827650999992001051100004-07320-047460FM-12+021299999V0200901N001010024019N0100001N1+02411+02211101411ADDAA199000091GA1091+999999999GF109991091999999999999999KA1240M+02901MA1999999098991MD1999999+0231REMSYN082AAXX  11004 82765 32/97 90902 10241 20221 39899 40141 333 10290 29086 55009 58023;EQDQ01  00002PRCP99
0186827650999992001051112004-07320-047460FM-12+021299999V0209999C000010450019N0200001N1+02521+02291101651ADDAA199000091GF106991031011008001031001KA1240N+02231MA1999999099231MD1999999+0071REMSYN076AAXX  11124 82765 32598 60000 10252 20229 39923 40165 83130 333 20223 58007;EQDQ01  00002PRCP99
0167827650999992001051118004-07320-047460FM-12+021299999V0203601N003110450019N0200001N1+03141+02401101251ADDAA199000091GF108991041081008001041001MA1999999098861MD1999999+0011REMSYN070AAXX  11184 82765 32598 83606 10314 20240 39886 40125 84840 333 58001;EQDQ01  00002PRCP99
0223827650999992001051200004-07320-047460FM-12+021299999V0209999C000019999999N0200001N1+02601+02501101581ADDAA106009991AY161061AY261061GA1091+999999999GF109991091999999999999999KA1240M+03221MA1999999099171MD1999999+0181MW1131REMSYN094AAXX  12004 82765 21/98 90000 10260 20250 39917 40158 71366 333 10322 29085 55043 58018 60101;
0173827650999992001051212004-07320-047460FM-12+021299999V0209999C000010450019N0200001N1+02521+02381101741ADDAA124009991GF105991031021008001041001KA1240N+02311MA1999999099331MD1999999+0101REMSYN082AAXX  12124 82765 22598 50000 10252 20238 39933 40174 83240 333 20231 58010 60104;
0160827650999992001051218004-07320-047460FM-12+021299999V0209999C000010450019N0200001N1+02761+02421101341ADDAA106003091GF107991041081008001041001MA1999999098941MD1999999+0081REMSYN082AAXX  12184 82765 21598 70000 10276 20242 39894 40134 7//65 84840 333 58008 60031;
0220827650999992001051300004-07320-047460FM-12+021299999V0209999C000019999999N0200001N1+02601+02421101161ADDAA199000091GA1091+999999999GF109991091999999999999999KA1240M+03221MA1999999099251MD1999999+0081MW1131REMSYN088AAXX  13004 82765 31/98 90000 10260 20242 39925 40116 713// 333 10322 29088 55047 58008;EQDQ01  00002PRCP99
0173827650999992001051312004-07320-047460FM-12+021299999V0209999C000012200019N0200001N1+02661+02461101791ADDAA124003091GF103991031011008001001001KA1240N+02371MA1999999099391MD1999999+0061REMSYN082AAXX  13124 82765 22598 30000 10266 20246 39939 40179 83100 333 20237 58006 60034;
0179827650999992001051318004-07320-047460FM-12+021299999V0201801N002610450019N0200001N1+03301+02471101331ADDAA199000091GF107991021031008001041001MA1999999098961MD1999999+0021MW1291REMSYN076AAXX  13184 82765 31598 71805 10330 20247 39896 40133 729// 82340 333 58002;EQDQ01  00002PRCP99
0173827650999992001051412004-07320-047460FM-12+021299999V0209999C000012200019N0200001N1+02751+02451101701ADDAA124005191GF104991041011008001001001KA1240N+02381MA1999999099301MD1999999-0091REMSYN082AAXX  14124 82765 22598 40000 10275 20245 39930 40170 84100 333 20238 59009 60054;
0167827650999992001051418004-07320-047460FM-12+021299999V0209999C000010075019N0200001N1+03261+02301101141ADDAA199000091GF105991051021008001001001MA1999999098771MD1999999-0191REMSYN070AAXX  14184 82765 32598 50000 10326 20230 39877 40114 85200 333 59019;EQDQ01  00002PRCP99
0208827650999992001051500004-07320-047460FM-12+021299999V0209999C000019999999N0200001N1+02761+02341101221ADDAA199000091GA1091+999999999GF109991091999999999999999KA1240M+03421MA1999999098841MD1999999-0241REMSYN082AAXX  15004 82765 32/98 90000 10276 20234 39884 40122 333 10342 29074 55083 59024;EQDQ01  00002PRCP99
0186827650999992001051512004-07320-047460FM-12+021299999V0209999C000010075019N0200001N1+02781+02401101511ADDAA199000091GF105991051021008001001001KA1240N+02371MA1999999099121MD1999999-0181REMSYN076AAXX  15124 82765 32598 50000 10278 20240 39912 40151 85200 333 20237 59018;EQDQ01  00002PRCP99
0223827650999992001051600004-07330-047470FM-12+021299999V0209999C000019999999N0200001N1+02641+02421101261ADDAA106011991AY161061AY221061GA1091+999999999GF109991091999999999999999KA1240M+03421MA1999999098871MD1999999+0031MW1131REMSYN094AAXX  16004 82765 21/98 90000 10264 20242 39887 40126 71362 333 10342 29079 55087 58003 60121;
0173827650999992001051612004-07330-047470FM-12+021299999V0209999C000010450019N0200001N1+02711+02411101571ADDAA124011991GF105991031021008001021001KA1240N+02391MA1999999099181MD1999999+0061REMSYN082AAXX  16124 82765 22598 50000 10271 20241 39918 40157 83220 333 20239 58006 60124;
0186827650999992001051712004-07320-047460FM-12+021299999V0209999C000012200019N0200001N1+02701+02411101791ADDAA199000091GF103991021011008001031001KA1240N+02331MA1999999099391MD1999999+0211REMSYN076AAXX  17124 82765 32598 30000 10270 20241 39939 40179 82130 333 20233 58021;EQDQ01  00002PRCP99
0167827650999992001051718004-07320-047460FM-12+021299999V0202301N001012200019N0200001N1+03321+02231101451ADDAA199000091GF102991021011008001001001MA1999999099071MD1999999+0221REMSYN070AAXX  17184 82765 32598 22302 10332 20223 39907 40145 82100 333 58022;EQDQ01  00002PRCP99
0202827650999992001051812004-07320-047460FM-12+021299999V0209999C000012200019N0200001N1+02661+02391101801ADDAA199000091GF102991999011008001001001KA1240N+02331MA1999999099411MD1999999+0021REMSYN076AAXX  18124 82765 32598 20000 10266 20239 39941 40180 81100 333 20233 58002;EQDQ01+000012SCOTLCQ02  00002PRCP99
0167827650999992001051818004-07320-047460FM-12+021299999V0202701N001010450019N0200001N1+03381+02291101371ADDAA199000091GF106991041021008001041001MA1999999099011MD1999999-0061REMSYN070AAXX  18184 82765 32598 62702 10338 20229 39901 40137 84240 333 59006;EQDQ01  00002PRCP99
0220827650999992001051900004-07320-047460FM-12+021299999V0209999C000019999999N0200001N1+02881+02521101581ADDAA199000091GA1091+999999999GF109991091999999999999999KA1240M+03441MA1999999099191MD1999999-0101MW1131REMSYN088AAXX  19004 82765 31/98 90000 10288 20252 39919 40158 713// 333 10344 29075 55102 59010;EQDQ01  00002PRCP99
0202827650999992001051912004-07320-047460FM-12+021299999V0209999C000012200019N0200001N1+02841+02381101761ADDAA199000091GF102991999011008001001001KA1240N+02411MA1999999099381MD1999999-0031REMSYN076AAXX  19124 82765 32598 20000 10284 20238 39938 40176 81100 333 20241 59003;EQDQ01+000012SCOTLCQ02  00002PRCP99
0167827650999992001051918004-07320-047460FM-12+021299999V0209999C000010450019N0200001N1+03321+02351101311ADDAA199000091GF106991041021008001041001MA1999999098941MD1999999-0071REMSYN070AAXX  19184 82765 32598 60000 10332 20235 39894 40131 84240 333 59007;EQDQ01  00002PRCP99
0220827650999992001052000004-07320-047460FM-12+021299999V0209999C000019999999N0200001N1+02761+02341101461ADDAA199000091GA1091+999999999GF109991091999999999999999KA1240M+03361MA1999999099081MD1999999-0111MW1131REMSYN088AAXX  20004 82765 31/98 90000 10276 20234 39908 40146 713// 333 10336 29072 55084 59011;EQDQ01  00002PRCP99
0186827650999992001052012004-07320-047460FM-12+021299999V0209999C000012200019N0200001N1+02681+02331101571ADDAA199000091GF104991031011008001031001KA1240N+02331MA1999999099191MD1999999-0121REMSYN076AAXX  20124 82765 32598 40000 10268 20233 39919 40157 83130 333 20233 59012;EQDQ01  00002PRCP99
0167827650999992001052018004-07320-047460FM-12+021299999V0202701N000510450019N0200001N1+03461+02391101111ADDAA199000091GF106991041021008001041001MA1999999098761MD1999999-0251REMSYN070AAXX  20184 82765 32598 62701 10346 20239 39876 40111 84240 333 59025;EQDQ01  00002PRCP99
0236827650999992001052100004-07320-047460FM-12+021299999V0201401N000519999999N0200001N1+02601+02251101461ADDAA199000091AY191061AY291061GA1091+999999999GF109991091999999999999999KA1240M+03521MA1999999099071MD1999999-0011MW1131REMSYN088AAXX  21004 82765 31/98 91401 10260 20225 39907 40146 71399 333 10352 29074 55091 59001;EQDQ01  00002PRCP99
0179827650999992001052112004-07320-047460FM-12+021299999V0209999C000010450019N0200001N1+02621+02351101691ADDAA124003091GF107991041081008001041001KA1240N+02391MA1999999099281MD1999999+0091REMSYN088AAXX  21124 82765 21598 70000 10262 20235 39928 40169 7//65 84840 333 20239 58009 60034;
0182827650999992001052118004-07320-047460FM-12+021299999V0200901N002110075019N0200001N1+02641+02441101311ADDAA106016091AY161061AY261061GF108991061051008001041999MA1999999098911MD1999999+0151MW1511REMSYN082AAXX  21184 82765 21598 80904 10264 20244 39891 40131 75166 8654/ 333 58015 60161;
0201827650999992001052200004-07320-047460FM-12+021299999V0209999C000019999999N0200001N1+02421+02031101511ADDAA106002091GA1091+999999999GF109991091999999999999999KA1240M+03041MA1999999099101MD1999999+0031REMSYN094AAXX  22004 82765 21/98 90000 10242 20203 39910 40151 7//65 333 10304 29083 55023 58003 60021;
0179827650999992001052212004-07320-047460FM-12+021299999V0209999C000010450019N0200001N1+02581+02421101681ADDAA115010991GF105991031011008001041001KA1240N+02351MA1999999099261MD1999999-0021REMSYN088AAXX  22124 82765 21598 50000 10258 20242 39926 40168 7//55 83140 333 20235 59002 60119;
0167827650999992001052218004-07320-047460FM-12+021299999V0209999C000012200019N0200001N1+03281+02321101201ADDAA199000091GF104991031021008001041001MA1999999098831MD1999999-0081REMSYN070AAXX  22184 82765 32598 40000 10328 20232 39883 40120 83240 333 59008;EQDQ01  00002PRCP99
0186827650999992001052312004-07320-047460FM-12+021299999V0209999C000012200019N0200001N1+02721+02411101631ADDAA199000091GF102991011011008001031001KA1240N+02391MA1999999099241MD1999999-0021REMSYN076AAXX  23124 82765 32598 20000 10272 20241 39924 40163 81130 333 20239 59002;EQDQ01  00002PRCP99
0167827650999992001052318004-07320-047460FM-12+021299999V0201801N000510450019N0200001N1+03261+02211101161ADDAA199000091GF105991031021008001041001MA1999999099801MD1999999-0031REMSYN070AAXX  23184 82765 32598 51801 10326 20221 39980 40116 83240 333 59003;EQDQ01  00002PRCP99
0208827650999992001052400004-07320-047460FM-12+021299999V0209999C000019999999N0200001N1+02841+02381101391ADDAA199000091GA1091+999999999GF109991091999999999999999KA1240M+03401MA1999999099011MD1999999-0041REMSYN082AAXX  24004 82765 32/98 90000 10284 20238 39901 40139 333 10340 29072 55093 59004;EQDQ01  00002PRCP99
0186827650999992001052412004-07320-047460FM-12+021299999V0209999C000010450019N0200001N1+02801+02421101731ADDAA199000091GF106991041011008001041001KA1240N+02411MA1999999099341MD1999999+0101REMSYN076AAXX  24124 82765 32598 60000 10280 20242 39934 40173 84140 333 20241 58010;EQDQ01  00002PRCP99
0179827650999992001052418004-07320-047460FM-12+021299999V0200901N001510450019N0200001N1+03161+02141101271ADDAA199000091GF106991021031008001041001MA1999999098901MD1999999+0101MW1291REMSYN076AAXX  24184 82765 31598 60903 10316 20214 39890 40127 729// 82340 333 58010;EQDQ01  00002PRCP99
0208827650999992001052500004-07320-047460FM-12+021299999V0209999C000019999999N0200001N1+02741+02431101561ADDAA199000091GA1091+999999999GF109991091999999999999999KA1240M+03341MA1999999099181MD1999999+0171REMSYN082AAXX  25004 82765 32/98 90000 10274 20243 39918 40156 333 10334 29089 55070 58017;EQDQ01  00002PRCP99
0186827650999992001052512004-07320-047460FM-12+021299999V0200901N000512200019N0200001N1+02741+02381101691ADDAA199000091GF103991021011008001031001KA1240N+02371MA1999999099301MD1999999-0041REMSYN076AAXX  25124 82765 32598 30901 10274 20238 39930 40169 82130 333 20237 59004;EQDQ01  00002PRCP99
0167827650999992001052518004-07320-047460FM-12+021299999V0200901N001510450019N0200001N1+03261+02301101281ADDAA199000091GF106991041021008001041001MA1999999098911MD1999999+0011REMSYN070AAXX  25184 82765 32598 60903 10326 20230 39891 40128 84240 333 58001;EQDQ01  00002PRCP99
0207827650999992001052600004-07320-047460FM-12+021299999V0200901N003119999999N0200001N1+02581+02271101541ADDAA106004191GA1091+999999999GF109991091999999999999999KA1240M+03341MA1999999099151MD1999999-0031MW1291REMSYN094AAXX  26004 82765 21/98 90906 10258 20227 39915 40154 729// 333 10334 29076 55073 59003 60041;
0179827650999992001052612004-07320-047460FM-12+021299999V0209999C000010450019N0200001N1+02601+02351101641ADDAA124004191GF105991041011008001041001KA1240N+02331MA1999999099241MD1999999-0061REMSYN088AAXX  26124 82765 21598 50000 10260 20235 39924 40164 7//55 84140 333 20233 59006 60044;
0167827650999992001052618004-07320-047460FM-12+021299999V0200901N001510450019N0200001N1+03321+02291101171ADDAA199000091GF106991041021008001041001MA1999999098801MD1999999-0111REMSYN070AAXX  26184 82765 32598 60903 10332 20229 39880 40117 84240 333 59011;EQDQ01  00002PRCP99
0201827650999992001052700004-07320-047460FM-12+021299999V0209999C000019999999N0200001N1+02541+02291101441ADDAA106004191GA1091+999999999GF109991091999999999999999KA1240M+03341MA1999999099041MD1999999-0111REMSYN094AAXX  27004 82765 21/98 90000 10254 20229 39904 40144 7//65 333 10334 29078 55095 59011 60041;
0173827650999992001052712004-07320-047460FM-12+021299999V0209999C000010450019N0200001N1+02661+02351101771ADDAA124004191GF106991041021008001041001KA1240N+02331MA1999999099361MD1999999+0121REMSYN082AAXX  27124 82765 22598 60000 10266 20235 39936 40177 84240 333 20233 58012 60044;
0195827650999992001052718004-07320-047460FM-12+021299999V0203201N003110120019N0200001N1+03001+02141101361ADDAA199000091AY191061AY291061GF107991051081008001041001MA1999999098971MD1999999+0171MW1161REMSYN076AAXX  27184 82765 31598 73206 10300 20214 39897 40136 71699 85840 333 58017;EQDQ01  00002PRCP99
0201827650999992001052800004-07320-047460FM-12+021299999V0209999C000019999999N0200001N1+02461+02281101591ADDAA106007991GA1091+999999999GF109991091999999999999999KA1240M+03301MA1999999099181MD1999999+0141REMSYN094AAXX  28004 82765 21/98 90000 10246 20228 39918 40159 7//96 333 10330 29081 55054 58014 60081;
0173827650999992001052812004-07320-047460FM-12+021299999V0209999C000010075019N0200001N1+02461+02321101811ADDAA124007991GF106991061021008001001001KA1240N+02271MA1999999099391MD1999999+0051REMSYN082AAXX  28124 82765 22598 60000 10246 20232 39939 40181 86200 333 20227 58005 60084;
0201827650999992001052900004-07320-047460FM-12+021299999V0209999C000019999999N0200001N1+02401+02241101451ADDAA106001091GA1091+999999999GF109991091999999999999999KA1240M+03321MA1999999099141MD1999999-0041REMSYN094AAXX  29004 82765 21/98 90000 10240 20224 39914 40145 7//95 333 10332 29061 55070 59004 60011;
0173827650999992001052912004-07320-047460FM-12+021299999V0209999C000012200019N0200001N1+02561+02331101791ADDAA124001091GF102991021011008001001001KA1240N+02171MA1999999099371MD1999999-0021REMSYN082AAXX  29124 82765 22598 20000 10256 20233 39937 40179 82100 333 20217 59002 60014;
0195827650999992001052918004-07320-047460FM-12+021299999V0203601N003110450019N0200001N1+02981+02331101421ADDAA199000091AY191061AY291061GF106991021031000751041001MA1999999099021MD1999999+0061MW1291REMSYN076AAXX  29184 82765 32198 63606 10298 20233 39902 40142 72999 82340 333 58006;EQDQ01  00002PRCP99
0208827650999992001053000004-07320-047460FM-12+021299999V0209999C000019999999N0200001N1+02781+02561101551ADDAA199000091GA1091+999999999GF109991091999999999999999KA1240M+03341MA1999999099161MD1999999+0021REMSYN082AAXX  30004 82765 32/98 90000 10278 20256 39916 40155 333 10334 29083 55090 58002;EQDQ01  00002PRCP99
0179827650999992001053018004-07320-047460FM-12+021299999V0202701N000510450019N0200001N1+03161+02371101331ADDAA199000091GF105991021031008001041001MA1999999098951MD1999999-0071MW1291REMSYN076AAXX  30184 82765 32598 52701 10316 20237 39895 40133 729// 82340 333 59007;EQDQ01  00002PRCP99
0220827650999992001053100004-07320-047460FM-12+021299999V0209999C000019999999N0200001N1+02661+02461101561ADDAA199000091GA1091+999999999GF109991091999999999999999KA1240M+03241MA1999999099161MD1999999+0001MW1131REMSYN088AAXX  31004 82765 31/98 90000 10266 20246 39916 40156 713// 333 10324 29080 55057 58000;EQDQ01  00002PRCP99
0186827650999992001053112004-07320-047460FM-12+021299999V0209999C000012200019N0200001N1+02601+02401101691ADDAA199000091GF103991031011008001001001KA1240N+02311MA1999999099291MD1999999-0171REMSYN076AAXX  31124 82765 32598 30000 10260 20240 39929 40169 83100 333 20231 59017;EQDQ01  00002PRCP99
0182827650999992001053118004-07320-047460FM-12+021299999V0202301N002110450019N0200001N1+02721+02221101451ADDAA106000591AY191061AY251061GF108991031031008001021999MA1999999099041MD1999999+0091MW1291REMSYN082AAXX  31184 82765 21598 82304 10272 20222 39904 40145 72995 8332/ 333 58009 69941;
0204827650999992001060100004-07320-047460FM-12+021299999V0209999C000012200019N0200001N1+02361+02191101481ADDAA199000091GF102991021011008001001001KA1240M+03261MA1999999099071MD1999999-0091REMSYN094AAXX  01004 82765 31598 20000 10236 20219 39907 40148 7//99 82100 333 10326 29086 55055 59009;EQDQ01  00002PRCP99
0173827650999992001060112004-07320-047460FM-12+021299999V0209999C000012200019N0200001N1+02561+02131101741ADDAA124000591GF104991041021008001001001KA1240N+02131MA1999999099321MD1999999+0031REMSYN082AAXX  01124 82765 22598 40000 10256 20213 39932 40174 84200 333 20213 58003 69944;
0160827650999992001060118004-07320-047460FM-12+021299999V0200501N000512200019N0200001N1+03081+02351101301ADDAA106000191GF104991041021008001001001MA1999999098921MD1999999-0121REMSYN082AAXX  01184 82765 21598 40501 10308 20235 39892 40130 7//55 84200 333 59012 69921;
0220827650999992001060200004-07320-047460FM-12+021299999V0209999C000019999999N0200001N1+02741+02451101411ADDAA199000091GA1091+999999999GF109991091999999999999999KA1240M+03241MA1999999099021MD1999999+0051MW1131REMSYN088AAXX  02004 82765 31/98 90000 10274 20245 39902 40141 713// 333 10324 29076 55083 58005;EQDQ01  00002PRCP99
0173827650999992001060212004-07320-047460FM-12+021299999V0203601N000512200019N0200001N1+02761+02301101701ADDAA124000191GF102991021011008001001001KA1240N+02291MA1999999099311MD1999999-0011REMSYN082AAXX  02124 82765 22598 23601 10276 20230 39931 40170 82100 333 20229 59001 69924;
0167827650999992001060218004-07320-047460FM-12+021299999V0201401N002110450019N0200001N1+03281+02031101291ADDAA199000091GF105991041011008001041001MA1999999098911MD1999999-0011REMSYN070AAXX  02184 82765 32598 51404 10328 20203 39891 40129 84140 333 59001;EQDQ01  00002PRCP99
0208827650999992001060300004-07320-047460FM-12+021299999V0209999C000012200019N0200001N1+02761+02361101521ADDAA199000091GA1001+999999999GF100991001001999999001001KA1240M+03341MA1999999099131MD1999999+0111REMSYN082AAXX  03004 82765 32998 00000 10276 20236 39913 40152 333 10334 29070 55103 58011;EQDQ01  00002PRCP99
0186827650999992001060312004-07320-047460FM-12+021299999V0209999C000012200019N0200001N1+02601+02351101751ADDAA199000091GF103991021011008001041001KA1240N+02351MA1999999099351MD1999999+0041REMSYN076AAXX  03124 82765 32598 30000 10260 20235 39935 40175 82140 333 20235 58004;EQDQ01  00002PRCP99
0167827650999992001060318004-07320-047460FM-12+021299999V0200901N001012200019N0200001N1+03281+02071101291ADDAA199000091GF104991031011008001041001MA1999999098911MD1999999+0001REMSYN070AAXX  03184 82765 32598 40902 10328 20207 39891 40129 83140 333 58000;EQDQ01  00002PRCP99
0198827650999992001060400004-07320-047460FM-12+021299999V0209999C000012200019N0200001N1+02741+02281101551ADDAA199000091GF103991011011008001041001KA1240M+03381MA1999999099151MD1999999+0021REMSYN088AAXX  04004 82765 32598 30000 10274 20228 39915 40155 81140 333 10338 29072 55083 58002;EQDQ01  00002PRCP99
0186827650999992001060412004-07320-047460FM-12+021299999V0201401N000510450019N0200001N1+02721+02351101781ADDAA199000091GF107991041021008001021091KA1240N+02381MA1999999099391MD1999999+0041REMSYN076AAXX  04124 82765 32598 71401 10272 20235 39939 40178 84229 333 20238 58004;EQDQ01  00002PRCP99
0167827650999992001060418004-07320-047460FM-12+021299999V0200901N001510450019N0200001N1+03141+02321101431ADDAA199000091GF106991031021008001041041MA1999999099051MD1999999+0141REMSYN070AAXX  04184 82765 32598 60903 10314 20232 39905 40143 83244 333 58014;EQDQ01  00002PRCP99
0198827650999992001060500004-07320-047460FM-12+021299999V0209999C000010450019N0200001N1+02621+02251101581ADDAA199000091GF105991031011008001041001KA1240M+03261MA1999999099191MD1999999+0041REMSYN088AAXX  05004 82765 32598 50000 10262 20225 39919 40158 83140 333 10326 29074 55063 58004;EQDQ01  00002PRCP99
0186827650999992001060512004-07320-047460FM-12+021299999V0200901N002612200019N0200001N1+02711+02171101791ADDAA199000091GF103991011011008001011061KA1240N+02201MA1999999099391MD1999999+0001REMSYN076AAXX  05124 82765 32598 30905 10271 20217 39939 40179 81116 333 20220 58000;EQDQ01  00002PRCP99
0167827650999992001060518004-07320-047460FM-12+021299999V0209999C000010450019N0200001N1+03211+02461101391ADDAA199000091GF105991031021008001011061MA1999999099011MD1999999-0041REMSYN070AAXX  05184 82765 32598 50000 10321 20246 39901 40139 83216 333 59004;EQDQ01  00002PRCP99
0198827650999992001060600004-07320-047460FM-12+021299999V0209999C000012200019N0200001N1+02711+02431101581ADDAA199000091GF102991021011008001001001KA1240M+03341MA1999999099191MD1999999+0001REMSYN088AAXX  06004 82765 32598 20000 10271 20243 39919 40158 82100 333 10334 29077 55102 58000;EQDQ01  00002PRCP99
0186827650999992001060612004-07320-047460FM-12+021299999V0209999C000012200019N0200001N1+02591+02191101731ADDAA199000091GF104991031001008001061041KA1240N+02111MA1999999099331MD1999999-0061REMSYN076AAXX  06124 82765 32598 40000 10259 20219 39933 40173 83064 333 20211 59006;EQDQ01  00002PRCP99
0167827650999992001060618004-07320-047460FM-12+021299999V0200901N002112200019N0200001N1+03231+02081101401ADDAA199000091GF104991021011008001051041MA1999999099021MD1999999+0011REMSYN070AAXX  06184 82765 32598 40904 10323 20208 39902 40140 82154 333 58001;EQDQ01  00002PRCP99
0208827650999992001060700004-07320-047460FM-12+021299999V0209999C000012200019N0200001N1+02631+02331101591ADDAA199000091GA1001+999999999GF100991001001999999001001KA1240M+03391MA1999999099191MD1999999+0001REMSYN082AAXX  07004 82765 32998 00000 10263 20233 39919 40159 333 10339 29074 55103 58000;EQDQ01  00002PRCP99
0186827650999992001060712004-07320-047460FM-12+021299999V0209999C000010450019N0200001N1+02481+02131101781ADDAA199000091GF106991041011008001031001KA1240N+02191MA1999999099371MD1999999+0041REMSYN076AAXX  07124 82765 32598 60000 10248 20213 39937 40178 84130 333 20219 58004;EQDQ01  00002PRCP99
0167827650999992001060718004-07320-047460FM-12+021299999V0201801N002112200019N0200001N1+03281+02161101331ADDAA199000091GF102991021011008001001001MA1999999098951MD1999999-0071REMSYN070AAXX  07184 82765 32598 21804 10328 20216 39895 40133 82100 333 59007;EQDQ01  00002PRCP99
0201827650999992001060812004-07320-047460FM-12+021299999V0201801N001010450019N0200001N1+02721+02321101841ADDAA124000191AY161061AY221061GF105991031021008001031091KA1240N+02341MA1999999099451MD1999999+0081MW1021REMSYN088AAXX  08124 82765 21598 51802 10272 20232 39945 40184 70262 83239 333 20234 58008 69924;
0167827650999992001060818004-07320-047460FM-12+021299999V0201401N001510450019N0200001N1+03241+02221101411ADDAA199000091GF105991031021008001011041MA1999999099031MD1999999+0081REMSYN070AAXX  08184 82765 32598 51403 10324 20222 39903 40141 83214 333 58008;EQDQ01  00002PRCP99
0198827650999992001060900004-07320-047460FM-12+021299999V0209999C000012200019N0200001N1+02721+02471101571ADDAA199000091GF103991021001017501011011KA1240M+03361MA1999999099181MD1999999+0051REMSYN088AAXX  09004 82765 32798 30000 10272 20247 39918 40157 82011 333 10336 29076 55080 58005;EQDQ01  00002PRCP99
0186827650999992001060912004-07320-047460FM-12+021299999V0201401N003112200019N0200001N1+02611+01681101871ADDAA199000091GF104991021021008001041061KA1240N+02101MA1999999099461MD1999999+0011REMSYN076AAXX  09124 82765 32598 41406 10261 20168 39946 40187 82246 333 20210 58001;EQDQ01  00002PRCP99
0167827650999992001060918004-07320-047460FM-12+021299999V0200901N002112200019N0200001N1+03181+01981101481ADDAA199000091GF103991011011008001031061MA1999999099101MD1999999+0071REMSYN070AAXX  09184 82765 32598 30904 10318 20198 39910 40148 81136 333 58007;EQDQ01  00002PRCP99
0208827650999992001061000004-07320-047460FM-12+021299999V0209999C000019999999N0200001N1+02591+02331101671ADDAA199000091GA1091+999999999GF109991091999999999999999KA1240M+03311MA1999999099261MD1999999+0081REMSYN082AAXX  10004 82765 32/98 90000 10259 20233 39926 40167 333 10331 29070 55090 58008;EQDQ01  00002PRCP99
0167827650999992001061018004-07320-047460FM-12+021299999V0209999C000012200019N0200001N1+03251+02101101551ADDAA199000091GF107991041021008001001041MA1999999099161MD1999999+0061REMSYN070AAXX  10184 82765 32598 70000 10325 20210 39916 40155 84204 333 58006;EQDQ01  00002PRCP99
0186827650999992001061112004-07320-047460FM-12+021299999V0201401N003612200019N0200001N1+02761+02021101711ADDAA199000091GF103991011011008001041061KA1240N+02221MA1999999099321MD1999999-0161REMSYN076AAXX  11124 82765 32598 31407 10276 20202 39932 40171 81146 333 20222 59016;EQDQ01  00002PRCP99
0167827650999992001061118004-07320-047460FM-12+021299999V0201401N002612200019N0200001N1+03281+02161101351ADDAA199000091GF104991021021008001041041MA1999999098971MD1999999-0191REMSYN070AAXX  11184 82765 32598 41405 10328 20216 39897 40135 82244 333 59019;EQDQ01  00002PRCP99
0208827650999992001061200004-07320-047460FM-12+021299999V0209999C000019999999N0200001N1+02701+02351101521ADDAA199000091GA1091+999999999GF109991091999999999999999KA1240M+03391MA1999999099131MD1999999-0121REMSYN082AAXX  12004 82765 32/98 90000 10270 20235 39913 40152 333 10339 29070 55106 59012;EQDQ01  00002PRCP99
0186827650999992001061212004-07320-047460FM-12+021299999V0201401N003112200019N0200001N1+02731+01901101691ADDAA199000091GF102991021001017501041001KA1240N+02181MA1999999099291MD1999999-0031REMSYN076AAXX  12124 82765 32798 21406 10273 20190 39929 40169 82040 333 20218 59003;EQDQ01  00002PRCP99
0167827650999992001061218004-07320-047460FM-12+021299999V0201401N002112200019N0200001N1+03201+01781101311ADDAA199000091GF104991021021008001011041MA1999999098931MD1999999-0041REMSYN070AAXX  12184 82765 32598 41404 10320 20178 39893 40131 82214 333 59004;EQDQ01  00002PRCP99
0208827650999992001061300004-07320-047460FM-12+021299999V0209999C000019999999N0200001N1+02651+02071101541ADDAA199000091GA1091+999999999GF109991091999999999999999KA1240M+03321MA1999999099151MD1999999+0021REMSYN082AAXX  13004 82765 32/98 90000 10265 20207 39915 40154 333 10332 29062 55104 58002;EQDQ01  00002PRCP99
0186827650999992001061312004-07320-047460FM-12+021299999V0201401N001012200019N0200001N1+02521+01861101751ADDAA199000091GF103991011011008001041061KA1240N+01951MA1999999099341MD1999999+0051REMSYN076AAXX  13124 82765 32598 31402 10252 20186 39934 40175 81146 333 20195 58005;EQDQ01  00002PRCP99
0167827650999992001061318004-07320-047460FM-12+021299999V0201401N002110450019N0200001N1+03221+01691101401ADDAA199000091GF105991031021008001071041MA1999999099011MD1999999+0081REMSYN070AAXX  13184 82765 32598 51404 10322 20169 39901 40140 83274 333 58008;EQDQ01  00002PRCP99
0208827650999992001061400004-07320-047460FM-12+021299999V0209999C000019999999N0200001N1+02581+02081101631ADDAA199000091GA1091+999999999GF109991091999999999999999KA1240M+03311MA1999999099221MD1999999+0071REMSYN082AAXX  14004 82765 32/98 90000 10258 20208 39922 40163 333 10331 29063 55102 58007;EQDQ01  00002PRCP99
0186827650999992001061412004-07320-047460FM-12+021299999V0209999C000012200019N0200001N1+02651+01931101631ADDAA199000091GF102991021001017501041091KA1240N+02061MA1999999099231MD1999999-0111REMSYN076AAXX  14124 82765 32798 20000 10265 20193 39923 40163 82049 333 20206 59011;EQDQ01  00002PRCP99
0167827650999992001061418004-07320-047460FM-12+021299999V0201401N001512200019N0200001N1+03271+01801101271ADDAA199000091GF104991041021008001001001MA1999999098881MD1999999-0131REMSYN070AAXX  14184 82765 32598 41403 10327 20180 39888 40127 84200 333 59013;EQDQ01  00002PRCP99
0208827650999992001061500004-07320-047460FM-12+021299999V0209999C000019999999N0200001N1+02681+02221101511ADDAA199000091GA1091+999999999GF109991091999999999999999KA1240M+03371MA1999999099111MD1999999-0111REMSYN082AAXX  15004 82765 32/98 90000 10268 20222 39911 40151 333 10337 29065 55104 59011;EQDQ01  00002PRCP99
0186827650999992001061512004-07320-047460FM-12+021299999V0209999C000012200019N0200001N1+02731+02001101571ADDAA199000091GF102991021001017501051001KA1240N+02221MA1999999099181MD1999999-0051REMSYN076AAXX  15124 82765 32798 20000 10273 20200 39918 40157 82050 333 20222 59005;EQDQ01  00002PRCP99
0167827650999992001061518004-07320-047460FM-12+021299999V0200901N001510450019N0200001N1+03361+02361101201ADDAA199000091GF105991031021008001011041MA1999999098831MD1999999-0051REMSYN070AAXX  15184 82765 32598 50903 10336 20236 39883 40120 83214 333 59005;EQDQ01  00002PRCP99
0208827650999992001061600004-07320-047460FM-12+021299999V0209999C000019999999N0200001N1+02711+02061101411ADDAA199000091GA1091+999999999GF109991091999999999999999KA1240M+03491MA1999999099021MD1999999-0091REMSYN082AAXX  16004 82765 32/98 90000 10271 20206 39902 40141 333 10349 29060 55102 59009;EQDQ01  00002PRCP99
0186827650999992001061612004-07320-047460FM-12+021299999V0209999C000011050019N0200001N1+02531+02001101701ADDAA199000091GF105991021011012501011011KA1240N+02081MA1999999099291MD1999999+0111REMSYN076AAXX  16124 82765 32698 50000 10253 20200 39929 40170 82111 333 20208 58011;EQDQ01  00002PRCP99
0167827650999992001061618004-07320-047460FM-12+021299999V0201401N001510450019N0200001N1+03301+01531101321ADDAA199000091GF107991041011008001011011MA1999999098931MD1999999+0101REMSYN070AAXX  16184 82765 32598 71403 10330 20153 39893 40132 84111 333 58010;EQDQ01  00002PRCP99
0208827650999992001061700004-07320-047460FM-12+021299999V0209999C000019999999N0200001N1+02711+02111101431ADDAA199000091GA1091+999999999GF109991091999999999999999KA1240M+03441MA1999999099031MD1999999+0011REMSYN082AAXX  17004 82765 32/98 90000 10271 20211 39903 40143 333 10344 29064 55102 58001;EQDQ01  00002PRCP99
0202827650999992001061712004-07320-047460FM-12+021299999V0209999C000012200019N0200001N1+02581+02041101701ADDAA199000091GF102991021001017501011041KA1240N+99999MA1999999099301MD1999999+0011REMSYN076AAXX  17124 82765 32798 20000 10258 20204 39930 40170 82014 333 20270 58001;EQDQ01  00002PRCP99Q02 +02702ATMN  
0208827650999992001061800004-07320-047460FM-12+021299999V0209999C000019999999N0200001N1+02741+02171101381ADDAA199000091GA1091+999999999GF109991091999999999999999KA1240M+03481MA1999999098991MD1999999-0041REMSYN082AAXX  18004 82765 32/98 90000 10274 20217 39899 40138 333 10348 29064 55106 59004;EQDQ01  00002PRCP99
0196827650999992001061812004-07320-047460FM-12+021299999V0209999C000012200019N0200001N1+02691+02091101671ADDAA199000091GA1001+999999999GF100991001001999999001001KA1240N+02101MA1999999099271MD1999999-0031REMSYN070AAXX  18124 82765 32998 00000 10269 20209 39927 40167 333 20210 59003;EQDQ01  00002PRCP99
0167827650999992001061818004-07320-047460FM-12+021299999V0200901N001012200019N0200001N1+03401+02001101241ADDAA199000091GF105991031021008001001041MA1999999098861MD1999999-0011REMSYN070AAXX  18184 82765 32598 50902 10340 20200 39886 40124 83204 333 59001;EQDQ01  00002PRCP99
0208827650999992001061900004-07320-047460FM-12+021299999V0209999C000019999999N0200001N1+02811+02251101451ADDAA199000091GA1091+999999999GF109991091999999999999999KA1240M+03521MA1999999099061MD1999999+0071REMSYN082AAXX  19004 82765 32/98 90000 10281 20225 39906 40145 333 10352 29064 55010 58007;EQDQ01  00002PRCP99
0186827650999992001061912004-07320-047460FM-12+021299999V0209999C000012200019N0200001N1+02501+02191101711ADDAA199000091GF103991011021008001011011KA1240N+02201MA1999999099311MD1999999+0041REMSYN076AAXX  19124 82765 32598 30000 10250 20219 39931 40171 81211 333 20220 58004;EQDQ01  00002PRCP99
0208827650999992001062000004-07320-047460FM-12+021299999V0209999C000019999999N0200001N1+02751+02171101501ADDAA199000091GA1091+999999999GF109991091999999999999999KA1240M+03511MA1999999099101MD1999999+0041REMSYN082AAXX  20004 82765 32/98 90000 10275 20217 39910 40150 333 10351 29068 55092 58004;EQDQ01  00002PRCP99
0186827650999992001062012004-07320-047460FM-12+021299999V0201401N001012200019N0200001N1+02501+02091101821ADDAA199000091GF103991011011008001011091KA1240N+02091MA1999999099411MD1999999+0101REMSYN076AAXX  20124 82765 32598 31402 10250 20209 39941 40182 81119 333 20209 58010;EQDQ01  00002PRCP99
0167827650999992001062018004-07320-047460FM-12+021299999V0200901N002112200019N0200001N1+03401+01891101441ADDAA199000091GF104991041021008001001001MA1999999099061MD1999999+0231REMSYN070AAXX  20184 82765 32598 40904 10340 20189 39906 40144 84200 333 58023;EQDQ01  00002PRCP99
0193827650999992001062100004-07320-047460FM-12+021299999V0209999C000019999999N0200001N1+02751+02021101711ADDAA199000091GA1091+999999999GF109991091999999999999999KA1240M+03511MA1999999099301REMSYN081AAXX  21004 82765 32/98 90000 10275 20202 39930 40171 333 10351 29062 5507 58020;EQDQ01  00002PRCP99
0186827650999992001062112004-07320-047460FM-12+021299999V0201401N000510450019N0200001N1+02461+01941101871ADDAA199000091GF105991021011008001031001KA1240N+02121MA1999999099461MD1999999+0051REMSYN076AAXX  21124 82765 32598 51401 10246 20194 39946 40187 82130 333 20212 58005;EQDQ01  00002PRCP99
0167827650999992001062118004-07320-047460FM-12+021299999V0200901N000510075019N0200001N1+03361+01811101421ADDAA199000091GF107991051021008001061001MA1999999099041MD1999999-0021REMSYN070AAXX  21184 82765 32598 70901 10336 20181 39904 40142 85260 333 59002;EQDQ01  00002PRCP99
0208827650999992001062200004-07320-047460FM-12+021299999V0209999C000019999999N0200001N1+02781+02301101711ADDAA199000091GA1091+999999999GF109991091999999999999999KA1240M+03451MA1999999099301MD1999999+0001REMSYN082AAXX  22004 82765 32/98 90000 10278 20230 39930 40171 333 10345 29066 55075 58000;EQDQ01  00002PRCP99
0186827650999992001062212004-07320-047460FM-12+021299999V0209999C000010150019N0200001N1+02421+02131101861ADDAA199000091GF107991071001017501031001KA1240N+02191MA1999999099451MD1999999-0011REMSYN076AAXX  22124 82765 32798 70000 10242 20213 39945 40186 87030 333 20219 59001;EQDQ01  00002PRCP99
0167827650999992001062218004-07320-047460FM-12+021299999V0203201N000510075019N0200001N1+03091+02211101571ADDAA199000091GF107991051021008001011001MA1999999099171MD1999999+0131REMSYN070AAXX  22184 82765 32598 73201 10309 20221 39917 40157 85210 333 58013;EQDQ01  00002PRCP99
0208827650999992001062300004-07320-047460FM-12+021299999V0209999C000019999999N0200001N1+02711+02301101741ADDAA199000091GA1091+999999999GF109991091999999999999999KA1240M+03241MA1999999099331MD1999999+0031REMSYN082AAXX  23004 82765 32/98 90000 10271 20230 39933 40174 333 10324 29074 55043 58003;EQDQ01  00002PRCP99
0186827650999992001062312004-07320-047460FM-12+021299999V0209999C000012200019N0200001N1+02681+02161101841ADDAA199000091GF103991011011008001041041KA1240N+02301MA1999999099441MD1999999-0011REMSYN076AAXX  23124 82765 32598 30000 10268 20216 39944 40184 81144 333 20230 59001;EQDQ01  00002PRCP99
0167827650999992001062318004-07320-047460FM-12+021299999V0201401N001510450019N0200001N1+03431+01871101371ADDAA199000091GF106991041021008001041091MA1999999099001MD1999999-0171REMSYN070AAXX  23184 82765 32598 61403 10343 20187 39900 40137 84249 333 59017;EQDQ01  00002PRCP99
0208827650999992001062400004-07320-047460FM-12+021299999V0209999C000019999999N0200001N1+02921+02241101611ADDAA199000091GA1091+999999999GF109991091999999999999999KA1240M+03531MA1999999099231MD1999999-0101REMSYN082AAXX  24004 82765 32/98 90000 10292 20224 39923 40161 333 10353 29062 55093 59010;EQDQ01  00002PRCP99
0201827650999992001062412004-07320-047460FM-12+021299999V0209999C000010450019N0200001N1+02721+02241101891ADDAA124000191AY161061AY221061GF106991041021008001031091KA1240N+02321MA1999999099501MD1999999+0061MW1031REMSYN088AAXX  24124 82765 21598 60000 10272 20224 39950 40189 70362 84239 333 20232 58006 69914;
0167827650999992001062418004-07320-047460FM-12+021299999V0200901N003110450019N0200001N1+03261+01841101481ADDAA199000091GF107991041021008001031091MA1999999099101MD1999999+0101REMSYN070AAXX  24184 82765 32598 70906 10326 20184 39910 40148 84239 333 58010;EQDQ01  00002PRCP99
0208827650999992001062500004-07320-047460FM-12+021299999V0209999C000019999999N0200001N1+02791+02161101701ADDAA199000091GA1091+999999999GF109991091999999999999999KA1240M+03401MA1999999099311MD1999999+0081REMSYN082AAXX  25004 82765 32/98 90000 10279 20216 39931 40170 333 10340 29064 55061 58008;EQDQ01  00002PRCP99
0186827650999992001062512004-07320-047460FM-12+021299999V0200901N002612200019N0200001N1+02691+01891101981ADDAA199000091GF103991011011008001061041KA1240N+02041MA1999999099581MD1999999+0081REMSYN076AAXX  25124 82765 32598 30905 10269 20189 39958 40198 81164 333 20204 58008;EQDQ01  00002PRCP99
0167827650999992001062518004-07320-047460FM-12+021299999V0201401N002610075019N0200001N1+03241+01821101601ADDAA199000091GF105991051021008001001001MA1999999099211MD1999999+0111REMSYN070AAXX  25184 82765 32598 51405 10324 20182 39921 40160 85200 333 58011;EQDQ01  00002PRCP99
0208827650999992001062600004-07320-047460FM-12+021299999V0209999C000012200019N0200001N1+02741+02051101791ADDAA199000091GA1001+999999999GF100991001001999999001001KA1240M+03391MA1999999099391MD1999999+0081REMSYN082AAXX  26004 82765 32998 00000 10274 20205 39939 40179 333 10339 29059 55103 58008;EQDQ01  00002PRCP99
0186827650999992001062612004-07320-047460FM-12+021299999V0209999C000012200019N0200001N1+02501+01891102101ADDAA199000091GF102991011001022501041091KA1240N+01981MA1999999099681MD1999999+0101REMSYN076AAXX  26124 82765 32898 20000 10250 20189 39968 40210 81049 333 20198 58010;EQDQ01  00002PRCP99
0167827650999992001062618004-07320-047460FM-12+021299999V0200901N002110075019N0200001N1+03371+01771101691ADDAA199000091GF105991051021008001001001MA1999999099291MD1999999+0081REMSYN070AAXX  26184 82765 32598 50904 10337 20177 39929 40169 85200 333 58008;EQDQ01  00002PRCP99
0208827650999992001062700004-07320-047460FM-12+021299999V0209999C000012200019N0200001N1+02741+02051101831ADDAA199000091GA1001+999999999GF100991001001999999001001KA1240M+03541MA1999999099421MD1999999+0031REMSYN082AAXX  27004 82765 32998 00000 10274 20205 39942 40183 333 10354 29060 55104 58003;EQDQ01  00002PRCP99
0196827650999992001062712004-07320-047460FM-12+021299999V0209999C000012200019N0200001N1+02541+01881101951ADDAA199000091GA1001+999999999GF100991001001999999001001KA1240N+02041MA1999999099541MD1999999-0141REMSYN070AAXX  27124 82765 32998 00000 10254 20188 39954 40195 333 20204 59014;EQDQ01  00002PRCP99
0167827650999992001062718004-07320-047460FM-12+021299999V0201401N001010075019N0200001N1+03361+01811101541ADDAA199000091GF105991051021008001001001MA1999999099151MD1999999-0141REMSYN070AAXX  27184 82765 32598 51402 10336 20181 39915 40154 85200 333 59014;EQDQ01  00002PRCP99
0208827650999992001062800004-07320-047460FM-12+021299999V0209999C000012200019N0200001N1+02761+02121101641ADDAA199000091GA1001+999999999GF100991001001999999001001KA1240M+03511MA1999999099241MD1999999-0181REMSYN082AAXX  28004 82765 32998 00000 10276 20212 39924 40164 333 10351 29061 55099 59018;EQDQ01  00002PRCP99
0186827650999992001062812004-07320-047460FM-12+021299999V0209999C000010450019N0200001N1+02661+02001101811ADDAA199000091GF105991031011017501031001KA1240N+02041MA1999999099411MD1999999-0131REMSYN076AAXX  28124 82765 32798 50000 10266 20200 39941 40181 83130 333 20204 59013;EQDQ01  00002PRCP99
0167827650999992001062818004-07320-047460FM-12+021299999V0201801N001512200019N0200001N1+03381+01711101371ADDAA199000091GF104991021021008001031011MA1999999098991MD1999999-0161REMSYN070AAXX  28184 82765 32598 41803 10338 20171 39899 40137 82231 333 59016;EQDQ01  00002PRCP99
0198827650999992001062900004-07320-047460FM-12+021299999V0201801N001510450019N0200001N1+02791+02321101611ADDAA199000091GF105991031011008001031001KA1240M+03461MA1999999099221MD1999999-0021REMSYN088AAXX  29004 82765 32598 51803 10279 20232 39922 40161 83130 333 10346 29064 55068 59002;EQDQ01  00002PRCP99
0201827650999992001062912004-07320-047460FM-12+021299999V0209999C000010450019N0200001N1+02531+02171101881ADDAA124000891AY161061AY221061GF106991031021008001031001KA1240N+02401MA1999999099471MD1999999+0061MW1021REMSYN088AAXX  29124 82765 21598 60000 10253 20217 39947 40188 70262 83230 333 20240 58006 69974;
0167827650999992001062918004-07320-047460FM-12+021299999V0200901N002610450019N0200001N1+03331+02141101371ADDAA199000091GF106991041021008001021041MA1999999098991MD1999999+0001REMSYN070AAXX  29184 82765 32598 60905 10333 20214 39899 40137 84224 333 58000;EQDQ01  00002PRCP99
0213827650999992001063000004-07320-047460FM-12+021299999V0209999C000010150019N0200001N1+02641+02441101571ADDAA106002091AY161061AY221061GF105991051001017501031001KA1240M+03451MA1999999099171MD1999999-0051MW1021REMSYN100AAXX  30004 82765 21798 50000 10264 20244 39917 40157 70262 85030 333 10345 29077 55059 59005 60021;
0173827650999992001063012004-07320-047460FM-12+021299999V0200901N002112200019N0200001N1+02821+02171101681ADDAA124002091GF103991011021008001051041KA1240N+02351MA1999999099291MD1999999-0181REMSYN082AAXX  30124 82765 22598 30904 10282 20217 39929 40168 81254 333 20235 59018 60024;
0167827650999992001063018004-07320-047460FM-12+021299999V0200901N001510450019N0200001N1+03361+02001101261ADDAA199000091GF105991031021008001011041MA1999999098891MD1999999-0101REMSYN070AAXX  30184 82765 32598 50903 10336 20200 39889 40126 83214 333 59010;EQDQ01  00002PRCP99
0208827650999992001070100004-07320-047460FM-12+021299999V0209999C000012200019N0200001N1+02731+02091101471ADDAA199000091GA1001+999999999GF100991001001999999001001KA1240M+03511MA1999999099091MD1999999-0081REMSYN082AAXX  01004 82765 32998 00000 10273 20209 39909 40147 333 10351 29062 55102 59008;EQDQ01  00002PRCP99
0196827650999992001070112004-07320-047460FM-12+021299999V0201401N000512200019N0200001N1+02691+01991101731ADDAA199000091GA1001+999999999GF100991001001999999001001KA1240N+02061MA1999999099331MD1999999+0041REMSYN070AAXX  01124 82765 32998 01401 10269 20199 39933 40173 333 20206 58004;EQDQ01  00002PRCP99
0167827650999992001070118004-07320-047460FM-12+021299999V0200901N001512200019N0200001N1+03411+01591101211ADDAA199000091GF103991021011008001001041MA1999999098841MD1999999-0051REMSYN070AAXX  01184 82765 32598 30903 10341 20159 39884 40121 82104 333 59005;EQDQ01  00002PRCP99
0186827650999992001070212004-07320-047460FM-12+021299999V0209999C000012200019N0200001N1+02581+01921101821ADDAA199000091GF104991021021008001031001KA1240N+02101MA1999999099421MD1999999+0091REMSYN076AAXX  02124 82765 32598 40000 10258 20192 39942 40182 82230 333 20210 58009;EQDQ01  00002PRCP99
0167827650999992001070218004-07320-047460FM-12+021299999V0201401N000510075019N0200001N1+03261+01801101391ADDAA199000091GF106991051021008001091001MA1999999099011MD1999999+0171REMSYN070AAXX  02184 82765 32598 61401 10326 20180 39901 40139 85290 333 58017;EQDQ01  00002PRCP99
0208827650999992001070300004-07320-047460FM-12+021299999V0209999C000012200019N0200001N1+02771+02161101581ADDAA199000091GA1001+999999999GF100991001001999999001001KA1240M+03491MA1999999099191MD1999999+0061REMSYN082AAXX  03004 82765 32998 00000 10277 20216 39919 40158 333 10349 29062 55084 58006;EQDQ01  00002PRCP99
0186827650999992001070312004-07320-047460FM-12+021299999V0209999C000012200019N0200001N1+02611+01961101821ADDAA199000091GF104991011011012501061041KA1240N+02061MA1999999099421MD1999999+0001REMSYN076AAXX  03124 82765 32698 40000 10261 20196 39942 40182 81164 333 20206 58000;EQDQ01  00002PRCP99
0167827650999992001070318004-07320-047460FM-12+021299999V0200501N001010450019N0200001N1+03471+01821101361ADDAA199000091GF106991041021008001041011MA1999999098981MD1999999-0031REMSYN070AAXX  03184 82765 32598 60502 10347 20182 39898 40136 84241 333 59003;EQDQ01  00002PRCP99
0208827650999992001070400004-07320-047460FM-12+021299999V0209999C000012200019N0200001N1+02811+02111101581ADDAA199000091GA1001+999999999GF100991001001999999001001KA1240M+03601MA1999999099191MD1999999-0031REMSYN082AAXX  04004 82765 32998 00000 10281 20211 39919 40158 333 10360 29060 55106 59003;EQDQ01  00002PRCP99
0186827650999992001070412004-07320-047460FM-12+021299999V0209999C000010450019N0200001N1+02481+02151101821ADDAA199000091GF105991021011008001031001KA1240N+02211MA1999999099421MD1999999+0001REMSYN076AAXX  04124 82765 32598 50000 10248 20215 39942 40182 82130 333 20221 58000;EQDQ01  00002PRCP99
0167827650999992001070418004-07320-047460FM-12+021299999V0200901N003110075019N0200001N1+03461+01781101431ADDAA199000091GF106991051011008001031001MA1999999099061MD1999999+0081REMSYN070AAXX  04184 82765 32598 60906 10346 20178 39906 40143 85130 333 58008;EQDQ01  00002PRCP99
0208827650999992001070500004-07320-047460FM-12+021299999V0209999C000012200019N0200001N1+02881+02281101601ADDAA199000091GA1001+999999999GF100991001001999999001001KA1240M+03501MA1999999099211MD1999999+0021REMSYN082AAXX  05004 82765 32998 00000 10288 20228 39921 40160 333 10350 29065 55083 58002;EQDQ01  00002PRCP99
0186827650999992001070512004-07320-047460FM-12+021299999V0209999C000012200019N0200001N1+02701+02151101851ADDAA199000091GF104991031011008001031001KA1240N+02231MA1999999099461MD1999999+0041REMSYN076AAXX  05124 82765 32598 40000 10270 20215 39946 40185 83130 333 20223 58004;EQDQ01  00002PRCP99
0167827650999992001070518004-07320-047460FM-12+021299999V0200901N000510075019N0200001N1+03381+02091101451ADDAA199000091GF106991061021008001001001MA1999999099071MD1999999+0011REMSYN070AAXX  05184 82765 32598 60901 10338 20209 39907 40145 86200 333 58001;EQDQ01  00002PRCP99
0198827650999992001070600004-07320-047460FM-12+021299999V0209999C000010075019N0200001N1+02901+02271101551ADDAA199000091GF105991051011008001001001KA1240M+03461MA1999999099171MD1999999-0041REMSYN088AAXX  06004 82765 32598 50000 10290 20227 39917 40155 85100 333 10346 29064 55076 59004;EQDQ01  00002PRCP99
0196827650999992001070612004-07320-047460FM-12+021299999V0200901N000512200019N0200001N1+02801+02181101641ADDAA199000091GA1001+999999999GF100991001001999999001001KA1240N+02211MA1999999099261MD1999999-0201REMSYN070AAXX  06124 82765 32998 00901 10280 20218 39926 40164 333 20221 59020;EQDQ01  00002PRCP99
0167827650999992001070618004-07320-047460FM-12+021299999V0200901N003110075019N0200001N1+03441+01921101241ADDAA199000091GF105991051021008001001001MA1999999098871MD1999999-0201REMSYN070AAXX  06184 82765 32598 50906 10344 20192 39887 40124 85200 333 59020;EQDQ01  00002PRCP99
0198827650999992001070700004-07320-047460FM-12+021299999V0209999C000012200019N0200001N1+02861+01951101511ADDAA199000091GF102991021021008001001001KA1240M+03541MA1999999099131MD1999999-0041REMSYN088AAXX  07004 82765 32598 20000 10286 20195 39913 40151 82200 333 10354 29056 55090 59004;EQDQ01  00002PRCP99
0186827650999992001070712004-07320-047460FM-12+021299999V0201401N004610450019N0200001N1+02861+01721101771ADDAA199000091GF105991031011012501031041KA1240N+02251MA1999999099391MD1999999+0131REMSYN076AAXX  07124 82765 32698 51409 10286 20172 39939 40177 83134 333 20225 58013;EQDQ01  00002PRCP99
0167827650999992001070718004-07320-047460FM-12+021299999V0201401N003110450019N0200001N1+03351+01751101401ADDAA199000091GF105991031021008001011041MA1999999099031MD1999999+0161REMSYN070AAXX  07184 82765 32598 51406 10335 20175 39903 40140 83214 333 58016;EQDQ01  00002PRCP99
0186827650999992001070812004-07320-047460FM-12+021299999V0201401N002612200019N0200001N1+02551+01881101941ADDAA199000091GF103991021001022501011041KA1240N+02161MA1999999099531MD1999999+0141REMSYN076AAXX  08124 82765 32898 31405 10255 20188 39953 40194 82014 333 20216 58014;EQDQ01  00002PRCP99
0167827650999992001070818004-07320-047460FM-12+021299999V0200901N003110450019N0200001N1+03301+01871101581ADDAA199000091GF106991031021008001011041MA1999999099191MD1999999+0161REMSYN070AAXX  08184 82765 32598 60906 10330 20187 39919 40158 83214 333 58016;EQDQ01  00002PRCP99
0208827650999992001070900004-07320-047460FM-12+021299999V0209999C000012200019N0200001N1+02801+02031101661ADDAA199000091GA1001+999999999GF100991001001999999001001KA1240M+03421MA1999999099261MD1999999+0061REMSYN082AAXX  09004 82765 32998 00000 10280 20203 39926 40166 333 10342 29059 55106 58006;EQDQ01  00002PRCP99
0196827650999992001070912004-07320-047460FM-12+021299999V0201401N002112200019N0200001N1+02581+01771101841ADDAA199000091GA1001+999999999GF100991001001999999001001KA1240N+02071MA1999999099441MD1999999-0091REMSYN070AAXX  09124 82765 32998 01404 10258 20177 39944 40184 333 20207 59009;EQDQ01  00002PRCP99
0167827650999992001070918004-07320-047460FM-12+021299999V0201401N002112200019N0200001N1+03371+01601101451ADDAA199000091GF103991011011012501011041MA1999999099061MD1999999-0131REMSYN070AAXX  09184 82765 32698 31404 10337 20160 39906 40145 81114 333 59013;EQDQ01  00002PRCP99
0208827650999992001071000004-07320-047460FM-12+021299999V0209999C000012200019N0200001N1+02821+01911101611ADDAA199000091GA1001+999999999GF100991001001999999001001KA1240M+03521MA1999999099221MD1999999-0041REMSYN082AAXX  10004 82765 32998 00000 10282 20191 39922 40161 333 10352 29053 55107 59004;EQDQ01  00002PRCP99
0196827650999992001071012004-07320-047460FM-12+021299999V0209999C000012200019N0200001N1+02501+01821101691ADDAA199000091GA1001+999999999GF100991001001999999001001KA1240N+02031MA1999999099291MD1999999-0151REMSYN070AAXX  10124 82765 32998 00000 10250 20182 39929 40169 333 20203 59015;EQDQ01  00002PRCP99
0167827650999992001071018004-07320-047460FM-12+021299999V0200901N003110075019N0200001N1+03381+01751101271ADDAA199000091GF106991061021008001001001MA1999999098891MD1999999-0171REMSYN070AAXX  10184 82765 32598 60906 10338 20175 39889 40127 86200 333 59017;EQDQ01  00002PRCP99
0208827650999992001071100004-07320-047460FM-12+021299999V0209999C000012200019N0200001N1+02941+02111101461ADDAA199000091GA1001+999999999GF100991001001999999001001KA1240M+03521MA1999999099071MD1999999-0201REMSYN082AAXX  11004 82765 32998 00000 10294 20211 39907 40146 333 10352 29056 55093 59020;EQDQ01  00002PRCP99
0186827650999992001071112004-07320-047460FM-12+021299999V0209999C000012200019N0200001N1+02621+02101101831ADDAA199000091GF101991011011008001001001KA1240N+02231MA1999999099441MD1999999+0151REMSYN076AAXX  11124 82765 32598 10000 10262 20210 39944 40183 81100 333 20223 58015;EQDQ01  00002PRCP99
0167827650999992001071118004-07320-047460FM-12+021299999V0201401N000512200019N0200001N1+03501+01681101361ADDAA199000091GF101991011011008001001001MA1999999098991MD1999999+0101REMSYN070AAXX  11184 82765 32598 11401 10350 20168 39899 40136 81100 333 58010;EQDQ01  00002PRCP99
0208827650999992001071200004-07320-047460FM-12+021299999V0209999C000012200019N0200001N1+02861+02141101541ADDAA199000091GA1001+999999999GF100991001001999999001001KA1240M+03621MA1999999099151MD1999999+0081REMSYN082AAXX  12004 82765 32998 00000 10286 20214 39915 40154 333 10362 29059 55102 58008;EQDQ01  00002PRCP99
0196827650999992001071212004-07320-047460FM-12+021299999V0209999C000012200019N0200001N1+02701+01991101871ADDAA199000091GA1001+999999999GF100991001001999999001001KA1240N+02091MA1999999099481MD1999999+0041REMSYN070AAXX  12124 82765 32998 00000 10270 20199 39948 40187 333 20209 58004;EQDQ01  00002PRCP99
0167827650999992001071218004-07320-047460FM-12+021299999V0209999C000010075019N0200001N1+03521+01991101461ADDAA199000091GF106991061021008001001001MA1999999099081MD1999999+0091REMSYN070AAXX  12184 82765 32598 60000 10352 20199 39908 40146 86200 333 58009;EQDQ01  00002PRCP99
0208827650999992001071300004-07320-047460FM-12+021299999V0209999C000012200019N0200001N1+03001+02221101551ADDAA199000091GA1001+999999999GF100991001001999999001001KA1240M+03641MA1999999099171MD1999999+0021REMSYN082AAXX  13004 82765 32998 00000 10300 20222 39917 40155 333 10364 29058 55101 58002;EQDQ01  00002PRCP99
0186827650999992001071312004-07320-047460FM-12+021299999V0209999C000012200019N0200001N1+02651+02071101741ADDAA199000091GF104991021011008001061041KA1240N+02231MA1999999099351MD1999999-0131REMSYN076AAXX  13124 82765 32598 40000 10265 20207 39935 40174 82164 333 20223 59013;EQDQ01  00002PRCP99
0182827650999992001071318004-07320-047460FM-12+021299999V0203601N001010450019N0200001N1+02751+02171101381ADDAA106001091AY161061AY221061GF106991041031008001061001MA1999999098981MD1999999-0101MW1031REMSYN082AAXX  13184 82765 21598 63602 10275 20217 39898 40138 70362 84360 333 59010 60011;
0196827650999992001071612004-07320-047460FM-12+021299999V0201401N002112200019N0200001N1+02561+01881101731ADDAA199000091GA1001+999999999GF100991001001999999001001KA1240N+02071MA1999999099331MD1999999-0031REMSYN070AAXX  16124 82765 32998 01404 10256 20188 39933 40173 333 20207 59003;EQDQ01  00002PRCP99
0167827650999992001071618004-07320-047460FM-12+021299999V0200901N001510075019N0200001N1+03361+01731101391ADDAA199000091GF106991061021008001001001MA1999999099011MD1999999+0071REMSYN070AAXX  16184 82765 32598 60903 10336 20173 39901 40139 86200 333 58007;EQDQ01  00002PRCP99
0208827650999992001071700004-07320-047460FM-12+021299999V0209999C000019999999N0200001N1+02921+02141101561ADDAA199000091GA1091+999999999GF109991091999999999999999KA1240M+03261MA1999999099171MD1999999+0091REMSYN082AAXX  17004 82765 32/98 90000 10292 20214 39917 40156 333 10326 29058 55104 58009;EQDQ01  00002PRCP99
0186827650999992001071712004-07320-047460FM-12+021299999V0200901N000512200019N0200001N1+02721+02101101851ADDAA199000091GF103991031011008001001001KA1240N+02271MA1999999099461MD1999999+0131REMSYN076AAXX  17124 82765 32598 30901 10272 20210 39946 40185 83100 333 20227 58013;EQDQ01  00002PRCP99
0167827650999992001071718004-07320-047460FM-12+021299999V0200901N001510075019N0200001N1+03401+01811101431ADDAA199000091GF106991061021008001001001MA1999999099061MD1999999+0051REMSYN070AAXX  17184 82765 32598 60903 10340 20181 39906 40143 86200 333 58005;EQDQ01  00002PRCP99
0186827650999992001071812004-07320-047460FM-12+021299999V0200901N001512200019N0200001N1+02661+02021101811ADDAA199000091GF102991021011008001001001KA1240N+02151MA1999999099421MD1999999-0041REMSYN076AAXX  18124 82765 32598 20903 10266 20202 39942 40181 82100 333 20215 59004;EQDQ01  00002PRCP99
0208827650999992001071900004-07320-047460FM-12+021299999V0209999C000012200019N0200001N1+02861+02211101541ADDAA199000091GA1001+999999999GF100991001001999999001001KA1240M+03521MA1999999099151MD1999999-0081REMSYN082AAXX  19004 82765 32998 00000 10286 20221 39915 40154 333 10352 29061 55102 59008;EQDQ01  00002PRCP99
0186827650999992001071912004-07320-047460FM-12+021299999V0209999C000012200019N0200001N1+02751+02071101771ADDAA199000091GF102991011011008001051001KA1240N+02171MA1999999099381MD1999999-0041REMSYN076AAXX  19124 82765 32598 20000 10275 20207 39938 40177 81150 333 20217 59004;EQDQ01  00002PRCP99
0167827650999992001071918004-07320-047460FM-12+021299999V0201401N002612200019N0200001N1+03461+01861101301ADDAA199000091GF104991041021008001001001MA1999999098931MD1999999-0091REMSYN070AAXX  19184 82765 32598 41405 10346 20186 39893 40130 84200 333 59009;EQDQ01  00002PRCP99
0208827650999992001072000004-07320-047460FM-12+021299999V0209999C000012200019N0200001N1+02941+02141101411ADDAA199000091GA1001+999999999GF100991001001999999001001KA1240M+03591MA1999999099041MD1999999-0111REMSYN082AAXX  20004 82765 32998 00000 10294 20214 39904 40141 333 10359 29058 55104 59011;EQDQ01  00002PRCP99
0167827650999992001072018004-07320-047460FM-12+021299999V0200901N003610075019N0200001N1+03501+01861101181ADDAA199000091GF106991061021008001001001MA1999999098811MD1999999-0121REMSYN070AAXX  20184 82765 32598 60907 10350 20186 39881 40118 86200 333 59012;EQDQ01  00002PRCP99
0186827650999992001072112004-07320-047460FM-12+021299999V0200901N001512200019N0200001N1+02881+02161101671ADDAA199000091GF103991011011012501051041KA1240N+02291MA1999999099291MD1999999+0121REMSYN076AAXX  21124 82765 32698 30903 10288 20216 39929 40167 81154 333 20229 58012;EQDQ01  00002PRCP99
0167827650999992001072118004-07320-047460FM-12+021299999V0201401N001512200019N0200001N1+03521+01741101261ADDAA199000091GF104991031021008001001041MA1999999098901MD1999999+0091REMSYN070AAXX  21184 82765 32598 41403 10352 20174 39890 40126 83204 333 58009;EQDQ01  00002PRCP99
0208827650999992001072200004-07320-047460FM-12+021299999V0209999C000012200019N0200001N1+02871+01841101461ADDAA199000091GA1001+999999999GF100991001001999999001001KA1240M+03651MA1999999099091MD1999999+0091REMSYN082AAXX  22004 82765 32998 00000 10287 20184 39909 40146 333 10365 29052 55102 58009;EQDQ01  00002PRCP99
0186827650999992001072212004-07320-047460FM-12+021299999V0200901N000512200019N0200001N1+02761+02161101701ADDAA199000091GF101991011011008001001001KA1240N+02211MA1999999099311MD1999999+0021REMSYN076AAXX  22124 82765 32598 10901 10276 20216 39931 40170 81100 333 20221 58002;EQDQ01  00002PRCP99
0167827650999992001072218004-07320-047460FM-12+021299999V0200901N001510075019N0200001N1+03481+01961101271ADDAA199000091GF106991061021008001001001MA1999999098901MD1999999+0001REMSYN070AAXX  22184 82765 32598 60903 10348 20196 39890 40127 86200 333 58000;EQDQ01  00002PRCP99
0208827650999992001072300004-07320-047460FM-12+021299999V0209999C000019999999N0200001N1+02621+02031101431ADDAA199000091GA1091+999999999GF109991091999999999999999KA1240M+03521MA1999999099041MD1999999-0031REMSYN082AAXX  23004 82765 32/98 90000 10262 20203 39904 40143 333 10352 29063 55070 59003;EQDQ01  00002PRCP99
0196827650999992001072312004-07320-047460FM-12+021299999V0200501N000512200019N0200001N1+02741+02141101721ADDAA199000091GA1001+999999999GF100991001001999999001001KA1240N+02251MA1999999099321MD1999999+0011REMSYN070AAXX  23124 82765 32998 00501 10274 20214 39932 40172 333 20225 58001;EQDQ01  00002PRCP99
0167827650999992001072318004-07320-047460FM-12+021299999V0200901N000510075019N0200001N1+03501+01941101331ADDAA199000091GF106991061021008001001001MA1999999098961MD1999999+0061REMSYN070AAXX  23184 82765 32598 60901 10350 20194 39896 40133 86200 333 58006;EQDQ01  00002PRCP99
0208827650999992001072400004-07320-047460FM-12+021299999V0209999C000019999999N0200001N1+02881+02321101471ADDAA199000091GA1091+999999999GF109991091999999999999999KA1240M+03581MA1999999099091MD1999999+0051REMSYN082AAXX  24004 82765 32/98 90000 10288 20232 39909 40147 333 10358 29064 55093 58005;EQDQ01  00002PRCP99
0186827650999992001072412004-07320-047460FM-12+021299999V0209999C000010075019N0200001N1+02641+02121101861ADDAA199000091GF105991051021008001001001KA1240N+02261MA1999999099461MD1999999+0141REMSYN076AAXX  24124 82765 32598 50000 10264 20212 39946 40186 85200 333 20226 58014;EQDQ01  00002PRCP99
0167827650999992001072418004-07320-047460FM-12+021299999V0201401N003112200019N0200001N1+03451+01581101421ADDAA199000091GF104991021011008001011041MA1999999099051MD1999999+0091REMSYN070AAXX  24184 82765 32598 41406 10345 20158 39905 40142 82114 333 58009;EQDQ01  00002PRCP99
0208827650999992001072500004-07320-047460FM-12+021299999V0209999C000019999999N0200001N1+02821+01911101511ADDAA199000091GA1091+999999999GF109991091999999999999999KA1240M+03561MA1999999099121MD1999999+0031REMSYN082AAXX  25004 82765 32/98 90000 10282 20191 39912 40151 333 10356 29056 55103 58003;EQDQ01  00002PRCP99
0196827650999992001072512004-07320-047460FM-12+021299999V0201401N000512200019N0200001N1+02641+01661101791ADDAA199000091GA1001+999999999GF100991001001999999001001KA1240N+01961MA1999999099401MD1999999-0061REMSYN070AAXX  25124 82765 32998 01401 10264 20166 39940 40179 333 20196 59006;EQDQ01  00002PRCP99
0167827650999992001072518004-07320-047460FM-12+021299999V0209999C000012200019N0200001N1+03451+01531101391ADDAA199000091GF101991011011012501001001MA1999999099001MD1999999-0051REMSYN070AAXX  25184 82765 32698 10000 10345 20153 39900 40139 81100 333 59005;EQDQ01  00002PRCP99
0208827650999992001072600004-07320-047460FM-12+021299999V0209999C000012200019N0200001N1+02771+01661101541ADDAA199000091GA1001+999999999GF100991001001999999001001KA1240M+03551MA1999999099151MD1999999+0031REMSYN082AAXX  26004 82765 32998 00000 10277 20166 39915 40154 333 10355 29047 55108 58003;EQDQ01  00002PRCP99
0186827650999992001072612004-07320-047460FM-12+021299999V0201401N001012200019N0200001N1+02511+01751101921ADDAA199000091GF102991011011012501011001KA1240N+01951MA1999999099511MD1999999+0111REMSYN076AAXX  26124 82765 32698 21402 10251 20175 39951 40192 81110 333 20195 58011;EQDQ01  00002PRCP99
0167827650999992001072618004-07320-047460FM-12+021299999V0201401N001012200019N0200001N1+03401+01591101501ADDAA199000091GF103991011011012501041041MA1999999099101MD1999999+0101REMSYN070AAXX  26184 82765 32698 31402 10340 20159 39910 40150 81144 333 58010;EQDQ01  00002PRCP99
0208827650999992001072700004-07320-047460FM-12+021299999V0209999C000012200019N0200001N1+02801+01691101591ADDAA199000091GA1001+999999999GF100991001001999999001001KA1240M+03531MA1999999099191MD1999999+0041REMSYN082AAXX  27004 82765 32998 00000 10280 20169 39919 40159 333 10353 29050 55108 58004;EQDQ01  00002PRCP99
0196827650999992001072712004-07320-047460FM-12+021299999V0201401N001512200019N0200001N1+02561+01501101931ADDAA199000091GA1001+999999999GF100991001001999999001001KA1240N+01911MA1999999099531MD1999999+0021REMSYN070AAXX  27124 82765 32998 01403 10256 20150 39953 40193 333 20191 58002;EQDQ01  00002PRCP99
0167827650999992001072718004-07320-047460FM-12+021299999V0201401N002612200019N0200001N1+03401+01501101611ADDAA199000091GF103991031011008001001001MA1999999099221MD1999999+0121REMSYN070AAXX  27184 82765 32598 31405 10340 20150 39922 40161 83100 333 58012;EQDQ01  00002PRCP99
0208827650999992001072800004-07320-047460FM-12+021299999V0209999C000012200019N0200001N1+02761+01771101721ADDAA199000091GA1001+999999999GF100991001001999999001001KA1240M+03521MA1999999099321MD1999999+0131REMSYN082AAXX  28004 82765 32998 00000 10276 20177 39932 40172 333 10352 29048 55107 58013;EQDQ01  00002PRCP99
0167827650999992001072818004-07320-047460FM-12+021299999V0201401N001510075019N0200001N1+03341+01451101541ADDAA199000091GF105991051021008001001001MA1999999099151MD1999999-0071REMSYN070AAXX  28184 82765 32598 51403 10334 20145 39915 40154 85200 333 59007;EQDQ01  00002PRCP99
0208827650999992001072900004-07320-047460FM-12+021299999V0201401N000512200019N0200001N1+02641+01751101741ADDAA199000091GA1001+999999999GF100991001001999999001001KA1240M+03501MA1999999099331MD1999999+0011REMSYN082AAXX  29004 82765 32998 01401 10264 20175 39933 40174 333 10350 29065 55104 58001;EQDQ01  00002PRCP99
0196827650999992001072912004-07320-047460FM-12+021299999V0209999C000012200019N0200001N1+02361+01561101871ADDAA199000091GA1001+999999999GF100991001001999999001001KA1240N+01801MA1999999099451MD1999999+0031REMSYN070AAXX  29124 82765 32998 00000 10236 20156 39945 40187 333 20180 58003;EQDQ01  00002PRCP99
0177827650999992001072918004-07320-047460FM-12+021299999V0201401N002112200019N0200001N1+03461+01401101401ADDAA199000091GA1001+999999999GF100991001001999999001001MA1999999099021MD1999999-0131REMSYN064AAXX  29184 82765 32998 01404 10346 20140 39902 40140 333 59013;EQDQ01  00002PRCP99
0208827650999992001073000004-07320-047460FM-12+021299999V0209999C000012200019N0200001N1+02841+01731101671ADDAA199000091GA1001+999999999GF100991001001999999001001KA1240M+03561MA1999999099261MD1999999-0071REMSYN082AAXX  30004 82765 32998 00000 10284 20173 39926 40167 333 10356 29048 55105 59007;EQDQ01  00002PRCP99
0196827650999992001073012004-07320-047460FM-12+021299999V0200901N003112200019N0200001N1+02641+01581101921ADDAA199000091GA1001+999999999GF100991001001999999001001KA1240N+01991MA1999999099511MD1999999-0071REMSYN070AAXX  30124 82765 32998 00906 10264 20158 39951 40192 333 20199 59007;EQDQ01  00002PRCP99
0167827650999992001073018004-07320-047460FM-12+021299999V0201401N001012200019N0200001N1+03481+01851101511ADDAA199000091GF103991031011008001001001MA1999999099121MD1999999-0031REMSYN070AAXX  30184 82765 32598 31402 10348 20185 39912 40151 83100 333 59003;EQDQ01  00002PRCP99
0198827650999992001073100004-07320-047460FM-12+021299999V0209999C000010075019N0200001N1+02861+01901101771ADDAA199000091GF105991051011008001001001KA1240M+03601MA1999999099381MD1999999+0051REMSYN088AAXX  31004 82765 32598 50000 10286 20190 39938 40177 85100 333 10360 29049 55105 58005;EQDQ01  00002PRCP99
0196827650999992001073112004-07320-047460FM-12+021299999V0200901N003112200019N0200001N1+02701+01571101951ADDAA199000091GA1001+999999999GF100991001001999999001001KA1240N+02061MA1999999099561MD1999999+0051REMSYN070AAXX  31124 82765 32998 00906 10270 20157 39956 40195 333 20206 58005;EQDQ01  00002PRCP99
0167827650999992001073118004-07320-047460FM-12+021299999V0201401N003112200019N0200001N1+03461+01401101521ADDAA199000091GF102991021011012501001001MA1999999099141MD1999999+0021REMSYN070AAXX  31184 82765 32698 21406 10346 20140 39914 40152 82100 333 58002;EQDQ01  00002PRCP99
0208827650999992001080100004-07320-047460FM-12+021299999V0209999C000012200019N0200001N1+02861+01721101761ADDAA199000091GA1001+999999999GF100991001001999999001001KA1240M+03601MA1999999099371MD1999999-0011REMSYN082AAXX  01004 82765 32998 00000 10286 20172 39937 40176 333 10360 29045 55106 59001;EQDQ01  00002PRCP99
0196827650999992001080112004-07320-047460FM-12+021299999V0201401N002612200019N0200001N1+02551+01331102101ADDAA199000091GA1001+999999999GF100991001001999999001001KA1240N+01861MA1999999099691MD1999999+0131REMSYN070AAXX  01124 82765 32998 01405 10255 20133 39969 40210 333 20186 58013;EQDQ01  00002PRCP99
0167827650999992001080118004-07320-047460FM-12+021299999V0201401N001012200019N0200001N1+03351+01351101661ADDAA199000091GF101991011011012501001001MA1999999099261MD1999999+0121REMSYN070AAXX  01184 82765 32698 11402 10335 20135 39926 40166 81100 333 58012;EQDQ01  00002PRCP99
0208827650999992001080200004-07320-047460FM-12+021299999V0209999C000012200019N0200001N1+02811+01661101841ADDAA199000091GA1001+999999999GF100991001001999999001001KA1240M+03511MA1999999099441MD1999999+0071REMSYN082AAXX  02004 82765 32998 00000 10281 20166 39944 40184 333 10351 29044 55105 58007;EQDQ01  00002PRCP99
0196827650999992001080212004-07320-047460FM-12+021299999V0201401N001012200019N0200001N1+02341+01571102001ADDAA199000091GA1001+999999999GF100991001001999999001001KA1240N+01831MA1999999099591MD1999999-0101REMSYN070AAXX  02124 82765 32998 01402 10234 20157 39959 40200 333 20183 59010;EQDQ01  00002PRCP99
0167827650999992001080218004-07320-047460FM-12+021299999V0201401N002112200019N0200001N1+03361+01511101571ADDAA199000091GF104991041011008001001001MA1999999099171MD1999999-0091REMSYN070AAXX  02184 82765 32598 41404 10336 20151 39917 40157 84100 333 59009;EQDQ01  00002PRCP99
0198827650999992001080300004-07320-047460FM-12+021299999V0201401N001012200019N0200001N1+02761+01591101781ADDAA199000091GF102991011011012501061001KA1240M+03511MA1999999099371MD1999999-0071REMSYN088AAXX  03004 82765 32698 21402 10276 20159 39937 40178 81160 333 10351 29048 55088 59007;EQDQ01  00002PRCP99
0196827650999992001080312004-07320-047460FM-12+021299999V0201401N003112200019N0200001N1+02701+01371101961ADDAA199000091GA1001+999999999GF100991001001999999001001KA1240N+02111MA1999999099561MD1999999-0031REMSYN070AAXX  03124 82765 32998 01406 10270 20137 39956 40196 333 20211 59003;EQDQ01  00002PRCP99
0167827650999992001080318004-07320-047460FM-12+021299999V0201401N000512200019N0200001N1+03341+02351101601ADDAA199000091GF101991011011008001001001MA1999999099221MD1999999+0051REMSYN070AAXX  03184 82765 32598 11401 10334 20235 39922 40160 81100 333 58005;EQDQ01  00002PRCP99
0196827650999992001080412004-07320-047460FM-12+021299999V0201401N003112200019N0200001N1+02601+01481101991ADDAA199000091GA1001+999999999GF100991001001999999001001KA1240N+02051MA1999999099591MD1999999+0031REMSYN070AAXX  04124 82765 32998 01406 10260 20148 39959 40199 333 20205 58003;EQDQ01  00002PRCP99
0167827650999992001080418004-07320-047460FM-12+021299999V0201401N002112200019N0200001N1+03261+01511101611ADDAA199000091GF103991031011008001001001MA1999999099221MD1999999+0001REMSYN070AAXX  04184 82765 32598 31404 10326 20151 39922 40161 83100 333 58000;EQDQ01  00002PRCP99
0208827650999992001080500004-07320-047460FM-12+021299999V0209999C000012200019N0200001N1+02681+01701101801ADDAA199000091GA1001+999999999GF100991001001999999001001KA1240M+03421MA1999999099401MD1999999+0031REMSYN082AAXX  05004 82765 32998 00000 10268 20170 39940 40180 333 10342 29048 55106 58003;EQDQ01  00002PRCP99
0196827650999992001080512004-07320-047460FM-12+021299999V0201401N001512200019N0200001N1+02421+01431102001ADDAA199000091GA1001+999999999GF100991001001999999001001KA1240N+01711MA1999999099581MD1999999-0011REMSYN070AAXX  05124 82765 32998 01403 10242 20143 39958 40200 333 20171 59001;EQDQ01  00002PRCP99
0177827650999992001080518004-07320-047460FM-12+021299999V0200901N002112200019N0200001N1+03421+01361101581ADDAA199000091GA1001+999999999GF100991001001999999001001MA1999999099191MD1999999-0031REMSYN064AAXX  05184 82765 32998 00904 10342 20136 39919 40158 333 59003;EQDQ01  00002PRCP99
0208827650999992001080600004-07320-047460FM-12+021299999V0209999C000012200019N0200001N1+02801+01871101761ADDAA199000091GA1001+999999999GF100991001001999999001001KA1240M+03521MA1999999099351MD1999999-0051REMSYN082AAXX  06004 82765 32998 00000 10280 20187 39935 40176 333 10352 29049 55108 59005;EQDQ01  00002PRCP99
0196827650999992001080612004-07320-047460FM-12+021299999V0200901N000512200019N0200001N1+02431+01511101951ADDAA199000091GA1001+999999999GF100991001001999999001001KA1240N+01861MA1999999099541MD1999999-0041REMSYN070AAXX  06124 82765 32998 00901 10243 20151 39954 40195 333 20186 59004;EQDQ01  00002PRCP99
0167827650999992001080618004-07320-047460FM-12+021299999V0201401N002112200019N0200001N1+03441+01531101491ADDAA199000091GF101991011011008001001001MA1999999099101MD1999999-0091REMSYN070AAXX  06184 82765 32598 11404 10344 20153 39910 40149 81100 333 59009;EQDQ01  00002PRCP99
0208827650999992001080700004-07320-047460FM-12+021299999V0209999C000012200019N0200001N1+02901+01751101781ADDAA199000091GA1001+999999999GF100991001001999999001001KA1240M+03621MA1999999099381MD1999999+0031REMSYN082AAXX  07004 82765 32998 00000 10290 20175 39938 40178 333 10362 29047 55108 58003;EQDQ01  00002PRCP99
0186827650999992001080712004-07320-047460FM-12+021299999V0201401N004112200019N0200001N1+02651+01451102001ADDAA199000091GF102991011001017501011041KA1240N+02031MA1999999099611MD1999999+0071REMSYN076AAXX  07124 82765 32798 21408 10265 20145 39961 40200 81014 333 20203 58007;EQDQ01  00002PRCP99
0167827650999992001080718004-07320-047460FM-12+021299999V0201801N002612200019N0200001N1+03381+01331101561ADDAA199000091GF101991011001017501011001MA1999999099171MD1999999+0071REMSYN070AAXX  07184 82765 32798 11805 10338 20133 39917 40156 81010 333 58007;EQDQ01  00002PRCP99
0208827650999992001080800004-07320-047460FM-12+021299999V0201401N000519999999N0200001N1+02691+01451101811ADDAA199000091GA1091+999999999GF109991091999999999999999KA1240M+03461MA1999999099411MD1999999+0031REMSYN082AAXX  08004 82765 32/98 91401 10269 20145 39941 40181 333 10346 29043 55106 58003;EQDQ01  00002PRCP99
0186827650999992001080812004-07320-047460FM-12+021299999V0201401N003112200019N0200001N1+02471+01291102041ADDAA199000091GF106991031001017501011041KA1240N+01801MA1999999099631MD1999999+0021REMSYN076AAXX  08124 82765 32798 61406 10247 20129 39963 40204 83014 333 20180 58002;EQDQ01  00002PRCP99
0167827650999992001080818004-07320-047460FM-12+021299999V0200901N003112200019N0200001N1+03341+01351101571ADDAA199000091GF104991021001017501011041MA1999999099171MD1999999+0001REMSYN070AAXX  08184 82765 32798 40906 10334 20135 39917 40157 82014 333 58000;EQDQ01  00002PRCP99
0208827650999992001080900004-07320-047460FM-12+021299999V0209999C000019999999N0200001N1+02821+01711101701ADDAA199000091GA1091+999999999GF109991091999999999999999KA1240M+03541MA1999999099301MD1999999-0111REMSYN082AAXX  09004 82765 32/98 90000 10282 20171 39930 40170 333 10354 29045 55107 59011;EQDQ01  00002PRCP99
0196827650999992001080912004-07320-047460FM-12+021299999V0201401N001512200019N0200001N1+02621+01671102001ADDAA199000091GA1001+999999999GF100991001001999999001001KA1240N+01871MA1999999099571MD1999999-0061REMSYN070AAXX  09124 82765 32998 01403 10262 20167 39957 40200 333 20187 59006;EQDQ01  00002PRCP99
0177827650999992001080918004-07320-047460FM-12+021299999V0201401N002612200019N0200001N1+03461+01551101571ADDAA199000091GA1001+999999999GF100991001001999999001001MA1999999099181MD1999999+0011REMSYN064AAXX  09184 82765 32998 01405 10346 20155 39918 40157 333 58001;EQDQ01  00002PRCP99
0208827650999992001081000004-07320-047460FM-12+021299999V0209999C000012200019N0200001N1+02901+01651101731ADDAA199000091GA1001+999999999GF100991001001999999001001KA1240M+03561MA1999999099341MD1999999+0041REMSYN082AAXX  10004 82765 32998 00000 10290 20165 39934 40173 333 10356 29046 55108 58004;EQDQ01  00002PRCP99
0196827650999992001081012004-07320-047460FM-12+021299999V0201401N001512200019N0200001N1+02701+01691101991ADDAA199000091GA1001+999999999GF100991001001999999001001KA1240N+02111MA1999999098621MD1999999+0051REMSYN070AAXX  10124 82765 32998 01403 10270 20169 39862 40199 333 20211 58005;EQDQ01  00002PRCP99
0208827650999992001081100004-07320-047460FM-12+021299999V0209999C000019999999N0200001N1+02901+01841101731ADDAA199000091GA1091+999999999GF109991091999999999999999KA1240M+03601MA1999999099341MD1999999+0001REMSYN082AAXX  11004 82765 32/98 90000 10290 20184 39934 40173 333 10360 29048 55101 58000;EQDQ01  00002PRCP99
0167827650999992001081118004-07320-047460FM-12+021299999V0200901N002119999999N0200001N1+03441+01491101571ADDAA199000091GF105991041001008001011041MA1999999100191MD1999999+0021REMSYN070AAXX  11184 82765 32598 50904 10344 20149 30019 40157 84014 333 58002;EQDQ01  00002PRCP99
0224827650999992001081200004-07320-047460FM-12+021299999V0209999C000019999999N0200001N1+02841+01791101751ADDAA199000091GA1091+999999999GF109991091999999999999999KA1240M+03601MA1999999099352MD1999999+0011REMSYN082AAXX  12004 82765 32/98 90000 10284 20179 39935 40175 333 10360 29051 55088 58001;EQDQ01+099353APOSP Q02  00002PRCP99
0186827650999992001081212004-07320-047460FM-12+021299999V0201401N002610450019N0200001N1+02631+01531101911ADDAA199000091GF106991041021008001011041KA1240N+01931MA1999999099511MD1999999-0071REMSYN076AAXX  12124 82765 32598 61405 10263 20153 39951 40191 84214 333 20193 59007;EQDQ01  00002PRCP99
0167827650999992001081218004-07320-047460FM-12+021299999V0201401N002110075019N0200001N1+03361+01561101561ADDAA199000091GF107991051021008001011041MA1999999099171MD1999999-0021REMSYN070AAXX  12184 82765 32598 71404 10336 20156 39917 40156 85214 333 59002;EQDQ01  00002PRCP99
0208827650999992001081300004-07320-047460FM-12+021299999V0209999C000019999999N0200001N1+02821+01771101711ADDAA199000091GA1091+999999999GF109991091999999999999999KA1240M+03491MA1999999099311MD1999999-0041REMSYN082AAXX  13004 82765 32/98 90000 10282 20177 39931 40171 333 10349 29048 55064 59004;EQDQ01  00002PRCP99
0186827650999992001081312004-07320-047460FM-12+021299999V0201401N007210450019N0200001N1+02731+01621101911ADDAA199000091GF106991041021008001011041KA1240N+02121MA1999999099521MD1999999+0011REMSYN076AAXX  13124 82765 32598 61414 10273 20162 39952 40191 84214 333 20212 58001;EQDQ01  00002PRCP99
0167827650999992001081318004-07320-047460FM-12+021299999V0201401N001512200019N0200001N1+03351+01631101441ADDAA199000091GF104991021021008001061001MA1999999099061MD1999999-0111REMSYN070AAXX  13184 82765 32598 41403 10335 20163 39906 40144 82260 333 59011;EQDQ01  00002PRCP99
0208827650999992001081400004-07320-047460FM-12+021299999V0209999C000012200019N0200001N1+02821+01741101591ADDAA199000091GA1001+999999999GF100991001001999999001001KA1240M+03501MA1999999099201MD1999999-0111REMSYN082AAXX  14004 82765 32998 00000 10282 20174 39920 40159 333 10350 29048 55107 59011;EQDQ01  00002PRCP99
0196827650999992001081412004-07320-047460FM-12+021299999V0201401N005712200019N0200001N1+02681+01551101841ADDAA199000091GA1001+999999999GF100991001001999999001001KA1240N+02151MA1999999099451MD1999999-0071REMSYN070AAXX  14124 82765 32998 01411 10268 20155 39945 40184 333 20215 59007;EQDQ01  00002PRCP99
0208827650999992001081500004-07320-047460FM-12+021299999V0209999C000012200019N0200001N1+02811+01501101641ADDAA199000091GA1001+999999999GF100991001001999999001001KA1240M+03601MA1999999099251MD1999999+0051REMSYN082AAXX  15004 82765 32998 00000 10281 20150 39925 40164 333 10360 29042 55109 58005;EQDQ01  00002PRCP99
0196827650999992001081512004-07320-047460FM-12+021299999V0201401N005712200019N0200001N1+02661+01531101951ADDAA199000091GA1001+999999999GF100991001001999999001001KA1240N+01911MA1999999099551MD1999999+0101REMSYN070AAXX  15124 82765 32998 01411 10266 20153 39955 40195 333 20191 58010;EQDQ01  00002PRCP99
0167827650999992001081518004-07320-047460FM-12+021299999V0200901N002112200019N0200001N1+03501+01531101481ADDAA199000091GF101991011011008001001001MA1999999099091MD1999999+0121REMSYN070AAXX  15184 82765 32598 10904 10350 20153 39909 40148 81100 333 58012;EQDQ01  00002PRCP99
0208827650999992001081600004-07320-047460FM-12+021299999V0209999C000019999999N0200001N1+02961+01841101751ADDAA199000091GA1091+999999999GF109991091999999999999999KA1240M+03601MA1999999099361MD1999999+0111REMSYN082AAXX  16004 82765 32/98 90000 10296 20184 39936 40175 333 10360 29046 55108 58011;EQDQ01  00002PRCP99
0186827650999992001081612004-07320-047460FM-12+021299999V0200901N003612200019N0200001N1+02761+01661102001ADDAA199000091GF101991011011008001001001KA1240N+02131MA1999999099611MD1999999+0061REMSYN076AAXX  16124 82765 32598 10907 10276 20166 39961 40200 81100 333 20213 58006;EQDQ01  00002PRCP99
0167827650999992001081618004-07320-047460FM-12+021299999V0201401N001010075019N0200001N1+03421+01611101491ADDAA199000091GF106991061021008001001001MA1999999099111MD1999999+0021REMSYN070AAXX  16184 82765 32598 61402 10342 20161 39911 40149 86200 333 58002;EQDQ01  00002PRCP99
0208827650999992001081700004-07320-047460FM-12+021299999V0209999C000019999999N0200001N1+02961+01901101701ADDAA199000091GA1091+999999999GF109991091999999999999999KA1240M+03601MA1999999099321MD1999999-0041REMSYN082AAXX  17004 82765 32/98 90000 10296 20190 39932 40170 333 10360 29048 55101 59004;EQDQ01  00002PRCP99
0196827650999992001081712004-07320-047460FM-12+021299999V0201401N003612200019N0200001N1+02861+01481101891ADDAA199000091GA1001+999999999GF100991001001999999001001KA1240N+02191MA1999999099511MD1999999-0101REMSYN070AAXX  17124 82765 32998 01407 10286 20148 39951 40189 333 20219 59010;EQDQ01  00002PRCP99
0167827650999992001081718004-07320-047460FM-12+021299999V0201801N001512200019N0200001N1+03501+01431101411ADDAA199000091GF104991041011008001001001MA1999999099051MD1999999-0061REMSYN070AAXX  17184 82765 32598 41803 10350 20143 39905 40141 84100 333 59006;EQDQ01  00002PRCP99
0208827650999992001081800004-07320-047460FM-12+021299999V0209999C000012200019N0200001N1+02901+01621101641ADDAA199000091GA1001+999999999GF100991001001999999001001KA1240M+03641MA1999999099261MD1999999-0061REMSYN082AAXX  18004 82765 32998 00000 10290 20162 39926 40164 333 10364 29041 55098 59006;EQDQ01  00002PRCP99
0196827650999992001081812004-07320-047460FM-12+021299999V0201401N004612200019N0200001N1+02641+01251101841ADDAA199000091GA1001+999999999GF100991001001999999001001KA1240N+02091MA1999999099451MD1999999-0061REMSYN070AAXX  18124 82765 32998 01409 10264 20125 39945 40184 333 20209 59006;EQDQ01  00002PRCP99
0167827650999992001081818004-07320-047460FM-12+021299999V0209999C000012200019N0200001N1+03541+01521101391ADDAA199000091GF102991021011012501001001MA1999999099021MD1999999-0031REMSYN070AAXX  18184 82765 32698 20000 10354 20152 39902 40139 82100 333 59003;EQDQ01  00002PRCP99
0208827650999992001081900004-07320-047460FM-12+021299999V0209999C000012200019N0200001N1+02921+01711101661ADDAA199000091GA1001+999999999GF100991001001999999001001KA1240M+03641MA1999999099271MD1999999+0011REMSYN082AAXX  19004 82765 32998 00000 10292 20171 39927 40166 333 10364 29042 55104 58001;EQDQ01  00002PRCP99
0186827650999992001081912004-07320-047460FM-12+021299999V0201401N003112200019N0200001N1+02761+01561101811ADDAA199000091GF102991011001022501011041KA1240N+02171MA1999999099431MD1999999-0021REMSYN076AAXX  19124 82765 32898 21406 10276 20156 39943 40181 81014 333 20217 59002;EQDQ01  00002PRCP99
0167827650999992001081918004-07320-047460FM-12+021299999V0200901N001510450019N0200001N1+03601+01571101391ADDAA199000091GF106991041021008001011011MA1999999099031MD1999999+0031REMSYN070AAXX  19184 82765 32598 60903 10360 20157 39903 40139 84211 333 58003;EQDQ01  00002PRCP99
0208827650999992001082000004-07320-047460FM-12+021299999V0209999C000019999999N0200001N1+03001+01941101591ADDAA199000091GA1091+999999999GF109991091999999999999999KA1240M+03741MA1999999099221MD1999999-0051REMSYN082AAXX  20004 82765 32/98 90000 10300 20194 39922 40159 333 10374 29046 55094 59005;EQDQ01  00002PRCP99
0186827650999992001082012004-07320-047460FM-12+021299999V0201401N004112200019N0200001N1+02881+01641101961ADDAA199000091GF102991021011012501001001KA1240N+02311MA1999999099581MD1999999+0151REMSYN076AAXX  20124 82765 32698 21408 10288 20164 39958 40196 82100 333 20231 58015;EQDQ01  00002PRCP99
0167827650999992001082018004-07320-047460FM-12+021299999V0200901N003110075019N0200001N1+03541+01461101481ADDAA199000091GF105991051021008001001001MA1999999099121MD1999999+0091REMSYN070AAXX  20184 82765 32598 50906 10354 20146 39912 40148 85200 333 58009;EQDQ01  00002PRCP99
0186827650999992001082112004-07320-047460FM-12+021299999V0201401N003612200019N0200001N1+02761+01591101951ADDAA199000091GF103991011011008001031001KA1240N+02191MA1999999099571MD1999999-0011REMSYN076AAXX  21124 82765 32598 31407 10276 20159 39957 40195 81130 333 20219 59001;EQDQ01  00002PRCP99
0167827650999992001082118004-07320-047460FM-12+021299999V0201401N000512200019N0200001N1+03621+01481101481ADDAA199000091GF104991041021008001001001MA1999999099111MD1999999-0011REMSYN070AAXX  21184 82765 32598 41401 10362 20148 39911 40148 84200 333 59001;EQDQ01  00002PRCP99
0208827650999992001082200004-07320-047460FM-12+021299999V0209999C000012200019N0200001N1+03041+01881101651ADDAA199000091GA1001+999999999GF100991001001999999001001KA1240M+03681MA1999999099231MD1999999-0061REMSYN082AAXX  22004 82765 32998 00000 10304 20188 39923 40165 333 10368 29044 55096 59006;EQDQ01  00002PRCP99
0196827650999992001082212004-07320-047460FM-12+021299999V0209999C000012200019N0200001N1+02961+01811101901ADDAA199000091GA1001+999999999GF100991001001999999001001KA1240N+02251MA1999999099531MD1999999-0041REMSYN070AAXX  22124 82765 32998 00000 10296 20181 39953 40190 333 20225 59004;EQDQ01  00002PRCP99
0167827650999992001082218004-07320-047460FM-12+021299999V0200501N001512200019N0200001N1+03681+01641101371ADDAA199000091GF103991031011008001001001MA1999999099011MD1999999-0101REMSYN070AAXX  22184 82765 32598 30503 10368 20164 39901 40137 83100 333 59010;EQDQ01  00002PRCP99
0208827650999992001082300004-07320-047460FM-12+021299999V0209999C000012200019N0200001N1+03081+01851101591ADDAA199000091GA1001+999999999GF100991001001999999001001KA1240M+03781MA1999999099231MD1999999-0041REMSYN082AAXX  23004 82765 32998 00000 10308 20185 39923 40159 333 10378 29044 55103 59004;EQDQ01  00002PRCP99
0196827650999992001082312004-07320-047460FM-12+021299999V0200901N000512200019N0200001N1+02981+01831101841ADDAA199000091GA1001+999999999GF100991001001999999001001KA1240N+02351MA1999999099481MD1999999-0051REMSYN070AAXX  23124 82765 32998 00901 10298 20183 39948 40184 333 20235 59005;EQDQ01  00002PRCP99
0167827650999992001082318004-07320-047460FM-12+021299999V0200901N002112200019N0200001N1+03681+01581101321ADDAA199000091GF103991031011008001001001MA1999999098961MD1999999+0051REMSYN070AAXX  23184 82765 32598 30904 10368 20158 39896 40132 83100 333 58005;EQDQ01  00002PRCP99
0208827650999992001082400004-07320-047460FM-12+021299999V0209999C000019999999N0200001N1+03141+01871101441ADDAA199000091GA1091+999999999GF109991091999999999999999KA1240M+03821MA1999999099081MD1999999-0151REMSYN082AAXX  24004 82765 32/98 90000 10314 20187 39908 40144 333 10382 29043 55102 59015;EQDQ01  00002PRCP99
0196827650999992001082412004-07320-047460FM-12+021299999V0200901N002612200019N0200001N1+03011+01681101841ADDAA199000091GA1001+999999999GF100991001001999999001001KA1240N+02331MA1999999099481MD1999999+0001REMSYN070AAXX  24124 82765 32998 00905 10301 20168 39948 40184 333 20233 58000;EQDQ01  00002PRCP99
0167827650999992001082418004-07320-047460FM-12+021299999V0201801N001012200019N0200001N1+03701+01551101221ADDAA199000091GF104991021011008001011001MA1999999098871MD1999999-0091REMSYN070AAXX  24184 82765 32598 41802 10370 20155 39887 40122 82110 333 59009;EQDQ01  00002PRCP99
0208827650999992001082500004-07320-047460FM-12+021299999V0209999C000012200019N0200001N1+02961+01711101311ADDAA199000091GA1001+999999999GF100991001001999999001001KA1240M+03821MA1999999098951MD1999999-0131REMSYN082AAXX  25004 82765 32998 00000 10296 20171 39895 40131 333 10382 29042 55106 59013;EQDQ01  00002PRCP99
0208827650999992001082600004-07320-047460FM-12+021299999V0209999C000012200019N0200001N1+03121+01641101381ADDAA199000091GA1001+999999999GF100991001001999999001001KA1240M+03801MA1999999099031MD1999999+0081REMSYN082AAXX  26004 82765 32998 00000 10312 20164 39903 40138 333 10380 29040 55104 58008;EQDQ01  00002PRCP99
0186827650999992001082612004-07320-047460FM-12+021299999V0200901N002612200019N0200001N1+02951+01971101731ADDAA199000091GF102991011001017501011041KA1240N+02561MA1999999099371MD1999999-0041REMSYN076AAXX  26124 82765 32798 20905 10295 20197 39937 40173 81014 333 20256 59004;EQDQ01  00002PRCP99
0167827650999992001082618004-07320-047460FM-12+021299999V0200901N001010075019N0200001N1+03611+01771101271ADDAA199000091GF106991051021008001001041MA1999999098921MD1999999+0001REMSYN070AAXX  26184 82765 32598 60902 10361 20177 39892 40127 85204 333 58000;EQDQ01  00002PRCP99
0198827650999992001082700004-07320-047460FM-12+021299999V0209999C000012200019N0200001N1+03121+02021101421ADDAA199000091GF103991031011012501001001KA1240M+03731MA1999999099061MD1999999+0031REMSYN088AAXX  27004 82765 32698 30000 10312 20202 39906 40142 83100 333 10373 29048 55096 58003;EQDQ01  00002PRCP99
0186827650999992001082712004-07320-047460FM-12+021299999V0200901N002612200019N0200001N1+02901+02021101831ADDAA199000091GF102991011011008001031001KA1240N+02381MA1999999099461MD1999999+0091REMSYN076AAXX  27124 82765 32598 20905 10290 20202 39946 40183 81130 333 20238 58009;EQDQ01  00002PRCP99
0167827650999992001082718004-07320-047460FM-12+021299999V0200901N003110450019N0200001N1+03661+01621101271ADDAA199000091GF106991021011008001031001MA1999999098921MD1999999+0001REMSYN070AAXX  27184 82765 32598 60906 10366 20162 39892 40127 82130 333 58000;EQDQ01  00002PRCP99
0208827650999992001082800004-07320-047460FM-12+021299999V0209999C000012200019N0200001N1+03081+01821101421ADDAA199000091GA1001+999999999GF100991001001999999001001KA1240M+03801MA1999999099061MD1999999+0001REMSYN082AAXX  28004 82765 32998 00000 10308 20182 39906 40142 333 10380 29046 55096 58000;EQDQ01  00002PRCP99
0186827650999992001082812004-07320-047460FM-12+021299999V0200901N001012200019N0200001N1+03021+02071101771ADDAA199000091GF102991011011008001001041KA1240N+02351MA1999999099411MD1999999-0051REMSYN076AAXX  28124 82765 32598 20902 10302 20207 39941 40177 81104 333 20235 59005;EQDQ01  00002PRCP99
0167827650999992001082818004-07320-047460FM-12+021299999V0200901N002110075019N0200001N1+03701+01601101311ADDAA199000091GF105991051021008001001001MA1999999098961MD1999999+0041REMSYN070AAXX  28184 82765 32598 50904 10370 20160 39896 40131 85200 333 58004;EQDQ01  00002PRCP99
0208827650999992001082900004-07320-047460FM-12+021299999V0209999C000019999999N0200001N1+03101+02001101391ADDAA199000091GA1091+999999999GF109991091999999999999999KA1240M+03781MA1999999099041MD1999999-0021REMSYN082AAXX  29004 82765 32/98 90000 10310 20200 39904 40139 333 10378 29047 55100 59002;EQDQ01  00002PRCP99
0196827650999992001082912004-07320-047460FM-12+021299999V0200901N001512200019N0200001N1+02901+02101101711ADDAA199000091GA1001+999999999GF100991001001999999001001KA1240N+02451MA1999999099341MD1999999-0071REMSYN070AAXX  29124 82765 32998 00903 10290 20210 39934 40171 333 20245 59007;EQDQ01  00002PRCP99
0167827650999992001082918004-07320-047460FM-12+021299999V0200501N000510075019N0200001N1+03601+01991101241ADDAA199000091GF106991061021008001001001MA1999999098891MD1999999-0071REMSYN070AAXX  29184 82765 32598 60501 10360 20199 39889 40124 86200 333 59007;EQDQ01  00002PRCP99
0208827650999992001083000004-07320-047460FM-12+021299999V0209999C000012200019N0200001N1+02941+02081101461ADDAA199000091GA1001+999999999GF100991001001999999001001KA1240M+03681MA1999999099091MD1999999+0051REMSYN082AAXX  30004 82765 32998 00000 10294 20208 39909 40146 333 10368 29055 55092 58005;EQDQ01  00002PRCP99
0186827650999992001083012004-07320-047460FM-12+021299999V0200501N002110075019N0200001N1+02861+01981101801ADDAA199000091GF107991051021008001051001KA1240N+02471MA1999999099421MD1999999+0081REMSYN076AAXX  30124 82765 32598 70504 10286 20198 39942 40180 85250 333 20247 58008;EQDQ01  00002PRCP99
0167827650999992001083018004-07320-047460FM-12+021299999V0202301N002610075019N0200001N1+03521+02071101261ADDAA199000091GF106991061021008001001001MA1999999098901MD1999999+0011REMSYN070AAXX  30184 82765 32598 62305 10352 20207 39890 40126 86200 333 58001;EQDQ01  00002PRCP99
0208827650999992001083100004-07320-047460FM-12+021299999V0209999C000019999999N0200001N1+03121+02081101401ADDAA199000091GA1091+999999999GF109991091999999999999999KA1240M+03681MA1999999099041MD1999999-0051REMSYN082AAXX  31004 82765 32/98 90000 10312 20208 39904 40140 333 10368 29052 55088 59005;EQDQ01  00002PRCP99
0186827650999992001083112004-07320-047460FM-12+021299999V0201401N004612200019N0200001N1+03001+01641101671ADDAA199000091GF104991021021008001011041KA1240N+02551MA1999999099311MD1999999-0111REMSYN076AAXX  31124 82765 32598 41409 10300 20164 39931 40167 82214 333 20255 59011;EQDQ01  00002PRCP99
0167827650999992001083118004-07320-047460FM-12+021299999V0200901N001510450019N0200001N1+03621+02201101171ADDAA199000091GF107991041021008001071061MA1999999098821MD1999999-0081REMSYN070AAXX  31184 82765 32598 70903 10362 20220 39882 40117 84276 333 59008;EQDQ01  00002PRCP99
0208827650999992001090100004-07320-047460FM-12+021299999V0209999C000012200019N0200001N1+03091+01921101361ADDAA199000091GA1001+999999999GF100991001001999999001001KA1240M+03761MA1999999099011MD1999999-0031REMSYN082AAXX  01004 82765 32998 00000 10309 20192 39901 40136 333 10376 29044 55086 59003;EQDQ01  00002PRCP99
0186827650999992001090112004-07320-047460FM-12+021299999V0200901N003112200019N0200001N1+02971+01681101671ADDAA199000091GF104991021021008001051041KA1240N+02461MA1999999099311MD1999999+0001REMSYN076AAXX  01124 82765 32598 40906 10297 20168 39931 40167 82254 333 20246 58000;EQDQ01  00002PRCP99
0167827650999992001090118004-07320-047460FM-12+021299999V0200901N003610450019N0200001N1+03541+01851101201ADDAA199000091GF106991041031008001011001MA1999999098851MD1999999+0031REMSYN070AAXX  01184 82765 32598 60907 10354 20185 39885 40120 84310 333 58003;EQDQ01  00002PRCP99
0208827650999992001090200004-07320-047460FM-12+021299999V0209999C000019999999N0200001N1+02941+01911101361ADDAA199000091GA1091+999999999GF109991091999999999999999KA1240M+03691MA1999999099001MD1999999-0011REMSYN082AAXX  02004 82765 32/98 90000 10294 20191 39900 40136 333 10369 29048 55085 59001;EQDQ01  00002PRCP99
0186827650999992001090212004-07320-047460FM-12+021299999V0209999C000012200019N0200001N1+03081+01981101581ADDAA199000091GF102991011011008001001041KA1240N+02331MA1999999099221MD1999999-0091REMSYN076AAXX  02124 82765 32598 20000 10308 20198 39922 40158 81104 333 20233 59009;EQDQ01  00002PRCP99
0167827650999992001090218004-07320-047460FM-12+021299999V0201401N001510075019N0200001N1+03601+01721101111ADDAA199000091GF106991061021008001001001MA1999999098761MD1999999-0091REMSYN070AAXX  02184 82765 32598 61403 10360 20172 39876 40111 86200 333 59009;EQDQ01  00002PRCP99
0186827650999992001090312004-07320-047460FM-12+021299999V0200901N002612200019N0200001N1+03021+01891101531ADDAA199000091GF102991011011008001001041KA1240N+02351MA1999999099171MD1999999-0051REMSYN076AAXX  03124 82765 32598 20905 10302 20189 39917 40153 81104 333 20235 59005;EQDQ01  00002PRCP99
0167827650999992001090318004-07320-047460FM-12+021299999V0200901N003111050019N0200001N1+03601+01671101071ADDAA199000091GF106991021021008001041041MA1999999098721MD1999999-0041REMSYN070AAXX  03184 82765 32598 60906 10360 20167 39872 40107 82244 333 59004;EQDQ01  00002PRCP99
0208827650999992001090400004-07320-047460FM-12+021299999V0209999C000012200019N0200001N1+03041+02911101291ADDAA199000091GA1001+999999999GF100991001001999999001001KA1240M+03701MA1999999098931MD1999999+0021REMSYN082AAXX  04004 82765 32998 00000 10304 20291 39893 40129 333 10370 29046 55083 58002;EQDQ01  00002PRCP99
0186827650999992001090412004-07320-047460FM-12+021299999V0200901N002112200019N0200001N1+02941+01911101711ADDAA199000091GF103991011011008001001041KA1240N+02351MA1999999099341MD1999999+0171REMSYN076AAXX  04124 82765 32598 30904 10294 20191 39934 40171 81104 333 20235 58017;EQDQ01  00002PRCP99
0167827650999992001090418004-07320-047460FM-12+021299999V0200901N000512200019N0200001N1+03601+01941101221ADDAA199000091GF106991041021008001001041MA1999999098861MD1999999+0141REMSYN070AAXX  04184 82765 32598 60901 10360 20194 39886 40122 84204 333 58014;EQDQ01  00002PRCP99
0208827650999992001090500004-07320-047460FM-12+021299999V0209999C000012200019N0200001N1+03141+02071101321ADDAA199000091GA1001+999999999GF100991001001999999001001KA1240M+03761MA1999999098971MD1999999+0041REMSYN082AAXX  05004 82765 32998 00000 10314 20207 39897 40132 333 10376 29050 55099 58004;EQDQ01  00002PRCP99
0214827650999992001090512004-07320-047460FM-12+021299999V0209999C000012200019N0040001N1+02971+02021101581ADDAA199000091AY111061AY211061GF104991021011008001011041KA1240N+02461MA1999999099221MD1999999-0121MW1041REMSYN082AAXX  05124 82765 31596 40000 10297 20202 39922 40158 70411 82114 333 20246 59012;EQDQ01  00002PRCP99
0195827650999992001090518004-07320-047460FM-12+021299999V0200901N001010075019N0040001N1+03611+01991101141ADDAA199000091AY111061AY211061GF106991061021008001001001MA1999999098791MD1999999-0071MW1041REMSYN076AAXX  05184 82765 31596 60902 10361 20199 39879 40114 70411 86200 333 59007;EQDQ01  00002PRCP99
0208827650999992001090600004-07320-047460FM-12+021299999V0209999C000012200019N0200001N1+03111+02151101261ADDAA199000091GA1001+999999999GF100991001001999999001001KA1240M+03761MA1999999098911MD1999999-0061REMSYN082AAXX  06004 82765 32998 00000 10311 20215 39891 40126 333 10376 29052 55087 59006;EQDQ01  00002PRCP99
0186827650999992001090612004-07320-047460FM-12+021299999V0200501N002110075019N0200001N1+02911+02101101551ADDAA199000091GF107991071021008001001001KA1240N+02021MA1999999099191MD1999999-0031REMSYN076AAXX  06124 82765 32598 70504 10291 20210 39919 40155 87200 333 20202 59003;EQDQ01  00002PRCP99
0167827650999992001090618004-07320-047460FM-12+021299999V0200501N000510450019N0200001N1+03501+02131101081ADDAA199000091GF106991041021008001011001MA1999999098731MD1999999-0061REMSYN070AAXX  06184 82765 32598 60501 10350 20213 39873 40108 84210 333 59006;EQDQ01  00002PRCP99
0208827650999992001090700004-07320-047460FM-12+021299999V0209999C000019999999N0200001N1+03001+02171101181ADDAA199000091GA1091+999999999GF109991091999999999999999KA1240M+03621MA1999999098821MD1999999-0091REMSYN082AAXX  07004 82765 32/98 90000 10300 20217 39882 40118 333 10362 29057 55083 59009;EQDQ01  00002PRCP99
0214827650999992001090712004-07320-047460FM-12+021299999V0200501N001010075019N0100001N1+02891+02211101451ADDAA199000091AY111061AY211061GF106991061021008001001001KA1240N+02511MA1999999099081MD1999999-0111MW1041REMSYN082AAXX  07124 82765 31597 60502 10289 20221 39908 40145 70411 86200 333 20251 59011;EQDQ01  00002PRCP99
0182827650999992001090718004-07320-047460FM-12+021299999V0209999C000010450019N0200001N1+02521+02291101141ADDAA106023991AY161061AY221061GF107991041021008001021001MA1999999098741MD1999999+0011MW1031REMSYN082AAXX  07184 82765 21598 70000 10252 20229 39874 40114 70362 84220 333 58001 60241;
0208827650999992001090800004-07320-047460FM-12+021299999V0209999C000019999999N0200001N1+02711+02561101181ADDAA199000091GA1091+999999999GF109991091999999999999999KA1240M+03241MA1999999098811MD1999999-0011REMSYN082AAXX  08004 82765 32/98 90000 10271 20256 39881 40118 333 10324 29084 55019 59001;EQDQ01  00002PRCP99
0173827650999992001090812004-07320-047460FM-12+021299999V0200901N000510450019N0200001N1+02821+02311101451ADDAA124023991GF107991031021008001021001KA1240N+02371MA1999999099061MD1999999-0021REMSYN082AAXX  08124 82765 22598 70901 10282 20231 39906 40145 83220 333 20237 59002 60244;
0167827650999992001090818004-07320-047460FM-12+021299999V0209999C000010450019N0200001N1+03401+02071101081ADDAA199000091GF107991041021008001021001MA1999999098721MD1999999-0021REMSYN070AAXX  08184 82765 32598 70000 10340 20207 39872 40108 84220 333 59002;EQDQ01  00002PRCP99
0208827650999992001090900004-07320-047460FM-12+021299999V0209999C000019999999N0200001N1+03021+02391101261ADDAA199000091GA1091+999999999GF109991091999999999999999KA1240M+03481MA1999999098891MD1999999+0081REMSYN082AAXX  09004 82765 32/98 90000 10302 20239 39889 40126 333 10348 29064 55088 58008;EQDQ01  00002PRCP99
0198827650999992001090912004-07320-047460FM-12+021299999V0209999C000011050019N0100001N1+02621+02251101621ADDAA199000091GF106991011011008001031041KA1240N+02351MA1999999099241MD1999999+0181MW1041REMSYN082AAXX  09124 82765 31597 60000 10262 20225 39924 40162 704// 81134 333 20235 58018;EQDQ01  00002PRCP99
0167827650999992001090918004-07320-047460FM-12+021299999V0209999C000010450019N0200001N1+03561+02031101161ADDAA199000091GF107991021021008001031041MA1999999098811MD1999999+0091REMSYN070AAXX  09184 82765 32598 70000 10356 20203 39881 40116 82234 333 58009;EQDQ01  00002PRCP99
0208827650999992001091000004-07320-047460FM-12+021299999V0209999C000019999999N0200001N1+03101+02121101361ADDAA199000091GA1091+999999999GF109991091999999999999999KA1240M+03621MA1999999098991MD1999999+0101REMSYN082AAXX  10004 82765 32/98 90000 10310 20212 39899 40136 333 10362 29060 55063 58010;EQDQ01  00002PRCP99
0186827650999992001091012004-07320-047460FM-12+021299999V0200901N001012200019N0200001N1+02821+02241101601ADDAA199000091GF103991011011008001001041KA1240N+02421MA1999999099231MD1999999-0011REMSYN076AAXX  10124 82765 32598 30902 10282 20224 39923 40160 81104 333 20242 59001;EQDQ01  00002PRCP99
0167827650999992001091018004-07320-047460FM-12+021299999V0200901N002112200019N0200001N1+03661+02041101151ADDAA199000091GF105991041021008001001041MA1999999098761MD1999999-0051REMSYN070AAXX  10184 82765 32598 50904 10366 20204 39876 40115 84204 333 59005;EQDQ01  00002PRCP99
0186827650999992001091112004-07320-047460FM-12+021299999V0200501N002610075019N0200001N1+02971+02211101511ADDAA199000091GF105991051021008001001001KA1240N+02541MA1999999099151MD1999999-0081REMSYN076AAXX  11124 82765 32598 50505 10297 20221 39915 40151 85200 333 20254 59008;EQDQ01  00002PRCP99
0167827650999992001091118004-07320-047460FM-12+021299999V0200501N002612200019N0200001N1+03381+02161101161ADDAA199000091GF104991041021008001001001MA1999999098801MD1999999+0041REMSYN070AAXX  11184 82765 32598 40505 10338 20216 39880 40116 84200 333 58004;EQDQ01  00002PRCP99
0208827650999992001091200004-07320-047460FM-12+021299999V0200501N001519999999N0200001N1+02821+02171101211ADDAA199000091GA1091+999999999GF109991091999999999999999KA1240M+03441MA1999999098851MD1999999-0061REMSYN082AAXX  12004 82765 32/98 90503 10282 20217 39885 40121 333 10344 29062 55079 59006;EQDQ01  00002PRCP99
0214827650999992001091212004-07320-047460FM-12+021299999V0200501N001512200019N0100001N1+02841+02241101401ADDAA199000091AY111061AY211061GF104991021011008001011041KA1240N+02441MA1999999099031MD1999999-0121MW1041REMSYN082AAXX  12124 82765 31597 40503 10284 20224 39903 40140 70411 82114 333 20244 59012;EQDQ01  00002PRCP99
0195827650999992001091218004-07320-047460FM-12+021299999V0200501N004612200019N0100001N1+03251+02131101071ADDAA199000091AY111061AY211061GF104991041021008001001001MA1999999098721MD1999999-0081MW1041REMSYN076AAXX  12184 82765 31597 40509 10325 20213 39872 40107 70411 84200 333 59008;EQDQ01  00002PRCP99
0208827650999992001091300004-07320-047460FM-12+021299999V0209999C000019999999N0200001N1+02951+02361101241ADDAA199000091GA1091+999999999GF109991091999999999999999KA1240M+03331MA1999999098871MD1999999+0021REMSYN082AAXX  13004 82765 32/98 90000 10295 20236 39887 40124 333 10333 29066 55068 58002;EQDQ01  00002PRCP99
0214827650999992001091312004-07320-047460FM-12+021299999V0200501N002110450019N0100001N1+02661+02161101691ADDAA199000091AY111061AY211061GF107991041021008001011001KA1240N+02571MA1999999099301MD1999999+0271MW1041REMSYN082AAXX  13124 82765 31597 70504 10266 20216 39930 40169 70411 84210 333 20257 58027;EQDQ01  00002PRCP99
0195827650999992001091318004-07320-047460FM-12+021299999V0201401N002110450019N0100001N1+03321+02101101251ADDAA199000091AY121061AY211061GF107991041021008001031001MA1999999098891MD1999999+0171MW1041REMSYN076AAXX  13184 82765 31597 71404 10332 20210 39889 40125 70421 84230 333 58017;EQDQ01  00002PRCP99
0236827650999992001091400004-07320-047460FM-12+021299999V0201401N001010024019N0100001N1+02931+02171101441ADDAA199000091AY121061AY211061GA1091+999999999GF109991091999999999999999KA1240M+03461MA1999999099061MD1999999+0191MW1041REMSYN088AAXX  14004 82765 31/97 91402 10293 20217 39906 40144 70421 333 10346 29063 55037 58019;EQDQ01  00002PRCP99
0198827650999992001091412004-07320-047460FM-12+021299999V0201401N001010120019N0100001N1+02701+02201101751ADDAA199000091GF107991051081008001021999KA1240N+02371MA1999999099361MD1999999+0061MW1041REMSYN082AAXX  14124 82765 31597 71402 10270 20220 39936 40175 704// 8582/ 333 20237 58006;EQDQ01  00002PRCP99
0167827650999992001091418004-07320-047460FM-12+021299999V0200501N001010075019N0200001N1+03581+01881101161ADDAA199000091GF106991061021008001001001MA1999999098811MD1999999-0081REMSYN070AAXX  14184 82765 32598 60502 10358 20188 39881 40116 86200 333 59008;EQDQ01  00002PRCP99
0208827650999992001091500004-07320-047460FM-12+021299999V0200901N000519999999N0200001N1+03061+02111101251ADDAA199000091GA1091+999999999GF109991091999999999999999KA1240M+03681MA1999999098881MD1999999-0181REMSYN082AAXX  15004 82765 32/98 90901 10306 20211 39888 40125 333 10368 29056 55078 59018;EQDQ01  00002PRCP99
0196827650999992001091512004-07320-047460FM-12+021299999V0200901N001512200019N0200001N1+02861+02061101541ADDAA199000091GA1001+999999999GF100991001001999999001001KA1240N+02431MA1999999099171MD1999999-0191REMSYN070AAXX  15124 82765 32998 00903 10286 20206 39917 40154 333 20243 59019;EQDQ01  00002PRCP99
0167827650999992001091518004-07320-047460FM-12+021299999V0200501N002612200019N0200001N1+03561+01951101051ADDAA199000091GF104991041021008001001001MA1999999098701MD1999999-0111REMSYN070AAXX  15184 82765 32598 40505 10356 20195 39870 40105 84200 333 59011;EQDQ01  00002PRCP99
0208827650999992001091600004-07320-047460FM-12+021299999V0200501N001019999999N0200001N1+03021+02211101251ADDAA199000091GA1091+999999999GF109991091999999999999999KA1240M+03641MA1999999098891MD1999999+0011REMSYN082AAXX  16004 82765 32/98 90502 10302 20221 39889 40125 333 10364 29056 55097 58001;EQDQ01  00002PRCP99
0198827650999992001091612004-07320-047460FM-12+021299999V0200501N000512200019N0100001N1+02801+02181101771ADDAA199000091GF102991021011008001001001KA1240N+02391MA1999999099391MD1999999+0221MW1041REMSYN082AAXX  16124 82765 31597 20501 10280 20218 39939 40177 704// 82100 333 20239 58022;EQDQ01  00002PRCP99
0167827650999992001091618004-07320-047460FM-12+021299999V0202701N002110075019N0200001N1+03581+02091101121ADDAA199000091GF105991051021008001001001MA1999999098781MD1999999+0081REMSYN070AAXX  16184 82765 32598 52704 10358 20209 39878 40112 85200 333 58008;EQDQ01  00002PRCP99
0201827650999992001091700004-07320-047460FM-12+021299999V0200501N000519999999N0200001N1+02521+02231101561ADDAA106000391GA1091+999999999GF109991091999999999999999KA1240M+03721MA1999999099161MD1999999+0271REMSYN094AAXX  17004 82765 21/98 90501 10252 20223 39916 40156 7//95 333 10372 29070 55088 58027 69931;
0182827650999992001091718004-07320-047460FM-12+021299999V0200501N001010120019N0100001N1+02601+02271101571ADDAA106008991AY161061AY221061GF108991051081008001021999MA1999999099161MD1999999+0381MW1041REMSYN082AAXX  17184 82765 21597 80502 10260 20227 39916 40157 70462 8582/ 333 58038 60091;
0208827650999992001091800004-07320-047460FM-12+021299999V0200501N000519999999N0200001N1+02441+02271101561ADDAA199000091GA1091+999999999GF109991091999999999999999KA1240M+02661MA1999999099151MD1999999-0011REMSYN082AAXX  18004 82765 32/98 90501 10244 20227 39915 40156 333 10266 29085 55006 59001;EQDQ01  00002PRCP99
0173827650999992001091812004-07320-047460FM-12+021299999V0200501N001010450019N0200001N1+02541+02231101801ADDAA124008991GF106991031011008001031041KA1240N+02131MA1999999099381MD1999999-0081REMSYN082AAXX  18124 82765 22598 60502 10254 20223 39938 40180 83134 333 20213 59008 60094;
0167827650999992001091818004-07320-047460FM-12+021299999V0203601N001010075019N0200001N1+03411+02001101181ADDAA199000091GF106991061021008001001001MA1999999098811MD1999999-0351REMSYN070AAXX  18184 82765 32598 63602 10341 20200 39881 40118 86200 333 59035;EQDQ01  00002PRCP99
0208827650999992001091900004-07320-047460FM-12+021299999V0201801N002119999999N0200001N1+02681+02111101521ADDAA199000091GA1091+999999999GF109991091999999999999999KA1240M+03541MA1999999099121MD1999999-0031REMSYN082AAXX  19004 82765 32/98 91804 10268 20211 39912 40152 333 10354 29067 55089 59003;EQDQ01  00002PRCP99
0186827650999992001091912004-07320-047460FM-12+021299999V0201801N004610450019N0200001N1+02891+02031101621ADDAA199000091GF106991041021008001031001KA1240N+02461MA1999999099241MD1999999-0141REMSYN076AAXX  19124 82765 32598 61809 10289 20203 39924 40162 84230 333 20246 59014;EQDQ01  00002PRCP99
0167827650999992001091918004-07320-047460FM-12+021299999V0201401N005110075019N0200001N1+03231+01951101281ADDAA199000091GF106991061021008001001001MA1999999098901MD1999999+0091REMSYN070AAXX  19184 82765 32598 61410 10323 20195 39890 40128 86200 333 58009;EQDQ01  00002PRCP99
0208827650999992001092000004-07320-047460FM-12+021299999V0209999C000019999999N0200001N1+02841+02221101401ADDAA199000091GA1091+999999999GF109991091999999999999999KA1240M+03351MA1999999099031MD1999999-0091REMSYN082AAXX  20004 82765 32/98 90000 10284 20222 39903 40140 333 10335 29061 55083 59009;EQDQ01  00002PRCP99
0186827650999992001092012004-07320-047460FM-12+021299999V0200901N003612200019N0200001N1+02861+01751101641ADDAA199000091GF102991021011008001001001KA1240N+02331MA1999999099261MD1999999+0021REMSYN076AAXX  20124 82765 32598 20907 10286 20175 39926 40164 82100 333 20233 58002;EQDQ01  00002PRCP99
0167827650999992001092018004-07320-047460FM-12+021299999V0200901N002110075019N0200001N1+03491+01661101141ADDAA199000091GF106991061021008001001001MA1999999098781MD1999999-0121REMSYN070AAXX  20184 82765 32598 60904 10349 20166 39878 40114 86200 333 59012;EQDQ01  00002PRCP99
0186827650999992001092112004-07320-047460FM-12+021299999V0200901N003112200019N0200001N1+03001+01881101601ADDAA199000091GF101991011011008001001001KA1240N+02371MA1999999099241MD1999999-0021REMSYN076AAXX  21124 82765 32598 10906 10300 20188 39924 40160 81100 333 20237 59002;EQDQ01  00002PRCP99
0167827650999992001092118004-07320-047460FM-12+021299999V0200901N001010075019N0200001N1+03601+01811101111ADDAA199000091GF106991061021008001001001MA1999999098771MD1999999-0011REMSYN070AAXX  21184 82765 32598 60902 10360 20181 39877 40111 86200 333 59001;EQDQ01  00002PRCP99
0208827650999992001092200004-07320-047460FM-12+021299999V0201401N003119999999N0200001N1+03081+02011101241ADDAA199000091GA1091+999999999GF109991091999999999999999KA1240M+03721MA1999999098891MD1999999+0031REMSYN082AAXX  22004 82765 32/98 91406 10308 20201 39889 40124 333 10372 29048 55094 58003;EQDQ01  00002PRCP99
0186827650999992001092212004-07320-047460FM-12+021299999V0200901N004110450019N0200001N1+02881+02031101721ADDAA199000091GF106991041021008001031001KA1240N+02411MA1999999099351MD1999999+0111REMSYN076AAXX  22124 82765 32598 60908 10288 20203 39935 40172 84230 333 20241 58011;EQDQ01  00002PRCP99
0167827650999992001092218004-07320-047460FM-12+021299999V0200901N003110450019N0200001N1+03561+01991101171ADDAA199000091GF106991021031008001031001MA1999999098821MD1999999+0051REMSYN070AAXX  22184 82765 32598 60906 10356 20199 39882 40117 82330 333 58005;EQDQ01  00002PRCP99
0214827650999992001092300004-07320-047460FM-12+021299999V0209999C000019999999N0200001N1+02961+02311101311ADDAA199000091GA1091+999999999GF109991091999999999999999KA1240M+03641MA1999999098941MD1999999+0051REMSYN088AAXX  23004 82765 31/98 90000 10296 20231 39894 40131 7//99 333 10364 29059 55073 58005;EQDQ01  00002PRCP99
0198827650999992001092312004-07320-047460FM-12+021299999V0200901N002110450019N0100001N1+02761+02021101621ADDAA199000091GF106991031021008001031001KA1240N+02331MA1999999099241MD1999999-0111MW1041REMSYN082AAXX  23124 82765 31597 60904 10276 20202 39924 40162 704// 83230 333 20233 59011;EQDQ01  00002PRCP99
0167827650999992001092318004-07320-047460FM-12+021299999V0200501N001510075019N0200001N1+03581+01971101031ADDAA199000091GF107991071021008001001001MA1999999098681MD1999999-0141REMSYN070AAXX  23184 82765 32598 70503 10358 20197 39868 40103 87200 333 59014;EQDQ01  00002PRCP99
0208827650999992001092400004-07320-047460FM-12+021299999V0200501N000519999999N0200001N1+03061+02221101211ADDAA199000091GA1091+999999999GF109991091999999999999999KA1240M+03661MA1999999098851MD1999999-0091REMSYN082AAXX  24004 82765 32/98 90501 10306 20222 39885 40121 333 10366 29056 55073 59009;EQDQ01  00002PRCP99
0214827650999992001092412004-07320-047460FM-12+021299999V0200901N003112200019N0040001N1+02941+02031101631ADDAA199000091AY121061AY211061GF103991031021008001001001KA1240N+02411MA1999999099261MD1999999+0021MW1041REMSYN082AAXX  24124 82765 31596 30906 10294 20203 39926 40163 70421 83200 333 20241 58002;EQDQ01  00002PRCP99
0214827650999992001092512004-07320-047460FM-12+021299999V0200901N002612200019N0040001N1+02911+02021101641ADDAA199000091AY111061AY211061GF104991041021008001001001KA1240N+02411MA1999999099271MD1999999+0011MW1041REMSYN082AAXX  25124 82765 31596 40905 10291 20202 39927 40164 70411 84200 333 20241 58001;EQDQ01  00002PRCP99
0167827650999992001092518004-07320-047460FM-12+021299999V0200501N001510075019N0200001N1+03611+02141101061ADDAA199000091GF106991061021008001001001MA1999999098711MD1999999-0011REMSYN070AAXX  25184 82765 32598 60503 10361 20214 39871 40106 86200 333 59001;EQDQ01  00002PRCP99
0224827650999992001092600004-07320-047460FM-12+021299999V0200501N000512200019N0200001N1+03041+02181101351ADDAA199000091GA1001+999999999GF100991001001999999001001KA1240M+99999MA1999999098991MD1999999+0151REMSYN082AAXX  26004 82765 32998 00501 10304 20218 39899 40135 333 10291 29056 55094 58015;EQDQ01  00002PRCP99Q02 +02912ATMX  
0167827650999992001092618004-07320-047460FM-12+021299999V0203601N002610075019N0200001N1+03581+02051101051ADDAA199000091GF106991061021008001001001MA1999999098711MD1999999+0001REMSYN070AAXX  26184 82765 32598 63605 10358 20205 39871 40105 86200 333 58000;EQDQ01  00002PRCP99
0208827650999992001092700004-07320-047460FM-12+021299999V0203601N001012200019N0200001N1+03081+02101101181ADDAA199000091GA1001+999999999GF100991001001999999001001KA1240M+03721MA1999999098831MD1999999-0161REMSYN082AAXX  27004 82765 32998 03602 10308 20210 39883 40118 333 10372 29053 55098 59016;EQDQ01  00002PRCP99
0198827650999992001092712004-07320-047460FM-12+021299999V0203601N001510075019N0040001N1+02861+02231101581ADDAA199000091GF106991061021008001001001KA1240N+02451MA1999999099221MD1999999-0081MW1041REMSYN082AAXX  27124 82765 31596 63603 10286 20223 39922 40158 704// 86200 333 20245 59008;EQDQ01  00002PRCP99
0167827650999992001092718004-07320-047460FM-12+021299999V0203601N001510075019N0200001N1+03561+02111101041ADDAA199000091GF106991061021008001001001MA1999999098701MD1999999-0011REMSYN070AAXX  27184 82765 32598 63603 10356 20211 39870 40104 86200 333 59001;EQDQ01  00002PRCP99
0208827650999992001092800004-07320-047460FM-12+021299999V0203601N003112200019N0200001N1+02921+02191101341ADDAA199000091GA1001+999999999GF100991001001999999001001KA1240M+03661MA1999999098971MD1999999+0141REMSYN082AAXX  28004 82765 32998 03606 10292 20219 39897 40134 333 10366 29060 55069 58014;EQDQ01  00002PRCP99
0214827650999992001092812004-07320-047460FM-12+021299999V0209999C000010075019N0040001N1+02801+02151101631ADDAA199000091GF107991999021008001001001KA1240N+02451MA1999999098251MD1999999+0031MW1041REMSYN082AAXX  28124 82765 31596 70000 10280 20215 39825 40163 704// 86200 333 20245 58003;EQDQ01+000062SCOTLCQ02  00002PRCP99
0167827650999992001092818004-07320-047460FM-12+021299999V0203601N001010075019N0200001N1+03521+02071101121ADDAA199000091GF107991071021008001001001MA1999999098771MD1999999+0071REMSYN070AAXX  28184 82765 32598 73602 10352 20207 39877 40112 87200 333 58007;EQDQ01  00002PRCP99
0208827650999992001092900004-07320-047460FM-12+021299999V0209999C000012200019N0200001N1+03061+02381101271ADDAA199000091GA1001+999999999GF100991001001999999001001KA1240M+03581MA1999999098911MD1999999-0061REMSYN082AAXX  29004 82765 32998 00000 10306 20238 39891 40127 333 10358 29061 55055 59006;EQDQ01  00002PRCP99
0214827650999992001092912004-07320-047460FM-12+021299999V0203601N002610075019N0040001N1+02841+02141101761ADDAA199000091AY121061AY211061GF107991071021008001001001KA1240N+02461MA1999999099391MD1999999+0141MW1041REMSYN082AAXX  29124 82765 31596 73605 10284 20214 39939 40176 70421 87200 333 20246 58014;EQDQ01  00002PRCP99
0195827650999992001092918004-07320-047460FM-12+021299999V0200901N003110450019N0100001N1+03491+02001101201ADDAA199000091AY121061AY211061GF106991041021008001011001MA1999999098851MD1999999+0081MW1041REMSYN076AAXX  29184 82765 31597 60906 10349 20200 39885 40120 70421 84210 333 58008;EQDQ01  00002PRCP99
0214827650999992001093012004-07320-047460FM-12+021299999V0200501N003110120019N0040001N1+02821+02101101811ADDAA199000091AY121061AY221061GF108991081081008001999999KA1240N+02401MA1999999099431MD1999999+0041MW1041REMSYN082AAXX  30124 82765 31596 80506 10282 20210 39943 40181 70422 888// 333 20240 58004;EQDQ01  00002PRCP99
0195827650999992001093018004-07320-047460FM-12+021299999V0200501N002610450019N0100001N1+03531+02031101171ADDAA199000091AY121061AY211061GF106991041021008001011001MA1999999098821MD1999999-0031MW1041REMSYN076AAXX  30184 82765 31597 60505 10353 20203 39882 40117 70421 84210 333 59003;EQDQ01  00002PRCP99
0226827650999992001100100004-07320-047460FM-12+021299999V0200901N002110075019N0100001N1+03001+02141101481ADDAA199000091AY121061AY211061GF106991061021008001001001KA1240M+03691MA1999999099111MD1999999+0061MW1041REMSYN094AAXX  01004 82765 31597 60904 10300 20214 39911 40148 70421 86200 333 10369 29057 55064 58006;EQDQ01  00002PRCP99
0214827650999992001100112004-07320-047460FM-12+021299999V0209999C000010120019N0040001N1+02601+02031101781ADDAA199000091AY121061AY221061GF107991071081008001001001KA1240N+02491MA1999999099391MD1999999-0041MW1041REMSYN082AAXX  01124 82765 31596 70000 10260 20203 39939 40178 70422 87800 333 20249 59004;EQDQ01  00002PRCP99
0195827650999992001100118004-07320-047460FM-12+021299999V0203201N003110450019N0040001N1+03441+02641101171ADDAA199000091AY121061AY201061GF107991041021008001031001MA1999999098861MD1999999-0051MW1041REMSYN076AAXX  01184 82765 31596 73206 10344 20264 39886 40117 70420 84230 333 59005;EQDQ01  00002PRCP99
0208827650999992001100200004-07320-047460FM-12+021299999V0203201N000519999999N0200001N1+03081+02351101411ADDAA199000091GA1091+999999999GF109991091999999999999999KA1240M+03561MA1999999099041MD1999999-0071REMSYN082AAXX  02004 82765 32/98 93201 10308 20235 39904 40141 333 10356 29062 55062 59007;EQDQ01  00002PRCP99
0186827650999992001100212004-07320-047460FM-12+021299999V0203601N004610120019N0200001N1+02901+02121101801ADDAA199000091GF107991051081008001031001KA1240N+02451MA1999999099431MD1999999+0041REMSYN076AAXX  02124 82765 32598 73609 10290 20212 39943 40180 85830 333 20245 58004;EQDQ01  00002PRCP99
0167827650999992001100218004-07320-047460FM-12+021299999V0203201N003110075019N0200001N1+03441+02001101341ADDAA199000091GF106991051021008001031001MA1999999098981MD1999999+0121REMSYN070AAXX  02184 82765 32598 63206 10344 20200 39898 40134 85230 333 58012;EQDQ01  00002PRCP99
0208827650999992001100300004-07320-047460FM-12+021299999V0203601N002119999999N0200001N1+03521+02151101521ADDAA199000091GA1091+999999999GF109991091999999999999999KA1240M+03521MA1999999099151MD1999999+0111REMSYN082AAXX  03004 82765 32/98 93604 10352 20215 39915 40152 333 10352 29058 55062 58011;EQDQ01  00002PRCP99
0198827650999992001100312004-07320-047460FM-12+021299999V0203601N001510120019N0100001N1+02661+02241101951ADDAA199000091GF107991071081008001001001KA1240N+02411MA1999999099561MD1999999+0131MW1041REMSYN082AAXX  03124 82765 31597 73603 10266 20224 39956 40195 704// 87800 333 20241 58013;EQDQ01  00002PRCP99
0160827650999992001100318004-07320-047460FM-12+021299999V0200501N001510075019N0200001N1+03421+02161101471ADDAA106002091GF106991061021008001001001MA1999999099111MD1999999+0131REMSYN082AAXX  03184 82765 21598 60503 10342 20216 39911 40147 7//65 86200 333 58013 60021;
0208827650999992001100400004-07320-047460FM-12+021299999V0202701N000519999999N0200001N1+03041+02431101531ADDAA199000091GA1091+999999999GF109991091999999999999999KA1240M+03541MA1999999099151MD1999999+0001REMSYN082AAXX  04004 82765 32/98 92701 10304 20243 39915 40153 333 10354 29066 55051 58000;EQDQ01  00002PRCP99
0195827650999992001100412004-07320-047460FM-12+021299999V0203201N003110024019N0040001N1+02801+02081101861ADDAA124002091GA1091+999999999GF109991091999999999999999KA1240N+02381MA1999999099481MD1999999-0081MW1041REMSYN082AAXX  04124 82765 21/96 93206 10280 20208 39948 40186 704// 333 20238 59008 60024;
0195827650999992001100418004-07320-047460FM-12+021299999V0203201N002110075019N0040001N1+03401+02041101291ADDAA199000091AY121061AY211061GF105991051021008001001001MA1999999098931MD1999999-0181MW1041REMSYN076AAXX  04184 82765 31596 53204 10340 20204 39893 40129 70421 85200 333 59018;EQDQ01  00002PRCP99
0228827650999992001100500004-07320-047460FM-12+021299999V0203601N001010024019N0040001N1+03011+02081101441ADDAA199000091AY121061GA1091+999999999GF109991091999999999999999KA1240M+03601MA1999999099071MD1999999-0081MW1041REMSYN088AAXX  05004 82765 31/96 93602 10301 20208 39907 40144 7042/ 333 10360 29056 55057 59008;EQDQ01  00002PRCP99
0198827650999992001100512004-07320-047460FM-12+021299999V0209999C000010120019N0040001N1+02661+02241101891ADDAA199000091GF106991061081008001001001KA1240N+02411MA1999999099461MD1999999-0021MW1041REMSYN082AAXX  05124 82765 31596 60000 10266 20224 39946 40189 704// 86800 333 20241 59002;EQDQ01  00002PRCP99
0167827650999992001100518004-07320-047460FM-12+021299999V0203201N001510075019N0200001N1+03521+02071101211ADDAA199000091GF106991061021008001001001MA1999999098861MD1999999-0071REMSYN070AAXX  05184 82765 32598 63203 10352 20207 39886 40121 86200 333 59007;EQDQ01  00002PRCP99
0208827650999992001100600004-07320-047460FM-12+021299999V0203601N000519999999N0200001N1+03101+02121101321ADDAA199000091GA1091+999999999GF109991091999999999999999KA1240M+03661MA1999999098951MD1999999-0121REMSYN082AAXX  06004 82765 32/98 93601 10310 20212 39895 40132 333 10366 29058 55075 59012;EQDQ01  00002PRCP99
0214827650999992001100612004-07320-047460FM-12+021299999V0203601N000510075019N0100001N1+02911+02221101731ADDAA199000091AY121061AY211061GF106991061021008001001001KA1240N+02571MA1999999099361MD1999999-0101MW1041REMSYN082AAXX  06124 82765 31597 63601 10291 20222 39936 40173 70421 86200 333 20257 59010;EQDQ01  00002PRCP99
0195827650999992001100718004-07320-047460FM-12+021299999V0203601N002610450019N0100001N1+03451+01901101081ADDAA199000091AY121061AY211061GF107991041021008001021001MA1999999098741MD1999999-0151MW1041REMSYN076AAXX  07184 82765 31597 73605 10345 20190 39874 40108 70421 84220 333 59015;EQDQ01  00002PRCP99
0208827650999992001100800004-07320-047460FM-12+021299999V0200901N002610024019N0100001N1+02581+02191101501ADDAA199000091GA1091+999999999GF109991091999999999999999KA1240M+03561MA1999999099111MD1999999+0151REMSYN082AAXX  08004 82765 32/97 90905 10258 20219 39911 40150 333 10356 29067 55028 58015;EQDQ01  00002PRCP99
0186827650999992001100812004-07320-047460FM-12+021299999V0200901N001010120019N0200001N1+02701+02261101661ADDAA199000091GF108991061081008001021999KA1240N+02311MA1999999099261MD1999999+0081REMSYN076AAXX  08124 82765 32598 80902 10270 20226 39926 40166 8682/ 333 20231 58008;EQDQ01  00002PRCP99
0167827650999992001100818004-07320-047460FM-12+021299999V0203601N002610075019N0200001N1+03381+02121101131ADDAA199000091GF106991061021008001001001MA1999999098771MD1999999+0031REMSYN070AAXX  08184 82765 32598 63605 10338 20212 39877 40113 86200 333 58003;EQDQ01  00002PRCP99
0208827650999992001100900004-07320-047460FM-12+021299999V0203601N001019999999N0200001N1+02961+02131101301ADDAA199000091GA1091+999999999GF109991091999999999999999KA1240M+03521MA1999999098931MD1999999+0181REMSYN082AAXX  09004 82765 32/98 93602 10296 20213 39893 40130 333 10352 29062 55063 58018;EQDQ01  00002PRCP99
0201827650999992001100912004-07320-047460FM-12+021299999V0200501N000510075019N0200001N1+02601+02371101591ADDAA124002091AY161061AY261061GF108991061051008001021999KA1240N+02451MA1999999099211MD1999999-0051MW1511REMSYN088AAXX  09124 82765 21598 80501 10260 20237 39921 40159 75166 8652/ 333 20245 59005 60024;
0160827650999992001100918004-07320-047460FM-12+021299999V0203601N003110120019N0200001N1+02621+02181101231ADDAA106000891GF107991051081008001021001MA1999999098841MD1999999+0071REMSYN082AAXX  09184 82765 21598 73606 10262 20218 39884 40123 7//55 85820 333 58007 69981;
0189827650999992001101000004-07320-047460FM-12+021299999V0203201N000519999999N0200001N1+02461+02231101371ADDAA199000021GA1091+999999999GF109991091999999999999999KA1240M+02961MA1999999098971MD1999999+0041REMSYN082AAXX  10004 82765 32/98 93201 10246 20223 39897 40137 333 10296 29084 55005 58004;
0173827650999992001101012004-07320-047460FM-12+021299999V0203201N000510450019N0200001N1+02601+02211101641ADDAA124000891GF106991041021008001041001KA1240N+02251MA1999999099231MD1999999+0021REMSYN082AAXX  10124 82765 22598 63201 10260 20221 39923 40164 84240 333 20225 58002 69984;
0167827650999992001101018004-07320-047460FM-12+021299999V0200901N003110075019N0200001N1+03221+02231101131ADDAA199000091GF106991051021008001041001MA1999999098751MD1999999-0091REMSYN070AAXX  10184 82765 32598 60906 10322 20223 39875 40113 85240 333 59009;EQDQ01  00002PRCP99
0208827650999992001101100004-07320-047460FM-12+021299999V0209999C000019999999N0200001N1+02921+02341101271ADDAA199000091GA1091+999999999GF109991091999999999999999KA1240M+03461MA1999999098891MD1999999-0081REMSYN082AAXX  11004 82765 32/98 90000 10292 20234 39889 40127 333 10346 29069 55054 59008;EQDQ01  00002PRCP99
0214827650999992001101112004-07320-047460FM-12+021299999V0200901N001010075019N0100001N1+02961+02231101501ADDAA199000091AY121061AY211061GF105991051011008001001001KA1240N+02401MA1999999099131MD1999999-0101MW1041REMSYN082AAXX  11124 82765 31597 50902 10296 20223 39913 40150 70421 85100 333 20240 59010;EQDQ01  00002PRCP99
0195827650999992001101118004-07320-047460FM-12+021299999V0200901N004110450019N0100001N1+03471+02131101021ADDAA199000091AY121061AY211061GF107991041021008001011041MA1999999098661MD1999999-0091MW1041REMSYN076AAXX  11184 82765 31597 70908 10347 20213 39866 40102 70421 84214 333 59009;EQDQ01  00002PRCP99
0208827650999992001101200004-07320-047460FM-12+021299999V0200901N002119999999N0200001N1+03021+02211101161ADDAA199000091GA1091+999999999GF109991091999999999999999KA1240M+03701MA1999999098811MD1999999-0081REMSYN082AAXX  12004 82765 32/98 90904 10302 20221 39881 40116 333 10370 29059 55074 59008;EQDQ01  00002PRCP99
0201827650999992001101212004-07320-047460FM-12+021299999V0200901N001510450019N0040001N1+02641+02331101591ADDAA124002091AY161061AY221061GF108991041081008001021999KA1240N+02511MA1999999099211MD1999999+0081MW1041REMSYN088AAXX  12124 82765 21596 80903 10264 20233 39921 40159 70462 8482/ 333 20251 58008 60024;
0195827650999992001101218004-07320-047460FM-12+021299999V0203201N003110450019N0100001N1+02831+02221101331ADDAA199000091AY121061AY221061GF108991041081008001021999MA1999999098941MD1999999+0281MW1041REMSYN076AAXX  12184 82765 31597 83206 10283 20222 39894 40133 70422 8482/ 333 58028;EQDQ01  00002PRCP99
0208827650999992001101300004-07320-047460FM-12+021299999V0203201N001019999999N0200001N1+02561+02251101471ADDAA199000091GA1091+999999999GF109991091999999999999999KA1240M+03031MA1999999099071MD1999999+0261REMSYN082AAXX  13004 82765 32/98 93202 10256 20225 39907 40147 333 10303 29080 55000 58026;EQDQ01  00002PRCP99
0214827650999992001101312004-07320-047460FM-12+021299999V0203201N001510075019N0100001N1+02621+02351101711ADDAA199000091AY121061AY211061GF106991061021008001001001KA1240N+02281MA1999999099301MD1999999+0091MW1041REMSYN082AAXX  13124 82765 31597 63203 10262 20235 39930 40171 70421 86200 333 20228 58009;EQDQ01  00002PRCP99
0171827650999992001101318004-07320-047460FM-12+021299999V0202701N001010450019N0200001N1+02491+02321101331ADDAY161061AY221061GF108991041081008001021999MA1999999098911MD1999999-0031MW1021REMSYN082AAXX  13184 82765 21598 82702 10249 20232 39891 40133 70262 8482/ 333 59003 50281;
0208827650999992001101400004-07320-047460FM-12+021299999V0202701N001019999999N0200001N1+02481+02321101491ADDAA199000091GA1091+999999999GF109991091999999999999999KA1240M+03091MA1999999099081MD1999999+0011REMSYN082AAXX  14004 82765 32/98 92702 10248 20232 39908 40149 333 10309 29090 55016 58001;EQDQ01  00002PRCP99
0167827650999992001101418004-07320-047460FM-12+021299999V0200501N003110450019N0200001N1+03321+02231101181ADDAA199000091GF106991041021008001041001MA1999999098811MD1999999-0101REMSYN070AAXX  14184 82765 32598 60506 10332 20223 39881 40118 84240 333 59010;EQDQ01  00002PRCP99
0208827650999992001101500004-07320-047460FM-12+021299999V0209999C000019999999N0200001N1+02821+02311101281ADDAA199000091GA1091+999999999GF109991091999999999999999KA1240M+03381MA1999999098901MD1999999-0181REMSYN082AAXX  15004 82765 32/98 90000 10282 20231 39890 40128 333 10338 29071 55042 59018;EQDQ01  00002PRCP99
0179827650999992001101512004-07320-047460FM-12+021299999V0200501N002110120019N0200001N1+02521+02381101521ADDAA124000891GF108991081081008001999999KA1240N+02451MA1999999099121MD1999999-0211REMSYN088AAXX  15124 82765 21598 80504 10252 20238 39912 40152 7//55 888// 333 20245 59021 69984;
0182827650999992001101518004-07320-047460FM-12+021299999V0200501N001510075019N0200001N1+02301+02251101301ADDAA106081091AY191061AY261061GF108991081051008001999999MA1999999098881MD1999999+0071MW1511REMSYN082AAXX  15184 82765 21598 80503 10230 20225 39888 40130 75196 885// 333 58007 60811;
0189827650999992001101600004-07320-047460FM-12+021299999V0209999C000019999999N0200001N1+02381+02291101361ADDAA199000021GA1091+999999999GF109991091999999999999999KA1240M+02801MA1999999098951MD1999999+0051REMSYN082AAXX  16004 82765 32/98 90000 10238 20229 39895 40136 333 10280 29095 55000 58005;
0214827650999992001101612004-07320-047460FM-12+021299999V0200501N001010042019N0100001N1+02441+02321101621ADDAA124081091AY101061AY221061GF108991081071004501999999KA1240N+02211MA1999999099201MD1999999+0081REMSYN088AAXX  16124 82765 21497 80502 10244 20232 39920 40162 74902 887// 333 20221 58008 60814;EQDQ01+000492PRSWM1
0186827650999992001101712004-07320-047460FM-12+021299999V0200901N001512200019N0200001N1+02571+02211101441ADDAA199000091GF103991031011008001001001KA1240N+02211MA1999999099031MD1999999-0171REMSYN076AAXX  17124 82765 32598 30903 10257 20221 39903 40144 83100 333 20221 59017;EQDQ01  00002PRCP99
0167827650999992001101718004-07320-047460FM-12+021299999V0203601N002110075019N0200001N1+03091+02351100991ADDAA199000091GF105991051021008001001001MA1999999098601MD1999999-0141REMSYN070AAXX  17184 82765 32598 53604 10309 20235 39860 40099 85200 333 59014;EQDQ01  00002PRCP99
0208827650999992001101800004-07320-047460FM-12+021299999V0203601N001019999999N0200001N1+02941+02541100981ADDAA199000091GA1091+999999999GF109991091999999999999999KA1240M+03361MA1999999098611MD1999999-0361REMSYN082AAXX  18004 82765 32/98 93602 10294 20254 39861 40098 333 10336 29076 55086 59036;EQDQ01  00002PRCP99
0186827650999992001101812004-07320-047460FM-12+021299999V0203601N001010120019N0200001N1+02711+02371101401ADDAA199000091GF108991051081008001021999KA1240N+02431MA1999999099021MD1999999-0011REMSYN076AAXX  18124 82765 32598 83602 10271 20237 39902 40140 8582/ 333 20243 59001;EQDQ01  00002PRCP99
0208827650999992001101900004-07320-047460FM-12+021299999V0209999C000019999999N0200001N1+02721+02451101101ADDAA199000091GA1091+999999999GF109991091999999999999999KA1240M+03141MA1999999098721MD1999999+0111REMSYN082AAXX  19000 82765 32/98 90000 10272 20245 39872 40110 333 10314 29079 55013 58011;EQDQ01  00002PRCP99
0201827650999992001101912004-07320-047460FM-12+021299999V0209999C000010450019N0100001N1+02751+02401101381ADDAA124004191AY121061AY221061GF108991041021008001011999KA1240N+02431MA1999999099001MD1999999-0021MW1051REMSYN088AAXX  19124 82765 21597 80000 10275 20240 39900 40138 70522 8421/ 333 20243 59002 60044;
0195827650999992001101918004-07320-047460FM-12+021299999V0203201N000510450019N0100001N1+03241+02391100801ADDAA199000091AY121061AY221061GF107991041021008001011001MA1999999098441MD1999999-0171MW1051REMSYN076AAXX  19184 82765 31597 73201 10324 20239 39844 40080 70522 84210 333 59017;EQDQ01  00002PRCP99
0208827650999992001102000004-07320-047460FM-12+021299999V0202701N001510024019N0100001N1+02691+02181101121ADDAA199000091GA1091+999999999GF109991091999999999999999KA1240M+03361MA1999999098741MD1999999+0021REMSYN082AAXX  20004 82765 32/97 92703 10269 20218 39874 40112 333 10336 29073 55034 58002;EQDQ01  00002PRCP99
0167827650999992001102018004-07320-047460FM-12+021299999V0202701N001010120019N0200001N1+02641+02231101291ADDAA199000091GF108991081081008001999999MA1999999098881MD1999999+0441REMSYN070AAXX  20184 82765 32598 82702 10264 20223 39888 40129 888// 333 58044;EQDQ01  00002PRCP99
0196827650999992001102112004-07320-047460FM-12+021299999V0209999C000012200019N0200001N1+02721+02301101441ADDAA199000091GA1001+999999999GF100991001001999999001001KA1240N+02191MA1999999099041MD1999999-0191REMSYN070AAXX  21124 82765 32998 00000 10272 20230 39904 40144 333 20219 59019;EQDQ01  00002PRCP99
0208827650999992001102200004-07320-047460FM-12+021299999V0203601N001519999999N0200001N1+02981+02371101201ADDAA199000091GA1091+999999999GF109991091999999999999999KA1240M+03561MA1999999098831MD1999999-0201REMSYN082AAXX  22004 82765 32/98 93603 10298 20237 39883 40120 333 10356 29067 55098 59020;EQDQ01  00002PRCP99
0186827650999992001102212004-07320-047460FM-12+021299999V0203601N001512200019N0200001N1+02801+02341101371ADDAA199000091GF103991031021008001001001KA1240N+02451MA1999999099001MD1999999-0041REMSYN076AAXX  22124 82765 32598 33603 10280 20234 39900 40137 83200 333 20245 59004;EQDQ01  00002PRCP99
0179827650999992001102218004-07320-047460FM-12+021299999V0203601N001510075019N0100001N1+03461+02361100931ADDAA199000091GF105991051021008001001001MA1999999098581MD1999999-0091MW1051REMSYN076AAXX  22184 82765 31597 53603 10346 20236 39858 40093 705// 85200 333 59009;EQDQ01  00002PRCP99
0201827650999992001102300004-07320-047460FM-12+021299999V0200501N001019999999N0200001N1+02761+02341101101ADDAA106000891GA1091+999999999GF109991091999999999999999KA1240M+03541MA1999999098731MD1999999-0151REMSYN094AAXX  23004 82765 21/98 90502 10276 20234 39873 40110 7//95 333 10354 29071 55079 59015 69981;
0211827650999992001102312004-07320-047460FM-12+021299999V0200501N002612200019N0200001N1+02841+02401101401ADDAA124000891AY101061AY201061GA1001+999999999GF100991001001999999001001KA1240N+02541MA1999999099021MD1999999+0021MW1051REMSYN082AAXX  23124 82765 21998 00505 10284 20240 39902 40140 70500 333 20254 58002 69984;
0223827650999992001102400004-07320-047460FM-12+021299999V0202701N001519999999N0200001N1+02521+02251101551ADDAA106001091AY161061AY221061GA1091+999999999GF109991091999999999999999KA1240M+03421MA1999999099161MD1999999+0431MW1131REMSYN094AAXX  24004 82765 21/98 92703 10252 20225 39916 40155 71362 333 10342 29075 55046 58043 60011;
0173827650999992001102412004-07320-047460FM-12+021299999V0202701N003110120019N0200001N1+02621+02271101731ADDAA124002091GF107991071081008001001001KA1240N+02451MA1999999099321MD1999999+0301REMSYN082AAXX  24124 82765 22598 72706 10262 20227 39932 40173 87800 333 20245 58030 60024;
0208827650999992001102500004-07320-047460FM-12+021299999V0203601N001019999999N0200001N1+02781+02361101431ADDAA199000091GA1091+999999999GF109991091999999999999999KA1240M+03221MA1999999099041MD1999999-0121REMSYN082AAXX  25004 82765 32/98 93602 10278 20236 39904 40143 333 10322 29075 55037 59012;EQDQ01  00002PRCP99
0201827650999992001102512004-07320-047460FM-12+021299999V0203601N001010450019N0200001N1+02351+02221101751ADDAA124009991AY161061AY221061GF108991041081008001021999KA1240N+02361MA1999999099341MD1999999+0021MW1031REMSYN088AAXX  25124 82765 21598 83602 10235 20222 39934 40175 70362 8482/ 333 20236 58002 60104;
0195827650999992001102518004-07320-047460FM-12+021299999V0203601N002610450019N0200001N1+02691+02331101431ADDAA199000091AY121061AY221061GF108991041081008001021999MA1999999099031MD1999999+0151MW1031REMSYN076AAXX  25184 82765 32598 83605 10269 20233 39903 40143 70322 8482/ 333 58015;EQDQ01  00002PRCP99
0198827650999992001102600004-07320-047460FM-12+021299999V0203201N001010450019N0200001N1+02491+02301101521ADDAA199000091GF108991041081008001021999KA1240M+02801MA1999999099101MD1999999+0061REMSYN088AAXX  26004 82765 32598 83202 10249 20230 39910 40152 8482/ 333 10280 29088 55000 58006;EQDQ01  00002PRCP99
0186827650999992001102612004-07320-047460FM-12+021299999V0203601N000510120019N0200001N1+02441+02271101831ADDAA199000091GF108991081081008001999999KA1240N+02291MA1999999099411MD1999999+0071REMSYN076AAXX  26124 82765 32598 83601 10244 20227 39941 40183 888// 333 20229 58007;EQDQ01  00002PRCP99
0195827650999992001102618004-07320-047460FM-12+021299999V0202701N001010450019N0200001N1+03191+02281101321ADDAA199000091AY121061AY211061GF106991041031008001011041MA1999999098931MD1999999-0101MW1171REMSYN076AAXX  26184 82765 31598 62702 10319 20228 39893 40132 71721 84314 333 59010;EQDQ01  00002PRCP99
0201827650999992001102700004-07320-047460FM-12+021299999V0200901N001519999999N0200001N1+02481+02251101521ADDAA106001091GA1091+999999999GF109991091999999999999999KA1240M+03261MA1999999099101MD1999999+0001REMSYN094AAXX  27004 82765 21/98 90903 10248 20225 39910 40152 7//95 333 10326 29081 55045 58000 60011;
0173827650999992001102712004-07320-047460FM-12+021299999V0200901N000512200019N0200001N1+02701+02261101611ADDAA124001091GF102991021011008001001001KA1240N+02231MA1999999099211MD1999999-0201REMSYN082AAXX  27124 82765 22598 20901 10270 20226 39921 40161 82100 333 20223 59020 60014;
0173827650999992001102718004-07320-047460FM-12+021299999V0200901N001510120019N0200001N1+02821+02331101281ADDAA199000091GF107991051081008001021001MA1999999098871MD1999999-0061REMSYN076AAXX  27184 82765 31598 70903 10282 20233 39887 40128 7//99 85820 333 59006;EQDQ01  00002PRCP99
0198827650999992001102800004-07320-047460FM-12+021299999V0209999C000012200019N0200001N1+02661+02431101431ADDAA199000091GF102991021011008001001001KA1240M+03221MA1999999099041MD1999999-0061REMSYN088AAXX  28004 82765 32598 20000 10266 20243 39904 40143 82100 333 10322 29082 55053 59006;EQDQ01  00002PRCP99
0186827650999992001102812004-07320-047460FM-12+021299999V0200901N003612200019N0200001N1+02861+02231101501ADDAA199000091GF102991021011008001001001KA1240N+02231MA1999999099111MD1999999-0101REMSYN076AAXX  28124 82765 32598 20907 10286 20223 39911 40150 82100 333 20223 59010;EQDQ01  00002PRCP99
0167827650999992001102818004-07320-047460FM-12+021299999V0200901N001510075019N0200001N1+03341+02251101081ADDAA199000091GF106991061021008001001001MA1999999098711MD1999999-0161REMSYN070AAXX  28184 82765 32598 60903 10334 20225 39871 40108 86200 333 59016;EQDQ01  00002PRCP99
0220827650999992001102900004-07320-047460FM-12+021299999V0203601N000512200019N0200001N1+02781+02321101331ADDAA199000091GF103991999011008001001001KA1240M+03461MA1999999098961MD1999999-0081REMSYN094AAXX  29004 82765 31598 33601 10278 20232 39896 40133 7//99 81100 333 10346 29068 55101 59008;EQDQ01+000012SCOTLCQ02  00002PRCP99
0201827650999992001102912004-07320-047460FM-12+021299999V0203601N000510075019N0200001N1+02891+02301101591ADDAA199000091AY121061AY211061GF106991061021008001001001MA1999999099211MD1999999+0101MW1031REMSYN082AAXX  29124 82765 31598 63601 10289 20230 39921 40159 70321 86200 333 29042 58010;EQDQ01  00002PRCP99
0173827650999992001102918004-07320-047460FM-12+021299999V0203601N001010075019N0200001N1+03341+02341101081ADDAA199000091GF107991051021008001041001MA1999999098721MD1999999+0011REMSYN076AAXX  29184 82765 31598 73602 10334 20234 39872 40108 7//99 85240 333 58001;EQDQ01  00002PRCP99
0201827650999992001103000004-07320-047460FM-12+021299999V0200501N001012200019N0200001N1+02521+02311101331ADDAA106019191GA1001+999999999GF100991001001999999001001KA1240M+03421MA1999999098941MD1999999-0021REMSYN094AAXX  30004 82765 21998 00502 10252 20231 39894 40133 7//66 333 10342 29076 55078 59002 60191;
0189827650999992001103018004-07320-047460FM-12+021299999V0203201N002619999999N0100001N1+03231+02401101061ADDAA199000091AY121061AY211061GF106991999999008001999999MA1999999098691MD1999999-0031MW1051REMSYN070AAXX  30184 82765 31597 63205 10323 20240 39869 40106 70521 333 59003;EQDQ01  00002PRCP99
0236827650999992001103100004-07320-047460FM-12+021299999V0203201N001010024019N0100001N1+02831+02461101281ADDAA199000091AY121061AY211061GA1091+999999999GF109991091999999999999999KA1240M+03331MA1999999098891MD1999999-0051MW1051REMSYN088AAXX  31004 82765 31/97 93202 10283 20246 39889 40128 70521 333 10333 29078 55041 59005;EQDQ01  00002PRCP99
0214827650999992001103112004-07320-047460FM-12+021299999V0203201N001010450019N0040001N1+02771+02421101491ADDAA199000091AY121061AY211061GF107991041021008001011001KA1240N+02461MA1999999099111MD1999999-0131MW1051REMSYN082AAXX  31124 82765 31596 73202 10277 20242 39911 40149 70521 84210 333 20246 59013;EQDQ01  00002PRCP99
0195827650999992001103118004-07320-047460FM-12+021299999V0202701N001010450019N0040001N1+02941+02521101051ADDAA199000091AY121061AY221061GF108991041081008001021999MA1999999098671MD1999999-0021MW1051REMSYN076AAXX  31184 82765 31596 82702 10294 20252 39867 40105 70522 8482/ 333 59002;EQDQ01  00002PRCP99
0236827650999992001110100004-07320-047460FM-12+021299999V0209999C000010024019N0040001N1+02651+02461101111ADDAA199000091AY121061AY221061GA1091+999999999GF109991091999999999999999KA1240M+03141MA1999999098731MD1999999-0161MW1051REMSYN088AAXX  01004 82765 31/96 90000 10265 20246 39873 40111 70522 333 10314 29085 55017 59016;EQDQ01  00002PRCP99
0198827650999992001110112004-07320-047460FM-12+021299999V0209999C000010120019N0100001N1+02681+02431101391ADDAA199000091GF107991051081008001041001KA1240N+02351MA1999999099001MD1999999-0111MW1051REMSYN082AAXX  01124 82765 31597 70000 10268 20243 39900 40139 705// 85840 333 20235 59011;EQDQ01  00002PRCP99
0195827650999992001110118004-07320-047460FM-12+021299999V0202701N007210120019N0200001N1+02101+99999101101ADDAA199000091AY191061AY291061GF108991061081008001021999MA1999999098721MD1999999+0051MW1291REMSYN076AAXX  01184 82765 31598 82714 10210 20241 39872 40110 72999 8682/ 333 58005;EQDQ01  00002PRCP99
0201827650999992001110200004-07320-047460FM-12+021299999V0202701N001519999999N0200001N1+02341+02201101361ADDAA106022191GA1091+999999999GF109991091999999999999999KA1240M+03241MA1999999098951MD1999999+0221REMSYN094AAXX  02004 82765 21/98 92703 10234 20220 39895 40136 7//96 333 10324 29085 55011 58022 60221;
0173827650999992001110212004-07320-047460FM-12+021299999V0202701N003010120019N0200001N1+02401+02151101481ADDAA124022191GF107991051081008001041001KA1240N+02171MA1999999099061MD1999999+0061REMSYN082AAXX  02120 82765 22598 72703 10240 20215 39906 40148 85840 333 20217 58006 60224;
0167827650999992001110218004-07320-047460FM-12+021299999V0202701N001010450019N0200001N1+03261+02351101081ADDAA199000091GF105991041021008001041001MA1999999098701MD1999999-0021REMSYN070AAXX  02184 82765 32598 52702 10326 20235 39870 40108 84240 333 59002;EQDQ01  00002PRCP99
0201827650999992001110300004-07320-047460FM-12+021299999V0200501N001019999999N0200001N1+02441+02191101231ADDAA106017091GA1091+999999999GF109991091999999999999999KA1240M+03401MA1999999098821MD1999999-0131REMSYN094AAXX  03004 82765 21/98 90502 10244 20219 39882 40123 7//96 333 10340 29079 55066 59013 60171;
0173827650999992001110312004-07320-047460FM-12+021299999V0200901N001512200019N0200001N1+02761+02161101411ADDAA124017091GF101991011011008001001001KA1240N+02291MA1999999099011MD1999999-0051REMSYN082AAXX  03124 82765 22598 10903 10276 20216 39901 40141 81100 333 20229 59005 60174;
0167827650999992001110318004-07320-047460FM-12+021299999V0200901N001010075019N0200001N1+03441+02181100971ADDAA199000091GF105991051021008001001001MA1999999098611MD1999999-0091REMSYN070AAXX  03184 82765 32598 50902 10344 20218 39861 40097 85200 333 59009;EQDQ01  00002PRCP99
0208827650999992001110400004-07320-047460FM-12+021299999V0200501N001012200019N0200001N1+02881+02351101221ADDAA199000091GA1001+999999999GF100991001001999999001001KA1240M+03561MA1999999098851MD1999999+0031REMSYN082AAXX  04004 82765 32998 00502 10288 20235 39885 40122 333 10356 29066 55109 58003;EQDQ01  00002PRCP99
0186827650999992001110412004-07320-047460FM-12+021299999V0200501N003110090019N0200001N1+02671+02311101591ADDAA199000091GF108991081081004501999999KA1240N+02371MA1999999099211MD1999999+0201REMSYN076AAXX  04124 82765 32498 80506 10267 20231 39921 40159 888// 333 20237 58020;EQDQ01  00002PRCP99
0182827650999992001110418004-07320-047460FM-12+021299999V0203201N002110450019N0200001N1+03211+02351101141ADDAA106001091AY161061AY211061GF105991031021008001051041MA1999999098741MD1999999+0131MW1031REMSYN082AAXX  04184 82765 21598 53204 10321 20235 39874 40114 70361 83254 333 58013 60011;
0173827650999992001110512004-07320-047460FM-12+021299999V0202701N000510450019N0200001N1+02711+02431101471ADDAA124001091GF105991031021008001061041KA1240N+02541MA1999999099091MD1999999-0121REMSYN082AAXX  05124 82765 22598 52701 10271 20243 39909 40147 83264 333 20254 59012 60014;
0195827650999992001110518004-07320-047460FM-12+021299999V0200501N003112200019N0100001N1+03261+02331101101ADDAA199000091AY111061AY211061GF104991041021008001001001MA1999999098741MD1999999+0001MW1051REMSYN076AAXX  05184 82765 31597 40506 10326 20233 39874 40110 70511 84200 333 58000;EQDQ01  00002PRCP99
0208827650999992001110600004-07320-047460FM-12+021299999V0200501N001019999999N0200001N1+02881+02561101261ADDAA199000091GA1091+999999999GF109991091999999999999999KA1240M+03341MA1999999098881MD1999999+0061REMSYN082AAXX  06004 82765 32/98 90502 10288 20256 39888 40126 333 10334 29077 55079 58006;EQDQ01  00002PRCP99
0214827650999992001110612004-07320-047460FM-12+021299999V0209999C000010450019N0100001N1+02911+02321101481ADDAA199000091AY121061AY221061GF106991031021008001051041KA1240N+02421MA1999999099111MD1999999+0021MW1051REMSYN082AAXX  06124 82765 31597 60000 10291 20232 39911 40148 70522 83254 333 20242 58002;EQDQ01  00002PRCP99
0195827650999992001110618004-07320-047460FM-12+021299999V0203201N001010450019N0100001N1+03281+02401101191ADDAA199000091AY121061AY221061GF108991041021008001011999MA1999999098821MD1999999+0081MW1051REMSYN076AAXX  06184 82765 31597 83202 10328 20240 39882 40119 70522 8421/ 333 58008;EQDQ01  00002PRCP99
0236827650999992001110700004-07320-047460FM-12+021299999V0209999C000010024019N0100001N1+02831+02461101281ADDAA199000091AY121061AY221061GA1091+999999999GF109991091999999999999999KA1240M+03361MA1999999098911MD1999999+0031MW1051REMSYN088AAXX  07001 82765 31/97 90000 10283 20246 39891 40128 70522 333 10336 29073 55039 58003;EQDQ01  00002PRCP99
0186827650999992001110712004-07320-047460FM-12+021299999V0202701N000510120019N0200001N1+02781+02421101671ADDAA199000091GF107991061081008001041001KA1240N+02411MA1999999099281MD1999999+0171REMSYN076AAXX  07124 82765 32598 72701 10278 20242 39928 40167 86840 333 20241 58017;EQDQ01  00002PRCP99
0182827650999992001110718004-07320-047460FM-12+021299999V0200501N002110075019N0200001N1+02741+02361101281ADDAA106005191AY191061AY291061GF108991061051008001021999MA1999999098881MD1999999+0061MW1951REMSYN082AAXX  07184 82765 21598 80504 10274 20236 39888 40128 79599 8652/ 333 58006 60051;
0223827650999992001110800004-07320-047460FM-12+021299999V0200501N001019999999N0200001N1+02541+02131101481ADDAA106000191AY191061AY251061GA1091+999999999GF109991091999999999999999KA1240M+03501MA1999999099081MD1999999+0171MW1291REMSYN094AAXX  08004 82765 21/98 90502 10254 20213 39908 40148 72995 333 10350 29079 55053 58017 69921;
0173827650999992001110812004-07320-047460FM-12+021299999V0200501N002110120019N0200001N1+02501+02401101761ADDAA124005191GF108991061081008001021999KA1240N+02331MA1999999099341MD1999999+0061REMSYN082AAXX  08124 82765 22598 80504 10250 20240 39934 40176 8682/ 333 20233 58006 60054;
0167827650999992001110818004-07320-047460FM-12+021299999V0203601N003110450019N0200001N1+03221+02371101201ADDAA199000091GF106991041021008001041001MA1999999098821MD1999999-0061REMSYN070AAXX  08184 82765 32598 63606 10322 20237 39882 40120 84240 333 59006;EQDQ01  00002PRCP99
0208827650999992001110900004-07320-047460FM-12+021299999V0209999C000019999999N0200001N1+02861+02501101351ADDAA199000091GA1091+999999999GF109991091999999999999999KA1240M+03381MA1999999098961MD1999999-0121REMSYN082AAXX  09004 82765 32/98 90000 10286 20250 39896 40135 333 10338 29079 55052 59012;EQDQ01  00002PRCP99
0198827650999992001110912004-07320-047460FM-12+021299999V0203601N003110120019N0100001N1+02801+02311101671ADDAA199000091GF107991051081008001041001KA1240N+02351MA1999999099291MD1999999-0051MW1051REMSYN082AAXX  09124 82765 31597 73606 10280 20231 39929 40167 705// 85840 333 20235 59005;EQDQ01  00002PRCP99
0195827650999992001110918004-07320-047460FM-12+021299999V0203201N001510450019N0100001N1+03251+02251101191ADDAA199000091AY121061AY221061GF106991031021008001051041MA1999999098831MD1999999+0011MW1051REMSYN076AAXX  09184 82765 31597 63203 10325 20225 39883 40119 70522 83254 333 58001;EQDQ01  00002PRCP99
0208827650999992001111000004-07320-047460FM-12+021299999V0209999C000019999999N0200001N1+02921+02561101401ADDAA199000091GA1091+999999999GF109991091999999999999999KA1240M+03321MA1999999099031MD1999999+0071REMSYN082AAXX  10004 82765 32/98 90000 10292 20256 39903 40140 333 10332 29073 55049 58007;EQDQ01  00002PRCP99
0214827650999992001111012004-07320-047460FM-12+021299999V0203201N004110450019N0100001N1+02751+02301101721ADDAA199000091AY121061AY221061GF106991041021008001011001KA1240N+02371MA1999999099341MD1999999+0051MW1051REMSYN082AAXX  10124 82765 31597 63208 10275 20230 39934 40172 70522 84210 333 20237 58005;EQDQ01  00002PRCP99
0179827650999992001111018004-07320-047460FM-12+021299999V0203601N001510075019N0100001N1+03381+02221101181ADDAA199000091GF106991051021008001041001MA1999999098821MD1999999-0011MW1051REMSYN076AAXX  10184 82765 31597 63603 10338 20222 39882 40118 705// 85240 333 59001;EQDQ01  00002PRCP99
0208827650999992001111112004-07320-047460FM-12+021299999V0203601N000519999999N0100001N1+02791+02341101651ADDAA199000091AY121061AY221061GF106991999999008001999999KA1240N+02521MA1999999099271MD1999999-0071MW1051REMSYN076AAXX  11124 82765 31597 63601 10279 20234 39927 40165 70522 333 20252 59007;EQDQ01  00002PRCP99
0223827650999992001111200004-07320-047460FM-12+021299999V0203201N001010024019N0100001N1+02571+02421101371ADDAA106000191AY161061AY221061GA1091+999999999GF109991091999999999999999KA1240M+03221MA1999999098981MD1999999-0071MW1001REMSYN094AAXX  12004 82765 21/97 93202 10257 20242 39898 40137 70062 333 10322 29083 55024 59007 69921;
0201827650999992001111212004-07320-047460FM-12+021299999V0203601N001010450019N0100001N1+02711+02331101761ADDAA124000191AY121061AY221061GF108991041081008001021999KA1240N+02241MA1999999099361MD1999999+0091MW1051REMSYN088AAXX  12124 82765 21597 83602 10271 20233 39936 40176 70522 8482/ 333 20224 58009 69924;
0195827650999992001111218004-07320-047460FM-12+021299999V0200501N002110075019N0100001N1+03251+02331101281ADDAA199000091AY121061AY221061GF105991051021008001001001MA1999999098901MD1999999+0031MW1051REMSYN076AAXX  12184 82765 31597 50504 10325 20233 39890 40128 70522 85200 333 58003;EQDQ01  00002PRCP99
0208827650999992001111300004-07320-047460FM-12+021299999V0209999C000012200019N0200001N1+02901+02521101331ADDAA199000091GA1001+999999999GF100991001001999999001001KA1240M+03361MA1999999098951MD1999999+0031REMSYN082AAXX  13004 82765 32998 00000 10290 20252 39895 40133 333 10336 29075 55075 58003;EQDQ01  00002PRCP99
0198827650999992001111312004-07320-047460FM-12+021299999V0200901N002110120019N0100001N1+02761+02341101531ADDAA199000091GF107991061081008001041001KA1240N+02351MA1999999099151MD1999999-0211MW1051REMSYN082AAXX  13124 82765 31597 70904 10276 20234 39915 40153 705// 86840 333 20235 59021;EQDQ01  00002PRCP99
0195827650999992001111318004-07320-047460FM-12+021299999V0200501N002610075019N0100001N1+03381+02261101021ADDAA199000091AY121061AY221061GF106991061021008001001001MA1999999098661MD1999999-0241MW1051REMSYN076AAXX  13184 82765 31597 60505 10338 20226 39866 40102 70522 86200 333 59024;EQDQ01  00002PRCP99
0198827650999992001111412004-07320-047460FM-12+021299999V0200501N002610120019N0100001N1+02821+02241101351ADDAA199000091GF106991061081008001001001KA1240N+02471MA1999999098981MD1999999-0171MW1051REMSYN082AAXX  14124 82765 31597 60505 10282 20224 39898 40135 705// 86800 333 20247 59017;EQDQ01  00002PRCP99
0195827650999992001111418004-07320-047460FM-12+021299999V0203201N001510450019N0100001N1+03321+02261100921ADDAA199000091AY121061AY221061GF106991041021008001041001MA1999999098561MD1999999-0101MW1051REMSYN076AAXX  14184 82765 31597 63203 10332 20226 39856 40092 70522 84240 333 59010;EQDQ01  00002PRCP99
0198827650999992001111512004-07320-047460FM-12+021299999V0209999C000010120019N0100001N1+02761+02421101411ADDAA199000091GF108991061081008001021999KA1240N+02571MA1999999099041MD1999999+0061MW1051REMSYN082AAXX  15124 82765 31597 80000 10276 20242 39904 40141 705// 8682/ 333 20257 58006;EQDQ01  00002PRCP99
0195827650999992001111518004-07320-047460FM-12+021299999V0203601N002610075019N0100001N1+03341+02251100961ADDAA199000091AY121061AY221061GF106991051021008001041001MA1999999098611MD1999999+0051MW1051REMSYN076AAXX  15184 82765 31597 63605 10334 20225 39861 40096 70522 85240 333 58005;EQDQ01  00002PRCP99
0236827650999992001111600004-07320-047460FM-12+021299999V0203201N001519999999N0200001N1+02441+02171101521ADDAA199000091AY191061AY291061GA1091+999999999GF109991091999999999999999KA1240M+03361MA1999999099121MD1999999+0461MW1131REMSYN088AAXX  16004 82765 31/98 93203 10244 20217 39912 40152 71399 333 10336 29076 55025 58046;EQDQ01  00002PRCP99
0186827650999992001111612004-07320-047460FM-12+021299999V0209999C000010450019N0200001N1+02761+02281101611ADDAA199000091GF107991041011008001031001KA1240N+02361MA1999999099211MD1999999+0171REMSYN076AAXX  16124 82765 32598 70000 10276 20228 39921 40161 84130 333 20236 58017;EQDQ01  00002PRCP99
0186827650999992001111712004-07320-047460FM-12+021299999V0200901N001012200019N0200001N1+02871+02351101481ADDAA199000091GF103991031011008001001001KA1240N+02411MA1999999099091MD1999999-0121REMSYN076AAXX  17124 82765 32598 30902 10287 20235 39909 40148 83100 333 20241 59012;EQDQ01  00002PRCP99
0167827650999992001111718004-07320-047460FM-12+021299999V0200501N003110450019N0200001N1+03471+02161100981ADDAA199000091GF107991041021008001011001MA1999999098621MD1999999-0251REMSYN070AAXX  17184 82765 32598 70506 10347 20216 39862 40098 84210 333 59025;EQDQ01  00002PRCP99
0208827650999992001111800004-07320-047460FM-12+021299999V0209999C000019999999N0200001N1+02921+02501101211ADDAA199000091GA1091+999999999GF109991091999999999999999KA1240M+03541MA1999999098851MD1999999-0161REMSYN082AAXX  18004 82765 32/98 90000 10292 20250 39885 40121 333 10354 29069 55083 59016;EQDQ01  00002PRCP99
0201827650999992001111812004-07320-047460FM-12+021299999V0200901N001510450019N0200001N1+02491+02271101521ADDAA124007191AY161061AY221061GF108991041071004501021999KA1240N+02471MA1999999099131MD1999999+0041MW1031REMSYN088AAXX  18124 82765 21498 80903 10249 20227 39913 40152 70362 8472/ 333 20247 58004 60074;
0195827650999992001111818004-07320-047460FM-12+021299999V0200501N001010450019N0100001N1+02901+02371101201ADDAA199000091AY121061AY221061GF108991041071004501021999MA1999999098821MD1999999+0201MW1051REMSYN076AAXX  18184 82765 31497 80502 10290 20237 39882 40120 70522 8472/ 333 58020;EQDQ01  00002PRCP99
0208827650999992001111900004-07320-047460FM-12+021299999V0200501N001510024019N0100001N1+02621+02421101471ADDAA199000091GA1091+999999999GF109991091999999999999999KA1240M+02981MA1999999099061MD1999999+0211REMSYN082AAXX  19004 82765 32/97 90503 10262 20242 39906 40147 333 10298 29086 55005 58021;EQDQ01  00002PRCP99
0214827650999992001111912004-07320-047460FM-12+021299999V0209999C000010120019N0100001N1+02521+02291101681ADDAA199000091AY121061AY281061GF108991061081008001021999KA1240N+02451MA1999999099271MD1999999+0141MW1051REMSYN082AAXX  19124 82765 31597 80000 10252 20229 39927 40168 70528 8682/ 333 20245 58014;EQDQ01  00002PRCP99
0195827650999992001111918004-07320-047460FM-12+021299999V0203201N001010450019N0100001N1+03241+02421101201ADDAA199000091AY121061AY221061GF106991041021008001031001MA1999999098831MD1999999+0011MW1051REMSYN076AAXX  19184 82765 31597 63202 10324 20242 39883 40120 70522 84230 333 58001;EQDQ01  00002PRCP99
0236827650999992001112000004-07320-047460FM-12+021299999V0203201N000510024019N0100001N1+02721+02371101331ADDAA199000091AY191061AY291061GA1091+999999999GF109991091999999999999999KA1240M+03341MA1999999098931MD1999999-0131MW1131REMSYN088AAXX  20004 82765 31/97 93201 10272 20237 39893 40133 71399 333 10334 29078 55021 59013;EQDQ01  00002PRCP99
0214827650999992001112012004-07320-047460FM-12+021299999V0203201N001010120019N0100001N1+02581+02381101571ADDAA199000091AY121061AY221061GF108991061081008001021999KA1240N+02391MA1999999099171MD1999999-0101MW1051REMSYN082AAXX  20124 82765 31597 83202 10258 20238 39917 40157 70522 8682/ 333 20239 59010;EQDQ01  00002PRCP99
0143827650999992001112018004-07320-047460FM-12+021299999V0200501N001510450019N0200001N1+03241+02221101051ADDGF106991041021008001041001MA1999999098681MD1999999-0151REMSYN076AAXX  20184 82765 21598 60503 10324 20222 39868 40105 7//55 84240 333 59015;
0207827650999992001112100004-07320-047460FM-12+021299999V0200501N005119999999N0200001N1+02741+02431101341ADDAA106001091GA1091+999999999GF109991091999999999999999KA1240M+03301MA1999999098951MD1999999+0021MW1511REMSYN094AAXX  21004 82765 21/98 90510 10274 20243 39895 40134 751// 333 10330 29076 55040 58002 60011;
0179827650999992001112112004-07320-047460FM-12+021299999V0200501N001510120019N0200001N1+02461+02281101631ADDAA124020191GF108991061081008001021999KA1240N+02311MA1999999099231MD1999999+0061REMSYN088AAXX  21124 82765 21598 80503 10246 20228 39923 40163 7//96 8682/ 333 20231 58006 60204;
0160827650999992001112118004-07320-047460FM-12+021299999V0200501N000510120019N0200001N1+02881+02411101341ADDAA106000591GF108991061081008001021999MA1999999098941MD1999999+0261REMSYN082AAXX  21184 82765 21598 80501 10288 20241 39894 40134 7//55 8682/ 333 58026 69961;
0201827650999992001112212004-07320-047460FM-12+021299999V0200501N001510120019N0200001N1+02411+02191101691ADDAA124007991AY121061AY221061GF108991051081008001021999KA1240N+02271MA1999999099261MD1999999+0031MW1031REMSYN088AAXX  22124 82765 21598 80503 10241 20219 39926 40169 70322 8582/ 333 20227 58003 60084;
0167827650999992001112218004-07320-047460FM-12+021299999V0202701N002610075019N0200001N1+03171+02321101171ADDAA199000091GF107991071021008001001001MA1999999098791MD1999999-0151REMSYN070AAXX  22184 82765 32598 72705 10317 20232 39879 40117 87200 333 59015;EQDQ01  00002PRCP99
0208827650999992001112300004-07320-047460FM-12+021299999V0202701N001012200019N0200001N1+02771+02301101241ADDAA199000091GA1001+999999999GF100991001001999999001001KA1240M+03281MA1999999098851MD1999999-0341REMSYN082AAXX  23004 82765 32998 02702 10277 20230 39885 40124 333 10328 29075 55058 59034;EQDQ01  00002PRCP99
0186827650999992001112312004-07320-047460FM-12+021299999V0202701N001510450019N0200001N1+02651+02311101301ADDAA199000091GF107991041011008001031001KA1240N+02381MA1999999098911MD1999999-0351REMSYN076AAXX  23124 82765 32598 72703 10265 20231 39891 40130 84130 333 20238 59035;EQDQ01  00002PRCP99
0182827650999992001112318004-07320-047460FM-12+021299999V0209999C000010450019N0200001N1+02521+02231101051ADDAA106002091AY161061AY221061GF108991041081008001021999MA1999999098651MD1999999-0141MW1501REMSYN082AAXX  23184 82765 21598 80000 10252 20223 39865 40105 75062 8482/ 333 59014 60021;
0213827650999992001112400004-07320-047460FM-12+021299999V0203601N001510042019N0100001N1+02361+02291101171ADDAA106006191AY161061AY221061GF108991081071004501999999KA1240M+03301MA1999999098771MD1999999-0081MW1511REMSYN100AAXX  24004 82765 21497 83603 10236 20229 39877 40117 75162 887// 333 10330 29090 55042 59008 60061;
0201827650999992001112412004-07320-047460FM-12+021299999V0209999C000010042019N0040001N1+02311+02221101381ADDAA124016091AY161061AY251061GF108991081071004501999999KA1240N+02311MA1999999098961MD1999999+0051MW1611REMSYN088AAXX  24124 82765 21496 80000 10231 20222 39896 40138 76165 887// 333 20231 58005 60164;
0182827650999992001112418004-07320-047460FM-12+021299999V0203601N002610450019N0200001N1+02591+02251101131ADDAA106004191AY161061AY261061GF108991041081008001021999MA1999999098721MD1999999+0071MW1031REMSYN082AAXX  24184 82765 21598 83605 10259 20225 39872 40113 70366 8482/ 333 58007 60041;
0179827650999992001112500004-07320-047460FM-12+021299999V0209999C000010120019N0200001N1+02451+02301101281ADDAA199000021GF108991081081008001999999KA1240M+02661MA1999999098861MD1999999+0091REMSYN088AAXX  25004 82765 32598 80000 10245 20230 39886 40128 888// 333 10266 29090 55000 58009;
0173827650999992001112512004-07320-047460FM-12+021299999V0200501N000510450019N0200001N1+02561+02361101341ADDAA124004191GF106991041011008001031001KA1240N+02311MA1999999098931MD1999999-0031REMSYN082AAXX  25124 82765 22598 60501 10256 20236 39893 40134 84130 333 20231 59003 60044;
0167827650999992001112518004-07320-047460FM-12+021299999V0200901N001510450019N0200001N1+03221+02341100861ADDAA199000091GF105991031031008001041001MA1999999098491MD1999999-0231REMSYN070AAXX  25184 82765 32598 50903 10322 20234 39849 40086 83340 333 59023;EQDQ01  00002PRCP99
0208827650999992001112600004-07320-047460FM-12+021299999V0200901N000519999999N0200001N1+02541+02381101161ADDAA199000091GA1091+999999999GF109991091999999999999999KA1240M+03261MA1999999098771MD1999999-0091REMSYN082AAXX  26004 82765 32/98 90901 10254 20238 39877 40116 333 10326 29083 55054 59009;EQDQ01  00002PRCP99
0186827650999992001112612004-07320-047460FM-12+021299999V0200901N000510075019N0200001N1+02821+02401101321ADDAA199000091GF107991051021008001041001KA1240N+02451MA1999999098961MD1999999+0031REMSYN076AAXX  26124 82765 32598 70901 10282 20240 39896 40132 85240 333 20245 58003;EQDQ01  00002PRCP99
0160827650999992001112618004-07320-047460FM-12+021299999V0203601N001510120019N0200001N1+02761+02421101031ADDAA106007991GF108991061081008001021999MA1999999098641MD1999999+0151REMSYN082AAXX  26184 82765 21598 83603 10276 20242 39864 40103 7//66 8682/ 333 58015 60081;
0208827650999992001112700004-07320-047460FM-12+021299999V0203601N000519999999N0200001N1+02661+02481101301ADDAA199000091GA1091+999999999GF109991091999999999999999KA1240M+03101MA1999999098921MD1999999+0151REMSYN082AAXX  27004 82765 32/98 93601 10266 20248 39892 40130 333 10310 29085 55034 58015;EQDQ01  00002PRCP99
0173827650999992001112712004-07320-047460FM-12+021299999V0203601N001010075019N0200001N1+02701+02371101421ADDAA124007991GF106991051011008001041001KA1240N+02371MA1999999099031MD1999999+0071REMSYN082AAXX  27124 82765 22598 63602 10270 20237 39903 40142 85140 333 20237 58007 60084;
0195827650999992001112718004-07320-047460FM-12+021299999V0201801N002610450019N0200001N1+02801+02361101111ADDAA199000091AY191061AY291061GF106991031031008001041001MA1999999098711MD1999999+0071MW1161REMSYN076AAXX  27184 82765 31598 61805 10280 20236 39871 40111 71699 83340 333 58007;EQDQ01  00002PRCP99
0201827650999992001112800004-07320-047460FM-12+021299999V0201401N000519999999N0200001N1+02441+02351101311ADDAA106003091GA1091+999999999GF109991091999999999999999KA1240M+03081MA1999999098911MD1999999-0011REMSYN094AAXX  28004 82765 21/98 91401 10244 20235 39891 40131 7//65 333 10308 29087 55045 59001 60031;
0173827650999992001112812004-07320-047460FM-12+021299999V0209999C000010450019N0200001N1+02691+02451101401ADDAA124003091GF106991041021008001031001KA1240N+02371MA1999999099001MD1999999-0031REMSYN082AAXX  28124 82765 22598 60000 10269 20245 39900 40140 84230 333 20237 59003 60034;
0167827650999992001112818004-07320-047460FM-12+021299999V0200901N001010450019N0200001N1+02921+02391101001ADDAA199000091GF107991041021008001011001MA1999999098611MD1999999-0101REMSYN070AAXX  28184 82765 32598 70902 10292 20239 39861 40100 84210 333 59010;EQDQ01  00002PRCP99
0198827650999992001112900004-07320-047460FM-12+021299999V0200901N001010120019N0200001N1+02641+02351101251ADDAA199000091GF108991081081008001999999KA1240M+03091MA1999999098861MD1999999-0051REMSYN088AAXX  29004 82765 32598 80902 10264 20235 39886 40125 888// 333 10309 29082 55024 59005;EQDQ01  00002PRCP99
0201827650999992001112912004-07320-047460FM-12+021299999V0201401N002110075019N0200001N1+02701+02391101371ADDAA124000591AY161061AY221061GF107991071021008001001001KA1240N+02441MA1999999098981MD1999999-0021MW1031REMSYN088AAXX  29124 82765 21598 71404 10270 20239 39898 40137 70362 87200 333 20244 59002 69954;
0167827650999992001112918004-07320-047460FM-12+021299999V0200501N002110450019N0200001N1+02871+02581100971ADDAA199000091GF108991041081008001011001MA1999999098591MD1999999-0021REMSYN070AAXX  29184 82765 32598 80504 10287 20258 39859 40097 84810 333 59002;EQDQ01  00002PRCP99
0198827650999992001113000004-07320-047460FM-12+021299999V0200501N001010120019N0200001N1+02651+02351101251ADDAA199000091GF108991081081008001999999KA1240M+02971MA1999999098861MD1999999+0001REMSYN088AAXX  30004 82765 32598 80502 10265 20235 39886 40125 888// 333 10297 29084 55024 58000;EQDQ01  00002PRCP99
0201827650999992001113012004-07320-047460FM-12+021299999V0200501N001510090019N0200001N1+02501+02381101451ADDAA124000191AY161061AY221061GF108991081081004501999999KA1240N+02381MA1999999099051MD1999999+0071MW1031REMSYN088AAXX  30124 82765 21498 80503 10250 20238 39905 40145 70362 888// 333 20238 58007 69924;
0182827650999992001113018004-07320-047460FM-12+021299999V0200501N000510450019N0200001N1+02511+02311101161ADDAA106010991AY161061AY221061GF108991041071008001011999MA1999999098751MD1999999+0161MW1031REMSYN082AAXX  30184 82765 21598 80501 10251 20231 39875 40116 70362 8471/ 333 58016 60111;
0198827650999992001120100004-07320-047460FM-12+021299999V0209999C000010450019N0200001N1+02471+02371101291ADDAA199000091GF108991031011008001011999KA1240M+02671MA1999999098881MD1999999+0021REMSYN088AAXX  01004 82765 32598 80000 10247 20237 39888 40129 8311/ 333 10267 29093 55000 58002;EQDQ01  00002PRCP99
0173827650999992001120112004-07320-047460FM-12+021299999V0200501N000510450019N0200001N1+02661+02431101421ADDAA124010991GF106991041021008001041001KA1240N+02291MA1999999099021MD1999999-0031REMSYN082AAXX  01124 82765 22598 60501 10266 20243 39902 40142 84240 333 20229 59003 60114;
0167827650999992001120118004-07320-047460FM-12+021299999V0203601N001512200019N0200001N1+03291+02291101001ADDAA199000091GF106991041031008001001041MA1999999098631MD1999999-0121REMSYN070AAXX  01184 82765 32598 63603 10329 20229 39863 40100 84304 333 59012;EQDQ01  00002PRCP99
0198827650999992001120200004-07320-047460FM-12+021299999V0200501N000510450019N0200001N1+02861+02581101151ADDAA199000091GF107991041081008001011001KA1240M+03401MA1999999098771MD1999999-0111REMSYN088AAXX  02004 82765 32598 70501 10286 20258 39877 40115 84810 333 10340 29078 55083 59011;EQDQ01  00002PRCP99
0186827650999992001120212004-07320-047460FM-12+021299999V0200501N001010450019N0200001N1+02711+02371101311ADDAA199000091GF106991041021008001041001KA1240N+02401MA1999999098941MD1999999-0081REMSYN076AAXX  02124 82765 32598 60502 10271 20237 39894 40131 84240 333 20240 59008;EQDQ01  00002PRCP99
0167827650999992001120218004-07320-047460FM-12+021299999V0202701N001510450019N0200001N1+03341+01781100911ADDAA199000091GF106991041021008001051001MA1999999098551MD1999999-0081REMSYN070AAXX  02184 82765 32598 62703 10334 20178 39855 40091 84250 333 59008;EQDQ01  00002PRCP99
0208827650999992001120300004-07320-047460FM-12+021299999V0203201N000519999999N0200001N1+03051+02611101041ADDAA199000091GA1091+999999999GF109991091999999999999999KA1240M+03501MA1999999098681MD1999999-0091REMSYN082AAXX  03004 82765 32/98 93201 10305 20261 39868 40104 333 10350 29074 55087 59009;EQDQ01  00002PRCP99
0201827650999992001120312004-07320-047460FM-12+021299999V0203201N002610042019N0100001N1+02331+99999101361ADDAA124009991AY161061AY221061GF108991081071004501999999KA1240N+02321MA1999999098971MD1999999+0031MW1611REMSYN088AAXX  03124 82765 21497 83205 10233 20234 39897 40136 76162 887// 333 20232 58003 60104;
0182827650999992001120318004-07320-047460FM-12+021299999V0203201N000510042019N0100001N1+02391+02261101151ADDAA106007191AY161061AY261061GF108991081071004501999999MA1999999098751MD1999999+0201MW1611REMSYN082AAXX  03184 82765 21497 83201 10239 20226 39875 40115 76166 887// 333 58020 60071;
0195827650999992001120412004-07320-047460FM-12+021299999V0209999C000019999999N0200001N1+02511+02311101491ADDAA124014091AY161061AY221061GF107991999999008001999999KA1240N+02291MA1999999099071MD1999999+0101MW1031REMSYN082AAXX  04124 82765 21598 70000 10251 20231 39907 40149 70362 333 20229 58010 60144;
0176827650999992001120418004-07320-047460FM-12+021299999V0203601N000519999999N0200001N1+03011+02421101011ADDAA106010991AY161061AY211061GF105991999999008001999999MA1999999098631MD1999999-0121MW1031REMSYN076AAXX  04184 82765 21598 53601 10301 20242 39863 40101 70361 333 59012 60111;
0208827650999992001120500004-07320-047460FM-12+021299999V0203601N002619999999N0200001N1+02561+02231101281ADDAA199000091GA1091+999999999GF109991091999999999999999KA1240M+03211MA1999999098881MD1999999-0051REMSYN082AAXX  05004 82765 32/98 93605 10256 20223 39888 40128 333 10321 29081 55047 59005;EQDQ01  00002PRCP99
0201827650999992001120512004-07320-047460FM-12+021299999V0200501N001512200019N0200001N1+02701+02281101391ADDAA124010991AY161061AY211061GF104991021021008001031041KA1240N+02301MA1999999099001MD1999999-0071MW1031REMSYN088AAXX  05124 82765 21598 40503 10270 20228 39900 40139 70361 82234 333 20230 59007 60114;
0167827650999992001120518004-07320-047460FM-12+021299999V0200501N003110450019N0200001N1+03141+02271101071ADDAA199000091GF106991031021008001011041MA1999999098691MD1999999+0061REMSYN070AAXX  05184 82765 32598 60506 10314 20227 39869 40107 83214 333 58006;EQDQ01  00002PRCP99
0223827650999992001120600004-07320-047460FM-12+021299999V0200901N001012200019N0200001N1+02601+02401101241ADDAA106000891AY161061AY211061GA1001+999999999GF100991001001999999001001KA1240M+03211MA1999999098851MD1999999-0031MW1021REMSYN094AAXX  06004 82765 21998 00902 10260 20240 39885 40124 70261 333 10321 29079 55082 59003 69971;
0173827650999992001120612004-07320-047460FM-12+021299999V0200901N000512200019N0200001N1+02741+02321101321ADDAA124000891GF103991021011008001001041KA1240N+02271MA1999999098931MD1999999-0071REMSYN082AAXX  06124 82765 22598 30901 10274 20232 39893 40132 82104 333 20227 59007 69974;
0167827650999992001120618004-07320-047460FM-12+021299999V0201401N001510450019N0200001N1+02951+02361100991ADDAA199000091GF106991041021008001011041MA1999999098601MD1999999-0091REMSYN070AAXX  06184 82765 32598 61403 10295 20236 39860 40099 84214 333 59009;EQDQ01  00002PRCP99
0208827650999992001120700004-07320-047460FM-12+021299999V0209999C000012200019N0200001N1+02651+02371101101ADDAA199000091GA1001+999999999GF100991001001999999001001KA1240M+03451MA1999999098721MD1999999-0131REMSYN082AAXX  07004 82765 32998 00000 10265 20237 39872 40110 333 10345 29080 55087 59013;EQDQ01  00002PRCP99
0186827650999992001120712004-07320-047460FM-12+021299999V0200901N001012200019N0200001N1+02751+02341101181ADDAA199000091GF102991021011008001001001KA1240N+02361MA1999999098801MD1999999-0131REMSYN076AAXX  07124 82765 32598 20902 10275 20234 39880 40118 82100 333 20236 59013;EQDQ01  00002PRCP99
0167827650999992001120718004-07320-047460FM-12+021299999V0200901N002610075019N0200001N1+02851+02121100881ADDAA199000091GF107991051021008001011041MA1999999098491MD1999999-0111REMSYN070AAXX  07184 82765 32598 70905 10285 20212 39849 40088 85214 333 59011;EQDQ01  00002PRCP99
0201827650999992001121012004-07320-047460FM-12+021299999V0203601N001010042019N0200001N1+02481+02361101421ADDAA124009991AY121061AY221061GF108991061071004501061041KA1240N+02371MA1999999099011MD1999999+0001MW1031REMSYN088AAXX  10124 82765 21498 83602 10248 20236 39901 40142 70322 86764 333 20237 58000 60104;
0167827650999992001121018004-07320-047460FM-12+021299999V0200501N000510450019N0200001N1+03031+02441101061ADDAA199000091GF106991041021008001041001MA1999999098681MD1999999-0031REMSYN070AAXX  10184 82765 32598 60501 10303 20244 39868 40106 84240 333 59003;EQDQ01  00002PRCP99
0208827650999992001121100004-07320-047460FM-12+021299999V0200501N000519999999N0200001N1+02741+02541101171ADDAA199000091GA1091+999999999GF109991091999999999999999KA1240M+03081MA1999999098781MD1999999+0031REMSYN082AAXX  11004 82765 32/98 90501 10274 20254 39878 40117 333 10308 29085 55007 58003;EQDQ01  00002PRCP99
0214827650999992001121112004-07320-047460FM-12+021299999V0200501N001010450019N0200001N1+02661+02431101481ADDAA199000091AY141061AY221061GF106991041081004501061001KA1240N+02391MA1999999099091MD1999999+0081MW1031REMSYN082AAXX  11124 82765 31498 60502 10266 20243 39909 40148 70342 84860 333 20239 58008;EQDQ01  00002PRCP99
0182827650999992001121118004-07320-047460FM-12+021299999V0200501N002110450019N0200001N1+03191+02411101071ADDAA106007991AY161061AY221061GF106991031031008001031041MA1999999098701MD1999999+0021MW1031REMSYN082AAXX  11184 82765 21598 60504 10319 20241 39870 40107 70362 83334 333 58002 60081;
0208827650999992001121200004-07320-047460FM-12+021299999V0209999C000012200019N0200001N1+02791+02501101111ADDAA199000091GA1001+999999999GF100991001001999999001001KA1240M+03271MA1999999098731MD1999999-0051REMSYN082AAXX  12004 82765 32998 00000 10279 20250 39873 40111 333 10327 29080 55067 59005;EQDQ01  00002PRCP99
0173827650999992001121212004-07320-047460FM-12+021299999V0200501N001010120019N0200001N1+02711+02391101341ADDAA124007991GF107991071081008001001001KA1240N+02471MA1999999098961MD1999999-0131REMSYN082AAXX  12124 82765 22598 70502 10271 20239 39896 40134 87800 333 20247 59013 60084;
0182827650999992001121218004-07320-047460FM-12+021299999V0200901N002610090019N0100001N1+02531+02231100941ADDAA106003091AY161061AY221061GF108991081081004501999999MA1999999098541MD1999999-0161MW1501REMSYN082AAXX  12184 82765 21497 80905 10253 20223 39854 40094 75062 888// 333 59016 60031;
0189827650999992001121300004-07320-047460FM-12+021299999V0200901N001512200019N0200001N1+02561+02421101021ADDAA199000021GA1001+999999999GF100991001001999999001001KA1240M+03291MA1999999098641MD1999999-0091REMSYN082AAXX  13004 82765 32998 00903 10256 20242 39864 40102 333 10329 29088 55041 59009;
0173827650999992001121312004-07320-047460FM-12+021299999V0200901N000510120019N0200001N1+02661+02391101261ADDAA124003091GF108991081081008001999999KA1240N+02371MA1999999098861MD1999999-0101REMSYN082AAXX  13124 82765 22598 80901 10266 20239 39886 40126 888// 333 20237 59010 60034;
0167827650999992001121318004-07320-047460FM-12+021299999V0200501N001510120019N0200001N1+03121+02361100811ADDAA199000091GF108991061081008001021999MA1999999098441MD1999999-0101REMSYN070AAXX  13184 82765 32598 80503 10312 20236 39844 40081 8682/ 333 59010;EQDQ01  00002PRCP99
0208827650999992001121400004-07320-047460FM-12+021299999V0209999C000019999999N0200001N1+02561+02361101011ADDAA199000091GA1091+999999999GF109991091999999999999999KA1240M+03141MA1999999098621MD1999999+0021REMSYN082AAXX  14004 82765 32/98 90000 10256 20236 39862 40101 333 10314 29082 55025 58002;EQDQ01  00002PRCP99
0186827650999992001121412004-07320-047460FM-12+021299999V0200901N000510120019N0200001N1+02621+02411101361ADDAA199000091GF108991061081008001041999KA1240N+02431MA1999999098961MD1999999+0101REMSYN076AAXX  14124 82765 32598 80901 10262 20241 39896 40136 8684/ 333 20243 58010;EQDQ01  00002PRCP99
0195827650999992001121418004-07320-047460FM-12+021299999V0200501N003110450019N0200001N1+02841+02331101011ADDAA199000091AY191061AY291061GF108991031031008001021999MA1999999098621MD1999999+0181MW1291REMSYN076AAXX  14184 82765 31598 80506 10284 20233 39862 40101 72999 8332/ 333 58018;EQDQ01  00002PRCP99
0201827650999992001121500004-07320-047460FM-12+021299999V0200501N001019999999N0200001N1+02441+02351101171ADDAA106007991GA1091+999999999GF109991091999999999999999KA1240M+03201MA1999999098771MD1999999+0151REMSYN094AAXX  15004 82765 21/98 90502 10244 20235 39877 40117 7//66 333 10320 29064 55030 58015 60081;
0173827650999992001121512004-07320-047460FM-12+021299999V0200501N001010120019N0200001N1+02681+99999101431ADDAA124007991GF107991051081008001041001KA1240N+02331MA1999999099031MD1999999+0071REMSYN082AAXX  15124 82765 22598 70502 10268 20306 39903 40143 85840 333 20233 58007 60084;
0167827650999992001121518004-07320-047460FM-12+021299999V0200501N001010450019N0200001N1+02921+02411101031ADDAA199000091GF106991041021008001021001MA1999999098641MD1999999+0021REMSYN070AAXX  15184 82765 32598 60502 10292 20241 39864 40103 84220 333 58002;EQDQ01  00002PRCP99
0208827650999992001121600004-07320-047460FM-12+021299999V0209999C000019999999N0200001N1+02841+02581101131ADDAA199000091GA1091+999999999GF109991091999999999999999KA1240M+03181MA1999999098751MD1999999+0021REMSYN082AAXX  16004 82765 32/98 90000 10284 20258 39875 40113 333 10318 29083 55047 58002;EQDQ01  00002PRCP99
0186827650999992001121612004-07320-047460FM-12+021299999V0200501N001510120019N0200001N1+02621+02421101351ADDAA199000091GF108991081081008001999999KA1240N+02481MA1999999098971MD1999999-0061REMSYN076AAXX  16124 82765 32598 80503 10262 20242 39897 40135 888// 333 20248 59006;EQDQ01  00002PRCP99
0329827650999992001121618004-07320-047460FM-12+021299999V0200501N00101045001CN0200001N1+02961+02531100941ADDAA106000791AY161061AY221061GA1021+033009089GF107991041021008001071041KA1240M+99999KA2240N+99999MA1999999098571MD1999999-0071MW1031REMSYN152AAXX  16184 82765 21598 70502 10296 20253 39857 40094 70362 84274 333 59007 69971 82861 21699 80504 10251 20245 39880 40049 72162 8671/ 333 58013 60141;EQDQ01 -06992ATMN  Q02 +02512ATMX  
0208827650999992001121700004-07320-047460FM-12+021299999V0203601N001019999999N0200001N1+02651+02331101131ADDAA199000091GA1091+999999999GF109991091999999999999999KA1240M+03121MA1999999098731MD1999999-0021REMSYN082AAXX  17004 82765 32/98 93602 10265 20233 39873 40113 333 10312 29082 55021 59002;EQDQ01  00002PRCP99
0173827650999992001121712004-07320-047460FM-12+021299999V0203601N000510042019N0200001N1+02641+02461101371ADDAA124000891GF107991071021004501001001KA1240N+02501MA1999999098981MD1999999+0011REMSYN082AAXX  17124 82765 22498 73601 10264 20246 39898 40137 87200 333 20250 58001 69974;
0182827650999992001121718004-07320-047460FM-12+021299999V0203601N001010450019N0200001N1+02701+02451101001ADDAA106014091AY161061AY221061GF108991041021008001021999MA1999999098611MD1999999+0041MW1031REMSYN082AAXX  17184 82765 21598 83602 10270 20245 39861 40100 70362 8422/ 333 58004 60141;
0201827650999992001121800004-07320-047460FM-12+021299999V0203201N001019999999N0200001N1+02361+02241101111ADDAA106001091GA1091+999999999GF109991091999999999999999KA1240M+02841MA1999999098711MD1999999-0021REMSYN094AAXX  18004 82765 21/98 93202 10236 20224 39871 40111 7//62 333 10284 29090 55008 59002 60011;
0167827650999992001121818004-07320-047460FM-12+021299999V0203201N001510450019N0200001N1+03071+02501101111ADDAA199000091GF107991041021008001011001MA1999999098731MD1999999+0121REMSYN070AAXX  18184 82765 32598 73203 10307 20250 39873 40111 84210 333 58012;EQDQ01  00002PRCP99
0208827650999992001121900004-07320-047460FM-12+021299999V0209999C000019999999N0200001N1+02541+02311101281ADDAA199000091GA1091+999999999GF109991091999999999999999KA1240M+03161MA1999999098891MD1999999+0171REMSYN082AAXX  19004 82765 32/98 90000 10254 20231 39889 40128 333 10316 29084 55021 58017;EQDQ01  00002PRCP99
0185827650999992001121912004-07320-047460FM-12+021299999V0202701N001010120019N0200001N1+02421+01991101561ADDAA124000891GF108991061081008001021999KA1240N+02331MA1999999099151MD1999999+0071MW1511REMSYN088AAXX  19124 82765 21598 82702 10242 20199 39915 40156 751// 8682/ 333 20233 58007 69984;
0148827650999992001121918004-07320-047460FM-12+021299999V0200501N001510075019N0200001N1+03121+02481101151ADDAA199000021GF106991051021008001041001MA1999999098771MD1999999+0041REMSYN070AAXX  19184 82765 32598 60503 10312 20248 39877 40115 85240 333 58004;
0201827650999992001122012004-07320-047460FM-12+021299999V0200501N001510042019N0040001N1+02311+02231101511ADDAA124022191AY161061AY221061GF108991081071004501999999KA1240N+02271MA1999999099111MD1999999-0041MW1611REMSYN088AAXX  20124 82765 21496 80503 10231 20223 39911 40151 76162 887// 333 20227 59004 60224;
0182827650999992001122018004-07320-047460FM-12+021299999V0200501N001510450019N0100001N1+02441+02321101281ADDAA106008991AY161061AY221061GF108991041081004501021999MA1999999098871MD1999999+0101MW1401REMSYN082AAXX  20184 82765 21497 80503 10244 20232 39887 40128 74062 8482/ 333 58010 60091;
0217827650999992001122100004-07320-047460FM-12+021299999V0200501N001010024019N0100001N1+02381+02311101421ADDAA199000021AY121061AY221061GA1091+999999999GF109991091999999999999999KA1240M+02851MA1999999099001MD1999999+0131MW1031REMSYN088AAXX  21004 82765 31/97 90502 10238 20231 39900 40142 70322 333 10285 29095 55000 58013;
0173827650999992001122112004-07320-047460FM-12+021299999V0200501N000510450019N0200001N1+02451+02301101581ADDAA124008991GF108991041081004501011999KA1240N+02321MA1999999099161MD1999999+0051REMSYN082AAXX  21124 82765 22498 80501 10245 20230 39916 40158 8481/ 333 20232 58005 60094;
0167827650999992001122118004-07320-047460FM-12+021299999V0203201N002110450019N0200001N1+03151+02431101121ADDAA199000091GF106991031031008001031041MA1999999098741MD1999999-0131REMSYN070AAXX  21184 82765 32598 63204 10315 20243 39874 40112 83334 333 59013;EQDQ01  00002PRCP99
0201827650999992001122212004-07320-047460FM-12+021299999V0203201N001510450019N0200001N1+02641+02411101551ADDAA124019191AY161061AY221061GF107991041021008001031001KA1240N+02321MA1999999099141MD1999999-0021MW1031REMSYN088AAXX  22124 82765 21598 73203 10264 20241 39914 40155 70362 84230 333 20232 59002 60194;
0182827650999992001122218004-07320-047460FM-12+021299999V0203201N001510450019N0100001N1+02471+02321101311ADDAA106010991AY161061AY221061GF108991041021008001021999MA1999999098891MD1999999+0151MW1501REMSYN082AAXX  22184 82765 21597 83203 10247 20232 39889 40131 75062 8422/ 333 58015 60111;
0179827650999992001122300004-07320-047460FM-12+021299999V0209999C000010120019N0200001N1+02571+02401101431ADDAA199000021GF108991081081008001999999KA1240M+02991MA1999999099031MD1999999+0021REMSYN088AAXX  23004 82765 32598 80000 10257 20240 39903 40143 888// 333 10299 29090 55010 58002;
0173827650999992001122312004-07320-047460FM-12+021299999V0203201N000510450019N0200001N1+02501+02271101601ADDAA124010991GF107991041081008001061001KA1240N+02331MA1999999099191MD1999999+0051REMSYN082AAXX  23124 82765 22598 73201 10250 20227 39919 40160 84860 333 20233 58005 60114;
0167827650999992001122318004-07320-047460FM-12+021299999V0201801N002110450019N0200001N1+03051+02411101201ADDAA199000091GF107991041031008001061001MA1999999098821MD1999999-0071REMSYN070AAXX  23184 82765 32598 71804 10305 20241 39882 40120 84360 333 59007;EQDQ01  00002PRCP99
0208827650999992001122400004-07320-047460FM-12+021299999V0209999C000019999999N0200001N1+02461+02461101371ADDAA199000091GA1091+999999999GF109991091999999999999999KA1240M+03241MA1999999098961MD1999999-0071REMSYN082AAXX  24004 82765 32/98 90000 10246 20246 39896 40137 333 10324 29084 55046 59007;EQDQ01  00002PRCP99
0195827650999992001122418004-07320-047460FM-12+021299999V0203601N001010450019N0200001N1+03161+02421101211ADDAA199000091AY121061AY221061GF107991041031008001011001MA1999999098831MD1999999+0011MW1171REMSYN076AAXX  24184 82765 31598 73602 10316 20242 39883 40121 71722 84310 333 58001;EQDQ01  00002PRCP99
0173827650999992001122512004-07320-047460FM-12+021299999V0203601N000512200019N0200001N1+02501+02341101601ADDAA124002091GF104991031011008001041001KA1240N+02291MA1999999099181MD1999999-0061REMSYN082AAXX  25124 82765 22598 43601 10250 20234 39918 40160 83140 333 20229 59006 60024;
0160827650999992001122518004-07320-047460FM-12+021299999V0201401N001010450019N0200001N1+02821+02401101261ADDAA106002091GF106991041021008001021001MA1999999098861MD1999999+0031REMSYN082AAXX  25184 82765 21598 61402 10282 20240 39886 40126 7//55 84220 333 58003 60021;
0198827650999992001122600004-07320-047460FM-12+021299999V0209999C000012200019N0200001N1+02621+02441101351ADDAA199000091GF104991041021008001001001KA1240M+03141MA1999999098951MD1999999-0011REMSYN088AAXX  26004 82765 32598 40000 10262 20244 39895 40135 84200 333 10314 29087 55044 59001;EQDQ01  00002PRCP99
0173827650999992001122612004-07320-047460FM-12+021299999V0200901N001010120019N0200001N1+02621+02441101501ADDAA124002091GF106991061081008001001001KA1240N+02391MA1999999099101MD1999999-0081REMSYN082AAXX  26124 82765 22598 60902 10262 20244 39910 40150 86800 333 20239 59008 60024;
0160827650999992001122618004-07320-047460FM-12+021299999V0200501N001010120019N0200001N1+02721+02471101161ADDAA106007991GF108991061081008001021999MA1999999098761MD1999999-0101REMSYN082AAXX  26184 82765 21598 80502 10272 20247 39876 40116 7/66/ 8682/ 333 59010 60081;
0208827650999992001122700004-07320-047460FM-12+021299999V0200501N000519999999N0200001N1+02581+02471101291ADDAA199000091GA1091+999999999GF109991091999999999999999KA1240M+03041MA1999999098891MD1999999-0061REMSYN082AAXX  27004 82765 32/98 90501 10258 20247 39889 40129 333 10304 29093 55019 59006;EQDQ01  00002PRCP99
0173827650999992001122712004-07320-047460FM-12+021299999V0200501N001010120019N0200001N1+02601+02351101581ADDAA124007991GF108991061081008001021999KA1240N+02371MA1999999099181MD1999999+0081REMSYN082AAXX  27124 82765 22598 80502 10260 20235 39918 40158 8682/ 333 20237 58008 60084;
0182827650999992001122718004-07320-047460FM-12+021299999V0203601N002610075019N0200001N1+02421+02301101411ADDAA106011991AY161061AY261061GF108991061051008001021999MA1999999098991MD1999999+0231MW1511REMSYN082AAXX  27184 82765 21598 83605 10242 20230 39899 40141 75166 8652/ 333 58023 60121;
0223827650999992001122800004-07320-047460FM-12+021299999V0203601N002119999999N0200001N1+02301+02221101721ADDAA106013091AY161061AY261061GA1091+999999999GF109991091999999999999999KA1240M+02981MA1999999099301MD1999999+0411MW1511REMSYN094AAXX  28004 82765 21/98 93604 10230 20222 39930 40172 75166 333 10298 29092 55106 58041 60131;
0201827650999992001122812004-07320-047460FM-12+021299999V0203601N001510450019N0200001N1+02351+02221101801ADDAA124025991AY161061AY221061GF108991041081004501021999KA1240N+02231MA1999999099361MD1999999+0181MW1031REMSYN088AAXX  28124 82765 21498 83603 10235 20222 39936 40180 70362 8482/ 333 20223 58018 60264;
0167827650999992001122818004-07320-047460FM-12+021299999V0200901N001010075019N0200001N1+02921+02341101421ADDAA199000091GF107991071021008001001001MA1999999099021MD1999999+0031REMSYN070AAXX  28184 82765 32598 70902 10292 20234 39902 40142 87200 333 58003;EQDQ01  00002PRCP99
0198827650999992001122900004-07320-047460FM-12+021299999V0200901N001010450019N0200001N1+02741+02471101491ADDAA199000091GF107991041021008001031001KA1240M+03021MA1999999099081MD1999999-0221REMSYN088AAXX  29004 82765 32598 70902 10274 20247 39908 40149 84230 333 10302 29084 55010 59022;EQDQ01  00002PRCP99
0186827650999992001122912004-07320-047460FM-12+021299999V0200901N000512200019N0200001N1+02811+02381101581ADDAA199000091GF104991021021008001031021KA1240N+02381MA1999999099201MD1999999-0161REMSYN076AAXX  29124 82765 32598 40901 10281 20238 39920 40158 82232 333 20238 59016;EQDQ01  00002PRCP99
0167827650999992001122918004-07320-047460FM-12+021299999V0203201N002110450019N0200001N1+03281+02431101181ADDAA199000091GF106991041031008001051041MA1999999098811MD1999999-0211REMSYN070AAXX  29184 82765 32598 63204 10328 20243 39881 40118 84354 333 59021;EQDQ01  00002PRCP99
0198827650999992001123000004-07320-047460FM-12+021299999V0200501N001010120019N0200001N1+02621+02351101361ADDAA199000091GF107991071081008001001001KA1240M+03351MA1999999098971MD1999999-0111REMSYN088AAXX  30004 82765 32598 70502 10262 20235 39897 40136 87800 333 10335 29077 55071 59011;EQDQ01  00002PRCP99
0186827650999992001123012004-07320-047460FM-12+021299999V0200501N000510450019N0200001N1+02621+02421101501ADDAA199000091GF107991041021008001041071KA1240N+02371MA1999999099101MD1999999-0101REMSYN076AAXX  30124 82765 32598 70501 10262 20242 39910 40150 84247 333 20237 59010;EQDQ01  00002PRCP99
0167827650999992001123018004-07320-047460FM-12+021299999V0203601N002610450019N0200001N1+03021+02361101221ADDAA199000091GF107991041081008001021001MA1999999098841MD1999999+0031REMSYN070AAXX  30184 82765 32598 73605 10302 20236 39884 40122 84820 333 58003;EQDQ01  00002PRCP99
0173827650999992001123112004-07320-047460FM-12+021299999V0203201N000510450019N0200001N1+02521+02311101421ADDAA124004191GF107991041081008001061001KA1240N+02321MA1999999099011MD1999999-0091REMSYN082AAXX  31124 82765 22598 73201 10252 20231 39901 40142 84860 333 20232 59009 60044;
0167827650999992001123118004-07320-047460FM-12+021299999V0203201N001510450019N0200001N1+03021+02461101081ADDAA199000091GF106991041021008001031001MA1999999098691MD1999999-0151REMSYN070AAXX  31184 82765 32598 63203 10302 20246 39869 40108 84230 333 59015;EQDQ01  00002PRCP99
