0186827840999992001010100004-07310-039300FM-12+040999999V0209999C000010450019N0020001N1+02681+01991101171ADDAA199000091GF106991041061008001071001KA1240M+03291MA1999999096541MD1999999-0021REMSYN076AAXX  01004 82784 32595 60000 10268 20199 39654 40117 84670 333 10329 59002;EQDQ01  00002PRCP99
0186827840999992001010112004-07310-039300FM-12+040999999V0203601N001512200019N0200001N1+02841+01881101361ADDAA199000091GF103991011011008001001011KA1240N+02341MA1999999096721MD1999999-0041REMSYN076AAXX  01124 82784 32598 33603 10284 20188 39672 40136 81101 333 20234 59004;EQDQ01  00002PRCP99
0167827840999992001010118004-07310-039300FM-12+040999999V0200501N002611050019N0200001N1+03461+01401100901ADDAA199000091GF105991021021008001061021MA1999999096301MD1999999-0081REMSYN070AAXX  01184 82784 32598 50505 10346 20140 39630 40090 82262 333 59008;EQDQ01  00002PRCP99
0196827840999992001010200004-07310-039300FM-12+040999999V0202301N000512200019N0020001N1+02541+01361101201ADDAA199000091GA1001+999999999GF100991001001999999001001KA1240M+03521MA1999999096561MD1999999+0021REMSYN070AAXX  02004 82784 32995 02301 10254 20136 39656 40120 333 10352 58002;EQDQ01  00002PRCP99
0186827840999992001010212004-07310-039300FM-12+040999999V0200501N001510075019N0200001N1+02751+02021101471ADDAA199000091GF106991061021008001001001KA1240N+02221MA1999999096811MD1999999+0091REMSYN076AAXX  02124 82784 32598 60503 10275 20202 39681 40147 86200 333 20222 58009;EQDQ01  00002PRCP99
0167827840999992001010218004-07310-039300FM-12+040999999V0200901N002610120019N0200001N1+02301+01681100921ADDAA199000091GF107991071021012501001001MA1999999096311MD1999999+0011REMSYN070AAXX  02184 82784 32698 70905 10230 20168 39631 40092 87200 333 58001;EQDQ01  00002PRCP99
0186827840999992001010300004-07310-039300FM-12+040999999V0201401N001010075019N0020001N1+02721+01591101241ADDAA199000091GF106991061021008001001001KA1240M+03471MA1999999096601MD1999999+0041REMSYN076AAXX  03004 82784 32595 61402 10272 20159 39660 40124 86200 333 10347 58004;EQDQ01  00002PRCP99
0186827840999992001010312004-07310-039300FM-12+040999999V0203201N001512200019N0200001N1+02701+01961101461ADDAA199000091GF104991041021008001001001KA1240N+02301MA1999999096811MD1999999+0001REMSYN076AAXX  03124 82784 32598 43203 10270 20196 39681 40146 84200 333 20230 58000;EQDQ01  00002PRCP99
0167827840999992001010318004-07310-039300FM-12+040999999V0200901N003110120019N0200001N1+03131+01791101071ADDAA199000091GF107991071081008001001001MA1999999096441MD1999999+0131REMSYN070AAXX  03184 82784 32598 70906 10313 20179 39644 40107 87800 333 58013;EQDQ01  00002PRCP99
0186827840999992001010400004-07310-039300FM-12+040999999V0200501N001510150019N0020001N1+02561+01671101221ADDAA199000091GF106991061001017501011001KA1240M+03231MA1999999096571MD1999999-0031REMSYN076AAXX  04004 82784 32795 60503 10256 20167 39657 40122 86010 333 10323 59003;EQDQ01  00002PRCP99
0186827840999992001010412004-07310-039300FM-12+040999999V0200901N002612200019N0200001N1+02821+01891101411ADDAA199000091GF104991021021008001061001KA1240N+02261MA1999999096761MD1999999-0051REMSYN076AAXX  04124 82784 32598 40905 10282 20189 39676 40141 82260 333 20226 59005;EQDQ01  00002PRCP99
0183827840999992001010418004-07310-039300FM-12+040999999V0200501N002619999999N0200001N1+02901+01841101111ADDAA199000091GF108991999021008001001001MA1999999096761MD1999999+0021REMSYN070AAXX  04184 82784 32598 80505 10290 20184 39676 40111 83200 333 58002;EQDQ01+000032SCOTLCQ02  00002PRCP99
0186827840999992001010500004-07310-039300FM-12+040999999V0201401N000510075019N0020001N1+02621+01961101371ADDAA199000091GF108991081051008001999999KA1240M+03091MA1999999096721MD1999999+0151REMSYN076AAXX  05004 82784 32595 81401 10262 20196 39672 40137 885// 333 10309 58015;EQDQ01  00002PRCP99
0186827840999992001010512004-07310-039300FM-12+040999999V0200501N002610450019N0200001N1+02641+01771101531ADDAA199000091GF107991011011008001061041KA1240N+02291MA1999999096861MD1999999+0101REMSYN076AAXX  05124 82784 32598 70505 10264 20177 39686 40153 81164 333 20229 58010;EQDQ01  00002PRCP99
0167827840999992001010518004-07310-039300FM-12+040999999V0200501N002610450019N0200001N1+03161+01671101041ADDAA199000091GF106991011011008001031021MA1999999096421MD1999999-0041REMSYN070AAXX  05184 82784 32598 60505 10316 20167 39642 40104 81132 333 59004;EQDQ01  00002PRCP99
0186827840999992001010600004-07310-039300FM-12+040999999V0201801N000512200019N0020001N1+02541+01601101201ADDAA199000091GF101991011011008001001001KA1240M+03271MA1999999096551MD1999999-0171REMSYN076AAXX  06004 82784 32595 11801 10254 20160 39655 40120 81100 333 10327 59017;EQDQ01  00002PRCP99
0220827840999992001010612004-07310-039300FM-12+040999999V0200501N001519999999N0200001N1+02671+02091101441ADDAA124007991AY161061AY211061GF106991999021008001001001KA1240N+02161MA1999999096781MD1999999-0081MW1021REMSYN088AAXX  06124 82784 21598 60503 10267 20209 39678 40144 70261 84200 333 20216 59008 60084;EQDQ01+000042SCOTLC
0183827840999992001010618004-07310-039300FM-12+040999999V0203601N001519999999N0200001N1+03221+01771100961ADDAA199000091GF106991999011008001001001MA1999999096341MD1999999-0081REMSYN070AAXX  06184 82784 32598 63603 10322 20177 39634 40096 82100 333 59008;EQDQ01+000022SCOTLCQ02  00002PRCP99
0173827840999992001010712004-07310-039300FM-12+040999999V0200901N003110120019N0200001N1+02741+01921101321ADDAA124008991GF108991071081008001001021KA1240N+02361MA1999999096671MD1999999-0111REMSYN082AAXX  07124 82784 22598 80906 10274 20192 39667 40132 87802 333 20236 59011 60094;
0167827840999992001010718004-07310-039300FM-12+040999999V0200901N002110120019N0200001N1+03231+01571100901ADDAA199000091GF108991071021012501001061MA1999999096271MD1999999-0071REMSYN070AAXX  07184 82784 32698 80904 10323 20157 39627 40090 87206 333 59007;EQDQ01  00002PRCP99
0196827840999992001010800004-07310-039300FM-12+040999999V0201401N000512200019N0020001N1+02441+01951101071ADDAA199000091GF101991999999008001999999KA1240M+03201MA1999999098422MD1999999-0061REMSYN070AAXX  08004 82784 32595 11401 10244 20195 39842 40107 333 10320 59006;EQDQ01+098423APOSP Q02  00002PRCP99
0201827840999992001010812004-07310-039300FM-12+040999999V0200501N001511050019N0200001N1+02561+02021101361ADDAA124011991AY161061AY221061GF105991021021008001031021KA1240N+02071MA1999999096701MD1999999+0031MW1021REMSYN088AAXX  08124 82784 21598 50503 10256 20202 39670 40136 70262 82232 333 20207 58003 60124;
0167827840999992001010818004-07310-039300FM-12+040999999V0200501N002112200019N0200001N1+03241+01711100831ADDAA199000091GF102991021021008001001001MA1999999096221MD1999999-0051REMSYN070AAXX  08184 82784 32598 20504 10324 20171 39622 40083 82200 333 59005;EQDQ01  00002PRCP99
0186827840999992001010912004-07310-039300FM-12+040999999V0203601N001512200019N0200001N1+02721+01821101391ADDAA199000091GF103991011021008001001011KA1240N+02141MA1999999096741MD1999999+0041REMSYN076AAXX  09124 82784 32598 33603 10272 20182 39674 40139 81201 333 20214 58004;EQDQ01  00002PRCP99
0167827840999992001010918004-07310-039300FM-12+040999999V0200501N002110450019N0200001N1+03171+01671100911ADDAA199000091GF107991011021008001021001MA1999999096291MD1999999+0071REMSYN070AAXX  09184 82784 32598 70504 10317 20167 39629 40091 81220 333 58007;EQDQ01  00002PRCP99
0186827840999992001011000004-07310-039300FM-12+040999999V0201801N001512200019N0020001N1+02531+01891101101ADDAA199000091GF103991031001017501011001KA1240M+03201MA1999999096461MD1999999+0031REMSYN076AAXX  10004 82784 32795 31803 10253 20189 39646 40110 83010 333 10320 58003;EQDQ01  00002PRCP99
0186827840999992001011012004-07310-039300FM-12+040999999V0200901N002110450019N0200001N1+02691+01941101411ADDAA199000091GF106991021021008001061011KA1240N+02321MA1999999096751MD1999999+0011REMSYN076AAXX  10124 82784 32598 60904 10269 20194 39675 40141 82261 333 20232 58001;EQDQ01  00002PRCP99
0167827840999992001011018004-07310-039300FM-12+040999999V0200901N001510450019N0200001N1+03231+01691100911ADDAA199000091GF107991041021008001021001MA1999999096291MD1999999+0001REMSYN070AAXX  10184 82784 32598 70903 10323 20169 39629 40091 84220 333 58000;EQDQ01  00002PRCP99
0186827840999992001011112004-07310-039300FM-12+040999999V0200901N002111050019N0200001N1+02791+01731101481ADDAA199000091GF107991011011008001001021KA1240N+02281MA1999999096831MD1999999+0081REMSYN076AAXX  11124 82784 32598 70904 10279 20173 39683 40148 81102 333 20228 58008;EQDQ01  00002PRCP99
0167827840999992001011118004-07310-039300FM-12+040999999V0200901N002111050019N0200001N1+03121+01521101081ADDAA199000091GF107991011011008001001021MA1999999096451MD1999999+0161REMSYN070AAXX  11184 82784 32598 70904 10312 20152 39645 40108 81102 333 58016;EQDQ01  00002PRCP99
0186827840999992001011200004-07310-039300FM-12+040999999V0200901N003110075019N0020001N1+02761+01661101301ADDAA199000091GF108991081071008001999999KA1240M+03211MA1999999096661MD1999999+0141REMSYN076AAXX  12004 82784 32595 80906 10276 20166 39666 40130 887// 333 10321 58014;EQDQ01  00002PRCP99
0186827840999992001011212004-07310-039300FM-12+040999999V0200501N002110120019N0200001N1+02601+01921101451ADDAA199000091GF108991081081008001999999KA1240N+02401MA1999999096801MD1999999-0031REMSYN076AAXX  12124 82784 32598 80504 10260 20192 39680 40145 888// 333 20240 59003;EQDQ01  00002PRCP99
0182827840999992001011218004-07310-039300FM-12+040999999V0200501N001010075019N0200001N1+02061+01981101261ADDAA106043991AY191061AY261061GF108991061071008001021999MA1999999096571MD1999999+0121MW1211REMSYN082AAXX  12184 82784 21598 80502 10206 20198 39657 40126 72196 8672/ 333 58012 60441;
0201827840999992001011300004-07310-039300FM-12+040999999V0202701N001010075019N0020001N1+02141+02061101491ADDAA106094091AY151061AY221061GF108991081051008001999999KA1240M+02901MA1999999096801MD1999999+0141MW1021REMSYN088AAXX  13004 82784 21595 82702 10214 20206 39680 40149 70252 885// 333 10290 58014 60941;
0173827840999992001011312004-07310-039300FM-12+040999999V0200901N001510450019N0200001N1+02581+02011101511ADDAA124045091GF107991021021008001071001KA1240N+01941MA1999999096821MD1999999+0021REMSYN082AAXX  13124 82784 22598 70903 10258 20201 39682 40151 82270 333 20194 58002 60454;
0167827840999992001011318004-07310-039300FM-12+040999999V0200901N002110120019N0200001N1+02981+01981101091ADDAA199000091GF108991081081008001999999MA1999999096451MD1999999-0121REMSYN070AAXX  13184 82784 32598 80904 10298 20198 39645 40109 888// 333 59012;EQDQ01  00002PRCP99
0186827840999992001011400004-07310-039300FM-12+040999999V0201401N002110120019N0020001N1+02571+01781101351ADDAA199000091GF108991081081008001999999KA1240M+03021MA1999999096691MD1999999-0111REMSYN076AAXX  14004 82784 32595 81404 10257 20178 39669 40135 888// 333 10302 59011;EQDQ01  00002PRCP99
0220827840999992001011412004-07310-039300FM-12+040999999V0200901N002610075019N0200001N1+02601+01871101481ADDAA124000191AY151061AY221061GF108991999021008001001001KA1240N+02241MA1999999096821MD1999999+0001MW1021REMSYN088AAXX  14124 82784 21598 80905 10260 20187 39682 40148 70252 87200 333 20224 58000 69924;EQDQ01+000072SCOTLC
0183827840999992001011418004-07310-039300FM-12+040999999V0200901N004119999999N0200001N1+03101+01701101071ADDAA199000091GF108991999021012501001001MA1999999096441MD1999999-0011REMSYN070AAXX  14184 82784 32698 80908 10310 20170 39644 40107 83200 333 59001;EQDQ01+000032SCOTLCQ02  00002PRCP99
0196827840999992001011500004-07310-039300FM-12+040999999V0200901N002112200019N0020001N1+02641+01751101221ADDAA199000091GA1001+999999999GF100991001001999999001001KA1240M+03151MA1999999096571MD1999999-0121REMSYN070AAXX  15004 82784 32995 00904 10264 20175 39657 40122 333 10315 59012;EQDQ01  00002PRCP99
0186827840999992001011512004-07310-039300FM-12+040999999V0200901N004612200019N0200001N1+02731+01741101411ADDAA199000091GF102991011021008001011001KA1240N+02031MA1999999096761MD1999999-0061REMSYN076AAXX  15124 82784 32598 20909 10273 20174 39676 40141 81210 333 20203 59006;EQDQ01  00002PRCP99
0167827840999992001011518004-07310-039300FM-12+040999999V0200901N003110075019N0200001N1+03141+01621101051ADDAA199000091GF105991051021008001001001MA1999999096421MD1999999-0021REMSYN070AAXX  15184 82784 32598 50906 10314 20162 39642 40105 85200 333 59002;EQDQ01  00002PRCP99
0186827840999992001011612004-07310-039300FM-12+040999999V0200901N002110450019N0200001N1+02691+01641101421ADDAA199000091GF106991011011008001061011KA1240N+02271MA1999999096761MD1999999+0001REMSYN076AAXX  16124 82784 32598 60904 10269 20164 39676 40142 81161 333 20227 58000;EQDQ01  00002PRCP99
0167827840999992001011618004-07310-039300FM-12+040999999V0200501N002610150019N0200001N1+03151+01501100991ADDAA199000091GF108991061081012501011999MA1999999096371MD1999999-0051REMSYN070AAXX  16184 82784 32698 80505 10315 20150 39637 40099 8681/ 333 59005;EQDQ01  00002PRCP99
0186827840999992001011700004-07310-039300FM-12+040999999V0209999C000010075019N0020001N1+02701+01831101191ADDAA199000091GF106991061021008001001001KA1240M+03251MA1999999096551MD1999999-0041REMSYN076AAXX  17004 82784 32595 60000 10270 20183 39655 40119 86200 333 10325 59004;EQDQ01  00002PRCP99
0180827840999992001011712004-07310-039300FM-12+040999999V0201401N004112200019N0200001N1+02811+01531101351ADDAA199000091GF101991999999999999999999KA1240N+02261MA1999999096711MD1999999-0051REMSYN070AAXX  17124 82784 32998 11408 10281 20153 39671 40135 333 20226 59005;EQDQ01  00002PRCP99
0167827840999992001011718004-07310-039300FM-12+040999999V0201401N003110450019N0200001N1+03191+01491100951ADDAA199000091GF106991041021008001011001MA1999999096331MD1999999-0041REMSYN070AAXX  17184 82784 32598 61406 10319 20149 39633 40095 84210 333 59004;EQDQ01  00002PRCP99
0196827840999992001011800004-07310-039300FM-12+040999999V0201401N000512200019N0020001N1+02561+01321101251ADDAA199000091GA1001+999999999GF100991001001999999001001KA1240M+03311MA1999999096611MD1999999+0061REMSYN070AAXX  18004 82784 32995 01401 10256 20132 39661 40125 333 10331 58006;EQDQ01  00002PRCP99
0186827840999992001011812004-07310-039300FM-12+040999999V0200901N002110150019N0200001N1+02671+01561101431ADDAA199000091GF108991071001017501011041KA1240N+02061MA1999999096771MD1999999+0061REMSYN076AAXX  18124 82784 32798 80904 10267 20156 39677 40143 87014 333 20206 58006;EQDQ01  00002PRCP99
0167827840999992001011818004-07310-039300FM-12+040999999V0200501N003110450019N0200001N1+03101+01581101011ADDAA199000091GF108991041061012501011061MA1999999096381MD1999999+0051REMSYN070AAXX  18184 82784 32698 80506 10310 20158 39638 40101 84616 333 58005;EQDQ01  00002PRCP99
0196827840999992001011900004-07310-039300FM-12+040999999V0202301N001012200019N0020001N1+02461+01581101281ADDAA199000091GA1001+999999999GF100991001001999999001001KA1240M+03291MA1999999096631MD1999999+0021REMSYN070AAXX  19004 82784 32995 02302 10246 20158 39663 40128 333 10329 58002;EQDQ01  00002PRCP99
0186827840999992001011912004-07310-039300FM-12+040999999V0200901N003112200019N0200001N1+02701+01661101591ADDAA199000091GF101991011081008001001001KA1240N+02341MA1999999096921MD1999999+0151REMSYN076AAXX  19124 82784 32598 10906 10270 20166 39692 40159 81800 333 20234 58015;EQDQ01  00002PRCP99
0167827840999992001011918004-07310-039300FM-12+040999999V0200501N002110075019N0200001N1+03281+01581101091ADDAA199000091GF106991061021008001001001MA1999999096461MD1999999+0081REMSYN070AAXX  19184 82784 32598 60504 10328 20158 39646 40109 86200 333 58008;EQDQ01  00002PRCP99
0186827840999992001012000004-07310-039300FM-12+040999999V0203201N000512200019N0020001N1+02591+01771101291ADDAA199000091GF101991011021008001001001KA1240M+03371MA1999999096641MD1999999+0011REMSYN076AAXX  20004 82784 32595 13201 10259 20177 39664 40129 81200 333 10337 58001;EQDQ01  00002PRCP99
0201827840999992001012012004-07310-039300FM-12+040999999V0200501N001512200019N0200001N1+02771+01831101621ADDAA124003091AY161061AY201061GF102991011021008001061001KA1240N+02361MA1999999096981MD1999999+0061MW1011REMSYN088AAXX  20124 82784 21598 20503 10277 20183 39698 40162 70160 81260 333 20236 58006 60034;
0167827840999992001012018004-07310-039300FM-12+040999999V0200501N002110450019N0200001N1+03261+01601101071ADDAA199000091GF106991021021008001011001MA1999999096451MD1999999-0011REMSYN070AAXX  20184 82784 32598 60504 10326 20160 39645 40107 82210 333 59001;EQDQ01  00002PRCP99
0202827840999992001012100004-07310-039300FM-12+040999999V0201401N001012200019N0020001N1+02551+01831101301ADDAA199000091GF101991999011008001001001KA1240M+03391MA1999999096651MD1999999+0011REMSYN076AAXX  21004 82784 32595 11402 10255 20183 39665 40130 82100 333 10339 58001;EQDQ01+000022SCOTLCQ02  00002PRCP99
0186827840999992001012112004-07310-039300FM-12+040999999V0200501N002110450019N0200001N1+02681+01971101481ADDAA199000091GF108991031021008001011999KA1240N+02261MA1999999096821MD1999999-0161REMSYN076AAXX  21124 82784 32598 80504 10268 20197 39682 40148 8321/ 333 20226 59016;EQDQ01  00002PRCP99
0167827840999992001012118004-07310-039300FM-12+040999999V0203601N002110150019N0200001N1+03221+01651101001ADDAA199000091GF108991081001017501021999MA1999999096381MD1999999-0071REMSYN070AAXX  21184 82784 32798 83604 10322 20165 39638 40100 8802/ 333 59007;EQDQ01  00002PRCP99
0196827840999992001012200004-07310-039300FM-12+040999999V0209999C000012200019N0020001N1+02541+01711101271ADDAA199000091GA1001+999999999GF100991001001999999001001KA1240M+03271MA1999999096621MD1999999-0031REMSYN070AAXX  22004 82784 32995 00000 10254 20171 39662 40127 333 10327 59003;EQDQ01  00002PRCP99
0201827840999992001012212004-07310-039300FM-12+040999999V0200501N003110120019N0040001N1+02521+02191101601ADDAA124003091AY191061AY261061GF108991081081008001999999KA1240N+02261MA1999999096921MD1999999+0101MW1021REMSYN088AAXX  22124 82784 21596 80506 10252 20219 39692 40160 70296 888// 333 20226 58010 60034;
0167827840999992001012218004-07310-039300FM-12+040999999V0203601N002112200019N0200001N1+03201+01671101061ADDAA199000091GF102991011021008001001081MA1999999096441MD1999999+0061REMSYN070AAXX  22184 82784 32598 23604 10320 20167 39644 40106 81208 333 58006;EQDQ01  00002PRCP99
0196827840999992001012300004-07310-039300FM-12+040999999V0209999C000012200019N0020001N1+02501+01821101271ADDAA199000091GA1001+999999999GF100991001001999999001001KA1240M+03291MA1999999096611MD1999999-0091REMSYN070AAXX  23004 82784 32995 00000 10250 20182 39661 40127 333 10329 59009;EQDQ01  00002PRCP99
0186827840999992001012312004-07310-039300FM-12+040999999V0200501N002112200019N0200001N1+02781+02041101501ADDAA199000091GF103991031021008001001001KA1240N+02221MA1999999096841MD1999999-0081REMSYN076AAXX  23124 82784 32598 30504 10278 20204 39684 40150 83200 333 20222 59008;EQDQ01  00002PRCP99
0167827840999992001012318004-07310-039300FM-12+040999999V0201401N002112200019N0200001N1+03501+01681100961ADDAA199000091GF102991021021008001001001MA1999999096351MD1999999-0091REMSYN070AAXX  23184 82784 32598 21404 10350 20168 39635 40096 82200 333 59009;EQDQ01  00002PRCP99
0186827840999992001012400004-07310-039300FM-12+040999999V0200501N000512200019N0020001N1+02581+01611101201ADDAA199000091GF101991011021008001001001KA1240M+03531MA1999999096561MD1999999-0051REMSYN076AAXX  24004 82784 32595 10501 10258 20161 39656 40120 81200 333 10353 59005;EQDQ01  00002PRCP99
0186827840999992001012412004-07310-039300FM-12+040999999V0200501N002112200019N0200001N1+02751+01841101561ADDAA199000091GF102991021021008001001001KA1240N+02331MA1999999096901MD1999999+0061REMSYN076AAXX  24124 82784 32598 20504 10275 20184 39690 40156 82200 333 20233 58006;EQDQ01  00002PRCP99
0167827840999992001012418004-07310-039300FM-12+040999999V0201401N003112200019N0200001N1+03481+01661101031ADDAA199000091GF104991031021008001011001MA1999999096431MD1999999+0081REMSYN070AAXX  24184 82784 32598 41406 10348 20166 39643 40103 83210 333 58008;EQDQ01  00002PRCP99
0186827840999992001012500004-07310-039300FM-12+040999999V0201401N001010120019N0020001N1+02741+01511101231ADDAA199000091GF108991081081008001999999KA1240M+03531MA1999999096591MD1999999+0031REMSYN076AAXX  25004 82784 32595 81402 10274 20151 39659 40123 888// 333 10353 58003;EQDQ01  00002PRCP99
0186827840999992001012512004-07310-039300FM-12+040999999V0203601N001510075019N0200001N1+02501+02031101571ADDAA199000091GF106991061021008001001001KA1240N+02401MA1999999096901MD1999999+0001REMSYN076AAXX  25124 82784 32598 63603 10250 20203 39690 40157 86200 333 20240 58000;EQDQ01  00002PRCP99
0167827840999992001012518004-07310-039300FM-12+040999999V0200501N001512200019N0200001N1+03341+01831101001ADDAA199000091GF104991031021008001011001MA1999999096391MD1999999-0041REMSYN070AAXX  25184 82784 32598 40503 10334 20183 39639 40100 83210 333 59004;EQDQ01  00002PRCP99
0196827840999992001012600004-07310-039300FM-12+040999999V0201801N000512200019N0020001N1+02571+01801101281ADDAA199000091GA1001+999999999GF100991001001999999001001KA1240M+03471MA1999999095621MD1999999+0031REMSYN070AAXX  26004 82784 32995 01801 10257 20180 39562 40128 333 10347 58003;EQDQ01  00002PRCP99
0186827840999992001012612004-07310-039300FM-12+040999999V0200501N001010075019N0200001N1+02671+02021101551ADDAA199000091GF107991071021008001001001KA1240N+02351MA1999999096881MD1999999-0021REMSYN076AAXX  26124 82784 32598 70502 10267 20202 39688 40155 87200 333 20235 59002;EQDQ01  00002PRCP99
0167827840999992001012618004-07310-039300FM-12+040999999V0203601N001010120019N0200001N1+03311+01761100981ADDAA199000091GF107991071021012501001001MA1999999096371MD1999999-0021REMSYN070AAXX  26184 82784 32698 73602 10331 20176 39637 40098 87200 333 59002;EQDQ01  00002PRCP99
0202827840999992001012700004-07310-039300FM-12+040999999V0201801N001012200019N0020001N1+02741+01951101171ADDAA199000091GF101991999011008001001001KA1240M+03391MA1999999096531MD1999999-0091REMSYN076AAXX  27004 82784 32595 11802 10274 20195 39653 40117 82100 333 10339 59009;EQDQ01+000022SCOTLCQ02  00002PRCP99
0186827840999992001012712004-07310-039300FM-12+040999999V0200501N002110120019N0200001N1+02661+02021101461ADDAA199000091GF106991061081008001001001KA1240N+02401MA1999999096811MD1999999-0071REMSYN076AAXX  27124 82784 32598 60504 10266 20202 39681 40146 86800 333 20240 59007;EQDQ01  00002PRCP99
0167827840999992001012718004-07310-039300FM-12+040999999V0200501N001510075019N0200001N1+03321+01971100991ADDAA199000091GF105991051021008001001001MA1999999096371MD1999999+0001REMSYN070AAXX  27184 82784 32598 50503 10332 20197 39637 40099 85200 333 58000;EQDQ01  00002PRCP99
0186827840999992001012800004-07310-039300FM-12+040999999V0202301N000510120019N0020001N1+02701+01911101241ADDAA199000091GF108991081081008001999999KA1240M+03401MA1999999096601MD1999999+0071REMSYN076AAXX  28004 82784 32595 82301 10270 20191 39660 40124 888// 333 10340 58007;EQDQ01  00002PRCP99
0201827840999992001012812004-07310-039300FM-12+040999999V0203601N001510075019N0200001N1+02461+02111101451ADDAA124005191AY161061AY221061GF108991081051008001999999KA1240N+02241MA1999999096791MD1999999-0021MW1021REMSYN088AAXX  28124 82784 21598 83603 10246 20211 39679 40145 70262 885// 333 20224 59002 60054;
0177827840999992001012818004-07310-039300FM-12+040999999V0203601N001012200019N0200001N1+03101+01901100901ADDAA199000091GA1001+999999999GF100991001001999999001001MA1999999096271MD1999999-0101REMSYN064AAXX  28184 82784 32698 03602 10310 20190 39627 40090 333 59010;EQDQ01  00002PRCP99
0186827840999992001012900004-07310-039300FM-12+040999999V0201401N001010120019N0020001N1+02461+02031101191ADDAA199000091GF108991081081008001999999KA1240M+03251MA1999999096531MD1999999-0071REMSYN076AAXX  29004 82784 32595 81402 10246 20203 39653 40119 888// 333 10325 59007;EQDQ01  00002PRCP99
0201827840999992001012912004-07310-039300FM-12+040999999V0203201N002110075019N0200001N1+02641+02161101371ADDAA124002091AY161061AY221061GF106991061021008001001001KA1240N+02261MA1999999096711MD1999999-0081MW1021REMSYN088AAXX  29124 82784 21598 63204 10264 20216 39671 40137 70262 86200 333 20226 59008 60024;
0167827840999992001012918004-07310-039300FM-12+040999999V0200901N002612200019N0200001N1+03241+01931100831ADDAA199000091GF104991031021008001011001MA1999999096221MD1999999-0051REMSYN070AAXX  29184 82784 32598 40905 10324 20193 39622 40083 83210 333 59005;EQDQ01  00002PRCP99
0186827840999992001013000004-07310-039300FM-12+040999999V0202301N000510120019N0020001N1+02461+01901100951ADDAA199000091GF108991081081008001999999KA1240M+03331MA1999999096311MD1999999-0221REMSYN076AAXX  30004 82784 32595 82301 10246 20190 39631 40095 888// 333 10333 59022;EQDQ01  00002PRCP99
0201827840999992001013012004-07310-039300FM-12+040999999V0200501N002112200019N0200001N1+02581+02011101361ADDAA124002091AY161061AY211061GF104991041021008001001001KA1240N+02221MA1999999096691MD1999999-0021MW1021REMSYN088AAXX  30124 82784 21598 40504 10258 20201 39669 40136 70261 84200 333 20222 59002 60024;
0167827840999992001013018004-07310-039300FM-12+040999999V0203601N002112200019N0200001N1+03211+01741100771ADDAA199000091GF102991021021008001001001MA1999999096151MD1999999-0071REMSYN070AAXX  30184 82784 32598 23604 10321 20174 39615 40077 82200 333 59007;EQDQ01  00002PRCP99
0201827840999992001013100004-07310-039300FM-12+040999999V0201401N004610042019N0002001N1+02301+02051100961ADDAA106005191AY121061AY221061GF108991081051004501999999KA1240M+03291MA1999999096341MD1999999+0031MW1631REMSYN088AAXX  31004 82784 21492 81409 10230 20205 39634 40096 76322 885// 333 10329 58003 60051;
0201827840999992001013112004-07310-039300FM-12+040999999V0200501N002110120019N0040001N1+02441+02091101341ADDAA124017091AY191061AY261061GF108991081081008001999999KA1240N+02151MA1999999096661MD1999999-0031MW1021REMSYN088AAXX  31124 82784 21596 80504 10244 20209 39666 40134 70296 888// 333 20215 59003 60174;
0167827840999992001013118004-07310-039300FM-12+040999999V0203601N001511050019N0200001N1+03021+01921100911ADDAA199000091GF106991021021008001001021MA1999999096271MD1999999+0121REMSYN070AAXX  31184 82784 32598 63603 10302 20192 39627 40091 82202 333 58012;EQDQ01  00002PRCP99
0186827840999992001020100004-07310-039300FM-12+040999999V0202301N001012200019N0020001N1+02461+02071101091ADDAA199000091GF101991011001017501011001KA1240M+03171MA1999999096431MD1999999+0081REMSYN076AAXX  01004 82784 32795 12302 10246 20207 39643 40109 81010 333 10317 58008;EQDQ01  00002PRCP99
0186827840999992001020112004-07310-039300FM-12+040999999V0203201N001510075019N0200001N1+02521+02051101281ADDAA199000091GF107991061021008001031001KA1240N+02271MA1999999096621MD1999999-0041REMSYN076AAXX  01124 82784 32598 73203 10252 20205 39662 40128 86230 333 20227 59004;EQDQ01  00002PRCP99
0167827840999992001020118004-07310-039300FM-12+040999999V0200501N001512200019N0200001N1+03141+01871100701ADDAA199000091GF103991021021012501021001MA1999999096081MD1999999-0191REMSYN070AAXX  01184 82784 32698 30503 10314 20187 39608 40070 82220 333 59019;EQDQ01  00002PRCP99
0186827840999992001020200004-07310-039300FM-12+040999999V0202701N000512200019N0020001N1+02561+02211100931ADDAA199000091GF104991041081008001001001KA1240M+03231MA1999999096291MD1999999-0141REMSYN076AAXX  02004 82784 32595 42701 10256 20221 39629 40093 84800 333 10323 59014;EQDQ01  00002PRCP99
0186827840999992001020212004-07310-039300FM-12+040999999V0202701N001010120019N0200001N1+02541+02131101311ADDAA199000091GF108991081081008001999999KA1240N+02361MA1999999096691MD1999999+0071REMSYN076AAXX  02124 82784 32598 82702 10254 20213 39669 40131 888// 333 20236 58007;EQDQ01  00002PRCP99
0167827840999992001020218004-07310-039300FM-12+040999999V0200901N001010120019N0200001N1+02981+02061100831ADDAA199000091GF106991061081008001001001MA1999999096211MD1999999+0131REMSYN070AAXX  02184 82784 32598 60902 10298 20206 39621 40083 86800 333 58013;EQDQ01  00002PRCP99
0186827840999992001020300004-07310-039300FM-12+040999999V0202701N001012200019N0020001N1+02441+02191101041ADDAA199000091GF102991021011008001001001KA1240M+03171MA1999999096381MD1999999+0091REMSYN076AAXX  03004 82784 32595 22702 10244 20219 39638 40104 82100 333 10317 58009;EQDQ01  00002PRCP99
0201827840999992001020312004-07310-039300FM-12+040999999V0200501N000510075019N0040001N1+02181+02111101411ADDAA124074991AY191061AY261061GF108991081071008001999999KA1240N+02141MA1999999096721MD1999999+0031MW1951REMSYN088AAXX  03124 82784 21596 80501 10218 20211 39672 40141 79596 887// 333 20214 58003 60754;
0148827840999992001020318004-07310-039300FM-12+040999999V0202301N001010450019N0200001N1+02751+02121101021ADDAA199000021GF107991011021008001021001MA1999999096361MD1999999+0151REMSYN070AAXX  03184 82784 32598 72302 10275 20212 39636 40102 81220 333 58015;
0167827840999992001020400004-07310-039300FM-12+040999999V0203201N001510150019N0020001N1+02301+01981101071ADDAA199000021GF108991081001017501021999KA1240M+02951MA1999999096391MD1999999+0011REMSYN076AAXX  04004 82784 32795 83203 10230 20198 39639 40107 8802/ 333 10295 58001;
0220827840999992001020412004-07310-039300FM-12+040999999V0202701N001010075019N0200001N1+02181+02031101511ADDAA124026991AY191061AY261061GF108991999021008001001001KA1240N+01951MA1999999096811MD1999999+0091MW1021REMSYN088AAXX  04124 82784 21598 82702 10218 20203 39681 40151 70296 87200 333 20195 58009 60274;EQDQ01+000072SCOTLC
0182827840999992001020418004-07310-039300FM-12+040999999V0203601N000510120019N0200001N1+02801+02171101171ADDAA106002091AY121061AY221061GF107991071021012501001001MA1999999096541MD1999999+0121MW1211REMSYN082AAXX  04184 82784 21698 73601 10280 20217 39654 40117 72122 87200 333 58012 60021;
0167827840999992001020500004-07310-039300FM-12+040999999V0200901N000510075019N0020001N1+02361+02281101281ADDAA199000021GF106991061021008001001001KA1240M+02891MA1999999096571MD1999999+0121REMSYN076AAXX  05004 82784 32595 60901 10236 20228 39657 40128 86200 333 10289 58012;
0201827840999992001020512004-07310-039300FM-12+040999999V0209999C000010075019N0040001N1+02361+02091101491ADDAA124055991AY191061AY261061GF108991081061008001999999KA1240N+02041MA1999999096801MD1999999-0011MW1021REMSYN088AAXX  05124 82784 21596 80000 10236 20209 39680 40149 70296 886// 333 20204 59001 60564;
0167827840999992001020518004-07310-039300FM-12+040999999V0200901N000510450019N0200001N1+02971+01991101061ADDAA199000091GF105991021021008001011001MA1999999096411MD1999999-0091REMSYN070AAXX  05184 82784 32598 50901 10297 20199 39641 40106 82210 333 59009;EQDQ01  00002PRCP99
0196827840999992001020600004-07310-039300FM-12+040999999V0209999C000012200019N0020001N1+02361+02211101371ADDAA199000091GA1001+999999999GF100991001001999999001001KA1240M+03091MA1999999096691MD1999999+0121REMSYN070AAXX  06004 82784 32995 00000 10236 20221 39669 40137 333 10309 58012;EQDQ01  00002PRCP99
0186827840999992001020612004-07310-039300FM-12+040999999V0203601N000510120019N0200001N1+02541+02061101491ADDAA199000091GF108991081081008001999999KA1240N+02181MA1999999096811MD1999999+0011REMSYN076AAXX  06124 82784 32598 83601 10254 20206 39681 40149 888// 333 20218 58001;EQDQ01  00002PRCP99
0167827840999992001020618004-07310-039300FM-12+040999999V0203601N002112200019N0200001N1+03051+02061101051ADDAA199000091GF102991021021008001001001MA1999999096411MD1999999+0001REMSYN070AAXX  06184 82784 32598 23604 10305 20206 39641 40105 82200 333 58000;EQDQ01  00002PRCP99
0202827840999992001020700004-07310-039300FM-12+040999999V0202301N001019999999N0020001N1+02461+02211101141ADDAA199000091GF107991999011008001001001KA1240M+03191MA1999999096481MD1999999-0211REMSYN076AAXX  07004 82784 32595 72302 10246 20221 39648 40114 82100 333 10319 59021;EQDQ01+000022SCOTLCQ02  00002PRCP99
0167827840999992001020718004-07310-039300FM-12+040999999V0203601N001512200019N0200001N1+03061+01901100961ADDAA199000091GF101991011011012501001001MA1999999096341MD1999999-0071REMSYN070AAXX  07184 82784 32698 13603 10306 20190 39634 40096 81100 333 59007;EQDQ01  00002PRCP99
0196827840999992001020800004-07310-039300FM-12+040999999V0201801N001512200019N0020001N1+02421+01991101141ADDAA199000091GA1001+999999999GF100991001001999999001001KA1240M+03211MA1999999096481MD1999999+0001REMSYN070AAXX  08004 82784 32995 01803 10242 20199 39648 40114 333 10321 58000;EQDQ01  00002PRCP99
0186827840999992001020812004-07310-039300FM-12+040999999V0202701N001510450019N0200001N1+02501+01891101411ADDAA199000091GF108991011011008001031999KA1240N+02081MA1999999096741MD1999999-0041REMSYN076AAXX  08124 82784 32598 82703 10250 20189 39674 40141 8113/ 333 20208 59004;EQDQ01  00002PRCP99
0167827840999992001020818004-07310-039300FM-12+040999999V0200501N001512200019N0200001N1+03141+02071100891ADDAA199000091GF102991021021008001001001MA1999999096261MD1999999-0081REMSYN070AAXX  08184 82784 32598 20503 10314 20207 39626 40089 82200 333 59008;EQDQ01  00002PRCP99
0196827840999992001020900004-07310-039300FM-12+040999999V0202701N001012200019N0020001N1+02541+02131100991ADDAA199000091GA1001+999999999GF100991001001999999001001KA1240M+03211MA1999999096341MD1999999-0141REMSYN070AAXX  09004 82784 32995 02702 10254 20213 39634 40099 333 10321 59014;EQDQ01  00002PRCP99
0201827840999992001020912004-07310-039300FM-12+040999999V0203601N001010120019N0005001N1+02481+02291101281ADDAA124019191AY161061AY241061GF108991081081008001999999KA1240N+02221MA1999999096621MD1999999-0121MW1441REMSYN088AAXX  09124 82784 21593 83602 10248 20229 39662 40128 74464 888// 333 20222 59012 60194;
0195827840999992001020918004-07310-039300FM-12+040999999V0200901N002612200019N0200001N1+03081+01881100801ADDAA199000091AY141061AY211061GF104991011011008001011001MA1999999096181MD1999999-0081MW1021REMSYN076AAXX  09184 82784 31598 40905 10308 20188 39618 40080 70241 81110 333 59008;EQDQ01  00002PRCP99
0186827840999992001021000004-07310-039300FM-12+040999999V0202301N000510150019N0020001N1+02321+01941101021ADDAA199000091GF106991061001017501011001KA1240M+03111MA1999999096361MD1999999+0031REMSYN076AAXX  10004 82784 32795 62301 10232 20194 39636 40102 86010 333 10311 58003;EQDQ01  00002PRCP99
0186827840999992001021012004-07310-039300FM-12+040999999V0203601N001010450019N0200001N1+02581+02191101251ADDAA199000091GF106991011021008001031001KA1240N+02141MA1999999096581MD1999999-0041REMSYN076AAXX  10124 82784 32598 63602 10258 20219 39658 40125 81230 333 20214 59004;EQDQ01  00002PRCP99
0167827840999992001021018004-07310-039300FM-12+040999999V0200901N002612200019N0200001N1+03151+01801100821ADDAA199000091GF103991011011008001011001MA1999999096201MD1999999+0021REMSYN070AAXX  10184 82784 32598 30905 10315 20180 39620 40082 81110 333 58002;EQDQ01  00002PRCP99
0202827840999992001021100004-07310-039300FM-12+040999999V0209999C000012200019N0020001N1+02441+02071101001ADDAA199000091GF101991999011017501001001KA1240M+03191MA1999999096351MD1999999-0011REMSYN076AAXX  11004 82784 32795 10000 10244 20207 39635 40100 82100 333 10319 59001;EQDQ01+000022SCOTLCQ02  00002PRCP99
0167827840999992001021118004-07310-039300FM-12+040999999V0203601N002112200019N0200001N1+03101+02061100921ADDAA199000091GF102991021021012501001001MA1999999096291MD1999999+0091REMSYN070AAXX  11184 82784 32698 23604 10310 20206 39629 40092 82200 333 58009;EQDQ01  00002PRCP99
0228827840999992001021200004-07310-039300FM-12+040999999V0202301N000512200019N0020001N1+02461+02171101111ADDAA199000091GA1001+999999999GF100991001001999999001001KA1240M+03141MA1999999999999MD1999999+0111REMSYN070AAXX  12004 82784 32995 02301 10246 20217 36946 40111 333 10314 58011;EQDQ01+069463APOSP Q02  00002PRCP99Q03 069463APOSP 
0201827840999992001021212004-07310-039300FM-12+040999999V0200501N001010120019N0040001N1+02441+02111101471ADDAA124006191AY161061AY251061GF107991071081008001001001KA1240N+02201MA1999999096791MD1999999+0061MW1021REMSYN088AAXX  12124 82784 21596 70502 10244 20211 39679 40147 70265 87800 333 20220 58006 60064;
0167827840999992001021218004-07310-039300FM-12+040999999V0200501N002110450019N0200001N1+02941+02111101051ADDAA199000091GF106991031021008001071001MA1999999096411MD1999999+0121REMSYN070AAXX  12184 82784 32598 60504 10294 20211 39641 40105 83270 333 58012;EQDQ01  00002PRCP99
0186827840999992001021300004-07310-039300FM-12+040999999V0201801N001012200019N0020001N1+02481+02341101191ADDAA199000091GF101991011021008001001001KA1240M+03091MA1999999096531MD1999999+0051REMSYN076AAXX  13004 82784 32595 11802 10248 20234 39653 40119 81200 333 10309 58005;EQDQ01  00002PRCP99
0201827840999992001021312004-07310-039300FM-12+040999999V0200501N000510075019N0020001N1+03221+02241101401ADDAA124007991AY191061AY261061GF108991081071008001999999KA1240N+02271MA1999999096721MD1999999-0071MW1211REMSYN088AAXX  13124 82784 21595 80501 10322 20224 39672 40140 72196 887// 333 20227 59007 60084;
0148827840999992001021318004-07310-039300FM-12+040999999V0200901N002112200019N0200001N1+02951+02051100911ADDAA199000021GF104991021021012501071001MA1999999096281MD1999999-0131REMSYN070AAXX  13184 82784 32698 40904 10295 20205 39628 40091 82270 333 59013;
0167827840999992001021400004-07310-039300FM-12+040999999V0201401N002112200019N0020001N1+02501+02071101051ADDAA199000021GF102991021021008001001001KA1240M+03021MA1999999096391MD1999999-0141REMSYN076AAXX  14004 82784 32595 21404 10250 20207 39639 40105 82200 333 10302 59014;
0201827840999992001021412004-07310-039300FM-12+040999999V0203601N000510075019N0040001N1+02331+02201101311ADDAA124001091AY191061AY251061GF108991081071008001999999KA1240N+02281MA1999999096641MD1999999-0081MW1021REMSYN088AAXX  14124 82784 21596 83601 10233 20220 39664 40131 70295 887// 333 20228 59008 60014;
0167827840999992001021418004-07310-039300FM-12+040999999V0202701N001010450019N0200001N1+02831+02051100901ADDAA199000091GF107991011021008001071001MA1999999096261MD1999999-0021REMSYN070AAXX  14184 82784 32598 72702 10283 20205 39626 40090 81270 333 59002;EQDQ01  00002PRCP99
0214827840999992001021500004-07310-039300FM-12+040999999V0202301N001012200019N0020001N1+02301+02111101061ADDAA199000091AY101061AY201061GF101991011021017501001001KA1240M+02901MA1999999096381MD1999999-0011MW1131REMSYN082AAXX  15004 82784 31795 12302 10230 20211 39638 40106 71300 81200 333 10290 59001;EQDQ01  00002PRCP99
0186827840999992001021512004-07310-039300FM-12+040999999V0201401N001012200019N0200001N1+02701+02011101381ADDAA199000091GF102991021021008001001001KA1240N+02151MA1999999096711MD1999999+0071REMSYN076AAXX  15124 82784 32598 21402 10270 20201 39671 40138 82200 333 20215 58007;EQDQ01  00002PRCP99
0168827840999992001021518004-07310-039300FM-12+040999999V0203601N002112200019N0200001N1+03181+01841100871ADDAA199000091GF102991021081012501001001MD1999999+0021REMSYN070AAXX  15184 82784 32698 23604 10318 20184 39424 40087 82800 333 58002;EQDQ01+094243APOSP Q02  00002PRCP99
0186827840999992001021600004-07310-039300FM-12+040999999V0202301N002110075019N0020001N1+02471+02041101051ADDAA199000091GF108991081061008001999999KA1240M+03251MA1999999096411MD1999999+0031REMSYN076AAXX  16004 82784 32595 82304 10247 20204 39641 40105 886// 333 10325 58003;EQDQ01  00002PRCP99
0186827840999992001021612004-07310-039300FM-12+040999999V0203601N000510075019N0200001N1+02521+02091101471ADDAA199000091GF108991081061008001999999KA1240N+02201MA1999999096801MD1999999+0091REMSYN076AAXX  16124 82784 32598 83601 10252 20209 39680 40147 886// 333 20220 58009;EQDQ01  00002PRCP99
0167827840999992001021618004-07310-039300FM-12+040999999V0200501N002112200019N0200001N1+03061+02081101021ADDAA199000091GF102991011021008001011001MA1999999096381MD1999999+0141REMSYN070AAXX  16184 82784 32598 20504 10306 20208 39638 40102 81210 333 58014;EQDQ01  00002PRCP99
0186827840999992001021700004-07310-039300FM-12+040999999V0200501N001010075019N0020001N1+02571+02111101171ADDAA199000091GF108991081071008001999999KA1240M+03151MA1999999096521MD1999999+0111REMSYN076AAXX  17004 82784 32595 80502 10257 20211 39652 40117 887// 333 10315 58011;EQDQ01  00002PRCP99
0186827840999992001021712004-07310-039300FM-12+040999999V0200501N001510075019N0200001N1+02641+02051101471ADDAA199000091GF108991081051008001999999KA1240N+02251MA1999999096811MD1999999+0011REMSYN076AAXX  17124 82784 32598 80503 10264 20205 39681 40147 885// 333 20225 58001;EQDQ01  00002PRCP99
0183827840999992001021718004-07310-039300FM-12+040999999V0200901N002112200019N0200001N1+03271+01801101031ADDAA199000091GF102991999021008001001001MA1999999096411MD1999999+0031REMSYN070AAXX  17184 82784 32598 20904 10327 20180 39641 40103 81200 333 58003;EQDQ01+000012SCOTLCQ02  00002PRCP99
0196827840999992001021800004-07310-039300FM-12+040999999V0202301N000512200019N0020001N1+02431+01881101301ADDAA199000091GA1001+999999999GF100991001001999999001001KA1240M+03311MA1999999096641MD1999999+0121REMSYN070AAXX  18004 82784 32995 02301 10243 20188 39664 40130 333 10331 58012;EQDQ01  00002PRCP99
0186827840999992001021812004-07310-039300FM-12+040999999V0200901N001510450019N0200001N1+02621+02051101631ADDAA199000091GF108991041081008001051999KA1240N+02341MA1999999096951MD1999999+0141REMSYN076AAXX  18124 82784 32598 80903 10262 20205 39695 40163 8485/ 333 20234 58014;EQDQ01  00002PRCP99
0167827840999992001021818004-07310-039300FM-12+040999999V0200901N001510450019N0200001N1+03001+01811101161ADDAA199000091GF108991021071012501021999MA1999999096521MD1999999+0111REMSYN070AAXX  18184 82784 32698 80903 10300 20181 39652 40116 8272/ 333 58011;EQDQ01  00002PRCP99
0186827840999992001021900004-07310-039300FM-12+040999999V0209999C000010075019N0020001N1+02481+02171101351ADDAA199000091GF108991081061008001999999KA1240M+03151MA1999999096691MD1999999+0051REMSYN076AAXX  19004 82784 32595 80000 10248 20217 39669 40135 886// 333 10315 58005;EQDQ01  00002PRCP99
0186827840999992001021912004-07310-039300FM-12+040999999V0200501N001010120019N0200001N1+02601+02101101561ADDAA199000091GF107991061081008001031001KA1240N+02281MA1999999096891MD1999999-0061REMSYN076AAXX  19124 82784 32598 70502 10260 20210 39689 40156 86830 333 20228 59006;EQDQ01  00002PRCP99
0167827840999992001021918004-07310-039300FM-12+040999999V0203601N003110120019N0200001N1+02931+02191101141ADDAA199000091GF108991081081008001999999MA1999999096501MD1999999-0021REMSYN070AAXX  19184 82784 32598 83606 10293 20219 39650 40114 888// 333 59002;EQDQ01  00002PRCP99
0186827840999992001022012004-07310-039300FM-12+040999999V0203601N001010120019N0200001N1+02671+02041101481ADDAA199000091GF108991081081008001999999KA1240N+02261MA1999999096821MD1999999-0071REMSYN076AAXX  20124 82784 32598 83602 10267 20204 39682 40148 888// 333 20226 59007;EQDQ01  00002PRCP99
0167827840999992001022018004-07310-039300FM-12+040999999V0203601N002110120019N0200001N1+03081+02011101021ADDAA199000091GF106991051081008001031001MA1999999096391MD1999999-0111REMSYN070AAXX  20184 82784 32598 63604 10308 20201 39639 40102 85830 333 59011;EQDQ01  00002PRCP99
0196827840999992001022100004-07310-039300FM-12+040999999V0201401N000512200019N0020001N1+02461+02151101131ADDAA199000091GA1001+999999999GF100991001001999999001001KA1240M+03151MA1999999096481MD1999999-0181REMSYN070AAXX  21004 82784 32995 01401 10246 20215 39648 40113 333 10315 59018;EQDQ01  00002PRCP99
0201827840999992001022112004-07310-039300FM-12+040999999V0200501N001010075019N0040001N1+02581+02081101391ADDAA124000191AY151061AY211061GF108991081071008001999999KA1240N+02361MA1999999096721MD1999999-0101MW1021REMSYN088AAXX  21124 82784 21596 80502 10258 20208 39672 40139 70251 887// 333 20236 59010 69924;
0167827840999992001022118004-07310-039300FM-12+040999999V0200901N001510450019N0200001N1+03011+02001100941ADDAA199000091GF107991011021008001021001MA1999999096311MD1999999-0081REMSYN070AAXX  21184 82784 32598 70903 10301 20200 39631 40094 81220 333 59008;EQDQ01  00002PRCP99
0196827840999992001022200004-07310-039300FM-12+040999999V0203201N000512200019N0020001N1+02441+02191101051ADDAA199000091GA1001+999999999GF100991001001999999001001KA1240M+03081MA1999999096401MD1999999-0081REMSYN070AAXX  22004 82784 32995 03201 10244 20219 39640 40105 333 10308 59008;EQDQ01  00002PRCP99
0186827840999992001022212004-07310-039300FM-12+040999999V0200901N002610450019N0200001N1+02761+01911101371ADDAA199000091GF106991021021008001011001KA1240N+02281MA1999999096711MD1999999-0011REMSYN076AAXX  22124 82784 32598 60905 10276 20191 39671 40137 82210 333 20228 59001;EQDQ01  00002PRCP99
0167827840999992001022218004-07310-039300FM-12+040999999V0200901N002111050019N0200001N1+03271+01761100911ADDAA199000091GF105991021021008001001021MA1999999096291MD1999999-0021REMSYN070AAXX  22184 82784 32598 50904 10327 20176 39629 40091 82202 333 59002;EQDQ01  00002PRCP99
0202827840999992001022300004-07310-039300FM-12+040999999V0209999C000019999999N0020001N1+02601+02101101041ADDAA199000091GF107991999021008001001001KA1240M+03311MA1999999096411MD1999999+0011REMSYN076AAXX  23004 82784 32595 70000 10260 20210 39641 40104 84200 333 10331 58001;EQDQ01+000042SCOTLCQ02  00002PRCP99
0186827840999992001022312004-07310-039300FM-12+040999999V0200901N001510450019N0200001N1+02661+02001101371ADDAA199000091GF108991011021008001021999KA1240N+02381MA1999999096721MD1999999+0011REMSYN076AAXX  23124 82784 32598 80903 10266 20200 39672 40137 8122/ 333 20238 58001;EQDQ01  00002PRCP99
0167827840999992001022318004-07310-039300FM-12+040999999V0200901N001510450019N0200001N1+03121+01821100961ADDAA199000091GF108991021021012501021999MA1999999096341MD1999999+0051REMSYN070AAXX  23184 82784 32698 80903 10312 20182 39634 40096 8222/ 333 58005;EQDQ01  00002PRCP99
0196827840999992001022400004-07310-039300FM-12+040999999V0200901N001512200019N0020001N1+02601+01601101141ADDAA199000091GA1001+999999999GF100991001001999999001001KA1240M+03201MA1999999096501MD1999999+0091REMSYN070AAXX  24004 82784 32995 00903 10260 20160 39650 40114 333 10320 58009;EQDQ01  00002PRCP99
0186827840999992001022412004-07310-039300FM-12+040999999V0201401N003611050019N0200001N1+02711+01751101301ADDAA199000091GF105991011011008001031021KA1240N+02221MA1999999096651MD1999999-0071REMSYN076AAXX  24124 82784 32598 51407 10271 20175 39665 40130 81132 333 20222 59007;EQDQ01  00002PRCP99
0167827840999992001022418004-07310-039300FM-12+040999999V0201401N002110450019N0200001N1+03071+01771100901ADDAA199000091GF108991011011008001011001MA1999999096271MD1999999-0071REMSYN070AAXX  24184 82784 32598 81404 10307 20177 39627 40090 81110 333 59007;EQDQ01  00002PRCP99
0196827840999992001022500004-07310-039300FM-12+040999999V0202701N000512200019N0020001N1+02351+01891101061ADDAA199000091GA1001+999999999GF100991001001999999001001KA1240M+03171MA1999999096411MD1999999-0091REMSYN070AAXX  25004 82784 32595 02701 10235 20189 39641 40106 333 10317 59009;EQDQ01  00002PRCP99
0186827840999992001022512004-07310-039300FM-12+040999999V0200901N001510450019N0200001N1+02741+02001101181ADDAA199000091GF108991031021008001071091KA1240N+02161MA1999999096531MD1999999-0121REMSYN076AAXX  25124 82784 32598 80903 10274 20200 39653 40118 83279 333 20216 59012;EQDQ01  00002PRCP99
0167827840999992001022518004-07310-039300FM-12+040999999V0200901N002112200019N0200001N1+03301+01981100681ADDAA199000091GF103991011021012501021091MA1999999096971MD1999999-0201REMSYN070AAXX  25184 82784 32698 30904 10330 20198 39697 40068 81229 333 59020;EQDQ01  00002PRCP99
0196827840999992001022600004-07310-039300FM-12+040999999V0201401N001012200019N0020001N1+02741+01811100871ADDAA199000091GA1001+999999999GF100991001001999999001001KA1240M+03371MA1999999096251MD1999999-0161REMSYN070AAXX  26004 82784 32995 01402 10274 20181 39625 40087 333 10337 59016;EQDQ01  00002PRCP99
0186827840999992001022612004-07310-039300FM-12+040999999V0200501N002111050019N0200001N1+02661+02091101191ADDAA199000091GF108991021021008001001071KA1240N+02321MA1999999096551MD1999999+0011REMSYN076AAXX  26124 82784 32598 80504 10266 20209 39655 40119 82207 333 20232 58001;EQDQ01  00002PRCP99
0167827840999992001022618004-07310-039300FM-12+040999999V0203601N002110450019N0200001N1+02941+01881100811ADDAA199000091GF107991011021008001021001MA1999999096191MD1999999+0121REMSYN070AAXX  26184 82784 32598 73604 10294 20188 39619 40081 81220 333 58012;EQDQ01  00002PRCP99
0196827840999992001022700004-07310-039300FM-12+040999999V0202701N000512200019N0200001N1+02481+02171100991ADDAA199000091GA1001+999999999GF100991001001999999001001KA1240M+03031MA1999999096351MD1999999+0101REMSYN070AAXX  27004 82784 32998 02701 10248 20217 39635 40099 333 10303 58010;EQDQ01  00002PRCP99
0201827840999992001022712004-07310-039300FM-12+040999999V0209999C000010075019N0040001N1+02391+02191101341ADDAA124000591AY151061AY211061GF108991081071008001999999KA1240N+02301MA1999999096671MD1999999+0121MW1021REMSYN088AAXX  27124 82784 21596 80000 10239 20219 39667 40134 70251 887// 333 20230 58012 69954;
0182827840999992001022718004-07310-039300FM-12+040999999V0200501N002110450019N0200001N1+03001+02081100951ADDAA106001091AY161061AY221061GF108991031021012501071091MA1999999096321MD1999999+0131MW1021REMSYN082AAXX  27184 82784 21698 80504 10300 20208 39632 40095 70262 83279 333 58013 60011;
0196827840999992001022800004-07310-039300FM-12+040999999V0209999C000512200019N0020001N1+02401+02171101131ADDAA199000091GA1001+999999999GF100991001001999999001001KA1240M+03091MA1999999096461MD1999999+0101REMSYN070AAXX  28004 82784 32995 00001 10240 20217 39646 40113 333 10309 58010;EQDQ01  00002PRCP99
0173827840999992001022812004-07310-039300FM-12+040999999V0201401N001510075019N0200001N1+02461+02191101401ADDAA124001091GF108991081071008001999999KA1240N+02261MA1999999096731MD1999999+0061REMSYN082AAXX  28124 82784 22598 81403 10246 20219 39673 40140 887// 333 20226 58006 60014;
0195827840999992001022818004-07310-039300FM-12+040999999V0203201N003110450019N0200001N1+02831+02241100931ADDAA199000091AY121061AY221061GF108991041081008001021999MA1999999096291MD1999999+0031MW1171REMSYN076AAXX  28184 82784 31598 83206 10283 20224 39629 40093 71722 8482/ 333 58003;EQDQ01  00002PRCP99
0213827840999992001030100004-07310-039300FM-12+040999999V0203201N001010075019N0020001N1+02411+02231101291ADDAA106001091AY161061AY221061GF108991081051008001999999KA1240M+03031MA1999999096621MD1999999-0041MW1021REMSYN100AAXX  01004 82784 21595 83202 10241 20223 39662 40129 70262 885// 333 10303 29084 55030 59004 60011;
0201827840999992001030112004-07310-039300FM-12+040999999V0200901N001010450019N0200001N1+02441+02191101321ADDAA124002091AY161061AY221061GF108991011021008001071999KA1240N+02181MA1999999096651MD1999999+0031MW1021REMSYN088AAXX  01124 82784 21598 80902 10244 20219 39665 40132 70262 8127/ 333 20218 58003 60024;
0167827840999992001030118004-07310-039300FM-12+040999999V0200501N001510450019N0200001N1+03101+02121100901ADDAA199000091GF108991041081012501071091MA1999999096271MD1999999-0021REMSYN070AAXX  01184 82784 32698 80503 10310 20212 39627 40090 84879 333 59002;EQDQ01  00002PRCP99
0213827840999992001030200004-07310-039300FM-12+040999999V0202301N004110042019N0005001N1+02181+02111101221ADDAA106018091AY191061AY261061GF108991081071004501999999KA1240M+03211MA1999999096541MD1999999-0081MW1951REMSYN100AAXX  02004 82784 21493 82308 10218 20211 39654 40122 79596 887// 333 10321 29084 55027 59008 60181;
0201827840999992001030212004-07310-039300FM-12+040999999V0201401N002110450019N0200001N1+02581+02061101431ADDAA124048091AY191061AY261061GF106991011011008001021001KA1240N+02101MA1999999096751MD1999999+0101MW1011REMSYN088AAXX  02124 82784 21598 61404 10258 20206 39675 40143 70196 81120 333 20210 58010 60484;
0167827840999992001030218004-07310-039300FM-12+040999999V0200901N001012200019N0200001N1+03101+02061101071ADDAA199000091GF104991021021008001071001MA1999999096431MD1999999+0161REMSYN070AAXX  02184 82784 32598 40902 10310 20206 39643 40107 82270 333 58016;EQDQ01  00002PRCP99
0213827840999992001030300004-07310-039300FM-12+040999999V0203601N001010075019N0020001N1+02261+02141101451ADDAA106019191AY191061AY261061GF108991081051008001999999KA1240M+03191MA1999999096771MD1999999+0231MW1021REMSYN100AAXX  03004 82784 21595 83602 10226 20214 39677 40145 70296 885// 333 10319 29078 55069 58023 60191;
0173827840999992001030312004-07310-039300FM-12+040999999V0200901N002112200019N0200001N1+02701+02011101581ADDAA124019191GF101991011021008001001001KA1240N+02101MA1999999096901MD1999999+0151REMSYN082AAXX  03124 82784 22598 10904 10270 20201 39690 40158 81200 333 20210 58015 60194;
0167827840999992001030318004-07310-039300FM-12+040999999V0203601N001512200019N0200001N1+03041+02001101251ADDAA199000091GF102991021021008001001001MA1999999096601MD1999999+0171REMSYN070AAXX  03184 82784 32598 23603 10304 20200 39660 40125 82200 333 58017;EQDQ01  00002PRCP99
0208827840999992001030400004-07310-039300FM-12+040999999V0201801N000512200019N0020001N1+02371+02151101301ADDAA199000091GA1001+999999999GF100991001001999999001001KA1240M+03131MA1999999096641MD1999999-0131REMSYN082AAXX  04004 82784 32995 01801 10237 20215 39664 40130 333 10313 29074 55106 59013;EQDQ01  00002PRCP99
0186827840999992001030412004-07310-039300FM-12+040999999V0200501N002112200019N0020001N1+02721+01931101561ADDAA199000091GF101991011011008001001001KA1240N+02191MA1999999096891MD1999999-0011REMSYN076AAXX  04124 82784 32595 10504 10272 20193 39689 40156 81100 333 20219 59001;EQDQ01  00002PRCP99
0167827840999992001030418004-07310-039300FM-12+040999999V0200501N003112200019N0200001N1+03161+01861101101ADDAA199000091GF101991011011012501001001MA1999999096461MD1999999-0141REMSYN070AAXX  04184 82784 32698 10506 10316 20186 39646 40110 81100 333 59014;EQDQ01  00002PRCP99
0198827840999992001030500004-07310-039300FM-12+040999999V0202301N000510450019N0020001N1+02501+02131101241ADDAA199000091GF107991031081008001051001KA1240M+03211MA1999999096591MD1999999-0051REMSYN088AAXX  05004 82784 32595 72301 10250 20213 39659 40124 83850 333 10321 29067 55110 59005;EQDQ01  00002PRCP99
0186827840999992001030512004-07310-039300FM-12+040999999V0203201N001510075019N0200001N1+02761+02191101461ADDAA199000091GF107991071021008001001001KA1240N+02241MA1999999096801MD1999999-0091REMSYN076AAXX  05124 82784 32598 73203 10276 20219 39680 40146 87200 333 20224 59009;EQDQ01  00002PRCP99
0167827840999992001030518004-07310-039300FM-12+040999999V0200501N002112200019N0200001N1+03141+02071101021ADDAA199000091GF102991011021008001011001MA1999999096391MD1999999-0071REMSYN070AAXX  05184 82784 32598 20504 10314 20207 39639 40102 81210 333 59007;EQDQ01  00002PRCP99
0198827840999992001030600004-07310-039300FM-12+040999999V0202301N000512200019N0020001N1+02511+02251101211ADDAA199000091GF102991021021008001001001KA1240M+03311MA1999999096561MD1999999-0031REMSYN088AAXX  06004 82784 32595 22301 10251 20225 39656 40121 82200 333 10331 29074 55093 59003;EQDQ01  00002PRCP99
0186827840999992001030612004-07310-039300FM-12+040999999V0200901N002112200019N0200001N1+02711+02011101571ADDAA199000091GF104991011011008001001011KA1240N+02201MA1999999096901MD1999999+0101REMSYN076AAXX  06124 82784 32598 40904 10271 20201 39690 40157 81101 333 20220 58010;EQDQ01  00002PRCP99
0167827840999992001030618004-07310-039300FM-12+040999999V0203601N001511050019N0200001N1+03081+01921101271ADDAA199000091GF106991011011008001071041MA1999999096531MD1999999+0141REMSYN070AAXX  06184 82784 32598 63603 10308 20192 39653 40127 81174 333 58014;EQDQ01  00002PRCP99
0198827840999992001030700004-07310-039300FM-12+040999999V0201801N000510075019N0020001N1+02371+02091101271ADDAA199000091GF108991081051008001999999KA1240M+03151MA1999999096611MD1999999+0051REMSYN088AAXX  07004 82784 32595 81801 10237 20209 39661 40127 885// 333 10315 29074 55088 58005;EQDQ01  00002PRCP99
0186827840999992001030712004-07310-039300FM-12+040999999V0200901N002612200019N0200001N1+02761+01751101711ADDAA199000091GF103991011021008001071001KA1240N+02051MA1999999097031MD1999999+0131REMSYN076AAXX  07124 82784 32598 30905 10276 20175 39703 40171 81270 333 20205 58013;EQDQ01  00002PRCP99
0167827840999992001030718004-07310-039300FM-12+040999999V0200501N002612200019N0200001N1+03161+01861101271ADDAA199000091GF103991011011008001001021MA1999999096601MD1999999+0071REMSYN070AAXX  07184 82784 32598 30505 10316 20186 39660 40127 81102 333 58007;EQDQ01  00002PRCP99
0198827840999992001030800004-07310-039300FM-12+040999999V0200501N000510120019N0020001N1+02361+02071101431ADDAA199000091GF108991081081008001999999KA1240M+03201MA1999999096761MD1999999+0151REMSYN088AAXX  08004 82784 32595 80501 10236 20207 39676 40143 888// 333 10320 29067 55096 58015;EQDQ01  00002PRCP99
0186827840999992001030812004-07310-039300FM-12+040999999V0200901N001510450019N0200001N1+02801+01981101551ADDAA199000091GF106991011011008001011001KA1240N+02221MA1999999096881MD1999999-0151REMSYN076AAXX  08124 82784 32598 60903 10280 20198 39688 40155 81110 333 20222 59015;EQDQ01  00002PRCP99
0167827840999992001030818004-07310-039300FM-12+040999999V0203601N001510450019N0200001N1+03051+02031101141ADDAA199000091GF106991011021008001071001MA1999999096501MD1999999-0101REMSYN070AAXX  08184 82784 32598 63603 10305 20203 39650 40114 81270 333 59010;EQDQ01  00002PRCP99
0214827840999992001030900004-07310-039300FM-12+040999999V0209999C000019999999N0020001N1+02521+02271101261ADDAA199000091GF108991999011008001001001KA1240M+03171MA1999999096611MD1999999-0151REMSYN088AAXX  09004 82784 32595 80000 10252 20227 39661 40126 82100 333 10317 29072 55079 59015;EQDQ01+000022SCOTLCQ02  00002PRCP99
0201827840999992001030912004-07310-039300FM-12+040999999V0200901N000510450019N0200001N1+02421+01991101591ADDAA124022191AY191061AY261061GF105991021081008001071001KA1240N+02021MA1999999096821MD1999999-0041MW1021REMSYN088AAXX  09124 82784 21598 50901 10242 20199 39682 40159 70296 82870 333 20202 59004 60224;
0167827840999992001030918004-07310-039300FM-12+040999999V0200501N001510120019N0200001N1+02951+02111100961ADDAA199000091GF107991051051012501031001MA1999999096331MD1999999-0171REMSYN070AAXX  09184 82784 32698 70503 10295 20211 39633 40096 85530 333 59017;EQDQ01  00002PRCP99
0198827840999992001031000004-07310-039300FM-12+040999999V0200901N000510120019N0020001N1+02441+02271101281ADDAA199000091GF106991061081008001001001KA1240M+03061MA1999999096611MD1999999+0001REMSYN088AAXX  10004 82784 32595 60901 10244 20227 39661 40128 86800 333 10306 29080 55077 58000;EQDQ01  00002PRCP99
0201827840999992001031012004-07310-039300FM-12+040999999V0200501N001510075019N0200001N1+02561+02131101381ADDAA124009991AY161061AY221061GF106991061021008001001001KA1240N+02181MA1999999096711MD1999999-0131MW1011REMSYN088AAXX  10124 82784 21598 60503 10256 20213 39671 40138 70162 86200 333 20218 59013 60104;
0183827840999992001031018004-07310-039300FM-12+040999999V0200501N001019999999N0200001N1+03021+02161100911ADDAA199000091GF106991999021008001001001MA1999999096271MD1999999-0061REMSYN070AAXX  10184 82784 32598 60502 10302 20216 39627 40091 84200 333 59006;EQDQ01+000042SCOTLCQ02  00002PRCP99
0178827840999992001031100004-07310-039300FM-12+040999999V0209999C000010075019N0020001N1+02471+02361101191ADDAA199000091GF108991081051008001999999KA1240M+03071MA1999999096531REMSYN082AAXX  11004 82784 32595 80000 10247 20236 39653 40119 885// 333 10307 29081 55072;EQDQ01  00002PRCP99
0201827840999992001031112004-07310-039300FM-12+040999999V0201401N000510075019N0040001N1+02491+02151101441ADDAA124015091AY191061AY261061GF108991061071008001021999KA1240N+02161MA1999999096771MD1999999+0061MW1021REMSYN088AAXX  11124 82784 21596 81401 10249 20215 39677 40144 70296 8672/ 333 20216 58006 60154;
0167827840999992001031118004-07310-039300FM-12+040999999V0203601N001010450019N0200001N1+02861+02211100941ADDAA199000091GF108991011081012501021999MA1999999096301MD1999999+0031REMSYN070AAXX  11184 82784 32698 83602 10286 20221 39630 40094 8182/ 333 58003;EQDQ01  00002PRCP99
0198827840999992001031200004-07310-039300FM-12+040999999V0209999C000012200019N0020001N1+02371+02141101271ADDAA199000091GF101991011071008001001001KA1240M+02911MA1999999096601MD1999999+0071REMSYN088AAXX  12004 82784 32595 10000 10237 20214 39660 40127 81700 333 10291 29084 55017 58007;EQDQ01  00002PRCP99
0201827840999992001031212004-07310-039300FM-12+040999999V0202301N000510075019N0040001N1+02391+02191101511ADDAA124002091AY161061AY211061GF108991081071008001999999KA1240N+02261MA1999999096831MD1999999+0061MW1021REMSYN088AAXX  12124 82784 21596 82301 10239 20219 39683 40151 70261 887// 333 20226 58006 60024;
0213827840999992001031300004-07310-039300FM-12+040999999V0203201N001510075019N0005001N1+02121+02051101331ADDAA106023191AY191061AY261061GF108991081051008001999999KA1240M+03011MA1999999096831MD1999999+0231MW1951REMSYN100AAXX  13004 82784 21593 83203 10212 20205 39683 40133 79596 885// 333 10301 29089 55029 58023 60231;
0201827840999992001031312004-07310-039300FM-12+040999999V0201801N000510075019N0010001N1+02431+02031101521ADDAA124025991AY191061AY261061GF108991081061008001999999KA1240N+02141MA1999999096831MD1999999+0001MW1421REMSYN088AAXX  13124 82784 21594 81801 10243 20203 39683 40152 74296 886// 333 20214 58000 60264;
0167827840999992001031318004-07310-039300FM-12+040999999V0200501N001510450019N0200001N1+02801+02031101031ADDAA199000091GF106991021021012501071091MA1999999096381MD1999999-0031REMSYN070AAXX  13184 82784 32698 60503 10280 20203 39638 40103 82279 333 59003;EQDQ01  00002PRCP99
0213827840999992001031400004-07310-039300FM-12+040999999V0201401N004610042019N0010001N1+02021+01921101471ADDAA106004191AY121061AY221061GF108991081071004501999999KA1240M+03021MA1999999096771MD1999999-0061MW1951REMSYN100AAXX  14004 82784 21494 81409 10202 20192 39677 40147 79522 887// 333 10302 29082 55044 59006 60041;
0201827840999992001031412004-07310-039300FM-12+040999999V0203601N000510075019N0200001N1+02281+02071101431ADDAA124016091AY191061AY261061GF108991081071008001999999KA1240N+02001MA1999999096721MD1999999-0111MW1021REMSYN088AAXX  14124 82784 21598 83601 10228 20207 39672 40143 70296 887// 333 20200 59011 60164;
0182827840999992001031418004-07310-039300FM-12+040999999V0203601N001010450019N0200001N1+02691+02221101011ADDAA106002091AY161061AY221061GF108991041081008001031041MA1999999096341MD1999999-0041MW1021REMSYN082AAXX  14184 82784 21598 83602 10269 20222 39634 40101 70262 84834 333 59004 60021;
0198827840999992001031500004-07310-039300FM-12+040999999V0200501N000510120019N0020001N1+02321+02121101261ADDAA199000091GF107991071081008001001001KA1240M+02831MA1999999096581MD1999999-0191REMSYN088AAXX  15004 82784 32595 70501 10232 20212 39658 40126 87800 333 10283 29088 55016 59019;EQDQ01  00002PRCP99
0201827840999992001031512004-07310-039300FM-12+040999999V0200501N000510075019N0100001N1+02321+02091101491ADDAA124034091AY161061AY221061GF108991081061008001999999KA1240N+02041MA1999999096801MD1999999+0081MW1021REMSYN088AAXX  15124 82784 21597 80501 10232 20209 39680 40149 70262 886// 333 20204 58008 60344;
0167827840999992001031518004-07310-039300FM-12+040999999V0200501N002610450019N0200001N1+02851+02051101051ADDAA199000091GF108991041081012501021999MA1999999096391MD1999999+0051REMSYN070AAXX  15184 82784 32698 80505 10285 20205 39639 40105 8482/ 333 58005;EQDQ01  00002PRCP99
0213827840999992001031600004-07310-039300FM-12+040999999V0203201N001010120019N0020001N1+02201+02131101321ADDAA106005191AY161061AY221061GF107991071081008001001001KA1240M+02891MA1999999096631MD1999999+0051MW1021REMSYN100AAXX  16004 82784 21595 73202 10220 20213 39663 40132 70262 87800 333 10289 29086 55046 58005 60051;
0173827840999992001031612004-07310-039300FM-12+040999999V0200901N001510450019N0200001N1+02511+02151101541ADDAA124005191GF106991041081008001031001KA1240N+02181MA1999999096851MD1999999+0051REMSYN082AAXX  16124 82784 22598 60903 10251 20215 39685 40154 84830 333 20218 58005 60054;
0167827840999992001031618004-07310-039300FM-12+040999999V0200501N002112200019N0200001N1+03031+01921101121ADDAA199000091GF102991011021008001001011MA1999999096471MD1999999+0081REMSYN070AAXX  16184 82784 32598 20504 10303 20192 39647 40112 81201 333 58008;EQDQ01  00002PRCP99
0198827840999992001031700004-07310-039300FM-12+040999999V0209999C000012200019N0020001N1+02301+02111101411ADDAA199000091GF102991021011008001001001KA1240M+03071MA1999999096731MD1999999+0101REMSYN088AAXX  17004 82784 32595 20000 10230 20211 39673 40141 82100 333 10307 29078 55082 58010;EQDQ01  00002PRCP99
0186827840999992001031712004-07310-039300FM-12+040999999V0203601N000510075019N0200001N1+02561+02151101471ADDAA199000091GF107991071021008001001001KA1240N+02121MA1999999096791MD1999999-0061REMSYN076AAXX  17124 82784 32598 73601 10256 20215 39679 40147 87200 333 20212 59006;EQDQ01  00002PRCP99
0167827840999992001031718004-07310-039300FM-12+040999999V0203601N001512200019N0200001N1+03061+01991101041ADDAA199000091GF102991021021008001001001MA1999999096401MD1999999-0071REMSYN070AAXX  17184 82784 32598 23603 10306 20199 39640 40104 82200 333 59007;EQDQ01  00002PRCP99
0208827840999992001031800004-07310-039300FM-12+040999999V0203201N000512200019N0020001N1+02381+02211101281ADDAA199000091GA1001+999999999GF100991001001999999001001KA1240M+03171MA1999999096611MD1999999-0121REMSYN082AAXX  18004 82784 32995 03201 10238 20221 39661 40128 333 10317 29078 55093 59012;EQDQ01  00002PRCP99
0186827840999992001031812004-07310-039300FM-12+040999999V0203601N001010120019N0200001N1+02561+02011101351ADDAA199000091GF108991081081008001999999KA1240N+02131MA1999999096681MD1999999-0111REMSYN076AAXX  18124 82784 32598 83602 10256 20201 39668 40135 888// 333 20213 59011;EQDQ01  00002PRCP99
0167827840999992001031818004-07310-039300FM-12+040999999V0200901N001010450019N0200001N1+02961+02151100871ADDAA199000091GF108991031081012501021061MA1999999096231MD1999999-0171REMSYN070AAXX  18184 82784 32698 80902 10296 20215 39623 40087 83826 333 59017;EQDQ01  00002PRCP99
0226827840999992001031900004-07310-039300FM-12+040999999V0202301N001010120019N0020001N1+02421+02251101241ADDAA199000091AY121061AY221061GF107991071081008001001001KA1240M+03121MA1999999096581MD1999999-0131MW1171REMSYN094AAXX  19004 82784 31595 72302 10242 20225 39658 40124 71722 87800 333 10312 29079 55060 59013;EQDQ01  00002PRCP99
0201827840999992001031912004-07310-039300FM-12+040999999V0202701N001010450019N0200001N1+02441+02071101391ADDAA124045091AY191061AY261061GF105991011011008001031001KA1240N+01961MA1999999096721MD1999999+0041MW1011REMSYN088AAXX  19124 82784 21598 52702 10244 20207 39672 40139 70196 81130 333 20196 58004 60454;
0167827840999992001031918004-07310-039300FM-12+040999999V0203601N001510450019N0200001N1+02821+02101100951ADDAA199000091GF106991021021008001071001MA1999999096301MD1999999+0071REMSYN070AAXX  19184 82784 32598 63603 10282 20210 39630 40095 82270 333 58007;EQDQ01  00002PRCP99
0208827840999992001032000004-07310-039300FM-12+040999999V0209999C000012200019N0020001N1+02321+02221101231ADDAA199000091GA1001+999999999GF100991001001999999001001KA1240M+02911MA1999999096561MD1999999-0021REMSYN082AAXX  20004 82784 32995 00000 10232 20222 39656 40123 333 10291 29083 55050 59002;EQDQ01  00002PRCP99
0201827840999992001032012004-07310-039300FM-12+040999999V0201401N001510120019N0040001N1+02371+02201101601ADDAA124002091AY121061AY221061GF107991071081008001001001KA1240N+02151MA1999999096911MD1999999+0191MW1211REMSYN088AAXX  20124 82784 21596 71403 10237 20220 39691 40160 72122 87800 333 20215 58019 60024;
0148827840999992001032018004-07310-039300FM-12+040999999V0200501N002111050019N0200001N1+02951+02191101181ADDAA199000021GF107991021021008001001021MA1999999096531MD1999999+0231REMSYN070AAXX  20184 82784 32598 70504 10295 20219 39653 40118 82202 333 58023;
0189827840999992001032100004-07310-039300FM-12+040999999V0202301N001012200019N0020001N1+02341+02241101381ADDAA199000021GA1001+999999999GF100991001001999999001001KA1240M+03001MA1999999096701MD1999999+0141REMSYN082AAXX  21004 82784 32995 02302 10234 20224 39670 40138 333 10300 29086 55054 58014;
0202827840999992001032112004-07310-039300FM-12+040999999V0200501N001510075019N0200001N1+02661+02181101501ADDAA199000091GF108991999021008001001001KA1240N+02171MA1999999096831MD1999999-0081REMSYN076AAXX  21124 82784 32598 80503 10266 20218 39683 40150 87200 333 20217 59008;EQDQ01+000072SCOTLCQ02  00002PRCP99
0167827840999992001032118004-07310-039300FM-12+040999999V0201401N001510450019N0200001N1+03121+02021101031ADDAA199000091GF106991041021008001071001MA1999999096391MD1999999+0141REMSYN070AAXX  21184 82784 32598 61403 10312 20202 39639 40103 84270 333 58014;EQDQ01  00002PRCP99
0173827840999992001032212004-07310-039300FM-12+040999999V0201401N002110120019N0200001N1+02541+02021101321ADDAA124000591GF108991081081008001999999KA1240N+02371MA1999999096661MD1999999-0171REMSYN082AAXX  22124 82784 22598 81404 10254 20202 39666 40132 888// 333 20237 59017 69964;
0167827840999992001032218004-07310-039300FM-12+040999999V0201401N003610450019N0200001N1+02901+02041100921ADDAA199000091GF105991041021008001061001MA1999999096291MD1999999-0101REMSYN070AAXX  22184 82784 32598 51407 10290 20204 39629 40092 84260 333 59010;EQDQ01  00002PRCP99
0198827840999992001032300004-07310-039300FM-12+040999999V0201401N000512200019N0020001N1+02361+02241101071ADDAA199000091GF102991021011008001001001KA1240M+03031MA1999999096411MD1999999-0201REMSYN088AAXX  23004 82784 32595 21401 10236 20224 39641 40107 82100 333 10303 29080 55083 59020;EQDQ01  00002PRCP99
0186827840999992001032312004-07310-039300FM-12+040999999V0200501N002110075019N0200001N1+02751+02101101281ADDAA199000091GF106991051021008001061001KA1240N+02161MA1999999096621MD1999999-0041REMSYN076AAXX  23124 82784 32598 60504 10275 20210 39662 40128 85260 333 20216 59004;EQDQ01  00002PRCP99
0167827840999992001032318004-07310-039300FM-12+040999999V0200901N003110450019N0200001N1+02981+01921100851ADDAA199000091GF108991031021012501021061MA1999999096211MD1999999-0081REMSYN070AAXX  23184 82784 32698 80906 10298 20192 39621 40085 83226 333 59008;EQDQ01  00002PRCP99
0208827840999992001032400004-07310-039300FM-12+040999999V0202301N000512200019N0020001N1+02281+01981101161ADDAA199000091GA1001+999999999GF100991001001999999001001KA1240M+03041MA1999999096501MD1999999+0091REMSYN082AAXX  24004 82784 32995 02301 10228 20198 39650 40116 333 10304 29072 55082 58009;EQDQ01  00002PRCP99
0186827840999992001032412004-07310-039300FM-12+040999999V0200501N001510075019N0200001N1+02711+02061101291ADDAA199000091GF106991061021008001001001KA1240N+02041MA1999999096631MD1999999+0011REMSYN076AAXX  24124 82784 32598 60503 10271 20206 39663 40129 86200 333 20204 58001;EQDQ01  00002PRCP99
0167827840999992001032418004-07310-039300FM-12+040999999V0200901N002612200019N0200001N1+03141+01971100981ADDAA199000091GF101991011021008001001001MA1999999096341MD1999999+0131REMSYN070AAXX  24184 82784 32598 10905 10314 20197 39634 40098 81200 333 58013;EQDQ01  00002PRCP99
0208827840999992001032500004-07310-039300FM-12+040999999V0201801N000512200019N0020001N1+02281+02031101271ADDAA199000091GA1001+999999999GF100991001001999999001001KA1240M+03161MA1999999096611MD1999999+0111REMSYN082AAXX  25004 82784 32995 01801 10228 20203 39661 40127 333 10316 29072 55000 58011;EQDQ01  00002PRCP99
0201827840999992001032512004-07310-039300FM-12+040999999V0209999C000010120019N0040001N1+02321+02241101511ADDAA124001091AY121061AY221061GF108991081081008001999999KA1240N+02101MA1999999096821MD1999999+0191MW1611REMSYN088AAXX  25124 82784 21596 80000 10232 20224 39682 40151 76122 888// 333 20210 58019 60014;
0148827840999992001032518004-07310-039300FM-12+040999999V0203601N001510150019N0200001N1+02901+01701101091ADDAA199000021GF108991061081012501021999MA1999999096441MD1999999+0101REMSYN070AAXX  25184 82784 32698 83603 10290 20170 39644 40109 8682/ 333 58010;
0189827840999992001032600004-07310-039300FM-12+040999999V0209999C000012200019N0020001N1+02401+02301101331ADDAA199000021GA1001+999999999GF100991001001999999001001KA1240M+03051MA1999999096651MD1999999+0041REMSYN082AAXX  26004 82784 32995 00000 10240 20230 39665 40133 333 10305 29087 55000 58004;
0201827840999992001032612004-07310-039300FM-12+040999999V0200501N001510075019N0200001N1+02541+02231101491ADDAA124003091AY161061AY211061GF108991061021008001011999KA1240N+02261MA1999999096811MD1999999-0011MW1021REMSYN088AAXX  26124 82784 21598 80503 10254 20223 39681 40149 70261 8621/ 333 20226 59001 60034;
0167827840999992001032618004-07310-039300FM-12+040999999V0200501N003112200019N0200001N1+03061+01961101011ADDAA199000091GF102991021021008001001001MA1999999096381MD1999999-0061REMSYN070AAXX  26184 82784 32598 20506 10306 20196 39638 40101 82200 333 59006;EQDQ01  00002PRCP99
0167827840999992001032718004-07310-039300FM-12+040999999V0203601N001510150019N0200001N1+02811+02221100961ADDAA199000091GF108991051081012501021999MA1999999096321MD1999999-0061REMSYN070AAXX  27184 82784 32698 83603 10281 20222 39632 40096 8582/ 333 59006;EQDQ01  00002PRCP99
0186827840999992001032812004-07310-039300FM-12+040999999V0200501N001510075019N0200001N1+02621+02271101381ADDAA199000091GF107991071021008001001001KA1240N+02171MA1999999096711MD1999999-0071REMSYN076AAXX  28124 82784 32598 70503 10262 20227 39671 40138 87200 333 20217 59007;EQDQ01  00002PRCP99
0167827840999992001032818004-07310-039300FM-12+040999999V0200901N001512200019N0200001N1+03161+02171100851ADDAA199000091GF103991021021008001061001MA1999999096231MD1999999-0091REMSYN070AAXX  28184 82784 32598 30903 10316 20217 39623 40085 82260 333 59009;EQDQ01  00002PRCP99
0208827840999992001032900004-07310-039300FM-12+040999999V0209999C000012200019N0020001N1+02421+02281101141ADDAA199000091GA1001+999999999GF100991001001999999001001KA1240M+03221MA1999999096481MD1999999-0041REMSYN082AAXX  29004 82784 32995 00000 10242 20228 39648 40114 333 10322 29080 55000 59004;EQDQ01  00002PRCP99
0201827840999992001032912004-07310-039300FM-12+040999999V0200501N000510120019N0040001N1+02571+02221101491ADDAA124009991AY191061AY261061GF108991081081008001999999KA1240N+02261MA1999999096821MD1999999+0111MW1021REMSYN088AAXX  29124 82784 21596 80501 10257 20222 39682 40149 70296 888// 333 20226 58011 60104;
0167827840999992001032918004-07310-039300FM-12+040999999V0201401N002112200019N0200001N1+03081+02071101011ADDAA199000091GF102991011021012501021001MA1999999096381MD1999999+0151REMSYN070AAXX  29184 82784 32698 21404 10308 20207 39638 40101 81220 333 58015;EQDQ01  00002PRCP99
0198827840999992001033000004-07310-039300FM-12+040999999V0200901N004110075019N0020001N1+02441+02031101481ADDAA199000091GF108991081051008001999999KA1240M+03151MA1999999096811MD1999999+0331REMSYN088AAXX  30004 82784 32595 80908 10244 20203 39681 40148 885// 333 10315 29073 55000 58033;EQDQ01  00002PRCP99
0201827840999992001033012004-07310-039300FM-12+040999999V0200501N002110450019N0200001N1+02541+02151101491ADDAA124007191AY191061AY261061GF107991011021008001061081KA1240N+01961MA1999999096821MD1999999+0001MW1021REMSYN088AAXX  30124 82784 21598 70504 10254 20215 39682 40149 70296 81268 333 20196 58000 60074;
0167827840999992001033018004-07310-039300FM-12+040999999V0200901N003110450019N0200001N1+03021+02331101071ADDAA199000091GF106991021021008001011001MA1999999096421MD1999999+0041REMSYN070AAXX  30184 82784 32598 60906 10302 20233 39642 40107 82210 333 58004;EQDQ01  00002PRCP99
0213827840999992001033100004-07310-039300FM-12+040999999V0200901N005110042019N0005001N1+02021+01921101611ADDAA106011991AY121061AY221061GF108991081071004501999999KA1240M+03091MA1999999096911MD1999999+0101MW1651REMSYN100AAXX  31004 82784 21493 80910 10202 20192 39691 40161 76522 887// 333 10309 29082 55000 58010 60121;
0220827840999992001033112004-07310-039300FM-12+040999999V0200501N001519999999N0200001N1+02531+02151101421ADDAA124017091AY151061AY221061GF106991999021008001001001KA1240N+01951MA1999999096731MD1999999-0091MW1011REMSYN088AAXX  31124 82784 21598 60503 10253 20215 39673 40142 70152 84200 333 20195 59009 60174;EQDQ01+000042SCOTLC
0182827840999992001033118004-07310-039300FM-12+040999999V0200901N001012200019N0200001N1+02951+02081100971ADDAA106000591AY151061AY211061GF103991031021008001001001MA1999999096321MD1999999-0101MW1021REMSYN082AAXX  31184 82784 21598 30902 10295 20208 39632 40097 70251 83200 333 59010 69941;
0208827840999992001040100004-07310-039300FM-12+040999999V0201801N000512200019N0200001N1+02301+02111101291ADDAA199000091GA1001+999999999GF100991001001999999001001KA1240M+03031MA1999999096621MD1999999-0251REMSYN082AAXX  01004 82784 32998 01801 10230 20211 39662 40129 333 10303 29080 55000 59025;EQDQ01  00002PRCP99
0201827840999992001040112004-07310-039300FM-12+040999999V0202301N001010120019N0200001N1+02361+02071101531ADDAA124000891AY151061AY211061GF108991081081008001999999KA1240N+02001MA1999999096841MD1999999+0111MW1021REMSYN088AAXX  01124 82784 21598 82302 10236 20207 39684 40153 70251 888// 333 20200 58011 69974;
0167827840999992001040118004-07310-039300FM-12+040999999V0200501N001512200019N0200001N1+02981+02121101061ADDAA199000091GF102991021021012501001001MA1999999096411MD1999999+0091REMSYN070AAXX  01184 82784 32698 20503 10298 20212 39641 40106 82200 333 58009;EQDQ01  00002PRCP99
0198827840999992001040200004-07310-039300FM-12+040999999V0202301N000510120019N0020001N1+02461+02231101371ADDAA199000091GF108991081081008001999999KA1240M+03071MA1999999096691MD1999999+0071REMSYN088AAXX  02004 82784 32595 82301 10246 20223 39669 40137 888// 333 10307 29080 55071 58007;EQDQ01  00002PRCP99
0186827840999992001040212004-07310-039300FM-12+040999999V0200501N001510075019N0200001N1+02591+02151101551ADDAA199000091GF106991061021008001001001KA1240N+02171MA1999999096871MD1999999+0031REMSYN076AAXX  02124 82784 32598 60503 10259 20215 39687 40155 86200 333 20217 58003;EQDQ01  00002PRCP99
0167827840999992001040218004-07310-039300FM-12+040999999V0200901N002610075019N0200001N1+03081+02191101051ADDAA199000091GF106991051021008001021001MA1999999096411MD1999999+0001REMSYN070AAXX  02184 82784 32598 60905 10308 20219 39641 40105 85220 333 58000;EQDQ01  00002PRCP99
0198827840999992001040300004-07310-039300FM-12+040999999V0201401N001012200019N0020001N1+02441+02341101391ADDAA199000091GF104991041061008001001001KA1240M+03111MA1999999096721MD1999999+0031REMSYN088AAXX  03004 82784 32595 41402 10244 20234 39672 40139 84600 333 10311 29081 55085 58003;EQDQ01  00002PRCP99
0201827840999992001040312004-07310-039300FM-12+040999999V0200901N001510450019N0200001N1+02631+02231101471ADDAA124036191AY191061AY261061GF106991021021008001031081KA1240N+02181MA1999999096801MD1999999-0071MW1021REMSYN088AAXX  03124 82784 21598 60903 10263 20223 39680 40147 70296 82238 333 20218 59007 60364;
0167827840999992001040318004-07310-039300FM-12+040999999V0200901N001510450019N0200001N1+03021+02161101021ADDAA199000091GF106991011021008001061001MA1999999096381MD1999999-0031REMSYN070AAXX  03184 82784 32598 60903 10302 20216 39638 40102 81260 333 59003;EQDQ01  00002PRCP99
0198827840999992001040400004-07310-039300FM-12+040999999V0201801N002110075019N0020001N1+02241+02071101341ADDAA199000091GF108991081051008001999999KA1240M+03051MA1999999096671MD1999999-0051REMSYN088AAXX  04004 82784 32595 81804 10224 20207 39667 40134 885// 333 10305 29080 55083 59005;EQDQ01  00002PRCP99
0186827840999992001040412004-07310-039300FM-12+040999999V0200501N001512200019N0200001N1+02561+02151101421ADDAA199000091GF106991021021008001001041KA1240N+02101MA1999999096741MD1999999-0061REMSYN076AAXX  04124 82784 32598 60503 10256 20215 39674 40142 82204 333 20210 59006;EQDQ01  00002PRCP99
0167827840999992001040418004-07310-039300FM-12+040999999V0200501N001010450019N0200001N1+02921+02041100981ADDAA199000091GF107991021021008001031081MA1999999096331MD1999999-0051REMSYN070AAXX  04184 82784 32598 70502 10292 20204 39633 40098 82238 333 59005;EQDQ01  00002PRCP99
0198827840999992001040500004-07310-039300FM-12+040999999V0201401N001510120019N0020001N1+02481+02091101321ADDAA199000091GF107991071081008001001001KA1240M+03051MA1999999096651MD1999999-0021REMSYN088AAXX  05004 82784 32595 71403 10248 20209 39665 40132 87800 333 10305 29074 55060 59002;EQDQ01  00002PRCP99
0186827840999992001040512004-07310-039300FM-12+040999999V0200901N003112200019N0200001N1+02631+01791101451ADDAA199000091GF101991011021008001001001KA1240N+02071MA1999999096781MD1999999+0041REMSYN076AAXX  05124 82784 32598 10906 10263 20179 39678 40145 81200 333 20207 58004;EQDQ01  00002PRCP99
0167827840999992001040518004-07310-039300FM-12+040999999V0200501N002612200019N0200001N1+03071+01771101041ADDAA199000091GF102991021021008001001001MA1999999096401MD1999999+0071REMSYN070AAXX  05184 82784 32598 20505 10307 20177 39640 40104 82200 333 58007;EQDQ01  00002PRCP99
0198827840999992001040600004-07310-039300FM-12+040999999V0201401N001512200019N0020001N1+02501+01941101341ADDAA199000091GF103991031021008001001001KA1240M+03111MA1999999096681MD1999999+0031REMSYN088AAXX  06004 82784 32595 31403 10250 20194 39668 40134 83200 333 10311 29063 55011 58003;EQDQ01  00002PRCP99
0186827840999992001040612004-07310-039300FM-12+040999999V0201401N003612200019N0200001N1+02711+01991101561ADDAA199000091GF104991031021008001071001KA1240N+02311MA1999999096891MD1999999+0111REMSYN076AAXX  06124 82784 32598 41407 10271 20199 39689 40156 83270 333 20231 58011;EQDQ01  00002PRCP99
0167827840999992001040618004-07310-039300FM-12+040999999V0200901N002610450019N0200001N1+02961+01991101151ADDAA199000091GF108991031021012501011999MA1999999096511MD1999999+0111REMSYN070AAXX  06184 82784 32698 80905 10296 20199 39651 40115 8321/ 333 58011;EQDQ01  00002PRCP99
0198827840999992001040700004-07310-039300FM-12+040999999V0202301N000510075019N0020001N1+02421+02191101421ADDAA199000091GF108991051061008001071999KA1240M+03071MA1999999096751MD1999999+0071REMSYN088AAXX  07004 82784 32595 82301 10242 20219 39675 40142 8567/ 333 10307 29074 55107 58007;EQDQ01  00002PRCP99
0186827840999992001040712004-07310-039300FM-12+040999999V0201401N003112200019N0200001N1+02701+02011101581ADDAA199000091GF102991021021008001001001KA1240N+02141MA1999999096911MD1999999+0021REMSYN076AAXX  07124 82784 32598 21406 10270 20201 39691 40158 82200 333 20214 58002;EQDQ01  00002PRCP99
0167827840999992001040718004-07310-039300FM-12+040999999V0201401N002110450019N0200001N1+03061+01961101551ADDAA199000091GF108991031021012501011051MA1999999096491MD1999999-0021REMSYN070AAXX  07184 82784 32698 81404 10306 20196 39649 40155 83215 333 59002;EQDQ01  00002PRCP99
0198827840999992001040800004-07310-039300FM-12+040999999V0209999C000010450019N0020001N1+02361+02011101361ADDAA199000091GF108991021021008001011061KA1240M+03101MA1999999096701MD1999999-0051REMSYN088AAXX  08004 82784 32595 80000 10236 20201 39670 40136 82216 333 10310 29070 55102 59005;EQDQ01  00002PRCP99
0196827840999992001040812004-07310-039300FM-12+040999999V0201801N002612200019N0200001N1+02621+01641101421ADDAA199000091GA1001+999999999GF100991001001999999001001KA1240N+01931MA1999999096751MD1999999-0151REMSYN070AAXX  08124 82784 32998 01805 10262 20164 39675 40142 333 20193 59015;EQDQ01  00002PRCP99
0183827840999992001040818004-07310-039300FM-12+040999999V0200901N002612200019N0200001N1+03601+01761100871ADDAA199000091GF101991999011012501001001MA1999999096241MD1999999-0251REMSYN070AAXX  08184 82784 32698 10905 10360 20176 39624 40087 82100 333 59025;EQDQ01+000022SCOTLCQ02  00002PRCP99
0198827840999992001040900004-07310-039300FM-12+040999999V0200901N000512200019N0020001N1+02301+02031101231ADDAA199000091GF102991021001017501031001KA1240M+03131MA1999999096561MD1999999-0141REMSYN088AAXX  09004 82784 32795 20901 10230 20203 39656 40123 82030 333 10313 29068 55108 59014;EQDQ01  00002PRCP99
0186827840999992001040912004-07310-039300FM-12+040999999V0200901N002112200019N0200001N1+02721+01931101301ADDAA199000091GF102991011011008001061001KA1240N+02121MA1999999096641MD1999999-0111REMSYN076AAXX  09124 82784 32598 20904 10272 20193 39664 40130 81160 333 20212 59011;EQDQ01  00002PRCP99
0167827840999992001040918004-07310-039300FM-12+040999999V0201401N001510450019N0200001N1+02991+01981100851ADDAA199000091GF107991031021008001031001MA1999999096221MD1999999-0021REMSYN070AAXX  09184 82784 32598 71403 10299 20198 39622 40085 83230 333 59002;EQDQ01  00002PRCP99
0198827840999992001041000004-07310-039300FM-12+040999999V0201801N000510075019N0020001N1+02381+02031101141ADDAA199000091GF108991081051008001999999KA1240M+03051MA1999999096491MD1999999-0051REMSYN088AAXX  10004 82784 32595 81801 10238 20203 39649 40114 885// 333 10305 29070 55065 59005;EQDQ01  00002PRCP99
0202827840999992001041012004-07310-039300FM-12+040999999V0200501N001512200019N0200001N1+02801+01751101281ADDAA199000091GF102991999001017501061001KA1240N+02001MA1999999096611MD1999999-0031REMSYN076AAXX  10124 82784 32798 20503 10280 20175 39661 40128 81060 333 20200 59003;EQDQ01+000012SCOTLCQ02  00002PRCP99
0167827840999992001041018004-07310-039300FM-12+040999999V0201801N007010450019N0200001N1+03271+02021100841ADDAA199000091GF107991041021012501071001MA1999999096221MD1999999+0001REMSYN070AAXX  10181 82784 32698 71807 10327 20202 39622 40084 84270 333 58000;EQDQ01  00002PRCP99
0208827840999992001041100004-07310-039300FM-12+040999999V0209999C000012200019N0020001N1+02281+01921101171ADDAA199000091GA1001+999999999GF100991001001999999001001KA1240M+03331MA1999999096521MD1999999+0031REMSYN082AAXX  11004 82784 32995 00000 10228 20192 39652 40117 333 10333 29065 55098 58003;EQDQ01  00002PRCP99
0186827840999992001041112004-07310-039300FM-12+040999999V0203601N001010450019N0200001N1+02651+01931101571ADDAA199000091GF108991011011008001011999KA1240N+02061MA1999999096891MD1999999+0281REMSYN076AAXX  11124 82784 32598 83602 10265 20193 39689 40157 8111/ 333 20206 58028;EQDQ01  00002PRCP99
0167827840999992001041118004-07310-039300FM-12+040999999V0203601N000511050019N0200001N1+02971+02071101141ADDAA199000091GF106991021021008001071041MA1999999096501MD1999999+0281REMSYN070AAXX  11184 82784 32598 63601 10297 20207 39650 40114 82274 333 58028;EQDQ01  00002PRCP99
0214827840999992001041200004-07310-039300FM-12+040999999V0200901N001012200019N0020001N1+02161+02091101351ADDAA199000091GF101991999021008001001001KA1240M+03051MA1999999096681MD1999999+0161REMSYN088AAXX  12004 82784 32595 10902 10216 20209 39668 40135 86200 333 10305 29075 55081 58016;EQDQ01+000062SCOTLCQ02  00002PRCP99
0186827840999992001041212004-07310-039300FM-12+040999999V0200501N002112200019N0200001N1+02791+02091101481ADDAA199000091GF103991021021008001061001KA1240N+02051MA1999999096801MD1999999-0091REMSYN076AAXX  12124 82784 32598 30504 10279 20209 39680 40148 82260 333 20205 59009;EQDQ01  00002PRCP99
0167827840999992001041218004-07310-039300FM-12+040999999V0200501N002112200019N0200001N1+03121+02051100941ADDAA199000091GF103991021021012501011001MA1999999096301MD1999999-0201REMSYN070AAXX  12184 82784 32698 30504 10312 20205 39630 40094 82210 333 59020;EQDQ01  00002PRCP99
0208827840999992001041300004-07310-039300FM-12+040999999V0202301N000512200019N0020001N1+02441+02071101241ADDAA199000091GA1001+999999999GF100991001001999999001001KA1240M+03241MA1999999096591MD1999999-0091REMSYN082AAXX  13004 82784 32995 02301 10244 20207 39659 40124 333 10324 29070 55108 59009;EQDQ01  00002PRCP99
0186827840999992001041312004-07310-039300FM-12+040999999V0200501N001512200019N0200001N1+02721+02001101331ADDAA199000091GF102991011021008001061001KA1240N+02081MA1999999096671MD1999999-0131REMSYN076AAXX  13124 82784 32598 20503 10272 20200 39667 40133 81260 333 20208 59013;EQDQ01  00002PRCP99
0167827840999992001041318004-07310-039300FM-12+040999999V0203601N002111050019N0200001N1+03131+02021100791ADDAA199000091GF105991011011008001031041MA1999999096161MD1999999-0141REMSYN070AAXX  13184 82784 32598 53604 10313 20202 39616 40079 81134 333 59014;EQDQ01  00002PRCP99
0198827840999992001041400004-07310-039300FM-12+040999999V0203601N001010075019N0020001N1+02421+02051101211ADDAA199000091GF108991081061008001999999KA1240M+03191MA1999999096551MD1999999-0041REMSYN088AAXX  14004 82784 32595 83602 10242 20205 39655 40121 886// 333 10319 29069 55082 59004;EQDQ01  00002PRCP99
0201827840999992001041412004-07310-039300FM-12+040999999V0200901N001510450019N0200001N1+02581+01901101341ADDAA124000191AY151061AY221061GF105991011011008001061001KA1240N+02151MA1999999096671MD1999999+0001MW1021REMSYN088AAXX  14124 82784 21598 50903 10258 20190 39667 40134 70252 81160 333 20215 58000 69914;
0167827840999992001041418004-07310-039300FM-12+040999999V0200501N002612200019N0200001N1+03001+01941100861ADDAA199000091GF104991021021008001051001MA1999999096231MD1999999+0071REMSYN070AAXX  14184 82784 32598 40505 10300 20194 39623 40086 82250 333 58007;EQDQ01  00002PRCP99
0208827840999992001041500004-07310-039300FM-12+040999999V0209999C000012200019N0020001N1+02481+02171101231ADDAA199000091GA1001+999999999GF100991001001999999001001KA1240M+03101MA1999999096571MD1999999+0021REMSYN082AAXX  15004 82784 32995 00000 10248 20217 39657 40123 333 10310 29071 55087 58002;EQDQ01  00002PRCP99
0220827840999992001041512004-07310-039300FM-12+040999999V0203601N000519999999N0020001N1+02281+02161101631ADDAA124000891AY151061AY221061GF108991999021008001001001KA1240N+02251MA1999999096941MD1999999+0271MW1511REMSYN088AAXX  15124 82784 21595 83601 10228 20216 39694 40163 75152 84200 333 20225 58027 69984;EQDQ01+000042SCOTLC
0201827840999992001041518004-07310-039300FM-12+040999999V0203201N002610075019N0200001N1+02641+02181101231ADDAA106000191AY151061AY221061GF108991999021008001001001MA1999999096591MD1999999+0331MW1021REMSYN082AAXX  15184 82784 21598 83205 10264 20218 39659 40123 70252 86200 333 58033 69911;EQDQ01+000062SCOTLC
0179827840999992001041600004-07310-039300FM-12+040999999V0202701N000510075019N0020001N1+02351+02261101491ADDAA199000021GF108991081051008001999999KA1240M+02791MA1999999096801MD1999999+0231REMSYN088AAXX  16004 82784 32595 82701 10235 20226 39680 40149 885// 333 10279 29090 55006 58023;
0173827840999992001041612004-07310-039300FM-12+040999999V0200501N001010075019N0040001N1+02581+02191101711ADDAA124000191GF107991051021008001031001KA1240N+02221MA1999999097021MD1999999+0081REMSYN082AAXX  16124 82784 22596 70502 10258 20219 39702 40171 85230 333 20222 58008 69914;
0167827840999992001041618004-07310-039300FM-12+040999999V0200501N001512200019N0200001N1+02901+02121101251ADDAA199000091GF104991021021008001071001MA1999999096591MD1999999+0031REMSYN070AAXX  16184 82784 32598 40503 10290 20212 39659 40125 82270 333 58003;EQDQ01  00002PRCP99
0198827840999992001041700004-07310-039300FM-12+040999999V0203601N001010120019N0020001N1+02401+02211101571ADDAA199000091GF106991061081008001001001KA1240M+02971MA1999999096891MD1999999+0091REMSYN088AAXX  17004 82784 32595 63602 10240 20221 39689 40157 86800 333 10297 29080 55069 58009;EQDQ01  00002PRCP99
0201827840999992001041712004-07310-039300FM-12+040999999V0200501N001010075019N0040001N1+02601+02211101631ADDAA124003091AY161061AY251061GF108991081071008001999999KA1240N+02301MA1999999096951MD1999999-0071MW1021REMSYN088AAXX  17124 82784 21596 80502 10260 20221 39695 40163 70265 887// 333 20230 59007 60034;
0182827840999992001041718004-07310-039300FM-12+040999999V0202301N001510120019N0200001N1+02501+02271101221ADDAA106000591AY121061AY221061GF107991071081008001001001MA1999999096551MD1999999-0041MW1201REMSYN082AAXX  17184 82784 21598 72303 10250 20227 39655 40122 72022 87800 333 59004 69941;
0189827840999992001041800004-07310-039300FM-12+040999999V0202301N001012200019N0020001N1+02301+02231101411ADDAA199000021GA1001+999999999GF100991001001999999001001KA1240M+02871MA1999999096671MD1999999+0151REMSYN082AAXX  18004 82784 32995 02302 10230 20223 39667 40141 333 10287 29090 55020 58015;
0201827840999992001041812004-07310-039300FM-12+040999999V0200901N001010450019N0200001N1+02671+01971101381ADDAA124001091AY151061AY211061GF105991011011008001031001KA1240N+02191MA1999999096711MD1999999-0241MW1011REMSYN088AAXX  18124 82784 21598 50902 10267 20197 39671 40138 70151 81130 333 20219 59024 60014;
0167827840999992001041818004-07310-039300FM-12+040999999V0201401N002610120019N0200001N1+02951+01971100941ADDAA199000091GF107991071081008001001001MA1999999096301MD1999999-0251REMSYN070AAXX  18184 82784 32598 71405 10295 20197 39630 40094 87800 333 59025;EQDQ01  00002PRCP99
0208827840999992001041900004-07310-039300FM-12+040999999V0202301N001012200019N0020001N1+02331+02161101281ADDAA199000091GA1001+999999999GF100991001001999999001001KA1240M+03031MA1999999096621MD1999999-0121REMSYN082AAXX  19004 82784 32995 02302 10233 20216 39662 40128 333 10303 29076 55054 59012;EQDQ01  00002PRCP99
0186827840999992001041912004-07310-039300FM-12+040999999V0200501N002610450019N0200001N1+02741+01971101421ADDAA199000091GF106991011021008001071001KA1240N+01951MA1999999096751MD1999999+0041REMSYN076AAXX  19124 82784 32598 60505 10274 20197 39675 40142 81270 333 20195 58004;EQDQ01  00002PRCP99
0167827840999992001041918004-07310-039300FM-12+040999999V0200901N002110450019N0200001N1+03141+01841100911ADDAA199000091GF106991021021008001071011MA1999999096271MD1999999-0031REMSYN070AAXX  19184 82784 32598 60904 10314 20184 39627 40091 82271 333 59003;EQDQ01  00002PRCP99
0208827840999992001042000004-07310-039300FM-12+040999999V0209999C000012200019N0020001N1+02361+01991101291ADDAA199000091GA1001+999999999GF100991001001999999001001KA1240M+03231MA1999999096631MD1999999+0011REMSYN082AAXX  20004 82784 32995 00000 10236 20199 39663 40129 333 10323 29068 55095 58001;EQDQ01  00002PRCP99
0186827840999992001042012004-07310-039300FM-12+040999999V0200501N001510450019N0040001N1+02561+02211101571ADDAA199000091GF106991041021008001031001KA1240N+02081MA1999999096891MD1999999+0141REMSYN076AAXX  20124 82784 32596 60503 10256 20221 39689 40157 84230 333 20208 58014;EQDQ01  00002PRCP99
0167827840999992001042018004-07310-039300FM-12+040999999V0200501N001510450019N0200001N1+02691+02061101101ADDAA199000091GF106991011021008001061021MA1999999096441MD1999999+0171REMSYN070AAXX  20184 82784 32598 60503 10269 20206 39644 40110 81262 333 58017;EQDQ01  00002PRCP99
0208827840999992001042100004-07310-039300FM-12+040999999V0201401N000512200019N0020001N1+02281+02161101381ADDAA199000091GA1001+999999999GF100991001001999999001001KA1240M+03091MA1999999096701MD1999999+0041REMSYN082AAXX  21004 82784 32995 01401 10228 20216 39670 40138 333 10309 29084 55068 58004;EQDQ01  00002PRCP99
0220827840999992001042112004-07310-039300FM-12+040999999V0200501N002110075019N0200001N1+02651+02051101601ADDAA124001091AY191061AY251061GF107991999041008001001001KA1240N+02221MA1999999096921MD1999999+0031MW1011REMSYN088AAXX  21124 82784 21598 70504 10265 20205 39692 40160 70195 85400 333 20222 58003 69994;EQDQ01+000052SCOTLC
0183827840999992001042118004-07310-039300FM-12+040999999V0200501N002619999999N0200001N1+02901+02071101151ADDAA199000091GF105991999021008001001001MA1999999096501MD1999999+0061REMSYN070AAXX  21184 82784 32598 50505 10290 20207 39650 40115 83200 333 58006;EQDQ01+000032SCOTLCQ02  00002PRCP99
0208827840999992001042200004-07310-039300FM-12+040999999V0202301N001012200019N0020001N1+02301+02141101401ADDAA199000091GA1001+999999999GF100991001001999999001001KA1240M+03031MA1999999096731MD1999999+0031REMSYN082AAXX  22004 82784 32995 02302 10230 20214 39673 40140 333 10303 29078 55067 58003;EQDQ01  00002PRCP99
0186827840999992001042212004-07310-039300FM-12+040999999V0200901N002110120019N0200001N1+02581+02121101481ADDAA199000091GF108991081081008001999999KA1240N+02121MA1999999096801MD1999999-0121REMSYN076AAXX  22124 82784 32598 80904 10258 20212 39680 40148 888// 333 20212 59012;EQDQ01  00002PRCP99
0167827840999992001042218004-07310-039300FM-12+040999999V0200901N001012200019N0200001N1+03021+01991100951ADDAA199000091GF102991021021012501001001MA1999999096321MD1999999-0181REMSYN070AAXX  22184 82784 32698 20902 10302 20199 39632 40095 82200 333 59018;EQDQ01  00002PRCP99
0198827840999992001042300004-07310-039300FM-12+040999999V0209999C000010075019N0020001N1+02281+02071101241ADDAA199000091GF106991061021008001001001KA1240M+03091MA1999999096571MD1999999-0161REMSYN088AAXX  23004 82784 32595 60000 10228 20207 39657 40124 86200 333 10309 29076 55098 59016;EQDQ01  00002PRCP99
0186827840999992001042312004-07310-039300FM-12+040999999V0200901N003112200019N0200001N1+02671+01901101451ADDAA199000091GF102991021021008001001001KA1240N+02121MA1999999096781MD1999999-0021REMSYN076AAXX  23124 82784 32598 20906 10267 20190 39678 40145 82200 333 20212 59002;EQDQ01  00002PRCP99
0167827840999992001042318004-07310-039300FM-12+040999999V0200901N003112200019N0200001N1+03161+01671100971ADDAA199000091GF101991011011008001001001MA1999999096341MD1999999+0021REMSYN070AAXX  23184 82784 32598 10906 10316 20167 39634 40097 81100 333 58002;EQDQ01  00002PRCP99
0208827840999992001042400004-07310-039300FM-12+040999999V0201401N000512200019N0020001N1+02261+01731101301ADDAA199000091GA1001+999999999GF100991001001999999001001KA1240M+03211MA1999999096631MD1999999+0061REMSYN082AAXX  24004 82784 32995 01401 10226 20173 39663 40130 333 10321 29062 55111 58006;EQDQ01  00002PRCP99
0186827840999992001042412004-07310-039300FM-12+040999999V0200901N002110075019N0200001N1+02641+01951101491ADDAA199000091GF105991051021008001001001KA1240N+02101MA1999999096811MD1999999+0001REMSYN076AAXX  24124 82784 32598 50904 10264 20195 39681 40149 85200 333 20210 58000;EQDQ01  00002PRCP99
0167827840999992001042418004-07310-039300FM-12+040999999V0200901N003610450019N0200001N1+03031+01921101081ADDAA199000091GF105991021021008001071001MA1999999096441MD1999999+0101REMSYN070AAXX  24184 82784 32598 50907 10303 20192 39644 40108 82270 333 58010;EQDQ01  00002PRCP99
0198827840999992001042500004-07310-039300FM-12+040999999V0201401N001010450019N0020001N1+02181+02011101381ADDAA199000091GF106991031041008001061001KA1240M+03131MA1999999096701MD1999999+0071REMSYN088AAXX  25004 82784 32595 61402 10218 20201 39670 40138 83460 333 10313 29074 55088 58007;EQDQ01  00002PRCP99
0186827840999992001042512004-07310-039300FM-12+040999999V0201401N003112200019N0200001N1+02691+01921101671ADDAA199000091GF103991011021008001071001KA1240N+02121MA1999999096981MD1999999+0171REMSYN076AAXX  25124 82784 32598 31406 10269 20192 39698 40167 81270 333 20212 58017;EQDQ01  00002PRCP99
0167827840999992001042518004-07310-039300FM-12+040999999V0200501N001512200019N0200001N1+03001+01911101281ADDAA199000091GF103991011021008001061021MA1999999096631MD1999999+0191REMSYN070AAXX  25184 82784 32598 30503 10300 20191 39663 40128 81262 333 58019;EQDQ01  00002PRCP99
0214827840999992001042600004-07310-039300FM-12+040999999V0209999C000019999999N0020001N1+02291+02051101481ADDAA199000091GF107991999011017501001001KA1240M+03081MA1999999096811MD1999999+0111REMSYN088AAXX  26004 82784 32795 70000 10229 20205 39681 40148 82100 333 10308 29072 55079 58011;EQDQ01+000022SCOTLCQ02  00002PRCP99
0167827840999992001042618004-07310-039300FM-12+040999999V0200901N003110450019N0200001N1+03131+01791101071ADDAA199000091GF108991031021012501011999MA1999999096431MD1999999-0201REMSYN070AAXX  26184 82784 32698 80906 10313 20179 39643 40107 8321/ 333 59020;EQDQ01  00002PRCP99
0198827840999992001042700004-07310-039300FM-12+040999999V0200501N001010075019N0020001N1+02421+02051101381ADDAA199000091GF106991061021008001001001KA1240M+03211MA1999999096721MD1999999-0091REMSYN088AAXX  27004 82784 32595 60502 10242 20205 39672 40138 86200 333 10321 29065 55093 59009;EQDQ01  00002PRCP99
0202827840999992001042712004-07310-039300FM-12+040999999V0201401N002110075019N0200001N1+02661+02001101551ADDAA199000091GF106991051021008001031001KA1240N+02241MA1999999999999MD1999999+0001REMSYN076AAXX  27124 82784 32598 61404 10266 20200 39188 40155 85230 333 20224 58000;EQDQ01  00002PRCP99Q02 091883APOSP 
0183827840999992001042718004-07310-039300FM-12+040999999V0201401N001010120019N0200001N1+03021+02131101041ADDAA199000091GF107991071081008001001001MA1999999096412MD1999999-0021REMSYN070AAXX  27184 82784 32598 71402 10302 20213 39641 40104 87800 333 59002;EQDQ01+096413APOSP Q02  00002PRCP99
0213827840999992001042800004-07310-039300FM-12+040999999V0201401N001510120019N0020001N1+02461+02131101421ADDAA106002091AY161061AY221061GF108991081081008001999999KA1240M+03131MA1999999096751MD1999999+0031MW1021REMSYN100AAXX  28004 82784 21595 81403 10246 20213 39675 40142 70262 888// 333 10313 29072 55068 58003 60021;
0201827840999992001042812004-07310-039300FM-12+040999999V0201801N000510450019N0200001N1+02601+01941101631ADDAA124004191AY161061AY221061GF107991021081008001061001KA1240N+02301MA1999999096951MD1999999+0071MW1021REMSYN088AAXX  28124 82784 21598 71801 10260 20194 39695 40163 70262 82860 333 20230 58007 60044;
0167827840999992001042818004-07310-039300FM-12+040999999V0200901N001010450019N0200001N1+03021+01961101181ADDAA199000091GF106991021021008001031021MA1999999096541MD1999999+0131REMSYN070AAXX  28184 82784 32598 60902 10302 20196 39654 40118 82232 333 58013;EQDQ01  00002PRCP99
0208827840999992001042900004-07310-039300FM-12+040999999V0200901N000512200019N0020001N1+02301+02031101471ADDAA199000091GA1001+999999999GF100991001001999999001001KA1240M+03091MA1999999096791MD1999999+0041REMSYN082AAXX  29004 82784 32995 00901 10230 20203 39679 40147 333 10309 29072 55064 58004;EQDQ01  00002PRCP99
0202827840999992001042912004-07310-039300FM-12+040999999V0200901N002610075019N0020001N1+02651+01831101481ADDAA199000091GF108991999021008001001001KA1240N+02241MA1999999096811MD1999999-0141REMSYN076AAXX  29124 82784 32595 80905 10265 20183 39681 40148 85200 333 20224 59014;EQDQ01+000052SCOTLCQ02  00002PRCP99
0183827840999992001042918004-07310-039300FM-12+040999999V0201401N002119999999N0200001N1+03101+01841101051ADDAA199000091GF107991999011012501001001MA1999999096421MD1999999-0121REMSYN070AAXX  29184 82784 32698 71404 10310 20184 39642 40105 82100 333 59012;EQDQ01+000022SCOTLCQ02  00002PRCP99
0208827840999992001043000004-07310-039300FM-12+040999999V0201401N002112200019N0020001N1+02451+01711101331ADDAA199000091GA1001+999999999GF100991001001999999001001KA1240M+03181MA1999999096671MD1999999-0121REMSYN082AAXX  30004 82784 32995 01404 10245 20171 39667 40133 333 10318 29059 55075 59012;EQDQ01  00002PRCP99
0186827840999992001043012004-07310-039300FM-12+040999999V0201401N003612200019N0200001N1+02641+01881101441ADDAA199000091GF102991021021008001001001KA1240N+02271MA1999999096771MD1999999-0041REMSYN076AAXX  30124 82784 32598 21407 10264 20188 39677 40144 82200 333 20227 59004;EQDQ01  00002PRCP99
0167827840999992001043018004-07310-039300FM-12+040999999V0201401N003112200019N0200001N1+03011+01881101041ADDAA199000091GF102991021021008001001021MA1999999096401MD1999999-0021REMSYN070AAXX  30184 82784 32598 21406 10301 20188 39640 40104 82202 333 59002;EQDQ01  00002PRCP99
0208827840999992001050100004-07310-039300FM-12+040999999V0200901N001512200019N0020001N1+02401+01861101251ADDAA199000091GA1001+999999999GF100991001001999999001001KA1240M+03131MA1999999096591MD1999999-0081REMSYN082AAXX  01004 82784 32995 00903 10240 20186 39659 40125 333 10313 29065 55108 59008;EQDQ01  00002PRCP99
0186827840999992001050112004-07310-039300FM-12+040999999V0201401N002110450019N0200001N1+02751+01951101431ADDAA199000091GF106991011011008001071001KA1240N+02131MA1999999096771MD1999999+0001REMSYN076AAXX  01124 82784 32598 61404 10275 20195 39677 40143 81170 333 20213 58000;EQDQ01  00002PRCP99
0167827840999992001050118004-07310-039300FM-12+040999999V0200901N002110450019N0200001N1+03141+01911101001ADDAA199000091GF106991011021008001071001MA1999999096371MD1999999-0031REMSYN070AAXX  01184 82784 32598 60904 10314 20191 39637 40100 81270 333 59003;EQDQ01  00002PRCP99
0214827840999992001050200004-07310-039300FM-12+040999999V0201401N001019999999N0020001N1+02421+02031101401ADDAA199000091GF107991999011008001001001KA1240M+02921MA1999999096741MD1999999+0151REMSYN088AAXX  02004 82784 32595 71402 10242 20203 39674 40140 82100 333 10292 29064 55096 58015;EQDQ01+000022SCOTLCQ02  00002PRCP99
0201827840999992001050212004-07310-039300FM-12+040999999V0200901N002112200019N0200001N1+02631+01861101611ADDAA124000891AY151061AY211061GF104991041021008001001001KA1240N+02121MA1999999096931MD1999999+0161MW1021REMSYN088AAXX  02124 82784 21598 40904 10263 20186 39693 40161 70251 84200 333 20212 58016 69974;
0167827840999992001050218004-07310-039300FM-12+040999999V0200501N002110450019N0200001N1+03071+01771101191ADDAA199000091GF105991011011008001071001MA1999999096551MD1999999+0181REMSYN070AAXX  02184 82784 32598 50504 10307 20177 39655 40119 81170 333 58018;EQDQ01  00002PRCP99
0208827840999992001050300004-07310-039300FM-12+040999999V0202301N001012200019N0020001N1+02201+01921101441ADDAA199000091GA1001+999999999GF100991001001999999001001KA1240M+03191MA1999999096761MD1999999+0021REMSYN082AAXX  03004 82784 32995 02302 10220 20192 39676 40144 333 10319 29069 55107 58002;EQDQ01  00002PRCP99
0186827840999992001050312004-07310-039300FM-12+040999999V0200901N002112200019N0200001N1+02791+01961101571ADDAA199000091GF103991011011008001071001KA1240N+01871MA1999999096891MD1999999-0041REMSYN076AAXX  03124 82784 32598 30904 10279 20196 39689 40157 81170 333 20187 59004;EQDQ01  00002PRCP99
0198827840999992001050400004-07310-039300FM-12+040999999V0201801N000512200019N0020001N1+02291+01961101301ADDAA199000091GF101991011011008001001001KA1240M+03201MA1999999096641MD1999999-0121REMSYN088AAXX  04004 82784 32595 11801 10229 20196 39664 40130 81100 333 10320 29069 55104 59012;EQDQ01  00002PRCP99
0186827840999992001050412004-07310-039300FM-12+040999999V0201401N001512200019N0200001N1+02781+01821101391ADDAA199000091GF102991021001017501071001KA1240N+02131MA1999999096731MD1999999-0161REMSYN076AAXX  04124 82784 32798 21403 10278 20182 39673 40139 82070 333 20213 59016;EQDQ01  00002PRCP99
0183827840999992001050418004-07310-039300FM-12+040999999V0201401N002119999999N0200001N1+03191+01801100961ADDAA199000091GF106991999021008001001001MA1999999096341MD1999999-0071REMSYN070AAXX  04184 82784 32598 61404 10319 20180 39634 40096 82200 333 59007;EQDQ01+000022SCOTLCQ02  00002PRCP99
0208827840999992001050500004-07310-039300FM-12+040999999V0203601N001512200019N0020001N1+02291+02051101261ADDAA199000091GA1001+999999999GF100991001001999999001001KA1240M+03251MA1999999096601MD1999999-0041REMSYN082AAXX  05004 82784 32995 03603 10229 20205 39660 40126 333 10325 29068 55107 59004;EQDQ01  00002PRCP99
0186827840999992001050512004-07310-039300FM-12+040999999V0201401N002112200019N0200001N1+02691+02021101411ADDAA199000091GF104991021021008001051001KA1240N+02061MA1999999096741MD1999999+0011REMSYN076AAXX  05124 82784 32598 41404 10269 20202 39674 40141 82250 333 20206 58001;EQDQ01  00002PRCP99
0167827840999992001050518004-07310-039300FM-12+040999999V0201401N001510450019N0200001N1+03201+01891100851ADDAA199000091GF105991041021008001011001MA1999999096231MD1999999-0111REMSYN070AAXX  05184 82784 32598 51403 10320 20189 39623 40085 84210 333 59011;EQDQ01  00002PRCP99
0198827840999992001050600004-07310-039300FM-12+040999999V0201401N000510075019N0020001N1+02421+02111101181ADDAA199000091GF106991061021008001001001KA1240M+03261MA1999999096531MD1999999-0071REMSYN088AAXX  06004 82784 32595 61401 10242 20211 39653 40118 86200 333 10326 29070 55099 59007;EQDQ01  00002PRCP99
0186827840999992001050612004-07310-039300FM-12+040999999V0200901N002110075019N0200001N1+02781+02111101421ADDAA199000091GF107991071021008001001001KA1240N+02321MA1999999096761MD1999999+0021REMSYN076AAXX  06124 82784 32598 70904 10278 20211 39676 40142 87200 333 20232 58002;EQDQ01  00002PRCP99
0183827840999992001050618004-07310-039300FM-12+040999999V0200501N001019999999N0200001N1+03141+02161100921ADDAA199000091GF106991999021008001001001MA1999999096301MD1999999+0071REMSYN070AAXX  06184 82784 32598 60502 10314 20216 39630 40092 83200 333 58007;EQDQ01+000032SCOTLCQ02  00002PRCP99
0214827840999992001050700004-07310-039300FM-12+040999999V0203201N001019999999N0020001N1+02441+02191101241ADDAA199000091GF106991999021008001001001KA1240M+03311MA1999999096591MD1999999+0061REMSYN088AAXX  07004 82784 32595 63202 10244 20219 39659 40124 83200 333 10331 29074 55076 58006;EQDQ01+000032SCOTLCQ02  00002PRCP99
0186827840999992001050712004-07310-039300FM-12+040999999V0200501N001510075019N0200001N1+02761+02191101431ADDAA199000091GF106991061021008001001001KA1240N+02251MA1999999096771MD1999999+0011REMSYN076AAXX  07124 82784 32598 60503 10276 20219 39677 40143 86200 333 20225 58001;EQDQ01  00002PRCP99
0167827840999992001050718004-07310-039300FM-12+040999999V0200501N001510450019N0200001N1+03221+02231100891ADDAA199000091GF106991031021008001071001MA1999999096271MD1999999-0031REMSYN070AAXX  07184 82784 32598 60503 10322 20223 39627 40089 83270 333 59003;EQDQ01  00002PRCP99
0198827840999992001050800004-07310-039300FM-12+040999999V0201801N002112200019N0020001N1+02541+02251101211ADDAA199000091GF103991011011008001011001KA1240M+03351MA1999999096561MD1999999-0031REMSYN088AAXX  08004 82784 32595 31804 10254 20225 39656 40121 81110 333 10335 29074 55081 59003;EQDQ01  00002PRCP99
0186827840999992001050812004-07310-039300FM-12+040999999V0200901N000510120019N0200001N1+02611+02231101401ADDAA199000091GF108991081081008001999999KA1240N+02341MA1999999096741MD1999999-0031REMSYN076AAXX  08124 82784 32598 80901 10261 20223 39674 40140 888// 333 20234 59003;EQDQ01  00002PRCP99
0167827840999992001050818004-07310-039300FM-12+040999999V0203601N001512200019N0200001N1+03151+02071100971ADDAA199000091GF104991021021008001071001MA1999999096351MD1999999+0081REMSYN070AAXX  08184 82784 32598 43603 10315 20207 39635 40097 82270 333 58008;EQDQ01  00002PRCP99
0198827840999992001050900004-07310-039300FM-12+040999999V0202301N001010150019N0020001N1+02441+02171101231ADDAA199000091GF108991081001017501011999KA1240M+03201MA1999999096571MD1999999+0011REMSYN088AAXX  09004 82784 32795 82302 10244 20217 39657 40123 8801/ 333 10320 29076 55048 58001;EQDQ01  00002PRCP99
0186827840999992001050912004-07310-039300FM-12+040999999V0200501N001010075019N0200001N1+02691+02221101331ADDAA199000091GF106991061021008001001001KA1240N+02191MA1999999096671MD1999999-0071REMSYN076AAXX  09124 82784 32598 60502 10269 20222 39667 40133 86200 333 20219 59007;EQDQ01  00002PRCP99
0167827840999992001050918004-07310-039300FM-12+040999999V0200501N002110450019N0200001N1+02311+02121100801ADDAA199000091GF105991031021008001071001MA1999999096181MD1999999-0171REMSYN070AAXX  09184 82784 32598 50504 10231 20212 39618 40080 83270 333 59017;EQDQ01  00002PRCP99
0198827840999992001051000004-07310-039300FM-12+040999999V0202301N000510075019N0020001N1+02501+02211101141ADDAA199000091GF107991071021008001001001KA1240M+03281MA1999999096491MD1999999-0081REMSYN088AAXX  10004 82784 32595 72301 10250 20221 39649 40114 87200 333 10328 29074 55072 59008;EQDQ01  00002PRCP99
0201827840999992001051012004-07310-039300FM-12+040999999V0200501N000510075019N0040001N1+02411+02261101371ADDAA124002091AY161061AY251061GF108991081071008001999999KA1240N+02341MA1999999096701MD1999999+0031MW1021REMSYN088AAXX  10124 82784 21596 80501 10241 20226 39670 40137 70265 887// 333 20234 58003 60024;
0182827840999992001051018004-07310-039300FM-12+040999999V0201401N001010450019N0200001N1+02851+02311100981ADDAA106003091AY161061AY221061GF107991021021008001051021MA1999999096341MD1999999+0161MW1021REMSYN082AAXX  10184 82784 21598 71402 10285 20231 39634 40098 70262 82252 333 58016 60031;
0198827840999992001051100004-07310-039300FM-12+040999999V0201801N000519999999N0020001N1+02321+02241101261ADDAA199000091GF106991061001008001011001KA1240M+02941MA1999999096581MD1999999+0091REMSYN088AAXX  11004 82784 32595 61801 10232 20224 39658 40126 86010 333 10294 29089 55009 58009;EQDQ01  00002PRCP99
0173827840999992001051112004-07310-039300FM-12+040999999V0201401N001510075019N0200001N1+02641+02181101491ADDAA124003091GF107991061021008001031001KA1240N+02241MA1999999096821MD1999999+0121REMSYN082AAXX  11124 82784 22598 71403 10264 20218 39682 40149 86230 333 20224 58012 60034;
0167827840999992001051118004-07310-039300FM-12+040999999V0200501N001012200019N0200001N1+03151+01941101051ADDAA199000091GF103991021021008001071001MA1999999096421MD1999999+0081REMSYN070AAXX  11184 82784 32598 30502 10315 20194 39642 40105 82270 333 58008;EQDQ01  00002PRCP99
0208827840999992001051200004-07310-039300FM-12+040999999V0209999C000012200019N0020001N1+02341+02051101291ADDAA199000091GA1001+999999999GF100991001001999999001001KA1240M+03231MA1999999096631MD1999999+0051REMSYN082AAXX  12004 82784 32995 00000 10234 20205 39663 40129 333 10323 29073 55079 58005;EQDQ01  00002PRCP99
0186827840999992001051212004-07310-039300FM-12+040999999V0200901N001512200019N0200001N1+02791+02131101581ADDAA199000091GF103991031021008001001001KA1240N+02061MA1999999096911MD1999999+0071REMSYN076AAXX  12124 82784 32598 30903 10279 20213 39691 40158 83200 333 20206 58007;EQDQ01  00002PRCP99
0167827840999992001051218004-07310-039300FM-12+040999999V0200501N001510075019N0200001N1+03371+01971101111ADDAA199000091GF106991061021008001001001MA1999999096481MD1999999+0061REMSYN070AAXX  12184 82784 32598 60503 10337 20197 39648 40111 86200 333 58006;EQDQ01  00002PRCP99
0208827840999992001051300004-07310-039300FM-12+040999999V0202301N001012200019N0020001N1+02281+01981101421ADDAA199000091GA1001+999999999GF100991001001999999001001KA1240M+03401MA1999999096751MD1999999+0121REMSYN082AAXX  13004 82784 32995 02302 10228 20198 39675 40142 333 10340 29070 55077 58012;EQDQ01  00002PRCP99
0186827840999992001051312004-07310-039300FM-12+040999999V0200501N002112200019N0200001N1+02681+02111101681ADDAA199000091GF104991041021008001001001KA1240N+02021MA1999999097001MD1999999+0091REMSYN076AAXX  13124 82784 32598 40504 10268 20211 39700 40168 84200 333 20202 58009;EQDQ01  00002PRCP99
0167827840999992001051318004-07310-039300FM-12+040999999V0200901N001512200019N0200001N1+03301+01801101101ADDAA199000091GF102991021021008001001001MA1999999096461MD1999999+0021REMSYN070AAXX  13184 82784 32598 20903 10330 20180 39646 40110 82200 333 58002;EQDQ01  00002PRCP99
0208827840999992001051400004-07310-039300FM-12+040999999V0209999C000012200019N0020001N1+02321+01981101351ADDAA199000091GA1001+999999999GF100991001001999999001001KA1240M+03381MA1999999096681MD1999999-0071REMSYN082AAXX  14004 82784 32995 00000 10232 20198 39668 40135 333 10338 29068 55094 59007;EQDQ01  00002PRCP99
0186827840999992001051412004-07310-039300FM-12+040999999V0200501N002110075019N0200001N1+02531+02001101641ADDAA199000091GF108991081051008001999999KA1240N+01921MA1999999096951MD1999999-0051REMSYN076AAXX  14124 82784 32598 80504 10253 20200 39695 40164 885// 333 20192 59005;EQDQ01  00002PRCP99
0167827840999992001051418004-07310-039300FM-12+040999999V0200501N001012200019N0200001N1+03221+01981101071ADDAA199000091GF101991011021008001001001MA1999999096421MD1999999-0041REMSYN070AAXX  14184 82784 32598 10502 10322 20198 39642 40107 81200 333 59004;EQDQ01  00002PRCP99
0198827840999992001051500004-07310-039300FM-12+040999999V0201801N000512200019N0020001N1+02321+01981101261ADDAA199000091GF102991021011008001001001KA1240M+03311MA1999999096591MD1999999-0091REMSYN088AAXX  15004 82784 32595 21801 10232 20198 39659 40126 82100 333 10331 29071 55075 59009;EQDQ01  00002PRCP99
0186827840999992001051512004-07310-039300FM-12+040999999V0200901N002112200019N0200001N1+02771+01891101491ADDAA199000091GF101991011011008001001001KA1240N+02081MA1999999096821MD1999999-0131REMSYN076AAXX  15124 82784 32598 10904 10277 20189 39682 40149 81100 333 20208 59013;EQDQ01  00002PRCP99
0208827840999992001051600004-07320-039300FM-12+040999999V0202301N000512200019N0020001N1+02101+01581101181ADDAA199000091GA1001+999999999GF100991001001999999001001KA1240M+03291MA1999999096521MD1999999-0071REMSYN082AAXX  16004 82784 32995 02301 10210 20158 39652 40118 333 10329 29058 55104 59007;EQDQ01  00002PRCP99
0186827840999992001051612004-07320-039300FM-12+040999999V0200901N003112200019N0200001N1+02721+01771101501ADDAA199000091GF101991011011008001001001KA1240N+01841MA1999999096821MD1999999+0001REMSYN076AAXX  16124 82784 32598 10906 10272 20177 39682 40150 81100 333 20184 58000;EQDQ01  00002PRCP99
0208827840999992001051700004-07310-039300FM-12+040999999V0203601N000512200019N0020001N1+02151+01781101351ADDAA199000091GA1001+999999999GF100991001001999999001001KA1240M+03291MA1999999096681MD1999999+0161REMSYN082AAXX  17004 82784 32995 03601 10215 20178 39668 40135 333 10329 29065 55106 58016;EQDQ01  00002PRCP99
0196827840999992001051712004-07310-039300FM-12+040999999V0200901N001512200019N0200001N1+02791+01931101551ADDAA199000091GA1001+999999999GF100991001001999999001001KA1240N+01801MA1999999096871MD1999999+0051REMSYN070AAXX  17124 82784 32998 00903 10279 20193 39687 40155 333 20180 58005;EQDQ01  00002PRCP99
0167827840999992001051718004-07310-039300FM-12+040999999V0201401N001512200019N0200001N1+03321+01741101161ADDAA199000091GF102991021021008001001001MA1999999096521MD1999999+0111REMSYN070AAXX  17184 82784 32598 21403 10332 20174 39652 40116 82200 333 58011;EQDQ01  00002PRCP99
0198827840999992001051800004-07310-039300FM-12+040999999V0201801N000512200019N0020001N1+02381+01951101491ADDAA199000091GF103991031021008001001001KA1240M+03391MA1999999096831MD1999999+0151REMSYN088AAXX  18004 82784 32595 31801 10238 20195 39683 40149 83200 333 10339 29063 55100 58015;EQDQ01  00002PRCP99
0186827840999992001051812004-07310-039300FM-12+040999999V0200901N001012200019N0200001N1+02811+02081101691ADDAA199000091GF103991031021008001001001KA1240N+02011MA1999999097021MD1999999+0151REMSYN076AAXX  18124 82784 32598 30902 10281 20208 39702 40169 83200 333 20201 58015;EQDQ01  00002PRCP99
0167827840999992001051818004-07310-039300FM-12+040999999V0200901N002612200019N0200001N1+03361+01931101071ADDAA199000091GF101991011021008001001001MA1999999096441MD1999999-0081REMSYN070AAXX  18184 82784 32598 10905 10336 20193 39644 40107 81200 333 59008;EQDQ01  00002PRCP99
0198827840999992001051900004-07310-039300FM-12+040999999V0201801N002612200019N0020001N1+02401+01861101431ADDAA199000091GF101991011001017501031001KA1240M+03411MA1999999096771MD1999999-0061REMSYN088AAXX  19004 82784 32795 11805 10240 20186 39677 40143 81030 333 10341 29063 55100 59006;EQDQ01  00002PRCP99
0186827840999992001051912004-07310-039300FM-12+040999999V0202701N001512200019N0200001N1+02641+02071101581ADDAA199000091GF103991031021008001001001KA1240N+01981MA1999999096901MD1999999+0121REMSYN076AAXX  19124 82784 32598 32703 10264 20207 39690 40158 83200 333 20198 58012;EQDQ01  00002PRCP99
0167827840999992001051918004-07310-039300FM-12+040999999V0200501N001512200019N0200001N1+03321+01891101031ADDAA199000091GF102991021021008001001001MA1999999096401MD1999999-0041REMSYN070AAXX  19184 82784 32598 20503 10332 20189 39640 40103 82200 333 59004;EQDQ01  00002PRCP99
0198827840999992001052000004-07310-039300FM-12+040999999V0201401N000510120019N0020001N1+02581+02121101291ADDAA199000091GF108991081081008001999999KA1240M+03491MA1999999096641MD1999999-0131REMSYN088AAXX  20004 82784 32595 81401 10258 20212 39664 40129 888// 333 10349 29066 55104 59013;EQDQ01  00002PRCP99
0186827840999992001052012004-07310-039300FM-12+040999999V0200501N001510120019N0200001N1+02641+02091101551ADDAA199000091GF107991061081008001031001KA1240N+02281MA1999999096881MD1999999-0021REMSYN076AAXX  20124 82784 32598 70503 10264 20209 39688 40155 86830 333 20228 59002;EQDQ01  00002PRCP99
0167827840999992001052018004-07310-039300FM-12+040999999V0200901N002612200019N0200001N1+03061+01901101081ADDAA199000091GF104991031021008001061001MA1999999096451MD1999999+0051REMSYN070AAXX  20184 82784 32598 40905 10306 20190 39645 40108 83260 333 58005;EQDQ01  00002PRCP99
0198827840999992001052100004-07310-039300FM-12+040999999V0200901N001512200019N0020001N1+02411+01751101351ADDAA199000091GF103991031001008001051001KA1240M+03151MA1999999096681MD1999999+0041REMSYN088AAXX  21004 82784 32595 30903 10241 20175 39668 40135 83050 333 10315 29064 55066 58004;EQDQ01  00002PRCP99
0186827840999992001052112004-07310-039300FM-12+040999999V0201401N004112200019N0200001N1+02681+01671101571ADDAA199000091GF102991021001017501061001KA1240N+02281MA1999999096901MD1999999+0021REMSYN076AAXX  21124 82784 32798 21408 10268 20167 39690 40157 82060 333 20228 58002;EQDQ01  00002PRCP99
0167827840999992001052118004-07310-039300FM-12+040999999V0201401N002112200019N0200001N1+03161+01751101101ADDAA199000091GF104991031021008001061001MA1999999096471MD1999999+0021REMSYN070AAXX  21184 82784 32598 41404 10316 20175 39647 40110 83260 333 58002;EQDQ01  00002PRCP99
0198827840999992001052200004-07310-039300FM-12+040999999V0209999C000012200019N0020001N1+02241+01781101311ADDAA199000091GF101991011001017501061001KA1240M+03261MA1999999096641MD1999999-0041REMSYN088AAXX  22004 82784 32795 10000 10224 20178 39664 40131 81060 333 10326 29062 55080 59004;EQDQ01  00002PRCP99
0186827840999992001052212004-07310-039300FM-12+040999999V0201401N002610075019N0200001N1+02641+01801101571ADDAA199000091GF105991051021008001001001KA1240N+02081MA1999999096891MD1999999-0011REMSYN076AAXX  22124 82784 32598 51405 10264 20180 39689 40157 85200 333 20208 59001;EQDQ01  00002PRCP99
0167827840999992001052218004-07310-039300FM-12+040999999V0201401N002612200019N0200001N1+03151+01731101081ADDAA199000091GF102991021021008001001001MA1999999096451MD1999999-0021REMSYN070AAXX  22184 82784 32598 21405 10315 20173 39645 40108 82200 333 59002;EQDQ01  00002PRCP99
0208827840999992001052300004-07310-039300FM-12+040999999V0201401N004012200019N0020001N1+02441+01661101321ADDAA199000091GA1001+999999999GF100991001001999999001001KA1240M+03191MA1999999096661MD1999999+0021REMSYN082AAXX  23000 82784 32995 01404 10244 20166 39666 40132 333 10319 29057 55103 58002;EQDQ01  00002PRCP99
0186827840999992001052312004-07310-039300FM-12+040999999V0201401N002112200019N0200001N1+02701+01831101521ADDAA199000091GF101991011011008001001001KA1240N+02181MA1999999096851MD1999999-0041REMSYN076AAXX  23124 82784 32598 11404 10270 20183 39685 40152 81100 333 20218 59004;EQDQ01  00002PRCP99
0167827840999992001052318004-07310-039300FM-12+040999999V0201401N003112200019N0200001N1+03191+01611101051ADDAA199000091GF102991021021008001001001MA1999999096421MD1999999-0031REMSYN070AAXX  23184 82784 32598 21406 10319 20161 39642 40105 82200 333 59003;EQDQ01  00002PRCP99
0198827840999992001052400004-07310-039300FM-12+040999999V0200501N001012200019N0020001N1+02341+01811101341ADDAA199000091GF101991011011008001001001KA1240M+03311MA1999999096671MD1999999+0011REMSYN088AAXX  24004 82784 32595 10502 10234 20181 39667 40134 81100 333 10331 29060 55102 58001;EQDQ01  00002PRCP99
0186827840999992001052412004-07310-039300FM-12+040999999V0201401N003112200019N0200001N1+02801+01751101661ADDAA199000091GF101991011011008001001001KA1240N+02201MA1999999096981MD1999999+0131REMSYN076AAXX  24124 82784 32598 11406 10280 20175 39698 40166 81100 333 20220 58013;EQDQ01  00002PRCP99
0167827840999992001052418004-07310-039300FM-12+040999999V0201401N002612200019N0200001N1+03291+01581101111ADDAA199000091GF102991021021008001001001MA1999999096481MD1999999+0061REMSYN070AAXX  24184 82784 32598 21405 10329 20158 39648 40111 82200 333 58006;EQDQ01  00002PRCP99
0198827840999992001052500004-07310-039300FM-12+040999999V0203601N000512200019N0020001N1+02341+01851101331ADDAA199000091GF102991021021008001001001KA1240M+03391MA1999999096671MD1999999+0001REMSYN088AAXX  25004 82784 32595 23601 10234 20185 39667 40133 82200 333 10339 29059 55107 58000;EQDQ01  00002PRCP99
0201827840999992001052512004-07310-039300FM-12+040999999V0203201N000510120019N0040001N1+02401+02151101681ADDAA124007191AY191061AY261061GF108991081081008001999999KA1240N+02101MA1999999096981MD1999999+0001MW1021REMSYN088AAXX  25124 82784 21596 83201 10240 20215 39698 40168 70296 888// 333 20210 58000 60074;
0167827840999992001052518004-07310-039300FM-12+040999999V0200501N001510450019N0200001N1+03101+01971101201ADDAA199000091GF106991021021008001061001MA1999999096561MD1999999+0081REMSYN070AAXX  25184 82784 32598 60503 10310 20197 39656 40120 82260 333 58008;EQDQ01  00002PRCP99
0214827840999992001052600004-07310-039300FM-12+040999999V0201801N000519999999N0020001N1+02381+02221101411ADDAA199000091GF105991999011008001001001KA1240M+03251MA1999999096731MD1999999+0061REMSYN088AAXX  26004 82784 32595 51801 10238 20222 39673 40141 82100 333 10325 29080 55055 58006;EQDQ01+000022SCOTLCQ02  00002PRCP99
0201827840999992001052612004-07310-039300FM-12+040999999V0201401N001010075019N0040001N1+02441+02171101591ADDAA124016091AY161061AY221061GF108991081071008001999999KA1240N+02181MA1999999096901MD1999999-0081MW1021REMSYN088AAXX  26124 82784 21596 81402 10244 20217 39690 40159 70262 887// 333 20218 59008 60164;
0167827840999992001052618004-07310-039300FM-12+040999999V0200901N001512200019N0200001N1+03031+02021101051ADDAA199000091GF101991011021008001001001MA1999999096411MD1999999-0151REMSYN070AAXX  26184 82784 32598 10903 10303 20202 39641 40105 81200 333 59015;EQDQ01  00002PRCP99
0208827840999992001052700004-07310-039300FM-12+040999999V0209999C000012200019N0020001N1+02271+02161101291ADDAA199000091GA1001+999999999GF100991001001999999001001KA1240M+03081MA1999999096611MD1999999-0121REMSYN082AAXX  27004 82784 32595 00000 10227 20216 39661 40129 333 10308 29082 55073 59012;EQDQ01  00002PRCP99
0186827840999992001052712004-07310-039300FM-12+040999999V0203201N000510075019N0200001N1+02481+02111101581ADDAA199000091GF108991081051008001999999KA1240N+02101MA1999999096891MD1999999-0011REMSYN076AAXX  27124 82784 32598 83201 10248 20211 39689 40158 885// 333 20210 59001;EQDQ01  00002PRCP99
0167827840999992001052718004-07310-039300FM-12+040999999V0203601N001512200019N0200001N1+03201+01961101031ADDAA199000091GF101991011021008001001001MA1999999096401MD1999999-0011REMSYN070AAXX  27184 82784 32598 13603 10320 20196 39640 40103 81200 333 59001;EQDQ01  00002PRCP99
0198827840999992001052800004-07310-039300FM-12+040999999V0201801N000510075019N0020001N1+02521+02231101411ADDAA199000091GF106991061021008001001001KA1240M+03311MA1999999096741MD1999999+0131REMSYN088AAXX  28004 82784 32595 61801 10252 20223 39674 40141 86200 333 10331 29074 55078 58013;EQDQ01  00002PRCP99
0186827840999992001052812004-07310-039300FM-12+040999999V0200501N002110075019N0200001N1+02741+02141101641ADDAA199000091GF106991061021008001001001KA1240N+02121MA1999999096971MD1999999+0081REMSYN076AAXX  28124 82784 32598 60504 10274 20214 39697 40164 86200 333 20212 58008;EQDQ01  00002PRCP99
0167827840999992001052818004-07310-039300FM-12+040999999V0200501N001512200019N0200001N1+03261+01951101141ADDAA199000091GF101991011021008001001001MA1999999096501MD1999999+0101REMSYN070AAXX  28184 82784 32598 10503 10326 20195 39650 40114 81200 333 58010;EQDQ01  00002PRCP99
0208827840999992001052900004-07310-039300FM-12+040999999V0202301N000512200019N0020001N1+02341+02011101331ADDAA199000091GA1001+999999999GF100991001001999999001001KA1240M+03351MA1999999096671MD1999999-0071REMSYN082AAXX  29004 82784 32995 02301 10234 20201 39667 40133 333 10335 29070 55096 59007;EQDQ01  00002PRCP99
0186827840999992001052912004-07310-039300FM-12+040999999V0200501N000510075019N0200001N1+02561+02131101701ADDAA199000091GF106991061021008001001001KA1240N+02061MA1999999097011MD1999999+0041REMSYN076AAXX  29124 82784 32598 60501 10256 20213 39701 40170 86200 333 20206 58004;EQDQ01  00002PRCP99
0167827840999992001052918004-07310-039300FM-12+040999999V0200901N001512200019N0200001N1+03301+01911101191ADDAA199000091GF101991011021008001001001MA1999999096551MD1999999+0051REMSYN070AAXX  29184 82784 32598 10903 10330 20191 39655 40119 81200 333 58005;EQDQ01  00002PRCP99
0198827840999992001053000004-07310-039300FM-12+040999999V0209999C000010120019N0020001N1+02421+02071101431ADDAA199000091GF107991071081008001001001KA1240M+03371MA1999999096761MD1999999+0091REMSYN088AAXX  30004 82784 32595 70000 10242 20207 39676 40143 87800 333 10337 29071 55088 58009;EQDQ01  00002PRCP99
0167827840999992001053018004-07310-039300FM-12+040999999V0200901N002112200019N0200001N1+03251+01891101101ADDAA199000091GF104991031021008001011001MA1999999096471MD1999999-0081REMSYN070AAXX  30184 82784 32598 40904 10325 20189 39647 40110 83210 333 59008;EQDQ01  00002PRCP99
0198827840999992001053100004-07310-039300FM-12+040999999V0209999C000012200019N0020001N1+02321+02131101291ADDAA199000091GF102991021021008001001001KA1240M+03301MA1999999096631MD1999999-0131REMSYN088AAXX  31004 82784 32595 20000 10232 20213 39663 40129 82200 333 10330 29073 55088 59013;EQDQ01  00002PRCP99
0186827840999992001053112004-07310-039300FM-12+040999999V0201401N001010075019N0200001N1+02691+02131101601ADDAA199000091GF106991051021008001061001KA1240N+02261MA1999999096921MD1999999-0081REMSYN076AAXX  31124 82784 32598 61402 10269 20213 39692 40160 85260 333 20226 59008;EQDQ01  00002PRCP99
0182827840999992001053118004-07310-039300FM-12+040999999V0203201N001512200019N0200001N1+02891+02231101081ADDAA106002091AY111061AY211061GF104991031021008001071001MA1999999096441MD1999999-0031MW1211REMSYN082AAXX  31184 82784 21598 43203 10289 20223 39644 40108 72111 83270 333 59003 60021;
0213827840999992001060100004-07310-039300FM-12+040999999V0203601N001510075019N0020001N1+02301+02141101441ADDAA106001091AY161061AY221061GF108991081051008001999999KA1240M+03231MA1999999096771MD1999999+0141MW1021REMSYN100AAXX  01004 82784 21595 83603 10230 20214 39677 40144 70262 885// 333 10323 29080 55079 58014 60011;
0201827840999992001060112004-07310-039300FM-12+040999999V0200901N000510075019N0200001N1+02381+02151101621ADDAA124003091AY121061AY221061GF107991051071008001021001KA1240N+02151MA1999999096931MD1999999+0011MW1201REMSYN088AAXX  01124 82784 21598 70901 10238 20215 39693 40162 72022 85720 333 20215 58001 60034;
0148827840999992001060118004-07310-039300FM-12+040999999V0200501N001512200019N0200001N1+02861+02061101151ADDAA199000021GF102991021081012501001001MA1999999096501MD1999999+0061REMSYN070AAXX  01184 82784 32698 20503 10286 20206 39650 40115 82800 333 58006;
0179827840999992001060200004-07310-039300FM-12+040999999V0200901N003110075019N0020001N1+02361+01951101521ADDAA199000021GF108991081071008001999999KA1240M+03091MA1999999096831MD1999999+0061REMSYN088AAXX  02004 82784 32595 80906 10236 20195 39683 40152 887// 333 10309 29076 55042 58006;
0201827840999992001060212004-07310-039300FM-12+040999999V0200501N001011050019N0200001N1+02461+02001101601ADDAA124002091AY161061AY221061GF106991011011008001031041KA1240N+02041MA1999999096911MD1999999-0021MW1021REMSYN088AAXX  02124 82784 21598 60502 10246 20200 39691 40160 70262 81134 333 20204 59002 60024;
0183827840999992001060218004-07310-039300FM-12+040999999V0201401N001519999999N0200001N1+03021+01831101211ADDAA199000091GF106991999011008001001001MA1999999096551MD1999999+0051REMSYN070AAXX  02184 82784 32598 61403 10302 20183 39655 40121 82100 333 58005;EQDQ01+000022SCOTLCQ02  00002PRCP99
0178827840999992001060300004-07310-039300FM-12+040999999V0200901N001510075019N0020001N1+02541+01781101421ADDAA199000091GF108991081051008001999999KA1240M+03071MA1999999096751REMSYN082AAXX  03004 82784 32595 80903 10254 20178 39675 40142 885// 333 10307 29064 55071;EQDQ01  00002PRCP99
0196827840999992001060312004-07310-039300FM-12+040999999V0200901N003112200019N0200001N1+02781+01551101581ADDAA199000091GA1001+999999999GF100991001001999999001001KA1240N+02081MA1999999096921MD1999999+0011REMSYN070AAXX  03124 82784 32998 00906 10278 20155 39692 40158 333 20208 58001;EQDQ01  00002PRCP99
0167827840999992001060318004-07310-039300FM-12+040999999V0200901N002610150019N0200001N1+03041+01911101151ADDAA199000091GF107991071081012501001001MA1999999096511MD1999999-0041REMSYN070AAXX  03184 82784 32698 70905 10304 20191 39651 40115 87800 333 59004;EQDQ01  00002PRCP99
0198827840999992001060400004-07310-039300FM-12+040999999V0200901N002110120019N0020001N1+02631+01981101381ADDAA199000091GF108991081081008001999999KA1240M+03171MA1999999096731MD1999999-0021REMSYN088AAXX  04004 82784 32595 80904 10263 20198 39673 40138 888// 333 10317 29058 55100 59002;EQDQ01  00002PRCP99
0186827840999992001060412004-07310-039300FM-12+040999999V0200501N001510075019N0200001N1+02641+01851101681ADDAA199000091GF105991051021008001001001KA1240N+02081MA1999999097011MD1999999+0091REMSYN076AAXX  04124 82784 32598 50503 10264 20185 39701 40168 85200 333 20208 58009;EQDQ01  00002PRCP99
0198827840999992001060500004-07310-039300FM-12+040999999V0201401N003112200019N0020001N1+02581+01611101521ADDAA199000091GF102991021011008001001001KA1240M+03131MA1999999096851MD1999999+0121REMSYN088AAXX  05004 82784 32595 21406 10258 20161 39685 40152 82100 333 10313 29054 55097 58012;EQDQ01  00002PRCP99
0186827840999992001060512004-07310-039300FM-12+040999999V0201401N004112200019N0200001N1+02501+01841101711ADDAA199000091GF104991031021008001011001KA1240N+01901MA1999999097031MD1999999+0021REMSYN076AAXX  05124 82784 32598 41408 10250 20184 39703 40171 83210 333 20190 58002;EQDQ01  00002PRCP99
0167827840999992001060518004-07310-039300FM-12+040999999V0200501N002110150019N0200001N1+02861+01901101341ADDAA199000091GF108991081081012501999999MA1999999096681MD1999999+0111REMSYN070AAXX  05184 82784 32698 80504 10286 20190 39668 40134 888// 333 58011;EQDQ01  00002PRCP99
0198827840999992001060600004-07310-039300FM-12+040999999V0201401N000510120019N0020001N1+02281+01981101611ADDAA199000091GF108991071081008001051999KA1240M+03071MA1999999096931MD1999999+0081REMSYN088AAXX  06004 82784 32595 81401 10228 20198 39693 40161 8785/ 333 10307 29072 55064 58008;EQDQ01  00002PRCP99
0186827840999992001060612004-07310-039300FM-12+040999999V0201401N003110450019N0200001N1+02571+01801101701ADDAA199000091GF106991011011008001031001KA1240N+02101MA1999999097011MD1999999-0021REMSYN076AAXX  06124 82784 32598 61406 10257 20180 39701 40170 81130 333 20210 59002;EQDQ01  00002PRCP99
0167827840999992001060618004-07310-039300FM-12+040999999V0200901N002110120019N0200001N1+02901+01901101301ADDAA199000091GF108991081081008001999999MA1999999096641MD1999999-0041REMSYN070AAXX  06184 82784 32598 80904 10290 20190 39664 40130 888// 333 59004;EQDQ01  00002PRCP99
0208827840999992001060700004-07310-039300FM-12+040999999V0201401N001512200019N0020001N1+02461+01921101591ADDAA199000091GA1001+999999999GF100991001001999999001001KA1240M+03151MA1999999096911MD1999999-0021REMSYN082AAXX  07004 82784 32995 01403 10246 20192 39691 40159 333 10315 29066 55060 59002;EQDQ01  00002PRCP99
0186827840999992001060712004-07310-039300FM-12+040999999V0200901N002110450019N0200001N1+02621+02011101651ADDAA199000091GF106991021021008001061001KA1240N+02131MA1999999096971MD1999999-0041REMSYN076AAXX  07124 82784 32598 60904 10262 20201 39697 40165 82260 333 20213 59004;EQDQ01  00002PRCP99
0167827840999992001060718004-07310-039300FM-12+040999999V0201401N003110120019N0200001N1+02891+01861101301ADDAA199000091GF107991071081008001001001MA1999999096641MD1999999+0001REMSYN070AAXX  07184 82784 32598 71406 10289 20186 39664 40130 87800 333 58000;EQDQ01  00002PRCP99
0208827840999992001060800004-07310-039300FM-12+040999999V0201401N002112200019N0020001N1+02451+01861101571ADDAA199000091GA1001+999999999GF100991001001999999001001KA1240M+03031MA1999999096901MD1999999-0011REMSYN082AAXX  08004 82784 32995 01404 10245 20186 39690 40157 333 10303 29066 55049 59001;EQDQ01  00002PRCP99
0186827840999992001060812004-07310-039300FM-12+040999999V0200901N003110120019N0200001N1+02561+01831101771ADDAA199000091GF107991071081008001001001KA1240N+02171MA1999999097081MD1999999+0111REMSYN076AAXX  08124 82784 32598 70906 10256 20183 39708 40177 87800 333 20217 58011;EQDQ01  00002PRCP99
0167827840999992001060818004-07310-039300FM-12+040999999V0201401N003110120019N0200001N1+02851+01781101381ADDAA199000091GF105991051021012501001001MA1999999096721MD1999999+0081REMSYN070AAXX  08184 82784 32698 51406 10285 20178 39672 40138 85200 333 58008;EQDQ01  00002PRCP99
0214827840999992001060900004-07310-039300FM-12+040999999V0200901N002612200019N0020001N1+02401+01751101631ADDAA199000091GF101991999011008001001001KA1240M+02971MA1999999096951MD1999999+0051REMSYN088AAXX  09004 82784 32595 10905 10240 20175 39695 40163 82100 333 10297 29062 55058 58005;EQDQ01+000022SCOTLCQ02  00002PRCP99
0186827840999992001060912004-07310-039300FM-12+040999999V0201401N001510120019N0200001N1+02581+01921101721ADDAA199000091GF107991071081008001001001KA1240N+02121MA1999999097041MD1999999-0041REMSYN076AAXX  09124 82784 32598 71403 10258 20192 39704 40172 87800 333 20212 59004;EQDQ01  00002PRCP99
0208827840999992001061000004-07310-039300FM-12+040999999V0201401N000512200019N0020001N1+02201+01781101571ADDAA199000091GA1001+999999999GF100991001001999999001001KA1240M+03061MA1999999096891MD1999999-0061REMSYN082AAXX  10004 82784 32995 01401 10220 20178 39689 40157 333 10306 29067 55076 59006;EQDQ01  00002PRCP99
0186827840999992001061012004-07310-039300FM-12+040999999V0201401N002112200019N0200001N1+02701+01831101701ADDAA199000091GF102991021011008001001001KA1240N+01841MA1999999097011MD1999999-0031REMSYN076AAXX  10124 82784 32598 21404 10270 20183 39701 40170 82100 333 20184 59003;EQDQ01  00002PRCP99
0183827840999992001061018004-07310-039300FM-12+040999999V0201401N005119999999N0200001N1+02951+01911101271ADDAA199000091GF107991999021012501001001MA1999999096611MD1999999-0111REMSYN070AAXX  10184 82784 32698 71410 10295 20191 39661 40127 84200 333 59011;EQDQ01+000042SCOTLCQ02  00002PRCP99
0232827840999992001061100004-07310-039300FM-12+040999999V0203601N001512200019N0020001N1+02201+01951101691ADDAA106000191AY121061AY221061GF102991999051008001999999KA1240M+03131MA1999999097001MD1999999+0111MW1201REMSYN100AAXX  11004 82784 21595 23603 10220 20195 39700 40169 72022 885// 333 10313 29071 55090 58011 69911;EQDQ01+000082SCOTLC
0173827840999992001061112004-07310-039300FM-12+040999999V0200901N002610120019N0200001N1+02441+01901101691ADDAA124000191GF107991071081008001001001KA1240N+02121MA1999999096991MD1999999-0021REMSYN082AAXX  11124 82784 22598 70905 10244 20190 39699 40169 87800 333 20212 59002 69914;
0182827840999992001061118004-07310-039300FM-12+040999999V0200901N001510075019N0010001N1+02421+02011101411ADDAA106000191AY151061AY221061GF108991081071008001999999MA1999999096721MD1999999+0111MW1151REMSYN082AAXX  11184 82784 21594 80903 10242 20201 39672 40141 71552 887// 333 58011 69911;
0208827840999992001061200004-07310-039300FM-12+040999999V0200901N001012200019N0020001N1+02301+01871101601ADDAA199000091GA1001+999999999GF100991001001999999001001KA1240M+02841MA1999999096911MD1999999-0091REMSYN082AAXX  12004 82784 32995 00902 10230 20187 39691 40160 333 10284 29076 55047 59009;EQDQ01  00002PRCP99
0173827840999992001061212004-07310-039300FM-12+040999999V0201401N004110450019N0200001N1+02451+01561101721ADDAA124000191GF105991041021008001031001KA1240N+02081MA1999999097031MD1999999+0041REMSYN082AAXX  12124 82784 22598 51408 10245 20156 39703 40172 84230 333 20208 58004 69914;
0167827840999992001061218004-07310-039300FM-12+040999999V0201401N004110120019N0200001N1+02661+01741101321ADDAA199000091GF107991071081008001001001MA1999999096651MD1999999-0071REMSYN070AAXX  12184 82784 32598 71408 10266 20174 39665 40132 87800 333 59007;EQDQ01  00002PRCP99
0213827840999992001061300004-07310-039300FM-12+040999999V0203201N001510120019N0010001N1+02091+02001101681ADDAA106007191AY151061AY221061GF108991081081008001999999KA1240M+02831MA1999999096971MD1999999+0061MW1151REMSYN100AAXX  13004 82784 21594 83203 10209 20200 39697 40168 71552 888// 333 10283 29076 55050 58006 60071;
0214827840999992001061312004-07310-039300FM-12+040999999V0200901N003110075019N0200001N1+02381+01781999999ADDAA124003091AY161061AY221061GF108991999021008001001001KA1240N+02021MA1999999096951MD1999999-0041MW1021REMSYN082AAXX  13124 82784 21598 80906 10238 20178 39695 70262 85200 333 20202 59004 60034;EQDQ01+000052SCOTLC
0167827840999992001061318004-07310-039300FM-12+040999999V0201401N002110120019N0200001N1+02691+01921101291ADDAA199000091GF107991071081008001001001MA1999999096621MD1999999-0031REMSYN070AAXX  13184 82784 32598 71404 10269 20192 39662 40129 87800 333 59003;EQDQ01  00002PRCP99
0198827840999992001061400004-07310-039300FM-12+040999999V0201401N001510120019N0020001N1+02361+01131101461ADDAA199000091GF108991081081008001999999KA1240M+02821MA1999999096861MD1999999-0111REMSYN088AAXX  14004 82784 32595 81403 10236 20113 39686 40146 888// 333 10282 29069 55020 59011;EQDQ01  00002PRCP99
0214827840999992001061412004-07310-039300FM-12+040999999V0203601N002610120019N0040001N1+02371+01831101671ADDAA199000091AY121061AY221061GF108991081081008001999999KA1240N+02071MA1999999096971MD1999999+0021MW1151REMSYN082AAXX  14124 82784 31596 83605 10237 20183 39697 40167 71522 888// 333 20207 58002;EQDQ01  00002PRCP99
0167827840999992001061418004-07310-039300FM-12+040999999V0201401N003110120019N0200001N1+02801+01751101251ADDAA199000091GF107991071081008001001001MA1999999096581MD1999999-0041REMSYN070AAXX  14184 82784 32598 71406 10280 20175 39658 40125 87800 333 59004;EQDQ01  00002PRCP99
0198827840999992001061500004-07310-039300FM-12+040999999V0209999C000010120019N0020001N1+02381+01841101511ADDAA199000091GF108991081081008001999999KA1240M+02891MA1999999096831MD1999999-0031REMSYN088AAXX  15004 82784 32595 80000 10238 20184 39683 40151 888// 333 10289 29067 55027 59003;EQDQ01  00002PRCP99
0186827840999992001061512004-07310-039300FM-12+040999999V0201401N002612200019N0200001N1+02591+01521101601ADDAA199000091GF102991011011008001061011KA1240N+01951MA1999999096921MD1999999-0051REMSYN076AAXX  15124 82784 32598 21405 10259 20152 39692 40160 81161 333 20195 59005;EQDQ01  00002PRCP99
0167827840999992001061518004-07310-039300FM-12+040999999V0201401N003612200019N0200001N1+03041+01231101161ADDAA199000091GF102991011011008001001011MA1999999096501MD1999999-0081REMSYN070AAXX  15184 82784 32598 21407 10304 20123 39650 40116 81101 333 59008;EQDQ01  00002PRCP99
0208827840999992001061600004-07310-039300FM-12+040999999V0201401N001012200019N0020001N1+02221+01551101441ADDAA199000091GA1001+999999999GF100991001001999999001001KA1240M+03091MA1999999096761MD1999999-0071REMSYN082AAXX  16004 82784 32995 01402 10222 20155 39676 40144 333 10309 29055 55089 59007;EQDQ01  00002PRCP99
0186827840999992001061612004-07310-039300FM-12+040999999V0200501N001012200019N0200001N1+02721+01621101611ADDAA199000091GF101991011011008001001001KA1240N+01931MA1999999096931MD1999999+0011REMSYN076AAXX  16124 82784 32598 10502 10272 20162 39693 40161 81100 333 20193 58001;EQDQ01  00002PRCP99
0131827840999992001061618004-07310-039300FM-12+040999999V0200501N002112200019N0200001N1+03141+01451999999ADDAA199000091GF103991999999008001999999MA1999999096481REMSYN048AAXX  16184 82784 32598 30504 10314 20145 39648;EQDQ01  00002PRCP99
0208827840999992001061700004-07310-039300FM-12+040999999V0209999C000012200019N0020001N1+02221+01761101401ADDAA199000091GA1001+999999999GF100991001001999999001001KA1240M+03191MA1999999096731MD1999999-0031REMSYN082AAXX  17004 82784 32995 00000 10222 20176 39673 40140 333 10319 29059 55105 59003;EQDQ01  00002PRCP99
0186827840999992001061712004-07310-039300FM-12+040999999V0200501N002110075019N0200001N1+02521+01931101611ADDAA199000091GF106991061021008001001001KA1240N+01961MA1999999096921MD1999999-0011REMSYN076AAXX  17124 82784 32598 60504 10252 20193 39692 40161 86200 333 20196 59001;EQDQ01  00002PRCP99
0198827840999992001061800004-07310-039300FM-12+040999999V0201401N001012200019N0020001N1+02731+01651101351ADDAA199000091GF103991031021008001001001KA1240M+03291MA1999999096701MD1999999-0031REMSYN088AAXX  18004 82784 32595 31402 10273 20165 39670 40135 83200 333 10329 29053 55067 59003;EQDQ01  00002PRCP99
0186827840999992001061812004-07310-039300FM-12+040999999V0201401N004112200019N0200001N1+02661+01561101561ADDAA199000091GF101991011011008001001001KA1240N+02201MA1999999096901MD1999999-0021REMSYN076AAXX  18124 82784 32598 11408 10266 20156 39690 40156 81100 333 20220 59002;EQDQ01  00002PRCP99
0167827840999992001061818004-07310-039300FM-12+040999999V0201401N004112200019N0200001N1+03181+01401101121ADDAA199000091GF103991011011008001061001MA1999999096491MD1999999+0041REMSYN070AAXX  18184 82784 32598 31408 10318 20140 39649 40112 81160 333 58004;EQDQ01  00002PRCP99
0208827840999992001061900004-07310-039300FM-12+040999999V0201401N002612200019N0020001N1+02581+01431101431ADDAA199000091GA1001+999999999GF100991001001999999001001KA1240M+03231MA1999999096771MD1999999+0071REMSYN082AAXX  19004 82784 32995 01405 10258 20143 39677 40143 333 10323 29046 55104 58007;EQDQ01  00002PRCP99
0186827840999992001061912004-07310-039300FM-12+040999999V0200901N002612200019N0200001N1+02601+01541101661ADDAA199000091GF102991011021008001031001KA1240N+02101MA1999999096991MD1999999+0091REMSYN076AAXX  19124 82784 32598 20905 10260 20154 39699 40166 81230 333 20210 58009;EQDQ01  00002PRCP99
0167827840999992001061918004-07310-039300FM-12+040999999V0201401N005112200019N0200001N1+03041+01371101171ADDAA199000091GF101991011021012501001001MA1999999096521MD1999999+0031REMSYN070AAXX  19184 82784 32698 11410 10304 20137 39652 40117 81200 333 58003;EQDQ01  00002PRCP99
0198827840999992001062000004-07310-039300FM-12+040999999V0201401N001010120019N0020001N1+02221+01551101521ADDAA199000091GF108991081081008001999999KA1240M+03151MA1999999096841MD1999999+0071REMSYN088AAXX  20004 82784 32595 81402 10222 20155 39684 40152 888// 333 10315 29055 55106 58007;EQDQ01  00002PRCP99
0186827840999992001062012004-07310-039300FM-12+040999999V0201401N002110450019N0200001N1+02621+01761101711ADDAA199000091GF106991011011008001031001KA1240N+02101MA1999999097021MD1999999+0041REMSYN076AAXX  20124 82784 32598 61404 10262 20176 39702 40171 81130 333 20210 58004;EQDQ01  00002PRCP99
0167827840999992001062018004-07310-039300FM-12+040999999V0201401N002610450019N0200001N1+03071+01471101351ADDAA199000091GF107991021021008001061001MA1999999096701MD1999999+0181REMSYN070AAXX  20184 82784 32598 71405 10307 20147 39670 40135 82260 333 58018;EQDQ01  00002PRCP99
0214827840999992001062100004-07310-039300FM-12+040999999V0201801N002112200019N0020001N1+02481+01541101611ADDAA199000091GF103991999011008001001001KA1240M+03161MA1999999096941MD1999999+0101REMSYN088AAXX  21004 82784 32595 31804 10248 20154 39694 40161 82100 333 10316 29052 55069 58010;EQDQ01+000022SCOTLCQ02  00002PRCP99
0167827840999992001062118004-07310-039300FM-12+040999999V0200501N002110120019N0200001N1+03161+01711101241ADDAA199000091GF108991071051012501051999MA1999999096611MD1999999-0091REMSYN070AAXX  21184 82784 32698 80504 10316 20171 39661 40124 8755/ 333 59009;EQDQ01  00002PRCP99
0198827840999992001062200004-07310-039300FM-12+040999999V0201401N002610075019N0020001N1+02761+01491101531ADDAA199000091GF108991081061008001999999KA1240M+03311MA1999999096881MD1999999-0061REMSYN088AAXX  22004 82784 32595 81405 10276 20149 39688 40153 886// 333 10331 29048 55083 59006;EQDQ01  00002PRCP99
0186827840999992001062212004-07310-039300FM-12+040999999V0201401N002110075019N0200001N1+02461+01881101791ADDAA199000091GF108991081071008001999999KA1240N+02151MA1999999097161MD1999999+0111REMSYN076AAXX  22124 82784 32598 81404 10246 20188 39716 40179 887// 333 20215 58011;EQDQ01  00002PRCP99
0167827840999992001062218004-07310-039300FM-12+040999999V0200901N000510450019N0200001N1+03021+01691101411ADDAA199000091GF106991021021008001031001MA1999999096761MD1999999+0151REMSYN070AAXX  22184 82784 32598 60901 10302 20169 39676 40141 82230 333 58015;EQDQ01  00002PRCP99
0198827840999992001062300004-07310-039300FM-12+040999999V0200901N001010075019N0020001N1+02581+01831101591ADDAA199000091GF106991061021008001001001KA1240M+03071MA1999999096911MD1999999+0031REMSYN088AAXX  23004 82784 32595 60902 10258 20183 39691 40159 86200 333 10307 29060 55043 58003;EQDQ01  00002PRCP99
0186827840999992001062312004-07310-039300FM-12+040999999V0200901N003110120019N0200001N1+02561+01751101881ADDAA199000091GF107991071081008001001001KA1240N+02071MA1999999097191MD1999999+0031REMSYN076AAXX  23124 82784 32598 70906 10256 20175 39719 40188 87800 333 20207 58003;EQDQ01  00002PRCP99
0167827840999992001062318004-07310-039300FM-12+040999999V0201401N003610075019N0200001N1+02961+01681101391ADDAA199000091GF106991061021008001001001MA1999999096731MD1999999-0031REMSYN070AAXX  23184 82784 32598 61407 10296 20168 39673 40139 86200 333 59003;EQDQ01  00002PRCP99
0208827840999992001062400004-07310-039300FM-12+040999999V0200901N001012200019N0020001N1+02221+01671101621ADDAA199000091GA1001+999999999GF100991001001999999001001KA1240M+03071MA1999999096931MD1999999+0021REMSYN082AAXX  24004 82784 32995 00902 10222 20167 39693 40162 333 10307 29062 55066 58002;EQDQ01  00002PRCP99
0186827840999992001062412004-07310-039300FM-12+040999999V0201401N001510075019N0200001N1+02561+01831101791ADDAA199000091GF107991071021008001001001KA1240N+02031MA1999999097091MD1999999-0101REMSYN076AAXX  24124 82784 32598 71403 10256 20183 39709 40179 87200 333 20203 59010;EQDQ01  00002PRCP99
0167827840999992001062418004-07310-039300FM-12+040999999V0201401N003112200019N0200001N1+03041+01371101401ADDAA199000091GF104991041021012501001001MA1999999096731MD1999999+0001REMSYN070AAXX  24184 82784 32698 41406 10304 20137 39673 40140 84200 333 58000;EQDQ01  00002PRCP99
0208827840999992001062500004-07310-039300FM-12+040999999V0201401N003112200019N0020001N1+02521+01491101681ADDAA199000091GA1001+999999999GF100991001001999999001001KA1240M+03211MA1999999097001MD1999999+0071REMSYN082AAXX  25004 82784 32995 01406 10252 20149 39700 40168 333 10321 29052 55094 58007;EQDQ01  00002PRCP99
0186827840999992001062512004-07310-039300FM-12+040999999V0201401N003612200019N0200001N1+02621+01761101891ADDAA199000091GF102991021021008001001001KA1240N+02131MA1999999097201MD1999999+0111REMSYN076AAXX  25124 82784 32598 21407 10262 20176 39720 40189 82200 333 20213 58011;EQDQ01  00002PRCP99
0167827840999992001062518004-07310-039300FM-12+040999999V0201801N003612200019N0200001N1+03141+01581101451ADDAA199000091GF102991021011008001001001MA1999999096791MD1999999+0061REMSYN070AAXX  25184 82784 32598 21807 10314 20158 39679 40145 82100 333 58006;EQDQ01  00002PRCP99
0186827840999992001062612004-07310-039300FM-12+040999999V0200901N002612200019N0200001N1+02701+01691101801ADDAA199000091GF101991011001017501071001KA1240N+02031MA1999999097221MD1999999+0021REMSYN076AAXX  26124 82784 32798 10905 10270 20169 39722 40180 81070 333 20203 58002;EQDQ01  00002PRCP99
0167827840999992001062618004-07310-039300FM-12+040999999V0201401N002110120019N0200001N1+03111+01731101511ADDAA199000091GF108991081081008001999999MA1999999096851MD1999999+0061REMSYN070AAXX  26184 82784 32598 81404 10311 20173 39685 40151 888// 333 58006;EQDQ01  00002PRCP99
0214827840999992001062700004-07310-039300FM-12+040999999V0201401N002619999999N0020001N1+02691+01731101751ADDAA199000091GF108991999011008001001001KA1240M+03321MA1999999097401MD1999999+0021REMSYN088AAXX  27004 82784 32595 81405 10269 20173 39740 40175 82100 333 10332 29050 55082 58002;EQDQ01+000022SCOTLCQ02  00002PRCP99
0186827840999992001062712004-07310-039300FM-12+040999999V0201401N001510120019N0200001N1+02661+01921101821ADDAA199000091GF108991071081008001031999KA1240N+02271MA1999999097151MD1999999-0071REMSYN076AAXX  27124 82784 32598 81403 10266 20192 39715 40182 8783/ 333 20227 59007;EQDQ01  00002PRCP99
0182827840999992001062718004-07310-039300FM-12+040999999V0202301N001510450019N0200001N1+02861+02161101411ADDAA106004191AY121061AY221061GF106991031021008001061001MA1999999096751MD1999999-0101MW1211REMSYN082AAXX  27184 82784 21598 62303 10286 20216 39675 40141 72122 83260 333 59010 60041;
0179827840999992001062800004-07310-039300FM-12+040999999V0201401N002110075019N0020001N1+02421+02091101741ADDAA199000021GF108991081071008001999999KA1240M+03031MA1999999097061MD1999999-0021REMSYN088AAXX  28004 82784 32595 81404 10242 20209 39706 40174 887// 333 10303 29074 55029 59002;
0201827840999992001062812004-07310-039300FM-12+040999999V0201401N002110075019N0100001N1+02441+02031101791ADDAA124005191AY161061AY221061GF108991081071008001999999KA1240N+02241MA1999999097101MD1999999-0051MW1021REMSYN088AAXX  28124 82784 21597 81404 10244 20203 39710 40179 70262 887// 333 20224 59005 60054;
0167827840999992001062818004-07310-039300FM-12+040999999V0200501N003110120019N0200001N1+02741+02051101411ADDAA199000091GF108991081081008001999999MA1999999096741MD1999999-0011REMSYN070AAXX  28184 82784 32598 80506 10274 20205 39674 40141 888// 333 59001;EQDQ01  00002PRCP99
0186827840999992001062912004-07310-039300FM-12+040999999V0201401N004112200019N0200001N1+02591+01741101821ADDAA199000091GF101991011011008001001001KA1240N+02141MA1999999097121MD1999999+0021REMSYN076AAXX  29124 82784 32598 11408 10259 20174 39712 40182 81100 333 20214 58002;EQDQ01  00002PRCP99
0167827840999992001062918004-07310-039300FM-12+040999999V0201401N004112200019N0200001N1+03121+01441101301ADDAA199000091GF102991011011012501011001MA1999999096651MD1999999-0091REMSYN070AAXX  29184 82784 32698 21408 10312 20144 39665 40130 81110 333 59009;EQDQ01  00002PRCP99
0208827840999992001063000004-07310-039300FM-12+040999999V0201401N001512200019N0020001N1+02371+01591101611ADDAA199000091GA1001+999999999GF100991001001999999001001KA1240M+03201MA1999999096931MD1999999+0011REMSYN082AAXX  30004 82784 32995 01403 10237 20159 39693 40161 333 10320 29058 55105 58001;EQDQ01  00002PRCP99
0186827840999992001063012004-07310-039300FM-12+040999999V0201401N004112200019N0200001N1+02601+01651101721ADDAA199000091GF102991011011008001071001KA1240N+02021MA1999999097041MD1999999-0081REMSYN076AAXX  30124 82784 32598 21408 10260 20165 39704 40172 81170 333 20202 59008;EQDQ01  00002PRCP99
0167827840999992001063018004-07310-039300FM-12+040999999V0201401N003612200019N0200001N1+03171+01511101221ADDAA199000091GF104991031021008001071001MA1999999096571MD1999999-0081REMSYN070AAXX  30184 82784 32598 41407 10317 20151 39657 40122 83270 333 59008;EQDQ01  00002PRCP99
0208827840999992001070100004-07310-039300FM-12+040999999V0201401N002112200019N0020001N1+02231+01731101461ADDAA199000091GA1001+999999999GF100991001001999999001001KA1240M+03191MA1999999096781MD1999999-0151REMSYN082AAXX  01004 82784 32995 01404 10223 20173 39678 40146 333 10319 29060 55100 59015;EQDQ01  00002PRCP99
0186827840999992001070112004-07310-039300FM-12+040999999V0201401N002110120019N0200001N1+02521+01741101621ADDAA199000091GF108991081081008001999999KA1240N+01621MA1999999096931MD1999999-0111REMSYN076AAXX  01124 82784 32598 81404 10252 20174 39693 40162 888// 333 20162 59011;EQDQ01  00002PRCP99
0167827840999992001070118004-07310-039300FM-12+040999999V0201401N003110150019N0200001N1+02801+01901101261ADDAA199000091GF108991081081012501999999MA1999999096601MD1999999+0031REMSYN070AAXX  01184 82784 32698 81406 10280 20190 39660 40126 888// 333 58003;EQDQ01  00002PRCP99
0198827840999992001070200004-07310-039300FM-12+040999999V0201401N002612200019N0020001N1+02401+01841101541ADDAA199000091GF102991021011008001001001KA1240M+03001MA1999999096861MD1999999+0081REMSYN088AAXX  02004 82784 32595 21405 10240 20184 39686 40154 82100 333 10300 29067 55026 58008;EQDQ01  00002PRCP99
0159827840999992001070212004-07310-039300FM-12+040999999V0200901N004610075019N0200001N1+02471+01781101781ADDAA199000091GF108991999071008001999061MA1999999097091REMSYN060AAXX  02124 82784 32598 80909 10247 20178 39709 40178 887/6;EQDQ01+000082SCOTLCQ02  00002PRCP99
0167827840999992001070218004-07310-039300FM-12+040999999V0201401N003112200019N0200001N1+02911+01721101361ADDAA199000091GF103991021021012501031001MA1999999096701MD1999999+0101REMSYN070AAXX  02184 82784 32698 31406 10291 20172 39670 40136 82230 333 58010;EQDQ01  00002PRCP99
0208827840999992001070300004-07310-039300FM-12+040999999V0201401N001012200019N0020001N1+02221+01841101661ADDAA199000091GA1001+999999999GF100991001001999999001001KA1240M+03001MA1999999096961MD1999999+0101REMSYN082AAXX  03004 82784 32995 01402 10222 20184 39696 40166 333 10300 29068 55057 58010;EQDQ01  00002PRCP99
0201827840999992001070312004-07310-039300FM-12+040999999V0201401N003612200019N0200001N1+02621+01621101851ADDAA124000191AY151061AY201061GF102991021021008001001001KA1240N+02141MA1999999097151MD1999999+0061MW1011REMSYN088AAXX  03124 82784 21598 21407 10262 20162 39715 40185 70150 82200 333 20214 58006 69924;
0167827840999992001070318004-07310-039300FM-12+040999999V0200901N003610150019N0200001N1+03191+01351101331ADDAA199000091GF108991081081012501999999MA1999999096681MD1999999-0021REMSYN070AAXX  03184 82784 32698 80907 10319 20135 39668 40133 888// 333 59002;EQDQ01  00002PRCP99
0198827840999992001070400004-07310-039300FM-12+040999999V0200901N001012200019N0020001N1+02481+01681101651ADDAA199000091GF101991011011008001001001KA1240M+03221MA1999999096971MD1999999+0011REMSYN088AAXX  04004 82784 32595 10902 10248 20168 39697 40165 81100 333 10322 29062 55057 58001;EQDQ01  00002PRCP99
0186827840999992001070412004-07310-039300FM-12+040999999V0200901N002610075019N0200001N1+02621+01781101811ADDAA199000091GF106991061021008001001001KA1240N+01861MA1999999098131MD1999999+0011REMSYN076AAXX  04124 82784 32598 60905 10262 20178 39813 40181 86200 333 20186 58001;EQDQ01  00002PRCP99
0183827840999992001070418004-07310-039300FM-12+040999999V0201401N001510120019N0200001N1+03241+01581101281ADDAA199000091GF106991061021012501001001MA1999999096632MD1999999-0051REMSYN070AAXX  04184 82784 32698 61403 10324 20158 39663 40128 86200 333 59005;EQDQ01+096633APOSP Q02  00002PRCP99
0198827840999992001070500004-07310-039300FM-12+040999999V0201401N000510450019N0020001N1+02521+01821101591ADDAA199000091GF108991021081008001051999KA1240M+03301MA1999999096921MD1999999-0051REMSYN088AAXX  05004 82784 32595 81401 10252 20182 39692 40159 8285/ 333 10330 29057 55086 59005;EQDQ01  00002PRCP99
0186827840999992001070512004-07310-039300FM-12+040999999V0201401N004612200019N0200001N1+02581+01801101801ADDAA199000091GF103991031021008001001001KA1240N+02241MA1999999097121MD1999999-0011REMSYN076AAXX  05124 82784 32598 31409 10258 20180 39712 40180 83200 333 20224 59001;EQDQ01  00002PRCP99
0167827840999992001070518004-07310-039300FM-12+040999999V0201401N002610120019N0200001N1+03221+01571101361ADDAA199000091GF108991081021012501999999MA1999999096711MD1999999+0081REMSYN070AAXX  05184 82784 32698 81405 10322 20157 39671 40136 882// 333 58008;EQDQ01  00002PRCP99
0208827840999992001070600004-07310-039300FM-12+040999999V0201401N003112200019N0020001N1+02521+01611101581ADDAA199000091GA1001+999999999GF100991001001999999001001KA1240M+03261MA1999999096911MD1999999-0011REMSYN082AAXX  06004 82784 32995 01406 10252 20161 39691 40158 333 10326 29053 55101 59001;EQDQ01  00002PRCP99
0186827840999992001070612004-07310-039300FM-12+040999999V0200901N004610120019N0200001N1+02681+01811101691ADDAA199000091GF108991081081008001999999KA1240N+02201MA1999999097021MD1999999-0101REMSYN076AAXX  06124 82784 32598 80909 10268 20181 39702 40169 888// 333 20220 59010;EQDQ01  00002PRCP99
0167827840999992001070618004-07310-039300FM-12+040999999V0201401N004612200019N0200001N1+03041+01851101231ADDAA199000091GF104991041021012501001001MA1999999096601MD1999999-0131REMSYN070AAXX  06184 82784 32698 41409 10304 20185 39660 40123 84200 333 59013;EQDQ01  00002PRCP99
0198827840999992001070700004-07310-039300FM-12+040999999V0201401N003110120019N0020001N1+02421+01841101541ADDAA199000091GF108991081081008001999999KA1240M+03111MA1999999096871MD1999999-0041REMSYN088AAXX  07004 82784 32595 81406 10242 20184 39687 40154 888// 333 10311 29062 55060 59004;EQDQ01  00002PRCP99
0186827840999992001070712004-07310-039300FM-12+040999999V0200901N002612200019N0200001N1+02631+01621101771ADDAA199000091GF103991021081008001001021KA1240N+02001MA1999999097091MD1999999+0061REMSYN076AAXX  07124 82784 32598 30905 10263 20162 39709 40177 82802 333 20200 58006;EQDQ01  00002PRCP99
0167827840999992001070718004-07310-039300FM-12+040999999V0200901N002610120019N0200001N1+03161+01241101271ADDAA199000091GF106991061021012501001001MA1999999096631MD1999999+0051REMSYN070AAXX  07184 82784 32698 60905 10316 20124 39663 40127 86200 333 58005;EQDQ01  00002PRCP99
0208827840999992001070800004-07310-039300FM-12+040999999V0201401N003112200019N0020001N1+02381+01311101631ADDAA199000091GA1001+999999999GF100991001001999999001001KA1240M+03301MA1999999096951MD1999999+0081REMSYN082AAXX  08004 82784 32995 01406 10238 20131 39695 40163 333 10330 29047 55096 58008;EQDQ01  00002PRCP99
0186827840999992001070812004-07310-039300FM-12+040999999V0201401N005110075019N0200001N1+02541+01781101831ADDAA199000091GF108991081021008001999999KA1240N+02201MA1999999097141MD1999999+0051REMSYN076AAXX  08124 82784 32598 81410 10254 20178 39714 40183 882// 333 20220 58005;EQDQ01  00002PRCP99
0167827840999992001070818004-07310-039300FM-12+040999999V0201401N005112200019N0200001N1+03011+01611101421ADDAA199000091GF103991021021012501011001MA1999999096761MD1999999+0031REMSYN070AAXX  08184 82784 32698 31410 10301 20161 39676 40142 82210 333 58003;EQDQ01  00002PRCP99
0208827840999992001070900004-07310-039300FM-12+040999999V0201401N003612200019N0020001N1+02431+01761101641ADDAA199000091GA1001+999999999GF100991001001999999001001KA1240M+03171MA1999999096951MD1999999+0001REMSYN082AAXX  09004 82784 32995 01407 10243 20176 39695 40164 333 10317 29062 55099 58000;EQDQ01  00002PRCP99
0186827840999992001070912004-07310-039300FM-12+040999999V0200901N002610120019N0200001N1+02431+01671101761ADDAA199000091GF108991081081008001999999KA1240N+01921MA1999999097061MD1999999-0081REMSYN076AAXX  09124 82784 32598 80905 10243 20167 39706 40176 888// 333 20192 59008;EQDQ01  00002PRCP99
0167827840999992001070918004-07310-039300FM-12+040999999V0201401N003110120019N0200001N1+02981+01791101351ADDAA199000091GF107991051021012501051091MA1999999096691MD1999999-0071REMSYN070AAXX  09184 82784 32698 71406 10298 20179 39669 40135 85259 333 59007;EQDQ01  00002PRCP99
0198827840999992001071000004-07310-039300FM-12+040999999V0201401N003612200019N0020001N1+02481+01851101561ADDAA199000091GF101991011081008001001001KA1240M+03031MA1999999096881MD1999999-0071REMSYN088AAXX  10004 82784 32595 11407 10248 20185 39688 40156 81800 333 10303 29062 55052 59007;EQDQ01  00002PRCP99
0186827840999992001071012004-07310-039300FM-12+040999999V0200901N004112200019N0200001N1+02561+01621101621ADDAA199000091GF101991011011008001001001KA1240N+02151MA1999999096941MD1999999-0121REMSYN076AAXX  10124 82784 32598 10908 10256 20162 39694 40162 81100 333 20215 59012;EQDQ01  00002PRCP99
0167827840999992001071018004-07310-039300FM-12+040999999V0201401N002610120019N0200001N1+02841+01461101251ADDAA199000091GF108991081021012501999999MA1999999096591MD1999999-0101REMSYN070AAXX  10184 82784 32698 81405 10284 20146 39659 40125 882// 333 59010;EQDQ01  00002PRCP99
0208827840999992001071100004-07310-039300FM-12+040999999V0201401N006212200019N0020001N1+02261+01751101481ADDAA199000091GA1001+999999999GF100991001001999999001001KA1240M+02891MA1999999096801MD1999999-0081REMSYN082AAXX  11004 82784 32995 01412 10226 20175 39680 40148 333 10289 29061 55068 59008;EQDQ01  00002PRCP99
0196827840999992001071112004-07310-039300FM-12+040999999V0201401N002612200019N0200001N1+02661+01591101661ADDAA199000091GA1001+999999999GF100991001001999999001001KA1240N+02031MA1999999096971MD1999999+0031REMSYN070AAXX  11124 82784 32998 01405 10266 20159 39697 40166 333 20203 58003;EQDQ01  00002PRCP99
0177827840999992001071118004-07310-039300FM-12+040999999V0200901N002112200019N0200001N1+03121+01351101171ADDAA199000091GA1001+999999999GF100991001001999999001001MA1999999096531MD1999999-0061REMSYN064AAXX  11184 82784 32998 00904 10312 20135 39653 40117 333 59006;EQDQ01  00002PRCP99
0208827840999992001071200004-07310-039300FM-12+040999999V0200501N001512200019N0020001N1+02301+01431101511ADDAA199000091GA1001+999999999GF100991001001999999001001KA1240M+03301MA1999999096841MD1999999+0041REMSYN082AAXX  12004 82784 32995 00503 10230 20143 39684 40151 333 10330 29050 55106 58004;EQDQ01  00002PRCP99
0186827840999992001071212004-07310-039300FM-12+040999999V0203601N001012200019N0200001N1+02781+01911101751ADDAA199000091GF104991041021008001001001KA1240N+02021MA1999999097071MD1999999+0111REMSYN076AAXX  12124 82784 32598 43602 10278 20191 39707 40175 84200 333 20202 58011;EQDQ01  00002PRCP99
0167827840999992001071218004-07310-039300FM-12+040999999V0200501N002610150019N0200001N1+03141+01771101361ADDAA199000091GF108991081081012501999999MA1999999096701MD1999999+0171REMSYN070AAXX  12184 82784 32698 80505 10314 20177 39670 40136 888// 333 58017;EQDQ01  00002PRCP99
0198827840999992001071300004-07310-039300FM-12+040999999V0200501N001510075019N0020001N1+02441+01901101561ADDAA199000091GF108991081061008001999999KA1240M+03231MA1999999096801MD1999999+0051REMSYN088AAXX  13004 82784 32595 80503 10244 20190 39680 40156 886// 333 10323 29062 55086 58005;EQDQ01  00002PRCP99
0186827840999992001071312004-07310-039300FM-12+040999999V0200501N001510075019N0200001N1+02461+99999101741ADDAA199000091GF108991081071008001999999KA1240N+02031MA1999999097051MD1999999-0021REMSYN076AAXX  13124 82784 32598 80503 10246 20297 39705 40174 887// 333 20203 59002;EQDQ01  00002PRCP99
0167827840999992001071318004-07310-039300FM-12+040999999V0200501N001510120019N0200001N1+03161+01921101221ADDAA199000091GF106991061021012501001001MA1999999096581MD1999999-0121REMSYN070AAXX  13184 82784 32698 60503 10316 20192 39658 40122 86200 333 59012;EQDQ01  00002PRCP99
0196827840999992001071612004-07310-039300FM-12+040999999V0200901N004612200019N0200001N1+02561+01641101781ADDAA199000091GA1001+999999999GF100991001001999999001001KA1240N+02101MA1999999097091MD1999999+0021REMSYN070AAXX  16124 82784 32998 00909 10256 20164 39709 40178 333 20210 58002;EQDQ01  00002PRCP99
0167827840999992001071618004-07310-039300FM-12+040999999V0201401N004112200019N0200001N1+02941+01591101381ADDAA199000091GF103991031081012501001001MA1999999096721MD1999999+0021REMSYN070AAXX  16184 82784 32698 31408 10294 20159 39672 40138 83800 333 58002;EQDQ01  00002PRCP99
0198827840999992001071700004-07310-039300FM-12+040999999V0200901N001512200019N0020001N1+02401+01821101631ADDAA199000091GF101991011001008001011011KA1240M+03111MA1999999096951MD1999999+0011REMSYN088AAXX  17004 82784 32595 10903 10240 20182 39695 40163 81011 333 10311 29060 55088 58001;EQDQ01  00002PRCP99
0186827840999992001071712004-07310-039300FM-12+040999999V0201401N003110120019N0200001N1+02561+01781101811ADDAA199000091GF108991081081008001999999KA1240N+02271MA1999999097121MD1999999+0031REMSYN076AAXX  17124 82784 32598 81406 10256 20178 39712 40181 888// 333 20227 58003;EQDQ01  00002PRCP99
0167827840999992001071718004-07310-039300FM-12+040999999V0200901N002610150019N0200001N1+02851+01761101391ADDAA199000091GF108991081081012501999999MA1999999096731MD1999999+0011REMSYN070AAXX  17184 82784 32698 80905 10285 20176 39673 40139 888// 333 58001;EQDQ01  00002PRCP99
0198827840999992001071800004-07310-039300FM-12+040999999V0200901N001010120019N0020001N1+02211+01801101681ADDAA199000091GF108991081081008001999999KA1240M+02971MA1999999096991MD1999999+0041REMSYN088AAXX  18004 82784 32595 80902 10221 20180 39699 40168 888// 333 10297 29068 55023 58004;EQDQ01  00002PRCP99
0211827840999992001071812004-07310-039300FM-12+040999999V0201401N001012200019N0200001N1+02641+01881101811ADDAA124002091AY161061AY211061GA1001+999999999GF100991001001999999001001KA1240N+02061MA1999999097111MD1999999-0011MW1011REMSYN082AAXX  18124 82784 21598 01402 10264 20188 39711 40181 70161 333 20206 59001 60024;
0208827840999992001071900004-07310-039300FM-12+040999999V0201401N000512200019N0020001N1+02461+01761101531ADDAA199000091GA1001+999999999GF100991001001999999001001KA1240M+03231MA1999999096861MD1999999-0131REMSYN082AAXX  19004 82784 32995 01401 10246 20176 39686 40153 333 10323 29059 55103 59013;EQDQ01  00002PRCP99
0186827840999992001071912004-07310-039300FM-12+040999999V0201401N002112200019N0200001N1+02761+01891101761ADDAA199000091GF101991011011008001001001KA1240N+01901MA1999999097081MD1999999-0031REMSYN076AAXX  19124 82784 32598 11404 10276 20189 39708 40176 81100 333 20190 59003;EQDQ01  00002PRCP99
0167827840999992001071918004-07310-039300FM-12+040999999V0201401N003610150019N0200001N1+03061+01801101241ADDAA199000091GF108991081081012501999999MA1999999096591MD1999999+0011REMSYN070AAXX  19184 82784 32698 81407 10306 20180 39659 40124 888// 333 58001;EQDQ01  00002PRCP99
0198827840999992001072000004-07310-039300FM-12+040999999V0200901N001012200019N0020001N1+02361+01951101601ADDAA199000091GF103991031081008001001001KA1240M+03201MA1999999096931MD1999999+0071REMSYN088AAXX  20004 82784 32595 30902 10236 20195 39693 40160 83800 333 10320 29066 55069 58007;EQDQ01  00002PRCP99
0186827840999992001072012004-07310-039300FM-12+040999999V0200501N003110120019N0200001N1+02601+01791101631ADDAA199000091GF108991081081008001999999KA1240N+02201MA1999999096961MD1999999-0131REMSYN076AAXX  20124 82784 32598 80506 10260 20179 39696 40163 888// 333 20220 59013;EQDQ01  00002PRCP99
0183827840999992001072018004-07310-039300FM-12+040999999V0200901N003112200019N0200001N1+03121+01521101131ADDAA199000091GF103991999021012501001001MA1999999096491MD1999999-0101REMSYN070AAXX  20184 82784 32698 30906 10312 20152 39649 40113 84200 333 59010;EQDQ01+000042SCOTLCQ02  00002PRCP99
0198827840999992001072100004-07310-039300FM-12+040999999V0201401N001010075019N0020001N1+02601+02061101461ADDAA199000091GF107991071021008001001001KA1240M+03211MA1999999096801MD1999999-0131REMSYN088AAXX  21004 82784 32595 71402 10260 20206 39680 40146 87200 333 10321 29061 55062 59013;EQDQ01  00002PRCP99
0201827840999992001072112004-07310-039300FM-12+040999999V0200901N002110120019N0200001N1+02521+01981101661ADDAA124001091AY161061AY221061GF108991081081008001999999KA1240N+02121MA1999999096981MD1999999+0031MW1021REMSYN088AAXX  21124 82784 21598 80904 10252 20198 39698 40166 70262 888// 333 20212 58003 60014;
0167827840999992001072118004-07310-039300FM-12+040999999V0201401N003110120019N0200001N1+03201+01821101171ADDAA199000091GF107991071021012501001001MA1999999096531MD1999999+0041REMSYN070AAXX  21184 82784 32698 71406 10320 20182 39653 40117 87200 333 58004;EQDQ01  00002PRCP99
0213827840999992001072200004-07310-039300FM-12+040999999V0201401N002110042019N0005001N1+02121+02021101651ADDAA106020191AY121061AY221061GF108991081071004501999999KA1240M+03261MA1999999096951MD1999999+0151MW1951REMSYN100AAXX  22004 82784 21493 81404 10212 20202 39695 40165 79522 887// 333 10326 29076 55071 58015 60201;
0201827840999992001072212004-07310-039300FM-12+040999999V0201401N002112200019N0200001N1+02581+02101101611ADDAA124022191AY161061AY221061GF104991041021008001001001KA1240N+02121MA1999999096921MD1999999-0061MW1031REMSYN088AAXX  22124 82784 21598 41404 10258 20210 39692 40161 70362 84200 333 20212 59006 60224;
0167827840999992001072218004-07310-039300FM-12+040999999V0201401N004110120019N0200001N1+03181+01691101161ADDAA199000091GF106991061021012501001001MA1999999096521MD1999999-0011REMSYN070AAXX  22184 82784 32698 61408 10318 20169 39652 40116 86200 333 59001;EQDQ01  00002PRCP99
0208827840999992001072300004-07310-039300FM-12+040999999V0209999C000012200019N0020001N1+02481+02051101431ADDAA199000091GA1001+999999999GF100991001001999999001001KA1240M+03251MA1999999096761MD1999999-0191REMSYN082AAXX  23004 82784 32995 00000 10248 20205 39676 40143 333 10325 29068 55088 59019;EQDQ01  00002PRCP99
0186827840999992001072312004-07310-039300FM-12+040999999V0203601N001510075019N0200001N1+02641+02031101571ADDAA199000091GF106991061021008001001001KA1240N+02001MA1999999096901MD1999999-0021REMSYN076AAXX  23124 82784 32598 63603 10264 20203 39690 40157 86200 333 20200 59002;EQDQ01  00002PRCP99
0177827840999992001072318004-07310-039300FM-12+040999999V0201401N004612200019N0200001N1+03121+01391101271ADDAA199000091GA1001+999999999GF100991001001999999001001MA1999999096621MD1999999+0101REMSYN064AAXX  23184 82784 32998 01409 10312 20139 39662 40127 333 58010;EQDQ01  00002PRCP99
0208827840999992001072400004-07310-039300FM-12+040999999V0201401N004612200019N0020001N1+02381+01841101591ADDAA199000091GA1001+999999999GF100991001001999999001001KA1240M+03191MA1999999096911MD1999999+0151REMSYN082AAXX  24004 82784 32995 01409 10238 20184 39691 40159 333 10319 29062 55105 58015;EQDQ01  00002PRCP99
0186827840999992001072412004-07310-039300FM-12+040999999V0201401N003610075019N0200001N1+02331+01601101821ADDAA199000091GF106991061021008001001001KA1240N+02061MA1999999097121MD1999999+0201REMSYN076AAXX  24124 82784 32598 61407 10233 20160 39712 40182 86200 333 20206 58020;EQDQ01  00002PRCP99
0177827840999992001072418004-07310-039300FM-12+040999999V0201401N004112200019N0200001N1+03001+01531101401ADDAA199000091GA1001+999999999GF100991001001999999001001MA1999999096741MD1999999+0201REMSYN064AAXX  24184 82784 32998 01408 10300 20153 39674 40140 333 58020;EQDQ01  00002PRCP99
0208827840999992001072500004-07310-039300FM-12+040999999V0200901N002112200019N0020001N1+02301+01611101631ADDAA199000091GA1001+999999999GF100991001001999999001001KA1240M+03051MA1999999096931MD1999999+0021REMSYN082AAXX  25004 82784 32995 00904 10230 20161 39693 40163 333 10305 29059 55099 58002;EQDQ01  00002PRCP99
0196827840999992001072512004-07310-039300FM-12+040999999V0201401N004612200019N0200001N1+02441+01481101711ADDAA199000091GA1001+999999999GF100991001001999999001001KA1240N+01841MA1999999097011MD1999999-0111REMSYN070AAXX  25124 82784 32998 01409 10244 20148 39701 40171 333 20184 59011;EQDQ01  00002PRCP99
0167827840999992001072518004-07310-039300FM-12+040999999V0201401N004612200019N0200001N1+02961+01501101291ADDAA199000091GF102991021021012501001001MA1999999096621MD1999999-0121REMSYN070AAXX  25184 82784 32698 21409 10296 20150 39662 40129 82200 333 59012;EQDQ01  00002PRCP99
0208827840999992001072600004-07310-039300FM-12+040999999V0201401N002112200019N0020001N1+02401+01821101581ADDAA199000091GA1001+999999999GF100991001001999999001001KA1240M+03131MA1999999096891MD1999999-0041REMSYN082AAXX  26004 82784 32995 01404 10240 20182 39689 40158 333 10313 29059 55107 59004;EQDQ01  00002PRCP99
0186827840999992001072612004-07310-039300FM-12+040999999V0200901N003112200019N0200001N1+02581+01661101831ADDAA199000091GF102991021021008001001001KA1240N+02081MA1999999097141MD1999999+0131REMSYN076AAXX  26124 82784 32598 20906 10258 20166 39714 40183 82200 333 20208 58013;EQDQ01  00002PRCP99
0167827840999992001072618004-07310-039300FM-12+040999999V0201401N006212200019N0200001N1+02981+01401101431ADDAA199000091GF103991021021012501071001MA1999999096761MD1999999+0141REMSYN070AAXX  26184 82784 32698 31412 10298 20140 39676 40143 82270 333 58014;EQDQ01  00002PRCP99
0208827840999992001072700004-07310-039300FM-12+040999999V0201401N002612200019N0020001N1+02361+01511101671ADDAA199000091GA1001+999999999GF100991001001999999001001KA1240M+03101MA1999999096981MD1999999+0091REMSYN082AAXX  27004 82784 32995 01405 10236 20151 39698 40167 333 10310 29053 55098 58009;EQDQ01  00002PRCP99
0196827840999992001072712004-07310-039300FM-12+040999999V0201401N006212200019N0200001N1+02561+01381101831ADDAA199000091GA1001+999999999GF100991001001999999001001KA1240N+02041MA1999999097141MD1999999+0001REMSYN070AAXX  27124 82784 32998 01412 10256 20138 39714 40183 333 20204 58000;EQDQ01  00002PRCP99
0177827840999992001072718004-07310-039300FM-12+040999999V0201401N003112200019N0200001N1+03051+01091101391ADDAA199000091GA1001+999999999GF100991001001999999001001MA1999999096731MD1999999-0031REMSYN064AAXX  27184 82784 32998 01406 10305 20109 39673 40139 333 59003;EQDQ01  00002PRCP99
0208827840999992001072800004-07310-039300FM-12+040999999V0201401N003612200019N0020001N1+02371+01351101651ADDAA199000091GA1001+999999999GF100991001001999999001001KA1240M+03101MA1999999096961MD1999999-0021REMSYN082AAXX  28004 82784 32995 01407 10237 20135 39696 40165 333 10310 29046 55107 59002;EQDQ01  00002PRCP99
0196827840999992001072812004-07310-039300FM-12+040999999V0201401N002612200019N0200001N1+02641+01511101821ADDAA199000091GA1001+999999999GF100991001001999999001001KA1240N+02021MA1999999097131MD1999999+0001REMSYN070AAXX  28124 82784 32998 01405 10264 20151 39713 40182 333 20202 58000;EQDQ01  00002PRCP99
0167827840999992001072818004-07310-039300FM-12+040999999V0201401N001510120019N0200001N1+03081+01401101371ADDAA199000091GF106991061021012501001001MA1999999096711MD1999999-0021REMSYN070AAXX  28184 82784 32698 61403 10308 20140 39671 40137 86200 333 59002;EQDQ01  00002PRCP99
0198827840999992001072900004-07310-039300FM-12+040999999V0200901N001512200019N0020001N1+02481+01541101651ADDAA199000091GF101991011081008001001001KA1240M+03191MA1999999096971MD1999999+0011REMSYN088AAXX  29004 82784 32595 10903 10248 20154 39697 40165 81800 333 10319 29050 55096 58001;EQDQ01  00002PRCP99
0196827840999992001072912004-07310-039300FM-12+040999999V0200901N003112200019N0200001N1+02631+01461101791ADDAA199000091GA1001+999999999GF100991001001999999001001KA1240N+02091MA1999999097111MD1999999-0021REMSYN070AAXX  29124 82784 32998 00906 10263 20146 39711 40179 333 20209 59002;EQDQ01  00002PRCP99
0167827840999992001072918004-07310-039300FM-12+040999999V0201401N003112200019N0200001N1+03161+01341101311ADDAA199000091GF102991021021012501001001MA1999999096661MD1999999-0051REMSYN070AAXX  29184 82784 32698 21406 10316 20134 39666 40131 82200 333 59005;EQDQ01  00002PRCP99
0208827840999992001073000004-07310-039300FM-12+040999999V0201401N003112200019N0020001N1+02551+01541101641ADDAA199000091GA1001+999999999GF100991001001999999001001KA1240M+03241MA1999999096971MD1999999+0001REMSYN082AAXX  30004 82784 32995 01406 10255 20154 39697 40164 333 10324 29048 55104 58000;EQDQ01  00002PRCP99
0186827840999992001073012004-07310-039300FM-12+040999999V0201401N004612200019N0200001N1+02541+01761101891ADDAA199000091GF102991021021008001001001KA1240N+02141MA1999999097201MD1999999+0091REMSYN076AAXX  30124 82784 32598 21409 10254 20176 39720 40189 82200 333 20214 58009;EQDQ01  00002PRCP99
0167827840999992001073018004-07310-039300FM-12+040999999V0201401N003110120019N0200001N1+03081+01441101381ADDAA199000091GF106991061021012501001001MA1999999096731MD1999999+0071REMSYN070AAXX  30184 82784 32698 61406 10308 20144 39673 40138 86200 333 58007;EQDQ01  00002PRCP99
0208827840999992001073100004-07310-039300FM-12+040999999V0201401N002112200019N0020001N1+02481+01541101811ADDAA199000091GA1001+999999999GF100991001001999999001001KA1240M+03231MA1999999097121MD1999999+0231REMSYN082AAXX  31004 82784 32995 01404 10248 20154 39712 40181 333 10323 29053 55098 58023;EQDQ01  00002PRCP99
0186827840999992001073112004-07310-039300FM-12+040999999V0201401N004612200019N0200001N1+02551+01511101981ADDAA199000091GF101991011011008001001001KA1240N+02041MA1999999097281MD1999999+0081REMSYN076AAXX  31124 82784 32598 11409 10255 20151 39728 40198 81100 333 20204 58008;EQDQ01  00002PRCP99
0167827840999992001073118004-07310-039300FM-12+040999999V0201401N004612200019N0200001N1+03081+01221101511ADDAA199000091GF102991021021008001001001MA1999999096851MD1999999+0121REMSYN070AAXX  31184 82784 32598 21409 10308 20122 39685 40151 82200 333 58012;EQDQ01  00002PRCP99
0208827840999992001080100004-07310-039300FM-12+040999999V0200901N002612200019N0020001N1+02201+01511101931ADDAA199000091GA1001+999999999GF100991001001999999001001KA1240M+03131MA1999999097231MD1999999+0111REMSYN082AAXX  01004 82784 32995 00905 10220 20151 39723 40193 333 10313 29054 55106 58011;EQDQ01  00002PRCP99
0196827840999992001080112004-07310-039300FM-12+040999999V0201401N007212200019N0200001N1+02521+01171102001ADDAA199000091GA1001+999999999GF100991001001999999001001KA1240N+01941MA1999999097291MD1999999+0011REMSYN070AAXX  01124 82784 32998 01414 10252 20117 39729 40200 333 20194 58001;EQDQ01  00002PRCP99
0167827840999992001080118004-07310-039300FM-12+040999999V0201401N004612200019N0200001N1+03111+00981101581ADDAA199000091GF101991011011008001001001MA1999999096911MD1999999+0061REMSYN070AAXX  01184 82784 32598 11409 10311 20098 39691 40158 81100 333 58006;EQDQ01  00002PRCP99
0208827840999992001080200004-07310-039300FM-12+040999999V0201401N005112200019N0020001N1+02431+01081101921ADDAA199000091GA1001+999999999GF100991001001999999001001KA1240M+03171MA1999999097231MD1999999+0001REMSYN082AAXX  02004 82784 32995 01410 10243 20108 39723 40192 333 10317 29039 55108 58000;EQDQ01  00002PRCP99
0186827840999992001080212004-07310-039300FM-12+040999999V0201401N004112200019N0200001N1+02551+01451102011ADDAA199000091GF102991021021008001001001KA1240N+01831MA1999999097311MD1999999+0021REMSYN076AAXX  02124 82784 32598 21408 10255 20145 39731 40201 82200 333 20183 58002;EQDQ01  00002PRCP99
0167827840999992001080218004-07310-039300FM-12+040999999V0200901N003612200019N0200001N1+03081+00961101521ADDAA199000091GF101991011011008001001001MA1999999096851MD1999999-0061REMSYN070AAXX  02184 82784 32598 10907 10308 20096 39685 40152 81100 333 59006;EQDQ01  00002PRCP99
0208827840999992001080300004-07310-039300FM-12+040999999V0201401N004612200019N0020001N1+02471+01501101811ADDAA199000091GA1001+999999999GF100991001001999999001001KA1240M+03131MA1999999097121MD1999999-0111REMSYN082AAXX  03004 82784 32995 01409 10247 20150 39712 40181 333 10313 29047 55108 59011;EQDQ01  00002PRCP99
0186827840999992001080312004-07310-039300FM-12+040999999V0201401N004110120019N0200001N1+02341+01641101981ADDAA199000091GF107991071081008001001001KA1240N+02141MA1999999097271MD1999999-0041REMSYN076AAXX  03124 82784 32598 71408 10234 20164 39727 40198 87800 333 20214 59004;EQDQ01  00002PRCP99
0167827840999992001080318004-07310-039300FM-12+040999999V0201401N004110150019N0200001N1+02701+01441101591ADDAA199000091GF108991081081012501999999MA1999999096911MD1999999+0061REMSYN070AAXX  03184 82784 32698 81408 10270 20144 39691 40159 888// 333 58006;EQDQ01  00002PRCP99
0198827840999992001080400004-07310-039300FM-12+040999999V0201401N003110075019N0020001N1+02411+01351101861ADDAA199000091GF108991081051008001999999KA1240M+02811MA1999999097161MD1999999+0041REMSYN088AAXX  04004 82784 32595 81406 10241 20135 39716 40186 885// 333 10281 29054 55012 58004;EQDQ01  00002PRCP99
0171827840999992001080412004-07310-039300FM-12+040999999V0201401N003612200019N0200001N1+02361+01541999999ADDAA199000091GF103991999999008001999999KA1240N+01791MA1999999097251REMSYN075AAXX  04124 82784 32598 31407 10236 20154 39725 0195 86200 333 20179 59002;EQDQ01  00002PRCP99
0183827840999992001080418004-07310-039300FM-12+040999999V0201401N005119999999N0200001N1+02911+01481101471ADDAA199000091GF105991999021008001001001MA1999999096791MD1999999-0121REMSYN070AAXX  04184 82784 32598 51410 10291 20148 39679 40147 83200 333 59012;EQDQ01+000032SCOTLCQ02  00002PRCP99
0208827840999992001080500004-07310-039300FM-12+040999999V0201401N001012200019N0020001N1+02381+01681101721ADDAA199000091GA1001+999999999GF100991001001999999001001KA1240M+02961MA1999999097021MD1999999-0141REMSYN082AAXX  05004 82784 32995 01402 10238 20168 39702 40172 333 10296 29058 55103 59014;EQDQ01  00002PRCP99
0196827840999992001080512004-07310-039300FM-12+040999999V0201401N003112200019N0200001N1+02601+01631101921ADDAA199000091GA1001+999999999GF100991001001999999001001KA1240N+01991MA1999999097231MD1999999-0021REMSYN070AAXX  05124 82784 32998 01406 10260 20163 39723 40192 333 20199 59002;EQDQ01  00002PRCP99
0177827840999992001080518004-07310-039300FM-12+040999999V0201401N003612200019N0200001N1+03241+01161101381ADDAA199000091GA1001+999999999GF100991001001999999001001MA1999999096731MD1999999-0061REMSYN064AAXX  05184 82784 32998 01407 10324 20116 39673 40138 333 59006;EQDQ01  00002PRCP99
0208827840999992001080600004-07310-039300FM-12+040999999V0201401N005112200019N0020001N1+02481+01401101731ADDAA199000091GA1001+999999999GF100991001001999999001001KA1240M+03291MA1999999097051MD1999999+0031REMSYN082AAXX  06004 82784 32995 01410 10248 20140 39705 40173 333 10329 29046 55109 58003;EQDQ01  00002PRCP99
0196827840999992001080612004-07310-039300FM-12+040999999V0200901N006712200019N0200001N1+02421+01401102001ADDAA199000091GA1001+999999999GF100991001001999999001001KA1240N+01941MA1999999097301MD1999999+0071REMSYN070AAXX  06124 82784 32998 00913 10242 20140 39730 40200 333 20194 58007;EQDQ01  00002PRCP99
0177827840999992001080618004-07310-039300FM-12+040999999V0201401N004612200019N0200001N1+03081+00851101531ADDAA199000091GA1001+999999999GF100991001001999999001001MA1999999096861MD1999999+0131REMSYN064AAXX  06184 82784 32998 01409 10308 20085 39686 40153 333 58013;EQDQ01  00002PRCP99
0208827840999992001080700004-07310-039300FM-12+040999999V0201801N004612200019N0020001N1+02341+01211101901ADDAA199000091GA1001+999999999GF100991001001999999001001KA1240M+03131MA1999999097201MD1999999+0151REMSYN082AAXX  07004 82784 32995 01809 10234 20121 39720 40190 333 10313 29032 55108 58015;EQDQ01  00002PRCP99
0186827840999992001080712004-07310-039300FM-12+040999999V0201801N004610075019N0200001N1+02541+01731102041ADDAA199000091GF106991061021008001001001KA1240N+01921MA1999999097331MD1999999+0031REMSYN076AAXX  07124 82784 32598 61809 10254 20173 39733 40204 86200 333 20192 58003;EQDQ01  00002PRCP99
0167827840999992001080718004-07310-039300FM-12+040999999V0201401N005110120019N0200001N1+02721+01821101661ADDAA199000091GF106991061021012501001001MA1999999096961MD1999999+0101REMSYN070AAXX  07184 82784 32698 61410 10272 20182 39696 40166 86200 333 58010;EQDQ01  00002PRCP99
0186827840999992001080812004-07310-039300FM-12+040999999V0200901N003112200019N0200001N1+02551+01481102001ADDAA199000091GF101991011011008001001001KA1240N+02081MA1999999097291MD1999999-0041REMSYN076AAXX  08124 82784 32598 10906 10255 20148 39729 40200 81100 333 20208 59004;EQDQ01  00002PRCP99
0167827840999992001080818004-07310-039300FM-12+040999999V0201401N004612200019N0200001N1+03191+01261101451ADDAA199000091GF101991011011008001001001MA1999999096791MD1999999-0171REMSYN070AAXX  08184 82784 32598 11409 10319 20126 39679 40145 81100 333 59017;EQDQ01  00002PRCP99
0208827840999992001080900004-07310-039300FM-12+040999999V0201401N003612200019N0020001N1+02481+01431101741ADDAA199000091GA1001+999999999GF100991001001999999001001KA1240M+03261MA1999999097061MD1999999-0171REMSYN082AAXX  09004 82784 32995 01407 10248 20143 39706 40174 333 10326 29047 55100 59017;EQDQ01  00002PRCP99
0186827840999992001080912004-07310-039300FM-12+040999999V0200901N003110120019N0200001N1+02511+01701101991ADDAA199000091GF108991081081008001999999KA1240N+02121MA1999999097291MD1999999+0001REMSYN076AAXX  09124 82784 32598 80906 10251 20170 39729 40199 888// 333 20212 58000;EQDQ01  00002PRCP99
0167827840999992001080918004-07310-039300FM-12+040999999V0201401N004610120019N0200001N1+03061+01551101491ADDAA199000091GF106991061021012501001001MA1999999096831MD1999999+0041REMSYN070AAXX  09184 82784 32698 61409 10306 20155 39683 40149 86200 333 58004;EQDQ01  00002PRCP99
0208827840999992001081000004-07310-039300FM-12+040999999V0201401N006012200019N0020001N1+02381+01751101791ADDAA199000091GA1001+999999999GF100991001001999999001001KA1240M+03121MA1999999097101MD1999999+0041REMSYN082AAXX  10000 82784 32995 01406 10238 20175 39710 40179 333 10312 29059 55076 58004;EQDQ01  00002PRCP99
0186827840999992001081012004-07310-039300FM-12+040999999V0201401N003110120019N0200001N1+02361+01591102021ADDAA199000091GF106991061081008001001001KA1240N+02021MA1999999097311MD1999999+0021REMSYN076AAXX  10124 82784 32598 61406 10236 20159 39731 40202 86800 333 20202 58002;EQDQ01  00002PRCP99
0167827840999992001081018004-07310-039300FM-12+040999999V0201401N004112200019N0200001N1+03091+01361101491ADDAA199000091GF101991011011008001001001MA1999999096831MD1999999+0001REMSYN070AAXX  10184 82784 32598 11408 10309 20136 39683 40149 81100 333 58000;EQDQ01  00002PRCP99
0208827840999992001081200004-07310-039300FM-12+040999999V0201401N003112200019N0020001N1+02501+01531101771ADDAA199000091GA1001+999999999GF100991001001999999001001KA1240M+03191MA1999999097091MD1999999+0001REMSYN082AAXX  12004 82784 32995 01406 10250 20153 39709 40177 333 10319 29050 55108 58000;EQDQ01  00002PRCP99
0186827840999992001081212004-07310-039300FM-12+040999999V0201401N002610075019N0200001N1+03201+01841101991ADDAA199000091GF108991081051008001999999KA1240N+02031MA1999999097291MD1999999+0041REMSYN076AAXX  12124 82784 32598 81405 10320 20184 39729 40199 885// 333 20203 58004;EQDQ01  00002PRCP99
0167827840999992001081218004-07310-039300FM-12+040999999V0201401N005110120019N0200001N1+02891+01671101551ADDAA199000091GF108991081081008001999999MA1999999096881MD1999999+0101REMSYN070AAXX  12184 82784 32598 81410 10289 20167 39688 40155 888// 333 58010;EQDQ01  00002PRCP99
0198827840999992001081300004-07310-039300FM-12+040999999V0201401N004610120019N0020001N1+02161+01681102011ADDAA199000091GF108991081081008001999999KA1240M+03071MA1999999097301MD1999999+0211REMSYN088AAXX  13004 82784 32595 81409 10216 20168 39730 40201 888// 333 10307 29066 55063 58021;EQDQ01  00002PRCP99
0201827840999992001081312004-07310-039300FM-12+040999999V0200901N004612200019N0200001N1+02401+01551102001ADDAA124000591AY151061AY211061GF103991031021008001001001KA1240N+01961MA1999999097281MD1999999-0011MW1011REMSYN088AAXX  13124 82784 21598 30909 10240 20155 39728 40200 70151 83200 333 20196 59001 69964;
0167827840999992001081318004-07310-039300FM-12+040999999V0201401N003612200019N0200001N1+02101+01421101391ADDAA199000091GF104991011021008001081041MA1999999096731MD1999999-0151REMSYN070AAXX  13184 82784 32598 41407 10210 20142 39673 40139 81284 333 59015;EQDQ01  00002PRCP99
0208827840999992001081400004-07310-039300FM-12+040999999V0201401N003612200019N0020001N1+02401+01441101801ADDAA199000091GA1001+999999999GF100991001001999999001001KA1240M+03151MA1999999097101MD1999999-0201REMSYN082AAXX  14004 82784 32995 01407 10240 20144 39710 40180 333 10315 29051 55099 59020;EQDQ01  00002PRCP99
0186827840999992001081412004-07310-039300FM-12+040999999V0200901N003110075019N0200001N1+02461+01631101901ADDAA199000091GF107991071021008001001001KA1240N+01951MA1999999097201MD1999999-0081REMSYN076AAXX  14124 82784 32598 70906 10246 20163 39720 40190 87200 333 20195 59008;EQDQ01  00002PRCP99
0198827840999992001081500004-07310-039300FM-12+040999999V0201401N007012200019N0020001N1+02301+01831101841ADDAA199000091GF103991031021008001001001KA1240M+03091MA1999999097141MD1999999+0041REMSYN088AAXX  15000 82784 32595 31407 10230 20183 39714 40184 83200 333 10309 29064 55086 58004;EQDQ01  00002PRCP99
0186827840999992001081512004-07310-039300FM-12+040999999V0200901N003610075019N0200001N1+02461+01761101991ADDAA199000091GF107991071021008001001001KA1240N+02061MA1999999097281MD1999999+0081REMSYN076AAXX  15124 82784 32598 70907 10246 20176 39728 40199 87200 333 20206 58008;EQDQ01  00002PRCP99
0167827840999992001081518004-07310-039300FM-12+040999999V0201401N004612200019N0200001N1+02791+01671101591ADDAA199000091GF104991021021008001061001MA1999999096911MD1999999+0211REMSYN070AAXX  15184 82784 32598 41409 10279 20167 39691 40159 82260 333 58021;EQDQ01  00002PRCP99
0208827840999992001081600004-07310-039300FM-12+040999999V0200901N001512200019N0020001N1+02261+01731101971ADDAA199000091GA1001+999999999GF100991001001999999001001KA1240M+02901MA1999999097261MD1999999+0121REMSYN082AAXX  16004 82784 32995 00903 10226 20173 39726 40197 333 10290 29065 55088 58012;EQDQ01  00002PRCP99
0186827840999992001081612004-07310-039300FM-12+040999999V0201401N005110075019N0200001N1+02361+01641101081ADDAA199000091GF106991061021008001001001KA1240N+01901MA1999999097361MD1999999+0081REMSYN076AAXX  16124 82784 32598 61410 10236 20164 39736 40108 86200 333 20190 58008;EQDQ01  00002PRCP99
0167827840999992001081618004-07310-039300FM-12+040999999V0201401N003612200019N0200001N1+03001+01571101531ADDAA199000091GF104991041021008001001001MA1999999096861MD1999999-0051REMSYN070AAXX  16184 82784 32598 41407 10300 20157 39686 40153 84200 333 59005;EQDQ01  00002PRCP99
0208827840999992001081700004-07310-039300FM-12+040999999V0201401N005712200019N0020001N1+02421+01511101821ADDAA199000091GA1001+999999999GF100991001001999999001001KA1240M+03031MA1999999097121MD1999999-0141REMSYN082AAXX  17004 82784 32995 01411 10242 20151 39712 40182 333 10303 29055 55072 59014;EQDQ01  00002PRCP99
0186827840999992001081712004-07310-039300FM-12+040999999V0201401N005712200019N0200001N1+02521+01521102041ADDAA199000091GF101991011011008001001001KA1240N+01901MA1999999097331MD1999999-0031REMSYN076AAXX  17124 82784 32598 11411 10252 20152 39733 40204 81100 333 20190 59003;EQDQ01  00002PRCP99
0186827840999992001081912004-07310-039300FM-12+040999999V0200901N004612200019N0200001N1+02601+01481101971ADDAA199000091GF103991031021008001001001KA1240N+01141MA1999999097281MD1999999+0061REMSYN076AAXX  19124 82784 32598 30909 10260 20148 39728 40197 83200 333 20114 58006;EQDQ01  00002PRCP99
0167827840999992001081918004-07310-039300FM-12+040999999V0200901N003612200019N0200001N1+03141+01361101451ADDAA199000091GF104991041021012501001001MA1999999096791MD1999999+0091REMSYN070AAXX  19184 82784 32698 40907 10314 20136 39679 40145 84200 333 58009;EQDQ01  00002PRCP99
0167827840999992001082018004-07310-039300FM-12+040999999V0200901N003612200019N0200001N1+02951+01661101561ADDAA199000091GF104991041021008001001001MA1999999096891MD1999999+0101REMSYN070AAXX  20184 82784 32598 40907 10295 20166 39689 40156 84200 333 58010;EQDQ01  00002PRCP99
0186827840999992001082112004-07310-039300FM-12+040999999V0201401N003612200019N0200001N1+02501+01421102041ADDAA199000091GF101991011011008001001001KA1240N+02021MA1999999097341MD1999999-0031REMSYN076AAXX  21124 82784 32598 11407 10250 20142 39734 40204 81100 333 20202 59003;EQDQ01  00002PRCP99
0177827840999992001082118004-07310-039300FM-12+040999999V0200901N003112200019N0200001N1+03241+01161101421ADDAA199000091GA1001+999999999GF100991001001999999001001MA1999999096761MD1999999-0131REMSYN064AAXX  21184 82784 32998 00906 10324 20116 39676 40142 333 59013;EQDQ01  00002PRCP99
0208827840999992001082200004-07310-039300FM-12+040999999V0200901N002612200019N0020001N1+02591+01521101721ADDAA199000091GA1001+999999999GF100991001001999999001001KA1240M+03311MA1999999097041MD1999999-0111REMSYN082AAXX  22004 82784 32995 00905 10259 20152 39704 40172 333 10331 29046 55109 59011;EQDQ01  00002PRCP99
0186827840999992001082212004-07310-039300FM-12+040999999V0201401N003612200019N0200001N1+02611+01481102031ADDAA199000091GF101991011011008001001001KA1240N+02141MA1999999097341MD1999999+0001REMSYN076AAXX  22124 82784 32598 11407 10261 20148 39734 40203 81100 333 20214 58000;EQDQ01  00002PRCP99
0167827840999992001082218004-07310-039300FM-12+040999999V0200901N003112200019N0200001N1+03321+01331101411ADDAA199000091GF103991031021008001001001MA1999999096761MD1999999+0001REMSYN070AAXX  22184 82784 32598 30906 10332 20133 39676 40141 83200 333 58000;EQDQ01  00002PRCP99
0177827840999992001082318004-07310-039300FM-12+040999999V0200901N003112200019N0200001N1+03371+01461101311ADDAA199000091GA1001+999999999GF100991001001999999001001MA1999999096671MD1999999-0091REMSYN064AAXX  23184 82784 32998 00906 10337 20146 39667 40131 333 59009;EQDQ01  00002PRCP99
0167827840999992001082418004-07310-039300FM-12+040999999V0200901N003112200019N0200001N1+03311+01461101261ADDAA199000091GF101991011011008001001001MA1999999096621MD1999999-0051REMSYN070AAXX  24184 82784 32598 10906 10331 20146 39662 40126 81100 333 59005;EQDQ01  00002PRCP99
0186827840999992001082512004-07310-039300FM-12+040999999V0201401N003112200019N0200001N1+02651+01581101741ADDAA199000091GF101991011011008001001001KA1240N+02181MA1999999097071MD1999999-0121REMSYN076AAXX  25124 82784 32598 11406 10265 20158 39707 40174 81100 333 20218 59012;EQDQ01  00002PRCP99
0167827840999992001082518004-07310-039300FM-12+040999999V0200901N003112200019N0200001N1+03301+01461101261ADDAA199000091GF101991011011008001001001MA1999999096631MD1999999+0011REMSYN070AAXX  25184 82784 32598 10906 10330 20146 39663 40126 81100 333 58001;EQDQ01  00002PRCP99
0208827840999992001082600004-07310-039300FM-12+040999999V0201401N002612200019N0020001N1+02661+01401101561ADDAA199000091GA1001+999999999GF100991001001999999001001KA1240M+03351MA1999999096901MD1999999+0131REMSYN082AAXX  26004 82784 32995 01405 10266 20140 39690 40156 333 10335 29044 55104 58013;EQDQ01  00002PRCP99
0186827840999992001082612004-07310-039300FM-12+040999999V0200501N004110075019N0200001N1+02651+01791101771ADDAA199000091GF105991051021008001001001KA1240N+01901MA1999999097101MD1999999+0031REMSYN076AAXX  26124 82784 32598 50508 10265 20179 39710 40177 85200 333 20190 58003;EQDQ01  00002PRCP99
0167827840999992001082618004-07310-039300FM-12+040999999V0200901N003612200019N0200001N1+03341+01241101191ADDAA199000091GF101991011021012501001001MA1999999096551MD1999999-0081REMSYN070AAXX  26184 82784 32698 10907 10334 20124 39655 40119 81200 333 59008;EQDQ01  00002PRCP99
0208827840999992001082700004-07310-039300FM-12+040999999V0201401N002612200019N0020001N1+02641+01451101501ADDAA199000091GA1001+999999999GF100991001001999999001001KA1240M+03421MA1999999096841MD1999999-0061REMSYN082AAXX  27004 82784 32995 01405 10264 20145 39684 40150 333 10342 29046 55106 59006;EQDQ01  00002PRCP99
0196827840999992001082712004-07310-039300FM-12+040999999V0200901N002612200019N0200001N1+02741+01341101861ADDAA199000091GA1001+999999999GF100991001001999999001001KA1240N+02021MA1999999097191MD1999999+0091REMSYN070AAXX  27124 82784 32998 00905 10274 20134 39719 40186 333 20202 58009;EQDQ01  00002PRCP99
0208827840999992001082800004-07310-039300FM-12+040999999V0201401N007212200019N0020001N1+02661+01401101541ADDAA199000091GA1001+999999999GF100991001001999999001001KA1240M+03391MA1999999096881MD1999999+0041REMSYN082AAXX  28004 82784 32995 01414 10266 20140 39688 40154 333 10339 29039 55109 58004;EQDQ01  00002PRCP99
0196827840999992001082812004-07310-039300FM-12+040999999V0200501N002112200019N0200001N1+02861+01651101761ADDAA199000091GA1001+999999999GF100991001001999999001001KA1240N+02021MA1999999097101MD1999999-0091REMSYN070AAXX  28124 82784 32998 00504 10286 20165 39710 40176 333 20202 59009;EQDQ01  00002PRCP99
0167827840999992001082818004-07310-039300FM-12+040999999V0201401N002112200019N0200001N1+03421+01411101221ADDAA199000091GF102991021021008001001001MA1999999096591MD1999999-0061REMSYN070AAXX  28184 82784 32598 21404 10342 20141 39659 40122 82200 333 59006;EQDQ01  00002PRCP99
0213827840999992001082900004-07310-039300FM-12+040999999V0201401N004010120019N0020001N1+02691+01641101591ADDAA106000591AY151061AY211061GF108991081081008001999999KA1240M+03471MA1999999096941MD1999999+0061MW1021REMSYN100AAXX  29000 82784 21595 81404 10269 20164 39694 40159 70251 888// 333 10347 29046 55108 58006 69961;
0173827840999992001082912004-07310-039300FM-12+040999999V0200901N006010450019N0200001N1+02721+01521101741ADDAA124000591GF106991021021008001061001KA1240N+02321MA1999999097061MD1999999-0041REMSYN082AAXX  29120 82784 22598 60906 10272 20152 39706 40174 82260 333 20232 59004 69964;
0167827840999992001082918004-07310-039300FM-12+040999999V0200901N003612200019N0200001N1+03281+01291101191ADDAA199000091GF104991041021008001001001MA1999999096561MD1999999-0031REMSYN070AAXX  29184 82784 32598 40907 10328 20129 39656 40119 84200 333 59003;EQDQ01  00002PRCP99
0196827840999992001083012004-07310-039300FM-12+040999999V0201401N003112200019N0200001N1+02781+01581101811ADDAA199000091GA1001+999999999GF100991001001999999001001KA1240N+02201MA1999999097111MD1999999+0051REMSYN070AAXX  30124 82784 32998 01406 10278 20158 39711 40181 333 20220 58005;EQDQ01  00002PRCP99
0167827840999992001083018004-07310-039300FM-12+040999999V0200901N003112200019N0200001N1+03311+01261101221ADDAA199000091GF102991021021008001001001MA1999999096591MD1999999+0031REMSYN070AAXX  30184 82784 32598 20906 10331 20126 39659 40122 82200 333 58003;EQDQ01  00002PRCP99
0198827840999992001083100004-07310-039300FM-12+040999999V0201401N003610120019N0020001N1+02721+01791101561ADDAA199000091GF108991081081008001999999KA1240M+03401MA1999999096911MD1999999+0011REMSYN088AAXX  31004 82784 32595 81407 10272 20179 39691 40156 888// 333 10340 29048 55109 58001;EQDQ01  00002PRCP99
0167827840999992001083118004-07310-039300FM-12+040999999V0200901N003112200019N0200001N1+03301+01311101221ADDAA199000091GF102991021021012501001001MA1999999096591MD1999999+0001REMSYN070AAXX  31184 82784 32698 20906 10330 20131 39659 40122 82200 333 58000;EQDQ01  00002PRCP99
0208827840999992001090100004-07310-039300FM-12+040999999V0201401N005712200019N0020001N1+02671+01681101461ADDAA199000091GA1001+999999999GF100991001001999999001001KA1240M+03351MA1999999096811MD1999999-0101REMSYN082AAXX  01004 82784 32995 01411 10267 20168 39681 40146 333 10335 29048 55109 59010;EQDQ01  00002PRCP99
0167827840999992001090118004-07310-039300FM-12+040999999V0200901N003112200019N0200001N1+03161+01431101251ADDAA199000091GF102991021011008001001001MA1999999096611MD1999999+0021REMSYN070AAXX  01184 82784 32598 20906 10316 20143 39661 40125 82100 333 58002;EQDQ01  00002PRCP99
0208827840999992001090200004-07310-039300FM-12+040999999V0201401N004112200019N0020001N1+02601+01651101431ADDAA199000091GA1001+999999999GF100991001001999999001001KA1240M+03231MA1999999096761MD1999999-0051REMSYN082AAXX  02004 82784 32995 01408 10260 20165 39676 40143 333 10323 29052 55079 59005;EQDQ01  00002PRCP99
0186827840999992001090212004-07310-039300FM-12+040999999V0200901N002112200019N0200001N1+02641+01771101711ADDAA199000091GF101991011011008001001001KA1240N+02021MA1999999097041MD1999999-0111REMSYN076AAXX  02124 82784 32598 10904 10264 20177 39704 40171 81100 333 20202 59011;EQDQ01  00002PRCP99
0167827840999992001090218004-07310-039300FM-12+040999999V0200501N002612200019N0200001N1+03381+01431101031ADDAA199000091GF104991041021012501001001MA1999999096411MD1999999-0201REMSYN070AAXX  02184 82784 32698 40505 10338 20143 39641 40103 84200 333 59020;EQDQ01  00002PRCP99
0208827840999992001090300004-07310-039300FM-12+040999999V0200901N002612200019N0020001N1+02761+01391101381ADDAA199000091GA1001+999999999GF100991001001999999001001KA1240M+03451MA1999999096731MD1999999-0031REMSYN082AAXX  03004 82784 32995 00905 10276 20139 39673 40138 333 10345 29044 55109 59003;EQDQ01  00002PRCP99
0201827840999992001090312004-07310-039300FM-12+040999999V0200901N003110450019N0200001N1+02541+01831101651ADDAA124000591AY151061AY211061GF105991041021008001061001KA1240N+02061MA1999999096981MD1999999-0061MW1021REMSYN088AAXX  03124 82784 21598 50906 10254 20183 39698 40165 70251 84260 333 20206 59006 69964;
0167827840999992001090318004-07310-039300FM-12+040999999V0200901N003110120019N0200001N1+03191+01491101071ADDAA199000091GF108991081081008001999999MA1999999096441MD1999999+0031REMSYN070AAXX  03184 82784 32598 80906 10319 20149 39644 40107 888// 333 58003;EQDQ01  00002PRCP99
0198827840999992001090400004-07310-039300FM-12+040999999V0201401N001510075019N0020001N1+02811+01771101391ADDAA199000091GF108991081021008001999999KA1240M+03351MA1999999096741MD1999999+0011REMSYN088AAXX  04004 82784 32595 81403 10281 20177 39674 40139 882// 333 10335 29052 55055 58001;EQDQ01  00002PRCP99
0186827840999992001090412004-07310-039300FM-12+040999999V0201401N003612200019N0200001N1+02731+01621101651ADDAA199000091GF101991011011008001001001KA1240N+02111MA1999999097001MD1999999+0021REMSYN076AAXX  04124 82784 32598 11407 10273 20162 39700 40165 81100 333 20211 58002;EQDQ01  00002PRCP99
0208827840999992001090500004-07310-039300FM-12+040999999V0200901N002112200019N0020001N1+02621+01621101421ADDAA199000091GA1001+999999999GF100991001001999999001001KA1240M+03431MA1999999096771MD1999999+0031REMSYN082AAXX  05004 82784 32995 00904 10262 20162 39677 40142 333 10343 29048 55110 58003;EQDQ01  00002PRCP99
0186827840999992001090512004-07310-039300FM-12+040999999V0201401N003612200019N0200001N1+02741+01671101661ADDAA199000091GF104991041021008001001001KA1240N+02271MA1999999097001MD1999999+0001REMSYN076AAXX  05124 82784 32598 41407 10274 20167 39700 40166 84200 333 20227 58000;EQDQ01  00002PRCP99
0167827840999992001090518004-07310-039300FM-12+040999999V0201401N004612200019N0200001N1+03251+01541101111ADDAA199000091GF102991021011008001001001MA1999999096481MD1999999+0011REMSYN070AAXX  05184 82784 32598 21409 10325 20154 39648 40111 82100 333 58001;EQDQ01  00002PRCP99
0186827840999992001090612004-07310-039300FM-12+040999999V0201401N002612200019N0200001N1+02721+01521101561ADDAA199000091GF101991011011008001001001KA1240N+02121MA1999999096901MD1999999-0101REMSYN076AAXX  06124 82784 32598 11405 10272 20152 39690 40156 81100 333 20212 59010;EQDQ01  00002PRCP99
0167827840999992001090618004-07310-039300FM-12+040999999V0201401N004112200019N0200001N1+03421+01311100911ADDAA199000091GF101991011011008001001001MA1999999096291MD1999999-0191REMSYN070AAXX  06184 82784 32598 11408 10342 20131 39629 40091 81100 333 59019;EQDQ01  00002PRCP99
0208827840999992001090700004-07310-039300FM-12+040999999V0201401N006712200019N0020001N1+02781+01411101191ADDAA199000091GA1001+999999999GF100991001001999999001001KA1240M+03491MA1999999096551MD1999999-0151REMSYN082AAXX  07004 82784 32995 01413 10278 20141 39655 40119 333 10349 29040 55109 59015;EQDQ01  00002PRCP99
0202827840999992001090712004-07310-039300FM-12+040999999V0200901N003112200019N0020001N1+02731+01351101441ADDAA199000091GF102991999001017501011001KA1240N+01901MA1999999096791MD1999999-0111REMSYN076AAXX  07124 82784 32795 20906 10273 20135 39679 40144 81010 333 20190 59011;EQDQ01+000012SCOTLCQ02  00002PRCP99
0167827840999992001090718004-07310-039300FM-12+040999999V0201801N002610120019N0200001N1+03381+01381100861ADDAA199000091GF106991051021012501011001MA1999999096251MD1999999-0041REMSYN070AAXX  07184 82784 32698 61805 10338 20138 39625 40086 85210 333 59004;EQDQ01  00002PRCP99
0196827840999992001090812004-07310-039300FM-12+040999999V0201401N003112200019N0200001N1+02761+01281101531ADDAA199000091GA1001+999999999GF100991001001999999001001KA1240N+02011MA1999999096881MD1999999+0091REMSYN070AAXX  08124 82784 32998 01406 10276 20128 39688 40153 333 20201 58009;EQDQ01  00002PRCP99
0167827840999992001090818004-07310-039300FM-12+040999999V0201401N002612200019N0200001N1+03351+01191100931ADDAA199000091GF101991011021008001001001MA1999999096311MD1999999+0061REMSYN070AAXX  08184 82784 32598 11405 10335 20119 39631 40093 81200 333 58006;EQDQ01  00002PRCP99
0208827840999992001090900004-07310-039300FM-12+040999999V0201401N004112200019N0020001N1+02821+01291101211ADDAA199000091GA1001+999999999GF100991001001999999001001KA1240M+03471MA1999999096581MD1999999+0011REMSYN082AAXX  09004 82784 32995 01408 10282 20129 39658 40121 333 10347 29036 55105 58001;EQDQ01  00002PRCP99
0186827840999992001090912004-07310-039300FM-12+040999999V0200901N003110150019N0200001N1+02821+01681101621ADDAA199000091GF106991061001017501011001KA1240N+02041MA1999999096971MD1999999+0091REMSYN076AAXX  09124 82784 32798 60906 10282 20168 39697 40162 86010 333 20204 58009;EQDQ01  00002PRCP99
0183827840999992001090918004-07310-039300FM-12+040999999V0201801N002112200019N0200001N1+03501+01631101031ADDAA199000091GF104991999011012501001001MA1999999096421MD1999999+0111REMSYN070AAXX  09184 82784 32698 41804 10350 20163 39642 40103 82100 333 58011;EQDQ01+000022SCOTLCQ02  00002PRCP99
0198827840999992001091000004-07310-039300FM-12+040999999V0201401N005712200019N0020001N1+02901+01241101301ADDAA199000091GF102991021021008001001001KA1240M+03571MA1999999096671MD1999999+0091REMSYN088AAXX  10004 82784 32595 21411 10290 20124 39667 40130 82200 333 10357 29039 55100 58009;EQDQ01  00002PRCP99
0186827840999992001091012004-07310-039300FM-12+040999999V0200501N001510075019N0200001N1+02741+01781101611ADDAA199000091GF106991061021008001001001KA1240N+02001MA1999999096961MD1999999-0011REMSYN076AAXX  10124 82784 32598 60503 10274 20178 39696 40161 86200 333 20200 59001;EQDQ01  00002PRCP99
0208827840999992001091100004-07310-039300FM-12+040999999V0200901N001012200019N0020001N1+02891+01421101221ADDAA199000091GA1001+999999999GF100991001001999999001001KA1240M+03591MA1999999096591MD1999999-0081REMSYN082AAXX  11004 82784 32995 00902 10289 20142 39659 40122 333 10359 29044 55096 59008;EQDQ01  00002PRCP99
0186827840999992001091112004-07310-039300FM-12+040999999V0200901N001510120019N0200001N1+02661+01921101631ADDAA199000091GF107991071081008001001001KA1240N+02321MA1999999096981MD1999999+0021REMSYN076AAXX  11124 82784 32598 70903 10266 20192 39698 40163 87800 333 20232 58002;EQDQ01  00002PRCP99
0167827840999992001091118004-07310-039300FM-12+040999999V0200501N003112200019N0200001N1+03401+01681100941ADDAA199000091GF101991011021008001001001MA1999999096331MD1999999-0041REMSYN070AAXX  11184 82784 32598 10506 10340 20168 39633 40094 81200 333 59004;EQDQ01  00002PRCP99
0208827840999992001091200004-07310-039300FM-12+040999999V0201401N002112200019N0020001N1+02641+01771101151ADDAA199000091GA1001+999999999GF100991001001999999001001KA1240M+03491MA1999999096721MD1999999-0081REMSYN082AAXX  12004 82784 32995 01404 10264 20177 39672 40115 333 10349 29054 55092 59008;EQDQ01  00002PRCP99
0186827840999992001091212004-07310-039300FM-12+040999999V0200501N002112200019N0200001N1+02691+01761101521ADDAA199000091GF102991021021008001001001KA1240N+02241MA1999999096861MD1999999-0121REMSYN076AAXX  12124 82784 32598 20504 10269 20176 39686 40152 82200 333 20224 59012;EQDQ01  00002PRCP99
0167827840999992001091218004-07310-039300FM-12+040999999V0203601N001012200019N0200001N1+03471+01641100921ADDAA199000091GF102991021021008001001001MA1999999096311MD1999999-0021REMSYN070AAXX  12184 82784 32598 23602 10347 20164 39631 40092 82200 333 59002;EQDQ01  00002PRCP99
0208827840999992001091300004-07310-039300FM-12+040999999V0201401N000512200019N0020001N1+02721+01651101221ADDAA199000091GA1001+999999999GF100991001001999999001001KA1240M+03531MA1999999096581MD1999999+0071REMSYN082AAXX  13004 82784 32995 01401 10272 20165 39658 40122 333 10353 29049 55087 58007;EQDQ01  00002PRCP99
0185827840999992001091312004-07310-039300FM-12+040999999V0200901N002110075019N0200001N1+02671+01651101751ADDAA199000091GF105991051021008001001001KA1240N+02141MA1999999097081MD1999999+0221REMSYN075AAXX  13124 82784 32598 50904 10267 20165 39708 4017585200 333 20214 58022;EQDQ01  00002PRCP99
0167827840999992001091318004-07310-039300FM-12+040999999V0200901N003110075019N0200001N1+03341+01291101111ADDAA199000091GF105991051021008001001001MA1999999096491MD1999999+0181REMSYN070AAXX  13184 82784 32598 50906 10334 20129 39649 40111 85200 333 58018;EQDQ01  00002PRCP99
0198827840999992001091400004-07310-039300FM-12+040999999V0201401N001012200019N0020001N1+02761+01751101401ADDAA199000091GF104991041021008001001001KA1240M+03451MA1999999096751MD1999999+0171REMSYN088AAXX  14004 82784 32595 41402 10276 20175 39675 40140 84200 333 10345 29048 55090 58017;EQDQ01  00002PRCP99
0186827840999992001091412004-07310-039300FM-12+040999999V0200901N003110075019N0200001N1+03341+01291101111ADDAA199000091GF105991051021008001001001KA1240N+02301MA1999999096491MD1999999+0181REMSYN076AAXX  14124 82784 32598 50906 10334 20129 39649 40111 85200 333 20230 58018;EQDQ01  00002PRCP99
0167827840999992001091418004-07310-039300FM-12+040999999V0201401N002110120019N0200001N1+03341+01401100981ADDAA199000091GF106991061021012501001001MA1999999096361MD1999999-0131REMSYN070AAXX  14184 82784 32698 61404 10334 20140 39636 40098 86200 333 59013;EQDQ01  00002PRCP99
0208827840999992001091500004-07310-039300FM-12+040999999V0201401N003112200019N0020001N1+02821+01211101251ADDAA199000091GA1001+999999999GF100991001001999999001001KA1240M+03451MA1999999096621MD1999999-0131REMSYN082AAXX  15004 82784 32995 01406 10282 20121 39662 40125 333 10345 29039 55100 59013;EQDQ01  00002PRCP99
0196827840999992001091512004-07310-039300FM-12+040999999V0200501N001512200019N0200001N1+02811+01661101471ADDAA199000091GA1001+999999999GF100991001001999999001001KA1240N+01941MA1999999096831MD1999999-0131REMSYN070AAXX  15124 82784 32998 00503 10281 20166 39683 40147 333 20194 59013;EQDQ01  00002PRCP99
0167827840999992001091518004-07310-039300FM-12+040999999V0200901N002112200019N0200001N1+03541+01301100791ADDAA199000091GF101991011011008001001001MA1999999096191MD1999999-0171REMSYN070AAXX  15184 82784 32598 10904 10354 20130 39619 40079 81100 333 59017;EQDQ01  00002PRCP99
0208827840999992001091600004-07310-039300FM-12+040999999V0201401N003112200019N0020001N1+02901+01241101161ADDAA199000091GA1001+999999999GF100991001001999999001001KA1240M+03591MA1999999096541MD1999999-0081REMSYN082AAXX  16004 82784 32995 01406 10290 20124 39654 40116 333 10359 29037 55107 59008;EQDQ01  00002PRCP99
0186827840999992001091612004-07310-039300FM-12+040999999V0203601N001012200019N0200001N1+02701+01961101551ADDAA199000091GF101991011011008001001001KA1240N+01861MA1999999096901MD1999999+0071REMSYN076AAXX  16124 82784 32598 13602 10270 20196 39690 40155 81100 333 20186 58007;EQDQ01  00002PRCP99
0167827840999992001091618004-07310-039300FM-12+040999999V0200901N003112200019N0200001N1+03701+00791100821ADDAA199000091GF101991011011012501001001MA1999999096221MD1999999+0031REMSYN070AAXX  16184 82784 32698 10906 10370 20079 39622 40082 81100 333 58003;EQDQ01  00002PRCP99
0208827840999992001091700004-07310-039300FM-12+040999999V0201401N002112200019N0020001N1+02921+01031101201ADDAA199000091GA1001+999999999GF100991001001999999001001KA1240M+03771MA1999999096571MD1999999+0031REMSYN082AAXX  17004 82784 32995 01404 10292 20103 39657 40120 333 10377 29036 55106 58003;EQDQ01  00002PRCP99
0186827840999992001091712004-07310-039300FM-12+040999999V0203201N003110075019N0200001N1+02821+01911101541ADDAA199000091GF107991071021008001001001KA1240N+02321MA1999999096901MD1999999+0001REMSYN076AAXX  17124 82784 32598 73206 10282 20191 39690 40154 87200 333 20232 58000;EQDQ01  00002PRCP99
0167827840999992001091718004-07310-039300FM-12+040999999V0200501N001512200019N0200001N1+03551+01571100911ADDAA199000091GF101991011021008001001001MA1999999096311MD1999999+0091REMSYN070AAXX  17184 82784 32598 10503 10355 20157 39631 40091 81200 333 58009;EQDQ01  00002PRCP99
0208827840999992001091800004-07310-039300FM-12+040999999V0209999C000012200019N0020001N1+02731+01681101231ADDAA199000091GA1001+999999999GF100991001001999999001001KA1240M+03681MA1999999096601MD1999999+0031REMSYN082AAXX  18004 82784 32995 00000 10273 20168 39660 40123 333 10368 29059 55093 58003;EQDQ01  00002PRCP99
0201827840999992001091812004-07310-039300FM-12+040999999V0201801N001010120019N0200001N1+02601+02081101651ADDAA124001091AY191061AY251061GF106991061081008001001001KA1240N+02211MA1999999096981MD1999999+0081MW1011REMSYN088AAXX  18124 82784 21598 61802 10260 20208 39698 40165 70195 86800 333 20221 58008 60014;
0167827840999992001091818004-07310-039300FM-12+040999999V0201401N003610150019N0200001N1+03281+01581101101ADDAA199000091GF108991051081012501031091MA1999999096521MD1999999+0171REMSYN070AAXX  18184 82784 32698 81407 10328 20158 39652 40110 85839 333 58017;EQDQ01  00002PRCP99
0208827840999992001091900004-07310-039300FM-12+040999999V0201401N003112200019N0020001N1+02861+01521101331ADDAA199000091GA1001+999999999GF100991001001999999001001KA1240M+03351MA1999999096691MD1999999+0091REMSYN082AAXX  19004 82784 32995 01406 10286 20152 39669 40133 333 10335 29049 55076 58009;EQDQ01  00002PRCP99
0186827840999992001091912004-07310-039300FM-12+040999999V0200901N004610075019N0200001N1+02771+01621101631ADDAA199000091GF107991071021008001001001KA1240N+02311MA1999999096981MD1999999+0001REMSYN076AAXX  19124 82784 32598 70909 10277 20162 39698 40163 87200 333 20231 58000;EQDQ01  00002PRCP99
0167827840999992001091918004-07310-039300FM-12+040999999V0201401N004112200019N0200001N1+03311+01411101101ADDAA199000091GF103991031021008001001001MA1999999096481MD1999999+0001REMSYN070AAXX  19184 82784 32598 31408 10331 20141 39648 40110 83200 333 58000;EQDQ01  00002PRCP99
0208827840999992001092000004-07310-039300FM-12+040999999V0201401N003112200019N0020001N1+02781+01581101311ADDAA199000091GA1001+999999999GF100991001001999999001001KA1240M+03391MA1999999096671MD1999999-0021REMSYN082AAXX  20004 82784 32995 01406 10278 20158 39667 40131 333 10339 29044 55092 59002;EQDQ01  00002PRCP99
0167827840999992001092018004-07310-039300FM-12+040999999V0201401N003110120019N0200001N1+03281+01291101021ADDAA199000091GF105991051021012501001001MA1999999096401MD1999999-0081REMSYN070AAXX  20184 82784 32698 51406 10328 20129 39640 40102 85200 333 59008;EQDQ01  00002PRCP99
0208827840999992001092100004-07310-039300FM-12+040999999V0201401N002612200019N0020001N1+02721+01421101281ADDAA199000091GA1001+999999999GF100991001001999999001001KA1240M+03381MA1999999096641MD1999999-0031REMSYN082AAXX  21004 82784 32995 01405 10272 20142 39664 40128 333 10338 29043 55104 59003;EQDQ01  00002PRCP99
0186827840999992001092112004-07310-039300FM-12+040999999V0200901N004610075019N0200001N1+02661+01651101611ADDAA199000091GF106991061021008001001001KA1240N+02231MA1999999096951MD1999999-0031REMSYN076AAXX  21124 82784 32598 60909 10266 20165 39695 40161 86200 333 20223 59003;EQDQ01  00002PRCP99
0167827840999992001092118004-07310-039300FM-12+040999999V0201401N005112200019N0200001N1+03341+01451101031ADDAA199000091GF103991031021008001001001MA1999999096411MD1999999+0011REMSYN070AAXX  21184 82784 32598 31410 10334 20145 39641 40103 83200 333 58001;EQDQ01  00002PRCP99
0208827840999992001092200004-07310-039300FM-12+040999999V0201401N003112200019N0020001N1+02701+01541101361ADDAA199000091GA1001+999999999GF100991001001999999001001KA1240M+03421MA1999999096721MD1999999+0071REMSYN082AAXX  22004 82784 32995 01406 10270 20154 39672 40136 333 10342 29046 55100 58007;EQDQ01  00002PRCP99
0186827840999992001092212004-07310-039300FM-12+040999999V0201401N003612200019N0200001N1+02671+01651101711ADDAA199000091GF104991041021008001001001KA1240N+02191MA1999999097051MD1999999+0101REMSYN076AAXX  22124 82784 32598 41407 10267 20165 39705 40171 84200 333 20219 58010;EQDQ01  00002PRCP99
0167827840999992001092218004-07310-039300FM-12+040999999V0201401N004612200019N0200001N1+03251+01501101141ADDAA199000091GF103991031021008001001001MA1999999096511MD1999999+0101REMSYN070AAXX  22184 82784 32598 31409 10325 20150 39651 40114 83200 333 58010;EQDQ01  00002PRCP99
0208827840999992001092300004-07310-039300FM-12+040999999V0200901N001012200019N0020001N1+02641+01771101391ADDAA199000091GA1001+999999999GF100991001001999999001001KA1240M+03331MA1999999096741MD1999999+0031REMSYN082AAXX  23004 82784 32995 00902 10264 20177 39674 40139 333 10333 29052 55103 58003;EQDQ01  00002PRCP99
0196827840999992001092312004-07310-039300FM-12+040999999V0200901N004612200019N0200001N1+02801+01351101501ADDAA199000091GA1001+999999999GF100991001001999999001001KA1240N+02101MA1999999096851MD1999999-0201REMSYN070AAXX  23124 82784 32998 00909 10280 20135 39685 40150 333 20210 59020;EQDQ01  00002PRCP99
0167827840999992001092318004-07310-039300FM-12+040999999V0200901N002110120019N0200001N1+03421+01251100941ADDAA199000091GF105991051021012501001001MA1999999096321MD1999999-0191REMSYN070AAXX  23184 82784 32698 50904 10342 20125 39632 40094 85200 333 59019;EQDQ01  00002PRCP99
0208827840999992001092400004-07310-039300FM-12+040999999V0200501N002112200019N0020001N1+02781+01331101281ADDAA199000091GA1001+999999999GF100991001001999999001001KA1240M+03481MA1999999096651MD1999999-0091REMSYN082AAXX  24004 82784 32995 00504 10278 20133 39665 40128 333 10348 29038 55108 59009;EQDQ01  00002PRCP99
0196827840999992001092412004-07310-039300FM-12+040999999V0200901N003612200019N0200001N1+02721+01351101651ADDAA199000091GA1001+999999999GF100991001001999999001001KA1240N+02041MA1999999096991MD1999999+0141REMSYN070AAXX  24124 82784 32998 00907 10272 20135 39699 40165 333 20204 58014;EQDQ01  00002PRCP99
0177827840999992001092418004-07310-039300FM-12+040999999V0201401N003112200019N0200001N1+03461+00981101021ADDAA199000091GA1001+999999999GF100991001001999999001001MA1999999096401MD1999999+0081REMSYN064AAXX  24184 82784 32998 01406 10346 20098 39640 40102 333 58008;EQDQ01  00002PRCP99
0208827840999992001092500004-07310-039300FM-12+040999999V0201401N003112200019N0020001N1+02821+01041101311ADDAA199000091GA1001+999999999GF100991001001999999001001KA1240M+03151MA1999999096671MD1999999+0021REMSYN082AAXX  25004 82784 32995 01406 10282 20104 39667 40131 333 10315 29033 55113 58002;EQDQ01  00002PRCP99
0186827840999992001092512004-07310-039300FM-12+040999999V0200901N003110075019N0200001N1+02701+01691101671ADDAA199000091GF105991051021008001001001KA1240N+02211MA1999999097011MD1999999+0021REMSYN076AAXX  25124 82784 32598 50906 10270 20169 39701 40167 85200 333 20221 58002;EQDQ01  00002PRCP99
0167827840999992001092518004-07310-039300FM-12+040999999V0200501N002612200019N0200001N1+03401+01451100991ADDAA199000091GF102991021021008001001001MA1999999096371MD1999999-0031REMSYN070AAXX  25184 82784 32598 20505 10340 20145 39637 40099 82200 333 59003;EQDQ01  00002PRCP99
0198827840999992001092600004-07310-039300FM-12+040999999V0201401N003610120019N0020001N1+02981+01551101361ADDAA199000091GF107991071081008001001001KA1240M+03521MA1999999096731MD1999999+0061REMSYN088AAXX  26004 82784 32595 71407 10298 20155 39673 40136 87800 333 10352 29042 55089 58006;EQDQ01  00002PRCP99
0186827840999992001092612004-07310-039300FM-12+040999999V0200901N001510075019N0200001N1+02561+01781101691ADDAA199000091GF108991081051008001999999KA1240N+02351MA1999999097031MD1999999+0021REMSYN076AAXX  26124 82784 32598 80903 10256 20178 39703 40169 885// 333 20235 58002;EQDQ01  00002PRCP99
0167827840999992001092618004-07310-039300FM-12+040999999V0200501N002612200019N0200001N1+03361+01561101031ADDAA199000091GF102991021011008001001001MA1999999096421MD1999999+0051REMSYN070AAXX  26184 82784 32598 20505 10336 20156 39642 40103 82100 333 58005;EQDQ01  00002PRCP99
0208827840999992001092700004-07310-039300FM-12+040999999V0201401N003112200019N0020001N1+02741+01481101251ADDAA199000091GA1001+999999999GF100991001001999999001001KA1240M+03441MA1999999096601MD1999999-0071REMSYN082AAXX  27004 82784 32995 01406 10274 20148 39660 40125 333 10344 29042 55057 59007;EQDQ01  00002PRCP99
0186827840999992001092712004-07310-039300FM-12+040999999V0200501N002110075019N0200001N1+02701+01751101631ADDAA199000091GF106991061021008001001001KA1240N+02041MA1999999096971MD1999999-0061REMSYN076AAXX  27124 82784 32598 60504 10270 20175 39697 40163 86200 333 20204 59006;EQDQ01  00002PRCP99
0167827840999992001092718004-07310-039300FM-12+040999999V0200901N003612200019N0200001N1+03461+01341100971ADDAA199000091GF101991011011008001001001MA1999999096351MD1999999-0071REMSYN070AAXX  27184 82784 32598 10907 10346 20134 39635 40097 81100 333 59007;EQDQ01  00002PRCP99
0208827840999992001092800004-07310-039300FM-12+040999999V0201801N000512200019N0020001N1+02581+01641101281ADDAA199000091GA1001+999999999GF100991001001999999001001KA1240M+03521MA1999999096631MD1999999+0031REMSYN082AAXX  28004 82784 32995 01801 10258 20164 39663 40128 333 10352 29049 55096 58003;EQDQ01  00002PRCP99
0186827840999992001092812004-07310-039300FM-12+040999999V0203201N001512200019N0200001N1+02731+01791101661ADDAA199000091GF103991031021008001001001KA1240N+02251MA1999999096991MD1999999+0021REMSYN076AAXX  28124 82784 32598 33203 10273 20179 39699 40166 83200 333 20225 58002;EQDQ01  00002PRCP99
0167827840999992001092818004-07310-039300FM-12+040999999V0200901N002112200019N0200001N1+03541+01301101001ADDAA199000091GF103991031021012501001001MA1999999096381MD1999999+0031REMSYN070AAXX  28184 82784 32698 30904 10354 20130 39638 40100 83200 333 58003;EQDQ01  00002PRCP99
0198827840999992001092900004-07310-039300FM-12+040999999V0209999C000012200019N0020001N1+02741+01511101291ADDAA199000091GF102991021021008001001001KA1240M+03621MA1999999096651MD1999999+0021REMSYN088AAXX  29004 82784 32595 20000 10274 20151 39665 40129 82200 333 10362 29044 55090 58002;EQDQ01  00002PRCP99
0186827840999992001092912004-07310-039300FM-12+040999999V0200901N003110075019N0200001N1+02771+01691101761ADDAA199000091GF106991061021008001001001KA1240N+02181MA1999999097101MD1999999+0111REMSYN076AAXX  29124 82784 32598 60906 10277 20169 39710 40176 86200 333 20218 58011;EQDQ01  00002PRCP99
0167827840999992001092918004-07310-039300FM-12+040999999V0201401N004112200019N0200001N1+03441+01151101131ADDAA199000091GF101991011011008001001001MA1999999096511MD1999999+0131REMSYN070AAXX  29184 82784 32598 11408 10344 20115 39651 40113 81100 333 58013;EQDQ01  00002PRCP99
0208827840999992001093000004-07310-039300FM-12+040999999V0201401N001012200019N0020001N1+02781+01381101391ADDAA199000091GA1001+999999999GF100991001001999999001001KA1240M+03531MA1999999096751MD1999999+0101REMSYN082AAXX  30004 82784 32995 01402 10278 20138 39675 40139 333 10353 29040 55102 58010;EQDQ01  00002PRCP99
0196827840999992001093012004-07310-039300FM-12+040999999V0201401N003112200019N0200001N1+02821+01441101771ADDAA199000091GA1001+999999999GF100991001001999999001001KA1240N+02261MA1999999097111MD1999999+0011REMSYN070AAXX  30124 82784 32998 01406 10282 20144 39711 40177 333 20226 58001;EQDQ01  00002PRCP99
0167827840999992001093018004-07310-039300FM-12+040999999V0200901N003110120019N0200001N1+03441+01091101181ADDAA199000091GF106991061021012501001001MA1999999096511MD1999999+0001REMSYN070AAXX  30184 82784 32698 60906 10344 20109 39651 40118 86200 333 58000;EQDQ01  00002PRCP99
0198827840999992001100100004-07310-039300FM-12+040999999V0201401N003110120019N0200001N1+02991+01311101441ADDAA199000091GF108991081081008001999999KA1240M+03531MA1999999096811MD1999999+0061REMSYN088AAXX  01004 82784 32598 81406 10299 20131 39681 40144 888// 333 10353 29035 55111 58006;EQDQ01  00002PRCP99
0186827840999992001100112004-07310-039300FM-12+040999999V0200501N003110150019N0200001N1+02811+01351101731ADDAA199000091GF105991051001017501011001KA1240N+02181MA1999999097081MD1999999-0031REMSYN076AAXX  01124 82784 32798 50506 10281 20135 39708 40173 85010 333 20218 59003;EQDQ01  00002PRCP99
0167827840999992001100118004-07310-039300FM-12+040999999V0200901N003112200019N0200001N1+03511+00871101081ADDAA199000091GF102991011011008001011001MA1999999096471MD1999999-0041REMSYN070AAXX  01184 82784 32598 20906 10351 20087 39647 40108 81110 333 59004;EQDQ01  00002PRCP99
0214827840999992001100200004-07310-039300FM-12+040999999V0201401N002112200019N0020001N1+02891+01421101431ADDAA199000091GF101991999011008001001001KA1240M+03571MA1999999096791MD1999999-0021REMSYN088AAXX  02004 82784 32595 11404 10289 20142 39679 40143 82100 333 10357 29036 55110 59002;EQDQ01+000022SCOTLCQ02  00002PRCP99
0196827840999992001100212004-07310-039300FM-12+040999999V0200901N003612200019N0200001N1+02811+01461101851ADDAA199000091GA1001+999999999GF100991001001999999001001KA1240N+02021MA1999999097191MD1999999+0111REMSYN070AAXX  02124 82784 32998 00907 10281 20146 39719 40185 333 20202 58011;EQDQ01  00002PRCP99
0198827840999992001100300004-07310-039300FM-12+040999999V0200901N001012200019N0020001N1+02781+01551101511ADDAA199000091GF102991021021008001001001KA1240M+03551MA1999999096861MD1999999+0021REMSYN088AAXX  03004 82784 32595 20902 10278 20155 39686 40151 82200 333 10355 29040 55112 58002;EQDQ01  00002PRCP99
0186827840999992001100312004-07310-039300FM-12+040999999V0200501N002612200019N0200001N1+02841+01571101881ADDAA199000091GF101991011011008001001001KA1240N+02011MA1999999097221MD1999999+0031REMSYN076AAXX  03124 82784 32598 10505 10284 20157 39722 40188 81100 333 20201 58003;EQDQ01  00002PRCP99
0146827840999992001100318004-07310-039300FM-12+040999999V0203601N003612200019N0200001N1+03481+00991101291ADDAA199000091GF102991021021008001001001MD1999999+0101REMSYN064AAXX  03184 82784 32598 23607 10348 20099 40129 82200 333 58010;EQDQ01  00002PRCP99
0198827840999992001100400004-07310-039300FM-12+040999999V0200901N001012200019N0020001N1+02621+01501101571ADDAA199000091GF101991011011008001001001KA1240M+03591MA1999999096921MD1999999+0061REMSYN088AAXX  04004 82784 32595 10902 10262 20150 39692 40157 81100 333 10359 29042 55105 58006;EQDQ01  00002PRCP99
0196827840999992001100412004-07310-039300FM-12+040999999V0201401N001512200019N0200001N1+02861+01921101681ADDAA199000091GA1001+999999999GF100991001001999999001001KA1240N+01981MA1999999097021MD1999999-0201REMSYN070AAXX  04124 82784 32998 01403 10286 20192 39702 40168 333 20198 59020;EQDQ01  00002PRCP99
0167827840999992001100418004-07310-039300FM-12+040999999V0200901N004112200019N0200001N1+03681+00861101011ADDAA199000091GF101991011021012501001001MA1999999096401MD1999999-0261REMSYN070AAXX  04184 82784 32698 10908 10368 20086 39640 40101 81200 333 59026;EQDQ01  00002PRCP99
0208827840999992001100500004-07310-039300FM-12+040999999V0200501N000512200019N0020001N1+02721+01351101331ADDAA199000091GA1001+999999999GF100991001001999999001001KA1240M+03771MA1999999096691MD1999999-0231REMSYN082AAXX  05004 82784 32995 00501 10272 20135 39669 40133 333 10377 29040 55110 59023;EQDQ01  00002PRCP99
0196827840999992001100512004-07310-039300FM-12+040999999V0200501N001012200019N0200001N1+02781+01701101701ADDAA199000091GA1001+999999999GF100991001001999999001001KA1240N+02091MA1999999097041MD1999999+0021REMSYN070AAXX  05124 82784 32998 00502 10278 20170 39704 40170 333 20209 58002;EQDQ01  00002PRCP99
0167827840999992001100518004-07310-039300FM-12+040999999V0201401N002612200019N0200001N1+03671+00921100981ADDAA199000091GF101991011011008001001001MA1999999096371MD1999999-0031REMSYN070AAXX  05184 82784 32598 11405 10367 20092 39637 40098 81100 333 59003;EQDQ01  00002PRCP99
0208827840999992001100600004-07310-039300FM-12+040999999V0201401N001012200019N0020001N1+02821+01371101201ADDAA199000091GA1001+999999999GF100991001001999999001001KA1240M+03711MA1999999096571MD1999999-0121REMSYN082AAXX  06004 82784 32995 01402 10282 20137 39657 40120 333 10371 29038 55110 59012;EQDQ01  00002PRCP99
0186827840999992001100612004-07310-039300FM-12+040999999V0200501N002612200019N0200001N1+02841+01761101561ADDAA199000091GF101991011011008001001001KA1240N+02071MA1999999096921MD1999999-0121REMSYN076AAXX  06124 82784 32598 10505 10284 20176 39692 40156 81100 333 20207 59012;EQDQ01  00002PRCP99
0202827840999992001100712004-07310-039300FM-12+040999999V0203601N002119999999N0200001N1+02761+01911101431ADDAA199000091GF107991999011008001001001KA1240N+02101MA1999999096791MD1999999-0131REMSYN076AAXX  07124 82784 32598 73604 10276 20191 39679 40143 82100 333 20210 59013;EQDQ01+000022SCOTLCQ02  00002PRCP99
0167827840999992001100718004-07310-039300FM-12+040999999V0203601N002612200019N0200001N1+03561+01311100831ADDAA199000091GF102991021011012501001001MA1999999096231MD1999999-0131REMSYN070AAXX  07184 82784 32698 23605 10356 20131 39623 40083 82100 333 59013;EQDQ01  00002PRCP99
0208827840999992001100800004-07310-039300FM-12+040999999V0202701N001012200019N0020001N1+02711+01601101271ADDAA199000091GA1001+999999999GF100991001001999999001001KA1240M+03681MA1999999096631MD1999999+0041REMSYN082AAXX  08004 82784 32995 02702 10271 20160 39663 40127 333 10368 29047 55081 58004;EQDQ01  00002PRCP99
0186827840999992001100812004-07310-039300FM-12+040999999V0200901N001510120019N0200001N1+02661+01971101551ADDAA199000091GF107991071081008001001001KA1240N+02381MA1999999096891MD1999999+0101REMSYN076AAXX  08124 82784 32598 70903 10266 20197 39689 40155 87800 333 20238 58010;EQDQ01  00002PRCP99
0167827840999992001100818004-07310-039300FM-12+040999999V0200901N003112200019N0200001N1+03481+01471100901ADDAA199000091GF104991031021008001011001MA1999999096301MD1999999+0071REMSYN070AAXX  08184 82784 32598 40906 10348 20147 39630 40090 83210 333 58007;EQDQ01  00002PRCP99
0208827840999992001100900004-07310-039300FM-12+040999999V0200901N001512200019N0020001N1+02741+01511101181ADDAA199000091GA1001+999999999GF100991001001999999001001KA1240M+03531MA1999999096541MD1999999-0091REMSYN082AAXX  09004 82784 32995 00903 10274 20151 39654 40118 333 10353 29048 55083 59009;EQDQ01  00002PRCP99
0186827840999992001100912004-07310-039300FM-12+040999999V0201401N002612200019N0200001N1+02861+01871101441ADDAA199000091GF103991031021008001001001KA1240N+02351MA1999999096801MD1999999-0091REMSYN076AAXX  09124 82784 32598 31405 10286 20187 39680 40144 83200 333 20235 59009;EQDQ01  00002PRCP99
0167827840999992001100918004-07310-039300FM-12+040999999V0200501N001512200019N0200001N1+03551+01411100811ADDAA199000091GF102991021021008001001001MA1999999096221MD1999999-0081REMSYN070AAXX  09184 82784 32598 20503 10355 20141 39622 40081 82200 333 59008;EQDQ01  00002PRCP99
0208827840999992001101000004-07310-039300FM-12+040999999V0201401N003112200019N0020001N1+03061+01421101101ADDAA199000091GA1001+999999999GF100991001001999999001001KA1240M+03631MA1999999096491MD1999999-0051REMSYN082AAXX  10004 82784 32995 01406 10306 20142 39649 40110 333 10363 29039 55104 59005;EQDQ01  00002PRCP99
0186827840999992001101012004-07310-039300FM-12+040999999V0200501N002610120019N0200001N1+02801+01841101501ADDAA199000091GF106991061081008001001001KA1240N+02401MA1999999096871MD1999999+0071REMSYN076AAXX  10124 82784 32598 60505 10280 20184 39687 40150 86800 333 20240 58007;EQDQ01  00002PRCP99
0167827840999992001101018004-07310-039300FM-12+040999999V0203601N003112200019N0200001N1+03511+01631100871ADDAA199000091GF102991021021008001001001MA1999999096271MD1999999+0051REMSYN070AAXX  10184 82784 32598 23606 10351 20163 39627 40087 82200 333 58005;EQDQ01  00002PRCP99
0198827840999992001101100004-07310-039300FM-12+040999999V0201401N001012200019N0020001N1+02811+01501101161ADDAA199000091GF102991021061008001001001KA1240M+03581MA1999999096531MD1999999+0041REMSYN088AAXX  11000 82784 32595 21401 10281 20150 39653 40116 82600 333 10358 29045 55081 58004;EQDQ01  00002PRCP99
0186827840999992001101112004-07310-039300FM-12+040999999V0200901N002610075019N0200001N1+02841+01761101491ADDAA199000091GF105991051021008001001001KA1240N+02461MA1999999096851MD1999999-0021REMSYN076AAXX  11124 82784 32598 50905 10284 20176 39685 40149 85200 333 20246 59002;EQDQ01  00002PRCP99
0167827840999992001101118004-07310-039300FM-12+040999999V0200901N003112200019N0200001N1+03501+01321100891ADDAA199000091GF104991041021008001001001MA1999999096291MD1999999+0021REMSYN070AAXX  11184 82784 32598 40906 10350 20132 39629 40089 84200 333 58002;EQDQ01  00002PRCP99
0208827840999992001101200004-07310-039300FM-12+040999999V0201401N004112200019N0020001N1+02961+01611101161ADDAA199000091GA1001+999999999GF100991001001999999001001KA1240M+03611MA1999999096491MD1999999-0041REMSYN082AAXX  12004 82784 32995 01408 10296 20161 39649 40116 333 10361 29425 55086 59004;EQDQ01  00002PRCP99
0186827840999992001101212004-07310-039300FM-12+040999999V0201401N003110120019N0200001N1+02791+01761101511ADDAA199000091GF108991081081008001999999KA1240N+02461MA1999999096871MD1999999+0021REMSYN076AAXX  12124 82784 32598 81406 10279 20176 39687 40151 888// 333 20246 58002;EQDQ01  00002PRCP99
0167827840999992001101218004-07310-039300FM-12+040999999V0201401N002610150019N0200001N1+03281+01821101011ADDAA199000091GF108991061081012501011081MA1999999096391MD1999999+0101REMSYN070AAXX  12184 82784 32698 81405 10328 20182 39639 40101 86818 333 58010;EQDQ01  00002PRCP99
0213827840999992001101300004-07310-039300FM-12+040999999V0200901N002610120019N0020001N1+02561+02041101501ADDAA106000191AY121061AY221061GF108991081081008001999999KA1240M+03381MA1999999096861MD1999999+0371MW1201REMSYN100AAXX  13004 82784 21595 80905 10256 20204 39686 40150 72022 888// 333 10338 29060 55043 58037 69911;
0201827840999992001101312004-07310-039300FM-12+040999999V0200901N002110120019N0200001N1+02461+01881101691ADDAA124001091AY151061AY221061GF108991081081008001999999KA1240N+02121MA1999999097011MD1999999+0141MW1021REMSYN088AAXX  13124 82784 21598 80904 10246 20188 39701 40169 70252 888// 333 20212 58014 60014;
0183827840999992001101318004-07310-039300FM-12+040999999V0201401N003610075019N0200001N1+02921+01801101161ADDAA199000091GF107991999021008001001001MA1999999096521MD1999999+0111REMSYN070AAXX  13184 82784 32598 71407 10292 20180 39652 40116 86200 333 58011;EQDQ01+000062SCOTLCQ02  00002PRCP99
0213827840999992001101400004-07310-039300FM-12+040999999V0209999C000010120019N0020001N1+02461+02361101441ADDAA106000591AY151061AY221061GF108991081081008001999999KA1240M+03001MA1999999096761MD1999999-0101MW1021REMSYN100AAXX  14004 82784 21595 80000 10246 20236 39676 40144 70252 888// 333 10300 29076 55026 59010 69951;
0201827840999992001101412004-07310-039300FM-12+040999999V0200901N002610120019N0200001N1+02641+01931101631ADDAA124002091AY161061AY221061GF108991081081008001999999KA1240N+02311MA1999999096951MD1999999-0061MW1021REMSYN088AAXX  14124 82784 21598 80905 10264 20193 39695 40163 70262 888// 333 20231 59006 60024;
0208827840999992001101500004-07310-039300FM-12+040999999V0201801N000512200019N0020001N1+02521+02091101301ADDAA199000091GA1001+999999999GF100991001001999999001001KA1240M+03231MA1999999096651MD1999999-0111REMSYN082AAXX  15004 82784 32995 01801 10252 20209 39665 40130 333 10323 29068 55043 59011;EQDQ01  00002PRCP99
0201827840999992001101512004-07310-039300FM-12+040999999V0202701N001510075019N0040001N1+02411+02131101471ADDAA124007191AY161061AY221061GF108991081071008001999999KA1240N+02211MA1999999096791MD1999999-0161MW1021REMSYN088AAXX  15124 82784 21596 82703 10241 20213 39679 40147 70262 887// 333 20221 59016 60074;
0167827840999992001101518004-07310-039300FM-12+040999999V0200501N001512200019N0200001N1+03161+01921100971ADDAA199000091GF104991041021008001001001MA1999999096341MD1999999-0061REMSYN070AAXX  15184 82784 32598 40503 10316 20192 39634 40097 84200 333 59006;EQDQ01  00002PRCP99
0208827840999992001101600004-07310-039300FM-12+040999999V0209999C000012200019N0020001N1+02541+02171101241ADDAA199000091GA1001+999999999GF100991001001999999001001KA1240M+03271MA1999999096581MD1999999-0071REMSYN082AAXX  16004 82784 31995 00000 10254 20217 39658 40124 333 10327 29073 55060 59007;EQDQ01  00002PRCP99
0201827840999992001101612004-07310-039300FM-12+040999999V0200501N001510075019N0040001N1+02541+02001101491ADDAA124007191AY161061AY211061GF108991081071008001999999KA1240N+02141MA1999999096821MD1999999+0031MW1021REMSYN088AAXX  16124 82784 21596 80503 10254 20200 39682 40149 70261 887// 333 20214 58003 60074;
0167827840999992001101618004-07310-039300FM-12+040999999V0203201N001510450019N0200001N1+03061+01931100911ADDAA199000091GF106991031031012501051091MA1999999096291MD1999999-0051REMSYN070AAXX  16184 82784 32698 63203 10306 20193 39629 40091 83359 333 59005;EQDQ01  00002PRCP99
0198827840999992001101700004-07310-039300FM-12+040999999V0209999C000010120019N0020001N1+02541+02311101171ADDAA199000091GF107991071081008001001001KA1240M+03171MA1999999096521MD1999999-0061REMSYN088AAXX  17004 82784 32595 70000 10254 20231 39652 40117 87800 333 10317 29074 55034 59006;EQDQ01  00002PRCP99
0201827840999992001101712004-07310-039300FM-12+040999999V0200901N001510450019N0200001N1+02541+01931101401ADDAA124003091AY161061AY221061GF106991031021008001061001KA1240N+02301MA1999999096741MD1999999+0081MW1021REMSYN088AAXX  17124 82784 21598 60903 10254 20193 39674 40140 70262 83260 333 20230 58008 60034;
0167827840999992001101718004-07310-039300FM-12+040999999V0200901N001512200019N0200001N1+03341+01801100801ADDAA199000091GF103991031021008001001001MA1999999096191MD1999999-0101REMSYN070AAXX  17184 82784 32598 30903 10334 20180 39619 40080 83200 333 59010;EQDQ01  00002PRCP99
0208827840999992001101800004-07310-039300FM-12+040999999V0209999C000012200019N0020001N1+02581+02011101031ADDAA199000091GA1001+999999999GF100991001001999999001001KA1240M+03431MA1999999096381MD1999999-0141REMSYN082AAXX  18004 82784 32995 00000 10258 20201 39638 40103 333 10343 29063 55078 59014;EQDQ01  00002PRCP99
0186827840999992001101812004-07310-039300FM-12+040999999V0200501N003112200019N0200001N1+02801+01691101321ADDAA199000091GF101991011011008001001001KA1240N+02341MA1999999096671MD1999999-0071REMSYN076AAXX  18124 82784 32598 10506 10280 20169 39667 40132 81100 333 20234 59007;EQDQ01  00002PRCP99
0167827840999992001101818004-07310-039300FM-12+040999999V0200501N003112200019N0200001N1+03451+01431100711ADDAA199000091GF101991011011012501001001MA1999999096121MD1999999-0071REMSYN070AAXX  18184 82784 32698 10506 10345 20143 39612 40071 81100 333 59007;EQDQ01  00002PRCP99
0208827840999992001101900004-07310-039300FM-12+040999999V0200501N000512200019N0020001N1+02681+01761100981ADDAA199000091GA1001+999999999GF100991001001999999001001KA1240M+03511MA1999999096351MD1999999-0031REMSYN082AAXX  19004 82784 32995 00501 10268 20176 39635 40098 333 10351 29049 55112 59003;EQDQ01  00002PRCP99
0186827840999992001101912004-07310-039300FM-12+040999999V0200501N003612200019N0200001N1+02861+01551101281ADDAA199000091GF102991021001017501011001KA1240N+02101MA1999999096641MD1999999-0031REMSYN076AAXX  19124 82784 32798 20507 10286 20155 39664 40128 82010 333 20210 59003;EQDQ01  00002PRCP99
0167827840999992001101918004-07310-039300FM-12+040999999V0203601N003112200019N0200001N1+03461+01341100731ADDAA199000091GF101991011011008001001001MA1999999096131MD1999999+0011REMSYN070AAXX  19184 82784 32598 13606 10346 20134 39613 40073 81100 333 58001;EQDQ01  00002PRCP99
0208827840999992001102000004-07310-039300FM-12+040999999V0201401N001512200019N0020001N1+02781+01881101001ADDAA199000091GA1001+999999999GF100991001001999999001001KA1240M+03511MA1999999096381MD1999999+0031REMSYN082AAXX  20004 82784 32995 01403 10278 20188 39638 40100 333 10351 29042 55112 58003;EQDQ01  00002PRCP99
0180827840999992001102012004-07310-039300FM-12+040999999V0200501N003619999999N0200001N1+02771+01661101331ADDAA199000091GF105991999999999999999999KA1240N+02221MA1999999096691MD1999999+0051REMSYN070AAXX  20124 82784 32998 50507 10277 20166 39669 40133 333 20222 58005;EQDQ01  00002PRCP99
0167827840999992001102018004-07310-039300FM-12+040999999V0203601N002110450019N0200001N1+03501+01531100811ADDAA199000091GF106991031021008001011001MA1999999096211MD1999999+0081REMSYN070AAXX  20184 82784 32598 63604 10350 20153 39621 40081 83210 333 58008;EQDQ01  00002PRCP99
0198827840999992001102100004-07310-039300FM-12+040999999V0209999C000010120019N0020001N1+02761+01801101101ADDAA199000091GF108991081061012501999999KA1240M+03531MA1999999096471MD1999999+0091REMSYN088AAXX  21004 82784 32695 80000 10276 20180 39647 40110 886// 333 10353 29048 55095 58009;EQDQ01  00002PRCP99
0202827840999992001102112004-07310-039300FM-12+040999999V0203601N002612200019N0200001N1+02751+01951101331ADDAA199000091GF102991999021008001001001KA1240N+02271MA1999999096691MD1999999+0001REMSYN076AAXX  21124 82784 32598 23605 10275 20195 39669 40133 83200 333 20227 58000;EQDQ01+000032SCOTLCQ02  00002PRCP99
0183827840999992001102118004-07310-039300FM-12+040999999V0201401N002619999999N0200001N1+03521+01501100781ADDAA199000091GF106991999021012501001001MA1999999096171MD1999999-0041REMSYN070AAXX  21184 82784 32698 61405 10352 20150 39617 40078 84200 333 59004;EQDQ01+000042SCOTLCQ02  00002PRCP99
0208827840999992001102200004-07310-039300FM-12+040999999V0209999C000012200019N0020001N1+02801+01901101071ADDAA199000091GA1001+999999999GF100991001001999999001001KA1240M+03591MA1999999096481MD1999999-0021REMSYN082AAXX  22004 82784 32995 00000 10280 20190 39648 40107 333 10359 29052 55105 59002;EQDQ01  00002PRCP99
0186827840999992001102212004-07310-039300FM-12+040999999V0200501N002612200019N0200001N1+02841+01881101361ADDAA199000091GF102991011011008001011001KA1240N+02161MA1999999096721MD1999999+0031REMSYN076AAXX  22124 82784 32598 20505 10284 20188 39672 40136 81110 333 20216 58003;EQDQ01  00002PRCP99
0167827840999992001102218004-07310-039300FM-12+040999999V0200501N002612200019N0200001N1+03641+01381100731ADDAA199000091GF102991011011008001011001MA1999999096141MD1999999-0031REMSYN070AAXX  22184 82784 32598 20505 10364 20138 39614 40073 81110 333 59003;EQDQ01  00002PRCP99
0208827840999992001102300004-07310-039300FM-12+040999999V0202701N000512200019N0020001N1+02581+01521100931ADDAA199000091GA1001+999999999GF100991001001999999001001KA1240M+03671MA1999999096301MD1999999-0151REMSYN082AAXX  23004 82784 32995 02701 10258 20152 39630 40093 333 10367 29046 55109 59015;EQDQ01  00002PRCP99
0186827840999992001102312004-07310-039300FM-12+040999999V0200501N002610075019N0200001N1+02661+01971101351ADDAA199000091GF106991061021008001001001KA1240N+02211MA1999999096691MD1999999-0051REMSYN076AAXX  23124 82784 32598 60505 10266 20197 39669 40135 86200 333 20221 59005;EQDQ01  00002PRCP99
0167827840999992001102318004-07310-039300FM-12+040999999V0203601N001512200019N0200001N1+03521+01601100801ADDAA199000091GF101991011011008001001001MA1999999096201MD1999999+0061REMSYN070AAXX  23184 82784 32598 13603 10352 20160 39620 40080 81100 333 58006;EQDQ01  00002PRCP99
0208827840999992001102400004-07310-039300FM-12+040999999V0202701N000512200019N0020001N1+02691+01891101171ADDAA199000091GA1001+999999999GF100991001001999999001001KA1240M+03591MA1999999096531MD1999999+0201REMSYN082AAXX  24004 82784 32995 02701 10269 20189 39653 40117 333 10359 29056 55080 58020;EQDQ01  00002PRCP99
0186827840999992001102412004-07310-039300FM-12+040999999V0200901N002110120019N0200001N1+02711+01961101591ADDAA199000091GF108991081081008001999999KA1240N+02221MA1999999096931MD1999999+0241REMSYN076AAXX  24124 82784 32598 80904 10271 20196 39693 40159 888// 333 20222 58024;EQDQ01  00002PRCP99
0208827840999992001102500004-07310-039300FM-12+040999999V0201401N002612200019N0020001N1+02881+01531101321ADDAA199000091GA1001+999999999GF100991001001999999001001KA1240M+03551MA1999999096681MD1999999+0151REMSYN082AAXX  25004 82784 32995 01405 10288 20153 39668 40132 333 10355 29047 55065 58015;EQDQ01  00002PRCP99
0180827840999992001102512004-07310-039300FM-12+040999999V0200501N003112200019N0200001N1+02861+01481101651ADDAA199000091GF103991999999999999999999KA1240N+02211MA1999999097001MD1999999+0071REMSYN070AAXX  25124 82784 32998 30506 10286 20148 39700 40165 333 20221 58007;EQDQ01  00002PRCP99
0167827840999992001102518004-07310-039300FM-12+040999999V0200901N002612200019N0200001N1+03451+01211101021ADDAA199000091GF102991011011008001001011MA1999999096411MD1999999+0071REMSYN070AAXX  25184 82784 32598 20905 10345 20121 39641 40102 81101 333 58007;EQDQ01  00002PRCP99
0208827840999992001102600004-07310-039300FM-12+040999999V0201401N002112200019N0020001N1+02851+01601101301ADDAA199000091GA1001+999999999GF100991001001999999001001KA1240M+03531MA1999999096671MD1999999-0011REMSYN082AAXX  26004 82784 32995 01404 10285 20160 39667 40130 333 10353 29041 55109 59001;EQDQ01  00002PRCP99
0186827840999992001102612004-07310-039300FM-12+040999999V0201401N003610120019N0200001N1+02661+01791101581ADDAA199000091GF108991081081008001999999KA1240N+02321MA1999999096931MD1999999-0071REMSYN076AAXX  26124 82784 32598 81407 10266 20179 39693 40158 888// 333 20232 59007;EQDQ01  00002PRCP99
0167827840999992001102618004-07310-039300FM-12+040999999V0201401N002110120019N0200001N1+03261+01801100971ADDAA199000091GF108991051021012501011061MA1999999096351MD1999999-0061REMSYN070AAXX  26184 82784 32698 81404 10326 20180 39635 40097 85216 333 59006;EQDQ01  00002PRCP99
0198827840999992001102700004-07310-039300FM-12+040999999V0200501N001010120019N0020001N1+02681+01761101281ADDAA199000091GF108991081081008001999999KA1240M+03351MA1999999096631MD1999999-0041REMSYN088AAXX  27004 82784 32595 80502 10268 20176 39663 40128 888// 333 10335 29054 55049 59004;EQDQ01  00002PRCP99
0201827840999992001102712004-07310-039300FM-12+040999999V0201401N000510120019N0200001N1+02341+02071101601ADDAA124000591AY151061AY221061GF107991061081008001031001KA1240N+02151MA1999999096921MD1999999-0011MW1011REMSYN088AAXX  27124 82784 21598 71401 10234 20207 39692 40160 70152 86830 333 20215 59001 69964;
0182827840999992001102718004-07310-039300FM-12+040999999V0200501N001010450019N0200001N1+02901+01961101111ADDAA106005191AY161061AY251061GF106991031021008001061021MA1999999096471MD1999999+0121MW1021REMSYN082AAXX  27184 82784 21598 60502 10290 20196 39647 40111 70265 83262 333 58012 60051;
0198827840999992001102800004-07310-039300FM-12+040999999V0209999C000012200019N0020001N1+02361+02071101411ADDAA199000091GF101991011061008001001001KA1240M+03051MA1999999096731MD1999999+0101REMSYN088AAXX  28004 82784 32595 10000 10236 20207 39673 40141 81600 333 10305 29078 55036 58010;EQDQ01  00002PRCP99
0173827840999992001102812004-07310-039300FM-12+040999999V0201401N003110075019N0200001N1+02681+01841101591ADDAA124005191GF108991081021008001999999KA1240N+02031MA1999999096911MD1999999-0011REMSYN082AAXX  28124 82784 22598 81406 10268 20184 39691 40159 882// 333 20203 59001 60054;
0167827840999992001102818004-07310-039300FM-12+040999999V0201401N003110120019N0200001N1+03261+01601100971ADDAA199000091GF106991061021012501001001MA1999999096341MD1999999-0131REMSYN070AAXX  28184 82784 32698 61406 10326 20160 39634 40097 86200 333 59013;EQDQ01  00002PRCP99
0198827840999992001102900004-07310-039300FM-12+040999999V0201801N000512200019N0020001N1+02621+01811101291ADDAA199000091GF101991011081008001001001KA1240M+03371MA1999999096651MD1999999-0081REMSYN088AAXX  29004 82784 32595 11801 10262 20181 39665 40129 81800 333 10337 29055 55101 59008;EQDQ01  00002PRCP99
0186827840999992001102912004-07310-039300FM-12+040999999V0200901N002110075019N0200001N1+02781+01851101581ADDAA199000091GF107991071021008001001001KA1240N+02391MA1999999096921MD1999999+0011REMSYN076AAXX  29124 82784 32598 70904 10278 20185 39692 40158 87200 333 20239 58001;EQDQ01  00002PRCP99
0167827840999992001102918004-07310-039300FM-12+040999999V0200501N002110450019N0200001N1+03301+01761100971ADDAA199000091GF106991031021008001011001MA1999999096361MD1999999+0021REMSYN070AAXX  29184 82784 32598 60504 10330 20176 39636 40097 83210 333 58002;EQDQ01  00002PRCP99
0198827840999992001103000004-07310-039300FM-12+040999999V0209999C000010075019N0020001N1+02781+01821101261ADDAA199000091GF108991081061008001999999KA1240M+03391MA1999999096631MD1999999-0021REMSYN088AAXX  30004 82784 32595 80000 10278 20182 39663 40126 886// 333 10339 29052 55083 59002;EQDQ01  00002PRCP99
0201827840999992001103012004-07310-039300FM-12+040999999V0200901N003110120019N0200001N1+02721+02101101611ADDAA124009991AY161061AY221061GF108991081081008001999999KA1240N+02251MA1999999096951MD1999999+0031MW1021REMSYN088AAXX  30124 82784 21598 80906 10272 20210 39695 40161 70262 888// 333 20225 58003 60104;
0167827840999992001103018004-07310-039300FM-12+040999999V0200901N002112200019N0200001N1+03381+01831100971ADDAA199000091GF102991021021012501001001MA1999999096361MD1999999+0001REMSYN070AAXX  30184 82784 32698 20904 10338 20183 39636 40097 82200 333 58000;EQDQ01  00002PRCP99
0198827840999992001103100004-07310-039300FM-12+040999999V0209999C000010075019N0020001N1+02681+02021101271ADDAA199000091GF107991071021008001001001KA1240M+03451MA1999999096631MD1999999+0001REMSYN088AAXX  31004 82784 32595 70000 10268 20202 39663 40127 87200 333 10345 29061 55082 58000;EQDQ01  00002PRCP99
0196827840999992001103112004-07310-039300FM-12+040999999V0200901N002112200019N0200001N1+02921+01801101351ADDAA199000091GA1001+999999999GF100991001001999999001001KA1240N+02201MA1999999096711MD1999999-0241REMSYN070AAXX  31124 82784 32998 00904 10292 20180 39671 40135 333 20220 59024;EQDQ01  00002PRCP99
0167827840999992001103118004-07310-039300FM-12+040999999V0201401N003112200019N0200001N1+03641+01131100711ADDAA199000091GF101991011011008001011001MA1999999096121MD1999999-0241REMSYN070AAXX  31184 82784 32598 11406 10364 20113 39612 40071 81110 333 59024;EQDQ01  00002PRCP99
0208827840999992001110100004-07310-039300FM-12+040999999V0201401N001012200019N0020001N1+02741+01411100951ADDAA199000091GA1001+999999999GF100991001001999999001001KA1240M+03671MA1999999096341MD1999999-0291REMSYN082AAXX  01004 82784 32995 01402 10274 20141 39634 40095 333 10367 29040 55111 59029;EQDQ01  00002PRCP99
0186827840999992001110112004-07310-039300FM-12+040999999V0203601N001010075019N0200001N1+02741+01811101211ADDAA199000091GF105991051021008001001001KA1240N+02121MA1999999096571MD1999999-0141REMSYN076AAXX  01124 82784 32598 53602 10274 20181 39657 40121 85200 333 20212 59014;EQDQ01  00002PRCP99
0177827840999992001110118004-07310-039300FM-12+040999999V0200901N002112200019N0200001N1+03561+01431100551ADDAA199000091GA1001+999999999GF100991001001999999001001MA1999999095971MD1999999-0151REMSYN064AAXX  01184 82784 32998 00904 10356 20143 39597 40055 333 59015;EQDQ01  00002PRCP99
0208827840999992001110200004-07310-039300FM-12+040999999V0200901N006212200019N0020001N1+02681+01491100951ADDAA199000091GA1001+999999999GF100991001001999999001001KA1240M+03651MA1999999096321MD1999999-0021REMSYN082AAXX  02004 82784 32995 00912 10268 20149 39632 40095 333 10365 29045 55112 59002;EQDQ01  00002PRCP99
0186827840999992001110212004-07310-039300FM-12+040999999V0200901N000510075019N0200001N1+02761+01971101171ADDAA199000091GF105991051021008001001001KA1240N+02201MA1999999096531MD1999999-0041REMSYN076AAXX  02124 82784 32598 50901 10276 20197 39653 40117 85200 333 20220 59004;EQDQ01  00002PRCP99
0167827840999992001110218004-07310-039300FM-12+040999999V0201401N002110450019N0200001N1+03501+01771100671ADDAA199000091GF106991041021008001011001MA1999999096071MD1999999+0101REMSYN070AAXX  02184 82784 32598 61404 10350 20177 39607 40067 84210 333 58010;EQDQ01  00002PRCP99
0214827840999992001110300004-07310-039300FM-12+040999999V0201801N003110075019N0020001N1+03141+01541100971ADDAA199000091GF108991999051008001081999KA1240M+03571MA1999999096361MD1999999+0041REMSYN088AAXX  03004 82784 32595 81806 10314 20154 39636 40097 8858/ 333 10357 29044 55099 58004;EQDQ01+000082SCOTLCQ02  00002PRCP99
0186827840999992001110312004-07310-039300FM-12+040999999V0200501N002110075019N0200001N1+02841+01911101281ADDAA199000091GF106991061021008001001001KA1240N+02491MA1999999096661MD1999999+0131REMSYN076AAXX  03124 82784 32598 60504 10284 20191 39666 40128 86200 333 20249 58013;EQDQ01  00002PRCP99
0167827840999992001110318004-07310-039300FM-12+040999999V0200501N003112200019N0200001N1+03461+01641100751ADDAA199000091GF103991031021008001001001MA1999999096161MD1999999+0091REMSYN070AAXX  03184 82784 32598 30506 10346 20164 39616 40075 83200 333 58009;EQDQ01  00002PRCP99
0214827840999992001110400004-07310-039300FM-12+040999999V0200901N001019999999N0020001N1+02961+01781101051ADDAA199000091GF106991999011008001001001KA1240M+03571MA1999999096441MD1999999+0081REMSYN088AAXX  04004 82784 32595 60902 10296 20178 39644 40105 82100 333 10357 29016 55094 58008;EQDQ01+000022SCOTLCQ02  00002PRCP99
0196827840999992001110412004-07310-039300FM-12+040999999V0200901N002112200019N0200001N1+02841+01851101341ADDAA199000091GA1001+999999999GF100991001001999999001001KA1240N+02571MA1999999096711MD1999999+0051REMSYN070AAXX  04124 82784 32998 00904 10284 20185 39671 40134 333 20257 58005;EQDQ01  00002PRCP99
0167827840999992001110418004-07310-039300FM-12+040999999V0201801N001512200019N0200001N1+03581+01441100791ADDAA199000091GF102991021011012501001001MA1999999096201MD1999999+0041REMSYN070AAXX  04184 82784 32698 21803 10358 20144 39620 40079 82100 333 58004;EQDQ01  00002PRCP99
0208827840999992001110500004-07310-039300FM-12+040999999V0202301N000512200019N0020001N1+02701+01571101021ADDAA199000091GA1001+999999999GF100991001001999999001001KA1240M+03641MA1999999096391MD1999999-0051REMSYN082AAXX  05004 82784 32995 02301 10270 20157 39639 40102 333 10364 29046 55104 59005;EQDQ01  00002PRCP99
0186827840999992001110512004-07310-039300FM-12+040999999V0200501N002110075019N0200001N1+02861+01901101381ADDAA199000091GF107991071021008001001001KA1240N+02431MA1999999096741MD1999999+0031REMSYN076AAXX  05124 82784 32598 70504 10286 20190 39674 40138 87200 333 20243 58003;EQDQ01  00002PRCP99
0167827840999992001110518004-07310-039300FM-12+040999999V0200501N003112200019N0200001N1+03591+01841100781ADDAA199000091GF102991021021008001001001MA1999999096191MD1999999-0011REMSYN070AAXX  05184 82784 32598 20506 10359 20184 39619 40078 82200 333 59001;EQDQ01  00002PRCP99
0178827840999992001110600004-07310-039300FM-12+040999999V0201801N001512200019N0020001N1+02771+01621101041ADDAA199000091GF101991011021008001001001KA1240M+03631MA1999999096421REMSYN082AAXX  06004 82784 32595 11803 10277 20162 39642 40104 81200 333 10363 29048 55089;EQDQ01  00002PRCP99
0186827840999992001110612004-07310-039300FM-12+040999999V0203601N001510075019N0200001N1+02761+01971101451ADDAA199000091GF107991071021008001001001KA1240N+02421MA1999999096801MD1999999+0061REMSYN076AAXX  06124 82784 32598 73603 10276 20197 39680 40145 87200 333 20242 58006;EQDQ01  00002PRCP99
0167827840999992001110618004-07310-039300FM-12+040999999V0200501N003112200019N0200001N1+03551+01801100791ADDAA199000091GF102991021021008001001001MA1999999096201MD1999999+0011REMSYN070AAXX  06184 82784 32598 20506 10355 20180 39620 40079 82200 333 58001;EQDQ01  00002PRCP99
0214827840999992001110700004-07310-039300FM-12+040999999V0200901N001512200019N0020001N1+03291+00961101141ADDAA199000091GF101991999011008001001001KA1240M+03651MA1999999096531MD1999999+0111REMSYN088AAXX  07004 82784 32595 10903 10329 20096 39653 40114 82100 333 10365 29036 55077 58011;EQDQ01+000022SCOTLCQ02  00002PRCP99
0186827840999992001110712004-07310-039300FM-12+040999999V0200501N002110075019N0200001N1+02781+01911101501ADDAA199000091GF106991061021008001001001KA1240N+02381MA1999999096881MD1999999+0081REMSYN076AAXX  07124 82784 32598 60504 10278 20191 39688 40150 86200 333 20238 58008;EQDQ01  00002PRCP99
0167827840999992001110718004-07310-039300FM-12+040999999V0200901N006012200019N0200001N1+03481+01411100921ADDAA199000091GF101991011011012501001001MA1999999096321MD1999999+0121REMSYN070AAXX  07180 82784 32698 10906 10348 20141 39632 40092 81100 333 58012;EQDQ01  00002PRCP99
0198827840999992001110800004-07310-039300FM-12+040999999V0201401N003110075019N0020001N1+02921+01381101221ADDAA199000091GF106991061021008001001001KA1240M+03551MA1999999096591MD1999999+0061REMSYN088AAXX  08004 82784 32595 61406 10292 20138 39659 40122 86200 333 10355 29042 55097 58006;EQDQ01  00002PRCP99
0186827840999992001110812004-07310-039300FM-12+040999999V0200501N002610075019N0200001N1+02881+01671101621ADDAA199000091GF105991051021008001001001KA1240N+02401MA1999999096981MD1999999+0101REMSYN076AAXX  08124 82784 32598 50505 10288 20167 39698 40162 85200 333 20240 58010;EQDQ01  00002PRCP99
0167827840999992001110818004-07310-039300FM-12+040999999V0200501N003112200019N0200001N1+03461+01451101071ADDAA199000091GF103991031021008001001001MA1999999096461MD1999999+0141REMSYN070AAXX  08184 82784 32598 30506 10346 20145 39646 40107 83200 333 58014;EQDQ01  00002PRCP99
0208827840999992001110900004-07310-039300FM-12+040999999V0201801N000512200019N0020001N1+02601+01381101231ADDAA199000091GA1001+999999999GF100991001001999999001001KA1240M+03501MA1999999096591MD1999999+0001REMSYN082AAXX  09004 82784 32995 01801 10260 20138 39659 40123 333 10350 29043 55096 58000;EQDQ01  00002PRCP99
0186827840999992001110912004-07310-039300FM-12+040999999V0200901N002110075019N0200001N1+02861+01871101561ADDAA199000091GF105991051021008001001001KA1240N+02301MA1999999096911MD1999999-0071REMSYN076AAXX  09124 82784 32598 50904 10286 20187 39691 40156 85200 333 20230 59007;EQDQ01  00002PRCP99
0167827840999992001110918004-07310-039300FM-12+040999999V0200501N001512200019N0200001N1+03531+01651100921ADDAA199000091GF103991031021008001001001MA1999999096321MD1999999-0141REMSYN070AAXX  09184 82784 32598 30503 10353 20165 39632 40092 83200 333 59014;EQDQ01  00002PRCP99
0183827840999992001111000004-07310-039300FM-12+040999999V0201401N001019999999N0020001N1+02791+01611999999ADDAA199000091GF107991999999008001999999KA1240M+03571MA1999999096601REMSYN087AAXX  10004 82784 32595 71402 10279 20161 39660 4013 87200 333 10357 29046 55107 58001;EQDQ01  00002PRCP99
0186827840999992001111012004-07310-039300FM-12+040999999V0200901N003112200019N0200001N1+02871+01901101581ADDAA199000091GF103991031021008001001001KA1240N+02481MA1999999096941MD1999999+0031REMSYN076AAXX  10124 82784 32598 30906 10287 20190 39694 40158 83200 333 20248 58003;EQDQ01  00002PRCP99
0183827840999992001111018004-07310-039300FM-12+040999999V0201401N003112200019N0200001N1+03391+01571101031ADDAA199000091GF103991999011008001001001MA1999999096421MD1999999+0101REMSYN070AAXX  10184 82784 32598 31406 10339 20157 39642 40103 82100 333 58010;EQDQ01+000022SCOTLCQ02  00002PRCP99
0208827840999992001111100004-07310-039300FM-12+040999999V0201401N001512200019N0020001N1+02801+01461101251ADDAA199000091GA1001+999999999GF100991001001999999001001KA1240M+03441MA1999999096621MD1999999+0021REMSYN082AAXX  11004 82784 32995 01403 10280 20146 39662 40125 333 10344 29044 55103 58002;EQDQ01  00002PRCP99
0186827840999992001111112004-07310-039300FM-12+040999999V0200901N002110120019N0200001N1+02721+01851101561ADDAA199000091GF108991081081008001999999KA1240N+02501MA1999999096911MD1999999-0031REMSYN076AAXX  11124 82784 32598 80904 10272 20185 39691 40156 888// 333 20250 59003;EQDQ01  00002PRCP99
0167827840999992001111118004-07310-039300FM-12+040999999V0200901N002610120019N0200001N1+03431+01411100961ADDAA199000091GF106991061021012501001001MA1999999096361MD1999999-0061REMSYN070AAXX  11184 82784 32698 60905 10343 20141 39636 40096 86200 333 59006;EQDQ01  00002PRCP99
0198827840999992001111200004-07310-039300FM-12+040999999V0203601N000510120019N0020001N1+02641+01391101261ADDAA199000091GF107991071081008001001001KA1240M+03521MA1999999096621MD1999999+0001REMSYN088AAXX  12004 82784 32595 73601 10264 20139 39662 40126 87800 333 10352 29045 55072 58000;EQDQ01  00002PRCP99
0186827840999992001111212004-07310-039300FM-12+040999999V0200901N002110075019N0200001N1+02821+01891101541ADDAA199000091GF106991061021008001001001KA1240N+02431MA1999999096891MD1999999-0021REMSYN076AAXX  12124 82784 32598 60904 10282 20189 39689 40154 86200 333 20243 59002;EQDQ01  00002PRCP99
0167827840999992001111218004-07310-039300FM-12+040999999V0200901N002112200019N0200001N1+03561+01681100961ADDAA199000091GF102991021021008001001001MA1999999096351MD1999999-0011REMSYN070AAXX  12184 82784 32598 20904 10356 20168 39635 40096 82200 333 59001;EQDQ01  00002PRCP99
0208827840999992001111300004-07310-039300FM-12+040999999V0200501N000512200019N0020001N1+02771+01561101161ADDAA199000091GA1001+999999999GF100991001001999999001001KA1240M+03611MA1999999096531MD1999999-0091REMSYN082AAXX  13004 82784 32995 00501 10277 20156 39653 40116 333 10361 29046 55097 59009;EQDQ01  00002PRCP99
0186827840999992001111312004-07310-039300FM-12+040999999V0200501N002112200019N0200001N1+02781+01821101401ADDAA199000091GF101991011011008001001001KA1240N+02361MA1999999096761MD1999999-0131REMSYN076AAXX  13124 82784 32598 10504 10278 20182 39676 40140 81100 333 20236 59013;EQDQ01  00002PRCP99
0167827840999992001111318004-07310-039300FM-12+040999999V0203601N001512200019N0200001N1+03581+01651100721ADDAA199000091GF102991021021012501001001MA1999999096131MD1999999-0221REMSYN070AAXX  13184 82784 32698 23603 10358 20165 39613 40072 82200 333 59022;EQDQ01  00002PRCP99
0186827840999992001111412004-07310-039300FM-12+040999999V0200501N002610075019N0200001N1+02611+01841101321ADDAA199000091GF108991081051008001999999KA1240N+02441MA1999999096681MD1999999-0081REMSYN076AAXX  14124 82784 32598 80505 10261 20184 39668 40132 885// 333 20244 59008;EQDQ01  00002PRCP99
0167827840999992001111418004-07310-039300FM-12+040999999V0200501N003612200019N0200001N1+03361+01771100631ADDAA199000091GF102991021021008001001001MA1999999096031MD1999999-0101REMSYN070AAXX  14184 82784 32598 20507 10336 20177 39603 40063 82200 333 59010;EQDQ01  00002PRCP99
0208827840999992001111500004-07310-039300FM-12+040999999V0202701N001512200019N0020001N1+02861+01651100931ADDAA199000091GA1001+999999999GF100991001001999999001001KA1240M+03451MA1999999096311MD1999999-0071REMSYN082AAXX  15004 82784 32995 02703 10286 20165 39631 40093 333 10345 29050 55068 59007;EQDQ01  00002PRCP99
0186827840999992001111512004-07310-039300FM-12+040999999V0200501N002110120019N0200001N1+02731+01951101311ADDAA199000091GF108991081081008001999999KA1240N+02461MA1999999096671MD1999999-0011REMSYN076AAXX  15124 82784 32598 80504 10273 20195 39667 40131 888// 333 20246 59001;EQDQ01  00002PRCP99
0167827840999992001111518004-07310-039300FM-12+040999999V0200901N001512200019N0200001N1+03061+01871100871ADDAA199000091GF102991011011012501001091MA1999999096251MD1999999+0221REMSYN070AAXX  15184 82784 32698 20903 10306 20187 39625 40087 81109 333 58022;EQDQ01  00002PRCP99
0208827840999992001111600004-07310-039300FM-12+040999999V0209999C000012200019N0020001N1+02651+01721101121ADDAA199000091GA1001+999999999GF100991001001999999001001KA1240M+03191MA1999999096481MD1999999+0171REMSYN082AAXX  16004 82784 32995 00000 10265 20172 39648 40112 333 10319 29056 55037 58017;EQDQ01  00002PRCP99
0186827840999992001111612004-07310-039300FM-12+040999999V0200501N001510120019N0200001N1+02761+02021101541ADDAA199000091GF108991081081008001999999KA1240N+02341MA1999999096881MD1999999+0211REMSYN076AAXX  16124 82784 32598 80503 10276 20202 39688 40154 888// 333 20234 58021;EQDQ01  00002PRCP99
0167827840999992001111618004-07310-039300FM-12+040999999V0200501N002610450019N0200001N1+03411+01641100971ADDAA199000091GF106991021021008001011001MA1999999096361MD1999999+0111REMSYN070AAXX  16184 82784 32598 60505 10341 20164 39636 40097 82210 333 58011;EQDQ01  00002PRCP99
0208827840999992001111700004-07310-039300FM-12+040999999V0202301N000512200019N0020001N1+02691+01531101321ADDAA199000091GA1001+999999999GF100991001001999999001001KA1240M+03501MA1999999096591MD1999999+0101REMSYN082AAXX  17004 82784 32995 02301 10269 20153 39659 40132 333 10350 29049 55077 58010;EQDQ01  00002PRCP99
0186827840999992001111712004-07310-039300FM-12+040999999V0200901N002612200019N0200001N1+02931+01771101471ADDAA199000091GF104991011011008001011001KA1240N+02281MA1999999096831MD1999999-0051REMSYN076AAXX  17124 82784 32598 40905 10293 20177 39683 40147 81110 333 20228 59005;EQDQ01  00002PRCP99
0167827840999992001111718004-07310-039300FM-12+040999999V0200901N003112200019N0200001N1+03551+01411100901ADDAA199000091GF104991021021008001011001MA1999999096291MD1999999-0071REMSYN070AAXX  17184 82784 32598 40906 10355 20141 39629 40090 82210 333 59007;EQDQ01  00002PRCP99
0208827840999992001111800004-07310-039300FM-12+040999999V0203601N000512200019N0020001N1+02731+01241101061ADDAA199000091GA1001+999999999GF100991001001999999001001KA1240M+03631MA1999999096441MD1999999-0141REMSYN082AAXX  18004 82784 32995 03601 10273 20124 39644 40106 333 10363 29040 55096 59014;EQDQ01  00002PRCP99
0202827840999992001111812004-07310-039300FM-12+040999999V0200501N003112200019N0200001N1+02901+01841101411ADDAA199000091GF103991999011008001001001KA1240N+02371MA1999999096771MD1999999-0061REMSYN076AAXX  18124 82784 32598 30506 10290 20184 39677 40141 82100 333 20237 59006;EQDQ01+000022SCOTLCQ02  00002PRCP99
0167827840999992001111818004-07310-039300FM-12+040999999V0200501N003112200019N0200001N1+03421+01411100811ADDAA199000091GF103991031021012501001001MA1999999096221MD1999999-0071REMSYN070AAXX  18184 82784 32698 30506 10342 20141 39622 40081 83200 333 59007;EQDQ01  00002PRCP99
0208827840999992001111900004-07310-039300FM-12+040999999V0201801N000512200019N0020001N1+02801+01431101101ADDAA199000091GA1001+999999999GF100991001001999999001001KA1240M+03611MA1999999096481MD1999999+0041REMSYN082AAXX  19004 82784 32995 01801 10280 20143 39648 40110 333 10361 29042 55112 58004;EQDQ01  00002PRCP99
0186827840999992001111912004-07310-039300FM-12+040999999V0203601N001512200019N0200001N1+02921+01711101451ADDAA199000091GF101991011011008001001001KA1240N+02321MA1999999096811MD1999999+0041REMSYN076AAXX  19124 82784 32598 13603 10292 20171 39681 40145 81100 333 20232 58004;EQDQ01  00002PRCP99
0167827840999992001111918004-07310-039300FM-12+040999999V0200901N003112200019N0200001N1+03551+01351100881ADDAA199000091GF102991021021008001001001MA1999999096281MD1999999+0061REMSYN070AAXX  19184 82784 32598 20906 10355 20135 39628 40088 82200 333 58006;EQDQ01  00002PRCP99
0198827840999992001112000004-07310-039300FM-12+040999999V0201801N001010075019N0020001N1+02881+01421101081ADDAA199000091GF106991061021008001001001KA1240M+03651MA1999999096461MD1999999-0021REMSYN088AAXX  20004 82784 32595 61802 10288 20142 39646 40108 86200 333 10365 29039 55115 59002;EQDQ01  00002PRCP99
0196827840999992001112012004-07310-039300FM-12+040999999V0200901N002112200019N0200001N1+02881+01531101401ADDAA199000091GA1001+999999999GF100991001001999999001001KA1240N+02301MA1999999096771MD1999999-0041REMSYN070AAXX  20124 82784 32998 00904 10288 20153 39677 40140 333 20230 59004;EQDQ01  00002PRCP99
0167827840999992001112018004-07310-039300FM-12+040999999V0203601N001512200019N0200001N1+03561+01371100811ADDAA199000091GF102991021021008001001001MA1999999096221MD1999999-0061REMSYN070AAXX  20184 82784 32598 23603 10356 20137 39622 40081 82200 333 59006;EQDQ01  00002PRCP99
0208827840999992001112100004-07310-039300FM-12+040999999V0200901N000512200019N0020001N1+02771+01321101071ADDAA199000091GA1001+999999999GF100991001001999999001001KA1240M+03591MA1999999096451MD1999999-0011REMSYN082AAXX  21004 82784 32995 00901 10277 20132 39645 40107 333 10359 29038 55112 59001;EQDQ01  00002PRCP99
0186827840999992001112112004-07310-039300FM-12+040999999V0200501N003110075019N0200001N1+02781+01671101441ADDAA199000091GF105991051021008001001001KA1240N+02381MA1999999096801MD1999999+0031REMSYN076AAXX  21124 82784 32598 50506 10278 20167 39680 40144 85200 333 20238 58003;EQDQ01  00002PRCP99
0167827840999992001112118004-07310-039300FM-12+040999999V0200901N002112200019N0200001N1+03421+01411100941ADDAA199000091GF103991021021008001011001MA1999999096331MD1999999+0111REMSYN070AAXX  21184 82784 32598 30904 10342 20141 39633 40094 82210 333 58011;EQDQ01  00002PRCP99
0198827840999992001112200004-07310-039300FM-12+040999999V0200901N000510120019N0020001N1+02821+01291101211ADDAA199000091GF106991061021012501001001KA1240M+03511MA1999999096581MD1999999+0131REMSYN088AAXX  22004 82784 32695 60901 10282 20129 39658 40121 86200 333 10351 29013 55103 58013;EQDQ01  00002PRCP99
0167827840999992001112218004-07310-039300FM-12+040999999V0201401N004012200019N0200001N1+03521+01341101841ADDAA199000091GF103991031021008001001001MA1999999096251MD1999999-0081REMSYN070AAXX  22181 82784 32598 31404 10352 20134 39625 40184 83200 333 59008;EQDQ01  00002PRCP99
0214827840999992001112300004-07310-039300FM-12+040999999V0200501N001512200019N0020001N1+03011+01201101051ADDAA199000091GF101991999011008001001001KA1240M+03591MA1999999096441MD1999999-0141REMSYN088AAXX  23004 82784 32595 10503 10301 20120 39644 40105 82100 333 10359 29036 55094 59014;EQDQ01+000022SCOTLCQ02  00002PRCP99
0201827840999992001112312004-07310-039300FM-12+040999999V0203601N002110075019N0200001N1+02671+02001101181ADDAA124002091AY151061AY211061GF105991051021008001001001KA1240N+02301MA1999999096551MD1999999-0271MW1011REMSYN088AAXX  23124 82784 21598 53604 10267 20200 39655 40118 70151 85200 333 20230 59027 60024;
0167827840999992001112318004-07310-039300FM-12+040999999V0200901N002110075019N0200001N1+03391+01531100651ADDAA199000091GF105991051021008001001001MA1999999096051MD1999999-0201REMSYN070AAXX  23184 82784 32598 50904 10339 20153 39605 40065 85200 333 59020;EQDQ01  00002PRCP99
0198827840999992001112400004-07310-039300FM-12+040999999V0209999C000010075019N0020001N1+02721+01651100841ADDAA199000091GF106991061021008001001001KA1240M+03491MA1999999096221MD1999999-0221REMSYN088AAXX  24004 82784 32595 60000 10272 20165 39622 40084 86200 333 10349 29051 55082 59022;EQDQ01  00002PRCP99
0186827840999992001112412004-07310-039300FM-12+040999999V0200501N002610075019N0200001N1+02851+01761101131ADDAA199000091GF106991051021008001061001KA1240N+02401MA1999999096501MD1999999-0051REMSYN076AAXX  24124 82784 32598 60505 10285 20176 39650 40113 85260 333 20240 59005;EQDQ01  00002PRCP99
0167827840999992001112418004-07310-039300FM-12+040999999V0203601N003610450019N0200001N1+03411+01541100611ADDAA199000091GF106991031021008001011001MA1999999096021MD1999999-0031REMSYN070AAXX  24184 82784 32598 63607 10341 20154 39602 40061 83210 333 59003;EQDQ01  00002PRCP99
0198827840999992001112500004-07310-039300FM-12+040999999V0201801N001010120019N0020001N1+02901+01651100901ADDAA199000091GF108991081081008001999999KA1240M+03521MA1999999096291MD1999999+0071REMSYN088AAXX  25004 82784 32595 81802 10290 20165 39629 40090 888// 333 10352 29045 55079 58007;EQDQ01  00002PRCP99
0201827840999992001112512004-07310-039300FM-12+040999999V0202301N001010075019N0200001N1+02501+01941101231ADDAA124006191AY161061AY221061GF108991081051008001999999KA1240N+02281MA1999999096541MD1999999+0091MW1021REMSYN088AAXX  25124 82784 21598 82302 10250 20194 39654 40123 70262 885// 333 20228 58009 60064;
0201827840999992001112612004-07310-039300FM-12+040999999V0200901N003110450019N0200001N1+02871+01811101241ADDAA124001091AY191061AY261061GF105991041021008001011001KA1240N+02361MA1999999096601MD1999999+0011MW1011REMSYN088AAXX  26124 82784 21598 50906 10287 20181 39660 40124 70196 84210 333 20236 58001 60014;
0167827840999992001112618004-07310-039300FM-12+040999999V0200501N002612200019N0200001N1+03391+01621100691ADDAA199000091GF103991021021008001011001MA1999999096091MD1999999-0041REMSYN070AAXX  26184 82784 32598 30505 10339 20162 39609 40069 82210 333 59004;EQDQ01  00002PRCP99
0214827840999992001112700004-07310-039300FM-12+040999999V0201801N002119999999N0020001N1+02741+01731100981ADDAA199000091GF105991999011008001001001KA1240M+03481MA1999999096361MD1999999+0011REMSYN088AAXX  27004 82784 32595 51804 10274 20173 39636 40098 82100 333 10348 29049 55102 58001;EQDQ01+000022SCOTLCQ02  00002PRCP99
0201827840999992001112712004-07310-039300FM-12+040999999V0200901N002110075019N0200001N1+02801+01951101241ADDAA124002091AY161061AY221061GF107991071021008001001001KA1240N+02371MA1999999096601MD1999999+0001MW1021REMSYN088AAXX  27124 82784 21598 70904 10280 20195 39660 40124 70262 87200 333 20237 58000 60024;
0167827840999992001112718004-07310-039300FM-12+040999999V0201801N003610120019N0200001N1+03261+01841100691ADDAA199000091GF107991061081008001071001MA1999999096091MD1999999+0001REMSYN070AAXX  27184 82784 32598 71807 10326 20184 39609 40069 86870 333 58000;EQDQ01  00002PRCP99
0198827840999992001112800004-07310-039300FM-12+040999999V0200501N001510120019N0020001N1+02781+01851101051ADDAA199000091GF107991071081008001001001KA1240M+03321MA1999999096431MD1999999+0071REMSYN088AAXX  28004 82784 32595 70503 10278 20185 39643 40105 87800 333 10332 29057 55057 58007;EQDQ01  00002PRCP99
0186827840999992001112812004-07310-039300FM-12+040999999V0200501N002110075019N0200001N1+02851+01911101221ADDAA199000091GF106991061021008001001001KA1240N+02481MA1999999096541MD1999999-0011REMSYN076AAXX  28124 82784 32598 60504 10285 20191 39654 40122 86200 333 20248 59001;EQDQ01  00002PRCP99
0167827840999992001112818004-07310-039300FM-12+040999999V0200901N003110075019N0200001N1+03461+01731100671ADDAA199000091GF105991051021008001001001MA1999999096081MD1999999-0011REMSYN070AAXX  28184 82784 32598 50906 10346 20173 39608 40067 85200 333 59001;EQDQ01  00002PRCP99
0198827840999992001112900004-07310-039300FM-12+040999999V0201401N000510075019N0020001N1+02921+01641100951ADDAA199000091GF108991081051008001999999KA1240M+03561MA1999999096341MD1999999-0091REMSYN088AAXX  29004 82784 32595 81401 10292 20164 39634 40095 885// 333 10356 29046 55089 59009;EQDQ01  00002PRCP99
0201827840999992001112912004-07310-039300FM-12+040999999V0200501N003110450019N0200001N1+02751+01871101331ADDAA124002091AY161061AY221061GF105991041021008001031001KA1240N+02171MA1999999096701MD1999999+0111MW1021REMSYN088AAXX  29124 82784 21598 50506 10275 20187 39670 40133 70262 84230 333 20217 58011 60024;
0167827840999992001112918004-07310-039300FM-12+040999999V0203601N002610120019N0200001N1+03401+01681100691ADDAA199000091GF106991061021012501001001MA1999999096081MD1999999+0001REMSYN070AAXX  29184 82784 32698 63605 10340 20168 39608 40069 86200 333 58000;EQDQ01  00002PRCP99
0198827840999992001113000004-07310-039300FM-12+040999999V0201401N000512200019N0020001N1+02821+01771100841ADDAA199000091GF102991021001017501051001KA1240M+03521MA1999999096231MD1999999-0111REMSYN088AAXX  30004 82784 32795 21401 10282 20177 39623 40084 82050 333 10352 29050 55099 59011;EQDQ01  00002PRCP99
0186827840999992001113012004-07310-039300FM-12+040999999V0203601N003610075019N0200001N1+02821+01801101251ADDAA199000091GF107991071021008001001001KA1240N+02441MA1999999096621MD1999999-0081REMSYN076AAXX  30124 82784 32598 73607 10282 20180 39662 40125 87200 333 20244 59008;EQDQ01  00002PRCP99
0167827840999992001113018004-07310-039300FM-12+040999999V0203601N003110075019N0200001N1+03291+01491100751ADDAA199000091GF107991051021008001061001MA1999999096151MD1999999+0071REMSYN070AAXX  30184 82784 32598 73606 10329 20149 39615 40075 85260 333 58007;EQDQ01  00002PRCP99
0198827840999992001120100004-07310-039300FM-12+040999999V0203601N001010075019N0020001N1+02621+01701101041ADDAA199000091GF108991081021008001999999KA1240M+03431MA1999999096411MD1999999+0181REMSYN088AAXX  01004 82784 32595 83602 10262 20170 39641 40104 882// 333 10343 29050 55077 58018;EQDQ01  00002PRCP99
0186827840999992001120112004-07310-039300FM-12+040999999V0200501N004610120019N0200001N1+02701+01881101341ADDAA199000091GF108991081081008001999999KA1240N+02421MA1999999096691MD1999999+0071REMSYN076AAXX  01124 82784 32598 80509 10270 20188 39669 40134 888// 333 20242 58007;EQDQ01  00002PRCP99
0167827840999992001120118004-07310-039300FM-12+040999999V0200501N003110450019N0200001N1+03321+01651100821ADDAA199000091GF106991031021008001061061MA1999999096211MD1999999+0061REMSYN070AAXX  01184 82784 32598 60506 10332 20165 39621 40082 83266 333 58006;EQDQ01  00002PRCP99
0208827840999992001120200004-07310-039300FM-12+040999999V0202301N000512200019N0020001N1+02621+01621101021ADDAA199000091GA1001+999999999GF100991001001999999001001KA1240M+03371MA1999999096381MD1999999-0031REMSYN082AAXX  02004 82784 32995 02301 10262 20162 39638 40102 333 10337 29052 55051 59003;EQDQ01  00002PRCP99
0186827840999992001120212004-07310-039300FM-12+040999999V0200501N002610075019N0200001N1+02801+01951101191ADDAA199000091GF108991081021008001999999KA1240N+02501MA1999999096551MD1999999-0141REMSYN076AAXX  02124 82784 32598 80505 10280 20195 39655 40119 882// 333 20250 59014;EQDQ01  00002PRCP99
0167827840999992001120218004-07310-039300FM-12+040999999V0200501N002110150019N0200001N1+03361+01771100621ADDAA199000091GF108991081081012501999999MA1999999096031MD1999999-0181REMSYN070AAXX  02184 82784 32698 80504 10336 20177 39603 40062 888// 333 59018;EQDQ01  00002PRCP99
0198827840999992001120300004-07310-039300FM-12+040999999V0203201N001010075019N0020001N1+03011+01881100911ADDAA199000091GF108991081071008001999999KA1240M+03491MA1999999096301MD1999999-0081REMSYN088AAXX  03004 82784 32595 83202 10301 20188 39630 40091 887// 333 10349 29051 55069 59008;EQDQ01  00002PRCP99
0201827840999992001120312004-07310-039300FM-12+040999999V0200501N002110075019N0200001N1+02661+01971101141ADDAA124022191AY191061AY261061GF107991071021008001001001KA1240N+02261MA1999999096521MD1999999-0031MW1011REMSYN088AAXX  03124 82784 21598 70504 10266 20197 39652 40114 70196 87200 333 20226 59003 60224;
0167827840999992001120318004-07310-039300FM-12+040999999V0200901N002110450019N0200001N1+03351+01401100621ADDAA199000091GF106991031021008001041011MA1999999096021MD1999999-0011REMSYN070AAXX  03184 82784 32598 60904 10335 20140 39602 40062 83241 333 59001;EQDQ01  00002PRCP99
0198827840999992001120400004-07310-039300FM-12+040999999V0201801N001010120019N0020001N1+02631+02071100921ADDAA199000091GF107991071081008001001001KA1240M+03411MA1999999096291MD1999999-0011REMSYN088AAXX  04004 82784 32595 71802 10263 20207 39629 40092 87800 333 10341 29060 55082 59001;EQDQ01  00002PRCP99
0201827840999992001120412004-07310-039300FM-12+040999999V0200501N002112200019N0200001N1+02781+01851101291ADDAA124002091AY161061AY211061GF103991031021008001001001KA1240N+02121MA1999999096651MD1999999+0131MW1011REMSYN088AAXX  04124 82784 21598 30504 10278 20185 39665 40129 70161 83200 333 20212 58013 60024;
0167827840999992001120418004-07310-039300FM-12+040999999V0203601N001012200019N0200001N1+03361+01511100801ADDAA199000091GF103991021021008001011001MA1999999096181MD1999999+0161REMSYN070AAXX  04184 82784 32598 33602 10336 20151 39618 40080 82210 333 58016;EQDQ01  00002PRCP99
0198827840999992001120500004-07310-039300FM-12+040999999V0209999C000012200019N0020001N1+02641+02141101021ADDAA199000091GF101991011011008001001001KA1240M+03481MA1999999096391MD1999999+0101REMSYN088AAXX  05004 82784 32595 10000 10264 20214 39639 40102 81100 333 10348 29060 55112 58010;EQDQ01  00002PRCP99
0201827840999992001120512004-07310-039300FM-12+040999999V0200901N002610450019N0200001N1+02701+01911101321ADDAA124032091AY161061AY211061GF106991041081008001061001KA1240N+02111MA1999999096671MD1999999+0021MW1021REMSYN088AAXX  05124 82784 21598 60905 10270 20191 39667 40132 70261 84860 333 20211 58002 60324;
0167827840999992001120518004-07310-039300FM-12+040999999V0201401N001510450019N0200001N1+03241+01671100831ADDAA199000091GF106991041021008001041001MA1999999096211MD1999999+0031REMSYN070AAXX  05184 82784 32598 61403 10324 20167 39621 40083 84240 333 58003;EQDQ01  00002PRCP99
0198827840999992001120600004-07310-039300FM-12+040999999V0202701N000510120019N0020001N1+02661+02091100981ADDAA199000091GF108991081081008001999999KA1240M+03311MA1999999096351MD1999999-0041REMSYN088AAXX  06004 82784 32595 82701 10266 20209 39635 40098 888// 333 10331 29061 55078 59004;EQDQ01  00002PRCP99
0201827840999992001120612004-07310-039300FM-12+040999999V0200901N003112200019N0200001N1+02731+01821101331ADDAA124000591AY151061AY211061GF102991021021008001001001KA1240N+02221MA1999999096681MD1999999+0011MW1011REMSYN088AAXX  06124 82784 21598 20906 10273 20182 39668 40133 70151 82200 333 20222 58001 69964;
0167827840999992001120618004-07310-039300FM-12+040999999V0200501N003112200019N0200001N1+03371+01511100791ADDAA199000091GF102991021021008001001001MA1999999096181MD1999999-0031REMSYN070AAXX  06184 82784 32598 20506 10337 20151 39618 40079 82200 333 59003;EQDQ01  00002PRCP99
0214827840999992001120700004-07310-039300FM-12+040999999V0209999C000012200019N0020001N1+02661+02021100991ADDAA199000091GF101991999011008001001001KA1240M+03411MA1999999096361MD1999999+0011REMSYN088AAXX  07004 82784 32595 10000 10266 20202 39636 40099 82100 333 10341 29057 55107 58001;EQDQ01+000022SCOTLCQ02  00002PRCP99
0201827840999992001120712004-07310-039300FM-12+040999999V0200501N003112200019N0200001N1+02771+01861101251ADDAA124006191AY161061AY251061GF104991031021008001031001KA1240N+02301MA1999999096611MD1999999-0071MW1021REMSYN088AAXX  07124 82784 21598 40506 10277 20186 39661 40125 70265 83230 333 20230 59007 60064;
0167827840999992001120718004-07310-039300FM-12+040999999V0200501N002610120019N0200001N1+03381+01661100631ADDAA199000091GF106991061021012501001001MA1999999096031MD1999999-0151REMSYN070AAXX  07184 82784 32698 60505 10338 20166 39603 40063 86200 333 59015;EQDQ01  00002PRCP99
0201827840999992001121012004-07310-039300FM-12+040999999V0203601N000510120019N0200001N1+02581+02061101281ADDAA124000191AY151061AY211061GF108991081081008001999999KA1240N+02381MA1999999096631MD1999999-0011MW1021REMSYN088AAXX  10124 82784 21598 83601 10258 20206 39663 40128 70251 888// 333 20238 59001 69924;
0167827840999992001121018004-07310-039300FM-12+040999999V0203601N000510450019N0200001N1+03151+01841100821ADDAA199000091GF105991041021008001061001MA1999999096211MD1999999-0021REMSYN070AAXX  10184 82784 32598 53601 10315 20184 39621 40082 84260 333 59002;EQDQ01  00002PRCP99
0201827840999992001121112004-07310-039300FM-12+040999999V0200501N002110120019N0200001N1+02651+02141101371ADDAA124007191AY191061AY261061GF106991061081008001001001KA1240N+02221MA1999999096701MD1999999+0071MW1021REMSYN088AAXX  11124 82784 21598 60504 10265 20214 39670 40137 70296 86800 333 20222 58007 60074;
0167827840999992001121118004-07310-039300FM-12+040999999V0201401N003110150019N0200001N1+03221+01771100871ADDAA199000091GF106991061081012501001001MA1999999096251MD1999999+0041REMSYN070AAXX  11184 82784 32698 61406 10322 20177 39625 40087 86800 333 58004;EQDQ01  00002PRCP99
0213827840999992001121200004-07310-039300FM-12+040999999V0201801N004610042019N0002001N1+02401+01991101111ADDAA106009991AY121061AY221061GF108991081071004501999999KA1240M+03101MA1999999096461MD1999999-0211MW1631REMSYN100AAXX  12004 82784 21492 81809 10240 20199 39646 40111 76322 887// 333 10310 29068 55088 59021 60101;
0201827840999992001121212004-07310-039300FM-12+040999999V0200501N001510120019N0200001N1+02601+02011101351ADDAA124021191AY161061AY251061GF108991081081008001999999KA1240N+02271MA1999999096681MD1999999-0021MW1021REMSYN088AAXX  12124 82784 21598 80503 10260 20201 39668 40135 70265 888// 333 20227 59002 60214;
0167827840999992001121218004-07310-039300FM-12+040999999V0200501N003112200019N0200001N1+03171+01711100731ADDAA199000091GF103991031021008001001001MA1999999096111MD1999999-0141REMSYN070AAXX  12184 82784 32598 30506 10317 20171 39611 40073 83200 333 59014;EQDQ01  00002PRCP99
0198827840999992001121300004-07310-039300FM-12+040999999V0201401N003112200019N0020001N1+02621+01931100991ADDAA199000091GF104991041021008001001001KA1240M+03261MA1999999096351MD1999999-0111REMSYN088AAXX  13004 82784 32595 41406 10262 20193 39635 40099 84200 333 10326 29061 55081 59011;EQDQ01  00002PRCP99
0186827840999992001121312004-07310-039300FM-12+040999999V0200501N002612200019N0200001N1+02701+01831101221ADDAA199000091GF104991041021008001001001KA1240N+02301MA1999999096571MD1999999-0111REMSYN076AAXX  13124 82784 32598 40505 10270 20183 39657 40122 84200 333 20230 59011;EQDQ01  00002PRCP99
0167827840999992001121318004-07310-039300FM-12+040999999V0200501N002610120019N0200001N1+03231+01771100701ADDAA199000091GF108991081021012501999999MA1999999096091MD1999999-0021REMSYN070AAXX  13184 82784 32698 80505 10323 20177 39609 40070 882// 333 59002;EQDQ01  00002PRCP99
0208827840999992001121400004-07310-039300FM-12+040999999V0209999C000012200019N0020001N1+02641+02001100871ADDAA199000091GA1001+999999999GF100991001001999999001001KA1240M+03311MA1999999096241MD1999999-0111REMSYN082AAXX  14004 82784 32995 00000 10264 20200 39624 40087 333 10331 29059 55092 59011;EQDQ01  00002PRCP99
0186827840999992001121412004-07310-039300FM-12+040999999V0200901N001510075019N0200001N1+02761+01911101281ADDAA199000091GF107991071021008001001001KA1240N+02221MA1999999096641MD1999999+0071REMSYN076AAXX  14124 82784 32598 70903 10276 20191 39664 40128 87200 333 20222 58007;EQDQ01  00002PRCP99
0167827840999992001121418004-07310-039300FM-12+040999999V0200901N001512200019N0200001N1+03361+01771100761ADDAA199000091GF104991041021008001001001MA1999999096161MD1999999+0071REMSYN070AAXX  14184 82784 32598 40903 10336 20177 39616 40076 84200 333 58007;EQDQ01  00002PRCP99
0198827840999992001121500004-07310-039300FM-12+040999999V0201401N001510120019N0020001N1+02681+01991101041ADDAA199000091GF108991081081008001999999KA1240M+03451MA1999999096411MD1999999+0171REMSYN088AAXX  15004 82784 32595 81403 10268 20199 39641 40104 888// 333 10345 29058 55110 58017;EQDQ01  00002PRCP99
0186827840999992001121512004-07310-039300FM-12+040999999V0200901N003112200019N0200001N1+02781+01881101311ADDAA199000091GF104991041021008001001001KA1240N+02341MA1999999096671MD1999999+0031REMSYN076AAXX  15124 82784 32598 40906 10278 20188 39667 40131 84200 333 20234 58003;EQDQ01  00002PRCP99
0167827840999992001121518004-07310-039300FM-12+040999999V0200501N002110075019N0200001N1+03301+01761100801ADDAA199000091GF106991061021008001001001MA1999999096201MD1999999+0041REMSYN070AAXX  15184 82784 32598 60504 10330 20176 39620 40080 86200 333 58004;EQDQ01  00002PRCP99
0208827840999992001121600004-07310-039300FM-12+040999999V0209999C000012200019N0020001N1+02681+01991101111ADDAA199000091GA1001+999999999GF100991001001999999001001KA1240M+03391MA1999999096481MD1999999+0071REMSYN082AAXX  16004 82784 32095 00000 10268 20199 39648 40111 333 10339 29058 55108 58007;EQDQ01  00002PRCP99
0202827840999992001121612004-07310-039300FM-12+040999999V0200501N003119999999N0200001N1+02691+01941101341ADDAA199000091GF105991999011008001001001KA1240N+02441MA1999999096691MD1999999+0021REMSYN076AAXX  16124 82784 32598 50506 10269 20194 39669 40134 82100 333 20244 58002;EQDQ01+000022SCOTLCQ02  00002PRCP99
0167827840999992001121618004-07310-039300FM-12+040999999V0200501N003110120019N0200001N1+03221+01771100821ADDAA199000091GF105991051021012501001001MA1999999096211MD1999999+0011REMSYN070AAXX  16184 82784 32698 50506 10322 20177 39621 40082 85200 333 58001;EQDQ01  00002PRCP99
0193827840999992001121700004-07310-039300FM-12+040999999V0209999C000012200019N0020001N1+02601+01821101041ADDAA199000091GF101991999011008001001001KA1240M+03311MD1999999-0081REMSYN082AAXX  17004 82784 32595 10000 10260 20182 40104 82100 333 10331 29058 55101 59008;EQDQ01+000022SCOTLCQ02  00002PRCP99
0186827840999992001121712004-07310-039300FM-12+040999999V0200501N003112200019N0200001N1+02751+01891101251ADDAA199000091GF103991031021008001001001KA1240N+02121MA1999999096611MD1999999-0081REMSYN076AAXX  17124 82784 32598 30506 10275 20189 39661 40125 83200 333 20212 59008;EQDQ01  00002PRCP99
0167827840999992001121718004-07310-039300FM-12+040999999V0200501N004110075019N0200001N1+03331+01651100791ADDAA199000091GF106991061021008001001001MA1999999096181MD1999999-0031REMSYN070AAXX  17184 82784 32598 60508 10333 20165 39618 40079 86200 333 59003;EQDQ01  00002PRCP99
0208827840999992001121800004-07310-039300FM-12+040999999V0202701N000512200019N0020001N1+02691+01761100991ADDAA199000091GA1001+999999999GF100991001001999999001001KA1240M+03401MA1999999096361MD1999999-0041REMSYN082AAXX  18004 82784 32995 02701 10269 20176 39636 40099 333 10340 29053 55108 59004;EQDQ01  00002PRCP99
0186827840999992001121812004-07310-039300FM-12+040999999V0200501N004612200019N0200001N1+02871+01841101241ADDAA199000091GF101991011011008001001001KA1240N+02121MA1999999096611MD1999999+0001REMSYN076AAXX  18124 82784 32598 10509 10287 20184 39661 40124 81100 333 20212 58000;EQDQ01  00002PRCP99
0161827840999992001121818004-07310-039300FM-12+040999999V0200501N002610075019N0200001N1+03281+99999100841ADDAA199000091GF106991061021008001001001MA1999999096221MD1999999+0041REMSYN064AAXX  18184 82784 32598 60505 10328 39622 40084 86200 333 58004;EQDQ01  00002PRCP99
0240827840999992001121900004-07310-039300FM-12+040999999V0202701N001012200019N0020001N1+02661+01921101101ADDAA199000091GA1001+999999999GF100991001001999999001001KA1240M+03371MA1999999999999MD1999999+0111REMSYN082AAXX  19004 82784 32995 02702 10266 20192 36947 40110 333 10337 29056 55109 58011;EQDQ01+069473APOSP Q02  00002PRCP99Q03 069473APOSP 
0186827840999992001121912004-07310-039300FM-12+040999999V0203601N002112200019N0200001N1+02841+01961101331ADDAA199000091GF104991041021008001001001KA1240N+02161MA1999999096691MD1999999+0081REMSYN076AAXX  19124 82784 32598 43604 10284 20196 39669 40133 84200 333 20216 58008;EQDQ01  00002PRCP99
0167827840999992001121918004-07310-039300FM-12+040999999V0200501N003112200019N0200001N1+03291+01861100981ADDAA199000091GF102991021021012501001001MA1999999096361MD1999999+0141REMSYN070AAXX  19184 82784 32698 20506 10329 20186 39636 40098 82200 333 58014;EQDQ01  00002PRCP99
0208827840999992001122000004-07310-039300FM-12+040999999V0201801N001012200019N0020001N1+02591+01801101161ADDAA199000091GA1001+999999999GF100991001001999999001001KA1240M+03401MA1999999096521MD1999999+0051REMSYN082AAXX  20004 82784 32995 01802 10259 20180 39652 40116 333 10340 29056 55110 58005;EQDQ01  00002PRCP99
0186827840999992001122012004-07310-039300FM-12+040999999V0200501N003110075019N0200001N1+02811+01951101401ADDAA199000091GF107991071021008001001001KA1240N+02261MA1999999096751MD1999999+0061REMSYN076AAXX  20124 82784 32598 70506 10281 20195 39675 40140 87200 333 20226 58006;EQDQ01  00002PRCP99
0167827840999992001122018004-07310-039300FM-12+040999999V0200501N002110075019N0200001N1+03341+01711100871ADDAA199000091GF106991051021008001071001MA1999999096261MD1999999-0101REMSYN070AAXX  20184 82784 32598 60504 10334 20171 39626 40087 85270 333 59010;EQDQ01  00002PRCP99
0208827840999992001122100004-07310-039300FM-12+040999999V0209999C000012200019N0020001N1+02621+01781101051ADDAA199000091GA1001+999999999GF100991001001999999001001KA1240M+03441MA1999999096421MD1999999-0101REMSYN082AAXX  21004 82784 32995 00000 10262 20178 39642 40105 333 10344 29054 55103 59010;EQDQ01  00002PRCP99
0201827840999992001122112004-07310-039300FM-12+040999999V0200901N002610075019N0200001N1+02881+02051101361ADDAA124000591AY151061AY211061GF106991061021008001001001KA1240N+02401MA1999999096721MD1999999-0031MW1021REMSYN088AAXX  21124 82784 21598 60905 10288 20205 39672 40136 70251 86200 333 20240 59003 69964;
0167827840999992001122118004-07310-039300FM-12+040999999V0200501N003110120019N0200001N1+03361+01651100831ADDAA199000091GF106991061021012501001001MA1999999096221MD1999999-0041REMSYN070AAXX  21184 82784 32698 60506 10336 20165 39622 40083 86200 333 59004;EQDQ01  00002PRCP99
0213827840999992001122200004-07310-039300FM-12+040999999V0201801N004610075019N0020001N1+02701+01991101091ADDAA106003091AY161061AY221061GF108991081071008001999999KA1240M+03491MA1999999096471MD1999999+0051MW1021REMSYN100AAXX  22004 82784 21595 81809 10270 20199 39647 40109 70262 887// 333 10349 29057 55099 58005 60031;
0192827840999992001122212004-07310-039300FM-12+040999999V0200501N003619999999N0200001N1+02821+01941101471ADDAA124003091GF106991999021008001001001KA1240N+02441MA1999999096801MD1999999+0081REMSYN082AAXX  22124 82784 22598 60507 10282 20194 39680 40147 84200 333 20244 58008 60034;EQDQ01+000042SCOTLC
0183827840999992001122218004-07310-039300FM-12+040999999V0200501N003119999999N0200001N1+03401+01591100941ADDAA199000091GF106991999021008001001001MA1999999096361MD1999999+0141REMSYN070AAXX  22184 82784 32598 60506 10340 20159 39636 40094 84200 333 58014;EQDQ01+000042SCOTLCQ02  00002PRCP99
0214827840999992001122300004-07310-039300FM-12+040999999V0209999C000019999999N0020001N1+02601+01961101141ADDAA199000091GF107991999021008001001001KA1240M+03451MA1999999096501MD1999999+0031REMSYN088AAXX  23004 82784 32595 70000 10260 20196 39650 40114 84200 333 10345 29057 55073 58003;EQDQ01+000042SCOTLCQ02  00002PRCP99
0186827840999992001122312004-07310-039300FM-12+040999999V0200901N004112200019N0200001N1+02801+01841101521ADDAA199000091GF103991031011008001001001KA1240N+02301MA1999999096861MD1999999+0061REMSYN076AAXX  23124 82784 32598 30908 10280 20184 39686 40152 83100 333 20230 58006;EQDQ01  00002PRCP99
0167827840999992001122318004-07310-039300FM-12+040999999V0200901N002610120019N0200001N1+03461+01601100891ADDAA199000091GF106991061021012501001001MA1999999096291MD1999999-0071REMSYN070AAXX  23184 82784 32698 60905 10346 20160 39629 40089 86200 333 59007;EQDQ01  00002PRCP99
0198827840999992001122400004-07310-039300FM-12+040999999V0201801N001012200019N0020001N1+02721+01621101131ADDAA199000091GF101991011011008001001001KA1240M+03551MA1999999096501MD1999999+0001REMSYN088AAXX  24004 82784 32595 11802 10272 20162 39650 40113 81100 333 10355 29048 55112 58000;EQDQ01  00002PRCP99
0186827840999992001122412004-07310-039300FM-12+040999999V0200501N001510075019N0200001N1+02741+01951101471ADDAA199000091GF106991061021008001001001KA1240N+02421MA1999999096821MD1999999-0041REMSYN076AAXX  24124 82784 32598 60503 10274 20195 39682 40147 86200 333 20242 59004;EQDQ01  00002PRCP99
0167827840999992001122418004-07310-039300FM-12+040999999V0200501N002110450019N0200001N1+03391+01531100981ADDAA199000091GF107991041021008001071001MA1999999096381MD1999999+0091REMSYN070AAXX  24184 82784 32598 70504 10339 20153 39638 40098 84270 333 58009;EQDQ01  00002PRCP99
0198827840999992001122500004-07310-039300FM-12+040999999V0209999C000010075019N0020001N1+02621+01761101171ADDAA199000091GF107991071021008001001001KA1240M+03451MA1999999096531MD1999999+0031REMSYN088AAXX  25004 82784 32595 70000 10262 20176 39653 40117 87200 333 10345 29053 55077 58003;EQDQ01  00002PRCP99
0186827840999992001122512004-07310-039300FM-12+040999999V0200901N002612200019N0200001N1+02861+01841101501ADDAA199000091GF102991021021008001001001KA1240N+02281MA1999999096851MD1999999+0031REMSYN076AAXX  25124 82784 32598 20905 10286 20184 39685 40150 82200 333 20228 58003;EQDQ01  00002PRCP99
0167827840999992001122518004-07310-039300FM-12+040999999V0200901N002612200019N0200001N1+03561+01251100861ADDAA199000091GF101991011011012501001001MA1999999096261MD1999999-0121REMSYN070AAXX  25184 82784 32698 10905 10356 20125 39626 40086 81100 333 59012;EQDQ01  00002PRCP99
0198827840999992001122600004-07310-039300FM-12+040999999V0200501N001010075019N0020001N1+02771+01561101151ADDAA199000091GF108991081021008001999999KA1240M+03651MA1999999096531MD1999999+0001REMSYN088AAXX  26004 82784 32595 80502 10277 20156 39653 40115 882// 333 10365 29044 55114 58000;EQDQ01  00002PRCP99
0186827840999992001122612004-07310-039300FM-12+040999999V0200901N002612200019N0200001N1+02931+01771101401ADDAA199000091GF101991011011008001001001KA1240N+02381MA1999999096761MD1999999-0091REMSYN076AAXX  26124 82784 32598 10905 10293 20177 39676 40140 81100 333 20238 59009;EQDQ01  00002PRCP99
0167827840999992001122618004-07310-039300FM-12+040999999V0200901N002612200019N0200001N1+03501+01321100781ADDAA199000091GF103991031021008001001001MA1999999096181MD1999999-0081REMSYN070AAXX  26184 82784 32598 30905 10350 20132 39618 40078 83200 333 59008;EQDQ01  00002PRCP99
0208827840999992001122700004-07310-039300FM-12+040999999V0201401N003112200019N0020001N1+02901+01931101041ADDAA199000091GA1001+999999999GF100991001001999999001001KA1240M+03581MA1999999096431MD1999999-0101REMSYN082AAXX  27004 82784 32995 01406 10290 20193 39643 40104 333 10358 29047 55112 59010;EQDQ01  00002PRCP99
0186827840999992001122712004-07310-039300FM-12+040999999V0200901N002110450019N0200001N1+02801+02001101361ADDAA199000091GF106991041021008001061001KA1240N+02451MA1999999096731MD1999999-0031REMSYN076AAXX  27124 82784 32598 60904 10280 20200 39673 40136 84260 333 20245 59003;EQDQ01  00002PRCP99
0167827840999992001122718004-07310-039300FM-12+040999999V0200501N002110075019N0200001N1+03531+01601100831ADDAA199000091GF106991051021008001011001MA1999999096241MD1999999+0061REMSYN070AAXX  27184 82784 32598 60504 10353 20160 39624 40083 85210 333 58006;EQDQ01  00002PRCP99
0198827840999992001122800004-07310-039300FM-12+040999999V0209999C000010120019N0020001N1+02791+01791101101ADDAA199000091GF108991081081008001999999KA1240M+03571MA1999999096471MD1999999+0041REMSYN088AAXX  28004 82784 32595 80000 10279 20179 39647 40110 888// 333 10357 29051 55083 58004;EQDQ01  00002PRCP99
0201827840999992001122812004-07310-039300FM-12+040999999V0203601N000510450019N0200001N1+02651+02091101531ADDAA124007191AY161061AY221061GF106991021021008001051001KA1240N+02271MA1999999096871MD1999999+0141MW1021REMSYN088AAXX  28124 82784 21598 63601 10265 20209 39687 40153 70262 82250 333 20227 58014 60074;
0167827840999992001122818004-07310-039300FM-12+040999999V0203601N002110450019N0200001N1+03121+01921101061ADDAA199000091GF107991031081008001021001MA1999999096431MD1999999+0191REMSYN070AAXX  28184 82784 32598 73604 10312 20192 39643 40106 83820 333 58019;EQDQ01  00002PRCP99
0198827840999992001122900004-07310-039300FM-12+040999999V0200501N000510075019N0020001N1+02691+01991101231ADDAA199000091GF106991061021008001001001KA1240M+03291MA1999999096581MD1999999+0111REMSYN088AAXX  29004 82784 32595 60501 10269 20199 39658 40123 86200 333 10329 29063 55042 58011;EQDQ01  00002PRCP99
0201827840999992001122912004-07310-039300FM-12+040999999V0200501N001510450019N0040001N1+02641+02161101431ADDAA124013091AY191061AY261061GF107991041081008001051001KA1240N+02121MA1999999096771MD1999999-0101MW1021REMSYN088AAXX  29124 82784 21596 70503 10264 20216 39677 40143 70296 84850 333 20212 59010 60134;
0167827840999992001122918004-07310-039300FM-12+040999999V0202301N001510450019N0200001N1+03111+02181101021ADDAA199000091GF106991031021008001061001MA1999999096381MD1999999-0051REMSYN070AAXX  29184 82784 32598 62303 10311 20218 39638 40102 83260 333 59005;EQDQ01  00002PRCP99
0198827840999992001123000004-07310-039300FM-12+040999999V0203601N000512200019N0010001N1+02561+02311101151ADDAA199000091GF101991011081008001001001KA1240M+03161MA1999999096501MD1999999-0081REMSYN088AAXX  30004 82784 32594 13601 10256 20231 39650 40115 81800 333 10316 29016 55031 59008;EQDQ01  00002PRCP99
0220827840999992001123012004-07310-039300FM-12+040999999V0200901N001510075019N0200001N1+02521+02231101291ADDAA124024991AY191061AY261061GF108991999021008001001001KA1240N+02111MA1999999096631MD1999999-0141MW1021REMSYN088AAXX  30124 82784 21598 80903 10252 20223 39663 40129 70296 87200 333 20211 59014 60254;EQDQ01+000072SCOTLC
0183827840999992001123018004-07310-039300FM-12+040999999V0203601N002110120019N0200001N1+02951+02081100901ADDAA199000091GF108991999021012501001001MA1999999096261MD1999999-0121REMSYN070AAXX  30184 82784 32698 83604 10295 20208 39626 40090 86200 333 59012;EQDQ01+000062SCOTLCQ02  00002PRCP99
0214827840999992001123100004-07310-039300FM-12+040999999V0201801N001519999999N0020001N1+02521+02311101081ADDAA199000091GF108991999021008001001001KA1240M+03011MA1999999096431MD1999999-0071REMSYN088AAXX  31004 82784 32595 81803 10252 20231 39643 40108 83200 333 10301 29080 55018 59007;EQDQ01+000032SCOTLCQ02  00002PRCP99
0201827840999992001123112004-07310-039300FM-12+040999999V0202301N002110042019N0010001N1+02121+02041101491ADDAA124063091AY191061AY261061GF108991081071004501999999KA1240N+02021MA1999999096801MD1999999+0171MW1611REMSYN088AAXX  31124 82784 21494 82304 10212 20204 39680 40149 76196 887// 333 20202 58017 60634;
