0186829000999992001010100004-08040-034920FM-12+000799999V0200901N003112200019N0020001N1+02601+02121101351ADDAA199000091GF103991031011008001001001KA1240M+02941MA1999999101261MD1999999-0021REMSYN076AAXX  01004 82900 32595 30906 10260 20212 30126 40135 83100 333 10294 59002;EQDQ01  00002PRCP99
0220829000999992001010112004-08040-034920FM-12+000799999V0201401N002119999999N0100001N1+02871+02181101411ADDAA124000591AY161061AY221061GF105991999021008001001001KA1240N+02161MA1999999101321MD1999999-0031MW1021REMSYN088AAXX  01124 82900 21597 51404 10287 20218 30132 40141 70262 84200 333 20216 59003 69954;EQDQ01+000042SCOTLC
0167829000999992001010118004-08040-034920FM-12+000799999V0201401N003110075019N0020001N1+02821+02201101241ADDAA199000091GF106991061021008001001001MA1999999101151MD1999999-0031REMSYN070AAXX  01184 82900 32595 61406 10282 20220 30115 40124 86200 333 59003;EQDQ01  00002PRCP99
0186829000999992001010200004-08040-034920FM-12+000799999V0201401N003112200019N0020001N1+02631+02121101461ADDAA199000091GF104991041021008001001001KA1240M+02981MA1999999101371MD1999999+0111REMSYN076AAXX  02004 82900 32595 41406 10263 20212 30137 40146 84200 333 10298 58011;EQDQ01  00002PRCP99
0186829000999992001010212004-08040-034920FM-12+000799999V0200901N003110075019N0100001N1+02741+02211101431ADDAA199000091GF106991061021008001001001KA1240N+02041MA1999999101341MD1999999+0021REMSYN076AAXX  02124 82900 32597 60906 10274 20221 30134 40143 86200 333 20204 58002;EQDQ01  00002PRCP99
0167829000999992001010218004-08040-034920FM-12+000799999V0201401N003110075019N0100001N1+02921+02121101321ADDAA199000091GF105991051021008001001001MA1999999101231MD1999999+0081REMSYN070AAXX  02184 82900 32597 51406 10292 20212 30123 40132 85200 333 58008;EQDQ01  00002PRCP99
0186829000999992001010300004-08040-034920FM-12+000799999V0201801N002610075019N0020001N1+02671+02201101351ADDAA199000091GF106991061071008001001001KA1240M+03201MA1999999101231MD1999999-0141REMSYN076AAXX  03004 82900 32595 61805 10267 20220 30123 40135 86700 333 10320 59014;EQDQ01  00002PRCP99
0186829000999992001010312004-08040-034920FM-12+000799999V0201401N002110075019N0100001N1+02781+02161101411ADDAA199000091GF108991081041008001001001KA1240N+02101MA1999999101321MD1999999-0021REMSYN076AAXX  03124 82900 32597 81404 10278 20216 30132 40141 88400 333 20210 59002;EQDQ01  00002PRCP99
0167829000999992001010318004-08040-034920FM-12+000799999V0201401N001510075019N0100001N1+02851+02121101251ADDAA199000091GF106991061021008001001001MA1999999101161MD1999999+0071REMSYN070AAXX  03184 82900 32597 61403 10285 20212 30116 40125 86200 333 58007;EQDQ01  00002PRCP99
0186829000999992001010400004-08040-034920FM-12+000799999V0201401N003110075019N0020001N1+02681+02351101331ADDAA199000091GF107991071071008001001001KA1240M+02951MA1999999101241MD1999999+0011REMSYN076AAXX  04004 82900 32595 71406 10268 20235 30124 40133 87700 333 10295 58001;EQDQ01  00002PRCP99
0220829000999992001010412004-08040-034920FM-12+000799999V0201401N003619999999N0100001N1+02771+02211101411ADDAA124006191AY161061AY221061GF106991999021008001001001KA1240N+02401MA1999999101321MD1999999+0001MW1021REMSYN088AAXX  04124 82900 21597 61407 10277 20221 30132 40141 70262 84200 333 20240 58000 60064;EQDQ01+000042SCOTLC
0167829000999992001010418004-08040-034920FM-12+000799999V0201401N001510075019N0100001N1+02791+02181101231ADDAA199000091GF106991061021008001001001MA1999999101141MD1999999-0021REMSYN070AAXX  04184 82900 32597 61403 10279 20218 30114 40123 86200 333 59002;EQDQ01  00002PRCP99
0186829000999992001010500004-08040-034920FM-12+000799999V0200901N001510075019N0020001N1+02611+02251101431ADDAA199000091GF105991051021008001001001KA1240M+02891MA1999999101341MD1999999+0101REMSYN076AAXX  05004 82900 32595 50903 10261 20225 30134 40143 85200 333 10289 58010;EQDQ01  00002PRCP99
0182829000999992001010518004-08040-034920FM-12+000799999V0201401N003610450019N0100001N1+02791+02311101221ADDAA106010991AY161061AY221061GF106991041021008001031001MA1999999101131MD1999999-0011MW1021REMSYN082AAXX  05184 82900 21597 61407 10279 20231 30113 40122 70262 84230 333 59001 60111;
0186829000999992001010600004-08040-034920FM-12+000799999V0201401N001510075019N0020001N1+02641+02311101391ADDAA199000091GF105991051021008001001001KA1240M+02901MA1999999101301MD1999999-0041REMSYN076AAXX  06004 82900 32595 51403 10264 20231 30130 40139 85200 333 10290 59004;EQDQ01  00002PRCP99
0173829000999992001010612004-08040-034920FM-12+000799999V0201401N004110075019N0100001N1+02701+02371101361ADDAA124010991GF107991071041008001001001KA1240N+02421MA1999999101271MD1999999+0101REMSYN082AAXX  06124 82900 22597 71408 10270 20237 30127 40136 87400 333 20242 58010 60114;
0183829000999992001010618004-08040-034920FM-12+000799999V0201401N004610075019N0100001N1+02801+02271101121ADDAA199000091GF107991999031008001001001MA1999999101031MD1999999-0101REMSYN070AAXX  06184 82900 32597 71409 10280 20227 30103 40112 85300 333 59010;EQDQ01+000052SCOTLCQ02  00002PRCP99
0186829000999992001010700004-08040-034920FM-12+000799999V0201401N003110075019N0020001N1+02661+02181101381ADDAA199000091GF106991061021008001001001KA1240M+02931MA1999999101291MD1999999-0011REMSYN076AAXX  07004 82900 32595 61406 10266 20218 30129 40138 86200 333 10293 59001;EQDQ01  00002PRCP99
0186829000999992001010712004-08040-034920FM-12+000799999V0201401N003110075019N0100001N1+02821+02271101341ADDAA199000091GF106991061021008001001001KA1240N+02381MA1999999101251MD1999999-0021REMSYN076AAXX  07124 82900 32597 61406 10282 20227 30125 40134 86200 333 20238 59002;EQDQ01  00002PRCP99
0167829000999992001010718004-08040-034920FM-12+000799999V0201401N003610075019N0100001N1+02821+02151101091ADDAA199000091GF105991051021008001001001MA1999999101001MD1999999-0031REMSYN070AAXX  07184 82900 32597 51407 10282 20215 30100 40109 85200 333 59003;EQDQ01  00002PRCP99
0186829000999992001010800004-08040-034920FM-12+000799999V0201401N003112200019N0020001N1+02631+02101101281ADDAA199000091GF103991031011008001001001KA1240M+02971MA1999999101191MD1999999-0101REMSYN076AAXX  08004 82900 32595 31406 10263 20210 30119 40128 83100 333 10297 59010;EQDQ01  00002PRCP99
0186829000999992001010812004-08040-034920FM-12+000799999V0201801N007212200019N0100001N1+02851+01961101351ADDAA199000091GF104991041021008001001001KA1240N+02101MA1999999101261MD1999999+0011REMSYN076AAXX  08124 82900 32597 41814 10285 20196 30126 40135 84200 333 20210 58001;EQDQ01  00002PRCP99
0167829000999992001010818004-08040-034920FM-12+000799999V0201401N002112200019N0100001N1+02871+01951101071ADDAA199000091GF102991021021008001021001MA1999999100981MD1999999-0021REMSYN070AAXX  08184 82900 32597 21404 10287 20195 30098 40107 82220 333 59002;EQDQ01  00002PRCP99
0186829000999992001010912004-08040-034920FM-12+000799999V0201401N003110075019N0100001N1+02781+02251101391ADDAA199000091GF106991061021008001001001KA1240N+02051MA1999999101301MD1999999+0041REMSYN076AAXX  09124 82900 32597 61406 10278 20225 30130 40139 86200 333 20205 58004;EQDQ01  00002PRCP99
0167829000999992001010918004-08040-034920FM-12+000799999V0201401N004610075019N0100001N1+02841+02221101061ADDAA199000091GF106991061021008001001001MA1999999100971MD1999999-0011REMSYN070AAXX  09184 82900 32597 61409 10284 20222 30097 40106 86200 333 59001;EQDQ01  00002PRCP99
0201829000999992001011000004-08040-034920FM-12+000799999V0201401N001510075019N0020001N1+02541+02331101321ADDAA106001091AY151061AY221061GF107991071071008001001001KA1240M+02981MA1999999101231MD1999999+0021MW1011REMSYN088AAXX  10004 82900 21595 71403 10254 20233 30123 40132 70152 87700 333 10298 58002 69991;
0201829000999992001011012004-08040-034920FM-12+000799999V0201801N003110075019N0100001N1+02901+02221101331ADDAA124002091AY161061AY231061GF106991061021008001001001KA1240N+02441MA1999999101241MD1999999-0061MW1031REMSYN088AAXX  10124 82900 21597 61806 10290 20222 30124 40133 70363 86200 333 20244 59006 60024;
0167829000999992001011018004-08040-034920FM-12+000799999V0201801N003110075019N0100001N1+02951+02161101251ADDAA199000091GF105991051021008001001001MA1999999101161MD1999999+0191REMSYN070AAXX  10184 82900 32597 51806 10295 20216 30116 40125 85200 333 58019;EQDQ01  00002PRCP99
0186829000999992001011100004-08040-034920FM-12+000799999V0201401N003112200019N0020001N1+02671+02091101301ADDAA199000091GF104991041021008001001001KA1240M+02991MA1999999101211MD1999999-0021REMSYN076AAXX  11004 82900 32595 41406 10267 20209 30121 40130 84200 333 10299 59002;EQDQ01  00002PRCP99
0201829000999992001011112004-08040-034920FM-12+000799999V0201801N001510075019N0100001N1+02711+02281101381ADDAA124004191AY161061AY241061GF106991061021008001001001KA1240N+02281MA1999999101291MD1999999+0051MW1031REMSYN088AAXX  11124 82900 21597 61803 10271 20228 30129 40138 70364 86200 333 20228 58005 60044;
0182829000999992001011118004-08040-034920FM-12+000799999V0201401N002110075019N0100001N1+02751+02321101271ADDAA106002091AY161061AY231061GF106991061021008001001001MA1999999101181MD1999999+0021MW1021REMSYN082AAXX  11184 82900 21597 61404 10275 20232 30118 40127 70263 86200 333 58002 60021;
0201829000999992001011200004-08040-034920FM-12+000799999V0201401N001510075019N0020001N1+02621+02371101351ADDAA106014091AY161061AY261061GF107991071071008001999999KA1240M+02861MA1999999101261MD1999999+0051MW1031REMSYN088AAXX  12004 82900 21595 71403 10262 20237 30126 40135 70366 877// 333 10286 58005 60141;
0201829000999992001011212004-08040-034920FM-12+000799999V0201401N004610075019N0100001N1+02821+02291101391ADDAA124016091AY161061AY261061GF108991061041008001031001KA1240N+02501MA1999999101301MD1999999+0011MW1021REMSYN088AAXX  12124 82900 21597 81409 10282 20229 30130 40139 70266 86430 333 20250 58001 60164;
0167829000999992001011218004-08040-034920FM-12+000799999V0201401N004610075019N0100001N1+02761+02281101171ADDAA199000091GF108991081051008001999999MA1999999101081MD1999999-0011REMSYN070AAXX  12184 82900 32597 81409 10276 20228 30108 40117 885// 333 59001;EQDQ01  00002PRCP99
0176829000999992001011300004-08040-034920FM-12+000799999V0201401N003110075019N0020001N1+02631+02291101321ADDAY151061AY221061GF107991071021008001001001MA1999999101231MD1999999-0031MW1011REMSYN087AAXX  13004 82900 21595 71406 10263 20229 30123 40132 70152 87200 333 1020 59003 69911;
0201829000999992001011312004-08040-034920FM-12+000799999V0201801N005110450019N0100001N1+02841+02261101391ADDAA124001091AY161061AY221061GF106991041021008001041001KA1240N+02871MA1999999101301MD1999999+0001MW1021REMSYN088AAXX  13124 82900 21597 61810 10284 20226 30130 40139 70262 84240 333 20287 58000 60014;
0167829000999992001011318004-08040-034920FM-12+000799999V0201801N005110450019N0100001N1+02851+02221101231ADDAA199000091GF106991041021008001041001MA1999999101141MD1999999+0061REMSYN070AAXX  13184 82900 32597 61810 10285 20222 30114 40123 84240 333 58006;EQDQ01  00002PRCP99
0186829000999992001011400004-08040-034920FM-12+000799999V0201801N004612200019N0020001N1+02651+02181101421ADDAA199000091GF104991041021008001001001KA1240M+02881MA1999999101331MD1999999+0101REMSYN076AAXX  14004 82900 32595 41809 10265 20218 30133 40142 84200 333 10288 58010;EQDQ01  00002PRCP99
0201829000999992001011412004-08040-034920FM-12+000799999V0201401N006210075019N0100001N1+02841+02201101431ADDAA124002091AY161061AY221061GF106991061021008001001001KA1240N+02401MA1999999101341MD1999999+0041MW1031REMSYN088AAXX  14124 82900 21597 61412 10284 20220 30134 40143 70362 86200 333 20240 58004 60024;
0201829000999992001011418004-08040-034920FM-12+000799999V0201801N002619999999N0100001N1+02921+02271101201ADDAA106001091AY161061AY221061GF105991999021008001001001MA1999999101111MD1999999-0031MW1011REMSYN082AAXX  14184 82900 21597 51805 10292 20227 30111 40120 70162 84200 333 59003 60011;EQDQ01+000042SCOTLC
0186829000999992001011500004-08040-034920FM-12+000799999V0201801N003112200019N0020001N1+02661+02111101381ADDAA199000091GF103991031011008001001001KA1240M+02981MA1999999101291MD1999999-0041REMSYN076AAXX  15004 82900 32595 31806 10266 20211 30129 40138 83100 333 10298 59004;EQDQ01  00002PRCP99
0173829000999992001011512004-08040-034920FM-12+000799999V0201401N004610075019N0100001N1+02841+02221101351ADDAA124001091GF106991061021008001001001KA1240N+02521MA1999999101261MD1999999-0081REMSYN082AAXX  15124 82900 22597 61409 10284 20222 30126 40135 86200 333 20252 59008 60014;
0167829000999992001011518004-08040-034920FM-12+000799999V0201401N005110075019N0100001N1+02861+02211101181ADDAA199000091GF106991061021008001001001MA1999999101091MD1999999-0021REMSYN070AAXX  15184 82900 32597 61410 10286 20221 30109 40118 86200 333 59002;EQDQ01  00002PRCP99
0186829000999992001011600004-08040-034920FM-12+000799999V0201801N003112200019N0020001N1+02641+02141101391ADDAA199000091GF102991021011008001001001KA1240M+02971MA1999999101301MD1999999+0011REMSYN076AAXX  16004 82900 32595 21806 10264 20214 30130 40139 82100 333 10297 58001;EQDQ01  00002PRCP99
0186829000999992001011612004-08040-034920FM-12+000799999V0201401N005110075019N0100001N1+02871+02231101401ADDAA199000091GF105991051021008001001001KA1240N+02341MA1999999101311MD1999999+0051REMSYN076AAXX  16124 82900 32597 51410 10287 20223 30131 40140 85200 333 20234 58005;EQDQ01  00002PRCP99
0167829000999992001011618004-08040-034920FM-12+000799999V0201401N003110075019N0100001N1+02901+02151101231ADDAA199000091GF105991051021008001001001MA1999999101141MD1999999+0051REMSYN070AAXX  16184 82900 32597 51406 10290 20215 30114 40123 85200 333 58005;EQDQ01  00002PRCP99
0202829000999992001011700004-08040-034920FM-12+000799999V0201401N001512200019N0020001N1+02601+02121101401ADDAA199000091GF102991999011008001001001KA1240M+02971MA1999999101311MD1999999+0011REMSYN076AAXX  17004 82900 32595 21403 10260 20212 30131 40140 83100 333 10297 58001;EQDQ01+000032SCOTLCQ02  00002PRCP99
0188829000999992001011712004-08040-034920FM-12+000799999V0201801N005110001519N0100001N1+02851+02141101321ADDAA199000091GA1051+000159089GF106991061021008001001001KA1240N+02101MA1999999101231REMSYN076AAXX  17124 82900 32597 61810 10285 20214 30123 40132 86200 333 20210 85200;EQDQ01  00002PRCP99
0167829000999992001011718004-08040-034920FM-12+000799999V0201801N005110075019N0100001N1+02881+02051101191ADDAA199000091GF105991051021008001001001MA1999999101101MD1999999-0041REMSYN070AAXX  17184 82900 32597 51810 10288 20205 30110 40119 85200 333 59004;EQDQ01  00002PRCP99
0186829000999992001011800004-08040-034920FM-12+000799999V0201801N003112200019N0020001N1+02641+02071101391ADDAA199000091GF102991021011008001001001KA1240M+03001MA1999999101301MD1999999-0011REMSYN076AAXX  18004 82900 32595 21806 10264 20207 30130 40139 82100 333 10300 59001;EQDQ01  00002PRCP99
0201829000999992001011812004-08040-034920FM-12+000799999V0201401N003610075019N0100001N1+02821+02221101411ADDAA124000591AY161061AY221061GF105991051021008001001001KA1240N+02441MA1999999101321MD1999999+0091MW1021REMSYN088AAXX  18124 82900 21597 51407 10282 20222 30132 40141 70262 85200 333 20244 58009 69954;
0182829000999992001011818004-08040-034920FM-12+000799999V0201401N003110450019N0100001N1+02841+02171101311ADDAA106000591AY161061AY221061GF106991041021008001031001MA1999999101121MD1999999+0021MW1021REMSYN082AAXX  18184 82900 21597 61406 10284 20217 30112 40131 70262 84230 333 58002 69951;
0186829000999992001011900004-08040-034920FM-12+000799999V0201401N001512200019N0020001N1+02641+02231101471ADDAA199000091GF103991031011008001001001KA1240M+02981MA1999999101381MD1999999+0081REMSYN076AAXX  19004 82900 32595 31403 10264 20223 30138 40147 83100 333 10298 58008;EQDQ01  00002PRCP99
0201829000999992001011912004-08040-034920FM-12+000799999V0201401N004110075019N0100001N1+02881+02251101511ADDAA124010991AY161061AY221061GF106991061021008001001001KA1240N+02201MA1999999101421MD1999999+0101MW1021REMSYN088AAXX  19124 82900 21597 61408 10288 20225 30142 40151 70262 86200 333 20220 58010 60114;
0167829000999992001011918004-08040-034920FM-12+000799999V0201401N005110075019N0100001N1+02821+02241101301ADDAA199000091GF106991061021008001001001MA1999999101211MD1999999+0091REMSYN070AAXX  19184 82900 32597 61410 10282 20224 30121 40130 86200 333 58009;EQDQ01  00002PRCP99
0202829000999992001012000004-08040-034920FM-12+000799999V0201401N003112200019N0020001N1+02641+02251101491ADDAA199000091GF104991999021008001001001KA1240M+02951MA1999999101401MD1999999+0021REMSYN076AAXX  20004 82900 32595 41406 10264 20225 30140 40149 85200 333 10295 58002;EQDQ01+000052SCOTLCQ02  00002PRCP99
0186829000999992001012012004-08040-034920FM-12+000799999V0201401N003110075019N0100001N1+02871+02161101531ADDAA199000091GF105991051021008001001001KA1240N+02181MA1999999101441MD1999999+0021REMSYN076AAXX  20124 82900 32597 51406 10287 20216 30144 40153 85200 333 20218 58002;EQDQ01  00002PRCP99
0167829000999992001012018004-08040-034920FM-12+000799999V0201401N003110075019N0100001N1+02851+02091101301ADDAA199000091GF105991051021008001001001MA1999999101211MD1999999+0001REMSYN070AAXX  20184 82900 32597 51406 10285 20209 30121 40130 85200 333 58000;EQDQ01  00002PRCP99
0186829000999992001012100004-08040-034920FM-12+000799999V0201401N001512200019N0020001N1+02591+02151101361ADDAA199000091GF104991041021008001001001KA1240M+02971MA1999999101271MD1999999-0131REMSYN076AAXX  21004 82900 32595 41403 10259 20215 30127 40136 84200 333 10297 59013;EQDQ01  00002PRCP99
0186829000999992001012112004-08040-034920FM-12+000799999V0201401N001510075019N0100001N1+02781+02161101501ADDAA199000091GF105991051021008001001001KA1240N+02001MA1999999101411MD1999999-0031REMSYN076AAXX  21124 82900 32597 51403 10278 20216 30141 40150 85200 333 20200 59003;EQDQ01  00002PRCP99
0183829000999992001012118004-08040-034920FM-12+000799999V0201401N003112200019N0100001N1+02881+02001101231ADDAA199000091GF103991999011008001001001MA1999999101141MD1999999-0071REMSYN070AAXX  21184 82900 32597 31406 10288 20200 30114 40123 82100 333 59007;EQDQ01+000022SCOTLCQ02  00002PRCP99
0186829000999992001012200004-08040-034920FM-12+000799999V0201401N003112200019N0020001N1+02621+02141101401ADDAA199000091GF104991041011008001001001KA1240M+02981MA1999999101311MD1999999+0041REMSYN076AAXX  22004 82900 32595 41406 10262 20214 30131 40140 84100 333 10298 58004;EQDQ01  00002PRCP99
0186829000999992001012212004-08040-034920FM-12+000799999V0201401N003610075019N0100001N1+02871+02081101491ADDAA199000091GF106991061021008001051001KA1240N+02041MA1999999101401MD1999999-0011REMSYN076AAXX  22124 82900 32597 61407 10287 20208 30140 40149 86250 333 20204 59001;EQDQ01  00002PRCP99
0110829000999992001012218004-08040-034920FM-12+000799999V0201401N003619999999N0100001N1+02881+02051999999ADDAA199000091GF105991999999008001999999REMSYN042AAXX  22184 82900 32597 51407 10288 20205;EQDQ01  00002PRCP99
0186829000999992001012300004-08040-034920FM-12+000799999V0201401N003112200019N0020001N1+02641+02181101451ADDAA199000091GF104991041021008001001001KA1240M+03011MA1999999101361MD1999999+0051REMSYN076AAXX  23004 82900 32595 41406 10264 20218 30136 40145 84200 333 10301 58005;EQDQ01  00002PRCP99
0186829000999992001012312004-08040-034920FM-12+000799999V0201401N003110075019N0100001N1+02821+02291101421ADDAA199000091GF106991061021008001001001KA1240N+02201MA1999999101331MD1999999-0071REMSYN076AAXX  23124 82900 32597 61406 10282 20229 30133 40142 86200 333 20220 59007;EQDQ01  00002PRCP99
0167829000999992001012318004-08040-034920FM-12+000799999V0201801N003110075019N0100001N1+02941+02191101251ADDAA199000091GF105991051021008001001001MA1999999101161MD1999999+0041REMSYN070AAXX  23184 82900 32597 51806 10294 20219 30116 40125 85200 333 58004;EQDQ01  00002PRCP99
0186829000999992001012400004-08040-034920FM-12+000799999V0201401N003112200019N0020001N1+02701+02241101411ADDAA199000091GF103991031011008001001001KA1240M+03021MA1999999101321MD1999999-0041REMSYN076AAXX  24004 82900 32595 31406 10270 20224 30132 40141 83100 333 10302 59004;EQDQ01  00002PRCP99
0186829000999992001012412004-08040-034920FM-12+000799999V0201401N003610075019N0100001N1+02901+02201101511ADDAA199000091GF106991061021008001001001KA1240N+02201MA1999999101421MD1999999+0091REMSYN076AAXX  24124 82900 32597 61407 10290 20220 30142 40151 86200 333 20220 58009;EQDQ01  00002PRCP99
0167829000999992001012418004-08040-034920FM-12+000799999V0201401N004610075019N0100001N1+02821+02151101301ADDAA199000091GF106991061021008001001001MA1999999101211MD1999999+0051REMSYN070AAXX  24184 82900 32597 61409 10282 20215 30121 40130 86200 333 58005;EQDQ01  00002PRCP99
0186829000999992001012500004-08040-034920FM-12+000799999V0201401N003110075019N0020001N1+02651+02141101491ADDAA199000091GF106991061021008001001001KA1240M+03051MA1999999101401MD1999999+0081REMSYN076AAXX  25004 82900 32595 61406 10265 20214 30140 40149 86200 333 10305 58008;EQDQ01  00002PRCP99
0186829000999992001012512004-08040-034920FM-12+000799999V0201401N003110075019N0100001N1+02881+01971101431ADDAA199000091GF105991051021008001001001KA1240N+02141MA1999999101341MD1999999-0081REMSYN076AAXX  25124 82900 32597 51406 10288 20197 30134 40143 85200 333 20214 59008;EQDQ01  00002PRCP99
0167829000999992001012518004-08040-034920FM-12+000799999V0201401N003110075019N0100001N1+02871+02191101161ADDAA199000091GF105991051021008001001001MA1999999101071MD1999999-0141REMSYN070AAXX  25184 82900 32597 51406 10287 20219 30107 40116 85200 333 59014;EQDQ01  00002PRCP99
0186829000999992001012600004-08040-034920FM-12+000799999V0200901N003112200019N0020001N1+02641+02121101461ADDAA199000091GF102991021021008001001001KA1240M+03021MA1999999101371MD1999999-0031REMSYN076AAXX  26004 82900 32595 20906 10264 20212 30137 40146 82200 333 10302 59003;EQDQ01  00002PRCP99
0186829000999992001012612004-08040-034920FM-12+000799999V0201401N001510075019N0100001N1+02901+02101101431ADDAA199000091GF105991051021008001001001KA1240N+02171MA1999999101341MD1999999+0001REMSYN076AAXX  26124 82900 32597 51403 10290 20210 30134 40143 85200 333 20217 58000;EQDQ01  00002PRCP99
0167829000999992001012618004-08040-034920FM-12+000799999V0200901N008210075019N0100001N1+02841+02121101271ADDAA199000091GF105991051021008001001001MA1999999101181MD1999999+0111REMSYN070AAXX  26184 82900 32597 50916 10284 20212 30118 40127 85200 333 58011;EQDQ01  00002PRCP99
0186829000999992001012700004-08040-034920FM-12+000799999V0201401N001512200019N0020001N1+02651+02181101391ADDAA199000091GF103991031021008001001001KA1240M+03001MA1999999101301MD1999999-0071REMSYN076AAXX  27004 82900 32595 31403 10265 20218 30130 40139 83200 333 10300 59007;EQDQ01  00002PRCP99
0186829000999992001012712004-08040-034920FM-12+000799999V0201401N001510075019N0100001N1+02821+02201101441ADDAA199000091GF106991061031008001001001KA1240N+02201MA1999999101351MD1999999+0011REMSYN076AAXX  27124 82900 32597 61403 10282 20220 30135 40144 86300 333 20220 58001;EQDQ01  00002PRCP99
0167829000999992001012718004-08040-034920FM-12+000799999V0201401N003112200019N0100001N1+02921+02171101201ADDAA199000091GF101991011011008001001001MA1999999101111MD1999999+0071REMSYN070AAXX  27184 82900 32597 11406 10292 20217 30111 40120 81100 333 58007;EQDQ01  00002PRCP99
0186829000999992001012800004-08040-034920FM-12+000799999V0200901N003110075019N0020001N1+02681+02241101411ADDAA199000091GF106991061021008001001001KA1240M+03041MA1999999101321MD1999999+0021REMSYN076AAXX  28004 82900 32595 60906 10268 20224 30132 40141 86200 333 10304 58002;EQDQ01  00002PRCP99
0186829000999992001012812004-08040-034920FM-12+000799999V0201401N003610075019N0100001N1+02941+02191101391ADDAA199000091GF105991051021008001001001KA1240N+02501MA1999999101301MD1999999-0051REMSYN076AAXX  28124 82900 32597 51407 10294 20219 30130 40139 85200 333 20250 59005;EQDQ01  00002PRCP99
0167829000999992001012818004-08040-034920FM-12+000799999V0201401N003110075019N0100001N1+02811+02271101251ADDAA199000091GF106991061021008001001001MA1999999101161MD1999999+0051REMSYN070AAXX  28184 82900 32597 61406 10281 20227 30116 40125 86200 333 58005;EQDQ01  00002PRCP99
0186829000999992001012900004-08040-034920FM-12+000799999V0200901N003110075019N0020001N1+02661+02181101311ADDAA199000091GF105991051021008001001001KA1240M+03051MA1999999101221MD1999999-0101REMSYN076AAXX  29004 82900 32595 50906 10266 20218 30122 40131 85200 333 10305 59010;EQDQ01  00002PRCP99
0121829000999992001012912004-08040-034920FM-12+000799999V0200101N021119999999N0100001N1+99999+99999999999ADDAA199000091KA1240N+02041MD1999999+0021REMSYN052AAXX  29124 82900 32597 /0141 85200 333 20204 58002;EQDQ01  00002PRCP99
0167829000999992001012918004-08040-034920FM-12+000799999V0201401N003110075019N0100001N1+02901+02201101181ADDAA199000091GF106991061031008001001001MA1999999101091MD1999999-0071REMSYN070AAXX  29184 82900 32597 61406 10290 20220 30109 40118 86300 333 59007;EQDQ01  00002PRCP99
0186829000999992001013000004-08040-034920FM-12+000799999V0201401N002112200019N0020001N1+02651+02141101191ADDAA199000091GF102991021011008001001001KA1240M+03071MA1999999101101MD1999999-0121REMSYN076AAXX  30004 82900 32595 21404 10265 20214 30110 40119 82100 333 10307 59012;EQDQ01  00002PRCP99
0153829000999992001013012004-08040-034920FM-12+000799999V0201401N003610075019N0100001N1+02851+02171101341ADDAA124036191GF105991051021008001001001KA1240N+02011MA1999999101251REMSYN076AAXX  30124 82900 32597 51407 10285 20217 30125 40134 85200 333 20201 70361;
0186829000999992001013100004-08040-034920FM-12+000799999V0201401N003110075019N0020001N1+02681+02261101091ADDAA199000091GF106991061021008001001001KA1240M+03041MA1999999101001MD1999999-0101REMSYN076AAXX  31004 82900 32595 61406 10268 20226 30100 40109 86200 333 10304 59010;EQDQ01  00002PRCP99
0201829000999992001013112004-08040-034920FM-12+000799999V0200901N001510075019N0100001N1+02851+02221101171ADDAA124002091AY161061AY221061GF106991051041008001021001KA1240N+02261MA1999999101081MD1999999-0171MW1011REMSYN088AAXX  31124 82900 21597 60903 10285 20222 30108 40117 70162 85420 333 20226 59017 60024;
0167829000999992001013118004-08040-034920FM-12+000799999V0200901N004110075019N0100001N1+02931+02221100951ADDAA199000091GF106991061021008001001001MA1999999100861MD1999999-0121REMSYN070AAXX  31184 82900 32597 60908 10293 20222 30086 40095 86200 333 59012;EQDQ01  00002PRCP99
0186829000999992001020100004-08040-034920FM-12+000799999V0200901N001510075019N0020001N1+02691+02241101181ADDAA199000091GF106991061021008001001001KA1240M+03091MA1999999101091MD1999999+0091REMSYN076AAXX  01004 82900 32595 60903 10269 20224 30109 40118 86200 333 10309 58009;EQDQ01  00002PRCP99
0186829000999992001020112004-08040-034920FM-12+000799999V0201401N002110450019N0100001N1+02881+02131101191ADDAA199000091GF106991041021008001021001KA1240N+02241MA1999999101101MD1999999+0021REMSYN076AAXX  01124 82900 32597 61404 10288 20213 30110 40119 84220 333 20224 58002;EQDQ01  00002PRCP99
0167829000999992001020118004-08040-034920FM-12+000799999V0201401N003612200019N0100001N1+02971+02231100901ADDAA199000091GF101991011011008001021001MA1999999100811MD1999999-0051REMSYN070AAXX  01184 82900 32597 11407 10297 20223 30081 40090 81120 333 59005;EQDQ01  00002PRCP99
0186829000999992001020200004-08040-034920FM-12+000799999V0200901N003110075019N0020001N1+02681+02281101131ADDAA199000091GF105991051021008001001001KA1240M+03071MA1999999101041MD1999999-0051REMSYN076AAXX  02004 82900 32595 50906 10268 20228 30104 40113 85200 333 10307 59005;EQDQ01  00002PRCP99
0186829000999992001020212004-08040-034920FM-12+000799999V0200901N001510075019N0100001N1+02881+02211101191ADDAA199000091GF106991061021008001001001KA1240N+02221MA1999999101101MD1999999+0001REMSYN076AAXX  02124 82900 32597 60903 10288 20221 30110 40119 86200 333 20222 58000;EQDQ01  00002PRCP99
0167829000999992001020218004-08040-034920FM-12+000799999V0200901N003112200019N0100001N1+03041+02231100911ADDAA199000091GF102991021021008001001001MA1999999100821MD1999999+0011REMSYN070AAXX  02184 82900 32597 20906 10304 20223 30082 40091 82200 333 58001;EQDQ01  00002PRCP99
0186829000999992001020300004-08040-034920FM-12+000799999V0200901N002610075019N0020001N1+02711+02281101041ADDAA199000091GF106991061021008001001001KA1240M+03131MA1999999100951MD1999999-0091REMSYN076AAXX  03004 82900 32595 60905 10271 20228 30095 40104 86200 333 10313 59009;EQDQ01  00002PRCP99
0186829000999992001020312004-08040-034920FM-12+000799999V0203601N002110075019N0100001N1+02861+02191101201ADDAA199000091GF107991071021008001001001KA1240N+02241MA1999999101111MD1999999+0011REMSYN076AAXX  03124 82900 32597 73604 10286 20219 30111 40120 87200 333 20224 58001;EQDQ01  00002PRCP99
0167829000999992001020318004-08040-034920FM-12+000799999V0200901N003110075019N0100001N1+02811+02311100951ADDAA199000091GF106991061031008001001001MA1999999100861MD1999999+0041REMSYN070AAXX  03184 82900 32597 60906 10281 20231 30086 40095 86300 333 58004;EQDQ01  00002PRCP99
0220829000999992001020412004-08040-034920FM-12+000799999V0200901N001510075019N0100001N1+02731+02451101281ADDAA124020191AY161061AY261061GF106991999041008001001001KA1240N+02301MA1999999101191MD1999999+0081MW1021REMSYN088AAXX  04124 82900 21597 60903 10273 20245 30119 40128 70266 85400 333 20230 58008 60204;EQDQ01+000052SCOTLC
0167829000999992001020418004-08040-034920FM-12+000799999V0200901N003110075019N0100001N1+02881+02321101081ADDAA199000091GF107991071071008001001001MA1999999100991MD1999999+0131REMSYN070AAXX  04184 82900 32597 70906 10288 20232 30099 40108 87700 333 58013;EQDQ01  00002PRCP99
0186829000999992001020500004-08040-034920FM-12+000799999V0200901N003110075019N0020001N1+02691+02281101281ADDAA199000091GF106991061021008001001001KA1240M+02981MA1999999101191MD1999999+0151REMSYN076AAXX  05004 82900 32595 60906 10269 20228 30119 40128 86200 333 10298 58015;EQDQ01  00002PRCP99
0186829000999992001020512004-08040-034920FM-12+000799999V0201401N003112200019N0100001N1+02881+02161101341ADDAA199000091GF104991041021008001001001KA1240N+02201MA1999999101251MD1999999+0061REMSYN076AAXX  05124 82900 32597 41406 10288 20216 30125 40134 84200 333 20220 58006;EQDQ01  00002PRCP99
0167829000999992001020518004-08040-034920FM-12+000799999V0201401N003612200019N0100001N1+02921+02221101091ADDAA199000091GF104991041021008001001001MA1999999101001MD1999999+0011REMSYN070AAXX  05184 82900 32597 41407 10292 20222 30100 40109 84200 333 58001;EQDQ01  00002PRCP99
0186829000999992001020600004-08040-034920FM-12+000799999V0201401N001512200019N0020001N1+02641+02271101291ADDAA199000091GF102991021011008001001001KA1240M+03041MA1999999101201MD1999999+0011REMSYN076AAXX  06004 82900 32595 21403 10264 20227 30120 40129 82100 333 10304 58001;EQDQ01  00002PRCP99
0220829000999992001020612004-08040-034920FM-12+000799999V0200901N001512200019N0100001N1+02941+02241101351ADDAA124000391AY151061AY211061GF101991999021008001001001KA1240N+02241MA1999999101261MD1999999+0011MW1021REMSYN088AAXX  06124 82900 21597 10903 10294 20224 30126 40135 70251 85200 333 20224 58001 69934;EQDQ01+000052SCOTLC
0167829000999992001020618004-08040-034920FM-12+000799999V0200901N003110075019N0100001N1+02961+02231101171ADDAA199000091GF105991051021008001001001MA1999999101081MD1999999+0081REMSYN070AAXX  06184 82900 32597 50906 10296 20223 30108 40117 85200 333 58008;EQDQ01  00002PRCP99
0186829000999992001020700004-08040-034920FM-12+000799999V0200901N002110075019N0020001N1+02691+02281101241ADDAA199000091GF106991061021008001001001KA1240M+03061MA1999999101151MD1999999-0051REMSYN076AAXX  07004 82900 32595 60904 10269 20228 30115 40124 86200 333 10306 59005;EQDQ01  00002PRCP99
0202829000999992001020712004-08040-034920FM-12+000799999V0201401N002619999999N0100001N1+02921+02271101311ADDAA199000091GF106991999021008001001001KA1240N+02201MA1999999101221MD1999999-0041REMSYN076AAXX  07124 82900 32597 61405 10292 20227 30122 40131 84200 333 20220 59004;EQDQ01+000042SCOTLCQ02  00002PRCP99
0167829000999992001020718004-08040-034920FM-12+000799999V0201401N003612200019N0100001N1+03001+02321101041ADDAA199000091GF104991041021008001001001MA1999999100951MD1999999-0131REMSYN070AAXX  07184 82900 32597 41407 10300 20232 30095 40104 84200 333 59013;EQDQ01  00002PRCP99
0201829000999992001020800004-08040-034920FM-12+000799999V0200901N001510075019N0020001N1+02661+02431101191ADDAA106003091AY161061AY221061GF106991061071008001001001KA1240M+03091MA1999999101101MD1999999-0051MW1031REMSYN088AAXX  08004 82900 21595 60903 10266 20243 30110 40119 70362 86700 333 10309 59005 60031;
0201829000999992001020812004-08040-034920FM-12+000799999V0201401N004110075019N0100001N1+02931+01361101281ADDAA124003091AY161061AY221061GF106991051041008001021001KA1240N+02561MA1999999101191MD1999999-0031MW1011REMSYN088AAXX  08124 82900 21597 61408 10293 20136 30119 40128 70162 85420 333 20256 59003 60034;
0167829000999992001020818004-08040-034920FM-12+000799999V0201401N005110075019N0100001N1+02891+02231101111ADDAA199000091GF105991051021008001001001MA1999999101021MD1999999+0071REMSYN070AAXX  08184 82900 32597 51410 10289 20223 30102 40111 85200 333 58007;EQDQ01  00002PRCP99
0186829000999992001020900004-08040-034920FM-12+000799999V0201401N003110075019N0020001N1+02671+02141101201ADDAA199000091GF105991051021008001001001KA1240M+03041MA1999999101111MD1999999+0011REMSYN076AAXX  09004 82900 32595 51406 10267 20214 30111 40120 85200 333 10304 58001;EQDQ01  00002PRCP99
0186829000999992001020912004-08040-034920FM-12+000799999V0201401N003110075019N0100001N1+02921+02121101211ADDAA199000091GF106991061021008001001001KA1240N+02501MA1999999101121MD1999999-0071REMSYN076AAXX  09124 82900 32597 61406 10292 20212 30112 40121 86200 333 20250 59007;EQDQ01  00002PRCP99
0167829000999992001020918004-08040-034920FM-12+000799999V0201801N003110075019N0100001N1+02951+02101101021ADDAA199000091GF105991051021008001001001MA1999999100931MD1999999-0091REMSYN070AAXX  09184 82900 32597 51806 10295 20210 30093 40102 85200 333 59009;EQDQ01  00002PRCP99
0186829000999992001021000004-08040-034920FM-12+000799999V0201801N003112200019N0020001N1+02661+02091101161ADDAA199000091GF102991021011008001001001KA1240M+03051MA1999999101071MD1999999-0041REMSYN076AAXX  10004 82900 32595 21806 10266 20209 30107 40116 82100 333 10305 59004;EQDQ01  00002PRCP99
0186829000999992001021012004-08040-034920FM-12+000799999V0201401N003110075019N0100001N1+02891+02081101191ADDAA199000091GF105991051021008001001001KA1240N+02071MA1999999101101MD1999999-0021REMSYN076AAXX  10124 82900 32597 51406 10289 20208 30110 40119 85200 333 20207 59002;EQDQ01  00002PRCP99
0167829000999992001021018004-08040-034920FM-12+000799999V0201401N003110075019N0100001N1+02911+02061101071ADDAA199000091GF105991051021008001001001MA1999999100941MD1999999+0041REMSYN070AAXX  10184 82900 32597 51406 10291 20206 30094 40107 85200 333 58004;EQDQ01  00002PRCP99
0196829000999992001021100004-08040-034920FM-12+000799999V0201401N002612200019N0020001N1+02621+02121101161ADDAA199000091GA1001+999999999GF100991001001999999001001KA1240M+03051MA1999999101071MD1999999+0001REMSYN070AAXX  11004 82900 32995 01405 10262 20212 30107 40116 333 10305 58000;EQDQ01  00002PRCP99
0167829000999992001021118004-08040-034920FM-12+000799999V0201401N004612200019N0100001N1+03001+02221101081ADDAA199000091GF102991021011008001001001MA1999999100991MD1999999+0021REMSYN070AAXX  11184 82900 32597 21409 10300 20222 30099 40108 82100 333 58002;EQDQ01  00002PRCP99
0186829000999992001021200004-08040-034920FM-12+000799999V0201401N002110075019N0020001N1+02711+02281101241ADDAA199000091GF106991061021008001001001KA1240M+03071MA1999999101151MD1999999+0081REMSYN076AAXX  12004 82900 32595 61404 10271 20228 30115 40124 86200 333 10307 58008;EQDQ01  00002PRCP99
0201829000999992001021212004-08040-034920FM-12+000799999V0201401N003110075019N0100001N1+02901+02371101411ADDAA124004191AY161061AY221061GF106991051041008001021001KA1240N+02321MA1999999101321MD1999999+0161MW1011REMSYN088AAXX  12124 82900 21597 61406 10290 20237 30132 40141 70162 85420 333 20232 58016 60044;
0167829000999992001021218004-08040-034920FM-12+000799999V0201401N003110075019N0100001N1+02931+02311101191ADDAA199000091GF106991061021008001001001MA1999999101101MD1999999+0111REMSYN070AAXX  12184 82900 32597 61406 10293 20231 30110 40119 86200 333 58011;EQDQ01  00002PRCP99
0186829000999992001021300004-08040-034920FM-12+000799999V0201401N003110075019N0020001N1+02741+02291101271ADDAA199000091GF106991061021008001001001KA1240M+03081MA1999999101181MD1999999+0031REMSYN076AAXX  13004 82900 32595 61406 10274 20229 30118 40127 86200 333 10308 58003;EQDQ01  00002PRCP99
0186829000999992001021312004-08040-034920FM-12+000799999V0201401N004110075019N0100001N1+02941+02261101291ADDAA199000091GF106991061021008001001001KA1240N+02581MA1999999101201MD1999999-0121REMSYN076AAXX  13124 82900 32597 61408 10294 20226 30120 40129 86200 333 20258 59012;EQDQ01  00002PRCP99
0167829000999992001021318004-08040-034920FM-12+000799999V0201401N005110075019N0100001N1+02861+02191101031ADDAA199000091GF106991061021008001001001MA1999999100941MD1999999-0161REMSYN070AAXX  13184 82900 32597 61410 10286 20219 30094 40103 86200 333 59016;EQDQ01  00002PRCP99
0180829000999992001021400004-08040-034920FM-12+000799999V0201401N003112200019N0020001N1+02711+02151999999ADDAA199000091GF102991021011008001001001KA1240M+03061MA1999999101141MD1999999-0061REMSYN070AAXX  14004 82900 32595 21406 10271 20215 30114 82100 333 10306 59006;EQDQ01  00002PRCP99
0201829000999992001021412004-08040-034920FM-12+000799999V0201401N003110075019N0100001N1+02871+02211101331ADDAA124000191AY151061AY211061GF105991051021008001001001KA1240N+02541MA1999999101241MD1999999+0041MW1021REMSYN088AAXX  14124 82900 21597 51406 10287 20221 30124 40133 70251 85200 333 20254 58004 69924;
0167829000999992001021418004-08040-034920FM-12+000799999V0201401N003110075019N0100001N1+02961+02131101001ADDAA199000091GF105991051021008001001001MA1999999100911MD1999999-0031REMSYN070AAXX  14184 82900 32597 51406 10296 20213 30091 40100 85200 333 59003;EQDQ01  00002PRCP99
0186829000999992001021500004-08040-034920FM-12+000799999V0200901N001510075019N0020001N1+02701+02221101101ADDAA199000091GF106991061021008001001001KA1240M+03101MA1999999101011MD1999999-0011REMSYN076AAXX  15004 82900 32595 60903 10270 20222 30101 40110 86200 333 10310 59001;EQDQ01  00002PRCP99
0201829000999992001021512004-08040-034920FM-12+000799999V0201801N002610075019N0100001N1+02661+02241101291ADDAA124003091AY161061AY221061GF106991061041008001001001KA1240N+02211MA1999999101201MD1999999-0041MW1031REMSYN088AAXX  15124 82900 21597 61805 10266 20224 30120 40129 70362 86400 333 20221 59004 60034;
0167829000999992001021518004-08040-034920FM-12+000799999V0201401N004112200019N0100001N1+02901+02301101051ADDAA199000091GF103991031021008001001001MA1999999100961MD1999999-0051REMSYN070AAXX  15184 82900 32597 31408 10290 20230 30096 40105 83200 333 59005;EQDQ01  00002PRCP99
0186829000999992001021600004-08040-034920FM-12+000799999V0200401N001510075019N0020001N1+02681+02221101161ADDAA199000091GF105991051021008001001001KA1240M+03071MA1999999101071MD1999999+0061REMSYN076AAXX  16004 82900 32595 50403 10268 20222 30107 40116 85200 333 10307 58006;EQDQ01  00002PRCP99
0186829000999992001021612004-08040-034920FM-12+000799999V0201401N003110075019N0100001N1+02941+02111101431ADDAA199000091GF105991051021008001001001KA1240N+02141MA1999999101341MD1999999+0141REMSYN076AAXX  16124 82900 32597 51406 10294 20211 30134 40143 85200 333 20214 58014;EQDQ01  00002PRCP99
0167829000999992001021618004-08040-034920FM-12+000799999V0201401N005112200019N0100001N1+02991+02241101211ADDAA199000091GF104991041021008001001001MA1999999101121MD1999999+0161REMSYN070AAXX  16184 82900 32597 41410 10299 20224 30112 40121 84200 333 58016;EQDQ01  00002PRCP99
0186829000999992001021700004-08040-034920FM-12+000799999V0201401N003110075019N0020001N1+02731+02241101371ADDAA199000091GF105991051021008001001001KA1240M+03101MA1999999101281MD1999999+0211REMSYN076AAXX  17004 82900 32595 51406 10273 20224 30128 40137 85200 333 10310 58021;EQDQ01  00002PRCP99
0202829000999992001021712004-08040-034920FM-12+000799999V0201401N003119999999N0100001N1+02931+02241101391ADDAA199000091GF106991999021008001001001KA1240N+02341MA1999999101301MD1999999-0041REMSYN076AAXX  17124 82900 32597 61406 10293 20224 30130 40139 84200 333 20234 59004;EQDQ01+000042SCOTLCQ02  00002PRCP99
0167829000999992001021718004-08040-034920FM-12+000799999V0201401N003110075019N0100001N1+03021+02241101291ADDAA199000091GF106991061021008001001001MA1999999101201MD1999999+0081REMSYN070AAXX  17184 82900 32597 61406 10302 20224 30120 40129 86200 333 58008;EQDQ01  00002PRCP99
0202829000999992001021800004-08040-034920FM-12+000799999V0201401N004619999999N0020001N1+02771+02321101401ADDAA199000091GF105991999021008001001001KA1240M+03151MA1999999101311MD1999999+0031REMSYN076AAXX  18004 82900 32595 51409 10277 20232 30131 40140 84200 333 10315 58003;EQDQ01+000042SCOTLCQ02  00002PRCP99
0201829000999992001021812004-08040-034920FM-12+000799999V0201401N003610450019N0100001N1+02861+02351101511ADDAA124005191AY161061AY221061GF106991041021008001021001KA1240N+02341MA1999999101421MD1999999+0121MW1021REMSYN088AAXX  18124 82900 21597 61407 10286 20235 30142 40151 70262 84220 333 20234 58012 60054;
0167829000999992001021818004-08040-034920FM-12+000799999V0201401N003610075019N0100001N1+02901+02101101211ADDAA199000091GF107991071031008001001001MA1999999101121MD1999999-0081REMSYN070AAXX  18184 82900 32597 71407 10290 20210 30112 40121 87300 333 59008;EQDQ01  00002PRCP99
0186829000999992001021900004-08040-034920FM-12+000799999V0201401N001512200019N0020001N1+02681+02261101371ADDAA199000091GF104991041011008001001001KA1240M+03071MA1999999101281MD1999999-0031REMSYN076AAXX  19004 82900 32595 41403 10268 20226 30128 40137 84100 333 10307 59003;EQDQ01  00002PRCP99
0186829000999992001021912004-08040-034920FM-12+000799999V0201401N003110075019N0100001N1+02941+02111101411ADDAA199000091GF106991061021008001001001KA1240N+02171MA1999999101321MD1999999+0101REMSYN076AAXX  19124 82900 32597 61406 10294 20211 30132 40141 86200 333 20217 58010;EQDQ01  00002PRCP99
0167829000999992001021918004-08040-034920FM-12+000799999V0201401N003110075019N0100001N1+02901+02221101201ADDAA199000091GF108991051041008001031001MA1999999101111MD1999999-0011REMSYN070AAXX  19184 82900 32597 81406 10290 20222 30111 40120 85430 333 59001;EQDQ01  00002PRCP99
0186829000999992001022000004-08040-034920FM-12+000799999V0201401N002112200019N0020001N1+02681+02221101441ADDAA199000091GF102991021011008001001001KA1240M+03081MA1999999101351MD1999999+0071REMSYN076AAXX  20004 82900 32595 21404 10268 20222 30135 40144 82100 333 10308 58007;EQDQ01  00002PRCP99
0186829000999992001022012004-08040-034920FM-12+000799999V0201401N004110075019N0100001N1+02891+02231101371ADDAA199000091GF106991051041008001021001KA1240N+02191MA1999999101281MD1999999-0041REMSYN076AAXX  20124 82900 32597 61408 10289 20223 30128 40137 85420 333 20219 59004;EQDQ01  00002PRCP99
0167829000999992001022018004-08040-034920FM-12+000799999V0201401N004112200019N0100001N1+02981+02091101111ADDAA199000091GF104991041021008001001001MA1999999101021MD1999999-0091REMSYN070AAXX  20184 82900 32597 41408 10298 20209 30102 40111 84200 333 59009;EQDQ01  00002PRCP99
0186829000999992001022100004-08040-034920FM-12+000799999V0201401N003112200019N0020001N1+02721+02191101261ADDAA199000091GF104991041011008001001001KA1240M+03061MA1999999101171MD1999999-0181REMSYN076AAXX  21004 82900 32595 41406 10272 20219 30117 40126 84100 333 10306 59018;EQDQ01  00002PRCP99
0167829000999992001022118004-08040-034920FM-12+000799999V0201401N005110075019N0100001N1+02971+02121101051ADDAA199000091GF105991051021008001001001MA1999999100961MD1999999-0061REMSYN070AAXX  21184 82900 32597 51410 10297 20212 30096 40105 85200 333 59006;EQDQ01  00002PRCP99
0186829000999992001022200004-08040-034920FM-12+000799999V0201801N002110075019N0020001N1+02651+02291101191ADDAA199000091GF105991051021008001001001KA1240M+03121MA1999999101101MD1999999-0071REMSYN076AAXX  22004 82900 32595 51804 10265 20229 30110 40119 85200 333 10312 59007;EQDQ01  00002PRCP99
0186829000999992001022212004-08040-034920FM-12+000799999V0201401N003112200019N0100001N1+03011+02111101321ADDAA199000091GF103991031021008001021001KA1240N+02501MA1999999101231MD1999999+0071REMSYN076AAXX  22124 82900 32597 31406 10301 20211 30123 40132 83220 333 20250 58007;EQDQ01  00002PRCP99
0183829000999992001022218004-08040-034920FM-12+000799999V0201801N004612200019N0100001N1+02991+02291101091ADDAA199000091GF104991999021008001001001MA1999999101001MD1999999+0041REMSYN070AAXX  22184 82900 32597 41809 10299 20229 30100 40109 83200 333 58004;EQDQ01+000032SCOTLCQ02  00002PRCP99
0186829000999992001022300004-08040-034920FM-12+000799999V0201801N003112200019N0020001N1+02751+02231101261ADDAA199000091GF102991021011008001001001KA1240M+03181MA1999999101171MD1999999+0071REMSYN076AAXX  23004 82900 32595 21806 10275 20223 30117 40126 82100 333 10318 58007;EQDQ01  00002PRCP99
0186829000999992001022312004-08040-034920FM-12+000799999V0201401N005110075019N0100001N1+02931+02261101261ADDAA199000091GF106991061021008001001001KA1240N+02381MA1999999101171MD1999999-0061REMSYN076AAXX  23124 82900 32597 61410 10293 20226 30117 40126 86200 333 20238 59006;EQDQ01  00002PRCP99
0167829000999992001022318004-08040-034920FM-12+000799999V0201801N005110075019N0100001N1+03041+02181101081ADDAA199000091GF105991051021008001001001MA1999999100991MD1999999-0011REMSYN070AAXX  23184 82900 32597 51810 10304 20218 30099 40108 85200 333 59001;EQDQ01  00002PRCP99
0186829000999992001022400004-08040-034920FM-12+000799999V0201801N003112200019N0020001N1+02741+02381101261ADDAA199000091GF104991041021008001001001KA1240M+03141MA1999999101171MD1999999+0001REMSYN076AAXX  24004 82900 32595 41806 10274 20238 30117 40126 84200 333 10314 58000;EQDQ01  00002PRCP99
0202829000999992001022412004-08040-034920FM-12+000799999V0201401N004119999999N0100001N1+03041+02181101181ADDAA199000091GF105991999021008001001001KA1240N+02621MA1999999101091MD1999999-0081REMSYN076AAXX  24124 82900 32597 51408 10304 20218 30109 40118 84200 333 20262 59008;EQDQ01+000042SCOTLCQ02  00002PRCP99
0167829000999992001022418004-08040-034920FM-12+000799999V0201801N004610075019N0100001N1+02991+02371100941ADDAA199000091GF107991071021008001001001MA1999999100851MD1999999-0141REMSYN070AAXX  24184 82900 32597 71809 10299 20237 30085 40094 87200 333 59014;EQDQ01  00002PRCP99
0186829000999992001022500004-08040-034920FM-12+000799999V0201801N004610075019N0020001N1+02771+02251101151ADDAA199000091GF105991051021008001001001KA1240M+03181MA1999999101061MD1999999-0111REMSYN076AAXX  25004 82900 32595 51809 10277 20225 30106 40115 85200 333 10318 59011;EQDQ01  00002PRCP99
0201829000999992001022512004-08040-034920FM-12+000799999V0201401N004110075019N0100001N1+02981+02231101101ADDAA124000191AY161061AY221061GF106991061021008001001001KA1240N+02341MA1999999101011MD1999999-0081MW1021REMSYN088AAXX  25124 82900 21597 61408 10298 20223 30101 40110 70262 86200 333 20234 59008 69924;
0168829000999992001022518004-08040-034920FM-12+000799999V0201401N004610075019N0100001N1+03031+02201100871ADDAA199000091GF106991061021008001001001MD1999999-0071REMSYN070AAXX  25184 82900 32597 61409 10303 20220 39078 40087 86200 333 59007;EQDQ01+090783APOSP Q02  00002PRCP99
0186829000999992001022600004-08040-034920FM-12+000799999V0201801N003112200019N0020001N1+02721+02301101081ADDAA199000091GF102991021021008001001001KA1240M+03151MA1999999100991MD1999999-0071REMSYN076AAXX  26004 82900 32595 21806 10272 20230 30099 40108 82200 333 10315 59007;EQDQ01  00002PRCP99
0201829000999992001022612004-08040-034920FM-12+000799999V0201801N003110075019N0100001N1+02701+02371101091ADDAA124014091AY161061AY241061GF106991061021008001001001KA1240N+02441MA1999999101001MD1999999-0011MW1031REMSYN088AAXX  26124 82900 21597 61806 10270 20237 30100 40109 70364 86200 333 20244 59001 60144;
0182829000999992001022618004-08040-034920FM-12+000799999V0201401N003110075019N0100001N1+02951+02231100861ADDAA106000191AY151061AY221061GF105991051021008001001001MA1999999100771MD1999999-0011MW1011REMSYN082AAXX  26184 82900 21597 51406 10295 20223 30077 40086 70152 85200 333 59001 69911;
0186829000999992001022700004-08040-034920FM-12+000799999V0209999C000010075019N0020001N1+02711+02321101061ADDAA199000091GF106991061021008001001001KA1240M+03041MA1999999100971MD1999999-0021REMSYN076AAXX  27004 82900 32595 60000 10271 20232 30097 40106 86200 333 10304 59002;EQDQ01  00002PRCP99
0201829000999992001022712004-08040-034920FM-12+000799999V0201401N002110450019N0100001N1+02891+02341101211ADDAA124004191AY161061AY221061GF106991041021008001031001KA1240N+02241MA1999999101121MD1999999+0121MW1021REMSYN088AAXX  27124 82900 21597 61404 10289 20234 30112 40121 70262 84230 333 20224 58012 60044;
0167829000999992001022718004-08040-034920FM-12+000799999V0201401N003110075019N0100001N1+02891+02321101011ADDAA199000091GF107991071031008001001001MA1999999100921MD1999999+0151REMSYN070AAXX  27184 82900 32597 71406 10289 20232 30092 40101 87300 333 58015;EQDQ01  00002PRCP99
0186829000999992001022800004-08040-034920FM-12+000799999V0201401N003110075019N0020001N1+02711+02281101171ADDAA199000091GF107991071071008001999999KA1240M+03051MA1999999101081MD1999999+0111REMSYN076AAXX  28004 82900 32595 71406 10271 20228 30108 40117 877// 333 10305 58011;EQDQ01  00002PRCP99
0201829000999992001022812004-08040-034920FM-12+000799999V0201401N003110075019N0100001N1+02721+02391101331ADDAA124002091AY161061AY221061GF107991071051008001001001KA1240N+02361MA1999999101241MD1999999+0121MW1031REMSYN088AAXX  28124 82900 21597 71406 10272 20239 30124 40133 70362 87500 333 20236 58012 60024;
0167829000999992001022818004-08040-034920FM-12+000799999V0201401N003110075019N0100001N1+03001+02321101021ADDAA199000091GF106991051041008001021001MA1999999100931MD1999999+0011REMSYN070AAXX  28184 82900 32597 61406 10300 20232 30093 40102 85420 333 58001;EQDQ01  00002PRCP99
0198829000999992001030100004-08040-034920FM-12+000799999V0201401N001512200019N0020001N1+02721+02391101181ADDAA199000091GF102991021011008001001001KA1240M+03081MA1999999101091MD1999999+0011REMSYN088AAXX  01004 82900 32595 21403 10272 20239 30109 40118 82100 333 10308 29078 55003 58001;EQDQ01  00002PRCP99
0201829000999992001030112004-08040-034920FM-12+000799999V0201401N002110450019N0100001N1+02801+02251101331ADDAA124001091AY161061AY221061GF106991041021008001021001KA1240N+02281MA1999999101241MD1999999+0001MW1021REMSYN088AAXX  01124 82900 21597 61404 10280 20225 30124 40133 70262 84220 333 20228 58000 60014;
0167829000999992001030118004-08040-034920FM-12+000799999V0201401N005710075019N0100001N1+03001+02241101031ADDAA199000091GF106991061021008001001001MA1999999100941MD1999999-0031REMSYN070AAXX  01184 82900 32597 61411 10300 20224 30094 40103 86200 333 59003;EQDQ01  00002PRCP99
0198829000999992001030200004-08040-034920FM-12+000799999V0201401N004612200019N0020001N1+02761+02341101301ADDAA199000091GF104991041021008001001001KA1240M+03061MA1999999101211MD1999999+0121REMSYN088AAXX  02004 82900 32595 41409 10276 20234 30121 40130 84200 333 10306 29073 55065 58012;EQDQ01  00002PRCP99
0186829000999992001030212004-08040-034920FM-12+000799999V0201401N003110075019N0100001N1+02931+02311101371ADDAA199000091GF105991051021008001001001KA1240N+02341MA1999999101281MD1999999+0041REMSYN076AAXX  02124 82900 32597 51406 10293 20231 30128 40137 85200 333 20234 58004;EQDQ01  00002PRCP99
0167829000999992001030218004-08040-034920FM-12+000799999V0201801N003110075019N0100001N1+02991+02271101171ADDAA199000091GF105991051021008001001001MA1999999101081MD1999999+0141REMSYN070AAXX  02184 82900 32597 51806 10299 20227 30108 40117 85200 333 58014;EQDQ01  00002PRCP99
0213829000999992001030300004-08040-034920FM-12+000799999V0201401N003110075019N0020001N1+02731+02401101471ADDAA106002091AY161061AY221061GF106991061021008001001001KA1240M+03101MA1999999101381MD1999999+0171MW1011REMSYN100AAXX  03004 82900 21595 61406 10273 20240 30138 40147 70162 86200 333 10310 29074 55068 58017 60021;
0186829000999992001030312004-08040-034920FM-12+000799999V0201401N004610075019N0100001N1+02961+02351101531ADDAA199000091GF106991061021008001001001KA1240N+02601MA1999999101441MD1999999+0161REMSYN076AAXX  03124 82900 32597 61409 10296 20235 30144 40153 86200 333 20260 58016;EQDQ01  00002PRCP99
0167829000999992001030318004-08040-034920FM-12+000799999V0201401N004610075019N0100001N1+02961+02331101241ADDAA199000091GF106991061021008001001001MA1999999101151MD1999999+0071REMSYN070AAXX  03184 82900 32597 61409 10296 20233 30115 40124 86200 333 58007;EQDQ01  00002PRCP99
0198829000999992001030400004-08040-034920FM-12+000799999V0201401N003112200019N0020001N1+02741+02261101491ADDAA199000091GF104991041021008001001001KA1240M+03081MA1999999101401MD1999999+0821REMSYN088AAXX  04004 82900 32595 41406 10274 20226 30140 40149 84200 333 10308 29072 55098 58082;EQDQ01  00002PRCP99
0201829000999992001030412004-08040-034920FM-12+000799999V0201401N003110075019N0100001N1+02951+02381101471ADDAA124001091AY161061AY221061GF106991051041008001021001KA1240N+02381MA1999999101381MD1999999-0061MW1011REMSYN088AAXX  04124 82900 21597 61406 10295 20238 30138 40147 70162 85420 333 20238 59006 60014;
0167829000999992001030418004-08040-034920FM-12+000799999V0201401N003110075019N0100001N1+02991+02271101241ADDAA199000091GF106991061021008001001001MA1999999101151MD1999999+0001REMSYN070AAXX  04184 82900 32597 61406 10299 20227 30115 40124 86200 333 58000;EQDQ01  00002PRCP99
0198829000999992001030500004-08040-034920FM-12+000799999V0201401N003112200019N0020001N1+02771+02321101291ADDAA199000091GF104991041021008001001001KA1240M+03051MA1999999101201MD1999999-0201REMSYN088AAXX  05004 82900 32595 41406 10277 20232 30120 40129 84200 333 10305 29072 55096 59020;EQDQ01  00002PRCP99
0186829000999992001030512004-08040-034920FM-12+000799999V0201401N002112200019N0100001N1+02991+02241101461ADDAA199000091GF103991021021008001041001KA1240N+02501MA1999999101371MD1999999+0011REMSYN076AAXX  05124 82900 32597 31404 10299 20224 30137 40146 82240 333 20250 58001;EQDQ01  00002PRCP99
0167829000999992001030518004-08040-034920FM-12+000799999V0201401N005110450019N0100001N1+02981+02321101191ADDAA199000091GF106991021021008001021001MA1999999101101MD1999999-0051REMSYN070AAXX  05184 82900 32597 61410 10298 20232 30110 40119 82220 333 59005;EQDQ01  00002PRCP99
0198829000999992001030600004-08040-034920FM-12+000799999V0200901N003110075019N0020001N1+02741+02301101421ADDAA199000091GF105991051021008001001001KA1240M+03101MA1999999101331MD1999999+0141REMSYN088AAXX  06004 82900 32595 50906 10274 20230 30133 40142 85200 333 10310 29071 55098 58014;EQDQ01  00002PRCP99
0186829000999992001030612004-08040-034920FM-12+000799999V0201401N002110075019N0100001N1+02991+02031101611ADDAA199000091GF105991051021008001001001KA1240N+02281MA1999999101521MD1999999+0151REMSYN076AAXX  06124 82900 32597 51404 10299 20203 30152 40161 85200 333 20228 58015;EQDQ01  00002PRCP99
0167829000999992001030618004-08040-034920FM-12+000799999V0201401N003110075019N0100001N1+03011+02291101291ADDAA199000091GF105991051021008001001001MA1999999101201MD1999999+0101REMSYN070AAXX  06184 82900 32597 51406 10301 20229 30120 40129 85200 333 58010;EQDQ01  00002PRCP99
0198829000999992001030700004-08040-034920FM-12+000799999V0201401N003112200019N0020001N1+02721+02101101491ADDAA199000091GF102991021011008001001001KA1240M+03101MA1999999101401MD1999999+0081REMSYN088AAXX  07004 82900 32595 21406 10272 20210 30140 40149 82100 333 10310 29067 55105 58008;EQDQ01  00002PRCP99
0186829000999992001030712004-08040-034920FM-12+000799999V0201401N004610075019N0100001N1+02961+02151101631ADDAA199000091GF105991051021008001001001KA1240N+02601MA1999999101541MD1999999+0021REMSYN076AAXX  07124 82900 32597 51409 10296 20215 30154 40163 85200 333 20260 58002;EQDQ01  00002PRCP99
0167829000999992001030718004-08040-034920FM-12+000799999V0201401N004610075019N0100001N1+03061+02301101311ADDAA199000091GF106991061021008001001001MA1999999101221MD1999999+0021REMSYN070AAXX  07184 82900 32597 61409 10306 20230 30122 40131 86200 333 58002;EQDQ01  00002PRCP99
0186829000999992001030800004-08040-034920FM-12+000799999V0201401N003112200019N0020001N1+02771+02381999999ADDAA199000091GF104991999999008001999999KA1240M+03201MA1999999101421MD1999999+0091REMSYN076AAXX  08004 82900 32595 41406 10277 20238 30142 333 10320 29066 55010 58009;EQDQ01  00002PRCP99
0186829000999992001030812004-08040-034920FM-12+000799999V0201401N003110075019N0100001N1+02991+02371101501ADDAA199000091GF105991051021008001001001KA1240N+02341MA1999999101411MD1999999-0131REMSYN076AAXX  08124 82900 32597 51406 10299 20237 30141 40150 85200 333 20234 59013;EQDQ01  00002PRCP99
0167829000999992001030818004-08040-034920FM-12+000799999V0201401N004110075019N0100001N1+02971+02161101141ADDAA199000091GF106991051041008001021001MA1999999101051MD1999999-0171REMSYN070AAXX  08184 82900 32597 61408 10297 20216 30105 40114 85420 333 59017;EQDQ01  00002PRCP99
0198829000999992001030900004-08040-034920FM-12+000799999V0201401N003110075019N0020001N1+02801+02381101571ADDAA199000091GF105991051021008001001001KA1240M+03161MA1999999101281MD1999999-0141REMSYN088AAXX  09004 82900 32595 51406 10280 20238 30128 40157 85200 333 10316 29074 55071 59014;EQDQ01  00002PRCP99
0201829000999992001030912004-08040-034920FM-12+000799999V0200501N001510075019N0100001N1+02741+02341101371ADDAA124013091AY161061AY241061GF107991071021008001001001KA1240N+02361MA1999999101281MD1999999-0131MW1031REMSYN088AAXX  09124 82900 21597 70503 10274 20234 30128 40137 70364 87200 333 20236 59013 60134;
0182829000999992001030918004-08040-034920FM-12+000799999V0200501N001510075019N0100001N1+02551+02401101111ADDAA106006191AY161061AY231061GF107991071021008001001001MA1999999101021MD1999999-0031MW1021REMSYN082AAXX  09184 82900 21597 70503 10255 20240 30102 40111 70263 87200 333 59003 60061;
0198829000999992001031000004-08040-034920FM-12+000799999V0209999C000010075019N0020001N1+02451+02361101251ADDAA199000091GF106991061071008001001001KA1240M+02841MA1999999101161MD1999999-0121REMSYN088AAXX  10004 82900 32595 60000 10245 20236 30116 40125 86700 333 10284 29090 55004 59012;EQDQ01  00002PRCP99
0173829000999992001031012004-08040-034920FM-12+000799999V0200901N001010075019N0100001N1+02881+02321101231ADDAA124006191GF105991051021008001001001KA1240N+02281MA1999999101141MD1999999-0141REMSYN082AAXX  10124 82900 22597 50902 10288 20232 30114 40123 85200 333 20228 59014 60064;
0167829000999992001031018004-08040-034920FM-12+000799999V0201401N004612200019N0100001N1+02951+02271100871ADDAA199000091GF102991021011008001001001MA1999999100781MD1999999-0241REMSYN070AAXX  10184 82900 32597 21409 10295 20227 30078 40087 82100 333 59024;EQDQ01  00002PRCP99
0194829000999992001031100004-08040-034920FM-12+000799999V0200901N001012200019N0020001N1+02731+02261101171ADDAA199000091GF102991999021008001001001KA1240M+03061MA1999999101081REMSYN082AAXX  11004 82900 32595 20902 10273 20226 30108 40117 83200 333 10306 29072 55085;EQDQ01+000032SCOTLCQ02  00002PRCP99
0186829000999992001031112004-08040-034920FM-12+000799999V0200501N001010075019N0100001N1+02621+02251101281ADDAA199000091GF108991081071008001999999KA1240N+02331MA1999999101191MD1999999+0051REMSYN076AAXX  11124 82900 32597 80502 10262 20225 30119 40128 887// 333 20233 58005;EQDQ01  00002PRCP99
0182829000999992001031118004-08040-034920FM-12+000799999V0200901N003110075019N0100001N1+02921+02341100991ADDAA106002091AY161061AY221061GF107991071071008001001001MA1999999100901MD1999999+0121MW1031REMSYN082AAXX  11184 82900 21597 70906 10292 20234 30090 40099 70362 87700 333 58012 60021;
0198829000999992001031200004-08040-034920FM-12+000799999V0200901N003110075019N0020001N1+02771+02361101211ADDAA199000091GF107991071021008001001001KA1240M+02941MA1999999101121MD1999999+0041REMSYN088AAXX  12004 82900 32595 70906 10277 20236 30112 40121 87200 333 10294 29077 55018 58004;EQDQ01  00002PRCP99
0201829000999992001031212004-08040-034920FM-12+000799999V0200901N003110075019N0100001N1+02891+02351101361ADDAA124002091AY161061AY221061GF107991061041008001021001KA1240N+02521MA1999999101271MD1999999+0081MW1011REMSYN088AAXX  12124 82900 21597 70906 10289 20235 30127 40136 70162 86420 333 20252 58008 60024;
0167829000999992001031218004-08040-034920FM-12+000799999V0201401N005110075019N0100001N1+02971+02371101101ADDAA199000091GF106991061021008001001001MA1999999101011MD1999999+0111REMSYN070AAXX  12184 82900 32597 61410 10297 20237 30101 40110 86200 333 58011;EQDQ01  00002PRCP99
0198829000999992001031300004-08040-034920FM-12+000799999V0200901N001012200019N0020001N1+02731+02341101201ADDAA199000091GF102991021011008001001001KA1240M+03011MA1999999101111MD1999999-0011REMSYN088AAXX  13004 82900 32595 20902 10273 20234 30111 40120 82100 333 10301 29075 55036 59001;EQDQ01  00002PRCP99
0201829000999992001031312004-08040-034920FM-12+000799999V0200901N001510075019N0100001N1+02771+02361101341ADDAA124004191AY161061AY221061GF107991051031008001041001KA1240N+02401MA1999999101251MD1999999-0021MW1031REMSYN088AAXX  13124 82900 21597 70903 10277 20236 30125 40134 70362 85340 333 20240 59002 60044;
0183829000999992001031318004-08040-034920FM-12+000799999V0201401N003119999999N0100001N1+02911+02341101001ADDAA199000091GF107991999071008001001001MA1999999100911MD1999999-0101REMSYN070AAXX  13184 82900 32597 71406 10291 20234 30091 40100 83700 333 59010;EQDQ01+000032SCOTLCQ02  00002PRCP99
0213829000999992001031400004-08040-034920FM-12+000799999V0203201N001510075019N0020001N1+02431+02351101241ADDAA106008991AY191061AY261061GF107991071061008001001001KA1240M+03961MA1999999101151MD1999999+0041MW1611REMSYN100AAXX  14004 82900 21595 73203 10243 20235 30115 40124 76196 87600 333 10396 29085 55041 58004 60091;
0201829000999992001031412004-08040-034920FM-12+000799999V0201801N001510075019N0100001N1+02771+02401101151ADDAA124009991AY161061AY241061GF106991061021008001001001KA1240N+02261MA1999999101061MD1999999-0191MW1031REMSYN088AAXX  14124 82900 21597 61803 10277 20240 30106 40115 70364 86200 333 20226 59019 60104;
0182829000999992001031418004-08040-034920FM-12+000799999V0201401N003110075019N0100001N1+02881+02281101021ADDAA106002091AY161061AY231061GF106991061021008001001001MA1999999100931MD1999999+0021MW1021REMSYN082AAXX  14184 82900 21597 61406 10288 20228 30093 40102 70263 86200 333 58002 60021;
0213829000999992001031500004-08040-034920FM-12+000799999V0203201N001010075019N0020001N1+02411+02311101141ADDAA106000891AY151061AY221061GF106991061021008001001001KA1240M+02901MA1999999101051MD1999999+0101MW1011REMSYN100AAXX  15004 82900 21595 63202 10241 20231 30105 40114 70152 86200 333 10290 29085 55036 58010 69971;
0201829000999992001031512004-08040-034920FM-12+000799999V0200901N003110075019N0100001N1+02881+02281101331ADDAA124007991AY161061AY261061GF106991061021008001001001KA1240N+02201MA1999999101241MD1999999+0181MW1031REMSYN088AAXX  15124 82900 21597 60906 10288 20228 30124 40133 70366 86200 333 20220 58018 60084;
0167829000999992001031518004-08040-034920FM-12+000799999V0201401N003110450019N0100001N1+02931+02241101211ADDAA199000091GF106991041021008001031001MA1999999101021MD1999999+0091REMSYN070AAXX  15184 82900 32597 61406 10293 20224 30102 40121 84230 333 58009;EQDQ01  00002PRCP99
0198829000999992001031600004-08040-034920FM-12+000799999V0209999C000012200019N0020001N1+02791+02291101231ADDAA199000091GF102991021011008001001001KA1240M+03041MA1999999101141MD1999999+0091REMSYN088AAXX  16004 82900 32595 20000 10279 20229 30114 40123 82100 333 10304 29078 55087 58009;EQDQ01  00002PRCP99
0186829000999992001031612004-08040-034920FM-12+000799999V0200501N002110075019N0100001N1+02911+02341101431ADDAA199000091GF105991051021008001001001KA1240N+02181MA1999999101341MD1999999+0101REMSYN076AAXX  16124 82900 32597 50504 10291 20234 30134 40143 85200 333 20218 58010;EQDQ01  00002PRCP99
0167829000999992001031618004-08040-034920FM-12+000799999V0200901N003112200019N0100001N1+03061+02051101101ADDAA199000091GF102991021001008001061001MA1999999101011MD1999999-0011REMSYN070AAXX  16184 82900 32597 20906 10306 20205 30101 40110 82060 333 59001;EQDQ01  00002PRCP99
0198829000999992001031700004-08040-034920FM-12+000799999V0200901N002610075019N0020001N1+02671+02311101291ADDAA199000091GF105991051011008001001001KA1240M+03121MA1999999101201MD1999999+0061REMSYN088AAXX  17004 82900 32595 50905 10267 20231 30120 40129 85100 333 10312 29072 55105 58006;EQDQ01  00002PRCP99
0186829000999992001031712004-08040-034920FM-12+000799999V0201401N002110450019N0100001N1+02941+02141101341ADDAA199000091GF105991031021008001021001KA1240N+02171MA1999999101251MD1999999-0091REMSYN076AAXX  17124 82900 32597 51404 10294 20214 30125 40134 83220 333 20217 59009;EQDQ01  00002PRCP99
0167829000999992001031718004-08040-034920FM-12+000799999V0201801N003612200019N0100001N1+03051+02281101021ADDAA199000091GF102991021011008001021001MA1999999100931MD1999999-0081REMSYN070AAXX  17184 82900 32597 21807 10305 20228 30093 40102 82120 333 59008;EQDQ01  00002PRCP99
0198829000999992001031800004-08040-034920FM-12+000799999V0201801N004112200019N0020001N1+02731+02451101201ADDAA199000091GF104991041021008001001001KA1240M+03101MA1999999101111MD1999999-0091REMSYN088AAXX  18004 82900 32595 41808 10273 20245 30111 40120 84200 333 10310 29074 55104 59009;EQDQ01  00002PRCP99
0201829000999992001031812004-08040-034920FM-12+000799999V0201401N001510075019N0100001N1+02881+02371101181ADDAA124004191AY161061AY231061GF106991061021008001001001KA1240N+02361MA1999999101091MD1999999-0161MW1021REMSYN088AAXX  18124 82900 21597 61403 10288 20237 30109 40118 70263 86200 333 20236 59016 60044;
0167829000999992001031818004-08040-034920FM-12+000799999V0201801N004112200019N0100001N1+02961+02101100921ADDAA199000091GF102991021011008001001001MA1999999100831MD1999999-0101REMSYN070AAXX  18184 82900 32597 21808 10296 20210 30083 40092 82100 333 59010;EQDQ01  00002PRCP99
0198829000999992001031900004-08040-034920FM-12+000799999V0209999C000012200019N0020001N1+02501+02291101171ADDAA199000091GF103991031011008001001001KA1240M+03081MA1999999101081MD1999999-0031REMSYN088AAXX  19004 82900 32595 30000 10250 20229 30108 40117 83100 333 10308 29078 55095 59003;EQDQ01  00002PRCP99
0186829000999992001031912004-08040-034920FM-12+000799999V0201401N002112200019N0100001N1+02961+02071101251ADDAA199000091GF103991031021008001001001KA1240N+02141MA1999999100061MD1999999+0071REMSYN076AAXX  19124 82900 32597 31404 10296 20207 30006 40125 83200 333 20214 58007;EQDQ01  00002PRCP99
0167829000999992001031918004-08040-034920FM-12+000799999V0201401N003612200019N0100001N1+02961+02131100941ADDAA199000091GF102991021021008001001001MA1999999100851MD1999999+0021REMSYN070AAXX  19184 82900 32597 21407 10296 20213 30085 40094 82200 333 58002;EQDQ01  00002PRCP99
0198829000999992001032000004-08040-034920FM-12+000799999V0201401N001512200019N0020001N1+02711+02281101191ADDAA199000091GF102991021011008001001001KA1240M+03091MA1999999101101MD1999999+0021REMSYN088AAXX  20004 82900 32595 21403 10271 20228 30110 40119 82100 333 10309 29068 55101 58002;EQDQ01  00002PRCP99
0186829000999992001032012004-08040-034920FM-12+000799999V0201401N003110450019N0100001N1+02971+02351101521ADDAA199000091GF105991041021008001011001KA1240N+02241MA1999999101431MD1999999+0271REMSYN076AAXX  20124 82900 32597 51406 10297 20235 30143 40152 84210 333 20224 58027;EQDQ01  00002PRCP99
0167829000999992001032018004-08040-034920FM-12+000799999V0201401N003112200019N0100001N1+03031+02161101171ADDAA199000091GF103991021021008001011001MA1999999101081MD1999999+0231REMSYN070AAXX  20184 82900 32597 31406 10303 20216 30108 40117 82210 333 58023;EQDQ01  00002PRCP99
0214829000999992001032100004-08040-034920FM-12+000799999V0201401N003112200019N0020001N1+02751+02311101381ADDAA199000091GF102991999021008001001001KA1240M+03121MA1999999101291MD1999999+0191REMSYN088AAXX  21004 82900 32595 21406 10275 20231 30129 40138 83200 333 10312 29072 55105 58019;EQDQ01+000032SCOTLCQ02  00002PRCP99
0201829000999992001032112004-08040-034920FM-12+000799999V0201401N003110075019N0100001N1+02801+02381101431ADDAA124004191AY161061AY221061GF105991051021008001001001KA1240N+02421MA1999999101341MD1999999-0091MW1021REMSYN088AAXX  21124 82900 21597 51406 10280 20238 30134 40143 70262 85200 333 20242 59009 60044;
0167829000999992001032118004-08040-034920FM-12+000799999V0201401N006710450019N0100001N1+02921+02341101171ADDAA199000091GF105991031021008001021001MA1999999101081MD1999999+0001REMSYN070AAXX  21184 82900 32597 51413 10292 20234 30108 40117 83220 333 58000;EQDQ01  00002PRCP99
0213829000999992001032200004-08040-034920FM-12+000799999V0201801N001510075019N0020001N1+02661+02391101291ADDAA106000191AY151061AY221061GF106991061071008001001001KA1240M+03061MA1999999101201MD1999999-0091MW1011REMSYN100AAXX  22004 82900 21595 61803 10266 20239 30120 40129 70152 86700 333 10306 29080 55075 59009 69911;
0201829000999992001032212004-08040-034920FM-12+000799999V0201401N003110075019N0100001N1+02901+02221101161ADDAA124002091AY161061AY211061GF105991051021008001001001KA1240N+02301MA1999999101071MD1999999-0271MW1021REMSYN088AAXX  22124 82900 21597 51406 10290 20222 30107 40116 70261 85200 333 20230 59027 60024;
0167829000999992001032218004-08040-034920FM-12+000799999V0201401N001510075019N0100001N1+02951+02211100921ADDAA199000091GF105991051021008001001001MA1999999100831MD1999999-0251REMSYN070AAXX  22184 82900 32597 51403 10295 20221 30083 40092 85200 333 59025;EQDQ01  00002PRCP99
0213829000999992001032300004-08040-034920FM-12+000799999V0201401N001512200019N0020001N1+02651+02251101211ADDAA106000191AY151061AY221061GF102991021011008001001001KA1240M+03021MA1999999101121MD1999999-0081MW1011REMSYN100AAXX  23004 82900 21595 21403 10265 20225 30112 40121 70152 82100 333 10302 29072 55025 59008 69911;
0173829000999992001032312004-08040-034920FM-12+000799999V0201801N002110075019N0100001N1+02861+02331101181ADDAA124000191GF106991061021008001001001KA1240N+02161MA1999999101091MD1999999+0021REMSYN082AAXX  23124 82900 22597 61804 10286 20233 30109 40118 86200 333 20216 58002 69914;
0167829000999992001032318004-08040-034920FM-12+000799999V0201401N004110075019N0020001N1+02991+02351100851ADDAA199000091GF106991061021008001001001MA1999999100761MD1999999-0071REMSYN070AAXX  23184 82900 32595 61408 10299 20235 30076 40085 86200 333 59007;EQDQ01  00002PRCP99
0198829000999992001032400004-08040-034920FM-12+000799999V0200901N003112200019N0020001N1+02701+02241101141ADDAA199000091GF102991021011008001001001KA1240M+03081MA1999999101051MD1999999-0071REMSYN088AAXX  24004 82900 32595 20906 10270 20224 30105 40114 82100 333 10308 29074 55076 59007;EQDQ01  00002PRCP99
0186829000999992001032412004-08040-034920FM-12+000799999V0201401N003110075019N0100001N1+02991+02241101151ADDAA199000091GF105991051021008001001001KA1240N+02151MA1999999101061MD1999999-0031REMSYN076AAXX  24124 82900 32597 51406 10299 20224 30106 40115 85200 333 20215 59003;EQDQ01  00002PRCP99
0167829000999992001032418004-08040-034920FM-12+000799999V0201401N005110075019N0100001N1+02971+02251101011ADDAA199000091GF105991051031008001001001MA1999999100921MD1999999+0161REMSYN070AAXX  24184 82900 32597 51410 10297 20225 30092 40101 85300 333 58016;EQDQ01  00002PRCP99
0214829000999992001032500004-08040-034920FM-12+000799999V0201401N003119999999N0020001N1+02751+02281101251ADDAA199000091GF107991999021008001001001KA1240M+03161MA1999999101161MD1999999+0111REMSYN088AAXX  25004 82900 32595 71406 10275 20228 30116 40125 83200 333 10316 29070 55101 58011;EQDQ01+000032SCOTLCQ02  00002PRCP99
0186829000999992001032512004-08040-034920FM-12+000799999V0201401N002110450019N0100001N1+02991+02281101441ADDAA199000091GF106991031021008001021001KA1240N+02191MA1999999101351MD1999999+0181REMSYN076AAXX  25124 82900 32597 61404 10299 20228 30135 40144 83220 333 20219 58018;EQDQ01  00002PRCP99
0167829000999992001032518004-08040-034920FM-12+000799999V0201401N003612200019N0100001N1+03061+02171101171ADDAA199000091GF104991021021008001041001MA1999999101081MD1999999+0161REMSYN070AAXX  25184 82900 32597 41407 10306 20217 30108 40117 82240 333 58016;EQDQ01  00002PRCP99
0198829000999992001032600004-08040-034920FM-12+000799999V0201401N003110075019N0020001N1+02771+02381101301ADDAA199000091GF105991051021008001001001KA1240M+03141MA1999999101211MD1999999+0051REMSYN088AAXX  26004 82900 32595 51406 10277 20238 30121 40130 85200 333 10314 29063 55101 58005;EQDQ01  00002PRCP99
0201829000999992001032612004-08040-034920FM-12+000799999V0201401N002610075019N0100001N1+02851+02421101311ADDAA124007991AY161061AY221061GF106991061021008001001001KA1240N+02301MA1999999101221MD1999999-0021MW1021REMSYN088AAXX  26124 82900 21597 61405 10285 20242 30122 40131 70262 86200 333 20230 59002 60084;
0182829000999992001032618004-08040-034920FM-12+000799999V0201401N004610075019N0100001N1+02941+02431100991ADDAA106001091AY161061AY221061GF106991061071008001001001MA1999999100901MD1999999-0181MW1011REMSYN082AAXX  26184 82900 21597 61409 10294 20243 30090 40099 70162 86700 333 59018 60011;
0167829000999992001032718004-08040-034920FM-12+000799999V0201401N004612200019N0100001N1+02961+02311100961ADDAA199000091GF104991041021008001001001MA1999999100871MD1999999-0041REMSYN070AAXX  27184 82900 32597 41409 10296 20231 30087 40096 84200 333 59004;EQDQ01  00002PRCP99
0198829000999992001032800004-08040-034920FM-12+000799999V0201401N003112200019N0020001N1+02741+02381101181ADDAA199000091GF104991021021008001031001KA1240M+03101MA1999999101091MD1999999-0041REMSYN088AAXX  28004 82900 32595 41406 10274 20238 30109 40118 82230 333 10310 29075 55084 59004;EQDQ01  00002PRCP99
0201829000999992001032812004-08040-034920FM-12+000799999V0201401N003110075019N0100001N1+02911+02411101231ADDAA124004191AY161061AY221061GF106991051041008001021001KA1240N+02361MA1999999101141MD1999999-0031MW1011REMSYN088AAXX  28124 82900 21597 61406 10291 20241 30114 40123 70162 85420 333 20236 59003 60044;
0182829000999992001032818004-08040-034920FM-12+000799999V0201401N004612200019N0100001N1+03041+02261100951ADDAA106002091AY161061AY261061GF103991021021008001011001MA1999999100861MD1999999+0001MW1011REMSYN082AAXX  28184 82900 21597 31409 10304 20226 30086 40095 70166 82210 333 58000 60021;
0198829000999992001032900004-08040-034920FM-12+000799999V0201401N003110075019N0020001N1+02711+02411101171ADDAA199000091GF106991061021008001001001KA1240M+03061MA1999999101051MD1999999-0011REMSYN088AAXX  29004 82900 32595 61406 10271 20241 30105 40117 86200 333 10306 29076 55066 59001;EQDQ01  00002PRCP99
0201829000999992001032912004-08040-034920FM-12+000799999V0201401N001510075019N0100001N1+02481+02381101341ADDAA124034091AY191061AY261061GF108991081051008001999999KA1240N+02341MA1999999101251MD1999999+0111MW1031REMSYN088AAXX  29124 82900 21597 81403 10248 20238 30125 40134 70396 885// 333 20234 58011 60344;
0182829000999992001032918004-08040-034920FM-12+000799999V0209999C000010075019N0100001N1+02491+02361101211ADDAA106004191AY191061AY261061GF108991081031008001999999MA1999999101121MD1999999+0261MW1031REMSYN082AAXX  29184 82900 21597 80000 10249 20236 30112 40121 70396 883// 333 58026 60041;
0213829000999992001033000004-08040-034920FM-12+000799999V0203601N001510075019N0020001N1+02411+02371101351ADDAA106003091AY161061AY221061GF106991061021008001001001KA1240M+02771MA1999999101261MD1999999+0181MW1011REMSYN100AAXX  30004 82900 21595 63603 10241 20237 30126 40135 70162 86200 333 10277 29100 55001 58018 60031;
0201829000999992001033012004-08040-034920FM-12+000799999V0202301N002110075019N0100001N1+02631+02411101321ADDAA124007191AY161061AY261061GF108991081071008001001001KA1240N+02221MA1999999101231MD1999999-0021MW1031REMSYN088AAXX  30124 82900 21597 82304 10263 20241 30123 40132 70366 88700 333 20222 59002 60074;
0182829000999992001033018004-08040-034920FM-12+000799999V0209999C000010075019N0100001N1+02671+02501101071ADDAA106004191AY161061AY261061GF107991071061008001001001MA1999999100981MD1999999-0141MW1031REMSYN082AAXX  30184 82900 21597 70000 10267 20250 30098 40107 70366 87600 333 59014 60041;
0213829000999992001033100004-08040-034920FM-12+000799999V0203201N001510075019N0020001N1+02491+02431101191ADDAA106007191AY161061AY261061GF107991071071008001001001KA1240M+02781MA1999999101101MD1999999-0161MW1011REMSYN100AAXX  31004 82900 21595 73203 10249 20243 30110 40119 70166 87700 333 10278 29093 55007 59016 60071;
0201829000999992001033112004-08040-034920FM-12+000799999V0203201N001510120019N0020001N1+02561+02311101271ADDAA124020191AY161061AY261061GF108991081081008001999999KA1240N+02341MA1999999101181MD1999999-0051MW1031REMSYN088AAXX  31124 82900 21595 83203 10256 20231 30118 40127 70366 888// 333 20234 59005 60204;
0182829000999992001033118004-08040-034920FM-12+000799999V0201801N003110075019N0100001N1+02751+02401101061ADDAA106003091AY161061AY221061GF107991071071008001001001MA1999999100971MD1999999-0011MW1031REMSYN082AAXX  31184 82900 21597 71806 10275 20240 30097 40106 70362 87700 333 59001 60031;
0198829000999992001040100004-08040-034920FM-12+000799999V0209999C000010075019N0020001N1+02541+02421101241ADDAA199000091GF106991061021008001001001KA1240M+02851MA1999999101151MD1999999+0051REMSYN088AAXX  01004 82900 32595 60000 10254 20242 30115 40124 86200 333 10285 29088 55005 58005;EQDQ01  00002PRCP99
0201829000999992001040112004-08040-034920FM-12+000799999V0203201N001010075019N0100001N1+02561+02351101361ADDAA124007191AY161061AY221061GF107991071071008001001001KA1240N+02341MA1999999101271MD1999999+0091MW1031REMSYN088AAXX  01124 82900 21597 73202 10256 20235 30127 40136 70362 87700 333 20234 58009 60074;
0182829000999992001040118004-08040-034920FM-12+000799999V0200901N001510075019N0100001N1+02691+02281101141ADDAA106000191AY151061AY231061GF107991071051008001001001MA1999999101051MD1999999+0081MW1011REMSYN082AAXX  01184 82900 21597 70903 10269 20228 30105 40114 70153 87500 333 58008 69911;
0198829000999992001040200004-08040-034920FM-12+000799999V0209999C000012200019N0020001N1+02421+02351101311ADDAA199000091GF104991041021008001001001KA1240M+02751MA1999999101221MD1999999+0071REMSYN088AAXX  02004 82900 32595 40000 10242 20235 30122 40131 84200 333 10275 29090 55000 58007;EQDQ01  00002PRCP99
0201829000999992001040212004-08040-034920FM-12+000799999V0202301N001510450019N0100001N1+02671+02451101421ADDAA124003091AY161061AY221061GF106991041021008001021001KA1240N+02241MA1999999101331MD1999999+0061MW1021REMSYN088AAXX  02124 82900 21597 62303 10267 20245 30133 40142 70262 84220 333 20224 58006 60034;
0167829000999992001040218004-08040-034920FM-12+000799999V0201401N002110450019N0100001N1+02891+02341101191ADDAA199000091GF106991041021008001021001MA1999999101101MD1999999+0051REMSYN070AAXX  02184 82900 32597 61404 10289 20234 30110 40119 84220 333 58005;EQDQ01  00002PRCP99
0213829000999992001040300004-08040-034920FM-12+000799999V0203201N000510075019N0020001N1+02441+02351101471ADDAA106015091AY161061AY261061GF107991071071008001001001KA1240M+03011MA1999999101381MD1999999+0161MW1011REMSYN100AAXX  03004 82900 21595 73201 10244 20235 30138 40147 70166 87700 333 10301 29087 55051 58016 60151;
0201829000999992001040312004-08040-034920FM-12+000799999V0201401N004610075019N0100001N1+02861+02311101321ADDAA124015091AY161061AY261061GF106991061021008001001001KA1240N+02261MA1999999101231MD1999999-0101MW1021REMSYN088AAXX  03124 82900 21597 61409 10286 20231 30123 40132 70266 86200 333 20226 59010 60154;
0167829000999992001040318004-08040-034920FM-12+000799999V0201401N004110075019N0100001N1+02921+02271101051ADDAA199000091GF106991061021008001001001MA1999999100961MD1999999-0141REMSYN070AAXX  03184 82900 32597 61408 10292 20227 30096 40105 86200 333 59014;EQDQ01  00002PRCP99
0232829000999992001040400004-08040-034920FM-12+000799999V0209999C000012200019N0020001N1+02391+02241101311ADDAA106000191AY151061AY221061GF102991999021008001001001KA1240M+03011MA1999999101221MD1999999-0161MW1021REMSYN100AAXX  04004 82900 21595 20000 10239 20224 30122 40131 70252 85200 333 10301 29081 55082 59016 69911;EQDQ01+000052SCOTLC
0201829000999992001040412004-08040-034920FM-12+000799999V0201401N002110075019N0100001N1+02701+02371101401ADDAA124002091AY151061AY221061GF106991051071008001021001KA1240N+02121MA1999999101311MD1999999+0081MW1611REMSYN088AAXX  04124 82900 21597 61404 10270 20237 30131 40140 76152 85720 333 20212 58008 60024;
0148829000999992001040418004-08040-034920FM-12+000799999V0201401N005119999999N0100001N1+02931+02001101121ADDAA199000021GF105991051001008001061001MA1999999101031MD1999999+0071REMSYN070AAXX  04184 82900 32597 51410 10293 20200 30103 40112 85060 333 58007;
0179829000999992001040500004-08040-034920FM-12+000799999V0209999C000010075019N0020001N1+02291+02141101291ADDAA199000021GF105991051021008001001001KA1240M+02961MA1999999101201MD1999999-0021REMSYN088AAXX  05004 82900 32595 50000 10229 20214 30120 40129 85200 333 10296 29081 55045 59002;
0186829000999992001040512004-08040-034920FM-12+000799999V0201801N002110075019N0100001N1+02871+02311101361ADDAA199000091GF105991051021008001001001KA1240N+02091MA1999999101271MD1999999-0041REMSYN076AAXX  05124 82900 32597 51804 10287 20231 30127 40136 85200 333 20209 59004;EQDQ01  00002PRCP99
0167829000999992001040518004-08040-034920FM-12+000799999V0201801N005110075019N0100001N1+02981+02251101111ADDAA199000091GF105991051021008001001001MA1999999101021MD1999999-0011REMSYN070AAXX  05184 82900 32597 51810 10298 20225 30102 40111 85200 333 59001;EQDQ01  00002PRCP99
0198829000999992001040600004-08040-034920FM-12+000799999V0202701N003110075019N0020001N1+02451+02321101331ADDAA199000091GF107991071021008001001001KA1240M+03061MA1999999101241MD1999999+0041REMSYN088AAXX  06004 82900 32595 72706 10245 20232 30124 40133 87200 333 10306 29081 55101 58004;EQDQ01  00002PRCP99
0201829000999992001040612004-08040-034920FM-12+000799999V0202301N002110450019N0100001N1+02821+02331101451ADDAA124006191AY161061AY221061GF106991041021008001021001KA1240N+02201MA1999999101361MD1999999+0081MW1031REMSYN088AAXX  06124 82900 21597 62304 10282 20233 30136 40145 70362 84220 333 20220 58008 60064;
0167829000999992001040618004-08040-034920FM-12+000799999V0201801N003110450019N0100001N1+02881+02281101291ADDAA199000091GF106991041021008001021001MA1999999101201MD1999999-0071REMSYN070AAXX  06184 82900 32597 61806 10288 20228 30120 40129 84220 333 59007;EQDQ01  00002PRCP99
0198829000999992001040700004-08040-034920FM-12+000799999V0209999C000012200019N0020001N1+02551+02351101391ADDAA199000091GF102991021011008001001001KA1240M+03031MA1999999101301MD1999999+0061REMSYN088AAXX  07004 82900 32595 20000 10255 20235 30130 40139 82100 333 10303 29080 55050 58006;EQDQ01  00002PRCP99
0201829000999992001040712004-08040-034920FM-12+000799999V0201401N003610450019N0100001N1+02891+02341101521ADDAA124000591AY161061AY221061GF106991041021008001031001KA1240N+02301MA1999999101431MD1999999+0081MW1021REMSYN088AAXX  07124 82900 21597 61407 10289 20234 30143 40152 70262 84230 333 20230 58008 69954;
0167829000999992001040718004-08040-034920FM-12+000799999V0201801N005110075019N0100001N1+02971+02331101241ADDAA199000091GF106991061021008001001001MA1999999101151MD1999999-0051REMSYN070AAXX  07184 82900 32597 61810 10297 20233 30115 40124 86200 333 59005;EQDQ01  00002PRCP99
0198829000999992001040800004-08040-034920FM-12+000799999V0201801N003110075019N0020001N1+02691+02221101371ADDAA199000091GF106991061021008001001001KA1240M+03041MA1999999101281MD1999999-0021REMSYN088AAXX  08004 82900 32595 61806 10269 20222 30128 40137 86200 333 10304 29073 55085 59002;EQDQ01  00002PRCP99
0186829000999992001040812004-08040-034920FM-12+000799999V0203201N001010075019N0100001N1+02691+02371101401ADDAA199000091GF106991061021008001001001KA1240N+02201MA1999999101311MD1999999-0121REMSYN076AAXX  08124 82900 32597 63202 10269 20237 30131 40140 86200 333 20220 59012;EQDQ01  00002PRCP99
0167829000999992001040818004-08040-034920FM-12+000799999V0201801N003610075019N0100001N1+02911+02221100981ADDAA199000091GF106991061021008001001001MA1999999100891MD1999999-0261REMSYN070AAXX  08184 82900 32597 61807 10291 20222 30089 40098 86200 333 59026;EQDQ01  00002PRCP99
0198829000999992001040900004-08040-034920FM-12+000799999V0201801N003112200019N0020001N1+02711+02191101231ADDAA199000091GF104991041021008001001001KA1240M+03021MA1999999101141MD1999999-0141REMSYN088AAXX  09004 82900 32595 41806 10271 20219 30114 40123 84200 333 10302 29074 55059 59014;EQDQ01  00002PRCP99
0186829000999992001040912004-08040-034920FM-12+000799999V0201401N005110075019N0100001N1+02961+02311101191ADDAA199000091GF106991061021008001001001KA1240N+02121MA1999999101101MD1999999-0211REMSYN076AAXX  09124 82900 32597 61410 10296 20231 30110 40119 86200 333 20212 59021;EQDQ01  00002PRCP99
0167829000999992001040918004-08040-034920FM-12+000799999V0201401N004610075019N0100001N1+02901+02271100951ADDAA199000091GF106991061021008001001001MA1999999100861MD1999999-0031REMSYN070AAXX  09184 82900 32597 61409 10290 20227 30086 40095 86200 333 59003;EQDQ01  00002PRCP99
0214829000999992001041000004-08040-034920FM-12+000799999V0201801N003119999999N0020001N1+02731+02281101241ADDAA199000091GF106991999021008001001001KA1240M+03031MA1999999101151MD1999999+0011REMSYN088AAXX  10004 82900 32595 61806 10273 20228 30115 40124 83200 333 10303 29072 55062 58001;EQDQ01+000032SCOTLCQ02  00002PRCP99
0186829000999992001041012004-08040-034920FM-12+000799999V0201401N004110075019N0100001N1+02911+02121101211ADDAA199000091GF105991051021008001001001KA1240N+02201MA1999999101121MD1999999+0021REMSYN076AAXX  10124 82900 32597 51408 10291 20212 30112 40121 85200 333 20220 58002;EQDQ01  00002PRCP99
0167829000999992001041018004-08040-034920FM-12+000799999V0201401N005112200019N0100001N1+02981+02151100981ADDAA199000091GF104991041021008001001001MA1999999100891MD1999999+0021REMSYN070AAXX  10184 82900 32597 41410 10298 20215 30089 40098 84200 333 58002;EQDQ01  00002PRCP99
0198829000999992001041100004-08040-034920FM-12+000799999V0201801N001512200019N0020001N1+02691+02161101221ADDAA199000091GF102991021011008001001001KA1240M+03021MA1999999101131MD1999999-0021REMSYN088AAXX  11004 82900 32595 21803 10269 20216 30113 40122 82100 333 10302 29067 55090 59002;EQDQ01  00002PRCP99
0186829000999992001041112004-08040-034920FM-12+000799999V0202301N002110075019N0100001N1+02771+02321101411ADDAA199000091GF107991071031008001001001KA1240N+02381MA1999999101321MD1999999+0201REMSYN076AAXX  11124 82900 32597 72304 10277 20232 30132 40141 87300 333 20238 58020;EQDQ01  00002PRCP99
0182829000999992001041118004-08040-034920FM-12+000799999V0209999C000010075019N0100001N1+02671+02451101191ADDAA106002091AY161061AY221061GF107991071071008001001001MA1999999101101MD1999999+0211MW1031REMSYN082AAXX  11184 82900 21597 70000 10267 20245 30110 40119 70362 87700 333 58021 60021;
0213829000999992001041200004-08040-034920FM-12+000799999V0201801N002610075019N0020001N1+02541+02401101241ADDAA106004191AY161061AY251061GF107991071051008001001001KA1240M+02881MA1999999101151MD1999999+0021MW1011REMSYN100AAXX  12004 82900 21595 71805 10254 20240 30115 40124 70165 87500 333 10288 29087 55000 58002 60041;
0201829000999992001041212004-08040-034920FM-12+000799999V0201801N004110075019N0100001N1+02921+02321101291ADDAA124006191AY161061AY261061GF106991061021008001001001KA1240N+02321MA1999999101201MD1999999+0121MW1021REMSYN088AAXX  12124 82900 21597 61808 10292 20232 30120 40129 70266 86200 333 20232 58012 60064;
0167829000999992001041218004-08040-034920FM-12+000799999V0201401N005110075019N0100001N1+02821+02361101001ADDAA199000091GF106991061041008001001001MA1999999100911MD1999999-0191REMSYN070AAXX  12184 82900 32597 61410 10282 20236 30091 40100 86400 333 59019;EQDQ01  00002PRCP99
0198829000999992001041300004-08040-034920FM-12+000799999V0201801N002610075019N0020001N1+02691+02351101201ADDAA199000091GF106991061021008001001001KA1240M+03051MA1999999101111MD1999999-0041REMSYN088AAXX  13004 82900 32595 61805 10269 20235 30111 40120 86200 333 10305 29078 55057 59004;EQDQ01  00002PRCP99
0201829000999992001041312004-08040-034920FM-12+000799999V0201801N003110450019N0100001N1+02881+02351101341ADDAA124001091AY161061AY221061GF106991041021008001031001KA1240N+02321MA1999999101251MD1999999+0051MW1021REMSYN088AAXX  13124 82900 21597 61806 10288 20235 30125 40134 70262 84230 333 20232 58005 60014;
0167829000999992001041318004-08040-034920FM-12+000799999V0201801N004610075019N0100001N1+02901+02321100891ADDAA199000091GF106991061021008001001001MA1999999100801MD1999999-0111REMSYN070AAXX  13184 82900 32597 61809 10290 20232 30080 40089 86200 333 59011;EQDQ01  00002PRCP99
0198829000999992001041400004-08040-034920FM-12+000799999V0201401N001510075019N0020001N1+02691+02311101141ADDAA199000091GF106991061021008001001001KA1240M+02951MA1999999101051MD1999999-0061REMSYN088AAXX  14004 82900 32595 61403 10269 20231 30105 40114 86200 333 10295 29078 55068 59006;EQDQ01  00002PRCP99
0201829000999992001041412004-08040-034920FM-12+000799999V0201401N003610075019N0100001N1+02901+02301101161ADDAA124005191AY161061AY221061GF106991061021008001001001KA1240N+02301MA1999999101071MD1999999-0181MW1031REMSYN088AAXX  14124 82900 21597 61407 10290 20230 30107 40116 70362 86200 333 20230 59018 60054;
0167829000999992001041418004-08040-034920FM-12+000799999V0201401N003110450019N0100001N1+02911+02271100961ADDAA199000091GF106991041021008001031001MA1999999100871MD1999999+0071REMSYN070AAXX  14184 82900 32597 61406 10291 20227 30087 40096 84230 333 58007;EQDQ01  00002PRCP99
0198829000999992001041500004-08040-034920FM-12+000799999V0201401N002110075019N0020001N1+02711+02321101221ADDAA199000091GF106991061021008001001001KA1240M+03001MA1999999101131MD1999999+0081REMSYN088AAXX  15004 82900 32595 61404 10271 20232 30113 40122 86200 333 10300 29074 55081 58008;EQDQ01  00002PRCP99
0201829000999992001041512004-08040-034920FM-12+000799999V0202301N002110075019N0100001N1+02381+02351101501ADDAA124052191AY161061AY261061GF107991071031008001001001KA1240N+02301MA1999999101411MD1999999+0341MW1611REMSYN088AAXX  15124 82900 21597 72304 10238 20235 30141 40150 76166 87300 333 20230 58034 60524;
0182829000999992001041518004-08040-034920FM-12+000799999V0209999C000010075019N0100001N1+02431+02331101361ADDAA106007991AY161061AY261061GF108991081051008001999999MA1999999101271MD1999999+0401MW1031REMSYN082AAXX  15184 82900 21597 80000 10243 20233 30127 40136 70366 885// 333 58040 60081;
0179829000999992001041600004-08040-034920FM-12+000799999V0209999C000012200019N0020001N1+02311+02291101411ADDAA199000021GF104991041021008001001001KA1240M+02741MA1999999101321MD1999999+0191REMSYN088AAXX  16004 82900 32595 40000 10231 20229 30132 40141 84200 333 10274 29097 55000 58019;
0220829000999992001041612004-08040-034920FM-12+000799999V0202701N001019999999N0100001N1+02691+02391101531ADDAA124023991AY161061AY221061GF107991999041008001001001KA1240N+02201MA1999999101441MD1999999+0031MW1031REMSYN088AAXX  16124 82900 21597 72702 10269 20239 30144 40153 70362 80400 333 20220 58003 60244;EQDQ01+000002SCOTLC
0182829000999992001041618004-08040-034920FM-12+000799999V0201401N003610450019N0100001N1+02831+02421101301ADDAA106000391AY161061AY221061GF106991041031008001031001MA1999999101211MD1999999+0061MW1021REMSYN082AAXX  16184 82900 21597 61407 10283 20242 30121 40130 70262 84330 333 58006 69931;
0213829000999992001041700004-08040-034920FM-12+000799999V0202701N001010075019N0020001N1+02421+02371101501ADDAA106025991AY161061AY261061GF106991061071008001001001KA1240M+03021MA1999999101411MD1999999+0091MW1011REMSYN100AAXX  17004 82900 21595 62702 10242 20237 30141 40150 70166 86700 333 10302 29089 55045 58009 60261;
0201829000999992001041712004-08040-034920FM-12+000799999V0201401N001510120019N0040001N1+02401+02351101521ADDAA124071991AY161061AY261061GF108991081081008001999999KA1240N+02281MA1999999101431MD1999999-0011MW1631REMSYN088AAXX  17124 82900 21596 81403 10240 20235 30143 40152 76366 888// 333 20228 59001 60724;
0182829000999992001041718004-08040-034920FM-12+000799999V0201401N001510075019N0100001N1+02681+02241101181ADDAA106000591AY161061AY261061GF107991071051008001001001MA1999999101091MD1999999-0121MW1031REMSYN082AAXX  17184 82900 21597 71403 10268 20224 30109 40118 70366 87500 333 59012 69961;
0179829000999992001041800004-08040-034920FM-12+000799999V0209999C000010075019N0020001N1+02481+02271101401ADDAA199000021GF106991061071008001001001KA1240M+02811MA1999999101311MD1999999-0101REMSYN088AAXX  18004 82900 32595 60000 10248 20227 30131 40140 86700 333 10281 29088 55007 59010;
0201829000999992001041812004-08040-034920FM-12+000799999V0202301N001510075019N0100001N1+02581+02281101341ADDAA124000891AY161061AY221061GF107991071031008001001001KA1240N+02301MA1999999101251MD1999999-0181MW1031REMSYN088AAXX  18124 82900 21597 72303 10258 20228 30125 40134 70362 87300 333 20230 59018 69984;
0182829000999992001041818004-08040-034920FM-12+000799999V0201401N002110075019N0100001N1+02871+02261101121ADDAA106002091AY161061AY221061GF106991061021008001001001MA1999999101031MD1999999-0061MW1021REMSYN082AAXX  18184 82900 21597 61404 10287 20226 30103 40112 70262 86200 333 59006 60021;
0198829000999992001041900004-08040-034920FM-12+000799999V0209999C000012200019N0020001N1+02511+02361101241ADDAA199000091GF103991031021008001001001KA1240M+02971MA1999999101151MD1999999-0161REMSYN088AAXX  19004 82900 32595 30000 10251 20236 30115 40124 83200 333 10297 29084 55040 59016;EQDQ01  00002PRCP99
0173829000999992001041912004-08040-034920FM-12+000799999V0201801N002610075019N0100001N1+02771+02401101291ADDAA124002091GF107991061041008001021001KA1240N+02241MA1999999101201MD1999999-0051REMSYN082AAXX  19124 82900 22597 71805 10277 20240 30120 40129 86420 333 20224 59005 60024;
0167829000999992001041918004-08040-034920FM-12+000799999V0201801N003110075019N0100001N1+02821+02291101011ADDAA199000091GF106991061021008001001001MA1999999100921MD1999999-0111REMSYN070AAXX  19184 82900 32597 61806 10282 20229 30092 40101 86200 333 59011;EQDQ01  00002PRCP99
0198829000999992001042000004-08040-034920FM-12+000799999V0209999C000012200019N0020001N1+02461+02361101291ADDAA199000091GF104991041021008001001001KA1240M+02991MA1999999101201MD1999999+0041REMSYN088AAXX  20004 82900 32595 40000 10246 20236 30120 40129 84200 333 10299 29085 55067 58004;EQDQ01  00002PRCP99
0186829000999992001042012004-08040-034920FM-12+000799999V0201401N002110075019N0100001N1+02871+02351101431ADDAA199000091GF106991051041008001021001KA1240N+02201MA1999999101341MD1999999+0011REMSYN076AAXX  20124 82900 32597 61404 10287 20235 30134 40143 85420 333 20220 58001;EQDQ01  00002PRCP99
0167829000999992001042018004-08040-034920FM-12+000799999V0201401N004110075019N0100001N1+02951+02311101211ADDAA199000091GF106991051021008001031001MA1999999101121MD1999999+0201REMSYN070AAXX  20184 82900 32597 61408 10295 20231 30112 40121 85230 333 58020;EQDQ01  00002PRCP99
0198829000999992001042100004-08040-034920FM-12+000799999V0201401N001510075019N0020001N1+02721+02371101371ADDAA199000091GF106991061021008001001001KA1240M+03001MA1999999101281MD1999999+0081REMSYN088AAXX  21004 82900 32595 61403 10272 20237 30128 40137 86200 333 10300 29076 55084 58008;EQDQ01  00002PRCP99
0186829000999992001042112004-08040-034920FM-12+000799999V0201401N002610075019N0100001N1+02921+02341101561ADDAA199000091GF106991061021008001001001KA1240N+02271MA1999999101471MD1999999+0131REMSYN076AAXX  21124 82900 32597 61405 10292 20234 30147 40156 86200 333 20227 58013;EQDQ01  00002PRCP99
0157829000999992001042118004-08040-034920FM-12+000799999V0201401N005710075019N0100001N1+02851+02481101341ADDAY151061AY221061GF106991061021008001001001IA1029MA1999999101251MW1011REMSYN076AAXX  21184 82900 21597 61411 10285 20248 30125 40134 70152 86200 333 39941;
0213829000999992001042200004-08040-034920FM-12+000799999V0209999C000010075019N0020001N1+02761+02371101391ADDAA106003091AY161061AY221061GF107991071071008001001001KA1240M+03051MA1999999101301MD1999999+0021MW1011REMSYN100AAXX  22004 82900 21595 70900 10276 20237 30130 40139 70162 87700 333 10305 29086 55093 58002 60031;
0201829000999992001042212004-08040-034920FM-12+000799999V0201401N003110450019N0100001N1+02891+02351101381ADDAA124007191AY161061AY261061GF105991041041008001021001KA1240N+02261MA1999999101291MD1999999-0181MW1011REMSYN088AAXX  22124 82900 21597 51406 10289 20235 30129 40138 70166 84420 333 20226 59018 60074;
0167829000999992001042218004-08040-034920FM-12+000799999V0201401N003110075019N0100001N1+02791+02441101031ADDAA199000091GF106991061021008001001001MA1999999100941MD1999999-0311REMSYN070AAXX  22184 82900 32597 61406 10279 20244 30094 40103 86200 333 59031;EQDQ01  00002PRCP99
0198829000999992001042300004-08040-034920FM-12+000799999V0201401N003110075019N0020001N1+02711+02241101181ADDAA199000091GF105991051021008001001001KA1240M+02981MA1999999101091MD1999999-0211REMSYN088AAXX  23004 82900 32595 51406 10271 20224 30109 40118 85200 333 10298 29076 55083 59021;EQDQ01  00002PRCP99
0201829000999992001042312004-08040-034920FM-12+000799999V0201401N006210075019N0100001N1+02921+02271101351ADDAA124003091AY161061AY221061GF105991051021008001001001KA1240N+02501MA1999999101261MD1999999-0031MW1021REMSYN088AAXX  23124 82900 21597 51412 10292 20227 30126 40135 70262 85200 333 20250 59003 60034;
0167829000999992001042318004-08040-034920FM-12+000799999V0201401N005110075019N0100001N1+02921+02291101351ADDAA199000091GF105991051021008001001001MA1999999101261MD1999999+0011REMSYN070AAXX  23184 82900 32597 51410 10292 20229 30126 40135 85200 333 58001;EQDQ01  00002PRCP99
0213829000999992001042400004-08040-034920FM-12+000799999V0201401N004610075019N0020001N1+02441+02351101381ADDAA106013091AY161061AY261061GF107991071021008001001001KA1240M+03001MA1999999101291MD1999999+0201MW1601REMSYN100AAXX  24004 82900 21595 71409 10244 20235 30129 40138 76066 87200 333 10300 29082 55099 58020 60131;
0201829000999992001042412004-08040-034920FM-12+000799999V0201801N004110450019N0100001N1+02851+02481101411ADDAA124017091AY161061AY261061GF106991041021008001021001KA1240N+02341MA1999999101321MD1999999+0061MW1021REMSYN088AAXX  24124 82900 21597 61808 10285 20248 30132 40141 70266 84220 333 20234 58006 60174;
0182829000999992001042418004-08040-034920FM-12+000799999V0201801N003610450019N0100001N1+02801+02381101211ADDAA106001091AY161061AY221061GF106991041021008001041001MA1999999101121MD1999999+0171MW1021REMSYN082AAXX  24184 82900 21597 61807 10280 20238 30112 40121 70262 84240 333 58017 60011;
0213829000999992001042500004-08040-034920FM-12+000799999V0202301N001510075019N0020001N1+02471+02371101411ADDAA106004191AY161061AY221061GF107991071071008001001001KA1240M+02981MA1999999101321MD1999999+0031MW1031REMSYN100AAXX  25004 82900 21595 72303 10247 20237 30132 40141 70362 87700 333 10298 29087 55074 58003 60041;
0201829000999992001042512004-08040-034920FM-12+000799999V0201401N004610075019N0100001N1+02831+02241101531ADDAA124007991AY161061AY261061GF106991051041008001021001KA1240N+02421MA1999999101441MD1999999+0121MW1011REMSYN088AAXX  25124 82900 21597 61409 10283 20224 30144 40153 70166 85420 333 20242 58012 60084;
0182829000999992001042518004-08040-034920FM-12+000799999V0202301N003110075019N0100001N1+02741+02381101301ADDAA106002091AY161061AY261061GF106991051051008001021001MA1999999101211MD1999999+0091MW1011REMSYN082AAXX  25184 82900 21597 62306 10274 20238 30121 40130 70166 85520 333 58009 60021;
0198829000999992001042600004-08040-034920FM-12+000799999V0209999C000012200019N0020001N1+02521+02361101561ADDAA199000091GF103991031021008001001001KA1240M+02981MA1999999101471MD1999999+0151REMSYN088AAXX  26004 82900 32595 30000 10252 20236 30147 40156 83200 333 10298 29084 55056 58015;EQDQ01  00002PRCP99
0182829000999992001042618004-08040-034920FM-12+000799999V0201401N003110450019N0100001N1+02821+02401101241ADDAA106007191AY161061AY221061GF106991041021008001031001MA1999999101151MD1999999-0061MW1021REMSYN082AAXX  26184 82900 21597 61406 10282 20240 30115 40124 70262 84230 333 59006 60071;
0198829000999992001042700004-08040-034920FM-12+000799999V0209999C000010075019N0020001N1+02551+02401101321ADDAA199000091GF107991071071008001001001KA1240M+02951MA1999999101231MD1999999-0241REMSYN088AAXX  27004 82900 32595 70000 10255 20240 30123 40132 87700 333 10295 29087 55054 59024;EQDQ01  00002PRCP99
0201829000999992001042712004-08040-034920FM-12+000799999V02099999999990075019N0100001N1+02841+02331101431ADDAA124008991AY161061AY221061GF105991051021008001001001KA1240N+02301MA1999999101341MD1999999-0111MW1021REMSYN088AAXX  27124 82900 21597 5//// 10284 20233 30134 40143 70262 85200 333 20230 59011 60094;
0167829000999992001042718004-08040-034920FM-12+000799999V0201401N004612200019N0100001N1+02881+02101101151ADDAA199000091GF103991031021008001001001MA1999999101061MD1999999-0091REMSYN070AAXX  27184 82900 32597 31409 10288 20210 30106 40115 83200 333 59009;EQDQ01  00002PRCP99
0213829000999992001042800004-08040-034920FM-12+000799999V0201401N003112200019N0020001N1+02661+02331101461ADDAA106000191AY151061AY221061GF102991021011008001001001KA1240M+03001MA1999999101371MD1999999+0141MW1011REMSYN100AAXX  28004 82900 21595 21406 10266 20233 30137 40146 70152 82100 333 10300 29075 55086 58014 69911;
0201829000999992001042812004-08040-034920FM-12+000799999V0201401N003110075019N0100001N1+02471+02301101501ADDAA124007191AY161061AY261061GF108991081051008001999999KA1240N+02301MA1999999101411MD1999999+0071MW1031REMSYN088AAXX  28124 82900 21597 81406 10247 20230 30141 40150 70366 885// 333 20230 58007 60074;
0182829000999992001042818004-08040-034920FM-12+000799999V0202301N001510075019N0100001N1+02501+02341101251ADDAA106025991AY161061AY261061GF107991071071008001001001MA1999999101161MD1999999+0101MW1031REMSYN082AAXX  28184 82900 21597 72303 10250 20234 30116 40125 70366 87700 333 58010 60261;
0213829000999992001042900004-08040-034920FM-12+000799999V0202301N001010075019N0020001N1+02381+02281101451ADDAA106008991AY161061AY261061GF107991071071008001001001KA1240M+02681MA1999999101361MD1999999-0011MW1611REMSYN100AAXX  29004 82900 21595 72302 10238 20228 30136 40145 76166 87700 333 10268 29092 55000 59001 60091;
0220829000999992001042912004-08040-034920FM-12+000799999V0200901N003110075019N0100001N1+02441+02301101441ADDAA124074991AY161061AY261061GF107991999021008001001001KA1240N+02201MA1999999101351MD1999999-0061MW1031REMSYN088AAXX  29124 82900 21597 70906 10244 20230 30135 40144 70366 85200 333 20220 59006 60754;EQDQ01+000052SCOTLC
0201829000999992001042918004-08040-034920FM-12+000799999V0201801N005119999999N0100001N1+02661+02371101121ADDAA106001091AY151061AY221061GF106991999021008001001001MA1999999101031MD1999999-0131MW1011REMSYN082AAXX  29184 82900 21597 61810 10266 20237 30103 40112 70152 87200 333 59013 69991;EQDQ01+000072SCOTLC
0198829000999992001043000004-08040-034920FM-12+000799999V0201401N002612200019N0020001N1+02471+02251101321ADDAA199000091GF104991041021008001001001KA1240M+02881MA1999999101231MD1999999-0131REMSYN088AAXX  30004 82900 32595 41405 10247 20225 30123 40132 84200 333 10288 29088 55024 59013;EQDQ01  00002PRCP99
0173829000999992001043012004-08040-034920FM-12+000799999V0201801N004110075019N0100001N1+02761+02211101331ADDAA124001091GF106991061021008001001001KA1240N+02181MA1999999101241MD1999999-0111REMSYN082AAXX  30124 82900 22597 61808 10276 20221 30124 40133 86200 333 20218 59011 69994;
0167829000999992001043018004-08040-034920FM-12+000799999V0201801N005110075019N0100001N1+02901+02151101091ADDAA199000091GF106991061021008001001001MA1999999101001MD1999999-0031REMSYN070AAXX  30184 82900 32597 61810 10290 20215 30100 40109 86200 333 59003;EQDQ01  00002PRCP99
0213829000999992001050100004-08040-034920FM-12+000799999V0209999C000010075019N0020001N1+02461+02321101311ADDAA106002091AY161061AY221061GF106991061071008001001001KA1240M+02961MA1999999101221MD1999999-0011MW1011REMSYN100AAXX  01004 82900 21595 60000 10246 20232 30122 40131 70162 86700 333 10296 29080 55096 59001 60021;
0201829000999992001050112004-08040-034920FM-12+000799999V0201401N004610450019N0100001N1+02791+02271101311ADDAA124002091AY161061AY261061GF105991041041008001021001KA1240N+02101MA1999999101221MD1999999-0021MW1011REMSYN088AAXX  01124 82900 21597 51409 10279 20227 30122 40131 70166 84420 333 20210 59002 60024;
0167829000999992001050118004-08040-034920FM-12+000799999V0201801N003110075019N0100001N1+02931+02331101101ADDAA199000091GF106991061021008001001001MA1999999101011MD1999999+0011REMSYN070AAXX  01184 82900 32597 61806 10293 20233 30101 40110 86200 333 58001;EQDQ01  00002PRCP99
0198829000999992001050200004-08040-034920FM-12+000799999V0201801N001510075019N0020001N1+02511+02361101381ADDAA199000091GF107991071071008001001001KA1240M+02991MA1999999101291MD1999999+0091REMSYN088AAXX  02004 82900 32595 71803 10251 20236 30129 40138 87700 333 10299 29085 55095 58009;EQDQ01  00002PRCP99
0186829000999992001050212004-08040-034920FM-12+000799999V0201401N004110450019N0100001N1+02831+02291101471ADDAA199000091GF105991041021008001011001KA1240N+02281MA1999999101381MD1999999+0161REMSYN076AAXX  02124 82900 32597 51408 10283 20229 30138 40147 84210 333 20228 58016;EQDQ01  00002PRCP99
0167829000999992001050218004-08040-034920FM-12+000799999V0200901N002610075019N0100001N1+02881+02281101241ADDAA199000091GF105991051021008001001001MA1999999101151MD1999999+0141REMSYN070AAXX  02184 82900 32597 50905 10288 20228 30115 40124 85200 333 58014;EQDQ01  00002PRCP99
0186829000999992001050312004-08040-034920FM-12+000799999V0201801N004110075019N0100001N1+02801+02381101411ADDAA199000091GF107991071041008001001001KA1240N+02301MA1999999101321MD1999999-0061REMSYN076AAXX  03124 82900 32597 71808 10280 20238 30132 40141 87400 333 20230 59006;EQDQ01  00002PRCP99
0213829000999992001050400004-08040-034920FM-12+000799999V0202701N001510075019N0020001N1+02531+02381101381ADDAA106004191AY161061AY221061GF106991061051008001001001KA1240M+02931MA1999999101291MD1999999-0081MW1011REMSYN100AAXX  04004 82900 21595 62703 10253 20238 30129 40138 70162 86500 333 10293 29083 55057 59008 60041;
0201829000999992001050412004-08040-034920FM-12+000799999V0201801N002610075019N0100001N1+02581+02371101331ADDAA124020191AY161061AY261061GF107991071071008001001001KA1240N+02281MA1999999101241MD1999999-0081MW1031REMSYN088AAXX  04124 82900 21597 71805 10258 20237 30124 40133 70366 87700 333 20228 59008 60204;
0182829000999992001050418004-08040-034920FM-12+000799999V0201401N004110075019N0100001N1+02861+02231101011ADDAA106007191AY161061AY221061GF106991051041008001021001MA1999999100921MD1999999-0131MW1011REMSYN082AAXX  04184 82900 21597 61408 10286 20223 30092 40101 70162 85420 333 59013 60071;
0198829000999992001050500004-08040-034920FM-12+000799999V0203201N001510075019N0020001N1+02411+02351101361ADDAA199000091GF106991051071008001021001KA1240M+02901MA1999999101271MD1999999-0021REMSYN088AAXX  05004 82900 32595 63203 10241 20235 30127 40136 85720 333 10290 29088 55028 59002;EQDQ01  00002PRCP99
0173829000999992001050512004-08040-034920FM-12+000799999V0201401N004612200019N0100001N1+02771+02341101361ADDAA124007191GF104991031021008001031001KA1240N+02221MA1999999101271MD1999999+0031REMSYN082AAXX  05124 82900 22597 41409 10277 20234 30127 40136 83230 333 20222 58003 60074;
0167829000999992001050518004-08040-034920FM-12+000799999V0201401N003110450019N0100001N1+02821+02361101101ADDAA199000091GF106991041041008001031001MA1999999101011MD1999999+0091REMSYN070AAXX  05184 82900 32597 61406 10282 20236 30101 40110 84430 333 58009;EQDQ01  00002PRCP99
0213829000999992001050600004-08040-034920FM-12+000799999V0200501N001010075019N0020001N1+02471+02361101341ADDAA106003091AY161061AY261061GF108991081051008001999999KA1240M+02971MA1999999101251MD1999999-0021MW1611REMSYN100AAXX  06004 82900 21595 80502 10247 20236 30125 40134 76166 885// 333 10297 29083 55056 59002 60031;
0201829000999992001050612004-08040-034920FM-12+000799999V0201401N003110075019N0100001N1+02881+02321101321ADDAA124009991AY161061AY261061GF105991051021008001001001KA1240N+02261MA1999999101231MD1999999-0041MW1021REMSYN088AAXX  06124 82900 21597 51406 10288 20232 30123 40132 70266 85200 333 20226 59004 60104;
0167829000999992001050618004-08040-034920FM-12+000799999V0201401N003110075019N0020001N1+02901+02341101021ADDAA199000091GF105991051021008001001001MA1999999100931MD1999999-0071REMSYN070AAXX  06184 82900 32595 51406 10290 20234 30093 40102 85200 333 59007;EQDQ01  00002PRCP99
0214829000999992001050700004-08040-034920FM-12+000799999V0201401N001012200019N0020001N1+02651+02331101241ADDAA199000091GF102991999021008001001001KA1240M+02971MA1999999101151MD1999999-0101REMSYN088AAXX  07004 82900 32595 21402 10265 20233 30115 40124 83200 333 10297 29078 55085 59010;EQDQ01+000032SCOTLCQ02  00002PRCP99
0186829000999992001050712004-08040-034920FM-12+000799999V0201401N004110450019N0100001N1+02881+02411101351ADDAA199000091GF105991041041008001021001KA1240N+02201MA1999999101261MD1999999+0031REMSYN076AAXX  07124 82900 32597 51408 10288 20241 30126 40135 84420 333 20220 58003;EQDQ01  00002PRCP99
0167829000999992001050718004-08040-034920FM-12+000799999V0201401N002612200019N0100001N1+02981+02401100921ADDAA199000091GF104991031021008001011001MA1999999100831MD1999999-0101REMSYN070AAXX  07184 82900 32597 41405 10298 20240 30083 40092 83210 333 59010;EQDQ01  00002PRCP99
0198829000999992001050800004-08040-034920FM-12+000799999V0200901N001010075019N0020001N1+02671+02461101211ADDAA199000091GF106991061021008001001001KA1240M+03061MA1999999101121MD1999999-0031REMSYN088AAXX  08004 82900 32595 60902 10267 20246 30112 40121 86200 333 10306 29081 55102 59003;EQDQ01  00002PRCP99
0186829000999992001050812004-08040-034920FM-12+000799999V0200901N002110075019N0100001N1+02781+02381101331ADDAA199000091GF107991071031008001001001KA1240N+02221MA1999999101241MD1999999-0021REMSYN076AAXX  08124 82900 32597 70904 10278 20238 30124 40133 87300 333 20222 59002;EQDQ01  00002PRCP99
0167829000999992001050818004-08040-034920FM-12+000799999V0200901N002110450019N0100001N1+02881+02411101071ADDAA199000091GF106991041021008001021001MA1999999100981MD1999999+0151REMSYN070AAXX  08184 82900 32597 60904 10288 20241 30098 40107 84220 333 58015;EQDQ01  00002PRCP99
0198829000999992001050900004-08040-034920FM-12+000799999V0209999C000012200019N0020001N1+02661+02411101161ADDAA199000091GF104991041021008001001001KA1240M+03021MA1999999101071MD1999999-0051REMSYN088AAXX  09004 82900 32595 40000 10266 20241 30107 40116 84200 333 10302 29082 55049 59005;EQDQ01  00002PRCP99
0186829000999992001050912004-08040-034920FM-12+000799999V0200901N002610075019N0100001N1+02821+02381101241ADDAA199000091GF106991061021008001001001KA1240N+02221MA1999999101151MD1999999-0091REMSYN076AAXX  09124 82900 32597 60905 10282 20238 30115 40124 86200 333 20222 59009;EQDQ01  00002PRCP99
0167829000999992001050918004-08040-034920FM-12+000799999V0200901N002612200019N0100001N1+02891+02321100981ADDAA199000091GF103991021021008001021001MA1999999100891MD1999999+0091REMSYN070AAXX  09184 82900 32597 30905 10289 20232 30089 40098 82220 333 58009;EQDQ01  00002PRCP99
0198829000999992001051000004-08040-034920FM-12+000799999V0200901N001512200019N0020001N1+02651+02331101111ADDAA199000091GF103991031041008001001001KA1240M+02971MA1999999101021MD1999999-0051REMSYN088AAXX  10004 82900 32595 30903 10265 20233 30102 40111 83400 333 10297 29078 55081 59005;EQDQ01  00002PRCP99
0186829000999992001051012004-08040-034920FM-12+000799999V0201401N001510075019N0100001N1+02931+02361101301ADDAA199000091GF106991051041008001021001KA1240N+02201MA1999999101211MD1999999+0061REMSYN076AAXX  10124 82900 32597 61403 10293 20236 30121 40130 85420 333 20220 58006;EQDQ01  00002PRCP99
0167829000999992001051018004-08040-034920FM-12+000799999V0201401N002112200019N0100001N1+02971+02251100981ADDAA199000091GF104991021021008001021001MA1999999100891MD1999999+0001REMSYN070AAXX  10184 82900 32597 41404 10297 20225 30089 40098 82220 333 58000;EQDQ01  00002PRCP99
0208829000999992001051100004-08040-034920FM-12+000799999V0201401N001012200019N0020001N1+02641+02271101211ADDAA199000091GA1001+999999999GF100991001001999999001001KA1240M+03041MA1999999101121MD1999999+0101REMSYN082AAXX  11004 82900 32995 01402 10264 20227 30112 40121 333 10304 29074 55092 58010;EQDQ01  00002PRCP99
0186829000999992001051112004-08040-034920FM-12+000799999V0200901N002110450019N0100001N1+02801+02441101341ADDAA199000091GF105991041041008001021001KA1240N+02201MA1999999101251MD1999999+0041REMSYN076AAXX  11124 82900 32597 50904 10280 20244 30125 40134 84420 333 20220 58004;EQDQ01  00002PRCP99
0167829000999992001051118004-08040-034920FM-12+000799999V0201401N003112200019N0100001N1+02951+02191101001ADDAA199000091GF102991021061008001001001MA1999999100911MD1999999+0021REMSYN070AAXX  11184 82900 32597 21406 10295 20219 30091 40100 82600 333 58002;EQDQ01  00002PRCP99
0208829000999992001051200004-08040-034920FM-12+000799999V0209999C000012200019N0020001N1+02581+02311101361ADDAA199000091GA1001+999999999GF100991001001999999001001KA1240M+03041MA1999999101271MD1999999+0151REMSYN082AAXX  12004 82900 32995 00000 10258 20231 30127 40136 333 10304 29079 55097 58015;EQDQ01  00002PRCP99
0186829000999992001051212004-08040-034920FM-12+000799999V0200901N002110075019N0100001N1+02821+02401101481ADDAA199000091GF106991061021008001001001KA1240N+02121MA1999999101391MD1999999+0141REMSYN076AAXX  12124 82900 32597 60904 10282 20240 30139 40148 86200 333 20212 58014;EQDQ01  00002PRCP99
0167829000999992001051218004-08040-034920FM-12+000799999V0200901N003112200019N0100001N1+02961+02381101201ADDAA199000091GF104991041011008001001001MA1999999101111MD1999999+0201REMSYN070AAXX  12184 82900 32597 40906 10296 20238 30111 40120 84100 333 58020;EQDQ01  00002PRCP99
0198829000999992001051300004-08040-034920FM-12+000799999V0200901N003110075019N0020001N1+02721+02431101431ADDAA199000091GF106991061021008001001001KA1240M+03041MA1999999101341MD1999999+0071REMSYN088AAXX  13004 82900 32595 60906 10272 20243 30134 40143 86200 333 10304 29079 55089 58007;EQDQ01  00002PRCP99
0186829000999992001051312004-08040-034920FM-12+000799999V0200901N001510075019N0100001N1+02901+02111101591ADDAA199000091GF105991051021008001001001KA1240N+02281MA1999999101501MD1999999+0111REMSYN076AAXX  13124 82900 32597 50903 10290 20211 30150 40159 85200 333 20228 58011;EQDQ01  00002PRCP99
0167829000999992001051318004-08040-034920FM-12+000799999V0200901N001510075019N0100001N1+02911+02361101321ADDAA199000091GF106991061021008001001001MA1999999101231MD1999999+0121REMSYN070AAXX  13184 82900 32597 60903 10291 20236 30123 40132 86200 333 58012;EQDQ01  00002PRCP99
0214829000999992001051400004-08040-034920FM-12+000799999V0200901N002112200019N0020001N1+02691+02261101391ADDAA199000091GF102991999021008001001001KA1240M+03051MA1999999101301MD1999999-0041REMSYN088AAXX  14004 82900 32595 20904 10269 20226 30130 40139 83200 333 10305 29076 55082 59004;EQDQ01+000032SCOTLCQ02  00002PRCP99
0186829000999992001051412004-08040-034920FM-12+000799999V0200901N004110450019N0100001N1+02821+02331101541ADDAA199000091GF105991041021008001051001KA1240N+02181MA1999999101451MD1999999-0051REMSYN076AAXX  14124 82900 32597 50908 10282 20233 30145 40154 84250 333 20218 59005;EQDQ01  00002PRCP99
0167829000999992001051418004-08040-034920FM-12+000799999V0200901N002610075019N0100001N1+02871+02231101301ADDAA199000091GF106991061041008001021001MA1999999101211MD1999999-0021REMSYN070AAXX  14184 82900 32597 60905 10287 20223 30121 40130 86420 333 59002;EQDQ01  00002PRCP99
0198829000999992001051500004-08040-034920FM-12+000799999V0209999C000010075019N0020001N1+02461+02281101381ADDAA199000091GF105991051021008001001001KA1240M+03001MA1999999101291MD1999999-0011REMSYN088AAXX  15004 82900 32595 50000 10246 20228 30129 40138 85200 333 10300 29081 55083 59001;EQDQ01  00002PRCP99
0186829000999992001051512004-08040-034920FM-12+000799999V0201401N004610075019N0100001N1+02861+02161101431ADDAA199000091GF106991061021008001001001KA1240N+02021MA1999999101341MD1999999-0111REMSYN076AAXX  15124 82900 32597 61409 10286 20216 30134 40143 86200 333 20202 59011;EQDQ01  00002PRCP99
0214829000999992001051600004-08050-034920FM-12+000799999V0209999C000012200019N0020001N1+02391+02231101181ADDAA199000091GF102991999011008001001001KA1240M+03011MA1999999101091MD1999999-0201REMSYN088AAXX  16004 82900 32595 20000 10239 20223 30109 40118 85100 333 10301 29078 55095 59020;EQDQ01+000052SCOTLCQ02  00002PRCP99
0201829000999992001051612004-08050-034920FM-12+000799999V0201401N005110075019N0100001N1+02871+02321101401ADDAA124000591AY161061AY221061GF106991061021008001001001KA1240N+02181MA1999999101311MD1999999+0031MW1031REMSYN088AAXX  16124 82900 21597 61410 10287 20232 30131 40140 70362 86200 333 20218 58003 69954;
0198829000999992001051700004-08040-034920FM-12+000799999V0201401N001512200019N0020001N1+02631+02311101441ADDAA199000091GF103991031021008001001001KA1240M+02961MA1999999101351MD1999999+0261REMSYN088AAXX  17004 82900 32595 31403 10263 20231 30135 40144 83200 333 10296 29077 55085 58026;EQDQ01  00002PRCP99
0186829000999992001051712004-08040-034920FM-12+000799999V0200901N002110075019N0100001N1+02851+02171101531ADDAA199000091GF105991051021008001001001KA1240N+02151MA1999999101441MD1999999+0131REMSYN076AAXX  17124 82900 32597 50904 10285 20217 30144 40153 85200 333 20215 58013;EQDQ01  00002PRCP99
0167829000999992001051718004-08040-034920FM-12+000799999V0201401N002112200019N0100001N1+02861+02141101321ADDAA199000091GF102991021021008001001001MA1999999101231MD1999999+0111REMSYN070AAXX  17184 82900 32597 21404 10286 20214 30123 40132 82200 333 58011;EQDQ01  00002PRCP99
0208829000999992001051800004-08040-034920FM-12+000799999V0201401N001012200019N0020001N1+02581+02191101521ADDAA199000091GA1001+999999999GF100991001001999999001001KA1240M+03071MA1999999101431MD1999999+0081REMSYN082AAXX  18004 82900 32995 01402 10258 20219 30143 40152 333 10307 29072 55093 58008;EQDQ01  00002PRCP99
0186829000999992001051812004-08040-034920FM-12+000799999V0200901N002110075019N0100001N1+02821+02241101561ADDAA199000091GF106991061021008001001001KA1240N+02031MA1999999101471MD1999999+0031REMSYN076AAXX  18124 82900 32597 60904 10282 20224 30147 40156 86200 333 20203 58003;EQDQ01  00002PRCP99
0167829000999992001051818004-08040-034920FM-12+000799999V0201401N003612200019N0100001N1+02821+02171101211ADDAA199000091GF104991041021008001001001MA1999999101121MD1999999-0111REMSYN070AAXX  18184 82900 32597 41407 10282 20217 30112 40121 84200 333 59011;EQDQ01  00002PRCP99
0198829000999992001051900004-08040-034920FM-12+000799999V0201401N001512200019N0020001N1+02661+02221101431ADDAA199000091GF102991021011008001001001KA1240M+02961MA1999999101341MD1999999-0091REMSYN088AAXX  19004 82900 32595 21403 10266 20222 30134 40143 82100 333 10296 29073 55088 59009;EQDQ01  00002PRCP99
0186829000999992001051912004-08040-034920FM-12+000799999V0200501N001510075019N0100001N1+02781+02231101411ADDAA199000091GF106991061021008001001001KA1240N+02161MA1999999101341MD1999999-0151REMSYN076AAXX  19124 82900 32597 60503 10278 20223 30134 40141 86200 333 20216 59015;EQDQ01  00002PRCP99
0167829000999992001051918004-08040-034920FM-12+000799999V0200901N002112200019N0100001N1+02891+02231100991ADDAA199000091GF102991021011008001001001MA1999999100901MD1999999-0221REMSYN070AAXX  19184 82900 32597 20904 10289 20223 30090 40099 82100 333 59022;EQDQ01  00002PRCP99
0198829000999992001052000004-08040-034920FM-12+000799999V0200501N001510075019N0020001N1+02691+02281101381ADDAA199000091GF106991061021008001001001KA1240M+03001MA1999999101291MD1999999-0051REMSYN088AAXX  20004 82900 32595 60503 10269 20228 30129 40138 86200 333 10300 29074 55092 59005;EQDQ01  00002PRCP99
0186829000999992001052012004-08040-034920FM-12+000799999V0200901N002110075019N0100001N1+02811+02221101411ADDAA199000091GF105991051021008001001001KA1240N+02251MA1999999101321MD1999999+0001REMSYN076AAXX  20124 82900 32597 50904 10281 20222 30132 40141 85200 333 20225 58000;EQDQ01  00002PRCP99
0167829000999992001052018004-08040-034920FM-12+000799999V0201401N002112200019N0100001N1+02941+02081101101ADDAA199000091GF101991011011008001001001MA1999999101011MD1999999+0111REMSYN070AAXX  20184 82900 32597 11404 10294 20208 30101 40110 81100 333 58011;EQDQ01  00002PRCP99
0208829000999992001052100004-08040-034920FM-12+000799999V0202301N001512200019N0020001N1+02491+02151101311ADDAA199000091GA1001+999999999GF100991001001999999001001KA1240M+03031MA1999999101221MD1999999-0071REMSYN082AAXX  21004 82900 32995 02303 10249 20215 30122 40131 333 10303 29074 55091 59007;EQDQ01  00002PRCP99
0186829000999992001052112004-08040-034920FM-12+000799999V0201801N004612200019N0100001N1+02861+02231101721ADDAA199000091GF104991041021008001001001KA1240N+02201MA1999999101631MD1999999+0051REMSYN076AAXX  21124 82900 32597 41809 10286 20223 30163 40172 84200 333 20220 58005;EQDQ01  00002PRCP99
0167829000999992001052118004-08040-034920FM-12+000799999V0201801N005112200019N0100001N1+02921+02011101111ADDAA199000091GF102991021021008001001001MA1999999101021MD1999999+0011REMSYN070AAXX  21184 82900 32597 21810 10292 20201 30102 40111 82200 333 58001;EQDQ01  00002PRCP99
0214829000999992001052200004-08040-034920FM-12+000799999V0202301N003012200019N0020001N1+02591+02101101301ADDAA199000091GF102991999021008001001001KA1240M+03031MA1999999101211MD1999999-0011REMSYN088AAXX  22001 82900 32595 22303 10259 20210 30121 40130 83200 333 10303 29069 55105 59001;EQDQ01+000032SCOTLCQ02  00002PRCP99
0186829000999992001052212004-08040-034920FM-12+000799999V0201801N002110075019N0100001N1+02821+02121101411ADDAA199000091GF105991051021008001001001KA1240N+02061MA1999999101321MD1999999-0051REMSYN076AAXX  22124 82900 32597 51804 10282 20212 30132 40141 85200 333 20206 59005;EQDQ01  00002PRCP99
0167829000999992001052218004-08040-034920FM-12+000799999V0201801N005112200019N0100001N1+02921+02081101201ADDAA199000091GF104991041021008001001001MA1999999101111MD1999999+0091REMSYN070AAXX  22184 82900 32597 41810 10292 20208 30111 40120 84200 333 58009;EQDQ01  00002PRCP99
0198829000999992001052300004-08040-034920FM-12+000799999V0201801N003012200019N0020001N1+02641+02141101371ADDAA199000091GF102991021011008001001001KA1240M+03031MA1999999101281MD1999999+0071REMSYN088AAXX  23000 82900 32595 21803 10264 20214 30128 40137 82100 333 10303 29069 55101 58007;EQDQ01  00002PRCP99
0186829000999992001052312004-08040-034920FM-12+000799999V0201401N001510075019N0100001N1+02761+02231101481ADDAA199000091GF106991061021008001001001KA1240N+02121MA1999999101391MD1999999+0071REMSYN076AAXX  23124 82900 32597 61403 10276 20223 30139 40148 86200 333 20212 58007;EQDQ01  00002PRCP99
0167829000999992001052318004-08040-034920FM-12+000799999V0201401N004110075019N0100001N1+02831+02151101181ADDAA199000091GF105991051021008001001001MA1999999101091MD1999999-0021REMSYN070AAXX  23184 82900 32597 51408 10283 20215 30109 40118 85200 333 59002;EQDQ01  00002PRCP99
0213829000999992001052400004-08040-034920FM-12+000799999V0202301N000510075019N0020001N1+02551+02271101421ADDAA106000191AY151061AY221061GF106991061021008001001001KA1240M+03001MA1999999101331MD1999999+0051MW1011REMSYN100AAXX  24004 82900 21595 62301 10255 20227 30133 40142 70152 86200 333 10300 29078 55093 58005 69911;
0201829000999992001052412004-08040-034920FM-12+000799999V0201801N001012200019N0100001N1+02661+02431101591ADDAA124008991AY161061AY221061GF104991041021008001001001KA1240N+02201MA1999999101501MD1999999+0111MW1021REMSYN088AAXX  24124 82900 21597 41802 10266 20243 30150 40159 70262 84200 333 20220 58011 60094;
0167829000999992001052418004-08040-034920FM-12+000799999V0201401N003610075019N0100001N1+02881+02321101331ADDAA199000091GF106991061021008001001001MA1999999101241MD1999999+0151REMSYN070AAXX  24184 82900 32597 61407 10288 20232 30124 40133 86200 333 58015;EQDQ01  00002PRCP99
0198829000999992001052500004-08040-034920FM-12+000799999V0201401N003110075019N0020001N1+02651+02251101421ADDAA199000091GF106991061021008001001001KA1240M+02951MA1999999101331MD1999999+0001REMSYN088AAXX  25004 82900 32595 61406 10265 20225 30133 40142 86200 333 10295 29079 55051 58000;EQDQ01  00002PRCP99
0186829000999992001052512004-08040-034920FM-12+000799999V0203201N001010075019N0100001N1+02681+02331101621ADDAA199000091GF106991051041008001021001KA1240N+02261MA1999999101531MD1999999+0031REMSYN076AAXX  25124 82900 32597 63202 10268 20233 30153 40162 85420 333 20226 58003;EQDQ01  00002PRCP99
0167829000999992001052518004-08040-034920FM-12+000799999V0201401N004110075019N0100001N1+02851+02291101281ADDAA199000091GF106991051061008001021001MA1999999101191MD1999999-0051REMSYN070AAXX  25184 82900 32597 61408 10285 20229 30119 40128 85620 333 59005;EQDQ01  00002PRCP99
0213829000999992001052600004-08040-034920FM-12+000799999V0209999C000010075019N0020001N1+02511+02311101471ADDAA106000391AY151061AY221061GF106991061021008001001001KA1240M+02981MA1999999101381MD1999999+0051MW1011REMSYN100AAXX  26004 82900 21595 60000 10251 20231 30138 40147 70152 86200 333 10298 29082 55045 58005 69931;
0201829000999992001052612004-08040-034920FM-12+000799999V0201401N003610075019N0100001N1+02781+02211101411ADDAA124003091AY161061AY261061GF106991061021008001001001KA1240N+02201MA1999999101321MD1999999-0211MW1021REMSYN088AAXX  26124 82900 21597 61407 10278 20221 30132 40141 70266 86200 333 20220 59021 60034;
0167829000999992001052618004-08040-034920FM-12+000799999V0201401N003110075019N0100001N1+02891+02231101091ADDAA199000091GF106991061021008001001001MA1999999101001MD1999999-0191REMSYN070AAXX  26184 82900 32597 61406 10289 20223 30100 40109 86200 333 59019;EQDQ01  00002PRCP99
0198829000999992001052700004-08040-034920FM-12+000799999V0209999C000012200019N0020001N1+02281+02161101331ADDAA199000091GF102991021011008001001001KA1240M+02971MA1999999101241MD1999999-0141REMSYN088AAXX  27004 82900 32595 20000 10228 20216 30124 40133 82100 333 10297 29081 55097 59014;EQDQ01  00002PRCP99
0174829000999992001052712004-08040-034920FM-12+000799999V0201801N002119999999N0100001N1+02801+02251101491ADDAA199000091GF105991999011008001001001MA1999999101401REMSYN075AAXX  27124 82900 32597 51804 10280 20225 30140 40149 82100 333 2099 58008;EQDQ01+000022SCOTLCQ02  00002PRCP99
0167829000999992001052718004-08040-034920FM-12+000799999V0201401N003610075019N0100001N1+02821+02151101191ADDAA199000091GF105991051021008001001001MA1999999101101MD1999999+0101REMSYN070AAXX  27184 82900 32597 51407 10282 20215 30110 40119 85200 333 58010;EQDQ01  00002PRCP99
0198829000999992001052800004-08040-034920FM-12+000799999V0201401N002112200019N0020001N1+02681+02241101411ADDAA199000091GF104991041021008001001001KA1240M+02991MA1999999101321MD1999999+0081REMSYN088AAXX  28004 82900 32595 41404 10268 20224 30132 40141 84200 333 10299 29073 55081 58008;EQDQ01  00002PRCP99
0186829000999992001052812004-08040-034920FM-12+000799999V0200901N001010075019N0100001N1+02881+02251101501ADDAA199000091GF106991051041008001021001KA1240N+02061MA1999999101411MD1999999+0011REMSYN076AAXX  28124 82900 32597 60902 10288 20225 30141 40150 85420 333 20206 58001;EQDQ01  00002PRCP99
0167829000999992001052818004-08040-034920FM-12+000799999V0201401N003112200019N0100001N1+02911+02321101301ADDAA199000091GF104991041021008001001001MA1999999101211MD1999999+0111REMSYN070AAXX  28184 82900 32597 41406 10291 20232 30121 40130 84200 333 58011;EQDQ01  00002PRCP99
0198829000999992001052900004-08040-034920FM-12+000799999V0201401N001512200019N0020001N1+02641+02291101431ADDAA199000091GF102991021011008001001001KA1240M+03031MA1999999101341MD1999999+0021REMSYN088AAXX  29004 82900 32595 21403 10264 20229 30134 40143 82100 333 10303 29075 55098 58002;EQDQ01  00002PRCP99
0201829000999992001052912004-08040-034920FM-12+000799999V0201401N003110075019N0100001N1+02851+02291101521ADDAA124000191AY151061AY221061GF106991061051008001001001KA1240N+02361MA1999999101431MD1999999+0021MW1011REMSYN088AAXX  29124 82900 21597 61406 10285 20229 30143 40152 70152 86500 333 20236 58002 69924;
0167829000999992001052918004-08040-034920FM-12+000799999V0201401N002112200019N0100001N1+02941+02151101281ADDAA199000091GF102991021021008001001001MA1999999101191MD1999999+0021REMSYN070AAXX  29184 82900 32597 21404 10294 20215 30119 40128 82200 333 58002;EQDQ01  00002PRCP99
0198829000999992001053000004-08040-034920FM-12+000799999V0201401N001512200019N0020001N1+02631+02311101551ADDAA199000091GF104991041021008001001001KA1240M+03041MA1999999101461MD1999999+0121REMSYN088AAXX  30004 82900 32595 41403 10263 20231 30146 40155 84200 333 10304 29076 55081 58012;EQDQ01  00002PRCP99
0148829000999992001053018004-08040-034920FM-12+000799999V0202701N001519999999N0100001N1+02581+02331101281ADDGF106991999999008001999999MA1999999101191MD1999999+0001REMSYN081AAXX  30184 82900 21597 62703 10258 20233 30119 40128 7066 86400 333 58000 60021;
0198829000999992001053100004-08040-034920FM-12+000799999V0201401N000510075019N0020001N1+02611+02371101461ADDAA199000091GF107991071071008001001001KA1240M+02921MA1999999101371MD1999999-0091REMSYN088AAXX  31004 82900 32595 71401 10261 20237 30137 40146 87700 333 10292 29084 55080 59009;EQDQ01  00002PRCP99
0173829000999992001053112004-08040-034920FM-12+000799999V0201401N001510075019N0100001N1+02791+02311101481ADDAA124002091GF106991051041008001021001KA1240N+02161MA1999999101391MD1999999-0071REMSYN082AAXX  31124 82900 22597 61403 10279 20231 30139 40148 85420 333 20216 59007 60024;
0167829000999992001053118004-08040-034920FM-12+000799999V0201401N004110075019N0100001N1+02811+02311101161ADDAA199000091GF107991061051008001021001MA1999999101071MD1999999-0021REMSYN070AAXX  31184 82900 32597 71408 10281 20231 30107 40116 86520 333 59002;EQDQ01  00002PRCP99
0213829000999992001060100004-08040-034920FM-12+000799999V0209999C000010075019N0020001N1+02361+02311101401ADDAA106004191AY161061AY221061GF106991061021008001001001KA1240M+02921MA1999999101311MD1999999-0061MW1011REMSYN100AAXX  01004 82900 21595 60000 10236 20231 30131 40140 70162 86200 333 10292 29086 55051 59006 60041;
0201829000999992001060112004-08040-034920FM-12+000799999V0202301N001010075019N0040001N1+02461+02361101481ADDAA124025991AY161061AY221061GF108991081071008001999999KA1240N+02221MA1999999101391MD1999999+0001MW1621REMSYN088AAXX  01124 82900 21596 82302 10246 20236 30139 40148 76262 887// 333 20222 58000 60264;
0182829000999992001060118004-08040-034920FM-12+000799999V0201401N002610075019N0100001N1+02581+02381101261ADDAA124013091AY161061AY261061GF107991061041008001031001MA1999999101171MD1999999+0101MW1031REMSYN082AAXX  01184 82900 21597 71405 10258 20238 30117 40126 70366 86430 333 58010 60134;
0213829000999992001060200004-08040-034920FM-12+000799999V0201801N000512200019N0020001N1+02251+02171101561ADDAA106002091AY161061AY221061GF102991021011008001001001KA1240M+02761MA1999999101471MD1999999+0161MW1011REMSYN100AAXX  02004 82900 21595 21801 10225 20217 30147 40156 70162 82100 333 10276 29094 55011 58016 60021;
0201829000999992001060212004-08040-034920FM-12+000799999V0201801N001510450019N0100001N1+02691+02411101461ADDAA124016091AY161061AY221061GF105991041041008001021001KA1240N+02061MA1999999101371MD1999999-0021MW1011REMSYN088AAXX  02124 82900 21597 51803 10269 20241 30137 40146 70162 84420 333 20206 59002 60164;
0167829000999992001060218004-08040-034920FM-12+000799999V0201401N004612200019N0100001N1+02871+02161101251ADDAA199000091GF104991041011008001001001MA1999999101161MD1999999-0011REMSYN070AAXX  02184 82900 32597 41409 10287 20216 30116 40125 84100 333 59001;EQDQ01  00002PRCP99
0198829000999992001060300004-08040-034920FM-12+000799999V0209999C000012200019N0020001N1+02281+02181101441ADDAA199000091GF102991021011008001001001KA1240M+02951MA1999999101351MD1999999-0121REMSYN088AAXX  03004 82900 32595 20000 10228 20218 30135 40144 82100 333 10295 29085 55084 59012;EQDQ01  00002PRCP99
0201829000999992001060312004-08040-034920FM-12+000799999V0200901N002110075019N0100001N1+02521+02361101511ADDAA124017091AY161061AY221061GF107991071041008001001001KA1240N+02101MA1999999101421MD1999999+0041MW1021REMSYN088AAXX  03124 82900 21597 70904 10252 20236 30142 40151 70262 87400 333 20210 58004 60174;
0167829000999992001060318004-08040-034920FM-12+000799999V0201401N005110075019N0100001N1+02851+02331101211ADDAA199000091GF106991061021008001001001MA1999999101121MD1999999-0041REMSYN070AAXX  03184 82900 32597 61410 10285 20233 30112 40121 86200 333 59004;EQDQ01  00002PRCP99
0198829000999992001060400004-08040-034920FM-12+000799999V0201801N001512200019N0020001N1+02621+02251101451ADDAA199000091GF103991031021008001001001KA1240M+02951MA1999999101361MD1999999+0011REMSYN088AAXX  04004 82900 32595 31803 10262 20225 30136 40145 83200 333 10295 29081 55067 58001;EQDQ01  00002PRCP99
0201829000999992001060412004-08040-034920FM-12+000799999V0201401N004610075019N0100001N1+02831+02221101491ADDAA124001091AY151061AY221061GF106991051051008001021001KA1240N+02161MA1999999101401MD1999999-0021MW1011REMSYN088AAXX  04124 82900 21597 61409 10283 20222 30140 40149 70152 85520 333 20216 59002 69994;
0167829000999992001060418004-08040-034920FM-12+000799999V0201401N005110075019N0100001N1+02811+02251101291ADDAA199000091GF106991051071008001021001MA1999999101201MD1999999+0081REMSYN070AAXX  04184 82900 32597 61410 10281 20225 30120 40129 85720 333 58008;EQDQ01  00002PRCP99
0213829000999992001060500004-08040-034920FM-12+000799999V0201801N001510075019N0020001N1+02351+02261101591ADDAA106000591AY151061AY221061GF107991071021008001001001KA1240M+02941MA1999999101531MD1999999+0141MW1501REMSYN100AAXX  05004 82900 21595 71803 10235 20226 30153 40159 75052 87200 333 10294 29082 55072 58014 69941;
0201829000999992001060512004-08040-034920FM-12+000799999V0201401N004110075019N0100001N1+02651+02201101591ADDAA124018091AY161061AY221061GF105991051021008001001001KA1240N+02201MA1999999101501MD1999999+0101MW1011REMSYN088AAXX  05124 82900 21597 51408 10265 20220 30150 40159 70162 85200 333 20220 58010 60184;
0182829000999992001060518004-08040-034920FM-12+000799999V0201401N004110075019N0100001N1+02781+02241101341ADDAA106000391AY151061AY221061GF106991051041008001021001MA1999999101251MD1999999+0051MW1011REMSYN082AAXX  05184 82900 21597 61408 10278 20224 30125 40134 70152 85420 333 58005 69931;
0213829000999992001060600004-08040-034920FM-12+000799999V0202301N001010075019N0020001N1+02341+02221101531ADDAA106002091AY161061AY221061GF106991061071008001001001KA1240M+02941MA1999999101441MD1999999-0061MW1031REMSYN100AAXX  06004 82900 21595 62302 10234 20222 30144 40153 70362 86700 333 10294 29084 55071 59006 60021;
0201829000999992001060612004-08040-034920FM-12+000799999V0201801N001010075019N0100001N1+02721+02241101541ADDAA124003091AY161061AY261061GF105991051021008001001001KA1240N+02161MA1999999101451MD1999999-0051MW1021REMSYN088AAXX  06124 82900 21597 51802 10272 20224 30145 40154 70266 85200 333 20216 59005 60034;
0167829000999992001060618004-08040-034920FM-12+000799999V0201401N003612200019N0100001N1+02821+02311101271ADDAA199000091GF103991031021008001001001MA1999999101181MD1999999-0071REMSYN070AAXX  06184 82900 32597 31407 10282 20231 30118 40127 83200 333 59007;EQDQ01  00002PRCP99
0198829000999992001060700004-08040-034920FM-12+000799999V0202301N002610075019N0020001N1+02411+02231101531ADDAA199000091GF106991061021008001001001KA1240M+02941MA1999999101441MD1999999+0001REMSYN088AAXX  07004 82900 32595 62305 10241 20223 30144 40153 86200 333 10294 29082 55097 58000;EQDQ01  00002PRCP99
0201829000999992001060712004-08040-034920FM-12+000799999V0202301N002610075019N0100001N1+02521+02331101571ADDAA124023991AY161061AY221061GF108991081061008001999999KA1240N+02241MA1999999101481MD1999999+0031MW1031REMSYN088AAXX  07124 82900 21597 82305 10252 20233 30148 40157 70362 886// 333 20224 58003 60244;
0182829000999992001060718004-08040-034920FM-12+000799999V0201401N004610075019N0100001N1+02781+02181101331ADDAA106000191AY161061AY261061GF107991061041008001031001MA1999999101241MD1999999+0061MW1031REMSYN082AAXX  07184 82900 21597 71409 10278 20218 30124 40133 70366 86430 333 58006 69921;
0198829000999992001060800004-08040-034920FM-12+000799999V0201801N003110075019N0020001N1+02641+02031101561ADDAA199000091GF106991061021008001001001KA1240M+02871MA1999999101471MD1999999+0031REMSYN088AAXX  08004 82900 32595 61806 10264 20203 30147 40156 86200 333 10287 29074 55025 58003;EQDQ01  00002PRCP99
0201829000999992001060812004-08040-034920FM-12+000799999V0201401N001010450019N0100001N1+02411+02191101641ADDAA124005191AY161061AY221061GF105991041021008001011001KA1240N+02121MA1999999101551MD1999999+0071MW1011REMSYN088AAXX  08124 82900 21597 51402 10241 20219 30155 40164 70162 84210 333 20212 58007 60054;
0182829000999992001060818004-08040-034920FM-12+000799999V0203201N000510450019N0100001N1+02671+02221101421ADDAA106001091AY161061AY261061GF105991041041008001021001MA1999999101331MD1999999+0091MW1011REMSYN082AAXX  08184 82900 21597 53201 10267 20222 30133 40142 70166 84420 333 58009 60011;
0198829000999992001060900004-08040-034920FM-12+000799999V0202301N001012200019N0020001N1+02431+02191101591ADDAA199000091GF104991041021008001001001KA1240M+02881MA1999999101501MD1999999+0031REMSYN088AAXX  09004 82900 32595 42302 10243 20219 30150 40159 84200 333 10288 29085 55055 58003;EQDQ01  00002PRCP99
0220829000999992001060912004-08040-034920FM-12+000799999V0202701N001019999999N0100001N1+02541+02291101631ADDAA124004191AY161061AY221061GF106991999041008001001001KA1240N+02071MA1999999101541MD1999999-0011MW1021REMSYN088AAXX  09124 82900 21597 62702 10254 20229 30154 40163 70262 87400 333 20207 59001 60044;EQDQ01+000072SCOTLC
0167829000999992001060918004-08040-034920FM-12+000799999V0201401N002110075019N0100001N1+02831+02171101331ADDAA199000091GF106991061021008001001001MA1999999101241MD1999999-0091REMSYN070AAXX  09184 82900 32597 61404 10283 20217 30124 40133 86200 333 59009;EQDQ01  00002PRCP99
0198829000999992001061000004-08040-034920FM-12+000799999V0202701N001512200019N0020001N1+02431+02211101541ADDAA199000091GF103991031021008001001001KA1240M+02931MA1999999101451MD1999999-0051REMSYN088AAXX  10004 82900 32595 32703 10243 20221 30145 40154 83200 333 10293 29082 55080 59005;EQDQ01  00002PRCP99
0220829000999992001061012004-08040-034920FM-12+000799999V0201401N001519999999N0100001N1+02741+02261101561ADDAA124052191AY161061AY261061GF105991999021008001001001KA1240N+02151MA1999999101411MD1999999-0161MW1011REMSYN088AAXX  10124 82900 21597 51403 10274 20226 30141 40156 70166 84200 333 20215 59016 60524;EQDQ01+000042SCOTLC
0167829000999992001061018004-08040-034920FM-12+000799999V0201801N004610075019N0100001N1+02791+02181101371ADDAA199000091GF106991061021008001001001MA1999999101281MD1999999+0041REMSYN070AAXX  10184 82900 32597 61809 10279 20218 30128 40137 86200 333 58004;EQDQ01  00002PRCP99
0198829000999992001061100004-08040-034920FM-12+000799999V0201401N002612200019N0020001N1+02561+02211101511ADDAA199000091GF103991031021008001001001KA1240M+02901MA1999999101421MD1999999-0031REMSYN088AAXX  11004 82900 32595 31405 10256 20221 30142 40151 83200 333 10290 29077 55082 59003;EQDQ01  00002PRCP99
0186829000999992001061112004-08040-034920FM-12+000799999V0202301N004610075019N0100001N1+02481+02151101571ADDAA199000091GF108991081061008001999999KA1240N+02181MA1999999101481MD1999999+0071REMSYN076AAXX  11124 82900 32597 82309 10248 20215 30148 40157 886// 333 20218 58007;EQDQ01  00002PRCP99
0182829000999992001061118004-08040-034920FM-12+000799999V0201801N005110075019N0100001N1+02761+02141101331ADDAA106003091AY161061AY221061GF106991051041008001031001MA1999999101241MD1999999-0041MW1021REMSYN082AAXX  11184 82900 21597 61810 10276 20214 30124 40133 70262 85430 333 59004 60031;
0213829000999992001061200004-08040-034920FM-12+000799999V0202701N001010075019N0020001N1+02821+02231101541ADDAA106013091AY161061AY261061GF107991071071008001001001KA1240M+02891MA1999999101451MD1999999+0031MW1031REMSYN100AAXX  12004 82900 21595 72702 10282 20223 30145 40154 70366 87700 333 10289 29086 55057 58003 60131;
0201829000999992001061212004-08040-034920FM-12+000799999V0202301N003110075019N0100001N1+02461+02321101641ADDAA124024991AY161061AY261061GF107991061071008001071001KA1240N+02161MA1999999101551MD1999999+0071MW1011REMSYN088AAXX  12124 82900 21597 72306 10246 20232 30155 40164 70166 86770 333 20216 58007 60254;
0182829000999992001061218004-08040-034920FM-12+000799999V0202301N004110075019N0100001N1+02651+02331101251ADDAA106002091AY161061AY221061GF108991081071008001001001MA1999999101161MD1999999-0081MW1031REMSYN082AAXX  12184 82900 21597 82308 10265 20233 30116 40125 70362 88700 333 59008 60021;
0213829000999992001061300004-08040-034920FM-12+000799999V0203601N002610075019N0020001N1+02351+02311101571ADDAA106020191AY161061AY261061GF107991071071008001999999KA1240M+02801MA1999999101481MD1999999+0031MW1031REMSYN100AAXX  13004 82900 21595 73605 10235 20231 30148 40157 70366 877// 333 10280 29025 55046 58003 60201;
0201829000999992001061312004-08040-034920FM-12+000799999V0209999C000010075019N0100001N1+02621+02311101441ADDAA124035191AY161061AY261061GF106991051041008001031001KA1240N+02221MA1999999101351MD1999999-0201MW1031REMSYN088AAXX  13124 82900 21597 60000 10262 20231 30135 40144 70366 85430 333 20222 59020 60354;
0182829000999992001061318004-08040-034920FM-12+000799999V0201401N003110075019N0100001N1+02561+02311101201ADDAA106005191AY161061AY261061GF108991081071008001999999MA1999999101111MD1999999-0051MW1031REMSYN082AAXX  13184 82900 21597 81406 10256 20231 30111 40120 70366 887// 333 59005 60051;
0213829000999992001061400004-08040-034920FM-12+000799999V0203201N001510075019N0020001N1+02291+02231101581ADDAA106006191AY161061AY221061GF107991071071008001001001KA1240M+02761MA1999999101491MD1999999+0011MW1031REMSYN100AAXX  14004 82900 21595 73203 10229 20223 30149 40158 70362 87700 333 10276 29091 55023 58001 60061;
0201829000999992001061412004-08040-034920FM-12+000799999V0200901N000510075019N0100001N1+02271+02211101561ADDAA124066091AY161061AY261061GF108991081071008001001001KA1240N+02141MA1999999101471MD1999999+0121MW1211REMSYN088AAXX  14124 82900 21597 80901 10227 20221 30147 40156 72166 88700 333 20214 58012 60664;
0182829000999992001061418004-08040-034920FM-12+000799999V0201401N003110075019N0100001N1+02511+02231101231ADDAA106006191AY161061AY221061GF106991061071008001001001MA1999999101141MD1999999+0031MW1031REMSYN082AAXX  14184 82900 21597 61406 10251 20223 30114 40123 70362 86700 333 58003 60061;
0179829000999992001061500004-08040-034920FM-12+000799999V0209999C000012200019N0020001N1+02241+02141101491ADDAA199000021GF104991041021008001001001KA1240M+02721MA1999999101401MD1999999-0091REMSYN088AAXX  15004 82900 32595 40000 10224 20214 30140 40149 84200 333 10272 29092 55013 59009;
0201829000999992001061512004-08040-034920FM-12+000799999V0202301N003112200019N0100001N1+02601+02211101511ADDAA124007991AY161061AY221061GF103991031021008001001001KA1240N+02061MA1999999101421MD1999999-0051MW1021REMSYN088AAXX  15124 82900 21597 32306 10260 20221 30142 40151 70262 83200 333 20206 59005 60084;
0167829000999992001061518004-08040-034920FM-12+000799999V0201801N003110075019N0100001N1+02661+02141101231ADDAA199000091GF106991051041008001031001MA1999999101141MD1999999+0001REMSYN070AAXX  15184 82900 32597 61806 10266 20214 30114 40123 85430 333 58000;EQDQ01  00002PRCP99
0213829000999992001061600004-08040-034920FM-12+000799999V0201401N001510075019N0020001N1+02371+02241101441ADDAA106002091AY111061AY221061GF107991071071008001001001KA1240M+02851MA1999999101351MD1999999-0051MW1601REMSYN100AAXX  16004 82900 21595 71403 10237 20224 30135 40144 76012 87700 333 10285 29084 55072 59005 60021;
0201829000999992001061612004-08040-034920FM-12+000799999V0202701N002612200019N0100001N1+02501+02211101511ADDAA124008991AY161061AY261061GF104991041021008001001001KA1240N+02141MA1999999101421MD1999999+0001MW1011REMSYN088AAXX  16124 82900 21597 42705 10250 20221 30142 40151 70166 84200 333 20214 58000 60094;
0167829000999992001061618004-08040-034920FM-12+000799999V0201401N003110075019N0100001N1+02791+02271101181ADDAA199000091GF106991061071008001001001MA1999999101091MD1999999-0051REMSYN070AAXX  16184 82900 32597 61406 10279 20227 30109 40118 86700 333 59005;EQDQ01  00002PRCP99
0198829000999992001061700004-08040-034920FM-12+000799999V0201401N003112200019N0020001N1+02601+02231101411ADDAA199000091GF104991041021008001001001KA1240M+02861MA1999999101321MD1999999-0031REMSYN088AAXX  17004 82900 32595 41406 10260 20223 30132 40141 84200 333 10286 29079 55064 59003;EQDQ01  00002PRCP99
0186829000999992001061712004-08040-034920FM-12+000799999V0201401N009310075019N0100001N1+02801+02181101481ADDAA199000091GF106991061021008001001001KA1240N+02251MA1999999101391MD1999999-0031REMSYN076AAXX  17124 82900 32597 61418 10280 20218 30139 40148 86200 333 20225 59003;EQDQ01  00002PRCP99
0198829000999992001061800004-08040-034920FM-12+000799999V0202701N001012200019N0020001N1+02471+02131101431ADDAA199000091GF102991021011008001001001KA1240M+02851MA1999999101341MD1999999+0021REMSYN088AAXX  18004 82900 32595 22702 10247 20213 30134 40143 82100 333 10285 29076 55043 58002;EQDQ01  00002PRCP99
0186829000999992001061812004-08040-034920FM-12+000799999V0202301N003110075019N0100001N1+02651+02231101451ADDAA199000091GF106991051021008001011001KA1240N+02171MA1999999101361MD1999999-0031REMSYN076AAXX  18124 82900 32597 62306 10265 20223 30136 40145 85210 333 20217 59003;EQDQ01  00002PRCP99
0167829000999992001061818004-08040-034920FM-12+000799999V0202301N004112200019N0100001N1+02811+02081101351ADDAA199000091GF104991041021008001001001MA1999999101261MD1999999-0121REMSYN070AAXX  18184 82900 32597 42308 10281 20208 30126 40135 84200 333 59012;EQDQ01  00002PRCP99
0198829000999992001061900004-08040-034920FM-12+000799999V0202701N001512200019N0020001N1+02411+02111101491ADDAA199000091GF102991021021008001001001KA1240M+02881MA1999999101381MD1999999+0041REMSYN088AAXX  19004 82900 32595 22703 10241 20211 30138 40149 82200 333 10288 29078 55090 58004;EQDQ01  00002PRCP99
0201829000999992001061912004-08040-034920FM-12+000799999V0202301N002110075019N0100001N1+02521+02251101571ADDAA124006191AY161061AY221061GF107991071041008001001001KA1240N+02151MA1999999101481MD1999999+0121MW1031REMSYN088AAXX  19124 82900 21597 72304 10252 20225 30148 40157 70362 87400 333 20215 58012 60064;
0167829000999992001061918004-08040-034920FM-12+000799999V0201801N005710075019N0100001N1+02701+02201101261ADDAA199000091GF106991061031008001001001MA1999999101171MD1999999-0091REMSYN070AAXX  19184 82900 32597 61811 10270 20220 30117 40126 86300 333 59009;EQDQ01  00002PRCP99
0232829000999992001062000004-08040-034920FM-12+000799999V0202701N001519999999N0020001N1+02341+02201101521ADDAA106006191AY161061AY261061GF106991999071008001001001KA1240M+02811MA1999999101431MD1999999+0051MW1031REMSYN100AAXX  20004 82900 21595 62703 10234 20220 30143 40152 70366 82700 333 10281 29086 55058 58005 60061;EQDQ01+000022SCOTLC
0173829000999992001062012004-08040-034920FM-12+000799999V0202301N002610075019N0100001N1+02621+02271101511ADDAA106006191GF106991051041008001021001KA1240N+02201MA1999999101421MD1999999-0061REMSYN082AAXX  20124 82900 22597 62305 10262 20227 30142 40151 85420 333 20220 59006 60061;
0167829000999992001062018004-08040-034920FM-12+000799999V0201801N004612200019N0100001N1+02781+02111101451ADDAA199000091GF104991031021008001011001MA1999999101361MD1999999+0191REMSYN070AAXX  20184 82900 32597 41809 10278 20211 30136 40145 83210 333 58019;EQDQ01  00002PRCP99
0198829000999992001062100004-08040-034920FM-12+000799999V0202301N000510075019N0020001N1+02531+02251101621ADDAA199000091GF107991071071008001001001KA1240M+02861MA1999999101531MD1999999+0101REMSYN088AAXX  21004 82900 32595 72301 10253 20225 30153 40162 87700 333 10286 29079 55060 58010;EQDQ01  00002PRCP99
0201829000999992001062112004-08040-034920FM-12+000799999V0201801N002612200019N0100001N1+02661+02291101621ADDAA124007991AY161061AY221061GF104991041021008001001001KA1240N+02221MA1999999101531MD1999999+0111MW1021REMSYN088AAXX  21124 82900 21597 41805 10266 20229 30153 40162 70262 84200 333 20222 58011 60084;
0182829000999992001062118004-08040-034920FM-12+000799999V0201801N004110075019N0040001N1+02361+02311101481ADDAA106011991AY161061AY261061GF108991081071008001999999MA1999999101391MD1999999+0031MW1621REMSYN082AAXX  21184 82900 21596 81808 10236 20231 30139 40148 76266 887// 333 58003 60121;
0213829000999992001062200004-08040-034920FM-12+000799999V0202701N000510075019N0020001N1+02261+02211101641ADDAA106015091AY161061AY261061GF107991071071008001001001KA1240M+02871MA1999999101551MD1999999+0021MW1031REMSYN100AAXX  22004 82900 21595 72701 10226 20221 30155 40164 70366 87700 333 10287 29093 55041 58002 60151;
0201829000999992001062212004-08040-034920FM-12+000799999V0201401N001510075019N0100001N1+02501+02361101701ADDAA124032091AY161061AY261061GF108991081051008001999999KA1240N+02201MA1999999101611MD1999999+0081MW1031REMSYN088AAXX  22124 82900 21597 81403 10250 20236 30161 40170 70366 885// 333 20220 58008 60324;
0182829000999992001062218004-08040-034920FM-12+000799999V0201401N004110075019N0100001N1+02721+02221101471ADDAA106003091AY161061AY261061GF107991071041008001001001MA1999999101381MD1999999-0011MW1021REMSYN082AAXX  22184 82900 21597 71408 10272 20222 30138 40147 70266 87400 333 59001 60031;
0213829000999992001062300004-08040-034920FM-12+000799999V0209999C000010075019N0020001N1+02411+02231101641ADDAA106000191AY151061AY221061GF106991061071008001001001KA1240M+02841MA1999999101551MD1999999+0001MW1031REMSYN100AAXX  23004 82900 21595 60000 10241 20223 30155 40164 70352 86700 333 10284 29086 55018 58000 69921;
0201829000999992001062312004-08040-034920FM-12+000799999V0202301N002112200019N0100001N1+02521+02151101731ADDAA124007991AY161061AY261061GF102991021021008001001001KA1240N+02001MA1999999101641MD1999999+0031MW1021REMSYN088AAXX  23124 82900 21597 22304 10252 20215 30164 40173 70266 82200 333 20200 58003 60084;
0182829000999992001062318004-08040-034920FM-12+000799999V0209999C000010075019N0100001N1+02441+02091101491ADDAA106005191AY161061AY261061GF106991061071008001001001MA1999999101401MD1999999+0021MW1011REMSYN082AAXX  23184 82900 21597 60000 10244 20209 30140 40149 70166 86700 333 58002 60051;
0213829000999992001062400004-08040-034920FM-12+000799999V0209999C000010075019N0020001N1+02261+02141101611ADDAA106002091AY161061AY221061GF107991071071008001001001KA1240M+02801MA1999999101521MD1999999-0031MW1011REMSYN100AAXX  24004 82900 21595 70000 10226 20214 30152 40161 70162 87700 333 10280 29087 55062 59003 60021;
0220829000999992001062412004-08040-034920FM-12+000799999V0203201N001010075019N0100001N1+02291+02201101761ADDAA124009991AY161061AY261061GF106991999021008001001001KA1240N+02001MA1999999101641MD1999999+0031MW1011REMSYN088AAXX  24124 82900 21597 63202 10229 20220 30164 40176 70166 85200 333 20200 58003 60104;EQDQ01+000052SCOTLC
0211829000999992001062418004-08040-034920FM-12+000799999V0201801N002610075019N0100001N1+02651+02231101461ADDAA106001091AY151061AY221061GF107991999041008001001001MA1999999101371MD1999999-0031MW1011REMSYN076AAXX  24184 82900 21597 71805 10265 20223 40146 70152 85400 333 59003 69991;EQDQ01+000052SCOTLCQ02+999990APOSP 
0232829000999992001062500004-08040-034920FM-12+000799999V0202701N001519999999N0020001N1+02281+02231101711ADDAA106000591AY151061AY221061GF107991999021008001001001KA1240M+02701MA1999999101621MD1999999-0161MW1031REMSYN100AAXX  25004 82900 21595 72703 10228 20223 30162 40171 70352 84200 333 10270 29092 55014 59016 69951;EQDQ01+000042SCOTLC
0201829000999992001062512004-08040-034920FM-12+000799999V0202301N004110075019N0100001N1+02401+02171101841ADDAA124004191AY161061AY261061GF107991061051008001031001KA1240N+02201MA1999999101751MD1999999+0081MW1031REMSYN088AAXX  25124 82900 21597 72308 10240 20217 30175 40184 70366 86530 333 20220 58008 60044;
0182829000999992001062518004-08040-034920FM-12+000799999V0201801N004610075019N0100001N1+02621+02211101581ADDAA106000391AY161061AY261061GF108991081051008001001001MA1999999101491MD1999999+0121MW1031REMSYN082AAXX  25184 82900 21597 81809 10262 20221 30149 40158 70366 88500 333 58012 69931;
0201829000999992001062612004-08040-034920FM-12+000799999V0202301N002610075019N0010001N1+02471+02301101791ADDAA124007191AY161061AY261061GF107991061071008001041001KA1240N+02181MA1999999101701MD1999999-0051MW1031REMSYN088AAXX  26124 82900 21594 72305 10247 20230 30170 40179 70366 86740 333 20218 59005 60074;
0182829000999992001062618004-08040-034920FM-12+000799999V0201401N003110075019N0100001N1+02691+02371101521ADDAA106004191AY161061AY221061GF106991051061008001021001MA1999999101431MD1999999-0061MW1011REMSYN082AAXX  26184 82900 21597 61406 10269 20237 30143 40152 70162 85620 333 59006 60041;
0213829000999992001062700004-08040-034920FM-12+000799999V0201801N000510075019N0020001N1+02361+02311101711ADDAA106005191AY161061AY221061GF106991061021008001001001KA1240M+02721MA1999999101621MD1999999-0101MW1031REMSYN100AAXX  27004 82900 21595 61801 10236 20231 30162 40171 70362 86200 333 10272 29092 55031 59010 60051;
0201829000999992001062712004-08040-034920FM-12+000799999V0201401N002610075019N0100001N1+02681+02351101751ADDAA124033091AY161061AY261061GF108991081051008001999999KA1240N+02251MA1999999101661MD1999999+0041MW1031REMSYN088AAXX  27124 82900 21597 81405 10268 20235 30166 40175 70366 885// 333 20225 58004 60334;
0182829000999992001062718004-08040-034920FM-12+000799999V0200901N003610075019N0100001N1+02521+02251101501ADDAA106000391AY161061AY261061GF107991071041008001001001MA1999999101411MD1999999-0021MW1601REMSYN082AAXX  27184 82900 21597 70907 10252 20225 30141 40150 76066 87400 333 59002 69931;
0213829000999992001062800004-08040-034920FM-12+000799999V0201401N000510075019N0020001N1+02431+02251101701ADDAA106000591AY151061AY221061GF107991071071008001001001KA1240M+02821MA1999999101611MD1999999-0011MW1031REMSYN100AAXX  28004 82900 21595 71401 10243 20225 30161 40170 70352 87700 333 10282 29087 55024 59001 69941;
0173829000999992001062812004-08040-034920FM-12+000799999V0201401N003110075019N0100001N1+02761+02251101701ADDAA124000891GF106991051041008001021001KA1240N+02131MA1999999101611MD1999999+0201REMSYN082AAXX  28124 82900 22597 61406 10276 20225 30161 40170 85420 333 20213 58020 69974;
0167829000999992001062818004-08040-034920FM-12+000799999V0201401N002612200019N0100001N1+02771+02161101501ADDAA199000091GF104991031021008001021001MA1999999101411MD1999999+0001REMSYN070AAXX  28184 82900 32597 41405 10277 20216 30141 40150 83220 333 58000;EQDQ01  00002PRCP99
0198829000999992001062900004-08040-034920FM-12+000799999V0202301N002112200019N0020001N1+02401+02211101641ADDAA199000091GF101991011021008001001001KA1240M+02841MA1999999101551MD1999999-0061REMSYN088AAXX  29004 82900 32595 12304 10240 20221 30155 40164 81200 333 10284 29080 55091 59006;EQDQ01  00002PRCP99
0186829000999992001062912004-08040-034920FM-12+000799999V0201801N005110450019N0100001N1+02611+02231101581ADDAA199000091GF105991041041008001021001KA1240N+02081MA1999999101491MD1999999-0121REMSYN076AAXX  29124 82900 32597 51810 10261 20223 30149 40158 84420 333 20208 59012;EQDQ01  00002PRCP99
0167829000999992001062918004-08040-034920FM-12+000799999V0201801N005110450019N0100001N1+02751+02161101421ADDAA199000091GF105991041021008001011001MA1999999101331MD1999999-0081REMSYN070AAXX  29184 82900 32597 51810 10275 20216 30133 40142 84210 333 59008;EQDQ01  00002PRCP99
0213829000999992001063000004-08040-034920FM-12+000799999V0201801N003110075019N0020001N1+02421+02261101641ADDAA106002091AY161061AY221061GF107991071071008001001001KA1240M+02891MA1999999101551MD1999999+0001MW1031REMSYN100AAXX  30004 82900 21595 71806 10242 20226 30155 40164 70362 87700 333 10289 29083 55074 58000 60021;
0201829000999992001063012004-08040-034920FM-12+000799999V0202301N001510075019N0100001N1+02391+02331101531ADDAA124007191AY161061AY221061GF106991061041008001001001KA1240N+02201MA1999999101441MD1999999-0051MW1011REMSYN088AAXX  30124 82900 21597 62303 10239 20233 30144 40153 70162 86400 333 20220 59005 60074;
0182829000999992001063018004-08040-034920FM-12+000799999V0201801N004610075019N0100001N1+02361+02331101321ADDAA106050091AY161061AY261061GF108991081061008001001001MA1999999101231MD1999999-0101MW1611REMSYN082AAXX  30184 82900 21597 81809 10236 20233 30123 40132 76166 88600 333 59010 60501;
0220829000999992001070112004-08040-034920FM-12+000799999V0201801N001519999999N0100001N1+02631+02351101551ADDAA124052191AY161061AY221061GF105991999021008001001001KA1240N+02101MA1999999101461MD1999999+0021MW1021REMSYN088AAXX  01124 82900 21597 51803 10263 20235 30146 40155 70262 86200 333 20210 58002 60524;EQDQ01+000062SCOTLC
0167829000999992001070118004-08040-034920FM-12+000799999V0201801N004610075019N0100001N1+02771+02271101251ADDAA199000091GF106991061021008001001001MA1999999101161MD1999999-0071REMSYN070AAXX  01184 82900 32597 61809 10277 20227 30116 40125 86200 333 59007;EQDQ01  00002PRCP99
0213829000999992001070200004-08040-034920FM-12+000799999V0201801N001510075019N0020001N1+02351+02241101531ADDAA106000891AY151061AY221061GF106991061021008001001001KA1240M+02841MA1999999101441MD1999999+0101MW1011REMSYN100AAXX  02004 82900 21595 61803 10235 20224 30144 40153 70152 86200 333 10284 29086 55093 58010 69971;
0201829000999992001070212004-08040-034920FM-12+000799999V0201801N002610075019N0100001N1+02591+02291101641ADDAA124006191AY161061AY221061GF107991061071008001021001KA1240N+02181MA1999999101551MD1999999+0091MW1031REMSYN088AAXX  02124 82900 21597 71805 10259 20229 30155 40164 70362 86720 333 20218 58009 60064;
0182829000999992001070218004-08040-034920FM-12+000799999V0201401N004610075019N0100001N1+02681+02161101401ADDAA106002091AY161061AY221061GF106991051041008001021001MA1999999101311MD1999999+0151MW1011REMSYN082AAXX  02184 82900 21597 61409 10268 20216 30131 40140 70162 85420 333 58015 60021;
0198829000999992001070300004-08040-034920FM-12+000799999V0201801N001512200019N0020001N1+02501+02111101651ADDAA199000091GF104991041021008001001001KA1240M+02781MA1999999101561MD1999999+0121REMSYN088AAXX  03004 82900 32595 41803 10250 20211 30156 40165 84200 333 10278 29078 55053 58012;EQDQ01  00002PRCP99
0201829000999992001070312004-08040-034920FM-12+000799999V0201801N002610075019N0100001N1+02561+02291101721ADDAA124003091AY161061AY221061GF106991051061008001021001KA1240N+02061MA1999999101631MD1999999+0081MW1011REMSYN088AAXX  03124 82900 21597 61805 10256 20229 30163 40172 70162 85620 333 20206 58008 60034;
0182829000999992001070318004-08040-034920FM-12+000799999V0201401N002110075019N0100001N1+02721+02281101521ADDAA106001091AY161061AY261061GF107991061041008001031001MA1999999101431MD1999999+0121MW1031REMSYN082AAXX  03184 82900 21597 71404 10272 20228 30143 40152 70366 86430 333 58012 60011;
0213829000999992001070400004-08040-034920FM-12+000799999V0201801N003110075019N0020001N1+02331+02241101771ADDAA106007191AY161061AY261061GF106991061071008001001001KA1240M+02771MA1999999101681MD1999999+0121MW1031REMSYN100AAXX  04004 82900 21595 61806 10233 20224 30168 40177 70366 86700 333 10277 29088 55033 58012 60071;
0201829000999992001070412004-08040-034920FM-12+000799999V0201401N002110075019N0100001N1+02671+02241101721ADDAA124008991AY161061AY221061GF105991051021008001001001KA1240N+02071MA1999999101631MD1999999+0001MW1021REMSYN088AAXX  04124 82900 21597 51404 10267 20224 30163 40172 70262 85200 333 20207 58000 60094;
0167829000999992001070418004-08040-034920FM-12+000799999V0201801N001010075019N0100001N1+02741+02171101521ADDAA199000091GF105991051021008001001001MA1999999101431MD1999999+0001REMSYN070AAXX  04184 82900 32597 51802 10274 20217 30143 40152 85200 333 58000;EQDQ01  00002PRCP99
0198829000999992001070500004-08040-034920FM-12+000799999V0209999C000012200019N0020001N1+02261+02181101731ADDAA199000091GF102991021011008001001001KA1240M+02841MA1999999101641MD1999999-0041REMSYN088AAXX  05004 82900 32595 20000 10226 20218 30164 40173 82100 333 10284 29085 55096 59004;EQDQ01  00002PRCP99
0201829000999992001070512004-08040-034920FM-12+000799999V0202301N002110075019N0100001N1+02551+02311101751ADDAA124003091AY161061AY221061GF105991051021008001001001KA1240N+02101MA1999999101661MD1999999+0031MW1021REMSYN088AAXX  05124 82900 21597 52304 10255 20231 30166 40175 70262 85200 333 20210 58003 60034;
0167829000999992001070518004-08040-034920FM-12+000799999V0201801N002112200019N0100001N1+02721+02151101401ADDAA199000091GF103991021041008001041001MA1999999101311MD1999999-0121REMSYN070AAXX  05184 82900 32597 31804 10272 20215 30131 40140 82440 333 59012;EQDQ01  00002PRCP99
0213829000999992001070600004-08040-034920FM-12+000799999V0202701N000510075019N0020001N1+02281+02211101641ADDAA106002091AY161061AY221061GF107991071071008001001001KA1240M+02821MA1999999101551MD1999999-0091MW1031REMSYN100AAXX  06004 82900 21595 72701 10228 20221 30155 40164 70362 87700 333 10282 29087 55055 59009 60021;
0201829000999992001070612004-08040-034920FM-12+000799999V0201801N001510075019N0100001N1+02591+02441101511ADDAA124025991AY161061AY261061GF106991051041008001021001KA1240N+02201MA1999999101421MD1999999-0241MW1011REMSYN088AAXX  06124 82900 21597 61803 10259 20244 30142 40151 70166 85420 333 20220 59024 60264;
0167829000999992001070618004-08040-034920FM-12+000799999V0201401N003110075019N0100001N1+02731+02171101301ADDAA199000091GF106991051041008001021001MA1999999101291MD1999999-0021REMSYN070AAXX  06184 82900 32597 61406 10273 20217 30129 40130 85420 333 59002;EQDQ01  00002PRCP99
0198829000999992001070700004-08040-034920FM-12+000799999V0201801N000512200019N0020001N1+02341+02151101681ADDAA199000091GF103991031051008001001001KA1240M+02841MA1999999101591MD1999999+0041REMSYN088AAXX  07004 82900 32595 31801 10234 20215 30159 40168 83500 333 10284 29085 55064 58004;EQDQ01  00002PRCP99
0201829000999992001070712004-08040-034920FM-12+000799999V0201401N003110075019N0100001N1+02681+02111101641ADDAA124002091AY161061AY221061GF105991051021008001001001KA1240N+02041MA1999999101551MD1999999+0131MW1021REMSYN088AAXX  07124 82900 21597 51406 10268 20211 30155 40164 70262 85200 333 20204 58013 60024;
0182829000999992001070718004-08040-034920FM-12+000799999V0200901N000510075019N0100001N1+02551+02271101491ADDAA106008991AY161061AY261061GF107991071071008001001001MA1999999101401MD1999999+0111MW1011REMSYN082AAXX  07184 82900 21597 70901 10255 20227 30140 40149 70166 87700 333 58011 60091;
0213829000999992001070800004-08040-034920FM-12+000799999V0201401N003110075019N0020001N1+02551+02251101631ADDAA106000391AY151061AY221061GF106991061021008001001001KA1240M+02801MA1999999101541MD1999999-0051MW1011REMSYN100AAXX  08004 82900 21595 61406 10255 20225 30154 40163 70152 86200 333 10280 29080 55045 59005 69931;
0220829000999992001070812004-08040-034920FM-12+000799999V0201801N004110075019N0100001N1+02711+02191101751ADDAA124010991AY161061AY221061GF106991061021008001001001KA1240M+99999MA1999999101661MD1999999+0111MW1011REMSYN088AAXX  08124 82900 21597 61808 10271 20219 30166 40175 70162 86200 333 10229 58011 60114;EQDQ01 +02292ATMX  
0167829000999992001070818004-08040-034920FM-12+000799999V0201801N006210075019N0100001N1+02661+02141101671ADDAA199000091GF106991061021008001001001MA1999999101581MD1999999+0181REMSYN070AAXX  08184 82900 32597 61812 10266 20214 30158 40167 86200 333 58018;EQDQ01  00002PRCP99
0213829000999992001070900004-08040-034920FM-12+000799999V0201801N003110075019N0020001N1+02451+02281101621ADDAA106003091AY161061AY221061GF106991061071008001001001KA1240M+02811MA1999999101531MD1999999-0011MW1011REMSYN100AAXX  09004 82900 21595 61806 10245 20228 30153 40162 70162 86700 333 10281 29082 55074 59001 60031;
0201829000999992001070912004-08040-034920FM-12+000799999V0201401N002110450019N0100001N1+02671+02221101631ADDAA124005191AY161061AY221061GF105991041021008001031001KA1240N+02201MA1999999101541MD1999999-0121MW1021REMSYN088AAXX  09124 82900 21597 51404 10267 20222 30154 40163 70262 84230 333 20220 59012 60054;
0182829000999992001070918004-08040-034920FM-12+000799999V0201401N005110450019N0100001N1+02731+02171101461ADDAA106001091AY161061AY221061GF106991031021008001021001MA1999999101371MD1999999-0211MW1021REMSYN082AAXX  09184 82900 21597 61410 10273 20217 30137 40146 70262 83220 333 59021 60011;
0198829000999992001071000004-08040-034920FM-12+000799999V0209999C000010075019N0020001N1+02371+02151101521ADDAA199000091GF106991061021008001001001KA1240M+02771MA1999999101431MD1999999-0101REMSYN088AAXX  10004 82900 32595 60000 10237 20215 30143 40152 86200 333 10277 29080 55044 59010;EQDQ01  00002PRCP99
0201829000999992001071012004-08040-034920FM-12+000799999V0201801N003110075019N0100001N1+02381+02131101541ADDAA124004191AY161061AY221061GF107991071071008001001001KA1240N+02101MA1999999101451MD1999999-0091MW1011REMSYN088AAXX  10124 82900 21597 71806 10238 20213 30145 40154 70162 87700 333 20210 59009 60044;
0167829000999992001071018004-08040-034920FM-12+000799999V0201801N004612200019N0100001N1+02701+02131101291ADDAA199000091GF104991041011008001001001MA1999999101201MD1999999-0031REMSYN070AAXX  10184 82900 32597 41809 10270 20213 30120 40129 84100 333 59003;EQDQ01  00002PRCP99
0198829000999992001071100004-08040-034920FM-12+000799999V0209999C000012200019N0020001N1+02291+02161101461ADDAA199000091GF102991021021008001001001KA1240M+02781MA1999999101371MD1999999-0061REMSYN088AAXX  11004 82900 32595 20000 10229 20216 30137 40146 82200 333 10278 29086 55064 59006;EQDQ01  00002PRCP99
0201829000999992001071112004-08040-034920FM-12+000799999V0202301N002112200019N0100001N1+02511+02271101491ADDAA124005191AY161061AY221061GF104991041011008001001001KA1240N+02101MA1999999101401MD1999999-0051MW1011REMSYN088AAXX  11124 82900 21597 42304 10251 20227 30140 40149 70162 84100 333 20210 59005 60054;
0167829000999992001071118004-08040-034920FM-12+000799999V0201401N003612200019N0100001N1+02751+02251101461ADDAA199000091GF104991031011008001021001MA1999999101371MD1999999+0031REMSYN070AAXX  11184 82900 32597 41407 10275 20225 30137 40146 83120 333 58003;EQDQ01  00002PRCP99
0198829000999992001071200004-08040-034920FM-12+000799999V0209999C000012200019N0020001N1+02511+02311101501ADDAA199000091GF103991021011008001031001KA1240M+02821MA1999999101411MD1999999+0041REMSYN088AAXX  12004 82900 32595 30000 10251 20231 30141 40150 82130 333 10282 29084 55089 58004;EQDQ01  00002PRCP99
0201829000999992001071212004-08040-034920FM-12+000799999V0201801N001510075019N0100001N1+02451+02321101761ADDAA124004191AY161061AY261061GF108991081071008001001001KA1240N+02271MA1999999101671MD1999999+0271MW1021REMSYN088AAXX  12124 82900 21597 81803 10245 20232 30167 40176 70266 88700 333 20227 58027 60044;
0167829000999992001071218004-08040-034920FM-12+000799999V0201801N002610075019N0100001N1+02671+02291101511ADDAA199000091GF106991061071008001001001MA1999999101421MD1999999+0051REMSYN070AAXX  12184 82900 32597 61805 10267 20229 30142 40151 86700 333 58005;EQDQ01  00002PRCP99
0213829000999992001071300004-08040-034920FM-12+000799999V0202301N000510075019N0020001N1+02331+02261101601ADDAA106004191AY161061AY261061GF107991071071008001001001KA1240M+02761MA1999999101511MD1999999+0101MW1031REMSYN100AAXX  13004 82900 21595 72301 10233 20226 30151 40160 70366 87700 333 10276 29091 55019 58010 60041;
0111829000999992001071312004-08040-034920FM-12+000799999V0202301N001019999999N0100001N1+99999+99999999999ADDGF108991999999008001999999KA1240N+01621MD1999999-0081REMSYN046AAXX  13124 82900 21597 82302 333 20162 59008;
0182829000999992001071318004-08040-034920FM-12+000799999V0201401N005110450019N0100001N1+02671+02221101371ADDAA106008991AY161061AY221061GF105991041041008001021001MA1999999101281MD1999999-0141MW1011REMSYN082AAXX  13184 82900 21597 51410 10267 20222 30128 40137 70162 84420 333 59014 60091;
0201829000999992001071612004-08040-034920FM-12+000799999V0201401N003110450019N0100001N1+02631+02231101661ADDAA124006191AY161061AY221061GF106991041021008001021001KA1240N+02121MA1999999101571MD1999999+0081MW1021REMSYN088AAXX  16124 82900 21597 61406 10263 20223 30157 40166 70262 84220 333 20212 58008 60064;
0167829000999992001071618004-08040-034920FM-12+000799999V0201401N003110075019N0100001N1+02661+02271101441ADDAA199000091GF106991061021008001001001MA1999999101351MD1999999+0121REMSYN070AAXX  16184 82900 32597 61406 10266 20227 30135 40144 86200 333 58012;EQDQ01  00002PRCP99
0198829000999992001071700004-08040-034920FM-12+000799999V0202301N001512200019N0020001N1+02351+02261101661ADDAA199000091GF104991041021008001001001KA1240M+02751MA1999999101571MD1999999+0121REMSYN088AAXX  17004 82900 32595 42303 10235 20226 30157 40166 84200 333 10275 29086 55063 58012;EQDQ01  00002PRCP99
0201829000999992001071712004-08040-034920FM-12+000799999V0201401N004110075019N0100001N1+02751+02191101701ADDAA124018091AY161061AY221061GF106991061021008001001001KA1240N+02181MA1999999101611MD1999999+0041MW1011REMSYN088AAXX  17124 82900 21597 61408 10275 20219 30161 40170 70162 86200 333 20218 58004 60184;
0182829000999992001071718004-08040-034920FM-12+000799999V0201401N004610075019N0100001N1+02681+02201101481ADDAA106000591AY151061AY221061GF107991071071008001001001MA1999999101391MD1999999+0041MW1031REMSYN082AAXX  17184 82900 21597 71409 10268 20220 30139 40148 70352 87700 333 58004 69951;
0213829000999992001071800004-08040-034920FM-12+000799999V0201401N003112200019N0020001N1+02521+02171101711ADDAA106000191AY151061AY221061GF102991021011008001001001KA1240M+02801MA1999999101621MD1999999+0051MW1011REMSYN100AAXX  18004 82900 21595 21406 10252 20217 30162 40171 70152 82100 333 10280 29077 55078 58005 69911;
0201829000999992001071812004-08040-034920FM-12+000799999V0201401N004612200019N0100001N1+02751+02231101801ADDAA124001091AY161061AY221061GF104991041011008001001001KA1240N+02261MA1999999101711MD1999999+0101MW1011REMSYN088AAXX  18124 82900 21597 41409 10275 20223 30171 40180 70162 84100 333 20226 58010 60014;
0198829000999992001071900004-08040-034920FM-12+000799999V0202301N001510075019N0020001N1+02401+02211101601ADDAA199000091GF105991051021008001001001KA1240M+02841MA1999999101511MD1999999-0111REMSYN088AAXX  19004 82900 32595 52303 10240 20221 30151 40160 85200 333 10284 29079 55103 59011;EQDQ01  00002PRCP99
0201829000999992001071912004-08040-034920FM-12+000799999V0200901N002110075019N0100001N1+02371+02241101751ADDAA124015091AY161061AY221061GF108991081071008001001001KA1240N+02181MA1999999101661MD1999999-0051MW1511REMSYN088AAXX  19124 82900 21597 80904 10237 20224 30166 40175 75162 88700 333 20218 59005 60154;
0182829000999992001071918004-08040-034920FM-12+000799999V0201801N004610075019N0100001N1+02411+02301101361ADDAA106035191AY161061AY261061GF108991081071008001001001MA1999999101271MD1999999-0021MW1631REMSYN082AAXX  19184 82900 21597 81809 10241 20230 30127 40136 76366 88700 333 59002 60351;
0213829000999992001072000004-08040-034920FM-12+000799999V0201801N003110075019N0020001N1+02411+02281101531ADDAA106005191AY161061AY221061GF107991071071008001001001KA1240M+02441MA1999999101441MD1999999+0071MW1031REMSYN100AAXX  20004 82900 21595 71806 10241 20228 30144 40153 70362 87700 333 10244 29093 55000 58007 60051;
0201829000999992001072012004-08040-034920FM-12+000799999V0201401N004610075019N0100001N1+02631+02331101531ADDAA124047091AY161061AY261061GF107991071071008001001001KA1240N+02311MA1999999101441MD1999999+0171MW1031REMSYN088AAXX  20124 82900 21597 71409 10263 20233 30144 40153 70366 87700 333 20231 58017 60474;
0182829000999992001072018004-08040-034920FM-12+000799999V0203201N003110075019N0100001N1+02351+02281101311ADDAA106016091AY161061AY261061GF107991071071008001001001MA1999999101221MD1999999-0051MW1611REMSYN082AAXX  20184 82900 21597 73206 10235 20228 30122 40131 76166 87700 333 59005 60161;
0213829000999992001072100004-08040-034920FM-12+000799999V0209999C000010075019N0020001N1+02331+02291101491ADDAA106000191AY151061AY221061GF107991071071008001001001KA1240M+02691MA1999999101401MD1999999-0141MW1031REMSYN100AAXX  21004 82900 21595 70000 10233 20229 30140 40149 70352 87700 333 10269 29003 55010 59014 69911;
0201829000999992001072112004-08040-034920FM-12+000799999V0201401N001010075019N0100001N1+02461+02301101531ADDAA124023991AY161061AY261061GF107991071071008001001001KA1240N+02181MA1999999101441MD1999999+0001MW1011REMSYN088AAXX  21124 82900 21597 71402 10246 20230 30144 40153 70166 87700 333 20218 58000 60244;
0182829000999992001072118004-08040-034920FM-12+000799999V0200901N001510450019N0100001N1+02651+02231101311ADDAA106002091AY161061AY221061GF105991031021008001051001MA1999999101221MD1999999+0001MW1011REMSYN082AAXX  21184 82900 21597 50903 10265 20223 30122 40131 70162 83250 333 58000 60021;
0198829000999992001072200004-08040-034920FM-12+000799999V0209999C000010075019N0020001N1+02341+02291101521ADDAA199000091GF106991061071008001001001KA1240M+02721MA1999999101431MD1999999+0031REMSYN088AAXX  22004 82900 32595 60000 10234 20229 30143 40152 86700 333 10272 29091 55038 58003;EQDQ01  00002PRCP99
0201829000999992001072212004-08040-034920FM-12+000799999V0202301N001510075019N0100001N1+02511+02271101531ADDAA124002091AY161061AY221061GF107991071071008001001001KA1240N+02021MA1999999101441MD1999999+0001MW1011REMSYN088AAXX  22124 82900 21597 72303 10251 20227 30144 40153 70162 87700 333 20202 58000 60024;
0167829000999992001072218004-08040-034920FM-12+000799999V0201801N003110075019N0100001N1+02701+02261101321ADDAA199000091GF106991061031008001001001MA1999999101231MD1999999+0011REMSYN070AAXX  22184 82900 32597 61806 10270 20226 30123 40132 86300 333 58001;EQDQ01  00002PRCP99
0213829000999992001072300004-08040-034920FM-12+000799999V0201801N001010075019N0100001N1+02401+02301101091ADDAA106000191AY151061AY221061GF107991071071008001001001KA1240M+02881MA1999999101401MD1999999-0031MW1031REMSYN100AAXX  23004 82900 21597 71802 10240 20230 30140 40109 70352 87700 333 10288 29088 55067 59003 69911;
0201829000999992001072312004-08040-034920FM-12+000799999V0201801N004612200019N0100001N1+02661+02271101501ADDAA124004191AY161061AY221061GF104991031021008001011001KA1240N+02201MA1999999101411MD1999999-0031MW1011REMSYN088AAXX  23124 82900 21597 41809 10266 20227 30141 40150 70162 83210 333 20220 59003 60044;
0167829000999992001072318004-08040-034920FM-12+000799999V0201801N005110450019N0100001N1+02751+02161101381ADDAA199000091GF105991041041008001031001MA1999999101291MD1999999+0061REMSYN070AAXX  23184 82900 32597 51810 10275 20216 30129 40138 84430 333 58006;EQDQ01  00002PRCP99
0213829000999992001072400004-08040-034920FM-12+000799999V0202301N001012200019N0020001N1+02311+02201101551ADDAA106000191AY151061AY221061GF104991041021008001001001KA1240M+02851MA1999999101461MD1999999+0061MW1011REMSYN100AAXX  24004 82900 21595 42302 10231 20220 30146 40155 70152 84200 333 10285 29084 55079 58006 69911;
0201829000999992001072412004-08040-034920FM-12+000799999V0201801N002110075019N0100001N1+02591+02231101661ADDAA124001091AY161061AY221061GF106991061031008001001001KA1240N+02331MA1999999101571MD1999999+0161MW1031REMSYN088AAXX  24124 82900 21597 61804 10259 20223 30157 40166 70362 86300 333 20233 58016 60014;
0182829000999992001072418004-08040-034920FM-12+000799999V0201801N001510450019N0100001N1+02641+02181101421ADDAA106000591AY161061AY221061GF105991031031008001031001MA1999999101331MD1999999+0041MW1021REMSYN082AAXX  24184 82900 21597 51803 10264 20218 30133 40142 70262 83330 333 58004 69961;
0198829000999992001072500004-08040-034920FM-12+000799999V0202301N001512200019N0020001N1+02321+02111101581ADDAA199000091GF103991031021008001001001KA1240M+02771MA1999999101491MD1999999+0031REMSYN088AAXX  25004 82900 32595 32303 10232 20211 30149 40158 83200 333 10277 29083 55085 58003;EQDQ01  00002PRCP99
0201829000999992001072512004-08040-034920FM-12+000799999V0201801N002112200019N0100001N1+02641+02231101521ADDAA124003091AY161061AY221061GF104991041021008001001001KA1240N+02021MA1999999101431MD1999999-0141MW1021REMSYN088AAXX  25124 82900 21597 41804 10264 20223 30143 40152 70262 84200 333 20202 59014 60034;
0167829000999992001072518004-08040-034920FM-12+000799999V0201801N005110450019N0100001N1+02611+02181101421ADDAA199000091GF105991031021008001031001MA1999999101331MD1999999+0011REMSYN070AAXX  25184 82900 32597 51810 10261 20218 30133 40142 83230 333 58001;EQDQ01  00002PRCP99
0213829000999992001072600004-08040-034920FM-12+000799999V0202301N001010075019N0020001N1+02381+02211101561ADDAA106002091AY161061AY221061GF106991061021008001001001KA1240M+02811MA1999999101471MD1999999-0021MW1011REMSYN100AAXX  26004 82900 21595 62302 10238 20221 30147 40156 70162 86200 333 10281 29084 55091 59002 60021;
0201829000999992001072612004-08040-034920FM-12+000799999V0201801N004610075019N0100001N1+02591+02011101711ADDAA124004191AY161061AY221061GF105991051011008001001001KA1240N+02161MA1999999101621MD1999999+0191MW1011REMSYN088AAXX  26124 82900 21597 51809 10259 20201 30162 40171 70162 85100 333 20216 58019 60044;
0167829000999992001072618004-08040-034920FM-12+000799999V0201801N005112200019N0100001N1+02671+01951101501ADDAA199000091GF104991041021008001001001MA1999999101411MD1999999+0071REMSYN070AAXX  26184 82900 32597 41810 10267 20195 30141 40150 84200 333 58007;EQDQ01  00002PRCP99
0213829000999992001072700004-08040-034920FM-12+000799999V0201801N003110075019N0020001N1+02271+02121101621ADDAA106001091AY161061AY221061GF105991051021008001001001KA1240M+02821MA1999999101531MD1999999+0061MW1011REMSYN100AAXX  27004 82900 21595 51806 10227 20212 30153 40162 70162 85200 333 10282 29080 55083 58006 60011;
0201829000999992001072712004-08040-034920FM-12+000799999V0201401N003112200019N0100001N1+02691+01921101711ADDAA124002091AY161061AY221061GF104991041021008001001001KA1240N+02161MA1999999101621MD1999999+0001MW1011REMSYN088AAXX  27124 82900 21597 41406 10269 20192 30162 40171 70162 84200 333 20216 58000 60024;
0182829000999992001072718004-08040-034920FM-12+000799999V0201401N006219999999N0100001N1+02481+02071101551ADDAA106001091AY161061AY221061GF107991071001008001001001MA1999999101461MD1999999+0051MW1031REMSYN082AAXX  27184 82900 21597 71412 10248 20207 30146 40155 70362 87000 333 58005 60011;
0213829000999992001072800004-08040-034920FM-12+000799999V0202701N001510075019N0020001N1+02161+02111101721ADDAA106008991AY161061AY261061GF107991071071008001001001KA1240M+02791MA1999999101631MD1999999+0101MW1031REMSYN100AAXX  28004 82900 21595 72703 10216 20211 30163 40172 70366 87700 333 10279 29084 55065 58010 60091;
0201829000999992001072812004-08040-034920FM-12+000799999V0201801N001512200019N0100001N1+02501+02171101771ADDAA124038191AY161061AY221061GF104991041021008001001001KA1240N+02051MA1999999101681MD1999999+0061MW1021REMSYN088AAXX  28124 82900 21597 41803 10250 20217 30168 40177 70262 84200 333 20205 58006 60384;
0167829000999992001072818004-08040-034920FM-12+000799999V0201401N005110075019N0100001N1+02741+02171101521ADDAA199000091GF106991061021008001001001MA1999999101431MD1999999-0031REMSYN070AAXX  28184 82900 32597 61410 10274 20217 30143 40152 86200 333 59003;EQDQ01  00002PRCP99
0198829000999992001072900004-08040-034920FM-12+000799999V0201801N002612200019N0020001N1+02341+02151101731ADDAA199000091GF102991021021008001001001KA1240M+02781MA1999999101641MD1999999+0031REMSYN088AAXX  29004 82900 32595 21805 10234 20215 30164 40173 82200 333 10278 29083 55092 58003;EQDQ01  00002PRCP99
0201829000999992001072912004-08040-034920FM-12+000799999V0202301N001510075019N0100001N1+02301+02161101771ADDAA124007191AY161061AY261061GF107991071071008001001001KA1240N+02131MA1999999101681MD1999999+0001MW1011REMSYN088AAXX  29124 82900 21597 72303 10230 20216 30168 40177 70166 87700 333 20213 58000 60074;
0167829000999992001072918004-08040-034920FM-12+000799999V0201801N005110075019N0100001N1+02631+02161101501ADDAA199000091GF107991071031008001001001MA1999999101411MD1999999-0021REMSYN070AAXX  29184 82900 32597 71810 10263 20216 30141 40150 87300 333 59002;EQDQ01  00002PRCP99
0198829000999992001073000004-08040-034920FM-12+000799999V0201801N002110075019N0020001N1+02461+02131101761ADDAA199000091GF106991061021008001001001KA1240M+02751MA1999999101671MD1999999+0031REMSYN088AAXX  30004 82900 32595 61804 10246 20213 30167 40176 86200 333 10275 29083 55037 58003;EQDQ01  00002PRCP99
0201829000999992001073012004-08040-034920FM-12+000799999V0201801N005110075019N0100001N1+02601+02171101721ADDAA124007191AY161061AY221061GF106991051041008001021001KA1240N+02161MA1999999101631MD1999999-0051MW1011REMSYN088AAXX  30124 82900 21597 61810 10260 20217 30163 40172 70162 85420 333 20216 59005 60074;
0182829000999992001073018004-08040-034920FM-12+000799999V0201801N006210075019N0100001N1+02681+02181101691ADDAA106000191AY151061AY221061GF106991051041008001021001MA1999999101601MD1999999+0211MW1011REMSYN082AAXX  30184 82900 21597 61812 10268 20218 30160 40169 70152 85420 333 58021 69921;
0198829000999992001073100004-08040-034920FM-12+000799999V0201801N002610075019N0020001N1+02521+02131101841ADDAA199000091GF106991061021008001001001KA1240M+02761MA1999999101751MD1999999+0081REMSYN088AAXX  31004 82900 32595 61805 10252 20213 30175 40184 86200 333 10276 29077 55043 58008;EQDQ01  00002PRCP99
0201829000999992001073112004-08040-034920FM-12+000799999V0201401N005110075019N0100001N1+02701+01941101911ADDAA124001091AY161061AY221061GF106991051021008001011001KA1240N+02101MA1999999101821MD1999999+0191MW1011REMSYN088AAXX  31124 82900 21597 61410 10270 20194 30182 40191 70162 85210 333 20210 58019 60014;
0167829000999992001073118004-08040-034920FM-12+000799999V0201801N004612200019N0100001N1+02721+01821101661ADDAA199000091GF104991041021008001001001MA1999999101571MD1999999-0031REMSYN070AAXX  31184 82900 32597 41809 10272 20182 30157 40166 84200 333 59003;EQDQ01  00002PRCP99
0213829000999992001080100004-08040-034920FM-12+000799999V0201801N003110075019N0020001N1+02491+02031101901ADDAA106000391AY151061AY221061GF106991061021008001001001KA1240M+02791MA1999999101811MD1999999+0061MW1011REMSYN100AAXX  01004 82900 21595 61806 10249 20203 30181 40190 70152 86200 333 10279 29068 55099 58006 69931;
0173829000999992001080112004-08040-034920FM-12+000799999V0201401N005112200019N0100001N1+02701+01861101991ADDAA124000391GF104991041021008001001001KA1240N+02101MA1999999101901MD1999999+0081REMSYN082AAXX  01124 82900 22597 41410 10270 20186 30190 40199 84200 333 20210 58008 69934;
0167829000999992001080118004-08040-034920FM-12+000799999V0201801N006210075019N0100001N1+02641+01981101791ADDAA199000091GF105991051021008001001001MA1999999101701MD1999999-0131REMSYN070AAXX  01184 82900 32597 51812 10264 20198 30170 40179 85200 333 59013;EQDQ01  00002PRCP99
0198829000999992001080200004-08040-034920FM-12+000799999V0202301N001510075019N0020001N1+02391+02071101971ADDAA199000091GF105991051021008001001001KA1240M+02811MA1999999101881MD1999999+0071REMSYN088AAXX  02004 82900 32595 52303 10239 20207 30188 40197 85200 333 10281 29072 55099 58007;EQDQ01  00002PRCP99
0201829000999992001080212004-08040-034920FM-12+000799999V0201801N003112200019N0100001N1+02441+02111101931ADDAA124004191AY161061AY221061GF103991031031008001001001KA1240N+02081MA1999999101841MD1999999-0061MW1031REMSYN088AAXX  02124 82900 21597 31806 10244 20211 30184 40193 70362 83300 333 20208 59006 60044;
0182829000999992001080218004-08040-034920FM-12+000799999V0201801N005710075019N0100001N1+02401+02311101711ADDAA106001091AY161061AY261061GF108991081071008001999999MA1999999101621MD1999999-0081MW1031REMSYN082AAXX  02184 82900 21597 81811 10240 20231 30162 40171 70366 887// 333 59008 69991;
0213829000999992001080300004-08040-034920FM-12+000799999V0201801N003110075019N0020001N1+02161+02091101861ADDAA106004191AY161061AY221061GF107991071021008001001001KA1240M+02741MA1999999101771MD1999999-0111MW1031REMSYN100AAXX  03004 82900 21595 71806 10216 20209 30177 40186 70362 87200 333 10274 29089 55033 59011 60041;
0201829000999992001080312004-08040-034920FM-12+000799999V0201801N003610450019N0100001N1+02641+02271101861ADDAA124030091AY161061AY221061GF106991041031008001031001KA1240N+02121MA1999999101771MD1999999-0071MW1021REMSYN088AAXX  03124 82900 21597 61807 10264 20227 30177 40186 70262 84330 333 20212 59007 60304;
0194829000999992001080400004-08040-034920FM-12+000799999V0201401N002610075019N0020001N1+02391+02071101811ADDAA106003091AY161061AY201061GF106991061021008001001001MA1999999101721MD1999999-0051MW1501REMSYN094AAXX  04004 82900 21595 61405 10239 20207 30172 40181 75060 86200 333 29077 55083 59005 60031;
0192829000999992001080412004-08040-034920FM-12+000799999V0201401N003612200019N0100001N1+02671+01901101851ADDAA124003091GF102991021011008001001001KA1240N+02261MA1999999999999MD1999999+0011REMSYN082AAXX  04124 82900 22597 21407 10267 20190 39076 40185 82100 333 20226 58001 60034;EQDQ01 090763APOSP 
0183829000999992001080418004-08040-034920FM-12+000799999V0201801N003110075019N0100001N1+02681+01861101611ADDAA199000091GF105991051021008001001001MA1999999101522MD1999999-0011REMSYN070AAXX  04184 82900 32597 51806 10268 20186 30152 40161 85200 333 59001;EQDQ01+101523APOSP Q02  00002PRCP99
0198829000999992001080500004-08040-034920FM-12+000799999V0201801N003112200019N0020001N1+02451+99999101721ADDAA199000091GF104991041021008001001001KA1240M+02781MA1999999101641MD1999999-0091REMSYN088AAXX  05004 82900 32595 41806 10245 20292 30164 40172 84200 333 10278 29068 55099 59009;EQDQ01  00002PRCP99
0186829000999992001080512004-08040-034920FM-12+000799999V0201801N005110075019N0100001N1+02691+02111101911ADDAA199000091GF105991051021008001001001KA1240N+02201MA1999999101821MD1999999-0111REMSYN076AAXX  05124 82900 31597 51810 10269 20211 30182 40191 85200 333 20220 59011;EQDQ01  00002PRCP99
0167829000999992001080518004-08040-034920FM-12+000799999V0201801N005110075019N0100001N1+02631+02051101631ADDAA199000091GF106991061021008001001001MA1999999101541MD1999999+0021REMSYN070AAXX  05184 82900 32597 61810 10263 20205 30154 40163 86200 333 58002;EQDQ01  00002PRCP99
0213829000999992001080600004-08040-034920FM-12+000799999V0202301N001510075019N0020001N1+02341+02071101851ADDAA106000191AY151061AY221061GF105991051021008001001001KA1240M+02791MA1999999101761MD1999999+0131MW1011REMSYN100AAXX  06004 82900 21595 52303 10234 20207 30176 40185 70152 85200 333 10279 29078 55085 58013 69921;
0201829000999992001080612004-08040-034920FM-12+000799999V0201801N003110075019N0100001N1+02521+01961101951ADDAA124006191AY161061AY221061GF107991061071008001011001KA1240N+02101MA1999999101861MD1999999-0011MW1011REMSYN088AAXX  06124 82900 21597 71806 10252 20196 30186 40195 70162 86710 333 20210 59001 60064;
0167829000999992001080618004-08040-034920FM-12+000799999V0201801N004612200019N0100001N1+02681+01991101701ADDAA199000091GF103991031021008001001001MA1999999101611MD1999999+0071REMSYN070AAXX  06184 82900 32597 31809 10268 20199 30161 40170 83200 333 58007;EQDQ01  00002PRCP99
0198829000999992001080700004-08040-034920FM-12+000799999V0202301N001512200019N0020001N1+02261+02011101841ADDAA199000091GF102991021021008001001001KA1240M+02701MA1999999101751MD1999999-0011REMSYN088AAXX  07004 82900 32595 22303 10226 20201 30175 40184 82200 333 10270 29077 55065 59001;EQDQ01  00002PRCP99
0200829000999992001080712004-08040-034920FM-12+000799999V0201401N004610075019N0100001N1+02621+02271101961ADDAA124015091AY161061AY221061GF106991061041008001001001KA1240N+02101MA1999999101871MD1999999+0011MW1031REMSYN087AAXX  07124 8290021597 61409 10262 20227 30187 40196 70362 86400 333 20210 58001 60154;
0182829000999992001080718004-08040-034920FM-12+000799999V0201801N002610120019N0040001N1+02401+02241101731ADDAA106003091AY161061AY261061GF108991081081008001999999MA1999999101641MD1999999+0031MW1601REMSYN082AAXX  07184 82900 21596 81805 10240 20224 30164 40173 76066 888// 333 58003 60031;
0213829000999992001080800004-08040-034920FM-12+000799999V0201801N003110075019N0020001N1+02441+01881101891ADDAA106007191AY161061AY261061GF106991061021008001001001KA1240M+02621MA1999999101801MD1999999+0061MW1031REMSYN100AAXX  08004 82900 21595 61806 10244 20188 30180 40189 70366 86200 333 10262 29078 55016 58006 60071;
0173829000999992001080812004-08040-034920FM-12+000799999V0201401N006212200019N0100001N1+02661+01921101971ADDAA124009991GF102991021021008001001001KA1240N+02261MA1999999101881MD1999999+0011REMSYN082AAXX  08124 82900 22597 21412 10266 20192 30188 40197 82200 333 20226 58001 60104;
0167829000999992001080818004-08040-034920FM-12+000799999V0201401N003612200019N0100001N1+02681+01841101691ADDAA199000091GF104991041021008001001001MA1999999101601MD1999999-0041REMSYN070AAXX  08184 82900 32597 41407 10268 20184 30160 40169 84200 333 59004;EQDQ01  00002PRCP99
0198829000999992001080900004-08040-034920FM-12+000799999V0201801N003112200019N0020001N1+02471+01901101841ADDAA199000091GF103991031021008001001001KA1240M+02791MA1999999101751MD1999999-0081REMSYN088AAXX  09004 82900 32595 31806 10247 20190 30175 40184 83200 333 10279 29067 55099 59008;EQDQ01  00002PRCP99
0201829000999992001080912004-08040-034920FM-12+000799999V0201401N003110075019N0100001N1+02661+02141101861ADDAA124008991AY161061AY221061GF106991061031008001001001KA1240N+02091MA1999999101771MD1999999-0111MW1031REMSYN088AAXX  09124 82900 21597 61406 10266 20214 30177 40186 70362 86300 333 20209 59011 60094;
0182829000999992001080918004-08040-034920FM-12+000799999V0201401N003612200019N0100001N1+02601+01881101721ADDAA106000591AY161061AY221061GF104991031021008001021001MA1999999101631MD1999999+0031MW1021REMSYN082AAXX  09184 82900 21597 41407 10260 20188 30163 40172 70262 83220 333 58003 69961;
0213829000999992001081000004-08040-034920FM-12+000799999V0201801N002110075019N0020001N1+02271+02111101891ADDAA106001091AY161061AY221061GF107991071071008001001001KA1240M+02721MA1999999101801MD1999999+0051MW1011REMSYN100AAXX  10004 82900 21595 71804 10227 20211 30180 40189 70162 87700 333 10272 29081 55060 58005 60011;
0220829000999992001081012004-08040-034920FM-12+000799999V0201801N005110075019N0100001N1+02601+02101101841ADDAA124004191AY161061AY221061GF106991999021008001001001KA1240N+02101MA1999999101751MD1999999-0021MW1021REMSYN088AAXX  10124 82900 21597 61810 10260 20210 30175 40184 70262 85200 333 20210 59002 60044;EQDQ01+000052SCOTLC
0167829000999992001081018004-08040-034920FM-12+000799999V0201801N003610075019N0100001N1+02661+02021101621ADDAA199000091GF105991051021008001001001MA1999999101531MD1999999-0101REMSYN070AAXX  10184 82900 32597 51807 10266 20202 30153 40162 85200 333 59010;EQDQ01  00002PRCP99
0208829000999992001081100004-08040-034920FM-12+000799999V0202301N001512200019N0020001N1+02261+01961101841ADDAA199000091GA1001+999999999GF100991001001999999001001KA1240M+02781MA1999999101751MD1999999-0051REMSYN082AAXX  11004 82900 32995 02303 10226 20196 30175 40184 333 10278 29060 55097 59005;EQDQ01  00002PRCP99
0186829000999992001081112004-08040-034920FM-12+000799999V0201801N002112200019N0100001N1+02581+02121101841ADDAA199000091GF104991031021008001021001KA1240N+02171MA1999999101751MD1999999+0001REMSYN076AAXX  11124 82900 32597 41804 10258 20212 30175 40184 83220 333 20217 58000;EQDQ01  00002PRCP99
0167829000999992001081118004-08040-034920FM-12+000799999V0201801N003112200019N0100001N1+02721+01981101561ADDAA199000091GF103991031011008001001001MA1999999101471MD1999999-0061REMSYN070AAXX  11184 82900 32597 31806 10272 20198 30147 40156 83100 333 59006;EQDQ01  00002PRCP99
0198829000999992001081200004-08040-034920FM-12+000799999V0209999C000010075019N0020001N1+02251+02161101821ADDAA199000091GF105991051021008001001001KA1240M+02791MA1999999101731MD1999999-0021REMSYN088AAXX  12004 82900 32595 50000 10225 20216 30173 40182 85200 333 10279 29082 55095 59002;EQDQ01  00002PRCP99
0167829000999992001081218004-08040-034920FM-12+000799999V0201401N003110075019N0100001N1+02661+02111101621ADDAA199000091GF105991051021008001001001MA1999999101531MD1999999+0061REMSYN070AAXX  12184 82900 32597 51406 10266 20211 30153 40162 85200 333 58006;EQDQ01  00002PRCP99
0198829000999992001081300004-08040-034920FM-12+000799999V0201401N003112200019N0020001N1+02471+02011101911ADDAA199000091GF103991031021008001001001KA1240M+02761MA1999999101821MD1999999+0091REMSYN088AAXX  13004 82900 32595 31406 10247 20201 30182 40191 83200 333 10276 29080 55059 58009;EQDQ01  00002PRCP99
0201829000999992001081312004-08040-034920FM-12+000799999V0201801N006210075019N0100001N1+02601+01961101951ADDAA124003091AY161061AY221061GF106991061021008001001001KA1240N+02101MA1999999101861MD1999999-0011MW1031REMSYN088AAXX  13124 82900 21597 61812 10260 20196 30186 40195 70362 86200 333 20210 59001 60034;
0167829000999992001081318004-08040-034920FM-12+000799999V0201801N005710075019N0100001N1+02701+01961101591ADDAA199000091GF106991061021008001001001MA1999999101501MD1999999-0031REMSYN070AAXX  13184 82900 32597 61811 10270 20196 30150 40159 86200 333 59003;EQDQ01  00002PRCP99
0198829000999992001081400004-08040-034920FM-12+000799999V0201801N004612200019N0020001N1+02351+01971101721ADDAA199000091GF102991021011008001001001KA1240M+02771MA1999999101631MD1999999-0191REMSYN088AAXX  14004 82900 32595 21809 10235 20197 30163 40172 82100 333 10277 29072 55084 59019;EQDQ01  00002PRCP99
0186829000999992001081412004-08040-034920FM-12+000799999V0201801N004612200019N0100001N1+02621+02031101771ADDAA199000091GF104991041021008001001001KA1240N+01871MA1999999101681MD1999999-0181REMSYN076AAXX  14124 82900 32597 41809 10262 20203 30168 40177 84200 333 20187 59018;EQDQ01  00002PRCP99
0167829000999992001081418004-08040-034920FM-12+000799999V0201401N003610075019N0100001N1+02761+02041101521ADDAA199000091GF105991051021008001001001MA1999999101431MD1999999-0071REMSYN070AAXX  14184 82900 32597 51407 10276 20204 30143 40152 85200 333 59007;EQDQ01  00002PRCP99
0213829000999992001081500004-08040-034920FM-12+000799999V0209999C000010075019N0020001N1+02301+02201101731ADDAA106003091AY151061AY221061GF106991061021008001001001KA1240M+02781MA1999999101641MD1999999+0011MW1601REMSYN100AAXX  15004 82900 21595 60000 10230 20220 30164 40173 76052 86200 333 10278 29081 55098 58001 60031;
0201829000999992001081512004-08040-034920FM-12+000799999V0201801N005110075019N0100001N1+02571+02061101931ADDAA124042991AY161061AY261061GF107991061041008001021001KA1240N+02121MA1999999101841MD1999999+0161MW1031REMSYN088AAXX  15124 82900 21597 71810 10257 20206 30184 40193 70366 86420 333 20212 58016 60434;
0167829000999992001081518004-08040-034920FM-12+000799999V0201401N001512200019N0100001N1+02641+01951101741ADDAA199000091GF104991031021008001031001MA1999999101651MD1999999+0221REMSYN070AAXX  15184 82900 32597 41403 10264 20195 30165 40174 83230 333 58022;EQDQ01  00002PRCP99
0198829000999992001081600004-08040-034920FM-12+000799999V0201801N002110075019N0020001N1+02501+02051101941ADDAA199000091GF106991061021008001001001KA1240M+02771MA1999999101851MD1999999+0211REMSYN088AAXX  16004 82900 32595 61804 10250 20205 30185 40194 86200 333 10277 29073 55049 58021;EQDQ01  00002PRCP99
0145829000999992001081612004-08040-034920FM-12+000799999V0201801N001010075019N0100001N1+02471+02111101971ADDAY161061AY221061GF108991081031008001999999MA1999999101881MW1031REMSYN070AAXX  16124 82900 21597 81802 10247 20211 30188 40197 70362 883// 333;
0182829000999992001081618004-08040-034920FM-12+000799999V0201801N005110075019N0100001N1+02641+01951101711ADDAA106007191AY161061AY261061GF107991061021008001011001MA1999999101621MD1999999-0031MW1011REMSYN082AAXX  16184 82900 21597 71810 10264 20195 30162 40171 70166 86210 333 59003 60071;
0198829000999992001081700004-08040-034920FM-12+000799999V0202301N001512200019N0020001N1+02251+02071101921ADDAA199000091GF103991031021008001001001KA1240M+02681MA1999999101831MD1999999-0021REMSYN088AAXX  17004 82900 32595 32303 10225 20207 30183 40192 83200 333 10268 29086 55025 59002;EQDQ01  00002PRCP99
0173829000999992001081712004-08040-034920FM-12+000799999V0201801N005710075019N0100001N1+02641+01881102031ADDAA124007191GF105991051021008001001001KA1240N+01921MA1999999101941MD1999999+0061REMSYN082AAXX  17124 82900 22597 51811 10264 20188 30194 40203 85200 333 20192 58006 60074;
0167829000999992001081718004-08040-034920FM-12+000799999V0201801N005110075019N0100001N1+02621+01961101621ADDAA199000091GF105991051021008001001001MA1999999101531MD1999999-0091REMSYN070AAXX  17184 82900 32597 51810 10262 20196 30153 40162 85200 333 59009;EQDQ01  00002PRCP99
0198829000999992001081800004-08040-034920FM-12+000799999V0201801N003112200019N0020001N1+02421+01951101841ADDAA199000091GF103991031011008001001001KA1240M+02771MA1999999101751MD1999999-0081REMSYN088AAXX  18004 82900 32595 31806 10242 20195 30175 40184 83100 333 10277 29070 55104 59008;EQDQ01  00002PRCP99
0202829000999992001081812004-08040-034920FM-12+000799999V0201401N003119999999N0100001N1+02701+02131101851ADDAA199000091GF106991999021008001001001KA1240N+02001MA1999999101761MD1999999-0181REMSYN076AAXX  18124 82900 32597 61406 10270 20213 30176 40185 84200 333 20200 59018;EQDQ01+000042SCOTLCQ02  00002PRCP99
0201829000999992001081818004-08040-034920FM-12+000799999V0201401N003619999999N0100001N1+02701+02081101611ADDAA106000591AY161061AY221061GF105991999021008001001001MA1999999101521MD1999999-0011MW1021REMSYN082AAXX  18184 82900 21597 51407 10270 20208 30152 40161 70262 83200 333 59001 69961;EQDQ01+000032SCOTLC
0232829000999992001081900004-08040-034920FM-12+000799999V0201801N001512200019N0020001N1+02431+02151101821ADDAA106002091AY161061AY221061GF101991999011008001001001KA1240M+02791MA1999999101731MD1999999-0021MW1011REMSYN100AAXX  19004 82900 21595 11803 10243 20215 30173 40182 70162 82100 333 10279 29078 55084 59002 60021;EQDQ01+000022SCOTLC
0201829000999992001081912004-08040-034920FM-12+000799999V0201401N001510450019N0100001N1+02601+02251101751ADDAA124009991AY161061AY221061GF106991041021008001031001KA1240N+02171MA1999999101661MD1999999-0101MW1031REMSYN088AAXX  19124 82900 21597 61403 10260 20225 30166 40175 70362 84230 333 20217 59010 60104;
0167829000999992001081918004-08040-034920FM-12+000799999V0201801N005110075019N0100001N1+02681+02181101551ADDAA199000091GF106991061021008001001001MA1999999101461MD1999999-0061REMSYN070AAXX  19184 82900 32597 61810 10268 20218 30146 40155 86200 333 59006;EQDQ01  00002PRCP99
0198829000999992001082000004-08040-034920FM-12+000799999V0201801N003110075019N0020001N1+02451+02171101761ADDAA199000091GF107991071021008001001001KA1240M+02751MA1999999101671MD1999999-0061REMSYN088AAXX  20004 82900 32595 71806 10245 20217 30167 40176 87200 333 10275 29084 55079 59006;EQDQ01  00002PRCP99
0201829000999992001082012004-08040-034920FM-12+000799999V0201401N005112200019N0100001N1+02681+02091101951ADDAA124002091AY161061AY221061GF104991041021008001001001KA1240N+02341MA1999999101861MD1999999+0201MW1021REMSYN088AAXX  20124 82900 21597 41410 10268 20209 30186 40195 70262 84200 333 20234 58020 60024;
0167829000999992001082018004-08040-034920FM-12+000799999V0201801N006210075019N0100001N1+02741+02021101661ADDAA199000091GF105991051021008001001001MA1999999101571MD1999999+0111REMSYN070AAXX  20184 82900 32597 51812 10274 20202 30157 40166 85200 333 58011;EQDQ01  00002PRCP99
0198829000999992001082100004-08040-034920FM-12+000799999V0201801N003112200019N0020001N1+02391+02091101831ADDAA199000091GF104991041021008001001001KA1240M+02801MA1999999101741MD1999999+0071REMSYN088AAXX  21004 82900 32595 41806 10239 20209 30174 40183 84200 333 10280 29076 55097 58007;EQDQ01  00002PRCP99
0201829000999992001082112004-08040-034920FM-12+000799999V0201801N001512200019N0100001N1+02621+02161101851ADDAA124000591AY161061AY221061GF102991021021008001001001KA1240N+02061MA1999999101761MD1999999-0101MW1021REMSYN088AAXX  21124 82900 21597 21803 10262 20216 30176 40185 70262 82200 333 20206 59010 69944;
0167829000999992001082118004-08040-034920FM-12+000799999V0201801N001510075019N0100001N1+02731+02151101591ADDAA199000091GF105991051021008001001001MA1999999101501MD1999999-0071REMSYN070AAXX  21184 82900 32597 51803 10273 20215 30150 40159 85200 333 59007;EQDQ01  00002PRCP99
0198829000999992001082200004-08040-034920FM-12+000799999V0201801N003112200019N0020001N1+02511+02231101801ADDAA199000091GF102991021021008001001001KA1240M+02861MA1999999101711MD1999999-0031REMSYN088AAXX  22004 82900 32595 21806 10251 20223 30171 40180 82200 333 10286 29079 55096 59003;EQDQ01  00002PRCP99
0201829000999992001082212004-08040-034920FM-12+000799999V0201401N005110120019N0040001N1+02461+02301101861ADDAA124016091AY161061AY221061GF108991081081008001999999KA1240N+02121MA1999999101771MD1999999+0011MW1611REMSYN088AAXX  22124 82900 21596 81410 10246 20230 30177 40186 76162 888// 333 20212 58001 60164;
0182829000999992001082218004-08040-034920FM-12+000799999V0201401N006210075019N0100001N1+02641+02181101601ADDAA106002091AY161061AY261061GF108991081051008001999999MA1999999101511MD1999999+0011MW1031REMSYN082AAXX  22184 82900 21597 81412 10264 20218 30151 40160 70366 885// 333 58001 60021;
0179829000999992001082300004-08040-034920FM-12+000799999V0201401N002110075019N0020001N1+02471+02151101851ADDAA199000021GF106991061021008001001001KA1240M+02691MA1999999101761MD1999999+0051REMSYN088AAXX  23004 82900 32595 61404 10247 20215 30176 40185 86200 333 10269 29083 55010 58005;
0173829000999992001082312004-08040-034920FM-12+000799999V0201401N005112200019N0100001N1+02721+02001101861ADDAA124002091GF104991041021008001001001KA1240N+02061MA1999999101771MD1999999+0001REMSYN082AAXX  23124 82900 22597 41410 10272 20200 30177 40186 84200 333 20206 58000 60024;
0167829000999992001082318004-08040-034920FM-12+000799999V0201801N004610075019N0100001N1+02731+02171101571ADDAA199000091GF107991071021008001001001MA1999999101481MD1999999-0031REMSYN070AAXX  23184 82900 32597 71809 10273 20217 30148 40157 87200 333 59003;EQDQ01  00002PRCP99
0198829000999992001082400004-08040-034920FM-12+000799999V0202301N002610075019N0020001N1+02381+02151101701ADDAA199000091GF106991061041008001001001KA1240M+02781MA1999999101611MD1999999-0151REMSYN088AAXX  24004 82900 32595 62305 10238 20215 30161 40170 86400 333 10278 29078 55077 59015;EQDQ01  00002PRCP99
0201829000999992001082412004-08040-034920FM-12+000799999V0201801N002110450019N0100001N1+02741+02081101741ADDAA124002091AY161061AY221061GF106991041031008001031001KA1240N+02001MA1999999101651MD1999999-0121MW1021REMSYN088AAXX  24124 82900 21597 61804 10274 20208 30165 40174 70262 84330 333 20200 59012 60024;
0201829000999992001082418004-08040-034920FM-12+000799999V0201801N005110075019N0040001N1+02541+02311101581ADDAA106000391AY151061AY221061GF108991999071008001001001MA1999999101491MD1999999+0011MW1501REMSYN082AAXX  24184 82900 21596 81810 10254 20231 30149 40158 75052 87700 333 58001 69931;EQDQ01+000072SCOTLC
0213829000999992001082500004-08040-034920FM-12+000799999V0201801N004610075019N0020001N1+02481+02171101631ADDAA106002091AY161061AY221061GF107991071071008001001001KA1240M+02771MA1999999101541MD1999999-0071MW1031REMSYN100AAXX  25004 82900 21595 71809 10248 20217 30154 40163 70362 87700 333 10277 29080 55037 59007 60021;
0201829000999992001082512004-08040-034920FM-12+000799999V0201401N005110075019N0100001N1+02701+02131101761ADDAA124004191AY161061AY261061GF106991061021008001001001KA1240N+02201MA1999999101671MD1999999+0021MW1021REMSYN088AAXX  25124 82900 21597 61410 10270 20213 30167 40176 70266 86200 333 20220 58002 60044;
0167829000999992001082518004-08040-034920FM-12+000799999V0201801N003110075019N0100001N1+02701+02171101581ADDAA199000091GF106991061021008001001001MA1999999101491MD1999999+0001REMSYN070AAXX  25184 82900 32597 61806 10270 20217 30149 40158 86200 333 58000;EQDQ01  00002PRCP99
0213829000999992001082600004-08040-034920FM-12+000799999V0201801N001510075019N0100001N1+02341+02221101791ADDAA106002091AY161061AY221061GF107991071071008001001001KA1240M+02801MA1999999101701MD1999999+0161MW1011REMSYN100AAXX  26004 82900 21597 71803 10234 20222 30170 40179 70162 87700 333 10280 29082 55102 58016 60021;
0201829000999992001082612004-08040-034920FM-12+000799999V0201401N004110075019N0100001N1+02681+02111101851ADDAA124006191AY161061AY261061GF106991061021008001001001KA1240N+02271MA1999999101761MD1999999+0091MW1021REMSYN088AAXX  26124 82900 21597 61408 10268 20211 30176 40185 70266 86200 333 20227 58009 60064;
0167829000999992001082618004-08040-034920FM-12+000799999V0201801N005110075019N0100001N1+02671+02041101671ADDAA199000091GF106991061021008001001001MA1999999101581MD1999999+0091REMSYN070AAXX  26184 82900 32597 61810 10267 20204 30158 40167 86200 333 58009;EQDQ01  00002PRCP99
0198829000999992001082700004-08040-034920FM-12+000799999V0201801N001512200019N0020001N1+02441+02131101741ADDAA199000091GF102991021011008001001001KA1240M+02751MA1999999101651MD1999999-0051REMSYN088AAXX  27004 82900 32595 21803 10244 20213 30165 40174 82100 333 10275 29076 55076 59005;EQDQ01  00002PRCP99
0186829000999992001082712004-08040-034920FM-12+000799999V0201801N003110075019N0100001N1+02561+02151101891ADDAA199000091GF107991061041008001021001KA1240N+02201MA1999999101801MD1999999+0041REMSYN076AAXX  27124 82900 32597 71806 10256 20215 30180 40189 86420 333 20220 58004;EQDQ01  00002PRCP99
0167829000999992001082718004-08040-034920FM-12+000799999V0201801N005710075019N0100001N1+02661+02181101511ADDAA199000091GF107991071071008001001001MA1999999101421MD1999999-0101REMSYN070AAXX  27184 82900 32597 71811 10266 20218 30142 40151 87700 333 59010;EQDQ01  00002PRCP99
0214829000999992001082800004-08040-034920FM-12+000799999V0201801N003119999999N0020001N1+02541+02211101731ADDAA199000091GF107991999011008001001001KA1240M+02831MA1999999101641MD1999999-0011REMSYN088AAXX  28004 82900 32595 71806 10254 20221 30164 40173 82100 333 10283 29079 55035 59001;EQDQ01+000022SCOTLCQ02  00002PRCP99
0201829000999992001082812004-08040-034920FM-12+000799999V0201801N003610075019N0100001N1+02601+02281101841ADDAA124000591AY151061AY221061GF107991051031008001031001KA1240N+02241MA1999999101751MD1999999-0051MW1021REMSYN088AAXX  28124 82900 21597 71807 10260 20228 30175 40184 70252 85330 333 20224 59005 69954;
0182829000999992001082818004-08040-034920FM-12+000799999V0201801N003110450019N0100001N1+02591+02181101621ADDAA106000891AY151061AY221061GF106991041041008001031001MA1999999101531MD1999999+0111MW1021REMSYN082AAXX  28184 82900 21597 61806 10259 20218 30153 40162 70252 84430 333 58011 69971;
0198829000999992001082900004-08040-034920FM-12+000799999V0201801N001512200019N0020001N1+02491+02111101841ADDAA199000091GF104991041021008001001001KA1240M+02741MA1999999101741MD1999999+0101REMSYN088AAXX  29004 82900 32595 41803 10249 20211 30174 40184 84200 333 10274 29080 55013 58010;EQDQ01  00002PRCP99
0173829000999992001082912004-08040-034920FM-12+000799999V0201401N004110075019N0100001N1+02711+02121101841ADDAA124000891GF106991051041008001021001KA1240N+02261MA1999999101751MD1999999+0001REMSYN082AAXX  29124 82900 22597 61408 10271 20212 30175 40184 85420 333 20226 58000 69974;
0167829000999992001082918004-08040-034920FM-12+000799999V0201801N003612200019N0100001N1+02751+02081101591ADDAA199000091GF104991041021008001001001MA1999999101501MD1999999-0031REMSYN070AAXX  29184 82900 32597 41807 10275 20208 30150 40159 84200 333 59003;EQDQ01  00002PRCP99
0198829000999992001083000004-08040-034920FM-12+000799999V0202301N000512200019N0020001N1+02421+02071101821ADDAA199000091GF102991021011008001001001KA1240M+02841MA1999999101731MD1999999-0011REMSYN088AAXX  30004 82900 32595 22301 10242 20207 30173 40182 82100 333 10284 29075 55100 59001;EQDQ01  00002PRCP99
0201829000999992001083012004-08040-034920FM-12+000799999V0201401N005110075019N0100001N1+02671+02201101811ADDAA124009991AY161061AY221061GF106991051021008001011001KA1240N+02231MA1999999101721MD1999999-0031MW1031REMSYN088AAXX  30124 82900 21597 61410 10267 20220 30172 40181 70362 85210 333 20223 59003 60104;
0167829000999992001083018004-08040-034920FM-12+000799999V0201401N005710075019N0100001N1+02681+02061101611ADDAA199000091GF107991061041008001021001MA1999999101521MD1999999+0021REMSYN070AAXX  30184 82900 32597 71411 10268 20206 30152 40161 86420 333 58002;EQDQ01  00002PRCP99
0198829000999992001083100004-08040-034920FM-12+000799999V0201801N001512200019N0020001N1+02481+02151101841ADDAA199000091GF102991021011008001001001KA1240M+02791MA1999999101751MD1999999+0021REMSYN088AAXX  31004 82900 32595 21803 10248 20215 30175 40184 82100 333 10279 29077 55017 58002;EQDQ01  00002PRCP99
0186829000999992001083112004-08040-034920FM-12+000799999V0201401N005710075019N0100001N1+02701+02171101881ADDAA199000091GF106991061041008001001001KA1240N+02331MA1999999101791MD1999999+0071REMSYN076AAXX  31124 82900 32597 61411 10270 20217 30179 40188 86400 333 20233 58007;EQDQ01  00002PRCP99
0167829000999992001083118004-08040-034920FM-12+000799999V0201801N005112200019N0100001N1+02701+02061101531ADDAA199000091GF104991041021008001001001MA1999999101441MD1999999-0081REMSYN070AAXX  31184 82900 32597 41810 10270 20206 30144 40153 84200 333 59008;EQDQ01  00002PRCP99
0213829000999992001090100004-08040-034920FM-12+000799999V0201801N003110075019N0020001N1+02501+02171101721ADDAA106002091AY121061AY221061GF107991071071008001001001KA1240M+02831MA1999999101631MD1999999-0121MW1601REMSYN100AAXX  01004 82900 21595 71806 10250 20217 30163 40172 76022 87700 333 10283 29076 55100 59012 60021;
0173829000999992001090112004-08040-034920FM-12+000799999V0201801N004610075019N0100001N1+02721+02081101771ADDAA124002091GF106991061021008001001001KA1240N+02301MA1999999101681MD1999999-0111REMSYN082AAXX  01124 82900 22597 61809 10272 20208 30168 40177 86200 333 20230 59011 60024;
0183829000999992001090118004-08040-034920FM-12+000799999V0201401N003119999999N0100001N1+02511+02091101511ADDAA199000091GF107991999021008001001001MA1999999101421MD1999999-0021REMSYN070AAXX  01184 82900 32597 71406 10251 20209 30142 40151 84200 333 59002;EQDQ01+000042SCOTLCQ02  00002PRCP99
0232829000999992001090200004-08040-034920FM-12+000799999V0201801N003119999999N0020001N1+02481+02151101681ADDAA106002091AY161061AY221061GF107991999011008001001001KA1240M+02781MA1999999101591MD1999999-0041MW1011REMSYN100AAXX  02004 82900 21595 71806 10248 20215 30159 40168 70162 82100 333 10278 29078 55039 59004 60021;EQDQ01+000022SCOTLC
0201829000999992001090212004-08040-034920FM-12+000799999V0201401N003110075019N0100001N1+02291+02271101771ADDAA124020191AY161061AY261061GF108991081061008001999999KA1240N+02181MA1999999101681MD1999999+0001MW1511REMSYN088AAXX  02124 82900 21597 81406 10229 20227 30168 40177 75166 886// 333 20218 58000 60204;
0182829000999992001090218004-08040-034920FM-12+000799999V0201401N004110075019N0100001N1+02521+02271101371ADDAA106015091AY161061AY261061GF108991081061008001999999MA1999999101281MD1999999-0141MW1031REMSYN082AAXX  02184 82900 21597 81408 10252 20227 30128 40137 70366 886// 333 59014 60151;
0213829000999992001090300004-08040-034920FM-12+000799999V0201801N001510075019N0020001N1+02251+02191101641ADDAA106036191AY161061AY261061GF107991071071008001001001KA1240M+02541MA1999999101551MD1999999-0041MW1601REMSYN100AAXX  03004 82900 21595 71803 10225 20219 30155 40164 76066 87700 333 10254 29094 55000 59004 60361;
0119829000999992001090312004-08040-034920FM-12+000799999V0201401N005119999999N0100001N1+99999+99999999999ADDGF105991999999008001999999REMSYN081AAXX  03124 82900 22597 51410 0268 20216 30160 40169 84210 333 20225 59008 60514;
0167829000999992001090318004-08040-034920FM-12+000799999V0201801N003610075019N0100001N1+02691+02221101561ADDAA199000091GF106991061021008001001001MA1999999101471MD1999999+0101REMSYN070AAXX  03184 82900 32597 61807 10269 20222 30147 40156 86200 333 58010;EQDQ01  00002PRCP99
0232829000999992001090400004-08040-034920FM-12+000799999V0201801N002119999999N0020001N1+02461+02271101631ADDAA106000391AY161061AY221061GF106991999021008001001001KA1240M+02781MA1999999101541MD1999999-0011MW1011REMSYN100AAXX  04004 82900 21595 61804 10246 20227 30154 40163 70162 83200 333 10278 29082 55094 59001 69931;EQDQ01+000032SCOTLC
0201829000999992001090412004-08040-034920FM-12+000799999V0202301N001510075019N0100001N1+02431+02191101721ADDAA124004191AY161061AY201061GF107991071071008001001001KA1240N+02261MA1999999101631MD1999999+0031MW1511REMSYN088AAXX  04124 82900 21597 72303 10243 20219 30163 40172 75160 87700 333 20226 58003 60044;
0182829000999992001090418004-08040-034920FM-12+000799999V0201401N004110450019N0100001N1+02671+02141101431ADDAA106000891AY151061AY221061GF105991041041008001021001MA1999999101341MD1999999-0131MW1011REMSYN082AAXX  04184 82900 21597 51408 10267 20214 30134 40143 70152 84420 333 59013 69981;
0179829000999992001090500004-08040-034920FM-12+000799999V0201401N002110075019N0020001N1+02491+02191101641ADDAA199000021GF106991061071008001001001KA1240M+02761MA1999999101511MD1999999+0011REMSYN088AAXX  05004 82900 32595 61404 10249 20219 30151 40164 86700 333 10276 29082 55041 58001;
0201829000999992001090512004-08040-034920FM-12+000799999V0201401N003110075019N0100001N1+02671+02041101731ADDAA124001091AY161061AY221061GF106991051041008001021001KA1240N+02271MA1999999101641MD1999999+0011MW1011REMSYN088AAXX  05124 82900 21597 61406 10267 20204 30164 40173 70162 85420 333 20227 58001 60014;
0167829000999992001090518004-08040-034920FM-12+000799999V0201401N005112200019N0100001N1+02741+01891101391ADDAA199000091GF104991031021008001011001MA1999999101301MD1999999-0041REMSYN070AAXX  05184 82900 32597 41410 10274 20189 30130 40139 83210 333 59004;EQDQ01  00002PRCP99
0198829000999992001090600004-08040-034920FM-12+000799999V0201801N003110075019N0020001N1+02451+02071101541ADDAA199000091GF107991071071008001001001KA1240M+02821MA1999999101451MD1999999-0101REMSYN088AAXX  06004 82900 32595 71806 10245 20207 30145 40154 87700 333 10282 29072 55105 59010;EQDQ01  00002PRCP99
0201829000999992001090612004-08040-034920FM-12+000799999V0201401N004610075019N0100001N1+02701+02031101421ADDAA124000891AY161061AY221061GF106991061021008001001001KA1240N+02151MA1999999101531MD1999999-0111MW1021REMSYN088AAXX  06124 82900 21597 61409 10270 20203 30153 40142 70262 86200 333 20215 59011 69984;
0167829000999992001090618004-08040-034920FM-12+000799999V0201801N004612200019N0100001N1+02701+01991101311ADDAA199000091GF103991031021008001001001MA1999999101221MD1999999-0081REMSYN070AAXX  06184 82900 32597 31809 10270 20199 30122 40131 83200 333 59008;EQDQ01  00002PRCP99
0198829000999992001090700004-08040-034920FM-12+000799999V0209999C000012200019N0020001N1+02241+02011101511ADDAA199000091GF102991021011008001001001KA1240M+02791MA1999999101421MD1999999-0031REMSYN088AAXX  07004 82900 32595 20000 10224 20201 30142 40151 82100 333 10279 29076 55100 59003;EQDQ01  00002PRCP99
0186829000999992001090712004-08040-034920FM-12+000799999V0201801N003110075019N0100001N1+02671+02041101551ADDAA199000091GF106991061021008001001001KA1240N+01981MA1999999101461MD1999999-0071REMSYN076AAXX  07124 82900 32597 61806 10267 20204 30146 40155 86200 333 20198 59007;EQDQ01  00002PRCP99
0167829000999992001090718004-08040-034920FM-12+000799999V0201801N003110075019N0100001N1+02681+01911101181ADDAA199000091GF107991071071008001001001MA1999999101091MD1999999-0131REMSYN070AAXX  07184 82900 32597 71806 10268 20191 30109 40118 87700 333 59013;EQDQ01  00002PRCP99
0198829000999992001090800004-08040-034920FM-12+000799999V0209999C000012200019N0020001N1+02271+02011101461ADDAA199000091GF102991021011008001001001KA1240M+02811MA1999999101371MD1999999-0051REMSYN088AAXX  08004 82900 32595 20000 10227 20201 30137 40146 82100 333 10281 29076 55095 59005;EQDQ01  00002PRCP99
0186829000999992001090812004-08040-034920FM-12+000799999V0201801N002110075019N0100001N1+02701+02131101601ADDAA199000091GF106991061021008001001001KA1240N+01971MA1999999101511MD1999999+0051REMSYN076AAXX  08124 82900 32597 61804 10270 20213 30151 40160 86200 333 20197 58005;EQDQ01  00002PRCP99
0167829000999992001090818004-08040-034920FM-12+000799999V0201801N003112200019N0100001N1+02741+02121101211ADDAA199000091GF103991031021008001001001MA1999999101121MD1999999+0031REMSYN070AAXX  08184 82900 32597 31806 10274 20212 30112 40121 83200 333 58003;EQDQ01  00002PRCP99
0198829000999992001090900004-08040-034920FM-12+000799999V0201801N003110075019N0020001N1+02501+02171101501ADDAA199000091GF106991061021008001001001KA1240M+02841MA1999999101411MD1999999+0041REMSYN088AAXX  09004 82900 32595 61806 10250 20217 30141 40150 86200 333 10284 29076 55100 58004;EQDQ01  00002PRCP99
0202829000999992001090912004-08040-034920FM-12+000799999V0201401N002119999999N0100001N1+02701+02151101721ADDAA199000091GF105991999021008001001001KA1240N+02071MA1999999101641MD1999999+0121REMSYN076AAXX  09124 82900 32597 51404 10270 20215 30164 40172 83200 333 20207 58012;EQDQ01+000032SCOTLCQ02  00002PRCP99
0167829000999992001090918004-08040-034920FM-12+000799999V0201401N003612200019N0100001N1+02761+02231101401ADDAA199000091GF104991041011008001001001MA1999999101311MD1999999+0191REMSYN070AAXX  09184 82900 32597 41407 10276 20223 30131 40140 84100 333 58019;EQDQ01  00002PRCP99
0198829000999992001091000004-08040-034920FM-12+000799999V0201401N001510075019N0020001N1+02551+02291101591ADDAA199000091GF106991061021008001001001KA1240M+02851MA1999999101501MD1999999+0091REMSYN088AAXX  10004 82900 32595 61403 10255 20229 30150 40159 86200 333 10285 29079 55094 58009;EQDQ01  00002PRCP99
0186829000999992001091012004-08040-034920FM-12+000799999V0201401N004110075019N0100001N1+02741+02211101771ADDAA199000091GF106991051041008001021001KA1240N+02411MA1999999101681MD1999999+0051REMSYN076AAXX  10124 82900 32597 61408 10274 20221 30168 40177 85420 333 20241 58005;EQDQ01  00002PRCP99
0167829000999992001091018004-08040-034920FM-12+000799999V0201401N004610075019N0100001N1+02741+02121101381ADDAA199000091GF105991051021008001001001MA1999999101291MD1999999-0021REMSYN070AAXX  10184 82900 32597 51409 10274 20212 30129 40138 85200 333 59002;EQDQ01  00002PRCP99
0198829000999992001091100004-08040-034920FM-12+000799999V0201401N003110075019N0020001N1+02541+02211101561ADDAA199000091GF105991051021008001001001KA1240M+02821MA1999999101471MD1999999-0031REMSYN088AAXX  11004 82900 32595 51406 10254 20221 30147 40156 85200 333 10282 29076 55072 59003;EQDQ01  00002PRCP99
0201829000999992001091112004-08040-034920FM-12+000799999V0201801N003610450019N0100001N1+02721+02121101731ADDAA124000591AY151061AY221061GF106991041021008001031001KA1240N+02271MA1999999101641MD1999999-0041MW1021REMSYN088AAXX  11124 82900 21597 61807 10272 20212 30164 40173 70252 84230 333 20227 59004 69944;
0167829000999992001091118004-08040-034920FM-12+000799999V0200901N003612200019N0100001N1+02731+02051101431ADDAA199000091GF103991021021008001031001MA1999999101341MD1999999+0051REMSYN070AAXX  11184 82900 32597 30907 10273 20205 30134 40143 82230 333 58005;EQDQ01  00002PRCP99
0198829000999992001091200004-08040-034920FM-12+000799999V0200501N001512200019N0020001N1+02481+02111101411ADDAA199000091GF102991021011008001001001KA1240M+02821MA1999999101321MD1999999-0151REMSYN088AAXX  12004 82900 32595 20503 10248 20211 30132 40141 82100 333 10282 29074 55045 59015;EQDQ01  00002PRCP99
0186829000999992001091212004-08040-034920FM-12+000799999V0200501N002110075019N0100001N1+02741+02071101501ADDAA199000091GF107991061041008001021001KA1240N+02051MA1999999101411MD1999999-0231REMSYN076AAXX  12124 82900 32597 70504 10274 20207 30141 40150 86420 333 20205 59023;EQDQ01  00002PRCP99
0167829000999992001091218004-08040-034920FM-12+000799999V0200901N004112200019N0100001N1+02771+02111101271ADDAA199000091GF104991031021008001011001MA1999999101181MD1999999-0161REMSYN070AAXX  12184 82900 32597 40908 10277 20211 30118 40127 83210 333 59016;EQDQ01  00002PRCP99
0143829000999992001091300004-08040-034920FM-12+000799999V0209999C000012200019N0020001N1+02281+02161101521ADDAA199000091GF102991021011008001001001MA1999999101431REMSYN060AAXX  13004 82900 32595 20000 10228 20216 30143 40152 82100;EQDQ01  00002PRCP99
0186829000999992001091312004-08040-034920FM-12+000799999V0201801N002110450019N0100001N1+02771+02251101731ADDAA199000091GF105991041021008001031001KA1240N+02201MA1999999101641MD1999999+0231REMSYN076AAXX  13124 82900 32597 51804 10277 20225 30164 40173 84230 333 20220 58023;EQDQ01  00002PRCP99
0182829000999992001091318004-08040-034920FM-12+000799999V0201801N002110450019N0100001N1+02651+02231101511ADDAA106002091AY161061AY221061GF106991031021008001031001MA1999999101421MD1999999+0241MW1021REMSYN082AAXX  13184 82900 21597 61804 10265 20223 30142 40151 70262 83230 333 58024 60021;
0198829000999992001091400004-08040-034920FM-12+000799999V0201801N002110075019N0020001N1+02471+02131101601ADDAA199000091GF106991061021008001001001KA1240M+02851MA1999999101511MD1999999+0081REMSYN088AAXX  14004 82900 32595 61804 10247 20213 30151 40160 86200 333 10285 29079 55023 58008;EQDQ01  00002PRCP99
0173829000999992001091412004-08040-034920FM-12+000799999V0201801N005112200019N0100001N1+02711+02081101741ADDAA124002091GF102991021021008001001001KA1240N+02231MA1999999101651MD1999999+0011REMSYN082AAXX  14124 82900 22597 21810 10271 20208 30165 40174 82200 333 20223 58001 60024;
0167829000999992001091418004-08040-034920FM-12+000799999V0201801N001510075019N0100001N1+02731+02071101341ADDAA199000091GF106991061071008001001001MA1999999101251MD1999999-0171REMSYN070AAXX  14184 82900 32597 61803 10273 20207 30125 40134 86700 333 59017;EQDQ01  00002PRCP99
0213829000999992001091500004-08040-034920FM-12+000799999V0202301N001510075019N0020001N1+02341+02221101461ADDAA106001091AY161061AY221061GF107991071071008001001001KA1240M+03891MA1999999101371MD1999999-0141MW1031REMSYN100AAXX  15004 82900 21595 72303 10234 20222 30137 40146 70362 87700 333 10389 29080 55086 59014 60011;
0173829000999992001091512004-08040-034920FM-12+000799999V0200901N003110075019N0100001N1+02671+02111101541ADDAA124001091GF106991061021008001001001KA1240N+02231MA1999999101451MD1999999-0201REMSYN082AAXX  15124 82900 22597 60906 10267 20211 30145 40154 86200 333 20223 59020 60014;
0177829000999992001091518004-08040-034920FM-12+000799999V0201401N005112200019N0100001N1+02841+01931101131ADDAA199000091GA1001+999999999GF100991001001999999001001MA1999999101041MD1999999-0211REMSYN064AAXX  15184 82900 32997 01410 10284 20193 30104 40113 333 59021;EQDQ01  00002PRCP99
0214829000999992001091600004-08040-034920FM-12+000799999V0201401N001512200019N0020001N1+02501+02171101411ADDAA199000091GF104991999011008001001001KA1240M+02881MA1999999101321MD1999999-0051REMSYN088AAXX  16004 82900 32595 41403 10250 20217 30132 40141 82100 333 10288 29073 55085 59005;EQDQ01+000022SCOTLCQ02  00002PRCP99
0186829000999992001091612004-08040-034920FM-12+000799999V0200901N002110075019N0100001N1+02781+02271101491ADDAA199000091GF106991051041008001021001KA1240N+02011MA1999999101401MD1999999-0051REMSYN076AAXX  16124 82900 32597 60904 10278 20227 30140 40149 85420 333 20201 59005;EQDQ01  00002PRCP99
0198829000999992001091700004-08040-034920FM-12+000799999V0200901N001510075019N0020001N1+02581+02231101431ADDAA199000091GF107991071071008001001001KA1240M+02811MA1999999101341MD1999999+0021REMSYN088AAXX  17004 82900 32595 70903 10258 20223 30134 40143 87700 333 10281 29080 55074 58002;EQDQ01  00002PRCP99
0201829000999992001091712004-08040-034920FM-12+000799999V0203201N004610075019N0100001N1+02781+02341101531ADDAA124000391AY151061AY221061GF106991061021008001001001KA1240N+02221MA1999999101441MD1999999+0041MW1011REMSYN088AAXX  17124 82900 21597 63209 10278 20234 30144 40153 70152 86200 333 20222 58004 69934;
0167829000999992001091718004-08040-034920FM-12+000799999V0200901N004112200019N0100001N1+02861+02261101201ADDAA199000091GF103991031011008001001001MA1999999101111MD1999999+0001REMSYN070AAXX  17184 82900 32597 30908 10286 20226 30111 40120 83100 333 58000;EQDQ01  00002PRCP99
0198829000999992001091800004-08040-034920FM-12+000799999V0200501N002110075019N0020001N1+02591+02351101501ADDAA199000091GF106991061021008001001001KA1240M+02981MA1999999101411MD1999999+0071REMSYN088AAXX  18004 82900 32595 60504 10259 20235 30141 40150 86200 333 10298 29080 55080 58007;EQDQ01  00002PRCP99
0186829000999992001091812004-08040-034920FM-12+000799999V0200901N002610075019N0100001N1+02721+02241101651ADDAA199000091GF106991051041008001021001KA1240N+02511MA1999999101561MD1999999+0121REMSYN076AAXX  18124 82900 32597 60905 10272 20224 30156 40165 85420 333 20251 58012;EQDQ01  00002PRCP99
0167829000999992001091818004-08040-034920FM-12+000799999V0200901N002610075019N0100001N1+02771+02251101411ADDAA199000091GF107991061071008001021001MA1999999101321MD1999999+0211REMSYN070AAXX  18184 82900 32597 70905 10277 20225 30132 40141 86720 333 58021;EQDQ01  00002PRCP99
0213829000999992001091900004-08040-034920FM-12+000799999V0200901N003112200019N0020001N1+02581+02231101591ADDAA106000391AY151061AY221061GF104991041021008001001001KA1240M+02881MA1999999101501MD1999999+0091MW1011REMSYN100AAXX  19004 82900 21595 40906 10258 20223 30150 40159 70152 84200 333 10288 29078 55048 58009 69931;
0201829000999992001091912004-08040-034920FM-12+000799999V0201401N006210075019N0100001N1+02741+02121101671ADDAA124003091AY161061AY261061GF106991061021008001001001KA1240N+02401MA1999999101581MD1999999+0021MW1031REMSYN088AAXX  19124 82900 21597 61412 10274 20212 30158 40167 70366 86200 333 20240 58002 60034;
0167829000999992001091918004-08040-034920FM-12+000799999V0201401N005110075019N0100001N1+02801+02181101411ADDAA199000091GF105991051021008001001001MA1999999101321MD1999999+0001REMSYN070AAXX  19184 82900 32597 51410 10280 20218 30132 40141 85200 333 58000;EQDQ01  00002PRCP99
0198829000999992001092000004-08040-034920FM-12+000799999V0201801N003110075019N0020001N1+02551+02231101491ADDAA199000091GF106991061021008001001001KA1240M+02901MA1999999101401MD1999999-0101REMSYN088AAXX  20004 82900 32595 61806 10255 20223 30140 40149 86200 333 10290 29076 55093 59010;EQDQ01  00002PRCP99
0201829000999992001092012004-08040-034920FM-12+000799999V0201401N005712200019N0100001N1+02741+02071101601ADDAA124002091AY161061AY221061GF104991031021008001011001KA1240N+02261MA1999999101511MD1999999-0071MW1011REMSYN088AAXX  20124 82900 21597 41411 10274 20207 30151 40160 70162 83210 333 20226 59007 60024;
0167829000999992001092018004-08040-034920FM-12+000799999V0201801N005710075019N0100001N1+02801+02061101291ADDAA199000091GF105991051021008001001001MA1999999101201MD1999999-0121REMSYN070AAXX  20184 82900 32597 51811 10280 20206 30120 40129 85200 333 59012;EQDQ01  00002PRCP99
0198829000999992001092100004-08040-034920FM-12+000799999V0201801N004110075019N0020001N1+02561+02131101511ADDAA199000091GF106991061021008001001001KA1240M+02891MA1999999101421MD1999999+0021REMSYN088AAXX  21004 82900 32595 61808 10256 20213 30142 40151 86200 333 10289 29071 55091 58002;EQDQ01  00002PRCP99
0186829000999992001092112004-08040-034920FM-12+000799999V0201801N005112200019N0100001N1+02801+02061101531ADDAA199000091GF104991041021008001001001KA1240N+02371MA1999999101441MD1999999-0071REMSYN076AAXX  21124 82900 32597 41810 10280 20206 30144 40153 84200 333 20237 59007;EQDQ01  00002PRCP99
0167829000999992001092118004-08040-034920FM-12+000799999V0201801N004110075019N0100001N1+02811+02061101351ADDAA199000091GF106991051041008001021001MA1999999101261MD1999999+0061REMSYN070AAXX  21184 82900 32597 61808 10281 20206 30126 40135 85420 333 58006;EQDQ01  00002PRCP99
0213829000999992001092200004-08040-034920FM-12+000799999V0201801N003110075019N0020001N1+02571+02151101531ADDAA106000391AY151061AY221061GF106991061021008001001001KA1240M+02881MA1999999101441MD1999999+0021MW1011REMSYN100AAXX  22004 82900 21595 61806 10257 20215 30144 40153 70152 86200 333 10288 29071 55091 58002 69931;
0201829000999992001092212004-08040-034920FM-12+000799999V0201401N005110075019N0100001N1+02761+02141101731ADDAA118000591AY151061AY261061GF106991061021008001001001KA1240N+02371MA1999999101641MD1999999+0201MW1021REMSYN088AAXX  22124 82900 21597 61410 10276 20214 30164 40173 70256 86200 333 20237 58020 69943;
0167829000999992001092218004-08040-034920FM-12+000799999V0201401N004610075019N0100001N1+02751+02091101401ADDAA199000091GF106991061021008001001001MA1999999101311MD1999999+0051REMSYN070AAXX  22184 82900 32597 61409 10275 20209 30131 40140 86200 333 58005;EQDQ01  00002PRCP99
0198829000999992001092300004-08040-034920FM-12+000799999V0201401N003110075019N0020001N1+02561+02061101621ADDAA199000091GF106991061021008001001001KA1240M+02911MA1999999101531MD1999999+0091REMSYN088AAXX  23004 82900 32595 61406 10256 20206 30153 40162 86200 333 10291 29071 55086 58009;EQDQ01  00002PRCP99
0186829000999992001092312004-08040-034920FM-12+000799999V0201401N005110075019N0100001N1+02751+02141101681ADDAA199000091GF106991051041008001021001KA1240N+02151MA1999999101591MD1999999-0051REMSYN076AAXX  23124 82900 32597 61410 10275 20214 30159 40168 85420 333 20215 59005;EQDQ01  00002PRCP99
0167829000999992001092318004-08040-034920FM-12+000799999V0201401N003610075019N0100001N1+02721+02001101371ADDAA199000091GF105991051021008001001001MA1999999101281MD1999999-0031REMSYN070AAXX  23184 82900 32597 51407 10272 20200 30128 40137 85200 333 59003;EQDQ01  00002PRCP99
0198829000999992001092400004-08040-034920FM-12+000799999V0201801N002112200019N0020001N1+02501+01981101611ADDAA199000091GF102991021011008001001001KA1240M+02851MA1999999101521MD1999999-0011REMSYN088AAXX  24004 82900 32595 21804 10250 20198 30152 40161 82100 333 10285 29070 55087 59001;EQDQ01  00002PRCP99
0201829000999992001092412004-08040-034920FM-12+000799999V0201401N004610075019N0100001N1+02721+02241101681ADDAA124002091AY161061AY221061GF106991061021008001001001KA1240N+02011MA1999999101591MD1999999+0001MW1031REMSYN088AAXX  24124 82900 21597 61409 10272 20224 30159 40168 70362 86200 333 20201 58000 60024;
0167829000999992001092418004-08040-034920FM-12+000799999V0201801N005110075019N0100001N1+02741+02121101381ADDAA199000091GF106991061041008001001001MA1999999101291MD1999999+0011REMSYN070AAXX  24184 82900 32597 61810 10274 20212 30129 40138 86400 333 58001;EQDQ01  00002PRCP99
0213829000999992001092500004-08040-034920FM-12+000799999V0209999C000010075019N0020001N1+02321+02271101631ADDAA106009991AY161061AY261061GF107991071071008001001001KA1240M+02851MA1999999101541MD1999999+0021MW1031REMSYN100AAXX  25004 82900 21595 70000 10232 20227 30154 40163 70366 87700 333 10285 29084 55053 58002 60101;
0201829000999992001092512004-08040-034920FM-12+000799999V0201401N006210075019N0100001N1+02661+02271101731ADDAA124015091AY161061AY261061GF108991081061008001999999KA1240N+02191MA1999999101641MD1999999+0051MW1601REMSYN088AAXX  25124 82900 21597 81412 10266 20227 30164 40173 76066 886// 333 20219 58005 60154;
0148829000999992001092518004-08040-034920FM-12+000799999V0201401N004610075019N0100001N1+02641+02181101441ADDAA199000021GF108991081051008001999999MA1999999101351MD1999999+0061REMSYN070AAXX  25184 82900 32597 81409 10264 20218 30135 40144 885// 333 58006;
0179829000999992001092600004-08040-034920FM-12+000799999V0201401N003110075019N0020001N1+02481+02091101701ADDAA199000021GF106991061021008001001001KA1240M+02701MA1999999101611MD1999999+0071REMSYN088AAXX  26004 82900 32595 61406 10248 20209 30161 40170 86200 333 10270 29079 55010 58007;
0186829000999992001092612004-08040-034920FM-12+000799999V0201401N004110075019N0100001N1+02721+02101101711ADDAA199000091GF107991061071008001021001KA1240N+02011MA1999999101621MD1999999-0021REMSYN076AAXX  26124 82900 32597 71408 10272 20210 30162 40171 86720 333 20201 59002;EQDQ01  00002PRCP99
0167829000999992001092618004-08040-034920FM-12+000799999V0201401N004110075019N0100001N1+02741+02101101401ADDAA199000091GF106991051041008001021001MA1999999101311MD1999999-0041REMSYN070AAXX  26184 82900 32597 61408 10274 20210 30131 40140 85420 333 59004;EQDQ01  00002PRCP99
0198829000999992001092700004-08040-034920FM-12+000799999V0201401N001512200019N0020001N1+02471+02131101671ADDAA199000091GF102991021021008001001001KA1240M+02821MA1999999101581MD1999999-0031REMSYN088AAXX  27004 82900 32595 21403 10247 20213 30158 40167 82200 333 10282 29075 55076 59003;EQDQ01  00002PRCP99
0186829000999992001092712004-08040-034920FM-12+000799999V0201401N003610450019N0100001N1+02781+02091101601ADDAA199000091GF105991041021008001011001KA1240N+02071MA1999999101511MD1999999-0111REMSYN076AAXX  27124 82900 32597 51407 10278 20209 30151 40160 84210 333 20207 59011;EQDQ01  00002PRCP99
0167829000999992001092718004-08040-034920FM-12+000799999V0201401N003612200019N0100001N1+02801+02001101331ADDAA199000091GF103991031011008001001001MA1999999101241MD1999999-0071REMSYN070AAXX  27184 82900 32597 31407 10280 20200 30124 40133 83100 333 59007;EQDQ01  00002PRCP99
0198829000999992001092800004-08040-034920FM-12+000799999V0201401N002110075019N0020001N1+02511+02191101621ADDAA199000091GF105991051021008001001001KA1240M+02891MA1999999101531MD1999999-0051REMSYN088AAXX  28004 82900 32595 51404 10251 20219 30153 40162 85200 333 10289 29074 55095 59005;EQDQ01  00002PRCP99
0186829000999992001092812004-08040-034920FM-12+000799999V0201401N003112200019N0100001N1+02811+01921101761ADDAA199000091GF104991041021008001001001KA1240N+02471MA1999999101671MD1999999+0161REMSYN076AAXX  28124 82900 32597 41406 10281 20192 30167 40176 84200 333 20247 58016;EQDQ01  00002PRCP99
0167829000999992001092818004-08040-034920FM-12+000799999V0201401N003110450019N0100001N1+02781+02061101411ADDAA199000091GF105991041021008001011001MA1999999101321MD1999999+0081REMSYN070AAXX  28184 82900 32597 51406 10278 20206 30132 40141 84210 333 58008;EQDQ01  00002PRCP99
0198829000999992001092900004-08040-034920FM-12+000799999V0201401N001510075019N0020001N1+02551+02171101611ADDAA199000091GF106991061021008001001001KA1240M+02851MA1999999101521MD1999999-0011REMSYN088AAXX  29004 82900 32595 61403 10255 20217 30152 40161 86200 333 10285 29070 55092 59001;EQDQ01  00002PRCP99
0201829000999992001092912004-08040-034920FM-12+000799999V0201801N004610075019N0100001N1+02741+02171101831ADDAA124000191AY161061AY221061GF106991061021008001001001KA1240N+02171MA1999999101741MD1999999+0071MW1021REMSYN088AAXX  29124 82900 21597 61809 10274 20217 30174 40183 70262 86200 333 20217 58007 69924;
0167829000999992001092918004-08040-034920FM-12+000799999V0201401N006712200019N0100001N1+02811+02131101461ADDAA199000091GF104991041021008001001001MA1999999101371MD1999999+0001REMSYN070AAXX  29184 82900 32597 41413 10281 20213 30137 40146 84200 333 58000;EQDQ01  00002PRCP99
0198829000999992001093000004-08040-034920FM-12+000799999V0201401N003110075019N0020001N1+02561+02211101691ADDAA199000091GF105991051021008001001001KA1240M+02971MA1999999101601MD1999999+0081REMSYN088AAXX  30004 82900 32595 51406 10256 20221 30160 40169 85200 333 10297 29075 55084 58008;EQDQ01  00002PRCP99
0186829000999992001093012004-08040-034920FM-12+000799999V0201801N005110075019N0100001N1+02761+02191101791ADDAA199000091GF106991061031008001001001KA1240N+02271MA1999999101701MD1999999-0041REMSYN076AAXX  30124 82900 32597 61810 10276 20219 30170 40179 86300 333 20227 59004;EQDQ01  00002PRCP99
0167829000999992001093018004-08040-034920FM-12+000799999V0201801N005112200019N0100001N1+02821+02101101531ADDAA199000091GF104991041011008001001001MA1999999101441MD1999999+0071REMSYN070AAXX  30184 82900 32597 41810 10282 20210 30144 40153 84100 333 58007;EQDQ01  00002PRCP99
0198829000999992001100100004-08040-034920FM-12+000799999V0201801N003110075019N0020001N1+02531+02151101811ADDAA199000091GF105991051021008001001001KA1240M+02891MA1999999101721MD1999999+0121REMSYN088AAXX  01004 82900 32595 51806 10253 20215 30172 40181 85200 333 10289 29074 55062 58012;EQDQ01  00002PRCP99
0202829000999992001100112004-08040-034920FM-12+000799999V0201401N005112200019N0100001N1+02861+01921101801ADDAA199000091GF102991999021008001001001KA1240N+02071MA1999999101711MD1999999+0011REMSYN076AAXX  01124 82900 32597 21410 10286 20192 30171 40180 86200 333 20207 58001;EQDQ01+000062SCOTLCQ02  00002PRCP99
0167829000999992001100118004-08040-034920FM-12+000799999V0201801N005710075019N0100001N1+02761+02141101521ADDAA199000091GF106991061021008001001001MA1999999101431MD1999999-0011REMSYN070AAXX  01184 82900 32597 61811 10276 20214 30143 40152 86200 333 59001;EQDQ01  00002PRCP99
0213829000999992001100200004-08040-034920FM-12+000799999V0201801N002112200019N0020001N1+02531+02171101791ADDAA106000191AY151061AY221061GF102991021011008001001001KA1240M+02901MA1999999101701MD1999999-0021MW1011REMSYN100AAXX  02004 82900 21595 21804 10253 20217 30170 40179 70152 82100 333 10290 29074 55069 59002 69921;
0173829000999992001100212004-08040-034920FM-12+000799999V0200901N003612200019N0100001N1+02801+02311101821ADDAA124000191GF104991031021008001021001KA1240N+02451MA1999999101731MD1999999+0021REMSYN082AAXX  02124 82900 22597 40907 10280 20231 30173 40182 83220 333 20245 58002 69924;
0167829000999992001100218004-08040-034920FM-12+000799999V0201401N005110450019N0100001N1+02791+02221101611ADDAA199000091GF105991031021008001021001MA1999999101521MD1999999+0091REMSYN070AAXX  02184 82900 32597 51410 10279 20222 30152 40161 83220 333 58009;EQDQ01  00002PRCP99
0198829000999992001100300004-08040-034920FM-12+000799999V0201401N004610075019N0020001N1+02611+02141101821ADDAA199000091GF106991061071008001001001KA1240M+02961MA1999999101731MD1999999+0031REMSYN088AAXX  03004 82900 32595 61409 10261 20214 30173 40182 86700 333 10296 29074 55095 58003;EQDQ01  00002PRCP99
0186829000999992001100312004-08040-034920FM-12+000799999V0201401N003610075019N0100001N1+02721+02321101801ADDAA199000091GF106991061021008001001001KA1240N+02461MA1999999101711MD1999999-0021REMSYN076AAXX  03124 82900 32597 61407 10272 20232 30171 40180 86200 333 20246 59002;EQDQ01  00002PRCP99
0167829000999992001100318004-08040-034920FM-12+000799999V0201401N005110075019N0100001N1+02741+02241101601ADDAA199000091GF105991051021008001001001MA1999999101511MD1999999-0011REMSYN070AAXX  03184 82900 32597 51410 10274 20224 30151 40160 85200 333 59001;EQDQ01  00002PRCP99
0198829000999992001100400004-08040-034920FM-12+000799999V0201401N001510075019N0020001N1+02541+02251101901ADDAA199000091GF106991061021008001001001KA1240M+02971MA1999999101811MD1999999+0081REMSYN088AAXX  04004 82900 32595 61403 10254 20225 30181 40190 86200 333 10297 29080 55059 58008;EQDQ01  00002PRCP99
0186829000999992001100412004-08040-034920FM-12+000799999V0201401N004610075019N0100001N1+02781+02161101741ADDAA199000091GF107991061041008001021001KA1240N+02471MA1999999101651MD1999999-0061REMSYN076AAXX  04124 82900 32597 71409 10278 20216 30165 40174 86420 333 20247 59006;EQDQ01  00002PRCP99
0167829000999992001100418004-08040-034920FM-12+000799999V0201401N005110450019N0100001N1+02791+02181101461ADDAA199000091GF105991041021008001011001MA1999999101371MD1999999-0041REMSYN070AAXX  04184 82900 32597 51410 10279 20218 30137 40146 84210 333 59004;EQDQ01  00002PRCP99
0198829000999992001100500004-08040-034920FM-12+000799999V0201401N002112200019N0020001N1+02551+02231101651ADDAA199000091GF102991021011008001001001KA1240M+02801MA1999999101561MD1999999-0251REMSYN088AAXX  05004 82900 32595 21404 10255 20223 30156 40165 82100 333 10280 29076 55085 59025;EQDQ01  00002PRCP99
0186829000999992001100512004-08040-034920FM-12+000799999V0201401N004610075019N0100001N1+02741+02211101691ADDAA199000091GF106991051041008001021001KA1240N+02271MA1999999101601MD1999999-0051REMSYN076AAXX  05124 82900 32597 61409 10274 20221 30160 40169 85420 333 20227 59005;EQDQ01  00002PRCP99
0167829000999992001100518004-08040-034920FM-12+000799999V0201401N004110450019N0100001N1+02791+02181101361ADDAA199000091GF105991041021008001011001MA1999999101271MD1999999-0101REMSYN070AAXX  05184 82900 32597 51408 10279 20218 30127 40136 84210 333 59010;EQDQ01  00002PRCP99
0198829000999992001100600004-08040-034920FM-12+000799999V0201401N001510075019N0020001N1+02611+02191101501ADDAA199000091GF106991061021008001001001KA1240M+02941MA1999999101411MD1999999-0151REMSYN088AAXX  06004 82900 32595 61403 10261 20219 30141 40150 86200 333 10294 29074 55069 59015;EQDQ01  00002PRCP99
0186829000999992001100612004-08040-034920FM-12+000799999V0201401N004610075019N0100001N1+02761+02211101611ADDAA199000091GF106991061021008001001001KA1240N+02371MA1999999101521MD1999999-0081REMSYN076AAXX  06124 82900 32597 61409 10276 20221 30152 40161 86200 333 20237 59008;EQDQ01  00002PRCP99
0167829000999992001100618004-08040-034920FM-12+000799999V0201401N004612200019N0100001N1+02851+02261101321ADDAA199000091GF102991021011008001001001MA1999999101231MD1999999-0041REMSYN070AAXX  06184 82900 32597 21409 10285 20226 30123 40132 82100 333 59004;EQDQ01  00002PRCP99
0186829000999992001100712004-08040-034920FM-12+000799999V0201401N003610075019N0100001N1+02841+02191101531ADDAA199000091GF106991061021008001001001KA1240N+02471MA1999999101451MD1999999-0071REMSYN076AAXX  07124 82900 32597 61407 10284 20219 30145 40153 86200 333 20247 59007;EQDQ01  00002PRCP99
0167829000999992001100718004-08040-034920FM-12+000799999V0201401N003110075019N0100001N1+02811+02251101221ADDAA199000091GF106991061021008001001001MA1999999101131MD1999999-0101REMSYN070AAXX  07184 82900 32597 61406 10281 20225 30113 40122 86200 333 59010;EQDQ01  00002PRCP99
0198829000999992001100800004-08040-034920FM-12+000799999V0209999C000010075019N0020001N1+02331+02221101501ADDAA199000091GF105991051021008001001001KA1240M+02961MA1999999101411MD1999999+0001REMSYN088AAXX  08004 82900 32595 50000 10233 20222 30141 40150 85200 333 10296 29082 55076 58000;EQDQ01  00002PRCP99
0186829000999992001100812004-08040-034920FM-12+000799999V0201401N003610450019N0100001N1+02821+02271101541ADDAA199000091GF105991031021008001021001KA1240N+02101MA1999999101451MD1999999+0001REMSYN076AAXX  08124 82900 32597 51407 10282 20227 30145 40154 83220 333 20210 58000;EQDQ01  00002PRCP99
0167829000999992001100818004-08040-034920FM-12+000799999V0201401N003610450019N0100001N1+02731+02281101221ADDAA199000091GF105991031021008001031001MA1999999101131MD1999999+0001REMSYN070AAXX  08184 82900 32597 51407 10273 20228 30113 40122 83230 333 58000;EQDQ01  00002PRCP99
0198829000999992001100900004-08040-034920FM-12+000799999V0201401N001512200019N0020001N1+02611+02231101501ADDAA199000091GF102991021021008001001001KA1240M+03001MA1999999101411MD1999999+0001REMSYN088AAXX  09004 82900 32595 21403 10261 20223 30141 40150 82200 333 10300 29077 55079 58000;EQDQ01  00002PRCP99
0186829000999992001100912004-08040-034920FM-12+000799999V0201401N003610075019N0100001N1+02861+02231101521ADDAA199000091GF105991051021008001001001KA1240N+02081MA1999999101431MD1999999-0021REMSYN076AAXX  09124 82900 32597 51407 10286 20223 30143 40152 85200 333 20208 59002;EQDQ01  00002PRCP99
0167829000999992001100918004-08040-034920FM-12+000799999V0201401N003610075019N0100001N1+02791+02221101201ADDAA199000091GF105991051021008001001001MA1999999101111MD1999999-0021REMSYN070AAXX  09184 82900 32597 51407 10279 20222 30111 40120 85200 333 59002;EQDQ01  00002PRCP99
0198829000999992001101000004-08040-034920FM-12+000799999V0201801N004612200019N0020001N1+02601+02231101421ADDAA199000091GF104991041021008001001001KA1240M+03011MA1999999101331MD1999999-0081REMSYN088AAXX  10004 82900 32595 41809 10260 20223 30133 40142 84200 333 10301 29075 55084 59008;EQDQ01  00002PRCP99
0186829000999992001101012004-08040-034920FM-12+000799999V0201401N003112200019N0100001N1+02831+02171101521ADDAA199000091GF104991031021008001011001KA1240N+02391MA1999999101441MD1999999+0011REMSYN076AAXX  10124 82900 32597 41406 10283 20217 30144 40152 83210 333 20239 58001;EQDQ01  00002PRCP99
0167829000999992001101018004-08040-034920FM-12+000799999V0201401N004610450019N0100001N1+02831+02081101151ADDAA199000091GF105991041041008001021001MA1999999101061MD1999999-0051REMSYN070AAXX  10184 82900 32597 51409 10283 20208 30106 40115 84420 333 59005;EQDQ01  00002PRCP99
0198829000999992001101100004-08040-034920FM-12+000799999V0201401N003110075019N0020001N1+02571+02211101531ADDAA199000091GF105991051021008001001001KA1240M+02981MA1999999101441MD1999999+0111REMSYN088AAXX  11004 82900 32595 51406 10257 20221 30144 40153 85200 333 10298 29073 55092 58011;EQDQ01  00002PRCP99
0186829000999992001101112004-08040-034920FM-12+000799999V0201401N003112200019N0100001N1+02821+02201101481ADDAA199000091GF104991041021008001001001KA1240N+02451MA1999999101391MD1999999-0051REMSYN076AAXX  11124 82900 32597 41406 10282 20220 30139 40148 84200 333 20245 59005;EQDQ01  00002PRCP99
0167829000999992001101118004-08040-034920FM-12+000799999V0201401N003112200019N0100001N1+02881+02131101151ADDAA199000091GF104991031021008001061001MA1999999101061MD1999999+0001REMSYN070AAXX  11184 82900 32597 41406 10288 20213 30106 40115 83260 333 58000;EQDQ01  00002PRCP99
0198829000999992001101200004-08040-034920FM-12+000799999V0201801N004610075019N0020001N1+02591+02291101521ADDAA199000091GF107991071071008001001001KA1240M+02991MA1999999101731MD1999999-0011REMSYN088AAXX  12004 82900 32595 71809 10259 20229 30173 40152 87700 333 10299 29075 55096 59001;EQDQ01  00002PRCP99
0201829000999992001101212004-08040-034920FM-12+000799999V0200901N001510120019N0040001N1+02381+02311101571ADDAA124058991AY161061AY221061GF108991081081008001999999KA1240N+02271MA1999999101481MD1999999+0091MW1611REMSYN088AAXX  12124 82900 21596 80903 10238 20231 30148 40157 76162 888// 333 20227 58009 60594;
0182829000999992001101218004-08040-034920FM-12+000799999V0200901N002110075019N0100001N1+02661+02331101301ADDAA106005191AY161061AY221061GF107991071071008001001001MA1999999101211MD1999999+0151MW1011REMSYN082AAXX  12184 82900 21597 70904 10266 20233 30121 40130 70162 87700 333 58015 60051;
0213829000999992001101300004-08040-034920FM-12+000799999V0200901N001510075019N0020001N1+02311+99999101631ADDAA106004191AY161061AY261061GF107991071071008001001001KA1240M+02721MA1999999101541MD1999999+0111MW1031REMSYN100AAXX  13004 82900 21595 70903 10231 20237 30154 40163 70366 87700 333 10272 29093 55001 58011 60041;
0201829000999992001101312004-08040-034920FM-12+000799999V0202701N001010075019N0100001N1+02481+02321101601ADDAA124013091AY161061AY261061GF108991081051008001999999KA1240N+02191MA1999999101511MD1999999+0031MW1031REMSYN088AAXX  13124 82900 21597 82702 10248 20232 30151 40160 70366 885// 333 20219 58003 60134;
0183829000999992001101318004-08040-034920FM-12+000799999V0200901N003119999999N0100001N1+02811+02151101231ADDAA199000091GF107991999021008001001001MA1999999101141MD1999999-0071REMSYN070AAXX  13184 82900 32597 70906 10281 20215 30114 40123 83200 333 59007;EQDQ01+000032SCOTLCQ02  00002PRCP99
0198829000999992001101400004-08040-034920FM-12+000799999V0209999C000010075019N0020001N1+02371+02281101431ADDAA199000091GF107991071071008001001001KA1240M+02881MA1999999101341MD1999999-0201REMSYN088AAXX  14004 82900 32595 70000 10237 20228 30134 40143 87700 333 10288 29087 55051 59020;EQDQ01  00002PRCP99
0201829000999992001101412004-08040-034920FM-12+000799999V0200501N001510450019N0100001N1+02721+02241101631ADDAA124000191AY151061AY221061GF106991041021008001031001KA1240N+02371MA1999999101541MD1999999+0031MW1031REMSYN088AAXX  14124 82900 21597 60503 10272 20224 30154 40163 70352 84230 333 20237 58003 69924;
0167829000999992001101418004-08040-034920FM-12+000799999V0200901N001512200019N0100001N1+02871+02281101171ADDAA199000091GF104991041021008001001001MA1999999101081MD1999999-0061REMSYN070AAXX  14184 82900 32597 40903 10287 20228 30108 40117 84200 333 59006;EQDQ01  00002PRCP99
0198829000999992001101500004-08040-034920FM-12+000799999V0200901N001512200019N0020001N1+02581+02211101451ADDAA199000091GF104991041021008001001001KA1240M+02951MA1999999101361MD1999999+0021REMSYN088AAXX  15004 82900 32595 40903 10258 20221 30136 40145 84200 333 10295 29056 55028 58002;EQDQ01  00002PRCP99
0186829000999992001101512004-08040-034920FM-12+000799999V0200901N002110450019N0100001N1+02781+02231101341ADDAA199000091GF106991041021008001021001KA1240N+02471MA1999999101251MD1999999-0291REMSYN076AAXX  15124 82900 32597 60904 10278 20223 30125 40134 84220 333 20247 59029;EQDQ01  00002PRCP99
0167829000999992001101518004-08040-034920FM-12+000799999V0200901N003612200019N0100001N1+02791+02221101171ADDAA199000091GF103991031021008001001001MA1999999101081MD1999999+0001REMSYN070AAXX  15184 82900 32597 30907 10279 20222 30108 40117 83200 333 58000;EQDQ01  00002PRCP99
0198829000999992001101600004-08040-034920FM-12+000799999V0200901N003110075019N0020001N1+02621+02231101451ADDAA199000091GF106991061021008001001001KA1240M+02941MA1999999101361MD1999999+0001REMSYN088AAXX  16004 82900 32595 60906 10262 20223 30136 40145 86200 333 10294 29075 55084 58000;EQDQ01  00002PRCP99
0201829000999992001101612004-08040-034920FM-12+000799999V0200901N003110075019N0100001N1+02691+02241101531ADDAA124003091AY161061AY221061GF107991061071008001021001KA1240N+02451MA1999999101441MD1999999+0191MW1011REMSYN088AAXX  16124 82900 21597 70906 10269 20224 30144 40153 70162 86720 333 20245 58019 60034;
0167829000999992001101618004-08040-034920FM-12+000799999V0200901N003612200019N0100001N1+02711+02241101161ADDAA199000091GF104991041021008001001001MA1999999101071MD1999999-0011REMSYN070AAXX  16184 82900 32597 40907 10271 20224 30107 40116 84200 333 59001;EQDQ01  00002PRCP99
0198829000999992001101700004-08040-034920FM-12+000799999V0201401N002112200019N0020001N1+02581+02231101381ADDAA199000091GF102991021011008001001001KA1240M+02941MA1999999101291MD1999999-0071REMSYN088AAXX  17004 82900 32595 21404 10258 20223 30129 40138 82100 333 10294 29078 55053 59007;EQDQ01  00002PRCP99
0186829000999992001101712004-08040-034920FM-12+000799999V0201401N004610075019N0100001N1+02721+02261101451ADDAA199000091GF106991061021008001001001KA1240N+02471MA1999999101361MD1999999-0081REMSYN076AAXX  17124 82900 32597 61409 10272 20226 30136 40145 86200 333 20247 59008;EQDQ01  00002PRCP99
0167829000999992001101718004-08040-034920FM-12+000799999V0201401N001510450019N0100001N1+02791+02271101191ADDAA199000091GF106991041021008001021001MA1999999101101MD1999999+0031REMSYN070AAXX  17184 82900 32597 61403 10279 20227 30110 40119 84220 333 58003;EQDQ01  00002PRCP99
0198829000999992001101800004-08040-034920FM-12+000799999V0201401N001510075019N0020001N1+02611+02251101301ADDAA199000091GF106991061021008001001001KA1240M+02951MA1999999101211MD1999999-0081REMSYN088AAXX  18004 82900 32595 61403 10261 20225 30121 40130 86200 333 10295 29078 55077 59008;EQDQ01  00002PRCP99
0186829000999992001101812004-08040-034920FM-12+000799999V0200901N002110075019N0100001N1+02841+02221101411ADDAA199000091GF106991061021008001001001KA1240N+02471MA1999999101321MD1999999-0041REMSYN076AAXX  18124 82900 32597 60904 10284 20222 30132 40141 86200 333 20247 59004;EQDQ01  00002PRCP99
0167829000999992001101818004-08040-034920FM-12+000799999V0200901N003112200019N0100001N1+02801+02151101081ADDAA199000091GF102991021021008001001001MA1999999100991MD1999999-0111REMSYN070AAXX  18184 82900 32597 20906 10280 20215 30099 40108 82200 333 59011;EQDQ01  00002PRCP99
0198829000999992001101900004-08040-034920FM-12+000799999V0200901N001510075019N0020001N1+02581+02171101281ADDAA199000091GF106991061021008001001001KA1240M+02971MA1999999101191MD1999999-0021REMSYN088AAXX  19004 82900 32595 60903 10258 20217 30119 40128 86200 333 10297 29073 55068 59002;EQDQ01  00002PRCP99
0186829000999992001101912004-08040-034920FM-12+000799999V0201401N005110450019N0100001N1+02771+02271101351ADDAA199000091GF106991041021008001031001KA1240N+02081MA1999999101261MD1999999-0061REMSYN076AAXX  19124 82900 32597 61410 10277 20227 30126 40135 84230 333 20208 59006;EQDQ01  00002PRCP99
0167829000999992001101918004-08040-034920FM-12+000799999V0200901N003112200019N0100001N1+02771+02211101091ADDAA199000091GF103991031021008001001001MA1999999101001MD1999999+0011REMSYN070AAXX  19184 82900 32597 30906 10277 20221 30100 40109 83200 333 58001;EQDQ01  00002PRCP99
0198829000999992001102000004-08040-034920FM-12+000799999V0201401N002610012019N0020001N1+02601+02211101301ADDAA199000091GF106991061021001501001001KA1240M+02911MA1999999101211MD1999999+0021REMSYN088AAXX  20004 82900 32295 61405 10260 20221 30121 40130 86200 333 10291 29076 55058 58002;EQDQ01  00002PRCP99
0186829000999992001102012004-08040-034920FM-12+000799999V0201401N003110075019N0100001N1+02811+02271101381ADDAA199000091GF106991061021008001001001KA1240N+02401MA1999999101291MD1999999+0031REMSYN076AAXX  20124 82900 32597 61406 10281 20227 30129 40138 86200 333 20240 58003;EQDQ01  00002PRCP99
0167829000999992001102018004-08040-034920FM-12+000799999V0201401N004610075019N0100001N1+02801+02311101221ADDAA199000091GF106991061021008001001001MA1999999101131MD1999999+0131REMSYN070AAXX  20184 82900 32597 61409 10280 20231 30113 40122 86200 333 58013;EQDQ01  00002PRCP99
0198829000999992001102100004-08040-034920FM-12+000799999V0201401N002112200019N0020001N1+02581+02331101441ADDAA199000091GF103991031011008001001001KA1240M+02961MA1999999101351MD1999999+0141REMSYN088AAXX  21004 82900 32595 31404 10258 20233 30135 40144 83100 333 10296 29080 55074 58014;EQDQ01  00002PRCP99
0186829000999992001102112004-08040-034920FM-12+000799999V0201401N003610075019N0100001N1+02801+02151101471ADDAA199000091GF106991061021008001001001KA1240N+02171MA1999999101381MD1999999+0091REMSYN076AAXX  21124 82900 32597 61407 10280 20215 30138 40147 86200 333 20217 58009;EQDQ01  00002PRCP99
0167829000999992001102118004-08040-034920FM-12+000799999V0201401N004110075019N0100001N1+02761+02141101141ADDAA199000091GF105991051021008001001001MA1999999101051MD1999999-0081REMSYN070AAXX  21184 82900 32597 51408 10276 20214 30105 40114 85200 333 59008;EQDQ01  00002PRCP99
0198829000999992001102200004-08040-034920FM-12+000799999V0200901N001012200019N0020001N1+02521+02211101401ADDAA199000091GF104991041021008001001001KA1240M+02941MA1999999101311MD1999999+0041REMSYN088AAXX  22004 82900 32595 40902 10252 20221 30131 40140 84200 333 10294 29076 55096 58004;EQDQ01  00002PRCP99
0186829000999992001102212004-08040-034920FM-12+000799999V0200901N004610450019N0100001N1+02801+02201101421ADDAA199000091GF105991041041008001021001KA1240N+02091MA1999999101331MD1999999-0051REMSYN076AAXX  22124 82900 32597 50909 10280 20220 30133 40142 84420 333 20209 59005;EQDQ01  00002PRCP99
0167829000999992001102218004-08040-034920FM-12+000799999V0200901N003112200019N0100001N1+02781+02251101181ADDAA199000091GF104991031021008001021001MA1999999101091MD1999999+0041REMSYN070AAXX  22184 82900 32597 40906 10278 20225 30109 40118 83220 333 58004;EQDQ01  00002PRCP99
0198829000999992001102300004-08040-034920FM-12+000799999V0200901N002612200019N0020001N1+02591+02351101231ADDAA199000091GF103991031021008001001001KA1240M+02971MA1999999101141MD1999999-0171REMSYN088AAXX  23004 82900 32595 30905 10259 20235 30114 40123 83200 333 10297 29076 55072 59017;EQDQ01  00002PRCP99
0186829000999992001102312004-08040-034920FM-12+000799999V0200901N003110075019N0100001N1+02911+02321101361ADDAA199000091GF105991051021008001001001KA1240N+02511MA1999999101271MD1999999-0061REMSYN076AAXX  23124 82900 32597 50906 10291 20232 30127 40136 85200 333 20251 59006;EQDQ01  00002PRCP99
0167829000999992001102318004-08040-034920FM-12+000799999V0200901N004112200019N0100001N1+02831+02291101141ADDAA199000091GF104991041021008001001001MA1999999101051MD1999999-0041REMSYN070AAXX  23184 82900 32597 40908 10283 20229 30105 40114 84200 333 59004;EQDQ01  00002PRCP99
0198829000999992001102400004-08040-034920FM-12+000799999V0200901N003110075019N0020001N1+02651+02291101471ADDAA199000091GF105991051021008001001001KA1240M+03061MA1999999101381MD1999999+0241REMSYN088AAXX  24004 82900 32595 50906 10265 20229 30138 40147 85200 333 10306 29076 55068 58024;EQDQ01  00002PRCP99
0186829000999992001102412004-08040-034920FM-12+000799999V0201401N002110075019N0100001N1+02781+02161101691ADDAA199000091GF106991061021008001001001KA1240N+02451MA1999999101601MD1999999+0331REMSYN076AAXX  24124 82900 32597 61404 10278 20216 30160 40169 86200 333 20245 58033;EQDQ01  00002PRCP99
0167829000999992001102418004-08040-034920FM-12+000799999V0201401N003610075019N0100001N1+02801+02131101401ADDAA199000091GF106991061021008001001001MA1999999101311MD1999999+0261REMSYN070AAXX  24184 82900 32597 61407 10280 20213 30131 40140 86200 333 58026;EQDQ01  00002PRCP99
0213829000999992001102500004-08040-034920FM-12+000799999V0201801N003110075019N0020001N1+02501+02271101601ADDAA106002091AY161061AY221061GF105991051021008001001001KA1240M+02981MA1999999101511MD1999999+0161MW1011REMSYN100AAXX  25004 82900 21595 51806 10250 20227 30151 40160 70162 85200 333 10298 29078 55068 58016 60021;
0201829000999992001102512004-08040-034920FM-12+000799999V0201401N002110075019N0100001N1+02771+02061101681ADDAA124004191AY161061AY221061GF107991071071008001001001KA1240N+02161MA1999999101591MD1999999-0011MW1031REMSYN088AAXX  25124 82900 21597 71404 10277 20206 30159 40168 70362 87700 333 20216 59001 60044;
0167829000999992001102518004-08040-034920FM-12+000799999V0201801N003110075019N0100001N1+02541+02211101411ADDAA199000091GF107991071071008001001001MA1999999101321MD1999999+0011REMSYN070AAXX  25184 82900 32597 71806 10254 20221 30132 40141 87700 333 58001;EQDQ01  00002PRCP99
0213829000999992001102600004-08040-034920FM-12+000799999V0203201N000510075019N0020001N1+02211+02081101601ADDAA106003091AY161061AY221061GF107991071051008001001001KA1240M+02841MA1999999101531MD1999999+0011MW1031REMSYN100AAXX  26004 82900 21595 73201 10221 20208 30153 40160 70362 87500 333 10284 29083 55027 58001 60031;
0201829000999992001102612004-08040-034920FM-12+000799999V0209999C000010450019N0100001N1+02681+02201101501ADDAA124005191AY161061AY221061GF106991041021008001031001KA1240N+02081MA1999999101411MD1999999-0181MW1031REMSYN088AAXX  26124 82900 21597 60000 10268 20220 30141 40150 70362 84230 333 20208 59018 60054;
0167829000999992001102618004-08040-034920FM-12+000799999V0201401N002110075019N0100001N1+02731+02221101211ADDAA199000091GF107991051041008001031001MA1999999101121MD1999999-0201REMSYN070AAXX  26184 82900 32597 71404 10273 20222 30112 40121 85430 333 59020;EQDQ01  00002PRCP99
0198829000999992001102700004-08040-034920FM-12+000799999V0209999C000010075019N0020001N1+02401+02181101511ADDAA199000091GF106991061021008001001001KA1240M+02921MA1999999101421MD1999999-0101REMSYN088AAXX  27004 82900 32595 60000 10240 20218 30142 40151 86200 333 10292 29084 55033 59010;EQDQ01  00002PRCP99
0201829000999992001102712004-08040-034920FM-12+000799999V0201801N001510075019N0100001N1+02361+02331101541ADDAA124007991AY161061AY221061GF108991081051008001999999KA1240N+02251MA1999999100451MD1999999+0041MW1601REMSYN088AAXX  27124 82900 21597 81803 10236 20233 30045 40154 76062 885// 333 20225 58004 60084;
0182829000999992001102718004-08040-034920FM-12+000799999V0201401N002610075019N0100001N1+02711+02241101131ADDAA106004191AY161061AY221061GF107991071071008001001001MA1999999101041MD1999999-0081MW1011REMSYN082AAXX  27184 82900 21597 71405 10271 20224 30104 40113 70162 87700 333 59008 60041;
0179829000999992001102800004-08040-034920FM-12+000799999V0202301N001510075019N0020001N1+02411+02301101451ADDAA199000021GF105991051021008001001001KA1240M+02761MA1999999101361MD1999999-0061REMSYN088AAXX  28004 82900 32595 52303 10241 20230 30136 40145 85200 333 10276 29090 55006 59006;
0201829000999992001102812004-08040-034920FM-12+000799999V0201801N003110075019N0100001N1+02381+02291101611ADDAA124006191AY161061AY221061GF108991081071008001001001KA1240N+02271MA1999999101521MD1999999+0071MW1611REMSYN088AAXX  28124 82900 21597 81806 10238 20229 30152 40161 76162 88700 333 20227 58007 60064;
0182829000999992001102818004-08040-034920FM-12+000799999V0201401N001510075019N0100001N1+02611+02271101211ADDAA106002091AY161061AY221061GF107991071071008001001001MA1999999101121MD1999999+0081MW1011REMSYN082AAXX  28184 82900 21597 71403 10261 20227 30112 40121 70162 87700 333 58008 60021;
0179829000999992001102900004-08040-034920FM-12+000799999V0209999C000010075019N0020001N1+02431+02331101521ADDAA199000021GF106991061071008001001001KA1240M+02721MA1999999101431MD1999999+0071REMSYN088AAXX  29004 82900 32595 60000 10243 20233 30143 40152 86700 333 10272 29092 55000 58007;
0201829000999992001102912004-08040-034920FM-12+000799999V0200501N002110075019N0100001N1+02571+02291101601ADDAA124005191AY161061AY261061GF107991071071008001999999KA1240N+02291MA1999999101511MD1999999-0011MW1211REMSYN088AAXX  29124 82900 21597 70504 10257 20229 30151 40160 72166 877// 333 20229 59001 60054;
0148829000999992001102918004-08040-034920FM-12+000799999V0200901N002610075019N0100001N1+02721+02241101271ADDAA199000021GF106991051041008001021001MA1999999101181MD1999999+0061REMSYN070AAXX  29184 82900 32597 60905 10272 20224 30118 40127 85420 333 58006;
0213829000999992001103000004-08040-034920FM-12+000799999V0200901N003110075019N0020001N1+02601+02231101531ADDAA106001091AY161061AY221061GF106991061071008001001001KA1240M+02881MA1999999101441MD1999999+0011MW1031REMSYN100AAXX  30004 82900 21595 60906 10260 20223 30144 40153 70362 86700 333 10288 29080 55025 58001 60011;
0201829000999992001103012004-08040-034920FM-12+000799999V0201401N003610075019N0100001N1+02781+02231101741ADDAA124001091AY161061AY261061GF108991081041008001999999KA1240N+02401MA1999999101651MD1999999+0141MW1031REMSYN088AAXX  30124 82900 21597 81407 10278 20223 30165 40174 70366 884// 333 20240 58014 60014;
0167829000999992001103018004-08040-034920FM-12+000799999V0201401N003610075019N0100001N1+02781+02161101351ADDAA199000091GF107991071041008001001001MA1999999101261MD1999999+0081REMSYN070AAXX  30184 82900 32597 71407 10278 20216 30126 40135 87400 333 58008;EQDQ01  00002PRCP99
0198829000999992001103100004-08040-034920FM-12+000799999V0201401N001510075019N0020001N1+02551+02131101531ADDAA199000091GF106991061071008001001001KA1240M+02881MA1999999101441MD1999999+0001REMSYN088AAXX  31004 82900 32595 61403 10255 20213 30144 40153 86700 333 10288 29074 55020 58000;EQDQ01  00002PRCP99
0186829000999992001103112004-08040-034920FM-12+000799999V0201401N003110075019N0100001N1+02731+02281101491ADDAA199000091GF106991061021008001001001KA1240N+02081MA1999999101401MD1999999-0251REMSYN076AAXX  31124 82900 32597 61406 10273 20228 30140 40149 86200 333 20208 59025;EQDQ01  00002PRCP99
0167829000999992001103118004-08040-034920FM-12+000799999V0201801N003610450019N0100001N1+02851+02081101091ADDAA199000091GF105991031021008001031001MA1999999101001MD1999999-0261REMSYN070AAXX  31184 82900 32597 51807 10285 20208 30100 40109 83230 333 59026;EQDQ01  00002PRCP99
0214829000999992001110100004-08040-034920FM-12+000799999V0201401N003119999999N0020001N1+02581+02171101291ADDAA199000091GF106991999021008001001001KA1240M+02941MA1999999101201MD1999999-0241REMSYN088AAXX  01004 82900 32595 61406 10258 20217 30120 40129 84200 333 10294 29074 55067 59024;EQDQ01+000042SCOTLCQ02  00002PRCP99
0186829000999992001110112004-08040-034920FM-12+000799999V0201401N003112200019N0100001N1+02891+02201101221ADDAA199000091GF102991021021008001031001KA1240N+02201MA1999999101131MD1999999-0271REMSYN076AAXX  01124 82900 32597 21406 10289 20220 30113 40122 82230 333 20220 59027;EQDQ01  00002PRCP99
0167829000999992001110118004-08040-034920FM-12+000799999V0201801N003610075019N0100001N1+02831+02121101021ADDAA199000091GF105991051041008001001001MA1999999100931MD1999999-0071REMSYN070AAXX  01184 82900 32597 51807 10283 20212 30093 40102 85400 333 59007;EQDQ01  00002PRCP99
0198829000999992001110200004-08040-034920FM-12+000799999V0201401N004610075019N0020001N1+02601+02231101221ADDAA199000091GF106991061021008001001001KA1240M+03001MA1999999101131MD1999999-0071REMSYN088AAXX  02004 82900 32595 61409 10260 20223 30113 40122 86200 333 10300 29073 55083 59007;EQDQ01  00002PRCP99
0186829000999992001110212004-08040-034920FM-12+000799999V0201801N002110075019N0100001N1+02881+02181101281ADDAA199000091GF105991051021008001001001KA1240N+02211MA1999999101191MD1999999+0061REMSYN076AAXX  02124 82900 32597 51804 10288 20218 30119 40128 85200 333 20221 58006;EQDQ01  00002PRCP99
0167829000999992001110218004-08040-034920FM-12+000799999V0200901N003110450019N0100001N1+02841+02191100951ADDAA199000091GF105991031021008001021001MA1999999100861MD1999999-0071REMSYN070AAXX  02184 82900 32597 50906 10284 20219 30086 40095 83220 333 59007;EQDQ01  00002PRCP99
0198829000999992001110300004-08040-034920FM-12+000799999V0200901N002612200019N0020001N1+02581+02231101311ADDAA199000091GF104991041021008001001001KA1240M+02941MA1999999101221MD1999999+0091REMSYN088AAXX  03004 82900 32595 40905 10258 20223 30122 40131 84200 333 10294 29074 55071 58009;EQDQ01  00002PRCP99
0186829000999992001110312004-08040-034920FM-12+000799999V0201401N004110450019N0100001N1+02851+02171101361ADDAA199000091GF105991041021008001011001KA1240N+02491MA1999999101271MD1999999+0081REMSYN076AAXX  03124 82900 32597 51408 10285 20217 30127 40136 84210 333 20249 58008;EQDQ01  00002PRCP99
0167829000999992001110318004-08040-034920FM-12+000799999V0200901N003112200019N0100001N1+02841+02221101151ADDAA199000091GF103991031011008001001001MA1999999101061MD1999999+0201REMSYN070AAXX  03184 82900 32597 30906 10284 20222 30106 40115 83100 333 58020;EQDQ01  00002PRCP99
0198829000999992001110400004-08040-034920FM-12+000799999V0200901N001512200019N0020001N1+02581+02171101401ADDAA199000091GF102991021011008001001001KA1240M+02971MA1999999101311MD1999999+0001REMSYN088AAXX  04004 82900 32595 20903 10258 20217 30131 40140 82100 333 10297 29074 55082 58000;EQDQ01  00002PRCP99
0202829000999992001110412004-08040-034920FM-12+000799999V0200901N003119999999N0100001N1+02881+02181101401ADDAA199000091GF105991999011008001001001KA1240N+02001MA1999999101311MD1999999+0041REMSYN076AAXX  04124 82900 32597 50906 10288 20218 30131 40140 82100 333 20200 58004;EQDQ01+000022SCOTLCQ02  00002PRCP99
0183829000999992001110418004-08040-034920FM-12+000799999V0200901N003119999999N0100001N1+02841+02261101161ADDAA199000091GF105991999011008001001001MA1999999101071MD1999999+0011REMSYN070AAXX  04184 82900 32597 50906 10284 20226 30107 40116 82100 333 58001;EQDQ01+000022SCOTLCQ02  00002PRCP99
0198829000999992001110500004-08040-034920FM-12+000799999V0200901N003110075019N0020001N1+02631+02211101321ADDAA199000091GF105991051021008001001001KA1240M+02991MA1999999101231MD1999999-0081REMSYN088AAXX  05004 82900 32595 50906 10263 20221 30123 40132 85200 333 10299 29073 55076 59008;EQDQ01  00002PRCP99
0186829000999992001110512004-08040-034920FM-12+000799999V0201401N003610075019N0100001N1+02871+02251101401ADDAA199000091GF105991051021008001001001KA1240N+02181MA1999999101311MD1999999+0001REMSYN076AAXX  05124 82900 32597 51407 10287 20225 30131 40140 85200 333 20218 58000;EQDQ01  00002PRCP99
0167829000999992001110518004-08040-034920FM-12+000799999V0201401N003110075019N0100001N1+02891+02271101071ADDAA199000091GF105991051021008001001001MA1999999101981MD1999999-0091REMSYN070AAXX  05184 82900 32597 51406 10289 20227 30198 40107 85200 333 59009;EQDQ01  00002PRCP99
0198829000999992001110600004-08040-034920FM-12+000799999V0201801N001510075019N0020001N1+02611+02251101391ADDAA199000091GF105991051021008001001001KA1240M+03051MA1999999101301MD1999999+0071REMSYN088AAXX  06004 82900 32595 51803 10261 20225 30130 40139 85200 333 10305 29075 55096 58007;EQDQ01  00002PRCP99
0186829000999992001110612004-08040-034920FM-12+000799999V0200901N003110075019N0100001N1+02921+02221101401ADDAA199000091GF105991051021008001001001KA1240N+02101MA1999999101311MD1999999+0001REMSYN076AAXX  06124 82900 32597 50906 10292 20222 30131 40140 85200 333 20210 58000;EQDQ01  00002PRCP99
0167829000999992001110618004-08040-034920FM-12+000799999V0201401N003110450019N0100001N1+02861+02231101191ADDAA199000091GF105991041021008001021001MA1999999101101MD1999999+0121REMSYN070AAXX  06184 82900 32597 51406 10286 20223 30110 40119 84220 333 58012;EQDQ01  00002PRCP99
0198829000999992001110700004-08040-034920FM-12+000799999V0201401N003112200019N0020001N1+02611+02191101471ADDAA199000091GF103991031011008001001001KA1240M+03041MA1999999101381MD1999999+0081REMSYN088AAXX  07004 82900 32595 31406 10261 20219 30138 40147 83100 333 10304 29073 55080 58008;EQDQ01  00002PRCP99
0186829000999992001110712004-08040-034920FM-12+000799999V0201401N001510450019N0100001N1+02731+02051101591ADDAA199000091GF106991041021008001031001KA1240N+02441MA1999999101501MD1999999+0191REMSYN076AAXX  07124 82900 32597 61403 10273 20205 30150 40159 84230 333 20244 58019;EQDQ01  00002PRCP99
0167829000999992001110718004-08040-034920FM-12+000799999V0201401N002612200019N0100001N1+02841+02081101301ADDAA199000091GF104991021021008001021001MA1999999101211MD1999999+0131REMSYN070AAXX  07184 82900 32597 41405 10284 20208 30121 40130 82220 333 58013;EQDQ01  00002PRCP99
0198829000999992001110800004-08040-034920FM-12+000799999V0201401N003112200019N0020001N1+02621+02181101481ADDAA199000091GF102991021011008001001001KA1240M+03041MA1999999101391MD1999999+0011REMSYN088AAXX  08004 82900 32595 21406 10262 20218 30139 40148 82100 333 10304 29071 55090 58001;EQDQ01  00002PRCP99
0186829000999992001110812004-08040-034920FM-12+000799999V0201801N002110450019N0100001N1+02841+02171101591ADDAA199000091GF106991041021008001031001KA1240N+02131MA1999999101501MD1999999+0001REMSYN076AAXX  08124 82900 32597 61804 10284 20217 30150 40159 84230 333 20213 58000;EQDQ01  00002PRCP99
0167829000999992001110818004-08040-034920FM-12+000799999V0201401N002110075019N0100001N1+02741+02261101391ADDAA199000091GF106991061031008001031001MA1999999101301MD1999999+0071REMSYN070AAXX  08184 82900 32597 61404 10274 20226 30130 40139 86330 333 58007;EQDQ01  00002PRCP99
0198829000999992001110900004-08040-034920FM-12+000799999V0201401N001510075019N0020001N1+02611+02191101571ADDAA199000091GF106991061021008001001001KA1240M+02971MA1999999101481MD1999999+0091REMSYN088AAXX  09004 82900 32595 61403 10261 20219 30148 40157 86200 333 10297 29074 55038 58009;EQDQ01  00002PRCP99
0201829000999992001110912004-08040-034920FM-12+000799999V0201401N005110075019N0100001N1+02731+02281101611ADDAA124004191AY161061AY221061GF106991051041008001021001KA1240N+02331MA1999999101521MD1999999+0021MW1011REMSYN088AAXX  09124 82900 21597 61410 10273 20228 30152 40161 70162 85420 333 20233 58002 60044;
0167829000999992001110918004-08040-034920FM-12+000799999V0201801N004612200019N0100001N1+02841+02221101281ADDAA199000091GF104991031021008001011001MA1999999101191MD1999999-0111REMSYN070AAXX  09184 82900 32597 41809 10284 20222 30119 40128 83210 333 59011;EQDQ01  00002PRCP99
0213829000999992001111000004-08040-034920FM-12+000799999V0209999C000010075019N0020001N1+02371+02281101541ADDAA106007991AY161061AY261061GF107991071071008001001001KA1240M+02871MA1999999101451MD1999999-0031MW1011REMSYN100AAXX  10004 82900 21595 70000 10237 20228 30145 40154 70166 87700 333 10287 29083 55070 59003 60081;
0201829000999992001111012004-08040-034920FM-12+000799999V0201801N001510075019N0100001N1+02671+02281101591ADDAA124019191AY161061AY261061GF106991061021008001001001KA1240N+02261MA1999999101591MD1999999-0021MW1021REMSYN088AAXX  10124 82900 21597 61803 10267 20228 30159 40159 70266 86200 333 20226 59002 60194;
0182829000999992001111018004-08040-034920FM-12+000799999V0201801N003110075019N0100001N1+02821+02241101241ADDAA106002091AY161061AY221061GF106991061021008001001001MA1999999101141MD1999999-0041MW1011REMSYN082AAXX  10184 82900 21597 61806 10282 20224 30114 40124 70162 86200 333 59004 60021;
0198829000999992001111100004-08040-034920FM-12+000799999V0201801N002612200019N0020001N1+02551+02251101511ADDAA199000091GF102991021011008001001001KA1240M+02911MA1999999101421MD1999999-0031REMSYN088AAXX  11004 82900 32595 21805 10255 20225 30142 40151 82100 333 10291 29079 55058 59003;EQDQ01  00002PRCP99
0201829000999992001111112004-08040-034920FM-12+000799999V0202301N002610075019N0100001N1+02721+02321101621ADDAA124003091AY161061AY221061GF106991061021008001001001KA1240N+02121MA1999999101531MD1999999+0031MW1031REMSYN088AAXX  11124 82900 21597 62305 10272 20232 30153 40162 70362 86200 333 20212 58003 60034;
0167829000999992001111118004-08040-034920FM-12+000799999V0201801N002110075019N0100001N1+02791+02201101311ADDAA199000091GF106991061021008001001001MA1999999101221MD1999999+0071REMSYN070AAXX  11184 82900 32597 61804 10279 20220 30122 40131 86200 333 58007;EQDQ01  00002PRCP99
0198829000999992001111200004-08040-034920FM-12+000799999V0201801N003110075019N0020001N1+02611+02291101531ADDAA199000091GF106991061021008001001001KA1240M+02951MA1999999101441MD1999999+0021REMSYN088AAXX  12004 82900 32595 61806 10261 20229 30144 40153 86200 333 10295 29079 55080 58002;EQDQ01  00002PRCP99
0186829000999992001111212004-08040-034920FM-12+000799999V0201401N003110075019N0100001N1+02861+02161101651ADDAA199000091GF106991061021008001001001KA1240N+02131MA1999999101561MD1999999+0031REMSYN076AAXX  12124 82900 32597 61406 10286 20216 30156 40165 86200 333 20213 58003;EQDQ01  00002PRCP99
0167829000999992001111218004-08040-034920FM-12+000799999V0201401N004110075019N0100001N1+02841+02171101401ADDAA199000091GF106991061021008001001001MA1999999101311MD1999999+0091REMSYN070AAXX  12184 82900 32597 61408 10284 20217 30131 40140 86200 333 58009;EQDQ01  00002PRCP99
0198829000999992001111300004-08040-034920FM-12+000799999V0201401N003110075019N0020001N1+02621+02211101501ADDAA199000091GF106991061021008001001001KA1240M+02991MA1999999101411MD1999999-0031REMSYN088AAXX  13004 82900 32595 61406 10262 20221 30141 40150 86200 333 10299 29072 55104 59003;EQDQ01  00002PRCP99
0186829000999992001111312004-08040-034920FM-12+000799999V0201401N004110450019N0100001N1+02881+02181101461ADDAA199000091GF105991041041008001021001KA1240N+02191MA1999999101371MD1999999-0191REMSYN076AAXX  13124 82900 32597 51408 10288 20218 30137 40146 84420 333 20219 59019;EQDQ01  00002PRCP99
0167829000999992001111318004-08040-034920FM-12+000799999V0201401N003110075019N0100001N1+02871+02141101141ADDAA199000091GF106991051041008001021001MA1999999101051MD1999999-0261REMSYN070AAXX  13184 82900 32597 61406 10287 20214 30105 40114 85420 333 59026;EQDQ01  00002PRCP99
0198829000999992001111400004-08040-034920FM-12+000799999V0200901N001510075019N0020001N1+02611+02211101331ADDAA199000091GF106991061021008001001001KA1240M+02991MA1999999101241MD1999999-0171REMSYN088AAXX  14004 82900 32595 60903 10261 20221 30124 40133 86200 333 10299 29072 55101 59017;EQDQ01  00002PRCP99
0186829000999992001111412004-08040-034920FM-12+000799999V0200901N003110075019N0100001N1+02871+02181101401ADDAA199000091GF105991051021008001001001KA1240N+02221MA1999999101311MD1999999-0061REMSYN076AAXX  14124 82900 32597 50906 10287 20218 30131 40140 85200 333 20222 59006;EQDQ01  00002PRCP99
0167829000999992001111418004-08040-034920FM-12+000799999V0200901N003110075019N0100001N1+02811+02181100971ADDAA199000091GF105991051021008001001001MA1999999100881MD1999999-0171REMSYN070AAXX  14184 82900 32597 50906 10281 20218 30088 40097 85200 333 59017;EQDQ01  00002PRCP99
0198829000999992001111500004-08040-034920FM-12+000799999V0200901N002112200019N0020001N1+02651+02231101201ADDAA199000091GF103991031021008001001001KA1240M+03001MA1999999101111MD1999999-0131REMSYN088AAXX  15004 82900 32595 30904 10265 20223 30111 40120 83200 333 10300 29073 55080 59013;EQDQ01  00002PRCP99
0186829000999992001111512004-08040-034920FM-12+000799999V0201401N002612200019N0100001N1+02881+02211101361ADDAA199000091GF104991041021008001001001KA1240N+02161MA1999999101271MD1999999-0041REMSYN076AAXX  15124 82900 32597 41405 10288 20221 30127 40136 84200 333 20216 59004;EQDQ01  00002PRCP99
0167829000999992001111518004-08040-034920FM-12+000799999V0200901N004610075019N0100001N1+02851+02221101071ADDAA199000091GF107991071071008001001001MA1999999100981MD1999999+0101REMSYN070AAXX  15184 82900 32597 70909 10285 20222 30098 40107 87700 333 58010;EQDQ01  00002PRCP99
0198829000999992001111600004-08040-034920FM-12+000799999V0200901N003110075019N0020001N1+02681+02201101391ADDAA199000091GF107991071071008001001001KA1240M+03001MA1999999101301MD1999999+0191REMSYN088AAXX  16004 82900 32595 70906 10268 20220 30130 40139 87700 333 10300 29072 55077 58019;EQDQ01  00002PRCP99
0186829000999992001111612004-08040-034920FM-12+000799999V0200901N002110450019N0100001N1+02821+02071101521ADDAA199000091GF105991031021008001031001KA1240N+02491MA1999999101421MD1999999+0151REMSYN076AAXX  16124 82900 32597 50904 10282 20207 30142 40152 83230 333 20249 58015;EQDQ01  00002PRCP99
0167829000999992001111618004-08040-034920FM-12+000799999V0201401N003110075019N0100001N1+02881+02231101261ADDAA199000091GF106991061021008001001001MA1999999101171MD1999999+0191REMSYN070AAXX  16184 82900 32597 61406 10288 20223 30117 40126 86200 333 58019;EQDQ01  00002PRCP99
0198829000999992001111700004-08040-034920FM-12+000799999V0200901N001510075019N0100001N1+02651+02231101471ADDAA199000091GF106991061021008001001001KA1240M+03041MA1999999101371MD1999999+0081REMSYN088AAXX  17004 82900 32597 60903 10265 20223 30137 40147 86200 333 10304 29072 55081 58008;EQDQ01  00002PRCP99
0186829000999992001111712004-08040-034920FM-12+000799999V0201401N003612200019N0100001N1+02941+02161101511ADDAA199000091GF103991031021008001001001KA1240N+02211MA1999999101421MD1999999+0001REMSYN076AAXX  17124 82900 32597 31407 10294 20216 30142 40151 83200 333 20221 58000;EQDQ01  00002PRCP99
0167829000999992001111718004-08040-034920FM-12+000799999V0201401N004610075019N0100001N1+02871+02281101251ADDAA199000091GF107991071071008001001001MA1999999101161MD1999999-0011REMSYN070AAXX  17184 82900 32597 71409 10287 20228 30116 40125 87700 333 59001;EQDQ01  00002PRCP99
0198829000999992001111800004-08040-034920FM-12+000799999V0200901N001510075019N0020001N1+02661+02371101411ADDAA199000091GF105991051021008001001001KA1240M+03081MA1999999101321MD1999999-0061REMSYN088AAXX  18004 82900 32595 50903 10266 20237 30132 40141 85200 333 10308 29076 55066 59006;EQDQ01  00002PRCP99
0201829000999992001111812004-08040-034920FM-12+000799999V0201401N004110075019N0100001N1+02911+02321101531ADDAA124002091AY161061AY221061GF105991051021008001001001KA1240N+02371MA1999999101441MD1999999+0021MW1021REMSYN088AAXX  18124 82900 21597 51408 10291 20232 30144 40153 70262 85200 333 20237 58002 60024;
0167829000999992001111818004-08040-034920FM-12+000799999V0201401N003610075019N0100001N1+02861+02231101241ADDAA199000091GF106991061021008001001001MA1999999101151MD1999999-0011REMSYN070AAXX  18184 82900 32597 61407 10286 20223 30115 40124 86200 333 59001;EQDQ01  00002PRCP99
0214829000999992001111900004-08040-034920FM-12+000799999V0200901N002612200019N0020001N1+02641+02231101501ADDAA199000091GF102991999021008001001001KA1240M+03001MA1999999101411MD1999999+0091REMSYN088AAXX  19004 82900 32595 20905 10264 20223 30141 40150 83200 333 10300 29074 55094 58009;EQDQ01+000032SCOTLCQ02  00002PRCP99
0186829000999992001111912004-08040-034920FM-12+000799999V0201401N003110075019N0100001N1+02861+02181101591ADDAA199000091GF105991051021008001001001KA1240N+02471MA1999999101501MD1999999+0061REMSYN076AAXX  19124 82900 32597 51406 10286 20218 30150 40159 85200 333 20247 58006;EQDQ01  00002PRCP99
0167829000999992001111918004-08040-034920FM-12+000799999V0200901N003110075019N0100001N1+02781+02231101381ADDAA199000091GF105991051021008001001001MA1999999101291MD1999999+0141REMSYN070AAXX  19184 82900 32597 50906 10278 20223 30129 40138 85200 333 58014;EQDQ01  00002PRCP99
0198829000999992001112000004-08040-034920FM-12+000799999V0200901N003112200019N0020001N1+02641+02141101451ADDAA199000091GF102991021011008001001001KA1240M+03021MA1999999101361MD1999999-0051REMSYN088AAXX  20004 82900 32595 20906 10264 20214 30136 40145 82100 333 10302 29072 55098 59005;EQDQ01  00002PRCP99
0186829000999992001112012004-08040-034920FM-12+000799999V0201401N003110075019N0100001N1+02821+02171101511ADDAA199000091GF105991051021008001001001KA1240N+02471MA1999999101421MD1999999+0081REMSYN076AAXX  20124 82900 32597 51406 10282 20217 30142 40151 85200 333 20247 58008;EQDQ01  00002PRCP99
0167829000999992001112018004-08040-034920FM-12+000799999V0201401N004112200019N0100001N1+02851+02171101311ADDAA199000091GF102991021011008001001001MA1999999101221MD1999999-0071REMSYN070AAXX  20184 82900 32597 21408 10285 20217 30122 40131 82100 333 59007;EQDQ01  00002PRCP99
0198829000999992001112100004-08040-034920FM-12+000799999V0200901N001512200019N0020001N1+02581+02121101401ADDAA199000091GF103991031011008001001001KA1240M+02991MA1999999101311MD1999999-0051REMSYN088AAXX  21004 82900 32595 30903 10258 20212 30131 40140 83100 333 10299 29072 55092 59005;EQDQ01  00002PRCP99
0186829000999992001112112004-08040-034920FM-12+000799999V0201401N004610450019N0100001N1+02821+02121101491ADDAA199000091GF105991041021008001011001KA1240N+02261MA1999999101401MD1999999-0021REMSYN076AAXX  21124 82900 32597 51409 10282 20212 30140 40149 84210 333 20226 59002;EQDQ01  00002PRCP99
0167829000999992001112118004-08040-034920FM-12+000799999V0201401N005112200019N0100001N1+02851+02171101271ADDAA199000091GF104991041021008001001001MA1999999101181MD1999999-0041REMSYN070AAXX  21184 82900 32597 41410 10285 20217 30118 40127 84200 333 59004;EQDQ01  00002PRCP99
0198829000999992001112200004-08040-034920FM-12+000799999V0200901N003112200019N0020001N1+02631+02181101471ADDAA199000091GF102991021011008001001001KA1240M+03001MA1999999101381MD1999999+0071REMSYN088AAXX  22004 82900 32595 20906 10263 20218 30138 40147 82100 333 10300 29072 55056 58007;EQDQ01  00002PRCP99
0186829000999992001112212004-08040-034920FM-12+000799999V0201401N004610075019N0100001N1+02811+02271101461ADDAA199000091GF106991051041008001021001KA1240N+02531MA1999999101371MD1999999-0031REMSYN076AAXX  22124 82900 32597 61409 10281 20227 30137 40146 85420 333 20253 59003;EQDQ01  00002PRCP99
0167829000999992001112218004-08040-034920FM-12+000799999V0201401N004110075019N0100001N1+02871+02111101251ADDAA199000091GF105991051021008001001001MA1999999101161MD1999999-0021REMSYN070AAXX  22184 82900 32597 51408 10287 20211 30116 40125 85200 333 59002;EQDQ01  00002PRCP99
0198829000999992001112300004-08040-034920FM-12+000799999V0201401N004610075019N0020001N1+02641+02231101381ADDAA199000091GF106991061021008001001001KA1240M+02961MA1999999101291MD1999999-0091REMSYN088AAXX  23004 82900 32595 61409 10264 20223 30129 40138 86200 333 10296 29073 55070 59009;EQDQ01  00002PRCP99
0186829000999992001112312004-08040-034920FM-12+000799999V0200901N002610075019N0100001N1+02871+02181101211ADDAA199000091GF105991051021008001001001KA1240N+02471MA1999999101121MD1999999-0251REMSYN076AAXX  23124 82900 32597 50905 10287 20218 30112 40121 85200 333 20247 59025;EQDQ01  00002PRCP99
0167829000999992001112318004-08040-034920FM-12+000799999V0200901N003612200019N0100001N1+02801+02081101001ADDAA199000091GF104991041021008001001001MA1999999100911MD1999999-0251REMSYN070AAXX  23184 82900 32597 40907 10280 20208 30091 40100 84200 333 59025;EQDQ01  00002PRCP99
0198829000999992001112400004-08040-034920FM-12+000799999V0200901N003110075019N0020001N1+02651+02201101161ADDAA199000091GF106991061021008001001001KA1240M+03031MA1999999101071MD1999999-0221REMSYN088AAXX  24004 82900 32595 60906 10265 20220 30107 40116 86200 333 10303 29071 55098 59022;EQDQ01  00002PRCP99
0186829000999992001112412004-08040-034920FM-12+000799999V0201401N003110075019N0100001N1+02921+02091101161ADDAA199000091GF105991051021008001001001KA1240N+02471MA1999999101071MD1999999-0051REMSYN076AAXX  24124 82900 32597 51406 10292 20209 30107 40116 85200 333 20247 59005;EQDQ01  00002PRCP99
0167829000999992001112418004-08040-034920FM-12+000799999V0200901N005110075019N0100001N1+02921+02171100891ADDAA199000091GF106991061021008001001001MA1999999100801MD1999999-0111REMSYN070AAXX  24184 82900 32597 60910 10292 20217 30080 40089 86200 333 59011;EQDQ01  00002PRCP99
0198829000999992001112500004-08040-034920FM-12+000799999V0201401N002110075019N0020001N1+02661+02221101191ADDAA199000091GF106991061021008001001001KA1240M+03041MA1999999101101MD1999999+0031REMSYN088AAXX  25004 82900 32595 61404 10266 20222 30110 40119 86200 333 10304 29070 55104 58003;EQDQ01  00002PRCP99
0186829000999992001112512004-08040-034920FM-12+000799999V0200901N003110075019N0100001N1+02831+02271101331ADDAA199000091GF106991061021008001001001KA1240N+02501MA1999999101241MD1999999+0171REMSYN076AAXX  25124 82900 32597 60906 10283 20227 30124 40133 86200 333 20250 58017;EQDQ01  00002PRCP99
0198829000999992001112600004-08040-034920FM-12+000799999V0200901N003110075019N0020001N1+02641+02291101191ADDAA199000091GF105991051011008001001001KA1240M+03031MA1999999101101MD1999999+0001REMSYN088AAXX  26004 82900 32595 50906 10264 20229 30110 40119 85100 333 10303 29078 55068 58000;EQDQ01  00002PRCP99
0201829000999992001112612004-08040-034920FM-12+000799999V0200901N001010450019N0100001N1+02821+02271101331ADDAA124000591AY151061AY221061GF106991041021008001021001KA1240N+02531MA1999999101241MD1999999+0001MW1021REMSYN088AAXX  26124 82900 21597 60902 10282 20227 30124 40133 70252 84220 333 20253 58000 69964;
0167829000999992001112618004-08040-034920FM-12+000799999V0200901N004610450019N0100001N1+02771+02251101171ADDAA199000091GF106991041021008001021001MA1999999101081MD1999999+0221REMSYN070AAXX  26184 82900 32597 60909 10277 20225 30108 40117 84220 333 58022;EQDQ01  00002PRCP99
0198829000999992001112700004-08040-034920FM-12+000799999V0201401N003110075019N0020001N1+02691+02281101191ADDAA199000091GF105991051021008001001001KA1240M+02941MA1999999101101MD1999999+0001REMSYN088AAXX  27004 82900 32595 51406 10269 20228 30110 40119 85200 333 10294 29076 55053 58000;EQDQ01  00002PRCP99
0201829000999992001112712004-08040-034920FM-12+000799999V0200901N004610075019N0100001N1+02811+02251101311ADDAA124000591AY151061AY221061GF106991051071008001021001KA1240N+02551MA1999999101221MD1999999-0021MW1011REMSYN088AAXX  27124 82900 21597 60909 10281 20225 30122 40131 70152 85720 333 20255 59002 69964;
0167829000999992001112718004-08040-034920FM-12+000799999V0201401N003110075019N0100001N1+02881+02181101051ADDAA199000091GF106991051041008001021001MA1999999100961MD1999999-0121REMSYN070AAXX  27184 82900 32597 61406 10288 20218 30096 40105 85420 333 59012;EQDQ01  00002PRCP99
0198829000999992001112800004-08040-034920FM-12+000799999V0201401N003110075019N0020001N1+02641+02231101271ADDAA199000091GF106991061021008001001001KA1240M+02961MA1999999101181MD1999999+0081REMSYN088AAXX  28004 82900 32595 61406 10264 20223 30118 40127 86200 333 10296 29074 55056 58008;EQDQ01  00002PRCP99
0220829000999992001112812004-08040-034920FM-12+000799999V0200901N003610075019N0100001N1+02821+02151101391ADDAA124001091AY161061AY221061GF106991999021008001001001KA1240N+02471MA1999999101301MD1999999+0081MW1021REMSYN088AAXX  28124 82900 21597 60907 10282 20215 30130 40139 70262 85200 333 20247 58008 60014;EQDQ01+000052SCOTLC
0167829000999992001112818004-08040-034920FM-12+000799999V0200901N003612200019N0100001N1+02881+02251101121ADDAA199000091GF103991031021008001001001MA1999999101031MD1999999+0071REMSYN070AAXX  28184 82900 32597 30907 10288 20225 30103 40112 83200 333 58007;EQDQ01  00002PRCP99
0198829000999992001112900004-08040-034920FM-12+000799999V0200901N003112200019N0020001N1+02641+02231101291ADDAA199000091GF104991041021008001001001KA1240M+03061MA1999999101201MD1999999+0021REMSYN088AAXX  29004 82900 32595 40906 10264 20223 30120 40129 84200 333 10306 29076 55086 58002;EQDQ01  00002PRCP99
0186829000999992001112912004-08040-034920FM-12+000799999V0200901N002110450019N0100001N1+02891+02301101321ADDAA199000091GF106991041021008001031001KA1240N+02501MA1999999101231MD1999999-0071REMSYN076AAXX  29124 82900 32597 60904 10289 20230 30123 40132 84230 333 20250 59007;EQDQ01  00002PRCP99
0182829000999992001112918004-08040-034920FM-12+000799999V0200901N003112200019N0100001N1+02871+02321101071ADDAA106000591AY151061AY221061GF103991021021008001021001MA1999999100981MD1999999-0051MW1021REMSYN082AAXX  29184 82900 21597 30906 10287 20232 30098 40107 70252 82220 333 59005 69941;
0213829000999992001113000004-08040-034920FM-12+000799999V0200901N001512200019N0020001N1+02671+02331101181ADDAA106000591AY151061AY221061GF102991021021008001001001KA1240M+03091MA1999999101041MD1999999-0111MW1011REMSYN100AAXX  30004 82900 21595 20903 10267 20233 30104 40118 70152 82200 333 10309 29076 55072 59011 69951;
0173829000999992001113012004-08040-034920FM-12+000799999V0200901N004110075019N0100001N1+02931+02291101271ADDAA124001091GF107991061071008001031001KA1240N+02471MA1999999101181MD1999999-0051REMSYN082AAXX  30124 82900 22597 70908 10293 20229 30118 40127 86730 333 20247 59005 60014;
0167829000999992001113018004-08040-034920FM-12+000799999V0200501N003610075019N0100001N1+02881+02321100941ADDAA199000091GF106991051041008001021001MA1999999100851MD1999999-0131REMSYN070AAXX  30184 82900 32597 60507 10288 20232 30085 40094 85420 333 59013;EQDQ01  00002PRCP99
0198829000999992001120100004-08040-034920FM-12+000799999V0201401N003110075019N0020001N1+02711+02431101311ADDAA199000091GF106991061021008001001001KA1240M+03061MA1999999101221MD1999999+0131REMSYN088AAXX  01004 82900 32595 61406 10271 20243 30122 40131 86200 333 10306 29077 55090 58013;EQDQ01  00002PRCP99
0201829000999992001120112004-08040-034920FM-12+000799999V0201401N001010075019N0100001N1+02871+02371101271ADDAA124001091AY161061AY221061GF106991061031008001001001KA1240N+02471MA1999999101181MD1999999+0011MW1021REMSYN088AAXX  01124 82900 21597 61402 10287 20237 30118 40127 70262 86300 333 20247 58001 60014;
0167829000999992001120118004-08040-034920FM-12+000799999V0200901N003110075019N0100001N1+02911+02431100971ADDAA199000091GF106991061021008001001001MA1999999100881MD1999999+0031REMSYN070AAXX  01184 82900 32597 60906 10291 20243 30088 40097 86200 333 58003;EQDQ01  00002PRCP99
0198829000999992001120200004-08040-034920FM-12+000799999V0201401N003110075019N0020001N1+02701+02391101221ADDAA199000091GF106991061071008001001001KA1240M+03011MA1999999101131MD1999999-0091REMSYN088AAXX  02004 82900 32595 61406 10270 20239 30113 40122 86700 333 10301 29079 55062 59009;EQDQ01  00002PRCP99
0186829000999992001120212004-08040-034920FM-12+000799999V0200901N003110075019N0100001N1+02921+02291101261ADDAA199000091GF105991051021008001001001KA1240N+02511MA1999999101171MD1999999-0011REMSYN076AAXX  02124 82900 32597 50906 10292 20229 30117 40126 85200 333 20251 59001;EQDQ01  00002PRCP99
0167829000999992001120218004-08040-034920FM-12+000799999V0201401N003112200019N0100001N1+02921+02241100921ADDAA199000091GF102991021021008001001001MA1999999100831MD1999999-0051REMSYN070AAXX  02184 82900 32597 21406 10292 20224 30083 40092 82200 333 59005;EQDQ01  00002PRCP99
0198829000999992001120300004-08040-034920FM-12+000799999V0200901N003112200019N0020001N1+02651+02271101221ADDAA199000091GF102991021011008001001001KA1240M+03091MA1999999101131MD1999999+0001REMSYN088AAXX  03004 82900 32595 20906 10265 20227 30113 40122 82100 333 10309 29074 55102 58000;EQDQ01  00002PRCP99
0186829000999992001120312004-08040-034920FM-12+000799999V0201401N004610450019N0100001N1+02911+02321101331ADDAA199000091GF105991041031008001021001KA1240N+02591MA1999999101241MD1999999+0131REMSYN076AAXX  03124 82900 32597 51409 10291 20232 30124 40133 84320 333 20259 58013;EQDQ01  00002PRCP99
0167829000999992001120318004-08040-034920FM-12+000799999V0201401N004610450019N0100001N1+02881+02251100931ADDAA199000091GF105991041021008001011001MA1999999100841MD1999999+0011REMSYN070AAXX  03184 82900 32597 51409 10288 20225 30084 40093 84210 333 58001;EQDQ01  00002PRCP99
0198829000999992001120400004-08040-034920FM-12+000799999V0201401N003112200019N0020001N1+02681+02261101181ADDAA199000091GF102991021011008001001001KA1240M+03061MA1999999101091MD1999999-0041REMSYN088AAXX  04004 82900 32595 21406 10268 20226 30109 40118 82100 333 10306 29074 55103 59004;EQDQ01  00002PRCP99
0186829000999992001120412004-08040-034920FM-12+000799999V0201401N003110075019N0100001N1+02961+02261101441ADDAA199000091GF106991051041008001021001KA1240N+02331MA1999999101351MD1999999+0111REMSYN076AAXX  04124 82900 32597 61406 10296 20226 30135 40144 85420 333 20233 58011;EQDQ01  00002PRCP99
0167829000999992001120418004-08040-034920FM-12+000799999V0201401N005112200019N0100001N1+02911+02271101171ADDAA199000091GF104991041021008001001001MA1999999101081MD1999999+0241REMSYN070AAXX  04184 82900 32597 41410 10291 20227 30108 40117 84200 333 58024;EQDQ01  00002PRCP99
0198829000999992001120500004-08040-034920FM-12+000799999V0201401N003110075019N0020001N1+02691+02311101291ADDAA199000091GF106991061021008001001001KA1240M+03061MA1999999101201MD1999999+0111REMSYN088AAXX  05004 82900 32595 61406 10269 20231 30120 40129 86200 333 10306 29074 55098 58011;EQDQ01  00002PRCP99
0201829000999992001120512004-08040-034920FM-12+000799999V0201401N005110075019N0100001N1+02921+02321101351ADDAA124003091AY161061AY221061GF105991051021008001001001KA1240N+02521MA1999999101261MD1999999+0091MW1021REMSYN088AAXX  05124 82900 21597 51410 10292 20232 30126 40135 70262 85200 333 20252 58009 60034;
0198829000999992001120600004-08040-034920FM-12+000799999V0200901N003110075019N0020001N1+02691+02261101311ADDAA199000091GF105991051021008001001001KA1240M+03021MA1999999101221MD1999999+0021REMSYN088AAXX  06004 82900 32595 50906 10269 20226 30122 40131 85200 333 10302 29074 55097 58002;EQDQ01  00002PRCP99
0186829000999992001120612004-08040-034920FM-12+000799999V0201401N005110075019N0100001N1+02881+02181101371ADDAA199000091GF105991051021008001001001KA1240N+02611MA1999999101281MD1999999+0021REMSYN076AAXX  06124 82900 32597 51410 10288 20218 30128 40137 85200 333 20261 58002;EQDQ01  00002PRCP99
0167829000999992001120618004-08040-034920FM-12+000799999V0201401N003112200019N0100001N1+02841+02171101171ADDAA199000091GF103991031021008001001001MA1999999101081MD1999999+0041REMSYN070AAXX  06184 82900 32597 31406 10284 20217 30108 40117 83200 333 58004;EQDQ01  00002PRCP99
0198829000999992001120700004-08040-034920FM-12+000799999V0200901N003112200019N0020001N1+02701+02301101331ADDAA199000091GF104991041021008001001001KA1240M+03041MA1999999101241MD1999999+0021REMSYN088AAXX  07004 82900 32595 40906 10270 20230 30124 40133 84200 333 10304 29073 55107 58002;EQDQ01  00002PRCP99
0201829000999992001120712004-08040-034920FM-12+000799999V0201401N002110075019N0100001N1+02451+02251101441ADDAA124008991AY161061AY261061GF107991061071008001021001KA1240N+02371MA1999999101351MD1999999+0071MW1011REMSYN088AAXX  07124 82900 21597 71404 10245 20225 30135 40144 70166 86720 333 20237 58007 60094;
0167829000999992001120718004-08040-034920FM-12+000799999V0201401N005110075019N0100001N1+02871+02231101061ADDAA199000091GF105991051021008001001001MA1999999100971MD1999999-0111REMSYN070AAXX  07184 82900 32597 51410 10287 20223 30097 40106 85200 333 59011;EQDQ01  00002PRCP99
0201829000999992001121012004-08040-034920FM-12+000799999V0201401N004110450019N0100001N1+02901+02271101291ADDAA124000391AY151061AY221061GF105991041041008001021001KA1240N+02531MA1999999101201MD1999999+0071MW1011REMSYN088AAXX  10124 82900 21597 51408 10290 20227 30120 40129 70152 84420 333 20253 58007 69934;
0167829000999992001121018004-08040-034920FM-12+000799999V0201401N004610075019N0100001N1+02831+02171101101ADDAA199000091GF105991051021008001001001MA1999999101071MD1999999+0041REMSYN070AAXX  10184 82900 32597 51409 10283 20217 30107 40110 85200 333 58004;EQDQ01  00002PRCP99
0198829000999992001121100004-08040-034920FM-12+000799999V0201401N003112200019N0020001N1+02671+02221101361ADDAA199000091GF102991021011008001001001KA1240M+03001MA1999999101271MD1999999+0161REMSYN088AAXX  11004 82900 32595 21406 10267 20222 30127 40136 82100 333 10300 29073 55086 58016;EQDQ01  00002PRCP99
0167829000999992001121118004-08040-034920FM-12+000799999V0201401N005110075019N0100001N1+02761+02321101171ADDAA199000091GF107991071041008001001001MA1999999101081MD1999999+0071REMSYN070AAXX  11184 82900 32597 71410 10276 20232 30108 40117 87400 333 58007;EQDQ01  00002PRCP99
0198829000999992001121200004-08040-034920FM-12+000799999V0201401N001012200019N0020001N1+02601+02331101441ADDAA199000091GF102991021011008001001001KA1240M+02971MA1999999101351MD1999999+0081REMSYN088AAXX  12004 82900 32595 21402 10260 20233 30135 40144 82100 333 10297 29059 55041 58008;EQDQ01  00002PRCP99
0201829000999992001121212004-08040-034920FM-12+000799999V0200901N002110075019N0100001N1+02791+02311101361ADDAA124000591AY151061AY221061GF107991051031008001031001KA1240N+02401MA1999999101241MD1999999+0021MW1021REMSYN088AAXX  12124 82900 21597 70904 10279 20231 30124 40136 70252 85330 333 20240 58002 69944;
0167829000999992001121218004-08040-034920FM-12+000799999V0200901N002110450019N0100001N1+02791+02311100961ADDAA199000091GF106991041021008001031001MA1999999100871MD1999999-0211REMSYN070AAXX  12184 82900 32597 60904 10279 20231 30087 40096 84230 333 59021;EQDQ01  00002PRCP99
0198829000999992001121300004-08040-034920FM-12+000799999V0200901N003110075019N0020001N1+02671+02271101261ADDAA199000091GF106991061021008001001001KA1240M+02971MA1999999101171MD1999999-0181REMSYN088AAXX  13004 82900 32595 60906 10267 20227 30117 40126 86200 333 10297 29077 55007 59018;EQDQ01  00002PRCP99
0201829000999992001121312004-08040-034920FM-12+000799999V0200901N004610075019N0100001N1+02871+02321101211ADDAA124001091AY161061AY221061GF106991061021008001001001KA1240N+02131MA1999999101121MD1999999-0121MW1021REMSYN088AAXX  13124 82900 21597 60909 10287 20232 30112 40121 70262 86200 333 20213 59012 60014;
0167829000999992001121318004-08040-034920FM-12+000799999V0200901N003610075019N0100001N1+02921+02341101091ADDAA199000091GF106991061021008001001001MA1999999101001MD1999999+0131REMSYN070AAXX  13184 82900 32597 60907 10292 20234 30100 40109 86200 333 58013;EQDQ01  00002PRCP99
0198829000999992001121400004-08040-034920FM-12+000799999V0201401N009010075019N0020001N1+02721+02341101191ADDAA199000091GF106991061021008001001001KA1240M+03051MA1999999101101MD1999999-0071REMSYN088AAXX  14001 82900 32595 61409 10272 20234 30110 40119 86200 333 10305 29076 55094 59007;EQDQ01  00002PRCP99
0186829000999992001121412004-08040-034920FM-12+000799999V0201401N005110450019N0100001N1+02881+02321101201ADDAA199000091GF106991041021008001021001KA1240N+02571MA1999999101111MD1999999-0011REMSYN076AAXX  14124 82900 32597 61410 10288 20232 30111 40120 84220 333 20257 59001;EQDQ01  00002PRCP99
0167829000999992001121418004-08040-034920FM-12+000799999V0201401N005110075019N0100001N1+02871+02321101071ADDAA199000091GF106991061021008001001001MA1999999100981MD1999999+0021REMSYN070AAXX  14184 82900 32597 61410 10287 20232 30098 40107 86200 333 58002;EQDQ01  00002PRCP99
0213829000999992001121500004-08040-034920FM-12+000799999V0201401N003110075019N0020001N1+02701+02281101361ADDAA106000191AY151061AY221061GF106991061021008001001001KA1240M+03051MA1999999101271MD1999999+0171MW1011REMSYN100AAXX  15004 82900 21595 61406 10270 20228 30127 40136 70152 86200 333 10305 29075 55080 58017 69911;
0173829000999992001121512004-08040-034920FM-12+000799999V0201401N005710075019N0100001N1+02931+02241101411ADDAA124000191GF107991061041008001021001KA1240N+02611MA1999999101321MD1999999+0211REMSYN082AAXX  15124 82900 22597 71411 10293 20224 30132 40141 86420 333 20261 58021 69914;
0182829000999992001121518004-08040-034920FM-12+000799999V0201401N003110075019N0040001N1+02801+02361101081ADDAA106000891AY151061AY221061GF106991051071008001011001MA1999999100991MD1999999+0011MW1031REMSYN082AAXX  15184 82900 21596 61406 10280 20236 30099 40108 70352 85710 333 58001 69971;
0213829000999992001121600004-08040-034920FM-12+000799999V0200901N001510075019N0020001N1+02581+02371101361ADDAA106016091AY161061AY261061GF106991061071008001001001KA1240M+03001MA1999999101271MD1999999+0001MW1011REMSYN100AAXX  16004 82900 21595 60903 10258 20237 30127 40136 70166 86700 333 10300 29080 55058 58000 60161;
0220829000999992001121612004-08040-034920FM-12+000799999V0200901N005110075019N0100001N1+02871+02371101361ADDAA124020191AY161061AY261061GF107991999021008001001001KA1240N+02391MA1999999101271MD1999999-0051MW1031REMSYN088AAXX  16124 82900 21597 70910 10287 20237 30127 40136 70366 86200 333 20239 59005 60204;EQDQ01+000062SCOTLC
0182829000999992001121618004-08040-034920FM-12+000799999V0200901N003110075019N0100001N1+02841+02331101101ADDAA106003091AY161061AY221061GF107991071071008001001001MA1999999101011MD1999999+0021MW1011REMSYN082AAXX  16184 82900 21597 70906 10284 20233 30101 40110 70162 87700 333 58002 60031;
0213829000999992001121700004-08040-034920FM-12+000799999V0200901N001510075019N0020001N1+02621+02371101301ADDAA106002091AY161061AY221061GF106991061021008001001001KA1240M+02961MA1999999101211MD1999999-0061MW1031REMSYN100AAXX  17004 82900 21595 60903 10262 20237 30121 40130 70362 86200 333 10296 29080 55063 59006 60021;
0201829000999992001121712004-08040-034920FM-12+000799999V0200501N004112200019N0100001N1+02901+02271101331ADDAA124013091AY161061AY261061GF104991041021008001001001KA1240N+02321MA1999999101241MD1999999-0031MW1021REMSYN088AAXX  17124 82900 21597 40508 10290 20227 30124 40133 70266 84200 333 20232 59003 60134;
0167829000999992001121718004-08040-034920FM-12+000799999V0200901N005110075019N0100001N1+02821+02381101051ADDAA199000091GF106991061031008001001001MA1999999100961MD1999999-0051REMSYN070AAXX  17184 82900 32597 60910 10282 20238 30096 40105 86300 333 59005;EQDQ01  00002PRCP99
0198829000999992001121800004-08040-034920FM-12+000799999V0200901N003110075019N0020001N1+02671+02371101181ADDAA199000091GF105991051021008001001001KA1240M+03001MA1999999101091MD1999999-0121REMSYN088AAXX  18004 82900 32595 50906 10267 20237 30109 40118 85200 333 10300 29078 55078 59012;EQDQ01  00002PRCP99
0201829000999992001121812004-08040-034920FM-12+000799999V0200901N004610450019N0100001N1+02861+02281101331ADDAA124000591AY151061AY221061GF105991031021008001031001KA1240N+02501MA1999999101241MD1999999+0001MW1021REMSYN088AAXX  18124 82900 21597 50909 10286 20228 30124 40133 70252 83230 333 20250 58000 69954;
0167829000999992001121818004-08040-034920FM-12+000799999V0201401N003110075019N0100001N1+02851+02331101091ADDAA199000091GF106991061021008001001001MA1999999101001MD1999999+0041REMSYN070AAXX  18184 82900 32597 61406 10285 20233 30100 40109 86200 333 58004;EQDQ01  00002PRCP99
0214829000999992001121900004-08040-034920FM-12+000799999V0200901N003112200019N0020001N1+02651+02331101231ADDAA199000091GF103991999011008001001001KA1240M+02971MA1999999101141MD1999999+0051REMSYN088AAXX  19004 82900 32595 30906 10265 20233 30114 40123 82100 333 10297 29078 55040 58005;EQDQ01+000022SCOTLCQ02  00002PRCP99
0186829000999992001121912004-08040-034920FM-12+000799999V0200901N003110075019N0100001N1+02851+02351101321ADDAA199000091GF105991051021008001001001KA1240N+02371MA1999999101231MD1999999+0011REMSYN076AAXX  19124 82900 32597 50906 10285 20235 30123 40132 85200 333 20237 58001;EQDQ01  00002PRCP99
0167829000999992001121918004-08040-034920FM-12+000799999V0201401N002110450019N0100001N1+02971+02351101201ADDAA199000091GF105991031021008001021001MA1999999101111MD1999999+0111REMSYN070AAXX  19184 82900 32597 51404 10297 20235 30111 40120 83220 333 58011;EQDQ01  00002PRCP99
0198829000999992001122000004-08040-034920FM-12+000799999V0201401N003110075019N0020001N1+02721+02431101301ADDAA199000091GF106991061021008001001001KA1240M+03011MA1999999101211MD1999999+0071REMSYN088AAXX  20004 82900 32595 61406 10272 20243 30121 40130 86200 333 10301 29078 55094 58007;EQDQ01  00002PRCP99
0201829000999992001122012004-08040-034920FM-12+000799999V0201401N004110075019N0100001N1+02891+02411101411ADDAA124003091AY161061AY221061GF107991061071008001021001KA1240N+02591MA1999999101321MD1999999+0091MW1011REMSYN088AAXX  20124 82900 21597 71408 10289 20241 30132 40141 70162 86720 333 20259 58009 60034;
0167829000999992001122018004-08040-034920FM-12+000799999V0201401N004110075019N0100001N1+02971+02401101211ADDAA199000091GF106991061021008001001001MA1999999101121MD1999999-0011REMSYN070AAXX  20184 82900 32597 61408 10297 20240 30112 40121 86200 333 59001;EQDQ01  00002PRCP99
0201829000999992001122112004-08040-034920FM-12+000799999V0201401N004610450019N0100001N1+02831+02461101391ADDAA124002091AY161061AY221061GF106991041021008001021001KA1240N+02521MA1999999101301MD1999999-0021MW1021REMSYN088AAXX  21124 82900 21597 61409 10283 20246 30130 40139 70262 84220 333 20252 59002 60024;
0167829000999992001122118004-08040-034920FM-12+000799999V0201401N003110450019N0100001N1+02851+02351101191ADDAA199000091GF105991031021008001021001MA1999999101101MD1999999-0021REMSYN070AAXX  21184 82900 32597 51406 10285 20235 30110 40119 83220 333 59002;EQDQ01  00002PRCP99
0198829000999992001122200004-08040-034920FM-12+000799999V0201401N004610075019N0020001N1+02711+02391101291ADDAA199000091GF106991061021008001001001KA1240M+03001MA1999999101201MD1999999+0021REMSYN088AAXX  22004 82900 32595 61409 10271 20239 30120 40129 86200 333 10300 29080 55066 58002;EQDQ01  00002PRCP99
0186829000999992001122212004-08040-034920FM-12+000799999V0201401N003610075019N0100001N1+02881+02351101391ADDAA199000091GF106991061021008001001001KA1240N+02271MA1999999101601MD1999999+0001REMSYN076AAXX  22124 82900 32597 61407 10288 20235 30160 40139 86200 333 20227 58000;EQDQ01  00002PRCP99
0167829000999992001122218004-08040-034920FM-12+000799999V0201401N003110075019N0100001N1+02931+02361101251ADDAA199000091GF106991061021008001001001MA1999999101161MD1999999+0061REMSYN070AAXX  22184 82900 32597 61406 10293 20236 30116 40125 86200 333 58006;EQDQ01  00002PRCP99
0198829000999992001122300004-08040-034920FM-12+000799999V0201401N003110075019N0020001N1+02681+02371101421ADDAA199000091GF106991061021008001001001KA1240M+03031MA1999999101331MD1999999+0131REMSYN088AAXX  23004 82900 32595 61406 10268 20237 30133 40142 86200 333 10303 29078 55079 58013;EQDQ01  00002PRCP99
0201829000999992001122312004-08040-034920FM-12+000799999V0201401N003110075019N0100001N1+02821+02331101471ADDAA124003091AY161061AY221061GF106991061021008001001001KA1240N+02371MA1999999101381MD1999999+0081MW1031REMSYN088AAXX  23124 82900 21597 61406 10282 20233 30138 40147 70362 86200 333 20237 58008 60034;
0167829000999992001122318004-08040-034920FM-12+000799999V0201401N003110075019N0100001N1+02881+02331101271ADDAA199000091GF107991071021008001001001MA1999999101181MD1999999+0021REMSYN070AAXX  23184 82900 32597 71406 10288 20233 30118 40127 87200 333 58002;EQDQ01  00002PRCP99
0198829000999992001122400004-08040-034920FM-12+000799999V0201401N003110075019N0020001N1+02711+02321101411ADDAA199000091GF106991061021008001001001KA1240M+03071MA1999999101321MD1999999-0011REMSYN088AAXX  24004 82900 32595 61406 10271 20232 30132 40141 86200 333 10307 29077 55049 59001;EQDQ01  00002PRCP99
0186829000999992001122412004-08040-034920FM-12+000799999V0201401N004610075019N0100001N1+02841+02291101511ADDAA199000091GF106991061021008001001001KA1240N+02501MA1999999101421MD1999999+0041REMSYN076AAXX  24124 82900 32597 61409 10284 20229 30142 40151 86200 333 20250 58004;EQDQ01  00002PRCP99
0167829000999992001122418004-08040-034920FM-12+000799999V0201401N003110075019N0100001N1+02861+02371101281ADDAA199000091GF106991061021008001001001MA1999999101191MD1999999+0011REMSYN070AAXX  24184 82900 32597 61406 10286 20237 30119 40128 86200 333 58001;EQDQ01  00002PRCP99
0198829000999992001122500004-08040-034920FM-12+000799999V0201401N004610075019N0020001N1+02721+02321101471ADDAA199000091GF106991061021008001001001KA1240M+03041MA1999999101321MD1999999+0061REMSYN088AAXX  25004 82900 32595 61409 10272 20232 30132 40147 86200 333 10304 29076 55080 58006;EQDQ01  00002PRCP99
0201829000999992001122512004-08040-034920FM-12+000799999V0201801N003110450019N0100001N1+02691+02431101581ADDAA124002091AY161061AY221061GF106991041021008001031001KA1240N+02471MA1999999101491MD1999999+0071MW1021REMSYN088AAXX  25124 82900 21597 61806 10269 20243 30149 40158 70262 84230 333 20247 58007 60024;
0167829000999992001122518004-08040-034920FM-12+000799999V0201801N005110075019N0100001N1+02951+02351101151ADDAA199000091GF106991061021008001001001MA1999999101061MD1999999-0131REMSYN070AAXX  25184 82900 32597 61810 10295 20235 30106 40115 86200 333 59013;EQDQ01  00002PRCP99
0198829000999992001122600004-08040-034920FM-12+000799999V0201801N003112200019N0020001N1+02661+02311101391ADDAA199000091GF102991021011008001001001KA1240M+03021MA1999999101301MD1999999-0081REMSYN088AAXX  26004 82900 32595 21806 10266 20231 30130 40139 82100 333 10302 29079 55089 59008;EQDQ01  00002PRCP99
0201829000999992001122612004-08040-034920FM-12+000799999V0201401N003610450019N0100001N1+02741+02381101431ADDAA124003091AY161061AY221061GF105991031031008001031001KA1240N+02371MA1999999101341MD1999999-0061MW1021REMSYN088AAXX  26124 82900 21597 51407 10274 20238 30134 40143 70262 83330 333 20237 59006 60034;
0167829000999992001122618004-08040-034920FM-12+000799999V0201401N003110450019N0100001N1+02881+02371101071ADDAA199000091GF105991031021008001031001MA1999999100981MD1999999+0081REMSYN070AAXX  26184 82900 32597 51406 10288 20237 30098 40107 83230 333 58008;EQDQ01  00002PRCP99
0198829000999992001122700004-08040-034920FM-12+000799999V0201401N002110075019N0020001N1+02881+02371101321ADDAA199000091GF106991061021008001001001KA1240M+03021MA1999999101211MD1999999-0071REMSYN088AAXX  27004 82900 32595 61404 10288 20237 30121 40132 86200 333 10302 29081 55079 59007;EQDQ01  00002PRCP99
0201829000999992001122712004-08040-034920FM-12+000799999V0201401N004610075019N0100001N1+02821+02381101391ADDAA112004191AY161061AY221061GF106991051071008001021001KA1240N+02471MA1999999101301MD1999999-0041MW1011REMSYN088AAXX  27124 82900 21597 61409 10282 20238 30130 40139 70162 85720 333 20247 59004 60042;
0167829000999992001122718004-08040-034920FM-12+000799999V0201401N005710075019N0100001N1+02871+02371101151ADDAA199000091GF106991061021008001001001MA1999999101061MD1999999+0081REMSYN070AAXX  27184 82900 32597 61411 10287 20237 30106 40115 86200 333 58008;EQDQ01  00002PRCP99
0198829000999992001122800004-08040-034920FM-12+000799999V0201401N002612200019N0020001N1+02711+02391101371ADDAA199000091GF103991031011008001001001KA1240M+03001MA1999999101281MD1999999+0051REMSYN088AAXX  28004 82900 32595 31405 10271 20239 30128 40137 83100 333 10300 29079 55074 58005;EQDQ01  00002PRCP99
0201829000999992001122812004-08040-034920FM-12+000799999V0200901N004110075019N0100001N1+02891+02501101471ADDAA124023991AY161061AY221061GF107991061071008001021001KA1240N+02471MA1999999101381MD1999999+0081MW1011REMSYN088AAXX  28124 82900 21597 70908 10289 20250 30138 40147 70162 86720 333 20247 58008 60244;
0167829000999992001122818004-08040-034920FM-12+000799999V0201401N004110450019N0100001N1+02871+02441101291ADDAA199000091GF105991041041008001031001MA1999999101201MD1999999+0141REMSYN070AAXX  28184 82900 32597 51408 10287 20244 30120 40129 84430 333 58014;EQDQ01  00002PRCP99
0198829000999992001122900004-08040-034920FM-12+000799999V0201401N003110075019N0020001N1+02741+02431101401ADDAA199000091GF106991061021008001001001KA1240M+03041MA1999999101311MD1999999+0031REMSYN088AAXX  29004 82900 32595 61406 10274 20243 30131 40140 86200 333 10304 29081 55072 58003;EQDQ01  00002PRCP99
0201829000999992001122912004-08040-034920FM-12+000799999V0201401N005110075019N0100001N1+02861+02391101411ADDAA124001091AY161061AY221061GF107991071041008001001001KA1240N+02531MA1999999101321MD1999999-0061MW1031REMSYN088AAXX  29124 82900 21597 71410 10286 20239 30132 40141 70362 87400 333 20253 59006 60014;
0167829000999992001122918004-08040-034920FM-12+000799999V0201401N004610075019N0100001N1+02741+02381101141ADDAA199000091GF106991061021008001001001MA1999999101051MD1999999-0151REMSYN070AAXX  29184 82900 32597 61409 10274 20238 30105 40114 86200 333 59015;EQDQ01  00002PRCP99
0213829000999992001123000004-08040-034920FM-12+000799999V0200901N004610075019N0020001N1+02671+02411101371ADDAA106000191AY151061AY221061GF106991061021008001001001KA1240M+03001MA1999999101281MD1999999-0031MW1011REMSYN100AAXX  30004 82900 21595 60909 10267 20241 30128 40137 70152 86200 333 10300 29081 55054 59003 69921;
0173829000999992001123012004-08040-034920FM-12+000799999V0201401N004110075019N0100001N1+02861+02371101281ADDAA124000191GF107991071031008001001001KA1240N+02571MA1999999101191MD1999999-0131REMSYN082AAXX  30124 82900 22597 71408 10286 20237 30119 40128 87300 333 20257 59013 69924;
0167829000999992001123018004-08040-034920FM-12+000799999V0200901N003110075019N0100001N1+02871+02391100981ADDAA199000091GF107991071071008001001001MA1999999100891MD1999999-0161REMSYN070AAXX  30184 82900 32597 70906 10287 20239 30089 40098 87700 333 59016;EQDQ01  00002PRCP99
0214829000999992001123100004-08040-034920FM-12+000799999V0200901N003119999999N0020001N1+02721+02371101221ADDAA199000091GF107991999011008001001001KA1240M+02991MA1999999101131MD1999999-0151REMSYN088AAXX  31004 82900 32595 70906 10272 20237 30113 40122 82100 333 10299 29078 55037 59015;EQDQ01+000022SCOTLCQ02  00002PRCP99
0201829000999992001123112004-08040-034920FM-12+000799999V0200901N003110450019N0100001N1+02851+02331101331ADDAA124005191AY161061AY221061GF106991041021008001021001KA1240N+02471MA1999999101241MD1999999+0051MW1021REMSYN088AAXX  31124 82900 21597 60906 10285 20233 30124 40133 70262 84220 333 20247 58005 60054;
0167829000999992001123118004-08040-034920FM-12+000799999V0201401N003110075019N0100001N1+02811+02401100951ADDAA199000091GF107991071071008001001001MA1999999100861MD1999999-0031REMSYN070AAXX  31184 82900 32597 71406 10281 20240 30086 40095 87700 333 59003;EQDQ01  00002PRCP99
