0186829830999992001010100004-09370-040480FM-12+037099999V0203601N002612200019N0020001N1+02641+02001101201ADDAA199000091GF103991031021008001001001KA1240M+03241MA1999999097061MD1999999+0111REMSYN076AAXX  01004 82983 32595 33605 10264 20200 39706 40120 83200 333 10324 58011;EQDQ01  00002PRCP99
0186829830999992001010112004-09370-040480FM-12+037099999V0200501N003110075019N0020001N1+02641+02161101381ADDAA199000091GF106991061021008001001001KA1240N+02321MA1999999097241MD1999999-0011REMSYN076AAXX  01124 82983 32595 60506 10264 20216 39724 40138 86200 333 20232 59001;EQDQ01  00002PRCP99
0167829830999992001010118004-09370-040480FM-12+037099999V0200901N001510450019N0020001N1+03291+01891100931ADDAA199000091GF106991041021008001031001MA1999999096851MD1999999-0011REMSYN070AAXX  01184 82983 32595 60903 10329 20189 39685 40093 84230 333 59001;EQDQ01  00002PRCP99
0196829830999992001010200004-09370-040480FM-12+037099999V0200901N001512200019N0020001N1+02801+02081101021ADDAA199000091GA1001+999999999GF100991001001999999001001KA1240M+03341MA1999999096901MD1999999-0161REMSYN070AAXX  02004 82983 32995 00903 10280 20208 39690 40102 333 10334 59016;EQDQ01  00002PRCP99
0186829830999992001010212004-09370-040480FM-12+037099999V0200901N003112200019N0020001N1+02641+02091101411ADDAA199000091GF102991021011008001001001KA1240N+02291MA1999999097271MD1999999-0031REMSYN076AAXX  02124 82983 32595 20906 10264 20209 39727 40141 82100 333 20229 59003;EQDQ01  00002PRCP99
0167829830999992001010218004-09370-040480FM-12+037099999V0200901N003112200019N0020001N1+03301+01981101081ADDAA199000091GF102991021011008001001001MA1999999096981MD1999999+0131REMSYN070AAXX  02184 82983 32595 20906 10330 20198 39698 40108 82100 333 58013;EQDQ01  00002PRCP99
0186829830999992001010312004-09370-040480FM-12+037099999V0200901N004110075019N0020001N1+02421+01841101531ADDAA199000091GF105991051011008001001001KA1240N+02241MA1999999097381MD1999999+0111REMSYN076AAXX  03124 82983 32595 50908 10242 20184 39738 40153 85100 333 20224 58011;EQDQ01  00002PRCP99
0167829830999992001010318004-09370-040480FM-12+037099999V0200901N003110075019N0020001N1+03281+01861101021ADDAA199000091GF105991051011008001001001MA1999999096931MD1999999-0051REMSYN070AAXX  03184 82983 32595 50906 10328 20186 39693 40102 85100 333 59005;EQDQ01  00002PRCP99
0196829830999992001010400004-09370-040480FM-12+037099999V0200901N002612200019N0020001N1+02841+01671101121ADDAA199000091GA1001+999999999GF100991001001999999001001KA1240M+03341MA1999999096981MD1999999-0061REMSYN070AAXX  04004 82983 32995 00905 10284 20167 39698 40112 333 10334 59006;EQDQ01  00002PRCP99
0186829830999992001010412004-09370-040480FM-12+037099999V0200901N003110075019N0020001N1+02571+02021101481ADDAA199000091GF108991081051008001001001KA1240N+02341MA1999999097341MD1999999-0041REMSYN076AAXX  04124 82983 32595 80906 10257 20202 39734 40148 88500 333 20234 59004;EQDQ01  00002PRCP99
0167829830999992001010418004-09370-040480FM-12+037099999V0200901N004110075019N0020001N1+03081+02071101051ADDAA199000091GF106991061021008001001001MA1999999096941MD1999999+0011REMSYN070AAXX  04184 82983 32595 60908 10308 20207 39694 40105 86200 333 58001;EQDQ01  00002PRCP99
0201829830999992001010500004-09370-040480FM-12+037099999V0200901N003110075019N0020001N1+02281+02001101451ADDAA106004191AY161061AY261061GF108991081051008001999999KA1240M+03121MA1999999097271MD1999999+0291MW1031REMSYN088AAXX  05004 82983 21595 80906 10228 20200 39727 40145 70366 885// 333 10312 58029 60041;
0167829830999992001010518004-09370-040480FM-12+037099999V0200901N003110450019N0020001N1+03001+01911101181ADDAA199000091GF107991041021008001031001MA1999999097041MD1999999+0101REMSYN070AAXX  05184 82983 32595 70906 10300 20191 39704 40118 84230 333 58010;EQDQ01  00002PRCP99
0186829830999992001010600004-09370-040480FM-12+037099999V0200901N002610075019N0020001N1+02641+02031101211ADDAA199000091GF106991061021008001001001KA1240M+03081MA1999999097061MD1999999-0191REMSYN076AAXX  06004 82983 32595 60905 10264 20203 39706 40121 86200 333 10308 59019;EQDQ01  00002PRCP99
0186829830999992001010612004-09370-040480FM-12+037099999V0200901N004110075019N0020001N1+02401+01821101481ADDAA199000091GF108991081051008001999999KA1240N+02191MA1999999097321MD1999999+0001REMSYN076AAXX  06124 82983 32595 80908 10240 20182 39732 40148 885// 333 20219 58000;EQDQ01  00002PRCP99
0183829830999992001010618004-09370-040480FM-12+037099999V0200901N003119999999N0020001N1+02961+01931101171ADDAA199000091GF107991999021008001001001MA1999999097031MD1999999-0011REMSYN070AAXX  06184 82983 32595 70906 10296 20193 39703 40117 84200 333 59001;EQDQ01+000042SCOTLCQ02  00002PRCP99
0186829830999992001010700004-09370-040480FM-12+037099999V0201401N001512200019N0020001N1+02561+02021101131ADDAA199000091GF103991031011008001001001KA1240M+03001MA1999999097001MD1999999-0061REMSYN076AAXX  07004 82983 32595 31403 10256 20202 39700 40113 83100 333 10300 59006;EQDQ01  00002PRCP99
0186829830999992001010712004-09370-040480FM-12+037099999V0200901N003110075019N0020001N1+02461+01941101381ADDAA199000091GF107991071011008001001001KA1240N+02241MA1999999097221MD1999999-0101REMSYN076AAXX  07124 82983 32595 70906 10246 20194 39722 40138 87100 333 20224 59010;EQDQ01  00002PRCP99
0167829830999992001010718004-09370-040480FM-12+037099999V0200901N003112200019N0020001N1+03141+01911101051ADDAA199000091GF104991041011008001001001MA1999999096931MD1999999-0101REMSYN070AAXX  07184 82983 32595 40906 10314 20191 39693 40105 84100 333 59010;EQDQ01  00002PRCP99
0186829830999992001010800004-09370-040480FM-12+037099999V0200901N003112200019N0020001N1+02801+01781101091ADDAA199000091GF104991041021008001001001KA1240M+03241MA1999999096951MD1999999-0051REMSYN076AAXX  08004 82983 32595 40906 10280 20178 39695 40109 84200 333 10324 59005;EQDQ01  00002PRCP99
0186829830999992001010812004-09370-040480FM-12+037099999V0200901N004110075019N0020001N1+02521+01091101401ADDAA199000091GF105991051011008001001001KA1240N+02181MA1999999097061MD1999999+0041REMSYN076AAXX  08124 82983 32595 50908 10252 20109 39706 40140 85100 333 20218 58004;EQDQ01  00002PRCP99
0167829830999992001010818004-09370-040480FM-12+037099999V0200901N004112200019N0020001N1+03161+00951101791ADDAA199000091GF104991011011008001001011MA1999999096851MD1999999-0081REMSYN070AAXX  08184 82983 32595 40908 10316 20095 39685 40179 81101 333 59008;EQDQ01  00002PRCP99
0186829830999992001010912004-09370-040480FM-12+037099999V0200901N003110075019N0020001N1+02381+01871101441ADDAA199000091GF108991081051008001999999KA1240N+02201MA1999999097281MD1999999+0021REMSYN076AAXX  09124 82983 32595 80906 10238 20187 39728 40144 885// 333 20220 58002;EQDQ01  00002PRCP99
0167829830999992001010918004-09370-040480FM-12+037099999V0200901N002610450019N0020001N1+03121+01891100961ADDAA199000091GF106991011011008001011021MA1999999096841MD1999999-0011REMSYN070AAXX  09184 82983 32595 60905 10312 20189 39684 40096 81112 333 59001;EQDQ01  00002PRCP99
0186829830999992001011000004-09370-040480FM-12+037099999V0200901N001512200019N0020001N1+02821+01801100961ADDAA199000091GF104991041051008001001001KA1240M+03241MA1999999096831MD1999999+0001REMSYN076AAXX  10004 82983 32595 40903 10282 20180 39683 40096 84500 333 10324 58000;EQDQ01  00002PRCP99
0186829830999992001011012004-09370-040480FM-12+037099999V0200901N003110075019N0020001N1+02481+01901101431ADDAA199000091GF107991071011008001001001KA1240N+02261MA1999999097291MD1999999+0011REMSYN076AAXX  10124 82983 32595 70906 10248 20190 39729 40143 87100 333 20226 58001;EQDQ01  00002PRCP99
0167829830999992001011018004-09370-040480FM-12+037099999V0200901N003112200019N0020001N1+03161+01821100981ADDAA199000091GF102991021011008001001001MA1999999096871MD1999999+0031REMSYN070AAXX  10184 82983 32595 20906 10316 20182 39687 40098 82100 333 58003;EQDQ01  00002PRCP99
0186829830999992001011100004-09370-040480FM-12+037099999V0201401N002612200019N0020001N1+02841+01701101061ADDAA199000091GF104991021011008001011001KA1240M+03221MA1999999096931MD1999999+0101REMSYN076AAXX  11004 82983 32595 41405 10284 20170 39693 40106 82110 333 10322 58010;EQDQ01  00002PRCP99
0186829830999992001011112004-09370-040480FM-12+037099999V0200901N004110075019N0020001N1+02401+01801101531ADDAA199000091GF106991061011008001001001KA1240N+02201MA1999999097371MD1999999+0081REMSYN076AAXX  11124 82983 32595 60908 10240 20180 39737 40153 86100 333 20220 58008;EQDQ01  00002PRCP99
0167829830999992001011118004-09370-040480FM-12+037099999V0200901N003110450019N0020001N1+03221+01771101121ADDAA199000091GF106991031011008001011011MA1999999097001MD1999999+0131REMSYN070AAXX  11184 82983 32595 60906 10322 20177 39700 40112 83111 333 58013;EQDQ01  00002PRCP99
0186829830999992001011200004-09370-040480FM-12+037099999V0200901N002610450019N0020001N1+02861+01721101131ADDAA199000091GF105991011011008001011001KA1240M+03281MA1999999096991MD1999999+0061REMSYN076AAXX  12004 82983 32595 50905 10286 20172 39699 40113 81110 333 10328 58006;EQDQ01  00002PRCP99
0186829830999992001011212004-09370-040480FM-12+037099999V0200901N003110075019N0020001N1+02501+01981101451ADDAA199000091GF108991081051008001999999KA1240N+02321MA1999999097311MD1999999-0061REMSYN076AAXX  12124 82983 32595 80906 10250 20198 39731 40145 885// 333 20232 59006;EQDQ01  00002PRCP99
0201829830999992001011300004-09370-040480FM-12+037099999V0201401N002610075019N0020001N1+02221+01921101351ADDAA106002091AY151061AY261061GF106991061021008001001001KA1240M+03201MA1999999097161MD1999999+0171MW1011REMSYN088AAXX  13004 82983 21595 61405 10222 20192 39716 40135 70156 86200 333 10320 58017 60021;
0173829830999992001011312004-09370-040480FM-12+037099999V0200901N003110075019N0020001N1+02301+02011101511ADDAA124002091GF108991081051008001999999KA1240N+02201MA1999999097311MD1999999+0001REMSYN082AAXX  13124 82983 22595 80906 10230 20201 39731 40151 885// 333 20220 58000 60024;
0167829830999992001011318004-09370-040480FM-12+037099999V0200901N004110075019N0020001N1+02891+01731101241ADDAA199000091GF108991081051008001999999MA1999999097091MD1999999+0221REMSYN070AAXX  13184 82983 32595 80908 10289 20173 39709 40124 885// 333 58022;EQDQ01  00002PRCP99
0186829830999992001011400004-09370-040480FM-12+037099999V0200901N005110075019N0020001N1+02501+01841101411ADDAA199000091GF105991051021008001001001KA1240M+02901MA1999999097231MD1999999+0071REMSYN076AAXX  14004 82983 32595 50910 10250 20184 39723 40141 85200 333 10290 58007;EQDQ01  00002PRCP99
0186829830999992001011412004-09370-040480FM-12+037099999V0200901N004110075019N0020001N1+02461+01881101581ADDAA199000091GF107991071021008001001001KA1240N+02251MA1999999097411MD1999999+0101REMSYN076AAXX  14124 82983 32595 70908 10246 20188 39741 40158 87200 333 20225 58010;EQDQ01  00002PRCP99
0167829830999992001011418004-09370-040480FM-12+037099999V0200901N005110450019N0020001N1+03081+01601101241ADDAA199000091GF106991031011008001031011MA1999999097101MD1999999+0011REMSYN070AAXX  14184 82983 32595 60910 10308 20160 39710 40124 83131 333 58001;EQDQ01  00002PRCP99
0196829830999992001011500004-09370-040480FM-12+037099999V0200901N004112200019N0020001N1+02801+01631101221ADDAA199000091GA1001+999999999GF100991001001999999001001KA1240M+03101MA1999999097081MD1999999-0151REMSYN070AAXX  15004 82983 32995 00908 10280 20163 39708 40122 333 10310 59015;EQDQ01  00002PRCP99
0186829830999992001011512004-09370-040480FM-12+037099999V0200901N004110075019N0020001N1+02621+01981101431ADDAA199000091GF105991051011008001001001KA1240N+02241MA1999999097291MD1999999-0121REMSYN076AAXX  15124 82983 32595 50908 10262 20198 39729 40143 85100 333 20224 59012;EQDQ01  00002PRCP99
0167829830999992001011518004-09370-040480FM-12+037099999V0200901N005110075019N0020001N1+03201+01591101101ADDAA199000091GF106991061021008001001001MA1999999096981MD1999999-0121REMSYN070AAXX  15184 82983 32595 60910 10320 20159 39698 40110 86200 333 59012;EQDQ01  00002PRCP99
0186829830999992001011600004-09370-040480FM-12+037099999V0200501N005112200019N0020001N1+02761+01751101301ADDAA199000091GF104991041011008001001001KA1240M+03301MA1999999097161MD1999999+0081REMSYN076AAXX  16004 82983 32595 40510 10276 20175 39716 40130 84100 333 10330 58008;EQDQ01  00002PRCP99
0186829830999992001011612004-09370-040480FM-12+037099999V0201401N004110075019N0020001N1+02561+01881101471ADDAA199000091GF106991061021008001001001KA1240N+02361MA1999999097331MD1999999+0041REMSYN076AAXX  16124 82983 32595 61408 10256 20188 39733 40147 86200 333 20236 58004;EQDQ01  00002PRCP99
0167829830999992001011618004-09370-040480FM-12+037099999V0200901N003112200019N0020001N1+03241+01781101101ADDAA199000091GF104991041011008001001001MA1999999096981MD1999999+0001REMSYN070AAXX  16184 82983 32595 40906 10324 20178 39698 40110 84100 333 58000;EQDQ01  00002PRCP99
0186829830999992001011700004-09370-040480FM-12+037099999V0200901N003112200019N0020001N1+02941+01791101101ADDAA199000091GF104991041021008001001001KA1240M+03261MA1999999096981MD1999999-0181REMSYN076AAXX  17004 82983 32595 40906 10294 20179 39698 40110 84200 333 10326 59018;EQDQ01  00002PRCP99
0186829830999992001011712004-09370-040480FM-12+037099999V0200901N003110075019N0020001N1+02521+01861101401ADDAA199000091GF105991051011008001001001KA1240N+02241MA1999999097281MD1999999-0051REMSYN076AAXX  17124 82983 32595 50906 10252 20186 39728 40140 85100 333 20224 59005;EQDQ01  00002PRCP99
0167829830999992001011718004-09370-040480FM-12+037099999V0200901N003112200019N0020001N1+03261+01801100991ADDAA199000091GF103991031011008001001001MA1999999096901MD1999999-0081REMSYN070AAXX  17184 82983 32595 30906 10326 20180 39690 40099 83100 333 59008;EQDQ01  00002PRCP99
0196829830999992001011800004-09370-040480FM-12+037099999V0200901N002612200019N0020001N1+02901+01651101231ADDAA199000091GA1001+999999999GF100991001001999999001001KA1240M+03341MA1999999097041MD1999999+0061REMSYN070AAXX  18004 82983 32995 00905 10290 20165 39704 40123 333 10334 58006;EQDQ01  00002PRCP99
0186829830999992001011812004-09370-040480FM-12+037099999V0201401N004112200019N0020001N1+02561+01851101421ADDAA199000091GF105991041011008001001011KA1240N+02241MA1999999097301MD1999999+0021REMSYN076AAXX  18124 82983 32595 51408 10256 20185 39730 40142 84101 333 20224 58002;EQDQ01  00002PRCP99
0167829830999992001011818004-09370-040480FM-12+037099999V0200901N003110450019N0020001N1+03281+01781101031ADDAA199000091GF108991041011008001021999MA1999999096941MD1999999+0041REMSYN070AAXX  18184 82983 32595 80906 10328 20178 39694 40103 8412/ 333 58004;EQDQ01  00002PRCP99
0196829830999992001011900004-09370-040480FM-12+037099999V0200901N004112200019N0020001N1+02861+01871101201ADDAA199000091GA1001+999999999GF100991001001999999001001KA1240M+03341MA1999999097041MD1999999+0031REMSYN070AAXX  19004 82983 32995 00908 10286 20187 39704 40120 333 10334 58003;EQDQ01  00002PRCP99
0186829830999992001011912004-09370-040480FM-12+037099999V0200901N004110075019N0020001N1+02541+01951101571ADDAA199000091GF108991081051008001999999KA1240N+02361MA1999999097431MD1999999+0131REMSYN076AAXX  19124 82983 32595 80908 10254 20195 39743 40157 885// 333 20236 58013;EQDQ01  00002PRCP99
0167829830999992001011918004-09370-040480FM-12+037099999V0200901N004110450019N0020001N1+03141+01801101201ADDAA199000091GF106991021011008001011011MA1999999097081MD1999999+0141REMSYN070AAXX  19184 82983 32595 60908 10314 20180 39708 40120 82111 333 58014;EQDQ01  00002PRCP99
0186829830999992001012000004-09370-040480FM-12+037099999V0200901N002612200019N0020001N1+02781+01851101281ADDAA199000091GF102991021011008001001001KA1240M+03241MA1999999097141MD1999999+0071REMSYN076AAXX  20004 82983 32595 20905 10278 20185 39714 40128 82100 333 10324 58007;EQDQ01  00002PRCP99
0196829830999992001012012004-09370-040480FM-12+037099999V0200901N004112200019N0020001N1+02561+01971101631ADDAA199000091GA1001+999999999GF100991001001999999001001KA1240N+02221MA1999999097481MD1999999+0051REMSYN070AAXX  20124 82983 32995 00908 10256 20197 39748 40163 333 20222 58005;EQDQ01  00002PRCP99
0167829830999992001012018004-09370-040480FM-12+037099999V0200901N002612200019N0020001N1+03261+01761101171ADDAA199000091GF102991021011008001001001MA1999999097041MD1999999-0011REMSYN070AAXX  20184 82983 32595 20905 10326 20176 39704 40117 82100 333 59001;EQDQ01  00002PRCP99
0196829830999992001012100004-09370-040480FM-12+037099999V0200901N001512200019N0020001N1+02901+01651101171ADDAA199000091GA1001+999999999GF100991001001999999001001KA1240M+03321MA1999999097051MD1999999-0091REMSYN070AAXX  21004 82983 32995 00903 10290 20165 39705 40117 333 10332 59009;EQDQ01  00002PRCP99
0186829830999992001012112004-09370-040480FM-12+037099999V0200901N003111050019N0020001N1+02741+01811101411ADDAA199000091GF105991021011008001011011KA1240N+02401MA1999999097301MD1999999-0181REMSYN076AAXX  21124 82983 32595 50906 10274 20181 39730 40141 82111 333 20240 59018;EQDQ01  00002PRCP99
0167829830999992001012118004-09370-040480FM-12+037099999V0200501N001512200019N0020001N1+03341+01831101001ADDAA199000091GF106991031011008001001011MA1999999096911MD1999999-0161REMSYN070AAXX  21184 82983 32595 60503 10334 20183 39691 40100 83101 333 59016;EQDQ01  00002PRCP99
0196829830999992001012200004-09370-040480FM-12+037099999V0209999C000012200019N0020001N1+02861+01901101101ADDAA199000091GA1001+999999999GF100991001001999999001001KA1240M+03481MA1999999097001MD1999999-0051REMSYN070AAXX  22004 82983 32995 00000 10286 20190 39700 40110 333 10348 59005;EQDQ01  00002PRCP99
0186829830999992001012212004-09370-040480FM-12+037099999V0200501N003112200019N0020001N1+02721+01931101501ADDAA199000091GF102991011011008001001011KA1240N+02461MA1999999097381MD1999999+0081REMSYN076AAXX  22124 82983 32595 20506 10272 20193 39738 40150 81101 333 20246 58008;EQDQ01  00002PRCP99
0167829830999992001012218004-09370-040480FM-12+037099999V0200501N003112200019N0020001N1+03361+01851100941ADDAA199000091GF103991031011008001001001MA1999999096861MD1999999-0051REMSYN070AAXX  22184 82983 32595 30506 10336 20185 39686 40094 83100 333 59005;EQDQ01  00002PRCP99
0201829830999992001012300004-09370-040480FM-12+037099999V0201801N003110075019N0020001N1+02441+02151101151ADDAA106003091AY151061AY261061GF105991051021008001001001KA1240M+03521MA1999999097011MD1999999+0011MW1011REMSYN088AAXX  23004 82983 21595 51806 10244 20215 39701 40115 70156 85200 333 10352 58001 60031;
0173829830999992001012312004-09370-040480FM-12+037099999V0200901N003110075019N0020001N1+02541+01881101551ADDAA124003091GF105991051011008001001001KA1240N+02321MA1999999097381MD1999999+0001REMSYN082AAXX  23124 82983 22595 50906 10254 20188 39738 40155 85100 333 20232 58000 60034;
0167829830999992001012318004-09370-040480FM-12+037099999V0200901N002612200019N0020001N1+03341+01751101111ADDAA199000091GF104991041011008001001001MA1999999097011MD1999999+0151REMSYN070AAXX  23184 82983 32595 40905 10334 20175 39701 40111 84100 333 58015;EQDQ01  00002PRCP99
0196829830999992001012400004-09370-040480FM-12+037099999V0200901N002612200019N0020001N1+02941+01821101101ADDAA199000091GA1001+999999999GF100991001001999999001001KA1240M+03441MA1999999096981MD1999999-0081REMSYN070AAXX  24004 82983 32995 00905 10294 20182 39698 40110 333 10344 59008;EQDQ01  00002PRCP99
0186829830999992001012412004-09370-040480FM-12+037099999V0200901N003112200019N0020001N1+02601+01921101521ADDAA199000091GF102991021011008001001001KA1240N+02301MA1999999097391MD1999999+0011REMSYN076AAXX  24124 82983 32595 20906 10260 20192 39739 40152 82100 333 20230 58001;EQDQ01  00002PRCP99
0167829830999992001012418004-09370-040480FM-12+037099999V0200901N003112200019N0020001N1+03341+01911101141ADDAA199000091GF104991041011008001001001MA1999999097041MD1999999+0031REMSYN070AAXX  24184 82983 32595 40906 10334 20191 39704 40114 84100 333 58003;EQDQ01  00002PRCP99
0196829830999992001012500004-09370-040480FM-12+037099999V0200901N002612200019N0020001N1+02961+01611101101ADDAA199000091GA1001+999999999GF100991001001999999001001KA1240M+03441MA1999999097001MD1999999+0021REMSYN070AAXX  25004 82983 32995 00905 10296 20161 39700 40110 333 10344 58002;EQDQ01  00002PRCP99
0186829830999992001012512004-09370-040480FM-12+037099999V0200901N003112200019N0020001N1+02501+01871101531ADDAA199000091GF105991031011008001001011KA1240N+02261MA1999999097401MD1999999+0011REMSYN076AAXX  25124 82983 32595 50906 10250 20187 39740 40153 83101 333 20226 58001;EQDQ01  00002PRCP99
0196829830999992001012600004-09370-040480FM-12+037099999V0200901N002612200019N0020001N1+02861+01551101161ADDAA199000091GA1001+999999999GF100991001001999999001001KA1240M+03341MA1999999097031MD1999999+0031REMSYN070AAXX  26004 82983 32995 00905 10286 20155 39703 40116 333 10334 58003;EQDQ01  00002PRCP99
0186829830999992001012612004-09370-040480FM-12+037099999V0200901N003112200019N0020001N1+02561+01881101531ADDAA199000091GF102991021011008001001001KA1240N+02281MA1999999097391MD1999999-0011REMSYN076AAXX  26124 82983 32595 20906 10256 20188 39739 40153 82100 333 20228 59001;EQDQ01  00002PRCP99
0196829830999992001012700004-09370-040480FM-12+037099999V0200901N001512200019N0020001N1+02921+01711101041ADDAA199000091GA1001+999999999GF100991001001999999001001KA1240M+03361MA1999999096931MD1999999-0101REMSYN070AAXX  27004 82983 32995 00903 10292 20171 39693 40104 333 10336 59010;EQDQ01  00002PRCP99
0186829830999992001012712004-09370-040480FM-12+037099999V0200901N003112200019N0020001N1+02601+01891101431ADDAA199000091GF104991041011008001001001KA1240N+02341MA1999999097311MD1999999-0081REMSYN076AAXX  27124 82983 32595 40906 10260 20189 39731 40143 84100 333 20234 59008;EQDQ01  00002PRCP99
0196829830999992001012800004-09370-040480FM-12+037099999V0209999C000012200019N0020001N1+03001+01711101011ADDAA199000091GA1001+999999999GF100991001001999999001001KA1240M+03341MA1999999096921MD1999999-0011REMSYN070AAXX  28004 82983 32995 00000 10300 20171 39692 40101 333 10334 59001;EQDQ01  00002PRCP99
0202829830999992001012812004-09370-040480FM-12+037099999V0200901N003119999999N0020001N1+02741+01971101361ADDAA199000091GF105991999021008001001001KA1240N+02401MA1999999097241MD1999999-0061REMSYN076AAXX  28124 82983 32595 50906 10274 20197 39724 40136 83200 333 20240 59006;EQDQ01+000032SCOTLCQ02  00002PRCP99
0196829830999992001012900004-09370-040480FM-12+037099999V0200501N002612200019N0020001N1+02921+01801100981ADDAA199000091GA1001+999999999GF100991001001999999001001KA1240M+03501MA1999999096891MD1999999-0031REMSYN070AAXX  29004 82983 32995 00505 10292 20180 39689 40098 333 10350 59003;EQDQ01  00002PRCP99
0186829830999992001012912004-09370-040480FM-12+037099999V0200901N003112200019N0020001N1+02761+01991101291ADDAA199000091GF104991021011008001021001KA1240N+02481MA1999999097181MD1999999-0071REMSYN076AAXX  29124 82983 32595 40906 10276 20199 39718 40129 82120 333 20248 59007;EQDQ01  00002PRCP99
0186829830999992001013000004-09370-040480FM-12+037099999V0200501N002612200019N0020001N1+03061+01581100741ADDAA199000091GF104991041011008001001001KA1240M+03481MA1999999096661MD1999999-0231REMSYN076AAXX  30004 82983 32595 40505 10306 20158 39666 40074 84100 333 10348 59023;EQDQ01  00002PRCP99
0196829830999992001013012004-09370-040480FM-12+037099999V0200901N003112200019N0020001N1+02741+01871101181ADDAA199000091GA1001+999999999GF100991001001999999001001KA1240N+02401MA1999999097081MD1999999-0011REMSYN070AAXX  30124 82983 32995 00906 10274 20187 39708 40118 333 20240 59001;EQDQ01  00002PRCP99
0186829830999992001013100004-09370-040480FM-12+037099999V0203601N002610075019N0020001N1+02701+01991100771ADDAA199000091GF105991051021008001001001KA1240M+03501MA1999999096661MD1999999+0001REMSYN076AAXX  31004 82983 32595 53605 10270 20199 39666 40077 85200 333 10350 58000;EQDQ01  00002PRCP99
0186829830999992001013112004-09370-040480FM-12+037099999V0200901N003112200019N0020001N1+02581+01901101281ADDAA199000091GF103991021011008001021001KA1240N+02361MA1999999097141MD1999999+0061REMSYN076AAXX  31124 82983 32595 30906 10258 20190 39714 40128 82120 333 20236 58006;EQDQ01  00002PRCP99
0196829830999992001020100004-09370-040480FM-12+037099999V0200901N002612200019N0020001N1+02981+01441100841ADDAA199000091GA1001+999999999GF100991001001999999001001KA1240M+03461MA1999999096751MD1999999+0091REMSYN070AAXX  01004 82983 32995 00905 10298 20144 39675 40084 333 10346 58009;EQDQ01  00002PRCP99
0186829830999992001020112004-09370-040480FM-12+037099999V0200901N003111050019N0020001N1+02641+01931101261ADDAA199000091GF105991021011008001011011KA1240N+02301MA1999999097151MD1999999+0011REMSYN076AAXX  01124 82983 32595 50906 10264 20193 39715 40126 82111 333 20230 58001;EQDQ01  00002PRCP99
0186829830999992001020200004-09370-040480FM-12+037099999V0209999C000012200019N0020001N1+02961+01681100641ADDAA199000091GF102991021041008001001001KA1240M+03541MA1999999096561MD1999999-0191REMSYN076AAXX  02004 82983 32595 20000 10296 20168 39656 40064 82400 333 10354 59019;EQDQ01  00002PRCP99
0186829830999992001020212004-09370-040480FM-12+037099999V0200901N003110075019N0020001N1+02661+02001101191ADDAA199000091GF108991081021008001999999KA1240N+02541MA1999999097091MD1999999+0071REMSYN076AAXX  02124 82983 32595 80906 10266 20200 39709 40119 882// 333 20254 58007;EQDQ01  00002PRCP99
0186829830999992001020300004-09370-040480FM-12+037099999V0203201N001512200019N0020001N1+02801+02001100861ADDAA199000091GF102991021011008001001001KA1240M+03141MA1999999096701MD1999999+0141REMSYN076AAXX  03004 82983 32595 23203 10280 20200 39670 40086 82100 333 10314 58014;EQDQ01  00002PRCP99
0201829830999992001020312004-09370-040480FM-12+037099999V0202301N002610075019N0020001N1+02341+02001101251ADDAA124007991AY161061AY251061GF106991061021008001021001KA1240N+02261MA1999999097111MD1999999+0021MW1011REMSYN088AAXX  03124 82983 21595 62305 10234 20200 39711 40125 70165 86220 333 20226 58002 60084;
0186829830999992001020400004-09370-040480FM-12+037099999V0209999C000010075019N0020001N1+02721+02241100961ADDAA199000091GF106991061061008001001001KA1240M+02981MA1999999096821MD1999999+0121REMSYN076AAXX  04004 82983 32595 60000 10272 20224 39682 40096 86600 333 10298 58012;EQDQ01  00002PRCP99
0163829830999992001020412004-09370-040480FM-12+037099999V0200901N003119999999N0020001N1+02201+99999999999ADDAA199000091GF107991999999008001999999KA1240N+99999MD1999999+0161REMSYN052AAXX  04124 82983 32595 70906 10220 333 20230 58016;EQDQ01  00002PRCP99Q02 +02302ATMN  
0186829830999992001020500004-09370-040480FM-12+037099999V0200901N003110075019N0020001N1+02681+02131101271ADDAA199000091GF108991061021008001021001KA1240M+03081MA1999999096881MD1999999+0061REMSYN076AAXX  05004 82983 32595 80906 10268 20213 39688 40127 86220 333 10308 58006;EQDQ01  00002PRCP99
0201829830999992001020512004-09370-040480FM-12+037099999V0200901N003110450019N0020001N1+02641+02161101311ADDAA124007191AY161061AY251061GF106991031011008001021001KA1240N+02301MA1999999097171MD1999999-0031MW1011REMSYN088AAXX  05124 82983 21595 60906 10264 20216 39717 40131 70165 83120 333 20230 59003 60074;
0186829830999992001020600004-09370-040480FM-12+037099999V0200901N001510075019N0020001N1+02661+01971101071ADDAA199000091GF106991061021008001021001KA1240M+03361MA1999999096941MD1999999+0061REMSYN076AAXX  06004 82983 32595 60903 10266 20197 39694 40107 86220 333 10336 58006;EQDQ01  00002PRCP99
0195829830999992001020612004-09370-040480FM-12+037099999V0200501N002612200019N0020001N1+02701+02151101321ADDAA124000391AY191061AY251061GF104991999999008001999999KA1240N+02381MA1999999097181MD1999999+0011MW1031REMSYN082AAXX  06124 82983 21595 40505 10270 20215 39718 40132 70395 333 20238 58001 69934;
0201829830999992001020700004-09370-040480FM-12+037099999V0200901N004110075019N0020001N1+02521+02071101031ADDAA106009991AY161061AY261061GF108991081051008001999999KA1240M+03481MA1999999096901MD1999999-0041MW1651REMSYN088AAXX  07004 82983 21595 80908 10252 20207 39690 40103 76566 885// 333 10348 59004 60101;
0201829830999992001020712004-09370-040480FM-12+037099999V0200501N002612200019N0020001N1+02721+02221101221ADDAA124035191AY161061AY291061GF102991021011008001001001KA1240N+02261MA1999999097081MD1999999-0101MW1011REMSYN088AAXX  07124 82983 21595 20505 10272 20222 39708 40122 70169 82100 333 20226 59010 60354;
0186829830999992001020800004-09370-040480FM-12+037099999V0203201N001510075019N0020001N1+02801+02031100861ADDAA199000091GF105991051011008001001001KA1240M+03501MA1999999096761MD1999999-0141REMSYN076AAXX  08004 82983 32595 53203 10280 20203 39676 40086 85100 333 10350 59014;EQDQ01  00002PRCP99
0186829830999992001020812004-09370-040480FM-12+037099999V0200501N003110075019N0020001N1+02741+02071101221ADDAA199000091GF105991051011008001001001KA1240N+02461MA1999999097121MD1999999+0041REMSYN076AAXX  08124 82983 32595 50506 10274 20207 39712 40122 85100 333 20246 58004;EQDQ01  00002PRCP99
0186829830999992001020900004-09370-040480FM-12+037099999V0209999C000010075019N0020001N1+02901+02201100771ADDAA199000091GF105991051011008001001001KA1240M+03421MA1999999096691MD1999999-0081REMSYN076AAXX  09004 82983 32595 50000 10290 20220 39669 40077 85100 333 10342 59008;EQDQ01  00002PRCP99
0186829830999992001020912004-09370-040480FM-12+037099999V0200901N004110075019N0020001N1+02461+01901101291ADDAA199000091GF107991071021008001001001KA1240N+02311MA1999999097171MD1999999+0031REMSYN076AAXX  09124 82983 32595 70908 10246 20190 39717 40129 87200 333 20231 58003;EQDQ01  00002PRCP99
0147829830999992001020918004-09370-040480FM-12+037099999V0200501N002612200019N0020001N1+03341+01541100781ADDAA199000091GF102991021011008001001001MA1999999096701REMSYN064AAXX  09184 82983 32595 20505 10334 20154 39670 40078 82100 333;EQDQ01  00002PRCP99
0186829830999992001021000004-09370-040480FM-12+037099999V0200501N001512200019N0020001N1+03101+01621100731ADDAA199000091GF104991041021008001001001KA1240M+03401MA1999999096651MD1999999-0041REMSYN076AAXX  10004 82983 32595 40503 10310 20162 39665 40073 84200 333 10340 59004;EQDQ01  00002PRCP99
0196829830999992001021012004-09370-040480FM-12+037099999V0201401N004112200019N0020001N1+02581+01851101171ADDAA199000091GA1001+999999999GF100991001001999999001001KA1240N+02291MA1999999097071MD1999999+0081REMSYN070AAXX  10124 82983 32995 01408 10258 20185 39707 40117 333 20229 58008;EQDQ01  00002PRCP99
0183829830999992001021018004-09370-040480FM-12+037099999V0200901N004112200019N0020001N1+03471+01641100731ADDAA199000091GF104991999011008001001001MA1999999096661MD1999999-0041REMSYN070AAXX  10184 82983 32595 40908 10347 20164 39666 40073 82100 333 59004;EQDQ01+000022SCOTLCQ02  00002PRCP99
0196829830999992001021100004-09370-040480FM-12+037099999V0200901N002612200019N0020001N1+03081+01481100791ADDAA199000091GA1001+999999999GF100991001001999999001001KA1240M+03521MA1999999096701MD1999999+0051REMSYN070AAXX  11004 82983 32995 00905 10308 20148 39670 40079 333 10352 58005;EQDQ01  00002PRCP99
0186829830999992001021112004-09370-040480FM-12+037099999V0200901N003110075019N0020001N1+02581+01901101341ADDAA199000091GF105991051011008001001001KA1240N+02261MA1999999097231MD1999999+0161REMSYN076AAXX  11124 82983 32595 50906 10258 20190 39723 40134 85100 333 20226 58016;EQDQ01  00002PRCP99
0183829830999992001021118004-09370-040480FM-12+037099999V0200501N003112200019N0020001N1+03421+01651100811ADDAA199000091GF104991999011008001001001MA1999999096731MD1999999+0071REMSYN070AAXX  11184 82983 32595 40506 10342 20165 39673 40081 85100 333 58007;EQDQ01+000052SCOTLCQ02  00002PRCP99
0196829830999992001021200004-09370-040480FM-12+037099999V0200901N003112200019N0020001N1+03001+01371100861ADDAA199000091GA1001+999999999GF100991001001999999001001KA1240M+03001MA1999999096771MD1999999+0071REMSYN070AAXX  12004 82983 32995 00906 10300 20137 39677 40086 333 10300 58007;EQDQ01  00002PRCP99
0186829830999992001021212004-09370-040480FM-12+037099999V0200901N003110075019N0020001N1+02641+02031101371ADDAA199000091GF106991061021008001001001KA1240N+02291MA1999999097261MD1999999+0031REMSYN076AAXX  12124 82983 32595 60906 10264 20203 39726 40137 86200 333 20229 58003;EQDQ01  00002PRCP99
0167829830999992001021218004-09370-040480FM-12+037099999V0200901N002610450019N0020001N1+03361+01811101001ADDAA199000091GF106991041021008001031001MA1999999096911MD1999999+0181REMSYN070AAXX  12184 82983 32595 60905 10336 20181 39691 40100 84230 333 58018;EQDQ01  00002PRCP99
0186829830999992001021300004-09370-040480FM-12+037099999V0203601N001512200019N0020001N1+03141+01771100951ADDAA199000091GF103991031021008001001001KA1240M+03431MA1999999096861MD1999999+0091REMSYN076AAXX  13004 82983 32595 33603 10314 20177 39686 40095 83200 333 10343 58009;EQDQ01  00002PRCP99
0186829830999992001021312004-09370-040480FM-12+037099999V0201401N003110075019N0020001N1+02661+02021101261ADDAA199000091GF108991081051008001999999KA1240N+02431MA1999999097151MD1999999-0111REMSYN076AAXX  13124 82983 32595 81406 10266 20202 39715 40126 885// 333 20243 59011;EQDQ01  00002PRCP99
0167829830999992001021318004-09370-040480FM-12+037099999V0200901N003110450019N0020001N1+03341+01871100801ADDAA199000091GF106991041021008001031001MA1999999096731MD1999999-0181REMSYN070AAXX  13184 82983 32595 60906 10334 20187 39673 40080 84230 333 59018;EQDQ01  00002PRCP99
0186829830999992001021400004-09370-040480FM-12+037099999V0203601N003110075019N0020001N1+02521+02191101051ADDAA199000091GF107991071021008001001001KA1240M+03401MA1999999096921MD1999999+0061REMSYN076AAXX  14004 82983 32595 73606 10252 20219 39692 40105 87200 333 10340 58006;EQDQ01  00002PRCP99
0201829830999992001021412004-09370-040480FM-12+037099999V0201401N003110075019N0020001N1+02401+02111101301ADDAA124002091AY161061AY221061GF108991081051008001999999KA1240N+02331MA1999999097141MD1999999-0011MW1031REMSYN088AAXX  14124 82983 21595 81406 10240 20211 39714 40130 70362 885// 333 20233 59001 60024;
0167829830999992001021418004-09370-040480FM-12+037099999V0203601N001510450019N0020001N1+03281+01311100791ADDAA199000091GF105991021011008001021001MA1999999096691MD1999999-0041REMSYN070AAXX  14184 82983 32595 53603 10328 20131 39669 40079 82120 333 59004;EQDQ01  00002PRCP99
0196829830999992001021500004-09370-040480FM-12+037099999V0203201N001512200019N0020001N1+02721+01651100911ADDAA199000091GA1001+999999999GF100991001001999999001001KA1240M+03321MA1999999096771MD1999999-0151REMSYN070AAXX  15004 82983 32995 03203 10272 20165 39677 40091 333 10332 59015;EQDQ01  00002PRCP99
0186829830999992001021512004-09370-040480FM-12+037099999V0200901N003112200019N0020001N1+02641+01881101261ADDAA199000091GF103991021011008001001011KA1240N+02361MA1999999097131MD1999999-0011REMSYN076AAXX  15124 82983 32595 30906 10264 20188 39713 40126 82101 333 20236 59001;EQDQ01  00002PRCP99
0167829830999992001021518004-09370-040480FM-12+037099999V0200501N003110075019N0020001N1+03361+01851100841ADDAA199000091GF105991051011008001001001MA1999999096761MD1999999+0071REMSYN070AAXX  15184 82983 32595 50506 10336 20185 39676 40084 85100 333 58007;EQDQ01  00002PRCP99
0186829830999992001021600004-09370-040480FM-12+037099999V0209999C000012200019N0020001N1+02921+01891100821ADDAA199000091GF102991021011008001001001KA1240M+03441MA1999999096741MD1999999-0031REMSYN076AAXX  16004 82983 32595 20000 10292 20189 39674 40082 82100 333 10344 59003;EQDQ01  00002PRCP99
0186829830999992001021612004-09370-040480FM-12+037099999V0200901N003112200019N0020001N1+02641+01901101351ADDAA199000091GF103991031011008001001001KA1240N+02461MA1999999097241MD1999999+0111REMSYN076AAXX  16124 82983 32595 30906 10264 20190 39724 40135 83100 333 20246 58011;EQDQ01  00002PRCP99
0167829830999992001021618004-09370-040480FM-12+037099999V0200501N002612200019N0020001N1+03441+01721100921ADDAA199000091GF102991021011008001001001MA1999999096861MD1999999+0101REMSYN070AAXX  16184 82983 32595 20505 10344 20172 39686 40092 82100 333 58010;EQDQ01  00002PRCP99
0186829830999992001021700004-09370-040480FM-12+037099999V0200901N001512200019N0020001N1+02941+01911100971ADDAA199000091GF102991021011008001001001KA1240M+03461MA1999999096881MD1999999+0141REMSYN076AAXX  17004 82983 32595 20903 10294 20191 39688 40097 82100 333 10346 58014;EQDQ01  00002PRCP99
0186829830999992001021712004-09370-040480FM-12+037099999V0200901N003110075019N0020001N1+02501+01871101491ADDAA199000091GF108991081051008001999999KA1240N+02361MA1999999097351MD1999999+0111REMSYN076AAXX  17124 82983 32595 80906 10250 20187 39735 40149 885// 333 20236 58011;EQDQ01  00002PRCP99
0183829830999992001021718004-09370-040480FM-12+037099999V0200901N002619999999N0020001N1+03241+01781101041ADDAA199000091GF106991999011008001001001MA1999999096961MD1999999+0101REMSYN070AAXX  17184 82983 32595 60905 10324 20178 39696 40104 82100 333 58010;EQDQ01+000022SCOTLCQ02  00002PRCP99
0186829830999992001021800004-09370-040480FM-12+037099999V0200501N002612200019N0020001N1+03081+01681101121ADDAA199000091GF103991031011008001001001KA1240M+03381MA1999999097021MD1999999+0141REMSYN076AAXX  18004 82983 32595 30505 10308 20168 39702 40112 83100 333 10338 58014;EQDQ01  00002PRCP99
0186829830999992001021812004-09370-040480FM-12+037099999V0201401N003110075019N0020001N1+02541+02021101541ADDAA199000091GF106991061011008001001001KA1240N+02461MA1999999097421MD1999999+0071REMSYN076AAXX  18124 82983 32595 61406 10254 20202 39742 40154 86100 333 20246 58007;EQDQ01  00002PRCP99
0167829830999992001021818004-09370-040480FM-12+037099999V0200901N002610450019N0020001N1+03141+01661101151ADDAA199000091GF108991021011008001021999MA1999999097061MD1999999+0101REMSYN070AAXX  18184 82983 32595 80905 10314 20166 39706 40115 8212/ 333 58010;EQDQ01  00002PRCP99
0186829830999992001021900004-09370-040480FM-12+037099999V0200901N001510075019N0020001N1+02921+01601101211ADDAA199000091GF105991051011008001001001KA1240M+03221MA1999999097091MD1999999+0071REMSYN076AAXX  19004 82983 32595 50903 10292 20160 39709 40121 85100 333 10322 58007;EQDQ01  00002PRCP99
0186829830999992001021912004-09370-040480FM-12+037099999V0200901N003110075019N0020001N1+02641+02001101431ADDAA199000091GF108991081051008001999999KA1240N+02441MA1999999097321MD1999999-0101REMSYN076AAXX  19124 82983 32595 80906 10264 20200 39732 40143 885// 333 20244 59010;EQDQ01  00002PRCP99
0167829830999992001021918004-09370-040480FM-12+037099999V0200501N003110450019N0020001N1+03221+01771101131ADDAA199000091GF108991031011008001021999MA1999999097031MD1999999-0031REMSYN070AAXX  19184 82983 32595 80506 10322 20177 39703 40113 8312/ 333 59003;EQDQ01  00002PRCP99
0186829830999992001022000004-09370-040480FM-12+037099999V0200901N001510075019N0020001N1+02861+01871101121ADDAA199000091GF105991051031008001001001KA1240M+03321MA1999999097001MD1999999-0091REMSYN076AAXX  20004 82983 32595 50903 10286 20187 39700 40112 85300 333 10332 59009;EQDQ01  00002PRCP99
0186829830999992001022012004-09370-040480FM-12+037099999V0200901N003110450019N0020001N1+02601+01921101401ADDAA199000091GF107991031011008001021001KA1240N+02381MA1999999097281MD1999999-0041REMSYN076AAXX  20124 82983 32595 70906 10260 20192 39728 40140 83120 333 20238 59004;EQDQ01  00002PRCP99
0167829830999992001022018004-09370-040480FM-12+037099999V0200901N001510450019N0020001N1+03221+01801100911ADDAA199000091GF108991031011008001021999MA1999999096821MD1999999-0211REMSYN070AAXX  20184 82983 32595 80903 10322 20180 39682 40091 8312/ 333 59021;EQDQ01  00002PRCP99
0214829830999992001022100004-09370-040480FM-12+037099999V0203201N002610075019N0020001N1+02241+02101101191ADDAA106015091AY161061AY211061GF108991081061008001999999KA1240M+03241MA1999999097021MD1999999+0021REMSYN088AAXX  21004 82983 21595 83205 10224 20210 39702 40119 75661 886// 333 10324 58002 60151;EQDQ01+000562PRSWM1
0201829830999992001022112004-09370-040480FM-12+037099999V0201401N003110075019N0020001N1+02501+02071101391ADDAA124016091AY191061AY261061GF108991081051008001999999KA1240N+02221MA1999999097211MD1999999-0071MW1031REMSYN088AAXX  21124 82983 21595 81406 10250 20207 39721 40139 70396 885// 333 20222 59007 60164;
0167829830999992001022118004-09370-040480FM-12+037099999V0200901N001510075019N0020001N1+03081+01951100901ADDAA199000091GF108991081051008001999999MA1999999096781MD1999999-0041REMSYN070AAXX  21184 82983 32595 80903 10308 20195 39678 40090 885// 333 59004;EQDQ01  00002PRCP99
0180829830999992001022200004-09370-040480FM-12+037099999V0209999C000019999999N0020001N1+02781+02251100891ADDAA199000091GF107991999999999999999999KA1240M+03101MA1999999096761MD1999999-0261REMSYN070AAXX  22004 82983 32995 70000 10278 20225 39676 40089 333 10310 59026;EQDQ01  00002PRCP99
0186829830999992001022212004-09370-040480FM-12+037099999V0200901N004110075019N0020001N1+02621+01981101331ADDAA199000091GF106991061021008001001001KA1240N+02491MA1999999097191MD1999999-0021REMSYN076AAXX  22124 82983 32595 60908 10262 20198 39719 40133 86200 333 20249 59002;EQDQ01  00002PRCP99
0183829830999992001022218004-09370-040480FM-12+037099999V0200501N003119999999N0020001N1+03421+01651100841ADDAA199000091GF106991999011008001001001MA1999999096761MD1999999-0021REMSYN070AAXX  22184 82983 32595 60506 10342 20165 39676 40084 84100 333 59002;EQDQ01+000042SCOTLCQ02  00002PRCP99
0186829830999992001022300004-09370-040480FM-12+037099999V0200901N001512200019N0020001N1+03081+01641100841ADDAA199000091GF102991021011008001001001KA1240M+03481MA1999999096751MD1999999-0011REMSYN076AAXX  23004 82983 32595 20903 10308 20164 39675 40084 82100 333 10348 59001;EQDQ01  00002PRCP99
0186829830999992001022312004-09370-040480FM-12+037099999V0200901N004110450019N0020001N1+02601+01891101371ADDAA199000091GF106991041021008001021001KA1240N+02371MA1999999097261MD1999999+0071REMSYN076AAXX  23124 82983 32595 60908 10260 20189 39726 40137 84220 333 20237 58007;EQDQ01  00002PRCP99
0167829830999992001022318004-09370-040480FM-12+037099999V0200901N003110450019N0020001N1+03441+01531100891ADDAA199000091GF105991021011008001031001MA1999999096811MD1999999+0051REMSYN070AAXX  23184 82983 32595 50906 10344 20153 39681 40089 82130 333 58005;EQDQ01  00002PRCP99
0186829830999992001022400004-09370-040480FM-12+037099999V0203601N003110075019N0020001N1+02921+01741101021ADDAA199000091GF106991061021008001001001KA1240M+03521MA1999999096911MD1999999+0161REMSYN076AAXX  24004 82983 32595 63606 10292 20174 39691 40102 86200 333 10352 58016;EQDQ01  00002PRCP99
0186829830999992001022412004-09370-040480FM-12+037099999V0200901N005110075019N0020001N1+02561+01931101281ADDAA199000091GF107991071021008001001001KA1240N+02291MA1999999097171MD1999999-0091REMSYN076AAXX  24124 82983 32595 70910 10256 20193 39717 40128 87200 333 20229 59009;EQDQ01  00002PRCP99
0183829830999992001022418004-09370-040480FM-12+037099999V0200501N003119999999N0020001N1+03381+01661100791ADDAA199000091GF107991999011008001001001MA1999999096721MD1999999-0091REMSYN070AAXX  24184 82983 32595 70506 10338 20166 39672 40079 83100 333 59009;EQDQ01+000032SCOTLCQ02  00002PRCP99
0186829830999992001022500004-09370-040480FM-12+037099999V0200901N003112200019N0020001N1+03081+01851100861ADDAA199000091GF102991021011008001001001KA1240M+03441MA1999999096771MD1999999-0141REMSYN076AAXX  25004 82983 32595 20906 10308 20185 39677 40086 82100 333 10344 59014;EQDQ01  00002PRCP99
0186829830999992001022512004-09370-040480FM-12+037099999V0201401N004110075019N0020001N1+02701+02061101161ADDAA199000091GF108991081051008001999999KA1240N+02451MA1999999097061MD1999999-0111REMSYN076AAXX  25124 82983 32595 81408 10270 20206 39706 40116 885// 333 20245 59011;EQDQ01  00002PRCP99
0183829830999992001022518004-09370-040480FM-12+037099999V0200501N003112200019N0020001N1+03401+01681100711ADDAA199000091GF103991999021008001001001MA1999999096641MD1999999-0081REMSYN070AAXX  25184 82983 32595 30506 10340 20168 39664 40071 86200 333 59008;EQDQ01+000062SCOTLCQ02  00002PRCP99
0196829830999992001022600004-09370-040480FM-12+037099999V0200901N003112200019N0020001N1+03121+01821100691ADDAA199000091GA1001+999999999GF100991001001999999001001KA1240M+03441MA1999999096611MD1999999-0161REMSYN070AAXX  26004 82983 32995 00906 10312 20182 39661 40069 333 10344 59016;EQDQ01  00002PRCP99
0186829830999992001022612004-09370-040480FM-12+037099999V0200901N003110075019N0020001N1+02681+02021101111ADDAA199000091GF106991061021008001001001KA1240N+02441MA1999999097011MD1999999-0051REMSYN076AAXX  26124 82983 32595 60906 10268 20202 39701 40111 86200 333 20244 59005;EQDQ01  00002PRCP99
0182829830999992001022618004-09370-040480FM-12+037099999V0203601N005110450019N0020001N1+03121+02141100611ADDAA106000591AY121061AY221061GF106991041021008001031001MA1999999096541MD1999999-0101MW1601REMSYN082AAXX  26184 82983 21595 63610 10312 20214 39654 40061 76022 84230 333 59010 69961;
0201829830999992001022700004-09370-040480FM-12+037099999V0200901N003112200019N0020001N1+02701+02061100851ADDAA106000591AY151061AY261061GF103991031011008001001001KA1240M+03481MA1999999096741MD1999999+0131MW1011REMSYN088AAXX  27004 82983 21595 30906 10270 20206 39674 40085 70156 83100 333 10348 58013 69961;
0201829830999992001022712004-09370-040480FM-12+037099999V0200901N003110450019N0020001N1+02561+01971101241ADDAA124002091AY151061AY261061GF107991031011008001021001KA1240N+02441MA1999999097101MD1999999+0091MW1031REMSYN088AAXX  27124 82983 21595 70906 10256 20197 39710 40124 70356 83120 333 20244 58009 60024;
0167829830999992001022718004-09370-040480FM-12+037099999V0200901N003110450019N0020001N1+03261+01841100861ADDAA199000091GF107991031011008001021001MA1999999096771MD1999999+0271REMSYN070AAXX  27184 82983 32595 70906 10326 20184 39677 40086 83120 333 58027;EQDQ01  00002PRCP99
0186829830999992001022800004-09370-040480FM-12+037099999V0200901N001510075019N0020001N1+02901+01811100911ADDAA199000091GF105991051021008001001001KA1240M+03341MA1999999096811MD1999999+0081REMSYN076AAXX  28004 82983 32595 50903 10290 20181 39681 40091 85200 333 10334 58008;EQDQ01  00002PRCP99
0186829830999992001022812004-09370-040480FM-12+037099999V0201401N003110075019N0020001N1+02581+01971101301ADDAA199000091GF106991061011008001021001KA1240N+02401MA1999999097181MD1999999+0081REMSYN076AAXX  28124 82983 32595 61406 10258 20197 39718 40130 86120 333 20240 58008;EQDQ01  00002PRCP99
0167829830999992001022818004-09370-040480FM-12+037099999V0200901N003110450019N0020001N1+03381+01831100831ADDAA199000091GF106991041021008001031001MA1999999096751MD1999999-0021REMSYN070AAXX  28184 82983 32595 60906 10338 20183 39675 40083 84230 333 59002;EQDQ01  00002PRCP99
0198829830999992001030100004-09370-040480FM-12+037099999V0209999C000010075019N0020001N1+02581+02211101071ADDAA199000091GF108991081051008001999999KA1240M+03421MA1999999096941MD1999999+0131REMSYN088AAXX  01004 82983 32595 80000 10258 20221 39694 40107 885// 333 10342 29067 55030 58013;EQDQ01  00002PRCP99
0186829830999992001030112004-09370-040480FM-12+037099999V0201401N003110075019N0020001N1+02541+02111101331ADDAA199000091GF108991081051008001999999KA1240N+02381MA1999999097171MD1999999-0011REMSYN076AAXX  01124 82983 32595 81406 10254 20211 39717 40133 885// 333 20238 59001;EQDQ01  00002PRCP99
0167829830999992001030118004-09370-040480FM-12+037099999V0200501N003110450019N0020001N1+03221+01951100901ADDAA199000091GF108991041011008001021999MA1999999096811MD1999999+0061REMSYN070AAXX  01184 82983 32595 80506 10322 20195 39681 40090 8412/ 333 58006;EQDQ01  00002PRCP99
0198829830999992001030200004-09370-040480FM-12+037099999V0201801N002610075019N0020001N1+02561+02081101101ADDAA199000091GF106991061021008001001001KA1240M+03281MA1999999096961MD1999999+0021REMSYN088AAXX  02004 82983 32595 61805 10256 20208 39696 40110 86200 333 10328 29069 55011 58002;EQDQ01  00002PRCP99
0201829830999992001030212004-09370-040480FM-12+037099999V0201401N002610075019N0020001N1+02481+02151101541ADDAA124004191AY151061AY261061GF108991081061008001999999KA1240N+02281MA1999999097371MD1999999+0201MW1021REMSYN088AAXX  02124 82983 21595 81405 10248 20215 39737 40154 70256 886// 333 20228 58020 60044;
0167829830999992001030218004-09370-040480FM-12+037099999V0200901N003110450019N0020001N1+03301+01871101001ADDAA199000091GF106991031011008001031001MA1999999096911MD1999999+0101REMSYN070AAXX  02184 82983 32595 60906 10330 20187 39691 40100 83130 333 58010;EQDQ01  00002PRCP99
0208829830999992001030300004-09370-040480FM-12+037099999V0200901N002612200019N0020001N1+02941+01721101121ADDAA199000091GA1001+999999999GF100991001001999999001001KA1240M+03381MA1999999096991MD1999999+0031REMSYN082AAXX  03004 82983 32595 00905 10294 20172 39699 40112 333 10338 29055 55035 58003;EQDQ01  00002PRCP99
0186829830999992001030312004-09370-040480FM-12+037099999V0200901N005110075019N0020001N1+02681+02021101481ADDAA199000091GF106991061021008001001001KA1240N+02371MA1999999097361MD1999999-0011REMSYN076AAXX  03124 82983 32595 60910 10268 20202 39736 40148 86200 333 20237 59001;EQDQ01  00002PRCP99
0183829830999992001030318004-09370-040480FM-12+037099999V0203601N003110075019N0020001N1+03481+01791101041ADDAA199000091GF107991999021008001001001MA1999999096971MD1999999+0061REMSYN070AAXX  03184 82983 32595 73606 10348 20179 39697 40104 85200 333 58006;EQDQ01+000052SCOTLCQ02  00002PRCP99
0198829830999992001030400004-09370-040480FM-12+037099999V0201801N001510075019N0020001N1+03131+01821101151ADDAA199000091GF106991061021008001001001KA1240M+03521MA1999999097051MD1999999+0061REMSYN088AAXX  04004 82983 32595 61803 10313 20182 39705 40115 86200 333 10352 29049 55101 58006;EQDQ01  00002PRCP99
0186829830999992001030412004-09370-040480FM-12+037099999V0200901N004110075019N0020001N1+02641+01901101551ADDAA199000091GF106991061011008001001001KA1240N+02441MA1999999097401MD1999999+0041REMSYN076AAXX  04124 82983 32595 60908 10264 20190 39740 40155 86100 333 20244 58004;EQDQ01  00002PRCP99
0167829830999992001030418004-09370-040480FM-12+037099999V0200501N003112200019N0020001N1+03461+01781101101ADDAA199000091GF104991041011008001001001MA1999999096941MD1999999-0031REMSYN070AAXX  04184 82983 32595 40506 10346 20178 39694 40110 84100 333 59003;EQDQ01  00002PRCP99
0198829830999992001030500004-09370-040480FM-12+037099999V0200901N002610075019N0020001N1+03101+01621101011ADDAA199000091GF106991061051008001001001KA1240M+03561MA1999999096921MD1999999-0131REMSYN088AAXX  05004 82983 32595 60905 10310 20162 39692 40101 86500 333 10356 29046 55106 59013;EQDQ01  00002PRCP99
0186829830999992001030512004-09370-040480FM-12+037099999V0200901N002610075019N0020001N1+02621+01911101411ADDAA199000091GF106991061011008001001001KA1240N+02441MA1999999097301MD1999999-0101REMSYN076AAXX  05124 82983 32595 60905 10262 20191 39730 40141 86100 333 20244 59010;EQDQ01  00002PRCP99
0167829830999992001030518004-09370-040480FM-12+037099999V0200901N002612200019N0020001N1+03521+01701100851ADDAA199000091GF103991031011008001001001MA1999999096791MD1999999-0151REMSYN070AAXX  05184 82983 32595 30905 10352 20170 39679 40085 83100 333 59015;EQDQ01  00002PRCP99
0198829830999992001030600004-09370-040480FM-12+037099999V0200901N002612200019N0020001N1+03261+01641100931ADDAA199000091GF103991031021008001001001KA1240M+03611MA1999999096851MD1999999-0971REMSYN088AAXX  06004 82983 32595 30905 10326 20164 39685 40093 83200 333 10361 29044 55091 59097;EQDQ01  00002PRCP99
0186829830999992001030612004-09370-040480FM-12+037099999V0200901N004112200019N0020001N1+02741+01951101381ADDAA199000091GF104991041011008001001001KA1240N+02501MA1999999097301MD1999999+0001REMSYN076AAXX  06124 82983 32595 40908 10274 20195 39730 40138 84100 333 20250 58000;EQDQ01  00002PRCP99
0167829830999992001030618004-09370-040480FM-12+037099999V0201401N002610075019N0020001N1+03561+01781100971ADDAA199000091GF106991061021008001001001MA1999999096911MD1999999+0121REMSYN070AAXX  06184 82983 32595 61405 10356 20178 39691 40097 86200 333 58012;EQDQ01  00002PRCP99
0198829830999992001030700004-09370-040480FM-12+037099999V0203601N001510075019N0020001N1+03161+01821101061ADDAA199000091GF107991071021008001001001KA1240M+03621MA1999999096981MD1999999+0151REMSYN088AAXX  07004 82983 32595 73603 10316 20182 39698 40106 87200 333 10362 29047 55098 58015;EQDQ01  00002PRCP99
0186829830999992001030712004-09370-040480FM-12+037099999V0200901N003110450019N0020001N1+02601+01781101651ADDAA199000091GF105991021011008001031001KA1240N+02401MA1999999097531MD1999999+0231REMSYN076AAXX  07124 82983 32595 50906 10260 20178 39753 40165 82130 333 20240 58023;EQDQ01  00002PRCP99
0167829830999992001030718004-09370-040480FM-12+037099999V0200501N003112200019N0020001N1+03401+01681101131ADDAA199000091GF106991021011008001001061MA1999999097061MD1999999+0151REMSYN070AAXX  07184 82983 32595 60506 10340 20168 39706 40113 82106 333 58015;EQDQ01  00002PRCP99
0198829830999992001030800004-09370-040480FM-12+037099999V0200901N001512200019N0020001N1+03101+01461101161ADDAA199000091GF106991021011008001001061KA1240M+03501MA1999999097061MD1999999+0081REMSYN088AAXX  08004 82983 32595 60903 10310 20146 39706 40116 82106 333 10350 29043 55099 58008;EQDQ01  00002PRCP99
0196829830999992001030812004-09370-040480FM-12+037099999V0200901N003112200019N0020001N1+02711+01961101371ADDAA199000091GA1001+999999999GF100991001001999999001001KA1240N+02361MA1999999097261MD1999999-0271REMSYN070AAXX  08124 82983 32995 00906 10271 20196 39726 40137 333 20236 59027;EQDQ01  00002PRCP99
0167829830999992001030818004-09370-040480FM-12+037099999V0200901N001510450019N0020001N1+03601+01721100961ADDAA199000091GF106991041021008001031001MA1999999096901MD1999999-0161REMSYN070AAXX  08184 82983 32595 60903 10360 20172 39690 40096 84230 333 59016;EQDQ01  00002PRCP99
0198829830999992001030900004-09370-040480FM-12+037099999V0200901N002610075019N0020001N1+03201+01591100911ADDAA199000091GF106991061021008001001001KA1240M+03681MA1999999096831MD1999999-0231REMSYN088AAXX  09004 82983 32595 60905 10320 20159 39683 40091 86200 333 10368 29043 55113 59023;EQDQ01  00002PRCP99
0186829830999992001030912004-09370-040480FM-12+037099999V0200501N005110075019N0020001N1+02841+01931101261ADDAA199000091GF106991061021008001001001KA1240N+02531MA1999999097181MD1999999-0081REMSYN076AAXX  09124 82983 32595 60510 10284 20193 39718 40126 86200 333 20253 59008;EQDQ01  00002PRCP99
0167829830999992001030918004-09370-040480FM-12+037099999V0201801N002610450019N0020001N1+03441+01801100791ADDAA199000091GF105991041021008001031001MA1999999096731MD1999999-0171REMSYN070AAXX  09184 82983 32595 51805 10344 20180 39673 40079 84230 333 59017;EQDQ01  00002PRCP99
0198829830999992001031000004-09370-040480FM-12+037099999V0209999C000012200019N0020001N1+02101+01941100791ADDAA199000091GF104991041021008001001001KA1240M+02541MA1999999096721MD1999999-0111REMSYN088AAXX  10004 82983 32595 40000 10210 20194 39672 40079 84200 333 10254 29049 55101 59011;EQDQ01  00002PRCP99
0220829830999992001031012004-09370-040480FM-12+037099999V0200901N003112200019N0020001N1+02761+01911101161ADDAA124001091AY151061AY261061GF104991999011008001001001KA1240N+02441MA1999999097071MD1999999-0111MW1011REMSYN088AAXX  10124 82983 21595 40906 10276 20191 39707 40116 70156 82100 333 20244 59011 60014;EQDQ01+000022SCOTLC
0167829830999992001031018004-09370-040480FM-12+037099999V0203201N003112200019N0020001N1+03361+02041100711ADDAA199000091GF104991041011008001001001MA1999999096641MD1999999-0091REMSYN070AAXX  10184 82983 32595 43206 10336 20204 39664 40071 84100 333 59009;EQDQ01  00002PRCP99
0178829830999992001031100004-09370-040480FM-12+037099999V0202701N002610075019N0020001N1+02781+01981100961ADDAA199000091GF108991081051008001999999KA1240M+03501MA1999999096851REMSYN082AAXX  11004 82983 32595 82705 10278 20198 39685 40096 885// 333 10350 29058 55089;EQDQ01  00002PRCP99
0201829830999992001031112004-09370-040480FM-12+037099999V0203201N002610075019N0020001N1+02261+02141101281ADDAA124026991AY161061AY291061GF108991081061008001999999KA1240N+02121MA1999999097131MD1999999+0061MW1511REMSYN088AAXX  11124 82983 21595 83205 10226 20214 39713 40128 75169 886// 333 20212 58006 60274;
0195829830999992001031118004-09370-040480FM-12+037099999V0202701N002611050019N0020001N1+02821+02021100991ADDAA106000591AY101061AY211061GF105991021011008001011011MA1999999096851MD1999999+0211REMSYN082AAXX  11184 82983 21595 52705 10282 20202 39685 40099 75601 82111 333 58021 69961;EQDQ01+000562PRSWM1
0179829830999992001031200004-09370-040480FM-12+037099999V0202301N001510075019N0020001N1+02441+02131101141ADDAA199000021GF105991051061008001001001KA1240M+02941MA1999999096961MD1999999+0111REMSYN088AAXX  12004 82983 32595 52303 10244 20213 39696 40114 85600 333 10294 29079 55004 58011;
0201829830999992001031212004-09370-040480FM-12+037099999V0203601N004110075019N0020001N1+02141+02051101501ADDAA124046091AY191061AY261061GF108991081051008001999999KA1240N+02131MA1999999097311MD1999999+0181MW1601REMSYN088AAXX  12124 82983 21595 83608 10214 20205 39731 40150 76096 885// 333 20213 58018 60464;
0182829830999992001031218004-09370-040480FM-12+037099999V0202301N001510075019N0020001N1+02561+02081101171ADDAA106003091AY161061AY261061GF108991081051008001999999MA1999999097011MD1999999+0161MW1031REMSYN082AAXX  12184 82983 21595 82303 10256 20208 39701 40117 70366 885// 333 58016 60031;
0179829830999992001031300004-09370-040480FM-12+037099999V0202701N003110075019N0020001N1+02401+02211101241ADDAA199000021GF108991081051008001999999KA1240M+02601MA1999999097051MD1999999+0091REMSYN088AAXX  13004 82983 32595 82706 10240 20221 39705 40124 885// 333 10260 29088 55000 58009;
0201829830999992001031312004-09370-040480FM-12+037099999V0201801N001510075019N0020001N1+02281+02051101481ADDAA124006191AY161061AY261061GF108991081051008001999999KA1240N+02051MA1999999097301MD1999999-0011MW1031REMSYN088AAXX  13124 82983 21595 81803 10228 20205 39730 40148 70366 885// 333 20205 59001 60064;
0167829830999992001031318004-09370-040480FM-12+037099999V0209999C000010450019N0020001N1+02681+02111101091ADDAA199000091GF106991031011008001021001MA1999999096941MD1999999-0071REMSYN070AAXX  13184 82983 32595 60000 10268 20211 39694 40109 83120 333 59007;EQDQ01  00002PRCP99
0198829830999992001031400004-09370-040480FM-12+037099999V0200901N001510075019N0020001N1+02521+02091101231ADDAA199000091GF108991081061008001999999KA1240M+02941MA1999999097061MD1999999+0011REMSYN088AAXX  14004 82983 32595 80903 10252 20209 39706 40123 886// 333 10294 29078 55022 58001;EQDQ01  00002PRCP99
0201829830999992001031412004-09370-040480FM-12+037099999V0201401N001510450019N0020001N1+02461+02011101341ADDAA124000391AY151061AY221061GF105991031011008001011011KA1240N+02081MA1999999097181MD1999999-0121MW1031REMSYN088AAXX  14124 82983 21595 51403 10246 20201 39718 40134 70352 83111 333 20208 59012 69934;
0167829830999992001031418004-09370-040480FM-12+037099999V0200901N001510075019N0020001N1+03041+01941100921ADDAA199000091GF107991071011008001001001MA1999999096801MD1999999-0141REMSYN070AAXX  14184 82983 32595 70903 10304 20194 39680 40092 87100 333 59014;EQDQ01  00002PRCP99
0214829830999992001031500004-09370-040480FM-12+037099999V0200901N003119999999N0020001N1+02461+02011101141ADDAA199000091GF105991999021008001001001KA1240M+03081MA1999999096981MD1999999-0081REMSYN088AAXX  15004 82983 32595 50906 10246 20201 39698 40114 86200 333 10308 29070 55051 59008;EQDQ01+000062SCOTLCQ02  00002PRCP99
0186829830999992001031512004-09370-040480FM-12+037099999V0200901N003110450019N0020001N1+02501+02071101391ADDAA199000091GF106991031011008001011011KA1240N+02321MA1999999097231MD1999999+0141REMSYN076AAXX  15124 82983 32595 60906 10250 20207 39723 40139 83111 333 20232 58014;EQDQ01  00002PRCP99
0167829830999992001031518004-09370-040480FM-12+037099999V0200901N002610075019N0020001N1+03001+02001100921ADDAA199000091GF106991061021008001001001MA1999999096801MD1999999+0001REMSYN070AAXX  15184 82983 32595 60905 10300 20200 39680 40092 86200 333 58000;EQDQ01  00002PRCP99
0213829830999992001031600004-09370-040480FM-12+037099999V0200901N001512200019N0020001N1+02461+02151101191ADDAA106000591AY151061AY221061GF104991041021008001001001KA1240M+03081MA1999999097041MD1999999+0061MW1011REMSYN100AAXX  16004 82983 21595 40903 10246 20215 39704 40119 70152 84200 333 10308 29074 55043 58006 69941;
0201829830999992001031612004-09370-040480FM-12+037099999V0200901N003110450019N0020001N1+02461+01971101491ADDAA124003091AY151061AY261061GF106991041011008001011021KA1240N+02281MA1999999097321MD1999999+0091MW1031REMSYN088AAXX  16124 82983 21595 60906 10246 20197 39732 40149 70356 84112 333 20228 58009 60034;
0167829830999992001031618004-09370-040480FM-12+037099999V0200501N002610075019N0020001N1+03161+01821101071ADDAA199000091GF106991061021008001001001MA1999999096951MD1999999+0151REMSYN070AAXX  16184 82983 32595 60505 10316 20182 39695 40107 86200 333 58015;EQDQ01  00002PRCP99
0213829830999992001031700004-09370-040480FM-12+037099999V0200901N003110075019N0020001N1+02481+01981101351ADDAA106000191AY151061AY221061GF105991051021008001001001KA1240M+03181MA1999999097181MD1999999+0141MW1011REMSYN100AAXX  17004 82983 21595 50906 10248 20198 39718 40135 70152 85200 333 10318 29067 55065 58014 69921;
0201829830999992001031712004-09370-040480FM-12+037099999V0201401N003110075019N0020001N1+02541+02171101361ADDAA124001091AY161061AY261061GF108991081051008001999999KA1240N+02251MA1999999097201MD1999999-0121MW1031REMSYN088AAXX  17124 82983 21595 81406 10254 20217 39720 40136 70366 885// 333 20225 59012 60014;
0198829830999992001031800004-09370-040480FM-12+037099999V0201401N001510075019N0020001N1+02701+02011101091ADDAA199000091GF105991051021008001001001KA1240M+03201MA1999999096951MD1999999-0231REMSYN088AAXX  18004 82983 32595 51403 10270 20201 39695 40109 85200 333 10320 29074 55067 59023;EQDQ01  00002PRCP99
0201829830999992001031812004-09370-040480FM-12+037099999V0200901N004110075019N0020001N1+02601+02121101291ADDAA124005191AY161061AY261061GF106991061021008001001001KA1240N+02351MA1999999097151MD1999999-0051MW1031REMSYN088AAXX  18124 82983 21595 60908 10260 20212 39715 40129 70366 86200 333 20235 59005 60054;
0167829830999992001031818004-09370-040480FM-12+037099999V0203601N001510450019N0020001N1+03201+01931100801ADDAA199000091GF106991041021008001031001MA1999999096721MD1999999-0121REMSYN070AAXX  18184 82983 32595 63603 10320 20193 39672 40080 84230 333 59012;EQDQ01  00002PRCP99
0198829830999992001031900004-09370-040480FM-12+037099999V0203601N003110075019N0020001N1+02801+02111101061ADDAA199000091GF106991061021008001001001KA1240M+03251MA1999999096941MD1999999-0011REMSYN088AAXX  19004 82983 32595 63606 10280 20211 39694 40106 86200 333 10325 29064 55103 59001;EQDQ01  00002PRCP99
0186829830999992001031912004-09370-040480FM-12+037099999V0200501N003110075019N0020001N1+02581+01971101331ADDAA199000091GF105991051011008001001001KA1240N+02341MA1999999097191MD1999999+0041REMSYN076AAXX  19124 82983 32595 50506 10258 20197 39719 40133 85100 333 20234 58004;EQDQ01  00002PRCP99
0167829830999992001031918004-09370-040480FM-12+037099999V0200501N002612200019N0020001N1+03181+01801100791ADDAA199000091GF103991021011008001001011MA1999999096711MD1999999+0011REMSYN070AAXX  19184 82983 32595 30505 10318 20180 39671 40079 82101 333 58001;EQDQ01  00002PRCP99
0198829830999992001032000004-09370-040480FM-12+037099999V0200501N001510075019N0020001N1+02941+01791100951ADDAA199000091GF105991051011008001001001KA1240M+03261MA1999999096851MD1999999-0091REMSYN088AAXX  20004 82983 32595 50503 10294 20179 39685 40095 85100 333 10326 29053 55106 59009;EQDQ01  00002PRCP99
0186829830999992001032012004-09370-040480FM-12+037099999V0200901N003110450019N0020001N1+02521+02001101461ADDAA199000091GF107991031011008001021011KA1240N+02361MA1999999097341MD1999999+0151REMSYN076AAXX  20124 82983 32595 70906 10252 20200 39734 40146 83121 333 20236 58015;EQDQ01  00002PRCP99
0167829830999992001032018004-09370-040480FM-12+037099999V0200901N003110450019N0020001N1+02901+01931101221ADDAA199000091GF107991031011008001021011MA1999999097081MD1999999+0371REMSYN070AAXX  20184 82983 32595 70906 10290 20193 39708 40122 83121 333 58037;EQDQ01  00002PRCP99
0198829830999992001032100004-09370-040480FM-12+037099999V0201401N001512200019N0020001N1+02661+01971101241ADDAA199000091GF103991021011008001021001KA1240M+02961MA1999999097101MD1999999+0251REMSYN088AAXX  21004 82983 32595 31403 10266 20197 39710 40124 82120 333 10296 29065 55023 58025;EQDQ01  00002PRCP99
0186829830999992001032112004-09370-040480FM-12+037099999V0200901N004110075019N0020001N1+02661+02111101471ADDAA199000091GF105991051011008001001001KA1240N+02361MA1999999097311MD1999999-0031REMSYN076AAXX  21124 82983 32595 50908 10266 20211 39731 40147 85100 333 20236 59003;EQDQ01  00002PRCP99
0167829830999992001032118004-09370-040480FM-12+037099999V0200901N003110450019N0020001N1+03281+01891100991ADDAA199000091GF106991031021008001031001MA1999999096901MD1999999-0121REMSYN070AAXX  21184 82983 32595 60906 10328 20189 39690 40099 83230 333 59012;EQDQ01  00002PRCP99
0198829830999992001032200004-09370-040480FM-12+037099999V0200901N004110075019N0020001N1+02701+02031101201ADDAA199000091GF106991061021008001001001KA1240M+03301MA1999999097071MD1999999-0031REMSYN088AAXX  22004 82983 32595 60908 10270 20203 39707 40120 86200 333 10330 29062 55101 59003;EQDQ01  00002PRCP99
0186829830999992001032212004-09370-040480FM-12+037099999V0200901N004110075019N0020001N1+02621+01981101341ADDAA199000091GF105991051011008001001001KA1240N+02241MA1999999097221MD1999999-0091REMSYN076AAXX  22124 82983 32595 50908 10262 20198 39722 40134 85100 333 20224 59009;EQDQ01  00002PRCP99
0167829830999992001032218004-09370-040480FM-12+037099999V0200901N003110075019N0020001N1+03121+01751100881ADDAA199000091GF106991051011008001001011MA1999999096761MD1999999-0141REMSYN070AAXX  22184 82983 32595 60906 10312 20175 39676 40088 85101 333 59014;EQDQ01  00002PRCP99
0198829830999992001032300004-09370-040480FM-12+037099999V0200901N001512200019N0020001N1+02801+01721100931ADDAA199000091GF103991031021008001001001KA1240M+03201MA1999999096811MD1999999-0261REMSYN088AAXX  23004 82983 32595 30903 10280 20172 39681 40093 83200 333 10320 29054 55088 59026;EQDQ01  00002PRCP99
0186829830999992001032312004-09370-040480FM-12+037099999V0200901N003112200019N0020001N1+02661+02001101261ADDAA199000091GF104991041011008001001001KA1240N+02301MA1999999097101MD1999999-0121REMSYN076AAXX  23124 82983 32595 40906 10266 20200 39710 40126 84100 333 20230 59012;EQDQ01  00002PRCP99
0167829830999992001032318004-09370-040480FM-12+037099999V0200501N003110450019N0020001N1+03121+01951100791ADDAA199000091GF106991041021008001031001MA1999999096691MD1999999-0071REMSYN070AAXX  23184 82983 32595 60506 10312 20195 39669 40079 84230 333 59007;EQDQ01  00002PRCP99
0198829830999992001032400004-09370-040480FM-12+037099999V0200901N002612200019N0020001N1+02721+02081100891ADDAA199000091GF102991021011008001001001KA1240M+03161MA1999999096771MD1999999-0041REMSYN088AAXX  24004 82983 32595 20905 10272 20208 39677 40089 82100 333 10316 29052 55050 59004;EQDQ01  00002PRCP99
0186829830999992001032412004-09370-040480FM-12+037099999V0200901N003110450019N0020001N1+02621+01911101201ADDAA199000091GF106991021011008001011021KA1240N+02301MA1999999097101MD1999999+0001REMSYN076AAXX  24124 82983 32595 60906 10262 20191 39710 40120 82112 333 20230 58000;EQDQ01  00002PRCP99
0167829830999992001032418004-09370-040480FM-12+037099999V0200501N003110450019N0020001N1+03241+01781100941ADDAA199000091GF105991031021008001031001MA1999999096851MD1999999+0161REMSYN070AAXX  24184 82983 32595 50506 10324 20178 39685 40094 83230 333 58016;EQDQ01  00002PRCP99
0198829830999992001032500004-09370-040480FM-12+037099999V0200901N001510075019N0020001N1+02841+01931101081ADDAA199000091GF106991061021008001001001KA1240M+03301MA1999999096961MD1999999+0191REMSYN088AAXX  25004 82983 32595 60903 10284 20193 39696 40108 86200 333 10330 29046 55104 58019;EQDQ01  00002PRCP99
0186829830999992001032512004-09370-040480FM-12+037099999V0200901N003110075019N0020001N1+02501+02051101411ADDAA199000091GF108991081051008001999999KA1240N+02401MA1999999097261MD1999999+0161REMSYN076AAXX  25124 82983 32595 80906 10250 20205 39726 40141 885// 333 20240 58016;EQDQ01  00002PRCP99
0167829830999992001032518004-09370-040480FM-12+037099999V0200901N002610450019N0020001N1+03021+01961101071ADDAA199000091GF107991021011008001021001MA1999999096951MD1999999+0101REMSYN070AAXX  25184 82983 32595 70905 10302 20196 39695 40107 82120 333 58010;EQDQ01  00002PRCP99
0208829830999992001032600004-09370-040480FM-12+037099999V0209999C000012200019N0020001N1+02701+02281101101ADDAA199000091GA1001+999999999GF100991001001999999001001KA1240M+03141MA1999999096961MD1999999+0001REMSYN082AAXX  26004 82983 32995 00000 10270 20228 39696 40110 333 10314 29054 55025 58000;EQDQ01  00002PRCP99
0186829830999992001032612004-09370-040480FM-12+037099999V0200901N002612200019N0020001N1+02561+01881101391ADDAA199000091GF105991031011008001001011KA1240N+02361MA1999999097241MD1999999-0021REMSYN076AAXX  26124 82983 32595 50905 10256 20188 39724 40139 83101 333 20236 59002;EQDQ01  00002PRCP99
0167829830999992001032618004-09370-040480FM-12+037099999V0200901N003110450019N0020001N1+03261+01801100931ADDAA199000091GF106991031011008001011021MA1999999096841MD1999999-0111REMSYN070AAXX  26184 82983 32595 60906 10326 20180 39684 40093 83112 333 59011;EQDQ01  00002PRCP99
0167829830999992001032718004-09370-040480FM-12+037099999V0200901N003110075019N0020001N1+03381+01831100811ADDAA199000091GF105991051021008001001001MA1999999096731MD1999999-0111REMSYN070AAXX  27184 82983 32595 50906 10338 20183 39673 40081 85200 333 59011;EQDQ01  00002PRCP99
0208829830999992001032800004-09370-040480FM-12+037099999V0209999C000012200019N0020001N1+02891+02101100941ADDAA199000091GA1001+999999999GF100991001001999999001001KA1240M+03451MA1999999096851MD1999999-0131REMSYN082AAXX  28004 82983 32995 00000 10289 20210 39685 40094 333 10345 29058 55104 59013;EQDQ01  00002PRCP99
0186829830999992001032812004-09370-040480FM-12+037099999V0200901N003112200019N0020001N1+02701+02031101271ADDAA199000091GF104991021011008001001011KA1240N+02341MA1999999097161MD1999999-0071REMSYN076AAXX  28124 82983 32595 40906 10270 20203 39716 40127 82101 333 20234 59007;EQDQ01  00002PRCP99
0167829830999992001032818004-09370-040480FM-12+037099999V0200901N003112200019N0020001N1+03321+01891100821ADDAA199000091GF104991041011008001001001MA1999999096741MD1999999+0011REMSYN070AAXX  28184 82983 32595 40906 10332 20189 39674 40082 84100 333 58001;EQDQ01  00002PRCP99
0198829830999992001032900004-09370-040480FM-12+037099999V0200901N003110075019N0020001N1+02741+02051100991ADDAA199000091GF105991051021008001001001KA1240M+03361MA1999999096871MD1999999+0021REMSYN088AAXX  29004 82983 32595 50906 10274 20205 39687 40099 85200 333 10336 29060 55110 58002;EQDQ01  00002PRCP99
0201829830999992001032912004-09370-040480FM-12+037099999V0200901N003110075019N0020001N1+02581+02061101491ADDAA124001091AY161061AY261061GF106991061021008001001001KA1240N+02361MA1999999097331MD1999999+0171MW1031REMSYN088AAXX  29124 82983 21595 60906 10258 20206 39733 40149 70366 86200 333 20236 58017 60014;
0167829830999992001032918004-09370-040480FM-12+037099999V0200501N003110075019N0020001N1+03321+01931101021ADDAA199000091GF105991051021008001001001MA1999999096931MD1999999+0191REMSYN070AAXX  29184 82983 32595 50506 10332 20193 39693 40102 85200 333 58019;EQDQ01  00002PRCP99
0198829830999992001033000004-09370-040480FM-12+037099999V0200901N002610075019N0020001N1+03031+01761101141ADDAA199000091GF106991061021008001001001KA1240M+03401MA1999999097041MD1999999+0171REMSYN088AAXX  30004 82983 32595 60905 10303 20176 39704 40114 86200 333 10340 29053 55089 58017;EQDQ01  00002PRCP99
0186829830999992001033012004-09370-040480FM-12+037099999V0201401N003110075019N0020001N1+02681+01991101381ADDAA199000091GF107991071021008001001001KA1240N+02401MA1999999097271MD1999999-0061REMSYN076AAXX  30124 82983 32595 71406 10268 20199 39727 40138 87200 333 20240 59006;EQDQ01  00002PRCP99
0167829830999992001033018004-09370-040480FM-12+037099999V0200901N004110075019N0020001N1+03401+01721100911ADDAA199000091GF106991051021008001031001MA1999999096831MD1999999-0101REMSYN070AAXX  30184 82983 32595 60908 10340 20172 39683 40091 85230 333 59010;EQDQ01  00002PRCP99
0198829830999992001033100004-09370-040480FM-12+037099999V0200901N002610075019N0020001N1+03041+01641101021ADDAA199000091GF106991061021008001001001KA1240M+03461MA1999999096931MD1999999-0111REMSYN088AAXX  31004 82983 32595 60905 10304 20164 39693 40102 86200 333 10346 29048 55103 59011;EQDQ01  00002PRCP99
0201829830999992001033112004-09370-040480FM-12+037099999V0201401N002610075019N0020001N1+02481+02091101291ADDAA124014091AY161061AY261061GF106991061021008001001001KA1240N+02061MA1999999097171MD1999999-0101MW1031REMSYN088AAXX  31124 82983 21595 61405 10248 20209 39717 40129 70366 86200 333 20206 59010 60144;
0167829830999992001033118004-09370-040480FM-12+037099999V0200901N003110075019N0020001N1+03121+01821100971ADDAA199000091GF106991061021008001001001MA1999999096811MD1999999-0021REMSYN070AAXX  31184 82983 32595 60906 10312 20182 39681 40097 86200 333 59002;EQDQ01  00002PRCP99
0198829830999992001040100004-09370-040480FM-12+037099999V0201401N001512200019N0020001N1+02711+01941101061ADDAA199000091GF103991031011008001001001KA1240M+03251MA1999999096931MD1999999+0001REMSYN088AAXX  01004 82983 32595 31403 10271 20194 39693 40106 83100 333 10325 29063 55072 58000;EQDQ01  00002PRCP99
0186829830999992001040112004-09370-040480FM-12+037099999V0200901N003110075019N0020001N1+02601+01891101421ADDAA199000091GF106991061021008001001001KA1240N+02221MA1999999097261MD1999999+0091REMSYN076AAXX  01124 82983 32595 60906 10260 20189 39726 40142 86200 333 20222 58009;EQDQ01  00002PRCP99
0167829830999992001040118004-09370-040480FM-12+037099999V0200501N003112200019N0020001N1+03251+01631100951ADDAA199000091GF103991031011008001001001MA1999999096861MD1999999+0011REMSYN070AAXX  01184 82983 32595 30506 10325 20163 39686 40095 83100 333 58001;EQDQ01  00002PRCP99
0198829830999992001040200004-09370-040480FM-12+037099999V0200901N001510075019N0020001N1+02731+02031101121ADDAA199000091GF106991061021008001001001KA1240M+03301MA1999999096981MD1999999+0051REMSYN088AAXX  02004 82983 32595 60903 10273 20203 39698 40112 86200 333 10330 29059 55109 58005;EQDQ01  00002PRCP99
0186829830999992001040212004-09370-040480FM-12+037099999V0200901N003110075019N0020001N1+02601+01991101521ADDAA199000091GF108991081051008001999999KA1240N+02341MA1999999097361MD1999999+0101REMSYN076AAXX  02124 82983 32595 80906 10260 20199 39736 40152 885// 333 20234 58010;EQDQ01  00002PRCP99
0167829830999992001040218004-09370-040480FM-12+037099999V0200901N001510450019N0020001N1+03281+01821101091ADDAA199000091GF106991041021008001031001MA1999999096991MD1999999+0131REMSYN070AAXX  02184 82983 32595 60903 10328 20182 39699 40109 84230 333 58013;EQDQ01  00002PRCP99
0208829830999992001040300004-09370-040480FM-12+037099999V0200901N002612200019N0020001N1+02901+01901101221ADDAA199000091GA1001+999999999GF100991001001999999001001KA1240M+03361MA1999999097101MD1999999+0121REMSYN082AAXX  03004 82983 32995 00905 10290 20190 39710 40122 333 10336 29055 55083 58012;EQDQ01  00002PRCP99
0186829830999992001040312004-09370-040480FM-12+037099999V0200901N003110075019N0020001N1+02601+01891101441ADDAA199000091GF106991061011008001001001KA1240N+02341MA1999999097321MD1999999-0041REMSYN076AAXX  03124 82983 32595 60906 10260 20189 39732 40144 86100 333 20234 59004;EQDQ01  00002PRCP99
0167829830999992001040318004-09370-040480FM-12+037099999V0200901N003111050019N0020001N1+03261+01861100931ADDAA199000091GF106991041011008001001021MA1999999096841MD1999999-0151REMSYN070AAXX  03184 82983 32595 60906 10326 20186 39684 40093 84102 333 59015;EQDQ01  00002PRCP99
0178829830999992001040400004-09370-040480FM-12+037099999V0203601N001512200019N0020001N1+02801+01951101151ADDAA199000091GF102991021011008001001001KA1240M+03341MA1999999097021REMSYN082AAXX  04004 82983 32595 23603 10280 20195 39702 40115 82100 333 10334 29057 55092;EQDQ01  00002PRCP99
0186829830999992001040412004-09370-040480FM-12+037099999V0200901N004110450019N0020001N1+02641+02031101361ADDAA199000091GF106991041021008001031001KA1240N+02341MA1999999097221MD1999999-0101REMSYN076AAXX  04124 82983 32595 60908 10264 20203 39722 40136 84230 333 20234 59010;EQDQ01  00002PRCP99
0167829830999992001040418004-09370-040480FM-12+037099999V0200901N003110075019N0020001N1+03161+01821100911ADDAA199000091GF108991081021008001999999MA1999999096811MD1999999-0031REMSYN070AAXX  04184 82983 32595 80906 10316 20182 39681 40091 882// 333 59003;EQDQ01  00002PRCP99
0198829830999992001040500004-09370-040480FM-12+037099999V0200901N005110075019N0020001N1+02661+02181101141ADDAA199000091GF106991061021008001001001KA1240M+03241MA1999999097001MD1999999-0021REMSYN088AAXX  05004 82983 32595 60910 10266 20218 39700 40114 86200 333 10324 29066 55075 59002;EQDQ01  00002PRCP99
0186829830999992001040512004-09370-040480FM-12+037099999V0200901N005110075019N0020001N1+02561+02021101431ADDAA199000091GF108991081051008001999999KA1240N+02291MA1999999097271MD1999999+0051REMSYN076AAXX  05124 82983 32595 80910 10256 20202 39727 40143 885// 333 20229 58005;EQDQ01  00002PRCP99
0167829830999992001040518004-09370-040480FM-12+037099999V0200901N004110075019N0020001N1+03171+01861100971ADDAA199000091GF107991071021008001001001MA1999999096881MD1999999+0071REMSYN070AAXX  05184 82983 32595 70908 10317 20186 39688 40097 87200 333 58007;EQDQ01  00002PRCP99
0198829830999992001040600004-09370-040480FM-12+037099999V0201401N003112200019N0020001N1+02741+01971101231ADDAA199000091GF103991031011008001001001KA1240M+03291MA1999999097091MD1999999+0091REMSYN088AAXX  06004 82983 32595 31406 10274 20197 39709 40123 83100 333 10329 29061 55052 58009;EQDQ01  00002PRCP99
0186829830999992001040612004-09370-040480FM-12+037099999V0200901N003110075019N0020001N1+02691+01961101551ADDAA199000091GF106991061021008001001001KA1240N+02241MA1999999097411MD1999999+0141REMSYN076AAXX  06124 82983 32595 60906 10269 20196 39741 40155 86200 333 20224 58014;EQDQ01  00002PRCP99
0167829830999992001040618004-09370-040480FM-12+037099999V0200901N005110075019N0020001N1+03301+01761101051ADDAA199000091GF105991051021008001001001MA1999999096951MD1999999+0071REMSYN070AAXX  06184 82983 32595 50910 10330 20176 39695 40105 85200 333 58007;EQDQ01  00002PRCP99
0198829830999992001040700004-09370-040480FM-12+037099999V0200901N002610075019N0020001N1+02921+01891101301ADDAA199000091GF106991061021008001001001KA1240M+03381MA1999999097191MD1999999+0101REMSYN088AAXX  07004 82983 32595 60905 10292 20189 39719 40130 86200 333 10338 29053 55110 58010;EQDQ01  00002PRCP99
0186829830999992001040712004-09370-040480FM-12+037099999V0200901N005110450019N0020001N1+02541+01981101581ADDAA199000091GF107991041021008001031001KA1240N+02291MA1999999097451MD1999999+0041REMSYN076AAXX  07124 82983 32595 70910 10254 20198 39745 40158 84230 333 20229 58004;EQDQ01  00002PRCP99
0167829830999992001040718004-09370-040480FM-12+037099999V0200501N004110450019N0020001N1+03051+01821101181ADDAA199000091GF107991031021008001031001MA1999999097041MD1999999+0091REMSYN070AAXX  07184 82983 32595 70508 10305 20182 39704 40118 83230 333 58009;EQDQ01  00002PRCP99
0198829830999992001040800004-09370-040480FM-12+037099999V0200901N004110450019N0020001N1+02771+01801101261ADDAA199000091GF106991031011008001021001KA1240M+03101MA1999999097121MD1999999-0071REMSYN088AAXX  08004 82983 32595 60908 10277 20180 39712 40126 83120 333 10310 29058 55039 59007;EQDQ01  00002PRCP99
0202829830999992001040812004-09370-040480FM-12+037099999V0200901N003119999999N0020001N1+02661+01921101421ADDAA199000091GF105991999011008001001001KA1240N+02221MA1999999097281MD1999999-0181REMSYN076AAXX  08124 82983 32595 50906 10266 20192 39728 40142 83100 333 20222 59018;EQDQ01+000032SCOTLCQ02  00002PRCP99
0183829830999992001040818004-09370-040480FM-12+037099999V0200901N003119999999N0020001N1+03141+01731100921ADDAA199000091GF105991999011008001001001MA1999999096801MD1999999-0241REMSYN070AAXX  08184 82983 32595 50906 10314 20173 39680 40092 84100 333 59024;EQDQ01+000042SCOTLCQ02  00002PRCP99
0198829830999992001040900004-09370-040480FM-12+037099999V0201401N003110075019N0020001N1+02761+01861101091ADDAA199000091GF105991051011008001001001KA1240M+03201MA1999999096961MD1999999-0191REMSYN088AAXX  09004 82983 32595 51406 10276 20186 39696 40109 85100 333 10320 29056 55106 59019;EQDQ01  00002PRCP99
0186829830999992001040912004-09370-040480FM-12+037099999V0201401N003110450019N0020001N1+02581+01871101301ADDAA199000091GF106991041011008001021001KA1240N+02241MA1999999097151MD1999999-0131REMSYN076AAXX  09124 82983 32595 61406 10258 20187 39715 40130 84120 333 20224 59013;EQDQ01  00002PRCP99
0167829830999992001040918004-09370-040480FM-12+037099999V0200901N003112200019N0020001N1+03261+01681100761ADDAA199000091GF105991031011008001001011MA1999999096681MD1999999-0121REMSYN070AAXX  09184 82983 32595 50906 10326 20168 39668 40076 83101 333 59012;EQDQ01  00002PRCP99
0208829830999992001041000004-09370-040480FM-12+037099999V0200901N003112200019N0020001N1+02801+01431101021ADDAA199000091GA1001+999999999GF100991001001999999001001KA1240M+03321MA1999999096891MD1999999-0071REMSYN082AAXX  10004 82983 32995 00906 10280 20143 39689 40102 333 10332 29048 55085 59007;EQDQ01  00002PRCP99
0186829830999992001041012004-09370-040480FM-12+037099999V0200901N005110075019N0020001N1+02521+01961101321ADDAA199000091GF108991081051008001999999KA1240N+02271MA1999999097171MD1999999+0021REMSYN076AAXX  10124 82983 32595 80910 10252 20196 39717 40132 885// 333 20227 58002;EQDQ01  00002PRCP99
0167829830999992001041018004-09370-040480FM-12+037099999V0200501N002610450019N0020001N1+03241+01631100901ADDAA199000091GF105991021011008001031001MA1999999096811MD1999999+0131REMSYN070AAXX  10184 82983 32595 50505 10324 20163 39681 40090 82130 333 58013;EQDQ01  00002PRCP99
0198829830999992001041100004-09370-040480FM-12+037099999V0200901N002612200019N0020001N1+02881+01671101081ADDAA199000091GF102991021011008001001001KA1240M+03301MA1999999096951MD1999999+0061REMSYN088AAXX  11004 82983 32595 20905 10288 20167 39695 40108 82100 333 10330 29051 55078 58006;EQDQ01  00002PRCP99
0186829830999992001041112004-09370-040480FM-12+037099999V0200901N003112200019N0020001N1+02601+01921101431ADDAA199000091GF106991031011008001001011KA1240N+02241MA1999999097311MD1999999+0141REMSYN076AAXX  11124 82983 32595 60906 10260 20192 39731 40143 83101 333 20224 58014;EQDQ01  00002PRCP99
0167829830999992001041118004-09370-040480FM-12+037099999V0200501N003110450019N0020001N1+03241+01511101011ADDAA199000091GF108991041011008001021999MA1999999096941MD1999999+0131REMSYN070AAXX  11184 82983 32595 80506 10324 20151 39694 40101 8412/ 333 58013;EQDQ01  00002PRCP99
0208829830999992001041200004-09370-040480FM-12+037099999V0209999C000012200019N0020001N1+02761+01861101171ADDAA199000091GA1001+999999999GF100991001001999999001001KA1240M+03261MA1999999097041MD1999999+0091REMSYN082AAXX  12004 82983 32995 00000 10276 20186 39704 40117 333 10326 29054 55065 58009;EQDQ01  00002PRCP99
0186829830999992001041212004-09370-040480FM-12+037099999V0200901N003110450019N0020001N1+02481+01921101441ADDAA199000091GF106991021011008001011021KA1240N+02341MA1999999097281MD1999999-0031REMSYN076AAXX  12124 82983 32595 60906 10248 20192 39728 40144 82112 333 20234 59003;EQDQ01  00002PRCP99
0167829830999992001041218004-09370-040480FM-12+037099999V0200501N002610450019N0020001N1+03261+01761100911ADDAA199000091GF106991021011008001011011MA1999999096821MD1999999-0121REMSYN070AAXX  12184 82983 32595 60505 10326 20176 39682 40091 82111 333 59012;EQDQ01  00002PRCP99
0198829830999992001041300004-09370-040480FM-12+037099999V0209999C000010075019N0020001N1+02761+01991101041ADDAA199000091GF105991051011008001001001KA1240M+03261MA1999999096911MD1999999-0131REMSYN088AAXX  13004 82983 32595 50000 10276 20199 39691 40104 85100 333 10326 29060 55043 59013;EQDQ01  00002PRCP99
0186829830999992001041312004-09370-040480FM-12+037099999V0200901N003112200019N0020001N1+02541+01761101321ADDAA199000091GF104991021011008001001011KA1240N+02341MA1999999097171MD1999999-0111REMSYN076AAXX  13124 82983 32595 40906 10254 20176 39717 40132 82101 333 20234 59011;EQDQ01  00002PRCP99
0167829830999992001041318004-09370-040480FM-12+037099999V0200901N002612200019N0020001N1+03341+01191100791ADDAA199000091GF105991011011008001001011MA1999999096711MD1999999-0111REMSYN070AAXX  13184 82983 32595 50905 10334 20119 39671 40079 81101 333 59011;EQDQ01  00002PRCP99
0208829830999992001041400004-09370-040480FM-12+037099999V0201401N001512200019N0020001N1+02821+01441100961ADDAA199000091GA1001+999999999GF100991001001999999001001KA1240M+03381MA1999999096841MD1999999-0071REMSYN082AAXX  14004 82983 32995 01403 10282 20144 39684 40096 333 10338 29044 55092 59007;EQDQ01  00002PRCP99
0186829830999992001041412004-09370-040480FM-12+037099999V0200901N003110075019N0020001N1+02561+01881101251ADDAA199000091GF108991081051008001999999KA1240N+02241MA1999999097121MD1999999-0051REMSYN076AAXX  14124 82983 32595 80906 10256 20188 39712 40125 885// 333 20224 59005;EQDQ01  00002PRCP99
0167829830999992001041418004-09370-040480FM-12+037099999V0200501N002610450019N0020001N1+03221+01571100801ADDAA199000091GF107991031011008001021001MA1999999096721MD1999999+0021REMSYN070AAXX  14184 82983 32595 70505 10322 20157 39672 40080 83120 333 58002;EQDQ01  00002PRCP99
0198829830999992001041500004-09370-040480FM-12+037099999V0200901N004110075019N0020001N1+02721+01951101091ADDAA199000091GF106991061021008001001001KA1240M+03261MA1999999096961MD1999999+0121REMSYN088AAXX  15004 82983 32595 60908 10272 20195 39696 40109 86200 333 10326 29057 55052 58012;EQDQ01  00002PRCP99
0202829830999992001041512004-09370-040480FM-12+037099999V0201401N003119999999N0020001N1+02661+01971101451ADDAA199000091GF106991999011008001001001KA1240N+02301MA1999999097311MD1999999+0161REMSYN076AAXX  15124 82983 32595 61406 10266 20197 39731 40145 84100 333 20230 58016;EQDQ01+000042SCOTLCQ02  00002PRCP99
0183829830999992001041518004-09370-040480FM-12+037099999V0200501N001510075019N0020001N1+03301+01801101001ADDAA199000091GF106991999011008001001001MA1999999096911MD1999999+0191REMSYN070AAXX  15184 82983 32595 60503 10330 20180 39691 40100 85100 333 58019;EQDQ01+000052SCOTLCQ02  00002PRCP99
0198829830999992001041600004-09370-040480FM-12+037099999V0200901N001510075019N0020001N1+02941+01761101211ADDAA199000091GF105991051021008001001001KA1240M+03361MA1999999097111MD1999999+0151REMSYN088AAXX  16004 82983 32595 50903 10294 20176 39711 40121 85200 333 10336 29051 55084 58015;EQDQ01  00002PRCP99
0201829830999992001041612004-09370-040480FM-12+037099999V0200901N004110075019N0020001N1+02661+01971101521ADDAA124000191AY151061AY221061GF106991061011008001001001KA1240N+02421MA1999999097401MD1999999+0091MW1031REMSYN088AAXX  16124 82983 21595 60908 10266 20197 39740 40152 70352 86100 333 20242 58009 69924;
0167829830999992001041618004-09370-040480FM-12+037099999V0200901N003110075019N0020001N1+03161+01821101161ADDAA199000091GF106991061011008001001001MA1999999097061MD1999999+0151REMSYN070AAXX  16184 82983 32595 60906 10316 20182 39706 40116 86100 333 58015;EQDQ01  00002PRCP99
0198829830999992001041700004-09370-040480FM-12+037099999V0200901N003110075019N0020001N1+02921+01861101331ADDAA199000091GF105991051021008001001001KA1240M+03241MA1999999097221MD1999999+0111REMSYN088AAXX  17004 82983 32595 50906 10292 20186 39722 40133 85200 333 10324 29054 55089 58011;EQDQ01  00002PRCP99
0186829830999992001041712004-09370-040480FM-12+037099999V0200901N003110075019N0020001N1+02581+01971101531ADDAA199000091GF107991071021008001001001KA1240N+02421MA1999999097401MD1999999+0001REMSYN076AAXX  17124 82983 32595 70906 10258 20197 39740 40153 87200 333 20242 58000;EQDQ01  00002PRCP99
0167829830999992001041718004-09370-040480FM-12+037099999V0200501N002612200019N0020001N1+03141+01801101101ADDAA199000091GF106991041011008001001011MA1999999096991MD1999999-0071REMSYN070AAXX  17184 82983 32595 60505 10314 20180 39699 40110 84101 333 59007;EQDQ01  00002PRCP99
0198829830999992001041800004-09370-040480FM-12+037099999V0201401N001512200019N0020001N1+02941+01621101201ADDAA199000091GF103991031011008001001001KA1240M+03301MA1999999097081MD1999999-0141REMSYN088AAXX  18004 82983 32595 31403 10294 20162 39708 40120 83100 333 10330 29066 55051 59014;EQDQ01  00002PRCP99
0186829830999992001041812004-09370-040480FM-12+037099999V0200901N003110075019N0020001N1+02501+01821101361ADDAA199000091GF105991051011008001001001KA1240N+02321MA1999999097221MD1999999-0181REMSYN076AAXX  18124 82983 32595 50906 10250 20182 39722 40136 85100 333 20232 59018;EQDQ01  00002PRCP99
0167829830999992001041818004-09370-040480FM-12+037099999V0200501N003110450019N0020001N1+03241+01411100811ADDAA199000091GF106991011011008001021001MA1999999096731MD1999999-0261REMSYN070AAXX  18184 82983 32595 60506 10324 20141 39673 40081 81120 333 59026;EQDQ01  00002PRCP99
0208829830999992001041900004-09370-040480FM-12+037099999V0200901N002612200019N0020001N1+02841+01431101101ADDAA199000091GA1001+999999999GF100991001001999999001001KA1240M+03321MA1999999096971MD1999999-0111REMSYN082AAXX  19004 82983 32995 00905 10284 20143 39697 40110 333 10332 29048 55083 59011;EQDQ01  00002PRCP99
0186829830999992001041912004-09370-040480FM-12+037099999V0200901N003110450019N0020001N1+02561+01931101381ADDAA199000091GF106991031011008001011021KA1240N+02341MA1999999097241MD1999999+0021REMSYN076AAXX  19124 82983 32595 60906 10256 20193 39724 40138 83112 333 20234 58002;EQDQ01  00002PRCP99
0167829830999992001041918004-09370-040480FM-12+037099999V0200501N003110075019N0020001N1+03201+01751100901ADDAA199000091GF107991051021008001031001MA1999999096811MD1999999+0081REMSYN070AAXX  19184 82983 32595 70506 10320 20175 39681 40090 85230 333 58008;EQDQ01  00002PRCP99
0208829830999992001042000004-09370-040480FM-12+037099999V0201401N001512200019N0020001N1+02871+01751101081ADDAA199000091GA1001+999999999GF100991001001999999001001KA1240M+03241MA1999999096951MD1999999-0021REMSYN082AAXX  20004 82983 32595 01403 10287 20175 39695 40108 333 10324 29083 55053 59002;EQDQ01  00002PRCP99
0186829830999992001042012004-09370-040480FM-12+037099999V0200901N003110075019N0020001N1+02561+01831101461ADDAA199000091GF106991061051008001001001KA1240N+02401MA1999999097321MD1999999+0081REMSYN076AAXX  20124 82983 32595 60906 10256 20183 39732 40146 86500 333 20240 58008;EQDQ01  00002PRCP99
0167829830999992001042018004-09370-040480FM-12+037099999V0200501N002612200019N0020001N1+03281+01821100921ADDAA199000091GF103991031011008001001001MA1999999096831MD1999999+0021REMSYN070AAXX  20184 82983 32595 30505 10328 20182 39683 40092 83100 333 58002;EQDQ01  00002PRCP99
0170829830999992001042100004-09370-040480FM-12+037099999V0209999C000012200019N0020001N1+02861+01751101111ADDAA199000091GF102991021011008001001001MA1999999096981REMSYN087AAXX  21004 82983 32595 20000 10286 20175 39698 40111 82100 333 1036 29052 55088 58003;EQDQ01  00002PRCP99
0186829830999992001042112004-09370-040480FM-12+037099999V0201401N003112200019N0020001N1+02761+02071101481ADDAA199000091GF104991041011008001001001KA1240N+02361MA1999999097361MD1999999+0041REMSYN076AAXX  21124 82983 32595 41406 10276 20207 39736 40148 84100 333 20236 58004;EQDQ01  00002PRCP99
0167829830999992001042118004-09370-040480FM-12+037099999V0200501N003110075019N0020001N1+02941+01851101021ADDAA199000091GF107991051011008001021001MA1999999096911MD1999999+0081REMSYN070AAXX  21184 82983 32595 70506 10294 20185 39691 40102 85120 333 58008;EQDQ01  00002PRCP99
0198829830999992001042200004-09370-040480FM-12+037099999V0200901N001510075019N0020001N1+02701+01991101141ADDAA199000091GF106991061021008001001001KA1240M+03281MA1999999097021MD1999999+0041REMSYN088AAXX  22004 82983 32595 60903 10270 20199 39702 40114 86200 333 10328 29062 55056 58004;EQDQ01  00002PRCP99
0201829830999992001042212004-09370-040480FM-12+037099999V0201401N003110075019N0020001N1+02601+02081101391ADDAA124000191AY121061AY251061GF105991051021008001001001KA1240N+02421MA1999999097241MD1999999-0121MW1031REMSYN088AAXX  22124 82983 21595 51406 10260 20208 39724 40139 70325 85200 333 20242 59012 69924;
0167829830999992001042218004-09370-040480FM-12+037099999V0200501N004110075019N0020001N1+03401+01681100861ADDAA199000091GF106991061021008001001001MA1999999096771MD1999999-0141REMSYN070AAXX  22184 82983 32595 60508 10340 20168 39677 40086 86200 333 59014;EQDQ01  00002PRCP99
0208829830999992001042300004-09370-040480FM-12+037099999V0200901N001512200019N0020001N1+02901+01481100981ADDAA199000091GA1001+999999999GF100991001001999999001001KA1240M+03501MA1999999096871MD1999999-0151REMSYN082AAXX  23004 82983 32995 00903 10290 20148 39687 40098 333 10350 29048 55069 59015;EQDQ01  00002PRCP99
0186829830999992001042312004-09370-040480FM-12+037099999V0201401N005112200019N0020001N1+02601+01891101421ADDAA199000091GF104991041021008001001001KA1240N+02261MA1999999097301MD1999999+0061REMSYN076AAXX  23124 82983 32595 41410 10260 20189 39730 40142 84200 333 20226 58006;EQDQ01  00002PRCP99
0167829830999992001042318004-09370-040480FM-12+037099999V0200501N005112200019N0020001N1+03381+01481100921ADDAA199000091GF102991021011008001001001MA1999999096831MD1999999+0081REMSYN070AAXX  23184 82983 32595 20510 10338 20148 39683 40092 82100 333 58008;EQDQ01  00002PRCP99
0208829830999992001042400004-09370-040480FM-12+037099999V0200901N004112200019N0020001N1+02901+01751101121ADDAA199000091GA1001+999999999GF100991001001999999001001KA1240M+03421MA1999999097001MD1999999+0131REMSYN082AAXX  24004 82983 32995 00908 10290 20175 39700 40112 333 10342 29049 55104 58013;EQDQ01  00002PRCP99
0196829830999992001042412004-09370-040480FM-12+037099999V0200901N005112200019N0020001N1+02661+01791101481ADDAA199000091GA1001+999999999GF100991001001999999001001KA1240N+02141MA1999999097361MD1999999+0061REMSYN070AAXX  24124 82983 32995 00910 10266 20179 39736 40148 333 20214 58006;EQDQ01  00002PRCP99
0167829830999992001042418004-09370-040480FM-12+037099999V0200901N005112200019N0020001N1+03221+01771101081ADDAA199000091GF104991041011008001001001MA1999999096951MD1999999+0121REMSYN070AAXX  24184 82983 32595 40910 10322 20177 39695 40108 84100 333 58012;EQDQ01  00002PRCP99
0198829830999992001042500004-09370-040480FM-12+037099999V0200901N002612200019N0020001N1+02801+01901101291ADDAA199000091GF102991021011008001001001KA1240M+03251MA1999999097171MD1999999+0171REMSYN088AAXX  25004 82983 32595 20905 10280 20190 39717 40129 82100 333 10325 29054 55110 58017;EQDQ01  00002PRCP99
0186829830999992001042512004-09370-040480FM-12+037099999V0200901N005112200019N0020001N1+02621+01561101671ADDAA199000091GF103991021011008001001011KA1240N+02191MA1999999097531MD1999999+0171REMSYN076AAXX  25124 82983 32595 30910 10262 20156 39753 40167 82101 333 20219 58017;EQDQ01  00002PRCP99
0167829830999992001042518004-09370-040480FM-12+037099999V0200901N003112200019N0020001N1+03351+01401101171ADDAA199000091GF103991011011008001001011MA1999999097071MD1999999+0121REMSYN070AAXX  25184 82983 32595 30906 10335 20140 39707 40117 81101 333 58012;EQDQ01  00002PRCP99
0198829830999992001042600004-09370-040480FM-12+037099999V0200901N002612200019N0020001N1+02921+01531101321ADDAA199000091GF102991021011008001001001KA1240M+03391MA1999999097201MD1999999+0031REMSYN088AAXX  26004 82983 32595 20905 10292 20153 39720 40132 82100 333 10339 29042 55103 58003;EQDQ01  00002PRCP99
0167829830999992001042618004-09370-040480FM-12+037099999V0200901N003110075019N0020001N1+03301+01681101111ADDAA199000091GF106991061021008001001001MA1999999096991MD1999999-0081REMSYN070AAXX  26184 82983 32595 60906 10330 20168 39699 40111 86200 333 59008;EQDQ01  00002PRCP99
0198829830999992001042700004-09370-040480FM-12+037099999V0200901N003112200019N0020001N1+02901+01551101241ADDAA199000091GF102991021011008001001001KA1240M+03341MA1999999097111MD1999999-0091REMSYN088AAXX  27004 82983 32595 20906 10290 20155 39711 40124 82100 333 10334 29033 55108 59009;EQDQ01  00002PRCP99
0186829830999992001042712004-09370-040480FM-12+037099999V0200901N005112200019N0020001N1+02621+01881101511ADDAA199000091GF104991041011008001001001KA1240N+02301MA1999999097381MD1999999-0061REMSYN076AAXX  27124 82983 32595 40910 10262 20188 39738 40151 84100 333 20230 59006;EQDQ01  00002PRCP99
0167829830999992001042718004-09370-040480FM-12+037099999V0200901N005110075019N0020001N1+02921+01921101151ADDAA199000091GF107991071021008001001001MA1999999097011MD1999999+0021REMSYN070AAXX  27184 82983 32595 70910 10292 20192 39701 40115 87200 333 58002;EQDQ01  00002PRCP99
0198829830999992001042800004-09370-040480FM-12+037099999V0201401N005110075019N0020001N1+02421+01991101421ADDAA199000091GF108991081051008001999999KA1240M+03061MA1999999097261MD1999999+0151REMSYN088AAXX  28004 82983 32595 81410 10242 20199 39726 40142 885// 333 10306 29068 55065 58015;EQDQ01  00002PRCP99
0186829830999992001042812004-09370-040480FM-12+037099999V0200901N004110075019N0020001N1+02581+01831101611ADDAA199000091GF108991081051008001999999KA1240N+02201MA1999999097441MD1999999+0061REMSYN076AAXX  28124 82983 32595 80908 10258 20183 39744 40161 885// 333 20220 58006;EQDQ01  00002PRCP99
0167829830999992001042818004-09370-040480FM-12+037099999V0200901N003112200019N0020001N1+03161+01601101181ADDAA199000091GF104991021011008001011001MA1999999097051MD1999999+0041REMSYN070AAXX  28184 82983 32595 40906 10316 20160 39705 40118 82110 333 58004;EQDQ01  00002PRCP99
0198829830999992001042900004-09370-040480FM-12+037099999V0200901N002610075019N0020001N1+02781+01731101341ADDAA199000091GF106991061041008001001001KA1240M+03281MA1999999097201MD1999999-0061REMSYN088AAXX  29004 82983 32595 60905 10278 20173 39720 40134 86400 333 10328 29053 55081 59006;EQDQ01  00002PRCP99
0186829830999992001042912004-09370-040480FM-12+037099999V0200901N004112200019N0020001N1+02541+01861101611ADDAA199000091GF104991041011008001001001KA1240N+02241MA1999999097461MD1999999+0021REMSYN076AAXX  29124 82983 32595 40908 10254 20186 39746 40161 84100 333 20224 58002;EQDQ01  00002PRCP99
0167829830999992001042918004-09370-040480FM-12+037099999V0200901N003112200019N0020001N1+03241+01671101081ADDAA199000091GF102991021011008001001001MA1999999096961MD1999999-0091REMSYN070AAXX  29184 82983 32595 20906 10324 20167 39696 40108 82100 333 59009;EQDQ01  00002PRCP99
0208829830999992001043000004-09370-040480FM-12+037099999V0200501N003112200019N0020001N1+02821+01511101231ADDAA199000091GA1001+999999999GF100991001001999999001001KA1240M+03281MA1999999097101MD1999999-0101REMSYN082AAXX  30004 82983 32995 00506 10282 20151 39710 40123 333 10328 29049 55097 59010;EQDQ01  00002PRCP99
0186829830999992001043012004-09370-040480FM-12+037099999V0200901N004110075019N0020001N1+02641+01801101411ADDAA199000091GF105991051011008001001001KA1240N+02241MA1999999097291MD1999999-0171REMSYN076AAXX  30124 82983 32595 50908 10264 20180 39729 40141 85100 333 20224 59017;EQDQ01  00002PRCP99
0167829830999992001043018004-09370-040480FM-12+037099999V0200501N003110075019N0020001N1+03121+01711101031ADDAA199000091GF105991051011008001001001MA1999999096921MD1999999-0041REMSYN070AAXX  30184 82983 32595 50506 10312 20171 39692 40103 85100 333 59004;EQDQ01  00002PRCP99
0198829830999992001050100004-09370-040480FM-12+037099999V0200901N002612200019N0020001N1+02761+01721101181ADDAA199000091GF102991021011008001001001KA1240M+03161MA1999999097051MD1999999-0051REMSYN088AAXX  01004 82983 32595 20905 10276 20172 39705 40118 82100 333 10316 29052 55082 59005;EQDQ01  00002PRCP99
0186829830999992001050112004-09370-040480FM-12+037099999V0200901N004110075019N0020001N1+02581+01941101401ADDAA199000091GF106991061011008001001001KA1240N+02281MA1999999097251MD1999999-0051REMSYN076AAXX  01124 82983 32595 60908 10258 20194 39725 40140 86100 333 20228 59005;EQDQ01  00002PRCP99
0167829830999992001050118004-09370-040480FM-12+037099999V0200501N003110075019N0020001N1+03321+01821100981ADDAA199000091GF106991061011008001001001MA1999999096871MD1999999-0051REMSYN070AAXX  01184 82983 32595 60506 10332 20182 39687 40098 86100 333 59005;EQDQ01  00002PRCP99
0198829830999992001050200004-09370-040480FM-12+037099999V0200901N005110075019N0020001N1+02521+02001101361ADDAA199000091GF106991061051008001001001KA1240M+03321MA1999999097201MD1999999+0151REMSYN088AAXX  02004 82983 32595 60910 10252 20200 39720 40136 86500 333 10332 29064 55087 58015;EQDQ01  00002PRCP99
0201829830999992001050212004-09370-040480FM-12+037099999V0201401N004110075019N0020001N1+02461+01971101601ADDAA124000591AY151061AY221061GF106991061011008001001001KA1240N+02261MA1999999097431MD1999999+0181MW1031REMSYN088AAXX  02124 82983 21595 61408 10246 20197 39743 40160 70352 86100 333 20226 58018 69944;
0167829830999992001050218004-09370-040480FM-12+037099999V0200501N003112200019N0020001N1+03181+01731101171ADDAA199000091GF104991041011008001001001MA1999999097041MD1999999+0171REMSYN070AAXX  02184 82983 32595 40506 10318 20173 39704 40117 84100 333 58017;EQDQ01  00002PRCP99
0208829830999992001050300004-09370-040480FM-12+037099999V0200901N003112200019N0020001N1+02801+01951101361ADDAA199000091GA1001+999999999GF100991001001999999001001KA1240M+03261MA1999999097211MD1999999+0011REMSYN082AAXX  03004 82983 32995 00906 10280 20195 39721 40136 333 10326 29059 55096 58001;EQDQ01  00002PRCP99
0186829830999992001050312004-09370-040480FM-12+037099999V0200901N003110075019N0020001N1+02541+02091101581ADDAA199000091GF108991081051008001999999KA1240N+02341MA1999999097431MD1999999+0001REMSYN076AAXX  03124 82983 32595 80906 10254 20209 39743 40158 885// 333 20234 58000;EQDQ01  00002PRCP99
0182829830999992001050318004-09370-040480FM-12+037099999V0200501N003112200019N0020001N1+03161+01861101091ADDAA106000791AY101061AY211061GF103991031011008001001001MA1999999096971MD1999999-0071MW1251REMSYN082AAXX  03184 82983 21595 30506 10316 20186 39697 40109 72501 83100 333 59007 69901;
0189829830999992001050400004-09370-040480FM-12+037099999V0200901N001512200019N0020001N1+02721+01621101301ADDAA199000021GA1001+999999999GF100991001001999999001001KA1240M+03221MA1999999097151MD1999999-0061REMSYN082AAXX  04004 82983 32995 00903 10272 20162 39715 40130 333 10322 29056 55075 59006;
0202829830999992001050412004-09370-040480FM-12+037099999V0200901N005110075019N0020001N1+02541+01981999999ADDAA199000091GF106991061021008001001001KA1240N+02131MA1999999097321MD1999999-0011REMSYN076AAXX  04124 82983 32595 60910 10254 20198 39732 40417 86200 333 20213 59001;EQDQ01  00002PRCP99Q02 104173APOSLP
0183829830999992001050418004-09370-040480FM-12+037099999V0200901N003112200019N0020001N1+03261+01381101002ADDAA199000091GF102991021011008001001001MA1999999096881MD1999999-0091REMSYN070AAXX  04184 82983 32595 20906 10326 20138 39688 40100 82100 333 59009;EQDQ01+101003APOSLPQ02  00002PRCP99
0198829830999992001050500004-09370-040480FM-12+037099999V0200901N001510075019N0020001N1+02801+01631101131ADDAA199000091GF105991051011008001001001KA1240M+03221MA1999999096991MD1999999-0161REMSYN088AAXX  05004 82983 32595 50903 10280 20163 39699 40113 85100 333 10322 29043 55109 59016;EQDQ01  00002PRCP99
0186829830999992001050512004-09370-040480FM-12+037099999V0200901N003110075019N0020001N1+02401+01861101411ADDAA199000091GF108991081051008001999999KA1240N+02221MA1999999097261MD1999999-0061REMSYN076AAXX  05124 82983 32595 80906 10240 20186 39726 40141 885// 333 20222 59006;EQDQ01  00002PRCP99
0167829830999992001050518004-09370-040480FM-12+037099999V0200901N002610450019N0020001N1+02101+01701100901ADDAA199000091GF106991041021008001031001MA1999999096781MD1999999-0101REMSYN070AAXX  05184 82983 32595 60905 10210 20170 39678 40090 84230 333 59010;EQDQ01  00002PRCP99
0198829830999992001050600004-09370-040480FM-12+037099999V0203601N001512200019N0020001N1+02701+01831101021ADDAA199000091GF102991021011008001001001KA1240M+03201MA1999999096881MD1999999-0111REMSYN088AAXX  06004 82983 32595 23603 10270 20183 39688 40102 82100 333 10320 29058 55051 59011;EQDQ01  00002PRCP99
0186829830999992001050612004-09370-040480FM-12+037099999V0200901N002612200019N0020001N1+02621+02031101341ADDAA199000091GF102991021011008001001001KA1240N+02281MA1999999097201MD1999999-0061REMSYN076AAXX  06124 82983 32595 20905 10262 20203 39720 40134 82100 333 20228 59006;EQDQ01  00002PRCP99
0167829830999992001050618004-09370-040480FM-12+037099999V0201401N001512200019N0020001N1+03481+01791100811ADDAA199000091GF104991041021008001001001MA1999999096731MD1999999-0051REMSYN070AAXX  06184 82983 32595 41403 10348 20179 39673 40081 84200 333 59005;EQDQ01  00002PRCP99
0198829830999992001050700004-09370-040480FM-12+037099999V0209999C000012200019N0020001N1+02941+01721100941ADDAA199000091GF102991021011008001001001KA1240M+03561MA1999999096851MD1999999-0031REMSYN088AAXX  07004 82983 32595 20000 10294 20172 39685 40094 82100 333 10356 29051 55107 59003;EQDQ01  00002PRCP99
0196829830999992001050712004-09370-040480FM-12+037099999V0203601N001512200019N0020001N1+02901+02021101231ADDAA199000091GA1001+999999999GF100991001001999999001001KA1240N+02391MA1999999097131MD1999999-0071REMSYN070AAXX  07124 82983 32995 03603 10290 20202 39713 40123 333 20239 59007;EQDQ01  00002PRCP99
0167829830999992001050718004-09370-040480FM-12+037099999V0200501N001510450019N0020001N1+03641+01701100721ADDAA199000091GF106991041021008001031001MA1999999096661MD1999999-0071REMSYN070AAXX  07184 82983 32595 60503 10364 20170 39666 40072 84230 333 59007;EQDQ01  00002PRCP99
0214829830999992001050800004-09370-040480FM-12+037099999V0209999C000012200019N0020001N1+03061+01871100841ADDAA199000091GF103991999011008001001001KA1240M+03721MA1999999096781MD1999999-0071REMSYN088AAXX  08004 82983 32595 30000 10306 20187 39678 40084 82100 333 10372 29047 55105 59007;EQDQ01+000022SCOTLCQ02  00002PRCP99
0202829830999992001050812004-09370-040480FM-12+037099999V0200901N003112200019N0020001N1+02801+02111101201ADDAA199000091GF102991999011008001001001KA1240N+02531MA1999999097111MD1999999-0021REMSYN076AAXX  08124 82983 32595 20906 10280 20211 39711 40120 83100 333 20253 59002;EQDQ01+000032SCOTLCQ02  00002PRCP99
0167829830999992001050818004-09370-040480FM-12+037099999V0200901N001510450019N0020001N1+03481+02001100731ADDAA199000091GF106991031021008001031011MA1999999096671MD1999999+0011REMSYN070AAXX  08184 82983 32595 60903 10348 20200 39667 40073 83231 333 58001;EQDQ01  00002PRCP99
0198829830999992001050900004-09370-040480FM-12+037099999V0200901N001510075019N0020001N1+03101+02001100931ADDAA199000091GF106991061021008001001001KA1240M+03541MA1999999096851MD1999999+0071REMSYN088AAXX  09004 82983 32595 60903 10310 20200 39685 40093 86200 333 10354 29053 55091 58007;EQDQ01  00002PRCP99
0186829830999992001050912004-09370-040480FM-12+037099999V0200501N001512200019N0020001N1+02901+02221101141ADDAA199000091GF104991031011008001031001KA1240N+02581MA1999999097071MD1999999-0041REMSYN076AAXX  09124 82983 32595 40503 10290 20222 39707 40114 83130 333 20258 59004;EQDQ01  00002PRCP99
0167829830999992001050918004-09370-040480FM-12+037099999V0203601N002610450019N0020001N1+03501+01901100641ADDAA199000091GF105991031021008001031001MA1999999096581MD1999999-0091REMSYN070AAXX  09184 82983 32595 53605 10350 20190 39658 40064 83230 333 59009;EQDQ01  00002PRCP99
0198829830999992001051000004-09370-040480FM-12+037099999V0200901N003112200019N0020001N1+03161+01961100761ADDAA199000091GF102991021011008001001001KA1240M+03601MA1999999096701MD1999999-0151REMSYN088AAXX  10004 82983 32595 20906 10316 20196 39670 40076 82100 333 10360 29051 55103 59015;EQDQ01  00002PRCP99
0186829830999992001051012004-09370-040480FM-12+037099999V0200501N003110075019N0020001N1+02701+02111101161ADDAA199000091GF108991081051008001999999KA1240N+02571MA1999999097071MD1999999+0001REMSYN076AAXX  10124 82983 32595 80506 10270 20211 39707 40116 885// 333 20257 58000;EQDQ01  00002PRCP99
0167829830999992001051018004-09370-040480FM-12+037099999V0200901N001510450019N0020001N1+03151+01971100841ADDAA199000091GF106991041021008001041999MA1999999096751MD1999999+0171REMSYN070AAXX  10184 82983 32595 60903 10315 20197 39675 40084 8424/ 333 58017;EQDQ01  00002PRCP99
0198829830999992001051100004-09370-040480FM-12+037099999V0201801N001512200019N0020001N1+02821+01971101001ADDAA199000091GF102991021011008001001001KA1240M+03201MA1999999096891MD1999999+0191REMSYN088AAXX  11004 82983 32595 21803 10282 20197 39689 40100 82100 333 10320 29060 55004 58019;EQDQ01  00002PRCP99
0186829830999992001051112004-09370-040480FM-12+037099999V0200901N003112200019N0020001N1+02921+02061101291ADDAA199000091GF104991041011008001001001KA1240N+02481MA1999999097181MD1999999+0111REMSYN076AAXX  11124 82983 32595 40906 10292 20206 39718 40129 84100 333 20248 58011;EQDQ01  00002PRCP99
0167829830999992001051118004-09370-040480FM-12+037099999V0203601N003110450019N0020001N1+03061+01801100701ADDAA199000091GF106991041021008001031001MA1999999096811MD1999999+0061REMSYN070AAXX  11184 82983 32595 63606 10306 20180 39681 40070 84230 333 58006;EQDQ01  00002PRCP99
0198829830999992001051200004-09370-040480FM-12+037099999V0200901N001510075019N0020001N1+02921+02041101101ADDAA199000091GF106991061021008001001001KA1240M+03441MA1999999097001MD1999999+0111REMSYN088AAXX  12004 82983 32595 60903 10292 20204 39700 40110 86200 333 10344 29056 55078 58011;EQDQ01  00002PRCP99
0186829830999992001051212004-09370-040480FM-12+037099999V0200501N003112200019N0020001N1+02901+01931101471ADDAA199000091GF103991011011008001031001KA1240N+02441MA1999999097351MD1999999+0171REMSYN076AAXX  12124 82983 32595 30506 10290 20193 39735 40147 81130 333 20244 58017;EQDQ01  00002PRCP99
0167829830999992001051218004-09370-040480FM-12+037099999V0203601N001510075019N0020001N1+03521+01741100961ADDAA199000091GF106991061021008001001001MA1999999096901MD1999999+0091REMSYN070AAXX  12184 82983 32595 63603 10352 20174 39690 40096 86200 333 58009;EQDQ01  00002PRCP99
0198829830999992001051300004-09370-040480FM-12+037099999V0200501N003110075019N0020001N1+02901+01781101181ADDAA199000091GF105991051021008001001001KA1240M+03661MA1999999097081MD1999999+0081REMSYN088AAXX  13004 82983 32595 50506 10290 20178 39708 40118 85200 333 10366 29048 55106 58008;EQDQ01  00002PRCP99
0186829830999992001051312004-09370-040480FM-12+037099999V0200901N003110075019N0020001N1+02701+02031101561ADDAA199000091GF105991051011008001001001KA1240N+02361MA1999999097441MD1999999+0091REMSYN076AAXX  13124 82983 32595 50906 10270 20203 39744 40156 85100 333 20236 58009;EQDQ01  00002PRCP99
0167829830999992001051318004-09370-040480FM-12+037099999V0201801N002612200019N0020001N1+03461+01781100991ADDAA199000091GF103991031011008001001001MA1999999096941MD1999999+0041REMSYN070AAXX  13184 82983 32595 31805 10346 20178 39694 40099 83100 333 58004;EQDQ01  00002PRCP99
0208829830999992001051400004-09370-040480FM-12+037099999V0200901N001512200019N0020001N1+03001+01781101011ADDAA199000091GA1001+999999999GF100991001001999999001001KA1240M+03561MA1999999096921MD1999999-0161REMSYN082AAXX  14004 82983 32995 00903 10300 20178 39692 40101 333 10356 29050 55106 59016;EQDQ01  00002PRCP99
0196829830999992001051412004-09370-040480FM-12+037099999V0200901N003112200019N0020001N1+02761+01971101481ADDAA199000091GA1001+999999999GF100991001001999999001001KA1240N+02441MA1999999097361MD1999999-0081REMSYN070AAXX  14124 82983 32995 00906 10276 20197 39736 40148 333 20244 59008;EQDQ01  00002PRCP99
0167829830999992001051418004-09370-040480FM-12+037099999V0200901N003112200019N0020001N1+03381+01831100861ADDAA199000091GF104991041011008001001001MA1999999096801MD1999999-0141REMSYN070AAXX  14184 82983 32595 40906 10338 20183 39680 40086 84100 333 59014;EQDQ01  00002PRCP99
0208829830999992001051500004-09370-040480FM-12+037099999V0200901N002612200019N0020001N1+02921+01531101081ADDAA199000091GA1001+999999999GF100991001001999999001001KA1240M+03461MA1999999096981MD1999999+0061REMSYN082AAXX  15004 82983 32995 00905 10292 20153 39698 40108 333 10346 29047 55106 58006;EQDQ01  00002PRCP99
0186829830999992001051512004-09370-040480FM-12+037099999V0200901N005110075019N0020001N1+02481+01831101511ADDAA199000091GF106991061021008001001001KA1240N+02261MA1999999097371MD1999999+0011REMSYN076AAXX  15124 82983 32595 60910 10248 20183 39737 40151 86200 333 20226 58001;EQDQ01  00002PRCP99
0208829830999992001051600004-09380-040480FM-12+037099999V0200501N002612200019N0020001N1+02881+01421101081ADDAA199000091GA1001+999999999GF100991001001999999001001KA1240M+03341MA1999999096951MD1999999-0031REMSYN082AAXX  16004 82983 32995 00505 10288 20142 39695 40108 333 10334 29046 55102 59003;EQDQ01  00002PRCP99
0186829830999992001051612004-09380-040480FM-12+037099999V0200901N005110075019N0020001N1+02661+01871101461ADDAA199000091GF106991061021008001001001KA1240N+02281MA1999999097341MD1999999-0031REMSYN076AAXX  16124 82983 32595 60910 10266 20187 39734 40146 86200 333 20228 59003;EQDQ01  00002PRCP99
0208829830999992001051700004-09370-040480FM-12+037099999V0200501N002612200019N0020001N1+02961+01571101131ADDAA199000091GA1001+999999999GF100991001001999999001001KA1240M+03421MA1999999097031MD1999999+0081REMSYN082AAXX  17004 82983 32995 00505 10296 20157 39703 40113 333 10342 29045 55105 58008;EQDQ01  00002PRCP99
0186829830999992001051712004-09370-040480FM-12+037099999V0200501N003112200019N0020001N1+02601+01801101541ADDAA199000091GF102991021011008001001011KA1240N+02261MA1999999097421MD1999999+0081REMSYN076AAXX  17124 82983 32595 20506 10260 20180 39742 40154 82101 333 20226 58008;EQDQ01  00002PRCP99
0167829830999992001051718004-09370-040480FM-12+037099999V0203601N002612200019N0020001N1+03341+01491101161ADDAA199000091GF102991021011008001001001MA1999999097061MD1999999+0201REMSYN070AAXX  17184 82983 32595 23605 10334 20149 39706 40116 82100 333 58020;EQDQ01  00002PRCP99
0198829830999992001051800004-09370-040480FM-12+037099999V0200501N001512200019N0020001N1+02901+01481101361ADDAA199000091GF103991031011008001001001KA1240M+03401MA1999999097241MD1999999+0211REMSYN088AAXX  18004 82983 32595 30503 10290 20148 39724 40136 83100 333 10340 29045 55107 58021;EQDQ01  00002PRCP99
0196829830999992001051812004-09370-040480FM-12+037099999V0200501N003112200019N0020001N1+02641+01831101661ADDAA199000091GA1001+999999999GF100991001001999999001001KA1240N+02161MA1999999097471MD1999999+0051REMSYN070AAXX  18124 82983 32995 00506 10264 20183 39747 40166 333 20216 58005;EQDQ01  00002PRCP99
0167829830999992001051818004-09370-040480FM-12+037099999V0203601N001512200019N0020001N1+03361+01651101051ADDAA199000091GF103991031011008001001001MA1999999096951MD1999999-0111REMSYN070AAXX  18184 82983 32595 33603 10336 20165 39695 40105 83100 333 59011;EQDQ01  00002PRCP99
0198829830999992001051900004-09370-040480FM-12+037099999V0201801N001510075019N0020001N1+02861+01751101251ADDAA199000091GF105991051011008001001001KA1240M+03501MA1999999097131MD1999999-0111REMSYN088AAXX  19004 82983 32595 51803 10286 20175 39713 40125 85100 333 10350 29050 55107 59011;EQDQ01  00002PRCP99
0196829830999992001051912004-09370-040480FM-12+037099999V0203601N001512200019N0020001N1+02781+01731101421ADDAA199000091GA1001+999999999GF100991001001999999001001KA1240N+02301MA1999999097311MD1999999-0161REMSYN070AAXX  19124 82983 32995 03603 10278 20173 39731 40142 333 20230 59016;EQDQ01  00002PRCP99
0167829830999992001051918004-09370-040480FM-12+037099999V0200501N001512200019N0020001N1+03441+01631100891ADDAA199000091GF102991021011008001001001MA1999999096811MD1999999-0141REMSYN070AAXX  19184 82983 32595 20503 10344 20163 39681 40089 82100 333 59014;EQDQ01  00002PRCP99
0198829830999992001052000004-09370-040480FM-12+037099999V0200501N001512200019N0020001N1+03061+01731101091ADDAA199000091GF103991031021008001001001KA1240M+03581MA1999999096991MD1999999-0141REMSYN088AAXX  20004 82983 32595 30503 10306 20173 39699 40109 83200 333 10358 29044 55107 59014;EQDQ01  00002PRCP99
0186829830999992001052012004-09370-040480FM-12+037099999V0200901N005110075019N0020001N1+02641+01881101441ADDAA199000091GF108991081051008001999999KA1240N+02531MA1999999097331MD1999999+0031REMSYN076AAXX  20124 82983 32595 80910 10264 20188 39733 40144 885// 333 20253 58003;EQDQ01  00002PRCP99
0167829830999992001052018004-09370-040480FM-12+037099999V0200901N005110075019N0020001N1+02741+01951101171ADDAA199000091GF107991071021008001001001MA1999999097041MD1999999+0231REMSYN070AAXX  20184 82983 32595 70910 10274 20195 39704 40117 87200 333 58023;EQDQ01  00002PRCP99
0198829830999992001052100004-09370-040480FM-12+037099999V0200901N003110075019N0020001N1+02601+01981101311ADDAA199000091GF107991071021008001001001KA1240M+03101MA1999999097161MD1999999+0271REMSYN088AAXX  21004 82983 32595 70906 10260 20198 39716 40131 87200 333 10310 29065 55021 58027;EQDQ01  00002PRCP99
0186829830999992001052112004-09370-040480FM-12+037099999V0200901N005112200019N0020001N1+02601+01741101571ADDAA199000091GF104991041011008001001001KA1240N+02201MA1999999097411MD1999999+0081REMSYN076AAXX  21124 82983 32595 40910 10260 20174 39741 40157 84100 333 20220 58008;EQDQ01  00002PRCP99
0167829830999992001052118004-09370-040480FM-12+037099999V0200501N003112200019N0020001N1+03181+01401101091ADDAA199000091GF103991031011008001001001MA1999999096971MD1999999-0071REMSYN070AAXX  21184 82983 32595 30506 10318 20140 39697 40109 83100 333 59007;EQDQ01  00002PRCP99
0208829830999992001052200004-09370-040480FM-12+037099999V0200901N005012200019N0020001N1+02701+01511101261ADDAA199000091GA1001+999999999GF100991001001999999001001KA1240M+03201MA1999999097121MD1999999-0041REMSYN082AAXX  22001 82983 32995 00905 10270 20151 39712 40126 333 10320 29047 55104 59004;EQDQ01  00002PRCP99
0186829830999992001052212004-09370-040480FM-12+037099999V0200901N005110075019N0020001N1+02461+01811101501ADDAA199000091GF106991061021008001001001KA1240N+02241MA1999999097401MD1999999-0011REMSYN076AAXX  22124 82983 32595 60910 10246 20181 39740 40150 86200 333 20224 59001;EQDQ01  00002PRCP99
0167829830999992001052218004-09370-040480FM-12+037099999V0200501N004112200019N0020001N1+02981+01691101161ADDAA199000091GF102991021011008001001001MA1999999097021MD1999999+0051REMSYN070AAXX  22184 82983 32595 20508 10298 20169 39702 40116 82100 333 58005;EQDQ01  00002PRCP99
0208829830999992001052300004-09370-040480FM-12+037099999V0200901N006012200019N0020001N1+02601+01681101311ADDAA199000091GA1001+999999999GF100991001001999999001001KA1240M+03041MA1999999097151MD1999999+0031REMSYN082AAXX  23000 82983 32995 00906 10260 20168 39715 40131 333 10304 29057 55080 58003;EQDQ01  00002PRCP99
0186829830999992001052312004-09370-040480FM-12+037099999V0200901N004110075019N0020001N1+02461+01781101571ADDAA199000091GF105991051011008001001001KA1240N+02121MA1999999097411MD1999999+0011REMSYN076AAXX  23124 82983 32595 50908 10246 20178 39741 40157 85100 333 20212 58001;EQDQ01  00002PRCP99
0167829830999992001052318004-09370-040480FM-12+037099999V0200501N003110075019N0020001N1+03161+01631101091ADDAA199000091GF105991051011008001001001MA1999999096951MD1999999-0071REMSYN070AAXX  23184 82983 32595 50506 10316 20163 39695 40109 85100 333 59007;EQDQ01  00002PRCP99
0198829830999992001052400004-09370-040480FM-12+037099999V0200901N003112200019N0020001N1+02621+01621101251ADDAA199000091GF101991011011008001001001KA1240M+03241MA1999999097111MD1999999-0041REMSYN088AAXX  24004 82983 32595 10906 10262 20162 39711 40125 81100 333 10324 29054 55096 59004;EQDQ01  00002PRCP99
0186829830999992001052412004-09370-040480FM-12+037099999V0200501N003112200019N0020001N1+02481+01731101651ADDAA199000091GF102991021011008001001001KA1240N+02181MA1999999097481MD1999999+0071REMSYN076AAXX  24124 82983 32595 20506 10248 20173 39748 40165 82100 333 20218 58007;EQDQ01  00002PRCP99
0177829830999992001052418004-09370-040480FM-12+037099999V0200501N003112200019N0020001N1+03221+01481101151ADDAA199000091GA1001+999999999GF100991001001999999001001MA1999999097031MD1999999+0081REMSYN064AAXX  24184 82983 32995 00506 10322 20148 39703 40115 333 58008;EQDQ01  00002PRCP99
0208829830999992001052500004-09370-040480FM-12+037099999V0200901N002612200019N0020001N1+02761+01391101271ADDAA199000091GA1001+999999999GF100991001001999999001001KA1240M+03261MA1999999097131MD1999999+0021REMSYN082AAXX  25004 82983 32995 00905 10276 20139 39713 40127 333 10326 29046 55108 58002;EQDQ01  00002PRCP99
0186829830999992001052512004-09370-040480FM-12+037099999V0200901N003110075019N0020001N1+02461+01811101631ADDAA199000091GF106991061021008001001001KA1240N+02221MA1999999097471MD1999999-0011REMSYN076AAXX  25124 82983 32595 60906 10246 20181 39747 40163 86200 333 20222 59001;EQDQ01  00002PRCP99
0167829830999992001052518004-09370-040480FM-12+037099999V0200501N002612200019N0020001N1+03161+01671101221ADDAA199000091GF103991031011008001001001MA1999999097091MD1999999+0031REMSYN070AAXX  25184 82983 32595 30505 10316 20167 39709 40122 83100 333 58003;EQDQ01  00002PRCP99
0198829830999992001052600004-09370-040480FM-12+037099999V0200901N002612200019N0020001N1+02801+01601101301ADDAA199000091GF103991031021008001001001KA1240M+03221MA1999999097161MD1999999+0031REMSYN088AAXX  26004 82983 32595 30905 10280 20160 39716 40130 83200 333 10322 29051 55098 58003;EQDQ01  00002PRCP99
0186829830999992001052612004-09370-040480FM-12+037099999V0200901N003110075019N0020001N1+02561+01881101501ADDAA199000091GF105991051011008001001001KA1240N+02261MA1999999097361MD1999999-0111REMSYN076AAXX  26124 82983 32595 50906 10256 20188 39736 40150 85100 333 20226 59011;EQDQ01  00002PRCP99
0167829830999992001052618004-09370-040480FM-12+037099999V0200501N002612200019N0020001N1+03221+01691100951ADDAA199000091GF103991031011008001001001MA1999999096851MD1999999-0241REMSYN070AAXX  26184 82983 32595 30505 10322 20169 39685 40095 83100 333 59024;EQDQ01  00002PRCP99
0213829830999992001052700004-09370-040480FM-12+037099999V0200901N002610075019N0020001N1+02681+01971101161ADDAA106000591AY151061AY221061GF105991051021008001001001KA1240M+03281MA1999999097021MD1999999-0141MW1011REMSYN100AAXX  27004 82983 21595 50905 10268 20197 39702 40116 70152 85200 333 10328 29059 55097 59014 69941;
0192829830999992001052712004-09370-040480FM-12+037099999V0200901N003119999999N0020001N1+02641+01881101501ADDAA124000591GF105991999011008001001001KA1240N+02361MA1999999097351MD1999999-0011REMSYN082AAXX  27124 82983 22595 50906 10264 20188 39735 40150 82100 333 20236 59001 69944;EQDQ01+000022SCOTLC
0167829830999992001052718004-09370-040480FM-12+037099999V0200501N002612200019N0020001N1+03341+01801100961ADDAA199000091GF102991021011008001001001MA1999999096871MD1999999+0021REMSYN070AAXX  27184 82983 32595 20505 10334 20180 39687 40096 82100 333 58002;EQDQ01  00002PRCP99
0208829830999992001052800004-09370-040480FM-12+037099999V0200901N002612200019N0020001N1+02941+01721101191ADDAA199000091GA1001+999999999GF100991001001999999001001KA1240M+03381MA1999999097091MD1999999+0081REMSYN082AAXX  28004 82983 32595 00905 10294 20172 39709 40119 333 10338 29050 55107 58008;EQDQ01  00002PRCP99
0186829830999992001052812004-09370-040480FM-12+037099999V0200901N003112200019N0020001N1+02681+01811101571ADDAA199000091GF104991041011008001001001KA1240N+02341MA1999999097451MD1999999+0101REMSYN076AAXX  28124 82983 32595 40906 10268 20181 39745 40157 84100 333 20234 58010;EQDQ01  00002PRCP99
0167829830999992001052818004-09370-040480FM-12+037099999V0200501N001510075019N0020001N1+03341+01751101091ADDAA199000091GF105991051021008001001001MA1999999096991MD1999999+0121REMSYN070AAXX  28184 82983 32595 50503 10334 20175 39699 40109 85200 333 58012;EQDQ01  00002PRCP99
0208829830999992001052900004-09370-040480FM-12+037099999V0200901N002612200019N0020001N1+02981+01761101191ADDAA199000091GA1001+999999999GF100991001001999999001001KA1240M+03361MA1999999097091MD1999999+0001REMSYN082AAXX  29004 82983 32995 00905 10298 20176 39709 40119 333 10336 29049 55107 58000;EQDQ01  00002PRCP99
0186829830999992001052912004-09370-040480FM-12+037099999V0200901N003110075019N0020001N1+02561+02021101661ADDAA199000091GF108991081051008001999999KA1240N+02401MA1999999097471MD1999999+0021REMSYN076AAXX  29124 82983 32595 80906 10256 20202 39747 40166 885// 333 20240 58002;EQDQ01  00002PRCP99
0167829830999992001052918004-09370-040480FM-12+037099999V0200901N002612200019N0020001N1+03181+01871101161ADDAA199000091GF103991031011008001001001MA1999999097061MD1999999+0071REMSYN070AAXX  29184 82983 32595 30905 10318 20187 39706 40116 83100 333 58007;EQDQ01  00002PRCP99
0208829830999992001053000004-09370-040480FM-12+037099999V0209999C000012200019N0020001N1+02841+01761101301ADDAA199000091GA1001+999999999GF100991001001999999001001KA1240M+03261MA1999999097161MD1999999+0071REMSYN082AAXX  30004 82983 32995 00000 10284 20176 39716 40130 333 10326 29056 55066 58007;EQDQ01  00002PRCP99
0186829830999992001053012004-09370-040480FM-12+037099999V0200501N003110075019N0020001N1+02601+01891101651ADDAA199000091GF106991061021008001001001KA1240N+02441MA1999999097511MD1999999+0041REMSYN076AAXX  30124 82983 32595 60506 10260 20189 39751 40165 86200 333 20244 58004;EQDQ01  00002PRCP99
0167829830999992001053018004-09370-040480FM-12+037099999V0203601N003112200019N0020001N1+03221+01771101131ADDAA199000091GF104991021011008001031001MA1999999097031MD1999999-0031REMSYN070AAXX  30184 82983 32595 43606 10322 20177 39703 40113 82130 333 59003;EQDQ01  00002PRCP99
0208829830999992001053100004-09370-040480FM-12+037099999V0200901N002612200019N0020001N1+02901+01551101221ADDAA199000091GA1001+999999999GF100991001001999999001001KA1240M+03261MA1999999097101MD1999999-0061REMSYN082AAXX  31004 82983 32995 00905 10290 20155 39710 40122 333 10326 29049 55073 59006;EQDQ01  00002PRCP99
0186829830999992001053112004-09370-040480FM-12+037099999V0200901N003110075019N0020001N1+02551+02001101571ADDAA199000091GF108991081051008001999999KA1240N+02411MA1999999097431MD1999999-0081REMSYN076AAXX  31124 82983 32595 80906 10255 20200 39743 40157 885// 333 20241 59008;EQDQ01  00002PRCP99
0167829830999992001053118004-09370-040480FM-12+037099999V0200501N004110450019N0020001N1+03101+01801101141ADDAA199000091GF106991031021008001031001MA1999999097021MD1999999-0011REMSYN070AAXX  31184 82983 32595 60508 10310 20180 39702 40114 83230 333 59001;EQDQ01  00002PRCP99
0198829830999992001060100004-09370-040480FM-12+037099999V0200901N003110075019N0020001N1+02641+01951101301ADDAA199000091GF106991061021008001001001KA1240M+03181MA1999999097161MD1999999+0061REMSYN088AAXX  01004 82983 32595 60906 10264 20195 39716 40130 86200 333 10318 29062 55056 58006;EQDQ01  00002PRCP99
0167829830999992001060118004-09370-040480FM-12+037099999V0200901N004110450019N0020001N1+02841+01821101351ADDAA199000091GF106991041021008001031001MA1999999097111MD1999999+0091REMSYN070AAXX  01184 82983 32595 60908 10284 20182 39711 40135 84230 333 58009;EQDQ01  00002PRCP99
0198829830999992001060200004-09370-040480FM-12+037099999V0200901N001512200019N0020001N1+02681+01701101361ADDAA199000091GF103991031011008001001001KA1240M+02901MA1999999097201MD1999999+0041REMSYN088AAXX  02004 82983 32595 30903 10268 20170 39720 40136 83100 333 10290 29059 55026 58004;EQDQ01  00002PRCP99
0186829830999992001060212004-09370-040480FM-12+037099999V0200901N005110075019N0020001N1+02521+01861101551ADDAA199000091GF106991061021008001001001KA1240N+02251MA1999999097391MD1999999+0001REMSYN076AAXX  02124 82983 32595 60910 10252 20186 39739 40155 86200 333 20225 58000;EQDQ01  00002PRCP99
0183829830999992001060218004-09370-040480FM-12+037099999V0200501N003119999999N0020001N1+03061+01701101201ADDAA199000091GF106991999021008001001001MA1999999097061MD1999999-0051REMSYN070AAXX  02184 82983 32595 60506 10306 20170 39706 40120 83200 333 59005;EQDQ01+000032SCOTLCQ02  00002PRCP99
0198829830999992001060300004-09370-040480FM-12+037099999V0200501N002612200019N0020001N1+02771+01531101301ADDAA199000091GF104991041021008001001001KA1240M+03111MA1999999097161MD1999999-0041REMSYN088AAXX  03004 82983 32595 40505 10277 20153 39716 40130 84200 333 10311 29051 55064 59004;EQDQ01  00002PRCP99
0186829830999992001060312004-09370-040480FM-12+037099999V0200901N004110075019N0020001N1+02601+01921101591ADDAA199000091GF106991061021008001001001KA1240N+02281MA1999999097451MD1999999+0061REMSYN076AAXX  03124 82983 32595 60908 10260 20192 39745 40159 86200 333 20228 58006;EQDQ01  00002PRCP99
0167829830999992001060318004-09370-040480FM-12+037099999V0200501N004110075019N0020001N1+03121+01821101191ADDAA199000091GF105991051011008001001001MA1999999097071MD1999999+0011REMSYN070AAXX  03184 82983 32595 50508 10312 20182 39707 40119 85100 333 58001;EQDQ01  00002PRCP99
0208829830999992001060400004-09370-040480FM-12+037099999V0200901N002612200019N0020001N1+02641+01541101381ADDAA199000091GA1001+999999999GF100991001001999999001001KA1240M+03181MA1999999097231MD1999999+0071REMSYN082AAXX  04004 82983 32995 00905 10264 20154 39723 40138 333 10318 29057 55079 58007;EQDQ01  00002PRCP99
0186829830999992001060412004-09370-040480FM-12+037099999V0200901N003110075019N0020001N1+02461+01901101661ADDAA199000091GF106991061021008001001001KA1240N+02321MA1999999097491MD1999999+0041REMSYN076AAXX  04124 82983 32595 60906 10246 20190 39749 40166 86200 333 20232 58004;EQDQ01  00002PRCP99
0167829830999992001060418004-09370-040480FM-12+037099999V0200501N005110075019N0020001N1+02781+02091101341ADDAA199000091GF107991071021008001001001MA1999999097181MD1999999+0111REMSYN070AAXX  04184 82983 32595 70510 10278 20209 39718 40134 87200 333 58011;EQDQ01  00002PRCP99
0213829830999992001060500004-09370-040480FM-12+037099999V0200901N001512200019N0020001N1+02361+01931101581ADDAA106001091AY161061AY211061GF103991031021008001001001KA1240M+03001MA1999999097401MD1999999+0171MW1011REMSYN100AAXX  05004 82983 21595 30903 10236 20193 39740 40158 70161 83200 333 10300 29073 55045 58017 60011;
0173829830999992001060512004-09370-040480FM-12+037099999V0200901N004112200019N0020001N1+02381+01891101721ADDAA124001091GF103991031011008001001001KA1240N+02001MA1999999097531MD1999999+0041REMSYN082AAXX  05124 82983 22595 30908 10238 20189 39753 40172 83100 333 20200 58004 60014;
0167829830999992001060518004-09370-040480FM-12+037099999V0200501N004112200019N0020001N1+03141+01451101331ADDAA199000091GF103991031011008001001001MA1999999097171MD1999999-0011REMSYN070AAXX  05184 82983 32595 30508 10314 20145 39717 40133 83100 333 59001;EQDQ01  00002PRCP99
0198829830999992001060600004-09370-040480FM-12+037099999V0200901N003112200019N0020001N1+02741+01511101431ADDAA199000091GF102991021011008001001001KA1240M+03181MA1999999097271MD1999999-0131REMSYN088AAXX  06004 82983 32595 20906 10274 20151 39727 40143 82100 333 10318 29051 55103 59013;EQDQ01  00002PRCP99
0202829830999992001060612004-09370-040480FM-12+037099999V0200901N005112200019N0020001N1+02461+01781101631ADDAA199000091GF103991999011008001001001KA1240N+02101MA1999999097471MD1999999-0061REMSYN076AAXX  06124 82983 32595 30910 10246 20178 39747 40163 84100 333 20210 59006;EQDQ01+000042SCOTLCQ02  00002PRCP99
0198829830999992001060700004-09370-040480FM-12+037099999V0200901N004112200019N0020001N1+02581+01741101541ADDAA199000091GF102991021011008001001001KA1240M+03181MA1999999097371MD1999999+0101REMSYN088AAXX  07004 82983 32595 20908 10258 20174 39737 40154 82100 333 10318 29056 55095 58010;EQDQ01  00002PRCP99
0186829830999992001060712004-09370-040480FM-12+037099999V0200901N004110075019N0020001N1+02541+01781101701ADDAA199000091GF105991051011008001001001KA1240N+02261MA1999999097531MD1999999+0061REMSYN076AAXX  07124 82983 32595 50908 10254 20178 39753 40170 85100 333 20226 58006;EQDQ01  00002PRCP99
0167829830999992001060718004-09370-040480FM-12+037099999V0200501N004110075019N0020001N1+02801+01871101351ADDAA199000091GF108991081051008001999999MA1999999097191MD1999999+0031REMSYN070AAXX  07184 82983 32595 80508 10280 20187 39719 40135 885// 333 58003;EQDQ01  00002PRCP99
0198829830999992001060800004-09370-040480FM-12+037099999V0200901N001510075019N0020001N1+02481+01961101531ADDAA199000091GF106991061011008001001001KA1240M+02941MA1999999097361MD1999999-0011REMSYN088AAXX  08004 82983 32595 60903 10248 20196 39736 40153 86100 333 10294 29066 55071 59001;EQDQ01  00002PRCP99
0186829830999992001060812004-09370-040480FM-12+037099999V0200901N004110075019N0020001N1+02281+01901101841ADDAA199000091GF107991071021008001001001KA1240N+02081MA1999999097651MD1999999+0121REMSYN076AAXX  08124 82983 32595 70908 10228 20190 39765 40184 87200 333 20208 58012;EQDQ01  00002PRCP99
0177829830999992001060818004-09370-040480FM-12+037099999V0200901N003112200019N0020001N1+03061+01201101391ADDAA199000091GA1001+999999999GF100991001001999999001001MA1999999097241MD1999999+0051REMSYN064AAXX  08184 82983 32995 00906 10306 20120 39724 40139 333 58005;EQDQ01  00002PRCP99
0208829830999992001060900004-09370-040480FM-12+037099999V0200501N003112200019N0020001N1+02621+01431101561ADDAA199000091GA1001+999999999GF100991001001999999001001KA1240M+03101MA1999999097381MD1999999+0021REMSYN082AAXX  09004 82983 32995 00506 10262 20143 39738 40156 333 10310 29052 55084 58002;EQDQ01  00002PRCP99
0156829830999992001060912004-09370-040480FM-12+037099999V0200901N005119999999N0020001N1+02381+99999999999ADDAA199000091GF106991999999008001999999KA1240N+02191REMSYN075AAXX  09124 82983 32595 60910 10238 2180 39756 40174 86200 333 20219 59009;EQDQ01  00002PRCP99
0167829830999992001060918004-09370-040480FM-12+037099999V0200501N005110075019N0020001N1+02821+01941101421ADDAA199000091GF106991061021008001001001MA1999999097261MD1999999+0021REMSYN070AAXX  09184 82983 32595 60510 10282 20194 39726 40142 86200 333 58002;EQDQ01  00002PRCP99
0213829830999992001061000004-09370-040480FM-12+037099999V0200901N004110075019N0020001N1+02201+02121101661ADDAA106007991AY121061AY221061GF108991081051008001999999KA1240M+02921MA1999999097461MD1999999+0081MW1601REMSYN100AAXX  10004 82983 21595 80908 10220 20212 39746 40166 76022 885// 333 10292 29080 55044 58008 60081;
0201829830999992001061012004-09370-040480FM-12+037099999V0200901N003110075019N0020001N1+02301+02011101821ADDAA124009991AY161061AY221061GF108991081051008001999999KA1240N+02121MA1999999097601MD1999999+0041MW1031REMSYN088AAXX  10124 82983 21595 80906 10230 20201 39760 40182 70362 885// 333 20212 58004 60104;
0182829830999992001061018004-09370-040480FM-12+037099999V0200501N005110075019N0020001N1+02721+02081101481ADDAA106001091AY161061AY261061GF106991061021008001001001MA1999999097301MD1999999+0041MW1031REMSYN082AAXX  10184 82983 21595 60510 10272 20208 39730 40148 70366 86200 333 58004 60011;
0213829830999992001061100004-09370-040480FM-12+037099999V0200901N003110075019N0020001N1+02401+01971101581ADDAA106003091AY161061AY261061GF105991051021008001001001KA1240M+02761MA1999999097391MD1999999-0071MW1031REMSYN100AAXX  11004 82983 21595 50906 10240 20197 39739 40158 70366 85200 333 10276 29077 55037 59007 60031;
0201829830999992001061112004-09370-040480FM-12+037099999V0200901N003110075019N0020001N1+02221+01921101711ADDAA124004191AY161061AY261061GF106991061021008001001001KA1240N+02031MA1999999097511MD1999999-0091MW1031REMSYN088AAXX  11124 82983 21595 60906 10222 20192 39751 40171 70366 86200 333 20203 59009 60044;
0167829830999992001061118004-09370-040480FM-12+037099999V0200501N005110075019N0020001N1+02801+01831101421ADDAA199000091GF108991081051008001999999MA1999999097251MD1999999-0051REMSYN070AAXX  11184 82983 32595 80510 10280 20183 39725 40142 885// 333 59005;EQDQ01  00002PRCP99
0198829830999992001061200004-09370-040480FM-12+037099999V0200901N003110075019N0020001N1+02421+01721101591ADDAA199000091GF106991061021008001001001KA1240M+02821MA1999999097391MD1999999+0001REMSYN088AAXX  12004 82983 32595 60906 10242 20172 39739 40159 86200 333 10282 29066 55032 58000;EQDQ01  00002PRCP99
0186829830999992001061212004-09370-040480FM-12+037099999V0200901N004112200019N0020001N1+02241+01501101791ADDAA199000091GF104991041011008001001001KA1240N+02061MA1999999097591MD1999999+0081REMSYN076AAXX  12124 82983 32595 40908 10224 20150 39759 40179 84100 333 20206 58008;EQDQ01  00002PRCP99
0215829830999992001061218004-09370-040480FM-12+037099999V0200501N005112200019N0020001N1+02881+01501101321ADDAA199000091GF104991999041008001001001MA1999999097201MD1999999+0061REMSYN070AAXX  12184 82983 32595 40510 10288 20150 39720 40270 87400 333 58006;EQDQ01+000072SCOTLCQ02+102703APOSLPQ03+999990APOSLPQ04  00002PRCP99
0198829830999992001061300004-09370-040480FM-12+037099999V0200901N003110075019N0020001N1+02581+01521101501ADDAA199000091GF105991051021008001001001KA1240M+02901MA1999999097321MD1999999-0071REMSYN088AAXX  13004 82983 32595 50906 10258 20152 39732 40150 85200 333 10290 29052 55099 59007;EQDQ01  00002PRCP99
0167829830999992001061318004-09370-040480FM-12+037099999V0200901N005112200019N0020001N1+03021+01351101341ADDAA199000091GF104991021011008001031001MA1999999097181MD1999999-0021REMSYN070AAXX  13184 82983 32595 40910 10302 20135 39718 40134 82130 333 59002;EQDQ01  00002PRCP99
0198829830999992001061400004-09370-040480FM-12+037099999V0200901N001512200019N0020001N1+02601+01541101481ADDAA199000091GF103991031011008001001001KA1240M+03081MA1999999097321MD1999999+0001REMSYN088AAXX  14004 82983 32595 30903 10260 20154 39732 40148 83100 333 10308 29052 55103 58000;EQDQ01  00002PRCP99
0186829830999992001061412004-09370-040480FM-12+037099999V0200501N005110075019N0020001N1+02341+01691101711ADDAA199000091GF107991071021008001001001KA1240N+02141MA1999999097531MD1999999+0001REMSYN076AAXX  14124 82983 32595 70510 10234 20169 39753 40171 87200 333 20214 58000;EQDQ01  00002PRCP99
0167829830999992001061418004-09370-040480FM-12+037099999V0200901N004110075019N0020001N1+02961+01461101221ADDAA199000091GF107991071021008001001001MA1999999097081MD1999999+0001REMSYN070AAXX  14184 82983 32595 70908 10296 20146 39708 40122 87200 333 58000;EQDQ01  00002PRCP99
0198829830999992001061500004-09370-040480FM-12+037099999V0200901N003110075019N0020001N1+02621+01621101411ADDAA199000091GF106991061021008001001001KA1240M+03001MA1999999097251MD1999999-0071REMSYN088AAXX  15004 82983 32595 60906 10262 20162 39725 40141 86200 333 10300 29054 55024 59007;EQDQ01  00002PRCP99
0186829830999992001061512004-09370-040480FM-12+037099999V0200901N004110075019N0020001N1+02261+01691101661ADDAA199000091GF107991071021008001001001KA1240N+02061MA1999999097481MD1999999-0051REMSYN076AAXX  15124 82983 32595 70908 10226 20169 39748 40166 87200 333 20206 59005;EQDQ01  00002PRCP99
0167829830999992001061518004-09370-040480FM-12+037099999V0200501N005110075019N0020001N1+02901+01591101241ADDAA199000091GF106991061011008001001001MA1999999097101MD1999999+0021REMSYN070AAXX  15184 82983 32595 60510 10290 20159 39710 40124 86100 333 58002;EQDQ01  00002PRCP99
0208829830999992001061600004-09370-040480FM-12+037099999V0200901N001512200019N0020001N1+02481+01371101411ADDAA199000091GA1001+999999999GF100991001001999999001001KA1240M+02961MA1999999097231MD1999999-0021REMSYN082AAXX  16004 82983 32995 00903 10248 20137 39723 40141 333 10296 29054 55089 59002;EQDQ01  00002PRCP99
0186829830999992001061612004-09370-040480FM-12+037099999V0200901N004112200019N0020001N1+02381+01751101561ADDAA199000091GF102991021011008001001001KA1240N+02001MA1999999097431MD1999999-0051REMSYN076AAXX  16124 82983 32595 20908 10238 20175 39743 40156 82100 333 20200 59005;EQDQ01  00002PRCP99
0167829830999992001061618004-09370-040480FM-12+037099999V0200901N003110075019N0020001N1+02821+01891101271ADDAA199000091GF106991061021008001001001MA1999999097111MD1999999+0011REMSYN070AAXX  16184 82983 32595 60906 10282 20189 39711 40127 86200 333 58001;EQDQ01  00002PRCP99
0198829830999992001061700004-09370-040480FM-12+037099999V0200901N003110075019N0020001N1+02401+01971101431ADDAA199000091GF106991061021008001001001KA1240M+02861MA1999999097251MD1999999+0021REMSYN088AAXX  17004 82983 32595 60906 10240 20197 39725 40143 86200 333 10286 29070 55054 58002;EQDQ01  00002PRCP99
0201829830999992001061712004-09370-040480FM-12+037099999V0200901N004110075019N0020001N1+02361+01931101601ADDAA124000891AY151061AY221061GF106991061011008001001001KA1240N+02101MA1999999097421MD1999999-0011MW1031REMSYN088AAXX  17124 82983 21595 60908 10236 20193 39742 40160 70352 86100 333 20210 59001 69984;
0208829830999992001061800004-09370-040480FM-12+037099999V0200901N003112200019N0020001N1+02381+01951101441ADDAA199000091GA1001+999999999GF100991001001999999001001KA1240M+03021MA1999999097261MD1999999+0011REMSYN082AAXX  18004 82983 32995 00906 10238 20195 39726 40144 333 10302 29070 55091 58001;EQDQ01  00002PRCP99
0186829830999992001061812004-09370-040480FM-12+037099999V0201401N004110075019N0020001N1+02361+01781101671ADDAA199000091GF105991051021008001001001KA1240N+02021MA1999999097481MD1999999+0061REMSYN076AAXX  18124 82983 32595 51408 10236 20178 39748 40167 85200 333 20202 58006;EQDQ01  00002PRCP99
0167829830999992001061818004-09370-040480FM-12+037099999V0200501N005112200019N0020001N1+02941+01481101231ADDAA199000091GF102991021011008001001001MA1999999097091MD1999999-0011REMSYN070AAXX  18184 82983 32595 20510 10294 20148 39709 40123 82100 333 59001;EQDQ01  00002PRCP99
0208829830999992001061900004-09370-040480FM-12+037099999V0200901N003112200019N0020001N1+02461+01681101491ADDAA199000091GA1001+999999999GF100991001001999999001001KA1240M+03001MA1999999097311MD1999999+0051REMSYN082AAXX  19004 82983 32995 00906 10246 20168 39731 40149 333 10300 29059 55106 58005;EQDQ01  00002PRCP99
0186829830999992001061912004-09370-040480FM-12+037099999V0200901N003112200019N0020001N1+02321+01871101761ADDAA199000091GF102991021011008001001001KA1240N+01941MA1999999097571MD1999999+0091REMSYN076AAXX  19124 82983 32595 20906 10232 20187 39757 40176 82100 333 20194 58009;EQDQ01  00002PRCP99
0167829830999992001061918004-09370-040480FM-12+037099999V0200501N004112200019N0020001N1+02961+01571101261ADDAA199000091GF103991031011008001001001MA1999999097111MD1999999+0021REMSYN070AAXX  19184 82983 32595 30508 10296 20157 39711 40126 83100 333 58002;EQDQ01  00002PRCP99
0208829830999992001062000004-09370-040480FM-12+037099999V0200901N002612200019N0020001N1+02521+01581101471ADDAA199000091GA1001+999999999GF100991001001999999001001KA1240M+03001MA1999999097291MD1999999-0021REMSYN082AAXX  20004 82983 32995 00905 10252 20158 39729 40147 333 10300 29058 55104 59002;EQDQ01  00002PRCP99
0186829830999992001062012004-09370-040480FM-12+037099999V0200901N004112200019N0020001N1+02361+01731101821ADDAA199000091GF102991021011008001001001KA1240N+02001MA1999999097631MD1999999+0061REMSYN076AAXX  20124 82983 32595 20908 10236 20173 39763 40182 82100 333 20200 58006;EQDQ01  00002PRCP99
0167829830999992001062018004-09370-040480FM-12+037099999V0200501N004112200019N0020001N1+02881+01571101421ADDAA199000091GF104991041011008001001001MA1999999097261MD1999999+0151REMSYN070AAXX  20184 82983 32595 40508 10288 20157 39726 40142 84100 333 58015;EQDQ01  00002PRCP99
0208829830999992001062100004-09370-040480FM-12+037099999V0200901N003112200019N0020001N1+02441+01661101621ADDAA199000091GA1001+999999999GF100991001001999999001001KA1240M+02961MA1999999097551MD1999999+0151REMSYN082AAXX  21004 82983 32995 00906 10244 20166 39755 40162 333 10296 29059 55096 58015;EQDQ01  00002PRCP99
0186829830999992001062112004-09370-040480FM-12+037099999V0200901N002610450019N0020001N1+02401+01751101751ADDAA199000091GF106991021021008001031001KA1240N+02071MA1999999097561MD1999999-0071REMSYN076AAXX  21124 82983 32595 60905 10240 20175 39756 40175 82230 333 20207 59007;EQDQ01  00002PRCP99
0167829830999992001062118004-09370-040480FM-12+037099999V0200501N004110450019N0020001N1+02981+01691101321ADDAA199000091GF106991031011008001031001MA1999999097161MD1999999-0101REMSYN070AAXX  21184 82983 32595 60508 10298 20169 39716 40132 83130 333 59010;EQDQ01  00002PRCP99
0208829830999992001062200004-09370-040480FM-12+037099999V0200901N003112200019N0020001N1+02581+01611101571ADDAA199000091GA1001+999999999GF100991001001999999001001KA1240M+03001MA1999999097401MD1999999-0041REMSYN082AAXX  22004 82983 32995 00906 10258 20161 39740 40157 333 10300 29056 55087 59004;EQDQ01  00002PRCP99
0186829830999992001062212004-09370-040480FM-12+037099999V0200901N003110075019N0020001N1+02301+01791101881ADDAA199000091GF108991081051008001999999KA1240N+02151MA1999999097691MD1999999+0131REMSYN076AAXX  22124 82983 32595 80906 10230 20179 39769 40188 885// 333 20215 58013;EQDQ01  00002PRCP99
0177829830999992001062218004-09370-040480FM-12+037099999V0200901N004112200019N0020001N1+02981+01691101451ADDAA199000091GA1001+999999999GF100991001001999999001001MA1999999097321MD1999999+0161REMSYN064AAXX  22184 82983 32995 00908 10298 20169 39732 40145 333 58016;EQDQ01  00002PRCP99
0198829830999992001062300004-09370-040480FM-12+037099999V0200901N003110075019N0020001N1+02501+01941101591ADDAA199000091GF105991051021008001001001KA1240M+03041MA1999999097411MD1999999+0011REMSYN088AAXX  23004 82983 32595 50906 10250 20194 39741 40159 85200 333 10304 29065 55062 58001;EQDQ01  00002PRCP99
0201829830999992001062312004-09370-040480FM-12+037099999V0201401N003110075019N0020001N1+02181+02011101871ADDAA124005191AY121061AY261061GF108991081051008001999999KA1240N+02071MA1999999097671MD1999999-0021MW1031REMSYN088AAXX  23124 82983 21595 81406 10218 20201 39767 40187 70326 885// 333 20207 59002 60054;
0182829830999992001062318004-09370-040480FM-12+037099999V0200901N003110075019N0020001N1+02401+02111101541ADDAA106001091AY161061AY261061GF106991061021008001001001MA1999999097341MD1999999+0021MW1031REMSYN082AAXX  23184 82983 21595 60906 10240 20211 39734 40154 70366 86200 333 58002 60011;
0198829830999992001062400004-09370-040480FM-12+037099999V0200901N002612200019N0020001N1+02301+01791101641ADDAA199000091GF104991041011008001001001KA1240M+02741MA1999999097441MD1999999+0031REMSYN088AAXX  24004 82983 32595 40905 10230 20179 39744 40164 84100 333 10274 29080 55045 58003;EQDQ01  00002PRCP99
0201829830999992001062412004-09370-040480FM-12+037099999V0200901N002610075019N0020001N1+02021+01951101891ADDAA124005191AY161061AY261061GF108991081051008001999999KA1240N+01991MA1999999097661MD1999999-0011MW1501REMSYN088AAXX  24124 82983 21595 80905 10202 20195 39766 40189 75066 885// 333 20199 59001 60054;
0201829830999992001062418004-09370-040480FM-12+037099999V0200901N001510075019N0020001N1+02461+01971101681ADDAA106003091AY161061AY261061GF107991999021008001001001MA1999999097461MD1999999+0161MW1031REMSYN082AAXX  24184 82983 21595 70903 10246 20197 39746 40168 70366 86200 333 58016 60031;EQDQ01+000062SCOTLC
0189829830999992001062500004-09370-040480FM-12+037099999V0200901N002612200019N0020001N1+02281+02011101751ADDAA199000021GA1001+999999999GF100991001001999999001001KA1240M+02641MA1999999097531MD1999999+0091REMSYN082AAXX  25004 82983 32595 00905 10228 20201 39753 40175 333 10264 29085 55030 58009;
0173829830999992001062512004-09370-040480FM-12+037099999V0200901N005110075019N0020001N1+02221+01761101991ADDAA124003091GF107991071021008001001001KA1240N+01911MA1999999097771MD1999999+0111REMSYN082AAXX  25124 82983 22595 70910 10222 20176 39777 40199 87200 333 20191 58011 60034;
0167829830999992001062518004-09370-040480FM-12+037099999V0200501N005110075019N0020001N1+02881+01641101641ADDAA199000091GF106991061021008001001001MA1999999097461MD1999999+0001REMSYN070AAXX  25184 82983 32595 60510 10288 20164 39746 40164 86200 333 58000;EQDQ01  00002PRCP99
0186829830999992001062612004-09370-040480FM-12+037099999V0200901N005112200019N0020001N1+02401+01651102021ADDAA199000091GF102991021011008001001001KA1240N+02001MA1999999097821MD1999999+0051REMSYN076AAXX  26124 82983 32595 20910 10240 20165 39782 40202 82100 333 20200 58005;EQDQ01  00002PRCP99
0167829830999992001062618004-09370-040480FM-12+037099999V0200901N004112200019N0020001N1+02901+01551101691ADDAA199000091GF102991021011008001001001MA1999999097511MD1999999+0051REMSYN070AAXX  26184 82983 32595 20908 10290 20155 39751 40169 82100 333 58005;EQDQ01  00002PRCP99
0208829830999992001062700004-09370-040480FM-12+037099999V0200901N003112200019N0020001N1+02441+01641101821ADDAA199000091GA1001+999999999GF100991001001999999001001KA1240M+02921MA1999999097631MD1999999+0041REMSYN082AAXX  27004 82983 32995 00906 10244 20164 39763 40182 333 10292 29057 55107 58004;EQDQ01  00002PRCP99
0186829830999992001062712004-09370-040480FM-12+037099999V0200901N004110075019N0020001N1+02361+01891101861ADDAA199000091GF108991081051008001999999KA1240N+02161MA1999999097671MD1999999-0051REMSYN076AAXX  27124 82983 32595 80908 10236 20189 39767 40186 885// 333 20216 59005;EQDQ01  00002PRCP99
0167829830999992001062718004-09370-040480FM-12+037099999V0200501N003110075019N0020001N1+02901+01901101491ADDAA199000091GF106991061021008001001001MA1999999097331MD1999999-0181REMSYN070AAXX  27184 82983 32595 60506 10290 20190 39733 40149 86200 333 59018;EQDQ01  00002PRCP99
0198829830999992001062800004-09370-040480FM-12+037099999V0200901N003110075019N0020001N1+02461+01971101661ADDAA199000091GF106991061021008001001001KA1240M+02961MA1999999097481MD1999999-0151REMSYN088AAXX  28004 82983 32595 60906 10246 20197 39748 40166 86200 333 10296 29070 55039 59015;EQDQ01  00002PRCP99
0201829830999992001062812004-09370-040480FM-12+037099999V0201401N004110075019N0020001N1+02201+01991101771ADDAA124006191AY161061AY221061GF106991061021008001001001KA1240N+02161MA1999999097571MD1999999-0101MW1031REMSYN088AAXX  28124 82983 21595 61408 10220 20199 39757 40177 70362 86200 333 20216 59010 60064;
0167829830999992001062818004-09370-040480FM-12+037099999V0200901N002610075019N0020001N1+02781+01931101421ADDAA199000091GF105991051011008001001001MA1999999097251MD1999999-0081REMSYN070AAXX  28184 82983 32595 50905 10278 20193 39725 40142 85100 333 59008;EQDQ01  00002PRCP99
0226829830999992001062900004-09370-040480FM-12+037099999V0200901N002610075019N0020001N1+02241+02121101721ADDAA106003091AY151061AY211061GF108991081051008001999999KA1240M+02861MA1999999097511MD1999999+0031REMSYN100AAXX  29004 82983 21595 80905 10224 20212 39751 40172 75651 885// 333 10286 29084 55026 58003 60031;EQDQ01+000562PRSWM1
0214829830999992001062912004-09370-040480FM-12+037099999V0201401N004110075019N0020001N1+02281+01941101851ADDAA124007191AY101061AY231061GF106991061021008001001001KA1240N+02121MA1999999097631MD1999999+0061REMSYN088AAXX  29124 82983 21595 61408 10228 20194 39763 40185 75603 86200 333 20212 58006 60074;EQDQ01+000562PRSWM1
0167829830999992001062918004-09370-040480FM-12+037099999V0200901N004110075019N0020001N1+02781+01701101491ADDAA199000091GF106991061021008001001001MA1999999097321MD1999999+0071REMSYN070AAXX  29184 82983 32595 60908 10278 20170 39732 40149 86200 333 58007;EQDQ01  00002PRCP99
0208829830999992001063000004-09370-040480FM-12+037099999V0200901N002612200019N0020001N1+02301+01791101561ADDAA199000091GA1001+999999999GF100991001001999999001001KA1240M+02781MA1999999097631MD1999999-0151REMSYN082AAXX  30004 82983 32995 00905 10230 20179 39763 40156 333 10278 29070 55054 59015;EQDQ01  00002PRCP99
0186829830999992001063012004-09370-040480FM-12+037099999V0201401N004112200019N0020001N1+02281+01771101811ADDAA199000091GF106991041011008001001011KA1240N+02001MA1999999097601MD1999999-0031REMSYN076AAXX  30124 82983 32595 61408 10228 20177 39760 40181 84101 333 20200 59003;EQDQ01  00002PRCP99
0167829830999992001063018004-09370-040480FM-12+037099999V0200501N003110075019N0020001N1+02881+01591101351ADDAA199000091GF105991051011008001001001MA1999999097181MD1999999-0141REMSYN070AAXX  30184 82983 32595 50506 10288 20159 39718 40135 85100 333 59014;EQDQ01  00002PRCP99
0198829830999992001070100004-09370-040480FM-12+037099999V0200901N003112200019N0020001N1+02441+01691101181ADDAA199000091GF102991021011008001001001KA1240M+02921MA1999999097301MD1999999-0061REMSYN088AAXX  01004 82983 32595 20906 10244 20169 39730 40118 82100 333 10292 29061 55103 59006;EQDQ01  00002PRCP99
0186829830999992001070112004-09370-040480FM-12+037099999V0201401N003110075019N0020001N1+02301+01751101721ADDAA199000091GF106991061011008001001001KA1240N+02061MA1999999097531MD1999999-0071REMSYN076AAXX  01124 82983 32595 61406 10230 20175 39753 40172 86100 333 20206 59007;EQDQ01  00002PRCP99
0167829830999992001070118004-09370-040480FM-12+037099999V0200501N003110075019N0020001N1+02741+01671101341ADDAA199000091GF108991081051008001999999MA1999999097161MD1999999-0021REMSYN070AAXX  01184 82983 32595 80506 10274 20167 39716 40134 885// 333 59002;EQDQ01  00002PRCP99
0198829830999992001070200004-09370-040480FM-12+037099999V0200901N003110075019N0020001N1+02461+01811101571ADDAA199000091GF108991081051008001999999KA1240M+02781MA1999999097391MD1999999+0091REMSYN088AAXX  02004 82983 32595 80906 10246 20181 39739 40157 885// 333 10278 29064 55049 58009;EQDQ01  00002PRCP99
0186829830999992001070212004-09370-040480FM-12+037099999V0201401N003110075019N0020001N1+02281+01811101811ADDAA199000091GF106991061011008001001001KA1240N+02081MA1999999097611MD1999999+0081REMSYN076AAXX  02124 82983 32595 61406 10228 20181 39761 40181 86100 333 20208 58008;EQDQ01  00002PRCP99
0167829830999992001070218004-09370-040480FM-12+037099999V0200501N003112200019N0020001N1+02881+01671101421ADDAA199000091GF103991031011008001001001MA1999999097261MD1999999+0101REMSYN070AAXX  02184 82983 32595 30506 10288 20167 39726 40142 83100 333 58010;EQDQ01  00002PRCP99
0208829830999992001070300004-09370-040480FM-12+037099999V0200901N003112200019N0020001N1+02441+01661101641ADDAA199000091GA1001+999999999GF100991001001999999001001KA1240M+02881MA1999999097451MD1999999+0061REMSYN082AAXX  03004 82983 32995 00906 10244 20166 39745 40164 333 10288 29062 55096 58006;EQDQ01  00002PRCP99
0186829830999992001070312004-09370-040480FM-12+037099999V0200501N003110075019N0020001N1+02361+01851101881ADDAA199000091GF107991071021008001001001KA1240N+01951MA1999999097691MD1999999-0081REMSYN076AAXX  03124 82983 32595 70506 10236 20185 39769 40188 87200 333 20195 59008;EQDQ01  00002PRCP99
0167829830999992001070318004-09370-040480FM-12+037099999V0200501N003110075019N0020001N1+02961+01741101441ADDAA199000091GF106991061021008001001001MA1999999097281MD1999999+0021REMSYN070AAXX  03184 82983 32595 60506 10296 20174 39728 40144 86200 333 58002;EQDQ01  00002PRCP99
0198829830999992001070400004-09370-040480FM-12+037099999V0200901N003110075019N0020001N1+02661+01711101641ADDAA199000091GF106991061021008001001001KA1240M+03001MA1999999097471MD1999999+0021REMSYN088AAXX  04004 82983 32595 60906 10266 20171 39747 40164 86200 333 10300 29058 55089 58002;EQDQ01  00002PRCP99
0186829830999992001070412004-09370-040480FM-12+037099999V0200901N003110075019N0020001N1+02281+01811101801ADDAA199000091GF105991051011008001001001KA1240N+02021MA1999999097611MD1999999-0081REMSYN076AAXX  04124 82983 32595 50906 10228 20181 39761 40180 85100 333 20202 59008;EQDQ01  00002PRCP99
0167829830999992001070418004-09370-040480FM-12+037099999V0200501N003110075019N0020001N1+03051+01641101381ADDAA199000091GF106991061021008001001001MA1999999097221MD1999999-0061REMSYN070AAXX  04184 82983 32595 60506 10305 20164 39722 40138 86200 333 59006;EQDQ01  00002PRCP99
0198829830999992001070500004-09370-040480FM-12+037099999V0200901N003112200019N0020001N1+02601+01841101571ADDAA199000091GF104991021011008001031001KA1240M+03101MA1999999097391MD1999999-0081REMSYN088AAXX  05004 82983 32595 40906 10260 20184 39739 40157 82130 333 10310 29061 55101 59008;EQDQ01  00002PRCP99
0186829830999992001070512004-09370-040480FM-12+037099999V0200901N003110075019N0020001N1+02381+01861101791ADDAA199000091GF106991061021008001001001KA1240N+02111MA1999999097611MD1999999+0001REMSYN076AAXX  05124 82983 32595 60906 10238 20186 39761 40179 86200 333 20211 58000;EQDQ01  00002PRCP99
0167829830999992001070518004-09370-040480FM-12+037099999V0200501N005110075019N0020001N1+02881+01771101501ADDAA199000091GF106991061021008001001001MA1999999097341MD1999999+0121REMSYN070AAXX  05184 82983 32595 60510 10288 20177 39734 40150 86200 333 58012;EQDQ01  00002PRCP99
0208829830999992001070600004-09370-040480FM-12+037099999V0200901N003112200019N0020001N1+02501+01821101601ADDAA199000091GA1001+999999999GF100991001001999999001001KA1240M+02941MA1999999097421MD1999999+0031REMSYN082AAXX  06004 82983 32995 00906 10250 20182 39742 40160 333 10294 29064 55095 58003;EQDQ01  00002PRCP99
0186829830999992001070612004-09370-040480FM-12+037099999V0200901N003110075019N0020001N1+02321+01811101741ADDAA199000091GF108991081051008001999999KA1240N+02221MA1999999097551MD1999999+0061REMSYN076AAXX  06124 82983 32595 80906 10232 20181 39755 40174 885// 333 20222 58006;EQDQ01  00002PRCP99
0167829830999992001070618004-09370-040480FM-12+037099999V0200901N005110075019N0020001N1+02441+01921101471ADDAA199000091GF106991061021008001001001MA1999999097281MD1999999-0061REMSYN070AAXX  06184 82983 32595 60910 10244 20192 39728 40147 86200 333 59006;EQDQ01  00002PRCP99
0198829830999992001070700004-09370-040480FM-12+037099999V0200501N003110075019N0020001N1+02461+01881101571ADDAA199000091GF106991061021008001001001KA1240M+02691MA1999999097391MD1999999-0031REMSYN088AAXX  07004 82983 32595 60506 10246 20188 39739 40157 86200 333 10269 29072 55019 59003;EQDQ01  00002PRCP99
0186829830999992001070712004-09370-040480FM-12+037099999V0200901N003110075019N0020001N1+02381+01841101781ADDAA199000091GF106991061021008001001001KA1240N+02091MA1999999097591MD1999999+0041REMSYN076AAXX  07124 82983 32595 60906 10238 20184 39759 40178 86200 333 20209 58004;EQDQ01  00002PRCP99
0167829830999992001070718004-09370-040480FM-12+037099999V0200501N004110075019N0020001N1+02921+01741101441ADDAA199000091GF106991061021008001001001MA1999999097281MD1999999+0001REMSYN070AAXX  07184 82983 32595 60508 10292 20174 39728 40144 86200 333 58000;EQDQ01  00002PRCP99
0198829830999992001070800004-09370-040480FM-12+037099999V0200901N006710075019N0020001N1+02301+01921101671ADDAA199000091GF108991081051008001999999KA1240M+02981MA1999999097481MD1999999+0091REMSYN088AAXX  08004 82983 32595 80913 10230 20192 39748 40167 885// 333 10298 29079 55050 58009;EQDQ01  00002PRCP99
0201829830999992001070812004-09370-040480FM-12+037099999V0200901N005110075019N0020001N1+02241+01821101921ADDAA124000591AY121061AY261061GF108991081051008001999999KA1240N+02011MA1999999097701MD1999999+0111MW1031REMSYN088AAXX  08124 82983 21595 80910 10224 20182 39770 40192 70326 885// 333 20201 58011 69944;
0167829830999992001070818004-09370-040480FM-12+037099999V0200901N005110075019N0020001N1+02801+01721101601ADDAA199000091GF106991061021008001001001MA1999999097431MD1999999+0151REMSYN070AAXX  08184 82983 32595 60910 10280 20172 39743 40160 86200 333 58015;EQDQ01  00002PRCP99
0198829830999992001070900004-09370-040480FM-12+037099999V0200901N005110075019N0020001N1+02341+01691101761ADDAA199000091GF106991061021008001001001KA1240M+02821MA1999999097551MD1999999+0071REMSYN088AAXX  09004 82983 32595 60910 10234 20169 39755 40176 86200 333 10282 29066 55043 58007;EQDQ01  00002PRCP99
0186829830999992001070912004-09370-040480FM-12+037099999V0200901N004110075019N0020001N1+02201+01741101831ADDAA199000091GF108991081051008001999999KA1240N+02041MA1999999097611MD1999999-0091REMSYN076AAXX  09124 82983 32595 80908 10220 20174 39761 40183 885// 333 20204 59009;EQDQ01  00002PRCP99
0167829830999992001070918004-09370-040480FM-12+037099999V0200501N005110075019N0020001N1+02701+01881101491ADDAA199000091GF108991081051008001999999MA1999999097311MD1999999-0121REMSYN070AAXX  09184 82983 32595 80510 10270 20188 39731 40149 885// 333 59012;EQDQ01  00002PRCP99
0198829830999992001071000004-09370-040480FM-12+037099999V0200901N003110075019N0020001N1+02441+01831101631ADDAA199000091GF106991061061008001001001KA1240M+02781MA1999999097431MD1999999-0121REMSYN088AAXX  10004 82983 32595 60906 10244 20183 39743 40163 86600 333 10278 29068 55013 59012;EQDQ01  00002PRCP99
0201829830999992001071012004-09370-040480FM-12+037099999V0200901N005112200019N0020001N1+02301+01581101711ADDAA124000591AY121061AY261061GF103991031011008001001001KA1240N+01981MA1999999097521MD1999999-0091MW1011REMSYN088AAXX  10124 82983 21595 30910 10230 20158 39752 40171 70126 83100 333 20198 59009 69944;
0167829830999992001071018004-09370-040480FM-12+037099999V0200501N004112200019N0020001N1+02761+01621101291ADDAA199000091GF104991041011008001001001MA1999999097131MD1999999-0181REMSYN070AAXX  10184 82983 32595 40508 10276 20162 39713 40129 84100 333 59018;EQDQ01  00002PRCP99
0198829830999992001071100004-09370-040480FM-12+037099999V0200901N003110075019N0020001N1+02441+01761101481ADDAA199000091GF106991061061008001001001KA1240M+02861MA1999999097301MD1999999-0131REMSYN088AAXX  11004 82983 32595 60906 10244 20176 39730 40148 86600 333 10286 29062 55106 59013;EQDQ01  00002PRCP99
0201829830999992001071112004-09370-040480FM-12+037099999V0200901N003112200019N0020001N1+02261+01771101771ADDAA124006191AY161061AY251061GF103991031011008001001001KA1240N+02001MA1999999097571MD1999999+0051MW1011REMSYN088AAXX  11124 82983 21595 30906 10226 20177 39757 40177 70165 83100 333 20200 58005 60064;
0177829830999992001071118004-09370-040480FM-12+037099999V0200501N003112200019N0020001N1+02941+01761101321ADDAA199000091GA1001+999999999GF100991001001999999001001MA1999999097151MD1999999+0021REMSYN064AAXX  11184 82983 32995 00506 10294 20176 39715 40132 333 58002;EQDQ01  00002PRCP99
0198829830999992001071200004-09370-040480FM-12+037099999V0200901N003112200019N0020001N1+02441+01691101541ADDAA199000091GF102991021011008001001001KA1240M+03021MA1999999097351MD1999999+0051REMSYN088AAXX  12004 82983 32595 20906 10244 20169 39735 40154 82100 333 10302 29062 55095 58005;EQDQ01  00002PRCP99
0186829830999992001071212004-09370-040480FM-12+037099999V0200901N003112200019N0020001N1+02341+01831101811ADDAA199000091GF104991041011008001001001KA1240N+02041MA1999999097621MD1999999+0051REMSYN076AAXX  12124 82983 32595 40906 10234 20183 39762 40181 84100 333 20204 58005;EQDQ01  00002PRCP99
0167829830999992001071218004-09370-040480FM-12+037099999V0200501N003112200019N0020001N1+03081+01691101351ADDAA199000091GF102991021011008001001001MA1999999097201MD1999999+0051REMSYN070AAXX  12184 82983 32595 20506 10308 20169 39720 40135 82100 333 58005;EQDQ01  00002PRCP99
0208829830999992001071300004-09370-040480FM-12+037099999V0200901N003112200019N0020001N1+02581+01901101451ADDAA199000091GA1001+999999999GF100991001001999999001001KA1240M+03161MA1999999097281MD1999999-0071REMSYN082AAXX  13004 82983 32995 00906 10258 20190 39728 40145 333 10316 29064 55105 59007;EQDQ01  00002PRCP99
0186829830999992001071312004-09370-040480FM-12+037099999V0200901N003110075019N0020001N1+02461+01781101691ADDAA199000091GF107991071051008001001001KA1240N+02161MA1999999097521MD1999999-0101REMSYN076AAXX  13124 82983 32595 70906 10246 20178 39752 40169 87500 333 20216 59010;EQDQ01  00002PRCP99
0167829830999992001071318004-09370-040480FM-12+037099999V0200501N003112200019N0020001N1+03161+01631101261ADDAA199000091GF102991021011008001001001MA1999999097131MD1999999-0071REMSYN070AAXX  13184 82983 32595 20506 10316 20163 39713 40126 82100 333 59007;EQDQ01  00002PRCP99
0186829830999992001071612004-09370-040480FM-12+037099999V0200901N005110075019N0020001N1+02241+01621101871ADDAA199000091GF106991061021008001001001KA1240N+01961MA1999999097651MD1999999+0031REMSYN076AAXX  16124 82983 32595 60910 10224 20162 39765 40187 86200 333 20196 58003;EQDQ01  00002PRCP99
0167829830999992001071618004-09370-040480FM-12+037099999V0200901N005110075019N0020001N1+02701+01661101491ADDAA199000091GF107991071021008001001001MA1999999097311MD1999999+0031REMSYN070AAXX  16184 82983 32595 70910 10270 20166 39731 40149 87200 333 58003;EQDQ01  00002PRCP99
0198829830999992001071700004-09370-040480FM-12+037099999V0200901N005110075019N0020001N1+02461+01681101721ADDAA199000091GF108991081051008001999999KA1240M+02721MA1999999097531MD1999999+0071REMSYN088AAXX  17004 82983 32595 80910 10246 20168 39753 40172 885// 333 10272 29061 55058 58007;EQDQ01  00002PRCP99
0186829830999992001071712004-09370-040480FM-12+037099999V0200901N004110075019N0020001N1+02201+01761101871ADDAA199000091GF108991081051008001999999KA1240N+02111MA1999999097671MD1999999+0021REMSYN076AAXX  17124 82983 32595 80908 10220 20176 39767 40187 885// 333 20211 58002;EQDQ01  00002PRCP99
0167829830999992001071718004-09370-040480FM-12+037099999V0200901N003110075019N0020001N1+02801+01781101441ADDAA199000091GF107991071021008001001001MA1999999097271MD1999999+0041REMSYN070AAXX  17184 82983 32595 70906 10280 20178 39727 40144 87200 333 58004;EQDQ01  00002PRCP99
0198829830999992001071800004-09370-040480FM-12+037099999V0200901N003112200019N0020001N1+02461+01971101651ADDAA199000091GF104991041021008001001001KA1240M+02861MA1999999097461MD1999999-0071REMSYN088AAXX  18004 82983 32595 40906 10246 20197 39746 40165 84200 333 10286 29070 55035 59007;EQDQ01  00002PRCP99
0186829830999992001071812004-09370-040480FM-12+037099999V0200901N004110075019N0020001N1+02321+01851101861ADDAA199000091GF108991081051008001999999KA1240N+02111MA1999999097671MD1999999+0001REMSYN076AAXX  18124 82983 32595 80908 10232 20185 39767 40186 885// 333 20211 58000;EQDQ01  00002PRCP99
0208829830999992001071900004-09370-040480FM-12+037099999V0200901N003112200019N0020001N1+02601+01631101541ADDAA199000091GA1001+999999999GF100991001001999999001001KA1240M+03051MA1999999097361MD1999999-0101REMSYN082AAXX  19004 82983 32995 00906 10260 20163 39736 40154 333 10305 29058 55068 59010;EQDQ01  00002PRCP99
0186829830999992001071912004-09370-040480FM-12+037099999V0200901N004110075019N0020001N1+02421+01971101791ADDAA199000091GF108991081051008001999999KA1240N+02211MA1999999097611MD1999999-0061REMSYN076AAXX  19124 82983 32595 80908 10242 20197 39761 40179 885// 333 20221 59006;EQDQ01  00002PRCP99
0182829830999992001071918004-09370-040480FM-12+037099999V0200901N005110075019N0020001N1+02771+01911101401ADDAA106000391AY161061AY221061GF107991071021008001001001MA1999999097241MD1999999+0001MW1031REMSYN082AAXX  19184 82983 21595 70910 10277 20191 39724 40140 70362 87200 333 58000 69931;
0198829830999992001072000004-09370-040480FM-12+037099999V0200901N004110075019N0020001N1+02501+01841101541ADDAA199000091GF105991051021008001001001KA1240M+02841MA1999999097361MD1999999+0001REMSYN088AAXX  20004 82983 32595 50908 10250 20184 39736 40154 85200 333 10284 29068 55035 58000;EQDQ01  00002PRCP99
0173829830999992001072012004-09370-040480FM-12+037099999V0200901N005112200019N0020001N1+02301+01721101671ADDAA124000391GF103991031011008001001001KA1240N+01951MA1999999097491MD1999999-0121REMSYN082AAXX  20124 82983 22595 30910 10230 20172 39749 40167 83100 333 20195 59012 69934;
0167829830999992001072018004-09370-040480FM-12+037099999V0200901N006712200019N0020001N1+02901+01551101301ADDAA199000091GF104991041011008001001001MA1999999097141MD1999999-0101REMSYN070AAXX  20184 82983 32595 40913 10290 20155 39714 40130 84100 333 59010;EQDQ01  00002PRCP99
0208829830999992001072100004-09370-040480FM-12+037099999V0200901N003112200019N0020001N1+02541+01571101411ADDAA199000091GA1001+999999999GF100991001001999999001001KA1240M+02981MA1999999097231MD1999999-0031REMSYN082AAXX  21004 82983 32995 00906 10254 20157 39723 40141 333 10298 29057 55104 59003;EQDQ01  00002PRCP99
0196829830999992001072112004-09370-040480FM-12+037099999V0201401N003112200019N0020001N1+02361+01661101661ADDAA199000091GA1001+999999999GF100991001001999999001001KA1240N+01961MA1999999097481MD1999999-0011REMSYN070AAXX  21124 82983 32995 01406 10236 20166 39748 40166 333 20196 59001;EQDQ01  00002PRCP99
0167829830999992001072118004-09370-040480FM-12+037099999V0200501N003112200019N0020001N1+03041+01711101281ADDAA199000091GF104991041011008001001001MA1999999097131MD1999999-0011REMSYN070AAXX  21184 82983 32595 40506 10304 20171 39713 40128 84100 333 59001;EQDQ01  00002PRCP99
0208829830999992001072200004-09370-040480FM-12+037099999V0200901N003112200019N0020001N1+02561+01831101451ADDAA199000091GA1001+999999999GF100991001001999999001001KA1240M+03081MA1999999097281MD1999999+0051REMSYN082AAXX  22004 82983 32995 00906 10256 20183 39728 40145 333 10308 29060 55106 58005;EQDQ01  00002PRCP99
0186829830999992001072212004-09370-040480FM-12+037099999V0201401N003110075019N0020001N1+02441+01901101631ADDAA199000091GF108991081051008001999999KA1240N+02241MA1999999097461MD1999999-0021REMSYN076AAXX  22124 82983 32595 81406 10244 20190 39746 40163 885// 333 20224 59002;EQDQ01  00002PRCP99
0167829830999992001072218004-09370-040480FM-12+037099999V0200901N003112200019N0020001N1+03181+01731101191ADDAA199000091GF103991031011008001001001MA1999999097061MD1999999-0071REMSYN070AAXX  22184 82983 32595 30906 10318 20173 39706 40119 83100 333 59007;EQDQ01  00002PRCP99
0208829830999992001072300004-09370-040480FM-12+037099999V0200901N003112200019N0020001N1+02741+01701101331ADDAA199000091GA1001+999999999GF100991001001999999001001KA1240M+03261MA1999999097181MD1999999-0101REMSYN082AAXX  23004 82983 32995 00906 10274 20170 39718 40133 333 10326 29055 55068 59010;EQDQ01  00002PRCP99
0186829830999992001072312004-09370-040480FM-12+037099999V0200901N003110075019N0020001N1+02461+01881101621ADDAA199000091GF106991061011008001001001KA1240N+02121MA1999999097461MD1999999+0001REMSYN076AAXX  23124 82983 32595 60906 10246 20188 39746 40162 86100 333 20212 58000;EQDQ01  00002PRCP99
0177829830999992001072318004-09370-040480FM-12+037099999V0200901N005112200019N0020001N1+03141+01321101301ADDAA199000091GA1001+999999999GF100991001001999999001001MA1999999097161MD1999999+0101REMSYN064AAXX  23184 82983 32995 00910 10314 20132 39716 40130 333 58010;EQDQ01  00002PRCP99
0208829830999992001072400004-09370-040480FM-12+037099999V0200501N003112200019N0020001N1+02581+01431101531ADDAA199000091GA1001+999999999GF100991001001999999001001KA1240M+03161MA1999999097361MD1999999+0181REMSYN082AAXX  24004 82983 32995 00506 10258 20143 39736 40153 333 10316 29050 55095 58018;EQDQ01  00002PRCP99
0186829830999992001072412004-09370-040480FM-12+037099999V0200901N003112200019N0020001N1+02441+01591101781ADDAA199000091GF103991031011008001001001KA1240N+02001MA1999999097601MD1999999+0141REMSYN076AAXX  24124 82983 32595 30906 10244 20159 39760 40178 83100 333 20200 58014;EQDQ01  00002PRCP99
0183829830999992001072418004-09370-040480FM-12+037099999V0200501N005119999999N0020001N1+02961+01531101531ADDAA199000091GF105991999011008001001001MA1999999097361MD1999999+0201REMSYN070AAXX  24184 82983 32595 50510 10296 20153 39736 40153 84100 333 58020;EQDQ01+000042SCOTLCQ02  00002PRCP99
0208829830999992001072500004-09370-040480FM-12+037099999V0200901N003112200019N0020001N1+02441+01531101601ADDAA199000091GA1001+999999999GF100991001001999999001001KA1240M+02981MA1999999097421MD1999999+0061REMSYN082AAXX  25004 82983 32995 00906 10244 20153 39742 40160 333 10298 29054 55103 58006;EQDQ01  00002PRCP99
0186829830999992001072512004-09370-040480FM-12+037099999V0200901N004112200019N0020001N1+02281+01641101761ADDAA199000091GF103991031011008001001001KA1240N+01881MA1999999097561MD1999999-0041REMSYN076AAXX  25124 82983 32595 30908 10228 20164 39756 40176 83100 333 20188 59004;EQDQ01  00002PRCP99
0167829830999992001072518004-09370-040480FM-12+037099999V0200901N003112200019N0020001N1+02881+01831101441ADDAA199000091GF104991041011008001001001MA1999999097261MD1999999-0101REMSYN070AAXX  25184 82983 32595 40906 10288 20183 39726 40144 84100 333 59010;EQDQ01  00002PRCP99
0208829830999992001072600004-09370-040480FM-12+037099999V0200901N003112200019N0020001N1+02501+01531101521ADDAA199000091GA1001+999999999GF100991001001999999001001KA1240M+02941MA1999999097341MD1999999-0081REMSYN082AAXX  26004 82983 32995 00906 10250 20153 39734 40152 333 10294 29058 55097 59008;EQDQ01  00002PRCP99
0186829830999992001072612004-09370-040480FM-12+037099999V0201401N004110075019N0020001N1+02221+01761101911ADDAA199000091GF108991081051008001999999KA1240N+02021MA1999999097711MD1999999+0151REMSYN076AAXX  26124 82983 32595 81408 10222 20176 39771 40191 885// 333 20202 58015;EQDQ01  00002PRCP99
0167829830999992001072618004-09370-040480FM-12+037099999V0200901N003110075019N0020001N1+02941+01691101541ADDAA199000091GF105991051011008001001001MA1999999097361MD1999999-0101REMSYN070AAXX  26184 82983 32595 50906 10294 20169 39736 40154 85100 333 59010;EQDQ01  00002PRCP99
0198829830999992001072700004-09370-040480FM-12+037099999V0200901N004110075019N0020001N1+02301+01721101721ADDAA199000091GF106991061021008001001001KA1240M+03001MA1999999097511MD1999999+0171REMSYN088AAXX  27004 82983 32595 60908 10230 20172 39751 40172 86200 333 10300 29066 55080 58017;EQDQ01  00002PRCP99
0186829830999992001072712004-09370-040480FM-12+037099999V0200901N004110075019N0020001N1+02221+01601101931ADDAA199000091GF106991061011008001001001KA1240N+02001MA1999999097711MD1999999+0001REMSYN076AAXX  27124 82983 32595 60908 10222 20160 39771 40193 86100 333 20200 58000;EQDQ01  00002PRCP99
0208829830999992001072800004-09370-040480FM-12+037099999V0200901N001512200019N0020001N1+02421+01281101701ADDAA199000091GA1001+999999999GF100991001001999999001001KA1240M+03001MA1999999097491MD1999999-0021REMSYN082AAXX  28004 82983 32995 00903 10242 20128 39749 40170 333 10300 29055 55101 59002;EQDQ01  00002PRCP99
0186829830999992001072812004-09370-040480FM-12+037099999V0200901N003112200019N0020001N1+02301+01651101971ADDAA199000091GF102991021011008001001001KA1240N+01861MA1999999097761MD1999999+0051REMSYN076AAXX  28124 82983 32595 20906 10230 20165 39776 40197 82100 333 20186 58005;EQDQ01  00002PRCP99
0198829830999992001072900004-09370-040480FM-12+037099999V0200901N003110075019N0020001N1+02661+01151101661ADDAA199000091GF106991061051008001001001KA1240M+03041MA1999999097491MD1999999+0001REMSYN088AAXX  29004 82983 32595 60906 10266 20115 39749 40166 86500 333 10304 29048 55104 58000;EQDQ01  00002PRCP99
0186829830999992001072912004-09370-040480FM-12+037099999V0200901N003112200019N0020001N1+02281+01591101921ADDAA199000091GF104991041011008001001001KA1240N+01901MA1999999097731MD1999999-0031REMSYN076AAXX  29124 82983 32595 40906 10228 20159 39773 40192 84100 333 20190 59003;EQDQ01  00002PRCP99
0196829830999992001073000004-09370-040480FM-12+037099999V0200901N003112200019N0020001N1+02561+01441101641ADDAA199000091GF102991021011008001001001KA1240M+03061MA1999999097461REMSYN100AAXX  30004 82983 32595 20906 10256 20144 39746 40164 82100 333 10306 29055 55109 5905/ 58004 60021;EQDQ01  00002PRCP99
0186829830999992001073012004-09370-040480FM-12+037099999V0201401N009310075019N0020001N1+02341+01641101991ADDAA199000091GF105991051011008001001001KA1240N+02001MA1999999097791MD1999999+0061REMSYN076AAXX  30124 82983 32595 51418 10234 20164 39779 40199 85100 333 20200 58006;EQDQ01  00002PRCP99
0208829830999992001073100004-09370-040480FM-12+037099999V0200901N003112200019N0020001N1+02541+01231101771ADDAA199000091GA1001+999999999GF100991001001999999001001KA1240M+03061MA1999999097581MD1999999+0121REMSYN082AAXX  31004 82983 32995 00906 10254 20123 39758 40177 333 10306 29051 55107 58012;EQDQ01  00002PRCP99
0186829830999992001073112004-09370-040480FM-12+037099999V0201401N003112200019N0020001N1+02361+01591102041ADDAA199000091GF102991021011008001001001KA1240N+02001MA1999999097841MD1999999+0051REMSYN076AAXX  31124 82983 32595 21406 10236 20159 39784 40204 82100 333 20200 58005;EQDQ01  00002PRCP99
0208829830999992001080100004-09370-040480FM-12+037099999V0200501N004112200019N0020001N1+02521+01171101811ADDAA199000091GA1001+999999999GF100991001001999999001001KA1240M+03041MA1999999097621MD1999999+0041REMSYN082AAXX  01004 82983 32995 00508 10252 20117 39762 40181 333 10304 29049 55106 58004;EQDQ01  00002PRCP99
0186829830999992001080112004-09370-040480FM-12+037099999V0201401N003112200019N0020001N1+02241+01571102161ADDAA199000091GF104991041011008001001001KA1240N+01881MA1999999097951MD1999999+0111REMSYN076AAXX  01124 82983 32595 41406 10224 20157 39795 40216 84100 333 20188 58011;EQDQ01  00002PRCP99
0198829830999992001080200004-09370-040480FM-12+037099999V0200501N004112200019N0020001N1+02561+01561101881ADDAA199000091GF104991041051008001001001KA1240M+02961MA1999999097691MD1999999+0071REMSYN088AAXX  02004 82983 32595 40508 10256 20156 39769 40188 84500 333 10296 29058 55091 58007;EQDQ01  00002PRCP99
0186829830999992001080212004-09370-040480FM-12+037099999V0200901N003112200019N0020001N1+02261+01541102071ADDAA199000091GF104991041011008001001001KA1240N+01541MA1999999097871MD1999999-0081REMSYN076AAXX  02124 82983 32595 40906 10226 20154 39787 40207 84100 333 20154 59008;EQDQ01  00002PRCP99
0208829830999992001080300004-09370-040480FM-12+037099999V0200901N004112200019N0020001N1+02501+01501101811ADDAA199000091GA1001+999999999GF100991001001999999001001KA1240M+03021MA1999999097621MD1999999-0071REMSYN082AAXX  03004 82983 32995 00908 10250 20150 39762 40181 333 10302 29057 55106 59007;EQDQ01  00002PRCP99
0186829830999992001080312004-09370-040480FM-12+037099999V0201401N005110075019N0020001N1+02161+01541102061ADDAA199000091GF105991051011008001001001KA1240N+01981MA1999999097851MD1999999-0021REMSYN076AAXX  03124 82983 32595 51410 10216 20154 39785 40206 85100 333 20198 59002;EQDQ01  00002PRCP99
0208829830999992001080400004-09370-040480FM-12+037099999V0200901N004112200019N0020001N1+02501+01421101781ADDAA199000091GA1001+999999999GF100991001001999999001001KA1240M+02921MA1999999097601MD1999999-0021REMSYN082AAXX  04004 82983 32995 00908 10250 20142 39760 40178 333 10292 29057 55066 59002;EQDQ01  00002PRCP99
0166829830999992001080412004-09370-040480FM-12+037099999V0201401N005112200019N0020001N1+02241+01501101971ADDAA199000091GF102991021011008001001001KA1999N+00041MA1999999097761REMSYN070AAXX  04124 82983 32595 21410 10224 20150 39776 40197 82100 333 29004;EQDQ01  00002PRCP99
0208829830999992001080500004-09370-040480FM-12+037099999V0200901N004112200019N0020001N1+02321+01601101731ADDAA199000091GA1001+999999999GF100991001001999999001001KA1240M+02821MA1999999097531MD1999999-0081REMSYN082AAXX  05004 82983 32995 00908 10232 20160 39753 40173 333 10282 29064 55079 59008;EQDQ01  00002PRCP99
0186829830999992001080512004-09370-040480FM-12+037099999V0200901N003110075019N0020001N1+02241+01711102001ADDAA199000091GF106991061021008001001001KA1240N+01901MA1999999097781MD1999999+0021REMSYN076AAXX  05124 82983 32595 60906 10224 20171 39778 40200 86200 333 20190 58002;EQDQ01  00002PRCP99
0208829830999992001080600004-09370-040480FM-12+037099999V0200901N003112200019N0020001N1+02541+01711101721ADDAA199000091GA1001+999999999GF100991001001999999001001KA1240M+03001MA1999999097541MD1999999+0011REMSYN082AAXX  06004 82983 32995 00906 10254 20171 39754 40172 333 10300 29064 55097 58001;EQDQ01  00002PRCP99
0186829830999992001080612004-09370-040480FM-12+037099999V0201401N008010075019N0020001N1+02321+01711102061ADDAA199000091GF105991051011008001001001KA1240N+01961MA1999999097861MD1999999+0081REMSYN076AAXX  06121 82983 32595 51408 10232 20171 39786 40206 85100 333 20196 58008;EQDQ01  00002PRCP99
0208829830999992001080700004-09370-040480FM-12+037099999V0200901N005112200019N0020001N1+02221+01531101911ADDAA199000091GA1001+999999999GF100991001001999999001001KA1240M+02981MA1999999097691MD1999999+0151REMSYN082AAXX  07004 82983 32995 00910 10222 20153 39769 40191 333 10298 29065 55110 58015;EQDQ01  00002PRCP99
0186829830999992001080712004-09370-040480FM-12+037099999V0201401N005110075019N0020001N1+02181+01561102131ADDAA199000091GF106991061021008001001001KA1240N+01941MA1999999097901MD1999999+0041REMSYN076AAXX  07124 82983 32595 61410 10218 20156 39790 40213 86200 333 20194 58004;EQDQ01  00002PRCP99
0198829830999992001080800004-09370-040480FM-12+037099999V0200901N005110075019N0020001N1+02541+01121101821ADDAA199000091GF105991051051008001001001KA1240M+02881MA1999999097621MD1999999-0071REMSYN088AAXX  08004 82983 32595 50910 10254 20112 39762 40182 85500 333 10288 29050 55035 59007;EQDQ01  00002PRCP99
0186829830999992001080812004-09370-040480FM-12+037099999V0200901N003110075019N0020001N1+02161+01631102051ADDAA199000091GF106991061011008001001001KA1240N+01861MA1999999097841MD1999999-0061REMSYN076AAXX  08124 82983 32595 60906 10216 20163 39784 40205 86100 333 20186 59006;EQDQ01  00002PRCP99
0208829830999992001080900004-09370-040480FM-12+037099999V0200901N004112200019N0020001N1+02341+01761101821ADDAA199000091GA1001+999999999GF100991001001999999001001KA1240M+02841MA1999999097601MD1999999-0021REMSYN082AAXX  09004 82983 32995 00908 10234 20176 39760 40182 333 10284 29071 55063 59002;EQDQ01  00002PRCP99
0201829830999992001080912004-09370-040480FM-12+037099999V0201401N005110075019N0020001N1+02161+01681102061ADDAA124000191AY151061AY251061GF108991081051008001999999KA1240N+01941MA1999999097841MD1999999+0001MW1031REMSYN088AAXX  09124 82983 21595 81410 10216 20168 39784 40206 70355 885// 333 20194 58000 69924;
0198829830999992001081000004-09370-040480FM-12+037099999V0200901N003110075019N0020001N1+02441+01661101891ADDAA199000091GF106991061021008001001001KA1240M+02701MA1999999097671MD1999999+0071REMSYN088AAXX  10004 82983 32595 60906 10244 20166 39767 40189 86200 333 10270 29066 55012 58007;EQDQ01  00002PRCP99
0186829830999992001081012004-09370-040480FM-12+037099999V0200901N004110075019N0020001N1+02301+01611102091ADDAA199000091GF105991051021008001001001KA1240N+02001MA1999999097871MD1999999+0031REMSYN076AAXX  10124 82983 32595 50908 10230 20161 39787 40209 85200 333 20200 58003;EQDQ01  00002PRCP99
0208829830999992001081100004-09370-040480FM-12+037099999V0200901N003112200019N0020001N1+02521+01311101711ADDAA199000091GA1001+999999999GF100991001001999999001001KA1240M+03001MA1999999097531MD1999999-0141REMSYN082AAXX  11004 82983 32995 00906 10252 20131 39753 40171 333 10300 29053 55086 59014;EQDQ01  00002PRCP99
0186829830999992001081112004-09370-040480FM-12+037099999V0200901N003110075019N0020001N1+02181+01651102041ADDAA199000091GF108991081051008001999999KA1240N+02041MA1999999097831MD1999999-0041REMSYN076AAXX  11124 82983 32595 80906 10218 20165 39783 40204 885// 333 20204 59004;EQDQ01  00002PRCP99
0167829830999992001081118004-09370-040480FM-12+037099999V0200501N003110075019N0020001N1+02701+01721101641ADDAA199000091GF108991081051008001999999MA1999999097451MD1999999+0001REMSYN070AAXX  11184 82983 32595 80506 10270 20172 39745 40164 885// 333 58000;EQDQ01  00002PRCP99
0198829830999992001081200004-09370-040480FM-12+037099999V0200501N005110075019N0020001N1+02251+01751101911ADDAA199000091GF106991061021008001001001KA1240M+02721MA1999999097691MD1999999+0161REMSYN088AAXX  12004 82983 32595 60510 10225 20175 39769 40191 86200 333 10272 29069 55035 58016;EQDQ01  00002PRCP99
0167829830999992001081218004-09370-040480FM-12+037099999V0200901N005110075019N0020001N1+02701+01721101701ADDAA199000091GF106991061021008001001001MA1999999097511MD1999999+0061REMSYN070AAXX  12184 82983 32595 60910 10270 20172 39751 40170 86200 333 58006;EQDQ01  00002PRCP99
0198829830999992001081300004-09370-040480FM-12+037099999V0200901N003110075019N0020001N1+02161+01631102041ADDAA199000091GF106991061021008001001001KA1240M+02721MA1999999097801MD1999999+0111REMSYN088AAXX  13004 82983 32595 60906 10216 20163 39780 40204 86200 333 10272 29069 55027 58011;EQDQ01  00002PRCP99
0186829830999992001081312004-09370-040480FM-12+037099999V0200901N005110075019N0020001N1+02201+01611102011ADDAA199000091GF108991081051008001999999KA1240N+01901MA1999999097781MD1999999-0081REMSYN076AAXX  13124 82983 32595 80910 10220 20161 39778 40201 885// 333 20190 59008;EQDQ01  00002PRCP99
0167829830999992001081318004-09370-040480FM-12+037099999V0200901N005110075019N0020001N1+02701+01541101621ADDAA199000091GF106991061021008001001001MA1999999097431MD1999999-0081REMSYN070AAXX  13184 82983 32595 60910 10270 20154 39743 40162 86200 333 59008;EQDQ01  00002PRCP99
0188829830999992001081400004-09370-040480FM-12+037099999V0200901N004112200019N0020001N1+02401+01501101601ADDAA199000091GA1001+999999999GF100991001001999999001001KA1240M+02801MA1999999097591REMSYN076AAXX  14004 82983 32995 00908 10240 20150 39759 40160 333 10280 29058 55043;EQDQ01  00002PRCP99
0186829830999992001081412004-09370-040480FM-12+037099999V0200901N005110075019N0020001N1+02201+01651101971ADDAA199000091GF106991061021008001001001KA1240N+01841MA1999999097761MD1999999-0021REMSYN076AAXX  14124 82983 32595 60910 10220 20165 39776 40197 86200 333 20184 59002;EQDQ01  00002PRCP99
0167829830999992001081418004-09370-040480FM-12+037099999V0200501N005110075019N0020001N1+02861+01691101621ADDAA199000091GF106991061021008001001001MA1999999097431MD1999999+0001REMSYN070AAXX  14184 82983 32595 60510 10286 20169 39743 40162 86200 333 58000;EQDQ01  00002PRCP99
0198829830999992001081500004-09370-040480FM-12+037099999V0200501N004110075019N0020001N1+02241+01571101861ADDAA199000091GF105991051021008001001001KA1240M+02821MA1999999097461MD1999999+0051REMSYN088AAXX  15004 82983 32595 50508 10224 20157 39746 40186 85200 333 10282 29064 55077 58005;EQDQ01  00002PRCP99
0186829830999992001081512004-09370-040480FM-12+037099999V0200901N005110075019N0020001N1+02291+01561102021ADDAA199000091GF106991061021008001001001KA1240N+01991MA1999999097801MD1999999+0041REMSYN076AAXX  15124 82983 32595 60910 10229 20156 39780 40202 86200 333 20199 58004;EQDQ01  00002PRCP99
0167829830999992001081518004-09370-040480FM-12+037099999V0200901N005110075019N0020001N1+02701+01661101701ADDAA199000091GF107991071021008001001001MA1999999097511MD1999999+0081REMSYN070AAXX  15184 82983 32595 70910 10270 20166 39751 40170 87200 333 58008;EQDQ01  00002PRCP99
0198829830999992001081600004-09370-040480FM-12+037099999V0200501N005110075019N0020001N1+02301+01791101941ADDAA199000091GF107991071021008001001001KA1240M+02761MA1999999097731MD1999999+0091REMSYN088AAXX  16004 82983 32595 70510 10230 20179 39773 40194 87200 333 10276 29066 55058 58009;EQDQ01  00002PRCP99
0186829830999992001081612004-09370-040480FM-12+037099999V0200901N004110075019N0020001N1+02301+01611101251ADDAA199000091GF105991051021008001001001KA1240N+01891MA1999999097931MD1999999+0131REMSYN076AAXX  16124 82983 32595 50908 10230 20161 39793 40125 85200 333 20189 58013;EQDQ01  00002PRCP99
0167829830999992001081618004-09370-040480FM-12+037099999V0200501N004110075019N0020001N1+02881+01461101641ADDAA199000091GF106991061021008001001001MA1999999097461MD1999999-0061REMSYN070AAXX  16184 82983 32595 60508 10288 20146 39746 40164 86200 333 59006;EQDQ01  00002PRCP99
0208829830999992001081700004-09370-040480FM-12+037099999V0200901N005112200019N0020001N1+02441+01561101831ADDAA199000091GA1001+999999999GF100991001001999999001001KA1240M+02901MA1999999097631MD1999999-0101REMSYN082AAXX  17004 82983 32995 00910 10244 20156 39763 40183 333 10290 29056 55104 59010;EQDQ01  00002PRCP99
0186829830999992001081712004-09370-040480FM-12+037099999V0201401N005110075019N0020001N1+02221+01551102111ADDAA199000091GF108991081021008001999999KA1240N+01941MA1999999097901MD1999999-0031REMSYN076AAXX  17124 82983 32595 81410 10222 20155 39790 40211 882// 333 20194 59003;EQDQ01  00002PRCP99
0167829830999992001081718004-09370-040480FM-12+037099999V0200901N004110075019N0020001N1+02861+01551101641ADDAA199000091GF106991061011008001001001MA1999999097461MD1999999+0001REMSYN070AAXX  17184 82983 32595 60908 10286 20155 39746 40164 86100 333 58000;EQDQ01  00002PRCP99
0208829830999992001081800004-09370-040480FM-12+037099999V0200901N004112200019N0020001N1+02281+01591101831ADDAA199000091GA1001+999999999GF100991001001999999001001KA1240M+03001MA1999999097611MD1999999-0021REMSYN082AAXX  18004 82983 32995 00908 10228 20159 39761 40183 333 10300 29060 55086 59002;EQDQ01  00002PRCP99
0202829830999992001081812004-09370-040480FM-12+037099999V0201401N005119999999N0020001N1+02181+01591101011ADDAA199000091GF106991999021008001001001KA1240N+01961MA1999999097801MD1999999-0101REMSYN076AAXX  18124 82983 32595 61410 10218 20159 39780 40101 83200 333 20196 59010;EQDQ01+000032SCOTLCQ02  00002PRCP99
0167829830999992001081818004-09370-040480FM-12+037099999V0200501N005110075019N0020001N1+02961+01611101551ADDAA199000091GF105991051011008001001001MA1999999097381MD1999999-0081REMSYN070AAXX  18184 82983 32595 50510 10296 20161 39738 40155 85100 333 59008;EQDQ01  00002PRCP99
0208829830999992001081900004-09370-040480FM-12+037099999V0200901N004112200019N0020001N1+02541+01681101811ADDAA199000091GA1001+999999999GF100991001001999999001001KA1240M+03001MA1999999097601MD1999999-0011REMSYN082AAXX  19004 82983 32995 00908 10254 20168 39760 40181 333 10300 29058 55101 59001;EQDQ01  00002PRCP99
0186829830999992001081912004-09370-040480FM-12+037099999V0201401N004110075019N0020001N1+02201+01761101961ADDAA199000091GF106991061021008001001001KA1240N+02081MA1999999097751MD1999999-0051REMSYN076AAXX  19124 82983 32595 61408 10220 20176 39775 40196 86200 333 20208 59005;EQDQ01  00002PRCP99
0167829830999992001081918004-09370-040480FM-12+037099999V0200501N004110075019N0020001N1+02921+01501101591ADDAA199000091GF106991061011008001001001MA1999999097421MD1999999+0041REMSYN070AAXX  19184 82983 32595 60508 10292 20150 39742 40159 86100 333 58004;EQDQ01  00002PRCP99
0208829830999992001082000004-09370-040480FM-12+037099999V0200901N004112200019N0020001N1+02461+01941101751ADDAA199000091GA1001+999999999GF100991001001999999001001KA1240M+03001MA1999999097551MD1999999-0051REMSYN082AAXX  20004 82983 32995 00908 10246 20194 39755 40175 333 10300 29066 55073 59005;EQDQ01  00002PRCP99
0201829830999992001082012004-09370-040480FM-12+037099999V0201401N004110075019N0020001N1+02181+01591102161ADDAA124001091AY151061AY261061GF107991071021008001001001KA1240N+01961MA1999999097941MD1999999+0191MW1031REMSYN088AAXX  20124 82983 21595 71408 10218 20159 39794 40216 70356 87200 333 20196 58019 60014;
0167829830999992001082018004-09370-040480FM-12+037099999V0200901N004110075019N0020001N1+02861+01651101701ADDAA199000091GF105991051011008001001001MA1999999097531MD1999999+0111REMSYN070AAXX  20184 82983 32595 50908 10286 20165 39753 40170 85100 333 58011;EQDQ01  00002PRCP99
0208829830999992001082100004-09370-040480FM-12+037099999V0200901N002612200019N0020001N1+02341+01641101891ADDAA199000091GA1001+999999999GF100991001001999999001001KA1240M+02961MA1999999097671MD1999999+0121REMSYN082AAXX  21004 82983 32995 00905 10234 20164 39767 40189 333 10296 29063 55078 58012;EQDQ01  00002PRCP99
0186829830999992001082112004-09370-040480FM-12+037099999V0201401N004110075019N0020001N1+02261+01571102091ADDAA199000091GF106991061021008001001001KA1240N+01981MA1999999097871MD1999999-0071REMSYN076AAXX  21124 82983 32595 61408 10226 20157 39787 40209 86200 333 20198 59007;EQDQ01  00002PRCP99
0167829830999992001082118004-09370-040480FM-12+037099999V0200501N004112200019N0020001N1+03061+01621101561ADDAA199000091GF102991021011008001001001MA1999999097401MD1999999-0131REMSYN070AAXX  21184 82983 32595 20508 10306 20162 39740 40156 82100 333 59013;EQDQ01  00002PRCP99
0208829830999992001082200004-09370-040480FM-12+037099999V0200901N003112200019N0020001N1+02581+01611101711ADDAA199000091GA1001+999999999GF100991001001999999001001KA1240M+03101MA1999999097531MD1999999+0141REMSYN082AAXX  22004 82983 32995 00906 10258 20161 39753 40171 333 10310 29054 55090 58014;EQDQ01  00002PRCP99
0186829830999992001082212004-09370-040480FM-12+037099999V0200901N005110075019N0020001N1+02401+01701102021ADDAA199000091GF105991051021008001001001KA1240N+02071MA1999999097831MD1999999-0041REMSYN076AAXX  22124 82983 32595 50910 10240 20170 39783 40202 85200 333 20207 59004;EQDQ01  00002PRCP99
0167829830999992001082218004-09370-040480FM-12+037099999V0200901N003110075019N0020001N1+02981+01791101591ADDAA199000091GF105991051011008001001001MA1999999097431MD1999999+0031REMSYN070AAXX  22184 82983 32595 50906 10298 20179 39743 40159 85100 333 58003;EQDQ01  00002PRCP99
0208829830999992001082300004-09370-040480FM-12+037099999V0200901N002612200019N0020001N1+02621+01881101741ADDAA199000091GA1001+999999999GF100991001001999999001001KA1240M+03021MA1999999097561MD1999999+0031REMSYN082AAXX  23004 82983 32995 00905 10262 20188 39756 40174 333 10302 29060 55091 58003;EQDQ01  00002PRCP99
0186829830999992001082312004-09370-040480FM-12+037099999V0200901N005110075019N0020001N1+02291+01611102051ADDAA199000091GF105991051021008001001001KA1240N+02041MA1999999097851MD1999999+0021REMSYN076AAXX  23124 82983 32595 50910 10229 20161 39785 40205 85200 333 20204 58002;EQDQ01  00002PRCP99
0167829830999992001082318004-09370-040480FM-12+037099999V0200501N005110075019N0020001N1+03101+01681101471ADDAA199000091GF106991061021008001001001MA1999999097331MD1999999-0101REMSYN070AAXX  23184 82983 32595 60510 10310 20168 39733 40147 86200 333 59010;EQDQ01  00002PRCP99
0198829830999992001082400004-09370-040480FM-12+037099999V0200901N005112200019N0020001N1+02501+01941101701ADDAA199000091GF103991031011008001001001KA1240M+03161MA1999999097521MD1999999-0041REMSYN088AAXX  24004 82983 32595 30910 10250 20194 39752 40170 83100 333 10316 29062 55107 59004;EQDQ01  00002PRCP99
0186829830999992001082412004-09370-040480FM-12+037099999V0200901N003110075019N0020001N1+02301+01721101971ADDAA199000091GF106991061021008001001001KA1240N+01911MA1999999097771MD1999999-0081REMSYN076AAXX  24124 82983 32595 60906 10230 20172 39777 40197 86200 333 20191 59008;EQDQ01  00002PRCP99
0167829830999992001082418004-09370-040480FM-12+037099999V0200501N005110075019N0020001N1+03001+01811101461ADDAA199000091GF106991061021008001001001MA1999999097301MD1999999-0031REMSYN070AAXX  24184 82983 32595 60510 10300 20181 39730 40146 86200 333 59003;EQDQ01  00002PRCP99
0198829830999992001082500004-09370-040480FM-12+037099999V0200901N003110075019N0020001N1+02601+01991101551ADDAA199000091GF105991051021008001001001KA1240M+03061MA1999999097371MD1999999-0151REMSYN088AAXX  25004 82983 32595 50906 10260 20199 39737 40155 85200 333 10306 29064 55094 59015;EQDQ01  00002PRCP99
0186829830999992001082512004-09370-040480FM-12+037099999V0200501N005110075019N0020001N1+02501+01561101801ADDAA199000091GF106991061021008001001001KA1240N+02091MA1999999097621MD1999999-0151REMSYN076AAXX  25124 82983 32595 60510 10250 20156 39762 40180 86200 333 20209 59015;EQDQ01  00002PRCP99
0177829830999992001082518004-09370-040480FM-12+037099999V0203601N005112200019N0020001N1+03161+01431101391ADDAA199000091GA1001+999999999GF100991001001999999001001MA1999999097251MD1999999-0051REMSYN064AAXX  25184 82983 32995 03610 10316 20143 39725 40139 333 59005;EQDQ01  00002PRCP99
0208829830999992001082600004-09370-040480FM-12+037099999V0200901N003112200019N0020001N1+02681+01731101541ADDAA199000091GA1001+999999999GF100991001001999999001001KA1240M+03221MA1999999097381MD1999999+0011REMSYN082AAXX  26004 82983 32995 00906 10268 20173 39738 40154 333 10322 29056 55109 58001;EQDQ01  00002PRCP99
0186829830999992001082612004-09370-040480FM-12+037099999V0200901N005110075019N0020001N1+02481+01801101781ADDAA199000091GF106991061021008001001001KA1240N+02151MA1999999097611MD1999999-0011REMSYN076AAXX  26124 82983 32595 60910 10248 20180 39761 40178 86200 333 20215 59001;EQDQ01  00002PRCP99
0167829830999992001082618004-09370-040480FM-12+037099999V0203601N005112200019N0020001N1+03101+01461101351ADDAA199000091GF102991021011008001001001MA1999999097211MD1999999-0041REMSYN070AAXX  26184 82983 32595 23610 10310 20146 39721 40135 82100 333 59004;EQDQ01  00002PRCP99
0208829830999992001082700004-09370-040480FM-12+037099999V0200901N003112200019N0020001N1+02701+01511101541ADDAA199000091GA1001+999999999GF100991001001999999001001KA1240M+03201MA1999999097381MD1999999+0001REMSYN082AAXX  27004 82983 32995 00906 10270 20151 39738 40154 333 10320 29050 55104 58000;EQDQ01  00002PRCP99
0186829830999992001082712004-09370-040480FM-12+037099999V0200901N004110075019N0020001N1+02341+01691101881ADDAA199000091GF106991061021008001001001KA1240N+01991MA1999999097701MD1999999+0091REMSYN076AAXX  27124 82983 32595 60908 10234 20169 39770 40188 86200 333 20199 58009;EQDQ01  00002PRCP99
0167829830999992001082718004-09370-040480FM-12+037099999V0200901N003112200019N0020001N1+03101+01461101381ADDAA199000091GF102991021011008001001001MA1999999097241MD1999999+0031REMSYN070AAXX  27184 82983 32595 20906 10310 20146 39724 40138 82100 333 58003;EQDQ01  00002PRCP99
0208829830999992001082800004-09370-040480FM-12+037099999V0200901N003112200019N0020001N1+02701+01411101621ADDAA199000091GA1001+999999999GF100991001001999999001001KA1240M+03121MA1999999097451MD1999999+0071REMSYN082AAXX  28004 82983 32995 00906 10270 20141 39745 40162 333 10312 29049 55095 58007;EQDQ01  00002PRCP99
0186829830999992001082812004-09370-040480FM-12+037099999V0200901N005110075019N0020001N1+02261+01721101851ADDAA199000091GF108991081051008001999999KA1240N+02041MA1999999097671MD1999999-0031REMSYN076AAXX  28124 82983 32595 80910 10226 20172 39767 40185 885// 333 20204 59003;EQDQ01  00002PRCP99
0167829830999992001082818004-09370-040480FM-12+037099999V0200901N004112200019N0200001N1+03101+01621101391ADDAA199000091GF102991021011008001001001MA1999999097231MD1999999-0011REMSYN070AAXX  28184 82983 32598 20908 10310 20162 39723 40139 82100 333 59001;EQDQ01  00002PRCP99
0198829830999992001082900004-09370-040480FM-12+037099999V0200901N003112200019N0020001N1+02741+01541101531ADDAA199000091GF103991031011008001001001KA1240M+03171MA1999999097361MD1999999-0091REMSYN088AAXX  29004 82983 32595 30906 10274 20154 39736 40153 83100 333 10317 29052 55073 59009;EQDQ01  00002PRCP99
0186829830999992001082912004-09370-040480FM-12+037099999V0200901N004110075019N0020001N1+02401+01791101601ADDAA199000091GF106991061011008001001001KA1240N+02221MA1999999097611MD1999999-0061REMSYN076AAXX  29124 82983 32595 60908 10240 20179 39761 40160 86100 333 20222 59006;EQDQ01  00002PRCP99
0167829830999992001082918004-09370-040480FM-12+037099999V0200501N004112200019N0020001N1+03081+01601101331ADDAA199000091GF103991031011008001001001MA1999999097181MD1999999-0051REMSYN070AAXX  29184 82983 32595 30508 10308 20160 39718 40133 83100 333 59005;EQDQ01  00002PRCP99
0208829830999992001083000004-09370-040480FM-12+037099999V0200901N004112200019N0020001N1+02721+01591101561ADDAA199000091GA1001+999999999GF100991001001999999001001KA1240M+03161MA1999999097401MD1999999+0041REMSYN082AAXX  30004 82983 32995 00908 10272 20159 39740 40156 333 10316 29050 55096 58004;EQDQ01  00002PRCP99
0186829830999992001083012004-09370-040480FM-12+037099999V0200901N004110075019N0020001N1+02301+01681101821ADDAA199000091GF108991081051008001999999KA1240N+02101MA1999999097641MD1999999+0031REMSYN076AAXX  30124 82983 32595 80908 10230 20168 39764 40182 885// 333 20210 58003;EQDQ01  00002PRCP99
0167829830999992001083018004-09370-040480FM-12+037099999V0200501N004112200019N0020001N1+03181+01691101341ADDAA199000091GF102991021011008001001001MA1999999097191MD1999999+0011REMSYN070AAXX  30184 82983 32595 20508 10318 20169 39719 40134 82100 333 58001;EQDQ01  00002PRCP99
0198829830999992001083100004-09370-040480FM-12+037099999V0200901N003112200019N0020001N1+02761+01661101541ADDAA199000091GF102991021011008001001001KA1240M+03141MA1999999097381MD1999999-0021REMSYN088AAXX  31004 82983 32595 20906 10276 20166 39738 40154 82100 333 10314 29053 55088 59002;EQDQ01  00002PRCP99
0186829830999992001083112004-09370-040480FM-12+037099999V0200901N003110075019N0020001N1+02461+01711101801ADDAA199000091GF107991071011008001001001KA1240N+02301MA1999999097631MD1999999-0011REMSYN076AAXX  31124 82983 32595 70906 10246 20171 39763 40180 87100 333 20230 59001;EQDQ01  00002PRCP99
0167829830999992001083118004-09370-040480FM-12+037099999V0200901N004112200019N0020001N1+02901+01901101371ADDAA199000091GF104991021011008001001011MA1999999097211MD1999999+0021REMSYN070AAXX  31184 82983 32595 40908 10290 20190 39721 40137 82101 333 58002;EQDQ01  00002PRCP99
0208829830999992001090100004-09370-040480FM-12+037099999V0200901N005112200019N0020001N1+02341+01781101621ADDAA199000091GA1001+999999999GF100991001001999999001001KA1240M+03001MA1999999097441MD1999999+0061REMSYN082AAXX  01004 82983 32995 00910 10234 20178 39744 40162 333 10300 29065 55070 58006;EQDQ01  00002PRCP99
0186829830999992001090112004-09370-040480FM-12+037099999V0200901N004110075019N0020001N1+02321+01601101841ADDAA199000091GF108991081051008001999999KA1240N+02061MA1999999097641MD1999999+0011REMSYN076AAXX  01124 82983 32595 80908 10232 20160 39764 40184 885// 333 20206 58001;EQDQ01  00002PRCP99
0167829830999992001090118004-09370-040480FM-12+037099999V0200501N003112200019N0020001N1+03081+01711101341ADDAA199000091GF104991041021008001001001MA1999999097181MD1999999-0031REMSYN070AAXX  01184 82983 32595 40506 10308 20171 39718 40134 84200 333 59003;EQDQ01  00002PRCP99
0198829830999992001090200004-09370-040480FM-12+037099999V0200901N003112200019N0020001N1+02661+01741101451ADDAA199000091GF104991041011008001001001KA1240M+03141MA1999999097291MD1999999-0151REMSYN088AAXX  02004 82983 32595 40906 10266 20174 39729 40145 84100 333 10314 29056 55083 59015;EQDQ01  00002PRCP99
0186829830999992001090212004-09370-040480FM-12+037099999V0200901N003110075019N0020001N1+02401+01771101701ADDAA199000091GF106991061011008001001001KA1240N+02161MA1999999097531MD1999999-0111REMSYN076AAXX  02124 82983 32595 60906 10240 20177 39753 40170 86100 333 20216 59011;EQDQ01  00002PRCP99
0167829830999992001090218004-09370-040480FM-12+037099999V0200501N003112200019N0020001N1+03181+01571101181ADDAA199000091GF102991021011008001001001MA1999999097041MD1999999-0141REMSYN070AAXX  02184 82983 32595 20506 10318 20157 39704 40118 82100 333 59014;EQDQ01  00002PRCP99
0208829830999992001090300004-09370-040480FM-12+037099999V0200901N005112200019N0020001N1+02421+01821101421ADDAA199000091GA1001+999999999GF100991001001999999001001KA1240M+03241MA1999999097241MD1999999-0051REMSYN082AAXX  03004 82983 32995 00910 10242 20182 39724 40142 333 10324 29061 55108 59005;EQDQ01  00002PRCP99
0186829830999992001090312004-09370-040480FM-12+037099999V0200901N004110075019N0020001N1+02261+01821101691ADDAA199000091GF106991061021008001001001KA1240N+02021MA1999999097501MD1999999-0031REMSYN076AAXX  03124 82983 32595 60908 10226 20182 39750 40169 86200 333 20202 59003;EQDQ01  00002PRCP99
0208829830999992001090400004-09370-040480FM-12+037099999V0200901N003112200019N0020001N1+02401+01991101571ADDAA199000091GA1001+999999999GF100991001001999999001001KA1240M+03141MA1999999097381MD1999999+0141REMSYN082AAXX  04004 82983 32995 00906 10240 20199 39738 40157 333 10314 29069 55069 58014;EQDQ01  00002PRCP99
0186829830999992001090412004-09370-040480FM-12+037099999V0200901N003110075019N0020001N1+02401+01651101761ADDAA199000091GF106991061021008001001001KA1240N+02171MA1999999097571MD1999999+0071REMSYN076AAXX  04124 82983 32595 60906 10240 20165 39757 40176 86200 333 20217 58007;EQDQ01  00002PRCP99
0167829830999992001090418004-09370-040480FM-12+037099999V0200901N003112200019N0020001N1+03081+01641101281ADDAA199000091GF104991041011008001001001MA1999999097141MD1999999+0051REMSYN070AAXX  04184 82983 32595 40906 10308 20164 39714 40128 84100 333 58005;EQDQ01  00002PRCP99
0208829830999992001090500004-09370-040480FM-12+037099999V0200901N002612200019N0020001N1+02661+01711101441ADDAA199000091GA1001+999999999GF100991001001999999001001KA1240M+03101MA1999999097281MD1999999-0101REMSYN082AAXX  05004 82983 32995 00905 10266 20171 39728 40144 333 10310 29054 55096 59010;EQDQ01  00002PRCP99
0186829830999992001090512004-09370-040480FM-12+037099999V0200901N004110075019N0020001N1+02441+01761101651ADDAA199000091GF106991061011008001001001KA1240N+02221MA1999999097481MD1999999-0091REMSYN076AAXX  05124 82983 32595 60908 10244 20176 39748 40165 86100 333 20222 59009;EQDQ01  00002PRCP99
0167829830999992001090518004-09370-040480FM-12+037099999V0200501N004110075019N0020001N1+03121+01641101201ADDAA199000091GF105991051011008001001001MA1999999097061MD1999999-0081REMSYN070AAXX  05184 82983 32595 50508 10312 20164 39706 40120 85100 333 59008;EQDQ01  00002PRCP99
0208829830999992001090600004-09370-040480FM-12+037099999V0200501N003112200019N0020001N1+02701+01661101361ADDAA199000091GA1001+999999999GF100991001001999999001001KA1240M+03181MA1999999097201MD1999999-0081REMSYN082AAXX  06004 82983 32995 00506 10270 20166 39720 40136 333 10318 29053 55081 59008;EQDQ01  00002PRCP99
0186829830999992001090612004-09370-040480FM-12+037099999V0200901N003110075019N0020001N1+02341+01551101691ADDAA199000091GF106991061021008001001001KA1240N+02051MA1999999097521MD1999999+0041REMSYN076AAXX  06124 82983 32595 60906 10234 20155 39752 40169 86200 333 20205 58004;EQDQ01  00002PRCP99
0167829830999992001090618004-09370-040480FM-12+037099999V0200501N003112200019N0020001N1+03141+01411101061ADDAA199000091GF103991031011008001001001MA1999999096931MD1999999-0131REMSYN070AAXX  06184 82983 32595 30506 10314 20141 39693 40106 83100 333 59013;EQDQ01  00002PRCP99
0208829830999992001090700004-09370-040480FM-12+037099999V0200901N005112200019N0020001N1+02601+01741101271ADDAA199000091GA1001+999999999GF100991001001999999001001KA1240M+03201MA1999999097111MD1999999-0091REMSYN082AAXX  07004 82983 32995 00910 10260 20174 39711 40127 333 10320 29054 55094 59009;EQDQ01  00002PRCP99
0186829830999992001090712004-09370-040480FM-12+037099999V0200901N003110075019N0020001N1+02401+01801101531ADDAA199000091GF106991061021008001001001KA1240N+02021MA1999999097361MD1999999-0161REMSYN076AAXX  07124 82983 32595 60906 10240 20180 39736 40153 86200 333 20202 59016;EQDQ01  00002PRCP99
0167829830999992001090718004-09370-040480FM-12+037099999V0200501N005112200019N0020001N1+03171+01601100991ADDAA199000091GF104991041011008001001001MA1999999096861MD1999999-0071REMSYN070AAXX  07184 82983 32595 40510 10317 20160 39686 40099 84100 333 59007;EQDQ01  00002PRCP99
0208829830999992001090800004-09370-040480FM-12+037099999V0200901N003112200019N0020001N1+02721+01651101211ADDAA199000091GA1001+999999999GF100991001001999999001001KA1240M+03241MA1999999097071MD1999999-0041REMSYN082AAXX  08004 82983 32995 00906 10272 20165 39707 40121 333 10324 29053 55100 59004;EQDQ01  00002PRCP99
0186829830999992001090812004-09370-040480FM-12+037099999V0200901N005112200019N0020001N1+02501+01721101521ADDAA199000091GF103991031011008001001001KA1240N+02171MA1999999097361MD1999999+0001REMSYN076AAXX  08124 82983 32595 30910 10250 20172 39736 40152 83100 333 20217 58000;EQDQ01  00002PRCP99
0167829830999992001090818004-09370-040480FM-12+037099999V0200501N003112200019N0020001N1+03261+01601101021ADDAA199000091GF103991031011008001001001MA1999999096901MD1999999+0041REMSYN070AAXX  08184 82983 32595 30506 10326 20160 39690 40102 83100 333 58004;EQDQ01  00002PRCP99
0208829830999992001090900004-09370-040480FM-12+037099999V0200901N005112200019N0020001N1+02761+01661101271ADDAA199000091GA1001+999999999GF100991001001999999001001KA1240M+03301MA1999999097131MD1999999+0061REMSYN082AAXX  09004 82983 32995 00910 10276 20166 39713 40127 333 10330 29051 55105 58006;EQDQ01  00002PRCP99
0186829830999992001090912004-09370-040480FM-12+037099999V0200501N004110075019N0020001N1+02141+01661101711ADDAA199000091GF108991081051008001999999KA1240N+02051MA1999999097531MD1999999+0171REMSYN076AAXX  09124 82983 32595 80508 10214 20166 39753 40171 885// 333 20205 58017;EQDQ01  00002PRCP99
0177829830999992001090918004-09370-040480FM-12+037099999V0200501N003112200019N0020001N1+03101+01771101191ADDAA199000091GA1001+999999999GF100991001001999999001001MA1999999097051MD1999999+0151REMSYN064AAXX  09184 82983 32995 00506 10310 20177 39705 40119 333 58015;EQDQ01  00002PRCP99
0208829830999992001091000004-09370-040480FM-12+037099999V0200901N003112200019N0020001N1+02801+01691101371ADDAA199000091GA1001+999999999GF100991001001999999001001KA1240M+03221MA1999999097211MD1999999+0081REMSYN082AAXX  10004 82983 32995 00906 10280 20169 39721 40137 333 10322 29055 55070 58008;EQDQ01  00002PRCP99
0196829830999992001091012004-09370-040480FM-12+037099999V0200901N003112200019N0020001N1+02461+01731101621ADDAA199000091GA1001+999999999GF100991001001999999001001KA1240N+02141MA1999999097471MD1999999-0061REMSYN070AAXX  10124 82983 32995 00906 10246 20173 39747 40162 333 20214 59006;EQDQ01  00002PRCP99
0167829830999992001091018004-09370-040480FM-12+037099999V0200901N003112200019N0020001N1+03421+01471101031ADDAA199000091GF102991021011008001001001MA1999999096941MD1999999-0111REMSYN070AAXX  10184 82983 32595 20906 10342 20147 39694 40103 82100 333 59011;EQDQ01  00002PRCP99
0208829830999992001091100004-09370-040480FM-12+037099999V0200901N003112200019N0020001N1+02961+01781101201ADDAA199000091GA1001+999999999GF100991001001999999001001KA1240M+03481MA1999999097071MD1999999-0141REMSYN082AAXX  11004 82983 32995 00906 10296 20178 39707 40120 333 10348 29048 55110 59014;EQDQ01  00002PRCP99
0186829830999992001091112004-09370-040480FM-12+037099999V0200901N003112200019N0020001N1+02521+01771101561ADDAA199000091GF102991021011008001001001KA1240N+02241MA1999999097371MD1999999-0101REMSYN076AAXX  11124 82983 32595 20906 10252 20177 39737 40156 82100 333 20224 59010;EQDQ01  00002PRCP99
0177829830999992001091118004-09370-040480FM-12+037099999V0203601N002612200019N0020001N1+03401+01541100921ADDAA199000091GA1001+999999999GF100991001001999999001001MA1999999096831MD1999999-0111REMSYN064AAXX  11184 82983 32995 03605 10340 20154 39683 40092 333 59011;EQDQ01  00002PRCP99
0240829830999992001091200004-09370-040480FM-12+037099999V0200501N002612200019N0020001N1+02961+01531999999ADDAA199000091GA1001+999999999GF100991001001999999001001KA1240M+03461MA1999999096891MD1999999-0181REMSYN082AAXX  12004 82983 32995 00505 10296 20153 39689 49689 333 10346 29045 55110 59018;EQDQ01+096893APOSLPQ02  00002PRCP99Q03 096893APOSLP
0196829830999992001091212004-09370-040480FM-12+037099999V0200501N003112200019N0020001N1+02841+01911101221ADDAA199000091GA1001+999999999GF100991001001999999001001KA1240N+02341MA1999999097131MD1999999-0241REMSYN070AAXX  12124 82983 32995 00506 10284 20191 39713 40122 333 20234 59024;EQDQ01  00002PRCP99
0167829830999992001091218004-09370-040480FM-12+037099999V0200501N003112200019N0020001N1+03621+01641100781ADDAA199000091GF103991031011008001001001MA1999999096721MD1999999-0111REMSYN070AAXX  12184 82983 32595 30506 10362 20164 39672 40078 83100 333 59011;EQDQ01  00002PRCP99
0208829830999992001091300004-09370-040480FM-12+037099999V0200901N004112200019N0020001N1+03001+01641101081ADDAA199000091GA1001+999999999GF100991001001999999001001KA1240M+03681MA1999999096981MD1999999+0111REMSYN082AAXX  13004 82983 32995 00908 10300 20164 39698 40108 333 10368 29044 55155 58011;EQDQ01  00002PRCP99
0186829830999992001091312004-09370-040480FM-12+037099999V0200901N004110075019N0020001N1+02521+01741101711ADDAA199000091GF105991051011008001001001KA1240N+02201MA1999999097571MD1999999+0441REMSYN076AAXX  13124 82983 32595 50908 10252 20174 39757 40171 85100 333 20220 58044;EQDQ01  00002PRCP99
0167829830999992001091318004-09370-040480FM-12+037099999V0200501N004112200019N0020001N1+03221+01781101141ADDAA199000091GF102991021011008001001001MA1999999097041MD1999999+0321REMSYN070AAXX  13184 82983 32595 20508 10322 20178 39704 40114 82100 333 58032;EQDQ01  00002PRCP99
0198829830999992001091400004-09370-040480FM-12+037099999V0200501N003112200019N0020001N1+02901+01401101311ADDAA199000091GF102991021011008001001001KA1240M+03341MA1999999097171MD1999999+0191REMSYN088AAXX  14004 82983 32595 20506 10290 20140 39717 40131 82100 333 10334 29056 55100 58019;EQDQ01  00002PRCP99
0186829830999992001091412004-09370-040480FM-12+037099999V0200901N004110075019N0020001N1+02541+01711101651ADDAA199000091GF106991061021008001001001KA1240N+02241MA1999999097511MD1999999-0061REMSYN076AAXX  14124 82983 32595 60908 10254 20171 39751 40165 86200 333 20224 59006;EQDQ01  00002PRCP99
0167829830999992001091418004-09370-040480FM-12+037099999V0200501N003112200019N0020001N1+03181+01731101111ADDAA199000091GF104991041011008001001001MA1999999096981MD1999999-0061REMSYN070AAXX  14184 82983 32595 40506 10318 20173 39698 40111 84100 333 59006;EQDQ01  00002PRCP99
0208829830999992001091500004-09370-040480FM-12+037099999V0200901N001512200019N0020001N1+02901+01551101171ADDAA199000091GA1001+999999999GF100991001001999999001001KA1240M+03261MA1999999097041MD1999999-0131REMSYN082AAXX  15004 82983 32995 00903 10290 20155 39704 40117 333 10326 29048 55082 59013;EQDQ01  00002PRCP99
0196829830999992001091512004-09370-040480FM-12+037099999V0200501N003112200019N0020001N1+02401+01651101561ADDAA199000091GA1001+999999999GF100991001001999999001001KA1240N+02131MA1999999097411MD1999999-0121REMSYN070AAXX  15124 82983 32995 00506 10240 20165 39741 40156 333 20213 59012;EQDQ01  00002PRCP99
0177829830999992001091518004-09370-040480FM-12+037099999V0203601N001512200019N0020001N1+03401+01451100851ADDAA199000091GA1001+999999999GF100991001001999999001001MA1999999096761MD1999999-0221REMSYN064AAXX  15184 82983 32995 03603 10340 20145 39676 40085 333 59022;EQDQ01  00002PRCP99
0208829830999992001091600004-09370-040480FM-12+037099999V0200901N001512200019N0020001N1+02981+01511101031ADDAA199000091GA1001+999999999GF100991001001999999001001KA1240M+03441MA1999999096911MD1999999-0121REMSYN082AAXX  16004 82983 32995 00903 10298 20151 39691 40103 333 10344 29044 55103 59012;EQDQ01  00002PRCP99
0196829830999992001091612004-09370-040480FM-12+037099999V0200501N003112200019N0020001N1+02581+01821101441ADDAA199000091GA1001+999999999GF100991001001999999001001KA1240N+02191MA1999999097331MD1999999-0081REMSYN070AAXX  16124 82983 32995 00506 10258 20182 39733 40144 333 20219 59008;EQDQ01  00002PRCP99
0208829830999992001091700004-09370-040480FM-12+037099999V0200501N001512200019N0020001N1+03161+01381101001ADDAA199000091GA1001+999999999GF100991001001999999001001KA1240M+03701MA1999999096911MD1999999+0001REMSYN082AAXX  17004 82983 32995 00503 10316 20138 39691 40100 333 10370 29040 55104 58000;EQDQ01  00002PRCP99
0196829830999992001091712004-09370-040480FM-12+037099999V0200501N003112200019N0020001N1+02601+01841101411ADDAA199000091GA1001+999999999GF100991001001999999001001KA1240N+02281MA1999999097301MD1999999-0031REMSYN070AAXX  17124 82983 32995 00506 10260 20184 39730 40141 333 20228 59003;EQDQ01  00002PRCP99
0167829830999992001091718004-09370-040480FM-12+037099999V0200901N003112200019N0020001N1+03561+01731100871ADDAA199000091GF104991041021008001001001MA1999999096811MD1999999+0061REMSYN070AAXX  17184 82983 32595 40906 10356 20173 39681 40087 84200 333 58006;EQDQ01  00002PRCP99
0208829830999992001091800004-09370-040480FM-12+037099999V0200501N005112200019N0020001N1+03001+01811101071ADDAA199000091GA1001+999999999GF100991001001999999001001KA1240M+03641MA1999999096971MD1999999+0061REMSYN082AAXX  18004 82983 32995 00510 10300 20181 39697 40107 333 10364 29049 55105 58006;EQDQ01  00002PRCP99
0201829830999992001091812004-09370-040480FM-12+037099999V0200901N004110450019N0020001N1+02561+02021101551ADDAA124021191AY151061AY261061GF106991041011008001011021KA1240N+02321MA1999999097421MD1999999+0121MW1031REMSYN088AAXX  18124 82983 21595 60908 10256 20202 39742 40155 70356 84112 333 20232 58012 60214;
0167829830999992001091818004-09370-040480FM-12+037099999V0200901N003110075019N0020001N1+02901+01991101251ADDAA199000091GF105991051011008001001001MA1999999097111MD1999999+0301REMSYN070AAXX  18184 82983 32595 50906 10290 20199 39711 40125 85100 333 58030;EQDQ01  00002PRCP99
0208829830999992001091900004-09370-040480FM-12+037099999V0200901N006712200019N0020001N1+02341+01761101601ADDAA199000091GA1001+999999999GF100991001001999999001001KA1240M+03001MA1999999097421MD1999999+0451REMSYN082AAXX  19004 82983 32995 00913 10234 20176 39742 40160 333 10300 29068 55038 58045;EQDQ01  00002PRCP99
0186829830999992001091912004-09370-040480FM-12+037099999V0201401N005110075019N0020001N1+02181+01651101801ADDAA199000091GF108991081051008001999999KA1240N+02081MA1999999097581MD1999999+0161REMSYN076AAXX  19124 82983 32595 81410 10218 20165 39758 40180 885// 333 20208 58016;EQDQ01  00002PRCP99
0167829830999992001091918004-09370-040480FM-12+037099999V0200501N005110075019N0020001N1+02701+01781101401ADDAA199000091GF106991061011008001001001MA1999999097221MD1999999+0111REMSYN070AAXX  19184 82983 32595 60510 10270 20178 39722 40140 86100 333 58011;EQDQ01  00002PRCP99
0208829830999992001092000004-09370-040480FM-12+037099999V0200901N005112200019N0020001N1+02281+01811101561ADDAA199000091GA1001+999999999GF100991001001999999001001KA1240M+02781MA1999999097631MD1999999-0061REMSYN082AAXX  20004 82983 32995 00910 10228 20181 39763 40156 333 10278 29070 55048 59006;EQDQ01  00002PRCP99
0186829830999992001092012004-09370-040480FM-12+037099999V0200901N004110075019N0020001N1+02361+01781101731ADDAA199000091GF106991061021008001001001KA1240N+02061MA1999999097531MD1999999-0051REMSYN076AAXX  20124 82983 32595 60908 10236 20178 39753 40173 86200 333 20206 59005;EQDQ01  00002PRCP99
0167829830999992001092018004-09370-040480FM-12+037099999V0200901N004112200019N0020001N1+02861+01871101271ADDAA199000091GF103991031011008001001001MA1999999097101MD1999999-0121REMSYN070AAXX  20184 82983 32595 30908 10286 20187 39710 40127 83100 333 59012;EQDQ01  00002PRCP99
0208829830999992001092100004-09370-040480FM-12+037099999V0200901N004112200019N0020001N1+02541+01781101391ADDAA199000091GA1001+999999999GF100991001001999999001001KA1240M+02921MA1999999097221MD1999999-0141REMSYN082AAXX  21004 82983 32995 00908 10254 20178 39722 40139 333 10292 29063 55089 59014;EQDQ01  00002PRCP99
0186829830999992001092112004-09370-040480FM-12+037099999V0200901N003110075019N0020001N1+02441+01811101661ADDAA199000091GF108991061051008001999999KA1240N+02161MA1999999097491MD1999999-0041REMSYN076AAXX  21124 82983 32595 80906 10244 20181 39749 40166 865// 333 20216 59004;EQDQ01  00002PRCP99
0167829830999992001092118004-09370-040480FM-12+037099999V0200501N006710075019N0020001N1+02731+01821101261ADDAA199000091GF105991051021008001001001MA1999999097091MD1999999-0011REMSYN070AAXX  21184 82983 32595 50513 10273 20182 39709 40126 85200 333 59001;EQDQ01  00002PRCP99
0198829830999992001092200004-09370-040480FM-12+037099999V0200901N005110075019N0020001N1+02441+01861101491ADDAA199000091GF108991081051008001999999KA1240M+02921MA1999999097321MD1999999+0101REMSYN088AAXX  22004 82983 32595 80910 10244 20186 39732 40149 885// 333 10292 29067 55065 58010;EQDQ01  00002PRCP99
0186829830999992001092212004-09370-040480FM-12+037099999V0200901N003110075019N0020001N1+02341+01761101721ADDAA199000091GF106991061021008001001001KA1240N+02141MA1999999097541MD1999999+0051REMSYN076AAXX  22124 82983 32595 60906 10234 20176 39754 40172 86200 333 20214 58005;EQDQ01  00002PRCP99
0167829830999992001092218004-09370-040480FM-12+037099999V0200901N003110075019N0020001N1+02961+01871101271ADDAA199000091GF105991051011008001001001MA1999999097131MD1999999+0041REMSYN070AAXX  22184 82983 32595 50906 10296 20187 39713 40127 85100 333 58004;EQDQ01  00002PRCP99
0208829830999992001092300004-09370-040480FM-12+037099999V0200901N004112200019N0020001N1+02541+01781101451ADDAA199000091GA1001+999999999GF100991001001999999001001KA1240M+03041MA1999999097281MD1999999-0041REMSYN082AAXX  23004 82983 32995 00908 10254 20178 39728 40145 333 10304 29062 55067 59004;EQDQ01  00002PRCP99
0186829830999992001092312004-09370-040480FM-12+037099999V0200901N003112200019N0020001N1+02481+01851101611ADDAA199000091GF104991041011008001001001KA1240N+02121MA1999999097441MD1999999-0101REMSYN076AAXX  23124 82983 32595 40906 10248 20185 39744 40161 84100 333 20212 59010;EQDQ01  00002PRCP99
0167829830999992001092318004-09370-040480FM-12+037099999V0200501N004110075019N0020001N1+03201+01711101061ADDAA199000091GF105991051021008001001001MA1999999096931MD1999999-0101REMSYN070AAXX  23184 82983 32595 50508 10320 20171 39693 40106 85200 333 59010;EQDQ01  00002PRCP99
0208829830999992001092400004-09370-040480FM-12+037099999V0200901N003112200019N0020001N1+02601+01741101381ADDAA199000091GA1001+999999999GF100991001001999999001001KA1240M+03261MA1999999097221MD1999999-0061REMSYN082AAXX  24004 82983 32595 00906 10260 20174 39722 40138 333 10326 29057 55104 59006;EQDQ01  00002PRCP99
0196829830999992001092412004-09370-040480FM-12+037099999V0200901N005112200019N0020001N1+02461+01631101661ADDAA199000091GA1001+999999999GF100991001001999999001001KA1240N+02001MA1999999097491MD1999999+0051REMSYN070AAXX  24124 82983 32995 00910 10246 20163 39749 40166 333 20200 58005;EQDQ01  00002PRCP99
0167829830999992001092418004-09370-040480FM-12+037099999V0200501N004112200019N0020001N1+03301+01551101101ADDAA199000091GF103991031011008001001001MA1999999096961MD1999999+0031REMSYN070AAXX  24184 82983 32595 30508 10330 20155 39696 40110 83100 333 58003;EQDQ01  00002PRCP99
0208829830999992001092500004-09370-040480FM-12+037099999V0200501N004112200019N0020001N1+02761+01591101331ADDAA199000091GA1001+999999999GF100991001001999999001001KA1240M+03381MA1999999097181MD1999999-0041REMSYN082AAXX  25004 82983 32995 00508 10276 20159 39718 40133 333 10338 29048 55110 59004;EQDQ01  00002PRCP99
0186829830999992001092512004-09370-040480FM-12+037099999V0200901N004110075019N0020001N1+02361+01761101671ADDAA199000091GF108991081051008001999999KA1240N+02141MA1999999097501MD1999999+0011REMSYN076AAXX  25124 82983 32595 80908 10236 20176 39750 40167 885// 333 20214 58001;EQDQ01  00002PRCP99
0167829830999992001092518004-09370-040480FM-12+037099999V0200501N005112200019N0020001N1+03221+01651101101ADDAA199000091GF102991021011008001001001MA1999999096961MD1999999+0001REMSYN070AAXX  25184 82983 32595 20510 10322 20165 39696 40110 82100 333 58000;EQDQ01  00002PRCP99
0208829830999992001092600004-09370-040480FM-12+037099999V0200501N004112200019N0020001N1+02781+01701101371ADDAA199000091GA1001+999999999GF100991001001999999001001KA1240M+03301MA1999999097211MD1999999+0031REMSYN082AAXX  26004 82983 32995 00508 10278 20170 39721 40137 333 10330 29053 55088 58003;EQDQ01  00002PRCP99
0186829830999992001092612004-09370-040480FM-12+037099999V0200901N003110075019N0020001N1+02541+01861101661ADDAA199000091GF107991071011008001001001KA1240N+02301MA1999999097511MD1999999+0011REMSYN076AAXX  26124 82983 32595 70906 10254 20186 39751 40166 87100 333 20230 58001;EQDQ01  00002PRCP99
0167829830999992001092618004-09370-040480FM-12+037099999V0200501N004112200019N0020001N1+03141+01841101111ADDAA199000091GF104991041011008001001001MA1999999096981MD1999999+0021REMSYN070AAXX  26184 82983 32595 40508 10314 20184 39698 40111 84100 333 58002;EQDQ01  00002PRCP99
0208829830999992001092700004-09370-040480FM-12+037099999V0200501N003112200019N0020001N1+02741+01611101201ADDAA199000091GA1001+999999999GF100991001001999999001001KA1240M+03221MA1999999097061MD1999999-0151REMSYN082AAXX  27004 82983 32995 00506 10274 20161 39706 40120 333 10322 29053 55090 59015;EQDQ01  00002PRCP99
0196829830999992001092712004-09370-040480FM-12+037099999V0200901N003112200019N0020001N1+02461+01681101571ADDAA199000091GA1001+999999999GF100991001001999999001001KA1240N+02101MA1999999097411MD1999999-0101REMSYN070AAXX  27124 82983 32995 00906 10246 20168 39741 40157 333 20210 59010;EQDQ01  00002PRCP99
0177829830999992001092718004-09370-040480FM-12+037099999V0200501N003112200019N0020001N1+03341+01491100921ADDAA199000091GA1001+999999999GF100991001001999999001001MA1999999096801MD1999999-0121REMSYN064AAXX  27184 82983 32995 00506 10334 20149 39680 40092 333 59012;EQDQ01  00002PRCP99
0208829830999992001092800004-09370-040480FM-12+037099999V0200901N003112200019N0020001N1+02981+01441101181ADDAA199000091GA1001+999999999GF100991001001999999001001KA1240M+03441MA1999999097051MD1999999-0011REMSYN082AAXX  28004 82983 32995 00906 10298 20144 39705 40118 333 10344 29043 55111 59001;EQDQ01  00002PRCP99
0186829830999992001092812004-09370-040480FM-12+037099999V0200901N002610075019N0020001N1+02521+01841101681ADDAA199000091GF106991061021008001001001KA1240N+02221MA1999999097491MD1999999+0081REMSYN076AAXX  28124 82983 32595 60905 10252 20184 39749 40168 86200 333 20222 58008;EQDQ01  00002PRCP99
0167829830999992001092818004-09370-040480FM-12+037099999V0200901N003112200019N0020001N1+03381+01661101061ADDAA199000091GF104991041011008001001001MA1999999096961MD1999999+0161REMSYN070AAXX  28184 82983 32595 40906 10338 20166 39696 40106 84100 333 58016;EQDQ01  00002PRCP99
0208829830999992001092900004-09370-040480FM-12+037099999V0200501N003112200019N0020001N1+02911+01481101261ADDAA199000091GA1001+999999999GF100991001001999999001001KA1240M+03401MA1999999097131MD1999999+0081REMSYN082AAXX  29004 82983 32995 00506 10291 29148 39713 40126 333 10340 29047 55092 58008;EQDQ01  00002PRCP99
0186829830999992001092912004-09370-040480FM-12+037099999V0200901N005110075019N0020001N1+02501+01771101771ADDAA199000091GF108991081051008001999999KA1240N+02241MA1999999097621MD1999999+0131REMSYN076AAXX  29124 82983 32595 80910 10250 20177 39762 40177 885// 333 20224 58013;EQDQ01  00002PRCP99
0167829830999992001092918004-09370-040480FM-12+037099999V0200501N003110075019N0020001N1+03181+01801101301ADDAA199000091GF105991051021008001001001MA1999999097161MD1999999+0201REMSYN070AAXX  29184 82983 32595 50506 10318 20180 39716 40130 85200 333 58020;EQDQ01  00002PRCP99
0208829830999992001093000004-09370-040480FM-12+037099999V0200901N002612200019N0020001N1+02881+01501101351ADDAA199000091GA1001+999999999GF100991001001999999001001KA1240M+03221MA1999999097211MD1999999+0081REMSYN082AAXX  30004 82983 32595 00905 10288 20150 39721 40135 333 10322 29049 55076 58008;EQDQ01  00002PRCP99
0186829830999992001093012004-09370-040480FM-12+037099999V0200901N004110075019N0020001N1+02481+01801101801ADDAA199000091GF107991071021008001001001KA1240N+02291MA1999999097651MD1999999+0031REMSYN076AAXX  30124 82983 32595 70908 10248 20180 39765 40180 87200 333 20229 58003;EQDQ01  00002PRCP99
0167829830999992001093018004-09370-040480FM-12+037099999V0200901N003112200019N0020001N1+03261+01421101241ADDAA199000091GF105991031011008001001011MA1999999097131MD1999999-0031REMSYN070AAXX  30184 82983 32595 50906 10326 20142 39713 40124 83101 333 59003;EQDQ01  00002PRCP99
0208829830999992001100100004-09370-040480FM-12+037099999V0200901N002612200019N0020001N1+02901+01551101421ADDAA199000091GA1001+999999999GF100991001001999999001001KA1240M+03321MA1999999097281MD1999999+0071REMSYN082AAXX  01004 82983 32995 00905 10290 20155 39728 40142 333 10332 29047 55085 58007;EQDQ01  00002PRCP99
0186829830999992001100112004-09370-040480FM-12+037099999V0200901N003112200019N0020001N1+02501+01771101751ADDAA199000091GF102991021011008001001001KA1240N+02091MA1999999097601MD1999999-0051REMSYN076AAXX  01124 82983 32595 20906 10250 20177 39760 40175 82100 333 20209 59005;EQDQ01  00002PRCP99
0167829830999992001100118004-09370-040480FM-12+037099999V0200501N003112200019N0020001N1+03301+01641101191ADDAA199000091GF103991031011008001001001MA1999999097071MD1999999-0061REMSYN070AAXX  01184 82983 32595 30506 10330 20164 39707 40119 83100 333 59006;EQDQ01  00002PRCP99
0198829830999992001100200004-09370-040480FM-12+037099999V0200901N003112200019N0020001N1+02981+01511101371ADDAA199000091GF102991021011008001001001KA1240M+03351MA1999999097251MD1999999-0031REMSYN088AAXX  02004 82983 32595 20906 10298 20151 39725 40137 82100 333 10335 29046 55109 59003;EQDQ01  00002PRCP99
0186829830999992001100212004-09370-040480FM-12+037099999V0200901N004112200019N0020001N1+02541+01781101791ADDAA199000091GF103991031011008001001001KA1240N+02161MA1999999097651MD1999999+0051REMSYN076AAXX  02124 82983 32595 30908 10254 20178 39765 40179 83100 333 20216 58005;EQDQ01  00002PRCP99
0167829830999992001100218004-09370-040480FM-12+037099999V0200501N003112200019N0020001N1+03481+01471101221ADDAA199000091GF104991041011008001001001MA1999999097121MD1999999+0051REMSYN070AAXX  02184 82983 32595 40506 10348 20147 39712 40122 84100 333 58005;EQDQ01  00002PRCP99
0208829830999992001100300004-09370-040480FM-12+037099999V0200501N002612200019N0020001N1+03001+01491101351ADDAA199000091GA1001+999999999GF100991001001999999001001KA1240M+03521MA1999999097231MD1999999-0021REMSYN082AAXX  03004 82983 32995 00505 10300 20149 39723 40135 333 10352 29043 55109 59002;EQDQ01  00002PRCP99
0186829830999992001100312004-09370-040480FM-12+037099999V0200901N004112200019N0020001N1+02681+01861101801ADDAA199000091GF102991021011008001001001KA1240N+02181MA1999999097681MD1999999+0031REMSYN076AAXX  03124 82983 32595 20908 10268 20186 39768 40180 82100 333 20218 58003;EQDQ01  00002PRCP99
0177829830999992001100318004-09370-040480FM-12+037099999V0200501N003112200019N0020001N1+03501+01431101231ADDAA199000091GA1001+999999999GF100991001001999999001001MA1999999097131MD1999999+0011REMSYN064AAXX  03184 82983 32995 00506 10350 20143 39713 40123 333 58001;EQDQ01  00002PRCP99
0208829830999992001100400004-09370-040480FM-12+037099999V0203601N001512200019N0020001N1+02991+01291101251ADDAA199000091GA1001+999999999GF100991001001999999001001KA1240M+03561MA1999999097241MD1999999+0011REMSYN082AAXX  04004 82983 32995 03603 10299 20129 39724 40125 333 10356 29040 55112 58001;EQDQ01  00002PRCP99
0186829830999992001100412004-09370-040480FM-12+037099999V0200901N003112200019N0020001N1+02761+01971101591ADDAA199000091GF102991021011008001001001KA1240N+02361MA1999999097471MD1999999-0211REMSYN076AAXX  04124 82983 32595 20906 10276 20197 39747 40159 82100 333 20236 59021;EQDQ01  00002PRCP99
0167829830999992001100418004-09370-040480FM-12+037099999V0200501N003112200019N0020001N1+03661+01571101031ADDAA199000091GF102991021011008001001001MA1999999096961MD1999999-0171REMSYN070AAXX  04184 82983 32595 20506 10366 20157 39696 40103 82100 333 59017;EQDQ01  00002PRCP99
0196829830999992001100512004-09370-040480FM-12+037099999V0200501N003112200019N0020001N1+02681+01761101531ADDAA199000091GA1001+999999999GF100991001001999999001001KA1240N+02281MA1999999097411MD1999999-0061REMSYN070AAXX  05124 82983 32995 00506 10268 20176 39741 40153 333 20228 59006;EQDQ01  00002PRCP99
0177829830999992001100518004-09370-040480FM-12+037099999V0203601N003112200019N0020001N1+03641+01501100921ADDAA199000091GA1001+999999999GF100991001001999999001001MA1999999096861MD1999999-0101REMSYN064AAXX  05184 82983 32995 03606 10364 20150 39686 40092 333 59010;EQDQ01  00002PRCP99
0208829830999992001100600004-09370-040480FM-12+037099999V0203601N002612200019N0020001N1+03121+01001100991ADDAA199000091GA1001+999999999GF100991001001999999001001KA1240M+03701MA1999999096901MD1999999-0211REMSYN082AAXX  06004 82983 32995 03605 10312 20100 39690 40099 333 10370 29035 55109 59021;EQDQ01  00002PRCP99
0196829830999992001100612004-09370-040480FM-12+037099999V0200501N003112200019N0020001N1+02901+01841101341ADDAA199000091GA1001+999999999GF100991001001999999001001KA1240N+02361MA1999999097261MD1999999-0151REMSYN070AAXX  06124 82983 32995 00506 10290 20184 39726 40134 333 20236 59015;EQDQ01  00002PRCP99
0167829830999992001100618004-09370-040480FM-12+037099999V0203601N003112200019N0020001N1+03721+01391100831ADDAA199000091GF101991011001008001001001MA1999999096771MD1999999-0091REMSYN070AAXX  06184 82983 32595 13606 10372 20139 39677 40083 81000 333 59009;EQDQ01  00002PRCP99
0196829830999992001100712004-09370-040480FM-12+037099999V0200901N003112200019N0020001N1+02621+01501101391ADDAA199000091GA1001+999999999GF100991001001999999001001KA1240N+02361MA1999999097251MD1999999+0021REMSYN070AAXX  07124 82983 32995 00906 10262 20150 39725 40139 333 20236 58002;EQDQ01  00002PRCP99
0167829830999992001100718004-09370-040480FM-12+037099999V0200901N003112200019N0020001N1+03441+01481100941ADDAA199000091GF102991021011008001001001MA1999999096861MD1999999+0091REMSYN070AAXX  07184 82983 32595 20906 10344 20148 39686 40094 82100 333 58009;EQDQ01  00002PRCP99
0208829830999992001100800004-09370-040480FM-12+037099999V0200901N003112200019N0020001N1+03061+01661101111ADDAA199000091GA1001+999999999GF100991001001999999001001KA1240M+03501MA1999999097011MD1999999-0191REMSYN082AAXX  08004 82983 32995 00906 10306 20166 39701 40111 333 10350 29044 55103 59019;EQDQ01  00002PRCP99
0186829830999992001100812004-09370-040480FM-12+037099999V0200901N004110075019N0020001N1+02601+01761101511ADDAA199000091GF108991081051008001999999KA1240N+02321MA1999999097391MD1999999+0111REMSYN076AAXX  08124 82983 32595 80908 10260 20176 39739 40151 885// 333 20232 58011;EQDQ01  00002PRCP99
0167829830999992001100818004-09370-040480FM-12+037099999V0200501N003112200019N0020001N1+03221+01771100931ADDAA199000091GF102991021011008001001001MA1999999096841MD1999999-0021REMSYN070AAXX  08184 82983 32595 20506 10322 20177 39684 40093 82100 333 59002;EQDQ01  00002PRCP99
0208829830999992001100900004-09370-040480FM-12+037099999V0200501N002612200019N0020001N1+02981+01591101071ADDAA199000091GA1001+999999999GF100991001001999999001001KA1240M+03381MA1999999096951MD1999999-0061REMSYN082AAXX  09004 82983 32995 00505 10298 20159 39695 40107 333 10338 29047 55090 59006;EQDQ01  00002PRCP99
0186829830999992001100912004-09370-040480FM-12+037099999V0200901N003110075019N0020001N1+02561+01831101431ADDAA199000091GF108991081051008001999999KA1240N+02421MA1999999097311MD1999999-0081REMSYN076AAXX  09124 82983 32595 80906 10256 20183 39731 40143 885// 333 20242 59008;EQDQ01  00002PRCP99
0167829830999992001100918004-09370-040480FM-12+037099999V0203601N003112200019N0020001N1+03241+01931100941ADDAA199000091GF104991041011008001001001MA1999999096841MD1999999+0001REMSYN070AAXX  09184 82983 32595 43606 10324 20193 39684 40094 84100 333 58000;EQDQ01  00002PRCP99
0186829830999992001101012004-09370-040480FM-12+037099999V0200901N004112200019N0020001N1+02561+01931101481ADDAA199000091GF104991041011008001001001KA1240N+02241MA1999999097361MD1999999+0051REMSYN076AAXX  10124 82983 32595 40908 10256 20193 39736 40148 84100 333 20224 58005;EQDQ01  00002PRCP99
0167829830999992001101018004-09370-040480FM-12+037099999V0200501N002612200019N0020001N1+03401+01811100931ADDAA199000091GF103991031011008001001001MA1999999096841MD1999999+0001REMSYN070AAXX  10184 82983 32595 30505 10340 20181 39684 40093 83100 333 58000;EQDQ01  00002PRCP99
0208829830999992001101100004-09370-040480FM-12+037099999V0200901N005112200019N0020001N1+03081+01751101051ADDAA199000091GA1001+999999999GF100991001001999999001001KA1240M+03501MA1999999096951MD1999999+0041REMSYN082AAXX  11004 82983 32995 00910 10308 20175 39695 40105 333 10350 29049 55111 58004;EQDQ01  00002PRCP99
0186829830999992001101112004-09370-040480FM-12+037099999V0200901N005112200019N0020001N1+02641+01801101451ADDAA199000091GF104991041011008001001001KA1240N+02291MA1999999097341MD1999999-0021REMSYN076AAXX  11124 82983 32595 40910 10264 20180 39734 40145 84100 333 20229 59002;EQDQ01  00002PRCP99
0167829830999992001101118004-09370-040480FM-12+037099999V0200501N005110075019N0020001N1+03301+01871100951ADDAA199000091GF105991051021008001001001MA1999999096861MD1999999+0021REMSYN070AAXX  11184 82983 32595 50510 10330 20187 39686 40095 85200 333 58002;EQDQ01  00002PRCP99
0208829830999992001101200004-09370-040480FM-12+037099999V0200901N006712200019N0020001N1+02721+02081101151ADDAA199000091GA1001+999999999GF100991001001999999001001KA1240M+03361MA1999999097021MD1999999+0071REMSYN082AAXX  12004 82983 32995 00913 10272 20208 39702 40115 333 10336 29060 55095 58007;EQDQ01  00002PRCP99
0186829830999992001101212004-09370-040480FM-12+037099999V0200901N005110075019N0020001N1+02501+01871101591ADDAA199000091GF108991081051008001999999KA1240N+02211MA1999999097431MD1999999+0091REMSYN076AAXX  12124 82983 32595 80910 10250 20187 39743 40159 885// 333 20221 58009;EQDQ01  00002PRCP99
0167829830999992001101218004-09370-040480FM-12+037099999V0200501N004110075019N0020001N1+03191+01931101131ADDAA199000091GF105991051021008001001001MA1999999096991MD1999999+0131REMSYN070AAXX  12184 82983 32595 50508 10319 20193 39699 40113 85200 333 58013;EQDQ01  00002PRCP99
0208829830999992001101300004-09370-040480FM-12+037099999V0200501N005112200019N0020001N1+02751+01811101391ADDAA199000091GA1001+999999999GF100991001001999999001001KA1240M+03241MA1999999097241MD1999999+0221REMSYN082AAXX  13004 82983 32995 00510 10275 20181 39724 40139 333 10324 29057 55083 58022;EQDQ01  00002PRCP99
0186829830999992001101312004-09370-040480FM-12+037099999V0200901N003110075019N0020001N1+02461+01711101671ADDAA199000091GF106991061021008001001001KA1240N+02261MA1999999097511MD1999999+0081REMSYN076AAXX  13124 82983 32595 60906 10246 20171 39751 40167 86200 333 20226 58008;EQDQ01  00002PRCP99
0167829830999992001101318004-09370-040480FM-12+037099999V0200501N003110075019N0020001N1+03061+01961101111ADDAA199000091GF106991061021008001001001MA1999999096971MD1999999-0021REMSYN070AAXX  13184 82983 32595 60506 10306 20196 39697 40111 86200 333 59002;EQDQ01  00002PRCP99
0208829830999992001101400004-09370-040480FM-12+037099999V0200901N005112200019N0020001N1+02721+01681101331ADDAA199000091GA1001+999999999GF100991001001999999001001KA1240M+03161MA1999999097161MD1999999-0081REMSYN082AAXX  14004 82983 32595 00910 10272 20168 39716 40133 333 10316 29055 55079 59008;EQDQ01  00002PRCP99
0186829830999992001101412004-09370-040480FM-12+037099999V0200901N004112200019N0020001N1+02601+01761101551ADDAA199000091GF102991021011008001001001KA1240N+02151MA1999999097401MD1999999-0111REMSYN076AAXX  14124 82983 32595 20908 10260 20176 39740 40155 82100 333 20215 59011;EQDQ01  00002PRCP99
0167829830999992001101418004-09370-040480FM-12+037099999V0200501N003112200019N0020001N1+03301+01721101011ADDAA199000091GF103991031011008001001001MA1999999096901MD1999999-0071REMSYN070AAXX  14184 82983 32595 30506 10330 20172 39690 40101 83100 333 59007;EQDQ01  00002PRCP99
0208829830999992001101500004-09370-040480FM-12+037099999V0200901N006712200019N0020001N1+02621+01911101161ADDAA199000091GA1001+999999999GF100991001001999999001001KA1240M+03381MA1999999097021MD1999999-0141REMSYN082AAXX  15004 82983 32995 00913 10262 20191 39702 40116 333 10338 29057 55101 59014;EQDQ01  00002PRCP99
0186829830999992001101512004-09370-040480FM-12+037099999V0200901N004110075019N0020001N1+02501+02001101421ADDAA199000091GF108991081051008001999999KA1240N+02231MA1999999097261MD1999999-0141REMSYN076AAXX  15124 82983 32595 80908 10250 20200 39726 40142 885// 333 20223 59014;EQDQ01  00002PRCP99
0167829830999992001101518004-09370-040480FM-12+037099999V0200901N003110075019N0020001N1+03201+01891100931ADDAA199000091GF105991051021008001001001MA1999999096811MD1999999-0091REMSYN070AAXX  15184 82983 32595 50906 10320 20189 39681 40093 85200 333 59009;EQDQ01  00002PRCP99
0208829830999992001101600004-09370-040480FM-12+037099999V0200901N005712200019N0020001N1+02701+02031101131ADDAA199000091GA1001+999999999GF100991001001999999001001KA1240M+03261MA1999999096991MD1999999-0031REMSYN082AAXX  16004 82983 32995 00911 10270 20203 39699 40113 333 10326 29064 55078 59003;EQDQ01  00002PRCP99
0186829830999992001101612004-09370-040480FM-12+037099999V0200901N003110075019N0020001N1+02541+02041101351ADDAA199000091GF108991081051008001999999KA1240N+02301MA1999999097201MD1999999-0061REMSYN076AAXX  16124 82983 32595 80906 10254 20204 39720 40135 885// 333 20230 59006;EQDQ01  00002PRCP99
0167829830999992001101618004-09370-040480FM-12+037099999V0200501N003110075019N0020001N1+02981+01951100931ADDAA199000091GF107991071021008001001001MA1999999096811MD1999999+0001REMSYN070AAXX  16184 82983 32595 70506 10298 20195 39681 40093 87200 333 58000;EQDQ01  00002PRCP99
0198829830999992001101700004-09370-040480FM-12+037099999V0200901N003110075019N0020001N1+02561+02041101151ADDAA199000091GF106991061021008001001001KA1240M+03061MA1999999097011MD1999999+0021REMSYN088AAXX  17004 82983 32595 60906 10256 20204 39701 40115 86200 333 10306 29068 55042 58002;EQDQ01  00002PRCP99
0186829830999992001101712004-09370-040480FM-12+037099999V0200901N003110075019N0020001N1+02441+01861101341ADDAA199000091GF108991081051008001999999KA1240N+02281MA1999999097181MD1999999-0021REMSYN076AAXX  17124 82983 32595 80906 10244 20186 39718 40134 885// 333 20228 59002;EQDQ01  00002PRCP99
0167829830999992001101718004-09370-040480FM-12+037099999V0200501N002612200019N0020001N1+02921+02011101001ADDAA199000091GF106991041021008001001011MA1999999096871MD1999999+0061REMSYN070AAXX  17184 82983 32595 60505 10292 20201 39687 40100 84201 333 58006;EQDQ01  00002PRCP99
0208829830999992001101800004-09370-040480FM-12+037099999V0200901N003112200019N0020001N1+02621+01881101051ADDAA199000091GA1001+999999999GF100991001001999999001001KA1240M+03001MA1999999096911MD1999999-0121REMSYN082AAXX  18004 82983 32995 00906 10262 20188 39691 40105 333 10300 29064 55118 59012;EQDQ01  00002PRCP99
0186829830999992001101812004-09370-040480FM-12+037099999V0200901N003110075019N0020001N1+02621+01911101191ADDAA199000091GF106991061021008001001001KA1240N+02291MA1999999097051MD1999999-0131REMSYN076AAXX  18124 82983 32595 60906 10262 20191 39705 40119 86200 333 20229 59013;EQDQ01  00002PRCP99
0167829830999992001101818004-09370-040480FM-12+037099999V0200901N003110075019N0020001N1+03441+01841100751ADDAA199000091GF106991061021008001001001MA1999999096671MD1999999-0201REMSYN070AAXX  18184 82983 32595 60906 10344 20184 39667 40075 86200 333 59020;EQDQ01  00002PRCP99
0208829830999992001101900004-09370-040480FM-12+037099999V0200501N003112200019N0020001N1+02981+01891100811ADDAA199000091GA1001+999999999GF100991001001999999001001KA1240M+03481MA1999999096731MD1999999-0181REMSYN082AAXX  19004 82983 32995 00506 10298 20189 39673 40081 333 10348 29040 55094 59018;EQDQ01  00002PRCP99
0186829830999992001101912004-09370-040480FM-12+037099999V0200901N003112200019N0020001N1+02801+01951101091ADDAA199000091GF102991021011008001001001KA1240N+02381MA1999999096991MD1999999-0061REMSYN076AAXX  19124 82983 32595 20906 10280 20195 39699 40109 82100 333 20238 59006;EQDQ01  00002PRCP99
0167829830999992001101918004-09370-040480FM-12+037099999V0200501N003112200019N0020001N1+03561+01731100591ADDAA199000091GF103991031011008001001001MA1999999096541MD1999999-0131REMSYN070AAXX  19184 82983 32595 30506 10356 20173 39654 40059 83100 333 59013;EQDQ01  00002PRCP99
0208829830999992001102000004-09370-040480FM-12+037099999V0203601N002612200019N0020001N1+03061+01301100711ADDAA199000091GA1001+999999999GF100991001001999999001001KA1240M+03621MA1999999096641MD1999999-0091REMSYN082AAXX  20004 82983 32995 03605 10306 20130 39664 40071 333 10362 29040 55109 59009;EQDQ01  00002PRCP99
0186829830999992001102012004-09370-040480FM-12+037099999V0200901N003112200019N0020001N1+02721+01851101231ADDAA199000091GF106991041011008001001011KA1240N+02421MA1999999097131MD1999999+0141REMSYN076AAXX  20124 82983 32595 60906 10272 20185 39713 40123 84101 333 20242 58014;EQDQ01  00002PRCP99
0167829830999992001102018004-09370-040480FM-12+037099999V0200901N003110450019N0020001N1+03361+01691100791ADDAA199000091GF106991031021008001011021MA1999999096721MD1999999+0121REMSYN070AAXX  20184 82983 32595 60906 10336 20169 39672 40079 83212 333 58012;EQDQ01  00002PRCP99
0198829830999992001102100004-09370-040480FM-12+037099999V0200901N001512200019N0020001N1+02961+01611100951ADDAA199000091GF102991021011008001001001KA1240M+03401MA1999999096861MD1999999+0221REMSYN088AAXX  21004 82983 32595 20903 10296 20161 39686 40095 82100 333 10340 29046 55057 58022;EQDQ01  00002PRCP99
0196829830999992001102112004-09370-040480FM-12+037099999V0200501N003112200019N0020001N1+02841+01911101171ADDAA199000091GA1001+999999999GF100991001001999999001001KA1240N+02481MA1999999097071MD1999999-0061REMSYN070AAXX  21124 82983 32995 00506 10284 20191 39707 40117 333 20248 59006;EQDQ01  00002PRCP99
0208829830999992001102200004-09370-040480FM-12+037099999V0200501N003112200019N0020001N1+03221+01611100841ADDAA199000091GA1001+999999999GF100991001001999999001001KA1240M+03661MA1999999096781MD1999999-0081REMSYN082AAXX  22004 82983 32995 00506 10322 20161 39678 40084 333 10366 29042 55110 59008;EQDQ01  00002PRCP99
0196829830999992001102212004-09370-040480FM-12+037099999V0200501N002612200019N0020001N1+02891+01971101181ADDAA199000091GA1001+999999999GF100991001001999999001001KA1240N+02391MA1999999097111MD1999999+0041REMSYN070AAXX  22124 82983 32995 00505 10289 20197 39711 40118 333 20239 58004;EQDQ01  00002PRCP99
0167829830999992001102218004-09370-040480FM-12+037099999V0200501N005112200019N0020001N1+03071+01371100581ADDAA199000091GF103991031011008001001001MA1999999096551MD1999999-0061REMSYN070AAXX  22184 82983 32595 30510 10307 20137 39655 40058 83100 333 59006;EQDQ01  00002PRCP99
0208829830999992001102300004-09370-040480FM-12+037099999V0203601N002612200019N0020001N1+03221+01291100681ADDAA199000091GA1001+999999999GF100991001001999999001001KA1240M+03741MA1999999096621MD1999999-0161REMSYN082AAXX  23004 82983 32995 03605 10322 20129 39662 40068 333 10374 29035 55110 59016;EQDQ01  00002PRCP99
0186829830999992001102312004-09370-040480FM-12+037099999V0200501N003110075019N0020001N1+02881+01911101051ADDAA199000091GF105991051011008001001001KA1240N+02491MA1999999097031MD1999999-0081REMSYN076AAXX  23124 82983 32595 50506 10288 20191 39703 40105 85100 333 20249 59008;EQDQ01  00002PRCP99
0167829830999992001102318004-09370-040480FM-12+037099999V0200901N003110075019N0020001N1+03201+01671100661ADDAA199000091GF105991051021008001001001MA1999999096601MD1999999+0051REMSYN070AAXX  23184 82983 32595 50906 10320 20167 39660 40066 85200 333 58005;EQDQ01  00002PRCP99
0208829830999992001102400004-09370-040480FM-12+037099999V0200901N003112200019N0020001N1+02981+01981101011ADDAA199000091GA1001+999999999GF100991001001999999001001KA1240M+03701MA1999999096931MD1999999+0311REMSYN082AAXX  24004 82983 32995 00906 10298 20198 39693 40101 333 10370 29050 55109 58031;EQDQ01  00002PRCP99
0186829830999992001102412004-09370-040480FM-12+037099999V0200901N005110075019N0020001N1+02721+02001101531ADDAA199000091GF107991071021008001001001KA1240N+02471MA1999999097411MD1999999+0381REMSYN076AAXX  24124 82983 32595 70910 10272 20200 39741 40153 87200 333 20247 58038;EQDQ01  00002PRCP99
0167829830999992001102418004-09370-040480FM-12+037099999V0200501N003110075019N0020001N1+03401+01681101031ADDAA199000091GF106991061021008001001001MA1999999096941MD1999999+0241REMSYN070AAXX  24184 82983 32595 60506 10340 20168 39694 40103 86200 333 58024;EQDQ01  00002PRCP99
0198829830999992001102500004-09370-040480FM-12+037099999V0200901N003110075019N0020001N1+03141+01441101241ADDAA199000091GF107991071021008001001001KA1240M+03461MA1999999097141MD1999999+0211REMSYN088AAXX  25004 82983 32595 70906 10314 20144 39714 40124 87200 333 10346 29043 55072 58021;EQDQ01  00002PRCP99
0186829830999992001102512004-09370-040480FM-12+037099999V0200901N005112200019N0020001N1+02661+01711101681ADDAA199000091GF103991031011008001001001KA1240N+02191MA1999999097561MD1999999+0151REMSYN076AAXX  25124 82983 32595 30910 10266 20171 39756 40168 83100 333 20219 58015;EQDQ01  00002PRCP99
0167829830999992001102518004-09370-040480FM-12+037099999V0200501N005110075019N0020001N1+03261+01761101151ADDAA199000091GF106991061021008001001001MA1999999097031MD1999999+0091REMSYN070AAXX  25184 82983 32595 60510 10326 20176 39703 40115 86200 333 58009;EQDQ01  00002PRCP99
0208829830999992001102600004-09370-040480FM-12+037099999V0200901N004112200019N0020001N1+02941+01761101291ADDAA199000091GA1001+999999999GF100991001001999999001001KA1240M+03341MA1999999097181MD1999999+0041REMSYN082AAXX  26004 82983 32995 00908 10294 20176 39718 40129 333 10334 29048 55108 58004;EQDQ01  00002PRCP99
0186829830999992001102612004-09370-040480FM-12+037099999V0200901N004110075019N0020001N1+02561+01801101591ADDAA199000091GF106991061021008001001001KA1240N+02211MA1999999097401MD1999999-0041REMSYN076AAXX  26124 82983 32595 60908 10256 20180 39740 40159 86200 333 20221 59004;EQDQ01  00002PRCP99
0167829830999992001102618004-09370-040480FM-12+037099999V0200901N003110075019N0020001N1+03341+01491100991ADDAA199000091GF106991061021008001001001MA1999999096881MD1999999-0151REMSYN070AAXX  26184 82983 32595 60906 10334 20149 39688 40099 86200 333 59015;EQDQ01  00002PRCP99
0186829830999992001102712004-09370-040480FM-12+037099999V0200901N003110075019N0200001N1+02541+01681101451ADDAA199000091GF108991081021008001999999KA1240N+02201MA1999999097291MD1999999-0111REMSYN076AAXX  27124 82983 32598 80906 10254 20168 39729 40145 882// 333 20220 59011;EQDQ01  00002PRCP99
0167829830999992001102718004-09370-040480FM-12+037099999V0200901N003110075019N0020001N1+03061+01621101121ADDAA199000091GF105991051011008001001001MA1999999096931MD1999999+0051REMSYN070AAXX  27184 82983 32595 50906 10306 20162 39693 40112 85100 333 58005;EQDQ01  00002PRCP99
0208829830999992001102800004-09370-040480FM-12+037099999V0200501N003112200019N0020001N1+02741+01641101281ADDAA199000091GA1001+999999999GF100991001001999999001001KA1240M+03201MA1999999097141MD1999999+0001REMSYN082AAXX  28004 82983 32995 00506 10274 20164 39714 40128 333 10320 29051 55070 58000;EQDQ01  00002PRCP99
0186829830999992001102812004-09370-040480FM-12+037099999V0200901N004112200019N0020001N1+02441+01761101591ADDAA199000091GF101991011011008001001001KA1240N+02101MA1999999097431MD1999999+0141REMSYN076AAXX  28124 82983 32595 10908 10244 20176 39743 40159 81100 333 20210 58014;EQDQ01  00002PRCP99
0167829830999992001102818004-09370-040480FM-12+037099999V0200901N003112200019N0020001N1+03201+01861100991ADDAA199000091GF103991031011008001001001MA1999999096861MD1999999-0071REMSYN070AAXX  28184 82983 32595 30906 10320 20186 39686 40099 83100 333 59007;EQDQ01  00002PRCP99
0198829830999992001102900004-09370-040480FM-12+037099999V0201401N002610075019N0020001N1+02941+01821101211ADDAA199000091GF106991061021008001001001KA1240M+03261MA1999999097071MD1999999-0071REMSYN088AAXX  29004 82983 32595 61405 10294 20182 39707 40121 86200 333 10326 29053 55112 59007;EQDQ01  00002PRCP99
0186829830999992001102912004-09370-040480FM-12+037099999V0201401N004110075019N0020001N1+02641+01931101551ADDAA199000091GF106991061011008001001001KA1240N+02321MA1999999097431MD1999999+0001REMSYN076AAXX  29124 82983 32595 61408 10264 20193 39743 40155 86100 333 20232 58000;EQDQ01  00002PRCP99
0167829830999992001102918004-09370-040480FM-12+037099999V0200501N003112200019N0020001N1+03461+02021100911ADDAA199000091GF105991031011008001001011MA1999999096821MD1999999-0041REMSYN070AAXX  29184 82983 32595 50506 10346 20202 39682 40091 83101 333 59004;EQDQ01  00002PRCP99
0208829830999992001103000004-09370-040480FM-12+037099999V0200501N002612200019N0020001N1+03041+01751101111ADDAA199000091GA1001+999999999GF100991001001999999001001KA1240M+03501MA1999999097011MD1999999-0061REMSYN082AAXX  30004 82983 32595 00505 10304 20175 39701 40111 333 10350 29050 55089 59006;EQDQ01  00002PRCP99
0186829830999992001103012004-09370-040480FM-12+037099999V0200901N004110075019N0020001N1+02661+02001101551ADDAA199000091GF107991071021008001001001KA1240N+02441MA1999999097431MD1999999+0001REMSYN076AAXX  30124 82983 32595 70908 10266 20200 39743 40155 87200 333 20244 58000;EQDQ01  00002PRCP99
0167829830999992001103018004-09370-040480FM-12+037099999V0200901N003112200019N0020001N1+03341+01951101011ADDAA199000091GF102991021011008001001011MA1999999096921MD1999999+0101REMSYN070AAXX  30184 82983 32595 20906 10334 20195 39692 40101 82101 333 58010;EQDQ01  00002PRCP99
0198829830999992001103100004-09370-040480FM-12+037099999V0200501N003112200019N0020001N1+03001+01941101121ADDAA199000091GF102991021011008001001001KA1240M+03461MA1999999097021MD1999999+0011REMSYN088AAXX  31004 82983 32595 20506 10300 20194 39702 40112 82100 333 10346 29054 55079 58001;EQDQ01  00002PRCP99
0196829830999992001103112004-09370-040480FM-12+037099999V0200901N003112200019N0020001N1+02661+01901101391ADDAA199000091GA1001+999999999GF100991001001999999001001KA1240N+02321MA1999999097281MD1999999-0131REMSYN070AAXX  31124 82983 32595 00906 10266 20190 39728 40139 333 20232 59013;EQDQ01  00002PRCP99
0177829830999992001103118004-09370-040480FM-12+037099999V0200501N004112200019N0020001N1+03501+02021100741ADDAA199000091GA1001+999999999GF100991001001999999001001MA1999999096671MD1999999-0251REMSYN064AAXX  31184 82983 32995 00508 10350 20202 39667 40074 333 59025;EQDQ01  00002PRCP99
0208829830999992001110100004-09370-040480FM-12+037099999V0200501N003112200019N0020001N1+03081+01921100901ADDAA199000091GA1001+999999999GF100991001001999999001001KA1240M+03561MA1999999096811MD1999999-0211REMSYN082AAXX  01004 82983 32995 00506 10308 20192 39681 40090 333 10356 29051 55112 59021;EQDQ01  00002PRCP99
0186829830999992001110112004-09370-040480FM-12+037099999V0200901N004112200019N0020001N1+02641+01931101191ADDAA199000091GF102991021011008001001001KA1240N+02241MA1999999097091MD1999999-0191REMSYN076AAXX  01124 82983 32595 20908 10264 20193 39709 40119 82100 333 20224 59019;EQDQ01  00002PRCP99
0177829830999992001110118004-09370-040480FM-12+037099999V0200901N003112200019N0020001N1+03401+01891100671ADDAA199000091GA1001+999999999GF100991001001999999001001MA1999999096591MD1999999-0081REMSYN064AAXX  01184 82983 32595 00906 10340 20189 39659 40067 333 59008;EQDQ01  00002PRCP99
0208829830999992001110200004-09370-040480FM-12+037099999V0200901N003112200019N0020001N1+03061+01871100801ADDAA199000091GA1001+999999999GF100991001001999999001001KA1240M+03481MA1999999096721MD1999999-0091REMSYN082AAXX  02004 82983 32995 00906 10306 20187 39672 40080 333 10348 29051 55116 59009;EQDQ01  00002PRCP99
0186829830999992001110212004-09370-040480FM-12+037099999V0200901N003110075019N0020001N1+02601+01991101171ADDAA199000091GF106991061011008001001001KA1240N+02321MA1999999096971MD1999999-0121REMSYN076AAXX  02124 82983 32595 60906 10260 20199 39697 40117 86100 333 20232 59012;EQDQ01  00002PRCP99
0167829830999992001110218004-09370-040480FM-12+037099999V0200501N003112200019N0020001N1+03381+02061100711ADDAA199000091GF106991031011008001001011MA1999999096631MD1999999+0041REMSYN070AAXX  02184 82983 32595 60506 10338 20206 39663 40071 83101 333 58004;EQDQ01  00002PRCP99
0198829830999992001110300004-09370-040480FM-12+037099999V0201401N003112200019N0020001N1+03081+01881100871ADDAA199000091GF104991011011008001001011KA1240M+03441MA1999999096781MD1999999+0061REMSYN088AAXX  03004 82983 32595 41406 10308 20188 39678 40087 81101 333 10344 29053 55109 58006;EQDQ01  00002PRCP99
0186829830999992001110312004-09370-040480FM-12+037099999V0200901N003112200019N0020001N1+02581+01821101311ADDAA199000091GF103991031011008001001001KA1240N+02351MA1999999097201MD1999999+0231REMSYN076AAXX  03124 82983 32595 30906 10258 20182 39720 40131 83100 333 20235 58023;EQDQ01  00002PRCP99
0167829830999992001110318004-09370-040480FM-12+037099999V0200501N003112200019N0020001N1+03401+01681100711ADDAA199000091GF104991041011008001001001MA1999999096631MD1999999+0001REMSYN070AAXX  03184 82983 32595 40506 10340 20168 39663 40071 84100 333 58000;EQDQ01  00002PRCP99
0198829830999992001110400004-09370-040480FM-12+037099999V0200501N002610075019N0020001N1+03201+01811100921ADDAA199000091GF106991061021008001001001KA1240M+03501MA1999999096831MD1999999+0051REMSYN088AAXX  04004 82983 32595 60505 10320 20181 39683 40092 86200 333 10350 29047 55092 58005;EQDQ01  00002PRCP99
0186829830999992001110412004-09370-040480FM-12+037099999V0200901N003112200019N0020001N1+02841+01931101241ADDAA199000091GF103991031011008001001001KA1240N+02251MA1999999097161MD1999999-0041REMSYN076AAXX  04124 82983 32595 30906 10284 20193 39716 40124 83100 333 20225 59004;EQDQ01  00002PRCP99
0167829830999992001110418004-09370-040480FM-12+037099999V0200901N001512200019N0020001N1+03581+01931100771ADDAA199000091GF104991041021008001001001MA1999999096711MD1999999+0081REMSYN070AAXX  04184 82983 32595 40903 10358 20193 39671 40077 84200 333 58008;EQDQ01  00002PRCP99
0208829830999992001110500004-09370-040480FM-12+037099999V0200901N001512200019N0020001N1+03261+01841100761ADDAA199000091GA1001+999999999GF100991001001999999001001KA1240M+03701MA1999999096721MD1999999-0111REMSYN082AAXX  05004 82983 32995 00903 10326 20184 39672 40076 333 10370 29041 55117 59011;EQDQ01  00002PRCP99
0186829830999992001110512004-09370-040480FM-12+037099999V0201401N003112200019N0020001N1+02901+02021101231ADDAA199000091GF104991041011008001001001KA1240N+02501MA1999999097151MD1999999-0011REMSYN076AAXX  05124 82983 32595 41406 10290 20202 39715 40123 84100 333 20250 59001;EQDQ01  00002PRCP99
0167829830999992001110518004-09370-040480FM-12+037099999V0202301N001510075019N0020001N1+03601+01991100751ADDAA199000091GF105991051021008001001001MA1999999096691MD1999999-0021REMSYN070AAXX  05184 82983 32595 52303 10360 20199 39669 40075 85200 333 59002;EQDQ01  00002PRCP99
0208829830999992001110600004-09370-040480FM-12+037099999V0200501N002612200019N0020001N1+03281+01821100841ADDAA199000091GA1001+999999999GF100991001001999999001001KA1240M+03701MA1999999096781MD1999999+0061REMSYN082AAXX  06004 82983 32995 00505 10328 20182 39678 40084 333 10370 29046 55140 58006;EQDQ01  00002PRCP99
0186829830999992001110612004-09370-040480FM-12+037099999V0200501N002612200019N0020001N1+02901+01931101271ADDAA199000091GF103991031011008001001001KA1240N+02521MA1999999097191MD1999999+0041REMSYN076AAXX  06124 82983 32595 30505 10290 20193 39719 40127 83100 333 20252 58004;EQDQ01  00002PRCP99
0167829830999992001110618004-09370-040480FM-12+037099999V0200501N004110075019N0020001N1+03741+01641100761ADDAA199000091GF105991051021008001001001MA1999999096701MD1999999+0011REMSYN070AAXX  06184 82983 32595 50508 10374 20164 39670 40076 85200 333 58001;EQDQ01  00002PRCP99
0208829830999992001110700004-09370-040480FM-12+037099999V0200501N005112200019N0020001N1+03341+01491100961ADDAA199000091GA1001+999999999GF100991001001999999001001KA1240M+03781MA1999999096901MD1999999+0121REMSYN082AAXX  07004 82983 32995 00510 10334 20149 39690 40096 333 10378 29038 55113 58012;EQDQ01  00002PRCP99
0186829830999992001110712004-09370-040480FM-12+037099999V0200901N005110075019N0020001N1+02701+01721101491ADDAA199000091GF106991061021008001001001KA1240N+02291MA1999999097401MD1999999+0211REMSYN076AAXX  07124 82983 32595 60910 10270 20172 39740 40149 86200 333 20229 58021;EQDQ01  00002PRCP99
0167829830999992001110718004-09370-040480FM-12+037099999V0200501N004112200019N0020001N1+03501+01631100971ADDAA199000091GF104991041011008001001001MA1999999096881MD1999999+0181REMSYN070AAXX  07184 82983 32595 40508 10350 20163 39688 40097 84100 333 58018;EQDQ01  00002PRCP99
0208829830999992001110800004-09370-040480FM-12+037099999V0200901N005112200019N0020001N1+03101+01621101121ADDAA199000091GA1001+999999999GF100991001001999999001001KA1240M+03541MA1999999097021MD1999999+0121REMSYN082AAXX  08004 82983 32995 00910 10310 20162 39702 40112 333 10354 29042 55109 58012;EQDQ01  00002PRCP99
0186829830999992001110812004-09370-040480FM-12+037099999V0200901N003112200019N0020001N1+02701+01781101541ADDAA199000091GF103991031011008001001001KA1240N+02311MA1999999097421MD1999999+0021REMSYN076AAXX  08124 82983 32595 30906 10270 20178 39742 40154 83100 333 20231 58002;EQDQ01  00002PRCP99
0167829830999992001110818004-09370-040480FM-12+037099999V0200901N003112200019N0020001N1+03401+01451101081ADDAA199000091GF103991031011008001001001MA1999999096981MD1999999+0101REMSYN070AAXX  08184 82983 32595 30906 10340 20145 39698 40108 83100 333 58010;EQDQ01  00002PRCP99
0208829830999992001110900004-09370-040480FM-12+037099999V0200501N003112200019N0020001N1+03101+01331101091ADDAA199000091GA1001+999999999GF100991001001999999001001KA1240M+03481MA1999999096991MD1999999-0031REMSYN082AAXX  09004 82983 32995 00506 10310 20133 39699 40109 333 10348 29039 55114 59003;EQDQ01  00002PRCP99
0186829830999992001110912004-09370-040480FM-12+037099999V0200901N003110075019N0020001N1+02741+01841101481ADDAA199000091GF106991061021008001001001KA1240N+02481MA1999999097381MD1999999-0041REMSYN076AAXX  09124 82983 32595 60906 10274 20184 39738 40148 86200 333 20248 59004;EQDQ01  00002PRCP99
0167829830999992001110918004-09370-040480FM-12+037099999V0200501N003110075019N0020001N1+03401+01641100981ADDAA199000091GF105991051011008001001001MA1999999096891MD1999999-0091REMSYN070AAXX  09184 82983 32595 50506 10340 20164 39689 40098 85100 333 59009;EQDQ01  00002PRCP99
0198829830999992001111000004-09370-040480FM-12+037099999V0200901N004112200019N0020001N1+02861+01871101201ADDAA199000091GF102991021011008001001001KA1240M+03501MA1999999097101MD1999999+0111REMSYN088AAXX  10004 82983 32595 20908 10286 20187 39710 40120 82100 333 10350 29051 55096 58011;EQDQ01  00002PRCP99
0186829830999992001111012004-09370-040480FM-12+037099999V0200901N004110075019N0020001N1+02621+01671101661ADDAA199000091GF106991061021008001001001KA1240N+02481MA1999999097471MD1999999+0091REMSYN076AAXX  10124 82983 32595 60908 10262 20167 39747 40166 86200 333 20248 58009;EQDQ01  00002PRCP99
0167829830999992001111018004-09370-040480FM-12+037099999V0200901N003112200019N0020001N1+03401+01401100931ADDAA199000091GF103991031021008001001001MA1999999096841MD1999999-0051REMSYN070AAXX  10184 82983 32595 30906 10340 20140 39684 40093 83200 333 59005;EQDQ01  00002PRCP99
0208829830999992001111100004-09370-040480FM-12+037099999V0200901N003112200019N0020001N1+03041+01231101131ADDAA199000091GA1001+999999999GF100991001001999999001001KA1240M+03501MA1999999097031MD1999999-0071REMSYN082AAXX  11004 82983 32995 00906 10304 20123 39703 40113 333 10350 29038 55097 59007;EQDQ01  00002PRCP99
0186829830999992001111112004-09370-040480FM-12+037099999V0200901N003110075019N0020001N1+02441+01691101661ADDAA199000091GF107991071021008001001001KA1240N+02281MA1999999097471MD1999999+0001REMSYN076AAXX  11124 82983 32595 70906 10244 20169 39747 40166 87200 333 20228 58000;EQDQ01  00002PRCP99
0177829830999992001111118004-09370-040480FM-12+037099999V0200901N003112200019N0020001N1+03481+00991100961ADDAA199000091GA1001+999999999GF100991001001999999001001MA1999999096871MD1999999+0031REMSYN064AAXX  11184 82983 32595 00906 10348 20099 39687 40096 333 58003;EQDQ01  00002PRCP99
0208829830999992001111200004-09370-040480FM-12+037099999V0200901N003112200019N0020001N1+03041+01141101121ADDAA199000091GA1001+999999999GF100991001001999999001001KA1240M+03541MA1999999097001MD1999999-0031REMSYN082AAXX  12004 82983 32995 00906 10304 20114 39700 40112 333 10354 29037 55087 59003;EQDQ01  00002PRCP99
0196829830999992001111212004-09370-040480FM-12+037099999V0200901N003112200019N0020001N1+02661+01771101521ADDAA199000091GA1001+999999999GF100991001001999999001001KA1240N+02321MA1999999097401MD1999999-0071REMSYN070AAXX  12124 82983 32995 00906 10266 20177 39740 40152 333 20232 59007;EQDQ01  00002PRCP99
0167829830999992001111218004-09370-040480FM-12+037099999V0200901N003112200019N0020001N1+03681+00861100891ADDAA199000091GF102991021011008001001001MA1999999096831MD1999999+0041REMSYN070AAXX  12184 82983 32595 20906 10368 20086 39683 40089 82100 333 58004;EQDQ01  00002PRCP99
0198829830999992001111300004-09370-040480FM-12+037099999V0200901N003110075019N0020001N1+03221+00911101001ADDAA199000091GF105991051021008001001001KA1240M+03741MA1999999096921MD1999999-0081REMSYN088AAXX  13004 82983 32595 50906 10322 20091 39692 40100 85200 333 10374 29032 55104 59008;EQDQ01  00002PRCP99
0186829830999992001111312004-09370-040480FM-12+037099999V0200901N003112200019N0020001N1+02781+01881101281ADDAA199000091GF103991031011008001001001KA1240N+02401MA1999999097201MD1999999-0201REMSYN076AAXX  13124 82983 32595 30906 10278 20188 39720 40128 83100 333 20240 59020;EQDQ01  00002PRCP99
0167829830999992001111318004-09370-040480FM-12+037099999V0200901N003112200019N0020001N1+03621+01181100701ADDAA199000091GF103991031011008001001001MA1999999096641MD1999999-0191REMSYN070AAXX  13184 82983 32595 30906 10362 20118 39664 40070 83100 333 59019;EQDQ01  00002PRCP99
0208829830999992001111400004-09370-040480FM-12+037099999V0200901N001512200019N0020001N1+03261+01381100761ADDAA199000091GA1001+999999999GF100991001001999999001001KA1240M+03661MA1999999096701MD1999999-0221REMSYN082AAXX  14004 82983 32995 00903 10326 20138 39670 40076 333 10366 29036 55117 59022;EQDQ01  00002PRCP99
0186829830999992001111412004-09370-040480FM-12+037099999V0200501N003112200019N0020001N1+02901+01871101091ADDAA199000091GF104991041011008001001001KA1240N+02441MA1999999097021MD1999999-0181REMSYN076AAXX  14124 82983 32595 40506 10290 20187 39702 40109 84100 333 20244 59018;EQDQ01  00002PRCP99
0208829830999992001111500004-09370-040480FM-12+037099999V0200501N001512200019N0020001N1+03181+01441100631ADDAA199000091GA1001+999999999GF100991001001999999001001KA1240M+03681MA1999999096571MD1999999-0121REMSYN082AAXX  15004 82983 32995 00503 10318 20144 39657 40063 333 10368 29038 55115 59012;EQDQ01  00002PRCP99
0186829830999992001111512004-09370-040480FM-12+037099999V0200901N003112200019N0020001N1+02941+01821101041ADDAA199000091GF103991031011008001001001KA1240N+02601MA1999999096971MD1999999-0051REMSYN076AAXX  15124 82983 32595 30906 10294 20182 39697 40104 83100 333 20260 59005;EQDQ01  00002PRCP99
0167829830999992001111518004-09370-040480FM-12+037099999V0200901N003112200019N0020001N1+03541+01671100631ADDAA199000091GF105991031011008001001011MA1999999096571MD1999999+0161REMSYN070AAXX  15184 82983 32595 50906 10354 20167 39657 40063 83101 333 58016;EQDQ01  00002PRCP99
0198829830999992001111600004-09370-040480FM-12+037099999V0200501N003112200019N0020001N1+03161+01711100861ADDAA199000091GF102991021011008001001001KA1240M+03561MA1999999096801MD1999999+0231REMSYN088AAXX  16004 82983 32595 20506 10316 20171 39680 40086 82100 333 10356 29042 55106 58023;EQDQ01  00002PRCP99
0186829830999992001111612004-09370-040480FM-12+037099999V0200901N003110075019N0020001N1+02781+01911101301ADDAA199000091GF106991061021008001001001KA1240N+02581MA1999999097201MD1999999+0231REMSYN076AAXX  16124 82983 32595 60906 10278 20191 39720 40130 86200 333 20258 58023;EQDQ01  00002PRCP99
0167829830999992001111618004-09370-040480FM-12+037099999V0201401N003112200019N0020001N1+03501+01721100801ADDAA199000091GF104991031011008001001011MA1999999096741MD1999999+0171REMSYN070AAXX  16184 82983 32595 41406 10350 20172 39674 40080 83101 333 58017;EQDQ01  00002PRCP99
0208829830999992001111700004-09370-040480FM-12+037099999V0202301N003112200019N0020001N1+02861+01981100991ADDAA199000091GA1001+999999999GF100991001001999999001001KA1240M+03541MA1999999096901MD1999999+0101REMSYN082AAXX  17004 82983 32995 02306 10286 20198 39690 40099 333 10354 29053 55082 58010;EQDQ01  00002PRCP99
0186829830999992001111712004-09370-040480FM-12+037099999V0200901N003110075019N0020001N1+02961+01951101301ADDAA199000091GF105991051011008001001001KA1240N+02541MA1999999097191MD1999999-0011REMSYN076AAXX  17124 82983 32595 50906 10296 20195 39719 40130 85100 333 20254 59001;EQDQ01  00002PRCP99
0167829830999992001111718004-09370-040480FM-12+037099999V0200501N003110075019N0020001N1+03621+01591100781ADDAA199000091GF105991051021008001001001MA1999999096721MD1999999-0021REMSYN070AAXX  17184 82983 32595 50506 10362 20159 39672 40078 85200 333 59002;EQDQ01  00002PRCP99
0208829830999992001111800004-09370-040480FM-12+037099999V0203601N001512200019N0020001N1+03121+01211100851ADDAA199000091GA1001+999999999GF100991001001999999001001KA1240M+03661MA1999999096791MD1999999-0111REMSYN082AAXX  18004 82983 32995 03603 10312 20121 39679 40085 333 10366 29038 55093 59011;EQDQ01  00002PRCP99
0202829830999992001111812004-09370-040480FM-12+037099999V0200901N003112200019N0020001N1+02881+01891101201ADDAA199000091GF104991999021008001001001KA1240N+02461MA1999999097201MD1999999+0011REMSYN076AAXX  18124 82983 32595 40906 10288 20189 39720 40120 83200 333 20246 58001;EQDQ01+000032SCOTLCQ02  00002PRCP99
0208829830999992001111900004-09370-040480FM-12+037099999V0200501N001512200019N0020001N1+03021+01101100861ADDAA199000091GA1001+999999999GF100991001001999999001001KA1240M+03721MA1999999096801MD1999999+0011REMSYN082AAXX  19004 82983 32995 00503 10302 20110 39680 40086 333 10372 29033 55117 58001;EQDQ01  00002PRCP99
0186829830999992001111912004-09370-040480FM-12+037099999V0201401N004112200019N0020001N1+02741+01671101281ADDAA199000091GF103991031011008001001001KA1240N+02461MA1999999097291MD1999999+0091REMSYN076AAXX  19124 82983 32595 31408 10274 20167 39729 40128 83100 333 20246 58009;EQDQ01  00002PRCP99
0167829830999992001111918004-09370-040480FM-12+037099999V0200501N003110075019N0020001N1+03521+01391100881ADDAA199000091GF105991051021008001001001MA1999999096821MD1999999+0151REMSYN070AAXX  19184 82983 32595 50506 10352 20139 39682 40088 85200 333 58015;EQDQ01  00002PRCP99
0208829830999992001112000004-09370-040480FM-12+037099999V0200901N001512200019N0020001N1+03181+01401100871ADDAA199000091GA1001+999999999GF100991001001999999001001KA1240M+03581MA1999999096891MD1999999+0091REMSYN082AAXX  20004 82983 32995 00903 10318 20140 39689 40087 333 10358 29037 55116 58009;EQDQ01  00002PRCP99
0196829830999992001112012004-09370-040480FM-12+037099999V0201401N005112200019N0020001N1+02681+01521101331ADDAA199000091GA1001+999999999GF100991001001999999001001KA1240N+02341MA1999999097231MD1999999-0061REMSYN070AAXX  20124 82983 32995 01410 10268 20152 39723 40133 333 20234 59006;EQDQ01  00002PRCP99
0177829830999992001112018004-09370-040480FM-12+037099999V0200901N004112200019N0020001N1+03481+01061100841ADDAA199000091GA1001+999999999GF100991001001999999001001MA1999999096751MD1999999-0071REMSYN064AAXX  20184 82983 32995 00908 10348 20106 39675 40084 333 59007;EQDQ01  00002PRCP99
0208829830999992001112100004-09370-040480FM-12+037099999V0200901N001512200019N0020001N1+03001+01101100911ADDAA199000091GA1001+999999999GF100991001001999999001001KA1240M+03541MA1999999096821MD1999999-0071REMSYN082AAXX  21004 82983 32995 00903 10300 20110 39682 40091 333 10354 29034 55119 59007;EQDQ01  00002PRCP99
0186829830999992001112112004-09370-040480FM-12+037099999V0200901N003112200019N0020001N1+02661+01531101391ADDAA199000091GF102991011011008001001011KA1240N+02261MA1999999097281MD1999999+0051REMSYN076AAXX  21124 82983 32595 20906 10266 20153 39728 40139 81101 333 20226 58005;EQDQ01  00002PRCP99
0167829830999992001112118004-09370-040480FM-12+037099999V0200901N003112200019N0020001N1+03381+01331100921ADDAA199000091GF103991011011008001001011MA1999999096831MD1999999+0081REMSYN070AAXX  21184 82983 32595 30906 10338 20133 39683 40092 81101 333 58008;EQDQ01  00002PRCP99
0208829830999992001112200004-09370-040480FM-12+037099999V0200901N001512200019N0020001N1+03121+01301101141ADDAA199000091GA1001+999999999GF100991001001999999001001KA1240M+03481MA1999999097041MD1999999+0221REMSYN082AAXX  22004 82983 32995 00903 10312 20130 39704 40114 333 10348 29036 55118 58022;EQDQ01  00002PRCP99
0186829830999992001112212004-09370-040480FM-12+037099999V0200901N003110075019N0020001N1+02581+01661101491ADDAA199000091GF106991061021008001001001KA1240N+02341MA1999999097371MD1999999+0061REMSYN076AAXX  22124 82983 32595 60906 10258 20166 39737 40149 86200 333 20234 58006;EQDQ01  00002PRCP99
0167829830999992001112218004-09370-040480FM-12+037099999V0200901N003112200019N0020001N1+03421+01071100911ADDAA199000091GF102991021011008001001001MA1999999096821MD1999999-0011REMSYN070AAXX  22184 82983 32595 20906 10342 20107 39682 40091 82100 333 59001;EQDQ01  00002PRCP99
0208829830999992001112300004-09370-040480FM-12+037099999V0200901N003112200019N0020001N1+03061+01381100941ADDAA199000091GA1001+999999999GF100991001001999999001001KA1240M+03501MA1999999096851MD1999999-0191REMSYN082AAXX  23004 82983 32995 00906 10306 20138 39685 40094 333 10350 29038 55102 59019;EQDQ01  00002PRCP99
0186829830999992001112312004-09370-040480FM-12+037099999V0200901N003112200019N0020001N1+02581+01581101191ADDAA199000091GF104991041011008001001001KA1240N+02281MA1999999097091MD1999999+0281REMSYN076AAXX  23124 82983 32595 40906 10258 20158 39709 40119 84100 333 20228 58028;EQDQ01  00002PRCP99
0167829830999992001112318004-09370-040480FM-12+037099999V0200901N003110075019N0020001N1+03241+01411100681ADDAA199000091GF106991061011008001001001MA1999999096581MD1999999-0241REMSYN070AAXX  23184 82983 32595 60906 10324 20141 39658 40068 86100 333 59024;EQDQ01  00002PRCP99
0208829830999992001112400004-09370-040480FM-12+037099999V0200901N001512200019N0020001N1+02881+01801100701ADDAA199000091GA1001+999999999GF100991001001999999001001KA1240M+03321MA1999999096601MD1999999-0281REMSYN082AAXX  24004 82983 32995 00903 10288 20180 39660 40070 333 10332 29048 55068 59028;EQDQ01  00002PRCP99
0186829830999992001112412004-09370-040480FM-12+037099999V0200501N003110075019N0020001N1+02781+01761101021ADDAA199000091GF106991061011008001001001KA1240N+02461MA1999999096931MD1999999-0061REMSYN076AAXX  24124 82983 32595 60506 10278 20176 39693 40102 86100 333 20246 59006;EQDQ01  00002PRCP99
0167829830999992001112418004-09370-040480FM-12+037099999V0200901N002610075019N0020001N1+03361+01651100581ADDAA199000091GF105991051011008001001001MA1999999096521MD1999999-0061REMSYN070AAXX  24184 82983 32595 50905 10336 20165 39652 40058 85100 333 59006;EQDQ01  00002PRCP99
0208829830999992001112500004-09370-040480FM-12+037099999V0200501N002612200019N0020001N1+03081+01601100721ADDAA199000091GA1001+999999999GF100991001001999999001001KA1240M+03441MA1999999096651MD1999999+0051REMSYN082AAXX  25004 82983 32995 00505 10308 20160 39665 40072 333 10344 29043 55101 58005;EQDQ01  00002PRCP99
0186829830999992001112512004-09370-040480FM-12+037099999V0200901N004110075019N0020001N1+02681+01811101131ADDAA199000091GF108991081051008001999999KA1240N+02351MA1999999097031MD1999999+0101REMSYN076AAXX  25124 82983 32595 80908 10268 20181 39703 40113 885// 333 20235 58010;EQDQ01  00002PRCP99
0167829830999992001112518004-09370-040480FM-12+037099999V0200501N003110075019N0020001N1+03271+01681100671ADDAA199000091GF107991071021008001001001MA1999999096601MD1999999+0081REMSYN070AAXX  25184 82983 32595 70506 10327 20168 39660 40067 87200 333 58008;EQDQ01  00002PRCP99
0208829830999992001112600004-09370-040480FM-12+037099999V0200901N001512200019N0020001N1+02961+01611100811ADDAA199000091GA1001+999999999GF100991001001999999001001KA1240M+03341MA1999999096731MD1999999+0081REMSYN082AAXX  26004 82983 32995 00903 10296 20161 39673 40081 333 10334 29047 55053 58008;EQDQ01  00002PRCP99
0186829830999992001112612004-09370-040480FM-12+037099999V0200901N003112200019N0020001N1+02821+01871101171ADDAA199000091GF106991031011008001001011KA1240N+02441MA1999999097071MD1999999+0041REMSYN076AAXX  26124 82983 32595 60906 10282 20187 39707 40117 83101 333 20244 58004;EQDQ01  00002PRCP99
0183829830999992001112618004-09370-040480FM-12+037099999V0200501N002610075019N0020001N1+03381+01661100711ADDAA199000091GF106991999011008001001001MA1999999096651MD1999999+0051REMSYN070AAXX  26184 82983 32595 60505 10338 20166 39665 40071 85100 333 58005;EQDQ01+000052SCOTLCQ02  00002PRCP99
0198829830999992001112700004-09370-040480FM-12+037099999V0200501N004110075019N0020001N1+02621+01911100981ADDAA199000091GF105991051041008001001001KA1240M+03401MA1999999096861MD1999999+0131REMSYN088AAXX  27004 82983 32595 50508 10262 20191 39686 40098 85400 333 10340 29056 55079 58013;EQDQ01  00002PRCP99
0186829830999992001112712004-09370-040480FM-12+037099999V0200901N003110075019N0020001N1+02701+01911101251ADDAA199000091GF106991061011008001001001KA1240N+02441MA1999999097111MD1999999+0041REMSYN076AAXX  27124 82983 32595 60906 10270 20191 39711 40125 86100 333 20244 58004;EQDQ01  00002PRCP99
0167829830999992001112718004-09370-040480FM-12+037099999V0200901N003110075019N0020001N1+03221+01771100821ADDAA199000091GF106991061021008001001001MA1999999096741MD1999999+0091REMSYN070AAXX  27184 82983 32595 60906 10322 20177 39674 40082 86200 333 58009;EQDQ01  00002PRCP99
0208829830999992001112800004-09370-040480FM-12+037099999V0200901N003112200019N0020001N1+02901+01551100871ADDAA199000091GA1001+999999999GF100991001001999999001001KA1240M+03281MA1999999096781MD1999999-0081REMSYN082AAXX  28004 82983 32995 00906 10290 20155 39678 40087 333 10328 29048 55083 59008;EQDQ01  00002PRCP99
0186829830999992001112812004-09370-040480FM-12+037099999V0200901N003110075019N0020001N1+02601+01741101271ADDAA199000091GF105991051011008001001001KA1240N+02281MA1999999097151MD1999999+0041REMSYN076AAXX  28124 82983 32595 50906 10260 20174 39715 40127 85100 333 20228 58004;EQDQ01  00002PRCP99
0167829830999992001112818004-09370-040480FM-12+037099999V0200901N003112200019N0020001N1+03441+01531100741ADDAA199000091GF104991041011008001001001MA1999999096661MD1999999-0081REMSYN070AAXX  28184 82983 32595 40906 10344 20153 39666 40074 84100 333 59008;EQDQ01  00002PRCP99
0198829830999992001112900004-09370-040480FM-12+037099999V0200501N002612200019N0020001N1+03161+01511100831ADDAA199000091GF104991041021008001001001KA1240M+03501MA1999999096711MD1999999-0071REMSYN088AAXX  29004 82983 32595 40505 10316 20151 39671 40083 84200 333 10350 29041 55105 59007;EQDQ01  00002PRCP99
0186829830999992001112912004-09370-040480FM-12+037099999V0200501N003112200019N0020001N1+02861+01721101101ADDAA199000091GF102991011011008001001011KA1240N+02401MA1999999097031MD1999999-0121REMSYN076AAXX  29124 82983 32595 20506 10286 20172 39703 40110 81101 333 20240 59012;EQDQ01  00002PRCP99
0167829830999992001112918004-09370-040480FM-12+037099999V0200501N003112200019N0020001N1+03561+01531100591ADDAA199000091GF105991031011008001001011MA1999999096541MD1999999-0121REMSYN070AAXX  29184 82983 32595 50506 10356 20153 39654 40059 83101 333 59012;EQDQ01  00002PRCP99
0208829830999992001113000004-09370-040480FM-12+037099999V0203601N001512200019N0020001N1+03201+01421100621ADDAA199000091GA1001+999999999GF100991001001999999001001KA1240M+03601MA1999999096561MD1999999-0151REMSYN082AAXX  30004 82983 32595 03603 10320 20142 39656 40062 333 10360 29037 55115 59015;EQDQ01  00002PRCP99
0201829830999992001113012004-09370-040480FM-12+037099999V0201401N003110075019N0020001N1+02561+02081101061ADDAA124002091AY121061AY261061GF108991081051008001999999KA1240N+02401MA1999999096961MD1999999-0071MW1031REMSYN088AAXX  30124 82983 21595 81406 10256 20208 39696 40106 70326 885// 333 20240 59007 60024;
0167829830999992001113018004-09370-040480FM-12+037099999V0202301N005110075019N0020001N1+03001+02031100721ADDAA199000091GF108991081051008001999999MA1999999096641MD1999999+0101REMSYN070AAXX  30184 82983 32595 82310 10300 20203 39664 40072 885// 333 58010;EQDQ01  00002PRCP99
0198829830999992001120100004-09370-040480FM-12+037099999V0202301N002610075019N0020001N1+02571+02171100921ADDAA199000091GF105991051021008001001001KA1240M+03281MA1999999096781MD1999999+0221REMSYN088AAXX  01004 82983 32595 52305 10257 20217 39678 40092 85200 333 10328 29072 55010 58022;EQDQ01  00002PRCP99
0201829830999992001120112004-09370-040480FM-12+037099999V0200501N002610075019N0020001N1+02481+02111101171ADDAA124000191AY111061AY221061GF108991081051008001999999KA1240N+02481MA1999999097021MD1999999+0061MW1501REMSYN088AAXX  01124 82983 21595 80505 10248 20211 39702 40117 75012 885// 333 20248 58006 69924;
0148829830999992001120118004-09370-040480FM-12+037099999V0203201N001510075019N0020001N1+03201+01861100721ADDAA199000021GF106991051011008001021001MA1999999096641MD1999999+0001REMSYN070AAXX  01184 82983 32595 63203 10320 20186 39664 40072 85120 333 58000;
0179829830999992001120200004-09370-040480FM-12+037099999V0209999C000010075019N0020001N1+02941+01941100851ADDAA199000021GF105991051011008001021001KA1240M+03361MA1999999096741MD1999999-0041REMSYN088AAXX  02004 82983 32595 50000 10294 20194 39674 40085 85120 333 10336 29059 55003 59004;
0186829830999992001120212004-09370-040480FM-12+037099999V0200501N003110075019N0020001N1+03021+02021100961ADDAA199000091GF106991061021008001001001KA1240N+02461MA1999999096901MD1999999-0121REMSYN076AAXX  02124 82983 32595 60506 10302 20202 39690 40096 86200 333 20246 59012;EQDQ01  00002PRCP99
0167829830999992001120218004-09370-040480FM-12+037099999V0202301N003110075019N0020001N1+02821+02101100601ADDAA199000091GF108991081061008001999999MA1999999096511MD1999999-0131REMSYN070AAXX  02184 82983 32595 82306 10282 20210 39651 40060 886// 333 59013;EQDQ01  00002PRCP99
0226829830999992001120300004-09370-040480FM-12+037099999V0200901N003110075019N0020001N1+02501+02131100881ADDAA106001091AY101061AY231061GF108991081061008001999999KA1240M+03381MA1999999096781MD1999999+0041REMSYN100AAXX  03004 82983 21595 80906 10250 20213 39678 40088 75603 886// 333 10338 29070 55028 58004 60011;EQDQ01+000562PRSWM1
0173829830999992001120312004-09370-040480FM-12+037099999V0200901N003110075019N0020001N1+02521+02021101121ADDAA124001091GF108991081061008001999999KA1240N+02321MA1999999096971MD1999999+0071REMSYN082AAXX  03124 82983 22595 80906 10252 20202 39697 40112 886// 333 20232 58007 60014;
0167829830999992001120318004-09370-040480FM-12+037099999V0200901N003110450019N0020001N1+03141+01771100721ADDAA199000091GF107991041011008001021001MA1999999096611MD1999999+0101REMSYN070AAXX  03184 82983 32595 70906 10314 20177 39661 40072 84120 333 58010;EQDQ01  00002PRCP99
0198829830999992001120400004-09370-040480FM-12+037099999V0200901N001512200019N0020001N1+02861+01651100851ADDAA199000091GF103991031041008001001001KA1240M+03161MA1999999096741MD1999999-0041REMSYN088AAXX  04004 82983 32595 30903 10286 20165 39674 40085 83400 333 10316 29054 55023 59004;EQDQ01  00002PRCP99
0186829830999992001120412004-09370-040480FM-12+037099999V0200901N004110075019N0020001N1+02661+01771101311ADDAA199000091GF107991071021008001001001KA1240N+02361MA1999999097191MD1999999+0221REMSYN076AAXX  04124 82983 32595 70908 10266 20177 39719 40131 87200 333 20236 58022;EQDQ01  00002PRCP99
0167829830999992001120418004-09370-040480FM-12+037099999V0200901N003112200019N0020001N1+03261+01561100881ADDAA199000091GF103991031011008001001001MA1999999096791MD1999999+0181REMSYN070AAXX  04184 82983 32595 30906 10326 20156 39679 40088 83100 333 58018;EQDQ01  00002PRCP99
0198829830999992001120500004-09370-040480FM-12+037099999V0200901N003112200019N0020001N1+02941+01511100961ADDAA199000091GF103991031011008001001001KA1240M+03361MA1999999096871MD1999999+0131REMSYN088AAXX  05004 82983 32595 30906 10294 20151 39687 40096 83100 333 10336 29044 55109 58013;EQDQ01  00002PRCP99
0186829830999992001120512004-09370-040480FM-12+037099999V0200901N004110075019N0020001N1+02601+01651101301ADDAA199000091GF106991061011008001001001KA1240N+02321MA1999999097181MD1999999-0011REMSYN076AAXX  05124 82983 32595 60908 10260 20165 39718 40130 86100 333 20232 59001;EQDQ01  00002PRCP99
0167829830999992001120518004-09370-040480FM-12+037099999V0200901N003112200019N0020001N1+03361+01461100851ADDAA199000091GF103991031011008001001001MA1999999096761MD1999999-0031REMSYN070AAXX  05184 82983 32595 30906 10336 20146 39676 40085 83100 333 59003;EQDQ01  00002PRCP99
0208829830999992001120600004-09370-040480FM-12+037099999V0200901N003112200019N0020001N1+02961+01531100941ADDAA199000091GA1001+999999999GF100991001001999999001001KA1240M+03761MA1999999096841MD1999999-0031REMSYN082AAXX  06004 82983 32995 00906 10296 20153 39684 40094 333 10376 29043 55115 59003;EQDQ01  00002PRCP99
0186829830999992001120612004-09370-040480FM-12+037099999V0200901N003112200019N0020001N1+02741+01701101301ADDAA199000091GF103991031011008001001001KA1240N+02361MA1999999097191MD1999999+0011REMSYN076AAXX  06124 82983 32595 30906 10274 20170 39719 40130 83100 333 20236 58001;EQDQ01  00002PRCP99
0167829830999992001120618004-09370-040480FM-12+037099999V0200901N003112200019N0020001N1+03321+01481100711ADDAA199000091GF103991031011008001001001MA1999999096631MD1999999-0131REMSYN070AAXX  06184 82983 32595 30906 10332 20148 39663 40071 83100 333 59013;EQDQ01  00002PRCP99
0198829830999992001120700004-09370-040480FM-12+037099999V0201401N003112200019N0020001N1+03061+01541100821ADDAA199000091GF103991031021008001001001KA1240M+03361MA1999999096741MD1999999-0101REMSYN088AAXX  07004 82983 32595 31406 10306 20154 39674 40082 83200 333 10336 29041 55116 59010;EQDQ01  00002PRCP99
0186829830999992001120712004-09370-040480FM-12+037099999V0200901N004610075019N0020001N1+02701+01661101131ADDAA199000091GF106991061021008001001001KA1240N+02401MA1999999097031MD1999999-0161REMSYN076AAXX  07124 82983 32595 60909 10270 20166 39703 40113 86200 333 20240 59016;EQDQ01  00002PRCP99
0167829830999992001120718004-09370-040480FM-12+037099999V0200901N003110075019N0020001N1+03381+01481100591ADDAA199000091GF105991051011008001001001MA1999999096521MD1999999-0111REMSYN070AAXX  07184 82983 32595 50906 10338 20148 39652 40059 85100 333 59011;EQDQ01  00002PRCP99
0186829830999992001121012004-09370-040480FM-12+037099999V0200901N005110075019N0020001N1+02571+01751101241ADDAA199000091GF107991071021008001001001KA1240N+02311MA1999999097101MD1999999+0011REMSYN076AAXX  10124 82983 32595 70910 10257 20175 39710 40124 87200 333 20231 58001;EQDQ01  00002PRCP99
0167829830999992001121018004-09370-040480FM-12+037099999V0200901N003110075019N0020001N1+03341+01291100791ADDAA199000091GF106991061021008001001001MA1999999096711MD1999999+0161REMSYN070AAXX  10184 82983 32595 60906 10334 20129 39671 40079 86200 333 58016;EQDQ01  00002PRCP99
0208829830999992001121100004-09370-040480FM-12+037099999V0201401N003112200019N0020001N1+02701+02011101101ADDAA199000091GA1001+999999999GF100991001001999999001001KA1240M+03381MA1999999096961MD1999999+0111REMSYN082AAXX  11004 82983 32995 01406 10270 20201 39696 40110 333 10338 29056 55093 58011;EQDQ01  00002PRCP99
0198829830999992001121200004-09370-040480FM-12+037099999V0201401N002612200019N0020001N1+02941+01621100991ADDAA199000091GF102991021011008001001001KA1240M+03261MA1999999096901MD1999999-0061REMSYN088AAXX  12004 82983 32595 21405 10294 20162 39690 40099 82100 333 10326 29052 55065 59006;EQDQ01  00002PRCP99
0186829830999992001121212004-09370-040480FM-12+037099999V0200901N004110075019N0020001N1+02721+01821101181ADDAA199000091GF108991081051008001999999KA1240N+02431MA1999999097081MD1999999-0101REMSYN076AAXX  12124 82983 32595 80908 10272 20182 39708 40118 885// 333 20243 59010;EQDQ01  00002PRCP99
0198829830999992001121300004-09370-040480FM-12+037099999V0200901N005112200019N0020001N1+02781+02061100871ADDAA199000091GF104991041021008001001001KA1240M+03401MA1999999096771MD1999999-0131REMSYN088AAXX  13004 82983 32595 40910 10278 20206 39677 40087 84200 333 10340 29063 55108 59013;EQDQ01  00002PRCP99
0186829830999992001121312004-09370-040480FM-12+037099999V0200901N003110075019N0020001N1+02701+01831101101ADDAA199000091GF106991061021008001001001KA1240N+02291MA1999999096981MD1999999-0101REMSYN076AAXX  13124 82983 32595 60906 10270 20183 39698 40110 86200 333 20229 59010;EQDQ01  00002PRCP99
0208829830999992001121400004-09370-040480FM-12+037099999V0200901N005012200019N0020001N1+03041+01751100671ADDAA199000091GA1001+999999999GF100991001001999999001001KA1240M+03461MA1999999096591MD1999999-0181REMSYN082AAXX  14001 82983 32995 00905 10304 20175 39659 40067 333 10346 29050 55114 59018;EQDQ01  00002PRCP99
0186829830999992001121412004-09370-040480FM-12+037099999V0200901N005110075019N0020001N1+02821+01771101171ADDAA199000091GF106991061021008001001001KA1240N+02381MA1999999097081MD1999999+0101REMSYN076AAXX  14124 82983 32595 60910 10282 20177 39708 40117 86200 333 20238 58010;EQDQ01  00002PRCP99
0208829830999992001121500004-09370-040480FM-12+037099999V0200901N002612200019N0020001N1+03181+01401100791ADDAA199000091GA1001+999999999GF100991001001999999001001KA1240M+03541MA1999999096731MD1999999+0141REMSYN082AAXX  15004 82983 32995 00905 10318 20140 39673 40079 333 10354 29040 55108 58014;EQDQ01  00002PRCP99
0186829830999992001121512004-09370-040480FM-12+037099999V0200901N003110075019N0020001N1+02761+01831101161ADDAA199000091GF106991061021008001001001KA1240N+02451MA1999999097071MD1999999-0011REMSYN076AAXX  15124 82983 32595 60906 10276 20183 39707 40116 86200 333 20245 59001;EQDQ01  00002PRCP99
0208829830999992001121600004-09370-040480FM-12+037099999V0201401N003112200019N0020001N1+03101+01621100841ADDAA199000091GA1001+999999999GF100991001001999999001001KA1240M+03601MA1999999096761MD1999999+0031REMSYN082AAXX  16004 82983 32995 01406 10310 20162 39676 40084 333 10360 29046 55112 58003;EQDQ01  00002PRCP99
0186829830999992001121612004-09370-040480FM-12+037099999V0200901N005110075019N0020001N1+02771+01911101181ADDAA199000091GF108991081051008001999999KA1240N+02481MA1999999097091MD1999999+0021REMSYN076AAXX  16124 82983 32595 80910 10277 20191 39709 40118 885// 333 20248 58002;EQDQ01  00002PRCP99
0208829830999992001121700004-09370-040480FM-12+037099999V0200901N001512200019N0020001N1+03161+01631100711ADDAA199000091GA1001+999999999GF100991001001999999001001KA1240M+03601MA1999999096641MD1999999-0121REMSYN082AAXX  17004 82983 32995 00903 10316 20163 39664 40071 333 10360 29047 55107 59012;EQDQ01  00002PRCP99
0202829830999992001121712004-09370-040480FM-12+037099999V0200501N003110075019N0020001N1+02901+01901101061ADDAA199000091GF107991999021008001001001KA1240N+02521MA1999999096991MD1999999-0101REMSYN076AAXX  17124 82983 32595 70506 10290 20190 39699 40106 86200 333 20252 59010;EQDQ01+000062SCOTLCQ02  00002PRCP99
0208829830999992001121800004-09370-040480FM-12+037099999V0200901N002612200019N0020001N1+03241+01631100661ADDAA199000091GA1001+999999999GF100991001001999999001001KA1240M+03701MA1999999096601MD1999999-0041REMSYN082AAXX  18004 82983 32995 00905 10324 20163 39660 40066 333 10370 29044 55112 59004;EQDQ01  00002PRCP99
0186829830999992001121812004-09370-040480FM-12+037099999V0200901N004112200019N0020001N1+02901+01901101021ADDAA199000091GF103991031011008001001001KA1240N+02511MA1999999096951MD1999999-0041REMSYN076AAXX  18124 82983 32595 30908 10290 20190 39695 40102 83100 333 20251 59004;EQDQ01  00002PRCP99
0208829830999992001121900004-09370-040480FM-12+037099999V0200901N002612200019N0020001N1+03301+01361100761ADDAA199000091GA1001+999999999GF100991001001999999001001KA1240M+03741MA1999999096701MD1999999+0101REMSYN082AAXX  19004 82983 32995 00905 10330 20136 39670 40076 333 10374 29040 55111 58010;EQDQ01  00002PRCP99
0186829830999992001121912004-09370-040480FM-12+037099999V0200901N004110075019N0020001N1+02781+02041101141ADDAA199000091GF106991061021008001001001KA1240N+02521MA1999999097071MD1999999+0121REMSYN076AAXX  19124 82983 32595 60908 10278 20204 39707 40114 86200 333 20252 58012;EQDQ01  00002PRCP99
0186829830999992001122012004-09370-040480FM-12+037099999V0200901N005110075019N0020001N1+02871+02031101181ADDAA199000091GF107991071021008001001001KA1240N+02611MA1999999097111MD1999999+0041REMSYN076AAXX  20124 82983 32595 70910 10287 20203 39711 40118 87200 333 20261 58004;EQDQ01  00002PRCP99
0198829830999992001122100004-09370-040480FM-12+037099999V0200901N003110075019N0020001N1+03201+01591100851ADDAA199000091GF105991051021008001001001KA1240M+03621MA1999999096791MD1999999+0001REMSYN088AAXX  21004 82983 32595 50906 10320 20159 39679 40085 85200 333 10362 29046 55088 58000;EQDQ01  00002PRCP99
0201829830999992001122112004-09370-040480FM-12+037099999V0200901N002610075019N0020001N1+02561+01271101231ADDAA124006191AY121061AY261061GF108991081051008001999999KA1240N+02471MA1999999097131MD1999999+0021MW1031REMSYN088AAXX  21124 82983 21595 80905 10256 20127 39713 40123 70326 885// 333 20247 58002 60064;
0198829830999992001122200004-09370-040480FM-12+037099999V0200901N001510075019N0020001N1+03101+01661100921ADDAA199000091GF108991081051008001999999KA1240M+03381MA1999999096831MD1999999+0041REMSYN088AAXX  22004 82983 32595 80903 10310 20166 39683 40092 885// 333 10338 29056 55032 58004;EQDQ01  00002PRCP99
0186829830999992001122212004-09370-040480FM-12+037099999V0200901N004110075019N0020001N1+02721+01931101331ADDAA199000091GF107991071021008001001001KA1240N+02521MA1999999097221MD1999999+0091REMSYN076AAXX  22124 82983 32595 70908 10272 20193 39722 40133 87200 333 20252 58009;EQDQ01  00002PRCP99
0208829830999992001122300004-09370-040480FM-12+037099999V0200901N002612200019N0020001N1+03101+01461101011ADDAA199000091GA1001+999999999GF100991001001999999001001KA1240M+03581MA1999999096921MD1999999+0091REMSYN082AAXX  23004 82983 32995 00905 10310 20146 39692 40101 333 10358 29045 55091 58009;EQDQ01  00002PRCP99
0186829830999992001122312004-09370-040480FM-12+037099999V0200901N005110075019N0020001N1+02781+01851101381ADDAA199000091GF106991061021008001001001KA1240N+02421MA1999999097281MD1999999+0061REMSYN076AAXX  23124 82983 32595 60910 10278 20185 39728 40138 86200 333 20242 58006;EQDQ01  00002PRCP99
0208829830999992001122400004-09370-040480FM-12+037099999V0200901N005112200019N0020001N1+03081+01681101001ADDAA199000091GA1001+999999999GF100991001001999999001001KA1240M+03621MA1999999096921MD1999999+0001REMSYN082AAXX  24004 82983 32995 00910 10308 20168 39692 40100 333 10362 29048 55102 58000;EQDQ01  00002PRCP99
0186829830999992001122412004-09370-040480FM-12+037099999V0201401N005110075019N0020001N1+02701+01831101351ADDAA199000091GF107991071021008001001001KA1240N+02541MA1999999097241MD1999999-0041REMSYN076AAXX  24124 82983 32595 71410 10270 20183 39724 40135 87200 333 20254 59004;EQDQ01  00002PRCP99
0198829830999992001122500004-09370-040480FM-12+037099999V0200901N002612200019N0020001N1+03161+01431101021ADDAA199000091GF103991031011008001001001KA1240M+03561MA1999999096941MD1999999+0021REMSYN088AAXX  25004 82983 32595 30905 10316 20143 39694 40102 83100 333 10356 29043 55083 58002;EQDQ01  00002PRCP99
0186829830999992001122512004-09370-040480FM-12+037099999V0201401N004110075019N0200001N1+02701+01831101391ADDAA199000091GF106991061021008001001001KA1240N+02391MA1999999097291MD1999999+0051REMSYN076AAXX  25124 82983 32598 61408 10270 20183 39729 40139 86200 333 20239 58005;EQDQ01  00002PRCP99
0198829830999992001122600004-09370-040480FM-12+037099999V0200901N006012200019N0020001N1+03101+01461101051ADDAA199000091GF102991021011008001001001KA1240M+03541MA1999999096951MD1999999+0011REMSYN088AAXX  26000 82983 32595 20906 10310 20146 39695 40105 82100 333 10354 29044 55118 58001;EQDQ01  00002PRCP99
0186829830999992001122612004-09370-040480FM-12+037099999V0200901N005112200019N0020001N1+02701+01751101311ADDAA199000091GF104991041011008001001001KA1240N+02301MA1999999097201MD1999999-0091REMSYN076AAXX  26124 82983 32595 40910 10270 20175 39720 40131 84100 333 20230 59009;EQDQ01  00002PRCP99
0214829830999992001122700004-09370-040480FM-12+037099999V0200901N005112200019N0020001N1+03101+01731100901ADDAA199000091GF102991999021008001001001KA1240M+03641MA1999999096811MD1999999-0141REMSYN088AAXX  27004 82983 32595 20910 10310 20173 39681 40090 83200 333 10364 29048 55103 59014;EQDQ01+000032SCOTLCQ02  00002PRCP99
0186829830999992001122712004-09370-040480FM-12+037099999V0201401N005110075019N0020001N1+02541+01811101321ADDAA199000091GF107991071021008001001001KA1240N+02391MA1999999097211MD1999999+0011REMSYN076AAXX  27124 82983 32595 71410 10254 20181 39721 40132 87200 333 20239 58001;EQDQ01  00002PRCP99
0208829830999992001122800004-09370-040480FM-12+037099999V0201401N003112200019N0020001N1+03101+01701100941ADDAA199000091GA1001+999999999GF100991001001999999001001KA1240M+03521MA1999999096851MD1999999+0041REMSYN082AAXX  28004 82983 32995 01406 10310 20170 39685 40094 333 10352 29050 55086 58004;EQDQ01  00002PRCP99
0186829830999992001122812004-09370-040480FM-12+037099999V0201401N005110075019N0020001N1+02661+01901101431ADDAA199000091GF106991061021008001001001KA1240N+02461MA1999999097321MD1999999+0111REMSYN076AAXX  28124 82983 32595 61410 10266 20190 39732 40143 86200 333 20246 58011;EQDQ01  00002PRCP99
0198829830999992001122900004-09370-040480FM-12+037099999V0200501N003110075019N0020001N1+02831+01941101161ADDAA199000091GF108991081051008001999999KA1240M+03441MA1999999097041MD1999999+0191REMSYN088AAXX  29004 82983 32595 80506 10283 20194 39704 40116 885// 333 10344 29060 55068 58019;EQDQ01  00002PRCP99
0201829830999992001122912004-09370-040480FM-12+037099999V0200501N002610075019N0020001N1+02181+02061101471ADDAA124029091AY161061AY261061GF108991081051008001999999KA1240N+02181MA1999999097211MD1999999-0011MW1601REMSYN088AAXX  29124 82983 21595 80505 10218 20206 39721 40147 76066 885// 333 20218 59001 60294;
0213829830999992001123000004-09370-040480FM-12+037099999V0201401N001510075019N0020001N1+02581+02191101151ADDAA106006191AY161061AY221061GF108991081051008001999999KA1240M+02801MA1999999096981MD1999999-0061MW1031REMSYN100AAXX  30004 82983 21595 81403 10258 20219 39698 40115 70362 885// 333 10280 29084 55000 59006 60061;
0201829830999992001123012004-09370-040480FM-12+037099999V0200501N003110075019N0020001N1+02361+02131101271ADDAA124007191AY161061AY261061GF108991081051008001999999KA1240N+02211MA1999999097111MD1999999-0271MW1031REMSYN088AAXX  30124 82983 21595 80506 10236 20213 39711 40127 70366 885// 333 20221 59027 60074;
0213829830999992001123100004-09370-040480FM-12+037099999V0209999C000010075019N0020001N1+02381+02151101061ADDAA106010991AY161061AY201061GF108991081051008001999999KA1240M+03101MA1999999096891MD1999999-0091MW1651REMSYN100AAXX  31004 82983 21595 80000 10238 20215 39689 40106 76560 885// 333 10310 29087 55035 59009 60111;
0201829830999992001123112004-09370-040480FM-12+037099999V0200901N001510075019N0020001N1+02341+02051101311ADDAA124023991AY131061AY201061GF108991081061008001999999KA1240N+02221MA1999999097131MD1999999+0021MW1651REMSYN088AAXX  31124 82983 21595 80903 10234 20205 39713 40131 76530 886// 333 20222 58002 60244;
