0196832290999992001010100004-13010-038510FM-12+005199999V0200501N002112200019N9999999N1+02581+02171101351ADDAA199000091GA1001+999999999GF100991001001999999001001KA1240M+03111MA1999999100751MD1999999+0001REMSYN070AAXX  01004 83229 329// 00504 10258 20217 30075 40135 333 10311 58000;EQDQ01  00002PRCP99
0186832290999992001010112004-13010-038510FM-12+005199999V0203201N001511050019N0100001N1+02701+02331101421ADDAA199000091GF105991021021008001061061KA1240N+02401MA1999999100831MD1999999-0031REMSYN076AAXX  01124 83229 32597 53203 10270 20233 30083 40142 82266 333 20240 59003;EQDQ01  00002PRCP99
0167832290999992001010118004-13010-038510FM-12+005199999V0200501N002612200019N0200001N1+02841+02261101201ADDAA199000091GF103991021041012501041001MA1999999100611MD1999999+0011REMSYN070AAXX  01184 83229 32698 30505 10284 20226 30061 40120 82440 333 58001;EQDQ01  00002PRCP99
0186832290999992001010200004-13010-038510FM-12+005199999V0200501N002112200019N9999999N1+02561+02251101371ADDAA199000091GF102991001001999999001061KA1240M+03061MA1999999100771MD1999999+0021REMSYN076AAXX  02004 83229 329// 20504 10256 20225 30077 40137 80006 333 10306 58002;EQDQ01  00002PRCP99
0186832290999992001010212004-13010-038510FM-12+005199999V0202301N000510450019N0100001N1+02631+02231101601ADDAA199000091GF105991031021008001041081KA1240N+02321MA1999999101001MD1999999+0171REMSYN076AAXX  02124 83229 32597 52301 10263 20223 30100 40160 83248 333 20232 58017;EQDQ01  00002PRCP99
0167832290999992001010218004-13010-038510FM-12+005199999V0201401N003112200019N0200001N1+02931+02221101421ADDAA199000091GF102991001001999999001051MA1999999100831MD1999999+0221REMSYN070AAXX  02184 83229 32998 21406 10293 20222 30083 40142 80005 333 58022;EQDQ01  00002PRCP99
0196832290999992001010300004-13010-038510FM-12+005199999V0200501N002112200019N9999999N1+02541+02191101521ADDAA199000091GA1001+999999999GF100991001001999999001001KA1240M+03101MA1999999100921MD1999999+0151REMSYN070AAXX  03004 83229 329// 00504 10254 20219 30092 40152 333 10310 58015;EQDQ01  00002PRCP99
0186832290999992001010312004-13010-038510FM-12+005199999V0201401N001012200019N0200001N1+02911+02201101601ADDAA199000091GF102991021021008001041001KA1240N+02341MA1999999101011MD1999999+0011REMSYN076AAXX  03124 83229 32598 21402 10291 20220 30101 40160 82240 333 20234 58001;EQDQ01  00002PRCP99
0167832290999992001010318004-13010-038510FM-12+005199999V0201401N002112200019N0200001N1+02841+02221101391ADDAA199000091GF101991011021012501001001MA1999999100801MD1999999-0031REMSYN070AAXX  03184 83229 32698 11404 10284 20222 30080 40139 81200 333 59003;EQDQ01  00002PRCP99
0186832290999992001010400004-13010-038510FM-12+005199999V0201401N002112200019N9999999N1+02591+02191101551ADDAA199000091GF104991041021008001001001KA1240M+03011MA1999999100951MD1999999+0031REMSYN076AAXX  04004 83229 325// 41404 10259 20219 30095 40155 84200 333 10301 58003;EQDQ01  00002PRCP99
0201832290999992001010412004-13010-038510FM-12+005199999V0200901N002110042019N0040001N1+02541+02251101601ADDAA124030091AY161061AY221061GF107991071051004501001001KA1240N+02271MA1999999101001MD1999999-0011MW1031REMSYN088AAXX  04124 83229 21496 70904 10254 20225 30100 40160 70362 87500 333 20227 59001 60304;
0167832290999992001010418004-13010-038510FM-12+005199999V0200501N001510075019N0040001N1+02781+02341101491ADDAA199000091GF107991051051008001041001MA1999999100901MD1999999+0101REMSYN070AAXX  04184 83229 32596 70503 10278 20234 30090 40149 85540 333 58010;EQDQ01  00002PRCP99
0186832290999992001010500004-13010-038510FM-12+005199999V0201401N003110075019N9999999N1+02581+02271101601ADDAA199000091GF106991061051008001001001KA1240M+02991MA1999999101001MD1999999+0051REMSYN076AAXX  05004 83229 325// 61406 10258 20227 30100 40160 86500 333 10299 58005;EQDQ01  00002PRCP99
0201832290999992001010512004-13010-038510FM-12+005199999V0201401N002110450019N0200001N1+02841+02241101651ADDAA124000891AY151061AY221061GF106991021021008001041081KA1240N+02321MA1999999101061MD1999999+0061MW1031REMSYN088AAXX  05124 83229 21598 61404 10284 20224 30106 40165 70352 82248 333 20232 58006 69984;
0167832290999992001010518004-13010-038510FM-12+005199999V0201401N003110450019N0200001N1+02711+02171101451ADDAA199000091GF107991021021008001021061MA1999999100861MD1999999-0041REMSYN070AAXX  05184 83229 32598 71406 10271 20217 30086 40145 82226 333 59004;EQDQ01  00002PRCP99
0201832290999992001010600004-13010-038510FM-12+005199999V0201401N000512200019N9999999N1+02401+02231101511ADDAA106000591AY121061AY221061GF104991021021008001031001KA1240M+02961MA1999999100911MD1999999-0091MW1201REMSYN088AAXX  06004 83229 215// 41401 10240 20223 30091 40151 72022 82230 333 10296 59009 69951;
0201832290999992001010612004-13010-038510FM-12+005199999V0201401N001010075019N0040001N1+02571+02351101541ADDAA124002091AY161061AY251061GF107991061051008001031001KA1240N+02341MA1999999100941MD1999999-0121MW1021REMSYN088AAXX  06124 83229 21596 71402 10257 20235 30094 40154 70265 86530 333 20234 59012 60024;
0182832290999992001010618004-13010-038510FM-12+005199999V0201401N001510450019N0100001N1+02591+02191101431ADDAA106002091AY161061AY261061GF107991041051008001071001MA1999999100831MD1999999-0031MW1031REMSYN082AAXX  06184 83229 21597 71403 10259 20219 30083 40143 70366 84570 333 59003 60021;
0201832290999992001010700004-13010-038510FM-12+005199999V0200501N000510075019N9999999N1+02501+02291101411ADDAA106000191AY151061AY251061GF106991061071008001001001KA1240M+02921MA1999999100811MD1999999-0101MW1501REMSYN088AAXX  07004 83229 215// 60501 10250 20229 30081 40141 75055 86700 333 10292 59010 69921;
0201832290999992001010712004-13010-038510FM-12+005199999V0200901N002612200019N0200001N1+02811+02311101461ADDAA124002091AY151061AY251061GF104991041051008001001001KA1240N+02401MA1999999100871MD1999999-0071MW1021REMSYN088AAXX  07124 83229 21598 40905 10281 20231 30087 40146 70255 84500 333 20240 59007 60024;
0167832290999992001010718004-13010-038510FM-12+005199999V0201401N003112200019N0200001N1+02971+02331101321ADDAA199000091GF101991011031008001001001MA1999999100731MD1999999-0101REMSYN070AAXX  07184 83229 32598 11406 10297 20233 30073 40132 81300 333 59010;EQDQ01  00002PRCP99
0196832290999992001010800004-13010-038510FM-12+005199999V0200501N002112200019N9999999N1+02521+02151101381ADDAA199000091GA1001+999999999GF100991001001999999001001KA1240M+03021MA1999999100781MD1999999-0031REMSYN070AAXX  08004 83229 329// 00504 10252 20215 30078 40138 333 10302 59003;EQDQ01  00002PRCP99
0201832290999992001010812004-13010-038510FM-12+005199999V0201401N002112200019N0200001N1+02811+02221101471ADDAA124001091AY161061AY201061GF102991021041008001001001KA1240N+02381MA1999999100881MD1999999+0011MW1031REMSYN088AAXX  08124 83229 21598 21404 10281 20222 30088 40147 70360 82400 333 20238 58001 60014;
0182832290999992001010818004-13010-038510FM-12+005199999V0201401N001512200019N0200001N1+02811+02271101271ADDAA106000191AY151061AY221061GF102991011011008001001011MA1999999100681MD1999999-0051MW1031REMSYN082AAXX  08184 83229 21598 21403 10281 20227 30068 40127 70352 81101 333 59005 69911;
0201832290999992001010912004-13010-038510FM-12+005199999V0200501N001510042019N0040001N1+02371+02351101421ADDAA124010991AY161061AY221061GF108991081071004501999999KA1240N+02331MA1999999100831MD1999999-0051MW1581REMSYN088AAXX  09124 83229 21496 80503 10237 20235 30083 40142 75862 887// 333 20233 59005 60114;
0201832290999992001010918004-13010-038510FM-12+005199999V0200901N001512200019N0100001N1+02811+02481101301ADDAA106000191AY151061AY221061GF104991001001999999001021MA1999999100711MD1999999+0031MW1031REMSYN082AAXX  09184 83229 21897 40903 10281 20248 30071 40130 70352 80002 333 58003 69911;EQDQ01+022502SCOLCB
0167832290999992001011000004-13010-038510FM-12+005199999V0200501N001010075019N9999999N1+02551+02291101331ADDAA199000021GF106991061051008001001001KA1240M+02911MA1999999100731MD1999999+0041REMSYN076AAXX  10004 83229 325// 60502 10255 20229 30073 40133 86500 333 10291 58004;
0201832290999992001011012004-13010-038510FM-12+005199999V0200901N001511050019N0040001N1+02741+02401101561ADDAA124008991AY161061AY221061GF107991041051008001001081KA1240N+02281MA1999999100971MD1999999+0141MW1011REMSYN088AAXX  10124 83229 21596 70903 10274 20240 30097 40156 70162 84508 333 20228 58014 60094;
0167832290999992001011018004-13010-038510FM-12+005199999V0201401N003110450019N0100001N1+02771+02401101331ADDAA199000091GF107991021041008001051081MA1999999100741MD1999999+0031REMSYN070AAXX  10184 83229 32597 71406 10277 20240 30074 40133 82458 333 58003;EQDQ01  00002PRCP99
0201832290999992001011100004-13010-038510FM-12+005199999V0200901N001012200019N9999999N1+02521+02171101451ADDAA106002091AY161061AY221061GF103991021041008001001081KA1240M+02991MA1999999100851MD1999999+0121MW1031REMSYN088AAXX  11004 83229 215// 30902 10252 20217 30085 40145 70362 82408 333 10299 58012 60021;
0201832290999992001011112004-13010-038510FM-12+005199999V0200901N002112200019N0100001N1+02791+02341101541ADDAA124002091AY161061AY251061GF105991031041008001001061KA1240N+02341MA1999999100951MD1999999-0021MW1011REMSYN088AAXX  11124 83229 21597 50904 10279 20234 30095 40154 70165 83406 333 20234 59002 60024;
0167832290999992001011118004-13010-038510FM-12+005199999V0200901N001512200019N0200001N1+02931+02431101391ADDAA199000091GF104991021021017501001011MA1999999100801MD1999999+0061REMSYN070AAXX  11184 83229 32798 40903 10293 20243 30080 40139 82201 333 58006;EQDQ01  00002PRCP99
0198832290999992001011200004-13010-038510FM-12+005199999V0200901N002112200019N9999999N1+02521+02131101511ADDAA199000091GF102991011021008001001011KA1240M+02981MA1999999100911MD1999999+0061REMSYN088AAXX  12004 83229 325// 20904 10252 20213 30091 40151 81201 333 10298 29078 55093 58006;EQDQ01  00002PRCP99
0193832290999992001011212004-13010-038510FM-12+005199999V0200501N000510450019N0040001N1+02511+02401101571ADDAA124007991AY161061GF107991041031008001021001KA1240N+02381MA1999999100971MD1999999+0021MW1211REMSYN088AAXX  12124 83229 21596 70501 10251 20240 30097 40157 7216/ 84320 333 20238 58002 60084;
0182832290999992001011218004-13010-038510FM-12+005199999V0200901N002612200019N0100001N1+02861+02351101351ADDAA106002091AY161061AY211061GF103991011021008001061061MA1999999100761MD1999999-0041MW1031REMSYN082AAXX  12184 83229 21597 30905 10286 20235 30076 40135 70361 81266 333 59004 60021;
0179832290999992001011300004-13010-038510FM-12+005199999V0200501N001012200019N9999999N1+02551+02271101511ADDAA199000021GF101991011021008001001001KA1240M+02921MA1999999100911MD1999999+0001REMSYN088AAXX  13004 83229 325// 10502 10255 20227 30091 40151 81200 333 10292 29085 55035 58000;
0193832290999992001011312004-13010-038510FM-12+005199999V0201401N002110450019N0100001N1+02731+02391101661ADDAA124002091AY151061GF107991021021008001041061KA1240N+02411MA1999999101071MD1999999+0101MW1031REMSYN088AAXX  13124 83229 21597 71404 10273 20239 30107 40166 7035/ 82246 333 20241 58010 60024;
0161832290999992001011318004-13010-038510FM-12+005199999V0201401N002119999999N0100001N1+02691+02281101551ADDAA199000091GF106991999999008001999999MA1999999100961MD1999999+0201REMSYN064AAXX  13184 83229 32597 61404 10269 20228 30096 40155 333 58020;EQDQ01  00002PRCP99
0196832290999992001011400004-13010-038510FM-12+005199999V0201401N001512200019N9999999N1+02521+02171101681ADDAY151061AY221061GF102991011021008001001061KA1240M+02831MA1999999101081MD1999999+0171MW1031REMSYN094AAXX  14004 83229 215// 21403 10252 20217 30108 40168 70352 81206 333 10283 29081 55003 58017;
0193832290999992001011412004-13010-038510FM-12+005199999V0201401N002112200019N0100001N1+02821+02311101741ADDAA124008991AY161061GF104991021021008001061061KA1240N+02341MA1999999101151MD1999999+0081MW1031REMSYN088AAXX  14124 83229 21597 41404 10282 20231 30115 40174 7036/ 82266 333 20234 58008 60094;
0182832290999992001011418004-13010-038510FM-12+005199999V0201401N002610450019N0100001N1+02511+02111101591ADDAA106000191AY121061AY221061GF107991021031008001021081MA1999999100991MD1999999+0031MW1201REMSYN082AAXX  14184 83229 21597 71405 10251 20211 30099 40159 72022 82328 333 58003 69911;
0179832290999992001011500004-13010-038510FM-12+005199999V0201401N001512200019N9999999N1+02531+02131101641ADDAA199000021GF102991011021012501001061KA1240M+02981MA1999999101041MD1999999-0041REMSYN088AAXX  15004 83229 326// 21403 10253 20213 30104 40164 81206 333 10298 29078 55064 59004;
0173832290999992001011512004-13010-038510FM-12+005199999V0200901N002610450019N0100001N1+02691+02201101631ADDAA124000191GF107991031021008001061081KA1240N+02441MA1999999101041MD1999999-0111REMSYN082AAXX  15124 83229 22597 70905 10269 20220 30104 40163 83268 333 20244 59011 69914;
0167832290999992001011518004-13010-038510FM-12+005199999V0201401N001512200019N0200001N1+02891+02281101481ADDAA199000091GF102991011021008001001061MA1999999100891MD1999999-0101REMSYN070AAXX  15184 83229 32598 21403 10289 20228 30089 40148 81206 333 59010;EQDQ01  00002PRCP99
0198832290999992001011600004-13010-038510FM-12+005199999V0201401N002612200019N9999999N1+02511+02151101601ADDAA199000091GF102991021021008001001001KA1240M+03021MA1999999101001MD1999999-0041REMSYN088AAXX  16004 83229 325// 21405 10251 20215 30100 40160 82200 333 10302 29077 55077 59004;EQDQ01  00002PRCP99
0186832290999992001011612004-13010-038510FM-12+005199999V0201401N002112200019N0200001N1+02851+02221101601ADDAA199000091GF102991021021008001001011KA1240N+02371MA1999999101011MD1999999-0031REMSYN076AAXX  16124 83229 32598 21404 10285 20222 30101 40160 82201 333 20237 59003;EQDQ01  00002PRCP99
0167832290999992001011618004-13010-038510FM-12+005199999V0201401N002112200019N0200001N1+02851+02141101411ADDAA199000091GF101991011021012501001001MA1999999100821MD1999999-0071REMSYN070AAXX  16184 83229 32698 11404 10285 20214 30082 40141 81200 333 59007;EQDQ01  00002PRCP99
0198832290999992001011700004-13010-038510FM-12+005199999V0201401N002112200019N9999999N1+02591+02101101571ADDAA199000091GF104991041081008001001001KA1240M+03001MA1999999100971MD1999999-0031REMSYN088AAXX  17004 83229 325// 41404 10259 20210 30097 40157 84800 333 10300 29071 55114 59003;EQDQ01  00002PRCP99
0186832290999992001011712004-13010-038510FM-12+005199999V0201401N001511050019N0200001N1+02771+02281101601ADDAA199000091GF105991021021008001041061KA1240N+02381MA1999999101011MD1999999+0001REMSYN076AAXX  17124 83229 32598 51403 10277 20228 30101 40160 82246 333 20238 58000;EQDQ01  00002PRCP99
0182832290999992001011718004-13010-038510FM-12+005199999V0201401N002110450019N0200001N1+02831+02331101461ADDAA106001091AY151061AY211061GF106991031031008001041061MA1999999100871MD1999999+0051MW1031REMSYN082AAXX  17184 83229 21598 61404 10283 20233 30087 40146 70351 83346 333 58005 60011;
0198832290999992001011800004-13010-038510FM-12+005199999V0201401N003112200019N9999999N1+02571+02191101641ADDAA199000091GF101991011021008001001001KA1240M+02961MA1999999101041MD1999999+0071REMSYN088AAXX  18004 83229 325// 11406 10257 20219 30104 40164 81200 333 10296 29078 55081 58007;EQDQ01  00002PRCP99
0173832290999992001011812004-13010-038510FM-12+005199999V0200901N003110075019N0040001N1+02471+02341101571ADDAA124004191GF107991051051008001041001KA1240N+02401MA1999999100981MD1999999-0071REMSYN082AAXX  18124 83229 21596 70906 10247 20234 30098 40157 85540 333 20240 59007 60044;
0182832290999992001011818004-13010-038510FM-12+005199999V0200901N001510450019N0100001N1+02911+02341101451ADDAA106001091AY161061AY221061GF106991021041017501041011MA1999999100861MD1999999-0011MW1031REMSYN082AAXX  18184 83229 21797 60903 10291 20234 30086 40145 70362 82441 333 59001 60011;
0198832290999992001011900004-13010-038510FM-12+005199999V0200901N002612200019N9999999N1+02541+02251101571ADDAA199000091GF101991011021008001001001KA1240M+02991MA1999999100971MD1999999-0071REMSYN088AAXX  19004 83229 325// 10905 10254 20225 30097 40157 81200 333 10299 29083 55052 59007;EQDQ01  00002PRCP99
0201832290999992001011912004-13010-038510FM-12+005199999V0201401N001512200019N0100001N1+02881+02371101661ADDAA124002091AY151061AY201061GF104991031041008001001011KA1240N+02381MA1999999101071MD1999999+0091MW1021REMSYN088AAXX  19124 83229 21597 41403 10288 20237 30107 40166 70250 83401 333 20238 58009 60024;
0167832290999992001011918004-13010-038510FM-12+005199999V0201401N002612200019N0200001N1+03011+02321101491ADDAA199000091GF103991021021008001001011MA1999999100901MD1999999+0041REMSYN070AAXX  19184 83229 32598 31405 10301 20232 30090 40149 82201 333 58004;EQDQ01  00002PRCP99
0198832290999992001012000004-13010-038510FM-12+005199999V0200901N001512200019N9999999N1+02531+02231101601ADDAA199000091GF101991011021008001001001KA1240M+03031MA1999999101001MD1999999+0031REMSYN088AAXX  20004 83229 325// 10903 10253 20223 30100 40160 81200 333 10303 29077 55110 58003;EQDQ01  00002PRCP99
0201832290999992001012012004-13010-038510FM-12+005199999V0202701N000510042019N0040001N1+02681+02371101691ADDAA124006191AY161061AY201061GF107991071051004501001001KA1240N+02441MA1999999101101MD1999999+0031MW1501REMSYN088AAXX  20124 83229 21496 72701 10268 20237 30110 40169 75060 87500 333 20244 58003 60064;
0182832290999992001012018004-13010-038510FM-12+005199999V0200901N002612200019N0200001N1+02951+02331101501ADDAA106000191AY161061AY251061GF103991021011012501031011MA1999999100911MD1999999+0011MW1021REMSYN082AAXX  20184 83229 21698 30905 10295 20233 30091 40150 70265 82131 333 58001 69921;
0179832290999992001012100004-13010-038510FM-12+005199999V0200501N001512200019N9999999N1+02571+02251101431ADDAA199000021GF102991021021008001001001KA1240M+02971MA1999999100831MD1999999-0171REMSYN088AAXX  21004 83229 325// 20503 10257 20225 30083 40143 82200 333 10297 29080 55074 59017;
0173832290999992001012112004-13010-038510FM-12+005199999V0203601N001510075019N0100001N1+02811+02311101521ADDAA124000191GF107991071051008001001001KA1240N+02381MA1999999100931MD1999999-0171REMSYN082AAXX  21124 83229 22597 73603 10281 20231 30093 40152 87500 333 20238 59017 69924;
0177832290999992001012118004-13010-038510FM-12+005199999V0200901N002612200019N0200001N1+02991+02301101321ADDAA199000091GA1001+999999999GF100991001001999999001001MA1999999100731MD1999999-0181REMSYN064AAXX  21184 83229 32998 00905 10299 20230 30073 40132 333 59018;EQDQ01  00002PRCP99
0208832290999992001012200004-13010-038510FM-12+005199999V0200901N001512200019N9999999N1+02561+02191101391ADDAA199000091GA1001+999999999GF100991001001999999001001KA1240M+03061MA1999999100791MD1999999-0041REMSYN082AAXX  22004 83229 329// 00903 10256 20219 30079 40139 333 10306 29076 55100 59004;EQDQ01  00002PRCP99
0186832290999992001012212004-13010-038510FM-12+005199999V0202701N001010042019N0100001N1+02781+02361101511ADDAA199000091GF105991051051004501001001KA1240N+02351MA1999999100921MD1999999-0011REMSYN076AAXX  22124 83229 32497 52702 10278 20236 30092 40151 85500 333 20235 59001;EQDQ01  00002PRCP99
0182832290999992001012218004-13010-038510FM-12+005199999V0200901N002612200019N0200001N1+02951+02361101371ADDAA106007191AY161061AY221061GF101991001001999999001011MA1999999100781MD1999999+0051MW1021REMSYN082AAXX  22184 83229 21998 10905 10295 20236 30078 40137 70262 80001 333 58005 60071;
0208832290999992001012300004-13010-038510FM-12+005199999V0200501N002612200019N9999999N1+02581+02531101431ADDAA199000091GA1001+999999999GF100991001001999999001001KA1240M+03011MA1999999100831MD1999999+0041REMSYN082AAXX  23004 83229 329// 00505 10258 20253 30083 40143 333 10301 29086 55078 58004;EQDQ01  00002PRCP99
0173832290999992001012312004-13010-038510FM-12+005199999V0203201N001012200019N0100001N1+02871+02441101521ADDAA124007191GF104991041031004501001001KA1240N+02311MA1999999100931MD1999999+0011REMSYN082AAXX  23124 83229 22497 43202 10287 20244 30093 40152 84300 333 20231 58001 60074;
0177832290999992001012318004-13010-038510FM-12+005199999V0201401N003112200019N0200001N1+02981+02531101391ADDAA199000091GA1001+999999999GF100991001001999999001001MA1999999100801MD1999999+0021REMSYN064AAXX  23184 83229 32998 01406 10298 20253 30080 40139 333 58002;EQDQ01  00002PRCP99
0198832290999992001012400004-13010-038510FM-12+005199999V0200901N002612200019N9999999N1+02551+02231101411ADDAA199000091GF102991021021008001001001KA1240M+03041MA1999999100811MD1999999-0021REMSYN088AAXX  24004 83229 325// 20905 10255 20223 30081 40141 82200 333 10304 29080 55108 59002;EQDQ01  00002PRCP99
0186832290999992001012412004-13010-038510FM-12+005199999V0201401N001512200019N0200001N1+02841+02401101571ADDAA199000091GF103991031041008001001001KA1240N+02321MA1999999100981MD1999999+0051REMSYN076AAXX  24124 83229 32598 31403 10284 20240 30098 40157 83400 333 20232 58005;EQDQ01  00002PRCP99
0167832290999992001012418004-13010-038510FM-12+005199999V0201401N002612200019N0200001N1+02991+02331101481ADDAA199000091GF101991011021008001001001MA1999999100891MD1999999+0091REMSYN070AAXX  24184 83229 32598 11405 10299 20233 30089 40148 81200 333 58009;EQDQ01  00002PRCP99
0183832290999992001012500004-13010-038510FM-12+005199999V0200901N001512200019N9999999N1+02531+02171999999ADDAA199000091GF101991999999008001999999KA1240M+03041MA1999999100971REMSYN087AAXX  25004 83229 325// 10903 10253 20217 30097 4017 81200 333 10304 29077 55106 58016;EQDQ01  00002PRCP99
0186832290999992001012512004-13010-038510FM-12+005199999V0201401N001512200019N0200001N1+02781+02341101611ADDAA199000091GF102991011021008001001061KA1240N+02331MA1999999101021MD1999999+0041REMSYN076AAXX  25124 83229 32598 21403 10278 20234 30102 40161 81206 333 20233 58004;EQDQ01  00002PRCP99
0167832290999992001012518004-13010-038510FM-12+005199999V0201401N003112200019N0200001N1+02911+02341101381ADDAA199000091GF104991011021008001041061MA1999999100791MD1999999-0101REMSYN070AAXX  25184 83229 32598 41406 10291 20234 30079 40138 81246 333 59010;EQDQ01  00002PRCP99
0198832290999992001012600004-13010-038510FM-12+005199999V0201401N001512200019N9999999N1+02551+02291101541ADDAA199000091GF102991021021008001001001KA1240M+03061MA1999999100941MD1999999-0031REMSYN088AAXX  26004 83229 325// 21403 10255 20229 30094 40154 82200 333 10306 29080 55106 59003;EQDQ01  00002PRCP99
0193832290999992001012612004-13010-038510FM-12+005199999V0200901N001512200019N0200001N1+02871+02351101631ADDAA124000391AY151061GF102991021021008001041001KA1240N+02441MA1999999101041MD1999999+0021MW1031REMSYN088AAXX  26124 83229 21598 20903 10287 20235 30104 40163 7035/ 82240 333 20244 58002 69934;
0167832290999992001012618004-13010-038510FM-12+005199999V0201401N002612200019N0200001N1+03021+02341101371ADDAA199000091GF102991011021008001041001MA1999999100781MD1999999-0011REMSYN070AAXX  26184 83229 32598 21405 10302 20234 30078 40137 81240 333 59001;EQDQ01  00002PRCP99
0186832290999992001012712004-13010-038510FM-12+005199999V0200501N001012200019N0200001N1+02951+02331101531ADDAA199000091GF102991021021008001001001KA1240N+02511MA1999999100941MD1999999-0101REMSYN076AAXX  27124 83229 32598 20502 10295 20233 30094 40153 82200 333 20251 59010;EQDQ01  00002PRCP99
0167832290999992001012718004-13010-038510FM-12+005199999V0201401N002112200019N0200001N1+03051+02281101321ADDAA199000091GF102991011021012501041001MA1999999100741MD1999999-0041REMSYN070AAXX  27184 83229 32698 21404 10305 20228 30074 40132 81240 333 59004;EQDQ01  00002PRCP99
0186832290999992001012812004-13010-038510FM-12+005199999V0203201N001012200019N0200001N1+02771+02321101511ADDAA199000091GF102991021031008001061001KA1240N+02461MA1999999100921MD1999999-0021REMSYN076AAXX  28124 83229 32598 23202 10277 20232 30092 40151 82360 333 20246 59002;EQDQ01  00002PRCP99
0167832290999992001012818004-13010-038510FM-12+005199999V0201401N001512200019N0200001N1+03051+02431101241ADDAA199000091GF102991011021008001001051MA1999999100661MD1999999-0081REMSYN070AAXX  28184 83229 32598 21403 10305 20243 30066 40124 81205 333 59008;EQDQ01  00002PRCP99
0198832290999992001012900004-13010-038510FM-12+005199999V0200501N001512200019N9999999N1+02601+02271101301ADDAA199000091GF101991011011012501001001KA1240M+03101MA1999999100701MD1999999-0101REMSYN088AAXX  29004 83229 326// 10503 10260 20227 30070 40130 81100 333 10310 29078 55100 59010;EQDQ01  00002PRCP99
0186832290999992001012912004-13010-038510FM-12+005199999V0203201N000512200019N0200001N1+02801+02381101411ADDAA199000091GF102991021021008001061001KA1240N+02441MA1999999100821MD1999999-0101REMSYN076AAXX  29124 83229 32598 23201 10280 20238 30082 40141 82260 333 20244 59010;EQDQ01  00002PRCP99
0167832290999992001012918004-13010-038510FM-12+005199999V0200901N002112200019N0200001N1+03011+02291101111ADDAA199000091GF102991011021012501001051MA1999999100531MD1999999-0131REMSYN070AAXX  29184 83229 32698 20904 10301 20229 30053 40111 81205 333 59013;EQDQ01  00002PRCP99
0198832290999992001013000004-13010-038510FM-12+005199999V0200501N003112200019N9999999N1+02621+02161101151ADDAA199000091GF101991011021012501001001KA1240M+03161MA1999999100561MD1999999-0141REMSYN088AAXX  30004 83229 326// 10506 10262 20216 30056 40115 81200 333 10316 29074 55092 59014;EQDQ01  00002PRCP99
0186832290999992001013012004-13010-038510FM-12+005199999V0200901N002112200019N0200001N1+03011+02241101341ADDAA199000091GF102991021021008001001001KA1240N+02431MA1999999100751MD1999999-0071REMSYN076AAXX  30124 83229 32598 20904 10301 20224 30075 40134 82200 333 20243 59007;EQDQ01  00002PRCP99
0167832290999992001013018004-13010-038510FM-12+005199999V0201401N003112200019N0200001N1+03051+02231101061ADDAA199000091GF101991011021012501001001MA1999999100481MD1999999-0051REMSYN070AAXX  30184 83229 32698 11406 10305 20223 30048 40106 81200 333 59005;EQDQ01  00002PRCP99
0198832290999992001013100004-13010-038510FM-12+005199999V0200901N002112200019N9999999N1+02581+02171101181ADDAA199000091GF101991011011012501001001KA1240M+03141MA1999999100591MD1999999+0031REMSYN088AAXX  31004 83229 326// 10904 10258 20217 30059 40118 81100 333 10314 29071 55109 58003;EQDQ01  00002PRCP99
0186832290999992001013112004-13010-038510FM-12+005199999V0201401N002112200019N0200001N1+03001+02221101341ADDAA199000091GF102991021021008001001001KA1240N+02361MA1999999100751MD1999999+0001REMSYN076AAXX  31124 83229 32598 21404 10300 20222 30075 40134 82200 333 20236 58000;EQDQ01  00002PRCP99
0167832290999992001013118004-13010-038510FM-12+005199999V0201401N002112200019N0200001N1+03091+02161101101ADDAA199000091GF101991011021012501001001MA1999999100521MD1999999+0041REMSYN070AAXX  31184 83229 32698 11404 10309 20216 30052 40110 81200 333 58004;EQDQ01  00002PRCP99
0208832290999992001020100004-13010-038510FM-12+005199999V0200501N001512200019N9999999N1+02541+02131101211ADDAA199000091GA1001+999999999GF100991001001999999001001KA1240M+03161MA1999999100621MD1999999+0031REMSYN082AAXX  01004 83229 329// 00503 10254 20213 30062 40121 333 10316 29069 55108 58003;EQDQ01  00002PRCP99
0186832290999992001020112004-13010-038510FM-12+005199999V0200501N001510042019N0040001N1+02601+02191101211ADDAA199000091GF106991061051004501001001KA1240N+02351MA1999999100621MD1999999-0131REMSYN076AAXX  01124 83229 32496 60503 10260 20219 30062 40121 86500 333 20235 59013;EQDQ01  00002PRCP99
0177832290999992001020118004-13010-038510FM-12+005199999V0200901N001512200019N0200001N1+03071+02141100951ADDAA199000091GA1001+999999999GF100991001001999999001001MA1999999100371MD1999999-0151REMSYN064AAXX  01184 83229 32998 00903 10307 20214 30037 40095 333 59015;EQDQ01  00002PRCP99
0208832290999992001020200004-13010-038510FM-12+005199999V0200501N002112200019N9999999N1+02551+02111101031ADDAA199000091GA1001+999999999GF100991001001999999001001KA1240M+03101MA1999999100441MD1999999-0181REMSYN082AAXX  02004 83229 329// 00504 10255 20211 30044 40103 333 10310 29073 55090 59018;EQDQ01  00002PRCP99
0177832290999992001020218004-13010-038510FM-12+005199999V0200501N001512200019N0200001N1+03151+02401101001ADDAA199000091GA1001+999999999GF100991001001999999001001MA1999999100421MD1999999+0251REMSYN064AAXX  02184 83229 32998 00503 10315 20240 30042 40100 333 58025;EQDQ01  00002PRCP99
0208832290999992001020300004-13010-038510FM-12+005199999V0200501N002112200019N9999999N1+02621+02231100971ADDAA199000091GA1001+999999999GF100991001001999999001001KA1240M+03191MA1999999100381MD1999999-0061REMSYN082AAXX  03004 83229 329// 00504 10262 20223 30038 40097 333 10319 29075 55080 59006;EQDQ01  00002PRCP99
0186832290999992001020312004-13010-038510FM-12+005199999V0203201N000510075019N0020001N1+02811+02381101311ADDAA199000091GF106991061051008001001001KA1240N+02501MA1999999100721MD1999999+0091REMSYN076AAXX  03124 83229 32595 63201 10281 20238 30072 40131 86500 333 20250 58009;EQDQ01  00002PRCP99
0177832290999992001020318004-13010-038510FM-12+005199999V0201801N002112200019N0200001N1+03171+02451101041ADDAA199000091GA1001+999999999GF100991001001999999001001MA1999999100461MD1999999+0041REMSYN064AAXX  03184 83229 32998 01804 10317 20245 30046 40104 333 58004;EQDQ01  00002PRCP99
0186832290999992001020412004-13010-038510FM-12+005199999V0200901N002112200019N0040001N1+02851+02371101471ADDAA199000091GF104991031051008001021001KA1240N+02541MA1999999100811MD1999999+0091REMSYN076AAXX  04124 83229 32596 40904 10285 20237 30081 40147 83520 333 20254 58009;EQDQ01  00002PRCP99
0182832290999992001020418004-13010-038510FM-12+005199999V0200901N002612200019N0200001N1+03031+02261101201ADDAA106009991AY161061AY221061GF102991011031008001001011MA1999999100621MD1999999+0161MW1021REMSYN082AAXX  04184 83229 21598 20905 10303 20226 30062 40120 70262 81301 333 58016 60101;
0208832290999992001020500004-13010-038510FM-12+005199999V0200901N002612200019N9999999N1+02601+02351101261ADDAA199000091GA1001+999999999GF100991001001999999001001KA1240M+03081MA1999999100661MD1999999+0171REMSYN082AAXX  05004 83229 329// 00905 10260 20235 30066 40126 333 10308 29078 55078 58017;EQDQ01  00002PRCP99
0173832290999992001020512004-13010-038510FM-12+005199999V0203201N002112200019N0200001N1+02791+02401101411ADDAA124009991GF104991021051008001031011KA1240N+02421MA1999999100821MD1999999+0011REMSYN082AAXX  05124 83229 22598 43204 10279 20240 30082 40141 82531 333 20242 58001 60104;
0177832290999992001020518004-13010-038510FM-12+005199999V0200901N001012200019N0200001N1+03091+02201101201ADDAA199000091GA1001+999999999GF100991001001999999001001MA1999999100611MD1999999-0011REMSYN064AAXX  05184 83229 32998 00902 10309 20220 30061 40120 333 59001;EQDQ01  00002PRCP99
0208832290999992001020600004-13010-038510FM-12+005199999V0200501N001512200019N9999999N1+02591+02251101201ADDAA199000091GA1001+999999999GF100991001001999999001001KA1240M+03121MA1999999100611MD1999999-0051REMSYN082AAXX  06004 83229 329// 00503 10259 20225 30061 40120 333 10312 29076 55089 59005;EQDQ01  00002PRCP99
0186832290999992001020612004-13010-038510FM-12+005199999V0203201N001012200019N0100001N1+02761+02361101431ADDAA199000091GF103991031021004501001001KA1240N+02441MA1999999100841MD1999999+0021REMSYN076AAXX  06124 83229 32497 33202 10276 20236 30084 40143 83200 333 20244 58002;EQDQ01  00002PRCP99
0177832290999992001020618004-13010-038510FM-12+005199999V0200901N001512200019N0200001N1+03171+02331101271ADDAA199000091GA1001+999999999GF100991001001999999001001MA1999999100681MD1999999+0071REMSYN064AAXX  06184 83229 32998 00903 10317 20233 30068 40127 333 58007;EQDQ01  00002PRCP99
0208832290999992001020700004-13010-038510FM-12+005199999V0200501N002612200019N9999999N1+02601+02391101171ADDAA199000091GA1001+999999999GF100991001001999999001001KA1240M+03181MA1999999100581MD1999999-0031REMSYN082AAXX  07004 83229 329// 00505 10260 20239 30058 40117 333 10318 29079 55099 59003;EQDQ01  00002PRCP99
0186832290999992001020712004-13010-038510FM-12+005199999V0203201N002110075019N0040001N1+02841+02351101331ADDAA199000091GF105991051051008001001001KA1240N+02501MA1999999100741MD1999999-0101REMSYN076AAXX  07124 83229 32596 53204 10284 20235 30074 40133 85500 333 20250 59010;EQDQ01  00002PRCP99
0167832290999992001020718004-13010-038510FM-12+005199999V0200901N003112200019N0200001N1+03071+02351101141ADDAA199000091GF101991001001999999001021MA1999999100561MD1999999-0121REMSYN070AAXX  07184 83229 32998 10906 10307 20235 30056 40114 80002 333 59012;EQDQ01  00002PRCP99
0208832290999992001020800004-13010-038510FM-12+005199999V0200501N002112200019N9999999N1+02621+02311101191ADDAA199000091GA1001+999999999GF100991001001999999001001KA1240M+03221MA1999999100601MD1999999+0021REMSYN082AAXX  08004 83229 329// 00504 10262 20231 30060 40119 333 10322 29078 55092 58002;EQDQ01  00002PRCP99
0198832290999992001020900004-13010-038510FM-12+005199999V0200501N001012200019N9999999N1+02591+02271101251ADDAA199000091GF101991011021012501001001KA1240M+03221MA1999999100651MD1999999+0051REMSYN088AAXX  09004 83229 326// 10502 10259 20227 30065 40125 81200 333 10322 29077 55096 58005;EQDQ01  00002PRCP99
0193832290999992001020912004-13010-038510FM-12+005199999V0201401N002110450019N0100001N1+02831+02401101391ADDAA124000591AY111061GF105991041031008001061001KA1240N+02541MA1999999100801MD1999999-0011MW1501REMSYN088AAXX  09124 83229 21597 51404 10283 20240 30080 40139 7501/ 84360 333 20254 59001 69964;
0179832290999992001021000004-13010-038510FM-12+005199999V0200501N001012200019N9999999N1+02571+02151101191ADDAA199000021GF101991011001999999061001KA1240M+03201MA1999999100601MD1999999-0051REMSYN088AAXX  10004 83229 329// 10502 10257 20215 30060 40119 81060 333 10320 29074 55093 59005;
0186832290999992001021012004-13010-038510FM-12+005199999V0200901N001512200019N0200001N1+03021+02131101361ADDAA199000091GF101991011021008001001001KA1240N+02461MA1999999100771MD1999999-0031REMSYN076AAXX  10124 83229 32598 10903 10302 20213 30077 40136 81200 333 20246 59003;EQDQ01  00002PRCP99
0167832290999992001021018004-13010-038510FM-12+005199999V0201401N002612200019N0200001N1+03071+02171101121ADDAA199000091GF102991011021008001041001MA1999999100541MD1999999+0021REMSYN070AAXX  10184 83229 32598 21405 10307 20217 30054 40112 81240 333 58002;EQDQ01  00002PRCP99
0198832290999992001021100004-13010-038510FM-12+005199999V0201401N001012200019N9999999N1+02541+02171101291ADDAA199000091GF101991011021008001001001KA1240M+03121MA1999999100691MD1999999+0091REMSYN088AAXX  11004 83229 325// 11402 10254 20217 30069 40129 81200 333 10312 29070 55105 58009;EQDQ01  00002PRCP99
0201832290999992001021112004-13010-038510FM-12+005199999V0201801N002112200019N0200001N1+02881+02371101491ADDAA124003091AY161061AY251061GF101991011021008001001001KA1240N+02291MA1999999100901MD1999999+0131MW1011REMSYN088AAXX  11124 83229 21598 11804 10288 20237 30090 40149 70165 81200 333 20229 58013 60034;
0167832290999992001021118004-13010-038510FM-12+005199999V0201401N002112200019N0200001N1+02961+02261101201ADDAA199000091GF102991011021008001041001MA1999999100621MD1999999+0081REMSYN070AAXX  11184 83229 32598 21404 10296 20226 30062 40120 81240 333 58008;EQDQ01  00002PRCP99
0198832290999992001021200004-13010-038510FM-12+005199999V0201401N002112200019N9999999N1+02611+02171101391ADDAA199000091GF101991011021008001001001KA1240M+03141MA1999999100791MD1999999+0101REMSYN088AAXX  12004 83229 325// 11404 10261 20217 30079 40139 81200 333 10314 29074 55106 58010;EQDQ01  00002PRCP99
0186832290999992001021212004-13010-038510FM-12+005199999V0201401N001512200019N0200001N1+02971+02261101441ADDAA199000091GF102991021021008001001051KA1240N+02481MA1999999100851MD1999999-0051REMSYN076AAXX  12124 83229 32598 21403 10297 20226 30085 40144 82205 333 20248 59005;EQDQ01  00002PRCP99
0167832290999992001021218004-13010-038510FM-12+005199999V0201401N002112200019N0200001N1+03041+02261101301ADDAA199000091GF102991011021012501001051MA1999999100711MD1999999+0091REMSYN070AAXX  12184 83229 32698 21404 10304 20226 30071 40130 81205 333 58009;EQDQ01  00002PRCP99
0186832290999992001021312004-13010-038510FM-12+005199999V0202301N002110450019N0200001N1+02861+02371101391ADDAA199000091GF105991041031008001041001KA1240N+02481MA1999999100801MD1999999-0051REMSYN076AAXX  13124 83229 32598 52304 10286 20237 30080 40139 84340 333 20248 59005;EQDQ01  00002PRCP99
0167832290999992001021318004-13010-038510FM-12+005199999V0201401N002612200019N0200001N1+03131+02301101121ADDAA199000091GF103991021081012501001061MA1999999100541MD1999999-0171REMSYN070AAXX  13184 83229 32698 31405 10313 20230 30054 40112 82806 333 59017;EQDQ01  00002PRCP99
0198832290999992001021400004-13010-038510FM-12+005199999V0200501N001512200019N9999999N1+02671+02291101251ADDAA199000091GF101991011999012501001001KA1240M+03191MA1999999100661MD1999999-0081REMSYN088AAXX  14004 83229 326// 10503 10267 20229 30066 40125 81/00 333 10319 29074 55066 59008;EQDQ01  00002PRCP99
0186832290999992001021412004-13010-038510FM-12+005199999V0200501N002612200019N0200001N1+02991+02171101351ADDAA199000091GF102991021021008001041001KA1240N+02521MA1999999100761MD1999999-0041REMSYN076AAXX  14124 83229 32598 20505 10299 20217 30076 40135 82240 333 20252 59004;EQDQ01  00002PRCP99
0167832290999992001021418004-13010-038510FM-12+005199999V0200901N002112200019N0200001N1+03131+02221101051ADDAA199000091GF102991011021012501001051MA1999999100471MD1999999-0071REMSYN070AAXX  14184 83229 32698 20904 10313 20222 30047 40105 81205 333 59007;EQDQ01  00002PRCP99
0208832290999992001021500004-13010-038510FM-12+005199999V0200901N001512200019N9999999N1+02621+02291101191ADDAA199000091GA1001+999999999GF100991001001999999001001KA1240M+03281MA1999999100601MD1999999-0061REMSYN082AAXX  15004 83229 329// 00903 10262 20229 30060 40119 333 10328 29071 55108 59006;EQDQ01  00002PRCP99
0186832290999992001021512004-13010-038510FM-12+005199999V0200901N001512200019N0200001N1+03061+02271101321ADDAA199000091GF104991031041008001001021KA1240N+02571MA1999999100741MD1999999-0021REMSYN076AAXX  15124 83229 32598 40903 10306 20227 30074 40132 83402 333 20257 59002;EQDQ01  00002PRCP99
0167832290999992001021518004-13010-038510FM-12+005199999V0200901N002612200019N0200001N1+03171+02371101161ADDAA199000091GF102991001001999999001061MA1999999100581MD1999999+0111REMSYN070AAXX  15184 83229 32998 20905 10317 20237 30058 40116 80006 333 58011;EQDQ01  00002PRCP99
0198832290999992001021600004-13010-038510FM-12+005199999V0200901N001512200019N9999999N1+02661+02331101271ADDAA199000091GF103991011021008001031001KA1240M+03241MA1999999100681MD1999999+0081REMSYN088AAXX  16004 83229 325// 30903 10266 20233 30068 40127 81230 333 10324 29073 55109 58008;EQDQ01  00002PRCP99
0186832290999992001021612004-13010-038510FM-12+005199999V0200901N002111050019N0200001N1+03041+02441101381ADDAA199000091GF106991031041017501001081KA1240N+02581MA1999999100801MD1999999+0061REMSYN076AAXX  16124 83229 32798 60904 10304 20244 30080 40138 83408 333 20258 58006;EQDQ01  00002PRCP99
0167832290999992001021618004-13010-038510FM-12+005199999V0200901N003110450019N0100001N1+03121+02251101321ADDAA199000091GF106991011031008001061081MA1999999100741MD1999999+0161REMSYN070AAXX  16184 83229 32597 60906 10312 20225 30074 40132 81368 333 58016;EQDQ01  00002PRCP99
0198832290999992001021700004-13010-038510FM-12+005199999V0200901N002112200019N9999999N1+02671+02201101411ADDAA199000091GF102991011021008001001051KA1240M+03291MA1999999100821MD1999999+0141REMSYN088AAXX  17004 83229 325// 20904 10267 20220 30082 40141 81205 333 10329 29070 55083 58014;EQDQ01  00002PRCP99
0201832290999992001021712004-13010-038510FM-12+005199999V0200501N001510075019N0100001N1+02711+02471101631ADDAA124002091AY161061AY221061GF106991061051008001031001KA1240N+02501MA1999999101011MD1999999+0211MW1021REMSYN088AAXX  17124 83229 21597 60503 10271 20247 30101 40163 70262 86530 333 20250 58021 60024;
0167832290999992001021718004-13010-038510FM-12+005199999V0201401N004110450019N0100001N1+02981+02301101441ADDAA199000091GF107991011031008001051081MA1999999100851MD1999999+0111REMSYN070AAXX  17184 83229 32597 71408 10298 20230 30085 40144 81358 333 58011;EQDQ01  00002PRCP99
0198832290999992001021800004-13010-038510FM-12+005199999V0200901N001512200019N9999999N1+02601+02271101531ADDAA199000091GF102991011021008001001081KA1240M+03161MA1999999100931MD1999999+0111REMSYN088AAXX  18004 83229 325// 20903 10260 20227 30093 40153 81208 333 10316 29079 55051 58011;EQDQ01  00002PRCP99
0186832290999992001021812004-13010-038510FM-12+005199999V0201401N001510450019N0100001N1+02741+02301101631ADDAA199000091GF106991021051008001071081KA1240N+02541MA1999999101041MD1999999+0031REMSYN076AAXX  18124 83229 32597 61403 10274 20230 30104 40163 82578 333 20254 58003;EQDQ01  00002PRCP99
0167832290999992001021818004-13010-038510FM-12+005199999V0201401N002119999999N0100001N1+02811+02251101471ADDAA199000091GF107991071001012501071001MA1999999100881MD1999999+0031REMSYN070AAXX  18184 83229 32697 71404 10281 20225 30088 40147 87070 333 58003;EQDQ01  00002PRCP99
0193832290999992001021912004-13010-038510FM-12+005199999V0201401N001511050019N0200001N1+03061+02351101551ADDAA124000391AY151061GF106991021021008001061061KA1240N+02441MA1999999100971MD1999999-0071MW1031REMSYN088AAXX  19124 83229 21598 61403 10306 20235 30097 40155 7035/ 82266 333 20244 59007 69934;
0167832290999992001021918004-13010-038510FM-12+005199999V0201401N002110450019N0100001N1+02911+02301101381ADDAA199000091GF107991021021008001031081MA1999999100791MD1999999-0091REMSYN070AAXX  19184 83229 32597 71404 10291 20230 30079 40138 82238 333 59009;EQDQ01  00002PRCP99
0198832290999992001022000004-13010-038510FM-12+005199999V0200901N001012200019N9999999N1+02551+02271101441ADDAA199000091GF101991011001999999031001KA1240M+03201MA1999999100841MD1999999-0031REMSYN088AAXX  20004 83229 329// 10902 10255 20227 30084 40144 81030 333 10320 29077 55053 59003;EQDQ01  00002PRCP99
0186832290999992001022012004-13010-038510FM-12+005199999V0201801N000510450019N0200001N1+02821+02441101521ADDAA199000091GF105991031021008001031041KA1240N+02441MA1999999100931MD1999999-0041REMSYN076AAXX  20124 83229 32598 51801 10282 20244 30093 40152 83234 333 20244 59004;EQDQ01  00002PRCP99
0167832290999992001022018004-13010-038510FM-12+005199999V0201401N002610450019N0100001N1+03051+02331101281ADDAA199000091GF106991021021008001061081MA1999999100701MD1999999-0091REMSYN070AAXX  20184 83229 32597 61405 10305 20233 30070 40128 82268 333 59009;EQDQ01  00002PRCP99
0198832290999992001022100004-13010-038510FM-12+005199999V0200901N001512200019N9999999N1+02641+02331101381ADDAA199000091GF102991021021008001001001KA1240M+03101MA1999999100781MD1999999-0061REMSYN088AAXX  21004 83229 325// 20903 10264 20233 30078 40138 82200 333 10310 29078 55057 59006;EQDQ01  00002PRCP99
0186832290999992001022112004-13010-038510FM-12+005199999V0201401N000512200019N0200001N1+03061+02401101421ADDAA199000091GF103991021021008001001051KA1240N+02531MA1999999100841MD1999999-0091REMSYN076AAXX  21124 83229 32598 31401 10306 20240 30084 40142 82205 333 20253 59009;EQDQ01  00002PRCP99
0167832290999992001022118004-13010-038510FM-12+005199999V0201401N003112200019N0200001N1+03161+02341101171ADDAA199000091GF103991011021008001041061MA1999999100591MD1999999-0111REMSYN070AAXX  21184 83229 32598 31406 10316 20234 30059 40117 81246 333 59011;EQDQ01  00002PRCP99
0198832290999992001022200004-13010-038510FM-12+005199999V0201401N002612200019N9999999N1+02631+02331101331ADDAA199000091GF101991011021008001001001KA1240M+03241MA1999999100731MD1999999-0051REMSYN088AAXX  22004 83229 325// 11405 10263 20233 30073 40133 81200 333 10324 29075 55104 59005;EQDQ01  00002PRCP99
0186832290999992001022212004-13010-038510FM-12+005199999V0201401N001512200019N0200001N1+03011+02291101491ADDAA199000091GF104991021021008001001061KA1240N+02601MA1999999100901MD1999999+0061REMSYN076AAXX  22124 83229 32598 41403 10301 20229 30090 40149 82206 333 20260 58006;EQDQ01  00002PRCP99
0167832290999992001022218004-13010-038510FM-12+005199999V0201401N002612200019N0200001N1+03151+02301101251ADDAA199000091GF102991011021012501001051MA1999999100671MD1999999+0081REMSYN070AAXX  22184 83229 32698 21405 10315 20230 30067 40125 81205 333 58008;EQDQ01  00002PRCP99
0198832290999992001022300004-13010-038510FM-12+005199999V0201401N002112200019N9999999N1+02661+02311101341ADDAA199000091GF102991021021008001001001KA1240M+03211MA1999999100751MD1999999+0021REMSYN088AAXX  23004 83229 325// 21404 10266 20231 30075 40134 82200 333 10321 29072 55105 58002;EQDQ01  00002PRCP99
0186832290999992001022312004-13010-038510FM-12+005199999V0201401N001512200019N0200001N1+02971+02331101491ADDAA199000091GF102991011021008001031061KA1240N+02511MA1999999100901MD1999999+0001REMSYN076AAXX  23124 83229 32598 21403 10297 20233 30090 40149 81236 333 20251 58000;EQDQ01  00002PRCP99
0167832290999992001022318004-13010-038510FM-12+005199999V0201401N002612200019N0200001N1+03041+02281101301ADDAA199000091GF101991011021008001001001MA1999999100711MD1999999+0041REMSYN070AAXX  23184 83229 32598 11405 10304 20228 30071 40130 81200 333 58004;EQDQ01  00002PRCP99
0198832290999992001022400004-13010-038510FM-12+005199999V0201401N002112200019N9999999N1+02681+02391101401ADDAA199000091GF101991011021008001001001KA1240M+03221MA1999999100811MD1999999+0061REMSYN088AAXX  24004 83229 325// 11404 10268 20239 30081 40140 81200 333 10322 29075 55107 58006;EQDQ01  00002PRCP99
0193832290999992001022412004-13010-038510FM-12+005199999V0201401N001512200019N0100001N1+02761+02561101421ADDAA124000891AY111061GF103991021031008001041001KA1240N+02531MA1999999100831MD1999999-0071MW1201REMSYN088AAXX  24124 83229 21597 31403 10276 20256 30083 40142 7201/ 82340 333 20253 59007 69984;
0182832290999992001022418004-13010-038510FM-12+005199999V0201401N002112200019N0200001N1+02981+02401101181ADDAA106000191AY151061AY201061GF103991021021008001041051MA1999999100601MD1999999-0111MW1011REMSYN082AAXX  24184 83229 21598 31404 10298 20240 30060 40118 70150 82245 333 59011 69921;
0179832290999992001022500004-13010-038510FM-12+005199999V0201401N002112200019N9999999N1+02641+02311101331ADDAA199000021GF102991021021008001001001KA1240M+03101MA1999999100731MD1999999-0081REMSYN088AAXX  25004 83229 325// 21404 10264 20231 30073 40133 82200 333 10310 29081 55081 59008;
0198832290999992001022512004-13010-038510FM-12+005199999V0201401N002112200019N9999999N1+02641+02311101331ADDAA199000091GF102991021021008001001001KA1240M+03101MA1999999100731MD1999999-0081REMSYN088AAXX  25124 83229 325// 21404 10264 20231 30073 40133 82200 333 10310 29081 55081 59008;EQDQ01  00002PRCP99
0167832290999992001022518004-13010-038510FM-12+005199999V0201401N002119999999N0100001N1+02931+02271101121ADDAA199000091GF107991061001012501071081MA1999999100541MD1999999-0061REMSYN070AAXX  25184 83229 32697 71404 10293 20227 30054 40112 86078 333 59006;EQDQ01  00002PRCP99
0198832290999992001022600004-13010-038510FM-12+005199999V0201401N002612200019N9999999N1+02661+02331101131ADDAA199000091GF101991011021008001001001KA1240M+03081MA1999999100541MD1999999-0191REMSYN088AAXX  26004 83229 325// 11405 10266 20233 30054 40113 81200 333 10308 29078 55042 59019;EQDQ01  00002PRCP99
0182832290999992001022618004-13010-038510FM-12+005199999V0201401N002110450019N0040001N1+02871+02351101121ADDAA106001091AY161061AY251061GF108991031051004501071999MA1999999100541MD1999999+0001MW1021REMSYN082AAXX  26184 83229 21496 81404 10287 20235 30054 40112 70265 8357/ 333 58000 60011;
0198832290999992001022700004-13010-038510FM-12+005199999V0200501N000510450019N9999999N1+02641+02331101131ADDAA199000091GF106991041051008001031001KA1240M+03101MA1999999100541MD1999999+0001REMSYN088AAXX  27004 83229 325// 60501 10264 20233 30054 40113 84530 333 10310 29079 55041 58000;EQDQ01  00002PRCP99
0201832290999992001022712004-13010-038510FM-12+005199999V0200501N001510042019N0100001N1+02831+02521101351ADDAA124006191AY161061AY221061GF106991051051004501031001KA1240N+02351MA1999999100761MD1999999+0111MW1031REMSYN088AAXX  27124 83229 21497 60503 10283 20252 30076 40135 70362 85530 333 20235 58011 60064;
0167832290999992001022718004-13010-038510FM-12+005199999V0200501N002612200019N0200001N1+03091+02271101141ADDAA199000091GF105991011031008001001081MA1999999100561MD1999999+0021REMSYN070AAXX  27184 83229 32598 50505 10309 20227 30056 40114 81308 333 58002;EQDQ01  00002PRCP99
0131832290999992001022812004-13010-038510FM-12+005199999V0201401N001512200019N0100001N1+03031+02291999999ADDAA199000091GF102991999999008001999999MA1999999100801REMSYN048AAXX  28124 83229 32597 21403 10303 20229 3008/;EQDQ01  00002PRCP99
0167832290999992001022818004-13010-038510FM-12+005199999V0201401N002111050019N0100001N1+03091+02351101201ADDAA199000091GF105991021021008001041061MA1999999100621MD1999999+0061REMSYN070AAXX  28184 83229 32597 51404 10309 20235 30062 40120 82246 333 58006;EQDQ01  00002PRCP99
0198832290999992001030100004-13010-038510FM-12+005199999V0201401N002112200019N9999999N1+02661+02291101321ADDAA199000091GF102991011021008001001061KA1240M+03191MA1999999100731MD1999999+0091REMSYN088AAXX  01004 83229 325// 21404 10266 20229 30073 40132 81206 333 10319 29073 55103 58009;EQDQ01  00002PRCP99
0201832290999992001030112004-13010-038510FM-12+005199999V0201801N001510075019N0100001N1+02851+02481101371ADDAA124000591AY151061AY201061GF106991061051008001001001KA1240N+02591MA1999999100781MD1999999-0071MW1011REMSYN088AAXX  01124 83229 21597 61803 10285 20248 30078 40137 70150 86500 333 20259 59007 69944;
0167832290999992001030118004-13010-038510FM-12+005199999V0201401N002612200019N0100001N1+02931+02241101291ADDAA199000091GF103991021001012501031011MA1999999100701MD1999999+0081REMSYN070AAXX  01184 83229 32697 31405 10293 20224 30070 40129 82031 333 58008;EQDQ01  00002PRCP99
0198832290999992001030200004-13010-038510FM-12+005199999V0201401N003110075019N9999999N1+02661+02391101411ADDAA199000091GF106991061051008001001001KA1240M+03121MA1999999100821MD1999999+0091REMSYN088AAXX  02004 83229 325// 61406 10266 20239 30082 40141 86500 333 10312 29080 55073 58009;EQDQ01  00002PRCP99
0186832290999992001030212004-13010-038510FM-12+005199999V0203201N000510075019N0020001N1+02811+02381101311ADDAA199000091GF106991061051008001001001KA1240N+02501MA1999999100721MD1999999+0091REMSYN076AAXX  02124 83229 32595 63201 10281 20238 30072 40131 86500 333 20250 58009;EQDQ01  00002PRCP99
0167832290999992001030218004-13010-038510FM-12+005199999V0201401N001512200019N0100001N1+02961+02471101391ADDAA199000091GF105991011041008001001081MA1999999100801MD1999999+0101REMSYN070AAXX  02184 83229 32597 51403 10296 20247 30080 40139 81408 333 58010;EQDQ01  00002PRCP99
0198832290999992001030300004-13010-038510FM-12+005199999V0200901N001012200019N9999999N1+02661+02411101491ADDAA199000091GF103991031021008001001001KA1240M+02981MA1999999100901MD1999999+0081REMSYN088AAXX  03004 83229 325// 30902 10266 20241 30090 40149 83200 333 10298 29086 55042 58008;EQDQ01  00002PRCP99
0201832290999992001030312004-13010-038510FM-12+005199999V0200501N000511050019N0100001N1+02841+02541101661ADDAA124004191AY161061AY251061GF105991021031008001061061KA1240N+02501MA1999999101071MD1999999+0081MW1031REMSYN088AAXX  03124 83229 21597 50501 10284 20254 30107 40166 70365 82366 333 20250 58008 60044;
0167832290999992001030318004-13010-038510FM-12+005199999V0201401N001512200019N0200001N1+03121+02411101411ADDAA199000091GF102991001001999999001061MA1999999100831MD1999999+0031REMSYN070AAXX  03184 83229 32998 21403 10312 20241 30083 40141 80006 333 58003;EQDQ01  00002PRCP99
0198832290999992001030400004-13010-038510FM-12+005199999V0201401N002112200019N9999999N1+02661+02371101621ADDAA199000091GF101991011021008001001001KA1240M+03201MA1999999101031MD1999999+0131REMSYN088AAXX  04004 83229 325// 11404 10266 20237 30103 40162 81200 333 10320 29080 55098 58013;EQDQ01  00002PRCP99
0186832290999992001030412004-13010-038510FM-12+005199999V0201401N002112200019N0200001N1+03001+02421101641ADDAA199000091GF104991021021008001061061KA1240N+02601MA1999999101051MD1999999-0021REMSYN076AAXX  04124 83229 32598 41404 10300 20242 30105 40164 82266 333 20260 59002;EQDQ01  00002PRCP99
0167832290999992001030418004-13010-038510FM-12+005199999V0201401N002112200019N0200001N1+03101+02361101351ADDAA199000091GF103991011021008001001061MA1999999100771MD1999999-0061REMSYN070AAXX  04184 83229 32598 31404 10310 20236 30077 40135 81206 333 59006;EQDQ01  00002PRCP99
0198832290999992001030500004-13010-038510FM-12+005199999V0200901N002112200019N9999999N1+02661+02331101451ADDAA199000091GF101991011021008001001001KA1240M+03151MA1999999100861MD1999999-0171REMSYN088AAXX  05004 83229 325// 10904 10266 20233 30086 40145 81200 333 10315 29075 55107 59017;EQDQ01  00002PRCP99
0186832290999992001030512004-13010-038510FM-12+005199999V0202701N000510042019N0040001N1+02811+02461101431ADDAA199000091GF107991061051004501031001KA1240N+02561MA1999999100841MD1999999-0211REMSYN076AAXX  05124 83229 32496 72701 10281 20246 30084 40143 86530 333 20256 59021;EQDQ01  00002PRCP99
0167832290999992001030518004-13010-038510FM-12+005199999V0201401N001511050019N0200001N1+03131+02411101141ADDAA199000091GF106991011031008001001081MA1999999100561MD1999999-0211REMSYN070AAXX  05184 83229 32598 61403 10313 20241 30056 40114 81308 333 59021;EQDQ01  00002PRCP99
0198832290999992001030600004-13010-038510FM-12+005199999V0200901N001512200019N9999999N1+02691+02311101361ADDAA199000091GF102991021021008001001001KA1240M+03181MA1999999100771MD1999999-0091REMSYN088AAXX  06004 83229 325// 20903 10269 20231 30077 40136 82200 333 10318 29077 55093 59009;EQDQ01  00002PRCP99
0201832290999992001030612004-13010-038510FM-12+005199999V0200501N002110450019N0040001N1+02761+02361101601ADDAA124014091AY161061AY251061GF107991041031008001051001KA1240N+02441MA1999999101011MD1999999+0171MW1031REMSYN088AAXX  06124 83229 21596 70504 10276 20236 30101 40160 70365 84350 333 20244 58017 60144;
0167832290999992001030618004-13010-038510FM-12+005199999V0200901N002112200019N0100001N1+03031+02361101361ADDAA199000091GF106991011021012501001061MA1999999100771MD1999999+0211REMSYN070AAXX  06184 83229 32697 60904 10303 20236 30077 40136 81206 333 58021;EQDQ01  00002PRCP99
0198832290999992001030700004-13010-038510FM-12+005199999V0200501N001012200019N9999999N1+02681+02311101531ADDAA199000091GF102991011021008001001061KA1240M+03181MA1999999100941MD1999999+0171REMSYN088AAXX  07004 83229 325// 20502 10268 20231 30094 40153 81206 333 10318 29077 55065 58017;EQDQ01  00002PRCP99
0186832290999992001030712004-13010-038510FM-12+005199999V0200901N001012200019N0200001N1+03011+02291101661ADDAA199000091GF104991031041008001001061KA1240N+02491MA1999999101071MD1999999+0061REMSYN076AAXX  07124 83229 32598 40902 10301 20229 30107 40166 83406 333 20249 58006;EQDQ01  00002PRCP99
0167832290999992001030718004-13010-038510FM-12+005199999V0201401N002612200019N0200001N1+03101+02411101401ADDAA199000091GF104991021031008001001061MA1999999100821MD1999999+0051REMSYN070AAXX  07184 83229 32598 41405 10310 20241 30082 40140 82306 333 58005;EQDQ01  00002PRCP99
0198832290999992001030800004-13010-038510FM-12+005199999V0200901N002112200019N9999999N1+02651+02251101501ADDAA199000091GF103991011021008001001061KA1240M+03181MA1999999100911MD1999999-0031REMSYN088AAXX  08004 83229 325// 30904 10265 20225 30091 40150 81206 333 10318 29073 55102 59003;EQDQ01  00002PRCP99
0186832290999992001030812004-13010-038510FM-12+005199999V0201401N001010075019N0200001N1+02791+02341101571ADDAA199000091GF105991051051008001001001KA1240N+02501MA1999999100981MD1999999-0091REMSYN076AAXX  08124 83229 32598 51402 10279 20234 30098 40157 85500 333 20250 59009;EQDQ01  00002PRCP99
0177832290999992001030818004-13010-038510FM-12+005199999V0201401N002112200019N0200001N1+03091+02321101251ADDAA199000091GA1001+999999999GF100991001001999999001001MA1999999100671MD1999999-0151REMSYN064AAXX  08184 83229 32998 01404 10309 20232 30067 40125 333 59015;EQDQ01  00002PRCP99
0186832290999992001030912004-13010-038510FM-12+005199999V0201401N001512200019N0200001N1+03031+02281101301ADDAA199000091GF104991021021017501001011KA1240N+02511MA1999999100711MD1999999+0041REMSYN076AAXX  09124 83229 32798 41403 10303 20228 30071 40130 82201 333 20251 58004;EQDQ01  00002PRCP99
0177832290999992001030918004-13010-038510FM-12+005199999V0201401N002612200019N0200001N1+03111+02361101001ADDAA199000091GA1001+999999999GF100991001001999999001001MA1999999100421MD1999999-0251REMSYN064AAXX  09184 83229 32998 01405 10311 20236 30042 40100 333 59025;EQDQ01  00002PRCP99
0208832290999992001031000004-13010-038510FM-12+005199999V0200901N002612200019N9999999N1+02661+02241101151ADDAA199000091GA1001+999999999GF100991001001999999001001KA1240M+03141MA1999999100561MD1999999-0141REMSYN082AAXX  10004 83229 329// 00905 10266 20224 30056 40115 333 10314 29071 55105 59014;EQDQ01  00002PRCP99
0186832290999992001031012004-13010-038510FM-12+005199999V0203201N001510075019N0100001N1+02891+02391101201ADDAA199000091GF107991061051008001001061KA1240N+02521MA1999999100621MD1999999-0091REMSYN076AAXX  10124 83229 32597 73203 10289 20239 30062 40120 86506 333 20252 59009;EQDQ01  00002PRCP99
0167832290999992001031018004-13010-038510FM-12+005199999V0200901N002619999999N0200001N1+03151+02161101001ADDAA199000091GF105991001001999999001081MA1999999100421MD1999999+0001REMSYN070AAXX  10184 83229 32998 50905 10315 20216 30042 40100 80008 333 58000;EQDQ01  00002PRCP99
0208832290999992001031100004-13010-038510FM-12+005199999V0200501N002112200019N9999999N1+02691+02261101121ADDAA199000091GA1001+999999999GF100991001001999999001001KA1240M+03231MA1999999100531MD1999999-0031REMSYN082AAXX  11004 83229 329// 00504 10269 20226 30053 40112 333 10323 29072 55086 59003;EQDQ01  00002PRCP99
0186832290999992001031112004-13010-038510FM-12+005199999V0203201N002110075019N0100001N1+02871+02351101241ADDAA199000091GF107991071051008001001001KA1240N+02561MA1999999100651MD1999999+0031REMSYN076AAXX  11124 83229 32597 73204 10287 20235 30065 40124 87500 333 20256 58003;EQDQ01  00002PRCP99
0198832290999992001031200004-13010-038510FM-12+005199999V0200501N003112200019N9999999N1+02711+02331101161ADDAA199000091GF101991011001012501031001KA1240M+03221MA1999999100571MD1999999+0041REMSYN088AAXX  12004 83229 326// 10506 10271 20233 30057 40116 81030 333 10322 29075 55057 58004;EQDQ01  00002PRCP99
0186832290999992001031212004-13010-038510FM-12+005199999V0203201N000510450019N0100001N1+02821+02421101421ADDAA199000091GF106991041081008001011061KA1240N+02541MA1999999100831MD1999999+0181REMSYN076AAXX  12124 83229 32597 63201 10282 20242 30083 40142 84816 333 20254 58018;EQDQ01  00002PRCP99
0182832290999992001031218004-13010-038510FM-12+005199999V0200901N002610450019N0100001N1+03011+02441101131ADDAA106000191AY191061AY251061GF107991011021012501041061MA1999999100551MD1999999+0111MW1031REMSYN082AAXX  12184 83229 21697 70905 10301 20244 30055 40113 70395 81246 333 58011 69911;
0198832290999992001031300004-13010-038510FM-12+005199999V0200901N002112200019N9999999N1+02701+02391101331ADDAA199000091GF101991011021008001001001KA1240M+03061MA1999999100741MD1999999+0171REMSYN088AAXX  13004 83229 325// 10904 10270 20239 30074 40133 81200 333 10306 29079 55016 58017;EQDQ01  00002PRCP99
0201832290999992001031312004-13010-038510FM-12+005199999V0203601N001010042019N0020001N1+02381+02361101461ADDAA124035191AY191061AY261061GF108991081071004501999999KA1240N+02321MA1999999100861MD1999999+0031MW1501REMSYN088AAXX  13124 83229 21495 83602 10238 20236 30086 40146 75096 887// 333 20232 58003 60354;
0182832290999992001031318004-13010-038510FM-12+005199999V0201801N002110042019N0040001N1+02551+02401101371ADDAA106031091AY191061AY261061GF107991071051004501001001MA1999999100771MD1999999+0221MW1511REMSYN082AAXX  13184 83229 21496 71804 10255 20240 30077 40137 75196 87500 333 58022 60311;
0179832290999992001031400004-13010-038510FM-12+005199999V0200901N001512200019N9999999N1+02501+02381101341ADDAA199000021GF102991011041008001051001KA1240M+02741MA1999999100741MD1999999+0001REMSYN088AAXX  14004 83229 325// 20903 10250 20238 30074 40134 81450 333 10274 29094 55011 58000;
0201832290999992001031412004-13010-038510FM-12+005199999V0203601N000510042019N0020001N1+02431+02391101321ADDAA124045091AY191061AY261061GF108991081071004501999999KA1240N+02371MA1999999100721MD1999999-0141MW1811REMSYN088AAXX  14124 83229 21495 83601 10243 20239 30072 40132 78196 887// 333 20237 59014 60454;
0182832290999992001031418004-13010-038510FM-12+005199999V0201801N001510042019N0020001N1+02601+02401101201ADDAA106013091AY161061AY261061GF108991081071004501999999MA1999999100611MD1999999-0161MW1511REMSYN082AAXX  14184 83229 21495 81803 10260 20240 30061 40120 75166 887// 333 59016 60131;
0213832290999992001031500004-13010-038510FM-12+005199999V0200901N000512200019N9999999N1+02351+02311101261ADDAA106002091AY161061AY251061GF103991031041004501001001KA1240M+02751MA1999999100661MD1999999-0081MW1021REMSYN100AAXX  15004 83229 214// 30901 10235 20231 30066 40126 70265 83400 333 10275 29096 55009 59008 60021;
0201832290999992001031512004-13010-038510FM-12+005199999V0202301N001510042019N0020001N1+02531+02381101491ADDAA124040991AY161061AY261061GF108991081071004501999999KA1240N+02291MA1999999100891MD1999999+0171MW1031REMSYN088AAXX  15124 83229 21495 82303 10253 20238 30089 40149 70366 887// 333 20229 58017 60414;
0137832290999992001031518004-13010-038510FM-12+005199999V0201401N001510450019N0100001N1+02681+02371101211ADDGF107991041051008001071001MA1999999100621MD1999999+0011REMSYN070AAXX  15184 83229 22597 71403 10268 20237 30062 40121 84570 333 58001;
0213832290999992001031600004-13010-038510FM-12+005199999V0200901N001012200019N9999999N1+02521+02271101361ADDAA106005191AY161061AY221061GF102991021021008001001001KA1240M+02801MA1999999100761MD1999999+0101MW1021REMSYN100AAXX  16004 83229 215// 20902 10252 20227 30076 40136 70262 82200 333 10280 29087 55023 58010 60051;
0201832290999992001031612004-13010-038510FM-12+005199999V0201401N001512200019N0100001N1+02741+02341101461ADDAA124008991AY161061AY221061GF104991021021017501021011KA1240N+02361MA1999999100861MD1999999-0031MW1031REMSYN088AAXX  16124 83229 21797 41403 10274 20234 30086 40146 70362 82221 333 20236 59003 60094;
0167832290999992001031618004-13010-038510FM-12+005199999V0201401N003110042019N0020001N1+02601+02371101451ADDAA199000091GF108991061051004501071999MA1999999100851MD1999999+0231REMSYN070AAXX  16184 83229 32495 81406 10260 20237 30085 40145 8657/ 333 58023;EQDQ01  00002PRCP99
0213832290999992001031700004-13010-038510FM-12+005199999V0201401N002112200019N9999999N1+02521+02421101421ADDAA106005191AY161061AY221061GF104991041041004501001001KA1240M+02921MA1999999100821MD1999999+0061MW1031REMSYN100AAXX  17004 83229 214// 41404 10252 20242 30082 40142 70362 84400 333 10292 29089 55010 58006 60051;
0201832290999992001031712004-13010-038510FM-12+005199999V0201801N001510042019N0010001N1+02371+02311101481ADDAA124029091AY191061AY261061GF108991071071004501021999KA1240N+02371MA1999999100881MD1999999+0021MW1951REMSYN088AAXX  17124 83229 21494 81803 10237 20231 30088 40148 79596 8772/ 333 20237 58002 60294;
0182832290999992001031718004-13010-038510FM-12+005199999V0209999C000010042019N0020001N1+02381+02361101351ADDAA106018091AY191061AY261061GF108991051071004501021999MA1999999100751MD1999999-0101MW1611REMSYN082AAXX  17184 83229 21495 80000 10238 20236 30075 40135 76196 8572/ 333 59010 60181;
0213832290999992001031800004-13010-038510FM-12+005199999V0202301N000510450019N9999999N1+02371+02341101381ADDAA106005191AY161061AY221061GF107991011021008001051001KA1240M+02571MA1999999100781MD1999999-0041MW1031REMSYN100AAXX  18004 83229 215// 72301 10237 20234 30078 40138 70362 81250 333 10257 29098 55000 59004 60051;
0201832290999992001031812004-13010-038510FM-12+005199999V0202301N001011050019N0200001N1+02701+02581101361ADDAA124031091AY161061AY251061GF105991021021008001041061KA1240N+02361MA1999999100771MD1999999-0111MW1201REMSYN088AAXX  18124 83229 21598 52302 10270 20258 30077 40136 72065 82246 333 20236 59011 60314;
0148832290999992001031818004-13010-038510FM-12+005199999V0201401N001012200019N0200001N1+02951+02311101061ADDAA199000021GF102991011021012501041001MA1999999100481MD1999999-0271REMSYN070AAXX  18184 83229 32698 21402 10295 20231 30048 40106 81240 333 59027;
0189832290999992001031900004-13010-038510FM-12+005199999V0200501N000512200019N9999999N1+02481+02231101301ADDAA199000021GA1001+999999999GF100991001001999999001001KA1240M+02981MA1999999100701MD1999999-0081REMSYN082AAXX  19004 83229 329// 00501 10248 20223 30070 40130 333 10298 29084 55090 59008;
0186832290999992001031912004-13010-038510FM-12+005199999V0202301N000510075019N0040001N1+02761+02561101331ADDAA199000091GF106991061051008001001001KA1240N+02381MA1999999100741MD1999999-0031REMSYN076AAXX  19124 83229 32596 62301 10276 20256 30074 40133 86500 333 20238 59003;EQDQ01  00002PRCP99
0167832290999992001031918004-13010-038510FM-12+005199999V0201401N002612200019N0200001N1+02931+02471101101ADDAA199000091GF101991001001999999001011MA1999999100521MD1999999+0041REMSYN070AAXX  19184 83229 32998 11405 10293 20247 30052 40110 80001 333 58004;EQDQ01  00002PRCP99
0198832290999992001032000004-13010-038510FM-12+005199999V0200501N001012200019N9999999N1+02611+02311101211ADDAA199000091GF103991031021008001001001KA1240M+02981MA1999999100621MD1999999-0081REMSYN088AAXX  20004 83229 325// 30502 10261 20231 30062 40121 83200 333 10298 29084 55083 59008;EQDQ01  00002PRCP99
0201832290999992001032012004-13010-038510FM-12+005199999V0200901N001512200019N0200001N1+02931+02401101531ADDAA124000191AY151061AY221061GF102991021021004501001001KA1240N+02391MA1999999100941MD1999999+0201MW1031REMSYN088AAXX  20124 83229 21498 20903 10293 20240 30094 40153 70352 82200 333 20239 58020 69914;
0167832290999992001032018004-13010-038510FM-12+005199999V0200501N002612200019N0200001N1+03051+02381101371ADDAA199000091GF102991011031008001001011MA1999999100791MD1999999+0271REMSYN070AAXX  20184 83229 32598 20505 10305 20238 30079 40137 81301 333 58027;EQDQ01  00002PRCP99
0201832290999992001032112004-13010-038510FM-12+005199999V0200901N002112200019N0200001N1+02811+02381101601ADDAA124029091AY161061AY221061GF102991011031017501001061KA1240N+02391MA1999999101011MD1999999+0071MW1031REMSYN088AAXX  21124 83229 21798 20904 10281 20238 30101 40160 70362 81306 333 20239 58007 60294;
0167832290999992001032118004-13010-038510FM-12+005199999V0201401N002112200019N0200001N1+02851+02241101381ADDAA199000091GF105991021041008001001081MA1999999100791MD1999999+0001REMSYN070AAXX  21184 83229 32598 51404 10285 20224 30079 40138 82408 333 58000;EQDQ01  00002PRCP99
0198832290999992001032200004-13010-038510FM-12+005199999V0201401N002612200019N9999999N1+02641+02251101441ADDAA199000091GF104991011021008001031001KA1240M+03071MA1999999100841MD1999999-0021REMSYN088AAXX  22004 83229 325// 41405 10264 20225 30084 40144 81230 333 10307 29077 55090 59002;EQDQ01  00002PRCP99
0201832290999992001032212004-13010-038510FM-12+005199999V0201401N002112200019N0040001N1+02841+02401101421ADDAA124000591AY151061AY201061GF104991031051004501001011KA1240N+02441MA1999999100831MD1999999-0181MW1021REMSYN088AAXX  22124 83229 21496 41404 10284 20240 30083 40142 70250 83501 333 20244 59018 69944;
0182832290999992001032218004-13010-038510FM-12+005199999V0201401N002611050019N0100001N1+02831+02311101161ADDAA106002091AY161061AY251061GF105991011031004501031061MA1999999100571MD1999999-0221MW1011REMSYN082AAXX  22184 83229 21497 51405 10283 20231 30057 40116 70165 81336 333 59022 60021;
0248832290999992001032300004-13010-038510FM-12+005199999V0201401N002612200019N9999999N1+02571+02331101221ADDAA106000391AY161061AY251061GF101991011021008001001001KA1240M+03021MA1999999999999MD1999999-0211MW1021REMSYN100AAXX  23004 83229 215// 11405 10257 20233 3063/ 40122 70265 81200 333 10302 29081 55088 59021 69931;EQDQ01+096303APOSP Q02 096303APOSP 
0193832290999992001032312004-13010-038510FM-12+005199999V0201401N001512200019N0100001N1+02901+02371101361ADDAA124002091AY151061GF102991021021008001061001KA1240N+02431MA1999999100771MD1999999-0061MW1031REMSYN088AAXX  23124 83229 21597 21403 10290 20237 30077 40136 7035/ 82260 333 20243 59006 60024;
0167832290999992001032318004-13010-038510FM-12+005199999V0201401N001512200019N0200001N1+02881+02351101041ADDAA199000091GF102991011021008001041061MA1999999100461MD1999999-0111REMSYN070AAXX  23184 83229 32598 21403 10288 20235 30046 40104 81246 333 59011;EQDQ01  00002PRCP99
0198832290999992001032400004-13010-038510FM-12+005199999V0201401N002612200019N9999999N1+02631+02331101161ADDAA199000091GF101991011021008001001001KA1240M+03021MA1999999100571MD1999999-0061REMSYN088AAXX  24004 83229 325// 11405 10263 20233 30057 40116 81200 333 10302 29078 55099 59006;EQDQ01  00002PRCP99
0186832290999992001032412004-13010-038510FM-12+005199999V0201401N001512200019N0100001N1+02851+02401101371ADDAA199000091GF104991031031008001001061KA1240N+02401MA1999999100781MD1999999+0011REMSYN076AAXX  24124 83229 32597 41403 10285 20240 30078 40137 83306 333 20240 58001;EQDQ01  00002PRCP99
0167832290999992001032418004-13010-038510FM-12+005199999V0201401N002610450019N0200001N1+02941+02331101171ADDAA199000091GF107991021021008001031061MA1999999100591MD1999999+0131REMSYN070AAXX  24184 83229 32598 71405 10294 20233 30059 40117 82236 333 58013;EQDQ01  00002PRCP99
0186832290999992001032512004-13010-038510FM-12+005199999V0200901N001011050019N0100001N1+02891+02371101401ADDAA199000091GF106991021041008001031061KA1240N+02531MA1999999100811MD1999999+0031REMSYN076AAXX  25124 83229 32597 60902 10289 20237 30081 40140 82436 333 20253 58003;EQDQ01  00002PRCP99
0167832290999992001032518004-13010-038510FM-12+005199999V0201401N001512200019N0200001N1+03051+02311101321ADDAA199000091GF106991011031008001001061MA1999999100741MD1999999+0151REMSYN070AAXX  25184 83229 32598 61403 10305 20231 30074 40132 81306 333 58015;EQDQ01  00002PRCP99
0198832290999992001032600004-13010-038510FM-12+005199999V0200501N000512200019N9999999N1+02561+02191101401ADDAA199000091GF102991001001999999001061KA1240M+03101MA1999999100801MD1999999+0091REMSYN088AAXX  26004 83229 329// 20501 10256 20219 30080 40140 80006 333 10310 29075 55089 58009;EQDQ01  00002PRCP99
0186832290999992001032612004-13010-038510FM-12+005199999V0200501N001512200019N0100001N1+02851+02381101431ADDAA199000091GF105991011041008001001061KA1240N+02441MA1999999100841MD1999999+0031REMSYN076AAXX  26124 83229 32597 50503 10285 20238 30084 40143 81406 333 20244 58003;EQDQ01  00002PRCP99
0167832290999992001032618004-13010-038510FM-12+005199999V0201401N002111050019N0100001N1+02891+02301101291ADDAA199000091GF106991011021008001031061MA1999999100701MD1999999-0041REMSYN070AAXX  26184 83229 32597 61404 10289 20230 30070 40129 81236 333 59004;EQDQ01  00002PRCP99
0167832290999992001032718004-13010-038510FM-12+005199999V0201401N002112200019N0200001N1+03011+02371101141ADDAA199000091GF102991011031008001001061MA1999999100561MD1999999-0141REMSYN070AAXX  27184 83229 32598 21404 10301 20237 30056 40114 81306 333 59014;EQDQ01  00002PRCP99
0198832290999992001032800004-13010-038510FM-12+005199999V0200501N002112200019N9999999N1+02631+02371101201ADDAA199000091GF102991021021008001001001KA1240M+03031MA1999999100611MD1999999-0061REMSYN088AAXX  28004 83229 325// 20504 10263 20237 30061 40120 82200 333 10303 29082 55078 59006;EQDQ01  00002PRCP99
0186832290999992001032812004-13010-038510FM-12+005199999V0200901N000512200019N0200001N1+02871+02281101341ADDAA199000091GF103991031031008001001001KA1240N+02471MA1999999100751MD1999999+0051REMSYN076AAXX  28124 83229 32598 30901 10287 20228 30075 40134 83300 333 20247 58005;EQDQ01  00002PRCP99
0167832290999992001032818004-13010-038510FM-12+005199999V0201401N001512200019N0200001N1+03051+02451101151ADDAA199000091GF102991011031008001031001MA1999999100571MD1999999+0011REMSYN070AAXX  28184 83229 32598 21403 10305 20245 30057 40115 81330 333 58001;EQDQ01  00002PRCP99
0208832290999992001032900004-13010-038510FM-12+005199999V0200501N002612200019N9999999N1+02661+02201101161ADDAA199000091GA1001+999999999GF100991001001999999001001KA1240M+03111MA1999999100571MD1999999-0041REMSYN082AAXX  29004 83229 329// 00505 10266 20220 30057 40116 333 10311 29073 55105 59004;EQDQ01  00002PRCP99
0193832290999992001032912004-13010-038510FM-12+005199999V0201401N002112200019N0200001N1+02911+02341101531ADDAA124000591AY151061GF102991021021008001001001KA1240N+02461MA1999999100941MD1999999+0191MW1021REMSYN088AAXX  29124 83229 21598 21404 10291 20234 30094 40153 7025/ 82200 333 20246 58019 69964;
0167832290999992001032918004-13010-038510FM-12+005199999V0201401N001512200019N0200001N1+02911+02171101351ADDAA199000091GF102991011021008001041001MA1999999100761MD1999999+0191REMSYN070AAXX  29184 83229 32598 21403 10291 20217 30076 40135 81240 333 58019;EQDQ01  00002PRCP99
0198832290999992001033000004-13010-038510FM-12+005199999V0201401N002112200019N9999999N1+02591+02151101481ADDAA199000091GF102991021021008001001001KA1240M+03081MA1999999100881MD1999999+0311REMSYN088AAXX  30004 83229 325// 21404 10259 20215 30088 40148 82200 333 10308 29073 55106 58031;EQDQ01  00002PRCP99
0186832290999992001033012004-13010-038510FM-12+005199999V0201401N001511050019N0200001N1+02861+02371101521ADDAA199000091GF105991021021008001011061KA1240N+02451MA1999999100931MD1999999-0011REMSYN076AAXX  30124 83229 32598 51403 10286 20237 30093 40152 82216 333 20245 59001;EQDQ01  00002PRCP99
0182832290999992001033018004-13010-038510FM-12+005199999V0201401N002111050019N0100001N1+02741+02471101281ADDAA106001091AY151061AY211061GF105991021031008001041061MA1999999100691MD1999999-0071MW1031REMSYN082AAXX  30184 83229 21597 51404 10274 20247 30069 40128 70351 82346 333 59007 60011;
0198832290999992001033100004-13010-038510FM-12+005199999V0200901N001512200019N9999999N1+02561+02361101411ADDAA199000091GF102991021021008001001001KA1240M+03031MA1999999100811MD1999999-0071REMSYN088AAXX  31004 83229 325// 20903 10256 20236 30081 40141 82200 333 10303 29084 55051 59007;EQDQ01  00002PRCP99
0201832290999992001033112004-13010-038510FM-12+005199999V0201401N003112200019N0200001N1+02871+02391101361ADDAA124002091AY151061AY201061GF104991041051004501051001KA1240N+02341MA1999999100771MD1999999-0161MW1021REMSYN088AAXX  31124 83229 21498 41406 10287 20239 30077 40136 70250 84550 333 20234 59016 60024;
0167832290999992001033118004-13010-038510FM-12+005199999V0201401N003110450019N0200001N1+03001+02341101261ADDAA199000091GF105991021051004501031001MA1999999100671MD1999999-0021REMSYN070AAXX  31184 83229 32498 51406 10300 20234 30067 40126 82530 333 59002;EQDQ01  00002PRCP99
0208832290999992001040100004-13010-038510FM-12+005199999V0201401N003612200019N9999999N1+02641+02181101331ADDAA199000091GA1001+999999999GF100991001001999999001001KA1240M+03111MA1999999100731MD1999999-0081REMSYN082AAXX  01004 83229 329// 01407 10264 20218 30073 40133 333 10311 29074 55099 59008;EQDQ01  00002PRCP99
0201832290999992001040112004-13010-038510FM-12+005199999V0201801N000512200019N0040001N1+02801+02311101391ADDAA124002091AY151061AY201061GF102991021051004501001001KA1240N+02341MA1999999100801MD1999999+0031MW1031REMSYN088AAXX  01124 83229 21496 21801 10280 20231 30080 40139 70350 82500 333 20234 58003 60024;
0182832290999992001040118004-13010-038510FM-12+005199999V0201801N002112200019N0200001N1+02831+02441101341ADDAA106001091AY151061AY251061GF104991021041004501021011MA1999999100751MD1999999+0081MW1021REMSYN082AAXX  01184 83229 21498 41804 10283 20244 30075 40134 70255 82421 333 58008 60011;
0208832290999992001040200004-13010-038510FM-12+005199999V0200501N000512200019N9999999N1+02541+02271101321ADDAA199000091GA1001+999999999GF100991001001999999001001KA1240M+02961MA1999999100721MD1999999-0011REMSYN082AAXX  02004 83229 329// 00501 10254 20227 30072 40132 333 10296 29081 55097 59001;EQDQ01  00002PRCP99
0201832290999992001040212004-13010-038510FM-12+005199999V0200901N000510042019N0020001N1+02591+02351101501ADDAA124007191AY151061AY201061GF107991071071004501001001KA1240N+02401MA1999999100901MD1999999+0101MW1601REMSYN088AAXX  02124 83229 21495 70901 10259 20235 30090 40150 76050 87700 333 20240 58010 60074;
0148832290999992001040218004-13010-038510FM-12+005199999V0201401N001010450019N0040001N1+02741+02431101391ADDAA199000021GF107991031051004501071061MA1999999100801MD1999999+0051REMSYN070AAXX  02184 83229 32496 71402 10274 20243 30080 40139 83576 333 58005;
0179832290999992001040300004-13010-038510FM-12+005199999V0200901N001512200019N9999999N1+02571+02271101481ADDAA199000021GF101991001001999999001061KA1240M+02871MA1999999100881MD1999999+0161REMSYN088AAXX  03004 83229 329// 10903 10257 20227 30088 40148 80006 333 10287 29084 55031 58016;
0201832290999992001040312004-13010-038510FM-12+005199999V0200901N001012200019N0100001N1+02831+02521101461ADDAA124000891AY151061AY201061GF103991031051004501001001KA1240N+02561MA1999999100871MD1999999-0031MW1031REMSYN088AAXX  03124 83229 21497 30902 10283 20252 30087 40146 70350 83500 333 20256 59003 69974;
0167832290999992001040318004-13010-038510FM-12+005199999V0201401N001512200019N0200001N1+02951+02471101301ADDAA199000091GF103991021011008001031001MA1999999100711MD1999999-0091REMSYN070AAXX  03184 83229 32598 31403 10295 20247 30071 40130 82130 333 59009;EQDQ01  00002PRCP99
0198832290999992001040400004-13010-038510FM-12+005199999V0201401N002612200019N9999999N1+02621+02291101401ADDAA199000091GF102991021021008001001001KA1240M+03051MA1999999100801MD1999999-0081REMSYN088AAXX  04004 83229 325// 21405 10262 20229 30080 40140 82200 333 10305 29081 55100 59008;EQDQ01  00002PRCP99
0193832290999992001040412004-13010-038510FM-12+005199999V0200501N001510450019N0040001N1+02761+02481101501ADDAA124000391AY151061GF106991041031008001061001KA1240N+02491MA1999999100911MD1999999+0041MW1201REMSYN088AAXX  04124 83229 21596 60503 10276 20248 30091 40150 7205/ 84360 333 20249 58004 69934;
0148832290999992001040418004-13010-038510FM-12+005199999V0201401N001512200019N0200001N1+02991+02331101201ADDAA199000021GF103991021021008001001041MA1999999100621MD1999999-0091REMSYN070AAXX  04184 83229 32598 31403 10299 20233 30062 40120 82204 333 59009;
0179832290999992001040500004-13010-038510FM-12+005199999V0201401N002112200019N9999999N1+02611+02271101451ADDAA199000021GF101991011021008001001001KA1240M+03051MA1999999100851MD1999999+0051REMSYN088AAXX  05004 83229 325// 11404 10261 20227 30085 40145 81200 333 10305 29079 55088 58005;
0186832290999992001040512004-13010-038510FM-12+005199999V0200501N001510450019N0100001N1+02771+02231101601ADDAA199000091GF106991031031008001061041KA1240N+02371MA1999999101011MD1999999+0101REMSYN076AAXX  05124 83229 32597 60503 10277 20223 30101 40160 83364 333 20237 58010;EQDQ01  00002PRCP99
0167832290999992001040518004-13010-038510FM-12+005199999V0201401N002112200019N0100001N1+02951+02291101351ADDAA199000091GF102991021021008001001051MA1999999100761MD1999999+0141REMSYN070AAXX  05184 83229 32597 21404 10295 20229 30076 40135 82205 333 58014;EQDQ01  00002PRCP99
0198832290999992001040600004-13010-038510FM-12+005199999V0201401N002612200019N9999999N1+02681+02261101581ADDAA199000091GF102991021021008001001001KA1240M+03001MA1999999100991MD1999999+0141REMSYN088AAXX  06004 83229 325// 21405 10268 20226 30099 40158 82200 333 10300 29074 55091 58014;EQDQ01  00002PRCP99
0201832290999992001040612004-13010-038510FM-12+005199999V0201401N004110450019N0040001N1+02791+02401101611ADDAA124004191AY161061AY201061GF107991021051004501071061KA1240N+02421MA1999999101021MD1999999+0011MW1031REMSYN088AAXX  06124 83229 21496 71408 10279 20240 30102 40161 70360 82576 333 20242 58001 60044;
0154832290999992001040618004-13010-038510FM-12+005199999V0200901N003112200019N0100001N1+02831+02381101481ADDAA106000791GF103991031041004501001001MA1999999100891MD1999999+0131REMSYN076AAXX  06184 83229 22497 30906 10283 20238 30089 40148 83400 333 58013 69901;
0193832290999992001040712004-13010-038510FM-12+005199999V0200501N001510450019N0100001N1+02531+02251101771ADDAA124000191AY111061GF106991031081008001021061KA1240N+02511MA1999999101171MD1999999+0151MW1201REMSYN088AAXX  07124 83229 21597 60503 10253 20225 30117 40177 7201/ 83826 333 20251 58015 69914;
0148832290999992001040718004-13010-038510FM-12+005199999V0201401N002112200019N0200001N1+03001+02051101421ADDAA199000021GF102991011021008001041061MA1999999100831MD1999999-0061REMSYN070AAXX  07184 83229 32598 21404 10300 20205 30083 40142 81246 333 59006;
0178832290999992001040800004-13010-038510FM-12+005199999V0201401N003112200019N9999999N1+02621+02231101611ADDAA199000021GF102991021021008001001001KA1240M+03051MA1999999101011MD1999999+0031REMSYN087AAXX  08004 83229 325// 21406 10262 20223 30101 40161 82200 333 10305 29075 5508158003;
0193832290999992001040812004-13010-038510FM-12+005199999V0201401N001511050019N0100001N1+02931+02291101551ADDAA124000591AY151061GF105991021021008001061061KA1240N+02441MA1999999100961MD1999999-0211MW1031REMSYN088AAXX  08124 83229 21597 51403 10293 20229 30096 40155 7035/ 82266 333 20244 59021 69944;
0167832290999992001040818004-13010-038510FM-12+005199999V0201401N002112200019N0200001N1+02981+02231101241ADDAA199000091GF103991011021012501041041MA1999999100651MD1999999-0181REMSYN070AAXX  08184 83229 32698 31404 10298 20223 30065 40124 81244 333 59018;EQDQ01  00002PRCP99
0198832290999992001040900004-13010-038510FM-12+005199999V0201401N003112200019N9999999N1+02621+02211101431ADDAA199000091GF102991011021008001041041KA1240M+03001MA1999999100831MD1999999-0181REMSYN088AAXX  09004 83229 325// 21406 10262 20221 30083 40143 81244 333 10300 29072 55088 59018;EQDQ01  00002PRCP99
0186832290999992001040912004-13010-038510FM-12+005199999V0201401N002611050019N0100001N1+02891+02301101331ADDAA199000091GF105991041051004501001021KA1240N+02501MA1999999100741MD1999999-0221REMSYN076AAXX  09124 83229 32497 51405 10289 20230 30074 40133 84502 333 20250 59022;EQDQ01  00002PRCP99
0167832290999992001040918004-13010-038510FM-12+005199999V0200901N001512200019N0100001N1+02991+02221101101ADDAA199000091GF103991011011017501001021MA1999999100511MD1999999-0141REMSYN070AAXX  09184 83229 32797 30903 10299 20222 30051 40110 81102 333 59014;EQDQ01  00002PRCP99
0198832290999992001041000004-13010-038510FM-12+005199999V0201401N003112200019N9999999N1+02591+02121101281ADDAA199000091GF103991031051008001001001KA1240M+03061MA1999999100681MD1999999-0151REMSYN088AAXX  10004 83229 325// 31406 10259 20212 30068 40128 83500 333 10306 29071 55099 59015;EQDQ01  00002PRCP99
0186832290999992001041012004-13010-038510FM-12+005199999V0201401N002112200019N0200001N1+02911+02251101411ADDAA199000091GF102991021021008001001001KA1240N+02441MA1999999100821MD1999999+0081REMSYN076AAXX  10124 83229 32598 21404 10291 20225 30082 40141 82200 333 20244 58008;EQDQ01  00002PRCP99
0167832290999992001041018004-13010-038510FM-12+005199999V0201401N001512200019N0200001N1+02931+02171101181ADDAA199000091GF102991011021008001001051MA1999999100601MD1999999+0091REMSYN070AAXX  10184 83229 32598 21403 10293 20217 30060 40118 81205 333 58009;EQDQ01  00002PRCP99
0198832290999992001041100004-13010-038510FM-12+005199999V0201401N002112200019N9999999N1+02581+02211101421ADDAA199000091GF101991011021008001001001KA1240M+03051MA1999999100821MD1999999+0141REMSYN088AAXX  11004 83229 325// 11404 10258 20221 30082 40142 81200 333 10305 29073 55103 58014;EQDQ01  00002PRCP99
0201832290999992001041112004-13010-038510FM-12+005199999V0200501N001512200019N0100001N1+02791+02361101421ADDAA124000191AY151061AY221061GF104991021021008001021001KA1240N+02431MA1999999100831MD1999999+0011MW1021REMSYN088AAXX  11124 83229 21597 40503 10279 20236 30083 40142 70252 82220 333 20243 58001 69914;
0167832290999992001041118004-13010-038510FM-12+005199999V0201401N001512200019N0200001N1+02951+02141101331ADDAA199000091GF101991011021008001001001MA1999999100741MD1999999+0141REMSYN070AAXX  11184 83229 32598 11403 10295 20214 30074 40133 81200 333 58014;EQDQ01  00002PRCP99
0208832290999992001041200004-13010-038510FM-12+005199999V0200901N001012200019N9999999N1+02541+02171101341ADDAA199000091GA1001+999999999GF100991001001999999001001KA1240M+03101MA1999999100741MD1999999-0081REMSYN082AAXX  12004 83229 329// 00902 10254 20217 30074 40134 333 10310 29075 55068 59008;EQDQ01  00002PRCP99
0186832290999992001041212004-13010-038510FM-12+005199999V0201801N002112200019N0200001N1+02891+02371101371ADDAA199000091GF103991021051008001001011KA1240N+02421MA1999999100781MD1999999-0051REMSYN076AAXX  12124 83229 32598 31804 10289 20237 30078 40137 82501 333 20242 59005;EQDQ01  00002PRCP99
0167832290999992001041218004-13010-038510FM-12+005199999V0201801N002612200019N0200001N1+02891+02101101311ADDAA199000091GF101991011021008001001001MA1999999100721MD1999999-0021REMSYN070AAXX  12184 83229 32598 11805 10289 20210 30072 40131 81200 333 59002;EQDQ01  00002PRCP99
0198832290999992001041300004-13010-038510FM-12+005199999V0200901N001512200019N9999999N1+02581+02191101331ADDAA199000091GF103991031021008001001001KA1240M+03041MA1999999100731MD1999999-0011REMSYN088AAXX  13004 83229 325// 30903 10258 20219 30073 40133 83200 333 10304 29074 55102 59001;EQDQ01  00002PRCP99
0186832290999992001041312004-13010-038510FM-12+005199999V0201401N001512200019N0200001N1+02941+02261101341ADDAA199000091GF102991021021008001001001KA1240N+02521MA1999999100751MD1999999-0031REMSYN076AAXX  13124 83229 32598 21403 10294 20226 30075 40134 82200 333 20252 59003;EQDQ01  00002PRCP99
0167832290999992001041318004-13010-038510FM-12+005199999V0201401N002112200019N0200001N1+02931+02221101191ADDAA199000091GF103991031021008001001001MA1999999100611MD1999999-0111REMSYN070AAXX  13184 83229 32598 31404 10293 20222 30061 40119 83200 333 59011;EQDQ01  00002PRCP99
0214832290999992001041400004-13010-038510FM-12+005199999V0201401N002612200019N9999999N1+02601+02171101271ADDAA199000091GF103991999021008001001001KA1240M+03081MA1999999100671MD1999999-0061REMSYN088AAXX  14004 83229 325// 31405 10260 20217 30067 40127 82200 333 10308 29072 55102 59006;EQDQ01+000022SCOTLCQ02  00002PRCP99
0201832290999992001041412004-13010-038510FM-12+005199999V0200901N002610042019N0020001N1+02421+02281101361ADDAA124020191AY161061AY201061GF108991081071004501999999KA1240N+02301MA1999999100761MD1999999+0011MW1621REMSYN088AAXX  14124 83229 21495 80905 10242 20228 30076 40136 76260 887// 333 20230 58001 60204;
0182832290999992001041418004-13010-038510FM-12+005199999V0201801N001510042019N0040001N1+02551+02311101261ADDAA106005191AY161061AY261061GF108991081071004501999999MA1999999100661MD1999999+0051MW1031REMSYN082AAXX  14184 83229 21496 81803 10255 20231 30066 40126 70366 887// 333 58005 60051;
0201832290999992001041512004-13010-038510FM-12+005199999V0202301N000510042019N0020001N1+02531+02431101531ADDAA124015091AY161061AY261061GF108991071071004501071999KA1240N+02381MA1999999100931MD1999999+0171MW1031REMSYN088AAXX  15124 83229 21495 82301 10253 20243 30093 40153 70366 8777/ 333 20238 58017 60154;
0182832290999992001041518004-13010-038510FM-12+005199999V0201401N002110450019N0040001N1+02741+02341101381ADDAA106003091AY161061AY261061GF107991021051004501071001MA1999999100791MD1999999+0131MW1011REMSYN082AAXX  15184 83229 21496 71404 10274 20234 30079 40138 70166 82570 333 58013 60031;
0198832290999992001041600004-13010-038510FM-12+005199999V0201401N002612200019N9999999N1+02551+02291101471ADDAA199000091GF103991031041004501001001KA1240M+02821MA1999999100871MD1999999+0121REMSYN088AAXX  16004 83229 324// 31405 10255 20229 30087 40147 83400 333 10282 29086 55006 58012;EQDQ01  00002PRCP99
0201832290999992001041612004-13010-038510FM-12+005199999V0203601N001510450019N0100001N1+02791+02441101611ADDAA124005191AY161061AY251061GF105991021041008001051001KA1240N+02431MA1999999101021MD1999999+0091MW1031REMSYN088AAXX  16124 83229 21597 53603 10279 20244 30102 40161 70365 82450 333 20243 58009 60054;
0167832290999992001041618004-13010-038510FM-12+005199999V0201401N003110450019N0100001N1+02971+02401101461ADDAA199000091GF105991041051004501031001MA1999999100871MD1999999+0081REMSYN070AAXX  16184 83229 32497 51406 10297 20240 30087 40146 84530 333 58008;EQDQ01  00002PRCP99
0213832290999992001041700004-13010-038510FM-12+005199999V0200501N001010042019N9999999N1+02441+02341101631ADDAA106002091AY161061AY221061GF106991061051004501001001KA1240M+03051MA1999999101031MD1999999+0161MW1031REMSYN100AAXX  17004 83229 214// 60502 10244 20234 30103 40163 70362 86500 333 10305 29085 55084 58016 60021;
0201832290999992001041712004-13010-038510FM-12+005199999V0201401N001012200019N0100001N1+02881+02351101581ADDAA124002091AY151061AY251061GF105991031051004501001081KA1240N+02441MA1999999100991MD1999999-0031MW1011REMSYN088AAXX  17124 83229 21497 51402 10288 20235 30099 40158 70155 83508 333 20244 59003 60024;
0167832290999992001041718004-13010-038510FM-12+005199999V0201401N001512200019N0100001N1+02901+02301101381ADDAA199000091GF105991041051004501001081MA1999999100791MD1999999-0081REMSYN070AAXX  17184 83229 32497 51403 10290 20230 30079 40138 84508 333 59008;EQDQ01  00002PRCP99
0198832290999992001041800004-13010-038510FM-12+005199999V0201401N001012200019N9999999N1+02581+02191101551ADDAA199000091GF102991021021004501001001KA1240M+02961MA1999999100951MD1999999-0081REMSYN088AAXX  18004 83229 324// 21402 10258 20219 30095 40155 82200 333 10296 29075 55074 59008;EQDQ01  00002PRCP99
0186832290999992001041812004-13010-038510FM-12+005199999V0201801N000510450019N0100001N1+02871+02371101381ADDAA199000091GF106991031021008001021001KA1240N+02451MA1999999100731MD1999999-0261REMSYN076AAXX  18124 83229 32597 61801 10287 20237 30073 40138 83220 333 20245 59026;EQDQ01  00002PRCP99
0182832290999992001041818004-13010-038510FM-12+005199999V0201801N001512200019N0020001N1+02781+02381101171ADDAA106007191AY161061AY221061GF106991031021008001001011MA1999999100581MD1999999-0211MW1031REMSYN082AAXX  18184 83229 21595 61803 10278 20238 30058 40117 70362 83201 333 59021 60071;
0214832290999992001041900004-13010-038510FM-12+005199999V0201401N000512200019N9999999N1+02551+02351101351ADDAA199000091GF103991999021004501001001KA1240M+02981MA1999999100751MD1999999-0201REMSYN088AAXX  19004 83229 324// 31401 10255 20235 30075 40135 81200 333 10298 29083 55073 59020;EQDQ01+000012SCOTLCQ02  00002PRCP99
0201832290999992001041912004-13010-038510FM-12+005199999V0201801N000510042019N0020001N1+02541+02361101401ADDAA124010991AY161061AY201061GF108991081071004501999999KA1240N+02471MA1999999100801MD1999999+0071MW1511REMSYN088AAXX  19124 83229 21495 81801 10254 20236 30080 40140 75160 887// 333 20247 58007 60114;
0182832290999992001041918004-13010-038510FM-12+005199999V0201801N001512200019N0200001N1+02881+02501101101ADDAA106000591AY151061AY221061GF103991021021008001001011MA1999999100511MD1999999-0071MW1031REMSYN082AAXX  19184 83229 21598 31803 10288 20250 30051 40110 70352 82201 333 59007 69941;
0179832290999992001042000004-13010-038510FM-12+005199999V0201401N001512200019N9999999N1+02571+02251101271ADDAA199000021GF102991021021004501001001KA1240M+02971MA1999999100671MD1999999-0081REMSYN088AAXX  20004 83229 324// 21403 10257 20225 30067 40127 82200 333 10297 29084 55082 59008;
0201832290999992001042012004-13010-038510FM-12+005199999V0203201N000510042019N0020001N1+02651+02481101441ADDAA124002091AY161061AY251061GF108991081071004501999999KA1240N+02491MA1999999100841MD1999999+0041MW1581REMSYN088AAXX  20124 83229 21495 83201 10265 20248 30084 40144 75865 887// 333 20249 58004 60024;
0182832290999992001042018004-13010-038510FM-12+005199999V0200501N002112200019N0100001N1+02891+02351101191ADDAA106010991AY161061AY261061GF103991001001999999001081MA1999999100611MD1999999+0101MW1021REMSYN082AAXX  20184 83229 21997 30504 10289 20235 30061 40119 70266 80008 333 58010 60111;
0157832290999992001042100004-13010-038510FM-12+005199999V0200501N001012200019N9999999N1+02611+02311102402ADDAA199000021GF103991999999004501999999MA1999999100751MD1810121+9999REMSYN060AAXX  21004 83229 324// 30502 10261 20231 30075 4024/ 58012;EQDQ01+102403APOSLP
0173832290999992001042112004-13010-038510FM-12+005199999V0202301N000510042019N0040001N1+02741+02471101571ADDAA124010991GF106991051051004501001081KA1240N+02471MA1999999100981MD1999999+0141REMSYN082AAXX  21124 83229 22496 62301 10274 20247 30098 40157 85508 333 20247 58014 60114;
0167832290999992001042118004-13010-038510FM-12+005199999V0200501N001510042019N0100001N1+02851+02381101231ADDAA199000091GF106991051031004501031001MA1999999100741MD1999999+0131REMSYN070AAXX  21184 83229 32497 60503 10285 20238 30074 40123 85330 333 58013;EQDQ01  00002PRCP99
0198832290999992001042200004-13010-038510FM-12+005199999V0200501N000512200019N9999999N1+02641+02411101431ADDAA199000091GF103991031021004501001001KA1240M+03031MA1999999100831MD1999999+0081REMSYN088AAXX  22004 83229 324// 30501 10264 20241 30083 40143 83200 333 10303 29084 55042 58008;EQDQ01  00002PRCP99
0186832290999992001042212004-13010-038510FM-12+005199999V0201401N001010042019N0040001N1+02831+02441101471ADDAA199000091GF105991051051004501001001KA1240N+02461MA1999999100881MD1999999-0101REMSYN076AAXX  22124 83229 32496 51402 10283 20244 30088 40147 85500 333 20246 59010;EQDQ01  00002PRCP99
0182832290999992001042218004-13010-038510FM-12+005199999V0200901N002112200019N0100001N1+03021+02481101221ADDAA106000191AY151061AY221061GF103991031041004501001001MA1999999100641MD1999999-0101MW1031REMSYN082AAXX  22184 83229 21497 30904 10302 20248 30064 40122 70352 83400 333 59010 69911;
0198832290999992001042300004-13010-038510FM-12+005199999V0200501N002112200019N9999999N1+02651+02251101391ADDAA199000091GF102991021021004501001001KA1240M+03091MA1999999100801MD1999999-0031REMSYN088AAXX  23004 83229 324// 20504 10265 20225 30080 40139 82200 333 10309 29078 55088 59003;EQDQ01  00002PRCP99
0173832290999992001042312004-13010-038510FM-12+005199999V0201801N000512200019N0100001N1+02831+02331101541ADDAA124000191GF102991021011004501001001KA1240N+02571MA1999999100951MD1999999+0071REMSYN082AAXX  23124 83229 22497 21801 10283 20233 30095 40154 82100 333 20257 58007 69914;
0167832290999992001042318004-13010-038510FM-12+005199999V0201401N003110042019N0040001N1+02971+02261101301ADDAA199000091GF107991071051004501001001MA1999999100711MD1999999+0071REMSYN070AAXX  23184 83229 32496 71406 10297 20226 30071 40130 87500 333 58007;EQDQ01  00002PRCP99
0201832290999992001042412004-13010-038510FM-12+005199999V0201401N001510042019N0040001N1+02641+02421101691ADDAA124014091AY161061AY251061GF106991061051004501001001KA1240N+02351MA1999999101091MD1999999+0141MW1011REMSYN088AAXX  24124 83229 21496 61403 10264 20242 30109 40169 70165 86500 333 20235 58014 60144;
0167832290999992001042418004-13010-038510FM-12+005199999V0200901N002110042019N0040001N1+02781+02381101401ADDAA199000091GF107991071051004501001001MA1999999100811MD1999999+0101REMSYN070AAXX  24184 83229 32496 70904 10278 20238 30081 40140 87500 333 58010;EQDQ01  00002PRCP99
0213832290999992001042500004-13010-038510FM-12+005199999V0200901N001510042019N9999999N1+02541+02381101611ADDAA106001091AY151061AY221061GF107991071071004501001001KA1240M+03041MA1999999101011MD1999999+0111MW1501REMSYN100AAXX  25004 83229 214// 70903 10254 20238 30101 40161 75052 87700 333 10304 29087 5508/ 58011 60011;
0173832290999992001042512004-13010-038510FM-12+005199999V0200901N001512200019N0100001N1+02851+02461101741ADDAA124001091GF104991041021008001001001KA1240N+02421MA1999999101141MD1999999+0051REMSYN082AAXX  25124 83229 22597 40903 10285 20246 30114 40174 84200 333 20242 58005 60014;
0167832290999992001042518004-13010-038510FM-12+005199999V0201401N002110450019N0040001N1+02721+02341101471ADDAA199000091GF106991031051004501071001MA1999999100881MD1999999+0071REMSYN070AAXX  25184 83229 32496 61404 10272 20234 30088 40147 83570 333 58007;EQDQ01  00002PRCP99
0208832290999992001042600004-13010-038510FM-12+005199999V0209999C000012200019N9999999N1+02341+02201101741ADDAA199000091GA1001+999999999GF100991001001999999001001KA1240M+03001MA1999999101141MD1999999+0131REMSYN082AAXX  26004 83229 329// 03600 10234 20220 30114 40174 333 10300 29086 55041 58013;EQDQ01  00002PRCP99
0201832290999992001042612004-13010-038510FM-12+005199999V0201401N003112200019N0100001N1+02811+02291101641ADDAA106001091AY161061AY201061GF103991031041004501001001KA1240N+02301MA1999999101051MD1999999-0091MW1011REMSYN088AAXX  26124 83229 21497 31406 10281 20229 30105 40164 70160 83400 333 20230 59009 60011;
0167832290999992001042618004-13010-038510FM-12+005199999V0201401N002112200019N0200001N1+02911+02221101481ADDAA199000091GF102991021021008001001001MA1999999100891MD1999999+0011REMSYN070AAXX  26184 83229 32598 21404 10291 20222 30089 40148 82200 333 58001;EQDQ01  00002PRCP99
0213832290999992001042700004-13010-038510FM-12+005199999V0201401N001012200019N9999999N1+02521+02211101551ADDAA106000591AY151061AY201061GF103991031021004501001001KA1240M+02991MA1999999100951MD1999999-0191MW1011REMSYN100AAXX  27004 83229 214// 31402 10252 20221 30095 40155 70150 83200 333 10299 29077 55091 59019 69961;
0173832290999992001042712004-13010-038510FM-12+005199999V0201401N002110450019N0100001N1+02731+02211101641ADDAA124000591GF106991041041008001021001KA1240N+02491MA1999999101041MD1999999-0011REMSYN082AAXX  27124 83229 22597 61404 10273 20221 30104 40164 84420 333 20249 59001 69964;
0193832290999992001042812004-13010-038510FM-12+005199999V0201401N002110450019N0200001N1+02791+02271101721ADDAA124003091AY161061GF106991031021008001051001KA1240N+02321MA1999999101131MD1999999+0091MW1031REMSYN088AAXX  28124 83229 21598 61404 10279 20227 30113 40172 7036/ 83250 333 20232 58009 60034;
0167832290999992001042818004-13010-038510FM-12+005199999V0201401N002112200019N0100001N1+02811+02151101511ADDAA199000091GF102991011021008001041001MA1999999100921MD1999999+0041REMSYN070AAXX  28184 83229 32597 21404 10281 20215 30092 40151 81240 333 58004;EQDQ01  00002PRCP99
0198832290999992001042900004-13010-038510FM-12+005199999V0200901N002110450019N9999999N1+02601+02191101671ADDAA199000091GF107991011021008001051001KA1240M+02921MA1999999101071MD1999999+0091REMSYN088AAXX  29004 83229 325// 70904 10260 20219 30107 40167 81250 333 10292 29074 55079 58009;EQDQ01  00002PRCP99
0186832290999992001042912004-13010-038510FM-12+005199999V0201401N002112200019N0200001N1+02771+02211101751ADDAA199000091GF103991021021008001021001KA1240N+02461MA1999999101161MD1999999+0031REMSYN076AAXX  29124 83229 32598 31404 10277 20221 30116 40175 82220 333 20246 58003;EQDQ01  00002PRCP99
0182832290999992001042918004-13010-038510FM-12+005199999V0201401N003112200019N0100001N1+02781+02211101491ADDAA106002091AY161061AY251061GF102991021021008001041001MA1999999100901MD1999999-0021MW1031REMSYN082AAXX  29184 83229 21597 21406 10278 20221 30090 40149 70365 82240 333 59002 60021;
0213832290999992001043000004-13010-038510FM-12+005199999V0201401N003110450019N9999999N1+02641+02271101511ADDAA106000191AY161061AY251061GF105991041041004501031001KA1240M+02961MA1999999100911MD1999999-0161MW1031REMSYN100AAXX  30004 83229 214// 51406 10264 20227 30091 40151 70365 84430 333 10296 29076 55071 59016 69921;
0173832290999992001043012004-13010-038510FM-12+005199999V0201401N002112200019N0100001N1+02851+02381101531ADDAA124003091GF104991041041004501001001KA1240N+02511MA1999999100941MD1999999-0221REMSYN082AAXX  30124 83229 22497 41404 10285 20238 30094 40153 84400 333 20251 59022 60034;
0182832290999992001043018004-13010-038510FM-12+005199999V0201401N002612200019N0040001N1+02681+02391101321ADDAA106000191AY121061AY201061GF104991041051004501001001MA1999999100731MD1999999-0171MW1501REMSYN082AAXX  30184 83229 21496 41405 10268 20239 30073 40132 75020 84500 333 59017 69921;
0179832290999992001050100004-13010-038510FM-12+005199999V0201401N001010042019N9999999N1+02621+02391101391ADDAA199000021GF105991051051004501001001KA1240M+02941MA1999999100791MD1999999-0121REMSYN088AAXX  01004 83229 324// 51402 10262 20239 30079 40139 85500 333 10294 29084 55078 59012;
0201832290999992001050112004-13010-038510FM-12+005199999V0200901N002610042019N0040001N1+02851+02381101481ADDAA124008991AY151061AY251061GF105991051041004501001001KA1240N+02421MA1999999100891MD1999999-0051MW1031REMSYN088AAXX  01124 83229 21496 50905 10285 20238 30089 40148 70355 85400 333 20242 59005 60094;
0182832290999992001050118004-13010-038510FM-12+005199999V0201401N004612200019N0100001N1+02871+02351101371ADDAA106002091AY161061AY251061GF102991021041004501001001MA1999999100781MD1999999+0051MW1011REMSYN082AAXX  01184 83229 21497 21409 10287 20235 30078 40137 70165 82400 333 58005 60021;
0198832290999992001050200004-13010-038510FM-12+005199999V0200901N003112200019N9999999N1+02601+02231101551ADDAA199000091GF102991011021008001001011KA1240M+02981MA1999999100951MD1999999+0161REMSYN088AAXX  02004 83229 325// 20906 10260 20223 30095 40155 81201 333 10298 29078 55080 58016;EQDQ01  00002PRCP99
0201832290999992001050212004-13010-038510FM-12+005199999V0200901N001512200019N0040001N1+02811+02521101651ADDAA124008991AY161061AY221061GF103991031021008001001001KA1240N+02391MA1999999101051MD1999999+0161MW1031REMSYN088AAXX  02124 83229 21596 30903 10281 20252 30105 40165 70362 83200 333 20239 58016 60094;
0182832290999992001050218004-13010-038510FM-12+005199999V0200901N003610042019N0010001N1+02531+02431101491ADDAA106002091AY161061AY201061GF108991081071004501999999MA1999999100891MD1999999+0111MW1621REMSYN082AAXX  02184 83229 21494 80907 10253 20243 30089 40149 76260 887// 333 58011 60021;
0213832290999992001050300004-13010-038510FM-12+005199999V0200501N003610042019N9999999N1+02361+02331101681ADDAA106034091AY191061AY261061GF108991081071004501999999KA1240M+02941MA1999999101081MD1999999+0131MW1631REMSYN100AAXX  03004 83229 214// 80507 10236 20233 30108 40168 76396 887// 333 10294 29094 55056 58013 60341;
0201832290999992001050312004-13010-038510FM-12+005199999V0200901N002112200019N0200001N1+02851+02381101711ADDAA124039191AY161061AY261061GF102991021021008001001001KA1240N+02351MA1999999101121MD1999999+0101MW1031REMSYN088AAXX  03124 83229 21598 20904 10285 20238 30112 40171 70366 82200 333 20235 58010 60394;
0179832290999992001050400004-13010-038510FM-12+005199999V0209999C000012200019N9999999N1+02341+02311999999ADDGF103991999999012501999999KA1240M+02951MA1999999100911MD1999999-0171REMSYN099AAXX  04004 83229 216// 33600 10234 20231 30091 4151 70366 81058 333 10295 29090 55073 59017 60091;
0201832290999992001050412004-13010-038510FM-12+005199999V0200901N003110450019N0200001N1+02761+02281101491ADDAA124010991AY161061AY221061GF106991041051008001031001KA1240N+02331MA1999999100891MD1999999-0231MW1031REMSYN088AAXX  04124 83229 21598 60906 10276 20228 30089 40149 70362 84530 333 20233 59023 60114;
0167832290999992001050418004-13010-038510FM-12+005199999V0200901N001512200019N0100001N1+02891+02381101331ADDAA199000091GF104991021021008001021001MA1999999100741MD1999999-0071REMSYN070AAXX  04184 83229 32597 40903 10289 20238 30074 40133 82220 333 59007;EQDQ01  00002PRCP99
0198832290999992001050500004-13010-038510FM-12+005199999V0200501N001011050019N9999999N1+02551+02251101361ADDAA199000091GF106991011021008001051061KA1240M+03021MA1999999100761MD1999999-0151REMSYN088AAXX  05004 83229 325// 60502 10255 20225 30076 40136 81256 333 10302 29078 55086 59015;EQDQ01  00002PRCP99
0186832290999992001050512004-13010-038510FM-12+005199999V0209999C000012200019N0200001N1+02741+02341101451ADDAA199000091GF102991021021008001001051KA1240N+02341MA1999999100861MD1999999-0031REMSYN076AAXX  05124 83229 32598 23200 10274 20234 30086 40145 82205 333 20234 59003;EQDQ01  00002PRCP99
0182832290999992001050518004-13010-038510FM-12+005199999V0200501N001012200019N0200001N1+02881+02351101081ADDAA106000191AY151061AY201061GF102991021021008001001001MA1999999100501MD1999999-0241MW1031REMSYN082AAXX  05184 83229 21598 20502 10288 20235 30050 40108 70350 82200 333 59024 69911;
0208832290999992001050600004-13010-038510FM-12+005199999V0200501N002112200019N9999999N1+02511+02251101261ADDAA199000091GA1001+999999999GF100991001001999999001001KA1240M+02931MA1999999100661MD1999999-0101REMSYN082AAXX  06004 83229 329// 00504 10251 20225 30066 40126 333 10293 29081 55069 59010;EQDQ01  00002PRCP99
0173832290999992001050612004-13010-038510FM-12+005199999V0203201N001512200019N0200001N1+02761+02421101391ADDAA124000191GF102991011021008001061001KA1240N+02401MA1999999100801MD1999999-0061REMSYN082AAXX  06124 83229 22598 23203 10276 20242 30080 40139 81260 333 20240 59006 69914;
0167832290999992001050618004-13010-038510FM-12+005199999V0200901N002112200019N0200001N1+03031+02461101031ADDAA199000091GF101991011021008001001001MA1999999100451MD1999999-0051REMSYN070AAXX  06184 83229 32598 10904 10303 20246 30045 40103 81200 333 59005;EQDQ01  00002PRCP99
0208832290999992001050700004-13010-038510FM-12+005199999V0200501N002112200019N9999999N1+02611+02371101251ADDAA199000091GA1001+999999999GF100991001001999999001001KA1240M+03051MA1999999100651MD1999999-0011REMSYN082AAXX  07004 83229 329// 00504 10261 20237 30065 40125 333 10305 29082 55091 59001;EQDQ01  00002PRCP99
0202832290999992001050712004-13010-038510FM-12+005199999V0203601N001012200019N0040001N1+02731+02431101321ADDAA199000091GF104991999031004501001001KA1240N+02421MA1999999100721MD1999999-0081REMSYN076AAXX  07124 83229 32496 43602 10273 20243 30072 40132 83300 333 20242 59008;EQDQ01+000032SCOTLCQ02  00002PRCP99
0167832290999992001050718004-13010-038510FM-12+005199999V0200901N001512200019N0100001N1+02891+02461101121ADDAA199000091GF102991021091004501001001MA1999999100531MD1999999+0081REMSYN070AAXX  07184 83229 32497 20903 10289 20246 30053 40112 82900 333 58008;EQDQ01  00002PRCP99
0198832290999992001050800004-13010-038510FM-12+005199999V0200501N001012200019N9999999N1+02621+02411101141ADDAA199000091GF103991031021008001001001KA1240M+02991MA1999999100551MD1999999-0101REMSYN088AAXX  08004 83229 325// 30502 10262 20241 30055 40114 83200 333 10299 29084 55071 59010;EQDQ01  00002PRCP99
0186832290999992001050812004-13010-038510FM-12+005199999V0202701N002112200019N0100001N1+02771+02481101361ADDAA199000091GF103991011021008001031001KA1240N+02461MA1999999100761MD1999999+0041REMSYN076AAXX  08124 83229 32597 32704 10277 20248 30076 40136 81230 333 20246 58004;EQDQ01  00002PRCP99
0167832290999992001050818004-13010-038510FM-12+005199999V0201401N002112200019N0100001N1+02891+02461101051ADDAA199000091GF101991001001999999001061MA1999999100471MD1999999-0061REMSYN070AAXX  08184 83229 32997 11404 10289 20246 30047 40105 80006 333 59006;EQDQ01  00002PRCP99
0198832290999992001050900004-13010-038510FM-12+005199999V0200901N001510075019N9999999N1+02621+02461101211ADDAA199000091GF105991051041008001001001KA1240M+03061MA1999999100621MD1999999+0071REMSYN088AAXX  09004 83229 325// 50903 10262 20246 30062 40121 85400 333 10306 29086 55076 58007;EQDQ01  00002PRCP99
0186832290999992001050912004-13010-038510FM-12+005199999V0201401N001512200019N0040001N1+02851+02521101301ADDAA199000091GF105991041051008001001081KA1240N+02541MA1999999100711MD1999999-0051REMSYN076AAXX  09124 83229 32596 51403 10285 20252 30071 40130 84508 333 20254 59005;EQDQ01  00002PRCP99
0167832290999992001050918004-13010-038510FM-12+005199999V0201401N001512200019N0100001N1+02851+02481101031ADDAA199000091GF104991011021008001001081MA1999999100451MD1999999-0021REMSYN070AAXX  09184 83229 32597 41403 10285 20248 30045 40103 81208 333 59002;EQDQ01  00002PRCP99
0198832290999992001051000004-13010-038510FM-12+005199999V0200901N001012200019N9999999N1+02641+02441101111ADDAA199000091GF104991021041008001001081KA1240M+02981MA1999999100521MD1999999-0101REMSYN088AAXX  10004 83229 325// 40902 10264 20244 30052 40111 82408 333 10298 29086 55078 59010;EQDQ01  00002PRCP99
0193832290999992001051012004-13010-038510FM-12+005199999V0203601N002112200019N0040001N1+02801+02421101291ADDAA124000791AY101061GF102991011031008001041061KA1240N+02481MA1999999100701MD1999999-0011MW1031REMSYN088AAXX  10124 83229 21596 23604 10280 20242 30070 40129 7030/ 81346 333 20248 59001 69904;
0167832290999992001051018004-13010-038510FM-12+005199999V0201401N002112200019N0100001N1+02951+02471101061ADDAA199000091GF103991001001999999001061MA1999999100481MD1999999+0031REMSYN070AAXX  10184 83229 32997 31404 10295 20247 30048 40106 80006 333 58003;EQDQ01  00002PRCP99
0198832290999992001051100004-13010-038510FM-12+005199999V0200501N001512200019N9999999N1+02641+02461101221ADDAA199000091GF102991011021008001001041KA1240M+03041MA1999999100631MD1999999+0111REMSYN088AAXX  11004 83229 325// 20503 10264 20246 30063 40122 81204 333 10304 29084 55060 58011;EQDQ01  00002PRCP99
0186832290999992001051112004-13010-038510FM-12+005199999V0203201N001011050019N0100001N1+02771+02481101441ADDAA199000091GF106991021021008001041041KA1240N+02541MA1999999100851MD1999999+0151REMSYN076AAXX  11124 83229 32597 63202 10277 20248 30085 40144 82244 333 20254 58015;EQDQ01  00002PRCP99
0167832290999992001051118004-13010-038510FM-12+005199999V0201401N001512200019N0200001N1+03031+02501101141ADDAA199000091GF102991011021008001041001MA1999999100561MD1999999+0081REMSYN070AAXX  11184 83229 32598 21403 10303 20250 30056 40114 81240 333 58008;EQDQ01  00002PRCP99
0208832290999992001051200004-13010-038510FM-12+005199999V0200501N002112200019N9999999N1+02621+02421101321ADDAA199000091GA1001+999999999GF100991001001999999001001KA1240M+03081MA1999999100721MD1999999+0091REMSYN082AAXX  12004 83229 329// 00504 10262 20242 30072 40132 333 10308 29084 55061 58009;EQDQ01  00002PRCP99
0186832290999992001051212004-13010-038510FM-12+005199999V0203601N001510042019N0040001N1+02691+02391101431ADDAA199000091GF106991061051004501001001KA1240N+02461MA1999999100841MD1999999-0011REMSYN076AAXX  12124 83229 32496 63603 10269 20239 30084 40143 86500 333 20246 59001;EQDQ01  00002PRCP99
0177832290999992001051218004-13010-038510FM-12+005199999V0200501N002612200019N0200001N1+02971+02421101251ADDAA199000091GA1001+999999999GF100991001001999999001001MA1999999100661MD1999999+0101REMSYN064AAXX  12184 83229 32998 00505 10297 20242 30066 40125 333 58010;EQDQ01  00002PRCP99
0208832290999992001051300004-13010-038510FM-12+005199999V0200501N002612200019N9999999N1+02581+02311101471ADDAA199000091GA1001+999999999GF100991001001999999001001KA1240M+03081MA1999999100871MD1999999+0151REMSYN082AAXX  13004 83229 329// 00505 10258 20231 30087 40147 333 10308 29082 55071 58015;EQDQ01  00002PRCP99
0186832290999992001051312004-13010-038510FM-12+005199999V0203201N001510042019N0040001N1+02751+02401101631ADDAA199000091GF106991061051004501001001KA1240N+02401MA1999999101041MD1999999+0201REMSYN076AAXX  13124 83229 32496 63203 10275 20240 30104 40163 86500 333 20240 58020;EQDQ01  00002PRCP99
0208832290999992001051400004-13010-038510FM-12+005199999V0200501N000512200019N9999999N1+02591+02371101491ADDAA199000091GA1001+999999999GF100991001001999999001001KA1240M+02941MA1999999100891MD1999999+0021REMSYN082AAXX  14004 83229 329// 00501 10259 20237 30089 40149 333 10294 29082 55063 58002;EQDQ01  00002PRCP99
0186832290999992001051412004-13010-038510FM-12+005199999V0200501N001010075019N0040001N1+02851+02501101571ADDAA199000091GF106991061051008001001001KA1240N+02451MA1999999100981MD1999999-0061REMSYN076AAXX  14124 83229 32596 60502 10285 20250 30098 40157 86500 333 20245 59006;EQDQ01  00002PRCP99
0177832290999992001051418004-13010-038510FM-12+005199999V0200501N001512200019N0200001N1+03051+02431101321ADDAA199000091GA1001+999999999GF100991001001999999001001MA1999999100741MD1999999-0011REMSYN064AAXX  14184 83229 32998 00503 10305 20243 30074 40132 333 59001;EQDQ01  00002PRCP99
0208832290999992001051500004-13010-038510FM-12+005199999V0200501N001012200019N9999999N1+02601+02311101461ADDAA199000091GA1001+999999999GF100991001001999999001001KA1240M+03051MA1999999100861MD1999999-0031REMSYN082AAXX  15004 83229 329// 00502 10260 20231 30086 40146 333 10305 29080 55062 59003;EQDQ01  00002PRCP99
0201832290999992001051512004-13010-038510FM-12+005199999V0201401N002112200019N0100001N1+02741+02261101591ADDAA124003091AY161061AY221061GF103991021041008001031001KA1240N+02391MA1999999101001MD1999999+0021MW1031REMSYN088AAXX  15124 83229 21597 31404 10274 20226 30100 40159 70362 82430 333 20239 58002 60034;
0198832290999992001051600004-13020-038520FM-12+005199999V0201401N003110042019N9999999N1+02621+02351101431ADDAA199000091GF106991061051004501001001KA1240M+02941MA1999999100831MD1999999-0031REMSYN088AAXX  16004 83229 324// 61406 10262 20235 30083 40143 86500 333 10294 29081 55062 59003;EQDQ01  00002PRCP99
0201832290999992001051612004-13020-038520FM-12+005199999V0200901N002612200019N0100001N1+02841+02441101571ADDAA124007991AY161061AY251061GF102991021021008001041001KA1240N+02441MA1999999100981MD1999999-0021MW1031REMSYN088AAXX  16124 83229 21597 20905 10284 20244 30098 40157 70365 82240 333 20244 59002 60084;
0213832290999992001051700004-13010-038510FM-12+005199999V0200501N001012200019N9999999N1+02561+02361101471ADDAA106000191AY151061AY201061GF101991011021008001001001KA1240M+03001MA1999999100871MD1999999+0041MW1031REMSYN100AAXX  17004 83229 215// 10502 10256 20236 30087 40147 70350 81200 333 10300 29083 55085 58004 69921;
0201832290999992001051712004-13010-038510FM-12+005199999V0202701N000512200019N0200001N1+02661+02461101641ADDAA124002091AY151061AY211061GF102991021021008001041001KA1240N+02381MA1999999101051MD1999999+0071MW1031REMSYN088AAXX  17124 83229 21598 22701 10266 20246 30105 40164 70351 82240 333 20238 58007 60024;
0167832290999992001051718004-13010-038510FM-12+005199999V0201401N001512200019N0200001N1+02811+02461101381ADDAA199000091GF102991011021012501001011MA1999999100791MD1999999+0081REMSYN070AAXX  17184 83229 32698 21403 10281 20246 30079 40138 81201 333 58008;EQDQ01  00002PRCP99
0198832290999992001051800004-13010-038510FM-12+005199999V0200501N001512200019N9999999N1+02561+02361101561ADDAA199000091GF101991011021012501001001KA1240M+02881MA1999999100961MD1999999+0091REMSYN088AAXX  18004 83229 326// 10503 10256 20236 30096 40156 81200 333 10288 29087 55063 58009;EQDQ01  00002PRCP99
0186832290999992001051812004-13010-038510FM-12+005199999V0203601N001512200019N0100001N1+02731+02381101631ADDAA199000091GF102991021021008001001001KA1240N+02411MA1999999101031MD1999999-0021REMSYN076AAXX  18124 83229 32597 23603 10273 20238 30103 40163 82200 333 20241 59002;EQDQ01  00002PRCP99
0177832290999992001051818004-13010-038510FM-12+005199999V0200501N001512200019N0200001N1+02971+02311101301ADDAA199000091GA1001+999999999GF100991001001999999001001MA1999999100711MD1999999-0081REMSYN064AAXX  18184 83229 32998 00503 10297 20231 30071 40130 333 59008;EQDQ01  00002PRCP99
0196832290999992001051900004-13010-038510FM-12+005199999V0200501N002612200019N9999999N1+02571+02331101411ADDAA199000091GA1001+999999999GF100991001001999999001001KA1240M+03001MA1999999100811MD1999999-0151REMSYN070AAXX  19004 83229 329// 00505 10257 20233 30081 40141 333 10300 59015;EQDQ01  00002PRCP99
0186832290999992001051912004-13010-038510FM-12+005199999V0203601N002112200019N0100001N1+02761+02401101501ADDAA199000091GF103991031041008001001001KA1240N+02421MA1999999100911MD1999999-0121REMSYN076AAXX  19124 83229 32597 33604 10276 20240 30091 40150 83400 333 20242 59012;EQDQ01  00002PRCP99
0167832290999992001051918004-13010-038510FM-12+005199999V0200901N002112200019N0100001N1+02871+02441101241ADDAA199000091GF101991001001999999001061MA1999999100651MD1999999-0061REMSYN070AAXX  19184 83229 32997 10904 10287 20244 30065 40124 80006 333 59006;EQDQ01  00002PRCP99
0198832290999992001052000004-13010-038510FM-12+005199999V0200901N002112200019N9999999N1+02571+02381101491ADDAA199000091GF103991031041008001001001KA1240M+03121MA1999999100891MD1999999+0081REMSYN088AAXX  20004 83229 325// 30904 10257 20238 30089 40149 83400 333 10312 29085 55083 58008;EQDQ01  00002PRCP99
0186832290999992001052012004-13010-038510FM-12+005199999V0201401N003612200019N0100001N1+02741+02121101611ADDAA199000091GF102991011021008001001011KA1240N+02601MA1999999101021MD1999999+0111REMSYN076AAXX  20124 83229 32597 21407 10274 20212 30102 40161 81201 333 20260 58011;EQDQ01  00002PRCP99
0167832290999992001052018004-13010-038510FM-12+005199999V0201801N003610075019N0100001N1+02731+02191101461ADDAA199000091GF106991061051008001001001MA1999999100871MD1999999+0221REMSYN070AAXX  20184 83229 32597 61807 10273 20219 30087 40146 86500 333 58022;EQDQ01  00002PRCP99
0198832290999992001052100004-13010-038510FM-12+005199999V0201801N003612200019N9999999N1+02581+02121101541ADDAA199000091GF101991011021008001001001KA1240M+02821MA1999999100941MD1999999+0051REMSYN088AAXX  21004 83229 325// 11807 10258 20212 30094 40154 81200 333 10282 29074 55065 58005;EQDQ01  00002PRCP99
0201832290999992001052112004-13010-038510FM-12+005199999V0201801N002110042019N0040001N1+02411+02151101651ADDAA124000591AY151061AY221061GF107991071051004501001001KA1240N+02361MA1999999101051MD1999999+0031MW1031REMSYN088AAXX  21124 83229 21496 71804 10241 20215 30105 40165 70352 87500 333 20236 58003 69954;
0182832290999992001052118004-13010-038510FM-12+005199999V0201801N002110042019N0020001N1+02451+02301101441ADDAA106004191AY161061AY251061GF108991081071004501999999MA1999999100841MD1999999-0031MW1031REMSYN082AAXX  21184 83229 21495 81804 10245 20230 30084 40144 70365 887// 333 59003 60041;
0213832290999992001052200004-13010-038510FM-12+005199999V0201401N002610042019N9999999N1+02391+02111101521ADDAA106025991AY161061AY261061GF107991071071004501001001KA1240M+02651MA1999999100921MD1999999-0021MW1031REMSYN100AAXX  22004 83229 214// 71405 10239 20211 30092 40152 70366 87700 333 10265 29087 55020 59002 60261;
0201832290999992001052212004-13010-038510FM-12+005199999V0201401N002112200019N0100001N1+02641+02031101701ADDAA124033091AY161061AY251061GF103991021021008001041001KA1240N+02221MA1999999101101MD1999999+0051MW1031REMSYN088AAXX  22124 83229 21597 31404 10264 20203 30110 40170 70365 82240 333 20222 58005 60334;
0182832290999992001052218004-13010-038510FM-12+005199999V0200501N001510450019N0200001N1+02421+02151101421ADDAA106003091AY161061AY251061GF106991041081008001021001MA1999999100821MD1999999-0021MW1031REMSYN082AAXX  22184 83229 21598 60503 10242 20215 30082 40142 70365 84820 333 59002 60031;
0198832290999992001052300004-13010-038510FM-12+005199999V0200901N002112200019N9999999N1+02381+01991101541ADDAA199000091GF101991011021012501001001KA1240M+02761MA1999999100941MD1999999+0021REMSYN088AAXX  23004 83229 326// 10904 10238 20199 30094 40154 81200 333 10276 29078 55030 58002;EQDQ01  00002PRCP99
0173832290999992001052312004-13010-038510FM-12+005199999V0201401N000512200019N0200001N1+02731+02121101631ADDAA124003091GF101991011021008001001001KA1240N+02341MA1999999101041MD1999999-0061REMSYN082AAXX  23124 83229 22598 11401 10273 20212 30104 40163 81200 333 20234 59006 60034;
0167832290999992001052318004-13010-038510FM-12+005199999V0201401N001512200019N0200001N1+02691+02221101361ADDAA199000091GF101991011021008001001001MA1999999100771MD1999999-0051REMSYN070AAXX  23184 83229 32598 11403 10269 20222 30077 40136 81200 333 59005;EQDQ01  00002PRCP99
0198832290999992001052400004-13010-038510FM-12+005199999V0200901N002112200019N9999999N1+02401+02031101601ADDAA199000091GF101991011021012501001001KA1240M+02911MA1999999101001MD1999999+0061REMSYN088AAXX  24004 83229 326// 10904 10240 20203 30100 40160 81200 333 10291 29076 55088 58006;EQDQ01  00002PRCP99
0186832290999992001052412004-13010-038510FM-12+005199999V0201801N000512200019N0100001N1+02721+02051101781ADDAA199000091GF102991021021008001001001KA1240N+02321MA1999999101181MD1999999-0141REMSYN076AAXX  24124 83229 32597 21801 10272 20205 30118 40178 82200 333 20232 59014;EQDQ01  00002PRCP99
0167832290999992001052418004-13010-038510FM-12+005199999V0201401N002612200019N0200001N1+02741+02121101541ADDAA199000091GF102991021001022501051001MA1999999100931MD1999999+0161REMSYN070AAXX  24184 83229 32898 21405 10274 20212 30093 40154 82050 333 58016;EQDQ01  00002PRCP99
0208832290999992001052500004-13010-038510FM-12+005199999V0201401N002612200019N9999999N1+02541+02111101591ADDAA199000091GA1001+999999999GF100991001001999999001001KA1240M+02841MA1999999100991MD1999999-0011REMSYN082AAXX  25004 83229 329// 01405 10254 20211 30099 40159 333 10284 29072 55089 59001;EQDQ01  00002PRCP99
0201832290999992001052512004-13010-038510FM-12+005199999V0202301N003110042019N0010001N1+02401+02371101741ADDAA124007191AY161061AY251061GF108991081071004501999999KA1240N+02331MA1999999101141MD1999999-0041MW1621REMSYN088AAXX  25124 83229 21494 82306 10240 20237 30114 40174 76265 887// 333 20233 59004 60074;
0182832290999992001052518004-13010-038510FM-12+005199999V0201401N001510120019N0100001N1+02601+02371101461ADDAA106016091AY161061AY221061GF106991061051012501001001MA1999999100861MD1999999-0071MW1031REMSYN082AAXX  25184 83229 21697 61403 10260 20237 30086 40146 70362 86500 333 59007 60161;
0179832290999992001052600004-13010-038510FM-12+005199999V0200501N001012200019N9999999N1+02421+02281101541ADDAA199000021GF101991011021008001001001KA1240M+02621MA1999999100941MD1999999-0051REMSYN088AAXX  26004 83229 325// 10502 10242 20228 30094 40154 81200 333 10262 29092 55006 59005;
0201832290999992001052612004-13010-038510FM-12+005199999V0202701N000510120019N0100001N1+02631+02501101541ADDAA124017091AY151061AY211061GF106991051081008001061001KA1240N+02341MA1999999100941MD1999999-0201MW1031REMSYN088AAXX  26124 83229 21597 62701 10263 20250 30094 40154 70351 85860 333 20234 59020 60174;
0182832290999992001052618004-13010-038510FM-12+005199999V0201401N001010450019N0200001N1+02581+02401101291ADDAA106015091AY161061AY251061GF106991041031008001041001MA1999999100691MD1999999-0171MW1031REMSYN082AAXX  26184 83229 21598 61402 10258 20240 30069 40129 70365 84340 333 59017 60151;
0198832290999992001052700004-13010-038510FM-12+005199999V0200901N002110120019N9999999N1+02451+02371101471ADDAA199000091GF106991051081008001061001KA1240M+02741MA1999999100871MD1999999-0071REMSYN088AAXX  27004 83229 325// 60904 10245 20237 30087 40147 85860 333 10274 29094 55011 59007;EQDQ01  00002PRCP99
0201832290999992001052712004-13010-038510FM-12+005199999V0202301N001010450019N0100001N1+02691+02481101581ADDAA124024991AY161061AY221061GF105991021021008001021051KA1240N+02381MA1999999100991MD1999999+0051MW1031REMSYN088AAXX  27124 83229 21597 52302 10269 20248 30099 40158 70362 82225 333 20238 58005 60254;
0167832290999992001052718004-13010-038510FM-12+005199999V0201401N001512200019N0200001N1+02761+02461101311ADDAA199000091GF103991021021008001041061MA1999999100721MD1999999+0031REMSYN070AAXX  27184 83229 32598 31403 10276 20246 30072 40131 82246 333 58003;EQDQ01  00002PRCP99
0198832290999992001052800004-13010-038510FM-12+005199999V0200501N000512200019N9999999N1+02531+02361101531ADDAA199000091GF104991041081008001001001KA1240M+02821MA1999999100931MD1999999+0061REMSYN088AAXX  28004 83229 325// 40501 10253 20236 30093 40153 84800 333 10282 29089 55060 58006;EQDQ01  00002PRCP99
0201832290999992001052812004-13010-038510FM-12+005199999V0203201N001510075019N0100001N1+02701+02481101711ADDAA124000591AY151061AY221061GF107991071051008001001001KA1240N+02401MA1999999101121MD1999999+0131MW1031REMSYN088AAXX  28124 83229 21597 73203 10270 20248 30112 40171 70352 87500 333 20240 58013 69964;
0182832290999992001052818004-13010-038510FM-12+005199999V0200901N001512200019N0200001N1+02691+02501101341ADDAA106011991AY191061AY261061GF104991021021008001061061MA1999999100751MD1999999+0031MW1031REMSYN082AAXX  28184 83229 21598 40903 10269 20250 30075 40134 70396 82266 333 58003 60121;
0198832290999992001052900004-13010-038510FM-12+005199999V0200501N001512200019N9999999N1+02551+02401101491ADDAA199000091GF102991021021008001001001KA1240M+02781MA1999999100891MD1999999-0041REMSYN088AAXX  29004 83229 325// 20503 10255 20240 30089 40149 82200 333 10278 29090 55030 59004;EQDQ01  00002PRCP99
0201832290999992001052912004-13010-038510FM-12+005199999V0200501N001010450019N0100001N1+02691+02431101671ADDAA124018091AY161061AY251061GF105991041031008001061001KA1240N+02381MA1999999101081MD1999999-0041MW1031REMSYN088AAXX  29124 83229 21597 50502 10269 20243 30108 40167 70365 84360 333 20238 59004 60184;
0182832290999992001052918004-13010-038510FM-12+005199999V0200501N001512200019N0100001N1+02711+02461101461ADDAA106005191AY161061AY251061GF104991021021008001041051MA1999999100871MD1999999+0121MW1031REMSYN082AAXX  29184 83229 21597 40503 10271 20246 30087 40146 70365 82245 333 58012 60051;
0198832290999992001053000004-13010-038510FM-12+005199999V0200901N002112200019N9999999N1+02521+02361101621ADDAA199000091GF101991011021008001001001KA1240M+02801MA1999999101021MD1999999+0131REMSYN088AAXX  30004 83229 325// 10904 10252 20236 30102 40162 81200 333 10280 29089 55042 58013;EQDQ01  00002PRCP99
0167832290999992001053018004-13010-038510FM-12+005199999V0201401N002112200019N0200001N1+02791+02321101441ADDAA199000091GF102991011021008001001011MA1999999100851MD1999999-0021REMSYN070AAXX  30184 83229 32598 21404 10279 20232 30085 40144 81201 333 59002;EQDQ01  00002PRCP99
0198832290999992001053100004-13010-038510FM-12+005199999V0201401N002610075019N9999999N1+02601+02351101561ADDAA199000091GF105991051041008001001001KA1240M+02841MA1999999100961MD1999999-0061REMSYN088AAXX  31004 83229 325// 51405 10260 20235 30096 40156 85400 333 10284 29080 55094 59006;EQDQ01  00002PRCP99
0201832290999992001053112004-13010-038510FM-12+005199999V0203601N001010012019N0040001N1+02551+02461101521ADDAA124017091AY161061AY251061GF108991081071001501999999KA1240N+02321MA1999999100921MD1999999-0201MW1021REMSYN088AAXX  31124 83229 21296 83602 10255 20246 30092 40152 70265 887// 333 20232 59020 60174;
0182832290999992001053118004-13010-038510FM-12+005199999V0200901N001510450019N0040001N1+02781+02381101451ADDAA106000391AY161061AY251061GF106991041051002501031011MA1999999100861MD1999999+0011MW1031REMSYN082AAXX  31184 83229 21396 60903 10278 20238 30086 40145 70365 84531 333 58001 69931;
0232832290999992001060100004-13010-038510FM-12+005199999V0200901N001012200019N9999999N1+02421+02251101501ADDAA106000191AY151061AY251061GF104991041041008001001001KA1240M+99999MA1999999100991MD1999999+0031MW1031REMSYN100AAXX  01004 83229 215// 40902 10242 20225 30099 40150 70355 84400 333 10205 29088 55035 58003 69911;EQDQ01 +02052ATMX  
0201832290999992001060112004-13010-038510FM-12+005199999V0201401N002112200019N0200001N1+02511+01981101661ADDAA124003091AY161061AY251061GF104991041051012501001001KA1240N+02041MA1999999101061MD1999999+0141MW1031REMSYN088AAXX  01124 83229 21698 41404 10251 20198 30106 40166 70365 84500 333 20204 58014 60034;
0167832290999992001060118004-13010-038510FM-12+005199999V0201401N003111050019N0100001N1+02641+02391101461ADDAA199000091GF106991031051008001001081MA1999999100861MD1999999+0001REMSYN070AAXX  01184 83229 32597 61406 10264 20239 30086 40146 83508 333 58000;EQDQ01  00002PRCP99
0198832290999992001060200004-13010-038510FM-12+005199999V0200501N002110075019N9999999N1+02501+02291101611ADDAA199000091GF106991061051008001001001KA1240M+02811MA1999999101011MD1999999+0021REMSYN088AAXX  02004 83229 325// 60504 10250 20229 30101 40161 86500 333 10281 29084 55066 58002;EQDQ01  00002PRCP99
0201832290999992001060212004-13010-038510FM-12+005199999V0200501N001010042019N0020001N1+02471+02341101701ADDAA124005191AY121061AY221061GF108991081071004501999999KA1240N+02391MA1999999101101MD1999999+0091MW1521REMSYN088AAXX  02124 83229 21495 80502 10247 20234 30110 40170 75222 887// 333 20239 58009 60054;
0182832290999992001060218004-13010-038510FM-12+005199999V0201401N002111050019N0040001N1+02781+02361101511ADDAA106002091AY161061AY261061GF105991021041004501051081MA1999999100921MD1999999+0061MW1011REMSYN082AAXX  02184 83229 21496 51404 10278 20236 30092 40151 70166 82458 333 58006 60021;
0213832290999992001060300004-13010-038510FM-12+005199999V0200901N002610042019N9999999N1+02321+02201101661ADDAA106005191AY161061AY261061GF108991081071004501999999KA1240M+02851MA1999999101061MD1999999+0051MW1601REMSYN100AAXX  03004 83229 214// 80905 10232 20220 30106 40166 76066 887// 333 10285 29089 55047 58005 60051;
0201832290999992001060312004-13010-038510FM-12+005199999V0200901N001512200019N0200001N1+02781+02401101771ADDAA124021191AY161061AY251061GF102991021021008001061001KA1240N+02261MA1999999101181MD1999999+0081MW1031REMSYN088AAXX  03124 83229 21598 20903 10278 20240 30118 40177 70365 82260 333 20226 58008 60214;
0182832290999992001060318004-13010-038510FM-12+005199999V0201401N002610450019N0100001N1+02531+02421101511ADDAA106001091AY151061AY211061GF105991041031008001041001MA1999999100911MD1999999-0011MW1201REMSYN082AAXX  03184 83229 21597 51405 10253 20242 30091 40151 72051 84340 333 59001 60011;
0213832290999992001060400004-13010-038510FM-12+005199999V0200501N002110042019N9999999N1+02341+02291101681ADDAA106007991AY161061AY251061GF108991081071004501999999KA1240M+02831MA1999999101081MD1999999+0061MW1631REMSYN100AAXX  04004 83229 214// 80504 10234 20229 30108 40168 76365 887// 333 10283 29068 55047 58006 60081;
0201832290999992001060412004-13010-038510FM-12+005199999V0200901N003110450019N0040001N1+02541+02151101841ADDAA124023991AY161061AY251061GF106991031031008001021001KA1240N+02341MA1999999101241MD1999999+0061MW1031REMSYN088AAXX  04124 83229 21596 60906 10254 20215 30124 40184 70365 83320 333 20234 58006 60244;
0167832290999992001060418004-13010-038510FM-12+005199999V0201401N002112200019N0200001N1+02791+02161101661ADDAA199000091GF102991021021008001001001MA1999999101071MD1999999+0161REMSYN070AAXX  04184 83229 32598 21404 10279 20216 30107 40166 82200 333 58016;EQDQ01  00002PRCP99
0198832290999992001060500004-13010-038510FM-12+005199999V0200901N002612200019N9999999N1+02481+02091101781ADDAA199000091GF104991041041008001001001KA1240M+02821MA1999999101181MD1999999+0101REMSYN088AAXX  05004 83229 325// 40905 10248 20209 30118 40178 84400 333 10282 29076 55064 58010;EQDQ01  00002PRCP99
0201832290999992001060512004-13010-038510FM-12+005199999V0200901N001512200019N0100001N1+02421+02241101851ADDAA124006191AY161061AY221061GF103991031001022501041001KA1240N+02181MA1999999101251MD1999999+0011MW1011REMSYN088AAXX  05124 83229 21897 30903 10242 20224 30125 40185 70162 83040 333 20218 58001 60064;
0182832290999992001060518004-13010-038510FM-12+005199999V0200501N001010042019N0040001N1+02461+02371101621ADDAA106007991AY161061AY261061GF106991061051004501001001MA1999999101021MD1999999-0051MW1011REMSYN082AAXX  05184 83229 21496 60502 10246 20237 30102 40162 70166 86500 333 59005 60081;
0213832290999992001060600004-13010-038510FM-12+005199999V0200901N002110042019N9999999N1+02361+02241101721ADDAA106000891AY161061AY251061GF107991071051004501001001KA1240M+02731MA1999999101121MD1999999-0061MW1031REMSYN100AAXX  06004 83229 214// 70904 10236 20224 30112 40172 70365 87500 333 10273 29093 55030 59006 69981;
0173832290999992001060612004-13010-038510FM-12+005199999V0201401N002112200019N0200001N1+02661+02071101821ADDAA124007991GF102991021021008001061001KA1240N+02321MA1999999101231MD1999999-0021REMSYN082AAXX  06124 83229 22598 21404 10266 20207 30123 40182 82260 333 20232 59002 60084;
0167832290999992001060618004-13010-038510FM-12+005199999V0201401N002110450019N0200001N1+02681+01971101631ADDAA199000091GF105991031021008001021001MA1999999101031MD1999999+0011REMSYN070AAXX  06184 83229 32598 51404 10268 20197 30103 40163 83220 333 58001;EQDQ01  00002PRCP99
0213832290999992001060700004-13010-038510FM-12+005199999V0200901N002112200019N9999999N1+02361+02031101781ADDAA106000891AY151061AY221061GF105991041001017501051011KA1240M+02811MA1999999101181MD1999999+0061MW1031REMSYN100AAXX  07004 83229 217// 50904 10236 20203 30118 40178 70352 84051 333 10281 29075 55086 58006 69971;
0201832290999992001060712004-13010-038510FM-12+005199999V0201401N001510042019N0100001N1+02561+02271101821ADDAA124002091AY151061AY251061GF106991061051004501001001KA1240N+02221MA1999999101221MD1999999-0111MW1011REMSYN088AAXX  07124 83229 21497 61403 10256 20227 30122 40182 70155 86500 333 20222 59011 60024;
0167832290999992001060718004-13010-038510FM-12+005199999V0201401N003112200019N0200001N1+02811+02131101681ADDAA199000091GF101991011031008001001001MA1999999101091MD1999999+0061REMSYN070AAXX  07184 83229 32598 11406 10281 20213 30109 40168 81300 333 58006;EQDQ01  00002PRCP99
0213832290999992001060800004-13010-038510FM-12+005199999V0200901N001012200019N9999999N1+02441+02151101741ADDAA106000191AY151061AY201061GF102991021041008001001001KA1240M+02861MA1999999101141MD1999999-0041MW1011REMSYN100AAXX  08004 83229 215// 20902 10244 20215 30114 40174 70150 82400 333 10286 29080 55078 59004 69911;
0201832290999992001060812004-13010-038510FM-12+005199999V0200901N001512200019N0200001N1+02661+02141101991ADDAA124001091AY161061AY221061GF103991031031008001001001KA1240N+02251MA1999999101391MD1999999+0171MW1031REMSYN088AAXX  08124 83229 21598 30903 10266 20214 30139 40199 70362 83300 333 20225 58017 60014;
0167832290999992001060818004-13010-038510FM-12+005199999V0200901N003612200019N0200001N1+02741+01951101781ADDAA199000091GF101991011021008001001001MA1999999101191MD1999999+0101REMSYN070AAXX  08184 83229 32598 10907 10274 20195 30119 40178 81200 333 58010;EQDQ01  00002PRCP99
0213832290999992001060900004-13010-038510FM-12+005199999V0201401N003612200019N9999999N1+02541+02061101971ADDAA106001091AY151061AY201061GF103991031041004501001001KA1240M+02841MA1999999101371MD1999999+0231MW1031REMSYN100AAXX  09004 83229 214// 31407 10254 20206 30137 40197 70350 83400 333 10284 29071 55083 58023 60011;
0201832290999992001060912004-13010-038510FM-12+005199999V0201401N002610450019N0100001N1+02421+02191101961ADDAA124002091AY151061AY211061GF106991031081008001021001KA1240N+02211MA1999999101361MD1999999-0031MW1031REMSYN088AAXX  09124 83229 21597 61405 10242 20219 30136 40196 70351 83820 333 20221 59003 60024;
0182832290999992001060918004-13010-038510FM-12+005199999V0201401N002110042019N0020001N1+02451+02271101771ADDAA106015091AY161061AY221061GF108991061061004501021999MA1999999101171MD1999999-0021MW1611REMSYN082AAXX  09184 83229 21495 81404 10245 20227 30117 40177 76162 8662/ 333 59002 60151;
0213832290999992001061000004-13010-038510FM-12+005199999V0201401N002610090019N9999999N1+02451+02301101841ADDAA106005191AY161061AY251061GF106991051081004501021001KA1240M+02601MA1999999101241MD1999999-0131MW1031REMSYN100AAXX  10004 83229 214// 61405 10245 20230 30124 40184 70365 85820 333 10260 29090 55004 59013 60051;
0201832290999992001061012004-13010-038510FM-12+005199999V0201401N002110090019N0040001N1+02421+02281101951ADDAA124026991AY161061AY251061GF107991051081004501021001KA1240N+02421MA1999999101351MD1999999-0011MW1031REMSYN088AAXX  10124 83229 21496 71404 10242 20228 30135 40195 70365 85820 333 20242 59001 60274;
0182832290999992001061018004-13010-038510FM-12+005199999V0201401N002610450019N0200001N1+02481+02191101761ADDAA106002091AY161061AY221061GF106991031081004501021001MA1999999101161MD1999999-0011MW1031REMSYN082AAXX  10184 83229 21498 61405 10248 20219 30116 40176 70362 83820 333 59001 60021;
0213832290999992001061100004-13010-038510FM-12+005199999V0201401N003112200019N9999999N1+02471+02071101881ADDAA106000591AY161061AY211061GF103991031081004501001001KA1240M+02671MA1999999101281MD1999999+0041MW1031REMSYN100AAXX  11004 83229 214// 31406 10247 20207 30128 40188 70361 83800 333 10267 29084 55022 58004 69961;
0201832290999992001061112004-13010-038510FM-12+005199999V0200901N003112200019N0200001N1+02671+02241101851ADDAA124003091AY161061AY221061GF103991031021008001001001KA1240N+02211MA1999999101251MD1999999-0101MW1021REMSYN088AAXX  11124 83229 21598 30906 10267 20224 30125 40185 70262 83200 333 20221 59010 60034;
0167832290999992001061118004-13010-038510FM-12+005199999V0200901N003110042019N0040001N1+02731+02121101681ADDAA199000091GF106991061051004501001001MA1999999101091MD1999999-0071REMSYN070AAXX  11184 83229 32496 60906 10273 20212 30109 40168 86500 333 59007;EQDQ01  00002PRCP99
0198832290999992001061200004-13010-038510FM-12+005199999V0201401N003112200019N9999999N1+02461+01971101791ADDAA199000091GF102991021021008001001001KA1240M+02841MA1999999101191MD1999999-0091REMSYN088AAXX  12004 83229 325// 21406 10246 20197 30119 40179 82200 333 10284 29074 55080 59009;EQDQ01  00002PRCP99
0186832290999992001061212004-13010-038510FM-12+005199999V0201401N003112200019N0200001N1+02621+01831101891ADDAA199000091GF102991011001012501051011KA1240N+02401MA1999999101291MD1999999+0041REMSYN076AAXX  12124 83229 32698 21406 10262 20183 30129 40189 81051 333 20240 58004;EQDQ01  00002PRCP99
0167832290999992001061218004-13010-038510FM-12+005199999V0200901N002110120019N0100001N1+02581+02211101661ADDAA199000091GF105991051051012501001001MA1999999101061MD1999999-0031REMSYN070AAXX  12184 83229 32697 50904 10258 20221 30106 40166 85500 333 59003;EQDQ01  00002PRCP99
0198832290999992001061300004-13010-038510FM-12+005199999V0201401N002612200019N9999999N1+02461+02031101761ADDAA199000091GF104991031041008001031001KA1240M+02701MA1999999101161MD1999999-0031REMSYN088AAXX  13004 83229 325// 41405 10246 20203 30116 40176 83430 333 10270 29075 55049 59003;EQDQ01  00002PRCP99
0201832290999992001061312004-13010-038510FM-12+005199999V0201401N002612200019N0100001N1+02581+02191101751ADDAA124006191AY161061AY251061GF104991021021008001041001KA1240N+02221MA1999999101151MD1999999-0141MW1031REMSYN088AAXX  13124 83229 21597 41405 10258 20219 30115 40175 70365 82240 333 20222 59014 60064;
0182832290999992001061318004-13010-038510FM-12+005199999V0201401N003112200019N0200001N1+02641+02121101531ADDAA106004191AY161061AY221061GF103991011031008001021001MA1999999100931MD1999999-0131MW1031REMSYN082AAXX  13184 83229 21598 31406 10264 20212 30093 40153 70362 81320 333 59013 60041;
0168832290999992001061400004-13010-038510FM-12+005199999V0201401N002112200019N9999999N1+99999+99999999999ADDAA199000091GF103991999999008001999999KA1240M+02721REMSYN087AAXX  14004 83229 325// 31404 0244 20201 30110 40170 81250 333 10272 29076 55076 59006;EQDQ01  00002PRCP99
0201832290999992001061412004-13010-038510FM-12+005199999V0201401N000510042019N0100001N1+02481+02251101741ADDAA124006191AY151061AY201061GF106991061051004501001001KA1240N+02221MA1999999101141MD1999999-0011MW1031REMSYN088AAXX  14124 83229 21497 61401 10248 20225 30114 40174 70350 86500 333 20222 59001 60064;
0182832290999992001061418004-13010-038510FM-12+005199999V0200901N003112200019N0200001N1+02681+02061101491ADDAA106000591AY151061AY251061GF101991011021008001001001MA1999999100901MD1999999-0031MW1021REMSYN082AAXX  14184 83229 21598 10906 10268 20206 30090 40149 70255 81200 333 59003 69961;
0198832290999992001061500004-13010-038510FM-12+005199999V0200901N002612200019N9999999N1+02401+01951101611ADDAA199000091GF102991021021008001001001KA1240M+02731MA1999999101011MD1999999-0091REMSYN088AAXX  15004 83229 325// 20905 10240 20195 30101 40161 82200 333 10273 29077 55063 59009;EQDQ01  00002PRCP99
0173832290999992001061512004-13010-038510FM-12+005199999V0201401N002612200019N0200001N1+02621+02101101761ADDAA124000591GF102991021021008001041001KA1240N+02291MA1999999101161MD1999999+0021REMSYN082AAXX  15124 83229 22598 21405 10262 20210 30116 40176 82240 333 20229 58002 69964;
0167832290999992001061518004-13010-038510FM-12+005199999V0201401N001512200019N0200001N1+02661+02111101521ADDAA199000091GF102991021021008001041001MA1999999100931MD1999999+0031REMSYN070AAXX  15184 83229 32598 21403 10266 20211 30093 40152 82240 333 58003;EQDQ01  00002PRCP99
0198832290999992001061600004-13010-038510FM-12+005199999V0201401N001510450019N9999999N1+02461+02051101691ADDAA199000091GF106991031081008001011001KA1240M+02791MA1999999101091MD1999999+0081REMSYN088AAXX  16004 83229 325// 61403 10246 20205 30109 40169 83810 333 10279 29075 55072 58008;EQDQ01  00002PRCP99
0201832290999992001061612004-13010-038510FM-12+005199999V0201401N002110042019N0010001N1+02321+02271101751ADDAA124010991AY161061AY211061GF107991051061004501021001KA1240N+02181MA1999999101151MD1999999-0011MW1211REMSYN088AAXX  16124 83229 21494 71404 10232 20227 30115 40175 72161 85620 333 20218 59001 60114;
0182832290999992001061618004-13010-038510FM-12+005199999V0201401N002110042019N0010001N1+02321+02221101541ADDAA106025991AY161061AY261061GF107991051071004501021001MA1999999100941MD1999999+0011MW1211REMSYN082AAXX  16184 83229 21494 71404 10232 20222 30094 40154 72166 85720 333 58001 60261;
0213832290999992001061700004-13010-038510FM-12+005199999V0201401N002110450019N9999999N1+02451+02071101681ADDAA106000891AY161061AY221061GF107991021021008001051001KA1240M+02511MA1999999101081MD1999999-0011MW1031REMSYN100AAXX  17004 83229 215// 71404 10245 20207 30108 40168 70362 82250 333 10251 29088 55000 59001 69971;
0201832290999992001061712004-13010-038510FM-12+005199999V0200901N002110450019N0100001N1+02621+02121101761ADDAA124033091AY161061AY251061GF106991021021008001051001KA1240N+02221MA1999999101161MD1999999+0011MW1031REMSYN088AAXX  17124 83229 21597 60904 10262 20212 30116 40176 70365 82250 333 20222 58001 60334;
0173832290999992001061812004-13010-038510FM-12+005199999V0200901N001512200019N0200001N1+02661+02181101781ADDAA124000591GF102991021021008001001001KA1240N+02271MA1999999101181MD1999999+0021REMSYN082AAXX  18124 83229 22598 20903 10266 20218 30118 40178 82200 333 20227 58002 69964;
0167832290999992001061818004-13010-038510FM-12+005199999V0200901N002112200019N0100001N1+02721+02521101551ADDAA199000091GF103991031021008001001001MA1999999100961MD1999999+0011REMSYN070AAXX  18184 83229 32597 30904 10272 20252 30096 40155 83200 333 58001;EQDQ01  00002PRCP99
0198832290999992001061900004-13010-038510FM-12+005199999V0200901N001512200019N9999999N1+02341+01981101711ADDAA199000091GF101991011021008001001001KA1240M+02781MA1999999101111MD1999999+0001REMSYN088AAXX  19004 83229 325// 10903 10234 20198 30111 40171 81200 333 10278 29081 55089 58000;EQDQ01  00002PRCP99
0186832290999992001061912004-13010-038510FM-12+005199999V0201401N002610042019N0100001N1+02611+02121101771ADDAA199000091GF105991051051004501001001KA1240N+02291MA1999999101171MD1999999-0011REMSYN076AAXX  19124 83229 32497 51405 10261 20212 30117 40177 85500 333 20229 59001;EQDQ01  00002PRCP99
0182832290999992001061918004-13010-038510FM-12+005199999V0201401N001512200019N0200001N1+02661+02041101591ADDAA106000191AY151061AY221061GF104991031021008001001011MA1999999101001MD1999999+0041MW1011REMSYN082AAXX  19184 83229 21598 41403 10266 20204 30100 40159 70152 83201 333 58004 69911;
0198832290999992001062000004-13010-038510FM-12+005199999V0200501N001510075019N9999999N1+02361+02071101651ADDAA199000091GF105991051051008001001001KA1240M+02771MA1999999101051MD1999999-0061REMSYN088AAXX  20004 83229 325// 50503 10236 20207 30105 40165 85500 333 10277 29078 55073 59006;EQDQ01  00002PRCP99
0201832290999992001062012004-13010-038510FM-12+005199999V0203201N001010075019N0100001N1+02301+02221101781ADDAA124014091AY161061AY251061GF107991071051008001001001KA1240N+02111MA1999999101181MD1999999+0011MW1031REMSYN088AAXX  20124 83229 21597 73202 10230 20222 30118 40178 70365 87500 333 20211 58001 60144;
0167832290999992001062018004-13010-038510FM-12+005199999V0201801N002112200019N0200001N1+02611+02141101621ADDAA199000091GF102991011021008001001011MA1999999101031MD1999999+0031REMSYN070AAXX  20184 83229 32598 21804 10261 20214 30103 40162 81201 333 58003;EQDQ01  00002PRCP99
0208832290999992001062100004-13010-038510FM-12+005199999V0200901N000512200019N9999999N1+02281+01921101771ADDAA199000091GA1001+999999999GF100991001001999999001001KA1240M+02621MA1999999101171MD1999999+0121REMSYN082AAXX  21004 83229 329// 00901 10228 20192 30117 40177 333 10262 29083 55075 58012;EQDQ01  00002PRCP99
0173832290999992001062112004-13010-038510FM-12+005199999V0201801N001512200019N0200001N1+02591+02121101791ADDAA124000191GF101991011021008001001001KA1240N+02221MA1999999101191MD1999999+0011REMSYN082AAXX  21124 83229 22598 11803 10259 20212 30119 40179 81200 333 20222 58001 69924;
0167832290999992001062118004-13010-038510FM-12+005199999V0201401N002112200019N0200001N1+02581+02061101581ADDAA199000091GF102991021041008001001001MA1999999100991MD1999999-0041REMSYN070AAXX  21184 83229 32598 21404 10258 20206 30099 40158 82400 333 59004;EQDQ01  00002PRCP99
0198832290999992001062200004-13010-038510FM-12+005199999V0201401N001512200019N9999999N1+02451+02071101811ADDAA199000091GF103991031041008001001001KA1240M+02741MA1999999101211MD1999999+0041REMSYN088AAXX  22004 83229 325// 31403 10245 20207 30121 40181 83400 333 10274 29077 55088 58004;EQDQ01  00002PRCP99
0201832290999992001062212004-13010-038510FM-12+005199999V0201401N004110042019N0010001N1+02321+02201101871ADDAA124000591AY151061AY221061GF108991081071004501999999KA1240N+02261MA1999999101271MD1999999+0081MW1581REMSYN088AAXX  22124 83229 21494 81408 10232 20220 30127 40187 75852 887// 333 20226 58008 69944;
0182832290999992001062218004-13010-038510FM-12+005199999V0200501N003110042019N0010001N1+02261+02141101781ADDAA106004191AY161061AY251061GF108991081071004501999999MA1999999101181MD1999999+0191MW1511REMSYN082AAXX  22184 83229 21494 80506 10226 20214 30118 40178 75165 887// 333 58019 60041;
0213832290999992001062300004-13010-038510FM-12+005199999V0200501N001510042019N9999999N1+02341+02201101921ADDAA106003091AY161061AY261061GF106991051051004501001041KA1240M+02511MA1999999101321MD1999999+0111MW1031REMSYN100AAXX  23004 83229 214// 60503 10234 20220 30132 40192 70366 85504 333 10251 29092 55000 58011 60031;
0201832290999992001062312004-13010-038510FM-12+005199999V0200501N001510120019N0200001N1+02661+02311101801ADDAA124008991AY161061AY251061GF105991051051012501001001KA1240N+02211MA1999999101201MD1999999-0071MW1031REMSYN088AAXX  23124 83229 21698 50503 10266 20231 30120 40180 70365 85500 333 20221 59007 60094;
0167832290999992001062318004-13010-038510FM-12+005199999V0200901N001512200019N0200001N1+02641+02181101741ADDAA199000091GF101991011021008001001001MA1999999101141MD1999999-0041REMSYN070AAXX  23184 83229 32598 10903 10264 20218 30114 40174 81200 333 59004;EQDQ01  00002PRCP99
0213832290999992001062400004-13010-038510FM-12+005199999V0201401N003112200019N9999999N1+02461+02131101811ADDAA106000591AY151061AY201061GF103991031041004501001001KA1240M+02741MA1999999101211MD1999999-0111MW1011REMSYN100AAXX  24004 83229 214// 31406 10246 20213 30121 40181 70150 83400 333 10274 29080 55066 59011 69961;
0201832290999992001062412004-13010-038510FM-12+005199999V0201401N002610042019N0040001N1+02401+02171101951ADDAA124001091AY151061AY201061GF107991061051004501071001KA1240N+02321MA1999999101351MD1999999+0151MW1031REMSYN088AAXX  24124 83229 21496 71405 10240 20217 30135 40195 70350 86570 333 20232 58015 69994;
0167832290999992001062418004-13010-038510FM-12+005199999V0200501N001512200019N0100001N1+02541+02131101801ADDAA199000091GF103991011031008001051001MA1999999101201MD1999999+0061REMSYN070AAXX  24184 83229 32597 30503 10254 20213 30120 40180 81350 333 58006;EQDQ01  00002PRCP99
0198832290999992001062500004-13010-038510FM-12+005199999V0200901N001019999999N9999999N1+02321+02001101991ADDAA199000091GF106991061001012501071001KA1240M+02721MA1999999101391MD1999999+0181REMSYN088AAXX  25004 83229 326// 60902 10232 20200 30139 40199 86070 333 10272 29080 55033 58018;EQDQ01  00002PRCP99
0201832290999992001062512004-13010-038510FM-12+005199999V0200901N002612200019N0100001N1+02621+02121102121ADDAA124002091AY151061AY221061GF102991021041008001001001KA1240N+02171MA1999999101521MD1999999+0171MW1021REMSYN088AAXX  25124 83229 21597 20905 10262 20212 30152 40212 70252 82400 333 20217 58017 60024;
0167832290999992001062518004-13010-038510FM-12+005199999V0201401N002112200019N0200001N1+02621+02051101901ADDAA199000091GF101991011021008001001001MA1999999101301MD1999999+0101REMSYN070AAXX  25184 83229 32598 11404 10262 20205 30130 40190 81200 333 58010;EQDQ01  00002PRCP99
0198832290999992001062600004-13010-038510FM-12+005199999V0201401N002112200019N9999999N1+02441+02071101981ADDAA199000091GF103991031041008001001001KA1240M+02801MA1999999101381MD1999999-0011REMSYN088AAXX  26004 83229 325// 31404 10244 20207 30138 40198 83400 333 10280 29076 55091 59001;EQDQ01  00002PRCP99
0201832290999992001062612004-13010-038510FM-12+005199999V0201801N002610042019N0040001N1+02371+02151102131ADDAA124002091AY161061AY201061GF106991061051004501001001KA1240N+02211MA1999999101531MD1999999+0011MW1031REMSYN088AAXX  26124 83229 21496 61805 10237 20215 30153 40213 70360 86500 333 20221 58001 60024;
0182832290999992001062618004-13010-038510FM-12+005199999V0201401N001012200019N0100001N1+02531+02251101931ADDAA106003091AY161061AY251061GF103991021021008001031001MA1999999101331MD1999999+0031MW1031REMSYN082AAXX  26184 83229 21597 31402 10253 20225 30133 40193 70365 82230 333 58003 60031;
0213832290999992001062700004-13010-038510FM-12+005199999V0200901N001010042019N9999999N1+02341+02291102011ADDAA106000191AY161061AY251061GF108991061051004501071999KA1240M+02661MA1999999101411MD1999999+0031MW1511REMSYN100AAXX  27004 83229 214// 80902 10234 20229 30141 40201 75165 8657/ 333 10266 29092 55040 58003 69921;
0201832290999992001062712004-13010-038510FM-12+005199999V0200901N001512200019N0040001N1+02641+02391101951ADDAA124004191AY161061AY251061GF104991021051004501021001KA1240N+02271MA1999999101351MD1999999-0181MW1031REMSYN088AAXX  27124 83229 21496 40903 10264 20239 30135 40195 70365 82520 333 20227 59018 60044;
0182832290999992001062718004-13010-038510FM-12+005199999V0201401N001519999999N0040001N1+02561+02111101741ADDAA106000891AY151061AY251061GF107991071001012501051001MA1999999101141MD1999999-0191MW1021REMSYN082AAXX  27184 83229 21696 71403 10256 20211 30114 40174 70255 87050 333 59019 69971;
0198832290999992001062800004-13010-038510FM-12+005199999V0209999C000019999999N9999999N1+02381+02351101801ADDAA199000091GF106991061001012501051001KA1240M+02701MA1999999101201MD1999999-0211REMSYN088AAXX  28004 83229 326// 60900 10238 20235 30120 40180 86050 333 10270 29084 55005 59021;EQDQ01  00002PRCP99
0173832290999992001062812004-13010-038510FM-12+005199999V0200901N000510120019N0200001N1+02411+02191101871ADDAA124000891GF107991071051012501001001KA1240N+02251MA1999999101241MD1999999-0081REMSYN082AAXX  28124 83229 21698 70901 10241 20219 30124 40187 87500 333 20225 59008 69984;
0167832290999992001062818004-13010-038510FM-12+005199999V0201801N002619999999N0040001N1+02501+02111101741ADDAA199000091GF107991071001012501051001MA1999999101141MD1999999+0001REMSYN070AAXX  28184 83229 32696 71805 10250 20211 30114 40174 87050 333 58000;EQDQ01  00002PRCP99
0198832290999992001062900004-13010-038510FM-12+005199999V0201401N001510450019N9999999N1+02401+02331101941ADDAA199000091GF106991041051008001051001KA1240M+02641MA1999999101341MD1999999+0141REMSYN088AAXX  29004 83229 325// 61403 10240 20233 30134 40194 84550 333 10264 29090 55002 58014;EQDQ01  00002PRCP99
0196832290999992001062912004-13010-038510FM-12+005199999V0201401N003112200019N0200001N1+02561+02131101971ADDAA199000091GA1001+999999999GF100991001001999999001001KA1240N+02241MA1999999101371MD1999999+0101REMSYN070AAXX  29124 83229 32998 01406 10256 20213 30137 40197 333 20224 58010;EQDQ01  00002PRCP99
0182832290999992001062918004-13010-038510FM-12+005199999V0201801N004110042019N0040001N1+02421+02251101781ADDAA106003091AY161061AY201061GF106991061051004501001001MA1999999101181MD1999999+0041MW1031REMSYN082AAXX  29184 83229 21496 61808 10242 20225 30118 40178 70360 86500 333 58004 60031;
0213832290999992001063000004-13010-038510FM-12+005199999V0201401N003112200019N9999999N1+02401+02231101771ADDAA106000191AY161061AY251061GF101991011021008001001001KA1240M+02771MA1999999101171MD1999999-0171MW1021REMSYN100AAXX  30004 83229 215// 11406 10240 20223 30117 40177 70265 81200 333 10277 29087 55063 59017 69911;
0201832290999992001063012004-13010-038510FM-12+005199999V0201801N001010450019N0040001N1+02331+02051101901ADDAA124005191AY161061AY251061GF106991031051004501071001KA1240N+02171MA1999999101301MD1999999-0071MW1011REMSYN088AAXX  30124 83229 21496 61802 10233 20205 30130 40190 70165 83570 333 20217 59007 60054;
0182832290999992001063018004-13010-038510FM-12+005199999V0201801N003110042019N0020001N1+02341+02311101651ADDAA106002091AY161061AY261061GF108991081071004501999999MA1999999101051MD1999999-0131MW1511REMSYN082AAXX  30184 83229 21495 81806 10234 20231 30105 40165 75166 887// 333 59013 60021;
0213832290999992001070100004-13010-038510FM-12+005199999V0201401N003110450019N9999999N1+02441+02171101721ADDAA106005191AY161061AY261061GF107991021041004501071001KA1240M+02541MA1999999101121MD1999999-0051MW1031REMSYN100AAXX  01004 83229 214// 71406 10244 20217 30112 40172 70366 82470 333 10254 29088 55006 59005 60051;
0201832290999992001070112004-13010-038510FM-12+005199999V0201801N004110042019N0040001N1+02361+02091101821ADDAA124008991AY161061AY261061GF106991061051004501001001KA1240N+02101MA1999999101221MD1999999-0081MW1011REMSYN088AAXX  01124 83229 21496 61808 10236 20209 30122 40182 70166 86500 333 20210 59008 60094;
0167832290999992001070118004-13010-038510FM-12+005199999V0201801N003119999999N0100001N1+02421+02051101601ADDAA199000091GF106991061001012501071001MA1999999101001MD1999999-0051REMSYN070AAXX  01184 83229 32697 61806 10242 20205 30100 40160 86070 333 59005;EQDQ01  00002PRCP99
0198832290999992001070200004-13010-038510FM-12+005199999V0200901N001512200019N9999999N1+02381+01991101711ADDAA199000091GF102991021011008001001061KA1240M+02571MA1999999101111MD1999999-0011REMSYN088AAXX  02004 83229 325// 20903 10238 20199 30111 40171 82106 333 10257 29081 55008 59001;EQDQ01  00002PRCP99
0186832290999992001070212004-13010-038510FM-12+005199999V0201401N001519999999N0100001N1+02541+02021101811ADDAA199000091GF106991061001012501051001KA1240N+02261MA1999999101211MD1999999-0011REMSYN076AAXX  02124 83229 32697 61403 10254 20202 30121 40181 86050 333 20226 59001;EQDQ01  00002PRCP99
0167832290999992001070218004-13010-038510FM-12+005199999V0201401N003112200019N0200001N1+02561+02151101681ADDAA199000091GF103991011021008001031011MA1999999101081MD1999999+0081REMSYN070AAXX  02184 83229 32598 31406 10256 20215 30108 40168 81231 333 58008;EQDQ01  00002PRCP99
0198832290999992001070300004-13010-038510FM-12+005199999V0200901N002612200019N9999999N1+02401+01971101731ADDAA199000091GF101991011021008001001001KA1240M+02701MA1999999101131MD1999999+0021REMSYN088AAXX  03004 83229 325// 10905 10240 20197 30113 40173 81200 333 10270 29076 55058 58002;EQDQ01  00002PRCP99
0186832290999992001070312004-13010-038510FM-12+005199999V0201401N002110450019N0040001N1+02441+02171101871ADDAA199000091GF105991021051008001051001KA1240N+02201MA1999999101271MD1999999+0061REMSYN076AAXX  03124 83229 32596 51404 10244 20217 30127 40187 82550 333 20220 58006;EQDQ01  00002PRCP99
0182832290999992001070318004-13010-038510FM-12+005199999V0201801N002612200019N0100001N1+02511+02231101641ADDAA106002091AY161061AY221061GF104991041051008001001001MA1999999101041MD1999999-0041MW1031REMSYN082AAXX  03184 83229 21597 41805 10251 20223 30104 40164 70362 84500 333 59004 60021;
0198832290999992001070400004-13010-038510FM-12+005199999V0200901N002610150019N9999999N1+02261+02111101811ADDAA199000091GF107991071001017501071001KA1240M+02641MA1999999101211MD1999999+0081REMSYN088AAXX  04004 83229 327// 70905 10226 20211 30121 40181 87070 333 10264 29088 55032 58008;EQDQ01  00002PRCP99
0201832290999992001070412004-13010-038510FM-12+005199999V0203601N001010075019N0040001N1+02341+02151101881ADDAA124002091AY161061AY221061GF108991081071008001999999KA1240N+02131MA1999999101281MD1999999+0011MW1031REMSYN088AAXX  04124 83229 21596 83602 10234 20215 30128 40188 70362 887// 333 20213 58001 60024;
0167832290999992001070418004-13010-038510FM-12+005199999V0201801N000510120019N0040001N1+02501+99999101771ADDAA199000091GF107991071051012501001001MA1999999101171MD1999999+0131REMSYN070AAXX  04184 83229 32696 71801 10250 2229/ 30117 40177 87500 333 58013;EQDQ01  00002PRCP99
0213832290999992001070500004-13010-038510FM-12+005199999V0203201N000510075019N9999999N1+02111+02021101831ADDAA106003091AY161061AY221061GF107991051051008001031001KA1240M+02681MA1999999101221MD1999999+0011MW1031REMSYN100AAXX  05004 83229 215// 73201 10211 20202 30122 40183 70362 85530 333 10268 29092 55005 58001 60031;
0201832290999992001070512004-13010-038510FM-12+005199999V0201801N003110042019N0020001N1+02281+02231101931ADDAA124017091AY161061AY261061GF108991081071004501999999KA1240N+02101MA1999999101331MD1999999+0051MW1511REMSYN088AAXX  05124 83229 21495 81806 10228 20223 30133 40193 75166 887// 333 20210 58005 60174;
0179832290999992001070600004-13010-038510FM-12+005199999V0200901N002112200019N9999999N1+02431+02111101751ADDAA199000021GF101991011021008001001001KA1240M+02731MA1999999101151MD1999999-0071REMSYN088AAXX  06004 83229 325// 10904 10243 20211 30115 40175 81200 333 10273 29084 55047 59007;
0201832290999992001070612004-13010-038510FM-12+005199999V0201401N002612200019N0100001N1+02491+02291101771ADDAA124000591AY151061AY221061GF103991031021008001001001KA1240N+02251MA1999999101171MD1999999-0161MW1581REMSYN088AAXX  06124 83229 21597 31405 10249 20229 30117 40177 75852 83200 333 20225 59016 69944;
0148832290999992001070618004-13010-038510FM-12+005199999V0201401N002612200019N0200001N1+02601+02231101671ADDAA199000021GF104991041041008001001001MA1999999101071MD1999999-0121REMSYN070AAXX  06184 83229 32598 41405 10260 20223 30107 40167 84400 333 59012;
0213832290999992001070700004-13010-038510FM-12+005199999V0201401N003112200019N9999999N1+02351+02201101751ADDAA106002091AY161061AY221061GF103991031041008001001001KA1240M+02671MA1999999101151MD1999999+0001MW1031REMSYN100AAXX  07004 83229 215// 31406 10235 20220 30115 40175 70362 83400 333 10267 29088 55071 58000 60021;
0201832290999992001070712004-13010-038510FM-12+005199999V0200501N003110042019N0010001N1+02261+02161102021ADDAA124035191AY161061AY261061GF108991081071004501999999KA1240N+02111MA1999999101421MD1999999+0251MW1951REMSYN088AAXX  07124 83229 21494 80506 10226 20216 30142 40202 79566 887// 333 20211 58025 60354;
0182832290999992001070718004-13010-038510FM-12+005199999V0200901N004110042019N0040001N1+02581+02231101711ADDAA106007991AY191061AY261061GF106991061051004501001001MA1999999101111MD1999999+0041MW1031REMSYN082AAXX  07184 83229 21496 60908 10258 20223 30111 40171 70396 86500 333 58004 60081;
0213832290999992001070800004-13010-038510FM-12+005199999V0201401N003612200019N9999999N1+02451+02091101901ADDAA106000891AY161061AY261061GF104991031041008001001061KA1240M+02621MA1999999101301MD1999999+0151MW1031REMSYN100AAXX  08004 83229 215// 41407 10245 20209 30130 40190 70366 83406 333 10262 29084 55012 58015 69981;
0167832290999992001070818004-13010-038510FM-12+005199999V0201801N003112200019N0100001N1+02581+02081101921ADDAA199000091GF103991031041008001001001MA1999999101321MD1999999+0211REMSYN070AAXX  08184 83229 32597 31806 10258 20208 30132 40192 83400 333 58021;EQDQ01  00002PRCP99
0213832290999992001070900004-13010-038510FM-12+005199999V0201401N004111050019N9999999N1+02381+02151101851ADDAA106000191AY151061AY201061GF106991041041004501001081KA1240M+02671MA1999999101251MD1999999-0051MW1031REMSYN100AAXX  09004 83229 214// 61408 10238 20215 30125 40185 70350 84408 333 10267 29080 55077 59005 69911;
0201832290999992001070912004-13010-038510FM-12+005199999V0200901N003112200019N0200001N1+02551+02081101781ADDAA124006191AY161061AY221061GF102991021001022501041001KA1240N+02091MA1999999101181MD1999999-0251MW1031REMSYN088AAXX  09124 83229 21898 20906 10255 20208 30118 40178 70362 82040 333 20209 59025 60064;
0167832290999992001070918004-13010-038510FM-12+005199999V0200901N002112200019N0200001N1+02621+02121101671ADDAA199000091GF102991021001022501041001MA1999999101071MD1999999-0251REMSYN070AAXX  09184 83229 32898 20904 10262 20212 30107 40167 82040 333 59025;EQDQ01  00002PRCP99
0230832290999992001071000004-13010-038510FM-12+005199999V0201401N002612200019N9999999N1+02381+01931101711ADDAA199000091GF101991011021008001001001KA1240M+02701MA1999999999999MD1999999-0141REMSYN088AAXX  10004 83229 325// 11405 10238 20193 39111 40171 81200 333 10270 29075 55078 59014;EQDQ01+091113APOSP Q02  00002PRCP99Q03 091113APOSP 
0201832290999992001071012004-13010-038510FM-12+005199999V0200901N003110120019N0200001N1+02331+02131101661ADDAA124000591AY151061AY221061GF106991061051012501001001KA1240N+02211MA1999999101061MD1999999-0121MW1021REMSYN088AAXX  10124 83229 21698 60906 10233 20213 30106 40166 70252 86500 333 20221 59012 69944;
0167832290999992001071018004-13010-038510FM-12+005199999V0201401N002110450019N0040001N1+02441+02131101531ADDAA199000091GF106991041051004501031081MA1999999100931MD1999999-0141REMSYN070AAXX  10184 83229 32496 61404 10244 20213 30093 40153 84538 333 59014;EQDQ01  00002PRCP99
0213832290999992001071100004-13010-038510FM-12+005199999V0200901N002112200019N9999999N1+02341+02031101561ADDAA106000591AY151061AY221061GF103991031041008001001001KA1240M+02491MA1999999100961MD1999999-0151MW1011REMSYN100AAXX  11004 83229 215// 30904 10234 20203 30096 40156 70152 83400 333 10249 29084 55019 59015 69941;
0201832290999992001071112004-13010-038510FM-12+005199999V0200901N001510042019N0040001N1+02301+02231101691ADDAA124003091AY151061AY221061GF108991081071004501999999KA1240N+02121MA1999999101091MD1999999+0031MW1611REMSYN088AAXX  11124 83229 21496 80903 10230 20223 30109 40169 76152 887// 333 20212 58003 60034;
0182832290999992001071118004-13010-038510FM-12+005199999V0200901N003110120019N0040001N1+02381+02221101481ADDAA106004191AY161061AY221061GF107991071051012501001001MA1999999100881MD1999999-0051MW1031REMSYN082AAXX  11184 83229 21696 70906 10238 20222 30088 40148 70362 87500 333 59005 60041;
0201832290999992001071212004-13010-038510FM-12+005199999V0202301N002110450019N0040001N1+02341+02241101761ADDAA124023991AY161061AY261061GF106991031051004501071001KA1240N+02221MA1999999101161MD1999999+0071MW1011REMSYN088AAXX  12124 83229 21496 62304 10234 20224 30116 40176 70166 83570 333 20222 58007 60244;
0167832290999992001071218004-13010-038510FM-12+005199999V0201801N001512200019N0100001N1+02581+02191101511ADDAA199000091GF101991001001999999001011MA1999999100921MD1999999+0041REMSYN070AAXX  12184 83229 32997 11803 10258 20219 30092 40151 80001 333 58004;EQDQ01  00002PRCP99
0198832290999992001071300004-13010-038510FM-12+005199999V0200501N001512200019N9999999N1+02291+02161101521ADDAA199000091GF101991011021008001001001KA1240M+02641MA1999999100921MD1999999-0141REMSYN088AAXX  13004 83229 325// 10503 10229 20216 30092 40152 81200 333 10264 29090 55062 59014;EQDQ01  00002PRCP99
0186832290999992001071312004-13010-038510FM-12+005199999V0202301N001510042019N0200001N1+02421+02261101621ADDAA199000091GF106991061051004501001001KA1240N+02221MA1999999101021MD1999999-0141REMSYN076AAXX  13124 83229 32498 62303 10242 20226 30102 40162 86500 333 20222 59014;EQDQ01  00002PRCP99
0167832290999992001071318004-13010-038510FM-12+005199999V0201801N002612200019N0200001N1+02581+02251101531ADDAA199000091GF103991021021008001001011MA1999999100941MD1999999+0021REMSYN070AAXX  13184 83229 32598 31805 10258 20225 30094 40153 82201 333 58002;EQDQ01  00002PRCP99
0201832290999992001071612004-13010-038510FM-12+005199999V0200901N001512200019N0100001N1+02371+02241101921ADDAA124004191AY161061AY261061GF104991031051004501021001KA1240N+02101MA1999999101321MD1999999+0171MW1601REMSYN088AAXX  16124 83229 21497 40903 10237 20224 30132 40192 76066 83520 333 20210 58017 60044;
0148832290999992001071618004-13010-038510FM-12+005199999V0200901N002110075019N0100001N1+02571+02231101781ADDAA199000021GF106991061051008001001001MA1999999101181MD1999999+0161REMSYN070AAXX  16184 83229 32597 60904 10257 20223 30118 40178 86500 333 58016;
0179832290999992001071700004-13010-038510FM-12+005199999V0201401N003110075019N9999999N1+02431+01991101911ADDAA199000021GF106991051051008001001061KA1240M+02711MA1999999101311MD1999999+0201REMSYN088AAXX  17004 83229 325// 61406 10243 20199 30131 40191 85506 333 10271 29082 55066 58020;
0201832290999992001071712004-13010-038510FM-12+005199999V0201801N002110042019N0020001N1+02341+02241101861ADDAA124023191AY161061AY221061GF108991081071004501999999KA1240N+02141MA1999999101261MD1999999-0061MW1621REMSYN088AAXX  17124 83229 21495 81804 10234 20224 30126 40186 76262 887// 333 20214 59006 60234;
0182832290999992001071718004-13010-038510FM-12+005199999V0201401N003110042019N0040001N1+02611+02291101731ADDAA106010991AY191061AY261061GF106991051051004501001061MA1999999101131MD1999999-0051MW1011REMSYN082AAXX  17184 83229 21496 61406 10261 20229 30113 40173 70196 85506 333 59005 60111;
0213832290999992001071800004-13010-038510FM-12+005199999V0203601N000510042019N9999999N1+02231+02151101921ADDAA106022191AY161061AY261061GF108991081071004501999999KA1240M+02621MA1999999101311MD1999999+0001MW1951REMSYN100AAXX  18004 83229 214// 83601 10223 20215 30131 40192 79566 887// 333 10262 29092 55028 58000 60221;
0201832290999992001071812004-13010-038510FM-12+005199999V0201801N000510042019N0040001N1+02511+02191101921ADDAA124066091AY161061AY261061GF107991071051004501001061KA1240N+02091MA1999999101321MD1999999+0061MW1031REMSYN088AAXX  18124 83229 21496 71801 10251 20219 30132 40192 70366 87506 333 20209 58006 60664;
0213832290999992001071900004-13010-038510FM-12+005199999V0201401N002112200019N9999999N1+02381+02071101801ADDAA106000191AY151061AY251061GF103991031041008001001001KA1240M+02721MA1999999101201MD1999999-0111MW1011REMSYN100AAXX  19004 83229 215// 31404 10238 20207 30120 40180 70155 83400 333 10272 29082 55056 59011 69921;
0173832290999992001071912004-13010-038510FM-12+005199999V0201401N002110042019N0040001N1+02441+02111101961ADDAA124000391GF106991061051004501001001KA1240N+02261MA1999999101331MD1999999+0011REMSYN082AAXX  19124 83229 22496 61404 10244 20211 30133 40196 86500 333 20226 58001 69934;
0177832290999992001071918004-13010-038510FM-12+005199999V0200901N001512200019N0200001N1+02661+02271101771ADDAA199000091GA1001+999999999GF100991001001999999001001MA1999999101171MD1999999+0091REMSYN064AAXX  19184 83229 32998 00903 10266 20227 30117 40177 333 58009;EQDQ01  00002PRCP99
0198832290999992001072000004-13010-038510FM-12+005199999V0201401N002110075019N9999999N1+02321+01981101771ADDAA199000091GF105991051041008001001001KA1240M+02721MA1999999101171MD1999999-0031REMSYN088AAXX  20004 83229 325// 51404 10232 20198 30117 40177 85400 333 10272 29081 55087 59003;EQDQ01  00002PRCP99
0186832290999992001072012004-13010-038510FM-12+005199999V0200901N001012200019N0200001N1+02521+02071101781ADDAA199000091GF102991021021012501001001KA1240N+02171MA1999999101181MD1999999+0151REMSYN076AAXX  20124 83229 32698 20902 10252 20207 30118 40178 82200 333 20217 58015;EQDQ01  00002PRCP99
0167832290999992001072018004-13010-038510FM-12+005199999V0201401N001512200019N0100001N1+02521+02131101551ADDAA199000091GF101991001001999999001061MA1999999100951MD1999999-0221REMSYN070AAXX  20184 83229 32997 11403 10252 20213 30095 40155 80006 333 59022;EQDQ01  00002PRCP99
0198832290999992001072100004-13010-038510FM-12+005199999V0200901N002112200019N9999999N1+02341+01981101631ADDAA199000091GF101991011021008001001001KA1240M+02701MA1999999101031MD1999999-0141REMSYN088AAXX  21004 83229 325// 10904 10234 20198 30103 40163 81200 333 10270 29079 55074 59014;EQDQ01  00002PRCP99
0186832290999992001072112004-13010-038510FM-12+005199999V0202301N001512200019N0200001N1+02441+02231101851ADDAA199000091GF102991021021008001041001KA1240N+02181MA1999999101251MD1999999+0071REMSYN076AAXX  21124 83229 32598 22303 10244 20223 30125 40185 82240 333 20218 58007;EQDQ01  00002PRCP99
0167832290999992001072118004-13010-038510FM-12+005199999V0201401N001012200019N0200001N1+02581+02211101521ADDAA199000091GF101991011011012501001001MA1999999100931MD1999999-0021REMSYN070AAXX  21184 83229 32698 11402 10258 20221 30093 40152 81100 333 59002;EQDQ01  00002PRCP99
0208832290999992001072200004-13010-038510FM-12+005199999V0200501N001012200019N9999999N1+02281+02051101661ADDAA199000091GA1001+999999999GF100991001001999999001001KA1240M+02661MA1999999101061MD1999999+0031REMSYN082AAXX  22004 83229 329// 00502 10228 20205 30106 40166 333 10266 29086 55080 58003;EQDQ01  00002PRCP99
0186832290999992001072212004-13010-038510FM-12+005199999V0203201N001512200019N0100001N1+02501+02271101721ADDAA199000091GF102991021021008001061001KA1240N+02171MA1999999101121MD1999999-0131REMSYN076AAXX  22124 83229 32597 23203 10250 20227 30112 40172 82260 333 20217 59013;EQDQ01  00002PRCP99
0167832290999992001072218004-13010-038510FM-12+005199999V0200901N002612200019N0200001N1+02681+02281101431ADDAA199000091GF102991011021008001001051MA1999999100841MD1999999-0091REMSYN070AAXX  22184 83229 32598 20905 10268 20228 30084 40143 81205 333 59009;EQDQ01  00002PRCP99
0208832290999992001072300004-13010-038510FM-12+005199999V0200501N001012200019N9999999N1+02371+02221101571ADDAA199000091GA1001+999999999GF100991001001999999001001KA1240M+02721MA1999999100971MD1999999-0091REMSYN082AAXX  23004 83229 329// 00502 10237 20222 30097 40157 333 10272 29088 55069 59009;EQDQ01  00002PRCP99
0186832290999992001072312004-13010-038510FM-12+005199999V0201401N002112200019N0200001N1+02621+02251101841ADDAA199000091GF103991021021008001061051KA1240N+02301MA1999999101241MD1999999+0121REMSYN076AAXX  23124 83229 32598 31404 10262 20225 30124 40184 82265 333 20230 58012;EQDQ01  00002PRCP99
0167832290999992001072318004-13010-038510FM-12+005199999V0201401N002112200019N0200001N1+02641+02071101681ADDAA199000091GF101991011021008001001001MA1999999101081MD1999999+0241REMSYN070AAXX  23184 83229 32598 11404 10264 20207 30108 40168 81200 333 58024;EQDQ01  00002PRCP99
0208832290999992001072400004-13010-038510FM-12+005199999V0201401N002612200019N9999999N1+02421+02051101801ADDAA199000091GA1001+999999999GF100991001001999999001001KA1240M+02781MA1999999101201MD1999999+0231REMSYN082AAXX  24004 83229 329// 01405 10242 20205 30120 40180 333 10278 29078 55090 58023;EQDQ01  00002PRCP99
0186832290999992001072412004-13010-038510FM-12+005199999V0201401N003112200019N0200001N1+02591+01991101951ADDAA199000091GF101991011021008001001001KA1240N+02361MA1999999101351MD1999999+0111REMSYN076AAXX  24124 83229 32598 11406 10259 20199 30135 40195 81200 333 20236 58011;EQDQ01  00002PRCP99
0167832290999992001072418004-13010-038510FM-12+005199999V0200901N003112200019N0200001N1+02641+02051101891ADDAA199000091GF103991031041008001001001MA1999999101291MD1999999+0211REMSYN070AAXX  24184 83229 32598 30906 10264 20205 30129 40189 83400 333 58021;EQDQ01  00002PRCP99
0213832290999992001072500004-13010-038510FM-12+005199999V0200501N000512200019N9999999N1+02221+02121101841ADDAA106004191AY161061AY201061GF104991041051004501001001KA1240M+02711MA1999999101231MD1999999+0031MW1031REMSYN100AAXX  25004 83229 214// 40501 10222 20212 30123 40184 70360 84500 333 10271 29082 55085 58003 60041;
0201832290999992001072512004-13010-038510FM-12+005199999V0201401N001012200019N0100001N1+02521+02151101801ADDAA124007991AY161061AY261061GF102991021021008001001001KA1240N+02421MA1999999101201MD1999999-0151MW1031REMSYN088AAXX  25124 83229 21597 21402 10252 20215 30120 40180 70366 82200 333 20242 59015 60084;
0167832290999992001072518004-13010-038510FM-12+005199999V0200901N002610042019N0100001N1+02661+02071101751ADDAA199000091GF106991061051004501001001MA1999999101161MD1999999-0131REMSYN070AAXX  25184 83229 32497 60905 10266 20207 30116 40175 86500 333 59013;EQDQ01  00002PRCP99
0198832290999992001072600004-13010-038510FM-12+005199999V0200901N003112200019N9999999N1+02341+01951101791ADDAA199000091GF101991011021008001001001KA1240M+02771MA1999999101191MD1999999-0041REMSYN088AAXX  26004 83229 325// 10906 10234 20195 30119 40179 81200 333 10277 29077 55082 59004;EQDQ01  00002PRCP99
0186832290999992001072612004-13010-038510FM-12+005199999V0201401N003112200019N0100001N1+02541+02021102011ADDAA199000091GF103991021041008001001011KA1240N+02321MA1999999101411MD1999999+0211REMSYN076AAXX  26124 83229 32597 31406 10254 20202 30141 40201 82401 333 20232 58021;EQDQ01  00002PRCP99
0167832290999992001072618004-13010-038510FM-12+005199999V0200901N003610075019N0100001N1+02651+02071101901ADDAA199000091GF107991051051008001031001MA1999999101301MD1999999+0141REMSYN070AAXX  26184 83229 32597 70907 10265 20207 30130 40190 85530 333 58014;EQDQ01  00002PRCP99
0213832290999992001072700004-13010-038510FM-12+005199999V0200901N002112200019N9999999N1+02281+02001101951ADDAA106002091AY161061AY221061GF101991011021008001001001KA1240M+02701MA1999999101351MD1999999+0161MW1021REMSYN100AAXX  27004 83229 215// 10904 10228 20200 30135 40195 70262 81200 333 10270 29078 55080 58016 60021;
0193832290999992001072712004-13010-038510FM-12+005199999V0200501N002112200019N0200001N1+02471+02091102031ADDAA124006191AY161061GF102991021021008001061001KA1240N+02081MA1999999101431MD1999999+0021MW1011REMSYN088AAXX  27124 83229 21598 20504 10247 20209 30143 40203 7016/ 82260 333 20208 58002 60064;
0167832290999992001072718004-13010-038510FM-12+005199999V0200901N001512200019N0200001N1+02651+02091101821ADDAA199000091GF102991021021008001001001MA1999999101231MD1999999-0071REMSYN070AAXX  27184 83229 32598 20903 10265 20209 30123 40182 82200 333 59007;EQDQ01  00002PRCP99
0198832290999992001072800004-13010-038510FM-12+005199999V0209999C000012200019N9999999N1+02261+01881101971ADDAA199000091GF103991031051008001001001KA1240M+02751MA1999999101361MD1999999+0011REMSYN088AAXX  28004 83229 325// 30000 10226 20188 30136 40197 83500 333 10275 29078 55077 58001;EQDQ01  00002PRCP99
0201832290999992001072812004-13010-038510FM-12+005199999V0202301N001010120019N0200001N1+02301+02161102041ADDAA124003091AY161061AY251061GF106991051081008001041001KA1240N+02161MA1999999101441MD1999999+0011MW1031REMSYN088AAXX  28124 83229 21598 62302 10230 20216 30144 40204 70365 85840 333 20216 58001 60034;
0167832290999992001072818004-13010-038510FM-12+005199999V0201401N001512200019N0200001N1+02471+02071101761ADDAA199000091GF102991011021008001041061MA1999999101161MD1999999-0071REMSYN070AAXX  28184 83229 32598 21403 10247 20207 30116 40176 81246 333 59007;EQDQ01  00002PRCP99
0198832290999992001072900004-13010-038510FM-12+005199999V0201401N001510075019N9999999N1+02331+02051101911ADDAA199000091GF106991051041008001031001KA1240M+02511MA1999999101311MD1999999-0051REMSYN088AAXX  29004 83229 325// 61403 10233 20205 30131 40191 85430 333 10251 29088 55051 59005;EQDQ01  00002PRCP99
0186832290999992001072912004-13010-038510FM-12+005199999V0201401N001512200019N0200001N1+02541+02021102001ADDAA199000091GF102991011021008001001011KA1240N+02221MA1999999101401MD1999999-0041REMSYN076AAXX  29124 83229 32598 21403 10254 20202 30140 40200 81201 333 20222 59004;EQDQ01  00002PRCP99
0167832290999992001072918004-13010-038510FM-12+005199999V0201401N002612200019N0100001N1+02561+02131101881ADDAA199000091GF103991031041008001001001MA1999999101281MD1999999+0121REMSYN070AAXX  29184 83229 32597 31405 10256 20213 30128 40188 83400 333 58012;EQDQ01  00002PRCP99
0198832290999992001073000004-13010-038510FM-12+005199999V0201801N003112200019N9999999N1+02351+01911101971ADDAA199000091GF101991011041008001001001KA1240M+02661MA1999999101371MD1999999+0061REMSYN088AAXX  30004 83229 325// 11806 10235 20191 30137 40197 81400 333 10266 29076 55086 58006;EQDQ01  00002PRCP99
0186832290999992001073012004-13010-038510FM-12+005199999V0201401N001512200019N0200001N1+02491+02091102161ADDAA199000091GF102991021021017501051001KA1240N+02251MA1999999101561MD1999999-0161REMSYN076AAXX  30124 83229 32798 21403 10249 20209 30156 40216 82250 333 20225 59016;EQDQ01  00002PRCP99
0167832290999992001073018004-13010-038510FM-12+005199999V0201401N002612200019N0200001N1+02581+02121101941ADDAA199000091GF102991021041008001001001MA1999999101341MD1999999+0061REMSYN070AAXX  30184 83229 32598 21405 10258 20212 30134 40194 82400 333 58006;EQDQ01  00002PRCP99
0213832290999992001073100004-13010-038510FM-12+005199999V0201401N003112200019N9999999N1+02341+01981102041ADDAA106002091AY161061AY201061GF103991031041008001001001KA1240M+02681MA1999999101441MD1999999+0071MW1031REMSYN100AAXX  31004 83229 215// 31406 10234 20198 30144 40204 70360 83400 333 10268 29078 55087 58007 60021;
0173832290999992001073112004-13010-038510FM-12+005199999V0200901N002110450019N0040001N1+02521+02091102171ADDAA124002091GF107991041051004501071001KA1240N+02221MA1999999101571MD1999999+0011REMSYN082AAXX  31124 83229 22496 70904 10252 20209 30157 40217 84570 333 20222 58001 60024;
0167832290999992001073118004-13010-038510FM-12+005199999V0200901N002612200019N0200001N1+02671+02141102001ADDAA199000091GF103991031041008001001001MA1999999101401MD1999999+0061REMSYN070AAXX  31184 83229 32598 30905 10267 20214 30140 40200 83400 333 58006;EQDQ01  00002PRCP99
0213832290999992001080100004-13010-038510FM-12+005199999V0201401N003110042019N9999999N1+02371+02291102101ADDAA106000191AY151061AY201061GF107991071051004501001001KA1240M+02701MA1999999101501MD1999999+0061MW1031REMSYN100AAXX  01004 83229 214// 71406 10237 20229 30150 40210 70350 87500 333 10270 29086 55074 58006 69911;
0201832290999992001080112004-13010-038510FM-12+005199999V0201401N002610450019N0040001N1+02461+02031102301ADDAA124008991AY161061AY251061GF106991041051004501031001KA1240N+02011MA1999999101701MD1999999+0131MW1031REMSYN088AAXX  01124 83229 21496 61405 10246 20203 30170 40230 70365 84530 333 20201 58013 60094;
0167832290999992001080118004-13010-038510FM-12+005199999V0201401N003112200019N0200001N1+02731+02381102001ADDAA199000091GF103991031051008001001001MA1999999101401MD1999999+0001REMSYN070AAXX  01184 83229 32598 31406 10273 20238 30140 40200 83500 333 58000;EQDQ01  00002PRCP99
0213832290999992001080200004-13010-038510FM-12+005199999V0200901N002612200019N9999999N1+02391+01951102211ADDAA106000391AY151061AY201061GF104991041041004501001001KA1240M+02761MA1999999101611MD1999999+0111MW1031REMSYN100AAXX  02004 83229 214// 40905 10239 20195 30161 40221 70350 84400 333 10276 29078 55071 58011 69931;
0173832290999992001080212004-13010-038510FM-12+005199999V0201401N002112200019N0100001N1+02491+02111102261ADDAA124000391GF103991021031008001041001KA1240N+02301MA1999999101661MD1999999-0041REMSYN082AAXX  02124 83229 22597 31404 10249 20211 30166 40226 82340 333 20230 59004 69934;
0167832290999992001080218004-13010-038510FM-12+005199999V0201401N003112200019N0100001N1+02521+02021102041ADDAA199000091GF103991021041008001041001MA1999999101441MD1999999+0041REMSYN070AAXX  02184 83229 32597 31406 10252 20202 30144 40204 82440 333 58004;EQDQ01  00002PRCP99
0198832290999992001080300004-13010-038510FM-12+005199999V0201401N003612200019N9999999N1+02371+01661102221ADDAA199000091GF101991011021008001001001KA1240M+02661MA1999999101621MD1999999+0011REMSYN088AAXX  03004 83229 325// 11407 10237 20166 30162 40222 81200 333 10266 29071 55062 58001;EQDQ01  00002PRCP99
0201832290999992001080312004-13010-038510FM-12+005199999V0200901N001010450019N0100001N1+02281+02091102261ADDAA124002091AY161061AY251061GF106991041081008001061001KA1240N+02081MA1999999101651MD1999999-0011MW1211REMSYN088AAXX  03124 83229 21597 60902 10228 20209 30165 40226 72165 84860 333 20208 59001 60024;
0182832290999992001080318004-13010-038510FM-12+005199999V0201401N003612200019N0100001N1+02591+02041102021ADDAA106000591AY161061AY211061GF104991021021008001061051MA1999999101421MD1999999-0021MW1031REMSYN082AAXX  03184 83229 21597 41407 10259 20204 30142 40202 70361 82265 333 59002 69961;
0213832290999992001080400004-13010-038510FM-12+005199999V0201401N003610450019N9999999N1+02241+01941102171ADDAA106001091AY161061AY211061GF107991031081008001051001KA1240M+02731MA1999999101561MD1999999-0061MW1211REMSYN100AAXX  04004 83229 215// 71407 10224 20194 30156 40217 72161 83850 333 10273 29082 55061 59006 60011;
0201832290999992001080412004-13010-038510FM-12+005199999V0201401N003112200019N0200001N1+02571+02171101841ADDAA124002091AY161061AY221061GF103991031031022501001001KA1240N+02121MA1999999101241MD1999999-0411MW1031REMSYN088AAXX  04124 83229 21898 31406 10257 20217 30124 40184 70362 83300 333 20212 59041 60024;
0182832290999992001080418004-13010-038510FM-12+005199999V0201401N003610450019N0040001N1+02441+01971101981ADDAA106000191AY151061AY201061GF107991021051004501071001MA1999999101381MD1999999-0041MW1031REMSYN082AAXX  04184 83229 21496 71407 10244 20197 30138 40198 70350 82570 333 59004 69911;
0213832290999992001080500004-13010-038510FM-12+005199999V0201801N003110450019N9999999N1+02201+02061101991ADDAA106000191AY151061AY251061GF107991031051004501071001KA1240M+02621MA1999999101381MD1999999-0181MW1031REMSYN100AAXX  05004 83229 214// 71806 10220 20206 30138 40199 70355 83570 333 10262 29084 55034 59018 69921;
0201832290999992001080512004-13010-038510FM-12+005199999V0201401N005110120019N0020001N1+02371+02131102111ADDAA124003091AY161061AY251061GF107991071051012501001001KA1240N+02151MA1999999101511MD1999999+0271MW1031REMSYN088AAXX  05124 83229 21695 71410 10237 20213 30151 40211 70365 87500 333 20215 58027 60034;
0182832290999992001080518004-13010-038510FM-12+005199999V0201401N003110042019N0020001N1+02481+02131101941ADDAA106001091AY161061AY261061GF108991081071004501999999MA1999999101341MD1999999-0041MW1601REMSYN082AAXX  05184 83229 21495 81406 10248 20213 30134 40194 76066 887// 333 59004 60011;
0213832290999992001080600004-13010-038510FM-12+005199999V0201401N004110450019N9999999N1+02371+01761102041ADDAA106001091AY161061AY261061GF106991011041004501031001KA1240M+02561MA1999999101441MD1999999+0061MW1031REMSYN100AAXX  06004 83229 214// 61408 10237 20176 30144 40204 70366 81430 333 10256 29076 55007 58006 60011;
0201832290999992001080612004-13010-038510FM-12+005199999V0201801N003610210019N0100001N1+02471+02311102161ADDAA124003091AY161061AY251061GF106991061001022501051001KA1240N+02121MA1999999101561MD1999999+0051MW1031REMSYN088AAXX  06124 83229 21897 61807 10247 20231 30156 40216 70365 86050 333 20212 58005 60034;
0198832290999992001080700004-13010-038510FM-12+005199999V0201401N003112200019N9999999N1+02371+01871102151ADDAA199000091GF103991021021008001021001KA1240M+02651MA1999999101551MD1999999+0111REMSYN088AAXX  07004 83229 325// 31406 10237 20187 30155 40215 82220 333 10265 29077 55046 58011;EQDQ01  00002PRCP99
0186832290999992001080712004-13010-038510FM-12+005199999V0201801N003112200019N0200001N1+02501+02111102261ADDAA199000091GF103991031021022501001001KA1240N+02311MA1999999101661MD1999999+0101REMSYN076AAXX  07124 83229 32898 31806 10250 20211 30166 40226 83200 333 20231 58010;EQDQ01  00002PRCP99
0182832290999992001080718004-13010-038510FM-12+005199999V0201401N003112200019N0200001N1+02501+02001102041ADDAA106001091AY161061AY201061GF101991011021008001001001MA1999999101441MD1999999-0041MW1021REMSYN082AAXX  07184 83229 21598 11406 10250 20200 30144 40204 70260 81200 333 59004 60011;
0213832290999992001080800004-13010-038510FM-12+005199999V0201801N004610042019N9999999N1+02141+01971102151ADDAA106000191AY151061AY251061GF107991071071004501001001KA1240M+02611MA1999999101541MD1999999-0011MW1031REMSYN100AAXX  08004 83229 214// 71809 10214 20197 30154 40215 70355 87700 333 10261 29083 55069 59001 69921;
0201832290999992001080812004-13010-038510FM-12+005199999V0201401N004110450019N0040001N1+02371+01931102281ADDAA124009991AY161061AY251061GF107991041081008001021001KA1240N+02081MA1999999101671MD1999999+0011MW1031REMSYN088AAXX  08124 83229 21596 71408 10237 20193 30167 40228 70365 84820 333 20208 58001 60104;
0182832290999992001080818004-13010-038510FM-12+005199999V0201401N003610450019N0040001N1+02371+01781102051ADDAA106001091AY161061AY221061GF108991031061008001021999MA1999999101451MD1999999+0011MW1031REMSYN082AAXX  08184 83229 21596 81407 10237 20178 30145 40205 70362 8362/ 333 58001 60011;
0198832290999992001080900004-13010-038510FM-12+005199999V0201401N003110450019N9999999N1+02291+01941102181ADDAA199000091GF106991021081008001011001KA1240M+02431MA1999999101571MD1999999+0031REMSYN088AAXX  09004 83229 325// 61406 10229 20194 30157 40218 82810 333 10243 29077 55000 58003;EQDQ01  00002PRCP99
0173832290999992001080912004-13010-038510FM-12+005199999V0201401N003112200019N0100001N1+02511+01841102251ADDAA124001091GF103991021021008001061051KA1240N+02061MA1999999101651MD1999999-0021REMSYN082AAXX  09124 83229 22597 31406 10251 20184 30165 40225 82265 333 20206 59002 60014;
0167832290999992001080918004-13010-038510FM-12+005199999V0201401N002612200019N0040001N1+02541+01951102031ADDAA199000091GF102991021021008001041001MA1999999101431MD1999999-0021REMSYN070AAXX  09184 83229 32596 21405 10254 20195 30143 40203 82240 333 59002;EQDQ01  00002PRCP99
0198832290999992001081000004-13010-038510FM-12+005199999V0201401N002612200019N9999999N1+02321+01851102171ADDAA199000091GF102991011021008001061001KA1240M+02711MA1999999101561MD1999999-0011REMSYN088AAXX  10004 83229 325// 21405 10232 20185 30156 40217 81260 333 10271 29072 55084 59001;EQDQ01  00002PRCP99
0201832290999992001081012004-13010-038510FM-12+005199999V0201801N001012200019N0200001N1+02481+02111102181ADDAA124001091AY161061AY261061GF102991021021008001001001KA1240N+02091MA1999999101571MD1999999-0081MW1031REMSYN088AAXX  10124 83229 21598 21802 10248 20211 30157 40218 70366 82200 333 20209 59008 60014;
0213832290999992001081100004-13010-038510FM-12+005199999V0200901N001510150019N9999999N1+02051+01921102031ADDAA106002091AY161061AY251061GF107991051001017501051081KA1240M+02621MA1999999101421MD1999999-0141MW1031REMSYN100AAXX  11004 83229 217// 70903 10205 20192 30142 40203 70365 85058 333 10262 29086 55052 59014 60021;
0182832290999992001081118004-13010-038510FM-12+005199999V0201401N003110042019N0040001N1+02321+02131101931ADDAA106003091AY161061AY261061GF108991081051004501999999MA1999999101331MD1999999-0031MW1031REMSYN082AAXX  11184 83229 21496 81406 10232 20213 30133 40193 70366 885// 333 59003 60031;
0213832290999992001081200004-13010-038510FM-12+005199999V0201401N002611050019N9999999N1+02361+01831102051ADDAA106001091AY161061AY261061GF106991041001017501071081KA1240M+02381MA1999999101451MD1999999+0031MW1011REMSYN100AAXX  12004 83229 217// 61405 10236 20183 30145 40205 70166 84078 333 10238 29079 55000 58003 60011;
0201832290999992001081212004-13010-038510FM-12+005199999V0200901N001510042019N0040001N1+02371+01991102191ADDAA124006191AY161061AY251061GF107991071051004501001001KA1240N+02031MA1999999101591MD1999999+0031MW1031REMSYN088AAXX  12124 83229 21496 70903 10237 20199 30159 40219 70365 87500 333 20203 58003 60064;
0167832290999992001081218004-13010-038510FM-12+005199999V0201401N001510450019N0100001N1+02501+01941102051ADDAA199000091GF108991021051017501071999MA1999999101451MD1999999+0121REMSYN070AAXX  12184 83229 32797 81403 10250 20194 30145 40205 8257/ 333 58012;EQDQ01  00002PRCP99
0213832290999992001081300004-13010-038510FM-12+005199999V0201401N001510075019N9999999N1+02381+01841102191ADDAA106000191AY151061AY221061GF105991051051008001001001KA1240M+02681MA1999999101591MD1999999+0141MW1031REMSYN100AAXX  13004 83229 215// 51403 10238 20184 30159 40219 70352 85500 333 10268 29074 55031 58014 69911;
0201832290999992001081312004-13010-038510FM-12+005199999V0201401N001010450019N0040001N1+02281+02091102161ADDAA124005191AY161061AY251061GF106991041051004501051001KA1240N+02061MA1999999101551MD1999999-0041MW1011REMSYN088AAXX  13124 83229 21496 61402 10228 20209 30155 40216 70165 84550 333 20206 59004 60054;
0167832290999992001081318004-13010-038510FM-12+005199999V0201401N004610450019N0040001N1+02501+01961102011ADDAA199000091GF107991031051004501071081MA1999999101411MD1999999-0041REMSYN070AAXX  13184 83229 32496 71409 10250 20196 30141 40201 83578 333 59004;EQDQ01  00002PRCP99
0213832290999992001081400004-13010-038510FM-12+005199999V0201401N003112200019N9999999N1+02301+01981102121ADDAA106000891AY151061AY221061GF101991011021008001001001KA1240M+02661MA1999999101511MD1999999-0081MW1021REMSYN100AAXX  14004 83229 215// 11406 10230 20198 30151 40212 70252 81200 333 10266 29081 55044 59008 69971;
0173832290999992001081412004-13010-038510FM-12+005199999V0201401N002612200019N0200001N1+02451+01861102141ADDAA124000891GF103991021021008001061051KA1240N+02161MA1999999101541MD1999999-0011REMSYN082AAXX  14124 83229 22598 31405 10245 20186 30154 40214 82265 333 20216 59001 69974;
0167832290999992001081418004-13010-038510FM-12+005199999V0201401N002112200019N0200001N1+02591+01851102001ADDAA199000091GF102991011021008001041001MA1999999101401MD1999999-0011REMSYN070AAXX  14184 83229 32598 21404 10259 20185 30140 40200 81240 333 59001;EQDQ01  00002PRCP99
0198832290999992001081500004-13010-038510FM-12+005199999V0201401N002110450019N9999999N1+02381+01891102121ADDAA199000091GF107991011021008001051001KA1240M+02641MA1999999101521MD1999999+0011REMSYN088AAXX  15004 83229 325// 71404 10238 20189 30152 40212 81250 333 10264 29070 55083 58001;EQDQ01  00002PRCP99
0201832290999992001081512004-13010-038510FM-12+005199999V0200501N002610450019N0100001N1+02311+01811102281ADDAA124001091AY161061AY221061GF106991041081008001061001KA1240N+02001MA1999999101671MD1999999+0131MW1031REMSYN088AAXX  15124 83229 21597 60505 10231 20181 30167 40228 70362 84860 333 20200 58013 60014;
0167832290999992001081518004-13010-038510FM-12+005199999V0201401N003112200019N0200001N1+02511+01821102031ADDAA199000091GF102991021021008001041001MA1999999101431MD1999999+0031REMSYN070AAXX  15184 83229 32598 21406 10251 20182 30143 40203 82240 333 58003;EQDQ01  00002PRCP99
0213832290999992001081600004-13010-038510FM-12+005199999V0201401N003112200019N9999999N1+02321+01791102201ADDAA106000391AY191061AY251061GF103991031021008001001001KA1240M+02601MA1999999101591MD1999999+0071MW1011REMSYN100AAXX  16004 83229 215// 31406 10232 20179 30159 40220 70195 83200 333 10260 29071 55057 58007 69931;
0173832290999992001081612004-13010-038510FM-12+005199999V0201401N002110450019N0100001N1+02441+01831102281ADDAA124000391GF105991031051008001031001KA1240N+02151MA1999999101681MD1999999+0011REMSYN082AAXX  16124 83229 22597 51404 10244 20183 30168 40228 83530 333 20215 58001 69934;
0167832290999992001081618004-13010-038510FM-12+005199999V0201401N003612200019N0200001N1+02491+02191102061ADDAA199000091GF104991041021008001001001MA1999999101461MD1999999+0031REMSYN070AAXX  16184 83229 32598 41407 10249 20219 30146 40206 84200 333 58003;EQDQ01  00002PRCP99
0198832290999992001081700004-13010-038510FM-12+005199999V0201401N003112200019N9999999N1+02311+01901102171ADDAA199000091GF103991031021008001001001KA1240M+02571MA1999999101561MD1999999-0031REMSYN088AAXX  17004 83229 325// 31406 10231 20190 30156 40217 83200 333 10257 29077 55068 59003;EQDQ01  00002PRCP99
0201832290999992001081712004-13010-038510FM-12+005199999V0201401N002610042019N0040001N1+02191+01971102261ADDAA124002091AY121061AY211061GF107991071071004501001001KA1240N+02141MA1999999101651MD1999999-0031MW1621REMSYN088AAXX  17124 83229 21496 71405 10219 20197 30165 40226 76221 87700 333 20214 59003 60024;
0148832290999992001081718004-13010-038510FM-12+005199999V0201801N002610450019N0100001N1+02391+02091101981ADDAA199000021GF106991041081008001041001MA1999999101381MD1999999-0081REMSYN070AAXX  17184 83229 32597 61805 10239 20209 30138 40198 84840 333 59008;
0213832290999992001081800004-13010-038510FM-12+005199999V0201401N002612200019N9999999N1+02281+02031102071ADDAA106000891AY151061AY221061GF101991011021008001001001KA1240M+02601MA1999999101461MD1999999-0101MW1521REMSYN100AAXX  18004 83229 215// 11405 10228 20203 30146 40207 75252 81200 333 10260 29086 55041 59010 69981;
0201832290999992001081812004-13010-038510FM-12+005199999V0201401N002112200019N0100001N1+02571+02171102111ADDAA124001091AY151061AY251061GF104991031051008001001011KA1240N+02111MA1999999101511MD1999999-0141MW1011REMSYN088AAXX  18124 83229 21597 41404 10257 20217 30151 40211 70155 83501 333 20211 59014 60014;
0167832290999992001081818004-13010-038510FM-12+005199999V0200901N003112200019N0100001N1+02651+02181102001ADDAA199000091GF104991031041008001001011MA1999999101401MD1999999+0021REMSYN070AAXX  18184 83229 32597 40906 10265 20218 30140 40200 83401 333 58002;EQDQ01  00002PRCP99
0198832290999992001081900004-13010-038510FM-12+005199999V0201401N003112200019N9999999N1+02351+02051102131ADDAA199000091GF101991011021008001001001KA1240M+02751MA1999999101531MD1999999+0071REMSYN088AAXX  19004 83229 325// 11406 10235 20205 30153 40213 81200 333 10275 29081 55093 58007;EQDQ01  00002PRCP99
0201832290999992001081912004-13010-038510FM-12+005199999V0201401N002610042019N0020001N1+02251+02191102191ADDAA124013091AY161061AY201061GF108991081071004501999999KA1240N+02101MA1999999101581MD1999999+0071MW1621REMSYN088AAXX  19124 83229 21495 81405 10225 20219 30158 40219 76260 887// 333 20210 58007 60134;
0182832290999992001081918004-13010-038510FM-12+005199999V0201401N003110042019N0020001N1+02201+02151102041ADDAA106016091AY101061AY241061GF108991081071004501999999MA1999999101431MD1999999+0031MW1021REMSYN082AAXX  19184 83229 21495 81406 10220 20215 30143 40204 70204 887// 333 58003 60161;
0213832290999992001082000004-13010-038510FM-12+005199999V0201401N003612200019N9999999N1+02281+02111102141ADDAA106011991AY161061AY261061GF105991031051004501001081KA1240M+02371MA1999999101531MD1999999+0001MW1031REMSYN100AAXX  20004 83229 214// 51407 10228 20211 30153 40214 70366 83508 333 10237 29094 55001 58000 60121;
0173832290999992001082012004-13010-038510FM-12+005199999V0201401N002112200019N0200001N1+02531+02091102331ADDAA124027991GF102991021021008001061001KA1240N+02021MA1999999101731MD1999999+0151REMSYN082AAXX  20124 83229 22598 21404 10253 20209 30173 40233 82260 333 20202 58015 60284;
0182832290999992001082018004-13010-038510FM-12+005199999V0201401N003110450019N0100001N1+02221+02081102091ADDAA106001091AY111061AY211061GF107991041081008001021001MA1999999101481MD1999999+0051MW1211REMSYN082AAXX  20184 83229 21597 71406 10222 20208 30148 40209 72111 84820 333 58005 60011;
0173832290999992001082112004-13010-038510FM-12+005199999V0201401N002610450019N0100001N1+02441+02111102181ADDAA124001091GF107991041081008001051001KA1240N+02181MA1999999101581MD1999999-0151REMSYN082AAXX  21124 83229 22597 71405 10244 20211 30158 40218 84850 333 20218 59015 60014;
0182832290999992001082118004-13010-038510FM-12+005199999V0201401N002110042019N0020001N1+02231+02081101961ADDAA106002091AY161061AY221061GF108991051061004501021999MA1999999101351MD1999999-0131MW1611REMSYN082AAXX  21184 83229 21495 81404 10223 20208 30135 40196 76162 8562/ 333 59013 60021;
0213832290999992001082200004-13010-038510FM-12+005199999V0201401N001510042019N9999999N1+02251+02031102121ADDAA106001091AY161061AY221061GF108991061061004501021999KA1240M+02601MA1999999101511MD1999999-0101MW1031REMSYN100AAXX  22004 83229 214// 81403 10225 20203 30151 40212 70362 8662/ 333 10260 29088 55014 59010 60011;
0182832290999992001082218004-13010-038510FM-12+005199999V0200501N001510042019N0040001N1+02461+02191101911ADDAA106002091AY161061AY261061GF107991071051004501001001MA1999999101311MD1999999-0041MW1031REMSYN082AAXX  22184 83229 21496 70503 10246 20219 30131 40191 70366 87500 333 59004 60021;
0198832290999992001082300004-13010-038510FM-12+005199999V0200901N001512200019N9999999N1+02251+02031102071ADDAA199000091GF101991011021008001001001KA1240M+02621MA1999999101461MD1999999-0051REMSYN088AAXX  23004 83229 325// 10903 10225 20203 30146 40207 81200 333 10262 29090 55013 59005;EQDQ01  00002PRCP99
0201832290999992001082312004-13010-038510FM-12+005199999V0201401N001510075019N0040001N1+02451+02211102141ADDAA124002091AY151061AY201061GF106991061051008001001001KA1240N+02171MA1999999101541MD1999999+0071MW1501REMSYN088AAXX  23124 83229 21596 61403 10245 20221 30154 40214 75050 86500 333 20217 58007 60024;
0158832290999992001082318004-13010-038510FM-12+005199999V0201401N003112200019N0200001N1+02651+02221101941ADDAA199000021GA1001+999999999GF100991001001999999001001MA1999999101341MD1999999+0031REMSYN064AAXX  23184 83229 32998 01406 10265 20222 30134 40194 333 58003;
0179832290999992001082400004-13010-038510FM-12+005199999V0200901N001012200019N9999999N1+02261+01981102001ADDAA199000021GF101991011021008001001001KA1240M+02761MA1999999101391MD1999999-0071REMSYN088AAXX  24004 83229 325// 10902 10226 20198 30139 40200 81200 333 10276 29083 55101 59007;
0201832290999992001082412004-13010-038510FM-12+005199999V0201401N002610042019N0040001N1+02421+02251102041ADDAA124009991AY161061AY201061GF107991071051004501001001KA1240N+02151MA1999999101441MD1999999-0101MW1031REMSYN088AAXX  24124 83229 21496 71405 10242 20225 30144 40204 70360 87500 333 20215 59010 60104;
0167832290999992001082418004-13010-038510FM-12+005199999V0201401N003112200019N0100001N1+02621+02231101821ADDAA199000091GF103991021021008001001011MA1999999101221MD1999999-0121REMSYN070AAXX  24184 83229 32597 31406 10262 20223 30122 40182 82201 333 59012;EQDQ01  00002PRCP99
0186832290999992001082512004-13010-038510FM-12+005199999V0200901N001512200019N0200001N1+02581+02291101901ADDAA199000091GF104991021021008001041011KA1240N+02171MA1999999101301MD1999999-0141REMSYN076AAXX  25124 83229 32598 40903 10258 20229 30130 40190 82241 333 20217 59014;EQDQ01  00002PRCP99
0198832290999992001082600004-13010-038510FM-12+005199999V0200901N001012200019N9999999N1+02301+02031101801ADDAA199000091GF102991011021008001001061KA1240M+02701MA1999999101201MD1999999-0031REMSYN088AAXX  26004 83229 325// 20902 10230 20203 30120 40180 81206 333 10270 29085 55087 59003;EQDQ01  00002PRCP99
0186832290999992001082612004-13010-038510FM-12+005199999V0200501N001012200019N0100001N1+02581+02081102021ADDAA199000091GF103991021021008001061001KA1240N+02101MA1999999101421MD1999999+0121REMSYN076AAXX  26124 83229 32597 30502 10258 20208 30142 40202 82260 333 20210 58012;EQDQ01  00002PRCP99
0167832290999992001082618004-13010-038510FM-12+005199999V0201401N003112200019N0200001N1+02661+02041101731ADDAA199000091GF102991011021012501001061MA1999999101141MD1999999-0021REMSYN070AAXX  26184 83229 32698 21406 10266 20204 30114 40173 81206 333 59002;EQDQ01  00002PRCP99
0198832290999992001082700004-13010-038510FM-12+005199999V0200901N002612200019N9999999N1+02321+02021101851ADDAA199000091GF101991011021008001001001KA1240M+02741MA1999999101251MD1999999+0051REMSYN088AAXX  27004 83229 325// 10905 10232 20202 30125 40185 81200 333 10274 29077 55100 58005;EQDQ01  00002PRCP99
0172832290999992001082712004-13010-038510FM-12+005199999V0200501N001512200019N0200001N1+02621+02051102081ADDAA199000091GF101991011021012501001001KA1240N+02241MA1999999101481REMSYN076AAXX  27124 83229 32698 10503 10262 20205 30148 40208 81200 333 20224 5800/;EQDQ01  00002PRCP99
0167832290999992001082718004-13010-038510FM-12+005199999V0201401N002110450019N0200001N1+02571+02061101791ADDAA199000091GF107991011021008001051001MA1999999101191MD1999999+0051REMSYN070AAXX  27184 83229 32598 71404 10257 20206 30119 40179 81250 333 58005;EQDQ01  00002PRCP99
0213832290999992001082800004-13010-038510FM-12+005199999V0201401N001510450019N9999999N1+02211+02151101951ADDAA106000891AY161061AY221061GF107991041081008001011001KA1240M+02731MA1999999101341MD1999999+0091MW1211REMSYN100AAXX  28004 83229 215// 71403 10221 20215 30134 40195 72162 84810 333 10273 29085 55085 58009 69981;
0201832290999992001082812004-13010-038510FM-12+005199999V0200901N001510042019N0020001N1+02361+02261101941ADDAA124013091AY161061AY251061GF108991081071004501999999KA1240N+02121MA1999999101341MD1999999-0141MW1631REMSYN088AAXX  28124 83229 21495 80903 10236 20226 30134 40194 76365 887// 333 20212 59014 60134;
0182832290999992001082818004-13010-038510FM-12+005199999V0200501N002110042019N0040001N1+02431+02231101781ADDAA106005191AY161061AY261061GF108991081051004501999999MA1999999101181MD1999999-0011MW1031REMSYN082AAXX  28184 83229 21496 80504 10243 20223 30118 40178 70366 885// 333 59001 60051;
0213832290999992001082900004-13010-038510FM-12+005199999V0200501N001010075019N9999999N1+02321+02131101881ADDAA106000191AY161061AY251061GF106991061051008001001001KA1240M+02461MA1999999101281MD1999999-0061MW1031REMSYN100AAXX  29004 83229 215// 60502 10232 20213 30128 40188 70365 86500 333 10246 29090 55000 59006 69911;
0173832290999992001082912004-13010-038510FM-12+005199999V0200901N001510450019N0040001N1+02531+02131101981ADDAA124005191GF106991031051008001031001KA1240N+02211MA1999999101381MD1999999+0041REMSYN082AAXX  29124 83229 22596 60903 10253 20213 30138 40198 83530 333 20221 58004 60054;
0167832290999992001082918004-13010-038510FM-12+005199999V0200901N002612200019N0200001N1+02651+02091101811ADDAA199000091GF101991011021008001001001MA1999999101221MD1999999+0041REMSYN070AAXX  29184 83229 32598 10905 10265 20209 30122 40181 81200 333 58004;EQDQ01  00002PRCP99
0198832290999992001083000004-13010-038510FM-12+005199999V0200901N002112200019N9999999N1+02341+02031101971ADDAA199000091GF103991031041008001001001KA1240M+02741MA1999999101371MD1999999+0091REMSYN088AAXX  30004 83229 325// 30904 10234 20203 30137 40197 83400 333 10274 29079 55071 58009;EQDQ01  00002PRCP99
0186832290999992001083012004-13010-038510FM-12+005199999V0201401N003110075019N0100001N1+02541+02211101991ADDAA199000091GF107991071051008001001001KA1240N+02321MA1999999101391MD1999999+0011REMSYN076AAXX  30124 83229 32597 71406 10254 20221 30139 40199 87500 333 20232 58001;EQDQ01  00002PRCP99
0153832290999992001083018004-13010-038510FM-12+005199999V0200501N002610450019N0040001N1+02631+02311101781ADDAA199000091GF105991041051008001021001MA1999999101191REMSYN070AAXX  30184 83229 32596 50505 10263 20231 30119 40178 84520 333 5903/;EQDQ01  00002PRCP99
0198832290999992001083100004-13010-038510FM-12+005199999V0200501N003110450019N9999999N1+02401+02011101921ADDAA199000091GF107991021041008001071001KA1240M+02721MA1999999101321MD1999999-0051REMSYN088AAXX  31004 83229 325// 70506 10240 20201 30132 40192 82470 333 10272 29081 55036 59005;EQDQ01  00002PRCP99
0201832290999992001083112004-13010-038510FM-12+005199999V0200901N002612200019N0040001N1+02491+02151101981ADDAA124004191AY161061AY221061GF105991031051004501001061KA1240N+02141MA1999999101381MD1999999-0011MW1031REMSYN088AAXX  31124 83229 21496 50905 10249 20215 30138 40198 70362 83506 333 20214 59001 60044;
0182832290999992001083118004-13010-038510FM-12+005199999V0201401N003612200019N0100001N1+02571+02111101791ADDAA106001091AY161061AY251061GF104991011041008001001081MA1999999101191MD1999999+0001MW1031REMSYN082AAXX  31184 83229 21597 41407 10257 20211 30119 40179 70365 81408 333 58000 60011;
0198832290999992001090100004-13010-038510FM-12+005199999V0201401N002612200019N9999999N1+02381+02111101931ADDAA199000091GF103991031021008001001001KA1240M+02741MA1999999101331MD1999999+0011REMSYN088AAXX  01004 83229 325// 31405 10238 20211 30133 40193 83200 333 10274 29082 55062 58001;EQDQ01  00002PRCP99
0201832290999992001090112004-13010-038510FM-12+005199999V0201401N001510450019N0040001N1+02501+02191101961ADDAA124018091AY161061AY251061GF105991021031008001061001KA1240N+02101MA1999999101361MD1999999-0021MW1031REMSYN088AAXX  01124 83229 21596 51403 10250 20219 30136 40196 70365 82360 333 20210 59002 60184;
0182832290999992001090118004-13010-038510FM-12+005199999V0201401N001510450019N0040001N1+02471+02171101661ADDAA106008991AY161061AY221061GF106991041081004501051001MA1999999101061MD1999999-0131MW1031REMSYN082AAXX  01184 83229 21496 61403 10247 20217 30106 40166 70362 84850 333 59013 60091;
0213832290999992001090200004-13010-038510FM-12+005199999V0200901N002110450019N9999999N1+02331+02091101851ADDAA106003091AY161061AY251061GF107991021021008001011001KA1240M+02631MA1999999101251MD1999999-0081MW1031REMSYN100AAXX  02004 83229 215// 70904 10233 20209 30125 40185 70365 82210 333 10263 29085 55029 59008 60031;
0201832290999992001090212004-13010-038510FM-12+005199999V0201401N003110450019N0040001N1+02341+02111101931ADDAA124020191AY161061AY251061GF107991041031004501021001KA1240N+02151MA1999999101331MD1999999-0031MW1611REMSYN088AAXX  02124 83229 21496 71406 10234 20211 30133 40193 76165 84320 333 20215 59003 60204;
0182832290999992001090218004-13010-038510FM-12+005199999V0201401N003612200019N0040001N1+02621+02121101631ADDAA106006191AY161061AY221061GF103991021021008001041001MA1999999101041MD1999999-0021MW1031REMSYN082AAXX  02184 83229 21596 31407 10262 20212 30104 40163 70362 82240 333 59002 60061;
0179832290999992001090300004-13010-038510FM-12+005199999V0201401N002110450019N9999999N1+02331+01961101871ADDAA199000021GF106991011021008001051001KA1240M+02651MA1999999101271MD1999999+0021REMSYN088AAXX  03004 83229 325// 61404 10233 20196 30127 40187 81250 333 10265 29080 55036 58002;
0173832290999992001090312004-13010-038510FM-12+005199999V0201401N002610450019N0100001N1+02581+02121101841ADDAA124006191GF105991041051008001021001KA1240N+02231MA1999999101241MD1999999-0091REMSYN082AAXX  03124 83229 22597 51405 10258 20212 30124 40184 84520 333 20223 59009 60064;
0167832290999992001090318004-13010-038510FM-12+005199999V0201401N002112200019N0200001N1+02611+02081101641ADDAA199000091GF102991021021008001001001MA1999999101051MD1999999+0011REMSYN070AAXX  03184 83229 32598 21404 10261 20208 30105 40164 82200 333 58001;EQDQ01  00002PRCP99
0198832290999992001090400004-13010-038510FM-12+005199999V0201401N002112200019N9999999N1+02301+02051101781ADDAA199000091GF102991011041008001031001KA1240M+02731MA1999999101181MD1999999-0091REMSYN088AAXX  04004 83229 325// 21404 10230 20205 30118 40178 81430 333 10273 29080 55084 59009;EQDQ01  00002PRCP99
0201832290999992001090412004-13010-038510FM-12+005199999V0200901N001512200019N0100001N1+02581+02231101781ADDAA124002091AY161061AY221061GF104991041021008001001001KA1240N+02081MA1999999101181MD1999999-0061MW1031REMSYN088AAXX  04124 83229 21597 40903 10258 20223 30118 40178 70362 84200 333 20208 59006 60024;
0167832290999992001090418004-13010-038510FM-12+005199999V0201401N002612200019N0100001N1+02611+02231101621ADDAA199000091GF103991021041008001001011MA1999999101031MD1999999-0021REMSYN070AAXX  04184 83229 32597 31405 10261 20223 30103 40162 82401 333 59002;EQDQ01  00002PRCP99
0198832290999992001090500004-13010-038510FM-12+005199999V0201401N002110075019N9999999N1+02351+02111101721ADDAA199000091GF105991051051008001001001KA1240M+02751MA1999999101121MD1999999-0061REMSYN088AAXX  05004 83229 325// 51404 10235 20211 30112 40172 85500 333 10275 29084 55085 59006;EQDQ01  00002PRCP99
0186832290999992001090512004-13010-038510FM-12+005199999V0201401N003112200019N0200001N1+02661+02221101791ADDAA199000091GF102991011021008001031001KA1240N+02081MA1999999101201MD1999999+0021REMSYN076AAXX  05124 83229 32598 21406 10266 20222 30120 40179 81230 333 20208 58002;EQDQ01  00002PRCP99
0167832290999992001090518004-13010-038510FM-12+005199999V0200901N002112200019N0200001N1+02661+02181101571ADDAA199000091GF101991011011008001001001MA1999999100981MD1999999-0201REMSYN070AAXX  05184 83229 32598 10904 10266 20218 30098 40157 81100 333 59020;EQDQ01  00002PRCP99
0208832290999992001090600004-13010-038510FM-12+005199999V0201401N001512200019N9999999N1+02341+01931101691ADDAA199000091GA1001+999999999GF100991001001999999001001KA1240M+02801MA1999999101091MD1999999-0031REMSYN082AAXX  06004 83229 329// 01403 10234 20193 30109 40169 333 10280 29077 55106 59003;EQDQ01  00002PRCP99
0201832290999992001090612004-13010-038510FM-12+005199999V0201801N002110450019N0100001N1+02321+02031101811ADDAA124003091AY161061AY201061GF106991041051004501031061KA1240N+01901MA1999999101211MD1999999+0011MW1011REMSYN088AAXX  06124 83229 21497 61804 10232 20203 30121 40181 70160 84536 333 20190 58001 60034;
0167832290999992001090618004-13010-038510FM-12+005199999V0200501N001510075019N0040001N1+02371+02131101511ADDAA199000091GF107991051051008001071001MA1999999100911MD1999999-0071REMSYN070AAXX  06184 83229 32596 70503 10237 20213 30091 40151 85570 333 59007;EQDQ01  00002PRCP99
0198832290999992001090700004-13010-038510FM-12+005199999V0200901N002610075019N9999999N1+02241+02011101601ADDAA199000091GF106991061051008001001001KA1240M+02531MA1999999101001MD1999999-0091REMSYN088AAXX  07004 83229 325// 60905 10224 20201 30100 40160 86500 333 10253 29086 55038 59009;EQDQ01  00002PRCP99
0193832290999992001090712004-13010-038510FM-12+005199999V0202301N001510450019N0040001N1+02321+02151101701ADDAA124008991AY161061GF107991041081008001011001KA1240N+02081MA1999999101101MD1999999-0111MW1031REMSYN088AAXX  07124 83229 21596 72303 10232 20215 30110 40170 7036/ 84810 333 20208 59011 60094;
0167832290999992001090718004-13010-038510FM-12+005199999V0201801N003112200019N0100001N1+02451+02131101441ADDAA199000091GF103991021021008001051001MA1999999100841MD1999999-0071REMSYN070AAXX  07184 83229 32597 31806 10245 20213 30084 40144 82250 333 59007;EQDQ01  00002PRCP99
0213832290999992001090800004-13010-038510FM-12+005199999V0201401N002112200019N9999999N1+02281+02091101611ADDAA106002091AY111061AY211061GF103991021021008001031001KA1240M+02541MA1999999101011MD1999999+0011MW1211REMSYN100AAXX  08004 83229 215// 31404 10228 20209 30101 40161 72111 82230 333 10254 29088 55030 58001 60021;
0201832290999992001090812004-13010-038510FM-12+005199999V0201401N001510450019N0040001N1+02411+02071101761ADDAA124006191AY161061AY251061GF106991031081008001051001KA1240N+02111MA1999999101161MD1999999+0061MW1031REMSYN088AAXX  08124 83229 21596 61403 10241 20207 30116 40176 70365 83850 333 20211 58006 60064;
0182832290999992001090818004-13010-038510FM-12+005199999V0202301N003610450019N0100001N1+02371+02091101511ADDAA106002091AY161061AY221061GF105991021021008001051001MA1999999100911MD1999999+0071MW1031REMSYN082AAXX  08184 83229 21597 52307 10237 20209 30091 40151 70362 82250 333 58007 60021;
0198832290999992001090900004-13010-038510FM-12+005199999V0201401N001512200019N9999999N1+02241+02011101671ADDAA199000091GF102991011021008001041001KA1240M+02611MA1999999101071MD1999999+0061REMSYN088AAXX  09004 83229 325// 21403 10224 20201 30107 40167 81240 333 10261 29085 55040 58006;EQDQ01  00002PRCP99
0173832290999992001090912004-13010-038510FM-12+005199999V0201401N001012200019N0100001N1+02551+02131101781ADDAA124002091GF103991021021008001061001KA1240N+02161MA1999999101181MD1999999+0021REMSYN082AAXX  09124 83229 22597 31402 10255 20213 30118 40178 82260 333 20216 58002 60024;
0167832290999992001090918004-13010-038510FM-12+005199999V0201401N002112200019N0200001N1+02681+02021101491ADDAA199000091GF102991011021012501001051MA1999999100901MD1999999-0011REMSYN070AAXX  09184 83229 32698 21404 10268 20202 30090 40149 81205 333 59001;EQDQ01  00002PRCP99
0198832290999992001091000004-13010-038510FM-12+005199999V0200501N001512200019N9999999N1+02361+02111101721ADDAA199000091GF101991011021008001001001KA1240M+02711MA1999999101121MD1999999-0051REMSYN088AAXX  10004 83229 325// 10503 10236 20211 30112 40172 81200 333 10271 29079 55095 59005;EQDQ01  00002PRCP99
0186832290999992001091012004-13010-038510FM-12+005199999V0202301N001510042019N0100001N1+02531+02311101751ADDAA199000091GF105991051051004501001001KA1240N+02161MA1999999101151MD1999999-0031REMSYN076AAXX  10124 83229 32497 52303 10253 20231 30115 40175 85500 333 20216 59003;EQDQ01  00002PRCP99
0167832290999992001091018004-13010-038510FM-12+005199999V0200901N003112200019N0200001N1+02721+02341101481ADDAA199000091GF102991021021008001001001MA1999999100881MD1999999-0021REMSYN070AAXX  10184 83229 32598 20906 10272 20234 30088 40148 82200 333 59002;EQDQ01  00002PRCP99
0198832290999992001091100004-13010-038510FM-12+005199999V0200501N002112200019N9999999N1+02401+02131101501ADDAA199000091GF101991011021008001001001KA1240M+02791MA1999999100901MD1999999-0221REMSYN088AAXX  11004 83229 325// 10504 10240 20213 30090 40150 81200 333 10279 29084 55078 59022;EQDQ01  00002PRCP99
0186832290999992001091112004-13010-038510FM-12+005199999V0203601N001012200019N0040001N1+02621+02251101601ADDAA199000091GF103991031051004501001001KA1240N+02181MA1999999101011MD1999999-0141REMSYN076AAXX  11124 83229 32496 33602 10262 20225 30101 40160 83500 333 20218 59014;EQDQ01  00002PRCP99
0167832290999992001091118004-13010-038510FM-12+005199999V0200501N002612200019N0100001N1+02721+02241101181ADDAA199000091GF105991031021008001001061MA1999999100591MD1999999-0291REMSYN070AAXX  11184 83229 32597 50505 10272 20224 30059 40118 83206 333 59029;EQDQ01  00002PRCP99
0208832290999992001091200004-13010-038510FM-12+005199999V0200501N003112200019N9999999N1+02361+02171101221ADDAA199000091GA1001+999999999GF100991001001999999001001KA1240M+02881MA1999999100621MD1999999-0281REMSYN082AAXX  12004 83229 329// 00506 10236 20217 30062 40122 333 10288 29083 55076 59028;EQDQ01  00002PRCP99
0186832290999992001091212004-13010-038510FM-12+005199999V0200501N002110075019N0040001N1+02641+02181101511ADDAA199000091GF107991061051008001001061KA1240N+02301MA1999999100921MD1999999-0091REMSYN076AAXX  12124 83229 32596 70504 10264 20218 30092 40151 86506 333 20230 59009;EQDQ01  00002PRCP99
0177832290999992001091218004-13010-038510FM-12+005199999V0200901N002112200019N0100001N1+02811+02271101301ADDAA199000091GA1001+999999999GF100991001001999999001001MA1999999100711MD1999999+0121REMSYN064AAXX  12184 83229 32997 00904 10281 20227 30071 40130 333 58012;EQDQ01  00002PRCP99
0198832290999992001091300004-13010-038510FM-12+005199999V0200501N001512200019N9999999N1+02461+02251101621ADDAA199000091GF102991011021008001021001KA1240M+02981MA1999999101021MD1999999+0401REMSYN088AAXX  13004 83229 325// 20503 10246 20225 30102 40162 81220 333 10298 29081 55088 58040;EQDQ01  00002PRCP99
0186832290999992001091312004-13010-038510FM-12+005199999V0200501N002112200019N0100001N1+02761+02281101911ADDAA199000091GF102991021021008001001001KA1240N+02401MA1999999101321MD1999999+0401REMSYN076AAXX  13124 83229 32597 20504 10276 20228 30132 40191 82200 333 20240 58040;EQDQ01  00002PRCP99
0167832290999992001091318004-13010-038510FM-12+005199999V0200901N003112200019N0200001N1+02701+02261101571ADDAA199000091GF102991011021008001061001MA1999999100981MD1999999+0271REMSYN070AAXX  13184 83229 32598 20906 10270 20226 30098 40157 81260 333 58027;EQDQ01  00002PRCP99
0213832290999992001091400004-13010-038510FM-12+005199999V0200901N001510450019N9999999N1+02401+02231101791ADDAA106000191AY151061AY211061GF106991021021008001051001KA1240M+02861MA1999999101191MD1999999+0171MW1031REMSYN100AAXX  14004 83229 215// 60903 10240 20223 30119 40179 70351 82250 333 10286 29082 55089 58017 69921;
0193832290999992001091412004-13010-038510FM-12+005199999V0200501N001512200019N0200001N1+02671+02221101791ADDAA124006191AY161061GF102991021021008001041001KA1240N+02261MA1999999101201MD1999999-0121MW1011REMSYN088AAXX  14124 83229 21598 20503 10267 20222 30120 40179 7016/ 82240 333 20226 59012 60064;
0137832290999992001091418004-13010-038510FM-12+005199999V0200501N002612200019N0200001N1+02711+99999999999ADDAA199000091GF101991999999999999999999REMSYN069AAXX  14184 83229 32998 10505 10271 0208 30082 40141 80005 333 59016;EQDQ01  00002PRCP99
0198832290999992001091500004-13010-038510FM-12+005199999V0200501N002112200019N9999999N1+02391+02071101591ADDAA199000091GF101991011021008001001001KA1240M+02831MA1999999100991MD1999999-0201REMSYN088AAXX  15004 83229 325// 10504 10239 20207 30099 40159 81200 333 10283 29078 55097 59020;EQDQ01  00002PRCP99
0186832290999992001091512004-13010-038510FM-12+005199999V0200501N001512200019N0040001N1+02651+02121101541ADDAA199000091GF104991041051008001001001KA1240N+02151MA1999999100951MD1999999-0251REMSYN076AAXX  15124 83229 32596 40503 10265 20212 30095 40154 84500 333 20215 59025;EQDQ01  00002PRCP99
0167832290999992001091518004-13010-038510FM-12+005199999V0200501N003112200019N0100001N1+02661+02201101201ADDAA199000091GF103991011021008001001061MA1999999100611MD1999999-0211REMSYN070AAXX  15184 83229 32597 30506 10266 20220 30061 40120 81206 333 59021;EQDQ01  00002PRCP99
0198832290999992001091600004-13010-038510FM-12+005199999V0200501N002612200019N9999999N1+02341+02031101341ADDAA199000091GF102991011001012501021061KA1240M+02751MA1999999100741MD1999999-0251REMSYN088AAXX  16004 83229 326// 20505 10234 20203 30074 40134 81026 333 10275 29079 55062 59025;EQDQ01  00002PRCP99
0186832290999992001091612004-13010-038510FM-12+005199999V0203201N000512200019N0040001N1+02531+02171101531ADDAA199000091GF104991021041008001001061KA1240N+02071MA1999999100931MD1999999-0021REMSYN076AAXX  16124 83229 32596 43201 10253 20217 30093 40153 82406 333 20207 59002;EQDQ01  00002PRCP99
0167832290999992001091618004-13010-038510FM-12+005199999V0200901N002612200019N0100001N1+02741+02301101201ADDAA199000091GF102991001001999999001061MA1999999100611MD1999999+0001REMSYN070AAXX  16184 83229 32997 20905 10274 20230 30061 40120 80006 333 58000;EQDQ01  00002PRCP99
0208832290999992001091700004-13010-038510FM-12+005199999V0200501N001012200019N9999999N1+02401+02191101351ADDAA199000091GA1001+999999999GF100991001001999999001001KA1240M+02781MA1999999100751MD1999999+0011REMSYN082AAXX  17004 83229 329// 00502 10240 20219 30075 40135 333 10278 29084 55086 58001;EQDQ01  00002PRCP99
0186832290999992001091712004-13010-038510FM-12+005199999V0203201N001510075019N0040001N1+02601+02271101591ADDAA199000091GF107991061051008001001081KA1240N+01981MA1999999101001MD1999999+0071REMSYN076AAXX  17124 83229 32596 73203 10260 20227 30100 40159 86508 333 20198 58007;EQDQ01  00002PRCP99
0177832290999992001091718004-13010-038510FM-12+005199999V0200901N001012200019N0200001N1+02721+02381101331ADDAA199000091GA1001+999999999GF100991001001999999001001MA1999999100741MD1999999+0131REMSYN064AAXX  17184 83229 32998 00902 10272 20238 30074 40133 333 58013;EQDQ01  00002PRCP99
0198832290999992001091800004-13010-038510FM-12+005199999V0201401N002612200019N9999999N1+02501+02291101641ADDAA199000091GF104991041051008001001001KA1240M+02801MA1999999101041MD1999999+0291REMSYN088AAXX  18004 83229 325// 41405 10250 20229 30104 40164 84500 333 10280 29085 55074 58029;EQDQ01  00002PRCP99
0201832290999992001091812004-13010-038510FM-12+005199999V0201801N006710042019N0010001N1+02141+02091101911ADDAA124008991AY161061AY221061GF108991081071004501999999KA1240N+02101MA1999999101301MD1999999+0301MW1611REMSYN088AAXX  18124 83229 21494 81813 10214 20209 30130 40191 76162 887// 333 20210 58030 60094;
0182832290999992001091818004-13010-038510FM-12+005199999V0201801N005710042019N0020001N1+02281+02131101711ADDAA106002091AY161061AY261061GF108991081051004501999999MA1999999101111MD1999999+0371MW1031REMSYN082AAXX  18184 83229 21495 81811 10228 20213 30111 40171 70366 885// 333 58037 60021;
0213832290999992001091900004-13010-038510FM-12+005199999V0201801N005710042019N9999999N1+02151+02111101851ADDAA106007991AY161061AY261061GF108991081051004501999999KA1240M+02531MA1999999101241MD1999999+0201MW1031REMSYN100AAXX  19004 83229 214// 81811 10215 20211 30124 40185 70366 885// 333 10253 29096 55000 58020 60081;
0201832290999992001091912004-13010-038510FM-12+005199999V0201401N004610450019N0020001N1+02261+02111102001ADDAA124022191AY161061AY251061GF108991041061004501021999KA1240N+02001MA1999999101391MD1999999+0091MW1031REMSYN088AAXX  19124 83229 21495 81409 10226 20211 30139 40200 70365 8462/ 333 20200 58009 60224;
0182832290999992001091918004-13010-038510FM-12+005199999V0201401N005710042019N0020001N1+02191+02041101771ADDAA106005191AY161061AY221061GF108991051061004501021999MA1999999101161MD1999999+0051MW1211REMSYN082AAXX  19184 83229 21495 81411 10219 20204 30116 40177 72162 8562/ 333 58005 60051;
0179832290999992001092000004-13010-038510FM-12+005199999V0201401N004610450019N9999999N1+02351+02051101891ADDAA199000021GF107991041081008001011001KA1240M+02351MA1999999101291MD1999999+0051REMSYN088AAXX  20004 83229 325// 71409 10235 20205 30129 40189 84810 333 10235 29088 55000 58005;
0201832290999992001092012004-13010-038510FM-12+005199999V0201401N003610090019N0040001N1+02321+02161101891ADDAA124019191AY161061AY251061GF108991051081004501021999KA1240N+02091MA1999999101291MD1999999-0101MW1201REMSYN088AAXX  20124 83229 21496 81407 10232 20216 30129 40189 72065 8582/ 333 20209 59010 60194;
0182832290999992001092018004-13010-038510FM-12+005199999V0201401N003110090019N0040001N1+02301+02181101631ADDAA106008991AY161061AY251061GF107991051081004501021001MA1999999101031MD1999999-0131MW1031REMSYN082AAXX  20184 83229 21496 71406 10230 20218 30103 40163 70365 85820 333 59013 60091;
0213832290999992001092100004-13010-038510FM-12+005199999V0201401N003110450019N9999999N1+02301+02111101801ADDAA106009991AY161061AY221061GF107991031081004501051001KA1240M+02541MA1999999101201MD1999999-0091MW1211REMSYN100AAXX  21004 83229 214// 71406 10230 20211 30120 40180 72162 83850 333 10254 29090 55010 59009 60101;
0201832290999992001092112004-13010-038510FM-12+005199999V0201401N003110450019N0040001N1+02581+02101101881ADDAA124023191AY161061AY251061GF106991021021008001031001KA1240N+02111MA1999999101281MD1999999-0011MW1021REMSYN088AAXX  21124 83229 21596 61406 10258 20210 30128 40188 70265 82230 333 20211 59001 60234;
0167832290999992001092118004-13010-038510FM-12+005199999V0201401N002610075019N0040001N1+02461+02071101631ADDAA199000091GF106991061051008001001001MA1999999101031MD1999999+0001REMSYN070AAXX  21184 83229 32596 61405 10246 20207 30103 40163 86500 333 58000;EQDQ01  00002PRCP99
0213832290999992001092200004-13010-038510FM-12+005199999V0201401N003110042019N9999999N1+02341+02051101741ADDAA106004191AY161061AY221061GF107991061051004501001081KA1240M+02701MA1999999101141MD1999999-0061MW1031REMSYN100AAXX  22004 83229 214// 71406 10234 20205 30114 40174 70362 86508 333 10270 29080 55061 59006 60041;
0201832290999992001092212004-13010-038510FM-12+005199999V0201401N001512200019N0100001N1+02471+02131101881ADDAA124027991AY161061AY261061GF105991031041008001001081KA1240N+02091MA1999999101281MD1999999+0001MW1011REMSYN088AAXX  22124 83229 21597 51403 10247 20213 30128 40188 70166 83408 333 20209 58000 60284;
0182832290999992001092218004-13010-038510FM-12+005199999V0201801N001510075019N0100001N1+02441+02051101641ADDAA106005191AY161061AY261061GF106991051051008001001061MA1999999101041MD1999999+0011MW1021REMSYN082AAXX  22184 83229 21597 61803 10244 20205 30104 40164 70266 85506 333 58001 60051;
0198832290999992001092300004-13010-038510FM-12+005199999V0201401N002612200019N9999999N1+02271+02071101781ADDAA199000091GF105991031041008001001081KA1240M+02531MA1999999101181MD1999999+0041REMSYN088AAXX  23004 83229 325// 51405 10227 20207 30118 40178 83408 333 10253 29085 55043 58004;EQDQ01  00002PRCP99
0201832290999992001092312004-13010-038510FM-12+005199999V0200501N000510042019N0020001N1+02121+01881101881ADDAA124019191AY161061AY221061GF108991081071004501999999KA1240N+02001MA1999999101271MD1999999-0011MW1501REMSYN088AAXX  23124 83229 21495 80501 10212 20188 30127 40188 75062 887// 333 20200 59001 60194;
0148832290999992001092318004-13010-038510FM-12+005199999V0201401N001510450019N0040001N1+02491+02071101541ADDAA199000021GF107991021041008001051061MA1999999100941MD1999999-0101REMSYN070AAXX  23184 83229 32596 71403 10249 20207 30094 40154 82456 333 59010;
0179832290999992001092400004-13010-038510FM-12+005199999V0200501N001010075019N9999999N1+02281+02011101721ADDAA199000021GF107991051051008001001081KA1240M+02511MA1999999101121MD1999999-0061REMSYN088AAXX  24004 83229 325// 70502 10228 20201 30112 40172 85508 333 10251 29084 55008 59006;
0186832290999992001092412004-13010-038510FM-12+005199999V0200501N001012200019N0200001N1+02621+02051101821ADDAA199000091GF104991021021012501001011KA1240N+02131MA1999999101221MD1999999-0051REMSYN076AAXX  24124 83229 32698 40502 10262 20205 30122 40182 82201 333 20213 59005;EQDQ01  00002PRCP99
0167832290999992001092418004-13010-038510FM-12+005199999V0200901N002612200019N0200001N1+02681+02091101521ADDAA199000091GF101991011021008001001001MA1999999100931MD1999999-0011REMSYN070AAXX  24184 83229 32598 10905 10268 20209 30093 40152 81200 333 59001;EQDQ01  00002PRCP99
0198832290999992001092500004-13010-038510FM-12+005199999V0200901N001012200019N9999999N1+02341+01951101741ADDAA199000091GF101991011021008001001001KA1240M+02781MA1999999101141MD1999999+0021REMSYN088AAXX  25004 83229 325// 10902 10234 20195 30114 40174 81200 333 10278 29074 55099 58002;EQDQ01  00002PRCP99
0186832290999992001092512004-13010-038510FM-12+005199999V0201401N002112200019N0100001N1+02721+02081101881ADDAA199000091GF102991021021008001001001KA1240N+02231MA1999999101291MD1999999+0071REMSYN076AAXX  25124 83229 32597 21404 10272 20208 30129 40188 82200 333 20223 58007;EQDQ01  00002PRCP99
0167832290999992001092518004-13010-038510FM-12+005199999V0201401N003112200019N0100001N1+02671+02041101531ADDAA199000091GF102991021021008001001001MA1999999100941MD1999999+0011REMSYN070AAXX  25184 83229 32597 21406 10267 20204 30094 40153 82200 333 58001;EQDQ01  00002PRCP99
0198832290999992001092600004-13010-038510FM-12+005199999V0200901N002112200019N9999999N1+02361+01911101841ADDAA199000091GF101991011011012501001001KA1240M+02801MA1999999101241MD1999999+0101REMSYN088AAXX  26004 83229 326// 10904 10236 20191 30124 40184 81100 333 10280 29072 55105 58010;EQDQ01  00002PRCP99
0186832290999992001092612004-13010-038510FM-12+005199999V0201401N001012200019N0200001N1+02691+01991101861ADDAA199000091GF102991021021008001001001KA1240N+02181MA1999999101271MD1999999-0021REMSYN076AAXX  26124 83229 32598 21402 10269 20199 30127 40186 82200 333 20218 59002;EQDQ01  00002PRCP99
0167832290999992001092618004-13010-038510FM-12+005199999V0201401N002112200019N0200001N1+02741+02171101451ADDAA199000091GF102991011021008001061001MA1999999100861MD1999999-0081REMSYN070AAXX  26184 83229 32598 21404 10274 20217 30086 40145 81260 333 59008;EQDQ01  00002PRCP99
0208832290999992001092700004-13010-038510FM-12+005199999V0200501N001512200019N9999999N1+02381+02011101551ADDAA199000091GA1001+999999999GF100991001001999999001001KA1240M+02821MA1999999100951MD1999999-0291REMSYN082AAXX  27004 83229 329// 00503 10238 20201 30095 40155 333 10282 29074 55107 59029;EQDQ01  00002PRCP99
0186832290999992001092712004-13010-038510FM-12+005199999V0203601N001012200019N0040001N1+02661+02071101601ADDAA199000091GF104991041041008001001001KA1240N+02181MA1999999101001MD1999999-0271REMSYN076AAXX  27124 83229 32596 43602 10266 20207 30100 40160 84400 333 20218 59027;EQDQ01  00002PRCP99
0167832290999992001092718004-13010-038510FM-12+005199999V0200901N002612200019N0200001N1+02761+02191101371ADDAA199000091GF103991031021008001001001MA1999999100781MD1999999-0081REMSYN070AAXX  27184 83229 32598 30905 10276 20219 30078 40137 83200 333 59008;EQDQ01  00002PRCP99
0208832290999992001092800004-13010-038510FM-12+005199999V0200501N001512200019N9999999N1+02451+02131101561ADDAA199000091GA1001+999999999GF100991001001999999001001KA1240M+02871MA1999999100961MD1999999+0011REMSYN082AAXX  28004 83229 329// 00503 10245 20213 30096 40156 333 10287 29077 55089 58001;EQDQ01  00002PRCP99
0186832290999992001092812004-13010-038510FM-12+005199999V0200901N002112200019N0200001N1+02811+02131101781ADDAA199000091GF102991011031008001001021KA1240N+02281MA1999999101191MD1999999+0191REMSYN076AAXX  28124 83229 32598 20904 10281 20213 30119 40178 81302 333 20228 58019;EQDQ01  00002PRCP99
0167832290999992001092818004-13010-038510FM-12+005199999V0201401N002612200019N0200001N1+02801+02221101601ADDAA199000091GF101991011021008001001001MA1999999101011MD1999999+0231REMSYN070AAXX  28184 83229 32598 11405 10280 20222 30101 40160 81200 333 58023;EQDQ01  00002PRCP99
0198832290999992001092900004-13010-038510FM-12+005199999V0200901N001512200019N9999999N1+02381+02051101721ADDAA199000091GF101991011021008001001001KA1240M+02871MA1999999101121MD1999999+0161REMSYN088AAXX  29004 83229 325// 10903 10238 20205 30112 40172 81200 333 10287 29076 55108 58016;EQDQ01  00002PRCP99
0186832290999992001092912004-13010-038510FM-12+005199999V0200901N002112200019N0200001N1+02741+02121101841ADDAA199000091GF101991011021008001001001KA1240N+02321MA1999999101251MD1999999+0061REMSYN076AAXX  29124 83229 32598 10904 10274 20212 30125 40184 81200 333 20232 58006;EQDQ01  00002PRCP99
0137832290999992001092918004-13010-038510FM-12+005199999V0200901N002112200019N0200001N1+02761+02161101621ADDGF101991011031008001001001MA1999999101031MD1999999+0021REMSYN070AAXX  29184 83229 22598 10904 10276 20216 30103 40162 81300 333 58002;
0198832290999992001093000004-13010-038510FM-12+005199999V0200901N002612200019N9999999N1+02421+02011101881ADDAA199000091GF102991021021008001001001KA1240M+02871MA1999999101281MD1999999+0161REMSYN088AAXX  30004 83229 325// 20905 10242 20201 30128 40188 82200 333 10287 29074 55107 58016;EQDQ01  00002PRCP99
0186832290999992001093012004-13010-038510FM-12+005199999V0201401N002112200019N0200001N1+02661+02021101921ADDAA199000091GF102991011021008001001011KA1240N+02301MA1999999101321MD1999999+0071REMSYN076AAXX  30124 83229 32598 21404 10266 20202 30132 40192 81201 333 20230 58007;EQDQ01  00002PRCP99
0167832290999992001093018004-13010-038510FM-12+005199999V0201401N001512200019N0200001N1+02671+02041101691ADDAA199000091GF102991011021008001001011MA1999999101101MD1999999+0071REMSYN070AAXX  30184 83229 32598 21403 10267 20204 30110 40169 81201 333 58007;EQDQ01  00002PRCP99
0178832290999992001100100004-13010-038510FM-12+005199999V0200501N002112200019N9999999N1+02381+01951101811ADDAA199000091GF101991011021008001001001KA1240M+02781MA1999999101211REMSYN082AAXX  01004 83229 325// 10504 10238 20195 30121 40181 81200 333 10278 29073 55105;EQDQ01  00002PRCP99
0186832290999992001100112004-13010-038510FM-12+005199999V0200501N001512200019N0200001N1+02731+01951101981ADDAA199000091GF102991011021008001001061KA1240N+02451MA1999999101391MD1999999+0071REMSYN076AAXX  01124 83229 32598 20503 10273 20195 30139 40198 81206 333 20245 58007;EQDQ01  00002PRCP99
0167832290999992001100118004-13010-038510FM-12+005199999V0200901N002112200019N0200001N1+02721+02001101581ADDAA199000091GF102991011021012501001061MA1999999100991MD1999999-0111REMSYN070AAXX  01184 83229 32698 20904 10272 20200 30099 40158 81206 333 59011;EQDQ01  00002PRCP99
0208832290999992001100200004-13010-038510FM-12+005199999V0200501N001012200019N9999999N1+02361+01991101811ADDAA199000091GA1001+999999999GF100991001001999999001001KA1240M+02871MA1999999101211MD1999999+0001REMSYN082AAXX  02004 83229 329// 00502 10236 20199 30121 40181 333 10287 29072 55101 58000;EQDQ01  00002PRCP99
0186832290999992001100212004-13010-038510FM-12+005199999V0200501N001012200019N0100001N1+02671+02161101991ADDAA199000091GF103991021021008001061001KA1240N+02201MA1999999101391MD1999999+0001REMSYN076AAXX  02124 83229 32597 30502 10267 20216 30139 40199 82260 333 20220 58000;EQDQ01  00002PRCP99
0167832290999992001100218004-13010-038510FM-12+005199999V0200501N002112200019N0200001N1+02841+02121101551ADDAA199000091GF101991001001999999001051MA1999999100961MD1999999-0031REMSYN070AAXX  02184 83229 32998 10504 10284 20212 30096 40155 80005 333 59003;EQDQ01  00002PRCP99
0208832290999992001100300004-13010-038510FM-12+005199999V0200501N001512200019N9999999N1+02421+02151101801ADDAA199000091GA1001+999999999GF100991001001999999001001KA1240M+02911MA1999999101201MD1999999-0011REMSYN082AAXX  03004 83229 329// 00503 10242 20215 30120 40180 333 10291 29077 55081 59001;EQDQ01  00002PRCP99
0186832290999992001100312004-13010-038510FM-12+005199999V0203601N001012200019N0040001N1+02671+02181101951ADDAA199000091GF104991041051008001001001KA1240N+02211MA1999999101351MD1999999-0041REMSYN076AAXX  03124 83229 32596 43602 10267 20218 30135 40195 84500 333 20221 59004;EQDQ01  00002PRCP99
0167832290999992001100318004-13010-038510FM-12+005199999V0200901N003112200019N0100001N1+02801+02271101601ADDAA199000091GF101991011021008001001001MA1999999101011MD1999999+0051REMSYN070AAXX  03184 83229 32597 10906 10280 20227 30101 40160 81200 333 58005;EQDQ01  00002PRCP99
0208832290999992001100400004-13010-038510FM-12+005199999V0200501N002112200019N9999999N1+02451+02151101691ADDAA199000091GA1001+999999999GF100991001001999999001001KA1240M+02861MA1999999101091MD1999999-0111REMSYN082AAXX  04004 83229 329// 00504 10245 20215 30109 40169 333 10286 29079 55072 59011;EQDQ01  00002PRCP99
0186832290999992001100412004-13010-038510FM-12+005199999V0203601N001510075019N0040001N1+02671+02201101681ADDAA199000091GF107991071051008001001001KA1240N+02281MA1999999101091MD1999999-0261REMSYN076AAXX  04124 83229 32596 73603 10267 20220 30109 40168 87500 333 20228 59026;EQDQ01  00002PRCP99
0177832290999992001100418004-13010-038510FM-12+005199999V0200501N002112200019N0200001N1+02861+02231101501ADDAA199000091GA1001+999999999GF100991001001999999001001MA1999999100911MD1999999-0101REMSYN064AAXX  04184 83229 32998 00504 10286 20223 30091 40150 333 59010;EQDQ01  00002PRCP99
0208832290999992001100500004-13010-038510FM-12+005199999V0200501N002612200019N9999999N1+02401+02151101581ADDAA199000091GA1001+999999999GF100991001001999999001001KA1240M+02931MA1999999100981MD1999999-0111REMSYN082AAXX  05004 83229 329// 00505 10240 20215 30098 40158 333 10293 29079 55080 59011;EQDQ01  00002PRCP99
0186832290999992001100512004-13010-038510FM-12+005199999V0203601N002610075019N0040001N1+02621+02121101691ADDAA199000091GF106991061051008001001001KA1240N+02221MA1999999101091MD1999999+0001REMSYN076AAXX  05124 83229 32596 63605 10262 20212 30109 40169 86500 333 20222 58000;EQDQ01  00002PRCP99
0177832290999992001100518004-13010-038510FM-12+005199999V0200901N003112200019N0100001N1+02921+02221101291ADDAA199000091GA1001+999999999GF100991001001999999001001MA1999999100701MD1999999-0211REMSYN064AAXX  05184 83229 32997 00906 10292 20222 30070 40129 333 59021;EQDQ01  00002PRCP99
0208832290999992001100600004-13010-038510FM-12+005199999V0200501N003112200019N9999999N1+02421+02111101381ADDAA199000091GA1001+999999999GF100991001001999999001001KA1240M+03031MA1999999100781MD1999999-0201REMSYN082AAXX  06004 83229 329// 00506 10242 20211 30078 40138 333 10303 29076 55094 59020;EQDQ01  00002PRCP99
0186832290999992001100612004-13010-038510FM-12+005199999V0203601N001510075019N0040001N1+02691+02161101561ADDAA199000091GF106991051051008001001061KA1240N+02241MA1999999100971MD1999999-0121REMSYN076AAXX  06124 83229 32596 63603 10269 20216 30097 40156 85506 333 20224 59012;EQDQ01  00002PRCP99
0167832290999992001100618004-13010-038510FM-12+005199999V0200901N003112200019N0100001N1+02871+02211101321ADDAA199000091GF102991001001999999001061MA1999999100731MD1999999+0031REMSYN070AAXX  06184 83229 32997 20906 10287 20221 30073 40132 80006 333 58003;EQDQ01  00002PRCP99
0186832290999992001100712004-13010-038510FM-12+005199999V0201401N002612200019N0100001N1+02741+02301101611ADDAA199000091GF104991021041008001031061KA1240N+02331MA1999999101021MD1999999+0051REMSYN076AAXX  07124 83229 32597 41405 10274 20230 30102 40161 82436 333 20233 58005;EQDQ01  00002PRCP99
0167832290999992001100718004-13010-038510FM-12+005199999V0201401N002112200019N0200001N1+02841+02291101361ADDAA199000091GF101991011021008001001001MA1999999100771MD1999999+0041REMSYN070AAXX  07184 83229 32598 11404 10284 20229 30077 40136 81200 333 58004;EQDQ01  00002PRCP99
0186832290999992001100812004-13010-038510FM-12+005199999V0201401N002110450019N0100001N1+02741+02281101581ADDAA199000091GF105991031041008001031061KA1240N+02381MA1999999100991MD1999999-0031REMSYN076AAXX  08124 83229 32597 51404 10274 20228 30099 40158 83436 333 20238 59003;EQDQ01  00002PRCP99
0167832290999992001100818004-13010-038510FM-12+005199999V0200901N002610075019N0040001N1+02821+02311101321ADDAA199000091GF107991071051008001001001MA1999999100731MD1999999-0041REMSYN070AAXX  08184 83229 32596 70905 10282 20231 30073 40132 87500 333 59004;EQDQ01  00002PRCP99
0213832290999992001100900004-13010-038510FM-12+005199999V0200901N000510075019N9999999N1+02411+02301101471ADDAA106005191AY161061AY221061GF105991051041008001001001KA1240M+02951MA1999999100871MD1999999-0081MW1031REMSYN100AAXX  09004 83229 215// 50901 10241 20230 30087 40147 70362 85400 333 10295 29084 55085 59008 60051;
0173832290999992001100912004-13010-038510FM-12+005199999V0200901N002112200019N0100001N1+02771+02191101441ADDAA124005191GF103991031041008001001001KA1240N+02291MA1999999100851MD1999999-0141REMSYN082AAXX  09124 83229 22597 30904 10277 20219 30085 40144 83400 333 20229 59014 60054;
0167832290999992001100918004-13010-038510FM-12+005199999V0200901N003112200019N0200001N1+02821+02201101251ADDAA199000091GF102991011021008001001061MA1999999100661MD1999999-0071REMSYN070AAXX  09184 83229 32598 20906 10282 20220 30066 40125 81206 333 59007;EQDQ01  00002PRCP99
0198832290999992001101000004-13010-038510FM-12+005199999V0200901N001512200019N9999999N1+02461+02151101401ADDAA199000091GF101991011021008001001001KA1240M+02881MA1999999100801MD1999999-0071REMSYN088AAXX  10004 83229 325// 10903 10246 20215 30080 40140 81200 333 10288 29076 55107 59007;EQDQ01  00002PRCP99
0201832290999992001101012004-13010-038510FM-12+005199999V0201401N001510450019N0200001N1+02721+02371101411ADDAA124002091AY161061AY221061GF105991031041012501031001KA1240N+02301MA1999999100821MD1999999-0161MW1031REMSYN088AAXX  10124 83229 21698 51403 10272 20237 30082 40141 70362 83430 333 20230 59016 60024;
0167832290999992001101018004-13010-038510FM-12+005199999V0200901N002119999999N0040001N1+02701+02301101361ADDAA199000091GF106991061001012501051001MA1999999100771MD1999999+0111REMSYN070AAXX  10184 83229 32696 60904 10270 20230 30077 40136 86050 333 58011;EQDQ01  00002PRCP99
0198832290999992001101100004-13010-038510FM-12+005199999V0200901N002610075019N9999999N1+02461+02231101501ADDAA199000091GF105991051041008001001001KA1240M+02911MA1999999100901MD1999999+0101REMSYN088AAXX  11004 83229 325// 50905 10246 20223 30090 40150 85400 333 10291 29084 55036 58010;EQDQ01  00002PRCP99
0201832290999992001101112004-13010-038510FM-12+005199999V0201401N003610042019N0020001N1+02441+02191101631ADDAA124002091AY161061AY221061GF108991081071004501999999KA1240N+02281MA1999999101031MD1999999+0211MW1601REMSYN088AAXX  11124 83229 21495 81407 10244 20219 30103 40163 76062 887// 333 20228 58021 60024;
0182832290999992001101118004-13010-038510FM-12+005199999V0201401N003110075019N0040001N1+02561+02151101491ADDAA106001091AY161061AY261061GF106991051051008001031001MA1999999100891MD1999999+0121MW1011REMSYN082AAXX  11184 83229 21596 61406 10256 20215 30089 40149 70166 85530 333 58012 60011;
0213832290999992001101200004-13010-038510FM-12+005199999V0201401N002610042019N9999999N1+02361+01931101621ADDAA106000191AY161061AY251061GF108991081071004501999999KA1240M+02631MA1999999101021MD1999999+0121MW1541REMSYN100AAXX  12004 83229 214// 81405 10236 20193 30102 40162 75465 887// 333 10263 29080 55014 58012 69911;
0193832290999992001101212004-13010-038510FM-12+005199999V0201401N003112200019N0100001N1+02611+01991101801ADDAA124002091AY151061GF103991011021008001041051KA1240N+02181MA1999999101201MD1999999+0171MW1031REMSYN088AAXX  12124 83229 21597 31406 10261 20199 30120 40180 7035/ 81245 333 20218 58017 60024;
0182832290999992001101218004-13010-038510FM-12+005199999V0201401N003110450019N0040001N1+02541+01981101661ADDAA106000191AY161061AY211061GF106991031031008001061061MA1999999101061MD1999999+0171MW1031REMSYN082AAXX  12184 83229 21596 61406 10254 20198 30106 40166 70361 83366 333 58017 69921;
0213832290999992001101300004-13010-038510FM-12+005199999V0201401N003110450019N9999999N1+02331+02001101871ADDAA106005191AY161061AY211061GF105991031021008001061001KA1240M+02741MA1999999101271MD1999999+0251MW1031REMSYN100AAXX  13004 83229 215// 51406 10233 20200 30127 40187 70361 83260 333 10274 29076 55063 58025 60051;
0193832290999992001101312004-13010-038510FM-12+005199999V0201401N002112200019N0200001N1+02571+01851101831ADDAA124007191AY161061GF102991011021008001001061KA1240N+02141MA1999999101231MD1999999+0031MW1031REMSYN088AAXX  13124 83229 21598 21404 10257 20185 30123 40183 7036/ 81206 333 20214 58003 60074;
0182832290999992001101318004-13010-038510FM-12+005199999V0201401N003112200019N0100001N1+02561+02061101531ADDAA106000191AY161061AY211061GF106991031081008001001061MA1999999100931MD1999999-0131MW1031REMSYN082AAXX  13184 83229 21597 61406 10256 20206 30093 40153 70361 83806 333 59013 69911;
0213832290999992001101400004-13010-038510FM-12+005199999V0201401N003110090019N9999999N1+02311+02161101711ADDAA106002091AY111061AY211061GF107991051081004501021001KA1240M+02721MA1999999101111MD1999999-0161MW1211REMSYN100AAXX  14004 83229 214// 71406 10231 20216 30111 40171 72111 85820 333 10272 29081 55084 59016 60021;
0201832290999992001101412004-13010-038510FM-12+005199999V0201401N003610042019N0020001N1+02291+02201101791ADDAA124018091AY161061AY261061GF108991061071004501021999KA1240N+02211MA1999999101191MD1999999-0041MW1211REMSYN088AAXX  14124 83229 21495 81407 10229 20220 30119 40179 72166 8672/ 333 20221 59004 60184;
0182832290999992001101418004-13010-038510FM-12+005199999V0201401N004110450019N0040001N1+02291+02161101501ADDAA106007191AY161061AY261061GF108991021031004501021999MA1999999100901MD1999999-0031MW1211REMSYN082AAXX  14184 83229 21496 81408 10229 20216 30090 40150 72166 8232/ 333 59003 60071;
0213832290999992001101500004-13010-038510FM-12+005199999V0201401N004110042019N9999999N1+02261+02191101661ADDAA106000891AY121061AY221061GF108991051071004501021999KA1240M+02391MA1999999101061MD1999999-0051MW1611REMSYN100AAXX  15004 83229 214// 81408 10226 20219 30106 40166 76122 8572/ 333 10239 29095 55000 59005 69981;
0201832290999992001101512004-13010-038510FM-12+005199999V0201401N002110042019N0010001N1+02301+02251101581ADDAA124073991AY161061AY261061GF108991061071004501021999KA1240N+02181MA1999999100981MD1999999-0211MW1631REMSYN088AAXX  15124 83229 21494 81404 10230 20225 30098 40158 76366 8672/ 333 20218 59021 60744;
0182832290999992001101518004-13010-038510FM-12+005199999V0201401N003610450019N0040001N1+02421+02131101371ADDAA106008991AY161061AY251061GF108991041081004501021999MA1999999100771MD1999999-0131MW1031REMSYN082AAXX  15184 83229 21496 81407 10242 20213 30077 40137 70365 8482/ 333 59013 60091;
0213832290999992001101600004-13010-038510FM-12+005199999V0200501N002610450019N9999999N1+02271+02181101621ADDAA106003091AY161061AY251061GF108991041081004501021999KA1240M+02531MA1999999101021MD1999999-0041MW1211REMSYN100AAXX  16004 83229 214// 80505 10227 20218 30102 40162 72165 8482/ 333 10253 29093 55001 59004 60031;
0201832290999992001101612004-13010-038510FM-12+005199999V0201401N001510042019N0010001N1+02241+02161101631ADDAA124029091AY161061AY261061GF108991081071004501999999KA1240N+02161MA1999999101031MD1999999+0051MW1211REMSYN088AAXX  16124 83229 21494 81403 10224 20216 30103 40163 72166 887// 333 20216 58005 60294;
0182832290999992001101618004-13010-038510FM-12+005199999V0201401N001510042019N0020001N1+02341+02071101371ADDAA106001091AY161061AY251061GF108991081071004501999999MA1999999100771MD1999999+0001MW1501REMSYN082AAXX  16184 83229 21495 81403 10234 20207 30077 40137 75065 887// 333 58000 60011;
0213832290999992001101700004-13010-038510FM-12+005199999V0201401N001010450019N9999999N1+02281+02161101441ADDAA106001091AY151061AY251061GF108991041051008001071081KA1240M+02511MA1999999100841MD1999999-0181MW1031REMSYN100AAXX  17004 83229 215// 81402 10228 20216 30084 40144 70355 84578 333 10251 29092 55000 59018 60011;
0201832290999992001101712004-13010-038510FM-12+005199999V0201801N002110042019N0010001N1+02281+02221101541ADDAA124010991AY161061AY251061GF108991081071004501999999KA1240N+02221MA1999999100941MD1999999+0091MW1211REMSYN088AAXX  17124 83229 21494 81804 10228 20222 30094 40154 72165 887// 333 20222 58009 60114;
0182832290999992001101718004-13010-038510FM-12+005199999V0201401N001010042019N0020001N1+02491+02381101261ADDAA106004191AY161061AY261061GF108991061071004501071999MA1999999100661MD1999999-0111MW1151REMSYN082AAXX  17184 83229 21495 81402 10249 20238 30066 40126 71566 8677/ 333 59011 60041;
0213832290999992001101800004-13010-038510FM-12+005199999V0202301N001010042019N9999999N1+02351+02271101271ADDAA106000591AY161061AY251061GF107991061051004501001081KA1240M+02621MA1999999100671MD1999999-0171MW1031REMSYN100AAXX  18004 83229 214// 72302 10235 20227 30067 40127 70365 86508 333 10262 29094 55000 59017 69951;
0201832290999992001101812004-13010-038510FM-12+005199999V0202301N001510042019N0020001N1+02481+02361101311ADDAA124007991AY161061AY251061GF108991081051004501999999KA1240N+02181MA1999999100711MD1999999-0231MW1501REMSYN088AAXX  18124 83229 21495 82303 10248 20236 30071 40131 75065 885// 333 20218 59023 60084;
0182832290999992001101818004-13010-038510FM-12+005199999V0200901N002619999999N0040001N1+02781+02361101121ADDAA106002091AY161061AY251061GF105991041001012501051061MA1999999100531MD1999999-0131MW1011REMSYN082AAXX  18184 83229 21696 50905 10278 20236 30053 40112 70165 84056 333 59013 60021;
0173832290999992001101900004-13010-038510FM-12+005199999V0200501N001012200019N9999999N1+02471+99999101081ADDAA199000021GF101991011021008001001001KA1240M+02811MA1999999100481MD1999999-0191REMSYN082AAXX  19004 83229 325// 10502 10247 30048 40108 81200 333 10281 29088 55035 59019;
0193832290999992001101912004-13010-038510FM-12+005199999V0200501N003112200019N0040001N1+02761+02281101261ADDAA124003091AY161061GF103991021021008001061001KA1240N+02331MA1999999100671MD1999999-0041MW1031REMSYN088AAXX  19124 83229 21596 30506 10276 20228 30067 40126 7036/ 82260 333 20233 59004 60034;
0167832290999992001101918004-13010-038510FM-12+005199999V0200501N002112200019N0100001N1+02851+02291100991ADDAA199000091GF102991011001999999041051MA1999999100401MD1999999-0131REMSYN070AAXX  19184 83229 32997 20504 10285 20229 30040 40099 81045 333 59013;EQDQ01  00002PRCP99
0198832290999992001102000004-13010-038510FM-12+005199999V0200501N003112200019N9999999N1+02521+02251101161ADDAA199000091GF101991001001999999001011KA1240M+02971MA1999999100561MD1999999+0081REMSYN088AAXX  20004 83229 329// 10506 10252 20225 30056 40116 80001 333 10297 29079 55073 58008;EQDQ01  00002PRCP99
0186832290999992001102012004-13010-038510FM-12+005199999V0203601N002610075019N0040001N1+02741+02171101331ADDAA199000091GF106991051051008001001061KA1240N+02371MA1999999100741MD1999999+0071REMSYN076AAXX  20124 83229 32596 63605 10274 20217 30074 40133 85506 333 20237 58007;EQDQ01  00002PRCP99
0182832290999992001102018004-13010-038510FM-12+005199999V0200901N001510450019N0100001N1+02671+02441101171ADDAA106005191AY161061AY221061GF107991031051008001031061MA1999999100581MD1999999+0181MW1021REMSYN082AAXX  20184 83229 21597 70903 10267 20244 30058 40117 70262 83536 333 58018 60051;
0198832290999992001102100004-13010-038510FM-12+005199999V0200501N002119999999N9999999N1+02501+02251101211ADDAA199000091GF107991041001012501051081KA1240M+02851MA1999999100611MD1999999+0051REMSYN088AAXX  21004 83229 326// 70504 10250 20225 30061 40121 84058 333 10285 29083 55031 58005;EQDQ01  00002PRCP99
0173832290999992001102112004-13010-038510FM-12+005199999V0200501N002612200019N0040001N1+02821+02171101321ADDAA124005191GF104991041051008001001001KA1240N+02341MA1999999100731MD1999999-0011REMSYN082AAXX  21124 83229 22596 40505 10282 20217 30073 40132 84500 333 20234 59001 60054;
0167832290999992001102118004-13010-038510FM-12+005199999V0200901N002612200019N0040001N1+02901+02301101081ADDAA199000091GF102991011001012501021061MA1999999100501MD1999999-0081REMSYN070AAXX  21184 83229 32696 20905 10290 20230 30050 40108 81026 333 59008;EQDQ01  00002PRCP99
0208832290999992001102200004-13010-038510FM-12+005199999V0200501N003112200019N9999999N1+02471+02171101161ADDAA199000091GA1001+999999999GF100991001001999999001001KA1240M+02931MA1999999100561MD1999999-0051REMSYN082AAXX  22004 83229 329// 00506 10247 20217 30056 40116 333 10293 29076 55073 59005;EQDQ01  00002PRCP99
0186832290999992001102212004-13010-038510FM-12+005199999V0202701N001510075019N0040001N1+02621+02291101351ADDAA199000091GF105991051041008001001001KA1240N+02261MA1999999100751MD1999999+0021REMSYN076AAXX  22124 83229 32596 52703 10262 20229 30075 40135 85400 333 20226 58002;EQDQ01  00002PRCP99
0167832290999992001102218004-13010-038510FM-12+005199999V0200901N002112200019N0100001N1+02871+02261100981ADDAA199000091GF103991021021008001001061MA1999999100391MD1999999-0111REMSYN070AAXX  22184 83229 32597 30904 10287 20226 30039 40098 82206 333 59011;EQDQ01  00002PRCP99
0208832290999992001102300004-13010-038510FM-12+005199999V0200501N003112200019N9999999N1+02471+02251101081ADDAA199000091GA1001+999999999GF100991001001999999001001KA1240M+02951MA1999999100481MD1999999-0081REMSYN082AAXX  23004 83229 329// 00506 10247 20225 30048 40108 333 10295 29082 55084 59008;EQDQ01  00002PRCP99
0186832290999992001102312004-13010-038510FM-12+005199999V0200901N000510075019N0040001N1+02651+02231101331ADDAA199000091GF107991061051008001001081KA1240N+02281MA1999999100741MD1999999-0011REMSYN076AAXX  23124 83229 32596 70901 10265 20223 30074 40133 86508 333 20228 59001;EQDQ01  00002PRCP99
0167832290999992001102318004-13010-038510FM-12+005199999V0201801N001510450019N0040001N1+02781+02341101221ADDAA199000091GF105991021021008001031001MA1999999100631MD1999999-0121REMSYN070AAXX  23184 83229 32596 51803 10278 20234 30063 40122 82230 333 59012;EQDQ01  00002PRCP99
0198832290999992001102400004-13010-038510FM-12+005199999V0200501N001011050019N9999999N1+02541+02291101411ADDAA199000091GF105991011021008001031081KA1240M+02931MA1999999100811MD1999999+0331REMSYN088AAXX  24004 83229 325// 50502 10254 20229 30081 40141 81238 333 10293 29082 55059 58033;EQDQ01  00002PRCP99
0167832290999992001102418004-13010-038510FM-12+005199999V0200501N001512200019N0200001N1+02851+02371101601ADDAA199000091GF102991021021008001001001MA1999999101011MD1999999+0381REMSYN070AAXX  24184 83229 32598 20503 10285 20237 30101 40160 82200 333 58038;EQDQ01  00002PRCP99
0198832290999992001102500004-13010-038510FM-12+005199999V0200901N002112200019N9999999N1+02471+02171101771ADDAA199000091GF104991041001012501031001KA1240M+02941MA1999999101171MD1999999+0361REMSYN088AAXX  25004 83229 326// 40904 10247 20217 30117 40177 84030 333 10294 29080 55079 58036;EQDQ01  00002PRCP99
0186832290999992001102512004-13010-038510FM-12+005199999V0201401N002612200019N0100001N1+02801+02361101861ADDAA199000091GF102991021021008001061001KA1240N+02401MA1999999101271MD1999999+0171REMSYN076AAXX  25124 83229 32597 21405 10280 20236 30127 40186 82260 333 20240 58017;EQDQ01  00002PRCP99
0182832290999992001102518004-13010-038510FM-12+005199999V0201401N002112200019N0040001N1+02601+02251101551ADDAA106006191AY161061AY211061GF103991021021008001031051MA1999999100961MD1999999-0051MW1011REMSYN082AAXX  25184 83229 21596 31404 10260 20225 30096 40155 70161 82235 333 59005 60061;
0213832290999992001102600004-13010-038510FM-12+005199999V0201401N004110075019N9999999N1+02471+02171101701ADDAA106000591AY161061AY251061GF105991051051008001001001KA1240M+02921MA1999999101101MD1999999-0071MW1031REMSYN100AAXX  26004 83229 215// 51408 10247 20217 30110 40170 70365 85500 333 10292 29082 55078 59007 69961;
0193832290999992001102612004-13010-038510FM-12+005199999V0201401N003110450019N0040001N1+02521+02171101731ADDAA124034091AY161061GF106991031031008001021001KA1240N+02181MA1999999101131MD1999999-0141MW1031REMSYN088AAXX  26124 83229 21596 61406 10252 20217 30113 40173 7036/ 83320 333 20218 59014 60344;
0182832290999992001102618004-13010-038510FM-12+005199999V0201401N002610450019N0040001N1+02361+02071101491ADDAA106000191AY151061AY221061GF107991021021008001021001MA1999999100891MD1999999-0071MW1031REMSYN082AAXX  26184 83229 21596 71405 10236 20207 30089 40149 70352 82220 333 59007 69911;
0213832290999992001102700004-13010-038510FM-12+005199999V0201401N006210075019N9999999N1+02371+01991101651ADDAA106002091AY151061AY221061GF108991061051008001071999KA1240M+02671MA1999999101051MD1999999-0051MW1031REMSYN100AAXX  27004 83229 215// 81412 10237 20199 30105 40165 70352 8657/ 333 10267 29081 55028 59005 60021;
0201832290999992001102712004-13010-038510FM-12+005199999V0201401N002610120019N0040001N1+02421+01881101761ADDAA124002091AY161061AY221061GF106991061051012501001001KA1240N+02151MA1999999101161MD1999999-0031MW1031REMSYN088AAXX  27124 83229 21696 61405 10242 20188 30116 40176 70362 86500 333 20215 59003 60024;
0167832290999992001102718004-13010-038510FM-12+005199999V0201401N002610450019N0100001N1+02561+01831101451ADDAA199000091GF105991031021008001031001MA1999999100851MD1999999-0041REMSYN070AAXX  27184 83229 32597 51405 10256 20183 30085 40145 83230 333 59004;EQDQ01  00002PRCP99
0208832290999992001102800004-13010-038510FM-12+005199999V0201401N001512200019N9999999N1+02341+01761101671ADDAA199000091GA1001+999999999GF100991001001999999001001KA1240M+02711MA1999999101071MD1999999+0021REMSYN082AAXX  28004 83229 329// 01403 10234 20176 30107 40167 333 10271 29069 55057 58002;EQDQ01  00002PRCP99
0186832290999992001102812004-13010-038510FM-12+005199999V0201401N001512200019N0200001N1+02641+01951101651ADDAA199000091GF103991031021008001001001KA1240N+02191MA1999999101061MD1999999-0101REMSYN076AAXX  28124 83229 32598 31403 10264 20195 30106 40165 83200 333 20219 59010;EQDQ01  00002PRCP99
0167832290999992001102818004-13010-038510FM-12+005199999V0201401N002612200019N0200001N1+02621+01911101401ADDAA199000091GF101991011031008001001001MA1999999100811MD1999999-0041REMSYN070AAXX  28184 83229 32598 11405 10262 20191 30081 40140 81300 333 59004;EQDQ01  00002PRCP99
0186832290999992001102912004-13010-038510FM-12+005199999V0201401N001512200019N0200001N1+02671+02201101651ADDAA199000091GF103991031041008001001001KA1240N+02221MA1999999101061MD1999999+0001REMSYN076AAXX  29124 83229 32598 31403 10267 20220 30106 40165 83400 333 20222 58000;EQDQ01  00002PRCP99
0167832290999992001102918004-13010-038510FM-12+005199999V0201401N003112200019N0200001N1+02721+02281101341ADDAA199000091GF104991041051008001001001MA1999999100751MD1999999-0061REMSYN070AAXX  29184 83229 32598 41406 10272 20228 30075 40134 84500 333 59006;EQDQ01  00002PRCP99
0214832290999992001103000004-13010-038510FM-12+005199999V0200901N001512200019N9999999N1+02501+02271101561ADDAA199000091GF103991999021008001001001KA1240M+02871MA1999999100961MD1999999-0041REMSYN088AAXX  30004 83229 325// 30903 10250 20227 30096 40156 86200 333 10287 29082 55103 59004;EQDQ01+000062SCOTLCQ02  00002PRCP99
0201832290999992001103012004-13010-038510FM-12+005199999V0200501N001512200019N0200001N1+02731+02191101571ADDAA124000591AY151061AY201061GF104991031041008001001011KA1240N+02321MA1999999100981MD1999999-0081MW1031REMSYN088AAXX  30124 83229 21598 40503 10273 20219 30098 40157 70350 83401 333 20232 59008 69944;
0167832290999992001103018004-13010-038510FM-12+005199999V0200501N002610450019N0100001N1+02721+02241101341ADDAA199000091GF107991011021008001051081MA1999999100751MD1999999+0001REMSYN070AAXX  30184 83229 32597 70505 10272 20224 30075 40134 81258 333 58000;EQDQ01  00002PRCP99
0208832290999992001103100004-13010-038510FM-12+005199999V0200501N002612200019N9999999N1+02501+02191101531ADDAA199000091GA1001+999999999GF100991001001999999001001KA1240M+02951MA1999999100931MD1999999-0031REMSYN082AAXX  31004 83229 329// 00505 10250 20219 30093 40153 333 10295 29078 55085 59003;EQDQ01  00002PRCP99
0193832290999992001103112004-13010-038510FM-12+005199999V0201401N002112200019N0200001N1+02801+02251101591ADDAA124000191AY161061GF103991021021008001001061KA1240N+02351MA1999999101001MD1999999+0021MW1031REMSYN088AAXX  31124 83229 21598 31404 10280 20225 30100 40159 7036/ 82206 333 20235 58002 69924;
0167832290999992001103118004-13010-038510FM-12+005199999V0201401N002612200019N0200001N1+02841+02121101261ADDAA199000091GF102991011021008001001061MA1999999100671MD1999999-0081REMSYN070AAXX  31184 83229 32598 21405 10284 20212 30067 40126 81206 333 59008;EQDQ01  00002PRCP99
0198832290999992001110100004-13010-038510FM-12+005199999V0201401N002111050019N9999999N1+02451+02071101401ADDAA199000091GF107991011021012501001071KA1240M+02931MA1999999100801MD1999999-0131REMSYN088AAXX  01004 83229 326// 71404 10245 20207 30080 40140 81207 333 10293 29074 55106 59013;EQDQ01  00002PRCP99
0186832290999992001110112004-13010-038510FM-12+005199999V0200501N001010450019N0200001N1+02791+02041101391ADDAA199000091GF107991021021008001051061KA1240N+02331MA1999999100801MD1999999-0201REMSYN076AAXX  01124 83229 32598 70502 10279 20204 30080 40139 82256 333 20233 59020;EQDQ01  00002PRCP99
0167832290999992001110118004-13010-038510FM-12+005199999V0201401N002612200019N0200001N1+02841+02171101071ADDAA199000091GF103991011021008001041061MA1999999100481MD1999999-0191REMSYN070AAXX  01184 83229 32598 31405 10284 20217 30048 40107 81246 333 59019;EQDQ01  00002PRCP99
0198832290999992001110200004-13010-038510FM-12+005199999V0200901N001012200019N9999999N1+02471+02091101151ADDAA199000091GF102991011021008001001011KA1240M+02971MA1999999100551MD1999999-0251REMSYN088AAXX  02004 83229 325// 20902 10247 20209 30055 40115 81201 333 10297 29073 55085 59025;EQDQ01  00002PRCP99
0186832290999992001110212004-13010-038510FM-12+005199999V0200501N001012200019N0100001N1+02751+02301101231ADDAA199000091GF104991031051008001001011KA1240N+02221MA1999999100641MD1999999-0161REMSYN076AAXX  02124 83229 32597 40502 10275 20230 30064 40123 83501 333 20222 59016;EQDQ01  00002PRCP99
0167832290999992001110218004-13010-038510FM-12+005199999V0200901N003112200019N0100001N1+02861+02191101071ADDAA199000091GF104991011001017501031081MA1999999100481MD1999999+0001REMSYN070AAXX  02184 83229 32797 40906 10286 20219 30048 40107 81038 333 58000;EQDQ01  00002PRCP99
0198832290999992001110300004-13010-038510FM-12+005199999V0200501N001512200019N9999999N1+02521+02151101311ADDAA199000091GF101991001001999999001081KA1240M+03001MA1999999100711MD1999999+0161REMSYN088AAXX  03004 83229 329// 10503 10252 20215 30071 40131 80008 333 10300 29076 55078 58016;EQDQ01  00002PRCP99
0186832290999992001110312004-13010-038510FM-12+005199999V0200901N002112200019N0200001N1+02921+02221101351ADDAA199000091GF103991031041008001001001KA1240N+02401MA1999999100761MD1999999+0121REMSYN076AAXX  03124 83229 32598 30904 10292 20222 30076 40135 83400 333 20240 58012;EQDQ01  00002PRCP99
0167832290999992001110318004-13010-038510FM-12+005199999V0200501N003112200019N0200001N1+02871+02201101211ADDAA199000091GF102991011011008001001011MA1999999100621MD1999999-0021REMSYN070AAXX  03184 83229 32598 20506 10287 20220 30062 40121 81101 333 59002;EQDQ01  00002PRCP99
0198832290999992001110400004-13010-038510FM-12+005199999V0200501N002112200019N9999999N1+02511+02171101361ADDAA199000091GF101991001001999999001011KA1240M+02911MA1999999100761MD1999999+0051REMSYN088AAXX  04004 83229 329// 10504 10251 20217 30076 40136 80001 333 10291 29075 55003 58005;EQDQ01  00002PRCP99
0186832290999992001110412004-13010-038510FM-12+005199999V0203601N001512200019N0100001N1+02821+02101101321ADDAA199000091GF103991031041008001001001KA1240N+02321MA1999999100731MD1999999-0031REMSYN076AAXX  04124 83229 32597 33603 10282 20210 30073 40132 83400 333 20232 59003;EQDQ01  00002PRCP99
0167832290999992001110418004-13010-038510FM-12+005199999V0200901N002112200019N0200001N1+02961+02261101061ADDAA199000091GF101991001001999999001061MA1999999100481MD1999999-0141REMSYN070AAXX  04184 83229 32998 10904 10296 20226 30048 40106 80006 333 59014;EQDQ01  00002PRCP99
0208832290999992001110500004-13010-038510FM-12+005199999V0200501N002612200019N9999999N1+02521+02151101191ADDAA199000091GA1001+999999999GF100991001001999999001001KA1240M+03051MA1999999100591MD1999999-0171REMSYN082AAXX  05004 83229 329// 00505 10252 20215 30059 40119 333 10305 29073 55092 59017;EQDQ01  00002PRCP99
0186832290999992001110512004-13010-038510FM-12+005199999V0202701N001512200019N0100001N1+02821+02311101401ADDAA199000091GF104991031041008001001061KA1240N+02131MA1999999100811MD1999999+0081REMSYN076AAXX  05124 83229 32597 42703 10282 20231 30081 40140 83406 333 20213 58008;EQDQ01  00002PRCP99
0167832290999992001110518004-13010-038510FM-12+005199999V0200901N003112200019N0200001N1+02941+02261101101ADDAA199000091GF101991011001012501021001MA1999999100521MD1999999+0041REMSYN070AAXX  05184 83229 32698 10906 10294 20226 30052 40110 81020 333 58004;EQDQ01  00002PRCP99
0186832290999992001110612004-13010-038510FM-12+005199999V0200501N001011050019N0100001N1+02831+02101101521ADDAA199000091GF105991021021008001061061KA1240N+02361MA1999999100931MD1999999+0121REMSYN076AAXX  06124 83229 32597 50502 10283 20210 30093 40152 82266 333 20236 58012;EQDQ01  00002PRCP99
0167832290999992001110618004-13010-038510FM-12+005199999V0200901N001512200019N0100001N1+02881+02321101281ADDAA199000091GF105991011021012501001061MA1999999100691MD1999999+0171REMSYN070AAXX  06184 83229 32697 50903 10288 20232 30069 40128 81206 333 58017;EQDQ01  00002PRCP99
0198832290999992001110700004-13010-038510FM-12+005199999V0201401N001012200019N9999999N1+02531+02231101571ADDAA199000091GF102991021021008001001001KA1240M+03041MA1999999100971MD1999999+0361REMSYN088AAXX  07004 83229 325// 21402 10253 20223 30097 40157 82200 333 10304 29076 55095 58036;EQDQ01  00002PRCP99
0193832290999992001110712004-13010-038510FM-12+005199999V0201401N002111050019N0200001N1+02861+02281101721ADDAA124000591AY161061GF105991021021008001041061KA1240N+02411MA1999999101131MD1999999+0201MW1031REMSYN088AAXX  07124 83229 21598 51404 10286 20228 30113 40172 7036/ 82246 333 20241 58020 69944;
0167832290999992001110718004-13010-038510FM-12+005199999V0201401N003112200019N0100001N1+02821+02151101441ADDAA199000091GF104991011021008001041061MA1999999100851MD1999999+0161REMSYN070AAXX  07184 83229 32597 41406 10282 20215 30085 40144 81246 333 58016;EQDQ01  00002PRCP99
0198832290999992001110800004-13010-038510FM-12+005199999V0200501N001512200019N9999999N1+02491+02091101601ADDAA199000091GF101991011021012501001001KA1240M+03001MA1999999101001MD1999999+0031REMSYN088AAXX  08004 83229 326// 10503 10249 20209 30100 40160 81200 333 10300 29074 55091 58003;EQDQ01  00002PRCP99
0201832290999992001110812004-13010-038510FM-12+005199999V0200901N000510450019N0100001N1+02761+02041101661ADDAA124000191AY161061AY201061GF106991011031008001051081KA1240N+02321MA1999999101071MD1999999-0061MW1021REMSYN088AAXX  08124 83229 21597 60901 10276 20204 30107 40166 70260 81358 333 20232 59006 69924;
0137832290999992001110818004-13010-038510FM-12+005199999V0201401N001510120019N0100001N1+02821+02331101491ADDGF107991051051012501021001MA1999999100901MD1999999+0051REMSYN070AAXX  08184 83229 21697 71403 10282 20233 30090 40149 85520 333 58005;
0198832290999992001110900004-13010-038510FM-12+005199999V0200901N001512200019N9999999N1+02521+02151101501ADDAA199000091GF101991011021008001001001KA1240M+03001MA1999999100901MD1999999-0101REMSYN088AAXX  09004 83229 325// 10903 10252 20215 30090 40150 81200 333 10300 29075 55027 59010;EQDQ01  00002PRCP99
0186832290999992001110912004-13010-038510FM-12+005199999V0200901N002110450019N0100001N1+02821+02221101621ADDAA199000091GF106991031051008001051001KA1240N+02221MA1999999101031MD1999999-0041REMSYN076AAXX  09124 83229 32597 60904 10282 20222 30103 40162 83550 333 20222 59004;EQDQ01  00002PRCP99
0167832290999992001110918004-13010-038510FM-12+005199999V0201401N001512200019N0100001N1+02861+02391101431ADDAA199000091GF105991041051008001001011MA1999999100841MD1999999-0061REMSYN070AAXX  09184 83229 32597 51403 10286 20239 30084 40143 84501 333 59006;EQDQ01  00002PRCP99
0198832290999992001111000004-13010-038510FM-12+005199999V0200501N001510075019N9999999N1+02561+02251101591ADDAA199000091GF106991061051008001001001KA1240M+02931MA1999999100991MD1999999+0091REMSYN088AAXX  10004 83229 325// 60503 10256 20225 30099 40159 86500 333 10293 29078 55052 58009;EQDQ01  00002PRCP99
0186832290999992001111012004-13010-038510FM-12+005199999V0200901N002612200019N0200001N1+02901+02201101711ADDAA199000091GF101991011021008001001001KA1240N+02401MA1999999101121MD1999999+0091REMSYN076AAXX  10124 83229 32598 10905 10290 20220 30112 40171 81200 333 20240 58009;EQDQ01  00002PRCP99
0177832290999992001111018004-13010-038510FM-12+005199999V0201401N001512200019N0200001N1+02841+02121101451ADDAA199000091GA1001+999999999GF100991001001999999001001MA1999999100861MD1999999+0021REMSYN064AAXX  10184 83229 32998 01403 10284 20212 30086 40145 333 58002;EQDQ01  00002PRCP99
0198832290999992001111100004-13010-038510FM-12+005199999V0200901N001512200019N9999999N1+02441+02051101511ADDAA199000091GF101991011021008001001001KA1240M+03011MA1999999100911MD1999999-0081REMSYN088AAXX  11004 83229 325// 10903 10244 20205 30091 40151 81200 333 10301 29072 55110 59008;EQDQ01  00002PRCP99
0186832290999992001111112004-13010-038510FM-12+005199999V0201401N002112200019N0200001N1+02821+02151101641ADDAA199000091GF102991021021008001001001KA1240N+02291MA1999999101051MD1999999-0071REMSYN076AAXX  11124 83229 32598 21404 10282 20215 30105 40164 82200 333 20229 59007;EQDQ01  00002PRCP99
0167832290999992001111118004-13010-038510FM-12+005199999V0201401N002612200019N0200001N1+02871+02231101431ADDAA199000091GF101991011021008001001001MA1999999100841MD1999999-0021REMSYN070AAXX  11184 83229 32598 11405 10287 20223 30084 40143 81200 333 59002;EQDQ01  00002PRCP99
0214832290999992001111200004-13010-038510FM-12+005199999V0202901N001512200019N9999999N1+02501+02091101451ADDAA199000091GA1001+999999999GF100991001001999999001001KA1240M+02991MA1999999100851MD1999999-0061REMSYN088AAXX  12004 83229 325// 02903 10250 20209 30085 40145 82200 333 10299 29073 55110 59006;EQDQ01  00002PRCP99
0186832290999992001111212004-13010-038510FM-12+005199999V0202301N000510450019N0100001N1+02661+02181101711ADDAA199000091GF105991031081008001041001KA1240N+02311MA1999999101121MD1999999+0071REMSYN076AAXX  12124 83229 32597 52301 10266 20218 30112 40171 83840 333 20231 58007;EQDQ01  00002PRCP99
0167832290999992001111218004-13010-038510FM-12+005199999V0201401N002612200019N0200001N1+02941+02291101371ADDAA199000091GF102991021021008001001051MA1999999100781MD1999999-0061REMSYN070AAXX  12184 83229 32598 21405 10294 20229 30078 40137 82205 333 59006;EQDQ01  00002PRCP99
0198832290999992001111300004-13010-038510FM-12+005199999V0200501N002612200019N9999999N1+02571+02251101511ADDAA199000091GF102991021021008001001001KA1240M+03011MA1999999100911MD1999999+0061REMSYN088AAXX  13004 83229 325// 20505 10257 20225 30091 40151 82200 333 10301 29077 55098 58006;EQDQ01  00002PRCP99
0186832290999992001111312004-13010-038510FM-12+005199999V0203201N001010450019N0100001N1+02681+02311101481ADDAA199000091GF105991041021008001061001KA1240N+02381MA1999999100891MD1999999-0231REMSYN076AAXX  13124 83229 32597 53202 10268 20231 30089 40148 84260 333 20238 59023;EQDQ01  00002PRCP99
0167832290999992001111318004-13010-038510FM-12+005199999V0200501N002112200019N0200001N1+02981+02351101021ADDAA199000091GF102991011021008001001051MA1999999100441MD1999999-0341REMSYN070AAXX  13184 83229 32598 20504 10298 20235 30044 40102 81205 333 59034;EQDQ01  00002PRCP99
0198832290999992001111400004-13010-038510FM-12+005199999V0200501N003112200019N9999999N1+02571+02231101231ADDAA199000091GF101991011021012501001001KA1240M+03061MA1999999100641MD1999999-0271REMSYN088AAXX  14004 83229 326// 10506 10257 20223 30064 40123 81200 333 10306 29078 55081 59027;EQDQ01  00002PRCP99
0186832290999992001111412004-13010-038510FM-12+005199999V0200501N002112200019N0200001N1+02921+02041101241ADDAA199000091GF104991031041008001001011KA1240N+02321MA1999999100651MD1999999-0241REMSYN076AAXX  14124 83229 32598 40504 10292 20204 30065 40124 83401 333 20232 59024;EQDQ01  00002PRCP99
0177832290999992001111418004-13010-038510FM-12+005199999V0200901N003612200019N0200001N1+02901+02221100911ADDAA199000091GA1001+999999999GF100991001001999999001001MA1999999100331MD1999999-0111REMSYN064AAXX  14184 83229 32998 00907 10290 20222 30033 40091 333 59011;EQDQ01  00002PRCP99
0198832290999992001111500004-13010-038510FM-12+005199999V0200501N002612200019N9999999N1+02561+02151101061ADDAA199000091GF101991011021008001001001KA1240M+03021MA1999999100471MD1999999-0171REMSYN088AAXX  15004 83229 325// 10505 10256 20215 30047 40106 81200 333 10302 29070 55093 59017;EQDQ01  00002PRCP99
0186832290999992001111512004-13010-038510FM-12+005199999V0203201N001010075019N0100001N1+02701+02261101341ADDAA199000091GF106991061051008001001001KA1240N+02341MA1999999100751MD1999999+0101REMSYN076AAXX  15124 83229 32597 63202 10270 20226 30075 40134 86500 333 20234 58010;EQDQ01  00002PRCP99
0167832290999992001111518004-13010-038510FM-12+005199999V0200901N002612200019N0100001N1+02921+02271101141ADDAA199000091GF102991011021008001001081MA1999999100551MD1999999+0221REMSYN070AAXX  15184 83229 32597 20905 10292 20227 30055 40114 81208 333 58022;EQDQ01  00002PRCP99
0208832290999992001111600004-13010-038510FM-12+005199999V0200501N003112200019N9999999N1+02561+02191101221ADDAA199000091GA1001+999999999GF100991001001999999001001KA1240M+02991MA1999999100631MD1999999+0161REMSYN082AAXX  16004 83229 329// 00506 10256 20219 30063 40122 333 10299 29076 55072 58016;EQDQ01  00002PRCP99
0186832290999992001111612004-13010-038510FM-12+005199999V0200901N002112200019N0040001N1+02891+02131101381ADDAA199000091GF104991031041008001001061KA1240N+02171MA1999999100791MD1999999+0041REMSYN076AAXX  16124 83229 32596 40904 10289 20213 30079 40138 83406 333 20217 58004;EQDQ01  00002PRCP99
0167832290999992001111618004-13010-038510FM-12+005199999V0200901N003112200019N0100001N1+02921+02271101221ADDAA199000091GF102991011021008001001081MA1999999100631MD1999999+0081REMSYN070AAXX  16184 83229 32597 20906 10292 20227 30063 40122 81208 333 58008;EQDQ01  00002PRCP99
0208832290999992001111700004-13010-038510FM-12+005199999V0200501N002612200019N9999999N1+02561+02271101261ADDAA199000091GA1001+999999999GF100991001001999999001001KA1240M+03051MA1999999100671MD1999999+0041REMSYN082AAXX  17004 83229 329// 00505 10256 20227 30067 40126 333 10305 29075 55080 58004;EQDQ01  00002PRCP99
0186832290999992001111712004-13010-038510FM-12+005199999V0200501N001512200019N0200001N1+02921+02291101391ADDAA199000091GF104991041041008001001001KA1240N+02371MA1999999100801MD1999999+0011REMSYN076AAXX  17124 83229 32598 40503 10292 20229 30080 40139 84400 333 20237 58001;EQDQ01  00002PRCP99
0182832290999992001111718004-13010-038510FM-12+005199999V0200901N002112200019N0100001N1+02841+02221101201ADDAA106000591AY151061AY211061GF104991021021008001051061MA1999999100611MD1999999-0021MW1011REMSYN082AAXX  17184 83229 21597 40904 10284 20222 30061 40120 70151 82256 333 59002 69951;
0208832290999992001111800004-13010-038510FM-12+005199999V0200501N003612200019N9999999N1+02561+02251101271ADDAA199000091GA1001+999999999GF100991001001999999001001KA1240M+03031MA1999999100681MD1999999+0011REMSYN082AAXX  18004 83229 329// 00507 10256 20225 30068 40127 333 10303 29076 55053 58001;EQDQ01  00002PRCP99
0173832290999992001111812004-13010-038510FM-12+005199999V0200501N001012200019N0040001N1+02951+02331101541ADDAA124000591GF104991021021008001061061KA1240N+02391MA1999999100951MD1999999+0151REMSYN082AAXX  18124 83229 22596 40502 10295 20233 30095 40154 82266 333 20239 58015 69954;
0167832290999992001111818004-13010-038510FM-12+005199999V0200501N003112200019N0100001N1+02931+02241101171ADDAA199000091GF103991011011012501001061MA1999999100591MD1999999-0021REMSYN070AAXX  18184 83229 32697 30506 10293 20224 30059 40117 81106 333 59002;EQDQ01  00002PRCP99
0198832290999992001111900004-13010-038510FM-12+005199999V0200501N001512200019N9999999N1+02551+02271101481ADDAA199000091GF101991011021008001001001KA1240M+03021MA1999999100881MD1999999+0201REMSYN088AAXX  19004 83229 325// 10503 10255 20227 30088 40148 81200 333 10302 29077 55084 58020;EQDQ01  00002PRCP99
0186832290999992001111912004-13010-038510FM-12+005199999V0200501N002612200019N0200001N1+02921+02271101621ADDAA199000091GF102991021021008001001051KA1240N+02371MA1999999101031MD1999999+0081REMSYN076AAXX  19124 83229 32598 20505 10292 20227 30103 40162 82205 333 20237 58008;EQDQ01  00002PRCP99
0167832290999992001111918004-13010-038510FM-12+005199999V0200501N003112200019N0200001N1+02921+02061101331ADDAA199000091GF102991011021008001001051MA1999999100741MD1999999+0151REMSYN070AAXX  19184 83229 32598 20506 10292 20206 30074 40133 81205 333 58015;EQDQ01  00002PRCP99
0208832290999992001112000004-13010-038510FM-12+005199999V0200501N002112200019N9999999N1+02501+02111101561ADDAA199000091GA1001+999999999GF100991001001999999001001KA1240M+03131MA1999999100961MD1999999+0081REMSYN082AAXX  20004 83229 329// 00504 10250 20211 30096 40156 333 10313 29072 55107 58008;EQDQ01  00002PRCP99
0186832290999992001112012004-13010-038510FM-12+005199999V0200901N003112200019N0200001N1+02941+02071101491ADDAA199000091GF101991011021008001001001KA1240N+02261MA1999999100901MD1999999-0131REMSYN076AAXX  20124 83229 32598 10906 10294 20207 30090 40149 81200 333 20226 59013;EQDQ01  00002PRCP99
0167832290999992001112018004-13010-038510FM-12+005199999V0200501N002612200019N0200001N1+02921+02121101231ADDAA199000091GF101991011031008001001001MA1999999100641MD1999999-0101REMSYN070AAXX  20184 83229 32598 10505 10292 20212 30064 40123 81300 333 59010;EQDQ01  00002PRCP99
0208832290999992001112100004-13010-038510FM-12+005199999V0200501N001512200019N9999999N1+02471+02011101371ADDAA199000091GA1001+999999999GF100991001001999999001001KA1240M+03051MA1999999100771MD1999999-0191REMSYN082AAXX  21004 83229 329// 00503 10247 20201 30077 40137 333 10305 29069 55112 59019;EQDQ01  00002PRCP99
0186832290999992001112112004-13010-038510FM-12+005199999V0201401N001512200019N0200001N1+02781+02061101581ADDAA199000091GF104991031041008001001011KA1240N+02221MA1999999100991MD1999999+0091REMSYN076AAXX  21124 83229 32598 41403 10278 20206 30099 40158 83401 333 20222 58009;EQDQ01  00002PRCP99
0167832290999992001112118004-13010-038510FM-12+005199999V0200901N001510450019N0200001N1+02901+02371101381ADDAA199000091GF105991021041008001041001MA1999999100491MD1999999-0131REMSYN070AAXX  21184 83229 32598 50903 10290 20237 30049 40138 82440 333 59013;EQDQ01  00002PRCP99
0213832290999992001112200004-13010-038510FM-12+005199999V0200501N002110450019N9999999N1+02481+02301101551ADDAA106000191AY151061AY221061GF106991031051008001051001KA1240M+03041MA1999999100951MD1999999+0181MW1031REMSYN100AAXX  22004 83229 215// 60504 10248 20230 30095 40155 70352 83550 333 10304 29080 55085 58018 69921;
0173832290999992001112212004-13010-038510FM-12+005199999V0200501N002112200019N0200001N1+02871+02281101581ADDAA124000191GF104991021051008001001081KA1240N+02241MA1999999100991MD1999999+0001REMSYN082AAXX  22124 83229 22598 40504 10287 20228 30099 40158 82508 333 20224 58000 69924;
0167832290999992001112218004-13010-038510FM-12+005199999V0200901N003112200019N0200001N1+02961+02451101391ADDAA199000091GF102991021021008001001001MA1999999100801MD1999999+0011REMSYN070AAXX  22184 83229 32598 20906 10296 20245 30080 40139 82200 333 58001;EQDQ01  00002PRCP99
0198832290999992001112300004-13010-038510FM-12+005199999V0200501N003112200019N9999999N1+02501+02171101381ADDAA199000091GF103991001001999999001081KA1240M+03031MA1999999100781MD1999999-0171REMSYN088AAXX  23004 83229 329// 30506 10250 20217 30078 40138 80008 333 10303 29077 55085 59017;EQDQ01  00002PRCP99
0186832290999992001112312004-13010-038510FM-12+005199999V0200901N002112200019N0200001N1+02881+02231101271ADDAA199000091GF103991021041008001031001KA1240N+02421MA1999999100681MD1999999-0311REMSYN076AAXX  23124 83229 32598 30904 10288 20223 30068 40127 82430 333 20242 59031;EQDQ01  00002PRCP99
0167832290999992001112318004-13010-038510FM-12+005199999V0200901N002112200019N0200001N1+02961+02131101101ADDAA199000091GF101991011001012501031001MA1999999100511MD1999999-0291REMSYN070AAXX  23184 83229 32698 10904 10296 20213 30051 40110 81030 333 59029;EQDQ01  00002PRCP99
0208832290999992001112400004-13010-038510FM-12+005199999V0200501N001012200019N9999999N1+02461+02031101091ADDAA199000091GA1001+999999999GF100991001001999999001001KA1240M+03051MA1999999100491MD1999999-0291REMSYN082AAXX  24004 83229 329// 00502 10246 20203 30049 40109 333 10305 29071 55088 59029;EQDQ01  00002PRCP99
0186832290999992001112412004-13010-038510FM-12+005199999V0200501N001512200019N0100001N1+02841+02141101201ADDAA199000091GF104991021021008001041061KA1240N+02351MA1999999100611MD1999999-0071REMSYN076AAXX  24124 83229 32597 40503 10284 20214 30061 40120 82246 333 20235 59007;EQDQ01  00002PRCP99
0167832290999992001112418004-13010-038510FM-12+005199999V0200501N002111050019N0100001N1+02921+02241100981ADDAA199000091GF105991011021008001051061MA1999999100401MD1999999-0111REMSYN070AAXX  24184 83229 32597 50504 10292 20224 30040 40098 81256 333 59011;EQDQ01  00002PRCP99
0208832290999992001112500004-13010-038510FM-12+005199999V0200501N001512200019N9999999N1+02521+02171101211ADDAA199000091GA1001+999999999GF100991001001999999001001KA1240M+03091MA1999999100611MD1999999+0121REMSYN082AAXX  25004 83229 329// 00503 10252 20217 30061 40121 333 10309 29074 55065 58012;EQDQ01  00002PRCP99
0186832290999992001112512004-13010-038510FM-12+005199999V0201401N001510450019N0200001N1+02931+02171101351ADDAA199000091GF105991021021008001031001KA1240N+02371MA1999999100761MD1999999+0151REMSYN076AAXX  25124 83229 32598 51403 10293 20217 30076 40135 82230 333 20237 58015;EQDQ01  00002PRCP99
0167832290999992001112518004-13010-038510FM-12+005199999V0201401N002112200019N0200001N1+02901+02171101071ADDAA199000091GF103991011021008001001061MA1999999100491MD1999999+0091REMSYN070AAXX  25184 83229 32598 31404 10290 20217 30049 40107 81206 333 58009;EQDQ01  00002PRCP99
0198832290999992001112600004-13010-038510FM-12+005199999V0200901N001019999999N9999999N1+02511+02211101301ADDAA199000091GF105991051001999999051001KA1240M+03031MA1999999100701MD1999999+0091REMSYN088AAXX  26004 83229 329// 50902 10251 20221 30070 40130 85050 333 10303 29074 55086 58009;EQDQ01  00002PRCP99
0201832290999992001112612004-13010-038510FM-12+005199999V0200901N002110450019N0100001N1+02641+02391101411ADDAA124000591AY151061AY221061GF106991041051008001051001KA1240N+02341MA1999999100821MD1999999+0061MW1031REMSYN088AAXX  26124 83229 21597 60904 10264 20239 30082 40141 70352 84550 333 20234 58006 69944;
0182832290999992001112618004-13010-038510FM-12+005199999V0200501N002610450019N0100001N1+02791+02211101211ADDAA106013091AY161061AY251061GF106991031051008001051081MA1999999100621MD1999999+0161MW1011REMSYN082AAXX  26184 83229 21597 60505 10279 20221 30062 40121 70165 83558 333 58016 60131;
0198832290999992001112700004-13010-038510FM-12+005199999V0200501N001512200019N9999999N1+02461+02251101371ADDAA199000091GF102991011021008001031001KA1240M+02891MA1999999100771MD1999999+0071REMSYN088AAXX  27004 83229 325// 20503 10246 20225 30077 40137 81230 333 10289 29083 55053 58007;EQDQ01  00002PRCP99
0173832290999992001112712004-13010-038510FM-12+005199999V0200501N002612200019N0100001N1+02881+02161101421ADDAA124013091GF103991011021008001031001KA1240N+02301MA1999999100831MD1999999+0011REMSYN082AAXX  27124 83229 22597 30505 10288 20216 30083 40142 81230 333 20230 58001 60134;
0167832290999992001112718004-13010-038510FM-12+005199999V0201401N002112200019N0200001N1+02961+02261101231ADDAA199000091GF102991011021008001031001MA1999999100651MD1999999+0031REMSYN070AAXX  27184 83229 32598 21404 10296 20226 30065 40123 81230 333 58003;EQDQ01  00002PRCP99
0198832290999992001112800004-13010-038510FM-12+005199999V0200501N002612200019N9999999N1+02501+02271101321ADDAA199000091GF101991011001012501031001KA1240M+03051MA1999999100721MD1999999-0051REMSYN088AAXX  28004 83229 326// 10505 10250 20227 30072 40132 81030 333 10305 29076 55104 59005;EQDQ01  00002PRCP99
0186832290999992001112812004-13010-038510FM-12+005199999V0200501N002112200019N0200001N1+02971+02101101351ADDAA199000091GF102991021041008001001001KA1240N+02371MA1999999100761MD1999999-0071REMSYN076AAXX  28124 83229 32598 20504 10297 20210 30076 40135 82400 333 20237 59007;EQDQ01  00002PRCP99
0167832290999992001112818004-13010-038510FM-12+005199999V0200901N003112200019N0200001N1+02951+02331101141ADDAA199000091GF101991001001999999001011MA1999999100561MD1999999-0091REMSYN070AAXX  28184 83229 32998 10906 10295 20233 30056 40114 80001 333 59009;EQDQ01  00002PRCP99
0208832290999992001112900004-13010-038510FM-12+005199999V0200501N002112200019N9999999N1+02521+02151101171ADDAA199000091GA1001+999999999GF100991001001999999001001KA1240M+03081MA1999999100571MD1999999-0151REMSYN082AAXX  29004 83229 329// 00504 10252 20215 30057 40117 333 10308 29072 55112 59015;EQDQ01  00002PRCP99
0186832290999992001112912004-13010-038510FM-12+005199999V0202701N001012200019N0100001N1+02721+02431101221ADDAA199000091GF103991031021008001001001KA1240N+02361MA1999999100631MD1999999-0131REMSYN076AAXX  29124 83229 32597 32702 10272 20243 30063 40122 83200 333 20236 59013;EQDQ01  00002PRCP99
0182832290999992001112918004-13010-038510FM-12+005199999V0200501N002612200019N0100001N1+02801+02401100971ADDAA106016091AY161061AY201061GF105991041051008001001081MA1999999100381MD1999999-0181MW1011REMSYN082AAXX  29184 83229 21597 50505 10280 20240 30038 40097 70160 84508 333 59018 60161;
0214832290999992001113000004-13010-038510FM-12+005199999V0200501N003612200019N9999999N1+02591+02331101021ADDAA199000091GF102991999021008001001001KA1240M+02891MA1999999100431MD1999999-0141REMSYN088AAXX  30004 83229 325// 20507 10259 20233 30043 40102 81200 333 10289 29084 55067 59014;EQDQ01+000012SCOTLCQ02  00002PRCP99
0173832290999992001113012004-13010-038510FM-12+005199999V0200501N002610450019N0100001N1+02811+02311101141ADDAA124016091GF106991031031008001061061KA1240N+02481MA1999999100551MD1999999-0081REMSYN082AAXX  30124 83229 22597 60505 10281 20231 30055 40114 83366 333 20248 59008 60164;
0182832290999992001113018004-13010-038510FM-12+005199999V0200501N003110450019N0100001N1+02721+02391100861ADDAA106015091AY191061AY261061GF106991011021008001051051MA1999999100271MD1999999-0111MW1031REMSYN082AAXX  30184 83229 21597 60506 10272 20239 30027 40086 70396 81255 333 59011 60151;
0198832290999992001120100004-13010-038510FM-12+005199999V0200501N003110450019N9999999N1+02601+02371101091ADDAA199000091GF106991021021008001051001KA1240M+02881MA1999999100501MD1999999+0071REMSYN088AAXX  01004 83229 325// 60506 10260 20237 30050 40109 82250 333 10288 29083 55013 58007;EQDQ01  00002PRCP99
0201832290999992001120112004-13010-038510FM-12+005199999V0200501N001510120019N0040001N1+02821+02421101261ADDAA124016091AY191061AY251061GF107991051081008001051001KA1240N+02431MA1999999100671MD1999999+0121MW1031REMSYN088AAXX  01124 83229 21596 70503 10282 20242 30067 40126 70395 85850 333 20243 58012 60164;
0182832290999992001120118004-13010-038510FM-12+005199999V0200501N003112200019N0040001N1+02931+02431100921ADDAA106007991AY161061AY211061GF103991021021008001041001MA1999999100341MD1999999+0071MW1011REMSYN082AAXX  01184 83229 21596 30506 10293 20243 30034 40092 70161 82240 333 58007 60081;
0198832290999992001120200004-13010-038510FM-12+005199999V0200501N002610450019N9999999N1+02581+02371101161ADDAA199000091GF105991021021008001051001KA1240M+02961MA1999999100571MD1999999+0071REMSYN088AAXX  02004 83229 325// 50505 10258 20237 30057 40116 82250 333 10296 29082 55029 58007;EQDQ01  00002PRCP99
0173832290999992001120212004-13010-038510FM-12+005199999V0200901N002110120019N0040001N1+02791+02421101221ADDAA124007991GF105991051051012501001001KA1240N+02501MA1999999100631MD1999999-0041REMSYN082AAXX  02124 83229 22696 50904 10279 20242 30063 40122 85500 333 20250 59004 60084;
0167832290999992001120218004-13010-038510FM-12+005199999V0200501N002610450019N0200001N1+02871+02461101001ADDAA199000091GF106991021021008001031001MA1999999100411MD1999999+0071REMSYN070AAXX  02184 83229 32598 60505 10287 20246 30041 40100 82230 333 58007;EQDQ01  00002PRCP99
0198832290999992001120300004-13010-038510FM-12+005199999V0200501N001010150019N9999999N1+02581+02351101221ADDAA199000091GF106991061001017501051001KA1240M+02951MA1999999100631MD1999999+0061REMSYN088AAXX  03004 83229 327// 60502 10258 20235 30063 40122 86050 333 10295 29083 55027 58006;EQDQ01  00002PRCP99
0186832290999992001120312004-13010-038510FM-12+005199999V0201801N001510450019N0100001N1+02551+02381101321ADDAA199000091GF107991041081004501021001KA1240N+02521MA1999999100731MD1999999+0101REMSYN076AAXX  03124 83229 32497 71803 10255 20238 30073 40132 84820 333 20252 58010;EQDQ01  00002PRCP99
0167832290999992001120318004-13010-038510FM-12+005199999V0201401N003110450019N0040001N1+02621+02311101181ADDAA199000091GF105991021081008001041001MA1999999100591MD1999999+0181REMSYN070AAXX  03184 83229 32596 51406 10262 20231 30059 40118 82840 333 58018;EQDQ01  00002PRCP99
0213832290999992001120400004-13010-038510FM-12+005199999V0201401N002610450019N9999999N1+02321+02251101391ADDAA106006191AY161061AY211061GF107991041031004501021001KA1240M+02711MA1999999100791MD1999999+0161MW1611REMSYN100AAXX  04004 83229 214// 71405 10232 20225 30079 40139 76161 84320 333 10271 29092 55024 58016 60061;
0201832290999992001120412004-13010-038510FM-12+005199999V0202701N001510042019N0040001N1+02431+02211101481ADDAA124007191AY161061AY261061GF108991081071004501999999KA1240N+02191MA1999999100881MD1999999+0151MW1031REMSYN088AAXX  04124 83229 21496 82703 10243 20221 30088 40148 70366 887// 333 20219 58015 60074;
0182832290999992001120418004-13010-038510FM-12+005199999V0201801N001510042019N0040001N1+02461+02371101301ADDAA106002091AY161061AY221061GF107991051051004501031001MA1999999100711MD1999999+0121MW1581REMSYN082AAXX  04184 83229 21496 71803 10246 20237 30071 40130 75862 85530 333 58012 60021;
0179832290999992001120500004-13010-038510FM-12+005199999V0200901N002112200019N9999999N1+02441+02301101421ADDAA199000021GF103991031051008001001001KA1240M+02711MA1999999100831MD1999999+0041REMSYN088AAXX  05004 83229 325// 30904 10244 20230 30083 40142 83500 333 10271 29091 55009 58004;
0201832290999992001120512004-13010-038510FM-12+005199999V0200501N002612200019N0040001N1+02851+02351101431ADDAA124008991AY161061AY251061GF103991021031008001041001KA1240N+02291MA1999999100841MD1999999-0041MW1031REMSYN088AAXX  05124 83229 21596 30505 10285 20235 30084 40143 70365 82340 333 20229 59004 60094;
0167832290999992001120518004-13010-038510FM-12+005199999V0200901N002612200019N0100001N1+02921+02141101231ADDAA199000091GF102991011021008001041001MA1999999100641MD1999999-0071REMSYN070AAXX  05184 83229 32597 20905 10292 20214 30064 40123 81240 333 59007;EQDQ01  00002PRCP99
0198832290999992001120600004-13010-038510FM-12+005199999V0200501N001012200019N9999999N1+02461+02231101381ADDAA199000091GF101991011021008001001001KA1240M+02971MA1999999100781MD1999999-0051REMSYN088AAXX  06004 83229 325// 10502 10246 20223 30078 40138 81200 333 10297 29078 55082 59005;EQDQ01  00002PRCP99
0202832290999992001120612004-13010-038510FM-12+005199999V0200501N001512200019N0040001N1+02861+02331101461ADDAA199000091GF104991999031004501001001KA1240N+02331MA1999999100811MD1999999-0031REMSYN076AAXX  06124 83229 32496 40503 10286 20233 30081 40146 83300 333 20233 59003;EQDQ01+000032SCOTLCQ02  00002PRCP99
0167832290999992001120618004-13010-038510FM-12+005199999V0200901N003112200019N0200001N1+02941+02451101291ADDAA199000091GF102991021011004501001001MA1999999100701MD1999999+0061REMSYN070AAXX  06184 83229 32498 20906 10294 20245 30070 40129 82100 333 58006;EQDQ01  00002PRCP99
0198832290999992001120700004-13010-038510FM-12+005199999V0200901N001512200019N9999999N1+02541+02311101411ADDAA199000091GF101991011011004501001001KA1240M+03011MA1999999100821MD1999999+0041REMSYN088AAXX  07004 83229 324// 10903 10254 20231 30082 40141 81100 333 10301 29085 55113 58004;EQDQ01  00002PRCP99
0193832290999992001120712004-13010-038510FM-12+005199999V0200501N001512200019N0200001N1+02851+02221101411ADDAA124001091AY161061GF103991021021008001001061KA1240N+02371MA1999999100821MD1999999+0011MW1031REMSYN088AAXX  07124 83229 21598 30503 10285 20222 30082 40141 7036/ 82206 333 20237 58001 60014;
0167832290999992001120718004-13010-038510FM-12+005199999V0200901N002112200019N0200001N1+02861+02211101131ADDAA199000091GF102991011021008001041001MA1999999100541MD1999999-0161REMSYN070AAXX  07184 83229 32598 20904 10286 20221 30054 40113 81240 333 59016;EQDQ01  00002PRCP99
0201832290999992001121012004-13010-038510FM-12+005199999V0200901N002612200019N0200001N1+02821+02461101401ADDAA124003091AY161061AY221061GF102991021021004501001001KA1240N+02281MA1999999100811MD1999999+0051MW1031REMSYN088AAXX  10124 83229 21498 20905 10282 20246 30081 40140 70362 82200 333 20228 58005 60034;
0167832290999992001121018004-13010-038510FM-12+005199999V0201401N002612200019N0200001N1+02921+02341101281ADDAA199000091GF104991031041008001001081MA1999999100691MD1999999-0021REMSYN070AAXX  10184 83229 32598 41405 10292 20234 30069 40128 83408 333 59002;EQDQ01  00002PRCP99
0208832290999992001121100004-13010-038510FM-12+005199999V0200901N001012200019N9999999N1+02541+02091101451ADDAA199000091GA1001+999999999GF100991001001999999001001KA1240M+02981MA1999999100851MD1999999+0141REMSYN082AAXX  11004 83229 329// 00902 10254 20209 30085 40145 333 10298 29076 55110 58014;EQDQ01  00002PRCP99
0171832290999992001121112004-13010-038510FM-12+005199999V0200901N003112200019N0200001N1+02851+02481101391ADDAA199000091GF102991011031008001051001KA1240N+02231MA1999999100801REMSYN075AAXX  11124 83229 32598 20906 10285 20248 30080 40139 81350 333 20223 5001;EQDQ01  00002PRCP99
0167832290999992001121118004-13010-038510FM-12+005199999V0201401N002612200019N0200001N1+02891+02211101361ADDAA199000091GF102991011021008001001011MA1999999100771MD1999999+0081REMSYN070AAXX  11184 83229 32598 21405 10289 20221 30077 40136 81201 333 58008;EQDQ01  00002PRCP99
0208832290999992001121200004-13010-038510FM-12+005199999V0200901N001512200019N9999999N1+02481+02011101381ADDAA199000091GA1001+999999999GF100991001001999999001001KA1240M+02991MA1999999100781MD1999999-0071REMSYN082AAXX  12004 83229 329// 00903 10248 20201 30078 40138 333 10299 29074 55115 59007;EQDQ01  00002PRCP99
0186832290999992001121212004-13010-038510FM-12+005199999V0200901N002112200019N0200001N1+02901+02251101421ADDAA199000091GF102991021021008001041001KA1240N+02371MA1999999100831MD1999999+0031REMSYN076AAXX  12124 83229 32598 20904 10290 20225 30083 40142 82240 333 20237 58003;EQDQ01  00002PRCP99
0167832290999992001121218004-13010-038510FM-12+005199999V0200901N002612200019N0100001N1+02951+02241101111ADDAA199000091GF102991021021008001041001MA1999999100531MD1999999-0241REMSYN070AAXX  12184 83229 32597 20905 10295 20224 30053 40111 82240 333 59024;EQDQ01  00002PRCP99
0213832290999992001121300004-13010-038510FM-12+005199999V0200501N001512200019N9999999N1+02541+02111101311ADDAA106000191AY151061AY201061GF102991011021008001041001KA1240M+03021MA1999999100721MD1999999-0061MW1021REMSYN100AAXX  13004 83229 215// 20503 10254 20211 30072 40131 70250 81240 333 10302 29072 55097 59006 69911;
0173832290999992001121312004-13010-038510FM-12+005199999V0200501N001012200019N0100001N1+02991+02231101311ADDAA124000191GF103991021081008001041001KA1240N+02351MA1999999100731MD1999999-0101REMSYN082AAXX  13124 83229 22597 30502 10299 20223 30073 40131 82840 333 20235 59010 69914;
0167832290999992001121318004-13010-038510FM-12+005199999V0201401N002110450019N0100001N1+02861+02231101071ADDAA199000091GF105991041081008001041001MA1999999100481MD1999999-0051REMSYN070AAXX  13184 83229 32597 51404 10286 20223 30048 40107 84840 333 59005;EQDQ01  00002PRCP99
0198832290999992001121400004-13010-038510FM-12+005199999V0200501N002112200019N9999999N1+02571+02231101181ADDAA199000091GF103991031041008001001001KA1240M+03031MA1999999100591MD1999999-0131REMSYN088AAXX  14004 83229 325// 30504 10257 20223 30059 40118 83400 333 10303 29074 55078 59013;EQDQ01  00002PRCP99
0201832290999992001121412004-13010-038510FM-12+005199999V0200501N002112200019N0100001N1+02941+02331101301ADDAA124007191AY161061AY201061GF104991041051008001001001KA1240N+02341MA1999999100721MD1999999-0011MW1011REMSYN088AAXX  14124 83229 21597 40504 10294 20233 30072 40130 70160 84500 333 20234 59001 60074;
0167832290999992001121418004-13010-038510FM-12+005199999V0200501N003612200019N0200001N1+02921+02291101181ADDAA199000091GF101991011031008001001001MA1999999100591MD1999999+0111REMSYN070AAXX  14184 83229 32598 10507 10292 20229 30059 40118 81300 333 58011;EQDQ01  00002PRCP99
0198832290999992001121500004-13010-038510FM-12+005199999V0200501N002612200019N9999999N1+02621+02331101341ADDAA199000091GF102991021041008001001001KA1240M+03051MA1999999100751MD1999999+0161REMSYN088AAXX  15004 83229 325// 20505 10262 20233 30075 40134 82400 333 10305 29077 55110 58016;EQDQ01  00002PRCP99
0186832290999992001121512004-13010-038510FM-12+005199999V0200501N002612200019N0100001N1+02821+02401101301ADDAA199000091GF104991041041008001001001KA1240N+02481MA1999999100711MD1999999-0011REMSYN076AAXX  15124 83229 32597 40505 10282 20240 30071 40130 84400 333 20248 59001;EQDQ01  00002PRCP99
0167832290999992001121518004-13010-038510FM-12+005199999V0200501N003112200019N0200001N1+02961+02381101181ADDAA199000091GF102991001001999999001081MA1999999100601MD1999999+0011REMSYN070AAXX  15184 83229 32998 20506 10296 20238 30060 40118 80008 333 58001;EQDQ01  00002PRCP99
0208832290999992001121600004-13010-038510FM-12+005199999V0200501N002612200019N9999999N1+02581+02231101341ADDAA199000091GA1001+999999999GF100991001001999999001001KA1240M+03071MA1999999100751MD1999999+0001REMSYN082AAXX  16004 83229 329// 00505 10258 20223 30075 40134 333 10307 29078 55098 58000;EQDQ01  00002PRCP99
0186832290999992001121612004-13010-038510FM-12+005199999V0200901N002110075019N0040001N1+02781+02301101411ADDAA199000091GF106991061051008001001001KA1240N+02371MA1999999100821MD1999999+0111REMSYN076AAXX  16124 83229 32596 60904 10278 20230 30082 40141 86500 333 20237 58011;EQDQ01  00002PRCP99
0182832290999992001121618004-13010-038510FM-12+005199999V0200501N003612200019N0100001N1+02901+02371101091ADDAA106000591AY151061AY221061GF101991001001999999001061MA1999999100511MD1999999-0091MW1021REMSYN082AAXX  16184 83229 21997 10507 10290 20237 30051 40109 70252 80006 333 59009 69961;
0208832290999992001121700004-13010-038510FM-12+005199999V0200501N002612200019N9999999N1+02591+02271101161ADDAA199000091GA1001+999999999GF100991001001999999001001KA1240M+03011MA1999999100571MD1999999-0181REMSYN082AAXX  17004 83229 329// 00505 10259 20227 30057 40116 333 10301 29078 55098 59018;EQDQ01  00002PRCP99
0173832290999992001121712004-13010-038510FM-12+005199999V0200501N001510075019N0040001N1+02761+02321101311ADDAA124000591GF107991061051008001001061KA1240N+02401MA1999999100721MD1999999-0101REMSYN082AAXX  17124 83229 22596 70503 10276 20232 30072 40131 86506 333 20240 59010 69964;
0167832290999992001121718004-13010-038510FM-12+005199999V0200501N003112200019N0100001N1+02981+02351101041ADDAA199000091GF104991011021008001021061MA1999999100461MD1999999-0051REMSYN070AAXX  17184 83229 32597 40506 10298 20235 30046 40104 81226 333 59005;EQDQ01  00002PRCP99
0208832290999992001121800004-13010-038510FM-12+005199999V0200501N003612200019N9999999N1+02561+02271101061ADDAA199000091GA1001+999999999GF100991001001999999001001KA1240M+03061MA1999999100471MD1999999-0101REMSYN082AAXX  18004 83229 329// 00507 10256 20227 30047 40106 333 10306 2078/ 55070 59010;EQDQ01  00002PRCP99
0186832290999992001121812004-13010-038510FM-12+005199999V0200501N002110450019N0100001N1+02901+02271101291ADDAA199000091GF105991031021008001041051KA1240N+02481MA1999999100701MD1999999-0021REMSYN076AAXX  18124 83229 32597 50504 10290 20227 30070 40129 83245 333 20248 59002;EQDQ01  00002PRCP99
0167832290999992001121818004-13010-038510FM-12+005199999V0200501N003112200019N0100001N1+02921+02341101071ADDAA199000091GF105991011011012501001061MA1999999100491MD1999999+0031REMSYN070AAXX  18184 83229 32697 50506 10292 20234 30049 40107 81106 333 58003;EQDQ01  00002PRCP99
0198832290999992001121900004-13010-038510FM-12+005199999V0200501N001512200019N9999999N1+02561+02331101261ADDAA199000091GF101991011021012501001001KA1240M+03091MA1999999100671MD1999999+0201REMSYN088AAXX  19004 83229 326// 10503 10256 20233 30067 40126 81200 333 10309 29078 55070 58020;EQDQ01  00002PRCP99
0186832290999992001121912004-13010-038510FM-12+005199999V0203201N001510450019N0100001N1+02741+02261101401ADDAA199000091GF105991031021008001061061KA1240N+02451MA1999999100811MD1999999+0111REMSYN076AAXX  19124 83229 32597 53203 10274 20226 30081 40140 83266 333 20245 58011;EQDQ01  00002PRCP99
0167832290999992001121918004-13010-038510FM-12+005199999V0200901N002612200019N0100001N1+02921+02291101161ADDAA199000091GF102991001001999999001061MA1999999100571MD1999999+0081REMSYN070AAXX  19184 83229 32997 20905 10292 20229 30057 40116 80006 333 58008;EQDQ01  00002PRCP99
0198832290999992001122000004-13010-038510FM-12+005199999V0200501N001512200019N9999999N1+02571+02351101281ADDAA199000091GF101991011021012501001001KA1240M+03021MA1999999100691MD1999999+0021REMSYN088AAXX  20004 83229 326// 10503 10257 20235 30069 40128 81200 333 10302 29080 55071 58002;EQDQ01  00002PRCP99
0186832290999992001122012004-13010-038510FM-12+005199999V0200901N001512200019N0100001N1+02861+02481101401ADDAA199000091GF104991041041008001001001KA1240N+02451MA1999999100811MD1999999+0001REMSYN076AAXX  20124 83229 32597 40903 10286 20248 30081 40140 84400 333 20245 58000;EQDQ01  00002PRCP99
0167832290999992001122018004-13010-038510FM-12+005199999V0200901N002112200019N0100001N1+02941+02311101191ADDAA199000091GF104991001001999999001081MA1999999100611MD1999999+0041REMSYN070AAXX  20184 83229 32997 40904 10294 20231 30061 40119 80008 333 58004;EQDQ01  00002PRCP99
0198832290999992001122100004-13010-038510FM-12+005199999V0200501N002110075019N9999999N1+02591+02371101311ADDAA199000091GF105991051041008001001001KA1240M+03031MA1999999100721MD1999999+0031REMSYN088AAXX  21004 83229 325// 50504 10259 20237 30072 40131 85400 333 10303 29081 55071 58003;EQDQ01  00002PRCP99
0186832290999992001122112004-13010-038510FM-12+005199999V0200901N001511050019N0040001N1+02961+02491101461ADDAA199000091GF106991021041008001001081KA1240N+02421MA1999999100871MD1999999+0061REMSYN076AAXX  21124 83229 32596 60903 10296 20249 30087 40146 82408 333 20242 58006;EQDQ01  00002PRCP99
0167832290999992001122118004-13010-038510FM-12+005199999V0200901N002112200019N0200001N1+03001+02421101241ADDAA199000091GF102991011021008001001051MA1999999100661MD1999999+0051REMSYN070AAXX  21184 83229 32598 20904 10300 20242 30066 40124 81205 333 58005;EQDQ01  00002PRCP99
0208832290999992001122200004-13010-038510FM-12+005199999V0200901N002112200019N9999999N1+02561+02251101391ADDAA199000091GA1001+999999999GF100991001001999999001001KA1240M+03111MA1999999100791MD1999999+0071REMSYN082AAXX  22004 83229 329// 00904 10256 20225 30079 40139 333 10311 29078 55102 58007;EQDQ01  00002PRCP99
0186832290999992001122212004-13010-038510FM-12+005199999V0201401N001510450019N0100001N1+02741+02381101571ADDAA199000091GF106991031021008001011001KA1240N+02451MA1999999100981MD1999999+0111REMSYN076AAXX  22124 83229 32597 61403 10274 20238 30098 40157 83210 333 20245 58011;EQDQ01  00002PRCP99
0167832290999992001122218004-13010-038510FM-12+005199999V0200501N003112200019N0200001N1+02981+02351101371ADDAA199000091GF103991011021008001041061MA1999999100791MD1999999+0131REMSYN070AAXX  22184 83229 32598 30506 10298 20235 30079 40137 81246 333 58013;EQDQ01  00002PRCP99
0208832290999992001122300004-13010-038510FM-12+005199999V0200501N001012200019N9999999N1+02541+02251101571ADDAA199000091GA1001+999999999GF100991001001999999001001KA1240M+03071MA1999999100971MD1999999+0181REMSYN082AAXX  23004 83229 329// 00502 10254 20225 30097 40157 333 10307 29080 55066 58018;EQDQ01  00002PRCP99
0186832290999992001122312004-13010-038510FM-12+005199999V0200501N001512200019N0200001N1+02981+02121101571ADDAA199000091GF102991011021008001041051KA1240N+02401MA1999999100981MD1999999+0001REMSYN076AAXX  23124 83229 32598 20503 10298 20212 30098 40157 81245 333 20240 58000;EQDQ01  00002PRCP99
0167832290999992001122318004-13010-038510FM-12+005199999V0200901N002112200019N0200001N1+03071+02191101311ADDAA199000091GF102991011001999999041051MA1999999100731MD1999999-0061REMSYN070AAXX  23184 83229 32998 20904 10307 20219 30073 40131 81045 333 59006;EQDQ01  00002PRCP99
0198832290999992001122400004-13010-038510FM-12+005199999V0200501N002112200019N9999999N1+02591+02251101421ADDAA199000091GF101991011011012501001001KA1240M+03121MA1999999100831MD1999999-0141REMSYN088AAXX  24004 83229 326// 10504 10259 20225 30083 40142 81100 333 10312 29071 55110 59014;EQDQ01  00002PRCP99
0186832290999992001122412004-13010-038510FM-12+005199999V0200901N002112200019N0200001N1+03021+02291101581ADDAA199000091GF102991021021008001001051KA1240N+02401MA1999999100991MD1999999+0011REMSYN076AAXX  24124 83229 32598 20904 10302 20229 30099 40158 82205 333 20240 58001;EQDQ01  00002PRCP99
0167832290999992001122418004-13010-038510FM-12+005199999V0200901N002612200019N0200001N1+03061+02251101371ADDAA199000091GF102991011021008001001061MA1999999100791MD1999999+0061REMSYN070AAXX  24184 83229 32598 20905 10306 20225 30079 40137 81206 333 58006;EQDQ01  00002PRCP99
0186832290999992001122512004-13010-038510FM-12+005199999V0200501N001512200019N0200001N1+02991+02251101691ADDAA199000091GF102991021021008001001001KA1240N+02471MA1999999101101MD1999999+0111REMSYN076AAXX  25124 83229 32598 20503 10299 20225 30110 40169 82200 333 20247 58011;EQDQ01  00002PRCP99
0167832290999992001122518004-13010-038510FM-12+005199999V0201401N002112200019N0200001N1+03051+02231101391ADDAA199000091GF102991011021008001001051MA1999999100811MD1999999+0021REMSYN070AAXX  25184 83229 32598 21404 10305 20223 30081 40139 81205 333 58002;EQDQ01  00002PRCP99
0198832290999992001122600004-13010-038510FM-12+005199999V0200901N001512200019N9999999N1+02561+02191101561ADDAA199000091GF101991011021008001001001KA1240M+03101MA1999999100961MD1999999-0011REMSYN088AAXX  26004 83229 325// 10903 10256 20219 30096 40156 81200 333 10310 29072 55113 59001;EQDQ01  00002PRCP99
0186832290999992001122612004-13010-038510FM-12+005199999V0201401N001512200019N0200001N1+02971+02261101551ADDAA199000091GF102991021021008001041001KA1240N+02451MA1999999100961MD1999999-0141REMSYN076AAXX  26124 83229 32598 21403 10297 20226 30096 40155 82240 333 20245 59014;EQDQ01  00002PRCP99
0167832290999992001122618004-13010-038510FM-12+005199999V0201401N002112200019N0200001N1+03041+02311101251ADDAA199000091GF102991011021008001001051MA1999999100671MD1999999-0141REMSYN070AAXX  26184 83229 32598 21404 10304 20231 30067 40125 81205 333 59014;EQDQ01  00002PRCP99
0198832290999992001122700004-13010-038510FM-12+005199999V0201401N001510450019N9999999N1+02561+02331101461ADDAA199000091GF107991031081008001051001KA1240M+03111MA1999999100861MD1999999-0101REMSYN088AAXX  27004 83229 325// 71403 10256 20233 30086 40146 83850 333 10311 29076 55100 59010;EQDQ01  00002PRCP99
0186832290999992001122712004-13010-038510FM-12+005199999V0200901N002112200019N0200001N1+03061+02381101421ADDAA199000091GF103991021021008001001011KA1240N+02441MA1999999100841MD1999999-0121REMSYN076AAXX  27124 83229 32598 30904 10306 20238 30084 40142 82201 333 20244 59012;EQDQ01  00002PRCP99
0167832290999992001122718004-13010-038510FM-12+005199999V0200901N002612200019N0200001N1+03101+02341101271ADDAA199000091GF102991011021008001001011MA1999999100691MD1999999+0021REMSYN070AAXX  27184 83229 32598 20905 10310 20234 30069 40127 81201 333 58002;EQDQ01  00002PRCP99
0198832290999992001122800004-13010-038510FM-12+005199999V0200901N002112200019N9999999N1+02621+02251101381ADDAA199000091GF102991011021008001001031KA1240M+03131MA1999999100791MD1999999-0071REMSYN088AAXX  28004 83229 325// 20904 10262 20225 30079 40138 81203 333 10313 29073 55112 59007;EQDQ01  00002PRCP99
0190832290999992001122812004-13010-038510FM-12+005199999V0200501N001010075019N0100001N1+02711+02351101711ADDAY151061AY221061GF106991061051008001001001KA1240N+02451MA1999999100921MD1999999+0081MW1511REMSYN088AAXX  28124 83229 21597 60502 10271 20235 30092 40171 75152 86500 333 20245 58008 59914;
0148832290999992001122818004-13010-038510FM-12+005199999V0200901N002119999999N0040001N1+02961+02351101311ADDAA199000021GF106991061001012501031001MA1999999100731MD1999999+0041REMSYN070AAXX  28184 83229 32696 60904 10296 20235 30073 40131 86030 333 58004;
0179832290999992001122900004-13010-038510FM-12+005199999V0200501N001510450019N9999999N1+02651+02331101411ADDAA199000021GF108991011021008001031081KA1240M+03181MA1999999100821MD1999999+0031REMSYN088AAXX  29004 83229 325// 80503 10265 20233 30082 40141 81238 333 10318 29079 55052 58003;
0201832290999992001122912004-13010-038510FM-12+005199999V0200501N002610450019N0100001N1+02831+02481101461ADDAA124004191AY161061AY221061GF107991041051008001031081KA1240N+02531MA1999999100871MD1999999-0051MW1011REMSYN088AAXX  29124 83229 21597 70505 10283 20248 30087 40146 70162 84538 333 20253 59005 60044;
0167832290999992001122918004-13010-038510FM-12+005199999V0200501N001510075019N0040001N1+02861+02391101251ADDAA199000091GF107991051051008001001081MA1999999100661MD1999999-0071REMSYN070AAXX  29184 83229 32596 70503 10286 20239 30066 40125 85508 333 59007;EQDQ01  00002PRCP99
0198832290999992001123000004-13010-038510FM-12+005199999V0200501N002111050019N9999999N1+02661+02271101421ADDAA199000091GF106991011021008001001081KA1240M+03091MA1999999100831MD1999999+0011REMSYN088AAXX  30004 83229 325// 60504 10266 20227 30083 40142 81208 333 10309 29079 55050 58001;EQDQ01  00002PRCP99
0201832290999992001123012004-13010-038510FM-12+005199999V0200501N001510075019N0040001N1+02761+02361101311ADDAA124001091AY151061AY221061GF107991071051008001001001KA1240N+02491MA1999999100721MD1999999-0151MW1031REMSYN088AAXX  30124 83229 21596 70503 10276 20236 30072 40131 70352 87500 333 20249 59015 60014;
0167832290999992001123018004-13010-038510FM-12+005199999V0200901N002610075019N0040001N1+02881+02351101101ADDAA199000091GF108991051051008001071999MA1999999100521MD1999999-0141REMSYN070AAXX  30184 83229 32596 80905 10288 20235 30052 40110 8557/ 333 59014;EQDQ01  00002PRCP99
0198832290999992001123100004-13010-038510FM-12+005199999V0200501N001011050019N9999999N1+02651+02331101201ADDAA199000091GF106991011021008001001081KA1240M+03051MA1999999100611MD1999999-0221REMSYN088AAXX  31004 83229 325// 60502 10265 20233 30061 40120 81208 333 10305 29080 55009 59022;EQDQ01  00002PRCP99
0201832290999992001123112004-13010-038510FM-12+005199999V0200501N006210042019N0020001N1+02401+02301101261ADDAA124043991AY191061AY261061GF108991081071004501999999KA1240N+02321MA1999999100661MD1999999-0061MW1511REMSYN088AAXX  31124 83229 21495 80512 10240 20230 30066 40126 75196 887// 333 20232 59006 60444;
0182832290999992001123118004-13010-038510FM-12+005199999V0200501N003110450019N0100001N1+02561+02381101091ADDAA106011991AY161061AY261061GF107991021051008001071001MA1999999100501MD1999999-0021MW1011REMSYN082AAXX  31184 83229 21597 70506 10256 20238 30050 40109 70166 82570 333 59002 60121;
