0186832360999992001010100004-12140-045000FM-12+044099999V0203601N005110075019N0020001N1+02191+02031101201ADDAA199000091GF108991081071008001999999KA1240M+03231MA1999999096271MD1999999-0061REMSYN076AAXX  01004 83236 32595 83610 10219 20203 39627 40120 887// 333 10323 59006;EQDQ01  00002PRCP99
0201832360999992001010112004-12140-045000FM-12+044099999V0203601N005110210019N0020001N1+02041+02011101511ADDAA124004191AY151061AY251061GF108991081001022501021999KA1240N+02031MA1999999096531MD1999999+0161MW1501REMSYN088AAXX  01124 83236 21895 83610 10204 20201 39653 40151 75055 8802/ 333 20203 58016 60044;
0182832360999992001010118004-12140-045000FM-12+044099999V0209999C000010120019N0100001N1+02621+02271101031ADDAA106001091AY151061AY251061GF106991061081008001001001MA1999999096121MD1999999+0161MW1021REMSYN082AAXX  01184 83236 21597 60000 10262 20227 39612 40103 70255 86800 333 58016 60011;
0167832360999992001010200004-12140-045000FM-12+044099999V0209999C000010120019N0100001N1+02401+02211101231ADDAA199000021GF106991061081008001001001KA1240M+02771MA1999999096271MD1999999+0001REMSYN076AAXX  02004 83236 32597 60000 10240 20221 39627 40123 86800 333 10277 58000;
0173832360999992001010212004-12140-045000FM-12+044099999V0209999C000010120019N0100001N1+02521+02291101281ADDAA124001091GF106991061081008001001001KA1240N+02031MA1999999096361MD1999999-0171REMSYN082AAXX  02124 83236 22597 60000 10252 20229 39636 40128 86800 333 20203 59017 60014;
0167832360999992001010218004-12140-045000FM-12+044099999V0200501N001011050019N0100001N1+02981+02041100921ADDAA199000091GF107991031021008001001061MA1999999096041MD1999999-0081REMSYN070AAXX  02184 83236 32597 70502 10298 20204 39604 40092 83206 333 59008;EQDQ01  00002PRCP99
0186832360999992001010300004-12140-045000FM-12+044099999V0209999C000012200019N0100001N1+02441+02351101161ADDAA199000091GF103991031021008001001001KA1240M+03121MA1999999096261MD1999999-0011REMSYN076AAXX  03004 83236 32597 30000 10244 20235 39626 40116 83200 333 10312 59001;EQDQ01  00002PRCP99
0186832360999992001010312004-12140-045000FM-12+044099999V0209999C000012200019N0200001N1+02581+02311101281ADDAA199000091GF102991001001999999001041KA1240N+02021MA1999999096371MD1999999+0011REMSYN076AAXX  03124 83236 32998 20000 10258 20231 39637 40128 80004 333 20202 58001;EQDQ01  00002PRCP99
0167832360999992001010318004-12140-045000FM-12+044099999V0203601N003611050019N0200001N1+03111+02121100931ADDAA199000091GF105991031031008001001031MA1999999096051MD1999999+0011REMSYN070AAXX  03184 83236 32598 53607 10311 20212 39605 40093 83303 333 58001;EQDQ01  00002PRCP99
0186832360999992001010400004-12140-045000FM-12+044099999V0201801N001512200019N0500001N1+02361+02261101131ADDAA199000091GF103991001001999999001041KA1240M+03211MA1999999096221MD1999999-0041REMSYN076AAXX  04004 83236 32999 31803 10236 20226 39622 40113 80004 333 10321 59004;EQDQ01  00002PRCP99
0186832360999992001010412004-12140-045000FM-12+044099999V0209999C000019999999N0200001N1+02541+02111101371ADDAA199000091GF105991001001999999001051KA1240N+01921MA1999999096451MD1999999+0081REMSYN076AAXX  04124 83236 32998 50000 10254 20211 39645 40137 80005 333 20192 58008;EQDQ01  00002PRCP99
0167832360999992001010418004-12140-045000FM-12+044099999V0203601N003111050019N0200001N1+03111+02121100961ADDAA199000091GF106991031021008001001051MA1999999096071MD1999999+0021REMSYN070AAXX  04184 83236 32598 63606 10311 20212 39607 40096 83205 333 58002;EQDQ01  00002PRCP99
0186832360999992001010500004-12140-045000FM-12+044099999V0209999C000010210019N0100001N1+02441+02191101211ADDAA199000091GF106991061001022501051001KA1240M+03211MA1999999096311MD1999999+0091REMSYN076AAXX  05004 83236 32897 60000 10244 20219 39631 40121 86050 333 10321 58009;EQDQ01  00002PRCP99
0201832360999992001010512004-12140-045000FM-12+044099999V0209999C000010450019N0040001N1+02301+02141101561ADDAA124005191AY161061AY261061GF107991041051008001021001KA1240N+02171MA1999999096611MD1999999+0161MW1411REMSYN088AAXX  05124 83236 21596 70000 10230 20214 39661 40156 74166 84520 333 20217 58016 60054;
0167832360999992001010518004-12140-045000FM-12+044099999V0201401N004110075019N0100001N1+03061+02081101031ADDAA199000091GF105991051021008001001001MA1999999096161MD1999999+0091REMSYN070AAXX  05184 83236 32597 51408 10306 20208 39616 40103 85200 333 58009;EQDQ01  00002PRCP99
0186832360999992001010600004-12140-045000FM-12+044099999V0209999C000012200019N0100001N1+02311+02071101171ADDAA199000091GF103991021001022501061041KA1240M+03171MA1999999096231MD1999999-0081REMSYN076AAXX  06004 83236 32897 30000 10231 20207 39623 40117 82064 333 10317 59008;EQDQ01  00002PRCP99
0186832360999992001010612004-12140-045000FM-12+044099999V0202701N000512200019N0200001N1+02491+02151101261ADDAA199000091GF105991031021008001001041KA1240N+01971MA1999999096421MD1999999-0191REMSYN076AAXX  06124 83236 32598 52701 10249 20215 39642 40126 83204 333 20197 59019;EQDQ01  00002PRCP99
0167832360999992001010618004-12140-045000FM-12+044099999V0200501N001510075019N0100001N1+03141+02301100961ADDAA199000091GF106991051021008001001011MA1999999096081MD1999999-0081REMSYN070AAXX  06184 83236 32597 60503 10314 20230 39608 40096 85201 333 59008;EQDQ01  00002PRCP99
0186832360999992001010700004-12140-045000FM-12+044099999V0209999C000010450019N0100001N1+02421+02251101041ADDAA199000091GF107991031051008001021001KA1240M+03251MA1999999096141MD1999999-0091REMSYN076AAXX  07004 83236 32597 70000 10242 20225 39614 40104 83520 333 10325 59009;EQDQ01  00002PRCP99
0186832360999992001010712004-12140-045000FM-12+044099999V0209999C000012200019N0200001N1+02621+02211101141ADDAA199000091GF103991031021008001001001KA1240N+02031MA1999999096241MD1999999-0181REMSYN076AAXX  07124 83236 32598 30000 10262 20221 39624 40114 83200 333 20203 59018;EQDQ01  00002PRCP99
0167832360999992001010718004-12140-045000FM-12+044099999V0203601N003611050019N0200001N1+03151+02181100711ADDAA199000091GF105991031031008001001031MA1999999095881MD1999999-0201REMSYN070AAXX  07184 83236 32598 53607 10315 20218 39588 40071 83303 333 59020;EQDQ01  00002PRCP99
0202832360999992001010800004-12140-045000FM-12+044099999V0209999C000019999999N0100001N1+02411+02311101001ADDAA199000091GF106991999001022501021001KA1240M+03261MA1999999096111MD1999999-0031REMSYN076AAXX  08004 83236 32897 60000 10241 20231 39611 40100 80020 333 10326 59003;EQDQ01+000002SCOTLCQ02  00002PRCP99
0186832360999992001010812004-12140-045000FM-12+044099999V0200501N004119999999N0100001N1+02621+02121101151ADDAA199000091GF106991001001999999001061KA1240N+01961MA1999999096251MD1999999+0011REMSYN076AAXX  08124 83236 32997 60508 10262 20212 39625 40115 80006 333 20196 58001;EQDQ01  00002PRCP99
0183832360999992001010818004-12140-045000FM-12+044099999V0203601N003612200019N0100001N1+03091+02211100771ADDAA199000091GF106991021021008001001061MA1999999095002MD1999999-0021REMSYN070AAXX  08184 83236 32597 63607 10309 20221 39500 40077 82206 333 59002;EQDQ01+095003APOSP Q02  00002PRCP99
0186832360999992001010912004-12140-045000FM-12+044099999V0203201N002110450019N0200001N1+02641+02031101241ADDAA199000091GF106991041021012501071051KA1240N+02031MA1999999096341MD1999999+0091REMSYN076AAXX  09124 83236 32698 63204 10264 20203 39634 40124 84275 333 20203 58009;EQDQ01  00002PRCP99
0167832360999992001010918004-12140-045000FM-12+044099999V0203601N004610450019N0200001N1+03161+02171100781ADDAA199000091GF106991031021008001081041MA1999999095911MD1999999+0011REMSYN070AAXX  09184 83236 32598 63609 10316 20217 39591 40078 83284 333 58001;EQDQ01  00002PRCP99
0186832360999992001011000004-12140-045000FM-12+044099999V0209999C000012200019N0200001N1+02421+02071100961ADDAA199000091GF103991001001999999001071KA1240M+03251MA1999999096081MD1999999+0001REMSYN076AAXX  10004 83236 32998 30000 10242 20207 39608 40096 80007 333 10325 58000;EQDQ01  00002PRCP99
0186832360999992001011012004-12140-045000FM-12+044099999V0209999C000012200019N0500001N1+02481+01981101291ADDAA199000091GF104991021001022501081051KA1240N+01841MA1999999096371MD1999999+0031REMSYN076AAXX  10124 83236 32899 40000 10248 20198 39637 40129 82085 333 20184 58003;EQDQ01  00002PRCP99
0195832360999992001011018004-12140-045000FM-12+044099999V0200501N002110075019N0200001N1+03211+01931100891ADDAA199000091AY121061AY221061GF106991051051008001071031MA1999999096011MD1999999+0101MW1171REMSYN076AAXX  10184 83236 31598 60504 10321 20193 39601 40089 71722 85573 333 58010;EQDQ01  00002PRCP99
0214832360999992001011100004-12140-045000FM-12+044099999V0202301N001010075019N0040001N1+02281+02051101191ADDAA199000091AY121061AY221061GF108991061051008001061999KA1240M+03311MA1999999096271MD1999999+0191MW1131REMSYN082AAXX  11004 83236 31596 82302 10228 20205 39627 40119 71322 8656/ 333 10331 58019;EQDQ01  00002PRCP99
0186832360999992001011112004-12140-045000FM-12+044099999V0202301N001011050019N0200001N1+02581+02011101341ADDAA199000091GF106991041001022501081051KA1240N+02011MA1999999096421MD1999999+0051REMSYN076AAXX  11124 83236 32898 62302 10258 20201 39642 40134 84085 333 20201 58005;EQDQ01  00002PRCP99
0195832360999992001011118004-12140-045000FM-12+044099999V0200501N004610075019N0200001N1+03071+02161100921ADDAA199000091AY121061AY221061GF106991051051008001001071MA1999999096041MD1999999+0031MW1171REMSYN076AAXX  11184 83236 32598 60509 10307 20216 39604 40092 71722 85507 333 58003;EQDQ01  00002PRCP99
0186832360999992001011200004-12140-045000FM-12+044099999V0202301N001510075019N0200001N1+02281+02181101151ADDAA199000091GF106991051031008001051071KA1240M+03231MA1999999096231MD1999999-0041REMSYN076AAXX  12004 83236 32598 62303 10228 20218 39623 40115 85357 333 10323 59004;EQDQ01  00002PRCP99
0186832360999992001011212004-12140-045000FM-12+044099999V0200501N002110210019N0200001N1+02691+02091101231ADDAA199000091GF105991051001022501081001KA1240N+02021MA1999999096331MD1999999-0091REMSYN076AAXX  12124 83236 32898 50504 10269 20209 39633 40123 85080 333 20202 59009;EQDQ01  00002PRCP99
0195832360999992001011218004-12140-045000FM-12+044099999V0200501N005110075019N0200001N1+03211+02091100881ADDAA199000091AY121061AY251061GF106991051051008001071031MA1999999096011MD1999999-0031MW1171REMSYN076AAXX  12184 83236 31598 60510 10321 20209 39601 40088 71725 85573 333 59003;EQDQ01  00002PRCP99
0186832360999992001011300004-12140-045000FM-12+044099999V0201801N002612200019N0500001N1+02251+02071101141ADDAA199000091GF103991031001022501061001KA1240M+03281MA1999999096231MD1999999+0001REMSYN076AAXX  13004 83236 32899 31805 10225 20207 39623 40114 83060 333 10328 58000;EQDQ01  00002PRCP99
0186832360999992001011312004-12140-045000FM-12+044099999V0200501N004111050019N0200001N1+02571+02061101441ADDAA199000091GF105991041021008001001031KA1240N+01941MA1999999096511MD1999999+0181REMSYN076AAXX  13124 83236 32598 50508 10257 20206 39651 40144 84203 333 20194 58018;EQDQ01  00002PRCP99
0167832360999992001011318004-12140-045000FM-12+044099999V0200501N004110075019N0200001N1+03051+01981101061ADDAA199000091GF106991051021008001001051MA1999999096171MD1999999+0161REMSYN070AAXX  13184 83236 32598 60508 10305 20198 39617 40106 85205 333 58016;EQDQ01  00002PRCP99
0186832360999992001011400004-12140-045000FM-12+044099999V0200501N002612200019N0200001N1+02551+01981101201ADDAA199000091GF104991021021012501001031KA1240M+03161MA1999999096311MD1999999+0081REMSYN076AAXX  14004 83236 32698 40505 10255 20198 39631 40120 82203 333 10316 58008;EQDQ01  00002PRCP99
0186832360999992001011412004-12140-045000FM-12+044099999V0201401N004112200019N0500001N1+02721+01791101431ADDAA199000091GF102991001001999999001031KA1240N+01851MA1999999096541MD1999999+0031REMSYN076AAXX  14124 83236 32999 21408 10272 20179 39654 40143 80003 333 20185 58003;EQDQ01  00002PRCP99
0167832360999992001011418004-12140-045000FM-12+044099999V0201401N004612200019N0500001N1+03221+01911101041ADDAA199000091GF102991021021008001001071MA1999999096151MD1999999-0021REMSYN070AAXX  14184 83236 32599 21409 10322 20191 39615 40104 82207 333 59002;EQDQ01  00002PRCP99
0226832360999992001011500004-12140-045000FM-12+044099999V0200501N005110075019N0100001N1+02511+02111101171ADDAA199000091AY121061AY221061GF106991061061008001051001KA1240M+03331MA1999999096281MD1999999-0031MW1171REMSYN094AAXX  15004 83236 31597 60510 10251 20211 39628 40117 71722 86650 333 10333 29065 55118 59003;EQDQ01  00002PRCP99
0186832360999992001011512004-12140-045000FM-12+044099999V0201801N002610075019N0200001N1+02561+02151101411ADDAA199000091GF106991051021008001061051KA1240N+02031MA1999999096501MD1999999-0041REMSYN076AAXX  15124 83236 32598 61805 10256 20215 39650 40141 85265 333 20203 59004;EQDQ01  00002PRCP99
0167832360999992001011518004-12140-045000FM-12+044099999V0200501N005110075019N0200001N1+03001+01911101141ADDAA199000091GF106991051021008001001071MA1999999096251MD1999999+0101REMSYN070AAXX  15184 83236 32598 60510 10300 20191 39625 40114 85207 333 58010;EQDQ01  00002PRCP99
0198832360999992001011600004-12140-045000FM-12+044099999V0201801N002112200019N0500001N1+02351+01931101191ADDAA199000091GF102991021021012501001001KA1240M+03151MA1999999096281MD1999999+0001REMSYN088AAXX  16004 83236 32699 21804 10235 20193 39628 40119 82200 333 10315 29072 55110 58000;EQDQ01  00002PRCP99
0186832360999992001011612004-12140-045000FM-12+044099999V0203201N001510450019N0200001N1+02501+01871101331ADDAA199000091GF106991041021012501071031KA1240N+01881MA1999999096411MD1999999-0091REMSYN076AAXX  16124 83236 32698 63203 10250 20187 39641 40133 84273 333 20188 59009;EQDQ01  00002PRCP99
0167832360999992001011618004-12140-045000FM-12+044099999V0200901N001510075019N0200001N1+02991+02061101021ADDAA199000091GF106991051021008001001051MA1999999096121MD1999999-0131REMSYN070AAXX  16184 83236 32598 60903 10299 20206 39612 40102 85205 333 59013;EQDQ01  00002PRCP99
0198832360999992001011700004-12140-045000FM-12+044099999V0201801N001012200019N0500001N1+02341+01911101141ADDAA199000091GF102991021021012501001001KA1240M+03151MA1999999096221MD1999999-0061REMSYN088AAXX  17004 83236 32699 21802 10234 20191 39622 40114 82200 333 10315 29070 55113 59006;EQDQ01  00002PRCP99
0186832360999992001011712004-12140-045000FM-12+044099999V0200901N001010075019N0100001N1+02551+02091101351ADDAA199000091GF108991071021008001081999KA1240N+01901MA1999999096431MD1999999+0021REMSYN076AAXX  17124 83236 32597 80902 10255 20209 39643 40135 8728/ 333 20190 58002;EQDQ01  00002PRCP99
0167832360999992001011718004-12140-045000FM-12+044099999V0201401N005110075019N0100001N1+03071+01961101101ADDAA199000091GF107991061021008001071051MA1999999096221MD1999999+0101REMSYN070AAXX  17184 83236 32597 71410 10307 20196 39622 40110 86275 333 58010;EQDQ01  00002PRCP99
0183832360999992001011800004-12140-045000FM-12+044099999V0209999C000010450019N0200001N1+02221+01921101311ADDAA199000091GF105991041021012501081031KA1240M+03141MA1999999096381REMSYN087AAXX  18004 83236 32698 50000 10222 20192 39638 40131 84283 333 10314 29074 55051 5801;EQDQ01  00002PRCP99
0186832360999992001011812004-12140-045000FM-12+044099999V0209999C000011050019N0200001N1+02301+01791101381ADDAA199000091GF106991031001022501051071KA1240N+01581MA1999999096421MD1999999-0011REMSYN076AAXX  18124 83236 32898 60000 10230 20179 39642 40138 83057 333 20158 59001;EQDQ01  00002PRCP99
0167832360999992001011818004-12140-045000FM-12+044099999V0200501N003110075019N0200001N1+03021+02071101031ADDAA199000091GF107991051021008001071051MA1999999096111MD1999999-0111REMSYN070AAXX  18184 83236 32598 70506 10302 20207 39611 40103 85275 333 59011;EQDQ01  00002PRCP99
0198832360999992001011900004-12140-045000FM-12+044099999V0209999C000012200019N0500001N1+02271+02031101221ADDAA199000091GF103991031001022501051001KA1240M+03211MA1999999096281MD1999999-0101REMSYN088AAXX  19004 83236 32899 30000 10227 20203 39628 40122 83050 333 10321 29076 55086 59010;EQDQ01  00002PRCP99
0186832360999992001011912004-12140-045000FM-12+044099999V0209999C000010075019N0200001N1+02551+02021101481ADDAA199000091GF107991061021008001061071KA1240N+01771MA1999999096551MD1999999+0131REMSYN076AAXX  19124 83236 32598 70000 10255 20202 39655 40148 86267 333 20177 58013;EQDQ01  00002PRCP99
0195832360999992001011918004-12140-045000FM-12+044099999V0200501N002610075019N0200001N1+03031+02341101131ADDAA199000091AY121061AY221061GF106991061051008001071001MA1999999096211MD1999999+0101MW1151REMSYN076AAXX  19184 83236 31598 60505 10303 20234 39621 40113 71522 86570 333 58010;EQDQ01  00002PRCP99
0185832360999992001012000004-12140-045000FM-12+044099999V0209999C000012200019N0200001N1+02261+02211101241ADDAA106000191GF104991031021008001001031KA1240M+03231MA1999999096321MD1999999+0041REMSYN094AAXX  20004 83236 22598 40000 10226 20221 39632 40124 83203 333 10323 29083 55091 58004 69921;
0173832360999992001012012004-12140-045000FM-12+044099999V0209999C000010075019N0200001N1+02591+02121101471ADDAA124000191GF106991051021008001061071KA1240N+01991MA1999999096541MD1999999-0011REMSYN082AAXX  20124 83236 22598 60000 10259 20212 39654 40147 85267 333 20199 59001 69924;
0167832360999992001012018004-12140-045000FM-12+044099999V0200501N002612200019N0500001N1+03381+01951100901ADDAA199000091GF104991031021012501001051MA1999999096041MD1999999-0171REMSYN070AAXX  20184 83236 32699 40505 10338 20195 39604 40090 83205 333 59017;EQDQ01  00002PRCP99
0198832360999992001012100004-12140-045000FM-12+044099999V0209999C000010075019N0100001N1+02521+02151101141ADDAA199000091GF108991061071008001051999KA1240M+03451MA1999999096251MD1999999-0071REMSYN088AAXX  21004 83236 32597 80000 10252 20215 39625 40114 8675/ 333 10345 29070 55096 59007;EQDQ01  00002PRCP99
0186832360999992001012112004-12140-045000FM-12+044099999V0201401N001010075019N0200001N1+02791+02181101211ADDAA199000091GF106991051021008001061031KA1240N+02051MA1999999096331MD1999999-0211REMSYN076AAXX  21124 83236 32598 61402 10279 20218 39633 40121 85263 333 20205 59021;EQDQ01  00002PRCP99
0167832360999992001012118004-12140-045000FM-12+044099999V0200501N005110075019N0200001N1+03171+01891100791ADDAA199000091GF107991051021008001081051MA1999999095931MD1999999-0111REMSYN070AAXX  21184 83236 32598 70510 10317 20189 39593 40079 85285 333 59011;EQDQ01  00002PRCP99
0213832360999992001012200004-12140-045000FM-12+044099999V0209999C000010075019N0100001N1+02111+02071101161ADDAA106003091AY161061AY261061GF106991051051008001001071KA1240M+03361MA1999999096251MD1999999+0001MW1131REMSYN100AAXX  22004 83236 21597 60000 10211 20207 39625 40116 71366 85507 333 10336 29078 55068 58000 60031;
0201832360999992001012212004-12140-045000FM-12+044099999V0200501N002110075019N0100001N1+02331+02161101501ADDAA124004191AY161061AY261061GF108991071061008001071999KA1240N+02011MA1999999096541MD1999999+0211MW1101REMSYN088AAXX  22124 83236 21597 80504 10233 20216 39654 40150 71066 8767/ 333 20201 58021 60044;
0167832360999992001012218004-12140-045000FM-12+044099999V0200501N002610075019N0200001N1+03021+02161100991ADDAA199000091GF107991061041008001071051MA1999999096111MD1999999+0181REMSYN070AAXX  22184 83236 32598 70505 10302 20216 39611 40099 86475 333 58018;EQDQ01  00002PRCP99
0198832360999992001012300004-12140-045000FM-12+044099999V0209999C000010450019N0200001N1+02281+02011101361ADDAA199000091GF105991041021012501081051KA1240M+03111MA1999999096411MD1999999+0161REMSYN088AAXX  23004 83236 32698 50000 10228 20201 39641 40136 84285 333 10311 29082 55052 58016;EQDQ01  00002PRCP99
0186832360999992001012312004-12140-045000FM-12+044099999V0201801N001010075019N0100001N1+02401+02191101461ADDAA199000091GF108991061021008001071999KA1240N+02101MA1999999096521MD1999999-0021REMSYN076AAXX  23124 83236 32597 81802 10240 20219 39652 40146 8627/ 333 20210 59002;EQDQ01  00002PRCP99
0167832360999992001012318004-12140-045000FM-12+044099999V0201801N002610075019N0100001N1+02461+02251101141ADDAA199000091GF108991071071008001051999MA1999999096201MD1999999+0091REMSYN070AAXX  23184 83236 32597 81805 10246 20225 39620 40114 8775/ 333 58009;EQDQ01  00002PRCP99
0226832360999992001012400004-12140-045000FM-12+044099999V0209999C000010120019N0100001N1+02281+02251101241ADDAA199000091AY121061AY221061GF106991051051012501071031KA1240M+02811MA1999999096311MD1999999-0101MW1131REMSYN094AAXX  24004 83236 32697 60000 10228 20225 39631 40124 71322 85573 333 10281 29093 55018 59010;EQDQ01  00002PRCP99
0186832360999992001012412004-12140-045000FM-12+044099999V0209999C000010450019N0100001N1+02521+02191101491ADDAA199000091GF105991041021008001041001KA1240N+02051MA1999999096551MD1999999+0031REMSYN076AAXX  24124 83236 32597 50000 10252 20219 39655 40149 84240 333 20205 58003;EQDQ01  00002PRCP99
0182832360999992001012418004-12140-045000FM-12+044099999V0200501N003112200019N0100001N1+02981+02231100981ADDAA106002091AY161061AY261061GF106991041021008001001061MA1999999096091MD1999999-0111MW1151REMSYN082AAXX  24184 83236 21597 60506 10298 20223 39609 40098 71566 84206 333 59011 60021;
0226832360999992001012500004-12140-045000FM-12+044099999V0209999C000010075019N0040001N1+02521+02291101181ADDAA199000091AY101061AY221061GF108991051071008001021999KA1240M+03201MA1999999096281MD1999999-0031MW1131REMSYN094AAXX  25004 83236 31596 80000 10252 20229 39628 40118 71302 8572/ 333 10320 29080 55051 59003;EQDQ01  00002PRCP99
0201832360999992001012512004-12140-045000FM-12+044099999V0209999C000011050019N0200001N1+02561+02271101311ADDAA124004191AY161061AY261061GF105991011011008001031041KA1240N+02221MA1999999096411MD1999999-0141MW1021REMSYN088AAXX  25124 83236 21598 50000 10256 20227 39641 40131 70266 81134 333 20222 59014 60044;
0167832360999992001012518004-12140-045000FM-12+044099999V0200501N004112200019N0200001N1+03051+02201100941ADDAA199000091GF106991031021008001001061MA1999999096071MD1999999-0021REMSYN070AAXX  25184 83236 32598 60508 10305 20220 39607 40094 83206 333 59002;EQDQ01  00002PRCP99
0198832360999992001012600004-12140-045000FM-12+044099999V0200501N001010120019N0100001N1+02561+02151101151ADDAA199000091GF105991051081008001001001KA1240M+03181MA1999999096261MD1999999-0021REMSYN088AAXX  26004 83236 32597 50502 10256 20215 39626 40115 85800 333 10318 29075 55068 59002;EQDQ01  00002PRCP99
0186832360999992001012612004-12140-045000FM-12+044099999V0202301N002112200019N0200001N1+02501+02171101371ADDAA199000091GF103991001001999999001021KA1240N+01981MA1999999096461MD1999999+0051REMSYN076AAXX  26124 83236 32998 32304 10250 20217 39646 40137 80002 333 20198 58005;EQDQ01  00002PRCP99
0183832360999992001012618004-12140-045000FM-12+044099999V0203601N004119999999N0100001N1+03221+01951101941ADDAA199000091GF105991999021008001001001MA1999999096061MD1999999-0011REMSYN070AAXX  26184 83236 32597 53608 10322 20195 39606 40194 84200 333 59001;EQDQ01+000042SCOTLCQ02  00002PRCP99
0214832360999992001012700004-12140-045000FM-12+044099999V0209999C000012200019N0100001N1+02461+02191101052ADDAA199000091GF103991021041008001001041KA1240M+03351MA1999999096151MD1999999-0111REMSYN088AAXX  27004 83236 32597 30000 10246 20219 39615 40105 82404 333 10335 29075 55093 59011;EQDQ01+101053APOSLPQ02  00002PRCP99
0186832360999992001012712004-12140-045000FM-12+044099999V0203601N000512200019N0200001N1+02611+02271101271ADDAA199000091GF102991021011008001001001KA1240N+01991MA1999999096371MD1999999-0091REMSYN076AAXX  27124 83236 32598 23601 10261 20227 39637 40127 82100 333 20199 59009;EQDQ01  00002PRCP99
0167832360999992001012718004-12140-045000FM-12+044099999V0200501N006712200019N0200001N1+03341+01981100851ADDAA199000091GF103991031011008001001001MA1999999096011MD1999999-0051REMSYN070AAXX  27184 83236 32598 30513 10334 20198 39601 40085 83100 333 59005;EQDQ01  00002PRCP99
0208832360999992001012800004-12140-045000FM-12+044099999V0209999C000012200019N0200001N1+02521+02311100991ADDAA199000091GA1001+999999999GF100991001001999999001001KA1240M+03451MA1999999096101MD1999999-0051REMSYN082AAXX  28004 83236 32998 00000 10252 20231 39610 40099 333 10345 29076 55110 59005;EQDQ01  00002PRCP99
0186832360999992001012812004-12140-045000FM-12+044099999V0200901N001012200019N0200001N1+02601+02141101221ADDAA199000091GF103991031021008001001001KA1240N+01951MA1999999096331MD1999999-0041REMSYN076AAXX  28124 83236 32598 30902 10260 20214 39633 40122 83200 333 20195 59004;EQDQ01  00002PRCP99
0167832360999992001012818004-12140-045000FM-12+044099999V0200501N003112200019N0200001N1+03251+01961100821ADDAA199000091GF103991031021008001001001MA1999999095951MD1999999-0061REMSYN070AAXX  28184 83236 32598 30506 10325 20196 39595 40082 83200 333 59006;EQDQ01  00002PRCP99
0208832360999992001012900004-12140-045000FM-12+044099999V0209999C000012200019N0200001N1+02541+02331100931ADDAA199000091GA1001+999999999GF100991001001999999001001KA1240M+03411MA1999999096041MD1999999-0061REMSYN082AAXX  29004 83236 32998 00000 10254 20233 39604 40093 333 10341 29075 55115 59006;EQDQ01  00002PRCP99
0186832360999992001012912004-12140-045000FM-12+044099999V0203601N001012200019N0200001N1+02731+02191101131ADDAA199000091GF103991021001022501081011KA1240N+02041MA1999999096251MD1999999-0081REMSYN076AAXX  29124 83236 32898 33602 10273 20219 39625 40113 82081 333 20204 59008;EQDQ01  00002PRCP99
0167832360999992001012918004-12140-045000FM-12+044099999V0200501N003612200019N0200001N1+03291+02071100611ADDAA199000091GF103991031021008001001001MA1999999095761MD1999999-0191REMSYN070AAXX  29184 83236 32598 30507 10329 20207 39576 40061 83200 333 59019;EQDQ01  00002PRCP99
0300832360999992001013000004-12140-045000FM-12+044099999V0209999C000012200019N0100001N1+02591+02351100741ADDAA199000091GA1031+012609029GF199999021001022501081001KA1240M+03431MA1999999095881MD1999999-0161REMSYN158AAXX  30004 83236 32897 20000 10259 20235 39588 40074 82080 333 10343 29074 55113 59016 83242 32995 02701 10243 20186 39594 40082 333 10326 29065 55082 59018;EQDQ01+000022SCOTCVQ02  00002PRCP99
0186832360999992001013012004-12140-045000FM-12+044099999V0200501N006212200019N0100001N1+02651+02161101061ADDAA199000091GF104991031021008001061001KA1240N+02001MA1999999096171MD1999999-0081REMSYN076AAXX  30124 83236 32597 40512 10265 20216 39617 40106 83260 333 20200 59008;EQDQ01  00002PRCP99
0167832360999992001013018004-12140-045000FM-12+044099999V0200501N004612200019N0200001N1+03181+02131100581ADDAA199000091GF103991031021008001001001MA1999999095731MD1999999-0041REMSYN070AAXX  30184 83236 32598 30509 10318 20213 39573 40058 83200 333 59004;EQDQ01  00002PRCP99
0198832360999992001013100004-12140-045000FM-12+044099999V0202301N001012200019N0100001N1+02601+02351100751ADDAA199000091GF103991021031008001041001KA1240M+03311MA1999999095881MD1999999+0001REMSYN088AAXX  31004 83236 31597 32302 10260 20235 39588 40075 82340 333 10331 29076 55109 58000;EQDQ01  00002PRCP99
0186832360999992001013112004-12140-045000FM-12+044099999V0200501N004110075019N0100001N1+02361+02051101141ADDAA199000091GF107991071051008001001001KA1240N+02101MA1999999096241MD1999999+0071REMSYN076AAXX  31124 83236 32597 70508 10236 20205 39624 40114 87500 333 20210 58007;EQDQ01  00002PRCP99
0167832360999992001013118004-12140-045000FM-12+044099999V0200901N001012200019N0200001N1+03301+02121100651ADDAA199000091GF104991031021008001001021MA1999999095821MD1999999+0101REMSYN070AAXX  31184 83236 32598 40902 10330 20212 39582 40065 83202 333 58010;EQDQ01  00002PRCP99
0226832360999992001020100004-12140-045000FM-12+044099999V0202701N001012200019N0100001N1+02511+01841100901ADDAA199000091AY101061AY221061GF103991021031008001041001KA1240M+03411MA1999999096001MD1999999+0121MW1131REMSYN094AAXX  01004 83236 31597 32702 10251 20184 39600 40090 71302 82340 333 10341 29067 55069 58012;EQDQ01  00002PRCP99
0201832360999992001020112004-12140-045000FM-12+044099999V0200501N001510075019N0040001N1+02061+02031101111ADDAA124002091AY191061AY261061GF107991051071008001021001KA1240N+01941MA1999999096171MD1999999-0071MW1021REMSYN088AAXX  01124 83236 21596 70503 10206 20203 39617 40111 70296 85720 333 20194 59007 60024;
0167832360999992001020118004-12140-045000FM-12+044099999V0200501N004111050019N0100001N1+03131+01991100571ADDAA199000091GF105991021021008001001021MA1999999095711MD1999999-0111REMSYN070AAXX  01184 83236 32597 50508 10313 20199 39571 40057 82202 333 59011;EQDQ01  00002PRCP99
0186832360999992001020200004-12140-045000FM-12+044099999V0209999C000012200019N0100001N1+02491+02271100641ADDAA199000091GF104991021031022501001081KA1240M+03251MA1999999095861MD1999999-0141REMSYN076AAXX  02004 83236 32897 40000 10249 20227 39586 40064 82308 333 10325 59014;EQDQ01  00002PRCP99
0167832360999992001020218004-12140-045000FM-12+044099999V0202701N003111050019N0100001N1+03271+02151100601ADDAA199000091GF106991041021008001001021MA1999999095741MD1999999-0021REMSYN070AAXX  02184 83236 32597 62706 10327 20215 39574 40060 84202 333 59002;EQDQ01  00002PRCP99
0213832360999992001020300004-12140-045000FM-12+044099999V0201801N001512200019N0100001N1+02331+02241100781ADDAA106001091AY191061AY261061GF103991001001999999001041KA1240M+03401MA1999999095871MD1999999+0111MW1021REMSYN100AAXX  03004 83236 21997 31803 10233 20224 39587 40078 70296 80004 333 10340 29081 55064 58011 60011;
0173832360999992001020312004-12140-045000FM-12+044099999V0200501N001512200019N0200001N1+02561+02131101091ADDAA124001091GF102991021001022501081001KA1240N+01971MA1999999096181MD1999999-0011REMSYN082AAXX  03124 83236 22898 20503 10256 20213 39618 40109 82080 333 20197 59001 60014;
0167832360999992001020318004-12140-045000FM-12+044099999V0200501N005110450019N0200001N1+03211+02121100661ADDAA199000091GF106991021021008001061001MA1999999095791MD1999999+0051REMSYN070AAXX  03184 83236 32598 60510 10321 20212 39579 40066 82260 333 58005;EQDQ01  00002PRCP99
0186832360999992001020412004-12140-045000FM-12+044099999V0201801N001511050019N0200001N1+02581+02101101261ADDAA199000091GF105991031081008001001021KA1240N+01971MA1999999096351MD1999999+0181REMSYN076AAXX  04124 83236 32598 51803 10258 20210 39635 40126 83802 333 20197 58018;EQDQ01  00002PRCP99
0167832360999992001020418004-12140-045000FM-12+044099999V0200501N004612200019N0200001N1+03321+02101100781ADDAA199000091GF103991031011008001001001MA1999999095951MD1999999+0161REMSYN070AAXX  04184 83236 32598 30509 10332 20210 39595 40078 83100 333 58016;EQDQ01  00002PRCP99
0208832360999992001020500004-12140-045000FM-12+044099999V0201801N001012200019N0200001N1+02491+02231100961ADDAA199000091GA1001+999999999GF100991001001999999001001KA1240M+03431MA1999999096071MD1999999+0131REMSYN082AAXX  05004 83236 32998 01802 10249 20223 39607 40096 333 10343 29112 55174 58013;EQDQ01  00002PRCP99
0186832360999992001020512004-12140-045000FM-12+044099999V0202701N001512200019N0200001N1+02691+02221101241ADDAA199000091GF103991031011008001001001KA1240N+02111MA1999999096351MD1999999-0011REMSYN076AAXX  05124 83236 32598 32703 10269 20222 39635 40124 83100 333 20211 59001;EQDQ01  00002PRCP99
0167832360999992001020518004-12140-045000FM-12+044099999V0200501N004612200019N0200001N1+03251+02021100751ADDAA199000091GF103991031011008001001001MA1999999095891MD1999999-0061REMSYN070AAXX  05184 83236 32598 30509 10325 20202 39589 40075 83100 333 59006;EQDQ01  00002PRCP99
0198832360999992001020600004-12140-045000FM-12+044099999V0209999C000012200019N0200001N1+02661+02241100921ADDAA199000091GF103991031001022501061001KA1240M+03491MA1999999096051MD1999999-0031REMSYN088AAXX  06004 83236 32898 30000 10266 20224 39605 40092 83060 333 10349 29070 55115 59003;EQDQ01  00002PRCP99
0202832360999992001020612004-12140-045000FM-12+044099999V0203601N001012200019N0200001N1+02691+02201101211ADDAA199000091GF103991999021008001001001KA1240N+02031MA1999999096331MD1999999-0021REMSYN076AAXX  06124 83236 32598 33602 10269 20220 39633 40121 82200 333 20203 59002;EQDQ01+000022SCOTLCQ02  00002PRCP99
0167832360999992001020618004-12140-045000FM-12+044099999V0200901N001512200019N0200001N1+03531+02031100661ADDAA199000091GF104991031021008001001021MA1999999095841MD1999999-0041REMSYN070AAXX  06184 83236 32598 40903 10353 20203 39584 40066 83202 333 59004;EQDQ01  00002PRCP99
0198832360999992001020700004-12140-045000FM-12+044099999V0209999C000012200019N0200001N1+02791+02341100791ADDAA199000091GF103991031061008001001001KA1240M+03651MA1999999095951MD1999999-0101REMSYN088AAXX  07004 83236 32598 30000 10279 20234 39595 40079 83600 333 10365 29068 55108 59010;EQDQ01  00002PRCP99
0186832360999992001020712004-12140-045000FM-12+044099999V0209999C000012200019N0200001N1+02781+02211101101ADDAA199000091GF104991031021012501001031KA1240N+02141MA1999999096251MD1999999-0071REMSYN076AAXX  07124 83236 32698 40000 10278 20221 39625 40110 83203 333 20214 59007;EQDQ01  00002PRCP99
0167832360999992001020718004-12140-045000FM-12+044099999V0200501N003110075019N0200001N1+03391+02061100671ADDAA199000091GF106991051041008001071051MA1999999095841MD1999999+0001REMSYN070AAXX  07184 83236 32598 60506 10339 20206 39584 40067 85475 333 58000;EQDQ01  00002PRCP99
0198832360999992001020800004-12140-045000FM-12+044099999V0209999C000012200019N0500001N1+02481+02341100961ADDAA199000091GF102991021021012501001001KA1240M+03621MA1999999095991MD1999999+0041REMSYN088AAXX  08004 83236 32699 20000 10248 20234 39599 40096 82200 333 10362 29075 55095 58004;EQDQ01  00002PRCP99
0186832360999992001020812004-12140-045000FM-12+044099999V0200501N002110075019N0200001N1+02691+02281101161ADDAA199000091GF107991051021008001071051KA1240N+02231MA1999999096271MD1999999+0021REMSYN076AAXX  08124 83236 32598 70504 10269 20228 39627 40116 85275 333 20223 58002;EQDQ01  00002PRCP99
0182832360999992001020818004-12140-045000FM-12+044099999V0201801N003110075019N0100001N1+02721+02301100781ADDAA106015091AY161061AY261061GF106991051051008001071051MA1999999095901MD1999999+0061MW1131REMSYN082AAXX  08184 83236 21597 61806 10272 20230 39590 40078 71366 85575 333 58006 60151;
0208832360999992001020900004-12140-045000FM-12+044099999V0209999C000012200019N0500001N1+02421+02321100801ADDAA199000091GA1001+999999999GF100991001001999999001001KA1240M+03281MA1999999095931MD1999999-0061REMSYN082AAXX  09004 83236 32999 00000 10242 20232 39593 40080 333 10328 29086 55077 59006;EQDQ01  00002PRCP99
0173832360999992001020912004-12140-045000FM-12+044099999V0209999C000010450019N0200001N1+02631+02331101131ADDAA124015091GF105991041021008001071051KA1240N+02131MA1999999096231MD1999999-0041REMSYN082AAXX  09124 83236 22598 50000 10263 20233 39623 40113 84275 333 20213 59004 60154;
0167832360999992001020918004-12140-045000FM-12+044099999V0200501N001510075019N0200001N1+03261+02241100581ADDAA199000091GF105991051021008001001001MA1999999095741MD1999999-0161REMSYN070AAXX  09184 83236 32598 50503 10326 20224 39574 40058 85200 333 59016;EQDQ01  00002PRCP99
0198832360999992001021000004-12140-045000FM-12+044099999V0202301N001010075019N0200001N1+02551+02271100741ADDAA199000091GF106991051021008001061071KA1240M+03361MA1999999095871MD1999999-0061REMSYN088AAXX  10004 83236 32598 62302 10255 20227 39587 40074 85267 333 10336 29078 55100 59006;EQDQ01  00002PRCP99
0214832360999992001021012004-12140-045000FM-12+044099999V0200501N004110075019N0100001N1+02721+02301101081ADDAA199000091AY121061AY221061GF107991061051008001071031KA1240N+02231MA1999999096201MD1999999-0031MW1151REMSYN082AAXX  10124 83236 31597 70508 10272 20230 39620 40108 71522 86573 333 20223 59003;EQDQ01  00002PRCP99
0167832360999992001021018004-12140-045000FM-12+044099999V0200501N002610075019N0200001N1+03291+02101100661ADDAA199000091GF105991051021008001001001MA1999999095841MD1999999+0101REMSYN070AAXX  10184 83236 32598 50505 10329 20210 39584 40066 85200 333 58010;EQDQ01  00002PRCP99
0198832360999992001021100004-12140-045000FM-12+044099999V0209999C000012200019N0500001N1+02601+02421100751ADDAA199000091GF103991031021012501001001KA1240M+03381MA1999999095891MD1999999+0021REMSYN088AAXX  11004 83236 32699 30000 10260 20242 39589 40075 83200 333 10338 29077 55105 58002;EQDQ01  00002PRCP99
0186832360999992001021112004-12140-045000FM-12+044099999V0200501N003112200019N0500001N1+02681+02021101161ADDAA199000091GF103991031021012501051001KA1240N+02131MA1999999096281MD1999999+0081REMSYN076AAXX  11124 83236 32699 30506 10268 20202 39628 40116 83250 333 20213 58008;EQDQ01  00002PRCP99
0167832360999992001021118004-12140-045000FM-12+044099999V0200501N002110075019N0200001N1+03201+02031100751ADDAA199000091GF105991051021008001001001MA1999999096391MD1999999+0061REMSYN070AAXX  11184 83236 32598 50504 10320 20203 39639 40075 85200 333 58006;EQDQ01  00002PRCP99
0198832360999992001021200004-12140-045000FM-12+044099999V0209999C000012200019N0500001N1+02481+02191100831ADDAA199000091GF102991021021008001001001KA1240M+03451MA1999999095951MD1999999+0061REMSYN088AAXX  12004 83236 32599 20000 10248 20219 39595 40083 82200 333 10345 29071 55116 58006;EQDQ01  00002PRCP99
0186832360999992001021212004-12140-045000FM-12+044099999V0209999C000012200019N0500001N1+02591+02041101201ADDAA199000091GF104991041021012501001001KA1240N+02051MA1999999096311MD1999999+0031REMSYN076AAXX  12124 83236 32699 40000 10259 20204 39631 40120 84200 333 20205 58003;EQDQ01  00002PRCP99
0167832360999992001021218004-12140-045000FM-12+044099999V0200501N001512200019N0200001N1+03361+01771100911ADDAA199000091GF104991031021008001001051MA1999999096051MD1999999+0151REMSYN070AAXX  12184 83236 32598 40503 10336 20177 39605 40091 83205 333 58015;EQDQ01  00002PRCP99
0208832360999992001021300004-12140-045000FM-12+044099999V0209999C000012200019N0500001N1+02551+02251100871ADDAA199000091GA1001+999999999GF100991001001999999001001KA1240M+03461MA1999999095991MD1999999+0041REMSYN082AAXX  13004 83236 32999 00000 10255 20225 39599 40087 333 10346 29070 55098 58004;EQDQ01  00002PRCP99
0186832360999992001021312004-12140-045000FM-12+044099999V0202301N001511050019N0200001N1+02551+02061101161ADDAA199000091GF105991031021012501001071KA1240N+01921MA1999999096271MD1999999-0041REMSYN076AAXX  13124 83236 32698 52303 10255 20206 39627 40116 83207 333 20192 59004;EQDQ01  00002PRCP99
0167832360999992001021318004-12140-045000FM-12+044099999V0201801N001010075019N0200001N1+03431+01831100661ADDAA199000091GF106991051021008001061071MA1999999095811MD1999999-0241REMSYN070AAXX  13184 83236 32598 61802 10343 20183 39581 40066 85267 333 59024;EQDQ01  00002PRCP99
0226832360999992001021400004-12140-045000FM-12+044099999V0201801N001012200019N0200001N1+02471+02151100821ADDAA199000091AY121061AY221061GF105991041051008001001061KA1240M+03571MA1999999095941MD1999999-0051MW1131REMSYN094AAXX  14004 83236 31598 51802 10247 20215 39594 40082 71322 84506 333 10357 29070 55094 59005;EQDQ01  00002PRCP99
0186832360999992001021412004-12140-045000FM-12+044099999V0200501N002110075019N0100001N1+02591+02191101211ADDAA199000091GF107991051041008001071051KA1240N+02251MA1999999096321MD1999999+0051REMSYN076AAXX  14124 83236 32597 70504 10259 20219 39632 40121 85475 333 20225 58005;EQDQ01  00002PRCP99
0167832360999992001021418004-12140-045000FM-12+044099999V0200501N003110120019N0100001N1+03151+02101100641ADDAA199000091GF108991071081008001051999MA1999999095811MD1999999+0001REMSYN070AAXX  14184 83236 32597 80506 10315 20210 39581 40064 8785/ 333 58000;EQDQ01  00002PRCP99
0214832360999992001021500004-12140-045000FM-12+044099999V0209999C000010075019N0100001N1+02431+02211100941ADDAA199000091GF108991999071008001061999KA1240M+03251MA1999999096051MD1999999+0111REMSYN088AAXX  15004 83236 32597 80000 10243 20221 39605 40094 8876/ 333 10325 29077 55042 58011;EQDQ01+000082SCOTLCQ02  00002PRCP99
0201832360999992001021512004-12140-045000FM-12+044099999V0209999C000010075019N0100001N1+02371+02071101271ADDAA124001091AY161061AY261061GF106991051021008001061071KA1240N+02031MA1999999096351MD1999999+0031MW1021REMSYN088AAXX  15124 83236 21597 60000 10237 20207 39635 40127 70266 85267 333 20203 58003 60014;
0167832360999992001021518004-12140-045000FM-12+044099999V0200501N005110075019N0200001N1+03101+02121100771ADDAA199000091GF106991051021008001051071MA1999999095911MD1999999+0101REMSYN070AAXX  15184 83236 32598 60510 10310 20212 39591 40077 85257 333 58010;EQDQ01  00002PRCP99
0198832360999992001021600004-12140-045000FM-12+044099999V0201801N001510450019N0200001N1+02321+02131101041ADDAA199000091GF106991041031008001061051KA1240M+03211MA1999999096121MD1999999+0071REMSYN088AAXX  16004 83236 32598 61803 10232 20213 39612 40104 84365 333 10321 29080 55047 58007;EQDQ01  00002PRCP99
0186832360999992001021612004-12140-045000FM-12+044099999V0209999C000010075019N0100001N1+02521+02211101311ADDAA199000091GF108991071021008001081999KA1240N+02121MA1999999096381MD1999999+0031REMSYN076AAXX  16124 83236 32597 80000 10252 20221 39638 40131 8728/ 333 20212 58003;EQDQ01  00002PRCP99
0182832360999992001021618004-12140-045000FM-12+044099999V0200901N002610450019N0200001N1+03091+02211100901ADDAA106002091AY161061AY261061GF108991041051008001071051MA1999999095931MD1999999+0021MW1171REMSYN082AAXX  16184 83236 21598 80905 10309 20221 39593 40090 71766 84575 333 58002 60021;
0226832360999992001021700004-12140-045000FM-12+044099999V0209999C000010075019N0200001N1+02241+99999101061ADDAA199000091AY121061AY221061GF106991061051008001071001KA1240M+03211MA1999999096161MD1999999+0041MW1131REMSYN094AAXX  17004 83236 31598 60000 10224 20230 39616 40106 71322 86570 333 10321 29081 55023 58004;EQDQ01  00002PRCP99
0173832360999992001021712004-12140-045000FM-12+044099999V0202301N002111050019N0200001N1+02691+02181101341ADDAA124002091GF105991031021008001001071KA1240N+02121MA1999999096441MD1999999+0061REMSYN082AAXX  17124 83236 22598 52304 10269 20218 39644 40134 83207 333 20212 58006 60024;
0167832360999992001021718004-12140-045000FM-12+044099999V0200501N003110075019N0100001N1+03271+02111100831ADDAA199000091GF108991071021008001071999MA1999999095991MD1999999+0061REMSYN070AAXX  17184 83236 32597 80506 10327 20211 39599 40083 8727/ 333 58006;EQDQ01  00002PRCP99
0213832360999992001021800004-12140-045000FM-12+044099999V0202301N002110075019N0100001N1+02271+02211101211ADDAA106001091AY161061AY261061GF108991061051008001081999KA1240M+03361MA1999999096311MD1999999+0151MW1131REMSYN100AAXX  18004 83236 21597 82304 10227 20221 39631 40121 71366 8658/ 333 10336 29080 55079 58015 60011;
0173832360999992001021812004-12140-045000FM-12+044099999V0202301N001512200019N0500001N1+02621+02211101421ADDAA124001091GF104991041021012501071001KA1240N+02081MA1999999096501MD1999999+0061REMSYN082AAXX  18124 83236 22699 42303 10262 20221 39650 40142 84270 333 20208 58006 60014;
0167832360999992001021818004-12140-045000FM-12+044099999V0200901N003110075019N0200001N1+03281+01931100961ADDAA199000091GF105991051021008001051001MA1999999096101MD1999999+0111REMSYN070AAXX  18184 83236 32598 50906 10328 20193 39610 40096 85250 333 58011;EQDQ01  00002PRCP99
0186832360999992001021912004-12140-045000FM-12+044099999V0209999C000010450019N0200001N1+02691+02091101371ADDAA199000091GF105991041021008001051031KA1240N+02071MA1999999096461MD1999999-0041REMSYN076AAXX  19124 83236 32598 50000 10269 20209 39646 40137 84253 333 20207 59004;EQDQ01  00002PRCP99
0195832360999992001021918004-12140-045000FM-12+044099999V0201401N002110075019N0200001N1+03291+01861100911ADDAA199000091AY121061AY221061GF106991051051008001071051MA1999999096841MD1999999-0061MW1151REMSYN076AAXX  19184 83236 31598 61404 10329 20186 39684 40091 71522 85575 333 59006;EQDQ01  00002PRCP99
0226832360999992001022000004-12140-045000FM-12+044099999V0209999C000010075019N0200001N1+02351+01931101231ADDAA199000091AY121061AY221061GF106991061051008001081001KA1240M+03361MA1999999096341MD1999999+0091MW1171REMSYN094AAXX  20004 83236 31598 60000 10235 20193 39634 40123 71722 86580 333 10336 29067 55070 58009;EQDQ01  00002PRCP99
0201832360999992001022012004-12140-045000FM-12+044099999V0209999C000010075019N0100001N1+02361+02111101401ADDAA124002091AY161061AY251061GF107991061071008001061051KA1240N+02081MA1999999096461MD1999999+0001MW1031REMSYN088AAXX  20124 83236 21597 70000 10236 20211 39646 40140 70365 86765 333 20208 58000 60024;
0167832360999992001022018004-12140-045000FM-12+044099999V0200901N004110075019N0200001N1+03171+01891100851ADDAA199000091GF107991051021008001071051MA1999999095971MD1999999-0071REMSYN070AAXX  20184 83236 32598 70908 10317 20189 39597 40085 85275 333 59007;EQDQ01  00002PRCP99
0226832360999992001022100004-12140-045000FM-12+044099999V0202301N001511050019N0200001N1+02301+02051101181ADDAA199000091AY121061AY221061GF105991031051008001001071KA1240M+03341MA1999999096251MD1999999-0091MW1131REMSYN094AAXX  21004 83236 31598 52303 10230 20205 39625 40118 71322 83507 333 10334 29076 55059 59009;EQDQ01  00002PRCP99
0186832360999992001022112004-12140-045000FM-12+044099999V0202301N001510450019N0200001N1+02471+02031101251ADDAA199000091GF106991041021008001061071KA1240N+02021MA1999999096331MD1999999-0131REMSYN076AAXX  21124 83236 32598 62303 10247 20203 39633 40125 84267 333 20202 59013;EQDQ01  00002PRCP99
0182832360999992001022118004-12140-045000FM-12+044099999V0200501N003110075019N0020001N1+02201+01251101041ADDAA106008991AY161061AY261061GF108991071061008001999999MA1999999096081MD1999999+0111MW1621REMSYN082AAXX  21184 83236 21595 80506 10220 20125 39608 40104 76266 876// 333 58011 60091;
0213832360999992001022200004-12140-045000FM-12+044099999V0201801N001510075019N0100001N1+02051+02011101141ADDAA106004191AY151061AY251061GF106991061051008001061001KA1240M+03191MA1999999096201MD1999999-0051MW1131REMSYN100AAXX  22004 83236 21597 61803 10205 20201 39620 40114 71355 86560 333 10319 29092 55029 59005 60041;
0201832360999992001022212004-12140-045000FM-12+044099999V0209999C000010075019N0040001N1+02211+02121101391ADDAA124013091AY151061AY251061GF108991051051008001021999KA1240N+01981MA1999999096431MD1999999+0101MW1021REMSYN088AAXX  22124 83236 21596 80000 10221 20212 39643 40139 70255 8552/ 333 20198 58010 60134;
0195832360999992001022218004-12140-045000FM-12+044099999V0201401N008210075019N0100001N1+02811+01781100901ADDAA199000091AY111061AY251061GF106991061071008001001001MA1999999096001MD1999999-0081MW1291REMSYN076AAXX  22184 83236 31597 61416 10281 20178 39600 40090 72915 86700 333 59008;EQDQ01  00002PRCP99
0226832360999992001022300004-12140-045000FM-12+044099999V0202701N001510450019N0100001N1+02211+02051101021ADDAA199000091AY101061AY221061GF106991041071008001021001KA1240M+03151MA1999999096081MD1999999-0131MW1131REMSYN094AAXX  23004 83236 31597 62703 10221 20205 39608 40102 71302 84720 333 10315 29083 55028 59013;EQDQ01  00002PRCP99
0186832360999992001022312004-12140-045000FM-12+044099999V0209999C000012200019N0200001N1+02671+02181101291ADDAA199000091GF102991011041008001021031KA1240N+01921MA1999999096441MD1999999+0011REMSYN076AAXX  23124 83236 32598 20000 10267 20218 39644 40129 81423 333 20192 58001;EQDQ01  00002PRCP99
0167832360999992001022318004-12140-045000FM-12+044099999V0200501N004612200019N0200001N1+03311+02121100761ADDAA199000091GF104991031021008001001011MA1999999095921MD1999999-0081REMSYN070AAXX  23184 83236 32598 40509 10331 20212 39592 40076 83201 333 59008;EQDQ01  00002PRCP99
0198832360999992001022400004-12140-045000FM-12+044099999V0201801N001512200019N0200001N1+02381+02171100951ADDAA199000091GF103991031001022501061001KA1240M+03461MA1999999096071MD1999999-0011REMSYN088AAXX  24004 83236 32898 31803 10238 20217 39607 40095 83060 333 10346 29074 55102 59001;EQDQ01  00002PRCP99
0186832360999992001022412004-12140-045000FM-12+044099999V0200501N005112200019N0200001N1+02691+01991101141ADDAA199000091GF103991011061008001001081KA1240N+02031MA1999999096271MD1999999-0091REMSYN076AAXX  24124 83236 32598 30510 10269 20199 39627 40114 81608 333 20203 59009;EQDQ01  00002PRCP99
0167832360999992001022418004-12140-045000FM-12+044099999V0200901N003612200019N0200001N1+03331+01931100721ADDAA199000091GF105991031021008001001011MA1999999095901MD1999999-0021REMSYN070AAXX  24184 83236 32598 50907 10333 20193 39590 40072 83201 333 59002;EQDQ01  00002PRCP99
0208832360999992001022500004-12140-045000FM-12+044099999V0201801N002112200019N0200001N1+02431+02171101151ADDAA199000091GA1001+999999999GF100991001001999999001001KA1240M+03461MA1999999096281MD1999999+0211REMSYN082AAXX  25004 83236 32998 01804 10243 20217 39628 40115 333 10346 29070 55101 58021;EQDQ01  00002PRCP99
0208832360999992001022512004-12140-045000FM-12+044099999V0201801N002112200019N0200001N1+02431+02171101151ADDAA199000091GA1001+999999999GF100991001001999999001001KA1240M+03461MA1999999096281MD1999999+0211REMSYN082AAXX  25124 83236 32998 01804 10243 20217 39628 40115 333 10346 29070 55101 58021;EQDQ01  00002PRCP99
0167832360999992001022518004-12140-045000FM-12+044099999V0200501N003611050019N0200001N1+03261+02111100571ADDAA199000091GF105991031021008001001021MA1999999095751MD1999999-0151REMSYN070AAXX  25184 83236 32598 50507 10326 20211 39575 40057 83202 333 59015;EQDQ01  00002PRCP99
0226832360999992001022600004-12140-045000FM-12+044099999V0209999C000012200019N0200001N1+02531+02311100761ADDAA199000091AY101061AY221061GF104991041071008001001001KA1240M+03471MA1999999095911MD1999999-0071MW1131REMSYN094AAXX  26004 83236 31598 40000 10253 20231 39591 40076 71302 84700 333 10347 29076 55093 59007;EQDQ01  00002PRCP99
0167832360999992001022618004-12140-045000FM-12+044099999V0200501N002612200019N0100001N1+03251+02031100501ADDAA199000091GF104991031021008001021011MA1999999095711MD1999999-0041REMSYN070AAXX  26184 83236 32597 40505 10325 20203 39571 40050 83221 333 59004;EQDQ01  00002PRCP99
0186832360999992001022700004-12140-045000FM-12+044099999V0209999C000012200019N0100001N1+02691+02091100801ADDAA199000091GF104991041021008001001001KA1240M+03431MA1999999095951MD1999999-0041REMSYN076AAXX  27004 83236 32597 40000 10269 20209 39595 40080 84200 333 10343 59004;EQDQ01  00002PRCP99
0201832360999992001022712004-12140-045000FM-12+044099999V0209999C000010450019N0100001N1+02441+02171101261ADDAA124000191AY151061AY251061GF107991041051008001021001KA1240N+02191MA1999999096381MD1999999+0191MW1021REMSYN088AAXX  27124 83236 21597 70000 10244 20217 39638 40126 70255 84520 333 20219 58019 69924;
0182832360999992001022718004-12140-045000FM-12+044099999V0200901N003610450019N0100001N1+02611+02101100921ADDAA106001091AY161061AY261061GF108991021061008001021999MA1999999096041MD1999999+0331MW1021REMSYN082AAXX  27184 83236 21597 80907 10261 20210 39604 40092 70266 8262/ 333 58033 69991;
0201832360999992001022812004-12140-045000FM-12+044099999V0202301N001010075019N0040001N1+02221+02011101341ADDAA124004191AY161061AY261061GF108991051051008001021999KA1240N+01951MA1999999096421MD1999999+0041MW1021REMSYN088AAXX  28124 83236 21596 82302 10222 20201 39642 40134 70266 8552/ 333 20195 58004 60044;
0167832360999992001022818004-12140-045000FM-12+044099999V0203601N001010450019N0100001N1+02821+02171100981ADDAA199000091GF107991031021008001021001MA1999999096091MD1999999-0111REMSYN070AAXX  28184 83236 32597 73602 10282 20217 39609 40098 83220 333 59011;EQDQ01  00002PRCP99
0198832360999992001030100004-12140-045000FM-12+044099999V0209999C000010120019N0040001N1+02511+02191100991ADDAA199000091GF107991071081008001001001KA1240M+02991MA1999999096091MD1999999-0111REMSYN088AAXX  01004 83236 32596 70000 10251 20219 39609 40099 87800 333 10299 29080 55012 59011;EQDQ01  00002PRCP99
0186832360999992001030112004-12140-045000FM-12+044099999V0203601N004610075019N0040001N1+02431+02151101301ADDAA199000091GF108991081051008001999999KA1240N+02151MA1999999096401MD1999999-0021REMSYN076AAXX  01124 83236 32596 83609 10243 20215 39640 40130 885// 333 20215 59002;EQDQ01  00002PRCP99
0184832360999992001030200004-12140-045000FM-12+044099999V0201801N001011050019N0040001N1+02511+02191101101ADDAA199000091GF107991031061008001001061KA1240M+02981MA1999999096221REMSYN088AAXX  02004 83236 32596 71802 10251 20219 39622 40110 83606 333 10298 29077 55051 5//18;EQDQ01  00002PRCP99
0173832360999992001030212004-12140-045000FM-12+044099999V0200501N001512200019N0200001N1+02561+02131101091ADDAA124001091GF102991021001022501081001KA1240N+01971MA1999999096181MD1999999-0011REMSYN082AAXX  02124 83236 22898 20503 10256 20213 39618 40109 82080 333 20197 59001 60014;
0167832360999992001030218004-12140-045000FM-12+044099999V0203601N002112200019N0200001N1+03131+02221100921ADDAA199000091GF103991021011008001001081MA1999999096091MD1999999-0071REMSYN070AAXX  02184 83236 32598 33604 10313 20222 39609 40092 82108 333 59007;EQDQ01  00002PRCP99
0186832360999992001030300004-12140-045000FM-12+044099999V0201801N000510120019N0040001N1+02691+02331101151ADDAA199000091GF108991081081008001001001KA1240M+03391MA1999999096271MD1999999+0051REMSYN076AAXX  03004 83236 32596 81801 10269 20233 39627 40115 88800 333 10339 58005;EQDQ01  00002PRCP99
0201832360999992001030312004-12140-045000FM-12+044099999V0201801N004119999999N0100001N1+02581+02151101471ADDAA124000191AY151061AY251061GF106991001001999999001061KA1240N+02161MA1999999096601MD1999999+0061MW1021REMSYN088AAXX  03124 83236 21997 61808 10258 20215 39660 40147 70255 80006 333 20216 58006 69924;
0167832360999992001030318004-12140-045000FM-12+044099999V0203601N002110450019N0100001N1+03111+02201101011ADDAA199000091GF106991041021008001061001MA1999999096181MD1999999+0091REMSYN070AAXX  03184 83236 32597 63604 10311 20220 39618 40101 84260 333 58009;EQDQ01  00002PRCP99
0198832360999992001030400004-12140-045000FM-12+044099999V0201801N002112200019N0200001N1+02531+02231101151ADDAA199000091GF103991001001999999001081KA1240M+03351MA1999999096381MD1999999+0111REMSYN088AAXX  04004 83236 32998 31804 10253 20223 39638 40115 80008 333 10335 29076 55045 58011;EQDQ01  00002PRCP99
0186832360999992001030412004-12140-045000FM-12+044099999V0201801N003112200019N0200001N1+02711+02221101321ADDAA199000091GF103991011011008001001081KA1240N+02151MA1999999096451MD1999999-0151REMSYN076AAXX  04124 83236 32598 31806 10271 20222 39645 40132 81108 333 20215 59015;EQDQ01  00002PRCP99
0183832360999992001030418004-12140-045000FM-12+044099999V0200901N004112200019N0200001N1+03321+02071100791ADDAA199000091GF103991999021008001001001MA1999999095971MD1999999-0211REMSYN070AAXX  04184 83236 32598 30908 10332 20207 39597 40079 84200 333 59021;EQDQ01+000042SCOTLCQ02  00002PRCP99
0186832360999992001030500004-12140-045000FM-12+044099999V0209999C000010210019N0100001N1+02641+02351101071ADDAA199000091GF108991081001022501021999KA1240M+03481MA1999999096221MD1999999-0161REMSYN076AAXX  05004 83236 32897 80000 10264 20235 39622 40107 8802/ 333 10348 59016;EQDQ01  00002PRCP99
0214832360999992001030512004-12140-045000FM-12+044099999V0201801N001010450019N0040001N1+02441+02111101351ADDAA199000091AY101061AY291061GF108991041071008001021999KA1240N+02121MA1999999096471MD1999999+0021MW1151REMSYN082AAXX  05124 83236 31596 81802 10244 20211 39647 40135 71509 8472/ 333 20212 58002;EQDQ01  00002PRCP99
0167832360999992001030518004-12140-045000FM-12+044099999V0200501N003110075019N0100001N1+03201+02301100731ADDAA199000091GF106991051031008001001031MA1999999095921MD1999999-0051REMSYN070AAXX  05184 83236 32597 60506 10320 20230 39592 40073 85303 333 59005;EQDQ01  00002PRCP99
0213832360999992001030600004-12140-045000FM-12+044099999V0209999C000010450019N0040001N1+02551+02291101071ADDAA106000591AY151061AY251061GF108991031051008001021999KA1240M+03331MA1999999096191MD1999999-0031MW1021REMSYN100AAXX  06004 83236 21596 80000 10255 20229 39619 40107 70255 8352/ 333 10333 29079 55029 59003 69941;
0173832360999992001030612004-12140-045000FM-12+044099999V0201801N001012200019N0200001N1+02751+02241101281ADDAA124000591GF104991021021008001001021KA1240N+02211MA1999999096421MD1999999-0021REMSYN082AAXX  06124 83236 22598 41802 10275 20224 39642 40128 82202 333 20221 59002 69944;
0167832360999992001030618004-12140-045000FM-12+044099999V0200501N005711050019N0200001N1+03311+02051100781ADDAA199000091GF105991031021008001001021MA1999999095981MD1999999+0061REMSYN070AAXX  06184 83236 32598 50511 10331 20205 39598 40078 83202 333 58006;EQDQ01  00002PRCP99
0226832360999992001030700004-12140-045000FM-12+044099999V0209999C000012200019N0100001N1+02551+02401101111ADDAA199000091AY101061AY221061GF104991031031008001061001KA1240M+03451MA1999999096361MD1999999+0071MW1131REMSYN094AAXX  07004 83236 31597 40000 10255 20240 39636 40111 71302 83360 333 10345 29076 55078 58007;EQDQ01  00002PRCP99
0186832360999992001030712004-12140-045000FM-12+044099999V0202301N001512200019N0200001N1+02611+02141101501ADDAA199000091GF104991021021008001061091KA1240N+02151MA1999999096621MD1999999+0201REMSYN076AAXX  07124 83236 32598 42303 10261 20214 39662 40150 82269 333 20215 58020;EQDQ01  00002PRCP99
0195832360999992001030718004-12140-045000FM-12+044099999V0201801N002110450019N0100001N1+03271+02211100971ADDAA199000091AY101061AY221061GF105991041031008001041001MA1999999096161MD1999999+0181MW1151REMSYN076AAXX  07184 83236 31597 51804 10327 20221 39616 40097 71502 84340 333 58018;EQDQ01  00002PRCP99
0232832360999992001030800004-12140-045000FM-12+044099999V0201801N001012200019N0200001N1+02431+02281101181ADDAA106005191AY191061AY261061GF103991999041008001001001KA1240M+03471MA1999999096301MD1999999+0041MW1021REMSYN100AAXX  08004 83236 21598 31802 10243 20228 39630 40118 70296 84400 333 10347 29078 55097 58004 60051;EQDQ01+000042SCOTLC
0173832360999992001030812004-12140-045000FM-12+044099999V0209999C000012200019N0200001N1+02541+02171101401ADDAA124005191GF102991001001999999001081KA1240N+02061MA1999999096511MD1999999-0111REMSYN082AAXX  08124 83236 22998 20000 10254 20217 39651 40140 80008 333 20206 59011 60054;
0167832360999992001030818004-12140-045000FM-12+044099999V0200901N002112200019N0200001N1+03481+02021100871ADDAA199000091GF104991031021008001001041MA1999999096061MD1999999-0161REMSYN070AAXX  08184 83236 32598 40904 10348 20202 39606 40087 83204 333 59016;EQDQ01  00002PRCP99
0198832360999992001030900004-12140-045000FM-12+044099999V0202301N001012200019N0200001N1+02511+02171100991ADDAA199000091GF102991001001999999001041KA1240M+03551MA1999999096121MD1999999-0181REMSYN088AAXX  09004 83236 32998 22302 10251 20217 39612 40099 80004 333 10355 29072 55103 59018;EQDQ01  00002PRCP99
0186832360999992001030912004-12140-045000FM-12+044099999V0209999C000012200019N0200001N1+02581+02151101021ADDAA199000091GF102991001001999999001081KA1240N+01941MA1999999096251MD1999999-0261REMSYN076AAXX  09124 83236 32998 20000 10258 20215 39625 40102 80008 333 20194 59026;EQDQ01  00002PRCP99
0167832360999992001030918004-12140-045000FM-12+044099999V0201801N001012200019N0200001N1+03511+01721100541ADDAA199000091GF103991031021008001001001MA1999999095751MD1999999-0311REMSYN070AAXX  09184 83236 32598 31802 10351 20172 39575 40054 83200 333 59031;EQDQ01  00002PRCP99
0198832360999992001031000004-12140-045000FM-12+044099999V0201801N002112200019N0200001N1+02581+02211100871ADDAA199000091GF104991021001022501061041KA1240M+03651MA1999999095971MD1999999-0151REMSYN088AAXX  10004 83236 32898 41804 10258 20221 39597 40087 82064 333 10365 29068 55103 59015;EQDQ01  00002PRCP99
0186832360999992001031012004-12140-045000FM-12+044099999V0200501N001010120019N0100001N1+02491+02051101081ADDAA199000091GF108991071081008001071999KA1240N+02031MA1999999096211MD1999999-0041REMSYN076AAXX  10124 83236 32597 80502 10249 20205 39621 40108 8787/ 333 20203 59004;EQDQ01  00002PRCP99
0167832360999992001031018004-12140-045000FM-12+044099999V0201801N001010075019N0200001N1+03141+01691100621ADDAA199000091GF107991061041008001071051MA1999999095781MD1999999+0031REMSYN070AAXX  10184 83236 32598 71802 10314 20169 39578 40062 86475 333 58003;EQDQ01  00002PRCP99
0213832360999992001031100004-12140-045000FM-12+044099999V0209999C000010075019N0040001N1+02341+02201101021ADDAA106000391AY151061AY251061GF108991071061008001999999KA1240M+03221MA1999999096131MD1999999+0161MW1501REMSYN100AAXX  11004 83236 21596 80000 10234 20220 39613 40102 75055 876// 333 10322 29078 55038 58016 69931;
0173832360999992001031112004-12140-045000FM-12+044099999V0202301N002110075019N0200001N1+02501+02091101121ADDAA124000891GF106991051021008001061071KA1240N+02211MA1999999096241MD1999999+0031REMSYN082AAXX  11124 83236 22598 62304 10250 20209 39624 40112 85267 333 20221 58003 69974;
0213832360999992001031200004-12140-045000FM-12+044099999V0200501N001510075019N0040001N1+02311+02201101111ADDAA106004191AY161061AY261061GF108991061071008001051999KA1240M+03071MA1999999096211MD1999999+0081MW1101REMSYN100AAXX  12004 83236 21596 80503 10231 20220 39621 40111 71066 8675/ 333 10307 29083 55050 58008 60041;
0220832360999992001031212004-12140-045000FM-12+044099999V0200501N002610075019N0020001N1+02121+02051101381ADDAA124055991AY161061AY261061GF108991999061008001041999KA1240N+02041MA1999999096431MD1999999+0191MW1501REMSYN088AAXX  12124 83236 21595 80505 10212 20205 39643 40138 75066 8864/ 333 20204 58019 60564;EQDQ01+000082SCOTLC
0182832360999992001031218004-12140-045000FM-12+044099999V0200501N003110075019N0040001N1+02531+02231100961ADDAA106006191AY161061AY251061GF108991061051008001999999MA1999999096051MD1999999+0271MW1151REMSYN082AAXX  12184 83236 21596 80506 10253 20223 39605 40096 71565 865// 333 58027 60061;
0207832360999992001031300004-12140-045000FM-12+044099999V0200501N002610120019N0040001N1+02341+02241101171ADDAA199000021AY121061AY221061GF108991061081008001999999KA1240M+02621MA1999999096241MD1999999+0031MW1101REMSYN094AAXX  13004 83236 31596 80505 10234 20224 39624 40117 71022 868// 333 10262 29092 55000 58003;
0201832360999992001031312004-12140-045000FM-12+044099999V0200501N001510075019N0040001N1+02351+02131101381ADDAA124006191AY121061AY221061GF108991061061008001051999KA1240N+02131MA1999999096461MD1999999+0061MW1151REMSYN088AAXX  13124 83236 21596 80503 10235 20213 39646 40138 71522 8665/ 333 20213 58006 60064;
0182832360999992001031318004-12140-045000FM-12+044099999V0203601N002110075019N0100001N1+02861+02091100831ADDAA106000191AY151061AY251061GF108991071061008001081999MA1999999095961MD1999999-0091MW1151REMSYN082AAXX  13184 83236 21597 83604 10286 20209 39596 40083 71555 8768/ 333 59009 69911;
0213832360999992001031400004-12140-045000FM-12+044099999V0203601N001510075019N0020001N1+02101+02081101401ADDAA106047091AY161061AY261061GF108991061061008001999999KA1240M+02981MA1999999096451MD1999999+0211MW1621REMSYN100AAXX  14004 83236 21595 83603 10210 20208 39645 40140 76266 866// 333 10298 29087 55020 58021 60471;
0201832360999992001031412004-12140-045000FM-12+044099999V0203601N001010120019N0040001N1+02271+02071101321ADDAA124062091AY161061AY251061GF108991071081008001061999KA1240N+02011MA1999999096371MD1999999-0091MW1021REMSYN088AAXX  14124 83236 21596 83602 10227 20207 39637 40132 70265 8786/ 333 20201 59009 60624;
0167832360999992001031418004-12140-045000FM-12+044099999V0203601N001010075019N0200001N1+02841+01961100891ADDAA199000091GF106991051021008001071051MA1999999096001MD1999999+0041REMSYN070AAXX  14184 83236 32598 63602 10284 20196 39600 40089 85275 333 58004;EQDQ01  00002PRCP99
0226832360999992001031500004-12140-045000FM-12+044099999V0201801N001010075019N0200001N1+02271+02181101151ADDAA199000091AY121061AY221061GF105991051051008001001001KA1240M+02941MA1999999096221MD1999999-0231MW1131REMSYN094AAXX  15004 83236 31598 51802 10227 20218 39622 40115 71322 85500 333 10294 29084 55033 59023;EQDQ01  00002PRCP99
0173832360999992001031512004-12140-045000FM-12+044099999V0209999C000010120019N0100001N1+02251+01941101421ADDAA124006191GF108991061081008001071999KA1240N+01991MA1999999096471MD1999999+0101REMSYN082AAXX  15124 83236 22597 80000 10225 20194 39647 40142 8687/ 333 20199 58010 60064;
0182832360999992001031518004-12140-045000FM-12+044099999V0201801N002110075019N0100001N1+02371+02201100981ADDAA106000891AY161061AY251061GF106991061061008001081001MA1999999096051MD1999999+0051MW1151REMSYN082AAXX  15184 83236 21597 61804 10237 20220 39605 40098 71565 86680 333 58005 69981;
0226832360999992001031600004-12140-045000FM-12+044099999V0201801N001010075019N0200001N1+02251+02171101041ADDAA199000091AY121061AY221061GF105991051061008001051001KA1240M+02931MA1999999096171MD1999999-0051MW1131REMSYN094AAXX  16004 83236 31598 51802 10225 20217 39617 40104 71322 85650 333 10293 29091 55035 59005;EQDQ01  00002PRCP99
0201832360999992001031612004-12140-045000FM-12+044099999V0202301N001510120019N0100001N1+02411+02191101421ADDAA124001091AY151061AY251061GF108991071081008001071999KA1240N+02151MA1999999096521MD1999999+0051MW1101REMSYN088AAXX  16124 83236 21597 82303 10241 20219 39652 40142 71055 8787/ 333 20215 58005 60014;
0182832360999992001031618004-12140-045000FM-12+044099999V0203201N001010075019N0100001N1+02771+02121101111ADDAA106001091AY151061AY251061GF107991051051008001071051MA1999999096221MD1999999+0171MW1151REMSYN082AAXX  16184 83236 21597 73202 10277 20212 39622 40111 71555 85575 333 58017 60011;
0213832360999992001031700004-12140-045000FM-12+044099999V0203201N002110120019N0040001N1+02351+02261101231ADDAA106006191AY161061AY261061GF108991061081008001061999KA1240M+02851MA1999999096331MD1999999+0161MW1021REMSYN100AAXX  17004 83236 21596 83204 10235 20226 39633 40123 70266 8686/ 333 10285 29081 55010 58016 60061;
0173832360999992001031712004-12140-045000FM-12+044099999V0209999C000010075019N0200001N1+02351+01931101311ADDAA124007191GF107991061021008001061071KA1240N+01951MA1999999096391MD1999999-0131REMSYN082AAXX  17124 83236 22598 70000 10235 20193 39639 40131 86267 333 20195 59013 60074;
0195832360999992001031718004-12140-045000FM-12+044099999V0201401N003110075019N0100001N1+02591+02001100941ADDAA199000091AY121061AY221061GF108991071061008001081999MA1999999096071MD1999999-0151MW1151REMSYN076AAXX  17184 83236 31597 81406 10259 20200 39607 40094 71522 8768/ 333 59015;EQDQ01  00002PRCP99
0173832360999992001031812004-12140-045000FM-12+044099999V0209999C000011050019N0200001N1+02401+02131101171ADDAA124002091GF105991031001022501071031KA1240N+01921MA1999999096271MD1999999-0121REMSYN082AAXX  18124 83236 22898 50000 10240 20213 39627 40117 83073 333 20192 59012 60024;
0167832360999992001031818004-12140-045000FM-12+044099999V0200501N002610075019N0200001N1+03021+02071100681ADDAA199000091GF106991051021008001081051MA1999999095821MD1999999-0251REMSYN070AAXX  18184 83236 32598 60505 10302 20207 39582 40068 85285 333 59025;EQDQ01  00002PRCP99
0198832360999992001031900004-12140-045000FM-12+044099999V0201001N002110120019N0100001N1+02401+02211100891ADDAA199000091GF108991061081008001061999KA1240M+03121MA1999999096001MD1999999-0211REMSYN088AAXX  19004 83236 32597 81004 10240 20221 39600 40089 8686/ 333 10312 29080 55086 59021;EQDQ01  00002PRCP99
0186832360999992001031912004-12140-045000FM-12+044099999V0209999C000010450019N0200001N1+02541+02171101131ADDAA199000091GF105991031021008001071051KA1240N+02091MA1999999096241MD1999999-0031REMSYN076AAXX  19124 83236 32598 50000 10254 20217 39624 40113 83275 333 20209 59003;EQDQ01  00002PRCP99
0195832360999992001031918004-12140-045000FM-12+044099999V0201801N003110075019N0100001N1+02671+02091100741ADDAA199000091AY121061AY221061GF108991071061008001081999MA1999999095861MD1999999+0041MW1151REMSYN076AAXX  19184 83236 31597 81806 10267 20209 39586 40074 71522 8768/ 333 58004;EQDQ01  00002PRCP99
0213832360999992001032000004-12140-045000FM-12+044099999V0209999C000010075019N0100001N1+02321+02251101001ADDAA106000191AY151061AY251061GF106991061061008001051001KA1240M+03081MA1999999096121MD1999999+0121MW1131REMSYN100AAXX  20004 83236 21597 60000 10232 20225 39612 40100 71355 86650 333 10308 29086 55063 58012 69921;
0201832360999992001032012004-12140-045000FM-12+044099999V0201801N001010450019N0200001N1+02561+02311101391ADDAA124006191AY161061AY261061GF105991041021008001061071KA1240N+02131MA1999999096491MD1999999+0251MW1021REMSYN088AAXX  20124 83236 21598 51802 10256 20231 39649 40139 70266 84267 333 20213 58025 60064;
0167832360999992001032018004-12140-045000FM-12+044099999V0200501N001511050019N0200001N1+03091+02161100951ADDAA199000091GF105991041021008001001051MA1999999096101MD1999999+0241REMSYN070AAXX  20184 83236 32598 50503 10309 20216 39610 40095 84205 333 58024;EQDQ01  00002PRCP99
0213832360999992001032100004-12140-045000FM-12+044099999V0201801N001012200019N0200001N1+02261+02231101161ADDAA106000591AY151061AY251061GF103991031061008001001001KA1240M+03181MA1999999096261MD1999999+0141MW1131REMSYN100AAXX  21004 83236 21598 31802 10226 20223 39626 40116 71355 83600 333 10318 29085 55018 58014 69961;
0173832360999992001032112004-12140-045000FM-12+044099999V0209999C000012200019N0500001N1+02431+02151101401ADDAA124000591GF102991021021012501001001KA1240N+01931MA1999999096481MD1999999-0011REMSYN082AAXX  21124 83236 22699 20000 10243 20215 39648 40140 82200 333 20193 59001 69964;
0167832360999992001032118004-12140-045000FM-12+044099999V0200501N001510075019N0200001N1+03111+02201100971ADDAA199000091GF105991051021008001001001MA1999999096111MD1999999+0011REMSYN070AAXX  21184 83236 32598 50503 10311 20220 39611 40097 85200 333 58001;EQDQ01  00002PRCP99
0208832360999992001032200004-12140-045000FM-12+044099999V0209999C000012200019N0500001N1+02341+02261101071ADDAA199000091GA1001+999999999GF100991001001999999001001KA1240M+03211MA1999999096171MD1999999-0091REMSYN082AAXX  22004 83236 32999 00000 10234 20226 39617 40107 333 10321 29083 55097 59009;EQDQ01  00002PRCP99
0186832360999992001032212004-12140-045000FM-12+044099999V0203601N001010075019N0200001N1+02591+02211101231ADDAA199000091GF105991051021008001071001KA1240N+02051MA1999999096341MD1999999-0141REMSYN076AAXX  22124 83236 32598 53602 10259 20221 39634 40123 85270 333 20205 59014;EQDQ01  00002PRCP99
0167832360999992001032218004-12140-045000FM-12+044099999V0201401N003112200019N0200001N1+03161+02021100671ADDAA199000091GF104991041021008001001001MA1999999095831MD1999999-0281REMSYN070AAXX  22184 83236 32598 41406 10316 20202 39583 40067 84200 333 59028;EQDQ01  00002PRCP99
0208832360999992001032300004-12140-045000FM-12+044099999V0209999C000012200019N0500001N1+02331+02091100871ADDAA199000091GA1001+999999999GF100991001001999999001001KA1240M+03241MA1999999095991MD1999999-0181REMSYN082AAXX  23004 83236 32999 00000 10233 20209 39599 40087 333 10324 29076 55104 59018;EQDQ01  00002PRCP99
0186832360999992001032312004-12140-045000FM-12+044099999V0209999C000012200019N0500001N1+02381+01971101151ADDAA199000091GF102991021001022501071001KA1240N+01781MA1999999096241MD1999999-0101REMSYN076AAXX  23124 83236 32899 20000 10238 20197 39624 40115 82070 333 20178 59010;EQDQ01  00002PRCP99
0167832360999992001032318004-12140-045000FM-12+044099999V0200501N002610075019N0200001N1+03061+02021100511ADDAA199000091GF106991051021008001081051MA1999999095751MD1999999-0081REMSYN070AAXX  23184 83236 32598 60505 10306 20202 39575 40051 85285 333 59008;EQDQ01  00002PRCP99
0198832360999992001032400004-12140-045000FM-12+044099999V0209999C000012200019N0200001N1+02341+02201100831ADDAA199000091GF104991041021008001061001KA1240M+03161MA1999999095941MD1999999-0051REMSYN088AAXX  24004 83236 32598 40000 10234 20220 39594 40083 84260 333 10316 29079 55099 59005;EQDQ01  00002PRCP99
0186832360999992001032412004-12140-045000FM-12+044099999V0209999C000010075019N0200001N1+02351+02011101191ADDAA199000091GF106991051021008001061071KA1240N+01811MA1999999096281MD1999999+0041REMSYN076AAXX  24124 83236 32598 60000 10235 20201 39628 40119 85267 333 20181 58004;EQDQ01  00002PRCP99
0167832360999992001032418004-12140-045000FM-12+044099999V0200501N002610075019N0200001N1+03071+02141100831ADDAA199000091GF106991051021008001081051MA1999999095951MD1999999+0201REMSYN070AAXX  24184 83236 32598 60505 10307 20214 39595 40083 85285 333 58020;EQDQ01  00002PRCP99
0198832360999992001032500004-12140-045000FM-12+044099999V0209999C000012200019N0500001N1+02351+02051101001ADDAA199000091GF102991001001999999001071KA1240M+03161MA1999999096101MD1999999+0161REMSYN088AAXX  25004 83236 32999 20000 10235 20205 39610 40100 80007 333 10316 29075 55103 58016;EQDQ01  00002PRCP99
0186832360999992001032512004-12140-045000FM-12+044099999V0209999C000012200019N0200001N1+02481+02191101331ADDAA199000091GF103991011011008001001061KA1240N+01951MA1999999096421MD1999999+0141REMSYN076AAXX  25124 83236 32598 30000 10248 20219 39642 40133 81106 333 20195 58014;EQDQ01  00002PRCP99
0223832360999992001032518004-12140-045000FM-12+044099999V0201401N999999999999N0200001N1+02931+02191100881ADDAA199000091AY101061AY291061GA1031+000909079GF106991999999008001999999MA1999999096001MW1151REMSYN070AAXX  25184 83236 31598 61497 10293 20219 39600 40088 71509 333 83303;EQDQ01+004993WOSPD Q02  00002PRCP99Q030004993WOSPD 
0226832360999992001032600004-12140-045000FM-12+044099999V0201801N001510450019N0040001N1+02341+02201100941ADDAA199000091AY101061AY221061GF108991041071008001021999KA1240M+03211MA1999999096051MD1999999-0051MW1131REMSYN094AAXX  26004 83236 31596 81803 10234 20220 39605 40094 71302 8472/ 333 10321 29083 55090 59005;EQDQ01  00002PRCP99
0186832360999992001032612004-12140-045000FM-12+044099999V0209999C000012200019N0200001N1+02601+02351101261ADDAA199000091GF103991011011008001001021KA1240N+02191MA1999999096361MD1999999-0061REMSYN076AAXX  26124 83236 32598 30000 10260 20235 39636 40126 81102 333 20219 59006;EQDQ01  00002PRCP99
0195832360999992001032618004-12140-045000FM-12+044099999V0203601N003612200019N0200001N1+03191+02161100671ADDAA199000091AY191061AY291061GF104991031031008001041001MA1999999095841MD1999999-0161MW1151REMSYN076AAXX  26184 83236 31598 43607 10319 20216 39584 40067 71599 83340 333 59016;EQDQ01  00002PRCP99
0167832360999992001032718004-12140-045000FM-12+044099999V0200901N002112200019N0200001N1+03171+02171100671ADDAA199000091GF103991031021008001001001MA1999999095821MD1999999-0021REMSYN070AAXX  27184 83236 32598 30904 10317 20217 39582 40067 83200 333 59002;EQDQ01  00002PRCP99
0196832360999992001032800004-12140-045000FM-12+044099999V0209999C000012200019N0200001N1+02481+02301100911ADDAA199000091GA1001+999999999GF100991001001999999001001KA1240M+03331MA1999999096031MD1999999-0191REMSYN070AAXX  28004 83236 32998 00000 10248 20230 39603 40091 333 10333 59019;EQDQ01  00002PRCP99
0186832360999992001032812004-12140-045000FM-12+044099999V0209999C000012200019N0200001N1+02471+02151101151ADDAA199000091GF104991021001022501061041KA1240N+01951MA1999999096261MD1999999-0091REMSYN076AAXX  28124 83236 32898 40000 10247 20215 39626 40115 82064 333 20195 59009;EQDQ01  00002PRCP99
0167832360999992001032818004-12140-045000FM-12+044099999V0200901N003110450019N0200001N1+03031+02071100661ADDAA199000091GF105991041021008001061001MA1999999095801MD1999999-0021REMSYN070AAXX  28184 83236 32598 50906 10303 20207 39580 40066 84260 333 59002;EQDQ01  00002PRCP99
0208832360999992001032900004-12140-045000FM-12+044099999V0201801N001012200019N0200001N1+02391+02211100901ADDAA199000091GA1001+999999999GF100991001001999999001001KA1240M+03351MA1999999096021MD1999999-0011REMSYN082AAXX  29004 83236 32998 01802 10239 20221 39602 40090 333 10335 29080 55086 59001;EQDQ01  00002PRCP99
0201832360999992001032912004-12140-045000FM-12+044099999V0200901N000510120019N0100001N1+02441+02251101341ADDAA124009991AY161061AY261061GF106991051081008001041001KA1240N+02141MA1999999096431MD1999999+0171MW1021REMSYN088AAXX  29124 83236 21597 60901 10244 20225 39643 40134 70266 85840 333 20214 58017 60104;
0167832360999992001032918004-12140-045000FM-12+044099999V0200501N003111050019N0100001N1+03031+02311100881ADDAA199000091GF106991031021008001001051MA1999999096071MD1999999+0271REMSYN070AAXX  29184 83236 32597 60506 10303 20231 39607 40088 83205 333 58027;EQDQ01  00002PRCP99
0198832360999992001033000004-12140-045000FM-12+044099999V0202701N001010210019N0100001N1+02431+02231100911ADDAA199000091GF105991051001022501021001KA1240M+03161MA1999999096251MD1999999+0231REMSYN088AAXX  30004 83236 32897 52702 10243 20223 39625 40091 85020 333 10316 29083 55082 58023;EQDQ01  00002PRCP99
0201832360999992001033012004-12140-045000FM-12+044099999V0202801N001011050019N0100001N1+02421+02281101271ADDAA124000191AY151061AY251061GF106991041081008001001021KA1240N+02201MA1999999096461MD1999999+0031MW1021REMSYN088AAXX  30124 83236 21597 62802 10242 20228 39646 40127 70255 84802 333 20220 58003 69924;
0167832360999992001033018004-12140-045000FM-12+044099999V0203601N001512200019N0200001N1+03081+02371100851ADDAA199000091GF103991031021008001001001MA1999999096011MD1999999-0061REMSYN070AAXX  30184 83236 32598 33603 10308 20237 39601 40085 83200 333 59006;EQDQ01  00002PRCP99
0226832360999992001033100004-12140-045000FM-12+044099999V0202301N001012200019N0100001N1+02501+02451101061ADDAA199000091AY101061AY221061GF104991041071008001001001KA1240M+03191MA1999999096171MD1999999-0081MW1131REMSYN094AAXX  31004 83236 31597 42302 10250 20245 39617 40106 71302 84700 333 10319 29088 55084 59008;EQDQ01  00002PRCP99
0186832360999992001033112004-12140-045000FM-12+044099999V0200901N001512200019N0200001N1+02621+02411101231ADDAA199000091GF104991021021008001061001KA1240N+02061MA1999999096351MD1999999-0111REMSYN076AAXX  31124 83236 32598 40903 10262 20241 39635 40123 82260 333 20206 59011;EQDQ01  00002PRCP99
0167832360999992001033118004-12140-045000FM-12+044099999V0203601N001012200019N0200001N1+03141+02331100711ADDAA199000091GF103991031011008001001001MA1999999095901MD1999999-0111REMSYN070AAXX  31184 83236 32598 33602 10314 20233 39590 40071 83100 333 59011;EQDQ01  00002PRCP99
0198832360999992001040100004-12140-045000FM-12+044099999V0201801N000512200019N0200001N1+02511+02401100921ADDAA199000091GF103991031031008001001001KA1240M+03251MA1999999096061MD1999999-0111REMSYN088AAXX  01004 83236 31598 31801 10251 20240 39606 40092 83300 333 10325 29084 55107 59011;EQDQ01  00002PRCP99
0186832360999992001040112004-12140-045000FM-12+044099999V0203601N000512200019N0200001N1+02561+02131101301ADDAA199000091GF103991021011008001001011KA1240N+02111MA1999999096421MD1999999+0071REMSYN076AAXX  01124 83236 32598 33601 10256 20213 39642 40130 82101 333 20211 58007;EQDQ01  00002PRCP99
0167832360999992001040118004-12140-045000FM-12+044099999V0201801N001012200019N0200001N1+03071+02381100811ADDAA199000091GF104991041031008001001001MA1999999095971MD1999999+0021REMSYN070AAXX  01184 83236 32598 41802 10307 20238 39597 40081 84300 333 58002;EQDQ01  00002PRCP99
0186832360999992001040200004-12140-045000FM-12+044099999V0201801N000512200019N0200001N1+02401+02281100981ADDAA199000091GF103991001001999999001081KA1240M+03191MA1999999096111MD1999999+0051REMSYN076AAXX  02004 83236 32998 31801 10240 20228 39611 40098 80008 333 10319 58005;EQDQ01  00002PRCP99
0186832360999992001040212004-12140-045000FM-12+044099999V0209999C000012200019N0200001N1+02531+02171101351ADDAA199000091GF103991001001999999001021KA1240N+01981MA1999999096451MD1999999+0031REMSYN076AAXX  02124 83236 32998 30000 10253 20217 39645 40135 80002 333 20198 58003;EQDQ01  00002PRCP99
0167832360999992001040218004-12140-045000FM-12+044099999V0203601N001511050019N0200001N1+03131+02281100951ADDAA199000091GF106991021021008001001051MA1999999096101MD1999999+0131REMSYN070AAXX  02184 83236 32598 63603 10313 20228 39610 40095 82205 333 58013;EQDQ01  00002PRCP99
0198832360999992001040300004-12140-045000FM-12+044099999V0201801N001510120019N0100001N1+02371+02321101151ADDAA199000091GF106991061081008001001001KA1240M+03231MA1999999096261MD1999999+0151REMSYN088AAXX  03004 83236 32597 61803 10237 20232 39626 40115 86800 333 10323 29082 55092 58015;EQDQ01  00002PRCP99
0186832360999992001040312004-12140-045000FM-12+044099999V0209999C000012200019N0200001N1+02551+02291101311ADDAA199000091GF104991021021008001001041KA1240N+02051MA1999999096411MD1999999-0041REMSYN076AAXX  03124 83236 32598 40000 10255 20229 39641 40131 82204 333 20205 59004;EQDQ01  00002PRCP99
0167832360999992001040318004-12140-045000FM-12+044099999V0203601N001012200019N0200001N1+03221+02201100801ADDAA199000091GF104991041021008001001001MA1999999095961MD1999999-0141REMSYN070AAXX  03184 83236 32598 43602 10322 20220 39596 40080 84200 333 59014;EQDQ01  00002PRCP99
0226832360999992001040400004-12140-045000FM-12+044099999V0201801N001010075019N0100001N1+02291+02141101081ADDAA199000091AY101061AY291061GF106991061051008001001001KA1240M+03331MA1999999096181MD1999999-0081MW1021REMSYN094AAXX  04004 83236 31597 61802 10229 20214 39618 40108 70209 86500 333 10333 29082 55093 59008;EQDQ01  00002PRCP99
0186832360999992001040412004-12140-045000FM-12+044099999V0209999C000019999999N0100001N1+02561+02331101191ADDAA199000091GF105991001001999999001051KA1240N+02051MA1999999096291MD1999999-0121REMSYN076AAXX  04124 83236 32997 50000 10256 20233 39629 40119 80005 333 20205 59012;EQDQ01  00002PRCP99
0167832360999992001040418004-12140-045000FM-12+044099999V0200501N003112200019N0100001N1+03251+02191100731ADDAA199000091GF106991021021008001001061MA1999999095911MD1999999-0051REMSYN070AAXX  04184 83236 32597 60506 10325 20219 39591 40073 82206 333 59005;EQDQ01  00002PRCP99
0196832360999992001040500004-12140-045000FM-12+044099999V0209999C000010210019N0040001N1+02441+02351100931ADDAY151061AY251061GF108991081001022501021999KA1240M+03331MA1999999096061MD1999999-0121MW1021REMSYN094AAXX  05004 83236 21896 80000 10244 20235 39606 40093 70255 8802/ 333 10333 29083 55088 59012;
0173832360999992001040512004-12140-045000FM-12+044099999V0200901N003112200019N0200001N1+02651+02231101291ADDAA124000191GF103991001001999999001061KA1240N+02191MA1999999096411MD1999999+0121REMSYN082AAXX  05124 83236 22998 30906 10265 20223 39641 40129 80006 333 20219 58012 69924;
0167832360999992001040518004-12140-045000FM-12+044099999V0201801N002610450019N0200001N1+03231+02201100841ADDAA199000091GF105991031021008001041021MA1999999096011MD1999999+0101REMSYN070AAXX  05184 83236 32598 51805 10323 20220 39601 40084 83242 333 58010;EQDQ01  00002PRCP99
0198832360999992001040600004-12140-045000FM-12+044099999V0209999C000012200019N0500001N1+02381+02261101101ADDAA199000091GF103991001001999999001081KA1240M+03351MA1999999096221MD1999999+0161REMSYN088AAXX  06004 83236 32999 30000 10238 20226 39622 40110 80008 333 10335 29080 55083 58016;EQDQ01  00002PRCP99
0186832360999992001040612004-12140-045000FM-12+044099999V0209999C000012200019N0500001N1+02441+02031101531ADDAA199000091GF102991021011008001001001KA1240N+01881MA1999999096611MD1999999+0201REMSYN076AAXX  06124 83236 32599 20000 10244 20203 39661 40153 82100 333 20188 58020;EQDQ01  00002PRCP99
0167832360999992001040618004-12140-045000FM-12+044099999V0201401N004112200019N0200001N1+03151+02161100981ADDAA199000091GF104991041021008001001001MA1999999096121MD1999999+0111REMSYN070AAXX  06184 83236 32598 41408 10315 20216 39612 40098 84200 333 58011;EQDQ01  00002PRCP99
0186832360999992001040700004-12140-045000FM-12+044099999V0209999C000010120019N0100001N1+02451+02251101231ADDAA199000091GF108991081081008001001001KA1240M+03311MA1999999096331MD1999999+0211REMSYN076AAXX  07004 83236 32597 80000 10245 20225 39633 40123 88800 333 10331 58021;EQDQ01  00002PRCP99
0186832360999992001040712004-12140-045000FM-12+044099999V0209999C000012200019N0200001N1+02651+02201101411ADDAA199000091GF104991041021008001071001KA1240N+02191MA1999999096531MD1999999-0081REMSYN076AAXX  07124 83236 32598 40000 10265 20220 39653 40141 84270 333 20219 59008;EQDQ01  00002PRCP99
0167832360999992001040718004-12140-045000FM-12+044099999V0200901N002610075019N0200001N1+03121+02021100901ADDAA199000091GF105991051021008001001001MA1999999096081MD1999999-0041REMSYN070AAXX  07184 83236 32598 50905 10312 20202 39608 40090 85200 333 59004;EQDQ01  00002PRCP99
0198832360999992001040800004-12140-045000FM-12+044099999V0209999C000012200019N0500001N1+02351+02151101091ADDAA199000091GF102991021021012501001001KA1240M+03281MA1999999096211MD1999999-0121REMSYN088AAXX  08004 83236 32699 20000 10235 20215 39621 40109 82200 333 10328 29077 55091 59012;EQDQ01  00002PRCP99
0186832360999992001040812004-12140-045000FM-12+044099999V0209999C000012200019N0500001N1+02611+02031101311ADDAA199000091GF102991001001999999001051KA1240N+02061MA1999999096421MD1999999-0111REMSYN076AAXX  08124 83236 32999 20000 10261 20203 39642 40131 80005 333 20206 59011;EQDQ01  00002PRCP99
0167832360999992001040818004-12140-045000FM-12+044099999V0201401N002610075019N0200001N1+03171+01751100761ADDAA199000091GF105991051021008001001001MA1999999095941MD1999999-0141REMSYN070AAXX  08184 83236 32598 51405 10317 20175 39594 40076 85200 333 59014;EQDQ01  00002PRCP99
0198832360999992001040900004-12140-045000FM-12+044099999V0209999C000012200019N0500001N1+02211+02011101021ADDAA199000091GF102991021021012501001001KA1240M+03271MA1999999096131MD1999999-0081REMSYN088AAXX  09004 83236 32699 20000 10221 20201 39613 40102 82200 333 10327 29068 55104 59008;EQDQ01  00002PRCP99
0186832360999992001040912004-12140-045000FM-12+044099999V0209999C000012200019N0500001N1+02471+01991101211ADDAA199000091GF102991021021012501001001KA1240N+01851MA1999999096301MD1999999-0121REMSYN076AAXX  09124 83236 32699 20000 10247 20199 39630 40121 82200 333 20185 59012;EQDQ01  00002PRCP99
0167832360999992001040918004-12140-045000FM-12+044099999V0201401N002610075019N0200001N1+03241+01781100691ADDAA199000091GF106991061021008001001001MA1999999095851MD1999999-0091REMSYN070AAXX  09184 83236 32598 61405 10324 20178 39585 40069 86200 333 59009;EQDQ01  00002PRCP99
0208832360999992001041000004-12140-045000FM-12+044099999V0209999C000012200019N0500001N1+02181+02101100951ADDAA199000091GA1001+999999999GF100991001001999999001001KA1240M+03321MA1999999096041MD1999999-0091REMSYN082AAXX  10004 83236 32999 00000 10218 20210 39604 40095 333 10332 29077 55102 59009;EQDQ01  00002PRCP99
0186832360999992001041012004-12140-045000FM-12+044099999V0201401N001010450019N0200001N1+02571+01931101191ADDAA199000091GF105991031011012501061051KA1240N+01661MA1999999096281MD1999999-0021REMSYN076AAXX  10124 83236 32698 51402 10257 20193 39628 40119 83165 333 20166 59002;EQDQ01  00002PRCP99
0167832360999992001041018004-12140-045000FM-12+044099999V0200501N002110075019N0200001N1+03281+01931100781ADDAA199000091GF106991051021008001071031MA1999999095911MD1999999+0061REMSYN070AAXX  10184 83236 32598 60504 10328 20193 39591 40078 85273 333 58006;EQDQ01  00002PRCP99
0198832360999992001041100004-12140-045000FM-12+044099999V0209999C000011050019N0200001N1+02261+02011100981ADDAA199000091GF106991021021012501001071KA1240M+03361MA1999999096091MD1999999-0051REMSYN088AAXX  11004 83236 32698 60000 10226 20201 39609 40098 82207 333 10336 29072 55103 59005;EQDQ01  00002PRCP99
0186832360999992001041112004-12140-045000FM-12+044099999V0209999C000012200019N0500001N1+02521+01981101341ADDAA199000091GF102991001001999999001031KA1240N+01801MA1999999096431MD1999999+0151REMSYN076AAXX  11124 83236 32999 20000 10252 20198 39643 40134 80003 333 20180 58015;EQDQ01  00002PRCP99
0167832360999992001041118004-12140-045000FM-12+044099999V0200501N002112200019N0500001N1+03271+01881100901ADDAA199000091GF104991041021012501001001MA1999999096041MD1999999+0131REMSYN070AAXX  11184 83236 32699 40504 10327 20188 39604 40090 84200 333 58013;EQDQ01  00002PRCP99
0208832360999992001041200004-12140-045000FM-12+044099999V0201801N001512200019N0500001N1+02351+02111101051ADDAA199000091GA1001+999999999GF100991001001999999001001KA1240M+03381MA1999999096161MD1999999+0071REMSYN082AAXX  12004 83236 32999 01803 10235 20211 39616 40105 333 10338 29072 55107 58007;EQDQ01  00002PRCP99
0186832360999992001041212004-12140-045000FM-12+044099999V0201801N001010450019N0200001N1+02251+01991101311ADDAA199000091GF106991031021012501071051KA1240N+01851MA1999999096381MD1999999-0051REMSYN076AAXX  12124 83236 32698 61802 10225 20199 39638 40131 83275 333 20185 59005;EQDQ01  00002PRCP99
0167832360999992001041218004-12140-045000FM-12+044099999V0200901N001011050019N0200001N1+03381+01791100771ADDAA199000091GF105991021021008001001071MA1999999095941MD1999999-0101REMSYN070AAXX  12184 83236 32598 50902 10338 20179 39594 40077 82207 333 59010;EQDQ01  00002PRCP99
0198832360999992001041300004-12140-045000FM-12+044099999V0201801N001512200019N0500001N1+02261+02051100971ADDAA199000091GF102991001001999999001051KA1240M+03461MA1999999096051MD1999999-0111REMSYN088AAXX  13004 83236 32999 21803 10226 20205 39605 40097 80005 333 10346 29070 55090 59011;EQDQ01  00002PRCP99
0186832360999992001041312004-12140-045000FM-12+044099999V0201801N001012200019N0500001N1+02431+01791101161ADDAA199000091GF102991001001999999001051KA1240N+01581MA1999999096251MD1999999-0131REMSYN076AAXX  13124 83236 32999 21802 10243 20179 39625 40116 80005 333 20158 59013;EQDQ01  00002PRCP99
0167832360999992001041318004-12140-045000FM-12+044099999V0203601N001512200019N0500001N1+03321+01781100681ADDAA199000091GF102991021021008001001051MA1999999095821MD1999999-0121REMSYN070AAXX  13184 83236 32599 23603 10332 20178 39582 40068 82205 333 59012;EQDQ01  00002PRCP99
0226832360999992001041400004-12140-045000FM-12+044099999V0201801N001012200019N0500001N1+02331+02131100811ADDAA199000091AY121061AY211061GF104991021051008001001071KA1240M+03411MA1999999095931MD1999999-0121MW1131REMSYN094AAXX  14004 83236 31599 41802 10233 20213 39593 40081 71321 82507 333 10341 29071 55105 59012;EQDQ01  00002PRCP99
0186832360999992001041412004-12140-045000FM-12+044099999V0200901N003012200019N0200001N1+02581+01971101161ADDAA199000091GF103991001001999999001021KA1240N+01851MA1999999096271MD1999999+0021REMSYN076AAXX  14121 83236 32998 30903 10258 20197 39627 40116 80002 333 20185 58002;EQDQ01  00002PRCP99
0167832360999992001041418004-12140-045000FM-12+044099999V0200501N001512200019N0200001N1+03191+01801100661ADDAA199000091GF103991011011008001001021MA1999999095811MD1999999-0011REMSYN070AAXX  14184 83236 32598 30503 10319 20180 39581 40066 81102 333 59001;EQDQ01  00002PRCP99
0186832360999992001041500004-12140-045000FM-12+044099999V0201801N002112200019N0200001N1+02471+02011101001ADDAA199000091GF104991041061008001001001KA1240M+03281MA1999999096131MD1999999+0201REMSYN076AAXX  15004 83236 32598 41804 10247 20201 39613 40100 84600 333 10328 58020;EQDQ01  00002PRCP99
0201832360999992001041512004-12140-045000FM-12+044099999V0201801N002110120019N0100001N1+02311+02111101451ADDAA124004191AY161061AY261061GF107991071081008001001001KA1240N+02121MA1999999096541MD1999999+0271MW1021REMSYN088AAXX  15124 83236 21597 71804 10231 20211 39654 40145 70266 87800 333 20212 58027 60044;
0167832360999992001041518004-12140-045000FM-12+044099999V0201801N003110075019N0100001N1+02651+02161101081ADDAA199000091GF107991051051008001001041MA1999999096191MD1999999+0381REMSYN070AAXX  15184 83236 32597 71806 10265 20216 39619 40108 85504 333 58038;EQDQ01  00002PRCP99
0192832360999992001041600004-12140-045000FM-12+044099999V0202301N001010120019N0100001N1+02361+02091101321ADDAA199000091GF106991061081008001001001KA1240M+03011MA1999999096401MD1999999+0271REMSYN082AAXX  16004 83236 32597 62302 10236 20209 39640 40132 86800 333 10301 55019 58027;EQDQ01  00002PRCP99
0186832360999992001041612004-12140-045000FM-12+044099999V0201801N001510450019N0200001N1+02581+02101101491ADDAA199000091GF105991031021012501051071KA1240N+02191MA1999999096581MD1999999+0041REMSYN076AAXX  16124 83236 32698 51803 10258 20210 39658 40149 83257 333 20219 58004;EQDQ01  00002PRCP99
0195832360999992001041618004-12140-045000FM-12+044099999V0201801N002611050019N0200001N1+03151+02041100971ADDAA199000091AY121061AY221061GF106991041051008001001051MA1999999096141MD1999999-0051MW1171REMSYN076AAXX  16184 83236 31598 61805 10315 20204 39614 40097 71722 84505 333 59005;EQDQ01  00002PRCP99
0226832360999992001041700004-12140-045000FM-12+044099999V0209999C000010450019N0200001N1+02401+02231101301ADDAA199000091AY121061AY221061GF106991041051008001071051KA1240M+03241MA1999999096411MD1999999+0011MW1131REMSYN094AAXX  17004 83236 31598 60000 10240 20223 39641 40130 71322 84575 333 10324 29077 55071 58001;EQDQ01  00002PRCP99
0173832360999992001041712004-12140-045000FM-12+044099999V0201401N001510450019N0200001N1+02581+02151101551ADDAA124000391GF106991031021008001051071KA1240N+02221MA1999999096461MD1999999-0121REMSYN082AAXX  17124 83236 22598 61403 10258 20215 39646 40155 83257 333 20222 59012 69934;
0195832360999992001041718004-12140-045000FM-12+044099999V0203601N002610075019N0100001N1+03081+02161100971ADDAA199000091AY121061AY221061GF108991071051008001071999MA1999999096111MD1999999-0031MW1151REMSYN076AAXX  17184 83236 31597 83605 10308 20216 39611 40097 71522 8757/ 333 59003;EQDQ01  00002PRCP99
0213832360999992001041800004-12140-045000FM-12+044099999V0209999C000010075019N0100001N1+02311+02251101221ADDAA106000191AY151061AY251061GF108991061051008001081999KA1240M+03211MA1999999096331MD1999999-0081MW1131REMSYN100AAXX  18004 83236 21597 80000 10231 20225 39633 40122 71355 8658/ 333 10321 29082 55073 59008 69921;
0173832360999992001041812004-12140-045000FM-12+044099999V0202301N001510075019N0100001N1+02601+02291101251ADDAA124000191GF108991071021008001071999KA1240N+02231MA1999999096351MD1999999-0111REMSYN082AAXX  18124 83236 22597 82303 10260 20229 39635 40125 8727/ 333 20223 59011 69924;
0167832360999992001041818004-12140-045000FM-12+044099999V0201801N002110075019N0200001N1+02871+02191100741ADDAA199000091GF107991061041008001071051MA1999999095891MD1999999-0221REMSYN070AAXX  18184 83236 32598 71804 10287 20219 39589 40074 86475 333 59022;EQDQ01  00002PRCP99
0198832360999992001041900004-12140-045000FM-12+044099999V0201801N001010450019N0200001N1+02491+02211100971ADDAA199000091GF105991041021008001061031KA1240M+03301MA1999999096111MD1999999-0221REMSYN088AAXX  19004 83236 32598 51802 10249 20221 39611 40097 84263 333 10330 29080 55084 59022;EQDQ01  00002PRCP99
0186832360999992001041912004-12140-045000FM-12+044099999V0200501N004110075019N0100001N1+02551+02061101321ADDAA199000091GF107991051021008001061071KA1240N+02291MA1999999096431MD1999999+0081REMSYN076AAXX  19124 83236 32597 70508 10255 20206 39643 40132 85267 333 20229 58008;EQDQ01  00002PRCP99
0167832360999992001041918004-12140-045000FM-12+044099999V0203601N002110075019N0200001N1+03041+02091100731ADDAA199000091GF106991051021008001061051MA1999999095901MD1999999+0011REMSYN070AAXX  19184 83236 32598 63604 10304 20209 39590 40073 85265 333 58001;EQDQ01  00002PRCP99
0198832360999992001042000004-12140-045000FM-12+044099999V0209999C000010075019N0200001N1+02311+02231101021ADDAA199000091GF106991051021008001061071KA1240M+03141MA1999999096141MD1999999+0031REMSYN088AAXX  20004 83236 32598 60000 10231 20223 39614 40102 85267 333 10314 29081 55051 58003;EQDQ01  00002PRCP99
0186832360999992001042012004-12140-045000FM-12+044099999V0200501N002110075019N0100001N1+02501+02171101361ADDAA199000091GF108991071041008001071999KA1240N+02231MA1999999096451MD1999999+0021REMSYN076AAXX  20124 83236 32597 80504 10250 20217 39645 40136 8747/ 333 20223 58002;EQDQ01  00002PRCP99
0182832360999992001042018004-12140-045000FM-12+044099999V0200501N005110075019N0100001N1+02761+02211100911ADDAA106020191AY161061AY261061GF108991071031008001061999MA1999999096041MD1999999+0141MW1151REMSYN082AAXX  20184 83236 21597 80510 10276 20221 39604 40091 71566 8736/ 333 58014 60201;
0198832360999992001042100004-12140-045000FM-12+044099999V0209999C000010075019N0200001N1+02271+02211101161ADDAA199000091GF106991061021008001061001KA1240M+02861MA1999999096261MD1999999+0121REMSYN088AAXX  21004 83236 32598 60000 10227 20221 39626 40116 86260 333 10286 29087 55024 58012;EQDQ01  00002PRCP99
0144832360999992001042112004-12140-045000FM-12+044099999V0201801N001019999999N0200001N1+02461+02171101421ADDAA124000591GF107991999999008001999999MA1999999096541MD1810091+9999REMSYN066AAXX  21124 83236 22598 71802 10246 20217 39654 40142 58009 69954;
0167832360999992001042118004-12140-045000FM-12+044099999V0203601N002610450019N0200001N1+03151+02071100871ADDAA199000091GF106991041021008001051071MA1999999096011MD1999999-0031REMSYN070AAXX  21184 83236 32598 63605 10315 20207 39601 40087 84257 333 59003;EQDQ01  00002PRCP99
0198832360999992001042200004-12140-045000FM-12+044099999V0209999C000012200019N0500001N1+02401+02311101111ADDAA199000091GF103991001001999999001051KA1240M+03251MA1999999096221MD1999999-0041REMSYN088AAXX  22004 83236 32999 30000 10240 20231 39622 40111 80005 333 10325 29082 55087 59004;EQDQ01  00002PRCP99
0186832360999992001042212004-12140-045000FM-12+044099999V0209999C000010075019N0100001N1+02361+02241101311ADDAA199000091GF108991071051008001071999KA1240N+02031MA1999999096401MD1999999-0141REMSYN076AAXX  22124 83236 32597 80000 10236 20224 39640 40131 8757/ 333 20203 59014;EQDQ01  00002PRCP99
0167832360999992001042218004-12140-045000FM-12+044099999V0200501N002611050019N0200001N1+03111+02151100691ADDAA199000091GF105991041021008001001051MA1999999095841MD1999999-0171REMSYN070AAXX  22184 83236 32598 50505 10311 20215 39584 40069 84205 333 59017;EQDQ01  00002PRCP99
0198832360999992001042300004-12140-045000FM-12+044099999V0209999C000012200019N0500001N1+02401+02241101001ADDAA199000091GF103991001001999999001071KA1240M+03211MA1999999096111MD1999999-0111REMSYN088AAXX  23004 83236 32999 30000 10240 20224 39611 40100 80007 333 10321 29083 55086 59011;EQDQ01  00002PRCP99
0186832360999992001042312004-12140-045000FM-12+044099999V0203601N001010075019N0200001N1+02671+02241101331ADDAA199000091GF105991051021008001001001KA1240N+02181MA1999999096451MD1999999+0051REMSYN076AAXX  23124 83236 32598 53602 10267 20224 39645 40133 85200 333 20218 58005;EQDQ01  00002PRCP99
0167832360999992001042318004-12140-045000FM-12+044099999V0201401N004112200019N0500001N1+03211+01781100831ADDAA199000091GF104991041021008001001001MA1999999096001MD1999999+0161REMSYN070AAXX  23184 83236 32599 41408 10321 20178 39600 40083 84200 333 58016;EQDQ01  00002PRCP99
0208832360999992001042400004-12140-045000FM-12+044099999V0209999C000012200019N0500001N1+02191+01991101121ADDAA199000091GA1001+999999999GF100991001001999999001001KA1240M+03311MA1999999096231MD1999999+0121REMSYN082AAXX  24004 83236 32999 00000 10219 20199 39623 40112 333 10331 29075 55106 58012;EQDQ01  00002PRCP99
0196832360999992001042412004-12140-045000FM-12+044099999V0201801N001512200019N0200001N1+02461+01981101541ADDAA199000091GA1001+999999999GF100991001001999999001001KA1240N+01761MA1999999096601MD1999999+0151REMSYN070AAXX  24124 83236 32998 01803 10246 20198 39660 40154 333 20176 58015;EQDQ01  00002PRCP99
0177832360999992001042418004-12140-045000FM-12+044099999V0201401N003112200019N0500001N1+03251+01671101061ADDAA199000091GA1001+999999999GF100991001001999999001001MA1999999096181MD1999999+0181REMSYN064AAXX  24184 83236 32999 01406 10325 20167 39618 40106 333 58018;EQDQ01  00002PRCP99
0208832360999992001042500004-12140-045000FM-12+044099999V0209999C000012200019N0200001N1+02091+01961101311ADDAA199000091GA1001+999999999GF100991001001999999001001KA1240M+03331MA1999999096371MD1999999+0141REMSYN082AAXX  25004 83236 32998 00000 10209 20196 39637 40131 333 10333 29074 55105 58014;EQDQ01  00002PRCP99
0186832360999992001042512004-12140-045000FM-12+044099999V0201401N002112200019N0200001N1+02561+01951101701ADDAA199000091GF104991021011008001001021KA1240N+02051MA1999999096751MD1999999+0151REMSYN076AAXX  25124 83236 32598 41404 10256 20195 39675 40170 82102 333 20205 58015;EQDQ01  00002PRCP99
0167832360999992001042518004-12140-045000FM-12+044099999V0200901N003612200019N0100001N1+03011+01811101181ADDAA199000091GF106991031021008001001061MA1999999096331MD1999999+0151REMSYN070AAXX  25184 83236 32597 60907 10301 20181 39633 40118 83206 333 58015;EQDQ01  00002PRCP99
0198832360999992001042600004-12140-045000FM-12+044099999V0201801N001012200019N0200001N1+02201+01941101411ADDAA199000091GF102991021011008001001001KA1240M+03141MA1999999096501MD1999999+0131REMSYN088AAXX  26004 83236 32598 21802 10220 20194 39650 40141 82100 333 10314 29072 55075 58013;EQDQ01  00002PRCP99
0186832360999992001042612004-12140-045000FM-12+044099999V0203601N001012200019N0200001N1+02511+02001101511ADDAA199000091GF104991041001022501061001KA1240N+01791MA1999999096581MD1999999-0171REMSYN076AAXX  26124 83236 32898 43602 10251 20200 39658 40151 84060 333 20179 59017;EQDQ01  00002PRCP99
0167832360999992001042618004-12140-045000FM-12+044099999V0200901N003112200019N0200001N1+03191+01771101031ADDAA199000091GF103991031021008001001001MA1999999096161MD1999999-0171REMSYN070AAXX  26184 83236 32598 30906 10319 20177 39616 40103 83200 333 59017;EQDQ01  00002PRCP99
0198832360999992001042700004-12140-045000FM-12+044099999V0209999C000012200019N0200001N1+02361+02051101261ADDAA199000091GF102991021021008001001001KA1240M+03341MA1999999096361MD1999999-0141REMSYN088AAXX  27004 83236 32598 20000 10236 20205 39636 40126 82200 333 10334 29071 55103 59014;EQDQ01  00002PRCP99
0186832360999992001042712004-12140-045000FM-12+044099999V0201801N003610075019N0200001N1+02431+01881101581ADDAA199000091GF105991051021008001001001KA1240N+02011MA1999999096561MD1999999-0021REMSYN076AAXX  27124 83236 32598 51807 10243 20188 39656 40158 85200 333 20201 59002;EQDQ01  00002PRCP99
0198832360999992001042800004-12140-045000FM-12+044099999V0209999C000012200019N0200001N1+02261+01991101521ADDAA199000091GF102991021021008001021001KA1240M+02921MA1999999096061MD1999999-0011REMSYN088AAXX  28004 83236 32598 20000 10226 20199 39606 40152 82220 333 10292 29063 55038 59001;EQDQ01  00002PRCP99
0186832360999992001042812004-12140-045000FM-12+044099999V0209999C000012200019N0200001N1+02361+01871101521ADDAA199000091GF102991021011008001001001KA1240N+01831MA1999999096581MD1999999+0021REMSYN076AAXX  28124 83236 32598 20000 10236 20187 39658 40152 82100 333 20183 58002;EQDQ01  00002PRCP99
0167832360999992001042818004-12140-045000FM-12+044099999V0200901N002112200019N0200001N1+03191+01911101041ADDAA199000091GF104991041021008001001001MA1999999096161MD1999999+0051REMSYN070AAXX  28184 83236 32598 40904 10319 20191 39616 40104 84200 333 58005;EQDQ01  00002PRCP99
0198832360999992001042900004-12140-045000FM-12+044099999V0202301N000512200019N0200001N1+02361+02151101311ADDAA199000091GF103991031021008001001001KA1240M+03291MA1999999096321MD1999999+0031REMSYN088AAXX  29004 83236 32598 32301 10236 20215 39632 40131 83200 333 10329 29074 55093 58003;EQDQ01  00002PRCP99
0186832360999992001042912004-12140-045000FM-12+044099999V0201801N001512200019N0200001N1+02501+01841101411ADDAA199000091GF104991021001022501061051KA1240N+02061MA1999999096561MD1999999-0021REMSYN076AAXX  29124 83236 32898 41803 10250 20184 39656 40141 82065 333 20206 59002;EQDQ01  00002PRCP99
0167832360999992001042918004-12140-045000FM-12+044099999V0201801N002612200019N0200001N1+03231+01881100951ADDAA199000091GF104991041021008001001001MA1999999096121MD1999999-0041REMSYN070AAXX  29184 83236 32598 41805 10323 20188 39612 40095 84200 333 59004;EQDQ01  00002PRCP99
0198832360999992001043000004-12140-045000FM-12+044099999V0202301N001512200019N0200001N1+02261+02051101211ADDAA199000091GF103991031001022501061001KA1240M+03301MA1999999096311MD1999999-0011REMSYN088AAXX  30004 83236 32898 32303 10226 20205 39631 40121 83060 333 10330 29072 55105 59001;EQDQ01  00002PRCP99
0196832360999992001043012004-12140-045000FM-12+044099999V0209999C000012200019N0500001N1+02421+01881101411ADDAA199000091GA1001+999999999GF100991001001999999001001KA1240N+01761MA1999999096491MD1999999-0071REMSYN070AAXX  30124 83236 32999 00000 10242 20188 39649 40141 333 20176 59007;EQDQ01  00002PRCP99
0167832360999992001043018004-12140-045000FM-12+044099999V0201401N002112200019N0500001N1+03151+01661100921ADDAA199000091GF103991031011008001001001MA1999999096041MD1999999-0081REMSYN070AAXX  30184 83236 32599 31404 10315 20166 39604 40092 83100 333 59008;EQDQ01  00002PRCP99
0208832360999992001050100004-12140-045000FM-12+044099999V0209999C000012200019N0500001N1+02261+01941101101ADDAA199000091GA1001+999999999GF100991001001999999001001KA1240M+03271MA1999999096191MD1999999-0121REMSYN082AAXX  01004 83236 32999 00000 10226 20194 39619 40110 333 10327 29069 55107 59012;EQDQ01  00002PRCP99
0202832360999992001050112004-12140-045000FM-12+044099999V0201801N001512200019N0500001N1+02621+02121101281ADDAA199000091GF102991999041999999001011KA1240N+01981MA1999999096381MD1999999-0111REMSYN076AAXX  01124 83236 32999 21803 10262 20212 39638 40128 84401 333 20198 59011;EQDQ01+000042SCOTLCQ02  00002PRCP99
0167832360999992001050118004-12140-045000FM-12+044099999V0200901N003112200019N0200001N1+03221+01911100851ADDAA199000091GF104991041021008001001001MA1999999096011MD1999999-0031REMSYN070AAXX  01184 83236 32598 40906 10322 20191 39601 40085 84200 333 59003;EQDQ01  00002PRCP99
0198832360999992001050200004-12140-045000FM-12+044099999V0201801N001512200019N0200001N1+02611+01941101121ADDAA199000091GF104991041081008001001001KA1240M+03381MA1999999096261MD1999999+0071REMSYN088AAXX  02004 83236 32598 41803 10261 20194 39626 40112 84800 333 10338 29064 55094 58007;EQDQ01  00002PRCP99
0186832360999992001050212004-12140-045000FM-12+044099999V0201801N003112200019N0500001N1+02501+01841101521ADDAA199000091GF103991001001999999001081KA1240N+01921MA1999999096631MD1999999+0251REMSYN076AAXX  02124 83236 32999 31806 10250 20184 39663 40152 80008 333 20192 58025;EQDQ01  00002PRCP99
0167832360999992001050218004-12140-045000FM-12+044099999V0200901N003112200019N0200001N1+03241+01671100991ADDAA199000091GF105991031021008001001041MA1999999096181MD1999999+0171REMSYN070AAXX  02184 83236 32598 50906 10324 20167 39618 40099 83204 333 58017;EQDQ01  00002PRCP99
0198832360999992001050300004-12140-045000FM-12+044099999V0202701N001512200019N0200001N1+02371+01891101261ADDAA199000091GF104991041001022501061001KA1240M+03431MA1999999096361MD1999999+0101REMSYN088AAXX  03004 83236 32898 42703 10237 20189 39636 40126 84060 333 10343 29064 55105 58010;EQDQ01  00002PRCP99
0186832360999992001050312004-12140-045000FM-12+044099999V0201401N003112200019N0200001N1+02581+01971101341ADDAA199000091GF103991021001022501061011KA1240N+02051MA1999999096591MD1999999-0041REMSYN076AAXX  03124 83236 32898 31406 10258 20197 39659 40134 82061 333 20205 59004;EQDQ01  00002PRCP99
0198832360999992001050400004-12140-045000FM-12+044099999V0201801N001010120019N0100001N1+02511+02191101141ADDAA199000091GF108991081081008001999999KA1240M+03251MA1999999096271MD1999999-0091REMSYN088AAXX  04004 83236 32597 81802 10251 20219 39627 40114 888// 333 10325 29072 55053 59009;EQDQ01  00002PRCP99
0196832360999992001050412004-12140-045000FM-12+044099999V0200501N001012200019N0200001N1+02611+01891101291ADDAA199000091GA1001+999999999GF100991001001999999001001KA1240N+02001MA1999999096411MD1999999-0181REMSYN070AAXX  04124 83236 32998 00502 10261 20189 39641 40129 333 20200 59018;EQDQ01  00002PRCP99
0167832360999992001050418004-12140-045000FM-12+044099999V0201401N003112200019N0200001N1+03431+01831100651ADDAA199000091GF104991041011008001001001MA1999999095861MD1999999-0291REMSYN070AAXX  04184 83236 32598 41406 10343 20183 39586 40065 84100 333 59029;EQDQ01  00002PRCP99
0198832360999992001050500004-12140-045000FM-12+044099999V0209999C000012200019N0200001N1+02341+02091101001ADDAA199000091GF102991021001022501041001KA1240M+03521MA1999999096121MD1999999-0151REMSYN088AAXX  05004 83236 32898 20000 10234 20209 39612 40100 82040 333 10352 29069 55106 59015;EQDQ01  00002PRCP99
0186832360999992001050512004-12140-045000FM-12+044099999V0200501N001512200019N0200001N1+02581+01821101161ADDAA199000091GF103991021021012501061001KA1240N+01791MA1999999096271MD1999999-0141REMSYN076AAXX  05124 83236 32698 30503 10258 20182 39627 40116 82260 333 20179 59014;EQDQ01  00002PRCP99
0167832360999992001050518004-12140-045000FM-12+044099999V0203601N001012200019N0200001N1+03321+01701100621ADDAA199000091GF103991031021008001001001MA1999999095801MD1999999-0061REMSYN070AAXX  05184 83236 32598 33602 10332 20170 39580 40062 83200 333 59006;EQDQ01  00002PRCP99
0208832360999992001050600004-12140-045000FM-12+044099999V0201801N001012200019N0200001N1+02181+01921100921ADDAA199000091GA1001+999999999GF100991001001999999001001KA1240M+03481MA1999999096031MD1999999-0091REMSYN082AAXX  06004 83236 32998 01802 10218 20192 39603 40092 333 10348 29068 55104 59009;EQDQ01  00002PRCP99
0186832360999992001050612004-12140-045000FM-12+044099999V0209999C000012200019N0200001N1+02411+01821101251ADDAA199000091GF102991021021012501001001KA1240N+01691MA1999999096331MD1999999+0061REMSYN076AAXX  06124 83236 32698 20000 10241 20182 39633 40125 82200 333 20169 58006;EQDQ01  00002PRCP99
0167832360999992001050618004-12140-045000FM-12+044099999V0203601N001012200019N0200001N1+03371+01651100751ADDAA199000091GF102991021021008001001001MA1999999095901MD1999999+0101REMSYN070AAXX  06184 83236 32598 23602 10337 20165 39590 40075 82200 333 58010;EQDQ01  00002PRCP99
0198832360999992001050700004-12140-045000FM-12+044099999V0201801N001512200019N0200001N1+02331+02021101001ADDAA199000091GF104991001001999999001071KA1240M+03501MA1999999096101MD1999999+0071REMSYN088AAXX  07004 83236 32998 41803 10233 20202 39610 40100 80007 333 10350 29067 55108 58007;EQDQ01  00002PRCP99
0186832360999992001050712004-12140-045000FM-12+044099999V0209999C000012200019N0200001N1+02431+01951101191ADDAA199000091GF104991001001999999001051KA1240N+01761MA1999999096291MD1999999-0041REMSYN076AAXX  07124 83236 32998 40000 10243 20195 39629 40119 80005 333 20176 59004;EQDQ01  00002PRCP99
0167832360999992001050718004-12140-045000FM-12+044099999V0202701N001011050019N0100001N1+03511+01771100591ADDAA199000091GF106991031021008001001081MA1999999095821MD1999999-0081REMSYN070AAXX  07184 83236 32597 62702 10351 20177 39582 40059 83208 333 59008;EQDQ01  00002PRCP99
0198832360999992001050800004-12140-045000FM-12+044099999V0209999C000010450019N0100001N1+02541+02291100921ADDAA199000091GF107991031061008001031001KA1240M+03591MA1999999096051MD1999999-0051REMSYN088AAXX  08004 83236 32597 70000 10254 20229 39605 40092 83630 333 10359 29071 55097 59005;EQDQ01  00002PRCP99
0186832360999992001050812004-12140-045000FM-12+044099999V0209999C000012200019N0200001N1+02541+02111101121ADDAA199000091GF102991001001999999001081KA1240N+01981MA1999999096251MD1999999-0041REMSYN076AAXX  08124 83236 32998 20000 10254 20211 39625 40112 80008 333 20198 59004;EQDQ01  00002PRCP99
0167832360999992001050818004-12140-045000FM-12+044099999V0203201N001012200019N0200001N1+03451+01841100591ADDAA199000091GF105991031021008001001041MA1999999095801MD1999999-0021REMSYN070AAXX  08184 83236 32598 53202 10345 20184 39580 40059 83204 333 59002;EQDQ01  00002PRCP99
0198832360999992001050900004-12140-045000FM-12+044099999V0209999C000012200019N0100001N1+02471+02111100921ADDAA199000091GF104991001001999999001071KA1240M+03571MA1999999096051MD1999999+0001REMSYN088AAXX  09004 83236 32997 40000 10247 20211 39605 40092 80007 333 10357 29070 55103 58000;EQDQ01  00002PRCP99
0186832360999992001050912004-12140-045000FM-12+044099999V0203201N001512200019N0200001N1+02521+02021101001ADDAA199000091GF104991001001999999001021KA1240N+01971MA1999999096131MD1999999-0121REMSYN076AAXX  09124 83236 32998 43203 10252 20202 39613 40100 80002 333 20197 59012;EQDQ01  00002PRCP99
0167832360999992001050918004-12140-045000FM-12+044099999V0203001N011810075019N0100001N1+03411+01811100511ADDAA199000091GF107991051021008001071051MA1999999095701MD1999999-0101REMSYN070AAXX  09184 83236 32597 73023 10341 20181 39570 40051 85275 333 59010;EQDQ01  00002PRCP99
0198832360999992001051000004-12140-045000FM-12+044099999V0203201N001012200019N0200001N1+02481+02231100771ADDAA199000091GF104991001001999999001071KA1240M+03561MA1999999095911MD1999999-0141REMSYN088AAXX  10004 83236 32998 43202 10248 20223 39591 40077 80007 333 10356 29071 55070 59014;EQDQ01  00002PRCP99
0186832360999992001051012004-12140-045000FM-12+044099999V0203601N001011050019N0100001N1+02591+01941101061ADDAA199000091GF106991041001022501061071KA1240N+02031MA1999999096191MD1999999+0061REMSYN076AAXX  10124 83236 32897 63602 10259 20194 39619 40106 84067 333 20203 58006;EQDQ01  00002PRCP99
0167832360999992001051018004-12140-045000FM-12+044099999V0200501N002110075019N0100001N1+03211+02181100671ADDAA199000091GF107991061021008001071051MA1999999095841MD1999999+0141REMSYN070AAXX  10184 83236 32597 70504 10321 20218 39584 40067 86275 333 58014;EQDQ01  00002PRCP99
0226832360999992001051100004-12140-045000FM-12+044099999V0209999C000010075019N0100001N1+02481+02271100951ADDAA199000091AY121061AY221061GF108991061051008001061999KA1240M+03441MA1999999096091MD1999999+0181MW1131REMSYN094AAXX  11004 83236 31597 80000 10248 20227 39609 40095 71322 8656/ 333 10344 29074 55075 58018;EQDQ01  00002PRCP99
0186832360999992001051112004-12140-045000FM-12+044099999V0201401N001510075019N0100001N1+02621+02141101241ADDAA199000091GF107991061021008001081051KA1240N+02151MA1999999096361MD1999999+0171REMSYN076AAXX  11124 83236 32597 71403 10262 20214 39636 40124 86285 333 20215 58017;EQDQ01  00002PRCP99
0167832360999992001051118004-12140-045000FM-12+044099999V0200901N001010075019N0200001N1+03131+02081100811ADDAA199000091GF106991051021008001051071MA1999999095971MD1999999+0131REMSYN070AAXX  11184 83236 32598 60902 10313 20208 39597 40081 85257 333 58013;EQDQ01  00002PRCP99
0226832360999992001051200004-12140-045000FM-12+044099999V0201801N001510450019N0100001N1+02451+02231101091ADDAA199000091AY121061AY221061GF105991031051008001061051KA1240M+03251MA1999999096221MD1999999+0131MW1131REMSYN094AAXX  12004 83236 31597 51803 10245 20223 39622 40109 71322 83565 333 10325 29076 55051 58013;EQDQ01  00002PRCP99
0186832360999992001051212004-12140-045000FM-12+044099999V0209999C000010450019N0200001N1+02601+02141101351ADDAA199000091GF105991031021012501061071KA1240N+02031MA1999999096461MD1999999+0101REMSYN076AAXX  12124 83236 32698 50000 10260 20214 39646 40135 83267 333 20203 58010;EQDQ01  00002PRCP99
0167832360999992001051218004-12140-045000FM-12+044099999V0203601N003110450019N0100001N1+03231+02141100891ADDAA199000091GF105991041031008001041001MA1999999096031MD1999999+0071REMSYN070AAXX  12184 83236 32597 53606 10323 20214 39603 40089 84340 333 58007;EQDQ01  00002PRCP99
0198832360999992001051300004-12140-045000FM-12+044099999V0209999C000010210019N0040001N1+02581+02351101181ADDAA199000091GF108991081001022501021999KA1240M+03471MA1999999096321MD1999999+0101REMSYN088AAXX  13004 83236 32896 80000 10258 20235 39632 40118 8802/ 333 10347 29076 55077 58010;EQDQ01  00002PRCP99
0186832360999992001051312004-12140-045000FM-12+044099999V0201801N001512200019N0200001N1+02661+02241101401ADDAA199000091GF103991031011008001001001KA1240N+02071MA1999999096531MD1999999+0071REMSYN076AAXX  13124 83236 32598 31803 10266 20224 39653 40140 83100 333 20207 58007;EQDQ01  00002PRCP99
0198832360999992001051400004-12140-045000FM-12+044099999V0209999C000010075019N0100001N1+02581+02171101131ADDAA199000091GF106991061061008001001001KA1240M+03541MA1999999096271MD1999999-0051REMSYN088AAXX  14004 83236 32597 60000 10258 20217 39627 40113 86600 333 10354 29069 55086 59005;EQDQ01  00002PRCP99
0201832360999992001051412004-12140-045000FM-12+044099999V0209999C000010075019N0100001N1+02261+02211101431ADDAA124036191AY161061AY261061GF108991071061008001041999KA1240N+02191MA1999999096521MD1999999+0011MW1151REMSYN088AAXX  14124 83236 21597 80000 10226 20221 39652 40143 71566 8764/ 333 20219 58001 60364;
0167832360999992001051418004-12140-045000FM-12+044099999V0201801N001010075019N0200001N1+03131+02221100881ADDAA199000091GF106991051021008001061071MA1999999096041MD1999999+0021REMSYN070AAXX  14184 83236 32598 61802 10313 20222 39604 40088 85267 333 58002;EQDQ01  00002PRCP99
0198832360999992001051500004-12140-045000FM-12+044099999V0201801N001510075019N0100001N1+02561+02291101111ADDAA199000091GF108991061021008001071999KA1240M+03261MA1999999096211MD1999999-0061REMSYN088AAXX  15004 83236 32597 81803 10256 20229 39621 40111 8627/ 333 10326 29082 55044 59006;EQDQ01  00002PRCP99
0186832360999992001051512004-12140-045000FM-12+044099999V0200901N001012200019N0200001N1+02751+02051101161ADDAA199000091GF103991001001999999001051KA1240N+02221MA1999999096311MD1999999-0211REMSYN076AAXX  15124 83236 32998 30902 10275 20205 39631 40116 80005 333 20222 59021;EQDQ01  00002PRCP99
0183832360999992001051600004-12150-045000FM-12+044099999V0209999C000011050019N0200001N1+02381+02291101021ADDAA199000091GF105991031001022501061071KA1240M+03291MA1999999096151REMSYN087AAXX  16004 83236 32898 50000 10238 20229 39615 40102 83067 333 10329 29076 55067 5906;EQDQ01  00002PRCP99
0196832360999992001051612004-12150-045000FM-12+044099999V0209999C000012200019N0200001N1+02491+01941101361ADDAA199000091GA1001+999999999GF100991001001999999001001KA1240N+01921MA1999999096461MD1999999+0151REMSYN070AAXX  16124 83236 32998 00000 10249 20194 39646 40136 333 20192 58015;EQDQ01  00002PRCP99
0167832360999992001051618004-12150-045000FM-12+044099999V0203601N001012200019N0200001N1+03211+01751100801ADDAA199000091GF103991031021008001001001MA1999999095961MD1999999+0031REMSYN070AAXX  16184 83236 32598 33602 10321 20175 39596 40080 83200 333 58003;EQDQ01  00002PRCP99
0198832360999992001051700004-12140-045000FM-12+044099999V0209999C000012200019N0100001N1+02401+02151101041ADDAA199000091GF103991031011008001001001KA1240M+03351MA1999999096151MD1999999+0001REMSYN088AAXX  17004 83236 32597 30000 10240 20215 39615 40104 83100 333 10335 29072 55105 58000;EQDQ01  00002PRCP99
0186832360999992001051712004-12140-045000FM-12+044099999V0209999C000010075019N0100001N1+02331+02001101511ADDAA199000091GF107991061021008001061051KA1240N+01851MA1999999096581MD1999999+0121REMSYN076AAXX  17124 83236 32597 70000 10233 20200 39658 40151 86265 333 20185 58012;EQDQ01  00002PRCP99
0167832360999992001051718004-12140-045000FM-12+044099999V0203601N001012200019N0100001N1+03231+01771101091ADDAA199000091GF106991031021008001001061MA1999999096221MD1999999+0231REMSYN070AAXX  17184 83236 32597 63602 10323 20177 39622 40109 83206 333 58023;EQDQ01  00002PRCP99
0198832360999992001051800004-12140-045000FM-12+044099999V0209999C000012200019N0200001N1+02321+02131101291ADDAA199000091GF102991001001999999001071KA1240M+03331MA1999999096361MD1999999+0211REMSYN088AAXX  18004 83236 32998 20000 10232 20213 39636 40129 80007 333 10333 29076 55081 58021;EQDQ01  00002PRCP99
0186832360999992001051812004-12140-045000FM-12+044099999V0209999C000012200019N0200001N1+02501+02111101501ADDAA199000091GF104991001001999999001071KA1240N+01911MA1999999096581MD1999999+0001REMSYN076AAXX  18124 83236 32998 40000 10250 20211 39658 40150 80007 333 20191 58000;EQDQ01  00002PRCP99
0167832360999992001051818004-12140-045000FM-12+044099999V0200901N001510075019N0200001N1+03341+01871100971ADDAA199000091GF105991051021008001001001MA1999999096131MD1999999-0091REMSYN070AAXX  18184 83236 32598 50903 10334 20187 39613 40097 85200 333 59009;EQDQ01  00002PRCP99
0208832360999992001051900004-12140-045000FM-12+044099999V0209999C000012200019N0200001N1+02431+02091101221ADDAA199000091GA1001+999999999GF100991001001999999001001KA1240M+03461MA1999999096331MD1999999-0031REMSYN082AAXX  19004 83236 32998 00000 10243 20209 39633 40122 333 10346 29071 55100 59003;EQDQ01  00002PRCP99
0186832360999992001051912004-12140-045000FM-12+044099999V0209999C000012200019N0200001N1+02551+01981101411ADDAA199000091GF103991031021008001001001KA1240N+01931MA1999999096521MD1999999-0061REMSYN076AAXX  19124 83236 32598 30000 10255 20198 39652 40141 83200 333 20193 59006;EQDQ01  00002PRCP99
0167832360999992001051918004-12140-045000FM-12+044099999V0203201N001510075019N0200001N1+03361+01771100871ADDAA199000091GF105991051021008001001001MA1999999096031MD1999999-0101REMSYN070AAXX  19184 83236 32598 53203 10336 20177 39603 40087 85200 333 59010;EQDQ01  00002PRCP99
0208832360999992001052000004-12140-045000FM-12+044099999V0209999C000012200019N0200001N1+02331+02131101151ADDAA199000091GA1001+999999999GF100991001001999999001001KA1240M+03451MA1999999096261MD1999999-0071REMSYN082AAXX  20004 83236 32998 00000 10233 20213 39626 40115 333 10345 29072 55102 59007;EQDQ01  00002PRCP99
0196832360999992001052012004-12140-045000FM-12+044099999V0202301N001512200019N0200001N1+02371+01541101371ADDAA199000091GA1001+999999999GF100991001001999999001001KA1240N+01851MA1999999096451MD1999999-0071REMSYN070AAXX  20124 83236 32998 02303 10237 20154 39645 40137 333 20185 59007;EQDQ01  00002PRCP99
0167832360999992001052018004-12140-045000FM-12+044099999V0200901N001510075019N0200001N1+03301+01761100831ADDAA199000091GF105991051021008001001001MA1999999096001MD1999999-0031REMSYN070AAXX  20184 83236 32598 50903 10330 20176 39600 40083 85200 333 59003;EQDQ01  00002PRCP99
0198832360999992001052100004-12140-045000FM-12+044099999V0200501N001012200019N0200001N1+02541+01951101161ADDAA199000091GF104991041021008001001001KA1240M+03401MA1999999096271MD1999999+0011REMSYN088AAXX  21004 83236 32598 40502 10254 20195 39627 40116 84200 333 10340 29060 55102 58001;EQDQ01  00002PRCP99
0186832360999992001052112004-12140-045000FM-12+044099999V0201801N001510450019N0200001N1+02451+01741101431ADDAA199000091GF105991041021008001051001KA1240N+01951MA1999999096541MD1999999+0091REMSYN076AAXX  21124 83236 32598 51803 10245 20174 39654 40143 84250 333 20195 58009;EQDQ01  00002PRCP99
0167832360999992001052118004-12140-045000FM-12+044099999V0201401N001510075019N0100001N1+03131+01641100941ADDAA199000091GF106991051021008001071001MA1999999096101MD1999999+0101REMSYN070AAXX  21184 83236 32597 61403 10313 20164 39610 40094 85270 333 58010;EQDQ01  00002PRCP99
0198832360999992001052200004-12140-045000FM-12+044099999V0202301N001012200019N0200001N1+02291+01831101181ADDAA199000091GF102991021021012501001001KA1240M+03221MA1999999096271MD1999999+0001REMSYN088AAXX  22004 83236 32698 22302 10229 20183 39627 40118 82200 333 10322 29064 55072 58000;EQDQ01  00002PRCP99
0186832360999992001052212004-12140-045000FM-12+044099999V0201801N001510075019N0200001N1+02401+01551101441ADDAA199000091GF105991051021008001071001KA1240N+01711MA1999999096521MD1999999-0021REMSYN076AAXX  22124 83236 32598 51803 10240 20155 39652 40144 85270 333 20171 59002;EQDQ01  00002PRCP99
0167832360999992001052218004-12140-045000FM-12+044099999V0200901N001011050019N0200001N1+03191+01531100901ADDAA199000091GF105991031021012501001051MA1999999096031MD1999999-0071REMSYN070AAXX  22184 83236 32698 50902 10319 20153 39603 40090 83205 333 59007;EQDQ01  00002PRCP99
0208832360999992001052300004-12140-045000FM-12+044099999V0201801N001012200019N0200001N1+02231+01901101161ADDAA199000091GA1001+999999999GF100991001001999999001001KA1240M+03281MA1999999096241MD1999999-0031REMSYN082AAXX  23004 83236 32998 01802 10223 20190 39624 40116 333 10328 29065 55090 59003;EQDQ01  00002PRCP99
0186832360999992001052312004-12140-045000FM-12+044099999V0203601N001012200019N0200001N1+02301+01831101361ADDAA199000091GF103991001001999999001071KA1240N+01731MA1999999096421MD1999999-0101REMSYN076AAXX  23124 83236 32998 33602 10230 20183 39642 40136 80007 333 20173 59010;EQDQ01  00002PRCP99
0183832360999992001052318004-12140-045000FM-12+044099999V0201801N001012200019N0100001N1+02901+01991100931ADDAA199000091GF104991999021008001061071MA1999999096031MD1999999+0001REMSYN070AAXX  23184 83236 32597 41802 10290 20199 39603 40093 85267 333 58000;EQDQ01+000052SCOTLCQ02  00002PRCP99
0198832360999992001052400004-12140-045000FM-12+044099999V0209999C000012200019N0200001N1+02621+02211101121ADDAA199000091GF103991031021012501001001KA1240M+03471MA1999999096231MD1999999-0011REMSYN088AAXX  24004 83236 32698 30000 10262 20221 39623 40112 83200 333 10347 29072 55086 59001;EQDQ01  00002PRCP99
0186832360999992001052412004-12140-045000FM-12+044099999V0209999C000012200019N0200001N1+02481+02031101461ADDAA199000091GF103991031001022501051001KA1240N+02231MA1999999096561MD1999999+0141REMSYN076AAXX  24124 83236 32898 30000 10248 20203 39656 40146 83050 333 20223 58014;EQDQ01  00002PRCP99
0167832360999992001052418004-12140-045000FM-12+044099999V0202301N001010075019N0200001N1+02971+01611100911ADDAA199000091GF106991061021008001001001MA1999999096091MD1999999+0061REMSYN070AAXX  24184 83236 32598 62302 10297 20161 39609 40091 86200 333 58006;EQDQ01  00002PRCP99
0198832360999992001052500004-12140-045000FM-12+044099999V0209999C000012200019N0200001N1+02201+01781101251ADDAA199000091GF102991001001999999001051KA1240M+03261MA1999999096341MD1999999+0111REMSYN088AAXX  25004 83236 32998 20000 10220 20178 39634 40125 80005 333 10326 29068 55101 58011;EQDQ01  00002PRCP99
0196832360999992001052512004-12140-045000FM-12+044099999V0202301N001012200019N0200001N1+02501+01481101511ADDAA199000091GA1001+999999999GF100991001001999999001001KA1240N+01611MA1999999096581MD1999999+0021REMSYN070AAXX  25124 83236 32998 02302 10250 20148 39658 40151 333 20161 58002;EQDQ01  00002PRCP99
0167832360999992001052518004-12140-045000FM-12+044099999V0201401N001510075019N0200001N1+03211+01521100981ADDAA199000091GF105991051021008001001001MA1999999096111MD1999999+0021REMSYN070AAXX  25184 83236 32598 51403 10321 20152 39611 40098 85200 333 58002;EQDQ01  00002PRCP99
0198832360999992001052600004-12140-045000FM-12+044099999V0202701N003112200019N0200001N1+02191+01761101281ADDAA199000091GF102991021011008001001001KA1240M+03341MA1999999096361MD1999999+0131REMSYN088AAXX  26004 83236 32598 22706 10219 20176 39636 40128 82100 333 10334 29061 55101 58013;EQDQ01  00002PRCP99
0196832360999992001052612004-12140-045000FM-12+044099999V0202701N001012200019N0200001N1+02351+01571101351ADDAA199000091GA1001+999999999GF100991001001999999001001KA1240N+01651MA1999999096421MD1999999-0161REMSYN070AAXX  26124 83236 32998 02702 10235 20157 39642 40135 333 20165 59016;EQDQ01  00002PRCP99
0167832360999992001052618004-12140-045000FM-12+044099999V0203201N001012200019N0200001N1+03311+01551100751ADDAA199000091GF103991031011008001001001MA1999999095901MD1999999-0191REMSYN070AAXX  26184 83236 32598 33202 10331 20155 39590 40075 83100 333 59019;EQDQ01  00002PRCP99
0208832360999992001052700004-12140-045000FM-12+044099999V0201801N001012200019N0200001N1+02231+01801101041ADDAA199000091GA1001+999999999GF100991001001999999001001KA1240M+03431MA1999999096131MD1999999-0231REMSYN082AAXX  27004 83236 32998 01802 10223 20180 39613 40104 333 10343 29073 55101 59023;EQDQ01  00002PRCP99
0186832360999992001052712004-12140-045000FM-12+044099999V0201801N000512200019N0200001N1+02341+01781101391ADDAA199000091GF104991011011008001031001KA1240N+01781MA1999999096461MD1999999+0041REMSYN076AAXX  27124 83236 32598 41801 10234 20178 39646 40139 81130 333 20178 58004;EQDQ01  00002PRCP99
0167832360999992001052718004-12140-045000FM-12+044099999V0203601N001512200019N0200001N1+03291+01621100901ADDAA199000091GF104991031021008001041001MA1999999096041MD1999999+0141REMSYN070AAXX  27184 83236 32598 43603 10329 20162 39604 40090 83240 333 58014;EQDQ01  00002PRCP99
0208832360999992001052800004-12140-045000FM-12+044099999V0202701N001012200019N0200001N1+02291+01811101111ADDAA199000091GA1001+999999999GF100991001001999999001001KA1240M+03431MA1999999096191MD1999999+0131REMSYN082AAXX  28004 83236 32998 02702 10229 20181 39619 40111 333 10343 29064 55102 58013;EQDQ01  00002PRCP99
0186832360999992001052812004-12140-045000FM-12+044099999V0201801N001012200019N0200001N1+02421+01931101451ADDAA199000091GF103991021061022501001011KA1240N+01771MA1999999096531MD1999999+0071REMSYN076AAXX  28124 83236 32898 31802 10242 20193 39653 40145 82601 333 20177 58007;EQDQ01  00002PRCP99
0167832360999992001052818004-12140-045000FM-12+044099999V0201801N001512200019N0200001N1+03311+01681100881ADDAA199000091GF104991041081008001001001MA1999999096071MD1999999+0031REMSYN070AAXX  28184 83236 32598 41803 10331 20168 39607 40088 84800 333 58003;EQDQ01  00002PRCP99
0198832360999992001052900004-12140-045000FM-12+044099999V0209999C000012200019N0200001N1+02321+01941101201ADDAA199000091GF102991021011008001001001KA1240M+03451MA1999999096291MD1999999+0101REMSYN088AAXX  29004 83236 32598 20000 10232 20194 39629 40120 82100 333 10345 29068 55068 58010;EQDQ01  00002PRCP99
0186832360999992001052912004-12140-045000FM-12+044099999V0202701N001512200019N0200001N1+02441+01971101451ADDAA199000091GF104991031001022501061021KA1240N+02071MA1999999096541MD1999999+0011REMSYN076AAXX  29124 83236 32898 42703 10244 20197 39654 40145 83062 333 20207 58001;EQDQ01  00002PRCP99
0167832360999992001052918004-12140-045000FM-12+044099999V0201801N001510075019N0200001N1+03251+01861100921ADDAA199000091GF105991051021008001001001MA1999999096081MD1999999+0011REMSYN070AAXX  29184 83236 32598 51803 10325 20186 39608 40092 85200 333 58001;EQDQ01  00002PRCP99
0198832360999992001053000004-12140-045000FM-12+044099999V0209999C000010450019N0100001N1+02561+02191101271ADDAA199000091GF108991031071008001021999KA1240M+03471MA1999999096381MD1999999+0091REMSYN088AAXX  30004 83236 31597 80000 10256 20219 39638 40127 8372/ 333 10347 29070 55059 58009;EQDQ01  00002PRCP99
0167832360999992001053018004-12140-045000FM-12+044099999V0201801N002112200019N0200001N1+03291+01781100891ADDAA199000091GF104991031031008001041001MA1999999096091MD1999999+0011REMSYN070AAXX  30184 83236 32598 41804 10329 20178 39609 40089 83340 333 58001;EQDQ01  00002PRCP99
0214832360999992001053100004-12140-045000FM-12+044099999V0209999C000012200019N0200001N1+02401+01991101211ADDAA199000091GF103991999001022501041001KA1240M+03421MA1999999096311MD1999999-0071REMSYN088AAXX  31004 83236 32898 30000 10240 20199 39631 40121 82040 333 10342 29062 55065 59007;EQDQ01+000022SCOTLCQ02  00002PRCP99
0186832360999992001053112004-12140-045000FM-12+044099999V0202701N001012200019N0200001N1+02541+01981101421ADDAA199000091GF103991031001022501061001KA1240N+01981MA1999999096521MD1999999-0061REMSYN076AAXX  31124 83236 32898 32702 10254 20198 39652 40142 83060 333 20198 59006;EQDQ01  00002PRCP99
0167832360999992001053118004-12140-045000FM-12+044099999V0201801N002112200019N0200001N1+03391+01621100921ADDAA199000091GF103991031021008001001001MA1999999096101MD1999999+0011REMSYN070AAXX  31184 83236 32598 31804 10339 20162 39610 40092 83200 333 58001;EQDQ01  00002PRCP99
0208832360999992001060100004-12140-045000FM-12+044099999V0202701N001512200019N0200001N1+02341+01781101141ADDAA199000091GA1001+999999999GF100991001001999999001001KA1240M+03451MA1999999096251MD1999999-0061REMSYN082AAXX  01004 83236 32998 02703 10234 20178 39625 40114 333 10345 29062 55097 59006;EQDQ01  00002PRCP99
0196832360999992001060112004-12140-045000FM-12+044099999V0201801N003112200019N0200001N1+02501+01871101101ADDAA199000091GA1001+999999999GF100991001001999999001001KA1240N+01891MA1999999096491MD1999999-0031REMSYN070AAXX  01124 83236 32998 01806 10250 20187 39649 40110 333 20189 59003;EQDQ01  00002PRCP99
0183832360999992001060118004-12140-045000FM-12+044099999V0201801N003112200019N0200001N1+02251+01751100931ADDAA199000091GF104991999031008001001001MA1999999096101MD1999999+0001REMSYN070AAXX  01184 83236 32598 41806 10225 20175 39610 40093 83300 333 58000;EQDQ01+000032SCOTLCQ02  00002PRCP99
0198832360999992001060200004-12140-045000FM-12+044099999V0202301N002112200019N0200001N1+02421+01771101161ADDAA199000091GF103991031061008001001001KA1240M+03431MA1999999096271MD1999999+0021REMSYN088AAXX  02004 83236 32598 32304 10242 20177 39627 40116 83600 333 10343 29061 55087 58002;EQDQ01  00002PRCP99
0196832360999992001060212004-12140-045000FM-12+044099999V0201801N003112200019N0200001N1+02431+01911101471ADDAA199000091GA1001+999999999GF100991001001999999001001KA1240N+02031MA1999999096571MD1999999+0081REMSYN070AAXX  02124 83236 32998 01806 10243 20191 39657 40147 333 20203 58008;EQDQ01  00002PRCP99
0167832360999992001060218004-12140-045000FM-12+044099999V0201401N003112200019N0200001N1+03211+01751101001ADDAA199000091GF104991041021008001001001MA1999999096171MD1999999+0071REMSYN070AAXX  02184 83236 32598 41406 10321 20175 39617 40100 84200 333 58007;EQDQ01  00002PRCP99
0208832360999992001060300004-12140-045000FM-12+044099999V0201401N004612200019N0200001N1+02601+01871101241ADDAA199000091GA1001+999999999GF100991001001999999001001KA1240M+03331MA1999999096351MD1999999+0081REMSYN082AAXX  03004 83236 32998 01409 10260 20187 39635 40124 333 10333 29061 55104 58008;EQDQ01  00002PRCP99
0186832360999992001060312004-12140-045000FM-12+044099999V0201401N002612200019N0200001N1+02441+01861101581ADDAA199000091GF103991021021012501051001KA1240N+01791MA1999999096681MD1999999+0111REMSYN076AAXX  03124 83236 32698 31405 10244 20186 39668 40158 82250 333 20179 58011;EQDQ01  00002PRCP99
0167832360999992001060318004-12140-045000FM-12+044099999V0200501N002110450019N0200001N1+02931+01741101181ADDAA199000091GF105991041021008001061001MA1999999096311MD1999999+0141REMSYN070AAXX  03184 83236 32598 50504 10293 20174 39631 40118 84260 333 58014;EQDQ01  00002PRCP99
0198832360999992001060400004-12140-045000FM-12+044099999V0203201N001012200019N0200001N1+02291+01961101411ADDAA199000091GF103991031001022501071001KA1240M+03151MA1999999096491MD1999999+0141REMSYN088AAXX  04004 83236 32898 33202 10229 20196 39649 40141 83070 333 10315 29071 55075 58014;EQDQ01  00002PRCP99
0186832360999992001060412004-12140-045000FM-12+044099999V0201801N001512200019N0200001N1+02501+01891101651ADDAA199000091GF104991011011008001061001KA1240N+01861MA1999999096731MD1999999+0051REMSYN076AAXX  04124 83236 32598 41803 10250 20189 39673 40165 81160 333 20186 58005;EQDQ01  00002PRCP99
0167832360999992001060418004-12140-045000FM-12+044099999V0201801N002112200019N0200001N1+02901+01871101261ADDAA199000091GF104991041081008001001001MA1999999096361MD1999999+0051REMSYN070AAXX  04184 83236 32598 41804 10290 20187 39636 40126 84800 333 58005;EQDQ01  00002PRCP99
0198832360999992001060500004-12140-045000FM-12+044099999V0209999C000012200019N0200001N1+02361+01931101361ADDAA199000091GF102991021001022501081001KA1240M+03051MA1999999096461MD1999999-0031REMSYN088AAXX  05004 83236 32898 20000 10236 20193 39646 40136 82080 333 10305 29069 55057 59003;EQDQ01  00002PRCP99
0186832360999992001060512004-12140-045000FM-12+044099999V0200901N001012200019N0200001N1+02261+01711101751ADDAA199000091GF104991031021008001061001KA1240N+01741MA1999999096801MD1999999+0071REMSYN076AAXX  05124 83236 32598 40902 10226 20171 39680 40175 83260 333 20174 58007;EQDQ01  00002PRCP99
0177832360999992001060518004-12140-045000FM-12+044099999V0200901N004612200019N0200001N1+03051+01281101161ADDAA199000091GA1001+999999999GF100991001001999999001001MA1999999096281MD1999999-0081REMSYN064AAXX  05184 83236 32998 00909 10305 20128 39628 40116 333 59008;EQDQ01  00002PRCP99
0198832360999992001060600004-12140-045000FM-12+044099999V0202701N001012200019N0200001N1+02101+01601101441ADDAA199000091GF103991031061008001001001KA1240M+03171MA1999999096481MD1999999+0021REMSYN088AAXX  06004 83236 32598 32702 10210 20160 39648 40144 83600 333 10317 29063 55098 58002;EQDQ01  00002PRCP99
0186832360999992001060612004-12140-045000FM-12+044099999V0201801N002612200019N0200001N1+02341+01781101631ADDAA199000091GF101991011011008001001001KA1240N+01661MA1999999096661MD1999999-0141REMSYN076AAXX  06124 83236 32598 11805 10234 20178 39666 40163 81100 333 20166 59014;EQDQ01  00002PRCP99
0167832360999992001060618004-12140-045000FM-12+044099999V0200901N003112200019N0200001N1+03211+01551101081ADDAA199000091GF104991041021008001001001MA1999999096221MD1999999-0061REMSYN070AAXX  06184 83236 32598 40906 10321 20155 39622 40108 84200 333 59006;EQDQ01  00002PRCP99
0198832360999992001060700004-12140-045000FM-12+044099999V0202301N001012200019N0200001N1+02371+01781101351ADDAA199000091GF103991031001022501031001KA1240M+03281MA1999999096431MD1999999-0051REMSYN088AAXX  07004 83236 32898 32302 10237 20178 39643 40135 83030 333 10328 29062 55102 59005;EQDQ01  00002PRCP99
0196832360999992001060712004-12140-045000FM-12+044099999V0201801N002112200019N0200001N1+02321+01531101561ADDAA199000091GA1001+999999999GF100991001001999999001001KA1240N+01681MA1999999096631MD1999999-0031REMSYN070AAXX  07124 83236 32998 01804 10232 20153 39663 40156 333 20168 59003;EQDQ01  00002PRCP99
0167832360999992001060718004-12140-045000FM-12+044099999V0201801N001512200019N0200001N1+03251+01311100971ADDAA199000091GF102991021011008001001001MA1999999096141MD1999999-0081REMSYN070AAXX  07184 83236 32598 21803 10325 20131 39614 40097 82100 333 59008;EQDQ01  00002PRCP99
0198832360999992001060800004-12140-045000FM-12+044099999V0202301N001512200019N0200001N1+02211+01671101321ADDAA199000091GF104991041021008001001001KA1240M+03321MA1999999096381MD1999999-0051REMSYN088AAXX  08004 83236 32598 42303 10221 20167 39638 40132 84200 333 10332 29059 55103 59005;EQDQ01  00002PRCP99
0196832360999992001060812004-12140-045000FM-12+044099999V0202701N001012200019N0200001N1+02331+01601101681ADDAA199000091GA1001+999999999GF100991001001999999001001KA1240N+01581MA1999999096721MD1999999+0091REMSYN070AAXX  08124 83236 32998 02702 10233 20160 39672 40168 333 20158 58009;EQDQ01  00002PRCP99
0167832360999992001060818004-12140-045000FM-12+044099999V0200901N003612200019N0200001N1+03191+01441101121ADDAA199000091GF103991031021008001001001MA1999999096241MD1999999+0101REMSYN070AAXX  08184 83236 32598 30907 10319 20144 39624 40112 83200 333 58010;EQDQ01  00002PRCP99
0198832360999992001060900004-12140-045000FM-12+044099999V0209999C000012200019N0200001N1+02171+01611101441ADDAA199000091GF101991011011008001001001KA1240M+03331MA1999999096491MD1999999+0111REMSYN088AAXX  09004 83236 32598 10000 10217 20161 39649 40144 81100 333 10333 29060 55103 58011;EQDQ01  00002PRCP99
0196832360999992001060912004-12140-045000FM-12+044099999V0201801N002112200019N0200001N1+02181+01441101811ADDAA199000091GA1001+999999999GF100991001001999999001001KA1240N+01491MA1999999096831MD1999999+0111REMSYN070AAXX  09124 83236 32998 01804 10218 20144 39683 40181 333 20149 58011;EQDQ01  00002PRCP99
0167832360999992001060918004-12140-045000FM-12+044099999V0201401N001512200019N0200001N1+03111+01281101231ADDAA199000091GF104991041021008001001001MA1999999096331MD1999999+0091REMSYN070AAXX  09184 83236 32598 41403 10311 20128 39633 40123 84200 333 58009;EQDQ01  00002PRCP99
0198832360999992001061000004-12140-045000FM-12+044099999V0202701N001011050019N0200001N1+02521+01461101451ADDAA199000091GF105991041021008001001071KA1240M+03191MA1999999096531MD1999999+0041REMSYN088AAXX  10004 83236 32598 52702 10252 20146 39653 40145 84207 333 10319 29050 55092 58004;EQDQ01  00002PRCP99
0186832360999992001061012004-12140-045000FM-12+044099999V0202301N001512200019N0200001N1+02281+01461101741ADDAA199000091GF102991021021012501001001KA1240N+01831MA1999999096811MD1999999-0031REMSYN076AAXX  10124 83236 32698 22303 10228 20146 39681 40174 82200 333 20183 59003;EQDQ01  00002PRCP99
0167832360999992001061018004-12140-045000FM-12+044099999V0200501N003110075019N0200001N1+03041+01451101271ADDAA199000091GF107991051041008001081001MA1999999096401MD1999999+0071REMSYN070AAXX  10184 83236 32598 70506 10304 20145 39640 40127 85480 333 58007;EQDQ01  00002PRCP99
0198832360999992001061100004-12140-045000FM-12+044099999V0202301N001012200019N0200001N1+02161+01761101501ADDAA199000091GF104991031021012501061001KA1240M+03201MA1999999096541MD1999999+0011REMSYN088AAXX  11004 83236 32698 42302 10216 20176 39654 40150 83260 333 10320 29064 55069 58001;EQDQ01  00002PRCP99
0186832360999992001061112004-12140-045000FM-12+044099999V0201401N002611050019N0200001N1+02381+01581101621ADDAA199000091GF105991021001022501071051KA1240N+01611MA1999999096661MD1999999-0151REMSYN076AAXX  11124 83236 32898 51405 10238 20158 39666 40162 82075 333 20161 59015;EQDQ01  00002PRCP99
0167832360999992001061118004-12140-045000FM-12+044099999V0200901N002111050019N0200001N1+03091+01561101121ADDAA199000091GF106991041021008001001071MA1999999096261MD1999999-0141REMSYN070AAXX  11184 83236 32598 60904 10309 20156 39626 40112 84207 333 59014;EQDQ01  00002PRCP99
0208832360999992001061200004-12140-045000FM-12+044099999V0201801N001512200019N0200001N1+02171+01701101421ADDAA199000091GA1001+999999999GF100991001001999999001001KA1240M+03181MA1999999096471MD1999999-0071REMSYN082AAXX  12004 83236 32998 01803 10217 20170 39647 40142 333 10318 29062 55101 59007;EQDQ01  00002PRCP99
0186832360999992001061212004-12140-045000FM-12+044099999V0202701N001511050019N0200001N1+02191+01541101701ADDAA199000091GF106991041001022501061051KA1240N+01531MA1999999096731MD1999999+0071REMSYN076AAXX  12124 83236 32898 62703 10219 20154 39673 40170 84065 333 20153 58007;EQDQ01  00002PRCP99
0167832360999992001061218004-12140-045000FM-12+044099999V0200501N004110075019N0200001N1+02941+01401101171ADDAA199000091GF107991051021008001071051MA1999999096251MD1999999-0011REMSYN070AAXX  12184 83236 32598 70508 10294 20140 39625 40117 85275 333 59001;EQDQ01  00002PRCP99
0198832360999992001061300004-12140-045000FM-12+044099999V0201401N002112200019N0200001N1+02141+01501101451ADDAA199000091GF103991031001022501061001KA1240M+03041MA1999999096481MD1999999+0011REMSYN088AAXX  13004 83236 32898 31404 10214 20150 39648 40145 83060 333 10304 29060 55098 58001;EQDQ01  00002PRCP99
0186832360999992001061312004-12140-045000FM-12+044099999V0201401N002112200019N0200001N1+02181+01611101721ADDAA199000091GF102991021011012501001001KA1240N+01461MA1999999096741MD1999999+0011REMSYN076AAXX  13124 83236 32698 21404 10218 20161 39674 40172 82100 333 20146 58001;EQDQ01  00002PRCP99
0167832360999992001061318004-12140-045000FM-12+044099999V0200501N002111050019N0200001N1+02981+01271101121ADDAA199000091GF105991031021012501001051MA1999999096221MD1999999-0031REMSYN070AAXX  13184 83236 32698 50504 10298 20127 39622 40112 83205 333 59003;EQDQ01  00002PRCP99
0208832360999992001061400004-12140-045000FM-12+044099999V0202301N001512200019N0200001N1+02161+01541101391ADDAA199000091GA1001+999999999GF100991001001999999001001KA1240M+03101MA1999999096441MD1999999-0041REMSYN082AAXX  14004 83236 32998 02303 10216 20154 39644 40139 333 10310 29060 55093 59004;EQDQ01  00002PRCP99
0186832360999992001061412004-12140-045000FM-12+044099999V0202301N002112200019N0200001N1+02211+01561101511ADDAA199000091GF103991001001999999001041KA1240N+01611MA1999999096551MD1999999-0191REMSYN076AAXX  14124 83236 32998 32304 10221 20156 39655 40151 80004 333 20161 59019;EQDQ01  00002PRCP99
0167832360999992001061418004-12140-045000FM-12+044099999V0202301N001512200019N0200001N1+03181+01441100941ADDAA199000091GF105991031021008001001041MA1999999096091MD1999999-0131REMSYN070AAXX  14184 83236 32598 52303 10318 20144 39609 40094 83204 333 59013;EQDQ01  00002PRCP99
0193832360999992001061500004-12140-045000FM-12+044099999V0202301N002112200019N0200001N1+02121+01571101271ADDAA199000091GA1001+999999999GF100991001001999999001001KA1240M+03271MA1999999096311REMSYN081AAXX  15004 83236 32998 02304 10212 20157 39631 40127 333 10327 2058 55104 59013;EQDQ01  00002PRCP99
0196832360999992001061512004-12140-045000FM-12+044099999V0202301N001512200019N0200001N1+02241+01321101531ADDAA199000091GA1001+999999999GF100991001001999999001001KA1240N+01471MA1999999096561MD1999999+0011REMSYN070AAXX  15124 83236 32998 02303 10224 20132 39656 40153 333 20147 58001;EQDQ01  00002PRCP99
0167832360999992001061518004-12140-045000FM-12+044099999V0202301N001512200019N0200001N1+03161+01431100911ADDAA199000091GF102991021001012501001001MA1999999096031MD1999999-0061REMSYN070AAXX  15184 83236 32698 22303 10316 20143 39603 40091 82000 333 59006;EQDQ01  00002PRCP99
0208832360999992001061600004-12140-045000FM-12+044099999V0202301N002112200019N0200001N1+02101+01551101221ADDAA199000091GA1001+999999999GF100991001001999999001001KA1240M+03271MA1999999096261MD1999999-0051REMSYN082AAXX  16004 83236 32998 02304 10210 20155 39626 40122 333 10327 29058 55104 59005;EQDQ01  00002PRCP99
0196832360999992001061612004-12140-045000FM-12+044099999V0202301N001012200019N0200001N1+02171+01431101571ADDAA199000091GA1001+999999999GF100991001001999999001001KA1240N+01441MA1999999096601MD1999999+0041REMSYN070AAXX  16124 83236 32998 02302 10217 20143 39660 40157 333 20144 58004;EQDQ01  00002PRCP99
0167832360999992001061618004-12140-045000FM-12+044099999V0200901N003112200019N0200001N1+03141+01321100951ADDAA199000091GF104991031021012501001041MA1999999096061MD1999999+0031REMSYN070AAXX  16184 83236 32698 40906 10314 20132 39606 40095 83204 333 58003;EQDQ01  00002PRCP99
0208832360999992001061700004-12140-045000FM-12+044099999V0202301N001012200019N0200001N1+02101+01601101231ADDAA199000091GA1001+999999999GF100991001001999999001001KA1240M+03241MA1999999096271MD1999999+0011REMSYN082AAXX  17004 83236 32998 02302 10210 20160 39627 40123 333 10324 29060 55105 58001;EQDQ01  00002PRCP99
0186832360999992001061712004-12140-045000FM-12+044099999V0209999C000011050019N0200001N1+02151+01481101551ADDAA199000091GF106991041001022501071081KA1240N+01431MA1999999096571MD1999999-0031REMSYN076AAXX  17124 83236 32898 60000 10215 20148 39657 40155 84078 333 20143 59003;EQDQ01  00002PRCP99
0198832360999992001061800004-12140-045000FM-12+044099999V0201801N001010120019N0200001N1+02181+01761101241ADDAA199000091GF105991051021012501001001KA1240M+03341MA1999999096281MD1999999+0011REMSYN088AAXX  18004 83236 32698 51802 10218 20176 39628 40124 85200 333 10334 29063 55100 58001;EQDQ01  00002PRCP99
0186832360999992001061812004-12140-045000FM-12+044099999V0209999C000012200019N0200001N1+02401+01751101481ADDAA199000091GF102991021021012501001001KA1240N+01731MA1999999096541MD1999999-0031REMSYN076AAXX  18124 83236 32698 20000 10240 20175 39654 40148 82200 333 20173 59003;EQDQ01  00002PRCP99
0167832360999992001061818004-12140-045000FM-12+044099999V0200901N001010075019N0200001N1+03211+01461100911ADDAA199000091GF105991051021008001001001MA1999999096051MD1999999-0021REMSYN070AAXX  18184 83236 32598 50902 10321 20146 39605 40091 85200 333 59002;EQDQ01  00002PRCP99
0208832360999992001061900004-12140-045000FM-12+044099999V0203201N001512200019N0200001N1+02171+01681101231ADDAA199000091GA1001+999999999GF100991001001999999001001KA1240M+03381MA1999999096311MD1999999+0031REMSYN082AAXX  19004 83236 32998 03203 10217 20168 39631 40123 333 10338 29062 55099 58003;EQDQ01  00002PRCP99
0202832360999992001061912004-12140-045000FM-12+044099999V0209999C000012200019N0200001N1+02301+01431101521ADDAA199000091GF103991999021012501001001KA1240N+01531MA1999999096571MD1999999+0031REMSYN076AAXX  19124 83236 32698 30000 10230 20143 39657 40152 82200 333 20153 58003;EQDQ01+000022SCOTLCQ02  00002PRCP99
0167832360999992001061918004-12140-045000FM-12+044099999V0200901N002110075019N0200001N1+03171+01241100961ADDAA199000091GF106991051021008001001041MA1999999096081MD1999999+0031REMSYN070AAXX  19184 83236 32598 60904 10317 20124 39608 40096 85204 333 58003;EQDQ01  00002PRCP99
0208832360999992001062000004-12140-045000FM-12+044099999V0202301N001512200019N0200001N1+02211+01441101291ADDAA199000091GA1001+999999999GF100991001001999999001001KA1240M+03261MA1999999095351MD1999999+0041REMSYN082AAXX  20004 83236 32998 02303 10221 20144 39535 40129 333 10326 29054 55096 58004;EQDQ01  00002PRCP99
0186832360999992001062012004-12140-045000FM-12+044099999V0201801N001012200019N0200001N1+02321+01311101621ADDAA199000091GF103991001001999999001051KA1240N+01471MA1999999096661MD1999999+0091REMSYN076AAXX  20124 83236 32998 31802 10232 20131 39666 40162 80005 333 20147 58009;EQDQ01  00002PRCP99
0198832360999992001062100004-12140-045000FM-12+044099999V0202301N001012200019N0200001N1+02151+01551101481ADDAA199000091GF102991021021012501001001KA1240M+03271MA1999999096531MD1999999+0181REMSYN088AAXX  21004 83236 32698 22302 10215 20155 39653 40148 82200 333 10327 29055 55095 58018;EQDQ01  00002PRCP99
0186832360999992001062112004-12140-045000FM-12+044099999V0201801N001012200019N0200001N1+02001+01321101721ADDAA199000091GF102991021021012501001001KA1240N+01301MA1999999096721MD1999999+0061REMSYN076AAXX  21124 83236 32698 21802 10200 20132 39672 40172 82200 333 20130 58006;EQDQ01  00002PRCP99
0167832360999992001062118004-12140-045000FM-12+044099999V0201401N002612200019N0200001N1+03241+01541101061ADDAA199000091GF103991031001022501071001MA1999999096161MD1999999-0081REMSYN070AAXX  21184 83236 32898 31405 10324 20154 39616 40106 83070 333 59008;EQDQ01  00002PRCP99
0198832360999992001062200004-12140-045000FM-12+044099999V0202301N001012200019N0200001N1+02151+01551101521ADDAA199000091GF103991021021012501001041KA1240M+03331MA1999999096531MD1999999+0001REMSYN088AAXX  22004 83236 32698 32302 10215 20155 39653 40152 82204 333 10333 29057 55097 58000;EQDQ01  00002PRCP99
0186832360999992001062212004-12140-045000FM-12+044099999V0201801N003112200019N0200001N1+02181+01291101811ADDAA199000091GF104991021001022501031061KA1240N+01541MA1999999096831MD1999999+0111REMSYN076AAXX  22124 83236 32898 41806 10218 20129 39683 40181 82036 333 20154 58011;EQDQ01  00002PRCP99
0167832360999992001062218004-12140-045000FM-12+044099999V0201401N002612200019N0200001N1+03171+01381101191ADDAA199000091GF103991021021012501001051MA1999999096281MD1999999+0121REMSYN070AAXX  22184 83236 32698 31405 10317 20138 39628 40119 82205 333 58012;EQDQ01  00002PRCP99
0208832360999992001062300004-12140-045000FM-12+044099999V0202301N002612200019N0200001N1+02301+01481101501ADDAA199000091GA1001+999999999GF100991001001999999001001KA1240M+03281MA1999999096551MD1999999+0021REMSYN082AAXX  23004 83236 32998 02305 10230 20148 39655 40150 333 10328 29056 55097 58002;EQDQ01  00002PRCP99
0186832360999992001062312004-12140-045000FM-12+044099999V0202301N001012200019N0200001N1+02361+01731101741ADDAA199000091GF103991031021008001001001KA1240N+01631MA1999999096801MD1999999-0031REMSYN076AAXX  23124 83236 32598 32302 10236 20173 39680 40174 83200 333 20163 59003;EQDQ01  00002PRCP99
0167832360999992001062318004-12140-045000FM-12+044099999V0200901N003612200019N0200001N1+03091+01681101121ADDAA199000091GF103991031021008001001001MA1999999096231MD1999999-0051REMSYN070AAXX  23184 83236 32598 30907 10309 20168 39623 40112 83200 333 59005;EQDQ01  00002PRCP99
0208832360999992001062400004-12140-045000FM-12+044099999V0202301N001512200019N0200001N1+02481+01751101361ADDAA199000091GA1001+999999999GF100991001001999999001001KA1240M+03231MA1999999096451MD1999999-0101REMSYN082AAXX  24004 83236 32998 02303 10248 20175 39645 40136 333 10323 29060 55099 59010;EQDQ01  00002PRCP99
0186832360999992001062412004-12140-045000FM-12+044099999V0201401N001512200019N0200001N1+02481+01781101731ADDAA199000091GF103991031011008001001001KA1240N+01971MA1999999096821MD1999999+0021REMSYN076AAXX  24124 83236 32598 31403 10248 20178 39682 40173 83100 333 20197 58002;EQDQ01  00002PRCP99
0167832360999992001062418004-12140-045000FM-12+044099999V0201401N005112200019N0200001N1+03071+01301101251ADDAA199000091GF103991031021008001001001MA1999999096401MD1999999+0171REMSYN070AAXX  24184 83236 32598 31410 10307 20130 39640 40125 83200 333 58017;EQDQ01  00002PRCP99
0208832360999992001062500004-12140-045000FM-12+044099999V0201401N004612200019N0200001N1+02501+01391101521ADDAA199000091GA1001+999999999GF100991001001999999001001KA1240M+03191MA1999999096621MD1999999-0171REMSYN082AAXX  25004 83236 32998 01409 10250 20139 39662 40152 333 10319 29050 55101 59017;EQDQ01  00002PRCP99
0167832360999992001062518004-12140-045000FM-12+044099999V0200901N004612200019N0200001N1+03011+01331101351ADDAA199000091GF104991041021008001001001MA1999999096471MD1999999+0071REMSYN070AAXX  25184 83236 32598 40909 10301 20133 39647 40135 84200 333 58007;EQDQ01  00002PRCP99
0198832360999992001062600004-12140-045000FM-12+044099999V0202301N001012200019N0200001N1+02081+01491101601ADDAA199000091GF102991021011008001001001KA1240M+03181MA1999999096641MD1999999+0021REMSYN088AAXX  26004 83236 32598 22302 10208 20149 39664 40160 82100 333 10318 29059 55084 58002;EQDQ01  00002PRCP99
0196832360999992001062612004-12140-045000FM-12+044099999V0201801N002612200019N0200001N1+02321+01631101951ADDAA199000091GA1001+999999999GF100991001001999999001001KA1240N+01711MA1999999096971MD1999999+0021REMSYN070AAXX  26124 83236 32998 01805 10232 20163 39697 40195 333 20171 58002;EQDQ01  00002PRCP99
0167832360999992001062618004-12140-045000FM-12+044099999V0201801N001012200019N0200001N1+03131+01301101401ADDAA199000091GF102991021011008001001001MA1999999096501MD1999999+0031REMSYN070AAXX  26184 83236 32598 21802 10313 20130 39650 40140 82100 333 58003;EQDQ01  00002PRCP99
0208832360999992001062700004-12140-045000FM-12+044099999V0202701N001012200019N0200001N1+02121+01601101691ADDAA199000091GA1001+999999999GF100991001001999999001001KA1240M+03221MA1999999096721MD1999999+0081REMSYN082AAXX  27004 83236 32998 02702 10212 20160 39672 40169 333 10322 29060 55103 58008;EQDQ01  00002PRCP99
0196832360999992001062712004-12140-045000FM-12+044099999V0201801N001012200019N0200001N1+02181+01471101801ADDAA199000091GA1001+999999999GF100991001001999999001001KA1240N+01401MA1999999096821MD1999999-0151REMSYN070AAXX  27124 83236 32998 01802 10218 20147 39682 40180 333 20140 59015;EQDQ01  00002PRCP99
0167832360999992001062718004-12140-045000FM-12+044099999V0203601N001012200019N0200001N1+03151+01321101251ADDAA199000091GF102991021011008001001001MA1999999096341MD1999999-0161REMSYN070AAXX  27184 83236 32598 23602 10315 20132 39634 40125 82100 333 59016;EQDQ01  00002PRCP99
0208832360999992001062800004-12140-045000FM-12+044099999V0201801N001512200019N0200001N1+02211+01561101441ADDAA199000091GA1001+999999999GF100991001001999999001001KA1240M+03271MA1999999096481MD1999999+0241REMSYN082AAXX  28004 83236 32998 01803 10221 20156 39648 40144 333 10327 29058 55104 58024;EQDQ01  00002PRCP99
0196832360999992001062812004-12140-045000FM-12+044099999V0209999C000012200019N0200001N1+02211+01441101651ADDAA199000091GA1001+999999999GF100991001001999999001001KA1240N+01411MA1999999096681MD1999999-0141REMSYN070AAXX  28124 83236 32998 00000 10221 20144 39668 40165 333 20141 59014;EQDQ01  00002PRCP99
0167832360999992001062818004-12140-045000FM-12+044099999V0201401N001012200019N0200001N1+03251+01261101181ADDAA199000091GF103991031011008001001001MA1999999096281MD1999999-0061REMSYN070AAXX  28184 83236 32598 31402 10325 20126 39628 40118 83100 333 59006;EQDQ01  00002PRCP99
0186832360999992001062912004-12140-045000FM-12+044099999V0201801N002112200019N0200001N1+02421+01401101671ADDAA199000091GF104991011011008001001021KA1240N+01611MA1999999096741MD1999999+0061REMSYN076AAXX  29124 83236 32598 41804 10242 20140 39674 40167 81102 333 20161 58006;EQDQ01  00002PRCP99
0167832360999992001062918004-12140-045000FM-12+044099999V0200901N002110120019N0200001N1+03021+01511101211ADDAA199000091GF107991071081008001001001MA1999999096211MD1999999+0031REMSYN070AAXX  29184 83236 32598 70904 10302 20151 39621 40121 87800 333 58003;EQDQ01  00002PRCP99
0198832360999992001063000004-12140-045000FM-12+044099999V0202701N002110120019N0200001N1+02351+01641101391ADDAA199000091GF106991061081008001001001KA1240M+03141MA1999999096481MD1999999+0011REMSYN088AAXX  30004 83236 32598 62704 10235 20164 39648 40139 86800 333 10314 29056 55049 58001;EQDQ01  00002PRCP99
0186832360999992001063012004-12140-045000FM-12+044099999V0201801N001512200019N0200001N1+02301+01461101651ADDAA199000091GF103991001001999999001041KA1240N+01521MA1999999096701MD1999999-0041REMSYN076AAXX  30124 83236 32998 31803 10230 20146 39670 40165 80004 333 20152 59004;EQDQ01  00002PRCP99
0167832360999992001063018004-12140-045000FM-12+044099999V0201401N002112200019N0200001N1+03091+01271101111ADDAA199000091GF103991011011008001001081MA1999999096191MD1999999-0121REMSYN070AAXX  30184 83236 32598 31404 10309 20127 39619 40111 81108 333 59012;EQDQ01  00002PRCP99
0198832360999992001070100004-12140-045000FM-12+044099999V0201801N001012200019N0200001N1+02311+01511101281ADDAA199000091GF104991021061008001031001KA1240M+03181MA1999999096351MD1999999-0131REMSYN088AAXX  01004 83236 32598 41802 10231 20151 39635 40128 82630 333 10318 29054 55096 59013;EQDQ01  00002PRCP99
0186832360999992001070112004-12140-045000FM-12+044099999V0203201N001012200019N0200001N1+02301+01461101541ADDAA199000091GF104991001001999999001051KA1240N+01541MA1999999096601MD1999999-0101REMSYN076AAXX  01124 83236 32998 43202 10230 20146 39660 40154 80005 333 20154 59010;EQDQ01  00002PRCP99
0167832360999992001070118004-12140-045000FM-12+044099999V0200901N001012200019N0200001N1+03011+01291101071ADDAA199000091GF104991041021008001001001MA1999999096181MD1999999-0011REMSYN070AAXX  01184 83236 32598 40902 10301 20129 39618 40107 84200 333 59001;EQDQ01  00002PRCP99
0198832360999992001070200004-12140-045000FM-12+044099999V0202701N002612200019N0200001N1+02121+01481101371ADDAA199000091GF103991031001022501061001KA1240M+03211MA1999999096421MD1999999+0071REMSYN088AAXX  02004 83236 32898 32705 10212 20148 39642 40137 83060 333 10321 29057 55086 58007;EQDQ01  00002PRCP99
0186832360999992001070212004-12140-045000FM-12+044099999V0209999C000012200019N0200001N1+02121+01481101701ADDAA199000091GF103991021011008001001011KA1240N+01371MA1999999096711MD1999999+0011REMSYN076AAXX  02124 83236 32598 30000 10212 20148 39671 40170 82101 333 20137 58001;EQDQ01  00002PRCP99
0167832360999992001070218004-12140-045000FM-12+044099999V0202701N001512200019N0200001N1+03111+01281101111ADDAA199000091GF102991021011008001001001MA1999999096201MD1999999+0021REMSYN070AAXX  02184 83236 32598 22703 10311 20128 39620 40111 82100 333 58002;EQDQ01  00002PRCP99
0208832360999992001070300004-12140-045000FM-12+044099999V0201801N001012200019N0200001N1+02041+01501101451ADDAA199000091GA1001+999999999GF100991001001999999001001KA1240M+03201MA1999999096471MD1999999+0051REMSYN082AAXX  03004 83236 32998 01802 10204 20150 39647 40145 333 10320 29060 55101 58005;EQDQ01  00002PRCP99
0186832360999992001070312004-12140-045000FM-12+044099999V0209999C000012200019N0200001N1+02141+01391101741ADDAA199000091GF103991011001022501041041KA1240N+01391MA1999999096751MD1999999+0041REMSYN076AAXX  03124 83236 32898 30000 10214 20139 39675 40174 81044 333 20139 58004;EQDQ01  00002PRCP99
0167832360999992001070318004-12140-045000FM-12+044099999V0201801N001512200019N0200001N1+03151+01411101181ADDAA199000091GF103991031021008001001001MA1999999096271MD1999999+0071REMSYN070AAXX  03184 83236 32598 31803 10315 20141 39627 40118 83200 333 58007;EQDQ01  00002PRCP99
0198832360999992001070400004-12140-045000FM-12+044099999V0201801N001512200019N0200001N1+02231+01411101401ADDAA199000091GF104991011061008001001041KA1240M+03261MA1999999096451MD1999999-0021REMSYN088AAXX  04004 83236 32598 41803 10223 20141 39645 40140 81604 333 10326 29054 55102 59002;EQDQ01  00002PRCP99
0186832360999992001070412004-12140-045000FM-12+044099999V0209999C000019999999N0200001N1+02131+01341101711ADDAA199000091GF105991001001999999001061KA1240N+01351MA1999999096741MD1999999-0011REMSYN076AAXX  04124 83236 32998 50000 10213 20134 39674 40171 80006 333 20135 59001;EQDQ01  00002PRCP99
0167832360999992001070418004-12140-045000FM-12+044099999V0201801N001511050019N0200001N1+03151+01171101201ADDAA199000091GF105991021021008001001051MA1999999096291MD1999999+0021REMSYN070AAXX  04184 83236 32598 51803 10315 20117 39629 40120 82205 333 58002;EQDQ01  00002PRCP99
0198832360999992001070500004-12140-045000FM-12+044099999V0202701N002111050019N0200001N1+02281+01561101441ADDAA199000091GF105991031031022501001051KA1240M+03031MA1999999096481MD1999999+0031REMSYN088AAXX  05004 83236 32898 52704 10228 20156 39648 40144 83305 333 10303 29055 55081 58003;EQDQ01  00002PRCP99
0186832360999992001070512004-12140-045000FM-12+044099999V0202301N001512200019N0200001N1+02241+01481101721ADDAA199000091GF101991011011008001001001KA1240N+01471MA1999999096761MD1999999+0021REMSYN076AAXX  05124 83236 32598 12303 10224 20148 39676 40172 81100 333 20147 58002;EQDQ01  00002PRCP99
0167832360999992001070518004-12140-045000FM-12+044099999V0201801N002112200019N0200001N1+03151+01271101221ADDAA199000091GF104991041021008001001001MA1999999096321MD1999999+0031REMSYN070AAXX  05184 83236 32598 41804 10315 20127 39632 40122 84200 333 58003;EQDQ01  00002PRCP99
0198832360999992001070600004-12140-045000FM-12+044099999V0202701N002012200019N0200001N1+02151+01521101451ADDAA199000091GF102991021001022501061001KA1240M+03211MA1999999096491MD1999999+0011REMSYN088AAXX  06000 83236 32898 22702 10215 20152 39649 40145 82060 333 10321 29057 55087 58001;EQDQ01  00002PRCP99
0196832360999992001070612004-12140-045000FM-12+044099999V0201801N001512200019N0200001N1+02281+01511101571ADDAA199000091GA1001+999999999GF100991001001999999001001KA1240N+01541MA1999999096611MD1999999-0151REMSYN070AAXX  06124 83236 32998 01803 10228 20151 39661 40157 333 20154 59015;EQDQ01  00002PRCP99
0167832360999992001070618004-12140-045000FM-12+044099999V0200901N004612200019N0200001N1+03051+01371101101ADDAA199000091GF104991041021008001001001MA1999999096221MD1999999-0101REMSYN070AAXX  06184 83236 32598 40909 10305 20137 39622 40110 84200 333 59010;EQDQ01  00002PRCP99
0198832360999992001070700004-12140-045000FM-12+044099999V0202701N001012200019N0200001N1+02411+01381101451ADDAA199000091GF104991041001022501031001KA1240M+03241MA1999999096511MD1999999+0021REMSYN088AAXX  07004 83236 32898 42702 10241 20138 39651 40145 84030 333 10324 29051 55093 58002;EQDQ01  00002PRCP99
0186832360999992001070712004-12140-045000FM-12+044099999V0200901N005112200019N0200001N1+02381+01661101761ADDAA199000091GF103991011001022501041041KA1240N+01561MA1999999096841MD1999999+0231REMSYN076AAXX  07124 83236 32898 30910 10238 20166 39684 40176 81044 333 20156 58023;EQDQ01  00002PRCP99
0167832360999992001070718004-12140-045000FM-12+044099999V0200901N006710075019N0200001N1+02811+01531101411ADDAA199000091GF108991081051008001999999MA1999999096491MD1999999+0271REMSYN070AAXX  07184 83236 32598 80913 10281 20153 39649 40141 885// 333 58027;EQDQ01  00002PRCP99
0111832360999992001070800004-12140-045000FM-12+044099999V0201801N001519999999N0200001N1+02401+99999999999ADDAA106000191GF108991999999008001999999MD1810141+9999REMSYN048AAXX  08004 83236 32598 81803 10240 58014 69911;
0186832360999992001070812004-12140-045000FM-12+044099999V0201801N005112200019N0200001N1+02261+01571101951ADDAA199000091GF103991031011008001001001KA1240N+01751MA1999999097001MD1999999+0161REMSYN076AAXX  08124 83236 32598 31810 10226 20157 39700 40195 83100 333 20175 58016;EQDQ01  00002PRCP99
0167832360999992001070818004-12140-045000FM-12+044099999V0201401N002612200019N0200001N1+03011+01411101371ADDAA199000091GF104991041011008001001001MA1999999096481MD1999999-0011REMSYN070AAXX  08184 83236 32598 41405 10301 20141 39648 40137 84100 333 59001;EQDQ01  00002PRCP99
0198832360999992001070900004-12140-045000FM-12+044099999V0201801N002112200019N0200001N1+02261+01521101581ADDAA199000091GF104991041081008001001001KA1240M+03151MA1999999096631MD1999999-0021REMSYN088AAXX  09004 83236 32598 41804 10226 20152 39663 40158 84800 333 10315 29057 55100 59002;EQDQ01  00002PRCP99
0196832360999992001070912004-12140-045000FM-12+044099999V0201801N002612200019N0200001N1+02151+01431101771ADDAA199000091GA1001+999999999GF100991001001999999001001KA1240N+01421MA1999999096801MD1999999-0201REMSYN070AAXX  09124 83236 32998 01805 10215 20143 39680 40177 333 20142 59020;EQDQ01  00002PRCP99
0177832360999992001070918004-12140-045000FM-12+044099999V0200901N003112200019N0200001N1+03131+01251101191ADDAA199000091GA1001+999999999GF100991001001999999001001MA1999999096321MD1999999-0161REMSYN064AAXX  09184 83236 32998 00906 10313 20125 39632 40119 333 59016;EQDQ01  00002PRCP99
0208832360999992001071000004-12140-045000FM-12+044099999V0202301N001512200019N0200001N1+02341+01301101431ADDAA199000091GA1001+999999999GF100991001001999999001001KA1240M+03231MA1999999096481MD1999999-0151REMSYN082AAXX  10004 83236 32998 02303 10234 20130 39648 40143 333 10323 29050 55106 59015;EQDQ01  00002PRCP99
0196832360999992001071012004-12140-045000FM-12+044099999V0201801N001512200019N0200001N1+02181+01491101591ADDAA199000091GA1001+999999999GF100991001001999999001001KA1240N+01491MA1999999096641MD1999999-0161REMSYN070AAXX  10124 83236 32998 01803 10218 20149 39664 40159 333 20149 59016;EQDQ01  00002PRCP99
0167832360999992001071018004-12140-045000FM-12+044099999V0201801N002612200019N0200001N1+03061+01421100991ADDAA199000091GF103991031021008001001001MA1999999096101MD1999999-0221REMSYN070AAXX  10184 83236 32598 31805 10306 20142 39610 40099 83200 333 59022;EQDQ01  00002PRCP99
0208832360999992001071100004-12140-045000FM-12+044099999V0202301N001012200019N0200001N1+02101+01531101281ADDAA199000091GA1001+999999999GF100991001001999999001001KA1240M+03171MA1999999096321MD1999999-0161REMSYN082AAXX  11004 83236 32998 02302 10210 20153 39632 40128 333 10317 29058 55106 59016;EQDQ01  00002PRCP99
0186832360999992001071112004-12140-045000FM-12+044099999V0209999C000012200019N0200001N1+02061+01151101751ADDAA199000091GF103991001001999999001041KA1240N+01271MA1999999096751MD1999999+0111REMSYN076AAXX  11124 83236 32998 30000 10206 20115 39675 40175 80004 333 20127 58011;EQDQ01  00002PRCP99
0167832360999992001071118004-12140-045000FM-12+044099999V0203201N001512200019N0200001N1+03121+01161101151ADDAA199000091GF102991021021012501001001MA1999999096231MD1999999+0131REMSYN070AAXX  11184 83236 32698 23203 10312 20116 39623 40115 82200 333 58013;EQDQ01  00002PRCP99
0208832360999992001071200004-12140-045000FM-12+044099999V0201801N001512200019N0200001N1+02031+01391101391ADDAA199000091GA1001+999999999GF100991001001999999001001KA1240M+03201MA1999999096411MD1999999+0091REMSYN082AAXX  12004 83236 32998 01803 10203 20139 39641 40139 333 10320 29055 55105 58009;EQDQ01  00002PRCP99
0186832360999992001071212004-12140-045000FM-12+044099999V0201801N001012200019N0200001N1+02061+01331101751ADDAA199000091GF103991011001022501071041KA1240N+01331MA1999999096751MD1999999+0001REMSYN076AAXX  12124 83236 32898 31802 10206 20133 39675 40175 81074 333 20133 58000;EQDQ01  00002PRCP99
0167832360999992001071218004-12140-045000FM-12+044099999V0202301N001511050019N0200001N1+03201+01071101141ADDAA199000091GF105991041021012501001051MA1999999096241MD1999999+0011REMSYN070AAXX  12184 83236 32698 52303 10320 20107 39624 40114 84205 333 58001;EQDQ01  00002PRCP99
0198832360999992001071300004-12140-045000FM-12+044099999V0209999C000012200019N0200001N1+02121+01531101381ADDAA199000091GF103991001001999999001041KA1240M+03351MA1999999096411MD1999999+0001REMSYN088AAXX  13004 83236 32998 30000 10212 20153 39641 40138 80004 333 10335 29057 55103 58000;EQDQ01  00002PRCP99
0186832360999992001071312004-12140-045000FM-12+044099999V0202301N001512200019N0200001N1+02181+01211101411ADDAA199000091GF105991031001022501041081KA1240N+01371MA1999999096621MD1999999-0131REMSYN076AAXX  13124 83236 32898 52303 10218 20121 39662 40141 83048 333 20137 59013;EQDQ01  00002PRCP99
0167832360999992001071318004-12140-045000FM-12+044099999V0200501N001511050019N0200001N1+03411+00791101021ADDAA199000091GF106991041021008001001071MA1999999096141MD1999999-0101REMSYN070AAXX  13184 83236 32598 60503 10341 20079 39614 40102 84207 333 59010;EQDQ01  00002PRCP99
0186832360999992001071612004-12140-045000FM-12+044099999V0200501N001012200019N0200001N1+02211+01411101691ADDAA199000091GF102991001001999999001041KA1240N+01401MA1999999096781MD1999999+0061REMSYN076AAXX  16124 83236 32998 20502 10221 20141 39678 40169 80004 333 20140 58006;EQDQ01  00002PRCP99
0167832360999992001071618004-12140-045000FM-12+044099999V0200901N003110450019N0200001N1+02991+01231101161ADDAA199000091GF106991041021008001071001MA1999999096241MD1999999+0021REMSYN070AAXX  16184 83236 32598 60906 10299 20123 39624 40116 84270 333 58002;EQDQ01  00002PRCP99
0198832360999992001071700004-12140-045000FM-12+044099999V0201801N001010450019N0200001N1+02441+01331101411ADDAA199000091GF106991021031008001071001KA1240M+03151MA1999999096491MD1999999+0101REMSYN088AAXX  17004 83236 32598 61802 10244 20133 39649 40141 82370 333 10315 29049 55092 58010;EQDQ01  00002PRCP99
0186832360999992001071712004-12140-045000FM-12+044099999V0209999C000012200019N0200001N1+02211+01341101681ADDAA199000091GF105991021001022501021041KA1240N+01551MA1999999096731MD1999999-0051REMSYN076AAXX  17124 83236 32898 50000 10221 20134 39673 40168 82024 333 20155 59005;EQDQ01  00002PRCP99
0167832360999992001071718004-12140-045000FM-12+044099999V0200501N003611050019N0200001N1+03131+01161101051ADDAA199000091GF106991041021008001001051MA1999999096181MD1999999-0061REMSYN070AAXX  17184 83236 32598 60507 10313 20116 39618 40105 84205 333 59006;EQDQ01  00002PRCP99
0198832360999992001071800004-12140-045000FM-12+044099999V0201801N001512200019N0200001N1+02481+01511101361ADDAA199000091GF103991031021012501001001KA1240M+03321MA1999999096441MD1999999-0051REMSYN088AAXX  18004 83236 32698 31803 10248 20151 39644 40136 83200 333 10332 29050 55101 59005;EQDQ01  00002PRCP99
0173832360999992001071812004-12140-045000FM-12+044099999V0201401N001012200019N0200001N1+02341+01641101611ADDAA124000391GF103991001001999999001051KA1240N+01761MA1999999096691MD1999999-0041REMSYN082AAXX  18124 83236 22998 31402 10234 20164 39669 40161 80005 333 20176 59004 69934;
0198832360999992001071900004-12140-045000FM-12+044099999V0202701N001012200019N0200001N1+02271+01791101321ADDAA199000091GF102991021021012501001001KA1240M+03331MA1999999096391MD1999999-0051REMSYN088AAXX  19004 83236 32698 22702 10227 20179 39639 40132 82200 333 10333 29063 55099 59005;EQDQ01  00002PRCP99
0196832360999992001071912004-12140-045000FM-12+044099999V0201801N001012200019N0200001N1+02371+01611101631ADDAA199000091GA1001+999999999GF100991001001999999001001KA1240N+01681MA1999999096681MD1999999-0011REMSYN070AAXX  19124 83236 32998 01802 10237 20161 39668 40163 333 20168 59001;EQDQ01  00002PRCP99
0167832360999992001071918004-12140-045000FM-12+044099999V0201401N003110075019N0200001N1+03361+01411100981ADDAA199000091GF105991051021008001001001MA1999999096141MD1999999-0081REMSYN070AAXX  19184 83236 32598 51406 10336 20141 39614 40098 85200 333 59008;EQDQ01  00002PRCP99
0198832360999992001072000004-12140-045000FM-12+044099999V0201801N001512200019N0200001N1+02311+01611101201ADDAA199000091GF104991041021012501001001KA1240M+03471MA1999999096291MD1999999-0101REMSYN088AAXX  20004 83236 32698 41803 10231 20161 39629 40120 84200 333 10347 29056 55093 59010;EQDQ01  00002PRCP99
0196832360999992001072012004-12140-045000FM-12+044099999V0200501N001512200019N0200001N1+02411+01651101391ADDAA199000091GA1001+999999999GF100991001001999999001001KA1240N+01751MA1999999096471MD1999999-0211REMSYN070AAXX  20124 83236 32998 00503 10241 20165 39647 40139 333 20175 59021;EQDQ01  00002PRCP99
0167832360999992001072018004-12140-045000FM-12+044099999V0200501N002612200019N0200001N1+03321+01381100771ADDAA199000091GF103991031021008001001001MA1999999095971MD1999999-0171REMSYN070AAXX  20184 83236 32598 30505 10332 20138 39597 40077 83200 333 59017;EQDQ01  00002PRCP99
0198832360999992001072100004-12140-045000FM-12+044099999V0209999C000012200019N0200001N1+02391+01871101121ADDAA199000091GF103991031021012501001001KA1240M+03431MA1999999096221MD1999999-0071REMSYN088AAXX  21004 83236 32698 30000 10239 20187 39622 40112 83200 333 10343 29060 55106 59007;EQDQ01  00002PRCP99
0186832360999992001072112004-12140-045000FM-12+044099999V0209999C000010450019N0200001N1+02171+01431101541ADDAA199000091GF105991031021008001061001KA1240N+01851MA1999999096601MD1999999+0131REMSYN076AAXX  21124 83236 32598 50000 10217 20143 39660 40154 83260 333 20185 58013;EQDQ01  00002PRCP99
0167832360999992001072118004-12140-045000FM-12+044099999V0200901N001512200019N0200001N1+03351+01241100851ADDAA199000091GF104991041021008001001001MA1999999096051MD1999999+0081REMSYN070AAXX  21184 83236 32598 40903 10335 20124 39605 40085 84200 333 58008;EQDQ01  00002PRCP99
0198832360999992001072200004-12140-045000FM-12+044099999V0202301N001512200019N0200001N1+02321+01581101181ADDAA199000091GF102991021021008001001001KA1240M+03511MA1999999096271MD1999999+0051REMSYN088AAXX  22004 83236 32598 22303 10232 20158 39627 40118 82200 333 10351 29054 55078 58005;EQDQ01  00002PRCP99
0186832360999992001072212004-12140-045000FM-12+044099999V0200501N004612200019N0200001N1+02501+01421101421ADDAA199000091GF102991001001999999001041KA1240N+01521MA1999999096511MD1999999-0091REMSYN076AAXX  22124 83236 32998 20509 10250 20142 39651 40142 80004 333 20152 59009;EQDQ01  00002PRCP99
0167832360999992001072218004-12140-045000FM-12+044099999V0200501N003112200019N0200001N1+03421+01141100891ADDAA199000091GF102991021021012501001001MA1999999096051MD1999999+0001REMSYN070AAXX  22184 83236 32698 20506 10342 20114 39605 40089 82200 333 58000;EQDQ01  00002PRCP99
0198832360999992001072300004-12140-045000FM-12+044099999V0209999C000012200019N0200001N1+02311+01401101131ADDAA199000091GF104991041021999999001001KA1240M+03551MA1999999096231MD1999999-0041REMSYN088AAXX  23004 83236 32998 40000 10231 20140 39623 40113 84200 333 10355 29048 5505/ 59004;EQDQ01  00002PRCP99
0186832360999992001072312004-12140-045000FM-12+044099999V0209999C000012200019N0200001N1+02421+01341101421ADDAA199000091GF103991011021012501001051KA1240N+01631MA1999999096501MD1999999-0011REMSYN076AAXX  23124 83236 32698 30000 10242 20134 39650 40142 81205 333 20163 59001;EQDQ01  00002PRCP99
0167832360999992001072318004-12140-045000FM-12+044099999V0201401N003110450019N0200001N1+03391+00911100901ADDAA199000091GF106991031021008001071001MA1999999096071MD1999999+0021REMSYN070AAXX  23184 83236 32598 61406 10339 20091 39607 40090 83270 333 58002;EQDQ01  00002PRCP99
0198832360999992001072400004-12140-045000FM-12+044099999V0201801N001012200019N0200001N1+02581+01161101181ADDAA199000091GF103991031021008001001001KA1240M+03571MA1999999096301MD1999999+0071REMSYN088AAXX  24004 83236 32598 31802 10258 20116 39630 40118 83200 333 10357 29039 55086 58007;EQDQ01  00002PRCP99
0224832360999992001072412004-12140-045000FM-12+044099999V0209999C000012200019N0100001N1+02361+01511101581ADDAA199000091AY101061AY241061GA1001+999999999GF100991001001999999001001KA1240N+01581MA1999999096671MD1999999+0171MW1051REMSYN076AAXX  24124 83236 31997 00000 10236 20151 39667 40158 70504 333 20158 58017;EQDQ01  00002PRCP99
0195832360999992001072418004-12140-045000FM-12+044099999V0201401N004612200019N0100001N1+03251+01211101141ADDAA199000091AY101061AY241061GF102991021011008001001001MA1999999096291MD1999999+0221MW1051REMSYN076AAXX  24184 83236 31597 21409 10325 20121 39629 40114 70504 82100 333 58022;EQDQ01  00002PRCP99
0236832360999992001072500004-12140-045000FM-12+044099999V0201801N003112200019N0100001N1+02391+01281101291ADDAA199000091AY101061AY241061GA1001+999999999GF100991001001999999001001KA1240M+03321MA1999999096381MD1999999+0081MW1051REMSYN088AAXX  25004 83236 31997 01806 10239 20128 39638 40129 70504 333 10332 29047 55103 58008;EQDQ01  00002PRCP99
0224832360999992001072512004-12140-045000FM-12+044099999V0203601N001012200019N0100001N1+02261+01441101651ADDAA199000091AY101061AY241061GA1001+999999999GF100991001001999999001001KA1240N+01431MA1999999096701MD1999999+0031MW1051REMSYN076AAXX  25124 83236 31997 03602 10226 20144 39670 40165 70504 333 20143 58003;EQDQ01  00002PRCP99
0195832360999992001072518004-12140-045000FM-12+044099999V0200501N004612200019N0100001N1+03101+01191101161ADDAA199000091AY101061AY241061GF101991011011008001001001MA1999999096261MD1999999-0031MW1051REMSYN076AAXX  25184 83236 31597 10509 10310 20119 39626 40116 70504 81100 333 59003;EQDQ01  00002PRCP99
0198832360999992001072600004-12140-045000FM-12+044099999V0201401N001512200019N0100001N1+02411+01231101361ADDAA199000091GF102991021001022501061001KA1240M+03211MA1999999096441MD1999999+0061REMSYN088AAXX  26004 83236 32897 21403 10241 20123 39644 40136 82060 333 10321 29047 55105 58006;EQDQ01  00002PRCP99
0186832360999992001072612004-12140-045000FM-12+044099999V0202701N000512200019N0200001N1+02281+01491101781ADDAA199000091GF101991011011008001001001KA1240N+01511MA1999999096841MD1999999+0141REMSYN076AAXX  26124 83236 32598 12701 10228 20149 39684 40178 81100 333 20151 58014;EQDQ01  00002PRCP99
0167832360999992001072618004-12140-045000FM-12+044099999V0201401N005712200019N0100001N1+03121+01211101261ADDAA199000091GF101991011011008001001001MA1999999096361MD1999999+0101REMSYN070AAXX  26184 83236 32597 11411 10312 20121 39636 40126 81100 333 58010;EQDQ01  00002PRCP99
0236832360999992001072700004-12140-045000FM-12+044099999V0202701N001012200019N0100001N1+02221+01111101451ADDAA199000091AY101061AY241061GA1001+999999999GF100991001001999999001001KA1240M+03171MA1999999096501MD1999999+0061MW1051REMSYN088AAXX  27004 83236 31997 02702 10222 20111 39650 40145 70504 333 10317 29048 55105 58006;EQDQ01  00002PRCP99
0224832360999992001072712004-12140-045000FM-12+044099999V0209999C000012200019N0100001N1+02141+01171101871ADDAA199000091AY101061AY241061GA1001+999999999GF100991001001999999001001KA1240N+01311MA1999999096891MD1999999+0051MW1051REMSYN076AAXX  27124 83236 31997 00000 10214 20117 39689 40187 70504 333 20131 58005;EQDQ01  00002PRCP99
0205832360999992001072718004-12140-045000FM-12+044099999V0201401N002112200019N0100001N1+03091+00911101311ADDAA199000091AY101061AY241061GA1001+999999999GF100991001001999999001001MA1999999096391MD1999999+0031MW1051REMSYN070AAXX  27184 83236 31997 01404 10309 20091 39639 40131 70504 333 58003;EQDQ01  00002PRCP99
0236832360999992001072800004-12140-045000FM-12+044099999V0201801N001512200019N0100001N1+02031+01051101571ADDAA199000091AY101061AY241061GA1001+999999999GF100991001001999999001001KA1240M+03231MA1999999096591MD1999999+0091MW1051REMSYN088AAXX  28004 83236 31997 01803 10203 20105 39659 40157 70504 333 10323 29047 55105 58009;EQDQ01  00002PRCP99
0214832360999992001072812004-12140-045000FM-12+044099999V0209999C000012200019N0100001N1+02021+01091101921ADDAA199000091AY101061AY241061GF102991021001022501061001KA1240N+01201MA1999999096901MD1999999+0011MW1051REMSYN082AAXX  28124 83236 31897 20000 10202 20109 39690 40192 70504 82060 333 20120 58001;EQDQ01  00002PRCP99
0195832360999992001072818004-12140-045000FM-12+044099999V0200901N001012200019N0100001N1+03021+01021101231ADDAA199000091AY101061AY241061GF104991041021008001001001MA1999999096381MD1999999-0011MW1051REMSYN076AAXX  28184 83236 31597 40902 10302 20102 39638 40123 70504 84200 333 59001;EQDQ01  00002PRCP99
0215832360999992001072900004-12140-045000FM-12+044099999V0202301N000512200019N0100001N1+01971+01331101551ADDAA199000091AY101061AY241061GA1001+999999999GF100991001001999999001001KA1240M+03151MD1999999-0041MW1051REMSYN082AAXX  29004 83236 31997 02301 10197 20133 40155 70504 333 10315 29054 55095 59004;EQDQ01  00002PRCP99
0224832360999992001072912004-12140-045000FM-12+044099999V0201801N000512200019N0100001N1+01901+01201101791ADDAA199000091AY101061AY241061GA1001+999999999GF100991001001999999001001KA1240N+01141MA1999999096771MD1999999-0131MW1051REMSYN076AAXX  29124 83236 31997 01801 10190 20120 39677 40179 70504 333 20114 59013;EQDQ01  00002PRCP99
0195832360999992001072918004-12140-045000FM-12+044099999V0201401N002112200019N0100001N1+03041+00961101221ADDAA199000091AY101061AY241061GF102991001001999999001081MA1999999096301MD1999999-0081MW1051REMSYN076AAXX  29184 83236 31997 21404 10304 20096 39630 40122 70504 80008 333 59008;EQDQ01  00002PRCP99
0236832360999992001073000004-12140-045000FM-12+044099999V0201401N002112200019N0100001N1+02331+01251101391ADDAA199000091AY101061AY241061GA1001+999999999GF100991001001999999001001KA1240M+03251MA1999999096511MD1999999-0041MW1051REMSYN088AAXX  30004 83236 31997 01404 10233 20125 39651 40139 70504 333 10325 29048 55106 59004;EQDQ01  00002PRCP99
0224832360999992001073012004-12140-045000FM-12+044099999V0201801N002112200019N0100001N1+02221+01331101921ADDAA199000091AY101061AY241061GA1001+999999999GF100991001001999999001001KA1240N+01401MA1999999096961MD1999999+0191MW1051REMSYN076AAXX  30124 83236 31997 01804 10222 20133 39696 40192 70504 333 20140 58019;EQDQ01  00002PRCP99
0205832360999992001073018004-12140-045000FM-12+044099999V0201401N005712200019N0100001N1+03111+00751101351ADDAA199000091AY101061AY241061GA1001+999999999GF100991001001999999001001MA1999999096441MD1999999+0141MW1051REMSYN070AAXX  30184 83236 31997 01411 10311 20075 39644 40135 70504 333 58014;EQDQ01  00002PRCP99
0236832360999992001073100004-12140-045000FM-12+044099999V0201801N002112200019N0100001N1+02271+00971101661ADDAA199000091AY101061AY241061GA1001+999999999GF100991001001999999001001KA1240M+03191MA1999999096701MD1999999+0191MW1051REMSYN088AAXX  31004 83236 32997 01804 10227 20097 39670 40166 70504 333 10319 29042 55107 58019;EQDQ01  00002PRCP99
0202832360999992001073112004-12140-045000FM-12+044099999V0200901N001512200019N0200001N1+02311+01611101961ADDAA199000091GF102991999011008001001001KA1240N+01491MA1999999097001MD1999999+0041REMSYN076AAXX  31124 83236 32598 20903 10231 20161 39700 40196 83100 333 20149 58004;EQDQ01+000032SCOTLCQ02  00002PRCP99
0167832360999992001073118004-12140-045000FM-12+044099999V0200901N005112200019N0200001N1+02921+01221101471ADDAA199000091GF104991041021008001001001MA1999999096571MD1999999+0131REMSYN070AAXX  31184 83236 32598 40910 10292 20122 39657 40147 84200 333 58013;EQDQ01  00002PRCP99
0198832360999992001080100004-12140-045000FM-12+044099999V0201401N002110120019N0100001N1+02431+01251101661ADDAA199000091GF107991071081008001001001KA1240M+03161MA1999999096731MD1999999+0031REMSYN088AAXX  01004 83236 32597 71404 10243 20125 39673 40166 87800 333 10316 29049 55092 58003;EQDQ01  00002PRCP99
0186832360999992001080112004-12140-045000FM-12+044099999V0200901N005712200019N0200001N1+02451+01531102011ADDAA199000091GF103991031011008001001001KA1240N+01971MA1999999097081MD1999999+0081REMSYN076AAXX  01124 83236 32598 30911 10245 20153 39708 40201 83100 333 20197 58008;EQDQ01  00002PRCP99
0167832360999992001080118004-12140-045000FM-12+044099999V0201401N005112200019N0200001N1+02881+01271101541ADDAA199000091GF104991041021008001001001MA1999999096651MD1999999+0081REMSYN070AAXX  01184 83236 32598 41410 10288 20127 39665 40154 84200 333 58008;EQDQ01  00002PRCP99
0198832360999992001080200004-12140-045000FM-12+044099999V0201401N004610120019N0100001N1+02541+01391101691ADDAA199000091GF106991061081008001001001KA1240M+03101MA1999999096781MD1999999+0051REMSYN088AAXX  02004 83236 32597 61409 10254 20139 39678 40169 86800 333 10310 29048 55095 58005;EQDQ01  00002PRCP99
0186832360999992001080212004-12140-045000FM-12+044099999V0200901N003610075019N0100001N1+02331+01581101951ADDAA199000091GF107991071051008001001001KA1240N+02011MA1999999097021MD1999999-0061REMSYN076AAXX  02124 83236 32597 70907 10233 20158 39702 40195 87500 333 20201 59006;EQDQ01  00002PRCP99
0167832360999992001080218004-12140-045000FM-12+044099999V0200901N006712200019N0100001N1+03031+01171101431ADDAA199000091GF104991041021008001001001MA1999999096571MD1999999-0081REMSYN070AAXX  02184 83236 32597 40913 10303 20117 39657 40143 84200 333 59008;EQDQ01  00002PRCP99
0198832360999992001080300004-12140-045000FM-12+044099999V0201801N003610120019N0100001N1+02621+01191101621ADDAA199000091GF107991071081008001001001KA1240M+03041MA1999999096721MD1999999-0061REMSYN088AAXX  03004 83236 32597 71807 10262 20119 39672 40162 87800 333 10304 29044 55064 59006;EQDQ01  00002PRCP99
0186832360999992001080312004-12140-045000FM-12+044099999V0200901N004112200019N0200001N1+02341+01011101941ADDAA199000091GF101991011011008001001001KA1240N+01751MA1999999097021MD1999999+0001REMSYN076AAXX  03124 83236 32598 10908 10234 20101 39702 40194 81100 333 20175 58000;EQDQ01  00002PRCP99
0177832360999992001080318004-12140-045000FM-12+044099999V0200901N003612200019N0200001N1+03011+00601101401ADDAA199000091GA1001+999999999GF100991001001999999001001MA1999999096541MD1999999-0031REMSYN064AAXX  03184 83236 32598 00907 10301 20060 39654 40140 333 59003;EQDQ01  00002PRCP99
0198832360999992001080400004-12140-045000FM-12+044099999V0202701N001012200019N0200001N1+02171+01301101651ADDAA199000091GF103991031011008001001001KA1240M+03131MA1999999096691MD1999999-0031REMSYN088AAXX  04004 83236 32598 32702 10217 20130 39669 40165 83100 333 10313 29045 55105 59003;EQDQ01  00002PRCP99
0186832360999992001080412004-12140-045000FM-12+044099999V0201401N003112200019N0200001N1+02321+01281101991ADDAA199000091GF103991031021012501001001KA1240N+01871MA1999999097021MD1999999+0001REMSYN076AAXX  04124 83236 32698 31406 10232 20128 39702 40199 83200 333 20187 58000;EQDQ01  00002PRCP99
0167832360999992001080418004-12140-045000FM-12+044099999V0201401N003612200019N0200001N1+02951+01151101411ADDAA199000091GF103991031021012501001001MA1999999096531MD1999999-0011REMSYN070AAXX  04184 83236 32698 31407 10295 20115 39653 40141 83200 333 59001;EQDQ01  00002PRCP99
0198832360999992001080500004-12140-045000FM-12+044099999V0201401N004110075019N0200001N1+02521+01211101611ADDAA199000091GF105991051021008001001001KA1240M+03041MA1999999096691MD1999999+0001REMSYN088AAXX  05004 83236 32598 51408 10252 20121 39669 40161 85200 333 10304 29043 55098 58000;EQDQ01  00002PRCP99
0186832360999992001080512004-12140-045000FM-12+044099999V0200501N001010450019N0200001N1+02321+01511101901ADDAA199000091GF107991031021012501071051KA1240N+01721MA1999999096961MD1999999-0061REMSYN076AAXX  05124 83236 32698 70502 10232 20151 39696 40190 83275 333 20172 59006;EQDQ01  00002PRCP99
0167832360999992001080518004-12140-045000FM-12+044099999V0200901N004610120019N0200001N1+02881+01221101391ADDAA199000091GF105991051021012501001001MA1999999096491MD1999999-0041REMSYN070AAXX  05184 83236 32698 50909 10288 20122 39649 40139 85200 333 59004;EQDQ01  00002PRCP99
0198832360999992001080600004-12140-045000FM-12+044099999V0201801N002110450019N0200001N1+02271+01421101681ADDAA199000091GF106991021011012501051001KA1240M+03081MA1999999096721MD1999999+0031REMSYN088AAXX  06004 83236 32698 61804 10227 20142 39672 40168 82150 333 10308 29054 55078 58003;EQDQ01  00002PRCP99
0186832360999992001080612004-12140-045000FM-12+044099999V0201401N001512200019N0200001N1+02441+01561101821ADDAA199000091GF101991011011008001001001KA1240N+01641MA1999999096881MD1999999-0081REMSYN076AAXX  06124 83236 32598 11403 10244 20156 39688 40182 81100 333 20164 59008;EQDQ01  00002PRCP99
0198832360999992001080700004-12140-045000FM-12+044099999V0201801N002612200019N0200001N1+02421+01121101671ADDAA199000091GF103991031001022501061001KA1240M+03231MA1999999096751MD1999999+0031REMSYN088AAXX  07004 83236 32898 31805 10242 20112 39675 40167 83060 333 10323 29044 55098 58003;EQDQ01  00002PRCP99
0224832360999992001080712004-12140-045000FM-12+044099999V0200901N007212200019N0100001N1+02361+01061102061ADDAA199000091AY101061AY231061GA1001+999999999GF100991001001999999001001KA1240N+01241MA1999999097121MD1999999+0241MW1071REMSYN076AAXX  07124 83236 31997 00914 10236 20106 39712 40206 70703 333 20124 58024;EQDQ01  00002PRCP99
0205832360999992001080718004-12140-045000FM-12+044099999V0200901N002612200019N0100001N1+02991+00881101491ADDAA199000091AY101061AY241061GA1001+999999999GF100991001001999999001001MA1999999096561MD1999999+0081MW1051REMSYN070AAXX  07184 83236 31997 00905 10299 20088 39656 40149 70504 333 58008;EQDQ01  00002PRCP99
0208832360999992001080800004-12140-045000FM-12+044099999V0201801N002612200019N0100001N1+02301+00981101701ADDAA199000091GA1001+999999999GF100991001001999999001001KA1240M+03101MA1999999096761MD1999999+0011REMSYN082AAXX  08004 83236 32997 01805 10230 20098 39676 40170 333 10310 29039 55105 58001;EQDQ01  00002PRCP99
0196832360999992001080812004-12140-045000FM-12+044099999V0201401N002612200019N0200001N1+02351+01181101931ADDAA199000091GA1001+999999999GF100991001001999999001001KA1240N+01291MA1999999096971MD1999999-0151REMSYN070AAXX  08124 83236 32998 01405 10235 20118 39697 40193 333 20129 59015;EQDQ01  00002PRCP99
0167832360999992001080818004-12140-045000FM-12+044099999V0200901N005112200019N0200001N1+03011+01201101431ADDAA199000091GF105991031011012501001041MA1999999096491MD1999999-0071REMSYN070AAXX  08184 83236 32698 50910 10301 20120 39649 40143 83104 333 59007;EQDQ01  00002PRCP99
0198832360999992001080900004-12140-045000FM-12+044099999V0201801N003112200019N0200001N1+02411+01291101561ADDAA199000091GF103991031011012501001001KA1240M+03151MA1999999096641MD1999999-0121REMSYN088AAXX  09004 83236 32698 31806 10241 20129 39664 40156 83100 333 10315 29045 55105 59012;EQDQ01  00002PRCP99
0186832360999992001080912004-12140-045000FM-12+044099999V0200901N002112200019N0200001N1+02451+01421101841ADDAA199000091GF103991021011012501001031KA1240N+01741MA1999999096921MD1999999-0051REMSYN076AAXX  09124 83236 32698 30904 10245 20142 39692 40184 82103 333 20174 59005;EQDQ01  00002PRCP99
0167832360999992001080918004-12140-045000FM-12+044099999V0201401N002110120019N0200001N1+03001+01201101411ADDAA199000091GF105991051011012501001001MA1999999096531MD1999999+0041REMSYN070AAXX  09184 83236 32698 51404 10300 20120 39653 40141 85100 333 58004;EQDQ01  00002PRCP99
0198832360999992001081000004-12140-045000FM-12+044099999V0202301N002112200019N0200001N1+02521+01241101581ADDAA199000091GF104991041021012501001001KA1240M+03191MA1999999096681MD1999999+0041REMSYN088AAXX  10004 83236 32698 42304 10252 20124 39668 40158 84200 333 10319 29044 55080 58004;EQDQ01  00002PRCP99
0186832360999992001081012004-12140-045000FM-12+044099999V0201801N001511050019N0200001N1+02221+01101101881ADDAA199000091GF105991021011012501001051KA1240N+01451MA1999999096941MD1999999-0021REMSYN076AAXX  10124 83236 32698 51803 10222 20110 39694 40188 82105 333 20145 59002;EQDQ01  00002PRCP99
0208832360999992001081100004-12140-045000FM-12+044099999V0202301N002112200019N0200001N1+02231+01131101611ADDAA199000091GA1001+999999999GF100991001001999999001001KA1240M+03211MA1999999096651MD1999999-0031REMSYN082AAXX  11004 83236 32998 02304 10223 20113 39665 40161 333 10321 29044 55106 59003;EQDQ01  00002PRCP99
0214832360999992001081112004-12140-045000FM-12+044099999V0201401N002612200019N0100001N1+02491+01341101821ADDAA199000091AY101061AY241061GF103991001001999999001051KA1240N+01321MA1999999096881MD1999999-0061MW1051REMSYN082AAXX  11124 83236 31997 31405 10249 20134 39688 40182 70504 80005 333 20132 59006;EQDQ01  00002PRCP99
0195832360999992001081118004-12140-045000FM-12+044099999V0200901N001010450019N0100001N1+03051+00871101361ADDAA199000091AY101061AY241061GF107991011011008001041091MA1999999096461MD1999999+0051MW1051REMSYN076AAXX  11184 83236 31597 70902 10305 20087 39646 40136 70504 81149 333 58005;EQDQ01  00002PRCP99
0198832360999992001081200004-12140-045000FM-12+044099999V0202701N001512200019N0100001N1+02121+01361101651ADDAA199000091GF103991001001999999001071KA1240M+03051MA1999999096701MD1999999+0051REMSYN088AAXX  12004 83236 32997 32703 10212 20136 39670 40165 80007 333 10305 29050 55074 58005;EQDQ01  00002PRCP99
0214832360999992001081212004-12140-045000FM-12+044099999V0200901N002112200019N0100001N1+02491+01401101931ADDAA199000091AY101061AY241061GF105991011011008001001061KA1240N+01531MA1999999096971MD1999999+0091MW1051REMSYN082AAXX  12124 83236 31597 50904 10249 20140 39697 40193 70504 81106 333 20153 58009;EQDQ01  00002PRCP99
0167832360999992001081218004-12140-045000FM-12+044099999V0201401N003610450019N0100001N1+02921+01421101451ADDAA199000091GF106991041021008001071051MA1999999096511MD1999999+0051REMSYN070AAXX  12184 83236 32597 61407 10292 20142 39651 40145 84275 333 58005;EQDQ01  00002PRCP99
0198832360999992001081300004-12140-045000FM-12+044099999V0201401N004110120019N0200001N1+02591+01361101621ADDAA199000091GF105991051021012501001001KA1240M+03111MA1999999096731MD1999999+0031REMSYN088AAXX  13004 83236 32698 51408 10259 20136 39673 40162 85200 333 10311 29046 55048 58003;EQDQ01  00002PRCP99
0186832360999992001081312004-12140-045000FM-12+044099999V0201401N002610450019N0200001N1+02281+01441101831ADDAA199000091GF106991021011012501051071KA1240N+01671MA1999999096911MD1999999-0061REMSYN076AAXX  13124 83236 32698 61405 10228 20144 39691 40183 82157 333 20167 59006;EQDQ01  00002PRCP99
0167832360999992001081318004-12140-045000FM-12+044099999V0201401N004610450019N0100001N1+03011+01241101251ADDAA199000091GF107991041021008001051071MA1999999096371MD1999999-0141REMSYN070AAXX  13184 83236 32597 71409 10301 20124 39637 40125 84257 333 59014;EQDQ01  00002PRCP99
0198832360999992001081400004-12140-045000FM-12+044099999V0201801N004112200019N0200001N1+02501+01221101541ADDAA199000091GF104991041011012501001001KA1240M+03171MA1999999096621MD1999999-0111REMSYN088AAXX  14004 83236 32698 41808 10250 20122 39662 40154 84100 333 10317 29048 55081 59011;EQDQ01  00002PRCP99
0186832360999992001081412004-12140-045000FM-12+044099999V0201401N003610450019N0100001N1+02311+01381101791ADDAA199000091GF106991021011012501031051KA1240N+01691MA1999999096861MD1999999-0051REMSYN076AAXX  14124 83236 32697 61407 10231 20138 39686 40179 82135 333 20169 59005;EQDQ01  00002PRCP99
0167832360999992001081418004-12140-045000FM-12+044099999V0201401N001510450019N0100001N1+02921+01081101271ADDAA199000091GF107991041041008001071051MA1999999096391MD1999999+0021REMSYN070AAXX  14184 83236 32597 71403 10292 20108 39639 40127 84475 333 58002;EQDQ01  00002PRCP99
0198832360999992001081500004-12140-045000FM-12+044099999V0201401N003110450019N0100001N1+02611+01061101461ADDAA199000091GF107991031011012501051001KA1240M+03041MA1999999096551MD1999999-0071REMSYN088AAXX  15004 83236 32697 71406 10261 20106 39655 40146 83150 333 10304 29041 55065 59007;EQDQ01  00002PRCP99
0196832360999992001081512004-12140-045000FM-12+044099999V0201401N004112200019N0200001N1+02441+01301102771ADDAA199000091GA1001+999999999GF100991001001999999001001KA1240N+01821MA1999999096861MD1999999+0001REMSYN070AAXX  15124 83236 32998 01408 10244 20130 39686 40277 333 20182 58000;EQDQ01  00002PRCP99
0183832360999992001081518004-12140-045000FM-12+044099999V0200901N001512200019N0200001N1+02991+01091101302ADDAA199000091GF104991041011012501001001MA1999999096431MD1999999+0041REMSYN070AAXX  15184 83236 32698 40903 10299 20109 39643 40130 84100 333 58004;EQDQ01+101303APOSLPQ02  00002PRCP99
0198832360999992001081600004-12140-045000FM-12+044099999V0202301N001512200019N0200001N1+02241+01181101621ADDAA199000091GF102991021011008001001001KA1240M+03161MA1999999096691MD1999999+0141REMSYN088AAXX  16004 83236 32598 22303 10224 20118 39669 40162 82100 333 10316 29046 55098 58014;EQDQ01  00002PRCP99
0186832360999992001081612004-12140-045000FM-12+044099999V0200501N001010120019N0200001N1+02331+01191101971ADDAA199000091GF105991051011012501001001KA1240N+01511MA1999999097011MD1999999+0151REMSYN076AAXX  16124 83236 32698 50502 10233 20119 39701 40197 85100 333 20151 58015;EQDQ01  00002PRCP99
0167832360999992001081618004-12140-045000FM-12+044099999V0201401N001012200019N0200001N1+03121+01051101301ADDAA199000091GF103991031011012501001001MA1999999096411MD1999999-0021REMSYN070AAXX  16184 83236 32698 31402 10312 20105 39641 40130 83100 333 59002;EQDQ01  00002PRCP99
0198832360999992001081700004-12140-045000FM-12+044099999V0201801N003612200019N0100001N1+02331+00891101591ADDAA199000091GF104991041011012501001001KA1240M+03231MA1999999096661MD1999999-0031REMSYN088AAXX  17003 83236 32697 41807 10233 20089 39666 40159 84100 333 10323 29039 55089 59003;EQDQ01  00002PRCP99
0196832360999992001081712004-12140-045000FM-12+044099999V0201801N003112200019N0100001N1+02211+01171101961ADDAA199000091GA1001+999999999GF100991001001999999001001KA1240N+01541MA1999999096991MD1999999-0021REMSYN070AAXX  17124 83236 32997 01806 10221 20117 39699 40196 333 20154 59002;EQDQ01  00002PRCP99
0177832360999992001081718004-12140-045000FM-12+044099999V0201801N002612200019N0100001N1+03071+00891101281ADDAA199000091GA1001+999999999GF100991001001999999001001MA1999999096391MD1999999-0021REMSYN064AAXX  17184 83236 32997 01805 10307 20089 39639 40128 333 59002;EQDQ01  00002PRCP99
0208832360999992001081800004-12140-045000FM-12+044099999V0201801N001512200019N0100001N1+02201+00921101621ADDAA199000091GA1001+999999999GF100991001001999999001001KA1240M+03191MA1999999096651MD1999999-0011REMSYN082AAXX  18004 83236 32997 01803 10220 20092 39665 40162 333 10319 29041 55107 59001;EQDQ01  00002PRCP99
0186832360999992001081812004-12140-045000FM-12+044099999V0202701N001012200019N0200001N1+02341+01271101831ADDAA199000091GF101991011011008001001001KA1240N+01341MA1999999096861MD1999999-0131REMSYN076AAXX  18124 83236 32598 12702 10234 20127 39686 40183 81100 333 20134 59013;EQDQ01  00002PRCP99
0195832360999992001081818004-12140-045000FM-12+044099999V0203601N003612200019N0100001N1+03131+00941101311ADDAA199000091AY101061AY221061GF102991021011008001001001MA1999999096381MD1999999-0011MW1051REMSYN076AAXX  18184 83236 31597 23607 10313 20094 39638 40131 70502 82100 333 59001;EQDQ01  00002PRCP99
0198832360999992001081900004-12140-045000FM-12+044099999V0202301N001012200019N0100001N1+02251+01351101551ADDAA199000091GF102991021011012501001001KA1240M+03211MA1999999096611MD1999999-0041REMSYN088AAXX  19004 83236 32697 22302 10225 20135 39661 40155 82100 333 10321 29048 55105 59004;EQDQ01  00002PRCP99
0186832360999992001081912004-12140-045000FM-12+044099999V0203201N001012200019N0100001N1+02381+01481101781ADDAA199000091GF104991021011012501001041KA1240N+01431MA1999999096831MD1999999-0031REMSYN076AAXX  19124 83236 32697 43202 10238 20148 39683 40178 82104 333 20143 59003;EQDQ01  00002PRCP99
0167832360999992001081918004-12140-045000FM-12+044099999V0202301N002112200019N0100001N1+03231+01241101241ADDAA199000091GF103991031011012501001001MA1999999096341MD1999999-0041REMSYN070AAXX  19184 83236 32697 32304 10323 20124 39634 40124 83100 333 59004;EQDQ01  00002PRCP99
0198832360999992001082000004-12140-045000FM-12+044099999V0201801N002112200019N0100001N1+02581+01121101431ADDAA199000091GF103991031011012501001001KA1240M+03401MA1999999096541MD1999999-0071REMSYN088AAXX  20004 83236 32697 31804 10258 20112 39654 40143 83100 333 10340 29042 55105 59007;EQDQ01  00002PRCP99
0186832360999992001082012004-12140-045000FM-12+044099999V0209999C000010120019N0100001N1+02241+01401102031ADDAA199000091GF105991051011012501001001KA1240N+01781MA1999999097091MD1999999+0261REMSYN076AAXX  20124 83236 32697 50000 10224 20140 39709 40203 85100 333 20178 58026;EQDQ01  00002PRCP99
0167832360999992001082018004-12140-045000FM-12+044099999V0201401N002610075019N0100001N1+03121+01111101331ADDAA199000091GF106991061021008001001001MA1999999096461MD1999999+0121REMSYN070AAXX  20184 83236 32597 61405 10312 20111 39646 40133 86200 333 58012;EQDQ01  00002PRCP99
0198832360999992001082100004-12140-045000FM-12+044099999V0202301N002112200019N0100001N1+02561+01021101601ADDAA199000091GF104991041011012501001001KA1240M+03271MA1999999096681MD1999999+0141REMSYN088AAXX  21004 83236 32697 42304 10256 20102 39668 40160 84100 333 10327 29041 55084 58014;EQDQ01  00002PRCP99
0186832360999992001082112004-12140-045000FM-12+044099999V0203201N001019999999N0100001N1+02351+01281101821ADDAA199000091GF105991001001999999001041KA1240N+01541MA1999999096901MD1999999-0191REMSYN076AAXX  21124 83236 32997 53202 10235 20128 39690 40182 80004 333 20154 59019;EQDQ01  00002PRCP99
0167832360999992001082118004-12140-045000FM-12+044099999V0203201N001012200019N0100001N1+03311+00781101231ADDAA199000091GF104991021021008001001051MA1999999096381MD1999999-0081REMSYN070AAXX  21184 83236 32597 43202 10331 20078 39638 40123 82205 333 59008;EQDQ01  00002PRCP99
0195832360999992001082218004-12140-045000FM-12+044099999V0201801N003612200019N0100001N1+03441+01091101081ADDAA199000091AY101061AY241061GF103991031011008001001001MA1999999096241MD1999999-0141MW1051REMSYN076AAXX  22184 83236 31597 31807 10344 20109 39624 40108 70504 83100 333 59014;EQDQ01  00002PRCP99
0226832360999992001082300004-12140-045000FM-12+044099999V0209999C000012200019N0100001N1+02401+01501101401ADDAA199000091AY101061AY241061GF102991021011012501001001KA1240M+03511MA1999999096501MD1999999-0051MW1051REMSYN094AAXX  23004 83236 31697 20000 10240 20150 39650 40140 70504 82100 333 10351 29046 55104 59005;EQDQ01  00002PRCP99
0224832360999992001082312004-12140-045000FM-12+044099999V0200501N005112200019N0100001N1+02541+01511101691ADDAA199000091AY101061AY241061GA1001+999999999GF100991001001999999001001KA1240N+01641MA1999999096771MD1999999-0031MW1051REMSYN076AAXX  23124 83236 31997 00510 10254 20151 39677 40169 70504 333 20164 59003;EQDQ01  00002PRCP99
0195832360999992001082318004-12140-045000FM-12+044099999V0200901N001012200019N0100001N1+03411+01351101061ADDAA199000091AY101061AY241061GF104991041021008001001001MA1999999096201MD1999999-0041MW1051REMSYN076AAXX  23184 83236 31597 40902 10341 20135 39620 40106 70504 84200 333 59004;EQDQ01  00002PRCP99
0198832360999992001082400004-12140-045000FM-12+044099999V0209999C000012200019N0100001N1+02411+01801101251ADDAA199000091GF103991031061008001001001KA1240M+03551MA1999999096361MD1999999-0141REMSYN088AAXX  24004 83236 32597 30000 10241 20180 39636 40125 83600 333 10355 29055 55099 59014;EQDQ01  00002PRCP99
0214832360999992001082412004-12140-045000FM-12+044099999V0200501N002119999999N0100001N1+02551+01361101711ADDAA199000091AY101061AY241061GF105991001001999999001051KA1240N+02071MA1999999096801MD1999999+0031MW1051REMSYN082AAXX  24124 83236 31997 50504 10255 20136 39680 40171 70504 80005 333 20207 58003;EQDQ01  00002PRCP99
0195832360999992001082418004-12140-045000FM-12+044099999V0200501N002111050019N0100001N1+03451+01151100941ADDAA199000091AY101061AY241061GF106991011011008001001051MA1999999096141MD1999999-0061MW1051REMSYN076AAXX  24184 83236 31597 60504 10345 20115 39614 40094 70504 81105 333 59006;EQDQ01  00002PRCP99
0214832360999992001082500004-12140-045000FM-12+044099999V0202701N001012200019N0100001N1+02251+01431101171ADDAA199000091GF104991001001999999001051KA1240M+03511MA1999999096271MD1999999-0091REMSYN088AAXX  25004 83236 32597 42702 10225 20143 39627 40117 80005 333 10351 29048 55092 59009;EQDQ01+008002SCOLCBQ02  00002PRCP99
0214832360999992001082512004-12140-045000FM-12+044099999V0200501N002112200019N0100001N1+02511+01561101551ADDAA199000091AY101061AY241061GF103991001001999999001041KA1240N+01641MA1999999096631MD1999999-0171MW1051REMSYN082AAXX  25124 83236 31997 30504 10251 20156 39663 40155 70504 80004 333 20164 59017;EQDQ01  00002PRCP99
0198832360999992001082600004-12140-045000FM-12+044099999V0202301N001512200019N0100001N1+02741+01261101131ADDAA199000091GF102991021011008001001001KA1240M+03531MA1999999096271MD1999999+0001REMSYN088AAXX  26004 83236 32597 22303 10274 20126 39627 40113 82100 333 10353 29042 55087 58000;EQDQ01  00002PRCP99
0214832360999992001082612004-12140-045000FM-12+044099999V0200501N006719999999N0100001N1+02481+01461101431ADDAA199000091AY101061AY241061GF105991001001999999001061KA1240N+01951MA1999999096611MD1999999-0021MW1051REMSYN082AAXX  26124 83236 31997 50513 10248 20146 39661 40143 70504 80006 333 20195 59002;EQDQ01  00002PRCP99
0195832360999992001082618004-12140-045000FM-12+044099999V0200901N001512200019N0100001N1+03401+01121100951ADDAA199000091AY101061AY241061GF104991011011008001001021MA1999999096141MD1999999-0041MW1051REMSYN076AAXX  26184 83236 31597 40903 10340 20112 39614 40095 70504 81102 333 59004;EQDQ01  00002PRCP99
0198832360999992001082700004-12140-045000FM-12+044099999V0202701N001012200019N0100001N1+02481+01491101251ADDAA199000091GF104991041001022501031001KA1240M+03491MA1999999096361MD1999999+0091REMSYN088AAXX  27004 83236 32897 42702 10248 20149 39636 40125 84030 333 10349 29046 55073 58009;EQDQ01  00002PRCP99
0224832360999992001082712004-12140-045000FM-12+044099999V0200501N005712200019N0260001N1+02561+01351101521ADDAA199000091AY101061AY241061GA1001+999999999GF100991001001999999001001KA1240N+01811MA1999999096621MD1999999+0011MW1071REMSYN076AAXX  27124 83236 31976 00511 10256 20135 39662 40152 70704 333 20181 58001;EQDQ01  00002PRCP99
0165832360999992001082718004-12140-045000FM-12+044099999V0202301N002112200019N0040001N1+03431+01201101011ADDAY101061AY241061GF104991041021008001001001MA1999999096151MD1999999+0011MW1051REMSYN076AAXX  27184 83236 21596 42304 10343 20120 39615 40101 70504 84200 333 58001;
0226832360999992001082800004-12140-045000FM-12+044099999V0202701N000512200019N0040001N1+02611+01251101171ADDAA199000091AY101061AY241061GF103991031001008001061001KA1240M+03591MA1999999096311MD1999999-0051MW1051REMSYN094AAXX  28004 83236 31596 32701 10261 20125 39631 40117 70504 83060 333 10359 29040 55094 59005;EQDQ01  00002PRCP99
0224832360999992001082812004-12140-045000FM-12+044099999V0200501N005112200019N0040001N1+02581+01381101471ADDAA199000091AY101061AY241061GA1001+999999999GF100991001001999999001001KA1240N+01621MA1999999096591MD1999999-0031MW1051REMSYN076AAXX  28124 83236 31996 00510 10258 20138 39659 40147 70504 333 20162 59003;EQDQ01  00002PRCP99
0195832360999992001082818004-12140-045000FM-12+044099999V0200901N002112200019N0040001N1+03491+01121100891ADDAA199000091AY101061AY241061GF104991041021008001001001MA1999999096061MD1999999-0091MW1051REMSYN076AAXX  28184 83236 31596 40904 10349 20112 39606 40089 70504 84200 333 59009;EQDQ01  00002PRCP99
0226832360999992001082900004-12140-045000FM-12+044099999V0202701N001012200019N0040001N1+02601+01251101121ADDAA199000091AY101061AY241061GF102991021001022501061001KA1240M+03591MA1999999096261MD1999999-0051MW1051REMSYN094AAXX  29004 83236 31896 22702 10260 20125 39626 40112 70504 82060 333 10359 29040 55095 59005;EQDQ01  00002PRCP99
0224832360999992001082912004-12140-045000FM-12+044099999V0200901N003612200019N0040001N1+02581+01661101411ADDAA199000091AY101061AY241061GA1001+999999999GF100991001001999999001001KA1240N+01751MA1999999096541MD1999999-0041MW1051REMSYN076AAXX  29124 83236 31996 00907 10258 20166 39654 40141 70504 333 20175 59004;EQDQ01  00002PRCP99
0195832360999992001082918004-12140-045000FM-12+044099999V0201401N002610120019N0040001N1+03331+01381100861ADDAA199000091AY101061AY241061GF107991071081008001001001MA1999999096021MD1999999-0041MW1051REMSYN076AAXX  29184 83236 31596 71405 10333 20138 39602 40086 70504 87800 333 59004;EQDQ01  00002PRCP99
0226832360999992001083000004-12140-045000FM-12+044099999V0202701N001012200019N0040001N1+02561+01671101111ADDAA199000091AY101061AY241061GF103991031001022501031001KA1240M+03511MA1999999096261MD1999999+0001MW1051REMSYN094AAXX  30004 83236 31896 32702 10256 20167 39626 40111 70504 83030 333 10351 29051 55068 58000;EQDQ01  00002PRCP99
0214832360999992001083012004-12140-045000FM-12+044099999V0200901N002112200019N0040001N1+02541+01601101601ADDAA199000091AY101061AY241061GF102991001001999999001041KA1240N+01751MA1999999096711MD1999999+0171MW1051REMSYN082AAXX  30124 83236 31996 20904 10254 20160 39671 40160 70504 80004 333 20175 58017;EQDQ01  00002PRCP99
0195832360999992001083018004-12140-045000FM-12+044099999V0201401N005110075019N0040001N1+03421+01361101021ADDAA199000091AY101061AY241061GF105991051021008001001001MA1999999096221MD1999999+0201MW1051REMSYN076AAXX  30184 83236 31596 51410 10342 20136 39622 40102 70504 85200 333 58020;EQDQ01  00002PRCP99
0226832360999992001083100004-12140-045000FM-12+044099999V0202301N001512200019N0040001N1+02451+01451101341ADDAA199000091AY101061AY241061GF103991031001022501011001KA1240M+03461MA1999999096451MD1999999+0191MW1051REMSYN094AAXX  31004 83236 31896 32303 10245 20145 39645 40134 70504 83010 333 10346 29048 55084 58019;EQDQ01  00002PRCP99
0214832360999992001083112004-12140-045000FM-12+044099999V0201801N001519999999N0040001N1+02481+01571101621ADDAA199000091AY101061AY241061GF105991001001999999001061KA1240N+01841MA1999999096711MD1999999+0001MW1051REMSYN082AAXX  31124 83236 31996 51803 10248 20157 39671 40162 70504 80006 333 20184 58000;EQDQ01  00002PRCP99
0195832360999992001083118004-12140-045000FM-12+044099999V0201401N002111050019N0040001N1+03331+01481100961ADDAA199000091AY101061AY241061GF106991041021008001001021MA1999999096161MD1999999-0061MW1051REMSYN076AAXX  31184 83236 31596 61404 10333 20148 39616 40096 70504 84202 333 59006;EQDQ01  00002PRCP99
0198832360999992001090100004-12140-045000FM-12+044099999V0201801N002612200019N0040001N1+02701+01441101251ADDAA199000091GF104991041001022501071001KA1240M+03361MA1999999096381MD1999999-0071REMSYN088AAXX  01004 83236 32896 41805 10270 20144 39638 40125 84070 333 10336 29046 55075 59007;EQDQ01  00002PRCP99
0224832360999992001090112004-12140-045000FM-12+044099999V0201401N001512200019N0040001N1+02541+01541101561ADDAA199000091AY101061AY241061GA1001+999999999GF100991001001999999001001KA1240N+01931MA1999999096281MD1999999-0031MW1051REMSYN076AAXX  01124 83236 31996 01403 10254 20154 39628 40156 70504 333 20193 59003;EQDQ01  00002PRCP99
0195832360999992001090118004-12140-045000FM-12+044099999V0200901N002612200019N0040001N1+03251+01211100881ADDAA199000091AY101061AY241061GF104991041021008001001001MA1999999096071MD1999999-0091MW1051REMSYN076AAXX  01184 83236 31596 40905 10325 20121 39607 40088 70504 84200 333 59009;EQDQ01  00002PRCP99
0198832360999992001090200004-12140-045000FM-12+044099999V0201801N002610120019N0100001N1+02641+01321101141ADDAA199000091GF105991051081008001001001KA1240M+03451MA1999999096281MD1999999+0101REMSYN088AAXX  02004 83236 32597 51805 10264 20132 39628 40114 85800 333 10345 29043 55096 58010;EQDQ01  00002PRCP99
0224832360999992001090212004-12140-045000FM-12+044099999V0200901N001512200019N0040001N1+02651+01581101481ADDAA199000091AY101061AY241061GA1001+999999999GF100991001001999999001001KA1240N+01861MA1999999096611MD1999999-0071MW1051REMSYN076AAXX  02124 83236 31996 00903 10265 20158 39661 40148 70504 333 20186 59007;EQDQ01  00002PRCP99
0195832360999992001090218004-12140-045000FM-12+044099999V0201801N001510075019N0040001N1+03311+01461100811ADDAA199000091AY101061AY241061GF106991061021008001001001MA1999999096011MD1999999-0061MW1051REMSYN076AAXX  02184 83236 31596 61803 10331 20146 39601 40081 70504 86200 333 59006;EQDQ01  00002PRCP99
0213832360999992001090300004-12140-045000FM-12+044099999V0200901N003110120019N0040001N1+02811+01631101031ADDAA106002091AY101061AY241061GF108991081081008001001001KA1240M+03451MA1999999096191MD1999999-0091MW1611REMSYN100AAXX  03004 83236 21596 80906 10281 20163 39619 40103 76104 88800 333 10345 29046 55080 59009 60021;
0173832360999992001090312004-12140-045000FM-12+044099999V0209999C000010075019N0100001N1+02401+01751101451ADDAA124000191GF107991071051008001001001KA1240N+02231MA1999999096571MD1999999-0041REMSYN082AAXX  03124 83236 22597 70000 10240 20175 39657 40145 87500 333 20223 59004 69924;
0167832360999992001090318004-12140-045000FM-12+044099999V0201401N003110075019N0100001N1+03311+01461100841ADDAA199000091GF106991061021008001001001MA1999999095991MD1999999-0201REMSYN070AAXX  03184 83236 32597 61406 10331 20146 39599 40084 86200 333 59020;EQDQ01  00002PRCP99
0198832360999992001090400004-12140-045000FM-12+044099999V0201801N002110210019N0100001N1+02691+01391101061ADDAA199000091GF107991071051022501071001KA1240M+03511MA1999999096191MD1999999+0001REMSYN088AAXX  04004 83236 32897 71804 10269 20139 39619 40106 87570 333 10351 29048 55043 58000;EQDQ01  00002PRCP99
0196832360999992001090412004-12140-045000FM-12+044099999V0200501N003112200019N0100001N1+02521+01551101471ADDAA199000091GA1001+999999999GF100991001001999999001001KA1240N+01781MA1999999096591MD1999999+0021REMSYN070AAXX  04124 83236 32997 00506 10252 20155 39659 40147 333 20178 58002;EQDQ01  00002PRCP99
0167832360999992001090418004-12140-045000FM-12+044099999V0201401N002110075019N0100001N1+03391+01431100931ADDAA199000091GF106991061021008001001001MA1999999096121MD1999999+0131REMSYN070AAXX  04184 83236 32597 61404 10339 20143 39612 40093 86200 333 58013;EQDQ01  00002PRCP99
0186832360999992001090500004-12140-045000FM-12+044099999V0202301N001012200019N0100001N1+02491+01511101101ADDAA199000091GF103991001001999999001071KA1240M+03531MA1999999096221MD1999999+0031REMSYN076AAXX  05004 83236 32997 32302 10249 20151 39622 40110 80007 333 10353 58003;EQDQ01  00002PRCP99
0224832360999992001090512004-12140-045000FM-12+044099999V0200501N001012200019N0040001N1+02561+01381101421ADDAA199000091AY101061AY241061GA1001+999999999GF100991001001999999001001KA1240N+01491MA1999999096581MD1999999-0011MW1051REMSYN076AAXX  05124 83236 31996 00502 10256 20138 39658 40142 70504 333 20149 59001;EQDQ01  00002PRCP99
0195832360999992001090518004-12140-045000FM-12+044099999V0201801N002612200019N0040001N1+03411+01121100831ADDAA199000091AY101061AY241061GF104991041021008001001001MA1999999096001MD1999999-0121MW1051REMSYN076AAXX  05184 83236 31596 41805 10341 20112 39600 40083 70504 84200 333 59012;EQDQ01  00002PRCP99
0214832360999992001090600004-12140-045000FM-12+044099999V0201801N003112200019N0040001N1+02591+01161101101ADDAA199000091AY101061AY241061GF103991031001022501011001KA1240M+03551MA1999999096241MD1999999+0021MW1051REMSYN082AAXX  06004 83236 31896 31806 10259 20116 39624 40110 70504 83010 333 10355 58002;EQDQ01  00002PRCP99
0224832360999992001090612004-12140-045000FM-12+044099999V0203601N001012200019N0040001N1+02701+01591101291ADDAA199000091AY101061AY241061GA1001+999999999GF100991001001999999001001KA1240N+01761MA1999999096431MD1999999-0151MW1051REMSYN076AAXX  06124 83236 31996 03602 10270 20159 39643 40129 70504 333 20176 59015;EQDQ01  00002PRCP99
0211832360999992001090618004-12140-045000FM-12+044099999V0201401N005112200019N0040001N1+03491+00991100701ADDAA199000091AY101061AY241061GF103991999011008001001001MA1999999095911MD1999999-0091MW1051REMSYN076AAXX  06184 83236 31596 31410 10349 20099 39591 40070 70504 82100 333 59009;EQDQ01+000022SCOTLCQ02  00002PRCP99
0236832360999992001090700004-12140-045000FM-12+044099999V0201801N001512200019N0040001N1+02581+01041101031ADDAA199000091AY101061AY241061GA1001+999999999GF100991001001999999001001KA1240M+03551MA1999999096171MD1999999-0071MW1051REMSYN088AAXX  07004 83236 31996 01803 10258 20104 39617 40103 70504 333 10355 29038 55103 59007;EQDQ01  00002PRCP99
0224832360999992001090712004-12140-045000FM-12+044099999V0209999C000012200019N0040001N1+02561+01261101271ADDAA199000091AY101061AY241061GA1001+999999999GF100991001001999999001001KA1240N+01781MA1999999096391MD1999999-0041MW1051REMSYN076AAXX  07124 83236 31996 00000 10256 20126 39639 40127 70504 333 20178 59004;EQDQ01  00002PRCP99
0205832360999992001090718004-12140-045000FM-12+044099999V0201401N002112200019N0040001N1+03421+00571100621ADDAA199000091AY101061AY241061GA1001+999999999GF100991001001999999001001MA1999999095841MD1999999-0071MW1051REMSYN070AAXX  07184 83236 31996 01404 10342 20057 39584 40062 70504 333 59007;EQDQ01  00002PRCP99
0236832360999992001090800004-12140-045000FM-12+044099999V0203201N001012200019N0040001N1+02231+01071100951ADDAA199000091AY101061AY241061GA1001+999999999GF100991001001999999001001KA1240M+03541MA1999999096061MD1999999-0111MW1051REMSYN088AAXX  08004 83236 31996 03202 10223 20107 39606 40095 70504 333 10354 29039 55105 59011;EQDQ01  00002PRCP99
0214832360999992001090812004-12140-045000FM-12+044099999V0200501N001512200019N0040001N1+02541+01361101321ADDAA199000091AY101061AY241061GF105991031001022501071041KA1240N+01641MA1999999096411MD1999999+0021MW1051REMSYN082AAXX  08124 83236 31896 50503 10254 20136 39641 40132 70504 83074 333 20164 58002;EQDQ01  00002PRCP99
0195832360999992001090818004-12140-045000FM-12+044099999V0201801N002110075019N0100001N1+03421+01071100701ADDAA199000091AY101061AY241061GF105991051021008001001001MA1999999095861MD1999999+0021MW1051REMSYN076AAXX  08184 83236 31597 51804 10342 20107 39586 40070 70504 85200 333 58002;EQDQ01  00002PRCP99
0207832360999992001090900004-12140-045000FM-12+044099999V0201801N001012200019N0040001N1+02411+01471100991ADDAA199000091AY101061AY241061GF103991031011012501001001MA1999999096111MD1999999+0051MW1051REMSYN088AAXX  09004 83236 31696 31802 10241 20147 39611 40099 70504 83100 333 29046 55098 58005;EQDQ01  00002PRCP99
0224832360999992001090912004-12140-045000FM-12+044099999V0200501N003112200019N0040001N1+02691+01351101351ADDAA199000091AY101061AY241061GA1001+999999999GF100991001001999999001001KA1240N+01791MA1999999096471MD1999999+0061MW1051REMSYN076AAXX  09124 83236 31996 00506 10269 20135 39647 40135 70504 333 20179 58006;EQDQ01  00002PRCP99
0195832360999992001090918004-12140-045000FM-12+044099999V0202301N001510120019N0100001N1+03481+01121100791ADDAA199000091AY101061AY241061GF105991051021012501001001MA1999999095961MD1999999+0101MW1051REMSYN076AAXX  09184 83236 31697 52303 10348 20112 39596 40079 70504 85200 333 58010;EQDQ01  00002PRCP99
0236832360999992001091000004-12140-045000FM-12+044099999V0209999C000012200019N0040001N1+02381+01531101061ADDAA199000091AY101061AY241061GA1001+999999999GF100991001001999999001001KA1240M+03591MA1999999096191MD1999999+0081MW1051REMSYN088AAXX  10004 83236 31996 00000 10238 20153 39619 40106 70504 333 10359 29046 55090 58008;EQDQ01  00002PRCP99
0224832360999992001091012004-12140-045000FM-12+044099999V0200501N003112200019N0040001N1+02721+01321101301ADDAA199000091AY101061AY241061GA1001+999999999GF100991001001999999001001KA1240N+01691MA1999999096421MD1999999-0051MW1051REMSYN076AAXX  10124 83236 31996 00506 10272 20132 39642 40130 70504 333 20169 59005;EQDQ01  00002PRCP99
0195832360999992001091018004-12140-045000FM-12+044099999V0203201N002112200019N0100001N1+03681+00941100651ADDAA199000091AY101061AY241061GF103991031021008001001001MA1999999095841MD1999999-0121MW1051REMSYN076AAXX  10184 83236 31597 33204 10368 20094 39584 40065 70504 83200 333 59012;EQDQ01  00002PRCP99
0236832360999992001091100004-12140-045000FM-12+044099999V0201801N001012200019N0100001N1+02521+01241100901ADDAA199000091AY101061AY241061GA1001+999999999GF100991001001999999001001KA1240M+03771MA1999999096051MD1999999-0041MW1051REMSYN088AAXX  11004 83236 31997 01802 10252 20124 39605 40090 70504 333 10377 29038 55102 59004;EQDQ01  00002PRCP99
0214832360999992001091112004-12140-045000FM-12+044099999V0200501N004112200019N0100001N1+02801+01351101231ADDAA199000091AY101061AY241061GF103991021011012501001051KA1240N+01811MA1999999096331MD1999999-0091MW1051REMSYN082AAXX  11124 83236 31697 30508 10280 20135 39633 40123 70504 82105 333 20181 59009;EQDQ01  00002PRCP99
0211832360999992001091118004-12140-045000FM-12+044099999V0203201N001512200019N0100001N1+03621+00811100422ADDAA199000091AY101061AY241061GF104991041021008001001001MA1999999095621MD1999999-0221MW1051REMSYN076AAXX  11184 83236 31597 43203 10362 20081 39562 40042 70504 84200 333 59022;EQDQ01+100423APOSLPQ02  00002PRCP99
0236832360999992001091200004-12140-045000FM-12+044099999V0201801N001012200019N0040001N1+02581+01331100701ADDAA199000091AY101061AY241061GA1001+999999999GF100991001001999999001001KA1240M+03821MA1999999095881MD1999999-0171MW1051REMSYN088AAXX  12004 83236 31996 01802 10258 20133 39588 40070 70504 333 10382 29038 55098 59017;EQDQ01  00002PRCP99
0195832360999992001091218004-12140-045000FM-12+044099999V0200501N002110075019N0100001N1+03601+01411100461ADDAA199000091AY101061AY241061GF106991061021008001001001MA1999999095671MD1999999+0051MW1051REMSYN076AAXX  12184 83236 31597 60504 10360 20141 39567 40046 70504 86200 333 58005;EQDQ01  00002PRCP99
0226832360999992001091300004-12140-045000FM-12+044099999V0202301N001012200019N0040001N1+02641+01581100751ADDAA199000091AY101061AY241061GF103991031021008001001001KA1240M+03821MA1999999095941MD1999999+0061MW1051REMSYN094AAXX  13004 83236 31596 32302 10264 20158 39594 40075 70504 83200 333 10382 29043 55081 58006;EQDQ01  00002PRCP99
0214832360999992001091312004-12140-045000FM-12+044099999V0200501N003610450019N0040001N1+02761+01661101261ADDAA199000091AY101061AY241061GF106991041021012501061051KA1240N+02471MA1999999096411MD1999999+0261MW1051REMSYN082AAXX  13124 83236 31696 60507 10276 20166 39641 40126 70504 84265 333 20247 58026;EQDQ01  00002PRCP99
0195832360999992001091318004-12140-045000FM-12+044099999V0203201N002110450019N0040001N1+03441+01531100751ADDAA199000091AY101061AY241061GF106991041041008001071051MA1999999095981MD1999999+0311MW1051REMSYN076AAXX  13184 83236 31596 63204 10344 20153 39598 40075 70504 84475 333 58031;EQDQ01  00002PRCP99
0242832360999992001091400004-12140-045000FM-12+044099999V0202301N001512200019N0040001N1+02621+01931101101ADDAA199000091AY101061AY241061GF104991999021008001001001KA1240M+03551MA1999999096261MD1999999+0321MW1051REMSYN094AAXX  14004 83236 31596 42303 10262 20193 39626 40110 70504 82200 333 10355 29054 55052 58032;EQDQ01+000022SCOTLCQ02  00002PRCP99
0224832360999992001091412004-12140-045000FM-12+044099999V0200501N002612200019N0040001N1+02721+01561101311ADDAA199000091AY101061AY241061GA1001+999999999GF100991001001999999001001KA1240N+01951MA1999999096451MD1999999+0041MW1051REMSYN076AAXX  14124 83236 32996 00505 10272 20156 39645 40131 70504 333 20195 58004;EQDQ01  00002PRCP99
0195832360999992001091418004-12140-045000FM-12+044099999V0203201N001010075019N0100001N1+03391+01481100681ADDAA199000091AY101061AY241061GF105991051021008001001001MA1999999095871MD1999999-0111MW1051REMSYN076AAXX  14184 83236 31597 53202 10339 20148 39587 40068 70504 85200 333 59011;EQDQ01  00002PRCP99
0236832360999992001091500004-12140-045000FM-12+044099999V0209999C000012200019N0040001N1+02801+01781100821ADDAA199000091AY101061AY241061GA1001+999999999GF100991001001999999001001KA1240M+03571MA1999999096001MD1999999-0261MW1051REMSYN088AAXX  15004 83236 31996 00000 10280 20178 39600 40082 70504 333 10357 29047 55091 59026;EQDQ01  00002PRCP99
0224832360999992001091512004-12140-045000FM-12+044099999V0200501N004112200019N0100001N1+02911+01481101041ADDAA199000091AY101061AY241061GA1001+999999999GF100991001001999999001001KA1240N+02161MA1999999096241MD1999999-0211MW1051REMSYN076AAXX  15124 83236 31997 00508 10291 20148 39624 40104 70504 333 20216 59021;EQDQ01  00002PRCP99
0195832360999992001091518004-12140-045000FM-12+044099999V0200501N003110075019N0100001N1+03501+01081100421ADDAA199000091AY101061AY241061GF105991051021008001001001MA1999999095651MD1999999-0221MW1051REMSYN076AAXX  15184 83236 31597 50506 10350 20108 39565 40042 70504 85200 333 59022;EQDQ01  00002PRCP99
0226832360999992001091600004-12140-045000FM-12+044099999V0203201N002110450019N0040001N1+02911+01591101031ADDAA199000091AY101061AY241061GF105991031021012501051001KA1240M+03681MA1999999096061MD1999999+0061MW1051REMSYN094AAXX  16004 83236 31696 53204 10291 20159 39606 40103 70504 83250 333 10368 29049 55092 58006;EQDQ01  00002PRCP99
0214832360999992001091612004-12140-045000FM-12+044099999V0209999C000012200019N0040001N1+02721+01681101231ADDAA199000091AY101061AY241061GF104991021011012501061001KA1240N+02101MA1999999096411MD1999999+0171MW1051REMSYN082AAXX  16124 83236 31696 40000 10272 20168 39641 40123 70504 82160 333 20210 58017;EQDQ01  00002PRCP99
0195832360999992001091618004-12140-045000FM-12+044099999V0202301N001512200019N0040001N1+03531+01601100521ADDAA199000091AY101061AY241061GF104991041021008001001001MA1999999095731MD1999999+0081MW1051REMSYN076AAXX  16184 83236 31596 42303 10353 20160 39573 40052 70504 84200 333 58008;EQDQ01  00002PRCP99
0213832360999992001091700004-12140-045000FM-12+044099999V0202301N005110075019N0040001N1+02371+01921101241ADDAA106002091AY151061AY251061GF108991061051008001071999KA1240M+03671MA1999999096351MD1999999+0291MW1171REMSYN100AAXX  17004 83236 21596 82310 10237 20192 39635 40124 71755 8657/ 333 10367 29061 55079 58029 60021;
0201832360999992001091712004-12140-045000FM-12+044099999V0201801N003610075019N0100001N1+02581+02041101351ADDAA124002091AY101061AY241061GF108991071021008001071999KA1240N+02211MA1999999096451MD1999999+0041MW1051REMSYN088AAXX  17124 83236 21597 81807 10258 20204 39645 40135 70504 8727/ 333 20221 58004 60024;
0195832360999992001091718004-12140-045000FM-12+044099999V0202301N004110075019N0100001N1+02901+01841100871ADDAA199000091AY101061AY241061GF107991061031008001081999MA1999999096011MD1999999+0281MW1051REMSYN076AAXX  17184 83236 31597 72308 10290 20184 39601 40087 70504 8638/ 333 58028;EQDQ01  00002PRCP99
0226832360999992001091800004-12140-045000FM-12+044099999V0202301N001510075019N0100001N1+02541+02021101091ADDAA199000091AY101061AY241061GF108991071051008001081999KA1240M+03061MA1999999096221MD1999999-0131MW1131REMSYN094AAXX  18004 83236 31597 82303 10254 20202 39622 40109 71304 8758/ 333 10306 29068 55/// 59013;EQDQ01  00002PRCP99
0186832360999992001091812004-12140-045000FM-12+044099999V0203601N002610075019N0100001N1+02331+02001101491ADDAA199000091GF108991071051008001999999KA1240N+02161MA1999999096581MD1999999+0131REMSYN076AAXX  18124 83236 32597 83605 10233 20200 39658 40149 875// 333 20216 58013;EQDQ01  00002PRCP99
0167832360999992001091818004-12140-045000FM-12+044099999V0200501N003110075019N0100001N1+02931+01711101061ADDAA199000091GF108991061021008001061999MA1999999096211MD1999999+0201REMSYN070AAXX  18184 83236 32597 80506 10293 20171 39621 40106 8626/ 333 58020;EQDQ01  00002PRCP99
0198832360999992001091900004-12140-045000FM-12+044099999V0201401N004110450019N0100001N1+02471+01731101341ADDAA199000091GF106991041021008001061001KA1240M+03051MA1999999096431MD1999999+0211REMSYN088AAXX  19004 83236 32597 61408 10247 20173 39643 40134 84260 333 10305 29064 55068 58021;EQDQ01  00002PRCP99
0186832360999992001091912004-12140-045000FM-12+044099999V0201401N002612200019N0200001N1+02361+01491101601ADDAA199000091GF103991021011008001071001KA1240N+01931MA1999999096681MD1999999+0101REMSYN076AAXX  19124 83236 32598 31405 10236 20149 39668 40160 82170 333 20193 58010;EQDQ01  00002PRCP99
0167832360999992001091918004-12140-045000FM-12+044099999V0200901N002110075019N0200001N1+03131+01371100961ADDAA199000091GF106991051021008001071001MA1999999096101MD1999999-0111REMSYN070AAXX  19184 83236 32598 60904 10313 20137 39610 40096 85270 333 59011;EQDQ01  00002PRCP99
0198832360999992001092000004-12140-045000FM-12+044099999V0201801N002110450019N0200001N1+02651+01451101181ADDAA199000091GF105991031021008001061001KA1240M+03301MA1999999096301MD1999999-0131REMSYN088AAXX  20004 83236 32598 51804 10265 20145 39630 40118 83260 333 10330 29047 55083 59013;EQDQ01  00002PRCP99
0196832360999992001092012004-12140-045000FM-12+044099999V0201801N002112200019N0200001N1+02491+01511101481ADDAA199000091GA1001+999999999GF100991001001999999001001KA1240N+01981MA1999999096591MD1999999-0091REMSYN070AAXX  20124 83236 32998 01804 10249 20151 39659 40148 333 20198 59009;EQDQ01  00002PRCP99
0167832360999992001092018004-12140-045000FM-12+044099999V0201401N003110075019N0200001N1+03341+01131100841ADDAA199000091GF105991051021008001001001MA1999999096041MD1999999-0061REMSYN070AAXX  20184 83236 32598 51406 10334 20113 39604 40084 85200 333 59006;EQDQ01  00002PRCP99
0226832360999992001092100004-12140-045000FM-12+044099999V0201801N002612200019N0100001N1+02691+01091101051ADDAA199000091AY101061AY241061GF102991021001022501061001KA1240M+03481MA1999999096191MD1999999-0111MW1051REMSYN094AAXX  21004 83236 31897 21805 10269 20109 39619 40105 70504 82060 333 10348 29039 55108 59011;EQDQ01  00002PRCP99
0214832360999992001092112004-12140-045000FM-12+044099999V0201801N001012200019N0100001N1+02531+01431101491ADDAA199000091AY101061AY241061GF102991021011012501001001KA1240N+01781MA1999999096611MD1999999+0021MW1051REMSYN082AAXX  21124 83236 31697 21802 10253 20143 39661 40149 70504 82100 333 20178 58002;EQDQ01  00002PRCP99
0167832360999992001092118004-12140-045000FM-12+044099999V0201401N003110075019N0200001N1+03361+01141100821ADDAA199000091GF105991051021008001001001MA1999999095991MD1999999-0051REMSYN070AAXX  21184 83236 32598 51406 10336 20114 39599 40082 85200 333 59005;EQDQ01  00002PRCP99
0198832360999992001092200004-12140-045000FM-12+044099999V0209999C000012200019N0200001N1+02641+01351101041ADDAA199000091GF102991021001022501041001KA1240M+03481MA1999999096181MD1999999-0011REMSYN088AAXX  22004 83236 32898 20000 10264 20135 39618 40104 82040 333 10348 29042 55099 59001;EQDQ01  00002PRCP99
0214832360999992001092212004-12140-045000FM-12+044099999V0203601N001012200019N0040001N1+02651+01601101461ADDAA199000091AY101061AY241061GF104991001001999999001041KA1240N+01871MA1999999096591MD1999999-0021MW1051REMSYN082AAXX  22124 83236 31996 43602 10265 20160 39659 40146 70504 80004 333 20187 59002;EQDQ01  00002PRCP99
0195832360999992001092218004-12140-045000FM-12+044099999V0201801N002111050019N0040001N1+03361+01461100831ADDAA199000091AY101061AY241061GF106991041021008001001021MA1999999096031MD1999999+0041MW1051REMSYN076AAXX  22184 83236 31596 61804 10336 20146 39603 40083 70504 84202 333 58004;EQDQ01  00002PRCP99
0198832360999992001092300004-12140-045000FM-12+044099999V0202701N001012200019N0040001N1+02541+01481101011ADDAA199000091GF104991041001022501061001KA1240M+03471MA1999999096151MD1999999-0031REMSYN088AAXX  23004 83236 32896 42702 10254 20148 39615 40101 84060 333 10347 29048 55091 59003;EQDQ01  00002PRCP99
0214832360999992001092312004-12140-045000FM-12+044099999V0200501N003612200019N0040001N1+02651+01771101341ADDAA199000091AY101061AY241061GF103991001001999999001041KA1240N+01951MA1999999096471MD1999999-0121MW1051REMSYN082AAXX  23124 83236 31996 30507 10265 20177 39647 40134 70504 80004 333 20195 59012;EQDQ01  00002PRCP99
0195832360999992001092318004-12140-045000FM-12+044099999V0200901N001012200019N0040001N1+03551+01301100581ADDAA199000091AY101061AY241061GF104991041021008001001001MA1999999095831MD1999999-0201MW1051REMSYN076AAXX  23184 83236 31596 40902 10355 20130 39583 40058 70504 84200 333 59020;EQDQ01  00002PRCP99
0208832360999992001092400004-12140-045000FM-12+044099999V0202701N001012200019N0040001N1+02751+01371100911ADDAA199000091GA1001+999999999GF100991001001999999001001KA1240M+03611MA1999999096081MD1999999-0071REMSYN082AAXX  24004 83236 32996 02702 10275 20137 39608 40091 333 10361 29043 55088 59007;EQDQ01  00002PRCP99
0214832360999992001092412004-12140-045000FM-12+044099999V0200501N004612200019N0040001N1+02631+01671101311ADDAA199000091AY101061AY241061GF103991001001999999001021KA1240N+02111MA1999999096461MD1999999-0011MW1051REMSYN082AAXX  24124 83236 31996 30509 10263 20167 39646 40131 70504 80002 333 20211 59001;EQDQ01  00002PRCP99
0195832360999992001092418004-12140-045000FM-12+044099999V0203601N002610075019N0040001N1+03531+01281100591ADDAA199000091AY101061AY241061GF105991051021008001001001MA1999999095821MD1999999-0011MW1051REMSYN076AAXX  24184 83236 31596 53605 10353 20128 39582 40059 70504 85200 333 59001;EQDQ01  00002PRCP99
0198832360999992001092500004-12140-045000FM-12+044099999V0209999C000012200019N0040001N1+02741+01411100901ADDAA199000091GF103991031061008001001001KA1240M+03651MA1999999096071MD1999999-0011REMSYN088AAXX  25004 83236 32596 30000 10274 20141 39607 40090 83600 333 10365 29042 55082 59001;EQDQ01  00002PRCP99
0214832360999992001092512004-12140-045000FM-12+044099999V0200501N004612200019N0040001N1+02751+01671101281ADDAA199000091AY101061AY241061GF102991001001999999001041KA1240N+02311MA1999999096441MD1999999-0021MW1051REMSYN082AAXX  25124 83236 31996 20509 10275 20167 39644 40128 70504 80004 333 20231 59002;EQDQ01  00002PRCP99
0195832360999992001092518004-12140-045000FM-12+044099999V0201801N002612200019N0040001N1+03531+01281100631ADDAA199000091AY101061AY241061GF104991041021008001001001MA1999999095861MD1999999+0041MW1051REMSYN076AAXX  25184 83236 31596 41805 10353 20128 39586 40063 70504 84200 333 58004;EQDQ01  00002PRCP99
0226832360999992001092600004-12140-045000FM-12+044099999V0209999C000011050019N0040001N1+03041+01411100901ADDAA199000091AY101061AY241061GF106991021061008001001071KA1240M+03651MA1999999096111MD1999999-0041MW1051REMSYN094AAXX  26004 83236 31596 60000 10304 20141 39611 40090 70504 82607 333 10365 29038 55098 59004;EQDQ01  00002PRCP99
0224832360999992001092612004-12140-045000FM-12+044099999V0200501N003612200019N0040001N1+02791+01531101221ADDAA199000091AY101061AY241061GA1001+999999999GF100991001001999999001001KA1240N+02251MA1999999096421MD1999999-0021MW1051REMSYN076AAXX  26124 83236 31996 00507 10279 20153 39642 40122 70504 333 20225 59002;EQDQ01  00002PRCP99
0195832360999992001092618004-12140-045000FM-12+044099999V0203601N003112200019N0040001N1+03591+01271100521ADDAA199000091AY101061AY241061GF104991041021008001001001MA1999999095771MD1999999-0091MW1051REMSYN076AAXX  26184 83236 31596 43606 10359 20127 39577 40052 70504 84200 333 59009;EQDQ01  00002PRCP99
0226832360999992001092700004-12140-045000FM-12+044099999V0201801N001510120019N0040001N1+03211+01321100711ADDAA199000091AY101061AY241061GF107991071081008001001001KA1240M+03651MA1999999095951MD1999999-0161MW1051REMSYN094AAXX  27004 83236 31596 71803 10321 20132 39595 40071 70504 87800 333 10365 29034 55097 59016;EQDQ01  00002PRCP99
0224832360999992001092712004-12140-045000FM-12+044099999V0203601N003112200019N0040001N1+02821+01421101141ADDAA199000091AY101061AY241061GA1001+999999999GF100991001001999999001001KA1240N+02491MA1999999096361MD1999999-0061MW1041REMSYN076AAXX  27124 83236 31996 03606 10282 20142 39636 40114 70404 333 20249 59006;EQDQ01  00002PRCP99
0195832360999992001092718004-12140-045000FM-12+044099999V0202701N001012200019N0040001N1+03661+01401100471ADDAA199000091AY101061AY241061GF104991041021008001001001MA1999999095751MD1999999-0021MW1041REMSYN076AAXX  27184 83236 31596 42702 10366 20140 39575 40047 70404 84200 333 59002;EQDQ01  00002PRCP99
0198832360999992001092800004-12140-045000FM-12+044099999V0201801N001010120019N0040001N1+03101+01541100811ADDAA199000091GF107991071081008001001001KA1240M+03751MA1999999096041MD1999999+0091REMSYN088AAXX  28004 83236 32596 71802 10310 20154 39604 40081 87800 333 10375 29047 55098 58009;EQDQ01  00002PRCP99
0224832360999992001092812004-12140-045000FM-12+044099999V0200501N003112200019N0040001N1+02931+01641101171ADDAA199000091AY101061AY241061GA1001+999999999GF100991001001999999001001KA1240N+02211MA1999999096391MD1999999+0031MW1041REMSYN076AAXX  28124 83236 31996 00506 10293 20164 39639 40117 70404 333 20221 58003;EQDQ01  00002PRCP99
0195832360999992001092818004-12140-045000FM-12+044099999V0201401N003110075019N0040001N1+03551+01571100621ADDAA199000091AY101061AY241061GF105991051021008001001001MA1999999095861MD1999999+0111MW1041REMSYN076AAXX  28184 83236 31596 51406 10355 20157 39586 40062 70404 85200 333 58011;EQDQ01  00002PRCP99
0226832360999992001092900004-12140-045000FM-12+044099999V0201401N002612200019N0040001N1+03231+01081100791ADDAA199000091AY101061AY241061GF103991031001022501031001KA1240M+03751MA1999999096051MD1999999+0011MW1041REMSYN094AAXX  29004 83236 31896 31405 10323 20108 39605 40079 70404 83030 333 10375 29033 55087 58001;EQDQ01  00002PRCP99
0214832360999992001092912004-12140-045000FM-12+044099999V0201801N001012200019N0040001N1+02781+01481101351ADDAA199000091AY101061AY241061GF102991021001022501041001KA1240N+02221MA1999999096561MD1999999+0171MW1051REMSYN082AAXX  29124 83236 31896 21802 10278 20148 39656 40135 70504 82040 333 20222 58017;EQDQ01  00002PRCP99
0195832360999992001092918004-12140-045000FM-12+044099999V0200901N001012200019N0040001N1+03551+01301100581ADDAA199000091AY101061AY241061GF104991041021008001001001MA1999999095831MD1999999-0201MW1051REMSYN076AAXX  29184 83236 31596 40902 10355 20130 39583 40058 70504 84200 333 59020;EQDQ01  00002PRCP99
0198832360999992001093000004-12140-045000FM-12+044099999V0201401N004619999999N0100001N1+03191+00811101001ADDAA199000091GF106991001001999999001071KA1240M+03691MA1999999096231MD1999999+0181REMSYN088AAXX  30004 83236 32997 61409 10319 20081 39623 40100 80007 333 10369 29029 55100 58018;EQDQ01  00002PRCP99
0224832360999992001093012004-12140-045000FM-12+044099999V0203201N001012200019N0040001N1+02791+01611101351ADDAA199000091AY101061AY241061GA1001+999999999GF100991001001999999001001KA1240N+01971MA1999999096561MD1999999+0001MW1051REMSYN076AAXX  30124 83236 31996 03202 10279 20161 39656 40135 70504 333 20197 58000;EQDQ01  00002PRCP99
0195832360999992001093018004-12140-045000FM-12+044099999V0201401N003112200019N0040001N1+03581+01331100741ADDAA199000091AY101061AY241061GF104991041021008001001001MA1999999095951MD1999999-0031MW1041REMSYN076AAXX  30184 83236 31596 41406 10358 20133 39595 40074 70404 84200 333 59003;EQDQ01  00002PRCP99
0226832360999992001100100004-12140-045000FM-12+044099999V0202701N001510075019N0040001N1+03091+01521101031ADDAA199000091AY101061AY241061GF108991081051008001001001KA1240M+03701MA1999999096241MD1999999+0011MW1041REMSYN094AAXX  01004 83236 31596 82703 10309 20152 39624 40103 70404 88500 333 10370 29038 55093 58001;EQDQ01  00002PRCP99
0224832360999992001100112004-12140-045000FM-12+044099999V0201801N003112200019N0040001N1+02831+01331101381ADDAA199000091AY101061AY241061GA1001+999999999GF100991001001999999001001KA1240N+01951MA1999999096581MD1999999+0021MW1041REMSYN076AAXX  01124 83236 31996 01806 10283 20133 39658 40138 70404 333 20195 58002;EQDQ01  00002PRCP99
0195832360999992001100118004-12140-045000FM-12+044099999V0200501N004112200019N0040001N1+03501+01141100721ADDAA199000091AY101061AY241061GF104991041021008001001001MA1999999095971MD1999999+0021MW1041REMSYN076AAXX  01184 83236 31596 40508 10350 20114 39597 40072 70404 84200 333 58002;EQDQ01  00002PRCP99
0226832360999992001100200004-12140-045000FM-12+044099999V0209999C000010120019N0040001N1+02811+01751101001ADDAA199000091AY101061AY241061GF106991061081008001001001KA1240M+03611MA1999999096191MD1999999-0051MW1041REMSYN094AAXX  02004 83236 31596 60000 10281 20175 39619 40100 70404 86800 333 10361 29042 55091 59005;EQDQ01  00002PRCP99
0224832360999992001100212004-12140-045000FM-12+044099999V0200901N001012200019N0040001N1+02951+01221101311ADDAA199000091AY101061AY241061GA1001+999999999GF100991001001999999001001KA1240N+02251MA1999999096501MD1999999-0081MW1041REMSYN076AAXX  02124 83236 31996 00902 10295 20122 39650 40131 70404 333 20225 59008;EQDQ01  00002PRCP99
0195832360999992001100218004-12140-045000FM-12+044099999V0200501N001012200019N0040001N1+03681+01161100651ADDAA199000091AY101061AY241061GF103991031011008001001001MA1999999095921MD1999999-0051MW1041REMSYN076AAXX  02184 83236 31596 30502 10368 20116 39592 40065 70404 83100 333 59005;EQDQ01  00002PRCP99
0226832360999992001100300004-12140-045000FM-12+044099999V0202301N000510120019N0040001N1+03101+01421100921ADDAA199000091AY101061AY241061GF106991061081008001001001KA1240M+03811MA1999999096151MD1999999-0041MW1041REMSYN094AAXX  03004 83236 31596 62301 10310 20142 39615 40092 70404 86800 333 10381 29033 55098 59004;EQDQ01  00002PRCP99
0224832360999992001100312004-12140-045000FM-12+044099999V0200901N003112200019N0040001N1+03021+01301101351ADDAA199000091AY101061AY241061GA1001+999999999GF100991001001999999001001KA1240N+02181MA1999999096571MD1999999+0051MW1041REMSYN076AAXX  03124 83236 31996 00906 10302 20130 39657 40135 70404 333 20218 58005;EQDQ01  00002PRCP99
0195832360999992001100318004-12140-045000FM-12+044099999V0203601N001512200019N0040001N1+03631+01091100821ADDAA199000091AY101061AY241061GF104991041021008001001001MA1999999096171MD1999999+0251MW1041REMSYN076AAXX  03184 83236 31596 43603 10363 20109 39617 40082 70404 84200 333 58025;EQDQ01  00002PRCP99
0226832360999992001100400004-12140-045000FM-12+044099999V0202701N001519999999N0040001N1+02921+01801101111ADDAA199000091AY101061AY241061GF107991001001999999001071KA1240M+03771MA1999999096331MD1999999+0131MW1041REMSYN094AAXX  04004 83236 31996 72703 10292 20180 39633 40111 70404 80007 333 10377 29040 55091 58013;EQDQ01  00002PRCP99
0224832360999992001100412004-12140-045000FM-12+044099999V0200501N001012200019N0040001N1+02811+01621101311ADDAA199000091AY101061AY241061GA1001+999999999GF100991001001999999001001KA1240N+02111MA1999999096491MD1999999-0081MW1041REMSYN076AAXX  04124 83236 31996 00502 10281 20162 39649 40131 70404 333 20211 59008;EQDQ01  00002PRCP99
0195832360999992001100418004-12140-045000FM-12+044099999V0203601N001512200019N0040001N1+03701+01031100701ADDAA199000091AY101061AY241061GF103991031011008001001001MA1999999095951MD1999999-0221MW1041REMSYN076AAXX  04184 83236 31596 33603 10370 20103 39595 40070 70404 83100 333 59022;EQDQ01  00002PRCP99
0236832360999992001100500004-12140-045000FM-12+044099999V0201801N002112200019N0040001N1+02711+01231101041ADDAA199000091AY101061AY241061GA1001+999999999GF100991001001999999001001KA1240M+03821MA1999999096211MD1999999-0121MW1041REMSYN088AAXX  05004 83236 31996 01804 10271 20123 39621 40104 70404 333 10382 29037 55093 59012;EQDQ01  00002PRCP99
0224832360999992001100512004-12140-045000FM-12+044099999V0200901N002112200019N0040001N1+02981+01351101211ADDAA199000091AY101061AY241061GA1001+999999999GF100991001001999999001001KA1240N+02071MA1999999096401MD1999999+0091MW1041REMSYN076AAXX  05124 83236 31996 00904 10298 20135 39640 40121 70404 333 20207 58009;EQDQ01  00002PRCP99
0195832360999992001100518004-12140-045000FM-12+044099999V0203601N002112200019N0040001N1+03851+00901100551ADDAA199000091AY101061AY241061GF104991041021008001001001MA1999999095821MD1999999+0131MW1041REMSYN076AAXX  05184 83236 31596 43604 10385 20090 39582 40055 70404 84200 333 58013;EQDQ01  00002PRCP99
0236832360999992001100600004-12140-045000FM-12+044099999V0201801N001512200019N0040001N1+02861+01411100781ADDAA199000091AY101061AY241061GA1001+999999999GF100991001001999999001001KA1240M+03961MA1999999096001MD1999999-0211MW1041REMSYN088AAXX  06004 83236 31996 01803 10286 20141 39600 40078 70404 333 10396 29034 55088 59021;EQDQ01  00002PRCP99
0214832360999992001100612004-12140-045000FM-12+044099999V0200901N001512200019N0040001N1+03061+01511101091ADDAA199000091AY101061AY241061GF102991001001999999001021KA1240N+02391MA1999999096281MD1999999-0121MW1041REMSYN082AAXX  06124 83236 31996 20903 10306 20151 39628 40109 70404 80002 333 20239 59012;EQDQ01  00002PRCP99
0195832360999992001100618004-12140-045000FM-12+044099999V0203601N001512200019N0040001N1+03861+01091100781ADDAA199000091AY101061AY241061GF102991021011008001001001MA1999999096591MD1999999-0101MW1041REMSYN076AAXX  06184 83236 31596 23603 10386 20109 39659 40078 70404 82100 333 59010;EQDQ01  00002PRCP99
0214832360999992001100712004-12140-045000FM-12+044099999V0203201N001512200019N0040001N1+03021+01621100921ADDAA199000091AY101061AY241061GF104991001001999999001071KA1240N+02511MA1999999096171MD1999999-0111MW1041REMSYN082AAXX  07124 83236 31996 43203 10302 20162 39617 40092 70404 80007 333 20251 59011;EQDQ01  00002PRCP99
0195832360999992001100718004-12140-045000FM-12+044099999V0200501N004610075019N0040001N1+03621+01481100411ADDAA199000091AY101061AY241061GF105991051041008001001001MA1999999095701MD1999999-0101MW1041REMSYN076AAXX  07184 83236 31596 50509 10362 20148 39570 40041 70404 85400 333 59010;EQDQ01  00002PRCP99
0226832360999992001100800004-12140-045000FM-12+044099999V0202701N002112200019N0040001N1+02551+01831101051ADDAA199000091AY101061AY241061GF104991041021012501001001KA1240M+03751MA1999999096241MD1999999+0341MW1041REMSYN094AAXX  08004 83236 31696 42704 10255 20183 39624 40105 70404 84200 333 10375 29050 55071 58034;EQDQ01  00002PRCP99
0224832360999992001100812004-12140-045000FM-12+044099999V0203601N001512200019N0040001N1+02751+01871101161ADDAA199000091AY101061AY241061GA1001+999999999GF100991001001999999001001KA1240N+02111MA1999999096311MD1999999+0141MW1041REMSYN076AAXX  08124 83236 31996 03603 10275 20187 39631 40116 70404 333 20211 58014;EQDQ01  00002PRCP99
0195832360999992001100818004-12140-045000FM-12+044099999V0203601N003110120019N0040001N1+03551+01411100491ADDAA199000091AY101061AY241061GF106991051021012501051001MA1999999095721MD1999999+0021MW1041REMSYN076AAXX  08184 83236 31696 63606 10355 20141 39572 40049 70404 85250 333 58002;EQDQ01  00002PRCP99
0226832360999992001100900004-12140-045000FM-12+044099999V0202301N001510075019N0040001N1+02831+01861100901ADDAA199000091AY101061AY241061GF106991051021008001071001KA1240M+03711MA1999999096091MD1999999-0151MW1041REMSYN094AAXX  09004 83236 31596 62303 10283 20186 39609 40090 70404 85270 333 10371 29050 55076 59015;EQDQ01  00002PRCP99
0214832360999992001100912004-12140-045000FM-12+044099999V0202301N001510075019N0040001N1+02711+02011101171ADDAA199000091AY101061AY241061GF108991051041008001071999KA1240N+02471MA1999999096341MD1999999+0031MW1041REMSYN082AAXX  09124 83236 31596 82303 10271 20201 39634 40117 70404 8547/ 333 20247 58003;EQDQ01  00002PRCP99
0195832360999992001100918004-12140-045000FM-12+044099999V0202301N004110075019N0100001N1+02851+01911100701ADDAA199000091AY101061AY241061GF108991061051008001081999MA1999999095881MD1999999+0161MW1171REMSYN076AAXX  09184 83236 31597 82308 10285 20191 39588 40070 71704 8658/ 333 58016;EQDQ01  00002PRCP99
0213832360999992001101000004-12140-045000FM-12+044099999V0201801N001510075019N0040001N1+02231+02141101181ADDAA106001091AY101061AY241061GF108991071061008001999999KA1240M+03461MA1999999096291MD1999999+0201MW1511REMSYN100AAXX  10004 83236 21596 81803 10223 20214 39629 40118 75104 876// 333 10346 29078 55018 58020 60011;
0201832360999992001101012004-12140-045000FM-12+044099999V0202301N001510450019N0100001N1+02471+02111101221ADDAA124004191AY101061AY241061GF106991031021008001061001KA1240N+02151MA1999999096411MD1999999+0071MW1031REMSYN088AAXX  10124 83236 21597 62303 10247 20211 39641 40122 70304 83260 333 20215 58007 60044;
0167832360999992001101018004-12140-045000FM-12+044099999V0203601N001010075019N0200001N1+03521+01551100581ADDAA199000091GF106991061041008001001001MA1999999095791MD1999999-0091REMSYN070AAXX  10184 83236 32598 63602 10352 20155 39579 40058 86400 333 59009;EQDQ01  00002PRCP99
0213832360999992001101100004-12140-045000FM-12+044099999V0202701N003110075019N0040001N1+02301+02001101141ADDAA106001091AY151061AY251061GF108991061051008001999999KA1240M+03651MA1999999096241MD1999999-0051MW1171REMSYN100AAXX  11004 83236 21596 82706 10230 20200 39624 40114 71755 865// 333 10365 29070 55079 59005 60011;
0201832360999992001101112004-12140-045000FM-12+044099999V0202301N001010075019N0100001N1+02401+02091101361ADDAA124005191AY151061AY251061GF108991051041008001061999KA1240N+02211MA1999999096441MD1999999+0031MW1031REMSYN088AAXX  11124 83236 21597 82302 10240 20209 39644 40136 70355 8546/ 333 20221 58003 60054;
0167832360999992001101118004-12140-045000FM-12+044099999V0200501N001510075019N0200001N1+03221+01771100691ADDAA199000091GF106991051031008001071041MA1999999095861MD1999999+0071REMSYN070AAXX  11184 83236 32598 60503 10322 20177 39586 40069 85374 333 58007;EQDQ01  00002PRCP99
0213832360999992001101200004-12140-045000FM-12+044099999V0200501N002110075019N0100001N1+02481+02051101081ADDAA106000591AY151061AY251061GF108991051051008001081999KA1240M+03381MA1999999096191MD1999999-0051MW1131REMSYN100AAXX  12004 83236 21597 80504 10248 20205 39619 40108 71355 8558/ 333 10338 29070 55039 59005 69961;
0173832360999992001101212004-12140-045000FM-12+044099999V0200901N002110450019N0200001N1+02671+01821101341ADDAA124000591GF106991041021008001071051KA1240N+02361MA1999999096461MD1999999+0021REMSYN082AAXX  12124 83236 22598 60904 10267 20182 39646 40134 84275 333 20236 58002 69964;
0195832360999992001101218004-12140-045000FM-12+044099999V0202301N002110075019N0100001N1+02991+01911100941ADDAA199000091AY121061AY221061GF108991061051008001071999MA1999999096101MD1999999+0241MW1161REMSYN076AAXX  12184 83236 31597 82304 10299 20191 39610 40094 71622 8657/ 333 58024;EQDQ01  00002PRCP99
0213832360999992001101300004-12140-045000FM-12+044099999V0200501N003110075019N0100001N1+02471+02091101311ADDAA106000191AY121061AY251061GF108991061051008001999999KA1240M+03241MA1999999096431MD1999999+0241MW1031REMSYN100AAXX  13004 83236 21597 80506 10247 20209 39643 40131 70325 865// 333 10324 29068 55026 58024 69911;
0173832360999992001101312004-12140-045000FM-12+044099999V0202701N001010075019N0200001N1+02621+01701101361ADDAA124000391GF106991051021008001061071KA1240N+02291MA1999999096481MD1999999+0021REMSYN082AAXX  13124 83236 22598 62702 10262 20170 39648 40136 85267 333 20229 58002 69934;
0195832360999992001101318004-12140-045000FM-12+044099999V0200901N002110075019N0100001N1+02991+01761100821ADDAA199000091AY121061AY221061GF108991051061008001091999MA1999999095981MD1999999+0121MW1151REMSYN076AAXX  13184 83236 31597 80904 10299 20176 39598 40082 71522 8569/ 333 58012;EQDQ01  00002PRCP99
0213832360999992001101400004-12140-045000FM-12+044099999V0209999C000010075019N0020001N1+02211+02131101351ADDAA124010991AY161061AY261061GF108991071061008001999999KA1240M+03281MA1999999096441MD1999999+0011MW1611REMSYN100AAXX  14004 83236 21595 80000 10221 20213 39644 40135 76166 876// 333 10328 29074 55028 58001 60114;
0173832360999992001101412004-12140-045000FM-12+044099999V0201401N001010120019N0100001N1+02411+02131101441ADDAA124010991GF108991061081008001061999KA1240N+02171MA1999999096501MD1999999+0021REMSYN082AAXX  14124 83236 22597 81402 10241 20213 39650 40144 8686/ 333 20217 58002 60114;
0167832360999992001101418004-12140-045000FM-12+044099999V0200901N001510120019N0200001N1+02951+01851100901ADDAA199000091GF108991071081008001071999MA1999999096031MD1999999+0051REMSYN070AAXX  14184 83236 32598 80903 10295 20185 39603 40090 8787/ 333 58005;EQDQ01  00002PRCP99
0213832360999992001101500004-12140-045000FM-12+044099999V0202701N001010075019N0100001N1+02471+02151101181ADDAA106000191AY151061AY251061GF108991061071008001999999KA1240M+03041MA1999999096201MD1999999-0241MW1031REMSYN100AAXX  15004 83236 21597 82702 10247 20215 39620 40118 70355 867// 333 10304 29076 55006 59024 69911;
0173832360999992001101512004-12140-045000FM-12+044099999V0209999C000010450019N0200001N1+02701+01801101111ADDAA124000191GF105991031021008001061001KA1240N+02151MA1999999096251MD1999999-0251REMSYN082AAXX  15124 83236 22598 50000 10270 20180 39625 40111 83260 333 20215 59025 69914;
0182832360999992001101518004-12140-045000FM-12+044099999V0201801N002610075019N0100001N1+03021+01921100651ADDAA106000191AY151061AY251061GF108991061061008001081999MA1999999095811MD1999999-0221MW1151REMSYN082AAXX  15184 83236 21597 81805 10302 20192 39581 40065 71555 8668/ 333 59022 69921;
0213832360999992001101600004-12140-045000FM-12+044099999V0201801N003110075019N0040001N1+02271+02071101171ADDAA106000891AY151061AY251061GF108991071051008001999999KA1240M+03371MA1999999096291MD1999999+0091MW1161REMSYN100AAXX  16004 83236 21596 81806 10227 20207 39629 40117 71655 875// 333 10337 29072 55046 58009 69971;
0201832360999992001101612004-12140-045000FM-12+044099999V0201801N002110075019N0100001N1+02271+01941101411ADDAA124003091AY121061AY221061GF108991061071008001999999KA1240N+02181MA1999999096461MD1999999+0211MW1151REMSYN088AAXX  16124 83236 21597 81804 10227 20194 39646 40141 71522 867// 333 20218 58021 60034;
0167832360999992001101618004-12140-045000FM-12+044099999V0201401N001010075019N0200001N1+02831+02021100831ADDAA199000091GF107991051021008001071051MA1999999095961MD1999999+0141REMSYN070AAXX  16184 83236 32598 71402 10283 20202 39596 40083 85275 333 58014;EQDQ01  00002PRCP99
0198832360999992001101700004-12140-045000FM-12+044099999V0209999C000010075019N0100001N1+02501+01981101021ADDAA199000091GF108991061071008001999999KA1240M+02941MA1999999096131MD1999999-0161REMSYN088AAXX  17004 83236 32597 80000 10250 20198 39613 40102 867// 333 10294 29072 55002 59016;EQDQ01  00002PRCP99
0201832360999992001101712004-12140-045000FM-12+044099999V0202301N001510075019N0100001N1+02271+02051101241ADDAA124006191AY161061AY251061GF108991071051008001999999KA1240N+02051MA1999999096341MD1999999-0121MW1031REMSYN088AAXX  17124 83236 21597 82303 10227 20205 39634 40124 70365 875// 333 20205 59012 60064;
0167832360999992001101718004-12140-045000FM-12+044099999V0200501N002110075019N0100001N1+02611+02031100821ADDAA199000091GF108991061071008001061999MA1999999095931MD1999999-0021REMSYN070AAXX  17184 83236 32597 80504 10261 20203 39593 40082 8676/ 333 59002;EQDQ01  00002PRCP99
0198832360999992001101800004-12140-045000FM-12+044099999V0201801N001510075019N0100001N1+02451+02171100881ADDAA199000091GF108991061071008001051999KA1240M+02771MA1999999096041MD1999999-0091REMSYN088AAXX  18004 83236 32597 81803 10245 20217 39604 40088 8675/ 333 10277 29080 55003 59009;EQDQ01  00002PRCP99
0201832360999992001101812004-12140-045000FM-12+044099999V0202301N002110075019N0040001N1+02291+02111101141ADDAA124000391AY151061AY251061GF108991071091008001999999KA1240N+02251MA1999999096231MD1999999-0111MW1101REMSYN088AAXX  18124 83236 21596 82304 10229 20211 39623 40114 71055 879// 333 20225 59011 69934;
0182832360999992001101818004-12140-045000FM-12+044099999V0201801N002110075019N0200001N1+02581+02081100741ADDAA124001091AY161061AY251061GF108991051071008001061999MA1999999095861MD1999999-0071MW1021REMSYN082AAXX  18184 83236 21598 81804 10258 20208 39586 40074 70265 8576/ 333 59007 60014;
0226832360999992001101900004-12140-045000FM-12+044099999V0209999C000010075019N0100001N1+02421+02251100971ADDAA199000091AY121061AY221061GF108991071061008001999999KA1240M+02671MA1999999096071MD1999999-0031MW1131REMSYN094AAXX  19004 83236 31597 80000 10242 20225 39607 40097 71322 876// 333 10267 29086 55000 59003;EQDQ01  00002PRCP99
0201832360999992001101912004-12140-045000FM-12+044099999V0209999C000010075019N0040001N1+02351+02091101091ADDAA124019191AY161061AY261061GF108991071051008001999999KA1240N+02111MA1999999096181MD1999999-0051MW1161REMSYN088AAXX  19124 83236 21596 80000 10235 20209 39618 40109 71666 875// 333 20211 59005 60194;
0182832360999992001101918004-12140-045000FM-12+044099999V0201801N001510075019N0100001N1+02441+02211100641ADDAA106006191AY161061AY251061GF108991061071008001061999MA1999999095741MD1999999-0121MW1021REMSYN082AAXX  19184 83236 21597 81803 10244 20221 39574 40064 70265 8676/ 333 59012 60061;
0226832360999992001102000004-12140-045000FM-12+044099999V0202301N001510075019N0100001N1+02401+02241100851ADDAA199000091AY121061AY221061GF108991071051008001999999KA1240M+02601MA1999999095961MD1999999-0111MW1131REMSYN094AAXX  20004 83236 31597 82303 10240 20224 39596 40085 71322 875// 333 10260 29089 55000 59011;EQDQ01  00002PRCP99
0201832360999992001102012004-12140-045000FM-12+044099999V0209999C000010075019N0100001N1+02251+02031101211ADDAA124019191AY161061AY261061GF108991061051008001071999KA1240N+02071MA1999999096291MD1999999+0111MW1151REMSYN088AAXX  20124 83236 21597 80000 10225 20203 39629 40121 71566 8657/ 333 20207 58011 60194;
0167832360999992001102018004-12140-045000FM-12+044099999V0200501N004110450019N0200001N1+02641+02051100861ADDAA199000091GF107991041071008001051041MA1999999095951MD1999999+0211REMSYN070AAXX  20184 83236 32598 70508 10264 20205 39595 40086 84754 333 58021;EQDQ01  00002PRCP99
0208832360999992001102100004-12140-045000FM-12+044099999V0203601N001012200019N0500001N1+02421+02071101001ADDAA199000091GA1001+999999999GF100991001001999999001001KA1240M+02791MA1999999096101MD1999999+0141REMSYN082AAXX  21004 83236 32999 03602 10242 20207 39610 40100 333 10279 29080 55007 58014;EQDQ01  00002PRCP99
0186832360999992001102112004-12140-045000FM-12+044099999V0209999C000012200019N0200001N1+02681+02161100991ADDAA199000091GF104991021001022501061051KA1240N+02071MA1999999096131MD1999999-0161REMSYN076AAXX  21124 83236 32898 40000 10268 20216 39613 40099 82065 333 20207 59016;EQDQ01  00002PRCP99
0182832360999992001102118004-12140-045000FM-12+044099999V0201401N001010450019N0200001N1+02761+02341100671ADDAA106007191AY161061AY261061GF106991031031008001071001MA1999999095801MD1999999-0151MW1021REMSYN082AAXX  21184 83236 21598 61402 10276 20234 39580 40067 70266 83370 333 59015 60071;
0226832360999992001102200004-12140-045000FM-12+044099999V0200901N001010075019N0100001N1+02521+02311100901ADDAA199000091AY121061AY221061GF108991061051008001071999KA1240M+03231MA1999999096051MD1999999-0051MW1131REMSYN094AAXX  22004 83236 31597 80902 10252 20231 39605 40090 71322 8657/ 333 10323 29082 55066 59005;EQDQ01  00002PRCP99
0172832360999992001102212004-12140-045000FM-12+044099999V0203601N001512200019N0100001N1+02741+02051100991ADDAA124007191GF104991001001999999001021KA1240N+02191MA1999999096141MD1999999+0011REMSYN081AAXX  22124 83236 22997 43603 10274 20205 39614 4009980002 333 20219 58001 60074;
0182832360999992001102218004-12140-045000FM-12+044099999V0209999C000010450019N0100001N1+02871+02191100631ADDAA106002091AY191061AY261061GF108991031071008001011001MA1999999095791MD1999999-0011MW1021REMSYN082AAXX  22184 83236 21597 80000 10287 20219 39579 40063 70296 83710 333 59001 60021;
0198832360999992001102300004-12140-045000FM-12+044099999V0201801N000510450019N0100001N1+02561+02401100721ADDAA199000091GF108991041071008001021999KA1240M+03181MA1999999095891MD1999999-0161REMSYN088AAXX  23004 83236 32597 81801 10256 20240 39589 40072 8472/ 333 10318 29079 55042 59016;EQDQ01  00002PRCP99
0173832360999992001102312004-12140-045000FM-12+044099999V0201801N002610075019N0100001N1+02741+02101101101ADDAA124002091GF105991051021008001001001KA1240N+02351MA1999999096151MD1999999+0011REMSYN082AAXX  23124 83236 22597 51805 10274 20210 39615 40110 85200 333 20235 58001 60024;
0182832360999992001102318004-12140-045000FM-12+044099999V0203601N003112200019N0100001N1+02871+02361100711ADDAA106003091AY101061AY261061GF104991041021008001001001MA1999999095871MD1999999+0081MW1021REMSYN082AAXX  23184 83236 21597 43606 10287 20236 39587 40071 70206 84200 333 58008 60031;
0213832360999992001102400004-12140-045000FM-12+044099999V0202301N001010450019N0100001N1+02381+02171101071ADDAA106000191AY101061AY251061GF108991031071008001021999KA1240M+03101MA1999999096201MD1999999+0311MW1131REMSYN100AAXX  24004 83236 21597 82302 10238 20217 39620 40107 71305 8372/ 333 10310 29078 55044 58031 69911;
0182832360999992001102418004-12140-045000FM-12+044099999V0200501N004110075019N0100001N1+03231+02111100861ADDAA106001091AY191061AY261061GF106991061031008001001001MA1999999096031MD1999999+0161MW1151REMSYN082AAXX  24184 83236 21597 60508 10323 20211 39603 40086 71596 86300 333 58016 60011;
0226832360999992001102500004-12140-045000FM-12+044099999V0200901N003610075019N0100001N1+02731+02151101041ADDAA199000091AY101061AY291061GF108991081071008001999999KA1240M+03371MA1999999096191MD1999999-0011MW1171REMSYN094AAXX  25004 83236 31597 80907 10273 20215 39619 40104 71709 887// 333 10337 29068 55085 59001;EQDQ01  00002PRCP99
0201832360999992001102512004-12140-045000FM-12+044099999V0200901N004112200019N0100001N1+02741+02121101411ADDAA124020191AY191061AY261061GF103991031011008001001001KA1240N+02171MA1999999096561MD1999999+0121MW1021REMSYN088AAXX  25124 83236 21597 30908 10274 20212 39656 40141 70296 83100 333 20217 58012 60204;
0167832360999992001102518004-12140-045000FM-12+044099999V0201401N004612200019N0100001N1+03331+01781100871ADDAA199000091GF104991041021008001001001MA1999999096041MD1999999+0011REMSYN070AAXX  25184 83236 32597 41409 10333 20178 39604 40087 84200 333 58001;EQDQ01  00002PRCP99
0198832360999992001102600004-12140-045000FM-12+044099999V0202701N001010210019N0100001N1+02561+01971101121ADDAA199000091GF106991061001022501011001KA1240M+03411MA1999999096271MD1999999+0081REMSYN088AAXX  26004 83236 32897 62702 10256 20197 39627 40112 86010 333 10341 29062 55102 58008;EQDQ01  00002PRCP99
0186832360999992001102612004-12140-045000FM-12+044099999V0200501N002612200019N0200001N1+02731+02001101361ADDAA199000091GF103991011011008001001081KA1240N+02151MA1999999096501MD1999999-0061REMSYN076AAXX  26124 83236 32598 30505 10273 20200 39650 40136 81108 333 20215 59006;EQDQ01  00002PRCP99
0182832360999992001102618004-12140-045000FM-12+044099999V0200501N002612200019N0200001N1+03051+01911100881ADDAA106003091AY161061AY261061GF104991041031008001001001MA1999999096031MD1999999-0011MW1021REMSYN082AAXX  26184 83236 21598 40505 10305 20191 39603 40088 70266 84300 333 59001 60031;
0198832360999992001102700004-12140-045000FM-12+044099999V0201501N000512200019N0200001N1+02441+02071100991ADDAA199000091GF103991031001022501011001KA1240M+03191MA1999999096141MD1999999-0131REMSYN088AAXX  27004 83236 32898 31501 10244 20207 39614 40099 83010 333 10319 29069 55100 59013;EQDQ01  00002PRCP99
0173832360999992001102712004-12140-045000FM-12+044099999V0203601N001012200019N0200001N1+02631+01931101241ADDAA124003091GF101991011011008001001001KA1240N+02031MA1999999096361MD1999999-0141REMSYN082AAXX  27124 83236 22598 13602 10263 20193 39636 40124 81100 333 20203 59014 60034;
0167832360999992001102718004-12140-045000FM-12+044099999V0201401N001012200019N0200001N1+02281+01701100711ADDAA199000091GF104991041021008001001001MA1999999095881MD1999999-0351REMSYN070AAXX  27184 83236 32598 41402 10228 20170 39588 40071 84200 333 59035;EQDQ01  00002PRCP99
0226832360999992001102800004-12140-045000FM-12+044099999V0201501N001012200019N0200001N1+02391+01821101001ADDAA199000091AY101061AY221061GF102991021031008001001001KA1240M+03381MA1999999096131MD1999999-0011MW1131REMSYN094AAXX  28004 83236 31598 21502 10239 20182 39613 40100 71302 82300 333 10338 29062 55114 59001;EQDQ01  00002PRCP99
0196832360999992001102812004-12140-045000FM-12+044099999V0200901N003112200019N0200001N1+02571+01701101291ADDAA199000091GA1001+999999999GF100991001001999999001001KA1240N+01911MA1999999096401MD1999999+0041REMSYN070AAXX  28124 83236 32998 00906 10257 20170 39640 40129 333 20191 58004;EQDQ01  00002PRCP99
0167832360999992001102818004-12140-045000FM-12+044099999V0203601N001512200019N0200001N1+03211+01551100851ADDAA199000091GF104991041021008001001001MA1999999096001MD1999999+0121REMSYN070AAXX  28184 83236 32598 43603 10321 20155 39600 40085 84200 333 58012;EQDQ01  00002PRCP99
0196832360999992001102912004-12140-045000FM-12+044099999V0203601N001012200019N0200001N1+02651+01631101321ADDAA199000091GA1001+999999999GF100991001001999999001001KA1240N+01851MA1999999096431MD1999999+0031REMSYN070AAXX  29124 83236 32998 03602 10265 20163 39643 40132 333 20185 58003;EQDQ01  00002PRCP99
0167832360999992001102918004-12140-045000FM-12+044099999V0201801N001012200019N0200001N1+03361+01361100701ADDAA199000091GF104991041021008001001001MA1999999095871MD1999999-0131REMSYN070AAXX  29184 83236 32598 41802 10336 20136 39587 40070 84200 333 59013;EQDQ01  00002PRCP99
0208832360999992001103000004-12140-045000FM-12+044099999V0201801N002112200019N0200001N1+02451+01791100931ADDAA199000091GA1001+999999999GF100991001001999999001001KA1240M+03471MA1999999096071MD1999999-0051REMSYN082AAXX  30004 83236 32998 01804 10245 20179 39607 40093 333 10347 29054 55111 59005;EQDQ01  00002PRCP99
0196832360999992001103012004-12140-045000FM-12+044099999V0200501N005112200019N0200001N1+02801+01721101251ADDAA199000091GA1001+999999999GF100991001001999999001001KA1240N+01901MA1999999096381MD1999999-0051REMSYN070AAXX  30124 83236 32998 00510 10280 20172 39638 40125 333 20190 59005;EQDQ01  00002PRCP99
0167832360999992001103018004-12140-045000FM-12+044099999V0203601N001512200019N0200001N1+03451+01431100611ADDAA199000091GF103991031021008001001001MA1999999095791MD1999999-0081REMSYN070AAXX  30184 83236 32598 33603 10345 20143 39579 40061 83200 333 59008;EQDQ01  00002PRCP99
0214832360999992001103100004-12140-045000FM-12+044099999V0201801N001019999999N0200001N1+02731+01741100901ADDAA199000091GA1091+999999999GF109991091999999999999999KA1240M+03551MA1999999096081MD1999999+0011REMSYN088AAXX  31004 83236 32598 91802 10273 20174 39608 40090 87800 333 10355 29048 55109 58001;EQDQ01  00002PRCP99
0196832360999992001103112004-12140-045000FM-12+044099999V0200901N004112200019N0200001N1+02901+01751101061ADDAA199000091GA1001+999999999GF100991001001999999001001KA1240N+02181MA1999999096251MD1999999-0131REMSYN070AAXX  31124 83236 32998 00908 10290 20175 39625 40106 333 20218 59013;EQDQ01  00002PRCP99
0167832360999992001103118004-12140-045000FM-12+044099999V0203601N000512200019N0200001N1+03471+01731100511ADDAA199000091GF103991031011008001001001MA1999999095691MD1999999-0391REMSYN070AAXX  31184 83236 32598 33601 10347 20173 39569 40051 83100 333 59039;EQDQ01  00002PRCP99
0198832360999992001110100004-12140-045000FM-12+044099999V0202701N001512200019N0200001N1+02711+01941100631ADDAA199000091GF103991001001999999001021KA1240M+03601MA1999999095841MD1999999-0241REMSYN088AAXX  01004 83236 32998 32703 10271 20194 39584 40063 80002 333 10360 29053 55111 59024;EQDQ01  00002PRCP99
0201832360999992001110112004-12140-045000FM-12+044099999V0202301N001010075019N0100001N1+02431+02071101041ADDAA124000591AY151061AY251061GF108991051051008001021999KA1240N+02191MA1999999096171MD1999999-0081MW1021REMSYN088AAXX  01124 83236 21597 82302 10243 20207 39617 40104 70255 8552/ 333 20219 59008 69944;
0167832360999992001110118004-12140-045000FM-12+044099999V0202301N001011050019N0100001N1+02361+01841100511ADDAA199000091GF105991031021008001001021MA1999999095741MD1999999+0051REMSYN070AAXX  01184 83236 32597 52302 10236 20184 39574 40051 83202 333 58005;EQDQ01  00002PRCP99
0198832360999992001110200004-12140-045000FM-12+044099999V0209999C000012200019N0100001N1+02621+02071100801ADDAA199000091GF103991031001022501061001KA1240M+03361MA1999999095941MD1999999+0101REMSYN088AAXX  02004 83236 32897 30000 10262 20207 39594 40080 83060 333 10336 29067 55048 58010;EQDQ01  00002PRCP99
0201832360999992001110212004-12140-045000FM-12+044099999V0201801N001510450019N0100001N1+02661+02201100951ADDAA124013091AY161061AY261061GF106991021041008001071001KA1240N+02171MA1999999096111MD1999999-0061MW1021REMSYN088AAXX  02124 83236 21597 61803 10266 20220 39611 40095 70266 82470 333 20217 59006 60134;
0182832360999992001110218004-12140-045000FM-12+044099999V0200901N001510075019N0100001N1+02431+02191100841ADDAA106004191AY191061AY261061GF108991051071008001021999MA1999999096541MD1999999+0201MW1151REMSYN082AAXX  02184 83236 21597 80903 10243 20219 39654 40084 71596 8572/ 333 58020 60041;
0213832360999992001110300004-12140-045000FM-12+044099999V0209999C000010075019N0100001N1+02361+02191100831ADDAA106000591AY151061AY251061GF108991081051008001001001KA1240M+03111MA1999999096061MD1999999+0181MW1021REMSYN100AAXX  03004 83236 21597 80000 10236 20219 39606 40083 70255 88500 333 10311 29086 55011 58018 69941;
0173832360999992001110312004-12140-045000FM-12+044099999V0200501N001012200019N0100001N1+02611+02171101081ADDAA124005191GF102991001001999999001081KA1240N+02071MA1999999096121MD1999999+0011REMSYN082AAXX  03124 83236 22997 20502 10261 20217 39612 40108 80008 333 20207 58001 60054;
0183832360999992001110318004-12140-045000FM-12+044099999V0200501N003110075019N0100001N1+03301+02051100471ADDAA199000091GF107991999021008001001001MA1999999095661MD1999999-0281REMSYN070AAXX  03184 83236 32597 70506 10330 20205 39566 40047 85200 333 59028;EQDQ01+000052SCOTLCQ02  00002PRCP99
0174832360999992001110400004-12140-045000FM-12+044099999V0202301N004119999999N0100001N1+02621+99999999999ADDAA199000091GF108991999999008001999999KA1240M+03431REMSYN093AAXX  04004 83236 31597 82308 10262 2207 39594 40078 71302 8372/ 333 10343 29067 55089 59012;EQDQ01  00002PRCP99
0186832360999992001110412004-12140-045000FM-12+044099999V0209999C000010075019N0100001N1+02581+02191101201ADDAA199000091GF107991071051008001001001KA1240N+02181MA1999999096321MD1999999+0221REMSYN076AAXX  04124 83236 32597 70000 10258 20219 39632 40120 87500 333 20218 58022;EQDQ01  00002PRCP99
0195832360999992001110418004-12140-045000FM-12+044099999V0201801N002110075019N0100001N1+02941+02141100771ADDAA199000091AY101061AY291061GF107991051071008001021001MA1999999095941MD1999999+0281MW1171REMSYN076AAXX  04184 83236 31597 71804 10294 20214 39594 40077 71709 85720 333 58028;EQDQ01  00002PRCP99
0198832360999992001110500004-12140-045000FM-12+044099999V0202701N001010210019N0100001N1+02471+02301100871ADDAA199000091GF106991061001022501021001KA1240M+03091MA1999999096001MD1999999+0061REMSYN088AAXX  05004 83236 32897 62702 10247 20230 39600 40087 86020 333 10309 29081 55013 58006;EQDQ01  00002PRCP99
0186832360999992001110512004-12140-045000FM-12+044099999V0202701N001012200019N0100001N1+02671+02181101161ADDAA199000091GF103991031021008001001001KA1240N+02071MA1999999096291MD1999999-0031REMSYN076AAXX  05124 83236 32597 32702 10267 20218 39629 40116 83200 333 20207 59003;EQDQ01  00002PRCP99
0167832360999992001110518004-12140-045000FM-12+044099999V0200901N002612200019N0100001N1+03471+02021100531ADDAA199000091GF104991041021008001001001MA1999999095741MD1999999-0201REMSYN070AAXX  05184 83236 32597 40905 10347 20202 39574 40053 84200 333 59020;EQDQ01  00002PRCP99
0226832360999992001110600004-12140-045000FM-12+044099999V0201801N001012200019N0100001N1+02681+02091100751ADDAA199000091AY101061AY221061GF104991031031008001041001KA1240M+03591MA1999999095931MD1999999-0071MW1131REMSYN094AAXX  06004 83236 31597 41802 10268 20209 39593 40075 71302 83340 333 10359 29065 55113 59007;EQDQ01  00002PRCP99
0201832360999992001110612004-12140-045000FM-12+044099999V0202701N002111050019N0200001N1+02631+02351101131ADDAA124007191AY161061AY261061GF105991021021008001061031KA1240N+02211MA1999999096281MD1999999+0011MW1021REMSYN088AAXX  06124 83236 21598 52704 10263 20235 39628 40113 70266 82263 333 20221 58001 60074;
0182832360999992001110618004-12140-045000FM-12+044099999V0201401N004110075019N0100001N1+02791+02041100791ADDAA106000591AY151061AY251061GF108991061051008001071999MA1999999095851MD1999999+0111MW1171REMSYN082AAXX  06184 83236 21597 81408 10279 20204 39585 40079 71755 8657/ 333 58011 69951;
0226832360999992001110700004-12140-045000FM-12+044099999V0201801N001010075019N0100001N1+02611+02331100901ADDAA199000091AY121061AY221061GF108991051051008001081999KA1240M+03351MA1999999096051MD1999999+0121MW1131REMSYN094AAXX  07004 83236 31597 81802 10261 20233 39605 40090 71322 8558/ 333 10335 29080 55034 58012;EQDQ01  00002PRCP99
0201832360999992001110712004-12140-045000FM-12+044099999V0203601N001510450019N0200001N1+02541+02131101251ADDAA124045091AY161061AY261061GF106991031021008001051071KA1240N+02041MA1999999096371MD1999999+0091MW1021REMSYN088AAXX  07124 83236 21598 63603 10254 20213 39637 40125 70266 83257 333 20204 58009 60454;
0195832360999992001110718004-12140-045000FM-12+044099999V0201401N003110075019N0200001N1+02901+02301100761ADDAA199000091AY121061AY221061GF108991051051008001071999MA1999999095901MD1999999+0051MW1151REMSYN076AAXX  07184 83236 31598 81406 10290 20230 39590 40076 71522 8557/ 333 58005;EQDQ01  00002PRCP99
0213832360999992001110800004-12140-045000FM-12+044099999V0202701N001510075019N0040001N1+02301+02221101151ADDAA106007191AY161061AY261061GF108991061051008001999999KA1240M+02291MA1999999096251MD1999999+0201MW1131REMSYN100AAXX  08004 83236 21596 82703 10230 20222 39625 40115 71366 865// 333 10229 29084 55050 58020 60071;
0173832360999992001110812004-12140-045000FM-12+044099999V0209999C000010450019N0100001N1+02581+02191101311ADDAA124007191GF107991041021008001071999KA1240N+02061MA1999999096411MD1999999+0041REMSYN082AAXX  08124 83236 22597 70000 10258 20219 39641 40131 8427/ 333 20206 58004 60074;
0167832360999992001110818004-12140-045000FM-12+044099999V0200901N002111050019N0200001N1+03301+01981100721ADDAA199000091GF105991031021008001001051MA1999999095901MD1999999+0001REMSYN070AAXX  08184 83236 32598 50904 10330 20198 39590 40072 83205 333 58000;EQDQ01  00002PRCP99
0213832360999992001110900004-12140-045000FM-12+044099999V0203201N002610075019N0040001N1+02581+02101100971ADDAA106001091AY191061AY261061GF108991051061008001999999KA1240M+03431MA1999999096121MD1999999-0131MW1171REMSYN100AAXX  09004 83236 21596 83205 10258 20210 39612 40097 71796 856// 333 10343 29069 55087 59013 60011;
0173832360999992001110912004-12140-045000FM-12+044099999V0209999C000011050019N0200001N1+02701+02011101211ADDAA124001091GF106991041001022501071051KA1240N+02081MA1999999096351MD1999999-0061REMSYN082AAXX  09124 83236 22898 60000 10270 20201 39635 40121 84075 333 20208 59006 60014;
0167832360999992001110918004-12140-045000FM-12+044099999V0203601N002110075019N0200001N1+03401+01811100701ADDAA199000091GF107991051031008001051071MA1999999095901MD1999999+0001REMSYN070AAXX  09184 83236 32598 73604 10340 20181 39590 40070 85357 333 58000;EQDQ01  00002PRCP99
0226832360999992001111000004-12140-045000FM-12+044099999V0202301N001512200019N0200001N1+02661+02021100941ADDAA199000091AY121061AY221061GF104991031051008001071001KA1240M+03491MA1999999096111MD1999999-0011MW1131REMSYN094AAXX  10004 83236 31598 42303 10266 20202 39611 40094 71322 83570 333 10349 29066 55049 59001;EQDQ01  00002PRCP99
0186832360999992001111012004-12140-045000FM-12+044099999V0209999C000012200019N0200001N1+02791+01851101241ADDAA199000091GF104991031001022501061051KA1240N+02171MA1999999096391MD1999999+0041REMSYN076AAXX  10124 83236 32898 40000 10279 20185 39639 40124 83065 333 20217 58004;EQDQ01  00002PRCP99
0167832360999992001111018004-12140-045000FM-12+044099999V0200501N001012200019N0200001N1+03411+01721100571ADDAA199000091GF104991031021008001001031MA1999999095801MD1999999-0101REMSYN070AAXX  10184 83236 32598 40502 10341 20172 39580 40057 83203 333 59010;EQDQ01  00002PRCP99
0173832360999992001111112004-12140-045000FM-12+044099999V0200501N001512200019N0200001N1+02771+02121101291ADDAA124001091GF104991021021008001051001KA1240N+02061MA1999999096431MD1999999+0041REMSYN082AAXX  11124 83236 22598 40503 10277 20212 39643 40129 82250 333 20206 58004 69994;
0167832360999992001111118004-12140-045000FM-12+044099999V0200901N001512200019N0200001N1+03401+01541100621ADDAA199000091GF103991031021008001001001MA1999999095841MD1999999+0041REMSYN070AAXX  11184 83236 32598 30903 10340 20154 39584 40062 83200 333 58004;EQDQ01  00002PRCP99
0198832360999992001111200004-12140-045000FM-12+044099999V0202301N001512200019N0200001N1+02581+02041100951ADDAA199000091GF104991021021008001051001KA1240M+03501MA1999999096111MD1999999-0021REMSYN088AAXX  12004 83236 32598 42303 10258 20204 39611 40095 82250 333 10350 29061 55110 59002;EQDQ01  00002PRCP99
0186832360999992001111212004-12140-045000FM-12+044099999V0200501N002110450019N0200001N1+02881+01641101241ADDAA199000091GF106991041021008001071051KA1240N+02081MA1999999096401MD1999999-0031REMSYN076AAXX  12124 83236 32598 60504 10288 20164 39640 40124 84275 333 20208 59003;EQDQ01  00002PRCP99
0167832360999992001111218004-12140-045000FM-12+044099999V0200501N002111050019N0200001N1+03511+01201100701ADDAA199000091GF105991021021008001001071MA1999999095901MD1999999+0061REMSYN070AAXX  12184 83236 32598 50504 10351 20120 39590 40070 82207 333 58006;EQDQ01  00002PRCP99
0198832360999992001111300004-12140-045000FM-12+044099999V0201801N001512200019N0200001N1+02451+01741100881ADDAA199000091GF103991031001022501071001KA1240M+03651MA1999999096041MD1999999-0071REMSYN088AAXX  13004 83236 32898 31803 10245 20174 39604 40088 83070 333 10365 29051 55112 59007;EQDQ01  00002PRCP99
0186832360999992001111312004-12140-045000FM-12+044099999V0209999C000012200019N0200001N1+02881+01831101031ADDAA199000091GF104991021021008001001071KA1240N+02011MA1999999096181MD1999999-0221REMSYN076AAXX  13124 83236 32598 40000 10288 20183 39618 40103 82207 333 20201 59022;EQDQ01  00002PRCP99
0167832360999992001111318004-12140-045000FM-12+044099999V0203601N002611050019N0200001N1+03601+01221100321ADDAA199000091GF105991021021008001001051MA1999999095561MD1999999-0341REMSYN070AAXX  13184 83236 32598 53605 10360 20122 39556 40032 82205 333 59034;EQDQ01  00002PRCP99
0226832360999992001111400004-12140-045000FM-12+044099999V0201801N001512200019N0200001N1+02531+01741100601ADDAA199000091AY121061AY221061GF102991021051012501001001KA1240M+03701MA1999999095781MD1999999-0261MW1131REMSYN094AAXX  14004 83236 31698 21803 10253 20174 39578 40060 71322 82500 333 10370 29050 55112 59026;EQDQ01  00002PRCP99
0162832360999992001111412004-12140-045000FM-12+044099999V0200501N002119999999N0100001N1+99999+99999999999ADDAA199000091GF108991999999008001999999KA1240N+02121REMSYN081AAXX  14124 83236 31597 80504 0239 20201 39609 40097 71622 8568/ 333 20212 59009;EQDQ01  00002PRCP99
0182832360999992001111418004-12140-045000FM-12+044099999V0202301N003110075019N0100001N1+02371+02051100741ADDAA106002091AY191061AY251061GF108991061051008001071999MA1999999095841MD1999999+0281MW1171REMSYN082AAXX  14184 83236 21597 82306 10237 20205 39584 40074 71795 8657/ 333 58028 60021;
0213832360999992001111500004-12140-045000FM-12+044099999V0201401N001010450019N0100001N1+02251+02191100861ADDAA106004191AY191061AY261061GF105991041021008001051001KA1240M+03141MA1999999095951MD1999999+0171MW1031REMSYN100AAXX  15004 83236 21597 51402 10225 20219 39595 40086 70396 84250 333 10314 29089 55020 58017 60041;
0173832360999992001111512004-12140-045000FM-12+044099999V0209999C000010120019N0100001N1+02431+02171101121ADDAA124006191GF108991061081008001061999KA1240N+02091MA1999999096211MD1999999+0121REMSYN082AAXX  15124 83236 22597 80000 10243 20217 39621 40112 8686/ 333 20209 58012 60064;
0167832360999992001111518004-12140-045000FM-12+044099999V0202301N001010450019N0200001N1+03201+02061100501ADDAA199000091GF106991031041008001071051MA1999999095691MD1999999+0151REMSYN070AAXX  15184 83236 32598 62302 10320 20206 39569 40050 83475 333 58015;EQDQ01  00002PRCP99
0226832360999992001111600004-12140-045000FM-12+044099999V0202301N001010075019N0100001N1+02551+02191100981ADDAA199000091AY121061AY221061GF108991051051008001071999KA1240M+03301MA1999999096111MD1999999+0161MW1131REMSYN094AAXX  16004 83236 31597 82302 10255 20219 39611 40098 71322 8557/ 333 10330 29075 55038 58016;EQDQ01  00002PRCP99
0214832360999992001111612004-12140-045000FM-12+044099999V0201801N001510120019N0100001N1+02371+02131101301ADDAA199000091AY121061AY221061GF108991061081008001071999KA1240N+02241MA1999999096401MD1999999+0191MW1151REMSYN082AAXX  16124 83236 31597 81803 10237 20213 39640 40130 71522 8687/ 333 20224 58019;EQDQ01  00002PRCP99
0167832360999992001111618004-12140-045000FM-12+044099999V0200501N003610075019N0200001N1+02971+02051100741ADDAA199000091GF106991051041008001081001MA1999999095911MD1999999+0221REMSYN070AAXX  16184 83236 32598 60507 10297 20205 39591 40074 85480 333 58022;EQDQ01  00002PRCP99
0213832360999992001111700004-12140-045000FM-12+044099999V0201801N001010075019N0040001N1+02311+02251101141ADDAA106002091AY161061AY261061GF108991061071008001999999KA1240M+03081MA1999999096231MD1999999+0121MW1131REMSYN100AAXX  17004 83236 21596 81802 10231 20225 39623 40114 71366 867// 333 10308 29085 55035 58012 60021;
0173832360999992001111712004-12140-045000FM-12+044099999V0202701N001012200019N0200001N1+02641+02251101141ADDAA124002091GF104991031021012501051001KA1240N+02221MA1999999096241MD1999999-0161REMSYN082AAXX  17124 83236 22698 42702 10264 20225 39624 40114 83250 333 20222 59016 60024;
0167832360999992001111718004-12140-045000FM-12+044099999V0202701N002610075019N0200001N1+03031+02101100551ADDAA199000091GF107991051041008001071999MA1999999095721MD1999999-0191REMSYN070AAXX  17184 83236 32598 72705 10303 20210 39572 40055 8547/ 333 59019;EQDQ01  00002PRCP99
0213832360999992001111800004-12140-045000FM-12+044099999V0209999C000010075019N0100001N1+02611+02331100841ADDAA106004191AY191061AY261061GF108991061051008001081999KA1240M+03351MA1999999095991MD1999999-0241MW1131REMSYN100AAXX  18004 83236 21597 80000 10261 20233 39599 40084 71396 8658/ 333 10335 29077 55074 59024 60041;
0201832360999992001111812004-12140-045000FM-12+044099999V0202301N001010075019N0040001N1+02171+02111101301ADDAA124034091AY161061AY261061GF108991071061008001999999KA1240N+02011MA1999999096391MD1999999+0151MW1611REMSYN088AAXX  18124 83236 21596 82302 10217 20211 39639 40130 76166 876// 333 20201 58015 60344;
0182832360999992001111818004-12140-045000FM-12+044099999V0202301N001010075019N0100001N1+02821+02221100761ADDAA106001091AY151061AY251061GF108991061051008001071999MA1999999095881MD1999999+0161MW1171REMSYN082AAXX  18184 83236 21597 82302 10282 20222 39588 40076 71755 8657/ 333 58016 60011;
0207832360999992001111900004-12140-045000FM-12+044099999V0201801N001010075019N0040001N1+02451+02301101111ADDAA199000021AY121061AY221061GF108991061051008001999999KA1240M+02981MA1999999096181MD1999999+0191MW1131REMSYN094AAXX  19004 83236 31596 81802 10245 20230 39618 40111 71322 865// 333 10298 29088 55014 58019;
0173832360999992001111912004-12140-045000FM-12+044099999V0202301N001010075019N0100001N1+02481+02111101331ADDAA124001091GF108991051021008001071999KA1240N+02191MA1999999096441MD1999999+0051REMSYN082AAXX  19124 83236 22597 82302 10248 20211 39644 40133 8527/ 333 20219 58005 60014;
0167832360999992001111918004-12140-045000FM-12+044099999V0202301N002610450019N0200001N1+02881+02251100831ADDAA199000091GF106991041031008001061051MA1999999095971MD1999999+0091REMSYN070AAXX  19184 83236 32598 62305 10288 20225 39597 40083 84365 333 58009;EQDQ01  00002PRCP99
0198832360999992001112000004-12140-045000FM-12+044099999V0201401N001510450019N0200001N1+02421+02211100991ADDAA199000091GF105991031021012501061001KA1240M+03071MA1999999096111MD1999999-0071REMSYN088AAXX  20004 83236 32698 51403 10242 20221 39611 40099 83260 333 10307 29081 55057 59007;EQDQ01  00002PRCP99
0186832360999992001112012004-12140-045000FM-12+044099999V0202301N001510450019N0200001N1+02641+02311101101ADDAA199000091GF106991041021008001071051KA1240N+02191MA1999999096231MD1999999-0211REMSYN076AAXX  20124 83236 32598 62303 10264 20231 39623 40110 84275 333 20219 59021;EQDQ01  00002PRCP99
0167832360999992001112018004-12140-045000FM-12+044099999V0203601N003611050019N0200001N1+03221+01981100491ADDAA199000091GF105991031021008001001031MA1999999095691MD1999999-0281REMSYN070AAXX  20184 83236 32598 53607 10322 20198 39569 40049 83203 333 59028;EQDQ01  00002PRCP99
0226832360999992001112100004-12140-045000FM-12+044099999V0202301N001510075019N0100001N1+02601+02171100861ADDAA199000091AY121061AY221061GF108991061051008001071999KA1240M+03321MA1999999096011MD1999999-0101MW1131REMSYN094AAXX  21004 83236 31597 82303 10260 20217 39601 40086 71322 8657/ 333 10332 29071 55089 59010;EQDQ01  00002PRCP99
0201832360999992001112112004-12140-045000FM-12+044099999V0202301N002110120019N0100001N1+02441+02151101251ADDAA124001091AY161061AY261061GF108991081081008001001001KA1240N+02231MA1999999096361MD1999999+0131MW1021REMSYN088AAXX  21124 83236 21597 82304 10244 20215 39636 40125 70266 88800 333 20223 58013 60014;
0167832360999992001112118004-12140-045000FM-12+044099999V0203201N001010210019N0100001N1+02601+02251100991ADDAA199000091GF108991081001022501021999MA1999999096111MD1999999+0421REMSYN070AAXX  21184 83236 32897 83202 10260 20225 39611 40099 8802/ 333 58042;EQDQ01  00002PRCP99
0213832360999992001112200004-12140-045000FM-12+044099999V0202701N001510075019N0100001N1+02331+02201101231ADDAA106000191AY151061AY251061GF108991081001008001021999KA1240M+02921MA1999999096331MD1999999+0321MW1021REMSYN100AAXX  22004 83236 21597 82703 10233 20220 39633 40123 70255 8802/ 333 10292 29088 55005 58032 69921;
0173832360999992001112212004-12140-045000FM-12+044099999V0209999C000010450019N0100001N1+02421+02211101331ADDAA124000191GF106991011011008001031021KA1240N+02091MA1999999096421MD1999999+0061REMSYN082AAXX  22124 83236 22597 60000 10242 20221 39642 40133 81132 333 20209 58006 69924;
0167832360999992001112218004-12140-045000FM-12+044099999V0209999C000010450019N0100001N1+02991+01981100881ADDAA199000091GF108991041071008001021999MA1999999096031MD1999999-0081REMSYN070AAXX  22184 83236 32597 80000 10299 20198 39603 40088 8472/ 333 59008;EQDQ01  00002PRCP99
0198832360999992001112300004-12140-045000FM-12+044099999V0202301N000510210019N0100001N1+02371+02151100961ADDAA199000091GF108991081001022501021999KA1240M+03081MA1999999096071MD1999999-0261REMSYN088AAXX  23004 83236 32897 82301 10237 20215 39607 40096 8802/ 333 10308 29080 55026 59026;EQDQ01  00002PRCP99
0186832360999992001112312004-12140-045000FM-12+044099999V0202301N000510450019N0100001N1+02431+02251101001ADDAA199000091GF108991041051008001021999KA1240N+02171MA1999999096111MD1999999-0311REMSYN076AAXX  23124 83236 32597 82301 10243 20225 39611 40100 8452/ 333 20217 59031;EQDQ01  00002PRCP99
0167832360999992001112318004-12140-045000FM-12+044099999V0200501N001510075019N0100001N1+02651+02231100601ADDAA199000091GF107991071051008001001001MA1999999095731MD1999999-0301REMSYN070AAXX  23184 83236 32597 70503 10265 20223 39573 40060 87500 333 59030;EQDQ01  00002PRCP99
0198832360999992001112400004-12140-045000FM-12+044099999V0209999C000010075019N0100001N1+02461+01301100701ADDAA199000091GF108991081051008001999999KA1240M+03091MA1999999095831MD1999999-0241REMSYN088AAXX  24004 83236 32597 80000 10246 20130 39583 40070 885// 333 10309 29086 55006 59024;EQDQ01  00002PRCP99
0186832360999992001112412004-12140-045000FM-12+044099999V0202301N001012200019N0100001N1+02631+02141100871ADDAA199000091GF106991021021008001001061KA1240N+02191MA1999999096011MD1999999-0101REMSYN076AAXX  24124 83236 32597 62302 10263 20214 39601 40087 82206 333 20219 59010;EQDQ01  00002PRCP99
0167832360999992001112418004-12140-045000FM-12+044099999V0201801N001011050019N0100001N1+03031+01961100411ADDAA199000091GF106991031031008001001031MA1999999095591MD1999999-0141REMSYN070AAXX  24184 83236 32597 61802 10303 20196 39559 40041 83303 333 59014;EQDQ01  00002PRCP99
0185832360999992001112500004-12140-045000FM-12+044099999V0202701N002110075019N0100001N1+02291+02091100881ADDAA106001091GF108991081071008001999999KA1240M+03131MA1999999096001MD1999999+0131REMSYN094AAXX  25004 83236 21597 82704 10229 20209 39600 40088 887// 333 10313 29077 55046 58013 60011;
0201832360999992001112512004-12140-045000FM-12+044099999V0209999C000010450019N0100001N1+02241+02121101151ADDAA124032091AY161061AY261061GF108991041051008001021999KA1240N+02091MA1999999096221MD1999999+0211MW1021REMSYN088AAXX  25124 83236 21597 80000 10224 20212 39622 40115 70266 8452/ 333 20209 58021 60324;
0182832360999992001112518004-12140-045000FM-12+044099999V0201801N002112200019N0100001N1+02851+02141100661ADDAA106000191AY151061AY251061GF106991031021008001001061MA1999999095781MD1999999+0191MW1021REMSYN082AAXX  25184 83236 21597 61804 10285 20214 39578 40066 70255 83206 333 58019 69921;
0198832360999992001112600004-12140-045000FM-12+044099999V0202701N001010120019N0100001N1+02321+02131100881ADDAA199000091GF106991061081008001001001KA1240M+02981MA1999999095971MD1999999-0031REMSYN088AAXX  26004 83236 32597 62702 10232 20213 39597 40088 86800 333 10298 29084 55044 59003;EQDQ01  00002PRCP99
0173832360999992001112612004-12140-045000FM-12+044099999V0209999C000010450019N0100001N1+02501+02151101101ADDAA124000191GF107991031021008001051001KA1240N+02151MA1999999096201MD1999999-0021REMSYN082AAXX  26124 83236 22597 70000 10250 20215 39620 40110 83250 333 20215 59002 69924;
0167832360999992001112618004-12140-045000FM-12+044099999V0200501N003111050019N0100001N1+02931+02121101821ADDAA199000091GF105991031031008001001031MA1999999095781MD1999999+0001REMSYN070AAXX  26184 83236 32597 50506 10293 20212 39578 40182 83303 333 58000;EQDQ01  00002PRCP99
0232832360999992001112700004-12140-045000FM-12+044099999V0201801N001010075019N0100001N1+02271+02191100952ADDAA106001091AY161061AY261061GF108991051051008001021999KA1240M+03051MA1999999096061MD1999999+0091MW1021REMSYN100AAXX  27004 83236 21597 81802 10227 20219 39606 40095 70266 8552/ 333 10305 29084 55027 58009 60011;EQDQ01+100953APOSLP
0201832360999992001112712004-12140-045000FM-12+044099999V0201801N001012200019N0100001N1+02671+02141101131ADDAA124001091AY151061AY251061GF105991041021008001001011KA1240N+02201MA1999999096241MD1999999+0041MW1021REMSYN088AAXX  27124 83236 21597 51802 10267 20214 39624 40113 70255 84201 333 20220 58004 60014;
0167832360999992001112718004-12140-045000FM-12+044099999V0200901N001512200019N0100001N1+03051+02031100631ADDAA199000091GF104991031021008001061001MA1999999095801MD1999999+0021REMSYN070AAXX  27184 83236 32597 40903 10305 20203 39580 40063 83260 333 58002;EQDQ01  00002PRCP99
0198832360999992001112800004-12140-045000FM-12+044099999V0202701N001010120019N0100001N1+02531+02331100761ADDAA199000091GF108991081081008001999999KA1240M+03171MA1999999095921MD1999999-0141REMSYN088AAXX  28004 83236 32597 82702 10253 20233 39592 40076 888// 333 10317 29076 55090 59014;EQDQ01  00002PRCP99
0186832360999992001112812004-12140-045000FM-12+044099999V0209999C000010075019N0100001N1+02471+02281101121ADDAA199000091GF107991071051008001001001KA1240N+02271MA1999999096241MD1999999+0001REMSYN076AAXX  28124 83236 32597 70000 10247 20228 39624 40112 87500 333 20227 58000;EQDQ01  00002PRCP99
0167832360999992001112818004-12140-045000FM-12+044099999V0203601N001012200019N0100001N1+03021+02181100591ADDAA199000091GF104991031021008001001041MA1999999095771MD1999999-0031REMSYN070AAXX  28184 83236 32597 43602 10302 20218 39577 40059 83204 333 59003;EQDQ01  00002PRCP99
0198832360999992001112900004-12140-045000FM-12+044099999V0202301N001510450019N0100001N1+02561+02251100831ADDAA199000091GF108991031051008001051999KA1240M+03131MA1999999095961MD1999999+0041REMSYN088AAXX  29004 83236 32597 82303 10256 20225 39596 40083 8355/ 333 10313 29079 55037 58004;EQDQ01  00002PRCP99
0186832360999992001112912004-12140-045000FM-12+044099999V0200501N000510450019N0100001N1+02581+02171100921ADDAA199000091GF107991031021008001021001KA1240N+02301MA1999999096061MD1999999-0181REMSYN076AAXX  29124 83236 32597 70501 10258 20217 39606 40092 83220 333 20230 59018;EQDQ01  00002PRCP99
0167832360999992001112918004-12140-045000FM-12+044099999V0203601N003112200019N0100001N1+02901+02121100521ADDAA199000091GF106991031021008001001061MA1999999095701MD1999999-0071REMSYN070AAXX  29184 83236 32597 63606 10290 20212 39570 40052 83206 333 59007;EQDQ01  00002PRCP99
0201832360999992001113012004-12140-045000FM-12+044099999V0202301N000510075019N0100001N1+02421+02231100981ADDAA124000391AY151061AY251061GF108991081051008001999999KA1240N+02231MA1999999096111MD1999999+0051MW1021REMSYN088AAXX  30124 83236 21597 82301 10242 20223 39611 40098 70255 885// 333 20223 58005 69934;
0182832360999992001113018004-12140-045000FM-12+044099999V0200501N004110075019N0100001N1+02531+02251100641ADDAA106001091AY161061AY261061GF107991051071008001021001MA1999999095761MD1999999+0061MW1021REMSYN082AAXX  30184 83236 21597 70508 10253 20225 39576 40064 70266 85720 333 58006 60011;
0213832360999992001120100004-12140-045000FM-12+044099999V0200501N004110075019N0040001N1+02251+02221101001ADDAA106005191AY191061AY261061GF108991081071008001999999KA1240M+02831MA1999999096101MD1999999+0161MW1951REMSYN100AAXX  01004 83236 21596 80508 10225 20222 39610 40100 79596 887// 333 10283 29093 55008 58016 60051;
0201832360999992001120112004-12140-045000FM-12+044099999V0201801N001010075019N0040001N1+02401+02171101021ADDAA124015091AY161061AY261061GF108991051051008001021999KA1240N+02061MA1999999096111MD1999999+0001MW1021REMSYN088AAXX  01124 83236 21596 81802 10240 20217 39611 40102 70266 8552/ 333 20206 58000 60154;
0167832360999992001120118004-12140-045000FM-12+044099999V0202701N002110120019N0100001N1+02921+02091100671ADDAA199000091GF106991061081008001001001MA1999999095811MD1999999+0051REMSYN070AAXX  01184 83236 32597 62704 10292 20209 39581 40067 86800 333 58005;EQDQ01  00002PRCP99
0213832360999992001120200004-12140-045000FM-12+044099999V0209999C000010075019N0040001N1+02251+02191100991ADDAA106018091AY161061AY261061GF108991051071008001021999KA1240M+03011MA1999999096081MD1999999-0021MW1021REMSYN100AAXX  02004 83236 21596 80000 10225 20219 39608 40099 70266 8572/ 333 10301 29086 55010 59002 60181;
0173832360999992001120212004-12140-045000FM-12+044099999V0202301N000510075019N0100001N1+02431+02211101041ADDAA124018091GF107991071051008001001001KA1240N+02051MA1999999096141MD1999999+0031REMSYN082AAXX  02124 83236 22597 72301 10243 20221 39614 40104 87500 333 20205 58003 60184;
0242832360999992001120300004-12140-045000FM-12+044099999V0201801N001010075019N0100001N1+02651+02271100861ADDAA199000091AY101061AY291061GF108991999071008001021999KA1240M+03211MA1999999096001MD1999999-0081MW1171REMSYN094AAXX  03004 83236 31597 81802 10265 20227 39600 40086 71709 8872/ 333 10321 29076 55046 59008;EQDQ01+000082SCOTLCQ02  00002PRCP99
0201832360999992001120312004-12140-045000FM-12+044099999V0200901N000510075019N0100001N1+02491+02151100921ADDAA124009991AY191061AY261061GF106991061021008001001001KA1240N+02011MA1999999096061MD1999999-0081MW1021REMSYN088AAXX  03124 83236 21597 60901 10249 20215 39606 40092 70296 86200 333 20201 59008 60104;
0167832360999992001120318004-12140-045000FM-12+044099999V0200901N002611050019N0100001N1+02961+02221100451ADDAA199000091GF107991041031008001001031MA1999999095621MD1999999-0131REMSYN070AAXX  03184 83236 32597 70905 10296 20222 39562 40045 84303 333 59013;EQDQ01  00002PRCP99
0213832360999992001120400004-12140-045000FM-12+044099999V0203601N002110075019N0040001N1+02191+02131101031ADDAA106009991AY161061AY261061GF108991081071008001999999KA1240M+03031MA1999999096121MD1999999+0121MW1021REMSYN100AAXX  04004 83236 21596 83604 10219 20213 39612 40103 70266 887// 333 10303 29086 55003 58012 60101;
0173832360999992001120412004-12140-045000FM-12+044099999V0209999C000010075019N0100001N1+02431+02051101201ADDAA124009991GF108991051071008001021999KA1240N+01971MA1999999096291MD1999999+0231REMSYN082AAXX  04124 83236 22597 80000 10243 20205 39629 40120 8572/ 333 20197 58023 60104;
0167832360999992001120418004-12140-045000FM-12+044099999V0202701N003610450019N0100001N1+02741+02101100851ADDAA199000091GF106991041021008001041001MA1999999095951MD1999999+0331REMSYN070AAXX  04184 83236 32597 62707 10274 20210 39595 40085 84240 333 58033;EQDQ01  00002PRCP99
0198832360999992001120500004-12140-045000FM-12+044099999V0201801N001010210019N0100001N1+02431+02211100941ADDAA199000091GF105991051001022501021001KA1240M+02961MA1999999096061MD1999999-0061REMSYN088AAXX  05004 83236 32897 51802 10243 20221 39606 40094 85020 333 10296 29081 55072 59006;EQDQ01  00002PRCP99
0186832360999992001120512004-12140-045000FM-12+044099999V0200501N001512200019N0200001N1+02581+01921101041ADDAA199000091GF102991021001022501041001KA1240N+01911MA1999999096161MD1999999-0131REMSYN076AAXX  05124 83236 32898 20503 10258 20192 39616 40104 82040 333 20191 59013;EQDQ01  00002PRCP99
0167832360999992001120518004-12140-045000FM-12+044099999V0203601N004112200019N0200001N1+03091+01951100701ADDAA199000091GF103991021021008001001011MA1999999095841MD1999999-0111REMSYN070AAXX  05184 83236 32598 33608 10309 20195 39584 40070 82201 333 59011;EQDQ01  00002PRCP99
0198832360999992001120600004-12140-045000FM-12+044099999V0209999C000012200019N0100001N1+02411+02361100821ADDAA199000091GF103991031011008001001001KA1240M+03191MA1999999095951MD1999999-0111REMSYN088AAXX  06004 83236 32597 30000 10241 20236 39595 40082 83100 333 10319 29076 55115 59011;EQDQ01  00002PRCP99
0186832360999992001120612004-12140-045000FM-12+044099999V0200501N001510450019N0200001N1+02701+01991101051ADDAA199000091GF105991021021008001071051KA1240N+01901MA1999999096181MD1999999+0021REMSYN076AAXX  06124 83236 32598 50503 10270 20199 39618 40105 82275 333 20190 58002;EQDQ01  00002PRCP99
0167832360999992001120618004-12140-045000FM-12+044099999V0200501N003110450019N0200001N1+03061+02141100621ADDAA199000091GF106991041041008001081051MA1999999095771MD1999999-0071REMSYN070AAXX  06184 83236 32598 60506 10306 20214 39577 40062 84485 333 59007;EQDQ01  00002PRCP99
0226832360999992001120700004-12140-045000FM-12+044099999V0201801N001010450019N0200001N1+02561+02021100771ADDAA199000091AY121061AY221061GF105991031051008001071001KA1240M+03161MA1999999095941MD1999999-0011MW1131REMSYN094AAXX  07004 83236 31598 51802 10256 20202 39594 40077 71322 83570 333 10316 29067 55082 59001;EQDQ01  00002PRCP99
0186832360999992001120712004-12140-045000FM-12+044099999V0200501N001512200019N0200001N1+02671+02071100981ADDAA199000091GF103991021021008001001031KA1240N+02041MA1999999096131MD1999999-0051REMSYN076AAXX  07124 83236 32598 30503 10267 20207 39613 40098 82203 333 20204 59005;EQDQ01  00002PRCP99
0167832360999992001120718004-12140-045000FM-12+044099999V0203601N002112200019N0200001N1+03091+01951100541ADDAA199000091GF104991041021008001001001MA1999999095701MD1999999-0071REMSYN070AAXX  07184 83236 32598 43604 10309 20195 39570 40054 84200 333 59007;EQDQ01  00002PRCP99
0186832360999992001121012004-12140-045000FM-12+044099999V0203201N001012200019N0200001N1+02621+01931101081ADDAA199000091GF102991011011012501001031KA1240N+01881MA1999999096221MD1999999+0051REMSYN076AAXX  10124 83236 32698 23202 10262 20193 39622 40108 81103 333 20188 58005;EQDQ01  00002PRCP99
0167832360999992001121018004-12140-045000FM-12+044099999V0203601N003111050019N0200001N1+03181+01871100691ADDAA199000091GF106991041041008001001071MA1999999095861MD1999999+0091REMSYN070AAXX  10184 83236 32598 63606 10318 20187 39586 40069 84407 333 58009;EQDQ01  00002PRCP99
0198832360999992001121100004-12140-045000FM-12+044099999V0201801N001512200019N0200001N1+02421+02071100871ADDAA199000091GF103991031021008001001001KA1240M+03271MA1999999096001MD1999999+0081REMSYN088AAXX  11004 83236 32598 31803 10242 20207 39600 40087 83200 333 10327 29066 55106 58008;EQDQ01  00002PRCP99
0186832360999992001121112004-12140-045000FM-12+044099999V0209999C000012200019N0200001N1+02631+01911101141ADDAA199000091GF103991001001999999001031KA1240N+01981MA1999999096261MD1999999+0041REMSYN076AAXX  11124 83236 32998 30000 10263 20191 39626 40114 80003 333 20198 58004;EQDQ01  00002PRCP99
0167832360999992001121118004-12140-045000FM-12+044099999V0203201N001011050019N0200001N1+03221+01981100661ADDAA199000091GF105991041021008001001031MA1999999095841MD1999999-0021REMSYN070AAXX  11184 83236 32598 53202 10322 20198 39584 40066 84203 333 59002;EQDQ01  00002PRCP99
0198832360999992001121200004-12140-045000FM-12+044099999V0202301N001012200019N0200001N1+02531+02071100851ADDAA199000091GF102991021001022501051001KA1240M+03311MA1999999096001MD1999999+0001REMSYN088AAXX  12004 83236 32898 22302 10253 20207 39600 40085 82050 333 10331 29066 55113 58000;EQDQ01  00002PRCP99
0186832360999992001121212004-12140-045000FM-12+044099999V0203601N002112200019N0200001N1+02691+01761101041ADDAA199000091GF104991001001999999001071KA1240N+01881MA1999999096181MD1999999-0081REMSYN076AAXX  12124 83236 32998 43604 10269 20176 39618 40104 80007 333 20188 59008;EQDQ01  00002PRCP99
0167832360999992001121218004-12140-045000FM-12+044099999V0201801N002611050019N0200001N1+03361+01731100491ADDAA199000091GF106991041021008001001051MA1999999095681MD1999999-0161REMSYN070AAXX  12184 83236 32598 61805 10336 20173 39568 40049 84205 333 59016;EQDQ01  00002PRCP99
0198832360999992001121300004-12140-045000FM-12+044099999V0201801N002112200019N0200001N1+02421+01791100711ADDAA199000091GF103991001001999999001051KA1240M+03451MA1999999095861MD1999999-0141REMSYN088AAXX  13004 83236 32998 31804 10242 20179 39586 40071 80005 333 10345 29058 55118 59014;EQDQ01  00002PRCP99
0186832360999992001121312004-12140-045000FM-12+044099999V0200501N003111050019N0200001N1+02701+01801100981ADDAA199000091GF105991031001022501081051KA1240N+01751MA1999999096031MD1999999-0151REMSYN076AAXX  13124 83236 32898 50506 10270 20180 39603 40098 83085 333 20175 59015;EQDQ01  00002PRCP99
0167832360999992001121318004-12140-045000FM-12+044099999V0203601N003611050019N0200001N1+03261+01841100371ADDAA199000091GF105991041021008001001031MA1999999095541MD1999999-0141REMSYN070AAXX  13184 83236 32598 53607 10326 20184 39554 40037 84203 333 59014;EQDQ01  00002PRCP99
0198832360999992001121400004-12140-045000FM-12+044099999V0209999C000012200019N0200001N1+02351+02001100581ADDAA199000091GF102991001001999999001051KA1240M+03381MA1999999095731MD1999999-0131REMSYN088AAXX  14004 83236 32998 20000 10235 20200 39573 40058 80005 333 10338 29066 55117 59013;EQDQ01  00002PRCP99
0186832360999992001121412004-12140-045000FM-12+044099999V0209999C000010450019N0200001N1+02601+01961100981ADDAA199000091GF106991041021008001071051KA1240N+01861MA1999999096101MD1999999+0071REMSYN076AAXX  14124 83236 32598 60000 10260 20196 39610 40098 84275 333 20186 58007;EQDQ01  00002PRCP99
0167832360999992001121418004-12140-045000FM-12+044099999V0200501N002110075019N0100001N1+03301+01911100561ADDAA199000091GF107991051021008001081071MA1999999095681MD1999999+0141REMSYN070AAXX  14184 83236 32597 70504 10330 20191 39568 40056 85287 333 58014;EQDQ01  00002PRCP99
0198832360999992001121500004-12140-045000FM-12+044099999V0209999C000012200019N0200001N1+02601+02061100731ADDAA199000091GF103991031001022501071001KA1240M+03421MA1999999095891MD1999999+0161REMSYN088AAXX  15004 83236 32898 30000 10260 20206 39589 40073 83070 333 10342 29064 55095 58016;EQDQ01  00002PRCP99
0186832360999992001121512004-12140-045000FM-12+044099999V0200501N001011050019N0200001N1+02751+01971100981ADDAA199000091GF106991011021012501061031KA1240N+02031MA1999999096141MD1999999+0041REMSYN076AAXX  15124 83236 32698 60502 10275 20197 39614 40098 81263 333 20203 58004;EQDQ01  00002PRCP99
0167832360999992001121518004-12140-045000FM-12+044099999V0203601N003111050019N0200001N1+03431+01831100481ADDAA199000091GF105991041041008001001051MA1999999095691MD1999999+0011REMSYN070AAXX  15184 83236 32598 53606 10343 20183 39569 40048 84405 333 58001;EQDQ01  00002PRCP99
0198832360999992001121600004-12140-045000FM-12+044099999V0201801N001012200019N0200001N1+02551+02061100731ADDAA199000091GF102991021021012501001001KA1240M+03521MA1999999095901MD1999999+0011REMSYN088AAXX  16004 83236 32698 21802 10255 20206 39590 40073 82200 333 10352 29063 55090 58001;EQDQ01  00002PRCP99
0186832360999992001121612004-12140-045000FM-12+044099999V0200501N002112200019N0200001N1+02891+01971100931ADDAA199000091GF103991021011012501001041KA1240N+02071MA1999999096101MD1999999-0041REMSYN076AAXX  16124 83236 32698 30504 10289 20197 39610 40093 82104 333 20207 59004;EQDQ01  00002PRCP99
0167832360999992001121618004-12140-045000FM-12+044099999V0203601N001510450019N0200001N1+03411+01811100391ADDAA199000091GF106991041031008001071051MA1999999095621MD1999999-0071REMSYN070AAXX  16184 83236 32598 63603 10341 20181 39562 40039 84375 333 59007;EQDQ01  00002PRCP99
0198832360999992001121700004-12140-045000FM-12+044099999V0201801N001510075019N0200001N1+02691+01991100621ADDAA199000091GF108991051041008001081999KA1240M+03531MA1999999095831MD1999999-0071REMSYN088AAXX  17004 83236 32598 81803 10269 20199 39583 40062 8548/ 333 10353 29057 55103 59007;EQDQ01  00002PRCP99
0201832360999992001121712004-12140-045000FM-12+044099999V0209999C000010120019N0100001N1+02451+02281101041ADDAA124009991AY161061AY261061GF108991051081008001051999KA1240N+02181MA1999999096171MD1999999+0071MW1031REMSYN088AAXX  17124 83236 21597 80000 10245 20228 39617 40104 70366 8585/ 333 20218 58007 60104;
0167832360999992001121718004-12140-045000FM-12+044099999V0203201N001510450019N0200001N1+02851+02201100591ADDAA199000091GF107991031021008001041021MA1999999095741MD1999999+0121REMSYN070AAXX  17184 83236 32598 73203 10285 20220 39574 40059 83242 333 58012;EQDQ01  00002PRCP99
0226832360999992001121800004-12140-045000FM-12+044099999V0209999C000010075019N0100001N1+02581+02401100711ADDAA199000091AY121061AY221061GF108991061051008001999999KA1240M+02951MA1999999095851MD1999999+0021MW1131REMSYN094AAXX  18004 83236 31597 80000 10258 20240 39585 40071 71322 865// 333 10295 29085 55007 58002;EQDQ01  00002PRCP99
0201832360999992001121812004-12140-045000FM-12+044099999V0201801N001010075019N0040001N1+02201+02121101181ADDAA124005191AY161061AY251061GF108991071091008001999999KA1240N+02111MA1999999096281MD1999999+0111MW1101REMSYN088AAXX  18124 83236 21596 81802 10220 20212 39628 40118 71065 879// 333 20211 58011 60054;
0167832360999992001121818004-12140-045000FM-12+044099999V0201801N001510450019N0200001N1+02841+02171100741ADDAA199000091GF106991041031008001071051MA1999999095891MD1999999+0151REMSYN070AAXX  18184 83236 32598 61803 10284 20217 39589 40074 84375 333 58015;EQDQ01  00002PRCP99
0213832360999992001121900004-12140-045000FM-12+044099999V0203201N002110075019N0040001N1+02201+02171101041ADDAA106027991AY161061AY261061GF108991071091008001041999KA1240M+02961MA1999999096101MD1999999+0251MW1131REMSYN100AAXX  19004 83236 21596 83204 10220 20217 39610 40104 71366 8794/ 333 10296 29089 55025 58025 60281;
0173832360999992001121912004-12140-045000FM-12+044099999V0200901N001010450019N0200001N1+02631+02251101151ADDAA124027991GF106991031021008001071051KA1240N+02071MA1999999096251MD1999999-0031REMSYN082AAXX  19124 83236 22598 60902 10263 20225 39625 40115 83275 333 20207 59003 60284;
0167832360999992001121918004-12140-045000FM-12+044099999V0203601N003110450019N0200001N1+03041+02261100681ADDAA199000091GF105991031021008001081051MA1999999095841MD1999999-0051REMSYN070AAXX  19184 83236 32598 53606 10304 20226 39584 40068 83285 333 59005;EQDQ01  00002PRCP99
0213832360999992001122000004-12140-045000FM-12+044099999V0203201N001510075019N0040001N1+02371+02281100951ADDAA106002091AY161061AY251061GF108991051051008001071999KA1240M+03131MA1999999096081MD1999999-0021MW1131REMSYN100AAXX  20004 83236 21596 83203 10237 20228 39608 40095 71365 8557/ 333 10313 29085 55068 59002 60021;
0201832360999992001122012004-12140-045000FM-12+044099999V0203201N001010075019N0100001N1+02261+02191101281ADDAA124020191AY161061AY251061GF108991061071008001091999KA1240N+01981MA1999999096351MD1999999+0101MW1031REMSYN088AAXX  20124 83236 21597 83202 10226 20219 39635 40128 70365 8679/ 333 20198 58010 60204;
0167832360999992001122018004-12140-045000FM-12+044099999V0209999C000010075019N0100001N1+02681+02131100781ADDAA199000091GF108991051021008001071051MA1999999095971MD1999999+0061REMSYN070AAXX  20184 83236 32597 80000 10268 20213 39597 40078 85275 333 58006;EQDQ01  00002PRCP99
0226832360999992001122100004-12140-045000FM-12+044099999V0200501N001010450019N0200001N1+02371+02111101071ADDAA199000091AY121061AY221061GF106991041051008001081001KA1240M+02801MA1999999096151MD1999999+0071MW1131REMSYN094AAXX  21004 83236 31598 60502 10237 20211 39615 40107 71322 84580 333 10280 29085 55000 58007;EQDQ01  00002PRCP99
0186832360999992001122112004-12140-045000FM-12+044099999V0209999C000010450019N0100001N1+02401+02191101261ADDAA199000091GF108991041051008001021999KA1240N+02111MA1999999096321MD1999999-0031REMSYN076AAXX  21124 83236 32597 80000 10240 20219 39632 40126 8452/ 333 20211 59003;EQDQ01  00002PRCP99
0167832360999992001122118004-12140-045000FM-12+044099999V0209999C000010450019N0100001N1+02571+02331100911ADDAA199000091GF108991031071008001021999MA1999999096011MD1999999+0111REMSYN070AAXX  21184 83236 32597 80000 10257 20233 39601 40091 8372/ 333 58011;EQDQ01  00002PRCP99
0213832360999992001122200004-12140-045000FM-12+044099999V0209999C000010450019N0100001N1+02271+02241101041ADDAA106002091AY161061AY261061GF108991041051008001021999KA1240M+02761MA1999999096141MD1999999-0011MW1021REMSYN100AAXX  22004 83236 21597 80000 10227 20224 39614 40104 70266 8452/ 333 10276 29002 55093 59001 60021;
0173832360999992001122212004-12140-045000FM-12+044099999V0202701N001010450019N0100001N1+02501+02291101241ADDAA124002091GF107991041021008001051001KA1240N+02201MA1999999096341MD1999999+0021REMSYN082AAXX  22124 83236 22597 72702 10250 20229 39634 40124 84250 333 20220 58002 60024;
0167832360999992001122218004-12140-045000FM-12+044099999V0203601N002112200019N0100001N1+03021+02101100741ADDAA199000091GF104991031021008001001041MA1999999095991MD1999999-0021REMSYN070AAXX  22184 83236 32597 43604 10302 20210 39599 40074 83204 333 59002;EQDQ01  00002PRCP99
0226832360999992001122300004-12140-045000FM-12+044099999V0203301N001010450019N0100001N1+02321+02081101291ADDAA199000091AY101061AY221061GF108991031071008001021999KA1240M+03101MA1999999096291MD1999999+0151MW1131REMSYN094AAXX  23004 83236 31597 83302 10232 20208 39629 40129 71302 8372/ 333 10310 29082 55012 58015;EQDQ01  00002PRCP99
0201832360999992001122312004-12140-045000FM-12+044099999V0201401N001012200019N0100001N1+02601+02251101241ADDAA124019191AY191061AY261061GF104991001001999999001061KA1240N+02111MA1999999096341MD1999999+0001MW1021REMSYN088AAXX  23124 83236 21997 41402 10260 20225 39634 40124 70296 80006 333 20211 58000 60194;
0167832360999992001122318004-12140-045000FM-12+044099999V0203601N002610450019N0100001N1+03151+02071100801ADDAA199000091GF107991021011008001041061MA1999999095971MD1999999-0021REMSYN070AAXX  23184 83236 32597 73605 10315 20207 39597 40080 82146 333 59002;EQDQ01  00002PRCP99
0198832360999992001122400004-12140-045000FM-12+044099999V0201801N001012200019N0100001N1+02371+02211100991ADDAA199000091GF104991021001022501041051KA1240M+03201MA1999999096121MD1999999-0171REMSYN088AAXX  24004 83236 32897 41802 10237 20221 39612 40099 82045 333 10320 29078 55085 59017;EQDQ01  00002PRCP99
0186832360999992001122412004-12140-045000FM-12+044099999V0209999C000012200019N0100001N1+02651+02181101271ADDAA199000091GF103991031061008001001001KA1240N+02041MA1999999096381MD1999999+0041REMSYN076AAXX  24124 83236 32597 30000 10265 20218 39638 40127 83600 333 20204 58004;EQDQ01  00002PRCP99
0167832360999992001122418004-12140-045000FM-12+044099999V0203601N002612200019N0200001N1+03231+01981100821ADDAA199000091GF103991031011008001001001MA1999999095991MD1999999+0021REMSYN070AAXX  24184 83236 32598 33605 10323 20198 39599 40082 83100 333 58002;EQDQ01  00002PRCP99
0186832360999992001122512004-12140-045000FM-12+044099999V0209999C000011050019N0100001N1+02581+02171101281ADDAA199000091GF107991031041008001001061KA1240N+02281MA1999999096401MD1999999+0021REMSYN076AAXX  25124 83236 32597 70000 10258 20217 39640 40128 83406 333 20228 58002;EQDQ01  00002PRCP99
0195832360999992001122518004-12140-045000FM-12+044099999V0201401N003110075019N0100001N1+02401+01861100901ADDAA199000091AY101061AY291061GF107991071071008001001001MA1999999096011MD1999999+0021MW1151REMSYN076AAXX  25184 83236 31597 71406 10240 20186 39601 40090 71509 87700 333 58002;EQDQ01  00002PRCP99
0198832360999992001122600004-12140-045000FM-12+044099999V0201801N001510075019N0100001N1+02431+02051101141ADDAA199000091GF108991081051008001999999KA1240M+03171MA1999999096261MD1999999+0101REMSYN088AAXX  26004 83236 32597 81803 10243 20205 39626 40114 885// 333 10317 29078 55022 58010;EQDQ01  00002PRCP99
0186832360999992001122612004-12140-045000FM-12+044099999V0209999C000010210019N0100001N1+02581+02151101131ADDAA199000091GF106991061001022501051001KA1240N+02151MA1999999096251MD1999999-0151REMSYN076AAXX  26124 83236 32897 60000 10258 20215 39625 40113 86050 333 20215 59015;EQDQ01  00002PRCP99
0167832360999992001122618004-12140-045000FM-12+044099999V0203601N001510450019N0100001N1+03141+02071100661ADDAA199000091GF105991041071008001041001MA1999999095831MD1999999-0181REMSYN070AAXX  26184 83236 32597 53603 10314 20207 39583 40066 84740 333 59018;EQDQ01  00002PRCP99
0198832360999992001122700004-12140-045000FM-12+044099999V0209999C000010075019N0100001N1+02601+02191100841ADDAA199000091GF108991081051008001999999KA1240M+03311MA1999999095991MD1999999-0271REMSYN088AAXX  27004 83236 32597 80000 10260 20219 39599 40084 885// 333 10331 29072 55069 59027;EQDQ01  00002PRCP99
0186832360999992001122712004-12140-045000FM-12+044099999V0200901N001012200019N0100001N1+02791+02061101071ADDAA199000091GF106991031001022501051041KA1240N+02171MA1999999096231MD1999999-0021REMSYN076AAXX  27124 83236 32897 60902 10279 20206 39623 40107 83054 333 20217 59002;EQDQ01  00002PRCP99
0167832360999992001122718004-12140-045000FM-12+044099999V0200501N002112200019N0100001N1+03231+01911100641ADDAA199000091GF106991021021008001001061MA1999999095851MD1999999+0021REMSYN070AAXX  27184 83236 32597 60504 10323 20191 39585 40064 82206 333 58002;EQDQ01  00002PRCP99
0198832360999992001122800004-12140-045000FM-12+044099999V0201801N002610075019N0100001N1+02471+02091101211ADDAA199000091GF108991051071008001021999KA1240M+03371MA1999999096351MD1999999+0361REMSYN088AAXX  28004 83236 32597 81805 10247 20209 39635 40121 8572/ 333 10337 29068 55084 58036;EQDQ01  00002PRCP99
0201832360999992001122812004-12140-045000FM-12+044099999V0209999C000010450019N0100001N1+02331+02111101361ADDAA124002091AY161061AY261061GF106991021061008001031001KA1240N+02101MA1999999096451MD1999999+0221MW1021REMSYN088AAXX  28124 83236 21597 60000 10233 20211 39645 40136 70266 82630 333 20210 58022 60024;
0167832360999992001122818004-12140-045000FM-12+044099999V0203601N004110450019N0100001N1+02941+02051100871ADDAA199000091GF106991031021008001031051MA1999999096001MD1999999+0151REMSYN070AAXX  28184 83236 32597 63608 10294 20205 39600 40087 83235 333 58015;EQDQ01  00002PRCP99
0226832360999992001122900004-12140-045000FM-12+044099999V0200501N002110075019N0100001N1+02581+02211101161ADDAA199000091AY101061AY221061GF108991051071008001021999KA1240M+03061MA1999999096271MD1999999-0081MW1171REMSYN094AAXX  29004 83236 31597 80504 10258 20221 39627 40116 71702 8572/ 333 10306 29079 55053 59008;EQDQ01  00002PRCP99
0167832360999992001122918004-12140-045000FM-12+044099999V0203601N003610075019N0100001N1+02561+02251100961ADDAA199000091GF107991061031008001041001MA1999999096061MD1999999+0001REMSYN070AAXX  29184 83236 32597 73607 10256 20225 39606 40096 86340 333 58000;EQDQ01  00002PRCP99
0198832360999992001123000004-12140-045000FM-12+044099999V0209999C000010210019N0100001N1+02351+02181101091ADDAA199000091GF107991071001022501071001KA1240M+02751MA1999999096171MD1999999-0101REMSYN088AAXX  30004 83236 32897 70000 10235 20218 39617 40109 87070 333 10275 29089 55013 59010;EQDQ01  00002PRCP99
0201832360999992001123012004-12140-045000FM-12+044099999V0209999C000010210019N0040001N1+02271+02141101201ADDAA124005191AY161061AY261061GF108991081001022501021999KA1240N+02181MA1999999096381MD1999999-0171MW1401REMSYN088AAXX  30124 83236 21896 80000 10227 20214 39638 40120 74066 8802/ 333 20218 59017 60054;
0182832360999992001123018004-12140-045000FM-12+044099999V0203601N000510210019N0040001N1+02221+02171101021ADDAA106029091AY161061AY261061GF108991081001022501021999MA1999999096081MD1999999+0061MW1501REMSYN082AAXX  30184 83236 21896 83601 10222 20217 39608 40102 75066 8802/ 333 58006 60291;
0213832360999992001123100004-12140-045000FM-12+044099999V0200901N001010210019N0040001N1+02231+02171101181ADDAA106002091AY161061AY261061GF108991081001022501021999KA1240M+02421MA1999999096251MD1999999+0081MW1521REMSYN100AAXX  31004 83236 21896 80902 10223 20217 39625 40118 75266 8802/ 333 10242 29096 55000 58008 60021;
0201832360999992001123112004-12140-045000FM-12+044099999V0200901N001510075019N0100001N1+02351+02151101091ADDAA124046091AY161061AY261061GF108991061051008001021999KA1240N+02091MA1999999096171MD1999999-0111MW1021REMSYN088AAXX  31124 83236 21597 80903 10235 20215 30617 40109 70266 8652/ 333 20209 59011 60464;
0167832360999992001123118004-12140-045000FM-12+044099999V0209999C000010120019N0100001N1+02601+02191100651ADDAA199000091GF107991051081008001001041MA1999999095761MD1999999-0321REMSYN070AAXX  31184 83236 32597 70000 10260 20219 39576 40065 85804 333 59032;EQDQ01  00002PRCP99
