0214833390999992001010100004-14040-042610FM-12+088299999V0209999C000010042019N0020001N1+02091+02031101191ADDAA199000091AY101061AY201061GF106991051021004501021001KA1240M+02501MA1999999091451MD1999999-0131MW1101REMSYN082AAXX  01004 83339 31495 60000 10209 20203 39145 40119 71000 85220 333 10250 59013;EQDQ01  00002PRCP99
0201833390999992001010112004-14040-042610FM-12+088299999V0202701N004110042019N0040001N1+01971+01881101361ADDAA124000891AY161061AY261061GF108991081051004501999999KA1240N+01861MA1999999091591MD1999999-0061MW1101REMSYN088AAXX  01124 83339 21496 82708 10197 20188 39159 40136 71066 885// 333 20186 59006 69984;
0182833390999992001010118004-14040-042610FM-12+088299999V0203201N001510042019N0040001N1+02351+01871101141ADDAA106000591AY161061AY261061GF107991061021004501021999MA1999999091421MD1999999+0021MW1021REMSYN082AAXX  01184 83339 21496 73203 10235 20187 39142 40114 70266 8622/ 333 58002 69941;
0201833390999992001010200004-14040-042610FM-12+088299999V0201801N000510042019N0020001N1+01991+01931101251ADDAA106003091AY161061AY261061GF108991081051004501999999KA1240M+02401MA1999999091481MD1999999+0031MW1101REMSYN088AAXX  02004 83339 21495 81801 10199 20193 39148 40125 71066 885// 333 10240 58003 60031;
0201833390999992001010212004-14040-042610FM-12+088299999V0201401N002610042019N0100001N1+02131+02041101391ADDAA124004191AY161061AY261061GF106991051021004501031001KA1240N+01931MA1999999091621MD1999999+0031MW1101REMSYN088AAXX  02124 83339 21497 61405 10213 20204 39162 40139 71066 85230 333 20193 58003 60044;
0182833390999992001010218004-14040-042610FM-12+088299999V0202701N001510042019N0100001N1+02451+01921101121ADDAA106000591AY161061AY261061GF106991051021004501021001MA1999999091401MD1999999-0021MW1021REMSYN082AAXX  02184 83339 21497 62703 10245 20192 39140 40112 70266 85220 333 59002 69941;
0186833390999992001010300004-14040-042610FM-12+088299999V0201401N004612200019N0020001N1+02271+01861101231ADDAA199000091GF103991031021004501001001KA1240M+02741MA1999999091501MD1999999+0021REMSYN076AAXX  03004 83339 32495 31409 10227 20186 39150 40123 83200 333 10274 58002;EQDQ01  00002PRCP99
0201833390999992001010312004-14040-042610FM-12+088299999V0200501N002112200019N0100001N1+02131+01861101381ADDAA124000591AY161061AY261061GF103991021021004501001021KA1240N+01721MA1999999091641MD1999999+0021MW1101REMSYN088AAXX  03124 83339 21497 30504 10213 20186 39164 40138 71066 82202 333 20172 58002 69944;
0167833390999992001010318004-14040-042610FM-12+088299999V0201401N004612200019N0100001N1+02691+01011101211ADDAA199000091GF102991011021004501001041MA1999999091491MD1999999+0091REMSYN070AAXX  03184 83339 32497 21409 10269 20101 39149 40121 81204 333 58009;EQDQ01  00002PRCP99
0196833390999992001010400004-14040-042610FM-12+088299999V0201401N004612200019N0020001N1+02151+01411101301ADDAA199000091GA1001+999999999GF100991001001999999001001KA1240M+02761MA1999999091551MD1999999+0051REMSYN070AAXX  04004 83339 32995 01409 10215 20141 39155 40130 333 10276 58005;EQDQ01  00002PRCP99
0186833390999992001010412004-14040-042610FM-12+088299999V0201401N006712200019N0100001N1+02071+01641101471ADDAA199000091GF103991031021004501001001KA1240N+01731MA1999999091701MD1999999+0061REMSYN076AAXX  04124 83339 32497 31413 10207 20164 39170 40147 83200 333 20173 58006;EQDQ01  00002PRCP99
0167833390999992001010418004-14040-042610FM-12+088299999V0201401N005712200019N0100001N1+02471+01631101111ADDAA199000091GF104991041021004501001001MA1999999091391MD1999999-0101REMSYN070AAXX  04184 83339 32497 41411 10247 20163 39139 40111 84200 333 59010;EQDQ01  00002PRCP99
0213833390999992001010500004-14040-042610FM-12+088299999V0201401N005110042019N0020001N1+02111+01891101211ADDAA199000091AY101061AY201061GF108991081051004501999999KA1240M+02541MA1999999091461MD1999999-0091MW1101REMSYN081AAXX  05004 83339 31495 81410 10211 2018939146 40121 71000 885// 333 10254 59009;EQDQ01  00002PRCP99
0167833390999992001010518004-14040-042610FM-12+088299999V0200901N003612200019N0100001N1+02351+01811101191ADDAA199000091GF104991041021004501001001MA1999999091441MD1999999+0051REMSYN070AAXX  05184 83339 32497 40907 10235 20181 39144 40119 84200 333 58005;EQDQ01  00002PRCP99
0214833390999992001010600004-14040-042610FM-12+088299999V0201401N004612200019N0020001N1+02051+01781101141ADDAA199000091AY101061AY201061GF103991031021004501001001KA1240M+02441MA1999999091381MD1999999-0081MW1101REMSYN082AAXX  06004 83339 31495 31409 10205 20178 39138 40114 71000 83200 333 10244 59008;EQDQ01  00002PRCP99
0202833390999992001010612004-14040-042610FM-12+088299999V0201401N004112200019N0100001N1+02191+01721101291ADDAA199000091GF103991999021004501001001KA1240N+01881MA1999999091541MD1999999-0151REMSYN076AAXX  06124 83339 32497 31408 10219 20172 39154 40129 82200 333 20188 59015;EQDQ01+000022SCOTLCQ02  00002PRCP99
0167833390999992001010618004-14040-042610FM-12+088299999V0201401N003612200019N0100001N1+02651+01931101001ADDAA199000091GF103991021021004501001021MA1999999091291MD1999999-0151REMSYN070AAXX  06184 83339 32497 31407 10265 20193 39129 40100 82202 333 59015;EQDQ01  00002PRCP99
0196833390999992001010700004-14040-042610FM-12+088299999V0201401N003112200019N0020001N1+02171+01681101071ADDAA199000091GA1001+999999999GF100991001001999999001001KA1240M+02721MA1999999091351MD1999999-0031REMSYN070AAXX  07004 83339 32995 01406 10217 20168 39135 40107 333 10272 59003;EQDQ01  00002PRCP99
0214833390999992001010712004-14040-042610FM-12+088299999V0201401N005110042019N0100001N1+02191+01901101191ADDAA199000091AY101061AY201061GF106991061021004501001001KA1240N+01781MA1999999091461MD1999999-0081MW1101REMSYN082AAXX  07124 83339 31497 61410 10219 20190 39146 40119 71000 86200 333 20178 59008;EQDQ01  00002PRCP99
0167833390999992001010718004-14040-042610FM-12+088299999V0201401N004612200019N0100001N1+02691+01671100911ADDAA199000091GF103991021021004501001041MA1999999091231MD1999999-0061REMSYN070AAXX  07184 83339 32497 31409 10269 20167 39123 40091 82204 333 59006;EQDQ01  00002PRCP99
0186833390999992001010800004-14040-042610FM-12+088299999V0201401N003612200019N0020001N1+02271+01641101031ADDAA199000091GF102991021021004501001001KA1240M+02771MA1999999091331MD1999999-0021REMSYN076AAXX  08004 83339 32495 21407 10227 20164 39133 40103 82200 333 10277 59002;EQDQ01  00002PRCP99
0214833390999992001010812004-14040-042610FM-12+088299999V0201401N004110042019N0100001N1+02111+01841101211ADDAA199000091AY101061AY201061GF105991051021004501001001KA1240N+01881MA1999999091481MD1999999+0021MW1101REMSYN082AAXX  08124 83339 31497 51408 10211 20184 39148 40121 71000 85200 333 20188 58002;EQDQ01  00002PRCP99
0167833390999992001010818004-14040-042610FM-12+088299999V0201401N005112200019N0100001N1+02621+01501100911ADDAA199000091GF103991021021004501021001MA1999999091231MD1999999+0001REMSYN070AAXX  08184 83339 32497 31410 10262 20150 39123 40091 82220 333 58000;EQDQ01  00002PRCP99
0186833390999992001010912004-14040-042610FM-12+088299999V0201401N005112200019N0100001N1+02211+01821101231ADDAA199000091GF102991021021004501001001KA1240N+01721MA1999999091501MD1999999+0021REMSYN076AAXX  09124 83339 32497 21410 10221 20182 39150 40123 82200 333 20172 58002;EQDQ01  00002PRCP99
0167833390999992001010918004-14040-042610FM-12+088299999V0201401N004112200019N0100001N1+02691+01581100921ADDAA199000091GF103991031021004501001001MA1999999091231MD1999999+0001REMSYN070AAXX  09184 83339 32497 31408 10269 20158 39123 40092 83200 333 58000;EQDQ01  00002PRCP99
0214833390999992001011000004-14040-042610FM-12+088299999V0201401N006212200019N0020001N1+02151+01901101011ADDAA199000091AY101061AY201061GF104991041021004501001001KA1240M+02741MA1999999091301MD1999999+0001MW1101REMSYN082AAXX  10004 83339 31495 41412 10215 20190 39130 40101 71000 84200 333 10274 58000;EQDQ01  00002PRCP99
0214833390999992001011012004-14040-042610FM-12+088299999V0200901N004610042019N0040001N1+02051+01851101261ADDAA199000091AY101061AY201061GF108991081051004501999999KA1240N+01861MA1999999091511MD1999999+0011MW1101REMSYN082AAXX  10124 83339 31496 80909 10205 20185 39151 40126 71000 885// 333 20186 58001;EQDQ01  00002PRCP99
0167833390999992001011018004-14040-042610FM-12+088299999V0201401N005110042019N0100001N1+02391+01891101021ADDAA199000091GF106991061021004501001001MA1999999091291MD1999999+0061REMSYN070AAXX  10184 83339 32497 61410 10239 20189 39129 40102 86200 333 58006;EQDQ01  00002PRCP99
0201833390999992001011100004-14040-042610FM-12+088299999V0201401N004610042019N0020001N1+01891+01761101211ADDAA106000591AY161061AY261061GF107991061021004501021999KA1240M+02601MA1999999091441MD1999999+0141MW1101REMSYN088AAXX  11004 83339 21495 71409 10189 20176 39144 40121 71066 8622/ 333 10260 58014 69961;
0201833390999992001011112004-14040-042610FM-12+088299999V0200901N007710042019N0100001N1+02091+01821101371ADDAA124000591AY161061AY261061GF105991051021004501001001KA1240N+01781MA1999999091591MD1999999+0081MW1101REMSYN088AAXX  11124 83339 21497 50915 10209 20182 39159 40137 71066 85200 333 20178 58008 69964;
0167833390999992001011118004-14040-042610FM-12+088299999V0200501N007712200019N0100001N1+02591+01401101091ADDAA199000091GF102991021021004501001001MA1999999091371MD1999999+0081REMSYN070AAXX  11184 83339 32497 20515 10259 20140 39137 40109 82200 333 58008;EQDQ01  00002PRCP99
0196833390999992001011200004-14040-042610FM-12+088299999V0201401N004112200019N0020001N1+02191+01561101141ADDAA199000091GA1001+999999999GF100991001001999999001001KA1240M+02661MA1999999091411MD1999999-0031REMSYN070AAXX  12004 83339 32995 01408 10219 20156 39141 40114 333 10266 59003;EQDQ01  00002PRCP99
0186833390999992001011212004-14040-042610FM-12+088299999V0201401N003612200019N0100001N1+02171+01741101251ADDAA199000091GF103991031021004501001001KA1240N+01801MA1999999091521MD1999999-0071REMSYN076AAXX  12124 83339 32497 31407 10217 20174 39152 40125 83200 333 20180 59007;EQDQ01  00002PRCP99
0167833390999992001011218004-14040-042610FM-12+088299999V0201401N005112200019N0100001N1+02671+01441100971ADDAA199000091GF102991021021004501001001MA1999999091281MD1999999-0091REMSYN070AAXX  12184 83339 32497 21410 10267 20144 39128 40097 82200 333 59009;EQDQ01  00002PRCP99
0186833390999992001011300004-14040-042610FM-12+088299999V0201401N005712200019N0020001N1+02051+01541101151ADDAA199000091GF102991021021004501001001KA1240M+02731MA1999999091411MD1999999+0001REMSYN076AAXX  13004 83339 32495 21411 10205 20154 39141 40115 82200 333 10273 58000;EQDQ01  00002PRCP99
0186833390999992001011312004-14040-042610FM-12+088299999V0201401N006212200019N0100001N1+02191+01671101401ADDAA199000091GF104991041021004501001001KA1240N+01801MA1999999091641MD1999999+0121REMSYN076AAXX  13124 83339 32497 41412 10219 20167 39164 40140 84200 333 20180 58012;EQDQ01  00002PRCP99
0167833390999992001011318004-14040-042610FM-12+088299999V0201401N004610042019N0100001N1+02621+01501101131ADDAA199000091GF105991051021004501001001MA1999999091411MD1999999+0131REMSYN070AAXX  13184 83339 32497 51409 10262 20150 39141 40113 85200 333 58013;EQDQ01  00002PRCP99
0214833390999992001011400004-14040-042610FM-12+088299999V0201401N004112200019N0020001N1+02031+01661101351ADDAA199000091AY101061AY201061GF102991021021004501001001KA1240M+02681MA1999999091591MD1999999+0181MW1101REMSYN082AAXX  14004 83339 31495 21408 10203 20166 39159 40135 71000 82200 333 10268 58018;EQDQ01  00002PRCP99
0214833390999992001011412004-14040-042610FM-12+088299999V0201401N005110042019N0040001N1+01911+01701101531ADDAA199000091AY101061AY201061GF106991061021004501001001KA1240N+01751MA1999999091721MD1999999+0081MW1101REMSYN082AAXX  14124 83339 31496 61410 10191 20170 39172 40153 71000 86200 333 20175 58008;EQDQ01  00002PRCP99
0167833390999992001011418004-14040-042610FM-12+088299999V0200901N005710042019N0040001N1+02231+01671101301ADDAA199000091GF107991061021004501021999MA1999999091531MD1999999+0121REMSYN070AAXX  14184 83339 32496 70911 10223 20167 39153 40130 8622/ 333 58012;EQDQ01  00002PRCP99
0226833390999992001011500004-14040-042610FM-12+088299999V0201401N011310042019N0020001N1+01951+01771101311ADDAA199000091AY101061AY201061GF106991061021004501001001KA1240M+02441MA1999999091531MD1999999-0061MW1101REMSYN094AAXX  15004 83339 31495 61422 10195 20177 39153 40131 71000 86200 333 10244 29084 55017 59006;EQDQ01  00002PRCP99
0214833390999992001011512004-14040-042610FM-12+088299999V0201401N004610042019N0100001N1+01951+01751101401ADDAA199000091AY101061AY201061GF106991061021004501001001KA1240N+01741MA1999999091601MD1999999-0121MW1101REMSYN082AAXX  15124 83339 31497 61409 10195 20175 39160 40140 71000 86200 333 20174 59012;EQDQ01  00002PRCP99
0167833390999992001011518004-14040-042610FM-12+088299999V0200501N002610042019N0040001N1+02191+01761101291ADDAA199000091GF107991061021004501021999MA1999999091521MD1999999-0011REMSYN070AAXX  15184 83339 32496 70505 10219 20176 39152 40129 8622/ 333 59001;EQDQ01  00002PRCP99
0226833390999992001011600004-14040-042610FM-12+088299999V0201401N003112200019N0020001N1+01911+01801101351ADDAA199000091AY101061AY201061GF102991021021004501001001KA1240M+02441MA1999999091551MD1999999+0021MW1101REMSYN094AAXX  16004 83339 31495 21406 10191 20180 39155 40135 71000 82200 333 10244 29087 55012 58002;EQDQ01  00002PRCP99
0214833390999992001011612004-14040-042610FM-12+088299999V0201401N005110042019N0100001N1+01951+01621101441ADDAA199000091AY101061AY201061GF105991051021004501001001KA1240N+01691MA1999999091641MD1999999+0041MW1101REMSYN082AAXX  16124 83339 31497 51410 10195 20162 39164 40144 71000 85200 333 20169 58004;EQDQ01  00002PRCP99
0167833390999992001011618004-14040-042610FM-12+088299999V0200501N004612200019N0100001N1+02511+01621101141ADDAA199000091GF104991041021004501001001MA1999999091401MD1999999-0151REMSYN070AAXX  16184 83339 32497 40509 10251 20162 39140 40114 84200 333 59015;EQDQ01  00002PRCP99
0213833390999992001011700004-14040-042610FM-12+088299999V0201401N004610042019N0020001N1+01871+01811101311ADDAA106005191AY161061AY261061GF108991081051004501999999KA1240M+02561MA1999999091511MD1999999-0041MW1601REMSYN100AAXX  17004 83339 21495 81409 10187 20181 39151 40131 76066 885// 333 10256 29084 55099 59004 60051;
0201833390999992001011712004-14040-042610FM-12+088299999V0200901N006710042019N0100001N1+01911+01711101411ADDAA124007991AY161061AY261061GF106991061021004501001001KA1240N+01701MA1999999091601MD1999999-0041MW1101REMSYN088AAXX  17124 83339 21497 60913 10191 20171 39160 40141 71066 86200 333 20170 59004 60084;
0183833390999992001011718004-14040-042610FM-12+088299999V0200901N005112200019N0100001N1+02391+01561101211ADDAA199000091GF104991999021004501001001MA1999999091451MD1999999+0051REMSYN070AAXX  17184 83339 32497 40910 10239 20156 39145 40121 85200 333 58005;EQDQ01+000052SCOTLCQ02  00002PRCP99
0226833390999992001011800004-14040-042610FM-12+088299999V0200901N001512200019N0020001N1+01951+01681101311ADDAA199000091AY101061AY201061GF102991021021004501001001KA1240M+02481MA1999999091531MD1999999+0021MW1101REMSYN094AAXX  18004 83339 31495 20903 10195 20168 39153 40131 71000 82200 333 10248 29078 55054 58002;EQDQ01  00002PRCP99
0214833390999992001011812004-14040-042610FM-12+088299999V0201401N008210042019N0100001N1+01991+01661101361ADDAA199000091AY101061AY201061GF105991051021004501001001KA1240N+01661MA1999999091561MD1999999-0041MW1101REMSYN082AAXX  18124 83339 31497 51416 10199 20166 39156 40136 71000 85200 333 20166 59004;EQDQ01  00002PRCP99
0167833390999992001011818004-14040-042610FM-12+088299999V0200901N005112200019N0100001N1+02541+01601101091ADDAA199000091GF103991031021004501001001MA1999999091361MD1999999-0091REMSYN070AAXX  18184 83339 32497 30910 10254 20160 39136 40109 83200 333 59009;EQDQ01  00002PRCP99
0226833390999992001011900004-14040-042610FM-12+088299999V0201401N003112200019N0020001N1+02191+01861101261ADDAA199000091AY101061AY201061GF102991021021004501001001KA1240M+02651MA1999999091511MD1999999-0021MW1101REMSYN094AAXX  19004 83339 31495 21406 10219 20186 39151 40126 71000 82200 333 10265 29078 55109 59002;EQDQ01  00002PRCP99
0214833390999992001011912004-14040-042610FM-12+088299999V0200501N003110042019N0100001N1+02171+01801101451ADDAA199000091AY101061AY201061GF106991051021004501021001KA1240N+01801MA1999999091701MD1999999+0141MW1101REMSYN082AAXX  19124 83339 31497 60506 10217 20180 39170 40145 71000 85220 333 20180 58014;EQDQ01  00002PRCP99
0167833390999992001011918004-14040-042610FM-12+088299999V0201401N005112200019N0100001N1+02611+01571101141ADDAA199000091GF104991031021004501001021MA1999999091431MD1999999+0071REMSYN070AAXX  19184 83339 32497 41410 10261 20157 39143 40114 83202 333 58007;EQDQ01  00002PRCP99
0226833390999992001012000004-14040-042610FM-12+088299999V0201801N001012200019N0020001N1+02171+01801101161ADDAA199000091AY101061AY201061GF102991021021004501001001KA1240M+02781MA1999999091431MD1999999-0081MW1101REMSYN094AAXX  20004 83339 31495 21802 10217 20180 39143 40116 71000 82200 333 10278 29072 55100 59008;EQDQ01  00002PRCP99
0214833390999992001012012004-14040-042610FM-12+088299999V0201401N003112200019N0100001N1+02251+01901101401ADDAA199000091AY101061AY201061GF104991041021004501001001KA1240N+01861MA1999999091651MD1999999-0051MW1101REMSYN082AAXX  20124 83339 31497 41406 10225 20190 39165 40140 71000 84200 333 20186 59005;EQDQ01  00002PRCP99
0167833390999992001012018004-14040-042610FM-12+088299999V0201401N004612200019N0100001N1+02831+01681101011ADDAA199000091GF103991021021004501001021MA1999999091331MD1999999-0101REMSYN070AAXX  20184 83339 32497 31409 10283 20168 39133 40101 82202 333 59010;EQDQ01  00002PRCP99
0224833390999992001012100004-14040-042610FM-12+088299999V0201101N042722200019N0020001N1+02251+01711101081ADDAA199000091GA1001+999999999GF100991001001999999001001KA1240M+02901MA1999999091371MD1999999-0611REMSYN082AAXX  21004 83339 32995 01183 10225 20171 39137 40108 333 10290 29068 55101 59061;EQDQ01+004273WOSPD Q02  00002PRCP99
0214833390999992001012112004-14040-042610FM-12+088299999V0201401N002112200019N0100001N1+02231+01881101221ADDAA199000091AY101061AY201061GF104991041021004501001001KA1240N+01801MA1999999091501MD1999999-0151MW1101REMSYN082AAXX  21124 83339 31497 41404 10223 20188 39150 40122 71000 84200 333 20180 59015;EQDQ01  00002PRCP99
0195833390999992001012118004-14040-042610FM-12+088299999V0200901N003110042019N0100001N1+02751+01671100851ADDAA199000091AY191061AY201061GF105991051021004501001001MA1999999091181MD1999999-0151MW1021REMSYN076AAXX  21184 83339 31497 50906 10275 20167 39118 40085 70290 85200 333 59015;EQDQ01  00002PRCP99
0198833390999992001012200004-14040-042610FM-12+088299999V0200501N001512200019N0020001N1+02311+01751101031ADDAA199000091GF102991011021004501021001KA1240M+02941MA1999999091331MD1999999-0041REMSYN088AAXX  22004 83339 32495 20503 10231 20175 39133 40103 81220 333 10294 29068 55098 59004;EQDQ01  00002PRCP99
0214833390999992001012212004-14040-042610FM-12+088299999V0201401N003110042019N0100001N1+02171+01951101261ADDAA199000091AY101061AY201061GF106991051021004501031001KA1240N+01901MA1999999091541MD1999999+0041MW1101REMSYN082AAXX  22124 83339 31497 61406 10217 20195 39154 40126 71000 85230 333 20190 58004;EQDQ01  00002PRCP99
0226833390999992001012300004-14040-042610FM-12+088299999V0209999C000010042019N0020001N1+02051+01971101151ADDAA199000091AY101061AY201061GF106991061021004501001001KA1240M+02741MA1999999091411MD1999999+0081MW1101REMSYN094AAXX  23004 83339 31495 60000 10205 20197 39141 40115 71000 86200 333 10274 29093 55032 58008;EQDQ01  00002PRCP99
0201833390999992001012312004-14040-042610FM-12+088299999V0201401N004110042019N0100001N1+02131+01951101351ADDAA124031091AY161061AY261061GF106991061021004501001001KA1240N+01761MA1999999091591MD1999999+0051MW1101REMSYN088AAXX  23124 83339 21497 61408 10213 20195 39159 40135 71066 86200 333 20176 58005 60314;
0167833390999992001012318004-14040-042610FM-12+088299999V0201401N004112200019N0100001N1+02671+01951100981ADDAA199000091GF103991021021004501031001MA1999999091281MD1999999+0011REMSYN070AAXX  23184 83339 32497 31408 10267 20195 39128 40098 82230 333 58001;EQDQ01  00002PRCP99
0198833390999992001012400004-14040-042610FM-12+088299999V0201801N002112200019N0020001N1+02271+01751101071ADDAA199000091GF102991021021004501001001KA1240M+02741MA1999999091351MD1999999-0061REMSYN088AAXX  24004 83339 32495 21804 10227 20175 39135 40107 82200 333 10274 29075 55092 59006;EQDQ01  00002PRCP99
0214833390999992001012412004-14040-042610FM-12+088299999V0201401N002610042019N0100001N1+02091+01931101351ADDAA199000091AY101061AY201061GF106991051021004501021001KA1240N+01941MA1999999091611MD1999999+0021MW1101REMSYN082AAXX  24124 83339 31497 61405 10209 20193 39161 40135 71000 85220 333 20194 58002;EQDQ01  00002PRCP99
0167833390999992001012418004-14040-042610FM-12+088299999V0201401N003612200019N0100001N1+02671+01821101051ADDAA199000091GF103991031021004501001001MA1999999091351MD1999999+0071REMSYN070AAXX  24184 83339 32497 31407 10267 20182 39135 40105 83200 333 58007;EQDQ01  00002PRCP99
0208833390999992001012500004-14040-042610FM-12+088299999V0201401N006212200019N0020001N1+02331+01531101071ADDAA199000091GA1001+999999999GF100991001001999999001001KA1240M+02761MA1999999091351MD1999999+0001REMSYN082AAXX  25004 83339 32995 01412 10233 20153 39135 40107 333 10276 29068 55091 58000;EQDQ01  00002PRCP99
0186833390999992001012512004-14040-042610FM-12+088299999V0201401N003112200019N0100001N1+02191+01761101211ADDAA199000091GF102991021021004501001001KA1240N+01721MA1999999091491MD1999999-0121REMSYN076AAXX  25124 83339 32497 21406 10219 20176 39149 40121 82200 333 20172 59012;EQDQ01  00002PRCP99
0167833390999992001012518004-14040-042610FM-12+088299999V0200501N004612200019N0100001N1+02731+01421100931ADDAA199000091GF102991021021004501001001MA1999999091251MD1999999-0101REMSYN070AAXX  25184 83339 32497 20509 10273 20142 39125 40093 82200 333 59010;EQDQ01  00002PRCP99
0208833390999992001012600004-14040-042610FM-12+088299999V0200901N001012200019N0020001N1+02151+01091100951ADDAA199000091GA1001+999999999GF100991001001999999001001KA1240M+02781MA1999999091241MD1999999-0111REMSYN082AAXX  26004 83339 32995 00902 10215 20109 39124 40095 333 10278 29056 55117 59011;EQDQ01  00002PRCP99
0214833390999992001012612004-14040-042610FM-12+088299999V0201401N004610042019N0100001N1+02171+01841101311ADDAA199000091AY101061AY201061GF106991061021004501001001KA1240N+01861MA1999999091561MD1999999+0071MW1101REMSYN082AAXX  26124 83339 31497 61409 10217 20184 39156 40131 71000 86200 333 20186 58007;EQDQ01  00002PRCP99
0167833390999992001012618004-14040-042610FM-12+088299999V0201401N004112200019N0100001N1+02751+01611100931ADDAA199000091GF103991031021004501001001MA1999999091251MD1999999+0001REMSYN070AAXX  26184 83339 32497 31408 10275 20161 39125 40093 83200 333 58000;EQDQ01  00002PRCP99
0208833390999992001012700004-14040-042610FM-12+088299999V0201401N003112200019N0020001N1+02251+01431100961ADDAA199000091GA1001+999999999GF100991001001999999001001KA1240M+02831MA1999999091251MD1999999+0011REMSYN082AAXX  27004 83339 32995 01406 10225 20143 39125 40096 333 10283 29063 55104 58001;EQDQ01  00002PRCP99
0214833390999992001012712004-14040-042610FM-12+088299999V0201401N003112200019N0100001N1+02271+01901101221ADDAA199000091AY101061AY201061GF102991021021004501001001KA1240N+01821MA1999999091501MD1999999-0061MW1101REMSYN082AAXX  27124 83339 31497 21406 10227 20190 39150 40122 71000 82200 333 20182 59006;EQDQ01  00002PRCP99
0167833390999992001012718004-14040-042610FM-12+088299999V0201401N005112200019N0100001N1+02751+01571100961ADDAA199000091GF103991021021004501001021MA1999999091271MD1999999+0021REMSYN070AAXX  27184 83339 32497 31410 10275 20157 39127 40096 82202 333 58002;EQDQ01  00002PRCP99
0198833390999992001012800004-14040-042610FM-12+088299999V0201801N000512200019N0020001N1+02291+01541100871ADDAA199000091GF102991021021004501001001KA1240M+02841MA1999999091191MD1999999-0061REMSYN088AAXX  28004 83339 32495 21801 10229 20154 39119 40087 82200 333 10284 29064 55118 59006;EQDQ01  00002PRCP99
0214833390999992001012812004-14040-042610FM-12+088299999V0201401N002612200019N0100001N1+02311+01941101161ADDAA199000091AY101061AY201061GF102991011021004501021001KA1240N+01761MA1999999091451MD1999999-0051MW1101REMSYN082AAXX  28124 83339 31497 21405 10231 20194 39145 40116 71000 81220 333 20176 59005;EQDQ01  00002PRCP99
0167833390999992001012818004-14040-042610FM-12+088299999V0201401N004610042019N0100001N1+02831+01441100781ADDAA199000091GF106991051021004501001041MA1999999091141MD1999999-0131REMSYN070AAXX  28184 83339 32497 61409 10283 20144 39114 40078 85204 333 59013;EQDQ01  00002PRCP99
0198833390999992001012900004-14040-042610FM-12+088299999V0201801N001512200019N0020001N1+02211+01461100971ADDAA199000091GF102991011021004501021001KA1240M+02941MA1999999091271MD1999999+0081REMSYN088AAXX  29004 83339 32495 21803 10221 20146 39127 40097 81220 333 10294 29062 55112 58008;EQDQ01  00002PRCP99
0202833390999992001012912004-14040-042610FM-12+088299999V0201401N002112200019N0100001N1+02301+01851101301ADDAA199000091GF102991001001999999001011KA1240N+01741MA1999999091571MD1999999+0121REMSYN076AAXX  29124 83339 32897 21404 10230 20185 39157 40130 80001 333 20174 58012;EQDQ01+022502SCOLCBQ02  00002PRCP99
0167833390999992001012918004-14040-042610FM-12+088299999V0201401N003612200019N0100001N1+02951+01161100831ADDAA199000091GF102991021021004501001001MA1999999091201MD1999999+0061REMSYN070AAXX  29184 83339 32497 21407 10295 20116 39120 40083 82200 333 58006;EQDQ01  00002PRCP99
0208833390999992001013000004-14040-042610FM-12+088299999V0209999C000012200019N0020001N1+02351+01491100901ADDAA199000091GA1001+999999999GF100991001001999999001001KA1240M+02991MA1999999091221MD1999999-0051REMSYN082AAXX  30004 83339 32995 00000 10235 20149 39122 40090 333 10299 29056 55117 59005;EQDQ01  00002PRCP99
0186833390999992001013012004-14040-042610FM-12+088299999V0201401N002110042019N0100001N1+02501+01821101231ADDAA199000091GF106991061021004501001001KA1240N+01771MA1999999091501MD1999999-0071REMSYN076AAXX  30124 83339 32497 61404 10250 20182 39150 40123 86200 333 20177 59007;EQDQ01  00002PRCP99
0167833390999992001013018004-14040-042610FM-12+088299999V0201401N005112200019N0100001N1+02871+01801100801ADDAA199000091GF103991031021004501001001MA1999999091141MD1999999-0061REMSYN070AAXX  30184 83339 32497 31410 10287 20180 39114 40080 83200 333 59006;EQDQ01  00002PRCP99
0208833390999992001013100004-14040-042610FM-12+088299999V0200901N001012200019N0020001N1+02321+01551100941ADDAA199000091GA1001+999999999GF100991001001999999001001KA1240M+02941MA1999999091241MD1999999+0021REMSYN082AAXX  31004 83339 32995 00902 10232 20155 39124 40094 333 10294 29065 55095 58002;EQDQ01  00002PRCP99
0186833390999992001013112004-14040-042610FM-12+088299999V0201401N002610042019N0100001N1+02091+01841101251ADDAA199000091GF106991061021004501001001KA1240N+01781MA1999999091521MD1999999+0021REMSYN076AAXX  31124 83339 32497 61405 10209 20184 39152 40125 86200 333 20178 58002;EQDQ01  00002PRCP99
0167833390999992001013118004-14040-042610FM-12+088299999V0201401N003612200019N0100001N1+02891+01621100901ADDAA199000091GF102991021021004501001001MA1999999091231MD1999999+0091REMSYN070AAXX  31184 83339 32497 21407 10289 20162 39123 40090 82200 333 58009;EQDQ01  00002PRCP99
0192833390999992001020100004-14040-042610FM-12+088299999V0200801N001512200019N0020001N1+02391+01601100981ADDAA199000091GF101991999999999999999999KA1240M+03001MA1999999091281MD1999999+0041REMSYN082AAXX  01004 83339 32995 10803 10239 20160 39128 40098 333 10300 29063 55110 58004;EQDQ01  00002PRCP99
0196833390999992001020112004-14040-042610FM-12+088299999V0200901N002612200019N0100001N1+02381+01781101101ADDAA199000091GA1001+999999999GF100991001001999999001001KA1240N+01771MA1999999091421MD1999999-0101REMSYN070AAXX  01124 83339 32997 00905 10238 20178 39142 40110 333 20177 59010;EQDQ01  00002PRCP99
0167833390999992001020118004-14040-042610FM-12+088299999V0200901N005112200019N0100001N1+02961+01531100651ADDAA199000091GF102991021021004501001001MA1999999091041MD1999999-0191REMSYN070AAXX  01184 83339 32497 20910 10296 20153 39104 40065 82200 333 59019;EQDQ01  00002PRCP99
0208833390999992001020200004-14040-042610FM-12+088299999V0200801N001512200019N0020001N1+02441+01201100821ADDAA199000091GA1001+999999999GF100991001001999999001001KA1240M+03021MA1999999091161MD1999999-0121REMSYN082AAXX  02004 83339 32995 00803 10244 20120 39116 40082 333 10302 29051 55117 59012;EQDQ01  00002PRCP99
0167833390999992001020218004-14040-042610FM-12+088299999V0201401N001012200019N0100001N1+03031+01411100711ADDAA199000091GF104991041021004501001001MA1999999091091MD1999999+0051REMSYN070AAXX  02184 83339 32497 41402 10303 20141 39109 40071 84200 333 58005;EQDQ01  00002PRCP99
0208833390999992001020300004-14040-042610FM-12+088299999V0201801N003112200019N0020001N1+02451+02011100811ADDAA199000091GA1001+999999999GF100991001001999999001001KA1240M+03231MA1999999091171MD1999999+0011REMSYN082AAXX  03004 83339 32995 01806 10245 20201 39117 40081 333 10323 29044 55090 58001;EQDQ01  00002PRCP99
0196833390999992001020312004-14040-042610FM-12+088299999V0200501N001512200019N0100001N1+02591+01761101141ADDAA199000091GA1001+999999999GF100991001001999999001001KA1240N+01881MA1999999091471MD1999999+0021REMSYN070AAXX  03124 83339 32997 00503 10259 20176 39147 40114 333 20188 58002;EQDQ01  00002PRCP99
0167833390999992001020318004-14040-042610FM-12+088299999V0201401N001512200019N0100001N1+03111+01351100791ADDAA199000091GF102991021021004501001001MA1999999091181MD1999999+0091REMSYN070AAXX  03184 83339 32497 21403 10311 20135 39118 40079 82200 333 58009;EQDQ01  00002PRCP99
0196833390999992001020412004-14040-042610FM-12+088299999V0200901N002112200019N0020001N1+02441+01761101321ADDAA199000091GA1001+999999999GF100991001001999999001001KA1240N+01861MA1999999091631MD1999999+0161REMSYN070AAXX  04124 83339 32995 00904 10244 20176 39163 40132 333 20186 58016;EQDQ01  00002PRCP99
0167833390999992001020418004-14040-042610FM-12+088299999V0200901N003112200019N0100001N1+02991+01711100951ADDAA199000091GF103991031021004501001001MA1999999091331MD1999999+0151REMSYN070AAXX  04184 83339 32497 30906 10299 20171 39133 40095 83200 333 58015;EQDQ01  00002PRCP99
0208833390999992001020500004-14040-042610FM-12+088299999V0201401N003112200019N0020001N1+02431+01531101071ADDAA199000091GA1001+999999999GF100991001001999999001001KA1240M+03061MA1999999091401MD1999999+0131REMSYN082AAXX  05004 83339 32995 01406 10243 20153 39140 40107 333 10306 29056 55118 58013;EQDQ01  00002PRCP99
0186833390999992001020512004-14040-042610FM-12+088299999V0200901N002112200019N0100001N1+02471+01971101281ADDAA199000091GF102991021021004501001001KA1240N+01961MA1999999091591MD1999999-0041REMSYN076AAXX  05124 83339 32497 20904 10247 20197 39159 40128 82200 333 20196 59004;EQDQ01  00002PRCP99
0167833390999992001020518004-14040-042610FM-12+088299999V0201401N005712200019N0100001N1+03111+01581100831ADDAA199000091GF102991021021004501001001MA1999999091231MD1999999-0101REMSYN070AAXX  05184 83339 32497 21411 10311 20158 39123 40083 82200 333 59010;EQDQ01  00002PRCP99
0188833390999992001020600004-14040-042610FM-12+088299999V0209999C000012200019N0020001N1+02471+01661100981ADDAA199000091GA1001+999999999GF100991001001999999001001KA1240M+03141MA1999999091321REMSYN076AAXX  06004 83339 32995 00000 10247 20166 39132 40098 333 10314 29057 55118;EQDQ01  00002PRCP99
0196833390999992001020612004-14040-042610FM-12+088299999V0203601N002112200019N0100001N1+02691+01811101181ADDAA199000091GA1001+999999999GF100991001001999999001001KA1240N+02041MA1999999091541MD1999999-0051REMSYN070AAXX  06124 83339 32997 03604 10269 20181 39154 40118 333 20204 59005;EQDQ01  00002PRCP99
0167833390999992001020618004-14040-042610FM-12+088299999V0200501N004612200019N0100001N1+03271+01281100791ADDAA199000091GF102991021021004501001001MA1999999091201MD1999999-0031REMSYN070AAXX  06184 83339 32497 20509 10327 20128 39120 40079 82200 333 59003;EQDQ01  00002PRCP99
0208833390999992001020700004-14040-042610FM-12+088299999V0201801N001512200019N0020001N1+02651+01421100831ADDAA199000091GA1001+999999999GF100991001001999999001001KA1240M+03371MA1999999091231MD1999999-0091REMSYN082AAXX  07004 83339 32995 01803 10265 20142 39123 40083 333 10337 29046 55117 59009;EQDQ01  00002PRCP99
0177833390999992001020712004-14040-042610FM-12+088299999V0201401N002112200019N0100001N1+02691+02041101131ADDAA199000091GA1001+999999999GF100991001001999999001001MA1999999091501MD1999999-0041REMSYN064AAXX  07124 83339 32997 01404 10269 20204 39150 40113 333 59004;EQDQ01  00002PRCP99
0167833390999992001020718004-14040-042610FM-12+088299999V0201801N002610042019N0100001N1+03271+01801100701ADDAA199000091GF106991061021004501001001MA1999999091131MD1999999-0071REMSYN070AAXX  07184 83339 32497 61805 10327 20180 39113 40070 86200 333 59007;EQDQ01  00002PRCP99
0198833390999992001020800004-14040-042610FM-12+088299999V0201801N002112200019N0020001N1+02671+01651100851ADDAA199000091GF102991011021004501031001KA1240M+03361MA1999999091251MD1999999+0021REMSYN088AAXX  08004 83339 32495 21804 10267 20165 39125 40085 81230 333 10336 29053 55108 58002;EQDQ01  00002PRCP99
0214833390999992001020812004-14040-042610FM-12+088299999V0201401N002612200019N0100001N1+02431+02131101151ADDAA199000091AY101061AY201061GF102991021021004501001001KA1240N+02041MA1999999091501MD1999999+0001MW1101REMSYN082AAXX  08124 83339 31497 21405 10243 20213 39150 40115 71000 82200 333 20204 58000;EQDQ01  00002PRCP99
0167833390999992001020818004-14040-042610FM-12+088299999V0201401N004612200019N0100001N1+02991+01691100771ADDAA199000091GF103991031021004501001001MA1999999091151MD1999999+0021REMSYN070AAXX  08184 83339 32497 31409 10299 20169 39115 40077 83200 333 58002;EQDQ01  00002PRCP99
0208833390999992001020900004-14040-042610FM-12+088299999V0201401N001512200019N0020001N1+02371+01351100941ADDAA199000091GA1001+999999999GF100991001001999999001001KA1240M+03081MA1999999091271MD1999999+0021REMSYN082AAXX  09004 83339 32995 01403 10237 20135 39127 40094 333 10308 29059 55115 58002;EQDQ01  00002PRCP99
0214833390999992001020912004-14040-042610FM-12+088299999V0201401N003110042019N0100001N1+02171+01921101241ADDAA199000091AY101061AY201061GF106991061021004501001001KA1240N+01781MA1999999091521MD1999999+0021MW1101REMSYN082AAXX  09124 83339 31497 61406 10217 20192 39152 40124 71000 86200 333 20178 58002;EQDQ01  00002PRCP99
0167833390999992001020918004-14040-042610FM-12+088299999V0201401N003612200019N0100001N1+02931+01301100761ADDAA199000091GF102991021021004501001001MA1999999091131MD1999999-0021REMSYN070AAXX  09184 83339 32497 21407 10293 20130 39113 40076 82200 333 59002;EQDQ01  00002PRCP99
0208833390999992001021000004-14040-042610FM-12+088299999V0201401N004612200019N0020001N1+02491+01031100871ADDAA199000091GA1001+999999999GF100991001001999999001001KA1240M+03001MA1999999091201MD1999999-0071REMSYN082AAXX  10004 83339 32995 01409 10249 20103 39120 40087 333 10300 29051 55112 59007;EQDQ01  00002PRCP99
0186833390999992001021012004-14040-042610FM-12+088299999V0201401N006212200019N0100001N1+02231+01821101191ADDAA199000091GF102991021021004501001001KA1240N+01881MA1999999091491MD1999999-0031REMSYN076AAXX  10124 83339 32497 21412 10223 20182 39149 40119 82200 333 20188 59003;EQDQ01  00002PRCP99
0167833390999992001021018004-14040-042610FM-12+088299999V0201401N005112200019N0100001N1+02871+00981100871ADDAA199000091GF102991021021004501001001MA1999999091231MD1999999+0101REMSYN070AAXX  10184 83339 32497 21410 10287 20098 39123 40087 82200 333 58010;EQDQ01  00002PRCP99
0208833390999992001021100004-14040-042610FM-12+088299999V0201801N001012200019N0020001N1+02391+00521100911ADDAA199000091GA1001+999999999GF100991001001999999001001KA1240M+02971MA1999999091231MD1999999+0031REMSYN082AAXX  11004 83339 32995 01802 10239 20052 39123 40091 333 10297 29042 55115 58003;EQDQ01  00002PRCP99
0196833390999992001021112004-14040-042610FM-12+088299999V0201401N004612200019N0100001N1+02251+01751101271ADDAA199000091GA1001+999999999GF100991001001999999001001KA1240N+01841MA1999999091551MD1999999+0061REMSYN070AAXX  11124 83339 32997 01409 10225 20175 39155 40127 333 20184 58006;EQDQ01  00002PRCP99
0167833390999992001021118004-14040-042610FM-12+088299999V0200501N001512200019N0100001N1+03011+00951100881ADDAA199000091GF102991011021004501001041MA1999999091251MD1999999+0021REMSYN070AAXX  11184 83339 32497 20503 10301 20095 39125 40088 81204 333 58002;EQDQ01  00002PRCP99
0208833390999992001021200004-14040-042610FM-12+088299999V0201401N003112200019N0020001N1+02431+01401100981ADDAA199000091GA1001+999999999GF100991001001999999001001KA1240M+03091MA1999999091301MD1999999+0071REMSYN082AAXX  12004 83339 32995 01406 10243 20140 39130 40098 333 10309 29050 55118 58007;EQDQ01  00002PRCP99
0196833390999992001021212004-14040-042610FM-12+088299999V0201401N004112200019N0100001N1+02451+01761101351ADDAA199000091GA1001+999999999GF100991001001999999001001KA1240N+01941MA1999999091651MD1999999+0101REMSYN070AAXX  12124 83339 32997 01408 10245 20176 39165 40135 333 20194 58010;EQDQ01  00002PRCP99
0167833390999992001021218004-14040-042610FM-12+088299999V0200901N004110042019N0100001N1+02941+01661101061ADDAA199000091GF105991051021004501001001MA1999999091411MD1999999+0161REMSYN070AAXX  12184 83339 32497 50908 10294 20166 39141 40106 85200 333 58016;EQDQ01  00002PRCP99
0208833390999992001021300004-14040-042610FM-12+088299999V0201401N002612200019N0020001N1+02451+01681101051ADDAA199000091GA1001+999999999GF100991001001999999001001KA1240M+03011MA1999999091381MD1999999+0081REMSYN082AAXX  13004 83339 32995 01405 10245 20168 39138 40105 333 10301 29059 55117 58008;EQDQ01  00002PRCP99
0186833390999992001021312004-14040-042610FM-12+088299999V0201401N002610042019N0100001N1+02031+01801101341ADDAA199000091GF106991061021004501001001KA1240N+01921MA1999999091611MD1999999-0041REMSYN076AAXX  13124 83339 32497 61405 10203 20180 39161 40134 86200 333 20192 59004;EQDQ01  00002PRCP99
0167833390999992001021318004-14040-042610FM-12+088299999V0201401N003110450019N0100001N1+02631+01881100971ADDAA199000091GF108991031021004501021041MA1999999091291MD1999999-0221REMSYN070AAXX  13184 83339 32497 81406 10263 20188 39129 40097 83224 333 59022;EQDQ01  00002PRCP99
0208833390999992001021400004-14040-042610FM-12+088299999V0209999C000012200019N9999999N1+02211+01731101121ADDAA199000091GA1001+999999999GF100991001001999999001001KA1240M+02791MA1999999091381MD1999999+0001REMSYN082AAXX  14004 83339 329// 00000 10221 20173 39138 40112 333 10279 29074 55021 58000;EQDQ01  00002PRCP99
0186833390999992001021412004-14040-042610FM-12+088299999V0201401N003112200019N0100001N1+02421+01911101211ADDAA199000091GF104991021021004501001041KA1240N+01871MA1999999091501MD1999999-0111REMSYN076AAXX  14124 83339 32497 41406 10242 20191 39150 40121 82204 333 20187 59011;EQDQ01  00002PRCP99
0167833390999992001021418004-14040-042610FM-12+088299999V0201401N003112200019N0100001N1+02701+01631100881ADDAA199000091GF106991041021004501001041MA1999999091201MD1999999-0091REMSYN070AAXX  14184 83339 32497 61406 10270 20163 39120 40088 84204 333 59009;EQDQ01  00002PRCP99
0198833390999992001021500004-14040-042610FM-12+088299999V0209999C000012200019N0020001N1+02371+01581100921ADDAA199000091GF104991041021004501001001KA1240M+03011MA1999999091251MD1999999-0131REMSYN088AAXX  15004 83339 32495 40000 10237 20158 39125 40092 84200 333 10301 29062 55067 59013;EQDQ01  00002PRCP99
0186833390999992001021512004-14040-042610FM-12+088299999V0200901N002110450019N0100001N1+02421+01931101311ADDAA199000091GF106991041021004501031001KA1240N+02021MA1999999091611MD1999999+0111REMSYN076AAXX  15124 83339 32497 60904 10242 20193 39161 40131 84230 333 20202 58011;EQDQ01  00002PRCP99
0195833390999992001021518004-14040-042610FM-12+088299999V0209999C000010450019N0100001N1+02521+01891100991ADDAA199000091AY121061AY221061GF107991041021004501021001MA1999999091301MD1999999+0101MW1171REMSYN076AAXX  15184 83339 31497 70000 10252 20189 39130 40099 71722 84220 333 58010;EQDQ01  00002PRCP99
0198833390999992001021600004-14040-042610FM-12+088299999V0209999C000012200019N0020001N1+02231+01881101061ADDAA199000091GF102991021021004501001001KA1240M+02721MA1999999091361MD1999999+0111REMSYN088AAXX  16004 83339 32495 20000 10223 20188 39136 40106 82200 333 10272 29033 55076 58011;EQDQ01  00002PRCP99
0186833390999992001021612004-14040-042610FM-12+088299999V0201401N001510450019N0100001N1+02331+01891101381ADDAA199000091GF106991021021004501031001KA1240N+01921MA1999999091651MD1999999+0041REMSYN076AAXX  16124 83339 32497 61403 10233 20189 39165 40138 82230 333 20192 58004;EQDQ01  00002PRCP99
0167833390999992001021618004-14040-042610FM-12+088299999V0201401N005112200019N0100001N1+03031+01141100941ADDAA199000091GF102991021021004501001001MA1999999091301MD1999999+0001REMSYN070AAXX  16184 83339 32497 21410 10303 20114 39130 40094 82200 333 58000;EQDQ01  00002PRCP99
0208833390999992001021700004-14040-042610FM-12+088299999V0201401N005112200019N0020001N1+02451+01741101211ADDAA199000091GA1001+999999999GF100991001001999999001001KA1240M+03071MA1999999091511MD1999999+0151REMSYN082AAXX  17004 83339 32995 01410 10245 20174 39151 40121 333 10307 29087 55060 58015;EQDQ01  00002PRCP99
0186833390999992001021712004-14040-042610FM-12+088299999V0201401N005112200019N0100001N1+02271+01831101491ADDAA199000091GF102991021021004501001001KA1240N+01901MA1999999091761MD1999999+0111REMSYN076AAXX  17124 83339 32497 21410 10227 20183 39176 40149 82200 333 20190 58011;EQDQ01  00002PRCP99
0167833390999992001021718004-14040-042610FM-12+088299999V0201401N005712200019N0100001N1+02931+01231101151ADDAA199000091GF102991021021004501001001MA1999999091481MD1999999+0181REMSYN070AAXX  17184 83339 32497 21411 10293 20123 39148 40115 82200 333 58018;EQDQ01  00002PRCP99
0208833390999992001021800004-14040-042610FM-12+088299999V0201401N003112200019N0020001N1+02411+01491101341ADDAA199000091GA1001+999999999GF100991001001999999001001KA1240M+02981MA1999999091631MD1999999+0121REMSYN082AAXX  18004 83339 32995 01406 10241 20149 39163 40134 333 10298 29055 55112 58012;EQDQ01  00002PRCP99
0196833390999992001021812004-14040-042610FM-12+088299999V0201401N004612200019N0100001N1+02231+01691101621ADDAA199000091GA1001+999999999GF100991001001999999001001KA1240N+01801MA1999999091871MD1999999+0111REMSYN070AAXX  18124 83339 32997 01409 10223 20169 39187 40162 333 20180 58011;EQDQ01  00002PRCP99
0167833390999992001021818004-14040-042610FM-12+088299999V0200901N003112200019N0100001N1+02971+00931101221ADDAA199000091GF102991011021004501031001MA1999999091541MD1999999+0061REMSYN070AAXX  18184 83339 32497 20906 10297 20093 39154 40122 81230 333 58006;EQDQ01  00002PRCP99
0186833390999992001021912004-14040-042610FM-12+088299999V0201401N006712200019N0100001N1+02251+01731101521ADDAA199000091GF104991041021004501001001KA1240N+01941MA1999999091791MD1999999-0081REMSYN076AAXX  19124 83339 32497 41413 10225 20173 39179 40152 84200 333 20194 59008;EQDQ01  00002PRCP99
0167833390999992001021918004-14040-042610FM-12+088299999V0202301N005110042019N0100001N1+02591+01611101231ADDAA199000091GF107991061021004501021999MA1999999091541MD1999999+0001REMSYN070AAXX  19184 83339 32497 72310 10259 20161 39154 40123 8622/ 333 58000;EQDQ01  00002PRCP99
0198833390999992001022000004-14040-042610FM-12+088299999V0201801N003110042019N0020001N1+02271+01641101201ADDAA199000091GF105991051021004501001001KA1240M+02681MA1999999091481MD1999999-0101REMSYN088AAXX  20004 83339 32495 51806 10227 20164 39148 40120 85200 333 10268 29066 55053 59010;EQDQ01  00002PRCP99
0186833390999992001022012004-14040-042610FM-12+088299999V0201401N003610042019N0100001N1+02291+01831101421ADDAA199000091GF106991061021004501001001KA1240N+01931MA1999999091691MD1999999-0101REMSYN076AAXX  20124 83339 32497 61407 10229 20183 39169 40142 86200 333 20193 59010;EQDQ01  00002PRCP99
0167833390999992001022018004-14040-042610FM-12+088299999V0201401N003112200019N0100001N1+02771+01561101051ADDAA199000091GF105991041021004501001041MA1999999091361MD1999999-0181REMSYN070AAXX  20184 83339 32497 51406 10277 20156 39136 40105 84204 333 59018;EQDQ01  00002PRCP99
0185833390999992001022100004-14040-042610FM-12+088299999V0201801N001512200019N0020001N1+02351+01441101201ADDAA199000091GF102991021021004501001001KA1240M+02871KA2999N+00581MA1999999091491REMSYN076AAXX  21004 83339 32495 21803 10235 20144 39149 40120 82200 333 10287 29058;EQDQ01  00002PRCP99
0186833390999992001022112004-14040-042610FM-12+088299999V0201401N004612200019N0100001N1+02291+01831101311ADDAA199000091GF103991031021004501001001KA1240N+01841MA1999999091591MD1999999-0101REMSYN076AAXX  21124 83339 32497 31409 10229 20183 39159 40131 83200 333 20184 59010;EQDQ01  00002PRCP99
0167833390999992001022118004-14040-042610FM-12+088299999V0201401N006712200019N0100001N1+02871+01251100881ADDAA199000091GF104991031021004501021001MA1999999091241MD1999999-0121REMSYN070AAXX  21184 83339 32497 41413 10287 20125 39124 40088 83220 333 59012;EQDQ01  00002PRCP99
0167833390999992001022218004-14040-042610FM-12+088299999V0201401N004612200019N0100001N1+02891+01531100981ADDAA199000091GF102991021021004501001001MA1999999091341MD1999999+0101REMSYN070AAXX  22184 83339 32497 21409 10289 20153 39134 40098 82200 333 58010;EQDQ01  00002PRCP99
0208833390999992001022300004-14040-042610FM-12+088299999V0200901N002112200019N0020001N1+02451+01301101061ADDAA199000091GA1001+999999999GF100991001001999999001001KA1240M+02981MA1999999091361MD1999999-0041REMSYN082AAXX  23004 83339 32995 00904 10245 20130 39136 40106 333 10298 29056 55090 59004;EQDQ01  00002PRCP99
0202833390999992001022312004-14040-042610FM-12+088299999V0200501N006719999999N0100001N1+02271+01731101521ADDAA199000091GF106991999021004501001001KA1240N+01941MA1999999091791MD1999999-0081REMSYN076AAXX  23124 83339 32497 60513 10227 20173 39179 40152 84200 333 20194 59008;EQDQ01+000042SCOTLCQ02  00002PRCP99
0167833390999992001022318004-14040-042610FM-12+088299999V0200501N004612200019N0100001N1+03091+01311100981ADDAA199000091GF102991021021004501001001MA1999999091351MD1999999+0011REMSYN070AAXX  23184 83339 32497 20509 10309 20131 39135 40098 82200 333 58001;EQDQ01  00002PRCP99
0208833390999992001022400004-14040-042610FM-12+088299999V0201401N004612200019N0020001N1+02551+01191101121ADDAA199000091GA1001+999999999GF100991001001999999001001KA1240M+03121MA1999999091441MD1999999+0081REMSYN082AAXX  24004 83339 32995 01409 10255 20119 39144 40112 333 10312 29049 55112 58008;EQDQ01  00002PRCP99
0186833390999992001022412004-14040-042610FM-12+088299999V0201401N005112200019N0100001N1+02371+01711101281ADDAA199000091GF102991021021004501001001KA1240N+01881MA1999999091591MD1999999-0051REMSYN076AAXX  24124 83339 32497 21410 10237 20171 39159 40128 82200 333 20188 59005;EQDQ01  00002PRCP99
0183833390999992001022418004-14040-042610FM-12+088299999V0201401N005712200019N0100001N1+02891+01421100951ADDAA199000091GF103991999021004501001001MA1999999091311MD1999999-0041REMSYN070AAXX  24184 83339 32497 31411 10289 20142 39131 40095 82200 333 59004;EQDQ01+000022SCOTLCQ02  00002PRCP99
0208833390999992001022500004-14040-042610FM-12+088299999V0201401N003112200019N0020001N1+02451+01241101041ADDAA199000091GA1001+999999999GF100991001001999999001001KA1240M+02801MA1999999091361MD1999999-0081REMSYN082AAXX  25004 83339 32995 01406 10245 20124 39136 40104 333 10280 29051 55112 59008;EQDQ01  00002PRCP99
0208833390999992001022512004-14040-042610FM-12+088299999V0201401N003112200019N0020001N1+02451+01241101041ADDAA199000091GA1001+999999999GF100991001001999999001001KA1240M+02801MA1999999091361MD1999999-0081REMSYN082AAXX  25124 83339 32995 01406 10245 20124 39136 40104 333 10280 29051 55112 59008;EQDQ01  00002PRCP99
0167833390999992001022518004-14040-042610FM-12+088299999V0201401N002612200019N0100001N1+02931+01601100851ADDAA199000091GF102991021021004501001001MA1999999091221MD1999999-0091REMSYN070AAXX  25184 83339 32497 21405 10293 20160 39122 40085 82200 333 59009;EQDQ01  00002PRCP99
0226833390999992001022600004-14040-042610FM-12+088299999V0201401N005712200019N0020001N1+02171+01801100971ADDAA199000091AY101061AY201061GF103991031021004501001001KA1240M+02981MA1999999091261MD1999999-0101MW1101REMSYN094AAXX  26004 83339 31495 31411 10217 20180 39126 40097 71000 83200 333 10298 29068 55094 59010;EQDQ01  00002PRCP99
0167833390999992001022618004-14040-042610FM-12+088299999V0201401N005112200019N0100001N1+02931+01721100771ADDAA199000091GF103991031021004501001001MA1999999091141MD1999999-0081REMSYN070AAXX  26184 83339 32497 31410 10293 20172 39114 40077 83200 333 59008;EQDQ01  00002PRCP99
0208833390999992001022700004-14040-042610FM-12+088299999V0201401N008212200019N0020001N1+02241+01881101111ADDAA199000091GA1001+999999999GF100991001001999999001001KA1240M+02971MA1999999091391MD1999999+0131REMSYN082AAXX  27004 83339 32995 01416 10224 20188 39139 40111 333 10297 29071 55088 58013;EQDQ01  00002PRCP99
0186833390999992001022712004-14040-042610FM-12+088299999V0201401N005110042019N0100001N1+02121+01881101361ADDAA199000091GF106991061021004501001001KA1240N+01941MA1999999091621MD1999999+0051REMSYN076AAXX  27124 83339 32497 61410 10212 20188 39162 40136 86200 333 20194 58005;EQDQ01  00002PRCP99
0167833390999992001022718004-14040-042610FM-12+088299999V0201401N003112200019N0100001N1+02751+01771100971ADDAA199000091GF106991041021004501001041MA1999999091291MD1999999+0151REMSYN070AAXX  27184 83339 32497 61406 10275 20177 39129 40097 84204 333 58015;EQDQ01  00002PRCP99
0201833390999992001022812004-14040-042610FM-12+088299999V0201401N005110042019N0100001N1+02121+01911101451ADDAA124004191AY191061AY261061GF106991061021004501001001KA1240N+01851MA1999999091651MD1999999+0031MW1021REMSYN088AAXX  28124 83339 21497 61410 10212 20191 39165 40145 70296 86200 333 20185 58003 60044;
0198833390999992001030100004-14040-042610FM-12+088299999V0201401N005110042019N0020001N1+02051+01841101331ADDAA199000091GF106991061021004501001001KA1240M+02741MA1999999092571MD1999999-0031REMSYN088AAXX  01004 83339 32495 61410 10205 20184 39257 40133 86200 333 10274 29078 55022 59003;EQDQ01  00002PRCP99
0186833390999992001030112004-14040-042610FM-12+088299999V0201401N005110042019N0100001N1+02041+01851101401ADDAA199000091GF108991051021004501021999KA1240N+01871MA1999999091631MD1999999-0021REMSYN076AAXX  01124 83339 32497 81410 10204 20185 39163 40140 8522/ 333 20187 59002;EQDQ01  00002PRCP99
0167833390999992001030118004-14040-042610FM-12+088299999V0201401N005112200019N0100001N1+02601+01841101091ADDAA199000091GF106991041021004501001041MA1999999091381MD1999999-0041REMSYN070AAXX  01184 83339 32497 61410 10260 20184 39138 40109 84204 333 59004;EQDQ01  00002PRCP99
0198833390999992001030200004-14040-042610FM-12+088299999V0201401N004610450019N0020001N1+02341+01721101321ADDAA199000091GF106991041021004501031001KA1240M+02631MA1999999091581MD1999999+0011REMSYN088AAXX  02004 83339 32495 61409 10234 20172 39158 40132 84230 333 10263 29072 55020 58001;EQDQ01  00002PRCP99
0196833390999992001030212004-14040-042610FM-12+088299999V0200501N001512200019N0100001N1+02591+01761101141ADDAA199000091GA1001+999999999GF100991001001999999001001KA1240N+01881MA1999999091471MD1999999+0021REMSYN070AAXX  02124 83339 32997 00503 10259 20176 39147 40114 333 20188 58002;EQDQ01  00002PRCP99
0167833390999992001030218004-14040-042610FM-12+088299999V0201401N005110042019N0100001N1+02711+01851101131ADDAA199000091GF106991061021004501001001MA1999999091441MD1999999+0061REMSYN070AAXX  02184 83339 32497 61410 10271 20185 39144 40113 86200 333 58006;EQDQ01  00002PRCP99
0198833390999992001030300004-14040-042610FM-12+088299999V0201401N005719999999N0020001N1+02291+01901101411ADDAA199000091GF105991031021999999031001KA1240M+02781MA1999999091661MD1999999+0081REMSYN088AAXX  03004 83339 32/95 51411 10229 20190 39166 40141 83230 333 10278 29075 55042 58008;EQDQ01  00002PRCP99
0186833390999992001030312004-14040-042610FM-12+088299999V0201401N004110042019N0100001N1+02191+01991101661ADDAA199000091GF108991051021004501021999KA1240N+02021MA1999999091901MD1999999+0071REMSYN076AAXX  03124 83339 32497 81408 10219 20199 39190 40166 8522/ 333 20202 58007;EQDQ01  00002PRCP99
0167833390999992001030318004-14040-042610FM-12+088299999V0201401N001010450019N0100001N1+02691+01881101301ADDAA199000091GF107991041021004501031041MA1999999091591MD1999999+0151REMSYN070AAXX  03184 83339 32497 71402 10269 20188 39159 40130 84234 333 58015;EQDQ01  00002PRCP99
0198833390999992001030400004-14040-042610FM-12+088299999V0201401N002612200019N0020001N1+02331+01831101451ADDAA199000091GF104991031021004501031001KA1240M+02871MA1999999091711MD1999999+0051REMSYN088AAXX  04004 83339 32495 41405 10233 20183 39171 40145 83230 333 10287 29074 55027 58005;EQDQ01  00002PRCP99
0201833390999992001030412004-14040-042610FM-12+088299999V0201401N004110042019N0100001N1+02161+01971101581ADDAA124000191AY161061AY221061GF108991051021004501021999KA1240N+01951MA1999999091831MD1999999-0071MW1021REMSYN088AAXX  04124 83339 21497 81408 10216 20197 39183 40158 70262 8522/ 333 20195 59007 69924;
0167833390999992001030418004-14040-042610FM-12+088299999V0201401N005712200019N0100001N1+02651+01611101101ADDAA199000091GF106991041021004501001041MA1999999091401MD1999999-0191REMSYN070AAXX  04184 83339 32497 61411 10265 20161 39140 40110 84204 333 59019;EQDQ01  00002PRCP99
0198833390999992001030500004-14040-042610FM-12+088299999V0201401N005712200019N0020001N1+02281+02001101311ADDAA199000091GF104991041021004501001001KA1240M+02841MA1999999091571MD1999999-0141REMSYN088AAXX  05004 83339 32495 41411 10228 20200 39157 40131 84200 333 10284 29080 55043 59014;EQDQ01  00002PRCP99
0201833390999992001030512004-14040-042610FM-12+088299999V0201401N005710042019N0040001N1+01951+01841101511ADDAA124001091AY161061AY261061GF108991081051004501999999KA1240N+01931MA1999999091741MD1999999-0091MW1101REMSYN088AAXX  05124 83339 21496 81411 10195 20184 39174 40151 71066 885// 333 20193 59009 60014;
0226833390999992001030600004-14040-042610FM-12+088299999V0201401N007210042019N0020001N1+02191+01921101281ADDAA199000091AY101061AY201061GF106991061021004501001001KA1240M+02521MA1999999091521MD1999999-0051MW1101REMSYN094AAXX  06004 83339 31495 61414 10219 20192 39152 40128 71000 86200 333 10252 29084 55007 59005;EQDQ01  00002PRCP99
0214833390999992001030612004-14040-042610FM-12+088299999V0201401N004610042019N0040001N1+02131+01931101521ADDAA199000091AY101061AY201061GF108991081051004501999999KA1240N+01941MA1999999091751MD1999999+0011MW1101REMSYN082AAXX  06124 83339 31496 81409 10213 20193 39175 40152 71000 885// 333 20194 58001;EQDQ01  00002PRCP99
0161833390999992001030618004-14040-042610FM-12+088299999V0201401N004110042019N0100001N1+02671+01821999999ADDAA199000091GF106991051021004501021001MA1999999091451MD1999999-0041REMSYN064AAXX  06184 83339 32497 61408 10267 20182 39145 85220 333 59004;EQDQ01  00002PRCP99
0198833390999992001030700004-14040-042610FM-12+088299999V0201401N004112200019N0020001N1+02391+01711101341ADDAA199000091GF104991041021004501001001KA1240M+02791MA1999999091611MD1999999+0091REMSYN088AAXX  07004 83339 32495 41408 10239 20171 39161 40134 84200 333 10279 29068 55053 58009;EQDQ01  00002PRCP99
0214833390999992001030712004-14040-042610FM-12+088299999V0201401N006210042019N0040001N1+02111+01881101641ADDAA199000091AY101061AY201061GF107991061021004501021999KA1240N+01921MA1999999091881MD1999999+0131MW1101REMSYN082AAXX  07124 83339 31496 71412 10211 20188 39188 40164 71000 8622/ 333 20192 58013;EQDQ01  00002PRCP99
0167833390999992001030718004-14040-042610FM-12+088299999V0201401N004112200019N0100001N1+02911+01441101221ADDAA199000091GF102991021021004501001001MA1999999091541MD1999999+0091REMSYN070AAXX  07184 83339 32497 21408 10291 20144 39154 40122 82200 333 58009;EQDQ01  00002PRCP99
0198833390999992001030800004-14040-042610FM-12+088299999V0201401N002112200019N0020001N1+02451+01531101331ADDAA199000091GF102991021021004501001001KA1240M+03001MA1999999091611MD1999999+0001REMSYN088AAXX  08004 83339 32495 21404 10245 20153 39161 40133 82200 333 10300 29060 55078 58000;EQDQ01  00002PRCP99
0186833390999992001030812004-14040-042610FM-12+088299999V0201401N004110042019N0100001N1+02231+01801101521ADDAA199000091GF105991051021004501001001KA1240N+01921MA1999999091791MD1999999-0091REMSYN076AAXX  08124 83339 32497 51408 10223 20180 39179 40152 85200 333 20192 59009;EQDQ01  00002PRCP99
0167833390999992001030818004-14040-042610FM-12+088299999V0201401N003112200019N0100001N1+02971+01211101071ADDAA199000091GF103991021021004501021001MA1999999091431MD1999999-0111REMSYN070AAXX  08184 83339 32497 31406 10297 20121 39143 40107 82220 333 59011;EQDQ01  00002PRCP99
0208833390999992001030900004-14040-042610FM-12+088299999V0201401N000512200019N0020001N1+02351+01441101141ADDAA199000091GA1001+999999999GF100991001001999999001001KA1240M+03021MA1999999091441MD1999999+0171REMSYN082AAXX  09004 83339 32995 01401 10235 20144 39144 40114 333 10302 29056 55112 58017;EQDQ01  00002PRCP99
0186833390999992001030912004-14040-042610FM-12+088299999V0201401N005112200019N0100001N1+02371+01871101241ADDAA199000091GF102991021021004501001001KA1240N+01831MA1999999091541MD1999999-0251REMSYN076AAXX  09124 83339 32497 21410 10237 20187 39154 40124 82200 333 20183 59025;EQDQ01  00002PRCP99
0183833390999992001030918004-14040-042610FM-12+088299999V0202701N003112200019N0100001N1+03151+01411100851ADDAA199000091GF103991999021004501001001MA1999999091141MD1999999-0291REMSYN070AAXX  09184 83339 32497 32706 10315 20141 39114 40085 82200 333 59029;EQDQ01+000022SCOTLCQ02  00002PRCP99
0198833390999992001031000004-14040-042610FM-12+088299999V0201401N002612200019N0020001N1+02431+01051100931ADDAA199000091GF102991021021004501001001KA1240M+03241MA1999999091261MD1999999-0181REMSYN088AAXX  10004 83339 32495 21405 10243 20105 39126 40093 82200 333 10324 29048 55109 59018;EQDQ01  00002PRCP99
0186833390999992001031012004-14040-042610FM-12+088299999V0201401N001510042019N0100001N1+02351+01951101101ADDAA199000091GF106991051021004501021001KA1240N+02001MA1999999091421MD1999999-0121REMSYN076AAXX  10124 83339 32497 61403 10235 20195 39142 40110 85220 333 20200 59012;EQDQ01  00002PRCP99
0182833390999992001031018004-14040-042610FM-12+088299999V0200901N001510042019N0040001N1+02251+02051100771ADDAA106002091AY191061AY261061GF107991061021004501021999MA1999999091091MD1999999-0051MW1101REMSYN082AAXX  10184 83339 21496 70903 10225 20205 39109 40077 71096 8622/ 333 59005 60021;
0213833390999992001031100004-14040-042610FM-12+088299999V0203201N002110042019N0020001N1+02251+01881101011ADDAA106000591AY161061AY261061GF108991081051004501999999KA1240M+03001MA1999999091321MD1999999+0061MW1101REMSYN100AAXX  11004 83339 21495 83204 10225 20188 39132 40101 71066 885// 333 10300 29081 55042 58006 69961;
0201833390999992001031112004-14040-042610FM-12+088299999V0209999C000010042019N0040001N1+02031+01871101241ADDAA124005191AY161061AY261061GF108991081051004501999999KA1240N+01981MA1999999091501MD1999999+0081MW1101REMSYN088AAXX  11124 83339 21496 80000 10203 20187 39150 40124 71066 885// 333 20198 58008 60054;
0213833390999992001031200004-14040-042610FM-12+088299999V0202701N001010042019N0020001N1+02031+01941101191ADDAA106023191AY191061AY261061GF108991081051004501999999KA1240M+03001MA1999999091441MD1999999+0121MW1101REMSYN100AAXX  12004 83339 21495 82702 10203 20194 39144 40119 71096 885// 333 10300 29091 55006 58012 60231;
0201833390999992001031212004-14040-042610FM-12+088299999V0201401N001510042019N0020001N1+01951+01911101491ADDAA124046091AY161061AY261061GF108991061021004501021999KA1240N+01921MA1999999091691MD1999999+0191MW1601REMSYN088AAXX  12124 83339 21495 81403 10195 20191 39169 40149 76066 8622/ 333 20192 58019 60464;
0182833390999992001031218004-14040-042610FM-12+088299999V0203201N001510042019N0020001N1+02051+02011101221ADDAA106011991AY161061AY241061GF108991051021004501021999MA1999999091451MD1999999+0261MW1601REMSYN082AAXX  12184 83339 21495 83203 10205 20201 39145 40122 76064 8522/ 333 58026 60121;
0213833390999992001031300004-14040-042610FM-12+088299999V0209999C000010042019N0020001N1+01991+01931101321ADDAA106003091AY161061AY241061GF105991051021004501001001KA1240M+02341MA1999999091541MD1999999+0101MW1021REMSYN100AAXX  13004 83339 21495 50000 10199 20193 39154 40132 70264 85200 333 10234 29096 55000 58010 60031;
0201833390999992001031312004-14040-042610FM-12+088299999V0201401N003110042019N0010001N1+02051+02031101541ADDAA124016091AY161061AY241061GF108991051021004501021999KA1240N+01921MA1999999091741MD1999999+0051MW1401REMSYN088AAXX  13124 83339 21494 81406 10205 20203 39174 40154 74064 8522/ 333 20192 58005 60164;
0182833390999992001031318004-14040-042610FM-12+088299999V0201401N003110042019N0100001N1+02321+02021101141ADDAA106010991AY161061AY241061GF108991061021004501021999MA1999999091401MD1999999-0021MW1021REMSYN082AAXX  13184 83339 21497 81406 10232 20202 39140 40114 70264 8622/ 333 59002 60111;
0198833390999992001031400004-14040-042610FM-12+088299999V0201401N003112200019N0020001N1+02051+01891101381ADDAA199000091GF103991031021004501001001KA1240M+02491MA1999999091611MD1999999+0071REMSYN088AAXX  14004 83339 32495 31406 10205 20189 39161 40138 83200 333 10249 29090 55002 58007;EQDQ01  00002PRCP99
0201833390999992001031412004-14040-042610FM-12+088299999V0201401N004110042019N0100001N1+02261+01941101421ADDAA124011991AY161061AY221061GF105991051021004501001001KA1240N+01951MA1999999091661MD1999999-0081MW1021REMSYN088AAXX  14124 83339 21497 51408 10226 20194 39166 40142 70262 85200 333 20195 59008 60124;
0167833390999992001031418004-14040-042610FM-12+088299999V0201401N005110042019N0100001N1+02451+02011101071ADDAA199000091GF105991051021004501001001MA1999999091351MD1999999-0051REMSYN070AAXX  14184 83339 32497 51410 10245 20201 39135 40107 85200 333 59005;EQDQ01  00002PRCP99
0201833390999992001031512004-14040-042610FM-12+088299999V0201401N004610042019N0100001N1+01991+01881101541ADDAA124001091AY161061AY221061GF106991061021004501001001KA1240N+01851MA1999999091741MD1999999+0081MW1021REMSYN088AAXX  15124 83339 21497 61409 10199 20188 39174 40154 70262 86200 333 20185 58008 60014;
0167833390999992001031518004-14040-042610FM-12+088299999V0201401N002612200019N0100001N1+02491+01961101121ADDAA199000091GF104991041021004501001001MA1999999091401MD1999999+0051REMSYN070AAXX  15184 83339 32497 41405 10249 20196 39140 40112 84200 333 58005;EQDQ01  00002PRCP99
0196833390999992001031600004-14040-042610FM-12+088299999V0201401N003110042019N0020001N1+02031+01871101291ADDAY161061AY221061GF106991061021004501001001KA1240M+02571MA1999999091521MD1999999+0021MW1021REMSYN094AAXX  16004 83339 21495 61406 10203 20187 39152 40129 70262 86200 333 10257 29086 55034 58002;
0201833390999992001031612004-14040-042610FM-12+088299999V0201401N005110042019N0100001N1+02011+01741101651ADDAA124004191AY161061AY221061GF106991061021004501001001KA1240N+01821MA1999999091841MD1999999+0101MW1021REMSYN088AAXX  16124 83339 21497 61410 10201 20174 39184 40165 70262 86200 333 20182 58010 60044;
0167833390999992001031618004-14040-042610FM-12+088299999V0200901N005112200019N0100001N1+02531+01601101351ADDAA199000091GF104991021021004501001041MA1999999091611MD1999999+0211REMSYN070AAXX  16184 83339 32497 40910 10253 20160 39161 40135 82204 333 58021;EQDQ01  00002PRCP99
0208833390999992001031700004-14040-042610FM-12+088299999V0201401N006712200019N0020001N1+02141+01741101461ADDAA199000091GA1001+999999999GF100991001001999999001001KA1240M+02561MA1999999091661MD1999999+0141REMSYN082AAXX  17004 83339 32995 01413 10214 20174 39166 40146 333 10256 29074 55060 58014;EQDQ01  00002PRCP99
0214833390999992001031712004-14040-042610FM-12+088299999V0201401N003110042019N0010001N1+01891+01821101591ADDAA199000091AY121061AY221061GF108991051021004501021999KA1240N+01801MA1999999091781MD1999999-0061MW1401REMSYN082AAXX  17124 83339 31494 81406 10189 20182 39178 40159 74022 8522/ 333 20180 59006;EQDQ01  00002PRCP99
0167833390999992001031718004-14040-042610FM-12+088299999V0201401N003610042019N0100001N1+02491+01871101171ADDAA199000091GF106991061021004501001001MA1999999091451MD1999999-0161REMSYN070AAXX  17184 83339 32497 61407 10249 20187 39145 40117 86200 333 59016;EQDQ01  00002PRCP99
0186833390999992001031812004-14040-042610FM-12+088299999V0201401N003611050019N0100001N1+02231+01901101311ADDAA199000091GF105991021021004501031011KA1240N+01771MA1999999091571MD1999999-0211REMSYN076AAXX  18124 83339 32497 51407 10223 20190 39157 40131 82231 333 20177 59021;EQDQ01  00002PRCP99
0167833390999992001031818004-14040-042610FM-12+088299999V0200901N003110042019N0100001N1+02791+01781100861ADDAA199000091GF106991061021004501001001MA1999999091201MD1999999-0251REMSYN070AAXX  18184 83339 32497 60906 10279 20178 39120 40086 86200 333 59025;EQDQ01  00002PRCP99
0208833390999992001031900004-14040-042610FM-12+088299999V0202301N001012200019N0020001N1+02191+01861101091ADDAA199000091GA1001+999999999GF100991001001999999001001KA1240M+02951MA1999999091371MD1999999-0151REMSYN082AAXX  19004 83339 32995 02302 10219 20186 39137 40109 333 10295 29074 55080 59015;EQDQ01  00002PRCP99
0214833390999992001031912004-14040-042610FM-12+088299999V0201401N000512200019N0100001N1+02371+01991101271ADDAA199000091AY101061AY201061GF104991041021004501001001KA1240N+01841MA1999999091551MD1999999-0021MW1101REMSYN082AAXX  19124 83339 31497 41401 10237 20199 39155 40127 71000 84200 333 20184 59002;EQDQ01  00002PRCP99
0167833390999992001031918004-14040-042610FM-12+088299999V0201401N003110042019N0100001N1+02991+01661100791ADDAA199000091GF105991051021004501001001MA1999999091161MD1999999+0041REMSYN070AAXX  19184 83339 32497 51406 10299 20166 39116 40079 85200 333 58004;EQDQ01  00002PRCP99
0198833390999992001032000004-14040-042610FM-12+088299999V0201801N000512200019N0020001N1+02371+01731101081ADDAA199000091GF102991021021004501001001KA1240M+03041MA1999999091391MD1999999+0021REMSYN088AAXX  20004 83339 32495 21801 10237 20173 39139 40108 82200 333 10304 29064 55080 58002;EQDQ01  00002PRCP99
0214833390999992001032012004-14040-042610FM-12+088299999V0201401N001510006019N0049001N1+02191+01951101521ADDAA199000091AY101061AY201061GF106991051021000751001021KA1240N+01801MA1999999091781MD1999999+0231MW1101REMSYN082AAXX  20124 83339 32149 61403 10219 20195 39178 40152 71000 85202 333 20180 58023;EQDQ01  00002PRCP99
0167833390999992001032018004-14040-042610FM-12+088299999V0201401N003612200019N0100001N1+02751+01441101221ADDAA199000091GF102991021021004501001001MA1999999091521MD1999999+0361REMSYN070AAXX  20184 83339 32497 21407 10275 20144 39152 40122 82200 333 58036;EQDQ01  00002PRCP99
0208833390999992001032100004-14040-042610FM-12+088299999V0200901N001012200019N0020001N1+02171+01431101331ADDAA199000091GA1001+999999999GF100991001001999999001001KA1240M+02901MA1999999091591MD1999999+0201REMSYN082AAXX  21004 83339 32995 00902 10217 20143 39159 40133 333 10290 29063 55094 58020;EQDQ01  00002PRCP99
0214833390999992001032112004-14040-042610FM-12+088299999V0201401N005110042019N0100001N1+02191+01921101571ADDAA199000091AY101061AY201061GF105991051021004501001001KA1240N+01921MA1999999091811MD1999999+0031MW1101REMSYN082AAXX  21124 83339 31497 51410 10219 20192 39181 40157 71000 85200 333 20192 58003;EQDQ01  00002PRCP99
0167833390999992001032118004-14040-042610FM-12+088299999V0201401N006712200019N0100001N1+02751+01611101201ADDAA199000091GF103991031021004501001001MA1999999091501MD1999999-0021REMSYN070AAXX  21184 83339 32497 31413 10275 20161 39150 40120 83200 333 59002;EQDQ01  00002PRCP99
0208833390999992001032200004-14040-042610FM-12+088299999V0201401N003612200019N0020001N1+02351+01551101261ADDAA199000091GA1001+999999999GF100991001001999999001001KA1240M+02801MA1999999091541MD1999999-0051REMSYN082AAXX  22004 83339 32995 01407 10235 20155 39154 40126 333 10280 29063 55091 59005;EQDQ01  00002PRCP99
0186833390999992001032212004-14040-042610FM-12+088299999V0201401N007712200019N0100001N1+02131+01661101421ADDAA199000091GF102991021021004501001001KA1240N+01801MA1999999091681MD1999999-0131REMSYN076AAXX  22124 83339 32497 21415 10213 20166 39168 40142 82200 333 20180 59013;EQDQ01  00002PRCP99
0167833390999992001032218004-14040-042610FM-12+088299999V0201401N002612200019N0100001N1+02651+01511100991ADDAA199000091GF103991031021004501001001MA1999999091291MD1999999-0211REMSYN070AAXX  22184 83339 32497 31405 10265 20151 39129 40099 83200 333 59021;EQDQ01  00002PRCP99
0208833390999992001032300004-14040-042610FM-12+088299999V0201401N003612200019N0020001N1+02251+01571101071ADDAA199000091GA1001+999999999GF100991001001999999001001KA1240M+02721MA1999999091351MD1999999-0191REMSYN082AAXX  23004 83339 32995 01407 10225 20157 39135 40107 333 10272 29064 55111 59019;EQDQ01  00002PRCP99
0186833390999992001032312004-14040-042610FM-12+088299999V0201401N004112200019N0100001N1+02271+01841101311ADDAA199000091GF102991021021004501001001KA1240N+01851MA1999999091581MD1999999-0101REMSYN076AAXX  23124 83339 32497 21408 10227 20184 39158 40131 82200 333 20185 59010;EQDQ01  00002PRCP99
0167833390999992001032318004-14040-042610FM-12+088299999V0201401N005712200019N0100001N1+02771+01391100841ADDAA199000091GF103991031021004501001001MA1999999091181MD1999999-0111REMSYN070AAXX  23184 83339 32497 31411 10277 20139 39118 40084 83200 333 59011;EQDQ01  00002PRCP99
0208833390999992001032400004-14040-042610FM-12+088299999V0201401N006212200019N0020001N1+02351+01621100981ADDAA199000091GA1001+999999999GF100991001001999999001001KA1240M+02831MA1999999091291MD1999999-0061REMSYN082AAXX  24004 83339 32995 01412 10235 20162 39129 40098 333 10283 29061 55112 59006;EQDQ01  00002PRCP99
0186833390999992001032412004-14040-042610FM-12+088299999V0201401N006210042019N0100001N1+02091+01701101331ADDAA199000091GF106991061021004501001001KA1240N+01921MA1999999091591MD1999999+0011REMSYN076AAXX  24124 83339 32497 61412 10209 20170 39159 40133 86200 333 20192 58001;EQDQ01  00002PRCP99
0167833390999992001032418004-14040-042610FM-12+088299999V0201401N005112200019N0100001N1+02731+01741101021ADDAA199000091GF102991021021004501001001MA1999999091341MD1999999-0161REMSYN070AAXX  24184 83339 32497 21410 10273 20174 39134 40102 82200 333 59016;EQDQ01  00002PRCP99
0198833390999992001032500004-14040-042610FM-12+088299999V0201401N003612200019N0020001N1+02251+01781101191ADDAA199000091GF102991021021004501001001KA1240M+02801MA1999999091451MD1999999-0161REMSYN088AAXX  25004 83339 32495 21407 10225 20178 39145 40119 82200 333 10280 29070 55081 59016;EQDQ01  00002PRCP99
0214833390999992001032512004-14040-042610FM-12+088299999V0201401N004110012019N0049001N1+02091+02001101461ADDAA199000091AY101061AY201061GF107991061021001501021999KA1240N+01861MA1999999091701MD1999999+0111MW1101REMSYN082AAXX  25124 83339 31249 71408 10209 20200 39170 40146 71000 8622/ 333 20186 58011;EQDQ01  00002PRCP99
0167833390999992001032518004-14040-042610FM-12+088299999V0201401N006212200019N0100001N1+02851+01601101061ADDAA199000091GF104991031021004501001041MA1999999091371MD1999999+0031REMSYN070AAXX  25184 83339 32497 41412 10285 20160 39137 40106 83204 333 58003;EQDQ01  00002PRCP99
0198833390999992001032600004-14040-042610FM-12+088299999V0201401N001510450019N0020001N1+02271+01731101211ADDAA199000091GF105991041021004501021001KA1240M+02431MA1999999091481MD1999999+0031REMSYN088AAXX  26004 83339 32495 51403 10227 20173 39148 40121 84220 333 10243 29072 55072 58003;EQDQ01  00002PRCP99
0186833390999992001032612004-14040-042610FM-12+088299999V0200901N003112200019N0100001N1+02271+01861101441ADDAA199000091GF102991021021004501001001KA1240N+01921MA1999999091701MD1999999+0001REMSYN076AAXX  26124 83339 32497 20906 10227 20186 39170 40144 82200 333 20192 58000;EQDQ01  00002PRCP99
0167833390999992001032618004-14040-042610FM-12+088299999V0201401N003112200019N0100001N1+02831+01701101011ADDAA199000091GF103991031021004501001001MA1999999091341MD1999999-0031REMSYN070AAXX  26184 83339 32497 31406 10283 20170 39134 40101 83200 333 59003;EQDQ01  00002PRCP99
0167833390999992001032718004-14040-042610FM-12+088299999V0201401N003610042019N0100001N1+02861+01621100871ADDAA199000091GF105991051021004501001001MA1999999091211MD1999999-0131REMSYN070AAXX  27184 83339 32497 51407 10286 20162 39121 40087 85200 333 59013;EQDQ01  00002PRCP99
0208833390999992001032800004-14040-042610FM-12+088299999V0201801N002112200019N9999999N1+02371+01481101031ADDAA199000091GA1001+999999999GF100991001001999999001001KA1240M+03081MA1999999091351MD1999999-0131REMSYN082AAXX  28004 83339 329// 01804 10237 20148 39135 40103 333 10308 29058 55111 59013;EQDQ01  00002PRCP99
0186833390999992001032812004-14040-042610FM-12+088299999V0201401N002110042019N0100001N1+02211+01961101341ADDAA199000091GF106991061021004501001001KA1240N+01881MA1999999091621MD1999999+0001REMSYN076AAXX  28124 83339 32497 61404 10221 20196 39162 40134 86200 333 20188 58000;EQDQ01  00002PRCP99
0167833390999992001032818004-14040-042610FM-12+088299999V0201401N005712200019N0100001N1+02931+01761100791ADDAA199000091GF103991021021004501001011MA1999999091151MD1999999-0061REMSYN070AAXX  28184 83339 32497 31411 10293 20176 39115 40079 82201 333 59006;EQDQ01  00002PRCP99
0208833390999992001032900004-14040-042610FM-12+088299999V0201401N002612200019N0020001N1+02371+01731101091ADDAA199000091GA1001+999999999GF100991001001999999001001KA1240M+03001MA1999999091391MD1999999+0041REMSYN082AAXX  29004 83339 32995 01405 10237 20173 39139 40109 333 10300 29067 55/03 58004;EQDQ01  00002PRCP99
0186833390999992001032912004-14040-042610FM-12+088299999V0201401N004110042019N0100001N1+02181+01901101501ADDAA199000091GF106991061021004501001001KA1240N+01931MA1999999091751MD1999999+0131REMSYN076AAXX  29124 83339 32497 61408 10218 20190 39175 40150 86200 333 20193 58013;EQDQ01  00002PRCP99
0167833390999992001032918004-14040-042610FM-12+088299999V0200901N004112200019N0100001N1+02711+01821101171ADDAA199000091GF102991021021004501001001MA1999999091481MD1999999+0331REMSYN070AAXX  29184 83339 32497 20908 10271 20182 39148 40117 82200 333 58033;EQDQ01  00002PRCP99
0208833390999992001033000004-14040-042610FM-12+088299999V0209999C000012200019N0020001N1+02291+01751101291ADDAA199000091GA1001+999999999GF100991001001999999001001KA1240M+02831MA1999999091581MD1999999+0191REMSYN082AAXX  30004 83339 32995 00000 10229 20175 39158 40129 333 10283 29071 55089 58019;EQDQ01  00002PRCP99
0186833390999992001033012004-14040-042610FM-12+088299999V0200901N003112200019N0100001N1+02171+01841101551ADDAA199000091GF105991041021004501001011KA1240N+01881MA1999999091791MD1999999+0041REMSYN076AAXX  30124 83339 32497 50906 10217 20184 39179 40155 84201 333 20188 58004;EQDQ01  00002PRCP99
0167833390999992001033018004-14040-042610FM-12+088299999V0201401N002112200019N0100001N1+02851+01551101111ADDAA199000091GF102991021011004501001001MA1999999091441MD1999999-0041REMSYN070AAXX  30184 83339 32497 21404 10285 20155 39144 40111 82100 333 59004;EQDQ01  00002PRCP99
0208833390999992001033100004-14040-042610FM-12+088299999V0201401N001012200019N0020001N1+02261+01471101221ADDAA199000091GA1001+999999999GF100991001001999999001001KA1240M+02881MA1999999091491MD1999999-0091REMSYN082AAXX  31004 83339 32995 01402 10226 20147 39149 40122 333 10288 29062 55111 59009;EQDQ01  00002PRCP99
0186833390999992001033112004-14040-042610FM-12+088299999V0201401N004110042019N0100001N1+02171+01941101441ADDAA199000091GF106991061021004501001001KA1240N+02001MA1999999091691MD1999999-0101REMSYN076AAXX  31124 83339 32497 61408 10217 20194 39169 40144 86200 333 20200 59010;EQDQ01  00002PRCP99
0167833390999992001033118004-14040-042610FM-12+088299999V0201401N004112200019N0100001N1+02741+01781100971ADDAA199000091GF104991041021004501001001MA1999999091301MD1999999-0141REMSYN070AAXX  31184 83339 32497 41408 10274 20178 39130 40097 84200 333 59014;EQDQ01  00002PRCP99
0198833390999992001040100004-14040-042610FM-12+088299999V0201401N006712200019N0100001N1+02371+01711101171ADDAA199000091GF102991021011004501001001KA1240M+02821MA1999999091451MD1999999-0041REMSYN088AAXX  01004 83339 32497 21413 10237 20171 39145 40117 82100 333 10282 29068 55072 59004;EQDQ01  00002PRCP99
0186833390999992001040112004-14040-042610FM-12+088299999V0200501N005110042019N0100001N1+02181+01721101451ADDAA199000091GF106991061021004501001001KA1240N+01861MA1999999091711MD1999999+0021REMSYN076AAXX  01124 83339 32497 60510 10218 20172 39171 40145 86200 333 20186 58002;EQDQ01  00002PRCP99
0167833390999992001040118004-14040-042610FM-12+088299999V0201401N005112200019N0100001N1+02731+01701101101ADDAA199000091GF104991041021004501001001MA1999999091401MD1999999+0101REMSYN070AAXX  01184 83339 32497 41410 10273 20170 39140 40110 84200 333 58010;EQDQ01  00002PRCP99
0208833390999992001040200004-14040-042610FM-12+088299999V0201401N005112200019N0020001N1+02351+01641101141ADDAA199000091GA1001+999999999GF100991001001999999001001KA1240M+02781MA1999999091431MD1999999-0021REMSYN082AAXX  02004 83339 32995 01410 10235 20164 39143 40114 333 10278 29078 55107 59002;EQDQ01  00002PRCP99
0214833390999992001040212004-14040-042610FM-12+088299999V0201401N004110042019N0040001N1+02051+01921101441ADDAA199000091AY101061AY201061GF108991081051004501999999KA1240N+01921MA1999999091691MD1999999-0021MW1101REMSYN082AAXX  02124 83339 31496 81408 10205 20192 39169 40144 71000 885// 333 20192 59002;EQDQ01  00002PRCP99
0167833390999992001040218004-14040-042610FM-12+088299999V0201401N003612200019N0100001N1+02711+01781101201ADDAA199000091GF102991021021004501001001MA1999999091501MD1999999+0101REMSYN070AAXX  02184 83339 32497 21407 10271 20178 39150 40120 82200 333 58010;EQDQ01  00002PRCP99
0198833390999992001040300004-14040-042610FM-12+088299999V0201401N004112200019N0020001N1+02351+01761101321ADDAA199000091GF102991021021004501001001KA1240M+02771MA1999999091581MD1999999+0151REMSYN088AAXX  03004 83339 32495 21408 10235 20176 39158 40132 82200 333 10277 29070 55066 58015;EQDQ01  00002PRCP99
0214833390999992001040312004-14040-042610FM-12+088299999V0200901N003610042019N0100001N1+02071+01401101441ADDAA199000091AY101061AY201061GF106991061021004501001001KA1240N+01901MA1999999091691MD1999999+0001MW1101REMSYN082AAXX  03124 83339 31497 60907 10207 2014/ 39169 40144 71000 86200 333 20190 58000;EQDQ01  00002PRCP99
0167833390999992001040318004-14040-042610FM-12+088299999V0200501N003112200019N0100001N1+02691+01701101121ADDAA199000091GF103991031021004501001001MA1999999091431MD1999999-0071REMSYN070AAXX  03184 83339 32497 30506 10269 20170 39143 40112 83200 333 59007;EQDQ01  00002PRCP99
0208833390999992001040400004-14040-042610FM-12+088299999V0209999C000012200019N0020001N1+02251+01671101311ADDAA199000091GA1001+999999999GF100991001001999999001001KA1240M+02821MA1999999091561MD1999999-0021REMSYN082AAXX  04004 83339 32995 00000 10225 20167 39156 40131 333 10282 29072 55066 59002;EQDQ01  00002PRCP99
0214833390999992001040412004-14040-042610FM-12+088299999V0200501N005710042019N0100001N1+02211+01881101331ADDAA199000091AY101061AY201061GF106991061021004501001001KA1240N+01951MA1999999091601MD1999999-0091MW1101REMSYN082AAXX  04124 83339 31497 60511 10221 20188 39160 40133 71000 86200 333 20195 59009;EQDQ01  00002PRCP99
0167833390999992001040418004-14040-042610FM-12+088299999V0201401N006212200019N0100001N1+02811+01501101001ADDAA199000091GF104991031021004501001041MA1999999091331MD1999999-0101REMSYN070AAXX  04184 83339 32497 41412 10281 20150 39133 40100 83204 333 59010;EQDQ01  00002PRCP99
0208833390999992001040500004-14040-042610FM-12+088299999V0201401N005112200019N0020001N1+02411+01501101191ADDAA199000091GA1001+999999999GF100991001001999999001001KA1240M+02871MA1999999091481MD1999999-0081REMSYN082AAXX  05004 83339 32995 01410 10241 20150 39148 40119 333 10287 29060 55090 59008;EQDQ01  00002PRCP99
0186833390999992001040512004-14040-042610FM-12+088299999V0200501N006210042019N0100001N1+02171+01721101471ADDAA199000091GF106991061021004501001001KA1240N+01941MA1999999091741MD1999999+0141REMSYN076AAXX  05124 83339 32497 60512 10217 20172 39174 40147 86200 333 20194 58014;EQDQ01  00002PRCP99
0167833390999992001040518004-14040-042610FM-12+088299999V0200501N004112200019N0100001N1+02871+01411101111ADDAA199000091GF102991021021004501001001MA1999999091441MD1999999+0111REMSYN070AAXX  05184 83339 32497 20508 10287 20141 39144 40111 82200 333 58011;EQDQ01  00002PRCP99
0198833390999992001040600004-14040-042610FM-12+088299999V0200901N003612200019N0020001N1+02331+01741101351ADDAA199000091GF102991011021004501031001KA1240M+03291MA1999999091621MD1999999+0141REMSYN088AAXX  06004 83339 32495 20907 10233 20174 39162 40135 81230 333 10329 29063 55105 58014;EQDQ01  00002PRCP99
0167833390999992001040618004-14040-042610FM-12+088299999V0201401N004612200019N0100001N1+02751+01481101231ADDAA199000091GF104991041021004501001001MA1999999091531MD1999999+0091REMSYN070AAXX  06184 83339 32497 41409 10275 20148 39153 40123 84200 333 58009;EQDQ01  00002PRCP99
0198833390999992001040700004-14040-042610FM-12+088299999V0200901N002110042019N0020001N1+02311+01791101461ADDAA199000091GF106991061021004501001001KA1240M+02861MA1999999091701MD1999999+0021REMSYN088AAXX  07004 83339 32495 60904 10231 20179 39170 40146 86200 333 10286 29070 55066 58002;EQDQ01  00002PRCP99
0214833390999992001040712004-14040-042610FM-12+088299999V0201401N004110042019N0100001N1+02091+01821101621ADDAA199000091AY101061AY201061GF106991061021004501001001KA1240N+01901MA1999999091851MD1999999-0041MW1101REMSYN082AAXX  07124 83339 31497 61408 10209 20182 39185 40162 71000 86200 333 20190 59004;EQDQ01  00002PRCP99
0167833390999992001040718004-14040-042610FM-12+088299999V0201401N007212200019N0100001N1+02751+01441101241ADDAA199000091GF103991031021004501001001MA1999999091541MD1999999+0011REMSYN070AAXX  07184 83339 32497 31414 10275 20144 39154 40124 83200 333 58001;EQDQ01  00002PRCP99
0198833390999992001040800004-14040-042610FM-12+088299999V0201401N003610042019N0020001N1+02351+01471101401ADDAA199000091GF106991061021004501001001KA1240M+02821MA1999999091651MD1999999-0051REMSYN088AAXX  08004 83339 32495 61407 10235 20147 39165 40140 86200 333 10282 29060 55083 59005;EQDQ01  00002PRCP99
0186833390999992001040812004-14040-042610FM-12+088299999V0200501N005710042019N0100001N1+02071+01661101471ADDAA199000091GF106991061021004501001001KA1240N+01821MA1999999091721MD1999999-0131REMSYN076AAXX  08124 83339 32497 60511 10207 20166 39172 40147 86200 333 20182 59013;EQDQ01  00002PRCP99
0167833390999992001040818004-14040-042610FM-12+088299999V0200501N004612200019N0100001N1+02731+01241101081ADDAA199000091GF104991041021004501001001MA1999999091391MD1999999-0151REMSYN070AAXX  08184 83339 32497 40509 10273 20124 39139 40108 84200 333 59015;EQDQ01  00002PRCP99
0186833390999992001040912004-14040-042610FM-12+088299999V0201401N005110042019N0100001N1+02151+01831101371ADDAA199000091GF105991051021004501001001KA1240N+01841MA1999999091631MD1999999-0091REMSYN076AAXX  09124 83339 32497 51410 10215 20183 39163 40137 85200 333 20184 59009;EQDQ01  00002PRCP99
0167833390999992001040918004-14040-042610FM-12+088299999V0201401N004612200019N0100001N1+02771+01481100881ADDAA199000091GF106991041021004501001011MA1999999091211MD1999999-0181REMSYN070AAXX  09184 83339 32497 61409 10277 20148 39121 40088 84201 333 59018;EQDQ01  00002PRCP99
0198833390999992001041000004-14040-042610FM-12+088299999V0201401N001512200019N0020001N1+02311+01501101121ADDAA199000091GF102991021011004501001001KA1240M+02831MA1999999091411MD1999999-0141REMSYN088AAXX  10004 83339 32495 21403 10231 20150 39141 40112 82100 333 10283 29062 55099 59014;EQDQ01  00002PRCP99
0196833390999992001041012004-14040-042610FM-12+088299999V0200901N005112200019N0100001N1+02291+01681101361ADDAA199000091GA1001+999999999GF100991001001999999001001KA1240N+01871MA1999999091641MD1999999+0011REMSYN070AAXX  10124 83339 31997 00910 10229 20168 39164 40136 333 20187 58001;EQDQ01  00002PRCP99
0167833390999992001041018004-14040-042610FM-12+088299999V0201401N003612200019N0100001N1+02891+01361100911ADDAA199000091GF102991021011004501001001MA1999999091271MD1999999+0061REMSYN070AAXX  10184 83339 32497 21407 10289 20136 39127 40091 82100 333 58006;EQDQ01  00002PRCP99
0208833390999992001041100004-14040-042610FM-12+088299999V0209999C000012200019N0020001N1+02301+01171101181ADDAA199000091GA1001+999999999GF100991001001999999001001KA1240M+02961MA1999999091471MD1999999+0061REMSYN082AAXX  11004 83339 32995 00000 10230 20117 39147 40118 333 10296 29051 55110 58006;EQDQ01  00002PRCP99
0186833390999992001041112004-14040-042610FM-12+088299999V0200901N006012200019N0100001N1+02261+01641101451ADDAA199000091GF104991011011004501001011KA1240N+01631MA1999999091721MD1999999+0081REMSYN076AAXX  11120 83339 32497 40906 10226 20164 39172 40145 81101 333 20163 58008;EQDQ01  00002PRCP99
0183833390999992001041118004-14040-042610FM-12+088299999V0200501N004112200019N0100001N1+02891+01201101071ADDAA199000091GF102991001001999999001011MA1999999091391MD1999999+0121REMSYN070AAXX  11184 83339 32897 20508 10289 20120 39139 40107 80001 333 58012;EQDQ01+022502SCOLCBQ02  00002PRCP99
0208833390999992001041200004-14040-042610FM-12+088299999V0209999C000012200019N0020001N1+02331+01181101231ADDAA199000091GA1001+999999999GF100991001001999999001001KA1240M+02961MA1999999091521MD1999999+0051REMSYN082AAXX  12004 83339 32995 00000 10233 20118 39152 40123 333 10296 29050 55107 58005;EQDQ01  00002PRCP99
0196833390999992001041212004-14040-042610FM-12+088299999V0200901N003112200019N0100001N1+02391+01771101371ADDAA199000091GA1001+999999999GF100991001001999999001001KA1240N+01721MA1999999091651MD1999999-0071REMSYN070AAXX  12124 83339 32997 00906 10239 20177 39165 40137 333 20172 59007;EQDQ01  00002PRCP99
0167833390999992001041218004-14040-042610FM-12+088299999V0201401N005112200019N0100001N1+03031+01091100991ADDAA199000091GF102991021011004501001001MA1999999091351MD1999999-0041REMSYN070AAXX  12184 83339 32497 21410 10303 20109 39135 40099 82100 333 59004;EQDQ01  00002PRCP99
0208833390999992001041300004-14040-042610FM-12+088299999V0201801N001512200019N0100001N1+02371+01211101121ADDAA199000091GA1001+999999999GF100991001001999999001001KA1240M+03071MA1999999091441MD1999999-0081REMSYN082AAXX  13004 83339 32997 01803 10237 20121 39144 40112 333 10307 29048 55110 59008;EQDQ01  00002PRCP99
0186833390999992001041312004-14040-042610FM-12+088299999V0201401N006712200019N0100001N1+02231+01671101291ADDAA199000091GF102991021011004501001001KA1240N+01901MA1999999091571MD1999999-0081REMSYN076AAXX  13124 83339 32497 21413 10223 20167 39157 40129 82100 333 20190 59008;EQDQ01  00002PRCP99
0167833390999992001041318004-14040-042610FM-12+088299999V0200901N005112200019N0100001N1+02831+01501100941ADDAA199000091GF103991031021004501001001MA1999999091271MD1999999-0081REMSYN070AAXX  13184 83339 32497 30910 10283 20150 39127 40094 83200 333 59008;EQDQ01  00002PRCP99
0198833390999992001041400004-14040-042610FM-12+088299999V0201401N005712200019N0020001N1+02431+01361101051ADDAA199000091GF102991021011004501001001KA1240M+02881MA1999999091361MD1999999-0081REMSYN088AAXX  14004 83339 32495 21411 10243 20136 39136 40105 82100 333 10288 29054 55110 59008;EQDQ01  00002PRCP99
0186833390999992001041412004-14040-042610FM-12+088299999V0200901N013010042019N0100001N1+02151+01761101311ADDAA199000091GF105991051021004501001001KA1240N+01941MA1999999091591MD1999999+0021REMSYN076AAXX  14121 83339 32497 50913 10215 20176 39159 40131 85200 333 20194 58002;EQDQ01  00002PRCP99
0167833390999992001041418004-14040-042610FM-12+088299999V0200901N004112200019N0100001N1+02771+01551100931ADDAA199000091GF103991031021004501001001MA1999999091251MD1999999-0021REMSYN070AAXX  14184 83339 32497 30908 10277 20155 39125 40093 83200 333 59002;EQDQ01  00002PRCP99
0189833390999992001041500004-14040-042610FM-12+088299999V0201401N000512200019N0020001N1+02131+01781101231ADDAA199000091GA1001+999999999GF100991001001999999001001MA1999999091491MD1999999+0131REMSYN076AAXX  15004 83339 32995 01401 10213 20178 39149 40123 333 29071 55084 58013;EQDQ01  00002PRCP99
0201833390999992001041512004-14040-042610FM-12+088299999V0201401N003110450019N0010001N1+01891+01821101631ADDAA124013091AY161061AY221061GF108991041021004501021999KA1240N+01801MA1999999091821MD1999999+0231MW1401REMSYN088AAXX  15124 83339 21494 81406 10189 20182 39182 40163 74062 8422/ 333 20180 58023 60134;
0195833390999992001041518004-14040-042610FM-12+088299999V0201801N003110042019N0100001N1+02291+01851101261ADDAA199000091AY141061AY221061GF108991051021004501021999MA1999999091511MD1999999+0261MW1171REMSYN076AAXX  15184 83339 31497 81806 10229 20185 39151 40126 71742 8522/ 333 58026;EQDQ01  00002PRCP99
0213833390999992001041600004-14040-042610FM-12+088299999V0201401N006710450019N0020001N1+02041+01831101551ADDAA106000891AY191061AY261061GF106991041021004501021001KA1240M+02441MA1999999091741MD1999999+0251MW1021REMSYN100AAXX  16004 83339 21495 61413 10204 20183 39174 40155 70296 84220 333 10244 29085 55007 58025 69981;
0201833390999992001041612004-14040-042610FM-12+088299999V0201401N005110042019N0100001N1+02051+01801101661ADDAA124000891AY161061AY261061GF106991061021004501001001KA1240N+01861MA1999999091851MD1999999+0031MW1101REMSYN088AAXX  16124 83339 21497 61410 10205 20180 39185 40166 71066 86200 333 20186 58003 69984;
0167833390999992001041618004-14040-042610FM-12+088299999V0200501N005712200019N0100001N1+02671+01301101281ADDAA199000091GF105991041021004501001041MA1999999091561MD1999999+0051REMSYN070AAXX  16184 83339 32497 50511 10267 20130 39156 40128 84204 333 58005;EQDQ01  00002PRCP99
0198833390999992001041700004-14040-042610FM-12+088299999V0200901N004612200019N0020001N1+02371+01591101491ADDAA199000091GF102991021021004501001001KA1240M+02731MA1999999091741MD1999999+0001REMSYN088AAXX  17004 83339 32495 20909 10237 20159 39174 40149 82200 333 10273 29064 55089 58000;EQDQ01  00002PRCP99
0214833390999992001041712004-14040-042610FM-12+088299999V0201401N004610042019N0040001N1+02131+01861101571ADDAA199000091AY101061AY201061GF106991051021004501021999KA1240N+01881MA1999999091821MD1999999-0031MW1101REMSYN082AAXX  17124 83339 31496 61409 10213 20186 39182 40157 71000 8522/ 333 20188 59003;EQDQ01  00002PRCP99
0167833390999992001041718004-14040-042610FM-12+088299999V0201401N002612200019N0100001N1+02651+01661101221ADDAA199000091GF104991031021004501021001MA1999999091511MD1999999-0051REMSYN070AAXX  17184 83339 32497 41405 10265 20166 39151 40122 83220 333 59005;EQDQ01  00002PRCP99
0198833390999992001041800004-14040-042610FM-12+088299999V0201401N006210042019N0020001N1+02271+01771101371ADDAA199000091GF105991051021004501001001KA1240M+02801MA1999999091631MD1999999-0111REMSYN088AAXX  18004 83339 32495 51412 10227 20177 39163 40137 85200 333 10280 29071 55082 59011;EQDQ01  00002PRCP99
0214833390999992001041812004-14040-042610FM-12+088299999V0201401N003110042019N0040001N1+02011+01951101461ADDAA199000091AY101061AY201061GF108991081051004501999999KA1240N+01941MA1999999091701MD1999999-0121MW1101REMSYN082AAXX  18124 83339 31496 81406 10201 20195 39170 40146 71000 885// 333 20194 59012;EQDQ01  00002PRCP99
0167833390999992001041818004-14040-042610FM-12+088299999V0201401N003112200019N0100001N1+02651+01601100971ADDAA199000091GF103991031021004501001001MA1999999091281MD1999999-0231REMSYN070AAXX  18184 83339 32497 31406 10265 20160 39128 40097 83200 333 59023;EQDQ01  00002PRCP99
0198833390999992001041900004-14040-042610FM-12+088299999V0201401N007212200019N0020001N1+02351+01331101221ADDAA199000091GF102991021021004501001001KA1240M+02761MA1999999091491MD1999999-0141REMSYN088AAXX  19004 83339 32495 21414 10235 20133 39149 40122 82200 333 10276 29064 55056 59014;EQDQ01  00002PRCP99
0214833390999992001041912004-14040-042610FM-12+088299999V0201401N004610042019N0100001N1+02031+01801101411ADDAA199000091AY101061AY201061GF106991061021004501001001KA1240N+01841MA1999999091661MD1999999-0041MW1101REMSYN082AAXX  19124 83339 31497 61409 10203 20180 39166 40141 71000 86200 333 20184 59004;EQDQ01  00002PRCP99
0167833390999992001041918004-14040-042610FM-12+088299999V0200501N002112200019N0100001N1+02751+01341100941ADDAA199000091GF104991041021004501001001MA1999999091271MD1999999-0011REMSYN070AAXX  19184 83339 32497 40504 10275 20134 39127 40094 84200 333 59001;EQDQ01  00002PRCP99
0208833390999992001042000004-14040-042610FM-12+088299999V0200901N000512200019N0020001N1+02231+01481101121ADDAA199000091GA1001+999999999GF100991001001999999001001KA1240M+02841MA1999999091391MD1999999-0101REMSYN082AAXX  20004 83339 32995 00901 10223 20148 39139 40112 333 10284 29063 55077 59010;EQDQ01  00002PRCP99
0214833390999992001042012004-14040-042610FM-12+088299999V0201401N001510042019N0100001N1+02051+01801101481ADDAA199000091AY101061AY201061GF106991061021004501001001KA1240N+01801MA1999999091721MD1999999+0061MW1101REMSYN082AAXX  20124 83339 31497 61403 10205 20180 39172 40148 71000 86200 333 20180 58006;EQDQ01  00002PRCP99
0167833390999992001042018004-14040-042610FM-12+088299999V0200501N001510450019N0100001N1+02711+01301101021ADDAA199000091GF105991041021004501021001MA1999999091341MD1999999+0071REMSYN070AAXX  20184 83339 32497 50503 10271 20130 39134 40102 84220 333 58007;EQDQ01  00002PRCP99
0198833390999992001042100004-14040-042610FM-12+088299999V0202701N001512200019N0020001N1+02171+01631101241ADDAA199000091GF102991021021004501001001KA1240M+02881MA1999999091491MD1999999+0101REMSYN088AAXX  21004 83339 32495 22703 10217 20163 39149 40124 82200 333 10288 29068 55049 58010;EQDQ01  00002PRCP99
0196833390999992001042112004-14040-042610FM-12+088299999V0200501N002112200019N0100001N1+02351+01871999999ADDAA199000091GF102991001001999999001021KA1240N+02011MA1999999091731MD1999999+0101REMSYN070AAXX  21124 83339 32497 20504 10235 20187 39173 80002 333 20201 58010;EQDQ01+004502SCOLCBQ02  00002PRCP99
0167833390999992001042118004-14040-042610FM-12+088299999V0201401N002112200019N0100001N1+02991+00931101011ADDAA199000091GF102991011021004501001021MA1999999091361MD1999999+0021REMSYN070AAXX  21184 83339 32497 21404 10299 20093 39136 40101 81202 333 58002;EQDQ01  00002PRCP99
0208833390999992001042200004-14040-042610FM-12+088299999V0200901N000512200019N0020001N1+02411+01291101171ADDAA199000091GA1001+999999999GF100991001001999999001001KA1240M+03091MA1999999091481MD1999999-0011REMSYN082AAXX  22004 83339 32995 00901 10241 20129 39148 40117 333 10309 29050 55093 59001;EQDQ01  00002PRCP99
0186833390999992001042212004-14040-042610FM-12+088299999V0201401N003612200019N0100001N1+02291+01831101371ADDAA199000091GF102991021021004501001001KA1240N+01801MA1999999091651MD1999999-0121REMSYN076AAXX  22124 83339 32497 21407 10229 20183 39165 40137 82200 333 20180 59012;EQDQ01  00002PRCP99
0167833390999992001042218004-14040-042610FM-12+088299999V0201401N004612200019N0100001N1+02911+01021100921ADDAA199000091GF102991021021004501001001MA1999999091251MD1999999-0111REMSYN070AAXX  22184 83339 32497 21409 10291 20102 39125 40092 82200 333 59011;EQDQ01  00002PRCP99
0208833390999992001042300004-14040-042610FM-12+088299999V0200901N003112200019N0020001N1+02391+01481101151ADDAA199000091GA1001+999999999GF100991001001999999001001KA1240M+02981MA1999999091451MD1999999-0031REMSYN082AAXX  23004 83339 32995 00906 10239 20148 39145 40115 333 10298 29055 55108 59003;EQDQ01  00002PRCP99
0186833390999992001042312004-14040-042610FM-12+088299999V0200901N006712200019N0100001N1+02261+01711101571ADDAA199000091GF103991031021004501001001KA1240N+01921MA1999999091831MD1999999+0181REMSYN076AAXX  23124 83339 32497 30913 10226 20171 39183 40157 83200 333 20192 58018;EQDQ01  00002PRCP99
0167833390999992001042318004-14040-042610FM-12+088299999V0200901N005712200019N0100001N1+02791+01501101161ADDAA199000091GF103991031021004501001001MA1999999091461MD1999999+0211REMSYN070AAXX  23184 83339 32497 30911 10279 20150 39146 40116 83200 333 58021;EQDQ01  00002PRCP99
0208833390999992001042400004-14040-042610FM-12+088299999V0201401N006212200019N0020001N1+02371+01361101351ADDAA199000091GA1001+999999999GF100991001001999999001001KA1240M+02861MA1999999091631MD1999999+0181REMSYN082AAXX  24004 83339 32995 01412 10237 20136 39163 40135 333 10286 29056 55109 58018;EQDQ01  00002PRCP99
0186833390999992001042412004-14040-042610FM-12+088299999V0200901N005710042019N0100001N1+02051+01661101681ADDAA199000091GF106991061021004501001001KA1240N+01801MA1999999091911MD1999999+0081REMSYN076AAXX  24124 83339 32497 60911 10205 20166 39191 40168 86200 333 20180 58008;EQDQ01  00002PRCP99
0167833390999992001042418004-14040-042610FM-12+088299999V0201401N006712200019N0100001N1+02651+01681101321ADDAA199000091GF104991041021004501001001MA1999999091591MD1999999+0131REMSYN070AAXX  24184 83339 32497 41413 10265 20168 39159 40132 84200 333 58013;EQDQ01  00002PRCP99
0213833390999992001042500004-14040-042610FM-12+088299999V0201401N004110042019N0100001N1+01971+01831101641ADDAA106003091AY161061AY221061GF106991061021004501001001KA1240M+02721MA1999999091831MD1999999+0201MW1021REMSYN100AAXX  25004 83339 21497 61408 10197 20183 39183 40164 70262 86200 333 10272 29079 55084 58020 60031;
0201833390999992001042512004-14040-042610FM-12+088299999V0200901N005112200019N0100001N1+01911+01701101861ADDAA124003091AY161061AY221061GF104991041021004501001001KA1240N+01671MA1999999092021MD1999999+0111MW1021REMSYN088AAXX  25124 83339 21497 40910 10191 20170 39202 40186 70262 84200 333 20167 58011 60034;
0167833390999992001042518004-14040-042610FM-12+088299999V0200501N003112200019N0100001N1+02581+01551101441ADDAA199000091GF106991041021004501001041MA1999999091681MD1999999+0091REMSYN070AAXX  25184 83339 32497 60506 10258 20155 39168 40144 84204 333 58009;EQDQ01  00002PRCP99
0198833390999992001042600004-14040-042610FM-12+088299999V0200901N002112200019N0020001N1+02241+01481101681ADDAA199000091GF103991031021004501001001KA1240M+02641MA1999999091871MD1999999+0041REMSYN088AAXX  26004 83339 32495 30904 10224 20148 39187 40168 83200 333 10264 29066 55056 58004;EQDQ01  00002PRCP99
0186833390999992001042612004-14040-042610FM-12+088299999V0200901N006710042019N0100001N1+02151+01721101701ADDAA199000091GF105991051021004501001001KA1240N+01851MA1999999091931MD1999999-0091REMSYN076AAXX  26124 83339 32497 50913 10215 20172 39193 40170 85200 333 20185 59009;EQDQ01  00002PRCP99
0167833390999992001042618004-14040-042610FM-12+088299999V0200901N007712200019N0100001N1+02531+01631101331ADDAA199000091GF105991031021004501001011MA1999999091591MD1999999-0091REMSYN070AAXX  26184 83339 32497 50915 10253 20163 39159 40133 83201 333 59009;EQDQ01  00002PRCP99
0208833390999992001042700004-14040-042610FM-12+088299999V0201401N005112200019N0020001N1+02151+01321101501ADDAA199000091GA1001+999999999GF100991001001999999001001KA1240M+02681MA1999999091741MD1999999-0131REMSYN082AAXX  27004 83339 32495 01410 10215 20132 39174 40150 333 10268 29063 55080 59013;EQDQ01  00002PRCP99
0186833390999992001042712004-14040-042610FM-12+088299999V0200901N004112200019N0100001N1+02011+01621101721ADDAA199000091GF103991031021004501001001KA1240N+01671MA1999999091931MD1999999+0001REMSYN076AAXX  27124 83339 32497 30908 10201 20162 39193 40172 83200 333 20167 58000;EQDQ01  00002PRCP99
0186833390999992001042812004-14040-042610FM-12+088299999V0200901N008210042019N0100001N1+01931+01621101741ADDAA199000091GF106991061021004501001001KA1240N+01771MA1999999091931MD1999999+0001REMSYN076AAXX  28124 83339 32497 60916 10193 20162 39193 40174 86200 333 20177 58000;EQDQ01  00002PRCP99
0167833390999992001042818004-14040-042610FM-12+088299999V0200901N006712200019N0100001N1+02591+01571101321ADDAA199000091GF102991021021004501001001MA1999999091591MD1999999+0051REMSYN070AAXX  28184 83339 32497 20913 10259 20157 39159 40132 82200 333 58005;EQDQ01  00002PRCP99
0186833390999992001042912004-14040-042610FM-12+088299999V0201401N005712200019N0100001N1+02051+01701101691ADDAA199000091GF103991031021004501001001KA1240N+01751MA1999999091901MD1999999-0031REMSYN076AAXX  29124 83339 32497 31411 10205 20170 39190 40169 83200 333 20175 59003;EQDQ01  00002PRCP99
0167833390999992001042918004-14040-042610FM-12+088299999V0201401N005112200019N0100001N1+02731+01411101261ADDAA199000091GF102991021011004501001001MA1999999091541MD1999999-0051REMSYN070AAXX  29184 83339 32497 21410 10273 20141 39154 40126 82100 333 59005;EQDQ01  00002PRCP99
0198833390999992001043000004-14040-042610FM-12+088299999V0200901N005112200019N0020001N1+02311+01501101471ADDAA199000091GF103991031021004501001001KA1240M+02761MA1999999091721MD1999999-0041REMSYN088AAXX  30004 83339 32495 30910 10231 20150 39172 40147 83200 333 10276 29061 55102 59004;EQDQ01  00002PRCP99
0214833390999992001043012004-14040-042610FM-12+088299999V0200501N005710042019N0100001N1+01931+01681101611ADDAA199000091AY101061AY201061GF106991061021004501001001KA1240N+01801MA1999999091831MD1999999-0071MW1101REMSYN082AAXX  30124 83339 31497 60511 10193 20168 39183 40161 71000 86200 333 20180 59007;EQDQ01  00002PRCP99
0167833390999992001043018004-14040-042610FM-12+088299999V0201401N008210042019N0100001N1+02571+01531101201ADDAA199000091GF105991051021004501001001MA1999999091481MD1999999-0061REMSYN070AAXX  30184 83339 32497 51416 10257 20153 39148 40120 85200 333 59006;EQDQ01  00002PRCP99
0242833390999992001050100004-14040-042610FM-12+088299999V0200901N002110042019N0020001N1+02011+01921101461ADDAA199000091AY101061AY201061GF108991081051004501999999KA1240M+99999MA1999999091651MD1999999-0071MW1101REMSYN094AAXX  01004 83339 31495 80904 10201 20192 39165 40146 71000 885// 333 10192 29081 55069 59007;EQDQ01  00002PRCP99Q02 +01922ATMX  
0201833390999992001050112004-14040-042610FM-12+088299999V0200501N004610042019N0040001N1+01851+01811101601ADDAA124002091AY161061AY261061GF108991081051004501999999KA1240N+01781MA1999999091781MD1999999-0051MW1501REMSYN088AAXX  01124 83339 21496 80509 10185 20181 39178 40160 75066 885// 333 20178 59005 60024;
0182833390999992001050118004-14040-042610FM-12+088299999V0200901N005110042019N0100001N1+02471+01631101241ADDAA106000591AY161061AY261061GF105991051021004501001001MA1999999091501MD1999999+0021MW1021REMSYN082AAXX  01184 83339 21497 50910 10247 20163 39150 40124 70266 85200 333 58002 69961;
0201833390999992001050212004-14040-042610FM-12+088299999V0200901N004610042019N0040001N1+01911+01821101751ADDAA124000591AY161061AY261061GF108991081051004501999999KA1240N+01761MA1999999091941MD1999999+0161MW1101REMSYN088AAXX  02124 83339 21496 80909 10191 20182 39194 40175 71066 885// 333 20176 58016 69964;
0167833390999992001050218004-14040-042610FM-12+088299999V0200901N005110042019N0100001N1+02591+01691101341ADDAA199000091GF106991051021004501021001MA1999999091601MD1999999+0101REMSYN070AAXX  02184 83339 32497 60910 10259 20169 39160 40134 85220 333 58010;EQDQ01  00002PRCP99
0198833390999992001050300004-14040-042610FM-12+088299999V0200901N004112200019N0020001N1+02231+01761101611ADDAA199000091GF104991031021004501031001KA1240M+02681MA1999999091801MD1999999+0091REMSYN088AAXX  03004 83339 32495 40908 10223 20176 39180 40161 83230 333 10268 29074 55043 58009;EQDQ01  00002PRCP99
0201833390999992001050312004-14040-042610FM-12+088299999V0200901N006210042019N0040001N1+01891+01861101751ADDAA124002091AY161061AY261061GF108991081051004501999999KA1240N+01831MA1999999091941MD1999999+0001MW1501REMSYN088AAXX  03124 83339 21496 80912 10189 20186 39194 40175 75066 885// 333 20183 58000 60024;
0189833390999992001050400004-14040-042610FM-12+088299999V0200901N002112200019N0020001N1+02291+01411101431ADDAA199000021GA1001+999999999GF100991001001999999001001KA1240M+02721MA1999999091661MD1999999-0141REMSYN082AAXX  04004 83339 32995 00904 10229 20141 39166 40143 333 10272 29064 55078 59014;
0201833390999992001050412004-14040-042610FM-12+088299999V0201401N004610042019N0040001N1+01931+01891101531ADDAA124006191AY161061AY261061GF108991081051004501999999KA1240N+01801MA1999999091751MD1999999-0191MW1101REMSYN088AAXX  04124 83339 21496 81409 10193 20189 39175 40153 71066 885// 333 20180 59019 60064;
0167833390999992001050418004-14040-042610FM-12+088299999V0200501N002612200019N0100001N1+02651+01541101091ADDAA199000091GF102991021021004501001001MA1999999091391MD1999999-0141REMSYN070AAXX  04184 83339 32497 20505 10265 20154 39139 40109 82200 333 59014;EQDQ01  00002PRCP99
0208833390999992001050500004-14040-042610FM-12+088299999V0201401N001012200019N0020001N1+02091+01661101271ADDAA199000091GA1001+999999999GF100991001001999999001001KA1240M+02701MA1999999091501MD1999999-0161REMSYN082AAXX  05004 83339 32995 01402 10209 20166 39150 40127 333 10270 29073 55059 59016;EQDQ01  00002PRCP99
0196833390999992001050512004-14040-042610FM-12+088299999V0200501N001512200019N0100001N1+02131+01731101281ADDAA199000091GA1001+999999999GF100991001001999999001001KA1240N+01581MA1999999091551MD1999999-0221REMSYN070AAXX  05124 83339 32997 00503 10213 20173 39155 40128 333 20158 59022;EQDQ01  00002PRCP99
0167833390999992001050518004-14040-042610FM-12+088299999V0201401N002112200019N0100001N1+02931+00831100851ADDAA199000091GF102991021021004501001001MA1999999091181MD1999999-0211REMSYN070AAXX  05184 83339 32497 21404 10293 20083 39118 40085 82200 333 59021;EQDQ01  00002PRCP99
0208833390999992001050600004-14040-042610FM-12+088299999V0201801N001012200019N0020001N1+02351+01081100991ADDAA199000091GA1001+999999999GF100991001001999999001001KA1240M+03021MA1999999091291MD1999999-0211REMSYN082AAXX  06004 83339 32995 01802 10235 20108 39129 40099 333 10302 29047 55105 59021;EQDQ01  00002PRCP99
0196833390999992001050612004-14040-042610FM-12+088299999V0200501N001512200019N0100001N1+02511+01641101161ADDAA199000091GA1001+999999999GF100991001001999999001001KA1240N+01921MA1999999091481MD1999999-0051REMSYN070AAXX  06124 83339 32997 00503 10251 20164 39148 40116 333 20192 59005;EQDQ01  00002PRCP99
0167833390999992001050618004-14040-042610FM-12+088299999V0202701N005112200019N0100001N1+03031+01351100851ADDAA199000091GF103991031021004501001001MA1999999091241MD1999999+0061REMSYN070AAXX  06184 83339 32497 32710 10303 20135 39124 40085 83200 333 58006;EQDQ01  00002PRCP99
0186833390999992001050712004-14040-042610FM-12+088299999V0200501N003112200019N0100001N1+02471+01901101261ADDAA199000091GF102991021011004501001001KA1240N+01941MA1999999091601MD1999999+0121REMSYN076AAXX  07124 83339 32497 20506 10247 20190 39160 40126 82100 333 20194 58012;EQDQ01  00002PRCP99
0182833390999992001050718004-14040-042610FM-12+088299999V0201801N002110042019N0100001N1+02971+01661100801ADDAA106000191AY161061AY221061GF105991051021004501001001MA1999999091181MD1999999+0061MW1021REMSYN082AAXX  07184 83339 21497 51804 10297 20166 39118 40080 70262 85200 333 58006 69921;
0198833390999992001050800004-14040-042610FM-12+088299999V0201801N003012200019N0020001N1+02561+01471101041ADDAA199000091GF102991011021004501001011KA1240M+03151MA1999999091391MD1999999+0021REMSYN088AAXX  08000 83339 32495 21803 10256 20147 39139 40104 81201 333 10315 29054 55065 58002;EQDQ01  00002PRCP99
0201833390999992001050812004-14040-042610FM-12+088299999V0200501N003110450019N0100001N1+02151+01951101281ADDAA124000191AY161061AY221061GF108991041021004501021999KA1240N+01931MA1999999091571MD1999999-0031MW1021REMSYN088AAXX  08124 83339 21497 80506 10215 20195 39157 40128 70262 8422/ 333 20193 59003 69924;
0167833390999992001050818004-14040-042610FM-12+088299999V0203601N001012200019N0100001N1+02951+01681100831ADDAA199000091GF104991031021004501001041MA1999999091191MD1999999+0011REMSYN070AAXX  08184 83339 32497 43602 10295 20168 39119 40083 83204 333 58001;EQDQ01  00002PRCP99
0198833390999992001050900004-14040-042610FM-12+088299999V0201801N001012200019N0020001N1+02431+01521101081ADDAA199000091GF102991011011004501001041KA1240M+03021MA1999999091381MD1999999-0011REMSYN088AAXX  09004 83339 32495 21802 10243 20152 39138 40108 81104 333 10302 29064 55057 59001;EQDQ01  00002PRCP99
0186833390999992001050912004-14040-042610FM-12+088299999V0201401N003110042019N0100001N1+02111+01931101241ADDAA199000091GF108991051061004501021999KA1240N+01871MA1999999091521MD1999999-0051REMSYN076AAXX  09124 83339 32497 81406 10211 20193 39152 40124 8562/ 333 20187 59005;EQDQ01  00002PRCP99
0167833390999992001050918004-14040-042610FM-12+088299999V0200501N002111050019N0100001N1+02901+01781100761ADDAA199000091GF106991041021004501001021MA1999999091131MD1999999-0061REMSYN070AAXX  09184 83339 32497 60504 10290 20178 39113 40076 84202 333 59006;EQDQ01  00002PRCP99
0198833390999992001051000004-14040-042610FM-12+088299999V0201401N001512200019N0020001N1+02401+01681101011ADDAA199000091GF103991021021004501001041KA1240M+02961MA1999999091311MD1999999-0071REMSYN088AAXX  10004 83339 32495 31403 10240 20168 39131 40101 82204 333 10296 29067 55019 59007;EQDQ01  00002PRCP99
0186833390999992001051012004-14040-042610FM-12+088299999V0200901N002110042019N0100001N1+02101+01931101221ADDAA199000091GF106991061021004501001001KA1240N+01861MA1999999091501MD1999999-0021REMSYN076AAXX  10124 83339 32497 60904 10210 20193 39150 40122 86200 333 20186 59002;EQDQ01  00002PRCP99
0167833390999992001051018004-14040-042610FM-12+088299999V0200501N001512200019N0100001N1+03041+01531100781ADDAA199000091GF104991031021004501001091MA1999999091161MD1999999+0031REMSYN070AAXX  10184 83339 32497 40503 10304 20153 39116 40078 83209 333 58003;EQDQ01  00002PRCP99
0186833390999992001051112004-14040-042610FM-12+088299999V0209999C000010450019N0100001N1+02331+01831101371ADDAA199000091GF106991031021004501031091KA1240N+02031MA1999999091601MD1999999+0101REMSYN076AAXX  11124 83339 32497 60000 10233 20183 39160 40137 83239 333 20203 58010;EQDQ01  00002PRCP99
0195833390999992001051118004-14040-042610FM-12+088299999V0203201N002110042019N0100001N1+02911+01831100911ADDAA199000091AY101061AY201061GF105991051021004501001001MA1999999091281MD1999999+0121MW1171REMSYN076AAXX  11184 83339 31497 53204 10291 20183 39128 40091 71700 85200 333 58012;EQDQ01  00002PRCP99
0226833390999992001051200004-14040-042610FM-12+088299999V0202701N001012200019N0020001N1+02171+01491101251ADDAA199000091AY191061AY221061GF102991021021004501001001KA1240M+02981MA1999999091531MD1999999+0131MW1021REMSYN094AAXX  12004 83339 31495 22702 10217 20149 39153 40125 70292 82200 333 10298 29064 55038 58013;EQDQ01  00002PRCP99
0196833390999992001051212004-14040-042610FM-12+088299999V0200501N001012200019N0100001N1+02561+01881101461ADDAA199000091GA1001+999999999GF100991001001999999001001KA1240N+02001MA1999999091741MD1999999+0141REMSYN070AAXX  12124 83339 32997 00502 10256 20188 39174 40146 333 20200 58014;EQDQ01  00002PRCP99
0195833390999992001051218004-14040-042610FM-12+088299999V0202301N001510042019N0100001N1+02811+01771101031ADDAA199000091AY121061AY221061GF106991061021004501001001MA1999999091361MD1999999+0081MW1171REMSYN076AAXX  12184 83339 31497 62303 10281 20177 39136 40103 71722 86200 333 58008;EQDQ01  00002PRCP99
0236833390999992001051300004-14040-042610FM-12+088299999V0209999C000012200019N0020001N1+02291+01771101361ADDAA199000091AY191061AY221061GA1001+999999999GF100991001001999999001001KA1240M+03181MA1999999091651MD1999999+0021MW1021REMSYN088AAXX  13004 83339 31995 00000 10229 20177 39165 40136 70292 333 10318 29066 55065 58002;EQDQ01  00002PRCP99
0186833390999992001051312004-14040-042610FM-12+088299999V0200501N001512200019N0100001N1+02531+01831101531ADDAA199000091GF102991021021004501001001KA1240N+01981MA1999999091811MD1999999+0071REMSYN076AAXX  13124 83339 32497 20503 10253 20183 39181 40153 82200 333 20198 58007;EQDQ01  00002PRCP99
0214833390999992001051412004-14040-042610FM-12+088299999V0200901N004110042019N0040001N1+02151+01911101491ADDAA199000091AY101061AY201061GF108991081051004501999999KA1240N+02001MA1999999091771MD1999999-0041MW1101REMSYN082AAXX  14124 83339 31496 80908 10215 20191 39177 40149 71000 885// 333 20200 59004;EQDQ01  00002PRCP99
0167833390999992001051418004-14040-042610FM-12+088299999V0200901N001010042019N0100001N1+02731+01591101091ADDAA199000091GF106991051021004501031001MA1999999091421MD1999999+0021REMSYN070AAXX  14184 83339 32497 60902 10273 20159 39142 40109 85230 333 58002;EQDQ01  00002PRCP99
0198833390999992001051500004-14040-042610FM-12+088299999V0201401N003110042019N0020001N1+02351+01851101311ADDAA199000091GF106991051021004501021001KA1240M+02821MA1999999091581MD1999999-0021REMSYN088AAXX  15004 83339 32495 61406 10235 20185 39158 40131 85220 333 10282 29071 55010 59002;EQDQ01  00002PRCP99
0214833390999992001051512004-14040-042610FM-12+088299999V0200901N007710042019N0040001N1+02011+01881101471ADDAA199000091AY101061AY201061GF108991081051004501999999KA1240N+01961MA1999999091721MD1999999-0051MW1101REMSYN082AAXX  15124 83339 31496 80915 10201 20188 39172 40147 71000 885// 333 20196 59005;EQDQ01  00002PRCP99
0198833390999992001051600004-14050-042620FM-12+088299999V0201401N008212200019N0020001N1+02131+01681101371ADDAA199000091GF102991021021004501001001KA1240M+02681MA1999999091601MD1999999+0021REMSYN088AAXX  16004 83339 32495 21416 10213 20168 39160 40137 82200 333 10268 29073 55055 58002;EQDQ01  00002PRCP99
0214833390999992001051612004-14050-042620FM-12+088299999V0201401N004610042019N0100001N1+01991+01681101601ADDAA199000091AY101061AY201061GF106991061021004501001001KA1240N+01801MA1999999091801MD1999999+0081MW1101REMSYN082AAXX  16124 83339 31497 61409 10199 20168 39180 40160 71000 86200 333 20180 58008;EQDQ01  00002PRCP99
0208833390999992001051700004-14040-042610FM-12+088299999V0200901N005112200019N0020001N1+02111+01641101371ADDAA199000091GA1001+999999999GF100991001001999999001001KA1240M+02451MA1999999091601MD1999999+0001REMSYN082AAXX  17004 83339 32995 00910 10211 20164 39160 40137 333 10245 29072 55039 58000;EQDQ01  00002PRCP99
0214833390999992001051712004-14040-042610FM-12+088299999V0200501N002110042019N0100001N1+02051+01821101611ADDAA199000091AY101061AY201061GF106991051021004501021001KA1240N+01721MA1999999091831MD1999999+0031MW1101REMSYN082AAXX  17124 83339 31497 60504 10205 20182 39183 40161 71000 85220 333 20172 58003;EQDQ01  00002PRCP99
0167833390999992001051718004-14040-042610FM-12+088299999V0202301N003112200019N0100001N1+02971+01291101221ADDAA199000091GF103991031021004501001001MA1999999091531MD1999999+0041REMSYN070AAXX  17184 83339 32497 32306 10297 20129 39153 40122 83200 333 58004;EQDQ01  00002PRCP99
0208833390999992001051800004-14040-042610FM-12+088299999V0201801N001512200019N0020001N1+02231+01651101451ADDAA199000091GA1001+999999999GF100991001001999999001001KA1240M+03041MA1999999091691MD1999999+0091REMSYN082AAXX  18004 83339 32995 01803 10223 20165 39169 40145 333 10304 29066 55084 58009;EQDQ01  00002PRCP99
0186833390999992001051812004-14040-042610FM-12+088299999V0203601N001510450019N0100001N1+02491+01851101531ADDAA199000091GF105991041021004501031001KA1240N+01901MA1999999091801MD1999999-0031REMSYN076AAXX  18124 83339 32497 53603 10249 20185 39180 40153 84230 333 20190 59003;EQDQ01  00002PRCP99
0167833390999992001051818004-14040-042610FM-12+088299999V0202301N003112200019N0100001N1+03071+01251101081ADDAA199000091GF102991021021004501001001MA1999999091441MD1999999-0091REMSYN070AAXX  18184 83339 32497 22306 10307 20125 39144 40108 82200 333 59009;EQDQ01  00002PRCP99
0208833390999992001051900004-14040-042610FM-12+088299999V0201801N003612200019N0020001N1+02471+01321101341ADDAA199000091GA1001+999999999GF100991001001999999001001KA1240M+03191MA1999999091651MD1999999-0041REMSYN082AAXX  19004 83339 32995 01807 10247 20132 39165 40134 333 10319 29050 55090 59004;EQDQ01  00002PRCP99
0186833390999992001051912004-14040-042610FM-12+088299999V0200501N001012200019N0100001N1+02551+01481101471ADDAA199000091GF102991011021004501021001KA1240N+01921MA1999999091771MD1999999-0031REMSYN076AAXX  19124 83339 32497 20502 10255 20148 39177 40147 81220 333 20192 59003;EQDQ01  00002PRCP99
0167833390999992001051918004-14040-042610FM-12+088299999V0201801N001512200019N0100001N1+03031+00971101001ADDAA199000091GF102991021021004501001001MA1999999091361MD1999999-0081REMSYN070AAXX  19184 83339 32497 21803 10303 20097 39136 40100 82200 333 59008;EQDQ01  00002PRCP99
0208833390999992001052000004-14040-042610FM-12+088299999V0201801N003612200019N0020001N1+02331+00691101281ADDAA199000091GA1001+999999999GF100991001001999999001001KA1240M+03061MA1999999091591MD1999999-0061REMSYN082AAXX  20004 83339 32995 01807 10233 20069 39159 40128 333 10306 29038 55103 59006;EQDQ01  00002PRCP99
0186833390999992001052012004-14040-042610FM-12+088299999V0201401N005112200019N0100001N1+01871+01431101561ADDAA199000091GF102991021021004501001001KA1240N+01661MA1999999091781MD1999999+0011REMSYN076AAXX  20124 83339 32497 21410 10187 20143 39178 40156 82200 333 20166 58001;EQDQ01  00002PRCP99
0177833390999992001052018004-14040-042610FM-12+088299999V0200901N005112200019N0100001N1+02531+00911101201ADDAA199000091GA1001+999999999GF100991001001999999001001MA1999999091491MD1999999+0131REMSYN064AAXX  20184 83339 32997 00910 10253 20091 39149 40120 333 58013;EQDQ01  00002PRCP99
0208833390999992001052100004-14040-042610FM-12+088299999V0200901N003612200019N0020001N1+02151+00901101461ADDAA199000091GA1001+999999999GF100991001001999999001001KA1240M+02621MA1999999091661MD1999999+0071REMSYN082AAXX  21004 83339 32995 00907 10215 20090 39166 40146 333 10262 29051 55099 58007;EQDQ01  00002PRCP99
0186833390999992001052112004-14040-042610FM-12+088299999V0200901N008710042019N0100001N1+01871+01431101721ADDAA199000091GF106991061021004501001001KA1240N+01561MA1999999091901MD1999999+0121REMSYN076AAXX  21124 83339 32497 60917 10187 20143 39190 40172 86200 333 20156 58012;EQDQ01  00002PRCP99
0167833390999992001052118004-14040-042610FM-12+088299999V0200501N003112200019N0100001N1+02501+01011101231ADDAA199000091GF102991021011004501001001MA1999999091481MD1999999-0011REMSYN070AAXX  21184 83339 32497 20506 10250 20101 39148 40123 82100 333 59001;EQDQ01  00002PRCP99
0208833390999992001052200004-14040-042610FM-12+088299999V0201401N002612200019N0020001N1+02051+01041101461ADDAA199000091GA1001+999999999GF100991001001999999001001KA1240M+02561MA1999999091651MD1999999-0011REMSYN082AAXX  22004 83339 32995 01405 10205 20104 39165 40146 333 10256 29054 55105 59001;EQDQ01  00002PRCP99
0186833390999992001052212004-14040-042610FM-12+088299999V0200901N004610042019N0100001N1+01801+01431101771ADDAA199000091GF106991061021004501001001KA1240N+01631MA1999999091931MD1999999+0031REMSYN076AAXX  22124 83339 32497 60909 10180 20143 39193 40177 86200 333 20163 58003;EQDQ01  00002PRCP99
0167833390999992001052218004-14040-042610FM-12+088299999V0200901N001012200019N0100001N1+02631+01171101161ADDAA199000091GF104991011011004501001011MA1999999091431MD1999999-0051REMSYN070AAXX  22184 83339 32497 40902 10263 20117 39143 40116 81101 333 59005;EQDQ01  00002PRCP99
0208833390999992001052300004-14040-042610FM-12+088299999V0209999C000012200019N0020001N1+02011+01061101431ADDAA199000091GA1001+999999999GF100991001001999999001001KA1240M+02691MA1999999091621MD1999999-0031REMSYN082AAXX  23004 83339 32995 00000 10201 20106 39162 40143 333 10269 29057 55081 59003;EQDQ01  00002PRCP99
0186833390999992001052312004-14040-042610FM-12+088299999V0201401N003112200019N0100001N1+01971+01521101621ADDAA199000091GF101991011011004501001001KA1240N+01481MA1999999091811MD1999999-0121REMSYN076AAXX  23124 83339 32497 11406 10197 20152 39181 40162 81100 333 20148 59012;EQDQ01  00002PRCP99
0167833390999992001052318004-14040-042610FM-12+088299999V0201401N003112200019N0100001N1+02731+01101101121ADDAA199000091GF102991021011004501001001MA1999999091411MD1999999-0021REMSYN070AAXX  23184 83339 32497 21406 10273 20110 39141 40112 82100 333 59002;EQDQ01  00002PRCP99
0186833390999992001052412004-14040-042610FM-12+088299999V0200901N004112200019N0100001N1+01961+01501101721ADDAA199000091GF102991021011004501001001KA1240N+01641MA1999999091901MD1999999+0091REMSYN076AAXX  24124 83339 32497 20908 10196 20150 39190 40172 82100 333 20164 58009;EQDQ01  00002PRCP99
0183833390999992001052418004-14040-042610FM-12+088299999V0200901N002612200019N0100001N1+02631+01171101231ADDAA199000091GF102991001001999999001011MA1999999091511MD1999999+0101REMSYN070AAXX  24184 83339 32897 20905 10263 20117 39151 40123 80001 333 58010;EQDQ01+022502SCOLCBQ02  00002PRCP99
0208833390999992001052500004-14040-042610FM-12+088299999V0209999C000012200019N0020001N1+02161+01071101481ADDAA199000091GA1001+999999999GF100991001001999999001001KA1240M+02681MA1999999091701MD1999999+0071REMSYN082AAXX  25004 83339 32995 00000 10216 20107 39170 40148 333 10268 29054 55106 58007;EQDQ01  00002PRCP99
0186833390999992001052512004-14040-042610FM-12+088299999V0201401N005110042019N0100001N1+01951+01631101751ADDAA199000091GF106991061021004501001001KA1240N+01721MA1999999091941MD1999999+0041REMSYN076AAXX  25124 83339 32497 61410 10195 20163 39194 40175 86200 333 20172 58004;EQDQ01  00002PRCP99
0167833390999992001052518004-14040-042610FM-12+088299999V0201401N003112200019N0100001N1+02661+01371101261ADDAA199000091GF102991021011004501001001MA1999999091541MD1999999+0031REMSYN070AAXX  25184 83339 32497 21406 10266 20137 39154 40126 82100 333 58003;EQDQ01  00002PRCP99
0208833390999992001052600004-14040-042610FM-12+088299999V0201401N001012200019N0020001N1+02231+01291101481ADDAA199000091GA1001+999999999GF100991001001999999001001KA1240M+02721MA1999999091711MD1999999+0011REMSYN082AAXX  26004 83339 32995 01402 10223 20129 39171 40148 333 10272 29059 55102 58001;EQDQ01  00002PRCP99
0186833390999992001052612004-14040-042610FM-12+088299999V0200901N003610450019N0100001N1+01931+01741101541ADDAA199000091GF108991041021004501021999KA1240N+01811MA1999999091761MD1999999-0181REMSYN076AAXX  26124 83339 32497 80907 10193 20174 39176 40154 8422/ 333 20181 59018;EQDQ01  00002PRCP99
0167833390999992001052618004-14040-042610FM-12+088299999V0201401N002610042019N0100001N1+02451+01581101131ADDAA199000091GF106991061021004501001001MA1999999091401MD1999999-0141REMSYN070AAXX  26184 83339 32497 61405 10245 20158 39140 40113 86200 333 59014;EQDQ01  00002PRCP99
0208833390999992001052700004-14040-042610FM-12+088299999V0201401N004612200019N0020001N1+02171+01701101301ADDAA199000091GA1001+999999999GF100991001001999999001001KA1240M+02541MA1999999091541MD1999999-0171REMSYN082AAXX  27004 83339 32995 01409 10217 20170 39154 40130 333 10254 29074 55043 59017;EQDQ01  00002PRCP99
0186833390999992001052712004-14040-042610FM-12+088299999V0200901N003110042019N0100001N1+01991+01761101571ADDAA199000091GF108991051021004501021999KA1240N+01871MA1999999091791MD1999999+0031REMSYN076AAXX  27124 83339 32497 80906 10199 20176 39179 40157 8522/ 333 20187 58003;EQDQ01  00002PRCP99
0167833390999992001052718004-14040-042610FM-12+088299999V0201401N002112200019N0100001N1+02741+01611101091ADDAA199000091GF106991031021004501001041MA1999999091401MD1999999+0001REMSYN070AAXX  27184 83339 32497 61404 10274 20161 39140 40109 83204 333 58000;EQDQ01  00002PRCP99
0184833390999992001052800004-14040-042610FM-12+088299999V0201401N001512200019N0020001N1+02211+01531101401ADDAA199000091GF102991011021004501031001KA1240M+02871MA1999999091641REMSYN088AAXX  28004 83339 32495 21403 10221 20153 39164 40140 81230 333 10287 29066 55043 5801/;EQDQ01  00002PRCP99
0214833390999992001052812004-14040-042610FM-12+088299999V0201401N003110042019N0040001N1+01921+01791101621ADDAA199000091AY101061AY201061GF108991081051004501999999KA1240N+01721MA1999999091821MD1999999+0031MW1101REMSYN082AAXX  28124 83339 31496 81406 10192 20179 39182 40162 71000 885// 333 20172 58003;EQDQ01  00002PRCP99
0167833390999992001052818004-14040-042610FM-12+088299999V0201401N004112200019N0100001N1+02771+01351101171ADDAA199000091GF103991031021004501001001MA1999999091471MD1999999+0071REMSYN070AAXX  28184 83339 32497 31408 10277 20135 39147 40117 83200 333 58007;EQDQ01  00002PRCP99
0198833390999992001052900004-14040-042610FM-12+088299999V0200901N001012200019N0020001N1+02331+01501101461ADDAA199000091GF104991041021004501001001KA1240M+02851MA1999999091691MD1999999+0051REMSYN088AAXX  29004 83339 32495 40902 10233 20150 39169 40146 84200 333 10285 29063 55065 58005;EQDQ01  00002PRCP99
0214833390999992001052912004-14040-042610FM-12+088299999V0200901N002610042019N0040001N1+02071+01821101621ADDAA199000091AY101061AY201061GF106991061021004501001001KA1240N+01881MA1999999091851MD1999999+0031MW1101REMSYN082AAXX  29124 83339 31496 60905 10207 20182 39185 40162 71000 86200 333 20188 58003;EQDQ01  00002PRCP99
0167833390999992001052918004-14040-042610FM-12+088299999V0200901N004612200019N0100001N1+02891+01461101221ADDAA199000091GF105991041021004501001041MA1999999091541MD1999999+0071REMSYN070AAXX  29184 83339 32497 50909 10289 20146 39154 40122 84204 333 58007;EQDQ01  00002PRCP99
0198833390999992001053000004-14040-042610FM-12+088299999V0201401N003612200019N0020001N1+02451+01531101541ADDAA199000091GF103991031021004501001001KA1240M+02951MA1999999091791MD1999999+0101REMSYN088AAXX  30004 83339 32495 31407 10245 20153 39179 40154 83200 333 10295 29060 55055 58010;EQDQ01  00002PRCP99
0167833390999992001053018004-14040-042610FM-12+088299999V0200901N004612200019N0100001N1+02751+01511101231ADDAA199000091GF104991041021004501001001MA1999999091531MD1999999-0011REMSYN070AAXX  30184 83339 32497 40909 10275 20151 39153 40123 84200 333 59001;EQDQ01  00002PRCP99
0208833390999992001053100004-14040-042610FM-12+088299999V0200901N005712200019N0020001N1+02251+01621101491ADDAA199000091GA1001+999999999GF100991001001999999001001KA1240M+02851MA1999999091731MD1999999-0061REMSYN082AAXX  31004 83339 32995 00911 10225 20162 39173 40149 333 10285 29068 55056 59006;EQDQ01  00002PRCP99
0214833390999992001053112004-14040-042610FM-12+088299999V0200901N005110042019N0100001N1+02031+01681101611ADDAA199000091AY101061AY201061GF106991061021004501001001KA1240N+01901MA1999999091841MD1999999-0061MW1101REMSYN082AAXX  31124 83339 31497 60910 10203 20168 39184 40161 71000 86200 333 20190 59006;EQDQ01  00002PRCP99
0167833390999992001053118004-14040-042610FM-12+088299999V0200501N004112200019N0100001N1+02491+01491101311ADDAA199000091GF102991021021004501001001MA1999999091581MD1999999+0051REMSYN070AAXX  31184 83339 32497 20508 10249 20149 39158 40131 82200 333 58005;EQDQ01  00002PRCP99
0208833390999992001060100004-14040-042610FM-12+088299999V0200901N003612200019N0020001N1+02171+01431101451ADDAA199000091GA1001+999999999GF100991001001999999001001KA1240M+02621MA1999999091681MD1999999-0051REMSYN082AAXX  01004 83339 32995 00907 10217 20143 39168 40145 333 10262 29064 55079 59005;EQDQ01  00002PRCP99
0214833390999992001060112004-14040-042610FM-12+088299999V0201401N004610042019N0040001N1+01891+01641101661ADDAA199000091AY101061AY201061GF108991081051004501999999KA1240N+01801MA1999999091851MD1999999+0011MW1101REMSYN082AAXX  01124 83339 31496 81409 10189 20164 39185 40166 71000 885// 333 20180 58001;EQDQ01  00002PRCP99
0167833390999992001060118004-14040-042610FM-12+088299999V0201401N003112200019N0100001N1+02431+01341101331ADDAA199000091GF104991041021004501001001MA1999999091581MD1999999+0001REMSYN070AAXX  01184 83339 32497 41406 10243 20134 39158 40133 84200 333 58000;EQDQ01  00002PRCP99
0198833390999992001060200004-14040-042610FM-12+088299999V0201401N005110042019N0020001N1+02151+01481101561ADDAA199000091GF105991051021004501001001KA1240M+02551MA1999999091751MD1999999+0071REMSYN088AAXX  02004 83339 32495 51410 10215 20148 39175 40156 85200 333 10255 29068 55040 58007;EQDQ01  00002PRCP99
0195833390999992001060212004-14040-042610FM-12+088299999V0200901N006710042019N0040001N1+01811+01701101671ADDAA199000021AY101061AY201061GF108991081051004501999999KA1240N+01721MA1999999091851MD1999999+0001MW1501REMSYN082AAXX  02124 83339 31496 80913 10181 20170 39185 40167 75000 885// 333 20172 58000;
0148833390999992001060218004-14040-042610FM-12+088299999V02099999999990042019N0100001N1+02351+01571101481ADDAA199000021GF106991061021004501001001MA1999999091701MD1999999+0121REMSYN070AAXX  02184 83339 32497 609// 10235 20157 39170 40148 86200 333 58012;
0207833390999992001060300004-14040-042610FM-12+088299999V0200901N004610042019N0020001N1+01991+01721101651ADDAA199000021AY101061AY201061GF106991061021004501001001KA1240M+02461MA1999999091821MD1999999+0071MW1101REMSYN094AAXX  03004 83339 31495 60909 10199 20172 39182 40165 71000 86200 333 10246 29081 55027 58007;
0201833390999992001060312004-14040-042610FM-12+088299999V0200901N006710042019N0040001N1+01911+01671101821ADDAA124001091AY161061AY261061GF108991081051004501999999KA1240N+01731MA1999999091971MD1999999+0121MW1101REMSYN088AAXX  03124 83339 21496 80913 10191 20167 39197 40182 71066 885// 333 20173 58012 60014;
0167833390999992001060318004-14040-042610FM-12+088299999V0200901N005712200019N0100001N1+02431+01511101451ADDAA199000091GF103991031021004501001001MA1999999091681MD1999999-0021REMSYN070AAXX  03184 83339 32497 30911 10243 20151 39168 40145 83200 333 59002;EQDQ01  00002PRCP99
0198833390999992001060400004-14040-042610FM-12+088299999V0201401N001512200019N0020001N1+02111+01531101651ADDAA199000091GF104991041021004501001001KA1240M+02541MA1999999091841MD1999999+0021REMSYN088AAXX  04004 83339 32495 41403 10211 20153 39184 40165 84200 333 10254 29071 55039 58002;EQDQ01  00002PRCP99
0186833390999992001060412004-14040-042610FM-12+088299999V0201401N005710042019N0100001N1+01991+01561101891ADDAA199000091GF106991061021004501001001KA1240N+01771MA1999999092081MD1999999+0111REMSYN076AAXX  04124 83339 32497 61411 10199 20156 39208 40189 86200 333 20177 58011;EQDQ01  00002PRCP99
0137833390999992001060418004-14040-042610FM-12+088299999V0200901N005112200019N0100001N1+02541+01391101481ADDAA199000091GF102991999999004501999999MA1999999091721REMSYN054AAXX  04184 83339 32497 20910 10254 20139 39172 40148;EQDQ01  00002PRCP99
0198833390999992001060500004-14040-042610FM-12+088299999V0200901N010312200019N0020001N1+02081+01561101681ADDAA199000091GF102991021021004501001001KA1240M+02601MA1999999091871MD1999999+0031REMSYN088AAXX  05004 83339 32495 20920 10208 20156 39187 40168 82200 333 10260 29067 55085 58003;EQDQ01  00002PRCP99
0186833390999992001060512004-14040-042610FM-12+088299999V0200901N005110042019N0100001N1+01741+01561101881ADDAA199000091GF108991051021004501021999KA1240N+01601MA1999999092031MD1999999-0051REMSYN076AAXX  05124 83339 32497 80910 10174 20156 39203 40188 8522/ 333 20160 59005;EQDQ01  00002PRCP99
0167833390999992001060518004-14040-042610FM-12+088299999V0200501N004610042019N0100001N1+02301+01721101501ADDAA199000091GF106991061021004501001001MA1999999091701MD1999999-0021REMSYN070AAXX  05184 83339 32497 60509 10230 20172 39170 40150 86200 333 59002;EQDQ01  00002PRCP99
0198833390999992001060600004-14040-042610FM-12+088299999V0200501N005110042019N0020001N1+01971+01791101741ADDAA199000091GF108991051021004501021999KA1240M+02371MA1999999091891MD1999999+0021REMSYN088AAXX  06004 83339 32495 80510 10197 20179 39189 40174 8522/ 333 10237 29084 55002 58002;EQDQ01  00002PRCP99
0201833390999992001060612004-14040-042610FM-12+088299999V0200901N005110042019N0020001N1+01651+01551101901ADDAA124001091AY161061AY241061GF108991061021004501021999KA1240N+01561MA1999999092031MD1999999+0001MW1401REMSYN088AAXX  06124 83339 21495 80910 10165 20155 39203 40190 74064 8622/ 333 20156 58000 60014;
0205833390999992001060618004-14040-042610FM-12+088299999V0200501N003112200019N0100001N1+02451+01251101431ADDAA199000091AY141061AY221061GA1001+999999999GF100991001001999999001001MA1999999091661MD1999999-0041MW1021REMSYN070AAXX  06184 83339 31497 00506 10245 20125 39166 40143 70242 333 59004;EQDQ01  00002PRCP99
0176833390999992001060700004-14040-042610FM-12+088299999V0201401N001512200019N0020001N1+01971+01211101711ADDAA199000091GA1001+999999999GF100991001001999999001001KA1999M+02491MA1999999091851REMSYN064AAXX  07004 83339 32995 01403 10197 20121 39185 40171 333 10249;EQDQ01  00002PRCP99
0196833390999992001060712004-14040-042610FM-12+088299999V0200901N003112200019N0100001N1+01961+01481101831ADDAA199000091GA1001+999999999GF100991001001999999001001KA1240N+01461MA1999999091991MD1999999-0041REMSYN070AAXX  07124 83339 32997 00906 10196 20148 39199 40183 333 20146 59004;EQDQ01  00002PRCP99
0167833390999992001060718004-14040-042610FM-12+088299999V0200901N002612200019N0100001N1+02651+01331101341ADDAA199000091GF102991021011004501001001MA1999999091591MD1999999-0071REMSYN070AAXX  07184 83339 32497 20905 10265 20133 39159 40134 82100 333 59007;EQDQ01  00002PRCP99
0198833390999992001060800004-14040-042610FM-12+088299999V0200901N005112200019N0020001N1+02231+01151101551ADDAA199000091GF102991021021004501001001KA1240M+02671MA1999999091771MD1999999-0081REMSYN088AAXX  08004 83339 32495 20910 10223 20115 39177 40155 82200 333 10267 29054 55104 59008;EQDQ01  00002PRCP99
0186833390999992001060812004-14040-042610FM-12+088299999V0200901N005112200019N0100001N1+01831+01561101911ADDAA199000091GF104991999999004501999999KA1240N+01701MA1999999092081MD1999999+0091REMSYN076AAXX  08124 83339 32497 40910 10183 20156 39208 40191 94200 333 20170 58009;EQDQ01  00002PRCP99
0167833390999992001061018004-14040-042610FM-12+088299999V0200901N011012200019N0100001N1+02411+01151101611ADDAA199000091GF102991021021004501001001MA1999999091831MD1999999+0041REMSYN070AAXX  10180 83339 32497 20911 10241 20115 39183 40161 82200 333 58004;EQDQ01  00002PRCP99
0214833390999992001061112004-14040-042610FM-12+088299999V0200901N004110042019N0040001N1+01791+01471101841ADDAA199000091AY101061AY201061GF108991081051004501999999KA1240N+01621MA1999999092001MD1999999-0131MW1101REMSYN082AAXX  11124 83339 31496 80908 10179 20147 39200 40184 71000 885// 333 20162 59013;EQDQ01  00002PRCP99
0167833390999992001061118004-14040-042610FM-12+088299999V0200901N007212200019N0100001N1+02451+01071101501ADDAA199000091GF102991021021004501001001MA1999999091721MD1999999-0111REMSYN070AAXX  11184 83339 32497 20914 10245 20107 39172 40150 82200 333 59011;EQDQ01  00002PRCP99
0208833390999992001061200004-14040-042610FM-12+088299999V0200901N011312200019N0020001N1+01991+01331101661ADDAA199000091GA1001+999999999GF100991001001999999001001KA1240M+02521MA1999999091831MD1999999-0121REMSYN082AAXX  12004 83339 32995 00922 10199 20133 39183 40166 333 10252 29064 55069 59012;EQDQ01  00002PRCP99
0186833390999992001061212004-14040-042610FM-12+088299999V0200901N009310042019N0100001N1+01831+01431101811ADDAA199000091GF106991061021004501001001KA1240N+01561MA1999999091961MD1999999-0041REMSYN076AAXX  12124 83339 32497 60918 10183 20143 39196 40181 86200 333 20156 59004;EQDQ01  00002PRCP99
0167833390999992001061218004-14040-042610FM-12+088299999V0200501N002610042019N0100001N1+02171+01471101551ADDAA199000091GF105991051021004501001001MA1999999091731MD1999999+0011REMSYN070AAXX  12184 83339 32497 50505 10217 20147 39173 40155 85200 333 58001;EQDQ01  00002PRCP99
0226833390999992001061300004-14040-042610FM-12+088299999V0200901N002110042019N0020001N1+01771+01631101761ADDAA199000091AY101061AY201061GF108991081051004501999999KA1240M+02261MA1999999091901MD1999999+0071MW1101REMSYN094AAXX  13004 83339 31495 80904 10177 20163 39190 40176 71000 885// 333 10226 29082 55071 58007;EQDQ01  00002PRCP99
0195833390999992001061312004-14040-042610FM-12+088299999V0200901N004610042019N0040001N1+01651+01511101781ADDAA199000021AY101061AY201061GF108991081051004501999999KA1240N+01531MA1999999091901MD1999999-0061MW1501REMSYN082AAXX  13124 83339 31496 80909 10165 20151 39190 40178 75000 885// 333 20153 59006;
0176833390999992001061318004-14040-042610FM-12+088299999V0200901N005110042019N0100001N1+02231+01331101511ADDAA199000021AY151061AY201061GF106991061021004501001001MA1999999091691MD1999999-0041MW1021REMSYN076AAXX  13184 83339 31497 60910 10223 20133 39169 40151 70250 86200 333 59004;
0179833390999992001061400004-14040-042610FM-12+088299999V0200901N005112200019N0020001N1+01951+01421101681ADDAA199000021GF102991021021004501001001KA1240M+02321MA1999999091831MD1999999-0071REMSYN088AAXX  14004 83339 32495 20910 10195 20142 39183 40168 82200 333 10232 29073 55013 59007;
0186833390999992001061412004-14040-042610FM-12+088299999V0201401N005110042019N0100001N1+99999+99999101701ADDAA199000091GF105991051021004501001001KA1240N+01631MA1999999091871MD1999999-0031REMSYN076AAXX  14124 83339 32497 51410 1095/ 20155 39187 40170 85200 333 20163 59003;EQDQ01  00002PRCP99
0167833390999992001061418004-14040-042610FM-12+088299999V0200901N006212200019N0100001N1+02431+00861101271ADDAA199000091GF103991021021004501021001MA1999999091511MD1999999-0181REMSYN070AAXX  14184 83339 32497 30912 10243 20086 39151 40127 82220 333 59018;EQDQ01  00002PRCP99
0198833390999992001061500004-14040-042610FM-12+088299999V0200901N004112200019N0020001N1+02051+01161101491ADDAA199000091GF102991021021004501001001KA1240M+02541MA1999999091691MD1999999-0141REMSYN088AAXX  15004 83339 32495 20908 10205 20116 39169 40149 82200 333 10254 29057 55089 59014;EQDQ01  00002PRCP99
0214833390999992001061512004-14040-042610FM-12+088299999V0200901N003110042019N0100001N1+01851+01531101681ADDAA199000091AY101061AY201061GF106991061021004501001001KA1240N+01631MA1999999091851MD1999999-0021MW1101REMSYN082AAXX  15124 83339 31497 60906 10185 20153 39185 40168 71000 86200 333 20163 59002;EQDQ01  00002PRCP99
0167833390999992001061518004-14040-042610FM-12+088299999V0200901N006212200019N0100001N1+02491+01031101231ADDAA199000091GF102991021021004501001001MA1999999091501MD1999999-0011REMSYN070AAXX  15184 83339 32497 20912 10249 20103 39150 40123 82200 333 59001;EQDQ01  00002PRCP99
0208833390999992001061600004-14040-042610FM-12+088299999V0200901N005712200019N0020001N1+02051+01161101501ADDAA199000091GA1001+999999999GF100991001001999999001001KA1240M+02581MA1999999091691MD1999999+0001REMSYN082AAXX  16004 83339 32995 00911 10205 20116 39169 40150 333 10258 29058 55091 58000;EQDQ01  00002PRCP99
0186833390999992001061612004-14040-042610FM-12+088299999V0201401N005110042019N0100001N1+01901+01451101791ADDAA199000091GF105991051021004501001001KA1240N+01621MA1999999091951MD1999999+0101REMSYN076AAXX  16124 83339 32497 51410 10190 20145 39195 40179 85200 333 20162 58010;EQDQ01  00002PRCP99
0152833390999992001061618004-14040-042610FM-12+088299999V0200501N002612200019N0100001N1+02521+01281101311ADDAA199000091GF102991021011004501001001MD1999999+0051REMSYN070AAXX  16184 83339 32497 20505 10252 20128 39455 40131 82100 333 58005;EQDQ01  00002PRCP99
0208833390999992001061700004-14040-042610FM-12+088299999V0200901N004112200019N0020001N1+02111+01341101531ADDAA199000091GA1001+999999999GF100991001001999999001001KA1240M+02561MA1999999091731MD1999999+0041REMSYN082AAXX  17004 83339 32995 00908 10211 20134 39173 40153 333 10256 29061 55090 58004;EQDQ01  00002PRCP99
0202833390999992001061712004-14040-042610FM-12+088299999V0200901N003112200019N0100001N1+01991+01461101741ADDAA199000091GF102991001001999999001011KA1240N+01501MA1999999091921MD1999999-0031REMSYN076AAXX  17124 83339 32897 20906 10199 20146 39192 40174 80001 333 20150 59003;EQDQ01+022502SCOLCBQ02  00002PRCP99
0208833390999992001061800004-14040-042610FM-12+088299999V0201401N004112200019N0020001N1+02191+01561101461ADDAA199000091GA1001+999999999GF100991001001999999001001KA1240M+02701MA1999999091691MD1999999-0041REMSYN082AAXX  18004 83339 32995 01408 10219 20156 39169 40146 333 10270 29051 55098 59004;EQDQ01  00002PRCP99
0196833390999992001061812004-14040-042610FM-12+088299999V0200901N003112200019N0100001N1+01941+01501101681ADDAA199000091GA1001+999999999GF100991001001999999001001KA1240N+01581MA1999999091871MD1999999-0051REMSYN070AAXX  18124 83339 32997 00906 10194 20150 39187 40168 333 20158 59005;EQDQ01  00002PRCP99
0167833390999992001061818004-14040-042610FM-12+088299999V0201401N001512200019N0100001N1+02751+01161101221ADDAA199000091GF104991041021004501001001MA1999999091501MD1999999+0001REMSYN070AAXX  18184 83339 32497 41403 10275 20116 39150 40122 84200 333 58000;EQDQ01  00002PRCP99
0208833390999992001061900004-14040-042610FM-12+088299999V0201401N002112200019N0020001N1+02211+00971101491ADDAA199000091GA1001+999999999GF100991001001999999001001KA1240M+02801MA1999999091721MD1999999+0031REMSYN082AAXX  19004 83339 32995 01404 10221 20097 39172 40149 333 10280 29050 55097 58003;EQDQ01  00002PRCP99
0186833390999992001061912004-14040-042610FM-12+088299999V0201401N008212200019N0100001N1+01871+01471101721ADDAA199000091GF102991021011004501001001KA1240N+01641MA1999999091911MD1999999+0041REMSYN076AAXX  19124 83339 32497 21416 10187 20147 39191 40172 82100 333 20164 58004;EQDQ01  00002PRCP99
0167833390999992001061918004-14040-042610FM-12+088299999V0200901N003112200019N0100001N1+02521+01061101261ADDAA199000091GF104991031021004501001011MA1999999091521MD1999999+0021REMSYN070AAXX  19184 83339 32497 40906 10252 20106 39152 40126 83201 333 58002;EQDQ01  00002PRCP99
0208833390999992001062000004-14040-042610FM-12+088299999V0201401N005112200019N0020001N1+02101+00891101601ADDAA199000091GA1001+999999999GF100991001001999999001001KA1240M+02561MA1999999091791MD1999999+0071REMSYN082AAXX  20004 83339 32995 01410 10210 20089 39179 40160 333 10256 29052 55099 58007;EQDQ01  00002PRCP99
0186833390999992001062012004-14040-042610FM-12+088299999V0201401N004610042019N0100001N1+01851+01351101801ADDAA199000091GF105991051021004501001001KA1240N+01621MA1999999091961MD1999999+0051REMSYN076AAXX  20124 83339 32497 51409 10185 20135 39196 40180 85200 333 20162 58005;EQDQ01  00002PRCP99
0167833390999992001062018004-14040-042610FM-12+088299999V0201401N002612200019N0100001N1+02511+01171101401ADDAA199000091GF104991041021004501001001MA1999999091641MD1999999+0121REMSYN070AAXX  20184 83339 32497 41405 10251 20117 39164 40140 84200 333 58012;EQDQ01  00002PRCP99
0208833390999992001062100004-14040-042610FM-12+088299999V0201401N003112200019N0020001N1+01961+01061101711ADDAA199000091GA1001+999999999GF100991001001999999001001KA1240M+02561MA1999999091871MD1999999+0081REMSYN082AAXX  21004 83339 32995 01406 10196 20106 39187 40171 333 10256 29057 55072 58008;EQDQ01  00002PRCP99
0196833390999992001062112004-14040-042610FM-12+088299999V0209999C000012200019N0100001N1+01941+01401101831ADDAA199000091GA1001+999999999GF100991001001999999001001KA1240N+01471MA1999999091991MD1999999+0031REMSYN070AAXX  21124 83339 32997 00000 10194 20140 39199 40183 333 20147 58003;EQDQ01  00002PRCP99
0167833390999992001062118004-14040-042610FM-12+088299999V0201401N004612200019N0100001N1+02651+01151101341ADDAA199000091GF104991021011004501001011MA1999999091591MD1999999-0051REMSYN070AAXX  21184 83339 32497 41409 10265 20115 39159 40134 82101 333 59005;EQDQ01  00002PRCP99
0208833390999992001062200004-14040-042610FM-12+088299999V0201401N002612200019N0020001N1+02181+01061101731ADDAA199000091GA1001+999999999GF100991001001999999001001KA1240M+02731MA1999999091921MD1999999+0051REMSYN082AAXX  22004 83339 32995 01405 10218 20106 39192 40173 333 10273 29052 55105 58005;EQDQ01  00002PRCP99
0186833390999992001062212004-14040-042610FM-12+088299999V0201401N005712200019N0100001N1+01851+01431101981ADDAA199000091GF102991021021004501001001KA1240N+01621MA1999999092141MD1999999+0151REMSYN076AAXX  22124 83339 32497 21411 10185 20143 39214 40198 82200 333 20162 58015;EQDQ01  00002PRCP99
0161833390999992001062218004-14040-042610FM-12+088299999V0201401N005112200019N0100001N1+02511+99999101531ADDAA199000091GF104991041021004501001001MA1999999091761MD1999999+0171REMSYN064AAXX  22184 83339 32497 41410 10251 39176 40153 84200 333 58017;EQDQ01  00002PRCP99
0198833390999992001062300004-14040-042610FM-12+088299999V0200901N006710042019N0020001N1+01991+01641101931ADDAA199000091GF106991061021004501001001KA1240M+02571MA1999999092071MD1999999+0151REMSYN088AAXX  23004 83339 32495 60913 10199 20164 39207 40193 86200 333 10257 29072 55090 58015;EQDQ01  00002PRCP99
0186833390999992001062312004-14040-042610FM-12+088299999V0201401N009810042019N0100001N1+01921+01531101941ADDAA199000091GF105991051021004501001001KA1240N+01761MA1999999092091MD1999999-0051REMSYN076AAXX  23124 83339 32497 51419 10192 20153 39209 40194 85200 333 20176 59005;EQDQ01  00002PRCP99
0167833390999992001062318004-14040-042610FM-12+088299999V0200901N005110042019N0100001N1+02381+01531101521ADDAA199000091GF106991061021004501001001MA1999999091741MD1999999-0021REMSYN070AAXX  23184 83339 32497 60910 10238 20153 39174 40152 86200 333 59002;EQDQ01  00002PRCP99
0213833390999992001062400004-14040-042610FM-12+088299999V0200901N004110042019N0020001N1+01921+01731101811ADDAA106000191AY121061AY221061GF108991051021004501021999KA1240M+02421MA1999999091961MD1999999-0111MW1501REMSYN100AAXX  24004 83339 21495 80908 10192 20173 39196 40181 75022 8522/ 333 10242 29079 55050 59011 69921;
0201833390999992001062412004-14040-042610FM-12+088299999V0201401N004110450019N0100001N1+01771+01651102061ADDAA124011991AY161061AY251061GF108991041021004501021999KA1240N+01641MA1999999092181MD1999999+0091MW1021REMSYN088AAXX  24124 83339 21497 81408 10177 20165 39218 40206 70265 8422/ 333 20164 58009 60124;
0167833390999992001062418004-14040-042610FM-12+088299999V0200901N003112200019N0100001N1+02251+01371101771ADDAA199000091GF104991041021004501001001MA1999999091921MD1999999+0181REMSYN070AAXX  24184 83339 32497 40906 10225 20137 39192 40177 84200 333 58018;EQDQ01  00002PRCP99
0208833390999992001062500004-14040-042610FM-12+088299999V0201401N006712200019N0020001N1+01931+01511101791ADDAA199000091GA1001+999999999GF100991001001999999001001KA1240M+02391MA1999999092101MD1999999+0141REMSYN082AAXX  25004 83339 32995 01413 10193 20151 39210 40179 333 10239 29075 55034 58014;EQDQ01  00002PRCP99
0186833390999992001062512004-14040-042610FM-12+088299999V0200901N005110042019N0100001N1+01621+01391102161ADDAA199000091GF108991051021004501021999KA1240N+01571MA1999999092261MD1999999+0081REMSYN076AAXX  25124 83339 32497 80910 10162 20139 39226 40216 8522/ 333 20157 58008;EQDQ01  00002PRCP99
0167833390999992001062518004-14040-042610FM-12+088299999V0201401N006210042019N0100001N1+02261+01471101771ADDAA199000091GF106991061021004501001001MA1999999091941MD1999999+0021REMSYN070AAXX  25184 83339 32497 61412 10226 20147 39194 40177 86200 333 58002;EQDQ01  00002PRCP99
0198833390999992001062600004-14040-042610FM-12+088299999V0200901N003110042019N0020001N1+01941+01551101931ADDAA199000091GF105991051021004501001001KA1240M+02281MA1999999092061MD1999999-0041REMSYN088AAXX  26004 83339 32495 50906 10194 20155 39206 40193 85200 333 10228 29076 55015 59004;EQDQ01  00002PRCP99
0186833390999992001062612004-14040-042610FM-12+088299999V0200901N003612200019N0100001N1+01911+01511102171ADDAA199000091GF102991021021004501001001KA1240N+01621MA1999999092291MD1999999+0031REMSYN076AAXX  26124 83339 32497 20907 10191 20151 39229 40217 82200 333 20162 58003;EQDQ01  00002PRCP99
0177833390999992001062618004-14040-042610FM-12+088299999V0200901N005112200019N0100001N1+02561+01141101651ADDAA199000091GA1001+999999999GF100991001001999999001001MA1999999091861MD1999999-0081REMSYN064AAXX  26184 83339 32497 00910 10256 20114 39186 40165 333 59008;EQDQ01  00002PRCP99
0208833390999992001062700004-14040-042610FM-12+088299999V0201401N002112200019N0020001N1+02061+01311101911ADDAA199000091GA1001+999999999GF100991001001999999001001KA1240M+02621MA1999999092071MD1999999+0011REMSYN082AAXX  27004 83339 32995 01404 10206 20131 39207 40191 333 10262 29060 55101 58001;EQDQ01  00002PRCP99
0186833390999992001062712004-14040-042610FM-12+088299999V0200901N004610042019N0100001N1+01751+01561101961ADDAA199000091GF106991061021004501001001KA1240N+01481MA1999999092111MD1999999-0181REMSYN076AAXX  27124 83339 32497 60909 10175 20156 39211 40196 86200 333 20148 59018;EQDQ01  00002PRCP99
0167833390999992001062718004-14040-042610FM-12+088299999V0201401N002612200019N0100001N1+02601+01141101481ADDAA199000091GF101991011011004501001001MA1999999091721MD1999999-0141REMSYN070AAXX  27184 83339 32497 11405 10260 20114 39172 40148 81100 333 59014;EQDQ01  00002PRCP99
0208833390999992001062800004-14040-042610FM-12+088299999V0201801N001012200019N0020001N1+02051+01151101701ADDAA199000091GA1001+999999999GF100991001001999999001001KA1240M+02651MA1999999091861MD1999999-0211REMSYN082AAXX  28004 83339 32995 01802 10205 20115 39186 40170 333 10265 29060 55079 59021;EQDQ01  00002PRCP99
0196833390999992001062812004-14040-042610FM-12+088299999V0201401N002112200019N0100001N1+02031+01471101781ADDAA199000091GA1001+999999999GF100991001001999999001001KA1240N+01471MA1999999091961MD1999999-0151REMSYN070AAXX  28124 83339 32997 01404 10203 20147 39196 40178 333 20147 59015;EQDQ01  00002PRCP99
0167833390999992001062818004-14040-042610FM-12+088299999V0200901N002612200019N0100001N1+02651+01231101441ADDAA199000091GF103991031021004501001001MA1999999091671MD1999999-0051REMSYN070AAXX  28184 83339 32497 30905 10265 20123 39167 40144 83200 333 59005;EQDQ01  00002PRCP99
0208833390999992001062900004-14040-042610FM-12+088299999V0201401N005712200019N0020001N1+02201+01201101711ADDAA199000091GA1001+999999999GF100991001001999999001001KA1240M+02721MA1999999091921MD1999999+0061REMSYN082AAXX  29004 83339 32995 01411 10220 20120 39192 40171 333 10272 29054 55101 58006;EQDQ01  00002PRCP99
0186833390999992001062912004-14040-042610FM-12+088299999V0200901N006210042019N0100001N1+01731+01491101971ADDAA199000091GF106991061021004501001001KA1240N+01601MA1999999092121MD1999999+0161REMSYN076AAXX  29124 83339 32497 60912 10173 20149 39212 40197 86200 333 20160 58016;EQDQ01  00002PRCP99
0167833390999992001062918004-14040-042610FM-12+088299999V0200901N003612200019N0100001N1+02431+01171101571ADDAA199000091GF103991021011004501001011MA1999999091771MD1999999+0101REMSYN070AAXX  29184 83339 32497 30907 10243 20117 39177 40157 82101 333 58010;EQDQ01  00002PRCP99
0208833390999992001063000004-14040-042610FM-12+088299999V0201401N001012200019N0020001N1+01961+01061101721ADDAA199000091GA1001+999999999GF100991001001999999001001KA1240M+02461MA1999999091871MD1999999-0051REMSYN082AAXX  30004 83339 32995 01402 10196 20106 39187 40172 333 10246 29060 55080 59005;EQDQ01  00002PRCP99
0186833390999992001063012004-14040-042610FM-12+088299999V0201401N005110042019N0100001N1+01791+01491101931ADDAA199000091GF106991061021004501001001KA1240N+01661MA1999999092061MD1999999-0061REMSYN076AAXX  30124 83339 32497 61410 10179 20149 39206 40193 86200 333 20166 59006;EQDQ01  00002PRCP99
0167833390999992001063018004-14040-042610FM-12+088299999V0201401N002612200019N0100001N1+02421+01081101381ADDAA199000091GF103991021021004501001011MA1999999091611MD1999999-0161REMSYN070AAXX  30184 83339 32497 31405 10242 20108 39161 40138 82201 333 59016;EQDQ01  00002PRCP99
0214833390999992001070100004-14040-042610FM-12+088299999V0201401N004612200019N0020001N1+02051+01181101561ADDAA199000091GF103991999001008001031041KA1240M+02491MA1999999091741MD1999999-0131REMSYN088AAXX  01004 83339 32595 31409 10205 20118 39174 40156 80034 333 10249 29060 55069 59013;EQDQ01+000002SCOTLCQ02  00002PRCP99
0186833390999992001070112004-14040-042610FM-12+088299999V0201401N003610042019N0100001N1+01771+01451101801ADDAA199000091GF108991051021004501021999KA1240N+01631MA1999999091951MD1999999-0111REMSYN076AAXX  01124 83339 32497 81407 10177 20145 39195 40180 8522/ 333 20163 59011;EQDQ01  00002PRCP99
0167833390999992001070118004-14040-042610FM-12+088299999V0201401N001512200019N0100001N1+02521+01011101281ADDAA199000091GF105991031021004501001041MA1999999091531MD1999999-0081REMSYN070AAXX  01184 83339 32497 51403 10252 20101 39153 40128 83204 333 59008;EQDQ01  00002PRCP99
0214833390999992001070200004-14040-042610FM-12+088299999V0201401N001512200019N0020001N1+02031+01131101551ADDAA199000091GF104991001001999999001041KA1240M+02551MA1999999091731MD1999999-0011REMSYN088AAXX  02004 83339 32895 41403 10203 20113 39173 40155 80004 333 10255 29060 55045 59001;EQDQ01+022502SCOLCBQ02  00002PRCP99
0186833390999992001070212004-14040-042610FM-12+088299999V0201401N004110450019N0100001N1+01771+01521101831ADDAA199000091GF108991041021004501021999KA1240N+01201MA1999999091981MD1999999+0031REMSYN076AAXX  02124 83339 32497 81408 10177 20152 39198 40183 8422/ 333 20120 58003;EQDQ01  00002PRCP99
0167833390999992001070218004-14040-042610FM-12+088299999V0200501N001512200019N0100001N1+02611+01081101341ADDAA199000091GF104991041021004501001001MA1999999091601MD1999999+0071REMSYN070AAXX  02184 83339 32497 40503 10261 20108 39160 40134 84200 333 58007;EQDQ01  00002PRCP99
0208833390999992001070300004-14040-042610FM-12+088299999V0201401N001512200019N0100001N1+02031+00991101621ADDAA199000091GA1001+999999999GF100991001001999999001001KA1240M+02661MA1999999091791MD1999999+0061REMSYN082AAXX  03004 83339 32997 01403 10203 20099 39179 40162 333 10266 29056 55064 58006;EQDQ01  00002PRCP99
0186833390999992001070312004-14040-042610FM-12+088299999V0201401N002110042019N0100001N1+01801+01471101911ADDAA199000091GF106991061021004501001001KA1240N+01581MA1999999092051MD1999999+0071REMSYN076AAXX  03124 83339 32497 61404 10180 20147 39205 40191 86200 333 20158 58007;EQDQ01  00002PRCP99
0167833390999992001070318004-14040-042610FM-12+088299999V0200501N002112200019N0100001N1+02571+01261101451ADDAA199000091GF105991031021004501001011MA1999999091691MD1999999+0091REMSYN070AAXX  03184 83339 32497 50504 10257 20126 39169 40145 83201 333 58009;EQDQ01  00002PRCP99
0214833390999992001070400004-14040-042610FM-12+088299999V0201401N003112200019N0020001N1+02131+01111101651ADDAA199000091GF102991001001999999001011KA1240M+02681MA1999999091831MD1999999+0041REMSYN088AAXX  04004 83339 32895 21406 10213 20111 39183 40165 80001 333 10268 29057 55062 58004;EQDQ01+022502SCOLCBQ02  00002PRCP99
0186833390999992001070412004-14040-042610FM-12+088299999V0200901N004110042019N0100001N1+01751+01541101911ADDAA199000091GF106991061021004501001001KA1240N+01601MA1999999092061MD1999999+0011REMSYN076AAXX  04124 83339 32497 60908 10175 20154 39206 40191 86200 333 20160 58001;EQDQ01  00002PRCP99
0167833390999992001070418004-14040-042610FM-12+088299999V0201401N001011050019N0100001N1+02501+01261101491ADDAA199000091GF106991021021004501031041MA1999999091721MD1999999+0031REMSYN070AAXX  04184 83339 32497 61402 10250 20126 39172 40149 82234 333 58003;EQDQ01  00002PRCP99
0214833390999992001070500004-14040-042610FM-12+088299999V0201401N002612200019N0020001N1+02061+01281101711ADDAA199000091GF102991001001999999001041KA1240M+02541MA1999999091871MD1999999+0041REMSYN088AAXX  05004 83339 32895 21405 10206 20128 39187 40171 80004 333 10254 29064 55042 58004;EQDQ01+022502SCOLCBQ02  00002PRCP99
0186833390999992001070512004-14040-042610FM-12+088299999V0200901N005110042019N0100001N1+01811+01581101971ADDAA199000091GF106991061021004501001001KA1240N+01671MA1999999092121MD1999999+0061REMSYN076AAXX  05124 83339 32497 60910 10181 20158 39212 40197 86200 333 20167 58006;EQDQ01  00002PRCP99
0159833390999992001070518004-14040-042610FM-12+088299999V0200901N003612200019N0100001N1+02481+01301101541ADDAA199000091GF103991031021004501001001MA1999999091761REMSYN076AAXX  05184 83339 32497 30907 10248 20130 39176 40154 83200 84540 333 59004;EQDQ01  00002PRCP99
0208833390999992001070600004-14040-042610FM-12+088299999V0201401N001512200019N0020001N1+02131+01141101691ADDAA199000091GA1001+999999999GF100991001001999999001001KA1240M+02591MA1999999091861MD1999999-0011REMSYN082AAXX  06004 83339 32995 01403 10213 20114 39186 40169 333 10259 29060 55071 59001;EQDQ01  00002PRCP99
0186833390999992001070612004-14040-042610FM-12+088299999V0200901N005110042019N0100001N1+01731+01471101841ADDAA199000091GF106991061021004501001001KA1240N+01641MA1999999092001MD1999999-0121REMSYN076AAXX  06124 83339 32497 60910 10173 20147 39200 40184 86200 333 20164 59012;EQDQ01  00002PRCP99
0183833390999992001070618004-14040-042610FM-12+088299999V0200501N006712200019N0100001N1+02491+01161101491ADDAA199000091GF102991999021004501001001MA1999999091721MD1999999-0041REMSYN070AAXX  06184 83339 32497 20513 10249 20116 39172 40149 84200 333 59004;EQDQ01+000042SCOTLCQ02  00002PRCP99
0198833390999992001070700004-14040-042610FM-12+088299999V0200901N005112200019N0020001N1+02071+01201101781ADDAA199000091GF102991021021004501001001KA1240M+02521MA1999999091941MD1999999+0081REMSYN088AAXX  07004 83339 32495 20910 10207 20120 39194 40178 82200 333 10252 29060 55071 58008;EQDQ01  00002PRCP99
0186833390999992001070712004-14040-042610FM-12+088299999V0200901N011310042019N0100001N1+01871+01471101951ADDAA199000091GF106991061021004501001001KA1240N+01601MA1999999092101MD1999999+0101REMSYN076AAXX  07124 83339 32497 60922 10187 20147 39210 40195 86200 333 20160 58010;EQDQ01  00002PRCP99
0167833390999992001070718004-14040-042610FM-12+088299999V0200901N008210042019N0100001N1+02401+01411101601ADDAA199000091GF105991051021004501001001MA1999999091801MD1999999+0081REMSYN070AAXX  07184 83339 32497 50916 10240 20141 39180 40160 85200 333 58008;EQDQ01  00002PRCP99
0232833390999992001070800004-14040-042610FM-12+088299999V0200901N007710042019N9999999N1+02711+01661101981ADDAA106002091AY121061AY221061GF108991051021004501021999KA1240M+99999MA1999999092101MD1999999+0161MW1601REMSYN100AAXX  08004 83339 214// 80915 10271 20166 39210 40198 76022 8522/ 333 10252 29081 55082 58016 60021;EQDQ01 +02522ATMX  
0167833390999992001070818004-14040-042610FM-12+088299999V0200901N006710042019N0100001N1+02231+01261101761ADDAA199000091GF105991051021004501001001MA1999999091921MD1999999+0121REMSYN070AAXX  08184 83339 32497 50913 10223 20126 39192 40176 85200 333 58012;EQDQ01  00002PRCP99
0186833390999992001070912004-14040-042610FM-12+088299999V0200901N009812200019N0100001N1+01691+01331101971ADDAA199000091GF103991031021004501001001KA1240N+01461MA1999999092091MD1999999-0181REMSYN076AAXX  09124 83339 32497 30919 10169 20133 39209 40197 83200 333 20146 59018;EQDQ01  00002PRCP99
0167833390999992001070918004-14040-042610FM-12+088299999V0200901N007712200019N0100001N1+02251+01371101631ADDAA199000091GF104991041021004501001001MA1999999091801MD1999999-0121REMSYN070AAXX  09184 83339 32497 40915 10225 20137 39180 40163 84200 333 59012;EQDQ01  00002PRCP99
0208833390999992001071000004-14040-042610FM-12+088299999V0200901N004112200019N0020001N1+01911+01381101761ADDAA199000091GA1001+999999999GF100991001001999999001001KA1240M+02321MA1999999091901MD1999999-0121REMSYN082AAXX  10004 83339 32995 00908 10191 20138 39190 40176 333 10232 29070 55087 59012;EQDQ01  00002PRCP99
0186833390999992001071012004-14040-042610FM-12+088299999V0201401N003112200019N0100001N1+01711+01481101781ADDAA199000091GF104991041021004501001001KA1240N+01611MA1999999091921MD1999999-0171REMSYN076AAXX  10124 83339 32497 41406 10171 20148 39192 40178 84200 333 20161 59017;EQDQ01  00002PRCP99
0167833390999992001071018004-14040-042610FM-12+088299999V0201401N003112200019N0100001N1+02481+00951101291ADDAA199000091GF102991021011004501001001MA1999999091531MD1999999-0271REMSYN070AAXX  10184 83339 32497 21406 10248 20095 39153 40129 82100 333 59027;EQDQ01  00002PRCP99
0208833390999992001071100004-14040-042610FM-12+088299999V0209999C000012200019N0020001N1+01961+00891101451ADDAA199000091GA1001+999999999GF100991001001999999001001KA1240M+02521MA1999999091631MD1999999-0271REMSYN082AAXX  11004 83339 32995 00000 10196 20089 39163 40145 333 10252 29056 55085 59027;EQDQ01  00002PRCP99
0186833390999992001071112004-14040-042610FM-12+088299999V0201401N005110042019N0100001N1+01681+01411101891ADDAA199000091GF106991061021004501001001KA1240N+01511MA1999999092021MD1999999+0101REMSYN076AAXX  11124 83339 32497 61410 10168 20141 39202 40189 86200 333 20151 58010;EQDQ01  00002PRCP99
0167833390999992001071118004-14040-042610FM-12+088299999V0202301N001012200019N0100001N1+02591+01141101371ADDAA199000091GF103991031021004501001001MA1999999091611MD1999999+0081REMSYN070AAXX  11184 83339 32497 32302 10259 20114 39161 40137 83200 333 58008;EQDQ01  00002PRCP99
0208833390999992001071200004-14040-042610FM-12+088299999V0209999C000012200019N0020001N1+01991+01041101611ADDAA199000091GA1001+999999999GF100991001001999999001001KA1240M+02661MA1999999091771MD1999999+0141REMSYN082AAXX  12004 83339 32995 00000 10199 20104 39177 40161 333 10266 29058 55080 58014;EQDQ01  00002PRCP99
0196833390999992001071212004-14040-042610FM-12+088299999V0200501N001512200019N0100001N1+01971+01521101821ADDAA199000091GA1001+999999999GF100991001001999999001001KA1240N+01441MA1999999091991MD1999999-0031REMSYN070AAXX  12124 83339 32997 00503 10197 20152 39199 40182 333 20144 59003;EQDQ01  00002PRCP99
0167833390999992001071218004-14040-042610FM-12+088299999V0200901N001512200019N0100001N1+02791+01071101291ADDAA199000091GF102991011011008001001011MA1999999091551MD1999999-0061REMSYN070AAXX  12184 83339 32597 20903 10279 20107 39155 40129 81101 333 59006;EQDQ01  00002PRCP99
0208833390999992001071300004-14040-042610FM-12+088299999V0202301N001012200019N0020001N1+02271+00921101491ADDAA199000091GA1001+999999999GF100991001001999999001001KA1240M+02881MA1999999091721MD1999999-0051REMSYN082AAXX  13004 83339 32995 02302 10227 20092 39172 40149 333 10288 29048 55105 59005;EQDQ01  00002PRCP99
0202833390999992001071312004-14040-042610FM-12+088299999V0200901N005712200019N0100001N1+02121+01621101711ADDAA199000091GF102991001001999999001011KA1240N+01581MA1999999091941MD1999999-0051REMSYN076AAXX  13124 83339 32897 20911 10212 20162 39194 40171 80001 333 20158 59005;EQDQ01+022502SCOLCBQ02  00002PRCP99
0167833390999992001071318004-14040-042610FM-12+088299999V0200501N005112200019N0100001N1+02641+01131101361ADDAA199000091GF105991021021004501001061MA1999999091631MD1999999+0081REMSYN070AAXX  13184 83339 32497 50510 10264 20113 39163 40136 82206 333 58008;EQDQ01  00002PRCP99
0180833390999992001071612004-14040-042610FM-12+088299999V0200901N005719999999N0100001N1+01631+01331100001ADDAA199000091GF106991999999004501999999KA1240N+01361MA1999999091981MD1999999-0051REMSYN070AAXX  16124 83339 31497 60911 10163 20133 39198 4000/ 333 20136 59005;EQDQ01  00002PRCP99
0183833390999992001071618004-14040-042610FM-12+088299999V0200901N001012200019N0100001N1+02331+01031101472ADDAA199000091GF104991041021004501001001MA1999999091661MD1999999+0031REMSYN070AAXX  16184 83339 32497 40902 10233 20103 39166 40147 84200 333 58003;EQDQ01+101473APOSLPQ02  00002PRCP99
0208833390999992001071700004-14040-042610FM-12+088299999V0200901N004612200019N0020001N1+01891+01321101801ADDAA199000091GA1001+999999999GF100991001001999999001001KA1240M+02401MA1999999091931MD1999999+0061REMSYN082AAXX  17004 83339 32995 00909 10189 20132 39193 40180 333 10240 29066 55088 58006;EQDQ01  00002PRCP99
0201833390999992001071712004-14040-042610FM-12+088299999V0201401N005710042019N0100001N1+01691+01481101941ADDAA124002091AY161061AY261061GF106991061021004501001001KA1240N+01401MA1999999092061MD1999999+0081MW1101REMSYN088AAXX  17124 83339 21497 61411 10169 20148 39206 40194 71066 86200 333 20140 58008 60024;
0167833390999992001071718004-14040-042610FM-12+088299999V0200901N005711050019N0100001N1+02311+01351101531ADDAA199000091GF105991041021004501001021MA1999999091721MD1999999+0061REMSYN070AAXX  17184 83339 32497 50911 10231 20135 39172 40153 84202 333 58006;EQDQ01  00002PRCP99
0208833390999992001071800004-14040-042610FM-12+088299999V0200901N005112200019N0020001N1+01911+01451101851ADDAA199000091GA1001+999999999GF100991001001999999001001KA1240M+02371MA1999999091981MD1999999+0051REMSYN082AAXX  18004 83339 32995 00910 10191 20145 39198 40185 333 10237 29073 55057 58005;EQDQ01  00002PRCP99
0214833390999992001071812004-14040-042610FM-12+088299999V0200901N006210042019N0100001N1+01791+01581101951ADDAA199000091AY101061AY201061GF106991061021004501001001KA1240N+01701MA1999999092081MD1999999+0021MW1101REMSYN082AAXX  18124 83339 31497 60912 10179 20158 39208 40195 71000 86200 333 20170 58002;EQDQ01  00002PRCP99
0198833390999992001071900004-14040-042610FM-12+088299999V0200901N005712200019N0020001N1+02231+01301101651ADDAA199000091GF104991041021004501001001KA1240M+02621MA1999999091841MD1999999-0141REMSYN088AAXX  19004 83339 32495 40911 10223 20130 39184 40165 84200 333 10262 29061 55071 59014;EQDQ01  00002PRCP99
0214833390999992001071912004-14040-042610FM-12+088299999V0200901N003110042019N0040001N1+01851+01641101881ADDAA199000091AY101061AY201061GF108991081051004501999999KA1240N+01401MA1999999092051MD1999999-0031MW1101REMSYN082AAXX  19124 83339 31496 80906 10185 20164 39205 40188 71000 885// 333 20140 59003;EQDQ01  00002PRCP99
0167833390999992001071918004-14040-042610FM-12+088299999V0201401N004112200019N0100001N1+02591+01301101411ADDAA199000091GF103991031021004501001001MA1999999091661MD1999999-0041REMSYN070AAXX  19184 83339 32497 31408 10259 20130 39166 40141 83200 333 59004;EQDQ01  00002PRCP99
0208833390999992001072000004-14040-042610FM-12+088299999V0200901N003612200019N0020001N1+02091+01331101581ADDAA199000091GA1001+999999999GF100991001001999999001001KA1240M+02661MA1999999091761MD1999999-0081REMSYN082AAXX  20004 83339 32995 00907 10209 20133 39176 40158 333 10266 29065 55051 59008;EQDQ01  00002PRCP99
0214833390999992001072012004-14040-042610FM-12+088299999V0201401N005710042019N0100001N1+01771+01521101711ADDAA199000091AY101061AY201061GF106991061021004501001001KA1240N+01461MA1999999091891MD1999999-0161MW1101REMSYN082AAXX  20124 83339 31497 61411 10177 20152 39189 40171 71000 86200 333 20146 59016;EQDQ01  00002PRCP99
0177833390999992001072018004-14040-042610FM-12+088299999V0200901N004612200019N0100001N1+02611+00801101241ADDAA199000091GA1001+999999999GF100991001001999999001001MA1999999091501MD1999999-0161REMSYN064AAXX  20184 83339 32997 00909 10261 20080 39150 40124 333 59016;EQDQ01  00002PRCP99
0208833390999992001072100004-14040-042610FM-12+088299999V0200901N002112200019N0020001N1+02191+00801101461ADDAA199000091GA1001+999999999GF100991001001999999001001KA1240M+02661MA1999999091661MD1999999-0101REMSYN082AAXX  21004 83339 32995 00904 10219 20080 39166 40146 333 10266 29051 55084 59010;EQDQ01  00002PRCP99
0186833390999992001072112004-14040-042610FM-12+088299999V0200901N002112200019N0100001N1+01971+01421101681ADDAA199000091GF102991021021004501001001KA1240N+01401MA1999999091891MD1999999+0001REMSYN076AAXX  21124 83339 32497 20904 10197 20142 39189 40168 82200 333 20140 58000;EQDQ01  00002PRCP99
0167833390999992001072118004-14040-042610FM-12+088299999V0201401N004112200019N0100001N1+02851+00651101231ADDAA199000091GF103991031021004501001001MA1999999091511MD1999999+0011REMSYN070AAXX  21184 83339 32497 31408 10285 20065 39151 40123 83200 333 58001;EQDQ01  00002PRCP99
0208833390999992001072200004-14040-042610FM-12+088299999V0201801N001512200019N0020001N1+02331+00561101451ADDAA199000091GA1001+999999999GF100991001001999999001001KA1240M+02961MA1999999091691MD1999999+0031REMSYN082AAXX  22004 83339 32995 01803 10233 20056 39169 40145 333 10296 29081 55098 58003;EQDQ01  00002PRCP99
0196833390999992001072212004-14040-042610FM-12+088299999V0203201N000512200019N0100001N1+02191+01421101591ADDAA199000091GA1001+999999999GF100991001001999999001001KA1240N+01681MA1999999091841MD1999999-0051REMSYN070AAXX  22124 83339 32997 03201 10219 20142 39184 40159 333 20168 59005;EQDQ01  00002PRCP99
0167833390999992001072218004-14040-042610FM-12+088299999V0200901N004612200019N0100001N1+02991+00651101191ADDAA199000091GF102991021021004501001001MA1999999091501MD1999999-0011REMSYN070AAXX  22184 83339 32497 20909 10299 20065 39150 40119 82200 333 59001;EQDQ01  00002PRCP99
0208833390999992001072300004-14040-042610FM-12+088299999V0201801N002112200019N0020001N1+02451+00751101381ADDAA199000091GA1001+999999999GF100991001001999999001001KA1240M+03041MA1999999091651MD1999999-0041REMSYN082AAXX  23004 83339 32995 01804 10245 20075 39165 40138 333 10304 29038 55100 59004;EQDQ01  00002PRCP99
0202833390999992001072312004-14040-042610FM-12+088299999V0200901N007212200019N0100001N1+02111+01461101721ADDAA199000091GF102991001001999999001011KA1240N+01801MA1999999091961MD1999999+0121REMSYN076AAXX  23124 83339 32897 20914 10211 20146 39196 40172 80001 333 20180 58012;EQDQ01+022502SCOLCBQ02  00002PRCP99
0167833390999992001072318004-14040-042610FM-12+088299999V0200501N008212200019N0100001N1+02641+01171101341ADDAA199000091GF103991021021004501001011MA1999999091631MD1999999+0131REMSYN070AAXX  23184 83339 32497 30516 10264 20117 39163 40134 82201 333 58013;EQDQ01  00002PRCP99
0198833390999992001072400004-14040-042610FM-12+088299999V0200901N005112200019N0020001N1+02271+01181101601ADDAA199000091GF103991031021004501001001KA1240M+02681MA1999999091841MD1999999+0191REMSYN088AAXX  24004 83339 32495 30910 10227 20118 39184 40160 83200 333 10268 29052 55100 58019;EQDQ01  00002PRCP99
0186833390999992001072412004-14040-042610FM-12+088299999V0200501N006710042019N0100001N1+01891+01571101871ADDAA199000091GF106991061021004501001001KA1240N+01741MA1999999092051MD1999999+0091REMSYN076AAXX  24124 83339 32497 60513 10189 20157 39205 40187 86200 333 20174 58009;EQDQ01  00002PRCP99
0167833390999992001072418004-14040-042610FM-12+088299999V0200501N005712200019N0100001N1+02571+01531101531ADDAA199000091GF104991041021004501001001MA1999999091771MD1999999+0141REMSYN070AAXX  24184 83339 32497 40511 10257 20153 39177 40153 84200 333 58014;EQDQ01  00002PRCP99
0208833390999992001072500004-14040-042610FM-12+088299999V0200901N005112200019N0020001N1+02011+01361101741ADDAA199000091GA1001+999999999GF100991001001999999001001KA1240M+02601MA1999999091911MD1999999+0071REMSYN082AAXX  25004 83339 32995 00910 10201 20136 39191 40174 333 10260 29064 55083 58007;EQDQ01  00002PRCP99
0186833390999992001072512004-14040-042610FM-12+088299999V0200501N007210042019N0100001N1+01861+01471101801ADDAA199000091GF106991061021004501001001KA1240N+01581MA1999999091961MD1999999-0091REMSYN076AAXX  25124 83339 32497 60514 10186 20147 39196 40180 86200 333 20158 59009;EQDQ01  00002PRCP99
0167833390999992001072518004-14040-042610FM-12+088299999V0200501N008210042019N0100001N1+02351+01491101521ADDAA199000091GF105991051021004501001001MA1999999091721MD1999999-0051REMSYN070AAXX  25184 83339 32497 50516 10235 20149 39172 40152 85200 333 59005;EQDQ01  00002PRCP99
0198833390999992001072600004-14040-042610FM-12+088299999V0200901N006710042019N0020001N1+02071+01371101711ADDAA199000091GF106991061021004501001001KA1240M+02441MA1999999091881MD1999999-0031REMSYN088AAXX  26004 83339 32495 60913 10207 20137 39188 40171 86200 333 10244 29066 55069 59003;EQDQ01  00002PRCP99
0186833390999992001072612004-14040-042610FM-12+088299999V0200901N005110042019N0100001N1+01761+01521101961ADDAA199000091GF108991051021004501021999KA1240N+01551MA1999999092101MD1999999+0141REMSYN076AAXX  26124 83339 32497 80910 10176 20152 39210 40196 8522/ 333 20155 58014;EQDQ01  00002PRCP99
0167833390999992001072618004-14040-042610FM-12+088299999V0200501N006712200019N0100001N1+02431+01031101641ADDAA199000091GF102991021021004501001001MA1999999091831MD1999999+0111REMSYN070AAXX  26184 83339 32497 20513 10243 20103 39183 40164 82200 333 58011;EQDQ01  00002PRCP99
0208833390999992001072700004-14040-042610FM-12+088299999V0200501N004112200019N0020001N1+01951+00891101761ADDAA199000091GA1001+999999999GF100991001001999999001001KA1240M+02521MA1999999091911MD1999999+0031REMSYN082AAXX  27004 83339 32995 00508 10195 20089 39191 40176 333 10252 29057 55075 58003;EQDQ01  00002PRCP99
0186833390999992001072712004-14040-042610FM-12+088299999V0200501N005710042019N0100001N1+01811+01331102031ADDAA199000091GF106991061021004501001001KA1240N+01501MA1999999092151MD1999999+0051REMSYN076AAXX  27124 83339 32497 60511 10181 20133 39215 40203 86200 333 20150 58005;EQDQ01  00002PRCP99
0167833390999992001072718004-14040-042610FM-12+088299999V0200501N005712200019N0100001N1+02411+01081101641ADDAA199000091GF104991041021004501001001MA1999999091831MD1999999+0001REMSYN070AAXX  27184 83339 32497 40511 10241 20108 39183 40164 84200 333 58000;EQDQ01  00002PRCP99
0208833390999992001072800004-14040-042610FM-12+088299999V0201401N003112200019N0020001N1+01971+01261101861ADDAA199000091GA1001+999999999GF100991001001999999001001KA1240M+02451MA1999999092011MD1999999+0101REMSYN082AAXX  28004 83339 32995 01406 10197 20126 39201 40186 333 10245 29060 55078 58010;EQDQ01  00002PRCP99
0196833390999992001072812004-14040-042610FM-12+088299999V0200901N003112200019N0100001N1+01871+01361101971ADDAA199000091GA1001+999999999GF100991001001999999001001KA1240N+01501MA1999999092111MD1999999-0041REMSYN070AAXX  28124 83339 32997 00906 10187 20136 39211 40197 333 20150 59004;EQDQ01  00002PRCP99
0177833390999992001072818004-14040-042610FM-12+088299999V0200901N002112200019N0100001N1+02651+00761101471ADDAA199000091GA1001+999999999GF100991001001999999001001MA1999999091711MD1999999-0121REMSYN064AAXX  28184 83339 32997 00904 10265 20076 39171 40147 333 59012;EQDQ01  00002PRCP99
0208833390999992001072900004-14040-042610FM-12+088299999V0201401N003112200019N0020001N1+02071+01141101761ADDAA199000091GA1001+999999999GF100991001001999999001001KA1240M+02681MA1999999091931MD1999999-0081REMSYN082AAXX  29004 83339 32995 01406 10207 20114 39193 40176 333 10268 29053 55108 59008;EQDQ01  00002PRCP99
0186833390999992001072912004-14040-042610FM-12+088299999V0200901N004110042019N0100001N1+01871+01511101911ADDAA199000091GF106991061021004501001001KA1240N+01661MA1999999092061MD1999999-0051REMSYN076AAXX  29124 83339 32497 60908 10187 20151 39206 40191 86200 333 20166 59005;EQDQ01  00002PRCP99
0167833390999992001072918004-14040-042610FM-12+088299999V0200501N005712200019N0100001N1+02511+01031101571ADDAA199000091GF104991041021004501001001MA1999999091791MD1999999+0081REMSYN070AAXX  29184 83339 32497 40511 10251 20103 39179 40157 84200 333 58008;EQDQ01  00002PRCP99
0208833390999992001073000004-14040-042610FM-12+088299999V0200901N004112200019N0020001N1+02031+01131101871ADDAA199000091GA1001+999999999GF100991001001999999001001KA1240M+02621MA1999999092031MD1999999+0101REMSYN082AAXX  30004 83339 32995 00908 10203 20113 39203 40187 333 10262 29058 55054 58010;EQDQ01  00002PRCP99
0214833390999992001073012004-14040-042610FM-12+088299999V0200901N006710042019N0100001N1+01771+01501102081ADDAA199000091AY101061AY201061GF106991061021004501001001KA1240N+01561MA1999999092211MD1999999+0151MW1101REMSYN082AAXX  30124 83339 31497 60913 10177 20150 39221 40208 71000 86200 333 20156 58015;EQDQ01  00002PRCP99
0167833390999992001073018004-14040-042610FM-12+088299999V0200901N006212200019N0100001N1+02191+01121101691ADDAA199000091GF103991031021004501001001MA1999999091861MD1999999+0071REMSYN070AAXX  30184 83339 32497 30912 10219 20112 39186 40169 83200 333 58007;EQDQ01  00002PRCP99
0180833390999992001073112004-14040-042610FM-12+088299999V0200901N009310042019N0040001N1+01511+01441101221ADDAA124013091AY161061AY261061GF108991081051004501999999KA1240N+01481MD1999999+0071MW1101REMSYN082AAXX  31124 83339 21496 80918 10151 20144 40122 71066 885// 333 20148 58007 60134;
0137833390999992001073118004-14040-042610FM-12+088299999V0200901N002119999999N0100001N1+99999+99999999999ADDAA199000091GF106991999999004501999999REMSYN069AAXX  31184 83339 32497 60904 1017 20146 39203 40192 86200 333 58017;EQDQ01  00002PRCP99
0226833390999992001080100004-14040-042610FM-12+088299999V0200901N002610042019N0020001N1+01791+01581102111ADDAA199000091AY101061AY201061GF108991081051004501999999KA1240M+02081MA1999999092181MD1999999+0071MW1101REMSYN094AAXX  01004 83339 31495 80905 10179 20158 39218 40211 71000 885// 333 10208 29085 55004 58007;EQDQ01  00002PRCP99
0201833390999992001080112004-14040-042610FM-12+088299999V0201401N007710042019N0040001N1+01591+01501102221ADDAA124000591AY161061AY261061GF108991081051004501999999KA1240N+01481MA1999999092291MD1999999+0011MW1501REMSYN088AAXX  01124 83339 21496 81415 10159 20150 39229 40222 75066 885// 333 20148 58001 69964;
0176833390999992001080118004-14040-042610FM-12+088299999V0200901N004610042019N0100001N1+02131+01551101931ADDAA199000021AY151061AY201061GF106991061021004501001001MA1999999092051MD1999999+0021MW1021REMSYN076AAXX  01184 83339 31497 60909 10213 20155 39205 40193 70250 86200 333 58002;
0207833390999992001080200004-14040-042610FM-12+088299999V0201401N005110042019N0020001N1+01731+01641102201ADDAA199000021AY101061AY201061GF108991081051004501999999KA1240M+02181MA1999999092261MD1999999+0081MW1521REMSYN094AAXX  02004 83339 31495 81410 10173 20164 39226 40220 75200 885// 333 10218 29087 55022 58008;
0201833390999992001080212004-14040-042610FM-12+088299999V0200901N005710042019N0100001N1+01671+01411102211ADDAA124004191AY161061AY261061GF106991061021004501001001KA1240N+01471MA1999999092281MD1999999-0011MW1101REMSYN088AAXX  02124 83339 21497 60911 10167 20141 39228 40221 71066 86200 333 20147 59001 60044;
0167833390999992001080218004-14040-042610FM-12+088299999V0200901N006210042019N0100001N1+02171+01161101841ADDAA199000091GF107991061021004501021999MA1999999091991MD1999999-0061REMSYN070AAXX  02184 83339 32497 70912 10217 20116 39199 40184 8622/ 333 59006;EQDQ01  00002PRCP99
0213833390999992001080300004-14040-042610FM-12+088299999V0201401N004110042019N0020001N1+01611+01541102131ADDAA106001091AY161061AY261061GF108991081051004501999999KA1240M+02271MA1999999092191MD1999999-0071MW1101REMSYN100AAXX  03004 83339 21495 81408 10161 20154 39219 40213 71066 885// 333 10227 29082 55064 59007 60011;
0187833390999992001080312004-14040-042610FM-12+088299999V0200901N005110042019N0040001N1+01571+01531102181ADDAA124002091AY161061AY261061GF108991081051004501999999KA1240N+01461MA1999999092241MW1501REMSYN088AAXX  03124 83339 21496 80910 10157 20153 39224 40218 75066 885// 333 20146 59904 60024;
0182833390999992001080318004-14040-042610FM-12+088299999V0201401N006712200019N0100001N1+02191+01491101811ADDAA106001091AY161061AY261061GF104991041021004501001001MA1999999091951MD1999999-0041MW1021REMSYN082AAXX  03184 83339 21497 41413 10219 20149 39195 40181 70266 84200 333 59004 60011;
0213833390999992001080400004-14040-042610FM-12+088299999V0201401N005710042019N0020001N1+01751+01561102101ADDAA106000891AY161061AY261061GF108991081051004501999999KA1240M+02261MA1999999092171MD1999999-0021MW1101REMSYN100AAXX  04004 83339 21495 81411 10175 20156 39217 40210 71066 885// 333 10226 29084 55039 59002 69981;
0201833390999992001080412004-14040-042610FM-12+088299999V0201401N007710042019N0100001N1+01531+01251102111ADDAA124002091AY161061AY261061GF106991061021004501001001KA1240N+01301MA1999999092181MD1999999-0061MW1101REMSYN088AAXX  04124 83339 21497 61415 10153 20125 39218 40211 71066 86200 333 20130 59006 60024;
0167833390999992001080418004-14040-042610FM-12+088299999V0200501N006712200019N0100001N1+02171+01301101821ADDAA199000091GF104991041021004501001001MA1999999091951MD1999999+0001REMSYN070AAXX  04184 83339 32497 40513 10217 20130 39195 40182 84200 333 58000;EQDQ01  00002PRCP99
0226833390999992001080500004-14040-042610FM-12+088299999V0201401N006710042019N0020001N1+01731+01501102031ADDAA199000091AY101061AY201061GF106991051021004501021001KA1240M+02241MA1999999092111MD1999999-0061MW1101REMSYN094AAXX  05004 83339 31495 61413 10173 20150 39211 40203 71000 85220 333 10224 29078 55050 59006;EQDQ01  00002PRCP99
0214833390999992001080512004-14040-042610FM-12+088299999V0201401N005710042019N0100001N1+01631+01371102101ADDAA199000091AY101061AY201061GF106991061021004501001001KA1240N+01401MA1999999092181MD1999999+0001MW1101REMSYN082AAXX  05124 83339 31497 61411 10163 20137 39218 40210 71000 86200 333 20140 58000;EQDQ01  00002PRCP99
0167833390999992001080518004-14040-042610FM-12+088299999V0200501N009810042019N0100001N1+02191+01241101761ADDAA199000091GF105991051021004501001001MA1999999091921MD1999999-0031REMSYN070AAXX  05184 83339 32497 50519 10219 20124 39192 40176 85200 333 59003;EQDQ01  00002PRCP99
0226833390999992001080600004-14040-042610FM-12+088299999V0200901N001510042019N0020001N1+01951+01381102011ADDAA199000091AY101061AY201061GF106991061021004501001001KA1240M+02291MA1999999092131MD1999999+0021MW1101REMSYN094AAXX  06004 83339 31495 60903 10195 20138 39213 40201 71000 86200 333 10229 29069 55048 58002;EQDQ01  00002PRCP99
0186833390999992001080612004-14040-042610FM-12+088299999V0201401N004110042019N0100001N1+01661+01311102271ADDAA199000091GF106991061021004501001001KA1240N+01521MA1999999093361MD1999999+0181REMSYN076AAXX  06124 83339 32497 61408 10166 20131 39336 40227 86200 333 20152 58018;EQDQ01  00002PRCP99
0177833390999992001080618004-14040-042610FM-12+088299999V0200901N006712200019N0100001N1+02341+00871101821ADDAA199000091GA1001+999999999GF100991001001999999001001MA1999999091982MD1999999+0061REMSYN064AAXX  06184 83339 32497 00913 10234 20087 39198 40182 333 58006;EQDQ01  00002PRCP99
0198833390999992001080700004-14040-042610FM-12+088299999V0201401N006710042019N0020001N1+01931+01011102091ADDAA199000091GF105991051021004501001001KA1240M+02401MA1999999092201MD1999999+0071REMSYN088AAXX  07004 83339 32495 51413 10193 20101 39220 40209 85200 333 10240 29071 55057 58007;EQDQ01  00002PRCP99
0186833390999992001080712004-14040-042610FM-12+088299999V0200901N008210042019N0100001N1+01691+01151102271ADDAA199000091GF105991051021004501001001KA1240N+01441MA1999999092361MD1999999+0001REMSYN076AAXX  07124 83339 32497 50916 10169 20115 39236 40227 85200 333 20144 58000;EQDQ01  00002PRCP99
0177833390999992001080718004-14040-042610FM-12+088299999V0200901N005112200019N0100001N1+02391+00721101841ADDAA199000091GA1001+999999999GF100991001001999999001001MA1999999091991MD1999999+0011REMSYN064AAXX  07184 83339 32997 00910 10239 20072 39199 40184 333 58001;EQDQ01  00002PRCP99
0198833390999992001080800004-14040-042610FM-12+088299999V0201401N006710042019N0020001N1+02041+00961101981ADDAA199000091GF106991061021004501001001KA1240M+02441MA1999999092141MD1999999-0061REMSYN088AAXX  08004 83339 32495 61413 10204 20096 39214 40198 86200 333 10244 29051 55105 59006;EQDQ01  00002PRCP99
0201833390999992001080812004-14040-042610FM-12+088299999V0200901N005110042019N0100001N1+01561+01251102231ADDAA124001091AY161061AY221061GF108991051021004501021999KA1240N+01421MA1999999092331MD1999999-0031MW1021REMSYN088AAXX  08124 83339 21497 80910 10156 20125 39233 40223 70262 8522/ 333 20142 59003 60014;
0167833390999992001080818004-14040-042610FM-12+088299999V0200501N005112200019N0100001N1+02351+01201101811ADDAA199000091GF103991031021004501001001MA1999999091961MD1999999-0031REMSYN070AAXX  08184 83339 32497 30510 10235 20120 39196 40181 83200 333 59003;EQDQ01  00002PRCP99
0208833390999992001080900004-14040-042610FM-12+088299999V0200901N006712200019N0020001N1+02011+01031101961ADDAA199000091GA1001+999999999GF100991001001999999001001KA1240M+02421MA1999999092081MD1999999-0061REMSYN082AAXX  09004 83339 32995 00913 10201 20103 39208 40196 333 10242 29059 55062 59006;EQDQ01  00002PRCP99
0186833390999992001080912004-14040-042610FM-12+088299999V0200901N006712200019N0100001N1+01721+01231102211ADDAA199000091GF105991041021004501001011KA1240N+01451MA1999999092321MD1999999-0011REMSYN076AAXX  09124 83339 32497 50913 10172 20123 39232 40221 84201 333 20145 59001;EQDQ01  00002PRCP99
0167833390999992001080918004-14040-042610FM-12+088299999V0201401N005112200019N0100001N1+02371+01011101731ADDAA199000091GF102991021021004501001001MA1999999091991MD1999999+0031REMSYN070AAXX  09184 83339 32497 21410 10237 20101 39199 40173 82200 333 58003;EQDQ01  00002PRCP99
0198833390999992001081000004-14040-042610FM-12+088299999V0200901N005110042019N0020001N1+02011+01111101981ADDAA199000091GF106991061021004501001001KA1240M+02441MA1999999092111MD1999999+0031REMSYN088AAXX  10004 83339 32495 60910 10201 20111 39211 40198 86200 333 10244 29057 55098 58003;EQDQ01  00002PRCP99
0186833390999992001081012004-14040-042610FM-12+088299999V0200901N004110042019N0100001N1+01711+01211102111ADDAA199000091GF106991061021004501001001KA1240N+01481MA1999999092231MD1999999-0091REMSYN076AAXX  10124 83339 32497 60908 10171 20121 39223 40211 86200 333 20148 59009;EQDQ01  00002PRCP99
0198833390999992001081100004-14040-042610FM-12+088299999V0200901N003112200019N0020001N1+01911+01131101971ADDAA199000091GF102991021021004501001001KA1240M+02371MA1999999092111MD1999999+0001REMSYN088AAXX  11004 83339 32495 20906 10191 20113 39211 40197 82200 333 10237 29058 55074 58000;EQDQ01  00002PRCP99
0186833390999992001081112004-14040-042610FM-12+088299999V0200901N004110042019N0100001N1+01791+01291102171ADDAA199000091GF106991061021004501001001KA1240N+01491MA1999999092281MD1999999+0051REMSYN076AAXX  11124 83339 32497 60908 10179 20129 39228 40217 86200 333 20149 58005;EQDQ01  00002PRCP99
0167833390999992001081118004-14040-042610FM-12+088299999V0200501N003110042019N0100001N1+02351+01201101761ADDAA199000091GF106991061021004501001001MA1999999091941MD1999999+0031REMSYN070AAXX  11184 83339 32497 60506 10235 20120 39194 40176 86200 333 58003;EQDQ01  00002PRCP99
0208833390999992001081200004-14040-042610FM-12+088299999V0200901N005112200019N0020001N1+01971+01211102001ADDAA199000091GA1001+999999999GF100991001001999999001001KA1240M+02381MA1999999092151MD1999999+0041REMSYN082AAXX  12004 83339 32995 00910 10197 20121 39215 40200 333 10238 29060 55051 58004;EQDQ01  00002PRCP99
0186833390999992001081212004-14040-042610FM-12+088299999V0200901N007710042019N0100001N1+01751+01371102171ADDAA199000091GF108991051021004501021999KA1240N+01521MA1999999092281MD1999999+0001REMSYN076AAXX  12124 83339 32497 80915 10175 20137 39228 40217 8522/ 333 20152 58000;EQDQ01  00002PRCP99
0167833390999992001081218004-14040-042610FM-12+088299999V0200901N007710042019N0100001N1+02251+01281101891ADDAA199000091GF106991061021004501001001MA1999999092041MD1999999+0101REMSYN070AAXX  12184 83339 32497 60915 10225 20128 39204 40189 86200 333 58010;EQDQ01  00002PRCP99
0198833390999992001081300004-14040-042610FM-12+088299999V0200901N008212200019N0020001N1+01981+01161102061ADDAA199000091GF102991021021004501001001KA1240M+02301MA1999999092181MD1999999+0031REMSYN088AAXX  13004 83339 32495 20916 10198 20116 39218 40206 82200 333 10230 29062 55019 58003;EQDQ01  00002PRCP99
0214833390999992001081312004-14040-042610FM-12+088299999V0201401N009310042019N0040001N1+01591+01481102121ADDAA199000091AY101061AY201061GF107991061021004501021999KA1240N+01481MA1999999092231MD1999999-0051MW1101REMSYN082AAXX  13124 83339 31496 71418 10159 20148 39223 40212 71000 8622/ 333 20148 59005;EQDQ01  00002PRCP99
0167833390999992001081318004-14040-042610FM-12+088299999V0201401N010810042019N0100001N1+02241+01091101761ADDAA199000091GF106991051021004501001021MA1999999091931MD1999999-0111REMSYN070AAXX  13184 83339 32497 61421 10224 20109 39193 40176 85202 333 59011;EQDQ01  00002PRCP99
0226833390999992001081400004-14040-042610FM-12+088299999V0200901N004612200019N0020001N1+01751+01431102081ADDAA199000091AY101061AY201061GF103991031021004501001001KA1240M+02301MA1999999092151MD1999999-0031MW1101REMSYN094AAXX  14004 83339 31495 30909 10175 20143 39215 40208 71000 83200 333 10230 29073 55064 59003;EQDQ01  00002PRCP99
0186833390999992001081412004-14040-042610FM-12+088299999V0201401N008210042019N0100001N1+01671+01261102121ADDAA199000091GF105991051021004501001001KA1240N+01441MA1999999092201MD1999999-0031REMSYN076AAXX  14124 83339 32497 51416 10167 20126 39220 40212 85200 333 20144 59003;EQDQ01  00002PRCP99
0167833390999992001081418004-14040-042610FM-12+088299999V0200901N002612200019N0100001N1+02171+01011101781ADDAA199000091GF104991041021004501001001MA1999999091931MD1999999+0001REMSYN070AAXX  14184 83339 32497 40905 10217 20101 39193 40178 84200 333 58000;EQDQ01  00002PRCP99
0198833390999992001081500004-14040-042610FM-12+088299999V0200901N002610042019N0020001N1+01911+01321101951ADDAA199000091GF106991061021004501001001KA1240M+02291MA1999999092071MD1999999-0081REMSYN088AAXX  15004 83339 32495 60905 10191 20132 39207 40195 86200 333 10229 29065 55097 59008;EQDQ01  00002PRCP99
0186833390999992001081512004-14040-042610FM-12+088299999V0201401N005112200019N0100001N1+01711+01211102111ADDAA199000091GF104991041021004501001001KA1240N+01361MA1999999092221MD1999999+0021REMSYN076AAXX  15124 83339 32497 41410 10171 20121 39222 40211 84200 333 20136 58002;EQDQ01  00002PRCP99
0167833390999992001081518004-14040-042610FM-12+088299999V0200901N006212200019N0100001N1+02271+01011101771ADDAA199000091GF102991021021004501001001MA1999999091931MD1999999+0001REMSYN070AAXX  15184 83339 32497 20912 10227 20101 39193 40177 82200 333 58000;EQDQ01  00002PRCP99
0198833390999992001081600004-14040-042610FM-12+088299999V0201801N003112200019N0020001N1+02011+00931102001ADDAA199000091GF102991021021004501001001KA1240M+02341MA1999999092131MD1999999+0061REMSYN088AAXX  16004 83339 32495 21806 10201 20093 39213 40200 82200 333 10234 29055 55105 58006;EQDQ01  00002PRCP99
0186833390999992001081612004-14040-042610FM-12+088299999V0200901N005712200019N0100001N1+01731+01121102211ADDAA199000091GF102991021021004501001001KA1240N+01301MA1999999092311MD1999999+0091REMSYN076AAXX  16124 83339 32497 20911 10173 20112 39231 40221 82200 333 20130 58009;EQDQ01  00002PRCP99
0167833390999992001081618004-14040-042610FM-12+088299999V0200501N007712200019N0100001N1+02331+00691101731ADDAA199000091GF102991021021004501001001MA1999999091901MD1999999-0031REMSYN070AAXX  16184 83339 32497 20515 10233 20069 39190 40173 82200 333 59003;EQDQ01  00002PRCP99
0198833390999992001081700004-14040-042610FM-12+088299999V0201401N007212200019N0020001N1+01811+01131102001ADDAA199000091GF103991031021004501001001KA1240M+02401MA1999999092111MD1999999-0021REMSYN088AAXX  17003 83339 32495 31414 10181 20113 39211 40200 83200 333 10240 29058 55103 59002;EQDQ01  00002PRCP99
0186833390999992001081712004-14040-042610FM-12+088299999V0201401N004610042019N0100001N1+01751+01231102181ADDAA199000091GF105991051021004501001001KA1240N+01561MA1999999092281MD1999999-0031REMSYN076AAXX  17124 83339 32497 51409 10175 20123 39228 40218 85200 333 20156 59003;EQDQ01  00002PRCP99
0167833390999992001081718004-14040-042610FM-12+088299999V0201401N005712200019N0100001N1+02291+01891101761ADDAA199000091GF104991041021004501001001MA1999999091921MD1999999+0021REMSYN070AAXX  17184 83339 32497 41411 10229 20189 39192 40176 84200 333 58002;EQDQ01  00002PRCP99
0198833390999992001081800004-14040-042610FM-12+088299999V0200901N005110042019N0020001N1+02051+01111101941ADDAA199000091GF105991051021004501001001KA1240M+02421MA1999999092081MD1999999-0031REMSYN088AAXX  18004 83339 32495 50910 10205 20111 39208 40194 85200 333 10242 29056 55086 59003;EQDQ01  00002PRCP99
0214833390999992001081812004-14040-042610FM-12+088299999V0201401N007710042019N0040001N1+01651+01351102011ADDAA199000091AY101061AY201061GF108991081051004501999999KA1240N+01441MA1999999092141MD1999999+0141MW1101REMSYN082AAXX  18124 83339 31496 81415 10165 20135 39214 40201 71000 885// 333 20144 58014;EQDQ01  00002PRCP99
0167833390999992001081818004-14040-042610FM-12+088299999V0201401N004112200019N0100001N1+02451+00991101641ADDAA199000091GF102991021021004501001001MA1999999091831MD1999999-0091REMSYN070AAXX  18184 83339 32497 21408 10245 20099 39183 40164 82200 333 59009;EQDQ01  00002PRCP99
0208833390999992001081900004-14040-042610FM-12+088299999V0200901N004612200019N0020001N1+02091+01331101891ADDAA199000091GA1001+999999999GF100991001001999999001001KA1240M+02561MA1999999092031MD1999999-0051REMSYN082AAXX  19004 83339 32995 00909 10209 20133 39203 40189 333 10256 29062 55080 59005;EQDQ01  00002PRCP99
0186833390999992001081912004-14040-042610FM-12+088299999V0201401N006212200019N0100001N1+01831+01221102031ADDAA199000091GF103991031021004501001001KA1240N+01481MA1999999092171MD1999999+0031REMSYN076AAXX  19124 83339 32497 31412 10183 20122 39217 40203 83200 333 20148 58003;EQDQ01  00002PRCP99
0177833390999992001081918004-14040-042610FM-12+088299999V0201401N008712200019N0100001N1+02491+00831101651ADDAA199000091GA1001+999999999GF100991001001999999001001MA1999999091861MD1999999+0031REMSYN064AAXX  19184 83339 32997 01417 10249 20083 39186 40165 333 58003;EQDQ01  00002PRCP99
0178833390999992001082000004-14040-042610FM-12+088299999V0201401N015912200019N0020001N1+01891+01011999999ADDAA199000091GA1001+999999999GF100991001001999999001001KA1240M+02581REMSYN081AAXX  20004 83339 32995 01431 10189 20101 9210 40197 333 10258 29055 55106 58007;EQDQ01  00002PRCP99
0186833390999992001082012004-14040-042610FM-12+088299999V0201401N007710042019N0100001N1+01731+01291102321ADDAA199000091GF106991061021004501001001KA1240N+01381MA1999999092411MD1999999+0241REMSYN076AAXX  20124 83339 32497 61415 10173 20129 39241 40232 86200 333 20138 58024;EQDQ01  00002PRCP99
0167833390999992001082018004-14040-042610FM-12+088299999V0200901N002612200019N0100001N1+02451+01121101811ADDAA199000091GF102991021011004501001001MA1999999091971MD1999999+0111REMSYN070AAXX  20184 83339 32497 20905 10245 20112 39197 40181 82100 333 58011;EQDQ01  00002PRCP99
0208833390999992001082100004-14040-042610FM-12+088299999V0201401N005712200019N0020001N1+02031+01191101981ADDAA199000091GA1001+999999999GF100991001001999999001001KA1240M+02501MA1999999092121MD1999999+0021REMSYN082AAXX  21004 83339 32995 01411 10203 20119 39212 40198 333 10250 29058 55089 58002;EQDQ01  00002PRCP99
0186833390999992001082112004-14040-042610FM-12+088299999V0201401N005710042019N0100001N1+01821+01311102111ADDAA199000091GF106991061021004501001001KA1240N+01561MA1999999092241MD1999999-0141REMSYN076AAXX  21124 83339 32497 61411 10182 20131 39224 40211 86200 333 20156 59014;EQDQ01  00002PRCP99
0167833390999992001082118004-14040-042610FM-12+088299999V0200501N002610042019N0100001N1+02591+01061101601ADDAA199000091GF105991051021004501001001MA1999999091821MD1999999-0151REMSYN070AAXX  21184 83339 32497 50505 10259 20106 39182 40160 85200 333 59015;EQDQ01  00002PRCP99
0208833390999992001082200004-14040-042610FM-12+088299999V0201401N003612200019N0020001N1+02231+01051101791ADDAA199000091GA1001+999999999GF100991001001999999001001KA1240M+02681MA1999999091961MD1999999-0161REMSYN082AAXX  22004 83339 32995 01407 10223 20105 39196 40179 333 10268 29051 55083 59016;EQDQ01  00002PRCP99
0167833390999992001082218004-14040-042610FM-12+088299999V0201401N002610042019N0100001N1+02781+01301101521ADDAA199000091GF105991051021004501001001MA1999999091771MD1999999-0051REMSYN070AAXX  22184 83339 32497 51405 10278 20130 39177 40152 85200 333 59005;EQDQ01  00002PRCP99
0208833390999992001082300004-14040-042610FM-12+088299999V0200901N004112200019N0020001N1+02311+01391101751ADDAA199000091GA1001+999999999GF100991001001999999001001KA1240M+02881MA1999999091961MD1999999+0001REMSYN082AAXX  23004 83339 32995 00908 10231 20139 39196 40175 333 10288 29057 55086 58000;EQDQ01  00002PRCP99
0167833390999992001082312004-14040-042610FM-12+088299999V0201401N002610042019N0100001N1+02781+01301101521ADDAA199000091GF105991051021004501001001MA1999999091771MD1999999-0051REMSYN070AAXX  23124 83339 32497 51405 10278 20130 39177 40152 85200 333 59005;EQDQ01  00002PRCP99
0167833390999992001082318004-14040-042610FM-12+088299999V0200901N005112200019N0100001N1+02731+00921101451ADDAA199000091GF104991011011004501001011MA1999999091711MD1999999-0061REMSYN070AAXX  23184 83339 32497 40910 10273 20092 39171 40145 81101 333 59006;EQDQ01  00002PRCP99
0208833390999992001082400004-14040-042610FM-12+088299999V0200901N005712200019N0020001N1+02231+01401101701ADDAA199000091GA1001+999999999GF100991001001999999001001KA1240M+02781MA1999999091911MD1999999-0051REMSYN082AAXX  24004 83339 32995 00911 10223 20140 39191 40170 333 10278 29059 55071 59005;EQDQ01  00002PRCP99
0202833390999992001082412004-14040-042610FM-12+088299999V0200901N005112200019N0100001N1+01901+01361101941ADDAA199000091GF102991001001999999001011KA1240N+01511MA1999999092111MD1999999-0071REMSYN076AAXX  24124 83339 32897 20910 10190 20136 39211 40194 80001 333 20151 59007;EQDQ01+022502SCOLCBQ02  00002PRCP99
0214833390999992001082500004-14040-042610FM-12+088299999V0200901N004612200019N0020001N1+02311+01031101531ADDAA199000091GF103991001001999999001041KA1240M+02821MA1999999091751MD1999999-0161REMSYN088AAXX  25004 83339 32895 30909 10231 20103 39175 40153 80004 333 10282 29047 55107 59016;EQDQ01+022502SCOLCBQ02  00002PRCP99
0186833390999992001082512004-14040-042610FM-12+088299999V0201401N006210042019N0100001N1+01871+01511101781ADDAA199000091GF106991061021004501001001KA1240N+01631MA1999999091971MD1999999-0141REMSYN076AAXX  25124 83339 32497 61412 10187 20151 39197 40178 86200 333 20163 59014;EQDQ01  00002PRCP99
0198833390999992001082600004-14040-042610FM-12+088299999V0201401N005112200019N0020001N1+02351+00961101511ADDAA199000091GF102991011011004501001041KA1240M+02821MA1999999091741MD1999999-0011REMSYN088AAXX  26004 83339 32495 21410 10235 20096 39174 40151 81104 333 10282 29049 55070 59001;EQDQ01  00002PRCP99
0202833390999992001082612004-14040-042610FM-12+088299999V0201401N003112200019N0100001N1+01951+01501101771ADDAA199000091GF103991001001999999001041KA1240N+01661MA1999999091981MD1999999+0011REMSYN076AAXX  26124 83339 32897 31406 10195 20150 39198 40177 80004 333 20166 58001;EQDQ01+022502SCOLCBQ02  00002PRCP99
0183833390999992001082618004-14040-042610FM-12+088299999V0200501N003612200019N0100001N1+02751+01031101311ADDAA199000091GF104991001001999999001041MA1999999091591MD1999999-0031REMSYN070AAXX  26184 83339 32897 40507 10275 20103 39159 40131 80004 333 59003;EQDQ01+022502SCOLCBQ02  00002PRCP99
0198833390999992001082700004-14040-042610FM-12+088299999V0201401N004112200019N0020001N1+02291+01141101611ADDAA199000091GF102991011011004501001011KA1240M+02801MA1999999091831MD1999999+0091REMSYN088AAXX  27004 83339 32495 21408 10229 20114 39183 40161 81101 333 10280 29051 55062 58009;EQDQ01  00002PRCP99
0186833390999992001082712004-14040-042610FM-12+088299999V0201401N008212200019N0100001N1+01951+01551101811ADDAA199000091GF104991041021004501001001KA1240N+01631MA1999999092001MD1999999+0021REMSYN076AAXX  27124 83339 32497 41416 10195 20155 39200 40181 84200 333 20163 58002;EQDQ01  00002PRCP99
0167833390999992001082718004-14040-042610FM-12+088299999V0201401N003112200019N0100001N1+02791+01181101451ADDAA199000091GF102991021021004501001001MA1999999091731MD1999999+0141REMSYN070AAXX  27184 83339 32497 21406 10279 20118 39173 40145 82200 333 58014;EQDQ01  00002PRCP99
0208833390999992001082800004-14040-042610FM-12+088299999V0200901N002112200019N0020001N1+02251+01051101621ADDAA199000091GA1001+999999999GF100991001001999999001001KA1240M+02841MA1999999091841MD1999999+0011REMSYN082AAXX  28004 83339 32995 00904 10225 20105 39184 40162 333 10284 29052 55097 58001;EQDQ01  00002PRCP99
0196833390999992001082812004-14040-042610FM-12+088299999V0201401N004612200019N0100001N1+02031+01561101791ADDAA199000091GA1001+999999999GF100991001001999999001001KA1240N+01601MA1999999092001MD1999999+0001REMSYN070AAXX  28124 83339 32997 01409 10203 20156 39200 40179 333 20160 58000;EQDQ01  00002PRCP99
0167833390999992001082818004-14040-042610FM-12+088299999V0200501N005112200019N0100001N1+02791+01261101391ADDAA199000091GF102991021021004501001001MA1999999091651MD1999999-0081REMSYN070AAXX  28184 83339 32497 20510 10279 20126 39165 40139 82200 333 59008;EQDQ01  00002PRCP99
0208833390999992001082900004-14040-042610FM-12+088299999V0201401N005712200019N0020001N1+02251+01431101571ADDAA199000091GA1001+999999999GF100991001001999999001001KA1240M+02841MA1999999091801MD1999999-0041REMSYN082AAXX  29004 83339 32995 01411 10225 20143 39180 40157 333 10284 29058 55105 59004;EQDQ01  00002PRCP99
0214833390999992001082912004-14040-042610FM-12+088299999V0201401N005110042019N0040001N1+01911+01641101801ADDAA199000091AY101061AY201061GF108991081051004501999999KA1240N+01701MA1999999091991MD1999999-0011MW1101REMSYN082AAXX  29124 83339 31496 81410 10191 20164 39199 40180 71000 885// 333 20170 59001;EQDQ01  00002PRCP99
0167833390999992001082918004-14040-042610FM-12+088299999V0200501N006212200019N0100001N1+02511+01451101391ADDAA199000091GF102991021021004501001001MA1999999091641MD1999999-0011REMSYN070AAXX  29184 83339 32497 20512 10251 20145 39164 40139 82200 333 59001;EQDQ01  00002PRCP99
0208833390999992001083000004-14040-042610FM-12+088299999V0200901N005112200019N0020001N1+02071+01601101711ADDAA199000091GA1001+999999999GF100991001001999999001001KA1240M+02591MA1999999091891MD1999999+0091REMSYN082AAXX  30004 83339 32995 00910 10207 20160 39189 40171 333 10259 29070 55071 58009;EQDQ01  00002PRCP99
0186833390999992001083012004-14040-042610FM-12+088299999V0201401N009310042019N0100001N1+01931+01511101981ADDAA199000091GF106991061021004501001001KA1240N+01561MA1999999092141MD1999999+0151REMSYN076AAXX  30124 83339 32497 61418 10193 20151 39214 40198 86200 333 20156 58015;EQDQ01  00002PRCP99
0167833390999992001083018004-14040-042610FM-12+088299999V0201401N008712200019N0100001N1+02531+01241101601ADDAA199000091GF103991021021004501021001MA1999999091791MD1999999+0151REMSYN070AAXX  30184 83339 32497 31417 10253 20124 39179 40160 82220 333 58015;EQDQ01  00002PRCP99
0198833390999992001083100004-14040-042610FM-12+088299999V0201401N004112200019N0020001N1+02131+01311101751ADDAA199000091GF102991021021004501001001KA1240M+02601MA1999999091941MD1999999+0131REMSYN088AAXX  31004 83339 32495 21408 10213 20131 39194 40175 82200 333 10260 29060 55104 58013;EQDQ01  00002PRCP99
0201833390999992001083112004-14040-042610FM-12+088299999V0201401N011310042019N0040001N1+01771+01611101951ADDAA124001091AY161061AY261061GF108991081051004501999999KA1240N+01681MA1999999092101MD1999999-0041MW1101REMSYN088AAXX  31124 83339 31496 81422 10177 20161 39210 40195 71066 885// 333 20168 59004 60014;
0167833390999992001083118004-14040-042610FM-12+088299999V0200901N007710042019N0040001N1+02271+01371101601ADDAA199000091GF107991061021004501021999MA1999999091791MD1999999+0001REMSYN070AAXX  31184 83339 32496 70915 10227 20137 39179 40160 8622/ 333 58000;EQDQ01  00002PRCP99
0198833390999992001090100004-14040-042610FM-12+088299999V02099999999990042019N0020001N1+01991+01521101771ADDAA199000091GF106991061021004501001001KA1240M+02681MA1999999091931MD1999999-0011REMSYN088AAXX  01004 83339 32495 6//11 10199 20152 39193 40177 86200 333 10268 29073 55019 59001;EQDQ01  00002PRCP99
0186833390999992001090112004-14040-042610FM-12+088299999V0201401N007710042019N0100001N1+01871+01431101901ADDAA199000091GF106991051021004501031001KA1240N+01681MA1999999092051MD1999999-0051REMSYN076AAXX  01124 83339 32497 61415 10187 20143 39205 40190 85230 333 20168 59005;EQDQ01  00002PRCP99
0167833390999992001090118004-14040-042610FM-12+088299999V0200501N004112200019N0100001N1+02551+01261101401ADDAA199000091GF102991021021004501001001MA1999999091641MD1999999-0151REMSYN070AAXX  01184 83339 32497 20508 10255 20126 39164 40140 82200 333 59015;EQDQ01  00002PRCP99
0198833390999992001090200004-14040-042610FM-12+088299999V0201401N005710042019N0020001N1+02111+01491101701ADDAA199000091GF105991051021004501001001KA1240M+02591MA1999999091881MD1999999-0051REMSYN088AAXX  02004 83339 32495 51411 10211 20149 39188 40170 85200 333 10259 29064 55104 59005;EQDQ01  00002PRCP99
0201833390999992001090212004-14040-042610FM-12+088299999V02099999999990042019N0040001N1+01671+01631101851ADDAA124002091AY171061AY271061GF108991081051004501999999KA1240N+01581MA1999999092001MD1999999-0051MW1501REMSYN088AAXX  02124 83339 31496 814// 10167 20163 39200 40185 75077 885// 333 20158 59005 60024;
0176833390999992001090218004-14040-042610FM-12+088299999V0200501N003112200019N0100001N1+02531+01491101361ADDAA199000021AY151061AY201061GF104991041021004501001001MA1999999091601MD1999999-0041MW1021REMSYN076AAXX  02184 83339 31497 40506 10253 20149 39160 40136 70250 84200 333 59004;
0179833390999992001090300004-14040-042610FM-12+088299999V0201401N006212200019N0020001N1+02091+01451101631ADDAA199000021GF102991021021004501001001KA1240M+02841MA1999999091801MD1999999-0081REMSYN088AAXX  03004 83339 32495 21412 10209 20145 39180 40163 82200 333 10284 29069 55069 59008;
0186833390999992001090312004-14040-042610FM-12+088299999V0201401N006710042019N0100001N1+01831+01511101811ADDAA199000091GF106991061021004501001001KA1240N+01521MA1999999091971MD1999999-0031REMSYN076AAXX  03124 83339 32497 61413 10183 20151 39197 40181 86200 333 20152 59003;EQDQ01  00002PRCP99
0167833390999992001090318004-14040-042610FM-12+088299999V0200901N005112200019N0100001N1+02461+01411101331ADDAA199000091GF102991021021004501001001MA1999999091561MD1999999-0041REMSYN070AAXX  03184 83339 32497 20910 10246 20141 39156 40133 82200 333 59004;EQDQ01  00002PRCP99
0208833390999992001090400004-14040-042610FM-12+088299999V0200901N004112200019N0020001N1+02111+01151101601ADDAA199000091GA1001+999999999GF100991001001999999001001KA1240M+02521MA1999999091781MD1999999-0021REMSYN082AAXX  04004 83339 32995 00908 10211 20115 39178 40160 333 10252 29060 55087 59002;EQDQ01  00002PRCP99
0186833390999992001090412004-14040-042610FM-12+088299999V0201401N004112200019N0100001N1+01911+01451101821ADDAA199000091GF102991021021004501001001KA1240N+01531MA1999999091991MD1999999+0021REMSYN076AAXX  04124 83339 32497 21408 10191 20145 39199 40182 82200 333 20153 58002;EQDQ01  00002PRCP99
0167833390999992001090418004-14040-042610FM-12+088299999V0201401N004112200019N0100001N1+02811+01091101301ADDAA199000091GF102991021021004501001001MA1999999091561MD1999999+0001REMSYN070AAXX  04184 83339 32497 21408 10281 20109 39156 40130 82200 333 58000;EQDQ01  00002PRCP99
0208833390999992001090500004-14040-042610FM-12+088299999V0201401N003112200019N0020001N1+02241+01121101501ADDAA199000091GA1001+999999999GF100991001001999999001001KA1240M+02831MA1999999091721MD1999999-0061REMSYN082AAXX  05004 83339 32995 01406 10224 20112 39172 40150 333 10283 29052 55109 59006;EQDQ01  00002PRCP99
0186833390999992001090512004-14040-042610FM-12+088299999V0201401N006712200019N0100001N1+01981+01501101651ADDAA199000091GF104991041021004501001001KA1240N+01671MA1999999091861MD1999999-0131REMSYN076AAXX  05124 83339 32497 41413 10198 20150 39186 40165 84200 333 20167 59013;EQDQ01  00002PRCP99
0177833390999992001090518004-14040-042610FM-12+088299999V0200901N003112200019N0100001N1+02681+01051101241ADDAA199000091GA1001+999999999GF100991001001999999001001MA1999999091511MD1999999-0051REMSYN064AAXX  05184 83339 32997 00906 10268 20105 39151 40124 333 59005;EQDQ01  00002PRCP99
0208833390999992001090600004-14040-042610FM-12+088299999V0200901N002612200019N0020001N1+02231+01051101491ADDAA199000091GA1001+999999999GF100991001001999999001001KA1240M+02741MA1999999091721MD1999999+0001REMSYN082AAXX  06004 83339 32995 00905 10223 20105 39172 40149 333 10274 29051 55090 58000;EQDQ01  00002PRCP99
0186833390999992001090612004-14040-042610FM-12+088299999V0201401N003110042019N0100001N1+01991+01351101711ADDAA199000091GF105991051021004501001001KA1240N+01631MA1999999091921MD1999999+0061REMSYN076AAXX  06124 83339 32497 51406 10199 20135 39192 40171 85200 333 20163 58006;EQDQ01  00002PRCP99
0177833390999992001090618004-14040-042610FM-12+088299999V0200901N004112200019N0100001N1+02601+00891101201ADDAA199000091GA1001+999999999GF100991001001999999001001MA1999999091471MD1999999-0041REMSYN064AAXX  06184 83339 32997 00908 10260 20089 39147 40120 333 59004;EQDQ01  00002PRCP99
0208833390999992001090700004-14040-042610FM-12+088299999V0209999C000012200019N0020001N1+02541+00691101381ADDAA199000091GA1001+999999999GF100991001001999999001001KA1240M+02681MA1999999091611MD1999999+0111REMSYN082AAXX  07004 83339 32995 00000 10254 20069 39161 40138 333 10268 29044 55103 58011;EQDQ01  00002PRCP99
0186833390999992001090712004-14040-042610FM-12+088299999V0201401N004110042019N0100001N1+01861+01471101591ADDAA199000091GF106991061021004501001001KA1240N+01661MA1999999091781MD1999999-0141REMSYN076AAXX  07124 83339 32497 61408 10186 20147 39178 40159 86200 333 20166 59014;EQDQ01  00002PRCP99
0167833390999992001090718004-14040-042610FM-12+088299999V0200901N002612200019N0100001N1+02701+01071101091ADDAA199000091GF103991031021004501001001MA1999999091371MD1999999-0101REMSYN070AAXX  07184 83339 32497 30905 10270 20107 39137 40109 83200 333 59010;EQDQ01  00002PRCP99
0208833390999992001090800004-14040-042610FM-12+088299999V0201401N004112200019N0020001N1+02291+01141101261ADDAA199000091GA1001+999999999GF100991001001999999001001KA1240M+02761MA1999999091501MD1999999-0111REMSYN082AAXX  08004 83339 32995 01408 10229 20114 39150 40126 333 10276 29052 55088 59011;EQDQ01  00002PRCP99
0186833390999992001090812004-14040-042610FM-12+088299999V0201401N003110042019N0100001N1+01871+01471101591ADDAA199000091GF106991061021004501001001KA1240N+01721MA1999999091811MD1999999+0031REMSYN076AAXX  08124 83339 32497 61406 10187 20147 39181 40159 86200 333 20172 58003;EQDQ01  00002PRCP99
0167833390999992001090818004-14040-042610FM-12+088299999V0200901N002612200019N0100001N1+02641+00971101091ADDAA199000091GF103991031021004501001001MA1999999091381MD1999999+0011REMSYN070AAXX  08184 83339 32497 30905 10264 20097 39138 40109 83200 333 58001;EQDQ01  00002PRCP99
0208833390999992001090900004-14040-042610FM-12+088299999V0201401N002612200019N0020001N1+02171+01121101341ADDAA199000091GA1001+999999999GF100991001001999999001001KA1240M+02731MA1999999091561MD1999999+0061REMSYN082AAXX  09004 83339 32995 01405 10217 20112 39156 40134 333 10273 29054 55081 58006;EQDQ01  00002PRCP99
0196833390999992001090912004-14040-042610FM-12+088299999V0200501N003112200019N0100001N1+02151+01501101541ADDAA199000091GA1001+999999999GF100991001001999999001001KA1240N+01481MA1999999091771MD1999999-0041REMSYN070AAXX  09124 83339 32997 00506 10215 20150 39177 40154 333 20148 59004;EQDQ01  00002PRCP99
0167833390999992001090918004-14040-042610FM-12+088299999V0200501N002612200019N0100001N1+02971+00771101091ADDAA199000091GF102991021011008001001001MA1999999091401MD1999999+0021REMSYN070AAXX  09184 83339 32597 20505 10297 20077 39140 40109 82100 333 58002;EQDQ01  00002PRCP99
0208833390999992001091000004-14040-042610FM-12+088299999V0200901N003112200019N0020001N1+02441+00661101331ADDAA199000091GA1001+999999999GF100991001001999999001001KA1240M+03021MA1999999091611MD1999999+0051REMSYN082AAXX  10004 83339 32995 00906 10244 20066 39161 40133 333 10302 29039 55107 58005;EQDQ01  00002PRCP99
0186833390999992001091012004-14040-042610FM-12+088299999V0201401N004112200019N0100001N1+02191+01491101471ADDAA199000091GF102991021021004501001001KA1240N+01601MA1999999091741MD1999999-0031REMSYN076AAXX  10124 83339 32497 21408 10219 20149 39174 40147 82200 333 20160 59003;EQDQ01  00002PRCP99
0167833390999992001091018004-14040-042610FM-12+088299999V0201401N003110042019N0100001N1+03051+00761100971ADDAA199000091GF106991061021004501001001MA1999999091331MD1999999-0071REMSYN070AAXX  10184 83339 32497 61406 10305 20076 39133 40097 86200 333 59007;EQDQ01  00002PRCP99
0208833390999992001091100004-14040-042610FM-12+088299999V0201401N001512200019N0020001N1+02491+00701101191ADDAA199000091GA1001+999999999GF100991001001999999001001KA1240M+03121MA1999999091491MD1999999-0121REMSYN082AAXX  11004 83339 32995 01403 10249 20070 39149 40119 333 10312 29040 55106 59012;EQDQ01  00002PRCP99
0196833390999992001091112004-14040-042610FM-12+088299999V0200501N001512200019N0100001N1+02311+01481101291ADDAA199000091GA1001+999999999GF100991001001999999001001KA1240N+01631MA1999999091591MD1999999-0151REMSYN070AAXX  11124 83339 32997 00503 10231 20148 39159 40129 333 20163 59015;EQDQ01  00002PRCP99
0167833390999992001091118004-14040-042610FM-12+088299999V0201401N001012200019N0100001N1+03271+00671100701ADDAA199000091GF102991021021004501001001MA1999999091101MD1999999-0231REMSYN070AAXX  11184 83339 32497 21402 10327 20067 39110 40070 82200 333 59023;EQDQ01  00002PRCP99
0208833390999992001091200004-14040-042610FM-12+088299999V0201401N000512200019N0020001N1+02761+00691100881ADDAA199000091GA1001+999999999GF100991001001999999001001KA1240M+03411MA1999999091251MD1999999-0241REMSYN082AAXX  12004 83339 32995 01401 10276 20069 39125 40088 333 10341 29045 55103 59024;EQDQ01  00002PRCP99
0186833390999992001091212004-14040-042610FM-12+088299999V0201401N006210042019N0100001N1+02321+01501101131ADDAA199000091GF106991051021004501031001KA1240N+02001MA1999999091481MD1999999-0111REMSYN076AAXX  12124 83339 32497 61412 10232 20150 39148 40113 85230 333 20200 59011;EQDQ01  00002PRCP99
0195833390999992001091218004-14040-042610FM-12+088299999V0201401N006212200019N0100001N1+03031+01591100811ADDAA199000091AY101061AY201061GF102991021021004501001001MA1999999091201MD1999999+0101MW1051REMSYN076AAXX  12184 83339 31497 21412 10303 20159 39120 40081 70500 82200 333 58010;EQDQ01  00002PRCP99
0208833390999992001091300004-14040-042610FM-12+088299999V0201401N006712200019N0020001N1+02411+01771101231ADDAA199000091GA1001+999999999GF100991001001999999001001KA1240M+03121MA1999999091531MD1999999+0281REMSYN082AAXX  13004 83339 32995 01413 10241 20177 39153 40123 333 10312 29058 55087 58028;EQDQ01  00002PRCP99
0186833390999992001091312004-14040-042610FM-12+088299999V0201401N010810042019N0100001N1+02131+01461101471ADDAA199000091GF105991051021004501001001KA1240N+01841MA1999999091731MD1999999+0251REMSYN076AAXX  13124 83339 32497 51421 10213 20146 39173 40147 85200 333 20184 58025;EQDQ01  00002PRCP99
0167833390999992001091318004-14040-042610FM-12+088299999V0201401N005712200019N0100001N1+02791+01331101111ADDAA199000091GF102991021021004501001001MA1999999091441MD1999999+0241REMSYN070AAXX  13184 83339 32497 21411 10279 20133 39144 40111 82200 333 58024;EQDQ01  00002PRCP99
0208833390999992001091400004-14040-042610FM-12+088299999V0201401N005112200019N0020001N1+02251+01551101451ADDAA199000091GA1001+999999999GF100991001001999999001001KA1240M+02821MA1999999091701MD1999999+0171REMSYN082AAXX  14004 83339 32995 01410 10225 20155 39170 40145 333 10282 29060 55093 58017;EQDQ01  00002PRCP99
0186833390999992001091412004-14040-042610FM-12+088299999V0201401N006710042019N0100001N1+02171+01471101551ADDAA199000091GF106991061021004501001001KA1240N+01801MA1999999091791MD1999999+0061REMSYN076AAXX  14124 83339 32497 61413 10217 20147 39179 40155 86200 333 20180 58006;EQDQ01  00002PRCP99
0167833390999992001091418004-14040-042610FM-12+088299999V0200501N002612200019N0100001N1+02871+01161100991ADDAA199000091GF103991021021004501001021MA1999999091321MD1999999-0121REMSYN070AAXX  14184 83339 32497 30505 10287 20116 39132 40099 82202 333 59012;EQDQ01  00002PRCP99
0208833390999992001091500004-14040-042610FM-12+088299999V0201401N005712200019N0020001N1+02371+01401101181ADDAA199000091GA1001+999999999GF100991001001999999001001KA1240M+02921MA1999999091461MD1999999-0241REMSYN082AAXX  15004 83339 32995 01411 10237 20140 39146 40118 333 10292 29053 55094 59024;EQDQ01  00002PRCP99
0182833390999992001091518004-14040-042610FM-12+088299999V0203601N000510042019N0100001N1+02631+01781100831ADDAA106005191AY161061AY261061GF106991061021004501001001MA1999999091151MD1999999-0171MW1021REMSYN082AAXX  15184 83339 21497 63601 10263 20178 39115 40083 70266 86200 333 59017 60051;
0198833390999992001091600004-14040-042610FM-12+088299999V0201401N002612200019N0020001N1+02591+01231101031ADDAA199000091GF104991041021004501001001KA1240M+03121MA1999999091351MD1999999-0111REMSYN088AAXX  16004 83339 32495 41405 10259 20123 39135 40103 84200 333 10312 29052 55069 59011;EQDQ01  00002PRCP99
0201833390999992001091612004-14040-042610FM-12+088299999V0200901N002612200019N0100001N1+02531+01521101241ADDAA124005191AY161061AY261061GF104991031021004501021001KA1240N+01941MA1999999091581MD1999999+0041MW1021REMSYN088AAXX  16124 83339 21497 40905 10253 20152 39158 40124 70266 83220 333 20194 58004 60054;
0167833390999992001091618004-14040-042610FM-12+088299999V0202701N003110042019N0100001N1+03171+01031100681ADDAA199000091GF106991061021004501001001MA1999999091101MD1999999-0051REMSYN070AAXX  16184 83339 32497 62706 10317 20103 39110 40068 86200 333 59005;EQDQ01  00002PRCP99
0222833390999992001091700004-14040-042610FM-12+088299999V0201401N005719999999N0020001N1+02471+01551101031ADDAA199000091AY101061AY201061GF105991999021004501001001KA1240M+03231MA1999999091381MW1131REMSYN088AAXX  17004 83339 31495 51411 10247 20155 39138 40103 71300 84200 333 10323 29048 5507/;EQDQ01+000042SCOTLCQ02  00002PRCP99
0201833390999992001091712004-14040-042610FM-12+088299999V0200501N003110042019N0040001N1+02401+01801101461ADDAA124000591AY161061AY221061GF106991061021004501001001KA1240N+01931MA1999999091751MD1999999+0171MW1051REMSYN088AAXX  17124 83339 21496 60506 10240 20180 39175 40146 70562 86200 333 20193 58017 69964;
0167833390999992001091718004-14040-042610FM-12+088299999V0200901N003110450019N0100001N1+02711+01821101051ADDAA199000091GF106991041021004501031001MA1999999091371MD1999999+0271REMSYN070AAXX  17184 83339 32497 60906 10271 20182 39137 40105 84230 333 58027;EQDQ01  00002PRCP99
0213833390999992001091800004-14040-042610FM-12+088299999V0200901N003110042019N0020001N1+01941+01791101501ADDAA106000591AY161061AY221061GF108991061021004501021999KA1240M+02781MA1999999091741MD1999999+0361MW1131REMSYN100AAXX  18004 83339 21495 80906 10194 20179 39174 40150 71362 8622/ 333 10278 29077 55011 58036 69961;
0201833390999992001091812004-14040-042610FM-12+088299999V0201401N005710042019N0100001N1+01371+01251102061ADDAA124002091AY161061AY241061GF108991051051004501021999KA1240N+01331MA1999999092141MD1999999+0391MW1021REMSYN088AAXX  18124 83339 21497 81411 10137 20125 39214 40206 70264 8552/ 333 20133 58039 60024;
0182833390999992001091818004-14040-042610FM-12+088299999V0201401N006710450019N0100001N1+01541+01321101811ADDAA106002091AY161061AY221061GF108991041051004501021999MA1999999091881MD1999999+0511MW1021REMSYN082AAXX  18184 83339 21497 81413 10154 20132 39188 40181 70262 8452/ 333 58051 60021;
0226833390999992001091900004-14040-042610FM-12+088299999V0200901N006710042019N0020001N1+01471+01351101951ADDAA199000091AY121061AY221061GF108991051051004501021999KA1240M+02001MA1999999091991MD1999999+0251MW1401REMSYN094AAXX  19004 83339 31495 80913 10147 20135 39199 40195 74022 8552/ 333 10200 29091 55000 58025;EQDQ01  00002PRCP99
0201833390999992001091912004-14040-042610FM-12+088299999V0200901N008710042019N0100001N1+01601+01121102041ADDAA124002091AY161061AY241061GF106991061021004501001001KA1240N+01311MA1999999092101MD1999999-0041MW1021REMSYN088AAXX  19124 83339 21497 60917 10160 20112 39210 40204 70264 86200 333 20131 59004 60024;
0167833390999992001091918004-14040-042610FM-12+088299999V0200501N008212200019N0100001N1+02351+01291101501ADDAA199000091GF102991021021004501001001MA1999999091671MD1999999-0211REMSYN070AAXX  19184 83339 32497 20516 10235 20129 39167 40150 82200 333 59021;EQDQ01  00002PRCP99
0198833390999992001092000004-14040-042610FM-12+088299999V0201401N005112200019N0020001N1+01791+01311101841ADDAA199000091GF103991031021004501001001KA1240M+02421MA1999999091951MD1999999-0041REMSYN088AAXX  20004 83339 32495 31410 10179 20131 39195 40184 83200 333 10242 29068 55069 59004;EQDQ01  00002PRCP99
0196833390999992001092012004-14040-042610FM-12+088299999V0200901N005712200019N0100001N1+01831+01221101901ADDAA199000091GA1001+999999999GF100991001001999999001001KA1240N+01481MA1999999092031MD1999999-0071REMSYN070AAXX  20124 83339 32997 00911 10183 20122 39203 40190 333 20148 59007;EQDQ01  00002PRCP99
0167833390999992001092018004-14040-042610FM-12+088299999V0200901N005112200019N0100001N1+02571+01121101341ADDAA199000091GF102991021021004501001001MA1999999091571MD1999999-0101REMSYN070AAXX  20184 83339 32497 20910 10257 20112 39157 40134 82200 333 59010;EQDQ01  00002PRCP99
0208833390999992001092100004-14040-042610FM-12+088299999V0200901N006712200019N0020001N1+02091+01221101581ADDAA199000091GA1001+999999999GF100991001001999999001001KA1240M+02631MA1999999091761MD1999999-0191REMSYN082AAXX  21004 83339 32995 00913 10209 20122 39176 40158 333 10263 29055 55109 59019;EQDQ01  00002PRCP99
0186833390999992001092112004-14040-042610FM-12+088299999V0200901N007210042019N0100001N1+01811+01371101831ADDAA199000091GF106991061021004501001001KA1240N+01641MA1999999091991MD1999999-0041REMSYN076AAXX  21124 83339 32497 60914 10181 20137 39199 40183 86200 333 20164 59004;EQDQ01  00002PRCP99
0167833390999992001092118004-14040-042610FM-12+088299999V0201401N002612200019N0100001N1+02501+01011101341ADDAA199000091GF104991041021004501001001MA1999999091581MD1999999+0011REMSYN070AAXX  21184 83339 32497 41405 10250 20101 39158 40134 84200 333 58001;EQDQ01  00002PRCP99
0208833390999992001092200004-14040-042610FM-12+088299999V0200901N006712200019N0020001N1+02041+01361101631ADDAA199000091GA1001+999999999GF100991001001999999001001KA1240M+02581MA1999999091801MD1999999+0041REMSYN082AAXX  22004 83339 32995 00913 10204 20136 39180 40163 333 10258 29061 55083 58004;EQDQ01  00002PRCP99
0186833390999992001092212004-14040-042610FM-12+088299999V0200501N005712200019N0100001N1+02051+01011101751ADDAA199000091GF102991021011004501001001KA1240N+01681MA1999999091941MD1999999-0051REMSYN076AAXX  22124 83339 32497 20511 10205 20101 39194 40175 82100 333 20168 59005;EQDQ01  00002PRCP99
0167833390999992001092218004-14040-042610FM-12+088299999V0200901N003612200019N0100001N1+02741+01061101251ADDAA199000091GF102991021011004501001001MA1999999091531MD1999999-0051REMSYN070AAXX  22184 83339 32497 20907 10274 20106 39153 40125 82100 333 59005;EQDQ01  00002PRCP99
0208833390999992001092300004-14040-042610FM-12+088299999V0201401N004112200019N0020001N1+02321+01061101411ADDAA199000091GA1001+999999999GF100991001001999999001001KA1240M+02801MA1999999091661MD1999999-0141REMSYN082AAXX  23004 83339 32995 01408 10232 20106 39166 40141 333 10280 29044 55103 59014;EQDQ01  00002PRCP99
0186833390999992001092312004-14040-042610FM-12+088299999V0200901N006710042019N0100001N1+01911+01451101641ADDAA199000091GF108991051021004501021999KA1240N+01751MA1999999091851MD1999999-0091REMSYN076AAXX  23124 83339 32497 80913 10191 20145 39185 40164 8522/ 333 20175 59009;EQDQ01  00002PRCP99
0167833390999992001092318004-14040-042610FM-12+088299999V0200501N005712200019N0100001N1+02621+01301101121ADDAA199000091GF102991021021004501001001MA1999999091401MD1999999-0131REMSYN070AAXX  23184 83339 32497 20511 10262 20130 39140 40112 82200 333 59013;EQDQ01  00002PRCP99
0208833390999992001092400004-14040-042610FM-12+088299999V0200901N005112200019N0020001N1+02251+01571101421ADDAA199000091GA1001+999999999GF100991001001999999001001KA1240M+02691MA1999999091651MD1999999-0011REMSYN082AAXX  24004 83339 32995 00910 10225 20157 39165 40142 333 10269 29062 55072 59001;EQDQ01  00002PRCP99
0186833390999992001092412004-14040-042610FM-12+088299999V0200901N004612200019N0100001N1+02131+01341101541ADDAA199000091GF102991021021004501001001KA1240N+01631MA1999999091771MD1999999-0081REMSYN076AAXX  24124 83339 32497 20909 10213 20134 39177 40154 82200 333 20163 59008;EQDQ01  00002PRCP99
0167833390999992001092418004-14040-042610FM-12+088299999V0201401N003112200019N0100001N1+02851+01191101051ADDAA199000091GF102991021021004501001001MA1999999091351MD1999999-0051REMSYN070AAXX  24184 83339 32497 21406 10285 20119 39135 40105 82200 333 59005;EQDQ01  00002PRCP99
0208833390999992001092500004-14040-042610FM-12+088299999V0201401N008712200019N0020001N1+02351+01211101331ADDAA199000091GA1001+999999999GF100991001001999999001001KA1240M+02881MA1999999091601MD1999999-0051REMSYN082AAXX  25004 83339 32995 01417 10235 20121 39160 40133 333 10288 29048 55108 59005;EQDQ01  00002PRCP99
0186833390999992001092512004-14040-042610FM-12+088299999V0201401N006710450019N0100001N1+02151+01481101531ADDAA199000091GF105991041021004501021001KA1240N+01621MA1999999091781MD1999999+0011REMSYN076AAXX  25124 83339 32497 51413 10215 20148 39178 40153 84220 333 20162 58001;EQDQ01  00002PRCP99
0167833390999992001092518004-14040-042610FM-12+088299999V0200501N005112200019N0100001N1+02731+01081101111ADDAA199000091GF102991011021004501001021MA1999999091391MD1999999+0041REMSYN070AAXX  25184 83339 32497 20510 10273 20108 39139 40111 81202 333 58004;EQDQ01  00002PRCP99
0198833390999992001092600004-14040-042610FM-12+088299999V0200901N006212200019N0020001N1+02331+01131101371ADDAA199000091GF102991021021004501001001KA1240M+02801MA1999999091641MD1999999+0041REMSYN088AAXX  26004 83339 32495 20912 10233 20113 39164 40137 82200 333 10280 29050 55103 58004;EQDQ01  00002PRCP99
0167833390999992001092618004-14040-042610FM-12+088299999V0201401N003612200019N0100001N1+02921+01131100991ADDAA199000091GF102991011021004501021001MA1999999091311MD1999999-0081REMSYN070AAXX  26184 83339 32497 21407 10292 20113 39131 40099 81220 333 59008;EQDQ01  00002PRCP99
0208833390999992001092700004-14040-042610FM-12+088299999V0201401N003612200019N0020001N1+02411+00961101201ADDAA199000091GA1001+999999999GF100991001001999999001001KA1240M+02951MA1999999091491MD1999999-0151REMSYN082AAXX  27004 83339 32995 01407 10241 20096 39149 40120 333 10295 29045 55095 59015;EQDQ01  00002PRCP99
0186833390999992001092712004-14040-042610FM-12+088299999V0200901N003112200019N0100001N1+02311+01481101351ADDAA199000091GF102991011021004501021001KA1240N+01721MA1999999091641MD1999999-0181REMSYN076AAXX  27124 83339 32497 20906 10231 20148 39164 40135 81220 333 20172 59018;EQDQ01  00002PRCP99
0167833390999992001092718004-14040-042610FM-12+088299999V0201401N005112200019N0100001N1+03051+01091100921ADDAA199000091GF102991021021004501001001MA1999999091281MD1999999-0031REMSYN070AAXX  27184 83339 32497 21410 10305 20109 39128 40092 82200 333 59003;EQDQ01  00002PRCP99
0186833390999992001092812004-14040-042610FM-12+088299999V0201401N008212200019N0100001N1+02231+01551101491ADDAA199000091GF102991021021004501001001KA1240N+01841MA1999999091771MD1999999+0131REMSYN076AAXX  28124 83339 32497 21416 10223 20155 39177 40149 82200 333 20184 58013;EQDQ01  00002PRCP99
0177833390999992001092818004-14040-042610FM-12+088299999V0201401N005712200019N0100001N1+02891+00681101111ADDAA199000091GA1001+999999999GF100991001001999999001001MA1999999091441MD1999999+0161REMSYN064AAXX  28184 83339 32997 01411 10289 20068 39144 40111 333 58016;EQDQ01  00002PRCP99
0208833390999992001092900004-14040-042610FM-12+088299999V0200901N002112200019N0020001N1+02431+00861101331ADDAA199000091GA1001+999999999GF100991001001999999001001KA1240M+02941MA1999999091621MD1999999+0091REMSYN082AAXX  29004 83339 32995 00904 10243 20086 39162 40133 333 10294 29040 55105 58009;EQDQ01  00002PRCP99
0186833390999992001092912004-14040-042610FM-12+088299999V0200901N009312200019N0100001N1+02251+01431101641ADDAA199000091GF103991031021004501001001KA1240N+01761MA1999999091901MD1999999+0131REMSYN076AAXX  29124 83339 32497 30918 10225 20143 39190 40164 83200 333 20176 58013;EQDQ01  00002PRCP99
0177833390999992001092918004-14040-042610FM-12+088299999V0200501N007212200019N0100001N1+02791+00711101241ADDAA199000091GA1001+999999999GF100991001001999999001001MA1999999091541MD1999999+0101REMSYN064AAXX  29184 83339 32997 00514 10279 20071 39154 40124 333 58010;EQDQ01  00002PRCP99
0208833390999992001093000004-14040-042610FM-12+088299999V0201401N003112200019N0020001N1+02391+00941101471ADDAA199000091GA1001+999999999GF100991001001999999001001KA1240M+02861MA1999999091741MD1999999+0121REMSYN082AAXX  30004 83339 32995 01406 10239 20094 39174 40147 333 10286 29042 55097 58012;EQDQ01  00002PRCP99
0186833390999992001093012004-14040-042610FM-12+088299999V0201401N009812200019N0100001N1+02111+01421101671ADDAA199000091GF103991031021004501001001KA1240N+01801MA1999999091911MD1999999+0011REMSYN076AAXX  30124 83339 32497 31419 10211 20142 39191 40167 83200 333 20180 58001;EQDQ01  00002PRCP99
0167833390999992001093018004-14040-042610FM-12+088299999V0201401N006210450019N0100001N1+02711+00841101261ADDAA199000091GF105991041021004501021001MA1999999091551MD1999999+0011REMSYN070AAXX  30184 83339 32497 51412 10271 20084 39155 40126 84220 333 58001;EQDQ01  00002PRCP99
0198833390999992001100100004-14040-042610FM-12+088299999V0201401N006712200019N0020001N1+02351+01151101471ADDAA199000091GF102991021021004501001001KA1240M+02781MA1999999091731MD1999999-0011REMSYN088AAXX  01004 83339 32495 21413 10235 20115 39173 40147 82200 333 10278 29048 55097 59001;EQDQ01  00002PRCP99
0202833390999992001100112004-14040-042610FM-12+088299999V0200901N005712200019N0100001N1+02231+01451101701ADDAA199000091GF102991999001008001031041KA1240N+01781MA1999999091941MD1999999+0031REMSYN076AAXX  01124 83339 32597 20911 10223 20145 39194 40170 80034 333 20178 58003;EQDQ01+000002SCOTLCQ02  00002PRCP99
0167833390999992001100118004-14040-042610FM-12+088299999V0201401N002612200019N0100001N1+03011+00971101141ADDAA199000091GF104991011011004501001041MA1999999091451MD1999999-0101REMSYN070AAXX  01184 83339 32497 41405 10301 20097 39145 40114 81104 333 59010;EQDQ01  00002PRCP99
0214833390999992001100200004-14040-042610FM-12+088299999V0200901N001512200019N0020001N1+02571+00961101361ADDAA199000091GF102991001001999999001011KA1240M+03081MA1999999091651MD1999999-0081REMSYN088AAXX  02004 83339 32895 20903 10257 20096 39165 40136 80001 333 10308 29040 55098 59008;EQDQ01+022502SCOLCBQ02  00002PRCP99
0196833390999992001100212004-14040-042610FM-12+088299999V0200901N002612200019N0100001N1+02471+01401101531ADDAA199000091GA1001+999999999GF100991001001999999001001KA1240N+01761MA1999999091831MD1999999-0111REMSYN070AAXX  02124 83339 32997 00905 10247 20140 39183 40153 333 20176 59011;EQDQ01  00002PRCP99
0167833390999992001100218004-14040-042610FM-12+088299999V0200501N003112200019N0100001N1+03261+00811100991ADDAA199000091GF103991031021004501001001MA1999999091361MD1999999-0091REMSYN070AAXX  02184 83339 32497 30506 10326 20081 39136 40099 83200 333 59009;EQDQ01  00002PRCP99
0208833390999992001100300004-14040-042610FM-12+088299999V0200901N002612200019N0020001N1+02611+00731101251ADDAA199000091GA1001+999999999GF100991001001999999001001KA1240M+03371MA1999999091651MD1999999+0001REMSYN082AAXX  03004 83339 32995 00905 10261 20073 39165 40125 333 10337 29033 55098 58000;EQDQ01  00002PRCP99
0196833390999992001100312004-14040-042610FM-12+088299999V0200501N001512200019N0100001N1+02601+01321101581ADDAA199000091GA1001+999999999GF100991001001999999001001KA1240N+01841MA1999999091901MD1999999+0071REMSYN070AAXX  03124 83339 32997 00503 10260 20132 39190 40158 333 20184 58007;EQDQ01  00002PRCP99
0183833390999992001100318004-14040-042610FM-12+088299999V0201401N004119999999N0100001N1+03291+00971101101ADDAA199000091GF105991999021004501001001MA1999999091471MD1999999+0111REMSYN070AAXX  03184 83339 32497 51408 10329 20097 39147 40110 86200 333 58011;EQDQ01+000062SCOTLCQ02  00002PRCP99
0214833390999992001100400004-14040-042610FM-12+088299999V0200901N004112200019N0100001N1+02701+00891101331ADDAA199000091GF102991001001999999001011KA1240M+03411MA1999999091681MD1999999+0031REMSYN088AAXX  04004 83339 32897 20908 10270 20089 39168 40133 80001 333 10341 29033 55078 58003;EQDQ01+022502SCOLCBQ02  00002PRCP99
0196833390999992001100412004-14040-042610FM-12+088299999V0200501N001512200019N0100001N1+02731+01181101491ADDAA199000091GA1001+999999999GF100991001001999999001001KA1240N+01861MA1999999091841MD1999999-0061REMSYN070AAXX  04124 83339 32997 00503 10273 20118 39184 40149 333 20186 59006;EQDQ01  00002PRCP99
0167833390999992001100418004-14040-042610FM-12+088299999V0201401N001510042019N0100001N1+03271+01131100941ADDAA199000091GF106991061021004501001001MA1999999091341MD1999999-0131REMSYN070AAXX  04184 83339 32497 61403 10327 20113 39134 40094 86200 333 59013;EQDQ01  00002PRCP99
0198833390999992001100500004-14040-042610FM-12+088299999V0200901N002612200019N0020001N1+02811+01091101211ADDAA199000091GF104991041021004501001001KA1240M+03311MA1999999091591MD1999999-0091REMSYN088AAXX  05004 83339 32495 40905 10281 20109 39159 40121 84200 333 10331 29033 55076 59009;EQDQ01  00002PRCP99
0196833390999992001100512004-14040-042610FM-12+088299999V0200501N001512200019N0100001N1+02661+01371101401ADDAA199000091GA1001+999999999GF100991001001999999001001KA1240N+02001MA1999999091761MD1999999-0081REMSYN070AAXX  05124 83339 32997 00503 10266 20137 39176 40140 333 20200 59008;EQDQ01  00002PRCP99
0167833390999992001100518004-14040-042610FM-12+088299999V0200901N002610042019N0100001N1+03191+01461100891ADDAA199000091GF106991061021004501001001MA1999999091291MD1999999-0051REMSYN070AAXX  05184 83339 32497 60905 10319 20146 39129 40089 86200 333 59005;EQDQ01  00002PRCP99
0198833390999992001100600004-14040-042610FM-12+088299999V0201401N004112200019N0020001N1+02871+01181101081ADDAA199000091GF102991021021004501001001KA1240M+03301MA1999999091531MD1999999-0061REMSYN088AAXX  06004 83339 32495 21408 10287 20118 39153 40108 82200 333 10330 29038 55064 59006;EQDQ01  00002PRCP99
0196833390999992001100612004-14040-042610FM-12+088299999V0201401N005112200019N0100001N1+02771+01411101291ADDAA199000091GA1001+999999999GF100991001001999999001001KA1240N+02151MA1999999091671MD1999999-0091REMSYN070AAXX  06124 83339 32997 01410 10277 20141 39167 40129 333 20215 59009;EQDQ01  00002PRCP99
0167833390999992001100618004-14040-042610FM-12+088299999V0200901N002110042019N0100001N1+03281+01191100871ADDAA199000091GF106991061021004501001001MA1999999091281MD1999999-0011REMSYN070AAXX  06184 83339 32497 60904 10328 20119 39128 40087 86200 333 59001;EQDQ01  00002PRCP99
0186833390999992001100712004-14040-042610FM-12+088299999V0200901N008210042019N0100001N1+01991+01621101501ADDAA199000091GF108991051021004501021999KA1240N+01951MA1999999091781MD1999999+0111REMSYN076AAXX  07124 83339 32497 80916 10199 20162 39178 40150 8522/ 333 20195 58011;EQDQ01  00002PRCP99
0183833390999992001100718004-14040-042610FM-12+088299999V0200901N005112200019N0100001N1+02741+01441101001ADDAA199000091GF102991999001008001031001MA1999999091351MD1999999+0071REMSYN070AAXX  07184 83339 32597 20910 10274 20144 39135 40100 80030 333 58007;EQDQ01+000002SCOTLCQ02  00002PRCP99
0198833390999992001100800004-14040-042610FM-12+088299999V0200901N003610450019N0020001N1+02611+01331101291ADDAA199000091GF108991031021004501021999KA1240M+02881MA1999999091571MD1999999+0101REMSYN088AAXX  08004 83339 32495 80907 10261 20133 39157 40129 8322/ 333 10288 29054 55032 58010;EQDQ01  00002PRCP99
0186833390999992001100812004-14040-042610FM-12+088299999V0200501N002612200019N0100001N1+02271+01641101541ADDAA199000091GF102991021021004501001001KA1240N+01921MA1999999091801MD1999999+0021REMSYN076AAXX  08124 83339 32497 20505 10227 20164 39180 40154 82200 333 20192 58002;EQDQ01  00002PRCP99
0167833390999992001100818004-14040-042610FM-12+088299999V0200501N002110042019N0100001N1+02811+01311101031ADDAA199000091GF106991051021004501021001MA1999999091351MD1999999+0001REMSYN070AAXX  08184 83339 32497 60504 10281 20131 39135 40103 85220 333 58000;EQDQ01  00002PRCP99
0197833390999992001100900004-14040-042610FM-12+088299999V0200901N003612200019N0020001N1+02611+00941101181ADDAA199000091GF102991021021004501001001KA1240M+02901MA1999999091501MD1999999-0071REMSYN087AAXX  09004 83339 32495 2090710261 20094 39150 40118 82200 333 10290 29045 55045 59007;EQDQ01  00002PRCP99
0186833390999992001100912004-14040-042610FM-12+088299999V0200501N004110042019N0040001N1+02051+01581101451ADDAA199000091GF107991061021004501021001KA1240N+01921MA1999999091731MD1999999-0071REMSYN076AAXX  09124 83339 32496 70508 10205 20158 39173 40145 86220 333 20192 59007;EQDQ01  00002PRCP99
0167833390999992001100918004-14040-042610FM-12+088299999V0200901N003110042019N0040001N1+02211+01511101181ADDAA199000091GF107991061021004501021999MA1999999091441MD1999999+0091REMSYN070AAXX  09184 83339 32496 70906 10221 20151 39144 40118 8622/ 333 58009;EQDQ01  00002PRCP99
0198833390999992001101000004-14040-042610FM-12+088299999V0200901N000510042019N0020001N1+02071+01641101411ADDAA199000091GF106991061021004501001001KA1240M+02661MA1999999091641MD1999999+0141REMSYN088AAXX  10004 83339 32495 60901 10207 20164 39164 40141 86200 333 10266 29073 55000 58014;EQDQ01  00002PRCP99
0201833390999992001101012004-14040-042610FM-12+088299999V0200501N003610042019N0040001N1+01931+01751101571ADDAA124000591AY161061AY261061GF108991081051004501999999KA1240N+01801MA1999999091761MD1999999+0031MW1101REMSYN088AAXX  10124 83339 21496 80507 10193 20175 39176 40157 71066 885// 333 20180 58003 69944;
0167833390999992001101018004-14040-042610FM-12+088299999V0200901N005110042019N0100001N1+02651+01211101171ADDAA199000091GF106991061021004501001001MA1999999091451MD1999999+0011REMSYN070AAXX  10184 83339 32497 60910 10265 20121 39145 40117 86200 333 58001;EQDQ01  00002PRCP99
0213833390999992001101100004-14040-042610FM-12+088299999V0201401N006710042019N0020001N1+01971+01791101461ADDAA106007991AY191061AY261061GF108991081051004501999999KA1240M+02721MA1999999091651MD1999999+0011MW1101REMSYN100AAXX  11004 83339 21495 81413 10197 20179 39165 40146 71096 885// 333 10272 29077 55020 58001 60081;
0201833390999992001101112004-14040-042610FM-12+088299999V0200501N009810042019N0040001N1+01851+01711101651ADDAA124007991AY161061AY261061GF108991081051004501999999KA1240N+01801MA1999999091821MD1999999+0061MW1101REMSYN088AAXX  11124 83339 21496 80519 10185 20171 39182 40165 71066 885// 333 20180 58006 60084;
0167833390999992001101118004-14040-042610FM-12+088299999V0200501N006210042019N0100001N1+02351+01641101281ADDAA199000091GF106991051021004501021001MA1999999091531MD1999999+0081REMSYN070AAXX  11184 83339 32497 60512 10235 20164 39153 40128 85220 333 58008;EQDQ01  00002PRCP99
0198833390999992001101200004-14040-042610FM-12+088299999V0200501N008210042019N0020001N1+01961+01571101561ADDAA199000091GF106991061021004501001001KA1240M+02401MA1999999091741MD1999999+0091REMSYN088AAXX  12004 83339 32495 60516 10196 20157 39174 40156 86200 333 10240 29077 55003 58009;EQDQ01  00002PRCP99
0186833390999992001101212004-14040-042610FM-12+088299999V0200501N005110042019N0100001N1+01891+01281101731ADDAA199000091GF106991061021004501001001KA1240N+01621MA1999999091891MD1999999+0071REMSYN076AAXX  12124 83339 32497 60510 10189 20128 39189 40173 86200 333 20162 58007;EQDQ01  00002PRCP99
0167833390999992001101218004-14040-042610FM-12+088299999V0200501N006210042019N0100001N1+02571+01101101351ADDAA199000091GF106991051021004501031001MA1999999091591MD1999999+0061REMSYN070AAXX  12184 83339 32497 60512 10257 20110 39159 40135 85230 333 58006;EQDQ01  00002PRCP99
0198833390999992001101300004-14040-042610FM-12+088299999V0201401N011310042019N0020001N1+02071+01181101651ADDAA199000091GF105991051021004501001001KA1240M+02661MA1999999091841MD1999999+0101REMSYN088AAXX  13004 83339 32495 51422 10207 20118 39184 40165 85200 333 10266 29055 55044 58010;EQDQ01  00002PRCP99
0186833390999992001101312004-14040-042610FM-12+088299999V0200501N005710042019N0100001N1+01831+01101101351ADDAA199000091GF106991061021004501001001KA1240N+01631MA1999999091911MD1999999+0021REMSYN076AAXX  13124 83339 32497 60511 10183 20110 39191 40135 86200 333 20163 58002;EQDQ01  00002PRCP99
0167833390999992001101318004-14040-042610FM-12+088299999V0200501N004610042019N0100001N1+02451+01171101331ADDAA199000091GF106991051021004501001021MA1999999091571MD1999999-0021REMSYN070AAXX  13184 83339 32497 60509 10245 20117 39157 40133 85202 333 59002;EQDQ01  00002PRCP99
0198833390999992001101400004-14040-042610FM-12+088299999V0201401N005712200019N0020001N1+02091+00911101501ADDAA199000091GF104991041021004501001001KA1240M+02601MA1999999091691MD1999999-0151REMSYN088AAXX  14004 83339 32495 41411 10209 20091 39169 40150 84200 333 10260 29053 55039 59015;EQDQ01  00002PRCP99
0186833390999992001101412004-14040-042610FM-12+088299999V0200501N004610042019N0100001N1+01951+01441101721ADDAA199000091GF106991051021004501031001KA1240N+01701MA1999999091901MD1999999-0011REMSYN076AAXX  14124 83339 32497 60509 10195 20144 39190 40172 85230 333 20170 59001;EQDQ01  00002PRCP99
0167833390999992001101418004-14040-042610FM-12+088299999V0200501N006212200019N0100001N1+02591+01121101211ADDAA199000091GF103991031021004501001001MA1999999091481MD1999999-0091REMSYN070AAXX  14184 83339 32497 30512 10259 20112 39148 40121 83200 333 59009;EQDQ01  00002PRCP99
0198833390999992001101500004-14040-042610FM-12+088299999V0200501N005710042019N0020001N1+02271+01311101421ADDAA199000091GF106991061021004501001001KA1240M+02691MA1999999091651MD1999999-0041REMSYN088AAXX  15004 83339 32495 60511 10227 20131 39165 40142 86200 333 10269 29064 55067 59004;EQDQ01  00002PRCP99
0201833390999992001101512004-14040-042610FM-12+088299999V0200901N001010450019N0100001N1+01861+01641101501ADDAA124000591AY161061AY221061GF106991041021004501031001KA1240N+01721MA1999999091721MD1999999-0181MW1021REMSYN088AAXX  15124 83339 21497 60902 10186 20164 39172 40150 70262 84230 333 20172 59018 69964;
0167833390999992001101518004-14040-042610FM-12+088299999V0200501N005710042019N0100001N1+02451+01441101171ADDAA199000091GF106991061021004501001001MA1999999091431MD1999999-0051REMSYN070AAXX  15184 83339 32497 60511 10245 20144 39143 40117 86200 333 59005;EQDQ01  00002PRCP99
0198833390999992001101600004-14040-042610FM-12+088299999V0201401N005710042019N0020001N1+01911+01551101581ADDAA199000091GF108991051021004501021999KA1240M+02641MA1999999091751MD1999999+0101REMSYN088AAXX  16004 83339 32495 81411 10191 20155 39175 40158 8522/ 333 10264 29073 55035 58010;EQDQ01  00002PRCP99
0186833390999992001101612004-14040-042610FM-12+088299999V0200501N004110450019N0100001N1+01751+01541101661ADDAA199000091GF108991041021004501021999KA1240N+01671MA1999999091821MD1999999+0101REMSYN076AAXX  16124 83339 32497 80508 10175 20154 39182 40166 8422/ 333 20167 58010;EQDQ01  00002PRCP99
0182833390999992001101618004-14040-042610FM-12+088299999V0200901N005710042019N0020001N1+01691+01641101411ADDAA106008991AY161061AY221061GF108991051021004501021999MA1999999091561MD1999999+0131MW1401REMSYN082AAXX  16184 83339 21495 80911 10169 20164 39156 40141 74062 8522/ 333 58013 60091;
0226833390999992001101700004-14040-042610FM-12+088299999V0200901N005710450019N0010001N1+01701+01641101461ADDAA199000091AY141061AY241061GF108991041021004501021999KA1240M+01941MA1999999091611MD1999999-0141MW1401REMSYN094AAXX  17004 83339 31494 80911 10170 20164 39161 40146 74044 8422/ 333 10194 29093 55000 59014;EQDQ01  00002PRCP99
0201833390999992001101712004-14040-042610FM-12+088299999V0200901N003110042019N0010001N1+01741+01681101581ADDAA124009991AY161061AY241061GF108991051021004501021999KA1240N+01611MA1999999091721MD1999999-0101MW1401REMSYN088AAXX  17124 83339 21494 80906 10174 20168 39172 40158 74064 8522/ 333 20161 59010 60104;
0182833390999992001101718004-14040-042610FM-12+088299999V0200901N002610042019N0100001N1+01941+01771101221ADDAA106000391AY161061AY241061GF108991051021004501021999MA1999999091411MD1999999-0151MW1021REMSYN082AAXX  17184 83339 21497 80905 10194 20177 39141 40122 70264 8522/ 333 59015 69931;
0213833390999992001101800004-14040-042610FM-12+088299999V0200901N002610042019N0020001N1+01881+01731101291ADDAA106000191AY121061AY221061GF108991051051004501021999KA1240M+01981MA1999999091471MD1999999-0141MW1501REMSYN100AAXX  18004 83339 21495 80905 10188 20173 39147 40129 75022 8552/ 333 10198 29092 55000 59014 69921;
0201833390999992001101812004-14040-042610FM-12+088299999V0200501N002110450019N0100001N1+02011+01831101311ADDAA124001091AY151061AY241061GF108991041051004501021999KA1240N+01751MA1999999091531MD1999999-0191MW1021REMSYN088AAXX  18124 83339 21497 80504 10201 20183 39153 40131 70254 8452/ 333 20175 59019 69994;
0182833390999992001101818004-14040-042610FM-12+088299999V0209999C000010042019N0010001N1+02071+01981101081ADDAA106008991AY191061AY261061GF108991061021004501021999MA1999999091331MD1999999-0081MW1601REMSYN082AAXX  18184 83339 21494 80000 10207 20198 39133 40108 76096 8622/ 333 59008 60091;
0213833390999992001101900004-14040-042610FM-12+088299999V0200901N006210042019N0010001N1+01911+01851101211ADDAA106017091AY191061AY261061GF108991051021004501021999KA1240M+02471MA1999999091441MD1999999-0031MW1401REMSYN100AAXX  19004 83339 21494 80912 10191 20185 39144 40121 74096 8522/ 333 10247 29093 55003 59003 60171;
0201833390999992001101912004-14040-042610FM-12+088299999V0200501N001010450019N0020001N1+01991+01931101271ADDAA124027991AY161061AY261061GF108991041021004501021999KA1240N+01841MA1999999091491MD1999999-0041MW1401REMSYN088AAXX  19124 83339 21495 80502 10199 20193 39149 40127 74066 8422/ 333 20184 59004 60284;
0195833390999992001101918004-14040-042610FM-12+088299999V0200901N003610042019N0100001N1+02281+02001100841ADDAA199000091AY141061AY221061GF108991061021004501021999MA1999999091131MD1999999-0201MW1021REMSYN076AAXX  19184 83339 31497 80907 10228 20200 39113 40084 70242 8622/ 333 59020;EQDQ01  00002PRCP99
0213833390999992001102000004-14040-042610FM-12+088299999V0209999C000010042019N9999999N1+01971+01911101171ADDAA106015091AY191061AY261061GF108991061021004501021999KA1240M+02361MA1999999091411MD1999999-0031MW1601REMSYN100AAXX  20004 83339 214// 80000 10197 20191 39141 40117 76096 8622/ 333 10236 29092 55000 59003 60151;
0201833390999992001102012004-14040-042610FM-12+088299999V0202701N004610042019N0020001N1+01961+01841101411ADDAA124045091AY161061AY261061GF108991051021004501021999KA1240N+01901MA1999999091611MD1999999+0121MW1601REMSYN088AAXX  20124 83339 21495 82709 10196 20184 39161 40141 76066 8522/ 333 20190 58012 60454;
0182833390999992001102018004-14040-042610FM-12+088299999V0203201N002610042019N0100001N1+02431+01921100981ADDAA106000191AY161061AY221061GF106991061021004501001001MA1999999091271MD1999999+0141MW1021REMSYN082AAXX  20184 83339 21497 63205 10243 20192 39127 40098 70262 86200 333 58014 69921;
0201833390999992001102112004-14040-042610FM-12+088299999V0209999C000012200019N0100001N1+02521+01771101191ADDAA124000191AY161061AY221061GF102991021021004501001001KA1240N+01921MA1999999091491MD1999999-0121MW1021REMSYN088AAXX  21124 83339 21497 20000 10252 20177 39149 40119 70262 82200 333 20192 59012 69924;
0167833390999992001102118004-14040-042610FM-12+088299999V0203201N002612200019N0100001N1+02911+01891100751ADDAA199000091GF104991041021004501001001MA1999999091121MD1999999-0151REMSYN070AAXX  21184 83339 32497 43205 10291 20189 39112 40075 84200 333 59015;EQDQ01  00002PRCP99
0198833390999992001102200004-14040-042610FM-12+088299999V0200501N001010042019N0020001N1+02291+01981101111ADDAA199000091GF106991061021004501001001KA1240M+02951MA1999999091431MD1999999-0021REMSYN088AAXX  22004 83339 32495 60502 10229 20198 39143 40111 86200 333 10295 29069 55060 59002;EQDQ01  00002PRCP99
0186833390999992001102212004-14040-042610FM-12+088299999V0203601N003110042019N0100001N1+02591+01801101101ADDAA199000091GF106991051021004501021001KA1240N+02041MA1999999091431MD1999999-0061REMSYN076AAXX  22124 83339 32497 63606 10259 20180 39143 40110 85220 333 20204 59006;EQDQ01  00002PRCP99
0167833390999992001102218004-14040-042610FM-12+088299999V0203601N003110042019N0100001N1+02891+01731100681ADDAA199000091GF106991051021004501021001MA1999999091061MD1999999-0061REMSYN070AAXX  22184 83339 32497 63606 10289 20173 39106 40068 85220 333 59006;EQDQ01  00002PRCP99
0213833390999992001102300004-14040-042610FM-12+088299999V0200901N000512200019N0020001N1+02231+01961100971ADDAA106002091AY191061AY261061GF104991041021004501001001KA1240M+02941MA1999999091301MD1999999-0131MW1101REMSYN100AAXX  23004 83339 21495 40901 10223 20196 39130 40097 71096 84200 333 10294 29068 55074 59013 60021;
0201833390999992001102312004-14040-042610FM-12+088299999V0203601N002112200019N0100001N1+02371+01971101211ADDAA124002091AY161061AY261061GF104991031021004501021001KA1240N+02001MA1999999091501MD1999999+0071MW1021REMSYN088AAXX  23124 83339 21497 43604 10237 20197 39150 40121 70266 83220 333 20200 58007 60024;
0167833390999992001102318004-14040-042610FM-12+088299999V0200901N001510042019N0100001N1+02951+01721100851ADDAA199000091GF106991061021004501001001MA1999999091211MD1999999+0151REMSYN070AAXX  23184 83339 32497 60903 10295 20172 39121 40085 86200 333 58015;EQDQ01  00002PRCP99
0213833390999992001102400004-14040-042610FM-12+088299999V0200901N001012200019N0020001N1+02231+01861101251ADDAA106000891AY191061AY261061GF103991021021004501031001KA1240M+03031MA1999999091541MD1999999+0241MW1101REMSYN100AAXX  24004 83339 21495 30902 10223 20186 39154 40125 71096 82230 333 10303 29070 55061 58024 69981;
0167833390999992001102418004-14040-042610FM-12+088299999V0201401N004112200019N0100001N1+02781+01691101191ADDAA199000091GF103991031021004501001001MA1999999091501MD1999999+0291REMSYN070AAXX  24184 83339 32497 31408 10278 20169 39150 40119 83200 333 58029;EQDQ01  00002PRCP99
0226833390999992001102500004-14040-042610FM-12+088299999V0201401N004112200019N0020001N1+02251+01861101551ADDAA199000091AY101061AY201061GF102991021021004501001001KA1240M+02891MA1999999091791MD1999999+0251MW1101REMSYN094AAXX  25004 83339 31495 21408 10225 20186 39179 40155 71000 82200 333 10289 29074 55094 58025;EQDQ01  00002PRCP99
0186833390999992001102512004-14040-042610FM-12+088299999V0201401N006210042019N0100001N1+02191+01541101711ADDAA199000091GF105991051021004501001001KA1240N+01801MA1999999091941MD1999999+0111REMSYN076AAXX  25124 83339 32497 51412 10219 20154 39194 40171 85200 333 20180 58011;EQDQ01  00002PRCP99
0167833390999992001102518004-14040-042610FM-12+088299999V0201401N006212200019N0100001N1+02651+01481101321ADDAA199000091GF102991021021004501001001MA1999999091591MD1999999+0091REMSYN070AAXX  25184 83339 32497 21412 10265 20148 39159 40132 82200 333 58009;EQDQ01  00002PRCP99
0226833390999992001102600004-14040-042610FM-12+088299999V0201401N004112200019N0020001N1+02071+01761101611ADDAA199000091AY101061AY201061GF104991041021004501001001KA1240M+02731MA1999999091841MD1999999+0051MW1101REMSYN094AAXX  26004 83339 31495 41408 10207 20176 39184 40161 71000 84200 333 10273 29070 55102 58005;EQDQ01  00002PRCP99
0186833390999992001102612004-14040-042610FM-12+088299999V0201401N008210042019N0100001N1+01971+01501101651ADDAA199000091GF106991061021004501001001KA1240N+01731MA1999999091841MD1999999-0101REMSYN076AAXX  26124 83339 32497 61416 10197 20150 39184 40165 86200 333 20173 59010;EQDQ01  00002PRCP99
0167833390999992001102618004-14040-042610FM-12+088299999V0201401N005112200019N0100001N1+02471+01411101291ADDAA199000091GF104991041021004501001001MA1999999091541MD1999999-0051REMSYN070AAXX  26184 83339 32497 41410 10247 20141 39154 40129 84200 333 59005;EQDQ01  00002PRCP99
0198833390999992001102700004-14040-042610FM-12+088299999V0201401N006712200019N0020001N1+02051+01541101411ADDAA199000091GF102991021021004501001001KA1240M+02561MA1999999091631MD1999999-0211REMSYN088AAXX  27004 83339 32495 21413 10205 20154 39163 40141 82200 333 10256 29068 55075 59021;EQDQ01  00002PRCP99
0186833390999992001102712004-14040-042610FM-12+088299999V0201401N004610042019N0100001N1+01851+01431101591ADDAA199000091GF106991061021004501001001KA1240N+01561MA1999999091771MD1999999-0071REMSYN076AAXX  27124 83339 32497 61409 10185 20143 39177 40159 86200 333 20156 59007;EQDQ01  00002PRCP99
0167833390999992001102718004-14040-042610FM-12+088299999V0201401N002612200019N0100001N1+02691+01091101071ADDAA199000091GF103991031021004501001001MA1999999091351MD1999999-0191REMSYN070AAXX  27184 83339 32497 31405 10269 20109 39135 40107 83200 333 59019;EQDQ01  00002PRCP99
0198833390999992001102800004-14040-042610FM-12+088299999V0201401N006712200019N0020001N1+02171+00981101451ADDAA199000091GF102991021021004501001001KA1240M+02751MA1999999091651MD1999999+0021REMSYN088AAXX  28004 83339 32495 21413 10217 20098 39165 40145 82200 333 10275 29052 55087 58002;EQDQ01  00002PRCP99
0186833390999992001102812004-14040-042610FM-12+088299999V0201401N005112200019N0100001N1+02031+01431101491ADDAA199000091GF103991031021004501001001KA1240N+01551MA1999999091721MD1999999-0051REMSYN076AAXX  28124 83339 32497 31410 10203 20143 39172 40149 83200 333 20155 59005;EQDQ01  00002PRCP99
0167833390999992001102818004-14040-042610FM-12+088299999V0201401N004612200019N0100001N1+02671+01031101051ADDAA199000091GF102991021021004501001001MA1999999091351MD1999999+0001REMSYN070AAXX  28184 83339 32497 21409 10267 20103 39135 40105 82200 333 58000;EQDQ01  00002PRCP99
0186833390999992001102912004-14040-042610FM-12+088299999V0200901N001512200019N0100001N1+02211+01531101611ADDAA199000091GF102991021021004501001001KA1240N+01621MA1999999091851MD1999999+0131REMSYN076AAXX  29124 83339 32497 20903 10221 20153 39185 40161 82200 333 20162 58013;EQDQ01  00002PRCP99
0167833390999992001102918004-14040-042610FM-12+088299999V0201401N002610042019N0100001N1+02871+01311101001ADDAA199000091GF106991061021004501001001MA1999999091311MD1999999-0041REMSYN070AAXX  29184 83339 32497 61405 10287 20131 39131 40100 86200 333 59004;EQDQ01  00002PRCP99
0198833390999992001103000004-14040-042610FM-12+088299999V0201401N003112200019N0020001N1+02481+01141101271ADDAA199000091GF104991021021004501031001KA1240M+02991MA1999999091561MD1999999+0011REMSYN088AAXX  30004 83339 32495 41406 10248 20114 39156 40127 82230 333 10299 29047 55097 58001;EQDQ01  00002PRCP99
0186833390999992001103012004-14040-042610FM-12+088299999V0200901N003110042019N0100001N1+02151+01781101601ADDAA199000091GF106991061021004501001001KA1240N+01821MA1999999091851MD1999999+0001REMSYN076AAXX  30124 83339 32497 60906 10215 20178 39185 40160 86200 333 20182 58000;EQDQ01  00002PRCP99
0167833390999992001103018004-14040-042610FM-12+088299999V0200901N005112200019N0100001N1+02931+01481101041ADDAA199000091GF102991021021004501001001MA1999999091361MD1999999+0051REMSYN070AAXX  30184 83339 32497 20910 10293 20148 39136 40104 82200 333 58005;EQDQ01  00002PRCP99
0196833390999992001103112004-14040-042610FM-12+088299999V0200901N003112200019N0100001N1+02381+01801101391ADDAA199000091GA1001+999999999GF100991001001999999001001KA1240N+01881MA1999999091691MD1999999-0161REMSYN070AAXX  31124 83339 32997 00906 10238 20180 39169 40139 333 20188 59016;EQDQ01  00002PRCP99
0167833390999992001103118004-14040-042610FM-12+088299999V0201401N002610450019N0100001N1+02831+01631100911ADDAA199000091GF106991031021004501031041MA1999999091241MD1999999-0121REMSYN070AAXX  31184 83339 32497 61405 10283 20163 39124 40091 83234 333 59012;EQDQ01  00002PRCP99
0198833390999992001110100004-14040-042610FM-12+088299999V0201401N005710450019N0020001N1+02491+01501101071ADDAA199000091GF106991031021004501031001KA1240M+02981MA1999999091401MD1999999-0201REMSYN088AAXX  01004 83339 32495 61411 10249 20150 39140 40107 83230 333 10298 29056 55084 59020;EQDQ01  00002PRCP99
0201833390999992001110112004-14040-042610FM-12+088299999V0209999C000010042019N0100001N1+02041+01851101391ADDAA124002091AY161061AY221061GF108991051021004501021999KA1240N+01881MA1999999091651MD1999999-0041MW1021REMSYN088AAXX  01124 83339 21497 80000 10204 20185 39165 40139 70262 8522/ 333 20188 59004 60024;
0182833390999992001110118004-14040-042610FM-12+088299999V0200901N001510450019N0100001N1+02441+01761100981ADDAA106000191AY161061AY221061GF106991041021004501031001MA1999999091281MD1999999+0041MW1021REMSYN082AAXX  01184 83339 21497 60903 10244 20176 39128 40098 70262 84230 333 58004 69921;
0198833390999992001110200004-14040-042610FM-12+088299999V0209999C000010450019N0020001N1+02151+01881101091ADDAA199000091GF106991041021004501031001KA1240M+02561MA1999999091351MD1999999-0051REMSYN088AAXX  02004 83339 32495 60000 10215 20188 39135 40109 84230 333 10256 29081 55012 59005;EQDQ01  00002PRCP99
0201833390999992001110212004-14040-042610FM-12+088299999V0200901N001510042019N0100001N1+02141+01901101241ADDAA124000191AY161061AY221061GF106991061021004501001001KA1240N+01911MA1999999091501MD1999999-0151MW1021REMSYN088AAXX  02124 83339 21497 60903 10214 20190 39150 40124 70262 86200 333 20191 59015 69924;
0182833390999992001110218004-14040-042610FM-12+088299999V0201801N003110042019N0100001N1+02111+01951101061ADDAA106016091AY191061AY261061GF108991051021004501021999MA1999999091321MD1999999+0041MW1171REMSYN082AAXX  02184 83339 21497 81806 10211 20195 39132 40106 71796 8522/ 333 58004 60161;
0226833390999992001110300004-14040-042610FM-12+088299999V0201401N001510450019N0020001N1+02081+01931101121ADDAA199000091AY191061AY221061GF106991041021004501031001KA1240M+02721MA1999999091381MD1999999+0031MW1021REMSYN094AAXX  03004 83339 31495 61403 10208 20193 39138 40112 70292 84230 333 10272 29089 55015 58003;EQDQ01  00002PRCP99
0201833390999992001110312004-14040-042610FM-12+088299999V0200901N002610042019N0100001N1+02241+01961101311ADDAA124016091AY161061AY221061GF106991061021004501001001KA1240N+01861MA1999999091561MD1999999+0061MW1021REMSYN088AAXX  03124 83339 21497 60905 10224 20196 39156 40131 70262 86200 333 20186 58006 60164;
0182833390999992001110318004-14040-042610FM-12+088299999V0201401N001010042019N0100001N1+02291+02071100901ADDAA106027991AY191061AY261061GF105991051021004501001001MA1999999091181MD1999999-0141MW1021REMSYN082AAXX  03184 83339 21497 51402 10229 20207 39118 40090 70296 85200 333 59014 60281;
0226833390999992001110400004-14040-042610FM-12+088299999V0200901N003110042019N0100001N1+02431+01791101111ADDAA199000091AY121061AY221061GF106991061021004501001001KA1240M+02801MA1999999091421MD1999999+0041MW1131REMSYN094AAXX  04004 83339 31497 60906 10243 20179 39142 40111 71322 86200 333 10280 29076 55063 58004;EQDQ01  00002PRCP99
0201833390999992001110412004-14040-042610FM-12+088299999V0200501N002612200019N0100001N1+02411+01951101271ADDAA124027991AY161061AY221061GF103991031021004501001001KA1240N+01881MA1999999091571MD1999999+0011MW1021REMSYN088AAXX  04124 83339 21497 30505 10241 20195 39157 40127 70262 83200 333 20188 58001 60284;
0182833390999992001110418004-14040-042610FM-12+088299999V0209999C000010450019N0100001N1+02071+01951101091ADDAA106017091AY191061AY261061GF108991041021004501021999MA1999999091351MD1999999+0171MW1171REMSYN082AAXX  04184 83339 21497 80000 10207 20195 39135 40109 71796 8422/ 333 58017 60171;
0213833390999992001110500004-14040-042610FM-12+088299999V0209999C000012200019N0020001N1+02041+01921101161ADDAA106000191AY191061AY261061GF102991021021004501001001KA1240M+02941MA1999999091401MD1999999+0021MW1021REMSYN100AAXX  05004 83339 21495 20000 10204 20192 39140 40116 70296 82200 333 10294 29088 55053 58002 69921;
0201833390999992001110512004-14040-042610FM-12+088299999V0200501N001510042019N0100001N1+02471+02071101371ADDAA124017091AY161061AY261061GF106991051021004501021001KA1240N+01901MA1999999091641MD1999999+0071MW1021REMSYN088AAXX  05124 83339 21497 60503 10247 20207 39164 40137 70266 85220 333 20190 58007 60174;
0167833390999992001110518004-14040-042610FM-12+088299999V0200501N001511050019N0100001N1+03051+01821100891ADDAA199000091GF105991041021004501001021MA1999999091251MD1999999-0101REMSYN070AAXX  05184 83339 32497 50503 10305 20182 39125 40089 84202 333 59010;EQDQ01  00002PRCP99
0186833390999992001110612004-14040-042610FM-12+088299999V0201401N002112200019N0100001N1+02571+02081101311ADDAA199000091GF102991021021004501001001KA1240N+02141MA1999999091651MD1999999+0011REMSYN076AAXX  06124 83339 32497 21404 10257 20208 39165 40131 82200 333 20214 58001;EQDQ01  00002PRCP99
0167833390999992001110618004-14040-042610FM-12+088299999V0201401N004610042019N0100001N1+02831+01771101001ADDAA199000091GF107991061021004501021999MA1999999091361MD1999999+0111REMSYN070AAXX  06184 83339 32497 71409 10283 20177 39136 40100 8622/ 333 58011;EQDQ01  00002PRCP99
0226833390999992001110700004-14040-042610FM-12+088299999V0201401N009310042019N0020001N1+02211+01971101331ADDAA199000091AY101061AY201061GF106991061021004501001001KA1240M+03101MA1999999091631MD1999999+0191MW1101REMSYN094AAXX  07004 83339 31495 61418 10221 20197 39163 40133 71000 86200 333 10310 29074 55073 58019;EQDQ01  00002PRCP99
0186833390999992001110712004-14040-042610FM-12+088299999V0201401N004610042019N0100001N1+02271+01751101571ADDAA199000091GF106991051021004501031001KA1240N+02001MA1999999091821MD1999999+0181REMSYN076AAXX  07124 83339 32497 61409 10227 20175 39182 40157 85230 333 20200 58018;EQDQ01  00002PRCP99
0167833390999992001110718004-14040-042610FM-12+088299999V0201401N002610450019N0100001N1+02591+01801101261ADDAA199000091GF105991041021004501021001MA1999999091551MD1999999+0191REMSYN070AAXX  07184 83339 32497 51405 10259 20180 39155 40126 84220 333 58019;EQDQ01  00002PRCP99
0198833390999992001110800004-14040-042610FM-12+088299999V0201401N005712200019N0020001N1+02331+01761101351ADDAA199000091GF103991031021004501001001KA1240M+02721MA1999999091631MD1999999+0001REMSYN088AAXX  08004 83339 32495 31411 10233 20176 39163 40135 83200 333 10272 29068 55064 58000;EQDQ01  00002PRCP99
0214833390999992001110812004-14040-042610FM-12+088299999V0201401N004110042019N0100001N1+02111+01761101591ADDAA199000091AY101061AY201061GF105991051021004501001001KA1240N+01901MA1999999091831MD1999999+0011MW1101REMSYN082AAXX  08124 83339 31497 51408 10211 20176 39183 40159 71000 85200 333 20190 58001;EQDQ01  00002PRCP99
0167833390999992001110818004-14040-042610FM-12+088299999V0200501N004612200019N0100001N1+02791+01411101171ADDAA199000091GF103991021021004501031001MA1999999091481MD1999999-0071REMSYN070AAXX  08184 83339 32497 30509 10279 20141 39148 40117 82230 333 59007;EQDQ01  00002PRCP99
0208833390999992001110900004-14040-042610FM-12+088299999V0201401N005712200019N0020001N1+02351+01521101361ADDAA199000091GA1001+999999999GF100991001001999999001001KA1240M+03861MA1999999091631MD1999999+0001REMSYN082AAXX  09004 83339 32995 01411 10235 20152 39163 40136 333 10386 29060 55086 58000;EQDQ01  00002PRCP99
0186833390999992001110912004-14040-042610FM-12+088299999V0201401N006212200019N0100001N1+02251+01781101461ADDAA199000091GF103991021021004501001021KA1240N+01801MA1999999091741MD1999999-0091REMSYN076AAXX  09124 83339 32497 31412 10225 20178 39174 40146 82202 333 20180 59009;EQDQ01  00002PRCP99
0167833390999992001110918004-14040-042610FM-12+088299999V0201401N003110450019N0100001N1+02871+01251101141ADDAA199000091GF105991041021004501021001MA1999999091461MD1999999-0021REMSYN070AAXX  09184 83339 32497 51406 10287 20125 39146 40114 84220 333 59002;EQDQ01  00002PRCP99
0198833390999992001111000004-14040-042610FM-12+088299999V0201401N006212200019N0020001N1+02551+01161101331ADDAA199000091GF102991021021004501001001KA1240M+02921MA1999999091631MD1999999+0001REMSYN088AAXX  10004 83339 32495 21412 10255 20116 39163 40133 82200 333 10292 29048 55096 58000;EQDQ01  00002PRCP99
0186833390999992001111012004-14040-042610FM-12+088299999V0200501N007712200019N0100001N1+02291+01771101561ADDAA199000091GF104991041021004501001001KA1240N+01921MA1999999091841MD1999999+0101REMSYN076AAXX  10124 83339 32497 40515 10229 20177 39184 40156 84200 333 20192 58010;EQDQ01  00002PRCP99
0167833390999992001111018004-14040-042610FM-12+088299999V0201401N003112200019N0100001N1+02851+01501101121ADDAA199000091GF102991021021004501001001MA1999999091441MD1999999-0021REMSYN070AAXX  10184 83339 32497 21406 10285 20150 39144 40112 82200 333 59002;EQDQ01  00002PRCP99
0186833390999992001111112004-14040-042610FM-12+088299999V0201401N003612200019N0100001N1+02251+01711101601ADDAA199000091GF102991021021004501001001KA1240N+01821MA1999999091861MD1999999+0021REMSYN076AAXX  11124 83339 32497 21407 10225 20171 39186 40160 82200 333 20182 58002;EQDQ01  00002PRCP99
0167833390999992001111118004-14040-042610FM-12+088299999V0200501N004112200019N0100001N1+02971+01291101031ADDAA199000091GF102991021021004501001001MA1999999091391MD1999999-0051REMSYN070AAXX  11184 83339 32497 20508 10297 20129 39139 40103 82200 333 59005;EQDQ01  00002PRCP99
0208833390999992001111200004-14040-042610FM-12+088299999V0201401N003112200019N0020001N1+02491+00831101181ADDAA199000091GA1001+999999999GF100991001001999999001001KA1240M+03021MA1999999091481MD1999999-0091REMSYN082AAXX  12004 83339 32995 01406 10249 20083 39148 40118 333 10302 29045 55106 59009;EQDQ01  00002PRCP99
0186833390999992001111212004-14040-042610FM-12+088299999V0203201N002612200019N0100001N1+02391+01731101511ADDAA199000091GF103991031021004501001001KA1240N+01711MA1999999091801MD1999999-0061REMSYN076AAXX  12124 83339 32497 33205 10239 20173 39180 40151 83200 333 20171 59006;EQDQ01  00002PRCP99
0167833390999992001111218004-14040-042610FM-12+088299999V0209999C000012200019N0100001N1+03171+01311100991ADDAA199000091GF104991041021004501001001MA1999999091351MD1999999-0041REMSYN070AAXX  12184 83339 32497 40000 10317 20131 39135 40099 84200 333 59004;EQDQ01  00002PRCP99
0208833390999992001111300004-14040-042610FM-12+088299999V0201401N005112200019N0020001N1+02671+00921101121ADDAA199000091GA1001+999999999GF100991001001999999001001KA1240M+03381MA1999999091471MD1999999-0011REMSYN082AAXX  13004 83339 32995 01410 10267 20092 39147 40112 333 10338 29041 55102 59001;EQDQ01  00002PRCP99
0202833390999992001111312004-14040-042610FM-12+088299999V0200501N002112200019N0100001N1+02561+01751101231ADDAA199000091GF102991001001999999001041KA1240N+01821MA1999999091581MD1999999-0221REMSYN076AAXX  13124 83339 32897 20504 10256 20175 39158 40123 80004 333 20182 59022;EQDQ01+022502SCOLCBQ02  00002PRCP99
0167833390999992001111318004-14040-042610FM-12+088299999V0201401N002110042019N0100001N1+03151+01601100681ADDAA199000091GF106991061021004501001001MA1999999091071MD1999999-0281REMSYN070AAXX  13184 83339 32497 61404 10315 20160 39107 40068 86200 333 59028;EQDQ01  00002PRCP99
0198833390999992001111400004-14040-042610FM-12+088299999V0201401N002112200019N0020001N1+02671+01421100881ADDAA199000091GF102991021021004501001001KA1240M+03221MA1999999091261MD1999999-0211REMSYN088AAXX  14004 83339 32495 21404 10267 20142 39126 40088 82200 333 10322 29048 55094 59021;EQDQ01  00002PRCP99
0202833390999992001111412004-14040-042610FM-12+088299999V0200501N002112200019N0100001N1+02531+01861101021ADDAA199000091GF102991001001999999001041KA1240N+02041MA1999999091391MD1999999-0191REMSYN076AAXX  14124 83339 32897 20504 10253 20186 39139 40102 80004 333 20204 59019;EQDQ01+022502SCOLCBQ02  00002PRCP99
0183833390999992001111418004-14040-042610FM-12+088299999V0202701N001019999999N0100001N1+03221+01391100401ADDAA199000091GF105991999021004501001001MA1999999090841MD1999999-0231REMSYN070AAXX  14184 83339 32497 52702 10322 20139 39084 40040 86200 333 59023;EQDQ01+000062SCOTLCQ02  00002PRCP99
0232833390999992001111500004-14040-042610FM-12+088299999V0201401N001512200019N9999999N1+02101+02021101021ADDAA106002091AY191061AY261061GF102991999021004501021999KA1240M+03271MA1999999091331MD1999999+0071MW1601REMSYN100AAXX  15004 83339 214// 21403 10210 20202 39133 40102 76096 8522/ 333 10327 29072 55080 58007 60021;EQDQ01+000052SCOTLC
0201833390999992001111512004-14040-042610FM-12+088299999V0203201N001010042019N0010001N1+02051+01911101401ADDAA124014091AY191061AY261061GF108991061021004501021999KA1240N+01961MA1999999091631MD1999999+0241MW1401REMSYN088AAXX  15124 83339 21494 83202 10205 20191 39163 40140 74096 8622/ 333 20196 58024 60144;
0182833390999992001111518004-14040-042610FM-12+088299999V0200501N001512200019N0100001N1+02571+02011100861ADDAA106000591AY161061AY241061GF103991021021004501001011MA1999999091171MD1999999+0331MW1021REMSYN082AAXX  15184 83339 21497 30503 10257 20201 39117 40086 70264 82201 333 58033 69961;
0198833390999992001111600004-14040-042610FM-12+088299999V0209999C000010042019N0020001N1+02341+01981101161ADDAA199000091GF108991051021004501021999KA1240M+02631MA1999999091441MD1999999+0111REMSYN088AAXX  16004 83339 32495 80000 10234 20198 39144 40116 8522/ 333 10263 29080 55030 58011;EQDQ01  00002PRCP99
0201833390999992001111612004-14040-042610FM-12+088299999V0203201N002110450019N0100001N1+02421+02011101341ADDAA124000591AY161061AY221061GF106991041021004501031001KA1240N+02051MA1999999091641MD1999999+0011MW1021REMSYN088AAXX  16124 83339 21497 63204 10242 20201 39164 40134 70262 84230 333 20205 58001 69964;
0167833390999992001111618004-14040-042610FM-12+088299999V0202301N005110450019N0100001N1+02541+02131101011ADDAA199000091GF106991041021004501021001MA1999999091331MD1999999+0161REMSYN070AAXX  16184 83339 32497 62310 10254 20213 39133 40101 84220 333 58016;EQDQ01  00002PRCP99
0198833390999992001111700004-14040-042610FM-12+088299999V0200501N001010042019N0200001N1+02151+02011101341ADDAA199000091GF108991051021004501021999KA1240M+02761MA1999999091621MD1999999+0181REMSYN088AAXX  17004 83339 32498 80502 10215 20201 39162 40134 8522/ 333 10276 29084 55011 58018;EQDQ01  00002PRCP99
0201833390999992001111712004-14040-042610FM-12+088299999V0200901N003110042019N0100001N1+02311+02091101361ADDAA124019191AY161061AY241061GF106991061021004501001001KA1240N+01961MA1999999091631MD1999999-0011MW1021REMSYN088AAXX  17124 83339 21497 60906 10231 20209 39163 40136 70264 86200 333 20196 59001 60194;
0182833390999992001111718004-14040-042610FM-12+088299999V0209999C000010042019N0100001N1+02231+01961101051ADDAA106004191AY161061AY221061GF106991061021004501001001MA1999999091321MD1999999-0011MW1021REMSYN082AAXX  17184 83339 21497 60000 10223 20196 39132 40105 70262 86200 333 59001 60041;
0198833390999992001111800004-14040-042610FM-12+088299999V0202301N002610042019N0020001N1+02341+01831101161ADDAA199000091GF105991051021004501001001KA1240M+02781MA1999999091451MD1999999-0171REMSYN088AAXX  18004 83339 32495 52305 10234 20183 39145 40116 85200 333 10278 29079 55036 59017;EQDQ01  00002PRCP99
0201833390999992001111812004-14040-042610FM-12+088299999V0209999C000010042019N0100001N1+02291+01981101411ADDAA124004191AY161061AY221061GF106991061021004501001001KA1240N+01941MA1999999091681MD1999999+0051MW1021REMSYN088AAXX  18124 83339 21497 60000 10229 20198 39168 40141 70262 86200 333 20194 58005 60044;
0182833390999992001111818004-14040-042610FM-12+088299999V0209999C000012200019N0100001N1+02241+02101101011ADDAA106014091AY161061AY221061GF106991041021004501001041MA1999999091281MD1999999-0041MW1021REMSYN082AAXX  18184 83339 21497 60000 10224 20210 39128 40101 70262 84204 333 59004 60141;
0198833390999992001111900004-14040-042610FM-12+088299999V0209999C000010042019N0020001N1+02251+02141101231ADDAA199000091GF108991051021004501021999KA1240M+02651MA1999999091521MD1999999+0071REMSYN088AAXX  19004 83339 32495 80000 10225 20214 39152 40123 8522/ 333 10265 29090 55005 58007;EQDQ01  00002PRCP99
0201833390999992001111912004-14040-042610FM-12+088299999V0200501N002610042019N0100001N1+02251+01921101531ADDAA124014091AY161061AY261061GF106991061021004501001001KA1240N+01921MA1999999091781MD1999999+0101MW1101REMSYN088AAXX  19124 83339 21497 60505 10225 20192 39178 40153 71066 86200 333 20192 58010 60144;
0167833390999992001111918004-14040-042610FM-12+088299999V0200901N001510042019N0100001N1+02691+01671101111ADDAA199000091GF106991061021004501001001MA1999999091431MD1999999-0171REMSYN070AAXX  19184 83339 32497 60903 10269 20167 39143 40111 86200 333 59017;EQDQ01  00002PRCP99
0186833390999992001112012004-14040-042610FM-12+088299999V0201401N004112200019N0100001N1+02211+01741101401ADDAA199000091GF102991021021004501001001KA1240N+01821MA1999999091651MD1999999-0131REMSYN076AAXX  20124 83339 32497 21408 10221 20174 39165 40140 82200 333 20182 59013;EQDQ01  00002PRCP99
0167833390999992001112018004-14040-042610FM-12+088299999V0201401N001512200019N0100001N1+02891+01391100911ADDAA199000091GF102991011021004501001021MA1999999091251MD1999999-0181REMSYN070AAXX  20184 83339 32497 21403 10289 20139 39125 40091 81202 333 59018;EQDQ01  00002PRCP99
0198833390999992001112100004-14040-042610FM-12+088299999V0201401N004110042019N0020001N1+02531+01171101121ADDAA199000091GF105991051021004501001001KA1240M+02961MA1999999091431MD1999999-0151REMSYN088AAXX  21004 83339 32495 51408 10253 20117 39143 40112 85200 333 10296 29050 55116 59015;EQDQ01  00002PRCP99
0186833390999992001112112004-14040-042610FM-12+088299999V0201401N004110042019N0100001N1+02011+01601101481ADDAA199000091GF106991061021004501001001KA1240N+01801MA1999999091741MD1999999+0091REMSYN076AAXX  21124 83339 32497 61408 10201 20160 39174 40148 86200 333 20180 58009;EQDQ01  00002PRCP99
0167833390999992001112118004-14040-042610FM-12+088299999V0201401N003112200019N0100001N1+02751+01341101191ADDAA199000091GF103991031021004501001001MA1999999091491MD1999999+0241REMSYN070AAXX  21184 83339 32497 31406 10275 20134 39149 40119 83200 333 58024;EQDQ01  00002PRCP99
0198833390999992001112200004-14040-042610FM-12+088299999V0201401N004110042019N0020001N1+02351+01521101431ADDAA199000091GF106991061021004501001001KA1240M+02831MA1999999091691MD1999999+0261REMSYN088AAXX  22004 83339 32495 61408 10235 20152 39169 40143 86200 333 10283 29060 55050 58026;EQDQ01  00002PRCP99
0167833390999992001112218004-14040-042610FM-12+088299999V0200901N005710042019N0100001N1+02591+01741101211ADDAA199000091GF106991051021004501021001MA1999999091501MD1999999+0011REMSYN070AAXX  22184 83339 32497 60911 10259 20174 39150 40121 85220 333 58001;EQDQ01  00002PRCP99
0226833390999992001112300004-14040-042610FM-12+088299999V0201401N005112200019N0020001N1+02071+01801101321ADDAA199000091AY101061AY201061GF102991021021004501001001KA1240M+02641MA1999999091551MD1999999-0141MW1101REMSYN094AAXX  23004 83339 31495 21410 10207 20180 39155 40132 71000 82200 333 10264 29078 55007 59014;EQDQ01  00002PRCP99
0186833390999992001112312004-14040-042610FM-12+088299999V0200501N004612200019N0100001N1+02251+01731101271ADDAA199000091GF104991041021004501001001KA1240N+01821MA1999999091531MD1999999-0331REMSYN076AAXX  23124 83339 32497 40509 10225 20173 39153 40127 84200 333 20182 59033;EQDQ01  00002PRCP99
0167833390999992001112318004-14040-042610FM-12+088299999V0201401N002612200019N0100001N1+02851+01351100791ADDAA199000091GF103991031021004501001001MA1999999091131MD1999999-0371REMSYN070AAXX  23184 83339 32497 31405 10285 20135 39113 40079 83200 333 59037;EQDQ01  00002PRCP99
0184833390999992001112400004-14040-042610FM-12+088299999V0209999C000010042019N0020001N1+02371+01711100981ADDAA199000091GF106991061021004501001001KA1240M+02921MA1999999091201REMSYN088AAXX  24004 83339 32495 60000 10237 20171 39120 40098 86200 333 10292 29060 55074 5906/;EQDQ01  00002PRCP99
0201833390999992001112412004-14040-042610FM-12+088299999V0200901N001510042019N0100001N1+02151+01741101151ADDAA124000591AY161061AY261061GF106991061021004501001001KA1240N+01901MA1999999091441MD1999999-0091MW1021REMSYN088AAXX  24124 83339 21497 60903 10215 20174 39144 40115 70266 86200 333 20190 59009 69944;
0167833390999992001112418004-14040-042610FM-12+088299999V0200901N000510042019N0100001N1+02871+01411100641ADDAA199000091GF105991051021004501001001MA1999999091031MD1999999-0101REMSYN070AAXX  24184 83339 32497 50901 10287 20141 39103 40064 85200 333 59010;EQDQ01  00002PRCP99
0213833390999992001112500004-14040-042610FM-12+088299999V0201401N001010042019N0020001N1+01991+01861101171ADDAA106009991AY191061AY261061GF108991081051004501999999KA1240M+02981MA1999999091421MD1999999+0131MW1101REMSYN100AAXX  25004 83339 21495 81402 10199 20186 39142 40117 71096 885// 333 10298 29075 55030 58013 60101;
0201833390999992001112512004-14040-042610FM-12+088299999V0201401N003110042019N0040001N1+02011+01901101381ADDAA124009991AY161061AY261061GF108991081051004501999999KA1240N+01921MA1999999091601MD1999999+0161MW1101REMSYN088AAXX  25124 83339 21496 81406 10201 20190 39160 40138 71066 885// 333 20192 58016 60104;
0167833390999992001112518004-14040-042610FM-12+088299999V0201401N003110042019N0100001N1+02531+01841100921ADDAA199000091GF106991051021004501021001MA1999999091231MD1999999+0201REMSYN070AAXX  25184 83339 32497 61406 10253 20184 39123 40092 85220 333 58020;EQDQ01  00002PRCP99
0226833390999992001112600004-14040-042610FM-12+088299999V0209999C000010042019N0020001N1+02071+01851101141ADDAA199000091AY101061AY201061GF105991051021004501001001KA1240M+02601MA1999999091391MD1999999-0031MW1101REMSYN094AAXX  26004 83339 31495 50000 10207 20185 39139 40114 71000 85200 333 10260 29084 55011 59003;EQDQ01  00002PRCP99
0186833390999992001112612004-14040-042610FM-12+088299999V0201401N005712200019N0100001N1+02241+01571101331ADDAA199000091GF103991011021004501001011KA1240N+01881MA1999999091581MD1999999-0021REMSYN076AAXX  26124 83339 32497 31411 10224 20157 39158 40133 81201 333 20188 59002;EQDQ01  00002PRCP99
0167833390999992001112618004-14040-042610FM-12+088299999V0200501N004112200019N0100001N1+02791+01501100871ADDAA199000091GF102991021021004501001001MA1999999091211MD1999999-0021REMSYN070AAXX  26184 83339 32497 20508 10279 20150 39121 40087 82200 333 59002;EQDQ01  00002PRCP99
0192833390999992001112700004-14040-042610FM-12+088299999V0201401N005712200019N0020001N1+99999+99999101161ADDAA199000091GF102991021021004501001001KA1240M+02741MA1999999091451MD1999999+0061REMSYN082AAXX  27004 83339 32495 21411 20160 39145 40116 82200 333 10274 29059 55106 58006;EQDQ01  00002PRCP99
0186833390999992001112712004-14040-042610FM-12+088299999V0200901N003110042019N0100001N1+02211+01711101301ADDAA199000091GF105991051021004501001001KA1240N+01781MA1999999091571MD1999999-0011REMSYN076AAXX  27124 83339 32497 50906 10221 20171 39157 40130 85200 333 20178 59001;EQDQ01  00002PRCP99
0167833390999992001112718004-14040-042610FM-12+088299999V0200501N003112200019N0100001N1+02831+01571100921ADDAA199000091GF104991041021004501001001MA1999999091241MD1999999+0031REMSYN070AAXX  27184 83339 32497 40506 10283 20157 39124 40092 84200 333 58003;EQDQ01  00002PRCP99
0208833390999992001112800004-14040-042610FM-12+088299999V0201401N005712200019N0020001N1+02391+01601101051ADDAA199000091GA1001+999999999GF100991001001999999001001KA1240M+02891MA1999999091351MD1999999-0101REMSYN082AAXX  28004 83339 32995 01411 10239 20160 39135 40105 333 10289 29060 55103 59010;EQDQ01  00002PRCP99
0186833390999992001112812004-14040-042610FM-12+088299999V0200901N004112200019N0100001N1+02311+01811101291ADDAA199000091GF103991031021004501001001KA1240N+01851MA1999999091581MD1999999+0011REMSYN076AAXX  28124 83339 32497 30908 10231 20181 39158 40129 83200 333 20185 58001;EQDQ01  00002PRCP99
0167833390999992001112818004-14040-042610FM-12+088299999V0200901N002112200019N0100001N1+02991+01641100771ADDAA199000091GF103991031021004501001001MA1999999091141MD1999999-0101REMSYN070AAXX  28184 83339 32497 30904 10299 20164 39114 40077 83200 333 59010;EQDQ01  00002PRCP99
0208833390999992001112900004-14040-042610FM-12+088299999V0201401N004112200019N0020001N1+02501+01501100971ADDAA199000091GA1001+999999999GF100991001001999999001001KA1240M+03041MA1999999091301MD1999999-0051REMSYN082AAXX  29004 83339 32995 01408 10250 20150 39130 40097 333 10304 29056 55106 59005;EQDQ01  00002PRCP99
0196833390999992001112912004-14040-042610FM-12+088299999V0200901N002612200019N0100001N1+02431+01811101101ADDAA199000091GA1001+999999999GF100991001001999999001001KA1240N+01871MA1999999091431MD1999999-0151REMSYN070AAXX  29124 83339 32997 00905 10243 20181 39143 40110 333 20187 59015;EQDQ01  00002PRCP99
0182833390999992001112918004-14040-042610FM-12+088299999V0203201N003110042019N0100001N1+02311+01871100761ADDAA106000191AY161061AY221061GF108991061021004501021999MA1999999091051MD1999999-0091MW1021REMSYN082AAXX  29184 83339 21497 83206 10231 20187 39105 40076 70262 8622/ 333 59009 69921;
0198833390999992001113000004-14040-042610FM-12+088299999V0209999C000010042019N0020001N1+02201+01861101051ADDAA199000091GF108991061021004501021999KA1240M+02941MA1999999091351MD1999999+0051REMSYN088AAXX  30004 83339 32495 80000 10220 20186 39135 40105 8622/ 333 10294 29076 55063 58005;EQDQ01  00002PRCP99
0201833390999992001113012004-14040-042610FM-12+088299999V0209999C000010042019N0010001N1+02021+01941101241ADDAA124016091AY161061AY241061GF108991051021004501021999KA1240N+01901MA1999999091491MD1999999+0061MW1601REMSYN088AAXX  30124 83339 21494 80000 10202 20194 39149 40124 76064 8522/ 333 20190 58006 60164;
0182833390999992001113018004-14040-042610FM-12+088299999V0202701N002110042019N0100001N1+02251+02111100791ADDAA106005191AY161061AY261061GF106991051021004501031001MA1999999091071MD1999999+0021MW1401REMSYN082AAXX  30184 83339 21497 62704 10225 20211 39107 40079 74066 85230 333 58002 60051;
0213833390999992001120100004-14040-042610FM-12+088299999V0202701N002610042019N0020001N1+02051+01941101111ADDAA106006191AY161061AY241061GF108991051021004501021999KA1240M+02481MA1999999091361MD1999999+0011MW1021REMSYN100AAXX  01004 83339 21495 82705 10205 20194 39136 40111 70264 8522/ 333 10248 29093 55005 58001 60061;
0201833390999992001120112004-14040-042610FM-12+088299999V0202701N002610450019N0100001N1+02411+01951101141ADDAA124010991AY161061AY221061GF106991041021004501031001KA1240N+01981MA1999999091431MD1999999-0061MW1021REMSYN088AAXX  01124 83339 21497 62705 10241 20195 39143 40114 70262 84230 333 20198 59006 60114;
0167833390999992001120118004-14040-042610FM-12+088299999V0202701N003112200019N0100001N1+02731+01951101311ADDAA199000091GF105991031021004501001011MA1999999091601MD1999999+0241REMSYN070AAXX  01184 83339 32497 52706 10273 20195 39160 40131 83201 333 58024;EQDQ01  00002PRCP99
0198833390999992001120200004-14040-042610FM-12+088299999V0202701N003110042019N0020001N1+02251+02031101081ADDAA199000091GF108991051021004501021999KA1240M+02791MA1999999091391MD1999999+0031REMSYN088AAXX  02004 83339 32495 82706 10225 20203 39139 40108 8522/ 333 10279 29078 55028 58003;EQDQ01  00002PRCP99
0186833390999992001120212004-14040-042610FM-12+088299999V0209999C000010450019N0100001N1+02471+02031101171ADDAA199000091GF106991041021004501031001KA1240N+02031MA1999999091471MD1999999+0041REMSYN076AAXX  02124 83339 32497 60000 10247 20203 39147 40117 84230 333 20203 58004;EQDQ01  00002PRCP99
0167833390999992001120218004-14040-042610FM-12+088299999V0201401N001510042019N0100001N1+02491+02491100841ADDAA199000091GF106991061021004501001001MA1999999091161MD1999999+0061REMSYN070AAXX  02184 83339 32497 61403 10249 20249 39116 40084 86200 333 58006;EQDQ01  00002PRCP99
0198833390999992001120300004-14040-042610FM-12+088299999V0209999C000010042019N0020001N1+02151+01991101181ADDAA199000091GF108991051021004501021999KA1240M+02891MA1999999091471MD1999999+0081REMSYN088AAXX  03004 83339 32495 80000 10215 20199 39147 40118 8522/ 333 10289 29084 55037 58008;EQDQ01  00002PRCP99
0201833390999992001120312004-14040-042610FM-12+088299999V0201401N003110042019N0040001N1+01871+01781101311ADDAA124007991AY161061AY261061GF108991081051004501999999KA1240N+01801MA1999999091541MD1999999+0071MW1501REMSYN088AAXX  03124 83339 21496 81406 10187 20178 39154 40131 75066 885// 333 20180 58007 60084;
0182833390999992001120318004-14040-042610FM-12+088299999V0201401N006210042019N0040001N1+02091+01821101061ADDAA106000891AY161061AY261061GF107991061021004501021999MA1999999091321MD1999999+0161MW1101REMSYN082AAXX  03184 83339 21496 71412 10209 20182 39132 40106 71066 8622/ 333 58016 69981;
0207833390999992001120400004-14040-042610FM-12+088299999V0201401N007710042019N0020001N1+01951+01681101331ADDAA199000021AY101061AY201061GF106991061021004501001001KA1240M+02181MA1999999091531MD1999999+0061MW1101REMSYN094AAXX  04004 83339 31495 61415 10195 20168 39153 40133 71000 86200 333 10218 29088 55005 58006;
0201833390999992001120412004-14040-042610FM-12+088299999V0201401N004610042019N0100001N1+02031+01641101451ADDAA124000891AY161061AY261061GF106991061021004501001001KA1240N+01701MA1999999091651MD1999999+0111MW1021REMSYN088AAXX  04124 83339 21497 61409 10203 20164 39165 40145 70266 86200 333 20170 58011 69984;
0167833390999992001120418004-14040-042610FM-12+088299999V0200901N005112200019N0100001N1+02531+01551101131ADDAA199000091GF103991031021004501001001MA1999999091401MD1999999-0081REMSYN070AAXX  04184 83339 32497 30910 10253 20155 39140 40113 83200 333 59008;EQDQ01  00002PRCP99
0208833390999992001120500004-14040-042610FM-12+088299999V0200901N000512200019N0020001N1+02091+01581101261ADDAA199000091GA1001+999999999GF100991001001999999001001KA1240M+02581MA1999999091501MD1999999-0031REMSYN082AAXX  05004 83339 32995 00901 10209 20158 39150 40126 333 10258 29069 55073 59003;EQDQ01  00002PRCP99
0214833390999992001120512004-14040-042610FM-12+088299999V0201401N004610042019N0100001N1+02191+01941101351ADDAA199000091AY101061AY201061GF106991061021004501001001KA1240N+01901MA1999999091601MD1999999-0051MW1101REMSYN082AAXX  05124 83339 31497 61409 10219 20194 39160 40135 71000 86200 333 20190 59005;EQDQ01  00002PRCP99
0167833390999992001120518004-14040-042610FM-12+088299999V0200501N004112200019N0100001N1+02711+01511101011ADDAA199000091GF103991031021004501001001MA1999999091321MD1999999-0081REMSYN070AAXX  05184 83339 32497 30508 10271 20151 39132 40101 83200 333 59008;EQDQ01  00002PRCP99
0226833390999992001120600004-14040-042610FM-12+088299999V0201401N005712200019N0020001N1+02211+01921101161ADDAA199000091AY101061AY201061GF102991021021004501001001KA1240M+02801MA1999999091441MD1999999-0061MW1101REMSYN094AAXX  06004 83339 31495 21411 10221 20192 39144 40116 71000 82200 333 10280 29074 55093 59006;EQDQ01  00002PRCP99
0214833390999992001120612004-14040-042610FM-12+088299999V0201401N005110042019N0100001N1+02051+01741101391ADDAA199000091AY101061AY201061GF106991061021004501001001KA1240N+01781MA1999999091631MD1999999+0031MW1101REMSYN082AAXX  06124 83339 31497 61410 10205 20174 39163 40139 71000 86200 333 20178 58003;EQDQ01  00002PRCP99
0167833390999992001120618004-14040-042610FM-12+088299999V0200501N004612200019N0100001N1+02651+01541101001ADDAA199000091GF102991011021004501001041MA1999999091311MD1999999-0011REMSYN070AAXX  06184 83339 32497 20509 10265 20154 39131 40100 81204 333 59001;EQDQ01  00002PRCP99
0198833390999992001120700004-14040-042610FM-12+088299999V0201401N003612200019N0020001N1+02231+01131101191ADDAA199000091GF103991021021004501021001KA1240M+02731MA1999999091451MD1999999+0011REMSYN088AAXX  07004 83339 32495 31407 10223 20113 39145 40119 82220 333 10273 29058 55085 58001;EQDQ01  00002PRCP99
0202833390999992001120712004-14040-042610FM-12+088299999V0201401N007212200019N0100001N1+02271+01621101251ADDAA199000091GF104991999021004501001001KA1240N+01781MA1999999091531MD1999999-0101REMSYN076AAXX  07124 83339 32497 41414 10227 20162 39153 40125 83200 333 20178 59010;EQDQ01+000032SCOTLCQ02  00002PRCP99
0167833390999992001120718004-14040-042610FM-12+088299999V0201401N005112200019N0100001N1+02711+01301100941ADDAA199000091GF102991021021004501001001MA1999999091231MD1999999-0081REMSYN070AAXX  07184 83339 32497 21410 10271 20130 39123 40094 82200 333 59008;EQDQ01  00002PRCP99
0186833390999992001121012004-14040-042610FM-12+088299999V0200901N005710042019N0100001N1+02111+01761101411ADDAA199000091GF106991061021004501001001KA1240N+01861MA1999999091661MD1999999+0061REMSYN076AAXX  10124 83339 32497 60911 10211 20176 39166 40141 86200 333 20186 58006;EQDQ01  00002PRCP99
0167833390999992001121018004-14040-042610FM-12+088299999V0200901N005712200019N0100001N1+02691+01721101061ADDAA199000091GF105991041021004501001011MA1999999091361MD1999999+0111REMSYN070AAXX  10184 83339 32497 50911 10269 20172 39136 40106 84201 333 58011;EQDQ01  00002PRCP99
0186833390999992001121112004-14040-042610FM-12+088299999V0200901N005712200019N0100001N1+02161+01591101531ADDAA199000091GF102991021021004501001001KA1240N+01621MA1999999091751MD1999999+0091REMSYN076AAXX  11124 83339 32497 20911 10216 20159 39175 40153 82200 333 20162 58009;EQDQ01  00002PRCP99
0183833390999992001121118004-14040-042610FM-12+088299999V0200901N005112200019N0100001N1+02811+00991101121ADDAA199000091GF102991001001999999001011MA1999999091421MD1999999+0061REMSYN070AAXX  11184 83339 32897 20910 10281 20099 39142 40112 80001 333 58006;EQDQ01+022502SCOLCBQ02  00002PRCP99
0208833390999992001121200004-14040-042610FM-12+088299999V0201401N002612200019N0020001N1+02241+01321101251ADDAA199000091GA1001+999999999GF100991001001999999001001KA1240M+02851MA1999999091521MD1999999-0021REMSYN082AAXX  12004 83339 32995 01405 10224 20132 39152 40125 333 10285 29054 55120 59002;EQDQ01  00002PRCP99
0186833390999992001121212004-14040-042610FM-12+088299999V0200901N006712200019N0100001N1+02261+01571101331ADDAA199000091GF102991011021004501001011KA1240N+01701MA1999999091601MD1999999-0151REMSYN076AAXX  12124 83339 32497 20913 10226 20157 39160 40133 81201 333 20170 59015;EQDQ01  00002PRCP99
0167833390999992001121218004-14040-042610FM-12+088299999V0200901N005112200019N0100001N1+02731+01511100941ADDAA199000091GF104991041021004501001001MA1999999091251MD1999999-0171REMSYN070AAXX  12184 83339 32497 40910 10273 20151 39125 40094 84200 333 59017;EQDQ01  00002PRCP99
0208833390999992001121300004-14040-042610FM-12+088299999V0201401N005112200019N0020001N1+02281+01701101061ADDAA199000091GA1001+999999999GF100991001001999999001001KA1240M+02821MA1999999091351MD1999999-0171REMSYN082AAXX  13004 83339 32995 01410 10228 20170 39135 40106 333 10282 29063 55118 59017;EQDQ01  00002PRCP99
0186833390999992001121312004-14040-042610FM-12+088299999V0200901N003112200019N0100001N1+02301+01791101161ADDAA199000091GF105991031021004501001011KA1240N+01881MA1999999091451MD1999999-0151REMSYN076AAXX  13124 83339 32497 50906 10230 20179 39145 40116 83201 333 20188 59015;EQDQ01  00002PRCP99
0167833390999992001121318004-14040-042610FM-12+088299999V0201401N005112200019N0100001N1+02891+01551100711ADDAA199000091GF106991041021004501001011MA1999999091071MD1999999-0181REMSYN070AAXX  13184 83339 32497 61410 10289 20155 39107 40071 84201 333 59018;EQDQ01  00002PRCP99
0208833390999992001121400004-14040-042610FM-12+088299999V0200901N006712200019N0020001N1+02401+01581100881ADDAA199000091GA1001+999999999GF100991001001999999001001KA1240M+02981MA1999999091211MD1999999-0141REMSYN082AAXX  14004 83339 32995 00913 10240 20158 39121 40088 333 10298 29059 55106 59014;EQDQ01  00002PRCP99
0186833390999992001121412004-14040-042610FM-12+088299999V0200901N004612200019N0100001N1+02381+01801101201ADDAA199000091GF103991011021004501001041KA1240N+01901MA1999999091751MD1999999+0061REMSYN076AAXX  14124 83339 32497 30909 10238 20180 39175 40120 81204 333 20190 58006;EQDQ01  00002PRCP99
0167833390999992001121418004-14040-042610FM-12+088299999V0200901N004110042019N0100001N1+02811+01651100851ADDAA199000091GF106991061021004501001001MA1999999091181MD1999999+0111REMSYN070AAXX  14184 83339 32497 60908 10281 20165 39118 40085 86200 333 58011;EQDQ01  00002PRCP99
0208833390999992001121500004-14040-042610FM-12+088299999V0201401N005712200019N0020001N1+02451+01681101071ADDAA199000091GA1001+999999999GF100991001001999999001001KA1240M+03101MA1999999091391MD1999999+0181REMSYN082AAXX  15004 83339 32995 01411 10245 20168 39139 40107 333 10310 29061 55090 58018;EQDQ01  00002PRCP99
0186833390999992001121512004-14040-042610FM-12+088299999V0200901N002112200019N0100001N1+02331+01891101261ADDAA199000091GF103991011021004501001041KA1240N+01901MA1999999091561MD1999999+0051REMSYN076AAXX  15124 83339 32497 30904 10233 20189 39156 40126 81204 333 20190 58005;EQDQ01  00002PRCP99
0167833390999992001121518004-14040-042610FM-12+088299999V0200501N001512200019N0100001N1+03111+01481100751ADDAA199000091GF105991031021004501001011MA1999999091141MD1999999-0041REMSYN070AAXX  15184 83339 32497 50503 10311 20148 39114 40075 83201 333 59004;EQDQ01  00002PRCP99
0198833390999992001121600004-14040-042610FM-12+088299999V0200901N004112200019N0020001N1+02581+01491101021ADDAA199000091GF102991011011004501001011KA1240M+03181MA1999999091351MD1999999-0041REMSYN088AAXX  16004 83339 32495 20908 10258 20149 39135 40102 81101 333 10318 29054 55089 59004;EQDQ01  00002PRCP99
0186833390999992001121612004-14040-042610FM-12+088299999V0200501N002612200019N0100001N1+02491+01821101151ADDAA199000091GF103991011011004501031011KA1240N+01921MA1999999091501MD1999999-0061REMSYN076AAXX  16124 83339 32497 30505 10249 20182 39150 40115 81131 333 20192 59006;EQDQ01  00002PRCP99
0167833390999992001121618004-14040-042610FM-12+088299999V0200901N003110042019N0100001N1+03211+01571100651ADDAA199000091GF106991051021004501001011MA1999999091061MD1999999-0081REMSYN070AAXX  16184 83339 32497 60906 10321 20157 39106 40065 85201 333 59008;EQDQ01  00002PRCP99
0213833390999992001121700004-14040-042610FM-12+088299999V0209999C000010450019N0020001N1+02161+01951100991ADDAA106019191AY161061AY221061GF106991041021004501021001KA1240M+03301MA1999999091301MD1999999-0051MW1021REMSYN100AAXX  17004 83339 21495 60000 10216 20195 39130 40099 70262 84220 333 10330 29070 55089 59005 60191;
0201833390999992001121712004-14040-042610FM-12+088299999V0201401N001510042019N0040001N1+02051+01891101261ADDAA124020191AY161061AY261061GF108991081051004501999999KA1240N+01981MA1999999091511MD1999999+0011MW1601REMSYN088AAXX  17124 83339 21496 81403 10205 20189 39151 40126 76066 885// 333 20198 58001 60204;
0182833390999992001121718004-14040-042610FM-12+088299999V0200501N000510042019N0040001N1+02371+01991100891ADDAA106007191AY161061AY261061GF107991061021004501021999MA1999999091191MD1999999+0131MW1101REMSYN082AAXX  17184 83339 21496 70501 10237 20199 39119 40089 71066 8622/ 333 58013 60071;
0207833390999992001121800004-14040-042610FM-12+088299999V0201801N004610042019N0020001N1+02231+01961101121ADDAA199000021AY101061AY201061GF108991081051004501999999KA1240M+02751MA1999999091391MD1999999+0091MW1101REMSYN094AAXX  18004 83339 31495 81809 10223 20196 39139 40112 71000 885// 333 10275 29084 55012 58009;
0201833390999992001121812004-14040-042610FM-12+088299999V0209999C000010042019N0040001N1+02191+02111101251ADDAA124023191AY161061AY261061GF108991081051004501999999KA1240N+01961MA1999999091521MD1999999+0011MW1101REMSYN088AAXX  18124 83339 21496 80000 10219 20211 39152 40125 71066 885// 333 20196 58001 60234;
0182833390999992001121818004-14040-042610FM-12+088299999V0201801N002110042019N0100001N1+02431+02071101001ADDAA106000591AY161061AY261061GF106991051021004501021001MA1999999091291MD1999999+0101MW1101REMSYN082AAXX  18184 83339 21497 61804 10243 20207 39129 40100 71066 85220 333 58010 69941;
0213833390999992001121900004-14040-042610FM-12+088299999V0203601N001510042019N0020001N1+02031+01871101351ADDAA106010991AY161061AY261061GF108991081051004501999999KA1240M+02541MA1999999091591MD1999999+0201MW1101REMSYN100AAXX  19004 83339 21495 83603 10203 20187 39159 40135 71066 885// 333 10254 29089 55000 58020 60111;
0201833390999992001121912004-14040-042610FM-12+088299999V0200501N002110042019N0100001N1+02291+01941101311ADDAA124010991AY161061AY261061GF106991051021004501031001KA1240N+01921MA1999999091561MD1999999+0041MW1101REMSYN088AAXX  19124 83339 21497 60504 10229 20194 39156 40131 71066 85230 333 20192 58004 60114;
0195833390999992001121918004-14040-042610FM-12+088299999V0202301N001510042019N0040001N1+01951+01871101161ADDAA106021191AY191061AY261061GF108991081051004501999999MA1999999091401MD1999999+0111REMSYN082AAXX  19184 83339 21496 82303 10195 20187 39140 40116 76996 885// 333 58011 60211;EQDQ01+000692PRSWM1
0213833390999992001122000004-14040-042610FM-12+088299999V0209999C000010042019N0020001N1+02061+01761101221ADDAA106000191AY161061AY261061GF105991051021004501001001KA1240M+02841MA1999999091481MD1999999-0111MW1101REMSYN100AAXX  20004 83339 21495 50000 10206 20176 39148 40122 71066 85200 333 10284 29086 55023 59011 69911;
0201833390999992001122012004-14040-042610FM-12+088299999V0201401N004112200019N0100001N1+02391+01911101351ADDAA124022191AY161061AY261061GF103991031021004501001001KA1240N+01901MA1999999091611MD1999999+0051MW1021REMSYN088AAXX  20124 83339 21497 31408 10239 20191 39161 40135 70266 83200 333 20190 58005 60224;
0167833390999992001122018004-14040-042610FM-12+088299999V0201401N003112200019N0100001N1+02931+01671100881ADDAA199000091GF104991031021004501001021MA1999999091221MD1999999-0181REMSYN070AAXX  20184 83339 32497 41406 10293 20167 39122 40088 83202 333 59018;EQDQ01  00002PRCP99
0213833390999992001122100004-14040-042610FM-12+088299999V0202701N001010042019N0020001N1+02091+01911101231ADDAA106000591AY161061AY261061GF106991051021004501021001KA1240M+02981MA1999999091511MD1999999+0031MW1101REMSYN100AAXX  21004 83339 21495 62702 10209 20191 39151 40123 71066 85220 333 10298 29075 55101 58003 69961;
0201833390999992001122112004-14040-042610FM-12+088299999V0201401N002610042019N0100001N1+02291+02011101411ADDAA124000591AY161061AY261061GF106991061021004501001001KA1240N+01921MA1999999091661MD1999999+0051MW1101REMSYN088AAXX  21124 83339 21497 61405 10229 20201 39166 40141 71066 86200 333 20192 58005 69964;
0167833390999992001122118004-14040-042610FM-12+088299999V0200901N005712200019N0100001N1+02791+01671101011ADDAA199000091GF104991041021004501001001MA1999999091341MD1999999+0121REMSYN070AAXX  21184 83339 32497 40911 10279 20167 39134 40101 84200 333 58012;EQDQ01  00002PRCP99
0208833390999992001122200004-14040-042610FM-12+088299999V0201401N005112200019N0020001N1+02391+01451101201ADDAA199000091GA1001+999999999GF100991001001999999001001KA1240M+02841MA1999999091501MD1999999-0011REMSYN082AAXX  22004 83339 32995 01410 10239 20145 39150 40120 333 10284 29062 55079 59001;EQDQ01  00002PRCP99
0214833390999992001122212004-14040-042610FM-12+088299999V0201401N007210042019N0100001N1+02251+01881101431ADDAA199000091AY101061AY201061GF106991061021004501001001KA1240N+01881MA1999999091701MD1999999+0041MW1101REMSYN082AAXX  22124 83339 31497 61414 10225 20188 39170 40143 71000 86200 333 20188 58004;EQDQ01  00002PRCP99
0167833390999992001122218004-14040-042610FM-12+088299999V0200501N004612200019N0100001N1+02831+01581101081ADDAA199000091GF104991031021004501001021MA1999999091411MD1999999+0071REMSYN070AAXX  22184 83339 32497 40509 10283 20158 39141 40108 83202 333 58007;EQDQ01  00002PRCP99
0208833390999992001122300004-14040-042610FM-12+088299999V0201401N003112200019N0020001N1+02451+01331101321ADDAA199000091GA1001+999999999GF100991001001999999001001KA1240M+02901MA1999999091611MD1999999+0111REMSYN082AAXX  23004 83339 32995 01406 10245 20133 39161 40132 333 10290 29056 55102 58011;EQDQ01  00002PRCP99
0186833390999992001122312004-14040-042610FM-12+088299999V0201401N005110042019N0100001N1+02251+01781101421ADDAA199000091GF106991061021004501001001KA1240N+01941MA1999999091701MD1999999+0001REMSYN076AAXX  23124 83339 32497 61410 10225 20178 39170 40142 86200 333 20194 58000;EQDQ01  00002PRCP99
0167833390999992001122318004-14040-042610FM-12+088299999V0201401N003110042019N0100001N1+02751+01301101141ADDAA199000091GF106991051021004501021001MA1999999091451MD1999999+0041REMSYN070AAXX  23184 83339 32497 61406 10275 20130 39145 40114 85220 333 58004;EQDQ01  00002PRCP99
0198833390999992001122400004-14040-042610FM-12+088299999V0201801N004112200019N0020001N1+02391+01151101271ADDAA199000091GF103991031021004501001001KA1240M+02821MA1999999091551MD1999999-0061REMSYN088AAXX  24004 83339 32495 31808 10239 20115 39155 40127 83200 333 10282 29052 55033 59006;EQDQ01  00002PRCP99
0196833390999992001122412004-14040-042610FM-12+088299999V0200901N003612200019N0100001N1+02351+01871101441ADDAA199000091GA1001+999999999GF100991001001999999001001KA1240N+01791MA1999999091731MD1999999+0031REMSYN070AAXX  24124 83339 32997 00907 10235 20187 39173 40144 333 20179 58003;EQDQ01  00002PRCP99
0167833390999992001122418004-14040-042610FM-12+088299999V0200501N002612200019N0100001N1+02991+01371101041ADDAA199000091GF103991021021004501031001MA1999999091391MD1999999-0061REMSYN070AAXX  24184 83339 32497 30505 10299 20137 39139 40104 82230 333 59006;EQDQ01  00002PRCP99
0186833390999992001122512004-14040-042610FM-12+088299999V0200901N006710042019N0100001N1+02251+01731101511ADDAA199000091GF106991061021004501001001KA1240N+02061MA1999999091791MD1999999+0061REMSYN076AAXX  25124 83339 32497 60913 10225 20173 39179 40151 86200 333 20206 58006;EQDQ01  00002PRCP99
0167833390999992001122518004-14040-042610FM-12+088299999V0200901N004110450019N0100001N1+02751+01531101161ADDAA199000091GF106991031021004501031001MA1999999091481MD1999999+0091REMSYN070AAXX  25184 83339 32497 60908 10275 20153 39148 40116 83230 333 58009;EQDQ01  00002PRCP99
0198833390999992001122600004-14040-042610FM-12+088299999V0201401N005110042019N0020001N1+02621+01371101301ADDAA199000091GF108991061021004501031999KA1240M+02841MA1999999091611MD1999999+0031REMSYN088AAXX  26004 83339 32495 81410 10262 20137 39161 40130 8623/ 333 10284 29053 55032 58003;EQDQ01  00002PRCP99
0186833390999992001122612004-14040-042610FM-12+088299999V0200901N009812200019N0100001N1+02141+01591101441ADDAA199000091GF103991021021004501001011KA1240N+01861MA1999999091731MD1999999-0061REMSYN076AAXX  26124 83339 32497 30919 10214 20159 39173 40144 82201 333 20186 59006;EQDQ01  00002PRCP99
0167833390999992001122618004-14040-042610FM-12+088299999V0200501N003112200019N0100001N1+02801+01461101031ADDAA199000091GF102991011011004501001011MA1999999091351MD1999999-0131REMSYN070AAXX  26184 83339 32497 20506 10280 20146 39135 40103 81101 333 59013;EQDQ01  00002PRCP99
0208833390999992001122700004-14040-042610FM-12+088299999V0201401N005112200019N0020001N1+02541+01361101171ADDAA199000091GA1001+999999999GF100991001001999999001001KA1240M+02851MA1999999091471MD1999999-0141REMSYN082AAXX  27004 83339 32995 01410 10254 20136 39147 40117 333 10285 29053 55099 59014;EQDQ01  00002PRCP99
0186833390999992001122712004-14040-042610FM-12+088299999V0200901N006712200019N0100001N1+02361+01691101391ADDAA199000091GF104991011011004501031011KA1240N+01921MA1999999091691MD1999999-0041REMSYN076AAXX  27124 83339 32497 40913 10236 20169 39169 40139 81131 333 20192 59004;EQDQ01  00002PRCP99
0167833390999992001122718004-14040-042610FM-12+088299999V0201401N003112200019N0100001N1+02921+01531100921ADDAA199000091GF102991021021004501001001MA1999999091281MD1999999-0071REMSYN070AAXX  27184 83339 32497 21406 10292 20153 39128 40092 82200 333 59007;EQDQ01  00002PRCP99
0198833390999992001122800004-14040-042610FM-12+088299999V0209999C000010042019N0020001N1+02461+01631101221ADDAA199000091GF108991061021004501021999KA1240M+03001MA1999999091531MD1999999+0061REMSYN088AAXX  28004 83339 32495 80000 10246 20163 39153 40122 8622/ 333 10300 29057 55107 58006;EQDQ01  00002PRCP99
0201833390999992001122812004-14040-042610FM-12+088299999V0201401N003110450019N0010001N1+02031+01941101581ADDAA124010991AY161061AY241061GF108991041021004501021999KA1240N+01871MA1999999091831MD1999999+0141MW1401REMSYN088AAXX  28124 83339 21494 81406 10203 20194 39183 40158 74064 8422/ 333 20187 58014 60114;
0195833390999992001122818004-14040-042610FM-12+088299999V0200901N002610042019N0100001N1+02431+01951101251ADDAA199000091AY141061AY221061GF108991051021004501021999MA1999999091521MD1999999+0241MW1021REMSYN076AAXX  28184 83339 31497 80905 10243 20195 39152 40125 70242 8522/ 333 58024;EQDQ01  00002PRCP99
0213833390999992001122900004-14040-042610FM-12+088299999V0201801N001510042019N0020001N1+01991+01761101421ADDAA106006191AY161061AY221061GF108991051021004501021999KA1240M+02521MA1999999091641MD1999999+0111MW1021REMSYN100AAXX  29004 83339 21495 81803 10199 20176 39164 40142 70262 8522/ 333 10252 29085 55012 58011 60061;
0201833390999992001122912004-14040-042610FM-12+088299999V0201401N002110450019N0020001N1+02041+01971101511ADDAA124010991AY161061AY241061GF108991041021004501021999KA1240N+01881MA1999999091711MD1999999-0121MW1401REMSYN088AAXX  29124 83339 21495 81404 10204 20197 39171 40151 74064 8422/ 333 20188 59012 60114;
0182833390999992001122918004-14040-042610FM-12+088299999V0200901N001010042019N0100001N1+02291+02111101171ADDAA106003091AY161061AY241061GF108991051021004501021999MA1999999091431MD1999999-0091MW1021REMSYN082AAXX  29184 83339 21497 80902 10229 20211 39143 40117 70264 8522/ 333 59009 60031;
0198833390999992001123000004-14040-042610FM-12+088299999V0209999C000010042019N0020001N1+02191+01991101311ADDAA199000091GF108991061021004501021999KA1240M+02391MA1999999091551MD1999999-0091REMSYN088AAXX  30004 83339 32495 80000 10219 20199 39155 40131 8622/ 333 10239 29090 55000 59009;EQDQ01  00002PRCP99
0201833390999992001123012004-14040-042610FM-12+088299999V0209999C000010042019N0010001N1+01911+01851101391ADDAA124017091AY161061AY241061GF108991051021004501021999KA1240N+01861MA1999999091621MD1999999-0091MW1601REMSYN088AAXX  30124 83339 21494 80000 10191 20185 39162 40139 76064 8522/ 333 20186 59009 60174;
0182833390999992001123018004-14040-042610FM-12+088299999V0209999C000010450019N0010001N1+02131+01851101111ADDAA106005191AY161061AY241061GF108991041021004501021999MA1999999091351MD1999999-0081MW1401REMSYN082AAXX  30184 83339 21494 80000 10213 20185 39135 40111 74064 8422/ 333 59008 60051;
0213833390999992001123100004-14040-042610FM-12+088299999V0209999C000010450019N0010001N1+02061+01981101241ADDAA106000191AY161061AY241061GF108991041021004501021999KA1240M+02221MA1999999091471MD1999999-0081MW1401REMSYN100AAXX  31004 83339 21494 80000 10206 20198 39147 40124 74064 8422/ 333 10222 29094 55000 59008 69921;
0201833390999992001123112004-14040-042610FM-12+088299999V0202701N002610042019N0040001N1+01971+01811101261ADDAA124006191AY161061AY261061GF108991081051004501999999KA1240N+01821MA1999999091491MD1999999-0131MW1101REMSYN088AAXX  31124 83339 21496 82705 10197 20181 39149 40126 71066 885// 333 20182 59013 60064;
0167833390999992001123118004-14040-042610FM-12+088299999V0203201N004610042019N0100001N1+02491+01751100851ADDAA199000091GF106991051021004501021001MA1999999091151MD1999999-0201REMSYN070AAXX  31184 83339 32497 63209 10249 20175 39115 40085 85220 333 59020;EQDQ01  00002PRCP99
