0186833980999992001010100004-15660-038920FM-12+000599999V0200501N002110450019N0010001N1+02611+02391101371ADDAA199000091GF106991041021008001041001KA1240M+03041MA1999999101321MD1999999+0001REMSYN076AAXX  01004 83398 32594 60504 10261 20239 30132 40137 84240 333 10304 58000;EQDQ01  00002PRCP99
0186833980999992001010112004-15660-038920FM-12+000599999V0203601N004110450019N0040001N1+02881+02301101381ADDAA199000091GF105991031051008001041001KA1240N+02351MA1999999101331MD1999999-0011REMSYN076AAXX  01124 83398 32596 53608 10288 20230 30133 40138 83540 333 20235 59001;EQDQ01  00002PRCP99
0167833980999992001010118004-15660-038920FM-12+000599999V0203601N003110450019N0040001N1+02781+02441101141ADDAA199000091GF106991031021008001051041MA1999999101091MD1999999+0001REMSYN070AAXX  01184 83398 32596 63606 10278 20244 30109 40114 83254 333 58000;EQDQ01  00002PRCP99
0186833980999992001010200004-15660-038920FM-12+000599999V0203201N001010450019N0010001N1+02551+02381101391ADDAA199000091GF106991031021008001051041KA1240M+03041MA1999999101341MD1999999+0021REMSYN076AAXX  02004 83398 32594 63202 10255 20238 30134 40139 83254 333 10304 58002;EQDQ01  00002PRCP99
0186833980999992001010212004-15660-038920FM-12+000599999V0203601N003110450019N0040001N1+02891+02311101551ADDAA199000091GF105991031051008001041011KA1240N+02311MA1999999101501MD1999999+0171REMSYN076AAXX  02124 83398 32596 53606 10289 20231 30150 40155 83541 333 20231 58017;EQDQ01  00002PRCP99
0167833980999992001010218004-15660-038920FM-12+000599999V0200501N002112200019N0040001N1+02881+02211101371ADDAA199000091GF104991021021008001041041MA1999999101321MD1999999+0231REMSYN070AAXX  02184 83398 32596 40504 10288 20221 30132 40137 82244 333 58023;EQDQ01  00002PRCP99
0186833980999992001010300004-15660-038920FM-12+000599999V0200501N002112200019N0010001N1+02591+02291101551ADDAA199000091GF102991011011008001041001KA1240M+02991MA1999999101501MD1999999+0161REMSYN076AAXX  03004 83398 32594 20504 10259 20229 30150 40155 81140 333 10299 58016;EQDQ01  00002PRCP99
0186833980999992001010312004-15660-038920FM-12+000599999V0203601N003110450019N0040001N1+02861+02281101661ADDAA199000091GF105991031021008001041001KA1240N+02101MA1999999101601MD1999999+0101REMSYN076AAXX  03124 83398 32596 53606 10286 20228 30160 40166 83240 333 20210 58010;EQDQ01  00002PRCP99
0167833980999992001010318004-15660-038920FM-12+000599999V0200501N004111050019N0040001N1+02841+02261101431ADDAA199000091GF105991021021008001041011MA1999999101381MD1999999+0061REMSYN070AAXX  03184 83398 32596 50508 10284 20226 30138 40143 82241 333 58006;EQDQ01  00002PRCP99
0186833980999992001010400004-15660-038920FM-12+000599999V0200901N001012200019N0010001N1+02641+02311101641ADDAA199000091GF104991041011008001001001KA1240M+02991MA1999999101581MD1999999+0081REMSYN076AAXX  04004 83398 32594 40902 10264 20231 30158 40164 84100 333 10299 58008;EQDQ01  00002PRCP99
0201833980999992001010412004-15660-038920FM-12+000599999V0202301N001010075019N0040001N1+02461+02301101761ADDAA124007991AY161061AY221061GF108991051051008001021999KA1240N+02261MA1999999101701MD1999999+0101MW1601REMSYN088AAXX  04124 83398 21596 82302 10246 20230 30170 40176 76062 8552/ 333 20226 58010 60084;
0182833980999992001010418004-15660-038920FM-12+000599999V0200901N004110450019N0040001N1+02821+02201101541ADDAA106001091AY161061AY221061GF106991031021008001041011MA1999999101491MD1999999+0111MW1021REMSYN082AAXX  04184 83398 21596 60908 10282 20220 30149 40154 70262 83241 333 58011 60011;
0167833980999992001010500004-15660-038920FM-12+000599999V0201801N001010450019N0010001N1+02381+02291101761ADDAA199000021GF106991041051008001041001KA1240M+02881MA1999999101701MD1999999+0121REMSYN076AAXX  05004 83398 32594 61802 10238 20229 30170 40176 84540 333 10288 58012;
0201833980999992001010512004-15660-038920FM-12+000599999V0201801N002110450019N0020001N1+02421+02281101771ADDAA124010991AY161061AY221061GF107991041051008001021001KA1240N+02281MA1999999101711MD1999999+0011MW1021REMSYN088AAXX  05124 83398 21595 71804 10242 20228 30171 40177 70262 84520 333 20228 58001 60114;
0182833980999992001010518004-15660-038920FM-12+000599999V0201401N003110450019N0040001N1+02841+02261101571ADDAA106000591AY151061AY221061GF106991031051008001041011MA1999999101521MD1999999+0031MW1021REMSYN082AAXX  05184 83398 21596 61406 10284 20226 30152 40157 70252 83541 333 58003 69941;
0186833980999992001010600004-15660-038920FM-12+000599999V0209999C000010075019N0010001N1+02511+02311101581ADDAA199000091GF107991051051008001041001KA1240M+02911MA1999999101531MD1999999-0171REMSYN076AAXX  06004 83398 32594 70000 10251 20231 30153 40158 85540 333 10291 59017;EQDQ01  00002PRCP99
0201833980999992001010612004-15660-038920FM-12+000599999V0201401N002110450019N0040001N1+02821+02241101591ADDAA124001091AY151061AY221061GF105991041051008001041001KA1240N+02211MA1999999101541MD1999999-0231MW1021REMSYN088AAXX  06124 83398 21596 51404 10282 20224 30154 40159 70252 84540 333 20221 59023 60014;
0167833980999992001010618004-15660-038920FM-12+000599999V0200501N003110450019N0040001N1+02921+02241101421ADDAA199000091GF105991031051008001041011MA1999999101371MD1999999-0151REMSYN070AAXX  06184 83398 32596 50506 10292 20224 30137 40142 83541 333 59015;EQDQ01  00002PRCP99
0186833980999992001010700004-15660-038920FM-12+000599999V0200501N003110450019N0010001N1+02651+02181101511ADDAA199000091GF106991041051008001041001KA1240M+02941MA1999999101461MD1999999-0071REMSYN076AAXX  07004 83398 32594 60506 10265 20218 30146 40151 84540 333 10294 59007;EQDQ01  00002PRCP99
0186833980999992001010712004-15660-038920FM-12+000599999V0200501N002110450019N0040001N1+02721+02281101551ADDAA199000091GF106991041051008001021001KA1240N+02301MA1999999101501MD1999999-0041REMSYN076AAXX  07124 83398 32596 60504 10272 20228 30150 40155 84520 333 20230 59004;EQDQ01  00002PRCP99
0167833980999992001010718004-15660-038920FM-12+000599999V0200501N002112200019N0040001N1+02861+02191101361ADDAA199000091GF104991021021008001041011MA1999999101311MD1999999-0061REMSYN070AAXX  07184 83398 32596 40504 10286 20219 30131 40136 82241 333 59006;EQDQ01  00002PRCP99
0186833980999992001010800004-15660-038920FM-12+000599999V0200501N001012200019N0010001N1+02591+02121101501ADDAA199000091GF103991021011008001041001KA1240M+02971MA1999999101451MD1999999-0011REMSYN076AAXX  08004 83398 32594 30502 10259 20212 30145 40150 82140 333 10297 59001;EQDQ01  00002PRCP99
0201833980999992001010812004-15660-038920FM-12+000599999V0203201N001010450019N0040001N1+02901+02321101541ADDAA124000191AY151061AY221061GF105991041021008001041001KA1240N+02131MA1999999101491MD1999999-0011MW1011REMSYN088AAXX  08124 83398 21596 53202 10290 20232 30149 40154 70152 84240 333 20213 59001 69924;
0167833980999992001010818004-15660-038920FM-12+000599999V0200501N003110450019N0040001N1+02821+02151101271ADDAA199000091GF106991031021008001041011MA1999999101221MD1999999-0091REMSYN070AAXX  08184 83398 32596 60506 10282 20215 30122 40127 83241 333 59009;EQDQ01  00002PRCP99
0186833980999992001010912004-15660-038920FM-12+000599999V0209999C000010450019N0040001N1+02721+02301101571ADDAA199000091GF105991041051008001041001KA1240N+02131MA1999999101521MD1999999+0031REMSYN076AAXX  09124 83398 32596 50000 10272 20230 30152 40157 84540 333 20213 58003;EQDQ01  00002PRCP99
0167833980999992001010918004-15660-038920FM-12+000599999V0200501N004110450019N0040001N1+02901+02341101281ADDAA199000091GF106991031051008001041011MA1999999101231MD1999999+0011REMSYN070AAXX  09184 83398 32596 60508 10290 20234 30123 40128 83541 333 58001;EQDQ01  00002PRCP99
0186833980999992001011000004-15660-038920FM-12+000599999V0200501N001012200019N0010001N1+02571+02251101481ADDAA199000091GF103991011011008001041001KA1240M+03001MA1999999101431MD1999999+0081REMSYN076AAXX  10004 83398 32594 30502 10257 20225 30143 40148 81140 333 10300 58008;EQDQ01  00002PRCP99
0201833980999992001011012004-15660-038920FM-12+000599999V0200901N003110450019N0040001N1+02841+02381101631ADDAA124003091AY161061AY241061GF106991041051008001041011KA1240N+02241MA1999999101571MD1999999+0071MW1021REMSYN088AAXX  10124 83398 21596 60906 10284 20238 30157 40163 70264 84541 333 20224 58007 60034;
0167833980999992001011018004-15660-038920FM-12+000599999V0200901N003110450019N0040001N1+02841+02291101401ADDAA199000091GF106991031051008001041011MA1999999101351MD1999999+0081REMSYN070AAXX  10184 83398 32596 60906 10284 20229 30135 40140 83541 333 58008;EQDQ01  00002PRCP99
0198833980999992001011100004-15660-038920FM-12+000599999V0200501N002112200019N0010001N1+02661+02181101571ADDAA199000091GF104991021021008001041001KA1240M+02991MA1999999101521MD1999999+0091REMSYN088AAXX  11004 83398 32594 40504 10266 20218 30152 40157 82240 333 10299 29075 55102 58009;EQDQ01  00002PRCP99
0201833980999992001011112004-15660-038920FM-12+000599999V0202301N001010450019N0040001N1+02841+02291101741ADDAA124004191AY161061AY221061GF105991031021008001041011KA1240N+02171MA1999999101681MD1999999+0111MW1011REMSYN088AAXX  11124 83398 21596 52302 10284 20229 30168 40174 70162 83241 333 20217 58011 60044;
0167833980999992001011118004-15660-038920FM-12+000599999V0200501N002112200019N0200001N1+02811+02261101561ADDAA199000091GF104991021021008001041041MA1999999101511MD1999999+0161REMSYN070AAXX  11184 83398 32598 40504 10281 20226 30151 40156 82244 333 58016;EQDQ01  00002PRCP99
0198833980999992001011200004-15660-038920FM-12+000599999V0200901N002112200019N0010001N1+02631+02181101571ADDAA199000091GF104991011021008001041001KA1240M+03011MA1999999101521MD1999999+0001REMSYN088AAXX  12004 83398 32594 40904 10263 20218 30152 40157 81240 333 10301 29074 55089 58000;EQDQ01  00002PRCP99
0135833980999992001011212004-15660-038920FM-12+000599999V0200901N001019999999N0040001N1+02701+02301101651ADDAY161061AY221061GF106991999999008001999999MA1999999101591MW1021REMSYN060AAXX  12124 83398 21596 60902 10270 20230 30159 40165 70262;
0167833980999992001011218004-15660-038920FM-12+000599999V0200501N002110450019N0040001N1+02661+02001101511ADDAA199000091GF107991041051008001021001MA1999999101461MD1999999-0051REMSYN070AAXX  12184 83398 32596 70504 10266 20200 30146 40151 84520 333 59005;EQDQ01  00002PRCP99
0198833980999992001011300004-15660-038920FM-12+000599999V0202701N001010450019N0010001N1+02361+02241101561ADDAA199000091GF107991041051008001021001KA1240M+02821MA1999999101511MD1999999-0011REMSYN088AAXX  13004 83398 32594 72702 10236 20224 30151 40156 84520 333 10282 29083 55025 59001;EQDQ01  00002PRCP99
0201833980999992001011312004-15660-038920FM-12+000599999V0201401N001010450019N0040001N1+02781+02341101751ADDAA124007991AY191061AY261061GF106991041051008001041001KA1240N+02061MA1999999101691MD1999999+0101MW1021REMSYN088AAXX  13124 83398 21596 61402 10278 20234 30169 40175 70296 84540 333 20206 58010 60084;
0167833980999992001011318004-15660-038920FM-12+000599999V0200501N003110450019N0040001N1+02701+02261101641ADDAA199000091GF107991041051008001021001MA1999999101581MD1999999+0121REMSYN070AAXX  13184 83398 32596 70506 10270 20226 30158 40164 84520 333 58012;EQDQ01  00002PRCP99
0198833980999992001011400004-15660-038920FM-12+000599999V0200901N001010450019N0010001N1+02601+02141101691ADDAA199000091GF106991041051008001021001KA1240M+02921MA1999999101631MD1999999+0121REMSYN088AAXX  14004 83398 32594 60902 10260 20214 30163 40169 84520 333 10292 29077 55034 58012;EQDQ01  00002PRCP99
0201833980999992001011412004-15660-038920FM-12+000599999V0200901N003110450019N0040001N1+02841+02221101871ADDAA124005191AY161061AY221061GF106991041051008001041011KA1240N+02201MA1999999101811MD1999999+0121MW1021REMSYN088AAXX  14124 83398 21596 60906 10284 20222 30181 40187 70262 84541 333 20220 58012 60054;
0167833980999992001011418004-15660-038920FM-12+000599999V0200901N004110450019N0040001N1+02801+02251101711ADDAA199000091GF106991041051008001041001MA1999999101651MD1999999+0071REMSYN070AAXX  14184 83398 32596 60908 10280 20225 30165 40171 84540 333 58007;EQDQ01  00002PRCP99
0213833980999992001011500004-15660-038920FM-12+000599999V0202301N001010450019N0010001N1+02301+02251101751ADDAA106015091AY161061AY221061GF108991041071008001021999KA1240M+02991MA1999999101691MD1999999+0061MW1611REMSYN100AAXX  15004 83398 21594 82302 10230 20225 30169 40175 76162 8472/ 333 10299 29083 55081 58006 60151;
0201833980999992001011512004-15660-038920FM-12+000599999V0200901N002110450019N0040001N1+02831+02211101831ADDAA124016091AY151061AY221061GF106991031051008001041041KA1240N+02171MA1999999101771MD1999999-0041MW1011REMSYN088AAXX  15124 83398 21596 60904 10283 20221 30177 40183 70152 83544 333 20217 59004 60164;
0167833980999992001011518004-15660-038920FM-12+000599999V0201401N003110450019N0040001N1+02901+02201101611ADDAA199000091GF106991031051008001041011MA1999999101551MD1999999-0101REMSYN070AAXX  15184 83398 32596 61406 10290 20220 30155 40161 83541 333 59010;EQDQ01  00002PRCP99
0198833980999992001011600004-15660-038920FM-12+000599999V0201401N002110450019N0010001N1+02591+02191101701ADDAA199000091GF107991041051008001021001KA1240M+02951MA1999999101641MD1999999-0051REMSYN088AAXX  16004 83398 32594 71404 10259 20219 30164 40170 84520 333 10295 29072 55078 59005;EQDQ01  00002PRCP99
0201833980999992001011612004-15660-038920FM-12+000599999V0200901N003110450019N0040001N1+02801+02311101661ADDAA124007191AY161061AY221061GF106991041051008001021001KA1240N+02241MA1999999101601MD1999999-0171MW1021REMSYN088AAXX  16124 83398 21596 60906 10280 20231 30160 40166 70262 84520 333 20224 59017 60074;
0167833980999992001011618004-15660-038920FM-12+000599999V0201401N003110450019N0040001N1+02921+02291101511ADDAA199000091GF106991031051008001041011MA1999999101461MD1999999-0091REMSYN070AAXX  16184 83398 32596 61406 10292 20229 30146 40151 83541 333 59009;EQDQ01  00002PRCP99
0167833980999992001011718004-15660-038920FM-12+000599999V0200901N003111050019N0040001N1+02901+02021101521ADDAA199000091GF105991021051008001041011MA1999999101471MD1999999+0011REMSYN070AAXX  17184 83398 32596 50906 10290 20202 30147 40152 82541 333 58001;EQDQ01  00002PRCP99
0198833980999992001011800004-15660-038920FM-12+000599999V0200901N001012200019N0010001N1+02661+02161101711ADDAA199000091GF104991021011008001041001KA1240M+02981MA1999999101651MD1999999+0011REMSYN088AAXX  18004 83398 32594 40902 10266 20216 30165 40171 82140 333 10298 29067 55116 58001;EQDQ01  00002PRCP99
0201833980999992001011812004-15660-038920FM-12+000599999V0201801N002110450019N0040001N1+02721+02431101701ADDAA124002091AY161061AY221061GF106991041051008001041001KA1240N+02101MA1999999101641MD1999999+0011MW1021REMSYN088AAXX  18124 83398 21596 61804 10272 20243 30164 40170 70262 84540 333 20210 58001 60024;
0167833980999992001011818004-15660-038920FM-12+000599999V0201401N003110450019N0040001N1+02921+02411101481ADDAA199000091GF106991031051008001041011MA1999999101431MD1999999-0041REMSYN070AAXX  18184 83398 32596 61406 10292 20241 30143 40148 83541 333 59004;EQDQ01  00002PRCP99
0201833980999992001011912004-15660-038920FM-12+000599999V0200501N002110450019N0040001N1+02801+02421101801ADDAA124002091AY161061AY221061GF106991031051008001041011KA1240N+02171MA1999999101741MD1999999+0101MW1021REMSYN088AAXX  19124 83398 21596 60504 10280 20242 30174 40180 70262 83541 333 20217 58010 60024;
0167833980999992001011918004-15660-038920FM-12+000599999V0200901N003110450019N0040001N1+02921+02241101531ADDAA199000091GF106991031051008001041011MA1999999101481MD1999999+0051REMSYN070AAXX  19184 83398 32596 60906 10292 20224 30148 40153 83541 333 58005;EQDQ01  00002PRCP99
0198833980999992001012000004-15660-038920FM-12+000599999V0200501N002112200019N0010001N1+02641+02141101631ADDAA199000091GF102991011021008001041001KA1240M+02961MA1999999101571MD1999999-0061REMSYN088AAXX  20004 83398 32594 20504 10264 20214 30157 40163 81240 333 10296 29073 55105 59006;EQDQ01  00002PRCP99
0201833980999992001012012004-15660-038920FM-12+000599999V0200501N003110450019N0040001N1+02841+02291101741ADDAA124002091AY161061AY221061GF106991031051008001041001KA1240N+02171MA1999999101681MD1999999-0361MW1021REMSYN088AAXX  20124 83398 21596 60506 10284 20229 30168 40174 70262 83540 333 20217 59036 60024;
0167833980999992001012018004-15660-038920FM-12+000599999V0203601N003110450019N0040001N1+02941+02311101421ADDAA199000091GF106991031021008001041011MA1999999101371MD1999999-0111REMSYN070AAXX  20184 83398 32596 63606 10294 20231 30137 40142 83241 333 59011;EQDQ01  00002PRCP99
0198833980999992001012100004-15660-038920FM-12+000599999V0200501N003110450019N0010001N1+02661+02241101491ADDAA199000091GF105991031021008001041001KA1240M+03001MA1999999101441MD1999999-0131REMSYN088AAXX  21004 83398 32594 50506 10266 20224 30144 40149 83240 333 10300 29074 55113 59013;EQDQ01  00002PRCP99
0201833980999992001012112004-15660-038920FM-12+000599999V0200501N003110450019N0040001N1+02841+02221101621ADDAA124000591AY161061AY221061GF106991041051008001041001KA1240N+02481MA1999999101561MD1999999-0121MW1021REMSYN088AAXX  21124 83398 21596 60506 10284 20222 30156 40162 70262 84540 333 20248 59012 69954;
0167833980999992001012118004-15660-038920FM-12+000599999V0203601N002112200019N0040001N1+02881+02211101301ADDAA199000091GF104991021021008001041001MA1999999101251MD1999999-0121REMSYN070AAXX  21184 83398 32596 43604 10288 20221 30125 40130 82240 333 59012;EQDQ01  00002PRCP99
0186833980999992001012212004-15660-038920FM-12+000599999V0203601N003110450019N0040001N1+02861+02311101611ADDAA199000091GF106991041051008001021001KA1240N+02151MA1999999101551MD1999999-0011REMSYN076AAXX  22124 83398 32596 63606 10286 20231 30155 40161 84520 333 20215 59001;EQDQ01  00002PRCP99
0167833980999992001012218004-15660-038920FM-12+000599999V0200501N004110450019N0040001N1+02821+02291101321ADDAA199000091GF105991031021008001041011MA1999999101271MD1999999+0021REMSYN070AAXX  22184 83398 32596 50508 10282 20229 30127 40132 83241 333 58002;EQDQ01  00002PRCP99
0201833980999992001012312004-15660-038920FM-12+000599999V0200501N002112200019N0040001N1+02871+02201101741ADDAA124004191AY161061AY221061GF104991031021008001041001KA1240N+02231MA1999999101691MD1999999+0141MW1011REMSYN088AAXX  23124 83398 21596 40504 10287 20220 30169 40174 70162 83240 333 20223 58014 60044;
0167833980999992001012318004-15660-038920FM-12+000599999V0200501N002112200019N0040001N1+02871+02171101481ADDAA199000091GF103991021021008001041001MA1999999101431MD1999999+0161REMSYN070AAXX  23184 83398 32596 30504 10287 20217 30143 40148 82240 333 58016;EQDQ01  00002PRCP99
0198833980999992001012400004-15660-038920FM-12+000599999V0200901N002112200019N0010001N1+02621+02161101571ADDAA199000091GF102991011011008001041001KA1240M+03001MA1999999101521MD1999999+0021REMSYN088AAXX  24004 83398 32594 20904 10262 20216 30152 40157 81140 333 10300 29071 55094 58002;EQDQ01  00002PRCP99
0186833980999992001012412004-15660-038920FM-12+000599999V0200501N002112200019N0040001N1+02841+02121101711ADDAA199000091GF104991041021008001001001KA1240N+02101MA1999999101651MD1999999-0041REMSYN076AAXX  24124 83398 32596 40504 10284 20212 30165 40171 84200 333 20210 59004;EQDQ01  00002PRCP99
0167833980999992001012418004-15660-038920FM-12+000599999V0200901N003112200019N0040001N1+02901+02171101521ADDAA199000091GF104991021021008001011001MA1999999101471MD1999999+0041REMSYN070AAXX  24184 83398 32596 40906 10290 20217 30147 40152 82210 333 58004;EQDQ01  00002PRCP99
0198833980999992001012500004-15660-038920FM-12+000599999V0200901N003112200019N0010001N1+02591+02171101681ADDAA199000091GF103991011021008001041001KA1240M+02981MA1999999101621MD1999999+0101REMSYN088AAXX  25004 83398 32594 30906 10259 20217 30162 40168 81240 333 10298 29071 55118 58010;EQDQ01  00002PRCP99
0201833980999992001012512004-15660-038920FM-12+000599999V0202701N002110450019N0040001N1+02561+02191101641ADDAA124001091AY161061AY221061GF106991041051008001041001KA1240N+02101MA1999999101581MD1999999-0071MW1021REMSYN088AAXX  25124 83398 21596 62704 10256 20219 30158 40164 70262 84540 333 20210 59007 60014;
0167833980999992001012518004-15660-038920FM-12+000599999V0200901N002111050019N0040001N1+02871+02221101461ADDAA199000091GF105991021021008001041041MA1999999101411MD1999999-0061REMSYN070AAXX  25184 83398 32596 50904 10287 20222 30141 40146 82244 333 59006;EQDQ01  00002PRCP99
0198833980999992001012600004-15660-038920FM-12+000599999V0200901N002112200019N0010001N1+02621+02211101641ADDAA199000091GF103991021021008001041001KA1240M+02951MA1999999101581MD1999999-0041REMSYN088AAXX  26004 83398 32594 30904 10262 20221 30158 40164 82240 333 10295 29076 55088 59004;EQDQ01  00002PRCP99
0201833980999992001012612004-15660-038920FM-12+000599999V0203601N002110450019N0040001N1+02861+02261101711ADDAA124001091AY161061AY221061GF106991041051008001021001KA1240N+02071MA1999999101651MD1999999+0071MW1021REMSYN088AAXX  26124 83398 21596 63604 10286 20226 30165 40171 70262 84520 333 20207 58007 60014;
0167833980999992001012618004-15660-038920FM-12+000599999V0200501N004110450019N0040001N1+02901+02321101441ADDAA199000091GF105991031051008001041001MA1999999101391MD1999999-0021REMSYN070AAXX  26184 83398 32596 50508 10290 20232 30139 40144 83540 333 59002;EQDQ01  00002PRCP99
0198833980999992001012700004-15660-038920FM-12+000599999V0200501N003112200019N0010001N1+02671+02221101531ADDAA199000091GF104991021051008001041001KA1240M+03011MA1999999101481MD1999999-0101REMSYN088AAXX  27004 83398 32594 40506 10267 20222 30148 40153 82540 333 10301 29073 55114 59010;EQDQ01  00002PRCP99
0201833980999992001012712004-15660-038920FM-12+000599999V0200501N002110450019N0040001N1+02921+02361101591ADDAA124002091AY161061AY221061GF106991041051008001041001KA1240N+02271MA1999999101541MD1999999-0111MW1021REMSYN088AAXX  27124 83398 21596 60504 10292 20236 30154 40159 70262 84540 333 20227 59011 60024;
0167833980999992001012718004-15660-038920FM-12+000599999V0200501N003110450019N0040001N1+02961+02331101321ADDAA199000091GF106991031021008001041011MA1999999101271MD1999999-0121REMSYN070AAXX  27184 83398 32596 60506 10296 20233 30127 40132 83241 333 59012;EQDQ01  00002PRCP99
0186833980999992001012812004-15660-038920FM-12+000599999V0203601N003110450019N0040001N1+02901+02301101531ADDAA199000091GF106991031051008001041011KA1240N+02201MA1999999101481MD1999999-0061REMSYN076AAXX  28124 83398 32596 63606 10290 20230 30148 40153 83541 333 20220 59006;EQDQ01  00002PRCP99
0167833980999992001012818004-15660-038920FM-12+000599999V0200901N003112200019N0040001N1+02921+02241101141ADDAA199000091GF104991021021008001041041MA1999999101191MD1999999-0081REMSYN070AAXX  28184 83398 32596 40906 10292 20224 30119 40114 82244 333 59008;EQDQ01  00002PRCP99
0198833980999992001012900004-15660-038920FM-12+000599999V0200501N003112200019N0010001N1+02671+02351101321ADDAA199000091GF102991011011008001041001KA1240M+03061MA1999999101271MD1999999-0041REMSYN088AAXX  29004 83398 32594 20506 10267 20235 30127 40132 81140 333 10306 29075 55114 59004;EQDQ01  00002PRCP99
0186833980999992001012912004-15660-038920FM-12+000599999V0200501N003111050019N0040001N1+02901+02301101441ADDAA199000091GF105991021051008001041011KA1240N+02211MA1999999101391MD1999999-0091REMSYN076AAXX  29124 83398 32596 50506 10290 20230 30139 40144 82541 333 20221 59009;EQDQ01  00002PRCP99
0167833980999992001012918004-15660-038920FM-12+000599999V0200501N004110450019N0040001N1+02821+02331101141ADDAA199000091GF106991031051008001041011MA1999999101091MD1999999-0101REMSYN070AAXX  29184 83398 32596 60508 10282 20233 30109 40114 83541 333 59010;EQDQ01  00002PRCP99
0198833980999992001013000004-15660-038920FM-12+000599999V0200501N003112200019N0010001N1+02641+02271101201ADDAA199000091GF103991021021008001041001KA1240M+03031MA1999999101151MD1999999-0121REMSYN088AAXX  30004 83398 32594 30506 10264 20227 30115 40120 82240 333 10303 29076 55102 59012;EQDQ01  00002PRCP99
0186833980999992001013012004-15660-038920FM-12+000599999V0200501N003110450019N0040001N1+02761+02321101381ADDAA199000091GF106991041051008001021001KA1240N+02301MA1999999101331MD1999999-0061REMSYN076AAXX  30124 83398 32596 60506 10276 20232 30133 40138 84520 333 20230 59006;EQDQ01  00002PRCP99
0182833980999992001013018004-15660-038920FM-12+000599999V0203601N004110450019N0040001N1+02941+02261101101ADDAA106000391AY151061AY221061GF105991031051008001041001MA1999999101051MD1999999-0041MW1021REMSYN082AAXX  30184 83398 21596 53608 10294 20226 30105 40110 70252 83540 333 59004 69931;
0198833980999992001013100004-15660-038920FM-12+000599999V0200501N003112200019N0010001N1+02641+02161101251ADDAA199000091GF103991021021008001041001KA1240M+03051MA1999999101201MD1999999+0051REMSYN088AAXX  31004 83398 32594 30506 10264 20216 30120 40125 82240 333 10305 29073 55096 58005;EQDQ01  00002PRCP99
0201833980999992001013112004-15660-038920FM-12+000599999V0203601N002112200019N0040001N1+02861+02281101341ADDAA124005191AY161061AY221061GF103991021021008001041001KA1240N+02161MA1999999101291MD1999999-0041MW1011REMSYN088AAXX  31124 83398 21596 33604 10286 20228 30129 40134 70162 82240 333 20216 59004 60054;
0167833980999992001013118004-15660-038920FM-12+000599999V0200901N004111050019N0040001N1+02921+02191101101ADDAA199000091GF105991021021008001041011MA1999999101051MD1999999+0001REMSYN070AAXX  31184 83398 32596 50908 10292 20219 30105 40110 82241 333 58000;EQDQ01  00002PRCP99
0186833980999992001020112004-15660-038920FM-12+000599999V0203601N002112200019N0040001N1+02861+02391101211ADDAA199000091GF103991021021008001041001KA1240N+02091MA1999999101161MD1999999-0131REMSYN076AAXX  01124 83398 32596 33604 10286 20239 30116 40121 82240 333 20209 59013;EQDQ01  00002PRCP99
0167833980999992001020118004-15660-038920FM-12+000599999V0200501N002112200019N0040001N1+02921+02011100851ADDAA199000091GF102991011021008001041001MA1999999100801MD1999999-0251REMSYN070AAXX  01184 83398 32596 20504 10292 20201 30080 40085 81240 333 59025;EQDQ01  00002PRCP99
0167833980999992001020218004-15660-038920FM-12+000599999V0200501N003112200019N0040001N1+02961+02361100991ADDAA199000091GF102991021021008001001001MA1999999100941MD1999999+0141REMSYN070AAXX  02184 83398 32596 20506 10296 20236 30094 40099 82200 333 58014;EQDQ01  00002PRCP99
0186833980999992001020312004-15660-038920FM-12+000599999V0203601N003110450019N0040001N1+03001+02371101251ADDAA199000091GF105991041021008001041001KA1240N+02171MA1999999101201MD1999999+0031REMSYN076AAXX  03124 83398 32596 53606 10300 20237 30120 40125 84240 333 20217 58003;EQDQ01  00002PRCP99
0167833980999992001020318004-15660-038920FM-12+000599999V0200501N004112200019N0040001N1+02981+02371101031ADDAA199000091GF104991011021008001041011MA1999999100981MD1999999+0041REMSYN070AAXX  03184 83398 32596 40508 10298 20237 30098 40103 81241 333 58004;EQDQ01  00002PRCP99
0198833980999992001020400004-15660-038920FM-12+000599999V0200501N004012200019N0010001N1+02681+02451101131ADDAA199000091GF103991021011008001041001KA1240M+03051MA1999999101081MD1999999+0121REMSYN088AAXX  04000 83398 32594 30504 10268 20245 30108 40113 82140 333 10305 29078 55114 58012;EQDQ01  00002PRCP99
0186833980999992001020412004-15660-038920FM-12+000599999V0203601N003110450019N0040001N1+03031+02481101401ADDAA199000091GF105991031051008001041001KA1240N+02281MA1999999101351MD1999999+0151REMSYN076AAXX  04124 83398 32596 53606 10303 20248 30135 40140 83540 333 20228 58015;EQDQ01  00002PRCP99
0167833980999992001020418004-15660-038920FM-12+000599999V0200501N005112200019N0040001N1+03001+02441101181ADDAA199000091GF102991011011008001041001MA1999999101131MD1999999+0151REMSYN070AAXX  04184 83398 32596 20510 10300 20244 30113 40118 81140 333 58015;EQDQ01  00002PRCP99
0198833980999992001020500004-15660-038920FM-12+000599999V0200501N003112200019N0010001N1+02701+02411101271ADDAA199000091GF103991031011008001001001KA1240M+03101MA1999999101221MD1999999+0141REMSYN088AAXX  05004 83398 32594 30506 10270 20241 30122 40127 83100 333 10310 29078 55110 58014;EQDQ01  00002PRCP99
0186833980999992001020512004-15660-038920FM-12+000599999V0200501N004110450019N0040001N1+03041+02231101411ADDAA199000091GF106991041051008001041001KA1240N+02301MA1999999101371MD1999999+0021REMSYN076AAXX  05124 83398 32596 60508 10304 20223 30137 40141 84540 333 20230 58002;EQDQ01  00002PRCP99
0167833980999992001020518004-15660-038920FM-12+000599999V0200501N004112200019N0040001N1+02981+02371101151ADDAA199000091GF104991021021008001041001MA1999999101101MD1999999-0031REMSYN070AAXX  05184 83398 32596 40508 10298 20237 30110 40115 82240 333 59003;EQDQ01  00002PRCP99
0198833980999992001020600004-15660-038920FM-12+000599999V0200501N003112200019N0010001N1+02671+02651101251ADDAA199000091GF102991011041008001011001KA1240M+03091MA1999999101201MD1999999-0021REMSYN088AAXX  06004 83398 32594 20506 10267 20265 30120 40125 81410 333 10309 29082 55108 59002;EQDQ01  00002PRCP99
0186833980999992001020612004-15660-038920FM-12+000599999V0200501N003110450019N0040001N1+02921+02361101421ADDAA199000091GF106991031051008001041011KA1240N+02311MA1999999101371MD1999999+0001REMSYN076AAXX  06124 83398 32596 60506 10292 20236 30137 40142 83541 333 20231 58000;EQDQ01  00002PRCP99
0167833980999992001020618004-15660-038920FM-12+000599999V0203601N003110450019N0040001N1+02961+02351101101ADDAA199000091GF105991021021008001041001MA1999999101051MD1999999-0051REMSYN070AAXX  06184 83398 32596 53606 10296 20235 30105 40110 82240 333 59005;EQDQ01  00002PRCP99
0198833980999992001020700004-15660-038920FM-12+000599999V0200501N006012200019N0010001N1+02681+02391101171ADDAA199000091GF103991031011008001001001KA1240M+03101MA1999999101121MD1999999-0081REMSYN088AAXX  07000 83398 32594 30506 10268 20239 30112 40117 83100 333 10310 29076 55092 59008;EQDQ01  00002PRCP99
0186833980999992001020712004-15660-038920FM-12+000599999V0203601N002112200019N0040001N1+02841+02381101271ADDAA199000091GF104991031021008001041001KA1240N+02281MA1999999101221MD1999999-0161REMSYN076AAXX  07124 83398 32596 43604 10284 20238 30122 40127 83240 333 20228 59016;EQDQ01  00002PRCP99
0167833980999992001020718004-15660-038920FM-12+000599999V0200501N004112200019N0040001N1+02961+02401101001ADDAA199000091GF104991021021008001041001MA1999999100951MD1999999-0101REMSYN070AAXX  07184 83398 32596 40508 10296 20240 30095 40100 82240 333 59010;EQDQ01  00002PRCP99
0198833980999992001020800004-15660-038920FM-12+000599999V0200501N003110450019N0010001N1+02681+02391101211ADDAA199000091GF105991031051008001041001KA1240M+03131MA1999999101161MD1999999+0041REMSYN088AAXX  08004 83398 32594 50506 10268 20239 30116 40121 83540 333 10313 29079 55108 58004;EQDQ01  00002PRCP99
0186833980999992001020812004-15660-038920FM-12+000599999V0200501N002112200019N0040001N1+02971+02221101511ADDAA199000091GF103991021021008001041001KA1240N+02251MA1999999101461MD1999999+0241REMSYN076AAXX  08124 83398 32596 30504 10297 20222 30146 40151 82240 333 20225 58024;EQDQ01  00002PRCP99
0167833980999992001020818004-15660-038920FM-12+000599999V0200501N003112200019N0040001N1+02981+02371101081ADDAA199000091GF104991021011008001041011MA1999999101031MD1999999+0081REMSYN070AAXX  08184 83398 32596 40506 10298 20237 30103 40108 82141 333 58008;EQDQ01  00002PRCP99
0198833980999992001020900004-15660-038920FM-12+000599999V0200501N003112200019N0010001N1+02701+02371101281ADDAA199000091GF104991021021008001041011KA1240M+03141MA1999999101231MD1999999+0071REMSYN088AAXX  09004 83398 32594 40506 10270 20237 30123 40128 82241 333 10314 29075 55112 58007;EQDQ01  00002PRCP99
0186833980999992001020912004-15660-038920FM-12+000599999V0203601N001012200019N0040001N1+02921+02291101441ADDAA199000091GF104991031021008001041001KA1240N+02261MA1999999101391MD1999999-0071REMSYN076AAXX  09124 83398 32596 43602 10292 20229 30139 40144 83240 333 20226 59007;EQDQ01  00002PRCP99
0167833980999992001020918004-15660-038920FM-12+000599999V0200501N004112200019N0040001N1+02961+02331101111ADDAA199000091GF104991021021008001041011MA1999999101061MD1999999+0031REMSYN070AAXX  09184 83398 32596 40508 10296 20233 30106 40111 82241 333 58003;EQDQ01  00002PRCP99
0186833980999992001021012004-15660-038920FM-12+000599999V0203601N002110450019N0040001N1+02981+02281101411ADDAA199000091GF105991031051008001021001KA1240N+02141MA1999999101361MD1999999-0031REMSYN076AAXX  10124 83398 32596 53604 10298 20228 30136 40141 83520 333 20214 59003;EQDQ01  00002PRCP99
0167833980999992001021018004-15660-038920FM-12+000599999V0200501N003110450019N0040001N1+03001+02241101151ADDAA199000091GF105991031021008001041011MA1999999101101MD1999999+0041REMSYN070AAXX  10184 83398 32596 50506 10300 20224 30110 40115 83241 333 58004;EQDQ01  00002PRCP99
0198833980999992001021100004-15660-038920FM-12+000599999V0200501N003110450019N0010001N1+02741+02211101281ADDAA199000091GF105991021051008001041001KA1240M+03141MA1999999101231MD1999999+0001REMSYN088AAXX  11004 83398 32594 50506 10274 20221 30123 40128 82540 333 10314 29069 55114 58000;EQDQ01  00002PRCP99
0186833980999992001021112004-15660-038920FM-12+000599999V0200501N002110450019N0040001N1+02921+02171101491ADDAA199000091GF105991031021008001041011KA1240N+02101MA1999999101441MD1999999+0081REMSYN076AAXX  11124 83398 32596 50504 10292 20217 30144 40149 83241 333 20210 58008;EQDQ01  00002PRCP99
0198833980999992001021200004-15660-038920FM-12+000599999V0200901N002110450019N0010001N1+02711+02191101421ADDAA199000091GF106991041051008001041001KA1240M+03041MA1999999101371MD1999999+0141REMSYN088AAXX  12004 83398 32594 60904 10271 20219 30137 40142 84540 333 10304 29068 55082 58014;EQDQ01  00002PRCP99
0201833980999992001021212004-15660-038920FM-12+000599999V0200501N002110450019N0040001N1+03001+02221101531ADDAA124000391AY151061AY221061GF106991031051008001041011KA1240N+02281MA1999999101481MD1999999+0041MW1021REMSYN088AAXX  12124 83398 21596 60504 10300 20222 30148 40153 70252 83541 333 20228 58004 69934;
0167833980999992001021218004-15660-038920FM-12+000599999V0200501N003110450019N0040001N1+02911+02171101341ADDAA199000091GF107991031051008001041011MA1999999101291MD1999999+0041REMSYN070AAXX  12184 83398 32596 70506 10291 20217 30129 40134 83541 333 58004;EQDQ01  00002PRCP99
0198833980999992001021300004-15660-038920FM-12+000599999V0200501N002112200019N0010001N1+02661+02141101501ADDAA199000091GF102991021021008001001001KA1240M+03071MA1999999101451MD1999999+0081REMSYN088AAXX  13004 83398 32594 20504 10266 20214 30145 40150 82200 333 10307 29068 55085 58008;EQDQ01  00002PRCP99
0201833980999992001021312004-15660-038920FM-12+000599999V0202301N001010450019N0040001N1+02891+02341101471ADDAA124000191AY151061AY221061GF106991031051008001041011KA1240N+02031MA1999999101421MD1999999-0061MW1021REMSYN088AAXX  13124 83398 21596 62302 10289 20234 30142 40147 70252 83541 333 20203 59006 69914;
0167833980999992001021318004-15660-038920FM-12+000599999V0200501N002110450019N0040001N1+03021+02341101121ADDAA199000091GF106991031021008001041011MA1999999101071MD1999999-0221REMSYN070AAXX  13184 83398 32596 60504 10302 20234 30107 40112 83241 333 59022;EQDQ01  00002PRCP99
0201833980999992001021412004-15660-038920FM-12+000599999V0200501N003110450019N0040001N1+02981+02331101391ADDAA124000191AY151061AY221061GF106991031051008001021011KA1240N+02271MA1999999101341MD1999999-0081MW1021REMSYN088AAXX  14124 83398 21596 60506 10298 20233 30134 40139 70252 83521 333 20227 59008 69924;
0167833980999992001021418004-15660-038920FM-12+000599999V0200501N003110450019N0040001N1+02901+02271101101ADDAA199000091GF106991021051008001041011MA1999999101051MD1999999-0021REMSYN070AAXX  14184 83398 32596 60506 10290 20227 30105 40110 82541 333 59002;EQDQ01  00002PRCP99
0198833980999992001021500004-15660-038920FM-12+000599999V0200501N002112200019N0010001N1+02681+02201101261ADDAA199000091GF101991011021008001001001KA1240M+03121MA1999999101211MD1999999-0071REMSYN088AAXX  15004 83398 32594 10504 10268 20220 30121 40126 81200 333 10312 29071 55095 59007;EQDQ01  00002PRCP99
0186833980999992001021512004-15660-038920FM-12+000599999V0200501N002110450019N0040001N1+02961+02311101441ADDAA199000091GF105991031021008001041041KA1240N+02161MA1999999101391MD1999999+0051REMSYN076AAXX  15124 83398 32596 50504 10296 20231 30139 40144 83244 333 20216 58005;EQDQ01  00002PRCP99
0167833980999992001021518004-15660-038920FM-12+000599999V0200501N002110450019N0040001N1+02921+02221101161ADDAA199000091GF105991031021008001041041MA1999999101111MD1999999+0061REMSYN070AAXX  15184 83398 32596 50504 10292 20222 30111 40116 83244 333 58006;EQDQ01  00002PRCP99
0198833980999992001021600004-15660-038920FM-12+000599999V0200501N001012200019N0010001N1+02671+02261101321ADDAA199000091GF102991011011008001041001KA1240M+03091MA1999999101271MD1999999+0061REMSYN088AAXX  16004 83398 32594 20502 10267 20226 30127 40132 81140 333 10309 29072 55093 58006;EQDQ01  00002PRCP99
0186833980999992001021612004-15660-038920FM-12+000599999V0200501N002111050019N0040001N1+03011+02391101501ADDAA199000091GF105991021021008001041041KA1240N+02141MA1999999101451MD1999999+0061REMSYN076AAXX  16124 83398 32596 50504 10301 20239 30145 40150 82244 333 20214 58006;EQDQ01  00002PRCP99
0167833980999992001021618004-15660-038920FM-12+000599999V0200501N005110450019N0040001N1+02881+02391101271ADDAA199000091GF106991041051008001041001MA1999999101221MD1999999+0111REMSYN070AAXX  16184 83398 32596 60510 10288 20239 30122 40127 84540 333 58011;EQDQ01  00002PRCP99
0201833980999992001021712004-15660-038920FM-12+000599999V0200501N003110450019N0040001N1+02961+02351101661ADDAA124002091AY161061AY221061GF106991041051008001021001KA1240N+02241MA1999999101601MD1999999+0151MW1021REMSYN088AAXX  17124 83398 21596 60506 10296 20235 30160 40166 70262 84520 333 20224 58015 60024;
0167833980999992001021718004-15660-038920FM-12+000599999V0200901N002112200019N0040001N1+03021+02341101571ADDAA199000091GF104991021021008001041041MA1999999101521MD1999999+0301REMSYN070AAXX  17184 83398 32596 40904 10302 20234 30152 40157 82244 333 58030;EQDQ01  00002PRCP99
0198833980999992001021800004-15660-038920FM-12+000599999V0200501N003112200019N0010001N1+02711+02241101711ADDAA199000091GF102991011011008001041001KA1240M+03141MA1999999101651MD1999999+0221REMSYN088AAXX  18004 83398 32594 20506 10271 20224 30165 40171 81140 333 10314 29071 55099 58022;EQDQ01  00002PRCP99
0201833980999992001021812004-15660-038920FM-12+000599999V0202301N002110450019N0020001N1+02401+02231101771ADDAA124006191AY161061AY221061GF106991041051008001021001KA1240N+02131MA1999999101711MD1999999+0111MW1021REMSYN088AAXX  18124 83398 21595 62304 10240 20223 30171 40177 70262 84520 333 20213 58011 60064;
0167833980999992001021818004-15660-038920FM-12+000599999V0200901N002110450019N0040001N1+02891+02331101581ADDAA199000091GF106991031051008001021011MA1999999101531MD1999999+0011REMSYN070AAXX  18184 83398 32596 60904 10289 20233 30153 40158 83521 333 58001;EQDQ01  00002PRCP99
0201833980999992001021912004-15660-038920FM-12+000599999V0202301N002110450019N0040001N1+02741+02401101661ADDAA124000891AY161061AY221061GF106991031051008001021001KA1240N+02131MA1999999101601MD1999999-0111MW1021REMSYN088AAXX  19124 83398 21596 62304 10274 20240 30160 40166 70262 83520 333 20213 59011 69974;
0167833980999992001021918004-15660-038920FM-12+000599999V0200901N003110450019N0040001N1+02981+02351101491ADDAA199000091GF106991031051008001041011MA1999999101441MD1999999-0091REMSYN070AAXX  19184 83398 32596 60906 10298 20235 30144 40149 83541 333 59009;EQDQ01  00002PRCP99
0198833980999992001022000004-15660-038920FM-12+000599999V0200501N002110450019N0010001N1+02741+02241101511ADDAA199000091GF105991021051008001041001KA1240M+03141MA1999999101461MD1999999-0141REMSYN088AAXX  20004 83398 32594 50504 10274 20224 30146 40151 82540 333 10314 29077 55081 59014;EQDQ01  00002PRCP99
0186833980999992001022012004-15660-038920FM-12+000599999V0203201N001010450019N0040001N1+02821+02381101581ADDAA199000091GF106991041051008001041001KA1240N+02231MA1999999101531MD1999999-0071REMSYN076AAXX  20124 83398 32596 63202 10282 20238 30153 40158 84540 333 20223 59007;EQDQ01  00002PRCP99
0167833980999992001022018004-15660-038920FM-12+000599999V0200501N003110450019N0040001N1+02881+02321101301ADDAA199000091GF106991031051008001041011MA1999999101251MD1999999-0191REMSYN070AAXX  20184 83398 32596 60506 10288 20232 30125 40130 83541 333 59019;EQDQ01  00002PRCP99
0186833980999992001022112004-15660-038920FM-12+000599999V0201801N001010450019N0040001N1+02801+02261101481ADDAA199000091GF106991041051008001021001KA1240N+02161MA1999999101431MD1999999-0101REMSYN076AAXX  21124 83398 32596 61802 10280 20226 30143 40148 84520 333 20216 59010;EQDQ01  00002PRCP99
0167833980999992001022118004-15660-038920FM-12+000599999V0200501N003110450019N0040001N1+03021+02261101261ADDAA199000091GF105991031021008001041011MA1999999101211MD1999999-0041REMSYN070AAXX  21184 83398 32596 50506 10302 20226 30121 40126 83241 333 59004;EQDQ01  00002PRCP99
0167833980999992001022218004-15660-038920FM-12+000599999V0200501N004110450019N0040001N1+02981+02351101291ADDAA199000091GF106991031021008001041011MA1999999101241MD1999999+0031REMSYN070AAXX  22184 83398 32596 60508 10298 20235 30124 40129 83241 333 58003;EQDQ01  00002PRCP99
0198833980999992001022300004-15660-038920FM-12+000599999V0200501N003112200019N0010001N1+02761+02381101381ADDAA199000091GF104991031011008001041001KA1240M+03131MA1999999101331MD1999999-0011REMSYN088AAXX  23004 83398 32594 40506 10276 20238 30133 40138 83140 333 10313 29076 55101 59001;EQDQ01  00002PRCP99
0201833980999992001022312004-15660-038920FM-12+000599999V0202301N003110075019N0040001N1+02771+02381101691ADDAA124002091AY161061AY221061GF106991051051008001021001KA1240N+02131MA1999999101581MD1999999+0101MW1021REMSYN088AAXX  23124 83398 21596 62306 10277 20238 30158 40169 70262 85520 333 20213 58010 60024;
0167833980999992001022318004-15660-038920FM-12+000599999V0200501N004111050019N0040001N1+03051+02431101331ADDAA199000091GF105991021021008001041011MA1999999101281MD1999999+0041REMSYN070AAXX  23184 83398 32596 50508 10305 20243 30128 40133 82241 333 58004;EQDQ01  00002PRCP99
0131833980999992001022400004-15660-038920FM-12+000599999V0200901N002112200019N0010001N1+02791+02311999999ADDAA199000091GF102991999999008001999999MA1999999101471REMSYN048AAXX  24004 83398 32594 20904 10279 20231 30147;EQDQ01  00002PRCP99
0201833980999992001022412004-15660-038920FM-12+000599999V0202301N001010450019N0040001N1+02761+02441101521ADDAA124003091AY161061AY221061GF106991041051008001021001KA1240N+02281MA1999999101471MD1999999-0031MW1021REMSYN088AAXX  24124 83398 21596 62302 10276 20244 30147 40152 70262 84520 333 20228 59003 60034;
0167833980999992001022418004-15660-038920FM-12+000599999V0200901N004110450019N0040001N1+03061+02451101261ADDAA199000091GF106991031051008001041011MA1999999101211MD1999999-0071REMSYN070AAXX  24184 83398 32596 60908 10306 20245 30121 40126 83541 333 59007;EQDQ01  00002PRCP99
0192833980999992001022500004-15660-038920FM-12+000599999V0201401N003112200019N0010001N1+02721+02321999999ADDAA199000091GF104991021051008001041001KA1240M+03141MA1999999101341MD1999999-0131REMSYN082AAXX  25004 83398 32594 41406 10272 20232 30134 82540 333 10314 29077 55093 59013;EQDQ01  00002PRCP99
0192833980999992001022512004-15660-038920FM-12+000599999V0201401N003112200019N0010001N1+02721+02321999999ADDAA199000091GF104991021051008001041001KA1240M+03141MA1999999101341MD1999999-0131REMSYN082AAXX  25124 83398 32594 41406 10272 20232 30134 82540 333 10314 29077 55093 59013;EQDQ01  00002PRCP99
0182833980999992001022518004-15660-038920FM-12+000599999V0200501N002110450019N0040001N1+02801+02271101171ADDAA106007991AY161061AY221061GF107991041051004501021001MA1999999101121MD1999999-0091MW1021REMSYN082AAXX  25184 83398 21496 70504 10280 20227 30112 40117 70262 84520 333 59009 60081;
0198833980999992001022600004-15660-038920FM-12+000599999V0201801N001010450019N0010001N1+02471+02381101311ADDAA199000091GF107991041051008001021001KA1240M+02881MA1999999101261MD1999999-0081REMSYN088AAXX  26004 83398 32594 71802 10247 20238 30126 40131 84520 333 10288 29088 55004 59008;EQDQ01  00002PRCP99
0182833980999992001022618004-15660-038920FM-12+000599999V0209999C000010075019N0040001N1+02521+02401101221ADDAA106008991AY161061AY221061GF108991051051008001021999MA1999999101171MD1999999+0051MW1021REMSYN082AAXX  26184 83398 21596 80000 10252 20240 30117 40122 70262 8552/ 333 58005 60091;
0213833980999992001022700004-15660-038920FM-12+000599999V0202301N001010450019N0010001N1+02451+02331101321ADDAA106009991AY161061AY221061GF107991041051008001021001KA1240M+02581MA1999999101271MD1999999+0011MW1021REMSYN100AAXX  27004 83398 21594 72302 10245 20233 30127 40132 70262 84520 333 10258 29096 55000 58001 60101;
0201833980999992001022712004-15660-038920FM-12+000599999V0201801N001010450019N0040001N1+02601+02401101441ADDAA124023191AY191061AY261061GF107991041051008001021011KA1240N+02001MA1999999101391MD1999999+0091MW1021REMSYN088AAXX  27124 83398 21596 71802 10260 20240 30139 40144 70296 84521 333 20200 58009 60234;
0167833980999992001022718004-15660-038920FM-12+000599999V0200901N001010075019N0040001N1+02721+02431101221ADDAA199000091GF108991051051008001021999MA1999999101171MD1999999+0001REMSYN070AAXX  27184 83398 32596 80902 10272 20243 30117 40122 8552/ 333 58000;EQDQ01  00002PRCP99
0143833980999992001022800004-15660-038920FM-12+000599999V0209999C000010075019N0010001N1+02461+02321101471ADDAA199000091GF108991051051008001021999MA1999999101421REMSYN060AAXX  28004 83398 32594 80000 10246 20232 30142 40147 8552/;EQDQ01  00002PRCP99
0110833980999992001022812004-15660-038920FM-12+000599999V0202301N001019999999N0040001N1+02701+02391999999ADDAA199000091GF106991999999008001999999REMSYN042AAXX  28124 83398 32596 62302 10270 20239;EQDQ01  00002PRCP99
0182833980999992001022818004-15660-038920FM-12+000599999V0201401N002110450019N0040001N1+02641+02231101291ADDAA106000391AY151061AY221061GF107991041051008001021001MA1999999101241MD1999999+0071MW1021REMSYN082AAXX  28184 83398 21596 71404 10264 20223 30124 40129 70252 84520 333 58007 69931;
0198833980999992001030100004-15660-038920FM-12+000599999V0202301N001010075019N0010001N1+02451+02321101481ADDAA199000091GF108991051021008001011999KA1240M+02981MA1999999101431MD1999999+0011REMSYN088AAXX  01004 83398 32594 82302 10245 20232 30143 40148 8521/ 333 10298 29087 55024 58001;EQDQ01  00002PRCP99
0201833980999992001030112004-15660-038920FM-12+000599999V0201801N001010450019N0020001N1+02461+02321101511ADDAA124001091AY161061AY221061GF108991031071008001021999KA1240N+02201MA1999999101461MD1999999+0041MW1501REMSYN088AAXX  01124 83398 21595 81802 10246 20232 30146 40151 75062 8372/ 333 20220 58004 60014;
0148833980999992001030118004-15660-038920FM-12+000599999V0201401N002110450019N0020001N1+02681+02521101371ADDAA199000021GF108991041051008001021999MA1999999101321MD1999999+0081REMSYN070AAXX  01184 83398 32595 81404 10268 20252 30132 40137 8452/ 333 58008;
0183833980999992001030200004-15660-038920FM-12+000599999V0209999C000010042019N0010001N1+02451+02351101631ADDAY151061AY221061GF108991051051004501021999KA1240M+02961KA2999N+00931MA1999999101571MW1021REMSYN082AAXX  02004 83398 21494 80000 10245 20235 30157 40163 70252 8552/ 333 10296 29093;
0186833980999992001030212004-15660-038920FM-12+000599999V0203601N003110450019N0040001N1+03001+02371101251ADDAA199000091GF105991041021008001041001KA1240N+02171MA1999999101201MD1999999+0031REMSYN076AAXX  02124 83398 32596 53606 10300 20237 30120 40125 84240 333 20217 58003;EQDQ01  00002PRCP99
0167833980999992001030218004-15660-038920FM-12+000599999V0201401N002110450019N0040001N1+02981+02441101461ADDAA199000091GF106991041051008001021001MA1999999101411MD1999999+0091REMSYN070AAXX  02184 83398 32596 61404 10298 20244 30141 40146 84520 333 58009;EQDQ01  00002PRCP99
0213833980999992001030300004-15660-038920FM-12+000599999V0202301N001010075019N0010001N1+02511+02451101711ADDAA106000191AY151061AY221061GF108991051071008001021999KA1240M+03001MA1999999101161MD1999999+0081MW1021REMSYN100AAXX  03004 83398 21594 82302 10251 20245 30116 40171 70252 8572/ 333 10300 29088 55033 58008 69921;
0201833980999992001030312004-15660-038920FM-12+000599999V0201801N001010450019N0040001N1+02721+02451101731ADDAA124001091AY161061AY221061GF106991041051008001021001KA1240N+02211MA1999999101671MD1999999+0061MW1021REMSYN088AAXX  03124 83398 21596 61802 10272 20245 30167 40173 70262 84520 333 20221 58006 60014;
0182833980999992001030318004-15660-038920FM-12+000599999V0201401N002110450019N0020001N1+02601+02351101501ADDAA106000391AY151061AY221061GF108991041051008001021999MA1999999101451MD1999999+0041MW1021REMSYN082AAXX  03184 83398 21595 81404 10260 20235 30145 40150 70252 8452/ 333 58004 69931;
0213833980999992001030400004-15660-038920FM-12+000599999V0202301N001010075019N0010001N1+02501+02361101761ADDAA106000391AY151061AY221061GF108991051051008001021999KA1240M+03031MA1999999101701MD1999999+0051MW1021REMSYN100AAXX  04004 83398 21594 82302 10250 20236 30170 40176 70252 8552/ 333 10303 29089 55036 58005 69931;
0201833980999992001030412004-15660-038920FM-12+000599999V0202301N001010075019N0020001N1+02641+02481101691ADDAA124003091AY161061AY221061GF107991051051008001021001KA1240N+02241MA1999999101631MD1999999-0041MW1021REMSYN088AAXX  04124 83398 21595 72302 10264 20248 30163 40169 70262 85520 333 20224 59004 60034;
0182833980999992001030418004-15660-038920FM-12+000599999V0201401N001010450019N0040001N1+02731+02461101381ADDAA106027991AY161061AY221061GF107991041051004501021001MA1999999101331MD1999999-0121MW1821REMSYN082AAXX  04184 83398 21496 71402 10273 20246 30133 40138 78262 84520 333 59012 60281;
0201833980999992001030512004-15660-038920FM-12+000599999V0200901N002110450019N0040001N1+02841+02381101541ADDAA124029091AY151061AY221061GF106991041051008001021001KA1240N+02201MA1999999101491MD1999999-0141MW1021REMSYN088AAXX  05124 83398 21596 60904 10284 20238 30149 40154 70252 84520 333 20220 59014 60294;
0167833980999992001030518004-15660-038920FM-12+000599999V0200901N003110075019N0040001N1+02801+02311101271ADDAA199000091GF107991051051008001021001MA1999999101221MD1999999-0111REMSYN070AAXX  05184 83398 32596 70906 10280 20231 30122 40127 85520 333 59011;EQDQ01  00002PRCP99
0201833980999992001030612004-15660-038920FM-12+000599999V0203201N002110042019N0040001N1+02661+02481101681ADDAA124004191AY161061AY221061GF107991051051004501021001KA1240N+02331MA1999999101631MD1999999+0141MW1021REMSYN088AAXX  06124 83398 21496 73204 10266 20248 30163 40168 70262 85520 333 20233 58014 60044;
0182833980999992001030618004-15660-038920FM-12+000599999V0200501N002110450019N0200001N1+02801+02381101471ADDAA106000891AY151061AY221061GF107991041051004501021041MA1999999101421MD1999999+0201MW1021REMSYN082AAXX  06184 83398 21498 70504 10280 20238 30142 40147 70252 84524 333 58020 69971;
0198833980999992001030700004-15660-038920FM-12+000599999V0200501N001010075019N0010001N1+02591+02391101631ADDAA199000091GF108991051051008001021999KA1240M+02911MA1999999101571MD1999999+0101REMSYN088AAXX  07004 83398 32594 80502 10259 20239 30157 40163 8552/ 333 10291 29086 55042 58010;EQDQ01  00002PRCP99
0201833980999992001030712004-15660-038920FM-12+000599999V0203601N002110450019N0040001N1+02811+02391101921ADDAA124000891AY151061AY221061GF106991041051008001041001KA1240N+02211MA1999999101861MD1999999+0231MW1011REMSYN088AAXX  07124 83398 21596 63604 10281 20239 30186 40192 70152 84540 333 20221 58023 69984;
0167833980999992001030718004-15660-038920FM-12+000599999V0200501N003110450019N0040001N1+02981+02351101501ADDAA199000091GF106991031021008001041011MA1999999101451MD1999999+0031REMSYN070AAXX  07184 83398 32596 60506 10298 20235 30145 40150 83241 333 58003;EQDQ01  00002PRCP99
0198833980999992001030800004-15660-038920FM-12+000599999V0200901N002110450019N0010001N1+02761+02381101621ADDAA199000091GF105991031011008001041001KA1240M+03021MA1999999101561MD1999999-0011REMSYN088AAXX  08004 83398 32594 50904 10276 20238 30156 40162 83140 333 10302 29107 55077 59001;EQDQ01  00002PRCP99
0167833980999992001030818004-15660-038920FM-12+000599999V0200501N002110450019N0040001N1+02961+02331101401ADDAA199000091GF106991041051008001021001MA1999999101351MD1999999-0101REMSYN070AAXX  08184 83398 32596 60504 10296 20233 30135 40140 84520 333 59010;EQDQ01  00002PRCP99
0186833980999992001030912004-15660-038920FM-12+000599999V0203601N002110450019N0040001N1+02961+02311101501ADDAA199000091GF105991031021008001041001KA1240N+02321MA1999999101451MD1999999-0161REMSYN076AAXX  09124 83398 32596 53604 10296 20231 30145 40150 83240 333 20232 59016;EQDQ01  00002PRCP99
0167833980999992001030918004-15660-038920FM-12+000599999V0200501N003110450019N0040001N1+03001+02341101201ADDAA199000091GF106991031021008001041011MA1999999101151MD1999999-0201REMSYN070AAXX  09184 83398 32596 60506 10300 20234 30115 40120 83241 333 59020;EQDQ01  00002PRCP99
0198833980999992001031000004-15660-038920FM-12+000599999V0200501N002112200019N0010001N1+02731+02191101251ADDAA199000091GF103991031021008001001001KA1240M+03051MA1999999101201MD1999999-0181REMSYN088AAXX  10004 83398 32594 30504 10273 20219 30120 40125 83200 333 10305 29070 55102 59018;EQDQ01  00002PRCP99
0186833980999992001031012004-15660-038920FM-12+000599999V0200501N002110450019N0040001N1+02971+02371101341ADDAA199000091GF105991041021008001041001KA1240N+02301MA1999999101291MD1999999-0161REMSYN076AAXX  10124 83398 32596 50504 10297 20237 30129 40134 84240 333 20230 59016;EQDQ01  00002PRCP99
0167833980999992001031018004-15660-038920FM-12+000599999V0200501N003110450019N0040001N1+03001+02341101001ADDAA199000091GF106991041021008001041011MA1999999100951MD1999999-0201REMSYN070AAXX  10184 83398 32596 60506 10300 20234 30095 40100 84241 333 59020;EQDQ01  00002PRCP99
0198833980999992001031100004-15660-038920FM-12+000599999V0200501N003112200019N0010001N1+02741+02261101231ADDAA199000091GF103991021011008001041001KA1240M+03071MA1999999101181MD1999999-0021REMSYN088AAXX  11004 83398 32594 30506 10274 20226 30118 40123 82140 333 10307 29071 55103 59002;EQDQ01  00002PRCP99
0201833980999992001031112004-15660-038920FM-12+000599999V0200501N004110450019N0040001N1+02921+02411101271ADDAA124001091AY161061AY221061GF106991041051008001021001KA1240N+02311MA1999999101221MD1999999-0071MW1021REMSYN088AAXX  11124 83398 21596 60508 10292 20241 30122 40127 70262 84520 333 20231 59007 60014;
0198833980999992001031200004-15660-038920FM-12+000599999V0200501N003111050019N0010001N1+02741+02301101381ADDAA199000091GF105991021021008001041011KA1240M+03061MA1999999101331MD1999999+0111REMSYN088AAXX  12004 83398 32594 50506 10274 20230 30133 40138 82241 333 10306 29075 55102 58011;EQDQ01  00002PRCP99
0201833980999992001031212004-15660-038920FM-12+000599999V0203201N002110450019N0040001N1+02651+02361101481ADDAA124007191AY161061AY221061GF107991041051004501021001KA1240N+02261MA1999999101431MD1999999+0211MW1021REMSYN088AAXX  12124 83398 21496 73204 10265 20236 30143 40148 70262 84520 333 20226 58021 60074;
0182833980999992001031218004-15660-038920FM-12+000599999V0200501N002110450019N0020001N1+02741+02261101291ADDAA106001091AY161061AY221061GF107991041051008001021001MA1999999101231MD1999999+0241MW1021REMSYN082AAXX  12184 83398 21595 70504 10274 20226 30123 40129 70262 84520 333 58024 60011;
0198833980999992001031300004-15660-038920FM-12+000599999V0200501N001010450019N0010001N1+02541+02291101471ADDAA199000091GF106991031021008001041011KA1240M+02941MA1999999101421MD1999999+0091REMSYN088AAXX  13004 83398 32594 60502 10254 20229 30142 40147 83241 333 10294 29082 55018 58009;EQDQ01  00002PRCP99
0201833980999992001031312004-15660-038920FM-12+000599999V0202701N002110450019N0040001N1+02461+02301101651ADDAA124011991AY161061AY221061GF107991041051004501021001KA1240N+02251MA1999999101591MD1999999+0161MW1021REMSYN088AAXX  13124 83398 21496 72704 10246 20230 30159 40165 70262 84520 333 20225 58016 60124;
0182833980999992001031318004-15660-038920FM-12+000599999V0200901N003110450019N0040001N1+02881+02251101371ADDAA106000191AY151061AY221061GF106991041051008001041001MA1999999101321MD1999999+0091MW1021REMSYN082AAXX  13184 83398 21596 60906 10288 20225 30132 40137 70252 84540 333 58009 69921;
0201833980999992001031412004-15660-038920FM-12+000599999V0202301N001010450019N0040001N1+02621+02291101621ADDAA124019191AY161061AY221061GF106991041051008001041001KA1240N+02231MA1999999101561MD1999999-0031MW1011REMSYN088AAXX  14124 83398 21596 62302 10262 20229 30156 40162 70162 84540 333 20223 59003 60194;
0167833980999992001031418004-15660-038920FM-12+000599999V0201401N003110450019N0040001N1+02821+02291101271ADDAA199000091GF106991041051008001021001MA1999999101221MD1999999-0101REMSYN070AAXX  14184 83398 32596 61406 10282 20229 30122 40127 84520 333 59010;EQDQ01  00002PRCP99
0201833980999992001031512004-15660-038920FM-12+000599999V0201401N002110450019N0040001N1+02881+02321101581ADDAA124008991AY161061AY221061GF106991031051004501041041KA1240N+02201MA1999999101531MD1999999-0031MW1011REMSYN088AAXX  15124 83398 21496 61404 10288 20232 30153 40158 70162 83544 333 20220 59003 60094;
0167833980999992001031518004-15660-038920FM-12+000599999V0200901N004110450019N0600001N1+02881+02301101351ADDAA199000091GF106991041051008001021001MA1999999101301MD1999999+0081REMSYN070AAXX  15184 83398 32586 60908 10288 20230 30130 40135 84520 333 58008;EQDQ01  00002PRCP99
0198833980999992001031600004-15660-038920FM-12+000599999V0201401N004012200019N0010001N1+02681+02311101561ADDAA199000091GF104991021021008001041001KA1240M+03001MA1999999101511MD1999999+0081REMSYN088AAXX  16000 83398 32594 41404 10268 20231 30151 40156 82240 333 10300 29075 55102 58008;EQDQ01  00002PRCP99
0173833980999992001031612004-15660-038920FM-12+000599999V0201801N001010450019N0040001N1+02791+02391101731ADDAA124000591GF106991031021008001051041KA1240N+02201MA1999999101671MD1999999+0141REMSYN082AAXX  16124 83398 22596 61802 10279 20239 30167 40173 83254 333 20220 58014 69964;
0167833980999992001031618004-15660-038920FM-12+000599999V0201401N002110450019N0040001N1+02961+02311101481ADDAA199000091GF106991041051008001021001MA1999999101431MD1999999+0131REMSYN070AAXX  16184 83398 32596 61404 10296 20231 30143 40148 84520 333 58013;EQDQ01  00002PRCP99
0198833980999992001031700004-15660-038920FM-12+000599999V0209999C000012200019N0010001N1+02521+02381101631ADDAA199000091GF102991011021008001041001KA1240M+03051MA1999999101571MD1999999+0061REMSYN088AAXX  17004 83398 32594 20000 10252 20238 30157 40163 81240 333 10305 29082 55099 58006;EQDQ01  00002PRCP99
0201833980999992001031712004-15660-038920FM-12+000599999V0202701N001010450019N0040001N1+02621+02351101611ADDAA124007191AY161061AY221061GF107991041051004501021041KA1240N+02261MA1999999101551MD1999999-0121MW1021REMSYN088AAXX  17124 83398 21496 72702 10262 20235 30155 40161 70262 84524 333 20226 59012 60074;
0167833980999992001031718004-15660-038920FM-12+000599999V0200901N003110450019N0040001N1+02921+02361101421ADDAA199000091GF106991031051008001021001MA1999999101371MD1999999-0061REMSYN070AAXX  17184 83398 32596 60906 10292 20236 30137 40142 83520 333 59006;EQDQ01  00002PRCP99
0186833980999992001031812004-15660-038920FM-12+000599999V0203201N001010450019N0040001N1+02841+02421101361ADDAA199000091GF106991041051008001021001KA1240N+02221MA1999999101311MD1999999-0241REMSYN076AAXX  18124 83398 32596 63202 10284 20242 30131 40136 84520 333 20222 59024;EQDQ01  00002PRCP99
0167833980999992001031818004-15660-038920FM-12+000599999V0200501N003111050019N0040001N1+02901+02411101061ADDAA199000091GF105991021021008001041011MA1999999101011MD1999999-0361REMSYN070AAXX  18184 83398 32596 50506 10290 20241 30101 40106 82241 333 59036;EQDQ01  00002PRCP99
0198833980999992001031900004-15660-038920FM-12+000599999V0200501N001012200019N0010001N1+02621+02291101291ADDAA199000091GF102991011011008001041001KA1240M+02971MA1999999101241MD1999999-0191REMSYN088AAXX  19004 83398 32594 20502 10262 20229 30124 40129 81140 333 10297 29079 55108 59019;EQDQ01  00002PRCP99
0186833980999992001031912004-15660-038920FM-12+000599999V0203601N001010450019N0040001N1+02881+02251101341ADDAA199000091GF105991031011008001041001KA1240N+02241MA1999999101291MD1999999-0021REMSYN076AAXX  19124 83398 32596 53602 10288 20225 30129 40134 83140 333 20224 59002;EQDQ01  00002PRCP99
0167833980999992001031918004-15660-038920FM-12+000599999V0200501N002112200019N0040001N1+02931+02281101041ADDAA199000091GF104991021021008001041041MA1999999100991MD1999999-0021REMSYN070AAXX  19184 83398 32596 40504 10293 20228 30099 40104 82244 333 59002;EQDQ01  00002PRCP99
0198833980999992001032000004-15660-038920FM-12+000599999V0200501N003112200019N0010001N1+02701+02261101371ADDAA199000091GF103991011021008001041001KA1240M+03041MA1999999101321MD1999999+0081REMSYN088AAXX  20004 83398 32594 30506 10270 20226 30132 40137 81240 333 10304 29072 55102 58008;EQDQ01  00002PRCP99
0186833980999992001032012004-15660-038920FM-12+000599999V0200901N002110450019N0040001N1+02911+02331101671ADDAA199000091GF105991041021008001041001KA1240N+01901MA1999999101611MD1999999+0321REMSYN076AAXX  20124 83398 32596 50904 10291 20233 30161 40167 84240 333 20190 58032;EQDQ01  00002PRCP99
0167833980999992001032018004-15660-038920FM-12+000599999V0200501N003110450019N0040001N1+02961+02421101481ADDAA199000091GF105991031021008001041001MA1999999101431MD1999999+0441REMSYN070AAXX  20184 83398 32596 50506 10296 20242 30143 40148 83240 333 58044;EQDQ01  00002PRCP99
0186833980999992001032112004-15660-038920FM-12+000599999V0200901N002110450019N0040001N1+02901+02221101791ADDAA199000091GF106991041051008001021001KA1240N+02231MA1999999101731MD1999999+0121REMSYN076AAXX  21124 83398 32596 60904 10290 20222 30173 40179 84520 333 20223 58012;EQDQ01  00002PRCP99
0167833980999992001032118004-15660-038920FM-12+000599999V0200901N002110450019N0040001N1+03001+02371101491ADDAA199000091GF105991021051008001041001MA1999999101441MD1999999+0011REMSYN070AAXX  21184 83398 32596 50904 10300 20237 30144 40149 82540 333 58001;EQDQ01  00002PRCP99
0198833980999992001032200004-15660-038920FM-12+000599999V0209999C000012200019N0010001N1+02431+02281101611ADDAA199000091GF102991011011008001041001KA1240M+03051MA1999999101551MD1999999-0041REMSYN088AAXX  22004 83398 32594 20000 10243 20228 30155 40161 81140 333 10305 29079 55090 59004;EQDQ01  00002PRCP99
0186833980999992001032212004-15660-038920FM-12+000599999V0201801N002110450019N0040001N1+02681+02241101581ADDAA199000091GF105991031021008001041001KA1240N+02151MA1999999101531MD1999999-0201REMSYN076AAXX  22124 83398 32596 51804 10268 20224 30153 40158 83240 333 20215 59020;EQDQ01  00002PRCP99
0167833980999992001032218004-15660-038920FM-12+000599999V0201401N003110450019N0040001N1+02941+02261101191ADDAA199000091GF105991031051008001041001MA1999999101141MD1999999-0301REMSYN070AAXX  22184 83398 32596 51406 10294 20226 30114 40119 83540 333 59030;EQDQ01  00002PRCP99
0198833980999992001032300004-15660-038920FM-12+000599999V0201801N001012200019N0010001N1+02461+02321101331ADDAA199000091GF102991021011008001001001KA1240M+03061MA1999999101281MD1999999-0271REMSYN088AAXX  23004 83398 32594 21802 10246 20232 30128 40133 82100 333 10306 29082 55083 59027;EQDQ01  00002PRCP99
0201833980999992001032312004-15660-038920FM-12+000599999V0202701N001010450019N0040001N1+02611+02381101441ADDAA124005191AY161061AY221061GF106991041051004501041001KA1240N+02201MA1999999101391MD1999999-0141MW1011REMSYN088AAXX  23124 83398 21496 62702 10261 20238 30139 40144 70162 84540 333 20220 59014 60054;
0182833980999992001032318004-15660-038920FM-12+000599999V0200901N003110450019N0040001N1+02921+02431101011ADDAA106000191AY151061AY221061GF106991041051008001041001MA1999999100961MD1999999-0181MW1021REMSYN082AAXX  23184 83398 21596 60906 10292 20243 30096 40101 70252 84540 333 59018 69921;
0198833980999992001032400004-15660-038920FM-12+000599999V0202301N001012200019N0010001N1+02471+02391101311ADDAA199000091GF102991011011008001041001KA1240M+02991MA1999999101261MD1999999-0021REMSYN088AAXX  24004 83398 32594 22302 10247 20239 30126 40131 81140 333 10299 29089 55082 59002;EQDQ01  00002PRCP99
0173833980999992001032412004-15660-038920FM-12+000599999V0202701N001010450019N0040001N1+02761+02641101411ADDAA124000191GF105991021051008001041001KA1240N+02281MA1999999101361MD1999999-0031REMSYN082AAXX  24124 83398 22596 52702 10276 20264 30136 40141 82540 333 20228 59003 69924;
0167833980999992001032418004-15660-038920FM-12+000599999V0200901N003110450019N0040001N1+02941+02431101141ADDAA199000091GF106991021051008001041011MA1999999101091MD1999999+0131REMSYN070AAXX  24184 83398 32596 60906 10294 20243 30109 40114 82541 333 58013;EQDQ01  00002PRCP99
0186833980999992001032512004-15660-038920FM-12+000599999V0203201N001010450019N0040001N1+02841+02521101541ADDAA199000091GF106991031051008001041001KA1240N+02281MA1999999101491MD1999999+0131REMSYN076AAXX  25124 83398 32596 63202 10284 20252 30149 40154 83540 333 20228 58013;EQDQ01  00002PRCP99
0167833980999992001032518004-15660-038920FM-12+000599999V0200901N003110450019N0040001N1+02981+02491101261ADDAA199000091GF106991021051008001041011MA1999999101211MD1999999+0121REMSYN070AAXX  25184 83398 32596 60906 10298 20249 30121 40126 82541 333 58012;EQDQ01  00002PRCP99
0198833980999992001032600004-15660-038920FM-12+000599999V0200501N002112200019N0010001N1+02731+02211101471ADDAA199000091GF104991021021008001041001KA1240M+03071MA1999999101421MD1999999+0101REMSYN088AAXX  26004 83398 32594 40504 10273 20221 30142 40147 82240 333 10307 29079 55094 58010;EQDQ01  00002PRCP99
0201833980999992001032612004-15660-038920FM-12+000599999V0209999C000010450019N0040001N1+02791+02431101591ADDAA124000391AY151061AY221061GF106991041051004501041001KA1240N+02251MA1999999101541MD1999999+0051MW1011REMSYN088AAXX  26124 83398 21496 60000 10279 20243 30154 40159 70152 84540 333 20225 58005 69934;
0167833980999992001032618004-15660-038920FM-12+000599999V0200901N002110450019N0040001N1+02901+02391101261ADDAA199000091GF106991041051008001041001MA1999999101211MD1999999+0001REMSYN070AAXX  26184 83398 32596 60904 10290 20239 30121 40126 84540 333 58000;EQDQ01  00002PRCP99
0167833980999992001032718004-15660-038920FM-12+000599999V0200901N003110450019N0040001N1+02901+02321101191ADDAA199000091GF106991041051008001041001MA1999999101141MD1999999-0071REMSYN070AAXX  27184 83398 32596 60906 10290 20232 30114 40119 84540 333 59007;EQDQ01  00002PRCP99
0198833980999992001032800004-15660-038920FM-12+000599999V0200501N003110450019N0010001N1+02731+02281101281ADDAA199000091GF105991031021008001041001KA1240M+03031MA1999999101231MD1999999-0111REMSYN088AAXX  28004 83398 32594 50506 10273 20228 30123 40128 83240 333 10303 29076 55086 59011;EQDQ01  00002PRCP99
0201833980999992001032812004-15660-038920FM-12+000599999V0202301N002110450019N0040001N1+02691+02321101481ADDAA124000391AY151061AY221061GF105991031021004501041001KA1240N+02241MA1999999101431MD1999999-0031MW1011REMSYN088AAXX  28124 83398 21496 52304 10269 20232 30143 40148 70152 83240 333 20224 59003 69934;
0167833980999992001032818004-15660-038920FM-12+000599999V0200501N003111050019N0040001N1+02981+02331101151ADDAA199000091GF105991021051008001041011MA1999999101111MD1999999-0031REMSYN070AAXX  28184 83398 32596 50506 10298 20233 30111 40115 82541 333 59003;EQDQ01  00002PRCP99
0198833980999992001032900004-15660-038920FM-12+000599999V0200501N002112200019N0010001N1+02741+02261101391ADDAA199000091GF103991021021008001041001KA1240M+03011MA1999999101341MD1999999+0111REMSYN088AAXX  29004 83398 32594 30504 10274 20226 30134 40139 82240 333 10301 29074 55079 58011;EQDQ01  00002PRCP99
0201833980999992001032912004-15660-038920FM-12+000599999V0200501N002112200019N0040001N1+02911+02281101701ADDAA124000591AY151061AY221061GF104991031021004501041001KA1240N+02211MA1999999101641MD1999999+0111MW1011REMSYN088AAXX  29124 83398 21496 40504 10291 20228 30164 40170 70152 83240 333 20221 58011 69954;
0167833980999992001032918004-15660-038920FM-12+000599999V0200901N004110450019N0040001N1+02961+02211101381ADDAA199000091GF105991021051008001041001MA1999999101331MD1999999+0221REMSYN070AAXX  29184 83398 32596 50908 10296 20221 30133 40138 82540 333 58022;EQDQ01  00002PRCP99
0198833980999992001033000004-15660-038920FM-12+000599999V0201401N002112200019N0010001N1+02671+02281101581ADDAA199000091GF103991021021008001041001KA1240M+03061MA1999999101531MD1999999+0191REMSYN088AAXX  30004 83398 32594 31404 10267 20228 30153 40158 82240 333 10306 29072 55093 58019;EQDQ01  00002PRCP99
0195833980999992001033012004-15660-038920FM-12+000599999V0202301N001010042019N0040001N1+02621+02411999999ADDAA124004191AY161061AY221061GF108991051051004501021999KA1240N+02201MA1999999101571MD1999999-0071MW1021REMSYN082AAXX  30124 83398 21496 82302 10262 20241 30157 70262 8552/ 333 20220 59007 60044;
0201833980999992001033018004-15660-038920FM-12+000599999V0200501N003112200019N0040001N1+02901+02341101371ADDAA106000891AY151061AY221061GF103991999051008001041001MA1999999101321MD1999999-0011MW1021REMSYN082AAXX  30184 83398 21596 30506 10290 20234 30132 40137 70252 84540 333 59001 69981;EQDQ01+000042SCOTLC
0198833980999992001033100004-15660-038920FM-12+000599999V0200901N002112200019N0010001N1+02721+02241101511ADDAA199000091GF104991021021008001041011KA1240M+02971MA1999999101461MD1999999-0071REMSYN088AAXX  31004 83398 32594 40904 10272 20224 30146 40151 82241 333 10297 29077 55070 59007;EQDQ01  00002PRCP99
0201833980999992001033112004-15660-038920FM-12+000599999V0202301N002110450019N0040001N1+02381+02211101741ADDAA124007991AY161061AY221061GF107991041051004501021001KA1240N+02161MA1999999101681MD1999999+0111MW1021REMSYN088AAXX  31124 83398 21496 72304 10238 20221 30168 40174 70262 84520 333 20216 58011 60084;
0167833980999992001033118004-15660-038920FM-12+000599999V0201401N003110450019N0040001N1+02921+02241999999ADDAA199000091GF106991021051008001041011MA1999999101251MD1999999-0071REMSYN070AAXX  31184 83398 32596 61406 10292 20224 30125 401/0 82541 333 59007;EQDQ01  00002PRCP99
0198833980999992001040100004-15660-038920FM-12+000599999V0200501N003110075019N0010001N1+02541+02211101521ADDAA199000091GF108991051051008001021999KA1240M+03011MA1999999101471MD1999999+0011REMSYN088AAXX  01004 83398 32594 80506 10254 20221 30147 40152 8552/ 333 10301 29080 55062 58001;EQDQ01  00002PRCP99
0201833980999992001040112004-15660-038920FM-12+000599999V0202301N002110450019N0040001N1+02681+02411101571ADDAA124007991AY161061AY221061GF106991041051008001041001KA1240N+02151MA1999999101521MD1999999-0161MW1021REMSYN088AAXX  01124 83398 21596 62304 10268 20241 30152 40157 70262 84540 333 20215 59016 60084;
0182833980999992001040118004-15660-038920FM-12+000599999V0201401N002110450019N0040001N1+02861+02441101351ADDAA106001091AY151061AY221061GF105991031051004501041001MA1999999101301MD1999999+0051MW1011REMSYN082AAXX  01184 83398 21496 51404 10286 20244 30130 40135 70152 83540 333 58005 60011;
0213833980999992001040200004-15660-038920FM-12+000599999V0202301N001010450019N0010001N1+02281+02211101471ADDAA106002091AY161061AY221061GF106991041051008001021001KA1240M+03011MA1999999101421MD1999999-0051MW1021REMSYN100AAXX  02004 83398 21594 62302 10228 20221 30142 40147 70262 84520 333 10301 29086 55084 59005 60021;
0201833980999992001040212004-15660-038920FM-12+000599999V0201801N002110450019N0040001N1+02581+02381101651ADDAA124003091AY151061AY221061GF106991041051004501021001KA1240N+02171MA1999999101591MD1999999+0071MW1021REMSYN088AAXX  02124 83398 21496 61804 10258 20238 30159 40165 70252 84520 333 20217 58007 60034;
0167833980999992001040218004-15660-038920FM-12+000599999V0200501N002110450019N0040001N1+02821+02331101441ADDAA199000091GF106991041051008001021001MA1999999101391MD1999999+0091REMSYN070AAXX  02184 83398 32596 60504 10282 20233 30139 40144 84520 333 58009;EQDQ01  00002PRCP99
0198833980999992001040300004-15660-038920FM-12+000599999V0202701N001012200019N0010001N1+02381+02311101671ADDAA199000091GF102991011011008001041001KA1240M+02951MA1999999101611MD1999999+0191REMSYN088AAXX  03004 83398 32594 22702 10238 20231 30161 40167 81140 333 10295 29089 55070 58019;EQDQ01  00002PRCP99
0201833980999992001040312004-15660-038920FM-12+000599999V0202301N001010450019N0040001N1+02741+02331101591ADDAA124004191AY161061AY221061GF106991041051008001041001KA1240N+02081MA1999999101541MD1999999-0051MW1021REMSYN088AAXX  03124 83398 21596 62302 10274 20233 30154 40159 70262 84540 333 20208 59005 60044;
0167833980999992001040318004-15660-038920FM-12+000599999V0200501N003110450019N0040001N1+02901+02391101341ADDAA199000091GF106991041051008001021001MA1999999101291MD1999999-0101REMSYN070AAXX  03184 83398 32596 60506 10290 20239 30129 40134 84520 333 59010;EQDQ01  00002PRCP99
0198833980999992001040400004-15660-038920FM-12+000599999V0209999C000012200019N0010001N1+02411+02261101561ADDAA199000091GF102991011011008001041001KA1240M+02991MA1999999101511MD1999999-0101REMSYN088AAXX  04004 83398 32594 20000 10241 20226 30151 40156 81140 333 10299 29086 55082 59010;EQDQ01  00002PRCP99
0186833980999992001040412004-15660-038920FM-12+000599999V0200901N002111050019N0040001N1+02881+02371101571ADDAA199000091GF105991021051008001041011KA1240N+02121MA1999999101521MD1999999-0021REMSYN076AAXX  04124 83398 32596 50904 10288 20237 30152 40157 82541 333 20212 59002;EQDQ01  00002PRCP99
0167833980999992001040418004-15660-038920FM-12+000599999V0200501N003110450019N0040001N1+02901+02251101301ADDAA199000091GF106991031051008001041011MA1999999101251MD1999999-0041REMSYN070AAXX  04184 83398 32596 60506 10290 20225 30125 40130 83541 333 59004;EQDQ01  00002PRCP99
0198833980999992001040500004-15660-038920FM-12+000599999V0209999C000012200019N0010001N1+02631+02201101561ADDAA199000091GF103991011011008001041011KA1240M+02981MA1999999101511MD1999999+0001REMSYN088AAXX  05004 83398 32594 30000 10263 20220 30151 40156 81141 333 10298 29081 55090 58000;EQDQ01  00002PRCP99
0201833980999992001040512004-15660-038920FM-12+000599999V0203201N001010450019N0040001N1+02701+02431101661ADDAA124000891AY151061AY221061GF106991031051004501021001KA1240N+02121MA1999999101601MD1999999+0081MW1011REMSYN088AAXX  05124 83398 21496 63202 10270 20243 30160 40166 70152 83520 333 20212 58008 69984;
0167833980999992001040518004-15660-038920FM-12+000599999V0200901N002111050019N0040001N1+02901+02341101431ADDAA199000091GF105991021021008001041041MA1999999101381MD1999999+0131REMSYN070AAXX  05184 83398 32596 50904 10290 20234 30138 40143 82244 333 58013;EQDQ01  00002PRCP99
0198833980999992001040600004-15660-038920FM-12+000599999V0209999C000010450019N0010001N1+02451+02301101741ADDAA199000091GF106991031021008001041011KA1240M+02981MA1999999101681MD1999999+0171REMSYN088AAXX  06004 83398 32594 60000 10245 20230 30168 40174 83241 333 10298 29084 55076 58017;EQDQ01  00002PRCP99
0201833980999992001040612004-15660-038920FM-12+000599999V0202301N001012200019N0040001N1+02591+02261101841ADDAA124007191AY161061AY221061GF104991021021004501041001KA1240N+02241MA1999999101781MD1999999+0181MW1011REMSYN088AAXX  06124 83398 21496 42302 10259 20226 30178 40184 70162 82240 333 20224 58018 60074;
0182833980999992001040618004-15660-038920FM-12+000599999V0200501N002112200019N0040001N1+02901+02341101551ADDAA106005191AY161061AY221061GF104991021021004501041001MA1999999101501MD1999999+0121MW1011REMSYN082AAXX  06184 83398 21496 40504 10290 20234 30150 40155 70162 82240 333 58012 60051;
0198833980999992001040700004-15660-038920FM-12+000599999V0201401N001011050019N0010001N1+02681+02201101781ADDAA199000091GF105991021021008001041011KA1240M+02951MA1999999101721MD1999999+0041REMSYN088AAXX  07004 83398 32594 51402 10268 20220 30172 40178 82241 333 10295 29076 55069 58004;EQDQ01  00002PRCP99
0173833980999992001040712004-15660-038920FM-12+000599999V0200901N002110450019N0040001N1+02881+02301101821ADDAA124005191GF106991021051008001041001KA1240N+02201MA1999999101761MD1999999-0021REMSYN082AAXX  07124 83398 22596 60904 10288 20230 30176 40182 82540 333 20220 59002 60054;
0167833980999992001040718004-15660-038920FM-12+000599999V0200901N003110450019N0040001N1+02961+02311101501ADDAA199000091GF106991031051008001041001MA1999999101451MD1999999-0051REMSYN070AAXX  07184 83398 32596 60906 10296 20231 30145 40150 83540 333 59005;EQDQ01  00002PRCP99
0198833980999992001040800004-15660-038920FM-12+000599999V0201801N001012200019N0010001N1+02561+02311101701ADDAA199000091GF104991021051008001041001KA1240M+03031MA1999999101641MD1999999-0081REMSYN088AAXX  08004 83398 32594 41802 10256 20231 30164 40170 82540 333 10303 29078 55085 59008;EQDQ01  00002PRCP99
0201833980999992001040812004-15660-038920FM-12+000599999V0202301N001010450019N0040001N1+02701+02411101661ADDAA124003091AY161061AY221061GF106991041051008001041001KA1240N+02161MA1999999101601MD1999999-0161MW1021REMSYN088AAXX  08124 83398 21596 62302 10270 20241 30160 40166 70262 84540 333 20216 59016 60034;
0182833980999992001040818004-15660-038920FM-12+000599999V0201401N003110450019N0040001N1+02921+02321101361ADDAA106000191AY151061AY221061GF106991041051008001041001MA1999999101311MD1999999-0141MW1021REMSYN082AAXX  08184 83398 21596 61406 10292 20232 30131 40136 70252 84540 333 59014 69921;
0198833980999992001040900004-15660-038920FM-12+000599999V0201401N001012200019N0010001N1+02651+02291101521ADDAA199000091GF102991011011008001041001KA1240M+03001MA1999999101471MD1999999-0171REMSYN088AAXX  09004 83398 32594 21402 10265 20229 30147 40152 81140 333 10300 29078 55087 59017;EQDQ01  00002PRCP99
0186833980999992001040912004-15660-038920FM-12+000599999V0202701N001012200019N0040001N1+02711+02331101571ADDAA199000091GF103991031011008001001001KA1240N+02131MA1999999101421MD1999999-0111REMSYN076AAXX  09124 83398 32596 32702 10271 20233 30142 40157 83100 333 20213 59011;EQDQ01  00002PRCP99
0167833980999992001040918004-15660-038920FM-12+000599999V0200901N003110450019N0040001N1+02921+02341101151ADDAA199000091GF105991031021008001041001MA1999999101101MD1999999-0211REMSYN070AAXX  09184 83398 32596 50906 10292 20234 30110 40115 83240 333 59021;EQDQ01  00002PRCP99
0198833980999992001041000004-15660-038920FM-12+000599999V0200501N001012200019N0010001N1+02641+02201101361ADDAA199000091GF104991021011008001041001KA1240M+02971MA1999999101311MD1999999-0161REMSYN088AAXX  10004 83398 32594 40502 10264 20220 30131 40136 82140 333 10297 29076 55086 59016;EQDQ01  00002PRCP99
0186833980999992001041012004-15660-038920FM-12+000599999V0203201N002112200019N0040001N1+02811+02281101481ADDAA199000091GF104991031021008001041001KA1240N+02081MA1999999101431MD1999999+0021REMSYN076AAXX  10124 83398 32596 43204 10281 20228 30143 40148 83240 333 20208 58002;EQDQ01  00002PRCP99
0167833980999992001041018004-15660-038920FM-12+000599999V0200901N003111050019N0040001N1+02881+02221101171ADDAA199000091GF105991021021008001041011MA1999999101121MD1999999+0021REMSYN070AAXX  10184 83398 32596 50906 10288 20222 30112 40117 82241 333 58002;EQDQ01  00002PRCP99
0198833980999992001041100004-15660-038920FM-12+000599999V0200501N001012200019N0010001N1+02601+02101101441ADDAA199000091GF102991021011008001001001KA1240M+02981MA1999999101391MD1999999+0081REMSYN088AAXX  11004 83398 32594 20502 10260 20210 30139 40144 82100 333 10298 29072 55090 58008;EQDQ01  00002PRCP99
0167833980999992001041118004-15660-038920FM-12+000599999V0200501N002112200019N0040001N1+02881+02281101271ADDAA199000091GF104991021021008001041041MA1999999101221MD1999999+0101REMSYN070AAXX  11184 83398 32596 40504 10288 20228 30122 40127 82244 333 58010;EQDQ01  00002PRCP99
0198833980999992001041200004-15660-038920FM-12+000599999V0200501N001012200019N0010001N1+02541+02041101521ADDAA199000091GF102991011011008001041001KA1240M+02971MA1999999101471MD1999999+0081REMSYN088AAXX  12004 83398 32594 20502 10254 20204 30147 40152 81140 333 10297 29074 55093 58008;EQDQ01  00002PRCP99
0186833980999992001041212004-15660-038920FM-12+000599999V0202701N001012200019N0040001N1+02701+02261101501ADDAA199000091GF104991031021008001041001KA1240N+01991MA1999999101451MD1999999-0081REMSYN076AAXX  12124 83398 32596 42702 10270 20226 30145 40150 83240 333 20199 59008;EQDQ01  00002PRCP99
0167833980999992001041218004-15660-038920FM-12+000599999V0200501N003111050019N0040001N1+02881+02181101271ADDAA199000091GF105991021021008001041011MA1999999101221MD1999999+0001REMSYN070AAXX  12184 83398 32596 50506 10288 20218 30122 40127 82241 333 58000;EQDQ01  00002PRCP99
0214833980999992001041300004-15660-038920FM-12+000599999V0202301N001012200019N0010001N1+02461+02271101471ADDAA199000091GF104991999011008001001001KA1240M+03001MA1999999101421MD1999999-0071REMSYN088AAXX  13004 83398 32594 42302 10246 20227 30142 40147 83100 333 10300 29081 55090 59007;EQDQ01+000032SCOTLCQ02  00002PRCP99
0186833980999992001041312004-15660-038920FM-12+000599999V0202301N002110450019N0040001N1+02681+02351101431ADDAA199000091GF105991031051008001041001KA1240N+02001MA1999999101381MD1999999-0071REMSYN076AAXX  13124 83398 32596 52304 10268 20235 30138 40143 83540 333 20200 59007;EQDQ01  00002PRCP99
0167833980999992001041318004-15660-038920FM-12+000599999V0201401N003110450019N0040001N1+02921+02331101171ADDAA199000091GF105991031051008001041001MA1999999101121MD1999999-0101REMSYN070AAXX  13184 83398 32596 51406 10292 20233 30112 40117 83540 333 59010;EQDQ01  00002PRCP99
0198833980999992001041400004-15660-038920FM-12+000599999V0209999C000010450019N0010001N1+02431+02301101461ADDAA199000091GF106991041051008001041001KA1240M+03061MA1999999101411MD1999999-0011REMSYN088AAXX  14004 83398 32594 60000 10243 20230 30141 40146 84540 333 10306 29084 55083 59001;EQDQ01  00002PRCP99
0201833980999992001041412004-15660-038920FM-12+000599999V0202701N002010450019N0040001N1+02541+02291101451ADDAA124000591AY161061AY221061GF107991041051008001021001KA1240N+02101MA1999999101401MD1999999+0021MW1021REMSYN088AAXX  14121 83398 21596 72702 10254 20229 30140 40145 70262 84520 333 20210 58002 69964;
0182833980999992001041418004-15660-038920FM-12+000599999V0201401N003110450019N0040001N1+02881+02301101191ADDAA106004191AY161061AY221061GF106991031051008001021001MA1999999101141MD1999999+0021MW1021REMSYN082AAXX  14184 83398 21596 61406 10288 20230 30114 40119 70262 83520 333 58002 60041;
0197833980999992001041500004-15660-038920FM-12+000599999V0202301N001010450019N0010001N1+02301+02131101521ADDAA199000091GF106991041051008001021001KA1240M+02981MA1999999101471MD1999999-0061REMSYN087AAXX  15004 83398 32594 62302 10230 20213 30147 40152 84520 333 10298 29084 5505259006;EQDQ01  00002PRCP99
0173833980999992001041512004-15660-038920FM-12+000599999V0202301N001010450019N0040001N1+02541+02291101621ADDAA124004191GF106991041051008001021001KA1240N+02011MA1999999101571MD1999999+0171REMSYN082AAXX  15124 83398 22596 62302 10254 20229 30157 40162 84520 333 20201 58017 60044;
0182833980999992001041518004-15660-038920FM-12+000599999V0201401N003110450019N0040001N1+02781+02321101471ADDAA106003091AY161061AY221061GF107991041051008001021001MA1999999101421MD1999999+0281MW1021REMSYN082AAXX  15184 83398 21596 71406 10278 20232 30142 40147 70262 84520 333 58028 60031;
0198833980999992001041600004-15660-038920FM-12+000599999V0201801N001010450019N0010001N1+02401+02261101701ADDAA199000091GF105991031051008001021001KA1240M+02951MA1999999101641MD1999999+0171REMSYN088AAXX  16004 83398 32594 51802 10240 20226 30164 40170 83520 333 10295 29087 55029 58017;EQDQ01  00002PRCP99
0201833980999992001041612004-15660-038920FM-12+000599999V0209999C000010450019N0040001N1+02581+02351101921ADDAA124005191AY161061AY221061GF106991031051004501021001KA1240N+02101MA1999999101861MD1999999+0291MW1011REMSYN088AAXX  16124 83398 21496 60000 10258 20235 30186 40192 70162 83520 333 20210 58029 60054;
0182833980999992001041618004-15660-038920FM-12+000599999V0201401N002110075019N0020001N1+02461+02171101571ADDAA106000591AY151061AY221061GF108991051051008001021999MA1999999101521MD1999999+0101MW1501REMSYN082AAXX  16184 83398 21595 81404 10246 20217 30152 40157 75052 8552/ 333 58010 69941;
0179833980999992001041700004-15660-038920FM-12+000599999V0202301N001010075019N0010001N1+02221+02121101361ADDAA199000021GF108991051051008001021999KA1240M+02961MA1999999101311MD1999999-0331REMSYN088AAXX  17004 83398 32594 82302 10222 20212 30131 40136 8552/ 333 10296 29089 55044 59033;
0173833980999992001041712004-15660-038920FM-12+000599999V0201801N002110450019N0040001N1+02561+02231101851ADDAA124000591GF105991031051004501041001KA1240N+02021MA1999999101791MD1999999-0071REMSYN082AAXX  17124 83398 22496 51804 10256 20223 30179 40185 83540 333 20202 59007 69944;
0167833980999992001041718004-15660-038920FM-12+000599999V0201801N002110450019N0040001N1+02721+02281101451ADDAA199000091GF106991041051008001021001MA1999999101401MD1999999-0121REMSYN070AAXX  17184 83398 32596 61804 10272 20228 30140 40145 84520 333 59012;EQDQ01  00002PRCP99
0198833980999992001041800004-15660-038920FM-12+000599999V0209999C000010075019N0010001N1+02421+02321101661ADDAA199000091GF107991051051008001021001KA1240M+02961MA1999999101601MD1999999+0291REMSYN088AAXX  18004 83398 32594 70000 10242 20232 30160 40166 85520 333 10296 29086 55062 58029;EQDQ01  00002PRCP99
0201833980999992001041812004-15660-038920FM-12+000599999V0201801N002110450019N0040001N1+02641+02311101621ADDAA124001091AY151061AY221061GF105991031021004501041001KA1240N+02111MA1999999101561MD1999999-0231MW1011REMSYN088AAXX  18124 83398 21496 51804 10264 20231 30156 40162 70152 83240 333 20211 59023 69994;
0182833980999992001041818004-15660-038920FM-12+000599999V0201401N002110450019N0040001N1+02861+02281101241ADDAA106007191AY161061AY221061GF106991041051008001021001MA1999999101191MD1999999-0211MW1021REMSYN082AAXX  18184 83398 21596 61404 10286 20228 30119 40124 70262 84520 333 59021 60071;
0198833980999992001041900004-15660-038920FM-12+000599999V0209999C000012200019N0010001N1+02351+02241101451ADDAA199000091GF102991011011008001041001KA1240M+02951MA1999999101401MD1999999-0201REMSYN088AAXX  19004 83398 32594 20000 10235 20224 30140 40145 81140 333 10295 29084 55083 59020;EQDQ01  00002PRCP99
0173833980999992001041912004-15660-038920FM-12+000599999V0201801N002110450019N0040001N1+02591+02241101501ADDAA106007191GF105991031021008001041001KA1240N+02091MA1999999101451MD1999999-0111REMSYN082AAXX  19124 83398 22596 51804 10259 20224 30145 40150 83240 333 20209 59011 60071;
0167833980999992001041918004-15660-038920FM-12+000599999V0201401N002112200019N0040001N1+02841+02121101151ADDAA199000091GF103991021021008001041001MA1999999101101MD1999999-0091REMSYN070AAXX  19184 83398 32596 31404 10284 20212 30110 40115 82240 333 59009;EQDQ01  00002PRCP99
0198833980999992001042000004-15660-038920FM-12+000599999V0200501N001012200019N0010001N1+02521+02291101381ADDAA199000091GF103991021021008001041001KA1240M+02961MA1999999101331MD1999999-0071REMSYN088AAXX  20004 83398 32594 30502 10252 20229 30133 40138 82240 333 10296 29080 55090 59007;EQDQ01  00002PRCP99
0201833980999992001042012004-15660-038920FM-12+000599999V0209999C000010042019N0040001N1+02521+02311101751ADDAA124026991AY161061AY221061GF107991051051004501021001KA1240N+02161MA1999999101691MD1999999+0241MW1021REMSYN088AAXX  20124 83398 21496 70000 10252 20231 30169 40175 70262 85520 333 20216 58024 60274;
0182833980999992001042018004-15660-038920FM-12+000599999V0203601N002110450019N0040001N1+02801+02251101251ADDAA106000591AY151061AY221061GF106991041051008001041001MA1999999101201MD1999999+0101MW1021REMSYN082AAXX  20184 83398 21596 63604 10280 20225 30120 40125 70252 84540 333 58010 69941;
0157833980999992001042100004-15660-038920FM-12+000599999V0200501N001012200019N0010001N1+02591+02331101101ADDAA199000091GF104991999999008001999999MA1999999101421MD1810031+9999REMSYN060AAXX  21004 83398 32594 40502 10259 20233 30142 40110 58003;EQDQ01  00002PRCP99
0173833980999992001042112004-15660-038920FM-12+000599999V0202301N001012200019N0040001N1+02681+02311101661ADDAA124000591GF103991021021008001041001KA1240N+02061MA1999999101601MD1999999-0091REMSYN082AAXX  21124 83398 22596 32302 10268 20231 30160 40166 82240 333 20206 59009 69944;
0167833980999992001042118004-15660-038920FM-12+000599999V0200501N003110450019N0040001N1+02901+02391101341ADDAA199000091GF106991031051008001041011MA1999999101291MD1999999+0091REMSYN070AAXX  21184 83398 32596 60506 10290 20239 30129 40134 83541 333 58009;EQDQ01  00002PRCP99
0198833980999992001042200004-15660-038920FM-12+000599999V0200501N002112200019N0010001N1+02681+02351101491ADDAA199000091GF103991021021008001041001KA1240M+02991MA1999999101441MD1999999+0021REMSYN088AAXX  22004 83398 32594 30504 10268 20235 30144 40149 82240 333 10299 29079 55083 58002;EQDQ01  00002PRCP99
0201833980999992001042212004-15660-038920FM-12+000599999V0200501N002110450019N0040001N1+02821+02461101581ADDAA124001091AY151061AY221061GF106991041051004501041001KA1240N+02251MA1999999101531MD1999999-0071MW1011REMSYN088AAXX  22124 83398 21496 60504 10282 20246 30153 40158 70152 84540 333 20225 59007 60014;
0182833980999992001042218004-15660-038920FM-12+000599999V0200501N003112200019N0040001N1+02901+02341101391ADDAA106000591AY151061AY221061GF104991021021008001041001MA1999999101341MD1999999+0051MW1011REMSYN082AAXX  22184 83398 21596 40506 10290 20234 30134 40139 70152 82240 333 58005 69941;
0198833980999992001042300004-15660-038920FM-12+000599999V0200501N002112200019N0010001N1+02651+02291101531ADDAA199000091GF103991021021008001041001KA1240M+03001MA1999999101481MD1999999+0041REMSYN088AAXX  23004 83398 32594 30504 10265 20229 30148 40153 82240 333 10300 29078 55063 58004;EQDQ01  00002PRCP99
0173833980999992001042312004-15660-038920FM-12+000599999V0200501N002110450019N0040001N1+02911+02351101761ADDAA124000591GF105991031021008001041001KA1240N+02261MA1999999101701MD1999999+0171REMSYN082AAXX  23124 83398 22596 50504 10291 20235 30170 40176 83240 333 20226 58017 69944;
0167833980999992001042318004-15660-038920FM-12+000599999V0200501N002112200019N0040001N1+02881+02211101561ADDAA199000091GF103991021011008001041001MA1999999101511MD1999999+0171REMSYN070AAXX  23184 83398 32596 30504 10288 20221 30151 40156 82140 333 58017;EQDQ01  00002PRCP99
0185833980999992001042400004-15660-038920FM-12+000599999V0209999C000012200019N0010001N1+02441+02301101711ADDAA199000091GF102991011011008001041001KA1240M+02991KA2999N+00801MA1999999101651REMSYN076AAXX  24004 83398 32594 20000 10244 20230 30165 40171 81140 333 10299 29080;EQDQ01  00002PRCP99
0201833980999992001042412004-15660-038920FM-12+000599999V0209999C000010450019N0040001N1+02571+02321101811ADDAA124007991AY161061AY221061GF106991041051004501021001KA1240N+02251MA1999999101751MD1999999+0071MW1601REMSYN088AAXX  24124 83398 21496 60000 10257 20232 30175 40181 76062 84520 333 20225 58007 60084;
0148833980999992001042418004-15660-038920FM-12+000599999V0200901N003110075019N0040001N1+02821+02171101651ADDAA199000021GF106991051051008001021001MA1999999101591MD1999999+0081REMSYN070AAXX  24184 83398 32596 60906 10282 20217 30159 40165 85520 333 58008;
0179833980999992001042500004-15660-038920FM-12+000599999V0201401N004112200019N0010001N1+02671+02041101841ADDAA199000021GF102991011011008001041001KA1240M+03021MA1999999101781MD1999999+0131REMSYN088AAXX  25004 83398 32594 21408 10267 20204 30178 40184 81140 333 10302 29072 55063 58013;
0201833980999992001042512004-15660-038920FM-12+000599999V0201801N001010450019N0040001N1+02681+02371101901ADDAA124002091AY151061AY221061GF106991041051004501021001KA1240N+01981MA1999999101841MD1999999+0091MW1021REMSYN088AAXX  25124 83398 21496 61802 10268 20237 30184 40190 70252 84520 333 20198 58009 60024;
0182833980999992001042518004-15660-038920FM-12+000599999V0201401N003110042019N0040001N1+02521+02331101681ADDAA106005191AY161061AY221061GF108991051051004501021999MA1999999101621MD1999999+0031MW1021REMSYN082AAXX  25184 83398 21496 81406 10252 20233 30162 40168 70262 8552/ 333 58003 60051;
0213833980999992001042600004-15660-038920FM-12+000599999V0209999C000010075019N0010001N1+02341+02261101871ADDAA106002091AY161061AY221061GF108991051051008001021999KA1240M+02771MA1999999101811MD1999999+0031MW1021REMSYN100AAXX  26004 83398 21594 80000 10234 20226 30181 40187 70262 8552/ 333 10277 29090 55042 58003 60021;
0201833980999992001042612004-15660-038920FM-12+000599999V0200901N002112200019N0040001N1+02821+01941101891ADDAA124007991AY151061AY221061GF104991021021008001041001KA1240N+02121MA1999999101831MD1999999-0011MW1011REMSYN088AAXX  26124 83398 21596 40904 10282 20194 30183 40189 70152 82240 333 20212 59001 60084;
0167833980999992001042618004-15660-038920FM-12+000599999V0200901N002112200019N0040001N1+02831+01951101551ADDAA199000091GF104991021021008001041041MA1999999101501MD1999999-0121REMSYN070AAXX  26184 83398 32596 40904 10283 20195 30150 40155 82244 333 59012;EQDQ01  00002PRCP99
0201833980999992001042712004-15660-038920FM-12+000599999V0201801N001012200019N0040001N1+02661+02371101831ADDAA124000591AY151061AY221061GF103991021021004501041001KA1240N+02061MA1999999101771MD1999999-0061MW1011REMSYN088AAXX  27124 83398 21496 31802 10266 20237 30177 40183 70152 82240 333 20206 59006 69954;
0201833980999992001042812004-15660-038920FM-12+000599999V0202301N001010450019N0040001N1+02611+02261101931ADDAA124008991AY161061AY221061GF106991041051004501041001KA1240N+02001MA1999999101871MD1999999+0101MW1021REMSYN088AAXX  28124 83398 21496 62302 10261 20226 30187 40193 70262 84540 333 20200 58010 60094;
0182833980999992001042818004-15660-038920FM-12+000599999V0201401N001012200019N0040001N1+02861+02281101731ADDAA106002091AY151061AY221061GF104991031021004501041001MA1999999101661MD1999999+0171MW1011REMSYN082AAXX  28184 83398 21496 41402 10286 20228 30166 40173 70152 83240 333 58017 60021;
0143833980999992001042900004-15660-038920FM-12+000599999V0209999C000010450019N0010001N1+02391+02191101771ADDAA199000091GF107991041051008001041001MA1999999101711REMSYN060AAXX  29004 83398 32594 70000 10239 20219 30171 40177 84540;EQDQ01  00002PRCP99
0201833980999992001042912004-15660-038920FM-12+000599999V0202701N001012200019N0040001N1+02621+02311101851ADDAA124004191AY151061AY221061GF102991011021004501041001KA1240N+02141MA1999999101791MD1999999-0081MW1011REMSYN088AAXX  29124 83398 21496 22702 10262 20231 30179 40185 70152 81240 333 20214 59008 60044;
0167833980999992001042918004-15660-038920FM-12+000599999V0201401N003110450019N0040001N1+02841+02291101571ADDAA199000091GF106991041051008001041001MA1999999101521MD1999999-0141REMSYN070AAXX  29184 83398 32596 61406 10284 20229 30152 40157 84540 333 59014;EQDQ01  00002PRCP99
0198833980999992001043000004-15660-038920FM-12+000599999V0209999C000010450019N0010001N1+02311+02241101761ADDAA199000091GF106991041051008001041001KA1240M+02921MA1999999101701MD1999999-0011REMSYN088AAXX  30004 83398 32594 60000 10231 20224 30170 40176 84540 333 10292 29086 55082 59001;EQDQ01  00002PRCP99
0201833980999992001043012004-15660-038920FM-12+000599999V0202301N002110450019N0040001N1+02411+02231101701ADDAA124004191AY161061AY221061GF106991041051004501021001KA1240N+02081MA1999999101641MD1999999-0151MW1011REMSYN088AAXX  30124 83398 21496 62304 10241 20223 30164 40170 70162 84520 333 20208 59015 60044;
0182833980999992001043018004-15660-038920FM-12+000599999V0201401N003110450019N0040001N1+02721+02391101411ADDAA106004191AY161061AY221061GF107991041051008001021001MA1999999101361MD1999999-0161MW1021REMSYN082AAXX  30184 83398 21596 71406 10272 20239 30136 40141 70262 84520 333 59016 60041;
0198833980999992001050100004-15660-038920FM-12+000599999V0202301N001012200019N0010001N1+02361+02291101561ADDAA199000091GF104991021021008001041001KA1240M+02821MA1999999101511MD1999999-0191REMSYN088AAXX  01004 83398 32594 42302 10236 20229 30151 40156 82240 333 10282 29091 55028 59019;EQDQ01  00002PRCP99
0173833980999992001050112004-15660-038920FM-12+000599999V0209999C000010450019N0040001N1+02761+02401101691ADDAA124004191GF105991031011004501041001KA1240N+02061MA1999999101631MD1999999-0011REMSYN082AAXX  01124 83398 22496 50000 10276 20240 30163 40169 83140 333 20206 59001 60044;
0167833980999992001050118004-15660-038920FM-12+000599999V0201401N003112200019N0040001N1+02881+02301101451ADDAA199000091GF104991031021008001041001MA1999999101401MD1999999-0041REMSYN070AAXX  01184 83398 32596 41406 10288 20230 30140 40145 83240 333 59004;EQDQ01  00002PRCP99
0201833980999992001050212004-15660-038920FM-12+000599999V0200901N002112200019N0040001N1+02881+02231101911ADDAA124003091AY161061AY221061GF104991031011004501041001KA1240N+02251MA1999999101851MD1999999+0221MW1011REMSYN088AAXX  02124 83398 21496 40904 10288 20223 30185 40191 70162 83140 333 20225 58022 60034;
0167833980999992001050218004-15660-038920FM-12+000599999V0201401N003110450019N0040001N1+02861+02311101581ADDAA199000091GF106991041051008001021001MA1999999101531MD1999999+0131REMSYN070AAXX  02184 83398 32596 61406 10286 20231 30153 40158 84520 333 58013;EQDQ01  00002PRCP99
0137833980999992001050300004-15660-038920FM-12+000599999V0200901N002119999999N0010001N1+02701+02221101861ADDAA199000091GF105991999999008001999999MA1999999101801REMSYN054AAXX  03004 83398 32594 50904 10270 20222 30180 40186;EQDQ01  00002PRCP99
0201833980999992001050312004-15660-038920FM-12+000599999V0202701N001010450019N0040001N1+02511+02351101891ADDAA124001091AY151061AY221061GF107991041051004501021001KA1240N+02121MA1999999101831MD1999999-0021MW1021REMSYN088AAXX  03124 83398 21496 72702 10251 20235 30183 40189 70252 84520 333 20212 59002 69994;
0213833980999992001050400004-15660-038920FM-12+000599999V0202301N001010450019N0010001N1+02301+02251101671ADDAA106003091AY161061AY221061GF106991041051008001021001KA1240M+02881MA1999999101611MD1999999-0191MW1021REMSYN100AAXX  04004 83398 21594 62302 10230 20225 30161 40167 70262 84520 333 10288 29094 55040 59019 60031;
0201833980999992001050412004-15660-038920FM-12+000599999V0203201N001010450019N0040001N1+02661+02411101711ADDAA124006191AY161061AY221061GF106991041051008001041001KA1240N+02081MA1999999101651MD1999999-0181MW1021REMSYN088AAXX  04124 83398 21596 63202 10266 20241 30165 40171 70262 84540 333 20208 59018 60064;
0167833980999992001050418004-15660-038920FM-12+000599999V0200901N002110450019N0040001N1+02841+02011101351ADDAA199000091GF105991021051008001041001MA1999999101301MD1999999-0181REMSYN070AAXX  04184 83398 32596 50904 10284 20201 30130 40135 82540 333 59018;EQDQ01  00002PRCP99
0198833980999992001050500004-15660-038920FM-12+000599999V0209999C000012200019N0010001N1+02261+02071101501ADDAA199000091GF102991021021008001001001KA1240M+02891MA1999999101451MD1999999-0161REMSYN088AAXX  05004 83398 32594 20000 10226 20207 30145 40150 82200 333 10289 29080 55076 59016;EQDQ01  00002PRCP99
0186833980999992001050512004-15660-038920FM-12+000599999V0203201N001012200019N0040001N1+02661+02351101391ADDAA199000091GF102991021021008001001001KA1240N+01901MA1999999101341MD1999999-0311REMSYN076AAXX  05124 83398 32596 23202 10266 20235 30134 40139 82200 333 20190 59031;EQDQ01  00002PRCP99
0167833980999992001050518004-15660-038920FM-12+000599999V0200501N002112200019N0200001N1+02781+02251101001ADDAA199000091GF102991021021008001001001MA1999999100951MD1999999-0351REMSYN070AAXX  05184 83398 32598 20504 10278 20225 30095 40100 82200 333 59035;EQDQ01  00002PRCP99
0198833980999992001050600004-15660-038920FM-12+000599999V0203601N002112200019N0010001N1+02571+02271101261ADDAA199000091GF104991031021008001041001KA1240M+02921MA1999999101211MD1999999-0241REMSYN088AAXX  06004 83398 32594 43604 10257 20227 30121 40126 83240 333 10292 29080 55087 59024;EQDQ01  00002PRCP99
0186833980999992001050612004-15660-038920FM-12+000599999V0203201N002110450019N0040001N1+02901+02341101321ADDAA199000091GF105991031011008001041001KA1240N+02031MA1999999101271MD1999999-0071REMSYN076AAXX  06124 83398 32596 53204 10290 20234 30127 40132 83140 333 20203 59007;EQDQ01  00002PRCP99
0167833980999992001050618004-15660-038920FM-12+000599999V0200501N003110450019N0040001N1+02921+02431101001ADDAA199000091GF106991031051008001041001MA1999999100951MD1999999+0001REMSYN070AAXX  06184 83398 32596 60506 10292 20243 30095 40100 83540 333 58000;EQDQ01  00002PRCP99
0201833980999992001050712004-15660-038920FM-12+000599999V0201801N001010450019N0040001N1+02581+02381101501ADDAA124001091AY151061AY221061GF107991041051004501021001KA1240N+02171MA1999999101451MD1999999+0181MW1021REMSYN088AAXX  07124 83398 21496 71802 10258 20238 30145 40150 70252 84520 333 20217 58018 69994;
0182833980999992001050718004-15660-038920FM-12+000599999V0201401N004110450019N0040001N1+02701+02391101111ADDAA106000391AY151061AY221061GF106991041051008001021001MA1999999101061MD1999999+0111MW1021REMSYN082AAXX  07184 83398 21596 61408 10270 20239 30106 40111 70252 84520 333 58011 69931;
0198833980999992001050800004-15660-038920FM-12+000599999V0209999C000012200019N0010001N1+02341+02261101341ADDAA199000091GF104991011011008001041001KA1240M+02841MA1999999101291MD1999999+0071REMSYN088AAXX  08000 83398 32594 40000 10234 20226 30129 40134 81140 333 10284 29090 55019 58007;EQDQ01  00002PRCP99
0173833980999992001050812004-15660-038920FM-12+000599999V0201801N002112200019N0040001N1+02641+02351101391ADDAA124000391GF104991031021004501041001KA1240N+02191MA1999999101341MD1999999-0111REMSYN082AAXX  08124 83398 22496 41804 10264 20235 30134 40139 83240 333 20219 59011 69934;
0167833980999992001050818004-15660-038920FM-12+000599999V0201401N003110450019N0040001N1+02741+02241101121ADDAA199000091GF106991041051008001021001MA1999999101071MD1999999+0011REMSYN070AAXX  08184 83398 32596 61406 10274 20224 30107 40112 84520 333 58001;EQDQ01  00002PRCP99
0110833980999992001050900004-15660-038920FM-12+000599999V0209999C000019999999N0010001N1+02451+02301999999ADDAA199000091GF107991999999008001999999REMSYN042AAXX  09004 83398 32594 70000 10245 20230;EQDQ01  00002PRCP99
0186833980999992001050912004-15660-038920FM-12+000599999V0201401N001010450019N0040001N1+02711+02251101381ADDAA199000091GF106991031051008001041001KA1240N+02161MA1999999101331MD1999999-0011REMSYN076AAXX  09124 83398 32596 61402 10271 20225 30133 40138 83540 333 20216 59001;EQDQ01  00002PRCP99
0167833980999992001050918004-15660-038920FM-12+000599999V0201401N002110450019N0040001N1+02751+02181101051ADDAA199000091GF105991031021008001041011MA1999999101001MD1999999-0071REMSYN070AAXX  09184 83398 32596 51404 10275 20218 30100 40105 83241 333 59007;EQDQ01  00002PRCP99
0198833980999992001051000004-15660-038920FM-12+000599999V0209999C000011050019N0010001N1+02341+02221101251ADDAA199000091GF105991021011008001041011KA1240M+02841MA1999999101201MD1999999-0071REMSYN088AAXX  10004 83398 32594 50000 10234 20222 30120 40125 82141 333 10284 29083 55053 59007;EQDQ01  00002PRCP99
0186833980999992001051012004-15660-038920FM-12+000599999V0202701N001010450019N0040001N1+02561+02351101331ADDAA199000091GF107991041051008001021001KA1240N+02101MA1999999101281MD1999999-0051REMSYN076AAXX  10124 83398 32596 72702 10256 20235 30128 40133 84520 333 20210 59005;EQDQ01  00002PRCP99
0167833980999992001051018004-15660-038920FM-12+000599999V0200501N003110450019N0040001N1+02781+02301101041ADDAA199000091GF107991041051008001021001MA1999999100991MD1999999-0011REMSYN070AAXX  10184 83398 32596 70506 10278 20230 30099 40104 84520 333 59001;EQDQ01  00002PRCP99
0198833980999992001051100004-15660-038920FM-12+000599999V0203601N001010450019N0010001N1+02641+02331101251ADDAA199000091GF106991041051008001021001KA1240M+02911MA1999999101201MD1999999+0001REMSYN088AAXX  11004 83398 32594 63602 10264 20233 30120 40125 84520 333 10291 29082 55045 58000;EQDQ01  00002PRCP99
0186833980999992001051112004-15660-038920FM-12+000599999V0203601N001010450019N0040001N1+02741+02481101381ADDAA199000091GF106991041051008001041001KA1240N+02251MA1999999101331MD1999999+0051REMSYN076AAXX  11124 83398 32596 63602 10274 20248 30133 40138 84540 333 20225 58005;EQDQ01  00002PRCP99
0167833980999992001051118004-15660-038920FM-12+000599999V0200501N003110450019N0040001N1+02881+02501101101ADDAA199000091GF106991031051008001041001MA1999999101051MD1999999+0061REMSYN070AAXX  11184 83398 32596 60506 10288 20250 30105 40110 83540 333 58006;EQDQ01  00002PRCP99
0198833980999992001051200004-15660-038920FM-12+000599999V0200501N001012200019N0010001N1+02631+02481101361ADDAA199000091GF102991011011008001041001KA1240M+03021MA1999999101311MD1999999+0111REMSYN088AAXX  12004 83398 32594 20502 10263 20248 30131 40136 81140 333 10302 29087 55068 58011;EQDQ01  00002PRCP99
0186833980999992001051212004-15660-038920FM-12+000599999V0203601N001012200019N0040001N1+02971+02521101581ADDAA199000091GF104991031011008001041001KA1240N+02201MA1999999101531MD1999999+0201REMSYN076AAXX  12124 83398 32596 43602 10297 20252 30153 40158 83140 333 20220 58020;EQDQ01  00002PRCP99
0167833980999992001051218004-15660-038920FM-12+000599999V0203601N002112200019N0040001N1+02971+02501101241ADDAA199000091GF103991021011008001041041MA1999999101191MD1999999+0141REMSYN070AAXX  12184 83398 32596 33604 10297 20250 30119 40124 82144 333 58014;EQDQ01  00002PRCP99
0198833980999992001051300004-15660-038920FM-12+000599999V0203601N001010450019N0010001N1+02631+02481101521ADDAA199000091GF105991021011008001041001KA1240M+03051MA1999999101471MD1999999+0161REMSYN088AAXX  13004 83398 32594 53602 10263 20248 30147 40152 82140 333 10305 29082 55076 58016;EQDQ01  00002PRCP99
0186833980999992001051312004-15660-038920FM-12+000599999V0203601N002110450019N0040001N1+02881+02411101641ADDAA199000091GF106991041051008001041001KA1240N+02141MA1999999101581MD1999999+0051REMSYN076AAXX  13124 83398 32596 63604 10288 20241 30158 40164 84540 333 20214 58005;EQDQ01  00002PRCP99
0198833980999992001051400004-15660-038920FM-12+000599999V0203601N001010450019N0010001N1+02511+02361101491ADDAA199000091GF105991031051008001041001KA1240M+03001MA1999999101441MD1999999-0031REMSYN088AAXX  14004 83398 32594 53602 10251 20236 30144 40149 83540 333 10300 29083 55082 59003;EQDQ01  00002PRCP99
0186833980999992001051412004-15660-038920FM-12+000599999V0202301N002110450019N0040001N1+02541+02231101671ADDAA199000091GF106991031051008001051001KA1240N+02211MA1999999101611MD1999999+0031REMSYN076AAXX  14124 83398 32596 62304 10254 20223 30161 40167 83550 333 20221 58003;EQDQ01  00002PRCP99
0183833980999992001051418004-15660-038920FM-12+000599999V0201801N002110450019N0040001N1+02801+02361999999ADDAA199000091GF106991041051008001021001MA1999999101291MD1999999+0091REMSYN070AAXX  14184 83398 32596 61804 10280 20236 30129 4034/ 84520 333 58009;EQDQ01+103403APOSLPQ02  00002PRCP99
0198833980999992001051500004-15660-038920FM-12+000599999V0209999C000010450019N0010001N1+02371+02261101691ADDAA199000091GF106991041051008001041001KA1240M+02901MA1999999101631MD1999999+0191REMSYN088AAXX  15004 83398 32594 60000 10237 20226 30163 40169 84540 333 10290 29086 55060 58019;EQDQ01  00002PRCP99
0186833980999992001051512004-15660-038920FM-12+000599999V0201801N002110450019N0040001N1+02621+02251101711ADDAA199000091GF106991041051008001041001KA1240N+02081MA1999999101651MD1999999+0041REMSYN076AAXX  15124 83398 32596 61804 10262 20225 30165 40171 84540 333 20208 58004;EQDQ01  00002PRCP99
0213833980999992001051600004-15670-038930FM-12+000599999V0202301N002110075019N0010001N1+02251+02191101741ADDAA106009991AY161061AY221061GF108991051071008001021999KA1240M+02731MA1999999101681MD1999999+0051MW1611REMSYN100AAXX  16004 83398 21594 82304 10225 20219 30168 40174 76162 8572/ 333 10273 29088 55033 58005 60101;
0201833980999992001051612004-15670-038930FM-12+000599999V0209999C000010042019N0040001N1+02261+02091101881ADDAA124027991AY161061AY221061GF108991051071004501021999KA1240N+02021MA1999999101821MD1999999+0171MW1601REMSYN088AAXX  16124 83398 21496 80000 10226 20209 30182 40188 76062 8572/ 333 20202 58017 60284;
0179833980999992001051700004-15660-038920FM-12+000599999V0209999C000012200019N0010001N1+02281+02051101561ADDAA199000021GF104991021051008001041001KA1240M+02601MA1999999101511MD1999999-0171REMSYN088AAXX  17004 83398 32594 40000 10228 20205 30151 40156 82540 333 10260 29082 55000 59017;
0201833980999992001051712004-15660-038920FM-12+000599999V0203601N001010042019N0040001N1+02461+02361101731ADDAA124020191AY161061AY221061GF108991061071004501021999KA1240N+01961MA1999999101671MD1999999-0151MW1601REMSYN088AAXX  17124 83398 21496 83602 10246 20236 30167 40173 76062 8672/ 333 20196 59015 60204;
0148833980999992001051718004-15660-038920FM-12+000599999V0200901N001010450019N0040001N1+02781+02271101361ADDAA199000021GF106991041051008001041001MA1999999101311MD1999999-0051REMSYN070AAXX  17184 83398 32596 60902 10278 20227 30131 40136 84540 333 59005;
0208833980999992001051800004-15660-038920FM-12+000599999V0200501N002112200019N0010001N1+02541+02331101371ADDAA199000021GF103991999999008001999999KA1240M+02961MA1999999999999MD1999999-0101REMSYN082AAXX  18004 83398 32594 30504 10254 20233 39916 40137 333 10296 29082 55069 59010;EQDQ01+099163APOSP Q02 099163APOSP 
0186833980999992001051812004-15660-038920FM-12+000599999V0203601N003110450019N0040001N1+02881+02411101561ADDAA199000091GF106991031051008001041001KA1240N+02161MA1999999101511MD1999999+0161REMSYN076AAXX  18124 83398 32596 63606 10288 20241 30151 40156 83540 333 20216 58016;EQDQ01  00002PRCP99
0167833980999992001051818004-15660-038920FM-12+000599999V0203601N003110450019N0040001N1+02841+02421101231ADDAA199000091GF106991041051008001041001MA1999999101181MD1999999-0131REMSYN070AAXX  18184 83398 32596 63606 10284 20242 30118 40123 84540 333 59013;EQDQ01  00002PRCP99
0198833980999992001051900004-15660-038920FM-12+000599999V0203201N001012200019N0010001N1+02541+02421101441ADDAA199000091GF104991031021008001041001KA1240M+03061MA1999999101391MD1999999-0041REMSYN088AAXX  19004 83398 32594 43202 10254 20242 30139 40144 83240 333 10306 29085 55083 59004;EQDQ01  00002PRCP99
0186833980999992001051912004-15660-038920FM-12+000599999V0209999C000012200019N0040001N1+02771+02411101611ADDAA199000091GF104991021021008001041001KA1240N+02251MA1999999101551MD1999999+0041REMSYN076AAXX  19124 83398 32596 40000 10277 20241 30155 40161 82240 333 20225 58004;EQDQ01  00002PRCP99
0167833980999992001051918004-15660-038920FM-12+000599999V0201801N003112200019N0040001N1+02781+02231101381ADDAA199000091GF104991021011008001041001MA1999999101331MD1999999+0151REMSYN070AAXX  19184 83398 32596 41806 10278 20223 30133 40138 82140 333 58015;EQDQ01  00002PRCP99
0198833980999992001052000004-15660-038920FM-12+000599999V0209999C000012200019N0010001N1+02161+01991101671ADDAA199000091GF102991011011008001041001KA1240M+03001MA1999999101611MD1999999+0221REMSYN088AAXX  20004 83398 32594 20000 10216 20199 30161 40167 81140 333 10300 29083 55081 58022;EQDQ01  00002PRCP99
0186833980999992001052012004-15660-038920FM-12+000599999V0202301N002110450019N0040001N1+02381+02031101781ADDAA199000091GF105991031051008001041001KA1240N+01901MA1999999101721MD1999999+0171REMSYN076AAXX  20124 83398 32596 52304 10238 20203 30172 40178 83540 333 20190 58017;EQDQ01  00002PRCP99
0167833980999992001052018004-15660-038920FM-12+000599999V0201801N002110450019N0040001N1+02661+02041101491ADDAA199000091GF106991041051008001021001MA1999999101441MD1999999+0111REMSYN070AAXX  20184 83398 32596 61804 10266 20204 30144 40149 84520 333 58011;EQDQ01  00002PRCP99
0198833980999992001052100004-15660-038920FM-12+000599999V0202301N002110075019N0010001N1+02181+02011101721ADDAA199000091GF106991051051008001021001KA1240M+02791MA1999999101661MD1999999+0051REMSYN088AAXX  21004 83398 32594 62304 10218 20201 30166 40172 85520 333 10279 29083 55073 58005;EQDQ01  00002PRCP99
0186833980999992001052112004-15660-038920FM-12+000599999V0202301N002110075019N0040001N1+02281+02111101881ADDAA199000091GF106991051051008001021001KA1240N+01981MA1999999101821MD1999999+0101REMSYN076AAXX  21124 83398 32596 62304 10228 20211 30182 40188 85520 333 20198 58010;EQDQ01  00002PRCP99
0167833980999992001052118004-15660-038920FM-12+000599999V0201801N003110075019N0040001N1+02601+01991101521ADDAA199000091GF107991051051008001021001MA1999999101471MD1999999+0031REMSYN070AAXX  21184 83398 32596 71806 10260 20199 30147 40152 85520 333 58003;EQDQ01  00002PRCP99
0198833980999992001052200004-15660-038920FM-12+000599999V0202301N002112200019N0010001N1+02121+02051101721ADDAA199000091GF104991031051008001041001KA1240M+02701MA1999999101661MD1999999+0001REMSYN088AAXX  22004 83398 32594 42304 10212 20205 30166 40172 83540 333 10270 29087 55025 58000;EQDQ01  00002PRCP99
0186833980999992001052212004-15660-038920FM-12+000599999V0202701N002112200019N0040001N1+02461+01921101881ADDAA199000091GF103991011021008001041041KA1240N+01801MA1999999101821MD1999999+0001REMSYN076AAXX  22124 83398 32596 32704 10246 20192 30182 40188 81244 333 20180 58000;EQDQ01  00002PRCP99
0137833980999992001052218004-15660-038920FM-12+000599999V0200901N003110450019N0040001N1+02621+02051101441ADDGF106991041051008001041001MA1999999101391MD1999999-0061REMSYN070AAXX  22184 83398 //596 60906 10262 20205 30139 40144 84540 333 59006;
0186833980999992001052312004-15660-038920FM-12+000599999V0202301N001012200019N0040001N1+02401+02071101771ADDAA199000091GF102991011021008001041001KA1240N+01791MA1999999101711MD1999999-0111REMSYN076AAXX  23124 83398 32596 22302 10240 20207 30171 40177 81240 333 20179 59011;EQDQ01  00002PRCP99
0167833980999992001052318004-15660-038920FM-12+000599999V0200901N003110450019N0040001N1+02681+02061101401ADDAA199000091GF105991031021008001041001MA1999999101351MD1999999-0041REMSYN070AAXX  23184 83398 32596 50906 10268 20206 30135 40140 83240 333 59004;EQDQ01  00002PRCP99
0198833980999992001052400004-15660-038920FM-12+000599999V0209999C000012200019N0010001N1+02181+02061101721ADDAA199000091GF102991011011008001041001KA1240M+02811MA1999999101661MD1999999+0051REMSYN088AAXX  24004 83398 32594 20000 10218 20206 30166 40172 81140 333 10281 29084 55083 58005;EQDQ01  00002PRCP99
0186833980999992001052412004-15660-038920FM-12+000599999V0202301N001011050019N0040001N1+02491+02201101841ADDAA199000091GF105991021021008001041041KA1240N+01891MA1999999101781MD1999999+0071REMSYN076AAXX  24124 83398 32596 52302 10249 20220 30178 40184 82244 333 20189 58007;EQDQ01  00002PRCP99
0182833980999992001052418004-15660-038920FM-12+000599999V0200901N003110450019N0040001N1+02701+02221101541ADDAA106001091AY161061AY221061GF106991041051008001041001MA1999999101491MD1999999+0141MW1021REMSYN082AAXX  24184 83398 21596 60906 10270 20222 30149 40154 70262 84540 333 58014 60011;
0143833980999992001052500004-15660-038920FM-12+000599999V0209999C000012200019N0010001N1+02231+02161101791ADDAA199000091GF104991021021008001041001MA1999999101731REMSYN060AAXX  25004 83398 32594 40000 10223 20216 30173 40179 82240;EQDQ01  00002PRCP99
0201833980999992001052512004-15660-038920FM-12+000599999V0202301N002110450019N0020001N1+02381+02241101861ADDAA124003091AY161061AY221061GF108991041071008001021999KA1240N+01981MA1999999101801MD1999999+0021MW1501REMSYN088AAXX  25124 83398 21595 82304 10238 20224 30180 40186 75062 8472/ 333 20198 58002 60034;
0182833980999992001052518004-15660-038920FM-12+000599999V0201801N003110075019N0020001N1+02401+02231101571ADDAA106011991AY161061AY221061GF108991051051008001021999MA1999999101521MD1999999+0031MW1021REMSYN082AAXX  25184 83398 21595 81806 10240 20223 30152 40157 70262 8552/ 333 58003 60121;
0213833980999992001052600004-15660-038920FM-12+000599999V0200901N003110075019N0010001N1+02371+02211101751ADDAA106016091AY161061AY221061GF108991051051008001021999KA1240M+02501MA1999999101691MD1999999-0041MW1021REMSYN100AAXX  26004 83398 21594 80906 10237 20221 30169 40175 70262 8552/ 333 10250 29090 55000 59004 60161;
0201833980999992001052612004-15660-038920FM-12+000599999V0202301N002110042019N0040001N1+02451+02281101791ADDAA124063091AY161061AY221061GF107991051051004501021001KA1240N+02081MA1999999101731MD1999999-0071MW1021REMSYN088AAXX  26124 83398 21496 72304 10245 20228 30173 40179 70262 85520 333 20208 59007 60634;
0182833980999992001052618004-15660-038920FM-12+000599999V0200901N003110075019N0040001N1+02541+02251101431ADDAA106010991AY161061AY221061GF107991051051008001021001MA1999999101381MD1999999-0141MW1021REMSYN082AAXX  26184 83398 21596 70906 10254 20225 30138 40143 70262 85520 333 59014 60111;
0213833980999992001052700004-15660-038920FM-12+000599999V0200501N002110075019N0010001N1+02521+02331101621ADDAA106000591AY151061AY221061GF107991051051008001021001KA1240M+02661MA1999999101561MD1999999-0131MW1021REMSYN100AAXX  27004 83398 21594 70504 10252 20233 30156 40162 70252 85520 333 10266 29088 55010 59013 69961;
0201833980999992001052712004-15660-038920FM-12+000599999V0203201N002110075019N0040001N1+02401+02261101691ADDAA124062091AY161061AY221061GF108991051051008001021999KA1240N+02231MA1999999101631MD1999999-0101MW1021REMSYN088AAXX  27124 83398 21596 83204 10240 20226 30163 40169 70262 8552/ 333 20223 59010 60624;
0182833980999992001052718004-15660-038920FM-12+000599999V0200901N002110075019N0040001N1+02461+02251101391ADDAA106003091AY161061AY221061GF107991051051008001021001MA1999999101341MD1999999-0041MW1021REMSYN082AAXX  27184 83398 21596 70904 10246 20225 30134 40139 70262 85520 333 59004 60031;
0213833980999992001052800004-15660-038920FM-12+000599999V0200901N002110075019N0010001N1+02481+02271101621ADDAA106000191AY151061AY221061GF107991051051008001021001KA1240M+02641MA1999999101561MD1999999+0001MW1021REMSYN100AAXX  28004 83398 21594 70904 10248 20227 30156 40162 70252 85520 333 10264 29089 55000 58000 69911;
0201833980999992001052812004-15660-038920FM-12+000599999V0202301N001010450019N0040001N1+02511+02321101691ADDAA124016091AY161061AY221061GF106991041051004501021001KA1240N+02141MA1999999101631MD1999999+0001MW1011REMSYN088AAXX  28124 83398 21496 62302 10251 20232 30163 40169 70162 84520 333 20214 58000 60164;
0182833980999992001052818004-15660-038920FM-12+000599999V0200901N002110450019N0040001N1+02511+02301101531ADDAA106004191AY161061AY221061GF105991031051008001041001MA1999999101481MD1999999+0141MW1011REMSYN082AAXX  28184 83398 21596 50904 10251 20230 30148 40153 70162 83540 333 58014 60041;
0198833980999992001052900004-15660-038920FM-12+000599999V0209999C000010450019N0010001N1+02381+02331101721ADDAA199000091GF105991041051008001041001KA1240M+02681MA1999999101661MD1999999+0101REMSYN088AAXX  29004 83398 32594 50000 10238 20233 30166 40172 84540 333 10268 29092 55023 58010;EQDQ01  00002PRCP99
0201833980999992001052912004-15660-038920FM-12+000599999V0209999C000010042019N0040001N1+02481+02341101741ADDAA124022191AY161061AY221061GF108991051071004501021999KA1240N+02141MA1999999101681MD1999999+0051MW1601REMSYN088AAXX  29124 83398 21496 80000 10248 20234 30168 40174 76062 8572/ 333 20214 58005 60224;
0182833980999992001052918004-15660-038920FM-12+000599999V0209999C000010042019N0040001N1+02451+02331101691ADDAA106013091AY191061AY261061GF108991061071004501021999MA1999999101631MD1999999+0151MW1621REMSYN082AAXX  29184 83398 21496 80000 10245 20233 30163 40169 76296 8672/ 333 58015 60131;
0213833980999992001053000004-15660-038920FM-12+000599999V0209999C000010450019N0010001N1+02311+02271101801ADDAA106004191AY161061AY221061GF107991041051008001021001KA1240M+02551MA1999999101741MD1999999+0081MW1021REMSYN100AAXX  30004 83398 21594 70000 10231 20227 30174 40180 70262 84520 333 10255 29094 55001 58008 60041;
0167833980999992001053018004-15660-038920FM-12+000599999V0200901N001012200019N0040001N1+02811+02231101511ADDAA199000091GF104991021021008001041041MA1999999101461MD1999999-0171REMSYN070AAXX  30184 83398 32596 40902 10281 20223 30146 40151 82244 333 59017;EQDQ01  00002PRCP99
0213833980999992001053100004-15660-038920FM-12+000599999V0201401N005110075019N0010001N1+02421+02281101871ADDAA106001091AY161061AY221061GF108991051071008001021999KA1240M+02881MA1999999101811MD1999999+0071MW1611REMSYN100AAXX  31004 83398 21594 81410 10242 20228 30181 40187 76162 8572/ 333 10288 29087 55065 58007 60011;
0201833980999992001053112004-15660-038920FM-12+000599999V0202301N001012200019N0040001N1+02501+02311101961ADDAA124015091AY161061AY221061GF104991031021004501041001KA1240N+02051MA1999999101901MD1999999+0141MW1011REMSYN088AAXX  31124 83398 21496 42302 10250 20231 30190 40196 70162 83240 333 20205 58014 60154;
0167833980999992001053118004-15660-038920FM-12+000599999V0201401N003110450019N0040001N1+02721+02151101551ADDAA199000091GF105991031021008001041001MA1999999101501MD1999999+0041REMSYN070AAXX  31184 83398 32596 51406 10272 20215 30150 40155 83240 333 58004;EQDQ01  00002PRCP99
0162833980999992001060100004-15660-038920FM-12+000599999V0202301N001019999999N0010001N1+02291+02201101781ADDGF106991999999008001999999KA1240M+02821MA1999999101701MD1999999+0111REMSYN082AAXX  01004 83398 22594 62302 10229 20220 30170 40178 333 10282 29087 55082 58011;
0201833980999992001060112004-15660-038920FM-12+000599999V0209999C000010042019N0040001N1+02431+02271101951ADDAA124000191AY151061AY221061GF107991051051004501021001KA1240N+02081MA1999999101891MD1999999-0011MW1501REMSYN088AAXX  01124 83398 21496 70000 10243 20227 30189 40195 75052 85520 333 20208 59001 69924;
0148833980999992001060118004-15660-038920FM-12+000599999V0200901N002110450019N0040001N1+02661+02241101611ADDAA199000021GF106991041051008001021001MA1999999101551MD1999999+0051REMSYN070AAXX  01184 83398 32596 60904 10266 20224 30155 40161 84520 333 58005;
0213833980999992001060200004-15660-038920FM-12+000599999V0209999C000010075019N0010001N1+02291+02231101801ADDAA106004191AY161061AY221061GF107991051051008001021001KA1240M+02781MA1999999101741MD1999999+0041MW1021REMSYN100AAXX  02004 83398 21594 70000 10229 20223 30174 40180 70262 85520 333 10278 29090 55063 58004 60041;
0201833980999992001060212004-15660-038920FM-12+000599999V0209999C000010042019N0040001N1+02331+02231101911ADDAA124007191AY191061AY261061GF107991051051004501021001KA1240N+02061MA1999999101851MD1999999-0041MW1601REMSYN088AAXX  02124 83398 21496 70000 10233 20223 30185 40191 76096 85520 333 20206 59004 60074;
0148833980999992001060218004-15660-038920FM-12+000599999V0201401N003110450019N0040001N1+02761+02231101651ADDAA199000021GF106991041051008001041001MA1999999101591MD1999999+0041REMSYN070AAXX  02184 83398 32596 61406 10276 20223 30159 40165 84540 333 58004;
0213833980999992001060300004-15660-038920FM-12+000599999V0201401N002110075019N0010001N1+02321+02211101881ADDAA106007191AY161061AY221061GF108991051071008001021999KA1240M+02801MA1999999101821MD1999999+0081MW1611REMSYN100AAXX  03004 83398 21594 81404 10232 20221 30182 40188 76162 8572/ 333 10280 29089 55059 58008 60071;
0201833980999992001060312004-15660-038920FM-12+000599999V0200901N002110075019N0040001N1+02481+02271101971ADDAA124041991AY191061AY261061GF108991051051008001021999KA1240N+02081MA1999999101921MD1999999+0071MW1021REMSYN088AAXX  03124 83398 21596 80904 10248 20227 30192 40197 70296 8552/ 333 20208 58007 60424;
0167833980999992001060318004-15660-038920FM-12+000599999V0200901N003110450019N0040001N1+02761+02261101681ADDAA199000091GF106991041051008001021001MA1999999101621MD1999999+0031REMSYN070AAXX  03184 83398 32596 60906 10276 20226 30162 40168 84520 333 58003;EQDQ01  00002PRCP99
0198833980999992001060400004-15660-038920FM-12+000599999V0209999C000010450019N0010001N1+02311+02181101911ADDAA199000091GF105991031021008001041001KA1240M+02831MA1999999101851MD1999999+0031REMSYN088AAXX  04004 83398 32594 50000 10231 20218 30185 40191 83240 333 10283 29086 55063 58003;EQDQ01  00002PRCP99
0201833980999992001060412004-15660-038920FM-12+000599999V0200901N002110450019N0040001N1+02591+02181102021ADDAA124000591AY151061AY221061GF105991031051004501041001KA1240N+02081MA1999999101961MD1999999+0041MW1011REMSYN088AAXX  04124 83398 21496 50904 10259 20218 30196 40202 70152 83540 333 20208 58004 69954;
0167833980999992001060418004-15660-038920FM-12+000599999V0201401N001012200019N0040001N1+02671+02191101821ADDAA199000091GF104991031021008001041001MA1999999101761MD1999999+0141REMSYN070AAXX  04184 83398 32596 41402 10267 20219 30176 40182 83240 333 58014;EQDQ01  00002PRCP99
0198833980999992001060500004-15660-038920FM-12+000599999V0209999C000010450019N0010001N1+02201+02101102001ADDAA199000091GF105991031021008001041001KA1240M+02851MA1999999101941MD1999999+0091REMSYN088AAXX  05004 83398 32594 50000 10220 20210 30194 40200 83240 333 10285 29085 55065 58009;EQDQ01  00002PRCP99
0201833980999992001060512004-15660-038920FM-12+000599999V0200901N002112200019N0040001N1+02701+02301101981ADDAA124007991AY161061AY221061GF103991021021004501041001KA1240N+02071MA1999999101921MD1999999-0041MW1011REMSYN088AAXX  05124 83398 21496 30904 10270 20230 30192 40198 70162 82240 333 20207 59004 60084;
0167833980999992001060518004-15660-038920FM-12+000599999V0200901N002112200019N0040001N1+02701+01991101781ADDAA199000091GF103991021021008001041001MA1999999101721MD1999999-0041REMSYN070AAXX  05184 83398 32596 30904 10270 20199 30172 40178 82240 333 59004;EQDQ01  00002PRCP99
0198833980999992001060600004-15660-038920FM-12+000599999V0209999C000010450019N0010001N1+02221+02071101921ADDAA199000091GF107991041021008001041001KA1240M+02821MA1999999101861MD1999999-0081REMSYN088AAXX  06004 83398 32594 70000 10222 20207 30186 40192 84240 333 10282 29081 55073 59008;EQDQ01  00002PRCP99
0201833980999992001060612004-15660-038920FM-12+000599999V0202701N001012200019N0040001N1+02381+02091102071ADDAA124000191AY151061AY221061GF104991031021004501041001KA1240N+01881MA1999999102011MD1999999+0111MW1011REMSYN088AAXX  06124 83398 21496 42702 10238 20209 30201 40207 70152 83240 333 20188 58011 69914;
0167833980999992001060618004-15660-038920FM-12+000599999V0201401N002110450019N0040001N1+02661+01921101701ADDAA199000091GF105991031051008001041001MA1999999101641MD1999999-0081REMSYN070AAXX  06184 83398 32596 51404 10266 20192 30164 40170 83540 333 59008;EQDQ01  00002PRCP99
0198833980999992001060700004-15660-038920FM-12+000599999V0209999C000012200019N0010001N1+02081+01981101901ADDAA199000091GF104991021011008001041001KA1240M+02681MA1999999101841MD1999999-0021REMSYN088AAXX  07004 83398 32594 40000 10208 20198 30184 40190 82140 333 10268 29084 55034 59002;EQDQ01  00002PRCP99
0186833980999992001060712004-15660-038920FM-12+000599999V0202301N001012200019N0040001N1+02351+02121102071ADDAA199000091GF103991021021008001041001KA1240N+01801MA1999999102011MD1999999+0001REMSYN076AAXX  07124 83398 32596 32302 10235 20212 30201 40207 82240 333 20180 58000;EQDQ01  00002PRCP99
0167833980999992001060718004-15660-038920FM-12+000599999V0201401N003110450019N0040001N1+02681+02111101721ADDAA199000091GF105991031021008001041001MA1999999101661MD1999999+0021REMSYN070AAXX  07184 83398 32596 51406 10268 20211 30166 40172 83240 333 58002;EQDQ01  00002PRCP99
0198833980999992001060800004-15660-038920FM-12+000599999V0209999C000012200019N0010001N1+02461+02051101941ADDAA199000091GF104991021011008001041001KA1240M+02781MA1999999101881MD1999999+0041REMSYN088AAXX  08004 83398 32594 40000 10246 20205 30188 40194 82140 333 10278 29078 55080 58004;EQDQ01  00002PRCP99
0201833980999992001060812004-15660-038920FM-12+000599999V0209999C000012200019N0040001N1+02431+02161102241ADDAA124001091AY151061AY221061GF102991021021004501001001KA1240N+01931MA1999999102181MD1999999+0171MW1011REMSYN088AAXX  08124 83398 21496 20000 10243 20216 30218 40224 70152 82200 333 20193 58017 60014;
0167833980999992001060818004-15660-038920FM-12+000599999V0200901N002110450019N0040001N1+02711+02041101901ADDAA199000091GF105991041021008001041001MA1999999101841MD1999999+0181REMSYN070AAXX  08184 83398 32596 50904 10271 20204 30184 40190 84240 333 58018;EQDQ01  00002PRCP99
0186833980999992001060912004-15660-038920FM-12+000599999V0200901N001012200019N0040001N1+02721+01821102191ADDAA199000091GF102991011021008001041001KA1240N+02061MA1999999102131MD1999999-0051REMSYN076AAXX  09124 83398 32596 20902 10272 20182 30213 40219 81240 333 20206 59005;EQDQ01  00002PRCP99
0167833980999992001060918004-15660-038920FM-12+000599999V0201401N002110450019N0040001N1+02751+01891101911ADDAA199000091GF105991031051008001041001MA1999999101851MD1999999+0011REMSYN070AAXX  09184 83398 32596 51404 10275 20189 30185 40191 83540 333 58001;EQDQ01  00002PRCP99
0198833980999992001061000004-15660-038920FM-12+000599999V0200501N002110075019N0010001N1+02191+01991102041ADDAA199000091GF107991051051008001041001KA1240M+02831MA1999999101981MD1999999+0301REMSYN088AAXX  10004 83398 32594 70504 10219 20199 30198 40204 85540 333 10283 29073 55084 58030;EQDQ01  00002PRCP99
0201833980999992001061012004-15660-038920FM-12+000599999V0202301N001010450019N0040001N1+02351+02191102111ADDAA124007191AY161061AY221061GF105991031051004501041001KA1240N+01981MA1999999102051MD1999999-0081MW1601REMSYN088AAXX  10124 83398 21496 52302 10235 20219 30205 40211 76062 83540 333 20198 59008 60074;
0148833980999992001061018004-15660-038920FM-12+000599999V0200901N003110450019N0040001N1+02561+02061101961ADDAA199000021GF106991041051008001021001MA1999999101861MD1999999+0011REMSYN070AAXX  10184 83398 32596 60906 10256 20206 30186 40196 84520 333 58001;
0179833980999992001061100004-15660-038920FM-12+000599999V0201801N001012200019N0010001N1+02161+01991102041ADDAA199000021GF104991041051008001001001KA1240M+02791MA1999999101981MD1999999-0021REMSYN088AAXX  11004 83398 32594 41802 10216 20199 30198 40204 84500 333 10279 29086 55071 59002;
0186833980999992001061112004-15660-038920FM-12+000599999V0201801N001010075019N0040001N1+02151+02001102081ADDAA199000091GF108991051051008001021999KA1240N+01941MA1999999102021MD1999999-0031REMSYN076AAXX  11124 83398 32596 81802 10215 20200 30202 40208 8552/ 333 20194 59003;EQDQ01  00002PRCP99
0182833980999992001061118004-15660-038920FM-12+000599999V0201801N001010450019N0040001N1+02471+02041101821ADDAA106002091AY151061AY221061GF105991031051004501041001MA1999999101761MD1999999-0101MW1011REMSYN082AAXX  11184 83398 21496 51802 10247 20204 30176 40182 70152 83540 333 59010 60021;
0198833980999992001061200004-15660-038920FM-12+000599999V0202301N001012200019N0010001N1+02141+01971102041ADDAA199000091GF102991011011008001041001KA1240M+02601MA1999999101981MD1999999+0001REMSYN088AAXX  12004 83398 32594 22302 10214 20197 30198 40204 81140 333 10260 29087 55017 58000;EQDQ01  00002PRCP99
0201833980999992001061212004-15660-038920FM-12+000599999V0209999C000010042019N0040001N1+02271+02131102201ADDAA124005191AY161061AY221061GF107991051051004501021001KA1240N+01741MA1999999102141MD1999999+0121MW1601REMSYN088AAXX  12124 83398 21496 70000 10227 20213 30214 40220 76062 85520 333 20174 58012 60054;
0182833980999992001061218004-15660-038920FM-12+000599999V0200901N001012200019N0040001N1+02621+02051101791ADDAA124002091AY151061AY221061GF104991021021004501041001MA1999999101701MD1999999-0031MW1011REMSYN082AAXX  12184 83398 21496 40902 10262 20205 30170 40179 70152 82240 333 59003 60024;
0179833980999992001061300004-15660-038920FM-12+000599999V0202301N002110450019N0010001N1+02141+02041102001ADDAA199000021GF106991041021008001041001KA1240M+02721MA1999999101941MD1999999-0041REMSYN088AAXX  13004 83398 32594 62304 10214 20204 30194 40200 84240 333 10272 29087 55057 59004;
0201833980999992001061312004-15660-038920FM-12+000599999V0202301N002112200019N0040001N1+02341+02111102051ADDAA124005191AY161061AY221061GF104991021021004501041001KA1240N+01871MA1999999101991MD1999999-0151MW1011REMSYN088AAXX  13124 83398 21496 42304 10234 20211 30199 40205 70162 82240 333 20187 59015 60054;
0167833980999992001061318004-15660-038920FM-12+000599999V0201401N002111050019N0040001N1+02661+02001101671ADDAA199000091GF105991021051008001041011MA1999999101611MD1999999-0121REMSYN070AAXX  13184 83398 32596 51404 10266 20200 30161 40167 82541 333 59012;EQDQ01  00002PRCP99
0198833980999992001061400004-15660-038920FM-12+000599999V0209999C000010450019N0010001N1+02181+02081101851ADDAA199000091GF105991031021008001041001KA1240M+02781MA1999999101791MD1999999-0151REMSYN088AAXX  14004 83398 32594 50000 10218 20208 30179 40185 83240 333 10278 29085 55079 59015;EQDQ01  00002PRCP99
0201833980999992001061412004-15660-038920FM-12+000599999V0202701N001010042019N0040001N1+02211+02071101981ADDAA124002091AY151061AY221061GF107991051051004501021001KA1240N+01941MA1999999101921MD1999999-0071MW1011REMSYN088AAXX  14124 83398 21496 72702 10221 20207 30192 40198 70152 85520 333 20194 59007 60024;
0167833980999992001061418004-15660-038920FM-12+000599999V0200901N002110450019N0040001N1+02601+02101101581ADDAA199000091GF106991031051008001041011MA1999999101531MD1999999-0081REMSYN070AAXX  14184 83398 32596 60904 10260 20210 30153 40158 83541 333 59008;EQDQ01  00002PRCP99
0198833980999992001061500004-15660-038920FM-12+000599999V0209999C000010075019N0010001N1+02181+02101101781ADDAA199000091GF107991051051008001041001KA1240M+02711MA1999999101721MD1999999-0071REMSYN088AAXX  15004 83398 32594 70000 10218 20210 30172 40178 85540 333 10271 29089 55065 59007;EQDQ01  00002PRCP99
0201833980999992001061512004-15660-038920FM-12+000599999V0202301N001010450019N0040001N1+02381+02171101871ADDAA124005191AY161061AY221061GF106991031051004501041011KA1240N+02021MA1999999101811MD1999999-0111MW1011REMSYN088AAXX  15124 83398 21496 62302 10238 20217 30181 40187 70162 83541 333 20202 59011 60054;
0167833980999992001061518004-15660-038920FM-12+000599999V0200901N002110450019N0040001N1+02681+02111101581ADDAA199000091GF105991021051008001041001MA1999999101531MD1999999+0001REMSYN070AAXX  15184 83398 32596 50904 10268 20211 30153 40158 82540 333 58000;EQDQ01  00002PRCP99
0198833980999992001061600004-15660-038920FM-12+000599999V0200901N002112200019N0010001N1+02421+01931101811ADDAA199000091GF102991011011008001041001KA1240M+02731MA1999999101751MD1999999+0031REMSYN088AAXX  16004 83398 32594 20904 10242 20193 30175 40181 81140 333 10273 29076 55069 58003;EQDQ01  00002PRCP99
0186833980999992001061612004-15660-038920FM-12+000599999V0209999C000010450019N0040001N1+02341+02111101981ADDAA199000091GF105991031051008001041001KA1240N+01841MA1999999101921MD1999999+0111REMSYN076AAXX  16124 83398 32596 50000 10234 20211 30192 40198 83540 333 20184 58011;EQDQ01  00002PRCP99
0167833980999992001061618004-15660-038920FM-12+000599999V0200901N003110450019N0040001N1+02641+02091101581ADDAA199000091GF106991041051008001041001MA1999999101531MD1999999+0001REMSYN070AAXX  16184 83398 32596 60906 10264 20209 30153 40158 84540 333 58000;EQDQ01  00002PRCP99
0198833980999992001061700004-15660-038920FM-12+000599999V0200901N002112200019N0010001N1+02401+02171101801ADDAA199000091GF103991031011008001001001KA1240M+02781MA1999999101741MD1999999-0011REMSYN088AAXX  17004 83398 32594 30904 10240 20217 30174 40180 83100 333 10278 29083 55070 59001;EQDQ01  00002PRCP99
0186833980999992001061712004-15660-038920FM-12+000599999V0202301N001010450019N0040001N1+02341+02071101891ADDAA199000091GF105991031051008001041001KA1240N+01801MA1999999101831MD1999999-0091REMSYN076AAXX  17124 83398 32596 52302 10234 20207 30183 40189 83540 333 20180 59009;EQDQ01  00002PRCP99
0198833980999992001061800004-15660-038920FM-12+000599999V0200901N001012200019N0010001N1+02101+01951101801ADDAA199000091GF104991041011008001001001KA1240M+02761MA1999999101741MD1999999+0001REMSYN088AAXX  18004 83398 32594 40902 10210 20195 30174 40180 84100 333 10276 29084 55081 58000;EQDQ01  00002PRCP99
0186833980999992001061812004-15660-038920FM-12+000599999V0209999C000012200019N0040001N1+02401+02111102041ADDAA199000091GF103991021021008001041001KA1240N+01811MA1999999101981MD1999999+0151REMSYN076AAXX  18124 83398 32596 30000 10240 20211 30198 40204 82240 333 20181 58015;EQDQ01  00002PRCP99
0167833980999992001061818004-15660-038920FM-12+000599999V0200901N002112200019N0040001N1+02651+02041101571ADDAA199000091GF103991021021008001041001MA1999999101521MD1999999-0041REMSYN070AAXX  18184 83398 32596 30904 10265 20204 30152 40157 82240 333 59004;EQDQ01  00002PRCP99
0198833980999992001061900004-15660-038920FM-12+000599999V0209999C000012200019N0010001N1+02101+01931101891ADDAA199000091GF102991021011008001001001KA1240M+02751MA1999999101831MD1999999+0091REMSYN088AAXX  19004 83398 32594 20000 10210 20193 30183 40189 82100 333 10275 29083 55081 58009;EQDQ01  00002PRCP99
0201833980999992001061912004-15660-038920FM-12+000599999V0209999C000010450019N0040001N1+02281+02091102061ADDAA124000191AY151061AY221061GF107991041051004501021001KA1240N+01651MA1999999102001MD1999999+0121MW1021REMSYN088AAXX  19124 83398 21496 70000 10228 20209 30200 40206 70252 84520 333 20165 58012 69924;
0167833980999992001061918004-15660-038920FM-12+000599999V0200901N002110450019N0040001N1+02601+02061101661ADDAA199000091GF106991041051008001041001MA1999999101601MD1999999+0081REMSYN070AAXX  19184 83398 32596 60904 10260 20206 30160 40166 84540 333 58008;EQDQ01  00002PRCP99
0198833980999992001062000004-15660-038920FM-12+000599999V0202301N001010450019N0010001N1+02181+02041101871ADDAA199000091GF106991041051008001021001KA1240M+02731MA1999999101811MD1999999-0021REMSYN088AAXX  20004 83398 32594 62302 10218 20204 30181 40187 84520 333 10273 29086 55052 59002;EQDQ01  00002PRCP99
0186833980999992001062012004-15660-038920FM-12+000599999V0202301N001010450019N0040001N1+02381+02051102081ADDAA199000091GF106991031011008001041011KA1240N+01911MA1999999102021MD1999999+0021REMSYN076AAXX  20124 83398 32596 62302 10238 20205 30202 40208 83141 333 20191 58002;EQDQ01  00002PRCP99
0167833980999992001062018004-15660-038920FM-12+000599999V0200901N003110450019N0040001N1+02621+01961101641ADDAA199000091GF106991031051008001041011MA1999999101581MD1999999-0021REMSYN070AAXX  20184 83398 32596 60906 10262 20196 30158 40164 83541 333 59002;EQDQ01  00002PRCP99
0198833980999992001062100004-15660-038920FM-12+000599999V0202301N001012200019N0010001N1+02121+01971101861ADDAA199000091GF104991031011008001041001KA1240M+02701MA1999999101801MD1999999-0011REMSYN088AAXX  21004 83398 32594 42302 10212 20197 30180 40186 83140 333 10270 29083 55075 59001;EQDQ01  00002PRCP99
0186833980999992001062112004-15660-038920FM-12+000599999V0202701N001012200019N0040001N1+02231+02001101941ADDAA199000091GF102991011021008001041001KA1240N+01731MA1999999101881MD1999999-0141REMSYN076AAXX  21124 83398 32596 22702 10223 20200 30188 40194 81240 333 20173 59014;EQDQ01  00002PRCP99
0167833980999992001062118004-15660-038920FM-12+000599999V0200901N002110450019N0040001N1+02601+02121101661ADDAA199000091GF105991031021008001041001MA1999999101601MD1999999+0021REMSYN070AAXX  21184 83398 32596 50904 10260 20212 30160 40166 83240 333 58002;EQDQ01  00002PRCP99
0198833980999992001062200004-15660-038920FM-12+000599999V0209999C000012200019N0010001N1+02201+01971102091ADDAA199000091GF102991021021008001001001KA1240M+02751MA1999999102031MD1999999+0231REMSYN088AAXX  22004 83398 32594 20000 10220 20197 30203 40209 82200 333 10275 29084 55075 58023;EQDQ01  00002PRCP99
0201833980999992001062212004-15660-038920FM-12+000599999V0201801N002110450019N0040001N1+02301+02161102111ADDAA124004191AY161061AY221061GF107991041051008001021001KA1240N+01981MA1999999102051MD1999999+0171MW1021REMSYN088AAXX  22124 83398 21596 71804 10230 20216 30205 40211 70262 84520 333 20198 58017 60044;
0182833980999992001062218004-15660-038920FM-12+000599999V0201401N002110075019N0040001N1+02561+02111101801ADDAA106002091AY161061AY221061GF108991051051008001021999MA1999999101741MD1999999+0141MW1021REMSYN082AAXX  22184 83398 21596 81404 10256 20211 30174 40180 70262 8552/ 333 58014 60021;
0213833980999992001062300004-15660-038920FM-12+000599999V0202301N001010042019N0040001N1+02151+02001102071ADDAA106024991AY161061AY221061GF108991051071004501021999KA1240M+02581MA1999999102011MD1999999-0021MW1601REMSYN100AAXX  23004 83398 21496 82302 10215 20200 30201 40207 76062 8572/ 333 10258 29088 55001 59002 60251;
0201833980999992001062312004-15660-038920FM-12+000599999V0202301N001010075019N0040001N1+02341+02171102151ADDAA124066091AY161061AY221061GF108991051051008001021999KA1240N+01991MA1999999102091MD1999999+0041MW1511REMSYN088AAXX  23124 83398 21596 82302 10234 20217 30209 40215 75162 8552/ 333 20199 58004 60664;
0182833980999992001062318004-15660-038920FM-12+000599999V0200901N001010075019N0040001N1+02541+02171101841ADDAA106006191AY161061AY221061GF108991051051008001021999MA1999999101781MD1999999+0041MW1021REMSYN082AAXX  23184 83398 21596 80902 10254 20217 30178 40184 70262 8552/ 333 58004 60061;
0213833980999992001062400004-15660-038920FM-12+000599999V0200901N002110450019N0010001N1+02521+02001102021ADDAA106002091AY161061AY221061GF106991041051008001021001KA1240M+02781MA1999999101961MD1999999-0051MW1021REMSYN100AAXX  24004 83398 21594 60904 10252 20200 30196 40202 70262 84520 333 10278 29079 55023 59005 60021;
0201833980999992001062412004-15660-038920FM-12+000599999V0201801N001010450019N0040001N1+02481+02191102141ADDAA124008991AY151061AY221061GF106991031051008001041011KA1240N+02001MA1999999102081MD1999999-0011MW1021REMSYN088AAXX  24124 83398 21596 61802 10248 20219 30208 40214 70252 83541 333 20200 59001 60094;
0167833980999992001062418004-15660-038920FM-12+000599999V0201401N002110450019N0040001N1+02681+02091101881ADDAA199000091GF106991041051008001041011MA1999999101831MD1999999+0051REMSYN070AAXX  24184 83398 32596 61404 10268 20209 30183 40188 84541 333 58005;EQDQ01  00002PRCP99
0213833980999992001062500004-15660-038920FM-12+000599999V0202301N001010075019N0010001N1+02261+02121102141ADDAA106002091AY161061AY221061GF107991051051008001021001KA1240M+02761MA1999999102091MD1999999+0131MW1021REMSYN100AAXX  25004 83398 21594 72302 10226 20212 30209 40214 70262 85520 333 10276 29085 55082 58013 60021;
0201833980999992001062512004-15660-038920FM-12+000599999V0201801N001010450019N0040001N1+02301+02111102241ADDAA124007191AY161061AY221061GF107991041051004501021001KA1240N+01991MA1999999102181MD1999999+0101MW1601REMSYN088AAXX  25124 83398 21496 71802 10230 20211 30218 40224 76062 84520 333 20199 58010 60074;
0182833980999992001062518004-15660-038920FM-12+000599999V0201401N001010450019N0040001N1+02541+02111101951ADDAA106000591AY151061AY221061GF106991041051008001021001MA1999999101891MD1999999+0061MW1021REMSYN082AAXX  25184 83398 21596 61402 10254 20211 30189 40195 70252 84520 333 58006 69941;
0213833980999992001062600004-15660-038920FM-12+000599999V0202301N001010450019N0010001N1+02201+02051102151ADDAA106001091AY161061AY221061GF105991031051008001041001KA1240M+02721MA1999999102091MD1999999+0001MW1021REMSYN100AAXX  26004 83398 21594 52302 10220 20205 30209 40215 70262 83540 333 10272 29087 55050 58000 60011;
0201833980999992001062612004-15660-038920FM-12+000599999V0202301N001010450019N0040001N1+02181+02041102171ADDAA124004191AY161061AY221061GF107991041051008001021001KA1240N+01941MA1999999102111MD1999999-0071MW1021REMSYN088AAXX  26124 83398 21596 72302 10218 20204 30211 40217 70262 84520 333 20194 59007 60044;
0182833980999992001062618004-15660-038920FM-12+000599999V0200501N003110450019N0040001N1+02601+02121101971ADDAA106001091AY161061AY221061GF106991041051008001021001MA1999999101911MD1999999+0021MW1021REMSYN082AAXX  26184 83398 21596 60506 10260 20212 30191 40197 70262 84520 333 58002 60011;
0213833980999992001062700004-15660-038920FM-12+000599999V0209999C000010075019N0010001N1+02321+02151102171ADDAA106001091AY151061AY221061GF107991051051008001021001KA1240M+02741MA1999999102111MD1999999+0021MW1021REMSYN100AAXX  27004 83398 21594 70000 10232 20215 30211 40217 70252 85520 333 10274 29086 55047 58002 69991;
0173833980999992001062712004-15660-038920FM-12+000599999V0202701N001010450019N0040001N1+02381+02131102121ADDAA124002091GF105991031051008001041001KA1240N+01901MA1999999102061MD1999999-0051REMSYN082AAXX  27124 83398 22596 52702 10238 20213 30206 40212 83540 333 20190 59005 60024;
0167833980999992001062718004-15660-038920FM-12+000599999V0200901N003110450019N0040001N1+02621+02051101751ADDAA199000091GF105991031021008001041011MA1999999101691MD1999999-0221REMSYN070AAXX  27184 83398 32596 50906 10262 20205 30169 40175 83241 333 59022;EQDQ01  00002PRCP99
0198833980999992001062800004-15660-038920FM-12+000599999V0209999C000012200019N0010001N1+02111+02021101871ADDAA199000091GF103991021011008001041001KA1240M+02201MA1999999101811MD1999999-0301REMSYN088AAXX  28004 83398 32594 30000 10211 20202 30181 40187 82140 333 10220 29086 55083 59030;EQDQ01  00002PRCP99
0186833980999992001062812004-15660-038920FM-12+000599999V0202301N001012200019N0040001N1+02331+02081101981ADDAA199000091GF102991011021008001041001KA1240N+01761MA1999999101921MD1999999-0141REMSYN076AAXX  28124 83398 32596 22302 10233 20208 30192 40198 81240 333 20176 59014;EQDQ01  00002PRCP99
0167833980999992001062818004-15660-038920FM-12+000599999V0200901N002112200019N0040001N1+02671+01961101781ADDAA199000091GF103991021021008001041001MA1999999101721MD1999999+0031REMSYN070AAXX  28184 83398 32596 30904 10267 20196 30172 40178 82240 333 58003;EQDQ01  00002PRCP99
0198833980999992001062900004-15660-038920FM-12+000599999V0202301N001010450019N0010001N1+02131+02021102051ADDAA199000091GF106991041051008001041001KA1240M+02761MA1999999101991MD1999999+0111REMSYN088AAXX  29004 83398 32594 62302 10213 20202 30199 40205 84540 333 10276 29084 55081 58011;EQDQ01  00002PRCP99
0201833980999992001062912004-15660-038920FM-12+000599999V0201801N001010450019N0040001N1+02241+02011102101ADDAA124004191AY161061AY221061GF107991041051008001021001KA1240N+01901MA1999999102041MD1999999+0121MW1021REMSYN088AAXX  29124 83398 21596 71802 10224 20201 30204 40210 70262 84520 333 20190 58012 60044;
0182833980999992001062918004-15660-038920FM-12+000599999V0201801N001010450019N0040001N1+02381+02091101861ADDAA106000191AY151061AY221061GF107991041051008001021001MA1999999101801MD1999999+0081MW1021REMSYN082AAXX  29184 83398 21596 71802 10238 20209 30180 40186 70252 84520 333 58008 69911;
0198833980999992001063000004-15660-038920FM-12+000599999V0209999C000010450019N0010001N1+02161+01931101981ADDAA199000091GF107991041051008001041001KA1240M+02471MA1999999101921MD1999999+0071REMSYN088AAXX  30004 83398 32594 70000 10216 20193 30192 40198 84540 333 10247 29086 55005 58007;EQDQ01  00002PRCP99
0173833980999992001063012004-15660-038920FM-12+000599999V0202301N002110450019N0040001N1+02401+02111102061ADDAA124000191GF105991031051008001041001KA1240N+01921MA1999999102001MD1999999-0041REMSYN082AAXX  30124 83398 22596 52304 10240 20211 30200 40206 83540 333 20192 59004 69914;
0167833980999992001063018004-15660-038920FM-12+000599999V0201801N002110450019N0040001N1+02621+01991101611ADDAA199000091GF106991041051008001041001MA1999999101551MD1999999-0251REMSYN070AAXX  30184 83398 32596 61804 10262 20199 30155 40161 84540 333 59025;EQDQ01  00002PRCP99
0198833980999992001070100004-15660-038920FM-12+000599999V0209999C000010075019N0010001N1+02041+01921101861ADDAA199000091GF107991051051008001041001KA1240M+02711MA1999999101801MD1999999-0121REMSYN088AAXX  01004 83398 32594 70000 10204 20192 30180 40186 85540 333 10271 29084 55084 59012;EQDQ01  00002PRCP99
0186833980999992001070112004-15660-038920FM-12+000599999V0202701N001010450019N0040001N1+02121+01951102011ADDAA199000091GF105991021021008001051001KA1240N+01731MA1999999101951MD1999999-0051REMSYN076AAXX  01124 83398 32596 52702 10212 20195 30195 40201 82250 333 20173 59005;EQDQ01  00002PRCP99
0167833980999992001070118004-15660-038920FM-12+000599999V0201801N001010450019N0040001N1+02521+02021101721ADDAA199000091GF105991021021008001051001MA1999999101561MD1999999-0061REMSYN070AAXX  01184 83398 32596 51802 10252 20202 30156 40172 82250 333 59006;EQDQ01  00002PRCP99
0198833980999992001070200004-15660-038920FM-12+000599999V0209999C000010450019N0010001N1+02021+01951101861ADDAA199000091GF106991041021008001041001KA1240M+02641MA1999999101801MD1999999+0001REMSYN088AAXX  02004 83398 32594 60000 10202 20195 30180 40186 84240 333 10264 29089 55024 58000;EQDQ01  00002PRCP99
0186833980999992001070212004-15660-038920FM-12+000599999V0202301N002110450019N0040001N1+02281+02001102031ADDAA199000091GF107991021051008001041011KA1240N+01741MA1999999101971MD1999999+0021REMSYN076AAXX  02124 83398 32596 72304 10228 20200 30197 40203 82541 333 20174 58002;EQDQ01  00002PRCP99
0167833980999992001070218004-15660-038920FM-12+000599999V0200901N003110450019N0040001N1+02541+01951101671ADDAA199000091GF106991021051008001041011MA1999999101611MD1999999+0051REMSYN070AAXX  02184 83398 32596 60906 10254 20195 30161 40167 82541 333 58005;EQDQ01  00002PRCP99
0198833980999992001070300004-15660-038920FM-12+000599999V0209999C000010450019N0010001N1+02101+01931102001ADDAA199000091GF106991031021008001041011KA1240M+02701MA1999999101941MD1999999+0141REMSYN088AAXX  03004 83398 32594 60000 10210 20193 30194 40200 83241 333 10270 29083 55073 58014;EQDQ01  00002PRCP99
0186833980999992001070312004-15660-038920FM-12+000599999V0201801N001012200019N0040001N1+02261+01961102181ADDAA199000091GF104991021021008001041011KA1240N+01711MA1999999102121MD1999999+0151REMSYN076AAXX  03124 83398 32596 41802 10226 20196 30212 40218 82241 333 20171 58015;EQDQ01  00002PRCP99
0167833980999992001070318004-15660-038920FM-12+000599999V0200901N003110450019N0040001N1+02561+01931101831ADDAA199000091GF106991031021008001041011MA1999999101771MD1999999+0161REMSYN070AAXX  03184 83398 32596 60906 10256 20193 30177 40183 83241 333 58016;EQDQ01  00002PRCP99
0198833980999992001070400004-15660-038920FM-12+000599999V0209999C000019999999N0090001N1+02001+01871102041ADDAA199000091GF106991021011999999041011KA1240M+02671MA1999999101981MD1999999+0041REMSYN088AAXX  04004 83398 32959 60000 10200 20187 30198 40204 82141 333 10267 29083 55078 58004;EQDQ01  00002PRCP99
0186833980999992001070412004-15660-038920FM-12+000599999V0202701N001010450019N0040001N1+02181+01951102091ADDAA199000091GF107991041051008001021001KA1240N+01701MA1999999102031MD1999999+0011REMSYN076AAXX  04124 83398 32596 72702 10218 20195 30203 40209 84520 333 20170 58001;EQDQ01  00002PRCP99
0167833980999992001070418004-15660-038920FM-12+000599999V0200501N002110075019N0040001N1+02161+01991101931ADDAA199000091GF108991051051008001021999MA1999999101871MD1999999+0101REMSYN070AAXX  04184 83398 32596 80504 10216 20199 30187 40193 8552/ 333 58010;EQDQ01  00002PRCP99
0198833980999992001070500004-15660-038920FM-12+000599999V0202701N001010075019N0010001N1+02141+01991101141ADDAA199000091GF108991051051008001021999KA1240M+02681MA1999999101981MD1999999+0001REMSYN088AAXX  05004 83398 32594 82702 10214 20199 30198 40114 8552/ 333 10268 29090 55015 58000;EQDQ01  00002PRCP99
0201833980999992001070512004-15660-038920FM-12+000599999V0200501N001010075019N0040001N1+02141+02021102181ADDAA124001091AY151061AY221061GF108991051071008001021999KA1240N+01831MA1999999102121MD1999999+0091MW1501REMSYN088AAXX  05124 83398 21596 80502 10214 20202 30212 40218 75052 8572/ 333 20183 58009 60014;
0148833980999992001070518004-15660-038920FM-12+000599999V0200901N002110450019N0040001N1+02641+02031101891ADDAA199000021GF106991041051008001041001MA1999999101831MD1999999-0041REMSYN070AAXX  05184 83398 32596 60904 10264 20203 30183 40189 84540 333 59004;
0179833980999992001070600004-15660-038920FM-12+000599999V0209999C000010450019N0010001N1+02261+02121102011ADDAA199000021GF107991041051008001041001KA1240M+02721MA1999999101951MD1999999-0031REMSYN088AAXX  06004 83398 32594 70000 10226 20212 30195 40201 84540 333 10272 29086 55032 59003;
0201833980999992001070612004-15660-038920FM-12+000599999V0202301N002110450019N0040001N1+02431+02161102061ADDAA124000591AY151061AY221061GF105991031021004501041001KA1240N+01991MA1999999102001MD1999999-0121MW1011REMSYN088AAXX  06124 83398 21496 52304 10243 20216 30200 40206 70152 83240 333 20199 59012 69954;
0182833980999992001070618004-15660-038920FM-12+000599999V0209999C000010450019N0040001N1+02331+02121101911ADDAA106000191AY151061AY221061GF107991041051004501021001MA1999999101851MD1999999+0021MW1501REMSYN082AAXX  06184 83398 21496 70000 10233 20212 30185 40191 75052 84520 333 58002 69921;
0213833980999992001070700004-15660-038920FM-12+000599999V0202301N001010075019N0010001N1+02191+02131102071ADDAA106004191AY161061AY221061GF108991051051008001021999KA1240M+02761MA1999999102011MD1999999+0061MW1021REMSYN100AAXX  07004 83398 21594 82302 10219 20213 30201 40207 70262 8552/ 333 10276 29091 55071 58006 60041;
0201833980999992001070712004-15660-038920FM-12+000599999V0200901N003110450019N0040001N1+02621+02121102191ADDAA124008991AY161061AY221061GF106991041051008001021001KA1240N+01981MA1999999102131MD1999999+0131MW1021REMSYN088AAXX  07124 83398 21596 60906 10262 20212 30213 40219 70262 84520 333 20198 58013 60094;
0167833980999992001070718004-15660-038920FM-12+000599999V0200901N003110450019N0040001N1+02641+02071102021ADDAA199000091GF106991041051008001021001MA1999999101961MD1999999+0111REMSYN070AAXX  07184 83398 32596 60906 10264 20207 30196 40202 84520 333 58011;EQDQ01  00002PRCP99
0178833980999992001070812004-15660-038920FM-12+000599999V0202301N001019999999N0040001N1+02381+02091102381ADDAY151061AY221061GF106991999999008001999999KA1240N+01831MA1999999102321MD1999999+0051MW1021REMSYN076AAXX  08124 83398 21596 62302 10238 20209 30232 40238 70252 333 20183 58005;
0167833980999992001070818004-15660-038920FM-12+000599999V0201401N003110450019N0040001N1+02621+02011102071ADDAA199000091GF105991031051008001041001MA1999999102011MD1999999+0051REMSYN070AAXX  08184 83398 32596 51406 10262 20201 30201 40207 83540 333 58005;EQDQ01  00002PRCP99
0198833980999992001070900004-15660-038920FM-12+000599999V0202301N001010075019N0010001N1+02121+02001102171ADDAA199000091GF108991051051008001021999KA1240M+02701MA1999999102111MD1999999-0071REMSYN088AAXX  09004 83398 32594 82302 10212 20200 30211 40217 8552/ 333 10270 29084 55075 59007;EQDQ01  00002PRCP99
0201833980999992001070912004-15660-038920FM-12+000599999V0202301N001010450019N0040001N1+02331+02141102131ADDAA124007191AY161061AY221061GF105991031021008001041001KA1240N+01891MA1999999102071MD1999999-0251MW1011REMSYN088AAXX  09124 83398 21596 52302 10233 20214 30207 40213 70162 83240 333 20189 59025 60074;
0167833980999992001070918004-15660-038920FM-12+000599999V0201401N003110450019N0040001N1+02621+01981101881ADDAA199000091GF105991031051008001041001MA1999999101821MD1999999-0191REMSYN070AAXX  09184 83398 32596 51406 10262 20198 30182 40188 83540 333 59019;EQDQ01  00002PRCP99
0198833980999992001071000004-15660-038920FM-12+000599999V0202301N001012200019N0010001N1+02101+01951102021ADDAA199000091GF103991011021008001041001KA1240M+02701MA1999999101961MD1999999-0151REMSYN088AAXX  10004 83398 32594 32302 10210 20195 30196 40202 81240 333 10270 29085 55079 59015;EQDQ01  00002PRCP99
0186833980999992001071012004-15660-038920FM-12+000599999V0202301N001011050019N0040001N1+02221+01991101931ADDAA199000091GF105991021021008001041011KA1240N+01691MA1999999101871MD1999999-0201REMSYN076AAXX  10124 83398 32596 52302 10222 20199 30187 40193 82241 333 20169 59020;EQDQ01  00002PRCP99
0182833980999992001071018004-15660-038920FM-12+000599999V0200901N002110450019N0040001N1+02561+02061101701ADDAA106001091AY161061AY221061GF106991041051008001021001MA1999999101641MD1999999-0181MW1021REMSYN082AAXX  10184 83398 21596 60904 10256 20206 30164 40170 70262 84520 333 59018 60011;
0198833980999992001071100004-15660-038920FM-12+000599999V0202301N001010450019N0010001N1+02101+02021101821ADDAA199000091GF105991031051008001041001KA1240M+02681MA1999999101761MD1999999-0201REMSYN088AAXX  11004 83398 32594 52302 10210 20202 30176 40182 83540 333 10268 29088 55070 59020;EQDQ01  00002PRCP99
0201833980999992001071112004-15660-038920FM-12+000599999V0202301N002112200019N0040001N1+02291+02041102041ADDAA124004191AY161061AY221061GF104991021021004501041001KA1240N+01881MA1999999101981MD1999999+0111MW1011REMSYN088AAXX  11124 83398 21496 42304 10229 20204 30198 40204 70162 82240 333 20188 58011 60044;
0167833980999992001071118004-15660-038920FM-12+000599999V0200901N003110450019N0040001N1+02601+02031101641ADDAA199000091GF105991031051008001041001MA1999999101581MD1999999-0041REMSYN070AAXX  11184 83398 32596 50906 10260 20203 30158 40164 83540 333 59004;EQDQ01  00002PRCP99
0198833980999992001071200004-15660-038920FM-12+000599999V0200501N001012200019N0010001N1+02381+01951101791ADDAA199000091GF103991021021008001041001KA1240M+02691MA1999999101731MD1999999-0031REMSYN088AAXX  12004 83398 32594 30502 10238 20195 30173 40179 82240 333 10269 29077 55068 59003;EQDQ01  00002PRCP99
0201833980999992001071212004-15660-038920FM-12+000599999V0202301N001011050019N0040001N1+02371+02091102081ADDAA124000591AY151061AY221061GF105991021021004501041041KA1240N+01911MA1999999102021MD1999999+0041MW1011REMSYN088AAXX  12124 83398 21496 52302 10237 20209 30202 40208 70152 82244 333 20191 58004 69964;
0167833980999992001071218004-15660-038920FM-12+000599999V0203601N003110450019N0040001N1+02581+02191101641ADDAA199000091GF106991041021008001041001MA1999999101581MD1999999+0001REMSYN070AAXX  12184 83398 32596 63606 10258 20219 30158 40164 84240 333 58000;EQDQ01  00002PRCP99
0198833980999992001071300004-15660-038920FM-12+000599999V0200501N002112200019N0010001N1+02361+02171101771ADDAA199000091GF104991031021008001041001KA1240M+02701MA1999999101711MD1999999-0021REMSYN088AAXX  13004 83398 32594 40504 10236 20217 30171 40177 83240 333 10270 29085 55080 59002;EQDQ01  00002PRCP99
0186833980999992001071312004-15660-038920FM-12+000599999V0202301N002110450019N0040001N1+02291+02141102091ADDAA199000091GF106991031051008001021001KA1240N+01891MA1999999102031MD1999999+0011REMSYN076AAXX  13124 83398 32596 62304 10229 20214 30203 40209 83520 333 20189 58001;EQDQ01  00002PRCP99
0154833980999992001071318004-15660-038920FM-12+000599999V0201801N002110450019N0040001N1+02401+02151101741ADDAA106002091GF106991041051008001021001MA1999999101681MD1999999+0101REMSYN076AAXX  13184 83398 21596 61804 10240 20215 30168 40174 84520 333 58010 60021;
0212833980999992001071612004-15660-038920FM-12+000599999V0202301N002119999999N0040001N1+02101+01781102051ADDAA124002091AY121061GF108991999011004501001001KA1240N+01671MA1999999099791MD1999999+0061MW1211REMSYN088AAXX  16124 83398 21496 82304 1021/ 20178 39979 40205 7212/ 83100 333 20167 58006 60024;EQDQ01+000032SCOTLC
0201833980999992001071618004-15660-038920FM-12+000599999V0201401N002110075019N0040001N1+02441+01791101951ADDAA106000591AY151061AY221061GF107991051051008001021001MA1999999101892MD1999999+0111MW1021REMSYN082AAXX  16184 83398 21596 71404 10244 20179 30189 40195 70252 85520 333 58011 69951;EQDQ01+101893APOSP 
0179833980999992001071700004-15660-038920FM-12+000599999V0200901N002110075019N0010001N1+02351+01831102131ADDAA199000021GF108991051051008001021999KA1240M+02481MA1999999102071MD1999999+0051REMSYN088AAXX  17004 83398 32594 80904 10235 20183 30207 40213 8552/ 333 10248 29076 55000 58005;
0173833980999992001071712004-15660-038920FM-12+000599999V0201801N002111050019N0040001N1+02301+01981102171ADDAA124000591GF105991021021008001041041KA1240N+01781MA1999999102111MD1999999-0051REMSYN082AAXX  17124 83398 22596 51804 10230 20198 30211 40217 82244 333 20178 59005 69954;
0182833980999992001071718004-15660-038920FM-12+000599999V0201801N002110450019N0040001N1+02601+02061101881ADDAA106000191AY151061AY221061GF106991041051008001041001MA1999999101821MD1999999-0071MW1021REMSYN082AAXX  17184 83398 21596 61804 10260 20206 30182 40188 70252 84540 333 59007 69911;
0213833980999992001071800004-15660-038920FM-12+000599999V0202301N001010075019N0010001N1+02221+02011102101ADDAA106001091AY161061AY221061GF107991051051008001021001KA1240M+02661MA1999999102041MD1999999-0031MW1021REMSYN100AAXX  18004 83398 21594 72302 10222 20201 30204 40210 70262 85520 333 10266 29083 55061 59003 60011;
0201833980999992001071812004-15660-038920FM-12+000599999V0209999C000010042019N0040001N1+02281+02131102171ADDAA124016091AY161061AY221061GF107991051071004501021001KA1240N+02001MA1999999102111MD1999999+0001MW1601REMSYN088AAXX  18124 83398 21496 70000 10228 20213 30211 40217 76062 85720 333 20200 58000 60164;
0179833980999992001071900004-15660-038920FM-12+000599999V0200901N002112200019N0010001N1+02371+01991102021ADDAA199000021GF104991031021008001041001KA1240M+02681MA1999999101961MD1999999-0081REMSYN088AAXX  19004 83398 32594 40904 10237 20199 30196 40202 83240 333 10268 29082 55019 59008;
0173833980999992001071912004-15660-038920FM-12+000599999V0202301N001010450019N0040001N1+02301+02031102091ADDAA124000891GF106991041051008001021001KA1240N+01841MA1999999102031MD1999999-0081REMSYN082AAXX  19124 83398 22596 62302 10230 20203 30203 40209 84520 333 20184 59008 69984;
0167833980999992001071918004-15660-038920FM-12+000599999V0200501N002110450019N0040001N1+02601+01961101761ADDAA199000091GF105991031051008001021001MA1999999101711MD1999999-0111REMSYN070AAXX  19184 83398 32596 50504 10260 20196 30171 40176 83520 333 59011;EQDQ01  00002PRCP99
0198833980999992001072000004-15660-038920FM-12+000599999V0209999C000012200019N0010001N1+02131+01971101901ADDAA199000091GF102991011011008001041001KA1240M+02701MA1999999101841MD1999999-0121REMSYN088AAXX  20004 83398 32594 20000 10213 20197 30184 40190 81140 333 10270 29083 55071 59012;EQDQ01  00002PRCP99
0186833980999992001072012004-15660-038920FM-12+000599999V0202701N001012200019N0040001N1+02281+02111101831ADDAA199000091GF104991021011004501041001KA1240N+01731MA1999999101771MD1999999-0261REMSYN076AAXX  20124 83398 32496 42702 10228 20211 30177 40183 82140 333 20173 59026;EQDQ01  00002PRCP99
0167833980999992001072018004-15660-038920FM-12+000599999V0200901N002110450019N0040001N1+02581+02121101671ADDAA199000091GF105991031011008001041001MA1999999101611MD1999999+0101REMSYN070AAXX  20184 83398 32596 50904 10258 20212 30161 40167 83140 333 58010;EQDQ01  00002PRCP99
0198833980999992001072100004-15660-038920FM-12+000599999V0200501N001012200019N0010001N1+02311+02131101661ADDAA199000091GF103991021011008001041001KA1240M+02701MA1999999101601MD1999999-0241REMSYN088AAXX  21004 83398 32594 30502 10231 20213 30160 40166 82140 333 10270 29086 55079 59024;EQDQ01  00002PRCP99
0186833980999992001072112004-15660-038920FM-12+000599999V0202701N001012200019N0040001N1+02341+02111101841ADDAA199000091GF102991021021008001001001KA1240N+01811MA1999999101781MD1999999+0011REMSYN076AAXX  21124 83398 32596 22702 10234 20211 30178 40184 82200 333 20181 58001;EQDQ01  00002PRCP99
0167833980999992001072118004-15660-038920FM-12+000599999V0200501N003110450019N0040001N1+02601+02061101511ADDAA199000091GF105991021021008001041001MA1999999101461MD1999999-0151REMSYN070AAXX  21184 83398 32596 50506 10260 20206 30146 40151 82240 333 59015;EQDQ01  00002PRCP99
0198833980999992001072200004-15660-038920FM-12+000599999V0200501N002112200019N0010001N1+02341+02131101641ADDAA199000091GF102991011011008001041001KA1240M+02711MA1999999101581MD1999999-0021REMSYN088AAXX  22004 83398 32594 20504 10234 20213 30158 40164 81140 333 10271 29084 55085 59002;EQDQ01  00002PRCP99
0186833980999992001072212004-15660-038920FM-12+000599999V0203201N001010450019N0040001N1+02581+02231101741ADDAA199000091GF105991031011008001041001KA1240N+01861MA1999999101681MD1999999-0101REMSYN076AAXX  22124 83398 32596 53202 10258 20223 30168 40174 83140 333 20186 59010;EQDQ01  00002PRCP99
0167833980999992001072218004-15660-038920FM-12+000599999V0203601N004111050019N0040001N1+02661+02091101381ADDAA199000091GF105991021021008001041011MA1999999101331MD1999999-0131REMSYN070AAXX  22184 83398 32596 53608 10266 20209 30133 40138 82241 333 59013;EQDQ01  00002PRCP99
0198833980999992001072300004-15660-038920FM-12+000599999V0200501N002110450019N0010001N1+02351+02201101611ADDAA199000091GF105991031021008001041001KA1240M+02821MA1999999101551MD1999999-0031REMSYN088AAXX  23004 83398 32594 50504 10235 20220 30155 40161 83240 333 10282 29084 55085 59003;EQDQ01  00002PRCP99
0186833980999992001072312004-15660-038920FM-12+000599999V0209999C000010450019N0040001N1+02581+02311102061ADDAA199000091GF106991041051008001021001KA1240N+02061MA1999999102001MD1999999+0321REMSYN076AAXX  23124 83398 32596 60000 10258 20231 30200 40206 84520 333 20206 58032;EQDQ01  00002PRCP99
0167833980999992001072318004-15660-038920FM-12+000599999V0200901N003110450019N0040001N1+02601+02101101691ADDAA199000091GF106991031051008001021011MA1999999101631MD1999999+0301REMSYN070AAXX  23184 83398 32596 60906 10260 20210 30163 40169 83521 333 58030;EQDQ01  00002PRCP99
0198833980999992001072400004-15660-038920FM-12+000599999V0209999C000010450019N0010001N1+02221+02141101991ADDAA199000091GF106991041021008001041001KA1240M+02791MA1999999101931MD1999999+0381REMSYN088AAXX  24004 83398 32594 60000 10222 20214 30193 40199 84240 333 10279 29087 55062 58038;EQDQ01  00002PRCP99
0201833980999992001072412004-15660-038920FM-12+000599999V0209999C000010450019N0040001N1+02351+02061102181ADDAA124000191AY151061AY221061GF107991041051004501021001KA1240N+02021MA1999999102121MD1999999+0121MW1021REMSYN088AAXX  24124 83398 21496 70000 10235 20206 30212 40218 70252 84520 333 20202 58012 69924;
0167833980999992001072418004-15660-038920FM-12+000599999V0200901N003110075019N0040001N1+02461+02071101941ADDAA199000091GF107991051051008001021001MA1999999101881MD1999999+0251REMSYN070AAXX  24184 83398 32596 70906 10246 20207 30188 40194 85520 333 58025;EQDQ01  00002PRCP99
0198833980999992001072500004-15660-038920FM-12+000599999V0209999C000010450019N0010001N1+02141+02061102031ADDAA199000091GF106991041051008001041001KA1240M+02741MA1999999101971MD1999999+0041REMSYN088AAXX  25004 83398 32594 60000 10214 20206 30197 40203 84540 333 10274 29088 55030 58004;EQDQ01  00002PRCP99
0186833980999992001072512004-15660-038920FM-12+000599999V0200901N002110450019N0040001N1+02581+02061102171ADDAA199000091GF105991031021008001041001KA1240N+01861MA1999999102111MD1999999-0011REMSYN076AAXX  25124 83398 32596 50904 10258 20206 30211 40217 83240 333 20186 59001;EQDQ01  00002PRCP99
0167833980999992001072518004-15660-038920FM-12+000599999V0201401N003110450019N0040001N1+02641+02031101841ADDAA199000091GF106991031051008001021001MA1999999101781MD1999999-0101REMSYN070AAXX  25184 83398 32596 61406 10264 20203 30178 40184 83520 333 59010;EQDQ01  00002PRCP99
0198833980999992001072600004-15660-038920FM-12+000599999V0209999C000010450019N0010001N1+02191+02061102011ADDAA199000091GF106991041051008001021001KA1240M+02731MA1999999101951MD1999999-0021REMSYN088AAXX  26004 83398 32594 60000 10219 20206 30195 40201 84520 333 10273 29082 55074 59002;EQDQ01  00002PRCP99
0201833980999992001072612004-15660-038920FM-12+000599999V0209999C000010450019N0040001N1+02361+02151102101ADDAA124002091AY151061AY221061GF105991031021008001041001KA1240N+01961MA1999999102041MD1999999-0071MW1011REMSYN088AAXX  26124 83398 21596 50000 10236 20215 30204 40210 70152 83240 333 20196 59007 60024;
0182833980999992001072618004-15660-038920FM-12+000599999V0200501N003110450019N0040001N1+02621+01981101961ADDAA106000191AY151061AY221061GF105991031021008001041001MA1999999101901MD1999999+0111MW1021REMSYN082AAXX  26184 83398 21596 50506 10262 20198 30190 40196 70252 83240 333 58011 69911;
0198833980999992001072700004-15660-038920FM-12+000599999V0200901N001012200019N0040001N1+02311+02041102151ADDAA199000091GF103991031021008001001001KA1240M+02741MA1999999102091MD1999999+0141REMSYN088AAXX  27004 83398 32596 30902 10231 20204 30209 40215 83200 333 10274 29085 55075 58014;EQDQ01  00002PRCP99
0201833980999992001072712004-15660-038920FM-12+000599999V0209999C000012200019N0040001N1+02381+02131102261ADDAA124000191AY151061AY221061GF104991021021008001041001KA1240N+01871MA1999999101221MD1999999+0161MW1011REMSYN088AAXX  27124 83398 21596 40000 10238 20213 30122 40226 70152 82240 333 20187 58016 69924;
0167833980999992001072718004-15660-038920FM-12+000599999V0200901N002112200019N0040001N1+02601+02031101951ADDAA199000091GF103991021021008001041001MA1999999101891MD1999999-0011REMSYN070AAXX  27184 83398 32596 30904 10260 20203 30189 40195 82240 333 59001;EQDQ01  00002PRCP99
0198833980999992001072800004-15660-038920FM-12+000599999V0209999C000010450019N0010001N1+02251+02081102051ADDAA199000091GF105991021021008001051001KA1240M+02731MA1999999101991MD1999999-0101REMSYN088AAXX  28004 83398 32594 50000 10225 20208 30199 40205 82250 333 10273 29084 55071 59010;EQDQ01  00002PRCP99
0201833980999992001072812004-15660-038920FM-12+000599999V0202701N001010450019N0040001N1+02291+02021102131ADDAA124004191AY151061AY221061GF105991021021004501051001KA1240N+01951MA1999999102071MD1999999-0131MW1021REMSYN088AAXX  28124 83398 21496 52702 10229 20202 30207 40213 70252 82250 333 20195 59013 60044;
0182833980999992001072818004-15660-038920FM-12+000599999V0200501N003110075019N0040001N1+02321+02051101861ADDAA106001091AY151061AY221061GF106991051051008001021001MA1999999101811MD1999999-0081MW1021REMSYN082AAXX  28184 83398 21596 60506 10232 20205 30181 40186 70252 85520 333 59008 60011;
0198833980999992001072900004-15660-038920FM-12+000599999V0202701N001010075019N0010001N1+02121+02001102081ADDAA199000091GF107991051051008001021001KA1240M+02671MA1999999101221MD1999999+0031REMSYN088AAXX  29004 83398 32594 72702 10212 20200 30122 40208 85520 333 10267 29089 55050 58003;EQDQ01  00002PRCP99
0173833980999992001072912004-15660-038920FM-12+000599999V0202301N001010450019N0040001N1+02401+02051102181ADDAA124000191GF106991031051008001041011KA1240N+01901MA1999999102121MD1999999+0051REMSYN082AAXX  29124 83398 22596 62302 10240 20205 30212 40218 83541 333 20190 58005 69914;
0167833980999992001072918004-15660-038920FM-12+000599999V0201401N003110450019N0040001N1+02681+01971101931ADDAA199000091GF106991041051008001041001MA1999999101871MD1999999+0061REMSYN070AAXX  29184 83398 32596 61406 10268 20197 30187 40193 84540 333 58006;EQDQ01  00002PRCP99
0198833980999992001073000004-15660-038920FM-12+000599999V0202301N001012200019N0010001N1+02051+01891102201ADDAA199000091GF103991021021008001041001KA1240M+02741MA1999999101241MD1999999+0121REMSYN088AAXX  30004 83398 32594 32302 10205 20189 30124 40220 82240 333 10274 29082 55080 58012;EQDQ01  00002PRCP99
0182833980999992001073018004-15660-038920FM-12+000599999V0201401N002110075019N0040001N1+02311+02151102181ADDAA106004191AY151061AY221061GF108991051071008001021999MA1999999102121MD1999999+0251MW1501REMSYN082AAXX  30184 83398 21596 81404 10231 20215 30212 40218 75052 8572/ 333 58025 60041;
0213833980999992001073100004-15660-038920FM-12+000599999V0200901N003110075019N0010001N1+02131+01991102391ADDAA106004191AY161061AY221061GF108991051071008001021999KA1240M+02491MA1999999102331MD1999999+0191MW1611REMSYN100AAXX  31004 83398 21594 80906 10213 20199 30233 40239 76162 8572/ 333 10249 29091 55008 58019 60041;
0195833980999992001073112004-15660-038920FM-12+000599999V0201801N002110450019N0040001N1+02251+02101999999ADDAA124021191AY161061AY221061GF106991041051004501021001KA1240N+01871MA1999999102321MD1999999+0021MW1011REMSYN082AAXX  31124 83398 21496 61804 10225 20210 30232 70162 84520 333 20187 58002 60214;
0167833980999992001073118004-15660-038920FM-12+000599999V0201401N002110450019N0040001N1+02521+02021102111ADDAA199000091GF105991031021008001041001MA1999999102051MD1999999-0171REMSYN070AAXX  31184 83398 32596 51404 10252 20202 30205 40211 83240 333 59017;EQDQ01  00002PRCP99
0213833980999992001080100004-15660-038920FM-12+000599999V0201401N002110075019N0010001N1+02111+02051102381ADDAA106017091AY161061AY221061GF108991051071008001021999KA1240M+02681MA1999999102321MD1999999-0011MW1021REMSYN100AAXX  01004 83398 21594 81404 10211 20205 30232 40238 70262 8572/ 333 10268 29089 55074 59001 60171;
0201833980999992001080112004-15660-038920FM-12+000599999V0202301N002110042019N0040001N1+02161+02011102461ADDAA124027991AY161061AY221061GF107991051051004501021001KA1240N+01981MA1999999102401MD1999999+0081MW1021REMSYN088AAXX  01124 83398 21496 72304 10216 20201 30240 40246 70262 85520 333 20198 58008 60284;
0182833980999992001080118004-15660-038920FM-12+000599999V0200901N002110450019N0040001N1+02431+02041102211ADDAA106000191AY151061AY221061GF106991041051004501021001MA1999999102151MD1999999+0101MW1011REMSYN082AAXX  01184 83398 21496 60904 10243 20204 30215 40221 70152 84520 333 58010 69911;
0198833980999992001080200004-15660-038920FM-12+000599999V0202301N001012200019N0010001N1+02131+02001102451ADDAA199000091GF104991021011008001041001KA1240M+02681MA1999999102391MD1999999+0071REMSYN088AAXX  02004 83398 32594 42302 10213 20200 30239 40245 82140 333 10268 29089 55028 58007;EQDQ01  00002PRCP99
0201833980999992001080212004-15660-038920FM-12+000599999V0202301N001010042019N0040001N1+02191+02031102521ADDAA124003091AY161061AY221061GF107991051051004501021001KA1240N+01871MA1999999102461MD1999999+0061MW1601REMSYN088AAXX  02124 83398 21496 72302 10219 20203 30246 40252 76062 85520 333 20187 58006 60034;
0182833980999992001080218004-15660-038920FM-12+000599999V0201401N002112200019N0040001N1+02641+02141102211ADDAA106006191AY161061AY221061GF104991021021004501041001MA1999999102151MD1999999+0001MW1011REMSYN082AAXX  02184 83398 21496 41404 10264 20214 30215 40221 70162 82240 333 58000 60061;
0213833980999992001080300004-15660-038920FM-12+000599999V0200201N016410450019N0010001N1+02121+01891102401ADDAA106004191AY161061AY221061GF106991031021008001041001KA1240M+02621MA1999999102341MD1999999-0051MW1021REMSYN100AAXX  03004 83398 21594 60232 10212 20189 30234 40240 70262 83240 333 10262 29085 55039 59005 60041;
0201833980999992001080312004-15660-038920FM-12+000599999V0201401N001010450019N0040001N1+02461+02131102391ADDAA124010991AY161061AY221061GF107991031051008001021001KA1240N+02001MA1999999102331MD1999999-0131MW1021REMSYN088AAXX  03124 83398 21596 71402 10246 20213 30233 40239 70262 83520 333 20200 59013 60114;
0182833980999992001080318004-15660-038920FM-12+000599999V0201401N003110450019N0040001N1+02601+02031102181ADDAA106000191AY151061AY221061GF106991041051008001021001MA1999999102121MD1999999-0031MW1021REMSYN082AAXX  03184 83398 21596 61406 10260 20203 30212 40218 70252 84520 333 59003 69921;
0198833980999992001080400004-15660-038920FM-12+000599999V0202301N002112200019N0010001N1+02041+01851102351ADDAA199000091GF102991021021008001001001KA1240M+02681MA1999999102291MD1999999-0051REMSYN088AAXX  04004 83398 32594 22304 10204 20185 30229 40235 82200 333 10268 29083 55062 59005;EQDQ01  00002PRCP99
0200833980999992001080412004-15660-038920FM-12+000599999V0202701N002110075019N0040001N1+02241+02101102351ADDAA124007191AY161061AY221061GF107991051051008001021001KA1240N+01881MA1999999102291MD1999999-0041MW1021REMSYN087AAXX  04124 83398 21596 72704 10224 20210 30229 40235 7026285520 333 20188 59004 60074;
0182833980999992001080418004-15660-038920FM-12+000599999V0201401N003110450019N0040001N1+02481+01901102111ADDAA106000191AY151061AY221061GF106991041051008001021001MA1999999102051MD1999999-0071MW1021REMSYN082AAXX  04184 83398 21596 61406 10248 20190 30205 40211 70252 84520 333 59007 69911;
0198833980999992001080500004-15660-038920FM-12+000599999V0202301N001010450019N0010001N1+02071+01911102241ADDAA199000091GF106991031021008001041001KA1240M+02581MA1999999102181MD1999999-0111REMSYN088AAXX  05004 83398 32594 62302 10207 20191 30218 40224 83240 333 10258 29086 55041 59011;EQDQ01  00002PRCP99
0167833980999992001080518004-15660-038920FM-12+000599999V0200901N002111050019N0040001N1+02521+01891102191ADDAA199000091GF105991021021008001041041MA1999999102131MD1999999+0081REMSYN070AAXX  05184 83398 32596 50904 10252 20189 30213 40219 82244 333 58008;EQDQ01  00002PRCP99
0198833980999992001080600004-15660-038920FM-12+000599999V0202301N001012200019N0010001N1+01991+01851102321ADDAA199000091GF104991021021008001041011KA1240M+02661MA1999999102261MD1999999+0081REMSYN088AAXX  06004 83398 32594 42302 10199 20185 30226 40232 82241 333 10266 29082 55070 58008;EQDQ01  00002PRCP99
0186833980999992001080612004-15660-038920FM-12+000599999V0202301N002112200019N0040001N1+02121+01821102371ADDAA199000091GF104991021021008001041001KA1240N+01751MA1999999102311MD1999999+0051REMSYN076AAXX  06124 83398 32596 42304 10212 20182 30231 40237 82240 333 20175 58005;EQDQ01  00002PRCP99
0167833980999992001080618004-15660-038920FM-12+000599999V0201801N003110450019N0040001N1+02541+01951102191ADDAA199000091GF105991031051008001041001MA1999999102131MD1999999+0001REMSYN070AAXX  06184 83398 32596 51806 10254 20195 30213 40219 83540 333 58000;EQDQ01  00002PRCP99
0198833980999992001080700004-15660-038920FM-12+000599999V0202301N001012200019N0010001N1+01981+01721102401ADDAA199000091GF103991021021008001041001KA1240M+02651MA1999999102341MD1999999+0081REMSYN088AAXX  07004 83398 32594 32302 10198 20172 30234 40240 82240 333 10265 29081 55052 58008;EQDQ01  00002PRCP99
0186833980999992001080712004-15660-038920FM-12+000599999V0202301N002110450019N0040001N1+02261+01861102431ADDAA199000091GF105991031021008001041001KA1240N+01721MA1999999102371MD1999999+0061REMSYN076AAXX  07124 83398 32596 52304 10226 20186 30237 40243 83240 333 20172 58006;EQDQ01  00002PRCP99
0182833980999992001080718004-15660-038920FM-12+000599999V0200901N003110450019N0040001N1+02181+02011103221ADDAA106002091AY161061AY221061GF108991041071008001021999MA1999999102161MD1999999+0031MW1521REMSYN082AAXX  07184 83398 21596 80906 10218 20201 30216 40322 75262 8472/ 333 58003 60021;
0232833980999992001080800004-15660-038920FM-12+000599999V0201801N001010075019N0010001N1+02191+01861102382ADDAA106001091AY161061AY221061GF108991051051008001021999KA1240M+02431MA1999999102321MD1999999-0021MW1021REMSYN100AAXX  08004 83398 21594 81802 10219 20186 30232 40238 70262 8552/ 333 10243 29083 55026 59002 60011;EQDQ01+102383APOSLP
0173833980999992001080812004-15660-038920FM-12+000599999V0202301N002110450019N0040001N1+02301+01901102471ADDAA124003091GF106991041051008001041001KA1240N+01741MA1999999102411MD1999999+0041REMSYN082AAXX  08124 83398 22596 62304 10230 20190 30241 40247 84540 333 20174 58004 60034;
0167833980999992001080818004-15660-038920FM-12+000599999V0201401N003110450019N0040001N1+02561+01781102221ADDAA199000091GF105991031051008001041001MA1999999102161MD1999999+0001REMSYN070AAXX  08184 83398 32596 51406 10256 20178 30216 40222 83540 333 58000;EQDQ01  00002PRCP99
0198833980999992001080900004-15660-038920FM-12+000599999V0202301N001012200019N0010001N1+01951+01811102371ADDAA199000091GF103991021021008001041001KA1240M+02641MA1999999102311MD1999999-0011REMSYN088AAXX  09004 83398 32594 32302 10195 20181 30231 40237 82240 333 10264 29081 55069 59001;EQDQ01  00002PRCP99
0201833980999992001080912004-15660-038920FM-12+000599999V0201401N001010042019N0040001N1+02051+01921102471ADDAA124005191AY161061AY221061GF108991061071004501021999KA1240N+01821MA1999999102411MD1999999+0001MW1601REMSYN088AAXX  09124 83398 21496 81402 10205 20192 30241 40247 76062 8672/ 333 20182 58000 60054;
0182833980999992001080918004-15660-038920FM-12+000599999V0201801N002110075019N0040001N1+02301+01901102231ADDAA106007191AY161061AY221061GF107991051051008001021001MA1999999102171MD1999999+0011MW1021REMSYN082AAXX  09184 83398 21596 71804 10230 20190 30217 40223 70262 85520 333 58001 60071;
0213833980999992001081000004-15660-038920FM-12+000599999V0201401N001010075019N0010001N1+02141+01801102311ADDAA106001091AY161061AY221061GF108991051051008001021999KA1240M+02541MA1999999102251MD1999999-0061MW1021REMSYN100AAXX  10004 83398 21594 81402 10214 20180 30225 40231 70262 8552/ 333 10254 29083 55025 59006 60011;
0201833980999992001081012004-15660-038920FM-12+000599999V0201801N001012200019N0040001N1+02301+01961102331ADDAA124021191AY161061AY221061GF104991031021004501041001KA1240N+01891MA1999999102271MD1999999-0141MW1011REMSYN088AAXX  10124 83398 21496 41802 10230 20196 30227 40233 70162 83240 333 20189 59014 60214;
0213833980999992001081100004-15660-038920FM-12+000599999V0202301N002110075019N0010001N1+02071+01931102311ADDAA106002091AY161061AY221061GF108991061071008001021999KA1240M+02641MA1999999102251MD1999999+0001MW1611REMSYN100AAXX  11004 83398 21594 82304 10207 20193 30225 40231 76162 8672/ 333 10264 29081 55080 58000 60021;
0201833980999992001081112004-15660-038920FM-12+000599999V0201801N001010075019N0040001N1+02201+01991101351ADDAA124002091AY151061AY221061GF107991051051008001021001KA1240N+01801MA1999999102291MD1999999+0021MW1021REMSYN088AAXX  11124 83398 21596 71802 10220 20199 30229 40135 70252 85520 333 20180 58002 60024;
0182833980999992001081118004-15660-038920FM-12+000599999V0201801N002110075019N0040001N1+02261+01941102121ADDAA106006191AY161061AY221061GF108991051051008001021999MA1999999102061MD1999999+0011MW1021REMSYN082AAXX  11184 83398 21596 81804 10226 20194 30206 40212 70262 8552/ 333 58001 60061;
0213833980999992001081200004-15660-038920FM-12+000599999V0202301N002110075019N0010001N1+02011+01921102321ADDAA106002091AY161061AY221061GF108991051051008001021999KA1240M+02471MA1999999102261MD1999999+0011MW1021REMSYN100AAXX  12004 83398 21594 82304 10201 20192 30226 40232 70262 8552/ 333 10247 29090 55019 58001 60021;
0201833980999992001081212004-15660-038920FM-12+000599999V0202701N001010450019N0040001N1+02181+02011102441ADDAA124008991AY161061AY221061GF106991041051008001041011KA1240N+01881MA1999999102381MD1999999+0071MW1021REMSYN088AAXX  12124 83398 21596 62702 10218 20201 30238 40244 70262 84541 333 20188 58007 60094;
0182833980999992001081218004-15660-038920FM-12+000599999V0201801N003110075019N0040001N1+02481+02031102141ADDAA106000191AY161061AY221061GF108991051051008001021999MA1999999102081MD1999999+0021MW1601REMSYN082AAXX  12184 83398 21596 81806 10248 20203 30208 40214 76062 8552/ 333 58002 69911;
0213833980999992001081300004-15660-038920FM-12+000599999V0202301N002110450019N0040001N1+02061+01911102391ADDAA106006191AY161061AY221061GF106991041051004501021001KA1240M+02661MA1999999102331MD1999999+0071MW1021REMSYN100AAXX  13004 83398 21496 62304 10206 20191 30233 40239 70262 84520 333 10266 29087 55032 58007 60061;
0201833980999992001081312004-15660-038920FM-12+000599999V0200901N002110450019N0040001N1+02391+01921102431ADDAA124008991AY151061AY221061GF106991031021004501051001KA1240N+01951MA1999999102371MD1999999-0011MW1011REMSYN088AAXX  13124 83398 21496 60904 10239 20192 30237 40243 70152 83250 333 20195 59001 60094;
0182833980999992001081318004-15660-038920FM-12+000599999V0201401N002110075019N0040001N1+02521+01861102111ADDAA106000191AY151061AY221061GF106991051051008001041001MA1999999102041MD1999999-0031MW1021REMSYN082AAXX  13184 83398 21596 61404 10252 20186 30204 40211 70252 85540 333 59003 69911;
0198833980999992001081400004-15660-038920FM-12+000599999V0209999C000012200019N0010001N1+02021+01891102351ADDAA199000091GF103991021021008001041001KA1240M+02621MA1999999102291MD1999999-0041REMSYN088AAXX  14004 83398 32594 30000 10202 20189 30229 40235 82240 333 10262 29082 55059 59004;EQDQ01  00002PRCP99
0201833980999992001081412004-15660-038920FM-12+000599999V0202301N002110450019N0040001N1+02231+02001102391ADDAA124002091AY151061AY221061GF105991031021004501041001KA1240N+01851MA1999999102331MD1999999-0041MW1011REMSYN088AAXX  14124 83398 21496 52304 10223 20200 30233 40239 70152 83240 333 20185 59004 60024;
0167833980999992001081418004-15660-038920FM-12+000599999V0201401N004110075019N0040001N1+02431+01861102161ADDAA199000091GF108991051051008001021999MA1999999102101MD1999999+0051REMSYN070AAXX  14184 83398 32596 81408 10243 20186 30210 40216 8552/ 333 58005;EQDQ01  00002PRCP99
0213833980999992001081500004-15660-038920FM-12+000599999V0202301N001010450019N0010001N1+01991+01881102321ADDAA106000191AY151061AY221061GF105991031051008001041001KA1240M+02671MA1999999102261MD1999999-0031MW1021REMSYN100AAXX  15004 83398 21594 52302 10199 20188 30226 40232 70252 83540 333 10267 29086 55067 59003 69921;
0173833980999992001081512004-15660-038920FM-12+000599999V0201801N002112200019N0040001N1+02311+01841102411ADDAA124000191GF103991021021008001041001KA1240N+01721MA1999999102351MD1999999+0021REMSYN082AAXX  15124 83398 22596 31804 10231 20184 30235 40241 82240 333 20172 58002 69924;
0167833980999992001081518004-15660-038920FM-12+000599999V0201801N002112200019N0040001N1+02561+01621102121ADDAA199000091GF102991021021008001001001MA1999999102061MD1999999-0041REMSYN070AAXX  15184 83398 32596 21804 10256 20162 30206 40212 82200 333 59004;EQDQ01  00002PRCP99
0198833980999992001081600004-15660-038920FM-12+000599999V0209999C000012200019N0010001N1+01831+01691102361ADDAA199000091GF102991021011008001001001KA1240M+02631MA1999999102301MD1999999+0041REMSYN088AAXX  16004 83398 32594 20000 10183 20169 30230 40236 82100 333 10263 29078 55090 58004;EQDQ01  00002PRCP99
0201833980999992001081612004-15660-038920FM-12+000599999V0209999C000010042019N0040001N1+02001+01851102501ADDAA124003091AY151061AY221061GF108991051071004501021999KA1240N+01681MA1999999102441MD1999999+0091MW1501REMSYN088AAXX  16124 83398 21496 80000 10200 20185 30244 40250 75052 8572/ 333 20168 58009 60034;
0182833980999992001081618004-15660-038920FM-12+000599999V0201801N003110075019N0040001N1+02461+01881102201ADDAA106000891AY151061AY221061GF106991051051008001021001MA1999999102141MD1999999+0081MW1021REMSYN082AAXX  16184 83398 21596 61806 10246 20188 30214 40220 70252 85520 333 58008 69971;
0179833980999992001081700004-15660-038920FM-12+000599999V0202301N001012200019N0010001N1+01931+01811102411ADDAA199000021GF103991021021008001041001KA1240M+02591MA1999999102351MD1999999+0051REMSYN088AAXX  17004 83398 32594 32302 10193 20181 30235 40241 82240 333 10259 29086 55040 58005;
0201833980999992001081712004-15660-038920FM-12+000599999V0202301N002110450019N0040001N1+02111+01871102471ADDAA124002091AY151061AY221061GF106991041051004501021001KA1240N+01761MA1999999102411MD1999999-0031MW1011REMSYN088AAXX  17124 83398 21496 62304 10211 20187 30241 40247 70152 84520 333 20176 59003 60024;
0167833980999992001081718004-15660-038920FM-12+000599999V0201401N002110450019N0040001N1+02511+01891102121ADDAA199000091GF106991041051008001021001MA1999999102061MD1999999-0081REMSYN070AAXX  17184 83398 32596 61404 10251 20189 30206 40212 84520 333 59008;EQDQ01  00002PRCP99
0198833980999992001081800004-15660-038920FM-12+000599999V0202301N001012200019N0010001N1+02061+01981102321ADDAA199000091GF104991021021008001041001KA1240M+02671MA1999999102261MD1999999-0091REMSYN088AAXX  18004 83398 32594 42302 10206 20198 30226 40232 82240 333 10267 29086 55047 59009;EQDQ01  00002PRCP99
0201833980999992001081812004-15660-038920FM-12+000599999V0202701N001010450019N0040001N1+02241+02101102391ADDAA124003091AY151061AY221061GF106991041051004501041001KA1240N+01841MA1999999102331MD1999999-0081MW1501REMSYN088AAXX  18124 83398 21496 62702 10224 20210 30233 40239 75052 84540 333 20184 59008 60034;
0182833980999992001081818004-15660-038920FM-12+000599999V0200901N002110450019N0040001N1+02531+02161102081ADDAA124002091AY151061AY221061GF106991041051008001041001MA1999999102021MD1999999-0041MW1011REMSYN082AAXX  18184 83398 21596 60904 10253 20216 30202 40208 70152 84540 333 59004 60024;
0213833980999992001081900004-15660-038920FM-12+000599999V0200501N002112200019N0010001N1+02351+01961102361ADDAA106002091AY151061AY221061GF104991021021004501041001KA1240M+02701MA1999999102301MD1999999+0041MW1011REMSYN100AAXX  19004 83398 21494 40504 10235 20196 30230 40236 70152 82240 333 10270 29083 55057 58004 60021;
0173833980999992001081912004-15660-038920FM-12+000599999V0200901N003110450019N0040001N1+02601+02031102401ADDAA124003091GF106991041051008001021001KA1240N+01881MA1999999102341MD1999999+0011REMSYN082AAXX  19124 83398 22596 60906 10260 20203 30234 40240 84520 333 20188 58001 60034;
0167833980999992001081918004-15660-038920FM-12+000599999V0200901N004110450019N0040001N1+02561+01951102181ADDAA199000091GF105991031051008001021001MA1999999102121MD1999999+0071REMSYN070AAXX  19184 83398 32596 50908 10256 20195 30212 40218 83520 333 58007;EQDQ01  00002PRCP99
0213833980999992001082000004-15660-038920FM-12+000599999V0201401N003110450019N0010001N1+02281+01941102401ADDAA106002091AY161061AY261061GF106991041051008001021001KA1240M+02691MA1999999102341MD1999999+0041MW1021REMSYN100AAXX  20004 83398 21594 61406 10228 20194 30234 40240 70266 84520 333 10269 29077 55087 58004 60021;
0201833980999992001082012004-15660-038920FM-12+000599999V0202301N002110042019N0040001N1+02131+01991102541ADDAA124004191AY151061AY221061GF108991051071004501021999KA1240N+01951MA1999999102481MD1999999+0141MW1501REMSYN088AAXX  20124 83398 21496 82304 10213 20199 30248 40254 75052 8572/ 333 20195 58014 60044;
0182833980999992001082018004-15660-038920FM-12+000599999V0201401N003110450019N0040001N1+02441+01951102191ADDAA106003091AY161061AY221061GF106991041051008001021001MA1999999102131MD1999999+0011MW1021REMSYN082AAXX  20184 83398 21596 61406 10244 20195 30213 40219 70262 84520 333 58001 60031;
0179833980999992001082100004-15660-038920FM-12+000599999V0202301N001012200019N0010001N1+02041+01891102351ADDAA199000021GF103991021021008001041001KA1240M+02551MA1999999102291MD1999999-0051REMSYN088AAXX  21004 83398 32594 32302 10204 20189 30229 40235 82240 333 10255 29087 55031 59005;
0201833980999992001082112004-15660-038920FM-12+000599999V0202701N001012200019N0040001N1+02271+02001102271ADDAA124005191AY151061AY221061GF103991021011004501041001KA1240N+01771MA1999999102211MD1999999-0271MW1011REMSYN088AAXX  21124 83398 21496 32702 10227 20200 30221 40227 70152 82140 333 20177 59027 60054;
0145833980999992001082118004-15660-038920FM-12+000599999V0200901N003110450019N0040001N1+02521+02021102001ADDAY151061AY221061GF105991021051008001041001MA1999999101941MW1021REMSYN070AAXX  21184 83398 21596 50906 10252 20202 30194 40200 70252 82540 333;
0198833980999992001082200004-15660-038920FM-12+000599999V0209999C000012200019N0010001N1+02071+01981102211ADDAA199000091GF102991021021008001001001KA1240M+02651MA1999999102151MD1999999-0141REMSYN088AAXX  22004 83398 32594 20000 10207 20198 30215 40221 82200 333 10265 29087 55089 59014;EQDQ01  00002PRCP99
0182833980999992001082218004-15660-038920FM-12+000599999V0200501N002110450019N0040001N1+02531+02181102031ADDAA106000891AY151061AY221061GF105991031021004501041001MA1999999101971MD1999999+0031MW1011REMSYN082AAXX  22184 83398 21496 50504 10253 20218 30197 40203 70152 83240 333 58003 69981;
0198833980999992001082300004-15660-038920FM-12+000599999V0200501N003110450019N0010001N1+02401+02011102241ADDAA199000091GF105991031021008001051001KA1240M+02631MA1999999102181MD1999999+0031REMSYN088AAXX  23004 83398 32594 50506 10240 20201 30218 40224 83250 333 10263 29083 55052 58003;EQDQ01  00002PRCP99
0201833980999992001082312004-15660-038920FM-12+000599999V0200501N002110042019N0040001N1+02241+02101102401ADDAA124007191AY161061AY221061GF108991061071004501021999KA1240N+02041MA1999999102341MD1999999+0141MW1601REMSYN088AAXX  23124 83398 21496 80504 10224 20210 30234 40240 76062 8672/ 333 20204 58014 60074;
0148833980999992001082318004-15660-038920FM-12+000599999V0200901N003110450019N0040001N1+02591+02101101991ADDAA199000021GF105991021051008001041001MA1999999101931MD1999999-0041REMSYN070AAXX  23184 83398 32596 50906 10259 20210 30193 40199 82540 333 59004;
0179833980999992001082400004-15660-038920FM-12+000599999V0200901N002112200019N0010001N1+02351+01911102161ADDAA199000021GF104991021021008001041001KA1240M+02641MA1999999102101MD1999999-0081REMSYN088AAXX  24004 83398 32594 40904 10235 20191 30210 40216 82240 333 10264 29080 55050 59008;
0186833980999992001082412004-15660-038920FM-12+000599999V0200901N002110450019N0040001N1+02531+01991102241ADDAA199000091GF105991031021008001041001KA1240N+01891MA1999999102181MD1999999-0161REMSYN076AAXX  24124 83398 32596 50904 10253 20199 30218 40224 83240 333 20189 59016;EQDQ01  00002PRCP99
0198833980999992001082500004-15660-038920FM-12+000599999V0200901N002110450019N0010001N1+02331+01871101991ADDAA199000091GF105991031021008001041001KA1240M+02681MA1999999101931MD1999999-0171REMSYN088AAXX  25004 83398 32594 50904 10233 20187 30193 40199 83240 333 10268 29071 55074 59017;EQDQ01  00002PRCP99
0186833980999992001082512004-15660-038920FM-12+000599999V0202301N001012200019N0040001N1+02401+02071102051ADDAA199000091GF104991021021008001041011KA1240N+01701MA1999999101991MD1999999-0191REMSYN076AAXX  25124 83398 32596 42302 10240 20207 30199 40205 82241 333 20170 59019;EQDQ01  00002PRCP99
0198833980999992001082600004-15660-038920FM-12+000599999V0200501N003110450019N0010001N1+02381+02031101971ADDAA199000091GF106991041051008001041001KA1240M+02791MA1999999101911MD1999999-0021REMSYN088AAXX  26004 83398 32594 60506 10238 20203 30191 40197 84540 333 10279 29078 55087 59002;EQDQ01  00002PRCP99
0186833980999992001082612004-15660-038920FM-12+000599999V0203601N003110450019N0040001N1+02621+01981102031ADDAA199000091GF106991031051008001041001KA1240N+01941MA1999999102011MD1999999+0021REMSYN076AAXX  26124 83398 32596 63606 10262 20198 30201 40203 83540 333 20194 58002;EQDQ01  00002PRCP99
0167833980999992001082618004-15660-038920FM-12+000599999V0200501N003110450019N0040001N1+02621+01981101811ADDAA199000091GF106991021051008001041011MA1999999101751MD1999999+0031REMSYN070AAXX  26184 83398 32596 60506 10262 20198 30175 40181 82541 333 58003;EQDQ01  00002PRCP99
0166833980999992001082700004-15660-038920FM-12+000599999V0203601N001010450019N0010001N1+02201+01971102031ADDAA199000091GF106991041021008001041001KA1999M+02701MA1999999101971REMSYN070AAXX  27004 83398 32594 63602 10220 20197 30197 40203 84240 333 10270;EQDQ01  00002PRCP99
0186833980999992001082712004-15660-038920FM-12+000599999V0202701N001010450019N0040001N1+02521+02211102121ADDAA199000091GF105991031021008001041011KA1240N+01781MA1999999102061MD1999999+0051REMSYN076AAXX  27124 83398 32596 52702 10252 20221 30206 40212 83241 333 20178 58005;EQDQ01  00002PRCP99
0167833980999992001082718004-15660-038920FM-12+000599999V0200901N003112200019N0040001N1+02591+02001101951ADDAA199000091GF104991031021008001041001MA1999999101891MD1999999+0141REMSYN070AAXX  27184 83398 32596 40906 10259 20200 30189 40195 83240 333 58014;EQDQ01  00002PRCP99
0198833980999992001082800004-15660-038920FM-12+000599999V0200501N002112200019N0010001N1+02361+01931102071ADDAA199000091GF102991021011008001001001KA1240M+02701MA1999999102011MD1999999+0041REMSYN088AAXX  28004 83398 32594 20504 10236 20193 30201 40207 82100 333 10270 29076 55082 58004;EQDQ01  00002PRCP99
0186833980999992001082812004-15660-038920FM-12+000599999V0200901N002110450019N0040001N1+02601+02031102101ADDAA199000091GF105991041021008001041001KA1240N+01831MA1999999102041MD1999999-0021REMSYN076AAXX  28124 83398 32596 50904 10260 20203 30204 40210 84240 333 20183 59002;EQDQ01  00002PRCP99
0167833980999992001082818004-15660-038920FM-12+000599999V0200901N001012200019N0040001N1+02571+01961101931ADDAA199000091GF103991021021008001041001MA1999999101871MD1999999-0021REMSYN070AAXX  28184 83398 32596 30902 10257 20196 30187 40193 82240 333 59002;EQDQ01  00002PRCP99
0198833980999992001082900004-15660-038920FM-12+000599999V0200501N002112200019N0010001N1+02381+02011102031ADDAA199000091GF103991031021008001001001KA1240M+02701MA1999999101971MD1999999-0041REMSYN088AAXX  29004 83398 32594 30504 10238 20201 30197 40203 83200 333 10270 29075 55077 59004;EQDQ01  00002PRCP99
0201833980999992001082912004-15660-038920FM-12+000599999V0200901N002110450019N0040001N1+02541+02021102241ADDAA124000191AY151061AY221061GF106991041051004501021001KA1240N+01921MA1999999102181MD1999999+0141MW1011REMSYN088AAXX  29124 83398 21496 60904 10254 20202 30218 40224 70152 84520 333 20192 58014 69914;
0182833980999992001082918004-15660-038920FM-12+000599999V0200901N002112200019N0040001N1+02591+01861101881ADDAA106000191AY151061AY221061GF102991021021004501001001MA1999999101821MD1999999-0051MW1011REMSYN082AAXX  29184 83398 21496 20904 10259 20186 30182 40188 70152 82200 333 59005 69921;
0198833980999992001083000004-15660-038920FM-12+000599999V0200901N003110075019N0010001N1+02391+02051102161ADDAA199000091GF107991051051008001041001KA1240M+02721MA1999999102101MD1999999+0131REMSYN088AAXX  30004 83398 32594 70906 10239 20205 30210 40216 85540 333 10272 29075 55070 58013;EQDQ01  00002PRCP99
0201833980999992001083012004-15660-038920FM-12+000599999V0200501N003110042019N0040001N1+02371+02061102241ADDAA124003091AY151061AY221061GF108991051071004501021999KA1240N+02101MA1999999102181MD1999999+0001MW1021REMSYN088AAXX  30124 83398 21496 80506 10237 20206 30218 40224 70252 8572/ 333 20210 58000 60034;
0182833980999992001083018004-15660-038920FM-12+000599999V0200501N002110450019N0040001N1+02561+02061102031ADDAA106000191AY151061AY221061GF106991041051004501021001MA1999999101971MD1999999+0151MW1021REMSYN082AAXX  30184 83398 21496 60504 10256 20206 30197 40203 70252 84520 333 58015 69911;
0213833980999992001083100004-15660-038920FM-12+000599999V0200901N004110075019N0010001N1+02401+02031102201ADDAA106001091AY151061AY221061GF108991051051008001021999KA1240M+02721MA1999999102141MD1999999+0041MW1021REMSYN100AAXX  31004 83398 21594 80908 10240 20203 30214 40220 70252 8552/ 333 10272 29079 55028 58004 69991;
0173833980999992001083112004-15660-038920FM-12+000599999V0200901N002110042019N0040001N1+02521+02021102381ADDAA124001091GF107991051051004501021001KA1240N+02061MA1999999102321MD1999999+0141REMSYN082AAXX  31124 83398 22496 70904 10252 20202 30232 40238 85520 333 20206 58014 60014;
0167833980999992001083118004-15660-038920FM-12+000599999V0200501N003110450019N0040001N1+02601+01961101991ADDAA199000091GF106991031051008001041011MA1999999101931MD1999999-0041REMSYN070AAXX  31184 83398 32596 60506 10260 20196 30193 40199 83541 333 59004;EQDQ01  00002PRCP99
0198833980999992001090100004-15660-038920FM-12+000599999V0201401N003110075019N0010001N1+02381+01891102131ADDAA199000091GF108991051051008001021999KA1240M+02731MA1999999102071MD1999999-0071REMSYN088AAXX  01004 83398 32594 81406 10238 20189 30207 40213 8552/ 333 10273 29073 55060 59007;EQDQ01  00002PRCP99
0201833980999992001090112004-15660-038920FM-12+000599999V0201801N002110450019N0040001N1+02261+02031102101ADDAA124001091AY161061AY221061GF106991041051008001021001KA1240N+01901MA1999999102041MD1999999-0281MW1021REMSYN088AAXX  01124 83398 21596 61804 10226 20203 30204 40210 70262 84520 333 20190 59028 60014;
0182833980999992001090118004-15660-038920FM-12+000599999V0200901N003110075019N0040001N1+02141+01991101931ADDAA106001091AY161061AY221061GF108991051071008001021999MA1999999101871MD1999999-0061MW1601REMSYN082AAXX  01184 83398 21596 80906 10214 20199 30187 40193 76062 8572/ 333 59006 60011;
0213833980999992001090200004-15660-038920FM-12+000599999V0200501N002110075019N0010001N1+02121+02001102101ADDAA106003091AY161061AY221061GF108991051051008001021999KA1240M+02751MA1999999102041MD1999999-0031MW1021REMSYN100AAXX  02004 83398 21594 80504 10212 20200 30204 40210 70262 8552/ 333 10275 29091 55017 59003 60031;
0201833980999992001090212004-15660-038920FM-12+000599999V0200901N002110450019N0040001N1+02441+02071102081ADDAA124007191AY161061AY221061GF106991041051008001021001KA1240N+01941MA1999999102021MD1999999-0021MW1021REMSYN088AAXX  02124 83398 21596 60904 10244 20207 30202 40208 70262 84520 333 20194 59002 60074;
0182833980999992001090218004-15660-038920FM-12+000599999V0201401N003110075019N0040001N1+02561+01951101821ADDAA106002091AY161061AY221061GF107991051051008001021001MA1999999101761MD1999999-0111MW1021REMSYN082AAXX  02184 83398 21596 71406 10256 20195 30176 40182 70262 85520 333 59011 60021;
0200833980999992001090300004-15660-038920FM-12+000599999V0200901N002112200019N0020001N1+02351+01891102051ADDAA101999999GF103991999011008001001001KA1240M+02671MA1999999101991REMSYN088AAXX  03004 83398 32595 30904 10235 20189 30199 40205 82100 333 10267 29075 55066 69005;EQDQ01+000022SCOTLCQ02  89992PRCP01
0173833980999992001090312004-15660-038920FM-12+000599999V0200901N002110450019N0040001N1+02561+01901102031ADDAA124002091GF105991031021008001041001KA1240N+02301MA1999999101971MD1999999-0051REMSYN082AAXX  03124 83398 22596 50904 10256 20190 30197 40203 83240 333 20230 59005 60024;
0167833980999992001090318004-15660-038920FM-12+000599999V0201401N002111050019N0040001N1+02561+01951101771ADDAA199000091GF105991021051008001041011MA1999999101711MD1999999-0051REMSYN070AAXX  03184 83398 32596 51404 10256 20195 30171 40177 82541 333 59005;EQDQ01  00002PRCP99
0198833980999992001090400004-15660-038920FM-12+000599999V0200501N004110450019N0010001N1+02331+01931101991ADDAA199000091GF106991041051008001041001KA1240M+02671MA1999999101931MD1999999-0061REMSYN088AAXX  04004 83398 32594 60508 10233 20193 30193 40199 84540 333 10267 29074 55051 59006;EQDQ01  00002PRCP99
0201833980999992001090412004-15660-038920FM-12+000599999V0202701N001010042019N0040001N1+02221+02071102021ADDAA124003091AY151061AY221061GF107991051051004501021001KA1240N+01941MA1999999101961MD1999999-0011MW1501REMSYN088AAXX  04124 83398 21496 72702 10222 20207 30196 40202 75052 85520 333 20194 59001 60034;
0182833980999992001090418004-15660-038920FM-12+000599999V0201801N002110075019N0040001N1+02501+02071101741ADDAA106002091AY161061AY221061GF107991051051008001021001MA1999999101681MD1999999-0031MW1021REMSYN082AAXX  04184 83398 21596 71804 10250 20207 30168 40174 70262 85520 333 59003 60021;
0179833980999992001090500004-15660-038920FM-12+000599999V0209999C000012200019N0010001N1+02101+01981101931ADDAA199000021GF104991021011008001041001KA1240M+02581MA1999999101871MD1999999-0061REMSYN088AAXX  05004 83398 32594 40000 10210 20198 30187 40193 82140 333 10258 29089 55007 59006;
0173833980999992001090512004-15660-038920FM-12+000599999V0201401N001010450019N0040001N1+02481+02171101961ADDAA124002091GF106991031051008001041001KA1240N+01801MA1999999101901MD1999999-0061REMSYN082AAXX  05124 83398 22596 61402 10248 20217 30190 40196 83540 333 20180 59006 60024;
0167833980999992001090518004-15660-038920FM-12+000599999V0200901N003110450019N0040001N1+02581+02011101681ADDAA199000091GF105991021051008001041001MA1999999101621MD1999999-0061REMSYN070AAXX  05184 83398 32596 50906 10258 20201 30162 40168 82540 333 59006;EQDQ01  00002PRCP99
0198833980999992001090600004-15660-038920FM-12+000599999V0209999C000010075019N0010001N1+02101+01961101911ADDAA199000091GF105991051051008001021001KA1240M+02691MA1999999101851MD1999999+0021REMSYN088AAXX  06004 83398 32594 50000 10210 20196 30185 40191 85520 333 10269 29085 55075 58002;EQDQ01  00002PRCP99
0186833980999992001090612004-15660-038920FM-12+000599999V0202301N001010450019N0040001N1+02481+01991101881ADDAA199000091GF105991021051008001041001KA1240N+01781MA1999999101821MD1999999-0081REMSYN076AAXX  06124 83398 32596 52302 10248 20199 30182 40188 82540 333 20178 59008;EQDQ01  00002PRCP99
0167833980999992001090618004-15660-038920FM-12+000599999V0202701N001010075019N0040001N1+02261+02121101631ADDAA199000091GF107991051051008001021001MA1999999101571MD1999999-0051REMSYN070AAXX  06184 83398 32596 72702 10226 20212 30157 40163 85520 333 59005;EQDQ01  00002PRCP99
0173833980999992001090712004-15660-038920FM-12+000599999V0201801N002110075019N0040001N1+02441+02011101791ADDAA124007191GF107991051051008001021001KA1240N+01901MA1999999101731MD1999999-0091REMSYN082AAXX  07124 83398 22596 71804 10244 20201 30173 40179 85520 333 20190 59009 60074;
0182833980999992001090718004-15660-038920FM-12+000599999V0200901N003110450019N0040001N1+02601+01991101481ADDAA106000591AY151061AY221061GF105991021051008001041001MA1999999101431MD1999999-0141MW1021REMSYN082AAXX  07184 83398 21596 50906 10260 20199 30143 40148 70252 82540 333 59014 69941;
0198833980999992001090800004-15660-038920FM-12+000599999V0202301N002112200019N0010001N1+02111+01951101731ADDAA199000091GF103991021011008001041001KA1240M+02621MA1999999101671MD1999999-0101REMSYN088AAXX  08004 83398 32594 32304 10211 20195 30167 40173 82140 333 10262 29082 55050 59010;EQDQ01  00002PRCP99
0201833980999992001090812004-15660-038920FM-12+000599999V0201801N002110450019N0040001N1+02381+01951101861ADDAA124001091AY151061AY221061GF106991031051008001041001KA1240N+01841MA1999999101801MD1999999+0071MW1021REMSYN088AAXX  08124 83398 21596 61804 10238 20195 30180 40186 70252 83540 333 20184 58007 69994;
0167833980999992001090818004-15660-038920FM-12+000599999V0200901N003111050019N0040001N1+02541+01861101481ADDAA199000091GF105991021051008001041011MA1999999101431MD1999999+0001REMSYN070AAXX  08184 83398 32596 50906 10254 20186 30143 40148 82541 333 58000;EQDQ01  00002PRCP99
0198833980999992001090900004-15660-038920FM-12+000599999V0200901N002112200019N0010001N1+02301+01961101701ADDAA199000091GF103991031011008001001001KA1240M+02681MA1999999101641MD1999999-0031REMSYN088AAXX  09004 83398 32594 30904 10230 20196 30164 40170 83100 333 10268 29076 55091 59003;EQDQ01  00002PRCP99
0186833980999992001090912004-15660-038920FM-12+000599999V0202701N001010450019N0040001N1+02421+02071101811ADDAA199000091GF106991021051008001041011KA1240N+01761MA1999999101751MD1999999-0051REMSYN076AAXX  09124 83398 32596 62702 10242 20207 30175 40181 82541 333 20176 59005;EQDQ01  00002PRCP99
0167833980999992001090918004-15660-038920FM-12+000599999V0200501N003111050019N0040001N1+02641+02031101471ADDAA199000091GF105991021021008001041011MA1999999101421MD1999999-0011REMSYN070AAXX  09184 83398 32596 50506 10264 20203 30142 40147 82241 333 59001;EQDQ01  00002PRCP99
0198833980999992001091000004-15660-038920FM-12+000599999V0200501N002112200019N0010001N1+02351+02051101751ADDAA199000091GF104991031021008001041001KA1240M+02701MA1999999101691MD1999999+0051REMSYN088AAXX  10004 83398 32594 40504 10235 20205 30169 40175 83240 333 10270 29079 55092 58005;EQDQ01  00002PRCP99
0186833980999992001091012004-15660-038920FM-12+000599999V0203601N001010450019N0040001N1+02531+02141101811ADDAA199000091GF106991041021008001041001KA1240N+01961MA1999999101751MD1999999+0001REMSYN076AAXX  10124 83398 32596 63602 10253 20214 30175 40181 84240 333 20196 58000;EQDQ01  00002PRCP99
0167833980999992001091018004-15660-038920FM-12+000599999V0200501N002112200019N0040001N1+02681+02021101541ADDAA199000091GF104991031021008001041001MA1999999101491MD1999999+0071REMSYN070AAXX  10184 83398 32596 40504 10268 20202 30149 40154 83240 333 58007;EQDQ01  00002PRCP99
0198833980999992001091100004-15660-038920FM-12+000599999V0200501N002112200019N0010001N1+02411+02111101661ADDAA199000091GF103991021011008001041001KA1240M+02811MA1999999101601MD1999999-0091REMSYN088AAXX  11004 83398 32594 30504 10241 20211 30160 40166 82140 333 10281 29078 55086 59009;EQDQ01  00002PRCP99
0186833980999992001091112004-15660-038920FM-12+000599999V0203601N003110450019N0040001N1+02721+02151101661ADDAA199000091GF105991031021008001041001KA1240N+01981MA1999999101601MD1999999-0151REMSYN076AAXX  11124 83398 32596 53606 10272 20215 30160 40166 83240 333 20198 59015;EQDQ01  00002PRCP99
0167833980999992001091118004-15660-038920FM-12+000599999V0203601N004111050019N0040001N1+02681+02181101151ADDAA199000091GF105991021021008001041011MA1999999101101MD1999999-0381REMSYN070AAXX  11184 83398 32596 53608 10268 20218 30110 40115 82241 333 59038;EQDQ01  00002PRCP99
0198833980999992001091200004-15660-038920FM-12+000599999V0200501N005110450019N0010001N1+02461+02191101281ADDAA199000091GF105991031021008001041001KA1240M+02821MA1999999101231MD1999999-0371REMSYN088AAXX  12004 83398 32594 50510 10246 20219 30123 40128 83240 333 10282 29079 55089 59037;EQDQ01  00002PRCP99
0186833980999992001091212004-15660-038920FM-12+000599999V0203601N003110450019N0040001N1+02681+02241101561ADDAA199000091GF106991041051008001021001KA1240N+02291MA1999999101511MD1999999-0091REMSYN076AAXX  12124 83398 32596 63606 10268 20224 30151 40156 84520 333 20229 59009;EQDQ01  00002PRCP99
0167833980999992001091218004-15660-038920FM-12+000599999V0200501N003110450019N0040001N1+02701+02281101391ADDAA199000091GF106991041051008001041001MA1999999101341MD1999999+0241REMSYN070AAXX  12184 83398 32596 60506 10270 20228 30134 40139 84540 333 58024;EQDQ01  00002PRCP99
0198833980999992001091300004-15660-038920FM-12+000599999V0202301N002110450019N0010001N1+02351+02261101821ADDAA199000091GF106991041051008001041001KA1240M+02821MA1999999101761MD1999999+0531REMSYN088AAXX  13004 83398 32594 62304 10235 20226 30176 40182 84540 333 10282 29086 55076 58053;EQDQ01  00002PRCP99
0186833980999992001091312004-15660-038920FM-12+000599999V0200901N002110450019N0040001N1+02561+02251102061ADDAA199000091GF106991041051008001041001KA1240N+02111MA1999999102001MD1999999+0491REMSYN076AAXX  13124 83398 32596 60904 10256 20225 30200 40206 84540 333 20211 58049;EQDQ01  00002PRCP99
0167833980999992001091318004-15660-038920FM-12+000599999V0200501N003110450019N0040001N1+02681+02241101661ADDAA199000091GF106991041051008001041001MA1999999101601MD1999999+0261REMSYN070AAXX  13184 83398 32596 60506 10268 20224 30160 40166 84540 333 58026;EQDQ01  00002PRCP99
0198833980999992001091400004-15660-038920FM-12+000599999V0200501N001012200019N0010001N1+02441+02091101891ADDAA199000091GF103991021021008001041001KA1240M+02751MA1999999101831MD1999999+0071REMSYN088AAXX  14004 83398 32594 30502 10244 20209 30183 40189 82240 333 10275 29081 55053 58007;EQDQ01  00002PRCP99
0186833980999992001091412004-15660-038920FM-12+000599999V0203601N002110450019N0040001N1+02561+02231101861ADDAA199000091GF105991041051008001041001KA1240N+01971MA1999999101801MD1999999-0201REMSYN076AAXX  14124 83398 32596 53604 10256 20223 30180 40186 84540 333 20197 59020;EQDQ01  00002PRCP99
0167833980999992001091418004-15660-038920FM-12+000599999V0200501N003110450019N0040001N1+02681+02181101511ADDAA199000091GF106991041051008001041001MA1999999101461MD1999999-0141REMSYN070AAXX  14184 83398 32596 60506 10268 20218 30146 40151 84540 333 59014;EQDQ01  00002PRCP99
0198833980999992001091500004-15660-038920FM-12+000599999V0200501N004110450019N0010001N1+02461+02071101591ADDAA199000091GF105991031051008001041001KA1240M+02781MA1999999101541MD1999999-0291REMSYN088AAXX  15004 83398 32594 50508 10246 20207 30154 40159 83540 333 10278 29079 55085 59029;EQDQ01  00002PRCP99
0186833980999992001091512004-15660-038920FM-12+000599999V0203601N003110450019N0040001N1+02701+02131101631ADDAA199000091GF106991031051008001041011KA1240N+02001MA1999999101571MD1999999-0231REMSYN076AAXX  15124 83398 32596 63606 10270 20213 30157 40163 83541 333 20200 59023;EQDQ01  00002PRCP99
0167833980999992001091518004-15660-038920FM-12+000599999V0200501N003110450019N0040001N1+02701+02081101231ADDAA199000091GF106991031021008001041011MA1999999101181MD1999999-0281REMSYN070AAXX  15184 83398 32596 60506 10270 20208 30118 40123 83241 333 59028;EQDQ01  00002PRCP99
0198833980999992001091600004-15660-038920FM-12+000599999V0200501N004110450019N0010001N1+02451+02071101391ADDAA199000091GF106991041021008001041001KA1240M+02791MA1999999101341MD1999999-0201REMSYN088AAXX  16004 83398 32594 60508 10245 20207 30134 40139 84240 333 10279 29075 55083 59020;EQDQ01  00002PRCP99
0186833980999992001091612004-15660-038920FM-12+000599999V0202701N001010450019N0040001N1+02541+02051101641ADDAA199000091GF106991031051008001041001KA1240N+02251MA1999999101581MD1999999+0011REMSYN076AAXX  16124 83398 32596 62702 10254 20205 30158 40164 83540 333 20225 58001;EQDQ01  00002PRCP99
0167833980999992001091618004-15660-038920FM-12+000599999V0200501N003110450019N0040001N1+02701+02221101221ADDAA199000091GF106991031021008001041011MA1999999101171MD1999999-0011REMSYN070AAXX  16184 83398 32596 60506 10270 20222 30117 40122 83241 333 59001;EQDQ01  00002PRCP99
0198833980999992001091700004-15660-038920FM-12+000599999V0203601N003110450019N0010001N1+02451+02131101471ADDAA199000091GF106991041021008001041001KA1240M+02891MA1999999101421MD1999999+0081REMSYN088AAXX  17004 83398 32594 63606 10245 20213 30142 40147 84240 333 10289 29079 55067 58008;EQDQ01  00002PRCP99
0186833980999992001091712004-15660-038920FM-12+000599999V0203201N002110450019N0040001N1+02721+02221101701ADDAA199000091GF107991041051008001021001KA1240N+02061MA1999999101641MD1999999+0061REMSYN076AAXX  17124 83398 32596 73204 10272 20222 30164 40170 84520 333 20206 58006;EQDQ01  00002PRCP99
0182833980999992001091718004-15660-038920FM-12+000599999V0201801N003110450019N0040001N1+02361+02131101461ADDAA106002091AY161061AY221061GF108991041071008001021999MA1999999101411MD1999999+0241MW1501REMSYN082AAXX  17184 83398 21596 81806 10236 20213 30141 40146 75062 8472/ 333 58024 60021;
0179833980999992001091800004-15660-038920FM-12+000599999V0202301N006210075019N0010001N1+01841+01641102011ADDAA199000021GF108991051051008001021999KA1240M+02831MA1999999101951MD1999999+0531REMSYN088AAXX  18004 83398 32594 82312 10184 20164 30195 40201 8552/ 333 10283 29084 55029 58053;
0201833980999992001091812004-15660-038920FM-12+000599999V0201801N002110042019N0040001N1+01961+01701102281ADDAA124006191AY151061AY221061GF108991051051004501021999KA1240N+01681MA1999999102221MD1999999+0581MW1021REMSYN088AAXX  18124 83398 21496 81804 10196 20170 30222 40228 70252 8552/ 333 20168 58058 60064;
0167833980999992001091818004-15660-038920FM-12+000599999V0202301N002110075019N0040001N1+01941+01681102031ADDAA199000091GF108991051051008001021999MA1999999101971MD1999999+0561REMSYN070AAXX  18184 83398 32596 82304 10194 20168 30197 40203 8552/ 333 58056;EQDQ01  00002PRCP99
0213833980999992001091900004-15660-038920FM-12+000599999V0202301N002110075019N0010001N1+01901+01751102221ADDAA106000191AY151061AY221061GF108991051051008001021999KA1240M+02011MA1999999102161MD1999999+0211MW1611REMSYN100AAXX  19004 83398 21594 82304 10190 20175 30216 40222 76152 8552/ 333 10201 29089 55000 58021 69911;
0201833980999992001091912004-15660-038920FM-12+000599999V0202301N002110042019N0040001N1+02101+01761102171ADDAA124000591AY151061AY221061GF108991051051004501021999KA1240N+01791MA1999999102111MD1999999-0111MW1021REMSYN088AAXX  19124 83398 21496 82304 10210 20176 30211 40217 70252 8552/ 333 20179 59011 69944;
0167833980999992001091918004-15660-038920FM-12+000599999V0201801N004110450019N0040001N1+02461+01711101941ADDAA199000091GF106991041051008001021001MA1999999101881MD1999999-0091REMSYN070AAXX  19184 83398 32596 61808 10246 20171 30188 40194 84520 333 59009;EQDQ01  00002PRCP99
0198833980999992001092000004-15660-038920FM-12+000599999V0202301N001010450019N0010001N1+02001+01661102121ADDAA199000091GF105991031051008001041001KA1240M+02551MA1999999102061MD1999999-0101REMSYN088AAXX  20004 83398 32594 52302 10200 20166 30206 40212 83540 333 10255 29077 55050 59010;EQDQ01  00002PRCP99
0201833980999992001092012004-15660-038920FM-12+000599999V0201801N002110450019N0040001N1+02261+01981102161ADDAA124005191AY161061AY221061GF107991041051004501021001KA1240N+01791MA1999999102101MD1999999-0011MW1011REMSYN088AAXX  20124 83398 21496 71804 10226 20198 30210 40216 70162 84520 333 20179 59001 60054;
0182833980999992001092018004-15660-038920FM-12+000599999V0201801N004110450019N0040001N1+02541+02001101841ADDAA106000191AY151061AY221061GF106991041051008001021001MA1999999101781MD1999999-0101MW1021REMSYN082AAXX  20184 83398 21596 61808 10254 20200 30178 40184 70252 84520 333 59010 69911;
0213833980999992001092100004-15660-038920FM-12+000599999V0202301N002110075019N0010001N1+02061+01961102031ADDAA106000391AY151061AY221061GF108991051071008001021999KA1240M+02621MA1999999101971MD1999999-0091MW1021REMSYN100AAXX  21004 83398 21594 82304 10206 20196 30197 40203 70252 8572/ 333 10262 29086 55048 59009 69931;
0189833980999992001092112004-15660-038920FM-12+000599999V0201401N002110450019N0040001N1+02501+01911102031ADDAY161061AY221061GF106991031051004501041041KA1240N+01981MA1999999101971MD1999999-0131MW1011REMSYN087AAXX  21124 83398 21496 61404 10250 20191 30197 40203 70162 83544 333 20198 59013 0124;
0167833980999992001092118004-15660-038920FM-12+000599999V0201801N003110450019N0040001N1+02601+01891101791ADDAA199000091GF105991021051008001041001MA1999999101731MD1999999-0051REMSYN070AAXX  21184 83398 32596 51806 10260 20189 30173 40179 82540 333 59005;EQDQ01  00002PRCP99
0198833980999992001092200004-15660-038920FM-12+000599999V0202301N002110075019N0010001N1+02041+01821102051ADDAA199000091GF107991051051008001041001KA1240M+02651MA1999999101991MD1999999+0021REMSYN088AAXX  22004 83398 32594 72304 10204 20182 30199 40205 85540 333 10265 29077 55096 58002;EQDQ01  00002PRCP99
0186833980999992001092212004-15660-038920FM-12+000599999V0201801N002110450019N0040001N1+02401+01991102091ADDAA199000091GF106991041051008001041001KA1240N+01881MA1999999102031MD1999999+0061REMSYN076AAXX  22124 83398 32596 61804 10240 20199 30203 40209 84540 333 20188 58006;EQDQ01  00002PRCP99
0167833980999992001092218004-15660-038920FM-12+000599999V0201401N003110075019N0040001N1+02541+01881101781ADDAA199000091GF107991051051008001021001MA1999999101721MD1999999-0011REMSYN070AAXX  22184 83398 32596 71406 10254 20188 30172 40178 85520 333 59001;EQDQ01  00002PRCP99
0198833980999992001092300004-15660-038920FM-12+000599999V0200901N003110075019N0010001N1+02171+01861102031ADDAA199000091GF107991051051008001021001KA1240M+02671MA1999999101971MD1999999-0021REMSYN088AAXX  23004 83398 32594 70906 10217 20186 30197 40203 85520 333 10267 29075 55056 59002;EQDQ01  00002PRCP99
0201833980999992001092312004-15660-038920FM-12+000599999V0200901N002110450019N0040001N1+02501+01911101991ADDAA124003091AY161061AY221061GF106991031051008001041001KA1240N+01961MA1999999101931MD1999999-0101MW1021REMSYN088AAXX  23124 83398 21596 60904 10250 20191 30193 40199 70262 83540 333 20196 59010 60034;
0167833980999992001092318004-15660-038920FM-12+000599999V0200501N003110450019N0040001N1+02561+01991101641ADDAA199000091GF106991031051008001041011MA1999999101581MD1999999-0141REMSYN070AAXX  23184 83398 32596 60506 10256 20199 30158 40164 83541 333 59014;EQDQ01  00002PRCP99
0198833980999992001092400004-15660-038920FM-12+000599999V0200501N002110450019N0010001N1+02271+01911101931ADDAA199000091GF106991041051008001021001KA1240M+02701MA1999999101871MD1999999-0101REMSYN088AAXX  24004 83398 32594 60504 10227 20191 30187 40193 84520 333 10270 29075 55069 59010;EQDQ01  00002PRCP99
0186833980999992001092412004-15660-038920FM-12+000599999V0200501N002112200019N0040001N1+02581+02011101901ADDAA199000091GF104991031021008001041001KA1240N+01961MA1999999101841MD1999999-0091REMSYN076AAXX  24124 83398 32596 40504 10258 20201 30184 40190 83240 333 20196 59009;EQDQ01  00002PRCP99
0182833980999992001092418004-15660-038920FM-12+000599999V0200901N003110450019N0040001N1+02501+02001101581ADDAA106002091AY161061AY221061GF106991041051008001021001MA1999999101531MD1999999-0051MW1021REMSYN082AAXX  24184 83398 21596 60906 10250 20200 30153 40158 70262 84520 333 59005 60021;
0198833980999992001092500004-15660-038920FM-12+000599999V0200501N002110450019N0010001N1+02431+01921101911ADDAA199000091GF107991031021008001031001KA1240M+02701MA1999999101851MD1999999-0021REMSYN088AAXX  25004 83398 32594 70504 10243 20192 30185 40191 83230 333 10270 29073 55043 59002;EQDQ01  00002PRCP99
0201833980999992001092512004-15660-038920FM-12+000599999V0200501N002110042019N0040001N1+02501+02051101951ADDAA124010991AY161061AY221061GF107991051051004501021001KA1240N+02061MA1999999101891MD1999999+0051MW1021REMSYN088AAXX  25124 83398 21496 70504 10250 20205 30189 40195 70262 85520 333 20206 58005 60114;
0167833980999992001092518004-15660-038920FM-12+000599999V0200901N003110450019N0040001N1+02641+02031101591ADDAA199000091GF105991041051008001041001MA1999999101541MD1999999+0011REMSYN070AAXX  25184 83398 32596 50906 10264 20203 30154 40159 84540 333 58001;EQDQ01  00002PRCP99
0198833980999992001092600004-15660-038920FM-12+000599999V0200501N003110075019N0010001N1+02441+01901101891ADDAA199000091GF107991051051008001041001KA1240M+02751MA1999999101831MD1999999-0021REMSYN088AAXX  26004 83398 32594 70506 10244 20190 30183 40189 85540 333 10275 29072 55093 59002;EQDQ01  00002PRCP99
0186833980999992001092612004-15660-038920FM-12+000599999V0200901N002110450019N0040001N1+02631+02061101921ADDAA199000091GF106991041021008001041001KA1240N+01881MA1999999101861MD1999999-0031REMSYN076AAXX  26124 83398 32596 60904 10263 20206 30186 40192 84240 333 20188 59003;EQDQ01  00002PRCP99
0167833980999992001092618004-15660-038920FM-12+000599999V0200901N003110450019N0040001N1+02641+02001101491ADDAA199000091GF105991031021008001041011MA1999999101441MD1999999-0101REMSYN070AAXX  26184 83398 32596 50906 10264 20200 30144 40149 83241 333 59010;EQDQ01  00002PRCP99
0198833980999992001092700004-15660-038920FM-12+000599999V0200501N001012200019N0010001N1+02371+02071101621ADDAA199000091GF103991021011008001041001KA1240M+02751MA1999999101561MD1999999-0271REMSYN088AAXX  27004 83398 32594 30502 10237 20207 30156 40162 82140 333 10275 29076 55105 59027;EQDQ01  00002PRCP99
0186833980999992001092712004-15660-038920FM-12+000599999V0203601N004110450019N0040001N1+02681+02111101761ADDAA199000091GF106991041051008001041001KA1240N+01911MA1999999101701MD1999999-0161REMSYN076AAXX  27124 83398 32596 63608 10268 20211 30170 40176 84540 333 20191 59016;EQDQ01  00002PRCP99
0167833980999992001092718004-15660-038920FM-12+000599999V0200501N003112200019N0040001N1+02641+02161101411ADDAA199000091GF102991011011008001041001MA1999999101361MD1999999-0081REMSYN070AAXX  27184 83398 32596 20506 10264 20216 30136 40141 81140 333 59008;EQDQ01  00002PRCP99
0198833980999992001092800004-15660-038920FM-12+000599999V0200901N002112200019N0010001N1+02441+02191101711ADDAA199000091GF104991031011008001041001KA1240M+02761MA1999999101651MD1999999+0091REMSYN088AAXX  28004 83398 32594 40904 10244 20219 30165 40171 83140 333 10276 29080 55104 58009;EQDQ01  00002PRCP99
0186833980999992001092812004-15660-038920FM-12+000599999V0200501N002110450019N0040001N1+02621+02231101931ADDAA199000091GF105991031021008001041001KA1240N+02031MA1999999101851MD1999999+0171REMSYN076AAXX  28124 83398 32596 50504 10262 20223 30185 40193 83240 333 20203 58017;EQDQ01  00002PRCP99
0167833980999992001092818004-15660-038920FM-12+000599999V0200501N003110450019N0040001N1+02621+02161101661ADDAA199000091GF106991041051008001021001MA1999999101601MD1999999+0241REMSYN070AAXX  28184 83398 32596 60506 10262 20216 30160 40166 84520 333 58024;EQDQ01  00002PRCP99
0198833980999992001092900004-15660-038920FM-12+000599999V0200901N001012200019N0010001N1+02451+02071101881ADDAA199000091GF103991021011008001041001KA1240M+02781MA1999999101821MD1999999+0171REMSYN088AAXX  29004 83398 32594 30902 10245 20207 30182 40188 82140 333 10278 29078 55097 58017;EQDQ01  00002PRCP99
0186833980999992001092912004-15660-038920FM-12+000599999V0201401N002110450019N0040001N1+02701+02111102031ADDAA199000091GF106991041051008001021001KA1240N+01921MA1999999101971MD1999999+0101REMSYN076AAXX  29124 83398 32596 61404 10270 20211 30197 40203 84520 333 20192 58010;EQDQ01  00002PRCP99
0167833980999992001092918004-15660-038920FM-12+000599999V0200901N003110450019N0040001N1+02681+02161101751ADDAA199000091GF105991031051008001041001MA1999999101691MD1999999+0091REMSYN070AAXX  29184 83398 32596 50906 10268 20216 30169 40175 83540 333 58009;EQDQ01  00002PRCP99
0143833980999992001093000004-15660-038920FM-12+000599999V0200801N001010450019N0010001N1+02341+02171102001ADDAA199000091GF106991041051008001021001MA1999999101941REMSYN060AAXX  30004 83398 32594 60802 10234 20217 30194 40200 84520;EQDQ01  00002PRCP99
0201833980999992001093012004-15660-038920FM-12+000599999V0202301N002110075019N0040001N1+02361+02131102081ADDAA124003091AY161061AY221061GF107991051051008001021001KA1240N+02121MA1999999102021MD1999999+0051MW1021REMSYN088AAXX  30124 83398 21596 72304 10236 20213 30202 40208 70262 85520 333 20212 58005 60034;
0182833980999992001093018004-15660-038920FM-12+000599999V0201401N002110075019N0040001N1+01361+99999101781ADDAA106036191AY161061AY221061GF107991051051008001021001MA1999999101721MD1999999+0031MW1511REMSYN082AAXX  30184 83398 21596 71404 10136 20219 30172 40178 75162 85520 333 58003 60361;
0201833980999992001100112004-15660-038920FM-12+000599999V0202301N001010450019N0040001N1+02411+02201102061ADDAA124052191AY161061AY221061GF106991031051004501051001KA1240N+02001MA1999999102001MD1999999-0021MW1021REMSYN088AAXX  01124 83398 21496 62302 10241 20220 30200 40206 70262 83550 333 20200 59002 60524;
0167833980999992001100118004-15660-038920FM-12+000599999V0200501N003110450019N0040001N1+02721+02121101621ADDAA199000091GF106991031051008001041011MA1999999101561MD1999999-0161REMSYN070AAXX  01184 83398 32596 60506 10272 20212 30156 40162 83541 333 59016;EQDQ01  00002PRCP99
0198833980999992001100200004-15660-038920FM-12+000599999V0200501N002112200019N0010001N1+02421+02191101821ADDAA199000091GF103991021011008001041001KA1240M+02761MA1999999101761MD1999999-0141REMSYN088AAXX  02004 83398 32594 30504 10242 20219 30176 40182 82140 333 10276 29083 55069 59014;EQDQ01  00002PRCP99
0186833980999992001100212004-15660-038920FM-12+000599999V0203601N002110450019N0040001N1+02701+02171101911ADDAA199000091GF105991031021008001041001KA1240N+01981MA1999999101851MD1999999-0151REMSYN076AAXX  02124 83398 32596 53604 10270 20217 30185 40191 83240 333 20198 59015;EQDQ01  00002PRCP99
0167833980999992001100218004-15660-038920FM-12+000599999V0200501N003112200019N0040001N1+02681+02161101611ADDAA199000091GF103991021021008001041001MA1999999101551MD1999999-0011REMSYN070AAXX  02184 83398 32596 30506 10268 20216 30155 40161 82240 333 59001;EQDQ01  00002PRCP99
0198833980999992001100300004-15660-038920FM-12+000599999V0203601N003112200019N0010001N1+02481+02191101751ADDAA199000091GF103991021011008001041001KA1240M+02821MA1999999101691MD1999999-0071REMSYN088AAXX  03004 83398 32594 33606 10248 20219 30169 40175 82140 333 10282 29079 55107 59007;EQDQ01  00002PRCP99
0186833980999992001100312004-15660-038920FM-12+000599999V0203601N002112200019N0040001N1+02721+02191102051ADDAA199000091GF104991031021008001041001KA1240N+02181MA1999999101991MD1999999+0141REMSYN076AAXX  03124 83398 32596 43604 10272 20219 30199 40205 83240 333 20218 58014;EQDQ01  00002PRCP99
0167833980999992001100318004-15660-038920FM-12+000599999V0200501N004110450019N0040001N1+02741+02211101671ADDAA199000091GF106991021051008001041011MA1999999101611MD1999999+0061REMSYN070AAXX  03184 83398 32596 60508 10274 20221 30161 40167 82541 333 58006;EQDQ01  00002PRCP99
0198833980999992001100400004-15660-038920FM-12+000599999V0203601N002110450019N0010001N1+02481+02211101811ADDAA199000091GF105991021011008001041001KA1240M+02841MA1999999101751MD1999999+0061REMSYN088AAXX  04004 83398 32594 53604 10248 20221 30175 40181 82140 333 10284 29079 55093 58006;EQDQ01  00002PRCP99
0186833980999992001100412004-15660-038920FM-12+000599999V0203601N003112200019N0040001N1+02781+02251101781ADDAA199000091GF104991031021008001041001KA1240N+02251MA1999999101721MD1999999-0271REMSYN076AAXX  04124 83398 32596 43606 10278 20225 30172 40178 83240 333 20225 59027;EQDQ01  00002PRCP99
0167833980999992001100418004-15660-038920FM-12+000599999V0200501N004111050019N0040001N1+02751+02321101481ADDAA199000091GF105991021051008001041011MA1999999101431MD1999999-0181REMSYN070AAXX  04184 83398 32596 50508 10275 20232 30143 40148 82541 333 59018;EQDQ01  00002PRCP99
0198833980999992001100500004-15660-038920FM-12+000599999V0200501N003112200019N0010001N1+02481+02271101561ADDAA199000091GF102991021011008001001001KA1240M+02881MA1999999101511MD1999999-0241REMSYN088AAXX  05004 83398 32594 20506 10248 20227 30151 40156 82100 333 10288 29082 55102 59024;EQDQ01  00002PRCP99
0186833980999992001100512004-15660-038920FM-12+000599999V0203601N002110450019N0040001N1+02781+02231101701ADDAA199000091GF105991031021008001041001KA1240N+02241MA1999999101641MD1999999-0081REMSYN076AAXX  05124 83398 32596 53604 10278 20223 30164 40170 83240 333 20224 59008;EQDQ01  00002PRCP99
0167833980999992001100518004-15660-038920FM-12+000599999V0203601N005111050019N0040001N1+02761+02161101301ADDAA199000091GF105991021021008001041011MA1999999101251MD1999999-0181REMSYN070AAXX  05184 83398 32596 53610 10276 20216 30125 40130 82241 333 59018;EQDQ01  00002PRCP99
0198833980999992001100600004-15660-038920FM-12+000599999V0200501N003112200019N0010001N1+02501+02231101431ADDAA199000091GF104991021021008001041001KA1240M+02921MA1999999101381MD1999999-0131REMSYN088AAXX  06004 83398 32594 40506 10250 20223 30138 40143 82240 333 10292 29078 55099 59013;EQDQ01  00002PRCP99
0186833980999992001100612004-15660-038920FM-12+000599999V0203601N003110450019N0040001N1+02761+02141101721ADDAA199000091GF105991031051008001041001KA1240N+02251MA1999999101661MD1999999+0021REMSYN076AAXX  06124 83398 32596 53606 10276 20214 30166 40172 83540 333 20225 58002;EQDQ01  00002PRCP99
0167833980999992001100618004-15660-038920FM-12+000599999V0200501N004111050019N0040001N1+02841+02261101381ADDAA199000091GF105991021021008001041011MA1999999101331MD1999999+0081REMSYN070AAXX  06184 83398 32596 50508 10284 20226 30133 40138 82241 333 58008;EQDQ01  00002PRCP99
0186833980999992001100712004-15660-038920FM-12+000599999V0200501N003110450019N0040001N1+02741+02211101761ADDAA199000091GF105991031021008001041001KA1240N+02121MA1999999101701MD1999999+0041REMSYN076AAXX  07124 83398 32596 50506 10274 20221 30170 40176 83240 333 20212 58004;EQDQ01  00002PRCP99
0167833980999992001100718004-15660-038920FM-12+000599999V0200901N003111050019N0040001N1+02801+02181101401ADDAA199000091GF105991021021008001041011MA1999999101351MD1999999+0021REMSYN070AAXX  07184 83398 32596 50906 10280 20218 30135 40140 82241 333 58002;EQDQ01  00002PRCP99
0214833980999992001100800004-15660-038920FM-12+000599999V0200501N002112200019N0010001N1+02501+02191101681ADDAA199000091GF104991999011008001001001KA1240M+02871MA1999999101621MD1999999+0031REMSYN088AAXX  08004 83398 32594 40504 10250 20219 30162 40168 83100 333 10287 29077 55099 58003;EQDQ01+000032SCOTLCQ02  00002PRCP99
0186833980999992001100812004-15660-038920FM-12+000599999V0202301N002110450019N0040001N1+02471+02261101781ADDAA199000091GF107991041051008001021001KA1240N+02191MA1999999101721MD1999999+0021REMSYN076AAXX  08124 83398 32596 72304 10247 20226 30172 40178 84520 333 20219 58002;EQDQ01  00002PRCP99
0167833980999992001100818004-15660-038920FM-12+000599999V0201801N003110075019N0040001N1+02541+02171101491ADDAA199000091GF108991051051008001021999MA1999999101441MD1999999+0091REMSYN070AAXX  08184 83398 32596 81806 10254 20217 30144 40149 8552/ 333 58009;EQDQ01  00002PRCP99
0198833980999992001100900004-15660-038920FM-12+000599999V0202301N001010075019N0010001N1+02291+02181101721ADDAA199000091GF107991051051008001021001KA1240M+02801MA1999999101661MD1999999+0041REMSYN088AAXX  09004 83398 32594 72302 10229 20218 30166 40172 85520 333 10280 29089 55013 58004;EQDQ01  00002PRCP99
0201833980999992001100912004-15660-038920FM-12+000599999V0201801N002110042019N0040001N1+02291+02171101731ADDAA124026991AY161061AY221061GF108991051071004501021999KA1240N+02201MA1999999101671MD1999999-0051MW1601REMSYN088AAXX  09124 83398 21496 81804 10229 20217 30167 40173 76062 8572/ 333 20220 59005 60274;
0182833980999992001100918004-15660-038920FM-12+000599999V0201801N002110075019N0040001N1+02401+01991101471ADDAA106003091AY161061AY221061GF108991051051008001021999MA1999999101421MD1999999-0021MW1021REMSYN082AAXX  09184 83398 21596 81804 10240 20199 30142 40147 70262 8552/ 333 59002 60031;
0213833980999992001101000004-15660-038920FM-12+000599999V0200901N001010075019N0010001N1+02221+02121101731ADDAA106003091AY161061AY221061GF108991051071008001021999KA1240M+02441MA1999999101671MD1999999+0011MW1611REMSYN100AAXX  10004 83398 21594 80902 10222 20212 30167 40173 76162 8572/ 333 10244 29090 55000 58001 60031;
0201833980999992001101012004-15660-038920FM-12+000599999V0200901N002110042019N0040001N1+02321+02131101751ADDAA124013091AY161061AY221061GF108991061071004501021999KA1240N+02141MA1999999101691MD1999999+0021MW1601REMSYN088AAXX  10124 83398 21496 80904 10232 20213 30169 40175 76062 8672/ 333 20214 58002 60134;
0182833980999992001101018004-15660-038920FM-12+000599999V0200901N002110075019N0040001N1+02281+02141101531ADDAA106021191AY161061AY221061GF108991051071008001021999MA1999999101481MD1999999+0061MW1611REMSYN082AAXX  10184 83398 21596 80904 10228 20214 30148 40153 76162 8572/ 333 58006 60211;
0213833980999992001101100004-15660-038920FM-12+000599999V0201401N003110075019N0010001N1+02241+02141101821ADDAA106015091AY161061AY221061GF108991051071008001021999KA1240M+02401MA1999999101761MD1999999+0091MW1611REMSYN100AAXX  11004 83398 21594 81406 10224 20214 30176 40182 76162 8572/ 333 10240 29092 55000 58009 60151;
0201833980999992001101112004-15660-038920FM-12+000599999V0201401N002110450019N0040001N1+02471+02021101991ADDAA124046091AY161061AY221061GF107991041051004501021001KA1240N+02021MA1999999101931MD1999999+0241MW1601REMSYN088AAXX  11124 83398 21496 71404 10247 20202 30193 40199 76062 84520 333 20202 58024 60464;
0148833980999992001101118004-15660-038920FM-12+000599999V0201401N002110450019N0040001N1+02461+01971101741ADDAA199000021GF107991041051008001021001MA1999999101681MD1999999+0201REMSYN070AAXX  11184 83398 32596 71404 10246 20197 30168 40174 84520 333 58020;
0179833980999992001101200004-15660-038920FM-12+000599999V0201401N001010450019N0010001N1+02341+01691101901ADDAA199000021GF107991041051008001021001KA1240M+02681MA1999999101841MD1999999+0081REMSYN088AAXX  12004 83398 32594 71402 10234 20169 30184 40190 84520 333 10268 29071 55015 58008;
0201833980999992001101212004-15660-038920FM-12+000599999V0200901N002110450019N0040001N1+02541+01931101971ADDAA124000191AY151061AY221061GF106991041051008001021001KA1240N+02141MA1999999101911MD1999999-0021MW1021REMSYN088AAXX  12124 83398 21596 60904 10254 20193 30191 40197 70252 84520 333 20214 59002 69914;
0167833980999992001101218004-15660-038920FM-12+000599999V0200901N003110450019N0040001N1+02581+01871101761ADDAA199000091GF106991041051008001021001MA1999999101701MD1999999+0021REMSYN070AAXX  12184 83398 32596 60906 10258 20187 30170 40176 84520 333 58002;EQDQ01  00002PRCP99
0198833980999992001101300004-15660-038920FM-12+000599999V0209999C000010450019N0010001N1+02141+01861102051ADDAA199000091GF105991031021008001041001KA1240M+02681MA1999999101991MD1999999+0051REMSYN088AAXX  13004 83398 32594 50000 10214 20186 30199 40205 83240 333 10268 29076 55082 58005;EQDQ01  00002PRCP99
0186833980999992001101312004-15660-038920FM-12+000599999V0201401N002110450019N0040001N1+02361+01951101071ADDAA199000091GF105991031021008001041001KA1240N+01841MA1999999102011MD1999999+0101REMSYN076AAXX  13124 83398 32596 51404 10236 20195 30201 40107 83240 333 20184 58010;EQDQ01  00002PRCP99
0182833980999992001101318004-15660-038920FM-12+000599999V0201401N002110450019N0040001N1+02321+02071101751ADDAA106001091AY151061AY221061GF106991031051004501041041MA1999999101691MD1999999-0011MW1501REMSYN082AAXX  13184 83398 21496 61404 10232 20207 30169 40175 75052 83544 333 59001 69991;
0179833980999992001101400004-15660-038920FM-12+000599999V0201401N002110450019N0010001N1+02341+01851101891ADDAA199000021GF106991041051008001041001KA1240M+02661MA1999999101831MD1999999-0101REMSYN088AAXX  14004 83398 32594 61404 10234 20185 30183 40189 84540 333 10266 29078 55061 59010;
0173833980999992001101412004-15660-038920FM-12+000599999V0201801N003110450019N0040001N1+02501+01911102001ADDAA106001091GF107991041051008001021001KA1240N+01941MA1999999101941MD1999999-0071REMSYN082AAXX  14124 83398 22596 71806 10250 20191 30194 40200 84520 333 20194 59007 60011;
0167833980999992001101418004-15660-038920FM-12+000599999V0201801N003110075019N0040001N1+02641+01771101651ADDAA199000091GF107991051051008001021001MA1999999101591MD1999999-0101REMSYN070AAXX  14184 83398 32596 71806 10264 20177 30159 40165 85520 333 59010;EQDQ01  00002PRCP99
0198833980999992001101500004-15660-038920FM-12+000599999V0209999C000010075019N0010001N1+02201+01881101811ADDAA199000091GF108991051051008001021999KA1240M+02721MA1999999101751MD1999999-0081REMSYN088AAXX  15004 83398 32594 80000 10220 20188 30175 40181 8552/ 333 10272 29073 55054 59008;EQDQ01  00002PRCP99
0186833980999992001101512004-15660-038920FM-12+000599999V0201801N003110075019N0040001N1+02491+01801101821ADDAA199000091GF107991051051008001021001KA1240N+01961MA1999999101761MD1999999-0181REMSYN076AAXX  15124 83398 32596 71806 10249 20180 30176 40182 85520 333 20196 59018;EQDQ01  00002PRCP99
0167833980999992001101518004-15660-038920FM-12+000599999V0202301N002110075019N0040001N1+02401+01931101611ADDAA199000091GF108991051021008001999999MA1999999101551MD1999999-0041REMSYN070AAXX  15184 83398 32596 82304 10240 20193 30155 40161 852// 333 59004;EQDQ01  00002PRCP99
0213833980999992001101600004-15660-038920FM-12+000599999V0201801N002110075019N0010001N1+01981+01791101851ADDAA106000191AY151061AY221061GF108991051071008001021999KA1240M+02691MA1999999101791MD1999999+0041MW1501REMSYN100AAXX  16004 83398 21594 81804 10198 20179 30179 40185 75052 8572/ 333 10269 29080 55002 58004 69911;
0201833980999992001101612004-15660-038920FM-12+000599999V0202301N002110042019N0040001N1+02061+01891101851ADDAA124001091AY151061AY221061GF108991051071004501021999KA1240N+01901MA1999999101791MD1999999+0031MW1021REMSYN088AAXX  16124 83398 21496 82304 10206 20189 30179 40185 70252 8572/ 333 20190 58003 60014;
0182833980999992001101618004-15660-038920FM-12+000599999V0201801N003110042019N0040001N1+02101+01951101571ADDAA106003091AY161061AY221061GF108991051071004501021999MA1999999101521MD1999999-0031MW1511REMSYN082AAXX  16184 83398 21496 81806 10210 20195 30152 40157 75162 8572/ 333 59003 60031;
0213833980999992001101700004-15660-038920FM-12+000599999V0209999C000010042019N0010001N1+02061+01931101641ADDAA106006191AY161061AY221061GF108991061071004501021999KA1240M+02261MA1999999101581MD1999999-0211MW1601REMSYN100AAXX  17004 83398 21494 80000 10206 20193 30158 40164 76062 8672/ 333 10226 29091 55000 59021 60061;
0201833980999992001101712004-15660-038920FM-12+000599999V0202701N002110042019N0040001N1+02201+01971101711ADDAA124015091AY161061AY221061GF108991051051004501021999KA1240N+01951MA1999999101651MD1999999-0141MW1021REMSYN088AAXX  17124 83398 21496 82704 10220 20197 30165 40171 70262 8552/ 333 20195 59014 60154;
0167833980999992001101718004-15660-038920FM-12+000599999V0200901N002110450019N0040001N1+02441+02091101321ADDAA199000091GF107991041051008001021001MA1999999101271MD1999999-0251REMSYN070AAXX  17184 83398 32596 70904 10244 20209 30127 40132 84520 333 59025;EQDQ01  00002PRCP99
0198833980999992001101800004-15660-038920FM-12+000599999V0209999C000010450019N0010001N1+02281+02111101421ADDAA199000091GF107991041051008001021001KA1240M+02541MA1999999101371MD1999999-0211REMSYN088AAXX  18004 83398 32594 70000 10228 20211 30137 40142 84520 333 10254 29087 55000 59021;EQDQ01  00002PRCP99
0201833980999992001101812004-15660-038920FM-12+000599999V0209999C000010042019N0040001N1+02291+02151101461ADDAA124001091AY151061AY221061GF108991061071004501021999KA1240N+02051MA1999999101411MD1999999+0241MW1501REMSYN088AAXX  18124 83398 21496 80000 10229 20215 30141 40146 75052 8672/ 333 20205 58024 69994;
0182833980999992001101818004-15660-038920FM-12+000599999V0201801N001010075019N0040001N1+02481+02231101191ADDAA106002091AY161061AY221061GF108991051051008001021999MA1999999101141MD1999999-0131MW1021REMSYN082AAXX  18184 83398 21596 81802 10248 20223 30114 40119 70262 8552/ 333 59013 60021;
0213833980999992001101900004-15660-038920FM-12+000599999V0201801N001010075019N0010001N1+02271+02101101421ADDAA106000891AY151061AY221061GF108991051071008001021999KA1240M+02621MA1999999101371MD1999999+0001MW1501REMSYN100AAXX  19004 83398 21594 81802 10227 20210 30137 40142 75052 8572/ 333 10262 29090 55000 58000 69971;
0201833980999992001101912004-15660-038920FM-12+000599999V0200501N001010042019N0040001N1+02281+02141101461ADDAA124008991AY161061AY221061GF108991051051004501021999KA1240N+02051MA1999999101411MD1999999+0001MW1021REMSYN088AAXX  19124 83398 21496 80502 10228 20214 30141 40146 70262 8552/ 333 20205 58000 60094;
0182833980999992001101918004-15660-038920FM-12+000599999V0200901N001010075019N0040001N1+02401+02231101101ADDAA106000391AY151061AY221061GF108991051051008001021999MA1999999101051MD1999999-0091MW1021REMSYN082AAXX  19184 83398 21596 80902 10240 20223 30105 40110 70252 8552/ 333 59009 69931;
0198833980999992001102000004-15660-038920FM-12+000599999V0209999C000010450019N0010001N1+02411+02221101351ADDAA199000091GF106991031051008001021001KA1240M+02571MA1999999101301MD1999999-0071REMSYN088AAXX  20004 83398 32594 60000 10241 20222 30130 40135 83520 333 10257 29090 55000 59007;EQDQ01  00002PRCP99
0201833980999992001102012004-15660-038920FM-12+000599999V0200501N003110075019N0040001N1+02601+02331101361ADDAA124000591AY151061AY221061GF108991051051008001021999KA1240N+02201MA1999999101311MD1999999-0101MW1021REMSYN088AAXX  20124 83398 21596 80506 10260 20233 30131 40136 70252 8552/ 333 20220 59010 69954;
0182833980999992001102018004-15660-038920FM-12+000599999V0200501N003110075019N0040001N1+02641+02311101111ADDAA106000391AY151061AY221061GF108991051051008001021999MA1999999101061MD1999999+0011MW1021REMSYN082AAXX  20184 83398 21596 80506 10264 20231 30106 40111 70252 8552/ 333 58001 69931;
0198833980999992001102100004-15660-038920FM-12+000599999V0200501N002110075019N0010001N1+02561+02351101241ADDAA199000091GF108991051051008001021999KA1240M+02791MA1999999101191MD1999999-0111REMSYN088AAXX  21004 83398 32594 80504 10256 20235 30119 40124 8552/ 333 10279 29086 55000 59011;EQDQ01  00002PRCP99
0173833980999992001102112004-15660-038920FM-12+000599999V0203601N003110450019N0040001N1+02761+02401101361ADDAA124000391GF106991041051008001041001KA1240N+02301MA1999999101311MD1999999+0001REMSYN082AAXX  21124 83398 22596 63606 10276 20240 30131 40136 84540 333 20230 58000 69934;
0167833980999992001102118004-15660-038920FM-12+000599999V0203601N005110450019N0040001N1+02741+02321101061ADDAA199000091GF106991031051008001041011MA1999999101011MD1999999-0051REMSYN070AAXX  21184 83398 32596 63610 10274 20232 30101 40106 83541 333 59005;EQDQ01  00002PRCP99
0198833980999992001102200004-15660-038920FM-12+000599999V0200501N002110450019N0040001N1+02541+02291101131ADDAA199000091GF106991041051008001021001KA1240M+02841MA1999999101081MD1999999-0111REMSYN088AAXX  22004 83398 32596 60504 10254 20229 30108 40113 84520 333 10284 29083 55000 59011;EQDQ01  00002PRCP99
0186833980999992001102212004-15660-038920FM-12+000599999V0203601N004110450019N0040001N1+02741+02361101271ADDAA199000091GF107991041051008001021001KA1240N+02391MA1999999101221MD1999999-0091REMSYN076AAXX  22124 83398 32596 73608 10274 20236 30122 40127 84520 333 20239 59009;EQDQ01  00002PRCP99
0167833980999992001102218004-15660-038920FM-12+000599999V0203601N005110450019N0040001N1+02741+02301100951ADDAA199000091GF106991031051008001041011MA1999999100901MD1999999-0111REMSYN070AAXX  22184 83398 32596 63610 10274 20230 30090 40095 83541 333 59011;EQDQ01  00002PRCP99
0198833980999992001102300004-15660-038920FM-12+000599999V0203601N002110450019N0010001N1+02541+02331101091ADDAA199000091GF106991041051008001021001KA1240M+02851MA1999999101041MD1999999-0141REMSYN088AAXX  23004 83398 32594 63604 10254 20233 30104 40109 84520 333 10285 29084 55058 59014;EQDQ01  00002PRCP99
0186833980999992001102312004-15660-038920FM-12+000599999V0203601N002110450019N0040001N1+02721+02281101511ADDAA199000091GF106991031051008001051001KA1240N+02371MA1999999101461MD1999999+0241REMSYN076AAXX  23124 83398 32596 63604 10272 20228 30146 40151 83550 333 20237 58024;EQDQ01  00002PRCP99
0167833980999992001102318004-15660-038920FM-12+000599999V0200501N003110450019N0040001N1+02741+02171101181ADDAA199000091GF106991031051008001041001MA1999999101131MD1999999+0231REMSYN070AAXX  23184 83398 32596 60506 10274 20217 30113 40118 83540 333 58023;EQDQ01  00002PRCP99
0198833980999992001102400004-15660-038920FM-12+000599999V0200501N001011050019N0010001N1+02511+02261101591ADDAA199000091GF105991021021008001051041KA1240M+02871MA1999999101541MD1999999+0501REMSYN088AAXX  24004 83398 32594 50502 10251 20226 30154 40159 82254 333 10287 29080 55064 58050;EQDQ01  00002PRCP99
0167833980999992001102418004-15660-038920FM-12+000599999V0200501N003110450019N0040001N1+02701+02301101641ADDAA199000091GF106991041051008001021001MA1999999101581MD1999999+0451REMSYN070AAXX  24184 83398 32596 60506 10270 20230 30158 40164 84520 333 58045;EQDQ01  00002PRCP99
0198833980999992001102500004-15660-038920FM-12+000599999V0200901N002110450019N0010001N1+02541+02251102031ADDAA199000091GF105991031051008001041001KA1240M+02841MA1999999101971MD1999999+0431REMSYN088AAXX  25004 83398 32594 50904 10254 20225 30197 40203 83540 333 10284 29083 55067 58043;EQDQ01  00002PRCP99
0201833980999992001102512004-15660-038920FM-12+000599999V0201401N002110450019N0040001N1+02631+02221101981ADDAA124004191AY151061AY221061GF105991031051004501041001KA1240N+02181MA1999999101921MD1999999+0121MW1501REMSYN088AAXX  25124 83398 21496 51404 10263 20222 30192 40198 75052 83540 333 20218 58012 60044;
0148833980999992001102518004-15660-038920FM-12+000599999V0201401N002110450019N0040001N1+02641+02231101761ADDAA199000021GF106991041051008001021001MA1999999101701MD1999999+0121REMSYN070AAXX  25184 83398 32596 61404 10264 20223 30170 40176 84520 333 58012;
0213833980999992001102600004-15660-038920FM-12+000599999V0201801N001010450019N0010001N1+02321+02151102051ADDAA106002091AY151061AY221061GF106991041051004501021001KA1240M+02841MA1999999101991MD1999999+0021MW1021REMSYN100AAXX  26004 83398 21494 61802 10232 20215 30199 40205 70252 84520 333 10284 29084 55054 58002 60021;
0201833980999992001102612004-15660-038920FM-12+000599999V0201401N003110450019N0040001N1+02461+02131101901ADDAA124011991AY161061AY221061GF107991041051008001021001KA1240N+02021MA1999999101841MD1999999-0081MW1021REMSYN088AAXX  26124 83398 21596 71406 10246 20213 30184 40190 70262 84520 333 20202 59008 60124;
0167833980999992001102618004-15660-038920FM-12+000599999V0201401N004110075019N0040001N1+02421+01881101701ADDAA199000091GF108991051051008001021999MA1999999101641MD1999999-0061REMSYN070AAXX  26184 83398 32596 81408 10242 20188 30164 40170 8552/ 333 59006;EQDQ01  00002PRCP99
0198833980999992001102700004-15660-038920FM-12+000599999V0202301N001010450019N0010001N1+02241+01841101901ADDAA199000091GF105991031011008001041001KA1240M+02701MA1999999101841MD1999999-0151REMSYN088AAXX  27004 83398 32594 52302 10224 20184 30184 40190 83140 333 10270 29078 55024 59015;EQDQ01  00002PRCP99
0186833980999992001102712004-15660-038920FM-12+000599999V0201801N002110450019N0040001N1+02511+01901101891ADDAA199000091GF105991031021008001041001KA1240N+01801MA1999999101831MD1999999-0011REMSYN076AAXX  27124 83398 32596 51804 10251 20190 30183 40189 83240 333 20180 59001;EQDQ01  00002PRCP99
0167833980999992001102718004-15660-038920FM-12+000599999V0200901N002112200019N0040001N1+02621+01781101421ADDAA199000091GF104991031021008001041001MA1999999101371MD1999999-0071REMSYN070AAXX  27184 83398 32596 40904 10262 20178 30137 40142 83240 333 59007;EQDQ01  00002PRCP99
0198833980999992001102800004-15660-038920FM-12+000599999V0201801N001012200019N0010001N1+02101+01931101871ADDAA199000091GF104991021011008001041001KA1240M+02741MA1999999101811MD1999999-0031REMSYN088AAXX  28004 83398 32594 41802 10210 20193 30181 40187 82140 333 10274 29077 55111 59003;EQDQ01  00002PRCP99
0186833980999992001102812004-15660-038920FM-12+000599999V0202701N001010450019N0040001N1+02521+01841101681ADDAA199000091GF106991041021008001041001KA1240N+01961MA1999999101621MD1999999-0211REMSYN076AAXX  28124 83398 32596 62702 10252 20184 30162 40168 84240 333 20196 59021;EQDQ01  00002PRCP99
0167833980999992001102818004-15660-038920FM-12+000599999V0201401N002110450019N0040001N1+02551+01841101491ADDAA199000091GF105991031021008001041001MA1999999101441MD1999999+0071REMSYN070AAXX  28184 83398 32596 51404 10255 20184 30144 40149 83240 333 58007;EQDQ01  00002PRCP99
0186833980999992001102912004-15660-038920FM-12+000599999V0200901N002110450019N0040001N1+02621+01911101821ADDAA199000091GF105991031021008001041001KA1240N+01721MA1999999101761MD1999999+0141REMSYN076AAXX  29124 83398 32596 50904 10262 20191 30176 40182 83240 333 20172 58014;EQDQ01  00002PRCP99
0167833980999992001102918004-15660-038920FM-12+000599999V0200901N002112200019N0040001N1+02641+01931101521ADDAA199000091GF103991021021008001041001MA1999999101471MD1999999+0031REMSYN070AAXX  29184 83398 32596 30904 10264 20193 30147 40152 82240 333 58003;EQDQ01  00002PRCP99
0198833980999992001103000004-15660-038920FM-12+000599999V0200901N002110450019N0010001N1+02511+02121101831ADDAA199000091GF106991041051008001041001KA1240M+02851MA1999999101771MD1999999+0031REMSYN088AAXX  30004 83398 32594 60904 10251 20212 30177 40183 84540 333 10285 29072 55112 58003;EQDQ01  00002PRCP99
0186833980999992001103012004-15660-038920FM-12+000599999V0200901N002110450019N0040001N1+02681+02201101951ADDAA199000091GF106991041051008001021001KA1240N+02051MA1999999101891MD1999999+0131REMSYN076AAXX  30124 83398 32596 60904 10268 20220 30189 40195 84520 333 20205 58013;EQDQ01  00002PRCP99
0167833980999992001103018004-15660-038920FM-12+000599999V0203601N002110450019N0040001N1+02761+02281101481ADDAA199000091GF105991031021008001041001MA1999999101431MD1999999-0041REMSYN070AAXX  30184 83398 32596 53604 10276 20228 30143 40148 83240 333 59004;EQDQ01  00002PRCP99
0198833980999992001103100004-15660-038920FM-12+000599999V0200501N002112200019N0010001N1+02511+02301101681ADDAA199000091GF104991031021008001041001KA1240M+02841MA1999999101621MD1999999-0151REMSYN088AAXX  31004 83398 32594 40504 10251 20230 30162 40168 83240 333 10284 29082 55101 59015;EQDQ01  00002PRCP99
0195833980999992001103112004-15660-038920FM-12+000599999V0200501N002110450019N0040001N1+02651+02241999999ADDAA124002091AY151061AY221061GF106991031051004501041001KA1240N+02141MA1999999101681MD1999999-0211MW1011REMSYN082AAXX  31124 83398 21496 60504 10265 20224 30168 70152 83540 333 20214 59021 60024;
0167833980999992001103118004-15660-038920FM-12+000599999V0200501N002110450019N0040001N1+02641+02231101401ADDAA199000091GF105991031021008001041001MA1999999101351MD1999999-0081REMSYN070AAXX  31184 83398 32596 50504 10264 20223 30135 40140 83240 333 59008;EQDQ01  00002PRCP99
0198833980999992001110100004-15660-038920FM-12+000599999V0200901N002110450019N0010001N1+02521+02171101461ADDAA199000091GF106991041051008001021001KA1240M+02841MA1999999101411MD1999999-0211REMSYN088AAXX  01004 83398 32594 60904 10252 20217 30141 40146 84520 333 10284 29080 55085 59021;EQDQ01  00002PRCP99
0186833980999992001110112004-15660-038920FM-12+000599999V0200501N002110450019N0040001N1+02641+02231101501ADDAA199000091GF106991041051008001041001KA1240N+02161MA1999999101451MD1999999+0231REMSYN076AAXX  01124 83398 32596 60504 10264 20223 30145 40150 84540 333 20216 58023;EQDQ01  00002PRCP99
0167833980999992001110118004-15660-038920FM-12+000599999V0200501N002110450019N0040001N1+02691+02191101231ADDAA199000091GF106991041051008001051001MA1999999101181MD1999999-0171REMSYN070AAXX  01184 83398 32596 60504 10269 20219 30118 40123 84550 333 59017;EQDQ01  00002PRCP99
0168833980999992001110200004-15660-038920FM-12+000599999V0200501N002119999999N0010001N1+99999+99999999999ADDAA199000091GF106991999999008001999999KA1240M+02841REMSYN087AAXX  02004 83398 32594 60504 1250 20217 30122 40127 84550 333 10284 29078 55035 59019;EQDQ01  00002PRCP99
0186833980999992001110212004-15660-038920FM-12+000599999V0200901N002110075019N0040001N1+02741+02321101361ADDAA199000091GF107991051051008001021001KA1240N+02211MA1999999101311MD1999999-0141REMSYN076AAXX  02124 83398 32596 70904 10274 20232 30131 40136 85520 333 20221 59014;EQDQ01  00002PRCP99
0167833980999992001110218004-15660-038920FM-12+000599999V0200501N003110450019N0040001N1+02781+02251101111ADDAA199000091GF106991021051008001041011MA1999999101061MD1999999-0121REMSYN070AAXX  02184 83398 32596 60506 10278 20225 30106 40111 82541 333 59012;EQDQ01  00002PRCP99
0198833980999992001110300004-15660-038920FM-12+000599999V0200501N002110450019N0010001N1+02581+02331101321ADDAA199000091GF107991041051008001021001KA1240M+02861MA1999999101271MD1999999+0051REMSYN088AAXX  03004 83398 32594 70504 10258 20233 30127 40132 84520 333 10286 29081 55061 58005;EQDQ01  00002PRCP99
0167833980999992001110318004-15660-038920FM-12+000599999V0200501N004110450019N0040001N1+02761+02301101181ADDAA199000091GF106991031051008001041001MA1999999101131MD1999999+0071REMSYN070AAXX  03184 83398 32596 60508 10276 20230 30113 40118 83540 333 58007;EQDQ01  00002PRCP99
0198833980999992001110400004-15660-038920FM-12+000599999V0200501N002110450019N0010001N1+02541+02271101391ADDAA199000091GF106991041051008001041001KA1240M+02901MA1999999101341MD1999999+0071REMSYN088AAXX  04004 83398 32594 60504 10254 20227 30134 40139 84540 333 10290 29080 55085 58007;EQDQ01  00002PRCP99
0201833980999992001110412004-15660-038920FM-12+000599999V0203601N002110450019N0040001N1+02781+02401101521ADDAA124000891AY151061AY221061GF105991031051004501041001KA1240N+02311MA1999999101471MD1999999+0061MW1011REMSYN088AAXX  04124 83398 21496 53604 10278 20240 30147 40152 70152 83540 333 20231 58006 69984;
0167833980999992001110418004-15660-038920FM-12+000599999V0200501N004110450019N0040001N1+02801+02341101121ADDAA199000091GF105991031041008001011011MA1999999101071MD1999999-0061REMSYN070AAXX  04184 83398 32596 50508 10280 20234 30107 40112 83411 333 59006;EQDQ01  00002PRCP99
0198833980999992001110500004-15660-038920FM-12+000599999V0200501N002110450019N0040001N1+02561+02361101251ADDAA199000091GF106991041051008001021001KA1240M+02921MA1999999101201MD1999999-0141REMSYN088AAXX  05004 83398 32596 60504 10256 20236 30120 40125 84520 333 10292 29084 55101 59014;EQDQ01  00002PRCP99
0173833980999992001110512004-15660-038920FM-12+000599999V0203601N003110450019N0040001N1+02791+02351101521ADDAA124000191GF105991031021008001041001KA1240N+02281MA1999999101471MD1999999+0001REMSYN082AAXX  05124 83398 22596 53606 10279 20235 30147 40152 83240 333 20228 58000 69914;
0167833980999992001110518004-15660-038920FM-12+000599999V0203601N005110450019N0040001N1+02841+02311101021ADDAA199000091GF105991031021008001041011MA1999999100971MD1999999-0101REMSYN070AAXX  05184 83398 32596 53610 10284 20231 30097 40102 83241 333 59010;EQDQ01  00002PRCP99
0198833980999992001110600004-15660-038920FM-12+000599999V0203601N001012200019N0010001N1+02551+02341101411ADDAA199000091GF103991021021008001041001KA1240M+02961MA1999999101361MD1999999+0121REMSYN088AAXX  06004 83398 32594 33602 10255 20234 30136 40141 82240 333 10296 29082 55112 58012;EQDQ01  00002PRCP99
0186833980999992001110612004-15660-038920FM-12+000599999V0200501N002110450019N0040001N1+02801+02271101611ADDAA199000091GF106991041051008001021001KA1240N+02291MA1999999101551MD1999999+0081REMSYN076AAXX  06124 83398 32596 60504 10280 20227 30155 40161 84520 333 20229 58008;EQDQ01  00002PRCP99
0167833980999992001110618004-15660-038920FM-12+000599999V0200501N003110075019N0040001N1+02801+02341101311ADDAA199000091GF107991051051008001021001MA1999999101261MD1999999+0191REMSYN070AAXX  06184 83398 32596 70506 10280 20234 30126 40131 85520 333 58019;EQDQ01  00002PRCP99
0198833980999992001110700004-15660-038920FM-12+000599999V0209999C000010450019N0010001N1+02561+02351101591ADDAA199000091GF106991041051008001021001KA1240M+02961MA1999999101541MD1999999+0181REMSYN088AAXX  07004 83398 32594 60000 10256 20235 30154 40159 84520 333 10296 29081 55034 58018;EQDQ01  00002PRCP99
0201833980999992001110712004-15660-038920FM-12+000599999V0200501N001010042019N0040001N1+02561+02351101781ADDAA124000891AY151061AY221061GF108991051051004501021999KA1240N+02251MA1999999101721MD1999999+0171MW1501REMSYN088AAXX  07124 83398 21496 80502 10256 20235 30172 40178 75052 8552/ 333 20225 58017 69974;
0182833980999992001110718004-15660-038920FM-12+000599999V0200501N002110450019N0040001N1+02801+02341101451ADDAA106000191AY151061AY221061GF106991031051004501041041MA1999999101401MD1999999+0141MW1011REMSYN082AAXX  07184 83398 21496 60504 10280 20234 30140 40145 70152 83544 333 58014 69911;
0179833980999992001110800004-15660-038920FM-12+000599999V0203601N001012200019N0010001N1+02541+02231101611ADDAA199000021GF104991031021008001041001KA1240M+02921MA1999999101551MD1999999+0011REMSYN088AAXX  08004 83398 32594 43602 10254 20223 30155 40161 83240 333 10292 29083 55037 58001;
0186833980999992001110812004-15660-038920FM-12+000599999V0200501N002110450019N0040001N1+02801+02251101751ADDAA199000091GF106991031021008001041001KA1240N+02181MA1999999101691MD1999999-0031REMSYN076AAXX  08124 83398 32596 60504 10280 20225 30169 40175 83240 333 20218 59003;EQDQ01  00002PRCP99
0167833980999992001110818004-15660-038920FM-12+000599999V0200501N003111050019N0040001N1+02841+02221101511ADDAA199000091GF105991021021008001041011MA1999999101461MD1999999+0061REMSYN070AAXX  08184 83398 32596 50506 10284 20222 30146 40151 82241 333 58006;EQDQ01  00002PRCP99
0198833980999992001110900004-15660-038920FM-12+000599999V0200501N002112200019N0010001N1+02541+02151101721ADDAA199000091GF103991031011008001001001KA1240M+02941MA1999999101661MD1999999+0111REMSYN088AAXX  09004 83398 32594 30504 10254 20215 30166 40172 83100 333 10294 29075 55115 58011;EQDQ01  00002PRCP99
0186833980999992001110912004-15660-038920FM-12+000599999V0203601N002110450019N0040001N1+02781+02131101761ADDAA199000091GF106991031021008001041041KA1240N+02141MA1999999101701MD1999999+0011REMSYN076AAXX  09124 83398 32596 63604 10278 20213 30170 40176 83244 333 20214 58001;EQDQ01  00002PRCP99
0167833980999992001110918004-15660-038920FM-12+000599999V0200901N002110450019N0040001N1+02751+02181101591ADDAA199000091GF106991031021008001041041MA1999999101541MD1999999+0081REMSYN070AAXX  09184 83398 32596 60904 10275 20218 30154 40159 83244 333 58008;EQDQ01  00002PRCP99
0198833980999992001111000004-15660-038920FM-12+000599999V0200501N001012200019N0010001N1+02561+02251101751ADDAA199000091GF103991031011008001001001KA1240M+02941MA1999999101691MD1999999+0031REMSYN088AAXX  10004 83398 32594 30502 10256 20225 30169 40175 83100 333 10294 29076 55/// 58003;EQDQ01  00002PRCP99
0186833980999992001111012004-15660-038920FM-12+000599999V0200501N003110450019N0040001N1+02781+02251101831ADDAA199000091GF106991041051008001041001KA1240N+02121MA1999999101771MD1999999+0071REMSYN076AAXX  10124 83398 32596 60506 10278 20225 30177 40183 84540 333 20212 58007;EQDQ01  00002PRCP99
0167833980999992001111018004-15660-038920FM-12+000599999V0200901N003110450019N0040001N1+02781+02161101511ADDAA199000091GF105991031021008001041001MA1999999101461MD1999999-0081REMSYN070AAXX  10184 83398 32596 50906 10278 20216 30146 40151 83240 333 59008;EQDQ01  00002PRCP99
0198833980999992001111100004-15660-038920FM-12+000599999V0200901N002112200019N0040001N1+02541+02041101661ADDAA199000091GF103991031011008001001001KA1240M+02911MA1999999101601MD1999999-0091REMSYN088AAXX  11004 83398 32596 30904 10254 20204 30160 40166 83100 333 10291 29073 55113 59009;EQDQ01  00002PRCP99
0186833980999992001111112004-15660-038920FM-12+000599999V0200901N002110450019N0040001N1+02741+02021101811ADDAA199000091GF105991031021008001041001KA1240N+01981MA1999999101751MD1999999-0021REMSYN076AAXX  11124 83398 32596 50904 10274 20202 30175 40181 83240 333 20198 59002;EQDQ01  00002PRCP99
0167833980999992001111118004-15660-038920FM-12+000599999V0200501N003111050019N0040001N1+02801+01921101451ADDAA199000091GF105991021021008001041011MA1999999101401MD1999999-0061REMSYN070AAXX  11184 83398 32596 50506 10280 20192 30140 40145 82241 333 59006;EQDQ01  00002PRCP99
0186833980999992001111212004-15660-038920FM-12+000599999V0203601N002110450019N0040001N1+02851+02181101721ADDAA199000091GF105991031021008001041011KA1240N+01941MA1999999101661MD1999999-0091REMSYN076AAXX  12124 83398 32596 53604 10285 20218 30166 40172 83241 333 20194 59009;EQDQ01  00002PRCP99
0167833980999992001111218004-15660-038920FM-12+000599999V0200501N003110450019N0040001N1+02801+02251101381ADDAA199000091GF106991031021008001041011MA1999999101331MD1999999-0071REMSYN070AAXX  12184 83398 32596 60506 10280 20225 30133 40138 83241 333 59007;EQDQ01  00002PRCP99
0198833980999992001111300004-15660-038920FM-12+000599999V0200501N002112200019N0010001N1+02561+02311101491ADDAA199000091GF103991031011008001001001KA1240M+03021MA1999999101441MD1999999-0061REMSYN088AAXX  13004 83398 32594 30504 10256 20231 30144 40149 83100 333 10302 29078 55110 59006;EQDQ01  00002PRCP99
0186833980999992001111312004-15660-038920FM-12+000599999V0203601N003110450019N0040001N1+02881+02321101441ADDAA199000091GF105991031021008001041041KA1240N+02201MA1999999101391MD1999999-0271REMSYN076AAXX  13124 83398 32596 53606 10288 20232 30139 40144 83244 333 20220 59027;EQDQ01  00002PRCP99
0167833980999992001111318004-15660-038920FM-12+000599999V0203601N003110450019N0040001N1+02861+02371101131ADDAA199000091GF106991031021008001041011MA1999999101081MD1999999-0251REMSYN070AAXX  13184 83398 32596 63606 10286 20237 30108 40113 83241 333 59025;EQDQ01  00002PRCP99
0198833980999992001111400004-15660-038920FM-12+000599999V0200501N002112200019N0020001N1+02561+02351101251ADDAA199000091GF102991021011004501001001KA1240M+03001MA1999999101201MD1999999-0041REMSYN088AAXX  14004 83398 32495 20504 10256 20235 30120 40125 82100 333 10300 29081 55104 59004;EQDQ01  00002PRCP99
0186833980999992001111412004-15660-038920FM-12+000599999V0203601N004110450019N0040001N1+02781+02231101341ADDAA199000091GF106991041051008001021001KA1240N+02251MA1999999101291MD1999999-0101REMSYN076AAXX  14124 83398 32596 63608 10278 20223 30129 40134 84520 333 20225 59010;EQDQ01  00002PRCP99
0167833980999992001111418004-15660-038920FM-12+000599999V0203601N005111050019N0040001N1+02841+02261100951ADDAA199000091GF105991021021008001041011MA1999999100901MD1999999-0181REMSYN070AAXX  14184 83398 32596 53610 10284 20226 30090 40095 82241 333 59018;EQDQ01  00002PRCP99
0198833980999992001111500004-15660-038920FM-12+000599999V0203601N002112200019N0010001N1+02591+02341101201ADDAA199000091GF103991021021008001041001KA1240M+02981MA1999999101151MD1999999-0051REMSYN088AAXX  15004 83398 32594 33604 10259 20234 30115 40120 82240 333 10298 29079 55094 59005;EQDQ01  00002PRCP99
0186833980999992001111512004-15660-038920FM-12+000599999V0203601N003110450019N0040001N1+02741+02261101341ADDAA199000091GF106991041051008001021001KA1240N+02291MA1999999101291MD1999999+0001REMSYN076AAXX  15124 83398 32596 63606 10274 20226 30129 40134 84520 333 20229 58000;EQDQ01  00002PRCP99
0167833980999992001111518004-15660-038920FM-12+000599999V0203601N005110450019N0040001N1+02821+02271101041ADDAA199000091GF106991041051008001021001MA1999999100991MD1999999+0091REMSYN070AAXX  15184 83398 32596 63610 10282 20227 30099 40104 84520 333 58009;EQDQ01  00002PRCP99
0198833980999992001111600004-15660-038920FM-12+000599999V0203601N001010450019N0040001N1+02581+02311101221ADDAA199000091GF105991031051008001041001KA1240M+02961MA1999999101771MD1999999+0021REMSYN088AAXX  16004 83398 32596 53602 10258 20231 30177 40122 83540 333 10296 29079 55021 58002;EQDQ01  00002PRCP99
0186833980999992001111612004-15660-038920FM-12+000599999V0203601N003110450019N0040001N1+02881+02251101441ADDAA199000091GF106991041051008001021001KA1240N+02471MA1999999101391MD1999999+0101REMSYN076AAXX  16124 83398 32596 63606 10288 20225 30139 40144 84520 333 20247 58010;EQDQ01  00002PRCP99
0167833980999992001111618004-15660-038920FM-12+000599999V0203601N004110450019N0040001N1+02861+02261101131ADDAA199000091GF105991031021008001041001MA1999999101081MD1999999+0091REMSYN070AAXX  16184 83398 32596 53608 10286 20226 30108 40113 83240 333 58009;EQDQ01  00002PRCP99
0198833980999992001111700004-15660-038920FM-12+000599999V0203601N002112200019N0010001N1+02561+02351101401ADDAA199000091GF104991021011008001041001KA1240M+03001MA1999999101351MD1999999+0181REMSYN088AAXX  17004 83398 32594 43604 10256 20235 30135 40140 82140 333 10300 29079 55085 58018;EQDQ01  00002PRCP99
0186833980999992001111712004-15660-038920FM-12+000599999V0203601N003110450019N0040001N1+02881+02321101591ADDAA199000091GF106991041051008001041001KA1240N+02301MA1999999101541MD1999999+0151REMSYN076AAXX  17124 83398 32596 63606 10288 20232 30154 40159 84540 333 20230 58015;EQDQ01  00002PRCP99
0167833980999992001111718004-15660-038920FM-12+000599999V0203601N004111050019N0040001N1+02861+02371101211ADDAA199000091GF105991021051008001041011MA1999999101161MD1999999+0081REMSYN070AAXX  17184 83398 32596 53608 10286 20237 30116 40121 82541 333 58008;EQDQ01  00002PRCP99
0198833980999992001111800004-15660-038920FM-12+000599999V0200501N002112200019N0010001N1+02581+02351101391ADDAA199000091GF104991041011008001001001KA1240M+03021MA1999999101341MD1999999-0011REMSYN088AAXX  18004 83398 32594 40504 10258 20235 30134 40139 84100 333 10302 29080 55104 59001;EQDQ01  00002PRCP99
0186833980999992001111812004-15660-038920FM-12+000599999V0203601N003110450019N0040001N1+02761+02321101541ADDAA199000091GF107991041051008001021001KA1240N+02381MA1999999101491MD1999999-0051REMSYN076AAXX  18124 83398 32596 73606 10276 20232 30149 40154 84520 333 20238 59005;EQDQ01  00002PRCP99
0167833980999992001111818004-15660-038920FM-12+000599999V0203601N004110450019N0040001N1+02861+02391101281ADDAA199000091GF105991031051008001041011MA1999999101231MD1999999+0071REMSYN070AAXX  18184 83398 32596 53608 10286 20239 30123 40128 83541 333 58007;EQDQ01  00002PRCP99
0198833980999992001111900004-15660-038920FM-12+000599999V0203601N003112200019N0010001N1+02581+02351101501ADDAA199000091GF104991031011008001041001KA1240M+03011MA1999999101451MD1999999+0111REMSYN088AAXX  19004 83398 32594 43606 10258 20235 30145 40150 83140 333 10301 29082 55061 58011;EQDQ01  00002PRCP99
0186833980999992001111912004-15660-038920FM-12+000599999V0200501N003110450019N0040001N1+02881+02301101691ADDAA199000091GF105991031021008001041011KA1240N+02381MA1999999101631MD1999999+0141REMSYN076AAXX  19124 83398 32596 50506 10288 20230 30163 40169 83241 333 20238 58014;EQDQ01  00002PRCP99
0167833980999992001111918004-15660-038920FM-12+000599999V0200901N003111050019N0040001N1+02841+02311101361ADDAA199000091GF105991021051008001041011MA1999999101311MD1999999+0081REMSYN070AAXX  19184 83398 32596 50906 10284 20231 30131 40136 82541 333 58008;EQDQ01  00002PRCP99
0198833980999992001112000004-15660-038920FM-12+000599999V0200501N002112200019N0010001N1+02581+02271101571ADDAA199000091GF104991021021008001041001KA1240M+03001MA1999999101521MD1999999+0071REMSYN088AAXX  20004 83398 32594 40504 10258 20227 30152 40157 82240 333 10300 29078 55103 58007;EQDQ01  00002PRCP99
0167833980999992001112018004-15660-038920FM-12+000599999V0203601N003110450019N0040001N1+02781+02211101351ADDAA199000091GF106991041051008001041001MA1999999101301MD1999999-0011REMSYN070AAXX  20184 83398 32596 63606 10278 20221 30130 40135 84540 333 59001;EQDQ01  00002PRCP99
0198833980999992001112100004-15660-038920FM-12+000599999V0200501N001012200019N0010001N1+02491+02161101531ADDAA199000091GF103991021021008001041001KA1240M+02981MA1999999101481MD1999999-0041REMSYN088AAXX  21004 83398 32594 30502 10249 20216 30148 40153 82240 333 10298 29077 55104 59004;EQDQ01  00002PRCP99
0186833980999992001112112004-15660-038920FM-12+000599999V0203601N002112200019N0040001N1+02781+02041101691ADDAA199000091GF104991021021008001041011KA1240N+02161MA1999999101631MD1999999-0021REMSYN076AAXX  21124 83398 32596 43604 10278 20204 30163 40169 82241 333 20216 59002;EQDQ01  00002PRCP99
0167833980999992001112118004-15660-038920FM-12+000599999V0200901N003110450019N0040001N1+02821+02171101451ADDAA199000091GF106991041051008001041001MA1999999101401MD1999999+0101REMSYN070AAXX  21184 83398 32596 60906 10282 20217 30140 40145 84540 333 58010;EQDQ01  00002PRCP99
0198833980999992001112200004-15660-038920FM-12+000599999V0200901N002110075019N0010001N1+02581+02011101751ADDAA199000091GF108991051051008001021999KA1240M+02981MA1999999101691MD1999999+0211REMSYN088AAXX  22004 83398 32594 80904 10258 20201 30169 40175 8552/ 333 10298 29069 55080 58021;EQDQ01  00002PRCP99
0201833980999992001112212004-15660-038920FM-12+000599999V0202701N001010450019N0040001N1+02621+02311101791ADDAA124004191AY151061AY221061GF106991041051004501041001KA1240N+02181MA1999999101731MD1999999+0101MW1011REMSYN088AAXX  22124 83398 21496 62702 10262 20231 30173 40179 70152 84540 333 20218 58010 60044;
0167833980999992001112218004-15660-038920FM-12+000599999V0200901N003110450019N0040001N1+02681+02241101491ADDAA199000091GF107991041051008001021001MA1999999101441MD1999999+0041REMSYN070AAXX  22184 83398 32596 70906 10268 20224 30144 40149 84520 333 58004;EQDQ01  00002PRCP99
0198833980999992001112300004-15660-038920FM-12+000599999V0200901N002110450019N0010001N1+02561+02251101611ADDAA199000091GF106991041051008001041001KA1240M+02921MA1999999101551MD1999999-0181REMSYN088AAXX  23004 83398 32594 60904 10256 20225 30155 40161 84540 333 10292 29082 55016 59018;EQDQ01  00002PRCP99
0201833980999992001112312004-15660-038920FM-12+000599999V0200501N002112200019N0040001N1+02791+02191101381ADDAA124001091AY151061AY221061GF104991031021008001041001KA1240N+02251MA1999999101331MD1999999-0401MW1011REMSYN088AAXX  23124 83398 21596 40504 10279 20219 30133 40138 70152 83240 333 20225 59040 60014;
0167833980999992001112318004-15660-038920FM-12+000599999V0200401N003111050019N0040001N1+02821+02241101191ADDAA199000091GF105991021021008001041011MA1999999101141MD1999999-0301REMSYN070AAXX  23184 83398 32596 50406 10282 20224 30114 40119 82241 333 59030;EQDQ01  00002PRCP99
0178833980999992001112400004-15660-038920FM-12+000599999V0200501N002112200019N0010001N1+02541+02151101241ADDAA199000091GF104991031021008001041001KA1240M+02941MA1999999101191REMSYN082AAXX  24004 83398 32594 40504 10254 20215 30119 40124 83240 333 10294 29075 55084;EQDQ01  00002PRCP99
0186833980999992001112412004-15660-038920FM-12+000599999V0200501N002112200019N0040001N1+02801+02061101301ADDAA199000091GF103991021021008001041001KA1240N+02071MA1999999101251MD1999999-0081REMSYN076AAXX  24124 83398 32596 30504 10280 20206 30125 40130 82240 333 20207 59008;EQDQ01  00002PRCP99
0167833980999992001112418004-15660-038920FM-12+000599999V0200501N002112200019N0040001N1+02881+02051101061ADDAA199000091GF104991021021008001041011MA1999999101011MD1999999-0131REMSYN070AAXX  24184 83398 32596 40504 10288 20205 30101 40106 82241 333 59013;EQDQ01  00002PRCP99
0198833980999992001112500004-15660-038920FM-12+000599999V0200501N002112200019N0010001N1+02541+02251101231ADDAA199000091GF104991021021008001041041KA1240M+02941MA1999999101181MD1999999-0011REMSYN088AAXX  25004 83398 32594 40504 10254 20225 30118 40123 82244 333 10294 29073 55095 59001;EQDQ01  00002PRCP99
0186833980999992001112512004-15660-038920FM-12+000599999V0200501N002110450019N0040001N1+02841+02261101401ADDAA199000091GF107991041051008001021001KA1240N+02101MA1999999101351MD1999999+0101REMSYN076AAXX  25124 83398 32596 70504 10284 20226 30135 40140 84520 333 20210 58010;EQDQ01  00002PRCP99
0167833980999992001112518004-15660-038920FM-12+000599999V0200501N003110450019N0040001N1+02841+02191101161ADDAA199000091GF105991031021008001041001MA1999999101111MD1999999+0101REMSYN070AAXX  25184 83398 32596 50506 10284 20219 30111 40116 83240 333 58010;EQDQ01  00002PRCP99
0198833980999992001112600004-15660-038920FM-12+000599999V0200901N003112200019N0010001N1+02601+02191101381ADDAA199000091GF104991021021008001041001KA1240M+02991MA1999999101331MD1999999+0151REMSYN088AAXX  26004 83398 32594 40906 10260 20219 30133 40138 82240 333 10299 29074 55110 58015;EQDQ01  00002PRCP99
0186833980999992001112612004-15660-038920FM-12+000599999V0200901N002110450019N0040001N1+02811+02191101541ADDAA199000091GF105991031021008001041011KA1240N+02171MA1999999101491MD1999999+0141REMSYN076AAXX  26124 83398 32596 50904 10281 20219 30149 40154 83241 333 20217 58014;EQDQ01  00002PRCP99
0167833980999992001112618004-15660-038920FM-12+000599999V0200901N003110450019N0040001N1+02801+02181101281ADDAA199000091GF106991041051008001041001MA1999999101231MD1999999+0111REMSYN070AAXX  26184 83398 32596 60906 10280 20218 30123 40128 84540 333 58011;EQDQ01  00002PRCP99
0213833980999992001112700004-15660-038920FM-12+000599999V0200901N003110075019N0010001N1+02441+02271101501ADDAA106003091AY161061AY221061GF108991051071008001021999KA1240M+02981MA1999999101451MD1999999+0121MW1611REMSYN100AAXX  27004 83398 21594 80906 10244 20227 30145 40150 76162 8572/ 333 10298 29080 55097 58012 60031;
0201833980999992001112712004-15660-038920FM-12+000599999V0201801N001010450019N0040001N1+02571+02371101541ADDAA124013091AY161061AY221061GF106991041051004501041001KA1240N+02151MA1999999101491MD1999999+0001MW1021REMSYN088AAXX  27124 83398 21496 61802 10257 20237 30149 40154 70262 84540 333 20215 58000 60134;
0182833980999992001112718004-15660-038920FM-12+000599999V0200501N002110450019N0040001N1+02611+02151101301ADDAA106004191AY151061AY221061GF105991031021008001041001MA1999999101251MD1999999+0021MW1011REMSYN082AAXX  27184 83398 21596 50504 10261 20215 30125 40130 70152 83240 333 58002 60041;
0198833980999992001112800004-15660-038920FM-12+000599999V0200901N002112200019N0010001N1+02541+02151101511ADDAA199000091GF103991021011008001041001KA1240M+02951MA1999999101461MD1999999+0011REMSYN088AAXX  28004 83398 32594 30904 10254 20215 30146 40151 82140 333 10295 29081 55066 58001;EQDQ01  00002PRCP99
0201833980999992001112812004-15660-038920FM-12+000599999V0203201N001010450019N0040001N1+02591+02281101481ADDAA124008991AY161061AY221061GF107991041051004501021001KA1240N+02251MA1999999101431MD1999999-0061MW1021REMSYN088AAXX  28124 83398 21496 73202 10259 20228 30143 40148 70262 84520 333 20225 59006 60094;
0167833980999992001112818004-15660-038920FM-12+000599999V0200501N002110450019N0040001N1+02751+02251101151ADDAA199000091GF106991031021008001051001MA1999999101101MD1999999-0151REMSYN070AAXX  28184 83398 32596 60504 10275 20225 30110 40115 83250 333 59015;EQDQ01  00002PRCP99
0198833980999992001112900004-15660-038920FM-12+000599999V0200501N002110450019N0010001N1+02621+02211101291ADDAA199000091GF106991031051008001021001KA1240M+02911MA1999999101241MD1999999-0221REMSYN088AAXX  29004 83398 32594 60504 10262 20221 30124 40129 83520 333 10291 29078 55041 59022;EQDQ01  00002PRCP99
0186833980999992001112912004-15660-038920FM-12+000599999V0203601N002110450019N0040001N1+02871+02271101251ADDAA199000091GF105991031021008001041011KA1240N+02281MA1999999101201MD1999999-0231REMSYN076AAXX  29124 83398 32596 53604 10287 20227 30120 40125 83241 333 20228 59023;EQDQ01  00002PRCP99
0167833980999992001112918004-15660-038920FM-12+000599999V0203601N003112200019N0040001N1+02861+02351100971ADDAA199000091GF102991021021008001001001MA1999999100921MD1999999-0181REMSYN070AAXX  29184 83398 32596 23606 10286 20235 30092 40097 82200 333 59018;EQDQ01  00002PRCP99
0198833980999992001113000004-15660-038920FM-12+000599999V0200501N002110450019N0010001N1+02641+02331101071ADDAA199000091GF106991031021008001041041KA1240M+02971MA1999999101021MD1999999-0221REMSYN088AAXX  30004 83398 32594 60504 10264 20233 30102 40107 83244 333 10297 29078 55115 59022;EQDQ01  00002PRCP99
0201833980999992001113012004-15660-038920FM-12+000599999V0200501N002110042019N0040001N1+02651+02451101161ADDAA124002091AY151061AY221061GF108991051071004501021999KA1240N+02181MA1999999101111MD1999999-0091MW1501REMSYN088AAXX  30124 83398 21496 80504 10265 20245 30111 40116 75052 8572/ 333 20218 59009 60024;
0182833980999992001113018004-15660-038920FM-12+000599999V0203601N002110042019N0040001N1+02501+02341100891ADDAA106034091AY161061AY221061GF108991051051004501021999MA1999999100841MD1999999-0081MW1601REMSYN082AAXX  30184 83398 21496 83604 10250 20234 30084 40089 76062 8552/ 333 59008 60341;
0213833980999992001120100004-15660-038920FM-12+000599999V0203601N001010042019N0010001N1+02571+02451101231ADDAA106002091AY151061AY221061GF108991051051004501021999KA1240M+02721MA1999999101181MD1999999+0161MW1021REMSYN100AAXX  01004 83398 21494 83602 10257 20245 30118 40123 70252 8552/ 333 10272 29092 55000 58016 60021;
0201833980999992001120112004-15660-038920FM-12+000599999V0203601N002110042019N0040001N1+02571+02411101331ADDAA124101191AY191061AY261061GF108991051051004501021999KA1240N+02201MA1999999101281MD1999999+0171MW1021REMSYN088AAXX  01124 83398 21496 83604 10257 20241 30128 40133 70296 8552/ 333 20220 58017 61014;
0167833980999992001120118004-15660-038920FM-12+000599999V0203601N003111050019N0040001N1+02801+02441101021ADDAA199000091GF105991021021008001041041MA1999999100971MD1999999+0131REMSYN070AAXX  01184 83398 32596 53606 10280 20244 30097 40102 82244 333 58013;EQDQ01  00002PRCP99
0198833980999992001120200004-15660-038920FM-12+000599999V0203601N002110450019N0010001N1+02621+02461101221ADDAA199000091GF105991021021008001051001KA1240M+02891MA1999999101171MD1999999-0011REMSYN088AAXX  02004 83398 32594 53604 10262 20246 30117 40122 82250 333 10289 29089 55043 59001;EQDQ01  00002PRCP99
0201833980999992001120212004-15660-038920FM-12+000599999V0203601N002110075019N0040001N1+02641+02391101331ADDAA124004191AY161061AY221061GF108991051051008001021001KA1240N+02371MA1999999101281MD1999999+0001MW1021REMSYN088AAXX  02124 83398 21596 83604 10264 20239 30128 40133 70262 85520 333 20237 58000 60044;
0182833980999992001120218004-15660-038920FM-12+000599999V0200501N003110450019N0040001N1+02841+02461100931ADDAA106000191AY191061AY251061GF106991031051008001041011MA1999999100881MD1999999-0091MW1021REMSYN082AAXX  02184 83398 21596 60506 10284 20246 30088 40093 70295 83541 333 59009 69911;
0213833980999992001120300004-15660-038920FM-12+000599999V0202301N002110042019N0010001N1+02381+02211101391ADDAA106056991AY191061AY261061GF108991061071004501021999KA1240M+02901MA1999999101341MD1999999+0171MW1601REMSYN100AAXX  03004 83398 21494 82304 10238 20221 30134 40139 76096 8672/ 333 10290 29087 55015 58017 60571;
0201833980999992001120312004-15660-038920FM-12+000599999V0201801N002110042019N0040001N1+02331+02161101581ADDAA124064091AY191061AY261061GF108991051051004501021999KA1240N+02181MA1999999101531MD1999999+0251MW1021REMSYN088AAXX  03124 83398 21496 81804 10233 20216 30153 40158 70296 8552/ 333 20218 58025 60644;
0182833980999992001120318004-15660-038920FM-12+000599999V0201801N004110075019N0040001N1+02421+01991101321ADDAA106002091AY161061AY221061GF108991051051008001021999MA1999999101271MD1999999+0391MW1021REMSYN082AAXX  03184 83398 21596 81808 10242 20199 30127 40132 70262 8552/ 333 58039 60021;
0213833980999992001120400004-15660-038920FM-12+000599999V0209999C000010042019N0010001N1+02221+02011101501ADDAA106000191AY151061AY221061GF108991051051004501021999KA1240M+02501MA1999999101451MD1999999+0111MW1021REMSYN100AAXX  04004 83398 21494 80000 10222 20201 30145 40150 70252 8552/ 333 10250 29086 55000 58011 69921;
0173833980999992001120412004-15660-038920FM-12+000599999V0202301N002110450019N0040001N1+02521+02091101531ADDAA124003091GF106991031051004501021001KA1240N+02131MA1999999101481MD1999999-0051REMSYN082AAXX  04124 83398 22496 62304 10252 20209 30148 40153 83520 333 20213 59005 60034;
0167833980999992001120418004-15660-038920FM-12+000599999V0201801N002110450019N0040001N1+02501+02211101371ADDAA199000091GF108991041051008001021999MA1999999101321MD1999999+0051REMSYN070AAXX  04184 83398 32596 81804 10250 20221 30132 40137 8452/ 333 58005;EQDQ01  00002PRCP99
0198833980999992001120500004-15660-038920FM-12+000599999V0202301N002110450019N0010001N1+02381+02211101401ADDAA199000091GF106991041051008001021001KA1240M+02771MA1999999101351MD1999999-0101REMSYN088AAXX  05004 83398 32594 62304 10238 20221 30135 40140 84520 333 10277 29085 55005 59010;EQDQ01  00002PRCP99
0201833980999992001120512004-15660-038920FM-12+000599999V0200501N002112200019N0040001N1+02721+02301101341ADDAA124013091AY161061AY221061GF104991031021004501041001KA1240N+02241MA1999999101291MD1999999-0191MW1011REMSYN088AAXX  05124 83398 21496 40504 10272 20230 30129 40134 70162 83240 333 20224 59019 60134;
0167833980999992001120518004-15660-038920FM-12+000599999V0200901N003110450019N0040001N1+02861+02391101321ADDAA199000091GF106991041021008001041001MA1999999101271MD1999999-0051REMSYN070AAXX  05184 83398 32596 60906 10286 20239 30127 40132 84240 333 59005;EQDQ01  00002PRCP99
0198833980999992001120600004-15660-038920FM-12+000599999V0200501N003110450019N0040001N1+02521+02231101421ADDAA199000091GF105991031051008001041001KA1240M+02851MA1999999101301MD1999999+0021REMSYN088AAXX  06004 83398 32596 50506 10252 20223 30130 40142 83540 333 10285 29081 55097 58002;EQDQ01  00002PRCP99
0186833980999992001120612004-15660-038920FM-12+000599999V0200501N002112200019N0040001N1+02761+02191101641ADDAA199000091GF104991031021008001041001KA1240N+02231MA1999999101581MD1999999+0091REMSYN076AAXX  06124 83398 32596 40504 10276 20219 30158 40164 83240 333 20223 58009;EQDQ01  00002PRCP99
0167833980999992001120618004-15660-038920FM-12+000599999V0200501N002112200019N0040001N1+02771+02221101351ADDAA199000091GF103991021021008001041001MA1999999101301MD1999999+0031REMSYN070AAXX  06184 83398 32596 30504 10277 20222 30130 40135 82240 333 58003;EQDQ01  00002PRCP99
0198833980999992001120700004-15660-038920FM-12+000599999V0200501N003112200019N0010001N1+02531+02311101511ADDAA199000091GF104991021011008001041001KA1240M+02981MA1999999101461MD1999999+0091REMSYN088AAXX  07004 83398 32594 40506 10253 20231 30146 40151 82140 333 10298 29080 55119 58009;EQDQ01  00002PRCP99
0201833980999992001120712004-15660-038920FM-12+000599999V0200501N002110450019N0040001N1+02801+02341101541ADDAA124004191AY161061AY221061GF106991031051008001041001KA1240N+02291MA1999999101491MD1999999-0101MW1021REMSYN088AAXX  07124 83398 21596 60504 10280 20234 30149 40154 70262 83540 333 20229 59010 60044;
0167833980999992001120718004-15660-038920FM-12+000599999V0200501N003110450019N0040001N1+02801+02201101301ADDAA199000091GF106991041021008001041011MA1999999101251MD1999999-0051REMSYN070AAXX  07184 83398 32596 60506 10280 20220 30125 40130 84241 333 59005;EQDQ01  00002PRCP99
0201833980999992001121012004-15660-038920FM-12+000599999V0200901N002110450019N0040001N1+02781+02131101561ADDAA124007191AY161061AY221061GF106991041051008001041001KA1240N+02291MA1999999101511MD1999999-0041MW1021REMSYN088AAXX  10124 83398 21596 60904 10278 20213 30151 40156 70262 84540 333 20229 59004 60074;
0167833980999992001121018004-15660-038920FM-12+000599999V0200901N002111050019N0040001N1+02831+02111101421ADDAA199000091GF105991021021008001041041MA1999999101371MD1999999+0191REMSYN070AAXX  10184 83398 32596 50904 10283 20211 30137 40142 82244 333 58019;EQDQ01  00002PRCP99
0198833980999992001121100004-15660-038920FM-12+000599999V0200901N002112200019N0010001N1+02611+02111101571ADDAA199000091GF104991041011008001001001KA1240M+02921MA1999999101521MD1999999+0071REMSYN088AAXX  11004 83398 32594 40904 10261 20211 30152 40157 84100 333 10292 29078 55100 58007;EQDQ01  00002PRCP99
0201833980999992001121112004-15660-038920FM-12+000599999V0201801N001011050019N0040001N1+02621+02251101671ADDAA124009991AY161061AY221061GF106991021021004501041041KA1240N+02251MA1999999101611MD1999999+0101MW1011REMSYN088AAXX  11124 83398 21496 61802 10262 20225 30161 40167 70162 82244 333 20225 58010 60104;
0167833980999992001121118004-15660-038920FM-12+000599999V0200901N002110450019N0040001N1+02801+02151101431ADDAA199000091GF106991031051008001041011MA1999999101381MD1999999+0011REMSYN070AAXX  11184 83398 32596 60904 10280 20215 30138 40143 83541 333 58001;EQDQ01  00002PRCP99
0198833980999992001121200004-15660-038920FM-12+000599999V0209999C000012200019N0010001N1+02441+02271101561ADDAA199000091GF103991031011008001001001KA1240M+02901MA1999999101511MD1999999-0011REMSYN088AAXX  12004 83398 32594 30000 10244 20227 30151 40156 83100 333 10290 29082 55059 59001;EQDQ01  00002PRCP99
0201833980999992001121212004-15660-038920FM-12+000599999V0203601N001010450019N0040001N1+02641+02201101631ADDAA124007991AY161061AY221061GF106991041051004501041001KA1240N+02281MA1999999101571MD1999999-0041MW1011REMSYN088AAXX  12124 83398 21496 63602 10264 20220 30157 40163 70162 84540 333 20228 59004 60084;
0182833980999992001121218004-15660-038920FM-12+000599999V0200501N002110450019N0040001N1+02781+02301101261ADDAA106000191AY151061AY221061GF106991031051004501041041MA1999999101211MD1999999-0171MW1011REMSYN082AAXX  12184 83398 21496 60504 10278 20230 30121 40126 70152 83544 333 59017 69921;
0213833980999992001121300004-15660-038920FM-12+000599999V0202701N001010450019N0040001N1+02461+02281101431ADDAA106001091AY161061AY221061GF106991031051008001021001KA1240M+02841MA1999999101381MD1999999-0131MW1021REMSYN100AAXX  13004 83398 21596 62702 10246 20228 30138 40143 70262 83520 333 10284 29083 55049 59013 60011;
0201833980999992001121312004-15660-038920FM-12+000599999V0200501N002110450019N0040001N1+02781+02301101431ADDAA124002091AY151061AY221061GF106991041051008001021001KA1240N+02101MA1999999101381MD1999999-0191MW1021REMSYN088AAXX  13124 83398 21596 60504 10278 20230 30138 40143 70252 84520 333 20210 59019 60024;
0167833980999992001121318004-15660-038920FM-12+000599999V0200501N003110450019N0040001N1+02841+02261101161ADDAA199000091GF106991031051008001041011MA1999999101111MD1999999-0101REMSYN070AAXX  13184 83398 32596 60506 10284 20226 30111 40116 83541 333 59010;EQDQ01  00002PRCP99
0198833980999992001121400004-15660-038920FM-12+000599999V0200901N002110450019N0010001N1+02641+02251101261ADDAA199000091GF106991041051008001021001KA1240M+02921MA1999999101211MD1999999-0171REMSYN088AAXX  14004 83398 32594 60904 10264 20225 30121 40126 84520 333 10292 29076 55102 59017;EQDQ01  00002PRCP99
0186833980999992001121412004-15660-038920FM-12+000599999V0200501N003110450019N0040001N1+02831+02251101501ADDAA199000091GF105991031021008001041011KA1240N+02291MA1999999101451MD1999999+0071REMSYN076AAXX  14124 83398 32596 50506 10283 20225 30145 40150 83241 333 20229 58007;EQDQ01  00002PRCP99
0167833980999992001121418004-15660-038920FM-12+000599999V0200501N003111050019N0040001N1+02881+02371101181ADDAA199000091GF105991021021008001041011MA1999999101131MD1999999+0021REMSYN070AAXX  14184 83398 32596 50506 10288 20237 30113 40118 82241 333 58002;EQDQ01  00002PRCP99
0198833980999992001121500004-15660-038920FM-12+000599999V0200501N002110450019N0010001N1+02681+02281101381ADDAA199000091GF105991031021008001041001KA1240M+02981MA1999999101331MD1999999+0111REMSYN088AAXX  15004 83398 32594 50504 10268 20228 30133 40138 83240 333 10298 29076 55113 58011;EQDQ01  00002PRCP99
0201833980999992001121512004-15660-038920FM-12+000599999V0200501N003110450019N0040001N1+02861+02461101461ADDAA124001091AY161061AY221061GF106991041051008001021001KA1240N+02401MA1999999101411MD1999999-0041MW1021REMSYN088AAXX  15124 83398 21596 60506 10286 20246 30141 40146 70262 84520 333 20240 59004 60014;
0167833980999992001121518004-15660-038920FM-12+000599999V0200501N003111050019N0040001N1+02801+02381101211ADDAA199000091GF106991021021008001041041MA1999999101161MD1999999+0031REMSYN070AAXX  15184 83398 32596 60506 10280 20238 30116 40121 82244 333 58003;EQDQ01  00002PRCP99
0198833980999992001121600004-15660-038920FM-12+000599999V0203601N003110450019N0010001N1+02641+02391101411ADDAA199000091GF105991031011008001041001KA1240M+02991MA1999999101361MD1999999+0031REMSYN088AAXX  16004 83398 32594 53606 10264 20239 30136 40141 83140 333 10299 29082 55082 58003;EQDQ01  00002PRCP99
0186833980999992001121612004-15660-038920FM-12+000599999V0203601N004110450019N0040001N1+02841+02351101441ADDAA199000091GF106991041051008001041001KA1240N+02481MA1999999101391MD1999999-0021REMSYN076AAXX  16124 83398 32596 63608 10284 20235 30139 40144 84540 333 20248 59002;EQDQ01  00002PRCP99
0167833980999992001121618004-15660-038920FM-12+000599999V0200501N002110450019N0040001N1+02771+02291101151ADDAA199000091GF106991031051008001041011MA1999999101101MD1999999-0061REMSYN070AAXX  16184 83398 32596 60504 10277 20229 30110 40115 83541 333 59006;EQDQ01  00002PRCP99
0198833980999992001121700004-15660-038920FM-12+000599999V0203601N002112200019N0040001N1+02601+02351101291ADDAA199000091GF104991041011008001001001KA1240M+03001MA1999999101241MD1999999-0121REMSYN088AAXX  17004 83398 32596 43604 10260 20235 30124 40129 84100 333 10300 29081 55/// 59012;EQDQ01  00002PRCP99
0186833980999992001121712004-15660-038920FM-12+000599999V0200501N003110450019N0040001N1+02771+02331101291ADDAA199000091GF105991031021008001041001KA1240N+02461MA1999999101241MD1999999-0151REMSYN076AAXX  17124 83398 32596 50506 10277 20233 30124 40129 83240 333 20246 59015;EQDQ01  00002PRCP99
0167833980999992001121718004-15660-038920FM-12+000599999V0203601N002110450019N0040001N1+02881+02391100971ADDAA199000091GF105991031021008001041011MA1999999100921MD1999999-0181REMSYN070AAXX  17184 83398 32596 53604 10288 20239 30092 40097 83241 333 59018;EQDQ01  00002PRCP99
0198833980999992001121800004-15660-038920FM-12+000599999V0203201N001012200019N0010001N1+02601+02351101271ADDAA199000091GF104991021021008001041001KA1240M+03001MA1999999101221MD1999999-0021REMSYN088AAXX  18004 83398 32594 43202 10260 20235 30122 40127 82240 333 10300 29081 55082 59002;EQDQ01  00002PRCP99
0186833980999992001121812004-15660-038920FM-12+000599999V0203201N003110450019N0040001N1+02871+02401101281ADDAA199000091GF105991031021008001041001KA1240N+02421MA1999999101231MD1999999-0011REMSYN076AAXX  18124 83398 32596 53206 10287 20240 30123 40128 83240 333 20242 59001;EQDQ01  00002PRCP99
0167833980999992001121818004-15660-038920FM-12+000599999V0200501N003112200019N0040001N1+02881+02391101061ADDAA199000091GF104991021021008001041041MA1999999101011MD1999999+0091REMSYN070AAXX  18184 83398 32596 40506 10288 20239 30101 40106 82244 333 58009;EQDQ01  00002PRCP99
0198833980999992001121900004-15660-038920FM-12+000599999V0200501N002110450019N0010001N1+02611+02381101381ADDAA199000091GF105991031051008001021001KA1240M+02991MA1999999101331MD1999999+0111REMSYN088AAXX  19004 83398 32594 50504 10261 20238 30133 40138 83520 333 10299 29082 55081 58011;EQDQ01  00002PRCP99
0186833980999992001121912004-15660-038920FM-12+000599999V0200501N004110450019N0040001N1+02831+02341101351ADDAA199000091GF105991031021008001041001KA1240N+02391MA1999999101291MD1999999+0061REMSYN076AAXX  19124 83398 32596 50508 10283 20234 30129 40135 83240 333 20239 58006;EQDQ01  00002PRCP99
0167833980999992001121918004-15660-038920FM-12+000599999V0200501N002110450019N0040001N1+02751+02331101161ADDAA199000091GF105991031021008001041041MA1999999101111MD1999999+0101REMSYN070AAXX  19184 83398 32596 50504 10275 20233 30111 40116 83244 333 58010;EQDQ01  00002PRCP99
0198833980999992001122000004-15660-038920FM-12+000599999V0200501N002110450019N0010001N1+02601+02331101321ADDAA199000091GF105991031051008001041001KA1240M+02991MA1999999101271MD1999999-0061REMSYN088AAXX  20004 83398 32594 50504 10260 20233 30127 40132 83540 333 10299 29081 55064 59006;EQDQ01  00002PRCP99
0186833980999992001122012004-15660-038920FM-12+000599999V0203601N002110450019N0040001N1+02761+02341101501ADDAA199000091GF106991041051008001041001KA1240N+02381MA1999999101451MD1999999+0161REMSYN076AAXX  20124 83398 32596 63604 10276 20234 30145 40150 84540 333 20238 58016;EQDQ01  00002PRCP99
0167833980999992001122018004-15660-038920FM-12+000599999V0200501N002110450019N0040001N1+02801+02401101281ADDAA199000091GF105991031021008001051001MA1999999101231MD1999999+0121REMSYN070AAXX  20184 83398 32596 50504 10280 20240 30123 40128 83250 333 58012;EQDQ01  00002PRCP99
0198833980999992001122100004-15660-038920FM-12+000599999V0203201N001012200019N0010001N1+02581+02351101481ADDAA199000091GF104991021021008001041001KA1240M+02991MA1999999101431MD1999999+0161REMSYN088AAXX  21004 83398 32594 43202 10258 20235 30143 40148 82240 333 10299 29083 5514/ 58016;EQDQ01  00002PRCP99
0186833980999992001122112004-15660-038920FM-12+000599999V0200501N002110450019N0040001N1+02901+02391101581ADDAA199000091GF105991031021008001041001KA1240N+02421MA1999999101531MD1999999+0081REMSYN076AAXX  21124 83398 32596 50504 10290 20239 30153 40158 83240 333 20242 58008;EQDQ01  00002PRCP99
0167833980999992001122118004-15660-038920FM-12+000599999V0200501N004110450019N0040001N1+02881+02321101311ADDAA199000091GF106991031021008001041011MA1999999101261MD1999999+0031REMSYN070AAXX  21184 83398 32596 60508 10288 20232 30126 40131 83241 333 58003;EQDQ01  00002PRCP99
0198833980999992001122200004-15660-038920FM-12+000599999V0203601N001012200019N0010001N1+02581+02331101481ADDAA199000091GF103991021021008001041001KA1240M+03001MA1999999101431MD1999999+0001REMSYN088AAXX  22004 83398 32594 33602 10258 20233 30143 40148 82240 333 10300 29080 55082 58000;EQDQ01  00002PRCP99
0186833980999992001122212004-15660-038920FM-12+000599999V0200501N002110450019N0040001N1+02791+02141101651ADDAA199000091GF107991041051008001021001KA1240N+02281MA1999999101591MD1999999+0061REMSYN076AAXX  22124 83398 32596 70504 10279 20214 30159 40165 84520 333 20228 58006;EQDQ01  00002PRCP99
0167833980999992001122218004-15660-038920FM-12+000599999V0200501N001010075019N0040001N1+02661+02411101471ADDAA199000091GF108991051071008001021999MA1999999101421MD1999999+0181REMSYN070AAXX  22184 83398 32596 80502 10266 20241 30142 40147 8572/ 333 58018;EQDQ01  00002PRCP99
0213833980999992001122300004-15660-038920FM-12+000599999V0203601N001010042019N0010001N1+02501+02341101701ADDAA106002091AY151061AY221061GF108991051071004501021999KA1240M+02961MA1999999101641MD1999999+0211MW1501REMSYN100AAXX  23004 83398 21494 83602 10250 20234 30164 40170 75052 8572/ 333 10296 29084 55031 58021 60021;
0201833980999992001122312004-15660-038920FM-12+000599999V0209999C000010450019N0040001N1+02811+02451101731ADDAA124004191AY151061AY221061GF107991031051004501021011KA1240N+02381MA1999999101671MD1999999+0081MW1021REMSYN088AAXX  23124 83398 21496 70000 10281 20245 30167 40173 70252 83521 333 20238 58008 60044;
0167833980999992001122318004-15660-038920FM-12+000599999V0200501N002111050019N0040001N1+02871+02401101461ADDAA199000091GF105991021021008001041011MA1999999101411MD1999999-0011REMSYN070AAXX  23184 83398 32596 50504 10287 20240 30141 40146 82241 333 59001;EQDQ01  00002PRCP99
0198833980999992001122400004-15660-038920FM-12+000599999V0200501N002111050019N0010001N1+02661+02331101611ADDAA199000091GF105991021021008001041041KA1240M+02981MA1999999101551MD1999999-0091REMSYN088AAXX  24004 83398 32594 50504 10266 20233 30155 40161 82244 333 10298 29080 55088 59009;EQDQ01  00002PRCP99
0186833980999992001122412004-15660-038920FM-12+000599999V0200501N002110450019N0040001N1+02841+02381101651ADDAA199000091GF106991041051008001041001KA1240N+02211MA1999999101591MD1999999-0081REMSYN076AAXX  24124 83398 32596 60504 10284 20238 30159 40165 84540 333 20221 59008;EQDQ01  00002PRCP99
0167833980999992001122418004-15660-038920FM-12+000599999V0200501N003110450019N0040001N1+02861+02311101441ADDAA199000091GF106991031051008001041011MA1999999101391MD1999999-0021REMSYN070AAXX  24184 83398 32596 60506 10286 20231 30139 40144 83541 333 59002;EQDQ01  00002PRCP99
0186833980999992001122512004-15660-038920FM-12+000599999V0200501N002110450019N0040001N1+02841+02291101781ADDAA199000091GF105991031021008001041001KA1240N+02281MA1999999101721MD1999999+0131REMSYN076AAXX  25124 83398 32596 50504 10284 20229 30172 40178 83240 333 20228 58013;EQDQ01  00002PRCP99
0167833980999992001122518004-15660-038920FM-12+000599999V0200901N003110450019N0040001N1+02841+02261101471ADDAA199000091GF105991031021008001041011MA1999999101421MD1999999+0031REMSYN070AAXX  25184 83398 32596 50906 10284 20226 30142 40147 83241 333 58003;EQDQ01  00002PRCP99
0198833980999992001122600004-15660-038920FM-12+000599999V0200501N002112200019N0010001N1+02621+02351101651ADDAA199000091GF102991021011008001001001KA1240M+03001MA1999999101591MD1999999+0011REMSYN088AAXX  26004 83398 32594 20504 10262 20235 30159 40165 82100 333 10300 29078 55112 58001;EQDQ01  00002PRCP99
0201833980999992001122612004-15660-038920FM-12+000599999V0200501N002110450019N0040001N1+02811+02351101731ADDAA124000891AY151061AY221061GF105991031021008001041001KA1240N+02281MA1999999101671MD1999999-0051MW1011REMSYN088AAXX  26124 83398 21596 50504 10281 20235 30167 40173 70152 83240 333 20228 59005 69984;
0167833980999992001122618004-15660-038920FM-12+000599999V0201401N002111050019N0040001N1+02881+02301101321ADDAA199000091GF105991021021008001041041MA1999999101271MD1999999-0151REMSYN070AAXX  26184 83398 32596 51404 10288 20230 30127 40132 82244 333 59015;EQDQ01  00002PRCP99
0198833980999992001122700004-15660-038920FM-12+000599999V0200901N002110450019N0010001N1+02651+02361101641ADDAA199000091GF106991041051008001021001KA1240M+02951MA1999999101561MD1999999-0031REMSYN088AAXX  27004 83398 32594 60904 10265 20236 30156 40164 84520 333 10295 29078 55100 59003;EQDQ01  00002PRCP99
0201833980999992001122712004-15660-038920FM-12+000599999V0202301N001010042019N0040001N1+02531+02341101711ADDAA124020191AY161061AY221061GF108991051051004501021999KA1240N+02271MA1999999101651MD1999999-0021MW1021REMSYN088AAXX  27124 83398 21496 82302 10253 20234 30165 40171 70262 8552/ 333 20227 59002 60204;
0182833980999992001122718004-15660-038920FM-12+000599999V0200501N002110075019N0040001N1+02771+02371101381ADDAA106000191AY151061AY221061GF106991051051008001041001MA1999999101331MD1999999+0061MW1011REMSYN082AAXX  27184 83398 21596 60504 10277 20237 30133 40138 70152 85540 333 58006 69911;
0198833980999992001122800004-15660-038920FM-12+000599999V0203601N001010450019N0010001N1+02581+02391101541ADDAA199000091GF106991021021008001041011KA1240M+02881MA1999999101491MD1999999-0071REMSYN088AAXX  28004 83398 32594 63602 10258 20239 30149 40154 82241 333 10288 29084 55027 59007;EQDQ01  00002PRCP99
0201833980999992001122812004-15660-038920FM-12+000599999V0203201N001010450019N0040001N1+02631+02411101741ADDAA124000591AY151061AY221061GF107991041051004501021001KA1240N+02241MA1999999101681MD1999999+0031MW1021REMSYN088AAXX  28124 83398 21496 73202 10263 20241 30168 40174 70252 84520 333 20224 58003 69944;
0167833980999992001122818004-15660-038920FM-12+000599999V0200901N003110450019N0040001N1+02801+02311101421ADDAA199000091GF107991041051008001021001MA1999999101371MD1999999+0041REMSYN070AAXX  28184 83398 32596 70906 10280 20231 30137 40142 84520 333 58004;EQDQ01  00002PRCP99
0198833980999992001122900004-15660-038920FM-12+000599999V0200501N002110450019N0010001N1+02681+02351101531ADDAA199000091GF106991041051008001021001KA1240M+02951MA1999999101481MD1999999-0011REMSYN088AAXX  29004 83398 32594 60504 10268 20235 30148 40153 84520 333 10295 29082 55033 59001;EQDQ01  00002PRCP99
0201833980999992001122912004-15660-038920FM-12+000599999V0203601N001010450019N0040001N1+02811+02391101571ADDAA124000591AY151061AY221061GF106991031051004501041011KA1240N+02351MA1999999101521MD1999999-0161MW1011REMSYN088AAXX  29124 83398 21496 63602 10281 20239 30152 40157 70152 83541 333 20235 59016 69964;
0167833980999992001122918004-15660-038920FM-12+000599999V0200501N002110450019N0040001N1+02731+02391101391ADDAA199000091GF107991041051008001021001MA1999999101341MD1999999-0031REMSYN070AAXX  29184 83398 32596 70504 10273 20239 30134 40139 84520 333 59003;EQDQ01  00002PRCP99
0198833980999992001123000004-15660-038920FM-12+000599999V0200501N002110075019N0010001N1+02621+02371101611ADDAA199000091GF108991051051008001021999KA1240M+02941MA1999999101551MD1999999+0071REMSYN088AAXX  30004 83398 32594 80504 10262 20237 30155 40161 8552/ 333 10294 29083 55023 58007;EQDQ01  00002PRCP99
0201833980999992001123012004-15660-038920FM-12+000599999V0203201N001010450019N0040001N1+02541+02381101431ADDAA124007191AY161061AY221061GF108991041051008001021999KA1240N+02201MA1999999101381MD1999999-0141MW1511REMSYN088AAXX  30124 83398 21596 83202 10254 20238 30138 40143 75162 8452/ 333 20220 59014 60074;
0182833980999992001123018004-15660-038920FM-12+000599999V0203601N001010075019N0040001N1+02521+02231101241ADDAA106004191AY151061AY221061GF108991051051008001021999MA1999999101191MD1999999-0151MW1021REMSYN082AAXX  30184 83398 21596 83602 10252 20223 30119 40124 70252 8552/ 333 59015 60041;
0213833980999992001123100004-15660-038920FM-12+000599999V0209999C000010042019N0010001N1+02381+02171101271ADDAA106000591AY151061AY221061GF108991051051004501021999KA1240M+02741MA1999999101221MD1999999-0331MW1501REMSYN100AAXX  31004 83398 21494 80000 10238 20217 30122 40127 75052 8552/ 333 10274 29088 55000 59033 69941;
0201833980999992001123112004-15660-038920FM-12+000599999V0203601N001010075019N0040001N1+02121+02041101451ADDAA124013091AY161061AY221061GF108991051071008001021999KA1240N+02011MA1999999101401MD1999999+0021MW1621REMSYN088AAXX  31124 83398 21596 83602 10212 20204 30140 40145 76262 8572/ 333 20201 58002 60134;
0182833980999992001123118004-15660-038920FM-12+000599999V0200501N002110042019N0040001N1+02581+02371100981ADDAA106005191AY161061AY221061GF107991051051004501021001MA1999999100931MD1999999-0261MW1021REMSYN082AAXX  31184 83398 21496 70504 10258 20237 30093 40098 70262 85520 333 59026 60051;
