0120827840999992013010819004-07317-039300FM-15+0409SBJU V0202001N004612200019N0112651N1+03601+01301999999ADDGA1041+006601999GF104991999999999999999999MA1101191999999REMMET051METAR SBJU 081900Z 20009KT 9999 SCT022 36/13 Q1012;
0120827840999992013010820004-07317-039300FM-15+0409SBJU V0201401N002612200019N0112651N1+03601+01201999999ADDGA1041+006601999GF104991999999999999999999MA1101191999999REMMET051METAR SBJU 082000Z 14005KT 9999 SCT022 36/12 Q1012;
0120827840999992013010821004-07317-039300FM-15+0409SBJU V0201901N002612200019N0112651N1+03501+01201999999ADDGA1041+006601999GF104991999999999999999999MA1101191999999REMMET051METAR SBJU 082100Z 19005KT 9999 SCT022 35/12 Q1012;
0120827840999992013010822004-07317-039300FM-15+0409SBJU V0209999C000012200019N0112651N1+03301+01301999999ADDGA1041+006001999GF104991999999999999999999MA1101191999999REMMET051METAR SBJU 082200Z 00000KT 9999 SCT020 33/13 Q1012;
0120827840999992013010823004-07317-039300FM-15+0409SBJU V0209999C000012200019N0112651N1+03201+01301999999ADDGA1041+006001999GF104991999999999999999999MA1101291999999REMMET051METAR SBJU 082300Z 00000KT 9999 SCT020 32/13 Q1013;
0072827840999992013010900004-07317-039300FM-15+0409SBJU V0209999C000019999999Y0099001N1+03101+01301999999ADDMA1101391999999REMMET045METAR SBJU 090000Z 00000KT CAVOK 31/13 Q1014;
0072827840999992013010901004-07317-039300FM-15+0409SBJU V0209999C000019999999Y0099001N1+03001+01601999999ADDMA1101491999999REMMET045METAR SBJU 090100Z 00000KT CAVOK 30/16 Q1015;
0120827840999992013010902004-07317-039300FM-15+0409SBJU V0209999C000012200019N0112651N1+03001+01701999999ADDGA1041+006001999GF104991999999999999999999MA1101491999999REMMET051METAR SBJU 090200Z 00000KT 9999 SCT020 30/17 Q1015;
0120827840999992013010903004-07317-039300FM-15+0409SBJU V0200401N003612200019N0112651N1+02901+01701999999ADDGA1041+006001999GF104991999999999999999999MA1101491999999REMMET051METAR SBJU 090300Z 04007KT 9999 SCT020 29/17 Q1015;
0120827840999992013010904004-07317-039300FM-15+0409SBJU V0200101N002610060019N0112651N1+02701+01901999999ADDGA1071+006001999GF107991999999999999999999MA1101491999999REMMET051METAR SBJU 090400Z 01005KT 9999 BKN020 27/19 Q1015;
0120827840999992013010905004-07317-039300FM-15+0409SBJU V0209999C000010051019N0112651N1+02601+02001999999ADDGA1071+005101999GF107991999999999999999999MA1101491999999REMMET051METAR SBJU 090500Z 00000KT 9999 BKN017 26/20 Q1015;
0120827840999992013010906004-07317-039300FM-15+0409SBJU V0209999C000010051019N0112651N1+02401+02001999999ADDGA1071+005101999GF107991999999999999999999MA1101491999999REMMET051METAR SBJU 090600Z 00000KT 9999 BKN017 24/20 Q1015;
0120827840999992013010907004-07317-039300FM-15+0409SBJU V0200201N002110051019N0112651N1+02401+02101999999ADDGA1071+005101999GF107991999999999999999999MA1101591999999REMMET051METAR SBJU 090700Z 02004KT 9999 BKN017 24/21 Q1016;
0120827840999992013010908004-07317-039300FM-15+0409SBJU V0209999C000010051019N0112651N1+02301+02001999999ADDGA1071+005101999GF107991999999999999999999MA1101691999999REMMET051METAR SBJU 090800Z 00000KT 9999 BKN017 23/20 Q1017;
0120827840999992013010909004-07317-039300FM-15+0409SBJU V0209999C000010060019N0112651N1+02401+02001999999ADDGA1071+006001999GF107991999999999999999999MA1101691999999REMMET051METAR SBJU 090900Z 00000KT 9999 BKN020 24/20 Q1017;
0120827840999992013010910004-07317-039300FM-15+0409SBJU V0209999C000012200019N0112651N1+02601+02001999999ADDGA1041+006001999GF104991999999999999999999MA1101801999999REMMET051METAR SBJU 091000Z 00000KT 9999 SCT020 26/20 Q1018;
0120827840999992013010911004-07317-039300FM-15+0409SBJU V0201101N002612200019N0112651N1+02701+01801999999ADDGA1041+006001999GF104991999999999999999999MA1101801999999REMMET051METAR SBJU 091100Z 11005KT 9999 SCT020 27/18 Q1018;
0120827840999992013010912004-07317-039300FM-15+0409SBJU V0200701N001012200019N0112651N1+02801+01701999999ADDGA1041+006001999GF104991999999999999999999MA1101801999999REMMET051METAR SBJU 091200Z 07002KT 9999 SCT020 28/17 Q1018;
0120827840999992013010913004-07317-039300FM-15+0409SBJU V0201701N005112200019N0112651N1+03001+01401999999ADDGA1021+006001999GF102991999999999999999999MA1101691999999REMMET051METAR SBJU 091300Z 17010KT 9999 FEW020 30/14 Q1017;
0120827840999992013010914004-07317-039300FM-15+0409SBJU V0201001N004112200019N0112651N1+03101+01501999999ADDGA1041+006301999GF104991999999999999999999MA1101591999999REMMET051METAR SBJU 091400Z 10008KT 9999 SCT021 31/15 Q1016;
0120827840999992013010916004-07317-039300FM-15+0409SBJU V0200901N002612200019N0112651N1+03301+01501999999ADDGA1041+006601999GF104991999999999999999999MA1101391999999REMMET051METAR SBJU 091600Z 09005KT 9999 SCT022 33/15 Q1014;
0120827840999992013010917004-07317-039300FM-15+0409SBJU V0202101N003612200019N0112651N1+03501+01401999999ADDGA1041+006601999GF104991999999999999999999MA1101291999999REMMET051METAR SBJU 091700Z 21007KT 9999 SCT022 35/14 Q1013;
0120827840999992013010918004-07317-039300FM-15+0409SBJU V0209999C000012200019N0112651N1+03501+01401999999ADDGA1021+006901999GF102991999999999999999999MA1101191999999REMMET051METAR SBJU 091800Z 00000KT 9999 FEW023 35/14 Q1012;
0120827840999992013010919004-07317-039300FM-15+0409SBJU V0201601N002112200019N0112651N1+03601+01301999999ADDGA1021+006901999GF102991999999999999999999MA1101081999999REMMET051METAR SBJU 091900Z 16004KT 9999 FEW023 36/13 Q1011;
0120827840999992013010920004-07317-039300FM-15+0409SBJU V0200301N002112200019N0112651N1+03601+01401999999ADDGA1021+006001999GF102991999999999999999999MA1101081999999REMMET051METAR SBJU 092000Z 03004KT 9999 FEW020 36/14 Q1011;
0120827840999992013010921004-07317-039300FM-15+0409SBJU V0209999C000012200019N0112651N1+03401+01501999999ADDGA1021+006001999GF102991999999999999999999MA1101191999999REMMET051METAR SBJU 092100Z 00000KT 9999 FEW020 34/15 Q1012;
0120827840999992013010922004-07317-039300FM-15+0409SBJU V0209999C000012200019N0112651N1+03301+01501999999ADDGA1021+006001999GF102991999999999999999999MA1101191999999REMMET051METAR SBJU 092200Z 00000KT 9999 FEW020 33/15 Q1012;
0120827840999992013010923004-07317-039300FM-15+0409SBJU V0201601N004612200019N0112651N1+03201+01401999999ADDGA1041+006001999GF104991999999999999999999MA1101291999999REMMET051METAR SBJU 092300Z 16009KT 9999 SCT020 32/14 Q1013;
0120827840999992013011000004-07317-039300FM-15+0409SBJU V0202201N001512200019N0112651N1+03101+01501999999ADDGA1041+006001999GF104991999999999999999999MA1101291999999REMMET051METAR SBJU 100000Z 22003KT 9999 SCT020 31/15 Q1013;
0120827840999992013011001004-07317-039300FM-15+0409SBJU V0209999C000012200019N0112651N1+03001+01701999999ADDGA1041+006001999GF104991999999999999999999MA1101391999999REMMET051METAR SBJU 100100Z 00000KT 9999 SCT020 30/17 Q1014;
0120827840999992013011002004-07317-039300FM-15+0409SBJU V0201801N004112200019N0112651N1+03001+01601999999ADDGA1041+006001999GF104991999999999999999999MA1101291999999REMMET051METAR SBJU 100200Z 18008KT 9999 SCT020 30/16 Q1013;
0120827840999992013011003004-07317-039300FM-15+0409SBJU V0200501N006212200019N0112651N1+02901+01701999999ADDGA1041+006001999GF104991999999999999999999MA1101391999999REMMET051METAR SBJU 100300Z 05012KT 9999 SCT020 29/17 Q1014;
0120827840999992013011004004-07317-039300FM-15+0409SBJU V0200401N002612200019N0112651N1+02901+01701999999ADDGA1041+006001999GF104991999999999999999999MA1101391999999REMMET051METAR SBJU 100400Z 04005KT 9999 SCT020 29/17 Q1014;
0120827840999992013011005004-07317-039300FM-15+0409SBJU V0200401N002112200019N0112651N1+02701+02001999999ADDGA1041+006001999GF104991999999999999999999MA1101391999999REMMET051METAR SBJU 100500Z 04004KT 9999 SCT020 27/20 Q1014;
0120827840999992013011006004-07317-039300FM-15+0409SBJU V0200401N002112200019N0112651N1+02701+02001999999ADDGA1041+006001999GF104991999999999999999999MA1101491999999REMMET051METAR SBJU 100600Z 04004KT 9999 SCT020 27/20 Q1015;
0120827840999992013011007004-07317-039300FM-15+0409SBJU V0200501N002112200019N0112651N1+02601+02001999999ADDGA1041+006001999GF104991999999999999999999MA1101491999999REMMET051METAR SBJU 100700Z 05004KT 9999 SCT020 26/20 Q1015;
0120827840999992013011008004-07317-039300FM-15+0409SBJU V0200401N002612200019N0112651N1+02601+02001999999ADDGA1041+006001999GF104991999999999999999999MA1101491999999REMMET051METAR SBJU 100800Z 04005KT 9999 SCT020 26/20 Q1015;
0120827840999992013011009004-07317-039300FM-15+0409SBJU V0209999C000012200019N0112651N1+02601+02001999999ADDGA1041+006001999GF104991999999999999999999MA1101591999999REMMET051METAR SBJU 100900Z 00000KT 9999 SCT020 26/20 Q1016;
0120827840999992013011010004-07317-039300FM-15+0409SBJU V0209999C000010060019N0112651N1+02601+02001999999ADDGA1071+006001999GF107991999999999999999999MA1101591999999REMMET051METAR SBJU 101000Z 00000KT 9999 BKN020 26/20 Q1016;
0120827840999992013011011004-07317-039300FM-15+0409SBJU V0200801N004112200019N0112651N1+02701+01801999999ADDGA1041+006001999GF104991999999999999999999MA1101591999999REMMET051METAR SBJU 101100Z 08008KT 9999 SCT020 27/18 Q1016;
0120827840999992013011012004-07317-039300FM-15+0409SBJU V0209999C000010060019N0112651N1+02901+01801999999ADDGA1071+006001999GF107991999999999999999999MA1101591999999REMMET051METAR SBJU 101200Z 00000KT 9999 BKN020 29/18 Q1016;
0120827840999992013011013004-07317-039300FM-15+0409SBJU V0209999C000012200019N0112651N1+03001+01801999999ADDGA1041+006001999GF104991999999999999999999MA1101591999999REMMET051METAR SBJU 101300Z 00000KT 9999 SCT020 30/18 Q1016;
0120827840999992013011014004-07317-039300FM-15+0409SBJU V0201001N004112200019N0112651N1+03201+01601999999ADDGA1041+006001999GF104991999999999999999999MA1101491999999REMMET051METAR SBJU 101400Z 10008KT 9999 SCT020 32/16 Q1015;
0120827840999992013011015004-07317-039300FM-15+0409SBJU V0209999C000012200019N0112651N1+03301+01601999999ADDGA1041+006001999GF104991999999999999999999MA1101391999999REMMET051METAR SBJU 101500Z 00000KT 9999 SCT020 33/16 Q1014;
0120827840999992013011016004-07317-039300FM-15+0409SBJU V0201101N003612200019N0112651N1+03301+01501999999ADDGA1021+006001999GF102991999999999999999999MA1101291999999REMMET051METAR SBJU 101600Z 11007KT 9999 FEW020 33/15 Q1013;
0120827840999992013011017004-07317-039300FM-15+0409SBJU V0201801N003612200019N0112651N1+03501+01301999999ADDGA1041+006601999GF104991999999999999999999MA1101191999999REMMET051METAR SBJU 101700Z 18007KT 9999 SCT022 35/13 Q1012;
0120827840999992013011018004-07317-039300FM-15+0409SBJU V0201601N002612200019N0112651N1+03601+01301999999ADDGA1041+006601999GF104991999999999999999999MA1101081999999REMMET051METAR SBJU 101800Z 16005KT 9999 SCT022 36/13 Q1011;
0120827840999992013011019004-07317-039300FM-15+0409SBJU V0201801N003612200019N0112651N1+03601+01201999999ADDGA1021+006601999GF102991999999999999999999MA1101081999999REMMET051METAR SBJU 101900Z 18007KT 9999 FEW022 36/12 Q1011;
0120827840999992013011020004-07317-039300FM-15+0409SBJU V0201901N003612200019N0112651N1+03601+01301999999ADDGA1021+006601999GF102991999999999999999999MA1101081999999REMMET051METAR SBJU 102000Z 19007KT 9999 FEW022 36/13 Q1011;
0120827840999992013011021004-07317-039300FM-15+0409SBJU V0201701N002612200019N0112651N1+03501+01201999999ADDGA1021+006601999GF102991999999999999999999MA1101081999999REMMET051METAR SBJU 102100Z 17005KT 9999 FEW022 35/12 Q1011;
0120827840999992013011022004-07317-039300FM-15+0409SBJU V0201901N001512200019N0112651N1+03301+01201999999ADDGA1041+006301999GF104991999999999999999999MA1101081999999REMMET051METAR SBJU 102200Z 19003KT 9999 SCT021 33/12 Q1011;
0120827840999992013011023004-07317-039300FM-15+0409SBJU V0201901N001012200019N0112651N1+03201+01301999999ADDGA1041+006301999GF104991999999999999999999MA1101191999999REMMET051METAR SBJU 102300Z 19002KT 9999 SCT021 32/13 Q1012;
0120827840999992013011100004-07317-039300FM-15+0409SBJU V0201201N005112200019N0112651N1+03201+01301999999ADDGA1041+006001999GF104991999999999999999999MA1101291999999REMMET051METAR SBJU 110000Z 12010KT 9999 SCT020 32/13 Q1013;
0120827840999992013011101004-07317-039300FM-15+0409SBJU V0201501N002110060019N0112651N1+03001+01501999999ADDGA1071+006001999GF107991999999999999999999MA1101291999999REMMET051METAR SBJU 110100Z 15004KT 9999 BKN020 30/15 Q1013;
0120827840999992013011102004-07317-039300FM-15+0409SBJU V0201901N001010060019N0112651N1+03001+01401999999ADDGA1071+006001999GF107991999999999999999999MA1101291999999REMMET051METAR SBJU 110200Z 19002KT 9999 BKN020 30/14 Q1013;
0120827840999992013011103004-07317-039300FM-15+0409SBJU V0201901N001010060019N0112651N1+03001+01401999999ADDGA1071+006001999GF107991999999999999999999MA1101291999999REMMET051METAR SBJU 110300Z 19002KT 9999 BKN020 30/14 Q1013;
0120827840999992013011104004-07317-039300FM-15+0409SBJU V0200601N004112200019N0112651N1+02701+02001999999ADDGA1041+006001999GF104991999999999999999999MA1101291999999REMMET051METAR SBJU 110400Z 06008KT 9999 SCT020 27/20 Q1013;
0120827840999992013011105004-07317-039300FM-15+0409SBJU V0200401N003112200019N0112651N1+02601+02001999999ADDGA1041+006001999GF104991999999999999999999MA1101291999999REMMET051METAR SBJU 110500Z 04006KT 9999 SCT020 26/20 Q1013;
0120827840999992013011106004-07317-039300FM-15+0409SBJU V0200301N002112200019N0112651N1+02601+02001999999ADDGA1041+006001999GF104991999999999999999999MA1101291999999REMMET051METAR SBJU 110600Z 03004KT 9999 SCT020 26/20 Q1013;
0120827840999992013011107004-07317-039300FM-15+0409SBJU V0209999C000012200019N0112651N1+02601+02001999999ADDGA1041+006001999GF104991999999999999999999MA1101291999999REMMET051METAR SBJU 110700Z 00000KT 9999 SCT020 26/20 Q1013;
0120827840999992013011108004-07317-039300FM-15+0409SBJU V0200601N002112200019N0112651N1+02601+02001999999ADDGA1041+006001999GF104991999999999999999999MA1101291999999REMMET051METAR SBJU 110800Z 06004KT 9999 SCT020 26/20 Q1013;
0120827840999992013011109004-07317-039300FM-15+0409SBJU V0201001N002110060019N0112651N1+02501+02001999999ADDGA1071+006001999GF107991999999999999999999MA1101291999999REMMET051METAR SBJU 110900Z 10004KT 9999 BKN020 25/20 Q1013;
0120827840999992013011110004-07317-039300FM-15+0409SBJU V0201001N004112200019N0112651N1+02601+02001999999ADDGA1041+006001999GF104991999999999999999999MA1101391999999REMMET051METAR SBJU 111000Z 10008KT 9999 SCT020 26/20 Q1014;
0120827840999992013011111004-07317-039300FM-15+0409SBJU V0201001N005712200019N0112651N1+02701+01701999999ADDGA1041+006001999GF104991999999999999999999MA1101391999999REMMET051METAR SBJU 111100Z 10011KT 9999 SCT020 27/17 Q1014;
0120827840999992013011112004-07317-039300FM-15+0409SBJU V0200701N002112200019N0112651N1+02801+01701999999ADDGA1021+006001999GF102991999999999999999999MA1101391999999REMMET051METAR SBJU 111200Z 07004KT 9999 FEW020 28/17 Q1014;
0120827840999992013011113004-07317-039300FM-15+0409SBJU V0201701N003612200019N0112651N1+03101+01601999999ADDGA1041+006601999GF104991999999999999999999MA1101391999999REMMET051METAR SBJU 111300Z 17007KT 9999 SCT022 31/16 Q1014;
0120827840999992013011114004-07317-039300FM-15+0409SBJU V0201101N003612200019N0112651N1+03101+01501999999ADDGA1041+006601999GF104991999999999999999999MA1101391999999REMMET051METAR SBJU 111400Z 11007KT 9999 SCT022 31/15 Q1014;
0120827840999992013011115004-07317-039300FM-15+0409SBJU V0201401N002612200019N0112651N1+03201+01401999999ADDGA1041+006601999GF104991999999999999999999MA1101291999999REMMET051METAR SBJU 111500Z 14005KT 9999 SCT022 32/14 Q1013;
0120827840999992013011116004-07317-039300FM-15+0409SBJU V0201701N001510066019N0112651N1+03401+01401999999ADDGA1071+006601999GF107991999999999999999999MA1101191999999REMMET051METAR SBJU 111600Z 17003KT 9999 BKN022 34/14 Q1012;
0120827840999992013011117004-07317-039300FM-15+0409SBJU V0202101N001510066019N0112651N1+03501+01301999999ADDGA1071+006601999GF107991999999999999999999MA1101021999999REMMET051METAR SBJU 111700Z 21003KT 9999 BKN022 35/13 Q1010;
0120827840999992013011118004-07317-039300FM-15+0409SBJU V0209999C000012200019N0112651N1+03501+01301999999ADDGA1041+006901999GF104991999999999999999999MA1101021999999REMMET051METAR SBJU 111800Z 00000KT 9999 SCT023 35/13 Q1010;
0120827840999992013011119004-07317-039300FM-15+0409SBJU V0201201N002112200019N0112651N1+03601+01301999999ADDGA1041+006901999GF104991999999999999999999MA1100911999999REMMET051METAR SBJU 111900Z 12004KT 9999 SCT023 36/13 Q1009;
0120827840999992013011120004-07317-039300FM-15+0409SBJU V0200501N002112200019N0112651N1+03501+01301999999ADDGA1041+006901999GF104991999999999999999999MA1100911999999REMMET051METAR SBJU 112000Z 05004KT 9999 SCT023 35/13 Q1009;
0120827840999992013011121004-07317-039300FM-15+0409SBJU V0209999C000012200019N0112651N1+03501+01201999999ADDGA1041+006901999GF104991999999999999999999MA1101021999999REMMET051METAR SBJU 112100Z 00000KT 9999 SCT023 35/12 Q1010;
0120827840999992013011122004-07317-039300FM-15+0409SBJU V0209999C000012200019N0112651N1+03101+01201999999ADDGA1041+006001999GF104991999999999999999999MA1101021999999REMMET051METAR SBJU 112200Z 00000KT 9999 SCT020 31/12 Q1010;
0120827840999992013011123004-07317-039300FM-15+0409SBJU V0209999C000012200019N0112651N1+03001+01101999999ADDGA1041+006001999GF104991999999999999999999MA1101081999999REMMET051METAR SBJU 112300Z 00000KT 9999 SCT020 30/11 Q1011;
0120827840999992013011200004-07317-039300FM-15+0409SBJU V0209999C000012200019N0112651N1+03001+01101999999ADDGA1041+006001999GF104991999999999999999999MA1101081999999REMMET051METAR SBJU 120000Z 00000KT 9999 SCT020 30/11 Q1011;
0120827840999992013011201004-07317-039300FM-15+0409SBJU V0209999C000012200019N0112651N1+02901+01301999999ADDGA1041+006001999GF104991999999999999999999MA1101191999999REMMET051METAR SBJU 120100Z 00000KT 9999 SCT020 29/13 Q1012;
0120827840999992013011202004-07317-039300FM-15+0409SBJU V0209999C000012200019N0112651N1+02801+01401999999ADDGA1041+006001999GF104991999999999999999999MA1101191999999REMMET051METAR SBJU 120200Z 00000KT 9999 SCT020 28/14 Q1012;
0120827840999992013011203004-07317-039300FM-15+0409SBJU V0200301N002112200019N0112651N1+02801+01801999999ADDGA1041+006001999GF104991999999999999999999MA1101291999999REMMET051METAR SBJU 120300Z 03004KT 9999 SCT020 28/18 Q1013;
0120827840999992013011204004-07317-039300FM-15+0409SBJU V0209999C000012200019N0112651N1+02701+01901999999ADDGA1021+006001999GF102991999999999999999999MA1101191999999REMMET051METAR SBJU 120400Z 00000KT 9999 FEW020 27/19 Q1012;
0120827840999992013011205004-07317-039300FM-15+0409SBJU V0200301N002112200019N0112651N1+02701+01801999999ADDGA1021+006001999GF102991999999999999999999MA1101191999999REMMET051METAR SBJU 120500Z 03004KT 9999 FEW020 27/18 Q1012;
0120827840999992013011206004-07317-039300FM-15+0409SBJU V0200301N001512200019N0112651N1+02701+01801999999ADDGA1041+006001999GF104991999999999999999999MA1101191999999REMMET051METAR SBJU 120600Z 03003KT 9999 SCT020 27/18 Q1012;
0120827840999992013011207004-07317-039300FM-15+0409SBJU V0200501N001512200019N0112651N1+02601+01801999999ADDGA1041+006001999GF104991999999999999999999MA1101291999999REMMET051METAR SBJU 120700Z 05003KT 9999 SCT020 26/18 Q1013;
0120827840999992013011208004-07317-039300FM-15+0409SBJU V0209999C000012200019N0112651N1+02501+01801999999ADDGA1021+006001999GF102991999999999999999999MA1101391999999REMMET051METAR SBJU 120800Z 00000KT 9999 FEW020 25/18 Q1014;
0120827840999992013011209004-07317-039300FM-15+0409SBJU V0209999C000012200019N0112651N1+02401+01701999999ADDGA1021+006001999GF102991999999999999999999MA1101391999999REMMET051METAR SBJU 120900Z 00000KT 9999 FEW020 24/17 Q1014;
0120827840999992013011210004-07317-039300FM-15+0409SBJU V0209999C000012200019N0112651N1+02601+01601999999ADDGA1021+006001999GF102991999999999999999999MA1101491999999REMMET051METAR SBJU 121000Z 00000KT 9999 FEW020 26/16 Q1015;
0120827840999992013011211004-07317-039300FM-15+0409SBJU V0201301N004112200019N0112651N1+02701+01601999999ADDGA1021+006001999GF102991999999999999999999MA1101491999999REMMET051METAR SBJU 121100Z 13008KT 9999 FEW020 27/16 Q1015;
0120827840999992013011212004-07317-039300FM-15+0409SBJU V0201201N003112200019N0112651N1+02901+01501999999ADDGA1021+006001999GF102991999999999999999999MA1101491999999REMMET051METAR SBJU 121200Z 12006KT 9999 FEW020 29/15 Q1015;
0120827840999992013011213004-07317-039300FM-15+0409SBJU V0201301N005112200019N0112651N1+03001+01401999999ADDGA1021+006001999GF102991999999999999999999MA1101491999999REMMET051METAR SBJU 121300Z 13010KT 9999 FEW020 30/14 Q1015;
0120827840999992013011214004-07317-039300FM-15+0409SBJU V0200701N002612200019N0112651N1+03201+01401999999ADDGA1021+006301999GF102991999999999999999999MA1101391999999REMMET051METAR SBJU 121400Z 07005KT 9999 FEW021 32/14 Q1014;
0120827840999992013011215004-07317-039300FM-15+0409SBJU V0201801N003112200019N0112651N1+03301+01301999999ADDGA1021+006601999GF102991999999999999999999MA1101291999999REMMET051METAR SBJU 121500Z 18006KT 9999 FEW022 33/13 Q1013;
0120827840999992013011216004-07317-039300FM-15+0409SBJU V0200901N003612200019N0112651N1+03501+01201999999ADDGA1041+006601999GF104991999999999999999999MA1101191999999REMMET051METAR SBJU 121600Z 09007KT 9999 SCT022 35/12 Q1012;
0120827840999992013011217004-07317-039300FM-15+0409SBJU V0201201N004112200019N0112651N1+03501+01401999999ADDGA1041+006601999GF104991999999999999999999MA1101081999999REMMET051METAR SBJU 121700Z 12008KT 9999 SCT022 35/14 Q1011;
0120827840999992013011218004-07317-039300FM-15+0409SBJU V0201101N004612200019N0112651N1+03501+01301999999ADDGA1041+006601999GF104991999999999999999999MA1101081999999REMMET051METAR SBJU 121800Z 11009KT 9999 SCT022 35/13 Q1011;
0120827840999992013011219004-07317-039300FM-15+0409SBJU V0201201N005712200019N0112651N1+03501+01201999999ADDGA1041+006601999GF104991999999999999999999MA1101021999999REMMET051METAR SBJU 121900Z 12011KT 9999 SCT022 35/12 Q1010;
0120827840999992013011220004-07317-039300FM-15+0409SBJU V0201301N005112200019N0112651N1+03501+01201999999ADDGA1041+006601999GF104991999999999999999999MA1101021999999REMMET051METAR SBJU 122000Z 13010KT 9999 SCT022 35/12 Q1010;
0120827840999992013011221004-07317-039300FM-15+0409SBJU V0209999C000012200019N0112651N1+03401+01301999999ADDGA1041+006901999GF104991999999999999999999MA1101081999999REMMET051METAR SBJU 122100Z 00000KT 9999 SCT023 34/13 Q1011;
0120827840999992013011222004-07317-039300FM-15+0409SBJU V0209999C000012200019N0112651N1+03201+01301999999ADDGA1041+006001999GF104991999999999999999999MA1101081999999REMMET051METAR SBJU 122200Z 00000KT 9999 SCT020 32/13 Q1011;
0120827840999992013011223004-07317-039300FM-15+0409SBJU V0209999C000012200019N0112651N1+03201+01401999999ADDGA1041+006001999GF104991999999999999999999MA1101191999999REMMET051METAR SBJU 122300Z 00000KT 9999 SCT020 32/14 Q1012;
0120827840999992013011300004-07317-039300FM-15+0409SBJU V0209999C000012200019N0112651N1+03101+01401999999ADDGA1041+006001999GF104991999999999999999999MA1101391999999REMMET051METAR SBJU 130000Z 00000KT 9999 SCT020 31/14 Q1014;
0120827840999992013011301004-07317-039300FM-15+0409SBJU V0209999C000012200019N0112651N1+03101+01501999999ADDGA1041+006001999GF104991999999999999999999MA1101291999999REMMET051METAR SBJU 130100Z 00000KT 9999 SCT020 31/15 Q1013;
0072827840999992013011302004-07317-039300FM-15+0409SBJU V0209999C000019999999Y0099001N1+03001+01601999999ADDMA1101391999999REMMET045METAR SBJU 130200Z 00000KT CAVOK 30/16 Q1014;
0072827840999992013011303004-07317-039300FM-15+0409SBJU V0209999C000019999999Y0099001N1+02901+01601999999ADDMA1101391999999REMMET045METAR SBJU 130300Z 00000KT CAVOK 29/16 Q1014;
0120827840999992013011304004-07317-039300FM-15+0409SBJU V0202001N003112200019N0112651N1+02701+01401999999ADDGA1021+006001999GF102991999999999999999999MA1101291999999REMMET051METAR SBJU 130400Z 20006KT 9999 FEW020 27/14 Q1013;
0120827840999992013011305004-07317-039300FM-15+0409SBJU V0201901N003612200019N0112651N1+02701+01601999999ADDGA1021+006001999GF102991999999999999999999MA1101391999999REMMET051METAR SBJU 130500Z 19007KT 9999 FEW020 27/16 Q1014;
0120827840999992013011306004-07317-039300FM-15+0409SBJU V0202001N002112200019N0112651N1+02601+01501999999ADDGA1021+006001999GF102991999999999999999999MA1101391999999REMMET051METAR SBJU 130600Z 20004KT 9999 FEW020 26/15 Q1014;
0120827840999992013011307004-07317-039300FM-15+0409SBJU V0201901N001012200019N0112651N1+02601+01501999999ADDGA1021+006001999GF102991999999999999999999MA1101391999999REMMET051METAR SBJU 130700Z 19002KT 9999 FEW020 26/15 Q1014;
0120827840999992013011308004-07317-039300FM-15+0409SBJU V0201801N003112200019N0112651N1+02501+01401999999ADDGA1021+006001999GF102991999999999999999999MA1101491999999REMMET051METAR SBJU 130800Z 18006KT 9999 FEW020 25/14 Q1015;
0072827840999992013011309004-07317-039300FM-15+0409SBJU V0209999C000019999999Y0099001N1+02401+01501999999ADDMA1101491999999REMMET045METAR SBJU 130900Z 00000KT CAVOK 24/15 Q1015;
0072827840999992013011310004-07317-039300FM-15+0409SBJU V0201701N003619999999Y0099001N1+02601+01601999999ADDMA1101591999999REMMET045METAR SBJU 131000Z 17007KT CAVOK 26/16 Q1016;
0120827840999992013011311004-07317-039300FM-15+0409SBJU V0201701N005112200019N0112651N1+02801+01601999999ADDGA1021+006001999GF102991999999999999999999MA1101591999999REMMET051METAR SBJU 131100Z 17010KT 9999 FEW020 28/16 Q1016;
0120827840999992013011312004-07317-039300FM-15+0409SBJU V0201101N006212200019N0112651N1+02901+01501999999ADDGA1041+006001999GF104991999999999999999999MA1101591999999REMMET051METAR SBJU 131200Z 11012KT 9999 SCT020 29/15 Q1016;
0120827840999992013011313004-07317-039300FM-15+0409SBJU V0201201N004612200019N0112651N1+03001+01501999999ADDGA1041+006001999GF104991999999999999999999MA1101491999999REMMET051METAR SBJU 131300Z 12009KT 9999 SCT020 30/15 Q1015;
0120827840999992013011314004-07317-039300FM-15+0409SBJU V0201201N002110060019N0112651N1+03201+01401999999ADDGA1071+006001999GF107991999999999999999999MA1101491999999REMMET051METAR SBJU 131400Z 12004KT 9999 BKN020 32/14 Q1015;
0120827840999992013011315004-07317-039300FM-15+0409SBJU V0201501N003610060019N0112651N1+03301+01301999999ADDGA1071+006001999GF107991999999999999999999MA1101391999999REMMET051METAR SBJU 131500Z 15007KT 9999 BKN020 33/13 Q1014;
0120827840999992013011316004-07317-039300FM-15+0409SBJU V0209999C000010063019N0112651N1+03501+01301999999ADDGA1071+006301999GF107991999999999999999999MA1101191999999REMMET051METAR SBJU 131600Z 00000KT 9999 BKN021 35/13 Q1012;
0120827840999992013011317004-07317-039300FM-15+0409SBJU V0201401N004610063019N0112651N1+03601+01201999999ADDGA1071+006301999GF107991999999999999999999MA1101191999999REMMET051METAR SBJU 131700Z 14009KT 9999 BKN021 36/12 Q1012;
0120827840999992013011318004-07317-039300FM-15+0409SBJU V0200901N004610066019N0112651N1+03601+01201999999ADDGA1071+006601999GF107991999999999999999999MA1101081999999REMMET051METAR SBJU 131800Z 09009KT 9999 BKN022 36/12 Q1011;
0120827840999992013011319004-07317-039300FM-15+0409SBJU V0201401N002110066019N0112651N1+03601+01101999999ADDGA1071+006601999GF107991999999999999999999MA1101081999999REMMET051METAR SBJU 131900Z 14004KT 9999 BKN022 36/11 Q1011;
0120827840999992013011320004-07317-039300FM-15+0409SBJU V0201001N003110066019N0112651N1+03601+01101999999ADDGA1071+006601999GF107991999999999999999999MA1101081999999REMMET051METAR SBJU 132000Z 10006KT 9999 BKN022 36/11 Q1011;
0120827840999992013011321004-07317-039300FM-15+0409SBJU V0209999C000010060019N0112651N1+03501+01201999999ADDGA1071+006001999GF107991999999999999999999MA1101081999999REMMET051METAR SBJU 132100Z 00000KT 9999 BKN020 35/12 Q1011;
0120827840999992013011322004-07317-039300FM-15+0409SBJU V0202001N004110060019N0112651N1+03201+01601999999ADDGA1071+006001999GF107991999999999999999999MA1101191999999REMMET051METAR SBJU 132200Z 20008KT 9999 BKN020 32/16 Q1012;
0120827840999992013011323004-07317-039300FM-15+0409SBJU V0202001N004110060019N0112651N1+03001+01701999999ADDGA1071+006001999GF107991999999999999999999MA1101291999999REMMET051METAR SBJU 132300Z 20008KT 9999 BKN020 30/17 Q1013;
0120827840999992013011400004-07317-039300FM-15+0409SBJU V0201801N003110060019N0112651N1+03001+01701999999ADDGA1071+006001999GF107991999999999999999999MA1101391999999REMMET051METAR SBJU 140000Z 18006KT 9999 BKN020 30/17 Q1014;
0120827840999992013011401004-07317-039300FM-15+0409SBJU V0201601N004110060019N0112651N1+03001+01801999999ADDGA1071+006001999GF107991999999999999999999MA1101391999999REMMET051METAR SBJU 140100Z 16008KT 9999 BKN020 30/18 Q1014;
0120827840999992013011402004-07317-039300FM-15+0409SBJU V0201801N002110060019N0112651N1+02801+01901999999ADDGA1071+006001999GF107991999999999999999999MA1101491999999REMMET051METAR SBJU 140200Z 18004KT 9999 BKN020 28/19 Q1015;
0120827840999992013011403004-07317-039300FM-15+0409SBJU V0201701N005110060019N0112651N1+02701+01901999999ADDGA1071+006001999GF107991999999999999999999MA1101491999999REMMET051METAR SBJU 140300Z 17010KT 9999 BKN020 27/19 Q1015;
0120827840999992013011404004-07317-039300FM-15+0409SBJU V0201901N003110060019N0112651N1+02701+01901999999ADDGA1071+006001999GF107991999999999999999999MA1101391999999REMMET051METAR SBJU 140400Z 19006KT 9999 BKN020 27/19 Q1014;
0120827840999992013011405004-07317-039300FM-15+0409SBJU V0201901N002610060019N0112651N1+02501+02001999999ADDGA1071+006001999GF107991999999999999999999MA1101391999999REMMET051METAR SBJU 140500Z 19005KT 9999 BKN020 25/20 Q1014;
0120827840999992013011406004-07317-039300FM-15+0409SBJU V0209999C000010060019N0112651N1+02501+02001999999ADDGA1071+006001999GF107991999999999999999999MA1101391999999REMMET051METAR SBJU 140600Z 00000KT 9999 BKN020 25/20 Q1014;
0120827840999992013011407004-07317-039300FM-15+0409SBJU V0209999C000012200019N0112651N1+02501+01901999999ADDGA1041+006001999GF104991999999999999999999MA1101491999999REMMET051METAR SBJU 140700Z 00000KT 9999 SCT020 25/19 Q1015;
0120827840999992013011408004-07317-039300FM-15+0409SBJU V0209999C000012200019N0112651N1+02501+01901999999ADDGA1041+006001999GF104991999999999999999999MA1101491999999REMMET051METAR SBJU 140800Z 00000KT 9999 SCT020 25/19 Q1015;
0120827840999992013011409004-07317-039300FM-15+0409SBJU V0209999C000012200019N0112651N1+02501+01901999999ADDGA1041+006001999GF104991999999999999999999MA1101591999999REMMET051METAR SBJU 140900Z 00000KT 9999 SCT020 25/19 Q1016;
0120827840999992013011410004-07317-039300FM-15+0409SBJU V0201601N001012200019N0112651N1+02601+01901999999ADDGA1021+006001999GF102991999999999999999999MA1101591999999REMMET051METAR SBJU 141000Z 16002KT 9999 FEW020 26/19 Q1016;
0120827840999992013011411004-07317-039300FM-15+0409SBJU V0201601N004112200019N0112651N1+02801+01801999999ADDGA1021+006301999GF102991999999999999999999MA1101591999999REMMET051METAR SBJU 141100Z 16008KT 9999 FEW021 28/18 Q1016;
0120827840999992013011412004-07317-039300FM-15+0409SBJU V0201801N006712200019N0112651N1+02901+01701999999ADDGA1041+006301999GF104991999999999999999999MA1101591999999REMMET051METAR SBJU 141200Z 18013KT 9999 SCT021 29/17 Q1016;
0120827840999992013011413004-07317-039300FM-15+0409SBJU V0201601N007210063019N0112651N1+03001+01701999999ADDGA1071+006301999GF107991999999999999999999MA1101491999999REMMET051METAR SBJU 141300Z 16014KT 9999 BKN021 30/17 Q1015;
0120827840999992013011414004-07317-039300FM-15+0409SBJU V0201701N005110063019N0112651N1+03101+01701999999ADDGA1071+006301999GF107991999999999999999999MA1101491999999REMMET051METAR SBJU 141400Z 17010KT 9999 BKN021 31/17 Q1015;
0120827840999992013011415004-07317-039300FM-15+0409SBJU V0202001N005710063019N0112651N1+03201+01601999999ADDGA1071+006301999GF107991999999999999999999MA1101391999999REMMET051METAR SBJU 141500Z 20011KT 9999 BKN021 32/16 Q1014;
0120827840999992013011416004-07317-039300FM-15+0409SBJU V0201801N005112200019N0112651N1+03301+01601999999ADDGA1041+006001999GF104991999999999999999999MA1101291999999REMMET051METAR SBJU 141600Z 18010KT 9999 SCT020 33/16 Q1013;
0120827840999992013011417004-07317-039300FM-15+0409SBJU V0202001N002112200019N0112651N1+03301+01601999999ADDGA1041+006001999GF104991999999999999999999MA1101191999999REMMET051METAR SBJU 141700Z 20004KT 9999 SCT020 33/16 Q1012;
0120827840999992013011418004-07317-039300FM-15+0409SBJU V0202001N002112200019N0112651N1+03301+01601999999ADDGA1041+006001999GF104991999999999999999999MA1101191999999REMMET051METAR SBJU 141800Z 20004KT 9999 SCT020 33/16 Q1012;
0120827840999992013011419004-07317-039300FM-15+0409SBJU V0202001N003112200019N0112651N1+03501+01401999999ADDGA1041+006001999GF104991999999999999999999MA1101081999999REMMET051METAR SBJU 141900Z 20006KT 9999 SCT020 35/14 Q1011;
0120827840999992013011420004-07317-039300FM-15+0409SBJU V0201801N003612200019N0112651N1+03501+01401999999ADDGA1021+006601999GF102991999999999999999999MA1101081999999REMMET051METAR SBJU 142000Z 18007KT 9999 FEW022 35/14 Q1011;
0120827840999992013011421004-07317-039300FM-15+0409SBJU V0201901N003112200019N0112651N1+03401+01401999999ADDGA1041+006601999GF104991999999999999999999MA1101081999999REMMET051METAR SBJU 142100Z 19006KT 9999 SCT022 34/14 Q1011;
0120827840999992013011422004-07317-039300FM-15+0409SBJU V0209999C000012200019N0112651N1+02401+01401999999ADDGA1041+006001999GF104991999999999999999999MA1101191999999REMMET051METAR SBJU 142200Z 00000KT 9999 SCT020 24/14 Q1012;
0120827840999992013011423004-07317-039300FM-15+0409SBJU V0209999C000012200019N0112651N1+03101+01401999999ADDGA1041+006001999GF104991999999999999999999MA1101191999999REMMET051METAR SBJU 142300Z 00000KT 9999 SCT020 31/14 Q1012;
0120827840999992013011500004-07317-039300FM-15+0409SBJU V0209999C000012200019N0112651N1+03001+01501999999ADDGA1041+006001999GF104991999999999999999999MA1101191999999REMMET051METAR SBJU 150000Z 00000KT 9999 SCT020 30/15 Q1012;
0120827840999992013011501004-07317-039300FM-15+0409SBJU V0209999C000012200019N0112651N1+03001+01501999999ADDGA1041+006001999GF104991999999999999999999MA1101291999999REMMET051METAR SBJU 150100Z 00000KT 9999 SCT020 30/15 Q1013;
0120827840999992013011502004-07317-039300FM-15+0409SBJU V0209999C000012200019N0112651N1+03001+01601999999ADDGA1041+006001999GF104991999999999999999999MA1101191999999REMMET051METAR SBJU 150200Z 00000KT 9999 SCT020 30/16 Q1012;
0120827840999992013011503004-07317-039300FM-15+0409SBJU V0209999C000012200019N0112651N1+02901+01501999999ADDGA1041+006001999GF104991999999999999999999MA1101191999999REMMET051METAR SBJU 150300Z 00000KT 9999 SCT020 29/15 Q1012;
0120827840999992013011504004-07317-039300FM-15+0409SBJU V0202601N002112200019N0112651N1+02901+01801999999ADDGA1041+006001999GF104991999999999999999999MA1101191999999REMMET051METAR SBJU 150400Z 26004KT 9999 SCT020 29/18 Q1012;
0139827840999992013011505004-07317-039300FM-15+0409SBJU V0202401N00411220001CN0112651N1+02601+01701999999ADDGA1071+005701999GA2021+006301021MA1101191999999REMMET061METAR SBJU 150500Z 24008KT 9999 BKN019 FEW021TCU 26/17 Q1012;EQDQ01+000022SCOTCV
0139827840999992013011506004-07317-039300FM-15+0409SBJU V0202401N00211220001CN0112651N1+02501+02001999999ADDGA1071+005701999GA2021+006301021MA1101191999999REMMET061METAR SBJU 150600Z 24004KT 9999 BKN019 FEW021TCU 25/20 Q1012;EQDQ01+000022SCOTCV
0139827840999992013011507004-07317-039300FM-15+0409SBJU V0202401N00101220001CN0112651N1+02501+02001999999ADDGA1071+005701999GA2021+006301021MA1101291999999REMMET061METAR SBJU 150700Z 24002KT 9999 BKN019 FEW021TCU 25/20 Q1013;EQDQ01+000022SCOTCV
0139827840999992013011508004-07317-039300FM-15+0409SBJU V0203101N00101220001CN0112651N1+02501+02001999999ADDGA1071+005701999GA2021+006301021MA1101391999999REMMET061METAR SBJU 150800Z 31002KT 9999 BKN019 FEW021TCU 25/20 Q1014;EQDQ01+000022SCOTCV
0120827840999992013011509004-07317-039300FM-15+0409SBJU V0202901N002110060019N0112651N1+02401+02001999999ADDGA1071+006001999GF107991999999999999999999MA1101391999999REMMET051METAR SBJU 150900Z 29004KT 9999 BKN020 24/20 Q1014;
0129827840999992013011509254-07317-039300FM-15+0409SBJU V0200901N005112200019N0030001N1+02401+02101999999ADDGA1041+004501999GF104991999999999999999999MA1101491999999MW1631REMMET054SPECI SBJU 150925Z 09010KT 3000 RA SCT015 24/21 Q1015;
0135827840999992013011509354-07317-039300FM-15+0409SBJU V0200901N002112200019N0080001N1+02301+02001999999ADDGA1041+005401999GF104991999999999999999999MA1101491999999MW1611REMMET060SPECI SBJU 150935Z 09004KT 8000 -RA SCT018 23/20 Q1015 RERA;
0130827840999992013011510004-07317-039300FM-15+0409SBJU V0209999C000010060019N0112651N1+02401+02101999999ADDGA1071+006001999GF107991999999999999999999MA1101491999999MW1611REMMET055METAR SBJU 151000Z 00000KT 9999 -RA BKN020 24/21 Q1015;
0120827840999992013011511004-07317-039300FM-15+0409SBJU V0209999C000010060019N0112651N1+02601+02101999999ADDGA1071+006001999GF107991999999999999999999MA1101491999999REMMET051METAR SBJU 151100Z 00000KT 9999 BKN020 26/21 Q1015;
0120827840999992013011512004-07317-039300FM-15+0409SBJU V0209999C000010060019N0112651N1+02701+02101999999ADDGA1071+006001999GF107991999999999999999999MA1101491999999REMMET051METAR SBJU 151200Z 00000KT 9999 BKN020 27/21 Q1015;
0120827840999992013011513004-07317-039300FM-15+0409SBJU V0209999C000012200019N0112651N1+03001+01901999999ADDGA1041+006001999GF104991999999999999999999MA1101391999999REMMET051METAR SBJU 151300Z 00000KT 9999 SCT020 30/19 Q1014;
0120827840999992013011514004-07317-039300FM-15+0409SBJU V0209999C000012200019N0112651N1+03101+01701999999ADDGA1041+006001999GF104991999999999999999999MA1101391999999REMMET051METAR SBJU 151400Z 00000KT 9999 SCT020 31/17 Q1014;
0120827840999992013011515004-07317-039300FM-15+0409SBJU V0209999C000010060019N0112651N1+03201+01701999999ADDGA1071+006001999GF107991999999999999999999MA1101291999999REMMET051METAR SBJU 151500Z 00000KT 9999 BKN020 32/17 Q1013;
0120827840999992013011516004-07317-039300FM-15+0409SBJU V0209999C000010060019N0112651N1+03401+01701999999ADDGA1071+006001999GF107991999999999999999999MA1101191999999REMMET051METAR SBJU 151600Z 00000KT 9999 BKN020 34/17 Q1012;
0120827840999992013011517004-07317-039300FM-15+0409SBJU V0202301N002110060019N0112651N1+03301+01601999999ADDGA1071+006001999GF107991999999999999999999MA1101081999999REMMET051METAR SBJU 151700Z 23004KT 9999 BKN020 33/16 Q1011;
0120827840999992013011518004-07317-039300FM-15+0409SBJU V0200401N002610060019N0112651N1+03301+01601999999ADDGA1071+006001999GF107991999999999999999999MA1101081999999REMMET051METAR SBJU 151800Z 04005KT 9999 BKN020 33/16 Q1011;
0120827840999992013011519004-07317-039300FM-15+0409SBJU V0209999C000010060019N0112651N1+03301+01601999999ADDGA1071+006001999GF107991999999999999999999MA1101081999999REMMET051METAR SBJU 151900Z 00000KT 9999 BKN020 33/16 Q1011;
0120827840999992013011520004-07317-039300FM-15+0409SBJU V0209999C000010060019N0112651N1+03201+01501999999ADDGA1071+006001999GF107991999999999999999999MA1101081999999REMMET051METAR SBJU 152000Z 00000KT 9999 BKN020 32/15 Q1011;
0120827840999992013011521004-07317-039300FM-15+0409SBJU V0203201N002610060019N0112651N1+03101+01801999999ADDGA1071+006001999GF107991999999999999999999MA1101081999999REMMET051METAR SBJU 152100Z 32005KT 9999 BKN020 31/18 Q1011;
0120827840999992013011522004-07317-039300FM-15+0409SBJU V0202701N001512200019N0112651N1+03101+01901999999ADDGA1041+006001999GF104991999999999999999999MA1101191999999REMMET051METAR SBJU 152200Z 27003KT 9999 SCT020 31/19 Q1012;
0120827840999992013011523004-07317-039300FM-15+0409SBJU V0209999C000012200019N0112651N1+03101+01801999999ADDGA1041+006001999GF104991999999999999999999MA1101191999999REMMET051METAR SBJU 152300Z 00000KT 9999 SCT020 31/18 Q1012;
0120827840999992013011600004-07317-039300FM-15+0409SBJU V0209999C000012200019N0112651N1+02901+01801999999ADDGA1041+006001999GF104991999999999999999999MA1101291999999REMMET051METAR SBJU 160000Z 00000KT 9999 SCT020 29/18 Q1013;
0120827840999992013011601004-07317-039300FM-15+0409SBJU V0209999C000010060019N0112651N1+02801+01801999999ADDGA1071+006001999GF107991999999999999999999MA1101291999999REMMET051METAR SBJU 160100Z 00000KT 9999 BKN020 28/18 Q1013;
0120827840999992013011602004-07317-039300FM-15+0409SBJU V0209999C000012200019N0112651N1+02801+01801999999ADDGA1041+006001999GF104991999999999999999999MA1101291999999REMMET051METAR SBJU 160200Z 00000KT 9999 SCT020 28/18 Q1013;
0120827840999992013011603004-07317-039300FM-15+0409SBJU V0200501N002612200019N0112651N1+02701+01901999999ADDGA1041+006001999GF104991999999999999999999MA1101291999999REMMET051METAR SBJU 160300Z 05005KT 9999 SCT020 27/19 Q1013;
0130827840999992013011604004-07317-039300FM-15+0409SBJU V0200401N002610054019N0050001N1+02401+02001999999ADDGA1071+005401999GF107991999999999999999999MA1101291999999MW1611REMMET055METAR SBJU 160400Z 04005KT 5000 -RA BKN018 24/20 Q1013;
0130827840999992013011605004-07317-039300FM-15+0409SBJU V0209999C000010054019N0080001N1+02401+02001999999ADDGA1071+005401999GF107991999999999999999999MA1101291999999MW1611REMMET055METAR SBJU 160500Z 00000KT 8000 -RA BKN018 24/20 Q1013;
0120827840999992013011606004-07317-039300FM-15+0409SBJU V0209999C000010060019N0112651N1+02401+02101999999ADDGA1071+006001999GF107991999999999999999999MA1101291999999REMMET051METAR SBJU 160600Z 00000KT 9999 BKN020 24/21 Q1013;
0120827840999992013011607004-07317-039300FM-15+0409SBJU V0209999C000010060019N0112651N1+02401+02101999999ADDGA1071+006001999GF107991999999999999999999MA1101391999999REMMET051METAR SBJU 160700Z 00000KT 9999 BKN020 24/21 Q1014;
0120827840999992013011608004-07317-039300FM-15+0409SBJU V0209999C000010060019N0112651N1+02401+02101999999ADDGA1071+006001999GF107991999999999999999999MA1101391999999REMMET051METAR SBJU 160800Z 00000KT 9999 BKN020 24/21 Q1014;
0143827840999992013011609004-07317-039300FM-15+0409SBJU V0209999C000012200019N0112651N1+02401+02101999999ADDGA1021+006001999GA2041+021001999GF104991999999999999999999MA1101491999999REMMET058METAR SBJU 160900Z 00000KT 9999 FEW020 SCT070 24/21 Q1015;
0120827840999992013011610004-07317-039300FM-15+0409SBJU V0209999C000012200019N0112651N1+02401+02101999999ADDGA1041+006001999GF104991999999999999999999MA1101491999999REMMET051METAR SBJU 161000Z 00000KT 9999 SCT020 24/21 Q1015;
0120827840999992013011611004-07317-039300FM-15+0409SBJU V0209999C000012200019N0112651N1+02601+02101999999ADDGA1041+006001999GF104991999999999999999999MA1101491999999REMMET051METAR SBJU 161100Z 00000KT 9999 SCT020 26/21 Q1015;
0120827840999992013011612004-07317-039300FM-15+0409SBJU V0209999C000012200019N0112651N1+02801+01901999999ADDGA1041+006001999GF104991999999999999999999MA1101491999999REMMET051METAR SBJU 161200Z 00000KT 9999 SCT020 28/19 Q1015;
0120827840999992013011613004-07317-039300FM-15+0409SBJU V0200501N001512200019N0112651N1+03001+01901999999ADDGA1041+006001999GF104991999999999999999999MA1101491999999REMMET051METAR SBJU 161300Z 05003KT 9999 SCT020 30/19 Q1015;
0120827840999992013011614004-07317-039300FM-15+0409SBJU V0201101N001512200019N0112651N1+03101+01901999999ADDGA1041+006001999GF104991999999999999999999MA1101491999999REMMET051METAR SBJU 161400Z 11003KT 9999 SCT020 31/19 Q1015;
0120827840999992013011615004-07317-039300FM-15+0409SBJU V0200701N002112200019N0112651N1+03201+01801999999ADDGA1041+006001999GF104991999999999999999999MA1101391999999REMMET051METAR SBJU 161500Z 07004KT 9999 SCT020 32/18 Q1014;
0120827840999992013011616004-07317-039300FM-15+0409SBJU V0209999C000012200019N0112651N1+03301+01801999999ADDGA1041+006001999GF104991999999999999999999MA1101291999999REMMET051METAR SBJU 161600Z 00000KT 9999 SCT020 33/18 Q1013;
0120827840999992013011617004-07317-039300FM-15+0409SBJU V0200401N001512200019N0112651N1+03401+01701999999ADDGA1041+006001999GF104991999999999999999999MA1101191999999REMMET051METAR SBJU 161700Z 04003KT 9999 SCT020 34/17 Q1012;
0120827840999992013011618004-07317-039300FM-15+0409SBJU V0209999C000012200019N0112651N1+03401+01601999999ADDGA1041+006001999GF104991999999999999999999MA1101081999999REMMET051METAR SBJU 161800Z 00000KT 9999 SCT020 34/16 Q1011;
0143827840999992013011619004-07317-039300FM-15+0409SBJU V0209999C000012200019N0112651N1+03401+01601999999ADDGA1041+006001999GA2041+021001999GF104991999999999999999999MA1101081999999REMMET058METAR SBJU 161900Z 00000KT 9999 SCT020 SCT070 34/16 Q1011;
0120827840999992013011620004-07317-039300FM-15+0409SBJU V0209999C000012200019N0112651N1+03001+01801999999ADDGA1021+006001999GF102991999999999999999999MA1101191999999REMMET051METAR SBJU 162000Z 00000KT 9999 FEW020 30/18 Q1012;
0120827840999992013011621004-07317-039300FM-15+0409SBJU V0209999C000012200019N0112651N1+03001+01801999999ADDGA1021+006001999GF102991999999999999999999MA1101191999999REMMET051METAR SBJU 162100Z 00000KT 9999 FEW020 30/18 Q1012;
0120827840999992013011622004-07317-039300FM-15+0409SBJU V0209999C000012200019N0112651N1+03001+01801999999ADDGA1021+006001999GF102991999999999999999999MA1101191999999REMMET051METAR SBJU 162200Z 00000KT 9999 FEW020 30/18 Q1012;
0120827840999992013011623004-07317-039300FM-15+0409SBJU V0209999C000012200019N0112651N1+02901+01801999999ADDGA1021+006001999GF102991999999999999999999MA1101291999999REMMET051METAR SBJU 162300Z 00000KT 9999 FEW020 29/18 Q1013;
0120827840999992013011700004-07317-039300FM-15+0409SBJU V0209999C000012200019N0112651N1+02801+02001999999ADDGA1021+006001999GF102991999999999999999999MA1101391999999REMMET051METAR SBJU 170000Z 00000KT 9999 FEW020 28/20 Q1014;
0072827840999992013011701004-07317-039300FM-15+0409SBJU V0209999C000019999999Y0099001N1+02801+02001999999ADDMA1101391999999REMMET045METAR SBJU 170100Z 00000KT CAVOK 28/20 Q1014;
0072827840999992013011702004-07317-039300FM-15+0409SBJU V0209999C000019999999Y0099001N1+02701+01901999999ADDMA1101391999999REMMET045METAR SBJU 170200Z 00000KT CAVOK 27/19 Q1014;
0072827840999992013011703004-07317-039300FM-15+0409SBJU V0209999C000019999999Y0099001N1+02601+02001999999ADDMA1101391999999REMMET045METAR SBJU 170300Z 00000KT CAVOK 26/20 Q1014;
0072827840999992013011704004-07317-039300FM-15+0409SBJU V0201301N002119999999Y0099001N1+02701+01901999999ADDMA1101391999999REMMET045METAR SBJU 170400Z 13004KT CAVOK 27/19 Q1014;
0072827840999992013011705004-07317-039300FM-15+0409SBJU V0209999C000019999999Y0099001N1+02601+02001999999ADDMA1101291999999REMMET045METAR SBJU 170500Z 00000KT CAVOK 26/20 Q1013;
0072827840999992013011706004-07317-039300FM-15+0409SBJU V0200701N001519999999Y0099001N1+02601+02001999999ADDMA1101291999999REMMET045METAR SBJU 170600Z 07003KT CAVOK 26/20 Q1013;
0072827840999992013011707004-07317-039300FM-15+0409SBJU V0209999C000019999999Y0099001N1+02601+02001999999ADDMA1101391999999REMMET045METAR SBJU 170700Z 00000KT CAVOK 26/20 Q1014;
0072827840999992013011708004-07317-039300FM-15+0409SBJU V0209999C000019999999Y0099001N1+02601+02001999999ADDMA1101491999999REMMET045METAR SBJU 170800Z 00000KT CAVOK 26/20 Q1015;
0120827840999992013011709004-07317-039300FM-15+0409SBJU V0209999C000012200019N0112651N1+02601+02101999999ADDGA1041+006001999GF104991999999999999999999MA1101491999999REMMET051METAR SBJU 170900Z 00000KT 9999 SCT020 26/21 Q1015;
0120827840999992013011710004-07317-039300FM-15+0409SBJU V0209999C000012200019N0112651N1+02601+02101999999ADDGA1041+006001999GF104991999999999999999999MA1101591999999REMMET051METAR SBJU 171000Z 00000KT 9999 SCT020 26/21 Q1016;
0120827840999992013011711004-07317-039300FM-15+0409SBJU V0209999C000012200019N0112651N1+02701+02101999999ADDGA1041+006001999GF104991999999999999999999MA1101591999999REMMET051METAR SBJU 171100Z 00000KT 9999 SCT020 27/21 Q1016;
0120827840999992013011712004-07317-039300FM-15+0409SBJU V0201101N002610060019N0112651N1+02801+02001999999ADDGA1071+006001999GF107991999999999999999999MA1101591999999REMMET051METAR SBJU 171200Z 11005KT 9999 BKN020 28/20 Q1016;
0120827840999992013011713004-07317-039300FM-15+0409SBJU V0209999C000010060019N0112651N1+02801+02001999999ADDGA1071+006001999GF107991999999999999999999MA1101591999999REMMET051METAR SBJU 171300Z 00000KT 9999 BKN020 28/20 Q1016;
0120827840999992013011714004-07317-039300FM-15+0409SBJU V0200401N002112200019N0112651N1+03001+02001999999ADDGA1041+006001999GF104991999999999999999999MA1101591999999REMMET051METAR SBJU 171400Z 04004KT 9999 SCT020 30/20 Q1016;
0120827840999992013011715004-07317-039300FM-15+0409SBJU V0209999C000012200019N0112651N1+03201+01901999999ADDGA1021+006001999GF102991999999999999999999MA1101491999999REMMET051METAR SBJU 171500Z 00000KT 9999 FEW020 32/19 Q1015;
0120827840999992013011716004-07317-039300FM-15+0409SBJU V0209999C000012200019N0112651N1+03401+01801999999ADDGA1041+006601999GF104991999999999999999999MA1101391999999REMMET051METAR SBJU 171600Z 00000KT 9999 SCT022 34/18 Q1014;
0120827840999992013011717004-07317-039300FM-15+0409SBJU V0209999C000012200019N0112651N1+03401+01601999999ADDGA1041+006601999GF104991999999999999999999MA1101291999999REMMET051METAR SBJU 171700Z 00000KT 9999 SCT022 34/16 Q1013;
0120827840999992013011718004-07317-039300FM-15+0409SBJU V0209999C000010066019N0112651N1+03401+01601999999ADDGA1071+006601999GF107991999999999999999999MA1101191999999REMMET051METAR SBJU 171800Z 00000KT 9999 BKN022 34/16 Q1012;
0120827840999992013011719004-07317-039300FM-15+0409SBJU V0209999C000010066019N0112651N1+03401+01701999999ADDGA1071+006601999GF107991999999999999999999MA1101191999999REMMET051METAR SBJU 171900Z 00000KT 9999 BKN022 34/17 Q1012;
0120827840999992013011720004-07317-039300FM-15+0409SBJU V0209999C000010066019N0112651N1+03301+01701999999ADDGA1071+006601999GF107991999999999999999999MA1101191999999REMMET051METAR SBJU 172000Z 00000KT 9999 BKN022 33/17 Q1012;
0120827840999992013011721004-07317-039300FM-15+0409SBJU V0209999C000010066019N0112651N1+03201+01701999999ADDGA1071+006601999GF107991999999999999999999MA1101191999999REMMET051METAR SBJU 172100Z 00000KT 9999 BKN022 32/17 Q1012;
0120827840999992013011722004-07317-039300FM-15+0409SBJU V0201901N001010063019N0112651N1+03201+01701999999ADDGA1071+006301999GF107991999999999999999999MA1101291999999REMMET051METAR SBJU 172200Z 19002KT 9999 BKN021 32/17 Q1013;
0120827840999992013011723004-07317-039300FM-15+0409SBJU V0202001N001010063019N0112651N1+03001+01801999999ADDGA1071+006301999GF107991999999999999999999MA1101391999999REMMET051METAR SBJU 172300Z 20002KT 9999 BKN021 30/18 Q1014;
0120827840999992013011800004-07317-039300FM-15+0409SBJU V0202801N001010063019N0112651N1+03001+01901999999ADDGA1071+006301999GF107991999999999999999999MA1101491999999REMMET051METAR SBJU 180000Z 28002KT 9999 BKN021 30/19 Q1015;
0120827840999992013011801004-07317-039300FM-15+0409SBJU V0202401N001010060019N0112651N1+02901+01901999999ADDGA1071+006001999GF107991999999999999999999MA1101491999999REMMET051METAR SBJU 180100Z 24002KT 9999 BKN020 29/19 Q1015;
0120827840999992013011802004-07317-039300FM-15+0409SBJU V0200201N002110060019N0112651N1+02901+01901999999ADDGA1071+006001999GF107991999999999999999999MA1101491999999REMMET051METAR SBJU 180200Z 02004KT 9999 BKN020 29/19 Q1015;
0120827840999992013011803004-07317-039300FM-15+0409SBJU V0200301N004610060019N0112651N1+02901+01901999999ADDGA1071+006001999GF107991999999999999999999MA1101491999999REMMET051METAR SBJU 180300Z 03009KT 9999 BKN020 29/19 Q1015;
0139827840999992013011804004-07317-039300FM-15+0409SBJU V0200301N00571220001CN0112651N1+02801+01901999999ADDGA1071+006001999GA2021+006601021MA1101491999999REMMET061METAR SBJU 180400Z 03011KT 9999 BKN020 FEW022TCU 28/19 Q1015;EQDQ01+000022SCOTCV
0139827840999992013011805004-07317-039300FM-15+0409SBJU V0200301N00571220001CN0112651N1+02801+01801999999ADDGA1071+006001999GA2021+006601021MA1101391999999REMMET061METAR SBJU 180500Z 03011KT 9999 BKN020 FEW022TCU 28/18 Q1014;EQDQ01+000022SCOTCV
0120827840999992013011806004-07317-039300FM-15+0409SBJU V0200301N001510060019N0112651N1+02701+01801999999ADDGA1071+006001999GF107991999999999999999999MA1101491999999REMMET051METAR SBJU 180600Z 03003KT 9999 BKN020 27/18 Q1015;
0120827840999992013011807004-07317-039300FM-15+0409SBJU V0209999C000012200019N0112651N1+02601+02001999999ADDGA1041+006001999GF104991999999999999999999MA1101591999999REMMET051METAR SBJU 180700Z 00000KT 9999 SCT020 26/20 Q1016;
0156827840999992013011807254-07317-039300FM-15+0409SBJU V0202301N002112200019N0030001N1+02401+02001999999ADDGA1041+006001999GA2021+006601091MA1101591999999MW1801MW2951REMMET066SPECI SBJU 180725Z 23004KT 3000 -TSRA SCT020 FEW022CB 24/20 Q1016;EQDQ01+000022SCOTCV
0156827840999992013011808004-07317-039300FM-15+0409SBJU V0202401N00151220001CN0030001N1+02401+02101999999ADDGA1071+006001999GA2021+006601091MA1101691999999MW1801MW2951REMMET066METAR SBJU 180800Z 24003KT 3000 -TSRA BKN020 FEW022CB 24/21 Q1017;EQDQ01+000022SCOTCV
0156827840999992013011809004-07317-039300FM-15+0409SBJU V0202701N00211220001CN0030001N1+02401+02101999999ADDGA1071+006001999GA2021+006601091MA1101691999999MW1801MW2951REMMET066METAR SBJU 180900Z 27004KT 3000 -TSRA BKN020 FEW022CB 24/21 Q1017;EQDQ01+000022SCOTCV
0181827840999992013011809304-07317-039300FM-15+0409SBJU V0202301N002110051019N0040001N1+02301+02101999999ADDGA1041+003001999GA2071+005101999GA3071+021001999GF107991999999999999999999MA1101801999999MW1611REMMET074SPECI SBJU 180930Z 23004KT 4000 -RA SCT010 BKN017 BKN070 23/21 Q1018 RETS;
0190827840999992013011810004-07317-039300FM-15+0409SBJU V0209999C000010051019N0045001N1+02301+02101999999ADDGA1041+003001999GA2071+005101999GA3071+021001999GF107991999999999999999999MA1101801999999MW1101MW2611REMMET077METAR SBJU 181000Z 00000KT 4500 -RA BR SCT010 BKN017 BKN070 23/21 Q1018 RETS;
0185827840999992013011811004-07317-039300FM-15+0409SBJU V0209999C000010051019N0045001N1+02301+02101999999ADDGA1041+003001999GA2071+005101999GA3071+021001999GF107991999999999999999999MA1101801999999MW1101MW2611REMMET072METAR SBJU 181100Z 00000KT 4500 -RA BR SCT010 BKN017 BKN070 23/21 Q1018;
0166827840999992013011812004-07317-039300FM-15+0409SBJU V0209999C000010051019N0070001N1+02401+02101999999ADDGA1041+003001999GA2071+005101999GA3071+021001999GF107991999999999999999999MA1101801999999REMMET065METAR SBJU 181200Z 00000KT 7000 SCT010 BKN017 BKN070 24/21 Q1018;
0166827840999992013011813004-07317-039300FM-15+0409SBJU V0209999C000010051019N0080001N1+02401+02101999999ADDGA1041+003001999GA2071+005101999GA3071+021001999GF107991999999999999999999MA1101801999999REMMET065METAR SBJU 181300Z 00000KT 8000 SCT010 BKN017 BKN070 24/21 Q1018;
0143827840999992013011814004-07317-039300FM-15+0409SBJU V0209999C000010210019N0112651N1+02601+02001999999ADDGA1041+003001999GA2071+021001999GF107991999999999999999999MA1101691999999REMMET058METAR SBJU 181400Z 00000KT 9999 SCT010 BKN070 26/20 Q1017;
0143827840999992013011815004-07317-039300FM-15+0409SBJU V0209999C000010060019N0112651N1+02701+02001999999ADDGA1071+006001999GA2071+021001999GF107991999999999999999999MA1101591999999REMMET058METAR SBJU 181500Z 00000KT 9999 BKN020 BKN070 27/20 Q1016;
0143827840999992013011816004-07317-039300FM-15+0409SBJU V0201101N001010060019N0112651N1+02801+02001999999ADDGA1071+006001999GA2071+021001999GF107991999999999999999999MA1101491999999REMMET058METAR SBJU 181600Z 11002KT 9999 BKN020 BKN070 28/20 Q1015;
0143827840999992013011817004-07317-039300FM-15+0409SBJU V0201401N001010210019N0112651N1+02901+01901999999ADDGA1041+006301999GA2071+021001999GF107991999999999999999999MA1101391999999REMMET058METAR SBJU 181700Z 14002KT 9999 SCT021 BKN070 29/19 Q1014;
0143827840999992013011818004-07317-039300FM-15+0409SBJU V0201801N001010210019N0112651N1+03001+01901999999ADDGA1041+006301999GA2071+021001999GF107991999999999999999999MA1101291999999REMMET058METAR SBJU 181800Z 18002KT 9999 SCT021 BKN070 30/19 Q1013;
0120827840999992013011819004-07317-039300FM-15+0409SBJU V0202201N003612200019N0112651N1+03001+01901999999ADDGA1041+006301999GF104991999999999999999999MA1101291999999REMMET051METAR SBJU 181900Z 22007KT 9999 SCT021 30/19 Q1013;
0120827840999992013011820004-07317-039300FM-15+0409SBJU V0202301N002612200019N0112651N1+03001+01901999999ADDGA1041+006601999GF104991999999999999999999MA1101291999999REMMET051METAR SBJU 182000Z 23005KT 9999 SCT022 30/19 Q1013;
0120827840999992013011821004-07317-039300FM-15+0409SBJU V0202301N001012200019N0112651N1+02901+01901999999ADDGA1041+006601999GF104991999999999999999999MA1101391999999REMMET051METAR SBJU 182100Z 23002KT 9999 SCT022 29/19 Q1014;
0120827840999992013011822004-07317-039300FM-15+0409SBJU V0209999C000012200019N0112651N1+02801+02001999999ADDGA1041+006601999GF104991999999999999999999MA1101291999999REMMET051METAR SBJU 182200Z 00000KT 9999 SCT022 28/20 Q1013;
0120827840999992013011823004-07317-039300FM-15+0409SBJU V0209999C000012200019N0112651N1+02701+02001999999ADDGA1041+006601999GF104991999999999999999999MA1101391999999REMMET051METAR SBJU 182300Z 00000KT 9999 SCT022 27/20 Q1014;
0120827840999992013011900004-07317-039300FM-15+0409SBJU V0209999C000012200019N0112651N1+02701+02101999999ADDGA1021+006001999GF102991999999999999999999MA1101391999999REMMET051METAR SBJU 190000Z 00000KT 9999 FEW020 27/21 Q1014;
0120827840999992013011901004-07317-039300FM-15+0409SBJU V0209999C000012200019N0112651N1+02501+02101999999ADDGA1021+006001999GF102991999999999999999999MA1101491999999REMMET051METAR SBJU 190100Z 00000KT 9999 FEW020 25/21 Q1015;
0120827840999992013011902004-07317-039300FM-15+0409SBJU V0209999C000012200019N0112651N1+02501+02101999999ADDGA1021+006001999GF102991999999999999999999MA1101491999999REMMET051METAR SBJU 190200Z 00000KT 9999 FEW020 25/21 Q1015;
0120827840999992013011903004-07317-039300FM-15+0409SBJU V0209999C000012200019N0112651N1+02601+02001999999ADDGA1021+006001999GF102991999999999999999999MA1101491999999REMMET051METAR SBJU 190300Z 00000KT 9999 FEW020 26/20 Q1015;
0120827840999992013011904004-07317-039300FM-15+0409SBJU V0209999C000012200019N0112651N1+02501+02101999999ADDGA1021+006001999GF102991999999999999999999MA1101491999999REMMET051METAR SBJU 190400Z 00000KT 9999 FEW020 25/21 Q1015;
0120827840999992013011905004-07317-039300FM-15+0409SBJU V0209999C000012200019N0112651N1+02601+02001999999ADDGA1041+006001999GF104991999999999999999999MA1101491999999REMMET051METAR SBJU 190500Z 00000KT 9999 SCT020 26/20 Q1015;
0120827840999992013011906004-07317-039300FM-15+0409SBJU V0209999C000012200019N0112651N1+02601+01901999999ADDGA1041+006001999GF104991999999999999999999MA1101491999999REMMET051METAR SBJU 190600Z 00000KT 9999 SCT020 26/19 Q1015;
0120827840999992013011907004-07317-039300FM-15+0409SBJU V0209999C000012200019N0112651N1+02501+02001999999ADDGA1041+006001999GF104991999999999999999999MA1101491999999REMMET051METAR SBJU 190700Z 00000KT 9999 SCT020 25/20 Q1015;
0120827840999992013011908004-07317-039300FM-15+0409SBJU V0209999C000012200019N0112651N1+02501+02001999999ADDGA1041+006001999GF104991999999999999999999MA1101591999999REMMET051METAR SBJU 190800Z 00000KT 9999 SCT020 25/20 Q1016;
0120827840999992013011909004-07317-039300FM-15+0409SBJU V0209999C000010060019N0112651N1+02501+02001999999ADDGA1071+006001999GF107991999999999999999999MA1101591999999REMMET051METAR SBJU 190900Z 00000KT 9999 BKN020 25/20 Q1016;
0120827840999992013011910004-07317-039300FM-15+0409SBJU V0200801N001010060019N0112651N1+02501+02001999999ADDGA1071+006001999GF107991999999999999999999MA1101691999999REMMET051METAR SBJU 191000Z 08002KT 9999 BKN020 25/20 Q1017;
0120827840999992013011911004-07317-039300FM-15+0409SBJU V0200601N001010060019N0112651N1+02601+02101999999ADDGA1071+006001999GF107991999999999999999999MA1101691999999REMMET051METAR SBJU 191100Z 06002KT 9999 BKN020 26/21 Q1017;
0120827840999992013011912004-07317-039300FM-15+0409SBJU V0201201N004110063019N0112651N1+02801+01901999999ADDGA1071+006301999GF107991999999999999999999MA1101691999999REMMET051METAR SBJU 191200Z 12008KT 9999 BKN021 28/19 Q1017;
0120827840999992013011913004-07317-039300FM-15+0409SBJU V0201001N003110063019N0112651N1+03001+01901999999ADDGA1071+006301999GF107991999999999999999999MA1101691999999REMMET051METAR SBJU 191300Z 10006KT 9999 BKN021 30/19 Q1017;
0120827840999992013011914004-07317-039300FM-15+0409SBJU V0200701N004610063019N0112651N1+03101+01701999999ADDGA1071+006301999GF107991999999999999999999MA1101591999999REMMET051METAR SBJU 191400Z 07009KT 9999 BKN021 31/17 Q1016;
0120827840999992013011915004-07317-039300FM-15+0409SBJU V0200601N004110063019N0112651N1+03301+01501999999ADDGA1071+006301999GF107991999999999999999999MA1101391999999REMMET051METAR SBJU 191500Z 06008KT 9999 BKN021 33/15 Q1014;
0120827840999992013011916004-07317-039300FM-15+0409SBJU V0201001N002610066019N0112651N1+03401+01401999999ADDGA1071+006601999GF107991999999999999999999MA1101391999999REMMET051METAR SBJU 191600Z 10005KT 9999 BKN022 34/14 Q1014;
0155827840999992013011917004-07317-039300FM-15+0409SBJU V0209999C000010066019N0112651N1+99999+01301999999ADDGA1071+006601999GF107991999999999999999999MA1101291999999REMMET051METAR SBJU 191700Z 00000KT 9999 BKN022 25/13 Q1013;EQDQ01+002503ATOT  Q02 +02503ATOT  
0120827840999992013011918004-07317-039300FM-15+0409SBJU V0200901N003610066019N0112651N1+03501+01401999999ADDGA1071+006601999GF107991999999999999999999MA1101191999999REMMET051METAR SBJU 191800Z 09007KT 9999 BKN022 35/14 Q1012;
0120827840999992013011919004-07317-039300FM-15+0409SBJU V0209999C000012200019N0112651N1+03501+01301999999ADDGA1041+006601999GF104991999999999999999999MA1101081999999REMMET051METAR SBJU 191900Z 00000KT 9999 SCT022 35/13 Q1011;
0120827840999992013011920004-07317-039300FM-15+0409SBJU V0200401N001012200019N0112651N1+03401+01401999999ADDGA1041+006601999GF104991999999999999999999MA1101191999999REMMET051METAR SBJU 192000Z 04002KT 9999 SCT022 34/14 Q1012;
0120827840999992013011921004-07317-039300FM-15+0409SBJU V0209999C000012200019N0112651N1+03301+01501999999ADDGA1021+006601999GF102991999999999999999999MA1101191999999REMMET051METAR SBJU 192100Z 00000KT 9999 FEW022 33/15 Q1012;
0120827840999992013011922004-07317-039300FM-15+0409SBJU V0209999C000012200019N0112651N1+03201+01701999999ADDGA1041+006001999GF104991999999999999999999MA1101291999999REMMET051METAR SBJU 192200Z 00000KT 9999 SCT020 32/17 Q1013;
0120827840999992013011923004-07317-039300FM-15+0409SBJU V0200201N002612200019N0112651N1+03101+01701999999ADDGA1041+006001999GF104991999999999999999999MA1101391999999REMMET051METAR SBJU 192300Z 02005KT 9999 SCT020 31/17 Q1014;
0120827840999992013012000004-07317-039300FM-15+0409SBJU V0203401N001512200019N0112651N1+03001+01801999999ADDGA1041+006001999GF104991999999999999999999MA1101491999999REMMET051METAR SBJU 200000Z 34003KT 9999 SCT020 30/18 Q1015;
0120827840999992013012001004-07317-039300FM-15+0409SBJU V0209999C000012200019N0112651N1+03001+01801999999ADDGA1041+006001999GF104991999999999999999999MA1101491999999REMMET051METAR SBJU 200100Z 00000KT 9999 SCT020 30/18 Q1015;
0120827840999992013012002004-07317-039300FM-15+0409SBJU V0209999C000012200019N0112651N1+02901+01801999999ADDGA1041+006001999GF104991999999999999999999MA1101591999999REMMET051METAR SBJU 200200Z 00000KT 9999 SCT020 29/18 Q1016;
0120827840999992013012003004-07317-039300FM-15+0409SBJU V0209999C000012200019N0112651N1+02901+01901999999ADDGA1041+006001999GF104991999999999999999999MA1101491999999REMMET051METAR SBJU 200300Z 00000KT 9999 SCT020 29/19 Q1015;
0120827840999992013012004004-07317-039300FM-15+0409SBJU V0200401N004610057019N0112651N1+02801+01901999999ADDGA1071+005701999GF107991999999999999999999MA1101491999999REMMET051METAR SBJU 200400Z 04009KT 9999 BKN019 28/19 Q1015;
0120827840999992013012005004-07317-039300FM-15+0409SBJU V0200501N005110057019N0112651N1+02701+01901999999ADDGA1071+005701999GF107991999999999999999999MA1101391999999REMMET051METAR SBJU 200500Z 05010KT 9999 BKN019 27/19 Q1014;
0120827840999992013012006004-07317-039300FM-15+0409SBJU V0200201N003110057019N0112651N1+02601+02001999999ADDGA1071+005701999GF107991999999999999999999MA1101391999999REMMET051METAR SBJU 200600Z 02006KT 9999 BKN019 26/20 Q1014;
0120827840999992013012007004-07317-039300FM-15+0409SBJU V0201501N001010054019N0112651N1+02501+02101999999ADDGA1071+005401999GF107991999999999999999999MA1101391999999REMMET051METAR SBJU 200700Z 15002KT 9999 BKN018 25/21 Q1014;
0176827840999992013012008004-07317-039300FM-15+0409SBJU V0202301N001010054019N0060001N1+02401+02201999999ADDGA1021+003001999GA2071+005401999GA3071+021001999GF107991999999999999999999MA1101491999999MW1611REMMET069METAR SBJU 200800Z 23002KT 6000 -RA FEW010 BKN018 BKN070 24/22 Q1015;
0185827840999992013012009004-07317-039300FM-15+0409SBJU V0202801N001010054019N0030001N1+02401+02201999999ADDGA1021+003001999GA2071+005401999GA3071+021001999GF107991999999999999999999MA1101591999999MW1101MW2611REMMET072METAR SBJU 200900Z 28002KT 3000 -RA BR FEW010 BKN018 BKN070 24/22 Q1016;
0130827840999992013012010004-07317-039300FM-15+0409SBJU V0209999C000010045019N0030001N1+02401+02201999999ADDGA1081+004501999GF108991999999999999999999MA1101691999999MW1611REMMET055METAR SBJU 201000Z 00000KT 3000 -RA OVC015 24/22 Q1017;
0130827840999992013012011004-07317-039300FM-15+0409SBJU V0209999C000010045019N0080001N1+02401+02201999999ADDGA1081+004501999GF108991999999999999999999MA1101691999999MW1611REMMET055METAR SBJU 201100Z 00000KT 8000 -RA OVC015 24/22 Q1017;
0130827840999992013012012004-07317-039300FM-15+0409SBJU V0209999C000010060019N0112651N1+02401+02101999999ADDGA1081+006001999GF108991999999999999999999MA1101691999999MW1611REMMET055METAR SBJU 201200Z 00000KT 9999 -RA OVC020 24/21 Q1017;
0120827840999992013012013004-07317-039300FM-15+0409SBJU V0203401N003110054019N0112651N1+02601+02101999999ADDGA1081+005401999GF108991999999999999999999MA1101691999999REMMET051METAR SBJU 201300Z 34006KT 9999 OVC018 26/21 Q1017;
0120827840999992013012014004-07317-039300FM-15+0409SBJU V0209999C000010060019N0112651N1+02701+02101999999ADDGA1081+006001999GF108991999999999999999999MA1101691999999REMMET051METAR SBJU 201400Z 00000KT 9999 OVC020 27/21 Q1017;
0120827840999992013012015004-07317-039300FM-15+0409SBJU V0209999C000010060019N0112651N1+02801+02001999999ADDGA1081+006001999GF108991999999999999999999MA1101591999999REMMET051METAR SBJU 201500Z 00000KT 9999 OVC020 28/20 Q1016;
0143827840999992013012016004-07317-039300FM-15+0409SBJU V0209999C000012200019N0112651N1+02901+02001999999ADDGA1041+006001999GA2041+006601999GF104991999999999999999999MA1101491999999REMMET058METAR SBJU 201600Z 00000KT 9999 SCT020 SCT022 29/20 Q1015;
0120827840999992013012017004-07317-039300FM-15+0409SBJU V0209999C000012200019N0112651N1+03001+02001999999ADDGA1041+006601999GF104991999999999999999999MA1101391999999REMMET051METAR SBJU 201700Z 00000KT 9999 SCT022 30/20 Q1014;
0143827840999992013012018004-07317-039300FM-15+0409SBJU V0209999C000012200019N0112651N1+03101+02201999999ADDGA1021+006601999GA2041+024001999GF104991999999999999999999MA1101291999999REMMET058METAR SBJU 201800Z 00000KT 9999 FEW022 SCT080 31/22 Q1013;
0143827840999992013012019004-07317-039300FM-15+0409SBJU V0209999C000010240019N0112651N1+03101+02001999999ADDGA1021+006601999GA2071+024001999GF107991999999999999999999MA1101291999999REMMET058METAR SBJU 201900Z 00000KT 9999 FEW022 BKN080 31/20 Q1013;
0120827840999992013012020004-07317-039300FM-15+0409SBJU V0209999C000012200019N0112651N1+03201+01901999999ADDGA1021+006601999GF102991999999999999999999MA1101291999999REMMET051METAR SBJU 202000Z 00000KT 9999 FEW022 32/19 Q1013;
0120827840999992013012021004-07317-039300FM-15+0409SBJU V0209999C000012200019N0112651N1+03101+02001999999ADDGA1021+006601999GF102991999999999999999999MA1101291999999REMMET051METAR SBJU 202100Z 00000KT 9999 FEW022 31/20 Q1013;
0120827840999992013012022004-07317-039300FM-15+0409SBJU V0209999C000012200019N0112651N1+03001+02101999999ADDGA1041+006001999GF104991999999999999999999MA1101291999999REMMET051METAR SBJU 202200Z 00000KT 9999 SCT020 30/21 Q1013;
0120827840999992013012023004-07317-039300FM-15+0409SBJU V0209999C000012200019N0112651N1+02901+02101999999ADDGA1041+006001999GF104991999999999999999999MA1101391999999REMMET051METAR SBJU 202300Z 00000KT 9999 SCT020 29/21 Q1014;
0120827840999992013012100004-07317-039300FM-15+0409SBJU V0209999C000012200019N0112651N1+02801+02101999999ADDGA1041+006001999GF104991999999999999999999MA1101491999999REMMET051METAR SBJU 210000Z 00000KT 9999 SCT020 28/21 Q1015;
0120827840999992013012101004-07317-039300FM-15+0409SBJU V0209999C000012200019N0112651N1+02801+02101999999ADDGA1041+006001999GF104991999999999999999999MA1101491999999REMMET051METAR SBJU 210100Z 00000KT 9999 SCT020 28/21 Q1015;
0120827840999992013012102004-07317-039300FM-15+0409SBJU V0209999C000012200019N0112651N1+02701+02101999999ADDGA1041+006001999GF104991999999999999999999MA1101491999999REMMET051METAR SBJU 210200Z 00000KT 9999 SCT020 27/21 Q1015;
0120827840999992013012103004-07317-039300FM-15+0409SBJU V0209999C000012200019N0112651N1+02701+02201999999ADDGA1041+006001999GF104991999999999999999999MA1101491999999REMMET051METAR SBJU 210300Z 00000KT 9999 SCT020 27/22 Q1015;
0120827840999992013012104004-07317-039300FM-15+0409SBJU V0209999C000012200019N0112651N1+02701+02101999999ADDGA1041+006001999GF104991999999999999999999MA1101491999999REMMET051METAR SBJU 210400Z 00000KT 9999 SCT020 27/21 Q1015;
0120827840999992013012105004-07317-039300FM-15+0409SBJU V0209999C000012200019N0112651N1+02701+02101999999ADDGA1041+006001999GF104991999999999999999999MA1101491999999REMMET051METAR SBJU 210500Z 00000KT 9999 SCT020 27/21 Q1015;
0120827840999992013012106004-07317-039300FM-15+0409SBJU V0200801N004112200019N0112651N1+02701+02101999999ADDGA1041+006001999GF104991999999999999999999MA1101491999999REMMET051METAR SBJU 210600Z 08008KT 9999 SCT020 27/21 Q1015;
0156827840999992013012107004-07317-039300FM-15+0409SBJU V0201001N00311004501CN0020001N1+02301+02101999999ADDGA1071+004501999GA2021+006001091MA1101491999999MW1821MW2971REMMET066METAR SBJU 210700Z 10006KT 2000 +TSRA BKN015 FEW020CB 23/21 Q1015;EQDQ01+000022SCOTCV
0160827840999992013012107204-07317-039300FM-15+0409SBJU V0209999C00001003001CN0040001N1+02301+02001999999ADDGA1071+003001999GA2021+006001091MA1101491999999MW1811MW2951REMMET070SPECI SBJU 210720Z 00000KT 4000 TSRA BKN010 FEW020CB 23/20 Q1015 RERA;EQDQ01+000022SCOTCV
0137827840999992013012108004-07317-039300FM-15+0409SBJU V0209999C000010054019N0050001N1+02201+02001999999ADDGA1071+005401999GF107991999999999999999999MA1101591999999MW1611REMMET062METAR SBJU 210800Z 00000KT 5000 -RA BKN018 22/20 Q1016 RETSRA;
0130827840999992013012109004-07317-039300FM-15+0409SBJU V0209999C000010051019N0040001N1+02301+02001999999ADDGA1071+005101999GF107991999999999999999999MA1101591999999MW1611REMMET055METAR SBJU 210900Z 00000KT 4000 -RA BKN017 23/20 Q1016;
0153827840999992013012110004-07317-039300FM-15+0409SBJU V0209999C000012200019N0050001N1+02301+02101999999ADDGA1021+003301999GA2041+005101999GF104991999999999999999999MA1101691999999MW1611REMMET062METAR SBJU 211000Z 00000KT 5000 -RA FEW011 SCT017 23/21 Q1017;
0143827840999992013012111004-07317-039300FM-15+0409SBJU V0209999C000012200019N0080001N1+02301+02101999999ADDGA1021+003301999GA2041+005101999GF104991999999999999999999MA1101691999999REMMET058METAR SBJU 211100Z 00000KT 8000 FEW011 SCT017 23/21 Q1017;
0143827840999992013012112004-07317-039300FM-15+0409SBJU V0209999C000010051019N0112651N1+02501+02101999999ADDGA1021+003301999GA2071+005101999GF107991999999999999999999MA1101801999999REMMET058METAR SBJU 211200Z 00000KT 9999 FEW011 BKN017 25/21 Q1018;
0120827840999992013012113004-07317-039300FM-15+0409SBJU V0209999C000012200019N0112651N1+02701+02101999999ADDGA1041+005101999GF104991999999999999999999MA1101691999999REMMET051METAR SBJU 211300Z 00000KT 9999 SCT017 27/21 Q1017;
0143827840999992013012114004-07317-039300FM-15+0409SBJU V0209999C000012200019N0112651N1+02801+02101999999ADDGA1041+005101999GA2041+024001999GF104991999999999999999999MA1101691999999REMMET058METAR SBJU 211400Z 00000KT 9999 SCT017 SCT080 28/21 Q1017;
0143827840999992013012115004-07317-039300FM-15+0409SBJU V0209999C000012200019N0112651N1+03001+02101999999ADDGA1041+006601999GA2041+024001999GF104991999999999999999999MA1101591999999REMMET058METAR SBJU 211500Z 00000KT 9999 SCT022 SCT080 30/21 Q1016;
0120827840999992013012116004-07317-039300FM-15+0409SBJU V0209999C000012200019N0112651N1+03101+02001999999ADDGA1041+006001999GF104991999999999999999999MA1101491999999REMMET051METAR SBJU 211600Z 00000KT 9999 SCT020 31/20 Q1015;
0120827840999992013012117004-07317-039300FM-15+0409SBJU V0200201N001012200019N0112651N1+03201+01901999999ADDGA1041+006001999GF104991999999999999999999MA1101391999999REMMET051METAR SBJU 211700Z 02002KT 9999 SCT020 32/19 Q1014;
0120827840999992013012118004-07317-039300FM-15+0409SBJU V0209999C000012200019N0112651N1+03301+01901999999ADDGA1041+006601999GF104991999999999999999999MA1101191999999REMMET051METAR SBJU 211800Z 00000KT 9999 SCT022 33/19 Q1012;
0120827840999992013012119004-07317-039300FM-15+0409SBJU V0209999C000012200019N0112651N1+03401+01901999999ADDGA1041+006601999GF104991999999999999999999MA1101191999999REMMET051METAR SBJU 211900Z 00000KT 9999 SCT022 34/19 Q1012;
0120827840999992013012120004-07317-039300FM-15+0409SBJU V0209999C000012200019N0112651N1+03401+01801999999ADDGA1041+006601999GF104991999999999999999999MA1101191999999REMMET051METAR SBJU 212000Z 00000KT 9999 SCT022 34/18 Q1012;
0120827840999992013012121004-07317-039300FM-15+0409SBJU V0209999C000012200019N0112651N1+03201+02001999999ADDGA1041+006601999GF104991999999999999999999MA1101291999999REMMET051METAR SBJU 212100Z 00000KT 9999 SCT022 32/20 Q1013;
0154827840999992013012121354-07317-039300FM-15+0409SBJU V0201001N002612200019N0112651N1+02901+02001999999ADDGA1021+005101091GA2041+005701999GF104991999999999999999999MA1101391999999MW1171REMMET063SPECI SBJU 212135Z 10005KT 9999 TS FEW017CB SCT019 29/20 Q1014;
0154827840999992013012122004-07317-039300FM-15+0409SBJU V0209999C000012200019N0112651N1+02901+02001999999ADDGA1021+005101091GA2041+005701999GF104991999999999999999999MA1101391999999MW1171REMMET063METAR SBJU 212200Z 00000KT 9999 TS FEW017CB SCT019 29/20 Q1014;
0151827840999992013012123004-07317-039300FM-15+0409SBJU V0200301N002612200019N0112651N1+02701+02001999999ADDGA1021+005701021GA2041+006001999GF104991999999999999999999MA1101491999999REMMET066METAR SBJU 212300Z 03005KT 9999 FEW019TCU SCT020 27/20 Q1015 RETS;
0143827840999992013012200004-07317-039300FM-15+0409SBJU V0209999C000010240019N0112651N1+02701+02101999999ADDGA1041+006001999GA2071+024001999GF107991999999999999999999MA1101591999999REMMET058METAR SBJU 220000Z 00000KT 9999 SCT020 BKN080 27/21 Q1016;
0143827840999992013012201004-07317-039300FM-15+0409SBJU V0209999C000010240019N0112651N1+02701+02001999999ADDGA1041+006001999GA2071+024001999GF107991999999999999999999MA1101591999999REMMET058METAR SBJU 220100Z 00000KT 9999 SCT020 BKN080 27/20 Q1016;
0143827840999992013012202004-07317-039300FM-15+0409SBJU V0209999C000010240019N0112651N1+02601+02101999999ADDGA1041+006001999GA2071+024001999GF107991999999999999999999MA1101591999999REMMET058METAR SBJU 220200Z 00000KT 9999 SCT020 BKN080 26/21 Q1016;
0143827840999992013012203004-07317-039300FM-15+0409SBJU V0200901N001510240019N0112651N1+02601+02101999999ADDGA1021+006001999GA2071+024001999GF107991999999999999999999MA1101591999999REMMET058METAR SBJU 220300Z 09003KT 9999 FEW020 BKN080 26/21 Q1016;
0143827840999992013012204004-07317-039300FM-15+0409SBJU V0209999C000012200019N0112651N1+02701+02101999999ADDGA1041+006001999GA2041+024001999GF104991999999999999999999MA1101591999999REMMET058METAR SBJU 220400Z 00000KT 9999 SCT020 SCT080 27/21 Q1016;
0185827840999992013012204304-07317-039300FM-15+0409SBJU V0201301N004612200019N0030001N1+02601+02101999999ADDGA1041+006001999GA2021+006601091GA3041+024001999GF104991999999999999999999MA1101591999999MW1811MW2951REMMET072SPECI SBJU 220430Z 13009KT 3000 TSRA SCT020 FEW022CB SCT080 26/21 Q1016;
0185827840999992013012205004-07317-039300FM-15+0409SBJU V0201201N003612200019N0030001N1+02401+02101999999ADDGA1041+006001999GA2021+006601091GA3041+024001999GF104991999999999999999999MA1101591999999MW1811MW2951REMMET072METAR SBJU 220500Z 12007KT 3000 TSRA SCT020 FEW022CB SCT080 24/21 Q1016;
0186827840999992013012206004-07317-039300FM-15+0409SBJU V0209999C000012200019N0030001N1+02301+02001999999ADDGA1041+006001999GA2021+006601091GA3041+024001999GF104991999999999999999999MA1101591999999MW1801MW2951REMMET073METAR SBJU 220600Z 00000KT 3000 -TSRA SCT020 FEW022CB SCT080 23/20 Q1016;
0160827840999992013012207004-07317-039300FM-15+0409SBJU V0209999C000012200019N0030001N1+02301+02001999999ADDGA1041+006001999GA2041+024001999GF104991999999999999999999MA1101491999999MW1611REMMET069METAR SBJU 220700Z 00000KT 3000 -RA SCT020 SCT080 23/20 Q1015 RETSRA;
0143827840999992013012208004-07317-039300FM-15+0409SBJU V0209999C000010240019N0112651N1+02201+02001999999ADDGA1041+006001999GA2071+024001999GF107991999999999999999999MA1101691999999REMMET058METAR SBJU 220800Z 00000KT 9999 SCT020 BKN080 22/20 Q1017;
0143827840999992013012209004-07317-039300FM-15+0409SBJU V0209999C000012200019N0112651N1+02301+02101999999ADDGA1021+003001999GA2041+006001999GF104991999999999999999999MA1101691999999REMMET058METAR SBJU 220900Z 00000KT 9999 FEW010 SCT020 23/21 Q1017;
0120827840999992013012210004-07317-039300FM-15+0409SBJU V0209999C000012200019N0112651N1+02301+02101999999ADDGA1041+006001999GF104991999999999999999999MA1101691999999REMMET051METAR SBJU 221000Z 00000KT 9999 SCT020 23/21 Q1017;
0120827840999992013012211004-07317-039300FM-15+0409SBJU V0202401N001512200019N0112651N1+02401+02001999999ADDGA1041+006001999GF104991999999999999999999MA1101801999999REMMET051METAR SBJU 221100Z 24003KT 9999 SCT020 24/20 Q1018;
0120827840999992013012212004-07317-039300FM-15+0409SBJU V0209999C000012200019N0112651N1+02601+02001999999ADDGA1041+006001999GF104991999999999999999999MA1101801999999REMMET051METAR SBJU 221200Z 00000KT 9999 SCT020 26/20 Q1018;
0120827840999992013012213004-07317-039300FM-15+0409SBJU V0209999C000012200019N0112651N1+02701+02101999999ADDGA1041+006001999GF104991999999999999999999MA1101801999999REMMET051METAR SBJU 221300Z 00000KT 9999 SCT020 27/21 Q1018;
0120827840999992013012214004-07317-039300FM-15+0409SBJU V0203301N003112200019N0112651N1+02701+02101999999ADDGA1041+006001999GF104991999999999999999999MA1101801999999REMMET051METAR SBJU 221400Z 33006KT 9999 SCT020 27/21 Q1018;
0143827840999992013012215004-07317-039300FM-15+0409SBJU V0203001N002110060019N0112651N1+02801+02101999999ADDGA1071+006001999GA2071+024001999GF107991999999999999999999MA1101691999999REMMET058METAR SBJU 221500Z 30004KT 9999 BKN020 BKN080 28/21 Q1017;
0143827840999992013012216004-07317-039300FM-15+0409SBJU V0209999C000010240019N0112651N1+02901+02001999999ADDGA1041+006001999GA2071+024001999GF107991999999999999999999MA1101591999999REMMET058METAR SBJU 221600Z 00000KT 9999 SCT020 BKN080 29/20 Q1016;
0143827840999992013012217004-07317-039300FM-15+0409SBJU V0200301N002110240019N0112651N1+02901+02001999999ADDGA1041+006001999GA2071+024001999GF107991999999999999999999MA1101491999999REMMET058METAR SBJU 221700Z 03004KT 9999 SCT020 BKN080 29/20 Q1015;
0143827840999992013012218004-07317-039300FM-15+0409SBJU V0209999C000010240019N0112651N1+03001+02001999999ADDGA1041+006001999GA2071+024001999GF107991999999999999999999MA1101391999999REMMET058METAR SBJU 221800Z 00000KT 9999 SCT020 BKN080 30/20 Q1014;
0143827840999992013012219004-07317-039300FM-15+0409SBJU V0209999C000010240019N0112651N1+03001+01901999999ADDGA1021+006001999GA2071+024001999GF107991999999999999999999MA1101391999999REMMET058METAR SBJU 221900Z 00000KT 9999 FEW020 BKN080 30/19 Q1014;
0143827840999992013012220004-07317-039300FM-15+0409SBJU V0209999C000010240019N0112651N1+03001+01901999999ADDGA1021+006001999GA2071+024001999GF107991999999999999999999MA1101291999999REMMET058METAR SBJU 222000Z 00000KT 9999 FEW020 BKN080 30/19 Q1013;
0146827840999992013012221004-07317-039300FM-15+0409SBJU V0209999C000010240019N0112651N1+02901+02101999999ADDGA1021+006001021GA2071+024001999GF107991999999999999999999MA1101391999999REMMET061METAR SBJU 222100Z 00000KT 9999 FEW020TCU BKN080 29/21 Q1014;
0143827840999992013012222004-07317-039300FM-15+0409SBJU V0209999C000010240019N0112651N1+02801+02101999999ADDGA1021+006001999GA2071+024001999GF107991999999999999999999MA1101391999999REMMET058METAR SBJU 222200Z 00000KT 9999 FEW020 BKN080 28/21 Q1014;
0143827840999992013012223004-07317-039300FM-15+0409SBJU V0209999C000012200019N0112651N1+02801+02001999999ADDGA1021+006001999GA2041+024001999GF104991999999999999999999MA1101391999999REMMET058METAR SBJU 222300Z 00000KT 9999 FEW020 SCT080 28/20 Q1014;
0120827840999992013012300004-07317-039300FM-15+0409SBJU V0209999C000012200019N0112651N1+02701+02201999999ADDGA1041+006001999GF104991999999999999999999MA1101491999999REMMET051METAR SBJU 230000Z 00000KT 9999 SCT020 27/22 Q1015;
0120827840999992013012301004-07317-039300FM-15+0409SBJU V0209999C000012200019N0112651N1+02601+02201999999ADDGA1041+006001999GF104991999999999999999999MA1101591999999REMMET051METAR SBJU 230100Z 00000KT 9999 SCT020 26/22 Q1016;
0120827840999992013012302004-07317-039300FM-15+0409SBJU V0209999C000012200019N0112651N1+02601+02101999999ADDGA1041+006001999GF104991999999999999999999MA1101491999999REMMET051METAR SBJU 230200Z 00000KT 9999 SCT020 26/21 Q1015;
0120827840999992013012303004-07317-039300FM-15+0409SBJU V0209999C000012200019N0112651N1+02501+02101999999ADDGA1041+006001999GF104991999999999999999999MA1101491999999REMMET051METAR SBJU 230300Z 00000KT 9999 SCT020 25/21 Q1015;
0120827840999992013012304004-07317-039300FM-15+0409SBJU V0209999C000012200019N0112651N1+02501+02201999999ADDGA1041+006001999GF104991999999999999999999MA1101491999999REMMET051METAR SBJU 230400Z 00000KT 9999 SCT020 25/22 Q1015;
0120827840999992013012305004-07317-039300FM-15+0409SBJU V0209999C000012200019N0112651N1+02501+02201999999ADDGA1041+006001999GF104991999999999999999999MA1101491999999REMMET051METAR SBJU 230500Z 00000KT 9999 SCT020 25/22 Q1015;
0120827840999992013012306004-07317-039300FM-15+0409SBJU V0209999C000012200019N0112651N1+02501+02101999999ADDGA1041+006001999GF104991999999999999999999MA1101491999999REMMET051METAR SBJU 230600Z 00000KT 9999 SCT020 25/21 Q1015;
0120827840999992013012307004-07317-039300FM-15+0409SBJU V0209999C000012200019N0112651N1+02501+02101999999ADDGA1021+006001999GF102991999999999999999999MA1101491999999REMMET051METAR SBJU 230700Z 00000KT 9999 FEW020 25/21 Q1015;
0120827840999992013012308004-07317-039300FM-15+0409SBJU V0209999C000012200019N0112651N1+02501+02201999999ADDGA1021+006001999GF102991999999999999999999MA1101491999999REMMET051METAR SBJU 230800Z 00000KT 9999 FEW020 25/22 Q1015;
0120827840999992013012309004-07317-039300FM-15+0409SBJU V0209999C000012200019N0112651N1+02401+02201999999ADDGA1021+006001999GF102991999999999999999999MA1101591999999REMMET051METAR SBJU 230900Z 00000KT 9999 FEW020 24/22 Q1016;
0120827840999992013012310004-07317-039300FM-15+0409SBJU V0209999C000012200019N0112651N1+02601+02001999999ADDGA1041+005101999GF104991999999999999999999MA1101691999999REMMET051METAR SBJU 231000Z 00000KT 9999 SCT017 26/20 Q1017;
0120827840999992013012311004-07317-039300FM-15+0409SBJU V0209999C000012200019N0112651N1+02701+02001999999ADDGA1041+005101999GF104991999999999999999999MA1101691999999REMMET051METAR SBJU 231100Z 00000KT 9999 SCT017 27/20 Q1017;
0120827840999992013012312004-07317-039300FM-15+0409SBJU V0201201N001512200019N0112651N1+02801+02001999999ADDGA1041+006301999GF104991999999999999999999MA1101801999999REMMET051METAR SBJU 231200Z 12003KT 9999 SCT021 28/20 Q1018;
0120827840999992013012313004-07317-039300FM-15+0409SBJU V0201001N002612200019N0112651N1+02801+01901999999ADDGA1041+006301999GF104991999999999999999999MA1101691999999REMMET051METAR SBJU 231300Z 10005KT 9999 SCT021 28/19 Q1017;
0143827840999992013012314004-07317-039300FM-15+0409SBJU V0200701N002612200019N0112651N1+03001+01901999999ADDGA1041+006601999GA2041+024001999GF104991999999999999999999MA1101691999999REMMET058METAR SBJU 231400Z 07005KT 9999 SCT022 SCT080 30/19 Q1017;
0143827840999992013012315004-07317-039300FM-15+0409SBJU V0201201N001512200019N0112651N1+03101+01801999999ADDGA1041+006601999GA2041+024001999GF104991999999999999999999MA1101591999999REMMET058METAR SBJU 231500Z 12003KT 9999 SCT022 SCT080 31/18 Q1016;
0143827840999992013012316004-07317-039300FM-15+0409SBJU V0200801N001010240019N0112651N1+03201+01601999999ADDGA1041+006601999GA2071+024001999GF107991999999999999999999MA1101491999999REMMET058METAR SBJU 231600Z 08002KT 9999 SCT022 BKN080 32/16 Q1015;
0120827840999992013012317004-07317-039300FM-15+0409SBJU V0200901N005110066019N0112651N1+03301+01401999999ADDGA1071+006601999GF107991999999999999999999MA1101391999999REMMET051METAR SBJU 231700Z 09010KT 9999 BKN022 33/14 Q1014;
0120827840999992013012318004-07317-039300FM-15+0409SBJU V0200101N001010066019N0112651N1+03301+01301999999ADDGA1071+006601999GF107991999999999999999999MA1101291999999REMMET051METAR SBJU 231800Z 01002KT 9999 BKN022 33/13 Q1013;
0120827840999992013012319004-07317-039300FM-15+0409SBJU V0203301N001012200019N0112651N1+03401+01201999999ADDGA1041+006601999GF104991999999999999999999MA1101291999999REMMET051METAR SBJU 231900Z 33002KT 9999 SCT022 34/12 Q1013;
0120827840999992013012320004-07317-039300FM-15+0409SBJU V0200201N001012200019N0112651N1+03301+01401999999ADDGA1041+006601999GF104991999999999999999999MA1101291999999REMMET051METAR SBJU 232000Z 02002KT 9999 SCT022 33/14 Q1013;
0120827840999992013012321004-07317-039300FM-15+0409SBJU V0203401N001012200019N0112651N1+03101+01701999999ADDGA1041+006601999GF104991999999999999999999MA1101391999999REMMET051METAR SBJU 232100Z 34002KT 9999 SCT022 31/17 Q1014;
0120827840999992013012322004-07317-039300FM-15+0409SBJU V0209999C000012200019N0112651N1+03101+01701999999ADDGA1021+006601999GF102991999999999999999999MA1101391999999REMMET051METAR SBJU 232200Z 00000KT 9999 FEW022 31/17 Q1014;
0120827840999992013012323004-07317-039300FM-15+0409SBJU V0209999C000012200019N0112651N1+02901+01801999999ADDGA1041+006601999GF104991999999999999999999MA1101391999999REMMET051METAR SBJU 232300Z 00000KT 9999 SCT022 29/18 Q1014;
0120827840999992013012400004-07317-039300FM-15+0409SBJU V0209999C000012200019N0112651N1+02801+01801999999ADDGA1041+006601999GF104991999999999999999999MA1101391999999REMMET051METAR SBJU 240000Z 00000KT 9999 SCT022 28/18 Q1014;
0120827840999992013012401004-07317-039300FM-15+0409SBJU V0209999C000012200019N0112651N1+02701+01801999999ADDGA1041+006601999GF104991999999999999999999MA1101391999999REMMET051METAR SBJU 240100Z 00000KT 9999 SCT022 27/18 Q1014;
0120827840999992013012402004-07317-039300FM-15+0409SBJU V0209999C000012200019N0112651N1+02601+01901999999ADDGA1041+006001999GF104991999999999999999999MA1101391999999REMMET051METAR SBJU 240200Z 00000KT 9999 SCT020 26/19 Q1014;
0120827840999992013012403004-07317-039300FM-15+0409SBJU V0209999C000012200019N0112651N1+02501+01901999999ADDGA1041+006001999GF104991999999999999999999MA1101391999999REMMET051METAR SBJU 240300Z 00000KT 9999 SCT020 25/19 Q1014;
0120827840999992013012404004-07317-039300FM-15+0409SBJU V0209999C000012200019N0112651N1+02501+01901999999ADDGA1041+006001999GF104991999999999999999999MA1101391999999REMMET051METAR SBJU 240400Z 00000KT 9999 SCT020 25/19 Q1014;
0120827840999992013012405004-07317-039300FM-15+0409SBJU V0201401N002112200019N0112651N1+02301+01901999999ADDGA1041+006001999GF104991999999999999999999MA1101391999999REMMET051METAR SBJU 240500Z 14004KT 9999 SCT020 23/19 Q1014;
0143827840999992013012406004-07317-039300FM-15+0409SBJU V0202501N001512200019N0112651N1+02401+01901999999ADDGA1021+006001999GA2041+024001999GF104991999999999999999999MA1101491999999REMMET058METAR SBJU 240600Z 25003KT 9999 FEW020 SCT080 24/19 Q1015;
0143827840999992013012407004-07317-039300FM-15+0409SBJU V0209999C000012200019N0112651N1+02401+01901999999ADDGA1021+006001999GA2041+024001999GF104991999999999999999999MA1101491999999REMMET058METAR SBJU 240700Z 00000KT 9999 FEW020 SCT080 24/19 Q1015;
0120827840999992013012408004-07317-039300FM-15+0409SBJU V0209999C000012200019N0112651N1+02401+01901999999ADDGA1021+006001999GF102991999999999999999999MA1101491999999REMMET051METAR SBJU 240800Z 00000KT 9999 FEW020 24/19 Q1015;
0143827840999992013012409004-07317-039300FM-15+0409SBJU V0209999C000012200019N0112651N1+02401+01901999999ADDGA1021+006001999GA2041+024001999GF104991999999999999999999MA1101591999999REMMET058METAR SBJU 240900Z 00000KT 9999 FEW020 SCT080 24/19 Q1016;
0120827840999992013012410004-07317-039300FM-15+0409SBJU V0209999C000010060019N0112651N1+02501+01901999999ADDGA1071+006001999GF107991999999999999999999MA1101691999999REMMET051METAR SBJU 241000Z 00000KT 9999 BKN020 25/19 Q1017;
0120827840999992013012411004-07317-039300FM-15+0409SBJU V0203101N001012200019N0112651N1+02801+01901999999ADDGA1021+006301999GF102991999999999999999999MA1101691999999REMMET051METAR SBJU 241100Z 31002KT 9999 FEW021 28/19 Q1017;
0120827840999992013012412004-07317-039300FM-15+0409SBJU V0202901N001012200019N0112651N1+02901+01801999999ADDGA1021+006301999GF102991999999999999999999MA1101691999999REMMET051METAR SBJU 241200Z 29002KT 9999 FEW021 29/18 Q1017;
0120827840999992013012413004-07317-039300FM-15+0409SBJU V0200401N002112200019N0112651N1+03001+01801999999ADDGA1021+006301999GF102991999999999999999999MA1101691999999REMMET051METAR SBJU 241300Z 04004KT 9999 FEW021 30/18 Q1017;
0120827840999992013012414004-07317-039300FM-15+0409SBJU V0201001N004112200019N0112651N1+03101+01701999999ADDGA1021+006301999GF102991999999999999999999MA1101691999999REMMET051METAR SBJU 241400Z 10008KT 9999 FEW021 31/17 Q1017;
0120827840999992013012415004-07317-039300FM-15+0409SBJU V0200601N004112200019N0112651N1+03201+01501999999ADDGA1041+006301999GF104991999999999999999999MA1101591999999REMMET051METAR SBJU 241500Z 06008KT 9999 SCT021 32/15 Q1016;
0120827840999992013012416004-07317-039300FM-15+0409SBJU V0209999C000012200019N0112651N1+03301+01401999999ADDGA1041+006301999GF104991999999999999999999MA1101491999999REMMET051METAR SBJU 241600Z 00000KT 9999 SCT021 33/14 Q1015;
0120827840999992013012417004-07317-039300FM-15+0409SBJU V0209999C000012200019N0112651N1+03401+01401999999ADDGA1041+006001999GF104991999999999999999999MA1101391999999REMMET051METAR SBJU 241700Z 00000KT 9999 SCT020 34/14 Q1014;
0120827840999992013012418004-07317-039300FM-15+0409SBJU V0209999C000012200019N0112651N1+03401+01501999999ADDGA1041+006601999GF104991999999999999999999MA1101391999999REMMET051METAR SBJU 241800Z 00000KT 9999 SCT022 34/15 Q1014;
0120827840999992013012419004-07317-039300FM-15+0409SBJU V0209999C000012200019N0112651N1+03401+01201999999ADDGA1041+006301999GF104991999999999999999999MA1101291999999REMMET051METAR SBJU 241900Z 00000KT 9999 SCT021 34/12 Q1013;
0072827840999992013012420004-07317-039300FM-15+0409SBJU V0209999C000019999999Y0099001N1+03401+01101999999ADDMA1101291999999REMMET045METAR SBJU 242000Z 00000KT CAVOK 34/11 Q1013;
0120827840999992013012421004-07317-039300FM-15+0409SBJU V0209999C000012200019N0112651N1+03301+01301999999ADDGA1041+006601999GF104991999999999999999999MA1101291999999REMMET051METAR SBJU 242100Z 00000KT 9999 SCT022 33/13 Q1013;
0120827840999992013012422004-07317-039300FM-15+0409SBJU V0209999C000012200019N0112651N1+03101+01601999999ADDGA1041+006301999GF104991999999999999999999MA1101391999999REMMET051METAR SBJU 242200Z 00000KT 9999 SCT021 31/16 Q1014;
0120827840999992013012423004-07317-039300FM-15+0409SBJU V0209999C000012200019N0112651N1+02901+01701999999ADDGA1041+006301999GF104991999999999999999999MA1101491999999REMMET051METAR SBJU 242300Z 00000KT 9999 SCT021 29/17 Q1015;
0120827840999992013012500004-07317-039300FM-15+0409SBJU V0209999C000012200019N0112651N1+02801+01701999999ADDGA1041+006301999GF104991999999999999999999MA1101591999999REMMET051METAR SBJU 250000Z 00000KT 9999 SCT021 28/17 Q1016;
0120827840999992013012501004-07317-039300FM-15+0409SBJU V0209999C000012200019N0112651N1+02801+01701999999ADDGA1041+006001999GF104991999999999999999999MA1101591999999REMMET051METAR SBJU 250100Z 00000KT 9999 SCT020 28/17 Q1016;
0120827840999992013012502004-07317-039300FM-15+0409SBJU V0209999C000012200019N0112651N1+02601+01901999999ADDGA1041+006001999GF104991999999999999999999MA1101591999999REMMET051METAR SBJU 250200Z 00000KT 9999 SCT020 26/19 Q1016;
0120827840999992013012503004-07317-039300FM-15+0409SBJU V0209999C000012200019N0112651N1+02601+01801999999ADDGA1041+006001999GF104991999999999999999999MA1101591999999REMMET051METAR SBJU 250300Z 00000KT 9999 SCT020 26/18 Q1016;
0120827840999992013012504004-07317-039300FM-15+0409SBJU V0200401N001010060019N0112651N1+02701+01701999999ADDGA1071+006001999GF107991999999999999999999MA1101591999999REMMET051METAR SBJU 250400Z 04002KT 9999 BKN020 27/17 Q1016;
0120827840999992013012505004-07317-039300FM-15+0409SBJU V0200201N002110060019N0112651N1+02701+01701999999ADDGA1071+006001999GF107991999999999999999999MA1101591999999REMMET051METAR SBJU 250500Z 02004KT 9999 BKN020 27/17 Q1016;
0120827840999992013012506004-07317-039300FM-15+0409SBJU V0200301N002110060019N0112651N1+02601+01701999999ADDGA1071+006001999GF107991999999999999999999MA1101591999999REMMET051METAR SBJU 250600Z 03004KT 9999 BKN020 26/17 Q1016;
0120827840999992013012507004-07317-039300FM-15+0409SBJU V0200301N001010060019N0112651N1+02501+01801999999ADDGA1071+006001999GF107991999999999999999999MA1101491999999REMMET051METAR SBJU 250700Z 03002KT 9999 BKN020 25/18 Q1015;
0120827840999992013012508004-07317-039300FM-15+0409SBJU V0209999C000010060019N0112651N1+02501+01801999999ADDGA1071+006001999GF107991999999999999999999MA1101591999999REMMET051METAR SBJU 250800Z 00000KT 9999 BKN020 25/18 Q1016;
0120827840999992013012509004-07317-039300FM-15+0409SBJU V0200101N001012200019N0112651N1+02501+01801999999ADDGA1021+006001999GF102991999999999999999999MA1101691999999REMMET051METAR SBJU 250900Z 01002KT 9999 FEW020 25/18 Q1017;
0072827840999992013012510004-07317-039300FM-15+0409SBJU V0209999C000019999999Y0099001N1+02601+01901999999ADDMA1101691999999REMMET045METAR SBJU 251000Z 00000KT CAVOK 26/19 Q1017;
0072827840999992013012511004-07317-039300FM-15+0409SBJU V0209999C000019999999Y0099001N1+02701+01901999999ADDMA1101801999999REMMET045METAR SBJU 251100Z 00000KT CAVOK 27/19 Q1018;
0072827840999992013012512004-07317-039300FM-15+0409SBJU V0209999C000019999999Y0099001N1+02801+01701999999ADDMA1101801999999REMMET045METAR SBJU 251200Z 00000KT CAVOK 28/17 Q1018;
0072827840999992013012513004-07317-039300FM-15+0409SBJU V0209999C000019999999Y0099001N1+03001+01701999999ADDMA1101801999999REMMET045METAR SBJU 251300Z 00000KT CAVOK 30/17 Q1018;
0072827840999992013012514004-07317-039300FM-15+0409SBJU V0209999C000019999999Y0099001N1+03101+01501999999ADDMA1101691999999REMMET045METAR SBJU 251400Z 00000KT CAVOK 31/15 Q1017;
0072827840999992013012515004-07317-039300FM-15+0409SBJU V0200501N003119999999Y0099001N1+03201+01401999999ADDMA1101591999999REMMET045METAR SBJU 251500Z 05006KT CAVOK 32/14 Q1016;
0120827840999992013012516004-07317-039300FM-15+0409SBJU V0209999C000012200019N0112651N1+03301+01301999999ADDGA1021+006001999GF102991999999999999999999MA1101491999999REMMET051METAR SBJU 251600Z 00000KT 9999 FEW020 33/13 Q1015;
0120827840999992013012517004-07317-039300FM-15+0409SBJU V0200401N001512200019N0112651N1+03401+01301999999ADDGA1021+006001999GF102991999999999999999999MA1101391999999REMMET051METAR SBJU 251700Z 04003KT 9999 FEW020 34/13 Q1014;
0120827840999992013012519004-07317-039300FM-15+0409SBJU V0200401N002112200019N0112651N1+03401+01201999999ADDGA1021+006001999GF102991999999999999999999MA1101291999999REMMET051METAR SBJU 251900Z 04004KT 9999 FEW020 34/12 Q1013;
0120827840999992013012520004-07317-039300FM-15+0409SBJU V0200501N002612200019N0112651N1+03501+01201999999ADDGA1021+006001999GF102991999999999999999999MA1101291999999REMMET051METAR SBJU 252000Z 05005KT 9999 FEW020 35/12 Q1013;
0120827840999992013012521004-07317-039300FM-15+0409SBJU V0209999C000012200019N0112651N1+03301+01201999999ADDGA1021+006001999GF102991999999999999999999MA1101291999999REMMET051METAR SBJU 252100Z 00000KT 9999 FEW020 33/12 Q1013;
0120827840999992013012522004-07317-039300FM-15+0409SBJU V0209999C000012200019N0112651N1+03101+01301999999ADDGA1021+006001999GF102991999999999999999999MA1101391999999REMMET051METAR SBJU 252200Z 00000KT 9999 FEW020 31/13 Q1014;
0120827840999992013012523004-07317-039300FM-15+0409SBJU V0209999C000012200019N0112651N1+03001+01301999999ADDGA1021+006001999GF102991999999999999999999MA1101491999999REMMET051METAR SBJU 252300Z 00000KT 9999 FEW020 30/13 Q1015;
0120827840999992013012600004-07317-039300FM-15+0409SBJU V0209999C000012200019N0112651N1+02901+01601999999ADDGA1041+006001999GF104991999999999999999999MA1101591999999REMMET051METAR SBJU 260000Z 00000KT 9999 SCT020 29/16 Q1016;
0120827840999992013012601004-07317-039300FM-15+0409SBJU V0209999C000012200019N0112651N1+02801+01601999999ADDGA1041+006001999GF104991999999999999999999MA1101591999999REMMET051METAR SBJU 260100Z 00000KT 9999 SCT020 28/16 Q1016;
0120827840999992013012602004-07317-039300FM-15+0409SBJU V0209999C000012200019N0112651N1+02701+01701999999ADDGA1041+006001999GF104991999999999999999999MA1101591999999REMMET051METAR SBJU 260200Z 00000KT 9999 SCT020 27/17 Q1016;
0120827840999992013012603004-07317-039300FM-15+0409SBJU V0209999C000012200019N0112651N1+02601+01801999999ADDGA1041+006001999GF104991999999999999999999MA1101591999999REMMET051METAR SBJU 260300Z 00000KT 9999 SCT020 26/18 Q1016;
0072827840999992013012604004-07317-039300FM-15+0409SBJU V0209999C000019999999Y0099001N1+02601+01701999999ADDMA1101591999999REMMET045METAR SBJU 260400Z 00000KT CAVOK 26/17 Q1016;
0072827840999992013012605004-07317-039300FM-15+0409SBJU V0209999C000019999999Y0099001N1+02601+01701999999ADDMA1101591999999REMMET045METAR SBJU 260500Z 00000KT CAVOK 26/17 Q1016;
0072827840999992013012606004-07317-039300FM-15+0409SBJU V0209999C000019999999Y0099001N1+02601+01701999999ADDMA1101591999999REMMET045METAR SBJU 260600Z 00000KT CAVOK 26/17 Q1016;
0072827840999992013012607004-07317-039300FM-15+0409SBJU V0209999C000019999999Y0099001N1+02601+01701999999ADDMA1101691999999REMMET045METAR SBJU 260700Z 00000KT CAVOK 26/17 Q1017;
0072827840999992013012608004-07317-039300FM-15+0409SBJU V0209999C000019999999Y0099001N1+02401+01801999999ADDMA1101691999999REMMET045METAR SBJU 260800Z 00000KT CAVOK 24/18 Q1017;
0072827840999992013012609004-07317-039300FM-15+0409SBJU V0209999C000019999999Y0099001N1+02401+01801999999ADDMA1101691999999REMMET045METAR SBJU 260900Z 00000KT CAVOK 24/18 Q1017;
0120827840999992013012610004-07317-039300FM-15+0409SBJU V0209999C000012200019N0112651N1+02401+01901999999ADDGA1041+006001999GF104991999999999999999999MA1101801999999REMMET051METAR SBJU 261000Z 00000KT 9999 SCT020 24/19 Q1018;
0120827840999992013012611004-07317-039300FM-15+0409SBJU V0209999C000012200019N0112651N1+02601+01901999999ADDGA1041+006001999GF104991999999999999999999MA1101901999999REMMET051METAR SBJU 261100Z 00000KT 9999 SCT020 26/19 Q1019;
0120827840999992013012612004-07317-039300FM-15+0409SBJU V0200201N001512200019N0112651N1+02801+01901999999ADDGA1041+006001999GF104991999999999999999999MA1101901999999REMMET051METAR SBJU 261200Z 02003KT 9999 SCT020 28/19 Q1019;
0120827840999992013012613004-07317-039300FM-15+0409SBJU V0209999C000012200019N0112651N1+02901+01801999999ADDGA1041+006001999GF104991999999999999999999MA1101901999999REMMET051METAR SBJU 261300Z 00000KT 9999 SCT020 29/18 Q1019;
0120827840999992013012614004-07317-039300FM-15+0409SBJU V0200501N002112200019N0112651N1+03001+01801999999ADDGA1041+006001999GF104991999999999999999999MA1101801999999REMMET051METAR SBJU 261400Z 05004KT 9999 SCT020 30/18 Q1018;
0120827840999992013012615004-07317-039300FM-15+0409SBJU V0201401N002112200019N0112651N1+03101+01801999999ADDGA1041+006001999GF104991999999999999999999MA1101691999999REMMET051METAR SBJU 261500Z 14004KT 9999 SCT020 31/18 Q1017;
0120827840999992013012616004-07317-039300FM-15+0409SBJU V0209999C000012200019N0112651N1+03301+01701999999ADDGA1021+006601999GF102991999999999999999999MA1101591999999REMMET051METAR SBJU 261600Z 00000KT 9999 FEW022 33/17 Q1016;
0120827840999992013012617004-07317-039300FM-15+0409SBJU V0200801N003612200019N0112651N1+03301+01601999999ADDGA1021+006601999GF102991999999999999999999MA1101491999999REMMET051METAR SBJU 261700Z 08007KT 9999 FEW022 33/16 Q1015;
0120827840999992013012618004-07317-039300FM-15+0409SBJU V0201401N001512200019N0112651N1+03401+01501999999ADDGA1021+006601999GF102991999999999999999999MA1101391999999REMMET051METAR SBJU 261800Z 14003KT 9999 FEW022 34/15 Q1014;
0072827840999992013012619004-07317-039300FM-15+0409SBJU V0209999C000019999999Y0099001N1+03401+01401999999ADDMA1101291999999REMMET045METAR SBJU 261900Z 00000KT CAVOK 34/14 Q1013;
0072827840999992013012620004-07317-039300FM-15+0409SBJU V0209999C000019999999Y0099001N1+03501+01401999999ADDMA1101291999999REMMET045METAR SBJU 262000Z 00000KT CAVOK 35/14 Q1013;
0072827840999992013012621004-07317-039300FM-15+0409SBJU V0209999C000019999999Y0099001N1+03301+01501999999ADDMA1101291999999REMMET045METAR SBJU 262100Z 00000KT CAVOK 33/15 Q1013;
0120827840999992013012622004-07317-039300FM-15+0409SBJU V0209999C000012200019N0112651N1+03201+01601999999ADDGA1021+006001999GF102991999999999999999999MA1101391999999REMMET051METAR SBJU 262200Z 00000KT 9999 FEW020 32/16 Q1014;
0120827840999992013012623004-07317-039300FM-15+0409SBJU V0209999C000012200019N0112651N1+03001+01801999999ADDGA1021+006001999GF102991999999999999999999MA1101391999999REMMET051METAR SBJU 262300Z 00000KT 9999 FEW020 30/18 Q1014;
0143827840999992013012700004-07317-039300FM-15+0409SBJU V0209999C000010240019N0112651N1+03001+01801999999ADDGA1021+006001999GA2071+024001999GF107991999999999999999999MA1101491999999REMMET058METAR SBJU 270000Z 00000KT 9999 FEW020 BKN080 30/18 Q1015;
0143827840999992013012701004-07317-039300FM-15+0409SBJU V0209999C000010240019N0112651N1+02801+02001999999ADDGA1021+006001999GA2071+024001999GF107991999999999999999999MA1101491999999REMMET058METAR SBJU 270100Z 00000KT 9999 FEW020 BKN080 28/20 Q1015;
0143827840999992013012702004-07317-039300FM-15+0409SBJU V0209999C000010240019N0112651N1+02701+02001999999ADDGA1021+006001999GA2071+024001999GF107991999999999999999999MA1101491999999REMMET058METAR SBJU 270200Z 00000KT 9999 FEW020 BKN080 27/20 Q1015;
0143827840999992013012703004-07317-039300FM-15+0409SBJU V0200501N003610240019N0112651N1+02701+01901999999ADDGA1021+006001999GA2071+024001999GF107991999999999999999999MA1101591999999REMMET058METAR SBJU 270300Z 05007KT 9999 FEW020 BKN080 27/19 Q1016;
0120827840999992013012704004-07317-039300FM-15+0409SBJU V0209999C000012200019N0112651N1+02701+01801999999ADDGA1041+006001999GF104991999999999999999999MA1101591999999REMMET051METAR SBJU 270400Z 00000KT 9999 SCT020 27/18 Q1016;
0120827840999992013012705004-07317-039300FM-15+0409SBJU V0200901N002112200019N0112651N1+02601+01901999999ADDGA1041+006001999GF104991999999999999999999MA1101691999999REMMET051METAR SBJU 270500Z 09004KT 9999 SCT020 26/19 Q1017;
0120827840999992013012706004-07317-039300FM-15+0409SBJU V0203301N002112200019N0112651N1+02601+01901999999ADDGA1041+006001999GF104991999999999999999999MA1101691999999REMMET051METAR SBJU 270600Z 33004KT 9999 SCT020 26/19 Q1017;
0120827840999992013012707004-07317-039300FM-15+0409SBJU V0200201N002112200019N0112651N1+02601+01901999999ADDGA1041+006001999GF104991999999999999999999MA1101691999999REMMET051METAR SBJU 270700Z 02004KT 9999 SCT020 26/19 Q1017;
0120827840999992013012708004-07317-039300FM-15+0409SBJU V0200301N002112200019N0112651N1+02501+01901999999ADDGA1041+006001999GF104991999999999999999999MA1101801999999REMMET051METAR SBJU 270800Z 03004KT 9999 SCT020 25/19 Q1018;
0120827840999992013012709004-07317-039300FM-15+0409SBJU V0209999C000012200019N0112651N1+02401+01901999999ADDGA1041+006001999GF104991999999999999999999MA1101801999999REMMET051METAR SBJU 270900Z 00000KT 9999 SCT020 24/19 Q1018;
0143827840999992013012710004-07317-039300FM-15+0409SBJU V0200101N002112200019N0112651N1+02501+01901999999ADDGA1021+006001999GA2041+024001999GF104991999999999999999999MA1101901999999REMMET058METAR SBJU 271000Z 01004KT 9999 FEW020 SCT080 25/19 Q1019;
0120827840999992013012711004-07317-039300FM-15+0409SBJU V0209999C000012200019N0112651N1+02601+01901999999ADDGA1021+006001999GF102991999999999999999999MA1101901999999REMMET051METAR SBJU 271100Z 00000KT 9999 FEW020 26/19 Q1019;
0120827840999992013012712004-07317-039300FM-15+0409SBJU V0200401N001512200019N0112651N1+02701+01801999999ADDGA1021+006001999GF102991999999999999999999MA1101901999999REMMET051METAR SBJU 271200Z 04003KT 9999 FEW020 27/18 Q1019;
0120827840999992013012713004-07317-039300FM-15+0409SBJU V0209999C000012200019N0112651N1+02801+01801999999ADDGA1021+006601999GF102991999999999999999999MA1101901999999REMMET051METAR SBJU 271300Z 00000KT 9999 FEW022 28/18 Q1019;
0120827840999992013012714004-07317-039300FM-15+0409SBJU V0200401N003612200019N0112651N1+02901+01801999999ADDGA1021+006601999GF102991999999999999999999MA1101801999999REMMET051METAR SBJU 271400Z 04007KT 9999 FEW022 29/18 Q1018;
0120827840999992013012715004-07317-039300FM-15+0409SBJU V0209999C000012200019N0112651N1+03001+01901999999ADDGA1021+006601999GF102991999999999999999999MA1101801999999REMMET051METAR SBJU 271500Z 00000KT 9999 FEW022 30/19 Q1018;
0120827840999992013012716004-07317-039300FM-15+0409SBJU V0201201N001012200019N0112651N1+03201+01801999999ADDGA1021+006601999GF102991999999999999999999MA1101591999999REMMET051METAR SBJU 271600Z 12002KT 9999 FEW022 32/18 Q1016;
0120827840999992013012717004-07317-039300FM-15+0409SBJU V0209999C000012200019N0112651N1+03201+01801999999ADDGA1021+006601999GF102991999999999999999999MA1101491999999REMMET051METAR SBJU 271700Z 00000KT 9999 FEW022 32/18 Q1015;
0120827840999992013012718004-07317-039300FM-15+0409SBJU V0209999C000012200019N0112651N1+03201+01801999999ADDGA1021+006601999GF102991999999999999999999MA1101491999999REMMET051METAR SBJU 271800Z 00000KT 9999 FEW022 32/18 Q1015;
0143827840999992013012719004-07317-039300FM-15+0409SBJU V0209999C000010240019N0112651N1+03201+01701999999ADDGA1021+006601999GA2071+024001999GF107991999999999999999999MA1101391999999REMMET058METAR SBJU 271900Z 00000KT 9999 FEW022 BKN080 32/17 Q1014;
0120827840999992013012720004-07317-039300FM-15+0409SBJU V0209999C000012200019N0112651N1+03201+01801999999ADDGA1021+006601999GF102991999999999999999999MA1101391999999REMMET051METAR SBJU 272000Z 00000KT 9999 FEW022 32/18 Q1014;
0120827840999992013012721004-07317-039300FM-15+0409SBJU V0209999C000012200019N0112651N1+03101+01801999999ADDGA1021+006601999GF102991999999999999999999MA1101491999999REMMET051METAR SBJU 272100Z 00000KT 9999 FEW022 31/18 Q1015;
0120827840999992013012722004-07317-039300FM-15+0409SBJU V0209999C000012200019N0112651N1+03101+01801999999ADDGA1021+006601999GF102991999999999999999999MA1101491999999REMMET051METAR SBJU 272200Z 00000KT 9999 FEW022 31/18 Q1015;
0120827840999992013012723004-07317-039300FM-15+0409SBJU V0209999C000012200019N0112651N1+03001+01901999999ADDGA1021+006301999GF102991999999999999999999MA1101591999999REMMET051METAR SBJU 272300Z 00000KT 9999 FEW021 30/19 Q1016;
0120827840999992013012800004-07317-039300FM-15+0409SBJU V0209999C000012200019N0112651N1+02801+01901999999ADDGA1021+006301999GF102991999999999999999999MA1101591999999REMMET051METAR SBJU 280000Z 00000KT 9999 FEW021 28/19 Q1016;
0120827840999992013012801004-07317-039300FM-15+0409SBJU V0209999C000012200019N0112651N1+02701+02001999999ADDGA1021+006301999GF102991999999999999999999MA1101591999999REMMET051METAR SBJU 280100Z 00000KT 9999 FEW021 27/20 Q1016;
0072827840999992013012802004-07317-039300FM-15+0409SBJU V0209999C000019999999Y0099001N1+02701+02001999999ADDMA1101691999999REMMET045METAR SBJU 280200Z 00000KT CAVOK 27/20 Q1017;
0072827840999992013012803004-07317-039300FM-15+0409SBJU V0209999C000019999999Y0099001N1+02601+02001999999ADDMA1101591999999REMMET045METAR SBJU 280300Z 00000KT CAVOK 26/20 Q1016;
0120827840999992013012804004-07317-039300FM-15+0409SBJU V0209999C000012200019N0112651N1+02501+02001999999ADDGA1021+006001999GF102991999999999999999999MA1101591999999REMMET051METAR SBJU 280400Z 00000KT 9999 FEW020 25/20 Q1016;
0120827840999992013012805004-07317-039300FM-15+0409SBJU V0209999C000012200019N0112651N1+02601+01901999999ADDGA1021+006001999GF102991999999999999999999MA1101591999999REMMET051METAR SBJU 280500Z 00000KT 9999 FEW020 26/19 Q1016;
0120827840999992013012806004-07317-039300FM-15+0409SBJU V0209999C000012200019N0112651N1+02401+01901999999ADDGA1021+006001999GF102991999999999999999999MA1101591999999REMMET051METAR SBJU 280600Z 00000KT 9999 FEW020 24/19 Q1016;
0120827840999992013012807004-07317-039300FM-15+0409SBJU V0209999C000012200019N0112651N1+02401+01901999999ADDGA1021+006001999GF102991999999999999999999MA1101691999999REMMET051METAR SBJU 280700Z 00000KT 9999 FEW020 24/19 Q1017;
0120827840999992013012808004-07317-039300FM-15+0409SBJU V0209999C000012200019N0112651N1+02401+01801999999ADDGA1021+006001999GF102991999999999999999999MA1101691999999REMMET051METAR SBJU 280800Z 00000KT 9999 FEW020 24/18 Q1017;
0120827840999992013012809004-07317-039300FM-15+0409SBJU V0209999C000012200019N0112651N1+02301+01801999999ADDGA1021+006001999GF102991999999999999999999MA1101691999999REMMET051METAR SBJU 280900Z 00000KT 9999 FEW020 23/18 Q1017;
0072827840999992013012810004-07317-039300FM-15+0409SBJU V0209999C000019999999Y0099001N1+02501+01801999999ADDMA1101801999999REMMET045METAR SBJU 281000Z 00000KT CAVOK 25/18 Q1018;
0072827840999992013012811004-07317-039300FM-15+0409SBJU V0209999C000019999999Y0099001N1+02601+01901999999ADDMA1101801999999REMMET045METAR SBJU 281100Z 00000KT CAVOK 26/19 Q1018;
0072827840999992013012812004-07317-039300FM-15+0409SBJU V0209999C000019999999Y0099001N1+02601+01901999999ADDMA1101901999999REMMET045METAR SBJU 281200Z 00000KT CAVOK 26/19 Q1019;
0143827840999992013012813004-07317-039300FM-15+0409SBJU V0209999C000010240019N0112651N1+02601+01901999999ADDGA1041+006001999GA2071+024001999GF107991999999999999999999MA1101801999999REMMET058METAR SBJU 281300Z 00000KT 9999 SCT020 BKN080 26/19 Q1018;
0143827840999992013012814004-07317-039300FM-15+0409SBJU V0209999C000010240019N0112651N1+02901+02001999999ADDGA1041+006001999GA2071+024001999GF107991999999999999999999MA1101801999999REMMET058METAR SBJU 281400Z 00000KT 9999 SCT020 BKN080 29/20 Q1018;
0143827840999992013012815004-07317-039300FM-15+0409SBJU V0209999C000012200019N0112651N1+03001+01901999999ADDGA1041+006601999GA2041+024001999GF104991999999999999999999MA1101691999999REMMET058METAR SBJU 281500Z 00000KT 9999 SCT022 SCT080 30/19 Q1017;
0120827840999992013012816004-07317-039300FM-15+0409SBJU V0209999C000012200019N0112651N1+03101+01801999999ADDGA1041+006601999GF104991999999999999999999MA1101591999999REMMET051METAR SBJU 281600Z 00000KT 9999 SCT022 31/18 Q1016;
0120827840999992013012817004-07317-039300FM-15+0409SBJU V0203001N003612200019N0112651N1+03201+01801999999ADDGA1041+006601999GF104991999999999999999999MA1101491999999REMMET051METAR SBJU 281700Z 30007KT 9999 SCT022 32/18 Q1015;
0120827840999992013012818004-07317-039300FM-15+0409SBJU V0209999C000012200019N0112651N1+03201+01701999999ADDGA1041+006901999GF104991999999999999999999MA1101491999999REMMET051METAR SBJU 281800Z 00000KT 9999 SCT023 32/17 Q1015;
0120827840999992013012819004-07317-039300FM-15+0409SBJU V0209999C000012200019N0112651N1+03301+01701999999ADDGA1041+006901999GF104991999999999999999999MA1101391999999REMMET051METAR SBJU 281900Z 00000KT 9999 SCT023 33/17 Q1014;
0072827840999992013012820004-07317-039300FM-15+0409SBJU V0209999C000019999999Y0099001N1+03301+01701999999ADDMA1101391999999REMMET045METAR SBJU 282000Z 00000KT CAVOK 33/17 Q1014;
0072827840999992013012821004-07317-039300FM-15+0409SBJU V0209999C000019999999Y0099001N1+03201+01601999999ADDMA1101391999999REMMET045METAR SBJU 282100Z 00000KT CAVOK 32/16 Q1014;
0120827840999992013012822004-07317-039300FM-15+0409SBJU V0202901N001012200019N0112651N1+03101+01701999999ADDGA1021+006301999GF102991999999999999999999MA1101491999999REMMET051METAR SBJU 282200Z 29002KT 9999 FEW021 31/17 Q1015;
0120827840999992013012823004-07317-039300FM-15+0409SBJU V0209999C000012200019N0112651N1+03001+01801999999ADDGA1021+006301999GF102991999999999999999999MA1101491999999REMMET051METAR SBJU 282300Z 00000KT 9999 FEW021 30/18 Q1015;
0120827840999992013012900004-07317-039300FM-15+0409SBJU V0201801N001012200019N0112651N1+02801+01901999999ADDGA1021+006301999GF102991999999999999999999MA1101591999999REMMET051METAR SBJU 290000Z 18002KT 9999 FEW021 28/19 Q1016;
0120827840999992013012901004-07317-039300FM-15+0409SBJU V0202601N001012200019N0112651N1+02701+01801999999ADDGA1021+006301999GF102991999999999999999999MA1101591999999REMMET051METAR SBJU 290100Z 26002KT 9999 FEW021 27/18 Q1016;
0120827840999992013012902004-07317-039300FM-15+0409SBJU V0200601N001012200019N0112651N1+02601+01901999999ADDGA1021+006301999GF102991999999999999999999MA1101591999999REMMET051METAR SBJU 290200Z 06002KT 9999 FEW021 26/19 Q1016;
0120827840999992013012903004-07317-039300FM-15+0409SBJU V0200701N003610060019N0112651N1+02701+01701999999ADDGA1071+006001999GF107991999999999999999999MA1101691999999REMMET051METAR SBJU 290300Z 07007KT 9999 BKN020 27/17 Q1017;
0143827840999992013012904004-07317-039300FM-15+0409SBJU V0209999C000012200019N0112651N1+02701+01801999999ADDGA1021+006001999GA2041+024001999GF104991999999999999999999MA1101691999999REMMET058METAR SBJU 290400Z 00000KT 9999 FEW020 SCT080 27/18 Q1017;
0143827840999992013012905004-07317-039300FM-15+0409SBJU V0209999C000012200019N0112651N1+02601+01701999999ADDGA1021+006001999GA2041+024001999GF104991999999999999999999MA1101691999999REMMET058METAR SBJU 290500Z 00000KT 9999 FEW020 SCT080 26/17 Q1017;
0143827840999992013012906004-07317-039300FM-15+0409SBJU V0209999C000012200019N0112651N1+02501+01701999999ADDGA1021+006001999GA2041+024001999GF104991999999999999999999MA1101591999999REMMET058METAR SBJU 290600Z 00000KT 9999 FEW020 SCT080 25/17 Q1016;
0143827840999992013012907004-07317-039300FM-15+0409SBJU V0209999C000012200019N0112651N1+02501+01701999999ADDGA1021+006001999GA2041+024001999GF104991999999999999999999MA1101691999999REMMET058METAR SBJU 290700Z 00000KT 9999 FEW020 SCT080 25/17 Q1017;
0143827840999992013012908004-07317-039300FM-15+0409SBJU V0209999C000012200019N0112651N1+02401+01701999999ADDGA1021+006001999GA2041+024001999GF104991999999999999999999MA1101691999999REMMET058METAR SBJU 290800Z 00000KT 9999 FEW020 SCT080 24/17 Q1017;
0143827840999992013012909004-07317-039300FM-15+0409SBJU V0209999C000012200019N0112651N1+02401+01701999999ADDGA1041+006001999GA2041+024001999GF104991999999999999999999MA1101691999999REMMET058METAR SBJU 290900Z 00000KT 9999 SCT020 SCT080 24/17 Q1017;
0120827840999992013012910004-07317-039300FM-15+0409SBJU V0209999C000012200019N0112651N1+02501+01801999999ADDGA1041+006001999GF104991999999999999999999MA1101801999999REMMET051METAR SBJU 291000Z 00000KT 9999 SCT020 25/18 Q1018;
0120827840999992013012911004-07317-039300FM-15+0409SBJU V0209999C000012200019N0112651N1+02601+01801999999ADDGA1041+006001999GF104991999999999999999999MA1101901999999REMMET051METAR SBJU 291100Z 00000KT 9999 SCT020 26/18 Q1019;
0120827840999992013012912004-07317-039300FM-15+0409SBJU V0200701N003610066019N0112651N1+02701+01701999999ADDGA1071+006601999GF107991999999999999999999MA1101901999999REMMET051METAR SBJU 291200Z 07007KT 9999 BKN022 27/17 Q1019;
0120827840999992013012913004-07317-039300FM-15+0409SBJU V0200801N001510066019N0112651N1+02801+01601999999ADDGA1071+006601999GF107991999999999999999999MA1101801999999REMMET051METAR SBJU 291300Z 08003KT 9999 BKN022 28/16 Q1018;
0072827840999992013012914004-07317-039300FM-15+0409SBJU V0200901N002119999999Y0099001N1+03001+01601999999ADDMA1101801999999REMMET045METAR SBJU 291400Z 09004KT CAVOK 30/16 Q1018;
0120827840999992013012915004-07317-039300FM-15+0409SBJU V0200801N002612200019N0112651N1+03101+01301999999ADDGA1041+006601999GF104991999999999999999999MA1101691999999REMMET051METAR SBJU 291500Z 08005KT 9999 SCT022 31/13 Q1017;
0120827840999992013012916004-07317-039300FM-15+0409SBJU V0200701N003112200019N0112651N1+03301+01101999999ADDGA1041+006601999GF104991999999999999999999MA1101491999999REMMET051METAR SBJU 291600Z 07006KT 9999 SCT022 33/11 Q1015;
0120827840999992013012917004-07317-039300FM-15+0409SBJU V0200601N003112200019N0112651N1+03401+01001999999ADDGA1041+006601999GF104991999999999999999999MA1101391999999REMMET051METAR SBJU 291700Z 06006KT 9999 SCT022 34/10 Q1014;
0120827840999992013012918004-07317-039300FM-15+0409SBJU V0209999C000012200019N0112651N1+03501+01001999999ADDGA1041+006601999GF104991999999999999999999MA1101291999999REMMET051METAR SBJU 291800Z 00000KT 9999 SCT022 35/10 Q1013;
0120827840999992013012919004-07317-039300FM-15+0409SBJU V0200401N004112200019N0112651N1+03501+00901999999ADDGA1041+006601999GF104991999999999999999999MA1101291999999REMMET051METAR SBJU 291900Z 04008KT 9999 SCT022 35/09 Q1013;
0120827840999992013012920004-07317-039300FM-15+0409SBJU V0200501N003612200019N0112651N1+03501+00801999999ADDGA1021+006601999GF102991999999999999999999MA1101291999999REMMET051METAR SBJU 292000Z 05007KT 9999 FEW022 35/08 Q1013;
0120827840999992013012921004-07317-039300FM-15+0409SBJU V0209999C000012200019N0112651N1+03401+01001999999ADDGA1041+006601999GF104991999999999999999999MA1101291999999REMMET051METAR SBJU 292100Z 00000KT 9999 SCT022 34/10 Q1013;
0072827840999992013012922004-07317-039300FM-15+0409SBJU V0209999C000019999999Y0099001N1+03201+00901999999ADDMA1101291999999REMMET045METAR SBJU 292200Z 00000KT CAVOK 32/09 Q1013;
0072827840999992013012923004-07317-039300FM-15+0409SBJU V0209999C000019999999Y0099001N1+03001+01101999999ADDMA1101391999999REMMET045METAR SBJU 292300Z 00000KT CAVOK 30/11 Q1014;
0072827840999992013013000004-07317-039300FM-15+0409SBJU V0209999C000019999999Y0099001N1+02801+01201999999ADDMA1101491999999REMMET045METAR SBJU 300000Z 00000KT CAVOK 28/12 Q1015;
0072827840999992013013001004-07317-039300FM-15+0409SBJU V0209999C000019999999Y0099001N1+02801+01401999999ADDMA1101491999999REMMET045METAR SBJU 300100Z 00000KT CAVOK 28/14 Q1015;
0072827840999992013013002004-07317-039300FM-15+0409SBJU V0209999C000019999999Y0099001N1+02701+01301999999ADDMA1101491999999REMMET045METAR SBJU 300200Z 00000KT CAVOK 27/13 Q1015;
0072827840999992013013003004-07317-039300FM-15+0409SBJU V0209999C000019999999Y0099001N1+02701+01301999999ADDMA1101591999999REMMET045METAR SBJU 300300Z 00000KT CAVOK 27/13 Q1016;
0120827840999992013013004004-07317-039300FM-15+0409SBJU V0209999C000012200019N0112651N1+02601+01501999999ADDGA1021+006301999GF102991999999999999999999MA1101591999999REMMET051METAR SBJU 300400Z 00000KT 9999 FEW021 26/15 Q1016;
0120827840999992013013005004-07317-039300FM-15+0409SBJU V0209999C000012200019N0112651N1+02601+01701999999ADDGA1021+006301999GF102991999999999999999999MA1101591999999REMMET051METAR SBJU 300500Z 00000KT 9999 FEW021 26/17 Q1016;
0120827840999992013013006004-07317-039300FM-15+0409SBJU V0209999C000012200019N0112651N1+02501+01801999999ADDGA1041+006301999GF104991999999999999999999MA1101491999999REMMET051METAR SBJU 300600Z 00000KT 9999 SCT021 25/18 Q1015;
0120827840999992013013007004-07317-039300FM-15+0409SBJU V0209999C000012200019N0112651N1+02501+01801999999ADDGA1041+006301999GF104991999999999999999999MA1101591999999REMMET051METAR SBJU 300700Z 00000KT 9999 SCT021 25/18 Q1016;
0120827840999992013013008004-07317-039300FM-15+0409SBJU V0209999C000012200019N0112651N1+02401+01701999999ADDGA1041+006301999GF104991999999999999999999MA1101591999999REMMET051METAR SBJU 300800Z 00000KT 9999 SCT021 24/17 Q1016;
0105827840999992013013009004-07317-039300FM-15+0409SBJU V0209999C000012200019N0112651N1+02401+01701999999ADDGA1021+006001999GF102991999999999999999999REMMET051METAR SBJU 300900Z 00000KT 9999 FEW020 24/17 Q0101;
0120827840999992013013010004-07317-039300FM-15+0409SBJU V0209999C000012200019N0112651N1+02601+01701999999ADDGA1021+006001999GF102991999999999999999999MA1101691999999REMMET051METAR SBJU 301000Z 00000KT 9999 FEW020 26/17 Q1017;
0120827840999992013013011004-07317-039300FM-15+0409SBJU V0209999C000012200019N0112651N1+02701+01901999999ADDGA1021+006001999GF102991999999999999999999MA1101691999999REMMET051METAR SBJU 301100Z 00000KT 9999 FEW020 27/19 Q1017;
0120827840999992013013012004-07317-039300FM-15+0409SBJU V0209999C000012200019N0112651N1+02801+01901999999ADDGA1041+006001999GF104991999999999999999999MA1101691999999REMMET051METAR SBJU 301200Z 00000KT 9999 SCT020 28/19 Q1017;
0120827840999992013013013004-07317-039300FM-15+0409SBJU V0209999C000012200019N0112651N1+03001+01901999999ADDGA1041+006001999GF104991999999999999999999MA1101691999999REMMET051METAR SBJU 301300Z 00000KT 9999 SCT020 30/19 Q1017;
0120827840999992013013014004-07317-039300FM-15+0409SBJU V0200301N001012200019N0112651N1+03201+01701999999ADDGA1041+006601999GF104991999999999999999999MA1101591999999REMMET051METAR SBJU 301400Z 03002KT 9999 SCT022 32/17 Q1016;
0120827840999992013013015004-07317-039300FM-15+0409SBJU V0200901N001012200019N0112651N1+03301+01801999999ADDGA1041+006601999GF104991999999999999999999MA1101591999999REMMET051METAR SBJU 301500Z 09002KT 9999 SCT022 33/18 Q1016;
0120827840999992013013016004-07317-039300FM-15+0409SBJU V0200601N003612200019N0112651N1+03301+01401999999ADDGA1021+006601999GF102991999999999999999999MA1101391999999REMMET051METAR SBJU 301600Z 06007KT 9999 FEW022 33/14 Q1014;
0120827840999992013013017004-07317-039300FM-15+0409SBJU V0201801N003112200019N0112651N1+03601+01201999999ADDGA1021+006601999GF102991999999999999999999MA1101291999999REMMET051METAR SBJU 301700Z 18006KT 9999 FEW022 36/12 Q1013;
0120827840999992013013018004-07317-039300FM-15+0409SBJU V0209999C000012200019N0112651N1+03601+01101999999ADDGA1021+006601999GF102991999999999999999999MA1101191999999REMMET051METAR SBJU 301800Z 00000KT 9999 FEW022 36/11 Q1012;
0120827840999992013013019004-07317-039300FM-15+0409SBJU V0209999C000012200019N0112651N1+03501+01201999999ADDGA1021+006601999GF102991999999999999999999MA1101191999999REMMET051METAR SBJU 301900Z 00000KT 9999 FEW022 35/12 Q1012;
0120827840999992013013020004-07317-039300FM-15+0409SBJU V0209999C000012200019N0112651N1+03501+01101999999ADDGA1021+006601999GF102991999999999999999999MA1101191999999REMMET051METAR SBJU 302000Z 00000KT 9999 FEW022 35/11 Q1012;
0072827840999992013013021004-07317-039300FM-15+0409SBJU V0209999C000019999999Y0099001N1+03401+01301999999ADDMA1101191999999REMMET045METAR SBJU 302100Z 00000KT CAVOK 34/13 Q1012;
0120827840999992013013022004-07317-039300FM-15+0409SBJU V0203401N001012200019N0112651N1+03201+01301999999ADDGA1021+006301999GF102991999999999999999999MA1101291999999REMMET051METAR SBJU 302200Z 34002KT 9999 FEW021 32/13 Q1013;
0120827840999992013013023004-07317-039300FM-15+0409SBJU V0201601N001012200019N0112651N1+03101+01501999999ADDGA1021+006301999GF102991999999999999999999MA1101291999999REMMET051METAR SBJU 302300Z 16002KT 9999 FEW021 31/15 Q1013;
0120827840999992013013100004-07317-039300FM-15+0409SBJU V0201901N001012200019N0112651N1+03001+01501999999ADDGA1021+006301999GF102991999999999999999999MA1101391999999REMMET051METAR SBJU 310000Z 19002KT 9999 FEW021 30/15 Q1014;
0120827840999992013013101004-07317-039300FM-15+0409SBJU V0202801N001012200019N0112651N1+03101+01601999999ADDGA1041+006001999GF104991999999999999999999MA1101391999999REMMET051METAR SBJU 310100Z 28002KT 9999 SCT020 31/16 Q1014;
0120827840999992013013102004-07317-039300FM-15+0409SBJU V0200501N005110060019N0112651N1+03001+01801999999ADDGA1071+006001999GF107991999999999999999999MA1101491999999REMMET051METAR SBJU 310200Z 05010KT 9999 BKN020 30/18 Q1015;
0120827840999992013013103004-07317-039300FM-15+0409SBJU V0200601N004110060019N0112651N1+02801+01901999999ADDGA1071+006001999GF107991999999999999999999MA1101491999999REMMET051METAR SBJU 310300Z 06008KT 9999 BKN020 28/19 Q1015;
0120827840999992013013104004-07317-039300FM-15+0409SBJU V0203501N001510060019N0112651N1+02801+01901999999ADDGA1071+006001999GF107991999999999999999999MA1101491999999REMMET051METAR SBJU 310400Z 35003KT 9999 BKN020 28/19 Q1015;
0120827840999992013013105004-07317-039300FM-15+0409SBJU V0202601N001510054019N0112651N1+02501+02001999999ADDGA1071+005401999GF107991999999999999999999MA1101491999999REMMET051METAR SBJU 310500Z 26003KT 9999 BKN018 25/20 Q1015;
0130827840999992013013106004-07317-039300FM-15+0409SBJU V0202001N003110054019N0112651N1+02401+02101999999ADDGA1071+005401999GF107991999999999999999999MA1101491999999MW1611REMMET055METAR SBJU 310600Z 20006KT 9999 -RA BKN018 24/21 Q1015;
0129827840999992013013106204-07317-039300FM-15+0409SBJU V0202201N002610054019N0040001N1+02301+02101999999ADDGA1071+005401999GF107991999999999999999999MA1101491999999MW1631REMMET054SPECI SBJU 310620Z 22005KT 4000 RA BKN018 23/21 Q1015;
0135827840999992013013106354-07317-039300FM-15+0409SBJU V0202001N003610054019N0050001N1+02301+02101999999ADDGA1071+005401999GF107991999999999999999999MA1101591999999MW1611REMMET060SPECI SBJU 310635Z 20007KT 5000 -RA BKN018 23/21 Q1016 RERA;
0120827840999992013013107004-07317-039300FM-15+0409SBJU V0202301N002610054019N0112651N1+02301+02101999999ADDGA1071+005401999GF107991999999999999999999MA1101591999999REMMET051METAR SBJU 310700Z 23005KT 9999 BKN018 23/21 Q1016;
0120827840999992013013108004-07317-039300FM-15+0409SBJU V0209999C000010054019N0112651N1+02301+02001999999ADDGA1071+005401999GF107991999999999999999999MA1101591999999REMMET051METAR SBJU 310800Z 00000KT 9999 BKN018 23/20 Q1016;
0120827840999992013013109004-07317-039300FM-15+0409SBJU V0209999C000010054019N0112651N1+02301+02001999999ADDGA1071+005401999GF107991999999999999999999MA1101591999999REMMET051METAR SBJU 310900Z 00000KT 9999 BKN018 23/20 Q1016;
0120827840999992013013110004-07317-039300FM-15+0409SBJU V0209999C000012200019N0112651N1+02401+02101999999ADDGA1041+006001999GF104991999999999999999999MA1101691999999REMMET051METAR SBJU 311000Z 00000KT 9999 SCT020 24/21 Q1017;
0120827840999992013013111004-07317-039300FM-15+0409SBJU V0209999C000012200019N0112651N1+02501+02101999999ADDGA1041+006001999GF104991999999999999999999MA1101691999999REMMET051METAR SBJU 311100Z 00000KT 9999 SCT020 25/21 Q1017;
0120827840999992013013112004-07317-039300FM-15+0409SBJU V0209999C000012200019N0112651N1+02701+01901999999ADDGA1041+006001999GF104991999999999999999999MA1101691999999REMMET051METAR SBJU 311200Z 00000KT 9999 SCT020 27/19 Q1017;
0120827840999992013013113004-07317-039300FM-15+0409SBJU V0209999C000012200019N0112651N1+02901+01701999999ADDGA1021+006001999GF102991999999999999999999MA1101691999999REMMET051METAR SBJU 311300Z 00000KT 9999 FEW020 29/17 Q1017;
0072827840999992013013114004-07317-039300FM-15+0409SBJU V0209999C000019999999Y0099001N1+03101+01601999999ADDMA1101591999999REMMET045METAR SBJU 311400Z 00000KT CAVOK 31/16 Q1016;
0072827840999992013013115004-07317-039300FM-15+0409SBJU V0209999C000019999999Y0099001N1+03201+01501999999ADDMA1101491999999REMMET045METAR SBJU 311500Z 00000KT CAVOK 32/15 Q1015;
0072827840999992013013116004-07317-039300FM-15+0409SBJU V0201301N003619999999Y0099001N1+03301+01401999999ADDMA1101391999999REMMET045METAR SBJU 311600Z 13007KT CAVOK 33/14 Q1014;
0072827840999992013013117004-07317-039300FM-15+0409SBJU V0209999C000019999999Y0099001N1+03401+01301999999ADDMA1101291999999REMMET045METAR SBJU 311700Z 00000KT CAVOK 34/13 Q1013;
0072827840999992013013118004-07317-039300FM-15+0409SBJU V0209999C000019999999Y0099001N1+03401+01301999999ADDMA1101191999999REMMET045METAR SBJU 311800Z 00000KT CAVOK 34/13 Q1012;
0072827840999992013013119004-07317-039300FM-15+0409SBJU V0209999C000019999999Y0099001N1+03501+01201999999ADDMA1101081999999REMMET045METAR SBJU 311900Z 00000KT CAVOK 35/12 Q1011;
0120827840999992013013120004-07317-039300FM-15+0409SBJU V0202801N001012200019N0112651N1+03501+01201999999ADDGA1021+006301999GF102991999999999999999999MA1101081999999REMMET051METAR SBJU 312000Z 28002KT 9999 FEW021 35/12 Q1011;
0120827840999992013013121004-07317-039300FM-15+0409SBJU V0202601N001012200019N0112651N1+03301+01301999999ADDGA1021+006301999GF102991999999999999999999MA1101081999999REMMET051METAR SBJU 312100Z 26002KT 9999 FEW021 33/13 Q1011;
0120827840999992013013122004-07317-039300FM-15+0409SBJU V0209999C000012200019N0112651N1+03101+01601999999ADDGA1021+006601999GF102991999999999999999999MA1101191999999REMMET051METAR SBJU 312200Z 00000KT 9999 FEW022 31/16 Q1012;
0120827840999992013013123004-07317-039300FM-15+0409SBJU V0209999C000012200019N0112651N1+03001+01701999999ADDGA1021+006601999GF102991999999999999999999MA1101291999999REMMET051METAR SBJU 312300Z 00000KT 9999 FEW022 30/17 Q1013;
0120827840999992013020100004-07317-039300FM-15+0409SBJU V0209999C000012200019N0112651N1+02801+01901999999ADDGA1021+006301999GF102991999999999999999999MA1101291999999REMMET051METAR SBJU 010000Z 00000KT 9999 FEW021 28/19 Q1013;
0120827840999992013020101004-07317-039300FM-15+0409SBJU V0209999C000012200019N0112651N1+02701+01801999999ADDGA1021+006001999GF102991999999999999999999MA1101391999999REMMET051METAR SBJU 010100Z 00000KT 9999 FEW020 27/18 Q1014;
0120827840999992013020102004-07317-039300FM-15+0409SBJU V0209999C000012200019N0112651N1+02701+01901999999ADDGA1021+006301999GF102991999999999999999999MA1101391999999REMMET051METAR SBJU 010200Z 00000KT 9999 FEW021 27/19 Q1014;
0120827840999992013020103004-07317-039300FM-15+0409SBJU V0209999C000012200019N0112651N1+02701+02101999999ADDGA1021+006001999GF102991999999999999999999MA1101491999999REMMET051METAR SBJU 010300Z 00000KT 9999 FEW020 27/21 Q1015;
0120827840999992013020104004-07317-039300FM-15+0409SBJU V0203401N001012200019N0112651N1+02701+01801999999ADDGA1021+006301999GF102991999999999999999999MA1101491999999REMMET051METAR SBJU 010400Z 34002KT 9999 FEW021 27/18 Q1015;
0120827840999992013020105004-07317-039300FM-15+0409SBJU V0209999C000012200019N0112651N1+02701+01801999999ADDGA1021+006301999GF102991999999999999999999MA1101491999999REMMET051METAR SBJU 010500Z 00000KT 9999 FEW021 27/18 Q1015;
0120827840999992013020106004-07317-039300FM-15+0409SBJU V0209999C000012200019N0112651N1+02601+01701999999ADDGA1021+006301999GF102991999999999999999999MA1101491999999REMMET051METAR SBJU 010600Z 00000KT 9999 FEW021 26/17 Q1015;
0120827840999992013020107004-07317-039300FM-15+0409SBJU V0209999C000012200019N0112651N1+02501+01701999999ADDGA1021+006301999GF102991999999999999999999MA1101491999999REMMET051METAR SBJU 010700Z 00000KT 9999 FEW021 25/17 Q1015;
0120827840999992013020108004-07317-039300FM-15+0409SBJU V0209999C000012200019N0112651N1+02501+01501999999ADDGA1041+006301999GF104991999999999999999999MA1101591999999REMMET051METAR SBJU 010800Z 00000KT 9999 SCT021 25/15 Q1016;
0120827840999992013020109004-07317-039300FM-15+0409SBJU V0209999C000012200019N0112651N1+02501+01701999999ADDGA1041+006001999GF104991999999999999999999MA1101591999999REMMET051METAR SBJU 010900Z 00000KT 9999 SCT020 25/17 Q1016;
0120827840999992013020110004-07317-039300FM-15+0409SBJU V0209999C000012200019N0112651N1+02601+01801999999ADDGA1021+006001999GF102991999999999999999999MA1101591999999REMMET051METAR SBJU 011000Z 00000KT 9999 FEW020 26/18 Q1016;
0120827840999992013020111004-07317-039300FM-15+0409SBJU V0200801N003612200019N0112651N1+02701+01801999999ADDGA1021+006601999GF102991999999999999999999MA1101691999999REMMET051METAR SBJU 011100Z 08007KT 9999 FEW022 27/18 Q1017;
0120827840999992013020112004-07317-039300FM-15+0409SBJU V0209999C000012200019N0112651N1+02801+01801999999ADDGA1021+006601999GF102991999999999999999999MA1101691999999REMMET051METAR SBJU 011200Z 00000KT 9999 FEW022 28/18 Q1017;
0120827840999992013020113004-07317-039300FM-15+0409SBJU V0201101N003612200019N0112651N1+02901+01701999999ADDGA1021+006601999GF102991999999999999999999MA1101591999999REMMET051METAR SBJU 011300Z 11007KT 9999 FEW022 29/17 Q1016;
0121827840999992013020115004-07317-039300FM-15+0409SBJU V0209999C000012200019N0112651N1+03201+99999999999ADDGA1021+006601999GF102991999999999999999999MA1101491999999REMMET052METAR SBJU 011500Z 00000KT 9999 FEW022 32/115 Q1015;
0120827840999992013020116004-07317-039300FM-15+0409SBJU V0209999C000012200019N0112651N1+03301+01401999999ADDGA1021+006601999GF102991999999999999999999MA1101391999999REMMET051METAR SBJU 011600Z 00000KT 9999 FEW022 33/14 Q1014;
0120827840999992013020117004-07317-039300FM-15+0409SBJU V0209999C000012200019N0112651N1+03401+01301999999ADDGA1021+006601999GF102991999999999999999999MA1101291999999REMMET051METAR SBJU 011700Z 00000KT 9999 FEW022 34/13 Q1013;
0120827840999992013020118004-07317-039300FM-15+0409SBJU V0201201N002112200019N0112651N1+03401+01401999999ADDGA1021+006601999GF102991999999999999999999MA1101191999999REMMET051METAR SBJU 011800Z 12004KT 9999 FEW022 34/14 Q1012;
0120827840999992013020119004-07317-039300FM-15+0409SBJU V0209999C000010066019N0112651N1+03401+01301999999ADDGA1071+006601999GF107991999999999999999999MA1101191999999REMMET051METAR SBJU 011900Z 00000KT 9999 BKN022 34/13 Q1012;
0120827840999992013020120004-07317-039300FM-15+0409SBJU V0209999C000010066019N0112651N1+03401+01301999999ADDGA1071+006601999GF107991999999999999999999MA1101191999999REMMET051METAR SBJU 012000Z 00000KT 9999 BKN022 34/13 Q1012;
0120827840999992013020121004-07317-039300FM-15+0409SBJU V0209999C000010066019N0112651N1+03301+01401999999ADDGA1071+006601999GF107991999999999999999999MA1101191999999REMMET051METAR SBJU 012100Z 00000KT 9999 BKN022 33/14 Q1012;
0120827840999992013020122004-07317-039300FM-15+0409SBJU V0209999C000012200019N0112651N1+03101+01701999999ADDGA1041+006301999GF104991999999999999999999MA1101191999999REMMET051METAR SBJU 012200Z 00000KT 9999 SCT021 31/17 Q1012;
0120827840999992013020123004-07317-039300FM-15+0409SBJU V0209999C000012200019N0112651N1+03001+01901999999ADDGA1041+006301999GF104991999999999999999999MA1101291999999REMMET051METAR SBJU 012300Z 00000KT 9999 SCT021 30/19 Q1013;
0120827840999992013020200004-07317-039300FM-15+0409SBJU V0209999C000012200019N0112651N1+02801+01901999999ADDGA1021+006001999GF102991999999999999999999MA1101291999999REMMET051METAR SBJU 020000Z 00000KT 9999 FEW020 28/19 Q1013;
0120827840999992013020201004-07317-039300FM-15+0409SBJU V0209999C000012200019N0112651N1+02701+02001999999ADDGA1021+006001999GF102991999999999999999999MA1101391999999REMMET051METAR SBJU 020100Z 00000KT 9999 FEW020 27/20 Q1014;
0120827840999992013020202004-07317-039300FM-15+0409SBJU V0209999C000012200019N0112651N1+02701+01801999999ADDGA1021+006601999GF102991999999999999999999MA1101391999999REMMET051METAR SBJU 020200Z 00000KT 9999 FEW022 27/18 Q1014;
0120827840999992013020203004-07317-039300FM-15+0409SBJU V0200701N002612200019N0112651N1+02801+01601999999ADDGA1041+006301999GF104991999999999999999999MA1101491999999REMMET051METAR SBJU 020300Z 07005KT 9999 SCT021 28/16 Q1015;
0120827840999992013020204004-07317-039300FM-15+0409SBJU V0209999C000012200019N0112651N1+02801+01701999999ADDGA1041+006301999GF104991999999999999999999MA1101491999999REMMET051METAR SBJU 020400Z 00000KT 9999 SCT021 28/17 Q1015;
0120827840999992013020205004-07317-039300FM-15+0409SBJU V0209999C000012200019N0112651N1+02801+01601999999ADDGA1041+006301999GF104991999999999999999999MA1101491999999REMMET051METAR SBJU 020500Z 00000KT 9999 SCT021 28/16 Q1015;
0120827840999992013020206004-07317-039300FM-15+0409SBJU V0209999C000012200019N0112651N1+02801+01601999999ADDGA1041+006301999GF104991999999999999999999MA1101491999999REMMET051METAR SBJU 020600Z 00000KT 9999 SCT021 28/16 Q1015;
0120827840999992013020207004-07317-039300FM-15+0409SBJU V0209999C000012200019N0112651N1+02601+01701999999ADDGA1041+006301999GF104991999999999999999999MA1101491999999REMMET051METAR SBJU 020700Z 00000KT 9999 SCT021 26/17 Q1015;
0120827840999992013020208004-07317-039300FM-15+0409SBJU V0209999C000012200019N0112651N1+02601+01801999999ADDGA1041+006301999GF104991999999999999999999MA1101591999999REMMET051METAR SBJU 020800Z 00000KT 9999 SCT021 26/18 Q1016;
0120827840999992013020210004-07317-039300FM-15+0409SBJU V0201201N002112200019N0112651N1+02601+01801999999ADDGA1021+006001999GF102991999999999999999999MA1101801999999REMMET051METAR SBJU 021000Z 12004KT 9999 FEW020 26/18 Q1018;
0120827840999992013020211004-07317-039300FM-15+0409SBJU V0201301N002612200019N0112651N1+02701+01701999999ADDGA1021+006001999GF102991999999999999999999MA1101801999999REMMET051METAR SBJU 021100Z 13005KT 9999 FEW020 27/17 Q1018;
0120827840999992013020212004-07317-039300FM-15+0409SBJU V0201401N002612200019N0112651N1+02801+01701999999ADDGA1021+006001999GF102991999999999999999999MA1101801999999REMMET051METAR SBJU 021200Z 14005KT 9999 FEW020 28/17 Q1018;
0120827840999992013020213004-07317-039300FM-15+0409SBJU V0209999C000012200019N0112651N1+02901+01701999999ADDGA1021+006001999GF102991999999999999999999MA1101801999999REMMET051METAR SBJU 021300Z 00000KT 9999 FEW020 29/17 Q1018;
0120827840999992013020214004-07317-039300FM-15+0409SBJU V0201201N002612200019N0112651N1+03101+01701999999ADDGA1021+006001999GF102991999999999999999999MA1101691999999REMMET051METAR SBJU 021400Z 12005KT 9999 FEW020 31/17 Q1017;
0120827840999992013020215004-07317-039300FM-15+0409SBJU V0201301N002112200019N0112651N1+03201+01701999999ADDGA1021+006001999GF102991999999999999999999MA1101591999999REMMET051METAR SBJU 021500Z 13004KT 9999 FEW020 32/17 Q1016;
0120827840999992013020216004-07317-039300FM-15+0409SBJU V0202301N001512200019N0112651N1+03301+01501999999ADDGA1041+006601999GF104991999999999999999999MA1101491999999REMMET051METAR SBJU 021600Z 23003KT 9999 SCT022 33/15 Q1015;
0120827840999992013020217004-07317-039300FM-15+0409SBJU V0201601N001012200019N0112651N1+03401+01501999999ADDGA1041+006601999GF104991999999999999999999MA1101391999999REMMET051METAR SBJU 021700Z 16002KT 9999 SCT022 34/15 Q1014;
0120827840999992013020218004-07317-039300FM-15+0409SBJU V0202901N002112200019N0112651N1+03401+01501999999ADDGA1041+006601999GF104991999999999999999999MA1101391999999REMMET051METAR SBJU 021800Z 29004KT 9999 SCT022 34/15 Q1014;
0120827840999992013020219004-07317-039300FM-15+0409SBJU V0209999C000012200019N0112651N1+03501+01501999999ADDGA1021+006601999GF102991999999999999999999MA1101291999999REMMET051METAR SBJU 021900Z 00000KT 9999 FEW022 35/15 Q1013;
0120827840999992013020220004-07317-039300FM-15+0409SBJU V0209999C000012200019N0112651N1+03401+01501999999ADDGA1021+006601999GF102991999999999999999999MA1101291999999REMMET051METAR SBJU 022000Z 00000KT 9999 FEW022 34/15 Q1013;
0120827840999992013020221004-07317-039300FM-15+0409SBJU V0209999C000012200019N0112651N1+03301+01601999999ADDGA1021+006601999GF102991999999999999999999MA1101291999999REMMET051METAR SBJU 022100Z 00000KT 9999 FEW022 33/16 Q1013;
0120827840999992013020222004-07317-039300FM-15+0409SBJU V0202101N001012200019N0112651N1+03101+01801999999ADDGA1021+006601999GF102991999999999999999999MA1101291999999REMMET051METAR SBJU 022200Z 21002KT 9999 FEW022 31/18 Q1013;
0120827840999992013020223004-07317-039300FM-15+0409SBJU V0202801N001012200019N0112651N1+03001+01801999999ADDGA1021+006301999GF102991999999999999999999MA1101291999999REMMET051METAR SBJU 022300Z 28002KT 9999 FEW021 30/18 Q1013;
0120827840999992013020300004-07317-039300FM-15+0409SBJU V0201501N002112200019N0112651N1+02901+01801999999ADDGA1021+006301999GF102991999999999999999999MA1101391999999REMMET051METAR SBJU 030000Z 15004KT 9999 FEW021 29/18 Q1014;
0120827840999992013020301004-07317-039300FM-15+0409SBJU V0201901N001012200019N0112651N1+02801+01701999999ADDGA1021+006301999GF102991999999999999999999MA1101491999999REMMET051METAR SBJU 030100Z 19002KT 9999 FEW021 28/17 Q1015;
0120827840999992013020302004-07317-039300FM-15+0409SBJU V0201201N001012200019N0112651N1+02801+01601999999ADDGA1041+006001999GF104991999999999999999999MA1101491999999REMMET051METAR SBJU 030200Z 12002KT 9999 SCT020 28/16 Q1015;
0120827840999992013020303004-07317-039300FM-15+0409SBJU V0201401N001012200019N0112651N1+02801+01601999999ADDGA1041+006001999GF104991999999999999999999MA1101491999999REMMET051METAR SBJU 030300Z 14002KT 9999 SCT020 28/16 Q1015;
0120827840999992013020304004-07317-039300FM-15+0409SBJU V0209999C000012200019N0112651N1+02701+01701999999ADDGA1041+006001999GF104991999999999999999999MA1101491999999REMMET051METAR SBJU 030400Z 00000KT 9999 SCT020 27/17 Q1015;
0120827840999992013020305004-07317-039300FM-15+0409SBJU V0209999C000012200019N0112651N1+02601+01701999999ADDGA1041+006001999GF104991999999999999999999MA1101491999999REMMET051METAR SBJU 030500Z 00000KT 9999 SCT020 26/17 Q1015;
0120827840999992013020306004-07317-039300FM-15+0409SBJU V0209999C000012200019N0112651N1+02701+01701999999ADDGA1041+006001999GF104991999999999999999999MA1101491999999REMMET051METAR SBJU 030600Z 00000KT 9999 SCT020 27/17 Q1015;
0120827840999992013020307004-07317-039300FM-15+0409SBJU V0209999C000012200019N0112651N1+02601+01801999999ADDGA1041+006001999GF104991999999999999999999MA1101491999999REMMET051METAR SBJU 030700Z 00000KT 9999 SCT020 26/18 Q1015;
0120827840999992013020308004-07317-039300FM-15+0409SBJU V0209999C000012200019N0112651N1+02501+01801999999ADDGA1041+006001999GF104991999999999999999999MA1101491999999REMMET051METAR SBJU 030800Z 00000KT 9999 SCT020 25/18 Q1015;
0120827840999992013020309004-07317-039300FM-15+0409SBJU V0209999C000012200019N0112651N1+02401+01801999999ADDGA1021+006001999GF102991999999999999999999MA1101591999999REMMET051METAR SBJU 030900Z 00000KT 9999 FEW020 24/18 Q1016;
0120827840999992013020310004-07317-039300FM-15+0409SBJU V0201201N002112200019N0112651N1+02601+01801999999ADDGA1021+006001999GF102991999999999999999999MA1101691999999REMMET051METAR SBJU 031000Z 12004KT 9999 FEW020 26/18 Q1017;
0120827840999992013020311004-07317-039300FM-15+0409SBJU V0201301N004112200019N0112651N1+02701+01701999999ADDGA1021+006001999GF102991999999999999999999MA1101691999999REMMET051METAR SBJU 031100Z 13008KT 9999 FEW020 27/17 Q1017;
0120827840999992013020312004-07317-039300FM-15+0409SBJU V0201201N003112200019N0112651N1+02901+01701999999ADDGA1041+006001999GF104991999999999999999999MA1101691999999REMMET051METAR SBJU 031200Z 12006KT 9999 SCT020 29/17 Q1017;
0120827840999992013020313004-07317-039300FM-15+0409SBJU V0201001N001512200019N0112651N1+03001+01601999999ADDGA1041+006001999GF104991999999999999999999MA1101691999999REMMET051METAR SBJU 031300Z 10003KT 9999 SCT020 30/16 Q1017;
0120827840999992013020314004-07317-039300FM-15+0409SBJU V0209999C000012200019N0112651N1+03101+01701999999ADDGA1041+006001999GF104991999999999999999999MA1101591999999REMMET051METAR SBJU 031400Z 00000KT 9999 SCT020 31/17 Q1016;
0120827840999992013020315004-07317-039300FM-15+0409SBJU V0209999C000012200019N0112651N1+03301+01601999999ADDGA1041+006001999GF104991999999999999999999MA1101491999999REMMET051METAR SBJU 031500Z 00000KT 9999 SCT020 33/16 Q1015;
0120827840999992013020316004-07317-039300FM-15+0409SBJU V0202101N004612200019N0112651N1+03501+01601999999ADDGA1041+006301999GF104991999999999999999999MA1101291999999REMMET051METAR SBJU 031600Z 21009KT 9999 SCT021 35/16 Q1013;
0120827840999992013020317004-07317-039300FM-15+0409SBJU V0202201N004612200019N0112651N1+03501+01401999999ADDGA1041+006301999GF104991999999999999999999MA1101191999999REMMET051METAR SBJU 031700Z 22009KT 9999 SCT021 35/14 Q1012;
0120827840999992013020318004-07317-039300FM-15+0409SBJU V0201901N006712200019N0112651N1+03501+01501999999ADDGA1041+006301999GF104991999999999999999999MA1101081999999REMMET051METAR SBJU 031800Z 19013KT 9999 SCT021 35/15 Q1011;
0120827840999992013020319004-07317-039300FM-15+0409SBJU V0202101N004612200019N0112651N1+03501+01301999999ADDGA1021+006301999GF102991999999999999999999MA1101081999999REMMET051METAR SBJU 031900Z 21009KT 9999 FEW021 35/13 Q1011;
0120827840999992013020320004-07317-039300FM-15+0409SBJU V0202001N004612200019N0112651N1+03501+01401999999ADDGA1021+006301999GF102991999999999999999999MA1101021999999REMMET051METAR SBJU 032000Z 20009KT 9999 FEW021 35/14 Q1010;
0120827840999992013020321004-07317-039300FM-15+0409SBJU V0202201N002612200019N0112651N1+03301+01401999999ADDGA1021+006301999GF102991999999999999999999MA1101081999999REMMET051METAR SBJU 032100Z 22005KT 9999 FEW021 33/14 Q1011;
0120827840999992013020322004-07317-039300FM-15+0409SBJU V0209999C000012200019N0112651N1+03201+01301999999ADDGA1021+006301999GF102991999999999999999999MA1101081999999REMMET051METAR SBJU 032200Z 00000KT 9999 FEW021 32/13 Q1011;
0120827840999992013020323004-07317-039300FM-15+0409SBJU V0209999C000012200019N0112651N1+03101+01301999999ADDGA1021+006301999GF102991999999999999999999MA1101191999999REMMET051METAR SBJU 032300Z 00000KT 9999 FEW021 31/13 Q1012;
0120827840999992013020400004-07317-039300FM-15+0409SBJU V0209999C000012200019N0112651N1+03001+01501999999ADDGA1021+006301999GF102991999999999999999999MA1101291999999REMMET051METAR SBJU 040000Z 00000KT 9999 FEW021 30/15 Q1013;
0120827840999992013020401004-07317-039300FM-15+0409SBJU V0201701N001512200019N0112651N1+03101+01401999999ADDGA1021+006301999GF102991999999999999999999MA1101291999999REMMET051METAR SBJU 040100Z 17003KT 9999 FEW021 31/14 Q1013;
0120827840999992013020402004-07317-039300FM-15+0409SBJU V0209999C000012200019N0112651N1+03001+01501999999ADDGA1041+006001999GF104991999999999999999999MA1101291999999REMMET051METAR SBJU 040200Z 00000KT 9999 SCT020 30/15 Q1013;
0120827840999992013020403004-07317-039300FM-15+0409SBJU V0209999C000012200019N0112651N1+02901+01501999999ADDGA1021+006001999GF102991999999999999999999MA1101191999999REMMET051METAR SBJU 040300Z 00000KT 9999 FEW020 29/15 Q1012;
0120827840999992013020404004-07317-039300FM-15+0409SBJU V0201001N003112200019N0112651N1+03001+01601999999ADDGA1021+006001999GF102991999999999999999999MA1101291999999REMMET051METAR SBJU 040400Z 10006KT 9999 FEW020 30/16 Q1013;
0120827840999992013020405004-07317-039300FM-15+0409SBJU V0209999C000012200019N0112651N1+02901+01801999999ADDGA1021+006001999GF102991999999999999999999MA1101191999999REMMET051METAR SBJU 040500Z 00000KT 9999 FEW020 29/18 Q1012;
0120827840999992013020406004-07317-039300FM-15+0409SBJU V0209999C000012200019N0112651N1+02701+01901999999ADDGA1041+006001999GF104991999999999999999999MA1101191999999REMMET051METAR SBJU 040600Z 00000KT 9999 SCT020 27/19 Q1012;
0120827840999992013020407004-07317-039300FM-15+0409SBJU V0209999C000012200019N0112651N1+02701+01901999999ADDGA1041+006001999GF104991999999999999999999MA1101291999999REMMET051METAR SBJU 040700Z 00000KT 9999 SCT020 27/19 Q1013;
0120827840999992013020408004-07317-039300FM-15+0409SBJU V0209999C000012200019N0112651N1+02701+01901999999ADDGA1041+006001999GF104991999999999999999999MA1101291999999REMMET051METAR SBJU 040800Z 00000KT 9999 SCT020 27/19 Q1013;
0120827840999992013020410004-07317-039300FM-15+0409SBJU V0201001N002110060019N0112651N1+02601+02001999999ADDGA1071+006001999GF107991999999999999999999MA1101491999999REMMET051METAR SBJU 041000Z 10004KT 9999 BKN020 26/20 Q1015;
0120827840999992013020411004-07317-039300FM-15+0409SBJU V0209999C000010060019N0112651N1+02701+02001999999ADDGA1071+006001999GF107991999999999999999999MA1101491999999REMMET051METAR SBJU 041100Z 00000KT 9999 BKN020 27/20 Q1015;
0120827840999992013020412004-07317-039300FM-15+0409SBJU V0201401N001010063019N0112651N1+02801+02001999999ADDGA1071+006301999GF107991999999999999999999MA1101491999999REMMET051METAR SBJU 041200Z 14002KT 9999 BKN021 28/20 Q1015;
0120827840999992013020413004-07317-039300FM-15+0409SBJU V0201601N004610063019N0112651N1+03001+01801999999ADDGA1071+006301999GF107991999999999999999999MA1101491999999REMMET051METAR SBJU 041300Z 16009KT 9999 BKN021 30/18 Q1015;
0120827840999992013020414004-07317-039300FM-15+0409SBJU V0201801N005110063019N0112651N1+03101+01701999999ADDGA1071+006301999GF107991999999999999999999MA1101391999999REMMET051METAR SBJU 041400Z 18010KT 9999 BKN021 31/17 Q1014;
0120827840999992013020415004-07317-039300FM-15+0409SBJU V0201901N005110063019N0112651N1+03201+01701999999ADDGA1071+006301999GF107991999999999999999999MA1101391999999REMMET051METAR SBJU 041500Z 19010KT 9999 BKN021 32/17 Q1014;
0120827840999992013020416004-07317-039300FM-15+0409SBJU V0201801N002612200019N0112651N1+03301+01701999999ADDGA1041+006301999GF104991999999999999999999MA1101291999999REMMET051METAR SBJU 041600Z 18005KT 9999 SCT021 33/17 Q1013;
0120827840999992013020417004-07317-039300FM-15+0409SBJU V0201601N003612200019N0112651N1+03401+01501999999ADDGA1041+006301999GF104991999999999999999999MA1101191999999REMMET051METAR SBJU 041700Z 16007KT 9999 SCT021 34/15 Q1012;
0120827840999992013020418004-07317-039300FM-15+0409SBJU V0201901N002612200019N0112651N1+03501+01201999999ADDGA1041+006301999GF104991999999999999999999MA1101081999999REMMET051METAR SBJU 041800Z 19005KT 9999 SCT021 35/12 Q1011;
0120827840999992013020419004-07317-039300FM-15+0409SBJU V0202001N002112200019N0112651N1+03501+01501999999ADDGA1041+006301999GF104991999999999999999999MA1101021999999REMMET051METAR SBJU 041900Z 20004KT 9999 SCT021 35/15 Q1010;
0120827840999992013020420004-07317-039300FM-15+0409SBJU V0202001N002112200019N0112651N1+03401+01501999999ADDGA1041+006301999GF104991999999999999999999MA1101021999999REMMET051METAR SBJU 042000Z 20004KT 9999 SCT021 34/15 Q1010;
0120827840999992013020421004-07317-039300FM-15+0409SBJU V0209999C000012200019N0112651N1+03401+01501999999ADDGA1041+006301999GF104991999999999999999999MA1101081999999REMMET051METAR SBJU 042100Z 00000KT 9999 SCT021 34/15 Q1011;
0120827840999992013020422004-07317-039300FM-15+0409SBJU V0209999C000012200019N0112651N1+03301+01501999999ADDGA1041+006001999GF104991999999999999999999MA1101081999999REMMET051METAR SBJU 042200Z 00000KT 9999 SCT020 33/15 Q1011;
0120827840999992013020423004-07317-039300FM-15+0409SBJU V0209999C000012200019N0112651N1+03201+01601999999ADDGA1041+006001999GF104991999999999999999999MA1101191999999REMMET051METAR SBJU 042300Z 00000KT 9999 SCT020 32/16 Q1012;
0120827840999992013020500004-07317-039300FM-15+0409SBJU V0209999C000012200019N0112651N1+03101+01701999999ADDGA1041+006001999GF104991999999999999999999MA1101191999999REMMET051METAR SBJU 050000Z 00000KT 9999 SCT020 31/17 Q1012;
0120827840999992013020501004-07317-039300FM-15+0409SBJU V0209999C000012200019N0112651N1+03101+01601999999ADDGA1041+006001999GF104991999999999999999999MA1101191999999REMMET051METAR SBJU 050100Z 00000KT 9999 SCT020 31/16 Q1012;
0120827840999992013020502004-07317-039300FM-15+0409SBJU V0209999C000012200019N0112651N1+03001+01601999999ADDGA1041+006001999GF104991999999999999999999MA1101191999999REMMET051METAR SBJU 050200Z 00000KT 9999 SCT020 30/16 Q1012;
0120827840999992013020503004-07317-039300FM-15+0409SBJU V0209999C000010060019N0112651N1+02901+01901999999ADDGA1071+006001999GF107991999999999999999999MA1101291999999REMMET051METAR SBJU 050300Z 00000KT 9999 BKN020 29/19 Q1013;
0120827840999992013020504004-07317-039300FM-15+0409SBJU V0200501N002610060019N0112651N1+02801+01901999999ADDGA1071+006001999GF107991999999999999999999MA1101291999999REMMET051METAR SBJU 050400Z 05005KT 9999 BKN020 28/19 Q1013;
0120827840999992013020505004-07317-039300FM-15+0409SBJU V0200501N003610060019N0112651N1+02801+01901999999ADDGA1071+006001999GF107991999999999999999999MA1101291999999REMMET051METAR SBJU 050500Z 05007KT 9999 BKN020 28/19 Q1013;
0120827840999992013020506004-07317-039300FM-15+0409SBJU V0200501N003110060019N0112651N1+02701+02001999999ADDGA1071+006001999GF107991999999999999999999MA1101291999999REMMET051METAR SBJU 050600Z 05006KT 9999 BKN020 27/20 Q1013;
0120827840999992013020507004-07317-039300FM-15+0409SBJU V0200501N003110060019N0112651N1+02701+02001999999ADDGA1071+006001999GF107991999999999999999999MA1101291999999REMMET051METAR SBJU 050700Z 05006KT 9999 BKN020 27/20 Q1013;
0120827840999992013020508004-07317-039300FM-15+0409SBJU V0202001N002110060019N0112651N1+02501+02101999999ADDGA1071+006001999GF107991999999999999999999MA1101391999999REMMET051METAR SBJU 050800Z 20004KT 9999 BKN020 25/21 Q1014;
0120827840999992013020509004-07317-039300FM-15+0409SBJU V0201501N001010060019N0112651N1+02501+02101999999ADDGA1071+006001999GF107991999999999999999999MA1101391999999REMMET051METAR SBJU 050900Z 15002KT 9999 BKN020 25/21 Q1014;
0120827840999992013020510004-07317-039300FM-15+0409SBJU V0201401N002110060019N0112651N1+02501+02001999999ADDGA1071+006001999GF107991999999999999999999MA1101491999999REMMET051METAR SBJU 051000Z 14004KT 9999 BKN020 25/20 Q1015;
0120827840999992013020511004-07317-039300FM-15+0409SBJU V0201001N003612200019N0112651N1+02701+01701999999ADDGA1041+006001999GF104991999999999999999999MA1101591999999REMMET051METAR SBJU 051100Z 10007KT 9999 SCT020 27/17 Q1016;
0120827840999992013020512004-07317-039300FM-15+0409SBJU V0201601N003612200019N0112651N1+02901+01701999999ADDGA1041+006001999GF104991999999999999999999MA1101591999999REMMET051METAR SBJU 051200Z 16007KT 9999 SCT020 29/17 Q1016;
0120827840999992013020513004-07317-039300FM-15+0409SBJU V0202001N003612200019N0112651N1+03001+01801999999ADDGA1021+006001999GF102991999999999999999999MA1101591999999REMMET051METAR SBJU 051300Z 20007KT 9999 FEW020 30/18 Q1016;
0120827840999992013020514004-07317-039300FM-15+0409SBJU V0202001N003612200019N0112651N1+03101+01801999999ADDGA1021+006601999GF102991999999999999999999MA1101491999999REMMET051METAR SBJU 051400Z 20007KT 9999 FEW022 31/18 Q1015;
0120827840999992013020515004-07317-039300FM-15+0409SBJU V0201701N001512200019N0112651N1+03201+01601999999ADDGA1021+006601999GF102991999999999999999999MA1101391999999REMMET051METAR SBJU 051500Z 17003KT 9999 FEW022 32/16 Q1014;
0120827840999992013020516004-07317-039300FM-15+0409SBJU V0202001N004612200019N0112651N1+03301+01601999999ADDGA1021+006601999GF102991999999999999999999MA1101291999999REMMET051METAR SBJU 051600Z 20009KT 9999 FEW022 33/16 Q1013;
0120827840999992013020517004-07317-039300FM-15+0409SBJU V0201801N002612200019N0112651N1+03401+01601999999ADDGA1021+006601999GF102991999999999999999999MA1101191999999REMMET051METAR SBJU 051700Z 18005KT 9999 FEW022 34/16 Q1012;
0120827840999992013020518004-07317-039300FM-15+0409SBJU V0202001N004112200019N0112651N1+03501+01401999999ADDGA1041+006601999GF104991999999999999999999MA1101081999999REMMET051METAR SBJU 051800Z 20008KT 9999 SCT022 35/14 Q1011;
0120827840999992013020519004-07317-039300FM-15+0409SBJU V0201901N004112200019N0112651N1+03501+01401999999ADDGA1021+006601999GF102991999999999999999999MA1101021999999REMMET051METAR SBJU 051900Z 19008KT 9999 FEW022 35/14 Q1010;
0120827840999992013020520004-07317-039300FM-15+0409SBJU V0202101N003112200019N0112651N1+03401+01501999999ADDGA1021+006601999GF102991999999999999999999MA1101021999999REMMET051METAR SBJU 052000Z 21006KT 9999 FEW022 34/15 Q1010;
0120827840999992013020521004-07317-039300FM-15+0409SBJU V0209999C000012200019N0112651N1+03301+01601999999ADDGA1021+006601999GF102991999999999999999999MA1101021999999REMMET051METAR SBJU 052100Z 00000KT 9999 FEW022 33/16 Q1010;
0072827840999992013020522004-07317-039300FM-15+0409SBJU V0209999C000019999999Y0099001N1+03101+01701999999ADDMA1101081999999REMMET045METAR SBJU 052200Z 00000KT CAVOK 31/17 Q1011;
0072827840999992013020523004-07317-039300FM-15+0409SBJU V0209999C000019999999Y0099001N1+03001+01701999999ADDMA1101191999999REMMET045METAR SBJU 052300Z 00000KT CAVOK 30/17 Q1012;
0072827840999992013020600004-07317-039300FM-15+0409SBJU V0209999C000019999999Y0099001N1+02901+01701999999ADDMA1101191999999REMMET045METAR SBJU 060000Z 00000KT CAVOK 29/17 Q1012;
0072827840999992013020601004-07317-039300FM-15+0409SBJU V0209999C000019999999Y0099001N1+02901+01701999999ADDMA1101291999999REMMET045METAR SBJU 060100Z 00000KT CAVOK 29/17 Q1013;
0072827840999992013020602004-07317-039300FM-15+0409SBJU V0209999C000019999999Y0099001N1+02901+01601999999ADDMA1101391999999REMMET045METAR SBJU 060200Z 00000KT CAVOK 29/16 Q1014;
0120827840999992013020603004-07317-039300FM-15+0409SBJU V0200501N003112200019N0112651N1+02701+01701999999ADDGA1041+006001999GF104991999999999999999999MA1101391999999REMMET051METAR SBJU 060300Z 05006KT 9999 SCT020 27/17 Q1014;
0120827840999992013020604004-07317-039300FM-15+0409SBJU V0200401N002112200019N0112651N1+02701+01601999999ADDGA1041+006001999GF104991999999999999999999MA1101391999999REMMET051METAR SBJU 060400Z 04004KT 9999 SCT020 27/16 Q1014;
0120827840999992013020605004-07317-039300FM-15+0409SBJU V0209999C000012200019N0112651N1+02601+01601999999ADDGA1041+006001999GF104991999999999999999999MA1101391999999REMMET051METAR SBJU 060500Z 00000KT 9999 SCT020 26/16 Q1014;
0120827840999992013020606004-07317-039300FM-15+0409SBJU V0209999C000012200019N0112651N1+02601+01601999999ADDGA1021+006001999GF102991999999999999999999MA1101391999999REMMET051METAR SBJU 060600Z 00000KT 9999 FEW020 26/16 Q1014;
0120827840999992013020607004-07317-039300FM-15+0409SBJU V0209999C000012200019N0112651N1+02601+01701999999ADDGA1021+006001999GF102991999999999999999999MA1101391999999REMMET051METAR SBJU 060700Z 00000KT 9999 FEW020 26/17 Q1014;
0120827840999992013020608004-07317-039300FM-15+0409SBJU V0209999C000012200019N0112651N1+02501+01701999999ADDGA1021+006001999GF102991999999999999999999MA1101491999999REMMET051METAR SBJU 060800Z 00000KT 9999 FEW020 25/17 Q1015;
0120827840999992013020609004-07317-039300FM-15+0409SBJU V0209999C000010060019N0112651N1+02501+01801999999ADDGA1071+006001999GF107991999999999999999999MA1101491999999REMMET051METAR SBJU 060900Z 00000KT 9999 BKN020 25/18 Q1015;
0120827840999992013020610004-07317-039300FM-15+0409SBJU V0209999C000010060019N0112651N1+02601+01801999999ADDGA1071+006001999GF107991999999999999999999MA1101591999999REMMET051METAR SBJU 061000Z 00000KT 9999 BKN020 26/18 Q1016;
0143827840999992013020611004-07317-039300FM-15+0409SBJU V0209999C000010060019N0112651N1+02601+01901999999ADDGA1071+006001999GA2071+024001999GF107991999999999999999999MA1101591999999REMMET058METAR SBJU 061100Z 00000KT 9999 BKN020 BKN080 26/19 Q1016;
0143827840999992013020612004-07317-039300FM-15+0409SBJU V0200801N001510060019N0112651N1+02701+01901999999ADDGA1071+006001999GA2071+024001999GF107991999999999999999999MA1101591999999REMMET058METAR SBJU 061200Z 08003KT 9999 BKN020 BKN080 27/19 Q1016;
0143827840999992013020613004-07317-039300FM-15+0409SBJU V0200901N003110060019N0112651N1+02901+01801999999ADDGA1071+006001999GA2071+024001999GF107991999999999999999999MA1101591999999REMMET058METAR SBJU 061300Z 09006KT 9999 BKN020 BKN080 29/18 Q1016;
0143827840999992013020614004-07317-039300FM-15+0409SBJU V0209999C000010060019N0112651N1+03001+01801999999ADDGA1071+006001999GA2071+024001999GF107991999999999999999999MA1101591999999REMMET058METAR SBJU 061400Z 00000KT 9999 BKN020 BKN080 30/18 Q1016;
0120827840999992013020615004-07317-039300FM-15+0409SBJU V0209999C000010063019N0112651N1+03201+01501999999ADDGA1071+006301999GF107991999999999999999999MA1101491999999REMMET051METAR SBJU 061500Z 00000KT 9999 BKN021 32/15 Q1015;
0120827840999992013020616004-07317-039300FM-15+0409SBJU V0209999C000012200019N0112651N1+03301+01401999999ADDGA1041+006001999GF104991999999999999999999MA1101291999999REMMET051METAR SBJU 061600Z 00000KT 9999 SCT020 33/14 Q1013;
0120827840999992013020618004-07317-039300FM-15+0409SBJU V0209999C000012200019N0112651N1+03401+01401999999ADDGA1021+006001999GF102991999999999999999999MA1101191999999REMMET051METAR SBJU 061800Z 00000KT 9999 FEW020 34/14 Q1012;
0120827840999992013020620004-07317-039300FM-15+0409SBJU V0209999C000012200019N0112651N1+03301+01501999999ADDGA1041+006601999GF104991999999999999999999MA1101191999999REMMET051METAR SBJU 062000Z 00000KT 9999 SCT022 33/15 Q1012;
0072827840999992013020621004-07317-039300FM-15+0409SBJU V0209999C000019999999Y0099001N1+03301+01301999999ADDMA1101191999999REMMET045METAR SBJU 062100Z 00000KT CAVOK 33/13 Q1012;
0120827840999992013020622004-07317-039300FM-15+0409SBJU V0209999C000012200019N0112651N1+03201+01401999999ADDGA1041+006601999GF104991999999999999999999MA1101191999999REMMET051METAR SBJU 062200Z 00000KT 9999 SCT022 32/14 Q1012;
0120827840999992013020623004-07317-039300FM-15+0409SBJU V0202401N002612200019N0112651N1+03001+01501999999ADDGA1041+006601999GF104991999999999999999999MA1101191999999REMMET051METAR SBJU 062300Z 24005KT 9999 SCT022 30/15 Q1012;
0120827840999992013020700004-07317-039300FM-15+0409SBJU V0209999C000012200019N0112651N1+02901+01701999999ADDGA1021+006301999GF102991999999999999999999MA1101291999999REMMET051METAR SBJU 070000Z 00000KT 9999 FEW021 29/17 Q1013;
0120827840999992013020701004-07317-039300FM-15+0409SBJU V0209999C000012200019N0112651N1+02901+01601999999ADDGA1021+006301999GF102991999999999999999999MA1101291999999REMMET051METAR SBJU 070100Z 00000KT 9999 FEW021 29/16 Q1013;
0120827840999992013020702004-07317-039300FM-15+0409SBJU V0209999C000012200019N0112651N1+02901+01701999999ADDGA1041+006001999GF104991999999999999999999MA1101391999999REMMET051METAR SBJU 070200Z 00000KT 9999 SCT020 29/17 Q1014;
0120827840999992013020703004-07317-039300FM-15+0409SBJU V0200501N004112200019N0112651N1+02901+01901999999ADDGA1041+006001999GF104991999999999999999999MA1101391999999REMMET051METAR SBJU 070300Z 05008KT 9999 SCT020 29/19 Q1014;
0139827840999992013020704004-07317-039300FM-15+0409SBJU V0200401N002612200019N0112651N1+02801+01901999999ADDGA1041+006001999GA2021+006601021MA1101391999999REMMET061METAR SBJU 070400Z 04005KT 9999 SCT020 FEW022TCU 28/19 Q1014;EQDQ01+000022SCOTCV
0146827840999992013020705004-07317-039300FM-15+0409SBJU V0200301N003112200019N0112651N1+02701+01901999999ADDGA1021+006001999GA2021+006601021GF102991999999999999999999MA1101391999999REMMET061METAR SBJU 070500Z 03006KT 9999 FEW020 FEW022TCU 27/19 Q1014;
0139827840999992013020706004-07317-039300FM-15+0409SBJU V0201501N002612200019N0112651N1+02401+01901999999ADDGA1041+006001999GA2021+006601021MA1101391999999REMMET061METAR SBJU 070600Z 15005KT 9999 SCT020 FEW022TCU 24/19 Q1014;EQDQ01+000022SCOTCV
0148827840999992013020706204-07317-039300FM-15+0409SBJU V0201401N00411006001CN0030001N1+02201+02001999999ADDGA1071+006001999GA2021+006601021MA1101391999999MW1631REMMET064SPECI SBJU 070620Z 14008KT 3000 RA BKN020 FEW022TCU 22/20 Q1014;EQDQ01+000022SCOTCV
0154827840999992013020707004-07317-039300FM-15+0409SBJU V0209999C00001006001CN0030001N1+02201+02001999999ADDGA1071+006001999GA2021+006601021MA1101391999999MW1611REMMET070METAR SBJU 070700Z 00000KT 3000 -RA BKN020 FEW022TCU 22/20 Q1014 RERA;EQDQ01+000022SCOTCV
0129827840999992013020707304-07317-039300FM-15+0409SBJU V0209999C000010054019N0050001N1+02201+02001999999ADDGA1071+005401999GF107991999999999999999999MA1101491999999MW1101REMMET054SPECI SBJU 070730Z 00000KT 5000 BR BKN018 22/20 Q1015;
0120827840999992013020708004-07317-039300FM-15+0409SBJU V0209999C000010054019N0112651N1+02301+02001999999ADDGA1071+005401999GF107991999999999999999999MA1101491999999REMMET051METAR SBJU 070800Z 00000KT 9999 BKN018 23/20 Q1015;
0120827840999992013020709004-07317-039300FM-15+0409SBJU V0209999C000010054019N0112651N1+02301+02101999999ADDGA1071+005401999GF107991999999999999999999MA1101491999999REMMET051METAR SBJU 070900Z 00000KT 9999 BKN018 23/21 Q1015;
0120827840999992013020710004-07317-039300FM-15+0409SBJU V0209999C000010060019N0112651N1+02301+02101999999ADDGA1071+006001999GF107991999999999999999999MA1101591999999REMMET051METAR SBJU 071000Z 00000KT 9999 BKN020 23/21 Q1016;
0120827840999992013020711004-07317-039300FM-15+0409SBJU V0209999C000010060019N0112651N1+02401+02101999999ADDGA1071+006001999GF107991999999999999999999MA1101691999999REMMET051METAR SBJU 071100Z 00000KT 9999 BKN020 24/21 Q1017;
0120827840999992013020712004-07317-039300FM-15+0409SBJU V0209999C000010060019N0112651N1+02601+02001999999ADDGA1071+006001999GF107991999999999999999999MA1101691999999REMMET051METAR SBJU 071200Z 00000KT 9999 BKN020 26/20 Q1017;
0120827840999992013020713004-07317-039300FM-15+0409SBJU V0200701N003610060019N0112651N1+02801+01901999999ADDGA1071+006001999GF107991999999999999999999MA1101691999999REMMET051METAR SBJU 071300Z 07007KT 9999 BKN020 28/19 Q1017;
0120827840999992013020714004-07317-039300FM-15+0409SBJU V0209999C000010060019N0112651N1+02901+01901999999ADDGA1071+006001999GF107991999999999999999999MA1101591999999REMMET051METAR SBJU 071400Z 00000KT 9999 BKN020 29/19 Q1016;
0120827840999992013020715004-07317-039300FM-15+0409SBJU V0209999C000012200019N0112651N1+02901+01801999999ADDGA1041+006001999GF104991999999999999999999MA1101491999999REMMET051METAR SBJU 071500Z 00000KT 9999 SCT020 29/18 Q1015;
0120827840999992013020716004-07317-039300FM-15+0409SBJU V0200601N004610060019N0112651N1+03101+01801999999ADDGA1071+006001999GF107991999999999999999999MA1101391999999REMMET051METAR SBJU 071600Z 06009KT 9999 BKN020 31/18 Q1014;
0120827840999992013020717004-07317-039300FM-15+0409SBJU V0201401N004110060019N0112651N1+03201+01601999999ADDGA1071+006001999GF107991999999999999999999MA1101291999999REMMET051METAR SBJU 071700Z 14008KT 9999 BKN020 32/16 Q1013;
0120827840999992013020718004-07317-039300FM-15+0409SBJU V0201301N001012200019N0112651N1+03301+01601999999ADDGA1041+006301999GF104991999999999999999999MA1101191999999REMMET051METAR SBJU 071800Z 13002KT 9999 SCT021 33/16 Q1012;
0120827840999992013020719004-07317-039300FM-15+0409SBJU V0202601N002112200019N0112651N1+03301+01701999999ADDGA1021+006301999GF102991999999999999999999MA1101191999999REMMET051METAR SBJU 071900Z 26004KT 9999 FEW021 33/17 Q1012;
0120827840999992013020720004-07317-039300FM-15+0409SBJU V0202701N001512200019N0112651N1+03301+01601999999ADDGA1021+006301999GF102991999999999999999999MA1101191999999REMMET051METAR SBJU 072000Z 27003KT 9999 FEW021 33/16 Q1012;
0120827840999992013020721004-07317-039300FM-15+0409SBJU V0202701N001012200019N0112651N1+03101+01801999999ADDGA1021+006301999GF102991999999999999999999MA1101191999999REMMET051METAR SBJU 072100Z 27002KT 9999 FEW021 31/18 Q1012;
0120827840999992013020722004-07317-039300FM-15+0409SBJU V0209999C000012200019N0112651N1+02901+01801999999ADDGA1021+006001999GF102991999999999999999999MA1101191999999REMMET051METAR SBJU 072200Z 00000KT 9999 FEW020 29/18 Q1012;
0120827840999992013020723004-07317-039300FM-15+0409SBJU V0209999C000012200019N0112651N1+02801+01901999999ADDGA1021+006001999GF102991999999999999999999MA1101291999999REMMET051METAR SBJU 072300Z 00000KT 9999 FEW020 28/19 Q1013;
0120827840999992013020800004-07317-039300FM-15+0409SBJU V0209999C000012200019N0112651N1+02701+02101999999ADDGA1021+006001999GF102991999999999999999999MA1101291999999REMMET051METAR SBJU 080000Z 00000KT 9999 FEW020 27/21 Q1013;
0120827840999992013020801004-07317-039300FM-15+0409SBJU V0209999C000012200019N0112651N1+02601+02001999999ADDGA1021+006001999GF102991999999999999999999MA1101291999999REMMET051METAR SBJU 080100Z 00000KT 9999 FEW020 26/20 Q1013;
0072827840999992013020802004-07317-039300FM-15+0409SBJU V0209999C000019999999Y0099001N1+02501+02001999999ADDMA1101291999999REMMET045METAR SBJU 080200Z 00000KT CAVOK 25/20 Q1013;
0072827840999992013020803004-07317-039300FM-15+0409SBJU V0209999C000019999999Y0099001N1+02501+02101999999ADDMA1101291999999REMMET045METAR SBJU 080300Z 00000KT CAVOK 25/21 Q1013;
0120827840999992013020804004-07317-039300FM-15+0409SBJU V0202001N001512200019N0112651N1+02401+01901999999ADDGA1021+006001999GF102991999999999999999999MA1101391999999REMMET051METAR SBJU 080400Z 20003KT 9999 FEW020 24/19 Q1014;
0120827840999992013020805004-07317-039300FM-15+0409SBJU V0203601N001512200019N0112651N1+02401+02001999999ADDGA1021+006001999GF102991999999999999999999MA1101391999999REMMET051METAR SBJU 080500Z 36003KT 9999 FEW020 24/20 Q1014;
0120827840999992013020806004-07317-039300FM-15+0409SBJU V0209999C000012200019N0112651N1+02401+02001999999ADDGA1021+006001999GF102991999999999999999999MA1101391999999REMMET051METAR SBJU 080600Z 00000KT 9999 FEW020 24/20 Q1014;
0120827840999992013020807004-07317-039300FM-15+0409SBJU V0209999C000012200019N0112651N1+02401+02001999999ADDGA1021+006001999GF102991999999999999999999MA1101391999999REMMET051METAR SBJU 080700Z 00000KT 9999 FEW020 24/20 Q1014;
0120827840999992013020808004-07317-039300FM-15+0409SBJU V0209999C000012200019N0112651N1+02401+02001999999ADDGA1021+006001999GF102991999999999999999999MA1101491999999REMMET051METAR SBJU 080800Z 00000KT 9999 FEW020 24/20 Q1015;
0120827840999992013020809004-07317-039300FM-15+0409SBJU V0209999C000012200019N0112651N1+02301+01901999999ADDGA1041+006001999GF104991999999999999999999MA1101591999999REMMET051METAR SBJU 080900Z 00000KT 9999 SCT020 23/19 Q1016;
0120827840999992013020810004-07317-039300FM-15+0409SBJU V0201701N001012200019N0112651N1+02601+01901999999ADDGA1021+006301999GF102991999999999999999999MA1101691999999REMMET051METAR SBJU 081000Z 17002KT 9999 FEW021 26/19 Q1017;
0120827840999992013020811004-07317-039300FM-15+0409SBJU V0201301N004112200019N0112651N1+02701+01901999999ADDGA1021+006301999GF102991999999999999999999MA1101691999999REMMET051METAR SBJU 081100Z 13008KT 9999 FEW021 27/19 Q1017;
0120827840999992013020812004-07317-039300FM-15+0409SBJU V0201401N005112200019N0112651N1+02801+01901999999ADDGA1021+006301999GF102991999999999999999999MA1101691999999REMMET051METAR SBJU 081200Z 14010KT 9999 FEW021 28/19 Q1017;
0120827840999992013020813004-07317-039300FM-15+0409SBJU V0201501N003112200019N0112651N1+02901+01801999999ADDGA1041+006301999GF104991999999999999999999MA1101691999999REMMET051METAR SBJU 081300Z 15006KT 9999 SCT021 29/18 Q1017;
0120827840999992013020814004-07317-039300FM-15+0409SBJU V0201401N003112200019N0112651N1+03001+01701999999ADDGA1041+006301999GF104991999999999999999999MA1101591999999REMMET051METAR SBJU 081400Z 14006KT 9999 SCT021 30/17 Q1016;
0120827840999992013020815004-07317-039300FM-15+0409SBJU V0201601N002612200019N0112651N1+03201+01701999999ADDGA1041+006301999GF104991999999999999999999MA1101491999999REMMET051METAR SBJU 081500Z 16005KT 9999 SCT021 32/17 Q1015;
0120827840999992013020816004-07317-039300FM-15+0409SBJU V0201801N003112200019N0112651N1+03301+01501999999ADDGA1041+006301999GF104991999999999999999999MA1101391999999REMMET051METAR SBJU 081600Z 18006KT 9999 SCT021 33/15 Q1014;
0120827840999992013020817004-07317-039300FM-15+0409SBJU V0201901N003612200019N0112651N1+03401+01601999999ADDGA1041+006301999GF104991999999999999999999MA1101291999999REMMET051METAR SBJU 081700Z 19007KT 9999 SCT021 34/16 Q1013;
0120827840999992013020818004-07317-039300FM-15+0409SBJU V0201801N003612200019N0112651N1+03501+01301999999ADDGA1041+006601999GF104991999999999999999999MA1101191999999REMMET051METAR SBJU 081800Z 18007KT 9999 SCT022 35/13 Q1012;
0120827840999992013020819004-07317-039300FM-15+0409SBJU V0209999C000012200019N0112651N1+03501+01301999999ADDGA1041+006601999GF104991999999999999999999MA1101081999999REMMET051METAR SBJU 081900Z 00000KT 9999 SCT022 35/13 Q1011;
0120827840999992013020820004-07317-039300FM-15+0409SBJU V0202401N001012200019N0112651N1+03501+01301999999ADDGA1041+006601999GF104991999999999999999999MA1101081999999REMMET051METAR SBJU 082000Z 24002KT 9999 SCT022 35/13 Q1011;
0120827840999992013020821004-07317-039300FM-15+0409SBJU V0209999C000012200019N0112651N1+03301+01401999999ADDGA1041+006601999GF104991999999999999999999MA1101081999999REMMET051METAR SBJU 082100Z 00000KT 9999 SCT022 33/14 Q1011;
0120827840999992013020822004-07317-039300FM-15+0409SBJU V0209999C000012200019N0112651N1+03101+01901999999ADDGA1021+006001999GF102991999999999999999999MA1101081999999REMMET051METAR SBJU 082200Z 00000KT 9999 FEW020 31/19 Q1011;
0120827840999992013020823004-07317-039300FM-15+0409SBJU V0201701N002112200019N0112651N1+03001+01701999999ADDGA1021+006001999GF102991999999999999999999MA1101291999999REMMET051METAR SBJU 082300Z 17004KT 9999 FEW020 30/17 Q1013;
0120827840999992013020900004-07317-039300FM-15+0409SBJU V0201901N002612200019N0112651N1+03001+01601999999ADDGA1021+006001999GF102991999999999999999999MA1101291999999REMMET051METAR SBJU 090000Z 19005KT 9999 FEW020 30/16 Q1013;
0120827840999992013020901004-07317-039300FM-15+0409SBJU V0209999C000012200019N0112651N1+02901+01801999999ADDGA1041+006001999GF104991999999999999999999MA1101391999999REMMET051METAR SBJU 090100Z 00000KT 9999 SCT020 29/18 Q1014;
0120827840999992013020902004-07317-039300FM-15+0409SBJU V0201601N003112200019N0112651N1+02901+01801999999ADDGA1041+006001999GF104991999999999999999999MA1101391999999REMMET051METAR SBJU 090200Z 16006KT 9999 SCT020 29/18 Q1014;
0120827840999992013020903004-07317-039300FM-15+0409SBJU V0201601N003612200019N0112651N1+02801+01701999999ADDGA1041+006001999GF104991999999999999999999MA1101391999999REMMET051METAR SBJU 090300Z 16007KT 9999 SCT020 28/17 Q1014;
0120827840999992013020904004-07317-039300FM-15+0409SBJU V0201701N003112200019N0112651N1+02801+01701999999ADDGA1041+006001999GF104991999999999999999999MA1101391999999REMMET051METAR SBJU 090400Z 17006KT 9999 SCT020 28/17 Q1014;
0120827840999992013020905004-07317-039300FM-15+0409SBJU V0209999C000012200019N0112651N1+02701+01801999999ADDGA1021+006001999GF102991999999999999999999MA1101391999999REMMET051METAR SBJU 090500Z 00000KT 9999 FEW020 27/18 Q1014;
0120827840999992013020906004-07317-039300FM-15+0409SBJU V0209999C000012200019N0112651N1+02601+01901999999ADDGA1021+006001999GF102991999999999999999999MA1101391999999REMMET051METAR SBJU 090600Z 00000KT 9999 FEW020 26/19 Q1014;
0120827840999992013020907004-07317-039300FM-15+0409SBJU V0202101N002112200019N0112651N1+02501+01801999999ADDGA1021+006001999GF102991999999999999999999MA1101391999999REMMET051METAR SBJU 090700Z 21004KT 9999 FEW020 25/18 Q1014;
0120827840999992013020908004-07317-039300FM-15+0409SBJU V0209999C000012200019N0112651N1+02501+01801999999ADDGA1021+006001999GF102991999999999999999999MA1101491999999REMMET051METAR SBJU 090800Z 00000KT 9999 FEW020 25/18 Q1015;
0120827840999992013020909004-07317-039300FM-15+0409SBJU V0209999C000012200019N0112651N1+02501+01901999999ADDGA1021+006001999GF102991999999999999999999MA1101491999999REMMET051METAR SBJU 090900Z 00000KT 9999 FEW020 25/19 Q1015;
0120827840999992013020910004-07317-039300FM-15+0409SBJU V0201601N001012200019N0112651N1+02601+01901999999ADDGA1021+006301999GF102991999999999999999999MA1101591999999REMMET051METAR SBJU 091000Z 16002KT 9999 FEW021 26/19 Q1016;
0120827840999992013020911004-07317-039300FM-15+0409SBJU V0201601N004110063019N0112651N1+02701+01801999999ADDGA1071+006301999GF107991999999999999999999MA1101691999999REMMET051METAR SBJU 091100Z 16008KT 9999 BKN021 27/18 Q1017;
0120827840999992013020912004-07317-039300FM-15+0409SBJU V0201601N004110063019N0112651N1+02801+01701999999ADDGA1071+006301999GF107991999999999999999999MA1101691999999REMMET051METAR SBJU 091200Z 16008KT 9999 BKN021 28/17 Q1017;
0120827840999992013020913004-07317-039300FM-15+0409SBJU V0201801N004110063019N0112651N1+02801+01801999999ADDGA1071+006301999GF107991999999999999999999MA1101691999999REMMET051METAR SBJU 091300Z 18008KT 9999 BKN021 28/18 Q1017;
0120827840999992013020914004-07317-039300FM-15+0409SBJU V0201701N005110063019N0112651N1+03001+01701999999ADDGA1071+006301999GF107991999999999999999999MA1101691999999REMMET051METAR SBJU 091400Z 17010KT 9999 BKN021 30/17 Q1017;
0120827840999992013020915004-07317-039300FM-15+0409SBJU V0201401N005110063019N0112651N1+03101+01701999999ADDGA1071+006301999GF107991999999999999999999MA1101591999999REMMET051METAR SBJU 091500Z 14010KT 9999 BKN021 31/17 Q1016;
0120827840999992013020916004-07317-039300FM-15+0409SBJU V0202001N005112200019N0112651N1+03201+01601999999ADDGA1041+006301999GF104991999999999999999999MA1101391999999REMMET051METAR SBJU 091600Z 20010KT 9999 SCT021 32/16 Q1014;
0120827840999992013020917004-07317-039300FM-15+0409SBJU V0201801N003112200019N0112651N1+03301+01501999999ADDGA1041+006301999GF104991999999999999999999MA1101291999999REMMET051METAR SBJU 091700Z 18006KT 9999 SCT021 33/15 Q1013;
0120827840999992013020918004-07317-039300FM-15+0409SBJU V0201901N004112200019N0112651N1+03401+01401999999ADDGA1041+006601999GF104991999999999999999999MA1101191999999REMMET051METAR SBJU 091800Z 19008KT 9999 SCT022 34/14 Q1012;
0120827840999992013020919004-07317-039300FM-15+0409SBJU V0202401N003612200019N0112651N1+03501+01301999999ADDGA1041+006601999GF104991999999999999999999MA1101191999999REMMET051METAR SBJU 091900Z 24007KT 9999 SCT022 35/13 Q1012;
0120827840999992013020920004-07317-039300FM-15+0409SBJU V0202001N002612200019N0112651N1+03401+01501999999ADDGA1041+006601999GF104991999999999999999999MA1101191999999REMMET051METAR SBJU 092000Z 20005KT 9999 SCT022 34/15 Q1012;
0120827840999992013020921004-07317-039300FM-15+0409SBJU V0201801N002112200019N0112651N1+03301+01501999999ADDGA1041+006601999GF104991999999999999999999MA1101191999999REMMET051METAR SBJU 092100Z 18004KT 9999 SCT022 33/15 Q1012;
0120827840999992013020922004-07317-039300FM-15+0409SBJU V0209999C000010060019N0112651N1+03001+01401999999ADDGA1071+006001999GF107991999999999999999999MA1101291999999REMMET051METAR SBJU 092200Z 00000KT 9999 BKN020 30/14 Q1013;
0120827840999992013020923004-07317-039300FM-15+0409SBJU V0201701N003610060019N0112651N1+03001+01401999999ADDGA1071+006001999GF107991999999999999999999MA1101391999999REMMET051METAR SBJU 092300Z 17007KT 9999 BKN020 30/14 Q1014;
0120827840999992013021000004-07317-039300FM-15+0409SBJU V0209999C000010060019N0112651N1+02901+01601999999ADDGA1071+006001999GF107991999999999999999999MA1101491999999REMMET051METAR SBJU 100000Z 00000KT 9999 BKN020 29/16 Q1015;
0120827840999992013021001004-07317-039300FM-15+0409SBJU V0209999C000012200019N0112651N1+02801+01801999999ADDGA1041+006001999GF104991999999999999999999MA1101591999999REMMET051METAR SBJU 100100Z 00000KT 9999 SCT020 28/18 Q1016;
0120827840999992013021002004-07317-039300FM-15+0409SBJU V0209999C000012200019N0112651N1+02701+01701999999ADDGA1041+006001999GF104991999999999999999999MA1101491999999REMMET051METAR SBJU 100200Z 00000KT 9999 SCT020 27/17 Q1015;
0120827840999992013021003004-07317-039300FM-15+0409SBJU V0201501N003610060019N0112651N1+02701+01701999999ADDGA1071+006001999GF107991999999999999999999MA1101591999999REMMET051METAR SBJU 100300Z 15007KT 9999 BKN020 27/17 Q1016;
0139827840999992013021004004-07317-039300FM-15+0409SBJU V0201501N00571006001CN0112651N1+02701+01701999999ADDGA1071+006001999GA2021+006601021MA1101591999999REMMET061METAR SBJU 100400Z 15011KT 9999 BKN020 FEW022TCU 27/17 Q1016;EQDQ01+000022SCOTCV
0120827840999992013021005004-07317-039300FM-15+0409SBJU V0201601N003610060019N0112651N1+02601+01701999999ADDGA1071+006001999GF107991999999999999999999MA1101491999999REMMET051METAR SBJU 100500Z 16007KT 9999 BKN020 26/17 Q1015;
0120827840999992013021006004-07317-039300FM-15+0409SBJU V0201801N002110060019N0112651N1+02601+01701999999ADDGA1071+006001999GF107991999999999999999999MA1101491999999REMMET051METAR SBJU 100600Z 18004KT 9999 BKN020 26/17 Q1015;
0120827840999992013021007004-07317-039300FM-15+0409SBJU V0202101N001510060019N0112651N1+02401+01701999999ADDGA1071+006001999GF107991999999999999999999MA1101491999999REMMET051METAR SBJU 100700Z 21003KT 9999 BKN020 24/17 Q1015;
0120827840999992013021008004-07317-039300FM-15+0409SBJU V0201901N002112200019N0112651N1+02401+01701999999ADDGA1041+006001999GF104991999999999999999999MA1101491999999REMMET051METAR SBJU 100800Z 19004KT 9999 SCT020 24/17 Q1015;
0120827840999992013021009004-07317-039300FM-15+0409SBJU V0202001N002612200019N0112651N1+02401+01701999999ADDGA1021+006001999GF102991999999999999999999MA1101591999999REMMET051METAR SBJU 100900Z 20005KT 9999 FEW020 24/17 Q1016;
0120827840999992013021010004-07317-039300FM-15+0409SBJU V0201901N002612200019N0112651N1+02501+01701999999ADDGA1021+006001999GF102991999999999999999999MA1101591999999REMMET051METAR SBJU 101000Z 19005KT 9999 FEW020 25/17 Q1016;
0120827840999992013021011004-07317-039300FM-15+0409SBJU V0201801N004612200019N0112651N1+02701+01701999999ADDGA1021+006001999GF102991999999999999999999MA1101691999999REMMET051METAR SBJU 101100Z 18009KT 9999 FEW020 27/17 Q1017;
0120827840999992013021012004-07317-039300FM-15+0409SBJU V0201801N005112200019N0112651N1+02701+01701999999ADDGA1021+006001999GF102991999999999999999999MA1101691999999REMMET051METAR SBJU 101200Z 18010KT 9999 FEW020 27/17 Q1017;
0120827840999992013021013004-07317-039300FM-15+0409SBJU V0201701N005112200019N0112651N1+02801+01601999999ADDGA1021+006301999GF102991999999999999999999MA1101691999999REMMET051METAR SBJU 101300Z 17010KT 9999 FEW021 28/16 Q1017;
0120827840999992013021014004-07317-039300FM-15+0409SBJU V0201801N004112200019N0112651N1+03001+01601999999ADDGA1021+006301999GF102991999999999999999999MA1101591999999REMMET051METAR SBJU 101400Z 18008KT 9999 FEW021 30/16 Q1016;
0120827840999992013021015004-07317-039300FM-15+0409SBJU V0201901N005112200019N0112651N1+03101+01601999999ADDGA1021+006601999GF102991999999999999999999MA1101491999999REMMET051METAR SBJU 101500Z 19010KT 9999 FEW022 31/16 Q1015;
0072827840999992013021016004-07317-039300FM-15+0409SBJU V0202001N003119999999Y0099001N1+03201+01401999999ADDMA1101391999999REMMET045METAR SBJU 101600Z 20006KT CAVOK 32/14 Q1014;
0072827840999992013021017004-07317-039300FM-15+0409SBJU V0201501N003619999999Y0099001N1+03301+01401999999ADDMA1101291999999REMMET045METAR SBJU 101700Z 15007KT CAVOK 33/14 Q1013;
0072827840999992013021018004-07317-039300FM-15+0409SBJU V0209999C000019999999Y0099001N1+03401+01401999999ADDMA1101191999999REMMET045METAR SBJU 101800Z 00000KT CAVOK 34/14 Q1012;
0072827840999992013021019004-07317-039300FM-15+0409SBJU V0209999C000019999999Y0099001N1+03401+01301999999ADDMA1101081999999REMMET045METAR SBJU 101900Z 00000KT CAVOK 34/13 Q1011;
0072827840999992013021020004-07317-039300FM-15+0409SBJU V0209999C000019999999Y0099001N1+03401+01301999999ADDMA1101081999999REMMET045METAR SBJU 102000Z 00000KT CAVOK 34/13 Q1011;
0072827840999992013021021004-07317-039300FM-15+0409SBJU V0209999C000019999999Y0099001N1+03301+01301999999ADDMA1101081999999REMMET045METAR SBJU 102100Z 00000KT CAVOK 33/13 Q1011;
0072827840999992013021022004-07317-039300FM-15+0409SBJU V0209999C000019999999Y0099001N1+03101+01201999999ADDMA1101081999999REMMET045METAR SBJU 102200Z 00000KT CAVOK 31/12 Q1011;
0072827840999992013021023004-07317-039300FM-15+0409SBJU V0201901N002619999999Y0099001N1+03001+01201999999ADDMA1101191999999REMMET045METAR SBJU 102300Z 19005KT CAVOK 30/12 Q1012;
0072827840999992013021100004-07317-039300FM-15+0409SBJU V0209999C000019999999Y0099001N1+02901+01301999999ADDMA1101291999999REMMET045METAR SBJU 110000Z 00000KT CAVOK 29/13 Q1013;
0120827840999992013021101004-07317-039300FM-15+0409SBJU V0201801N003112200019N0112651N1+03001+01201999999ADDGA1021+006001999GF102991999999999999999999MA1101291999999REMMET051METAR SBJU 110100Z 18006KT 9999 FEW020 30/12 Q1013;
0120827840999992013021102004-07317-039300FM-15+0409SBJU V0201701N001512200019N0112651N1+02901+01201999999ADDGA1021+006001999GF102991999999999999999999MA1101291999999REMMET051METAR SBJU 110200Z 17003KT 9999 FEW020 29/12 Q1013;
0072827840999992013021103004-07317-039300FM-15+0409SBJU V0201201N002119999999Y0099001N1+02901+01301999999ADDMA1101291999999REMMET045METAR SBJU 110300Z 12004KT CAVOK 29/13 Q1013;
0120827840999992013021104004-07317-039300FM-15+0409SBJU V0201701N003612200019N0112651N1+02801+01401999999ADDGA1021+006001999GF102991999999999999999999MA1101291999999REMMET051METAR SBJU 110400Z 17007KT 9999 FEW020 28/14 Q1013;
0120827840999992013021105004-07317-039300FM-15+0409SBJU V0201801N002612200019N0112651N1+02701+01501999999ADDGA1021+006001999GF102991999999999999999999MA1101291999999REMMET051METAR SBJU 110500Z 18005KT 9999 FEW020 27/15 Q1013;
0120827840999992013021106004-07317-039300FM-15+0409SBJU V0201801N002612200019N0112651N1+02601+01601999999ADDGA1041+006001999GF104991999999999999999999MA1101291999999REMMET051METAR SBJU 110600Z 18005KT 9999 SCT020 26/16 Q1013;
0120827840999992013021107004-07317-039300FM-15+0409SBJU V0201801N002612200019N0112651N1+02501+01601999999ADDGA1041+006001999GF104991999999999999999999MA1101391999999REMMET051METAR SBJU 110700Z 18005KT 9999 SCT020 25/16 Q1014;
0120827840999992013021108004-07317-039300FM-15+0409SBJU V0209999C000012200019N0112651N1+02401+01701999999ADDGA1041+006001999GF104991999999999999999999MA1101391999999REMMET051METAR SBJU 110800Z 00000KT 9999 SCT020 24/17 Q1014;
0120827840999992013021109004-07317-039300FM-15+0409SBJU V0209999C000012200019N0112651N1+02401+01701999999ADDGA1041+006001999GF104991999999999999999999MA1101491999999REMMET051METAR SBJU 110900Z 00000KT 9999 SCT020 24/17 Q1015;
0072827840999992013021110004-07317-039300FM-15+0409SBJU V0209999C000019999999Y0099001N1+02501+01701999999ADDMA1101491999999REMMET045METAR SBJU 111000Z 00000KT CAVOK 25/17 Q1015;
0120827840999992013021111004-07317-039300FM-15+0409SBJU V0209999C000012200019N0112651N1+02601+01701999999ADDGA1041+006001999GF104991999999999999999999MA1101591999999REMMET051METAR SBJU 111100Z 00000KT 9999 SCT020 26/17 Q1016;
0072827840999992013021112004-07317-039300FM-15+0409SBJU V0209999C000019999999Y0099001N1+02801+01701999999ADDMA1101591999999REMMET045METAR SBJU 111200Z 00000KT CAVOK 28/17 Q1016;
0072827840999992013021113004-07317-039300FM-15+0409SBJU V0209999C000019999999Y0099001N1+02901+01701999999ADDMA1101591999999REMMET045METAR SBJU 111300Z 00000KT CAVOK 29/17 Q1016;
0072827840999992013021114004-07317-039300FM-15+0409SBJU V0202001N002619999999Y0099001N1+03001+01601999999ADDMA1101591999999REMMET045METAR SBJU 111400Z 20005KT CAVOK 30/16 Q1016;
0120827840999992013021115004-07317-039300FM-15+0409SBJU V0209999C000012200019N0112651N1+03101+01801999999ADDGA1041+006001999GF104991999999999999999999MA1101491999999REMMET051METAR SBJU 111500Z 00000KT 9999 SCT020 31/18 Q1015;
0120827840999992013021116004-07317-039300FM-15+0409SBJU V0202001N002612200019N0112651N1+03201+01601999999ADDGA1041+006001999GF104991999999999999999999MA1101391999999REMMET051METAR SBJU 111600Z 20005KT 9999 SCT020 32/16 Q1014;
0120827840999992013021117004-07317-039300FM-15+0409SBJU V0202101N003110060019N0112651N1+03301+01701999999ADDGA1071+006001999GF107991999999999999999999MA1101291999999REMMET051METAR SBJU 111700Z 21006KT 9999 BKN020 33/17 Q1013;
0120827840999992013021118004-07317-039300FM-15+0409SBJU V0202201N003610060019N0112651N1+03301+01501999999ADDGA1071+006001999GF107991999999999999999999MA1101191999999REMMET051METAR SBJU 111800Z 22007KT 9999 BKN020 33/15 Q1012;
0120827840999992013021119004-07317-039300FM-15+0409SBJU V0201901N003112200019N0112651N1+03401+01401999999ADDGA1041+006001999GF104991999999999999999999MA1101081999999REMMET051METAR SBJU 111900Z 19006KT 9999 SCT020 34/14 Q1011;
0120827840999992013021120004-07317-039300FM-15+0409SBJU V0201901N002612200019N0112651N1+03401+01501999999ADDGA1021+006601999GF102991999999999999999999MA1101081999999REMMET051METAR SBJU 112000Z 19005KT 9999 FEW022 34/15 Q1011;
0120827840999992013021121004-07317-039300FM-15+0409SBJU V0209999C000012200019N0112651N1+03201+01501999999ADDGA1021+006601999GF102991999999999999999999MA1101081999999REMMET051METAR SBJU 112100Z 00000KT 9999 FEW022 32/15 Q1011;
0072827840999992013021122004-07317-039300FM-15+0409SBJU V0209999C000019999999Y0099001N1+03101+01501999999ADDMA1101081999999REMMET045METAR SBJU 112200Z 00000KT CAVOK 31/15 Q1011;
0120827840999992013021123004-07317-039300FM-15+0409SBJU V0209999C000012200019N0112651N1+03001+01301999999ADDGA1021+006001999GF102991999999999999999999MA1101191999999REMMET051METAR SBJU 112300Z 00000KT 9999 FEW020 30/13 Q1012;
0120827840999992013021200004-07317-039300FM-15+0409SBJU V0209999C000012200019N0112651N1+02901+01301999999ADDGA1021+006001999GF102991999999999999999999MA1101291999999REMMET051METAR SBJU 120000Z 00000KT 9999 FEW020 29/13 Q1013;
0120827840999992013021201004-07317-039300FM-15+0409SBJU V0209999C000012200019N0112651N1+02901+01301999999ADDGA1021+006001999GF102991999999999999999999MA1101291999999REMMET051METAR SBJU 120100Z 00000KT 9999 FEW020 29/13 Q1013;
0120827840999992013021202004-07317-039300FM-15+0409SBJU V0201601N002612200019N0112651N1+03001+01301999999ADDGA1021+006001999GF102991999999999999999999MA1101291999999REMMET051METAR SBJU 120200Z 16005KT 9999 FEW020 30/13 Q1013;
0120827840999992013021203004-07317-039300FM-15+0409SBJU V0201501N002612200019N0112651N1+02901+01401999999ADDGA1021+006001999GF102991999999999999999999MA1101291999999REMMET051METAR SBJU 120300Z 15005KT 9999 FEW020 29/14 Q1013;
0072827840999992013021204004-07317-039300FM-15+0409SBJU V0201601N004119999999Y0099001N1+02901+01501999999ADDMA1101291999999REMMET045METAR SBJU 120400Z 16008KT CAVOK 29/15 Q1013;
0120827840999992013021205004-07317-039300FM-15+0409SBJU V0209999C000012200019N0112651N1+02801+01501999999ADDGA1041+006001999GF104991999999999999999999MA1101291999999REMMET051METAR SBJU 120500Z 00000KT 9999 SCT020 28/15 Q1013;
0072827840999992013021206004-07317-039300FM-15+0409SBJU V0209999C000019999999Y0099001N1+02701+01601999999ADDMA1101291999999REMMET045METAR SBJU 120600Z 00000KT CAVOK 27/16 Q1013;
0072827840999992013021207004-07317-039300FM-15+0409SBJU V0209999C000019999999Y0099001N1+02701+01601999999ADDMA1101291999999REMMET045METAR SBJU 120700Z 00000KT CAVOK 27/16 Q1013;
0120827840999992013021208004-07317-039300FM-15+0409SBJU V0209999C000012200019N0112651N1+02601+01401999999ADDGA1041+006001999GF104991999999999999999999MA1101291999999REMMET051METAR SBJU 120800Z 00000KT 9999 SCT020 26/14 Q1013;
0072827840999992013021209004-07317-039300FM-15+0409SBJU V0209999C000019999999Y0099001N1+02501+01701999999ADDMA1101391999999REMMET045METAR SBJU 120900Z 00000KT CAVOK 25/17 Q1014;
0120827840999992013021210004-07317-039300FM-15+0409SBJU V0202001N002112200019N0112651N1+02601+01701999999ADDGA1021+006001999GF102991999999999999999999MA1101391999999REMMET051METAR SBJU 121000Z 20004KT 9999 FEW020 26/17 Q1014;
0120827840999992013021211004-07317-039300FM-15+0409SBJU V0202001N002612200019N0112651N1+02701+01701999999ADDGA1021+006001999GF102991999999999999999999MA1101491999999REMMET051METAR SBJU 121100Z 20005KT 9999 FEW020 27/17 Q1015;
0120827840999992013021212004-07317-039300FM-15+0409SBJU V0201901N002612200019N0112651N1+02901+01801999999ADDGA1021+006001999GF102991999999999999999999MA1101491999999REMMET051METAR SBJU 121200Z 19005KT 9999 FEW020 29/18 Q1015;
0072827840999992013021213004-07317-039300FM-15+0409SBJU V0201501N004619999999Y0099001N1+03001+01601999999ADDMA1101491999999REMMET045METAR SBJU 121300Z 15009KT CAVOK 30/16 Q1015;
0120827840999992013021214004-07317-039300FM-15+0409SBJU V0201601N005712200019N0112651N1+03101+01601999999ADDGA1021+006601999GF102991999999999999999999MA1101491999999REMMET051METAR SBJU 121400Z 16011KT 9999 FEW022 31/16 Q1015;
0120827840999992013021215004-07317-039300FM-15+0409SBJU V0201901N005712200019N0112651N1+03201+01601999999ADDGA1041+006601999GF104991999999999999999999MA1101391999999REMMET051METAR SBJU 121500Z 19011KT 9999 SCT022 32/16 Q1014;
0120827840999992013021216004-07317-039300FM-15+0409SBJU V0202001N004612200019N0112651N1+03301+01601999999ADDGA1041+006601999GF104991999999999999999999MA1101191999999REMMET051METAR SBJU 121600Z 20009KT 9999 SCT022 33/16 Q1012;
0120827840999992013021217004-07317-039300FM-15+0409SBJU V0201601N003112200019N0112651N1+03401+01401999999ADDGA1041+006601999GF104991999999999999999999MA1101081999999REMMET051METAR SBJU 121700Z 16006KT 9999 SCT022 34/14 Q1011;
0120827840999992013021218004-07317-039300FM-15+0409SBJU V0201501N003112200019N0112651N1+03501+01301999999ADDGA1041+006601999GF104991999999999999999999MA1101081999999REMMET051METAR SBJU 121800Z 15006KT 9999 SCT022 35/13 Q1011;
0120827840999992013021219004-07317-039300FM-15+0409SBJU V0202001N003612200019N0112651N1+03501+01301999999ADDGA1021+006601999GF102991999999999999999999MA1101021999999REMMET051METAR SBJU 121900Z 20007KT 9999 FEW022 35/13 Q1010;
0120827840999992013021220004-07317-039300FM-15+0409SBJU V0201701N003612200019N0112651N1+03501+01301999999ADDGA1021+006901999GF102991999999999999999999MA1101021999999REMMET051METAR SBJU 122000Z 17007KT 9999 FEW023 35/13 Q1010;
0072827840999992013021221004-07317-039300FM-15+0409SBJU V0202001N001519999999Y0099001N1+03401+01401999999ADDMA1101021999999REMMET045METAR SBJU 122100Z 20003KT CAVOK 34/14 Q1010;
0120827840999992013021222004-07317-039300FM-15+0409SBJU V0202101N002112200019N0112651N1+03201+01301999999ADDGA1021+006901999GF102991999999999999999999MA1101021999999REMMET051METAR SBJU 122200Z 21004KT 9999 FEW023 32/13 Q1010;
0120827840999992013021223004-07317-039300FM-15+0409SBJU V0201801N001012200019N0112651N1+03101+01301999999ADDGA1021+006601999GF102991999999999999999999MA1101081999999REMMET051METAR SBJU 122300Z 18002KT 9999 FEW022 31/13 Q1011;
0120827840999992013021300004-07317-039300FM-15+0409SBJU V0209999C000012200019N0112651N1+03001+01401999999ADDGA1021+006601999GF102991999999999999999999MA1101191999999REMMET051METAR SBJU 130000Z 00000KT 9999 FEW022 30/14 Q1012;
0120827840999992013021301004-07317-039300FM-15+0409SBJU V0209999C000012200019N0112651N1+03001+01301999999ADDGA1021+006301999GF102991999999999999999999MA1101291999999REMMET051METAR SBJU 130100Z 00000KT 9999 FEW021 30/13 Q1013;
0120827840999992013021302004-07317-039300FM-15+0409SBJU V0209999C000012200019N0112651N1+03001+01401999999ADDGA1021+006301999GF102991999999999999999999MA1101291999999REMMET051METAR SBJU 130200Z 00000KT 9999 FEW021 30/14 Q1013;
0120827840999992013021303004-07317-039300FM-15+0409SBJU V0201801N003612200019N0112651N1+03001+01301999999ADDGA1021+006301999GF102991999999999999999999MA1101291999999REMMET051METAR SBJU 130300Z 18007KT 9999 FEW021 30/13 Q1013;
0120827840999992013021304004-07317-039300FM-15+0409SBJU V0201801N002612200019N0112651N1+02801+01401999999ADDGA1021+006301999GF102991999999999999999999MA1101291999999REMMET051METAR SBJU 130400Z 18005KT 9999 FEW021 28/14 Q1013;
0120827840999992013021305004-07317-039300FM-15+0409SBJU V0209999C000012200019N0112651N1+02701+01501999999ADDGA1021+006301999GF102991999999999999999999MA1101291999999REMMET051METAR SBJU 130500Z 00000KT 9999 FEW021 27/15 Q1013;
0120827840999992013021306004-07317-039300FM-15+0409SBJU V0209999C000012200019N0112651N1+02601+01701999999ADDGA1021+006301999GF102991999999999999999999MA1101291999999REMMET051METAR SBJU 130600Z 00000KT 9999 FEW021 26/17 Q1013;
0120827840999992013021307004-07317-039300FM-15+0409SBJU V0209999C000012200019N0112651N1+02601+01701999999ADDGA1021+006001999GF102991999999999999999999MA1101391999999REMMET051METAR SBJU 130700Z 00000KT 9999 FEW020 26/17 Q1014;
0120827840999992013021308004-07317-039300FM-15+0409SBJU V0209999C000012200019N0112651N1+02501+01701999999ADDGA1021+006001999GF102991999999999999999999MA1101391999999REMMET051METAR SBJU 130800Z 00000KT 9999 FEW020 25/17 Q1014;
0120827840999992013021309004-07317-039300FM-15+0409SBJU V0209999C000012200019N0112651N1+02501+01801999999ADDGA1041+006001999GF104991999999999999999999MA1101391999999REMMET051METAR SBJU 130900Z 00000KT 9999 SCT020 25/18 Q1014;
0120827840999992013021310004-07317-039300FM-15+0409SBJU V0209999C000012200019N0112651N1+02601+01801999999ADDGA1041+006001999GF104991999999999999999999MA1101491999999REMMET051METAR SBJU 131000Z 00000KT 9999 SCT020 26/18 Q1015;
0120827840999992013021311004-07317-039300FM-15+0409SBJU V0201901N002612200019N0112651N1+02801+01801999999ADDGA1021+006301999GF102991999999999999999999MA1101491999999REMMET051METAR SBJU 131100Z 19005KT 9999 FEW021 28/18 Q1015;
0120827840999992013021312004-07317-039300FM-15+0409SBJU V0201601N003612200019N0112651N1+02901+01801999999ADDGA1021+006001999GF102991999999999999999999MA1101591999999REMMET051METAR SBJU 131200Z 16007KT 9999 FEW020 29/18 Q1016;
0120827840999992013021313004-07317-039300FM-15+0409SBJU V0201601N004112200019N0112651N1+03001+01701999999ADDGA1021+006301999GF102991999999999999999999MA1101591999999REMMET051METAR SBJU 131300Z 16008KT 9999 FEW021 30/17 Q1016;
0120827840999992013021314004-07317-039300FM-15+0409SBJU V0201901N003612200019N0112651N1+03101+01601999999ADDGA1021+006301999GF102991999999999999999999MA1101491999999REMMET051METAR SBJU 131400Z 19007KT 9999 FEW021 31/16 Q1015;
0120827840999992013021315004-07317-039300FM-15+0409SBJU V0201801N003112200019N0112651N1+03201+01601999999ADDGA1041+006601999GF104991999999999999999999MA1101491999999REMMET051METAR SBJU 131500Z 18006KT 9999 SCT022 32/16 Q1015;
0120827840999992013021316004-07317-039300FM-15+0409SBJU V0201801N003612200019N0112651N1+03201+01601999999ADDGA1041+006601999GF104991999999999999999999MA1101291999999REMMET051METAR SBJU 131600Z 18007KT 9999 SCT022 32/16 Q1013;
0120827840999992013021317004-07317-039300FM-15+0409SBJU V0202001N004112200019N0112651N1+03401+01401999999ADDGA1041+006601999GF104991999999999999999999MA1101291999999REMMET051METAR SBJU 131700Z 20008KT 9999 SCT022 34/14 Q1013;
0120827840999992013021318004-07317-039300FM-15+0409SBJU V0202501N002612200019N0112651N1+03501+01301999999ADDGA1041+006601999GF104991999999999999999999MA1101191999999REMMET051METAR SBJU 131800Z 25005KT 9999 SCT022 35/13 Q1012;
0120827840999992013021319004-07317-039300FM-15+0409SBJU V0201901N002112200019N0112651N1+03501+01301999999ADDGA1041+006601999GF104991999999999999999999MA1101081999999REMMET051METAR SBJU 131900Z 19004KT 9999 SCT022 35/13 Q1011;
0120827840999992013021320004-07317-039300FM-15+0409SBJU V0201901N004612200019N0112651N1+03501+01301999999ADDGA1041+006601999GF104991999999999999999999MA1101081999999REMMET051METAR SBJU 132000Z 19009KT 9999 SCT022 35/13 Q1011;
0120827840999992013021321004-07317-039300FM-15+0409SBJU V0202001N001012200019N0112651N1+03301+01301999999ADDGA1021+006601999GF102991999999999999999999MA1101081999999REMMET051METAR SBJU 132100Z 20002KT 9999 FEW022 33/13 Q1011;
0120827840999992013021322004-07317-039300FM-15+0409SBJU V0209999C000012200019N0112651N1+03201+01301999999ADDGA1021+006301999GF102991999999999999999999MA1101191999999REMMET051METAR SBJU 132200Z 00000KT 9999 FEW021 32/13 Q1012;
0120827840999992013021323004-07317-039300FM-15+0409SBJU V0209999C000012200019N0112651N1+03001+01401999999ADDGA1021+006301999GF102991999999999999999999MA1101191999999REMMET051METAR SBJU 132300Z 00000KT 9999 FEW021 30/14 Q1012;
0120827840999992013021400004-07317-039300FM-15+0409SBJU V0209999C000012200019N0112651N1+03001+01401999999ADDGA1021+006301999GF102991999999999999999999MA1101291999999REMMET051METAR SBJU 140000Z 00000KT 9999 FEW021 30/14 Q1013;
0120827840999992013021401004-07317-039300FM-15+0409SBJU V0209999C000012200019N0112651N1+02901+01401999999ADDGA1021+006301999GF102991999999999999999999MA1101391999999REMMET051METAR SBJU 140100Z 00000KT 9999 FEW021 29/14 Q1014;
0120827840999992013021402004-07317-039300FM-15+0409SBJU V0209999C000012200019N0112651N1+02801+01501999999ADDGA1021+006301999GF102991999999999999999999MA1101391999999REMMET051METAR SBJU 140200Z 00000KT 9999 FEW021 28/15 Q1014;
0120827840999992013021403004-07317-039300FM-15+0409SBJU V0209999C000012200019N0112651N1+02801+01501999999ADDGA1021+006301999GF102991999999999999999999MA1101391999999REMMET051METAR SBJU 140300Z 00000KT 9999 FEW021 28/15 Q1014;
0120827840999992013021404004-07317-039300FM-15+0409SBJU V0209999C000012200019N0112651N1+02701+01501999999ADDGA1041+006001999GF104991999999999999999999MA1101391999999REMMET051METAR SBJU 140400Z 00000KT 9999 SCT020 27/15 Q1014;
0120827840999992013021405004-07317-039300FM-15+0409SBJU V0200901N001512200019N0112651N1+02801+01501999999ADDGA1041+006001999GF104991999999999999999999MA1101391999999REMMET051METAR SBJU 140500Z 09003KT 9999 SCT020 28/15 Q1014;
0120827840999992013021406004-07317-039300FM-15+0409SBJU V0209999C000012200019N0112651N1+02701+01901999999ADDGA1041+006001999GF104991999999999999999999MA1101491999999REMMET051METAR SBJU 140600Z 00000KT 9999 SCT020 27/19 Q1015;
0120827840999992013021407004-07317-039300FM-15+0409SBJU V0209999C000012200019N0112651N1+02601+01901999999ADDGA1041+006001999GF104991999999999999999999MA1101491999999REMMET051METAR SBJU 140700Z 00000KT 9999 SCT020 26/19 Q1015;
0156827840999992013021407354-07317-039300FM-15+0409SBJU V0209999C000012200019N0112651N1+02501+02101999999ADDGA1041+006001999GA2021+006301091MA1101491999999MW1801MW2951REMMET066SPECI SBJU 140735Z 00000KT 9999 -TSRA SCT020 FEW021CB 25/21 Q1015;EQDQ01+000022SCOTCV
0155827840999992013021407454-07317-039300FM-15+0409SBJU V0200801N002612200019N0030001N1+02501+02101999999ADDGA1041+006001999GA2021+006301091MA1101491999999MW1811MW2951REMMET065SPECI SBJU 140745Z 08005KT 3000 TSRA SCT020 FEW021CB 25/21 Q1015;EQDQ01+000022SCOTCV
0155827840999992013021408004-07317-039300FM-15+0409SBJU V0209999C000012200019N0040001N1+02401+02101999999ADDGA1041+006001999GA2021+006301091MA1101491999999MW1811MW2951REMMET065METAR SBJU 140800Z 00000KT 4000 TSRA SCT020 FEW021CB 24/21 Q1015;EQDQ01+000022SCOTCV
0135827840999992013021408254-07317-039300FM-15+0409SBJU V0202801N002612200019N0112651N1+02401+02101999999ADDGA1041+006001999GF104991999999999999999999MA1101591999999MW1611REMMET060SPECI SBJU 140825Z 28005KT 9999 -RA SCT020 24/21 Q1016 RETS;
0125827840999992013021409004-07317-039300FM-15+0409SBJU V0209999C000010054019N0112651N1+02301+02001999999ADDGA1071+005401999GF107991999999999999999999MA1101591999999REMMET056METAR SBJU 140900Z 00000KT 9999 BKN018 23/20 Q1016 RERA;
0162827840999992013021410004-07317-039300FM-15+0409SBJU V0200601N001510030019N0050001N1+02401+02101999999ADDGA1071+003001999GA2071+024001999GF107991999999999999999999MA1101691999999MW1101MW2611REMMET065METAR SBJU 141000Z 06003KT 5000 -RA BR BKN010 BKN080 24/21 Q1017;
0143827840999992013021410404-07317-039300FM-15+0409SBJU V0209999C000010240019N0112651N1+02301+02101999999ADDGA1041+003001999GA2071+024001999GF107991999999999999999999MA1101691999999REMMET058SPECI SBJU 141040Z 00000KT 9999 SCT010 BKN080 23/21 Q1017;
0143827840999992013021411004-07317-039300FM-15+0409SBJU V0209999C000010240019N0112651N1+02401+02201999999ADDGA1041+003001999GA2071+024001999GF107991999999999999999999MA1101691999999REMMET058METAR SBJU 141100Z 00000KT 9999 SCT010 BKN080 24/22 Q1017;
0143827840999992013021412004-07317-039300FM-15+0409SBJU V0209999C000010240019N0112651N1+02601+02201999999ADDGA1021+003001999GA2071+024001999GF107991999999999999999999MA1101691999999REMMET058METAR SBJU 141200Z 00000KT 9999 FEW010 BKN080 26/22 Q1017;
0143827840999992013021413004-07317-039300FM-15+0409SBJU V0209999C000010210019N0112651N1+02701+02101999999ADDGA1021+006001999GA2071+021001999GF107991999999999999999999MA1101801999999REMMET058METAR SBJU 141300Z 00000KT 9999 FEW020 BKN070 27/21 Q1018;
0143827840999992013021414004-07317-039300FM-15+0409SBJU V0209999C000010240019N0112651N1+02901+02101999999ADDGA1021+005101999GA2071+024001999GF107991999999999999999999MA1101691999999REMMET058METAR SBJU 141400Z 00000KT 9999 FEW017 BKN080 29/21 Q1017;
0143827840999992013021415004-07317-039300FM-15+0409SBJU V0209999C000010240019N0112651N1+03001+01901999999ADDGA1021+005101999GA2071+024001999GF107991999999999999999999MA1101591999999REMMET058METAR SBJU 141500Z 00000KT 9999 FEW017 BKN080 30/19 Q1016;
0120827840999992013021416004-07317-039300FM-15+0409SBJU V0209999C000012200019N0112651N1+03101+01901999999ADDGA1041+006001999GF104991999999999999999999MA1101491999999REMMET051METAR SBJU 141600Z 00000KT 9999 SCT020 31/19 Q1015;
0120827840999992013021418004-07317-039300FM-15+0409SBJU V0209999C000012200019N0112651N1+03301+01801999999ADDGA1041+006001999GF104991999999999999999999MA1101291999999REMMET051METAR SBJU 141800Z 00000KT 9999 SCT020 33/18 Q1013;
0120827840999992013021419004-07317-039300FM-15+0409SBJU V0209999C000012200019N0112651N1+03401+01701999999ADDGA1021+006001999GF102991999999999999999999MA1101191999999REMMET051METAR SBJU 141900Z 00000KT 9999 FEW020 34/17 Q1012;
0072827840999992013021420004-07317-039300FM-15+0409SBJU V0209999C000019999999Y0099001N1+03301+01701999999ADDMA1101191999999REMMET045METAR SBJU 142000Z 00000KT CAVOK 33/17 Q1012;
0072827840999992013021421004-07317-039300FM-15+0409SBJU V0209999C000019999999Y0099001N1+03201+01901999999ADDMA1101191999999REMMET045METAR SBJU 142100Z 00000KT CAVOK 32/19 Q1012;
0072827840999992013021422004-07317-039300FM-15+0409SBJU V0209999C000019999999Y0099001N1+03101+01901999999ADDMA1101291999999REMMET045METAR SBJU 142200Z 00000KT CAVOK 31/19 Q1013;
0072827840999992013021423004-07317-039300FM-15+0409SBJU V0209999C000019999999Y0099001N1+03001+02101999999ADDMA1101291999999REMMET045METAR SBJU 142300Z 00000KT CAVOK 30/21 Q1013;
0072827840999992013021500004-07317-039300FM-15+0409SBJU V0209999C000019999999Y0099001N1+02901+02101999999ADDMA1101391999999REMMET045METAR SBJU 150000Z 00000KT CAVOK 29/21 Q1014;
0072827840999992013021501004-07317-039300FM-15+0409SBJU V0209999C000019999999Y0099001N1+02801+02101999999ADDMA1101491999999REMMET045METAR SBJU 150100Z 00000KT CAVOK 28/21 Q1015;
0120827840999992013021502004-07317-039300FM-15+0409SBJU V0200501N005112200019N0112651N1+02701+01901999999ADDGA1041+006001999GF104991999999999999999999MA1101591999999REMMET051METAR SBJU 150200Z 05010KT 9999 SCT020 27/19 Q1016;
0146827840999992013021503004-07317-039300FM-15+0409SBJU V0200301N00211006001CN0090001N1+02401+02101999999ADDGA1071+006001999GA2041+021001999MA1101691999999MW1611REMMET062METAR SBJU 150300Z 03004KT 9000 -RA BKN020 SCT070 24/21 Q1017;EQDQ01+000042SCOTCV
0143827840999992013021504004-07317-039300FM-15+0409SBJU V0209999C000010210019N0112651N1+02401+02101999999ADDGA1041+006001999GA2071+021001999GF107991999999999999999999MA1101591999999REMMET058METAR SBJU 150400Z 00000KT 9999 SCT020 BKN070 24/21 Q1016;
0143827840999992013021505004-07317-039300FM-15+0409SBJU V0209999C000010210019N0112651N1+02401+02101999999ADDGA1041+006001999GA2071+021001999GF107991999999999999999999MA1101591999999REMMET058METAR SBJU 150500Z 00000KT 9999 SCT020 BKN070 24/21 Q1016;
0143827840999992013021506004-07317-039300FM-15+0409SBJU V0209999C000012200019N0112651N1+02401+02101999999ADDGA1041+006001999GA2041+021001999GF104991999999999999999999MA1101491999999REMMET058METAR SBJU 150600Z 00000KT 9999 SCT020 SCT070 24/21 Q1015;
0143827840999992013021507004-07317-039300FM-15+0409SBJU V0209999C000012200019N0112651N1+02401+02101999999ADDGA1041+004501999GA2041+021001999GF104991999999999999999999MA1101591999999REMMET058METAR SBJU 150700Z 00000KT 9999 SCT015 SCT070 24/21 Q1016;
0143827840999992013021508004-07317-039300FM-15+0409SBJU V0209999C000012200019N0112651N1+02401+02101999999ADDGA1041+004501999GA2041+021001999GF104991999999999999999999MA1101591999999REMMET058METAR SBJU 150800Z 00000KT 9999 SCT015 SCT070 24/21 Q1016;
0143827840999992013021509004-07317-039300FM-15+0409SBJU V0209999C000010210019N0112651N1+02401+02101999999ADDGA1041+004501999GA2071+021001999GF107991999999999999999999MA1101591999999REMMET058METAR SBJU 150900Z 00000KT 9999 SCT015 BKN070 24/21 Q1016;
0143827840999992013021510004-07317-039300FM-15+0409SBJU V0209999C000010210019N0112651N1+02401+02101999999ADDGA1041+004501999GA2071+021001999GF107991999999999999999999MA1101691999999REMMET058METAR SBJU 151000Z 00000KT 9999 SCT015 BKN070 24/21 Q1017;
0143827840999992013021511004-07317-039300FM-15+0409SBJU V0200801N002110045019N0112651N1+02401+02101999999ADDGA1071+004501999GA2071+021001999GF107991999999999999999999MA1101801999999REMMET058METAR SBJU 151100Z 08004KT 9999 BKN015 BKN070 24/21 Q1018;
0153827840999992013021511304-07317-039300FM-15+0409SBJU V0201201N002610042019N0020001N1+02401+02101999999ADDGA1071+004201999GA2071+021001999GF107991999999999999999999MA1101801999999MW1611REMMET062SPECI SBJU 151130Z 12005KT 2000 -RA BKN014 BKN070 24/21 Q1018;
0143827840999992013021512004-07317-039300FM-15+0409SBJU V0209999C000010045019N0112651N1+02301+02101999999ADDGA1071+004501999GA2071+021001999GF107991999999999999999999MA1101801999999REMMET058METAR SBJU 151200Z 00000KT 9999 BKN015 BKN070 23/21 Q1018;
0143827840999992013021513004-07317-039300FM-15+0409SBJU V0209999C000010045019N0112651N1+02501+02101999999ADDGA1071+004501999GA2071+021001999GF107991999999999999999999MA1101801999999REMMET058METAR SBJU 151300Z 00000KT 9999 BKN015 BKN070 25/21 Q1018;
0143827840999992013021514004-07317-039300FM-15+0409SBJU V0201201N005110045019N0112651N1+02601+02101999999ADDGA1071+004501999GA2071+021001999GF107991999999999999999999MA1101801999999REMMET058METAR SBJU 151400Z 12010KT 9999 BKN015 BKN070 26/21 Q1018;
0153827840999992013021514204-07317-039300FM-15+0409SBJU V0201201N004110042019N0020001N1+02501+02101999999ADDGA1071+004201999GA2071+021001999GF107991999999999999999999MA1101801999999MW1611REMMET062SPECI SBJU 151420Z 12008KT 2000 -RA BKN014 BKN070 25/21 Q1018;
0152827840999992013021515004-07317-039300FM-15+0409SBJU V0201001N002110045019N0050001N1+02401+02201999999ADDGA1071+004501999GA2071+021001999GF107991999999999999999999MA1101691999999MW1101REMMET061METAR SBJU 151500Z 10004KT 5000 BR BKN015 BKN070 24/22 Q1017;
0120827840999992013021516004-07317-039300FM-15+0409SBJU V0209999C000010060019N0112651N1+02901+02101999999ADDGA1071+006001999GF107991999999999999999999MA1101591999999REMMET051METAR SBJU 151600Z 00000KT 9999 BKN020 29/21 Q1016;
0120827840999992013021518004-07317-039300FM-15+0409SBJU V0200201N002612200019N0112651N1+03001+02001999999ADDGA1041+006001999GF104991999999999999999999MA1101391999999REMMET051METAR SBJU 151800Z 02005KT 9999 SCT020 30/20 Q1014;
0120827840999992013021519004-07317-039300FM-15+0409SBJU V0209999C000012200019N0112651N1+03001+02101999999ADDGA1021+006001999GF102991999999999999999999MA1101291999999REMMET051METAR SBJU 151900Z 00000KT 9999 FEW020 30/21 Q1013;
0120827840999992013021520004-07317-039300FM-15+0409SBJU V0209999C000012200019N0112651N1+03001+02001999999ADDGA1021+006001999GF102991999999999999999999MA1101191999999REMMET051METAR SBJU 152000Z 00000KT 9999 FEW020 30/20 Q1012;
0120827840999992013021521004-07317-039300FM-15+0409SBJU V0209999C000012200019N0112651N1+02901+02101999999ADDGA1021+006001999GF102991999999999999999999MA1101291999999REMMET051METAR SBJU 152100Z 00000KT 9999 FEW020 29/21 Q1013;
0146827840999992013021522004-07317-039300FM-15+0409SBJU V0200801N001012200019N0112651N1+02801+02201999999ADDGA1021+006001999GA2021+006601021GF102991999999999999999999MA1101291999999REMMET061METAR SBJU 152200Z 08002KT 9999 FEW020 FEW022TCU 28/22 Q1013;
0146827840999992013021523004-07317-039300FM-15+0409SBJU V0200201N001012200019N0112651N1+02701+02201999999ADDGA1021+006001999GA2021+006601021GF102991999999999999999999MA1101391999999REMMET061METAR SBJU 152300Z 02002KT 9999 FEW020 FEW022TCU 27/22 Q1014;
0146827840999992013021600004-07317-039300FM-15+0409SBJU V0201301N001012200019N0112651N1+02701+02201999999ADDGA1021+006001999GA2021+006601021GF102991999999999999999999MA1101491999999REMMET061METAR SBJU 160000Z 13002KT 9999 FEW020 FEW022TCU 27/22 Q1015;
0139827840999992013021601004-07317-039300FM-15+0409SBJU V0202301N001012200019N0112651N1+02501+02201999999ADDGA1041+006001999GA2021+006601021MA1101491999999REMMET061METAR SBJU 160100Z 23002KT 9999 SCT020 FEW022TCU 25/22 Q1015;EQDQ01+000022SCOTCV
0139827840999992013021602004-07317-039300FM-15+0409SBJU V0209999C000012200019N0112651N1+02501+02101999999ADDGA1041+006001999GA2021+006601021MA1101391999999REMMET061METAR SBJU 160200Z 00000KT 9999 SCT020 FEW022TCU 25/21 Q1014;EQDQ01+000022SCOTCV
0120827840999992013021603004-07317-039300FM-15+0409SBJU V0202501N001012200019N0112651N1+02501+02101999999ADDGA1041+006001999GF104991999999999999999999MA1101391999999REMMET051METAR SBJU 160300Z 25002KT 9999 SCT020 25/21 Q1014;
0120827840999992013021604004-07317-039300FM-15+0409SBJU V0209999C000010051019N0112651N1+02501+02201999999ADDGA1071+005101999GF107991999999999999999999MA1101491999999REMMET051METAR SBJU 160400Z 00000KT 9999 BKN017 25/22 Q1015;
0120827840999992013021605004-07317-039300FM-15+0409SBJU V0200401N001510048019N0112651N1+02501+02101999999ADDGA1071+004801999GF107991999999999999999999MA1101491999999REMMET051METAR SBJU 160500Z 04003KT 9999 BKN016 25/21 Q1015;
0120827840999992013021606004-07317-039300FM-15+0409SBJU V0209999C000010048019N0112651N1+02401+02001999999ADDGA1071+004801999GF107991999999999999999999MA1101391999999REMMET051METAR SBJU 160600Z 00000KT 9999 BKN016 24/20 Q1014;
0120827840999992013021607004-07317-039300FM-15+0409SBJU V0209999C000010048019N0112651N1+02401+02001999999ADDGA1071+004801999GF107991999999999999999999MA1101391999999REMMET051METAR SBJU 160700Z 00000KT 9999 BKN016 24/20 Q1014;
0120827840999992013021608004-07317-039300FM-15+0409SBJU V0209999C000010048019N0112651N1+02401+02001999999ADDGA1071+004801999GF107991999999999999999999MA1101391999999REMMET051METAR SBJU 160800Z 00000KT 9999 BKN016 24/20 Q1014;
0143827840999992013021609004-07317-039300FM-15+0409SBJU V0209999C000010042019N0080001N1+02301+02001999999ADDGA1071+004201999GA2081+021001999GF108991999999999999999999MA1101491999999REMMET058METAR SBJU 160900Z 00000KT 8000 BKN014 OVC070 23/20 Q1015;
0120827840999992013021610004-07317-039300FM-15+0409SBJU V0209999C000010045019N0112651N1+02401+02101999999ADDGA1081+004501999GF108991999999999999999999MA1101591999999REMMET051METAR SBJU 161000Z 00000KT 9999 OVC015 24/21 Q1016;
0120827840999992013021611004-07317-039300FM-15+0409SBJU V0209999C000010054019N0112651N1+02401+02101999999ADDGA1081+005401999GF108991999999999999999999MA1101591999999REMMET051METAR SBJU 161100Z 00000KT 9999 OVC018 24/21 Q1016;
0120827840999992013021612004-07317-039300FM-15+0409SBJU V0209999C000010060019N0112651N1+02501+02101999999ADDGA1081+006001999GF108991999999999999999999MA1101591999999REMMET051METAR SBJU 161200Z 00000KT 9999 OVC020 25/21 Q1016;
0115827840999992013021613004-07317-039300FM-15+0409SBJU V0209999C00001006001CN9999999N1+02501+02101999999ADDGA1081+006001999GF108991999999999999999999MA1101701999999REMMET046METAR SBJU 161300Z 00000KT OVC020 25/21 Q1017;
0120827840999992013021614004-07317-039300FM-15+0409SBJU V0209999C000010060019N0112651N1+02501+02101999999ADDGA1071+006001999GF107991999999999999999999MA1101691999999REMMET051METAR SBJU 161400Z 00000KT 9999 BKN020 25/21 Q1017;
0120827840999992013021615004-07317-039300FM-15+0409SBJU V0209999C000010060019N0112651N1+02601+02101999999ADDGA1071+006001999GF107991999999999999999999MA1101591999999REMMET051METAR SBJU 161500Z 00000KT 9999 BKN020 26/21 Q1016;
0120827840999992013021616004-07317-039300FM-15+0409SBJU V0209999C000010060019N0112651N1+02701+02201999999ADDGA1071+006001999GF107991999999999999999999MA1101491999999REMMET051METAR SBJU 161600Z 00000KT 9999 BKN020 27/22 Q1015;
0120827840999992013021617004-07317-039300FM-15+0409SBJU V0209999C000010060019N0112651N1+02901+02101999999ADDGA1071+006001999GF107991999999999999999999MA1101391999999REMMET051METAR SBJU 161700Z 00000KT 9999 BKN020 29/21 Q1014;
0120827840999992013021618004-07317-039300FM-15+0409SBJU V0209999C000012200019N0112651N1+02901+02101999999ADDGA1041+006001999GF104991999999999999999999MA1101291999999REMMET051METAR SBJU 161800Z 00000KT 9999 SCT020 29/21 Q1013;
0120827840999992013021619004-07317-039300FM-15+0409SBJU V0209999C000012200019N0112651N1+03101+02001999999ADDGA1041+006001999GF104991999999999999999999MA1101191999999REMMET051METAR SBJU 161900Z 00000KT 9999 SCT020 31/20 Q1012;
0120827840999992013021620004-07317-039300FM-15+0409SBJU V0209999C000012200019N0112651N1+03101+02001999999ADDGA1021+006001999GF102991999999999999999999MA1101191999999REMMET051METAR SBJU 162000Z 00000KT 9999 FEW020 31/20 Q1012;
0120827840999992013021621004-07317-039300FM-15+0409SBJU V0209999C000012200019N0112651N1+02801+02101999999ADDGA1021+006001999GF102991999999999999999999MA1101191999999REMMET051METAR SBJU 162100Z 00000KT 9999 FEW020 28/21 Q1012;
0120827840999992013021622004-07317-039300FM-15+0409SBJU V0203001N001012200019N0112651N1+02701+02101999999ADDGA1041+006001999GF104991999999999999999999MA1101191999999REMMET051METAR SBJU 162200Z 30002KT 9999 SCT020 27/21 Q1012;
0120827840999992013021623004-07317-039300FM-15+0409SBJU V0202701N001012200019N0112651N1+02701+02101999999ADDGA1041+006001999GF104991999999999999999999MA1101291999999REMMET051METAR SBJU 162300Z 27002KT 9999 SCT020 27/21 Q1013;
0120827840999992013021700004-07317-039300FM-15+0409SBJU V0209999C000012200019N0112651N1+02601+02201999999ADDGA1041+006001999GF104991999999999999999999MA1101391999999REMMET051METAR SBJU 170000Z 00000KT 9999 SCT020 26/22 Q1014;
0120827840999992013021701004-07317-039300FM-15+0409SBJU V0200801N001012200019N0112651N1+02601+02201999999ADDGA1041+006001999GF104991999999999999999999MA1101491999999REMMET051METAR SBJU 170100Z 08002KT 9999 SCT020 26/22 Q1015;
0120827840999992013021702004-07317-039300FM-15+0409SBJU V0200201N001010060019N0112651N1+02501+02201999999ADDGA1071+006001999GF107991999999999999999999MA1101491999999REMMET051METAR SBJU 170200Z 02002KT 9999 BKN020 25/22 Q1015;
0149827840999992013021703004-07317-039300FM-15+0409SBJU V0201601N00411006001CN0080001N1+02501+02201999999ADDGA1071+006001999GA2021+006301021MA1101491999999MW1611REMMET065METAR SBJU 170300Z 16008KT 8000 -RA BKN020 FEW021TCU 25/22 Q1015;EQDQ01+000022SCOTCV
0156827840999992013021704004-07317-039300FM-15+0409SBJU V0209999C00001005101CN0112651N1+02401+02101999999ADDGA1071+005101999GA2021+006001091MA1101491999999MW1801MW2951REMMET066METAR SBJU 170400Z 00000KT 9999 -TSRA BKN017 FEW020CB 24/21 Q1015;EQDQ01+000022SCOTCV
0156827840999992013021705004-07317-039300FM-15+0409SBJU V0209999C00001005101CN0112651N1+02201+01901999999ADDGA1071+005101999GA2021+006001091MA1101491999999MW1801MW2951REMMET066METAR SBJU 170500Z 00000KT 9999 -TSRA BKN017 FEW020CB 22/19 Q1015;EQDQ01+000022SCOTCV
0156827840999992013021706004-07317-039300FM-15+0409SBJU V0209999C00001005101CN0112651N1+02201+01901999999ADDGA1071+005101999GA2021+006001091MA1101591999999MW1801MW2951REMMET066METAR SBJU 170600Z 00000KT 9999 -TSRA BKN017 FEW020CB 22/19 Q1016;EQDQ01+000022SCOTCV
0163827840999992013021707004-07317-039300FM-15+0409SBJU V0209999C00001006001CN0112651N1+02201+01901999999ADDGA1021+006001091GA2071+006001999GF107991999999999999999999MA1101491999999MW1801MW2951REMMET066METAR SBJU 170700Z 00000KT 9999 -TSRA FEW020CB BKN020 22/19 Q1015;
0156827840999992013021708004-07317-039300FM-15+0409SBJU V0209999C00001005101CN0112651N1+02201+02001999999ADDGA1071+005101999GA2021+006001091MA1101491999999MW1801MW2951REMMET066METAR SBJU 170800Z 00000KT 9999 -TSRA BKN017 FEW020CB 22/20 Q1015;EQDQ01+000022SCOTCV
0156827840999992013021709004-07317-039300FM-15+0409SBJU V0209999C00001005101CN0050001N1+02201+02001999999ADDGA1071+005101999GA2021+006001091MA1101591999999MW1801MW2951REMMET066METAR SBJU 170900Z 00000KT 5000 -TSRA BKN017 FEW020CB 22/20 Q1016;EQDQ01+000022SCOTCV
0143827840999992013021710004-07317-039300FM-15+0409SBJU V0201901N001010060019N0112651N1+02201+02001999999ADDGA1021+004501999GA2071+006001999GF107991999999999999999999MA1101691999999REMMET058METAR SBJU 171000Z 19002KT 9999 FEW015 BKN020 22/20 Q1017;
0143827840999992013021711004-07317-039300FM-15+0409SBJU V0201201N001010060019N0112651N1+02301+02001999999ADDGA1041+003001999GA2071+006001999GF107991999999999999999999MA1101801999999REMMET058METAR SBJU 171100Z 12002KT 9999 SCT010 BKN020 23/20 Q1018;
0153827840999992013021712004-07317-039300FM-15+0409SBJU V0209999C000010045019N0050001N1+02301+02001999999ADDGA1041+003001999GA2071+004501999GF107991999999999999999999MA1101801999999MW1611REMMET062METAR SBJU 171200Z 00000KT 5000 -RA SCT010 BKN015 23/20 Q1018;
0153827840999992013021713004-07317-039300FM-15+0409SBJU V0209999C000010045019N0030001N1+02301+01901999999ADDGA1041+003001999GA2071+004501999GF107991999999999999999999MA1101801999999MW1611REMMET062METAR SBJU 171300Z 00000KT 3000 -RA SCT010 BKN015 23/19 Q1018;
0153827840999992013021714004-07317-039300FM-15+0409SBJU V0209999C000010045019N0050001N1+02301+02101999999ADDGA1041+003001999GA2071+004501999GF107991999999999999999999MA1101801999999MW1611REMMET062METAR SBJU 171400Z 00000KT 5000 -RA SCT010 BKN015 23/21 Q1018;
0152827840999992013021715004-07317-039300FM-15+0409SBJU V0209999C000010045019N0050001N1+02301+02001999999ADDGA1041+003001999GA2071+004501999GF107991999999999999999999MA1101691999999MW1101REMMET061METAR SBJU 171500Z 00000KT 5000 BR SCT010 BKN015 23/20 Q1017;
0143827840999992013021716004-07317-039300FM-15+0409SBJU V0209999C000010045019N0112651N1+02401+02001999999ADDGA1021+003001999GA2071+004501999GF107991999999999999999999MA1101591999999REMMET058METAR SBJU 171600Z 00000KT 9999 FEW010 BKN015 24/20 Q1016;
0120827840999992013021717004-07317-039300FM-15+0409SBJU V0209999C000012200019N0112651N1+02601+02001999999ADDGA1041+004501999GF104991999999999999999999MA1101491999999REMMET051METAR SBJU 171700Z 00000KT 9999 SCT015 26/20 Q1015;
0120827840999992013021718004-07317-039300FM-15+0409SBJU V0203301N002112200019N0112651N1+02701+02001999999ADDGA1021+004501999GF102991999999999999999999MA1101391999999REMMET051METAR SBJU 171800Z 33004KT 9999 FEW015 27/20 Q1014;
0120827840999992013021719004-07317-039300FM-15+0409SBJU V0200201N001512200019N0112651N1+02801+01901999999ADDGA1021+004801999GF102991999999999999999999MA1101291999999REMMET051METAR SBJU 171900Z 02003KT 9999 FEW016 28/19 Q1013;
0120827840999992013021720004-07317-039300FM-15+0409SBJU V0200501N001012200019N0112651N1+02801+02001999999ADDGA1021+005401999GF102991999999999999999999MA1101291999999REMMET051METAR SBJU 172000Z 05002KT 9999 FEW018 28/20 Q1013;
0120827840999992013021721004-07317-039300FM-15+0409SBJU V0209999C000012200019N0112651N1+02801+02101999999ADDGA1021+005401999GF102991999999999999999999MA1101291999999REMMET051METAR SBJU 172100Z 00000KT 9999 FEW018 28/21 Q1013;
0120827840999992013021722004-07317-039300FM-15+0409SBJU V0209999C000012200019N0112651N1+02601+02201999999ADDGA1021+005401999GF102991999999999999999999MA1101391999999REMMET051METAR SBJU 172200Z 00000KT 9999 FEW018 26/22 Q1014;
0120827840999992013021723004-07317-039300FM-15+0409SBJU V0209999C000012200019N0112651N1+02601+02201999999ADDGA1021+005401999GF102991999999999999999999MA1101491999999REMMET051METAR SBJU 172300Z 00000KT 9999 FEW018 26/22 Q1015;
0143827840999992013021800004-07317-039300FM-15+0409SBJU V0200701N003110240019N0112651N1+02501+02101999999ADDGA1021+005401999GA2071+024001999GF107991999999999999999999MA1101691999999REMMET058METAR SBJU 180000Z 07006KT 9999 FEW018 BKN080 25/21 Q1017;
0153827840999992013021801004-07317-039300FM-15+0409SBJU V0201001N004110210019N0112651N1+02401+02001999999ADDGA1041+005101999GA2071+021001999GF107991999999999999999999MA1101691999999MW1611REMMET062METAR SBJU 180100Z 10008KT 9999 -RA SCT017 BKN070 24/20 Q1017;
0186827840999992013021801154-07317-039300FM-15+0409SBJU V0201001N00311005401CN0112651N1+02301+02001999999ADDGA1041+005101999GA2021+005401091GA3071+021001999GF107991999999999999999999MA1101801999999MW1801MW2951REMMET073SPECI SBJU 180115Z 10006KT 9999 -TSRA SCT017 FEW018CB BKN070 23/20 Q1018;
0184827840999992013021802004-07317-039300FM-15+0409SBJU V0209999C00001005401CN0112651N1+02301+02001999999ADDGA1041+005101999GA2021+005401021GA3071+021001999GF107991999999999999999999MA1101691999999MW1611REMMET077METAR SBJU 180200Z 00000KT 9999 -RA SCT017 FEW018TCU BKN070 23/20 Q1017 RETS;
0169827840999992013021803004-07317-039300FM-15+0409SBJU V0209999C00001006301CN0112651N1+02301+02001999999ADDGA1041+006001999GA2021+006301021GA3071+021001999GF107991999999999999999999MA1101591999999REMMET068METAR SBJU 180300Z 00000KT 9999 SCT020 FEW021TCU BKN070 23/20 Q1016;
0120827840999992013021804004-07317-039300FM-15+0409SBJU V0209999C000012200019N0112651N1+02301+02001999999ADDGA1041+006001999GF104991999999999999999999MA1101591999999REMMET051METAR SBJU 180400Z 00000KT 9999 SCT020 23/20 Q1016;
0120827840999992013021805004-07317-039300FM-15+0409SBJU V0209999C000012200019N0112651N1+02301+02001999999ADDGA1041+006001999GF104991999999999999999999MA1101491999999REMMET051METAR SBJU 180500Z 00000KT 9999 SCT020 23/20 Q1015;
0120827840999992013021806004-07317-039300FM-15+0409SBJU V0209999C000012200019N0112651N1+02301+02001999999ADDGA1041+006001999GF104991999999999999999999MA1101491999999REMMET051METAR SBJU 180600Z 00000KT 9999 SCT020 23/20 Q1015;
0120827840999992013021807004-07317-039300FM-15+0409SBJU V0209999C000010060019N0112651N1+02301+02001999999ADDGA1071+006001999GF107991999999999999999999MA1101491999999REMMET051METAR SBJU 180700Z 00000KT 9999 BKN020 23/20 Q1015;
0120827840999992013021808004-07317-039300FM-15+0409SBJU V0209999C000010060019N0112651N1+02301+02001999999ADDGA1071+006001999GF107991999999999999999999MA1101491999999REMMET051METAR SBJU 180800Z 00000KT 9999 BKN020 23/20 Q1015;
0120827840999992013021809004-07317-039300FM-15+0409SBJU V0209999C000010060019N0112651N1+02301+02001999999ADDGA1071+006001999GF107991999999999999999999MA1101491999999REMMET051METAR SBJU 180900Z 00000KT 9999 BKN020 23/20 Q1015;
0120827840999992013021810004-07317-039300FM-15+0409SBJU V0202301N001010060019N0112651N1+02301+02001999999ADDGA1071+006001999GF107991999999999999999999MA1101591999999REMMET051METAR SBJU 181000Z 23002KT 9999 BKN020 23/20 Q1016;
0143827840999992013021811004-07317-039300FM-15+0409SBJU V0201601N001010069019N0112651N1+02401+02001999999ADDGA1021+006001999GA2071+006901999GF107991999999999999999999MA1101691999999REMMET058METAR SBJU 181100Z 16002KT 9999 FEW020 BKN023 24/20 Q1017;
0120827840999992013021812004-07317-039300FM-15+0409SBJU V0200801N001510069019N0112651N1+02701+02001999999ADDGA1071+006901999GF107991999999999999999999MA1101691999999REMMET051METAR SBJU 181200Z 08003KT 9999 BKN023 27/20 Q1017;
0120827840999992013021813004-07317-039300FM-15+0409SBJU V0201301N003110069019N0112651N1+02801+02101999999ADDGA1071+006901999GF107991999999999999999999MA1101691999999REMMET051METAR SBJU 181300Z 13006KT 9999 BKN023 28/21 Q1017;
0120827840999992013021814004-07317-039300FM-15+0409SBJU V0201101N004110069019N0112651N1+02901+02001999999ADDGA1071+006901999GF107991999999999999999999MA1101591999999REMMET051METAR SBJU 181400Z 11008KT 9999 BKN023 29/20 Q1016;
0120827840999992013021815004-07317-039300FM-15+0409SBJU V0201601N003110069019N0112651N1+03001+01901999999ADDGA1071+006901999GF107991999999999999999999MA1101591999999REMMET051METAR SBJU 181500Z 16006KT 9999 BKN023 30/19 Q1016;
0120827840999992013021816004-07317-039300FM-15+0409SBJU V0201401N003110069019N0112651N1+03101+02101999999ADDGA1071+006901999GF107991999999999999999999MA1101491999999REMMET051METAR SBJU 181600Z 14006KT 9999 BKN023 31/21 Q1015;
0120827840999992013021817004-07317-039300FM-15+0409SBJU V0201901N004112200019N0112651N1+03201+01801999999ADDGA1041+006901999GF104991999999999999999999MA1101391999999REMMET051METAR SBJU 181700Z 19008KT 9999 SCT023 32/18 Q1014;
0120827840999992013021818004-07317-039300FM-15+0409SBJU V0202001N005112200019N0112651N1+03201+01701999999ADDGA1021+006901999GF102991999999999999999999MA1101291999999REMMET051METAR SBJU 181800Z 20010KT 9999 FEW023 32/17 Q1013;
0120827840999992013021819004-07317-039300FM-15+0409SBJU V0201901N003112200019N0112651N1+03201+01701999999ADDGA1021+006901999GF102991999999999999999999MA1101191999999REMMET051METAR SBJU 181900Z 19006KT 9999 FEW023 32/17 Q1012;
0120827840999992013021820004-07317-039300FM-15+0409SBJU V0209999C000012200019N0112651N1+03001+02001999999ADDGA1021+006901999GF102991999999999999999999MA1101191999999REMMET051METAR SBJU 182000Z 00000KT 9999 FEW023 30/20 Q1012;
0120827840999992013021821004-07317-039300FM-15+0409SBJU V0201701N001512200019N0112651N1+03001+01801999999ADDGA1021+006901999GF102991999999999999999999MA1101291999999REMMET051METAR SBJU 182100Z 17003KT 9999 FEW023 30/18 Q1013;
0120827840999992013021822004-07317-039300FM-15+0409SBJU V0209999C000012200019N0112651N1+02901+01901999999ADDGA1021+006301999GF102991999999999999999999MA1101291999999REMMET051METAR SBJU 182200Z 00000KT 9999 FEW021 29/19 Q1013;
0120827840999992013021823004-07317-039300FM-15+0409SBJU V0209999C000012200019N0112651N1+02801+01901999999ADDGA1021+006301999GF102991999999999999999999MA1101291999999REMMET051METAR SBJU 182300Z 00000KT 9999 FEW021 28/19 Q1013;
0120827840999992013021900004-07317-039300FM-15+0409SBJU V0209999C000012200019N0112651N1+02601+02201999999ADDGA1021+006301999GF102991999999999999999999MA1101491999999REMMET051METAR SBJU 190000Z 00000KT 9999 FEW021 26/22 Q1015;
0120827840999992013021901004-07317-039300FM-15+0409SBJU V0209999C000012200019N0112651N1+02701+02101999999ADDGA1021+006301999GF102991999999999999999999MA1101491999999REMMET051METAR SBJU 190100Z 00000KT 9999 FEW021 27/21 Q1015;
0120827840999992013021902004-07317-039300FM-15+0409SBJU V0209999C000012200019N0112651N1+02601+02001999999ADDGA1021+006001999GF102991999999999999999999MA1101491999999REMMET051METAR SBJU 190200Z 00000KT 9999 FEW020 26/20 Q1015;
0120827840999992013021903004-07317-039300FM-15+0409SBJU V0209999C000012200019N0112651N1+02601+02001999999ADDGA1021+006001999GF102991999999999999999999MA1101491999999REMMET051METAR SBJU 190300Z 00000KT 9999 FEW020 26/20 Q1015;
0120827840999992013021904004-07317-039300FM-15+0409SBJU V0209999C000012200019N0112651N1+02501+02001999999ADDGA1041+006001999GF104991999999999999999999MA1101491999999REMMET051METAR SBJU 190400Z 00000KT 9999 SCT020 25/20 Q1015;
0120827840999992013021905004-07317-039300FM-15+0409SBJU V0209999C000012200019N0112651N1+02501+02001999999ADDGA1041+006001999GF104991999999999999999999MA1101491999999REMMET051METAR SBJU 190500Z 00000KT 9999 SCT020 25/20 Q1015;
0130827840999992013021906004-07317-039300FM-15+0409SBJU V0209999C000010060019N0112651N1+02401+02101999999ADDGA1071+006001999GF107991999999999999999999MA1101391999999MW1611REMMET055METAR SBJU 190600Z 00000KT 9999 -RA BKN020 24/21 Q1014;
0129827840999992013021906304-07317-039300FM-15+0409SBJU V0209999C000010060019N0030001N1+02301+02101999999ADDGA1071+006001999GF107991999999999999999999MA1101491999999MW1631REMMET054SPECI SBJU 190630Z 00000KT 3000 RA BKN020 23/21 Q1015;
0135827840999992013021907004-07317-039300FM-15+0409SBJU V0209999C000010060019N0050001N1+02301+02101999999ADDGA1071+006001999GF107991999999999999999999MA1101391999999MW1611REMMET060METAR SBJU 190700Z 00000KT 5000 -RA BKN020 23/21 Q1014 RERA;
0120827840999992013021908004-07317-039300FM-15+0409SBJU V0209999C000010060019N0112651N1+02301+02101999999ADDGA1071+006001999GF107991999999999999999999MA1101491999999REMMET051METAR SBJU 190800Z 00000KT 9999 BKN020 23/21 Q1015;
0120827840999992013021909004-07317-039300FM-15+0409SBJU V0209999C000010060019N0112651N1+02301+02101999999ADDGA1071+006001999GF107991999999999999999999MA1101491999999REMMET051METAR SBJU 190900Z 00000KT 9999 BKN020 23/21 Q1015;
0166827840999992013021910004-07317-039300FM-15+0409SBJU V0209999C00001004501CN0112651N1+02401+02101999999ADDGA1021+003001999GA2041+004501999GA3081+021001999GF108991999999999999999999MA1101491999999REMMET065METAR SBJU 191000Z 00000KT 9999 FEW010 SCT015 OVC070 24/21 Q1015;
0166827840999992013021911004-07317-039300FM-15+0409SBJU V0209999C00001004501CN0112651N1+02501+02101999999ADDGA1021+003001999GA2041+004501999GA3081+021001999GF108991999999999999999999MA1101591999999REMMET065METAR SBJU 191100Z 00000KT 9999 FEW010 SCT015 OVC070 25/21 Q1016;
0143827840999992013021912004-07317-039300FM-15+0409SBJU V0201801N003610210019N0112651N1+02601+02001999999ADDGA1041+003001999GA2071+021001999GF107991999999999999999999MA1101591999999REMMET058METAR SBJU 191200Z 18007KT 9999 SCT010 BKN070 26/20 Q1016;
0143827840999992013021913004-07317-039300FM-15+0409SBJU V0202101N003610210019N0112651N1+02701+02001999999ADDGA1021+003001999GA2071+021001999GF107991999999999999999999MA1101591999999REMMET058METAR SBJU 191300Z 21007KT 9999 FEW010 BKN070 27/20 Q1016;
0166827840999992013021914004-07317-039300FM-15+0409SBJU V0201401N00411004501CN0112651N1+02801+02001999999ADDGA1021+003001999GA2041+004501999GA3071+021001999GF107991999999999999999999MA1101591999999REMMET065METAR SBJU 191400Z 14008KT 9999 FEW010 SCT015 BKN070 28/20 Q1016;
0166827840999992013021915004-07317-039300FM-15+0409SBJU V0201401N00311006001CN0112651N1+02901+01901999999ADDGA1021+004501999GA2041+006001999GA3071+021001999GF107991999999999999999999MA1101491999999REMMET065METAR SBJU 191500Z 14006KT 9999 FEW015 SCT020 BKN070 29/19 Q1015;
0166827840999992013021916004-07317-039300FM-15+0409SBJU V0209999C000010060019N0112651N1+02901+02001999999ADDGA1021+004501999GA2071+006001999GA3071+021001999GF107991999999999999999999MA1101491999999REMMET065METAR SBJU 191600Z 00000KT 9999 FEW015 BKN020 BKN070 29/20 Q1015;
0136827840999992013021917004-07317-039300FM-15+0409SBJU V0209999C00001006001CN0112651N1+03001+02001999999ADDGA1071+006001999GA2041+021001999MA1101291999999REMMET058METAR SBJU 191700Z 00000KT 9999 BKN020 SCT070 30/20 Q1013;EQDQ01+000042SCOTCV
0120827840999992013021918004-07317-039300FM-15+0409SBJU V0200401N002610060019N0112651N1+02801+02101999999ADDGA1071+006001999GF107991999999999999999999MA1101291999999REMMET051METAR SBJU 191800Z 04005KT 9999 BKN020 28/21 Q1013;
0158827840999992013021919004-07317-039300FM-15+0409SBJU V0201401N003612200019N0060001N1+02601+02201999999ADDGA1041+006001999GA2041+006301021GF104991999999999999999999MA1101291999999MW1801REMMET067METAR SBJU 191900Z 14007KT 6000 -SHRA SCT020 SCT021TCU 26/22 Q1013;
0150827840999992013021920004-07317-039300FM-15+0409SBJU V0201001N002112200019N0112651N1+02601+02201999999ADDGA1041+006001999GA2041+021001999GF104991999999999999999999MA1101291999999REMMET065METAR SBJU 192000Z 10004KT 9999 SCT020 SCT070 26/22 Q1013 RESHRA;
0143827840999992013021921004-07317-039300FM-15+0409SBJU V0209999C000012200019N0112651N1+02601+02201999999ADDGA1021+006001999GA2041+021001999GF104991999999999999999999MA1101291999999REMMET058METAR SBJU 192100Z 00000KT 9999 FEW020 SCT070 26/22 Q1013;
0143827840999992013021922004-07317-039300FM-15+0409SBJU V0209999C000010210019N0112651N1+02601+02101999999ADDGA1041+006001999GA2071+021001999GF107991999999999999999999MA1101291999999REMMET058METAR SBJU 192200Z 00000KT 9999 SCT020 BKN070 26/21 Q1013;
0120827840999992013021923004-07317-039300FM-15+0409SBJU V0209999C000010060019N0112651N1+02601+02101999999ADDGA1071+006001999GF107991999999999999999999MA1101391999999REMMET051METAR SBJU 192300Z 00000KT 9999 BKN020 26/21 Q1014;
0120827840999992013022000004-07317-039300FM-15+0409SBJU V0209999C000010054019N0112651N1+02501+02001999999ADDGA1071+005401999GF107991999999999999999999MA1101491999999REMMET051METAR SBJU 200000Z 00000KT 9999 BKN018 25/20 Q1015;
0120827840999992013022001004-07317-039300FM-15+0409SBJU V0209999C000012200019N0112651N1+02401+02101999999ADDGA1041+005401999GF104991999999999999999999MA1101491999999REMMET051METAR SBJU 200100Z 00000KT 9999 SCT018 24/21 Q1015;
0120827840999992013022002004-07317-039300FM-15+0409SBJU V0209999C000012200019N0112651N1+02401+02001999999ADDGA1041+005101999GF104991999999999999999999MA1101491999999REMMET051METAR SBJU 200200Z 00000KT 9999 SCT017 24/20 Q1015;
0120827840999992013022003004-07317-039300FM-15+0409SBJU V0209999C000012200019N0112651N1+02301+02001999999ADDGA1021+005401999GF102991999999999999999999MA1101391999999REMMET051METAR SBJU 200300Z 00000KT 9999 FEW018 23/20 Q1014;
0143827840999992013022004004-07317-039300FM-15+0409SBJU V0209999C000010210019N0112651N1+02401+99999999999ADDGA1021+005101999GA2071+021001999GF107991999999999999999999MA1101391999999REMMET058METAR SBJU 200400Z 00000KT 9999 FEW017 BKN070 24/// Q1014;
0143827840999992013022005004-07317-039300FM-15+0409SBJU V0209999C000010210019N0112651N1+02401+99999999999ADDGA1021+006001999GA2071+021001999GF107991999999999999999999MA1101391999999REMMET058METAR SBJU 200500Z 00000KT 9999 FEW020 BKN070 24/// Q1014;
0143827840999992013022006004-07317-039300FM-15+0409SBJU V0209999C000010210019N0112651N1+02401+99999999999ADDGA1021+006001999GA2071+021001999GF107991999999999999999999MA1101291999999REMMET058METAR SBJU 200600Z 00000KT 9999 FEW020 BKN070 24/// Q1013;
0143827840999992013022007004-07317-039300FM-15+0409SBJU V0201801N001010210019N0112651N1+02401+99999999999ADDGA1021+006001999GA2071+021001999GF107991999999999999999999MA1101391999999REMMET058METAR SBJU 200700Z 18002KT 9999 FEW020 BKN070 24/// Q1014;
0143827840999992013022008004-07317-039300FM-15+0409SBJU V0202101N002110210019N0112651N1+02401+99999999999ADDGA1021+006001999GA2071+021001999GF107991999999999999999999MA1101391999999REMMET058METAR SBJU 200800Z 21004KT 9999 FEW020 BKN070 24/// Q1014;
0143827840999992013022009004-07317-039300FM-15+0409SBJU V0209999C000010210019N0112651N1+02401+02101999999ADDGA1041+006001999GA2071+021001999GF107991999999999999999999MA1101391999999REMMET058METAR SBJU 200900Z 00000KT 9999 SCT020 BKN070 24/21 Q1014;
0143827840999992013022010004-07317-039300FM-15+0409SBJU V0201801N001510210019N0112651N1+02501+02001999999ADDGA1041+006001999GA2071+021001999GF107991999999999999999999MA1101491999999REMMET058METAR SBJU 201000Z 18003KT 9999 SCT020 BKN070 25/20 Q1015;
0136827840999992013022011004-07317-039300FM-15+0409SBJU V0201701N00411006001CN0112651N1+02701+01901999999ADDGA1071+006001999GA2041+021001999MA1101591999999REMMET058METAR SBJU 201100Z 17008KT 9999 BKN020 SCT070 27/19 Q1016;EQDQ01+000042SCOTCV
0136827840999992013022012004-07317-039300FM-15+0409SBJU V0201601N00571006001CN0112651N1+02701+02001999999ADDGA1071+006001999GA2041+021001999MA1101591999999REMMET058METAR SBJU 201200Z 16011KT 9999 BKN020 SCT070 27/20 Q1016;EQDQ01+000042SCOTCV
0120827840999992013022013004-07317-039300FM-15+0409SBJU V0201601N004610060019N0112651N1+02801+01901999999ADDGA1071+006001999GF107991999999999999999999MA1101591999999REMMET051METAR SBJU 201300Z 16009KT 9999 BKN020 28/19 Q1016;
0120827840999992013022014004-07317-039300FM-15+0409SBJU V0201701N003610021019N0112651N1+02901+02101999999ADDGA1071+002101999GF107991999999999999999999MA1101591999999REMMET051METAR SBJU 201400Z 17007KT 9999 BKN007 29/21 Q1016;
0120827840999992013022015004-07317-039300FM-15+0409SBJU V0201601N004110060019N0112651N1+03001+02101999999ADDGA1071+006001999GF107991999999999999999999MA1101491999999REMMET051METAR SBJU 201500Z 16008KT 9999 BKN020 30/21 Q1015;
0120827840999992013022016004-07317-039300FM-15+0409SBJU V0201901N003610060019N0112651N1+03001+01901999999ADDGA1071+006001999GF107991999999999999999999MA1101391999999REMMET051METAR SBJU 201600Z 19007KT 9999 BKN020 30/19 Q1014;
0120827840999992013022017004-07317-039300FM-15+0409SBJU V0202101N001510060019N0112651N1+03101+01801999999ADDGA1071+006001999GF107991999999999999999999MA1101291999999REMMET051METAR SBJU 201700Z 21003KT 9999 BKN020 31/18 Q1013;
0120827840999992013022018004-07317-039300FM-15+0409SBJU V0202101N002612200019N0112651N1+03101+01801999999ADDGA1041+006001999GF104991999999999999999999MA1101191999999REMMET051METAR SBJU 201800Z 21005KT 9999 SCT020 31/18 Q1012;
0120827840999992013022019004-07317-039300FM-15+0409SBJU V0202001N004112200019N0112651N1+03201+01701999999ADDGA1021+006001999GF102991999999999999999999MA1101191999999REMMET051METAR SBJU 201900Z 20008KT 9999 FEW020 32/17 Q1012;
0120827840999992013022020004-07317-039300FM-15+0409SBJU V0209999C000012200019N0112651N1+03101+01701999999ADDGA1021+006001999GF102991999999999999999999MA1101191999999REMMET051METAR SBJU 202000Z 00000KT 9999 FEW020 31/17 Q1012;
0120827840999992013022021004-07317-039300FM-15+0409SBJU V0201901N001512200019N0112651N1+03001+01701999999ADDGA1041+006001999GF104991999999999999999999MA1101191999999REMMET051METAR SBJU 202100Z 19003KT 9999 SCT020 30/17 Q1012;
0072827840999992013022022004-07317-039300FM-15+0409SBJU V0209999C000019999999Y0099001N1+02901+01701999999ADDMA1101191999999REMMET045METAR SBJU 202200Z 00000KT CAVOK 29/17 Q1012;
0072827840999992013022023004-07317-039300FM-15+0409SBJU V0209999C000019999999Y0099001N1+02701+01801999999ADDMA1101291999999REMMET045METAR SBJU 202300Z 00000KT CAVOK 27/18 Q1013;
0072827840999992013022100004-07317-039300FM-15+0409SBJU V0209999C000019999999Y0099001N1+02701+01901999999ADDMA1101391999999REMMET045METAR SBJU 210000Z 00000KT CAVOK 27/19 Q1014;
0072827840999992013022101004-07317-039300FM-15+0409SBJU V0209999C000019999999Y0099001N1+02801+01701999999ADDMA1101391999999REMMET045METAR SBJU 210100Z 00000KT CAVOK 28/17 Q1014;
0120827840999992013022102004-07317-039300FM-15+0409SBJU V0209999C000012200019N0112651N1+02601+01801999999ADDGA1041+006001999GF104991999999999999999999MA1101391999999REMMET051METAR SBJU 210200Z 00000KT 9999 SCT020 26/18 Q1014;
0120827840999992013022103004-07317-039300FM-15+0409SBJU V0209999C000012200019N0112651N1+02701+01601999999ADDGA1041+006001999GF104991999999999999999999MA1101391999999REMMET051METAR SBJU 210300Z 00000KT 9999 SCT020 27/16 Q1014;
0120827840999992013022104004-07317-039300FM-15+0409SBJU V0201701N003610060019N0112651N1+02601+01701999999ADDGA1071+006001999GF107991999999999999999999MA1101291999999REMMET051METAR SBJU 210400Z 17007KT 9999 BKN020 26/17 Q1013;
0120827840999992013022105004-07317-039300FM-15+0409SBJU V0201601N001010060019N0112651N1+02601+01701999999ADDGA1071+006001999GF107991999999999999999999MA1101291999999REMMET051METAR SBJU 210500Z 16002KT 9999 BKN020 26/17 Q1013;
0120827840999992013022106004-07317-039300FM-15+0409SBJU V0201401N003110060019N0112651N1+02501+01801999999ADDGA1071+006001999GF107991999999999999999999MA1101291999999REMMET051METAR SBJU 210600Z 14006KT 9999 BKN020 25/18 Q1013;
0120827840999992013022107004-07317-039300FM-15+0409SBJU V0209999C000010060019N0112651N1+02501+01801999999ADDGA1071+006001999GF107991999999999999999999MA1101291999999REMMET051METAR SBJU 210700Z 00000KT 9999 BKN020 25/18 Q1013;
0120827840999992013022108004-07317-039300FM-15+0409SBJU V0201201N001010060019N0112651N1+02501+01801999999ADDGA1071+006001999GF107991999999999999999999MA1101391999999REMMET051METAR SBJU 210800Z 12002KT 9999 BKN020 25/18 Q1014;
0120827840999992013022109004-07317-039300FM-15+0409SBJU V0201601N001512200019N0112651N1+02501+01801999999ADDGA1041+006001999GF104991999999999999999999MA1101391999999REMMET051METAR SBJU 210900Z 16003KT 9999 SCT020 25/18 Q1014;
0120827840999992013022110004-07317-039300FM-15+0409SBJU V0209999C000012200019N0112651N1+02601+01901999999ADDGA1021+006001999GF102991999999999999999999MA1101491999999REMMET051METAR SBJU 211000Z 00000KT 9999 FEW020 26/19 Q1015;
0120827840999992013022111004-07317-039300FM-15+0409SBJU V0201601N003612200019N0112651N1+02701+01901999999ADDGA1021+006601999GF102991999999999999999999MA1101591999999REMMET051METAR SBJU 211100Z 16007KT 9999 FEW022 27/19 Q1016;
0120827840999992013022112004-07317-039300FM-15+0409SBJU V0201501N003612200019N0112651N1+02701+01901999999ADDGA1021+006601999GF102991999999999999999999MA1101591999999REMMET051METAR SBJU 211200Z 15007KT 9999 FEW022 27/19 Q1016;
0120827840999992013022113004-07317-039300FM-15+0409SBJU V0201401N003612200019N0112651N1+02901+01801999999ADDGA1021+006601999GF102991999999999999999999MA1101591999999REMMET051METAR SBJU 211300Z 14007KT 9999 FEW022 29/18 Q1016;
0120827840999992013022114004-07317-039300FM-15+0409SBJU V0201401N005112200019N0112651N1+02901+01801999999ADDGA1021+006601999GF102991999999999999999999MA1101591999999REMMET051METAR SBJU 211400Z 14010KT 9999 FEW022 29/18 Q1016;
0120827840999992013022115004-07317-039300FM-15+0409SBJU V0201401N003612200019N0112651N1+03101+01801999999ADDGA1021+006601999GF102991999999999999999999MA1101491999999REMMET051METAR SBJU 211500Z 14007KT 9999 FEW022 31/18 Q1015;
0120827840999992013022116004-07317-039300FM-15+0409SBJU V0201701N003612200019N0112651N1+03101+01701999999ADDGA1021+006601999GF102991999999999999999999MA1101391999999REMMET051METAR SBJU 211600Z 17007KT 9999 FEW022 31/17 Q1014;
0120827840999992013022117004-07317-039300FM-15+0409SBJU V0201701N003112200019N0112651N1+03201+01701999999ADDGA1021+006601999GF102991999999999999999999MA1101191999999REMMET051METAR SBJU 211700Z 17006KT 9999 FEW022 32/17 Q1012;
0120827840999992013022118004-07317-039300FM-15+0409SBJU V0201701N003612200019N0112651N1+03301+01701999999ADDGA1021+006601999GF102991999999999999999999MA1101191999999REMMET051METAR SBJU 211800Z 17007KT 9999 FEW022 33/17 Q1012;
0120827840999992013022119004-07317-039300FM-15+0409SBJU V0201701N002612200019N0112651N1+03301+01501999999ADDGA1021+006901999GF102991999999999999999999MA1101081999999REMMET051METAR SBJU 211900Z 17005KT 9999 FEW023 33/15 Q1011;
0072827840999992013022120004-07317-039300FM-15+0409SBJU V0209999C000019999999Y0099001N1+03301+01501999999ADDMA1101081999999REMMET045METAR SBJU 212000Z 00000KT CAVOK 33/15 Q1011;
0120827840999992013022121004-07317-039300FM-15+0409SBJU V0209999C000012200019N0112651N1+03201+01701999999ADDGA1021+006001999GF102991999999999999999999MA1101191999999REMMET051METAR SBJU 212100Z 00000KT 9999 FEW020 32/17 Q1012;
0120827840999992013022122004-07317-039300FM-15+0409SBJU V0209999C000012200019N0112651N1+03001+01801999999ADDGA1021+006001999GF102991999999999999999999MA1101191999999REMMET051METAR SBJU 212200Z 00000KT 9999 FEW020 30/18 Q1012;
0120827840999992013022123004-07317-039300FM-15+0409SBJU V0200801N001512200019N0112651N1+02901+02001999999ADDGA1021+006001999GF102991999999999999999999MA1101291999999REMMET051METAR SBJU 212300Z 08003KT 9999 FEW020 29/20 Q1013;
0120827840999992013022200004-07317-039300FM-15+0409SBJU V0209999C000012200019N0112651N1+02901+01701999999ADDGA1041+006001999GF104991999999999999999999MA1101391999999REMMET051METAR SBJU 220000Z 00000KT 9999 SCT020 29/17 Q1014;
0120827840999992013022201004-07317-039300FM-15+0409SBJU V0201301N001512200019N0112651N1+02801+01801999999ADDGA1041+006001999GF104991999999999999999999MA1101491999999REMMET051METAR SBJU 220100Z 13003KT 9999 SCT020 28/18 Q1015;
0120827840999992013022202004-07317-039300FM-15+0409SBJU V0209999C000012200019N0112651N1+02701+01801999999ADDGA1041+006001999GF104991999999999999999999MA1101591999999REMMET051METAR SBJU 220200Z 00000KT 9999 SCT020 27/18 Q1016;
0120827840999992013022203004-07317-039300FM-15+0409SBJU V0209999C000012200019N0112651N1+02701+01801999999ADDGA1041+006001999GF104991999999999999999999MA1101591999999REMMET051METAR SBJU 220300Z 00000KT 9999 SCT020 27/18 Q1016;
0120827840999992013022204004-07317-039300FM-15+0409SBJU V0201201N003612200019N0112651N1+02601+01901999999ADDGA1041+006001999GF104991999999999999999999MA1101391999999REMMET051METAR SBJU 220400Z 12007KT 9999 SCT020 26/19 Q1014;
0120827840999992013022205004-07317-039300FM-15+0409SBJU V0209999C000012200019N0112651N1+02601+01901999999ADDGA1041+006001999GF104991999999999999999999MA1101391999999REMMET051METAR SBJU 220500Z 00000KT 9999 SCT020 26/19 Q1014;
0120827840999992013022206004-07317-039300FM-15+0409SBJU V0209999C000010060019N0112651N1+02501+01901999999ADDGA1071+006001999GF107991999999999999999999MA1101391999999REMMET051METAR SBJU 220600Z 00000KT 9999 BKN020 25/19 Q1014;
0120827840999992013022207004-07317-039300FM-15+0409SBJU V0209999C000010060019N0112651N1+02401+01901999999ADDGA1071+006001999GF107991999999999999999999MA1101291999999REMMET051METAR SBJU 220700Z 00000KT 9999 BKN020 24/19 Q1013;
0120827840999992013022208004-07317-039300FM-15+0409SBJU V0209999C000012200019N0112651N1+02401+01901999999ADDGA1041+006001999GF104991999999999999999999MA1101391999999REMMET051METAR SBJU 220800Z 00000KT 9999 SCT020 24/19 Q1014;
0120827840999992013022209004-07317-039300FM-15+0409SBJU V0209999C000012200019N0112651N1+02301+01901999999ADDGA1021+006001999GF102991999999999999999999MA1101491999999REMMET051METAR SBJU 220900Z 00000KT 9999 FEW020 23/19 Q1015;
0120827840999992013022210004-07317-039300FM-15+0409SBJU V0201401N001012200019N0112651N1+02501+01901999999ADDGA1021+006301999GF102991999999999999999999MA1101491999999REMMET051METAR SBJU 221000Z 14002KT 9999 FEW021 25/19 Q1015;
0120827840999992013022211004-07317-039300FM-15+0409SBJU V0201301N002112200019N0112651N1+02601+01801999999ADDGA1021+006301999GF102991999999999999999999MA1101591999999REMMET051METAR SBJU 221100Z 13004KT 9999 FEW021 26/18 Q1016;
0120827840999992013022212004-07317-039300FM-15+0409SBJU V0201201N004612200019N0112651N1+02701+01601999999ADDGA1021+006301999GF102991999999999999999999MA1101591999999REMMET051METAR SBJU 221200Z 12009KT 9999 FEW021 27/16 Q1016;
0120827840999992013022213004-07317-039300FM-15+0409SBJU V0201401N002612200019N0112651N1+02801+01601999999ADDGA1021+006301999GF102991999999999999999999MA1101591999999REMMET051METAR SBJU 221300Z 14005KT 9999 FEW021 28/16 Q1016;
0120827840999992013022214004-07317-039300FM-15+0409SBJU V0201201N003112200019N0112651N1+02901+01601999999ADDGA1021+006301999GF102991999999999999999999MA1101591999999REMMET051METAR SBJU 221400Z 12006KT 9999 FEW021 29/16 Q1016;
0120827840999992013022215004-07317-039300FM-15+0409SBJU V0201001N003112200019N0112651N1+02901+01601999999ADDGA1021+006301999GF102991999999999999999999MA1101491999999REMMET051METAR SBJU 221500Z 10006KT 9999 FEW021 29/16 Q1015;
0120827840999992013022216004-07317-039300FM-15+0409SBJU V0209999C000012200019N0112651N1+03101+01901999999ADDGA1021+006301999GF102991999999999999999999MA1101391999999REMMET051METAR SBJU 221600Z 00000KT 9999 FEW021 31/19 Q1014;
0120827840999992013022217004-07317-039300FM-15+0409SBJU V0209999C000012200019N0112651N1+03101+01501999999ADDGA1021+006301999GF102991999999999999999999MA1101291999999REMMET051METAR SBJU 221700Z 00000KT 9999 FEW021 31/15 Q1013;
0120827840999992013022218004-07317-039300FM-15+0409SBJU V0209999C000012200019N0112651N1+03201+01401999999ADDGA1021+006301999GF102991999999999999999999MA1101191999999REMMET051METAR SBJU 221800Z 00000KT 9999 FEW021 32/14 Q1012;
0120827840999992013022219004-07317-039300FM-15+0409SBJU V0209999C000012200019N0112651N1+03201+01301999999ADDGA1021+006301999GF102991999999999999999999MA1101191999999REMMET051METAR SBJU 221900Z 00000KT 9999 FEW021 32/13 Q1012;
0120827840999992013022220004-07317-039300FM-15+0409SBJU V0209999C000012200019N0112651N1+03201+01601999999ADDGA1021+006001999GF102991999999999999999999MA1101191999999REMMET051METAR SBJU 222000Z 00000KT 9999 FEW020 32/16 Q1012;
0120827840999992013022221004-07317-039300FM-15+0409SBJU V0209999C000012200019N0112651N1+03101+01601999999ADDGA1021+006301999GF102991999999999999999999MA1101191999999REMMET051METAR SBJU 222100Z 00000KT 9999 FEW021 31/16 Q1012;
0120827840999992013022222004-07317-039300FM-15+0409SBJU V0209999C000012200019N0112651N1+02901+01701999999ADDGA1021+006301999GF102991999999999999999999MA1101291999999REMMET051METAR SBJU 222200Z 00000KT 9999 FEW021 29/17 Q1013;
0120827840999992013022223004-07317-039300FM-15+0409SBJU V0209999C000012200019N0112651N1+02801+01801999999ADDGA1021+006301999GF102991999999999999999999MA1101391999999REMMET051METAR SBJU 222300Z 00000KT 9999 FEW021 28/18 Q1014;
0120827840999992013022300004-07317-039300FM-15+0409SBJU V0209999C000012200019N0112651N1+02701+01801999999ADDGA1021+006001999GF102991999999999999999999MA1101491999999REMMET051METAR SBJU 230000Z 00000KT 9999 FEW020 27/18 Q1015;
0120827840999992013022301004-07317-039300FM-15+0409SBJU V0209999C000012200019N0112651N1+02701+01801999999ADDGA1021+006001999GF102991999999999999999999MA1101491999999REMMET051METAR SBJU 230100Z 00000KT 9999 FEW020 27/18 Q1015;
0120827840999992013022302004-07317-039300FM-15+0409SBJU V0209999C000012200019N0112651N1+02501+01901999999ADDGA1041+006001999GF104991999999999999999999MA1101491999999REMMET051METAR SBJU 230200Z 00000KT 9999 SCT020 25/19 Q1015;
0120827840999992013022303004-07317-039300FM-15+0409SBJU V0209999C000012200019N0112651N1+02501+01901999999ADDGA1041+006001999GF104991999999999999999999MA1101491999999REMMET051METAR SBJU 230300Z 00000KT 9999 SCT020 25/19 Q1015;
0120827840999992013022304004-07317-039300FM-15+0409SBJU V0209999C000010057019N0112651N1+02601+01901999999ADDGA1071+005701999GF107991999999999999999999MA1101391999999REMMET051METAR SBJU 230400Z 00000KT 9999 BKN019 26/19 Q1014;
0120827840999992013022305004-07317-039300FM-15+0409SBJU V0209999C000010057019N0112651N1+02601+01901999999ADDGA1071+005701999GF107991999999999999999999MA1101391999999REMMET051METAR SBJU 230500Z 00000KT 9999 BKN019 26/19 Q1014;
0120827840999992013022306004-07317-039300FM-15+0409SBJU V0201401N001010057019N0112651N1+02501+02001999999ADDGA1071+005701999GF107991999999999999999999MA1101391999999REMMET051METAR SBJU 230600Z 14002KT 9999 BKN019 25/20 Q1014;
0120827840999992013022307004-07317-039300FM-15+0409SBJU V0209999C000010060019N0112651N1+02501+01901999999ADDGA1071+006001999GF107991999999999999999999MA1101391999999REMMET051METAR SBJU 230700Z 00000KT 9999 BKN020 25/19 Q1014;
0120827840999992013022308004-07317-039300FM-15+0409SBJU V0209999C000010060019N0112651N1+02501+01901999999ADDGA1071+006001999GF107991999999999999999999MA1101491999999REMMET051METAR SBJU 230800Z 00000KT 9999 BKN020 25/19 Q1015;
0120827840999992013022309004-07317-039300FM-15+0409SBJU V0201401N001010060019N0112651N1+02401+01901999999ADDGA1071+006001999GF107991999999999999999999MA1101491999999REMMET051METAR SBJU 230900Z 14002KT 9999 BKN020 24/19 Q1015;
0120827840999992013022310004-07317-039300FM-15+0409SBJU V0209999C000012200019N0112651N1+02401+02001999999ADDGA1041+006001999GF104991999999999999999999MA1101591999999REMMET051METAR SBJU 231000Z 00000KT 9999 SCT020 24/20 Q1016;
0120827840999992013022311004-07317-039300FM-15+0409SBJU V0209999C000012200019N0112651N1+02601+01901999999ADDGA1041+006001999GF104991999999999999999999MA1101691999999REMMET051METAR SBJU 231100Z 00000KT 9999 SCT020 26/19 Q1017;
0120827840999992013022312004-07317-039300FM-15+0409SBJU V0200701N002112200019N0112651N1+02601+01901999999ADDGA1041+006001999GF104991999999999999999999MA1101691999999REMMET051METAR SBJU 231200Z 07004KT 9999 SCT020 26/19 Q1017;
0120827840999992013022313004-07317-039300FM-15+0409SBJU V0201101N003112200019N0112651N1+02701+01901999999ADDGA1021+006001999GF102991999999999999999999MA1101691999999REMMET051METAR SBJU 231300Z 11006KT 9999 FEW020 27/19 Q1017;
0120827840999992013022314004-07317-039300FM-15+0409SBJU V0201501N001512200019N0112651N1+02801+01901999999ADDGA1021+006001999GF102991999999999999999999MA1101591999999REMMET051METAR SBJU 231400Z 15003KT 9999 FEW020 28/19 Q1016;
0120827840999992013022315004-07317-039300FM-15+0409SBJU V0201601N001512200019N0112651N1+03001+01801999999ADDGA1021+006301999GF102991999999999999999999MA1101491999999REMMET051METAR SBJU 231500Z 16003KT 9999 FEW021 30/18 Q1015;
0120827840999992013022316004-07317-039300FM-15+0409SBJU V0209999C000012200019N0112651N1+03101+01901999999ADDGA1021+006301999GF102991999999999999999999MA1101391999999REMMET051METAR SBJU 231600Z 00000KT 9999 FEW021 31/19 Q1014;
0120827840999992013022317004-07317-039300FM-15+0409SBJU V0209999C000012200019N0112651N1+03101+01801999999ADDGA1021+006301999GF102991999999999999999999MA1101291999999REMMET051METAR SBJU 231700Z 00000KT 9999 FEW021 31/18 Q1013;
0120827840999992013022318004-07317-039300FM-15+0409SBJU V0209999C000012200019N0112651N1+03201+01801999999ADDGA1021+006301999GF102991999999999999999999MA1101191999999REMMET051METAR SBJU 231800Z 00000KT 9999 FEW021 32/18 Q1012;
0120827840999992013022319004-07317-039300FM-15+0409SBJU V0201901N001512200019N0112651N1+03201+01701999999ADDGA1021+006301999GF102991999999999999999999MA1101191999999REMMET051METAR SBJU 231900Z 19003KT 9999 FEW021 32/17 Q1012;
0120827840999992013022320004-07317-039300FM-15+0409SBJU V0201801N001512200019N0112651N1+03201+01601999999ADDGA1021+006301999GF102991999999999999999999MA1101191999999REMMET051METAR SBJU 232000Z 18003KT 9999 FEW021 32/16 Q1012;
0120827840999992013022321004-07317-039300FM-15+0409SBJU V0209999C000012200019N0112651N1+03301+01701999999ADDGA1021+006301999GF102991999999999999999999MA1101191999999REMMET051METAR SBJU 232100Z 00000KT 9999 FEW021 33/17 Q1012;
0120827840999992013022322004-07317-039300FM-15+0409SBJU V0209999C000012200019N0112651N1+02901+01901999999ADDGA1021+006001999GF102991999999999999999999MA1101191999999REMMET051METAR SBJU 232200Z 00000KT 9999 FEW020 29/19 Q1012;
0120827840999992013022323004-07317-039300FM-15+0409SBJU V0209999C000012200019N0112651N1+02801+01901999999ADDGA1021+006001999GF102991999999999999999999MA1101291999999REMMET051METAR SBJU 232300Z 00000KT 9999 FEW020 28/19 Q1013;
0120827840999992013022400004-07317-039300FM-15+0409SBJU V0209999C000012200019N0112651N1+02601+02001999999ADDGA1021+006001999GF102991999999999999999999MA1101391999999REMMET051METAR SBJU 240000Z 00000KT 9999 FEW020 26/20 Q1014;
0120827840999992013022401004-07317-039300FM-15+0409SBJU V0209999C000012200019N0112651N1+02701+01901999999ADDGA1021+006001999GF102991999999999999999999MA1101391999999REMMET051METAR SBJU 240100Z 00000KT 9999 FEW020 27/19 Q1014;
0120827840999992013022402004-07317-039300FM-15+0409SBJU V0209999C000012200019N0112651N1+02601+02001999999ADDGA1041+006001999GF104991999999999999999999MA1101391999999REMMET051METAR SBJU 240200Z 00000KT 9999 SCT020 26/20 Q1014;
0120827840999992013022403004-07317-039300FM-15+0409SBJU V0209999C000010060019N0112651N1+02501+02001999999ADDGA1071+006001999GF107991999999999999999999MA1101391999999REMMET051METAR SBJU 240300Z 00000KT 9999 BKN020 25/20 Q1014;
0120827840999992013022404004-07317-039300FM-15+0409SBJU V0209999C000012200019N0112651N1+02501+02001999999ADDGA1041+006001999GF104991999999999999999999MA1101391999999REMMET051METAR SBJU 240400Z 00000KT 9999 SCT020 25/20 Q1014;
0120827840999992013022405004-07317-039300FM-15+0409SBJU V0200901N002112200019N0112651N1+02501+02001999999ADDGA1041+006001999GF104991999999999999999999MA1101391999999REMMET051METAR SBJU 240500Z 09004KT 9999 SCT020 25/20 Q1014;
0120827840999992013022406004-07317-039300FM-15+0409SBJU V0209999C000012200019N0112651N1+02501+01901999999ADDGA1041+006001999GF104991999999999999999999MA1101391999999REMMET051METAR SBJU 240600Z 00000KT 9999 SCT020 25/19 Q1014;
0120827840999992013022407004-07317-039300FM-15+0409SBJU V0209999C000012200019N0112651N1+02501+01901999999ADDGA1041+006001999GF104991999999999999999999MA1101391999999REMMET051METAR SBJU 240700Z 00000KT 9999 SCT020 25/19 Q1014;
0120827840999992013022408004-07317-039300FM-15+0409SBJU V0209999C000012200019N0112651N1+02501+01901999999ADDGA1041+006001999GF104991999999999999999999MA1101491999999REMMET051METAR SBJU 240800Z 00000KT 9999 SCT020 25/19 Q1015;
0120827840999992013022409004-07317-039300FM-15+0409SBJU V0209999C000010060019N0112651N1+02401+02001999999ADDGA1071+006001999GF107991999999999999999999MA1101491999999REMMET051METAR SBJU 240900Z 00000KT 9999 BKN020 24/20 Q1015;
0120827840999992013022410004-07317-039300FM-15+0409SBJU V0209999C000010060019N0112651N1+02601+01801999999ADDGA1071+006001999GF107991999999999999999999MA1101591999999REMMET051METAR SBJU 241000Z 00000KT 9999 BKN020 26/18 Q1016;
0120827840999992013022411004-07317-039300FM-15+0409SBJU V0201201N003110060019N0112651N1+02601+01901999999ADDGA1071+006001999GF107991999999999999999999MA1101591999999REMMET051METAR SBJU 241100Z 12006KT 9999 BKN020 26/19 Q1016;
0120827840999992013022412004-07317-039300FM-15+0409SBJU V0201001N003110060019N0112651N1+02801+01901999999ADDGA1071+006001999GF107991999999999999999999MA1101691999999REMMET051METAR SBJU 241200Z 10006KT 9999 BKN020 28/19 Q1017;
0120827840999992013022413004-07317-039300FM-15+0409SBJU V0209999C000010060019N0112651N1+02901+01901999999ADDGA1071+006001999GF107991999999999999999999MA1101591999999REMMET051METAR SBJU 241300Z 00000KT 9999 BKN020 29/19 Q1016;
0120827840999992013022414004-07317-039300FM-15+0409SBJU V0201301N003110060019N0112651N1+03001+01901999999ADDGA1071+006001999GF107991999999999999999999MA1101591999999REMMET051METAR SBJU 241400Z 13006KT 9999 BKN020 30/19 Q1016;
0120827840999992013022415004-07317-039300FM-15+0409SBJU V0202001N002110060019N0112651N1+03101+01901999999ADDGA1071+006001999GF107991999999999999999999MA1101491999999REMMET051METAR SBJU 241500Z 20004KT 9999 BKN020 31/19 Q1015;
0120827840999992013022416004-07317-039300FM-15+0409SBJU V0209999C000010060019N0112651N1+03201+02001999999ADDGA1071+006001999GF107991999999999999999999MA1101391999999REMMET051METAR SBJU 241600Z 00000KT 9999 BKN020 32/20 Q1014;
0120827840999992013022417004-07317-039300FM-15+0409SBJU V0209999C000012200019N0112651N1+03201+01701999999ADDGA1041+006001999GF104991999999999999999999MA1101291999999REMMET051METAR SBJU 241700Z 00000KT 9999 SCT020 32/17 Q1013;
0120827840999992013022418004-07317-039300FM-15+0409SBJU V0209999C000012200019N0112651N1+03201+01701999999ADDGA1041+006001999GF104991999999999999999999MA1101191999999REMMET051METAR SBJU 241800Z 00000KT 9999 SCT020 32/17 Q1012;
0120827840999992013022419004-07317-039300FM-15+0409SBJU V0209999C000012200019N0112651N1+03401+01601999999ADDGA1021+006001999GF102991999999999999999999MA1101081999999REMMET051METAR SBJU 241900Z 00000KT 9999 FEW020 34/16 Q1011;
0072827840999992013022420004-07317-039300FM-15+0409SBJU V0209999C000019999999Y0099001N1+03501+01601999999ADDMA1101081999999REMMET045METAR SBJU 242000Z 00000KT CAVOK 35/16 Q1011;
0072827840999992013022421004-07317-039300FM-15+0409SBJU V0209999C000019999999Y0099001N1+03301+01701999999ADDMA1101081999999REMMET045METAR SBJU 242100Z 00000KT CAVOK 33/17 Q1011;
0120827840999992013022422004-07317-039300FM-15+0409SBJU V0209999C000012200019N0112651N1+03101+01801999999ADDGA1041+006001999GF104991999999999999999999MA1101191999999REMMET051METAR SBJU 242200Z 00000KT 9999 SCT020 31/18 Q1012;
0120827840999992013022423004-07317-039300FM-15+0409SBJU V0200801N002112200019N0112651N1+02901+01801999999ADDGA1041+006001999GF104991999999999999999999MA1101291999999REMMET051METAR SBJU 242300Z 08004KT 9999 SCT020 29/18 Q1013;
0120827840999992013022500004-07317-039300FM-15+0409SBJU V0202301N002112200019N0112651N1+02901+01901999999ADDGA1041+006001999GF104991999999999999999999MA1101291999999REMMET051METAR SBJU 250000Z 23004KT 9999 SCT020 29/19 Q1013;
0120827840999992013022501004-07317-039300FM-15+0409SBJU V0201801N004612200019N0112651N1+02701+01901999999ADDGA1041+006001999GF104991999999999999999999MA1101391999999REMMET051METAR SBJU 250100Z 18009KT 9999 SCT020 27/19 Q1014;
0120827840999992013022502004-07317-039300FM-15+0409SBJU V0209999C000012200019N0112651N1+02701+01901999999ADDGA1041+006001999GF104991999999999999999999MA1101391999999REMMET051METAR SBJU 250200Z 00000KT 9999 SCT020 27/19 Q1014;
0120827840999992013022503004-07317-039300FM-15+0409SBJU V0209999C000012200019N0112651N1+02601+01901999999ADDGA1041+006001999GF104991999999999999999999MA1101391999999REMMET051METAR SBJU 250300Z 00000KT 9999 SCT020 26/19 Q1014;
0120827840999992013022504004-07317-039300FM-15+0409SBJU V0209999C000012200019N0112651N1+02701+01901999999ADDGA1041+006001999GF104991999999999999999999MA1101391999999REMMET051METAR SBJU 250400Z 00000KT 9999 SCT020 27/19 Q1014;
0120827840999992013022505004-07317-039300FM-15+0409SBJU V0202301N002112200019N0112651N1+02701+01901999999ADDGA1041+006001999GF104991999999999999999999MA1101391999999REMMET051METAR SBJU 250500Z 23004KT 9999 SCT020 27/19 Q1014;
0120827840999992013022506004-07317-039300FM-15+0409SBJU V0209999C000010060019N0112651N1+02501+02101999999ADDGA1071+006001999GF107991999999999999999999MA1101391999999REMMET051METAR SBJU 250600Z 00000KT 9999 BKN020 25/21 Q1014;
0120827840999992013022507004-07317-039300FM-15+0409SBJU V0209999C000010060019N0112651N1+02501+02101999999ADDGA1071+006001999GF107991999999999999999999MA1101491999999REMMET051METAR SBJU 250700Z 00000KT 9999 BKN020 25/21 Q1015;
0120827840999992013022508004-07317-039300FM-15+0409SBJU V0209999C000010060019N0112651N1+02501+02101999999ADDGA1071+006001999GF107991999999999999999999MA1101491999999REMMET051METAR SBJU 250800Z 00000KT 9999 BKN020 25/21 Q1015;
0120827840999992013022509004-07317-039300FM-15+0409SBJU V0209999C000010060019N0112651N1+02401+02101999999ADDGA1071+006001999GF107991999999999999999999MA1101491999999REMMET051METAR SBJU 250900Z 00000KT 9999 BKN020 24/21 Q1015;
0120827840999992013022510004-07317-039300FM-15+0409SBJU V0209999C000012200019N0112651N1+02501+02101999999ADDGA1041+006001999GF104991999999999999999999MA1101591999999REMMET051METAR SBJU 251000Z 00000KT 9999 SCT020 25/21 Q1016;
0120827840999992013022511004-07317-039300FM-15+0409SBJU V0209999C000012200019N0112651N1+02701+02101999999ADDGA1041+006001999GF104991999999999999999999MA1101691999999REMMET051METAR SBJU 251100Z 00000KT 9999 SCT020 27/21 Q1017;
0120827840999992013022512004-07317-039300FM-15+0409SBJU V0201201N002612200019N0112651N1+02801+02001999999ADDGA1041+006001999GF104991999999999999999999MA1101691999999REMMET051METAR SBJU 251200Z 12005KT 9999 SCT020 28/20 Q1017;
0120827840999992013022513004-07317-039300FM-15+0409SBJU V0201701N002612200019N0112651N1+02901+01901999999ADDGA1041+006001999GF104991999999999999999999MA1101591999999REMMET051METAR SBJU 251300Z 17005KT 9999 SCT020 29/19 Q1016;
0120827840999992013022514004-07317-039300FM-15+0409SBJU V0209999C000012200019N0112651N1+03101+02001999999ADDGA1041+006001999GF104991999999999999999999MA1101591999999REMMET051METAR SBJU 251400Z 00000KT 9999 SCT020 31/20 Q1016;
0120827840999992013022515004-07317-039300FM-15+0409SBJU V0209999C000012200019N0112651N1+03101+01901999999ADDGA1041+006001999GF104991999999999999999999MA1101491999999REMMET051METAR SBJU 251500Z 00000KT 9999 SCT020 31/19 Q1015;
0120827840999992013022516004-07317-039300FM-15+0409SBJU V0209999C000012200019N0112651N1+03201+01901999999ADDGA1041+006001999GF104991999999999999999999MA1101391999999REMMET051METAR SBJU 251600Z 00000KT 9999 SCT020 32/19 Q1014;
0120827840999992013022517004-07317-039300FM-15+0409SBJU V0201901N003612200019N0112651N1+03301+01701999999ADDGA1041+006001999GF104991999999999999999999MA1101291999999REMMET051METAR SBJU 251700Z 19007KT 9999 SCT020 33/17 Q1013;
0120827840999992013022518004-07317-039300FM-15+0409SBJU V0201501N002612200019N0112651N1+03401+01801999999ADDGA1041+006001999GF104991999999999999999999MA1101191999999REMMET051METAR SBJU 251800Z 15005KT 9999 SCT020 34/18 Q1012;
0120827840999992013022519004-07317-039300FM-15+0409SBJU V0201801N002112200019N0112651N1+03401+01701999999ADDGA1041+006001999GF104991999999999999999999MA1101081999999REMMET051METAR SBJU 251900Z 18004KT 9999 SCT020 34/17 Q1011;
0120827840999992013022520004-07317-039300FM-15+0409SBJU V0209999C000012200019N0112651N1+03401+01701999999ADDGA1041+006001999GF104991999999999999999999MA1101081999999REMMET051METAR SBJU 252000Z 00000KT 9999 SCT020 34/17 Q1011;
0120827840999992013022521004-07317-039300FM-15+0409SBJU V0209999C000012200019N0112651N1+03301+01801999999ADDGA1041+006001999GF104991999999999999999999MA1101081999999REMMET051METAR SBJU 252100Z 00000KT 9999 SCT020 33/18 Q1011;
0120827840999992013022522004-07317-039300FM-15+0409SBJU V0209999C000012200019N0112651N1+03201+01901999999ADDGA1021+006001999GF102991999999999999999999MA1101191999999REMMET051METAR SBJU 252200Z 00000KT 9999 FEW020 32/19 Q1012;
0120827840999992013022523004-07317-039300FM-15+0409SBJU V0209999C000012200019N0112651N1+03001+02001999999ADDGA1021+006001999GF102991999999999999999999MA1101191999999REMMET051METAR SBJU 252300Z 00000KT 9999 FEW020 30/20 Q1012;
0120827840999992013022600004-07317-039300FM-15+0409SBJU V0209999C000012200019N0112651N1+02801+02101999999ADDGA1041+006001999GF104991999999999999999999MA1101291999999REMMET051METAR SBJU 260000Z 00000KT 9999 SCT020 28/21 Q1013;
0120827840999992013022601004-07317-039300FM-15+0409SBJU V0209999C000012200019N0112651N1+02801+02001999999ADDGA1041+006001999GF104991999999999999999999MA1101291999999REMMET051METAR SBJU 260100Z 00000KT 9999 SCT020 28/20 Q1013;
0120827840999992013022602004-07317-039300FM-15+0409SBJU V0209999C000012200019N0112651N1+02701+02101999999ADDGA1041+006001999GF104991999999999999999999MA1101291999999REMMET051METAR SBJU 260200Z 00000KT 9999 SCT020 27/21 Q1013;
0120827840999992013022603004-07317-039300FM-15+0409SBJU V0209999C000012200019N0112651N1+02601+02001999999ADDGA1041+006001999GF104991999999999999999999MA1101291999999REMMET051METAR SBJU 260300Z 00000KT 9999 SCT020 26/20 Q1013;
0072827840999992013022604004-07317-039300FM-15+0409SBJU V0209999C000019999999Y0099001N1+02701+02001999999ADDMA1101291999999REMMET045METAR SBJU 260400Z 00000KT CAVOK 27/20 Q1013;
0072827840999992013022605004-07317-039300FM-15+0409SBJU V0209999C000019999999Y0099001N1+02601+02001999999ADDMA1101391999999REMMET045METAR SBJU 260500Z 00000KT CAVOK 26/20 Q1014;
0120827840999992013022606004-07317-039300FM-15+0409SBJU V0209999C000012200019N0112651N1+02601+01901999999ADDGA1021+006001999GF102991999999999999999999MA1101391999999REMMET051METAR SBJU 260600Z 00000KT 9999 FEW020 26/19 Q1014;
0120827840999992013022607004-07317-039300FM-15+0409SBJU V0209999C000012200019N0112651N1+02501+02001999999ADDGA1021+006001999GF102991999999999999999999MA1101391999999REMMET051METAR SBJU 260700Z 00000KT 9999 FEW020 25/20 Q1014;
0120827840999992013022608004-07317-039300FM-15+0409SBJU V0209999C000012200019N0112651N1+02501+02001999999ADDGA1041+006001999GF104991999999999999999999MA1101491999999REMMET051METAR SBJU 260800Z 00000KT 9999 SCT020 25/20 Q1015;
0120827840999992013022609004-07317-039300FM-15+0409SBJU V0209999C000012200019N0112651N1+02401+02001999999ADDGA1021+006001999GF102991999999999999999999MA1101491999999REMMET051METAR SBJU 260900Z 00000KT 9999 FEW020 24/20 Q1015;
0120827840999992013022610004-07317-039300FM-15+0409SBJU V0201401N001512200019N0112651N1+02501+02001999999ADDGA1041+006001999GF104991999999999999999999MA1101591999999REMMET051METAR SBJU 261000Z 14003KT 9999 SCT020 25/20 Q1016;
0120827840999992013022611004-07317-039300FM-15+0409SBJU V0201101N003612200019N0112651N1+02701+01901999999ADDGA1021+006001999GF102991999999999999999999MA1101691999999REMMET051METAR SBJU 261100Z 11007KT 9999 FEW020 27/19 Q1017;
0120827840999992013022612004-07317-039300FM-15+0409SBJU V0201301N003112200019N0112651N1+02801+01801999999ADDGA1021+006001999GF102991999999999999999999MA1101691999999REMMET051METAR SBJU 261200Z 13006KT 9999 FEW020 28/18 Q1017;
0120827840999992013022613004-07317-039300FM-15+0409SBJU V0201201N002112200019N0112651N1+02901+01701999999ADDGA1021+006001999GF102991999999999999999999MA1101691999999REMMET051METAR SBJU 261300Z 12004KT 9999 FEW020 29/17 Q1017;
0120827840999992013022614004-07317-039300FM-15+0409SBJU V0209999C000012200019N0112651N1+03001+01701999999ADDGA1021+006001999GF102991999999999999999999MA1101691999999REMMET051METAR SBJU 261400Z 00000KT 9999 FEW020 30/17 Q1017;
0120827840999992013022615004-07317-039300FM-15+0409SBJU V0202401N002112200019N0112651N1+03201+01701999999ADDGA1021+006001999GF102991999999999999999999MA1101591999999REMMET051METAR SBJU 261500Z 24004KT 9999 FEW020 32/17 Q1016;
0120827840999992013022616004-07317-039300FM-15+0409SBJU V0200601N001512200019N0112651N1+03201+01301999999ADDGA1021+006601999GF102991999999999999999999MA1101491999999REMMET051METAR SBJU 261600Z 06003KT 9999 FEW022 32/13 Q1015;
0120827840999992013022617004-07317-039300FM-15+0409SBJU V0200901N002112200019N0112651N1+03401+01301999999ADDGA1021+006601999GF102991999999999999999999MA1101391999999REMMET051METAR SBJU 261700Z 09004KT 9999 FEW022 34/13 Q1014;
0120827840999992013022618004-07317-039300FM-15+0409SBJU V0201301N001512200019N0112651N1+03501+01501999999ADDGA1021+006601999GF102991999999999999999999MA1101291999999REMMET051METAR SBJU 261800Z 13003KT 9999 FEW022 35/15 Q1013;
0120827840999992013022619004-07317-039300FM-15+0409SBJU V0201601N001012200019N0112651N1+03501+01401999999ADDGA1021+006601999GF102991999999999999999999MA1101291999999REMMET051METAR SBJU 261900Z 16002KT 9999 FEW022 35/14 Q1013;
0120827840999992013022620004-07317-039300FM-15+0409SBJU V0209999C000012200019N0112651N1+03401+01401999999ADDGA1021+006601999GF102991999999999999999999MA1101291999999REMMET051METAR SBJU 262000Z 00000KT 9999 FEW022 34/14 Q1013;
0120827840999992013022621004-07317-039300FM-15+0409SBJU V0209999C000012200019N0112651N1+03301+01201999999ADDGA1021+006601999GF102991999999999999999999MA1101291999999REMMET051METAR SBJU 262100Z 00000KT 9999 FEW022 33/12 Q1013;
0072827840999992013022622004-07317-039300FM-15+0409SBJU V0209999C000019999999Y0099001N1+03101+01601999999ADDMA1101291999999REMMET045METAR SBJU 262200Z 00000KT CAVOK 31/16 Q1013;
0072827840999992013022623004-07317-039300FM-15+0409SBJU V0209999C000019999999Y0099001N1+02901+01801999999ADDMA1101391999999REMMET045METAR SBJU 262300Z 00000KT CAVOK 29/18 Q1014;
0143827840999992013022701004-07317-039300FM-15+0409SBJU V0209999C000010240019N0112651N1+02701+01801999999ADDGA1021+006001999GA2071+024001999GF107991999999999999999999MA1101491999999REMMET058METAR SBJU 270100Z 00000KT 9999 FEW020 BKN080 27/18 Q1015;
0143827840999992013022702004-07317-039300FM-15+0409SBJU V0209999C000010240019N0112651N1+02701+01901999999ADDGA1021+006001999GA2071+024001999GF107991999999999999999999MA1101591999999REMMET058METAR SBJU 270200Z 00000KT 9999 FEW020 BKN080 27/19 Q1016;
0120827840999992013022703004-07317-039300FM-15+0409SBJU V0209999C000012200019N0112651N1+02601+01901999999ADDGA1041+006001999GF104991999999999999999999MA1101491999999REMMET051METAR SBJU 270300Z 00000KT 9999 SCT020 26/19 Q1015;
0120827840999992013022704004-07317-039300FM-15+0409SBJU V0209999C000012200019N0112651N1+02701+01801999999ADDGA1041+006001999GF104991999999999999999999MA1101491999999REMMET051METAR SBJU 270400Z 00000KT 9999 SCT020 27/18 Q1015;
0120827840999992013022705004-07317-039300FM-15+0409SBJU V0202301N001512200019N0112651N1+02601+01801999999ADDGA1041+006001999GF104991999999999999999999MA1101491999999REMMET051METAR SBJU 270500Z 23003KT 9999 SCT020 26/18 Q1015;
0120827840999992013022706004-07317-039300FM-15+0409SBJU V0209999C000012200019N0112651N1+02501+01901999999ADDGA1041+006001999GF104991999999999999999999MA1101591999999REMMET051METAR SBJU 270600Z 00000KT 9999 SCT020 25/19 Q1016;
0120827840999992013022707004-07317-039300FM-15+0409SBJU V0209999C000012200019N0112651N1+02501+01901999999ADDGA1041+006001999GF104991999999999999999999MA1101591999999REMMET051METAR SBJU 270700Z 00000KT 9999 SCT020 25/19 Q1016;
0072827840999992013022708004-07317-039300FM-15+0409SBJU V0209999C000019999999Y0099001N1+02401+01901999999ADDMA1101591999999REMMET045METAR SBJU 270800Z 00000KT CAVOK 24/19 Q1016;
0120827840999992013022709004-07317-039300FM-15+0409SBJU V0209999C000012200019N0112651N1+02401+01901999999ADDGA1021+006001999GF102991999999999999999999MA1101691999999REMMET051METAR SBJU 270900Z 00000KT 9999 FEW020 24/19 Q1017;
0072827840999992013022710004-07317-039300FM-15+0409SBJU V0209999C000019999999Y0099001N1+02601+01901999999ADDMA1101691999999REMMET045METAR SBJU 271000Z 00000KT CAVOK 26/19 Q1017;
0120827840999992013022711004-07317-039300FM-15+0409SBJU V0200801N002612200019N0112651N1+02701+02001999999ADDGA1021+006601999GF102991999999999999999999MA1101801999999REMMET051METAR SBJU 271100Z 08005KT 9999 FEW022 27/20 Q1018;
0120827840999992013022712004-07317-039300FM-15+0409SBJU V0201301N002612200019N0112651N1+02801+01901999999ADDGA1021+006601999GF102991999999999999999999MA1101801999999REMMET051METAR SBJU 271200Z 13005KT 9999 FEW022 28/19 Q1018;
0120827840999992013022713004-07317-039300FM-15+0409SBJU V0201301N002112200019N0112651N1+03001+01401999999ADDGA1021+006001999GF102991999999999999999999MA1101801999999REMMET051METAR SBJU 271300Z 13004KT 9999 FEW020 30/14 Q1018;
0120827840999992013022714004-07317-039300FM-15+0409SBJU V0200301N001512200019N0112651N1+03101+01701999999ADDGA1021+006601999GF102991999999999999999999MA1101691999999REMMET051METAR SBJU 271400Z 03003KT 9999 FEW022 31/17 Q1017;
0120827840999992013022715004-07317-039300FM-15+0409SBJU V0201201N003612200019N0112651N1+03201+01301999999ADDGA1021+006601999GF102991999999999999999999MA1101591999999REMMET051METAR SBJU 271500Z 12007KT 9999 FEW022 32/13 Q1016;
0072827840999992013022716004-07317-039300FM-15+0409SBJU V0201001N003619999999Y0099001N1+03401+01201999999ADDMA1101491999999REMMET045METAR SBJU 271600Z 10007KT CAVOK 34/12 Q1015;
0072827840999992013022717004-07317-039300FM-15+0409SBJU V0200801N002119999999Y0099001N1+03501+01201999999ADDMA1101391999999REMMET045METAR SBJU 271700Z 08004KT CAVOK 35/12 Q1014;
0072827840999992013022718004-07317-039300FM-15+0409SBJU V0201301N001519999999Y0099001N1+03501+01301999999ADDMA1101291999999REMMET045METAR SBJU 271800Z 13003KT CAVOK 35/13 Q1013;
0072827840999992013022719004-07317-039300FM-15+0409SBJU V0200601N002119999999Y0099001N1+03501+01201999999ADDMA1101291999999REMMET045METAR SBJU 271900Z 06004KT CAVOK 35/12 Q1013;
0072827840999992013022720004-07317-039300FM-15+0409SBJU V0200401N002119999999Y0099001N1+03501+01101999999ADDMA1101291999999REMMET045METAR SBJU 272000Z 04004KT CAVOK 35/11 Q1013;
0072827840999992013022721004-07317-039300FM-15+0409SBJU V0209999C000019999999Y0099001N1+03301+01301999999ADDMA1101291999999REMMET045METAR SBJU 272100Z 00000KT CAVOK 33/13 Q1013;
0120827840999992013022722004-07317-039300FM-15+0409SBJU V0200401N001012200019N0112651N1+03201+01301999999ADDGA1021+006001999GF102991999999999999999999MA1101291999999REMMET051METAR SBJU 272200Z 04002KT 9999 FEW020 32/13 Q1013;
0120827840999992013022723004-07317-039300FM-15+0409SBJU V0202401N001512200019N0112651N1+03001+01501999999ADDGA1021+006001999GF102991999999999999999999MA1101291999999REMMET051METAR SBJU 272300Z 24003KT 9999 FEW020 30/15 Q1013;
0120827840999992013022800004-07317-039300FM-15+0409SBJU V0202001N001012200019N0112651N1+02801+01701999999ADDGA1041+006001999GF104991999999999999999999MA1101391999999REMMET051METAR SBJU 280000Z 20002KT 9999 SCT020 28/17 Q1014;
0120827840999992013022801004-07317-039300FM-15+0409SBJU V0209999C000012200019N0112651N1+02701+01701999999ADDGA1041+006001999GF104991999999999999999999MA1101491999999REMMET051METAR SBJU 280100Z 00000KT 9999 SCT020 27/17 Q1015;
0120827840999992013022802004-07317-039300FM-15+0409SBJU V0200601N001512200019N0112651N1+02701+01601999999ADDGA1041+006001999GF104991999999999999999999MA1101491999999REMMET051METAR SBJU 280200Z 06003KT 9999 SCT020 27/16 Q1015;
0120827840999992013022803004-07317-039300FM-15+0409SBJU V0209999C000012200019N0112651N1+02601+01801999999ADDGA1041+006001999GF104991999999999999999999MA1101491999999REMMET051METAR SBJU 280300Z 00000KT 9999 SCT020 26/18 Q1015;
0120827840999992013022804004-07317-039300FM-15+0409SBJU V0201301N002112200019N0112651N1+02701+01801999999ADDGA1041+006001999GF104991999999999999999999MA1101591999999REMMET051METAR SBJU 280400Z 13004KT 9999 SCT020 27/18 Q1016;
0120827840999992013022805004-07317-039300FM-15+0409SBJU V0209999C000012200019N0112651N1+02601+01801999999ADDGA1041+006001999GF104991999999999999999999MA1101491999999REMMET051METAR SBJU 280500Z 00000KT 9999 SCT020 26/18 Q1015;
0120827840999992013022806004-07317-039300FM-15+0409SBJU V0209999C000012200019N0112651N1+02601+01801999999ADDGA1041+006001999GF104991999999999999999999MA1101491999999REMMET051METAR SBJU 280600Z 00000KT 9999 SCT020 26/18 Q1015;
0120827840999992013022807004-07317-039300FM-15+0409SBJU V0209999C000012200019N0112651N1+02601+01801999999ADDGA1041+006001999GF104991999999999999999999MA1101491999999REMMET051METAR SBJU 280700Z 00000KT 9999 SCT020 26/18 Q1015;
0120827840999992013022808004-07317-039300FM-15+0409SBJU V0202301N002112200019N0112651N1+02401+01901999999ADDGA1041+006001999GF104991999999999999999999MA1101491999999REMMET051METAR SBJU 280800Z 23004KT 9999 SCT020 24/19 Q1015;
0120827840999992013022809004-07317-039300FM-15+0409SBJU V0209999C000012200019N0112651N1+02401+01901999999ADDGA1021+006001999GF102991999999999999999999MA1101591999999REMMET051METAR SBJU 280900Z 00000KT 9999 FEW020 24/19 Q1016;
0072827840999992013022810004-07317-039300FM-15+0409SBJU V0201301N001519999999Y0099001N1+02701+01801999999ADDMA1101591999999REMMET045METAR SBJU 281000Z 13003KT CAVOK 27/18 Q1016;
0072827840999992013022811004-07317-039300FM-15+0409SBJU V0201001N002119999999Y0099001N1+02701+01801999999ADDMA1101691999999REMMET045METAR SBJU 281100Z 10004KT CAVOK 27/18 Q1017;
0072827840999992013022812004-07317-039300FM-15+0409SBJU V0201001N004619999999Y0099001N1+02901+01601999999ADDMA1101691999999REMMET045METAR SBJU 281200Z 10009KT CAVOK 29/16 Q1017;
0072827840999992013022813004-07317-039300FM-15+0409SBJU V0201201N001519999999Y0099001N1+03101+01601999999ADDMA1101691999999REMMET045METAR SBJU 281300Z 12003KT CAVOK 31/16 Q1017;
0072827840999992013022814004-07317-039300FM-15+0409SBJU V0201201N001019999999Y0099001N1+03201+02201999999ADDMA1101591999999REMMET045METAR SBJU 281400Z 12002KT CAVOK 32/22 Q1016;
0072827840999992013022815004-07317-039300FM-15+0409SBJU V0200601N001019999999Y0099001N1+03301+02501999999ADDMA1101591999999REMMET045METAR SBJU 281500Z 06002KT CAVOK 33/25 Q1016;
0120827840999992013022816004-07317-039300FM-15+0409SBJU V0200801N002612200019N0112651N1+03301+01801999999ADDGA1021+006901999GF102991999999999999999999MA1101391999999REMMET051METAR SBJU 281600Z 08005KT 9999 FEW023 33/18 Q1014;
0120827840999992013022817004-07317-039300FM-15+0409SBJU V0200901N002112200019N0112651N1+03501+02501999999ADDGA1021+006901999GF102991999999999999999999MA1101191999999REMMET051METAR SBJU 281700Z 09004KT 9999 FEW023 35/25 Q1012;
0120827840999992013022818004-07317-039300FM-15+0409SBJU V0201301N002112200019N0112651N1+03601+02001999999ADDGA1021+006901999GF102991999999999999999999MA1101081999999REMMET051METAR SBJU 281800Z 13004KT 9999 FEW023 36/20 Q1011;
0120827840999992013022819004-07317-039300FM-15+0409SBJU V0201801N001512200019N0112651N1+03701+01601999999ADDGA1021+006901999GF102991999999999999999999MA1101081999999REMMET051METAR SBJU 281900Z 18003KT 9999 FEW023 37/16 Q1011;
0120827840999992013022820004-07317-039300FM-15+0409SBJU V0209999C000012200019N0112651N1+03701+01501999999ADDGA1021+006901999GF102991999999999999999999MA1101081999999REMMET051METAR SBJU 282000Z 00000KT 9999 FEW023 37/15 Q1011;
0139827840999992013022821004-07317-039300FM-15+0409SBJU V0209999C000012200019N0112651N1+03501+01301999999ADDGA1021+006901999GF102991999999999999999999MA1101081999999REMMET051METAR SBJU 282100Z 00000KT 9999 FEW023 35/13 Q1011;EQDQ01+001303ATOD  
0120827840999992013022822004-07317-039300FM-15+0409SBJU V0202901N001012200019N0112651N1+03101+02201999999ADDGA1021+006601999GF102991999999999999999999MA1101081999999REMMET051METAR SBJU 282200Z 29002KT 9999 FEW022 31/22 Q1011;
0120827840999992013022823004-07317-039300FM-15+0409SBJU V0202401N001512200019N0112651N1+03001+02001999999ADDGA1021+006601999GF102991999999999999999999MA1101191999999REMMET051METAR SBJU 282300Z 24003KT 9999 FEW022 30/20 Q1012;
0120827840999992013030100004-07317-039300FM-15+0409SBJU V0200801N001012200019N0112651N1+02801+02001999999ADDGA1041+006301999GF104991999999999999999999MA1101291999999REMMET051METAR SBJU 010000Z 08002KT 9999 SCT021 28/20 Q1013;
0120827840999992013030101004-07317-039300FM-15+0409SBJU V0200801N001012200019N0112651N1+02701+02101999999ADDGA1041+006301999GF104991999999999999999999MA1101291999999REMMET051METAR SBJU 010100Z 08002KT 9999 SCT021 27/21 Q1013;
0120827840999992013030102004-07317-039300FM-15+0409SBJU V0200801N002612200019N0112651N1+02701+02101999999ADDGA1041+006301999GF104991999999999999999999MA1101391999999REMMET051METAR SBJU 010200Z 08005KT 9999 SCT021 27/21 Q1014;
0120827840999992013030103004-07317-039300FM-15+0409SBJU V0200601N001512200019N0112651N1+02701+02201999999ADDGA1041+006001999GF104991999999999999999999MA1101391999999REMMET051METAR SBJU 010300Z 06003KT 9999 SCT020 27/22 Q1014;
0120827840999992013030104004-07317-039300FM-15+0409SBJU V0209999C000012200019N0112651N1+02601+02301999999ADDGA1041+006001999GF104991999999999999999999MA1101391999999REMMET051METAR SBJU 010400Z 00000KT 9999 SCT020 26/23 Q1014;
0120827840999992013030105004-07317-039300FM-15+0409SBJU V0200301N001012200019N0112651N1+02601+02201999999ADDGA1041+006001999GF104991999999999999999999MA1101391999999REMMET051METAR SBJU 010500Z 03002KT 9999 SCT020 26/22 Q1014;
0120827840999992013030106004-07317-039300FM-15+0409SBJU V0209999C000012200019N0112651N1+02501+02201999999ADDGA1041+006001999GF104991999999999999999999MA1101391999999REMMET051METAR SBJU 010600Z 00000KT 9999 SCT020 25/22 Q1014;
0120827840999992013030107004-07317-039300FM-15+0409SBJU V0209999C000012200019N0112651N1+02401+02301999999ADDGA1041+006001999GF104991999999999999999999MA1101391999999REMMET051METAR SBJU 010700Z 00000KT 9999 SCT020 24/23 Q1014;
0120827840999992013030108004-07317-039300FM-15+0409SBJU V0209999C000012200019N0112651N1+02401+02201999999ADDGA1041+006001999GF104991999999999999999999MA1101491999999REMMET051METAR SBJU 010800Z 00000KT 9999 SCT020 24/22 Q1015;
0072827840999992013030109004-07317-039300FM-15+0409SBJU V0209999C000019999999Y0099001N1+02401+02101999999ADDMA1101491999999REMMET045METAR SBJU 010900Z 00000KT CAVOK 24/21 Q1015;
0072827840999992013030110004-07317-039300FM-15+0409SBJU V0201401N002119999999Y0099001N1+02601+02101999999ADDMA1101491999999REMMET045METAR SBJU 011000Z 14004KT CAVOK 26/21 Q1015;
0072827840999992013030111004-07317-039300FM-15+0409SBJU V0201201N003619999999Y0099001N1+02701+02201999999ADDMA1101591999999REMMET045METAR SBJU 011100Z 12007KT CAVOK 27/22 Q1016;
0120827840999992013030112004-07317-039300FM-15+0409SBJU V0201001N005112200019N0112651N1+02901+02001999999ADDGA1021+006301999GF102991999999999999999999MA1101591999999REMMET051METAR SBJU 011200Z 10010KT 9999 FEW021 29/20 Q1016;
0120827840999992013030113004-07317-039300FM-15+0409SBJU V0201001N004612200019N0112651N1+02901+02001999999ADDGA1021+006301999GF102991999999999999999999MA1101591999999REMMET051METAR SBJU 011300Z 10009KT 9999 FEW021 29/20 Q1016;
0120827840999992013030114004-07317-039300FM-15+0409SBJU V0201501N004612200019N0112651N1+03201+02101999999ADDGA1021+006301999GF102991999999999999999999MA1101591999999REMMET051METAR SBJU 011400Z 15009KT 9999 FEW021 32/21 Q1016;
0120827840999992013030115004-07317-039300FM-15+0409SBJU V0201401N005112200019N0112651N1+03301+01901999999ADDGA1021+006601999GF102991999999999999999999MA1101491999999REMMET051METAR SBJU 011500Z 14010KT 9999 FEW022 33/19 Q1015;
0120827840999992013030116004-07317-039300FM-15+0409SBJU V0201601N002112200019N0112651N1+03301+01901999999ADDGA1021+006601999GF102991999999999999999999MA1101491999999REMMET051METAR SBJU 011600Z 16004KT 9999 FEW022 33/19 Q1015;
0120827840999992013030117004-07317-039300FM-15+0409SBJU V0201501N005112200019N0112651N1+03501+01901999999ADDGA1021+006001999GF102991999999999999999999MA1101191999999REMMET051METAR SBJU 011700Z 15010KT 9999 FEW020 35/19 Q1012;
0120827840999992013030118004-07317-039300FM-15+0409SBJU V0201401N005712200019N0112651N1+03501+01801999999ADDGA1021+006901999GF102991999999999999999999MA1101081999999REMMET051METAR SBJU 011800Z 14011KT 9999 FEW023 35/18 Q1011;
0120827840999992013030119004-07317-039300FM-15+0409SBJU V0201501N002612200019N0112651N1+03601+01801999999ADDGA1021+006901999GF102991999999999999999999MA1101081999999REMMET051METAR SBJU 011900Z 15005KT 9999 FEW023 36/18 Q1011;
0120827840999992013030120004-07317-039300FM-15+0409SBJU V0201701N001012200019N0112651N1+03301+02501999999ADDGA1021+006601999GF102991999999999999999999MA1101081999999REMMET051METAR SBJU 012000Z 17002KT 9999 FEW022 33/25 Q1011;
0120827840999992013030121004-07317-039300FM-15+0409SBJU V0209999C000012200019N0112651N1+03301+02501999999ADDGA1041+006001999GF104991999999999999999999MA1101081999999REMMET051METAR SBJU 012100Z 00000KT 9999 SCT020 33/25 Q1011;
0072827840999992013030122004-07317-039300FM-15+0409SBJU V0209999C000019999999Y0099001N1+03301+02301999999ADDMA1101081999999REMMET045METAR SBJU 012200Z 00000KT CAVOK 33/23 Q1011;
0072827840999992013030123004-07317-039300FM-15+0409SBJU V0209999C000019999999Y0099001N1+03001+02301999999ADDMA1101191999999REMMET045METAR SBJU 012300Z 00000KT CAVOK 30/23 Q1012;
0072827840999992013030200004-07317-039300FM-15+0409SBJU V0209999C000019999999Y0099001N1+02901+02201999999ADDMA1101191999999REMMET045METAR SBJU 020000Z 00000KT CAVOK 29/22 Q1012;
0072827840999992013030201004-07317-039300FM-15+0409SBJU V0209999C000019999999Y0099001N1+02701+02101999999ADDMA1101291999999REMMET045METAR SBJU 020100Z 00000KT CAVOK 27/21 Q1013;
0072827840999992013030202004-07317-039300FM-15+0409SBJU V0209999C000019999999Y0099001N1+02701+02201999999ADDMA1101291999999REMMET045METAR SBJU 020200Z 00000KT CAVOK 27/22 Q1013;
0072827840999992013030203004-07317-039300FM-15+0409SBJU V0209999C000019999999Y0099001N1+02701+02201999999ADDMA1101291999999REMMET045METAR SBJU 020300Z 00000KT CAVOK 27/22 Q1013;
0072827840999992013030204004-07317-039300FM-15+0409SBJU V0202101N001519999999Y0099001N1+02701+02101999999ADDMA1101391999999REMMET045METAR SBJU 020400Z 21003KT CAVOK 27/21 Q1014;
0072827840999992013030205004-07317-039300FM-15+0409SBJU V0209999C000019999999Y0099001N1+02701+02101999999ADDMA1101291999999REMMET045METAR SBJU 020500Z 00000KT CAVOK 27/21 Q1013;
0072827840999992013030206004-07317-039300FM-15+0409SBJU V0209999C000019999999Y0099001N1+02501+02001999999ADDMA1101391999999REMMET045METAR SBJU 020600Z 00000KT CAVOK 25/20 Q1014;
0072827840999992013030207004-07317-039300FM-15+0409SBJU V0209999C000019999999Y0099001N1+02401+02001999999ADDMA1101391999999REMMET045METAR SBJU 020700Z 00000KT CAVOK 24/20 Q1014;
0072827840999992013030208004-07317-039300FM-15+0409SBJU V0209999C000019999999Y0099001N1+02301+01901999999ADDMA1101491999999REMMET045METAR SBJU 020800Z 00000KT CAVOK 23/19 Q1015;
0072827840999992013030209004-07317-039300FM-15+0409SBJU V0202101N001519999999Y0099001N1+02401+01801999999ADDMA1101491999999REMMET045METAR SBJU 020900Z 21003KT CAVOK 24/18 Q1015;
0072827840999992013030210004-07317-039300FM-15+0409SBJU V0202001N002119999999Y0099001N1+02501+01901999999ADDMA1101591999999REMMET045METAR SBJU 021000Z 20004KT CAVOK 25/19 Q1016;
0072827840999992013030211004-07317-039300FM-15+0409SBJU V0201301N004619999999Y0099001N1+02801+01901999999ADDMA1101591999999REMMET045METAR SBJU 021100Z 13009KT CAVOK 28/19 Q1016;
0120827840999992013030212004-07317-039300FM-15+0409SBJU V0201301N006212200019N0112651N1+02901+01901999999ADDGA1021+006901999GF102991999999999999999999MA1101691999999REMMET051METAR SBJU 021200Z 13012KT 9999 FEW023 29/19 Q1017;
0120827840999992013030213004-07317-039300FM-15+0409SBJU V0201501N005112200019N0112651N1+03001+01901999999ADDGA1041+006901999GF104991999999999999999999MA1101591999999REMMET051METAR SBJU 021300Z 15010KT 9999 SCT023 30/19 Q1016;
0120827840999992013030214004-07317-039300FM-15+0409SBJU V0201601N006210069019N0112651N1+03101+02001999999ADDGA1071+006901999GF107991999999999999999999MA1101591999999REMMET051METAR SBJU 021400Z 16012KT 9999 BKN023 31/20 Q1016;
0120827840999992013030215004-07317-039300FM-15+0409SBJU V0201601N005110069019N0112651N1+03201+01901999999ADDGA1071+006901999GF107991999999999999999999MA1101491999999REMMET051METAR SBJU 021500Z 16010KT 9999 BKN023 32/19 Q1015;
0120827840999992013030216004-07317-039300FM-15+0409SBJU V0201201N003610069019N0112651N1+03301+02201999999ADDGA1071+006901999GF107991999999999999999999MA1101391999999REMMET051METAR SBJU 021600Z 12007KT 9999 BKN023 33/22 Q1014;
0120827840999992013030217004-07317-039300FM-15+0409SBJU V0201601N003110069019N0112651N1+03301+02101999999ADDGA1071+006901999GF107991999999999999999999MA1101291999999REMMET051METAR SBJU 021700Z 16006KT 9999 BKN023 33/21 Q1013;
0120827840999992013030218004-07317-039300FM-15+0409SBJU V0201001N003610069019N0112651N1+03401+02101999999ADDGA1071+006901999GF107991999999999999999999MA1101191999999REMMET051METAR SBJU 021800Z 10007KT 9999 BKN023 34/21 Q1012;
0120827840999992013030219004-07317-039300FM-15+0409SBJU V0201101N003610069019N0112651N1+03601+01901999999ADDGA1071+006901999GF107991999999999999999999MA1101191999999REMMET051METAR SBJU 021900Z 11007KT 9999 BKN023 36/19 Q1012;
0120827840999992013030220004-07317-039300FM-15+0409SBJU V0200601N002112200019N0112651N1+03501+01901999999ADDGA1041+006901999GF104991999999999999999999MA1101191999999REMMET051METAR SBJU 022000Z 06004KT 9999 SCT023 35/19 Q1012;
0120827840999992013030221004-07317-039300FM-15+0409SBJU V0201201N001012200019N0112651N1+03201+01801999999ADDGA1021+006601999GF102991999999999999999999MA1101191999999REMMET051METAR SBJU 022100Z 12002KT 9999 FEW022 32/18 Q1012;
0120827840999992013030222004-07317-039300FM-15+0409SBJU V0201801N002112200019N0112651N1+03001+02201999999ADDGA1041+006301999GF104991999999999999999999MA1101291999999REMMET051METAR SBJU 022200Z 18004KT 9999 SCT021 30/22 Q1013;
0120827840999992013030223004-07317-039300FM-15+0409SBJU V0201901N002112200019N0112651N1+02901+02101999999ADDGA1041+006301999GF104991999999999999999999MA1101291999999REMMET051METAR SBJU 022300Z 19004KT 9999 SCT021 29/21 Q1013;
0120827840999992013030300004-07317-039300FM-15+0409SBJU V0200401N001012200019N0112651N1+02901+02101999999ADDGA1041+006001999GF104991999999999999999999MA1101491999999REMMET051METAR SBJU 030000Z 04002KT 9999 SCT020 29/21 Q1015;
0120827840999992013030301004-07317-039300FM-15+0409SBJU V0209999C000012200019N0112651N1+02801+02101999999ADDGA1041+006001999GF104991999999999999999999MA1101591999999REMMET051METAR SBJU 030100Z 00000KT 9999 SCT020 28/21 Q1016;
0120827840999992013030302004-07317-039300FM-15+0409SBJU V0209999C000012200019N0112651N1+02701+02001999999ADDGA1041+006001999GF104991999999999999999999MA1101591999999REMMET051METAR SBJU 030200Z 00000KT 9999 SCT020 27/20 Q1016;
0120827840999992013030303004-07317-039300FM-15+0409SBJU V0201501N001012200019N0112651N1+02701+02001999999ADDGA1041+006001999GF104991999999999999999999MA1101591999999REMMET051METAR SBJU 030300Z 15002KT 9999 SCT020 27/20 Q1016;
0120827840999992013030304004-07317-039300FM-15+0409SBJU V0202001N001012200019N0112651N1+02601+02001999999ADDGA1041+006001999GF104991999999999999999999MA1101591999999REMMET051METAR SBJU 030400Z 20002KT 9999 SCT020 26/20 Q1016;
0120827840999992013030305004-07317-039300FM-15+0409SBJU V0202301N001012200019N0112651N1+02601+02001999999ADDGA1041+006001999GF104991999999999999999999MA1101591999999REMMET051METAR SBJU 030500Z 23002KT 9999 SCT020 26/20 Q1016;
0120827840999992013030306004-07317-039300FM-15+0409SBJU V0201801N002612200019N0112651N1+02501+01801999999ADDGA1041+006001999GF104991999999999999999999MA1101491999999REMMET051METAR SBJU 030600Z 18005KT 9999 SCT020 25/18 Q1015;
0120827840999992013030307004-07317-039300FM-15+0409SBJU V0202001N002112200019N0112651N1+02401+01801999999ADDGA1021+006001999GF102991999999999999999999MA1101591999999REMMET051METAR SBJU 030700Z 20004KT 9999 FEW020 24/18 Q1016;
0120827840999992013030308004-07317-039300FM-15+0409SBJU V0202001N002612200019N0112651N1+02401+01801999999ADDGA1021+006001999GF102991999999999999999999MA1101591999999REMMET051METAR SBJU 030800Z 20005KT 9999 FEW020 24/18 Q1016;
0072827840999992013030309004-07317-039300FM-15+0409SBJU V0201701N002119999999Y0099001N1+02301+01901999999ADDMA1101691999999REMMET045METAR SBJU 030900Z 17004KT CAVOK 23/19 Q1017;
0120827840999992013030310004-07317-039300FM-15+0409SBJU V0201701N004612200019N0112651N1+02501+01901999999ADDGA1021+006001999GF102991999999999999999999MA1101801999999REMMET051METAR SBJU 031000Z 17009KT 9999 FEW020 25/19 Q1018;
0072827840999992013030311004-07317-039300FM-15+0409SBJU V0201701N006219999999Y0099001N1+02801+01901999999ADDMA1101901999999REMMET045METAR SBJU 031100Z 17012KT CAVOK 28/19 Q1019;
0120827840999992013030312004-07317-039300FM-15+0409SBJU V0201501N008212200019N0112651N1+02901+02001999999ADDGA1041+006001999GF104991999999999999999999MA1101901999999REMMET051METAR SBJU 031200Z 15016KT 9999 SCT020 29/20 Q1019;
0120827840999992013030313004-07317-039300FM-15+0409SBJU V0201401N006712200019N0112651N1+03001+01901999999ADDGA1041+006001999GF104991999999999999999999MA1101901999999REMMET051METAR SBJU 031300Z 14013KT 9999 SCT020 30/19 Q1019;
0120827840999992013030314004-07317-039300FM-15+0409SBJU V0201801N004612200019N0112651N1+03201+02001999999ADDGA1041+006001999GF104991999999999999999999MA1101801999999REMMET051METAR SBJU 031400Z 18009KT 9999 SCT020 32/20 Q1018;
0120827840999992013030315004-07317-039300FM-15+0409SBJU V0201601N006712200019N0112651N1+03301+01801999999ADDGA1021+006001999GF102991999999999999999999MA1101591999999REMMET051METAR SBJU 031500Z 16013KT 9999 FEW020 33/18 Q1016;
0120827840999992013030316004-07317-039300FM-15+0409SBJU V0201501N004112200019N0112651N1+03401+02001999999ADDGA1041+006001999GF104991999999999999999999MA1101491999999REMMET051METAR SBJU 031600Z 15008KT 9999 SCT020 34/20 Q1015;
0120827840999992013030317004-07317-039300FM-15+0409SBJU V0201401N003612200019N0112651N1+03401+01801999999ADDGA1041+006001999GF104991999999999999999999MA1101391999999REMMET051METAR SBJU 031700Z 14007KT 9999 SCT020 34/18 Q1014;
0120827840999992013030318004-07317-039300FM-15+0409SBJU V0201501N004112200019N0112651N1+03501+01801999999ADDGA1041+006001999GF104991999999999999999999MA1101291999999REMMET051METAR SBJU 031800Z 15008KT 9999 SCT020 35/18 Q1013;
0120827840999992013030319004-07317-039300FM-15+0409SBJU V0201701N005112200019N0112651N1+03501+01901999999ADDGA1041+006001999GF104991999999999999999999MA1101191999999REMMET051METAR SBJU 031900Z 17010KT 9999 SCT020 35/19 Q1012;
0120827840999992013030320004-07317-039300FM-15+0409SBJU V0201601N003112200019N0112651N1+03501+01901999999ADDGA1021+006001999GF102991999999999999999999MA1101191999999REMMET051METAR SBJU 032000Z 16006KT 9999 FEW020 35/19 Q1012;
0120827840999992013030321004-07317-039300FM-15+0409SBJU V0201601N002112200019N0112651N1+03301+02101999999ADDGA1041+006001999GF104991999999999999999999MA1101291999999REMMET051METAR SBJU 032100Z 16004KT 9999 SCT020 33/21 Q1013;
0120827840999992013030322004-07317-039300FM-15+0409SBJU V0201501N001512200019N0112651N1+03401+02301999999ADDGA1041+006001999GF104991999999999999999999MA1101291999999REMMET051METAR SBJU 032200Z 15003KT 9999 SCT020 34/23 Q1013;
0120827840999992013030323004-07317-039300FM-15+0409SBJU V0201401N002112200019N0112651N1+02901+02101999999ADDGA1021+006001999GF102991999999999999999999MA1101391999999REMMET051METAR SBJU 032300Z 14004KT 9999 FEW020 29/21 Q1014;
0130827840999992013030400004-07317-039300FM-15+0409SBJU V0201501N003610060019N0080001N1+02701+02101999999ADDGA1071+006001999GF107991999999999999999999MA1101491999999MW1611REMMET055METAR SBJU 040000Z 15007KT 8000 -RA BKN020 27/21 Q1015;
0120827840999992013030401004-07317-039300FM-15+0409SBJU V0201901N001510060019N0112651N1+02801+02201999999ADDGA1071+006001999GF107991999999999999999999MA1101591999999REMMET051METAR SBJU 040100Z 19003KT 9999 BKN020 28/22 Q1016;
0120827840999992013030402004-07317-039300FM-15+0409SBJU V0201701N003610060019N0112651N1+02701+02201999999ADDGA1071+006001999GF107991999999999999999999MA1101591999999REMMET051METAR SBJU 040200Z 17007KT 9999 BKN020 27/22 Q1016;
0120827840999992013030403004-07317-039300FM-15+0409SBJU V0209999C000012200019N0112651N1+02701+02001999999ADDGA1041+006001999GF104991999999999999999999MA1101591999999REMMET051METAR SBJU 040300Z 00000KT 9999 SCT020 27/20 Q1016;
0072827840999992013030404004-07317-039300FM-15+0409SBJU V0209999C000019999999Y0099001N1+02701+02001999999ADDMA1101591999999REMMET045METAR SBJU 040400Z 00000KT CAVOK 27/20 Q1016;
0072827840999992013030405004-07317-039300FM-15+0409SBJU V0209999C000019999999Y0099001N1+02601+02001999999ADDMA1101591999999REMMET045METAR SBJU 040500Z 00000KT CAVOK 26/20 Q1016;
0072827840999992013030406004-07317-039300FM-15+0409SBJU V0209999C000019999999Y0099001N1+02501+01801999999ADDMA1101591999999REMMET045METAR SBJU 040600Z 00000KT CAVOK 25/18 Q1016;
0072827840999992013030407004-07317-039300FM-15+0409SBJU V0209999C000019999999Y0099001N1+02401+01801999999ADDMA1101591999999REMMET045METAR SBJU 040700Z 00000KT CAVOK 24/18 Q1016;
0072827840999992013030408004-07317-039300FM-15+0409SBJU V0209999C000019999999Y0099001N1+02401+01901999999ADDMA1101591999999REMMET045METAR SBJU 040800Z 00000KT CAVOK 24/19 Q1016;
0072827840999992013030409004-07317-039300FM-15+0409SBJU V0202501N001519999999Y0099001N1+02301+01901999999ADDMA1101591999999REMMET045METAR SBJU 040900Z 25003KT CAVOK 23/19 Q1016;
0120827840999992013030410004-07317-039300FM-15+0409SBJU V0201901N003612200019N0112651N1+02501+02101999999ADDGA1021+006001999GF102991999999999999999999MA1101801999999REMMET051METAR SBJU 041000Z 19007KT 9999 FEW020 25/21 Q1018;
0120827840999992013030411004-07317-039300FM-15+0409SBJU V0201601N004612200019N0112651N1+02701+02001999999ADDGA1021+006001999GF102991999999999999999999MA1101801999999REMMET051METAR SBJU 041100Z 16009KT 9999 FEW020 27/20 Q1018;
0120827840999992013030412004-07317-039300FM-15+0409SBJU V0201201N002112200019N0112651N1+02901+02001999999ADDGA1021+006301999GF102991999999999999999999MA1101801999999REMMET051METAR SBJU 041200Z 12004KT 9999 FEW021 29/20 Q1018;
0120827840999992013030413004-07317-039300FM-15+0409SBJU V0209999C000012200019N0112651N1+03101+02201999999ADDGA1021+006301999GF102991999999999999999999MA1101801999999REMMET051METAR SBJU 041300Z 00000KT 9999 FEW021 31/22 Q1018;
0120827840999992013030414004-07317-039300FM-15+0409SBJU V0201501N004612200019N0112651N1+03201+02101999999ADDGA1021+006301999GF102991999999999999999999MA1101691999999REMMET051METAR SBJU 041400Z 15009KT 9999 FEW021 32/21 Q1017;
0120827840999992013030415004-07317-039300FM-15+0409SBJU V0201601N004112200019N0112651N1+03401+02001999999ADDGA1021+006301999GF102991999999999999999999MA1101591999999REMMET051METAR SBJU 041500Z 16008KT 9999 FEW021 34/20 Q1016;
0120827840999992013030416004-07317-039300FM-15+0409SBJU V0201401N003112200019N0112651N1+03401+02101999999ADDGA1041+006301999GF104991999999999999999999MA1101491999999REMMET051METAR SBJU 041600Z 14006KT 9999 SCT021 34/21 Q1015;
0120827840999992013030417004-07317-039300FM-15+0409SBJU V0201101N003612200019N0112651N1+03401+02301999999ADDGA1041+006301999GF104991999999999999999999MA1101391999999REMMET051METAR SBJU 041700Z 11007KT 9999 SCT021 34/23 Q1014;
0120827840999992013030418004-07317-039300FM-15+0409SBJU V0201101N003112200019N0112651N1+03501+02101999999ADDGA1041+006601999GF104991999999999999999999MA1101291999999REMMET051METAR SBJU 041800Z 11006KT 9999 SCT022 35/21 Q1013;
0120827840999992013030419004-07317-039300FM-15+0409SBJU V0202101N003612200019N0112651N1+03601+02401999999ADDGA1041+006601999GF104991999999999999999999MA1101291999999REMMET051METAR SBJU 041900Z 21007KT 9999 SCT022 36/24 Q1013;
0146827840999992013030420004-07317-039300FM-15+0409SBJU V0201701N007712200019N0112651N1+02701+01601999999ADDGA1021+006301021GA2041+006601999GF104991999999999999999999MA1101391999999REMMET061METAR SBJU 042000Z 17015KT 9999 FEW021TCU SCT022 27/16 Q1014;
0120827840999992013030421004-07317-039300FM-15+0409SBJU V0203601N001512200019N0112651N1+02801+01901999999ADDGA1041+006601999GF104991999999999999999999MA1101391999999REMMET051METAR SBJU 042100Z 36003KT 9999 SCT022 28/19 Q1014;
0120827840999992013030422004-07317-039300FM-15+0409SBJU V0200301N001512200019N0112651N1+02901+01801999999ADDGA1021+006001999GF102991999999999999999999MA1101391999999REMMET051METAR SBJU 042200Z 03003KT 9999 FEW020 29/18 Q1014;
0072827840999992013030423004-07317-039300FM-15+0409SBJU V0200701N003619999999Y0099001N1+02801+01301999999ADDMA1101591999999REMMET045METAR SBJU 042300Z 07007KT CAVOK 28/13 Q1016;
0072827840999992013030500004-07317-039300FM-15+0409SBJU V0200801N001519999999Y0099001N1+02701+01701999999ADDMA1101591999999REMMET045METAR SBJU 050000Z 08003KT CAVOK 27/17 Q1016;
0120827840999992013030501004-07317-039300FM-15+0409SBJU V0201701N002612200019N0112651N1+02701+01701999999ADDGA1021+006601999GF102991999999999999999999MA1101691999999REMMET051METAR SBJU 050100Z 17005KT 9999 FEW022 27/17 Q1017;
0143827840999992013030502004-07317-039300FM-15+0409SBJU V0202601N001510210019N0112651N1+02601+01801999999ADDGA1021+006001999GA2071+021001999GF107991999999999999999999MA1101591999999REMMET058METAR SBJU 050200Z 26003KT 9999 FEW020 BKN070 26/18 Q1016;
0143827840999992013030503004-07317-039300FM-15+0409SBJU V0209999C000010210019N0112651N1+02701+01701999999ADDGA1021+006001999GA2071+021001999GF107991999999999999999999MA1101591999999REMMET058METAR SBJU 050300Z 00000KT 9999 FEW020 BKN070 27/17 Q1016;
0120827840999992013030504004-07317-039300FM-15+0409SBJU V0200501N001010060019N0112651N1+02601+02201999999ADDGA1071+006001999GF107991999999999999999999MA1101491999999REMMET051METAR SBJU 050400Z 05002KT 9999 BKN020 26/22 Q1015;
0120827840999992013030505004-07317-039300FM-15+0409SBJU V0200901N001010060019N0112651N1+02601+02401999999ADDGA1071+006001999GF107991999999999999999999MA1101491999999REMMET051METAR SBJU 050500Z 09002KT 9999 BKN020 26/24 Q1015;
0120827840999992013030506004-07317-039300FM-15+0409SBJU V0209999C000010060019N0112651N1+02601+02501999999ADDGA1071+006001999GF107991999999999999999999MA1101491999999REMMET051METAR SBJU 050600Z 00000KT 9999 BKN020 26/25 Q1015;
0120827840999992013030507004-07317-039300FM-15+0409SBJU V0200401N001010060019N0112651N1+02601+02201999999ADDGA1071+006001999GF107991999999999999999999MA1101491999999REMMET051METAR SBJU 050700Z 04002KT 9999 BKN020 26/22 Q1015;
0120827840999992013030508004-07317-039300FM-15+0409SBJU V0209999C000010060019N0112651N1+02501+02401999999ADDGA1071+006001999GF107991999999999999999999MA1101491999999REMMET051METAR SBJU 050800Z 00000KT 9999 BKN020 25/24 Q1015;
0120827840999992013030509004-07317-039300FM-15+0409SBJU V0201601N001012200019N0112651N1+02501+02001999999ADDGA1021+006001999GF102991999999999999999999MA1101591999999REMMET051METAR SBJU 050900Z 16002KT 9999 FEW020 25/20 Q1016;
0120827840999992013030510004-07317-039300FM-15+0409SBJU V0209999C000012200019N0112651N1+02701+02001999999ADDGA1021+006001999GF102991999999999999999999MA1101691999999REMMET051METAR SBJU 051000Z 00000KT 9999 FEW020 27/20 Q1017;
0120827840999992013030511004-07317-039300FM-15+0409SBJU V0201801N001512200019N0112651N1+02901+02401999999ADDGA1021+006001999GF102991999999999999999999MA1101691999999REMMET051METAR SBJU 051100Z 18003KT 9999 FEW020 29/24 Q1017;
0120827840999992013030512004-07317-039300FM-15+0409SBJU V0201501N001512200019N0112651N1+03101+02101999999ADDGA1021+006301999GF102991999999999999999999MA1101691999999REMMET051METAR SBJU 051200Z 15003KT 9999 FEW021 31/21 Q1017;
0120827840999992013030513004-07317-039300FM-15+0409SBJU V0202101N004612200019N0112651N1+03401+02501999999ADDGA1021+006301999GF102991999999999999999999MA1101691999999REMMET051METAR SBJU 051300Z 21009KT 9999 FEW021 34/25 Q1017;
0120827840999992013030514004-07317-039300FM-15+0409SBJU V0201301N004612200019N0112651N1+03301+02201999999ADDGA1041+006601999GF104991999999999999999999MA1101691999999REMMET051METAR SBJU 051400Z 13009KT 9999 SCT022 33/22 Q1017;
0120827840999992013030515004-07317-039300FM-15+0409SBJU V0201401N005712200019N0112651N1+03401+02101999999ADDGA1041+006601999GF104991999999999999999999MA1101591999999REMMET051METAR SBJU 051500Z 14011KT 9999 SCT022 34/21 Q1016;
0120827840999992013030516004-07317-039300FM-15+0409SBJU V0201301N006210066019N0112651N1+03401+02001999999ADDGA1071+006601999GF107991999999999999999999MA1101491999999REMMET051METAR SBJU 051600Z 13012KT 9999 BKN022 34/20 Q1015;
0120827840999992013030517004-07317-039300FM-15+0409SBJU V0201201N005110066019N0112651N1+03501+02401999999ADDGA1071+006601999GF107991999999999999999999MA1101291999999REMMET051METAR SBJU 051700Z 12010KT 9999 BKN022 35/24 Q1013;
0120827840999992013030518004-07317-039300FM-15+0409SBJU V0201001N004112200019N0112651N1+03501+02401999999ADDGA1041+006601999GF104991999999999999999999MA1101291999999REMMET051METAR SBJU 051800Z 10008KT 9999 SCT022 35/24 Q1013;
0120827840999992013030519004-07317-039300FM-15+0409SBJU V0201201N004612200019N0112651N1+03501+02101999999ADDGA1021+006601999GF102991999999999999999999MA1101191999999REMMET051METAR SBJU 051900Z 12009KT 9999 FEW022 35/21 Q1012;
0120827840999992013030520004-07317-039300FM-15+0409SBJU V0201001N002612200019N0112651N1+03601+02001999999ADDGA1021+006601999GF102991999999999999999999MA1101191999999REMMET051METAR SBJU 052000Z 10005KT 9999 FEW022 36/20 Q1012;
0120827840999992013030521004-07317-039300FM-15+0409SBJU V0200801N001512200019N0112651N1+03301+02001999999ADDGA1021+006601999GF102991999999999999999999MA1101291999999REMMET051METAR SBJU 052100Z 08003KT 9999 FEW022 33/20 Q1013;
0120827840999992013030522004-07317-039300FM-15+0409SBJU V0201801N001012200019N0112651N1+03101+02201999999ADDGA1021+006601999GF102991999999999999999999MA1101291999999REMMET051METAR SBJU 052200Z 18002KT 9999 FEW022 31/22 Q1013;
0120827840999992013030523004-07317-039300FM-15+0409SBJU V0202501N001512200019N0112651N1+02901+02101999999ADDGA1021+006601999GF102991999999999999999999MA1101391999999REMMET051METAR SBJU 052300Z 25003KT 9999 FEW022 29/21 Q1014;
0120827840999992013030600004-07317-039300FM-15+0409SBJU V0209999C000012200019N0112651N1+02901+02101999999ADDGA1021+006301999GF102991999999999999999999MA1101391999999REMMET051METAR SBJU 060000Z 00000KT 9999 FEW021 29/21 Q1014;
0120827840999992013030601004-07317-039300FM-15+0409SBJU V0201301N001512200019N0112651N1+02701+02101999999ADDGA1021+006301999GF102991999999999999999999MA1101491999999REMMET051METAR SBJU 060100Z 13003KT 9999 FEW021 27/21 Q1015;
0143827840999992013030602004-07317-039300FM-15+0409SBJU V0209999C000012200019N0112651N1+02701+02101999999ADDGA1041+006001999GA2041+021001999GF104991999999999999999999MA1101491999999REMMET058METAR SBJU 060200Z 00000KT 9999 SCT020 SCT070 27/21 Q1015;
0120827840999992013030603004-07317-039300FM-15+0409SBJU V0201601N002110060019N0112651N1+02701+02101999999ADDGA1071+006001999GF107991999999999999999999MA1101491999999REMMET051METAR SBJU 060300Z 16004KT 9999 BKN020 27/21 Q1015;
0120827840999992013030604004-07317-039300FM-15+0409SBJU V0209999C000010060019N0112651N1+02601+02301999999ADDGA1071+006001999GF107991999999999999999999MA1101491999999REMMET051METAR SBJU 060400Z 00000KT 9999 BKN020 26/23 Q1015;
0120827840999992013030605004-07317-039300FM-15+0409SBJU V0209999C000010060019N0112651N1+02601+02001999999ADDGA1071+006001999GF107991999999999999999999MA1101491999999REMMET051METAR SBJU 060500Z 00000KT 9999 BKN020 26/20 Q1015;
0120827840999992013030606004-07317-039300FM-15+0409SBJU V0209999C000010060019N0112651N1+02601+02201999999ADDGA1071+006001999GF107991999999999999999999MA1101491999999REMMET051METAR SBJU 060600Z 00000KT 9999 BKN020 26/22 Q1015;
0120827840999992013030607004-07317-039300FM-15+0409SBJU V0201201N002110060019N0112651N1+02601+02201999999ADDGA1071+006001999GF107991999999999999999999MA1101491999999REMMET051METAR SBJU 060700Z 12004KT 9999 BKN020 26/22 Q1015;
0120827840999992013030608004-07317-039300FM-15+0409SBJU V0201601N002110060019N0112651N1+02601+02201999999ADDGA1071+006001999GF107991999999999999999999MA1101491999999REMMET051METAR SBJU 060800Z 16004KT 9999 BKN020 26/22 Q1015;
0072827840999992013030609004-07317-039300FM-15+0409SBJU V0209999C000019999999Y0099001N1+02401+02101999999ADDMA1101591999999REMMET045METAR SBJU 060900Z 00000KT CAVOK 24/21 Q1016;
0072827840999992013030610004-07317-039300FM-15+0409SBJU V0201301N001519999999Y0099001N1+02501+02101999999ADDMA1101691999999REMMET045METAR SBJU 061000Z 13003KT CAVOK 25/21 Q1017;
0072827840999992013030611004-07317-039300FM-15+0409SBJU V0201001N002619999999Y0099001N1+02601+02201999999ADDMA1101691999999REMMET045METAR SBJU 061100Z 10005KT CAVOK 26/22 Q1017;
0072827840999992013030612004-07317-039300FM-15+0409SBJU V0201201N001519999999Y0099001N1+03001+02101999999ADDMA1101801999999REMMET045METAR SBJU 061200Z 12003KT CAVOK 30/21 Q1018;
0120827840999992013030613004-07317-039300FM-15+0409SBJU V0200901N003612200019N0112651N1+03301+02401999999ADDGA1021+006001999GF102991999999999999999999MA1101801999999REMMET051METAR SBJU 061300Z 09007KT 9999 FEW020 33/24 Q1018;
0120827840999992013030614004-07317-039300FM-15+0409SBJU V0201201N004112200019N0112651N1+03301+02201999999ADDGA1021+006001999GF102991999999999999999999MA1101691999999REMMET051METAR SBJU 061400Z 12008KT 9999 FEW020 33/22 Q1017;
0120827840999992013030615004-07317-039300FM-15+0409SBJU V0201201N003612200019N0112651N1+03301+02101999999ADDGA1041+006601999GF104991999999999999999999MA1101591999999REMMET051METAR SBJU 061500Z 12007KT 9999 SCT022 33/21 Q1016;
0120827840999992013030616004-07317-039300FM-15+0409SBJU V0201301N005112200019N0112651N1+03401+02101999999ADDGA1041+006301999GF104991999999999999999999MA1101491999999REMMET051METAR SBJU 061600Z 13010KT 9999 SCT021 34/21 Q1015;
0120827840999992013030617004-07317-039300FM-15+0409SBJU V0201301N004112200019N0112651N1+03401+02201999999ADDGA1041+006601999GF104991999999999999999999MA1101291999999REMMET051METAR SBJU 061700Z 13008KT 9999 SCT022 34/22 Q1013;
0120827840999992013030618004-07317-039300FM-15+0409SBJU V0200701N001512200019N0112651N1+03401+02101999999ADDGA1021+006301999GF102991999999999999999999MA1101291999999REMMET051METAR SBJU 061800Z 07003KT 9999 FEW021 34/21 Q1013;
0120827840999992013030619004-07317-039300FM-15+0409SBJU V0201001N002112200019N0112651N1+03401+02001999999ADDGA1021+006301999GF102991999999999999999999MA1101191999999REMMET051METAR SBJU 061900Z 10004KT 9999 FEW021 34/20 Q1012;
0120827840999992013030620004-07317-039300FM-15+0409SBJU V0200401N003112200019N0112651N1+03401+02101999999ADDGA1021+006301999GF102991999999999999999999MA1101191999999REMMET051METAR SBJU 062000Z 04006KT 9999 FEW021 34/21 Q1012;
0120827840999992013030621004-07317-039300FM-15+0409SBJU V0200301N001512200019N0112651N1+03401+02001999999ADDGA1021+006301999GF102991999999999999999999MA1101291999999REMMET051METAR SBJU 062100Z 03003KT 9999 FEW021 34/20 Q1013;
0072827840999992013030622004-07317-039300FM-15+0409SBJU V0209999C000019999999Y0099001N1+03101+02201999999ADDMA1101291999999REMMET045METAR SBJU 062200Z 00000KT CAVOK 31/22 Q1013;
0072827840999992013030623004-07317-039300FM-15+0409SBJU V0209999C000019999999Y0099001N1+02901+02101999999ADDMA1101391999999REMMET045METAR SBJU 062300Z 00000KT CAVOK 29/21 Q1014;
0072827840999992013030700004-07317-039300FM-15+0409SBJU V0209999C000019999999Y0099001N1+02801+02101999999ADDMA1101491999999REMMET045METAR SBJU 070000Z 00000KT CAVOK 28/21 Q1015;
0072827840999992013030701004-07317-039300FM-15+0409SBJU V0209999C000019999999Y0099001N1+02701+02101999999ADDMA1101591999999REMMET045METAR SBJU 070100Z 00000KT CAVOK 27/21 Q1016;
0072827840999992013030702004-07317-039300FM-15+0409SBJU V0209999C000019999999Y0099001N1+02601+02001999999ADDMA1101591999999REMMET045METAR SBJU 070200Z 00000KT CAVOK 26/20 Q1016;
0120827840999992013030703004-07317-039300FM-15+0409SBJU V0209999C000012200019N0112651N1+02701+02201999999ADDGA1041+006001999GF104991999999999999999999MA1101491999999REMMET051METAR SBJU 070300Z 00000KT 9999 SCT020 27/22 Q1015;
0120827840999992013030704004-07317-039300FM-15+0409SBJU V0200601N002612200019N0112651N1+02701+02001999999ADDGA1041+006001999GF104991999999999999999999MA1101491999999REMMET051METAR SBJU 070400Z 06005KT 9999 SCT020 27/20 Q1015;
0120827840999992013030705004-07317-039300FM-15+0409SBJU V0209999C000012200019N0112651N1+02601+02201999999ADDGA1041+006001999GF104991999999999999999999MA1101491999999REMMET051METAR SBJU 070500Z 00000KT 9999 SCT020 26/22 Q1015;
0120827840999992013030706004-07317-039300FM-15+0409SBJU V0209999C000012200019N0112651N1+02601+02201999999ADDGA1041+006001999GF104991999999999999999999MA1101591999999REMMET051METAR SBJU 070600Z 00000KT 9999 SCT020 26/22 Q1016;
0120827840999992013030707004-07317-039300FM-15+0409SBJU V0209999C000012200019N0112651N1+02601+02201999999ADDGA1041+006001999GF104991999999999999999999MA1101591999999REMMET051METAR SBJU 070700Z 00000KT 9999 SCT020 26/22 Q1016;
0120827840999992013030708004-07317-039300FM-15+0409SBJU V0209999C000012200019N0112651N1+02601+02101999999ADDGA1041+006001999GF104991999999999999999999MA1101591999999REMMET051METAR SBJU 070800Z 00000KT 9999 SCT020 26/21 Q1016;
0120827840999992013030709004-07317-039300FM-15+0409SBJU V0209999C000010060019N0112651N1+02401+02101999999ADDGA1071+006001999GF107991999999999999999999MA1101591999999REMMET051METAR SBJU 070900Z 00000KT 9999 BKN020 24/21 Q1016;
0120827840999992013030710004-07317-039300FM-15+0409SBJU V0200901N002112200019N0112651N1+02501+02001999999ADDGA1041+006001999GF104991999999999999999999MA1101691999999REMMET051METAR SBJU 071000Z 09004KT 9999 SCT020 25/20 Q1017;
0120827840999992013030711004-07317-039300FM-15+0409SBJU V0200901N005112200019N0112651N1+02801+02101999999ADDGA1041+006301999GF104991999999999999999999MA1101801999999REMMET051METAR SBJU 071100Z 09010KT 9999 SCT021 28/21 Q1018;
0120827840999992013030712004-07317-039300FM-15+0409SBJU V0201201N003612200019N0112651N1+02901+02101999999ADDGA1041+006301999GF104991999999999999999999MA1101801999999REMMET051METAR SBJU 071200Z 12007KT 9999 SCT021 29/21 Q1018;
0120827840999992013030713004-07317-039300FM-15+0409SBJU V0201101N004612200019N0112651N1+03101+02201999999ADDGA1041+006301999GF104991999999999999999999MA1101801999999REMMET051METAR SBJU 071300Z 11009KT 9999 SCT021 31/22 Q1018;
0120827840999992013030714004-07317-039300FM-15+0409SBJU V0201001N002612200019N0112651N1+03301+02001999999ADDGA1041+006301999GF104991999999999999999999MA1101691999999REMMET051METAR SBJU 071400Z 10005KT 9999 SCT021 33/20 Q1017;
0120827840999992013030715004-07317-039300FM-15+0409SBJU V0201201N002612200019N0112651N1+03301+02101999999ADDGA1041+006301999GF104991999999999999999999MA1101591999999REMMET051METAR SBJU 071500Z 12005KT 9999 SCT021 33/21 Q1016;
0120827840999992013030716004-07317-039300FM-15+0409SBJU V0201601N006212200019N0112651N1+03501+02101999999ADDGA1041+006301999GF104991999999999999999999MA1101491999999REMMET051METAR SBJU 071600Z 16012KT 9999 SCT021 35/21 Q1015;
0120827840999992013030717004-07317-039300FM-15+0409SBJU V0201501N003112200019N0112651N1+03501+01801999999ADDGA1041+006301999GF104991999999999999999999MA1101391999999REMMET051METAR SBJU 071700Z 15006KT 9999 SCT021 35/18 Q1014;
0120827840999992013030718004-07317-039300FM-15+0409SBJU V0202401N003112200019N0112651N1+03501+01901999999ADDGA1041+006601999GF104991999999999999999999MA1101391999999REMMET051METAR SBJU 071800Z 24006KT 9999 SCT022 35/19 Q1014;
0120827840999992013030719004-07317-039300FM-15+0409SBJU V0201801N004612200019N0112651N1+03501+01801999999ADDGA1041+006601999GF104991999999999999999999MA1101291999999REMMET051METAR SBJU 071900Z 18009KT 9999 SCT022 35/18 Q1013;
0072827840999992013030720004-07317-039300FM-15+0409SBJU V0201801N005119999999Y0099001N1+03401+02001999999ADDMA1101391999999REMMET045METAR SBJU 072000Z 18010KT CAVOK 34/20 Q1014;
0072827840999992013030721004-07317-039300FM-15+0409SBJU V0202101N001519999999Y0099001N1+03301+02001999999ADDMA1101491999999REMMET045METAR SBJU 072100Z 21003KT CAVOK 33/20 Q1015;
0120827840999992013030722004-07317-039300FM-15+0409SBJU V0201201N001012200019N0112651N1+02901+02301999999ADDGA1021+006001999GF102991999999999999999999MA1101491999999REMMET051METAR SBJU 072200Z 12002KT 9999 FEW020 29/23 Q1015;
0120827840999992013030723004-07317-039300FM-15+0409SBJU V0202501N002112200019N0112651N1+02801+01901999999ADDGA1021+006001999GF102991999999999999999999MA1101491999999REMMET051METAR SBJU 072300Z 25004KT 9999 FEW020 28/19 Q1015;
0120827840999992013030800004-07317-039300FM-15+0409SBJU V0200601N001012200019N0112651N1+02701+01801999999ADDGA1021+006001999GF102991999999999999999999MA1101591999999REMMET051METAR SBJU 080000Z 06002KT 9999 FEW020 27/18 Q1016;
0120827840999992013030801004-07317-039300FM-15+0409SBJU V0200801N001012200019N0112651N1+02501+01901999999ADDGA1021+006001999GF102991999999999999999999MA1101691999999REMMET051METAR SBJU 080100Z 08002KT 9999 FEW020 25/19 Q1017;
0120827840999992013030802004-07317-039300FM-15+0409SBJU V0200601N001012200019N0112651N1+02501+01801999999ADDGA1021+006001999GF102991999999999999999999MA1101591999999REMMET051METAR SBJU 080200Z 06002KT 9999 FEW020 25/18 Q1016;
0120827840999992013030803004-07317-039300FM-15+0409SBJU V0202201N003112200019N0112651N1+02401+01801999999ADDGA1021+006001999GF102991999999999999999999MA1101591999999REMMET051METAR SBJU 080300Z 22006KT 9999 FEW020 24/18 Q1016;
0120827840999992013030804004-07317-039300FM-15+0409SBJU V0200901N001512200019N0112651N1+02501+01701999999ADDGA1041+006001999GF104991999999999999999999MA1101691999999REMMET051METAR SBJU 080400Z 09003KT 9999 SCT020 25/17 Q1017;
0120827840999992013030805004-07317-039300FM-15+0409SBJU V0201101N001012200019N0112651N1+02401+01901999999ADDGA1021+006001999GF102991999999999999999999MA1101691999999REMMET051METAR SBJU 080500Z 11002KT 9999 FEW020 24/19 Q1017;
0120827840999992013030806004-07317-039300FM-15+0409SBJU V0202001N001012200019N0112651N1+02401+01901999999ADDGA1021+006001999GF102991999999999999999999MA1101691999999REMMET051METAR SBJU 080600Z 20002KT 9999 FEW020 24/19 Q1017;
0120827840999992013030807004-07317-039300FM-15+0409SBJU V0201701N001012200019N0112651N1+02401+01901999999ADDGA1021+006001999GF102991999999999999999999MA1101691999999REMMET051METAR SBJU 080700Z 17002KT 9999 FEW020 24/19 Q1017;
0120827840999992013030808004-07317-039300FM-15+0409SBJU V0209999C000012200019N0112651N1+02401+02001999999ADDGA1021+006001999GF102991999999999999999999MA1101801999999REMMET051METAR SBJU 080800Z 00000KT 9999 FEW020 24/20 Q1018;
0120827840999992013030809004-07317-039300FM-15+0409SBJU V0209999C000012200019N0112651N1+02401+01901999999ADDGA1041+006001999GF104991999999999999999999MA1101801999999REMMET051METAR SBJU 080900Z 00000KT 9999 SCT020 24/19 Q1018;
0120827840999992013030810004-07317-039300FM-15+0409SBJU V0209999C000010060019N0112651N1+02401+01901999999ADDGA1071+006001999GF107991999999999999999999MA1101901999999REMMET051METAR SBJU 081000Z 00000KT 9999 BKN020 24/19 Q1019;
0120827840999992013030811004-07317-039300FM-15+0409SBJU V0209999C000010060019N0112651N1+02601+02201999999ADDGA1071+006001999GF107991999999999999999999MA1102001999999REMMET051METAR SBJU 081100Z 00000KT 9999 BKN020 26/22 Q1020;
0120827840999992013030812004-07317-039300FM-15+0409SBJU V0200901N002610060019N0112651N1+02701+02101999999ADDGA1071+006001999GF107991999999999999999999MA1102001999999REMMET051METAR SBJU 081200Z 09005KT 9999 BKN020 27/21 Q1020;
0120827840999992013030813004-07317-039300FM-15+0409SBJU V0200901N005112200019N0112651N1+02901+02101999999ADDGA1041+006001999GF104991999999999999999999MA1102001999999REMMET051METAR SBJU 081300Z 09010KT 9999 SCT020 29/21 Q1020;
0120827840999992013030814004-07317-039300FM-15+0409SBJU V0201501N005112200019N0112651N1+03101+02001999999ADDGA1041+006001999GF104991999999999999999999MA1101901999999REMMET051METAR SBJU 081400Z 15010KT 9999 SCT020 31/20 Q1019;
0120827840999992013030815004-07317-039300FM-15+0409SBJU V0200901N002612200019N0112651N1+03301+02001999999ADDGA1021+006001999GF102991999999999999999999MA1101801999999REMMET051METAR SBJU 081500Z 09005KT 9999 FEW020 33/20 Q1018;
0120827840999992013030816004-07317-039300FM-15+0409SBJU V0202301N003112200019N0112651N1+03301+02601999999ADDGA1041+006601999GF104991999999999999999999MA1101591999999REMMET051METAR SBJU 081600Z 23006KT 9999 SCT022 33/26 Q1016;
0120827840999992013030817004-07317-039300FM-15+0409SBJU V0202401N002112200019N0112651N1+03301+02201999999ADDGA1041+006601999GF104991999999999999999999MA1101591999999REMMET051METAR SBJU 081700Z 24004KT 9999 SCT022 33/22 Q1016;
0120827840999992013030818004-07317-039300FM-15+0409SBJU V0200601N002112200019N0112651N1+03401+01901999999ADDGA1021+006601999GF102991999999999999999999MA1101391999999REMMET051METAR SBJU 081800Z 06004KT 9999 FEW022 34/19 Q1014;
0120827840999992013030819004-07317-039300FM-15+0409SBJU V0200901N003612200019N0112651N1+03401+01801999999ADDGA1021+006601999GF102991999999999999999999MA1101391999999REMMET051METAR SBJU 081900Z 09007KT 9999 FEW022 34/18 Q1014;
0120827840999992013030820004-07317-039300FM-15+0409SBJU V0200901N003612200019N0112651N1+03301+02001999999ADDGA1021+006601999GF102991999999999999999999MA1101391999999REMMET051METAR SBJU 082000Z 09007KT 9999 FEW022 33/20 Q1014;
0120827840999992013030821004-07317-039300FM-15+0409SBJU V0200701N003112200019N0112651N1+03001+02001999999ADDGA1021+006601999GF102991999999999999999999MA1101491999999REMMET051METAR SBJU 082100Z 07006KT 9999 FEW022 30/20 Q1015;
0120827840999992013030822004-07317-039300FM-15+0409SBJU V0200401N001512200019N0112651N1+02901+02101999999ADDGA1021+006601999GF102991999999999999999999MA1101591999999REMMET051METAR SBJU 082200Z 04003KT 9999 FEW022 29/21 Q1016;
0120827840999992013030823004-07317-039300FM-15+0409SBJU V0209999C000012200019N0112651N1+02801+02101999999ADDGA1021+006601999GF102991999999999999999999MA1101591999999REMMET051METAR SBJU 082300Z 00000KT 9999 FEW022 28/21 Q1016;
0120827840999992013030900004-07317-039300FM-15+0409SBJU V0209999C000012200019N0112651N1+02801+02101999999ADDGA1021+006001999GF102991999999999999999999MA1101591999999REMMET051METAR SBJU 090000Z 00000KT 9999 FEW020 28/21 Q1016;
0120827840999992013030901004-07317-039300FM-15+0409SBJU V0203001N002112200019N0112651N1+02601+02001999999ADDGA1021+006001999GF102991999999999999999999MA1101691999999REMMET051METAR SBJU 090100Z 30004KT 9999 FEW020 26/20 Q1017;
0120827840999992013030902004-07317-039300FM-15+0409SBJU V0202501N001512200019N0112651N1+02601+02001999999ADDGA1021+006001999GF102991999999999999999999MA1101591999999REMMET051METAR SBJU 090200Z 25003KT 9999 FEW020 26/20 Q1016;
0120827840999992013030903004-07317-039300FM-15+0409SBJU V0209999C000012200019N0112651N1+02601+02101999999ADDGA1021+006001999GF102991999999999999999999MA1101591999999REMMET051METAR SBJU 090300Z 00000KT 9999 FEW020 26/21 Q1016;
0072827840999992013030904004-07317-039300FM-15+0409SBJU V0209999C000019999999Y0099001N1+02501+01701999999ADDMA1101691999999REMMET045METAR SBJU 090400Z 00000KT CAVOK 25/17 Q1017;
0072827840999992013030905004-07317-039300FM-15+0409SBJU V0209999C000019999999Y0099001N1+02401+01901999999ADDMA1101491999999REMMET045METAR SBJU 090500Z 00000KT CAVOK 24/19 Q1015;
0072827840999992013030906004-07317-039300FM-15+0409SBJU V0209999C000019999999Y0099001N1+02401+01901999999ADDMA1101491999999REMMET045METAR SBJU 090600Z 00000KT CAVOK 24/19 Q1015;
0072827840999992013030907004-07317-039300FM-15+0409SBJU V0209999C000019999999Y0099001N1+02401+01701999999ADDMA1101591999999REMMET045METAR SBJU 090700Z 00000KT CAVOK 24/17 Q1016;
0072827840999992013030908004-07317-039300FM-15+0409SBJU V0209999C000019999999Y0099001N1+02401+01801999999ADDMA1101591999999REMMET045METAR SBJU 090800Z 00000KT CAVOK 24/18 Q1016;
0072827840999992013030909004-07317-039300FM-15+0409SBJU V0209999C000019999999Y0099001N1+02401+01701999999ADDMA1101691999999REMMET045METAR SBJU 090900Z 00000KT CAVOK 24/17 Q1017;
0120827840999992013030910004-07317-039300FM-15+0409SBJU V0202401N002112200019N0112651N1+02501+02101999999ADDGA1021+006301999GF102991999999999999999999MA1101801999999REMMET051METAR SBJU 091000Z 24004KT 9999 FEW021 25/21 Q1018;
0120827840999992013030911004-07317-039300FM-15+0409SBJU V0202701N001010063019N0112651N1+02701+01901999999ADDGA1071+006301999GF107991999999999999999999MA1101901999999REMMET051METAR SBJU 091100Z 27002KT 9999 BKN021 27/19 Q1019;
0120827840999992013030912004-07317-039300FM-15+0409SBJU V0202001N001010063019N0112651N1+03001+02001999999ADDGA1071+006301999GF107991999999999999999999MA1101901999999REMMET051METAR SBJU 091200Z 20002KT 9999 BKN021 30/20 Q1019;
0120827840999992013030913004-07317-039300FM-15+0409SBJU V0200901N002610063019N0112651N1+03201+02101999999ADDGA1071+006301999GF107991999999999999999999MA1101901999999REMMET051METAR SBJU 091300Z 09005KT 9999 BKN021 32/21 Q1019;
0120827840999992013030914004-07317-039300FM-15+0409SBJU V0201501N003110063019N0112651N1+03301+02201999999ADDGA1071+006301999GF107991999999999999999999MA1101801999999REMMET051METAR SBJU 091400Z 15006KT 9999 BKN021 33/22 Q1018;
0120827840999992013030915004-07317-039300FM-15+0409SBJU V0200701N002610063019N0112651N1+03401+02101999999ADDGA1071+006301999GF107991999999999999999999MA1101691999999REMMET051METAR SBJU 091500Z 07005KT 9999 BKN021 34/21 Q1017;
0120827840999992013030916004-07317-039300FM-15+0409SBJU V0201801N002110066019N0112651N1+03401+02101999999ADDGA1071+006601999GF107991999999999999999999MA1101591999999REMMET051METAR SBJU 091600Z 18004KT 9999 BKN022 34/21 Q1016;
0120827840999992013030917004-07317-039300FM-15+0409SBJU V0200101N001510066019N0112651N1+03501+02101999999ADDGA1071+006601999GF107991999999999999999999MA1101391999999REMMET051METAR SBJU 091700Z 01003KT 9999 BKN022 35/21 Q1014;
0120827840999992013030918004-07317-039300FM-15+0409SBJU V0209999C000012200019N0112651N1+03601+02101999999ADDGA1041+006601999GF104991999999999999999999MA1101391999999REMMET051METAR SBJU 091800Z 00000KT 9999 SCT022 36/21 Q1014;
0120827840999992013030919004-07317-039300FM-15+0409SBJU V0201801N003112200019N0112651N1+03601+02101999999ADDGA1041+006601999GF104991999999999999999999MA1101291999999REMMET051METAR SBJU 091900Z 18006KT 9999 SCT022 36/21 Q1013;
0120827840999992013030920004-07317-039300FM-15+0409SBJU V0201301N002112200019N0112651N1+03501+01901999999ADDGA1041+006601999GF104991999999999999999999MA1101291999999REMMET051METAR SBJU 092000Z 13004KT 9999 SCT022 35/19 Q1013;
0120827840999992013030921004-07317-039300FM-15+0409SBJU V0201401N002612200019N0112651N1+03401+02001999999ADDGA1041+006601999GF104991999999999999999999MA1101391999999REMMET051METAR SBJU 092100Z 14005KT 9999 SCT022 34/20 Q1014;
0120827840999992013030922004-07317-039300FM-15+0409SBJU V0201001N001512200019N0112651N1+03101+01901999999ADDGA1021+006001999GF102991999999999999999999MA1101391999999REMMET051METAR SBJU 092200Z 10003KT 9999 FEW020 31/19 Q1014;
0120827840999992013030923004-07317-039300FM-15+0409SBJU V0209999C000012200019N0112651N1+03001+02301999999ADDGA1021+006001999GF102991999999999999999999MA1101491999999REMMET051METAR SBJU 092300Z 00000KT 9999 FEW020 30/23 Q1015;
0120827840999992013031000004-07317-039300FM-15+0409SBJU V0202101N001512200019N0112651N1+02901+02101999999ADDGA1021+006001999GF102991999999999999999999MA1101591999999REMMET051METAR SBJU 100000Z 21003KT 9999 FEW020 29/21 Q1016;
0143827840999992013031001004-07317-039300FM-15+0409SBJU V0201301N003110240019N0112651N1+02701+02401999999ADDGA1021+006001999GA2071+024001999GF107991999999999999999999MA1101691999999REMMET058METAR SBJU 100100Z 13006KT 9999 FEW020 BKN080 27/24 Q1017;
0120827840999992013031002004-07317-039300FM-15+0409SBJU V0201201N002112200019N0112651N1+02701+02101999999ADDGA1021+006001999GF102991999999999999999999MA1101691999999REMMET051METAR SBJU 100200Z 12004KT 9999 FEW020 27/21 Q1017;
0120827840999992013031003004-07317-039300FM-15+0409SBJU V0201201N002112200019N0112651N1+02601+02201999999ADDGA1021+006001999GF102991999999999999999999MA1101691999999REMMET051METAR SBJU 100300Z 12004KT 9999 FEW020 26/22 Q1017;
0120827840999992013031004004-07317-039300FM-15+0409SBJU V0201901N001510060019N0112651N1+02501+02101999999ADDGA1071+006001999GF107991999999999999999999MA1101591999999REMMET051METAR SBJU 100400Z 19003KT 9999 BKN020 25/21 Q1016;
0120827840999992013031005004-07317-039300FM-15+0409SBJU V0201401N001510060019N0112651N1+02501+02101999999ADDGA1071+006001999GF107991999999999999999999MA1101591999999REMMET051METAR SBJU 100500Z 14003KT 9999 BKN020 25/21 Q1016;
0120827840999992013031006004-07317-039300FM-15+0409SBJU V0202101N001010060019N0112651N1+02501+02101999999ADDGA1071+006001999GF107991999999999999999999MA1101591999999REMMET051METAR SBJU 100600Z 21002KT 9999 BKN020 25/21 Q1016;
0120827840999992013031007004-07317-039300FM-15+0409SBJU V0200101N001010060019N0112651N1+02401+02101999999ADDGA1071+006001999GF107991999999999999999999MA1101591999999REMMET051METAR SBJU 100700Z 01002KT 9999 BKN020 24/21 Q1016;
0120827840999992013031008004-07317-039300FM-15+0409SBJU V0209999C000012200019N0112651N1+02401+02101999999ADDGA1041+006001999GF104991999999999999999999MA1101591999999REMMET051METAR SBJU 100800Z 00000KT 9999 SCT020 24/21 Q1016;
0120827840999992013031009004-07317-039300FM-15+0409SBJU V0201901N001512200019N0112651N1+02401+02101999999ADDGA1041+006001999GF104991999999999999999999MA1101691999999REMMET051METAR SBJU 100900Z 19003KT 9999 SCT020 24/21 Q1017;
0120827840999992013031010004-07317-039300FM-15+0409SBJU V0209999C000012200019N0112651N1+02601+02001999999ADDGA1021+006001999GF102991999999999999999999MA1101691999999REMMET051METAR SBJU 101000Z 00000KT 9999 FEW020 26/20 Q1017;
0120827840999992013031011004-07317-039300FM-15+0409SBJU V0201001N002612200019N0112651N1+02601+02001999999ADDGA1041+006001999GF104991999999999999999999MA1101801999999REMMET051METAR SBJU 101100Z 10005KT 9999 SCT020 26/20 Q1018;
0120827840999992013031012004-07317-039300FM-15+0409SBJU V0201301N003612200019N0112651N1+02801+02001999999ADDGA1041+006001999GF104991999999999999999999MA1101801999999REMMET051METAR SBJU 101200Z 13007KT 9999 SCT020 28/20 Q1018;
0120827840999992013031013004-07317-039300FM-15+0409SBJU V0200901N002112200019N0112651N1+03101+01901999999ADDGA1021+006001999GF102991999999999999999999MA1101801999999REMMET051METAR SBJU 101300Z 09004KT 9999 FEW020 31/19 Q1018;
0120827840999992013031014004-07317-039300FM-15+0409SBJU V0200801N003612200019N0112651N1+03201+02001999999ADDGA1021+006601999GF102991999999999999999999MA1101691999999REMMET051METAR SBJU 101400Z 08007KT 9999 FEW022 32/20 Q1017;
0120827840999992013031015004-07317-039300FM-15+0409SBJU V0201101N004612200019N0112651N1+03301+02001999999ADDGA1021+006601999GF102991999999999999999999MA1101591999999REMMET051METAR SBJU 101500Z 11009KT 9999 FEW022 33/20 Q1016;
0120827840999992013031016004-07317-039300FM-15+0409SBJU V0201501N003612200019N0112651N1+03501+02301999999ADDGA1041+006601999GF104991999999999999999999MA1101391999999REMMET051METAR SBJU 101600Z 15007KT 9999 SCT022 35/23 Q1014;
0120827840999992013031017004-07317-039300FM-15+0409SBJU V0200601N004112200019N0112651N1+03601+02001999999ADDGA1041+006601999GF104991999999999999999999MA1101291999999REMMET051METAR SBJU 101700Z 06008KT 9999 SCT022 36/20 Q1013;
0120827840999992013031018004-07317-039300FM-15+0409SBJU V0201301N003612200019N0112651N1+03701+02301999999ADDGA1041+006601999GF104991999999999999999999MA1101191999999REMMET051METAR SBJU 101800Z 13007KT 9999 SCT022 37/23 Q1012;
0120827840999992013031019004-07317-039300FM-15+0409SBJU V0201101N004112200019N0112651N1+03601+01801999999ADDGA1021+006601999GF102991999999999999999999MA1101081999999REMMET051METAR SBJU 101900Z 11008KT 9999 FEW022 36/18 Q1011;
0120827840999992013031020004-07317-039300FM-15+0409SBJU V0201001N003112200019N0112651N1+03401+02401999999ADDGA1021+006601999GF102991999999999999999999MA1101191999999REMMET051METAR SBJU 102000Z 10006KT 9999 FEW022 34/24 Q1012;
0120827840999992013031021004-07317-039300FM-15+0409SBJU V0201101N002112200019N0112651N1+03201+01901999999ADDGA1021+006601999GF102991999999999999999999MA1101081999999REMMET051METAR SBJU 102100Z 11004KT 9999 FEW022 32/19 Q1011;
0120827840999992013031022004-07317-039300FM-15+0409SBJU V0209999C000012200019N0112651N1+03301+01801999999ADDGA1021+006001999GF102991999999999999999999MA1101191999999REMMET051METAR SBJU 102200Z 00000KT 9999 FEW020 33/18 Q1012;
0120827840999992013031023004-07317-039300FM-15+0409SBJU V0202501N001512200019N0112651N1+03201+02001999999ADDGA1021+006001999GF102991999999999999999999MA1101291999999REMMET051METAR SBJU 102300Z 25003KT 9999 FEW020 32/20 Q1013;
0120827840999992013031100004-07317-039300FM-15+0409SBJU V0209999C000012200019N0112651N1+02901+02101999999ADDGA1021+006001999GF102991999999999999999999MA1101391999999REMMET051METAR SBJU 110000Z 00000KT 9999 FEW020 29/21 Q1014;
0120827840999992013031102004-07317-039300FM-15+0409SBJU V0209999C000012200019N0112651N1+02801+02101999999ADDGA1021+006001999GF102991999999999999999999MA1101391999999REMMET051METAR SBJU 110200Z 00000KT 9999 FEW020 28/21 Q1014;
0120827840999992013031103004-07317-039300FM-15+0409SBJU V0209999C000012200019N0112651N1+02801+02101999999ADDGA1021+006001999GF102991999999999999999999MA1101391999999REMMET051METAR SBJU 110300Z 00000KT 9999 FEW020 28/21 Q1014;
0120827840999992013031104004-07317-039300FM-15+0409SBJU V0200601N002112200019N0112651N1+02701+02101999999ADDGA1021+006001999GF102991999999999999999999MA1101391999999REMMET051METAR SBJU 110400Z 06004KT 9999 FEW020 27/21 Q1014;
0120827840999992013031105004-07317-039300FM-15+0409SBJU V0200701N001512200019N0112651N1+02701+02201999999ADDGA1041+006001999GF104991999999999999999999MA1101291999999REMMET051METAR SBJU 110500Z 07003KT 9999 SCT020 27/22 Q1013;
0120827840999992013031106004-07317-039300FM-15+0409SBJU V0209999C000012200019N0112651N1+02601+02201999999ADDGA1041+006001999GF104991999999999999999999MA1101291999999REMMET051METAR SBJU 110600Z 00000KT 9999 SCT020 26/22 Q1013;
0120827840999992013031107004-07317-039300FM-15+0409SBJU V0200501N001512200019N0112651N1+02601+02201999999ADDGA1041+006001999GF104991999999999999999999MA1101391999999REMMET051METAR SBJU 110700Z 05003KT 9999 SCT020 26/22 Q1014;
0120827840999992013031108004-07317-039300FM-15+0409SBJU V0200601N002610060019N0112651N1+02601+02201999999ADDGA1071+006001999GF107991999999999999999999MA1101391999999REMMET051METAR SBJU 110800Z 06005KT 9999 BKN020 26/22 Q1014;
0120827840999992013031109004-07317-039300FM-15+0409SBJU V0200701N001510060019N0112651N1+02601+02201999999ADDGA1071+006001999GF107991999999999999999999MA1101491999999REMMET051METAR SBJU 110900Z 07003KT 9999 BKN020 26/22 Q1015;
0120827840999992013031110004-07317-039300FM-15+0409SBJU V0209999C000010060019N0112651N1+02601+01901999999ADDGA1071+006001999GF107991999999999999999999MA1101491999999REMMET051METAR SBJU 111000Z 00000KT 9999 BKN020 26/19 Q1015;
0120827840999992013031111004-07317-039300FM-15+0409SBJU V0200801N002610060019N0112651N1+02601+01901999999ADDGA1071+006001999GF107991999999999999999999MA1101591999999REMMET051METAR SBJU 111100Z 08005KT 9999 BKN020 26/19 Q1016;
0120827840999992013031112004-07317-039300FM-15+0409SBJU V0200901N002610060019N0112651N1+03101+02301999999ADDGA1071+006001999GF107991999999999999999999MA1101591999999REMMET051METAR SBJU 111200Z 09005KT 9999 BKN020 31/23 Q1016;
0120827840999992013031113004-07317-039300FM-15+0409SBJU V0201001N004112200019N0112651N1+03201+02201999999ADDGA1041+006001999GF104991999999999999999999MA1101591999999REMMET051METAR SBJU 111300Z 10008KT 9999 SCT020 32/22 Q1016;
0120827840999992013031114004-07317-039300FM-15+0409SBJU V0200501N001512200019N0112651N1+03401+02201999999ADDGA1041+006001999GF104991999999999999999999MA1101591999999REMMET051METAR SBJU 111400Z 05003KT 9999 SCT020 34/22 Q1016;
0120827840999992013031115004-07317-039300FM-15+0409SBJU V0201001N002612200019N0112651N1+03501+01901999999ADDGA1041+006601999GF104991999999999999999999MA1101391999999REMMET051METAR SBJU 111500Z 10005KT 9999 SCT022 35/19 Q1014;
0120827840999992013031116004-07317-039300FM-15+0409SBJU V0200701N003112200019N0112651N1+03601+02401999999ADDGA1021+006901999GF102991999999999999999999MA1101291999999REMMET051METAR SBJU 111600Z 07006KT 9999 FEW023 36/24 Q1013;
0120827840999992013031117004-07317-039300FM-15+0409SBJU V0201101N003112200019N0112651N1+03601+02301999999ADDGA1021+006901999GF102991999999999999999999MA1101191999999REMMET051METAR SBJU 111700Z 11006KT 9999 FEW023 36/23 Q1012;
0120827840999992013031118004-07317-039300FM-15+0409SBJU V0201401N001512200019N0112651N1+03601+02101999999ADDGA1041+006901999GF104991999999999999999999MA1101021999999REMMET051METAR SBJU 111800Z 14003KT 9999 SCT023 36/21 Q1010;
0120827840999992013031119004-07317-039300FM-15+0409SBJU V0200901N002612200019N0112651N1+03701+02101999999ADDGA1021+006001999GF102991999999999999999999MA1101021999999REMMET051METAR SBJU 111900Z 09005KT 9999 FEW020 37/21 Q1010;
0072827840999992013031120004-07317-039300FM-15+0409SBJU V0200801N002119999999Y0099001N1+03701+02601999999ADDMA1101021999999REMMET045METAR SBJU 112000Z 08004KT CAVOK 37/26 Q1010;
0072827840999992013031121004-07317-039300FM-15+0409SBJU V0201001N001519999999Y0099001N1+03501+02101999999ADDMA1101021999999REMMET045METAR SBJU 112100Z 10003KT CAVOK 35/21 Q1010;
0072827840999992013031122004-07317-039300FM-15+0409SBJU V0200401N001019999999Y0099001N1+03101+02001999999ADDMA1101021999999REMMET045METAR SBJU 112200Z 04002KT CAVOK 31/20 Q1010;
0072827840999992013031123004-07317-039300FM-15+0409SBJU V0200301N001019999999Y0099001N1+03101+02001999999ADDMA1101081999999REMMET045METAR SBJU 112300Z 03002KT CAVOK 31/20 Q1011;
0072827840999992013031200004-07317-039300FM-15+0409SBJU V0202001N001519999999Y0099001N1+03001+02001999999ADDMA1101191999999REMMET045METAR SBJU 120000Z 20003KT CAVOK 30/20 Q1012;
0072827840999992013031201004-07317-039300FM-15+0409SBJU V0209999C000019999999Y0099001N1+02901+02001999999ADDMA1101291999999REMMET045METAR SBJU 120100Z 00000KT CAVOK 29/20 Q1013;
0072827840999992013031202004-07317-039300FM-15+0409SBJU V0209999C000019999999Y0099001N1+02801+02001999999ADDMA1101291999999REMMET045METAR SBJU 120200Z 00000KT CAVOK 28/20 Q1013;
0120827840999992013031203004-07317-039300FM-15+0409SBJU V0200701N001012200019N0112651N1+02601+02101999999ADDGA1021+006001999GF102991999999999999999999MA1101291999999REMMET051METAR SBJU 120300Z 07002KT 9999 FEW020 26/21 Q1013;
0120827840999992013031204004-07317-039300FM-15+0409SBJU V0209999C000012200019N0112651N1+02701+02201999999ADDGA1021+006001999GF102991999999999999999999MA1101391999999REMMET051METAR SBJU 120400Z 00000KT 9999 FEW020 27/22 Q1014;
0072827840999992013031205004-07317-039300FM-15+0409SBJU V0209999C000019999999Y0099001N1+02601+02201999999ADDMA1101291999999REMMET045METAR SBJU 120500Z 00000KT CAVOK 26/22 Q1013;
0072827840999992013031206004-07317-039300FM-15+0409SBJU V0200301N001019999999Y0099001N1+02601+02101999999ADDMA1101291999999REMMET045METAR SBJU 120600Z 03002KT CAVOK 26/21 Q1013;
0072827840999992013031207004-07317-039300FM-15+0409SBJU V0209999C000019999999Y0099001N1+02601+02101999999ADDMA1101291999999REMMET045METAR SBJU 120700Z 00000KT CAVOK 26/21 Q1013;
0120827840999992013031208004-07317-039300FM-15+0409SBJU V0209999C000012200019N0112651N1+02501+02101999999ADDGA1021+006001999GF102991999999999999999999MA1101291999999REMMET051METAR SBJU 120800Z 00000KT 9999 FEW020 25/21 Q1013;
0072827840999992013031209004-07317-039300FM-15+0409SBJU V0209999C000019999999Y0099001N1+02501+01901999999ADDMA1101391999999REMMET045METAR SBJU 120900Z 00000KT CAVOK 25/19 Q1014;
0072827840999992013031210004-07317-039300FM-15+0409SBJU V0209999C000019999999Y0099001N1+02601+02201999999ADDMA1101491999999REMMET045METAR SBJU 121000Z 00000KT CAVOK 26/22 Q1015;
0120827840999992013031211004-07317-039300FM-15+0409SBJU V0200701N001512200019N0112651N1+02701+02201999999ADDGA1021+006001999GF102991999999999999999999MA1101591999999REMMET051METAR SBJU 121100Z 07003KT 9999 FEW020 27/22 Q1016;
0120827840999992013031212004-07317-039300FM-15+0409SBJU V0200901N003612200019N0112651N1+02901+02301999999ADDGA1021+006601999GF102991999999999999999999MA1101591999999REMMET051METAR SBJU 121200Z 09007KT 9999 FEW022 29/23 Q1016;
0120827840999992013031213004-07317-039300FM-15+0409SBJU V0200401N001512200019N0112651N1+03301+02101999999ADDGA1021+006601999GF102991999999999999999999MA1101491999999REMMET051METAR SBJU 121300Z 04003KT 9999 FEW022 33/21 Q1015;
0120827840999992013031214004-07317-039300FM-15+0409SBJU V0201301N004112200019N0112651N1+03401+02001999999ADDGA1021+006601999GF102991999999999999999999MA1101491999999REMMET051METAR SBJU 121400Z 13008KT 9999 FEW022 34/20 Q1015;
0120827840999992013031215004-07317-039300FM-15+0409SBJU V0200901N002612200019N0112651N1+03501+01901999999ADDGA1021+006601999GF102991999999999999999999MA1101391999999REMMET051METAR SBJU 121500Z 09005KT 9999 FEW022 35/19 Q1014;
0120827840999992013031216004-07317-039300FM-15+0409SBJU V0200901N003112200019N0112651N1+03701+01901999999ADDGA1021+006601999GF102991999999999999999999MA1101191999999REMMET051METAR SBJU 121600Z 09006KT 9999 FEW022 37/19 Q1012;
0120827840999992013031217004-07317-039300FM-15+0409SBJU V0201301N001512200019N0112651N1+03801+01801999999ADDGA1021+006601999GF102991999999999999999999MA1101081999999REMMET051METAR SBJU 121700Z 13003KT 9999 FEW022 38/18 Q1011;
0072827840999992013031218004-07317-039300FM-15+0409SBJU V0200901N002619999999Y0099001N1+03801+02201999999ADDMA1101021999999REMMET045METAR SBJU 121800Z 09005KT CAVOK 38/22 Q1010;
0072827840999992013031219004-07317-039300FM-15+0409SBJU V0200901N003619999999Y0099001N1+03801+02201999999ADDMA1101021999999REMMET045METAR SBJU 121900Z 09007KT CAVOK 38/22 Q1010;
0072827840999992013031220004-07317-039300FM-15+0409SBJU V0200301N003119999999Y0099001N1+03801+02201999999ADDMA1101021999999REMMET045METAR SBJU 122000Z 03006KT CAVOK 38/22 Q1010;
0072827840999992013031221004-07317-039300FM-15+0409SBJU V0200501N002119999999Y0099001N1+03501+01901999999ADDMA1101021999999REMMET045METAR SBJU 122100Z 05004KT CAVOK 35/19 Q1010;
0120827840999992013031222004-07317-039300FM-15+0409SBJU V0200701N001012200019N0112651N1+03101+01901999999ADDGA1021+006001999GF102991999999999999999999MA1101081999999REMMET051METAR SBJU 122200Z 07002KT 9999 FEW020 31/19 Q1011;
0120827840999992013031223004-07317-039300FM-15+0409SBJU V0201701N001012200019N0112651N1+03001+01801999999ADDGA1021+006001999GF102991999999999999999999MA1101081999999REMMET051METAR SBJU 122300Z 17002KT 9999 FEW020 30/18 Q1011;
0120827840999992013031300004-07317-039300FM-15+0409SBJU V0202501N002112200019N0112651N1+02901+01901999999ADDGA1021+006001999GF102991999999999999999999MA1101191999999REMMET051METAR SBJU 130000Z 25004KT 9999 FEW020 29/19 Q1012;
0120827840999992013031301004-07317-039300FM-15+0409SBJU V0200201N002112200019N0112651N1+02801+01801999999ADDGA1021+006001999GF102991999999999999999999MA1101291999999REMMET051METAR SBJU 130100Z 02004KT 9999 FEW020 28/18 Q1013;
0120827840999992013031302004-07317-039300FM-15+0409SBJU V0200201N002612200019N0112651N1+02701+01901999999ADDGA1021+006001999GF102991999999999999999999MA1101391999999REMMET051METAR SBJU 130200Z 02005KT 9999 FEW020 27/19 Q1014;
0120827840999992013031303004-07317-039300FM-15+0409SBJU V0200601N004112200019N0112651N1+02601+02201999999ADDGA1041+006001999GF104991999999999999999999MA1101391999999REMMET051METAR SBJU 130300Z 06008KT 9999 SCT020 26/22 Q1014;
0120827840999992013031304004-07317-039300FM-15+0409SBJU V0200601N003610060019N0112651N1+02701+02201999999ADDGA1071+006001999GF107991999999999999999999MA1101391999999REMMET051METAR SBJU 130400Z 06007KT 9999 BKN020 27/22 Q1014;
0120827840999992013031305004-07317-039300FM-15+0409SBJU V0200301N002112200019N0112651N1+02601+02201999999ADDGA1041+006001999GF104991999999999999999999MA1101391999999REMMET051METAR SBJU 130500Z 03004KT 9999 SCT020 26/22 Q1014;
0120827840999992013031306004-07317-039300FM-15+0409SBJU V0209999C000012200019N0112651N1+02501+02201999999ADDGA1041+006001999GF104991999999999999999999MA1101391999999REMMET051METAR SBJU 130600Z 00000KT 9999 SCT020 25/22 Q1014;
0120827840999992013031307004-07317-039300FM-15+0409SBJU V0203401N001012200019N0112651N1+02501+02201999999ADDGA1041+006001999GF104991999999999999999999MA1101291999999REMMET051METAR SBJU 130700Z 34002KT 9999 SCT020 25/22 Q1013;
0120827840999992013031308004-07317-039300FM-15+0409SBJU V0209999C000012200019N0112651N1+02501+02201999999ADDGA1041+006001999GF104991999999999999999999MA1101391999999REMMET051METAR SBJU 130800Z 00000KT 9999 SCT020 25/22 Q1014;
0120827840999992013031309004-07317-039300FM-15+0409SBJU V0209999C000010060019N0112651N1+02501+02101999999ADDGA1071+006001999GF107991999999999999999999MA1101391999999REMMET051METAR SBJU 130900Z 00000KT 9999 BKN020 25/21 Q1014;
0120827840999992013031310004-07317-039300FM-15+0409SBJU V0209999C000010060019N0112651N1+02601+02201999999ADDGA1071+006001999GF107991999999999999999999MA1101491999999REMMET051METAR SBJU 131000Z 00000KT 9999 BKN020 26/22 Q1015;
0120827840999992013031311004-07317-039300FM-15+0409SBJU V0200401N002610060019N0112651N1+02701+02201999999ADDGA1071+006001999GF107991999999999999999999MA1101591999999REMMET051METAR SBJU 131100Z 04005KT 9999 BKN020 27/22 Q1016;
0120827840999992013031312004-07317-039300FM-15+0409SBJU V0201001N003110060019N0112651N1+02901+02101999999ADDGA1071+006001999GF107991999999999999999999MA1101591999999REMMET051METAR SBJU 131200Z 10006KT 9999 BKN020 29/21 Q1016;
0120827840999992013031313004-07317-039300FM-15+0409SBJU V0200701N003110060019N0112651N1+03001+02101999999ADDGA1071+006001999GF107991999999999999999999MA1101591999999REMMET051METAR SBJU 131300Z 07006KT 9999 BKN020 30/21 Q1016;
0120827840999992013031314004-07317-039300FM-15+0409SBJU V0200401N002610060019N0112651N1+03301+02101999999ADDGA1071+006001999GF107991999999999999999999MA1101491999999REMMET051METAR SBJU 131400Z 04005KT 9999 BKN020 33/21 Q1015;
0120827840999992013031315004-07317-039300FM-15+0409SBJU V0200901N002610060019N0112651N1+03401+01901999999ADDGA1071+006001999GF107991999999999999999999MA1101391999999REMMET051METAR SBJU 131500Z 09005KT 9999 BKN020 34/19 Q1014;
0120827840999992013031316004-07317-039300FM-15+0409SBJU V0200701N004112200019N0112651N1+03501+02201999999ADDGA1021+006601999GF102991999999999999999999MA1101191999999REMMET051METAR SBJU 131600Z 07008KT 9999 FEW022 35/22 Q1012;
0120827840999992013031317004-07317-039300FM-15+0409SBJU V0200301N002112200019N0112651N1+03601+02101999999ADDGA1021+006601999GF102991999999999999999999MA1101081999999REMMET051METAR SBJU 131700Z 03004KT 9999 FEW022 36/21 Q1011;
0120827840999992013031318004-07317-039300FM-15+0409SBJU V0200901N002612200019N0112651N1+03701+02101999999ADDGA1021+006601999GF102991999999999999999999MA1101081999999REMMET051METAR SBJU 131800Z 09005KT 9999 FEW022 37/21 Q1011;
0120827840999992013031319004-07317-039300FM-15+0409SBJU V0201401N001512200019N0112651N1+03701+02001999999ADDGA1041+006601999GF104991999999999999999999MA1101081999999REMMET051METAR SBJU 131900Z 14003KT 9999 SCT022 37/20 Q1011;
0120827840999992013031320004-07317-039300FM-15+0409SBJU V0200901N002112200019N0112651N1+03701+02201999999ADDGA1041+006601999GF104991999999999999999999MA1101021999999REMMET051METAR SBJU 132000Z 09004KT 9999 SCT022 37/22 Q1010;
0120827840999992013031321004-07317-039300FM-15+0409SBJU V0200301N002112200019N0112651N1+03601+01801999999ADDGA1041+006601999GF104991999999999999999999MA1101081999999REMMET051METAR SBJU 132100Z 03004KT 9999 SCT022 36/18 Q1011;
0120827840999992013031322004-07317-039300FM-15+0409SBJU V0209999C000012200019N0112651N1+03301+01901999999ADDGA1021+006601999GF102991999999999999999999MA1101081999999REMMET051METAR SBJU 132200Z 00000KT 9999 FEW022 33/19 Q1011;
0120827840999992013031323004-07317-039300FM-15+0409SBJU V0209999C000012200019N0112651N1+03201+01901999999ADDGA1021+006001999GF102991999999999999999999MA1101081999999REMMET051METAR SBJU 132300Z 00000KT 9999 FEW020 32/19 Q1011;
0120827840999992013031400004-07317-039300FM-15+0409SBJU V0202001N001512200019N0112651N1+03101+01901999999ADDGA1021+006001999GF102991999999999999999999MA1101191999999REMMET051METAR SBJU 140000Z 20003KT 9999 FEW020 31/19 Q1012;
0120827840999992013031401004-07317-039300FM-15+0409SBJU V0202301N002112200019N0112651N1+03001+01901999999ADDGA1021+006001999GF102991999999999999999999MA1101291999999REMMET051METAR SBJU 140100Z 23004KT 9999 FEW020 30/19 Q1013;
0120827840999992013031402004-07317-039300FM-15+0409SBJU V0209999C000012200019N0112651N1+03001+01901999999ADDGA1041+006001999GF104991999999999999999999MA1101291999999REMMET051METAR SBJU 140200Z 00000KT 9999 SCT020 30/19 Q1013;
0120827840999992013031404004-07317-039300FM-15+0409SBJU V0200501N003612200019N0112651N1+02701+02101999999ADDGA1021+006001999GF102991999999999999999999MA1101291999999REMMET051METAR SBJU 140400Z 05007KT 9999 FEW020 27/21 Q1013;
0120827840999992013031405004-07317-039300FM-15+0409SBJU V0200701N002112200019N0112651N1+02701+02101999999ADDGA1021+006001999GF102991999999999999999999MA1101391999999REMMET051METAR SBJU 140500Z 07004KT 9999 FEW020 27/21 Q1014;
0120827840999992013031406004-07317-039300FM-15+0409SBJU V0209999C000012200019N0112651N1+02501+02101999999ADDGA1021+006001999GF102991999999999999999999MA1101291999999REMMET051METAR SBJU 140600Z 00000KT 9999 FEW020 25/21 Q1013;
0120827840999992013031407004-07317-039300FM-15+0409SBJU V0209999C000012200019N0112651N1+02401+02101999999ADDGA1021+006001999GF102991999999999999999999MA1101291999999REMMET051METAR SBJU 140700Z 00000KT 9999 FEW020 24/21 Q1013;
0120827840999992013031408004-07317-039300FM-15+0409SBJU V0209999C000012200019N0112651N1+02401+02101999999ADDGA1021+006001999GF102991999999999999999999MA1101391999999REMMET051METAR SBJU 140800Z 00000KT 9999 FEW020 24/21 Q1014;
0120827840999992013031409004-07317-039300FM-15+0409SBJU V0209999C000010060019N0112651N1+02401+02101999999ADDGA1071+006001999GF107991999999999999999999MA1101391999999REMMET051METAR SBJU 140900Z 00000KT 9999 BKN020 24/21 Q1014;
0120827840999992013031410004-07317-039300FM-15+0409SBJU V0209999C000010060019N0112651N1+02601+02201999999ADDGA1071+006001999GF107991999999999999999999MA1101491999999REMMET051METAR SBJU 141000Z 00000KT 9999 BKN020 26/22 Q1015;
0120827840999992013031411004-07317-039300FM-15+0409SBJU V0209999C000010060019N0112651N1+02801+02301999999ADDGA1071+006001999GF107991999999999999999999MA1101591999999REMMET051METAR SBJU 141100Z 00000KT 9999 BKN020 28/23 Q1016;
0120827840999992013031412004-07317-039300FM-15+0409SBJU V0200401N002110060019N0112651N1+02901+02201999999ADDGA1071+006001999GF107991999999999999999999MA1101491999999REMMET051METAR SBJU 141200Z 04004KT 9999 BKN020 29/22 Q1015;
0120827840999992013031413004-07317-039300FM-15+0409SBJU V0200601N001510063019N0112651N1+03101+02201999999ADDGA1071+006301999GF107991999999999999999999MA1101591999999REMMET051METAR SBJU 141300Z 06003KT 9999 BKN021 31/22 Q1016;
0120827840999992013031414004-07317-039300FM-15+0409SBJU V0200901N003610066019N0112651N1+03301+02101999999ADDGA1071+006601999GF107991999999999999999999MA1101491999999REMMET051METAR SBJU 141400Z 09007KT 9999 BKN022 33/21 Q1015;
0120827840999992013031415004-07317-039300FM-15+0409SBJU V0201201N002110066019N0112651N1+03401+02201999999ADDGA1071+006601999GF107991999999999999999999MA1101391999999REMMET051METAR SBJU 141500Z 12004KT 9999 BKN022 34/22 Q1014;
0120827840999992013031416004-07317-039300FM-15+0409SBJU V0201501N004112200019N0112651N1+03501+02301999999ADDGA1041+006601999GF104991999999999999999999MA1101191999999REMMET051METAR SBJU 141600Z 15008KT 9999 SCT022 35/23 Q1012;
0120827840999992013031417004-07317-039300FM-15+0409SBJU V0201201N002112200019N0112651N1+03601+02201999999ADDGA1041+006601999GF104991999999999999999999MA1101081999999REMMET051METAR SBJU 141700Z 12004KT 9999 SCT022 36/22 Q1011;
0120827840999992013031418004-07317-039300FM-15+0409SBJU V0201001N002112200019N0112651N1+03701+01601999999ADDGA1041+006601999GF104991999999999999999999MA1101021999999REMMET051METAR SBJU 141800Z 10004KT 9999 SCT022 37/16 Q1010;
0120827840999992013031419004-07317-039300FM-15+0409SBJU V0201301N004112200019N0112651N1+03701+01501999999ADDGA1041+006601999GF104991999999999999999999MA1101021999999REMMET051METAR SBJU 141900Z 13008KT 9999 SCT022 37/15 Q1010;
0120827840999992013031420004-07317-039300FM-15+0409SBJU V0201401N002612200019N0112651N1+03601+02101999999ADDGA1041+006601999GF104991999999999999999999MA1100911999999REMMET051METAR SBJU 142000Z 14005KT 9999 SCT022 36/21 Q1009;
0120827840999992013031421004-07317-039300FM-15+0409SBJU V0201101N002112200019N0112651N1+03601+02101999999ADDGA1041+006601999GF104991999999999999999999MA1101021999999REMMET051METAR SBJU 142100Z 11004KT 9999 SCT022 36/21 Q1010;
0072827840999992013031422004-07317-039300FM-15+0409SBJU V0201201N002119999999Y0099001N1+03101+02201999999ADDMA1101021999999REMMET045METAR SBJU 142200Z 12004KT CAVOK 31/22 Q1010;
0072827840999992013031423004-07317-039300FM-15+0409SBJU V0209999C000019999999Y0099001N1+03101+02201999999ADDMA1101081999999REMMET045METAR SBJU 142300Z 00000KT CAVOK 31/22 Q1011;
0072827840999992013031500004-07317-039300FM-15+0409SBJU V0202301N001519999999Y0099001N1+03101+02101999999ADDMA1101191999999REMMET045METAR SBJU 150000Z 23003KT CAVOK 31/21 Q1012;
0120827840999992013031501004-07317-039300FM-15+0409SBJU V0209999C000012200019N0112651N1+02901+01901999999ADDGA1021+006001999GF102991999999999999999999MA1101291999999REMMET051METAR SBJU 150100Z 00000KT 9999 FEW020 29/19 Q1013;
0120827840999992013031502004-07317-039300FM-15+0409SBJU V0209999C000012200019N0112651N1+02901+01901999999ADDGA1021+006001999GF102991999999999999999999MA1101291999999REMMET051METAR SBJU 150200Z 00000KT 9999 FEW020 29/19 Q1013;
0120827840999992013031503004-07317-039300FM-15+0409SBJU V0209999C000012200019N0112651N1+02701+02201999999ADDGA1021+006001999GF102991999999999999999999MA1101291999999REMMET051METAR SBJU 150300Z 00000KT 9999 FEW020 27/22 Q1013;
0120827840999992013031504004-07317-039300FM-15+0409SBJU V0200601N003610060019N0112651N1+02801+02201999999ADDGA1071+006001999GF107991999999999999999999MA1101291999999REMMET051METAR SBJU 150400Z 06007KT 9999 BKN020 28/22 Q1013;
0120827840999992013031505004-07317-039300FM-15+0409SBJU V0200601N002110060019N0112651N1+02701+02301999999ADDGA1071+006001999GF107991999999999999999999MA1101291999999REMMET051METAR SBJU 150500Z 06004KT 9999 BKN020 27/23 Q1013;
0120827840999992013031506004-07317-039300FM-15+0409SBJU V0209999C000010060019N0112651N1+02601+02101999999ADDGA1071+006001999GF107991999999999999999999MA1101291999999REMMET051METAR SBJU 150600Z 00000KT 9999 BKN020 26/21 Q1013;
0120827840999992013031507004-07317-039300FM-15+0409SBJU V0200301N002110060019N0112651N1+02601+02101999999ADDGA1071+006001999GF107991999999999999999999MA1101291999999REMMET051METAR SBJU 150700Z 03004KT 9999 BKN020 26/21 Q1013;
0120827840999992013031508004-07317-039300FM-15+0409SBJU V0209999C000010060019N0112651N1+02501+02001999999ADDGA1071+006001999GF107991999999999999999999MA1101291999999REMMET051METAR SBJU 150800Z 00000KT 9999 BKN020 25/20 Q1013;
0120827840999992013031509004-07317-039300FM-15+0409SBJU V0209999C000010060019N0112651N1+02601+02001999999ADDGA1071+006001999GF107991999999999999999999MA1101391999999REMMET051METAR SBJU 150900Z 00000KT 9999 BKN020 26/20 Q1014;
0120827840999992013031510004-07317-039300FM-15+0409SBJU V0201001N001510060019N0112651N1+02601+02001999999ADDGA1071+006001999GF107991999999999999999999MA1101391999999REMMET051METAR SBJU 151000Z 10003KT 9999 BKN020 26/20 Q1014;
0120827840999992013031511004-07317-039300FM-15+0409SBJU V0200901N003610060019N0112651N1+02701+02001999999ADDGA1071+006001999GF107991999999999999999999MA1101491999999REMMET051METAR SBJU 151100Z 09007KT 9999 BKN020 27/20 Q1015;
0120827840999992013031512004-07317-039300FM-15+0409SBJU V0201401N003610060019N0112651N1+02801+02001999999ADDGA1071+006001999GF107991999999999999999999MA1101591999999REMMET051METAR SBJU 151200Z 14007KT 9999 BKN020 28/20 Q1016;
0120827840999992013031513004-07317-039300FM-15+0409SBJU V0200701N002110060019N0112651N1+03101+02101999999ADDGA1071+006001999GF107991999999999999999999MA1101491999999REMMET051METAR SBJU 151300Z 07004KT 9999 BKN020 31/21 Q1015;
0139827840999992013031514004-07317-039300FM-15+0409SBJU V0201101N004112200019N0112651N1+03301+02101999999ADDGA1041+006001999GA2021+006601021MA1101491999999REMMET061METAR SBJU 151400Z 11008KT 9999 SCT020 FEW022TCU 33/21 Q1015;EQDQ01+000022SCOTCV
0120827840999992013031515004-07317-039300FM-15+0409SBJU V0201101N001512200019N0112651N1+03401+02101999999ADDGA1041+006001999GF104991999999999999999999MA1101391999999REMMET051METAR SBJU 151500Z 11003KT 9999 SCT020 34/21 Q1014;
0120827840999992013031516004-07317-039300FM-15+0409SBJU V0200801N003112200019N0112651N1+03501+02001999999ADDGA1041+006001999GF104991999999999999999999MA1101191999999REMMET051METAR SBJU 151600Z 08006KT 9999 SCT020 35/20 Q1012;
0120827840999992013031517004-07317-039300FM-15+0409SBJU V0201801N002112200019N0112651N1+03501+02101999999ADDGA1041+006301999GF104991999999999999999999MA1101081999999REMMET051METAR SBJU 151700Z 18004KT 9999 SCT021 35/21 Q1011;
0120827840999992013031518004-07317-039300FM-15+0409SBJU V0201701N003112200019N0112651N1+03501+02001999999ADDGA1041+006001999GF104991999999999999999999MA1101081999999REMMET051METAR SBJU 151800Z 17006KT 9999 SCT020 35/20 Q1011;
0120827840999992013031519004-07317-039300FM-15+0409SBJU V0202201N004112200019N0112651N1+03601+02401999999ADDGA1041+006001999GF104991999999999999999999MA1101021999999REMMET051METAR SBJU 151900Z 22008KT 9999 SCT020 36/24 Q1010;
0120827840999992013031520004-07317-039300FM-15+0409SBJU V0201901N004612200019N0112651N1+03501+01901999999ADDGA1041+006001999GF104991999999999999999999MA1101021999999REMMET051METAR SBJU 152000Z 19009KT 9999 SCT020 35/19 Q1010;
0120827840999992013031521004-07317-039300FM-15+0409SBJU V0201901N003112200019N0112651N1+03301+02001999999ADDGA1021+006001999GF102991999999999999999999MA1101081999999REMMET051METAR SBJU 152100Z 19006KT 9999 FEW020 33/20 Q1011;
0120827840999992013031522004-07317-039300FM-15+0409SBJU V0201801N002112200019N0112651N1+03101+02001999999ADDGA1021+006001999GF102991999999999999999999MA1101191999999REMMET051METAR SBJU 152200Z 18004KT 9999 FEW020 31/20 Q1012;
0120827840999992013031523004-07317-039300FM-15+0409SBJU V0201901N003112200019N0112651N1+03001+02001999999ADDGA1021+006001999GF102991999999999999999999MA1101191999999REMMET051METAR SBJU 152300Z 19006KT 9999 FEW020 30/20 Q1012;
0120827840999992013031600004-07317-039300FM-15+0409SBJU V0201901N003612200019N0112651N1+02901+02001999999ADDGA1021+006001999GF102991999999999999999999MA1101291999999REMMET051METAR SBJU 160000Z 19007KT 9999 FEW020 29/20 Q1013;
0120827840999992013031601004-07317-039300FM-15+0409SBJU V0201801N002612200019N0112651N1+02901+01901999999ADDGA1021+006001999GF102991999999999999999999MA1101291999999REMMET051METAR SBJU 160100Z 18005KT 9999 FEW020 29/19 Q1013;
0120827840999992013031602004-07317-039300FM-15+0409SBJU V0201701N003112200019N0112651N1+02901+01901999999ADDGA1021+006001999GF102991999999999999999999MA1101291999999REMMET051METAR SBJU 160200Z 17006KT 9999 FEW020 29/19 Q1013;
0120827840999992013031603004-07317-039300FM-15+0409SBJU V0200801N002612200019N0112651N1+02801+02001999999ADDGA1041+006001999GF104991999999999999999999MA1101291999999REMMET051METAR SBJU 160300Z 08005KT 9999 SCT020 28/20 Q1013;
0120827840999992013031604004-07317-039300FM-15+0409SBJU V0202101N002112200019N0112651N1+02701+02001999999ADDGA1041+006001999GF104991999999999999999999MA1101291999999REMMET051METAR SBJU 160400Z 21004KT 9999 SCT020 27/20 Q1013;
0120827840999992013031605004-07317-039300FM-15+0409SBJU V0200501N002612200019N0112651N1+02601+02001999999ADDGA1041+006001999GF104991999999999999999999MA1101291999999REMMET051METAR SBJU 160500Z 05005KT 9999 SCT020 26/20 Q1013;
0120827840999992013031606004-07317-039300FM-15+0409SBJU V0200601N002112200019N0112651N1+02601+02001999999ADDGA1021+006001999GF102991999999999999999999MA1101291999999REMMET051METAR SBJU 160600Z 06004KT 9999 FEW020 26/20 Q1013;
0120827840999992013031607004-07317-039300FM-15+0409SBJU V0201501N001512200019N0112651N1+02601+02001999999ADDGA1021+006001999GF102991999999999999999999MA1101291999999REMMET051METAR SBJU 160700Z 15003KT 9999 FEW020 26/20 Q1013;
0120827840999992013031608004-07317-039300FM-15+0409SBJU V0209999C000012200019N0112651N1+02501+02001999999ADDGA1041+006001999GF104991999999999999999999MA1101391999999REMMET051METAR SBJU 160800Z 00000KT 9999 SCT020 25/20 Q1014;
0163827840999992013031609004-07317-039300FM-15+0409SBJU V0200501N002612200019N0080001N1+02501+02201999999ADDGA1021+006601091GA2041+006601999GF104991999999999999999999MA1101391999999MW1801MW2951REMMET066METAR SBJU 160900Z 05005KT 8000 -TSRA FEW022CB SCT022 25/22 Q1014;
0125827840999992013031610004-07317-039300FM-15+0409SBJU V0209999C000010060019N0112651N1+02301+02201999999ADDGA1071+006001999GF107991999999999999999999MA1101491999999REMMET056METAR SBJU 161000Z 00000KT 9999 BKN020 23/22 Q1015 RETS;
0120827840999992013031611004-07317-039300FM-15+0409SBJU V0209999C000012200019N0112651N1+02401+02101999999ADDGA1041+006001999GF104991999999999999999999MA1101591999999REMMET051METAR SBJU 161100Z 00000KT 9999 SCT020 24/21 Q1016;
0120827840999992013031612004-07317-039300FM-15+0409SBJU V0200501N002112200019N0112651N1+02701+02301999999ADDGA1041+006301999GF104991999999999999999999MA1101591999999REMMET051METAR SBJU 161200Z 05004KT 9999 SCT021 27/23 Q1016;
0120827840999992013031613004-07317-039300FM-15+0409SBJU V0200301N001512200019N0112651N1+03001+02401999999ADDGA1041+006301999GF104991999999999999999999MA1101591999999REMMET051METAR SBJU 161300Z 03003KT 9999 SCT021 30/24 Q1016;
0120827840999992013031614004-07317-039300FM-15+0409SBJU V0200701N001012200019N0112651N1+03201+02301999999ADDGA1041+006301999GF104991999999999999999999MA1101591999999REMMET051METAR SBJU 161400Z 07002KT 9999 SCT021 32/23 Q1016;
0120827840999992013031615004-07317-039300FM-15+0409SBJU V0200501N002110063019N0112651N1+03201+02301999999ADDGA1071+006301999GF107991999999999999999999MA1101491999999REMMET051METAR SBJU 161500Z 05004KT 9999 BKN021 32/23 Q1015;
0120827840999992013031616004-07317-039300FM-15+0409SBJU V0200601N004110063019N0112651N1+03301+02201999999ADDGA1071+006301999GF107991999999999999999999MA1101391999999REMMET051METAR SBJU 161600Z 06008KT 9999 BKN021 33/22 Q1014;
0120827840999992013031617004-07317-039300FM-15+0409SBJU V0200501N003110063019N0112651N1+03301+02201999999ADDGA1071+006301999GF107991999999999999999999MA1101291999999REMMET051METAR SBJU 161700Z 05006KT 9999 BKN021 33/22 Q1013;
0120827840999992013031618004-07317-039300FM-15+0409SBJU V0200801N004110063019N0112651N1+03401+02201999999ADDGA1071+006301999GF107991999999999999999999MA1101291999999REMMET051METAR SBJU 161800Z 08008KT 9999 BKN021 34/22 Q1013;
0120827840999992013031619004-07317-039300FM-15+0409SBJU V0200501N003610066019N0112651N1+03301+02101999999ADDGA1071+006601999GF107991999999999999999999MA1101291999999REMMET051METAR SBJU 161900Z 05007KT 9999 BKN022 33/21 Q1013;
0120827840999992013031620004-07317-039300FM-15+0409SBJU V0200501N002610069019N0112651N1+03201+02001999999ADDGA1071+006901999GF107991999999999999999999MA1101291999999REMMET051METAR SBJU 162000Z 05005KT 9999 BKN023 32/20 Q1013;
0120827840999992013031621004-07317-039300FM-15+0409SBJU V0200401N001010069019N0112651N1+03101+02001999999ADDGA1071+006901999GF107991999999999999999999MA1101291999999REMMET051METAR SBJU 162100Z 04002KT 9999 BKN023 31/20 Q1013;
0120827840999992013031622004-07317-039300FM-15+0409SBJU V0209999C000010066019N0112651N1+02901+02101999999ADDGA1071+006601999GF107991999999999999999999MA1101291999999REMMET051METAR SBJU 162200Z 00000KT 9999 BKN022 29/21 Q1013;
0120827840999992013031623004-07317-039300FM-15+0409SBJU V0202201N002112200019N0112651N1+02901+02101999999ADDGA1041+006601999GF104991999999999999999999MA1101291999999REMMET051METAR SBJU 162300Z 22004KT 9999 SCT022 29/21 Q1013;
0120827840999992013031700004-07317-039300FM-15+0409SBJU V0200401N001012200019N0112651N1+02801+02101999999ADDGA1021+006601999GF102991999999999999999999MA1101391999999REMMET051METAR SBJU 170000Z 04002KT 9999 FEW022 28/21 Q1014;
0120827840999992013031701004-07317-039300FM-15+0409SBJU V0209999C000012200019N0112651N1+02701+02301999999ADDGA1021+006601999GF102991999999999999999999MA1101491999999REMMET051METAR SBJU 170100Z 00000KT 9999 FEW022 27/23 Q1015;
0120827840999992013031702004-07317-039300FM-15+0409SBJU V0209999C000012200019N0112651N1+02701+02301999999ADDGA1021+006601999GF102991999999999999999999MA1101491999999REMMET051METAR SBJU 170200Z 00000KT 9999 FEW022 27/23 Q1015;
0120827840999992013031703004-07317-039300FM-15+0409SBJU V0209999C000012200019N0112651N1+02601+02301999999ADDGA1021+006601999GF102991999999999999999999MA1101391999999REMMET051METAR SBJU 170300Z 00000KT 9999 FEW022 26/23 Q1014;
0120827840999992013031704004-07317-039300FM-15+0409SBJU V0200401N003112200019N0112651N1+02601+02201999999ADDGA1021+006001999GF102991999999999999999999MA1101391999999REMMET051METAR SBJU 170400Z 04006KT 9999 FEW020 26/22 Q1014;
0120827840999992013031705004-07317-039300FM-15+0409SBJU V0209999C000012200019N0112651N1+02601+02201999999ADDGA1021+006001999GF102991999999999999999999MA1101491999999REMMET051METAR SBJU 170500Z 00000KT 9999 FEW020 26/22 Q1015;
0120827840999992013031706004-07317-039300FM-15+0409SBJU V0209999C000012200019N0112651N1+02601+02201999999ADDGA1021+006001999GF102991999999999999999999MA1101491999999REMMET051METAR SBJU 170600Z 00000KT 9999 FEW020 26/22 Q1015;
0120827840999992013031707004-07317-039300FM-15+0409SBJU V0209999C000012200019N0112651N1+02701+02201999999ADDGA1021+006001999GF102991999999999999999999MA1101491999999REMMET051METAR SBJU 170700Z 00000KT 9999 FEW020 27/22 Q1015;
0120827840999992013031708004-07317-039300FM-15+0409SBJU V0209999C000012200019N0112651N1+02601+02101999999ADDGA1021+006001999GF102991999999999999999999MA1101491999999REMMET051METAR SBJU 170800Z 00000KT 9999 FEW020 26/21 Q1015;
0120827840999992013031709004-07317-039300FM-15+0409SBJU V0209999C000012200019N0112651N1+02501+02201999999ADDGA1041+006001999GF104991999999999999999999MA1101491999999REMMET051METAR SBJU 170900Z 00000KT 9999 SCT020 25/22 Q1015;
0120827840999992013031710004-07317-039300FM-15+0409SBJU V0200501N002110060019N0112651N1+02701+02001999999ADDGA1071+006001999GF107991999999999999999999MA1101591999999REMMET051METAR SBJU 171000Z 05004KT 9999 BKN020 27/20 Q1016;
0120827840999992013031711004-07317-039300FM-15+0409SBJU V0200301N001010060019N0112651N1+02701+02101999999ADDGA1071+006001999GF107991999999999999999999MA1101691999999REMMET051METAR SBJU 171100Z 03002KT 9999 BKN020 27/21 Q1017;
0120827840999992013031712004-07317-039300FM-15+0409SBJU V0201301N001010060019N0112651N1+02801+01901999999ADDGA1071+006001999GF107991999999999999999999MA1101691999999REMMET051METAR SBJU 171200Z 13002KT 9999 BKN020 28/19 Q1017;
0120827840999992013031713004-07317-039300FM-15+0409SBJU V0201801N001010060019N0112651N1+03001+01901999999ADDGA1071+006001999GF107991999999999999999999MA1101691999999REMMET051METAR SBJU 171300Z 18002KT 9999 BKN020 30/19 Q1017;
0120827840999992013031714004-07317-039300FM-15+0409SBJU V0201001N002610060019N0112651N1+03101+01901999999ADDGA1071+006001999GF107991999999999999999999MA1101591999999REMMET051METAR SBJU 171400Z 10005KT 9999 BKN020 31/19 Q1016;
0120827840999992013031715004-07317-039300FM-15+0409SBJU V0202801N001010063019N0112651N1+03301+01901999999ADDGA1071+006301999GF107991999999999999999999MA1101491999999REMMET051METAR SBJU 171500Z 28002KT 9999 BKN021 33/19 Q1015;
0120827840999992013031716004-07317-039300FM-15+0409SBJU V0209999C000012200019N0112651N1+03301+02101999999ADDGA1041+006301999GF104991999999999999999999MA1101391999999REMMET051METAR SBJU 171600Z 00000KT 9999 SCT021 33/21 Q1014;
0120827840999992013031717004-07317-039300FM-15+0409SBJU V0202401N001512200019N0112651N1+03301+02101999999ADDGA1041+006301999GF104991999999999999999999MA1101291999999REMMET051METAR SBJU 171700Z 24003KT 9999 SCT021 33/21 Q1013;
0120827840999992013031718004-07317-039300FM-15+0409SBJU V0200101N002112200019N0112651N1+03501+02201999999ADDGA1041+006901999GF104991999999999999999999MA1101291999999REMMET051METAR SBJU 171800Z 01004KT 9999 SCT023 35/22 Q1013;
0120827840999992013031719004-07317-039300FM-15+0409SBJU V0200701N002612200019N0112651N1+03401+02101999999ADDGA1041+006901999GF104991999999999999999999MA1101191999999REMMET051METAR SBJU 171900Z 07005KT 9999 SCT023 34/21 Q1012;
0120827840999992013031720004-07317-039300FM-15+0409SBJU V0209999C000012200019N0112651N1+03201+02201999999ADDGA1041+006901999GF104991999999999999999999MA1101191999999REMMET051METAR SBJU 172000Z 00000KT 9999 SCT023 32/22 Q1012;
0143827840999992013031721004-07317-039300FM-15+0409SBJU V0209999C000012200019N0112651N1+03101+02001999999ADDGA1021+006901999GA2041+024001999GF104991999999999999999999MA1101291999999REMMET058METAR SBJU 172100Z 00000KT 9999 FEW023 SCT080 31/20 Q1013;
0120827840999992013031722004-07317-039300FM-15+0409SBJU V0209999C000012200019N0112651N1+03101+02001999999ADDGA1041+006001999GF104991999999999999999999MA1101291999999REMMET051METAR SBJU 172200Z 00000KT 9999 SCT020 31/20 Q1013;
0120827840999992013031723004-07317-039300FM-15+0409SBJU V0201501N001512200019N0112651N1+03001+02001999999ADDGA1041+006001999GF104991999999999999999999MA1101291999999REMMET051METAR SBJU 172300Z 15003KT 9999 SCT020 30/20 Q1013;
0155827840999992013031800004-07317-039300FM-15+0409SBJU V0209999C000012200019N0112651N1+99999+01401999999ADDGA1041+006001999GF104991999999999999999999MA1101391999999REMMET051METAR SBJU 180000Z 00000KT 9999 SCT020 39/14 Q1014;EQDQ01+003903ATOT  Q02 +03903ATOT  
0120827840999992013031801004-07317-039300FM-15+0409SBJU V0209999C000012200019N0112651N1+02801+02101999999ADDGA1041+006001999GF104991999999999999999999MA1101391999999REMMET051METAR SBJU 180100Z 00000KT 9999 SCT020 28/21 Q1014;
0120827840999992013031802004-07317-039300FM-15+0409SBJU V0209999C000012200019N0112651N1+02701+02101999999ADDGA1041+006001999GF104991999999999999999999MA1101391999999REMMET051METAR SBJU 180200Z 00000KT 9999 SCT020 27/21 Q1014;
0120827840999992013031803004-07317-039300FM-15+0409SBJU V0209999C000012200019N0112651N1+02701+02301999999ADDGA1041+006001999GF104991999999999999999999MA1101391999999REMMET051METAR SBJU 180300Z 00000KT 9999 SCT020 27/23 Q1014;
0120827840999992013031804004-07317-039300FM-15+0409SBJU V0201201N001012200019N0112651N1+02501+02401999999ADDGA1041+006001999GF104991999999999999999999MA1101291999999REMMET051METAR SBJU 180400Z 12002KT 9999 SCT020 25/24 Q1013;
0120827840999992013031805004-07317-039300FM-15+0409SBJU V0203101N001012200019N0112651N1+02501+02401999999ADDGA1041+006001999GF104991999999999999999999MA1101391999999REMMET051METAR SBJU 180500Z 31002KT 9999 SCT020 25/24 Q1014;
0120827840999992013031806004-07317-039300FM-15+0409SBJU V0203101N001012200019N0112651N1+02501+02401999999ADDGA1041+006001999GF104991999999999999999999MA1101391999999REMMET051METAR SBJU 180600Z 31002KT 9999 SCT020 25/24 Q1014;
0120827840999992013031807004-07317-039300FM-15+0409SBJU V0200401N003612200019N0112651N1+02501+02401999999ADDGA1041+006001999GF104991999999999999999999MA1101391999999REMMET051METAR SBJU 180700Z 04007KT 9999 SCT020 25/24 Q1014;
0120827840999992013031808004-07317-039300FM-15+0409SBJU V0200501N001012200019N0112651N1+02501+02401999999ADDGA1041+006001999GF104991999999999999999999MA1101391999999REMMET051METAR SBJU 180800Z 05002KT 9999 SCT020 25/24 Q1014;
0120827840999992013031809004-07317-039300FM-15+0409SBJU V0201201N003110060019N0112651N1+02401+02201999999ADDGA1071+006001999GF107991999999999999999999MA1101391999999REMMET051METAR SBJU 180900Z 12006KT 9999 BKN020 24/22 Q1014;
0120827840999992013031810004-07317-039300FM-15+0409SBJU V0200701N001512200019N0112651N1+02501+02201999999ADDGA1041+006001999GF104991999999999999999999MA1101491999999REMMET051METAR SBJU 181000Z 07003KT 9999 SCT020 25/22 Q1015;
0120827840999992013031811004-07317-039300FM-15+0409SBJU V0200901N003110060019N0112651N1+02601+02301999999ADDGA1071+006001999GF107991999999999999999999MA1101591999999REMMET051METAR SBJU 181100Z 09006KT 9999 BKN020 26/23 Q1016;
0120827840999992013031812004-07317-039300FM-15+0409SBJU V0201001N002110060019N0112651N1+02701+02201999999ADDGA1071+006001999GF107991999999999999999999MA1101591999999REMMET051METAR SBJU 181200Z 10004KT 9999 BKN020 27/22 Q1016;
0120827840999992013031813004-07317-039300FM-15+0409SBJU V0200701N003610060019N0112651N1+02801+02201999999ADDGA1071+006001999GF107991999999999999999999MA1101591999999REMMET051METAR SBJU 181300Z 07007KT 9999 BKN020 28/22 Q1016;
0120827840999992013031814004-07317-039300FM-15+0409SBJU V0200601N004610066019N0112651N1+03001+02301999999ADDGA1071+006601999GF107991999999999999999999MA1101591999999REMMET051METAR SBJU 181400Z 06009KT 9999 BKN022 30/23 Q1016;
0120827840999992013031815004-07317-039300FM-15+0409SBJU V0200801N002612200019N0112651N1+03101+02201999999ADDGA1041+006601999GF104991999999999999999999MA1101391999999REMMET051METAR SBJU 181500Z 08005KT 9999 SCT022 31/22 Q1014;
0120827840999992013031816004-07317-039300FM-15+0409SBJU V0200401N004112200019N0112651N1+03301+02301999999ADDGA1041+006601999GF104991999999999999999999MA1101291999999REMMET051METAR SBJU 181600Z 04008KT 9999 SCT022 33/23 Q1013;
0139827840999992013031817004-07317-039300FM-15+0409SBJU V0200501N003112200019N0112651N1+03501+02301999999ADDGA1041+006601999GA2021+006901021MA1101191999999REMMET061METAR SBJU 181700Z 05006KT 9999 SCT022 FEW023TCU 35/23 Q1012;EQDQ01+000022SCOTCV
0139827840999992013031818004-07317-039300FM-15+0409SBJU V0200301N003612200019N0112651N1+03501+02301999999ADDGA1041+006601999GA2021+006901021MA1101081999999REMMET061METAR SBJU 181800Z 03007KT 9999 SCT022 FEW023TCU 35/23 Q1011;EQDQ01+000022SCOTCV
0139827840999992013031819004-07317-039300FM-15+0409SBJU V0200401N002112200019N0112651N1+03401+02301999999ADDGA1041+006601999GA2021+006901021MA1101081999999REMMET061METAR SBJU 181900Z 04004KT 9999 SCT022 FEW023TCU 34/23 Q1011;EQDQ01+000022SCOTCV
0120827840999992013031820004-07317-039300FM-15+0409SBJU V0201501N002612200019N0112651N1+03101+02301999999ADDGA1041+006001999GF104991999999999999999999MA1101081999999REMMET051METAR SBJU 182000Z 15005KT 9999 SCT020 31/23 Q1011;
0120827840999992013031821004-07317-039300FM-15+0409SBJU V0201001N00361006601CN0112651N1+03001+02401999999ADDGA1071+006601999GA2021+006901021MA1101081999999REMMET061METAR SBJU 182100Z 10007KT 9999 BKN022 FEW023TCU 30/24 Q1011;
0120827840999992013031822004-07317-039300FM-15+0409SBJU V0202701N003112200019N0112651N1+02801+02301999999ADDGA1041+006601999GA2021+006901021MA1101291999999REMMET061METAR SBJU 182200Z 27006KT 9999 SCT022 FEW023TCU 28/23 Q1013;
0143827840999992013031823004-07317-039300FM-15+0409SBJU V0202501N002110066019N0112651N1+02601+02101999999ADDGA1071+006601999GA2071+021001999GF107991999999999999999999MA1101291999999REMMET058METAR SBJU 182300Z 25004KT 9999 BKN022 BKN070 26/21 Q1013;
0143827840999992013031900004-07317-039300FM-15+0409SBJU V0209999C000010210019N0112651N1+02501+02101999999ADDGA1041+006601999GA2071+021001999GF107991999999999999999999MA1101391999999REMMET058METAR SBJU 190000Z 00000KT 9999 SCT022 BKN070 25/21 Q1014;
0143827840999992013031901004-07317-039300FM-15+0409SBJU V0201101N001512200019N0112651N1+02501+02101999999ADDGA1021+006601999GA2041+021001999GF104991999999999999999999MA1101391999999REMMET058METAR SBJU 190100Z 11003KT 9999 FEW022 SCT070 25/21 Q1014;
0143827840999992013031902004-07317-039300FM-15+0409SBJU V0202201N001012200019N0112651N1+02501+02001999999ADDGA1021+006601999GA2041+021001999GF104991999999999999999999MA1101391999999REMMET058METAR SBJU 190200Z 22002KT 9999 FEW022 SCT070 25/20 Q1014;
0143827840999992013031903004-07317-039300FM-15+0409SBJU V0200801N001510210019N0112651N1+02501+02101999999ADDGA1021+006601999GA2071+021001999GF107991999999999999999999MA1101391999999REMMET058METAR SBJU 190300Z 08003KT 9999 FEW022 BKN070 25/21 Q1014;
0120827840999992013031904004-07317-039300FM-15+0409SBJU V0201001N004112200019N0112651N1+02501+02101999999ADDGA1041+006001999GF104991999999999999999999MA1101391999999REMMET051METAR SBJU 190400Z 10008KT 9999 SCT020 25/21 Q1014;
0120827840999992013031905004-07317-039300FM-15+0409SBJU V0200801N002112200019N0112651N1+02401+02101999999ADDGA1041+006001999GF104991999999999999999999MA1101391999999REMMET051METAR SBJU 190500Z 08004KT 9999 SCT020 24/21 Q1014;
0120827840999992013031906004-07317-039300FM-15+0409SBJU V0201101N003112200019N0112651N1+02401+02101999999ADDGA1041+006001999GF104991999999999999999999MA1101391999999REMMET051METAR SBJU 190600Z 11006KT 9999 SCT020 24/21 Q1014;
0143827840999992013031907004-07317-039300FM-15+0409SBJU V0200801N001510060019N0112651N1+02401+02201999999ADDGA1021+005101999GA2071+006001999GF107991999999999999999999MA1101391999999REMMET058METAR SBJU 190700Z 08003KT 9999 FEW017 BKN020 24/22 Q1014;
0153827840999992013031908004-07317-039300FM-15+0409SBJU V0200801N003610060019N0090001N1+02201+02201999999ADDGA1041+003301999GA2081+006001999GF108991999999999999999999MA1101391999999MW1611REMMET062METAR SBJU 190800Z 08007KT 9000 -RA SCT011 OVC020 22/22 Q1014;
0153827840999992013031909004-07317-039300FM-15+0409SBJU V0200801N004110060019N0060001N1+02201+02101999999ADDGA1041+003301999GA2081+006001999GF108991999999999999999999MA1101491999999MW1611REMMET062METAR SBJU 190900Z 08008KT 6000 -RA SCT011 OVC020 22/21 Q1015;
0153827840999992013031910004-07317-039300FM-15+0409SBJU V0201001N002610054019N0080001N1+02101+02101999999ADDGA1041+003301999GA2071+005401999GF107991999999999999999999MA1101591999999MW1611REMMET062METAR SBJU 191000Z 10005KT 8000 -RA SCT011 BKN018 21/21 Q1016;
0153827840999992013031911004-07317-039300FM-15+0409SBJU V0209999C000010054019N0080001N1+02201+02101999999ADDGA1021+003301999GA2071+005401999GF107991999999999999999999MA1101591999999MW1611REMMET062METAR SBJU 191100Z 00000KT 8000 -RA FEW011 BKN018 22/21 Q1016;
0166827840999992013031912004-07317-039300FM-15+0409SBJU V0201101N001510060019N0112651N1+02501+01901999999ADDGA1041+003301999GA2071+006001999GA3071+030001999GF107991999999999999999999MA1101591999999REMMET065METAR SBJU 191200Z 11003KT 9999 SCT011 BKN020 BKN100 25/19 Q1016;
0143827840999992013031913004-07317-039300FM-15+0409SBJU V0201401N002112200019N0112651N1+02601+02001999999ADDGA1021+003301999GA2041+005401999GF104991999999999999999999MA1101591999999REMMET058METAR SBJU 191300Z 14004KT 9999 FEW011 SCT018 26/20 Q1016;
0143827840999992013031914004-07317-039300FM-15+0409SBJU V0201501N001510300019N0112651N1+02701+02201999999ADDGA1041+005401999GA2071+030001999GF107991999999999999999999MA1101591999999REMMET058METAR SBJU 191400Z 15003KT 9999 SCT018 BKN100 27/22 Q1016;
0143827840999992013031915004-07317-039300FM-15+0409SBJU V0201201N003610300019N0112651N1+02901+02001999999ADDGA1041+006601999GA2071+030001999GF107991999999999999999999MA1101491999999REMMET058METAR SBJU 191500Z 12007KT 9999 SCT022 BKN100 29/20 Q1015;
0143827840999992013031916004-07317-039300FM-15+0409SBJU V0200901N003610240019N0112651N1+03001+02201999999ADDGA1041+005401999GA2071+024001999GF107991999999999999999999MA1101391999999REMMET058METAR SBJU 191600Z 09007KT 9999 SCT018 BKN080 30/22 Q1014;
0143827840999992013031917004-07317-039300FM-15+0409SBJU V0200801N003610054019N0112651N1+03101+02201999999ADDGA1071+005401999GA2071+024001999GF107991999999999999999999MA1101291999999REMMET058METAR SBJU 191700Z 08007KT 9999 BKN018 BKN080 31/22 Q1013;
0143827840999992013031918004-07317-039300FM-15+0409SBJU V0201001N002610210019N0112651N1+03101+02201999999ADDGA1041+005401999GA2071+021001999GF107991999999999999999999MA1101191999999REMMET058METAR SBJU 191800Z 10005KT 9999 SCT018 BKN070 31/22 Q1012;
0143827840999992013031919004-07317-039300FM-15+0409SBJU V0200901N002110210019N0112651N1+03101+02301999999ADDGA1041+005401999GA2071+021001999GF107991999999999999999999MA1101081999999REMMET058METAR SBJU 191900Z 09004KT 9999 SCT018 BKN070 31/23 Q1011;
0143827840999992013031920004-07317-039300FM-15+0409SBJU V0200801N002110210019N0112651N1+03001+02201999999ADDGA1021+006001999GA2071+021001999GF107991999999999999999999MA1101191999999REMMET058METAR SBJU 192000Z 08004KT 9999 FEW020 BKN070 30/22 Q1012;
0143827840999992013031921004-07317-039300FM-15+0409SBJU V0209999C000010210019N0112651N1+03001+02201999999ADDGA1021+006001999GA2071+021001999GF107991999999999999999999MA1101191999999REMMET058METAR SBJU 192100Z 00000KT 9999 FEW020 BKN070 30/22 Q1012;
0120827840999992013031922004-07317-039300FM-15+0409SBJU V0209999C000012200019N0112651N1+02901+02401999999ADDGA1021+006001999GF102991999999999999999999MA1101191999999REMMET051METAR SBJU 192200Z 00000KT 9999 FEW020 29/24 Q1012;
0120827840999992013031923004-07317-039300FM-15+0409SBJU V0209999C000012200019N0112651N1+02901+02401999999ADDGA1021+006001999GF102991999999999999999999MA1101291999999REMMET051METAR SBJU 192300Z 00000KT 9999 FEW020 29/24 Q1013;
0120827840999992013032000004-07317-039300FM-15+0409SBJU V0209999C000012200019N0112651N1+02801+02501999999ADDGA1021+006001999GF102991999999999999999999MA1101391999999REMMET051METAR SBJU 200000Z 00000KT 9999 FEW020 28/25 Q1014;
0120827840999992013032001004-07317-039300FM-15+0409SBJU V0209999C000012200019N0112651N1+02801+02501999999ADDGA1021+006001999GF102991999999999999999999MA1101491999999REMMET051METAR SBJU 200100Z 00000KT 9999 FEW020 28/25 Q1015;
0120827840999992013032002004-07317-039300FM-15+0409SBJU V0209999C000012200019N0112651N1+02701+02501999999ADDGA1021+006001999GF102991999999999999999999MA1101491999999REMMET051METAR SBJU 200200Z 00000KT 9999 FEW020 27/25 Q1015;
0120827840999992013032003004-07317-039300FM-15+0409SBJU V0200501N002112200019N0112651N1+02701+02401999999ADDGA1021+006001999GF102991999999999999999999MA1101491999999REMMET051METAR SBJU 200300Z 05004KT 9999 FEW020 27/24 Q1015;
0120827840999992013032004004-07317-039300FM-15+0409SBJU V0209999C000012200019N0112651N1+02701+02401999999ADDGA1041+006001999GF104991999999999999999999MA1101391999999REMMET051METAR SBJU 200400Z 00000KT 9999 SCT020 27/24 Q1014;
0120827840999992013032005004-07317-039300FM-15+0409SBJU V0209999C000012200019N0112651N1+02701+02401999999ADDGA1021+006001999GF102991999999999999999999MA1101391999999REMMET051METAR SBJU 200500Z 00000KT 9999 FEW020 27/24 Q1014;
0120827840999992013032006004-07317-039300FM-15+0409SBJU V0209999C000012200019N0112651N1+02601+02401999999ADDGA1041+006001999GF104991999999999999999999MA1101391999999REMMET051METAR SBJU 200600Z 00000KT 9999 SCT020 26/24 Q1014;
0120827840999992013032007004-07317-039300FM-15+0409SBJU V0209999C000012200019N0112651N1+02601+02401999999ADDGA1041+006001999GF104991999999999999999999MA1101391999999REMMET051METAR SBJU 200700Z 00000KT 9999 SCT020 26/24 Q1014;
0143827840999992013032008004-07317-039300FM-15+0409SBJU V0209999C000012200019N0112651N1+02601+02401999999ADDGA1021+003301999GA2041+006001999GF104991999999999999999999MA1101391999999REMMET058METAR SBJU 200800Z 00000KT 9999 FEW011 SCT020 26/24 Q1014;
0178827840999992013032008304-07317-039300FM-15+0409SBJU V0201401N00621004501CN0015001N1+02501+02201999999ADDGA1021+003301999GA2071+004501999GA3021+006301091MA1101491999999MW1811MW2951REMMET072SPECI SBJU 200830Z 14012KT 1500 TSRA FEW011 BKN015 FEW021CB 25/22 Q1015;EQDQ01+000022SCOTCV
0178827840999992013032009004-07317-039300FM-15+0409SBJU V0201501N00361004501CN0015001N1+02401+02301999999ADDGA1041+003301999GA2071+004501999GA3021+006301091MA1101491999999MW1811MW2951REMMET072METAR SBJU 200900Z 15007KT 1500 TSRA SCT011 BKN015 FEW021CB 24/23 Q1015;EQDQ01+000022SCOTCV
0160827840999992013032010004-07317-039300FM-15+0409SBJU V0201501N002610045019N0050001N1+02401+02301999999ADDGA1021+003301999GA2081+004501999GF108991999999999999999999MA1101591999999MW1611REMMET069METAR SBJU 201000Z 15005KT 5000 -RA FEW011 OVC015 24/23 Q1016 RETSRA;
0158827840999992013032010304-07317-039300FM-15+0409SBJU V0201701N002110045019N0030001N1+02401+02301999999ADDGA1021+003001999GA2081+004501999GF108991999999999999999999MA1101691999999MW1611REMMET067SPECI SBJU 201030Z 17004KT 3000 -RA FEW010 OVC015 24/23 Q1017 RETS;
0143827840999992013032011004-07317-039300FM-15+0409SBJU V0202401N001010045019N0112651N1+02401+02301999999ADDGA1021+003001999GA2081+004501999GF108991999999999999999999MA1101691999999REMMET058METAR SBJU 201100Z 24002KT 9999 FEW010 OVC015 24/23 Q1017;
0143827840999992013032011154-07317-039300FM-15+0409SBJU V0202501N001510045019N0112651N1+02401+02401999999ADDGA1021+003001999GA2081+004501999GF108991999999999999999999MA1101691999999REMMET058SPECI SBJU 201115Z 25003KT 9999 FEW010 OVC015 24/24 Q1017;
0143827840999992013032012004-07317-039300FM-15+0409SBJU V0209999C000010210019N0112651N1+02601+02401999999ADDGA1041+004501999GA2071+021001999GF107991999999999999999999MA1101691999999REMMET058METAR SBJU 201200Z 00000KT 9999 SCT015 BKN070 26/24 Q1017;
0120827840999992013032013004-07317-039300FM-15+0409SBJU V0201401N001012200019N0112651N1+02701+02401999999ADDGA1041+004501999GF104991999999999999999999MA1101691999999REMMET051METAR SBJU 201300Z 14002KT 9999 SCT015 27/24 Q1017;
0120827840999992013032014004-07317-039300FM-15+0409SBJU V0203601N002110054019N0112651N1+02801+02401999999ADDGA1071+005401999GF107991999999999999999999MA1101591999999REMMET051METAR SBJU 201400Z 36004KT 9999 BKN018 28/24 Q1016;
0120827840999992013032015004-07317-039300FM-15+0409SBJU V0201101N001510060019N0112651N1+03001+02401999999ADDGA1071+006001999GF107991999999999999999999MA1101591999999REMMET051METAR SBJU 201500Z 11003KT 9999 BKN020 30/24 Q1016;
0120827840999992013032016004-07317-039300FM-15+0409SBJU V0200601N003110063019N0112651N1+03101+02201999999ADDGA1071+006301999GF107991999999999999999999MA1101391999999REMMET051METAR SBJU 201600Z 06006KT 9999 BKN021 31/22 Q1014;
0120827840999992013032017004-07317-039300FM-15+0409SBJU V0201301N003110063019N0112651N1+03101+02101999999ADDGA1071+006301999GF107991999999999999999999MA1101291999999REMMET051METAR SBJU 201700Z 13006KT 9999 BKN021 31/21 Q1013;
0072827840999992013032018004-07317-039300FM-15+0409SBJU V0200801N003119999999Y0099001N1+03201+02101999999ADDMA1101291999999REMMET045METAR SBJU 201800Z 08006KT CAVOK 32/21 Q1013;
0072827840999992013032019004-07317-039300FM-15+0409SBJU V0201201N001019999999Y0099001N1+03101+02201999999ADDMA1101291999999REMMET045METAR SBJU 201900Z 12002KT CAVOK 31/22 Q1013;
0072827840999992013032020004-07317-039300FM-15+0409SBJU V0201201N001519999999Y0099001N1+03101+02301999999ADDMA1101291999999REMMET045METAR SBJU 202000Z 12003KT CAVOK 31/23 Q1013;
0072827840999992013032021004-07317-039300FM-15+0409SBJU V0201201N001519999999Y0099001N1+03001+02301999999ADDMA1101291999999REMMET045METAR SBJU 202100Z 12003KT CAVOK 30/23 Q1013;
0120827840999992013032022004-07317-039300FM-15+0409SBJU V0201801N001012200019N0112651N1+02901+02401999999ADDGA1041+006001999GF104991999999999999999999MA1101391999999REMMET051METAR SBJU 202200Z 18002KT 9999 SCT020 29/24 Q1014;
0120827840999992013032023004-07317-039300FM-15+0409SBJU V0202301N001512200019N0112651N1+02801+02501999999ADDGA1041+006001999GF104991999999999999999999MA1101391999999REMMET051METAR SBJU 202300Z 23003KT 9999 SCT020 28/25 Q1014;
0120827840999992013032100004-07317-039300FM-15+0409SBJU V0202401N001512200019N0112651N1+02801+02501999999ADDGA1041+006001999GF104991999999999999999999MA1101491999999REMMET051METAR SBJU 210000Z 24003KT 9999 SCT020 28/25 Q1015;
0120827840999992013032101004-07317-039300FM-15+0409SBJU V0209999C000012200019N0112651N1+02701+02501999999ADDGA1041+006001999GF104991999999999999999999MA1101491999999REMMET051METAR SBJU 210100Z 00000KT 9999 SCT020 27/25 Q1015;
0120827840999992013032102004-07317-039300FM-15+0409SBJU V0200401N001012200019N0112651N1+02801+02501999999ADDGA1041+006001999GF104991999999999999999999MA1101491999999REMMET051METAR SBJU 210200Z 04002KT 9999 SCT020 28/25 Q1015;
0120827840999992013032103004-07317-039300FM-15+0409SBJU V0200501N001012200019N0112651N1+02701+02501999999ADDGA1041+006001999GF104991999999999999999999MA1101491999999REMMET051METAR SBJU 210300Z 05002KT 9999 SCT020 27/25 Q1015;
0120827840999992013032104004-07317-039300FM-15+0409SBJU V0200901N004610060019N0112651N1+02601+02401999999ADDGA1071+006001999GF107991999999999999999999MA1101491999999REMMET051METAR SBJU 210400Z 09009KT 9999 BKN020 26/24 Q1015;
0120827840999992013032105004-07317-039300FM-15+0409SBJU V0201801N002110060019N0112651N1+02501+02301999999ADDGA1071+006001999GF107991999999999999999999MA1101491999999REMMET051METAR SBJU 210500Z 18004KT 9999 BKN020 25/23 Q1015;
0120827840999992013032106004-07317-039300FM-15+0409SBJU V0209999C000010060019N0112651N1+02501+02401999999ADDGA1071+006001999GF107991999999999999999999MA1101491999999REMMET051METAR SBJU 210600Z 00000KT 9999 BKN020 25/24 Q1015;
0139827840999992013032107004-07317-039300FM-15+0409SBJU V0202401N001510045019N0050001N1+02501+02401999999ADDGA1071+004501999GF107991999999999999999999MA1101491999999MW1101MW2611REMMET058METAR SBJU 210700Z 24003KT 5000 -RA BR BKN015 25/24 Q1015;
0120827840999992013032108004-07317-039300FM-15+0409SBJU V0209999C000010045019N0112651N1+02501+02401999999ADDGA1071+004501999GF107991999999999999999999MA1101491999999REMMET051METAR SBJU 210800Z 00000KT 9999 BKN015 25/24 Q1015;
0120827840999992013032109004-07317-039300FM-15+0409SBJU V0209999C000010060019N0112651N1+02501+02401999999ADDGA1071+006001999GF107991999999999999999999MA1101591999999REMMET051METAR SBJU 210900Z 00000KT 9999 BKN020 25/24 Q1016;
0120827840999992013032110004-07317-039300FM-15+0409SBJU V0209999C000010057019N0112651N1+02601+02401999999ADDGA1071+005701999GF107991999999999999999999MA1101591999999REMMET051METAR SBJU 211000Z 00000KT 9999 BKN019 26/24 Q1016;
0143827840999992013032111004-07317-039300FM-15+0409SBJU V0209999C000010240019N0112651N1+02701+02401999999ADDGA1021+006001999GA2071+024001999GF107991999999999999999999MA1101691999999REMMET058METAR SBJU 211100Z 00000KT 9999 FEW020 BKN080 27/24 Q1017;
0143827840999992013032112004-07317-039300FM-15+0409SBJU V0201301N002110240019N0112651N1+02801+02401999999ADDGA1021+006301999GA2071+024001999GF107991999999999999999999MA1101801999999REMMET058METAR SBJU 211200Z 13004KT 9999 FEW021 BKN080 28/24 Q1018;
0143827840999992013032113004-07317-039300FM-15+0409SBJU V0201401N001510240019N0112651N1+02901+02201999999ADDGA1021+006301999GA2071+024001999GF107991999999999999999999MA1101801999999REMMET058METAR SBJU 211300Z 14003KT 9999 FEW021 BKN080 29/22 Q1018;
0143827840999992013032114004-07317-039300FM-15+0409SBJU V0200901N001510240019N0112651N1+03101+02101999999ADDGA1021+006301999GA2071+024001999GF107991999999999999999999MA1101691999999REMMET058METAR SBJU 211400Z 09003KT 9999 FEW021 BKN080 31/21 Q1017;
0143827840999992013032115004-07317-039300FM-15+0409SBJU V0200701N001010240019N0112651N1+03101+02101999999ADDGA1021+006301999GA2071+024001999GF107991999999999999999999MA1101591999999REMMET058METAR SBJU 211500Z 07002KT 9999 FEW021 BKN080 31/21 Q1016;
0120827840999992013032116004-07317-039300FM-15+0409SBJU V0201001N004112200019N0112651N1+03201+02201999999ADDGA1041+006301999GF104991999999999999999999MA1101491999999REMMET051METAR SBJU 211600Z 10008KT 9999 SCT021 32/22 Q1015;
0120827840999992013032117004-07317-039300FM-15+0409SBJU V0201301N001512200019N0112651N1+03301+02001999999ADDGA1041+006301999GF104991999999999999999999MA1101391999999REMMET051METAR SBJU 211700Z 13003KT 9999 SCT021 33/20 Q1014;
0120827840999992013032118004-07317-039300FM-15+0409SBJU V0200901N004112200019N0112651N1+03401+02001999999ADDGA1041+006601999GF104991999999999999999999MA1101391999999REMMET051METAR SBJU 211800Z 09008KT 9999 SCT022 34/20 Q1014;
0120827840999992013032119004-07317-039300FM-15+0409SBJU V0201201N004112200019N0112651N1+03401+02001999999ADDGA1041+006601999GF104991999999999999999999MA1101391999999REMMET051METAR SBJU 211900Z 12008KT 9999 SCT022 34/20 Q1014;
0120827840999992013032119044-07317-039300FM-15+0409SBJU V0201201N004112200019N0112651N1+03401+02001999999ADDGA1041+006601999GF104991999999999999999999MA1101391999999REMMET051METAR SBJU 211904Z 12008KT 9999 SCT022 34/20 Q1014;
0120827840999992013032120004-07317-039300FM-15+0409SBJU V0200601N004112200019N0112651N1+03401+02001999999ADDGA1021+006601999GF102991999999999999999999MA1101291999999REMMET051METAR SBJU 212000Z 06008KT 9999 FEW022 34/20 Q1013;
0120827840999992013032121004-07317-039300FM-15+0409SBJU V0200601N002112200019N0112651N1+03001+02201999999ADDGA1021+006601999GF102991999999999999999999MA1101391999999REMMET051METAR SBJU 212100Z 06004KT 9999 FEW022 30/22 Q1014;
0120827840999992013032122004-07317-039300FM-15+0409SBJU V0209999C000012200019N0112651N1+02801+02201999999ADDGA1021+006601999GF102991999999999999999999MA1101391999999REMMET051METAR SBJU 212200Z 00000KT 9999 FEW022 28/22 Q1014;
0072827840999992013032123004-07317-039300FM-15+0409SBJU V0209999C000019999999Y0099001N1+02701+02101999999ADDMA1101491999999REMMET045METAR SBJU 212300Z 00000KT CAVOK 27/21 Q1015;
0072827840999992013032200004-07317-039300FM-15+0409SBJU V0209999C000019999999Y0099001N1+02701+02101999999ADDMA1101491999999REMMET045METAR SBJU 220000Z 00000KT CAVOK 27/21 Q1015;
0072827840999992013032201004-07317-039300FM-15+0409SBJU V0209999C000019999999Y0099001N1+02601+02101999999ADDMA1101591999999REMMET045METAR SBJU 220100Z 00000KT CAVOK 26/21 Q1016;
0072827840999992013032202004-07317-039300FM-15+0409SBJU V0209999C000019999999Y0099001N1+02501+02101999999ADDMA1101591999999REMMET045METAR SBJU 220200Z 00000KT CAVOK 25/21 Q1016;
0072827840999992013032203004-07317-039300FM-15+0409SBJU V0202101N002119999999Y0099001N1+02501+02201999999ADDMA1101491999999REMMET045METAR SBJU 220300Z 21004KT CAVOK 25/22 Q1015;
0143827840999992013032204004-07317-039300FM-15+0409SBJU V0209999C000012200019N0112651N1+02401+02301999999ADDGA1021+006001999GA2041+024001999GF104991999999999999999999MA1101591999999REMMET058METAR SBJU 220400Z 00000KT 9999 FEW020 SCT080 24/23 Q1016;
0143827840999992013032205004-07317-039300FM-15+0409SBJU V0209999C000012200019N0112651N1+02401+02301999999ADDGA1021+006001999GA2041+024001999GF104991999999999999999999MA1101591999999REMMET058METAR SBJU 220500Z 00000KT 9999 FEW020 SCT080 24/23 Q1016;
0143827840999992013032206004-07317-039300FM-15+0409SBJU V0209999C000012200019N0112651N1+02301+02101999999ADDGA1021+006001999GA2041+024001999GF104991999999999999999999MA1101591999999REMMET058METAR SBJU 220600Z 00000KT 9999 FEW020 SCT080 23/21 Q1016;
0120827840999992013032207004-07317-039300FM-15+0409SBJU V0209999C000012200019N0112651N1+02301+02201999999ADDGA1041+006001999GF104991999999999999999999MA1101591999999REMMET051METAR SBJU 220700Z 00000KT 9999 SCT020 23/22 Q1016;
0120827840999992013032208004-07317-039300FM-15+0409SBJU V0209999C000012200019N0112651N1+02401+02301999999ADDGA1041+006001999GF104991999999999999999999MA1101591999999REMMET051METAR SBJU 220800Z 00000KT 9999 SCT020 24/23 Q1016;
0120827840999992013032209004-07317-039300FM-15+0409SBJU V0209999C000010057019N0112651N1+02401+02301999999ADDGA1071+005701999GF107991999999999999999999MA1101691999999REMMET051METAR SBJU 220900Z 00000KT 9999 BKN019 24/23 Q1017;
0170827840999992013032210004-07317-039300FM-15+0409SBJU V0200801N004110051019N0040001N1+02201+02201999999ADDGA1041+003001999GA2071+005101999GA3071+021001999GF107991999999999999999999MW1101MW2631REMMET072METAR SBJU 221000Z 08008KT 4000 RA BR SCT010 BKN017 BKN070 22/22 Q101 7;
0158827840999992013032210304-07317-039300FM-15+0409SBJU V0201201N002610054019N0060001N1+02301+02201999999ADDGA1041+003001999GA2071+005401999GF107991999999999999999999MA1101691999999MW1611REMMET067SPECI SBJU 221030Z 12005KT 6000 -RA SCT010 BKN018 23/22 Q1017 RERA;
0148827840999992013032211004-07317-039300FM-15+0409SBJU V0201601N002610057019N0112651N1+02501+02301999999ADDGA1041+003001999GA2071+005701999GF107991999999999999999999MA1101801999999REMMET063METAR SBJU 221100Z 16005KT 9999 SCT010 BKN019 25/23 Q1018 RERA;
0143827840999992013032212004-07317-039300FM-15+0409SBJU V0201101N003610060019N0112651N1+02701+02201999999ADDGA1041+003001999GA2071+006001999GF107991999999999999999999MA1101901999999REMMET058METAR SBJU 221200Z 11007KT 9999 SCT010 BKN020 27/22 Q1019;
0120827840999992013032213004-07317-039300FM-15+0409SBJU V0201201N004110060019N0112651N1+02901+02001999999ADDGA1071+006001999GF107991999999999999999999MA1101801999999REMMET051METAR SBJU 221300Z 12008KT 9999 BKN020 29/20 Q1018;
0120827840999992013032214004-07317-039300FM-15+0409SBJU V0201201N002110063019N0112651N1+03101+02201999999ADDGA1071+006301999GF107991999999999999999999MA1101801999999REMMET051METAR SBJU 221400Z 12004KT 9999 BKN021 31/22 Q1018;
0120827840999992013032215004-07317-039300FM-15+0409SBJU V0202701N002110063019N0112651N1+03101+02201999999ADDGA1071+006301999GF107991999999999999999999MA1101591999999REMMET051METAR SBJU 221500Z 27004KT 9999 BKN021 31/22 Q1016;
0120827840999992013032216004-07317-039300FM-15+0409SBJU V0209999C000010066019N0112651N1+03101+02101999999ADDGA1071+006601999GF107991999999999999999999MA1101491999999REMMET051METAR SBJU 221600Z 00000KT 9999 BKN022 31/21 Q1015;
0120827840999992013032217004-07317-039300FM-15+0409SBJU V0201301N001510066019N0112651N1+03301+01901999999ADDGA1071+006601999GF107991999999999999999999MA1101391999999REMMET051METAR SBJU 221700Z 13003KT 9999 BKN022 33/19 Q1014;
0120827840999992013032218004-07317-039300FM-15+0409SBJU V0200701N002110066019N0112651N1+03301+02101999999ADDGA1071+006601999GF107991999999999999999999MA1101291999999REMMET051METAR SBJU 221800Z 07004KT 9999 BKN022 33/21 Q1013;
0120827840999992013032219004-07317-039300FM-15+0409SBJU V0200801N001512200019N0112651N1+03301+02201999999ADDGA1041+006601999GF104991999999999999999999MA1101291999999REMMET051METAR SBJU 221900Z 08003KT 9999 SCT022 33/22 Q1013;
0120827840999992013032220004-07317-039300FM-15+0409SBJU V0209999C000012200019N0112651N1+03301+02201999999ADDGA1041+006601999GF104991999999999999999999MA1101291999999REMMET051METAR SBJU 222000Z 00000KT 9999 SCT022 33/22 Q1013;
0120827840999992013032221004-07317-039300FM-15+0409SBJU V0209999C000012200019N0112651N1+03201+02301999999ADDGA1021+006601999GF102991999999999999999999MA1101291999999REMMET051METAR SBJU 222100Z 00000KT 9999 FEW022 32/23 Q1013;
0120827840999992013032222004-07317-039300FM-15+0409SBJU V0209999C000012200019N0112651N1+03101+02301999999ADDGA1021+006001999GF102991999999999999999999MA1101291999999REMMET051METAR SBJU 222200Z 00000KT 9999 FEW020 31/23 Q1013;
0120827840999992013032223004-07317-039300FM-15+0409SBJU V0209999C000012200019N0112651N1+03001+02401999999ADDGA1021+006001999GF102991999999999999999999MA1101391999999REMMET051METAR SBJU 222300Z 00000KT 9999 FEW020 30/24 Q1014;
0120827840999992013032300004-07317-039300FM-15+0409SBJU V0202601N001512200019N0112651N1+02901+02401999999ADDGA1041+006001999GF104991999999999999999999MA1101491999999REMMET051METAR SBJU 230000Z 26003KT 9999 SCT020 29/24 Q1015;
0120827840999992013032301004-07317-039300FM-15+0409SBJU V0209999C000012200019N0112651N1+02801+02401999999ADDGA1021+006001999GF102991999999999999999999MA1101491999999REMMET051METAR SBJU 230100Z 00000KT 9999 FEW020 28/24 Q1015;
0120827840999992013032302004-07317-039300FM-15+0409SBJU V0209999C000012200019N0112651N1+02701+02501999999ADDGA1021+006001999GF102991999999999999999999MA1101491999999REMMET051METAR SBJU 230200Z 00000KT 9999 FEW020 27/25 Q1015;
0120827840999992013032303004-07317-039300FM-15+0409SBJU V0209999C000012200019N0112651N1+02701+02501999999ADDGA1041+006001999GF104991999999999999999999MA1101391999999REMMET051METAR SBJU 230300Z 00000KT 9999 SCT020 27/25 Q1014;
0120827840999992013032304004-07317-039300FM-15+0409SBJU V0200501N001512200019N0112651N1+02701+02401999999ADDGA1041+006001999GF104991999999999999999999MA1101391999999REMMET051METAR SBJU 230400Z 05003KT 9999 SCT020 27/24 Q1014;
0120827840999992013032305004-07317-039300FM-15+0409SBJU V0200701N001512200019N0112651N1+02701+02401999999ADDGA1041+006001999GF104991999999999999999999MA1101391999999REMMET051METAR SBJU 230500Z 07003KT 9999 SCT020 27/24 Q1014;
0120827840999992013032306004-07317-039300FM-15+0409SBJU V0200501N001512200019N0112651N1+02701+02401999999ADDGA1041+006001999GF104991999999999999999999MA1101391999999REMMET051METAR SBJU 230600Z 05003KT 9999 SCT020 27/24 Q1014;
0139827840999992013032308004-07317-039300FM-15+0409SBJU V0201401N001012200019N0112651N1+02601+02501999999ADDGA1041+006001999GA2021+006301021MA1101491999999REMMET061METAR SBJU 230800Z 14002KT 9999 SCT020 FEW021TCU 26/25 Q1015;EQDQ01+000022SCOTCV
0139827840999992013032309004-07317-039300FM-15+0409SBJU V0201501N00101006001CN0112651N1+02701+02501999999ADDGA1071+006001999GA2021+006301021MA1101491999999REMMET061METAR SBJU 230900Z 15002KT 9999 BKN020 FEW021TCU 27/25 Q1015;EQDQ01+000022SCOTCV
0153827840999992013032310004-07317-039300FM-15+0409SBJU V0209999C000010054019N0060001N1+02701+02401999999ADDGA1041+003301999GA2071+005401999GF107991999999999999999999MA1101591999999MW1611REMMET062METAR SBJU 231000Z 00000KT 6000 -RA SCT011 BKN018 27/24 Q1016;
0162827840999992013032310204-07317-039300FM-15+0409SBJU V0201701N003610033019N0040001N1+02501+02401999999ADDGA1071+003301999GA2071+005401999GF107991999999999999999999MA1101591999999MW1101MW2611REMMET065SPECI SBJU 231020Z 17007KT 4000 -RA BR BKN011 BKN018 25/24 Q1016;
0162827840999992013032311004-07317-039300FM-15+0409SBJU V0201701N002110054019N0045001N1+02501+02401999999ADDGA1041+003301999GA2071+005401999GF107991999999999999999999MA1101591999999MW1101MW2511REMMET065METAR SBJU 231100Z 17004KT 4500 -DZ BR SCT011 BKN018 25/24 Q1016;
0148827840999992013032312004-07317-039300FM-15+0409SBJU V0201801N001510054019N0060001N1+02601+02501999999ADDGA1041+003301999GA2071+005401999GF107991999999999999999999MA1101691999999REMMET063METAR SBJU 231200Z 18003KT 6000 SCT011 BKN018 26/25 Q1017 REDZ;
0143827840999992013032313004-07317-039300FM-15+0409SBJU V0201201N001012200019N0112651N1+02801+02501999999ADDGA1021+003301999GA2041+005401999GF104991999999999999999999MA1101691999999REMMET058METAR SBJU 231300Z 12002KT 9999 FEW011 SCT018 28/25 Q1017;
0143827840999992013032314004-07317-039300FM-15+0409SBJU V0209999C000012200019N0112651N1+02901+02401999999ADDGA1041+005401999GA2041+006001999GF104991999999999999999999MA1101591999999REMMET058METAR SBJU 231400Z 00000KT 9999 SCT018 SCT020 29/24 Q1016;
0143827840999992013032315004-07317-039300FM-15+0409SBJU V0209999C000010060019N0112651N1+03001+02501999999ADDGA1021+005401999GA2071+006001999GF107991999999999999999999MA1101491999999REMMET058METAR SBJU 231500Z 00000KT 9999 FEW018 BKN020 30/25 Q1015;
0120827840999992013032316004-07317-039300FM-15+0409SBJU V0201001N001512200019N0112651N1+03201+02501999999ADDGA1041+006001999GF104991999999999999999999MA1101391999999REMMET051METAR SBJU 231600Z 10003KT 9999 SCT020 32/25 Q1014;
0120827840999992013032317004-07317-039300FM-15+0409SBJU V0200301N003110060019N0112651N1+03201+02501999999ADDGA1071+006001999GF107991999999999999999999MA1101191999999REMMET051METAR SBJU 231700Z 03006KT 9999 BKN020 32/25 Q1012;
0120827840999992013032318004-07317-039300FM-15+0409SBJU V0201501N001512200019N0112651N1+03301+02301999999ADDGA1041+006001999GF104991999999999999999999MA1101081999999REMMET051METAR SBJU 231800Z 15003KT 9999 SCT020 33/23 Q1011;
0120827840999992013032319004-07317-039300FM-15+0409SBJU V0200401N001012200019N0112651N1+03301+02301999999ADDGA1041+006001999GF104991999999999999999999MA1101081999999REMMET051METAR SBJU 231900Z 04002KT 9999 SCT020 33/23 Q1011;
0120827840999992013032320004-07317-039300FM-15+0409SBJU V0200901N002112200019N0112651N1+03201+02301999999ADDGA1041+006001999GF104991999999999999999999MA1101081999999REMMET051METAR SBJU 232000Z 09004KT 9999 SCT020 32/23 Q1011;
0120827840999992013032321004-07317-039300FM-15+0409SBJU V0209999C000012200019N0112651N1+03201+02301999999ADDGA1041+006001999GF104991999999999999999999MA1101081999999REMMET051METAR SBJU 232100Z 00000KT 9999 SCT020 32/23 Q1011;
0120827840999992013032322004-07317-039300FM-15+0409SBJU V0209999C000012200019N0112651N1+03101+02401999999ADDGA1041+006001999GF104991999999999999999999MA1101191999999REMMET051METAR SBJU 232200Z 00000KT 9999 SCT020 31/24 Q1012;
0120827840999992013032323004-07317-039300FM-15+0409SBJU V0209999C000012200019N0112651N1+03001+02501999999ADDGA1021+006001999GF102991999999999999999999MA1101191999999REMMET051METAR SBJU 232300Z 00000KT 9999 FEW020 30/25 Q1012;
0120827840999992013032400004-07317-039300FM-15+0409SBJU V0209999C000012200019N0112651N1+02901+02601999999ADDGA1021+006001999GF102991999999999999999999MA1101291999999REMMET051METAR SBJU 240000Z 00000KT 9999 FEW020 29/26 Q1013;
0120827840999992013032401004-07317-039300FM-15+0409SBJU V0202901N001012200019N0112651N1+02801+02501999999ADDGA1021+006001999GF102991999999999999999999MA1101391999999REMMET051METAR SBJU 240100Z 29002KT 9999 FEW020 28/25 Q1014;
0120827840999992013032402004-07317-039300FM-15+0409SBJU V0209999C000012200019N0112651N1+02801+02501999999ADDGA1021+006001999GF102991999999999999999999MA1101391999999REMMET051METAR SBJU 240200Z 00000KT 9999 FEW020 28/25 Q1014;
0120827840999992013032403004-07317-039300FM-15+0409SBJU V0209999C000012200019N0112651N1+02701+02501999999ADDGA1021+006001999GF102991999999999999999999MA1101291999999REMMET051METAR SBJU 240300Z 00000KT 9999 FEW020 27/25 Q1013;
0120827840999992013032404004-07317-039300FM-15+0409SBJU V0200701N001512200019N0112651N1+02701+02501999999ADDGA1021+006001999GF102991999999999999999999MA1101291999999REMMET051METAR SBJU 240400Z 07003KT 9999 FEW020 27/25 Q1013;
0120827840999992013032405004-07317-039300FM-15+0409SBJU V0200601N002112200019N0112651N1+02701+02501999999ADDGA1021+006001999GF102991999999999999999999MA1101291999999REMMET051METAR SBJU 240500Z 06004KT 9999 FEW020 27/25 Q1013;
0120827840999992013032406004-07317-039300FM-15+0409SBJU V0201001N003112200019N0112651N1+02601+02401999999ADDGA1041+006001999GF104991999999999999999999MA1101291999999REMMET051METAR SBJU 240600Z 10006KT 9999 SCT020 26/24 Q1013;
0155827840999992013032406204-07317-039300FM-15+0409SBJU V0201601N00621005101CN0060001N1+02401+02301999999ADDGA1071+005101999GA2041+006001091MA1101291999999MW1811MW2951REMMET065SPECI SBJU 240620Z 16012KT 6000 TSRA BKN017 SCT020CB 24/23 Q1013;EQDQ01+000042SCOTCV
0164827840999992013032407004-07317-039300FM-15+0409SBJU V0202001N00151005101CN0090001N1+02401+02301999999ADDGA1021+003301999GA2071+005101999GA3021+006001091MW1611REMMET079METAR SBJU 240700Z 20003KT 9000 -RA FEW011 BKN017 FEW020CB 24/23 Q101 3 RETSRA;EQDQ01+000022SCOTCV
0148827840999992013032408004-07317-039300FM-15+0409SBJU V0202501N001010051019N0112651N1+02401+02301999999ADDGA1041+003301999GA2071+005101999GF107991999999999999999999MA1101391999999REMMET063METAR SBJU 240800Z 25002KT 9999 SCT011 BKN017 24/23 Q1014 RETS;
0143827840999992013032409004-07317-039300FM-15+0409SBJU V0209999C000010051019N0112651N1+02401+02301999999ADDGA1021+003301999GA2071+005101999GF107991999999999999999999MA1101391999999REMMET058METAR SBJU 240900Z 00000KT 9999 FEW011 BKN017 24/23 Q1014;
0143827840999992013032410004-07317-039300FM-15+0409SBJU V0209999C000010051019N0112651N1+02501+02401999999ADDGA1021+003301999GA2071+005101999GF107991999999999999999999MA1101491999999REMMET058METAR SBJU 241000Z 00000KT 9999 FEW011 BKN017 25/24 Q1015;
0143827840999992013032411004-07317-039300FM-15+0409SBJU V0209999C000010051019N0112651N1+02601+02401999999ADDGA1021+003301999GA2071+005101999GF107991999999999999999999MA1101491999999REMMET058METAR SBJU 241100Z 00000KT 9999 FEW011 BKN017 26/24 Q1015;
0143827840999992013032412004-07317-039300FM-15+0409SBJU V0209999C000010051019N0112651N1+02701+02401999999ADDGA1021+003301999GA2071+005101999GF107991999999999999999999MA1101591999999REMMET058METAR SBJU 241200Z 00000KT 9999 FEW011 BKN017 27/24 Q1016;
0143827840999992013032413004-07317-039300FM-15+0409SBJU V0209999C000010051019N0112651N1+02901+02501999999ADDGA1021+003301999GA2071+005101999GF107991999999999999999999MA1101591999999REMMET058METAR SBJU 241300Z 00000KT 9999 FEW011 BKN017 29/25 Q1016;
0143827840999992013032414004-07317-039300FM-15+0409SBJU V0209999C000010051019N0112651N1+03001+02301999999ADDGA1021+003301999GA2071+005101999GF107991999999999999999999MA1101491999999REMMET058METAR SBJU 241400Z 00000KT 9999 FEW011 BKN017 30/23 Q1015;
0120827840999992013032415004-07317-039300FM-15+0409SBJU V0200401N003110054019N0112651N1+03101+02401999999ADDGA1071+005401999GF107991999999999999999999MA1101291999999REMMET051METAR SBJU 241500Z 04006KT 9999 BKN018 31/24 Q1013;
0120827840999992013032416004-07317-039300FM-15+0409SBJU V0200401N002110054019N0112651N1+03201+02501999999ADDGA1071+005401999GF107991999999999999999999MA1101291999999REMMET051METAR SBJU 241600Z 04004KT 9999 BKN018 32/25 Q1013;
0120827840999992013032417004-07317-039300FM-15+0409SBJU V0200601N002610060019N0112651N1+03201+02401999999ADDGA1071+006001999GF107991999999999999999999MA1101081999999REMMET051METAR SBJU 241700Z 06005KT 9999 BKN020 32/24 Q1011;
0120827840999992013032418004-07317-039300FM-15+0409SBJU V0201501N003110063019N0112651N1+03301+02501999999ADDGA1071+006301999GF107991999999999999999999MA1101081999999REMMET051METAR SBJU 241800Z 15006KT 9999 BKN021 33/25 Q1011;
0120827840999992013032419004-07317-039300FM-15+0409SBJU V0200901N001512200019N0112651N1+03301+02301999999ADDGA1041+006301999GF104991999999999999999999MA1101021999999REMMET051METAR SBJU 241900Z 09003KT 9999 SCT021 33/23 Q1010;
0120827840999992013032420004-07317-039300FM-15+0409SBJU V0200801N001012200019N0112651N1+03201+02301999999ADDGA1021+006001999GF102991999999999999999999MA1101021999999REMMET051METAR SBJU 242000Z 08002KT 9999 FEW020 32/23 Q1010;
0120827840999992013032421004-07317-039300FM-15+0409SBJU V0200301N001012200019N0112651N1+03101+02401999999ADDGA1021+006301999GF102991999999999999999999MA1101081999999REMMET051METAR SBJU 242100Z 03002KT 9999 FEW021 31/24 Q1011;
0120827840999992013032422004-07317-039300FM-15+0409SBJU V0209999C000012200019N0112651N1+03001+02401999999ADDGA1041+006001999GF104991999999999999999999MA1101081999999REMMET051METAR SBJU 242200Z 00000KT 9999 SCT020 30/24 Q1011;
0120827840999992013032423004-07317-039300FM-15+0409SBJU V0203201N002112200019N0112651N1+02901+02501999999ADDGA1041+006001999GF104991999999999999999999MA1101191999999REMMET051METAR SBJU 242300Z 32004KT 9999 SCT020 29/25 Q1012;
0120827840999992013032500004-07317-039300FM-15+0409SBJU V0202701N001512200019N0112651N1+02901+02501999999ADDGA1041+006001999GF104991999999999999999999MA1101291999999REMMET051METAR SBJU 250000Z 27003KT 9999 SCT020 29/25 Q1013;
0120827840999992013032501004-07317-039300FM-15+0409SBJU V0209999C000012200019N0112651N1+02801+02601999999ADDGA1041+006001999GF104991999999999999999999MA1101391999999REMMET051METAR SBJU 250100Z 00000KT 9999 SCT020 28/26 Q1014;
0120827840999992013032502004-07317-039300FM-15+0409SBJU V0200801N001512200019N0112651N1+02701+02601999999ADDGA1041+006001999GF104991999999999999999999MA1101391999999REMMET051METAR SBJU 250200Z 08003KT 9999 SCT020 27/26 Q1014;
0120827840999992013032503004-07317-039300FM-15+0409SBJU V0200301N002112200019N0112651N1+02701+02501999999ADDGA1041+006001999GF104991999999999999999999MA1101391999999REMMET051METAR SBJU 250300Z 03004KT 9999 SCT020 27/25 Q1014;
0120827840999992013032504004-07317-039300FM-15+0409SBJU V0200401N003110054019N0112651N1+02701+02401999999ADDGA1071+005401999GF107991999999999999999999MA1101291999999REMMET051METAR SBJU 250400Z 04006KT 9999 BKN018 27/24 Q1013;
0120827840999992013032505004-07317-039300FM-15+0409SBJU V0209999C000010051019N0112651N1+02701+02401999999ADDGA1071+005101999GF107991999999999999999999MA1101291999999REMMET051METAR SBJU 250500Z 00000KT 9999 BKN017 27/24 Q1013;
0120827840999992013032506004-07317-039300FM-15+0409SBJU V0202401N002110051019N0112651N1+02501+02301999999ADDGA1071+005101999GF107991999999999999999999MA1101291999999REMMET051METAR SBJU 250600Z 24004KT 9999 BKN017 25/23 Q1013;
0155827840999992013032507004-07317-039300FM-15+0409SBJU V0202401N00311004801CN0060001N1+02401+02301999999ADDGA1071+004801999GA2021+006001091MA1101391999999MW1811MW2951REMMET065METAR SBJU 250700Z 24006KT 6000 TSRA BKN016 FEW020CB 24/23 Q1014;EQDQ01+000022SCOTCV
0155827840999992013032507054-07317-039300FM-15+0409SBJU V0201801N00461004801CN0030001N1+02401+02301999999ADDGA1071+004801999GA2021+006001091MA1101391999999MW1811MW2951REMMET065SPECI SBJU 250705Z 18009KT 3000 TSRA BKN016 FEW020CB 24/23 Q1014;EQDQ01+000022SCOTCV
0156827840999992013032508004-07317-039300FM-15+0409SBJU V0201801N00211004501CN0060001N1+02301+02301999999ADDGA1071+004501999GA2021+006001091MA1101391999999MW1801MW2951REMMET066METAR SBJU 250800Z 18004KT 6000 -TSRA BKN015 FEW020CB 23/23 Q1014;EQDQ01+000022SCOTCV
0155827840999992013032508104-07317-039300FM-15+0409SBJU V0201301N00361004801CN0030001N1+02301+02301999999ADDGA1071+004801999GA2021+006001091MA1101491999999MW1811MW2951REMMET065SPECI SBJU 250810Z 13007KT 3000 TSRA BKN016 FEW020CB 23/23 Q1015;EQDQ01+000022SCOTCV
0157827840999992013032508354-07317-039300FM-15+0409SBJU V0201301N003110045019N0040001N1+02301+02301999999ADDGA1041+003301999GA2071+004501999GF107991999999999999999999MA1101591999999MW1631REMMET066SPECI SBJU 250835Z 13006KT 4000 RA SCT011 BKN015 23/23 Q1016 RETS;
0157827840999992013032509004-07317-039300FM-15+0409SBJU V0201301N003610045019N0040001N1+02301+02201999999ADDGA1041+003301999GA2071+004501999GF107991999999999999999999MA1101591999999MW1631REMMET066METAR SBJU 250900Z 13007KT 4000 RA SCT011 BKN015 23/22 Q1016 RETS;
0162827840999992013032510004-07317-039300FM-15+0409SBJU V0202501N001010210019N0050001N1+02301+02201999999ADDGA1041+003001999GA2081+021001999GF108991999999999999999999MA1101591999999MW1101MW2611REMMET065METAR SBJU 251000Z 25002KT 5000 -RA BR SCT010 OVC070 23/22 Q1016;
0143827840999992013032511004-07317-039300FM-15+0409SBJU V0202501N001010210019N0112651N1+02301+02201999999ADDGA1021+003001999GA2071+021001999GF107991999999999999999999MA1101691999999REMMET058METAR SBJU 251100Z 25002KT 9999 FEW010 BKN070 23/22 Q1017;
0143827840999992013032512004-07317-039300FM-15+0409SBJU V0209999C000010210019N0112651N1+02401+02301999999ADDGA1021+003001999GA2071+021001999GF107991999999999999999999MA1101691999999REMMET058METAR SBJU 251200Z 00000KT 9999 FEW010 BKN070 24/23 Q1017;
0143827840999992013032513004-07317-039300FM-15+0409SBJU V0209999C000010210019N0112651N1+02701+02401999999ADDGA1041+006001999GA2081+021001999GF108991999999999999999999MA1101691999999REMMET058METAR SBJU 251300Z 00000KT 9999 SCT020 OVC070 27/24 Q1017;
0143827840999992013032514004-07317-039300FM-15+0409SBJU V0202801N002110210019N0112651N1+02701+02401999999ADDGA1041+006001999GA2081+021001999GF108991999999999999999999MA1101691999999REMMET058METAR SBJU 251400Z 28004KT 9999 SCT020 OVC070 27/24 Q1017;
0143827840999992013032515004-07317-039300FM-15+0409SBJU V0202001N001510210019N0112651N1+02801+02301999999ADDGA1041+006301999GA2081+021001999GF108991999999999999999999MA1101691999999REMMET058METAR SBJU 251500Z 20003KT 9999 SCT021 OVC070 28/23 Q1017;
0143827840999992013032516004-07317-039300FM-15+0409SBJU V0203401N002110210019N0112651N1+03001+02401999999ADDGA1041+006301999GA2071+021001999GF107991999999999999999999MA1101591999999REMMET058METAR SBJU 251600Z 34004KT 9999 SCT021 BKN070 30/24 Q1016;
0143827840999992013032517004-07317-039300FM-15+0409SBJU V0203101N002110210019N0112651N1+03001+02401999999ADDGA1021+006301999GA2071+021001999GF107991999999999999999999MA1101491999999REMMET058METAR SBJU 251700Z 31004KT 9999 FEW021 BKN070 30/24 Q1015;
0143827840999992013032518004-07317-039300FM-15+0409SBJU V0203301N001010240019N0112651N1+03101+02301999999ADDGA1021+006301999GA2071+024001999GF107991999999999999999999MA1101391999999REMMET058METAR SBJU 251800Z 33002KT 9999 FEW021 BKN080 31/23 Q1014;
0143827840999992013032519004-07317-039300FM-15+0409SBJU V0203301N001510240019N0112651N1+03101+02401999999ADDGA1021+006301999GA2071+024001999GF107991999999999999999999MA1101391999999REMMET058METAR SBJU 251900Z 33003KT 9999 FEW021 BKN080 31/24 Q1014;
0143827840999992013032520004-07317-039300FM-15+0409SBJU V0202801N001010240019N0112651N1+03001+02401999999ADDGA1021+006601999GA2071+024001999GF107991999999999999999999MA1101391999999REMMET058METAR SBJU 252000Z 28002KT 9999 FEW022 BKN080 30/24 Q1014;
0120827840999992013032521004-07317-039300FM-15+0409SBJU V0202301N001012200019N0112651N1+02901+02401999999ADDGA1021+006001999GF102991999999999999999999MA1101391999999REMMET051METAR SBJU 252100Z 23002KT 9999 FEW020 29/24 Q1014;
0120827840999992013032522004-07317-039300FM-15+0409SBJU V0209999C000012200019N0112651N1+02801+02401999999ADDGA1041+006001999GF104991999999999999999999MA1101491999999REMMET051METAR SBJU 252200Z 00000KT 9999 SCT020 28/24 Q1015;
0120827840999992013032523004-07317-039300FM-15+0409SBJU V0209999C000012200019N0112651N1+02701+02401999999ADDGA1041+006001999GF104991999999999999999999MA1101491999999REMMET051METAR SBJU 252300Z 00000KT 9999 SCT020 27/24 Q1015;
0120827840999992013032600004-07317-039300FM-15+0409SBJU V0209999C000012200019N0112651N1+02701+02401999999ADDGA1041+006001999GF104991999999999999999999MA1101591999999REMMET051METAR SBJU 260000Z 00000KT 9999 SCT020 27/24 Q1016;
0120827840999992013032601004-07317-039300FM-15+0409SBJU V0209999C000012200019N0112651N1+02601+02401999999ADDGA1041+006001999GF104991999999999999999999MA1101591999999REMMET051METAR SBJU 260100Z 00000KT 9999 SCT020 26/24 Q1016;
0120827840999992013032602004-07317-039300FM-15+0409SBJU V0209999C000012200019N0112651N1+02601+02401999999ADDGA1041+006001999GF104991999999999999999999MA1101691999999REMMET051METAR SBJU 260200Z 00000KT 9999 SCT020 26/24 Q1017;
0120827840999992013032603004-07317-039300FM-15+0409SBJU V0209999C000012200019N0112651N1+02601+02501999999ADDGA1041+006001999GF104991999999999999999999MA1101691999999REMMET051METAR SBJU 260300Z 00000KT 9999 SCT020 26/25 Q1017;
0143827840999992013032604004-07317-039300FM-15+0409SBJU V0209999C000010054019N0112651N1+02601+02401999999ADDGA1021+003001999GA2071+005401999GF107991999999999999999999MA1101591999999REMMET058METAR SBJU 260400Z 00000KT 9999 FEW010 BKN018 26/24 Q1016;
0170827840999992013032605004-07317-039300FM-15+0409SBJU V0200901N00261005401CN0050001N1+02501+02401999999ADDGA1021+003001999GA2041+005401999GA3081+021001999GF108991999999999999999999MW1101MW2631REMMET072METAR SBJU 260500Z 09005KT 5000 RA BR FEW010 SCT018 OVC070 25/24 Q101 7;
0148827840999992013032606004-07317-039300FM-15+0409SBJU V0202901N002110054019N0112651N1+02501+02401999999ADDGA1071+005401999GA2071+021001999GF107991999999999999999999MA1101591999999REMMET063METAR SBJU 260600Z 29004KT 9999 BKN018 BKN070 25/24 Q1016 RERA;
0177827840999992013032607004-07317-039300FM-15+0409SBJU V0209999C000010210019N0112651N1+02401+02301999999ADDGA1021+003001999GA2021+005401091GA3081+021001999GF108991999999999999999999MA1101691999999MW1171REMMET070METAR SBJU 260700Z 00000KT 9999 TS FEW010 FEW018CB OVC070 24/23 Q1017;
0186827840999992013032608004-07317-039300FM-15+0409SBJU V0200801N00151006601CN0050001N1+02301+02201999999ADDGA1041+006001999GA2021+006601091GA3081+021001999GF108991999999999999999999MA1101691999999MW1821MW2971REMMET073METAR SBJU 260800Z 08003KT 5000 +TSRA SCT020 FEW022CB OVC070 23/22 Q1017;
0186827840999992013032609004-07317-039300FM-15+0409SBJU V0202401N00261006601CN0030001N1+02301+02201999999ADDGA1041+006001999GA2021+006601091GA3081+021001999GF108991999999999999999999MA1101691999999MW1821MW2971REMMET073METAR SBJU 260900Z 24005KT 3000 +TSRA SCT020 FEW022CB OVC070 23/22 Q1017;
0153827840999992013032610004-07317-039300FM-15+0409SBJU V0200701N002610210019N0050001N1+02401+02301999999ADDGA1041+006001999GA2071+021001999GF107991999999999999999999MA1101801999999MW1611REMMET062METAR SBJU 261000Z 07005KT 5000 -RA SCT020 BKN070 24/23 Q1018;
0120827840999992013032611004-07317-039300FM-15+0409SBJU V0202401N002110060019N0112651N1+02501+02401999999ADDGA1071+006001999GF107991999999999999999999MA1101901999999REMMET051METAR SBJU 261100Z 24004KT 9999 BKN020 25/24 Q1019;
0120827840999992013032612004-07317-039300FM-15+0409SBJU V0200201N001012200019N0112651N1+02601+02401999999ADDGA1041+006001999GF104991999999999999999999MA1102001999999REMMET051METAR SBJU 261200Z 02002KT 9999 SCT020 26/24 Q1020;
0143827840999992013032613004-07317-039300FM-15+0409SBJU V0200201N001010240019N0112651N1+02801+02401999999ADDGA1041+006301999GA2071+024001999GF107991999999999999999999MA1101901999999REMMET058METAR SBJU 261300Z 02002KT 9999 SCT021 BKN080 28/24 Q1019;
0143827840999992013032614004-07317-039300FM-15+0409SBJU V0200501N001010240019N0112651N1+02901+02401999999ADDGA1041+006301999GA2071+024001999GF107991999999999999999999MA1101801999999REMMET058METAR SBJU 261400Z 05002KT 9999 SCT021 BKN080 29/24 Q1018;
0143827840999992013032615004-07317-039300FM-15+0409SBJU V0200401N002112200019N0112651N1+03001+02301999999ADDGA1041+006301999GA2041+024001999GF104991999999999999999999MA1101691999999REMMET058METAR SBJU 261500Z 04004KT 9999 SCT021 SCT080 30/23 Q1017;
0143827840999992013032616004-07317-039300FM-15+0409SBJU V0209999C000012200019N0112651N1+03101+02401999999ADDGA1041+006001999GA2041+024001999GF104991999999999999999999MA1101591999999REMMET058METAR SBJU 261600Z 00000KT 9999 SCT020 SCT080 31/24 Q1016;
0143827840999992013032617004-07317-039300FM-15+0409SBJU V0201001N001512200019N0112651N1+03201+02401999999ADDGA1041+006001999GA2041+024001999GF104991999999999999999999MA1101491999999REMMET058METAR SBJU 261700Z 10003KT 9999 SCT020 SCT080 32/24 Q1015;
0143827840999992013032618004-07317-039300FM-15+0409SBJU V0200701N002612200019N0112651N1+03201+02401999999ADDGA1041+006001999GA2041+024001999GF104991999999999999999999MA1101391999999REMMET058METAR SBJU 261800Z 07005KT 9999 SCT020 SCT080 32/24 Q1014;
0143827840999992013032619004-07317-039300FM-15+0409SBJU V0200301N002112200019N0112651N1+03301+02301999999ADDGA1021+006001999GA2041+024001999GF104991999999999999999999MA1101391999999REMMET058METAR SBJU 261900Z 03004KT 9999 FEW020 SCT080 33/23 Q1014;
0143827840999992013032620004-07317-039300FM-15+0409SBJU V0200201N001512200019N0112651N1+03201+02401999999ADDGA1021+006001999GA2041+024001999GF104991999999999999999999MA1101291999999REMMET058METAR SBJU 262000Z 02003KT 9999 FEW020 SCT080 32/24 Q1013;
0143827840999992013032621004-07317-039300FM-15+0409SBJU V0203201N001512200019N0112651N1+03001+02401999999ADDGA1021+006001999GA2041+024001999GF104991999999999999999999MA1101391999999REMMET058METAR SBJU 262100Z 32003KT 9999 FEW020 SCT080 30/24 Q1014;
0143827840999992013032622004-07317-039300FM-15+0409SBJU V0203001N001012200019N0112651N1+02901+02401999999ADDGA1021+006001999GA2041+024001999GF104991999999999999999999MA1101391999999REMMET058METAR SBJU 262200Z 30002KT 9999 FEW020 SCT080 29/24 Q1014;
0143827840999992013032623004-07317-039300FM-15+0409SBJU V0209999C000010240019N0112651N1+02801+02501999999ADDGA1021+006001999GA2071+024001999GF107991999999999999999999MA1101491999999REMMET058METAR SBJU 262300Z 00000KT 9999 FEW020 BKN080 28/25 Q1015;
0143827840999992013032700004-07317-039300FM-15+0409SBJU V0209999C000012200019N0112651N1+02801+02601999999ADDGA1021+006001999GA2041+024001999GF104991999999999999999999MA1101591999999REMMET058METAR SBJU 270000Z 00000KT 9999 FEW020 SCT080 28/26 Q1016;
0072827840999992013032701004-07317-039300FM-15+0409SBJU V0209999C000019999999Y0099001N1+02801+02501999999ADDMA1101591999999REMMET045METAR SBJU 270100Z 00000KT CAVOK 28/25 Q1016;
0143827840999992013032702004-07317-039300FM-15+0409SBJU V0209999C000012200019N0112651N1+02701+02501999999ADDGA1021+006001999GA2041+024001999GF104991999999999999999999MA1101591999999REMMET058METAR SBJU 270200Z 00000KT 9999 FEW020 SCT080 27/25 Q1016;
0120827840999992013032703004-07317-039300FM-15+0409SBJU V0209999C000012200019N0112651N1+02701+02601999999ADDGA1041+006001999GF104991999999999999999999MA1101591999999REMMET051METAR SBJU 270300Z 00000KT 9999 SCT020 27/26 Q1016;
0120827840999992013032704004-07317-039300FM-15+0409SBJU V0209999C000012200019N0112651N1+02601+02501999999ADDGA1041+006001999GF104991999999999999999999MA1101591999999REMMET051METAR SBJU 270400Z 00000KT 9999 SCT020 26/25 Q1016;
0120827840999992013032705004-07317-039300FM-15+0409SBJU V0209999C000012200019N0112651N1+02601+02501999999ADDGA1041+006001999GF104991999999999999999999MA1101491999999REMMET051METAR SBJU 270500Z 00000KT 9999 SCT020 26/25 Q1015;
0120827840999992013032706004-07317-039300FM-15+0409SBJU V0209999C000010060019N0112651N1+02701+02601999999ADDGA1071+006001999GF107991999999999999999999MA1101591999999REMMET051METAR SBJU 270600Z 00000KT 9999 BKN020 27/26 Q1016;
0120827840999992013032707004-07317-039300FM-15+0409SBJU V0209999C000010060019N0112651N1+02701+02501999999ADDGA1071+006001999GF107991999999999999999999MA1101491999999REMMET051METAR SBJU 270700Z 00000KT 9999 BKN020 27/25 Q1015;
0130827840999992013032708004-07317-039300FM-15+0409SBJU V0209999C000010060019N0112651N1+02601+02501999999ADDGA1071+006001999GF107991999999999999999999MA1101591999999MW1611REMMET055METAR SBJU 270800Z 00000KT 9999 -RA BKN020 26/25 Q1016;
0120827840999992013032710004-07317-039300FM-15+0409SBJU V0201801N001010060019N0112651N1+02601+02501999999ADDGA1071+006001999GF107991999999999999999999MA1101801999999REMMET051METAR SBJU 271000Z 18002KT 9999 BKN020 26/25 Q1018;
0143827840999992013032711004-07317-039300FM-15+0409SBJU V0202801N001010060019N0112651N1+02701+02501999999ADDGA1021+003001999GA2071+006001999GF107991999999999999999999MA1101801999999REMMET058METAR SBJU 271100Z 28002KT 9999 FEW010 BKN020 27/25 Q1018;
0143827840999992013032712004-07317-039300FM-15+0409SBJU V0203001N001510060019N0112651N1+02901+02501999999ADDGA1021+003001999GA2071+006001999GF107991999999999999999999MA1101801999999REMMET058METAR SBJU 271200Z 30003KT 9999 FEW010 BKN020 29/25 Q1018;
0120827840999992013032713004-07317-039300FM-15+0409SBJU V0202001N001010060019N0112651N1+03001+02401999999ADDGA1071+006001999GF107991999999999999999999MA1101801999999REMMET051METAR SBJU 271300Z 20002KT 9999 BKN020 30/24 Q1018;
0120827840999992013032714004-07317-039300FM-15+0409SBJU V0200601N001510063019N0112651N1+03101+02501999999ADDGA1071+006301999GF107991999999999999999999MA1101691999999REMMET051METAR SBJU 271400Z 06003KT 9999 BKN021 31/25 Q1017;
0120827840999992013032715004-07317-039300FM-15+0409SBJU V0200601N002610063019N0112651N1+03101+02401999999ADDGA1071+006301999GF107991999999999999999999MA1101591999999REMMET051METAR SBJU 271500Z 06005KT 9999 BKN021 31/24 Q1016;
0120827840999992013032716004-07317-039300FM-15+0409SBJU V0200201N002110063019N0112651N1+03301+02401999999ADDGA1071+006301999GF107991999999999999999999MA1101491999999REMMET051METAR SBJU 271600Z 02004KT 9999 BKN021 33/24 Q1015;
0139827840999992013032717004-07317-039300FM-15+0409SBJU V0200701N00361006001CN0112651N1+03301+02401999999ADDGA1071+006001999GA2021+006901021MA1101391999999REMMET061METAR SBJU 271700Z 07007KT 9999 BKN020 FEW023TCU 33/24 Q1014;EQDQ01+000022SCOTCV
0139827840999992013032718004-07317-039300FM-15+0409SBJU V0200801N002612200019N0112651N1+03301+02501999999ADDGA1041+006301999GA2021+006901021MA1101291999999REMMET061METAR SBJU 271800Z 08005KT 9999 SCT021 FEW023TCU 33/25 Q1013;EQDQ01+000022SCOTCV
0139827840999992013032719004-07317-039300FM-15+0409SBJU V0201401N001512200019N0112651N1+03301+02401999999ADDGA1041+006301999GA2021+006901021MA1101291999999REMMET061METAR SBJU 271900Z 14003KT 9999 SCT021 FEW023TCU 33/24 Q1013;EQDQ01+000022SCOTCV
0120827840999992013032720004-07317-039300FM-15+0409SBJU V0201001N001012200019N0112651N1+03301+02301999999ADDGA1041+006301999GF104991999999999999999999MA1101291999999REMMET051METAR SBJU 272000Z 10002KT 9999 SCT021 33/23 Q1013;
0120827840999992013032721004-07317-039300FM-15+0409SBJU V0209999C000012200019N0112651N1+03201+02401999999ADDGA1041+006301999GF104991999999999999999999MA1101291999999REMMET051METAR SBJU 272100Z 00000KT 9999 SCT021 32/24 Q1013;
0120827840999992013032722004-07317-039300FM-15+0409SBJU V0209999C000012200019N0112651N1+03101+02501999999ADDGA1021+006001999GF102991999999999999999999MA1101391999999REMMET051METAR SBJU 272200Z 00000KT 9999 FEW020 31/25 Q1014;
0120827840999992013032723004-07317-039300FM-15+0409SBJU V0209999C000012200019N0112651N1+03001+02601999999ADDGA1041+006001999GF104991999999999999999999MA1101491999999REMMET051METAR SBJU 272300Z 00000KT 9999 SCT020 30/26 Q1015;
0120827840999992013032800004-07317-039300FM-15+0409SBJU V0202401N001012200019N0112651N1+02901+02601999999ADDGA1021+006001999GF102991999999999999999999MA1101491999999REMMET051METAR SBJU 280000Z 24002KT 9999 FEW020 29/26 Q1015;
0120827840999992013032801004-07317-039300FM-15+0409SBJU V0209999C000012200019N0112651N1+02801+02601999999ADDGA1021+006001999GF102991999999999999999999MA1101491999999REMMET051METAR SBJU 280100Z 00000KT 9999 FEW020 28/26 Q1015;
0120827840999992013032802004-07317-039300FM-15+0409SBJU V0200401N002112200019N0112651N1+02801+02501999999ADDGA1041+006001999GF104991999999999999999999MA1101591999999REMMET051METAR SBJU 280200Z 04004KT 9999 SCT020 28/25 Q1016;
0120827840999992013032803004-07317-039300FM-15+0409SBJU V0209999C000012200019N0112651N1+02801+02501999999ADDGA1041+006001999GF104991999999999999999999MA1101591999999REMMET051METAR SBJU 280300Z 00000KT 9999 SCT020 28/25 Q1016;
0120827840999992013032804004-07317-039300FM-15+0409SBJU V0200301N002612200019N0112651N1+02801+02501999999ADDGA1041+006001999GF104991999999999999999999MA1101491999999REMMET051METAR SBJU 280400Z 03005KT 9999 SCT020 28/25 Q1015;
0120827840999992013032805004-07317-039300FM-15+0409SBJU V0203301N001512200019N0112651N1+02801+02501999999ADDGA1041+006001999GF104991999999999999999999MA1101391999999REMMET051METAR SBJU 280500Z 33003KT 9999 SCT020 28/25 Q1014;
0120827840999992013032806004-07317-039300FM-15+0409SBJU V0200601N001010060019N0112651N1+02701+02501999999ADDGA1071+006001999GF107991999999999999999999MA1101491999999REMMET051METAR SBJU 280600Z 06002KT 9999 BKN020 27/25 Q1015;
0153827840999992013032807004-07317-039300FM-15+0409SBJU V0203401N002610057019N0090001N1+02501+02401999999ADDGA1021+003001999GA2071+005701999GF107991999999999999999999MA1101491999999MW1611REMMET062METAR SBJU 280700Z 34005KT 9000 -RA FEW010 BKN019 25/24 Q1015;
0143827840999992013032808004-07317-039300FM-15+0409SBJU V0203501N001010057019N0090001N1+02601+02501999999ADDGA1021+003001999GA2071+005701999GF107991999999999999999999MA1101491999999REMMET058METAR SBJU 280800Z 35002KT 9000 FEW010 BKN019 26/25 Q1015;
0120827840999992013032809004-07317-039300FM-15+0409SBJU V0202701N001010057019N0112651N1+02601+02501999999ADDGA1071+005701999GF107991999999999999999999MA1101491999999REMMET051METAR SBJU 280900Z 27002KT 9999 BKN019 26/25 Q1015;
0143827840999992013032810004-07317-039300FM-15+0409SBJU V0209999C000010054019N0112651N1+02701+02601999999ADDGA1021+003301999GA2071+005401999GF107991999999999999999999MA1101591999999REMMET058METAR SBJU 281000Z 00000KT 9999 FEW011 BKN018 27/26 Q1016;
0143827840999992013032811004-07317-039300FM-15+0409SBJU V0209999C000010048019N0112651N1+02701+02501999999ADDGA1041+003301999GA2071+004801999GF107991999999999999999999MA1101691999999REMMET058METAR SBJU 281100Z 00000KT 9999 SCT011 BKN016 27/25 Q1017;
0143827840999992013032812004-07317-039300FM-15+0409SBJU V0203001N001510048019N0112651N1+02801+02501999999ADDGA1041+003301999GA2071+004801999GF107991999999999999999999MA1101691999999REMMET058METAR SBJU 281200Z 30003KT 9999 SCT011 BKN016 28/25 Q1017;
0143827840999992013032813004-07317-039300FM-15+0409SBJU V0201101N004110045019N0112651N1+02701+02401999999ADDGA1041+003301999GA2071+004501999GF107991999999999999999999MA1101801999999REMMET058METAR SBJU 281300Z 11008KT 9999 SCT011 BKN015 27/24 Q1018;
0143827840999992013032814004-07317-039300FM-15+0409SBJU V0200901N003610045019N0112651N1+02801+02501999999ADDGA1041+003301999GA2071+004501999GF107991999999999999999999MA1101691999999REMMET058METAR SBJU 281400Z 09007KT 9999 SCT011 BKN015 28/25 Q1017;
0143827840999992013032815004-07317-039300FM-15+0409SBJU V0200501N002610048019N0112651N1+03001+02401999999ADDGA1021+003301999GA2071+004801999GF107991999999999999999999MA1101691999999REMMET058METAR SBJU 281500Z 05005KT 9999 FEW011 BKN016 30/24 Q1017;
0143827840999992013032816004-07317-039300FM-15+0409SBJU V0203401N002110054019N0112651N1+03101+02401999999ADDGA1021+004801999GA2071+005401999GF107991999999999999999999MA1101491999999REMMET058METAR SBJU 281600Z 34004KT 9999 FEW016 BKN018 31/24 Q1015;
0120827840999992013032817004-07317-039300FM-15+0409SBJU V0201401N001010054019N0112651N1+03201+02401999999ADDGA1071+005401999GF107991999999999999999999MA1101391999999REMMET051METAR SBJU 281700Z 14002KT 9999 BKN018 32/24 Q1014;
0120827840999992013032818004-07317-039300FM-15+0409SBJU V0209999C000012200019N0112651N1+03201+02401999999ADDGA1041+005401999GF104991999999999999999999MA1101291999999REMMET051METAR SBJU 281800Z 00000KT 9999 SCT018 32/24 Q1013;
0120827840999992013032819004-07317-039300FM-15+0409SBJU V0209999C000012200019N0112651N1+03301+02401999999ADDGA1041+005401999GF104991999999999999999999MA1101191999999REMMET051METAR SBJU 281900Z 00000KT 9999 SCT018 33/24 Q1012;
0120827840999992013032820004-07317-039300FM-15+0409SBJU V0209999C000012200019N0112651N1+03301+02401999999ADDGA1021+006001999GF102991999999999999999999MA1101191999999REMMET051METAR SBJU 282000Z 00000KT 9999 FEW020 33/24 Q1012;
0145827840999992013032821004-07317-039300FM-15+0409SBJU V0209999C000012200019N0112651N1+03201+02401999999ADDGA1021+006001999GA2021+006301091GF102991999999999999999999MA1101191999999REMMET060METAR SBJU 282100Z 00000KT 9999 FEW020 FEW021CB 32/24 Q1012;
0123827840999992013032822004-07317-039300FM-15+0409SBJU V0209999C000012200019N0112651N1+03001+02501999999ADDGA1021+006001021GF102991999999999999999999MA1101291999999REMMET054METAR SBJU 282200Z 00000KT 9999 FEW020TCU 30/25 Q1013;
0120827840999992013032823004-07317-039300FM-15+0409SBJU V0209999C000012200019N0112651N1+02901+02601999999ADDGA1021+003001999GF102991999999999999999999MA1101391999999REMMET051METAR SBJU 282300Z 00000KT 9999 FEW010 29/26 Q1014;
0120827840999992013032900004-07317-039300FM-15+0409SBJU V0209999C000012200019N0112651N1+02801+02601999999ADDGA1021+006001999GF102991999999999999999999MA1101391999999REMMET051METAR SBJU 290000Z 00000KT 9999 FEW020 28/26 Q1014;
0120827840999992013032901004-07317-039300FM-15+0409SBJU V0209999C000012200019N0112651N1+02801+02501999999ADDGA1021+006001999GF102991999999999999999999MA1101491999999REMMET051METAR SBJU 290100Z 00000KT 9999 FEW020 28/25 Q1015;
0120827840999992013032902004-07317-039300FM-15+0409SBJU V0209999C000012200019N0112651N1+02701+02501999999ADDGA1021+006001999GF102991999999999999999999MA1101491999999REMMET051METAR SBJU 290200Z 00000KT 9999 FEW020 27/25 Q1015;
0120827840999992013032903004-07317-039300FM-15+0409SBJU V0200101N002610060019N0112651N1+02701+02601999999ADDGA1071+006001999GF107991999999999999999999MA1101491999999REMMET051METAR SBJU 290300Z 01005KT 9999 BKN020 27/26 Q1015;
0120827840999992013032904004-07317-039300FM-15+0409SBJU V0209999C000010048019N0112651N1+02701+02501999999ADDGA1071+004801999GF107991999999999999999999MA1101491999999REMMET051METAR SBJU 290400Z 00000KT 9999 BKN016 27/25 Q1015;
0120827840999992013032905004-07317-039300FM-15+0409SBJU V0209999C000010048019N0112651N1+02801+02501999999ADDGA1071+004801999GF107991999999999999999999MA1101491999999REMMET051METAR SBJU 290500Z 00000KT 9999 BKN016 28/25 Q1015;
0120827840999992013032906004-07317-039300FM-15+0409SBJU V0209999C000010048019N0112651N1+02701+02501999999ADDGA1071+004801999GF107991999999999999999999MA1101491999999REMMET051METAR SBJU 290600Z 00000KT 9999 BKN016 27/25 Q1015;
0120827840999992013032907004-07317-039300FM-15+0409SBJU V0209999C000010048019N0112651N1+02701+02401999999ADDGA1071+004801999GF107991999999999999999999MA1101491999999REMMET051METAR SBJU 290700Z 00000KT 9999 BKN016 27/24 Q1015;
0120827840999992013032908004-07317-039300FM-15+0409SBJU V0209999C000010048019N0112651N1+02601+02401999999ADDGA1071+004801999GF107991999999999999999999MA1101491999999REMMET051METAR SBJU 290800Z 00000KT 9999 BKN016 26/24 Q1015;
0176827840999992013032909004-07317-039300FM-15+0409SBJU V0209999C000010048019N0080001N1+02601+02501999999ADDGA1021+003301999GA2071+004801999GA3071+024001999GF107991999999999999999999MA1101491999999MW1611REMMET069METAR SBJU 290900Z 00000KT 8000 -RA FEW011 BKN016 BKN080 26/25 Q1015;
0166827840999992013032910004-07317-039300FM-15+0409SBJU V0209999C00001004801CN0080001N1+02601+02501999999ADDGA1021+003301999GA2041+004801999GA3071+024001999GF107991999999999999999999MA1101591999999REMMET065METAR SBJU 291000Z 00000KT 8000 FEW011 SCT016 BKN080 26/25 Q1016;
0208827840999992013032910404-07317-039300FM-15+0409SBJU V0201401N00411004801CN0030001N1+02601+02501999999ADDGA1021+003301999GA2041+004801999GA3021+006001091GA4071+024001999GF107991999999999999999999MA1101691999999MW1811MW2951REMMET079SPECI SBJU 291040Z 14008KT 3000 TSRA FEW011 SCT016 FEW020CB BKN080 26/25 Q1017;
0208827840999992013032911004-07317-039300FM-15+0409SBJU V0200701N00151004801CN0015001N1+02501+02401999999ADDGA1021+003301999GA2041+004801999GA3021+006001091GA4071+024001999GF107991999999999999999999MA1101691999999MW1811MW2951REMMET079METAR SBJU 291100Z 07003KT 1500 TSRA FEW011 SCT016 FEW020CB BKN080 25/24 Q1017;
0183827840999992013032912004-07317-039300FM-15+0409SBJU V0209999C00001004801CN0050001N1+02401+02401999999ADDGA1021+003301999GA2041+004801999GA3071+024001999GF107991999999999999999999MA1101801999999MW1611REMMET076METAR SBJU 291200Z 00000KT 5000 -RA FEW011 SCT016 BKN080 24/24 Q1018 RETSRA;
0176827840999992013032913004-07317-039300FM-15+0409SBJU V0209999C00001004801CN0050001N1+02501+02401999999ADDGA1021+003301999GA2041+004801999GA3071+024001999GF107991999999999999999999MA1101801999999MW1611REMMET069METAR SBJU 291300Z 00000KT 5000 -RA FEW011 SCT016 BKN080 25/24 Q1018;
0166827840999992013032914004-07317-039300FM-15+0409SBJU V0202101N00151006001CN0112651N1+02601+02501999999ADDGA1021+003301999GA2041+006001999GA3071+024001999GF107991999999999999999999MA1101691999999REMMET065METAR SBJU 291400Z 21003KT 9999 FEW011 SCT020 BKN080 26/25 Q1017;
0143827840999992013032915004-07317-039300FM-15+0409SBJU V0202601N001510240019N0112651N1+02701+02501999999ADDGA1041+004801999GA2071+024001999GF107991999999999999999999MA1101691999999REMMET058METAR SBJU 291500Z 26003KT 9999 SCT016 BKN080 27/25 Q1017;
0143827840999992013032916004-07317-039300FM-15+0409SBJU V0202201N001510240019N0112651N1+02901+02501999999ADDGA1041+006301999GA2081+024001999GF108991999999999999999999MA1101591999999REMMET058METAR SBJU 291600Z 22003KT 9999 SCT021 OVC080 29/25 Q1016;
0143827840999992013032917004-07317-039300FM-15+0409SBJU V0209999C000010210019N0112651N1+03001+02401999999ADDGA1041+006301999GA2081+021001999GF108991999999999999999999MA1101491999999REMMET058METAR SBJU 291700Z 00000KT 9999 SCT021 OVC070 30/24 Q1015;
0143827840999992013032918004-07317-039300FM-15+0409SBJU V0209999C000012200019N0112651N1+03101+02501999999ADDGA1041+006301999GA2041+024001999GF104991999999999999999999MA1101391999999REMMET058METAR SBJU 291800Z 00000KT 9999 SCT021 SCT080 31/25 Q1014;
0120827840999992013032919004-07317-039300FM-15+0409SBJU V0209999C000012200019N0112651N1+03101+02501999999ADDGA1041+006301999GF104991999999999999999999MA1101291999999REMMET051METAR SBJU 291900Z 00000KT 9999 SCT021 31/25 Q1013;
0120827840999992013032920004-07317-039300FM-15+0409SBJU V0209999C000012200019N0112651N1+03101+02501999999ADDGA1041+006301999GF104991999999999999999999MA1101291999999REMMET051METAR SBJU 292000Z 00000KT 9999 SCT021 31/25 Q1013;
0120827840999992013032921004-07317-039300FM-15+0409SBJU V0209999C000012200019N0112651N1+03001+02601999999ADDGA1021+006301999GF102991999999999999999999MA1101391999999REMMET051METAR SBJU 292100Z 00000KT 9999 FEW021 30/26 Q1014;
0120827840999992013032922004-07317-039300FM-15+0409SBJU V0202101N001512200019N0112651N1+02801+02601999999ADDGA1021+006301999GF102991999999999999999999MA1101491999999REMMET051METAR SBJU 292200Z 21003KT 9999 FEW021 28/26 Q1015;
0120827840999992013032923004-07317-039300FM-15+0409SBJU V0202501N001512200019N0112651N1+02801+02601999999ADDGA1021+006301999GF102991999999999999999999MA1101591999999REMMET051METAR SBJU 292300Z 25003KT 9999 FEW021 28/26 Q1016;
0120827840999992013033000004-07317-039300FM-15+0409SBJU V0201801N002112200019N0112651N1+02701+02501999999ADDGA1021+006301999GF102991999999999999999999MA1101591999999REMMET051METAR SBJU 300000Z 18004KT 9999 FEW021 27/25 Q1016;
0120827840999992013033001004-07317-039300FM-15+0409SBJU V0202601N001012200019N0112651N1+02701+02501999999ADDGA1021+006001999GF102991999999999999999999MA1101691999999REMMET051METAR SBJU 300100Z 26002KT 9999 FEW020 27/25 Q1017;
0120827840999992013033002004-07317-039300FM-15+0409SBJU V0202401N001012200019N0112651N1+02701+02501999999ADDGA1041+006001999GF104991999999999999999999MA1101591999999REMMET051METAR SBJU 300200Z 24002KT 9999 SCT020 27/25 Q1016;
0120827840999992013033003004-07317-039300FM-15+0409SBJU V0200601N001012200019N0112651N1+02701+02601999999ADDGA1041+006001999GF104991999999999999999999MA1101591999999REMMET051METAR SBJU 300300Z 06002KT 9999 SCT020 27/26 Q1016;
0120827840999992013033004004-07317-039300FM-15+0409SBJU V0209999C000012200019N0112651N1+02701+02601999999ADDGA1041+005401999GF104991999999999999999999MA1101691999999REMMET051METAR SBJU 300400Z 00000KT 9999 SCT018 27/26 Q1017;
0120827840999992013033005004-07317-039300FM-15+0409SBJU V0201701N002612200019N0112651N1+02701+02601999999ADDGA1041+005101999GF104991999999999999999999MA1101591999999REMMET051METAR SBJU 300500Z 17005KT 9999 SCT017 27/26 Q1016;
0152827840999992013033005044-07317-039300FM-15+0409SBJU V0201601N004110051019N0020001N1+02601+02501999999ADDGA1071+005101999GA2071+024001999GF107991999999999999999999MA1101591999999MW1631REMMET061SPECI SBJU 300504Z 16008KT 2000 RA BKN017 BKN080 26/25 Q1016;
0158827840999992013033005204-07317-039300FM-15+0409SBJU V0202301N004110240019N0080001N1+02601+02501999999ADDGA1041+005101999GA2071+024001999GF107991999999999999999999MA1101591999999MW1611REMMET067SPECI SBJU 300520Z 23008KT 8000 -RA SCT017 BKN080 26/25 Q1016 RERA;
0186827840999992013033005304-07317-039300FM-15+0409SBJU V0201901N00511006001CN0050001N1+02501+02401999999ADDGA1041+004801999GA2021+006001091GA3071+024001999GF107991999999999999999999MA1101591999999MW1801MW2951REMMET073SPECI SBJU 300530Z 19010KT 5000 -TSRA SCT016 FEW020CB BKN080 25/24 Q1016;
0185827840999992013033005354-07317-039300FM-15+0409SBJU V0202101N00571006001CN0020001N1+02501+02401999999ADDGA1041+004801999GA2021+006001091GA3071+024001999GF107991999999999999999999MA1101591999999MW1811MW2951REMMET072SPECI SBJU 300535Z 21011KT 2000 TSRA SCT016 FEW020CB BKN080 25/24 Q1016;
0185827840999992013033006004-07317-039300FM-15+0409SBJU V0203101N00101006001CN0018001N1+02501+02401999999ADDGA1041+004801999GA2021+006001091GA3071+024001999GF107991999999999999999999MA1101591999999MW1811MW2951REMMET072METAR SBJU 300600Z 31002KT 1800 TSRA SCT016 FEW020CB BKN080 25/24 Q1016;
0185827840999992013033006354-07317-039300FM-15+0409SBJU V0202201N00261006001CN0030001N1+02501+02401999999ADDGA1041+004801999GA2021+006001091GA3071+024001999GF107991999999999999999999MA1101591999999MW1811MW2951REMMET072SPECI SBJU 300635Z 22005KT 3000 TSRA SCT016 FEW020CB BKN080 25/24 Q1016;
0171827840999992013033006484-07317-039300FM-15+0409SBJU V0202401N00361006001CN0050001N1+02401+02401999999ADDGA1041+004801999GA2021+006001091GA3071+024001999GF107991999999999999999999MW1611REMMET079SPECI SBJU 300648Z 24007KT 5000 -RA SCT016 FEW020CB BKN080 24/24 Q101 7 RETSRA;
0186827840999992013033007004-07317-039300FM-15+0409SBJU V0202401N00151006001CN0050001N1+02401+02401999999ADDGA1041+003301999GA2021+006001091GA3071+024001999GF107991999999999999999999MA1101591999999MW1801MW2951REMMET073METAR SBJU 300700Z 24003KT 5000 -TSRA SCT011 FEW020CB BKN080 24/24 Q1016;
0185827840999992013033007304-07317-039300FM-15+0409SBJU V0201401N00311006001CN0020001N1+02401+02401999999ADDGA1041+004801999GA2021+006001091GA3071+024001999GF107991999999999999999999MA1101691999999MW1811MW2951REMMET072SPECI SBJU 300730Z 14006KT 2000 TSRA SCT016 FEW020CB BKN080 24/24 Q1017;
0186827840999992013033008004-07317-039300FM-15+0409SBJU V0201801N00151006001CN0040001N1+02401+02401999999ADDGA1041+004801999GA2021+006001091GA3071+024001999GF107991999999999999999999MA1101691999999MW1801MW2951REMMET073METAR SBJU 300800Z 18003KT 4000 -TSRA SCT016 FEW020CB BKN080 24/24 Q1017;
0191827840999992013033008154-07317-039300FM-15+0409SBJU V0201101N00151006001CN0060001N1+02401+02401999999ADDGA1041+004801999GA2021+006001091GA3071+024001999GF107991999999999999999999MA1101691999999MW1801MW2951REMMET078SPECI SBJU 300815Z 11003KT 6000 -TSRA SCT016 FEW020CB BKN080 24/24 Q1017 RERA;
0160827840999992013033008354-07317-039300FM-15+0409SBJU V0209999C000010048019N0050001N1+02401+02401999999ADDGA1071+004801999GA2071+024001999GF107991999999999999999999MA1101691999999MW1611REMMET069SPECI SBJU 300835Z 00000KT 5000 -RA BKN016 BKN080 24/24 Q1017 RETSRA;
0177827840999992013033009004-07317-039300FM-15+0409SBJU V0209999C000010045019N0050001N1+02401+02401999999ADDGA1021+003301999GA2071+004501999GA3071+024001999GF107991999999999999999999MW1101MW2611REMMET079METAR SBJU 300900Z 00000KT 5000 -RA BR FEW011 BKN015 BKN080 24/24 Q10 17RETSRA;
0166827840999992013033010004-07317-039300FM-15+0409SBJU V0202901N00151004501CN0112651N1+02401+02401999999ADDGA1021+003001999GA2041+004501999GA3071+021001999GF107991999999999999999999MA1101801999999REMMET065METAR SBJU 301000Z 29003KT 9999 FEW010 SCT015 BKN070 24/24 Q1018;
0166827840999992013033011004-07317-039300FM-15+0409SBJU V0209999C00001004501CN0112651N1+02601+02501999999ADDGA1021+003001999GA2041+004501999GA3071+021001999GF107991999999999999999999MA1101801999999REMMET065METAR SBJU 301100Z 00000KT 9999 FEW010 SCT015 BKN070 26/25 Q1018;
0143827840999992013033012004-07317-039300FM-15+0409SBJU V0209999C000010045019N0112651N1+02701+02501999999ADDGA1071+004501999GA2081+021001999GF108991999999999999999999MA1101901999999REMMET058METAR SBJU 301200Z 00000KT 9999 BKN015 OVC070 27/25 Q1019;
0120827840999992013033013004-07317-039300FM-15+0409SBJU V0202901N001510060019N0112651N1+02901+02501999999ADDGA1071+006001999GF107991999999999999999999MA1101901999999REMMET051METAR SBJU 301300Z 29003KT 9999 BKN020 29/25 Q1019;
0120827840999992013033014004-07317-039300FM-15+0409SBJU V0202001N001010060019N0112651N1+03001+02401999999ADDGA1071+006001999GF107991999999999999999999MA1101801999999REMMET051METAR SBJU 301400Z 20002KT 9999 BKN020 30/24 Q1018;
0120827840999992013033015004-07317-039300FM-15+0409SBJU V0201001N003110060019N0112651N1+03101+02401999999ADDGA1071+006001999GF107991999999999999999999MA1101691999999REMMET051METAR SBJU 301500Z 10006KT 9999 BKN020 31/24 Q1017;
0120827840999992013033016004-07317-039300FM-15+0409SBJU V0200801N002610060019N0112651N1+03201+02401999999ADDGA1071+006001999GF107991999999999999999999MA1101591999999REMMET051METAR SBJU 301600Z 08005KT 9999 BKN020 32/24 Q1016;
0120827840999992013033017004-07317-039300FM-15+0409SBJU V0200901N003110063019N0112651N1+03201+02201999999ADDGA1071+006301999GF107991999999999999999999MA1101491999999REMMET051METAR SBJU 301700Z 09006KT 9999 BKN021 32/22 Q1015;
0120827840999992013033018004-07317-039300FM-15+0409SBJU V0201201N002612200019N0112651N1+03301+02301999999ADDGA1041+006901999GF104991999999999999999999MA1101491999999REMMET051METAR SBJU 301800Z 12005KT 9999 SCT023 33/23 Q1015;
0120827840999992013033019004-07317-039300FM-15+0409SBJU V0201101N002612200019N0112651N1+03301+02201999999ADDGA1041+006901999GF104991999999999999999999MA1101391999999REMMET051METAR SBJU 301900Z 11005KT 9999 SCT023 33/22 Q1014;
0120827840999992013033020004-07317-039300FM-15+0409SBJU V0201001N001512200019N0112651N1+03301+02301999999ADDGA1021+006901999GF102991999999999999999999MA1101391999999REMMET051METAR SBJU 302000Z 10003KT 9999 FEW023 33/23 Q1014;
0120827840999992013033021004-07317-039300FM-15+0409SBJU V0209999C000012200019N0112651N1+03101+02301999999ADDGA1021+006001999GF102991999999999999999999MA1101491999999REMMET051METAR SBJU 302100Z 00000KT 9999 FEW020 31/23 Q1015;
0072827840999992013033022004-07317-039300FM-15+0409SBJU V0209999C000019999999Y0099001N1+03001+02401999999ADDMA1101491999999REMMET045METAR SBJU 302200Z 00000KT CAVOK 30/24 Q1015;
0120827840999992013033023004-07317-039300FM-15+0409SBJU V0209999C000012200019N0112651N1+02901+02501999999ADDGA1021+006001999GF102991999999999999999999MA1101591999999REMMET051METAR SBJU 302300Z 00000KT 9999 FEW020 29/25 Q1016;
0120827840999992013033100004-07317-039300FM-15+0409SBJU V0209999C000012200019N0112651N1+02801+02501999999ADDGA1021+006001999GF102991999999999999999999MA1101691999999REMMET051METAR SBJU 310000Z 00000KT 9999 FEW020 28/25 Q1017;
0120827840999992013033101004-07317-039300FM-15+0409SBJU V0209999C000012200019N0112651N1+02701+02401999999ADDGA1021+006001999GF102991999999999999999999MA1101691999999REMMET051METAR SBJU 310100Z 00000KT 9999 FEW020 27/24 Q1017;
0146827840999992013033102004-07317-039300FM-15+0409SBJU V0202401N002612200019N0112651N1+02601+02401999999ADDGA1021+006001999GA2021+006601021GF102991999999999999999999MA1101691999999REMMET061METAR SBJU 310200Z 24005KT 9999 FEW020 FEW022TCU 26/24 Q1017;
0120827840999992013033103004-07317-039300FM-15+0409SBJU V0200601N001512200019N0112651N1+02601+02401999999ADDGA1021+006001999GF102991999999999999999999MA1101691999999REMMET051METAR SBJU 310300Z 06003KT 9999 FEW020 26/24 Q1017;
0120827840999992013033104004-07317-039300FM-15+0409SBJU V0202301N001510045019N0112651N1+02601+02401999999ADDGA1071+004501999GF107991999999999999999999MA1101691999999REMMET051METAR SBJU 310400Z 23003KT 9999 BKN015 26/24 Q1017;
0120827840999992013033105004-07317-039300FM-15+0409SBJU V0200601N002610045019N0112651N1+02601+02401999999ADDGA1071+004501999GF107991999999999999999999MA1101801999999REMMET051METAR SBJU 310500Z 06005KT 9999 BKN015 26/24 Q1018;
0120827840999992013033106004-07317-039300FM-15+0409SBJU V0209999C000012200019N0112651N1+02701+02301999999ADDGA1041+006001999GF104991999999999999999999MA1101691999999REMMET051METAR SBJU 310600Z 00000KT 9999 SCT020 27/23 Q1017;
0120827840999992013033107004-07317-039300FM-15+0409SBJU V0209999C000012200019N0112651N1+02601+02201999999ADDGA1041+006001999GF104991999999999999999999MA1101801999999REMMET051METAR SBJU 310700Z 00000KT 9999 SCT020 26/22 Q1018;
0120827840999992013033108004-07317-039300FM-15+0409SBJU V0202301N001012200019N0112651N1+02501+02101999999ADDGA1041+006001999GF104991999999999999999999MA1101801999999REMMET051METAR SBJU 310800Z 23002KT 9999 SCT020 25/21 Q1018;
0120827840999992013033109004-07317-039300FM-15+0409SBJU V0202401N002112200019N0112651N1+02401+02001999999ADDGA1021+006001999GF102991999999999999999999MA1101801999999REMMET051METAR SBJU 310900Z 24004KT 9999 FEW020 24/20 Q1018;
0120827840999992013033110004-07317-039300FM-15+0409SBJU V0209999C000012200019N0112651N1+02601+02101999999ADDGA1021+006001999GF102991999999999999999999MA1101901999999REMMET051METAR SBJU 311000Z 00000KT 9999 FEW020 26/21 Q1019;
0072827840999992013033111004-07317-039300FM-15+0409SBJU V0202001N001019999999Y0099001N1+02801+02101999999ADDMA1101901999999REMMET045METAR SBJU 311100Z 20002KT CAVOK 28/21 Q1019;
0072827840999992013033112004-07317-039300FM-15+0409SBJU V0200901N002119999999Y0099001N1+02901+02001999999ADDMA1101901999999REMMET045METAR SBJU 311200Z 09004KT CAVOK 29/20 Q1019;
0072827840999992013033113004-07317-039300FM-15+0409SBJU V0201101N001519999999Y0099001N1+03001+02101999999ADDMA1101901999999REMMET045METAR SBJU 311300Z 11003KT CAVOK 30/21 Q1019;
0072827840999992013033114004-07317-039300FM-15+0409SBJU V0201701N004619999999Y0099001N1+03101+02001999999ADDMA1101901999999REMMET045METAR SBJU 311400Z 17009KT CAVOK 31/20 Q1019;
0072827840999992013033115004-07317-039300FM-15+0409SBJU V0201301N002619999999Y0099001N1+03201+01901999999ADDMA1101801999999REMMET045METAR SBJU 311500Z 13005KT CAVOK 32/19 Q1018;
0120827840999992013033116004-07317-039300FM-15+0409SBJU V0201101N003112200019N0112651N1+03301+02001999999ADDGA1021+006001999GF102991999999999999999999MA1101691999999REMMET051METAR SBJU 311600Z 11006KT 9999 FEW020 33/20 Q1017;
0120827840999992013033117004-07317-039300FM-15+0409SBJU V0200801N003112200019N0112651N1+03301+02101999999ADDGA1021+006001999GF102991999999999999999999MA1101591999999REMMET051METAR SBJU 311700Z 08006KT 9999 FEW020 33/21 Q1016;
0120827840999992013033118004-07317-039300FM-15+0409SBJU V0200801N002612200019N0112651N1+03301+02001999999ADDGA1021+006901999GF102991999999999999999999MA1101491999999REMMET051METAR SBJU 311800Z 08005KT 9999 FEW023 33/20 Q1015;
0120827840999992013033119004-07317-039300FM-15+0409SBJU V0200701N003112200019N0112651N1+03301+02001999999ADDGA1021+006001999GF102991999999999999999999MA1101491999999REMMET051METAR SBJU 311900Z 07006KT 9999 FEW020 33/20 Q1015;
0120827840999992013033120004-07317-039300FM-15+0409SBJU V0200401N001512200019N0112651N1+03301+02101999999ADDGA1021+006901999GF102991999999999999999999MA1101491999999REMMET051METAR SBJU 312000Z 04003KT 9999 FEW023 33/21 Q1015;
0072827840999992013033121004-07317-039300FM-15+0409SBJU V0209999C000019999999Y0099001N1+03101+02201999999ADDMA1101491999999REMMET045METAR SBJU 312100Z 00000KT CAVOK 31/22 Q1015;
0120827840999992013033122004-07317-039300FM-15+0409SBJU V0202601N001512200019N0112651N1+03001+02201999999ADDGA1041+006901999GF104991999999999999999999MA1101591999999REMMET051METAR SBJU 312200Z 26003KT 9999 SCT023 30/22 Q1016;
0120827840999992013033123004-07317-039300FM-15+0409SBJU V0202401N001512200019N0112651N1+02801+02301999999ADDGA1041+006901999GF104991999999999999999999MA1101591999999REMMET051METAR SBJU 312300Z 24003KT 9999 SCT023 28/23 Q1016;
0120827840999992013040100004-07317-039300FM-15+0409SBJU V0209999C000012200019N0112651N1+02701+02301999999ADDGA1041+006901999GF104991999999999999999999MA1101691999999REMMET051METAR SBJU 010000Z 00000KT 9999 SCT023 27/23 Q1017;
0120827840999992013040101004-07317-039300FM-15+0409SBJU V0200401N001012200019N0112651N1+02601+02401999999ADDGA1041+006001999GF104991999999999999999999MA1101801999999REMMET051METAR SBJU 010100Z 04002KT 9999 SCT020 26/24 Q1018;
0120827840999992013040102004-07317-039300FM-15+0409SBJU V0202501N002112200019N0112651N1+02501+02301999999ADDGA1041+006001999GF104991999999999999999999MA1101691999999REMMET051METAR SBJU 010200Z 25004KT 9999 SCT020 25/23 Q1017;
0120827840999992013040103004-07317-039300FM-15+0409SBJU V0200501N001012200019N0112651N1+02501+02301999999ADDGA1041+006001999GF104991999999999999999999MA1101801999999REMMET051METAR SBJU 010300Z 05002KT 9999 SCT020 25/23 Q1018;
0120827840999992013040104004-07317-039300FM-15+0409SBJU V0201701N000512200019N0112651N1+02401+02301999999ADDGA1041+006001999GF104991999999999999999999MA1101691999999REMMET051METAR SBJU 010400Z 17001KT 9999 SCT020 24/23 Q1017;
0120827840999992013040105004-07317-039300FM-15+0409SBJU V0200701N001012200019N0112651N1+02401+02301999999ADDGA1041+006001999GF104991999999999999999999MA1101801999999REMMET051METAR SBJU 010500Z 07002KT 9999 SCT020 24/23 Q1018;
0120827840999992013040106004-07317-039300FM-15+0409SBJU V0201801N001012200019N0112651N1+02501+02301999999ADDGA1041+006001999GF104991999999999999999999MA1101801999999REMMET051METAR SBJU 010600Z 18002KT 9999 SCT020 25/23 Q1018;
0120827840999992013040107004-07317-039300FM-15+0409SBJU V0209999C000010060019N0112651N1+02401+02301999999ADDGA1071+006001999GF107991999999999999999999MA1101801999999REMMET051METAR SBJU 010700Z 00000KT 9999 BKN020 24/23 Q1018;
0120827840999992013040108004-07317-039300FM-15+0409SBJU V0209999C000010060019N0112651N1+02401+02301999999ADDGA1071+006001999GF107991999999999999999999MA1101801999999REMMET051METAR SBJU 010800Z 00000KT 9999 BKN020 24/23 Q1018;
0120827840999992013040109004-07317-039300FM-15+0409SBJU V0209999C000012200019N0112651N1+02401+02201999999ADDGA1021+006001999GF102991999999999999999999MA1101801999999REMMET051METAR SBJU 010900Z 00000KT 9999 FEW020 24/22 Q1018;
0120827840999992013040110004-07317-039300FM-15+0409SBJU V0209999C000012200019N0112651N1+02701+02301999999ADDGA1021+006001999GF102991999999999999999999MA1101901999999REMMET051METAR SBJU 011000Z 00000KT 9999 FEW020 27/23 Q1019;
0120827840999992013040111004-07317-039300FM-15+0409SBJU V0201001N001512200019N0112651N1+02601+02401999999ADDGA1041+006001999GF104991999999999999999999MA1101901999999REMMET051METAR SBJU 011100Z 10003KT 9999 SCT020 26/24 Q1019;
0120827840999992013040112004-07317-039300FM-15+0409SBJU V0201301N002110060019N0112651N1+02801+02001999999ADDGA1071+006001999GF107991999999999999999999MA1102001999999REMMET051METAR SBJU 011200Z 13004KT 9999 BKN020 28/20 Q1020;
0120827840999992013040113004-07317-039300FM-15+0409SBJU V0201101N002112200019N0112651N1+02901+01901999999ADDGA1041+006001999GF104991999999999999999999MA1101901999999REMMET051METAR SBJU 011300Z 11004KT 9999 SCT020 29/19 Q1019;
0120827840999992013040114004-07317-039300FM-15+0409SBJU V0200801N002112200019N0112651N1+03001+01801999999ADDGA1021+006001999GF102991999999999999999999MA1101901999999REMMET051METAR SBJU 011400Z 08004KT 9999 FEW020 30/18 Q1019;
0120827840999992013040115004-07317-039300FM-15+0409SBJU V0200801N001512200019N0112651N1+03101+01901999999ADDGA1021+006001999GF102991999999999999999999MA1101801999999REMMET051METAR SBJU 011500Z 08003KT 9999 FEW020 31/19 Q1018;
0120827840999992013040116004-07317-039300FM-15+0409SBJU V0201301N003112200019N0112651N1+03201+01901999999ADDGA1021+006301999GF102991999999999999999999MA1101591999999REMMET051METAR SBJU 011600Z 13006KT 9999 FEW021 32/19 Q1016;
0120827840999992013040117004-07317-039300FM-15+0409SBJU V0200801N002112200019N0112651N1+03301+01901999999ADDGA1021+006301999GF102991999999999999999999MA1101491999999REMMET051METAR SBJU 011700Z 08004KT 9999 FEW021 33/19 Q1015;
0120827840999992013040118004-07317-039300FM-15+0409SBJU V0200901N003112200019N0112651N1+03301+01801999999ADDGA1021+006301999GF102991999999999999999999MA1101491999999REMMET051METAR SBJU 011800Z 09006KT 9999 FEW021 33/18 Q1015;
0120827840999992013040119004-07317-039300FM-15+0409SBJU V0200801N001512200019N0112651N1+03301+01701999999ADDGA1021+006301999GF102991999999999999999999MA1101491999999REMMET051METAR SBJU 011900Z 08003KT 9999 FEW021 33/17 Q1015;
0120827840999992013040120004-07317-039300FM-15+0409SBJU V0200501N001012200019N0112651N1+03301+01901999999ADDGA1021+006301999GF102991999999999999999999MA1101491999999REMMET051METAR SBJU 012000Z 05002KT 9999 FEW021 33/19 Q1015;
0120827840999992013040121004-07317-039300FM-15+0409SBJU V0209999C000012200019N0112651N1+03101+02101999999ADDGA1021+006301999GF102991999999999999999999MA1101491999999REMMET051METAR SBJU 012100Z 00000KT 9999 FEW021 31/21 Q1015;
0120827840999992013040122004-07317-039300FM-15+0409SBJU V0209999C000012200019N0112651N1+03001+02101999999ADDGA1021+006001999GF102991999999999999999999MA1101491999999REMMET051METAR SBJU 012200Z 00000KT 9999 FEW020 30/21 Q1015;
0120827840999992013040123004-07317-039300FM-15+0409SBJU V0201501N002112200019N0112651N1+02701+02201999999ADDGA1021+006001999GF102991999999999999999999MA1101591999999REMMET051METAR SBJU 012300Z 15004KT 9999 FEW020 27/22 Q1016;
0120827840999992013040202004-07317-039300FM-15+0409SBJU V0209999C000012200019N0112651N1+02401+02301999999ADDGA1041+006001999GF104991999999999999999999MA1101591999999REMMET051METAR SBJU 020200Z 00000KT 9999 SCT020 24/23 Q1016;
0120827840999992013040203004-07317-039300FM-15+0409SBJU V0209999C000012200019N0112651N1+02501+02201999999ADDGA1041+006001999GF104991999999999999999999MA1101591999999REMMET051METAR SBJU 020300Z 00000KT 9999 SCT020 25/22 Q1016;
0120827840999992013040204004-07317-039300FM-15+0409SBJU V0200501N002112200019N0112651N1+02501+02301999999ADDGA1041+006001999GF104991999999999999999999MA1101591999999REMMET051METAR SBJU 020400Z 05004KT 9999 SCT020 25/23 Q1016;
0120827840999992013040205004-07317-039300FM-15+0409SBJU V0202001N001512200019N0112651N1+02501+02201999999ADDGA1021+006001999GF102991999999999999999999MA1101591999999REMMET051METAR SBJU 020500Z 20003KT 9999 FEW020 25/22 Q1016;
0120827840999992013040206004-07317-039300FM-15+0409SBJU V0202101N002112200019N0112651N1+02401+02201999999ADDGA1041+006001999GF104991999999999999999999MA1101591999999REMMET051METAR SBJU 020600Z 21004KT 9999 SCT020 24/22 Q1016;
0153827840999992013040207004-07317-039300FM-15+0409SBJU V0209999C000010054019N0090001N1+02401+02201999999ADDGA1041+003301999GA2071+005401999GF107991999999999999999999MA1101591999999MW1511REMMET062METAR SBJU 020700Z 00000KT 9000 -DZ SCT011 BKN018 24/22 Q1016;
0153827840999992013040208004-07317-039300FM-15+0409SBJU V0202301N001510054019N0080001N1+02401+02301999999ADDGA1041+003301999GA2071+005401999GF107991999999999999999999MA1101691999999MW1511REMMET062METAR SBJU 020800Z 23003KT 8000 -DZ SCT011 BKN018 24/23 Q1017;
0153827840999992013040209004-07317-039300FM-15+0409SBJU V0209999C000010054019N0070001N1+02401+02301999999ADDGA1021+003301999GA2071+005401999GF107991999999999999999999MA1101691999999MW1611REMMET062METAR SBJU 020900Z 00000KT 7000 -RA FEW011 BKN018 24/23 Q1017;
0120827840999992013040210004-07317-039300FM-15+0409SBJU V0201401N001510057019N0112651N1+02501+02301999999ADDGA1071+005701999GF107991999999999999999999MA1101801999999REMMET051METAR SBJU 021000Z 14003KT 9999 BKN019 25/23 Q1018;
0120827840999992013040211004-07317-039300FM-15+0409SBJU V0200601N001010060019N0112651N1+02601+02401999999ADDGA1071+006001999GF107991999999999999999999MA1101801999999REMMET051METAR SBJU 021100Z 06002KT 9999 BKN020 26/24 Q1018;
0120827840999992013040212004-07317-039300FM-15+0409SBJU V0209999C000010063019N0112651N1+02901+02501999999ADDGA1071+006301999GF107991999999999999999999MA1101801999999REMMET051METAR SBJU 021200Z 00000KT 9999 BKN021 29/25 Q1018;
0120827840999992013040213004-07317-039300FM-15+0409SBJU V0201301N002610063019N0112651N1+02901+02401999999ADDGA1071+006301999GF107991999999999999999999MA1101801999999REMMET051METAR SBJU 021300Z 13005KT 9999 BKN021 29/24 Q1018;
0120827840999992013040214004-07317-039300FM-15+0409SBJU V0200901N003612200019N0112651N1+03101+02401999999ADDGA1041+006301999GF104991999999999999999999MA1101691999999REMMET051METAR SBJU 021400Z 09007KT 9999 SCT021 31/24 Q1017;
0120827840999992013040215004-07317-039300FM-15+0409SBJU V0200901N003112200019N0112651N1+03201+02401999999ADDGA1041+006301999GF104991999999999999999999MA1101591999999REMMET051METAR SBJU 021500Z 09006KT 9999 SCT021 32/24 Q1016;
0120827840999992013040216004-07317-039300FM-15+0409SBJU V0201401N003112200019N0112651N1+03201+02301999999ADDGA1041+006301999GF104991999999999999999999MA1101491999999REMMET051METAR SBJU 021600Z 14006KT 9999 SCT021 32/23 Q1015;
0120827840999992013040217004-07317-039300FM-15+0409SBJU V0200801N004112200019N0112651N1+03301+02201999999ADDGA1041+006301999GF104991999999999999999999MA1101391999999REMMET051METAR SBJU 021700Z 08008KT 9999 SCT021 33/22 Q1014;
0120827840999992013040218004-07317-039300FM-15+0409SBJU V0200801N002612200019N0112651N1+03301+02101999999ADDGA1021+006301999GF102991999999999999999999MA1101391999999REMMET051METAR SBJU 021800Z 08005KT 9999 FEW021 33/21 Q1014;
0120827840999992013040219004-07317-039300FM-15+0409SBJU V0201001N001012200019N0112651N1+03401+02101999999ADDGA1021+006301999GF102991999999999999999999MA1101391999999REMMET051METAR SBJU 021900Z 10002KT 9999 FEW021 34/21 Q1014;
0121827840999992013040220004-07317-039300FM-15+0409SBJU V02099999999992200019N0112651N1+03301+02201999999ADDGA1021+006301999GF102991999999999999999999MA1101401999999REMMET052METAR SBJU 022000Z 06003KT/ 9999 FEW021 33/22 Q1014;
0120827840999992013040221004-07317-039300FM-15+0409SBJU V0200501N001512200019N0112651N1+03101+02301999999ADDGA1021+006301999GF102991999999999999999999MA1101391999999REMMET051METAR SBJU 022100Z 05003KT 9999 FEW021 31/23 Q1014;
0120827840999992013040222004-07317-039300FM-15+0409SBJU V0209999C000012200019N0112651N1+03001+02301999999ADDGA1021+006301999GF102991999999999999999999MA1101491999999REMMET051METAR SBJU 022200Z 00000KT 9999 FEW021 30/23 Q1015;
0120827840999992013040223004-07317-039300FM-15+0409SBJU V0202401N002112200019N0112651N1+02901+02401999999ADDGA1021+006301999GF102991999999999999999999MA1101491999999REMMET051METAR SBJU 022300Z 24004KT 9999 FEW021 29/24 Q1015;
0120827840999992013040300004-07317-039300FM-15+0409SBJU V0209999C000012200019N0112651N1+02801+02401999999ADDGA1021+006301999GF102991999999999999999999MA1101591999999REMMET051METAR SBJU 030000Z 00000KT 9999 FEW021 28/24 Q1016;
0120827840999992013040301004-07317-039300FM-15+0409SBJU V0202401N001512200019N0112651N1+02701+02401999999ADDGA1041+006001999GF104991999999999999999999MA1101591999999REMMET051METAR SBJU 030100Z 24003KT 9999 SCT020 27/24 Q1016;
0120827840999992013040302004-07317-039300FM-15+0409SBJU V0202801N001510063019N0112651N1+02701+02301999999ADDGA1071+006301999GF107991999999999999999999MA1101591999999REMMET051METAR SBJU 030200Z 28003KT 9999 BKN021 27/23 Q1016;
0120827840999992013040303004-07317-039300FM-15+0409SBJU V0201001N003110060019N0112651N1+02701+02301999999ADDGA1071+006001999GF107991999999999999999999MA1101691999999REMMET051METAR SBJU 030300Z 10006KT 9999 BKN020 27/23 Q1017;
0120827840999992013040304004-07317-039300FM-15+0409SBJU V0201001N002110060019N0112651N1+02701+02201999999ADDGA1071+006001999GF107991999999999999999999MA1101591999999REMMET051METAR SBJU 030400Z 10004KT 9999 BKN020 27/22 Q1016;
0120827840999992013040305004-07317-039300FM-15+0409SBJU V0200501N001010060019N0112651N1+02601+02301999999ADDGA1071+006001999GF107991999999999999999999MA1101591999999REMMET051METAR SBJU 030500Z 05002KT 9999 BKN020 26/23 Q1016;
0120827840999992013040306004-07317-039300FM-15+0409SBJU V0200601N001510060019N0112651N1+02601+02301999999ADDGA1071+006001999GF107991999999999999999999MA1101591999999REMMET051METAR SBJU 030600Z 06003KT 9999 BKN020 26/23 Q1016;
0120827840999992013040307004-07317-039300FM-15+0409SBJU V0200101N001510060019N0112651N1+02601+02301999999ADDGA1071+006001999GF107991999999999999999999MA1101591999999REMMET051METAR SBJU 030700Z 01003KT 9999 BKN020 26/23 Q1016;
0153827840999992013040308004-07317-039300FM-15+0409SBJU V0201401N004610054019N0090001N1+02501+02301999999ADDGA1021+003001999GA2071+005401999GF107991999999999999999999MA1101691999999MW1611REMMET062METAR SBJU 030800Z 14009KT 9000 -RA FEW010 BKN018 25/23 Q1017;
0153827840999992013040309004-07317-039300FM-15+0409SBJU V0201801N001010054019N0060001N1+02401+02401999999ADDGA1041+003001999GA2071+005401999GF107991999999999999999999MA1101691999999MW1611REMMET062METAR SBJU 030900Z 18002KT 6000 -RA SCT010 BKN018 24/24 Q1017;
0152827840999992013040309204-07317-039300FM-15+0409SBJU V0209999C000010030019N0050001N1+02401+02401999999ADDGA1071+003001999GA2071+005401999GF107991999999999999999999MA1101691999999MW1101REMMET061SPECI SBJU 030920Z 00000KT 5000 BR BKN010 BKN018 24/24 Q1017;
0152827840999992013040310004-07317-039300FM-15+0409SBJU V0209999C000010048019N0050001N1+02501+02401999999ADDGA1041+003001999GA2071+004801999GF107991999999999999999999MA1101801999999MW1101REMMET061METAR SBJU 031000Z 00000KT 5000 BR SCT010 BKN016 25/24 Q1018;
0152827840999992013040311004-07317-039300FM-15+0409SBJU V0209999C000010045019N0050001N1+02601+02401999999ADDGA1041+003001999GA2071+004501999GF107991999999999999999999MA1101801999999MW1101REMMET061METAR SBJU 031100Z 00000KT 5000 BR SCT010 BKN015 26/24 Q1018;
0143827840999992013040312004-07317-039300FM-15+0409SBJU V0209999C000010048019N0112651N1+02701+02401999999ADDGA1041+003001999GA2071+004801999GF107991999999999999999999MA1101901999999REMMET058METAR SBJU 031200Z 00000KT 9999 SCT010 BKN016 27/24 Q1019;
0120827840999992013040313004-07317-039300FM-15+0409SBJU V0209999C000010051019N0112651N1+02801+02401999999ADDGA1071+005101999GF107991999999999999999999MA1101801999999REMMET051METAR SBJU 031300Z 00000KT 9999 BKN017 28/24 Q1018;
0120827840999992013040314004-07317-039300FM-15+0409SBJU V0209999C000010051019N0112651N1+02901+02401999999ADDGA1071+005101999GF107991999999999999999999MA1101801999999REMMET051METAR SBJU 031400Z 00000KT 9999 BKN017 29/24 Q1018;
0120827840999992013040315004-07317-039300FM-15+0409SBJU V0209999C000012200019N0112651N1+03101+02401999999ADDGA1041+006001999GF104991999999999999999999MA1101591999999REMMET051METAR SBJU 031500Z 00000KT 9999 SCT020 31/24 Q1016;
0120827840999992013040316004-07317-039300FM-15+0409SBJU V0201701N001512200019N0112651N1+03201+02301999999ADDGA1041+006301999GF104991999999999999999999MA1101491999999REMMET051METAR SBJU 031600Z 17003KT 9999 SCT021 32/23 Q1015;
0120827840999992013040317004-07317-039300FM-15+0409SBJU V0201101N003610063019N0112651N1+03201+02301999999ADDGA1071+006301999GF107991999999999999999999MA1101391999999REMMET051METAR SBJU 031700Z 11007KT 9999 BKN021 32/23 Q1014;
0120827840999992013040318004-07317-039300FM-15+0409SBJU V0201601N002612200019N0112651N1+03301+02301999999ADDGA1041+006301999GF104991999999999999999999MA1101391999999REMMET051METAR SBJU 031800Z 16005KT 9999 SCT021 33/23 Q1014;
0120827840999992013040319004-07317-039300FM-15+0409SBJU V0200801N002112200019N0112651N1+03301+02301999999ADDGA1041+006301999GF104991999999999999999999MA1101391999999REMMET051METAR SBJU 031900Z 08004KT 9999 SCT021 33/23 Q1014;
0120827840999992013040320004-07317-039300FM-15+0409SBJU V0200601N001512200019N0112651N1+03201+02301999999ADDGA1021+006601999GF102991999999999999999999MA1101391999999REMMET051METAR SBJU 032000Z 06003KT 9999 FEW022 32/23 Q1014;
0120827840999992013040321004-07317-039300FM-15+0409SBJU V0209999C000012200019N0112651N1+03101+02401999999ADDGA1021+006601999GF102991999999999999999999MA1101391999999REMMET051METAR SBJU 032100Z 00000KT 9999 FEW022 31/24 Q1014;
0120827840999992013040322004-07317-039300FM-15+0409SBJU V0209999C000012200019N0112651N1+03001+02501999999ADDGA1021+006001999GF102991999999999999999999MA1101391999999REMMET051METAR SBJU 032200Z 00000KT 9999 FEW020 30/25 Q1014;
0120827840999992013040323004-07317-039300FM-15+0409SBJU V0202401N001012200019N0112651N1+02801+02501999999ADDGA1021+006001999GF102991999999999999999999MA1101391999999REMMET051METAR SBJU 032300Z 24002KT 9999 FEW020 28/25 Q1014;
0120827840999992013040400004-07317-039300FM-15+0409SBJU V0209999C000012200019N0112651N1+02701+02501999999ADDGA1021+006001999GF102991999999999999999999MA1101491999999REMMET051METAR SBJU 040000Z 00000KT 9999 FEW020 27/25 Q1015;
0120827840999992013040401004-07317-039300FM-15+0409SBJU V0202501N001012200019N0112651N1+02701+02501999999ADDGA1021+006001999GF102991999999999999999999MA1101491999999REMMET051METAR SBJU 040100Z 25002KT 9999 FEW020 27/25 Q1015;
0072827840999992013040402004-07317-039300FM-15+0409SBJU V0209999C000019999999Y0099001N1+02701+02401999999ADDMA1101491999999REMMET045METAR SBJU 040200Z 00000KT CAVOK 27/24 Q1015;
0072827840999992013040403004-07317-039300FM-15+0409SBJU V0209999C000019999999Y0099001N1+02701+02401999999ADDMA1101491999999REMMET045METAR SBJU 040300Z 00000KT CAVOK 27/24 Q1015;
0120827840999992013040404004-07317-039300FM-15+0409SBJU V0200701N002612200019N0112651N1+02601+02501999999ADDGA1041+006001999GF104991999999999999999999MA1101491999999REMMET051METAR SBJU 040400Z 07005KT 9999 SCT020 26/25 Q1015;
0120827840999992013040405004-07317-039300FM-15+0409SBJU V0200901N002112200019N0112651N1+02701+02501999999ADDGA1041+005401999GF104991999999999999999999MA1101491999999REMMET051METAR SBJU 040500Z 09004KT 9999 SCT018 27/25 Q1015;
0130827840999992013040406004-07317-039300FM-15+0409SBJU V0201201N004612200019N0080001N1+02601+02401999999ADDGA1041+005401999GF104991999999999999999999MA1101491999999MW1611REMMET055METAR SBJU 040600Z 12009KT 8000 -RA SCT018 26/24 Q1015;
0186827840999992013040406154-07317-039300FM-15+0409SBJU V0201201N00311006001CN0070001N1+02401+02301999999ADDGA1041+005101999GA2021+006001091GA3071+024001999GF107991999999999999999999MA1101491999999MW1801MW2951REMMET073SPECI SBJU 040615Z 12006KT 7000 -TSRA SCT017 FEW020CB BKN080 24/23 Q1015;
0158827840999992013040407004-07317-039300FM-15+0409SBJU V0201201N002110240019N0090001N1+02401+02401999999ADDGA1041+004801999GA2071+024001999GF107991999999999999999999MA1101591999999MW1611REMMET067METAR SBJU 040700Z 12004KT 9000 -RA SCT016 BKN080 24/24 Q1016 RETS;
0143827840999992013040408004-07317-039300FM-15+0409SBJU V0209999C000010240019N0112651N1+02401+02301999999ADDGA1041+004801999GA2071+024001999GF107991999999999999999999MA1101591999999REMMET058METAR SBJU 040800Z 00000KT 9999 SCT016 BKN080 24/23 Q1016;
0175827840999992013040409004-07317-039300FM-15+0409SBJU V0201801N001510045019N0050001N1+02401+02401999999ADDGA1041+003301999GA2071+004501999GA3071+024001999GF107991999999999999999999MA1101691999999MW1101REMMET068METAR SBJU 040900Z 18003KT 5000 BR SCT011 BKN015 BKN080 24/24 Q1017;
0176827840999992013040410004-07317-039300FM-15+0409SBJU V0202001N002110045019N0030001N1+02401+02401999999ADDGA1041+003001999GA2071+004501999GA3071+021001999GF107991999999999999999999MA1101801999999MW1611REMMET069METAR SBJU 041000Z 20004KT 3000 -RA SCT010 BKN015 BKN070 24/24 Q1018;
0185827840999992013040411004-07317-039300FM-15+0409SBJU V0201601N00311004501CN0030001N1+02401+02401999999ADDGA1041+003001999GA2041+004501999GA3081+021001999GF108991999999999999999999MA1101801999999MW1101MW2611REMMET072METAR SBJU 041100Z 16006KT 3000 -RA BR SCT010 SCT015 OVC070 24/24 Q1018;
0184827840999992013040412004-07317-039300FM-15+0409SBJU V0200701N00211004501CN0020001N1+02401+02301999999ADDGA1041+003001999GA2041+004501999GA3081+021001999GF108991999999999999999999MA1101901999999MW1101MW2631REMMET071METAR SBJU 041200Z 07004KT 2000 RA BR SCT010 SCT015 OVC070 24/23 Q1019;
0170827840999992013040413004-07317-039300FM-15+0409SBJU V0201301N00151004501CN0020001N1+02401+02401999999ADDGA1041+003001999GA2041+004501999GA3081+021001999GF108991999999999999999999MW1101MW2631REMMET072METAR SBJU 041300Z 13003KT 2000 RA BR SCT010 SCT015 OVC070 24/24 Q101 9;
0190827840999992013040414004-07317-039300FM-15+0409SBJU V0202001N00211004501CN0050001N1+02601+02401999999ADDGA1021+003001999GA2041+004501999GA3081+021001999GF108991999999999999999999MA1101801999999MW1101MW2611REMMET077METAR SBJU 041400Z 20004KT 5000 -RA BR FEW010 SCT015 OVC070 26/24 Q1018 RERA;
0166827840999992013040415004-07317-039300FM-15+0409SBJU V0203501N00211005401CN0112651N1+02701+02501999999ADDGA1021+003001999GA2041+005401999GA3081+021001999GF108991999999999999999999MA1101691999999REMMET065METAR SBJU 041500Z 35004KT 9999 FEW010 SCT018 OVC070 27/25 Q1017;
0143827840999992013040416004-07317-039300FM-15+0409SBJU V0200601N001510210019N0112651N1+02701+02401999999ADDGA1041+006001999GA2081+021001999GF108991999999999999999999MA1101591999999REMMET058METAR SBJU 041600Z 06003KT 9999 SCT020 OVC070 27/24 Q1016;
0143827840999992013040417004-07317-039300FM-15+0409SBJU V0209999C000010210019N0112651N1+02801+02401999999ADDGA1041+006001999GA2081+021001999GF108991999999999999999999MA1101591999999REMMET058METAR SBJU 041700Z 00000KT 9999 SCT020 OVC070 28/24 Q1016;
0143827840999992013040418004-07317-039300FM-15+0409SBJU V0209999C000010210019N0112651N1+02901+02401999999ADDGA1041+006001999GA2081+021001999GF108991999999999999999999MA1101391999999REMMET058METAR SBJU 041800Z 00000KT 9999 SCT020 OVC070 29/24 Q1014;
0143827840999992013040419004-07317-039300FM-15+0409SBJU V0209999C000010210019N0112651N1+02901+02401999999ADDGA1041+006001999GA2081+021001999GF108991999999999999999999MA1101391999999REMMET058METAR SBJU 041900Z 00000KT 9999 SCT020 OVC070 29/24 Q1014;
0143827840999992013040420004-07317-039300FM-15+0409SBJU V0209999C000010060019N0112651N1+02901+02501999999ADDGA1071+006001999GA2071+021001999GF107991999999999999999999MA1101391999999REMMET058METAR SBJU 042000Z 00000KT 9999 BKN020 BKN070 29/25 Q1014;
0120827840999992013040421004-07317-039300FM-15+0409SBJU V0209999C000010060019N0112651N1+02801+02501999999ADDGA1071+006001999GF107991999999999999999999MA1101391999999REMMET051METAR SBJU 042100Z 00000KT 9999 BKN020 28/25 Q1014;
0120827840999992013040422004-07317-039300FM-15+0409SBJU V0209999C000010060019N0112651N1+02701+02501999999ADDGA1071+006001999GF107991999999999999999999MA1101391999999REMMET051METAR SBJU 042200Z 00000KT 9999 BKN020 27/25 Q1014;
0120827840999992013040423004-07317-039300FM-15+0409SBJU V0209999C000010060019N0112651N1+02701+02501999999ADDGA1071+006001999GF107991999999999999999999MA1101491999999REMMET051METAR SBJU 042300Z 00000KT 9999 BKN020 27/25 Q1015;
0120827840999992013040500004-07317-039300FM-15+0409SBJU V0209999C000012200019N0112651N1+02701+02501999999ADDGA1041+006001999GF104991999999999999999999MA1101591999999REMMET051METAR SBJU 050000Z 00000KT 9999 SCT020 27/25 Q1016;
0120827840999992013040501004-07317-039300FM-15+0409SBJU V0209999C000012200019N0112651N1+02701+02601999999ADDGA1041+006001999GF104991999999999999999999MA1101591999999REMMET051METAR SBJU 050100Z 00000KT 9999 SCT020 27/26 Q1016;
0120827840999992013040502004-07317-039300FM-15+0409SBJU V0209999C000012200019N0112651N1+02601+02501999999ADDGA1041+006001999GF104991999999999999999999MA1101591999999REMMET051METAR SBJU 050200Z 00000KT 9999 SCT020 26/25 Q1016;
0120827840999992013040503004-07317-039300FM-15+0409SBJU V0200701N002112200019N0112651N1+02601+02501999999ADDGA1041+006001999GF104991999999999999999999MA1101591999999REMMET051METAR SBJU 050300Z 07004KT 9999 SCT020 26/25 Q1016;
0120827840999992013040504004-07317-039300FM-15+0409SBJU V0201201N002110060019N0112651N1+02601+02501999999ADDGA1071+006001999GF107991999999999999999999MA1101591999999REMMET051METAR SBJU 050400Z 12004KT 9999 BKN020 26/25 Q1016;
0120827840999992013040505004-07317-039300FM-15+0409SBJU V0202301N001010060019N0112651N1+02601+02501999999ADDGA1071+006001999GF107991999999999999999999MA1101591999999REMMET051METAR SBJU 050500Z 23002KT 9999 BKN020 26/25 Q1016;
0153827840999992013040506004-07317-039300FM-15+0409SBJU V0209999C000010060019N0112651N1+02601+02501999999ADDGA1071+006001999GA2071+021001999GF107991999999999999999999MA1101591999999MW1611REMMET062METAR SBJU 050600Z 00000KT 9999 -RA BKN020 BKN070 26/25 Q1016;
0153827840999992013040507004-07317-039300FM-15+0409SBJU V0202901N001510060019N0112651N1+02501+02401999999ADDGA1071+006001999GA2071+021001999GF107991999999999999999999MA1101591999999MW1611REMMET062METAR SBJU 050700Z 29003KT 9999 -RA BKN020 BKN070 25/24 Q1016;
0152827840999992013040508004-07317-039300FM-15+0409SBJU V0201601N004610060019N0112651N1+02401+02301999999ADDGA1071+006001999GA2081+021001999GF108991999999999999999999MA1101691999999MW1631REMMET061METAR SBJU 050800Z 16009KT 9999 RA BKN020 OVC070 24/23 Q1017;
0194827840999992013040508154-07317-039300FM-15+0409SBJU V0201701N003110060019N0030001N1+02301+02201999999ADDGA1071+006001999GA2021+006301091GA3081+021001999GF108991999999999999999999MA1101691999999MW1101MW2811MW3951REMMET075SPECI SBJU 050815Z 17006KT 3000 TSRA BR BKN020 FEW021CB OVC070 23/22 Q1017;
0194827840999992013040509004-07317-039300FM-15+0409SBJU V0201801N001510060019N0030001N1+02301+02301999999ADDGA1071+006001999GA2021+006601091GA3081+021001999GF108991999999999999999999MA1101691999999MW1101MW2811MW3951REMMET075METAR SBJU 050900Z 18003KT 3000 TSRA BR BKN020 FEW022CB OVC070 23/23 Q1017;
0148827840999992013040510004-07317-039300FM-15+0409SBJU V0202901N001510054019N0112651N1+02401+02301999999ADDGA1071+005401999GA2071+021001999GF107991999999999999999999MA1101801999999REMMET063METAR SBJU 051000Z 29003KT 9999 BKN018 BKN070 24/23 Q1018 RETS;
0166827840999992013040511004-07317-039300FM-15+0409SBJU V0202101N001010060019N0112651N1+02501+02401999999ADDGA1041+005401999GA2071+006001999GA3071+021001999GF107991999999999999999999MA1101901999999REMMET065METAR SBJU 051100Z 21002KT 9999 SCT018 BKN020 BKN070 25/24 Q1019;
0143827840999992013040512004-07317-039300FM-15+0409SBJU V0201501N001010060019N0112651N1+02601+02401999999ADDGA1041+005401999GA2071+006001999GF107991999999999999999999MA1101901999999REMMET058METAR SBJU 051200Z 15002KT 9999 SCT018 BKN020 26/24 Q1019;
0143827840999992013040513004-07317-039300FM-15+0409SBJU V0201101N002610060019N0112651N1+02701+02501999999ADDGA1041+005401999GA2071+006001999GF107991999999999999999999MA1101901999999REMMET058METAR SBJU 051300Z 11005KT 9999 SCT018 BKN020 27/25 Q1019;
0120827840999992013040514004-07317-039300FM-15+0409SBJU V0201301N001010060019N0112651N1+02901+02401999999ADDGA1071+006001999GF107991999999999999999999MA1101801999999REMMET051METAR SBJU 051400Z 13002KT 9999 BKN020 29/24 Q1018;
0120827840999992013040515004-07317-039300FM-15+0409SBJU V0200101N001010066019N0112651N1+03001+02401999999ADDGA1071+006601999GF107991999999999999999999MA1101691999999REMMET051METAR SBJU 051500Z 01002KT 9999 BKN022 30/24 Q1017;
0120827840999992013040516004-07317-039300FM-15+0409SBJU V0200801N002110066019N0112651N1+03001+02301999999ADDGA1071+006601999GF107991999999999999999999MA1101591999999REMMET051METAR SBJU 051600Z 08004KT 9999 BKN022 30/23 Q1016;
0120827840999992013040517004-07317-039300FM-15+0409SBJU V0200701N001012200019N0112651N1+03201+02301999999ADDGA1041+006601999GF104991999999999999999999MA1101491999999REMMET051METAR SBJU 051700Z 07002KT 9999 SCT022 32/23 Q1015;
0120827840999992013040518004-07317-039300FM-15+0409SBJU V0201401N001512200019N0112651N1+03201+02401999999ADDGA1041+006601999GF104991999999999999999999MA1101391999999REMMET051METAR SBJU 051800Z 14003KT 9999 SCT022 32/24 Q1014;
0120827840999992013040519004-07317-039300FM-15+0409SBJU V0200101N001012200019N0112651N1+03101+02401999999ADDGA1041+006601999GF104991999999999999999999MA1101391999999REMMET051METAR SBJU 051900Z 01002KT 9999 SCT022 31/24 Q1014;
0120827840999992013040520004-07317-039300FM-15+0409SBJU V0200501N001512200019N0112651N1+03001+02501999999ADDGA1041+006601999GF104991999999999999999999MA1101391999999REMMET051METAR SBJU 052000Z 05003KT 9999 SCT022 30/25 Q1014;
0120827840999992013040521004-07317-039300FM-15+0409SBJU V0200801N001512200019N0112651N1+02901+02401999999ADDGA1021+006601999GF102991999999999999999999MA1101491999999REMMET051METAR SBJU 052100Z 08003KT 9999 FEW022 29/24 Q1015;
0120827840999992013040522004-07317-039300FM-15+0409SBJU V0209999C000012200019N0112651N1+02901+02501999999ADDGA1021+006001999GF102991999999999999999999MA1101491999999REMMET051METAR SBJU 052200Z 00000KT 9999 FEW020 29/25 Q1015;
0120827840999992013040523004-07317-039300FM-15+0409SBJU V0209999C000012200019N0112651N1+02701+02501999999ADDGA1021+006001999GF102991999999999999999999MA1101591999999REMMET051METAR SBJU 052300Z 00000KT 9999 FEW020 27/25 Q1016;
0120827840999992013040601004-07317-039300FM-15+0409SBJU V0209999C000012200019N0112651N1+02901+02501999999ADDGA1021+006001999GF102991999999999999999999MA1101691999999REMMET051METAR SBJU 060100Z 00000KT 9999 FEW020 29/25 Q1017;
0120827840999992013040602004-07317-039300FM-15+0409SBJU V0209999C000012200019N0112651N1+02701+02501999999ADDGA1021+006001999GF102991999999999999999999MA1101691999999REMMET051METAR SBJU 060200Z 00000KT 9999 FEW020 27/25 Q1017;
0120827840999992013040603004-07317-039300FM-15+0409SBJU V0209999C000012200019N0112651N1+02601+02501999999ADDGA1041+006001999GF104991999999999999999999MA1101691999999REMMET051METAR SBJU 060300Z 00000KT 9999 SCT020 26/25 Q1017;
0120827840999992013040605004-07317-039300FM-15+0409SBJU V0209999C000012200019N0112651N1+02601+02401999999ADDGA1041+006001999GF104991999999999999999999MA1101591999999REMMET051METAR SBJU 060500Z 00000KT 9999 SCT020 26/24 Q1016;
0120827840999992013040606004-07317-039300FM-15+0409SBJU V0209999C000012200019N0112651N1+02601+02401999999ADDGA1041+006001999GF104991999999999999999999MA1101691999999REMMET051METAR SBJU 060600Z 00000KT 9999 SCT020 26/24 Q1017;
0120827840999992013040607004-07317-039300FM-15+0409SBJU V0209999C000012200019N0112651N1+02601+02401999999ADDGA1041+006001999GF104991999999999999999999MA1101691999999REMMET051METAR SBJU 060700Z 00000KT 9999 SCT020 26/24 Q1017;
0120827840999992013040608004-07317-039300FM-15+0409SBJU V0209999C000012200019N0112651N1+02601+02301999999ADDGA1041+006001999GF104991999999999999999999MA1101691999999REMMET051METAR SBJU 060800Z 00000KT 9999 SCT020 26/23 Q1017;
0120827840999992013040609004-07317-039300FM-15+0409SBJU V0209999C000010060019N0112651N1+02501+02401999999ADDGA1071+006001999GF107991999999999999999999MA1101691999999REMMET051METAR SBJU 060900Z 00000KT 9999 BKN020 25/24 Q1017;
0120827840999992013040610004-07317-039300FM-15+0409SBJU V0209999C000010060019N0112651N1+02601+02401999999ADDGA1071+006001999GF107991999999999999999999MA1101801999999REMMET051METAR SBJU 061000Z 00000KT 9999 BKN020 26/24 Q1018;
0143827840999992013040611004-07317-039300FM-15+0409SBJU V0209999C000010054019N0112651N1+02701+02401999999ADDGA1021+003601999GA2071+005401999GF107991999999999999999999MA1101901999999REMMET058METAR SBJU 061100Z 00000KT 9999 FEW012 BKN018 27/24 Q1019;
0143827840999992013040612004-07317-039300FM-15+0409SBJU V0201001N001510051019N0112651N1+02901+02401999999ADDGA1041+003601999GA2071+005101999GF107991999999999999999999MA1101901999999REMMET058METAR SBJU 061200Z 10003KT 9999 SCT012 BKN017 29/24 Q1019;
0143827840999992013040613004-07317-039300FM-15+0409SBJU V0201001N002610051019N0112651N1+02901+02401999999ADDGA1041+003601999GA2071+005101999GF107991999999999999999999MA1101901999999REMMET058METAR SBJU 061300Z 10005KT 9999 SCT012 BKN017 29/24 Q1019;
0120827840999992013040614004-07317-039300FM-15+0409SBJU V0200701N001510060019N0112651N1+03001+02301999999ADDGA1071+006001999GF107991999999999999999999MA1101901999999REMMET051METAR SBJU 061400Z 07003KT 9999 BKN020 30/23 Q1019;
0120827840999992013040615004-07317-039300FM-15+0409SBJU V0200301N002110060019N0112651N1+03101+02301999999ADDGA1071+006001999GF107991999999999999999999MA1101691999999REMMET051METAR SBJU 061500Z 03004KT 9999 BKN020 31/23 Q1017;
0120827840999992013040616004-07317-039300FM-15+0409SBJU V0200301N001010063019N0112651N1+03201+02301999999ADDGA1071+006301999GF107991999999999999999999MA1101591999999REMMET051METAR SBJU 061600Z 03002KT 9999 BKN021 32/23 Q1016;
0120827840999992013040617004-07317-039300FM-15+0409SBJU V0201201N001010063019N0112651N1+03201+02301999999ADDGA1071+006301999GF107991999999999999999999MA1101491999999REMMET051METAR SBJU 061700Z 12002KT 9999 BKN021 32/23 Q1015;
0120827840999992013040618004-07317-039300FM-15+0409SBJU V0200601N001512200019N0112651N1+03301+02401999999ADDGA1041+006601999GF104991999999999999999999MA1101391999999REMMET051METAR SBJU 061800Z 06003KT 9999 SCT022 33/24 Q1014;
0120827840999992013040619004-07317-039300FM-15+0409SBJU V0200401N001512200019N0112651N1+03201+02301999999ADDGA1041+006601999GF104991999999999999999999MA1101391999999REMMET051METAR SBJU 061900Z 04003KT 9999 SCT022 32/23 Q1014;
0120827840999992013040620004-07317-039300FM-15+0409SBJU V0200801N001512200019N0112651N1+03201+02401999999ADDGA1021+006901999GF102991999999999999999999MA1101391999999REMMET051METAR SBJU 062000Z 08003KT 9999 FEW023 32/24 Q1014;
0072827840999992013040621004-07317-039300FM-15+0409SBJU V0209999C000019999999Y0099001N1+03101+02401999999ADDMA1101391999999REMMET045METAR SBJU 062100Z 00000KT CAVOK 31/24 Q1014;
0120827840999992013040622004-07317-039300FM-15+0409SBJU V0209999C000012200019N0112651N1+02901+02501999999ADDGA1041+006001999GF104991999999999999999999MA1101491999999REMMET051METAR SBJU 062200Z 00000KT 9999 SCT020 29/25 Q1015;
0120827840999992013040623004-07317-039300FM-15+0409SBJU V0202301N001512200019N0112651N1+02801+02501999999ADDGA1041+006001999GF104991999999999999999999MA1101591999999REMMET051METAR SBJU 062300Z 23003KT 9999 SCT020 28/25 Q1016;
0120827840999992013040700004-07317-039300FM-15+0409SBJU V0202401N001012200019N0112651N1+02701+02401999999ADDGA1041+006001999GF104991999999999999999999MA1101591999999REMMET051METAR SBJU 070000Z 24002KT 9999 SCT020 27/24 Q1016;
0120827840999992013040701004-07317-039300FM-15+0409SBJU V0209999C000012200019N0112651N1+02701+02501999999ADDGA1041+006001999GF104991999999999999999999MA1101691999999REMMET051METAR SBJU 070100Z 00000KT 9999 SCT020 27/25 Q1017;
0120827840999992013040702004-07317-039300FM-15+0409SBJU V0209999C000012200019N0112651N1+02601+02401999999ADDGA1041+006001999GF104991999999999999999999MA1101691999999REMMET051METAR SBJU 070200Z 00000KT 9999 SCT020 26/24 Q1017;
0120827840999992013040703004-07317-039300FM-15+0409SBJU V0200501N004112200019N0112651N1+02601+02401999999ADDGA1041+006001999GF104991999999999999999999MA1101691999999REMMET051METAR SBJU 070300Z 05008KT 9999 SCT020 26/24 Q1017;
0120827840999992013040704004-07317-039300FM-15+0409SBJU V0209999C000012200019N0112651N1+02601+02401999999ADDGA1041+006001999GF104991999999999999999999MA1101691999999REMMET051METAR SBJU 070400Z 00000KT 9999 SCT020 26/24 Q1017;
0120827840999992013040705004-07317-039300FM-15+0409SBJU V0209999C000012200019N0112651N1+02601+02401999999ADDGA1041+006001999GF104991999999999999999999MA1101691999999REMMET051METAR SBJU 070500Z 00000KT 9999 SCT020 26/24 Q1017;
0120827840999992013040706004-07317-039300FM-15+0409SBJU V0209999C000012200019N0112651N1+02601+02401999999ADDGA1041+006001999GF104991999999999999999999MA1101691999999REMMET051METAR SBJU 070600Z 00000KT 9999 SCT020 26/24 Q1017;
0120827840999992013040707004-07317-039300FM-15+0409SBJU V0209999C000012200019N0112651N1+02601+02401999999ADDGA1041+006001999GF104991999999999999999999MA1101691999999REMMET051METAR SBJU 070700Z 00000KT 9999 SCT020 26/24 Q1017;
0120827840999992013040708004-07317-039300FM-15+0409SBJU V0209999C000012200019N0112651N1+02601+02401999999ADDGA1041+006001999GF104991999999999999999999MA1101691999999REMMET051METAR SBJU 070800Z 00000KT 9999 SCT020 26/24 Q1017;
0120827840999992013040709004-07317-039300FM-15+0409SBJU V0209999C000010054019N0112651N1+02601+02401999999ADDGA1071+005401999GF107991999999999999999999MA1101801999999REMMET051METAR SBJU 070900Z 00000KT 9999 BKN018 26/24 Q1018;
0120827840999992013040710004-07317-039300FM-15+0409SBJU V0209999C000010054019N0112651N1+02801+02401999999ADDGA1071+005401999GF107991999999999999999999MA1101801999999REMMET051METAR SBJU 071000Z 00000KT 9999 BKN018 28/24 Q1018;
0120827840999992013040711004-07317-039300FM-15+0409SBJU V0200401N001510054019N0112651N1+02701+02401999999ADDGA1071+005401999GF107991999999999999999999MA1101901999999REMMET051METAR SBJU 071100Z 04003KT 9999 BKN018 27/24 Q1019;
0120827840999992013040712004-07317-039300FM-15+0409SBJU V0209999C000010054019N0112651N1+02901+02401999999ADDGA1071+005401999GF107991999999999999999999MA1101901999999REMMET051METAR SBJU 071200Z 00000KT 9999 BKN018 29/// Q1019;
0120827840999992013040713004-07317-039300FM-15+0409SBJU V0209999C000010054019N0112651N1+03001+02401999999ADDGA1071+005401999GF107991999999999999999999MA1101901999999REMMET051METAR SBJU 071300Z 00000KT 9999 BKN018 30/// Q1019;
0120827840999992013040714004-07317-039300FM-15+0409SBJU V0200401N001510060019N0112651N1+03101+02401999999ADDGA1071+006001999GF107991999999999999999999MA1101801999999REMMET051METAR SBJU 071400Z 04003KT 9999 BKN020 31/24 Q1018;
0120827840999992013040715004-07317-039300FM-15+0409SBJU V0200201N002110063019N0112651N1+03101+02401999999ADDGA1071+006301999GF107991999999999999999999MA1101691999999REMMET051METAR SBJU 071500Z 02004KT 9999 BKN021 31/24 Q1017;
0120827840999992013040716004-07317-039300FM-15+0409SBJU V0200201N002110063019N0112651N1+03201+02301999999ADDGA1071+006301999GF107991999999999999999999MA1101491999999REMMET051METAR SBJU 071600Z 02004KT 9999 BKN021 32/23 Q1015;
0120827840999992013040717004-07317-039300FM-15+0409SBJU V0200201N002610066019N0112651N1+03301+02401999999ADDGA1071+006601999GF107991999999999999999999MA1101391999999REMMET051METAR SBJU 071700Z 02005KT 9999 BKN022 33/24 Q1014;
0120827840999992013040718004-07317-039300FM-15+0409SBJU V0200601N002110069019N0112651N1+03301+02301999999ADDGA1071+006901999GF107991999999999999999999MA1101291999999REMMET051METAR SBJU 071800Z 06004KT 9999 BKN023 33/23 Q1013;
0120827840999992013040719004-07317-039300FM-15+0409SBJU V0200501N002112200019N0112651N1+03301+02401999999ADDGA1041+006901999GF104991999999999999999999MA1101291999999REMMET051METAR SBJU 071900Z 05004KT 9999 SCT023 33/24 Q1013;
0120827840999992013040720004-07317-039300FM-15+0409SBJU V0200401N001012200019N0112651N1+03201+02401999999ADDGA1021+007201999GF102991999999999999999999MA1101291999999REMMET051METAR SBJU 072000Z 04002KT 9999 FEW024 32/24 Q1013;
0120827840999992013040721004-07317-039300FM-15+0409SBJU V0200801N001012200019N0112651N1+03101+02401999999ADDGA1021+007201999GF102991999999999999999999MA1101291999999REMMET051METAR SBJU 072100Z 08002KT 9999 FEW024 31/24 Q1013;
0119827840999992013040722004-07317-039300FM-15+0409SBJU V0200501N001012200019N0112651N1+03001+02501999999ADDGA1021+007201999GF102991999999999999999999MA1101391999999REMMET050METAR SBJU 072200Z 05002KT 9999 FEW024 30/2 Q1014;
0120827840999992013040723004-07317-039300FM-15+0409SBJU V0202401N002112200019N0112651N1+02901+02601999999ADDGA1021+007201999GF102991999999999999999999MA1101391999999REMMET051METAR SBJU 072300Z 24004KT 9999 FEW024 29/26 Q1014;
0120827840999992013040800004-07317-039300FM-15+0409SBJU V0209999C000012200019N0112651N1+02801+02501999999ADDGA1041+007201999GF104991999999999999999999MA1101491999999REMMET051METAR SBJU 080000Z 00000KT 9999 SCT024 28/25 Q1015;
0120827840999992013040801004-07317-039300FM-15+0409SBJU V0209999C000012200019N0112651N1+02701+02501999999ADDGA1041+007201999GF104991999999999999999999MA1101591999999REMMET051METAR SBJU 080100Z 00000KT 9999 SCT024 27/25 Q1016;
0120827840999992013040802004-07317-039300FM-15+0409SBJU V0209999C000012200019N0112651N1+02701+02501999999ADDGA1041+007201999GF104991999999999999999999MA1101591999999REMMET051METAR SBJU 080200Z 00000KT 9999 SCT024 27/25 Q1016;
0120827840999992013040803004-07317-039300FM-15+0409SBJU V0209999C000012200019N0112651N1+02701+02501999999ADDGA1041+007201999GF104991999999999999999999MA1101491999999REMMET051METAR SBJU 080300Z 00000KT 9999 SCT024 27/25 Q1015;
0072827840999992013040804004-07317-039300FM-15+0409SBJU V0209999C000019999999Y0099001N1+02601+02501999999ADDMA1101391999999REMMET045METAR SBJU 080400Z 00000KT CAVOK 26/25 Q1014;
0120827840999992013040806004-07317-039300FM-15+0409SBJU V0202101N001512200019N0112651N1+02601+02501999999ADDGA1041+006001999GF104991999999999999999999MA1101491999999REMMET051METAR SBJU 080600Z 21003KT 9999 SCT020 26/25 Q1015;
0148827840999992013040807004-07317-039300FM-15+0409SBJU V0200601N00151006001CN0112651N1+02601+02301999999ADDGA1071+006001999GA2021+006601091MA1101491999999MW1611REMMET064METAR SBJU 080700Z 06003KT 9999 -RA BKN020 FEW022CB 26/23 Q1015;EQDQ01+000022SCOTCV
0182827840999992013040808004-07317-039300FM-15+0409SBJU V0209999C000010060019N0112651N1+02601+02401999999ADDGA1071+006001999GA2021+006601091GA3071+021001999GF107991999999999999999999MA1101591999999MW1171REMMET075METAR SBJU 080800Z 00000KT 9999 TS BKN020 FEW022CB BKN070 26/24 Q1016 RERA;
0195827840999992013040809004-07317-039300FM-15+0409SBJU V0201601N003610030019N0050001N1+02401+02301999999ADDGA1071+003001999GA2021+006601091GA3071+021001999GF107991999999999999999999MA1101691999999MW1101MW2801MW3951REMMET076METAR SBJU 080900Z 16007KT 5000 -TSRA BR BKN010 FEW022CB BKN070 24/23 Q1017;
0195827840999992013040810004-07317-039300FM-15+0409SBJU V0201901N00101006601CN0040001N1+02401+02301999999ADDGA1041+003001999GA2021+006601091GA3071+021001999GF107991999999999999999999MA1101801999999MW1101MW2801MW3951REMMET076METAR SBJU 081000Z 19002KT 4000 -TSRA BR SCT010 FEW022CB BKN070 24/23 Q1018;
0181827840999992013040811004-07317-039300FM-15+0409SBJU V0202401N001010057019N0070001N1+02401+02401999999ADDGA1041+003001999GA2071+005701999GA3071+021001999GF107991999999999999999999MA1101801999999MW1611REMMET074METAR SBJU 081100Z 24002KT 7000 -RA SCT010 BKN019 BKN070 24/24 Q1018 RETS;
0143827840999992013040812004-07317-039300FM-15+0409SBJU V0202601N002110060019N0112651N1+02601+02401999999ADDGA1021+003001999GA2071+006001999GF107991999999999999999999MA1101801999999REMMET058METAR SBJU 081200Z 26004KT 9999 FEW010 BKN020 26/24 Q1018;
0120827840999992013040813004-07317-039300FM-15+0409SBJU V0202701N001510060019N0112651N1+02801+02401999999ADDGA1071+006001999GF107991999999999999999999MA1101801999999REMMET051METAR SBJU 081300Z 27003KT 9999 BKN020 28/24 Q1018;
0120827840999992013040814004-07317-039300FM-15+0409SBJU V0202801N001010063019N0112651N1+03001+02401999999ADDGA1071+006301999GF107991999999999999999999MA1101691999999REMMET051METAR SBJU 081400Z 28002KT 9999 BKN021 30/24 Q1017;
0120827840999992013040815004-07317-039300FM-15+0409SBJU V0200501N001010066019N0112651N1+03101+02401999999ADDGA1071+006601999GF107991999999999999999999MA1101591999999REMMET051METAR SBJU 081500Z 05002KT 9999 BKN022 31/24 Q1016;
0120827840999992013040816004-07317-039300FM-15+0409SBJU V0200601N001010066019N0112651N1+03201+02401999999ADDGA1071+006601999GF107991999999999999999999MA1101491999999REMMET051METAR SBJU 081600Z 06002KT 9999 BKN022 32/24 Q1015;
0105827840999992013040817004-07317-039300FM-15+0409SBJU V0209999C000010066019N0112651N1+03201+02401999999ADDGA1071+006601999GF107991999999999999999999REMMET051METAR SBJU 081700Z 00000KT 9999 BKN022 32/24 Q0101;
0120827840999992013040818004-07317-039300FM-15+0409SBJU V0201001N002110066019N0112651N1+03201+02401999999ADDGA1071+006601999GF107991999999999999999999MA1101291999999REMMET051METAR SBJU 081800Z 10004KT 9999 BKN022 32/24 Q1013;
0120827840999992013040819004-07317-039300FM-15+0409SBJU V0201001N002110066019N0112651N1+03201+02401999999ADDGA1071+006601999GF107991999999999999999999MA1101291999999REMMET051METAR SBJU 081900Z 10004KT 9999 BKN022 32/24 Q1013;
0120827840999992013040820004-07317-039300FM-15+0409SBJU V0201201N001512200019N0112651N1+03101+02401999999ADDGA1041+006601999GF104991999999999999999999MA1101291999999REMMET051METAR SBJU 082000Z 12003KT 9999 SCT022 31/24 Q1013;
0120827840999992013040821004-07317-039300FM-15+0409SBJU V0209999C000012200019N0112651N1+03101+02501999999ADDGA1021+006001999GF102991999999999999999999MA1101291999999REMMET051METAR SBJU 082100Z 00000KT 9999 FEW020 31/25 Q1013;
0120827840999992013040822004-07317-039300FM-15+0409SBJU V0201701N001012200019N0112651N1+02901+02601999999ADDGA1021+006001999GF102991999999999999999999MA1101391999999REMMET051METAR SBJU 082200Z 17002KT 9999 FEW020 29/26 Q1014;
0120827840999992013040900004-07317-039300FM-15+0409SBJU V0209999C000012200019N0112651N1+02801+02601999999ADDGA1021+006001999GF102991999999999999999999MA1101491999999REMMET051METAR SBJU 090000Z 00000KT 9999 FEW020 28/26 Q1015;
0120827840999992013040901004-07317-039300FM-15+0409SBJU V0209999C000012200019N0112651N1+02701+02501999999ADDGA1021+006001999GF102991999999999999999999MA1101491999999REMMET051METAR SBJU 090100Z 00000KT 9999 FEW020 27/25 Q1015;
0120827840999992013040902004-07317-039300FM-15+0409SBJU V0209999C000012200019N0112651N1+02701+02601999999ADDGA1021+006001999GF102991999999999999999999MA1101491999999REMMET051METAR SBJU 090200Z 00000KT 9999 FEW020 27/26 Q1015;
0072827840999992013040903004-07317-039300FM-15+0409SBJU V0209999C000019999999Y0099001N1+02601+02501999999ADDMA1101491999999REMMET045METAR SBJU 090300Z 00000KT CAVOK 26/25 Q1015;
0143827840999992013040904004-07317-039300FM-15+0409SBJU V0209999C000012200019N0112651N1+02701+02501999999ADDGA1021+006001999GA2041+021001999GF104991999999999999999999MA1101391999999REMMET058METAR SBJU 090400Z 00000KT 9999 FEW020 SCT070 27/25 Q1014;
0143827840999992013040905004-07317-039300FM-15+0409SBJU V0209999C000012200019N0112651N1+02601+02601999999ADDGA1021+000601999GA2041+004501999GF104991999999999999999999MA1101391999999REMMET058METAR SBJU 090500Z 00000KT 9999 FEW002 SCT015 26/26 Q1014;
0120827840999992013040906004-07317-039300FM-15+0409SBJU V0209999C000010051019N0112651N1+02601+02501999999ADDGA1071+005101999GF107991999999999999999999MA1101391999999REMMET051METAR SBJU 090600Z 00000KT 9999 BKN017 26/25 Q1014;
0120827840999992013040907004-07317-039300FM-15+0409SBJU V0201301N002110051019N0112651N1+02601+02501999999ADDGA1071+005101999GF107991999999999999999999MA1101391999999REMMET051METAR SBJU 090700Z 13004KT 9999 BKN017 26/25 Q1014;
0120827840999992013040908004-07317-039300FM-15+0409SBJU V0201601N001510051019N0112651N1+02601+02501999999ADDGA1071+005101999GF107991999999999999999999MA1101491999999REMMET051METAR SBJU 090800Z 16003KT 9999 BKN017 26/25 Q1015;
0143827840999992013040909004-07317-039300FM-15+0409SBJU V0209999C000010051019N0112651N1+02601+02501999999ADDGA1071+005101999GA2081+021001999GF108991999999999999999999MA1101491999999REMMET058METAR SBJU 090900Z 00000KT 9999 BKN017 OVC070 26/25 Q1015;
0120827840999992013040910004-07317-039300FM-15+0409SBJU V0209999C000010060019N0112651N1+02701+02601999999ADDGA1071+006001999GF107991999999999999999999MA1101591999999REMMET051METAR SBJU 091000Z 00000KT 9999 BKN020 27/26 Q1016;
0120827840999992013040911004-07317-039300FM-15+0409SBJU V0209999C000010060019N0112651N1+02701+02601999999ADDGA1071+006001999GF107991999999999999999999MA1101591999999REMMET051METAR SBJU 091100Z 00000KT 9999 BKN020 27/26 Q1016;
0120827840999992013040912004-07317-039300FM-15+0409SBJU V0209999C000010060019N0112651N1+02801+02501999999ADDGA1071+006001999GF107991999999999999999999MA1101691999999REMMET051METAR SBJU 091200Z 00000KT 9999 BKN020 28/25 Q1017;
0120827840999992013040913004-07317-039300FM-15+0409SBJU V0201001N004110060019N0112651N1+02801+02501999999ADDGA1071+006001999GF107991999999999999999999MA1101691999999REMMET051METAR SBJU 091300Z 10008KT 9999 BKN020 28/25 Q1017;
0120827840999992013040914004-07317-039300FM-15+0409SBJU V0209999C000012200019N0112651N1+03001+02401999999ADDGA1041+006001999GF104991999999999999999999MA1101591999999REMMET051METAR SBJU 091400Z 00000KT 9999 SCT020 30/24 Q1016;
0120827840999992013040915004-07317-039300FM-15+0409SBJU V0209999C000012200019N0112651N1+03101+02401999999ADDGA1041+006001999GF104991999999999999999999MA1101591999999REMMET051METAR SBJU 091500Z 00000KT 9999 SCT020 31/24 Q1016;
0120827840999992013040916004-07317-039300FM-15+0409SBJU V0201001N002112200019N0112651N1+03201+02401999999ADDGA1041+006001999GF104991999999999999999999MA1101391999999REMMET051METAR SBJU 091600Z 10004KT 9999 SCT020 32/24 Q1014;
0120827840999992013040917004-07317-039300FM-15+0409SBJU V0200801N002112200019N0112651N1+03201+02301999999ADDGA1041+006001999GF104991999999999999999999MA1101291999999REMMET051METAR SBJU 091700Z 08004KT 9999 SCT020 32/23 Q1013;
0120827840999992013040918004-07317-039300FM-15+0409SBJU V0200801N002112200019N0112651N1+03301+02301999999ADDGA1041+006001999GF104991999999999999999999MA1101291999999REMMET051METAR SBJU 091800Z 08004KT 9999 SCT020 33/23 Q1013;
0120827840999992013040919004-07317-039300FM-15+0409SBJU V0200901N003612200019N0112651N1+03201+02301999999ADDGA1041+006001999GF104991999999999999999999MA1101191999999REMMET051METAR SBJU 091900Z 09007KT 9999 SCT020 32/23 Q1012;
0120827840999992013040920004-07317-039300FM-15+0409SBJU V0201001N001512200019N0112651N1+03201+02401999999ADDGA1041+006001999GF104991999999999999999999MA1101191999999REMMET051METAR SBJU 092000Z 10003KT 9999 SCT020 32/24 Q1012;
0072827840999992013040921004-07317-039300FM-15+0409SBJU V0209999C000019999999Y0099001N1+03101+02501999999ADDMA1101191999999REMMET045METAR SBJU 092100Z 00000KT CAVOK 31/25 Q1012;
0072827840999992013040922004-07317-039300FM-15+0409SBJU V0209999C000019999999Y0099001N1+03001+02501999999ADDMA1101291999999REMMET045METAR SBJU 092200Z 00000KT CAVOK 30/25 Q1013;
0072827840999992013040923004-07317-039300FM-15+0409SBJU V0209999C000019999999Y0099001N1+02901+02501999999ADDMA1101391999999REMMET045METAR SBJU 092300Z 00000KT CAVOK 29/25 Q1014;
0072827840999992013041000004-07317-039300FM-15+0409SBJU V0209999C000019999999Y0099001N1+02801+02501999999ADDMA1101391999999REMMET045METAR SBJU 100000Z 00000KT CAVOK 28/25 Q1014;
0072827840999992013041001004-07317-039300FM-15+0409SBJU V0209999C000019999999Y0099001N1+02701+02501999999ADDMA1101491999999REMMET045METAR SBJU 100100Z 00000KT CAVOK 27/25 Q1015;
0120827840999992013041002004-07317-039300FM-15+0409SBJU V0209999C000012200019N0112651N1+02701+02501999999ADDGA1021+006001999GF102991999999999999999999MA1101491999999REMMET051METAR SBJU 100200Z 00000KT 9999 FEW020 27/25 Q1015;
0120827840999992013041003004-07317-039300FM-15+0409SBJU V0209999C000012200019N0112651N1+02601+02501999999ADDGA1021+006001999GF102991999999999999999999MA1101391999999REMMET051METAR SBJU 100300Z 00000KT 9999 FEW020 26/25 Q1014;
0072827840999992013041004004-07317-039300FM-15+0409SBJU V0209999C000019999999Y0099001N1+02601+02501999999ADDMA1101391999999REMMET045METAR SBJU 100400Z 00000KT CAVOK 26/25 Q1014;
0072827840999992013041005004-07317-039300FM-15+0409SBJU V0209999C000019999999Y0099001N1+02601+02401999999ADDMA1101391999999REMMET045METAR SBJU 100500Z 00000KT CAVOK 26/24 Q1014;
0072827840999992013041006004-07317-039300FM-15+0409SBJU V0209999C000019999999Y0099001N1+02601+02401999999ADDMA1101391999999REMMET045METAR SBJU 100600Z 00000KT CAVOK 26/24 Q1014;
0072827840999992013041007004-07317-039300FM-15+0409SBJU V0209999C000019999999Y0099001N1+02601+02401999999ADDMA1101391999999REMMET045METAR SBJU 100700Z 00000KT CAVOK 26/24 Q1014;
0120827840999992013041008004-07317-039300FM-15+0409SBJU V0209999C000012200019N0112651N1+02601+02501999999ADDGA1041+006001999GF104991999999999999999999MA1101391999999REMMET051METAR SBJU 100800Z 00000KT 9999 SCT020 26/25 Q1014;
0120827840999992013041009004-07317-039300FM-15+0409SBJU V0209999C000010060019N0112651N1+02601+02501999999ADDGA1071+006001999GF107991999999999999999999MA1101491999999REMMET051METAR SBJU 100900Z 00000KT 9999 BKN020 26/25 Q1015;
0120827840999992013041010004-07317-039300FM-15+0409SBJU V0209999C000010060019N0112651N1+02701+02601999999ADDGA1071+006001999GF107991999999999999999999MA1101591999999REMMET051METAR SBJU 101000Z 00000KT 9999 BKN020 27/26 Q1016;
0120827840999992013041011004-07317-039300FM-15+0409SBJU V0209999C000010060019N0112651N1+02801+02501999999ADDGA1071+006001999GF107991999999999999999999MA1101591999999REMMET051METAR SBJU 101100Z 00000KT 9999 BKN020 28/25 Q1016;
0120827840999992013041012004-07317-039300FM-15+0409SBJU V0209999C000010060019N0112651N1+02901+02501999999ADDGA1071+006001999GF107991999999999999999999MA1101691999999REMMET051METAR SBJU 101200Z 00000KT 9999 BKN020 29/25 Q1017;
0120827840999992013041013004-07317-039300FM-15+0409SBJU V0209999C000010063019N0112651N1+03001+02501999999ADDGA1071+006301999GF107991999999999999999999MA1101691999999REMMET051METAR SBJU 101300Z 00000KT 9999 BKN021 30/25 Q1017;
0120827840999992013041014004-07317-039300FM-15+0409SBJU V0201101N002610066019N0112651N1+03101+02401999999ADDGA1071+006601999GF107991999999999999999999MA1101591999999REMMET051METAR SBJU 101400Z 11005KT 9999 BKN022 31/24 Q1016;
0120827840999992013041015004-07317-039300FM-15+0409SBJU V0201401N001510066019N0112651N1+03201+02301999999ADDGA1071+006601999GF107991999999999999999999MA1101491999999REMMET051METAR SBJU 101500Z 14003KT 9999 BKN022 32/23 Q1015;
0120827840999992013041016004-07317-039300FM-15+0409SBJU V0201001N004612200019N0112651N1+03301+02301999999ADDGA1041+006601999GF104991999999999999999999MA1101391999999REMMET051METAR SBJU 101600Z 10009KT 9999 SCT022 33/23 Q1014;
0120827840999992013041017004-07317-039300FM-15+0409SBJU V0201301N002112200019N0112651N1+03301+02201999999ADDGA1041+006601999GF104991999999999999999999MA1101391999999REMMET051METAR SBJU 101700Z 13004KT 9999 SCT022 33/22 Q1014;
0120827840999992013041018004-07317-039300FM-15+0409SBJU V0200901N003612200019N0112651N1+03301+02201999999ADDGA1041+006901999GF104991999999999999999999MA1101291999999REMMET051METAR SBJU 101800Z 09007KT 9999 SCT023 33/22 Q1013;
0120827840999992013041019004-07317-039300FM-15+0409SBJU V0200801N003112200019N0112651N1+03301+02201999999ADDGA1021+006901999GF102991999999999999999999MA1101291999999REMMET051METAR SBJU 101900Z 08006KT 9999 FEW023 33/22 Q1013;
0120827840999992013041020004-07317-039300FM-15+0409SBJU V0200701N002112200019N0112651N1+03201+02301999999ADDGA1021+006901999GF102991999999999999999999MA1101291999999REMMET051METAR SBJU 102000Z 07004KT 9999 FEW023 32/23 Q1013;
0120827840999992013041021004-07317-039300FM-15+0409SBJU V0209999C000012200019N0112651N1+03101+02301999999ADDGA1021+006901999GF102991999999999999999999MA1101291999999REMMET051METAR SBJU 102100Z 00000KT 9999 FEW023 31/23 Q1013;
0120827840999992013041022004-07317-039300FM-15+0409SBJU V0209999C000012200019N0112651N1+03001+02301999999ADDGA1021+006901999GF102991999999999999999999MA1101291999999REMMET051METAR SBJU 102200Z 00000KT 9999 FEW023 30/23 Q1013;
0120827840999992013041023004-07317-039300FM-15+0409SBJU V0209999C000012200019N0112651N1+02901+02401999999ADDGA1021+006901999GF102991999999999999999999MA1101391999999REMMET051METAR SBJU 102300Z 00000KT 9999 FEW023 29/24 Q1014;
0120827840999992013041100004-07317-039300FM-15+0409SBJU V0209999C000012200019N0112651N1+02801+02401999999ADDGA1021+006001999GF102991999999999999999999MA1101491999999REMMET051METAR SBJU 110000Z 00000KT 9999 FEW020 28/24 Q1015;
0120827840999992013041101004-07317-039300FM-15+0409SBJU V0209999C000012200019N0112651N1+02701+02301999999ADDGA1021+006001999GF102991999999999999999999MA1101491999999REMMET051METAR SBJU 110100Z 00000KT 9999 FEW020 27/23 Q1015;
0120827840999992013041102004-07317-039300FM-15+0409SBJU V0209999C000012200019N0112651N1+02601+02401999999ADDGA1021+006001999GF102991999999999999999999MA1101491999999REMMET051METAR SBJU 110200Z 00000KT 9999 FEW020 26/24 Q1015;
0120827840999992013041103004-07317-039300FM-15+0409SBJU V0209999C000012200019N0112651N1+02601+02401999999ADDGA1021+006001999GF102991999999999999999999MA1101591999999REMMET051METAR SBJU 110300Z 00000KT 9999 FEW020 26/24 Q1016;
0120827840999992013041104004-07317-039300FM-15+0409SBJU V0209999C000012200019N0112651N1+02501+02401999999ADDGA1021+006001999GF102991999999999999999999MA1101491999999REMMET051METAR SBJU 110400Z 00000KT 9999 FEW020 25/24 Q1015;
0120827840999992013041105004-07317-039300FM-15+0409SBJU V0209999C000012200019N0112651N1+02501+02301999999ADDGA1021+006001999GF102991999999999999999999MA1101491999999REMMET051METAR SBJU 110500Z 00000KT 9999 FEW020 25/23 Q1015;
0120827840999992013041106004-07317-039300FM-15+0409SBJU V0209999C000012200019N0112651N1+02501+02301999999ADDGA1021+006001999GF102991999999999999999999MA1101491999999REMMET051METAR SBJU 110600Z 00000KT 9999 FEW020 25/23 Q1015;
0120827840999992013041107004-07317-039300FM-15+0409SBJU V0209999C000012200019N0112651N1+02501+02401999999ADDGA1041+006001999GF104991999999999999999999MA1101491999999REMMET051METAR SBJU 110700Z 00000KT 9999 SCT020 25/24 Q1015;
0120827840999992013041108004-07317-039300FM-15+0409SBJU V0209999C000012200019N0112651N1+02501+02301999999ADDGA1041+006001999GF104991999999999999999999MA1101491999999REMMET051METAR SBJU 110800Z 00000KT 9999 SCT020 25/23 Q1015;
0120827840999992013041109004-07317-039300FM-15+0409SBJU V0209999C000012200019N0112651N1+02501+02401999999ADDGA1041+006001999GF104991999999999999999999MA1101591999999REMMET051METAR SBJU 110900Z 00000KT 9999 SCT020 25/24 Q1016;
0120827840999992013041110004-07317-039300FM-15+0409SBJU V0209999C000012200019N0112651N1+02801+02501999999ADDGA1041+006301999GF104991999999999999999999MA1101691999999REMMET051METAR SBJU 111000Z 00000KT 9999 SCT021 28/25 Q1017;
0120827840999992013041111004-07317-039300FM-15+0409SBJU V0201001N001512200019N0112651N1+02701+02401999999ADDGA1041+006301999GF104991999999999999999999MA1101691999999REMMET051METAR SBJU 111100Z 10003KT 9999 SCT021 27/24 Q1017;
0120827840999992013041112004-07317-039300FM-15+0409SBJU V0201001N001512200019N0112651N1+02901+02401999999ADDGA1041+006301999GF104991999999999999999999MA1101801999999REMMET051METAR SBJU 111200Z 10003KT 9999 SCT021 29/24 Q1018;
0120827840999992013041113004-07317-039300FM-15+0409SBJU V0201301N003112200019N0112651N1+03001+02401999999ADDGA1041+006301999GF104991999999999999999999MA1101801999999REMMET051METAR SBJU 111300Z 13006KT 9999 SCT021 30/24 Q1018;
0120827840999992013041114004-07317-039300FM-15+0409SBJU V0201501N003612200019N0112651N1+03101+02401999999ADDGA1041+006601999GF104991999999999999999999MA1101691999999REMMET051METAR SBJU 111400Z 15007KT 9999 SCT022 31/24 Q1017;
0120827840999992013041115004-07317-039300FM-15+0409SBJU V0201001N003112200019N0112651N1+03201+02301999999ADDGA1021+006601999GF102991999999999999999999MA1101591999999REMMET051METAR SBJU 111500Z 10006KT 9999 FEW022 32/23 Q1016;
0120827840999992013041116004-07317-039300FM-15+0409SBJU V0200901N004112200019N0112651N1+03301+02101999999ADDGA1021+006601999GF102991999999999999999999MA1101491999999REMMET051METAR SBJU 111600Z 09008KT 9999 FEW022 33/21 Q1015;
0120827840999992013041117004-07317-039300FM-15+0409SBJU V0200801N002112200019N0112651N1+03301+02201999999ADDGA1021+006601999GF102991999999999999999999MA1101391999999REMMET051METAR SBJU 111700Z 08004KT 9999 FEW022 33/22 Q1014;
0120827840999992013041118004-07317-039300FM-15+0409SBJU V0201001N003612200019N0112651N1+03301+02101999999ADDGA1021+006601999GF102991999999999999999999MA1101391999999REMMET051METAR SBJU 111800Z 10007KT 9999 FEW022 33/21 Q1014;
0120827840999992013041119004-07317-039300FM-15+0409SBJU V0201101N003112200019N0112651N1+03401+02101999999ADDGA1021+006601999GF102991999999999999999999MA1101291999999REMMET051METAR SBJU 111900Z 11006KT 9999 FEW022 34/21 Q1013;
0120827840999992013041120004-07317-039300FM-15+0409SBJU V0200801N001512200019N0112651N1+03301+02101999999ADDGA1021+006601999GF102991999999999999999999MA1101291999999REMMET051METAR SBJU 112000Z 08003KT 9999 FEW022 33/21 Q1013;
0120827840999992013041121004-07317-039300FM-15+0409SBJU V0209999C000012200019N0112651N1+03101+02301999999ADDGA1021+006601999GF102991999999999999999999MA1101391999999REMMET051METAR SBJU 112100Z 00000KT 9999 FEW022 31/23 Q1014;
0120827840999992013041122004-07317-039300FM-15+0409SBJU V0209999C000012200019N0112651N1+03001+02301999999ADDGA1021+006001999GF102991999999999999999999MA1101391999999REMMET051METAR SBJU 112200Z 00000KT 9999 FEW020 30/23 Q1014;
0120827840999992013041123004-07317-039300FM-15+0409SBJU V0202401N002112200019N0112651N1+02901+02301999999ADDGA1021+006001999GF102991999999999999999999MA1101491999999REMMET051METAR SBJU 112300Z 24004KT 9999 FEW020 29/23 Q1015;
0120827840999992013041200004-07317-039300FM-15+0409SBJU V0202401N001512200019N0112651N1+02801+02201999999ADDGA1041+006001999GF104991999999999999999999MA1101491999999REMMET051METAR SBJU 120000Z 24003KT 9999 SCT020 28/22 Q1015;
0120827840999992013041201004-07317-039300FM-15+0409SBJU V0209999C000012200019N0112651N1+02701+02401999999ADDGA1041+006001999GF104991999999999999999999MA1101591999999REMMET051METAR SBJU 120100Z 00000KT 9999 SCT020 27/24 Q1016;
0120827840999992013041202004-07317-039300FM-15+0409SBJU V0209999C000012200019N0112651N1+02701+02501999999ADDGA1041+006001999GF104991999999999999999999MA1101591999999REMMET051METAR SBJU 120200Z 00000KT 9999 SCT020 27/25 Q1016;
0120827840999992013041203004-07317-039300FM-15+0409SBJU V0209999C000012200019N0112651N1+02601+02401999999ADDGA1041+006001999GF104991999999999999999999MA1101591999999REMMET051METAR SBJU 120300Z 00000KT 9999 SCT020 26/24 Q1016;
0120827840999992013041204004-07317-039300FM-15+0409SBJU V0201301N001012200019N0112651N1+02701+02301999999ADDGA1041+006001999GF104991999999999999999999MA1101591999999REMMET051METAR SBJU 120400Z 13002KT 9999 SCT020 27/23 Q1016;
0120827840999992013041205004-07317-039300FM-15+0409SBJU V0209999C000012200019N0112651N1+02601+02301999999ADDGA1041+006001999GF104991999999999999999999MA1101591999999REMMET051METAR SBJU 120500Z 00000KT 9999 SCT020 26/23 Q1016;
0120827840999992013041206004-07317-039300FM-15+0409SBJU V0209999C000012200019N0112651N1+02701+02401999999ADDGA1041+006001999GF104991999999999999999999MA1101591999999REMMET051METAR SBJU 120600Z 00000KT 9999 SCT020 27/24 Q1016;
0149827840999992013041207004-07317-039300FM-15+0409SBJU V0201201N001512200019N0090001N1+02501+02401999999ADDGA1041+006001999GA2021+006601021MA1101591999999MW1611REMMET065METAR SBJU 120700Z 12003KT 9000 -RA SCT020 FEW022TCU 25/24 Q1016;EQDQ01+000022SCOTCV
0149827840999992013041208004-07317-039300FM-15+0409SBJU V0209999C00001006001CN0080001N1+02501+02401999999ADDGA1071+006001999GA2021+006601021MA1101591999999MW1611REMMET065METAR SBJU 120800Z 00000KT 8000 -RA BKN020 FEW022TCU 25/24 Q1016;EQDQ01+000022SCOTCV
0153827840999992013041209004-07317-039300FM-15+0409SBJU V0209999C000010054019N0090001N1+02501+02501999999ADDGA1041+003301999GA2071+005401999GF107991999999999999999999MA1101691999999MW1611REMMET062METAR SBJU 120900Z 00000KT 9000 -RA SCT011 BKN018 25/25 Q1017;
0170827840999992013041209354-07317-039300FM-15+0409SBJU V0201201N001510051019N0030001N1+02501+02501999999ADDGA1041+003001999GA2071+005101999GA3071+021001999GF107991999999999999999999MW1101MW2631REMMET072SPECI SBJU 120935Z 12003KT 3000 RA BR SCT010 BKN017 BKN070 25/25 Q101 7;
0190827840999992013041210004-07317-039300FM-15+0409SBJU V0201201N002610051019N0040001N1+02501+02401999999ADDGA1041+003001999GA2071+005101999GA3071+021001999GF107991999999999999999999MA1101691999999MW1101MW2611REMMET077METAR SBJU 121000Z 12005KT 4000 -RA BR SCT010 BKN017 BKN070 25/24 Q1017 RERA;
0162827840999992013041210254-07317-039300FM-15+0409SBJU V0202501N001010054019N0050001N1+02501+02501999999ADDGA1041+003001999GA2071+005401999GF107991999999999999999999MA1101801999999MW1101MW2611REMMET065SPECI SBJU 121025Z 25002KT 5000 -RA BR SCT010 BKN018 25/25 Q1018;
0143827840999992013041211004-07317-039300FM-15+0409SBJU V0202501N001010057019N0060001N1+02601+02501999999ADDGA1041+003001999GA2071+005701999GF107991999999999999999999MA1101801999999REMMET058METAR SBJU 121100Z 25002KT 6000 SCT010 BKN019 26/25 Q1018;
0143827840999992013041212004-07317-039300FM-15+0409SBJU V0201701N003110057019N0090001N1+02801+02601999999ADDGA1041+003001999GA2071+005701999GF107991999999999999999999MA1101801999999REMMET058METAR SBJU 121200Z 17006KT 9000 SCT010 BKN019 28/26 Q1018;
0120827840999992013041213004-07317-039300FM-15+0409SBJU V0201401N004110063019N0112651N1+03001+02401999999ADDGA1071+006301999GF107991999999999999999999MA1101801999999REMMET051METAR SBJU 121300Z 14008KT 9999 BKN021 30/24 Q1018;
0120827840999992013041214004-07317-039300FM-15+0409SBJU V0201401N004610063019N0112651N1+03101+02401999999ADDGA1071+006301999GF107991999999999999999999MA1101691999999REMMET051METAR SBJU 121400Z 14009KT 9999 BKN021 31/24 Q1017;
0120827840999992013041215004-07317-039300FM-15+0409SBJU V0201601N004610063019N0112651N1+03201+02301999999ADDGA1071+006301999GF107991999999999999999999MA1101591999999REMMET051METAR SBJU 121500Z 16009KT 9999 BKN021 32/23 Q1016;
0120827840999992013041216004-07317-039300FM-15+0409SBJU V0201501N003612200019N0112651N1+03101+02201999999ADDGA1041+006001999GF104991999999999999999999MA1101491999999REMMET051METAR SBJU 121600Z 15007KT 9999 SCT020 31/22 Q1015;
0120827840999992013041217004-07317-039300FM-15+0409SBJU V0201301N003612200019N0112651N1+03201+02201999999ADDGA1041+006601999GF104991999999999999999999MA1101391999999REMMET051METAR SBJU 121700Z 13007KT 9999 SCT022 32/22 Q1014;
0120827840999992013041218004-07317-039300FM-15+0409SBJU V0200901N002112200019N0112651N1+03201+02201999999ADDGA1021+006301999GF102991999999999999999999MA1101391999999REMMET051METAR SBJU 121800Z 09004KT 9999 FEW021 32/22 Q1014;
0120827840999992013041219004-07317-039300FM-15+0409SBJU V0200901N002612200019N0112651N1+03201+02201999999ADDGA1021+006001999GF102991999999999999999999MA1101291999999REMMET051METAR SBJU 121900Z 09005KT 9999 FEW020 32/22 Q1013;
0120827840999992013041220004-07317-039300FM-15+0409SBJU V0200601N001512200019N0112651N1+03201+02201999999ADDGA1021+006001999GF102991999999999999999999MA1101291999999REMMET051METAR SBJU 122000Z 06003KT 9999 FEW020 32/22 Q1013;
0120827840999992013041221004-07317-039300FM-15+0409SBJU V0209999C000012200019N0112651N1+03101+02301999999ADDGA1021+006001999GF102991999999999999999999MA1101391999999REMMET051METAR SBJU 122100Z 00000KT 9999 FEW020 31/23 Q1014;
0072827840999992013041222004-07317-039300FM-15+0409SBJU V0209999C000019999999Y0099001N1+03001+02301999999ADDMA1101391999999REMMET045METAR SBJU 122200Z 00000KT CAVOK 30/23 Q1014;
0072827840999992013041223004-07317-039300FM-15+0409SBJU V0209999C000019999999Y0099001N1+02801+02401999999ADDMA1101491999999REMMET045METAR SBJU 122300Z 00000KT CAVOK 28/24 Q1015;
0072827840999992013041300004-07317-039300FM-15+0409SBJU V0209999C000019999999Y0099001N1+02701+02401999999ADDMA1101591999999REMMET045METAR SBJU 130000Z 00000KT CAVOK 27/24 Q1016;
0072827840999992013041301004-07317-039300FM-15+0409SBJU V0209999C000019999999Y0099001N1+02701+02401999999ADDMA1101591999999REMMET045METAR SBJU 130100Z 00000KT CAVOK 27/24 Q1016;
0072827840999992013041302004-07317-039300FM-15+0409SBJU V0209999C000019999999Y0099001N1+02601+02401999999ADDMA1101591999999REMMET045METAR SBJU 130200Z 00000KT CAVOK 26/24 Q1016;
0072827840999992013041303004-07317-039300FM-15+0409SBJU V0209999C000019999999Y0099001N1+02601+02501999999ADDMA1101491999999REMMET045METAR SBJU 130300Z 00000KT CAVOK 26/25 Q1015;
0120827840999992013041304004-07317-039300FM-15+0409SBJU V0201201N002110060019N0112651N1+02501+02401999999ADDGA1071+006001999GF107991999999999999999999MA1101591999999REMMET051METAR SBJU 130400Z 12004KT 9999 BKN020 25/24 Q1016;
0120827840999992013041305004-07317-039300FM-15+0409SBJU V0202801N001010060019N0112651N1+02601+02301999999ADDGA1071+006001999GF107991999999999999999999MA1101491999999REMMET051METAR SBJU 130500Z 28002KT 9999 BKN020 26/23 Q1015;
0120827840999992013041306004-07317-039300FM-15+0409SBJU V0202401N002110060019N0112651N1+02501+02301999999ADDGA1071+006001999GF107991999999999999999999MA1101491999999REMMET051METAR SBJU 130600Z 24004KT 9999 BKN020 25/23 Q1015;
0120827840999992013041307004-07317-039300FM-15+0409SBJU V0203401N001010060019N0112651N1+02501+02301999999ADDGA1071+006001999GF107991999999999999999999MA1101491999999REMMET051METAR SBJU 130700Z 34002KT 9999 BKN020 25/23 Q1015;
0120827840999992013041308004-07317-039300FM-15+0409SBJU V0209999C000010060019N0112651N1+02401+02301999999ADDGA1071+006001999GF107991999999999999999999MA1101491999999REMMET051METAR SBJU 130800Z 00000KT 9999 BKN020 24/23 Q1015;
0120827840999992013041309004-07317-039300FM-15+0409SBJU V0202001N001012200019N0112651N1+02401+02301999999ADDGA1021+006001999GF102991999999999999999999MA1101491999999REMMET051METAR SBJU 130900Z 20002KT 9999 FEW020 24/23 Q1015;
0120827840999992013041310004-07317-039300FM-15+0409SBJU V0209999C000012200019N0112651N1+02601+02401999999ADDGA1021+006001999GF102991999999999999999999MA1101591999999REMMET051METAR SBJU 131000Z 00000KT 9999 FEW020 26/24 Q1016;
0072827840999992013041311004-07317-039300FM-15+0409SBJU V0209999C000019999999Y0099001N1+02901+02501999999ADDMA1101691999999REMMET045METAR SBJU 131100Z 00000KT CAVOK 29/25 Q1017;
0120827840999992013041312004-07317-039300FM-15+0409SBJU V0209999C000012200019N0112651N1+03001+02401999999ADDGA1021+006301999GF102991999999999999999999MA1101691999999REMMET051METAR SBJU 131200Z 00000KT 9999 FEW021 30/24 Q1017;
0120827840999992013041313004-07317-039300FM-15+0409SBJU V0201101N003112200019N0112651N1+03101+02501999999ADDGA1041+006301999GF104991999999999999999999MA1101691999999REMMET051METAR SBJU 131300Z 11006KT 9999 SCT021 31/25 Q1017;
0120827840999992013041314004-07317-039300FM-15+0409SBJU V0201201N001012200019N0112651N1+03101+02501999999ADDGA1041+006601999GF104991999999999999999999MA1101591999999REMMET051METAR SBJU 131400Z 12002KT 9999 SCT022 31/25 Q1016;
0120827840999992013041315004-07317-039300FM-15+0409SBJU V0200801N003112200019N0112651N1+03201+02301999999ADDGA1041+006601999GF104991999999999999999999MA1101491999999REMMET051METAR SBJU 131500Z 08006KT 9999 SCT022 32/23 Q1015;
0120827840999992013041316004-07317-039300FM-15+0409SBJU V0201001N003112200019N0112651N1+03301+02201999999ADDGA1041+006601999GF104991999999999999999999MA1101391999999REMMET051METAR SBJU 131600Z 10006KT 9999 SCT022 33/22 Q1014;
0120827840999992013041317004-07317-039300FM-15+0409SBJU V0201201N003112200019N0112651N1+03301+02201999999ADDGA1041+006601999GF104991999999999999999999MA1101291999999REMMET051METAR SBJU 131700Z 12006KT 9999 SCT022 33/22 Q1013;
0072827840999992013041318004-07317-039300FM-15+0409SBJU V0200901N002619999999Y0099001N1+03301+02101999999ADDMA1101291999999REMMET045METAR SBJU 131800Z 09005KT CAVOK 33/21 Q1013;
0072827840999992013041319004-07317-039300FM-15+0409SBJU V0200801N002619999999Y0099001N1+03301+02201999999ADDMA1101291999999REMMET045METAR SBJU 131900Z 08005KT CAVOK 33/22 Q1013;
0072827840999992013041320004-07317-039300FM-15+0409SBJU V0200701N002119999999Y0099001N1+03301+02301999999ADDMA1101291999999REMMET045METAR SBJU 132000Z 07004KT CAVOK 33/23 Q1013;
0072827840999992013041321004-07317-039300FM-15+0409SBJU V0209999C000019999999Y0099001N1+03201+02401999999ADDMA1101291999999REMMET045METAR SBJU 132100Z 00000KT CAVOK 32/24 Q1013;
0120827840999992013041322004-07317-039300FM-15+0409SBJU V0202001N001512200019N0112651N1+03001+02501999999ADDGA1041+006001999GF104991999999999999999999MA1101291999999REMMET051METAR SBJU 132200Z 20003KT 9999 SCT020 30/25 Q1013;
0120827840999992013041323004-07317-039300FM-15+0409SBJU V0202401N001512200019N0112651N1+02901+02401999999ADDGA1041+006001999GF104991999999999999999999MA1101391999999REMMET051METAR SBJU 132300Z 24003KT 9999 SCT020 29/24 Q1014;
0120827840999992013041400004-07317-039300FM-15+0409SBJU V0209999C000012200019N0112651N1+02801+02401999999ADDGA1041+006001999GF104991999999999999999999MA1101391999999REMMET051METAR SBJU 140000Z 00000KT 9999 SCT020 28/24 Q1014;
0120827840999992013041401004-07317-039300FM-15+0409SBJU V0209999C000012200019N0112651N1+02701+02301999999ADDGA1041+006001999GF104991999999999999999999MA1101391999999REMMET051METAR SBJU 140100Z 00000KT 9999 SCT020 27/23 Q1014;
0120827840999992013041402004-07317-039300FM-15+0409SBJU V0209999C000012200019N0112651N1+02601+02401999999ADDGA1041+006001999GF104991999999999999999999MA1101391999999REMMET051METAR SBJU 140200Z 00000KT 9999 SCT020 26/24 Q1014;
0120827840999992013041403004-07317-039300FM-15+0409SBJU V0200701N001512200019N0112651N1+02601+02401999999ADDGA1041+006001999GF104991999999999999999999MA1101391999999REMMET051METAR SBJU 140300Z 07003KT 9999 SCT020 26/24 Q1014;
0120827840999992013041404004-07317-039300FM-15+0409SBJU V0200901N001012200019N0112651N1+02701+02401999999ADDGA1021+006001999GF102991999999999999999999MA1101491999999REMMET051METAR SBJU 140400Z 09002KT 9999 FEW020 27/24 Q1015;
0120827840999992013041405004-07317-039300FM-15+0409SBJU V0209999C000012200019N0112651N1+02601+02401999999ADDGA1021+006001999GF102991999999999999999999MA1101391999999REMMET051METAR SBJU 140500Z 00000KT 9999 FEW020 26/24 Q1014;
0120827840999992013041406004-07317-039300FM-15+0409SBJU V0209999C000012200019N0112651N1+02601+02401999999ADDGA1021+006001999GF102991999999999999999999MA1101391999999REMMET051METAR SBJU 140600Z 00000KT 9999 FEW020 26/24 Q1014;
0120827840999992013041407004-07317-039300FM-15+0409SBJU V0209999C000012200019N0112651N1+02601+02401999999ADDGA1021+006001999GF102991999999999999999999MA1101391999999REMMET051METAR SBJU 140700Z 00000KT 9999 FEW020 26/24 Q1014;
0120827840999992013041408004-07317-039300FM-15+0409SBJU V0209999C000012200019N0112651N1+02601+02401999999ADDGA1021+006001999GF102991999999999999999999MA1101391999999REMMET051METAR SBJU 140800Z 00000KT 9999 FEW020 26/24 Q1014;
0120827840999992013041409004-07317-039300FM-15+0409SBJU V0209999C000010060019N0112651N1+02501+02401999999ADDGA1071+006001999GF107991999999999999999999MA1101491999999REMMET051METAR SBJU 140900Z 00000KT 9999 BKN020 25/24 Q1015;
0120827840999992013041410004-07317-039300FM-15+0409SBJU V0209999C000010060019N0112651N1+02601+02501999999ADDGA1071+006001999GF107991999999999999999999MA1101591999999REMMET051METAR SBJU 141000Z 00000KT 9999 BKN020 26/25 Q1016;
0120827840999992013041411004-07317-039300FM-15+0409SBJU V0209999C000012200019N0112651N1+02701+02501999999ADDGA1041+006001999GF104991999999999999999999MA1101591999999REMMET051METAR SBJU 141100Z 00000KT 9999 SCT020 27/25 Q1016;
0120827840999992013041412004-07317-039300FM-15+0409SBJU V0209999C000012200019N0112651N1+02901+02501999999ADDGA1021+006001999GF102991999999999999999999MA1101691999999REMMET051METAR SBJU 141200Z 00000KT 9999 FEW020 29/25 Q1017;
0072827840999992013041413004-07317-039300FM-15+0409SBJU V0209999C000019999999Y0099001N1+03001+02401999999ADDMA1101591999999REMMET045METAR SBJU 141300Z 00000KT CAVOK 30/24 Q1016;
0072827840999992013041414004-07317-039300FM-15+0409SBJU V0209999C000019999999Y0099001N1+03201+02501999999ADDMA1101591999999REMMET045METAR SBJU 141400Z 00000KT CAVOK 32/25 Q1016;
0072827840999992013041415004-07317-039300FM-15+0409SBJU V0209999C000019999999Y0099001N1+03201+02401999999ADDMA1101491999999REMMET045METAR SBJU 141500Z 00000KT CAVOK 32/24 Q1015;
0120827840999992013041416004-07317-039300FM-15+0409SBJU V0201401N001512200019N0112651N1+03301+02501999999ADDGA1021+006001999GF102991999999999999999999MA1101291999999REMMET051METAR SBJU 141600Z 14003KT 9999 FEW020 33/25 Q1013;
0120827840999992013041417004-07317-039300FM-15+0409SBJU V0200601N002612200019N0112651N1+03301+02501999999ADDGA1021+006601999GF102991999999999999999999MA1101291999999REMMET051METAR SBJU 141700Z 06005KT 9999 FEW022 33/25 Q1013;
0120827840999992013041418004-07317-039300FM-15+0409SBJU V0201301N002612200019N0112651N1+03301+02401999999ADDGA1041+006601999GF104991999999999999999999MA1101191999999REMMET051METAR SBJU 141800Z 13005KT 9999 SCT022 33/24 Q1012;
0120827840999992013041419004-07317-039300FM-15+0409SBJU V0201301N001012200019N0112651N1+03401+02501999999ADDGA1041+006001999GF104991999999999999999999MA1101191999999REMMET051METAR SBJU 141900Z 13002KT 9999 SCT020 34/25 Q1012;
0120827840999992013041420004-07317-039300FM-15+0409SBJU V0200201N001512200019N0112651N1+03401+02401999999ADDGA1041+006601999GF104991999999999999999999MA1101191999999REMMET051METAR SBJU 142000Z 02003KT 9999 SCT022 34/24 Q1012;
0120827840999992013041421004-07317-039300FM-15+0409SBJU V0209999C000012200019N0112651N1+03201+02501999999ADDGA1021+006601999GF102991999999999999999999MA1101291999999REMMET051METAR SBJU 142100Z 00000KT 9999 FEW022 32/25 Q1013;
0120827840999992013041422004-07317-039300FM-15+0409SBJU V0209999C000012200019N0112651N1+03001+02501999999ADDGA1021+006601999GF102991999999999999999999MA1101291999999REMMET051METAR SBJU 142200Z 00000KT 9999 FEW022 30/25 Q1013;
0120827840999992013041423004-07317-039300FM-15+0409SBJU V0202201N001512200019N0112651N1+02801+02601999999ADDGA1021+006601999GF102991999999999999999999MA1101391999999REMMET051METAR SBJU 142300Z 22003KT 9999 FEW022 28/26 Q1014;
0120827840999992013041500004-07317-039300FM-15+0409SBJU V0202401N002112200019N0112651N1+02801+02501999999ADDGA1021+006601999GF102991999999999999999999MA1101491999999REMMET051METAR SBJU 150000Z 24004KT 9999 FEW022 28/25 Q1015;
0120827840999992013041501004-07317-039300FM-15+0409SBJU V0202501N001012200019N0112651N1+02801+02501999999ADDGA1021+006601999GF102991999999999999999999MA1101491999999REMMET051METAR SBJU 150100Z 25002KT 9999 FEW022 28/25 Q1015;
0120827840999992013041502004-07317-039300FM-15+0409SBJU V0209999C000012200019N0112651N1+02701+02501999999ADDGA1021+006001999GF102991999999999999999999MA1101491999999REMMET051METAR SBJU 150200Z 00000KT 9999 FEW020 27/25 Q1015;
0120827840999992013041503004-07317-039300FM-15+0409SBJU V0200501N001512200019N0112651N1+02701+02501999999ADDGA1021+006001999GF102991999999999999999999MA1101491999999REMMET051METAR SBJU 150300Z 05003KT 9999 FEW020 27/25 Q1015;
0120827840999992013041504004-07317-039300FM-15+0409SBJU V0209999C000012200019N0112651N1+02801+02301999999ADDGA1021+006001999GF102991999999999999999999MA1101591999999REMMET051METAR SBJU 150400Z 00000KT 9999 FEW020 28/23 Q1016;
0120827840999992013041505004-07317-039300FM-15+0409SBJU V0209999C000012200019N0112651N1+02701+02201999999ADDGA1041+006001999GF104991999999999999999999MA1101591999999REMMET051METAR SBJU 150500Z 00000KT 9999 SCT020 27/22 Q1016;
0120827840999992013041506004-07317-039300FM-15+0409SBJU V0209999C000012200019N0112651N1+02701+02201999999ADDGA1041+006001999GF104991999999999999999999MA1101591999999REMMET051METAR SBJU 150600Z 00000KT 9999 SCT020 27/22 Q1016;
0120827840999992013041507004-07317-039300FM-15+0409SBJU V0209999C000012200019N0112651N1+02701+02101999999ADDGA1041+006001999GF104991999999999999999999MA1101591999999REMMET051METAR SBJU 150700Z 00000KT 9999 SCT020 27/21 Q1016;
0120827840999992013041508004-07317-039300FM-15+0409SBJU V0209999C000012200019N0112651N1+02601+02101999999ADDGA1041+006001999GF104991999999999999999999MA1101591999999REMMET051METAR SBJU 150800Z 00000KT 9999 SCT020 26/21 Q1016;
0120827840999992013041509004-07317-039300FM-15+0409SBJU V0209999C000012200019N0112651N1+02601+02201999999ADDGA1041+006001999GF104991999999999999999999MA1101691999999REMMET051METAR SBJU 150900Z 00000KT 9999 SCT020 26/22 Q1017;
0120827840999992013041510004-07317-039300FM-15+0409SBJU V0209999C000012200019N0112651N1+02601+02201999999ADDGA1041+006001999GF104991999999999999999999MA1101691999999REMMET051METAR SBJU 151000Z 00000KT 9999 SCT020 26/22 Q1017;
0120827840999992013041511004-07317-039300FM-15+0409SBJU V0209999C000012200019N0112651N1+02801+02201999999ADDGA1041+006001999GF104991999999999999999999MA1101691999999REMMET051METAR SBJU 151100Z 00000KT 9999 SCT020 28/22 Q1017;
0120827840999992013041512004-07317-039300FM-15+0409SBJU V0200301N001012200019N0112651N1+02901+02201999999ADDGA1021+006001999GF102991999999999999999999MA1101801999999REMMET051METAR SBJU 151200Z 03002KT 9999 FEW020 29/22 Q1018;
0120827840999992013041513004-07317-039300FM-15+0409SBJU V0200201N001512200019N0112651N1+03001+02301999999ADDGA1021+006301999GF102991999999999999999999MA1101691999999REMMET051METAR SBJU 151300Z 02003KT 9999 FEW021 30/23 Q1017;
0120827840999992013041514004-07317-039300FM-15+0409SBJU V0200401N001012200019N0112651N1+03101+02301999999ADDGA1021+006301999GF102991999999999999999999MA1101691999999REMMET051METAR SBJU 151400Z 04002KT 9999 FEW021 31/23 Q1017;
0120827840999992013041515004-07317-039300FM-15+0409SBJU V0203601N001512200019N0112651N1+03201+02301999999ADDGA1041+006601999GF104991999999999999999999MA1101491999999REMMET051METAR SBJU 151500Z 36003KT 9999 SCT022 32/23 Q1015;
0120827840999992013041516004-07317-039300FM-15+0409SBJU V0200301N001512200019N0112651N1+03201+02301999999ADDGA1041+006601999GF104991999999999999999999MA1101391999999REMMET051METAR SBJU 151600Z 03003KT 9999 SCT022 32/23 Q1014;
0120827840999992013041517004-07317-039300FM-15+0409SBJU V0200701N001512200019N0112651N1+03301+02501999999ADDGA1041+006601999GF104991999999999999999999MA1101391999999REMMET051METAR SBJU 151700Z 07003KT 9999 SCT022 33/25 Q1014;
0120827840999992013041518004-07317-039300FM-15+0409SBJU V0201201N001512200019N0112651N1+03301+02501999999ADDGA1041+006601999GF104991999999999999999999MA1101291999999REMMET051METAR SBJU 151800Z 12003KT 9999 SCT022 33/25 Q1013;
0120827840999992013041519004-07317-039300FM-15+0409SBJU V0200701N003112200019N0112651N1+03301+02401999999ADDGA1041+006901999GF104991999999999999999999MA1101291999999REMMET051METAR SBJU 151900Z 07006KT 9999 SCT023 33/24 Q1013;
0120827840999992013041520004-07317-039300FM-15+0409SBJU V0200301N001012200019N0112651N1+03301+02401999999ADDGA1021+006901999GF102991999999999999999999MA1101191999999REMMET051METAR SBJU 152000Z 03002KT 9999 FEW023 33/24 Q1012;
0120827840999992013041521004-07317-039300FM-15+0409SBJU V0209999C000012200019N0112651N1+03101+02501999999ADDGA1021+006901999GF102991999999999999999999MA1101291999999REMMET051METAR SBJU 152100Z 00000KT 9999 FEW023 31/25 Q1013;
0120827840999992013041522004-07317-039300FM-15+0409SBJU V0209999C000012200019N0112651N1+03101+02501999999ADDGA1021+006901999GF102991999999999999999999MA1101291999999REMMET051METAR SBJU 152200Z 00000KT 9999 FEW023 31/25 Q1013;
0120827840999992013041523004-07317-039300FM-15+0409SBJU V0202001N001512200019N0112651N1+02901+02601999999ADDGA1021+006901999GF102991999999999999999999MA1101391999999REMMET051METAR SBJU 152300Z 20003KT 9999 FEW023 29/26 Q1014;
0120827840999992013041600004-07317-039300FM-15+0409SBJU V0202601N002112200019N0112651N1+02801+02501999999ADDGA1021+006601999GF102991999999999999999999MA1101391999999REMMET051METAR SBJU 160000Z 26004KT 9999 FEW022 28/25 Q1014;
0120827840999992013041601004-07317-039300FM-15+0409SBJU V0202701N001512200019N0112651N1+02801+02501999999ADDGA1021+006901999GF102991999999999999999999MA1101491999999REMMET051METAR SBJU 160100Z 27003KT 9999 FEW023 28/25 Q1015;
0120827840999992013041602004-07317-039300FM-15+0409SBJU V0209999C000012200019N0112651N1+02701+02501999999ADDGA1021+006601999GF102991999999999999999999MA1101491999999REMMET051METAR SBJU 160200Z 00000KT 9999 FEW022 27/25 Q1015;
0120827840999992013041603004-07317-039300FM-15+0409SBJU V0209999C000012200019N0112651N1+02601+02501999999ADDGA1021+006001999GF102991999999999999999999MA1101491999999REMMET051METAR SBJU 160300Z 00000KT 9999 FEW020 26/25 Q1015;
0120827840999992013041604004-07317-039300FM-15+0409SBJU V0209999C000012200019N0112651N1+02801+02501999999ADDGA1021+006001999GF102991999999999999999999MA1101491999999REMMET051METAR SBJU 160400Z 00000KT 9999 FEW020 28/25 Q1015;
0120827840999992013041605004-07317-039300FM-15+0409SBJU V0201201N001012200019N0112651N1+02701+02501999999ADDGA1021+006001999GF102991999999999999999999MA1101491999999REMMET051METAR SBJU 160500Z 12002KT 9999 FEW020 27/25 Q1015;
0143827840999992013041606004-07317-039300FM-15+0409SBJU V0201101N003612200019N0112651N1+02701+02501999999ADDGA1021+006001999GA2041+021001999GF104991999999999999999999MA1101491999999REMMET058METAR SBJU 160600Z 11007KT 9999 FEW020 SCT070 27/25 Q1015;
0143827840999992013041607004-07317-039300FM-15+0409SBJU V0209999C000012200019N0112651N1+02601+02401999999ADDGA1021+006001999GA2041+021001999GF104991999999999999999999MA1101491999999REMMET058METAR SBJU 160700Z 00000KT 9999 FEW020 SCT070 26/24 Q1015;
0143827840999992013041608004-07317-039300FM-15+0409SBJU V0209999C000012200019N0112651N1+02601+02401999999ADDGA1021+006001999GA2041+021001999GF104991999999999999999999MA1101591999999REMMET058METAR SBJU 160800Z 00000KT 9999 FEW020 SCT070 26/24 Q1016;
0120827840999992013041609004-07317-039300FM-15+0409SBJU V0209999C000010060019N0112651N1+02501+02401999999ADDGA1071+006001999GF107991999999999999999999MA1101591999999REMMET051METAR SBJU 160900Z 00000KT 9999 BKN020 25/24 Q1016;
0120827840999992013041610004-07317-039300FM-15+0409SBJU V0201501N003112200019N0112651N1+02701+02401999999ADDGA1041+006001999GF104991999999999999999999MA1101591999999REMMET051METAR SBJU 161000Z 15006KT 9999 SCT020 27/24 Q1016;
0120827840999992013041611004-07317-039300FM-15+0409SBJU V0201001N002110060019N0112651N1+02801+02401999999ADDGA1071+006001999GF107991999999999999999999MA1101691999999REMMET051METAR SBJU 161100Z 10004KT 9999 BKN020 28/24 Q1017;
0120827840999992013041612004-07317-039300FM-15+0409SBJU V0201001N002610060019N0112651N1+02801+02401999999ADDGA1071+006001999GF107991999999999999999999MA1101691999999REMMET051METAR SBJU 161200Z 10005KT 9999 BKN020 28/24 Q1017;
0120827840999992013041613004-07317-039300FM-15+0409SBJU V0201601N001010060019N0112651N1+02901+02501999999ADDGA1071+006001999GF107991999999999999999999MA1101691999999REMMET051METAR SBJU 161300Z 16002KT 9999 BKN020 29/25 Q1017;
0120827840999992013041614004-07317-039300FM-15+0409SBJU V0201001N001010060019N0112651N1+03001+02401999999ADDGA1071+006001999GF107991999999999999999999MA1101591999999REMMET051METAR SBJU 161400Z 10002KT 9999 BKN020 30/24 Q1016;
0120827840999992013041615004-07317-039300FM-15+0409SBJU V0200601N002110063019N0112651N1+03101+02301999999ADDGA1071+006301999GF107991999999999999999999MA1101491999999REMMET051METAR SBJU 161500Z 06004KT 9999 BKN021 31/23 Q1015;
0120827840999992013041616004-07317-039300FM-15+0409SBJU V0200101N001512200019N0112651N1+03201+02301999999ADDGA1041+006301999GF104991999999999999999999MA1101391999999REMMET051METAR SBJU 161600Z 01003KT 9999 SCT021 32/23 Q1014;
0120827840999992013041617004-07317-039300FM-15+0409SBJU V0200901N001512200019N0112651N1+03201+02401999999ADDGA1041+006301999GF104991999999999999999999MA1101291999999REMMET051METAR SBJU 161700Z 09003KT 9999 SCT021 32/24 Q1013;
0120827840999992013041618004-07317-039300FM-15+0409SBJU V0200801N002112200019N0112651N1+03201+02301999999ADDGA1041+006301999GF104991999999999999999999MA1101291999999REMMET051METAR SBJU 161800Z 08004KT 9999 SCT021 32/23 Q1013;
0120827840999992013041619004-07317-039300FM-15+0409SBJU V0201001N002112200019N0112651N1+03101+02401999999ADDGA1041+006301999GF104991999999999999999999MA1101191999999REMMET051METAR SBJU 161900Z 10004KT 9999 SCT021 31/24 Q1012;
0120827840999992013041620004-07317-039300FM-15+0409SBJU V0200901N001512200019N0112651N1+03101+02401999999ADDGA1021+006301999GF102991999999999999999999MA1101191999999REMMET051METAR SBJU 162000Z 09003KT 9999 FEW021 31/24 Q1012;
0120827840999992013041621004-07317-039300FM-15+0409SBJU V0209999C000012200019N0112651N1+03001+02401999999ADDGA1021+006301999GF102991999999999999999999MA1101291999999REMMET051METAR SBJU 162100Z 00000KT 9999 FEW021 30/24 Q1013;
0120827840999992013041622004-07317-039300FM-15+0409SBJU V0209999C000012200019N0112651N1+02901+02401999999ADDGA1021+006301999GF102991999999999999999999MA1101291999999REMMET051METAR SBJU 162200Z 00000KT 9999 FEW021 29/24 Q1013;
0120827840999992013041623004-07317-039300FM-15+0409SBJU V0202501N001512200019N0112651N1+02801+02501999999ADDGA1021+006301999GF102991999999999999999999MA1101391999999REMMET051METAR SBJU 162300Z 25003KT 9999 FEW021 28/25 Q1014;
0120827840999992013041700004-07317-039300FM-15+0409SBJU V0209999C000012200019N0112651N1+02701+02401999999ADDGA1021+006301999GF102991999999999999999999MA1101491999999REMMET051METAR SBJU 170000Z 00000KT 9999 FEW021 27/24 Q1015;
0120827840999992013041701004-07317-039300FM-15+0409SBJU V0202601N001012200019N0112651N1+02501+02501999999ADDGA1021+006001999GF102991999999999999999999MA1101491999999REMMET051METAR SBJU 170100Z 26002KT 9999 FEW020 25/25 Q1015;
0120827840999992013041702004-07317-039300FM-15+0409SBJU V0200501N002112200019N0112651N1+02601+02401999999ADDGA1021+006001999GF102991999999999999999999MA1101491999999REMMET051METAR SBJU 170200Z 05004KT 9999 FEW020 26/24 Q1015;
0120827840999992013041703004-07317-039300FM-15+0409SBJU V0209999C000012200019N0112651N1+02501+02401999999ADDGA1021+006001999GF102991999999999999999999MA1101491999999REMMET051METAR SBJU 170300Z 00000KT 9999 FEW020 25/24 Q1015;
0120827840999992013041704004-07317-039300FM-15+0409SBJU V0200501N002112200019N0112651N1+02701+02401999999ADDGA1041+006001999GF104991999999999999999999MA1101491999999REMMET051METAR SBJU 170400Z 05004KT 9999 SCT020 27/24 Q1015;
0120827840999992013041705004-07317-039300FM-15+0409SBJU V0201801N001010060019N0112651N1+02701+02401999999ADDGA1071+006001999GF107991999999999999999999MA1101491999999REMMET051METAR SBJU 170500Z 18002KT 9999 BKN020 27/24 Q1015;
0120827840999992013041706004-07317-039300FM-15+0409SBJU V0200601N001010060019N0112651N1+02701+02401999999ADDGA1071+006001999GF107991999999999999999999MA1101491999999REMMET051METAR SBJU 170600Z 06002KT 9999 BKN020 27/24 Q1015;
0120827840999992013041707004-07317-039300FM-15+0409SBJU V0200201N001010060019N0112651N1+02701+02401999999ADDGA1071+006001999GF107991999999999999999999MA1101491999999REMMET051METAR SBJU 170700Z 02002KT 9999 BKN020 27/24 Q1015;
0120827840999992013041708004-07317-039300FM-15+0409SBJU V0200301N001510060019N0112651N1+02601+02401999999ADDGA1071+006001999GF107991999999999999999999MA1101591999999REMMET051METAR SBJU 170800Z 03003KT 9999 BKN020 26/24 Q1016;
0120827840999992013041709004-07317-039300FM-15+0409SBJU V0200301N001010060019N0112651N1+02601+02401999999ADDGA1071+006001999GF107991999999999999999999MA1101591999999REMMET051METAR SBJU 170900Z 03002KT 9999 BKN020 26/24 Q1016;
0120827840999992013041710004-07317-039300FM-15+0409SBJU V0209999C000012200019N0112651N1+02801+02501999999ADDGA1041+006001999GF104991999999999999999999MA1101691999999REMMET051METAR SBJU 171000Z 00000KT 9999 SCT020 28/25 Q1017;
0120827840999992013041711004-07317-039300FM-15+0409SBJU V0200801N001512200019N0112651N1+02901+02401999999ADDGA1041+005401999GF104991999999999999999999MA1101691999999REMMET051METAR SBJU 171100Z 08003KT 9999 SCT018 29/24 Q1017;
0120827840999992013041712004-07317-039300FM-15+0409SBJU V0201001N002112200019N0112651N1+02901+02401999999ADDGA1041+005401999GF104991999999999999999999MA1101691999999REMMET051METAR SBJU 171200Z 10004KT 9999 SCT018 29/24 Q1017;
0120827840999992013041713004-07317-039300FM-15+0409SBJU V0209999C000010054019N0112651N1+03001+02401999999ADDGA1071+005401999GF107991999999999999999999MA1101691999999REMMET051METAR SBJU 171300Z 00000KT 9999 BKN018 30/24 Q1017;
0120827840999992013041714004-07317-039300FM-15+0409SBJU V0201101N001510060019N0112651N1+03101+02401999999ADDGA1071+006001999GF107991999999999999999999MA1101591999999REMMET051METAR SBJU 171400Z 11003KT 9999 BKN020 31/24 Q1016;
0120827840999992013041715004-07317-039300FM-15+0409SBJU V0209999C000010060019N0112651N1+03101+02401999999ADDGA1071+006001999GF107991999999999999999999MA1101491999999REMMET051METAR SBJU 171500Z 00000KT 9999 BKN020 31/24 Q1015;
0120827840999992013041716004-07317-039300FM-15+0409SBJU V0201301N001510060019N0112651N1+03101+02401999999ADDGA1071+006001999GF107991999999999999999999MA1101391999999REMMET051METAR SBJU 171600Z 13003KT 9999 BKN020 31/24 Q1014;
0120827840999992013041717004-07317-039300FM-15+0409SBJU V0200301N001012200019N0112651N1+03301+02401999999ADDGA1041+006601999GF104991999999999999999999MA1101291999999REMMET051METAR SBJU 171700Z 03002KT 9999 SCT022 33/24 Q1013;
0120827840999992013041718004-07317-039300FM-15+0409SBJU V0201201N002112200019N0112651N1+03301+02401999999ADDGA1041+006601999GF104991999999999999999999MA1101191999999REMMET051METAR SBJU 171800Z 12004KT 9999 SCT022 33/24 Q1012;
0120827840999992013041719004-07317-039300FM-15+0409SBJU V0201501N002112200019N0112651N1+03301+02401999999ADDGA1041+006901999GF104991999999999999999999MA1101191999999REMMET051METAR SBJU 171900Z 15004KT 9999 SCT023 33/24 Q1012;
0120827840999992013041720004-07317-039300FM-15+0409SBJU V0209999C000012200019N0112651N1+03201+02301999999ADDGA1041+006601999GF104991999999999999999999MA1101191999999REMMET051METAR SBJU 172000Z 00000KT 9999 SCT022 32/23 Q1012;
0120827840999992013041721004-07317-039300FM-15+0409SBJU V0209999C000012200019N0112651N1+03101+02401999999ADDGA1041+006901999GF104991999999999999999999MA1101191999999REMMET051METAR SBJU 172100Z 00000KT 9999 SCT023 31/24 Q1012;
0072827840999992013041722004-07317-039300FM-15+0409SBJU V0209999C000019999999Y0099001N1+02901+02501999999ADDMA1101291999999REMMET045METAR SBJU 172200Z 00000KT CAVOK 29/25 Q1013;
0072827840999992013041723004-07317-039300FM-15+0409SBJU V0209999C000019999999Y0099001N1+02901+02501999999ADDMA1101391999999REMMET045METAR SBJU 172300Z 00000KT CAVOK 29/25 Q1014;
0072827840999992013041800004-07317-039300FM-15+0409SBJU V0209999C000019999999Y0099001N1+02801+02401999999ADDMA1101391999999REMMET045METAR SBJU 180000Z 00000KT CAVOK 28/24 Q1014;
0120827840999992013041801004-07317-039300FM-15+0409SBJU V0209999C000012200019N0112651N1+02701+02501999999ADDGA1021+006001999GF102991999999999999999999MA1101391999999REMMET051METAR SBJU 180100Z 00000KT 9999 FEW020 27/25 Q1014;
0120827840999992013041802004-07317-039300FM-15+0409SBJU V0209999C000012200019N0112651N1+02701+02501999999ADDGA1041+006001999GF104991999999999999999999MA1101391999999REMMET051METAR SBJU 180200Z 00000KT 9999 SCT020 27/25 Q1014;
0120827840999992013041803004-07317-039300FM-15+0409SBJU V0209999C000012200019N0112651N1+02601+02401999999ADDGA1021+006001999GF102991999999999999999999MA1101491999999REMMET051METAR SBJU 180300Z 00000KT 9999 FEW020 26/24 Q1015;
0120827840999992013041804004-07317-039300FM-15+0409SBJU V0202301N001512200019N0112651N1+02601+02401999999ADDGA1021+006001999GF102991999999999999999999MA1101391999999REMMET051METAR SBJU 180400Z 23003KT 9999 FEW020 26/24 Q1014;
0120827840999992013041805004-07317-039300FM-15+0409SBJU V0202201N001512200019N0112651N1+02501+02401999999ADDGA1041+006001999GF104991999999999999999999MA1101391999999REMMET051METAR SBJU 180500Z 22003KT 9999 SCT020 25/24 Q1014;
0120827840999992013041806004-07317-039300FM-15+0409SBJU V0209999C000012200019N0112651N1+02601+02401999999ADDGA1041+006001999GF104991999999999999999999MA1101391999999REMMET051METAR SBJU 180600Z 00000KT 9999 SCT020 26/24 Q1014;
0120827840999992013041807004-07317-039300FM-15+0409SBJU V0209999C000012200019N0112651N1+02701+02501999999ADDGA1021+006001999GF102991999999999999999999MA1101391999999REMMET051METAR SBJU 180700Z 00000KT 9999 FEW020 27/25 Q1014;
0120827840999992013041808004-07317-039300FM-15+0409SBJU V0209999C000012200019N0112651N1+02601+02401999999ADDGA1041+006001999GF104991999999999999999999MA1101391999999REMMET051METAR SBJU 180800Z 00000KT 9999 SCT020 26/24 Q1014;
0120827840999992013041809004-07317-039300FM-15+0409SBJU V0209999C000010054019N0112651N1+02701+02501999999ADDGA1071+005401999GF107991999999999999999999MA1101491999999REMMET051METAR SBJU 180900Z 00000KT 9999 BKN018 27/25 Q1015;
0120827840999992013041810004-07317-039300FM-15+0409SBJU V0209999C000010054019N0112651N1+02701+02501999999ADDGA1071+005401999GF107991999999999999999999MA1101491999999REMMET051METAR SBJU 181000Z 00000KT 9999 BKN018 27/25 Q1015;
0120827840999992013041811004-07317-039300FM-15+0409SBJU V0209999C000010048019N0112651N1+02801+02501999999ADDGA1071+004801999GF107991999999999999999999MA1101591999999REMMET051METAR SBJU 181100Z 00000KT 9999 BKN016 28/25 Q1016;
0120827840999992013041812004-07317-039300FM-15+0409SBJU V0209999C000010048019N0112651N1+02801+02501999999ADDGA1071+004801999GF107991999999999999999999MA1101591999999REMMET051METAR SBJU 181200Z 00000KT 9999 BKN016 28/25 Q1016;
0120827840999992013041813004-07317-039300FM-15+0409SBJU V0209999C000010048019N0112651N1+02901+02501999999ADDGA1071+004801999GF107991999999999999999999MA1101591999999REMMET051METAR SBJU 181300Z 00000KT 9999 BKN016 29/25 Q1016;
0120827840999992013041814004-07317-039300FM-15+0409SBJU V0201101N003610051019N0112651N1+03101+02501999999ADDGA1071+005101999GF107991999999999999999999MA1101491999999REMMET051METAR SBJU 181400Z 11007KT 9999 BKN017 31/25 Q1015;
0120827840999992013041815004-07317-039300FM-15+0409SBJU V0200901N003110051019N0112651N1+03201+02501999999ADDGA1071+005101999GF107991999999999999999999MA1101391999999REMMET051METAR SBJU 181500Z 09006KT 9999 BKN017 32/25 Q1014;
0120827840999992013041816004-07317-039300FM-15+0409SBJU V0201201N003610060019N0112651N1+03201+02501999999ADDGA1071+006001999GF107991999999999999999999MA1101291999999REMMET051METAR SBJU 181600Z 12007KT 9999 BKN020 32/25 Q1013;
0120827840999992013041817004-07317-039300FM-15+0409SBJU V0201801N002610060019N0112651N1+03201+02501999999ADDGA1071+006001999GF107991999999999999999999MA1101291999999REMMET051METAR SBJU 181700Z 18005KT 9999 BKN020 32/25 Q1013;
0120827840999992013041818004-07317-039300FM-15+0409SBJU V0200901N002612200019N0112651N1+03201+02401999999ADDGA1041+006001999GF104991999999999999999999MA1101191999999REMMET051METAR SBJU 181800Z 09005KT 9999 SCT020 32/24 Q1012;
0146827840999992013041819004-07317-039300FM-15+0409SBJU V0209999C000012200019N0112651N1+03201+02401999999ADDGA1041+006001999GA2041+006601021GF104991999999999999999999MA1101191999999REMMET061METAR SBJU 181900Z 00000KT 9999 SCT020 SCT022TCU 32/24 Q1012;
0146827840999992013041820004-07317-039300FM-15+0409SBJU V0209999C000012200019N0112651N1+03101+02501999999ADDGA1041+006001999GA2041+006601021GF104991999999999999999999MA1101191999999REMMET061METAR SBJU 182000Z 00000KT 9999 SCT020 SCT022TCU 31/25 Q1012;
0146827840999992013041821004-07317-039300FM-15+0409SBJU V0209999C000012200019N0112651N1+03001+02501999999ADDGA1041+006001999GA2041+006601021GF104991999999999999999999MA1101291999999REMMET061METAR SBJU 182100Z 00000KT 9999 SCT020 SCT022TCU 30/25 Q1013;
0123827840999992013041822004-07317-039300FM-15+0409SBJU V0209999C000012200019N0112651N1+02901+02301999999ADDGA1021+006601021GF102991999999999999999999MA1101291999999REMMET054METAR SBJU 182200Z 00000KT 9999 FEW022TCU 29/23 Q1013;
0072827840999992013041823004-07317-039300FM-15+0409SBJU V0209999C000019999999Y0099001N1+02801+02401999999ADDMA1101291999999REMMET045METAR SBJU 182300Z 00000KT CAVOK 28/24 Q1013;
0120827840999992013041900004-07317-039300FM-15+0409SBJU V0209999C000012200019N0112651N1+02801+02401999999ADDGA1021+006001999GF102991999999999999999999MA1101491999999REMMET051METAR SBJU 190000Z 00000KT 9999 FEW020 28/24 Q1015;
0130827840999992013041901004-07317-039300FM-15+0409SBJU V0201401N004112200019N0112651N1+02701+02401999999ADDGA1041+006001999GF104991999999999999999999MA1101591999999MW1611REMMET055METAR SBJU 190100Z 14008KT 9999 -RA SCT020 27/24 Q1016;
0130827840999992013041902004-07317-039300FM-15+0409SBJU V0201401N001012200019N0112651N1+02601+02401999999ADDGA1041+006001999GF104991999999999999999999MA1101591999999MW1611REMMET055METAR SBJU 190200Z 14002KT 9999 -RA SCT020 26/24 Q1016;
0186827840999992013041903004-07317-039300FM-15+0409SBJU V0209999C000012200019N0112651N1+02601+02501999999ADDGA1021+006001999GA2021+006301091GA3041+021001999GF104991999999999999999999MA1101591999999MW1801MW2951REMMET073METAR SBJU 190300Z 00000KT 9999 -TSRA FEW020 FEW021CB SCT070 26/25 Q1016;
0135827840999992013041904004-07317-039300FM-15+0409SBJU V0201801N001012200019N0080001N1+02601+02501999999ADDGA1041+005101999GF104991999999999999999999MA1101491999999MW1611REMMET060METAR SBJU 190400Z 18002KT 8000 -RA SCT017 26/25 Q1015 RETS;
0120827840999992013041905004-07317-039300FM-15+0409SBJU V0209999C000012200019N0112651N1+02501+02501999999ADDGA1041+005101999GF104991999999999999999999MA1101391999999REMMET051METAR SBJU 190500Z 00000KT 9999 SCT017 25/25 Q1014;
0120827840999992013041906004-07317-039300FM-15+0409SBJU V0209999C000012200019N0112651N1+02601+02501999999ADDGA1041+005101999GF104991999999999999999999MA1101391999999REMMET051METAR SBJU 190600Z 00000KT 9999 SCT017 26/25 Q1014;
0120827840999992013041907004-07317-039300FM-15+0409SBJU V0209999C000012200019N0112651N1+02501+02501999999ADDGA1041+005101999GF104991999999999999999999MA1101391999999REMMET051METAR SBJU 190700Z 00000KT 9999 SCT017 25/25 Q1014;
0120827840999992013041908004-07317-039300FM-15+0409SBJU V0209999C000012200019N0112651N1+02501+02501999999ADDGA1041+005101999GF104991999999999999999999MA1101491999999REMMET051METAR SBJU 190800Z 00000KT 9999 SCT017 25/25 Q1015;
0120827840999992013041909004-07317-039300FM-15+0409SBJU V0209999C000010051019N0112651N1+02501+02501999999ADDGA1071+005101999GF107991999999999999999999MA1101491999999REMMET051METAR SBJU 190900Z 00000KT 9999 BKN017 25/25 Q1015;
0120827840999992013041910004-07317-039300FM-15+0409SBJU V0209999C000010060019N0112651N1+02701+02601999999ADDGA1071+006001999GF107991999999999999999999MA1101591999999REMMET051METAR SBJU 191000Z 00000KT 9999 BKN020 27/26 Q1016;
0120827840999992013041911004-07317-039300FM-15+0409SBJU V0209999C000010060019N0112651N1+02701+02501999999ADDGA1071+006001999GF107991999999999999999999MA1101591999999REMMET051METAR SBJU 191100Z 00000KT 9999 BKN020 27/25 Q1016;
0120827840999992013041912004-07317-039300FM-15+0409SBJU V0209999C000010060019N0112651N1+02801+02501999999ADDGA1071+006001999GF107991999999999999999999MA1101591999999REMMET051METAR SBJU 191200Z 00000KT 9999 BKN020 28/25 Q1016;
0120827840999992013041913004-07317-039300FM-15+0409SBJU V0209999C000010060019N0112651N1+02801+02401999999ADDGA1071+006001999GF107991999999999999999999MA1101591999999REMMET051METAR SBJU 191300Z 00000KT 9999 BKN020 28/24 Q1016;
0120827840999992013041914004-07317-039300FM-15+0409SBJU V0201501N002610060019N0112651N1+02901+02401999999ADDGA1071+006001999GF107991999999999999999999MA1101591999999REMMET051METAR SBJU 191400Z 15005KT 9999 BKN020 29/24 Q1016;
0120827840999992013041915004-07317-039300FM-15+0409SBJU V0209999C000010060019N0112651N1+03101+02501999999ADDGA1071+006001999GF107991999999999999999999MA1101491999999REMMET051METAR SBJU 191500Z 00000KT 9999 BKN020 31/25 Q1015;
0120827840999992013041916004-07317-039300FM-15+0409SBJU V0201101N002110060019N0112651N1+03201+02501999999ADDGA1071+006001999GF107991999999999999999999MA1101291999999REMMET051METAR SBJU 191600Z 11004KT 9999 BKN020 32/25 Q1013;
0120827840999992013041917004-07317-039300FM-15+0409SBJU V0201601N001010063019N0112651N1+03201+02501999999ADDGA1071+006301999GF107991999999999999999999MA1101191999999REMMET051METAR SBJU 191700Z 16002KT 9999 BKN021 32/25 Q1012;
0120827840999992013041918004-07317-039300FM-15+0409SBJU V0201601N002612200019N0112651N1+03301+02301999999ADDGA1021+006301999GF102991999999999999999999MA1101191999999REMMET051METAR SBJU 191800Z 16005KT 9999 FEW021 33/23 Q1012;
0120827840999992013041919004-07317-039300FM-15+0409SBJU V0201601N001512200019N0112651N1+03201+02401999999ADDGA1021+006601999GF102991999999999999999999MA1101191999999REMMET051METAR SBJU 191900Z 16003KT 9999 FEW022 32/24 Q1012;
0072827840999992013041920004-07317-039300FM-15+0409SBJU V0202001N001019999999Y0099001N1+03101+02501999999ADDMA1101191999999REMMET045METAR SBJU 192000Z 20002KT CAVOK 31/25 Q1012;
0072827840999992013041921004-07317-039300FM-15+0409SBJU V0202401N001019999999Y0099001N1+02901+02501999999ADDMA1101291999999REMMET045METAR SBJU 192100Z 24002KT CAVOK 29/25 Q1013;
0072827840999992013041922004-07317-039300FM-15+0409SBJU V0202901N001019999999Y0099001N1+02901+02501999999ADDMA1101291999999REMMET045METAR SBJU 192200Z 29002KT CAVOK 29/25 Q1013;
0072827840999992013041923004-07317-039300FM-15+0409SBJU V0202701N002119999999Y0099001N1+02801+02401999999ADDMA1101391999999REMMET045METAR SBJU 192300Z 27004KT CAVOK 28/24 Q1014;
0120827840999992013042000004-07317-039300FM-15+0409SBJU V0202501N001512200019N0112651N1+02801+02301999999ADDGA1021+006301999GF102991999999999999999999MA1101391999999REMMET051METAR SBJU 200000Z 25003KT 9999 FEW021 28/23 Q1014;
0120827840999992013042001004-07317-039300FM-15+0409SBJU V0209999C000012200019N0112651N1+02701+02201999999ADDGA1021+006301999GF102991999999999999999999MA1101391999999REMMET051METAR SBJU 200100Z 00000KT 9999 FEW021 27/22 Q1014;
0120827840999992013042002004-07317-039300FM-15+0409SBJU V0209999C000012200019N0112651N1+02601+02401999999ADDGA1021+006001999GF102991999999999999999999MA1101391999999REMMET051METAR SBJU 200200Z 00000KT 9999 FEW020 26/24 Q1014;
0120827840999992013042003004-07317-039300FM-15+0409SBJU V0209999C000012200019N0112651N1+02601+02301999999ADDGA1021+006001999GF102991999999999999999999MA1101391999999REMMET051METAR SBJU 200300Z 00000KT 9999 FEW020 26/23 Q1014;
0072827840999992013042004004-07317-039300FM-15+0409SBJU V0209999C000019999999Y0099001N1+02501+02101999999ADDMA1101391999999REMMET045METAR SBJU 200400Z 00000KT CAVOK 25/21 Q1014;
0072827840999992013042005004-07317-039300FM-15+0409SBJU V0209999C000019999999Y0099001N1+02601+02201999999ADDMA1101391999999REMMET045METAR SBJU 200500Z 00000KT CAVOK 26/22 Q1014;
0072827840999992013042006004-07317-039300FM-15+0409SBJU V0209999C000019999999Y0099001N1+02601+02201999999ADDMA1101391999999REMMET045METAR SBJU 200600Z 00000KT CAVOK 26/22 Q1014;
0072827840999992013042007004-07317-039300FM-15+0409SBJU V0209999C000019999999Y0099001N1+02601+02301999999ADDMA1101491999999REMMET045METAR SBJU 200700Z 00000KT CAVOK 26/23 Q1015;
0120827840999992013042008004-07317-039300FM-15+0409SBJU V0209999C000012200019N0112651N1+02501+02201999999ADDGA1041+006001999GF104991999999999999999999MA1101491999999REMMET051METAR SBJU 200800Z 00000KT 9999 SCT020 25/22 Q1015;
0120827840999992013042009004-07317-039300FM-15+0409SBJU V0202001N003112200019N0112651N1+02501+02101999999ADDGA1041+006001999GF104991999999999999999999MA1101591999999REMMET051METAR SBJU 200900Z 20006KT 9999 SCT020 25/21 Q1016;
0072827840999992013042010004-07317-039300FM-15+0409SBJU V0201901N002619999999Y0099001N1+02601+02101999999ADDMA1101691999999REMMET045METAR SBJU 201000Z 19005KT CAVOK 26/21 Q1017;
0072827840999992013042011004-07317-039300FM-15+0409SBJU V0202001N002119999999Y0099001N1+02801+02201999999ADDMA1101801999999REMMET045METAR SBJU 201100Z 20004KT CAVOK 28/22 Q1018;
0120827840999992013042012004-07317-039300FM-15+0409SBJU V0201501N002112200019N0112651N1+02801+02101999999ADDGA1021+006301999GF102991999999999999999999MA1101801999999REMMET051METAR SBJU 201200Z 15004KT 9999 FEW021 28/21 Q1018;
0120827840999992013042013004-07317-039300FM-15+0409SBJU V0201301N003112200019N0112651N1+02901+02201999999ADDGA1041+006301999GF104991999999999999999999MA1101801999999REMMET051METAR SBJU 201300Z 13006KT 9999 SCT021 29/22 Q1018;
0120827840999992013042014004-07317-039300FM-15+0409SBJU V0201001N003610060019N0112651N1+02901+02301999999ADDGA1071+006001999GF107991999999999999999999MA1101691999999REMMET051METAR SBJU 201400Z 10007KT 9999 BKN020 29/23 Q1017;
0120827840999992013042015004-07317-039300FM-15+0409SBJU V0200901N003112200019N0112651N1+02901+02301999999ADDGA1041+006001999GF104991999999999999999999MA1101591999999REMMET051METAR SBJU 201500Z 09006KT 9999 SCT020 29/23 Q1016;
0139827840999992013042016004-07317-039300FM-15+0409SBJU V0201001N00361006301CN0112651N1+02901+02301999999ADDGA1071+006301999GA2021+006901021MA1101491999999REMMET061METAR SBJU 201600Z 10007KT 9999 BKN021 FEW023TCU 29/23 Q1015;EQDQ01+000022SCOTCV
0139827840999992013042017004-07317-039300FM-15+0409SBJU V0200601N00311006301CN0112651N1+02901+02401999999ADDGA1071+006301999GA2021+006901021MA1101391999999REMMET061METAR SBJU 201700Z 06006KT 9999 BKN021 FEW023TCU 29/24 Q1014;EQDQ01+000022SCOTCV
0139827840999992013042018004-07317-039300FM-15+0409SBJU V0200901N00151006301CN0112651N1+02801+02301999999ADDGA1071+006301999GA2021+006901021MA1101291999999REMMET061METAR SBJU 201800Z 09003KT 9999 BKN021 FEW023TCU 28/23 Q1013;EQDQ01+000022SCOTCV
0143827840999992013042019004-07317-039300FM-15+0409SBJU V0200601N001510210019N0112651N1+02801+02401999999ADDGA1041+006301999GA2071+021001999GF107991999999999999999999MA1101291999999REMMET058METAR SBJU 201900Z 06003KT 9999 SCT021 BKN070 28/24 Q1013;
0143827840999992013042020004-07317-039300FM-15+0409SBJU V0200701N001010210019N0112651N1+02801+02301999999ADDGA1021+006301999GA2071+021001999GF107991999999999999999999MA1101291999999REMMET058METAR SBJU 202000Z 07002KT 9999 FEW021 BKN070 28/23 Q1013;
0143827840999992013042021004-07317-039300FM-15+0409SBJU V0200701N001010210019N0112651N1+02701+02301999999ADDGA1021+006301999GA2071+021001999GF107991999999999999999999MA1101391999999REMMET058METAR SBJU 202100Z 07002KT 9999 FEW021 BKN070 27/23 Q1014;
0143827840999992013042022004-07317-039300FM-15+0409SBJU V0209999C000010210019N0112651N1+02701+02401999999ADDGA1041+006301999GA2071+021001999GF107991999999999999999999MA1101391999999REMMET058METAR SBJU 202200Z 00000KT 9999 SCT021 BKN070 27/24 Q1014;
0120827840999992013042023004-07317-039300FM-15+0409SBJU V0201301N001010063019N0112651N1+02701+02401999999ADDGA1071+006301999GF107991999999999999999999MA1101491999999REMMET051METAR SBJU 202300Z 13002KT 9999 BKN021 27/24 Q1015;
0153827840999992013042100004-07317-039300FM-15+0409SBJU V0201201N003110054019N0080001N1+02501+02401999999ADDGA1041+004801999GA2071+005401999GF107991999999999999999999MA1101591999999MW1611REMMET062METAR SBJU 210000Z 12006KT 8000 -RA SCT016 BKN018 25/24 Q1016;
0120827840999992013042101004-07317-039300FM-15+0409SBJU V0200701N002110054019N0112651N1+02501+02401999999ADDGA1071+005401999GF107991999999999999999999MA1101591999999REMMET051METAR SBJU 210100Z 07004KT 9999 BKN018 25/24 Q1016;
0130827840999992013042102004-07317-039300FM-15+0409SBJU V0200201N001010054019N0112651N1+02501+02401999999ADDGA1071+005401999GF107991999999999999999999MA1101591999999MW1611REMMET055METAR SBJU 210200Z 02002KT 9999 -RA BKN018 25/24 Q1016;
0130827840999992013042103004-07317-039300FM-15+0409SBJU V0203201N001510051019N0090001N1+02501+02401999999ADDGA1071+005101999GF107991999999999999999999MA1101591999999MW1611REMMET055METAR SBJU 210300Z 32003KT 9000 -RA BKN017 25/24 Q1016;
0120827840999992013042105004-07317-039300FM-15+0409SBJU V0202301N001510054019N0112651N1+02401+02401999999ADDGA1071+005401999GF107991999999999999999999MA1101391999999REMMET051METAR SBJU 210500Z 23003KT 9999 BKN018 24/24 Q1014;
0120827840999992013042106004-07317-039300FM-15+0409SBJU V0209999C000010054019N0112651N1+02501+02401999999ADDGA1071+005401999GF107991999999999999999999MA1101391999999REMMET051METAR SBJU 210600Z 00000KT 9999 BKN018 25/24 Q1014;
0120827840999992013042107004-07317-039300FM-15+0409SBJU V0209999C000010060019N0112651N1+02401+02401999999ADDGA1071+006001999GF107991999999999999999999MA1101491999999REMMET051METAR SBJU 210700Z 00000KT 9999 BKN020 24/24 Q1015;
0120827840999992013042108004-07317-039300FM-15+0409SBJU V0209999C000010060019N0112651N1+02401+02401999999ADDGA1071+006001999GF107991999999999999999999MA1101491999999REMMET051METAR SBJU 210800Z 00000KT 9999 BKN020 24/24 Q1015;
0120827840999992013042109004-07317-039300FM-15+0409SBJU V0209999C000010060019N0112651N1+02501+02401999999ADDGA1071+006001999GF107991999999999999999999MA1101591999999REMMET051METAR SBJU 210900Z 00000KT 9999 BKN020 25/24 Q1016;
0120827840999992013042110004-07317-039300FM-15+0409SBJU V0209999C000010060019N0112651N1+02501+02401999999ADDGA1071+006001999GF107991999999999999999999MA1101591999999REMMET051METAR SBJU 211000Z 00000KT 9999 BKN020 25/24 Q1016;
0120827840999992013042111004-07317-039300FM-15+0409SBJU V0209999C000010060019N0112651N1+02601+02501999999ADDGA1071+006001999GF107991999999999999999999MA1101691999999REMMET051METAR SBJU 211100Z 00000KT 9999 BKN020 26/25 Q1017;
0120827840999992013042112004-07317-039300FM-15+0409SBJU V0201501N002610060019N0112651N1+02701+02401999999ADDGA1071+006001999GF107991999999999999999999MA1101691999999REMMET051METAR SBJU 211200Z 15005KT 9999 BKN020 27/24 Q1017;
0120827840999992013042113004-07317-039300FM-15+0409SBJU V0200901N003110060019N0112651N1+02801+02401999999ADDGA1071+006001999GF107991999999999999999999MA1101691999999REMMET051METAR SBJU 211300Z 09006KT 9999 BKN020 28/24 Q1017;
0120827840999992013042114004-07317-039300FM-15+0409SBJU V0200901N002610060019N0112651N1+02701+02401999999ADDGA1071+006001999GF107991999999999999999999MA1101691999999REMMET051METAR SBJU 211400Z 09005KT 9999 BKN020 27/24 Q1017;
0120827840999992013042115004-07317-039300FM-15+0409SBJU V0200901N003610060019N0112651N1+02601+02401999999ADDGA1071+006001999GF107991999999999999999999MA1101591999999REMMET051METAR SBJU 211500Z 09007KT 9999 BKN020 26/24 Q1016;
0143827840999992013042116004-07317-039300FM-15+0409SBJU V0200601N003110054019N0112651N1+02601+02401999999ADDGA1071+005401999GA2071+021001999GF107991999999999999999999MA1101491999999REMMET058METAR SBJU 211600Z 06006KT 9999 BKN018 BKN070 26/24 Q1015;
0143827840999992013042117004-07317-039300FM-15+0409SBJU V0200801N003610054019N0112651N1+02701+02501999999ADDGA1071+005401999GA2071+021001999GF107991999999999999999999MA1101391999999REMMET058METAR SBJU 211700Z 08007KT 9999 BKN018 BKN070 27/25 Q1014;
0143827840999992013042118004-07317-039300FM-15+0409SBJU V0200901N003110054019N0112651N1+02701+02401999999ADDGA1071+005401999GA2071+021001999GF107991999999999999999999MA1101391999999REMMET058METAR SBJU 211800Z 09006KT 9999 BKN018 BKN070 27/24 Q1014;
0143827840999992013042119004-07317-039300FM-15+0409SBJU V0200501N002110210019N0112651N1+02701+02401999999ADDGA1041+005401999GA2071+021001999GF107991999999999999999999MA1101391999999REMMET058METAR SBJU 211900Z 05004KT 9999 SCT018 BKN070 27/24 Q1014;
0143827840999992013042120004-07317-039300FM-15+0409SBJU V0209999C000010210019N0112651N1+02701+02401999999ADDGA1041+005401999GA2071+021001999GF107991999999999999999999MA1101391999999REMMET058METAR SBJU 212000Z 00000KT 9999 SCT018 BKN070 27/24 Q1014;
0143827840999992013042121004-07317-039300FM-15+0409SBJU V0209999C000010210019N0112651N1+02701+02401999999ADDGA1041+005401999GA2071+021001999GF107991999999999999999999MA1101391999999REMMET058METAR SBJU 212100Z 00000KT 9999 SCT018 BKN070 27/24 Q1014;
0120827840999992013042122004-07317-039300FM-15+0409SBJU V0209999C000010054019N0112651N1+02701+02401999999ADDGA1071+005401999GF107991999999999999999999MA1101491999999REMMET051METAR SBJU 212200Z 00000KT 9999 BKN018 27/24 Q1015;
0120827840999992013042123004-07317-039300FM-15+0409SBJU V0201801N001010054019N0112651N1+02601+02501999999ADDGA1071+005401999GF107991999999999999999999MA1101491999999REMMET051METAR SBJU 212300Z 18002KT 9999 BKN018 26/25 Q1015;
0120827840999992013042200004-07317-039300FM-15+0409SBJU V0201801N001010054019N0112651N1+02601+02401999999ADDGA1071+005401999GF107991999999999999999999MA1101591999999REMMET051METAR SBJU 220000Z 18002KT 9999 BKN018 26/24 Q1016;
0120827840999992013042201004-07317-039300FM-15+0409SBJU V0209999C000010054019N0112651N1+02601+02401999999ADDGA1071+005401999GF107991999999999999999999MA1101591999999REMMET051METAR SBJU 220100Z 00000KT 9999 BKN018 26/24 Q1016;
0120827840999992013042202004-07317-039300FM-15+0409SBJU V0209999C000010054019N0112651N1+02501+02401999999ADDGA1071+005401999GF107991999999999999999999MA1101591999999REMMET051METAR SBJU 220200Z 00000KT 9999 BKN018 25/24 Q1016;
0120827840999992013042203004-07317-039300FM-15+0409SBJU V0202301N001012200019N0112651N1+02501+02401999999ADDGA1021+006001999GF102991999999999999999999MA1101591999999REMMET051METAR SBJU 220300Z 23002KT 9999 FEW020 25/24 Q1016;
0120827840999992013042204004-07317-039300FM-15+0409SBJU V0209999C000012200019N0112651N1+02401+02301999999ADDGA1021+006001999GF102991999999999999999999MA1101591999999REMMET051METAR SBJU 220400Z 00000KT 9999 FEW020 24/23 Q1016;
0120827840999992013042205004-07317-039300FM-15+0409SBJU V0209999C000012200019N0112651N1+02401+02301999999ADDGA1021+006001999GF102991999999999999999999MA1101491999999REMMET051METAR SBJU 220500Z 00000KT 9999 FEW020 24/23 Q1015;
0120827840999992013042206004-07317-039300FM-15+0409SBJU V0209999C000012200019N0112651N1+02501+02201999999ADDGA1021+006001999GF102991999999999999999999MA1101491999999REMMET051METAR SBJU 220600Z 00000KT 9999 FEW020 25/22 Q1015;
0120827840999992013042207004-07317-039300FM-15+0409SBJU V0209999C000012200019N0112651N1+02401+02201999999ADDGA1041+006001999GF104991999999999999999999MA1101491999999REMMET051METAR SBJU 220700Z 00000KT 9999 SCT020 24/22 Q1015;
0120827840999992013042208004-07317-039300FM-15+0409SBJU V0209999C000012200019N0112651N1+02301+02201999999ADDGA1041+006001999GF104991999999999999999999MA1101591999999REMMET051METAR SBJU 220800Z 00000KT 9999 SCT020 23/22 Q1016;
0120827840999992013042209004-07317-039300FM-15+0409SBJU V0209999C000012200019N0112651N1+02401+02201999999ADDGA1021+006001999GF102991999999999999999999MA1101591999999REMMET051METAR SBJU 220900Z 00000KT 9999 FEW020 24/22 Q1016;
0120827840999992013042210004-07317-039300FM-15+0409SBJU V0209999C000012200019N0112651N1+02501+02201999999ADDGA1021+006001999GF102991999999999999999999MA1101691999999REMMET051METAR SBJU 221000Z 00000KT 9999 FEW020 25/22 Q1017;
0120827840999992013042211004-07317-039300FM-15+0409SBJU V0201901N002612200019N0112651N1+02701+02201999999ADDGA1021+006001999GF102991999999999999999999MA1101691999999REMMET051METAR SBJU 221100Z 19005KT 9999 FEW020 27/22 Q1017;
0120827840999992013042212004-07317-039300FM-15+0409SBJU V0201801N002612200019N0112651N1+02901+02201999999ADDGA1021+006001999GF102991999999999999999999MA1101801999999REMMET051METAR SBJU 221200Z 18005KT 9999 FEW020 29/22 Q1018;
0120827840999992013042213004-07317-039300FM-15+0409SBJU V0201801N005112200019N0112651N1+02901+02101999999ADDGA1041+006301999GF104991999999999999999999MA1101801999999REMMET051METAR SBJU 221300Z 18010KT 9999 SCT021 29/21 Q1018;
0120827840999992013042214004-07317-039300FM-15+0409SBJU V0201801N006712200019N0112651N1+03001+02101999999ADDGA1041+006301999GF104991999999999999999999MA1101691999999REMMET051METAR SBJU 221400Z 18013KT 9999 SCT021 30/21 Q1017;
0120827840999992013042215004-07317-039300FM-15+0409SBJU V0201801N004610063019N0112651N1+03101+02101999999ADDGA1071+006301999GF107991999999999999999999MA1101591999999REMMET051METAR SBJU 221500Z 18009KT 9999 BKN021 31/21 Q1016;
0120827840999992013042216004-07317-039300FM-15+0409SBJU V0201701N005710063019N0112651N1+03101+02101999999ADDGA1071+006301999GF107991999999999999999999MA1101591999999REMMET051METAR SBJU 221600Z 17011KT 9999 BKN021 31/21 Q1016;
0120827840999992013042217004-07317-039300FM-15+0409SBJU V0201901N004110066019N0112651N1+03001+02201999999ADDGA1071+006601999GF107991999999999999999999MA1101491999999REMMET051METAR SBJU 221700Z 19008KT 9999 BKN022 30/22 Q1015;
0136827840999992013042218004-07317-039300FM-15+0409SBJU V0201901N00361006001CN0112651N1+03001+02201999999ADDGA1071+006001999GA2041+006301999MA1101491999999REMMET058METAR SBJU 221800Z 19007KT 9999 BKN020 SCT021 30/22 Q1015;EQDQ01+000042SCOTCV
0120827840999992013042219004-07317-039300FM-15+0409SBJU V0201901N004110066019N0112651N1+03101+02201999999ADDGA1071+006601999GF107991999999999999999999MA1101491999999REMMET051METAR SBJU 221900Z 19008KT 9999 BKN022 31/22 Q1015;
0120827840999992013042220004-07317-039300FM-15+0409SBJU V0201801N003110066019N0112651N1+03001+02301999999ADDGA1071+006601999GF107991999999999999999999MA1101491999999REMMET051METAR SBJU 222000Z 18006KT 9999 BKN022 30/23 Q1015;
0120827840999992013042221004-07317-039300FM-15+0409SBJU V0201501N001510066019N0112651N1+02901+02301999999ADDGA1071+006601999GF107991999999999999999999MA1101491999999REMMET051METAR SBJU 222100Z 15003KT 9999 BKN022 29/23 Q1015;
0120827840999992013042222004-07317-039300FM-15+0409SBJU V0209999C000012200019N0112651N1+02801+02301999999ADDGA1041+006001999GF104991999999999999999999MA1101591999999REMMET051METAR SBJU 222200Z 00000KT 9999 SCT020 28/23 Q1016;
0072827840999992013042223004-07317-039300FM-15+0409SBJU V0201701N004119999999Y0099001N1+02801+02301999999ADDMA1101691999999REMMET045METAR SBJU 222300Z 17008KT CAVOK 28/23 Q1017;
0072827840999992013042300004-07317-039300FM-15+0409SBJU V0201801N003619999999Y0099001N1+02701+02301999999ADDMA1101801999999REMMET045METAR SBJU 230000Z 18007KT CAVOK 27/23 Q1018;
0120827840999992013042301004-07317-039300FM-15+0409SBJU V0202001N002612200019N0112651N1+02601+02201999999ADDGA1021+006001999GF102991999999999999999999MA1101801999999REMMET051METAR SBJU 230100Z 20005KT 9999 FEW020 26/22 Q1018;
0120827840999992013042302004-07317-039300FM-15+0409SBJU V0201901N003112200019N0112651N1+02601+02201999999ADDGA1021+006001999GF102991999999999999999999MA1101801999999REMMET051METAR SBJU 230200Z 19006KT 9999 FEW020 26/22 Q1018;
0120827840999992013042303004-07317-039300FM-15+0409SBJU V0209999C000012200019N0112651N1+02501+02201999999ADDGA1021+006001999GF102991999999999999999999MA1101801999999REMMET051METAR SBJU 230300Z 00000KT 9999 FEW020 25/22 Q1018;
0120827840999992013042304004-07317-039300FM-15+0409SBJU V0202001N003112200019N0112651N1+02601+02201999999ADDGA1041+006001999GF104991999999999999999999MA1101691999999REMMET051METAR SBJU 230400Z 20006KT 9999 SCT020 26/22 Q1017;
0120827840999992013042305004-07317-039300FM-15+0409SBJU V0201501N002612200019N0112651N1+02501+02201999999ADDGA1041+006001999GF104991999999999999999999MA1101591999999REMMET051METAR SBJU 230500Z 15005KT 9999 SCT020 25/22 Q1016;
0120827840999992013042306004-07317-039300FM-15+0409SBJU V0201701N002612200019N0112651N1+02501+02201999999ADDGA1041+006001999GF104991999999999999999999MA1101591999999REMMET051METAR SBJU 230600Z 17005KT 9999 SCT020 25/22 Q1016;
0120827840999992013042307004-07317-039300FM-15+0409SBJU V0201401N001010060019N0112651N1+02401+02201999999ADDGA1071+006001999GF107991999999999999999999MA1101591999999REMMET051METAR SBJU 230700Z 14002KT 9999 BKN020 24/22 Q1016;
0120827840999992013042308004-07317-039300FM-15+0409SBJU V0201201N001510060019N0112651N1+02401+02201999999ADDGA1071+006001999GF107991999999999999999999MA1101691999999REMMET051METAR SBJU 230800Z 12003KT 9999 BKN020 24/22 Q1017;
0120827840999992013042309004-07317-039300FM-15+0409SBJU V0201401N001510060019N0112651N1+02401+02201999999ADDGA1071+006001999GF107991999999999999999999MA1101691999999REMMET051METAR SBJU 230900Z 14003KT 9999 BKN020 24/22 Q1017;
0120827840999992013042310004-07317-039300FM-15+0409SBJU V0201601N003110060019N0112651N1+02501+02301999999ADDGA1071+006001999GF107991999999999999999999MA1101801999999REMMET051METAR SBJU 231000Z 16006KT 9999 BKN020 25/23 Q1018;
0120827840999992013042311004-07317-039300FM-15+0409SBJU V0201301N002112200019N0112651N1+02701+02301999999ADDGA1041+006001999GF104991999999999999999999MA1101801999999REMMET051METAR SBJU 231100Z 13004KT 9999 SCT020 27/23 Q1018;
0120827840999992013042312004-07317-039300FM-15+0409SBJU V0201701N002610060019N0112651N1+02801+02201999999ADDGA1071+006001999GF107991999999999999999999MA1101901999999REMMET051METAR SBJU 231200Z 17005KT 9999 BKN020 28/22 Q1019;
0120827840999992013042313004-07317-039300FM-15+0409SBJU V0201801N005110060019N0112651N1+02901+02301999999ADDGA1071+006001999GF107991999999999999999999MA1101801999999REMMET051METAR SBJU 231300Z 18010KT 9999 BKN020 29/23 Q1018;
0120827840999992013042314004-07317-039300FM-15+0409SBJU V0201801N005110063019N0112651N1+03001+02201999999ADDGA1071+006301999GF107991999999999999999999MA1101691999999REMMET051METAR SBJU 231400Z 18010KT 9999 BKN021 30/22 Q1017;
0120827840999992013042315004-07317-039300FM-15+0409SBJU V0201701N005110066019N0112651N1+03001+02301999999ADDGA1071+006601999GF107991999999999999999999MA1101591999999REMMET051METAR SBJU 231500Z 17010KT 9999 BKN022 30/23 Q1016;
0120827840999992013042316004-07317-039300FM-15+0409SBJU V0201801N004110060019N0112651N1+02901+02301999999ADDGA1071+006001999GF107991999999999999999999MA1101591999999REMMET051METAR SBJU 231600Z 18008KT 9999 BKN020 29/23 Q1016;
0120827840999992013042317004-07317-039300FM-15+0409SBJU V0201701N002612200019N0112651N1+03001+02301999999ADDGA1021+006001999GF102991999999999999999999MA1101491999999REMMET051METAR SBJU 231700Z 17005KT 9999 FEW020 30/23 Q1015;
0120827840999992013042318004-07317-039300FM-15+0409SBJU V0201801N004112200019N0112651N1+03201+02201999999ADDGA1041+006301999GF104991999999999999999999MA1101391999999REMMET051METAR SBJU 231800Z 18008KT 9999 SCT021 32/22 Q1014;
0120827840999992013042319004-07317-039300FM-15+0409SBJU V0201601N003112200019N0112651N1+03201+02001999999ADDGA1021+006301999GF102991999999999999999999MA1101391999999REMMET051METAR SBJU 231900Z 16006KT 9999 FEW021 32/20 Q1014;
0072827840999992013042320004-07317-039300FM-15+0409SBJU V0209999C000019999999Y0099001N1+03101+02101999999ADDMA1101391999999REMMET045METAR SBJU 232000Z 00000KT CAVOK 31/21 Q1014;
0072827840999992013042321004-07317-039300FM-15+0409SBJU V0209999C000019999999Y0099001N1+02901+02201999999ADDMA1101491999999REMMET045METAR SBJU 232100Z 00000KT CAVOK 29/22 Q1015;
0072827840999992013042322004-07317-039300FM-15+0409SBJU V0209999C000019999999Y0099001N1+02801+02101999999ADDMA1101491999999REMMET045METAR SBJU 232200Z 00000KT CAVOK 28/21 Q1015;
0072827840999992013042323004-07317-039300FM-15+0409SBJU V0209999C000019999999Y0099001N1+02801+02001999999ADDMA1101591999999REMMET045METAR SBJU 232300Z 00000KT CAVOK 28/20 Q1016;
0072827840999992013042400004-07317-039300FM-15+0409SBJU V0209999C000019999999Y0099001N1+02801+02101999999ADDMA1101691999999REMMET045METAR SBJU 240000Z 00000KT CAVOK 28/21 Q1017;
0120827840999992013042401004-07317-039300FM-15+0409SBJU V0209999C000012200019N0112651N1+02801+02101999999ADDGA1021+006001999GF102991999999999999999999MA1101691999999REMMET051METAR SBJU 240100Z 00000KT 9999 FEW020 28/21 Q1017;
0143827840999992013042402004-07317-039300FM-15+0409SBJU V0209999C000010240019N0112651N1+02801+02101999999ADDGA1021+006001999GA2071+024001999GF107991999999999999999999MA1101691999999REMMET058METAR SBJU 240200Z 00000KT 9999 FEW020 BKN080 28/21 Q1017;
0120827840999992013042403004-07317-039300FM-15+0409SBJU V0201501N002112200019N0112651N1+02701+02201999999ADDGA1041+006001999GF104991999999999999999999MA1101691999999REMMET051METAR SBJU 240300Z 15004KT 9999 SCT020 27/22 Q1017;
0120827840999992013042404004-07317-039300FM-15+0409SBJU V0201301N002612200019N0112651N1+02701+02201999999ADDGA1041+006001999GF104991999999999999999999MA1101691999999REMMET051METAR SBJU 240400Z 13005KT 9999 SCT020 27/22 Q1017;
0120827840999992013042405004-07317-039300FM-15+0409SBJU V0201701N003112200019N0112651N1+02701+02201999999ADDGA1041+006001999GF104991999999999999999999MA1101591999999REMMET051METAR SBJU 240500Z 17006KT 9999 SCT020 27/22 Q1016;
0120827840999992013042406004-07317-039300FM-15+0409SBJU V0201601N003112200019N0112651N1+02601+02201999999ADDGA1041+006001999GF104991999999999999999999MA1101591999999REMMET051METAR SBJU 240600Z 16006KT 9999 SCT020 26/22 Q1016;
0120827840999992013042407004-07317-039300FM-15+0409SBJU V0201401N002112200019N0112651N1+02501+02201999999ADDGA1041+006001999GF104991999999999999999999MA1101691999999REMMET051METAR SBJU 240700Z 14004KT 9999 SCT020 25/22 Q1017;
0120827840999992013042408004-07317-039300FM-15+0409SBJU V0209999C000012200019N0112651N1+02501+02201999999ADDGA1041+006001999GF104991999999999999999999MA1101691999999REMMET051METAR SBJU 240800Z 00000KT 9999 SCT020 25/22 Q1017;
0143827840999992013042409004-07317-039300FM-15+0409SBJU V0209999C000010240019N0112651N1+02501+02301999999ADDGA1041+006001999GA2071+024001999GF107991999999999999999999MA1101691999999REMMET058METAR SBJU 240900Z 00000KT 9999 SCT020 BKN080 25/23 Q1017;
0072827840999992013042410004-07317-039300FM-15+0409SBJU V0209999C000019999999Y0099001N1+02601+02301999999ADDMA1101801999999REMMET045METAR SBJU 241000Z 00000KT CAVOK 26/23 Q1018;
0072827840999992013042411004-07317-039300FM-15+0409SBJU V0201801N003619999999Y0099001N1+02801+02201999999ADDMA1101801999999REMMET045METAR SBJU 241100Z 18007KT CAVOK 28/22 Q1018;
0072827840999992013042412004-07317-039300FM-15+0409SBJU V0201501N003619999999Y0099001N1+02901+02201999999ADDMA1101901999999REMMET045METAR SBJU 241200Z 15007KT CAVOK 29/22 Q1019;
0072827840999992013042413004-07317-039300FM-15+0409SBJU V0201501N004119999999Y0099001N1+03001+02101999999ADDMA1101901999999REMMET045METAR SBJU 241300Z 15008KT CAVOK 30/21 Q1019;
0072827840999992013042414004-07317-039300FM-15+0409SBJU V0201601N004119999999Y0099001N1+03001+02101999999ADDMA1101801999999REMMET045METAR SBJU 241400Z 16008KT CAVOK 30/21 Q1018;
0120827840999992013042415004-07317-039300FM-15+0409SBJU V0201401N005112200019N0112651N1+03101+02201999999ADDGA1041+006001999GF104991999999999999999999MA1101691999999REMMET051METAR SBJU 241500Z 14010KT 9999 SCT020 31/22 Q1017;
0120827840999992013042416004-07317-039300FM-15+0409SBJU V0201401N003110066019N0112651N1+03201+02301999999ADDGA1071+006601999GF107991999999999999999999MA1101591999999REMMET051METAR SBJU 241600Z 14006KT 9999 BKN022 32/23 Q1016;
0120827840999992013042417004-07317-039300FM-15+0409SBJU V0201101N003110066019N0112651N1+03101+02201999999ADDGA1071+006601999GF107991999999999999999999MA1101491999999REMMET051METAR SBJU 241700Z 11006KT 9999 BKN022 31/22 Q1015;
0120827840999992013042418004-07317-039300FM-15+0409SBJU V0201101N004112200019N0112651N1+03101+02301999999ADDGA1041+006601999GF104991999999999999999999MA1101491999999REMMET051METAR SBJU 241800Z 11008KT 9999 SCT022 31/23 Q1015;
0120827840999992013042419004-07317-039300FM-15+0409SBJU V0201001N003112200019N0112651N1+03101+02301999999ADDGA1041+006601999GF104991999999999999999999MA1101391999999REMMET051METAR SBJU 241900Z 10006KT 9999 SCT022 31/23 Q1014;
0120827840999992013042420004-07317-039300FM-15+0409SBJU V0200901N002112200019N0112651N1+03001+02401999999ADDGA1041+006601999GF104991999999999999999999MA1101491999999REMMET051METAR SBJU 242000Z 09004KT 9999 SCT022 30/24 Q1015;
0120827840999992013042421004-07317-039300FM-15+0409SBJU V0209999C000012200019N0112651N1+02901+02401999999ADDGA1041+006601999GF104991999999999999999999MA1101491999999REMMET051METAR SBJU 242100Z 00000KT 9999 SCT022 29/24 Q1015;
0120827840999992013042422004-07317-039300FM-15+0409SBJU V0209999C000012200019N0112651N1+02801+02401999999ADDGA1041+006001999GF104991999999999999999999MA1101591999999REMMET051METAR SBJU 242200Z 00000KT 9999 SCT020 28/24 Q1016;
0120827840999992013042423004-07317-039300FM-15+0409SBJU V0209999C000012200019N0112651N1+02701+02401999999ADDGA1041+006001999GF104991999999999999999999MA1101591999999REMMET051METAR SBJU 242300Z 00000KT 9999 SCT020 27/24 Q1016;
0120827840999992013042500004-07317-039300FM-15+0409SBJU V0209999C000012200019N0112651N1+02701+02501999999ADDGA1041+006001999GF104991999999999999999999MA1101691999999REMMET051METAR SBJU 250000Z 00000KT 9999 SCT020 27/25 Q1017;
0120827840999992013042501004-07317-039300FM-15+0409SBJU V0202501N001010060019N0112651N1+02701+02401999999ADDGA1071+006001999GF107991999999999999999999MA1101691999999REMMET051METAR SBJU 250100Z 25002KT 9999 BKN020 27/24 Q1017;
0120827840999992013042502004-07317-039300FM-15+0409SBJU V0209999C000010060019N0112651N1+02701+02301999999ADDGA1071+006001999GF107991999999999999999999MA1101691999999REMMET051METAR SBJU 250200Z 00000KT 9999 BKN020 27/23 Q1017;
0120827840999992013042503004-07317-039300FM-15+0409SBJU V0209999C000010060019N0112651N1+02701+02301999999ADDGA1071+006001999GF107991999999999999999999MA1101691999999REMMET051METAR SBJU 250300Z 00000KT 9999 BKN020 27/23 Q1017;
0120827840999992013042504004-07317-039300FM-15+0409SBJU V0201301N003110060019N0112651N1+02701+02401999999ADDGA1071+006001999GF107991999999999999999999MA1101691999999REMMET051METAR SBJU 250400Z 13006KT 9999 BKN020 27/24 Q1017;
0153827840999992013042505004-07317-039300FM-15+0409SBJU V0201401N004110048019N0060001N1+02501+02401999999ADDGA1071+004801999GA2071+024001999GF107991999999999999999999MA1101591999999MW1611REMMET062METAR SBJU 250500Z 14008KT 6000 -RA BKN016 BKN080 25/24 Q1016;
0120827840999992013042506004-07317-039300FM-15+0409SBJU V0201501N002610048019N0112651N1+02401+02401999999ADDGA1071+004801999GF107991999999999999999999MA1101591999999REMMET051METAR SBJU 250600Z 15005KT 9999 BKN016 24/24 Q1016;
0130827840999992013042507004-07317-039300FM-15+0409SBJU V0201201N002610048019N0050001N1+02401+02401999999ADDGA1071+004801999GF107991999999999999999999MA1101591999999MW1611REMMET055METAR SBJU 250700Z 12005KT 5000 -RA BKN016 24/24 Q1016;
0120827840999992013042508004-07317-039300FM-15+0409SBJU V0201001N001010048019N0112651N1+02401+02401999999ADDGA1071+004801999GF107991999999999999999999MA1101591999999REMMET051METAR SBJU 250800Z 10002KT 9999 BKN016 24/24 Q1016;
0130827840999992013042509004-07317-039300FM-15+0409SBJU V0201001N002110039019N0050001N1+02501+02501999999ADDGA1081+003901999GF108991999999999999999999MA1101691999999MW1611REMMET055METAR SBJU 250900Z 10004KT 5000 -RA OVC013 25/25 Q1017;
0152827840999992013042510004-07317-039300FM-15+0409SBJU V0201101N001010039019N0050001N1+02501+02501999999ADDGA1041+002701999GA2071+003901999GF107991999999999999999999MA1101801999999MW1101REMMET061METAR SBJU 251000Z 11002KT 5000 BR SCT009 BKN013 25/25 Q1018;
0143827840999992013042510254-07317-039300FM-15+0409SBJU V0209999C000010045019N0070001N1+02501+02501999999ADDGA1041+002701999GA2071+004501999GF107991999999999999999999MA1101801999999REMMET058SPECI SBJU 251025Z 00000KT 7000 SCT009 BKN015 25/25 Q1018;
0143827840999992013042511004-07317-039300FM-15+0409SBJU V0201701N003610045019N0090001N1+02501+02401999999ADDGA1041+002701999GA2071+004501999GF107991999999999999999999MA1101901999999REMMET058METAR SBJU 251100Z 17007KT 9000 SCT009 BKN015 25/24 Q1019;
0120827840999992013042512004-07317-039300FM-15+0409SBJU V0201701N002612200019N0112651N1+02701+02401999999ADDGA1041+005101999GF104991999999999999999999MA1101901999999REMMET051METAR SBJU 251200Z 17005KT 9999 SCT017 27/24 Q1019;
0120827840999992013042513004-07317-039300FM-15+0409SBJU V0201501N004112200019N0112651N1+02901+02301999999ADDGA1041+006001999GF104991999999999999999999MA1101801999999REMMET051METAR SBJU 251300Z 15008KT 9999 SCT020 29/23 Q1018;
0120827840999992013042514004-07317-039300FM-15+0409SBJU V0201301N004112200019N0112651N1+03001+02501999999ADDGA1041+006001999GF104991999999999999999999MA1101801999999REMMET051METAR SBJU 251400Z 13008KT 9999 SCT020 30/25 Q1018;
0120827840999992013042515004-07317-039300FM-15+0409SBJU V0201401N003610060019N0112651N1+03001+02401999999ADDGA1071+006001999GF107991999999999999999999MA1101691999999REMMET051METAR SBJU 251500Z 14007KT 9999 BKN020 30/24 Q1017;
0120827840999992013042517004-07317-039300FM-15+0409SBJU V0201301N002610063019N0112651N1+03301+02401999999ADDGA1071+006301999GF107991999999999999999999MA1101491999999REMMET051METAR SBJU 251700Z 13005KT 9999 BKN021 33/24 Q1015;
0120827840999992013042518004-07317-039300FM-15+0409SBJU V0201401N002112200019N0112651N1+03201+02301999999ADDGA1041+006601999GF104991999999999999999999MA1101391999999REMMET051METAR SBJU 251800Z 14004KT 9999 SCT022 32/23 Q1014;
0120827840999992013042519004-07317-039300FM-15+0409SBJU V0200401N001512200019N0112651N1+03101+02501999999ADDGA1041+006601999GF104991999999999999999999MA1101391999999REMMET051METAR SBJU 251900Z 04003KT 9999 SCT022 31/25 Q1014;
0120827840999992013042520004-07317-039300FM-15+0409SBJU V0200501N001512200019N0112651N1+03001+02501999999ADDGA1041+006901999GF104991999999999999999999MA1101391999999REMMET051METAR SBJU 252000Z 05003KT 9999 SCT023 30/25 Q1014;
0120827840999992013042521004-07317-039300FM-15+0409SBJU V0200801N001012200019N0112651N1+02901+02501999999ADDGA1021+006001999GF102991999999999999999999MA1101491999999REMMET051METAR SBJU 252100Z 08002KT 9999 FEW020 29/25 Q1015;
0120827840999992013042522004-07317-039300FM-15+0409SBJU V0202401N001512200019N0112651N1+02801+02501999999ADDGA1021+006001999GF102991999999999999999999MA1101491999999REMMET051METAR SBJU 252200Z 24003KT 9999 FEW020 28/25 Q1015;
0120827840999992013042523004-07317-039300FM-15+0409SBJU V0202701N001512200019N0112651N1+02801+02501999999ADDGA1041+006001999GF104991999999999999999999MA1101591999999REMMET051METAR SBJU 252300Z 27003KT 9999 SCT020 28/25 Q1016;
0143827840999992013042600004-07317-039300FM-15+0409SBJU V0209999C000010210019N0112651N1+02701+02501999999ADDGA1021+006001999GA2071+021001999GF107991999999999999999999MA1101691999999REMMET058METAR SBJU 260000Z 00000KT 9999 FEW020 BKN070 27/25 Q1017;
0177827840999992013042601004-07317-039300FM-15+0409SBJU V0201701N00571006901CN0112651N1+02601+02401999999ADDGA1041+006001999GA2021+006901091GA3071+021001999GF107991999999999999999999MA1101801999999MW1171REMMET070METAR SBJU 260100Z 17011KT 9999 TS SCT020 FEW023CB BKN070 26/24 Q1018;
0174827840999992013042602004-07317-039300FM-15+0409SBJU V0202001N00261006901CN0112651N1+02601+02501999999ADDGA1041+006001999GA2021+006901021GA3071+021001999GF107991999999999999999999MA1101691999999REMMET073METAR SBJU 260200Z 20005KT 9999 SCT020 FEW023TCU BKN070 26/25 Q1017 RETS;
0143827840999992013042603004-07317-039300FM-15+0409SBJU V0201401N003110210019N0112651N1+02601+02501999999ADDGA1041+006001999GA2071+021001999GF107991999999999999999999MA1101691999999REMMET058METAR SBJU 260300Z 14006KT 9999 SCT020 BKN070 26/25 Q1017;
0153827840999992013042604004-07317-039300FM-15+0409SBJU V0201701N004610051019N0080001N1+02501+02401999999ADDGA1071+005101999GA2071+021001999GF107991999999999999999999MA1101691999999MW1611REMMET062METAR SBJU 260400Z 17009KT 8000 -RA BKN017 BKN070 25/24 Q1017;
0176827840999992013042605004-07317-039300FM-15+0409SBJU V0201701N003110051019N0080001N1+02501+02401999999ADDGA1041+003001999GA2071+005101999GA3071+021001999GF107991999999999999999999MA1101591999999MW1611REMMET069METAR SBJU 260500Z 17006KT 8000 -RA SCT010 BKN017 BKN070 25/24 Q1016;
0166827840999992013042606004-07317-039300FM-15+0409SBJU V0201301N001510051019N0090001N1+02501+02401999999ADDGA1041+003001999GA2071+005101999GA3071+021001999GF107991999999999999999999MA1101591999999REMMET065METAR SBJU 260600Z 13003KT 9000 SCT010 BKN017 BKN070 25/24 Q1016;
0166827840999992013042607004-07317-039300FM-15+0409SBJU V0201501N003110051019N0112651N1+02501+02501999999ADDGA1041+003001999GA2071+005101999GA3071+021001999GF107991999999999999999999MA1101591999999REMMET065METAR SBJU 260700Z 15006KT 9999 SCT010 BKN017 BKN070 25/25 Q1016;
0143827840999992013042608004-07317-039300FM-15+0409SBJU V0201301N003110051019N0112651N1+02601+02501999999ADDGA1041+003001999GA2071+005101999GF107991999999999999999999MA1101591999999REMMET058METAR SBJU 260800Z 13006KT 9999 SCT010 BKN017 26/25 Q1016;
0166827840999992013042609004-07317-039300FM-15+0409SBJU V0201301N001010051019N0112651N1+02501+02401999999ADDGA1021+003001999GA2071+005101999GA3071+021001999GF107991999999999999999999MA1101691999999REMMET065METAR SBJU 260900Z 13002KT 9999 FEW010 BKN017 BKN070 25/24 Q1017;
0120827840999992013042610004-07317-039300FM-15+0409SBJU V0201501N001510060019N0112651N1+02601+02401999999ADDGA1071+006001999GF107991999999999999999999MA1101801999999REMMET051METAR SBJU 261000Z 15003KT 9999 BKN020 26/24 Q1018;
0153827840999992013042610304-07317-039300FM-15+0409SBJU V0201401N002110045019N0030001N1+02601+02501999999ADDGA1041+003001999GA2071+004501999GF107991999999999999999999MA1101801999999MW1611REMMET062SPECI SBJU 261030Z 14004KT 3000 -RA SCT010 BKN015 26/25 Q1018;
0152827840999992013042611004-07317-039300FM-15+0409SBJU V0201501N002610051019N0040001N1+02601+02501999999ADDGA1041+003001999GA2081+005101999GF108991999999999999999999MA1101901999999MW1101REMMET061METAR SBJU 261100Z 15005KT 4000 BR SCT010 OVC017 26/25 Q1019;
0143827840999992013042612004-07317-039300FM-15+0409SBJU V0201601N002610054019N0060001N1+02701+02501999999ADDGA1041+003001999GA2071+005401999GF107991999999999999999999MA1101901999999REMMET058METAR SBJU 261200Z 16005KT 6000 SCT010 BKN018 27/25 Q1019;
0143827840999992013042613004-07317-039300FM-15+0409SBJU V0201401N004110057019N0080001N1+02801+02401999999ADDGA1041+003001999GA2071+005701999GF107991999999999999999999MA1101901999999REMMET058METAR SBJU 261300Z 14008KT 8000 SCT010 BKN019 28/24 Q1019;
0143827840999992013042614004-07317-039300FM-15+0409SBJU V0201201N002610060019N0112651N1+03001+02501999999ADDGA1041+003001999GA2071+006001999GF107991999999999999999999MA1101801999999REMMET058METAR SBJU 261400Z 12005KT 9999 SCT010 BKN020 30/25 Q1018;
0120827840999992013042615004-07317-039300FM-15+0409SBJU V0201501N005112200019N0112651N1+03001+02401999999ADDGA1041+006301999GF104991999999999999999999MA1101691999999REMMET051METAR SBJU 261500Z 15010KT 9999 SCT021 30/24 Q1017;
0120827840999992013042616004-07317-039300FM-15+0409SBJU V0201201N004610063019N0112651N1+03101+02301999999ADDGA1071+006301999GF107991999999999999999999MA1101591999999REMMET051METAR SBJU 261600Z 12009KT 9999 BKN021 31/23 Q1016;
0120827840999992013042617004-07317-039300FM-15+0409SBJU V0200701N002610066019N0112651N1+03201+02401999999ADDGA1071+006601999GF107991999999999999999999MA1101391999999REMMET051METAR SBJU 261700Z 07005KT 9999 BKN022 32/24 Q1014;
0120827840999992013042618004-07317-039300FM-15+0409SBJU V0201001N002612200019N0112651N1+03201+02401999999ADDGA1041+006301999GF104991999999999999999999MA1101391999999REMMET051METAR SBJU 261800Z 10005KT 9999 SCT021 32/24 Q1014;
0120827840999992013042619004-07317-039300FM-15+0409SBJU V0200601N001510063019N0112651N1+03001+02401999999ADDGA1071+006301999GF107991999999999999999999MA1101391999999REMMET051METAR SBJU 261900Z 06003KT 9999 BKN021 30/24 Q1014;
0120827840999992013042620004-07317-039300FM-15+0409SBJU V0201301N001012200019N0112651N1+03101+02401999999ADDGA1021+006301999GF102991999999999999999999MA1101391999999REMMET051METAR SBJU 262000Z 13002KT 9999 FEW021 31/24 Q1014;
0120827840999992013042621004-07317-039300FM-15+0409SBJU V0209999C000012200019N0112651N1+02901+02501999999ADDGA1021+006301999GF102991999999999999999999MA1101391999999REMMET051METAR SBJU 262100Z 00000KT 9999 FEW021 29/25 Q1014;
0120827840999992013042622004-07317-039300FM-15+0409SBJU V0202001N001012200019N0112651N1+02901+02501999999ADDGA1041+006301999GF104991999999999999999999MA1101491999999REMMET051METAR SBJU 262200Z 20002KT 9999 SCT021 29/25 Q1015;
0120827840999992013042623004-07317-039300FM-15+0409SBJU V0209999C000012200019N0112651N1+02801+02401999999ADDGA1041+006301999GF104991999999999999999999MA1101591999999REMMET051METAR SBJU 262300Z 00000KT 9999 SCT021 28/24 Q1016;
0120827840999992013042700004-07317-039300FM-15+0409SBJU V0202001N001510060019N0112651N1+02701+02401999999ADDGA1071+006001999GF107991999999999999999999MA1101691999999REMMET051METAR SBJU 270000Z 20003KT 9999 BKN020 27/24 Q1017;
0120827840999992013042701004-07317-039300FM-15+0409SBJU V0201701N002110060019N0112651N1+02701+02401999999ADDGA1071+006001999GF107991999999999999999999MA1101691999999REMMET051METAR SBJU 270100Z 17004KT 9999 BKN020 27/24 Q1017;
0120827840999992013042702004-07317-039300FM-15+0409SBJU V0201401N002612200019N0112651N1+02701+02401999999ADDGA1041+006001999GF104991999999999999999999MA1101801999999REMMET051METAR SBJU 270200Z 14005KT 9999 SCT020 27/24 Q1018;
0130827840999992013042703004-07317-039300FM-15+0409SBJU V0202201N001510060019N0080001N1+02501+02401999999ADDGA1071+006001999GF107991999999999999999999MA1101691999999MW1611REMMET055METAR SBJU 270300Z 22003KT 8000 -RA BKN020 25/24 Q1017;
0120827840999992013042704004-07317-039300FM-15+0409SBJU V0209999C000010060019N0112651N1+02501+02401999999ADDGA1071+006001999GF107991999999999999999999MA1101591999999REMMET051METAR SBJU 270400Z 00000KT 9999 BKN020 25/24 Q1016;
0120827840999992013042705004-07317-039300FM-15+0409SBJU V0209999C000010060019N0112651N1+02601+02501999999ADDGA1071+006001999GF107991999999999999999999MA1101591999999REMMET051METAR SBJU 270500Z 00000KT 9999 BKN020 26/25 Q1016;
0120827840999992013042706004-07317-039300FM-15+0409SBJU V0209999C000010060019N0112651N1+02501+02401999999ADDGA1071+006001999GF107991999999999999999999MA1101491999999REMMET051METAR SBJU 270600Z 00000KT 9999 BKN020 25/24 Q1015;
0120827840999992013042707004-07317-039300FM-15+0409SBJU V0201601N002610060019N0112651N1+02501+02301999999ADDGA1071+006001999GF107991999999999999999999MA1101491999999REMMET051METAR SBJU 270700Z 16005KT 9999 BKN020 25/23 Q1015;
0120827840999992013042708004-07317-039300FM-15+0409SBJU V0201801N004110060019N0112651N1+02501+02301999999ADDGA1071+006001999GF107991999999999999999999MA1101591999999REMMET051METAR SBJU 270800Z 18008KT 9999 BKN020 25/23 Q1016;
0120827840999992013042709004-07317-039300FM-15+0409SBJU V0201801N002612200019N0112651N1+02501+02301999999ADDGA1041+006001999GF104991999999999999999999MA1101591999999REMMET051METAR SBJU 270900Z 18005KT 9999 SCT020 25/23 Q1016;
0120827840999992013042710004-07317-039300FM-15+0409SBJU V0201501N005112200019N0112651N1+02601+02301999999ADDGA1041+006001999GF104991999999999999999999MA1101691999999REMMET051METAR SBJU 271000Z 15010KT 9999 SCT020 26/23 Q1017;
0120827840999992013042711004-07317-039300FM-15+0409SBJU V0201601N002612200019N0112651N1+02701+02301999999ADDGA1041+006001999GF104991999999999999999999MA1101801999999REMMET051METAR SBJU 271100Z 16005KT 9999 SCT020 27/23 Q1018;
0120827840999992013042712004-07317-039300FM-15+0409SBJU V0201701N004112200019N0112651N1+02801+02301999999ADDGA1041+006001999GF104991999999999999999999MA1101801999999REMMET051METAR SBJU 271200Z 17008KT 9999 SCT020 28/23 Q1018;
0120827840999992013042713004-07317-039300FM-15+0409SBJU V0201701N004610060019N0112651N1+02801+02201999999ADDGA1071+006001999GF107991999999999999999999MA1101801999999REMMET051METAR SBJU 271300Z 17009KT 9999 BKN020 28/22 Q1018;
0120827840999992013042714004-07317-039300FM-15+0409SBJU V0201401N006710060019N0112651N1+02901+02201999999ADDGA1071+006001999GF107991999999999999999999MA1101691999999REMMET051METAR SBJU 271400Z 14013KT 9999 BKN020 29/22 Q1017;
0120827840999992013042715004-07317-039300FM-15+0409SBJU V0201901N004110060019N0112651N1+03001+02301999999ADDGA1071+006001999GF107991999999999999999999MA1101591999999REMMET051METAR SBJU 271500Z 19008KT 9999 BKN020 30/23 Q1016;
0120827840999992013042716004-07317-039300FM-15+0409SBJU V0201701N005112200019N0112651N1+03101+02301999999ADDGA1041+006001999GF104991999999999999999999MA1101491999999REMMET051METAR SBJU 271600Z 17010KT 9999 SCT020 31/23 Q1015;
0120827840999992013042717004-07317-039300FM-15+0409SBJU V0201501N005112200019N0112651N1+03101+02201999999ADDGA1041+006001999GF104991999999999999999999MA1101391999999REMMET051METAR SBJU 271700Z 15010KT 9999 SCT020 31/22 Q1014;
0120827840999992013042718004-07317-039300FM-15+0409SBJU V0201501N004612200019N0112651N1+03101+02301999999ADDGA1041+006001999GF104991999999999999999999MA1101391999999REMMET051METAR SBJU 271800Z 15009KT 9999 SCT020 31/23 Q1014;
0120827840999992013042719004-07317-039300FM-15+0409SBJU V0201501N003112200019N0112651N1+03101+02301999999ADDGA1041+006001999GF104991999999999999999999MA1101391999999REMMET051METAR SBJU 271900Z 15006KT 9999 SCT020 31/23 Q1014;
0120827840999992013042720004-07317-039300FM-15+0409SBJU V0201601N002612200019N0112651N1+03001+02201999999ADDGA1021+006001999GF102991999999999999999999MA1101391999999REMMET051METAR SBJU 272000Z 16005KT 9999 FEW020 30/22 Q1014;
0120827840999992013042721004-07317-039300FM-15+0409SBJU V0201801N001512200019N0112651N1+02801+02301999999ADDGA1021+006001999GF102991999999999999999999MA1101391999999REMMET051METAR SBJU 272100Z 18003KT 9999 FEW020 28/23 Q1014;
0072827840999992013042722004-07317-039300FM-15+0409SBJU V0209999C000019999999Y0099001N1+02801+02201999999ADDMA1101391999999REMMET045METAR SBJU 272200Z 00000KT CAVOK 28/22 Q1014;
0072827840999992013042723004-07317-039300FM-15+0409SBJU V0209999C000019999999Y0099001N1+02701+02201999999ADDMA1101491999999REMMET045METAR SBJU 272300Z 00000KT CAVOK 27/22 Q1015;
0072827840999992013042800004-07317-039300FM-15+0409SBJU V0209999C000019999999Y0099001N1+02601+02301999999ADDMA1101591999999REMMET045METAR SBJU 280000Z 00000KT CAVOK 26/23 Q1016;
0072827840999992013042801004-07317-039300FM-15+0409SBJU V0209999C000019999999Y0099001N1+02601+02301999999ADDMA1101591999999REMMET045METAR SBJU 280100Z 00000KT CAVOK 26/23 Q1016;
0072827840999992013042802004-07317-039300FM-15+0409SBJU V0209999C000019999999Y0099001N1+02601+02201999999ADDMA1101591999999REMMET045METAR SBJU 280200Z 00000KT CAVOK 26/22 Q1016;
0072827840999992013042803004-07317-039300FM-15+0409SBJU V0209999C000019999999Y0099001N1+02701+02201999999ADDMA1101591999999REMMET045METAR SBJU 280300Z 00000KT CAVOK 27/22 Q1016;
0120827840999992013042804004-07317-039300FM-15+0409SBJU V0201601N003110060019N0112651N1+02601+02201999999ADDGA1071+006001999GF107991999999999999999999MA1101491999999REMMET051METAR SBJU 280400Z 16006KT 9999 BKN020 26/22 Q1015;
0120827840999992013042805004-07317-039300FM-15+0409SBJU V0201701N002610060019N0112651N1+02601+02201999999ADDGA1071+006001999GF107991999999999999999999MA1101491999999REMMET051METAR SBJU 280500Z 17005KT 9999 BKN020 26/22 Q1015;
0120827840999992013042806004-07317-039300FM-15+0409SBJU V0201701N002610060019N0112651N1+02501+02101999999ADDGA1071+006001999GF107991999999999999999999MA1101491999999REMMET051METAR SBJU 280600Z 17005KT 9999 BKN020 25/21 Q1015;
0120827840999992013042807004-07317-039300FM-15+0409SBJU V0201801N003610060019N0112651N1+02501+02101999999ADDGA1071+006001999GF107991999999999999999999MA1101491999999REMMET051METAR SBJU 280700Z 18007KT 9999 BKN020 25/21 Q1015;
0120827840999992013042808004-07317-039300FM-15+0409SBJU V0201701N001010060019N0112651N1+02401+02101999999ADDGA1071+006001999GF107991999999999999999999MA1101491999999REMMET051METAR SBJU 280800Z 17002KT 9999 BKN020 24/21 Q1015;
0120827840999992013042809004-07317-039300FM-15+0409SBJU V0201701N003610060019N0112651N1+02501+02101999999ADDGA1071+006001999GF107991999999999999999999MA1101591999999REMMET051METAR SBJU 280900Z 17007KT 9999 BKN020 25/21 Q1016;
0120827840999992013042810004-07317-039300FM-15+0409SBJU V0201601N002612200019N0112651N1+02501+02101999999ADDGA1041+006001999GF104991999999999999999999MA1101591999999REMMET051METAR SBJU 281000Z 16005KT 9999 SCT020 25/21 Q1016;
0120827840999992013042811004-07317-039300FM-15+0409SBJU V0209999C000012200019N0112651N1+02801+02101999999ADDGA1021+006001999GF102991999999999999999999MA1101591999999REMMET051METAR SBJU 281100Z 00000KT 9999 FEW020 28/21 Q1016;
0120827840999992013042812004-07317-039300FM-15+0409SBJU V0201501N003112200019N0112651N1+02901+02001999999ADDGA1021+006001999GF102991999999999999999999MA1101691999999REMMET051METAR SBJU 281200Z 15006KT 9999 FEW020 29/20 Q1017;
0120827840999992013042813004-07317-039300FM-15+0409SBJU V0201201N001512200019N0112651N1+02901+02101999999ADDGA1021+006001999GF102991999999999999999999MA1101691999999REMMET051METAR SBJU 281300Z 12003KT 9999 FEW020 29/21 Q1017;
0120827840999992013042814004-07317-039300FM-15+0409SBJU V0201801N004112200019N0112651N1+03001+02101999999ADDGA1021+006001999GF102991999999999999999999MA1101691999999REMMET051METAR SBJU 281400Z 18008KT 9999 FEW020 30/21 Q1017;
0105827840999992013042815004-07317-039300FM-15+0409SBJU V0201501N003112200019N0112651N1+03201+02201999999ADDGA1021+006001999GF102991999999999999999999REMMET051METAR SBJU 281500Z 15006KT 9999 FEW020 32/22 Q0101;
0120827840999992013042816004-07317-039300FM-15+0409SBJU V0201401N004612200019N0112651N1+03201+02101999999ADDGA1021+006001999GF102991999999999999999999MA1101491999999REMMET051METAR SBJU 281600Z 14009KT 9999 FEW020 32/21 Q1015;
0120827840999992013042817004-07317-039300FM-15+0409SBJU V0201501N004112200019N0112651N1+03301+02201999999ADDGA1021+006001999GF102991999999999999999999MA1101391999999REMMET051METAR SBJU 281700Z 15008KT 9999 FEW020 33/22 Q1014;
0120827840999992013042818004-07317-039300FM-15+0409SBJU V0201201N004612200019N0112651N1+03301+02101999999ADDGA1021+006001999GF102991999999999999999999MA1101291999999REMMET051METAR SBJU 281800Z 12009KT 9999 FEW020 33/21 Q1013;
0120827840999992013042819004-07317-039300FM-15+0409SBJU V0201201N004112200019N0112651N1+03201+02201999999ADDGA1021+006001999GF102991999999999999999999MA1101291999999REMMET051METAR SBJU 281900Z 12008KT 9999 FEW020 32/22 Q1013;
0120827840999992013042820004-07317-039300FM-15+0409SBJU V0201201N002612200019N0112651N1+03101+02201999999ADDGA1021+006001999GF102991999999999999999999MA1101291999999REMMET051METAR SBJU 282000Z 12005KT 9999 FEW020 31/22 Q1013;
0120827840999992013042821004-07317-039300FM-15+0409SBJU V0209999C000012200019N0112651N1+02901+02301999999ADDGA1021+006001999GF102991999999999999999999MA1101391999999REMMET051METAR SBJU 282100Z 00000KT 9999 FEW020 29/23 Q1014;
0120827840999992013042822004-07317-039300FM-15+0409SBJU V0202101N001512200019N0112651N1+02801+02201999999ADDGA1021+006001999GF102991999999999999999999MA1101491999999REMMET051METAR SBJU 282200Z 21003KT 9999 FEW020 28/22 Q1015;
0120827840999992013042823004-07317-039300FM-15+0409SBJU V0209999C000012200019N0112651N1+02801+02301999999ADDGA1021+006001999GF102991999999999999999999MA1101491999999REMMET051METAR SBJU 282300Z 00000KT 9999 FEW020 28/23 Q1015;
0120827840999992013042900004-07317-039300FM-15+0409SBJU V0209999C000012200019N0112651N1+02801+02201999999ADDGA1021+006001999GF102991999999999999999999MA1101491999999REMMET051METAR SBJU 290000Z 00000KT 9999 FEW020 28/22 Q1015;
0120827840999992013042901004-07317-039300FM-15+0409SBJU V0200301N001512200019N0112651N1+02701+02201999999ADDGA1021+006001999GF102991999999999999999999MA1101591999999REMMET051METAR SBJU 290100Z 03003KT 9999 FEW020 27/22 Q1016;
0120827840999992013042902004-07317-039300FM-15+0409SBJU V0201201N001512200019N0112651N1+02701+02201999999ADDGA1021+006001999GF102991999999999999999999MA1101591999999REMMET051METAR SBJU 290200Z 12003KT 9999 FEW020 27/22 Q1016;
0120827840999992013042903004-07317-039300FM-15+0409SBJU V0201601N002110060019N0112651N1+02801+02101999999ADDGA1071+006001999GF107991999999999999999999MA1101591999999REMMET051METAR SBJU 290300Z 16004KT 9999 BKN020 28/21 Q1016;
0120827840999992013042904004-07317-039300FM-15+0409SBJU V0201701N003610060019N0112651N1+02701+02101999999ADDGA1071+006001999GF107991999999999999999999MA1101591999999REMMET051METAR SBJU 290400Z 17007KT 9999 BKN020 27/21 Q1016;
0120827840999992013042905004-07317-039300FM-15+0409SBJU V0201601N004610060019N0112651N1+02701+02101999999ADDGA1071+006001999GF107991999999999999999999MA1101491999999REMMET051METAR SBJU 290500Z 16009KT 9999 BKN020 27/21 Q1015;
0139827840999992013042906004-07317-039300FM-15+0409SBJU V0201601N00311006001CN0112651N1+02701+02201999999ADDGA1071+006001999GA2021+006901021MA1101491999999REMMET061METAR SBJU 290600Z 16006KT 9999 BKN020 FEW023TCU 27/22 Q1015;EQDQ01+000022SCOTCV
0120827840999992013042907004-07317-039300FM-15+0409SBJU V0201601N002610060019N0112651N1+02601+02201999999ADDGA1071+006001999GF107991999999999999999999MA1101491999999REMMET051METAR SBJU 290700Z 16005KT 9999 BKN020 26/22 Q1015;
0120827840999992013042908004-07317-039300FM-15+0409SBJU V0201701N004610060019N0112651N1+02601+02101999999ADDGA1071+006001999GF107991999999999999999999MA1101591999999REMMET051METAR SBJU 290800Z 17009KT 9999 BKN020 26/21 Q1016;
0120827840999992013042909004-07317-039300FM-15+0409SBJU V0201701N003110060019N0112651N1+02601+02001999999ADDGA1071+006001999GF107991999999999999999999MA1101591999999REMMET051METAR SBJU 290900Z 17006KT 9999 BKN020 26/20 Q1016;
0120827840999992013042910004-07317-039300FM-15+0409SBJU V0209999C000012200019N0112651N1+02601+02101999999ADDGA1041+006001999GF104991999999999999999999MA1101691999999REMMET051METAR SBJU 291000Z 00000KT 9999 SCT020 26/21 Q1017;
0120827840999992013042911004-07317-039300FM-15+0409SBJU V0201201N002112200019N0112651N1+02701+02201999999ADDGA1041+006001999GF104991999999999999999999MA1101691999999REMMET051METAR SBJU 291100Z 12004KT 9999 SCT020 27/22 Q1017;
0120827840999992013042912004-07317-039300FM-15+0409SBJU V0201501N005112200019N0112651N1+02801+02201999999ADDGA1041+006001999GF104991999999999999999999MA1101801999999REMMET051METAR SBJU 291200Z 15010KT 9999 SCT020 28/22 Q1018;
0120827840999992013042913004-07317-039300FM-15+0409SBJU V0201701N002612200019N0112651N1+03001+02201999999ADDGA1041+006001999GF104991999999999999999999MA1101801999999REMMET051METAR SBJU 291300Z 17005KT 9999 SCT020 30/22 Q1018;
0120827840999992013042914004-07317-039300FM-15+0409SBJU V0201501N006210060019N0112651N1+02901+02201999999ADDGA1071+006001999GF107991999999999999999999MA1101801999999REMMET051METAR SBJU 291400Z 15012KT 9999 BKN020 29/22 Q1018;
0120827840999992013042915004-07317-039300FM-15+0409SBJU V0201301N006210060019N0112651N1+02701+02301999999ADDGA1071+006001999GF107991999999999999999999MA1101691999999REMMET051METAR SBJU 291500Z 13012KT 9999 BKN020 27/23 Q1017;
0143827840999992013042916004-07317-039300FM-15+0409SBJU V0201501N002610060019N0112651N1+02901+02501999999ADDGA1071+006001999GA2071+021001999GF107991999999999999999999MA1101591999999REMMET058METAR SBJU 291600Z 15005KT 9999 BKN020 BKN070 29/25 Q1016;
0143827840999992013042917004-07317-039300FM-15+0409SBJU V0202501N002110060019N0112651N1+02901+02401999999ADDGA1071+006001999GA2071+021001999GF107991999999999999999999MA1101491999999REMMET058METAR SBJU 291700Z 25004KT 9999 BKN020 BKN070 29/24 Q1015;
0143827840999992013042918004-07317-039300FM-15+0409SBJU V0201901N002610210019N0112651N1+03001+02301999999ADDGA1041+006301999GA2071+021001999GF107991999999999999999999MA1101391999999REMMET058METAR SBJU 291800Z 19005KT 9999 SCT021 BKN070 30/23 Q1014;
0143827840999992013042919004-07317-039300FM-15+0409SBJU V0201801N004110210019N0112651N1+03001+02301999999ADDGA1041+006301999GA2071+021001999GF107991999999999999999999MA1101491999999REMMET058METAR SBJU 291900Z 18008KT 9999 SCT021 BKN070 30/23 Q1015;
0143827840999992013042920004-07317-039300FM-15+0409SBJU V0201801N003610210019N0112651N1+02901+02301999999ADDGA1021+006301999GA2071+021001999GF107991999999999999999999MA1101391999999REMMET058METAR SBJU 292000Z 18007KT 9999 FEW021 BKN070 29/23 Q1014;
0143827840999992013042921004-07317-039300FM-15+0409SBJU V0201801N001010210019N0112651N1+02801+02301999999ADDGA1021+006301999GA2071+021001999GF107991999999999999999999MA1101491999999REMMET058METAR SBJU 292100Z 18002KT 9999 FEW021 BKN070 28/23 Q1015;
0143827840999992013042922004-07317-039300FM-15+0409SBJU V0201501N003110240019N0112651N1+02601+02301999999ADDGA1021+006301999GA2071+024001999GF107991999999999999999999MA1101591999999REMMET058METAR SBJU 292200Z 15006KT 9999 FEW021 BKN080 26/23 Q1016;
0143827840999992013042923004-07317-039300FM-15+0409SBJU V0201601N002610240019N0112651N1+02601+02301999999ADDGA1021+006001999GA2071+024001999GF107991999999999999999999MA1101691999999REMMET058METAR SBJU 292300Z 16005KT 9999 FEW020 BKN080 26/23 Q1017;
0120827840999992013043000004-07317-039300FM-15+0409SBJU V0201501N002112200019N0112651N1+02601+02301999999ADDGA1041+006001999GF104991999999999999999999MA1101691999999REMMET051METAR SBJU 300000Z 15004KT 9999 SCT020 26/23 Q1017;
0120827840999992013043001004-07317-039300FM-15+0409SBJU V0209999C000012200019N0112651N1+02601+02301999999ADDGA1041+006001999GF104991999999999999999999MA1101691999999REMMET051METAR SBJU 300100Z 00000KT 9999 SCT020 26/23 Q1017;
0120827840999992013043002004-07317-039300FM-15+0409SBJU V0201701N001512200019N0112651N1+02601+02301999999ADDGA1041+006001999GF104991999999999999999999MA1101801999999REMMET051METAR SBJU 300200Z 17003KT 9999 SCT020 26/23 Q1018;
0120827840999992013043003004-07317-039300FM-15+0409SBJU V0209999C000012200019N0112651N1+02501+02301999999ADDGA1041+006001999GF104991999999999999999999MA1101691999999REMMET051METAR SBJU 300300Z 00000KT 9999 SCT020 25/23 Q1017;
0120827840999992013043004004-07317-039300FM-15+0409SBJU V0209999C000010060019N0112651N1+02501+02401999999ADDGA1071+006001999GF107991999999999999999999MA1101591999999REMMET051METAR SBJU 300400Z 00000KT 9999 BKN020 25/24 Q1016;
0120827840999992013043005004-07317-039300FM-15+0409SBJU V0209999C000010060019N0112651N1+02501+02401999999ADDGA1071+006001999GF107991999999999999999999MA1101591999999REMMET051METAR SBJU 300500Z 00000KT 9999 BKN020 25/24 Q1016;
0120827840999992013043006004-07317-039300FM-15+0409SBJU V0201001N003610060019N0112651N1+02501+02401999999ADDGA1071+006001999GF107991999999999999999999MA1101591999999REMMET051METAR SBJU 300600Z 10007KT 9999 BKN020 25/24 Q1016;
0130827840999992013043007004-07317-039300FM-15+0409SBJU V0209999C000010060019N0112651N1+02401+02401999999ADDGA1071+006001999GF107991999999999999999999MA1101591999999MW1611REMMET055METAR SBJU 300700Z 00000KT 9999 -RA BKN020 24/24 Q1016;
0120827840999992013043008004-07317-039300FM-15+0409SBJU V0209999C000010060019N0112651N1+02401+02401999999ADDGA1071+006001999GF107991999999999999999999MA1101591999999REMMET051METAR SBJU 300800Z 00000KT 9999 BKN020 24/24 Q1016;
0120827840999992013043009004-07317-039300FM-15+0409SBJU V0209999C000010060019N0112651N1+02401+02401999999ADDGA1071+006001999GF107991999999999999999999MA1101691999999REMMET051METAR SBJU 300900Z 00000KT 9999 BKN020 24/24 Q1017;
0143827840999992013043010004-07317-039300FM-15+0409SBJU V0209999C000010210019N0112651N1+02501+02401999999ADDGA1041+006001999GA2071+021001999GF107991999999999999999999MA1101691999999REMMET058METAR SBJU 301000Z 00000KT 9999 SCT020 BKN070 25/24 Q1017;
0120827840999992013043011004-07317-039300FM-15+0409SBJU V0201701N003112200019N0112651N1+02801+02501999999ADDGA1021+006001999GF102991999999999999999999MA1101691999999REMMET051METAR SBJU 301100Z 17006KT 9999 FEW020 28/25 Q1017;
0120827840999992013043012004-07317-039300FM-15+0409SBJU V0201401N003612200019N0112651N1+02901+02401999999ADDGA1041+006301999GF104991999999999999999999MA1101801999999REMMET051METAR SBJU 301200Z 14007KT 9999 SCT021 29/24 Q1018;
0120827840999992013043013004-07317-039300FM-15+0409SBJU V0201401N005112200019N0112651N1+02901+02301999999ADDGA1041+006301999GF104991999999999999999999MA1101801999999REMMET051METAR SBJU 301300Z 14010KT 9999 SCT021 29/23 Q1018;
0120827840999992013043014004-07317-039300FM-15+0409SBJU V0201301N005110066019N0112651N1+03001+02301999999ADDGA1071+006601999GF107991999999999999999999MA1101691999999REMMET051METAR SBJU 301400Z 13010KT 9999 BKN022 30/23 Q1017;
0120827840999992013043015004-07317-039300FM-15+0409SBJU V0201501N004110066019N0112651N1+03101+02301999999ADDGA1071+006601999GF107991999999999999999999MA1101591999999REMMET051METAR SBJU 301500Z 15008KT 9999 BKN022 31/23 Q1016;
0120827840999992013043016004-07317-039300FM-15+0409SBJU V0201301N003110066019N0112651N1+03201+02301999999ADDGA1071+006601999GF107991999999999999999999MA1101591999999REMMET051METAR SBJU 301600Z 13006KT 9999 BKN022 32/23 Q1016;
0120827840999992013043017004-07317-039300FM-15+0409SBJU V0201701N002610066019N0112651N1+03101+02301999999ADDGA1071+006601999GF107991999999999999999999MA1101491999999REMMET051METAR SBJU 301700Z 17005KT 9999 BKN022 31/23 Q1015;
0120827840999992013043018004-07317-039300FM-15+0409SBJU V0200901N001012200019N0112651N1+03201+02301999999ADDGA1041+006601999GF104991999999999999999999MA1101391999999REMMET051METAR SBJU 301800Z 09002KT 9999 SCT022 32/23 Q1014;
0120827840999992013043019004-07317-039300FM-15+0409SBJU V0201201N002112200019N0112651N1+03001+02301999999ADDGA1041+006901999GF104991999999999999999999MA1101391999999REMMET051METAR SBJU 301900Z 12004KT 9999 SCT023 30/23 Q1014;
0120827840999992013043020004-07317-039300FM-15+0409SBJU V0201201N002112200019N0112651N1+03101+02301999999ADDGA1041+006601999GF104991999999999999999999MA1101391999999REMMET051METAR SBJU 302000Z 12004KT 9999 SCT022 31/23 Q1014;
0120827840999992013043021004-07317-039300FM-15+0409SBJU V0209999C000012200019N0112651N1+02901+02301999999ADDGA1041+006001999GF104991999999999999999999MA1101491999999REMMET051METAR SBJU 302100Z 00000KT 9999 SCT020 29/23 Q1015;
0120827840999992013043022004-07317-039300FM-15+0409SBJU V0209999C000012200019N0112651N1+02801+02301999999ADDGA1041+006601999GF104991999999999999999999MA1101591999999REMMET051METAR SBJU 302200Z 00000KT 9999 SCT022 28/23 Q1016;
0120827840999992013043023004-07317-039300FM-15+0409SBJU V0209999C000012200019N0112651N1+02701+02401999999ADDGA1041+006601999GF104991999999999999999999MA1101591999999REMMET051METAR SBJU 302300Z 00000KT 9999 SCT022 27/24 Q1016;
0168827840999992013050100004-07310-039300FM-12+040999999V0203601N0000199999999002000199+02251+02091101301ADDAA101999990AZ101061AZ201061GA1081+999991081GA2991+999991101GA3991+999991101GE19MSL   +99999+99999GF108991999999999999999999MA1999990096751MD1909990-0041REMSYN004BUFR
0155827840999992013050112004-07310-039300FM-12+040999999V0200901N0021100800199020000199+02621+02181101391ADDAA124001031AY151061AY221061GA1061+008001081GE19MSL   +99999+99999GF106991999999999999999999KA1120N+02111MA1999990096821MD1909990+0011MW1021REMSYN004BUFR
0131827840999992013050118004-07310-039300FM-12+040999999V0200501N0021100800199020000199+02841+02381999999ADDAA101999990AZ101061AZ201061GA1061+008001081GE19MSL   +99999+99999GF106991999999999999999999MA1999990096461ME1900099REMSYN004BUFR
0174827840999992013050200004-07310-039300FM-12+040999999V0203601N0000100800199002000199+02371+02331101261ADDAA106002031AY161061AY221061GA1081+008001081GA2991+999991101GA3991+999991101GE19MSL   +99999+99999GF108991999999999999999999MA1999990096721MD1909990-0031MW1021REMSYN004BUFR
0155827840999992013050212004-07310-039300FM-12+040999999V0201401N0026199999999020000199+02621+02161101381ADDAA124022031AY161061AY221061GA1041+008001081GE19MSL   +99999+99999GF104991999999999999999999KA1120N+02061MA1999990096841MD1909990+0021MW1011REMSYN004BUFR
0136827840999992013050218004-07310-039300FM-12+040999999V0201401N0021199999999020000199+02851+02311101001ADDAA101999990AZ101061AZ201061GA1021+008001081GE19MSL   +99999+99999GF102991999999999999999999MA1999990096491MD1909990+0031REMSYN004BUFR
0136827840999992013050300004-07310-039300FM-12+040999999V0203601N0000199999999002000199+02441+02351101221ADDAA101999990AZ101061AZ201061GA1021+008001081GE19MSL   +99999+99999GF102991999999999999999999MA1999990096691MD1909990-0031REMSYN004BUFR
0149827840999992013050312004-07310-039300FM-12+040999999V0201401N0015100800199020000199+02571+02211101341ADDAA101999990AZ101061AZ201061GA1061+008001081GE19MSL   +99999+99999GF106991999999999999999999KA1120N+02231MA1999990096801MD1909990-0041REMSYN004BUFR
0136827840999992013050318004-07310-039300FM-12+040999999V0201401N0015199999999020000199+02901+02171100991ADDAA101999990AZ101061AZ201061GA1041+008001081GE19MSL   +99999+99999GF104991999999999999999999MA1999990096491MD1909990+0001REMSYN004BUFR
0098827840999992013050400004-07310-039300FM-12+040999999V0203601N0000122000199002000199+02251+02181101281ADDAA101999990AZ101061AZ201061GF100991999999999999999999MA1999990096721MD1909990+0031REMSYN004BUFR
0149827840999992013050412004-07310-039300FM-12+040999999V0201401N0041199999999020000199+02591+02141101311ADDAA101999990AZ101061AZ201061GA1031+008001081GE19MSL   +99999+99999GF103991999999999999999999KA1120N+02001MA1999990096761MD1909990-0041REMSYN004BUFR
0136827840999992013050418004-07310-039300FM-12+040999999V0200901N0036199999999020000199+02991+02191100861ADDAA101999990AZ101061AZ201061GA1021+008001081GE19MSL   +99999+99999GF102991999999999999999999MA1999990096371MD1909990-0121REMSYN004BUFR
0098827840999992013050500004-07310-039300FM-12+040999999V0203601N0000122000199002000199+02271+02131101191ADDAA101999990AZ101061AZ201061GF100991999999999999999999MA1999990096641MD1909990-0081REMSYN004BUFR
0149827840999992013050512004-07310-039300FM-12+040999999V0203601N0000101250199020000199+02671+02201101321ADDAA101999990AZ101061AZ201061GA1071+012501031GE19MSL   +99999+99999GF107991999999999999999999KA1120N+02031MA1999990096781MD1909990+0021REMSYN004BUFR
0152827840999992013050518004-07310-039300FM-12+040999999V0201401N0026199999999020000199+03021+02291100851ADDAA101999990AZ101061AZ201061GA1021+008001081GA2991+999991031GE19MSL   +99999+99999GF104991999999999999999999MA1999990096361MD1909990-0011REMSYN004BUFR
0136827840999992013050600004-07310-039300FM-12+040999999V0203601N0000199999999002000199+02421+02251101261ADDAA101999990AZ101061AZ201061GA1041+008001081GE19MSL   +99999+99999GF104991999999999999999999MA1999990096731MD1909990+0091REMSYN004BUFR
0181827840999992013050612004-07310-039300FM-12+040999999V0200901N0015100800199020000199+02571+02231101431ADDAA101999990AZ101061AZ201061GA1081+008001061GA2991+999991101GA3991+999991101GE19MSL   +99999+99999GF108991999999999999999999KA1120N+01981MA1999990096881MD1909990+0101REMSYN004BUFR
0152827840999992013050618004-07310-039300FM-12+040999999V0203601N0000199999999020000199+02991+02551100971ADDAA101999990AZ101061AZ201061GA1021+008001081GA2991+999991031GE19MSL   +99999+99999GF106991999999999999999999MA1999990096471MD1909990+0111REMSYN004BUFR
0098827840999992013050700004-07310-039300FM-12+040999999V0201401N0010122000199002000199+02491+02361101301ADDAA101999990AZ101061AZ201061GF100991999999999999999999MA1999990096771MD1909990+0041REMSYN004BUFR
0149827840999992013050712004-07310-039300FM-12+040999999V0203601N0000100800199020000199+02601+02391101541ADDAA101999990AZ101061AZ201061GA1061+008001081GE19MSL   +99999+99999GF106991999999999999999999KA1120N+01981MA1999990097001MD1909990+0121REMSYN004BUFR
0136827840999992013050718004-07310-039300FM-12+040999999V0200501N0010199999999020000199+03091+02411101071ADDAA101999990AZ101061AZ201061GA1041+008001081GE19MSL   +99999+99999GF104991999999999999999999MA1999990096571MD1909990+0101REMSYN004BUFR
0136827840999992013050800004-07310-039300FM-12+040999999V0203601N0000199999999020000199+02471+02251101421ADDAA101999990AZ101061AZ201061GA1011+008001081GE19MSL   +99999+99999GF101991999999999999999999MA1999990096881MD1909990+0111REMSYN004BUFR
0149827840999992013050812004-07310-039300FM-12+040999999V0201401N0005100800199020000199+02521+02351101531ADDAA101999990AZ101061AZ201061GA1061+008001081GE19MSL   +99999+99999GF106991999999999999999999KA1120N+02001MA1999990096981MD1909990+0001REMSYN004BUFR
0136827840999992013050818004-07310-039300FM-12+040999999V0200501N0015199999999020000199+03041+02501101141ADDAA101999990AZ101061AZ201061GA1041+008001081GE19MSL   +99999+99999GF106991999999999999999999MA1999990096641MD1909990+0071REMSYN004BUFR
0098827840999992013050900004-07310-039300FM-12+040999999V0203601N0000122000199002000199+02391+02311101451ADDAA101999990AZ101061AZ201061GF100991999999999999999999MA1999990096891MD1909990+0011REMSYN004BUFR
0187827840999992013050912004-07310-039300FM-12+040999999V0203601N0000100800199020000199+02391+02331101601ADDAA124008031AY161061AY221061GA1081+008001081GA2991+999991101GA3991+999991101GE19MSL   +99999+99999GF108991999999999999999999KA1120N+02201MA1999990097031MD1909990+0051MW1021REMSYN004BUFR
0152827840999992013050918004-07310-039300FM-12+040999999V0203601N0000199999999020000199+02841+02501101091ADDAA101999990AZ101061AZ201061GA1021+008001081GA2991+999991051GE19MSL   +99999+99999GF106991999999999999999999MA1999990096591MD1909990-0051REMSYN004BUFR
0098827840999992013051000004-07310-039300FM-12+040999999V0203601N0000122000199002000199+02371+02331101441ADDAA101999990AZ101061AZ201061GF100991999999999999999999MA1999990096871MD1909990-0021REMSYN004BUFR
0187827840999992013051012004-07310-039300FM-12+040999999V0201401N0021100800199020000199+02251+02111101241ADDAA124004031AY151061AY221061GA1081+008001061GA2991+999991101GA3991+999991101GE19MSL   +99999+99999GF108991999999999999999999KA1120N+02111MA1999990096661MD1909990-0371MW1021REMSYN004BUFR
0168827840999992013051018004-07310-039300FM-12+040999999V0203601N0000100800199020000199+02721+02391101151ADDAA101999990AZ101061AZ201061GA1081+008001061GA2991+999991101GA3991+999991101GE19MSL   +99999+99999GF108991999999999999999999MA1999990096631MD1909990+0041REMSYN004BUFR
0136827840999992013051100004-07310-039300FM-12+040999999V0203601N0000199999999002000199+02551+02061101371ADDAA101999990AZ101061AZ201061GA1031+012501031GE19MSL   +99999+99999GF103991999999999999999999MA1999990096811MD1909990-0061REMSYN004BUFR
0149827840999992013051112004-07310-039300FM-12+040999999V0201401N0021199999999020000199+02591+02101101531ADDAA101999990AZ101061AZ201061GA1031+008001081GE19MSL   +99999+99999GF103991999999999999999999KA1120N+02131MA1999990096981MD1909990+0321REMSYN004BUFR
0136827840999992013051118004-07310-039300FM-12+040999999V0201401N0021199999999020000199+02891+02271101101ADDAA101999990AZ101061AZ201061GA1041+008001081GE19MSL   +99999+99999GF104991999999999999999999MA1999990096601MD1909990-0031REMSYN004BUFR
0136827840999992013051200004-07310-039300FM-12+040999999V0201401N0010100800199002000199+02351+02191101381ADDAA101999990AZ101061AZ201061GA1051+008001081GE19MSL   +99999+99999GF105991999999999999999999MA1999990096841MD1909990+0031REMSYN004BUFR
0165827840999992013051212004-07310-039300FM-12+040999999V0201401N0021199999999020000199+02571+02101101381ADDAA101999990AZ101061AZ201061GA1031+008001081GA2991+999991041GE19MSL   +99999+99999GF105991999999999999999999KA1120N+02151MA1999990096831MD1909990-0151REMSYN004BUFR
0136827840999992013051218004-07310-039300FM-12+040999999V0200901N0015100800199020000199+02921+02321101031ADDAA101999990AZ101061AZ201061GA1061+008001081GE19MSL   +99999+99999GF106991999999999999999999MA1999990096531MD1909990-0071REMSYN004BUFR
0098827840999992013051300004-07310-039300FM-12+040999999V0201401N0010122000199002000199+02221+02071101261ADDAA101999990AZ101061AZ201061GF100991999999999999999999MA1999990096701MD1909990-0141REMSYN004BUFR
0149827840999992013051312004-07310-039300FM-12+040999999V0201401N0021199999999020000199+02641+02051101391ADDAA101999990AZ101061AZ201061GA1011+008001081GE19MSL   +99999+99999GF101991999999999999999999KA1120N+02051MA1999990096841MD1909990+0011REMSYN004BUFR
0136827840999992013051318004-07310-039300FM-12+040999999V0200901N0015199999999020000199+03001+02141100961ADDAA101999990AZ101061AZ201061GA1011+008001081GE19MSL   +99999+99999GF101991999999999999999999MA1999990096461MD1909990-0071REMSYN004BUFR
0098827840999992013051400004-07310-039300FM-12+040999999V0203601N0000122000199002000199+02191+02081101281ADDAA101999990AZ101061AZ201061GF100991999999999999999999MA1999990096721MD1909990+0021REMSYN004BUFR
0149827840999992013051412004-07310-039300FM-12+040999999V0201801N0031199999999002000199+02701+02151101351ADDAA101999990AZ101061AZ201061GA1031+008001081GE19MSL   +99999+99999GF103991999999999999999999KA1120N+02051MA1999990096801MD1909990-0041REMSYN004BUFR
0136827840999992013051418004-07310-039300FM-12+040999999V0201401N0015100800199020000199+03091+02561100891ADDAA101999990AZ101061AZ201061GA1061+008001061GE19MSL   +99999+99999GF106991999999999999999999MA1999990096391MD1909990-0071REMSYN004BUFR
0136827840999992013051500004-07310-039300FM-12+040999999V0201401N0015199999999002000199+02521+02211101191ADDAA101999990AZ101061AZ201061GA1041+008001061GE19MSL   +99999+99999GF104991999999999999999999MA1999990096671MD1909990-0051REMSYN004BUFR
0149827840999992013051512004-07310-039300FM-12+040999999V0201401N0015199999999020000199+02541+02041101421ADDAA101999990AZ101061AZ201061GA1021+008001081GE19MSL   +99999+99999GF102991999999999999999999KA1120N+01951MA1999990096881MD1909990+0081REMSYN004BUFR
0136827840999992013051518004-07310-039300FM-12+040999999V0200901N0031199999999020000199+02901+02141100951ADDAA101999990AZ101061AZ201061GA1021+008001081GE19MSL   +99999+99999GF102991999999999999999999MA1999990096461MD1909990+0071REMSYN004BUFR
0098827840999992013051600004-07310-039300FM-12+040999999V0200901N0005122000199002000199+02321+02151101151ADDAA101999990AZ101061AZ201061GF100991999999999999999999MA1999990096611MD1909990-0061REMSYN004BUFR
0181827840999992013051612004-07310-039300FM-12+040999999V0203601N0000100800199020000199+02491+02211101261ADDAA101999990AZ101061AZ201061GA1081+008001061GA2991+999991101GA3991+999991101GE19MSL   +99999+99999GF108991999999999999999999KA1120N+02151MA1999990096701MD1909990-0181REMSYN004BUFR
0136827840999992013051618004-07310-039300FM-12+040999999V0200901N0015100800199020000199+02971+02371100931ADDAA101999990AZ101061AZ201061GA1061+008001081GE19MSL   +99999+99999GF106991999999999999999999MA1999990096461MD1909990+0001REMSYN004BUFR
0136827840999992013051700004-07310-039300FM-12+040999999V0203601N0000199999999002000199+02291+02141101151ADDAA101999990AZ101061AZ201061GA1021+008001081GE19MSL   +99999+99999GF102991999999999999999999MA1999990096601MD1909990-0011REMSYN004BUFR
0149827840999992013051712004-07310-039300FM-12+040999999V0200901N0021100800199020000199+02771+02211101301ADDAA101999990AZ101061AZ201061GA1061+008001081GE19MSL   +99999+99999GF106991999999999999999999KA1120N+02071MA1999990096771MD1909990+0071REMSYN004BUFR
0136827840999992013051800004-07310-039300FM-12+040999999V0201401N0015100800199000200199+02551+02151101191ADDAA101999990AZ101061AZ201061GA1061+008001081GE19MSL   +99999+99999GF106991999999999999999999MA1999990096681MD1909990+0081REMSYN004BUFR
0149827840999992013051812004-07310-039300FM-12+040999999V0201401N0026100800199020000199+02551+02151101421ADDAA101999990AZ101061AZ201061GA1061+008001081GE19MSL   +99999+99999GF106991999999999999999999KA1120N+02301MA1999990096881MD1909990+0101REMSYN004BUFR
0152827840999992013051818004-07310-039300FM-12+040999999V0201401N0031100800199020000199+02991+02421101061ADDAA101999990AZ101061AZ201061GA1051+008001081GA2991+999991031GE19MSL   +99999+99999GF107991999999999999999999MA1999990096591MD1909990+0051REMSYN004BUFR
0136827840999992013051900004-07310-039300FM-12+040999999V0201801N0015101750199002000199+02341+02071101381ADDAA101999990AZ101061AZ201061GA1051+017501001GE19MSL   +99999+99999GF105991999999999999999999MA1999990096831MD1909990+0151REMSYN004BUFR
0149827840999992013051912004-07310-039300FM-12+040999999V0201801N0026100800199020000199+02601+02081101591ADDAA101999990AZ101061AZ201061GA1061+008001081GE19MSL   +99999+99999GF106991999999999999999999KA1120N+01951MA1999990097041MD1909990+0161REMSYN004BUFR
0136827840999992013051918004-07310-039300FM-12+040999999V0201401N0015100800199020000199+02841+02241101191ADDAA101999990AZ101061AZ201061GA1061+008001081GE19MSL   +99999+99999GF106991999999999999999999MA1999990096681MD1909990+0091REMSYN004BUFR
0098827840999992013052000004-07310-039300FM-12+040999999V0201801N0021122000199002000199+02171+02061101461ADDAA101999990AZ101061AZ201061GF100991999999999999999999MA1999990096891MD1909990+0061REMSYN004BUFR
0149827840999992013052012004-07310-039300FM-12+040999999V0201401N0021199999999020000199+02651+01901101511ADDAA101999990AZ101061AZ201061GA1011+008001081GE19MSL   +99999+99999GF101991999999999999999999KA1120N+01881MA1999990096941MD1909990-0101REMSYN004BUFR
0098827840999992013052018004-07310-039300FM-12+040999999V0200901N0015122000199020000199+03091+02091100901ADDAA101999990AZ101061AZ201061GF100991999999999999999999MA1999990096391MD1909990-0291REMSYN004BUFR
0098827840999992013052100004-07310-039300FM-12+040999999V0200901N0015122000199002000199+02271+01901101231ADDAA101999990AZ101061AZ201061GF100991999999999999999999MA1999990096681MD1909990-0211REMSYN004BUFR
0149827840999992013052112004-07310-039300FM-12+040999999V0203601N0000199999999020000199+02541+02271101331ADDAA101999990AZ101061AZ201061GA1021+008001081GE19MSL   +99999+99999GF102991999999999999999999KA1120N+01901MA1999990096761MD1909990-0181REMSYN004BUFR
0152827840999992013052118004-07310-039300FM-12+040999999V0203601N0000199999999020000199+03141+02351100781ADDAA101999990AZ101061AZ201061GA1011+008001081GA2991+999991051GE19MSL   +99999+99999GF102991999999999999999999MA1999990096261MD1909990-0131REMSYN004BUFR
0136827840999992013052200004-07310-039300FM-12+040999999V0203601N0010199999999002000199+02291+02091101101ADDAA101999990AZ101061AZ201061GA1031+008001081GE19MSL   +99999+99999GF103991999999999999999999MA1999990096551MD1909990-0131REMSYN004BUFR
0149827840999992013052212004-07310-039300FM-12+040999999V0203601N0000199999999020000199+02651+02221101361ADDAA101999990AZ101061AZ201061GA1021+008001081GE19MSL   +99999+99999GF102991999999999999999999KA1120N+01801MA1999990096811MD1909990+0051REMSYN004BUFR
0136827840999992013052218004-07310-039300FM-12+040999999V0200501N0026199999999020000199+03221+02451100691ADDAA101999990AZ101061AZ201061GA1031+008001081GE19MSL   +99999+99999GF103991999999999999999999MA1999990096231MD1909990-0031REMSYN004BUFR
0136827840999992013052300004-07310-039300FM-12+040999999V0203601N0000199999999002000199+02441+02321101081ADDAA101999990AZ101061AZ201061GA1011+008001081GE19MSL   +99999+99999GF101991999999999999999999MA1999990096561MD1909990+0011REMSYN004BUFR
0165827840999992013052312004-07310-039300FM-12+040999999V0200501N0015199999999020000199+02551+01981101321ADDAA101999990AZ101061AZ201061GA1031+008001081GA2991+999991041GE19MSL   +99999+99999GF108991999999999999999999KA1120N+01841MA1999990096781MD1909990-0031REMSYN004BUFR
0152827840999992013052318004-07310-039300FM-12+040999999V0200501N0015199999999020000199+03151+02501100881ADDAA101999990AZ101061AZ201061GA1041+008001081GA2991+999991041GE19MSL   +99999+99999GF106991999999999999999999MA1999990096411MD1909990+0181REMSYN004BUFR
0136827840999992013052400004-07310-039300FM-12+040999999V0203601N0000199999999002000199+02351+02241101181ADDAA101999990AZ101061AZ201061GA1021+012501041GE19MSL   +99999+99999GF102991999999999999999999MA1999990096641MD1909990+0081REMSYN004BUFR
0149827840999992013052412004-07310-039300FM-12+040999999V0200501N0015100800199020000199+02671+01451101311ADDAA101999990AZ101061AZ201061GA1061+008001081GE19MSL   +99999+99999GF106991999999999999999999KA1120N+02031MA1999990096771MD1909990-0011REMSYN004BUFR
0168827840999992013052418004-07310-039300FM-12+040999999V0200501N0010199999999020000199+03271+02341100761ADDAA101999990AZ101061AZ201061GA1031+008001081GA2991+999991031GA3991+999991101GE19MSL   +99999+99999GF108991999999999999999999MA1999990096321MD1909990-0091REMSYN004BUFR
0168827840999992013052500004-07310-039300FM-12+040999999V0203601N0000100800199002000199+02671+02431101251ADDAA101999990AZ101061AZ201061GA1081+008001081GA2991+999991101GA3991+999991101GE19MSL   +99999+99999GF108991999999999999999999MA1999990096751MD1909990+0111REMSYN004BUFR
0171827840999992013052512004-07310-039300FM-12+040999999V0201801N0015100800199020000199+02391+02281101491ADDAA124072031AY191061AY261061GA1051+008001061GA2991+999991031GE19MSL   +99999+99999GF107991999999999999999999KA1120N+01941MA1999990096951MD1909990+0181MW1021REMSYN004BUFR
0152827840999992013052518004-07310-039300FM-12+040999999V0201401N0015199999999020000199+02771+02461100781ADDAA101999990AZ101061AZ201061GA1041+008001081GA2991+999991031GE19MSL   +99999+99999GF106991999999999999999999MA1999990096341MD1909990+0021REMSYN004BUFR
0174827840999992013052600004-07310-039300FM-12+040999999V0203601N0000100800199002000199+02251+02181101431ADDAA106003031AY121061AY221061GA1081+008001081GA2991+999991101GA3991+999991101GE19MSL   +99999+99999GF108991999999999999999999MA1999990096851MD1909990+0101MW1211REMSYN004BUFR
0165827840999992013052612004-07310-039300FM-12+040999999V0203201N0015199999999020000199+02441+02321101591ADDAA124003031AZ101061AZ201061GA1041+008001081GA2991+999991051GE19MSL   +99999+99999GF106991999999999999999999KA1120N+02111MA1999990097011MD1909990+0061REMSYN004BUFR
0152827840999992013052618004-07310-039300FM-12+040999999V0202701N0015199999999020000199+02991+02391101101ADDAA101999990AZ101061AZ201061GA1041+008001081GA2991+999991051GE19MSL   +99999+99999GF105991999999999999999999MA1999990096621MD1909990+0081REMSYN004BUFR
0136827840999992013052700004-07310-039300FM-12+040999999V0203601N0000199999999002000199+02291+02221101331ADDAA101999990AZ101061AZ201061GA1021+017501051GE19MSL   +99999+99999GF102991999999999999999999MA1999990096761MD1909990-0091REMSYN004BUFR
0149827840999992013052712004-07310-039300FM-12+040999999V0202701N0015199999999020000199+02551+02061101521ADDAA101999990AZ101061AZ201061GA1021+008001081GE19MSL   +99999+99999GF102991999999999999999999KA1120N+01941MA1999990096961MD1909990-0051REMSYN004BUFR
0136827840999992013052718004-07310-039300FM-12+040999999V0202701N0015199999999020000199+03021+02241101011ADDAA101999990AZ101061AZ201061GA1021+008001081GE19MSL   +99999+99999GF102991999999999999999999MA1999990096531MD1909990-0091REMSYN004BUFR
0136827840999992013052800004-07310-039300FM-12+040999999V0202701N0021199999999002000199+02451+02191101141ADDAA101999990AZ101061AZ201061GA1031+008001061GE19MSL   +99999+99999GF103991999999999999999999MA1999990096611MD1909990-0151REMSYN004BUFR
0149827840999992013052812004-07310-039300FM-12+040999999V0203601N0026199999999020000199+02591+02031101311ADDAA101999990AZ101061AZ201061GA1031+008001081GE19MSL   +99999+99999GF103991999999999999999999KA1120N+02201MA1999990096781MD1909990-0181REMSYN004BUFR
0136827840999992013052818004-07310-039300FM-12+040999999V0203601N0026199999999020000199+03021+02071101061ADDAA101999990AZ101061AZ201061GA1041+008001081GE19MSL   +99999+99999GF104991999999999999999999MA1999990096571MD1909990+0041REMSYN004BUFR
0136827840999992013052900004-07310-039300FM-12+040999999V0203601N0000199999999002000199+02251+02111101141ADDAA101999990AZ101061AZ201061GA1041+008001081GE19MSL   +99999+99999GF104991999999999999999999MA1999990096601MD1909990-0011REMSYN004BUFR
0149827840999992013052912004-07310-039300FM-12+040999999V0203601N0021199999999020000199+02651+02221101331ADDAA101999990AZ101061AZ201061GA1041+008001081GE19MSL   +99999+99999GF104991999999999999999999KA1120N+01941MA1999990096781MD1909990+0001REMSYN004BUFR
0136827840999992013052918004-07310-039300FM-12+040999999V0203201N0021199999999020000199+03051+02141100911ADDAA101999990AZ101061AZ201061GA1031+008001081GE19MSL   +99999+99999GF103991999999999999999999MA1999990096431MD1909990-0141REMSYN004BUFR
0098827840999992013053000004-07310-039300FM-12+040999999V0203601N0000122000199002000199+02291+02141101231ADDAA101999990AZ101061AZ201061GF100991999999999999999999MA1999990096691MD1909990+0061REMSYN004BUFR
0149827840999992013053012004-07310-039300FM-12+040999999V0203601N0000100800199020000199+02551+02291101491ADDAA101999990AZ101061AZ201061GA1061+008001081GE19MSL   +99999+99999GF106991999999999999999999KA1120N+01921MA1999990096931MD1909990+0151REMSYN004BUFR
0136827840999992013053018004-07310-039300FM-12+040999999V0200901N0031199999999020000199+03091+01841101011ADDAA101999990AZ101061AZ201061GA1041+008001081GE19MSL   +99999+99999GF104991999999999999999999MA1999990096531MD1909990+0101REMSYN004BUFR
0155827840999992013053112004-07310-039300FM-12+040999999V0203601N0000100800199020000199+02401+02261101541ADDAA124000831AY151061AY221061GA1061+008001081GE19MSL   +99999+99999GF106991999999999999999999KA1120N+02001MA1999990096961MD1909990+0031MW1011REMSYN004BUFR
0136827840999992013053118004-07310-039300FM-12+040999999V0200901N0015199999999020000199+03121+02141100931ADDAA101999990AZ101061AZ201061GA1021+008001081GE19MSL   +99999+99999GF102991999999999999999999MA1999990096441MD1909990-0091REMSYN004BUFR
0136827840999992013060100004-07310-039300FM-12+040999999V0203601N0000199999999002000199+02521+02401101171ADDAA101999990AZ101061AZ201061GA1021+008001081GE19MSL   +99999+99999GF102991999999999999999999MA1999990096621MD1909990-0081REMSYN004BUFR
0149827840999992013060112004-07310-039300FM-12+040999999V0201401N0031199999999020000199+02591+02101101471ADDAA101999990AZ101061AZ201061GA1021+008001081GE19MSL   +99999+99999GF102991999999999999999999KA1120N+02151MA1999990096931MD1909990-0031REMSYN004BUFR
0136827840999992013060118004-07310-039300FM-12+040999999V0203601N0000199999999020000199+03091+02091100911ADDAA101999990AZ101061AZ201061GA1011+008001081GE19MSL   +99999+99999GF101991999999999999999999MA1999990096421MD1909990-0021REMSYN004BUFR
0098827840999992013060200004-07310-039300FM-12+040999999V0201401N0041122000199002000199+02491+01871101241ADDAA101999990AZ101061AZ201061GF100991999999999999999999MA1999990096711MD1909990+0091REMSYN004BUFR
0149827840999992013060212004-07310-039300FM-12+040999999V0203601N0000199999999020000199+02491+01961101441ADDAA101999990AZ101061AZ201061GA1011+008001081GE19MSL   +99999+99999GF101991999999999999999999KA1120N+02001MA1999990096891MD1909990-0041REMSYN004BUFR
0152827840999992013060218004-07310-039300FM-12+040999999V0200901N0015199999999020000199+03071+01981101011ADDAA101999990AZ101061AZ201061GA1011+008001081GA2991+999991041GE19MSL   +99999+99999GF102991999999999999999999MA1999990096521MD1909990+0101REMSYN004BUFR
0098827840999992013060300004-07310-039300FM-12+040999999V0200901N0010122000199002000199+02121+01971101431ADDAA101999990AZ101061AZ201061GF100991999999999999999999MA1999990096851MD1909990+0141REMSYN004BUFR
0149827840999992013060312004-07310-039300FM-12+040999999V0200901N0021100800199020000199+02671+02041101611ADDAA101999990AZ101061AZ201061GA1061+008001081GE19MSL   +99999+99999GF106991999999999999999999KA1120N+01661MA1999990097091MD1909990+0201REMSYN004BUFR
0136827840999992013060318004-07310-039300FM-12+040999999V0203601N0000199999999020000199+03091+02311101071ADDAA101999990AZ101061AZ201061GA1031+008001081GE19MSL   +99999+99999GF103991999999999999999999MA1999990096581MD1909990+0061REMSYN004BUFR
0098827840999992013060400004-07310-039300FM-12+040999999V0203601N0000122000199002000199+02241+02121101411ADDAA101999990AZ101061AZ201061GF100991999999999999999999MA1999990096891MD1909990+0041REMSYN004BUFR
0155827840999992013060412004-07310-039300FM-12+040999999V0203601N0000100800199020000199+02391+02241101571ADDAA124017031AY161061AY221061GA1061+008001081GE19MSL   +99999+99999GF106991999999999999999999KA1120N+01961MA1999990096981MD1909990-0111MW1021REMSYN004BUFR
0136827840999992013060418004-07310-039300FM-12+040999999V0200901N0015199999999020000199+03091+02441100931ADDAA101999990AZ101061AZ201061GA1041+008001081GE19MSL   +99999+99999GF104991999999999999999999MA1999990096461MD1909990-0121REMSYN004BUFR
0168827840999992013060500004-07310-039300FM-12+040999999V0203601N0000100800199002000199+02391+02211101471ADDAA101999990AZ101061AZ201061GA1081+008001081GA2991+999991101GA3991+999991101GE19MSL   +99999+99999GF108991999999999999999999MA1999990096901MD1909990+0011REMSYN004BUFR
0155827840999992013060512004-07310-039300FM-12+040999999V0201401N0015100800199020000199+02471+02171101521ADDAA124001031AY151061AY221061GA1071+008001061GE19MSL   +99999+99999GF107991999999999999999999KA1120N+01981MA1999990096971MD1909990-0011MW1021REMSYN004BUFR
0142827840999992013060518004-07310-039300FM-12+040999999V0201401N0015100800199020000199+02471+02341101101ADDAA106004031AY161061AY211061GA1051+008001081GE19MSL   +99999+99999GF105991999999999999999999MA1999990096571MD1909990+0111MW1021REMSYN004BUFR
0158827840999992013060600004-07310-039300FM-12+040999999V0203601N0000199999999002000199+02271+02211101401ADDAA106011031AY161061AY221061GA1041+008001061GA2991+999991041GE19MSL   +99999+99999GF106991999999999999999999MA1999990096831MD1909990-0071MW1021REMSYN004BUFR
0155827840999992013060612004-07310-039300FM-12+040999999V0201401N0021100800199020000199+02371+02221101591ADDAA124017031AY151061AY221061GA1061+008001081GE19MSL   +99999+99999GF106991999999999999999999KA1120N+02091MA1999990097001MD1909990+0031MW1021REMSYN004BUFR
0136827840999992013060618004-07310-039300FM-12+040999999V0203601N0000199999999020000199+03021+02241101101ADDAA101999990AZ101061AZ201061GA1041+008001081GE19MSL   +99999+99999GF104991999999999999999999MA1999990096611MD1909990+0041REMSYN004BUFR
0098827840999992013060700004-07310-039300FM-12+040999999V0203601N0000122000199002000199+02201+02101101431ADDAA101999990AZ101061AZ201061GF100991999999999999999999MA1999990096851MD1909990+0021REMSYN004BUFR
0149827840999992013060712004-07310-039300FM-12+040999999V0200901N0015199999999020000199+02541+02021101441ADDAA101999990AZ101061AZ201061GA1011+008001081GE19MSL   +99999+99999GF101991999999999999999999KA1120N+01781MA1999990096861MD1909990-0141REMSYN004BUFR
0136827840999992013060718004-07310-039300FM-12+040999999V0200901N0015199999999020000199+02991+02031101081ADDAA101999990AZ101061AZ201061GA1011+008001081GE19MSL   +99999+99999GF101991999999999999999999MA1999990096591MD1909990-0021REMSYN004BUFR
0136827840999992013060800004-07310-039300FM-12+040999999V0203601N0000199999999002000199+02121+02001101441ADDAA101999990AZ101061AZ201061GA1011+017501041GE19MSL   +99999+99999GF101991999999999999999999MA1999990096861MD1909990+0011REMSYN004BUFR
0149827840999992013060812004-07310-039300FM-12+040999999V0201401N0021199999999020000199+02541+02081101601ADDAA101999990AZ101061AZ201061GA1021+008001081GE19MSL   +99999+99999GF102991999999999999999999KA1120N+01841MA1999990097021MD1909990+0161REMSYN004BUFR
0136827840999992013060818004-07310-039300FM-12+040999999V0201401N0021199999999020000199+02821+02121101131ADDAA101999990AZ101061AZ201061GA1041+008001081GE19MSL   +99999+99999GF104991999999999999999999MA1999990096641MD1909990+0051REMSYN004BUFR
0098827840999992013060900004-07310-039300FM-12+040999999V0203601N0000122000199002000199+02241+02071101341ADDAA101999990AZ101061AZ201061GF100991999999999999999999MA1999990096781MD1909990-0081REMSYN004BUFR
0149827840999992013060912004-07310-039300FM-12+040999999V0201401N0021100800199020000199+02551+01971101441ADDAA101999990AZ101061AZ201061GA1051+008001081GE19MSL   +99999+99999GF105991999999999999999999KA1120N+02091MA1999990096871MD1909990+0151REMSYN004BUFR
0136827840999992013060918004-07310-039300FM-12+040999999V0201401N0026100800199020000199+02841+02121101141ADDAA101999990AZ101061AZ201061GA1051+008001081GE19MSL   +99999+99999GF105991999999999999999999MA1999990096611MD1909990-0031REMSYN004BUFR
0098827840999992013061000004-07310-039300FM-12+040999999V0203601N0000122000199002000199+02321+02021101381ADDAA101999990AZ101061AZ201061GF100991999999999999999999MA1999990096831MD1909990+0051REMSYN004BUFR
0149827840999992013061012004-07310-039300FM-12+040999999V0201401N0021100800199020000199+02521+01721101561ADDAA101999990AZ101061AZ201061GA1061+008001081GE19MSL   +99999+99999GF106991999999999999999999KA1120N+02001MA1999990096991MD1909990+0121REMSYN004BUFR
0136827840999992013061018004-07310-039300FM-12+040999999V0201401N0021199999999020000199+02851+02231101171ADDAA101999990AZ101061AZ201061GA1041+008001081GE19MSL   +99999+99999GF104991999999999999999999MA1999990096661MD1909990+0051REMSYN004BUFR
0136827840999992013061100004-07310-039300FM-12+040999999V0203601N0000199999999020000199+02151+02041101421ADDAA101999990AZ101061AZ201061GA1021+008001081GE19MSL   +99999+99999GF102991999999999999999999MA1999990096851MD1909990+0051REMSYN004BUFR
0149827840999992013061112004-07310-039300FM-12+040999999V0201401N0026100800199020000199+02651+02041101721ADDAA101999990AZ101061AZ201061GA1061+008001081GE19MSL   +99999+99999GF106991999999999999999999KA1120N+02031MA1999990097141MD1909990+0151REMSYN004BUFR
0152827840999992013061118004-07310-039300FM-12+040999999V0201401N0026199999999020000199+02991+01811101161ADDAA101999990AZ101061AZ201061GA1041+008001081GA2991+999991041GE19MSL   +99999+99999GF106991999999999999999999MA1999990096661MD1909990+0001REMSYN004BUFR
0136827840999992013061200004-07310-039300FM-12+040999999V0201401N0010199999999002000199+02341+02131101541ADDAA101999990AZ101061AZ201061GA1021+008001081GE19MSL   +99999+99999GF102991999999999999999999MA1999990096991MD1909990+0141REMSYN004BUFR
0149827840999992013061212004-07310-039300FM-12+040999999V0201401N0015199999999002000199+02591+02061101581ADDAA101999990AZ101061AZ201061GA1011+017501081GE19MSL   +99999+99999GF101991999999999999999999KA1120N+02001MA1999990097021MD1909990-0121REMSYN004BUFR
0152827840999992013061218004-07310-039300FM-12+040999999V0201401N0031199999999020000199+03121+01971101121ADDAA101999990AZ101061AZ201061GA1031+008001081GA2991+999991051GE19MSL   +99999+99999GF104991999999999999999999MA1999990096651MD1909990-0011REMSYN004BUFR
0136827840999992013061300004-07310-039300FM-12+040999999V0201401N0021100800199002000199+02601+02101101451ADDAA101999990AZ101061AZ201061GA1061+008001081GE19MSL   +99999+99999GF106991999999999999999999MA1999990096921MD1909990-0071REMSYN004BUFR
0165827840999992013061312004-07310-039300FM-12+040999999V0201401N0031199999999020000199+02471+01921101521ADDAA101999990AZ101061AZ201061GA1021+008001081GA2991+999991051GE19MSL   +99999+99999GF104991999999999999999999KA1120N+02171MA1999990096981MD1909990-0041REMSYN004BUFR
0136827840999992013061318004-07310-039300FM-12+040999999V0201401N0021100800199020000199+02901+02291101031ADDAA101999990AZ101061AZ201061GA1071+008001061GE19MSL   +99999+99999GF107991999999999999999999MA1999990096561MD1909990-0091REMSYN004BUFR
0168827840999992013061400004-07310-039300FM-12+040999999V0201801N0015100800199002000199+02541+02311101271ADDAA101999990AZ101061AZ201061GA1081+008001061GA2991+999991101GA3991+999991101GE19MSL   +99999+99999GF108991999999999999999999MA1999990096731MD1909990-0191REMSYN004BUFR
0149827840999992013061412004-07310-039300FM-12+040999999V0201401N0015199999999020000199+02321+02151101461ADDAA101999990AZ101061AZ201061GA1041+008001081GE19MSL   +99999+99999GF107991999999999999999999KA1120N+02151MA1999990096901MD1909990-0091REMSYN004BUFR
0136827840999992013061418004-07310-039300FM-12+040999999V0201401N0015100800199020000199+02821+02241101001ADDAA101999990AZ101061AZ201061GA1061+008001061GE19MSL   +99999+99999GF106991999999999999999999MA1999990096531MD1909990-0031REMSYN004BUFR
0168827840999992013061500004-07310-039300FM-12+040999999V0203601N0000100800199002000199+02471+02321101291ADDAA101999990AZ101061AZ201061GA1081+008001081GA2991+999991101GA3991+999991101GE19MSL   +99999+99999GF108991999999999999999999MA1999990096731MD1909990+0001REMSYN004BUFR
0149827840999992013061512004-07310-039300FM-12+040999999V0201401N0031100800199020000199+02591+02121101361ADDAA101999990AZ101061AZ201061GA1061+008001081GE19MSL   +99999+99999GF106991999999999999999999KA1120N+02031MA1999990096831MD1909990-0071REMSYN004BUFR
0152827840999992013061518004-07310-039300FM-12+040999999V0201801N0015100800199020000199+03171+01651101091ADDAA101999990AZ101061AZ201061GA1061+008001081GA2991+999991001GE19MSL   +99999+99999GF108991999999999999999999MA1999990096621MD1909990+0091REMSYN004BUFR
0136827840999992013061600004-07310-039300FM-12+040999999V0201801N0010100800199002000199+02441+02171101291ADDAA101999990AZ101061AZ201061GA1051+008001081GE19MSL   +99999+99999GF105991999999999999999999MA1999990096751MD1909990+0021REMSYN004BUFR
0165827840999992013061612004-07310-039300FM-12+040999999V0201401N0021199999999020000199+02621+02011101471ADDAA101999990AZ101061AZ201061GA1021+008001081GA2991+999991041GE19MSL   +99999+99999GF104991999999999999999999KA1120N+02001MA1999990096931MD1909990+0101REMSYN004BUFR
0136827840999992013061618004-07310-039300FM-12+040999999V0201401N0026199999999020000199+03191+02091101111ADDAA101999990AZ101061AZ201061GA1041+008001081GE19MSL   +99999+99999GF104991999999999999999999MA1999990096621MD1909990+0001REMSYN004BUFR
0152827840999992013061700004-07310-039300FM-12+040999999V0201801N0010100800199002000199+02651+02111101361ADDAA101999990AZ101061AZ201061GA1061+008001031GA2991+999991101GE19MSL   +99999+99999GF106991999999999999999999MA1999990096851MD1909990+0101REMSYN004BUFR
0187827840999992013061712004-07310-039300FM-12+040999999V0201401N0015100800199020000199+02521+02431101601ADDAA124000431AY151061AY221061GA1081+008001061GA2991+999991101GA3991+999991101GE19MSL   +99999+99999GF108991999999999999999999KA1120N+02161MA1999990097061MD1909990+0131MW1021REMSYN004BUFR
0136827840999992013061718004-07310-039300FM-12+040999999V0201401N0015100800199020000199+03071+02371101101ADDAA101999990AZ101061AZ201061GA1061+008001081GE19MSL   +99999+99999GF106991999999999999999999MA1999990096611MD1909990-0011REMSYN004BUFR
0136827840999992013061800004-07310-039300FM-12+040999999V0203601N0000100800199002000199+02491+02291101331ADDAA101999990AZ101061AZ201061GA1061+008001081GE19MSL   +99999+99999GF106991999999999999999999MA1999990096791MD1909990-0061REMSYN004BUFR
0155827840999992013061812004-07310-039300FM-12+040999999V0201401N0015199999999020000199+02551+02211101431ADDAA124002031AY161061AY221061GA1041+008001081GE19MSL   +99999+99999GF104991999999999999999999KA1120N+02091MA1999990096891MD1909990-0171MW1011REMSYN004BUFR
0136827840999992013061818004-07310-039300FM-12+040999999V0201401N0015199999999020000199+03101+02511100941ADDAA101999990AZ101061AZ201061GA1041+008001081GE19MSL   +99999+99999GF104991999999999999999999MA1999990096451MD1909990-0161REMSYN004BUFR
0168827840999992013061900004-07310-039300FM-12+040999999V0201801N0031100800199002000199+02441+02191101341ADDAA101999990AZ101061AZ201061GA1081+008001081GA2991+999991101GA3991+999991101GE19MSL   +99999+99999GF108991999999999999999999MA1999990096801MD1909990+0011REMSYN004BUFR
0155827840999992013061912004-07310-039300FM-12+040999999V0201801N0041100800199020000199+02441+02231101451ADDAA124000531AY151061AY221061GA1071+008001081GE19MSL   +99999+99999GF107991999999999999999999KA1120N+02111MA1999990096891MD1909990+0001MW1021REMSYN004BUFR
0136827840999992013061918004-07310-039300FM-12+040999999V0201801N0015199999999020000199+03051+02221100931ADDAA101999990AZ101061AZ201061GA1021+008001081GE19MSL   +99999+99999GF102991999999999999999999MA1999990096441MD1909990-0011REMSYN004BUFR
0136827840999992013062000004-07310-039300FM-12+040999999V0201801N0015199999999002000199+02171+02031101251ADDAA101999990AZ101061AZ201061GA1011+008001081GE19MSL   +99999+99999GF101991999999999999999999MA1999990096671MD1909990-0131REMSYN004BUFR
0149827840999992013062012004-07310-039300FM-12+040999999V0201801N0015199999999020000199+02591+02101101471ADDAA101999990AZ101061AZ201061GA1021+008001081GE19MSL   +99999+99999GF102991999999999999999999KA1120N+01761MA1999990096901MD1909990+0011REMSYN004BUFR
0136827840999992013062018004-07310-039300FM-12+040999999V0201801N0015199999999020000199+03071+02111100971ADDAA101999990AZ101061AZ201061GA1032+008001081GE19MSL   +99999+99999GF102992999999999999999999MA1999990096491MD1909990+0051REMSYN004BUFR
0098827840999992013062100004-07310-039300FM-12+040999999V0203601N0000122000199002000199+02051+01851101251ADDAA101999990AZ101061AZ201061GF100991999999999999999999MA1999990096681MD1909990+0011REMSYN004BUFR
0149827840999992013062112004-07310-039300FM-12+040999999V0203601N0000199999999020000199+02521+02001101401ADDAA101999990AZ101061AZ201061GA1021+008001081GE19MSL   +99999+99999GF102991999999999999999999KA1120N+01901MA1999990096821MD1909990-0081REMSYN004BUFR
0136827840999992013062200004-07310-039300FM-12+040999999V0203601N0000199999999002000199+02191+02051101331ADDAA101999990AZ101061AZ201061GA1042+008001081GE19MSL   +99999+99999GF102992999999999999999999MA1999990096761MD1909990+0081REMSYN004BUFR
0187827840999992013062212004-07310-039300FM-12+040999999V0203601N0000100450199010000199+02191+02171101571ADDAA124046031AY161061AY261061GA1081+004501061GA2991+999991101GA3991+999991101GE19MSL   +99999+99999GF108991999999999999999999KA1120N+01941MA1999990096961MD1909990+0141MW1211REMSYN004BUFR
0168827840999992013062218004-07310-039300FM-12+040999999V0201401N0021100450199010000199+02951+02241101031ADDAA101999990AZ101061AZ201061GA1081+004501061GA2991+999991101GA3991+999991101GE19MSL   +99999+99999GF108991999999999999999999MA1999990096541MD1909990+0021REMSYN004BUFR
0174827840999992013062300004-07310-039300FM-12+040999999V0203601N0000199999999002000199+02091+02031101141ADDAA106088031AY161061AY261061GA1081+999991081GA2991+999991101GA3991+999991101GE19MSL   +99999+99999GF108991999999999999999999MA1999990096541MD1909990-0221MW1211REMSYN004BUFR
0155827840999992013062312004-07310-039300FM-12+040999999V0200901N0021199999999020000199+02451+02151101451ADDAA124089031AY151061AY201061GA1021+008001081GE19MSL   +99999+99999GF102991999999999999999999KA1120N+01901MA1999990096861MD1909990-0101MW1021REMSYN004BUFR
0136827840999992013062318004-07310-039300FM-12+040999999V0201401N0026101250199020000199+02941+02001101131ADDAA101999990AZ101061AZ201061GA1051+012501041GE19MSL   +99999+99999GF105991999999999999999999MA1999990096591MD1909990+0051REMSYN004BUFR
0136827840999992013062400004-07310-039300FM-12+040999999V0200901N0026101250199002000199+02071+01871101421ADDAA101999990AZ101061AZ201061GA1051+012501031GE19MSL   +99999+99999GF105991999999999999999999MA1999990096831MD1909990-0161REMSYN004BUFR
0149827840999992013062412004-07310-039300FM-12+040999999V0201401N0015199999999020000199+02471+01801101621ADDAA101999990AZ101061AZ201061GA1011+008001081GE19MSL   +99999+99999GF101991999999999999999999KA1120N+01831MA1999990097031MD1909990+0171REMSYN004BUFR
0136827840999992013062418004-07310-039300FM-12+040999999V0201401N0015199999999020000199+02871+01911101141ADDAA101999990AZ101061AZ201061GA1011+017501051GE19MSL   +99999+99999GF101991999999999999999999MA1999990096601MD1909990+0011REMSYN004BUFR
0098827840999992013062500004-07310-039300FM-12+040999999V0203601N0000122000199002000199+02241+02051101371ADDAA101999990AZ101061AZ201061GF100991999999999999999999MA1999990096801MD1909990-0031REMSYN004BUFR
0149827840999992013062512004-07310-039300FM-12+040999999V0201401N0015199999999020000199+02521+02111101511ADDAA101999990AZ101061AZ201061GA1021+008001081GE19MSL   +99999+99999GF102991999999999999999999KA1120N+01941MA1999990096941MD1909990-0091REMSYN004BUFR
0136827840999992013062518004-07310-039300FM-12+040999999V0201401N0010199999999020000199+02941+02311101121ADDAA101999990AZ101061AZ201061GA1021+008001081GE19MSL   +99999+99999GF102991999999999999999999MA1999990096581MD1909990-0021REMSYN004BUFR
0165827840999992013062612004-07310-039300FM-12+040999999V0201401N0015199999999002000199+02521+02091101501ADDAA101999990AZ101061AZ201061GA1011+004501081GA2991+999991031GE19MSL   +99999+99999GF104991999999999999999999KA1120N+02031MA1999990096931MD1909990-0011REMSYN004BUFR
0152827840999992013062618004-07310-039300FM-12+040999999V0201401N0026199999999020000199+02941+01931101061ADDAA101999990AZ101061AZ201061GA1021+008001081GA2991+999991031GE19MSL   +99999+99999GF103991999999999999999999MA1999990096581MD1909990+0001REMSYN004BUFR
0098827840999992013062700004-07310-039300FM-12+040999999V0201401N0031122000199002000199+02441+01561101391ADDAA101999990AZ101061AZ201061GF100991999999999999999999MA1999990096851MD1909990-0021REMSYN004BUFR
0149827840999992013062712004-07310-039300FM-12+040999999V0201401N0031100800199020000199+02551+01781101331ADDAA101999990AZ101061AZ201061GA1061+008001081GE19MSL   +99999+99999GF106991999999999999999999KA1120N+02021MA1999990096791MD1909990-0141REMSYN004BUFR
0136827840999992013062718004-07310-039300FM-12+040999999V0201401N0041100800199020000199+02941+01941101131ADDAA101999990AZ101061AZ201061GA1051+008001081GE19MSL   +99999+99999GF105991999999999999999999MA1999990096631MD1909990+0051REMSYN004BUFR
0098827840999992013062800004-07310-039300FM-12+040999999V0203601N0000122000199002000199+03021+01901101371ADDAA101999990AZ101061AZ201061GF100991999999999999999999MA1999990096811MD1909990-0041REMSYN004BUFR
0149827840999992013062812004-07310-039300FM-12+040999999V0201401N0015199999999020000199+02521+01841101411ADDAA101999990AZ101061AZ201061GA1011+008001081GE19MSL   +99999+99999GF101991999999999999999999KA1120N+01631MA1999990096851MD1909990+0061REMSYN004BUFR
0136827840999992013062818004-07310-039300FM-12+040999999V0203601N0000100800199020000199+03051+01901100891ADDAA101999990AZ101061AZ201061GA1051+008001081GE19MSL   +99999+99999GF105991999999999999999999MA1999990096391MD1909990-0241REMSYN004BUFR
0098827840999992013062900004-07310-039300FM-12+040999999V0203601N0000122000199002000199+02151+01981101221ADDAA101999990AZ101061AZ201061GF100991999999999999999999MA1999990096651MD1909990-0161REMSYN004BUFR
0181827840999992013062912004-07310-039300FM-12+040999999V0201801N0015100800199020000199+02291+02051101411ADDAA101999990AZ101061AZ201061GA1081+008001061GA2991+999991101GA3991+999991101GE19MSL   +99999+99999GF108991999999999999999999KA1120N+01861MA1999990096821MD1909990-0031REMSYN004BUFR
0168827840999992013062918004-07310-039300FM-12+040999999V0201401N0015100800199020000199+02541+02131101201ADDAA101999990AZ101061AZ201061GA1081+008001061GA2991+999991101GA3991+999991101GE19MSL   +99999+99999GF108991999999999999999999MA1999990096611MD1909990-0041REMSYN004BUFR
0168827840999992013063000004-07310-039300FM-12+040999999V0200901N0026100800199020000199+02341+02171101281ADDAA101999990AZ101061AZ201061GA1081+008001071GA2991+999991101GA3991+999991101GE19MSL   +99999+99999GF108991999999999999999999MA1999990096701MD1909990+0051REMSYN004BUFR
0165827840999992013063012004-07310-039300FM-12+040999999V0201801N0015199999999020000199+02551+01851101351ADDAA101999990AZ101061AZ201061GA1011+008001081GA2991+999991041GE19MSL   +99999+99999GF102991999999999999999999KA1120N+01861MA1999990096801MD1909990-0021REMSYN004BUFR
0136827840999992013063018004-07310-039300FM-12+040999999V0201401N0026199999999020000199+03091+01841100951ADDAA101999990AZ101061AZ201061GA1021+008001081GE19MSL   +99999+99999GF102991999999999999999999MA1999990096451MD1909990-0161REMSYN004BUFR
0098827840999992013070100004-07310-039300FM-12+040999999V0201401N0021122000199002000199+02291+01791101181ADDAA101999990AZ101061AZ201061GF100991999999999999999999MA1999990096631MD1909990-0071REMSYN004BUFR
0111827840999992013070112004-07310-039300FM-12+040999999V0201401N0015122000199002000199+02491+01781101471ADDAA101999990AZ101061AZ201061GF100991999999999999999999KA1120N+01841MA1999990096901MD1909990+0101REMSYN004BUFR
0136827840999992013070118004-07310-039300FM-12+040999999V0201401N0015199999999020000199+03071+01511101211ADDAA101999990AZ101061AZ201061GA1011+017501051GE19MSL   +99999+99999GF101991999999999999999999MA1999990096481MD1909990+0031REMSYN004BUFR
0136827840999992013070200004-07310-039300FM-12+040999999V0203601N0000199999999002000199+02151+01801101291ADDAA101999990AZ101061AZ201061GA1011+017501031GE19MSL   +99999+99999GF101991999999999999999999MA1999990096711MD1909990+0081REMSYN004BUFR
0165827840999992013070212004-07310-039300FM-12+040999999V0201401N0021199999999020000199+02501+01861101481ADDAA101999990AZ101061AZ201061GA1011+017501081GA2991+999991011GE19MSL   +99999+99999GF102991999999999999999999KA1120N+01981MA1999990096901MD1909990+0001REMSYN004BUFR
0136827840999992013070218004-07310-039300FM-12+040999999V0201401N0015199999999020000199+03041+01751101051ADDAA101999990AZ101061AZ201061GA1021+017501051GE19MSL   +99999+99999GF102991999999999999999999MA1999990096541MD1909990+0061REMSYN004BUFR
0136827840999992013070300004-07310-039300FM-12+040999999V0203601N0000199999999002000199+02521+02111101321ADDAA101999990AZ101061AZ201061GA1021+008001051GE19MSL   +99999+99999GF102991999999999999999999MA1999990096781MD1909990+0071REMSYN004BUFR
0149827840999992013070312004-07310-039300FM-12+040999999V0201401N0021100800199020000199+02371+01951101631ADDAA101999990AZ101061AZ201061GA1071+008001081GE19MSL   +99999+99999GF107991999999999999999999KA1120N+02221MA1999990097061MD1909990+0161REMSYN004BUFR
0168827840999992013070318004-07310-039300FM-12+040999999V0201401N0015100800199020000199+02551+01901101361ADDAA101999990AZ101061AZ201061GA1081+008001061GA2991+999991101GA3991+999991101GE19MSL   +99999+99999GF108991999999999999999999MA1999990096801MD1909990+0261REMSYN004BUFR
0136827840999992013070400004-07310-039300FM-12+040999999V0201401N0026100800199002000199+02251+01821101691ADDAA101999990AZ101061AZ201061GA1061+008001081GE19MSL   +99999+99999GF106991999999999999999999MA1999990097101MD1909990+0321REMSYN004BUFR
0149827840999992013070412004-07310-039300FM-12+040999999V0201401N0036100800199020000199+02521+01861101581ADDAA101999990AZ101061AZ201061GA1061+008001061GE19MSL   +99999+99999GF106991999999999999999999KA1120N+02111MA1999990097011MD1909990-0051REMSYN004BUFR
0168827840999992013070418004-07310-039300FM-12+040999999V0201401N0041100800199020000199+02671+01991101301ADDAA101999990AZ101061AZ201061GA1051+008001081GA2991+999991031GA3991+999991101GE19MSL   +99999+99999GF108991999999999999999999MA1999990096751MD1909990-0051REMSYN004BUFR
0168827840999992013070500004-07310-039300FM-12+040999999V0201401N0015199999999002000199+02451+02091101561ADDAA101999990AZ101061AZ201061GA1061+999991101GA2991+999991101GA3991+999991101GE19MSL   +99999+99999GF106991999999999999999999MA1999990097011MD1909990-0091REMSYN004BUFR
0149827840999992013070512004-07310-039300FM-12+040999999V0201401N0026199999999020000199+02451+01761101681ADDAA101999990AZ101061AZ201061GA1041+008001081GE19MSL   +99999+99999GF104991999999999999999999KA1120N+01901MA1999990097111MD1909990+0101REMSYN004BUFR
0136827840999992013070518004-07310-039300FM-12+040999999V0201401N0015199999999020000199+02891+01811101381ADDAA101999990AZ101061AZ201061GA1021+008001081GE19MSL   +99999+99999GF102991999999999999999999MA1999990096671MD1909990-0081REMSYN004BUFR
0098827840999992013070600004-07310-039300FM-12+040999999V0203601N0000122000199002000199+02071+01861101521ADDAA101999990AZ101061AZ201061GF100991999999999999999999MA1999990096921MD1909990-0091REMSYN004BUFR
0149827840999992013070612004-07310-039300FM-12+040999999V0201401N0015199999999020000199+02491+01811101561ADDAA101999990AZ101061AZ201061GA1021+008001081GE19MSL   +99999+99999GF102991999999999999999999KA1120N+01941MA1999990096971MD1909990-0141REMSYN004BUFR
0136827840999992013070618004-07310-039300FM-12+040999999V0201401N0015199999999020000199+02921+01791101291ADDAA101999990AZ101061AZ201061GA1021+008001081GE19MSL   +99999+99999GF102991999999999999999999MA1999990096581MD1909990-0091REMSYN004BUFR
0098827840999992013070700004-07310-039300FM-12+040999999V0201401N0015122000199002000199+02351+01761101351ADDAA101999990AZ101061AZ201061GF100991999999999999999999MA1999990096801MD1909990-0121REMSYN004BUFR
0149827840999992013070712004-07310-039300FM-12+040999999V0201401N0021199999999020000199+02471+01781101501ADDAA101999990AZ101061AZ201061GA1021+017501031GE19MSL   +99999+99999GF102991999999999999999999KA1120N+01961MA1999990096931MD1909990-0041REMSYN004BUFR
0152827840999992013070718004-07310-039300FM-12+040999999V0201401N0021199999999020000199+03051+01771101231ADDAA101999990AZ101061AZ201061GA1031+008001081GA2991+999991031GE19MSL   +99999+99999GF105991999999999999999999MA1999990096521MD1909990-0061REMSYN004BUFR
0098827840999992013070800004-07310-039300FM-12+040999999V0201401N0021122000199002000199+02291+01541101411ADDAA101999990AZ101061AZ201061GF100991999999999999999999MA1999990096851MD1909990+0051REMSYN004BUFR
0149827840999992013070812004-07310-039300FM-12+040999999V0201401N0021199999999020000199+02441+01791101621ADDAA101999990AZ101061AZ201061GA1011+008001081GE19MSL   +99999+99999GF101991999999999999999999KA1120N+01721MA1999990097041MD1909990+0111REMSYN004BUFR
0152827840999992013070818004-07310-039300FM-12+040999999V0201401N0021199999999020000199+02991+01781101451ADDAA101999990AZ101061AZ201061GA1011+008001081GA2991+999991051GE19MSL   +99999+99999GF102991999999999999999999MA1999990096741MD1909990+0221REMSYN004BUFR
0098827840999992013070900004-07310-039300FM-12+040999999V0203601N0000122000199002000199+02021+01781101551ADDAA101999990AZ101061AZ201061GF100991999999999999999999MA1999990096951MD1909990+0101REMSYN004BUFR
0149827840999992013070912004-07310-039300FM-12+040999999V0201401N0031199999999020000199+02551+01991101701ADDAA101999990AZ101061AZ201061GA1021+008001081GE19MSL   +99999+99999GF102991999999999999999999KA1120N+01841MA1999990097101MD1909990+0061REMSYN004BUFR
0136827840999992013070918004-07310-039300FM-12+040999999V0201401N0015100800199020000199+03021+01891101331ADDAA101999990AZ101061AZ201061GA1051+008001081GE19MSL   +99999+99999GF105991999999999999999999MA1999990096791MD1909990+0051REMSYN004BUFR
0098827840999992013071000004-07310-039300FM-12+040999999V0203601N0000122000199002000199+02471+01881101541ADDAA101999990AZ101061AZ201061GF100991999999999999999999MA1999990096991MD1909990+0041REMSYN004BUFR
0149827840999992013071012004-07310-039300FM-12+040999999V0201401N0021100800199020000199+02441+01811101721ADDAA101999990AZ101061AZ201061GA1061+008001081GE19MSL   +99999+99999GF106991999999999999999999KA1120N+01941MA1999990097151MD1909990+0051REMSYN004BUFR
0136827840999992013071018004-07310-039300FM-12+040999999V0201801N0031100800199020000199+02821+01941101181ADDAA101999990AZ101061AZ201061GA1071+008001081GE19MSL   +99999+99999GF107991999999999999999999MA1999990096641MD1909990-0151REMSYN004BUFR
0168827840999992013071100004-07310-039300FM-12+040999999V0201801N0021199999999002000199+02341+01851101391ADDAA101999990AZ101061AZ201061GA1081+999991101GA2991+999991101GA3991+999991101GE19MSL   +99999+99999GF108991999999999999999999MA1999990096831MD1909990-0161REMSYN004BUFR
0149827840999992013071112004-07310-039300FM-12+040999999V0201801N0021100800199020000199+02321+01831101501ADDAA101999990AZ101061AZ201061GA1061+008001081GE19MSL   +99999+99999GF106991999999999999999999KA1120N+01901MA1999990096921MD1909990-0231REMSYN004BUFR
0136827840999992013071118004-07310-039300FM-12+040999999V0201801N0031199999999020000199+02941+01681101121ADDAA101999990AZ101061AZ201061GA1021+008001081GE19MSL   +99999+99999GF102991999999999999999999MA1999990096601MD1909990-0041REMSYN004BUFR
0168827840999992013071200004-07310-039300FM-12+040999999V0203601N0000199999999002000199+02471+01941101371ADDAA101999990AZ101061AZ201061GA1081+999991101GA2991+999991101GA3991+999991101GE19MSL   +99999+99999GF108991999999999999999999MA1999990096811MD1909990-0021REMSYN004BUFR
0181827840999992013071212004-07310-039300FM-12+040999999V0203601N0000100800199020000199+02351+01951101581ADDAA101999990AZ101061AZ201061GA1081+008001061GA2991+999991101GA3991+999991101GE19MSL   +99999+99999GF108991999999999999999999KA1120N+02071MA1999990097011MD1909990+0091REMSYN004BUFR
0136827840999992013071218004-07310-039300FM-12+040999999V0203601N0000100800199020000199+02651+02091101301ADDAA101999990AZ101061AZ201061GA1061+008001081GE19MSL   +99999+99999GF106991999999999999999999MA1999990096781MD1909990+0161REMSYN004BUFR
0098827840999992013071300004-07310-039300FM-12+040999999V0203601N0000122000199002000199+02271+02011101541ADDAA101999990AZ101061AZ201061GF100991999999999999999999MA1999990096961MD1909990+0151REMSYN004BUFR
0155827840999992013071312004-07310-039300FM-12+040999999V0203601N0000100800199020000199+02291+02221101631ADDAA124003031AY161061AY221061GA1051+008001061GE19MSL   +99999+99999GF105991999999999999999999KA1120N+02021MA1999990097041MD1909990+0031MW1021REMSYN004BUFR
0136827840999992013071318004-07310-039300FM-12+040999999V0203601N0000199999999020000199+02991+02191101151ADDAA101999990AZ101061AZ201061GA1041+008001081GE19MSL   +99999+99999GF104991999999999999999999MA1999990096631MD1909990-0151REMSYN004BUFR
0174827840999992013071400004-07310-039300FM-12+040999999V0201401N0015100800199002000199+02371+02171101401ADDAA106000631AY121061AY221061GA1081+008001081GA2991+999991101GA3991+999991101GE19MSL   +99999+99999GF108991999999999999999999MA1999990096831MD1909990-0131MW1201REMSYN004BUFR
0155827840999992013071412004-07310-039300FM-12+040999999V0203601N0000100800199020000199+02341+02171101601ADDAA124004031AY161061AY221061GA1051+008001061GE19MSL   +99999+99999GF105991999999999999999999KA1120N+02021MA1999990097021MD1909990-0021MW1021REMSYN004BUFR
0136827840999992013071418004-07310-039300FM-12+040999999V0201401N0026100800199020000199+02671+02001101231ADDAA101999990AZ101061AZ201061GA1061+008001061GE19MSL   +99999+99999GF106991999999999999999999MA1999990096711MD1909990+0081REMSYN004BUFR
0098827840999992013071500004-07310-039300FM-12+040999999V0201401N0015122000199002000199+02341+01741101231ADDAA101999990AZ101061AZ201061GF100991999999999999999999MA1999990096851MD1909990+0021REMSYN004BUFR
0149827840999992013071512004-07310-039300FM-12+040999999V0203601N0000199999999020000199+02251+01981101681ADDAA101999990AZ101061AZ201061GA1041+008001081GE19MSL   +99999+99999GF106991999999999999999999KA1120N+01821MA1999990097081MD1909990+0061REMSYN004BUFR
0136827840999992013071518004-07310-039300FM-12+040999999V0200901N0015100800199020000199+02871+01801101251ADDAA101999990AZ101061AZ201061GA1061+008001081GE19MSL   +99999+99999GF106991999999999999999999MA1999990096701MD1909990-0011REMSYN004BUFR
0136827840999992013071600004-07310-039300FM-12+040999999V0203601N0000199999999002000199+02141+01801101521ADDAA101999990AZ101061AZ201061GA1011+008001081GE19MSL   +99999+99999GF101991999999999999999999MA1999990096911MD1909990+0061REMSYN004BUFR
0149827840999992013071612004-07310-039300FM-12+040999999V0201401N0015199999999020000199+02391+01861101731ADDAA101999990AZ101061AZ201061GA1021+008001081GE19MSL   +99999+99999GF102991999999999999999999KA1120N+01581MA1999990097121MD1909990+0041REMSYN004BUFR
0136827840999992013071618004-07310-039300FM-12+040999999V0203601N0000199999999020000199+03041+01511101251ADDAA101999990AZ101061AZ201061GA1011+008001081GE19MSL   +99999+99999GF101991999999999999999999MA1999990096701MD1909990+0001REMSYN004BUFR
0098827840999992013071700004-07310-039300FM-12+040999999V0203601N0000122000199002000199+01891+01731101541ADDAA101999990AZ101061AZ201061GF100991999999999999999999MA1999990096921MD1909990+0011REMSYN004BUFR
0149827840999992013071712004-07310-039300FM-12+040999999V0200901N0015100800199020000199+02451+01991101751ADDAA101999990AZ101061AZ201061GA1061+008001081GE19MSL   +99999+99999GF106991999999999999999999KA1120N+01591MA1999990097131MD1909990+0011REMSYN004BUFR
0136827840999992013071718004-07310-039300FM-12+040999999V0201401N0015199999999020000199+02971+01831101211ADDAA101999990AZ101061AZ201061GA1021+008001081GE19MSL   +99999+99999GF102991999999999999999999MA1999990096661MD1909990-0041REMSYN004BUFR
0098827840999992013071800004-07310-039300FM-12+040999999V0203601N0000122000199002000199+02391+01701101401ADDAA101999990AZ101061AZ201061GF100991999999999999999999MA1999990096851MD1909990-0071REMSYN004BUFR
0149827840999992013071812004-07310-039300FM-12+040999999V0203601N0000199999999020000199+02451+01321101561ADDAA101999990AZ101061AZ201061GA1021+008001081GE19MSL   +99999+99999GF102991999999999999999999KA1120N+01841MA1999990097001MD1909990-0131REMSYN004BUFR
0168827840999992013071818004-07310-039300FM-12+040999999V0201401N0015100800199020000199+02951+01961101071ADDAA101999990AZ101061AZ201061GA1081+008001061GA2991+999991101GA3991+999991101GE19MSL   +99999+99999GF108991999999999999999999MA1999990096551MD1909990-0111REMSYN004BUFR
0098827840999992013071900004-07310-039300FM-12+040999999V0203601N0000122000199002000199+02421+01951101351ADDAA101999990AZ101061AZ201061GF100991999999999999999999MA1999990096801MD1909990-0051REMSYN004BUFR
0187827840999992013071912004-07310-039300FM-12+040999999V0201401N0010100450199020000199+02371+02071101511ADDAA124003031AY151061AY221061GA1081+004501061GA2991+999991101GA3991+999991101GE19MSL   +99999+99999GF108991999999999999999999KA1120N+01801MA1999990097001MD1909990+0001MW1021REMSYN004BUFR
0168827840999992013071918004-07310-039300FM-12+040999999V0203601N0000100800199020000199+02621+02121101241ADDAA101999990AZ101061AZ201061GA1081+008001061GA2991+999991101GA3991+999991101GE19MSL   +99999+99999GF108991999999999999999999MA1999990096661MD1909990-0111REMSYN004BUFR
0098827840999992013072000004-07310-039300FM-12+040999999V0203601N0000122000199002000199+02171+02041101391ADDAA101999990AZ101061AZ201061GF100991999999999999999999MA1999990096811MD1909990+0011REMSYN004BUFR
0111827840999992013072012004-07310-039300FM-12+040999999V0200901N0015122000199020000199+02401+01771101591ADDAA101999990AZ101061AZ201061GF100991999999999999999999KA1120N+01631MA1999990097001MD1909990+0001REMSYN004BUFR
0098827840999992013072018004-07310-039300FM-12+040999999V0201401N0015122000199020000199+03041+01571101111ADDAA101999990AZ101061AZ201061GF100991999999999999999999MA1999990096531MD1909990-0131REMSYN004BUFR
0098827840999992013072100004-07310-039300FM-12+040999999V0203601N0000122000199002000199+02171+01781101361ADDAA101999990AZ101061AZ201061GF100991999999999999999999MA1999990096781MD1909990-0031REMSYN004BUFR
0165827840999992013072112004-07310-039300FM-12+040999999V0203601N0000199999999020000199+02541+02001101571ADDAA101999990AZ101061AZ201061GA1021+008001081GA2991+999991001GE19MSL   +99999+99999GF103991999999999999999999KA1120N+01801MA1999990096991MD1909990-0011REMSYN004BUFR
0152827840999992013072118004-07310-039300FM-12+040999999V0203601N0000199999999020000199+03071+01921101041ADDAA101999990AZ101061AZ201061GA1031+008001081GA2991+999991031GE19MSL   +99999+99999GF106991999999999999999999MA1999990096541MD1909990+0011REMSYN004BUFR
0168827840999992013072200004-07310-039300FM-12+040999999V0203601N0000100800199002000199+02551+02081101341ADDAA101999990AZ101061AZ201061GA1081+008001081GA2991+999991101GA3991+999991101GE19MSL   +99999+99999GF108991999999999999999999MA1999990096811MD1909990+0031REMSYN004BUFR
0149827840999992013072212004-07310-039300FM-12+040999999V0201401N0021199999999020000199+02491+01961101531ADDAA101999990AZ101061AZ201061GA1041+008001081GE19MSL   +99999+99999GF104991999999999999999999KA1120N+02111MA1999990096991MD1909990+0001REMSYN004BUFR
0136827840999992013072218004-07310-039300FM-12+040999999V0201401N0015199999999020000199+03071+01751100951ADDAA101999990AZ101061AZ201061GA1041+008001081GE19MSL   +99999+99999GF104991999999999999999999MA1999990096451MD1909990-0091REMSYN004BUFR
0098827840999992013072300004-07310-039300FM-12+040999999V0201401N0031122000199002000199+02471+01681101231ADDAA101999990AZ101061AZ201061GF100991999999999999999999MA1999990096691MD1909990-0121REMSYN004BUFR
0149827840999992013072312004-07310-039300FM-12+040999999V0203601N0000199999999020000199+02451+01921101421ADDAA101999990AZ101061AZ201061GA1041+008001081GE19MSL   +99999+99999GF104991999999999999999999KA1120N+01601MA1999990096861MD1909990-0131REMSYN004BUFR
0136827840999992013072318004-07310-039300FM-12+040999999V0203601N0000199999999020000199+03051+01831101051ADDAA101999990AZ101061AZ201061GA1041+008001081GE19MSL   +99999+99999GF104991999999999999999999MA1999990096541MD1909990-0091REMSYN004BUFR
0098827840999992013072400004-07310-039300FM-12+040999999V0203601N0000122000199002000199+02191+01841101231ADDAA101999990AZ101061AZ201061GF100991999999999999999999MA1999990096661MD1909990-0031REMSYN004BUFR
0149827840999992013072412004-07310-039300FM-12+040999999V0203601N0000199999999020000199+02571+01871101541ADDAA101999990AZ101061AZ201061GA1011+008001081GE19MSL   +99999+99999GF101991999999999999999999KA1120N+01901MA1999990096971MD1909990+0111REMSYN004BUFR
0152827840999992013072418004-07310-039300FM-12+040999999V0201401N0010199999999020000199+03091+01701101171ADDAA101999990AZ101061AZ201061GA1041+008001081GA2991+999991031GE19MSL   +99999+99999GF106991999999999999999999MA1999990096661MD1909990+0121REMSYN004BUFR
0152827840999992013072500004-07310-039300FM-12+040999999V0203601N0000199999999020000199+02321+02001101471ADDAA101999990AZ101061AZ201061GA1021+008001081GA2991+999991031GE19MSL   +99999+99999GF106991999999999999999999MA1999990096911MD1909990+0251REMSYN004BUFR
0149827840999992013072512004-07310-039300FM-12+040999999V0203601N0000100800199020000199+02391+02031101801ADDAA101999990AZ101061AZ201061GA1072+008001081GE19MSL   +99999+99999GF106992999999999999999999KA1120N+02161MA1999990097211MD1909990+0241REMSYN004BUFR
0136827840999992013072518004-07310-039300FM-12+040999999V0203601N0000199999999020000199+03021+01991101351ADDAA101999990AZ101061AZ201061GA1021+008001081GE19MSL   +99999+99999GF102991999999999999999999MA1999990096841MD1909990+0181REMSYN004BUFR
0098827840999992013072600004-07310-039300FM-12+040999999V0203601N0000122000199002000199+02341+02031101621ADDAA101999990AZ101061AZ201061GF100991999999999999999999MA1999990097041MD1909990+0131REMSYN004BUFR
0149827840999992013072612004-07310-039300FM-12+040999999V0203601N0000100800199020000199+02391+02031101951ADDAA101999990AZ101061AZ201061GA1071+008001091GE19MSL   +99999+99999GF107991999999999999999999KA1120N+01841MA1999990097351MD1909990+0141REMSYN004BUFR
0152827840999992013072618004-07310-039300FM-12+040999999V0201401N0010199999999020000199+03091+01701101171ADDAA101999990AZ101061AZ201061GA1041+008001081GA2991+999991031GE19MSL   +99999+99999GF106991999999999999999999MA1999990096661MD1909990+0121REMSYN004BUFR
0136827840999992013072700004-07310-039300FM-12+040999999V0203601N0000199999999020000199+02621+01861101561ADDAA101999990AZ101061AZ201061GA1031+008001081GE19MSL   +99999+99999GF103991999999999999999999MA1999990097021MD1909990-0031REMSYN004BUFR
0165827840999992013072712004-07310-039300FM-12+040999999V0200901N0010199999999020000199+02441+01831101711ADDAA101999990AZ101061AZ201061GA1031+008001081GA2991+999991031GE19MSL   +99999+99999GF106991999999999999999999KA1120N+02051MA1999990097151MD1909990-0201REMSYN004BUFR
0152827840999992013072718004-07310-039300FM-12+040999999V0201401N0026199999999020000199+03091+01541101251ADDAA101999990AZ101061AZ201061GA1021+008001081GA2991+999991031GE19MSL   +99999+99999GF105991999999999999999999MA1999990096761MD1909990-0091REMSYN004BUFR
0098827840999992013072800004-07310-039300FM-12+040999999V0203601N0000122000199002000199+02421+01591101401ADDAA101999990AZ101061AZ201061GF100991999999999999999999MA1999990096851MD1909990+0161REMSYN004BUFR
0149827840999992013072812004-07310-039300FM-12+040999999V0201401N0015100800199020000199+02351+01641101771ADDAA101999990AZ101061AZ201061GA1061+008001081GE19MSL   +99999+99999GF106991999999999999999999KA1120N+01591MA1999990097191MD1909990+0041REMSYN004BUFR
0136827840999992013072818004-07310-039300FM-12+040999999V0201401N0010199999999020000199+02971+01531101231ADDAA101999990AZ101061AZ201061GA1011+008001081GE19MSL   +99999+99999GF101991999999999999999999MA1999990096701MD1909990-0061REMSYN004BUFR
0098827840999992013072900004-07310-039300FM-12+040999999V0203601N0000122000199002000199+02321+01531101551ADDAA101999990AZ101061AZ201061GF100991999999999999999999MA1999990096971MD1909990+0121REMSYN004BUFR
0149827840999992013072912004-07310-039300FM-12+040999999V0201401N0010199999999020000199+02491+01871101781ADDAA101999990AZ101061AZ201061GA1021+008001081GE19MSL   +99999+99999GF102991999999999999999999KA1120N+01741MA1999990097201MD1909990+0011REMSYN004BUFR
0136827840999992013072918004-07310-039300FM-12+040999999V0203601N0000100800199020000199+03041+01941101411ADDAA101999990AZ101061AZ201061GA1061+008001081GE19MSL   +99999+99999GF106991999999999999999999MA1999990096861MD1909990+0161REMSYN004BUFR
0136827840999992013073000004-07310-039300FM-12+040999999V0203601N0000199999999002000199+02421+02031101681ADDAA101999990AZ101061AZ201061GA1021+008001081GE19MSL   +99999+99999GF102991999999999999999999MA1999990097111MD1909990+0141REMSYN004BUFR
0149827840999992013073012004-07310-039300FM-12+040999999V0203601N0000100800199020000199+02391+01861101861ADDAA101999990AZ101061AZ201061GA1051+008001081GE19MSL   +99999+99999GF105991999999999999999999KA1120N+02091MA1999990097311MD1909990+0111REMSYN004BUFR
0136827840999992013073018004-07310-039300FM-12+040999999V0203601N0000199999999020000199+02991+01711101441ADDAA101999990AZ101061AZ201061GA1011+008001081GE19MSL   +99999+99999GF102991999999999999999999MA1999990096891MD1909990+0031REMSYN004BUFR
0165827840999992013073112004-07310-039300FM-12+040999999V0203601N0000199999999020000199+02391+01651101821ADDAA101999990AZ101061AZ201061GA1011+008001081GA2991+999991031GE19MSL   +99999+99999GF101991999999999999999999KA1120N+01871MA1999990097241MD1909990-0071REMSYN004BUFR
0136827840999992013073118004-07310-039300FM-12+040999999V0201401N0015100800199020000199+02921+01761101351ADDAA101999990AZ101061AZ201061GA1061+008001081GE19MSL   +99999+99999GF106991999999999999999999MA1999990096801MD1909990-0091REMSYN004BUFR
0149827840999992013080112004-07310-039300FM-12+040999999V0201401N0005199999999020000199+02401+01751101751ADDAA101999990AZ101061AZ201061GA1011+008001081GE19MSL   +99999+99999GF101991999999999999999999KA1120N+01801MA1999990097171MD1909990-0071REMSYN004BUFR
0136827840999992013080118004-07310-039300FM-12+040999999V0201401N0010199999999020000199+02991+01781101241ADDAA101999990AZ101061AZ201061GA1021+008001081GE19MSL   +99999+99999GF102991999999999999999999MA1999990096721MD1909990-0081REMSYN004BUFR
0136827840999992013080200004-07310-039300FM-12+040999999V0201401N0021199999999002000199+02351+01851101511ADDAA101999990AZ101061AZ201061GA1021+008001081GE19MSL   +99999+99999GF102991999999999999999999MA1999990096941MD1909990-0101REMSYN004BUFR
0149827840999992013080212004-07310-039300FM-12+040999999V0201401N0021100800199020000199+02351+01831101751ADDAA101999990AZ101061AZ201061GA1071+008001081GE19MSL   +99999+99999GF107991999999999999999999KA1120N+01801MA1999990097161MD1909990-0011REMSYN004BUFR
0136827840999992013080218004-07310-039300FM-12+040999999V0201401N0031100800199020000199+02821+01941101221ADDAA101999990AZ101061AZ201061GA1061+008001081GE19MSL   +99999+99999GF106991999999999999999999MA1999990096701MD1909990-0021REMSYN004BUFR
0136827840999992013080300004-07310-039300FM-12+040999999V0203601N0000199999999002000199+02251+01901101691ADDAA101999990AZ101061AZ201061GA1011+008001081GE19MSL   +99999+99999GF101991999999999999999999MA1999990097091MD1909990+0151REMSYN004BUFR
0149827840999992013080312004-07310-039300FM-12+040999999V0203601N0000199999999020000199+02391+01821101661ADDAA101999990AZ101061AZ201061GA1041+008001081GE19MSL   +99999+99999GF104991999999999999999999KA1120N+01901MA1999990097061MD1909990-0101REMSYN004BUFR
0136827840999992013080318004-07310-039300FM-12+040999999V0201401N0015199999999020000199+03021+01691101101ADDAA101999990AZ101061AZ201061GA1011+008001081GE19MSL   +99999+99999GF101991999999999999999999MA1999990096581MD1909990-0121REMSYN004BUFR
0098827840999992013080400004-07310-039300FM-12+040999999V0203601N0000122000199002000199+02371+01631101441ADDAA101999990AZ101061AZ201061GF100991999999999999999999MA1999990096871MD1909990-0221REMSYN004BUFR
0149827840999992013080412004-07310-039300FM-12+040999999V0203601N0000199999999020000199+02551+01801101161ADDAA101999990AZ101061AZ201061GA1021+008001081GE19MSL   +99999+99999GF102991999999999999999999KA1120N+01841MA1999990096621MD1909990-0441REMSYN004BUFR
0098827840999992013080418004-07310-039300FM-12+040999999V0203601N0000122000199020000199+03191+01711101121ADDAA101999990AZ101061AZ201061GF100991999999999999999999MA1999990096621MD1909990+0041REMSYN004BUFR
0098827840999992013080500004-07310-039300FM-12+040999999V0201401N0031122000199002000199+02621+01461101421ADDAA101999990AZ101061AZ201061GF100991999999999999999999MA1999990096881MD1909990+0011REMSYN004BUFR
0149827840999992013080512004-07310-039300FM-12+040999999V0203601N0000199999999020000199+02491+01841101651ADDAA101999990AZ101061AZ201061GA1021+008001081GE19MSL   +99999+99999GF102991999999999999999999KA1120N+01601MA1999990097101MD1909990+0481REMSYN004BUFR
0098827840999992013080518004-07310-039300FM-12+040999999V0201401N0015122000199020000199+03241+01411101161ADDAA101999990AZ101061AZ201061GF100991999999999999999999MA1999990096651MD1909990+0031REMSYN004BUFR
0098827840999992013080600004-07310-039300FM-12+040999999V0203601N0000122000199002000199+02321+01501101381ADDAA101999990AZ101061AZ201061GF100991999999999999999999MA1999990096821MD1909990-0061REMSYN004BUFR
0165827840999992013080612004-07310-039300FM-12+040999999V0203601N0000100800199020000199+02351+02071101581ADDAA101999990AZ101061AZ201061GA1051+008001061GA2991+999991031GE19MSL   +99999+99999GF107991999999999999999999KA1120N+01901MA1999990097001MD1909990-0101REMSYN004BUFR
0136827840999992013080618004-07310-039300FM-12+040999999V0203601N0000100800199020000199+02951+01991101071ADDAA101999990AZ101061AZ201061GA1061+008001081GE19MSL   +99999+99999GF106991999999999999999999MA1999990096571MD1909990-0081REMSYN004BUFR
0098827840999992013080700004-07310-039300FM-12+040999999V0203601N0000122000199002000199+02351+01851101381ADDAA101999990AZ101061AZ201061GF100991999999999999999999MA1999990096811MD1909990-0011REMSYN004BUFR
0149827840999992013080712004-07310-039300FM-12+040999999V0201401N0015100800199020000199+02521+01711101491ADDAA101999990AZ101061AZ201061GA1051+008001081GE19MSL   +99999+99999GF105991999999999999999999KA1120N+01831MA1999990096931MD1909990-0071REMSYN004BUFR
0136827840999992013080718004-07310-039300FM-12+040999999V0201401N0015199999999020000199+02941+01551100971ADDAA101999990AZ101061AZ201061GA1031+008001081GE19MSL   +99999+99999GF103991999999999999999999MA1999990096471MD1909990-0101REMSYN004BUFR
0098827840999992013080800004-07310-039300FM-12+040999999V0203601N0000122000199002000199+02321+01601101291ADDAA101999990AZ101061AZ201061GF100991999999999999999999MA1999990096731MD1909990-0081REMSYN004BUFR
0149827840999992013080812004-07310-039300FM-12+040999999V0203601N0000199999999020000199+02441+01861101391ADDAA101999990AZ101061AZ201061GA1011+008001081GE19MSL   +99999+99999GF101991999999999999999999KA1120N+01861MA1999990096831MD1909990-0101REMSYN004BUFR
0136827840999992013080818004-07310-039300FM-12+040999999V0203601N0000199999999020000199+02991+01681101041ADDAA101999990AZ101061AZ201061GA1011+008001081GE19MSL   +99999+99999GF101991999999999999999999MA1999990096541MD1909990+0071REMSYN004BUFR
0098827840999992013080900004-07310-039300FM-12+040999999V0203601N0000122000199002000199+02421+01821101171ADDAA101999990AZ101061AZ201061GF100991999999999999999999MA1999990096631MD1909990-0101REMSYN004BUFR
0149827840999992013080912004-07310-039300FM-12+040999999V0203601N0000199999999020000199+02671+01741101441ADDAA101999990AZ101061AZ201061GA1011+008001081GE19MSL   +99999+99999GF101991999999999999999999KA1120N+01981MA1999990096901MD1909990+0071REMSYN004BUFR
0136827840999992013080918004-07310-039300FM-12+040999999V0203601N0000199999999020000199+03151+01671100991ADDAA101999990AZ101061AZ201061GA1021+008001081GE19MSL   +99999+99999GF102991999999999999999999MA1999990096491MD1909990-0051REMSYN004BUFR
0098827840999992013081000004-07310-039300FM-12+040999999V0203601N0000122000199002000199+02291+01791101201ADDAA101999990AZ101061AZ201061GF100991999999999999999999MA1999990096661MD1909990+0031REMSYN004BUFR
0149827840999992013081012004-07310-039300FM-12+040999999V0201401N0015100800199020000199+02471+01941101531ADDAA101999990AZ101061AZ201061GA1061+008001081GE19MSL   +99999+99999GF106991999999999999999999KA1120N+01861MA1999990096961MD1909990+0061REMSYN004BUFR
0136827840999992013081018004-07310-039300FM-12+040999999V0201401N0015100800199020000199+03071+01881100991ADDAA101999990AZ101061AZ201061GA1051+008001081GE19MSL   +99999+99999GF105991999999999999999999MA1999990096501MD1909990+0011REMSYN004BUFR
0098827840999992013081100004-07310-039300FM-12+040999999V0203601N0000122000199002000199+02491+01721101211ADDAA101999990AZ101061AZ201061GF100991999999999999999999MA1999990096671MD1909990+0011REMSYN004BUFR
0149827840999992013081112004-07310-039300FM-12+040999999V0203601N0000100800199020000199+02421+02071101521ADDAA101999990AZ101061AZ201061GA1061+008001081GE19MSL   +99999+99999GF106991999999999999999999KA1120N+01871MA1999990096961MD1909990+0001REMSYN004BUFR
0098827840999992013081200004-07310-039300FM-12+040999999V0203601N0000122000199002000199+02621+01641101171ADDAA101999990AZ101061AZ201061GF100991999999999999999999MA1999990096641MD1909990-0031REMSYN004BUFR
0149827840999992013081212004-07310-039300FM-12+040999999V0201401N0015199999999020000199+02521+02061101531ADDAA101999990AZ101061AZ201061GA1041+008001081GE19MSL   +99999+99999GF104991999999999999999999KA1120N+01841MA1999990096941MD1909990+0021REMSYN004BUFR
0098827840999992013081300004-07310-039300FM-12+040999999V0203601N0000122000199002000199+02521+01711101131ADDAA101999990AZ101061AZ201061GF100991999999999999999999MA1999990096611MD1909990-0031REMSYN004BUFR
0149827840999992013081312004-07310-039300FM-12+040999999V0201401N0010199999999020000199+02541+02041101531ADDAA101999990AZ101061AZ201061GA1031+008001081GE19MSL   +99999+99999GF103991999999999999999999KA1120N+01681MA1999990096991MD1909990+0011REMSYN004BUFR
0136827840999992013081400004-07310-039300FM-12+040999999V0203601N0000199999999020000199+02521+01741101271ADDAA101999990AZ101061AZ201061GA1011+008001081GE19MSL   +99999+99999GF101991999999999999999999MA1999990096741MD1909990+0131REMSYN004BUFR
0149827840999992013081412004-07310-039300FM-12+040999999V0203601N0000199999999020000199+02721+02261101571ADDAA101999990AZ101061AZ201061GA1031+008001081GE19MSL   +99999+99999GF103991999999999999999999KA1120N+01941MA1999990097041MD1909990+0051REMSYN004BUFR
0098827840999992013081500004-07310-039300FM-12+040999999V0203601N0000122000199002000199+02691+01961101221ADDAA101999990AZ101061AZ201061GF100991999999999999999999MA1999990096671MD1909990-0071REMSYN004BUFR
0149827840999992013081512004-07310-039300FM-12+040999999V0203601N0000199999999020000199+02471+02051101441ADDAA101999990AZ101061AZ201061GA1041+008001081GE19MSL   +99999+99999GF104991999999999999999999KA1120N+01901MA1999990096941MD1909990+0131REMSYN004BUFR
0149827840999992013081612004-07310-039300FM-12+040999999V0203601N0000199999999020000199+02721+02261101571ADDAA101999990AZ101061AZ201061GA1031+008001081GE19MSL   +99999+99999GF103991999999999999999999KA1120N+01941MA1999990097041MD1909990+0051REMSYN004BUFR
0098827840999992013081700004-07310-039300FM-12+040999999V0203601N0000122000199002000199+02591+01791101351ADDAA101999990AZ101061AZ201061GF100991999999999999999999MA1999990096831MD1909990-2021REMSYN004BUFR
0149827840999992013081712004-07310-039300FM-12+040999999V0203601N0000199999999020000199+02591+01791101661ADDAA101999990AZ101061AZ201061GA1031+008001081GE19MSL   +99999+99999GF103991999999999999999999KA1120N+01881MA1999990097121MD1909990-0041REMSYN004BUFR
0098827840999992013081800004-07310-039300FM-12+040999999V0203601N0000122000199002000199+02471+01871101261ADDAA101999990AZ101061AZ201061GF100991999999999999999999MA1999990097731MD1909990-0101REMSYN004BUFR
0149827840999992013081812004-07310-039300FM-12+040999999V0201401N0015199999999020000199+02491+01801101651ADDAA101999990AZ101061AZ201061GA1021+008001081GE19MSL   +99999+99999GF102991999999999999999999KA1120N+01931MA1999990097091MD1909990-0031REMSYN004BUFR
0136827840999992013081900004-07310-039300FM-12+040999999V0203601N0000100800199002000199+02641+01881101401ADDAA101999990AZ101061AZ201061GA1061+008001081GE19MSL   +99999+99999GF107991999999999999999999MA1999990096861MD1909990+0131REMSYN004BUFR
0149827840999992013081912004-07310-039300FM-12+040999999V0203601N0000100800199020000199+02571+01871101651ADDAA101999990AZ101061AZ201061GA1051+008001081GE19MSL   +99999+99999GF105991999999999999999999KA1120N+01991MA1999990097111MD1909990+0021REMSYN004BUFR
0136827840999992013082000004-07310-039300FM-12+040999999V0203601N0000199999999002000199+02641+02051101331ADDAA101999990AZ101061AZ201061GA1021+017501031GE19MSL   +99999+99999GF102991999999999999999999MA1999990096321MD1909990-0051REMSYN004BUFR
0149827840999992013082012004-07310-039300FM-12+040999999V0203601N0000100800199020000199+02321+02181101531ADDAA101999990AZ101061AZ201061GA1061+008001061GE19MSL   +99999+99999GF106991999999999999999999KA1120N+02051MA1999990096981MD1909990-0131REMSYN004BUFR
0098827840999992013082100004-07310-039300FM-12+040999999V0203601N0000122000199002000199+02651+02001101331ADDAA101999990AZ101061AZ201061GF100991999999999999999999MA1999990096791MD1909990-0021REMSYN004BUFR
0149827840999992013082112004-07310-039300FM-12+040999999V0203601N0000100800199020000199+02591+01821101541ADDAA101999990AZ101061AZ201061GA1061+008001061GE19MSL   +99999+99999GF106991999999999999999999KA1120N+02081MA1999990097021MD1909990-0041REMSYN004BUFR
0136827840999992013082200004-07310-039300FM-12+040999999V0203601N0000199999999002000199+02591+01841101121ADDAA101999990AZ101061AZ201061GA1021+008001081GE19MSL   +99999+99999GF102991999999999999999999MA1999990096661MD1909990-0131REMSYN004BUFR
0149827840999992013082212004-07310-039300FM-12+040999999V0203601N0000199999999020000199+02721+02261101541ADDAA101999990AZ101061AZ201061GA1021+008001081GE19MSL   +99999+99999GF102991999999999999999999KA1120N+02041MA1999990097031MD1909990+0011REMSYN004BUFR
0149827840999992013082312004-07310-039300FM-12+040999999V0203601N0000199999999020000199+02551+01671101521ADDAA101999990AZ101061AZ201061GA1011+008001081GE19MSL   +99999+99999GF101991999999999999999999KA1120N+01961MA1999990097001MD1909990-0031REMSYN004BUFR
0098827840999992013082400004-07310-039300FM-12+040999999V0203601N0000122000199002000199+02471+01651101241ADDAA101999990AZ101061AZ201061GF100991999999999999999999MA1999990096701MD1909990-0111REMSYN004BUFR
0111827840999992013082412004-07310-039300FM-12+040999999V0200901N0021122000199002000199+02571+02101101581ADDAA101999990AZ101061AZ201061GF100991999999999999999999KA1120N+02001MA1999990097041MD1909990+0041REMSYN004BUFR
0098827840999992013082500004-07310-039300FM-12+040999999V0203601N0000122000199002000199+02571+01721101231ADDAA101999990AZ101061AZ201061GF100991999999999999999999MA1999990096711MD1909990-0011REMSYN004BUFR
0149827840999992013082512004-07310-039300FM-12+040999999V0201401N0031100800199020000199+02641+01801101551ADDAA101999990AZ101061AZ201061GA1051+008001081GE19MSL   +99999+99999GF105991999999999999999999KA1120N+02061MA1999990097031MD1909990-0011REMSYN004BUFR
0098827840999992013082600004-07310-039300FM-12+040999999V0203601N0000122000199002000199+02521+01711101241ADDAA101999990AZ101061AZ201061GF100991999999999999999999MA1999990096721MD1909990+0011REMSYN004BUFR
0111827840999992013082612004-07310-039300FM-12+040999999V0200901N0015122000199004000199+02591+02111101561ADDAA101999990AZ101061AZ201061GF100991999999999999999999KA1120N+01971MA1999990096731MD1909990+0011REMSYN004BUFR
0098827840999992013082700004-07310-039300FM-12+040999999V0203601N0000122000199002000199+02621+01761101161ADDAA101999990AZ101061AZ201061GF100991999999999999999999MA1999990096651MD1909990-0071REMSYN004BUFR
0149827840999992013082712004-07310-039300FM-12+040999999V0203601N0000199999999020000199+02301+02141101401ADDAA101999990AZ101061AZ201061GA1042+008001081GE19MSL   +99999+99999GF103992999999999999999999KA1120N+02001MA1999990096901MD1909990+0171REMSYN004BUFR
0098827840999992013082800004-07310-039300FM-12+040999999V0203601N0000122000199002000199+02451+01881101361ADDAA101999990AZ101061AZ201061GF100991999999999999999999MA1999990096821MD1909990+0021REMSYN004BUFR
0111827840999992013082812004-07310-039300FM-12+040999999V0203601N0000122000199020000199+02691+01831101591ADDAA101999990AZ101061AZ201061GF100991999999999999999999KA1120N+01801MA1999990097041MD1909990-0141REMSYN004BUFR
0098827840999992013082900004-07310-039300FM-12+040999999V0203601N0000122000199002000199+02641+01801101331ADDAA101999990AZ101061AZ201061GF100991999999999999999999MA1999990096821MD1909990+0021REMSYN004BUFR
0111827840999992013082912004-07310-039300FM-12+040999999V0201401N0026122000199020000199+02701+01681101771ADDAA101999990AZ101061AZ201061GF100991999999999999999999KA1120N+02131MA1999990097241MD1909990+0201REMSYN004BUFR
0098827840999992013083000004-07310-039300FM-12+040999999V0203601N0000122000199002000199+02671+01561101511ADDAA101999990AZ101061AZ201061GF100991999999999999999999MA1999990097001MD1909990+0181REMSYN004BUFR
0111827840999992013083012004-07310-039300FM-12+040999999V0203601N0000122000199002000199+02451+01881101361ADDAA101999990AZ101061AZ201061GF100991999999999999999999KA1120N+01891MA1999990097001MD1909990+0021REMSYN004BUFR
0098827840999992013083100004-07310-039300FM-12+040999999V0203601N0000122000199002000199+02671+01851101451ADDAA101999990AZ101061AZ201061GF100991999999999999999999MA1999990096921MD1909990-0081REMSYN004BUFR
0165827840999992013083112004-07310-039300FM-12+040999999V0201401N0015199999999020000199+02601+01871101641ADDAA101999990AZ101061AZ201061GA1021+008001081GA2991+999991031GE19MSL   +99999+99999GF104991999999999999999999KA1120N+02001MA1999990097111MD1909990+0121REMSYN004BUFR
0098827840999992013090100004-07310-039300FM-12+040999999V0203601N0000122000199002000199+02641+01851101291ADDAA101999990AZ101061AZ201061GF100991999999999999999999MA1999990096781MD1909990-0141REMSYN004BUFR
0149827840999992013090112004-07310-039300FM-12+040999999V0200901N0010100800199020000199+02541+01901101581ADDAA101999990AZ101061AZ201061GA1051+008001081GE19MSL   +99999+99999GF105991999999999999999999KA1120N+02051MA1999990097051MD1909990-0061REMSYN004BUFR
0098827840999992013090200004-07310-039300FM-12+040999999V0203601N0000122000199002000199+02541+01971101231ADDAA101999990AZ101061AZ201061GF100991999999999999999999MA1999990096701MD1909990-0081REMSYN004BUFR
0111827840999992013090212004-07310-039300FM-12+040999999V0201401N0010122000199020000199+02121+01681101611ADDAA101999990AZ101061AZ201061GF100991999999999999999999KA1120N+01601MA1999990097081MD1909990+0031REMSYN004BUFR
0098827840999992013090300004-07310-039300FM-12+040999999V0203601N0000122000199002000199+02421+01651101191ADDAA101999990AZ101061AZ201061GF100991999999999999999999MA1999990096621MD1909990-0081REMSYN004BUFR
0111827840999992013090312004-07310-039300FM-12+040999999V0200901N0010122000199020000199+02551+01851101631ADDAA101999990AZ101061AZ201061GF100991999999999999999999KA1120N+01761MA1999990097071MD1909990+0011REMSYN004BUFR
0098827840999992013090400004-07310-039300FM-12+040999999V0203601N0000122000199002000199+02471+01511101271ADDAA101999990AZ101061AZ201061GF100991999999999999999999MA1999990096721MD1909990-0101REMSYN004BUFR
0149827840999992013090412004-07310-039300FM-12+040999999V0203601N0000100800199020000199+02721+01841101601ADDAA101999990AZ101061AZ201061GA1082+008001061GE19MSL   +99999+99999GF106992082990008001991991KA1120N+01941MA1999990097071MD1909990+0001REMSYN004BUFR
0098827840999992013090500004-07310-039300FM-12+040999999V0203601N0000122000199002000199+02441+01791101441ADDAA101999990AZ101061AZ201061GF100991999999999999999999MA1999990096911MD1909990+0191REMSYN004BUFR
0149827840999992013090512004-07310-039300FM-12+040999999V0203601N0000199999999020000199+02591+01941101681ADDAA101999990AZ101061AZ201061GA1041+008001081GE19MSL   +99999+99999GF107991041990008001991991KA1120N+01991MA1999990097121MD1909990+0051REMSYN004BUFR
0098827840999992013090600004-07310-039300FM-12+040999999V0201401N0015122000199002000199+02791+01591101261ADDAA101999990AZ101061AZ201061GF100991999999999999999999MA1999990096761MD1909990-0151REMSYN004BUFR
0149827840999992013090612004-07310-039300FM-12+040999999V0201401N0015100800199020000199+02571+01851101601ADDAA101999990AZ101061AZ201061GA1071+008001081GE19MSL   +99999+99999GF107991071990008001991991KA1120N+02131MA1999990097081MD1909990-0041REMSYN004BUFR
0098827840999992013090700004-07310-039300FM-12+040999999V0203601N0000122000199002000199+02421+01821101281ADDAA101999990AZ101061AZ201061GF100991999999999999999999MA1999990096741MD1909990-0021REMSYN004BUFR
0149827840999992013090712004-07310-039300FM-12+040999999V0200901N0015100800199020000199+02571+01741101581ADDAA101999990AZ101061AZ201061GA1071+008001081GE19MSL   +99999+99999GF107991071990008001991991KA1120N+02121MA1999990097031MD1909990-0071REMSYN004BUFR
0098827840999992013090800004-07310-039300FM-12+040999999V0203601N0000122000199002000199+02641+01691101301ADDAA101999990AZ101061AZ201061GF100991999999999999999999MA1999990096781MD1909990+0041REMSYN004BUFR
0149827840999992013090812004-07310-039300FM-12+040999999V0201401N0015100800199020000199+02491+01591101681ADDAA101999990AZ101061AZ201061GA1071+008001081GE19MSL   +99999+99999GF107991071990008001991991KA1120N+02061MA1999990097131MD1909990+0101REMSYN004BUFR
0098827840999992013090900004-07310-039300FM-12+040999999V0203601N0000122000199002000199+02571+01691100171ADDAA101999990AZ101061AZ201061GF100991999999999999999999MA1999990096841MD1909990+0061REMSYN004BUFR
0149827840999992013091012004-07310-039300FM-12+040999999V0201401N0015100800199020000199+02501+01661101681ADDAA101999990AZ101061AZ201061GA1061+008001081GE19MSL   +99999+99999GF106991061990008001991991KA1120N+02001MA1999990097141MD1909990+0111REMSYN004BUFR
0098827840999992013091100004-07310-039300FM-12+040999999V0203601N0000122000199002000199+02641+01581101391ADDAA101999990AZ101061AZ201061GF100991999999999999999999MA1999990096861MD1909990-0011REMSYN004BUFR
0111827840999992013091112004-07310-039300FM-12+040999999V0203601N0000122000199020000199+02471+01391101521ADDAA101999990AZ101061AZ201061GF100991999999999999999999KA1120N+01941MA1999990096981MD1909990-0161REMSYN004BUFR
0098827840999992013091200004-07310-039300FM-12+040999999V0203601N0000122000199002000199+02541+01351101221ADDAA101999990AZ101061AZ201061GF100991999999999999999999MA1999990096681MD1909990-0181REMSYN004BUFR
0149827840999992013091212004-07310-039300FM-12+040999999V0201401N0015101750199020000199+02571+01401101371ADDAA101999990AZ101061AZ201061GA1071+017501001GE19MSL   +99999+99999GF107991071990017501991991KA1120N+01891MA1999990096841MD1909990-0141REMSYN004BUFR
0122827840999992013091218004-07310-039300FM-12+040999999V0201401N0010100800199020000199+03271+01131100801ADDAA101999990AZ101061AZ201061GA1051+008001081GE19MSL   +99999+99999GF105991051990008001991991MA1999990096331REMSYN004BUFR
0098827840999992013091300004-07310-039300FM-12+040999999V0201401N0036122000199002000199+02591+01251101081ADDAA101999990AZ101061AZ201061GF100991999999999999999999MA1999990096571MD1909990-0111REMSYN004BUFR
0165827840999992013091312004-07310-039300FM-12+040999999V0200901N0015199999999020000199+02541+01451101501ADDAA101999990AZ101061AZ201061GA1011+008001081GA2991+999991001GE19MSL   +99999+99999GF103991011990008001991991KA1120N+01861MA1999990096961MD1909990+0121REMSYN004BUFR
0136827840999992013091318004-07310-039300FM-12+040999999V0201401N0031100800199020000199+03351+01311100921ADDAA101999990AZ101061AZ201061GA1051+008001081GE19MSL   +99999+99999GF105991051990008001991991MA1999990096461MD1909990+0131REMSYN004BUFR
0098827840999992013091400004-07310-039300FM-12+040999999V0203601N0000122000199002000199+02551+01901101191ADDAA101999990AZ101061AZ201061GF100991999999999999999999MA1999990096661MD1909990+0091REMSYN004BUFR
0149827840999992013091412004-07310-039300FM-12+040999999V0200901N0036100800199020000199+02551+01851101561ADDAA101999990AZ101061AZ201061GA1071+008001081GE19MSL   +99999+99999GF107991071990008001991991KA1120N+01891MA1999990097011MD1909990-0051REMSYN004BUFR
0136827840999992013091418004-07310-039300FM-12+040999999V0200901N0015199999999020000199+03321+01571100961ADDAA101999990AZ101061AZ201061GA1041+008001081GE19MSL   +99999+99999GF104991041990008001991991MA1999990096501MD1909990+0041REMSYN004BUFR
0098827840999992013091500004-07310-039300FM-12+040999999V0203601N0000122000199002000199+02771+01761101331ADDAA101999990AZ101061AZ201061GF100991999999999999999999MA1999990096821MD1909990+0161REMSYN004BUFR
0149827840999992013091512004-07310-039300FM-12+040999999V0200901N0015100800199020000199+02771+01791101461ADDAA101999990AZ101061AZ201061GA1051+008001081GE19MSL   +99999+99999GF105991051990008001991991KA1120N+02001MA1999990096961MD1909990-0051REMSYN004BUFR
0136827840999992013091518004-07310-039300FM-12+040999999V0200901N0021199999999020000199+03421+01411100901ADDAA101999990AZ101061AZ201061GA1041+008001081GE19MSL   +99999+99999GF104991041990008001991991MA1999990096441MD1909990-0061REMSYN004BUFR
0098827840999992013091600004-07310-039300FM-12+040999999V0203601N0000122000199002000199+02751+02041101151ADDAA101999990AZ101061AZ201061GF100991999999999999999999MA1999990096661MD1909990-0161REMSYN004BUFR
0149827840999992013091612004-07310-039300FM-12+040999999V0200901N0005199999999020000199+02751+01661101451ADDAA101999990AZ101061AZ201061GA1031+008001081GE19MSL   +99999+99999GF103991031990008001991991KA1120N+02091MA1999990096911MD1909990-0051REMSYN004BUFR
0136827840999992013091618004-07310-039300FM-12+040999999V0200901N0026199999999020000199+03421+01501100731ADDAA101999990AZ101061AZ201061GA1041+008001081GE19MSL   +99999+99999GF104991041990008001991991MA1999990096281MD1909990-0161REMSYN004BUFR
0098827840999992013091700004-07310-039300FM-12+040999999V0203601N0000122000199002000199+02441+01301101121ADDAA101999990AZ101061AZ201061GF100991999999999999999999MA1999990096611MD1909990-0051REMSYN004BUFR
0149827840999992013091712004-07310-039300FM-12+040999999V0203601N0000199999999020000199+02741+01731101481ADDAA101999990AZ101061AZ201061GA1041+008001081GE19MSL   +99999+99999GF104991041990008001991991KA1120N+01741MA1999990096951MD1909990+0041REMSYN004BUFR
0098827840999992013091800004-07310-039300FM-12+040999999V0203601N0000122000199002000199+02501+01631101121ADDAA101999990AZ101061AZ201061GF100991999999999999999999MA1999990096611MD1909990+0001REMSYN004BUFR
0165827840999992013091812004-07310-039300FM-12+040999999V0200901N0005199999999020000199+02691+01781101541ADDAA101999990AZ101061AZ201061GA1041+008001081GA2991+999991001GE19MSL   +99999+99999GF106991041990008001991991KA1120N+02051MA1999990097011MD1909990+0061REMSYN004BUFR
0136827840999992013091818004-07310-039300FM-12+040999999V0200901N0005199999999020000199+03551+01371100931ADDAA101999990AZ101061AZ201061GA1041+008001081GE19MSL   +99999+99999GF104991041990008001991991MA1999990096501MD1909990+0021REMSYN004BUFR
0136827840999992013091900004-07310-039300FM-12+040999999V0203601N0000199999999002000199+02771+02041101331ADDAA101999990AZ101061AZ201061GA1031+008001081GE19MSL   +99999+99999GF103991031990008001991991MA1999990096841MD1909990+0231REMSYN004BUFR
0111827840999992013091912004-07310-039300FM-12+040999999V0200901N0057122000199020000199+02721+01391101651ADDAA101999990AZ101061AZ201061GF100991999999999999999999KA1120N+01951MA1999990097141MD1909990+0131REMSYN004BUFR
0098827840999992013091918004-07310-039300FM-12+040999999V0200901N0057122000199020000199+03391+01181101001ADDAA101999990AZ101061AZ201061GF100991999999999999999999MA1999990096531MD1909990+0031REMSYN004BUFR
0098827840999992013092000004-07310-039300FM-12+040999999V0203601N0000122000199002000199+02741+01341101261ADDAA101999990AZ101061AZ201061GF100991999999999999999999MA1999990096771MD1909990-0071REMSYN004BUFR
0149827840999992013092012004-07310-039300FM-12+040999999V0200901N0015100800199020000199+02651+02111101531ADDAA101999990AZ101061AZ201061GA1051+008001081GE19MSL   +99999+99999GF105991051990008001991991KA1120N+02031MA1999990097021MD1909990-0121REMSYN004BUFR
0136827840999992013092018004-07310-039300FM-12+040999999V0201801N0031199999999020000199+03271+01291100891ADDAA101999990AZ101061AZ201061GA1011+008001081GE19MSL   +99999+99999GF101991011990008001991991MA1999990096411MD1909990-0121REMSYN004BUFR
0098827840999992013092100004-07310-039300FM-12+040999999V0201401N0026122000199002000199+02771+01441101141ADDAA101999990AZ101061AZ201061GF100991999999999999999999MA1999990096641MD1909990-0131REMSYN004BUFR
0149827840999992013092112004-07310-039300FM-12+040999999V0200901N0015199999999020000199+02641+01601101561ADDAA101999990AZ101061AZ201061GA1011+008001081GE19MSL   +99999+99999GF101991011990008001991991KA1120N+02001MA1999990097071MD1909990+0031REMSYN004BUFR
0136827840999992013092118004-07310-039300FM-12+040999999V0201401N0015199999999020000199+03441+01271100841ADDAA101999990AZ101061AZ201061GA1011+008001081GE19MSL   +99999+99999GF101991011990008001991991MA1999990096381MD1909990-0031REMSYN004BUFR
0149827840999992013092212004-07310-039300FM-12+040999999V0201401N0015100800199020000199+02641+01831101591ADDAA101999990AZ101061AZ201061GA1061+008001081GE19MSL   +99999+99999GF106991061990008001991991KA1120N+02121MA1999990097081MD1909990+0031REMSYN004BUFR
0136827840999992013092218004-07310-039300FM-12+040999999V0201401N0005100800199020000199+03391+01451101061ADDAA101999990AZ101061AZ201061GA1061+008001081GE19MSL   +99999+99999GF106991061990008001991991MA1999990096601MD1909990+0221REMSYN004BUFR
0136827840999992013092300004-07310-039300FM-12+040999999V0200901N0005199999999002000199+02551+01901101371ADDAA101999990AZ101061AZ201061GA1021+008001081GE19MSL   +99999+99999GF102991021990008001991991MA1999990096851MD1909990+0151REMSYN004BUFR
0149827840999992013092312004-07310-039300FM-12+040999999V0200901N0031199999999020000199+02751+01721101631ADDAA101999990AZ101061AZ201061GA1021+008001081GE19MSL   +99999+99999GF102991021990008001991991KA1120N+02101MA1999990097101MD1909990+0021REMSYN004BUFR
0136827840999992013092318004-07310-039300FM-12+040999999V0203601N0000199999999020000199+03491+01811101031ADDAA101999990AZ101061AZ201061GA1031+008001081GE19MSL   +99999+99999GF103991031990008001991991MA1999990096561MD1909990-0041REMSYN004BUFR
0098827840999992013092400004-07310-039300FM-12+040999999V0203601N0000122000199002000199+02541+01641101261ADDAA101999990AZ101061AZ201061GF100991999999999999999999MA1999990096751MD1909990-0101REMSYN004BUFR
0111827840999992013092412004-07310-039300FM-12+040999999V0203601N0000122000199020000199+02651+01741101471ADDAA101999990AZ101061AZ201061GF100991999999999999999999KA1120N+01901MA1999990096941MD1909990-0161REMSYN004BUFR
0098827840999992013092418004-07310-039300FM-12+040999999V0201401N0005122000199020000199+03621+01181100731ADDAA101999990AZ101061AZ201061GF100991999999999999999999MA1999990096281MD1909990-0281REMSYN004BUFR
0098827840999992013092500004-07310-039300FM-12+040999999V0203601N0000122000199002000199+02521+01241101091ADDAA101999990AZ101061AZ201061GF100991999999999999999999MA1999990096581MD1909990-0171REMSYN004BUFR
0149827840999992013092512004-07310-039300FM-12+040999999V0201401N0026100800199020000199+02641+01851101281ADDAA101999990AZ101061AZ201061GA1071+008001061GE19MSL   +99999+99999GF107991071990008001991991KA1120N+02001MA1999990096761MD1909990-0181REMSYN004BUFR
0136827840999992013092518004-07310-039300FM-12+040999999V0203601N0000199999999050000199+03541+01671100681ADDAA101999990AZ101061AZ201061GA1021+008001081GE19MSL   +99999+99999GF102991021990008001991991MA1999990096231MD1909990-0081REMSYN004BUFR
0098827840999992013092600004-07310-039300FM-12+040999999V0203601N0000122000199002000199+02691+01811101011ADDAA101999990AZ101061AZ201061GF100991999999999999999999MA1999990096511MD1909990-0071REMSYN004BUFR
0181827840999992013092612004-07310-039300FM-12+040999999V0203601N0000100800199020000199+02451+01941101421ADDAA101999990AZ101061AZ201061GA1081+008001061GA2991+999991101GA3991+999991101GE19MSL   +99999+99999GF108991081990008001991991KA1120N+02171MA1999990096881MD1909990+0121REMSYN004BUFR
0136827840999992013092618004-07310-039300FM-12+040999999V0203601N0000199999999020000199+03371+01831100781ADDAA101999990AZ101061AZ201061GA1031+008001081GE19MSL   +99999+99999GF103991031990008001991991MA1999990096341MD1909990+0111REMSYN004BUFR
0136827840999992013092700004-07310-039300FM-12+040999999V0200901N0015100800199002000199+03021+01831101141ADDAA101999990AZ101061AZ201061GA1061+008001081GE19MSL   +99999+99999GF106991061990008001991991MA1999990096651MD1909990+0141REMSYN004BUFR
0149827840999992013092712004-07310-039300FM-12+040999999V0200901N0005100800199020000199+02741+01951101371ADDAA101999990AZ101061AZ201061GA1061+008001081GE19MSL   +99999+99999GF106991061990008001991991KA1120N+02301MA1999990096901MD1909990+0021REMSYN004BUFR
0136827840999992013092718004-07310-039300FM-12+040999999V0200901N0015199999999020000199+03521+01341100761ADDAA101999990AZ101061AZ201061GA1041+008001081GE19MSL   +99999+99999GF104991041990008001991991MA1999990096321MD1909990-0021REMSYN004BUFR
0136827840999992013092800004-07310-039300FM-12+040999999V0200901N0010199999999002000199+02951+01871101161ADDAA101999990AZ101061AZ201061GA1031+008001081GE19MSL   +99999+99999GF103991031990008001991991MA1999990096691MD1909990+0041REMSYN004BUFR
0149827840999992013092812004-07310-039300FM-12+040999999V0201401N0015100800199020000199+02741+01891101591ADDAA101999990AZ101061AZ201061GA1061+008001081GE19MSL   +99999+99999GF106991061990008001991991KA1120N+02341MA1999990097101MD1909990+0201REMSYN004BUFR
0136827840999992013092818004-07310-039300FM-12+040999999V0200901N0015199999999020000199+03441+01331100891ADDAA101999990AZ101061AZ201061GA1031+008001081GE19MSL   +99999+99999GF103991031990008001991991MA1999990096451MD1909990+0131REMSYN004BUFR
0098827840999992013092900004-07310-039300FM-12+040999999V0201401N0010122000199002000199+02851+01751101211ADDAA101999990AZ101061AZ201061GF100991999999999999999999MA1999990096731MD1909990+0041REMSYN004BUFR
0149827840999992013092912004-07310-039300FM-12+040999999V0201401N0015100800199020000199+02741+01641101321ADDAA101999990AZ101061AZ201061GA1051+008001081GE19MSL   +99999+99999GF105991051990008001991991KA1120N+02111MA1999990096841MD1909990-0261REMSYN004BUFR
0098827840999992013092918004-07310-039300FM-12+040999999V0201401N0031122000199020000199+03471+01411100751ADDAA101999990AZ101061AZ201061GF100991999999999999999999MA1999990096311MD1909990-0141REMSYN004BUFR
0098827840999992013093000004-07310-039300FM-12+040999999V0203601N0000122000199002000199+02571+01741101021ADDAA101999990AZ101061AZ201061GF100991999999999999999999MA1999990096521MD1909990-0211REMSYN004BUFR
0149827840999992013093012004-07310-039300FM-12+040999999V0200901N0015199999999020000199+02751+01491101461ADDAA101999990AZ101061AZ201061GA1021+008001081GE19MSL   +99999+99999GF102991021990008001991991KA1120N+02071MA1999990096941MD1909990-0101REMSYN004BUFR
0136827840999992013093018004-07310-039300FM-12+040999999V0201401N0031199999999020000199+03421+01361100801ADDAA101999990AZ101061AZ201061GA1041+008001081GE19MSL   +99999+99999GF104991041990008001991991MA1999990096321MD1909990+0011REMSYN004BUFR
0098827840999992013100100004-07310-039300FM-12+040999999V0201401N0005122000199002000199+02651+01771101071ADDAA101999990AZ101061AZ201061GF100991999999999999999999MA1999990096571MD1909990+0051REMSYN004BUFR
0149827840999992013100112004-07310-039300FM-12+040999999V0200901N0015100800199020000199+02721+01601101421ADDAA101999990AZ101061AZ201061GA1061+008001081GE19MSL   +99999+99999GF106991061990008001991991KA1120N+02091MA1999990096911MD1909990-0061REMSYN004BUFR
0136827840999992013100118004-07310-039300FM-12+040999999V0200901N0015199999999020000199+03351+01311100701ADDAA101999990AZ101061AZ201061GA1011+008001081GE19MSL   +99999+99999GF101991011990008001991991MA1999990096281MD1909990-0041REMSYN004BUFR
0098827840999992013100200004-07310-039300FM-12+040999999V0203601N0000122000199002000199+02641+01721101031ADDAA101999990AZ101061AZ201061GF100991999999999999999999MA1999990096531MD1909990-0041REMSYN004BUFR
0149827840999992013100212004-07310-039300FM-12+040999999V0200501N0015100800199020000199+02691+02041101431ADDAA101999990AZ101061AZ201061GA1061+008001081GE19MSL   +99999+99999GF106991061990008001991991KA1120N+02101MA1999990096911MD1909990+0001REMSYN004BUFR
0136827840999992013100218004-07310-039300FM-12+040999999V0200901N0005100800199020000199+03391+01291100761ADDAA101999990AZ101061AZ201061GA1061+008001081GE19MSL   +99999+99999GF106991061990008001991991MA1999990096321MD1909990+0041REMSYN004BUFR
0098827840999992013100300004-07310-039300FM-12+040999999V0203601N0000122000199002000199+02701+01651101131ADDAA101999990AZ101061AZ201061GF100991999999999999999999MA1999990096631MD1909990+0101REMSYN004BUFR
0111827840999992013100312004-07310-039300FM-12+040999999V0203601N0000122000199020000199+02771+01551101541ADDAA101999990AZ101061AZ201061GF100991999999999999999999KA1120N+01901MA1999990097041MD1909990+0131REMSYN004BUFR
0136827840999992013100318004-07310-039300FM-12+040999999V0203601N0000100800199020000199+03421+01411100961ADDAA101999990AZ101061AZ201061GA1051+008001081GE19MSL   +99999+99999GF105991051990008001991991MA1999990096481MD1909990+0161REMSYN004BUFR
0098827840999992013100400004-07310-039300FM-12+040999999V0203601N0000122000199002000199+02741+01701101111ADDAA101999990AZ101061AZ201061GF100991999999999999999999MA1999990096621MD1909990-0011REMSYN004BUFR
0149827840999992013100412004-07310-039300FM-12+040999999V0200901N0005100800199020000199+02551+01831101631ADDAA101999990AZ101061AZ201061GA1061+008001081GE19MSL   +99999+99999GF106991061990008001991991KA1120N+01961MA1999990097061MD1909990+0021REMSYN004BUFR
0136827840999992013100418004-07310-039300FM-12+040999999V0200901N0015100800199020000199+03491+01081100831ADDAA101999990AZ101061AZ201061GA1051+008001081GE19MSL   +99999+99999GF105991051990008001991991MA1999990096381MD1909990-0101REMSYN004BUFR
0098827840999992013100500004-07310-039300FM-12+040999999V0203601N0000122000199002000199+02671+01671101131ADDAA101999990AZ101061AZ201061GF100991999999999999999999MA1999990096621MD1909990+0001REMSYN004BUFR
0149827840999992013100512004-07310-039300FM-12+040999999V0200501N0015100800199020000199+02741+01871101371ADDAA101999990AZ101061AZ201061GA1061+008001081GE19MSL   +99999+99999GF106991061990008001991991KA1120N+01821MA1999990096861MD1909990-0201REMSYN004BUFR
0136827840999992013100518004-07310-039300FM-12+040999999V0203601N0000199999999020000199+03541+01671100731ADDAA101999990AZ101061AZ201061GA1021+008001081GE19MSL   +99999+99999GF102991021990008001991991MA1999990096281MD1909990-0101REMSYN004BUFR
0098827840999992013100600004-07310-039300FM-12+040999999V0203601N0000122000199002000199+02791+01871101071ADDAA101999990AZ101061AZ201061GF100991999999999999999999MA1999990096581MD1909990-0041REMSYN004BUFR
0149827840999992013100612004-07310-039300FM-12+040999999V0203601N0000100800199020000199+02641+02031101341ADDAA101999990AZ101061AZ201061GA1072+008001081GE19MSL   +99999+99999GF105992072990008001991991KA1120N+01981MA1999990096841MD1909990-0021REMSYN004BUFR
0136827840999992013100618004-07310-039300FM-12+040999999V0201401N0010199999999020000199+03621+01531100691ADDAA101999990AZ101061AZ201061GA1031+008001081GE19MSL   +99999+99999GF103991031990008001991991MA1999990096241MD1909990-0041REMSYN004BUFR
0098827840999992013100700004-07310-039300FM-12+040999999V0203601N0000122000199002000199+02721+01701101031ADDAA101999990AZ101061AZ201061GF100991999999999999999999MA1999990096541MD1909990-0041REMSYN004BUFR
0149827840999992013100712004-07310-039300FM-12+040999999V0203601N0000100800199020000199+02721+01901101551ADDAA101999990AZ101061AZ201061GA1071+008001081GE19MSL   +99999+99999GF107991071990008001991991KA1120N+01941MA1999990097041MD1909990+0201REMSYN004BUFR
0136827840999992013100718004-07310-039300FM-12+040999999V0201401N0015199999999020000199+03471+01121101081ADDAA101999990AZ101061AZ201061GA1041+008001081GE19MSL   +99999+99999GF104991041990008001991991MA1999990096611MD1909990+0371REMSYN004BUFR
0168827840999992013100800004-07310-039300FM-12+040999999V0201801N0015100000199002000199+02871+01731101211ADDAA101999990AZ101061AZ201061GA1091+000001101GA2991+999991101GA3991+999991101GE19MSL   +99999+99999GF199999091990000001991991MA1999990096731MD1909990+0191REMSYN004BUFR
0149827840999992013100812004-07310-039300FM-12+040999999V0201401N0015100800199020000199+02771+01671101541ADDAA101999990AZ101061AZ201061GA1051+008001081GE19MSL   +99999+99999GF105991051990008001991991KA1120N+02381MA1999990097121MD1909990+0081REMSYN004BUFR
0136827840999992013100818004-07310-039300FM-12+040999999V0200901N0005199999999020000199+03401+01351101001ADDAA101999990AZ101061AZ201061GA1041+008001081GE19MSL   +99999+99999GF104991041990008001991991MA1999990096581MD1909990-0031REMSYN004BUFR
0098827840999992013100900004-07310-039300FM-12+040999999V0203601N0000122000199002000199+02821+01721101041ADDAA101999990AZ101061AZ201061GF100991999999999999999999MA1999990096541MD1909990-0191REMSYN004BUFR
0149827840999992013100912004-07310-039300FM-12+040999999V0200901N0015199999999020000199+02671+01611101451ADDAA101999990AZ101061AZ201061GA1021+008001081GE19MSL   +99999+99999GF102991021990008001991991KA1120N+02091MA1999990096951MD1909990+0171REMSYN004BUFR
0136827840999992013100918004-07310-039300FM-12+040999999V0200901N0015100800199020000199+03341+01401100991ADDAA101999990AZ101061AZ201061GA1061+008001081GE19MSL   +99999+99999GF106991061990008001991991MA1999990096521MD1909990-0061REMSYN004BUFR
0098827840999992013101000004-07310-039300FM-12+040999999V0201401N0015122000199002000199+02791+01391101141ADDAA101999990AZ101061AZ201061GF100991999999999999999999MA1999990096651MD1909990+0111REMSYN004BUFR
0149827840999992013101012004-07310-039300FM-12+040999999V0200901N0031199999999020000199+02751+01661101391ADDAA101999990AZ101061AZ201061GA1011+008001081GE19MSL   +99999+99999GF101991011990008001991991KA1120N+02201MA1999990096901MD1909990-0051REMSYN004BUFR
0136827840999992013101018004-07310-039300FM-12+040999999V0201401N0005100800199020000199+03391+01351100781ADDAA101999990AZ101061AZ201061GA1051+008001081GE19MSL   +99999+99999GF105991051990008001991991MA1999990096331MD1909990-0191REMSYN004BUFR
0098827840999992013101100004-07310-039300FM-12+040999999V0201401N0031122000199002000199+02871+01371101001ADDAA101999990AZ101061AZ201061GF100991999999999999999999MA1999990096531MD1909990-0121REMSYN004BUFR
0149827840999992013101112004-07310-039300FM-12+040999999V0201401N0015100800199020000199+02771+01671101341ADDAA101999990AZ101061AZ201061GA1051+008001081GE19MSL   +99999+99999GF105991051990008001991991KA1120N+02081MA1999990096901MD1909990+0001REMSYN004BUFR
0136827840999992013101118004-07310-039300FM-12+040999999V0201401N0026199999999020000199+03151+01631100971ADDAA101999990AZ101061AZ201061GA1031+008001081GE19MSL   +99999+99999GF106991031990008001991991MA1999990096481MD1909990+0151REMSYN004BUFR
0136827840999992013101200004-07310-039300FM-12+040999999V0201401N0031199999999002000199+02551+01781101271ADDAA101999990AZ101061AZ201061GA1022+008001081GE19MSL   +99999+99999GF101992022990008001991991MA1999990096761MD1909990+0231REMSYN004BUFR
0136827840999992013101218004-07310-039300FM-12+040999999V0201401N0031100800199020000199+03221+01771100931ADDAA101999990AZ101061AZ201061GA1061+008001081GE19MSL   +99999+99999GF106991061990008001991991MA1999990096441MD1909990-0041REMSYN004BUFR
0136827840999992013101300004-07310-039300FM-12+040999999V0201401N0041100800199002000199+02571+01901101341ADDAA101999990AZ101061AZ201061GA1061+008001081GE19MSL   +99999+99999GF106991061990008001991991MA1999990096811MD1909990+0051REMSYN004BUFR
0155827840999992013101312004-07310-039300FM-12+040999999V0201401N0015199999999020000199+02621+01781100991ADDAA124008031AY161061AY221061GA1042+008001081GE19MSL   +99999+99999GF102992042990008001991991KA1120N+01981MA1999990096481MD1909990+0081MW1011REMSYN004BUFR
0136827840999992013101318004-07310-039300FM-12+040999999V0201401N0015100800199020000199+03221+01431100911ADDAA101999990AZ101061AZ201061GA1051+008001081GE19MSL   +99999+99999GF105991051990008001991991MA1999990096421MD1909990-0021REMSYN004BUFR
0136827840999992013101400004-07310-039300FM-12+040999999V0201401N0010100800199002000199+02641+01951101341ADDAA101999990AZ101061AZ201061GA1061+008001061GE19MSL   +99999+99999GF106991061990008001991991MA1999990096831MD1909990+0021REMSYN004BUFR
0149827840999992013101412004-07310-039300FM-12+040999999V0200901N0015100800199020000199+02641+01691101361ADDAA101999990AZ101061AZ201061GA1051+008001081GE19MSL   +99999+99999GF105991051990008001991991KA1120N+02131MA1999990096851MD1909990-0031REMSYN004BUFR
0136827840999992013101418004-07310-039300FM-12+040999999V0200901N0005100800199020000199+03341+01491100801ADDAA101999990AZ101061AZ201061GA1061+008001081GE19MSL   +99999+99999GF106991061990008001991991MA1999990096341MD1909990-0081REMSYN004BUFR
0136827840999992013101500004-07310-039300FM-12+040999999V0201401N0015100800199002000199+02791+01841101111ADDAA101999990AZ101061AZ201061GA1061+008001081GE19MSL   +99999+99999GF106991061990008001991991MA1999990096611MD1909990-0221REMSYN004BUFR
0149827840999992013101512004-07310-039300FM-12+040999999V0203601N0000100800199020000199+02741+01761101411ADDAA101999990AZ101061AZ201061GA1061+008001081GE19MSL   +99999+99999GF106991061990008001991991KA1120N+02211MA1999990096861MD1909990+0011REMSYN004BUFR
0136827840999992013101518004-07310-039300FM-12+040999999V0201401N0015100800199020000199+03491+01431100721ADDAA101999990AZ101061AZ201061GA1061+008001081GE19MSL   +99999+99999GF106991061990008001991991MA1999990096281MD1909990-0061REMSYN004BUFR
0136827840999992013101600004-07310-039300FM-12+040999999V0201401N0015199999999002000199+02851+01721101181ADDAA101999990AZ101061AZ201061GA1031+008001061GE19MSL   +99999+99999GF103991031990008001991991MA1999990096701MD1909990+0091REMSYN004BUFR
0181827840999992013101612004-07310-039300FM-12+040999999V0200901N0005100800199020000199+02591+01821101491ADDAA101999990AZ101061AZ201061GA1081+008001061GA2991+999991101GA3991+999991101GE19MSL   +99999+99999GF108991081990008001991991KA1120N+02221MA1999990096921MD1909990+0061REMSYN004BUFR
0136827840999992013101618004-07310-039300FM-12+040999999V0201401N0015100800199020000199+03451+01601100721ADDAA101999990AZ101061AZ201061GA1051+008001081GE19MSL   +99999+99999GF105991051990008001991991MA1999990096281MD1909990+0001REMSYN004BUFR
0136827840999992013101700004-07310-039300FM-12+040999999V0201401N0015100800199002000199+02971+01621101041ADDAA101999990AZ101061AZ201061GA1051+008001061GE19MSL   +99999+99999GF105991051990008001991991MA1999990096561MD1909990-0141REMSYN004BUFR
0149827840999992013101712004-07310-039300FM-12+040999999V0201401N0005199999999020000199+02741+01761101341ADDAA101999990AZ101061AZ201061GA1041+008001081GE19MSL   +99999+99999GF105991041990008001991991KA1120N+02001MA1999990096861MD1909990-0061REMSYN004BUFR
0136827840999992013101718004-07310-039300FM-12+040999999V0200901N0005100800199020000199+03471+01521100681ADDAA101999990AZ101061AZ201061GA1051+008001081GE19MSL   +99999+99999GF105991051990008001991991MA1999990096221MD1909990-0061REMSYN004BUFR
0168827840999992013101800004-07310-039300FM-12+040999999V0201401N0015100800199002000199+02771+01821101061ADDAA101999990AZ101061AZ201061GA1081+008001081GA2991+999991101GA3991+999991101GE19MSL   +99999+99999GF108991081990008001991991MA1999990096571MD1909990+0011REMSYN004BUFR
0149827840999992013101812004-07310-039300FM-12+040999999V0200901N0015100800199020000199+02541+01881101321ADDAA101999990AZ101061AZ201061GA1071+008001081GE19MSL   +99999+99999GF107991071990008001991991KA1120N+02221MA1999990096811MD1909990-0051REMSYN004BUFR
0136827840999992013101818004-07310-039300FM-12+040999999V0203601N0005100800199020000199+03371+01661100651ADDAA101999990AZ101061AZ201061GA1061+008001081GE19MSL   +99999+99999GF106991061990008001991991MA1999990096231MD1909990+0011REMSYN004BUFR
0098827840999992013101900004-07310-039300FM-12+040999999V0203601N0000122000199002000199+02691+01831101001ADDAA101999990AZ101061AZ201061GF100991999999999999999999MA1999990096491MD1909990-0081REMSYN004BUFR
0149827840999992013101912004-07310-039300FM-12+040999999V0200901N0015100800199020000199+02771+01791101321ADDAA101999990AZ101061AZ201061GA1061+008001081GE19MSL   +99999+99999GF106991061990008001991991KA1120N+02271MA1999990096831MD1909990+0021REMSYN004BUFR
0136827840999992013101918004-07310-039300FM-12+040999999V0200501N0015199999999020000199+03421+01561100731ADDAA101999990AZ101061AZ201061GA1041+008001081GE19MSL   +99999+99999GF104991041990008001991991MA1999990096311MD1909990+0081REMSYN004BUFR
0098827840999992013102000004-07310-039300FM-12+040999999V0203601N0000122000199002000199+02591+01791101081ADDAA101999990AZ101061AZ201061GF100991999999999999999999MA1999990096581MD1909990+0091REMSYN004BUFR
0149827840999992013102012004-07310-039300FM-12+040999999V0201401N0015199999999020000199+02791+02221101421ADDAA101999990AZ101061AZ201061GA1021+008001081GE19MSL   +99999+99999GF102991021990008001991991KA1120N+02181MA1999990096911MD1909990+0081REMSYN004BUFR
0136827840999992013102018004-07310-039300FM-12+040999999V0200901N0005100800199020000199+03471+01521100681ADDAA101999990AZ101061AZ201061GA1051+008001081GE19MSL   +99999+99999GF105991051990008001991991MA1999990096221MD1909990-0061REMSYN004BUFR
0136827840999992013102100004-07310-039300FM-12+040999999V0203601N0000199999999002000199+02621+01731101131ADDAA101999990AZ101061AZ201061GA1021+008001081GE19MSL   +99999+99999GF102991021990008001991991MA1999990096631MD1909990+0051REMSYN004BUFR
0149827840999992013102112004-07310-039300FM-12+040999999V0201401N0015199999999020000199+02751+01561101441ADDAA101999990AZ101061AZ201061GA1032+008001081GE19MSL   +99999+99999GF102992032990008001991991KA1120N+02201MA1999990096931MD1909990+0021REMSYN004BUFR
0136827840999992013102118004-07310-039300FM-12+040999999V0201401N0015100800199020000199+03521+01341100771ADDAA101999990AZ101061AZ201061GA1061+008001081GE19MSL   +99999+99999GF106991061990008001991991MA1999990096321MD1909990+0001REMSYN004BUFR
0136827840999992013102200004-07310-039300FM-12+040999999V0203601N0000199999999002000199+02841+01531100951ADDAA101999990AZ101061AZ201061GA1021+008001081GE19MSL   +99999+99999GF102991021990008001991991MA1999990096481MD1909990-0151REMSYN004BUFR
0149827840999992013102212004-07310-039300FM-12+040999999V0203601N0000199999999020000199+02741+01611101231ADDAA101999990AZ101061AZ201061GA1011+008001081GE19MSL   +99999+99999GF101991011990008001991991KA1120N+02051MA1999990096751MD1909990-0181REMSYN004BUFR
0168827840999992013102218004-07310-039300FM-12+040999999V0200901N0005199999999020000199+03471+01251100761ADDAA101999990AZ101061AZ201061GA1041+008001081GA2991+999991101GA3991+999991041GE19MSL   +99999+99999GF108991041990008001991991MA1999990096311MD1909990-0011REMSYN004BUFR
0098827840999992013102300004-07310-039300FM-12+040999999V0201401N0015122000199002000199+02451+01151100961ADDAA101999990AZ101061AZ201061GF100991999999999999999999MA1999990096471MD1909990-0011REMSYN004BUFR
0149827840999992013102312004-07310-039300FM-12+040999999V0203601N0000100800199020000199+02791+01751101341ADDAA101999990AZ101061AZ201061GA1061+008001081GE19MSL   +99999+99999GF106991061990008001991991KA1120N+02061MA1999990096821MD1909990+0071REMSYN004BUFR
0136827840999992013102318004-07310-039300FM-12+040999999V0203601N0000100800199020000199+03471+01411100761ADDAA101999990AZ101061AZ201061GA1061+008001081GE19MSL   +99999+99999GF106991061990008001991991MA1999990096311MD1909990+0001REMSYN004BUFR
0098827840999992013102400004-07310-039300FM-12+040999999V0201401N0015122000199002000199+02901+01601101021ADDAA101999990AZ101061AZ201061GF100991999999999999999999MA1999990096551MD1909990+0081REMSYN004BUFR
0149827840999992013102412004-07310-039300FM-12+040999999V0201401N0005100800199020000199+02641+01751101411ADDAA101999990AZ101061AZ201061GA1061+008001081GE19MSL   +99999+99999GF106991061990008001991991KA1120N+02091MA1999990096941MD1909990+0121REMSYN004BUFR
0136827840999992013102418004-07310-039300FM-12+040999999V0200901N0005100800199020000199+03221+01571101021ADDAA101999990AZ101061AZ201061GA1051+008001081GE19MSL   +99999+99999GF105991051990008001991991MA1999990096541MD1909990+0231REMSYN004BUFR
0136827840999992013102500004-07310-039300FM-12+040999999V0203601N0000100800199002000199+02441+01961101221ADDAA101999990AZ101061AZ201061GA1051+008001081GE19MSL   +99999+99999GF105991051990008001991991MA1999990096711MD1909990+0161REMSYN004BUFR
0181827840999992013102512004-07310-039300FM-12+040999999V0203601N0000100800199020000199+02571+01801101601ADDAA101999990AZ101061AZ201061GA1081+008001061GA2991+999991101GA3991+999991101GE19MSL   +99999+99999GF108991081990008001991991KA1120N+02211MA1999990097051MD1909990+0111REMSYN004BUFR
0136827840999992013102518004-07310-039300FM-12+040999999V0203601N0000199999999020000199+03321+01651100911ADDAA101999990AZ101061AZ201061GA1991+008001991GE19MSL   +99999+99999GF106991990990008001991991MA1999990096441MD1909990-0101REMSYN004BUFR
0098827840999992013102600004-07310-039300FM-12+040999999V0203601N0000122000199002000199+02691+01631101091ADDAA101999990AZ101061AZ201061GF100991999999999999999999MA1999990096591MD1909990-0121REMSYN004BUFR
0149827840999992013102612004-07310-039300FM-12+040999999V0201401N0015100800199020000199+02871+01891101231ADDAA101999990AZ101061AZ201061GA1071+008001081GE19MSL   +99999+99999GF107991071990008001991991KA1120N+02191MA1999990096751MD1909990-0301REMSYN004BUFR
0136827840999992013102618004-07310-039300FM-12+040999999V0203601N0000199999999020000199+03341+01541100781ADDAA101999990AZ101061AZ201061GA1031+008001081GE19MSL   +99999+99999GF103991031990008001991991MA1999990096291MD1909990-0151REMSYN004BUFR
0098827840999992013102700004-07310-039300FM-12+040999999V0201401N0031122000199002000199+02841+01391100971ADDAA101999990AZ101061AZ201061GF100991999999999999999999MA1999990096511MD1909990-0081REMSYN004BUFR
0149827840999992013102712004-07310-039300FM-12+040999999V0201401N0015199999999020000199+02751+01911101271ADDAA101999990AZ101061AZ201061GA1031+008001081GE19MSL   +99999+99999GF103991031990008001991991KA1120N+02231MA1999990096791MD1909990+0041REMSYN004BUFR
0136827840999992013102718004-07310-039300FM-12+040999999V0200901N0010199999999020000199+03441+01721100721ADDAA101999990AZ101061AZ201061GA1041+008001081GE19MSL   +99999+99999GF107991041990008001991991MA1999990096231MD1909990-0061REMSYN004BUFR
0098827840999992013102800004-07310-039300FM-12+040999999V0203601N0000122000199002000199+02721+01971100931ADDAA101999990AZ101061AZ201061GF100991999999999999999999MA1999990096451MD1909990-0061REMSYN004BUFR
0149827840999992013102812004-07310-039300FM-12+040999999V0200901N0015100800199020000199+02771+01981101281ADDAA101999990AZ101061AZ201061GA1071+008001081GE19MSL   +99999+99999GF107991071990008001991991KA1120N+02311MA1999990096791MD1909990+0001REMSYN004BUFR
0136827840999992013102818004-07310-039300FM-12+040999999V0200901N0005100800199020000199+03441+01671100711ADDAA101999990AZ101061AZ201061GA1061+008001081GE19MSL   +99999+99999GF106991061990008001991991MA1999990096261MD1909990+0031REMSYN004BUFR
0098827840999992013102900004-07310-039300FM-12+040999999V0203601N0000122000199002000199+02721+01901100971ADDAA101999990AZ101061AZ201061GF100991999999999999999999MA1999990096491MD1909990+0041REMSYN004BUFR
0181827840999992013102912004-07310-039300FM-12+040999999V0200501N0005100800199020000199+02421+01911101301ADDAA101999990AZ101061AZ201061GA1081+008001061GA2991+999991101GA3991+999991101GE19MSL   +99999+99999GF108991081990008001991991KA1120N+02201MA1999990096771MD1909990-0021REMSYN004BUFR
0136827840999992013102918004-07310-039300FM-12+040999999V0203601N0000100800199020000199+03441+01721100671ADDAA101999990AZ101061AZ201061GA1061+008001081GE19MSL   +99999+99999GF106991061990008001991991MA1999990096231MD1909990-0031REMSYN004BUFR
0168827840999992013103000004-07310-039300FM-12+040999999V0203601N0000100800199002000199+02951+01841100931ADDAA101999990AZ101061AZ201061GA1081+008001081GA2991+999991101GA3991+999991101GE19MSL   +99999+99999GF108991081990008001991991MA1999990096441MD1909990-0051REMSYN004BUFR
0171827840999992013103012004-07310-039300FM-12+040999999V0203601N0000199999999020000199+02591+01761101261ADDAA124010031AY161061AY221061GA1031+008001081GA2991+999991031GE19MSL   +99999+99999GF105991031990008001991991KA1120N+02171MA1999990096781MD1909990+0011MW1021REMSYN004BUFR
0136827840999992013103018004-07310-039300FM-12+040999999V0200501N0015199999999020000199+03391+01181100511ADDAA101999990AZ101061AZ201061GA1021+008001081GE19MSL   +99999+99999GF102991021990008001991991MA1999990096141MD1909990-0091REMSYN004BUFR
0136827840999992013103100004-07310-039300FM-12+040999999V0203601N0000199999999002000199+02651+01901100871ADDAA101999990AZ101061AZ201061GA1021+008001081GE19MSL   +99999+99999GF102991021990008001991991MA1999990096371MD1909990-0071REMSYN004BUFR
0149827840999992013103112004-07310-039300FM-12+040999999V0201401N0015199999999020000199+02721+01651101151ADDAA101999990AZ101061AZ201061GA1021+008001081GE19MSL   +99999+99999GF102991021990008001991991KA1120N+02231MA1999990096651MD1909990-0131REMSYN004BUFR
0136827840999992013103118004-07310-039300FM-12+040999999V0201401N0015100800199020000199+03441+01381100621ADDAA101999990AZ101061AZ201061GA1061+008001081GE19MSL   +99999+99999GF106991061990008001991991MA1999990096181MD1909990+0041REMSYN004BUFR
0098827840999992013110100004-07310-039300FM-12+040999999V0203601N0000122000199002000199+02691+01861100911ADDAA101999990AZ101061AZ201061GF100991999999999999999999MA1999990096421MD1909990+0051REMSYN004BUFR
0149827840999992013110112004-07310-039300FM-12+040999999V0200901N0005199999999020000199+02691+01661101171ADDAA101999990AZ101061AZ201061GA1011+008001081GE19MSL   +99999+99999GF101991011990008001991991KA1120N+01901MA1999990096671MD1909990+0021REMSYN004BUFR
0152827840999992013110118004-07310-039300FM-12+040999999V0200901N0010199999999020000199+03421+01201100631ADDAA101999990AZ101061AZ201061GA1021+008001081GA2991+999991051GE19MSL   +99999+99999GF105991021990008001991991MA1999990096191MD1909990+0011REMSYN004BUFR
0098827840999992013110200004-07310-039300FM-12+040999999V0200901N0010122000199002000199+02891+01841100931ADDAA101999990AZ101061AZ201061GF100991999999999999999999MA1999990096461MD1909990+0041REMSYN004BUFR
0149827840999992013110212004-07310-039300FM-12+040999999V0200901N0015199999999020000199+02821+01771101171ADDAA101999990AZ101061AZ201061GA1021+008001081GE19MSL   +99999+99999GF102991021990008001991991KA1120N+01981MA1999990096701MD1909990+0031REMSYN004BUFR
0136827840999992013110218004-07310-039300FM-12+040999999V0201401N0031100800199020000199+03421+01651100621ADDAA101999990AZ101061AZ201061GA1051+008001081GE19MSL   +99999+99999GF105991051990008001991991MA1999990096181MD1909990-0011REMSYN004BUFR
0098827840999992013110300004-07310-039300FM-12+040999999V0203601N0000122000199002000199+02741+01771100951ADDAA101999990AZ101061AZ201061GF100991999999999999999999MA1999990096481MD1909990+0021REMSYN004BUFR
0149827840999992013110312004-07310-039300FM-12+040999999V0201401N0010199999999020000199+02771+01821101101ADDAA101999990AZ101061AZ201061GA1011+008001081GE19MSL   +99999+99999GF101991011990008001991991KA1120N+02161MA1999990096611MD1909990-0091REMSYN004BUFR
0136827840999992013110318004-07310-039300FM-12+040999999V0203601N0000100800199020000199+03391+01591100411ADDAA101999990AZ101061AZ201061GA1061+008001061GE19MSL   +99999+99999GF106991061990008001991991MA1999990095961MD1909990-0221REMSYN004BUFR
0098827840999992013110400004-07310-039300FM-12+040999999V0203601N0000122000199002000199+02541+02001100951ADDAA101999990AZ101061AZ201061GF100991999999999999999999MA1999990096451MD1909990-0031REMSYN004BUFR
0187827840999992013110412004-07310-039300FM-12+040999999V0203601N0000100800199020000199+02271+01961101231ADDAA124038031AY161061AY221061GA1081+008001061GA2991+999991101GA3991+999991101GE19MSL   +99999+99999GF108991081990008001991991KA1120N+01961MA1999990096671MD1909990+0061MW1021REMSYN004BUFR
0136827840999992013110418004-07310-039300FM-12+040999999V0203601N0000100800199020000199+02971+01831100741ADDAA101999990AZ101061AZ201061GA1071+008001081GE19MSL   +99999+99999GF107991071990008001991991MA1999990096221MD1909990+0261REMSYN004BUFR
0098827840999992013110500004-07310-039300FM-12+040999999V0203601N0000122000199002000199+02571+02171101021ADDAA101999990AZ101061AZ201061GF100991999999999999999999MA1999990096471MD1909990+0021REMSYN004BUFR
0181827840999992013110512004-07310-039300FM-12+040999999V0200901N0015100800199020000199+02471+01961101271ADDAA101999990AZ101061AZ201061GA1081+008001081GA2991+999991101GA3991+999991101GE19MSL   +99999+99999GF108991081990008001991991KA1120N+02001MA1999990096741MD1909990+0071REMSYN004BUFR
0136827840999992013110518004-07310-039300FM-12+040999999V0203601N0005100800199020000199+03121+01751100871ADDAA101999990AZ101061AZ201061GA1071+008001061GE19MSL   +99999+99999GF107991071990008001991991MA1999990096361MD1909990+0141REMSYN004BUFR
0149827840999992013110612004-07310-039300FM-12+040999999V0201401N0005100800199020000199+02741+01891101331ADDAA101999990AZ101061AZ201061GA1061+008001081GE19MSL   +99999+99999GF106991061990008001991991KA1120N+02041MA1999990096801MD1909990+0061REMSYN004BUFR
0152827840999992013110618004-07310-039300FM-12+040999999V0203601N0000199999999020000199+03471+01521100731ADDAA101999990AZ101061AZ201061GA1041+008001081GA2991+999991041GE19MSL   +99999+99999GF106991041990008001991991MA1999990096301MD1909990-0061REMSYN004BUFR
0168827840999992013110700004-07310-039300FM-12+040999999V0203601N0000100800199002000199+02941+02141101031ADDAA101999990AZ101061AZ201061GA1081+008001061GA2991+999991101GA3991+999991101GE19MSL   +99999+99999GF108991081990008001991991MA1999990096561MD1909990-0061REMSYN004BUFR
0158827840999992013110712004-07310-039300FM-12+040999999V0201401N0015199999999020000199+02851+01651999999ADDAA101999990AZ101061AZ201061GA1041+008001081GE19MSL   +99999+99999GF104991041990008001991991KA1120N+02191MA1999990096771MD1909990-0031ME1900129REMSYN004BUFR
0136827840999992013110718004-07310-039300FM-12+040999999V0200901N0005100800199020000199+03441+01151100831ADDAA101999990AZ101061AZ201061GA1051+008001081GE19MSL   +99999+99999GF105991051990008001991991MA1999990096381MD1909990+0081REMSYN004BUFR
0168827840999992013110800004-07310-039300FM-12+040999999V0203601N0000100800199020000199+02841+01881101041ADDAA101999990AZ101061AZ201061GA1081+008001081GA2991+999991101GA3991+999991101GE19MSL   +99999+99999GF108991081990008001991991MA1999990096571MD1909990+0011REMSYN004BUFR
0181827840999992013110812004-07310-039300FM-12+040999999V0201401N0015199999999020000199+02751+01691101221ADDAA101999990AZ101061AZ201061GA1021+008001081GA2991+999991101GA3991+999991041GE19MSL   +99999+99999GF108991021990008001991991KA1120N+02111MA1999990096741MD1909990-0031REMSYN004BUFR
0136827840999992013110818004-07310-039300FM-12+040999999V0203601N0000100800199020000199+03351+01601100711ADDAA101999990AZ101061AZ201061GA1061+008001081GE19MSL   +99999+99999GF106991061990008001991991MA1999990096271MD1909990-0111REMSYN004BUFR
0098827840999992013110900004-07310-039300FM-12+040999999V0203601N0000122000199020000199+02621+01811100891ADDAA101999990AZ101061AZ201061GF100991999999999999999999MA1999990096401MD1909990-0171REMSYN004BUFR
0149827840999992013110912004-07310-039300FM-12+040999999V0203601N0000100800199020000199+02821+01821101071ADDAA101999990AZ101061AZ201061GA1061+008001081GE19MSL   +99999+99999GF106991061990008001991991KA1120N+02141MA1999990096581MD1909990-0161REMSYN004BUFR
0152827840999992013110918004-07310-039300FM-12+040999999V0203601N0000199999999020000199+03421+01651100581ADDAA101999990AZ101061AZ201061GA1031+008001081GA2991+999991051GE19MSL   +99999+99999GF105991031990008001991991MA1999990096141MD1909990-0131REMSYN004BUFR
0098827840999992013111000004-07310-039300FM-12+040999999V0203601N0000122000199002000199+02771+01881100841ADDAA101999990AZ101061AZ201061GF100991999999999999999999MA1999990096371MD1909990-0031REMSYN004BUFR
0149827840999992013111012004-07310-039300FM-12+040999999V0200901N0015199999999020000199+02741+02001101071ADDAA101999990AZ101061AZ201061GA1041+008001081GE19MSL   +99999+99999GF104991041990008001991991KA1120N+02221MA1999990096581MD1909990+0001REMSYN004BUFR
0136827840999992013111018004-07310-039300FM-12+040999999V0203601N0000100800199020000199+03541+01731100471ADDAA101999990AZ101061AZ201061GA1051+008001081GE19MSL   +99999+99999GF105991051990008001991991MA1999990096031MD1909990-0111REMSYN004BUFR
0168827840999992013111100004-07310-039300FM-12+040999999V0203601N0000100800199002000199+02891+02121100761ADDAA101999990AZ101061AZ201061GA1081+008001081GA2991+999991101GA3991+999991101GE19MSL   +99999+99999GF108991081990008001991991MA1999990096301MD1909990-0071REMSYN004BUFR
0155827840999992013111112004-07310-039300FM-12+040999999V0203601N0000100800199020000199+02651+01861101231ADDAA124001031AY151061AY221061GA1061+008001081GE19MSL   +99999+99999GF106991061990008001991991KA1120N+02211MA1999990096751MD1909990+0171MW1021REMSYN004BUFR
0168827840999992013111118004-07310-039300FM-12+040999999V0203601N0000199999999020000199+03241+01671100741ADDAA101999990AZ101061AZ201061GA1041+008001081GA2991+999991101GA3991+999991041GE19MSL   +99999+99999GF108991041990008001991991MA1999990096261MD1909990+0231REMSYN004BUFR
0136827840999992013111200004-07310-039300FM-12+040999999V0203601N0000102500199002000199+02641+02121100991ADDAA101999990AZ101061AZ201061GA1081+025001011GE19MSL   +99999+99999GF108991081990025001991991MA1999990096491MD1909990+0191REMSYN004BUFR
0181827840999992013111212004-07310-039300FM-12+040999999V0200901N0015100800199020000199+02571+01801101291ADDAA101999990AZ101061AZ201061GA1061+008001081GA2991+999991101GA3991+999991041GE19MSL   +99999+99999GF108991061990008001991991KA1120N+02151MA1999990096771MD1909990+0021REMSYN004BUFR
0152827840999992013111218004-07310-039300FM-12+040999999V0203601N0005199999999020000199+03221+01651100761ADDAA101999990AZ101061AZ201061GA1041+008001081GA2991+999991041GE19MSL   +99999+99999GF106991041990008001991991MA1999990096301MD1909990+0041REMSYN004BUFR
0098827840999992013111300004-07310-039300FM-12+040999999V0203601N0000122000199002000199+02621+01811100971ADDAA101999990AZ101061AZ201061GF100991999999999999999999MA1999990096471MD1909990-0021REMSYN004BUFR
0149827840999992013111312004-07310-039300FM-12+040999999V0200901N0005199999999020000199+02751+01681101191ADDAA101999990AZ101061AZ201061GA1021+008001081GE19MSL   +99999+99999GF102991021990008001991991KA1120N+02071MA1999990096691MD1909990-0081REMSYN004BUFR
0136827840999992013111318004-07310-039300FM-12+040999999V0203601N0000100800199020000199+03351+01851100521ADDAA101999990AZ101061AZ201061GA1061+008001081GE19MSL   +99999+99999GF106991061990008001991991MA1999990096081MD1909990-0221REMSYN004BUFR
0152827840999992013111400004-07310-039300FM-12+040999999V0203601N0000199999999002000199+02891+02071100831ADDAA101999990AZ101061AZ201061GA1011+008001081GA2991+999991031GE19MSL   +99999+99999GF102991011990008001991991MA1999990096371MD1909990-0101REMSYN004BUFR
0181827840999992013111412004-07310-039300FM-12+040999999V0203601N0000100800199020000199+02541+01881101261ADDAA101999990AZ101061AZ201061GA1081+008001061GA2991+999991101GA3991+999991101GE19MSL   +99999+99999GF108991081990008001991991KA1120N+02341MA1999990096761MD1909990+0071REMSYN004BUFR
0136827840999992013111418004-07310-039300FM-12+040999999V0203601N0000100800199020000199+03241+01651100691ADDAA101999990AZ101061AZ201061GA1061+008001081GE19MSL   +99999+99999GF106991061990008001991991MA1999990096251MD1909990+0171REMSYN004BUFR
0155827840999992013111500004-07310-039300FM-12+040999999V0203601N0000199999999002000199+02891+02071100831ADDAA101999990AZ101061AZ201061GA1052+008001081GE19MSL   +99999+99999GF102992052990008001991991MA1999990096451MD1909990-0101REMSYN004BUFREQDQ01 008003SCOCIG
0152827840999992013111818004-07310-039300FM-12+040999999V0201401N0015199999999020000199+03321+01291100631ADDAA101999990AZ101061AZ201061GA1031+008001081GA2991+999991031GE19MSL   +99999+99999GF106991031990008001991991MA1999990096151MD1909990-0101REMSYN004BUFR
0152827840999992013111900004-07310-039300FM-12+040999999V0203601N0000199999999002000199+02641+01771100891ADDAA101999990AZ101061AZ201061GA1021+017501031GA2991+999991011GE19MSL   +99999+99999GF103991021990017501991991MA1999990096401MD1909990-0091REMSYN004BUFR
0149827840999992013111912004-07310-039300FM-12+040999999V0201401N0015100800199020000199+02771+01701101171ADDAA101999990AZ101061AZ201061GA1051+008001081GE19MSL   +99999+99999GF105991051990008001991991KA1120N+02111MA1999990096671MD1909990+0051REMSYN004BUFR
0136827840999992013111918004-07310-039300FM-12+040999999V0203601N0005199999999020000199+03391+01541100651ADDAA101999990AZ101061AZ201061GA1031+008001081GE19MSL   +99999+99999GF106991031990008001991991MA1999990096191MD1909990+0041REMSYN004BUFR
0136827840999992013112000004-07310-039300FM-12+040999999V0203601N0000199999999002000199+02651+01751100911ADDAA101999990AZ101061AZ201061GA1021+008001081GE19MSL   +99999+99999GF102991021990008001991991MA1999990096421MD1909990+0021REMSYN004BUFR
0149827840999992013112012004-07310-039300FM-12+040999999V0200901N0015100800199020000199+02701+01631101291ADDAA101999990AZ101061AZ201061GA1061+008001081GE19MSL   +99999+99999GF106991061990008001991991KA1120N+02131MA1999990096791MD1909990+0121REMSYN004BUFR
0152827840999992013112018004-07310-039300FM-12+040999999V0203601N0000199999999020000199+03321+01521100751ADDAA101999990AZ101061AZ201061GA1041+008001081GA2991+999991041GE19MSL   +99999+99999GF106991041990008001991991MA1999990096281MD1909990+0091REMSYN004BUFR
0136827840999992013112100004-07310-039300FM-12+040999999V0203601N0000199999999002000199+02701+01821101071ADDAA101999990AZ101061AZ201061GA1011+008001081GE19MSL   +99999+99999GF101991011990008001991991MA1999990096571MD1909990+0151REMSYN004BUFR
0165827840999992013112112004-07310-039300FM-12+040999999V0203601N0000199999999020000199+02771+01671101151ADDAA101999990AZ101061AZ201061GA1031+008001081GA2991+999991031GE19MSL   +99999+99999GF106991031990008001991991KA1120N+02111MA1999990096661MD1909990-0131REMSYN004BUFR
0168827840999992013112118004-07310-039300FM-12+040999999V0203601N0000199999999020000199+03321+01781100591ADDAA101999990AZ101061AZ201061GA1041+008001081GA2991+999991101GA3991+999991031GE19MSL   +99999+99999GF108991041990008001991991MA1999990096141MD1909990-0141REMSYN004BUFR
0098827840999992013112200004-07310-039300FM-12+040999999V0201401N0015122000199002000199+02691+01751100801ADDAA101999990AZ101061AZ201061GF100991999999999999999999MA1999990096331MD1909990-0241REMSYN004BUFR
0181827840999992013112212004-07310-039300FM-12+040999999V0203601N0000100800199020000199+02721+01951100931ADDAA101999990AZ101061AZ201061GA1081+008001061GA2991+999991101GA3991+999991101GE19MSL   +99999+99999GF108991081990008001991991KA1120N+02171MA1999990096441MD1909990-0221REMSYN004BUFR
0136827840999992013112218004-07310-039300FM-12+040999999V0203601N0000100800199020000199+03141+01911100571ADDAA101999990AZ101061AZ201061GA1051+008001081GE19MSL   +99999+99999GF108991051990008001991991MA1999990096071MD1909990-0071REMSYN004BUFR
0098827840999992013112300004-07310-039300FM-12+040999999V0203601N0000122000199002000199+02671+02111100761ADDAA101999990AZ101061AZ201061GF100991999999999999999999MA1999990096271MD1909990-0051REMSYN004BUFR
0181827840999992013112312004-07310-039300FM-12+040999999V0203601N0000100800199020000199+02521+02151101071ADDAA101999990AZ101061AZ201061GA1081+008001061GA2991+999991101GA3991+999991101GE19MSL   +99999+99999GF108991081990008001991991KA1120N+02191MA1999990096561MD1909990+0121REMSYN004BUFR
0136827840999992013112318004-07310-039300FM-12+040999999V0200901N0015100800199020000199+03201+01911100671ADDAA101999990AZ101061AZ201061GA1061+008001081GE19MSL   +99999+99999GF106991061990008001991991MA1999990096171MD1909990+0101REMSYN004BUFR
0136827840999992013112400004-07310-039300FM-12+040999999V0203601N0000199999999002000199+02791+01951100851ADDAA101999990AZ101061AZ201061GA1041+008001061GE19MSL   +99999+99999GF104991041990008001991991MA1999990096351MD1909990+0071REMSYN004BUFR
0181827840999992013112412004-07310-039300FM-12+040999999V0200501N0010100800199020000199+02541+02151101231ADDAA101999990AZ101061AZ201061GA1081+008001061GA2991+999991101GA3991+999991101GE19MSL   +99999+99999GF108991081990008001991991KA1120N+02341MA1999990096721MD1909990+0161REMSYN004BUFR
0136827840999992013112418004-07310-039300FM-12+040999999V0203601N0000100800199020000199+03301+01741100771ADDAA101999990AZ101061AZ201061GA1061+008001061GE19MSL   +99999+99999GF106991061990008001991991MA1999990096271MD1909990+0101REMSYN004BUFR
0098827840999992013112500004-07310-039300FM-12+040999999V0203601N0000122000199002000199+02771+02041100951ADDAA101999990AZ101061AZ201061GF100991999999999999999999MA1999990096451MD1909990+0101REMSYN004BUFR
0187827840999992013112512004-07310-039300FM-12+040999999V0203601N0000100450199010000199+02591+02161101231ADDAA124006031AY161061AY221061GA1081+004501081GA2991+999991101GA3991+999991101GE19MSL   +99999+99999GF108991081990004501991991KA1120N+02111MA1999990096701MD1909990-0021MW1021REMSYN004BUFR
0136827840999992013112518004-07310-039300FM-12+040999999V0203601N0000100800199020000199+03071+02071100781ADDAA101999990AZ101061AZ201061GA1061+008001081GE19MSL   +99999+99999GF106991061990008001991991MA1999990096281MD1909990+0011REMSYN004BUFR
0168827840999992013112600004-07310-039300FM-12+040999999V0203601N0000100800199002000199+02691+02311100841ADDAA101999990AZ101061AZ201061GA1081+008001061GA2991+999991101GA3991+999991101GE19MSL   +99999+99999GF108991081990008001991991MA1999990096341MD1909990-0111REMSYN004BUFR
0187827840999992013112612004-07310-039300FM-12+040999999V0203601N0000100800199020000199+02591+02061101021ADDAA124002031AY151061AY221061GA1081+008001081GA2991+999991101GA3991+999991101GE19MSL   +99999+99999GF108991081990008001991991KA1120N+02271MA1999990096521MD1909990-0181MW1021REMSYN004BUFR
0136827840999992013112618004-07310-039300FM-12+040999999V0203601N0000100800199020000199+03291+01871100341ADDAA101999990AZ101061AZ201061GA1051+008001081GE19MSL   +99999+99999GF105991051990008001991991MA1999990095901MD1909990-0381REMSYN004BUFR
0098827840999992013112700004-07310-039300FM-12+040999999V0203601N0000122000199002000199+02791+01951100851ADDAA101999990AZ101061AZ201061GF100991999999999999999999MA1999990096351MD1909990+0071REMSYN004BUFR
0187827840999992013112712004-07310-039300FM-12+040999999V0200901N0005100800199020000199+02351+02071100851ADDAA124000731AY151061AY221061GA1081+008001061GA2991+999991101GA3991+999991101GE19MSL   +99999+99999GF108991081990008001991991KA1120N+02131MA1999990096341MD1909990-0361MW1021REMSYN004BUFR
0168827840999992013112718004-07310-039300FM-12+040999999V0203601N0000100800199020000199+03041+01601100401ADDAA101999990AZ101061AZ201061GA1081+008001081GA2991+999991101GA3991+999991101GE19MSL   +99999+99999GF108991081990008001991991MA1999990095941MD1909990+0041REMSYN004BUFR
0098827840999992013112800004-07310-039300FM-12+040999999V0203601N0000122000199002000199+02571+02121100661ADDAA101999990AZ101061AZ201061GF100991999999999999999999MA1999990096141MD1909990+0001REMSYN004BUFR
0181827840999992013112812004-07310-039300FM-12+040999999V0200901N0005199999999020000199+02551+01731101101ADDAA101999990AZ101061AZ201061GA1031+008001081GA2991+999991101GA3991+999991031GE19MSL   +99999+99999GF108991031990008001991991KA1120N+02171MA1999990096581MD1909990-0241REMSYN004BUFR
0136827840999992013112818004-07310-039300FM-12+040999999V0203601N0000199999999020000199+03071+01711100691ADDAA101999990AZ101061AZ201061GA1041+008001081GE19MSL   +99999+99999GF107991041990008001991991MA1999990096211MD1909990+0271REMSYN004BUFR
0098827840999992013112900004-07310-039300FM-12+040999999V0203601N0000122000199002000199+02541+02061100961ADDAA101999990AZ101061AZ201061GF100991999999999999999999MA1999990096451MD1909990+0311REMSYN004BUFR
0149827840999992013112912004-07310-039300FM-12+040999999V0203601N0000100800199020000199+02551+01851101311ADDAA101999990AZ101061AZ201061GA1071+008001081GE19MSL   +99999+99999GF107991071990008001991991KA1120N+02131MA1999990096781MD1909990+0201REMSYN004BUFR
0136827840999992013112918004-07310-039300FM-12+040999999V0203601N0000100800199020000199+03421+01611100701ADDAA101999990AZ101061AZ201061GA1061+008001081GE19MSL   +99999+99999GF106991061990008001991991MA1999990096241MD1909990+0031REMSYN004BUFR
0098827840999992013113000004-07310-039300FM-12+040999999V0203601N0000122000199002000199+02801+02001100921ADDAA101999990AZ101061AZ201061GF100991999999999999999999MA1999990096431MD1909990-0021REMSYN004BUFR
0149827840999992013113012004-07310-039300FM-12+040999999V0201401N0015199999999020000199+02791+01751101261ADDAA101999990AZ101061AZ201061GA1021+008001081GE19MSL   +99999+99999GF102991021990008001991991KA1120N+01871MA1999990096781MD1909990+0001REMSYN004BUFR
0136827840999992013113018004-07310-039300FM-12+040999999V0201401N0015199999999020000199+03441+01581100711ADDAA101999990AZ101061AZ201061GA1031+008001081GE19MSL   +99999+99999GF103991031990008001991991MA1999990096251MD1909990+0011REMSYN004BUFR
0098827840999992013120100004-07310-039300FM-12+040999999V0203601N0000122000199002000199+02741+01971100861ADDAA101999990AZ101061AZ201061GF100991999999999999999999MA1999990096381MD1909990-0051REMSYN004BUFR
0149827840999992013120112004-07310-039300FM-12+040999999V0200901N0015199999999020000199+02801+01721101191ADDAA101999990AZ101061AZ201061GA1031+008001081GE19MSL   +99999+99999GF103991031990008001991991KA1120N+02271MA1999990096701MD1909990-0081REMSYN004BUFR
0136827840999992013120118004-07310-039300FM-12+040999999V0203601N0000199999999020000199+03421+01361100621ADDAA101999990AZ101061AZ201061GA1041+008001081GE19MSL   +99999+99999GF104991041990008001991991MA1999990096161MD1909990-0091REMSYN004BUFR
0098827840999992013120200004-07310-039300FM-12+040999999V0203601N0000122000199002000199+02691+01761100831ADDAA101999990AZ101061AZ201061GF100991999999999999999999MA1999990096351MD1909990-0031REMSYN004BUFR
0149827840999992013120212004-07310-039300FM-12+040999999V0201401N0015100800199020000199+02841+01851101181ADDAA101999990AZ101061AZ201061GA1071+008001081GE19MSL   +99999+99999GF107991071990008001991991KA1120N+02301MA1999990096691MD1909990-0011REMSYN004BUFR
0136827840999992013120218004-07310-039300FM-12+040999999V0200901N0005100800199020000199+03291+01581100691ADDAA101999990AZ101061AZ201061GA1061+008001081GE19MSL   +99999+99999GF106991061990008001991991MA1999990096231MD1909990+0071REMSYN004BUFR
0136827840999992013120300004-07310-039300FM-12+040999999V0203601N0000100800199002000199+02691+01881100981ADDAA101999990AZ101061AZ201061GA1051+008001081GE19MSL   +99999+99999GF105991051990008001991991MA1999990096501MD1909990-0151REMSYN004BUFR
0149827840999992013120312004-07310-039300FM-12+040999999V0203601N0000100800199020000199+02791+02291101321ADDAA101999990AZ101061AZ201061GA1061+008001081GE19MSL   +99999+99999GF106991061990008001991991KA1120N+02301MA1999990096831MD1909990+0141REMSYN004BUFR
0098827840999992013120400004-07310-039300FM-12+040999999V0203601N0000122000199002000199+02791+02001101171ADDAA101999990AZ101061AZ201061GF100991999999999999999999MA1999990096691MD1909990+0191REMSYN004BUFR
0165827840999992013120412004-07310-039300FM-12+040999999V0200901N0005199999999020000199+02771+01851101311ADDAA101999990AZ101061AZ201061GA1021+008001081GA2991+999991041GE19MSL   +99999+99999GF104991021990008001991991KA1120N+02071MA1999990096831MD1909990+0001REMSYN004BUFR
0136827840999992013120418004-07310-039300FM-12+040999999V0203601N0005199999999020000199+03551+01531100731ADDAA101999990AZ101061AZ201061GA1031+008001081GE19MSL   +99999+99999GF103991031990008001991991MA1999990096291MD1909990-0081REMSYN004BUFR
0136827840999992013120500004-07310-039300FM-12+040999999V0203601N0000199999999002000199+02791+01921100921ADDAA101999990AZ101061AZ201061GA1021+008001081GE19MSL   +99999+99999GF102991021990008001991991MA1999990096451MD1909990-0201REMSYN004BUFR
0181827840999992013120512004-07310-039300FM-12+040999999V0203601N0000100800199020000199+02551+02081101231ADDAA101999990AZ101061AZ201061GA1081+008001061GA2991+999991101GA3991+999991101GE19MSL   +99999+99999GF108991081990008001991991KA1120N+02191MA1999990096731MD1909990-0101REMSYN004BUFR
0136827840999992013120518004-07310-039300FM-12+040999999V0203601N0000199999999020000199+03321+01891100671ADDAA101999990AZ101061AZ201061GA1031+008001081GE19MSL   +99999+99999GF103991031990008001991991MA1999990096231MD1909990-0061REMSYN004BUFR
0098827840999992013120600004-07310-039300FM-12+040999999V0203601N0000122000199002000199+02791+02001101171ADDAA101999990AZ101061AZ201061GF100991999999999999999999MA1999990096691MD1909990+0101REMSYN004BUFR
0181827840999992013120612004-07310-039300FM-12+040999999V0203601N0000100800199020000199+02621+01861101181ADDAA101999990AZ101061AZ201061GA1081+008001061GA2991+999991101GA3991+999991101GE19MSL   +99999+99999GF108991081990008001991991KA1120N+02311MA1999990096671MD1909990-0061REMSYN004BUFR
0098827840999992013120700004-07310-039300FM-12+040999999V0203601N0000122000199002000199+02621+01961100931ADDAA101999990AZ101061AZ201061GF100991999999999999999999MA1999990096421MD1909990+0041REMSYN004BUFR
0149827840999992013120712004-07310-039300FM-12+040999999V0200501N0010100800199020000199+02571+01901101351ADDAA101999990AZ101061AZ201061GA1061+008001061GE19MSL   +99999+99999GF106991061990008001991991KA1120N+02001MA1999990096831MD1909990+0161REMSYN004BUFR
0136827840999992013120718004-07310-039300FM-12+040999999V0203601N0000199999999020000199+03271+01721100821ADDAA101999990AZ101061AZ201061GA1021+008001081GE19MSL   +99999+99999GF102991021990008001991991MA1999990096381MD1909990+0141REMSYN004BUFR
0098827840999992013120800004-07310-039300FM-12+040999999V0203601N0000122000199002000199+02571+01851101051ADDAA101999990AZ101061AZ201061GF100991999999999999999999MA1999990096541MD1909990+0121REMSYN004BUFR
0149827840999992013120812004-07310-039300FM-12+040999999V0203601N0000100800199020000199+02691+01881101351ADDAA101999990AZ101061AZ201061GA1051+008001081GE19MSL   +99999+99999GF105991051990008001991991KA1120N+02091MA1999990096841MD1909990+0011REMSYN004BUFR
0136827840999992013120818004-07310-039300FM-12+040999999V0203601N0005100800199020000199+03471+01471100791ADDAA101999990AZ101061AZ201061GA1051+008001081GE19MSL   +99999+99999GF105991051990008001991991MA1999990096331MD1909990-0051REMSYN004BUFR
0098827840999992013120900004-07310-039300FM-12+040999999V0203601N0000122000199002000199+02751+01861100931ADDAA101999990AZ101061AZ201061GF100991999999999999999999MA1999990096451MD1909990-0091REMSYN004BUFR
0149827840999992013120912004-07310-039300FM-12+040999999V0203601N0000100800199020000199+02821+01911101301ADDAA101999990AZ101061AZ201061GA1061+008001081GE19MSL   +99999+99999GF106991061990008001991991KA1120N+02131MA1999990096821MD1909990-0021REMSYN004BUFR
0136827840999992013120918004-07310-039300FM-12+040999999V0200901N0015100800199020000199+03521+01501100711ADDAA101999990AZ101061AZ201061GA1051+008001081GE19MSL   +99999+99999GF105991051990008001991991MA1999990096261MD1909990-0071REMSYN004BUFR
0136827840999992013121000004-07310-039300FM-12+040999999V0203601N0000199999999002000199+02791+01841100991ADDAA101999990AZ101061AZ201061GA1021+008001081GE19MSL   +99999+99999GF102991021990008001991991MA1999990096521MD1909990+0071REMSYN004BUFR
0149827840999992013121012004-07310-039300FM-12+040999999V0200901N0015199999999020000199+02841+02071101281ADDAA101999990AZ101061AZ201061GA1041+008001081GE19MSL   +99999+99999GF104991041990008001991991KA1120N+02351MA1999990096801MD1909990-0021REMSYN004BUFR
0136827840999992013121018004-07310-039300FM-12+040999999V0203601N0000100800199020000199+03541+01301100701ADDAA101999990AZ101061AZ201061GA1051+008001081GE19MSL   +99999+99999GF105991051990008001991991MA1999990096281MD1909990+0021REMSYN004BUFR
0098827840999992013121100004-07310-039300FM-12+040999999V0203601N0000122000199002000199+02671+01631100921ADDAA101999990AZ101061AZ201061GF100991999999999999999999MA1999990096441MD1909990-0081REMSYN004BUFR
0181827840999992013121112004-07310-039300FM-12+040999999V0201401N0015100800199020000199+02541+01901101331ADDAA101999990AZ101061AZ201061GA1081+008001061GA2991+999991101GA3991+999991101GE19MSL   +99999+99999GF108991081990008001991991KA1120N+02151MA1999990096811MD1909990+0011REMSYN004BUFR
0136827840999992013121118004-07310-039300FM-12+040999999V0201801N0031100800199020000199+03441+01431100751ADDAA101999990AZ101061AZ201061GA1051+008001081GE19MSL   +99999+99999GF105991051990008001991991MA1999990096331MD1909990+0051REMSYN004BUFR
0098827840999992013121200004-07310-039300FM-12+040999999V0203601N0000122000199002000199+02691+01661101001ADDAA101999990AZ101061AZ201061GF100991999999999999999999MA1999990096491MD1909990+0051REMSYN004BUFR
0181827840999992013121212004-07310-039300FM-12+040999999V0203601N0000102500199020000199+02621+01861101181ADDAA101999990AZ101061AZ201061GA1081+025001061GA2991+999991101GA3991+999991101GE19MSL   +99999+99999GF108991081990025001991991KA1120N+02311MA1999990096671MD1909990-0061REMSYN004BUFR
0136827840999992013121218004-07310-039300FM-12+040999999V0203601N0000100800199020000199+03271+01821100681ADDAA101999990AZ101061AZ201061GA1061+008001081GE19MSL   +99999+99999GF106991061990008001991991MA1999990096241MD1909990+0011REMSYN004BUFR
0136827840999992013121300004-07310-039300FM-12+040999999V0203601N0000199999999002000199+02671+01871101001ADDAA101999990AZ101061AZ201061GA1021+017501031GE19MSL   +99999+99999GF102991021990017501991991MA1999990096481MD1909990-0011REMSYN004BUFR
0181827840999992013121312004-07310-039300FM-12+040999999V0201801N0015100800199020000199+02401+01891101281ADDAA101999990AZ101061AZ201061GA1081+008001061GA2991+999991101GA3991+999991101GE19MSL   +99999+99999GF108991081990008001991991KA1120N+02171MA1999990096751MD1909990-0071REMSYN004BUFR
0136827840999992013121318004-07310-039300FM-12+040999999V0203601N0000100800199020000199+03471+01411100771ADDAA101999990AZ101061AZ201061GA1051+008001081GE19MSL   +99999+99999GF105991051990008001991991MA1999990096351MD1909990+0001REMSYN004BUFR
0098827840999992013121400004-07310-039300FM-12+040999999V0203601N0000122000199002000199+02571+01871101001ADDAA101999990AZ101061AZ201061GF100991999999999999999999MA1999990096471MD1909990-0011REMSYN004BUFR
0149827840999992013121412004-07310-039300FM-12+040999999V0203601N0000100800199020000199+02651+01951101201ADDAA101999990AZ101061AZ201061GA1061+008001081GE19MSL   +99999+99999GF106991061990008001991991KA1120N+02031MA1999990096681MD1909990-0071REMSYN004BUFR
0136827840999992013121418004-07310-039300FM-12+040999999V0203601N0000100800199020000199+03441+01761100691ADDAA101999990AZ101061AZ201061GA1051+008001081GE19MSL   +99999+99999GF105991051990008001991991MA1999990096231MD1909990-0121REMSYN004BUFR
0168827840999992013121500004-07310-039300FM-12+040999999V0203601N0000100800199002000199+03051+02061100881ADDAA101999990AZ101061AZ201061GA1081+008001081GA2991+999991101GA3991+999991101GE19MSL   +99999+99999GF108991081990008001991991MA1999990096421MD1909990-0051REMSYN004BUFR
0187827840999992013121512004-07310-039300FM-12+040999999V0203601N0000100800199020000199+02891+01991101071ADDAA124013031AY161061AY221061GA1081+008001081GA2991+999991101GA3991+999991101GE19MSL   +99999+99999GF108991081990008001991991KA1120N+02031MA1999990096631MD1909990-0051MW1021REMSYN004BUFR
0136827840999992013121518004-07310-039300FM-12+040999999V0203601N0000100800199020000199+03351+01851100551ADDAA101999990AZ101061AZ201061GA1061+008001081GE19MSL   +99999+99999GF106991061990008001991991MA1999990096101MD1909990-0131REMSYN004BUFR
0136827840999992013121600004-07310-039300FM-12+040999999V0203601N0000100800199002000199+02821+02331100791ADDAA101999990AZ101061AZ201061GA1071+008001061GE19MSL   +99999+99999GF107991071990008001991991MA1999990096341MD1909990-0081REMSYN004BUFR
0187827840999992013121612004-07310-039300FM-12+040999999V0203601N0000100450199020000199+02251+02181101091ADDAA124000731AY151061AY221061GA1081+004501061GA2991+999991101GA3991+999991101GE19MSL   +99999+99999GF108991081990004501991991KA1120N+02131MA1999990096571MD1909990-0061MW1021REMSYN004BUFR
0136827840999992013121618004-07310-039300FM-12+040999999V0203601N0005100800199020000199+03091+02061100591ADDAA101999990AZ101061AZ201061GA1071+008001081GE19MSL   +99999+99999GF107991071990008001991991MA1999990096101MD1909990+0001REMSYN004BUFR
0136827840999992013121700004-07310-039300FM-12+040999999V0203601N0000101750199002000199+02591+02171100841ADDAA101999990AZ101061AZ201061GA1081+017501001GE19MSL   +99999+99999GF108991081990017501991991MA1999990096301MD1909990-0041REMSYN004BUFR
0149827840999992013121712004-07310-039300FM-12+040999999V0201801N0005100800199020000199+02571+02061100991ADDAA101999990AZ101061AZ201061GA1061+008001061GE19MSL   +99999+99999GF106991061990008001991991KA1120N+02211MA1999990096481MD1909990-0091REMSYN004BUFR
0136827840999992013121718004-07310-039300FM-12+040999999V0203601N0000100800199020000199+03091+02061100591ADDAA101999990AZ101061AZ201061GA1071+008001081GE19MSL   +99999+99999GF107991071990008001991991MA1999990096101MD1909990+0001REMSYN004BUFR
0136827840999992013121800004-07310-039300FM-12+040999999V0203601N0000100800199002000199+02691+01881100981ADDAA101999990AZ101061AZ201061GA1051+008001081GE19MSL   +99999+99999GF105991051990008001991991MA1999990096501MD1909990-0151REMSYN004BUFR
0181827840999992013121812004-07310-039300FM-12+040999999V0203601N0000100800199020000199+02401+01951101001ADDAA101999990AZ101061AZ201061GA1081+008001061GA2991+999991101GA3991+999991101GE19MSL   +99999+99999GF108991081990008001991991KA1120N+02171MA1999990096481MD1909990+0001REMSYN004BUFR
0168827840999992013121818004-07310-039300FM-12+040999999V0203601N0000100800199020000199+02971+02121100601ADDAA101999990AZ101061AZ201061GA1081+008001061GA2991+999991101GA3991+999991101GE19MSL   +99999+99999GF108991081990008001991991MA1999990096111MD1909990-0011REMSYN004BUFR
0168827840999992013121900004-07310-039300FM-12+040999999V0201801N0015100800199002000199+02691+02081100881ADDAA101999990AZ101061AZ201061GA1081+008001081GA2991+999991101GA3991+999991101GE19MSL   +99999+99999GF108991081990008001991991MA1999990096371MD1909990+0071REMSYN004BUFR
0187827840999992013121912004-07310-039300FM-12+040999999V0203601N0000100800199020000199+02221+02071101051ADDAA124007031AY161061AY221061GA1081+008001081GA2991+999991101GA3991+999991101GE19MSL   +99999+99999GF108991081990008001991991KA1120N+02031MA1999990096511MD1909990+0031MW1021REMSYN004BUFR
0168827840999992013121918004-07310-039300FM-12+040999999V0203601N0000100800199020000199+02801+02131100581ADDAA101999990AZ101061AZ201061GA1081+008001081GA2991+999991101GA3991+999991101GE19MSL   +99999+99999GF108991081990008001991991MA1999990096091MD1909990-0021REMSYN004BUFR
0168827840999992013122000004-07310-039300FM-12+040999999V0203601N0000100800199002000199+02551+02291100871ADDAA101999990AZ101061AZ201061GA1081+008001081GA2991+999991101GA3991+999991101GE19MSL   +99999+99999GF108991081990008001991991MA1999990096331MD1909990-0041REMSYN004BUFR
0187827840999992013122012004-07310-039300FM-12+040999999V0203601N0000100450199020000199+02291+02221101111ADDAA124015031AY161061AY221061GA1081+004501061GA2991+999991101GA3991+999991101GE19MSL   +99999+99999GF108991081990004501991991KA1120N+02071MA1999990096571MD1909990+0061MW1021REMSYN004BUFR
0174827840999992013122018004-07310-039300FM-12+040999999V0203601N0000100800199020000199+02591+02251100671ADDAA106000331AY151061AY221061GA1081+008001061GA2991+999991101GA3991+999991101GE19MSL   +99999+99999GF108991081990008001991991MA1999990096151MD1909990+0061MW1021REMSYN004BUFR
0174827840999992013122100004-07310-039300FM-12+040999999V0203601N0000199999999002000199+02341+02241101031ADDAA106002031AY161061AY221061GA1081+999991081GA2991+999991101GA3991+999991101GE19MSL   +99999+99999GF108991081990999999991991MA1999990096461MD1909990+0131MW1021REMSYN004BUFR
0187827840999992013122112004-07310-039300FM-12+040999999V0203601N0000100450199020000199+02171+02111101101ADDAA124007031AY161061AY221061GA1081+004501061GA2991+999991101GA3991+999991101GE19MSL   +99999+99999GF108991081990004501991991KA1120N+02011MA1999990096521MD1909990-0051MW1021REMSYN004BUFR
0168827840999992013122118004-07310-039300FM-12+040999999V0203601N0000100800199020000199+02751+02161100711ADDAA101999990AZ101061AZ201061GA1081+008001061GA2991+999991101GA3991+999991101GE19MSL   +99999+99999GF108991081990008001991991MA1999990096191MD1909990+0041REMSYN004BUFR
0174827840999992013122200004-07310-039300FM-12+040999999V0203601N0000199999999002000199+02521+02361100911ADDAA106000331AY151061AY221061GA1061+999991101GA2991+999991101GA3991+999991101GE19MSL   +99999+99999GF106991061990999999991991MA1999990096361MD1909990-0101MW1021REMSYN004BUFR
0149827840999992013122212004-07310-039300FM-12+040999999V0203601N0000100800199020000199+02551+02021101091ADDAA124000331AZ101061AZ201061GA1071+008001081GE19MSL   +99999+99999GF107991071990008001991991KA1120N+02231MA1999990096571MD1909990+0051REMSYN004BUFR
0136827840999992013122218004-07310-039300FM-12+040999999V0203601N0000100800199020000199+03121+02021100771ADDAA101999990AZ101061AZ201061GA1061+008001081GE19MSL   +99999+99999GF106991061990008001991991MA1999990096301MD1909990+0111REMSYN004BUFR
0174827840999992013122300004-07310-039300FM-12+040999999V0203601N0000199999999002000199+02241+02091101131ADDAA106011031AY121061AY221061GA1081+999991081GA2991+999991101GA3991+999991101GE19MSL   +99999+99999GF108991081990999999991991MA1999990096581MD1909990+0221MW1131REMSYN004BUFR
0155827840999992013122312004-07310-039300FM-12+040999999V0203601N0000100800199020000199+02471+02111101151ADDAA124012031AY161061AY221061GA1071+008001061GE19MSL   +99999+99999GF107991071990008001991991KA1120N+02141MA1999990096591MD1909990+0021MW1011REMSYN004BUFR
0136827840999992013122318004-07310-039300FM-12+040999999V0201801N0015100800199020000199+03091+01921100751ADDAA101999990AZ101061AZ201061GA1061+008001081GE19MSL   +99999+99999GF106991061990008001991991MA1999990096281MD1909990-0021REMSYN004BUFR
0098827840999992013122400004-07310-039300FM-12+040999999V0203601N0000122000199002000199+02491+02111100951ADDAA101999990AZ101061AZ201061GF100991999999999999999999MA1999990096431MD1909990-0151REMSYN004BUFR
0149827840999992013122412004-07310-039300FM-12+040999999V0201801N0015100800199020000199+02691+02011101221ADDAA101999990AZ101061AZ201061GA1051+008001081GE19MSL   +99999+99999GF105991051990008001991991KA1120N+02141MA1999990096701MD1909990+0111REMSYN004BUFR
0136827840999992013122418004-07310-039300FM-12+040999999V0203601N0000199999999020000199+03171+01871100741ADDAA101999990AZ101061AZ201061GA1031+008001081GE19MSL   +99999+99999GF103991031990008001991991MA1999990096271MD1909990-0011REMSYN004BUFR
0098827840999992013122500004-07310-039300FM-12+040999999V0203601N0000122000199002000199+02621+02121100981ADDAA101999990AZ101061AZ201061GF100991999999999999999999MA1999990096481MD1909990+0051REMSYN004BUFR
0149827840999992013122512004-07310-039300FM-12+040999999V0201801N0010199999999020000199+02691+02011101261ADDAA101999990AZ101061AZ201061GA1031+008001081GE19MSL   +99999+99999GF103991031990008001991991KA1120N+02071MA1999990096751MD1909990+0051REMSYN004BUFR
0136827840999992013122518004-07310-039300FM-12+040999999V0201801N0010199999999020000199+03291+01801100741ADDAA101999990AZ101061AZ201061GA1031+008001081GE19MSL   +99999+99999GF103991031990008001991991MA1999990096261MD1909990-0011REMSYN004BUFR
0098827840999992013122600004-07310-039300FM-12+040999999V0203601N0000122000199002000199+02671+02111100901ADDAA101999990AZ101061AZ201061GF100991999999999999999999MA1999990096411MD1909990-0071REMSYN004BUFR
0165827840999992013122612004-07310-039300FM-12+040999999V0200901N0005199999999020000199+02641+01951101271ADDAA101999990AZ101061AZ201061GA1031+008001081GA2991+999991041GE19MSL   +99999+99999GF106991031990008001991991KA1120N+02091MA1999990096761MD1909990+0011REMSYN004BUFR
0136827840999992013122618004-07310-039300FM-12+040999999V0200901N0005100800199020000199+03241+01671100871ADDAA101999990AZ101061AZ201061GA1061+008001081GE19MSL   +99999+99999GF106991061990008001991991MA1999990096401MD1909990+0141REMSYN004BUFR
0136827840999992013122700004-07310-039300FM-12+040999999V0203601N0000199999999002000199+02471+02071101091ADDAA101999990AZ101061AZ201061GA1031+008001081GE19MSL   +99999+99999GF103991031990008001991991MA1999990096571MD1909990+0161REMSYN004BUFR
0149827840999992013122712004-07310-039300FM-12+040999999V0200901N0015100800199020000199+02651+02021101341ADDAA101999990AZ101061AZ201061GA1061+008001081GE19MSL   +99999+99999GF106991061990008001991991KA1120N+02111MA1999990096811MD1909990+0051REMSYN004BUFR
0168827840999992013122718004-07310-039300FM-12+040999999V0200501N0015199999999020000199+03071+01881100951ADDAA101999990AZ101061AZ201061GA1041+008001081GA2991+999991101GA3991+999991031GE19MSL   +99999+99999GF108991041990008001991991MA1999990096471MD1909990+0071REMSYN004BUFR
0098827840999992013122800004-07310-039300FM-12+040999999V0203601N0000122000199002000199+02421+01991101271ADDAA101999990AZ101061AZ201061GF100991999999999999999999MA1999990096741MD1909990+0171REMSYN004BUFR
0149827840999992013122812004-07310-039300FM-12+040999999V0203601N0000100800199020000199+02721+01951101341ADDAA101999990AZ101061AZ201061GA1051+008001081GE19MSL   +99999+99999GF105991051990008001991991KA1120N+02091MA1999990096811MD1909990+0001REMSYN004BUFR
0136827840999992013122818004-07310-039300FM-12+040999999V0203601N0000100800199020000199+03251+01841100871ADDAA101999990AZ101061AZ201061GA1061+008001081GE19MSL   +99999+99999GF106991061990008001991991MA1999990096401MD1909990-0071REMSYN004BUFR
0098827840999992013122900004-07310-039300FM-12+040999999V0203601N0000122000199002000199+02571+02061101131ADDAA101999990AZ101061AZ201061GF100991999999999999999999MA1999990096631MD1909990-0111REMSYN004BUFR
0149827840999992013122912004-07310-039300FM-12+040999999V0201401N0015199999999020000199+02691+01991101381ADDAA101999990AZ101061AZ201061GA1041+008001081GE19MSL   +99999+99999GF104991041990008001991991KA1120N+01841MA1999990096861MD1909990+0051REMSYN004BUFR
0136827840999992013122918004-07310-039300FM-12+040999999V0201401N0015199999999020000199+03251+01801100861ADDAA101999990AZ101061AZ201061GA1041+017501051GE19MSL   +99999+99999GF104991041990017501991991MA1999990096401MD1909990+0001REMSYN004BUFR
0098827840999992013123000004-07310-039300FM-12+040999999V0203601N0000122000199002000199+02591+02101101101ADDAA101999990AZ101061AZ201061GF100991999999999999999999MA1999990096601MD1909990-0031REMSYN004BUFR
0149827840999992013123012004-07310-039300FM-12+040999999V0201801N0015100800199020000199+02601+01941101391ADDAA101999990AZ101061AZ201061GA1061+008001081GE19MSL   +99999+99999GF106991061990008001991991KA1120N+02121MA1999990096861MD1909990+0001REMSYN004BUFR
0136827840999992013123018004-07310-039300FM-12+040999999V0201801N0015100800199020000199+03351+01801100871ADDAA101999990AZ101061AZ201061GA1051+008001081GE19MSL   +99999+99999GF105991051990008001991991MA1999990096411MD1909990+0011REMSYN004BUFR
0149827840999992013123112004-07310-039300FM-12+040999999V0203601N0000199999999020000199+02721+01951101331ADDAA101999990AZ101061AZ201061GA1041+008001081GE19MSL   +99999+99999GF104991041990008001991991KA1120N+01981MA1999990096811MD1909990-0051REMSYN004BUFR
0136827840999992013123118004-07310-039300FM-12+040999999V0201401N0015199999999020000199+03251+01801100861ADDAA101999990AZ101061AZ201061GA1041+008001081GE19MSL   +99999+99999GF105991041990008001991991MA1999990096401MD1909990+0001REMSYN004BUFR
