0120832880999992013010818004-13267-043417FM-15+0443SBLP V0209999C000010090019N0112651N1+03801+01601999999ADDGA1071+009001999GF107991999999999999999999MA1101021999999REMMET051METAR SBLP 081800Z 00000KT 9999 BKN030 38/16 Q1010;
0120832880999992013010819004-13267-043417FM-15+0443SBLP V0209999C000012200019N0112651N1+03801+01601999999ADDGA1041+009001999GF104991999999999999999999MA1100911999999REMMET051METAR SBLP 081900Z 00000KT 9999 SCT030 38/16 Q1009;
0120832880999992013010820004-13267-043417FM-15+0443SBLP V0209999C000012200019N0112651N1+03701+01501999999ADDGA1041+009001999GF104991999999999999999999MA1100911999999REMMET051METAR SBLP 082000Z 00000KT 9999 SCT030 37/15 Q1009;
0120832880999992013010821004-13267-043417FM-15+0443SBLP V0209999C000012200019N0112651N1+03501+01601999999ADDGA1021+009001999GF102991999999999999999999MA1100911999999REMMET051METAR SBLP 082100Z 00000KT 9999 FEW030 35/16 Q1009;
0072832880999992013010909154-13267-043417FM-16+0443SBLP V0209999C000019999999Y0099001N1+02201+01901999999ADDMA1101491999999REMMET045SPECI SBLP 090915Z 00000KT CAVOK 22/19 Q1015;
0072832880999992013010910004-13267-043417FM-15+0443SBLP V0209999C000019999999Y0099001N1+02501+02001999999ADDMA1101491999999REMMET045METAR SBLP 091000Z 00000KT CAVOK 25/20 Q1015;
0072832880999992013010911004-13267-043417FM-15+0443SBLP V0209999C000019999999Y0099001N1+02901+02001999999ADDMA1101591999999REMMET045METAR SBLP 091100Z 00000KT CAVOK 29/20 Q1016;
0072832880999992013010912004-13267-043417FM-15+0443SBLP V0209999C000019999999Y0099001N1+03101+01701999999ADDMA1101591999999REMMET045METAR SBLP 091200Z 00000KT CAVOK 31/17 Q1016;
0072832880999992013010913004-13267-043417FM-15+0443SBLP V0209999C000019999999Y0099001N1+03201+01601999999ADDMA1101491999999REMMET045METAR SBLP 091300Z 00000KT CAVOK 32/16 Q1015;
0072832880999992013010914004-13267-043417FM-15+0443SBLP V0209999C000019999999Y0099001N1+03301+01501999999ADDMA1101491999999REMMET045METAR SBLP 091400Z 00000KT CAVOK 33/15 Q1015;
0120832880999992013010916004-13267-043417FM-15+0443SBLP V0209999C000012200019N0112651N1+03501+01801999999ADDGA1021+009001999GF102991999999999999999999MA1101291999999REMMET051METAR SBLP 091600Z 00000KT 9999 FEW030 35/18 Q1013;
0120832880999992013010917004-13267-043417FM-15+0443SBLP V0209999C000012200019N0112651N1+03601+01601999999ADDGA1041+009001999GF104991999999999999999999MA1101081999999REMMET051METAR SBLP 091700Z 00000KT 9999 SCT030 36/16 Q1011;
0120832880999992013010918004-13267-043417FM-15+0443SBLP V0209999C000012200019N0112651N1+03701+01501999999ADDGA1041+009001999GF104991999999999999999999MA1101021999999REMMET051METAR SBLP 091800Z 00000KT 9999 SCT030 37/15 Q1010;
0120832880999992013010919004-13267-043417FM-15+0443SBLP V0202101N002612200019N0112651N1+03701+01501999999ADDGA1021+009001999GF102991999999999999999999MA1100911999999REMMET051METAR SBLP 091900Z 21005KT 9999 FEW030 37/15 Q1009;
0120832880999992013010920004-13267-043417FM-15+0443SBLP V0202101N001512200019N0112651N1+03601+01601999999ADDGA1021+009001999GF102991999999999999999999MA1100911999999REMMET051METAR SBLP 092000Z 21003KT 9999 FEW030 36/16 Q1009;
0072832880999992013011009154-13267-043417FM-16+0443SBLP V0209999C000019999999Y0099001N1+02601+02101999999ADDMA1101291999999REMMET045SPECI SBLP 100915Z 00000KT CAVOK 26/21 Q1013;
0072832880999992013011010004-13267-043417FM-15+0443SBLP V0209999C000019999999Y0099001N1+02701+01901999999ADDMA1101291999999REMMET045METAR SBLP 101000Z 00000KT CAVOK 27/19 Q1013;
0072832880999992013011011004-13267-043417FM-15+0443SBLP V0209999C000019999999Y0099001N1+02801+01801999999ADDMA1101291999999REMMET045METAR SBLP 101100Z 00000KT CAVOK 28/18 Q1013;
0072832880999992013011012004-13267-043417FM-15+0443SBLP V0209999C000019999999Y0099001N1+03101+01801999999ADDMA1101391999999REMMET045METAR SBLP 101200Z 00000KT CAVOK 31/18 Q1014;
0072832880999992013011013004-13267-043417FM-15+0443SBLP V0209999C000019999999Y0099001N1+03301+01701999999ADDMA1101391999999REMMET045METAR SBLP 101300Z 00000KT CAVOK 33/17 Q1014;
0120832880999992013011014004-13267-043417FM-15+0443SBLP V0202701N002112200019N0112651N1+03401+01701999999ADDGA1021+009001999GF102991999999999999999999MA1101291999999REMMET051METAR SBLP 101400Z 27004KT 9999 FEW030 34/17 Q1013;
0120832880999992013011015004-13267-043417FM-15+0443SBLP V0209999C000012200019N0112651N1+03501+01401999999ADDGA1021+009001999GF102991999999999999999999MA1101191999999REMMET051METAR SBLP 101500Z 00000KT 9999 FEW030 35/14 Q1012;
0120832880999992013011016004-13267-043417FM-15+0443SBLP V0209999C000012200019N0112651N1+03701+01501999999ADDGA1041+009001999GF104991999999999999999999MA1101081999999REMMET051METAR SBLP 101600Z 00000KT 9999 SCT030 37/15 Q1011;
0120832880999992013011017004-13267-043417FM-15+0443SBLP V02099999999992200019N0112651N1+03701+01501999999ADDGA1041+009001999GF104991999999999999999999MA1101021999999REMMET051METAR SBLP 101700Z /////KT 9999 SCT030 37/15 Q1010;
0120832880999992013011018004-13267-043417FM-15+0443SBLP V02099999999992200019N0112651N1+03701+01401999999ADDGA1041+009001999GF104991999999999999999999MA1100911999999REMMET051METAR SBLP 101800Z /////KT 9999 SCT030 37/14 Q1009;
0120832880999992013011019004-13267-043417FM-15+0443SBLP V02099999999992200019N0112651N1+03801+01501999999ADDGA1041+009001999GF104991999999999999999999MA1100811999999REMMET051METAR SBLP 101900Z /////KT 9999 SCT030 38/15 Q1008;
0120832880999992013011020004-13267-043417FM-15+0443SBLP V02099999999992200019N0112651N1+03701+01401999999ADDGA1021+009001999GF102991999999999999999999MA1100711999999REMMET051METAR SBLP 102000Z /////KT 9999 FEW030 37/14 Q1007;
0120832880999992013011021004-13267-043417FM-15+0443SBLP V02099999999992200019N0112651N1+03601+01501999999ADDGA1021+009001999GF102991999999999999999999MA1100711999999REMMET051METAR SBLP 102100Z /////KT 9999 FEW030 36/15 Q1007;
0143832880999992013011109154-13267-043417FM-16+0443SBLP V02099999999990300019N0112651N1+02401+02201999999ADDGA1021+006901999GA2071+030001999GF107991999999999999999999MA1101021999999REMMET058SPECI SBLP 110915Z /////KT 9999 FEW023 BKN100 24/22 Q1010;
0143832880999992013011110004-13267-043417FM-15+0443SBLP V02099999999990300019N0112651N1+02501+02201999999ADDGA1021+006901999GA2071+030001999GF107991999999999999999999MA1101081999999REMMET058METAR SBLP 111000Z /////KT 9999 FEW023 BKN100 25/22 Q1011;
0143832880999992013011111004-13267-043417FM-15+0443SBLP V02099999999990300019N0112651N1+02601+02201999999ADDGA1021+006901999GA2071+030001999GF107991999999999999999999MA1101081999999REMMET058METAR SBLP 111100Z /////KT 9999 FEW023 BKN100 26/22 Q1011;
0143832880999992013011112004-13267-043417FM-15+0443SBLP V02099999999990300019N0112651N1+02701+02301999999ADDGA1021+006901999GA2071+030001999GF107991999999999999999999MA1101191999999REMMET058METAR SBLP 111200Z /////KT 9999 FEW023 BKN100 27/23 Q1012;
0143832880999992013011113004-13267-043417FM-15+0443SBLP V02099999999990300019N0112651N1+03001+02001999999ADDGA1021+006901999GA2071+030001999GF107991999999999999999999MA1101191999999REMMET058METAR SBLP 111300Z /////KT 9999 FEW023 BKN100 30/20 Q1012;
0143832880999992013011114004-13267-043417FM-15+0443SBLP V02099999999990300019N0112651N1+03001+02001999999ADDGA1021+008101999GA2071+030001999GF107991999999999999999999MA1101081999999REMMET058METAR SBLP 111400Z /////KT 9999 FEW027 BKN100 30/20 Q1011;
0143832880999992013011115004-13267-043417FM-15+0443SBLP V02099999999990300019N0112651N1+03301+01901999999ADDGA1021+009001999GA2071+030001999GF107991999999999999999999MA1101081999999REMMET058METAR SBLP 111500Z /////KT 9999 FEW030 BKN100 33/19 Q1011;
0143832880999992013011116004-13267-043417FM-15+0443SBLP V02099999999990300019N0112651N1+03301+01801999999ADDGA1021+009001999GA2071+030001999GF107991999999999999999999MA1101021999999REMMET058METAR SBLP 111600Z /////KT 9999 FEW030 BKN100 33/18 Q1010;
0143832880999992013011117004-13267-043417FM-15+0443SBLP V02099999999990300019N0112651N1+03301+01801999999ADDGA1021+009001999GA2071+030001999GF107991999999999999999999MA1100811999999REMMET058METAR SBLP 111700Z /////KT 9999 FEW030 BKN100 33/18 Q1008;
0144832880999992013011118004-13267-043417FM-15+0443SBLP V0209999999999030001CN0112651N1+03401+01801999999ADDGA1021+009001999GA2071+030001999GF108991999999999999999999MA1100701999999REMMET059METAR SBLP 111800Z /////KT 99999 FEW030 BKN100 34/18 Q1007;
0144832880999992013011119004-13267-043417FM-15+0443SBLP V0209999999999030001CN0112651N1+03501+01701999999ADDGA1021+009001999GA2071+030001999GF108991999999999999999999MA1100701999999REMMET059METAR SBLP 111900Z /////KT 99999 FEW030 BKN100 35/17 Q1007;
0144832880999992013011120004-13267-043417FM-15+0443SBLP V0209999999999030001CN0112651N1+03201+01801999999ADDGA1041+009001999GA2071+030001999GF108991999999999999999999MA1100701999999REMMET059METAR SBLP 112000Z /////KT 99999 SCT030 BKN100 32/18 Q1007;
0144832880999992013011121004-13267-043417FM-15+0443SBLP V0209999999999030001CN0112651N1+03201+01901999999ADDGA1041+009001999GA2071+030001999GF108991999999999999999999MA1100701999999REMMET059METAR SBLP 112100Z /////KT 99999 SCT030 BKN100 32/19 Q1007;
0143832880999992013011409154-13267-043417FM-15+0443SBLP V02099999999990300019N0112651N1+02501+02001999999ADDGA1021+009001999GA2071+030001999GF107991999999999999999999MA1101391999999REMMET058METAR SBLP 140915Z /////KT 9999 FEW030 BKN100 25/20 Q1014;
0143832880999992013011409154-13267-043417FM-16+0443SBLP V02099999999990300019N0112651N1+02401+02101999999ADDGA1021+009001999GA2071+030001999GF107991999999999999999999MA1101391999999REMMET058SPECI SBLP 140915Z /////KT 9999 FEW030 BKN100 24/21 Q1014;
0143832880999992013011410004-13267-043417FM-15+0443SBLP V02099999999990300019N0112651N1+02501+02001999999ADDGA1021+009001999GA2071+030001999GF107991999999999999999999MA1101391999999REMMET058METAR SBLP 141000Z /////KT 9999 FEW030 BKN100 25/20 Q1014;
0143832880999992013011411004-13267-043417FM-15+0443SBLP V02099999999990300019N0112651N1+02701+02001999999ADDGA1021+009001999GA2071+030001999GF107991999999999999999999MA1101391999999REMMET058METAR SBLP 141100Z /////KT 9999 FEW030 BKN100 27/20 Q1014;
0143832880999992013011412004-13267-043417FM-15+0443SBLP V02099999999992200019N0112651N1+03101+01701999999ADDGA1021+009001999GA2041+030001999GF104991999999999999999999MA1101391999999REMMET058METAR SBLP 141200Z /////KT 9999 FEW030 SCT100 31/17 Q1014;
0143832880999992013011413004-13267-043417FM-15+0443SBLP V02099999999992200019N0112651N1+03201+01701999999ADDGA1021+009001999GA2041+030001999GF104991999999999999999999MA1101391999999REMMET058METAR SBLP 141300Z /////KT 9999 FEW030 SCT100 32/17 Q1014;
0143832880999992013011414004-13267-043417FM-15+0443SBLP V02099999999992200019N0112651N1+03301+01701999999ADDGA1021+009001999GA2041+030001999GF104991999999999999999999MA1101291999999REMMET058METAR SBLP 141400Z /////KT 9999 FEW030 SCT100 33/17 Q1013;
0143832880999992013011415004-13267-043417FM-15+0443SBLP V02099999999992200019N0112651N1+03401+01701999999ADDGA1021+009001999GA2041+030001999GF104991999999999999999999MA1101291999999REMMET058METAR SBLP 141500Z /////KT 9999 FEW030 SCT100 34/17 Q1013;
0143832880999992013011416004-13267-043417FM-15+0443SBLP V02099999999990300019N0112651N1+03401+01701999999ADDGA1021+009001999GA2071+030001999GF107991999999999999999999MA1101191999999REMMET058METAR SBLP 141600Z /////KT 9999 FEW030 BKN100 34/17 Q1012;
0143832880999992013011417004-13267-043417FM-15+0443SBLP V02099999999992200019N0112651N1+03501+01601999999ADDGA1021+009001999GA2041+030001999GF104991999999999999999999MA1101081999999REMMET058METAR SBLP 141700Z /////KT 9999 FEW030 SCT100 35/16 Q1011;
0143832880999992013011418004-13267-043417FM-15+0443SBLP V02099999999992200019N0112651N1+03501+01501999999ADDGA1021+009001999GA2041+030001999GF104991999999999999999999MA1101021999999REMMET058METAR SBLP 141800Z /////KT 9999 FEW030 SCT100 35/15 Q1010;
0143832880999992013011419004-13267-043417FM-15+0443SBLP V02099999999992200019N0112651N1+03601+01401999999ADDGA1021+009001999GA2041+030001999GF104991999999999999999999MA1100911999999REMMET058METAR SBLP 141900Z /////KT 9999 FEW030 SCT100 36/14 Q1009;
0143832880999992013011420004-13267-043417FM-15+0443SBLP V02099999999990300019N0112651N1+03501+01601999999ADDGA1021+009001999GA2071+030001999GF107991999999999999999999MA1100911999999REMMET058METAR SBLP 142000Z /////KT 9999 FEW030 BKN100 35/16 Q1009;
0143832880999992013011421004-13267-043417FM-15+0443SBLP V02099999999990300019N0112651N1+03301+01701999999ADDGA1021+009001999GA2071+030001999GF107991999999999999999999MA1100911999999REMMET058METAR SBLP 142100Z /////KT 9999 FEW030 BKN100 33/17 Q1009;
0143832880999992013011509154-13267-043417FM-16+0443SBLP V02099999999990300019N0112651N1+02401+02001999999ADDGA1041+006001999GA2071+030001999GF107991999999999999999999MA1101291999999REMMET058SPECI SBLP 150915Z /////KT 9999 SCT020 BKN100 24/20 Q1013;
0143832880999992013011510004-13267-043417FM-15+0443SBLP V02099999999990300019N0112651N1+02401+02001999999ADDGA1041+006001999GA2071+030001999GF107991999999999999999999MA1101291999999REMMET058METAR SBLP 151000Z /////KT 9999 SCT020 BKN100 24/20 Q1013;
0143832880999992013011511004-13267-043417FM-15+0443SBLP V02099999999990300019N0112651N1+02501+02001999999ADDGA1041+006001999GA2071+030001999GF107991999999999999999999MA1101291999999REMMET058METAR SBLP 151100Z /////KT 9999 SCT020 BKN100 25/20 Q1013;
0143832880999992013011512004-13267-043417FM-15+0443SBLP V02099999999990300019N0112651N1+02701+02001999999ADDGA1041+006001999GA2071+030001999GF107991999999999999999999MA1101391999999REMMET058METAR SBLP 151200Z /////KT 9999 SCT020 BKN100 27/20 Q1014;
0143832880999992013011513004-13267-043417FM-15+0443SBLP V02099999999990300019N0112651N1+02901+01901999999ADDGA1041+006001999GA2071+030001999GF107991999999999999999999MA1101391999999REMMET058METAR SBLP 151300Z /////KT 9999 SCT020 BKN100 29/19 Q1014;
0143832880999992013011514004-13267-043417FM-15+0443SBLP V02099999999990300019N0112651N1+03001+01901999999ADDGA1041+008101999GA2071+030001999GF107991999999999999999999MA1101291999999REMMET058METAR SBLP 151400Z /////KT 9999 SCT027 BKN100 30/19 Q1013;
0143832880999992013011515004-13267-043417FM-15+0443SBLP V02099999999990300019N0112651N1+03101+02001999999ADDGA1041+008101999GA2071+030001999GF107991999999999999999999MA1101191999999REMMET058METAR SBLP 151500Z /////KT 9999 SCT027 BKN100 31/20 Q1012;
0153832880999992013011516004-13267-043417FM-15+0443SBLP V02099999999990300019N0090001N1+02701+02101999999ADDGA1041+009001999GA2071+030001999GF107991999999999999999999MA1101191999999MW1611REMMET062METAR SBLP 151600Z /////KT 9000 -RA SCT030 BKN100 27/21 Q1012;
0153832880999992013011517004-13267-043417FM-15+0443SBLP V02099999999990300019N0090001N1+02601+02201999999ADDGA1041+009001999GA2081+030001999GF108991999999999999999999MA1101191999999MW1611REMMET062METAR SBLP 151700Z /////KT 9000 -RA SCT030 OVC100 26/22 Q1012;
0153832880999992013011518004-13267-043417FM-15+0443SBLP V02099999999990300019N0090001N1+02501+02201999999ADDGA1041+009001999GA2081+030001999GF108991999999999999999999MA1101191999999MW1611REMMET062METAR SBLP 151800Z /////KT 9000 -RA SCT030 OVC100 25/22 Q1012;
0154832880999992013011519004-13267-043417FM-15+0443SBLP V02099999999990300019N0090001N1+02501+02201999999ADDGA1041+009001999GA2081+030001999GF108991999999999999999999MA1101191999999MW1161REMMET063METAR SBLP 151900Z /////KT 9000 VCSH SCT030 OVC100 25/22 Q1012;
0153832880999992013011520004-13267-043417FM-15+0443SBLP V02099999999990300019N0090001N1+02501+02301999999ADDGA1041+009001999GA2081+030001999GF108991999999999999999999MA1101291999999MW1611REMMET062METAR SBLP 152000Z /////KT 9000 -RA SCT030 OVC100 25/23 Q1013;
0143832880999992013011521004-13267-043417FM-15+0443SBLP V02099999999990300019N0112651N1+02501+02201999999ADDGA1041+009001999GA2071+030001999GF107991999999999999999999MA1101291999999REMMET058METAR SBLP 152100Z /////KT 9999 SCT030 BKN100 25/22 Q1013;
0166832880999992013011609154-13267-043417FM-16+0443SBLP V0209999999999009001CN0112651N1+02301+02101999999ADDGA1021+006001999GA2041+009001999GA3071+030001999GF107991999999999999999999MA1101391999999REMMET065SPECI SBLP 160915Z /////KT 9999 FEW020 SCT030 BKN100 23/21 Q1014;
0166832880999992013011610004-13267-043417FM-15+0443SBLP V0209999999999009001CN0112651N1+02201+02101999999ADDGA1021+006001999GA2041+009001999GA3071+030001999GF107991999999999999999999MA1101391999999REMMET065METAR SBLP 161000Z /////KT 9999 FEW020 SCT030 BKN100 22/21 Q1014;
0166832880999992013011611004-13267-043417FM-15+0443SBLP V0209999999999006001CN0112651N1+02301+02201999999ADDGA1021+003001999GA2041+006001999GA3071+030001999GF107991999999999999999999MA1101391999999REMMET065METAR SBLP 161100Z /////KT 9999 FEW010 SCT020 BKN100 23/22 Q1014;
0166832880999992013011612004-13267-043417FM-15+0443SBLP V0209999999999006001CN0112651N1+02501+02101999999ADDGA1021+003001999GA2041+006001999GA3071+030001999GF107991999999999999999999MA1101491999999REMMET065METAR SBLP 161200Z /////KT 9999 FEW010 SCT020 BKN100 25/21 Q1015;
0166832880999992013011613004-13267-043417FM-15+0443SBLP V0209999999999009001CN0112651N1+02501+02101999999ADDGA1021+006001999GA2041+009001999GA3071+030001999GF107991999999999999999999MA1101491999999REMMET065METAR SBLP 161300Z /////KT 9999 FEW020 SCT030 BKN100 25/21 Q1015;
0143832880999992013011614004-13267-043417FM-15+0443SBLP V02099999999990300019N0112651N1+02801+02101999999ADDGA1041+009001999GA2071+030001999GF107991999999999999999999MA1101391999999REMMET058METAR SBLP 161400Z /////KT 9999 SCT030 BKN100 28/21 Q1014;
0143832880999992013011615004-13267-043417FM-15+0443SBLP V02099999999992200019N0112651N1+03001+02001999999ADDGA1021+009001999GA2041+030001999GF104991999999999999999999MA1101291999999REMMET058METAR SBLP 161500Z /////KT 9999 FEW030 SCT100 30/20 Q1013;
0143832880999992013011616004-13267-043417FM-15+0443SBLP V02099999999992200019N0112651N1+03101+02001999999ADDGA1041+009001999GA2041+030001999GF104991999999999999999999MA1101191999999REMMET058METAR SBLP 161600Z /////KT 9999 SCT030 SCT100 31/20 Q1012;
0136832880999992013011617004-13267-043417FM-15+0443SBLP V0209999999999009001CN0112651N1+03301+01701999999ADDGA1071+009001999GA2041+030001999MA1101081999999REMMET058METAR SBLP 161700Z /////KT 9999 BKN030 SCT100 33/17 Q1011;EQDQ01+000042SCOTCV
0136832880999992013011618004-13267-043417FM-15+0443SBLP V0209999999999009001CN0112651N1+03401+01901999999ADDGA1071+009001999GA2041+030001999MA1101021999999REMMET058METAR SBLP 161800Z /////KT 9999 BKN030 SCT100 34/19 Q1010;EQDQ01+000042SCOTCV
0162832880999992013011619004-13267-043417FM-15+0443SBLP V0209999999999009001CN0112651N1+03201+01901999999ADDGA1071+009001999GA2021+012001021GA3041+030001999MA1101021999999REMMET068METAR SBLP 161900Z /////KT 9999 BKN030 FEW040TCU SCT100 32/19 Q1010;EQDQ01+000042SCOTCV
0154832880999992013011619204-13267-043417FM-15+0443SBLP V02099999999990090019N0112651N1+02901+02201999999ADDGA1071+009001999GF107991999999999999999999MA1101001999999MW1801MW2951REMMET073SPECI SBLP 161920Z /////KT 9999 -TSRA BKN030 FRE040CB SCT100 29/22 Q1010;
0177832880999992013011620004-13267-043417FM-15+0443SBLP V02099999999990300019N0112651N1+02401+02401999999ADDGA1021+006001999GA2021+012001091GA3071+030001999GF107991999999999999999999MA1101081999999MW1171REMMET070METAR SBLP 162000Z /////KT 9999 TS FEW020 FEW040CB BKN100 24/24 Q1011;
0143832880999992013011621004-13267-043417FM-15+0443SBLP V02099999999992200019N0112651N1+02801+02201999999ADDGA1021+009001999GA2041+030001999GF104991999999999999999999MA1101081999999REMMET058METAR SBLP 162100Z /////KT 9999 FEW030 SCT100 28/22 Q1011;
0143832880999992013011709154-13267-043417FM-16+0443SBLP V02099999999990300019N0112651N1+02401+02101999999ADDGA1021+006001999GA2071+030001999GF107991999999999999999999MA1101291999999REMMET058SPECI SBLP 170915Z /////KT 9999 FEW020 BKN100 24/21 Q1013;
0143832880999992013011710004-13267-043417FM-15+0443SBLP V02099999999992200019N0112651N1+02501+02301999999ADDGA1021+006001999GA2041+030001999GF104991999999999999999999MA1101291999999REMMET058METAR SBLP 171000Z /////KT 9999 FEW020 SCT100 25/23 Q1013;
0143832880999992013011711004-13267-043417FM-15+0443SBLP V02099999999990300019N0112651N1+02701+02201999999ADDGA1041+006001999GA2071+030001999GF107991999999999999999999MA1101491999999REMMET058METAR SBLP 171100Z /////KT 9999 SCT020 BKN100 27/22 Q1015;
0153832880999992013011712004-13267-043417FM-15+0443SBLP V02099999999990060019N0112651N1+02501+02201999999ADDGA1071+006001999GA2071+030001999GF107991999999999999999999MA1101591999999MW1611REMMET062METAR SBLP 171200Z /////KT 9999 -RA BKN020 BKN100 25/22 Q1016;
0186832880999992013011712364-13267-043417FM-16+0443SBLP V02099999999990060019N0112651N1+02401+02201999999ADDGA1071+006001999GA2021+012001091GA3071+030001999GF107991999999999999999999MA1101591999999MW1801MW2951REMMET073SPECI SBLP 171236Z /////KT 9999 -TSRA BKN020 FEW040CB BKN100 24/22 Q1016;
0158832880999992013011713004-13267-043417FM-15+0443SBLP V02099999999990060019N0112651N1+02301+02201999999ADDGA1071+006001999GA2081+030001999GF108991999999999999999999MA1101591999999MW1611REMMET067METAR SBLP 171300Z /////KT 9999 -RA BKN020 OVC100 23/22 Q1016 RETS;
0153832880999992013011714004-13267-043417FM-15+0443SBLP V02099999999990060019N0112651N1+02301+02201999999ADDGA1071+006001999GA2071+030001999GF107991999999999999999999MA1101591999999MW1611REMMET062METAR SBLP 171400Z /////KT 9999 -RA BKN020 BKN100 23/22 Q1016;
0143832880999992013011715004-13267-043417FM-15+0443SBLP V02099999999990300019N0112651N1+02501+02201999999ADDGA1041+006001999GA2071+030001999GF107991999999999999999999MA1101491999999REMMET058METAR SBLP 171500Z /////KT 9999 SCT020 BKN100 25/22 Q1015;
0166832880999992013011716004-13267-043417FM-15+0443SBLP V0209999999999009001CN0112651N1+02801+02201999999ADDGA1021+006001999GA2041+009001999GA3071+030001999GF107991999999999999999999MA1101491999999REMMET065METAR SBLP 171600Z /////KT 9999 FEW020 SCT030 BKN100 28/22 Q1015;
0176832880999992013011717004-13267-043417FM-15+0443SBLP V0209999999999009001CN0090001N1+02501+02201999999ADDGA1021+006001999GA2041+009001999GA3071+030001999GF107991999999999999999999MA1101491999999MW1611REMMET069METAR SBLP 171700Z /////KT 9000 -RA FEW020 SCT030 BKN100 25/22 Q1015;
0176832880999992013011718004-13267-043417FM-15+0443SBLP V0209999999999009001CN0090001N1+02301+02101999999ADDGA1041+006001999GA2041+009001999GA3071+030001999GF107991999999999999999999MA1101291999999MW1611REMMET069METAR SBLP 171800Z /////KT 9000 -RA SCT020 SCT030 BKN100 23/21 Q1013;
0153832880999992013011719004-13267-043417FM-15+0443SBLP V02099999999990300019N0090001N1+02301+02201999999ADDGA1041+006001999GA2081+030001999GF108991999999999999999999MA1101191999999MW1611REMMET062METAR SBLP 171900Z /////KT 9000 -RA SCT020 OVC100 23/22 Q1012;
0166832880999992013011720004-13267-043417FM-15+0443SBLP V0209999999999009001CN0112651N1+02301+02201999999ADDGA1021+006001999GA2041+009001999GA3071+030001999GF107991999999999999999999MA1101191999999REMMET065METAR SBLP 172000Z /////KT 9999 FEW020 SCT030 BKN100 23/22 Q1012;
0166832880999992013011721004-13267-043417FM-15+0443SBLP V0209999999999009001CN0112651N1+02301+02201999999ADDGA1021+006001999GA2041+009001999GA3071+030001999GF107991999999999999999999MA1101291999999REMMET065METAR SBLP 172100Z /////KT 9999 FEW020 SCT030 BKN100 23/22 Q1013;
0072832880999992013011809154-13267-043417FM-16+0443SBLP V02099999999999999999Y0099001N1+02201+02001999999ADDMA1101291999999REMMET045SPECI SBLP 180915Z /////KT CAVOK 22/20 Q1013;
0129832880999992013011810004-13267-043417FM-15+0443SBLP V02099999999992200019N0050001N1+02201+02101999999ADDGA1041+003001999GF104991999999999999999999MA1101391999999MW1101REMMET054METAR SBLP 181000Z /////KT 5000 BR SCT010 22/21 Q1014;
0120832880999992013011811004-13267-043417FM-15+0443SBLP V02099999999992200019N0090001N1+02301+02201999999ADDGA1041+003001999GF104991999999999999999999MA1101391999999REMMET051METAR SBLP 181100Z /////KT 9000 SCT010 23/22 Q1014;
0120832880999992013011812004-13267-043417FM-15+0443SBLP V02099999999992200019N0112651N1+02601+02301999999ADDGA1041+006001999GF104991999999999999999999MA1101391999999REMMET051METAR SBLP 181200Z /////KT 9999 SCT020 26/23 Q1014;
0143832880999992013011813004-13267-043417FM-15+0443SBLP V02099999999992200019N0112651N1+02801+02201999999ADDGA1021+006001999GA2041+009001999GF104991999999999999999999MA1101391999999REMMET058METAR SBLP 181300Z /////KT 9999 FEW020 SCT030 28/22 Q1014;
0120832880999992013011814004-13267-043417FM-15+0443SBLP V02099999999992200019N0112651N1+03001+02201999999ADDGA1041+009001999GF104991999999999999999999MA1101391999999REMMET051METAR SBLP 181400Z /////KT 9999 SCT030 30/22 Q1014;
0120832880999992013011815004-13267-043417FM-15+0443SBLP V02099999999992200019N0112651N1+03201+02201999999ADDGA1041+009001999GF104991999999999999999999MA1101291999999REMMET051METAR SBLP 181500Z /////KT 9999 SCT030 32/22 Q1013;
0120832880999992013011816004-13267-043417FM-15+0443SBLP V02099999999992200019N0112651N1+03201+02201999999ADDGA1041+009001999GF104991999999999999999999MA1101191999999REMMET051METAR SBLP 181600Z /////KT 9999 SCT030 32/22 Q1012;
0120832880999992013011817004-13267-043417FM-15+0443SBLP V02099999999992200019N0112651N1+03301+02001999999ADDGA1021+009001999GF102991999999999999999999MA1101081999999REMMET051METAR SBLP 181700Z /////KT 9999 FEW030 33/20 Q1011;
0120832880999992013011818004-13267-043417FM-15+0443SBLP V02099999999992200019N0112651N1+03301+02001999999ADDGA1021+009001999GF102991999999999999999999MA1101021999999REMMET051METAR SBLP 181800Z /////KT 9999 FEW030 33/20 Q1010;
0120832880999992013011819004-13267-043417FM-15+0443SBLP V02099999999992200019N0112651N1+03301+02001999999ADDGA1021+009001999GF102991999999999999999999MA1100911999999REMMET051METAR SBLP 181900Z /////KT 9999 FEW030 33/20 Q1009;
0120832880999992013011820004-13267-043417FM-15+0443SBLP V02099999999992200019N0112651N1+03201+02101999999ADDGA1021+009001999GF102991999999999999999999MA1100911999999REMMET051METAR SBLP 182000Z /////KT 9999 FEW030 32/21 Q1009;
0146832880999992013011821004-13267-043417FM-15+0443SBLP V02099999999992200019N0112651N1+03001+02201999999ADDGA1021+009001999GA2021+012001021GF102991999999999999999999MA1100911999999REMMET061METAR SBLP 182100Z /////KT 9999 FEW030 FEW040TCU 30/22 Q1009;
0143832880999992013012109154-13267-043417FM-16+0443SBLP V02099999999990300019N0112651N1+02401+02301999999ADDGA1041+006001999GA2071+030001999GF107991999999999999999999MA1101391999999REMMET058SPECI SBLP 210915Z /////KT 9999 SCT020 BKN100 24/23 Q1014;
0143832880999992013012110004-13267-043417FM-15+0443SBLP V02099999999990300019N0112651N1+02401+02301999999ADDGA1041+006001999GA2071+030001999GF107991999999999999999999MA1101491999999REMMET058METAR SBLP 211000Z /////KT 9999 SCT020 BKN100 24/23 Q1015;
0143832880999992013012111004-13267-043417FM-15+0443SBLP V02099999999990300019N0112651N1+02501+02301999999ADDGA1041+006001999GA2071+030001999GF107991999999999999999999MA1101491999999REMMET058METAR SBLP 211100Z /////KT 9999 SCT020 BKN100 25/23 Q1015;
0143832880999992013012112004-13267-043417FM-15+0443SBLP V02099999999990300019N0112651N1+02601+02301999999ADDGA1041+006001999GA2071+030001999GF107991999999999999999999MA1101591999999REMMET058METAR SBLP 211200Z /////KT 9999 SCT020 BKN100 26/23 Q1016;
0153832880999992013012113004-13267-043417FM-15+0443SBLP V02099999999990300019N0112651N1+02501+02301999999ADDGA1041+006001999GA2071+030001999GF107991999999999999999999MA1101591999999MW1611REMMET062METAR SBLP 211300Z /////KT 9999 -RA SCT020 BKN100 25/23 Q1016;
0143832880999992013012114004-13267-043417FM-15+0443SBLP V02099999999990300019N0112651N1+02701+02301999999ADDGA1041+006001999GA2071+030001999GF107991999999999999999999MA1101591999999REMMET058METAR SBLP 211400Z /////KT 9999 SCT020 BKN100 27/23 Q1016;
0143832880999992013012115004-13267-043417FM-15+0443SBLP V02099999999990300019N0112651N1+02701+02301999999ADDGA1041+006001999GA2071+030001999GF107991999999999999999999MA1101491999999REMMET058METAR SBLP 211500Z /////KT 9999 SCT020 BKN100 27/23 Q1015;
0143832880999992013012116004-13267-043417FM-15+0443SBLP V02099999999990300019N0112651N1+02901+02201999999ADDGA1041+009001999GA2071+030001999GF107991999999999999999999MA1101391999999REMMET058METAR SBLP 211600Z /////KT 9999 SCT030 BKN100 29/22 Q1014;
0143832880999992013012117004-13267-043417FM-15+0443SBLP V02099999999992200019N0112651N1+03001+02301999999ADDGA1021+009001999GA2041+030001999GF104991999999999999999999MA1101291999999REMMET058METAR SBLP 211700Z /////KT 9999 FEW030 SCT100 30/23 Q1013;
0143832880999992013012118004-13267-043417FM-15+0443SBLP V02099999999992200019N0112651N1+03201+02201999999ADDGA1021+009001999GA2041+030001999GF104991999999999999999999MA1101191999999REMMET058METAR SBLP 211800Z /////KT 9999 FEW030 SCT100 32/22 Q1012;
0143832880999992013012119004-13267-043417FM-15+0443SBLP V02099999999992200019N0112651N1+03201+02201999999ADDGA1041+009001999GA2041+030001999GF104991999999999999999999MA1101081999999REMMET058METAR SBLP 211900Z /////KT 9999 SCT030 SCT100 32/22 Q1011;
0143832880999992013012120004-13267-043417FM-15+0443SBLP V02099999999992200019N0112651N1+02801+02201999999ADDGA1041+009001999GA2041+030001999GF104991999999999999999999MA1101191999999REMMET058METAR SBLP 212000Z /////KT 9999 SCT030 SCT100 28/22 Q1012;
0143832880999992013012121004-13267-043417FM-15+0443SBLP V02099999999990300019N0112651N1+02701+02301999999ADDGA1041+009001999GA2071+030001999GF107991999999999999999999MA1101291999999REMMET058METAR SBLP 212100Z /////KT 9999 SCT030 BKN100 27/23 Q1013;
0152832880999992013012209154-13267-043417FM-16+0443SBLP V02099999999990030019N0009001N1+02401+02301999999ADDGA1071+003001999GA2071+030001999GF107991999999999999999999MA1101491999999MW1441REMMET061SPECI SBLP 220915Z /////KT 0900 FG BKN010 BKN100 24/23 Q1015;
0152832880999992013012210004-13267-043417FM-15+0443SBLP V02099999999990030019N0010001N1+02401+02301999999ADDGA1071+003001999GA2071+030001999GF107991999999999999999999MA1101491999999MW1101REMMET061METAR SBLP 221000Z /////KT 1000 BR BKN010 BKN100 24/23 Q1015;
0143832880999992013012211004-13267-043417FM-15+0443SBLP V02099999999992200019N0112651N1+02501+02301999999ADDGA1041+006001999GA2041+030001999GF104991999999999999999999MA1101491999999REMMET058METAR SBLP 221100Z /////KT 9999 SCT020 SCT100 25/23 Q1015;
0143832880999992013012212004-13267-043417FM-15+0443SBLP V02099999999992200019N0112651N1+02901+02401999999ADDGA1041+009001999GA2041+030001999GF104991999999999999999999MA1101591999999REMMET058METAR SBLP 221200Z /////KT 9999 SCT030 SCT100 29/24 Q1016;
0120832880999992013012213004-13267-043417FM-15+0443SBLP V02099999999992200019N0112651N1+02901+02201999999ADDGA1041+009001999GF104991999999999999999999MA1101591999999REMMET051METAR SBLP 221300Z /////KT 9999 SCT030 29/22 Q1016;
0120832880999992013012214004-13267-043417FM-15+0443SBLP V02099999999992200019N0112651N1+03001+02301999999ADDGA1041+009001999GF104991999999999999999999MA1101491999999REMMET051METAR SBLP 221400Z /////KT 9999 SCT030 30/23 Q1015;
0120832880999992013012215004-13267-043417FM-15+0443SBLP V02099999999990090019N0112651N1+03101+02201999999ADDGA1071+009001999GF107991999999999999999999MA1101391999999REMMET051METAR SBLP 221500Z /////KT 9999 BKN030 31/22 Q1014;
0120832880999992013012216004-13267-043417FM-15+0443SBLP V02099999999990090019N0112651N1+03201+02201999999ADDGA1071+009001999GF107991999999999999999999MA1101291999999REMMET051METAR SBLP 221600Z /////KT 9999 BKN030 32/22 Q1013;
0120832880999992013012217004-13267-043417FM-15+0443SBLP V02099999999992200019N0112651N1+03301+02101999999ADDGA1041+009001999GF104991999999999999999999MA1101191999999REMMET051METAR SBLP 221700Z /////KT 9999 SCT030 33/21 Q1012;
0120832880999992013012218004-13267-043417FM-15+0443SBLP V02099999999992200019N0112651N1+03401+02101999999ADDGA1041+009001999GF104991999999999999999999MA1101081999999REMMET051METAR SBLP 221800Z /////KT 9999 SCT030 34/21 Q1011;
0120832880999992013012219004-13267-043417FM-15+0443SBLP V02099999999992200019N0112651N1+03401+02001999999ADDGA1041+009001999GF104991999999999999999999MA1101021999999REMMET051METAR SBLP 221900Z /////KT 9999 SCT030 34/20 Q1010;
0162832880999992013012220004-13267-043417FM-15+0443SBLP V0209999999999009001CN0112651N1+03001+02301999999ADDGA1021+006001999GA2071+009001999GA3021+012001021MA1101081999999REMMET068METAR SBLP 222000Z /////KT 9999 FEW020 BKN030 FEW040TCU 30/23 Q1011;EQDQ01+000022SCOTCV
0155832880999992013012221004-13267-043417FM-15+0443SBLP V0209999999999004501CN0010001N1+02601+02301999999ADDGA1071+004501999GA2021+012001091MA1101391999999MW1811MW2951REMMET065METAR SBLP 222100Z /////KT 1000 TSRA BKN015 FEW040CB 26/23 Q1014;EQDQ01+000022SCOTCV
0143832880999992013012309154-13267-043417FM-16+0443SBLP V02099999999990051019N0112651N1+02401+02301999999ADDGA1071+005101999GA2071+030001999GF107991999999999999999999MA1101491999999REMMET058SPECI SBLP 230915Z /////KT 9999 BKN017 BKN100 24/23 Q1015;
0143832880999992013012310004-13267-043417FM-15+0443SBLP V02099999999990051019N0112651N1+02401+02301999999ADDGA1071+005101999GA2071+030001999GF107991999999999999999999MA1101591999999REMMET058METAR SBLP 231000Z /////KT 9999 BKN017 BKN100 24/23 Q1016;
0143832880999992013012311004-13267-043417FM-15+0443SBLP V02099999999990300019N0112651N1+02501+02301999999ADDGA1041+005101999GA2071+030001999GF107991999999999999999999MA1101591999999REMMET058METAR SBLP 231100Z /////KT 9999 SCT017 BKN100 25/23 Q1016;
0143832880999992013012312004-13267-043417FM-15+0443SBLP V02099999999990300019N0112651N1+02601+02301999999ADDGA1041+006001999GA2071+030001999GF107991999999999999999999MA1101591999999REMMET058METAR SBLP 231200Z /////KT 9999 SCT020 BKN100 26/23 Q1016;
0143832880999992013012313004-13267-043417FM-15+0443SBLP V02099999999990300019N0112651N1+02601+02301999999ADDGA1041+006001999GA2071+030001999GF107991999999999999999999MA1101591999999REMMET058METAR SBLP 231300Z /////KT 9999 SCT020 BKN100 26/23 Q1016;
0143832880999992013012314004-13267-043417FM-15+0443SBLP V02099999999990300019N0112651N1+02801+02301999999ADDGA1041+006001999GA2071+030001999GF107991999999999999999999MA1101591999999REMMET058METAR SBLP 231400Z /////KT 9999 SCT020 BKN100 28/23 Q1016;
0178832880999992013012315004-13267-043417FM-15+0443SBLP V02099999999992200019N0112651N1+02901+99999999999ADDGA1041+009001999GA2041+030001999GF104991999999999999999999MA1101491999999REMMET058METAR SBLP 231500Z /////KT 9999 SCT030 SCT100 29/14 Q1015;EQDQ01+001403ATOD  Q02 +01403ATOD  
0143832880999992013012316004-13267-043417FM-15+0443SBLP V02099999999990300019N0112651N1+03001+02201999999ADDGA1041+006001999GA2071+030001999GF107991999999999999999999MA1101391999999REMMET058METAR SBLP 231600Z /////KT 9999 SCT020 BKN100 30/22 Q1014;
0136832880999992013012317004-13267-043417FM-15+0443SBLP V0209999999999006001CN0112651N1+03201+02201999999ADDGA1071+006001999GA2041+030001999MA1101291999999REMMET058METAR SBLP 231700Z /////KT 9999 BKN020 SCT100 32/22 Q1013;EQDQ01+000042SCOTCV
0136832880999992013012318004-13267-043417FM-15+0443SBLP V0209999999999006001CN0112651N1+03001+02301999999ADDGA1071+006001999GA2041+030001999MA1101191999999REMMET058METAR SBLP 231800Z /////KT 9999 BKN020 SCT100 30/23 Q1012;EQDQ01+000042SCOTCV
0136832880999992013012319004-13267-043417FM-15+0443SBLP V0209999999999006001CN0112651N1+02701+02301999999ADDGA1071+006001999GA2041+030001999MA1101191999999REMMET058METAR SBLP 231900Z /////KT 9999 BKN020 SCT100 27/23 Q1012;EQDQ01+000042SCOTCV
0153832880999992013012320004-13267-043417FM-15+0443SBLP V02099999999990300019N0090001N1+02501+02201999999ADDGA1041+006001999GA2071+030001999GF107991999999999999999999MA1101191999999MW1611REMMET062METAR SBLP 232000Z /////KT 9000 -RA SCT020 BKN100 25/22 Q1012;
0166832880999992013012321004-13267-043417FM-15+0443SBLP V02099999999990300019N0112651N1+02501+02401999999ADDGA1021+006001999GA2041+006001999GA3071+030001999GF107991999999999999999999MA1101191999999REMMET065METAR SBLP 232100Z /////KT 9999 FEW020 SCT020 BKN100 25/24 Q1012;
0143832880999992013012409154-13267-043417FM-16+0443SBLP V02099999999990300019N0112651N1+02301+02201999999ADDGA1041+006001999GA2071+030001999GF107991999999999999999999MA1101491999999REMMET058SPECI SBLP 240915Z /////KT 9999 SCT020 BKN100 23/22 Q1015;
0143832880999992013012411004-13267-043417FM-15+0443SBLP V02099999999990300019N0112651N1+02401+02201999999ADDGA1041+006001999GA2071+030001999GF107991999999999999999999MA1101591999999REMMET058METAR SBLP 241100Z /////KT 9999 SCT020 BKN100 24/22 Q1016;
0166832880999992013012412004-13267-043417FM-15+0443SBLP V0209999999999009001CN0112651N1+02601+02101999999ADDGA1021+006001999GA2041+009001999GA3071+030001999GF107991999999999999999999MA1101591999999REMMET065METAR SBLP 241200Z /////KT 9999 FEW020 SCT030 BKN100 26/21 Q1016;
0143832880999992013012414004-13267-043417FM-15+0443SBLP V02099999999990300019N0112651N1+02701+02201999999ADDGA1041+009001999GA2071+030001999GF107991999999999999999999MA1101591999999REMMET058METAR SBLP 241400Z /////KT 9999 SCT030 BKN100 27/22 Q1016;
0143832880999992013012415004-13267-043417FM-15+0443SBLP V02099999999990300019N0112651N1+02501+02201999999ADDGA1041+009001999GA2071+030001999GF107991999999999999999999MA1101491999999REMMET058METAR SBLP 241500Z /////KT 9999 SCT030 BKN100 25/22 Q1015;
0143832880999992013012416004-13267-043417FM-15+0443SBLP V02099999999990300019N0112651N1+02601+02201999999ADDGA1021+009001999GA2071+030001999GF107991999999999999999999MA1101391999999REMMET058METAR SBLP 241600Z /////KT 9999 FEW030 BKN100 26/22 Q1014;
0143832880999992013012417004-13267-043417FM-15+0443SBLP V02099999999990300019N0112651N1+02801+02301999999ADDGA1021+009001999GA2071+030001999GF107991999999999999999999MA1101291999999REMMET058METAR SBLP 241700Z /////KT 9999 FEW030 BKN100 28/23 Q1013;
0143832880999992013012418004-13267-043417FM-15+0443SBLP V02099999999992200019N0112651N1+02801+02301999999ADDGA1021+009001999GA2041+030001999GF104991999999999999999999MA1101191999999REMMET058METAR SBLP 241800Z /////KT 9999 FEW030 SCT100 28/23 Q1012;
0143832880999992013012419004-13267-043417FM-15+0443SBLP V02099999999992200019N0112651N1+02801+02201999999ADDGA1021+009001999GA2041+030001999GF104991999999999999999999MA1101191999999REMMET058METAR SBLP 241900Z /////KT 9999 FEW030 SCT100 28/22 Q1012;
0143832880999992013012420004-13267-043417FM-15+0443SBLP V02099999999992200019N0112651N1+02901+02301999999ADDGA1021+009001999GA2041+030001999GF104991999999999999999999MA1101081999999REMMET058METAR SBLP 242000Z /////KT 9999 FEW030 SCT100 29/23 Q1011;
0143832880999992013012421004-13267-043417FM-15+0443SBLP V02099999999992200019N0112651N1+02801+02301999999ADDGA1021+009001999GA2041+030001999GF104991999999999999999999MA1101191999999REMMET058METAR SBLP 242100Z /////KT 9999 FEW030 SCT100 28/23 Q1012;
0143832880999992013012509154-13267-043417FM-16+0443SBLP V02099999999990300019N0112651N1+02301+02201999999ADDGA1041+006001999GA2071+030001999GF107991999999999999999999MA1101391999999REMMET058SPECI SBLP 250915Z /////KT 9999 SCT020 BKN100 23/22 Q1014;
0143832880999992013012510004-13267-043417FM-15+0443SBLP V02099999999990300019N0112651N1+02401+02201999999ADDGA1041+006001999GA2071+030001999GF107991999999999999999999MA1101391999999REMMET058METAR SBLP 251000Z /////KT 9999 SCT020 BKN100 24/22 Q1014;
0143832880999992013012511004-13267-043417FM-15+0443SBLP V02099999999990300019N0112651N1+02501+02201999999ADDGA1041+009001999GA2071+030001999GF107991999999999999999999MA1101491999999REMMET058METAR SBLP 251100Z /////KT 9999 SCT030 BKN100 25/22 Q1015;
0143832880999992013012512004-13267-043417FM-15+0443SBLP V02099999999990300019N0112651N1+02601+02201999999ADDGA1021+009001999GA2071+030001999GF107991999999999999999999MA1101591999999REMMET058METAR SBLP 251200Z /////KT 9999 FEW030 BKN100 26/22 Q1016;
0143832880999992013012513004-13267-043417FM-15+0443SBLP V02099999999990300019N0112651N1+02901+02301999999ADDGA1021+009001999GA2071+030001999GF107991999999999999999999MA1101591999999REMMET058METAR SBLP 251300Z /////KT 9999 FEW030 BKN100 29/23 Q1016;
0143832880999992013012514004-13267-043417FM-15+0443SBLP V02099999999990300019N0112651N1+03101+02301999999ADDGA1021+009001999GA2071+030001999GF107991999999999999999999MA1101491999999REMMET058METAR SBLP 251400Z /////KT 9999 FEW030 BKN100 31/23 Q1015;
0143832880999992013012515004-13267-043417FM-15+0443SBLP V02099999999992200019N0112651N1+03201+02301999999ADDGA1041+009001999GA2041+030001999GF104991999999999999999999MA1101391999999REMMET058METAR SBLP 251500Z /////KT 9999 SCT030 SCT100 32/23 Q1014;
0120832880999992013012516004-13267-043417FM-15+0443SBLP V02099999999992200019N0112651N1+03301+02301999999ADDGA1041+009001999GF104991999999999999999999MA1101291999999REMMET051METAR SBLP 251600Z /////KT 9999 SCT030 33/23 Q1013;
0120832880999992013012517004-13267-043417FM-15+0443SBLP V02099999999990090019N0112651N1+02801+02301999999ADDGA1071+009001999GF107991999999999999999999MA1101191999999REMMET051METAR SBLP 251700Z /////KT 9999 BKN030 28/23 Q1012;
0143832880999992013012519004-13267-043417FM-15+0443SBLP V02099999999992200019N0112651N1+03201+02201999999ADDGA1041+009001999GA2041+030001999GF104991999999999999999999MA1101081999999REMMET058METAR SBLP 251900Z /////KT 9999 SCT030 SCT100 32/22 Q1011;
0143832880999992013012520004-13267-043417FM-15+0443SBLP V02099999999990300019N0112651N1+02901+02101999999ADDGA1021+009001999GA2071+030001999GF107991999999999999999999MA1101081999999REMMET058METAR SBLP 252000Z /////KT 9999 FEW030 BKN100 29/21 Q1011;
0143832880999992013012521004-13267-043417FM-15+0443SBLP V02099999999992200019N0112651N1+02901+02301999999ADDGA1041+009001999GA2041+030001999GF104991999999999999999999MA1101191999999REMMET058METAR SBLP 252100Z /////KT 9999 SCT030 SCT100 29/23 Q1012;
0143832880999992013012809154-13267-043417FM-16+0443SBLP V02099999999992200019N0112651N1+02301+02301999999ADDGA1021+009001999GA2041+030001999GF104991999999999999999999MA1101491999999REMMET058SPECI SBLP 280915Z /////KT 9999 FEW030 SCT100 23/23 Q1015;
0143832880999992013012810004-13267-043417FM-15+0443SBLP V02099999999992200019N0112651N1+02401+02301999999ADDGA1021+009001999GA2041+030001999GF104991999999999999999999MA1101591999999REMMET058METAR SBLP 281000Z /////KT 9999 FEW030 SCT100 24/23 Q1016;
0143832880999992013012811004-13267-043417FM-15+0443SBLP V02099999999992200019N0112651N1+02501+02301999999ADDGA1041+009001999GA2041+030001999GF104991999999999999999999MA1101591999999REMMET058METAR SBLP 281100Z /////KT 9999 SCT030 SCT100 25/23 Q1016;
0143832880999992013012812004-13267-043417FM-15+0443SBLP V02099999999992200019N0112651N1+02901+02401999999ADDGA1021+009001999GA2041+030001999GF104991999999999999999999MA1101591999999REMMET058METAR SBLP 281200Z /////KT 9999 FEW030 SCT100 29/24 Q1016;
0143832880999992013012814004-13267-043417FM-15+0443SBLP V02099999999992200019N0112651N1+03301+02201999999ADDGA1021+009001999GA2041+030001999GF104991999999999999999999MA1101591999999REMMET058METAR SBLP 281400Z /////KT 9999 FEW030 SCT100 33/22 Q1016;
0143832880999992013012815004-13267-043417FM-15+0443SBLP V02099999999992200019N0112651N1+03401+02101999999ADDGA1021+009001999GA2041+030001999GF104991999999999999999999MA1101491999999REMMET058METAR SBLP 281500Z /////KT 9999 FEW030 SCT100 34/21 Q1015;
0143832880999992013012816004-13267-043417FM-15+0443SBLP V02099999999992200019N0112651N1+03301+02201999999ADDGA1041+009001999GA2041+030001999GF104991999999999999999999MA1101391999999REMMET058METAR SBLP 281600Z /////KT 9999 SCT030 SCT100 33/22 Q1014;
0120832880999992013012817004-13267-043417FM-15+0443SBLP V02099999999992200019N0112651N1+03401+02201999999ADDGA1041+009001999GF104991999999999999999999MA1101191999999REMMET051METAR SBLP 281700Z /////KT 9999 SCT030 34/22 Q1012;
0120832880999992013012818004-13267-043417FM-15+0443SBLP V02099999999992200019N0112651N1+03501+02201999999ADDGA1041+009001999GF104991999999999999999999MA1101081999999REMMET051METAR SBLP 281800Z /////KT 9999 SCT030 35/22 Q1011;
0120832880999992013012819004-13267-043417FM-15+0443SBLP V02099999999992200019N0112651N1+03501+02301999999ADDGA1021+009001999GF102991999999999999999999MA1101081999999REMMET051METAR SBLP 281900Z /////KT 9999 FEW030 35/23 Q1011;
0120832880999992013012820004-13267-043417FM-15+0443SBLP V02099999999992200019N0112651N1+03501+02201999999ADDGA1021+009001999GF102991999999999999999999MA1101081999999REMMET051METAR SBLP 282000Z /////KT 9999 FEW030 35/22 Q1011;
0143832880999992013012821004-13267-043417FM-15+0443SBLP V02099999999990300019N0112651N1+03401+02201999999ADDGA1021+009001999GA2071+030001999GF107991999999999999999999MA1101081999999REMMET058METAR SBLP 282100Z /////KT 9999 FEW030 BKN100 34/22 Q1011;
0072832880999992013012909154-13267-043417FM-16+0443SBLP V02099999999999999999Y0099001N1+02201+02201999999ADDMA1101491999999REMMET045SPECI SBLP 290915Z /////KT CAVOK 22/22 Q1015;
0120832880999992013012910004-13267-043417FM-15+0443SBLP V02099999999992200019N0112651N1+02301+02201999999ADDGA1021+009001999GF102991999999999999999999MA1101491999999REMMET051METAR SBLP 291000Z /////KT 9999 FEW030 23/22 Q1015;
0072832880999992013012911004-13267-043417FM-15+0443SBLP V02099999999999999999Y0099001N1+02501+02301999999ADDMA1101591999999REMMET045METAR SBLP 291100Z /////KT CAVOK 25/23 Q1016;
0072832880999992013012912004-13267-043417FM-15+0443SBLP V02099999999999999999Y0099001N1+02801+02301999999ADDMA1101591999999REMMET045METAR SBLP 291200Z /////KT CAVOK 28/23 Q1016;
0072832880999992013012913004-13267-043417FM-15+0443SBLP V02099999999999999999Y0099001N1+03101+02101999999ADDMA1101591999999REMMET045METAR SBLP 291300Z /////KT CAVOK 31/21 Q1016;
0072832880999992013012914004-13267-043417FM-15+0443SBLP V02099999999999999999Y0099001N1+03201+02001999999ADDMA1101591999999REMMET045METAR SBLP 291400Z /////KT CAVOK 32/20 Q1016;
0072832880999992013012915004-13267-043417FM-15+0443SBLP V02099999999999999999Y0099001N1+03101+01901999999ADDMA1101491999999REMMET045METAR SBLP 291500Z /////KT CAVOK 31/19 Q1015;
0142832880999992013012916004-13267-043417FM-15+0443SBLP V0209999999999030001CN0112651N1+03201+02001999999ADDGA1021+009001999GA2041+030001999GF106991999999999999999999MA1101401999999REMMET057METAR SBLP 291600Z ////KT 9999 FEW030 SCT100 32/20 Q1014;
0142832880999992013012917004-13267-043417FM-15+0443SBLP V0209999999999030001CN0112651N1+03401+02001999999ADDGA1021+009001999GA2041+030001999GF106991999999999999999999MA1101301999999REMMET057METAR SBLP 291700Z ////KT 9999 FEW030 SCT100 34/20 Q1013;
0142832880999992013012918004-13267-043417FM-15+0443SBLP V0209999999999030001CN0112651N1+03401+02101999999ADDGA1021+009001999GA2071+030001999GF108991999999999999999999MA1101201999999REMMET057METAR SBLP 291800Z ////KT 9999 FEW030 BKN100 34/21 Q1012;
0142832880999992013012919004-13267-043417FM-15+0443SBLP V0209999999999030001CN0112651N1+03301+02101999999ADDGA1021+009001999GA2071+030001999GF108991999999999999999999MA1101101999999REMMET057METAR SBLP 291900Z ////KT 9999 FEW030 BKN100 33/21 Q1011;
0142832880999992013012920004-13267-043417FM-15+0443SBLP V0209999999999030001CN0112651N1+03301+02201999999ADDGA1021+009001999GA2041+030001999GF106991999999999999999999MA1101101999999REMMET057METAR SBLP 292000Z ////KT 9999 FEW030 SCT100 33/22 Q1011;
0119832880999992013012921004-13267-043417FM-15+0443SBLP V02099999999992200019N0112651N1+03201+02201999999ADDGA1021+009001999GF102991999999999999999999MA1101101999999REMMET050METAR SBLP 292100Z ////KT 9999 FEW030 32/22 Q1011;
0120832880999992013013009154-13267-043417FM-16+0443SBLP V02099999999992200019N0112651N1+02401+02301999999ADDGA1021+009001999GF102991999999999999999999MA1101291999999REMMET051SPECI SBLP 300915Z /////KT 9999 FEW030 24/23 Q1013;
0120832880999992013013010004-13267-043417FM-16+0443SBLP V02099999999992200019N0112651N1+02501+02201999999ADDGA1021+009001999GF102991999999999999999999MA1101391999999REMMET051SPECI SBLP 301000Z /////KT 9999 FEW030 25/22 Q1014;
0120832880999992013013011004-13267-043417FM-16+0443SBLP V02099999999992200019N0112651N1+02801+02301999999ADDGA1021+009001999GF102991999999999999999999MA1101391999999REMMET051SPECI SBLP 301100Z /////KT 9999 FEW030 28/23 Q1014;
0072832880999992013013012004-13267-043417FM-16+0443SBLP V02099999999999999999Y0099001N1+03201+02101999999ADDMA1101491999999REMMET045SPECI SBLP 301200Z /////KT CAVOK 32/21 Q1015;
0072832880999992013013013004-13267-043417FM-16+0443SBLP V02099999999999999999Y0099001N1+03201+02101999999ADDMA1101491999999REMMET045SPECI SBLP 301300Z /////KT CAVOK 32/21 Q1015;
0072832880999992013013014004-13267-043417FM-15+0443SBLP V0209999C000019999999Y0099001N1+03301+02001999999ADDMA1101391999999REMMET045METAR SBLP 301400Z 00000KT CAVOK 33/20 Q1014;
0120832880999992013013015004-13267-043417FM-15+0443SBLP V0200301N004112200019N0112651N1+03401+02001999999ADDGA1021+009001999GF102991999999999999999999MA1101391999999REMMET051METAR SBLP 301500Z 03008KT 9999 FEW030 34/20 Q1014;
0120832880999992013013016004-13267-043417FM-15+0443SBLP V0200301N003112200019N0112651N1+03401+02101999999ADDGA1041+009001999GF104991999999999999999999MA1101291999999REMMET051METAR SBLP 301600Z 03006KT 9999 SCT030 34/21 Q1013;
0120832880999992013013017004-13267-043417FM-15+0443SBLP V0203601N002112200019N0112651N1+03501+02001999999ADDGA1041+009001999GF104991999999999999999999MA1101191999999REMMET051METAR SBLP 301700Z 36004KT 9999 SCT030 35/20 Q1012;
0120832880999992013013018004-13267-043417FM-15+0443SBLP V0203601N002112200019N0112651N1+03601+01901999999ADDGA1041+009001999GF104991999999999999999999MA1101081999999REMMET051METAR SBLP 301800Z 36004KT 9999 SCT030 36/19 Q1011;
0120832880999992013013019004-13267-043417FM-15+0443SBLP V0200601N001512200019N0112651N1+03501+01901999999ADDGA1041+009001999GF104991999999999999999999MA1101021999999REMMET051METAR SBLP 301900Z 06003KT 9999 SCT030 35/19 Q1010;
0115832880999992013013020004-13267-043417FM-15+0443SBLP V0200601N001512200019N9999999N1+03501+01901999999ADDGA1041+009001999GF104991999999999999999999MA1101001999999REMMET046METAR SBLP 302000Z 06003KT SCT030 35/19 Q1010;
0120832880999992013013021004-13267-043417FM-15+0443SBLP V0201801N001512200019N0112651N1+03301+02001999999ADDGA1021+009001999GF102991999999999999999999MA1101021999999REMMET051METAR SBLP 302100Z 18003KT 9999 FEW030 33/20 Q1010;
0072832880999992013013109154-13267-043417FM-16+0443SBLP V0201801N001519999999Y0099001N1+02301+02001999999ADDMA1101191999999REMMET045SPECI SBLP 310915Z 18003KT CAVOK 23/20 Q1012;
0072832880999992013013110004-13267-043417FM-15+0443SBLP V0201801N001519999999Y0099001N1+02401+02001999999ADDMA1101291999999REMMET045METAR SBLP 311000Z 18003KT CAVOK 24/20 Q1013;
0072832880999992013013111004-13267-043417FM-15+0443SBLP V0201601N001519999999Y0099001N1+02701+02001999999ADDMA1101291999999REMMET045METAR SBLP 311100Z 16003KT CAVOK 27/20 Q1013;
0072832880999992013013112004-13267-043417FM-15+0443SBLP V0209999C000019999999Y0099001N1+03001+01801999999ADDMA1101391999999REMMET045METAR SBLP 311200Z 00000KT CAVOK 30/18 Q1014;
0072832880999992013013113004-13267-043417FM-15+0443SBLP V0209999C000019999999Y0099001N1+03201+01801999999ADDMA1101391999999REMMET045METAR SBLP 311300Z 00000KT CAVOK 32/18 Q1014;
0120832880999992013013114004-13267-043417FM-15+0443SBLP V0203301N001512200019N0112651N1+03301+01901999999ADDGA1021+009001999GF102991999999999999999999MA1101291999999REMMET051METAR SBLP 311400Z 33003KT 9999 FEW030 33/19 Q1013;
0120832880999992013013115004-13267-043417FM-15+0443SBLP V0200301N002112200019N0112651N1+03401+01901999999ADDGA1021+009001999GF102991999999999999999999MA1101291999999REMMET051METAR SBLP 311500Z 03004KT 9999 FEW030 34/19 Q1013;
0120832880999992013013116004-13267-043417FM-15+0443SBLP V0200901N002112200019N0112651N1+03401+02101999999ADDGA1021+009001999GF102991999999999999999999MA1101191999999REMMET051METAR SBLP 311600Z 09004KT 9999 FEW030 34/21 Q1012;
0120832880999992013013117004-13267-043417FM-15+0443SBLP V0200601N002112200019N0112651N1+03601+02101999999ADDGA1021+009001999GF102991999999999999999999MA1101081999999REMMET051METAR SBLP 311700Z 06004KT 9999 FEW030 36/21 Q1011;
0120832880999992013013118004-13267-043417FM-15+0443SBLP V0203601N003112200019N0112651N1+03601+02001999999ADDGA1041+009001999GF104991999999999999999999MA1101021999999REMMET051METAR SBLP 311800Z 36006KT 9999 SCT030 36/20 Q1010;
0120832880999992013013119004-13267-043417FM-15+0443SBLP V0200601N003112200019N0112651N1+03501+01801999999ADDGA1041+009001999GF104991999999999999999999MA1100911999999REMMET051METAR SBLP 311900Z 06006KT 9999 SCT030 35/18 Q1009;
0143832880999992013013120004-13267-043417FM-15+0443SBLP V0200801N005112200019N0112651N1+03201+02201999999ADDGA1041+009001999GA2041+030001999GF104991999999999999999999MA1100911999999REMMET058METAR SBLP 312000Z 08010KT 9999 SCT030 SCT100 32/22 Q1009;
0143832880999992013013121004-13267-043417FM-15+0443SBLP V0201601N001510300019N0112651N1+03201+02101999999ADDGA1041+009001999GA2071+030001999GF107991999999999999999999MA1100911999999REMMET058METAR SBLP 312100Z 16003KT 9999 SCT030 BKN100 32/21 Q1009;
0072832880999992013020109154-13267-043417FM-16+0443SBLP V0209999C000019999999Y0099001N1+02301+02201999999ADDMA1101191999999REMMET045SPECI SBLP 010915Z 00000KT CAVOK 23/22 Q1012;
0072832880999992013020110004-13267-043417FM-15+0443SBLP V0201201N001519999999Y0099001N1+02401+02101999999ADDMA1101191999999REMMET045METAR SBLP 011000Z 12003KT CAVOK 24/21 Q1012;
0072832880999992013020111004-13267-043417FM-15+0443SBLP V0201201N001519999999Y0099001N1+03001+02101999999ADDMA1101291999999REMMET045METAR SBLP 011100Z 12003KT CAVOK 30/21 Q1013;
0072832880999992013020112004-13267-043417FM-15+0443SBLP V0201201N001519999999Y0099001N1+03101+02001999999ADDMA1101391999999REMMET045METAR SBLP 011200Z 12003KT CAVOK 31/20 Q1014;
0120832880999992013020114004-13267-043417FM-15+0443SBLP V0203601N005112200019N0112651N1+03201+02001999999ADDGA1021+006001999GF102991999999999999999999MA1101391999999REMMET051METAR SBLP 011400Z 36010KT 9999 FEW020 32/20 Q1014;
0120832880999992013020115004-13267-043417FM-15+0443SBLP V0203601N003112200019N0112651N1+03401+02001999999ADDGA1021+009001999GF102991999999999999999999MA1101291999999REMMET051METAR SBLP 011500Z 36006KT 9999 FEW030 34/20 Q1013;
0120832880999992013020116004-13267-043417FM-15+0443SBLP V0203401N003112200019N0112651N1+03401+02101999999ADDGA1041+009001999GF104991999999999999999999MA1101191999999REMMET051METAR SBLP 011600Z 34006KT 9999 SCT030 34/21 Q1012;
0120832880999992013020117004-13267-043417FM-15+0443SBLP V0203601N002112200019N0112651N1+03501+02001999999ADDGA1041+009001999GF104991999999999999999999MA1101081999999REMMET051METAR SBLP 011700Z 36004KT 9999 SCT030 35/20 Q1011;
0120832880999992013020118004-13267-043417FM-15+0443SBLP V0203601N003112200019N0112651N1+03501+02001999999ADDGA1041+009001999GF104991999999999999999999MA1101021999999REMMET051METAR SBLP 011800Z 36006KT 9999 SCT030 35/20 Q1010;
0120832880999992013020119004-13267-043417FM-15+0443SBLP V0203401N002112200019N0112651N1+03501+01901999999ADDGA1021+009001999GF102991999999999999999999MA1100911999999REMMET051METAR SBLP 011900Z 34004KT 9999 FEW030 35/19 Q1009;
0144832880999992013020120004-13267-043417FM-15+0443SBLP V0209999C000012200019N0112651N1+03401+02001999999ADDGA1021+009001999GA2021+012001021GF102991999999999999999999MA1100911999999REMMET059METAR SBLP 012000Z 00000 9999 FEW030 FEW040TCU 34/20 Q1009;
0186832880999992013020121004-13267-043417FM-15+0443SBLP V0201801N009312200019N0112651N1+03301+01801999999ADDGA1021+008101999GA2021+012001091GA3041+030001999GF104991999999999999999999MA1101081999999MW1801MW2951REMMET073METAR SBLP 012100Z 18018KT 9999 -TSRA FEW027 FEW040CB SCT100 33/18 Q1011;
0072832880999992013020409154-13267-043417FM-16+0443SBLP V0209999C000019999999Y0099001N1+02301+02001999999ADDMA1101081999999REMMET045SPECI SBLP 040915Z 00000KT CAVOK 23/20 Q1011;
0072832880999992013020410004-13267-043417FM-15+0443SBLP V0209999C000019999999Y0099001N1+02401+02001999999ADDMA1101191999999REMMET045METAR SBLP 041000Z 00000KT CAVOK 24/20 Q1012;
0072832880999992013020411004-13267-043417FM-15+0443SBLP V0209999C000019999999Y0099001N1+02801+01801999999ADDMA1101191999999REMMET045METAR SBLP 041100Z 00000KT CAVOK 28/18 Q1012;
0072832880999992013020412004-13267-043417FM-15+0443SBLP V0209999C000019999999Y0099001N1+03101+01801999999ADDMA1101291999999REMMET045METAR SBLP 041200Z 00000KT CAVOK 31/18 Q1013;
0072832880999992013020413004-13267-043417FM-15+0443SBLP V0209999C000019999999Y0099001N1+03301+01901999999ADDMA1101291999999REMMET045METAR SBLP 041300Z 00000KT CAVOK 33/19 Q1013;
0120832880999992013020414004-13267-043417FM-15+0443SBLP V0200901N001512200019N0112651N1+03401+01901999999ADDGA1021+009001999GF102991999999999999999999MA1101291999999REMMET051METAR SBLP 041400Z 09003KT 9999 FEW030 34/19 Q1013;
0120832880999992013020415004-13267-043417FM-15+0443SBLP V0203601N002112200019N0112651N1+03401+01701999999ADDGA1021+009001999GF102991999999999999999999MA1101191999999REMMET051METAR SBLP 041500Z 36004KT 9999 FEW030 34/17 Q1012;
0120832880999992013020416004-13267-043417FM-15+0443SBLP V0202401N002112200019N0112651N1+03601+01801999999ADDGA1021+009001999GF102991999999999999999999MA1101081999999REMMET051METAR SBLP 041600Z 24004KT 9999 FEW030 36/18 Q1011;
0120832880999992013020417004-13267-043417FM-15+0443SBLP V0200601N003112200019N0112651N1+03701+02001999999ADDGA1021+009001999GF102991999999999999999999MA1101021999999REMMET051METAR SBLP 041700Z 06006KT 9999 FEW030 37/20 Q1010;
0120832880999992013020420004-13267-043417FM-15+0443SBLP V0209999C000012200019N0112651N1+03701+02101999999ADDGA1021+009001999GF102991999999999999999999MA1100811999999REMMET051METAR SBLP 042000Z 00000KT 9999 FEW030 37/21 Q1008;
0120832880999992013020421004-13267-043417FM-15+0443SBLP V0209999C000012200019N0112651N1+03401+01901999999ADDGA1021+009001999GF102991999999999999999999MA1100811999999REMMET051METAR SBLP 042100Z 00000KT 9999 FEW030 34/19 Q1008;
0120832880999992013020509154-13267-043417FM-16+0443SBLP V0209999C000012200019N0112651N1+02401+02201999999ADDGA1021+009001999GF102991999999999999999999MA1101191999999REMMET051SPECI SBLP 050915Z 00000KT 9999 FEW030 24/22 Q1012;
0120832880999992013020510004-13267-043417FM-16+0443SBLP V0209999C000012200019N0112651N1+02501+02201999999ADDGA1021+009001999GF102991999999999999999999MA1101191999999REMMET051SPECI SBLP 051000Z 00000KT 9999 FEW030 25/22 Q1012;
0072832880999992013020511004-13267-043417FM-15+0443SBLP V0200901N001519999999Y0099001N1+02901+02201999999ADDMA1101291999999REMMET045METAR SBLP 051100Z 09003KT CAVOK 29/22 Q1013;
0072832880999992013020512004-13267-043417FM-15+0443SBLP V0200601N003119999999Y0099001N1+03101+02001999999ADDMA1101291999999REMMET045METAR SBLP 051200Z 06006KT CAVOK 31/20 Q1013;
0072832880999992013020513004-13267-043417FM-15+0443SBLP V0209999C000019999999Y0099001N1+03301+02001999999ADDMA1101291999999REMMET045METAR SBLP 051300Z 00000KT CAVOK 33/20 Q1013;
0072832880999992013020514004-13267-043417FM-15+0443SBLP V0201801N002619999999Y0099001N1+03401+02001999999ADDMA1101291999999REMMET045METAR SBLP 051400Z 18005KT CAVOK 34/20 Q1013;
0143832880999992013020515004-13267-043417FM-15+0443SBLP V0201201N002612200019N0112651N1+03401+01901999999ADDGA1021+009001999GA2041+030001999GF104991999999999999999999MA1101191999999REMMET058METAR SBLP 051500Z 12005KT 9999 FEW030 SCT100 34/19 Q1012;
0120832880999992013020516004-13267-043417FM-15+0443SBLP V0201501N003112200019N0112651N1+03701+01801999999ADDGA1021+009001999GF102991999999999999999999MA1101081999999REMMET051METAR SBLP 051600Z 15006KT 9999 FEW030 37/18 Q1011;
0120832880999992013020517004-13267-043417FM-15+0443SBLP V0201501N002112200019N0112651N1+03701+01801999999ADDGA1021+009001999GF102991999999999999999999MA1100911999999REMMET051METAR SBLP 051700Z 15004KT 9999 FEW030 37/18 Q1009;
0120832880999992013020518004-13267-043417FM-15+0443SBLP V0201301N001512200019N0112651N1+03701+01801999999ADDGA1021+009001999GF102991999999999999999999MA1100811999999REMMET051METAR SBLP 051800Z 13003KT 9999 FEW030 37/18 Q1008;
0120832880999992013020519004-13267-043417FM-15+0443SBLP V0201501N002112200019N0112651N1+03601+01901999999ADDGA1021+009001999GF102991999999999999999999MA1100811999999REMMET051METAR SBLP 051900Z 15004KT 9999 FEW030 36/19 Q1008;
0120832880999992013020520004-13267-043417FM-15+0443SBLP V0201801N001512200019N0112651N1+03501+01801999999ADDGA1021+009001999GF102991999999999999999999MA1100711999999REMMET051METAR SBLP 052000Z 18003KT 9999 FEW030 35/18 Q1007;
0104832880999992013020521004-13267-043417FM-15+0443SBLP V0201501N003112200019N0112651N1+03401+01801999999ADDGA1021+009001999GF102991999999999999999999REMMET050METAR SBLP 052100Z 15006KT 9999 FEW030 34/18 Q007;
0072832880999992013020609154-13267-043417FM-16+0443SBLP V0201201N002119999999Y0099001N1+02401+01801999999ADDMA1101191999999REMMET045SPECI SBLP 060915Z 12004KT CAVOK 24/18 Q1012;
0072832880999992013020610004-13267-043417FM-15+0443SBLP V0201301N001519999999Y0099001N1+02401+01701999999ADDMA1101291999999REMMET045METAR SBLP 061000Z 13003KT CAVOK 24/17 Q1013;
0072832880999992013020611004-13267-043417FM-15+0443SBLP V0201201N004119999999Y0099001N1+02801+01801999999ADDMA1101291999999REMMET045METAR SBLP 061100Z 12008KT CAVOK 28/18 Q1013;
0072832880999992013020612004-13267-043417FM-15+0443SBLP V0201201N003119999999Y0099001N1+02901+01801999999ADDMA1101391999999REMMET045METAR SBLP 061200Z 12006KT CAVOK 29/18 Q1014;
0072832880999992013020613004-13267-043417FM-15+0443SBLP V0201301N002119999999Y0099001N1+03101+01801999999ADDMA1101391999999REMMET045METAR SBLP 061300Z 13004KT CAVOK 31/18 Q1014;
0120832880999992013020614004-13267-043417FM-15+0443SBLP V0200901N003112200019N0112651N1+03201+01801999999ADDGA1021+009001999GF102991999999999999999999MA1101391999999REMMET051METAR SBLP 061400Z 09006KT 9999 FEW030 32/18 Q1014;
0120832880999992013020615004-13267-043417FM-15+0443SBLP V0200901N002112200019N0112651N1+03301+01501999999ADDGA1021+009001999GF102991999999999999999999MA1101291999999REMMET051METAR SBLP 061500Z 09004KT 9999 FEW030 33/15 Q1013;
0143832880999992013020616004-13267-043417FM-15+0443SBLP V0209999C000010300019N0112651N1+03301+01601999999ADDGA1021+009001999GA2071+030001999GF107991999999999999999999MA1101291999999REMMET058METAR SBLP 061600Z 00000KT 9999 FEW030 BKN100 33/16 Q1013;
0143832880999992013020617004-13267-043417FM-15+0443SBLP V0200601N003110300019N0112651N1+03401+01601999999ADDGA1021+009001999GA2071+030001999GF107991999999999999999999MA1101191999999REMMET058METAR SBLP 061700Z 06006KT 9999 FEW030 BKN100 34/16 Q1012;
0143832880999992013020618004-13267-043417FM-15+0443SBLP V0201001N005112200019N0112651N1+03501+01501999999ADDGA1021+009001999GA2041+030001999GF104991999999999999999999MA1101081999999REMMET058METAR SBLP 061800Z 10010KT 9999 FEW030 SCT100 35/15 Q1011;
0143832880999992013020619004-13267-043417FM-15+0443SBLP V0201001N003612200019N0112651N1+03501+01801999999ADDGA1021+009001999GA2041+030001999GF104991999999999999999999MA1101021999999REMMET058METAR SBLP 061900Z 10007KT 9999 FEW030 SCT100 35/18 Q1010;
0120832880999992013020620004-13267-043417FM-15+0443SBLP V0201201N004112200019N0112651N1+03501+01801999999ADDGA1021+009001999GF102991999999999999999999MA1101021999999REMMET051METAR SBLP 062000Z 12008KT 9999 FEW030 35/18 Q1010;
0120832880999992013020621004-13267-043417FM-15+0443SBLP V0201201N001512200019N0112651N1+03401+01901999999ADDGA1021+009001999GF102991999999999999999999MA1101021999999REMMET051METAR SBLP 062100Z 12003KT 9999 FEW030 34/19 Q1010;
0120832880999992013020709154-13267-043417FM-16+0443SBLP V0209999C000012200019N0112651N1+02301+01801999999ADDGA1021+009001999GF102991999999999999999999MA1101291999999REMMET051SPECI SBLP 070915Z 00000KT 9999 FEW030 23/18 Q1013;
0120832880999992013020710004-13267-043417FM-15+0443SBLP V0209999C000012200019N0112651N1+02401+01801999999ADDGA1021+009001999GF102991999999999999999999MA1101391999999REMMET051METAR SBLP 071000Z 00000KT 9999 FEW030 24/18 Q1014;
0072832880999992013020711004-13267-043417FM-15+0443SBLP V0201001N002619999999Y0099001N1+02801+02001999999ADDMA1101491999999REMMET045METAR SBLP 071100Z 10005KT CAVOK 28/20 Q1015;
0143832880999992013020712004-13267-043417FM-15+0443SBLP V0201001N005112200019N0112651N1+03001+01801999999ADDGA1021+009001999GA2041+030001999GF104991999999999999999999MA1101491999999REMMET058METAR SBLP 071200Z 10010KT 9999 FEW030 SCT100 30/18 Q1015;
0120832880999992013020713004-13267-043417FM-15+0443SBLP V0201001N004112200019N0112651N1+03201+01901999999ADDGA1021+009001999GF102991999999999999999999MA1101491999999REMMET051METAR SBLP 071300Z 10008KT 9999 FEW030 32/19 Q1015;
0143832880999992013020714004-13267-043417FM-15+0443SBLP V0201201N004112200019N0112651N1+03201+01901999999ADDGA1021+009001999GA2041+030001999GF104991999999999999999999MA1101491999999REMMET058METAR SBLP 071400Z 12008KT 9999 FEW030 SCT100 32/19 Q1015;
0143832880999992013020715004-13267-043417FM-15+0443SBLP V0200901N002612200019N0112651N1+03301+01901999999ADDGA1041+009001999GA2041+030001999GF104991999999999999999999MA1101391999999REMMET058METAR SBLP 071500Z 09005KT 9999 SCT030 SCT100 33/19 Q1014;
0120832880999992013020716004-13267-043417FM-15+0443SBLP V0201201N004112200019N0112651N1+03301+01901999999ADDGA1041+009001999GF104991999999999999999999MA1101291999999REMMET051METAR SBLP 071600Z 12008KT 9999 SCT030 33/19 Q1013;
0120832880999992013020717004-13267-043417FM-15+0443SBLP V0201101N003112200019N0112651N1+03401+01801999999ADDGA1041+009001999GF104991999999999999999999MA1101191999999REMMET051METAR SBLP 071700Z 11006KT 9999 SCT030 34/18 Q1012;
0120832880999992013020718004-13267-043417FM-15+0443SBLP V0201201N005112200019N0112651N1+03501+01601999999ADDGA1021+009001999GF102991999999999999999999MA1101081999999REMMET051METAR SBLP 071800Z 12010KT 9999 FEW030 35/16 Q1011;
0120832880999992013020719004-13267-043417FM-15+0443SBLP V0201201N002112200019N0112651N1+03501+01601999999ADDGA1021+009001999GF102991999999999999999999MA1101081999999REMMET051METAR SBLP 071900Z 12004KT 9999 FEW030 35/16 Q1011;
0120832880999992013020720004-13267-043417FM-15+0443SBLP V0201201N002112200019N0112651N1+03501+01501999999ADDGA1021+009001999GF102991999999999999999999MA1101021999999REMMET051METAR SBLP 072000Z 12004KT 9999 FEW030 35/15 Q1010;
0120832880999992013020721004-13267-043417FM-15+0443SBLP V0201501N002112200019N0112651N1+03401+01601999999ADDGA1021+009001999GF102991999999999999999999MA1101021999999REMMET051METAR SBLP 072100Z 15004KT 9999 FEW030 34/16 Q1010;
0072832880999992013020809154-13267-043417FM-16+0443SBLP V0209999C000019999999Y0099001N1+02201+01901999999ADDMA1100911999999REMMET045SPECI SBLP 080915Z 00000KT CAVOK 22/19 Q1009;
0072832880999992013020810004-13267-043417FM-15+0443SBLP V0209999C000019999999Y0099001N1+02301+01901999999ADDMA1101391999999REMMET045METAR SBLP 081000Z 00000KT CAVOK 23/19 Q1014;
0072832880999992013020811004-13267-043417FM-15+0443SBLP V0201201N002119999999Y0099001N1+02701+01901999999ADDMA1101491999999REMMET045METAR SBLP 081100Z 12004KT CAVOK 27/19 Q1015;
0072832880999992013020812004-13267-043417FM-15+0443SBLP V0201201N003119999999Y0099001N1+03001+01801999999ADDMA1101491999999REMMET045METAR SBLP 081200Z 12006KT CAVOK 30/18 Q1015;
0072832880999992013020813004-13267-043417FM-15+0443SBLP V0201101N004119999999Y0099001N1+03101+01801999999ADDMA1101591999999REMMET045METAR SBLP 081300Z 11008KT CAVOK 31/18 Q1016;
0072832880999992013020814004-13267-043417FM-15+0443SBLP V0201201N003119999999Y0099001N1+03301+01701999999ADDMA1101491999999REMMET045METAR SBLP 081400Z 12006KT CAVOK 33/17 Q1015;
0120832880999992013020815004-13267-043417FM-15+0443SBLP V0201201N002112200019N0112651N1+03401+01701999999ADDGA1021+009001999GF102991999999999999999999MA1101391999999REMMET051METAR SBLP 081500Z 12004KT 9999 FEW030 34/17 Q1014;
0143832880999992013020816004-13267-043417FM-15+0443SBLP V0209999C000012200019N0112651N1+03601+01701999999ADDGA1021+009001999GA2041+030001999GF104991999999999999999999MA1101291999999REMMET058METAR SBLP 081600Z 00000KT 9999 FEW030 SCT100 36/17 Q1013;
0143832880999992013020817004-13267-043417FM-15+0443SBLP V0209999C000012200019N0112651N1+03601+01701999999ADDGA1021+009001999GA2041+030001999GF104991999999999999999999MA1101081999999REMMET058METAR SBLP 081700Z 00000KT 9999 FEW030 SCT100 36/17 Q1011;
0143832880999992013020818004-13267-043417FM-15+0443SBLP V0209999C000012200019N0112651N1+03601+01501999999ADDGA1041+009001999GA2041+030001999GF104991999999999999999999MA1101021999999REMMET058METAR SBLP 081800Z 00000KT 9999 SCT030 SCT100 36/15 Q1010;
0143832880999992013020819004-13267-043417FM-15+0443SBLP V0209999C000012200019N0112651N1+03601+01701999999ADDGA1041+009001999GA2041+030001999GF104991999999999999999999MA1101021999999REMMET058METAR SBLP 081900Z 00000KT 9999 SCT030 SCT100 36/17 Q1010;
0143832880999992013020820004-13267-043417FM-15+0443SBLP V0202401N002112200019N0112651N1+03501+01701999999ADDGA1041+009001999GA2041+030001999GF104991999999999999999999MA1101021999999REMMET058METAR SBLP 082000Z 24004KT 9999 SCT030 SCT100 35/17 Q1010;
0143832880999992013020821004-13267-043417FM-15+0443SBLP V0202701N003610300019N0112651N1+03301+01901999999ADDGA1041+009001999GA2071+030001999GF107991999999999999999999MA1101021999999REMMET058METAR SBLP 082100Z 27007KT 9999 SCT030 BKN100 33/19 Q1010;
0072832880999992013021109154-13267-043417FM-16+0443SBLP V0209999C000019999999Y0099001N1+02201+01501999999ADDMA1101391999999REMMET045SPECI SBLP 110915Z 00000KT CAVOK 22/15 Q1014;
0072832880999992013021110004-13267-043417FM-15+0443SBLP V0209999C000019999999Y0099001N1+02301+01801999999ADDMA1101391999999REMMET045METAR SBLP 111000Z 00000KT CAVOK 23/18 Q1014;
0072832880999992013021111004-13267-043417FM-15+0443SBLP V0209999C000019999999Y0099001N1+02701+02001999999ADDMA1101491999999REMMET045METAR SBLP 111100Z 00000KT CAVOK 27/20 Q1015;
0072832880999992013021112004-13267-043417FM-15+0443SBLP V0209999C000019999999Y0099001N1+03001+01801999999ADDMA1101491999999REMMET045METAR SBLP 111200Z 00000KT CAVOK 30/18 Q1015;
0072832880999992013021113004-13267-043417FM-15+0443SBLP V0201301N002119999999Y0099001N1+03101+01701999999ADDMA1101491999999REMMET045METAR SBLP 111300Z 13004KT CAVOK 31/17 Q1015;
0072832880999992013021114004-13267-043417FM-15+0443SBLP V0201801N002119999999Y0099001N1+03201+01701999999ADDMA1101491999999REMMET045METAR SBLP 111400Z 18004KT CAVOK 32/17 Q1015;
0072832880999992013021115004-13267-043417FM-15+0443SBLP V0203601N001519999999Y0099001N1+03401+01501999999ADDMA1101391999999REMMET045METAR SBLP 111500Z 36003KT CAVOK 34/15 Q1014;
0072832880999992013021116004-13267-043417FM-15+0443SBLP V0202101N003119999999Y0099001N1+03501+01301999999ADDMA1101291999999REMMET045METAR SBLP 111600Z 21006KT CAVOK 35/13 Q1013;
0072832880999992013021117004-13267-043417FM-15+0443SBLP V0201201N002119999999Y0099001N1+03601+01201999999ADDMA1101081999999REMMET045METAR SBLP 111700Z 12004KT CAVOK 36/12 Q1011;
0072832880999992013021118004-13267-043417FM-15+0443SBLP V0202101N002119999999Y0099001N1+03701+01201999999ADDMA1101081999999REMMET045METAR SBLP 111800Z 21004KT CAVOK 37/12 Q1011;
0072832880999992013021119004-13267-043417FM-15+0443SBLP V0202101N003119999999Y0099001N1+03701+01101999999ADDMA1101021999999REMMET045METAR SBLP 111900Z 21006KT CAVOK 37/11 Q1010;
0072832880999992013021120004-13267-043417FM-15+0443SBLP V0202401N003119999999Y0099001N1+03701+01101999999ADDMA1100911999999REMMET045METAR SBLP 112000Z 24006KT CAVOK 37/11 Q1009;
0072832880999992013021121004-13267-043417FM-15+0443SBLP V0201801N003119999999Y0099001N1+03501+01101999999ADDMA1101021999999REMMET045METAR SBLP 112100Z 18006KT CAVOK 35/11 Q1010;
0072832880999992013021209154-13267-043417FM-16+0443SBLP V0209999C000019999999Y0099001N1+02001+01801999999ADDMA1101191999999REMMET045SPECI SBLP 120915Z 00000KT CAVOK 20/18 Q1012;
0072832880999992013021210004-13267-043417FM-15+0443SBLP V0209999C000019999999Y0099001N1+02101+01801999999ADDMA1101291999999REMMET045METAR SBLP 121000Z 00000KT CAVOK 21/18 Q1013;
0072832880999992013021211004-13267-043417FM-15+0443SBLP V0201801N001519999999Y0099001N1+02601+01701999999ADDMA1101391999999REMMET045METAR SBLP 121100Z 18003KT CAVOK 26/17 Q1014;
0072832880999992013021212004-13267-043417FM-15+0443SBLP V0201501N002619999999Y0099001N1+03001+01801999999ADDMA1101391999999REMMET045METAR SBLP 121200Z 15005KT CAVOK 30/18 Q1014;
0072832880999992013021213004-13267-043417FM-15+0443SBLP V0209999C000019999999Y0099001N1+03301+01801999999ADDMA1101391999999REMMET045METAR SBLP 121300Z 00000KT CAVOK 33/18 Q1014;
0120832880999992013021214004-13267-043417FM-15+0443SBLP V0202101N001512200019N0112651N1+03301+01801999999ADDGA1021+009001999GF102991999999999999999999MA1101391999999REMMET051METAR SBLP 121400Z 21003KT 9999 FEW030 33/18 Q1014;
0120832880999992013021215004-13267-043417FM-15+0443SBLP V0201801N002612200019N0112651N1+03501+01801999999ADDGA1021+009001999GF102991999999999999999999MA1101291999999REMMET051METAR SBLP 121500Z 18005KT 9999 FEW030 35/18 Q1013;
0120832880999992013021216004-13267-043417FM-15+0443SBLP V0202101N003112200019N0112651N1+03601+01701999999ADDGA1021+009001999GF102991999999999999999999MA1101191999999REMMET051METAR SBLP 121600Z 21006KT 9999 FEW030 36/17 Q1012;
0120832880999992013021217004-13267-043417FM-15+0443SBLP V0203001N003112200019N0112651N1+03601+01601999999ADDGA1041+009001999GF104991999999999999999999MA1101081999999REMMET051METAR SBLP 121700Z 30006KT 9999 SCT030 36/16 Q1011;
0120832880999992013021218004-13267-043417FM-15+0443SBLP V0202501N003112200019N0112651N1+03601+01601999999ADDGA1041+009001999GF104991999999999999999999MA1101021999999REMMET051METAR SBLP 121800Z 25006KT 9999 SCT030 36/16 Q1010;
0120832880999992013021219004-13267-043417FM-15+0443SBLP V0202101N004112200019N0112651N1+03701+01301999999ADDGA1021+009001999GF102991999999999999999999MA1100911999999REMMET051METAR SBLP 121900Z 21008KT 9999 FEW030 37/13 Q1009;
0120832880999992013021220004-13267-043417FM-15+0443SBLP V0201901N003112200019N0112651N1+03701+01101999999ADDGA1021+009001999GF102991999999999999999999MA1100911999999REMMET051METAR SBLP 122000Z 19006KT 9999 FEW030 37/11 Q1009;
0120832880999992013021221004-13267-043417FM-15+0443SBLP V0201801N003112200019N0112651N1+03501+01601999999ADDGA1021+009001999GF102991999999999999999999MA1100911999999REMMET051METAR SBLP 122100Z 18006KT 9999 FEW030 35/16 Q1009;
0072832880999992013021309154-13267-043417FM-16+0443SBLP V0209999C000019999999Y0099001N1+02101+01601999999ADDMA1101291999999REMMET045SPECI SBLP 130915Z 00000KT CAVOK 21/16 Q1013;
0072832880999992013021310004-13267-043417FM-15+0443SBLP V0209999C000019999999Y0099001N1+02201+01701999999ADDMA1101391999999REMMET045METAR SBLP 131000Z 00000KT CAVOK 22/17 Q1014;
0072832880999992013021311004-13267-043417FM-15+0443SBLP V0202201N001519999999Y0099001N1+02701+01901999999ADDMA1101391999999REMMET045METAR SBLP 131100Z 22003KT CAVOK 27/19 Q1014;
0072832880999992013021312004-13267-043417FM-15+0443SBLP V0201601N003119999999Y0099001N1+03101+01801999999ADDMA1101491999999REMMET045METAR SBLP 131200Z 16006KT CAVOK 31/18 Q1015;
0072832880999992013021313004-13267-043417FM-15+0443SBLP V0201501N002119999999Y0099001N1+03201+01801999999ADDMA1101491999999REMMET045METAR SBLP 131300Z 15004KT CAVOK 32/18 Q1015;
0120832880999992013021314004-13267-043417FM-15+0443SBLP V0201401N001512200019N0112651N1+03401+01801999999ADDGA1021+009001999GF102991999999999999999999MA1101391999999REMMET051METAR SBLP 131400Z 14003KT 9999 FEW030 34/18 Q1014;
0120832880999992013021315004-13267-043417FM-15+0443SBLP V0202101N003112200019N0112651N1+03501+01701999999ADDGA1021+009001999GF102991999999999999999999MA1101291999999REMMET051METAR SBLP 131500Z 21006KT 9999 FEW030 35/17 Q1013;
0120832880999992013021316004-13267-043417FM-15+0443SBLP V0209999C000012200019N0112651N1+03601+01801999999ADDGA1021+009001999GF102991999999999999999999MA1101191999999REMMET051METAR SBLP 131600Z 00000KT 9999 FEW030 36/18 Q1012;
0120832880999992013021317004-13267-043417FM-15+0443SBLP V0201901N002612200019N0112651N1+03701+01801999999ADDGA1041+009001999GF104991999999999999999999MA1101081999999REMMET051METAR SBLP 131700Z 19005KT 9999 SCT030 37/18 Q1011;
0120832880999992013021318004-13267-043417FM-15+0443SBLP V0202401N004112200019N0112651N1+03801+01801999999ADDGA1041+009001999GF104991999999999999999999MA1101021999999REMMET051METAR SBLP 131800Z 24008KT 9999 SCT030 38/18 Q1010;
0120832880999992013021319004-13267-043417FM-15+0443SBLP V0202101N005112200019N0112651N1+03801+01601999999ADDGA1041+009001999GF104991999999999999999999MA1100911999999REMMET051METAR SBLP 131900Z 21010KT 9999 SCT030 38/16 Q1009;
0120832880999992013021320004-13267-043417FM-15+0443SBLP V0202301N005112200019N0112651N1+03801+01601999999ADDGA1021+009001999GF102991999999999999999999MA1100911999999REMMET051METAR SBLP 132000Z 23010KT 9999 FEW030 38/16 Q1009;
0120832880999992013021321004-13267-043417FM-15+0443SBLP V0202101N005112200019N0112651N1+03601+01601999999ADDGA1021+009001999GF102991999999999999999999MA1100911999999REMMET051METAR SBLP 132100Z 21010KT 9999 FEW030 36/16 Q1009;
0072832880999992013021409154-13267-043417FM-16+0443SBLP V0201201N002619999999Y0099001N1+02401+01701999999ADDMA1101391999999REMMET045SPECI SBLP 140915Z 12005KT CAVOK 24/17 Q1014;
0072832880999992013021410004-13267-043417FM-15+0443SBLP V0201201N002119999999Y0099001N1+02501+01801999999ADDMA1101391999999REMMET045METAR SBLP 141000Z 12004KT CAVOK 25/18 Q1014;
0072832880999992013021411004-13267-043417FM-15+0443SBLP V0201501N002119999999Y0099001N1+02901+01801999999ADDMA1101491999999REMMET045METAR SBLP 141100Z 15004KT CAVOK 29/18 Q1015;
0072832880999992013021412004-13267-043417FM-15+0443SBLP V0201501N001519999999Y0099001N1+03101+01801999999ADDMA1101491999999REMMET045METAR SBLP 141200Z 15003KT CAVOK 31/18 Q1015;
0121832880999992013021413004-13267-043417FM-15+0443SBLP V0209999C000012200019N0112651N1+03201+01801999999ADDGA1021+009001999GF102991999999999999999999MA1101501999999REMMET052METAR SBLP 141300Z 00000KT 99999 FEW030 32/18 Q1015;
0120832880999992013021414004-13267-043417FM-15+0443SBLP V0202001N002112200019N0112651N1+03401+01901999999ADDGA1021+009001999GF102991999999999999999999MA1101491999999REMMET051METAR SBLP 141400Z 20004KT 9999 FEW030 34/19 Q1015;
0120832880999992013021415004-13267-043417FM-15+0443SBLP V0209999C000012200019N0112651N1+03501+01801999999ADDGA1041+009001999GF104991999999999999999999MA1101391999999REMMET051METAR SBLP 141500Z 00000KT 9999 SCT030 35/18 Q1014;
0120832880999992013021416004-13267-043417FM-15+0443SBLP V0200601N002112200019N0112651N1+03501+01601999999ADDGA1041+009001999GF104991999999999999999999MA1101191999999REMMET051METAR SBLP 141600Z 06004KT 9999 SCT030 35/16 Q1012;
0120832880999992013021418004-13267-043417FM-15+0443SBLP V0201801N003112200019N0112651N1+03801+01501999999ADDGA1041+009001999GF104991999999999999999999MA1101081999999REMMET051METAR SBLP 141800Z 18006KT 9999 SCT030 38/15 Q1011;
0120832880999992013021419004-13267-043417FM-15+0443SBLP V0202701N003112200019N0112651N1+03801+01401999999ADDGA1041+009001999GF104991999999999999999999MA1101021999999REMMET051METAR SBLP 141900Z 27006KT 9999 SCT030 38/14 Q1010;
0120832880999992013021420004-13267-043417FM-15+0443SBLP V0201901N003112200019N0112651N1+03701+01301999999ADDGA1021+009001999GF102991999999999999999999MA1101021999999REMMET051METAR SBLP 142000Z 19006KT 9999 FEW030 37/13 Q1010;
0120832880999992013021421004-13267-043417FM-15+0443SBLP V0201801N002112200019N0112651N1+03601+01401999999ADDGA1021+009001999GF102991999999999999999999MA1101021999999REMMET051METAR SBLP 142100Z 18004KT 9999 FEW030 36/14 Q1010;
0072832880999992013021509154-13267-043417FM-16+0443SBLP V0202101N002119999999Y0099001N1+02201+01601999999ADDMA1101391999999REMMET045SPECI SBLP 150915Z 21004KT CAVOK 22/16 Q1014;
0072832880999992013021510004-13267-043417FM-15+0443SBLP V0202201N001519999999Y0099001N1+02301+01601999999ADDMA1101491999999REMMET045METAR SBLP 151000Z 22003KT CAVOK 23/16 Q1015;
0072832880999992013021511004-13267-043417FM-15+0443SBLP V0209999C000019999999Y0099001N1+02701+01801999999ADDMA1101491999999REMMET045METAR SBLP 151100Z 00000KT CAVOK 27/18 Q1015;
0072832880999992013021512004-13267-043417FM-15+0443SBLP V0201201N003119999999Y0099001N1+03101+01701999999ADDMA1101591999999REMMET045METAR SBLP 151200Z 12006KT CAVOK 31/17 Q1016;
0072832880999992013021513004-13267-043417FM-15+0443SBLP V0201501N003119999999Y0099001N1+03301+01901999999ADDMA1101591999999REMMET045METAR SBLP 151300Z 15006KT CAVOK 33/19 Q1016;
0120832880999992013021514004-13267-043417FM-15+0443SBLP V0201501N002112200019N0112651N1+03401+01601999999ADDGA1021+009001999GF102991999999999999999999MA1101491999999REMMET051METAR SBLP 151400Z 15004KT 9999 FEW030 34/16 Q1015;
0120832880999992013021515004-13267-043417FM-15+0443SBLP V0202101N003112200019N0112651N1+03501+01501999999ADDGA1041+009001999GF104991999999999999999999MA1101391999999REMMET051METAR SBLP 151500Z 21006KT 9999 SCT030 35/15 Q1014;
0120832880999992013021516004-13267-043417FM-15+0443SBLP V0201501N002612200019N0112651N1+03601+01701999999ADDGA1041+009001999GF104991999999999999999999MA1101191999999REMMET051METAR SBLP 151600Z 15005KT 9999 SCT030 36/17 Q1012;
0120832880999992013021518004-13267-043417FM-15+0443SBLP V0209999C000010090019N0112651N1+03701+01601999999ADDGA1071+009001999GF107991999999999999999999MA1101081999999REMMET051METAR SBLP 151800Z 00000KT 9999 BKN030 37/16 Q1011;
0120832880999992013021519004-13267-043417FM-15+0443SBLP V0201801N002112200019N0112651N1+03601+01601999999ADDGA1041+009001999GF104991999999999999999999MA1101021999999REMMET051METAR SBLP 151900Z 18004KT 9999 SCT030 36/16 Q1010;
0120832880999992013021520004-13267-043417FM-15+0443SBLP V0209999C000012200019N0112651N1+03601+01601999999ADDGA1041+009001999GF104991999999999999999999MA1100911999999REMMET051METAR SBLP 152000Z 00000KT 9999 SCT030 36/16 Q1009;
0120832880999992013021521004-13267-043417FM-15+0443SBLP V0201801N002612200019N0112651N1+03601+01501999999ADDGA1021+009001999GF102991999999999999999999MA1100911999999REMMET051METAR SBLP 152100Z 18005KT 9999 FEW030 36/15 Q1009;
0143832880999992013021809154-13267-043417FM-16+0443SBLP V0209999C000012200019N0112651N1+02401+02201999999ADDGA1021+009001999GA2041+030001999GF104991999999999999999999MA1101391999999REMMET058SPECI SBLP 180915Z 00000KT 9999 FEW030 SCT100 24/22 Q1014;
0120832880999992013021810004-13267-043417FM-15+0443SBLP V0209999C000012200019N0112651N1+02501+02101999999ADDGA1021+009001999GF102991999999999999999999MA1101491999999REMMET051METAR SBLP 181000Z 00000KT 9999 FEW030 25/21 Q1015;
0072832880999992013021811004-13267-043417FM-15+0443SBLP V0201001N001519999999Y0099001N1+02801+02101999999ADDMA1101591999999REMMET045METAR SBLP 181100Z 10003KT CAVOK 28/21 Q1016;
0120832880999992013021812004-13267-043417FM-15+0443SBLP V0200301N001512200019N0112651N1+03001+02201999999ADDGA1021+009001999GF102991999999999999999999MA1101591999999REMMET051METAR SBLP 181200Z 03003KT 9999 FEW030 30/22 Q1016;
0120832880999992013021813004-13267-043417FM-15+0443SBLP V0200901N002112200019N0112651N1+03201+02201999999ADDGA1041+009001999GF104991999999999999999999MA1101591999999REMMET051METAR SBLP 181300Z 09004KT 9999 SCT030 32/22 Q1016;
0120832880999992013021814004-13267-043417FM-15+0443SBLP V0200901N001512200019N0112651N1+03301+02001999999ADDGA1041+009001999GF104991999999999999999999MA1101491999999REMMET051METAR SBLP 181400Z 09003KT 9999 SCT030 33/20 Q1015;
0120832880999992013021815004-13267-043417FM-15+0443SBLP V0209999C000012200019N0112651N1+03501+01901999999ADDGA1041+009001999GF104991999999999999999999MA1101391999999REMMET051METAR SBLP 181500Z 00000KT 9999 SCT030 35/19 Q1014;
0120832880999992013021816004-13267-043417FM-15+0443SBLP V0203301N003110090019N0112651N1+03501+01701999999ADDGA1071+009001999GF107991999999999999999999MA1101291999999REMMET051METAR SBLP 181600Z 33006KT 9999 BKN030 35/17 Q1013;
0120832880999992013021817004-13267-043417FM-15+0443SBLP V0202601N003110090019N0112651N1+03601+01701999999ADDGA1071+009001999GF107991999999999999999999MA1101191999999REMMET051METAR SBLP 181700Z 26006KT 9999 BKN030 36/17 Q1012;
0120832880999992013021818004-13267-043417FM-15+0443SBLP V0202501N002610090019N0112651N1+03601+01701999999ADDGA1071+009001999GF107991999999999999999999MA1101081999999REMMET051METAR SBLP 181800Z 25005KT 9999 BKN030 36/17 Q1011;
0120832880999992013021819004-13267-043417FM-15+0443SBLP V0203001N003112200019N0112651N1+03701+01501999999ADDGA1041+009001999GF104991999999999999999999MA1101021999999REMMET051METAR SBLP 181900Z 30006KT 9999 SCT030 37/15 Q1010;
0120832880999992013021820004-13267-043417FM-15+0443SBLP V0209999C000012200019N0112651N1+03601+01601999999ADDGA1041+009001999GF104991999999999999999999MA1100911999999REMMET051METAR SBLP 182000Z 00000KT 9999 SCT030 36/16 Q1009;
0120832880999992013021821004-13267-043417FM-15+0443SBLP V0201501N003112200019N0112651N1+03601+01201999999ADDGA1021+009001999GF102991999999999999999999MA1100911999999REMMET051METAR SBLP 182100Z 15006KT 9999 FEW030 36/12 Q1009;
0072832880999992013021909154-13267-043417FM-16+0443SBLP V0201501N001519999999Y0099001N1+02401+01701999999ADDMA1101391999999REMMET045SPECI SBLP 190915Z 15003KT CAVOK 24/17 Q1014;
0072832880999992013021910004-13267-043417FM-15+0443SBLP V0209999C000019999999Y0099001N1+02401+01801999999ADDMA1101391999999REMMET045METAR SBLP 191000Z 00000KT CAVOK 24/18 Q1014;
0072832880999992013021911004-13267-043417FM-15+0443SBLP V0201401N002119999999Y0099001N1+02801+01801999999ADDMA1101491999999REMMET045METAR SBLP 191100Z 14004KT CAVOK 28/18 Q1015;
0072832880999992013021912004-13267-043417FM-15+0443SBLP V0201701N003119999999Y0099001N1+03001+01701999999ADDMA1101491999999REMMET045METAR SBLP 191200Z 17006KT CAVOK 30/17 Q1015;
0072832880999992013021913004-13267-043417FM-15+0443SBLP V0202001N003119999999Y0099001N1+03201+01601999999ADDMA1101491999999REMMET045METAR SBLP 191300Z 20006KT CAVOK 32/16 Q1015;
0072832880999992013021914004-13267-043417FM-15+0443SBLP V0200901N002119999999Y0099001N1+03301+01601999999ADDMA1101491999999REMMET045METAR SBLP 191400Z 09004KT CAVOK 33/16 Q1015;
0120832880999992013021915004-13267-043417FM-15+0443SBLP V0200901N003112200019N0112651N1+03501+01401999999ADDGA1021+009001999GF102991999999999999999999MA1101391999999REMMET051METAR SBLP 191500Z 09006KT 9999 FEW030 35/14 Q1014;
0120832880999992013021916004-13267-043417FM-15+0443SBLP V0201801N005112200019N0112651N1+03701+01501999999ADDGA1041+009001999GF104991999999999999999999MA1101191999999REMMET051METAR SBLP 191600Z 18010KT 9999 SCT030 37/15 Q1012;
0120832880999992013021917004-13267-043417FM-15+0443SBLP V0201501N005112200019N0112651N1+03701+01301999999ADDGA1041+009001999GF104991999999999999999999MA1101081999999REMMET051METAR SBLP 191700Z 15010KT 9999 SCT030 37/13 Q1011;
0120832880999992013021918004-13267-043417FM-15+0443SBLP V0202101N005112200019N0112651N1+03801+01301999999ADDGA1041+009001999GF104991999999999999999999MA1101021999999REMMET051METAR SBLP 191800Z 21010KT 9999 SCT030 38/13 Q1010;
0120832880999992013021919004-13267-043417FM-15+0443SBLP V0201801N005110090019N0112651N1+03801+01401999999ADDGA1071+009001999GF107991999999999999999999MA1101021999999REMMET051METAR SBLP 191900Z 18010KT 9999 BKN030 38/14 Q1010;
0120832880999992013021920004-13267-043417FM-15+0443SBLP V0201501N005112200019N0112651N1+03801+01501999999ADDGA1041+009001999GF104991999999999999999999MA1100911999999REMMET051METAR SBLP 192000Z 15010KT 9999 SCT030 38/15 Q1009;
0120832880999992013021921004-13267-043417FM-15+0443SBLP V0201501N004112200019N0112651N1+03601+01401999999ADDGA1021+009001999GF102991999999999999999999MA1101021999999REMMET051METAR SBLP 192100Z 15008KT 9999 FEW030 36/14 Q1010;
0072832880999992013022009154-13267-043417FM-16+0443SBLP V0209999C000019999999Y0099001N1+02301+01901999999ADDMA1101391999999REMMET045SPECI SBLP 200915Z 00000KT CAVOK 23/19 Q1014;
0072832880999992013022010004-13267-043417FM-15+0443SBLP V0201501N001519999999Y0099001N1+02401+01801999999ADDMA1101391999999REMMET045METAR SBLP 201000Z 15003KT CAVOK 24/18 Q1014;
0072832880999992013022011004-13267-043417FM-15+0443SBLP V0201701N001519999999Y0099001N1+02701+01901999999ADDMA1101491999999REMMET045METAR SBLP 201100Z 17003KT CAVOK 27/19 Q1015;
0072832880999992013022012004-13267-043417FM-15+0443SBLP V0201301N005119999999Y0099001N1+03001+01801999999ADDMA1101491999999REMMET045METAR SBLP 201200Z 13010KT CAVOK 30/18 Q1015;
0072832880999992013022013004-13267-043417FM-15+0443SBLP V0201501N005119999999Y0099001N1+03201+01601999999ADDMA1101491999999REMMET045METAR SBLP 201300Z 15010KT CAVOK 32/16 Q1015;
0072832880999992013022014004-13267-043417FM-15+0443SBLP V0201201N003119999999Y0099001N1+03201+01501999999ADDMA1101391999999REMMET045METAR SBLP 201400Z 12006KT CAVOK 32/15 Q1014;
0143832880999992013022015004-13267-043417FM-15+0443SBLP V0201801N003112200019N0112651N1+03501+01401999999ADDGA1021+009001999GA2041+030001999GF104991999999999999999999MA1101291999999REMMET058METAR SBLP 201500Z 18006KT 9999 FEW030 SCT100 35/14 Q1013;
0120832880999992013022016004-13267-043417FM-15+0443SBLP V0201201N004112200019N0112651N1+03601+01301999999ADDGA1021+009001999GF102991999999999999999999MA1101191999999REMMET051METAR SBLP 201600Z 12008KT 9999 FEW030 36/13 Q1012;
0120832880999992013022017004-13267-043417FM-15+0443SBLP V0201201N003112200019N0112651N1+03701+01001999999ADDGA1021+009001999GF102991999999999999999999MA1101081999999REMMET051METAR SBLP 201700Z 12006KT 9999 FEW030 37/10 Q1011;
0120832880999992013022018004-13267-043417FM-15+0443SBLP V0201801N005112200019N0112651N1+03601+01401999999ADDGA1041+009001999GF104991999999999999999999MA1101021999999REMMET051METAR SBLP 201800Z 18010KT 9999 SCT030 36/14 Q1010;
0120832880999992013022019004-13267-043417FM-15+0443SBLP V0201901N004112200019N0112651N1+03801+01201999999ADDGA1041+009001999GF104991999999999999999999MA1101021999999REMMET051METAR SBLP 201900Z 19008KT 9999 SCT030 38/12 Q1010;
0120832880999992013022020004-13267-043417FM-15+0443SBLP V0201801N003112200019N0112651N1+03701+01201999999ADDGA1041+009001999GF104991999999999999999999MA1101021999999REMMET051METAR SBLP 202000Z 18006KT 9999 SCT030 37/12 Q1010;
0120832880999992013022021004-13267-043417FM-15+0443SBLP V0201601N004112200019N0112651N1+03601+01201999999ADDGA1021+009001999GF102991999999999999999999MA1101021999999REMMET051METAR SBLP 202100Z 16008KT 9999 FEW030 36/12 Q1010;
0072832880999992013022109154-13267-043417FM-16+0443SBLP V0202001N003119999999Y0099001N1+02301+01801999999ADDMA1101391999999REMMET045SPECI SBLP 210915Z 20006KT CAVOK 23/18 Q1014;
0072832880999992013022110004-13267-043417FM-15+0443SBLP V0201901N004119999999Y0099001N1+02401+01801999999ADDMA1101391999999REMMET045METAR SBLP 211000Z 19008KT CAVOK 24/18 Q1014;
0072832880999992013022111004-13267-043417FM-15+0443SBLP V0202101N005119999999Y0099001N1+02801+01801999999ADDMA1101491999999REMMET045METAR SBLP 211100Z 21010KT CAVOK 28/18 Q1015;
0072832880999992013022112004-13267-043417FM-15+0443SBLP V0201801N003119999999Y0099001N1+03001+01901999999ADDMA1101491999999REMMET045METAR SBLP 211200Z 18006KT CAVOK 30/19 Q1015;
0120832880999992013022113004-13267-043417FM-15+0443SBLP V0201501N003112200019N0112651N1+03101+01801999999ADDGA1021+009001999GF102991999999999999999999MA1101491999999REMMET051METAR SBLP 211300Z 15006KT 9999 FEW030 31/18 Q1015;
0120832880999992013022114004-13267-043417FM-15+0443SBLP V0209999C000012200019N0112651N1+03201+01701999999ADDGA1021+009001999GF102991999999999999999999MA1101391999999REMMET051METAR SBLP 211400Z 00000KT 9999 FEW030 32/17 Q1014;
0120832880999992013022115004-13267-043417FM-15+0443SBLP V0201401N002112200019N0112651N1+03301+01701999999ADDGA1041+009001999GF104991999999999999999999MA1101391999999REMMET051METAR SBLP 211500Z 14004KT 9999 SCT030 33/17 Q1014;
0120832880999992013022116004-13267-043417FM-15+0443SBLP V0200901N005112200019N0112651N1+03401+02001999999ADDGA1041+009001999GF104991999999999999999999MA1101191999999REMMET051METAR SBLP 211600Z 09010KT 9999 SCT030 34/20 Q1012;
0120832880999992013022117004-13267-043417FM-15+0443SBLP V0202101N001512200019N0112651N1+03601+01801999999ADDGA1041+009001999GF104991999999999999999999MA1101081999999REMMET051METAR SBLP 211700Z 21003KT 9999 SCT030 36/18 Q1011;
0120832880999992013022118004-13267-043417FM-15+0443SBLP V0209999C000010090019N0112651N1+03701+01601999999ADDGA1071+009001999GF107991999999999999999999MA1101021999999REMMET051METAR SBLP 211800Z 00000KT 9999 BKN030 37/16 Q1010;
0120832880999992013022119004-13267-043417FM-15+0443SBLP V0201301N004110090019N0112651N1+03601+01801999999ADDGA1071+009001999GF107991999999999999999999MA1101021999999REMMET051METAR SBLP 211900Z 13008KT 9999 BKN030 36/18 Q1010;
0143832880999992013022120004-13267-043417FM-15+0443SBLP V0201301N002612200019N0112651N1+03501+01901999999ADDGA1041+009001999GA2041+030001999GF104991999999999999999999MA1101021999999REMMET058METAR SBLP 212000Z 13005KT 9999 SCT030 SCT100 35/19 Q1010;
0143832880999992013022121004-13267-043417FM-15+0443SBLP V0201501N003610300019N0112651N1+03301+01901999999ADDGA1041+009001999GA2071+030001999GF107991999999999999999999MA1101021999999REMMET058METAR SBLP 212100Z 15007KT 9999 SCT030 BKN100 33/19 Q1010;
0143832880999992013022209154-13267-043417FM-16+0443SBLP V0202101N004112200019N0112651N1+02401+02101999999ADDGA1021+009001999GA2041+030001999GF104991999999999999999999MA1101291999999REMMET058SPECI SBLP 220915Z 21008KT 9999 FEW030 SCT100 24/21 Q1013;
0143832880999992013022210004-13267-043417FM-15+0443SBLP V0209999C000012200019N0112651N1+02401+02101999999ADDGA1021+006001999GA2041+030001999GF104991999999999999999999MA1101391999999REMMET058METAR SBLP 221000Z 00000KT 9999 FEW020 SCT100 24/21 Q1014;
0166832880999992013022211004-13267-043417FM-15+0443SBLP V0202401N00211009001CN0112651N1+02501+02201999999ADDGA1021+006001999GA2041+009001999GA3071+030001999GF107991999999999999999999MA1101491999999REMMET065METAR SBLP 221100Z 24004KT 9999 FEW020 SCT030 BKN100 25/22 Q1015;
0143832880999992013022212004-13267-043417FM-15+0443SBLP V0202101N004110300019N0112651N1+02701+02001999999ADDGA1041+009001999GA2071+030001999GF107991999999999999999999MA1101491999999REMMET058METAR SBLP 221200Z 21008KT 9999 SCT030 BKN100 27/20 Q1015;
0143832880999992013022213004-13267-043417FM-15+0443SBLP V0202001N001510300019N0112651N1+02901+02001999999ADDGA1041+009001999GA2071+030001999GF107991999999999999999999MA1101491999999REMMET058METAR SBLP 221300Z 20003KT 9999 SCT030 BKN100 29/20 Q1015;
0143832880999992013022214004-13267-043417FM-15+0443SBLP V0201901N002112200019N0112651N1+03101+02001999999ADDGA1021+009001999GA2041+030001999GF104991999999999999999999MA1101491999999REMMET058METAR SBLP 221400Z 19004KT 9999 FEW030 SCT100 31/20 Q1015;
0143832880999992013022215004-13267-043417FM-15+0443SBLP V0202101N005110300019N0112651N1+03301+02001999999ADDGA1041+009001999GA2071+030001999GF107991999999999999999999MA1101391999999REMMET058METAR SBLP 221500Z 21010KT 9999 SCT030 BKN100 33/20 Q1014;
0143832880999992013022216004-13267-043417FM-15+0443SBLP V0209999C000010300019N0112651N1+03401+01801999999ADDGA1041+009001999GA2071+030001999GF107991999999999999999999MA1101291999999REMMET058METAR SBLP 221600Z 00000KT 9999 SCT030 BKN100 34/18 Q1013;
0143832880999992013022217004-13267-043417FM-15+0443SBLP V0209999C000010300019N0112651N1+03401+01601999999ADDGA1041+009001999GA2071+030001999GF107991999999999999999999MA1101191999999REMMET058METAR SBLP 221700Z 00000KT 9999 SCT030 BKN100 34/16 Q1012;
0143832880999992013022218004-13267-043417FM-15+0443SBLP V0202701N002112200019N0112651N1+03601+01501999999ADDGA1041+009001999GA2041+030001999GF104991999999999999999999MA1101081999999REMMET058METAR SBLP 221800Z 27004KT 9999 SCT030 SCT100 36/15 Q1011;
0120832880999992013022219004-13267-043417FM-15+0443SBLP V0201501N003112200019N0112651N1+03501+01501999999ADDGA1041+009001999GF104991999999999999999999MA1101021999999REMMET051METAR SBLP 221900Z 15006KT 9999 SCT030 35/15 Q1010;
0120832880999992013022220004-13267-043417FM-15+0443SBLP V0201501N004112200019N0112651N1+03401+01601999999ADDGA1041+009001999GF104991999999999999999999MA1101021999999REMMET051METAR SBLP 222000Z 15008KT 9999 SCT030 34/16 Q1010;
0120832880999992013022221004-13267-043417FM-15+0443SBLP V0201601N003112200019N0112651N1+03401+01601999999ADDGA1021+009001999GF102991999999999999999999MA1101081999999REMMET051METAR SBLP 222100Z 16006KT 9999 FEW030 34/16 Q1011;
0120832880999992013022509154-13267-043417FM-16+0443SBLP V0201801N003112200019N0112651N1+02401+01801999999ADDGA1021+006001999GF102991999999999999999999MA1101291999999REMMET051SPECI SBLP 250915Z 18006KT 9999 FEW020 24/18 Q1013;
0120832880999992013022510004-13267-043417FM-15+0443SBLP V0201901N002112200019N0112651N1+02501+02101999999ADDGA1041+006001999GF104991999999999999999999MA1101391999999REMMET051METAR SBLP 251000Z 19004KT 9999 SCT020 25/21 Q1014;
0120832880999992013022511004-13267-043417FM-15+0443SBLP V0201501N003112200019N0112651N1+02601+01901999999ADDGA1021+006001999GF102991999999999999999999MA1101391999999REMMET051METAR SBLP 251100Z 15006KT 9999 FEW020 26/19 Q1014;
0072832880999992013022512004-13267-043417FM-15+0443SBLP V0201501N003119999999Y0099001N1+03001+01801999999ADDMA1101491999999REMMET045METAR SBLP 251200Z 15006KT CAVOK 30/18 Q1015;
0072832880999992013022513004-13267-043417FM-15+0443SBLP V0201801N003119999999Y0099001N1+03101+01801999999ADDMA1101491999999REMMET045METAR SBLP 251300Z 18006KT CAVOK 31/18 Q1015;
0104832880999992013022514004-13267-043417FM-15+0443SBLP V0201901N004112200019N0112651N1+03301+01801999999ADDGA1021+009001999GF102991999999999999999999REMMET050METAR SBLP 251400Z 19008KT 9999 FEW030 33/18 Q014;
0120832880999992013022515004-13267-043417FM-15+0443SBLP V0202701N004112200019N0112651N1+03401+01801999999ADDGA1021+009001999GF102991999999999999999999MA1101291999999REMMET051METAR SBLP 251500Z 27008KT 9999 FEW030 34/18 Q1013;
0120832880999992013022516004-13267-043417FM-15+0443SBLP V0209999C000012200019N0112651N1+03501+02001999999ADDGA1041+009001999GF104991999999999999999999MA1101191999999REMMET051METAR SBLP 251600Z 00000KT 9999 SCT030 35/20 Q1012;
0120832880999992013022517004-13267-043417FM-15+0443SBLP V0202101N005112200019N0112651N1+03601+01801999999ADDGA1041+009001999GF104991999999999999999999MA1101081999999REMMET051METAR SBLP 251700Z 21010KT 9999 SCT030 36/18 Q1011;
0143832880999992013022518004-13267-043417FM-15+0443SBLP V0202101N001512200019N0112651N1+03601+01701999999ADDGA1041+009001999GA2041+030001999GF104991999999999999999999MA1101021999999REMMET058METAR SBLP 251800Z 21003KT 9999 SCT030 SCT100 36/17 Q1010;
0143832880999992013022519004-13267-043417FM-15+0443SBLP V0202201N002612200019N0112651N1+03701+01601999999ADDGA1041+009001999GA2041+030001999GF104991999999999999999999MA1100911999999REMMET058METAR SBLP 251900Z 22005KT 9999 SCT030 SCT100 37/16 Q1009;
0136832880999992013022520004-13267-043417FM-15+0443SBLP V0201901N00361009001CN0112651N1+03701+01801999999ADDGA1071+009001999GA2041+030001999MA1100911999999REMMET058METAR SBLP 252000Z 19007KT 9999 BKN030 SCT100 37/18 Q1009;EQDQ01+000042SCOTCV
0120832880999992013022521004-13267-043417FM-15+0443SBLP V0201901N005112200019N0112651N1+03401+01701999999ADDGA1021+009001999GF102991999999999999999999MA1100911999999REMMET051METAR SBLP 252100Z 19010KT 9999 FEW030 34/17 Q1009;
0072832880999992013022609154-13267-043417FM-16+0443SBLP V0201801N002619999999Y0099001N1+02401+02101999999ADDMA1101291999999REMMET045SPECI SBLP 260915Z 18005KT CAVOK 24/21 Q1013;
0072832880999992013022610004-13267-043417FM-15+0443SBLP V0201801N003119999999Y0099001N1+02501+02001999999ADDMA1101291999999REMMET045METAR SBLP 261000Z 18006KT CAVOK 25/20 Q1013;
0072832880999992013022611004-13267-043417FM-15+0443SBLP V0201501N002619999999Y0099001N1+02901+02101999999ADDMA1101391999999REMMET045METAR SBLP 261100Z 15005KT CAVOK 29/21 Q1014;
0072832880999992013022612004-13267-043417FM-15+0443SBLP V0201801N004119999999Y0099001N1+03101+02101999999ADDMA1101391999999REMMET045METAR SBLP 261200Z 18008KT CAVOK 31/21 Q1014;
0120832880999992013022613004-13267-043417FM-15+0443SBLP V0209999C000012200019N0112651N1+03301+02001999999ADDGA1021+009001999GF102991999999999999999999MA1101391999999REMMET051METAR SBLP 261300Z 00000KT 9999 FEW030 33/20 Q1014;
0120832880999992013022614004-13267-043417FM-15+0443SBLP V0209999C000012200019N0112651N1+03401+01901999999ADDGA1021+009001999GF102991999999999999999999MA1101391999999REMMET051METAR SBLP 261400Z 00000KT 9999 FEW030 34/19 Q1014;
0120832880999992013022615004-13267-043417FM-15+0443SBLP V0209999C000012200019N0112651N1+03401+01901999999ADDGA1041+009001999GF104991999999999999999999MA1101291999999REMMET051METAR SBLP 261500Z 00000KT 9999 SCT030 34/19 Q1013;
0120832880999992013022616004-13267-043417FM-15+0443SBLP V0203001N004112200019N0112651N1+03601+01801999999ADDGA1041+009001999GF104991999999999999999999MA1101191999999REMMET051METAR SBLP 261600Z 30008KT 9999 SCT030 36/18 Q1012;
0120832880999992013022617004-13267-043417FM-15+0443SBLP V0202201N002110090019N0112651N1+03601+01801999999ADDGA1071+009001999GF107991999999999999999999MA1101081999999REMMET051METAR SBLP 261700Z 22004KT 9999 BKN030 36/18 Q1011;
0120832880999992013022618004-13267-043417FM-15+0443SBLP V0201301N003110090019N0112651N1+03801+01801999999ADDGA1071+009001999GF107991999999999999999999MA1101021999999REMMET051METAR SBLP 261800Z 13006KT 9999 BKN030 38/18 Q1010;
0139832880999992013022619004-13267-043417FM-15+0443SBLP V0200301N00411009001CN0112651N1+03501+01801999999ADDGA1071+009001999GA2021+012001021MA1101021999999REMMET061METAR SBLP 261900Z 03008KT 9999 BKN030 FEW040TCU 35/18 Q1010;EQDQ01+000022SCOTCV
0143832880999992013022620004-13267-043417FM-15+0443SBLP V0202201N003110300019N0112651N1+03401+01801999999ADDGA1041+009001999GA2071+030001999GF107991999999999999999999MA1101021999999REMMET058METAR SBLP 262000Z 22006KT 9999 SCT030 BKN100 34/18 Q1010;
0143832880999992013022621004-13267-043417FM-15+0443SBLP V0201801N003110300019N0112651N1+03301+01801999999ADDGA1021+009001999GA2071+030001999GF107991999999999999999999MA1101021999999REMMET058METAR SBLP 262100Z 18006KT 9999 FEW030 BKN100 33/18 Q1010;
0104832880999992013022709154-13267-043417FM-16+0443SBLP V0201001N001512200019N0112651N1+02401+02001999999ADDGA1021+009001999GF102991999999999999999999REMMET050SPECI SBLP 270915Z 10003KT 9999 FEW030 24/20 1013;
0120832880999992013022710004-13267-043417FM-15+0443SBLP V0200701N003112200019N0112651N1+02601+02001999999ADDGA1021+009001999GF102991999999999999999999MA1101391999999REMMET051METAR SBLP 271000Z 07006KT 9999 FEW030 26/20 Q1014;
0072832880999992013022711004-13267-043417FM-15+0443SBLP V0200501N003119999999Y0099001N1+02701+02001999999ADDMA1101491999999REMMET045METAR SBLP 271100Z 05006KT CAVOK 27/20 Q1015;
0072832880999992013022712004-13267-043417FM-15+0443SBLP V0200701N002119999999Y0099001N1+03101+02001999999ADDMA1101491999999REMMET045METAR SBLP 271200Z 07004KT CAVOK 31/20 Q1015;
0120832880999992013022713004-13267-043417FM-15+0443SBLP V0200601N001512200019N0112651N1+03201+01901999999ADDGA1021+009001999GF102991999999999999999999MA1101491999999REMMET051METAR SBLP 271300Z 06003KT 9999 FEW030 32/19 Q1015;
0120832880999992013022714004-13267-043417FM-15+0443SBLP V0203301N001512200019N0112651N1+03401+01901999999ADDGA1021+009001999GF102991999999999999999999MA1101491999999REMMET051METAR SBLP 271400Z 33003KT 9999 FEW030 34/19 Q1015;
0120832880999992013022715004-13267-043417FM-15+0443SBLP V0200101N003112200019N0112651N1+03501+01901999999ADDGA1041+009001999GF104991999999999999999999MA1101391999999REMMET051METAR SBLP 271500Z 01006KT 9999 SCT030 35/19 Q1014;
0120832880999992013022716004-13267-043417FM-15+0443SBLP V0209999C000012200019N0112651N1+03701+02001999999ADDGA1041+009001999GF104991999999999999999999MA1101291999999REMMET051METAR SBLP 271600Z 00000KT 9999 SCT030 37/20 Q1013;
0120832880999992013022717004-13267-043417FM-15+0443SBLP V0209999C000012200019N0112651N1+03701+01901999999ADDGA1041+009001999GF104991999999999999999999MA1101081999999REMMET051METAR SBLP 271700Z 00000KT 9999 SCT030 37/19 Q1011;
0120832880999992013022718004-13267-043417FM-15+0443SBLP V0202601N004112200019N0112651N1+03801+01701999999ADDGA1041+009001999GF104991999999999999999999MA1101021999999REMMET051METAR SBLP 271800Z 26008KT 9999 SCT030 38/17 Q1010;
0120832880999992013022719004-13267-043417FM-15+0443SBLP V0203101N001512200019N0112651N1+03801+02001999999ADDGA1041+009001999GF104991999999999999999999MA1100911999999REMMET051METAR SBLP 271900Z 31003KT 9999 SCT030 38/20 Q1009;
0143832880999992013022720004-13267-043417FM-15+0443SBLP V0209999C000012200019N0112651N1+03701+01901999999ADDGA1021+009001999GA2041+030001999GF104991999999999999999999MA1100911999999REMMET058METAR SBLP 272000Z 00000KT 9999 FEW030 SCT100 37/19 Q1009;
0143832880999992013022721004-13267-043417FM-15+0443SBLP V0202701N004112200019N0112651N1+03201+02101999999ADDGA1041+009001999GA2041+030001999GF104991999999999999999999MA1100911999999REMMET058METAR SBLP 272100Z 27008KT 9999 SCT030 SCT100 32/21 Q1009;
0054832880999992013022809154-13267-043417FM-16+0443SBLP V0209999C000019999999Y0099001N1+02401+02301999999REMMET045SPECI SBLP 280915Z 00000KT CAVOK 24/23 Q////;
0072832880999992013022810004-13267-043417FM-15+0443SBLP V0209999C000019999999Y0099001N1+02501+02401999999ADDMA1101391999999REMMET045METAR SBLP 281000Z 00000KT CAVOK 25/24 Q1014;
0072832880999992013022811004-13267-043417FM-15+0443SBLP V0209999C000019999999Y0099001N1+02801+02401999999ADDMA1101391999999REMMET045METAR SBLP 281100Z 00000KT CAVOK 28/24 Q1014;
0072832880999992013022812004-13267-043417FM-15+0443SBLP V0209999C000019999999Y0099001N1+03001+02301999999ADDMA1101491999999REMMET045METAR SBLP 281200Z 00000KT CAVOK 30/23 Q1015;
0120832880999992013022813004-13267-043417FM-15+0443SBLP V0209999C000012200019N0112651N1+03101+02201999999ADDGA1021+009001999GF102991999999999999999999MA1101491999999REMMET051METAR SBLP 281300Z 00000KT 9999 FEW030 31/22 Q1015;
0121832880999992013022814004-13267-043417FM-15+0443SBLP V0202101N002112200019N0112651N1+03301+02101999999ADDGA1021+009001999GF102991999999999999999999MA1101401999999REMMET052METAR SBLP 281400Z 21004KT 9999 SFEW030 33/21 Q1014;
0120832880999992013022815004-13267-043417FM-15+0443SBLP V0209999C000012200019N0112651N1+03401+02101999999ADDGA1041+009001999GF104991999999999999999999MA1101291999999REMMET051METAR SBLP 281500Z 00000KT 9999 SCT030 34/21 Q1013;
0120832880999992013022816004-13267-043417FM-15+0443SBLP V0209999C000012200019N0112651N1+03501+01901999999ADDGA1041+027001999GF104991999999999999999999MA1101191999999REMMET051METAR SBLP 281600Z 00000KT 9999 SCT090 35/19 Q1012;
0120832880999992013022817004-13267-043417FM-15+0443SBLP V0202401N003112200019N0112651N1+03601+02001999999ADDGA1041+009001999GF104991999999999999999999MA1101021999999REMMET051METAR SBLP 281700Z 24006KT 9999 SCT030 36/20 Q1010;
0120832880999992013022818004-13267-043417FM-15+0443SBLP V0209999C000012200019N0112651N1+03501+01801999999ADDGA1041+009001999GF104991999999999999999999MA1100911999999REMMET051METAR SBLP 281800Z 00000KT 9999 SCT030 35/18 Q1009;
0143832880999992013022819004-13267-043417FM-15+0443SBLP V0202501N002112200019N0112651N1+03501+01901999999ADDGA1021+009001999GA2041+030001999GF104991999999999999999999MA1100811999999REMMET058METAR SBLP 281900Z 25004KT 9999 FEW030 SCT100 35/19 Q1008;
0143832880999992013022820004-13267-043417FM-15+0443SBLP V0202501N003110300019N0112651N1+03201+02101999999ADDGA1021+009001999GA2071+030001999GF107991999999999999999999MA1100811999999REMMET058METAR SBLP 282000Z 25006KT 9999 FEW030 BKN100 32/21 Q1008;
0143832880999992013022821004-13267-043417FM-15+0443SBLP V0209999C000010300019N0112651N1+03101+02101999999ADDGA1021+009001999GA2071+030001999GF107991999999999999999999MA1100911999999REMMET058METAR SBLP 282100Z 00000KT 9999 FEW030 BKN100 31/21 Q1009;
0072832880999992013030109154-13267-043417FM-16+0443SBLP V0202201N001519999999Y0099001N1+02201+02101999999ADDMA1101191999999REMMET045SPECI SBLP 010915Z 22003KT CAVOK 22/21 Q1012;
0072832880999992013030110004-13267-043417FM-15+0443SBLP V0209999C000019999999Y0099001N1+02301+02101999999ADDMA1101291999999REMMET045METAR SBLP 011000Z 00000KT CAVOK 23/21 Q1013;
0072832880999992013030111004-13267-043417FM-15+0443SBLP V0209999C000019999999Y0099001N1+02601+02101999999ADDMA1101291999999REMMET045METAR SBLP 011100Z 00000KT CAVOK 26/21 Q1013;
0072832880999992013030112004-13267-043417FM-15+0443SBLP V0201301N003119999999Y0099001N1+03001+01901999999ADDMA1101291999999REMMET045METAR SBLP 011200Z 13006KT CAVOK 30/19 Q1013;
0072832880999992013030113004-13267-043417FM-15+0443SBLP V0209999C000019999999Y0099001N1+03101+01901999999ADDMA1101391999999REMMET045METAR SBLP 011300Z 00000KT CAVOK 31/19 Q1014;
0104832880999992013030114004-13267-043417FM-15+0443SBLP V0201201N003112200019N0112651N1+03401+01601999999ADDGA1021+009001999GF102991999999999999999999REMMET050METAR SBLP 011400Z 12006KT 9999 FEW030 34/16 1014;
0120832880999992013030115004-13267-043417FM-15+0443SBLP V0201201N003112200019N0112651N1+03401+01701999999ADDGA1021+009001999GF102991999999999999999999MA1101291999999REMMET051METAR SBLP 011500Z 12006KT 9999 FEW030 34/17 Q1013;
0120832880999992013030116004-13267-043417FM-15+0443SBLP V0202601N002612200019N0112651N1+03401+01601999999ADDGA1021+009001999GF102991999999999999999999MA1101191999999REMMET051METAR SBLP 011600Z 26005KT 9999 FEW030 34/16 Q1012;
0120832880999992013030117004-13267-043417FM-15+0443SBLP V0201801N001512200019N0112651N1+03601+01401999999ADDGA1021+009001999GF102991999999999999999999MA1101081999999REMMET051METAR SBLP 011700Z 18003KT 9999 FEW030 36/14 Q1011;
0120832880999992013030118004-13267-043417FM-15+0443SBLP V0203001N002112200019N0112651N1+03701+01401999999ADDGA1021+009001999GF102991999999999999999999MA1100911999999REMMET051METAR SBLP 011800Z 30004KT 9999 FEW030 37/14 Q1009;
0120832880999992013030119004-13267-043417FM-15+0443SBLP V0202401N003112200019N0112651N1+03701+01201999999ADDGA1021+009001999GF102991999999999999999999MA1100811999999REMMET051METAR SBLP 011900Z 24006KT 9999 FEW030 37/12 Q1008;
0120832880999992013030120004-13267-043417FM-15+0443SBLP V0202701N001512200019N0112651N1+03701+01101999999ADDGA1021+009001999GF102991999999999999999999MA1100811999999REMMET051METAR SBLP 012000Z 27003KT 9999 FEW030 37/11 Q1008;
0120832880999992013030121004-13267-043417FM-15+0443SBLP V0201801N001512200019N0112651N1+03601+01101999999ADDGA1021+009001999GF102991999999999999999999MA1100811999999REMMET051METAR SBLP 012100Z 18003KT 9999 FEW030 36/11 Q1008;
0072832880999992013030409154-13267-043417FM-16+0443SBLP V0209999C000019999999Y0099001N1+02301+01801999999ADDMA1101491999999REMMET045SPECI SBLP 040915Z 00000KT CAVOK 23/18 Q1015;
0072832880999992013030410004-13267-043417FM-15+0443SBLP V0209999C000019999999Y0099001N1+02401+01801999999ADDMA1101591999999REMMET045METAR SBLP 041000Z 00000KT CAVOK 24/18 Q1016;
0072832880999992013030411004-13267-043417FM-15+0443SBLP V0201201N003119999999Y0099001N1+02801+01801999999ADDMA1101691999999REMMET045METAR SBLP 041100Z 12006KT CAVOK 28/18 Q1017;
0072832880999992013030412004-13267-043417FM-15+0443SBLP V0201201N003119999999Y0099001N1+03001+01801999999ADDMA1101691999999REMMET045METAR SBLP 041200Z 12006KT CAVOK 30/18 Q1017;
0072832880999992013030413004-13267-043417FM-15+0443SBLP V0201201N002119999999Y0099001N1+03201+01701999999ADDMA1101591999999REMMET045METAR SBLP 041300Z 12004KT CAVOK 32/17 Q1016;
0072832880999992013030414004-13267-043417FM-15+0443SBLP V0201601N001519999999Y0099001N1+03401+01801999999ADDMA1101491999999REMMET045METAR SBLP 041400Z 16003KT CAVOK 34/18 Q1015;
0072832880999992013030415004-13267-043417FM-15+0443SBLP V0201801N003119999999Y0099001N1+03501+01801999999ADDMA1101391999999REMMET045METAR SBLP 041500Z 18006KT CAVOK 35/18 Q1014;
0120832880999992013030416004-13267-043417FM-15+0443SBLP V0202101N003112200019N0112651N1+03601+01501999999ADDGA1021+009001999GF102991999999999999999999MA1101291999999REMMET051METAR SBLP 041600Z 21006KT 9999 FEW030 36/15 Q1013;
0120832880999992013030417004-13267-043417FM-15+0443SBLP V0202401N003112200019N0112651N1+03701+01501999999ADDGA1021+009001999GF102991999999999999999999MA1101191999999REMMET051METAR SBLP 041700Z 24006KT 9999 FEW030 37/15 Q1012;
0120832880999992013030418004-13267-043417FM-15+0443SBLP V0202101N002112200019N0112651N1+03801+01201999999ADDGA1021+009001999GF102991999999999999999999MA1101021999999REMMET051METAR SBLP 041800Z 21004KT 9999 FEW030 38/12 Q1010;
0120832880999992013030419004-13267-043417FM-15+0443SBLP V0202801N003112200019N0112651N1+03801+01301999999ADDGA1041+009001999GF104991999999999999999999MA1101021999999REMMET051METAR SBLP 041900Z 28006KT 9999 SCT030 38/13 Q1010;
0120832880999992013030420004-13267-043417FM-15+0443SBLP V0202501N003112200019N0112651N1+03701+01301999999ADDGA1041+009001999GF104991999999999999999999MA1101021999999REMMET051METAR SBLP 042000Z 25006KT 9999 SCT030 37/13 Q1010;
0120832880999992013030421004-13267-043417FM-15+0443SBLP V0202101N001512200019N0112651N1+03601+01401999999ADDGA1041+009001999GF104991999999999999999999MA1101021999999REMMET051METAR SBLP 042100Z 21003KT 9999 SCT030 36/14 Q1010;
0072832880999992013030509154-13267-043417FM-16+0443SBLP V0201201N002119999999Y0099001N1+02301+01501999999ADDMA1101391999999REMMET045SPECI SBLP 050915Z 12004KT CAVOK 23/15 Q1014;
0072832880999992013030510004-13267-043417FM-15+0443SBLP V0201201N002119999999Y0099001N1+02401+01501999999ADDMA1101391999999REMMET045METAR SBLP 051000Z 12004KT CAVOK 24/15 Q1014;
0072832880999992013030511004-13267-043417FM-15+0443SBLP V0201301N003119999999Y0099001N1+02801+01701999999ADDMA1101491999999REMMET045METAR SBLP 051100Z 13006KT CAVOK 28/17 Q1015;
0072832880999992013030512004-13267-043417FM-15+0443SBLP V0201001N003119999999Y0099001N1+03101+01701999999ADDMA1101491999999REMMET045METAR SBLP 051200Z 10006KT CAVOK 31/17 Q1015;
0072832880999992013030513004-13267-043417FM-15+0443SBLP V0200901N002119999999Y0099001N1+03301+01601999999ADDMA1101491999999REMMET045METAR SBLP 051300Z 09004KT CAVOK 33/16 Q1015;
0072832880999992013030514004-13267-043417FM-15+0443SBLP V0201801N002619999999Y0099001N1+03501+01601999999ADDMA1101491999999REMMET045METAR SBLP 051400Z 18005KT CAVOK 35/16 Q1015;
0120832880999992013030515004-13267-043417FM-15+0443SBLP V0202701N002112200019N0112651N1+03501+01701999999ADDGA1021+009001999GF102991999999999999999999MA1101291999999REMMET051METAR SBLP 051500Z 27004KT 9999 FEW030 35/17 Q1013;
0120832880999992013030516004-13267-043417FM-15+0443SBLP V0201901N002612200019N0112651N1+03801+01901999999ADDGA1041+009001999GF104991999999999999999999MA1101191999999REMMET051METAR SBLP 051600Z 19005KT 9999 SCT030 38/19 Q1012;
0120832880999992013030517004-13267-043417FM-15+0443SBLP V0209999C000012200019N0112651N1+03901+01601999999ADDGA1041+009001999GF104991999999999999999999MA1101021999999REMMET051METAR SBLP 051700Z 00000KT 9999 SCT030 39/16 Q1010;
0120832880999992013030518004-13267-043417FM-15+0443SBLP V0201801N001512200019N0112651N1+03901+01801999999ADDGA1041+009001999GF104991999999999999999999MA1100911999999REMMET051METAR SBLP 051800Z 18003KT 9999 SCT030 39/18 Q1009;
0120832880999992013030519004-13267-043417FM-15+0443SBLP V0209999C000010090019N0112651N1+03901+01501999999ADDGA1071+009001999GF107991999999999999999999MA1100911999999REMMET051METAR SBLP 051900Z 00000KT 9999 BKN030 39/15 Q1009;
0120832880999992013030520004-13267-043417FM-15+0443SBLP V0209999C000010090019N0112651N1+03901+01701999999ADDGA1071+009001999GF107991999999999999999999MA1100911999999REMMET051METAR SBLP 052000Z 00000KT 9999 BKN030 39/17 Q1009;
0120832880999992013030521004-13267-043417FM-15+0443SBLP V0202401N002112200019N0112651N1+03701+01701999999ADDGA1041+009001999GF104991999999999999999999MA1100911999999REMMET051METAR SBLP 052100Z 24004KT 9999 SCT030 37/17 Q1009;
0072832880999992013030609154-13267-043417FM-16+0443SBLP V0201301N002119999999Y0099001N1+02601+01701999999ADDMA1101391999999REMMET045SPECI SBLP 060915Z 13004KT CAVOK 26/17 Q1014;
0072832880999992013030610004-13267-043417FM-15+0443SBLP V0201301N001519999999Y0099001N1+02601+01701999999ADDMA1101391999999REMMET045METAR SBLP 061000Z 13003KT CAVOK 26/17 Q1014;
0072832880999992013030611004-13267-043417FM-15+0443SBLP V0201201N002119999999Y0099001N1+03001+01801999999ADDMA1101491999999REMMET045METAR SBLP 061100Z 12004KT CAVOK 30/18 Q1015;
0072832880999992013030612004-13267-043417FM-15+0443SBLP V0201201N002619999999Y0099001N1+03201+01901999999ADDMA1101491999999REMMET045METAR SBLP 061200Z 12005KT CAVOK 32/19 Q1015;
0072832880999992013030613004-13267-043417FM-15+0443SBLP V0201501N001019999999Y0099001N1+03301+01801999999ADDMA1101491999999REMMET045METAR SBLP 061300Z 15002KT CAVOK 33/18 Q1015;
0120832880999992013030614004-13267-043417FM-15+0443SBLP V0201501N003112200019N0112651N1+03501+01801999999ADDGA1021+009001999GF102991999999999999999999MA1101391999999REMMET051METAR SBLP 061400Z 15006KT 9999 FEW030 35/18 Q1014;
0120832880999992013030615004-13267-043417FM-15+0443SBLP V0203001N001512200019N0112651N1+03601+01801999999ADDGA1021+009001999GF102991999999999999999999MA1101291999999REMMET051METAR SBLP 061500Z 30003KT 9999 FEW030 36/18 Q1013;
0120832880999992013030616004-13267-043417FM-15+0443SBLP V0209999C000012200019N0112651N1+03701+01901999999ADDGA1041+009001999GF104991999999999999999999MA1101081999999REMMET051METAR SBLP 061600Z 00000KT 9999 SCT030 37/19 Q1011;
0120832880999992013030617004-13267-043417FM-15+0443SBLP V0202101N002112200019N0112651N1+03801+01901999999ADDGA1041+009001999GF104991999999999999999999MA1101021999999REMMET051METAR SBLP 061700Z 21004KT 9999 SCT030 38/19 Q1010;
0120832880999992013030618004-13267-043417FM-15+0443SBLP V0202401N002112200019N0112651N1+03801+01801999999ADDGA1041+009001999GF104991999999999999999999MA1100911999999REMMET051METAR SBLP 061800Z 24004KT 9999 SCT030 38/18 Q1009;
0120832880999992013030619004-13267-043417FM-15+0443SBLP V0202101N004112200019N0112651N1+04001+01601999999ADDGA1041+009001999GF104991999999999999999999MA1100811999999REMMET051METAR SBLP 061900Z 21008KT 9999 SCT030 40/16 Q1008;
0120832880999992013030620004-13267-043417FM-15+0443SBLP V0202101N002112200019N0112651N1+03701+01501999999ADDGA1041+009001999GF104991999999999999999999MA1100811999999REMMET051METAR SBLP 062000Z 21004KT 9999 SCT030 37/15 Q1008;
0120832880999992013030621004-13267-043417FM-15+0443SBLP V0209999C000012200019N0112651N1+03601+01701999999ADDGA1021+009001999GF102991999999999999999999MA1100811999999REMMET051METAR SBLP 062100Z 00000KT 9999 FEW030 36/17 Q1008;
0072832880999992013030709154-13267-043417FM-16+0443SBLP V0209999C000019999999Y0099001N1+02501+01801999999ADDMA1101391999999REMMET045SPECI SBLP 070915Z 00000KT CAVOK 25/18 Q1014;
0072832880999992013030710004-13267-043417FM-15+0443SBLP V0209999C000019999999Y0099001N1+02601+01901999999ADDMA1101491999999REMMET045METAR SBLP 071000Z 00000KT CAVOK 26/19 Q1015;
0072832880999992013030711004-13267-043417FM-15+0443SBLP V0201501N002119999999Y0099001N1+03001+01901999999ADDMA1101591999999REMMET045METAR SBLP 071100Z 15004KT CAVOK 30/19 Q1016;
0072832880999992013030712004-13267-043417FM-15+0443SBLP V0201601N001519999999Y0099001N1+03201+01901999999ADDMA1101591999999REMMET045METAR SBLP 071200Z 16003KT CAVOK 32/19 Q1016;
0072832880999992013030713004-13267-043417FM-15+0443SBLP V0201201N002619999999Y0099001N1+03401+01701999999ADDMA1101591999999REMMET045METAR SBLP 071300Z 12005KT CAVOK 34/17 Q1016;
0072832880999992013030714004-13267-043417FM-15+0443SBLP V0202001N002119999999Y0099001N1+03501+01501999999ADDMA1101591999999REMMET045METAR SBLP 071400Z 20004KT CAVOK 35/15 Q1016;
0120832880999992013030715004-13267-043417FM-15+0443SBLP V0201901N004612200019N0112651N1+03601+01701999999ADDGA1021+009001999GF102991999999999999999999MA1101491999999REMMET051METAR SBLP 071500Z 19009KT 9999 FEW030 36/17 Q1015;
0120832880999992013030716004-13267-043417FM-15+0443SBLP V0201801N003112200019N0112651N1+03701+01601999999ADDGA1041+009001999GF104991999999999999999999MA1101291999999REMMET051METAR SBLP 071600Z 18006KT 9999 SCT030 37/16 Q1013;
0120832880999992013030717004-13267-043417FM-15+0443SBLP V0201801N001512200019N0112651N1+03801+01401999999ADDGA1041+009001999GF104991999999999999999999MA1101191999999REMMET051METAR SBLP 071700Z 18003KT 9999 SCT030 38/14 Q1012;
0120832880999992013030718004-13267-043417FM-15+0443SBLP V0201201N003112200019N0112651N1+03901+01501999999ADDGA1041+009001999GF104991999999999999999999MA1101021999999REMMET051METAR SBLP 071800Z 12006KT 9999 SCT030 39/15 Q1010;
0120832880999992013030719004-13267-043417FM-15+0443SBLP V0201901N003112200019N0112651N1+04001+01101999999ADDGA1041+009001999GF104991999999999999999999MA1100911999999REMMET051METAR SBLP 071900Z 19006KT 9999 SCT030 40/11 Q1009;
0120832880999992013030720004-13267-043417FM-15+0443SBLP V0202001N003112200019N0112651N1+03801+01101999999ADDGA1021+009001999GF102991999999999999999999MA1100911999999REMMET051METAR SBLP 072000Z 20006KT 9999 FEW030 38/11 Q1009;
0120832880999992013030721004-13267-043417FM-15+0443SBLP V0201801N002612200019N0112651N1+03601+01401999999ADDGA1021+009001999GF102991999999999999999999MA1101021999999REMMET051METAR SBLP 072100Z 18005KT 9999 FEW030 36/14 Q1010;
0072832880999992013030809154-13267-043417FM-16+0443SBLP V0209999C000019999999Y0099001N1+02301+01501999999ADDMA1101591999999REMMET045SPECI SBLP 080915Z 00000KT CAVOK 23/15 Q1016;
0072832880999992013030810004-13267-043417FM-15+0443SBLP V0209999C000019999999Y0099001N1+02401+01501999999ADDMA1101591999999REMMET045METAR SBLP 081000Z 00000KT CAVOK 24/15 Q1016;
0072832880999992013030811004-13267-043417FM-15+0443SBLP V0209999C000019999999Y0099001N1+02801+01901999999ADDMA1101691999999REMMET045METAR SBLP 081100Z 00000KT CAVOK 28/19 Q1017;
0072832880999992013030812004-13267-043417FM-15+0443SBLP V0201201N001519999999Y0099001N1+03301+01701999999ADDMA1101801999999REMMET045METAR SBLP 081200Z 12003KT CAVOK 33/17 Q1018;
0072832880999992013030813004-13267-043417FM-15+0443SBLP V0200901N001519999999Y0099001N1+03301+01801999999ADDMA1101801999999REMMET045METAR SBLP 081300Z 09003KT CAVOK 33/18 Q1018;
0072832880999992013030814004-13267-043417FM-15+0443SBLP V0209999C000019999999Y0099001N1+03301+01801999999ADDMA1101691999999REMMET045METAR SBLP 081400Z 00000KT CAVOK 33/18 Q1017;
0072832880999992013030815004-13267-043417FM-15+0443SBLP V0209999C000019999999Y0099001N1+03301+01801999999ADDMA1101591999999REMMET045METAR SBLP 081500Z 00000KT CAVOK 33/18 Q1016;
0120832880999992013030816004-13267-043417FM-15+0443SBLP V0202901N003112200019N0112651N1+03601+01401999999ADDGA1021+009001999GF102991999999999999999999MA1101391999999REMMET051METAR SBLP 081600Z 29006KT 9999 FEW030 36/14 Q1014;
0120832880999992013030817004-13267-043417FM-15+0443SBLP V0202901N003612200019N0112651N1+03701+01401999999ADDGA1041+009001999GF104991999999999999999999MA1101291999999REMMET051METAR SBLP 081700Z 29007KT 9999 SCT030 37/14 Q1013;
0120832880999992013030818004-13267-043417FM-15+0443SBLP V0203401N003112200019N0112651N1+03801+01401999999ADDGA1041+009001999GF104991999999999999999999MA1101191999999REMMET051METAR SBLP 081800Z 34006KT 9999 SCT030 38/14 Q1012;
0120832880999992013030819004-13267-043417FM-15+0443SBLP V0202701N004112200019N0112651N1+03801+01201999999ADDGA1041+009001999GF104991999999999999999999MA1101081999999REMMET051METAR SBLP 081900Z 27008KT 9999 SCT030 38/12 Q1011;
0120832880999992013030820004-13267-043417FM-15+0443SBLP V0202101N004112200019N0112651N1+03801+01301999999ADDGA1041+009001999GF104991999999999999999999MA1101081999999REMMET051METAR SBLP 082000Z 21008KT 9999 SCT030 38/13 Q1011;
0120832880999992013030821004-13267-043417FM-15+0443SBLP V0202101N003112200019N0112651N1+03601+01201999999ADDGA1021+009001999GF102991999999999999999999MA1101081999999REMMET051METAR SBLP 082100Z 21006KT 9999 FEW030 36/12 Q1011;
0120832880999992013031109154-13267-043417FM-16+0443SBLP V0209999C000012200019N0112651N1+02701+01601999999ADDGA1041+006001999GF104991999999999999999999MA1101081999999REMMET051SPECI SBLP 110915Z 00000KT 9999 SCT020 27/16 Q1011;
0120832880999992013031110004-13267-043417FM-15+0443SBLP V0209999C000012200019N0112651N1+02701+01801999999ADDGA1041+006001999GF104991999999999999999999MA1101191999999REMMET051METAR SBLP 111000Z 00000KT 9999 SCT020 27/18 Q1012;
0143832880999992013031111004-13267-043417FM-15+0443SBLP V0209999C000012200019N0112651N1+02801+01801999999ADDGA1021+006001999GA2041+009001999GF104991999999999999999999MA1101291999999REMMET058METAR SBLP 111100Z 00000KT 9999 FEW020 SCT030 28/18 Q1013;
0120832880999992013031112004-13267-043417FM-15+0443SBLP V0201001N002112200019N0112651N1+03201+01701999999ADDGA1021+009001999GF102991999999999999999999MA1101291999999REMMET051METAR SBLP 111200Z 10004KT 9999 FEW030 32/17 Q1013;
0143832880999992013031113004-13267-043417FM-15+0443SBLP V0203301N003112200019N0112651N1+03501+01801999999ADDGA1021+009001999GA2041+030001999GF104991999999999999999999MA1101291999999REMMET058METAR SBLP 111300Z 33006KT 9999 FEW030 SCT100 35/18 Q1013;
0120832880999992013031114004-13267-043417FM-15+0443SBLP V0200101N003112200019N0112651N1+03601+01701999999ADDGA1021+009001999GF102991999999999999999999MA1101191999999REMMET051METAR SBLP 111400Z 01006KT 9999 FEW030 36/17 Q1012;
0120832880999992013031115004-13267-043417FM-15+0443SBLP V0200301N003112200019N0112651N1+03701+01601999999ADDGA1041+009001999GF104991999999999999999999MA1101081999999REMMET051METAR SBLP 111500Z 03006KT 9999 SCT030 37/16 Q1011;
0120832880999992013031116004-13267-043417FM-15+0443SBLP V0200801N002112200019N0112651N1+03901+01801999999ADDGA1041+009001999GF104991999999999999999999MA1101021999999REMMET051METAR SBLP 111600Z 08004KT 9999 SCT030 39/18 Q1010;
0120832880999992013031117004-13267-043417FM-15+0443SBLP V0203601N004612200019N0112651N1+03901+01601999999ADDGA1041+009001999GF104991999999999999999999MA1100811999999REMMET051METAR SBLP 111700Z 36009KT 9999 SCT030 39/16 Q1008;
0120832880999992013031118004-13267-043417FM-15+0443SBLP V0209999C000012200019N0112651N1+03901+01801999999ADDGA1041+009001999GF104991999999999999999999MA1100711999999REMMET051METAR SBLP 111800Z 00000KT 9999 SCT030 39/18 Q1007;
0143832880999992013031119004-13267-043417FM-15+0443SBLP V0200301N002612200019N0112651N1+03901+01701999999ADDGA1021+009001999GA2041+030001999GF104991999999999999999999MA1100611999999REMMET058METAR SBLP 111900Z 03005KT 9999 FEW030 SCT100 39/17 Q1006;
0120832880999992013031120004-13267-043417FM-15+0443SBLP V0203601N002112200019N0112651N1+03901+01701999999ADDGA1021+009001999GF102991999999999999999999MA1100611999999REMMET051METAR SBLP 112000Z 36004KT 9999 FEW030 39/17 Q1006;
0143832880999992013031121004-13267-043417FM-15+0443SBLP V0200201N005112200019N0112651N1+03701+01901999999ADDGA1021+009001999GA2041+030001999GF104991999999999999999999MA1100711999999REMMET058METAR SBLP 112100Z 02010KT 9999 FEW030 SCT100 37/19 Q1007;
0072832880999992013031209154-13267-043417FM-16+0443SBLP V0209999C000019999999Y0099001N1+02501+02201999999ADDMA1101081999999REMMET045SPECI SBLP 120915Z 00000KT CAVOK 25/22 Q1011;
0072832880999992013031210004-13267-043417FM-15+0443SBLP V0209999C000019999999Y0099001N1+02601+02201999999ADDMA1101191999999REMMET045METAR SBLP 121000Z 00000KT CAVOK 26/22 Q1012;
0072832880999992013031211004-13267-043417FM-15+0443SBLP V0209999C000019999999Y0099001N1+02801+02201999999ADDMA1101291999999REMMET045METAR SBLP 121100Z 00000KT CAVOK 28/22 Q1013;
0072832880999992013031212004-13267-043417FM-15+0443SBLP V0209999C000019999999Y0099001N1+03201+02201999999ADDMA1101291999999REMMET045METAR SBLP 121200Z 00000KT CAVOK 32/22 Q1013;
0072832880999992013031213004-13267-043417FM-15+0443SBLP V0209999C000019999999Y0099001N1+03401+01901999999ADDMA1101291999999REMMET045METAR SBLP 121300Z 00000KT CAVOK 34/19 Q1013;
0072832880999992013031214004-13267-043417FM-15+0443SBLP V0200801N003119999999Y0099001N1+03601+01801999999ADDMA1101191999999REMMET045METAR SBLP 121400Z 08006KT CAVOK 36/18 Q1012;
0120832880999992013031215004-13267-043417FM-15+0443SBLP V0200301N002112200019N0112651N1+03801+02001999999ADDGA1041+009001999GF104991999999999999999999MA1101081999999REMMET051METAR SBLP 121500Z 03004KT 9999 SCT030 38/20 Q1011;
0120832880999992013031216004-13267-043417FM-15+0443SBLP V0200601N002112200019N0112651N1+03801+01801999999ADDGA1041+009001999GF104991999999999999999999MA1101021999999REMMET051METAR SBLP 121600Z 06004KT 9999 SCT030 38/18 Q1010;
0120832880999992013031217004-13267-043417FM-15+0443SBLP V0203401N003112200019N0112651N1+03901+01701999999ADDGA1041+009001999GF104991999999999999999999MA1100811999999REMMET051METAR SBLP 121700Z 34006KT 9999 SCT030 39/17 Q1008;
0147832880999992013031218004-13267-043417FM-15+0443SBLP V0201201N00621009001CN0112651N1+03601+01801999999ADDGA1071+009001999GA2021+012001091MA1100811999999MW1171REMMET063METAR SBLP 121800Z 12012KT 9999 TS BKN030 FEW040CB 36/18 Q1008;EQDQ01+000022SCOTCV
0148832880999992013031219004-13267-043417FM-15+0443SBLP V0201501N002110300019N0112651N1+03401+01601999999ADDGA1041+009001999GA2071+030001999GF107991999999999999999999MA1100711999999REMMET063METAR SBLP 121900Z 15004KT 9999 SCT030 BKN100 34/16 Q1007 RETS;
0143832880999992013031220004-13267-043417FM-15+0443SBLP V0201301N003110300019N0112651N1+03601+01601999999ADDGA1021+009001999GA2071+030001999GF107991999999999999999999MA1100711999999REMMET058METAR SBLP 122000Z 13006KT 9999 FEW030 BKN100 36/16 Q1007;
0143832880999992013031221004-13267-043417FM-15+0443SBLP V0201501N003112200019N0112651N1+03501+01801999999ADDGA1021+009001999GA2041+030001999GF104991999999999999999999MA1100711999999REMMET058METAR SBLP 122100Z 15006KT 9999 FEW030 SCT100 35/18 Q1007;
0072832880999992013031309154-13267-043417FM-16+0443SBLP V0201501N003119999999Y0099001N1+02601+02401999999ADDMA1101081999999REMMET045SPECI SBLP 130915Z 15006KT CAVOK 26/24 Q1011;
0072832880999992013031310004-13267-043417FM-15+0443SBLP V0209999C000019999999Y0099001N1+02601+02301999999ADDMA1101191999999REMMET045METAR SBLP 131000Z 00000KT CAVOK 26/23 Q1012;
0072832880999992013031311004-13267-043417FM-15+0443SBLP V0200601N001519999999Y0099001N1+02801+02201999999ADDMA1101291999999REMMET045METAR SBLP 131100Z 06003KT CAVOK 28/22 Q1013;
0072832880999992013031312004-13267-043417FM-15+0443SBLP V0200201N003119999999Y0099001N1+03001+02301999999ADDMA1101291999999REMMET045METAR SBLP 131200Z 02006KT CAVOK 30/23 Q1013;
0120832880999992013031313004-13267-043417FM-15+0443SBLP V0201501N001512200019N0112651N1+03401+02001999999ADDGA1021+009001999GF102991999999999999999999MA1101291999999REMMET051METAR SBLP 131300Z 15003KT 9999 FEW030 34/20 Q1013;
0120832880999992013031314004-13267-043417FM-15+0443SBLP V0209999C000012200019N0112651N1+03401+02001999999ADDGA1021+009001999GF102991999999999999999999MA1101291999999REMMET051METAR SBLP 131400Z 00000KT 9999 FEW030 34/20 Q1013;
0120832880999992013031315004-13267-043417FM-15+0443SBLP V0202601N003112200019N0112651N1+03501+02001999999ADDGA1041+009001999GF104991999999999999999999MA1101191999999REMMET051METAR SBLP 131500Z 26006KT 9999 SCT030 35/20 Q1012;
0120832880999992013031316004-13267-043417FM-15+0443SBLP V0202701N003112200019N0112651N1+03701+01901999999ADDGA1041+009001999GF104991999999999999999999MA1101021999999REMMET051METAR SBLP 131600Z 27006KT 9999 SCT030 37/19 Q1010;
0120832880999992013031317004-13267-043417FM-15+0443SBLP V0202701N004112200019N0112651N1+03801+01801999999ADDGA1041+009001999GF104991999999999999999999MA1100911999999REMMET051METAR SBLP 131700Z 27008KT 9999 SCT030 38/18 Q1009;
0120832880999992013031318004-13267-043417FM-15+0443SBLP V0202601N003112200019N0112651N1+03801+01801999999ADDGA1041+009001999GF104991999999999999999999MA1100811999999REMMET051METAR SBLP 131800Z 26006KT 9999 SCT030 38/18 Q1008;
0143832880999992013031319004-13267-043417FM-15+0443SBLP V0202501N005112200019N0112651N1+03201+02201999999ADDGA1021+009001999GA2041+030001999GF104991999999999999999999MA1100811999999REMMET058METAR SBLP 131900Z 25010KT 9999 FEW030 SCT100 32/22 Q1008;
0143832880999992013031320004-13267-043417FM-15+0443SBLP V0202401N004112200019N0112651N1+03201+02101999999ADDGA1021+009001999GA2041+030001999GF104991999999999999999999MA1100811999999REMMET058METAR SBLP 132000Z 24008KT 9999 FEW030 SCT100 32/21 Q1008;
0143832880999992013031321004-13267-043417FM-15+0443SBLP V0201801N003112200019N0112651N1+03301+02101999999ADDGA1021+009001999GA2041+030001999GF104991999999999999999999MA1100911999999REMMET058METAR SBLP 132100Z 18006KT 9999 FEW030 SCT100 33/21 Q1009;
0072832880999992013031409154-13267-043417FM-16+0443SBLP V0209999C000019999999Y0099001N1+02301+02201999999ADDMA1101081999999REMMET045SPECI SBLP 140915Z 00000KT CAVOK 23/22 Q1011;
0072832880999992013031410004-13267-043417FM-15+0443SBLP V0209999C000019999999Y0099001N1+02501+02101999999ADDMA1101191999999REMMET045METAR SBLP 141000Z 00000KT CAVOK 25/21 Q1012;
0072832880999992013031411004-13267-043417FM-15+0443SBLP V0209999C000019999999Y0099001N1+02901+02101999999ADDMA1101191999999REMMET045METAR SBLP 141100Z 00000KT CAVOK 29/21 Q1012;
0072832880999992013031412004-13267-043417FM-15+0443SBLP V0209999C000019999999Y0099001N1+03101+02101999999ADDMA1101291999999REMMET045METAR SBLP 141200Z 00000KT CAVOK 31/21 Q1013;
0072832880999992013031413004-13267-043417FM-15+0443SBLP V0200601N004619999999Y0099001N1+03301+02101999999ADDMA1101291999999REMMET045METAR SBLP 141300Z 06009KT CAVOK 33/21 Q1013;
0143832880999992013031414004-13267-043417FM-15+0443SBLP V0200301N002112200019N0112651N1+03401+02101999999ADDGA1021+009001999GA2041+030001999GF104991999999999999999999MA1101191999999REMMET058METAR SBLP 141400Z 03004KT 9999 FEW030 SCT100 34/21 Q1012;
0120832880999992013031415004-13267-043417FM-15+0443SBLP V0200901N005112200019N0112651N1+03601+02001999999ADDGA1041+009001999GF104991999999999999999999MA1101081999999REMMET051METAR SBLP 141500Z 09010KT 9999 SCT030 36/20 Q1011;
0120832880999992013031416004-13267-043417FM-15+0443SBLP V0201201N002112200019N0112651N1+03601+01901999999ADDGA1041+009001999GF104991999999999999999999MA1101021999999REMMET051METAR SBLP 141600Z 12004KT 9999 SCT030 36/19 Q1010;
0143832880999992013031417004-13267-043417FM-15+0443SBLP V0202701N003112200019N0112651N1+03501+02001999999ADDGA1041+009001999GA2041+030001999GF104991999999999999999999MA1100811999999REMMET058METAR SBLP 141700Z 27006KT 9999 SCT030 SCT100 35/20 Q1008;
0143832880999992013031418004-13267-043417FM-15+0443SBLP V0202001N004112200019N0112651N1+03501+01901999999ADDGA1041+009001999GA2041+030001999GF104991999999999999999999MA1100911999999REMMET058METAR SBLP 141800Z 20008KT 9999 SCT030 SCT100 35/19 Q1009;
0143832880999992013031419004-13267-043417FM-15+0443SBLP V0202301N006212200019N0112651N1+03101+02101999999ADDGA1021+009001999GA2041+030001999GF104991999999999999999999MA1100911999999REMMET058METAR SBLP 141900Z 23012KT 9999 FEW030 SCT100 31/21 Q1009;
0143832880999992013031420004-13267-043417FM-15+0443SBLP V0202401N003112200019N0112651N1+03201+02101999999ADDGA1021+009001999GA2041+030001999GF104991999999999999999999MA1100911999999REMMET058METAR SBLP 142000Z 24006KT 9999 FEW030 SCT100 32/21 Q1009;
0143832880999992013031421004-13267-043417FM-15+0443SBLP V0202401N002112200019N0112651N1+02901+02101999999ADDGA1021+009001999GA2041+030001999GF104991999999999999999999MA1100911999999REMMET058METAR SBLP 142100Z 24004KT 9999 FEW030 SCT100 29/21 Q1009;
0143832880999992013031509154-13267-043417FM-16+0443SBLP V0202401N003110300019N0112651N1+02201+02101999999ADDGA1041+003001999GA2071+030001999GF107991999999999999999999MA1101391999999REMMET058SPECI SBLP 150915Z 24006KT 9999 SCT010 BKN100 22/21 Q1014;
0143832880999992013031510004-13267-043417FM-15+0443SBLP V0202401N003112200019N0112651N1+02301+02101999999ADDGA1041+004501999GA2041+030001999GF104991999999999999999999MA1101391999999REMMET058METAR SBLP 151000Z 24006KT 9999 SCT015 SCT100 23/21 Q1014;
0143832880999992013031511004-13267-043417FM-15+0443SBLP V0202501N002112200019N0112651N1+02501+02201999999ADDGA1021+006001999GA2041+030001999GF104991999999999999999999MA1101491999999REMMET058METAR SBLP 151100Z 25004KT 9999 FEW020 SCT100 25/22 Q1015;
0120832880999992013031512004-13267-043417FM-15+0443SBLP V0202201N003112200019N0112651N1+02801+02201999999ADDGA1021+006001999GF102991999999999999999999MA1101491999999REMMET051METAR SBLP 151200Z 22006KT 9999 FEW020 28/22 Q1015;
0120832880999992013031513004-13267-043417FM-15+0443SBLP V0202001N002112200019N0112651N1+03001+02201999999ADDGA1021+006001999GF102991999999999999999999MA1101491999999REMMET051METAR SBLP 151300Z 20004KT 9999 FEW020 30/22 Q1015;
0120832880999992013031514004-13267-043417FM-15+0443SBLP V0201801N002112200019N0112651N1+03201+02201999999ADDGA1041+009001999GF104991999999999999999999MA1101391999999REMMET051METAR SBLP 151400Z 18004KT 9999 SCT030 32/22 Q1014;
0120832880999992013031515004-13267-043417FM-15+0443SBLP V0201801N001512200019N0112651N1+03201+02201999999ADDGA1041+009001999GF104991999999999999999999MA1101291999999REMMET051METAR SBLP 151500Z 18003KT 9999 SCT030 32/22 Q1013;
0120832880999992013031516004-13267-043417FM-15+0443SBLP V0201501N001510090019N0112651N1+03301+02101999999ADDGA1071+009001999GF107991999999999999999999MA1101191999999REMMET051METAR SBLP 151600Z 15003KT 9999 BKN030 33/21 Q1012;
0120832880999992013031517004-13267-043417FM-15+0443SBLP V0201801N004112200019N0112651N1+03601+02001999999ADDGA1041+009001999GF104991999999999999999999MA1101081999999REMMET051METAR SBLP 151700Z 18008KT 9999 SCT030 36/20 Q1011;
0120832880999992013031518004-13267-043417FM-15+0443SBLP V0201901N002612200019N0112651N1+03601+01801999999ADDGA1041+009001999GF104991999999999999999999MA1100911999999REMMET051METAR SBLP 151800Z 19005KT 9999 SCT030 36/18 Q1009;
0120832880999992013031519004-13267-043417FM-15+0443SBLP V0202101N002612200019N0112651N1+03601+01901999999ADDGA1041+009001999GF104991999999999999999999MA1100911999999REMMET051METAR SBLP 151900Z 21005KT 9999 SCT030 36/19 Q1009;
0120832880999992013031520004-13267-043417FM-15+0443SBLP V0202101N005112200019N0112651N1+03601+01801999999ADDGA1021+009001999GF102991999999999999999999MA1100911999999REMMET051METAR SBLP 152000Z 21010KT 9999 FEW030 36/18 Q1009;
0072832880999992013031521004-13267-043417FM-15+0443SBLP V0202101N002619999999Y0099001N1+03401+01801999999ADDMA1100911999999REMMET045METAR SBLP 152100Z 21005KT CAVOK 34/18 Q1009;
0072832880999992013031809154-13267-043417FM-16+0443SBLP V0209999C000019999999Y0099001N1+02301+02101999999ADDMA1101291999999REMMET045SPECI SBLP 180915Z 00000KT CAVOK 23/21 Q1013;
0072832880999992013031810004-13267-043417FM-15+0443SBLP V0201301N001519999999Y0099001N1+02601+01901999999ADDMA1101291999999REMMET045METAR SBLP 181000Z 13003KT CAVOK 26/19 Q1013;
0072832880999992013031811004-13267-043417FM-15+0443SBLP V0201101N002619999999Y0099001N1+02901+02001999999ADDMA1101291999999REMMET045METAR SBLP 181100Z 11005KT CAVOK 29/20 Q1013;
0072832880999992013031812004-13267-043417FM-15+0443SBLP V0209999C000019999999Y0099001N1+03201+01901999999ADDMA1101391999999REMMET045METAR SBLP 181200Z 00000KT CAVOK 32/19 Q1014;
0120832880999992013031813004-13267-043417FM-15+0443SBLP V0209999C000012200019N0112651N1+03301+01801999999ADDGA1021+009001999GF102991999999999999999999MA1101291999999REMMET051METAR SBLP 181300Z 00000KT 9999 FEW030 33/18 Q1013;
0120832880999992013031814004-13267-043417FM-15+0443SBLP V0200201N001512200019N0112651N1+03401+02001999999ADDGA1021+009001999GF102991999999999999999999MA1101291999999REMMET051METAR SBLP 181400Z 02003KT 9999 FEW030 34/20 Q1013;
0120832880999992013031815004-13267-043417FM-15+0443SBLP V0203001N001512200019N0112651N1+03501+01901999999ADDGA1021+009001999GF102991999999999999999999MA1101191999999REMMET051METAR SBLP 181500Z 30003KT 9999 FEW030 35/19 Q1012;
0120832880999992013031816004-13267-043417FM-15+0443SBLP V0203301N004112200019N0112651N1+03601+01801999999ADDGA1041+009001999GF104991999999999999999999MA1101021999999REMMET051METAR SBLP 181600Z 33008KT 9999 SCT030 36/18 Q1010;
0120832880999992013031817004-13267-043417FM-15+0443SBLP V0203001N003112200019N0112651N1+03701+01601999999ADDGA1041+009001999GF104991999999999999999999MA1100911999999REMMET051METAR SBLP 181700Z 30006KT 9999 SCT030 37/16 Q1009;
0120832880999992013031818004-13267-043417FM-15+0443SBLP V0203201N003112200019N0112651N1+03701+01601999999ADDGA1041+009001999GF104991999999999999999999MA1100911999999REMMET051METAR SBLP 181800Z 32006KT 9999 SCT030 37/16 Q1009;
0120832880999992013031819004-13267-043417FM-15+0443SBLP V0202401N003110090019N0112651N1+03801+01801999999ADDGA1071+009001999GF107991999999999999999999MA1100711999999REMMET051METAR SBLP 181900Z 24006KT 9999 BKN030 38/18 Q1007;
0172832880999992013031820004-13267-043417FM-15+0443SBLP V0200301N006210300019N0090001N1+02602+02301999999ADDGA1041+009001999GA2071+030001999GF107991999999999999999999MA1100811999999MW1611REMMET062METAR SBLP 182000Z 03012KT 9000 -RA SCT030 BKN100 26/23 Q1008;EQDQ01+002603ATOT  
0141832880999992013031821004-13267-043417FM-15+0443SBLP V0200601N00311009001CN0112651N1+02601+02301999999ADDGA1071+009001999GA2041+030001999MA1100911999999REMMET063METAR SBLP 182100Z 06006KT 9999 BKN030 SCT100 26/23 Q1009 RERA;EQDQ01+000042SCOTCV
0120832880999992013031909154-13267-043417FM-16+0443SBLP V0209999C000012200019N0112651N1+02301+02101999999ADDGA1021+006001999GF102991999999999999999999MA1101081999999REMMET051SPECI SBLP 190915Z 00000KT 9999 FEW020 23/21 Q1011;
0120832880999992013031910004-13267-043417FM-15+0443SBLP V0201801N001512200019N0112651N1+02401+02201999999ADDGA1021+006001999GF102991999999999999999999MA1101191999999REMMET051METAR SBLP 191000Z 18003KT 9999 FEW020 24/22 Q1012;
0072832880999992013031911004-13267-043417FM-15+0443SBLP V0201801N002119999999Y0099001N1+02801+02201999999ADDMA1101291999999REMMET045METAR SBLP 191100Z 18004KT CAVOK 28/22 Q1013;
0120832880999992013031912004-13267-043417FM-15+0443SBLP V0201801N003112200019N0112651N1+03001+02201999999ADDGA1021+009001999GF102991999999999999999999MA1101291999999REMMET051METAR SBLP 191200Z 18006KT 9999 FEW030 30/22 Q1013;
0120832880999992013031913004-13267-043417FM-15+0443SBLP V0201501N001512200019N0112651N1+03101+02101999999ADDGA1041+009001999GF104991999999999999999999MA1101291999999REMMET051METAR SBLP 191300Z 15003KT 9999 SCT030 31/21 Q1013;
0120832880999992013031914004-13267-043417FM-15+0443SBLP V0201501N002112200019N0112651N1+03201+02001999999ADDGA1041+009001999GF104991999999999999999999MA1101291999999REMMET051METAR SBLP 191400Z 15004KT 9999 SCT030 32/20 Q1013;
0120832880999992013031915004-13267-043417FM-15+0443SBLP V0201801N002612200019N0112651N1+03401+02001999999ADDGA1041+009001999GF104991999999999999999999MA1101191999999REMMET051METAR SBLP 191500Z 18005KT 9999 SCT030 34/20 Q1012;
0131832880999992013031916004-13267-043417FM-15+0443SBLP V0200901N004110090019N0090001N1+03301+01901999999ADDGA1071+009001999GF107991999999999999999999MA1101081999999MW1161REMMET056METAR SBLP 191600Z 09008KT 9000 VCSH BKN030 33/19 Q1011;
0131832880999992013031917004-13267-043417FM-15+0443SBLP V0203101N002110090019N0112651N1+03001+02101999999ADDGA1071+009001999GF107991999999999999999999MA1101021999999MW1161REMMET056METAR SBLP 191700Z 31004KT 9999 VCSH BKN030 30/21 Q1010;
0136832880999992013031918004-13267-043417FM-15+0443SBLP V0203101N00311009001CN0112651N1+03101+02101999999ADDGA1071+009001999GA2041+030001999MA1100911999999REMMET058METAR SBLP 191800Z 31006KT 9999 BKN030 SCT100 31/21 Q1009;EQDQ01+000042SCOTCV
0143832880999992013031919004-13267-043417FM-15+0443SBLP V0209999C000012200019N0112651N1+03001+02101999999ADDGA1041+009001999GA2041+030001999GF104991999999999999999999MA1100911999999REMMET058METAR SBLP 191900Z 00000KT 9999 SCT030 SCT100 30/21 Q1009;
0176832880999992013031920004-13267-043417FM-15+0443SBLP V0209999C00001009001CN0090001N1+02901+02201999999ADDGA1021+006001999GA2041+009001999GA3071+030001999GF107991999999999999999999MA1100811999999MW1611REMMET069METAR SBLP 192000Z 00000KT 9000 -RA FEW020 SCT030 BKN100 29/22 Q1008;
0143832880999992013031921004-13267-043417FM-15+0443SBLP V0209999C000012200019N0112651N1+02901+02201999999ADDGA1041+009001999GA2041+030001999GF104991999999999999999999MA1100811999999REMMET058METAR SBLP 192100Z 00000KT 9999 SCT030 SCT100 29/22 Q1008;
0072832880999992013032009154-13267-043417FM-16+0443SBLP V0209999C000019999999Y0099001N1+02301+02201999999ADDMA1101391999999REMMET045SPECI SBLP 200915Z 00000KT CAVOK 23/22 Q1014;
0072832880999992013032010004-13267-043417FM-15+0443SBLP V0209999C000019999999Y0099001N1+02301+02201999999ADDMA1101391999999REMMET045METAR SBLP 201000Z 00000KT CAVOK 23/22 Q1014;
0072832880999992013032011004-13267-043417FM-15+0443SBLP V0209999C000019999999Y0099001N1+02501+02201999999ADDMA1101491999999REMMET045METAR SBLP 201100Z 00000KT CAVOK 25/22 Q1015;
0143832880999992013032012004-13267-043417FM-15+0443SBLP V0201401N002112200019N0112651N1+02801+02101999999ADDGA1021+009001999GA2041+030001999GF104991999999999999999999MA1101491999999REMMET058METAR SBLP 201200Z 14004KT 9999 FEW030 SCT100 28/21 Q1015;
0120832880999992013032013004-13267-043417FM-15+0443SBLP V0200601N001512200019N0112651N1+03001+02001999999ADDGA1041+009001999GF104991999999999999999999MA1101491999999REMMET051METAR SBLP 201300Z 06003KT 9999 SCT030 30/20 Q1015;
0120832880999992013032014004-13267-043417FM-15+0443SBLP V0200601N002610090019N0112651N1+03201+01801999999ADDGA1071+009001999GF107991999999999999999999MA1101491999999REMMET051METAR SBLP 201400Z 06005KT 9999 BKN030 32/18 Q1015;
0143832880999992013032015004-13267-043417FM-15+0443SBLP V0209999C000012200019N0112651N1+03201+02001999999ADDGA1041+009001999GA2041+030001999GF104991999999999999999999MA1101291999999REMMET058METAR SBLP 201500Z 00000KT 9999 SCT030 SCT100 32/20 Q1013;
0120832880999992013032016004-13267-043417FM-15+0443SBLP V0200901N003112200019N0112651N1+03301+01701999999ADDGA1041+009001999GF104991999999999999999999MA1101191999999REMMET051METAR SBLP 201600Z 09006KT 9999 SCT030 33/17 Q1012;
0120832880999992013032017004-13267-043417FM-15+0443SBLP V0203601N001512200019N0112651N1+03301+01801999999ADDGA1041+009001999GF104991999999999999999999MA1101081999999REMMET051METAR SBLP 201700Z 36003KT 9999 SCT030 33/18 Q1011;
0120832880999992013032018004-13267-043417FM-15+0443SBLP V0202701N005112200019N0112651N1+03201+02001999999ADDGA1041+009001999GF104991999999999999999999MA1101021999999REMMET051METAR SBLP 201800Z 27010KT 9999 SCT030 32/20 Q1010;
0120832880999992013032019004-13267-043417FM-15+0443SBLP V0202401N002112200019N0112651N1+03201+02001999999ADDGA1041+009001999GF104991999999999999999999MA1101021999999REMMET051METAR SBLP 201900Z 24004KT 9999 SCT030 32/20 Q1010;
0120832880999992013032020004-13267-043417FM-15+0443SBLP V0203101N003112200019N0112651N1+03101+02101999999ADDGA1041+009001999GF104991999999999999999999MA1101021999999REMMET051METAR SBLP 202000Z 31006KT 9999 SCT030 31/21 Q1010;
0120832880999992013032021004-13267-043417FM-15+0443SBLP V0203001N003112200019N0112651N1+02901+02201999999ADDGA1021+009001999GF102991999999999999999999MA1101021999999REMMET051METAR SBLP 202100Z 30006KT 9999 FEW030 29/22 Q1010;
0120832880999992013032109154-13267-043417FM-16+0443SBLP V0203001N002112200019N0112651N1+02301+02201999999ADDGA1021+009001999GF102991999999999999999999MA1101391999999REMMET051SPECI SBLP 210915Z 30004KT 9999 FEW030 23/22 Q1014;
0143832880999992013032110004-13267-043417FM-15+0443SBLP V0202901N002112200019N0112651N1+02301+02201999999ADDGA1021+009001999GA2041+030001999GF104991999999999999999999MA1101491999999REMMET058METAR SBLP 211000Z 29004KT 9999 FEW030 SCT100 23/22 Q1015;
0143832880999992013032111004-13267-043417FM-15+0443SBLP V0203301N003112200019N0112651N1+02601+02101999999ADDGA1021+009001999GA2041+030001999GF104991999999999999999999MA1101491999999REMMET058METAR SBLP 211100Z 33006KT 9999 FEW030 SCT100 26/21 Q1015;
0118832880999992013032112004-13267-043417FM-15+0443SBLP V0209999C000012200019N0112651N1+02901+02101999999ADDGA1021+009001999GF102991999999999999999999MA1101591999999REMMET049METAR SBLP 211200Z 00000 9999 FEW030 29/21 Q1016;
0120832880999992013032113004-13267-043417FM-15+0443SBLP V0201801N003110090019N0112651N1+03001+02001999999ADDGA1071+009001999GF107991999999999999999999MA1101591999999REMMET051METAR SBLP 211300Z 18006KT 9999 BKN030 30/20 Q1016;
0120832880999992013032114004-13267-043417FM-15+0443SBLP V0209999C000010090019N0112651N1+03201+02001999999ADDGA1071+009001999GF107991999999999999999999MA1101591999999REMMET051METAR SBLP 211400Z 00000KT 9999 BKN030 32/20 Q1016;
0120832880999992013032115004-13267-043417FM-15+0443SBLP V0201501N003112200019N0112651N1+03301+02001999999ADDGA1041+009001999GF104991999999999999999999MA1101391999999REMMET051METAR SBLP 211500Z 15006KT 9999 SCT030 33/20 Q1014;
0120832880999992013032116004-13267-043417FM-15+0443SBLP V0209999C000012200019N0112651N1+03401+02101999999ADDGA1041+009001999GF104991999999999999999999MA1101291999999REMMET051METAR SBLP 211600Z 00000KT 9999 SCT030 34/21 Q1013;
0120832880999992013032117004-13267-043417FM-15+0443SBLP V0201501N002612200019N0112651N1+03501+02101999999ADDGA1041+009001999GF104991999999999999999999MA1101191999999REMMET051METAR SBLP 211700Z 15005KT 9999 SCT030 35/21 Q1012;
0147832880999992013032118004-13267-043417FM-15+0443SBLP V0200601N002612200019N0080001N1+03301+02201999999ADDGA1041+009001999GA2021+012001091MA1101081999999MW1171REMMET063METAR SBLP 211800Z 06005KT 8000 TS SCT030 FEW040CB 33/22 Q1011;EQDQ01+000022SCOTCV
0148832880999992013032119004-13267-043417FM-15+0443SBLP V0201101N002112200019N0112651N1+03501+01901999999ADDGA1041+009001999GA2041+030001999GF104991999999999999999999MA1101081999999REMMET063METAR SBLP 211900Z 11004KT 9999 SCT030 SCT100 35/19 Q1011 RETS;
0143832880999992013032120004-13267-043417FM-15+0443SBLP V0201201N002112200019N0112651N1+03501+01901999999ADDGA1021+009001999GA2041+030001999GF104991999999999999999999MA1101081999999REMMET058METAR SBLP 212000Z 12004KT 9999 FEW030 SCT100 35/19 Q1011;
0143832880999992013032121004-13267-043417FM-15+0443SBLP V0200901N002612200019N0112651N1+03101+02201999999ADDGA1021+009001999GA2041+030001999GF104991999999999999999999MA1101191999999REMMET058METAR SBLP 212100Z 09005KT 9999 FEW030 SCT100 31/22 Q1012;
0147832880999992013032209154-13267-043417FM-16+0443SBLP V0202701N00151003901CN0050001N1+02401+02401999999ADDGA1071+003901999GA2041+009001999MA1101491999999MW1161REMMET063SPECI SBLP 220915Z 27003KT 5000 VCSH BKN013 SCT030 24/24 Q1015;EQDQ01+000042SCOTCV
0145832880999992013032210004-13267-043417FM-15+0443SBLP V0209999999999005101CN0050001N1+02401+02401999999ADDGA1071+005101999GA2071+006001999GF108991999999999999999999MA1101601999999REMMET060METAR SBLP 221000Z 0000KT 5000 BR BKN017 BKN020 24/24 Q1016;
0176832880999992013032211004-13267-043417FM-15+0443SBLP V0209999C000010060019N0040001N1+02401+02301999999ADDGA1041+002101999GA2071+006001999GA3081+027001999GF108991999999999999999999MA1101691999999MW1611REMMET069METAR SBLP 221100Z 00000KT 4000 -RA SCT007 BKN020 OVC090 24/23 Q1017;
0176832880999992013032212004-13267-043417FM-15+0443SBLP V0203601N002110060019N0050001N1+02401+02301999999ADDGA1041+002101999GA2071+006001999GA3081+027001999GF108991999999999999999999MA1101691999999MW1611REMMET069METAR SBLP 221200Z 36004KT 5000 -RA SCT007 BKN020 OVC090 24/23 Q1017;
0166832880999992013032213004-13267-043417FM-15+0443SBLP V0200301N00151009001CN0112651N1+02501+02401999999ADDGA1021+006001999GA2041+009001999GA3081+030001999GF108991999999999999999999MA1101691999999REMMET065METAR SBLP 221300Z 03003KT 9999 FEW020 SCT030 OVC100 25/24 Q1017;
0166832880999992013032214004-13267-043417FM-15+0443SBLP V0209999C00001009001CN0080001N1+02401+02301999999ADDGA1041+006001999GA2041+009001999GA3081+030001999GF108991999999999999999999MA1101691999999REMMET065METAR SBLP 221400Z 00000KT 8000 SCT020 SCT030 OVC100 24/23 Q1017;
0166832880999992013032215004-13267-043417FM-15+0443SBLP V0200901N00211009001CN0112651N1+02601+02401999999ADDGA1021+006001999GA2041+009001999GA3071+030001999GF107991999999999999999999MA1101591999999REMMET065METAR SBLP 221500Z 09004KT 9999 FEW020 SCT030 BKN100 26/24 Q1016;
0166832880999992013032216004-13267-043417FM-15+0443SBLP V0200701N00211009001CN0112651N1+02701+02301999999ADDGA1021+006001999GA2041+009001999GA3071+030001999GF107991999999999999999999MA1101491999999REMMET065METAR SBLP 221600Z 07004KT 9999 FEW020 SCT030 BKN100 27/23 Q1015;
0143832880999992013032217004-13267-043417FM-15+0443SBLP V0201101N003110300019N0112651N1+02901+02201999999ADDGA1041+009001999GA2071+030001999GF107991999999999999999999MA1101291999999REMMET058METAR SBLP 221700Z 11006KT 9999 SCT030 BKN100 29/22 Q1013;
0143832880999992013032218004-13267-043417FM-15+0443SBLP V0201701N003110300019N0112651N1+02901+02101999999ADDGA1021+009001999GA2071+030001999GF107991999999999999999999MA1101291999999REMMET058METAR SBLP 221800Z 17006KT 9999 FEW030 BKN100 29/21 Q1013;
0143832880999992013032219004-13267-043417FM-15+0443SBLP V0201801N003110300019N0112651N1+03001+02201999999ADDGA1041+009001999GA2071+030001999GF107991999999999999999999MA1101191999999REMMET058METAR SBLP 221900Z 18006KT 9999 SCT030 BKN100 30/22 Q1012;
0143832880999992013032220004-13267-043417FM-15+0443SBLP V0200601N002112200019N0112651N1+02901+02101999999ADDGA1021+009001999GA2041+030001999GF104991999999999999999999MA1101191999999REMMET058METAR SBLP 222000Z 06004KT 9999 FEW030 SCT100 29/21 Q1012;
0143832880999992013032221004-13267-043417FM-15+0443SBLP V0201501N003110300019N0112651N1+02701+02201999999ADDGA1021+009001999GA2071+030001999GF107991999999999999999999MA1101191999999REMMET058METAR SBLP 222100Z 15006KT 9999 FEW030 BKN100 27/22 Q1012;
0166832880999992013032509154-13267-043417FM-16+0443SBLP V0209999C00001006001CN0112651N1+02301+02101999999ADDGA1021+002101999GA2041+006001999GA3071+030001999GF107991999999999999999999MA1101391999999REMMET065SPECI SBLP 250915Z 00000KT 9999 FEW007 SCT020 BKN100 23/21 Q1014;
0176832880999992013032510004-13267-043417FM-15+0443SBLP V0209999C00001006901CN0090001N1+02201+02101999999ADDGA1041+002401999GA2041+006901999GA3071+027001999GF107991999999999999999999MA1101491999999MW1611REMMET069METAR SBLP 251000Z 00000KT 9000 -RA SCT008 SCT023 BKN093 22/21 Q1015;
0166832880999992013032511004-13267-043417FM-15+0443SBLP V0209999C00001009001CN0112651N1+02301+02201999999ADDGA1021+006001999GA2041+009001999GA3071+030001999GF107991999999999999999999MA1101591999999REMMET065METAR SBLP 251100Z 00000KT 9999 FEW020 SCT030 BKN100 23/22 Q1016;
0166832880999992013032512004-13267-043417FM-15+0443SBLP V0209999C00001009001CN0112651N1+02501+02101999999ADDGA1021+006001999GA2041+009001999GA3071+030001999GF107991999999999999999999MA1101591999999REMMET065METAR SBLP 251200Z 00000KT 9999 FEW020 SCT030 BKN100 25/21 Q1016;
0143832880999992013032513004-13267-043417FM-15+0443SBLP V0202001N001510300019N0112651N1+02701+02101999999ADDGA1041+009001999GA2071+030001999GF107991999999999999999999MA1101591999999REMMET058METAR SBLP 251300Z 20003KT 9999 SCT030 BKN100 27/21 Q1016;
0143832880999992013032514004-13267-043417FM-15+0443SBLP V0209999C000010300019N0112651N1+02801+02201999999ADDGA1041+009001999GA2071+030001999GF107991999999999999999999MA1101591999999REMMET058METAR SBLP 251400Z 00000KT 9999 SCT030 BKN100 28/22 Q1016;
0143832880999992013032515004-13267-043417FM-15+0443SBLP V0203601N002110090019N0112651N1+02901+02201999999ADDGA1071+009001999GA2071+030001999GF107991999999999999999999MA1101591999999REMMET058METAR SBLP 251500Z 36004KT 9999 BKN030 BKN100 29/22 Q1016;
0143832880999992013032516004-13267-043417FM-15+0443SBLP V0203601N002110300019N0112651N1+02901+02301999999ADDGA1041+009001999GA2071+030001999GF107991999999999999999999MA1101391999999REMMET058METAR SBLP 251600Z 36004KT 9999 SCT030 BKN100 29/23 Q1014;
0143832880999992013032517004-13267-043417FM-15+0443SBLP V0203601N003110300019N0112651N1+02901+02201999999ADDGA1041+009001999GA2071+030001999GF107991999999999999999999MA1101291999999REMMET058METAR SBLP 251700Z 36006KT 9999 SCT030 BKN100 29/22 Q1013;
0143832880999992013032518004-13267-043417FM-15+0443SBLP V0203601N003112200019N0112651N1+03101+02201999999ADDGA1021+009001999GA2041+030001999GF104991999999999999999999MA1101291999999REMMET058METAR SBLP 251800Z 36006KT 9999 FEW030 SCT100 31/22 Q1013;
0143832880999992013032519004-13267-043417FM-15+0443SBLP V0203601N002112200019N0112651N1+03101+02101999999ADDGA1021+009001999GA2041+030001999GF104991999999999999999999MA1101191999999REMMET058METAR SBLP 251900Z 36004KT 9999 FEW030 SCT100 31/21 Q1012;
0143832880999992013032520004-13267-043417FM-15+0443SBLP V0203601N004112200019N0112651N1+03001+02101999999ADDGA1021+009001999GA2041+030001999GF104991999999999999999999MA1101191999999REMMET058METAR SBLP 252000Z 36008KT 9999 FEW030 SCT100 30/21 Q1012;
0143832880999992013032521004-13267-043417FM-15+0443SBLP V0203501N002612200019N0112651N1+02801+02201999999ADDGA1021+009001999GA2041+030001999GF104991999999999999999999MA1101191999999REMMET058METAR SBLP 252100Z 35005KT 9999 FEW030 SCT100 28/22 Q1012;
0143832880999992013032609154-13267-043417FM-16+0443SBLP V0209999C000012200019N0112651N1+02301+02201999999ADDGA1041+006001999GA2041+030001999GF104991999999999999999999MA1101591999999REMMET058SPECI SBLP 260915Z 00000KT 9999 SCT020 SCT100 23/22 Q1016;
0143832880999992013032610004-13267-043417FM-15+0443SBLP V0209999C000012200019N0112651N1+02301+02201999999ADDGA1041+006001999GA2041+030001999GF104991999999999999999999MA1101691999999REMMET058METAR SBLP 261000Z 00000KT 9999 SCT020 SCT100 23/22 Q1017;
0120832880999992013032611004-13267-043417FM-15+0443SBLP V0200901N002112200019N0112651N1+02501+02201999999ADDGA1021+006001999GF102991999999999999999999MA1101691999999REMMET051METAR SBLP 261100Z 09004KT 9999 FEW020 25/22 Q1017;
0120832880999992013032612004-13267-043417FM-15+0443SBLP V0203301N002112200019N0112651N1+02701+02301999999ADDGA1041+009001999GF104991999999999999999999MA1101801999999REMMET051METAR SBLP 261200Z 33004KT 9999 SCT030 27/23 Q1018;
0120832880999992013032613004-13267-043417FM-15+0443SBLP V0209999C000012200019N0112651N1+02801+02201999999ADDGA1041+009001999GF104991999999999999999999MA1101801999999REMMET051METAR SBLP 261300Z 00000KT 9999 SCT030 28/22 Q1018;
0120832880999992013032614004-13267-043417FM-15+0443SBLP V0209999C000012200019N0112651N1+03001+02201999999ADDGA1041+009001999GF104991999999999999999999MA1101691999999REMMET051METAR SBLP 261400Z 00000KT 9999 SCT030 30/22 Q1017;
0120832880999992013032615004-13267-043417FM-15+0443SBLP V0209999C000012200019N0112651N1+03201+02101999999ADDGA1041+009001999GF104991999999999999999999MA1101591999999REMMET051METAR SBLP 261500Z 00000KT 9999 SCT030 32/21 Q1016;
0120832880999992013032616004-13267-043417FM-15+0443SBLP V0201901N002610081019N0112651N1+03301+02101999999ADDGA1071+008101999GF107991999999999999999999MA1101491999999REMMET051METAR SBLP 261600Z 19005KT 9999 BKN027 33/21 Q1015;
0120832880999992013032617004-13267-043417FM-15+0443SBLP V0201301N002112200019N0112651N1+03301+02101999999ADDGA1041+008101999GF104991999999999999999999MA1101291999999REMMET051METAR SBLP 261700Z 13004KT 9999 SCT027 33/21 Q1013;
0120832880999992013032618004-13267-043417FM-15+0443SBLP V0200301N001512200019N0112651N1+03401+01901999999ADDGA1041+009001999GF104991999999999999999999MA1101191999999REMMET051METAR SBLP 261800Z 03003KT 9999 SCT030 34/19 Q1012;
0120832880999992013032619004-13267-043417FM-15+0443SBLP V0209999C000012200019N0112651N1+03401+02001999999ADDGA1041+009001999GF104991999999999999999999MA1101081999999REMMET051METAR SBLP 261900Z 00000KT 9999 SCT030 34/20 Q1011;
0120832880999992013032620004-13267-043417FM-15+0443SBLP V0209999C000012200019N0112651N1+03401+01801999999ADDGA1021+009001999GF102991999999999999999999MA1101081999999REMMET051METAR SBLP 262000Z 00000KT 9999 FEW030 34/18 Q1011;
0072832880999992013032621004-13267-043417FM-15+0443SBLP V0209999C000019999999Y0099001N1+03301+02001999999ADDMA1101081999999REMMET045METAR SBLP 262100Z 00000KT CAVOK 33/20 Q1011;
0120832880999992013032709154-13267-043417FM-16+0443SBLP V0209999C000012200019N0112651N1+02401+02201999999ADDGA1021+009001999GF102991999999999999999999MA1101391999999REMMET051SPECI SBLP 270915Z 00000KT 9999 FEW030 24/22 Q1014;
0120832880999992013032710004-13267-043417FM-15+0443SBLP V0209999C000012200019N0112651N1+02601+02301999999ADDGA1021+009001999GF102991999999999999999999MA1101491999999REMMET051METAR SBLP 271000Z 00000KT 9999 FEW030 26/23 Q1015;
0143832880999992013032711004-13267-043417FM-15+0443SBLP V0209999C000012200019N0112651N1+02601+02301999999ADDGA1021+009001999GA2041+030001999GF104991999999999999999999MA1101591999999REMMET058METAR SBLP 271100Z 00000KT 9999 FEW030 SCT100 26/23 Q1016;
0143832880999992013032712004-13267-043417FM-15+0443SBLP V0209999C000012200019N0112651N1+02901+02201999999ADDGA1021+009001999GA2041+030001999GF104991999999999999999999MA1101591999999REMMET058METAR SBLP 271200Z 00000KT 9999 FEW030 SCT100 29/22 Q1016;
0120832880999992013032713004-13267-043417FM-15+0443SBLP V0200201N002112200019N0112651N1+03001+02201999999ADDGA1021+009001999GF102991999999999999999999MA1101591999999REMMET051METAR SBLP 271300Z 02004KT 9999 FEW030 30/22 Q1016;
0143832880999992013032714004-13267-043417FM-15+0443SBLP V0202501N002112200019N0112651N1+03201+02201999999ADDGA1041+006901999GA2041+030001999GF104991999999999999999999MA1101491999999REMMET058METAR SBLP 271400Z 25004KT 9999 SCT023 SCT100 32/22 Q1015;
0143832880999992013032715004-13267-043417FM-15+0443SBLP V0203601N001512200019N0112651N1+03301+02201999999ADDGA1041+006901999GA2041+030001999GF104991999999999999999999MA1101391999999REMMET058METAR SBLP 271500Z 36003KT 9999 SCT023 SCT100 33/22 Q1014;
0120832880999992013032716004-13267-043417FM-15+0443SBLP V0209999C000012200019N0112651N1+03401+02101999999ADDGA1041+009001999GF104991999999999999999999MA1101291999999REMMET051METAR SBLP 271600Z 00000KT 9999 SCT030 34/21 Q1013;
0120832880999992013032717004-13267-043417FM-15+0443SBLP V0200201N003110090019N0112651N1+03501+01901999999ADDGA1071+009001999GF107991999999999999999999MA1101081999999REMMET051METAR SBLP 271700Z 02006KT 9999 BKN030 35/19 Q1011;
0120832880999992013032718004-13267-043417FM-15+0443SBLP V0200701N003112200019N0112651N1+03501+01901999999ADDGA1041+009001999GF104991999999999999999999MA1101021999999REMMET051METAR SBLP 271800Z 07006KT 9999 SCT030 35/19 Q1010;
0120832880999992013032719004-13267-043417FM-15+0443SBLP V0200601N002112200019N0112651N1+03501+01901999999ADDGA1021+009001999GF102991999999999999999999MA1101021999999REMMET051METAR SBLP 271900Z 06004KT 9999 FEW030 35/19 Q1010;
0120832880999992013032720004-13267-043417FM-15+0443SBLP V0203501N002112200019N0112651N1+03501+01901999999ADDGA1021+009001999GF102991999999999999999999MA1101021999999REMMET051METAR SBLP 272000Z 35004KT 9999 FEW030 35/19 Q1010;
0120832880999992013032721004-13267-043417FM-15+0443SBLP V0209999C000012200019N0112651N1+03301+02001999999ADDGA1021+009001999GF102991999999999999999999MA1101021999999REMMET051METAR SBLP 272100Z 00000KT 9999 FEW030 33/20 Q1010;
0177832880999992013032809154-13267-043417FM-16+0443SBLP V0209999C00001008101CN0090001N1+02301+02201999999ADDGA1041+005101999GA2041+008101999GA3071+030001999GF107991999999999999999999MA1101491999999MW1161REMMET070SPECI SBLP 280915Z 00000KT 9000 VCSH SCT017 SCT027 BKN100 23/22 Q1015;
0166832880999992013032810004-13267-043417FM-15+0443SBLP V0209999C00001006001CN0112651N1+02301+02201999999ADDGA1021+003001999GA2041+006001999GA3071+030001999GF107991999999999999999999MA1101491999999REMMET065METAR SBLP 281000Z 00000KT 9999 FEW010 SCT020 BKN100 23/22 Q1015;
0166832880999992013032811004-13267-043417FM-15+0443SBLP V0202701N00261008101CN0112651N1+02401+02301999999ADDGA1021+003901999GA2041+008101999GA3071+030001999GF107991999999999999999999MA1101491999999REMMET065METAR SBLP 281100Z 27005KT 9999 FEW013 SCT027 BKN100 24/23 Q1015;
0143832880999992013032812004-13267-043417FM-15+0443SBLP V0209999C000010300019N0112651N1+02801+02301999999ADDGA1041+009001999GA2071+030001999GF107991999999999999999999MA1101591999999REMMET058METAR SBLP 281200Z 00000KT 9999 SCT030 BKN100 28/23 Q1016;
0143832880999992013032813004-13267-043417FM-15+0443SBLP V0209999C000010300019N0112651N1+02801+02201999999ADDGA1021+009001999GA2071+030001999GF107991999999999999999999MA1101591999999REMMET058METAR SBLP 281300Z 00000KT 9999 FEW030 BKN100 28/22 Q1016;
0143832880999992013032814004-13267-043417FM-15+0443SBLP V0203601N001512200019N0112651N1+02901+02201999999ADDGA1021+009001999GA2041+030001999GF104991999999999999999999MA1101491999999REMMET058METAR SBLP 281400Z 36003KT 9999 FEW030 SCT100 29/22 Q1015;
0120832880999992013032815004-13267-043417FM-15+0443SBLP V0203601N001512200019N0112651N1+03101+02101999999ADDGA1021+009001999GF102991999999999999999999MA1101391999999REMMET051METAR SBLP 281500Z 36003KT 9999 FEW030 31/21 Q1014;
0120832880999992013032816004-13267-043417FM-15+0443SBLP V0209999C000012200019N0112651N1+03201+01901999999ADDGA1021+009001999GF102991999999999999999999MA1101291999999REMMET051METAR SBLP 281600Z 00000KT 9999 FEW030 32/19 Q1013;
0120832880999992013032817004-13267-043417FM-15+0443SBLP V0209999C000012200019N0112651N1+03301+01601999999ADDGA1021+009001999GF102991999999999999999999MA1101191999999REMMET051METAR SBLP 281700Z 00000KT 9999 FEW030 33/16 Q1012;
0120832880999992013032818004-13267-043417FM-15+0443SBLP V0209999C000012200019N0112651N1+03401+01701999999ADDGA1021+009001999GF102991999999999999999999MA1101021999999REMMET051METAR SBLP 281800Z 00000KT 9999 FEW030 34/17 Q1010;
0120832880999992013032819004-13267-043417FM-15+0443SBLP V0203401N002112200019N0112651N1+03401+01901999999ADDGA1021+009001999GF102991999999999999999999MA1101021999999REMMET051METAR SBLP 281900Z 34004KT 9999 FEW030 34/19 Q1010;
0120832880999992013032820004-13267-043417FM-15+0443SBLP V0203201N003112200019N0112651N1+03301+02001999999ADDGA1021+009001999GF102991999999999999999999MA1101021999999REMMET051METAR SBLP 282000Z 32006KT 9999 FEW030 33/20 Q1010;
0120832880999992013032821004-13267-043417FM-15+0443SBLP V0203001N001512200019N0112651N1+03101+02101999999ADDGA1021+009001999GF102991999999999999999999MA1101021999999REMMET051METAR SBLP 282100Z 30003KT 9999 FEW030 31/21 Q1010;
0143832880999992013032909154-13267-043417FM-16+0443SBLP V0209999C000010300019N0112651N1+02401+02301999999ADDGA1041+006001999GA2071+030001999GF107991999999999999999999MA1101391999999REMMET058SPECI SBLP 290915Z 00000KT 9999 SCT020 BKN100 24/23 Q1014;
0143832880999992013032910004-13267-043417FM-15+0443SBLP V0209999C000010300019N0112651N1+02401+02301999999ADDGA1041+006001999GA2071+030001999GF107991999999999999999999MA1101491999999REMMET058METAR SBLP 291000Z 00000KT 9999 SCT020 BKN100 24/23 Q1015;
0143832880999992013032911004-13267-043417FM-15+0443SBLP V0203301N002110300019N0112651N1+02401+02301999999ADDGA1041+006001999GA2071+030001999GF107991999999999999999999MA1101491999999REMMET058METAR SBLP 291100Z 33004KT 9999 SCT020 BKN100 24/23 Q1015;
0143832880999992013032912004-13267-043417FM-15+0443SBLP V0209999C000010060019N0112651N1+02601+02301999999ADDGA1071+006001999GA2071+030001999GF107991999999999999999999MA1101591999999REMMET058METAR SBLP 291200Z 00000KT 9999 BKN020 BKN100 26/23 Q1016;
0143832880999992013032913004-13267-043417FM-15+0443SBLP V0209999C000010300019N0112651N1+02701+02301999999ADDGA1021+009001999GA2071+030001999GF107991999999999999999999MA1101591999999REMMET058METAR SBLP 291300Z 00000KT 9999 FEW030 BKN100 27/23 Q1016;
0143832880999992013032914004-13267-043417FM-15+0443SBLP V0209999C000012200019N0112651N1+02901+02301999999ADDGA1021+009001999GA2041+030001999GF104991999999999999999999MA1101591999999REMMET058METAR SBLP 291400Z 00000KT 9999 FEW030 SCT100 29/23 Q1016;
0143832880999992013032915004-13267-043417FM-15+0443SBLP V0202501N003110300019N0112651N1+03001+02201999999ADDGA1041+009001999GA2071+030001999GF107991999999999999999999MA1101491999999REMMET058METAR SBLP 291500Z 25006KT 9999 SCT030 BKN100 30/22 Q1015;
0143832880999992013032916004-13267-043417FM-15+0443SBLP V0209999C000012200019N0112651N1+03101+02001999999ADDGA1021+009001999GA2041+030001999GF104991999999999999999999MA1101391999999REMMET058METAR SBLP 291600Z 00000KT 9999 FEW030 SCT100 31/20 Q1014;
0120832880999992013032917004-13267-043417FM-15+0443SBLP V0209999C000012200019N0112651N1+03201+02101999999ADDGA1021+009001999GF102991999999999999999999MA1101291999999REMMET051METAR SBLP 291700Z 00000KT 9999 FEW030 32/21 Q1013;
0120832880999992013032918004-13267-043417FM-15+0443SBLP V0209999C000012200019N0112651N1+03301+02101999999ADDGA1021+009001999GF102991999999999999999999MA1101191999999REMMET051METAR SBLP 291800Z 00000KT 9999 FEW030 33/21 Q1012;
0120832880999992013032919004-13267-043417FM-15+0443SBLP V0209999C000012200019N0112651N1+03401+02001999999ADDGA1021+009001999GF102991999999999999999999MA1101081999999REMMET051METAR SBLP 291900Z 00000KT 9999 FEW030 34/20 Q1011;
0120832880999992013032920004-13267-043417FM-15+0443SBLP V0202501N002112200019N0112651N1+03401+02101999999ADDGA1021+009001999GF102991999999999999999999MA1101191999999REMMET051METAR SBLP 292000Z 25004KT 9999 FEW030 34/21 Q1012;
0072832880999992013032921004-13267-043417FM-15+0443SBLP V0202701N001519999999Y0099001N1+03201+02201999999ADDMA1101191999999REMMET045METAR SBLP 292100Z 27003KT CAVOK 32/22 Q1012;
0120832880999992013040109154-13267-043417FM-16+0443SBLP V0209999C000010060019N0112651N1+02301+02001999999ADDGA1071+006001999GF107991999999999999999999MA1101691999999REMMET051SPECI SBLP 010915Z 00000KT 9999 BKN020 23/20 Q1017;
0120832880999992013040110004-13267-043417FM-15+0443SBLP V0209999C000010060019N0112651N1+02301+02001999999ADDGA1071+006001999GF107991999999999999999999MA1101691999999REMMET051METAR SBLP 011000Z 00000KT 9999 BKN020 23/20 Q1017;
0120832880999992013040111004-13267-043417FM-15+0443SBLP V0209999C000012200019N0112651N1+02701+02001999999ADDGA1021+009001999GF102991999999999999999999MA1101801999999REMMET051METAR SBLP 011100Z 00000KT 9999 FEW030 27/20 Q1018;
0072832880999992013040112004-13267-043417FM-15+0443SBLP V0202401N003119999999Y0099001N1+03001+01801999999ADDMA1101801999999REMMET045METAR SBLP 011200Z 24006KT CAVOK 30/18 Q1018;
0072832880999992013040113004-13267-043417FM-15+0443SBLP V0202001N002119999999Y0099001N1+03101+01701999999ADDMA1101801999999REMMET045METAR SBLP 011300Z 20004KT CAVOK 31/17 Q1018;
0072832880999992013040114004-13267-043417FM-15+0443SBLP V0202401N003119999999Y0099001N1+03201+01801999999ADDMA1101801999999REMMET045METAR SBLP 011400Z 24006KT CAVOK 32/18 Q1018;
0072832880999992013040115004-13267-043417FM-15+0443SBLP V0202401N001519999999Y0099001N1+03301+01701999999ADDMA1101691999999REMMET045METAR SBLP 011500Z 24003KT CAVOK 33/17 Q1017;
0120832880999992013040116004-13267-043417FM-15+0443SBLP V0200201N003112200019N0112651N1+03301+01801999999ADDGA1021+009001999GF102991999999999999999999MA1101591999999REMMET051METAR SBLP 011600Z 02006KT 9999 FEW030 33/18 Q1016;
0120832880999992013040117004-13267-043417FM-15+0443SBLP V0203101N002612200019N0112651N1+03501+01701999999ADDGA1021+009001999GF102991999999999999999999MA1101391999999REMMET051METAR SBLP 011700Z 31005KT 9999 FEW030 35/17 Q1014;
0120832880999992013040118004-13267-043417FM-15+0443SBLP V0203001N003612200019N0112651N1+03501+01901999999ADDGA1041+009001999GF104991999999999999999999MA1101391999999REMMET051METAR SBLP 011800Z 30007KT 9999 SCT030 35/19 Q1014;
0120832880999992013040119004-13267-043417FM-15+0443SBLP V0209999C000012200019N0112651N1+03601+01301999999ADDGA1041+009001999GF104991999999999999999999MA1101291999999REMMET051METAR SBLP 011900Z 00000KT 9999 SCT030 36/13 Q1013;
0120832880999992013040120004-13267-043417FM-15+0443SBLP V0203301N002612200019N0112651N1+03501+01501999999ADDGA1021+009001999GF102991999999999999999999MA1101291999999REMMET051METAR SBLP 012000Z 33005KT 9999 FEW030 35/15 Q1013;
0120832880999992013040121004-13267-043417FM-15+0443SBLP V0200301N003112200019N0112651N1+03201+01801999999ADDGA1021+009001999GF102991999999999999999999MA1101291999999REMMET051METAR SBLP 012100Z 03006KT 9999 FEW030 32/18 Q1013;
0072832880999992013040209154-13267-043417FM-16+0443SBLP V0209999C000019999999Y0099001N1+02201+01901999999ADDMA1101491999999REMMET045SPECI SBLP 020915Z 00000KT CAVOK 22/19 Q1015;
0072832880999992013040210004-13267-043417FM-15+0443SBLP V0202901N002119999999Y0099001N1+02301+01901999999ADDMA1101591999999REMMET045METAR SBLP 021000Z 29004KT CAVOK 23/19 Q1016;
0072832880999992013040211004-13267-043417FM-15+0443SBLP V0202701N003119999999Y0099001N1+02601+02001999999ADDMA1101591999999REMMET045METAR SBLP 021100Z 27006KT CAVOK 26/20 Q1016;
0072832880999992013040212004-13267-043417FM-15+0443SBLP V0202801N001519999999Y0099001N1+03001+02001999999ADDMA1101691999999REMMET045METAR SBLP 021200Z 28003KT CAVOK 30/20 Q1017;
0143832880999992013040213004-13267-043417FM-15+0443SBLP V0201601N003110300019N0112651N1+03101+02001999999ADDGA1021+009001999GA2071+030001999GF107991999999999999999999MA1101691999999REMMET058METAR SBLP 021300Z 16006KT 9999 FEW030 BKN100 31/20 Q1017;
0143832880999992013040214004-13267-043417FM-15+0443SBLP V0202201N003110300019N0112651N1+03301+02001999999ADDGA1021+009001999GA2071+030001999GF107991999999999999999999MA1101591999999REMMET058METAR SBLP 021400Z 22006KT 9999 FEW030 BKN100 33/20 Q1016;
0143832880999992013040215004-13267-043417FM-15+0443SBLP V0202101N003110300019N0112651N1+03301+01901999999ADDGA1041+009001999GA2071+030001999GF107991999999999999999999MA1101491999999REMMET058METAR SBLP 021500Z 21006KT 9999 SCT030 BKN100 33/19 Q1015;
0136832880999992013040216004-13267-043417FM-15+0443SBLP V0209999C00001008101CN0112651N1+03401+01901999999ADDGA1071+008101999GA2041+030001999MA1101391999999REMMET058METAR SBLP 021600Z 00000KT 9999 BKN027 SCT100 34/19 Q1014;EQDQ01+000042SCOTCV
0120832880999992013040217004-13267-043417FM-15+0443SBLP V0209999C000010081019N0112651N1+03501+01901999999ADDGA1071+008101999GF107991999999999999999999MA1101191999999REMMET051METAR SBLP 021700Z 00000KT 9999 BKN027 35/19 Q1012;
0120832880999992013040218004-13267-043417FM-15+0443SBLP V0203601N003110081019N0112651N1+03301+02101999999ADDGA1071+008101999GF107991999999999999999999MA1101191999999REMMET051METAR SBLP 021800Z 36006KT 9999 BKN027 33/21 Q1012;
0120832880999992013040219004-13267-043417FM-15+0443SBLP V0202901N002110081019N0112651N1+03401+02101999999ADDGA1071+008101999GF107991999999999999999999MA1101191999999REMMET051METAR SBLP 021900Z 29004KT 9999 BKN027 34/21 Q1012;
0120832880999992013040220004-13267-043417FM-15+0443SBLP V0203601N002610081019N0112651N1+03301+02101999999ADDGA1071+008101999GF107991999999999999999999MA1101191999999REMMET051METAR SBLP 022000Z 36005KT 9999 BKN027 33/21 Q1012;
0153832880999992013040221004-13267-043417FM-15+0443SBLP V0209999C000010081019N0090001N1+03101+02101999999ADDGA1021+006001999GA2071+008101999GF107991999999999999999999MA1101291999999MW1611REMMET062METAR SBLP 022100Z 00000KT 9000 -RA FEW020 BKN027 31/21 Q1013;
0072832880999992013040309154-13267-043417FM-16+0443SBLP V0209999C000019999999Y0099001N1+02301+02201999999ADDMA1101491999999REMMET045SPECI SBLP 030915Z 00000KT CAVOK 23/22 Q1015;
0072832880999992013040310004-13267-043417FM-15+0443SBLP V0209999C000019999999Y0099001N1+02301+02301999999ADDMA1101591999999REMMET045METAR SBLP 031000Z 00000KT CAVOK 23/23 Q1016;
0072832880999992013040311004-13267-043417FM-15+0443SBLP V0209999C000019999999Y0099001N1+02601+02301999999ADDMA1101591999999REMMET045METAR SBLP 031100Z 00000KT CAVOK 26/23 Q1016;
0072832880999992013040312004-13267-043417FM-15+0443SBLP V0209999C000019999999Y0099001N1+02901+02001999999ADDMA1101691999999REMMET045METAR SBLP 031200Z 00000KT CAVOK 29/20 Q1017;
0072832880999992013040313004-13267-043417FM-15+0443SBLP V0209999C000019999999Y0099001N1+03101+02001999999ADDMA1101691999999REMMET045METAR SBLP 031300Z 00000KT CAVOK 31/20 Q1017;
0120832880999992013040314004-13267-043417FM-15+0443SBLP V0209999C000012200019N0112651N1+03201+02101999999ADDGA1021+009001999GF102991999999999999999999MA1101591999999REMMET051METAR SBLP 031400Z 00000KT 9999 FEW030 32/21 Q1016;
0120832880999992013040315004-13267-043417FM-15+0443SBLP V0209999C000012200019N0112651N1+03201+02101999999ADDGA1021+009001999GF102991999999999999999999MA1101491999999REMMET051METAR SBLP 031500Z 00000KT 9999 FEW030 32/21 Q1015;
0120832880999992013040316004-13267-043417FM-15+0443SBLP V0201401N003112200019N0112651N1+03201+02001999999ADDGA1041+009001999GF104991999999999999999999MA1101391999999REMMET051METAR SBLP 031600Z 14006KT 9999 SCT030 32/20 Q1014;
0120832880999992013040317004-13267-043417FM-15+0443SBLP V0200301N004112200019N0112651N1+03401+01901999999ADDGA1041+009001999GF104991999999999999999999MA1101191999999REMMET051METAR SBLP 031700Z 03008KT 9999 SCT030 34/19 Q1012;
0120832880999992013040318004-13267-043417FM-15+0443SBLP V0200901N002112200019N0112651N1+03501+01901999999ADDGA1041+009001999GF104991999999999999999999MA1101191999999REMMET051METAR SBLP 031800Z 09004KT 9999 SCT030 35/19 Q1012;
0120832880999992013040319004-13267-043417FM-15+0443SBLP V0200101N003112200019N0112651N1+03501+01701999999ADDGA1021+009001999GF102991999999999999999999MA1101081999999REMMET051METAR SBLP 031900Z 01006KT 9999 FEW030 35/17 Q1011;
0120832880999992013040320004-13267-043417FM-15+0443SBLP V0200101N003612200019N0112651N1+03501+01601999999ADDGA1021+009001999GF102991999999999999999999MA1101081999999REMMET051METAR SBLP 032000Z 01007KT 9999 FEW030 35/16 Q1011;
0120832880999992013040321004-13267-043417FM-15+0443SBLP V0203301N002112200019N0112651N1+03301+01801999999ADDGA1021+009001999GF102991999999999999999999MA1101081999999REMMET051METAR SBLP 032100Z 33004KT 9999 FEW030 33/18 Q1011;
0072832880999992013040409154-13267-043417FM-16+0443SBLP V0209999C000019999999Y0099001N1+02201+01701999999ADDMA1101391999999REMMET045SPECI SBLP 040915Z 00000KT CAVOK 22/17 Q1014;
0072832880999992013040410004-13267-043417FM-15+0443SBLP V0209999C000019999999Y0099001N1+02301+01801999999ADDMA1101491999999REMMET045METAR SBLP 041000Z 00000KT CAVOK 23/18 Q1015;
0072832880999992013040411004-13267-043417FM-15+0443SBLP V0209999C000019999999Y0099001N1+02501+02001999999ADDMA1101591999999REMMET045METAR SBLP 041100Z 00000KT CAVOK 25/20 Q1016;
0072832880999992013040412004-13267-043417FM-15+0443SBLP V0209999C000019999999Y0099001N1+02801+01901999999ADDMA1101591999999REMMET045METAR SBLP 041200Z 00000KT CAVOK 28/19 Q1016;
0072832880999992013040413004-13267-043417FM-15+0443SBLP V0203101N001519999999Y0099001N1+03101+01901999999ADDMA1101691999999REMMET045METAR SBLP 041300Z 31003KT CAVOK 31/19 Q1017;
0120832880999992013040414004-13267-043417FM-15+0443SBLP V0209999C000012200019N0112651N1+03201+01901999999ADDGA1021+009001999GF102991999999999999999999MA1101591999999REMMET051METAR SBLP 041400Z 00000KT 9999 FEW030 32/19 Q1016;
0120832880999992013040415004-13267-043417FM-15+0443SBLP V0201301N003112200019N0112651N1+03301+01901999999ADDGA1021+009001999GF102991999999999999999999MA1101491999999REMMET051METAR SBLP 041500Z 13006KT 9999 FEW030 33/19 Q1015;
0120832880999992013040416004-13267-043417FM-15+0443SBLP V0200301N002612200019N0112651N1+03301+01801999999ADDGA1021+009001999GF102991999999999999999999MA1101291999999REMMET051METAR SBLP 041600Z 03005KT 9999 FEW030 33/18 Q1013;
0120832880999992013040417004-13267-043417FM-15+0443SBLP V0200901N002112200019N0112651N1+03401+01801999999ADDGA1021+009001999GF102991999999999999999999MA1101191999999REMMET051METAR SBLP 041700Z 09004KT 9999 FEW030 34/18 Q1012;
0120832880999992013040418004-13267-043417FM-15+0443SBLP V0201001N002612200019N0112651N1+03501+01801999999ADDGA1021+009001999GF102991999999999999999999MA1101081999999REMMET051METAR SBLP 041800Z 10005KT 9999 FEW030 35/18 Q1011;
0120832880999992013040419004-13267-043417FM-15+0443SBLP V0200601N001512200019N0112651N1+03401+01701999999ADDGA1021+009001999GF102991999999999999999999MA1101081999999REMMET051METAR SBLP 041900Z 06003KT 9999 FEW030 34/17 Q1011;
0120832880999992013040420004-13267-043417FM-15+0443SBLP V0200801N002112200019N0112651N1+03401+01801999999ADDGA1021+009001999GF102991999999999999999999MA1101081999999REMMET051METAR SBLP 042000Z 08004KT 9999 FEW030 34/18 Q1011;
0120832880999992013040421004-13267-043417FM-15+0443SBLP V0209999C000012200019N0112651N1+03201+01901999999ADDGA1021+009001999GF102991999999999999999999MA1101081999999REMMET051METAR SBLP 042100Z 00000KT 9999 FEW030 32/19 Q1011;
0072832880999992013040509154-13267-043417FM-16+0443SBLP V0209999C000019999999Y0099001N1+02201+02101999999ADDMA1101391999999REMMET045SPECI SBLP 050915Z 00000KT CAVOK 22/21 Q1014;
0072832880999992013040510004-13267-043417FM-15+0443SBLP V0209999C000019999999Y0099001N1+02301+02101999999ADDMA1101391999999REMMET045METAR SBLP 051000Z 00000KT CAVOK 23/21 Q1014;
0072832880999992013040511004-13267-043417FM-15+0443SBLP V0201901N001519999999Y0099001N1+02601+02001999999ADDMA1101491999999REMMET045METAR SBLP 051100Z 19003KT CAVOK 26/20 Q1015;
0072832880999992013040512004-13267-043417FM-15+0443SBLP V0209999C000019999999Y0099001N1+02901+02001999999ADDMA1101591999999REMMET045METAR SBLP 051200Z 00000KT CAVOK 29/20 Q1016;
0072832880999992013040513004-13267-043417FM-15+0443SBLP V0202001N003119999999Y0099001N1+03101+02001999999ADDMA1101591999999REMMET045METAR SBLP 051300Z 20006KT CAVOK 31/20 Q1016;
0120832880999992013040514004-13267-043417FM-15+0443SBLP V0201801N002612200019N0112651N1+03201+01901999999ADDGA1021+009001999GF102991999999999999999999MA1101591999999REMMET051METAR SBLP 051400Z 18005KT 9999 FEW030 32/19 Q1016;
0120832880999992013040515004-13267-043417FM-15+0443SBLP V0201801N002612200019N0112651N1+03301+02001999999ADDGA1021+009001999GF102991999999999999999999MA1101491999999REMMET051METAR SBLP 051500Z 18005KT 9999 FEW030 33/20 Q1015;
0120832880999992013040516004-13267-043417FM-15+0443SBLP V0201501N003112200019N0112651N1+03401+01801999999ADDGA1021+009001999GF102991999999999999999999MA1101391999999REMMET051METAR SBLP 051600Z 15006KT 9999 FEW030 34/18 Q1014;
0155832880999992013040517004-13267-043417FM-15+0443SBLP V0209999C000012200019N0112651N1+03401+99999999999ADDGA1021+009001999GF102991999999999999999999MA1101291999999REMMET051METAR SBLP 051700Z 00000KT 9999 FEW030 34/29 Q1013;EQDQ01+002903ATOD  Q02 +02903ATOD  
0120832880999992013040518004-13267-043417FM-15+0443SBLP V0201201N002112200019N0112651N1+03401+01801999999ADDGA1021+009001999GF102991999999999999999999MA1101081999999REMMET051METAR SBLP 051800Z 12004KT 9999 FEW030 34/18 Q1011;
0120832880999992013040519004-13267-043417FM-15+0443SBLP V0201601N001512200019N0112651N1+03501+01701999999ADDGA1021+009001999GF102991999999999999999999MA1101081999999REMMET051METAR SBLP 051900Z 16003KT 9999 FEW030 35/17 Q1011;
0120832880999992013040520004-13267-043417FM-15+0443SBLP V0201501N001512200019N0112651N1+03401+01801999999ADDGA1021+009001999GF102991999999999999999999MA1101081999999REMMET051METAR SBLP 052000Z 15003KT 9999 FEW030 34/18 Q1011;
0072832880999992013040521004-13267-043417FM-15+0443SBLP V0209999C000019999999Y0099001N1+03201+01801999999ADDMA1101081999999REMMET045METAR SBLP 052100Z 00000KT CAVOK 32/18 Q1011;
0143832880999992013040809154-13267-043417FM-16+0443SBLP V0203501N002110300019N0112651N1+02401+02201999999ADDGA1041+006001999GA2071+030001999GF107991999999999999999999MA1101491999999REMMET058SPECI SBLP 080915Z 35004KT 9999 SCT020 BKN100 24/22 Q1015;
0143832880999992013040810004-13267-043417FM-15+0443SBLP V0203501N002110300019N0112651N1+02401+02201999999ADDGA1041+006001999GA2071+030001999GF107991999999999999999999MA1101591999999REMMET058METAR SBLP 081000Z 35004KT 9999 SCT020 BKN100 24/22 Q1016;
0143832880999992013040811004-13267-043417FM-15+0443SBLP V0200101N001512200019N0112651N1+02601+02201999999ADDGA1021+006001999GA2041+030001999GF104991999999999999999999MA1101591999999REMMET058METAR SBLP 081100Z 01003KT 9999 FEW020 SCT100 26/22 Q1016;
0143832880999992013040812004-13267-043417FM-15+0443SBLP V0203001N002112200019N0112651N1+02801+02201999999ADDGA1021+006001999GA2041+030001999GF104991999999999999999999MA1101591999999REMMET058METAR SBLP 081200Z 30004KT 9999 FEW020 SCT100 28/22 Q1016;
0120832880999992013040813004-13267-043417FM-15+0443SBLP V0203101N002112200019N0112651N1+02901+02201999999ADDGA1021+009001999GF102991999999999999999999MA1101591999999REMMET051METAR SBLP 081300Z 31004KT 9999 FEW030 29/22 Q1016;
0120832880999992013040814004-13267-043417FM-15+0443SBLP V0202901N002112200019N0112651N1+03101+02101999999ADDGA1021+009001999GF102991999999999999999999MA1101491999999REMMET051METAR SBLP 081400Z 29004KT 9999 FEW030 31/21 Q1015;
0120832880999992013040815004-13267-043417FM-15+0443SBLP V0202101N001512200019N0112651N1+03101+02301999999ADDGA1021+009001999GF102991999999999999999999MA1101391999999REMMET051METAR SBLP 081500Z 21003KT 9999 FEW030 31/23 Q1014;
0120832880999992013040816004-13267-043417FM-15+0443SBLP V0209999C000012200019N0112651N1+03201+02301999999ADDGA1021+009001999GF102991999999999999999999MA1101291999999REMMET051METAR SBLP 081600Z 00000KT 9999 FEW030 32/23 Q1013;
0120832880999992013040817004-13267-043417FM-15+0443SBLP V0202701N002612200019N0112651N1+03401+02101999999ADDGA1041+009001999GF104991999999999999999999MA1101081999999REMMET051METAR SBLP 081700Z 27005KT 9999 SCT030 34/21 Q1011;
0120832880999992013040818004-13267-043417FM-15+0443SBLP V0202101N002612200019N0112651N1+03501+02101999999ADDGA1041+009001999GF104991999999999999999999MA1101021999999REMMET051METAR SBLP 081800Z 21005KT 9999 SCT030 35/21 Q1010;
0120832880999992013040819004-13267-043417FM-15+0443SBLP V0201501N001512200019N0112651N1+03401+02101999999ADDGA1041+009001999GF104991999999999999999999MA1101021999999REMMET051METAR SBLP 081900Z 15003KT 9999 SCT030 34/21 Q1010;
0143832880999992013040820004-13267-043417FM-15+0443SBLP V0209999C000012200019N0112651N1+03401+02101999999ADDGA1041+009001999GA2041+030001999GF104991999999999999999999MA1101021999999REMMET058METAR SBLP 082000Z 00000KT 9999 SCT030 SCT100 34/21 Q1010;
0177832880999992013040821004-13267-043417FM-15+0443SBLP V0203301N00211008101CN0080001N1+03201+02201999999ADDGA1021+005101999GA2041+008101999GA3071+030001999GF107991999999999999999999MA1101081999999MW1161REMMET070METAR SBLP 082100Z 33004KT 8000 VCSH FEW017 SCT027 BKN100 32/22 Q1011;
0143832880999992013040909154-13267-043417FM-16+0443SBLP V0209999C000010300019N0112651N1+02501+02201999999ADDGA1021+006001999GA2071+030001999GF107991999999999999999999MA1101291999999REMMET058SPECI SBLP 090915Z 00000KT 9999 FEW020 BKN100 25/22 Q1013;
0143832880999992013040910004-13267-043417FM-15+0443SBLP V0209999C000010300019N0112651N1+02501+02201999999ADDGA1021+006001999GA2071+030001999GF107991999999999999999999MA1101391999999REMMET058METAR SBLP 091000Z 00000KT 9999 FEW020 BKN100 25/22 Q1014;
0143832880999992013040911004-13267-043417FM-15+0443SBLP V0209999C000010300019N0112651N1+02601+02301999999ADDGA1021+006001999GA2071+030001999GF107991999999999999999999MA1101491999999REMMET058METAR SBLP 091100Z 00000KT 9999 FEW020 BKN100 26/23 Q1015;
0143832880999992013040912004-13267-043417FM-15+0443SBLP V0209999C000010300019N0112651N1+02901+02301999999ADDGA1021+006001999GA2071+030001999GF107991999999999999999999MA1101491999999REMMET058METAR SBLP 091200Z 00000KT 9999 FEW020 BKN100 29/23 Q1015;
0143832880999992013040913004-13267-043417FM-15+0443SBLP V0201501N002112200019N0112651N1+03001+02301999999ADDGA1041+009001999GA2041+030001999GF104991999999999999999999MA1101491999999REMMET058METAR SBLP 091300Z 15004KT 9999 SCT030 SCT100 30/23 Q1015;
0143832880999992013040914004-13267-043417FM-15+0443SBLP V0201501N002112200019N0112651N1+03001+02301999999ADDGA1041+008101999GA2041+030001999GF104991999999999999999999MA1101491999999REMMET058METAR SBLP 091400Z 15004KT 9999 SCT027 SCT100 30/23 Q1015;
0143832880999992013040915004-13267-043417FM-15+0443SBLP V0201501N002612200019N0112651N1+03201+02201999999ADDGA1041+008101999GA2041+030001999GF104991999999999999999999MA1101291999999REMMET058METAR SBLP 091500Z 15005KT 9999 SCT027 SCT100 32/22 Q1013;
0188832880999992013040916004-13267-043417FM-15+0443SBLP V0201501N003110090019N0112651N1+03201+02201999999ADDGA1071+009001999GA2021+012001091GA3071+030001999GF107991999999999999999999MA1101191999999MW1161MW2171REMMET075METAR SBLP 091600Z 15006KT 9999 TS VCSH BKN030 FEW040CB BKN100 32/22 Q1012;
0177832880999992013040917004-13267-043417FM-15+0443SBLP V0203501N004110090019N0112651N1+03101+02101999999ADDGA1071+009001999GA2021+012001091GA3071+030001999GF107991999999999999999999MA1101191999999MW1171REMMET070METAR SBLP 091700Z 35008KT 9999 TS BKN030 FEW040CB BKN100 31/21 Q1012;
0177832880999992013040918004-13267-043417FM-15+0443SBLP V0203301N00511012001CN0112651N1+03101+02101999999ADDGA1041+009001999GA2021+012001091GA3071+030001999GF107991999999999999999999MA1101081999999MW1171REMMET070METAR SBLP 091800Z 33010KT 9999 TS SCT030 FEW040CB BKN100 31/21 Q1011;
0077832880999992013040919004-13267-043417FM-15+0443SBLP V0200601N003119999999Y0099001N1+02801+02201999999ADDMA1101081999999REMMET050METAR SBLP 091900Z 06006KT CAVOK 28/22 Q1011 RETS;
0143832880999992013040920004-13267-043417FM-15+0443SBLP V0200901N003110300019N0112651N1+02701+02201999999ADDGA1021+006001999GA2071+030001999GF107991999999999999999999MA1101191999999REMMET058METAR SBLP 092000Z 09006KT 9999 FEW020 BKN100 27/22 Q1012;
0143832880999992013040921004-13267-043417FM-15+0443SBLP V0200901N003110300019N0112651N1+02601+02301999999ADDGA1041+006001999GA2071+030001999GF107991999999999999999999MA1101191999999REMMET058METAR SBLP 092100Z 09006KT 9999 SCT020 BKN100 26/23 Q1012;
0143832880999992013041009154-13267-043417FM-16+0443SBLP V0201201N002112200019N0112651N1+02301+02201999999ADDGA1021+006001999GA2041+030001999GF104991999999999999999999MA1101291999999REMMET058SPECI SBLP 100915Z 12004KT 9999 FEW020 SCT100 23/22 Q1013;
0143832880999992013041010004-13267-043417FM-15+0443SBLP V0200601N001510300019N0112651N1+02401+02301999999ADDGA1041+006001999GA2071+030001999GF107991999999999999999999MA1101391999999REMMET058METAR SBLP 101000Z 06003KT 9999 SCT020 BKN100 24/23 Q1014;
0143832880999992013041011004-13267-043417FM-15+0443SBLP V0200601N002110300019N0112651N1+02501+02301999999ADDGA1021+006001999GA2071+030001999GF107991999999999999999999MA1101391999999REMMET058METAR SBLP 101100Z 06004KT 9999 FEW020 BKN100 25/23 Q1014;
0072832880999992013041012004-13267-043417FM-15+0443SBLP V0203501N002119999999Y0099001N1+02701+02201999999ADDMA1101491999999REMMET045METAR SBLP 101200Z 35004KT CAVOK 27/22 Q1015;
0120832880999992013041013004-13267-043417FM-15+0443SBLP V0200501N001512200019N0112651N1+03001+02201999999ADDGA1021+009001999GF102991999999999999999999MA1101491999999REMMET051METAR SBLP 101300Z 05003KT 9999 FEW030 30/22 Q1015;
0120832880999992013041014004-13267-043417FM-15+0443SBLP V0203301N002612200019N0112651N1+03201+02101999999ADDGA1041+009001999GF104991999999999999999999MA1101491999999REMMET051METAR SBLP 101400Z 33005KT 9999 SCT030 32/21 Q1015;
0120832880999992013041015004-13267-043417FM-15+0443SBLP V0203101N002112200019N0112651N1+03401+02201999999ADDGA1041+009001999GF104991999999999999999999MA1101391999999REMMET051METAR SBLP 101500Z 31004KT 9999 SCT030 34/22 Q1014;
0120832880999992013041016004-13267-043417FM-15+0443SBLP V0202701N001512200019N0112651N1+03401+02001999999ADDGA1041+009001999GF104991999999999999999999MA1101191999999REMMET051METAR SBLP 101600Z 27003KT 9999 SCT030 34/20 Q1012;
0120832880999992013041017004-13267-043417FM-15+0443SBLP V0200901N001510090019N0112651N1+03401+02101999999ADDGA1071+009001999GF107991999999999999999999MA1101021999999REMMET051METAR SBLP 101700Z 09003KT 9999 BKN030 34/21 Q1010;
0120832880999992013041018004-13267-043417FM-15+0443SBLP V0201201N003110090019N0112651N1+03301+02101999999ADDGA1071+009001999GF107991999999999999999999MA1101021999999REMMET051METAR SBLP 101800Z 12006KT 9999 BKN030 33/21 Q1010;
0143832880999992013041019004-13267-043417FM-15+0443SBLP V0203601N003110069019N0112651N1+02801+02401999999ADDGA1071+006901999GA2071+030001999GF107991999999999999999999MA1101021999999REMMET058METAR SBLP 101900Z 36006KT 9999 BKN023 BKN100 28/24 Q1010;
0143832880999992013041020004-13267-043417FM-15+0443SBLP V0200701N002612200019N0112651N1+02801+02501999999ADDGA1041+008101999GA2041+030001999GF104991999999999999999999MA1101021999999REMMET058METAR SBLP 102000Z 07005KT 9999 SCT027 SCT100 28/25 Q1010;
0143832880999992013041021004-13267-043417FM-15+0443SBLP V0200901N003110300019N0112651N1+02701+02401999999ADDGA1041+009001999GA2071+030001999GF107991999999999999999999MA1101081999999REMMET058METAR SBLP 102100Z 09006KT 9999 SCT030 BKN100 27/24 Q1011;
0143832880999992013041109154-13267-043417FM-16+0443SBLP V0200901N002112200019N0112651N1+02301+02301999999ADDGA1041+002101999GA2041+030001999GF104991999999999999999999MA1101491999999REMMET058SPECI SBLP 110915Z 09004KT 9999 SCT007 SCT100 23/23 Q1015;
0143832880999992013041110004-13267-043417FM-15+0443SBLP V0201001N002610300019N0112651N1+02401+02301999999ADDGA1041+002101999GA2071+030001999GF107991999999999999999999MA1101591999999REMMET058METAR SBLP 111000Z 10005KT 9999 SCT007 BKN100 24/23 Q1016;
0143832880999992013041111004-13267-043417FM-15+0443SBLP V0200801N003110300019N0112651N1+02401+02301999999ADDGA1021+002101999GA2071+030001999GF107991999999999999999999MA1101591999999REMMET058METAR SBLP 111100Z 08006KT 9999 FEW007 BKN100 24/23 Q1016;
0143832880999992013041112004-13267-043417FM-15+0443SBLP V0200701N003110300019N0112651N1+02601+02301999999ADDGA1021+006001999GA2071+030001999GF107991999999999999999999MA1101691999999REMMET058METAR SBLP 111200Z 07006KT 9999 FEW020 BKN100 26/23 Q1017;
0143832880999992013041113004-13267-043417FM-15+0443SBLP V0200601N003112200019N0112651N1+02801+02201999999ADDGA1021+009001999GA2041+030001999GF104991999999999999999999MA1101691999999REMMET058METAR SBLP 111300Z 06006KT 9999 FEW030 SCT100 28/22 Q1017;
0143832880999992013041114004-13267-043417FM-15+0443SBLP V0203101N002112200019N0112651N1+03001+02101999999ADDGA1041+009001999GA2041+030001999GF104991999999999999999999MA1101691999999REMMET058METAR SBLP 111400Z 31004KT 9999 SCT030 SCT100 30/21 Q1017;
0120832880999992013041115004-13267-043417FM-15+0443SBLP V0209999C000010090019N0112651N1+03201+02001999999ADDGA1071+009001999GF107991999999999999999999MA1101591999999REMMET051METAR SBLP 111500Z 00000KT 9999 BKN030 32/20 Q1016;
0143832880999992013041116004-13267-043417FM-15+0443SBLP V0200801N003112200019N0112651N1+03101+02201999999ADDGA1041+009001999GA2041+030001999GF104991999999999999999999MA1101491999999REMMET058METAR SBLP 111600Z 08006KT 9999 SCT030 SCT100 31/22 Q1015;
0143832880999992013041117004-13267-043417FM-15+0443SBLP V0209999C000012200019N0112651N1+03201+01901999999ADDGA1041+008101999GA2041+030001999GF104991999999999999999999MA1101391999999REMMET058METAR SBLP 111700Z 00000KT 9999 SCT027 SCT100 32/19 Q1014;
0143832880999992013041118004-13267-043417FM-15+0443SBLP V0201901N002112200019N0112651N1+03201+02101999999ADDGA1041+008101999GA2041+030001999GF104991999999999999999999MA1101291999999REMMET058METAR SBLP 111800Z 19004KT 9999 SCT027 SCT100 32/21 Q1013;
0120832880999992013041119004-13267-043417FM-15+0443SBLP V0200901N004112200019N0112651N1+03301+02101999999ADDGA1041+008101999GF104991999999999999999999MA1101291999999REMMET051METAR SBLP 111900Z 09008KT 9999 SCT027 33/21 Q1013;
0120832880999992013041120004-13267-043417FM-15+0443SBLP V0200901N003112200019N0112651N1+03201+02101999999ADDGA1021+009001999GF102991999999999999999999MA1101291999999REMMET051METAR SBLP 112000Z 09006KT 9999 FEW030 32/21 Q1013;
0072832880999992013041121004-13267-043417FM-15+0443SBLP V0200901N001519999999Y0099001N1+02901+02201999999ADDMA1101291999999REMMET045METAR SBLP 112100Z 09003KT CAVOK 29/22 Q1013;
0072832880999992013041209154-13267-043417FM-16+0443SBLP V0209999C000019999999Y0099001N1+02201+02101999999ADDMA1101491999999REMMET045SPECI SBLP 120915Z 00000KT CAVOK 22/21 Q1015;
0072832880999992013041210004-13267-043417FM-15+0443SBLP V0200801N001519999999Y0099001N1+02301+02101999999ADDMA1101491999999REMMET045METAR SBLP 121000Z 08003KT CAVOK 23/21 Q1015;
0072832880999992013041211004-13267-043417FM-15+0443SBLP V0200801N002119999999Y0099001N1+02601+02101999999ADDMA1101591999999REMMET045METAR SBLP 121100Z 08004KT CAVOK 26/21 Q1016;
0072832880999992013041212004-13267-043417FM-15+0443SBLP V0200301N002119999999Y0099001N1+02901+02001999999ADDMA1101691999999REMMET045METAR SBLP 121200Z 03004KT CAVOK 29/20 Q1017;
0072832880999992013041213004-13267-043417FM-15+0443SBLP V0201001N001519999999Y0099001N1+03101+02001999999ADDMA1101691999999REMMET045METAR SBLP 121300Z 10003KT CAVOK 31/20 Q1017;
0120832880999992013041214004-13267-043417FM-15+0443SBLP V0200301N003112200019N0112651N1+03201+02001999999ADDGA1021+009001999GF102991999999999999999999MA1101591999999REMMET051METAR SBLP 121400Z 03006KT 9999 FEW030 32/20 Q1016;
0120832880999992013041215004-13267-043417FM-15+0443SBLP V0200401N003112200019N0112651N1+03301+02101999999ADDGA1041+009001999GF104991999999999999999999MA1101491999999REMMET051METAR SBLP 121500Z 04006KT 9999 SCT030 33/21 Q1015;
0120832880999992013041216004-13267-043417FM-15+0443SBLP V0201301N002612200019N0112651N1+03301+02101999999ADDGA1041+009001999GF104991999999999999999999MA1101391999999REMMET051METAR SBLP 121600Z 13005KT 9999 SCT030 33/21 Q1014;
0120832880999992013041217004-13267-043417FM-15+0443SBLP V0201001N002112200019N0112651N1+03501+02001999999ADDGA1041+009001999GF104991999999999999999999MA1101291999999REMMET051METAR SBLP 121700Z 10004KT 9999 SCT030 35/20 Q1013;
0120832880999992013041218004-13267-043417FM-15+0443SBLP V0201501N003112200019N0112651N1+03501+02001999999ADDGA1041+009001999GF104991999999999999999999MA1101191999999REMMET051METAR SBLP 121800Z 15006KT 9999 SCT030 35/20 Q1012;
0120832880999992013041219004-13267-043417FM-15+0443SBLP V0201501N002612200019N0112651N1+03501+01901999999ADDGA1041+009001999GF104991999999999999999999MA1101191999999REMMET051METAR SBLP 121900Z 15005KT 9999 SCT030 35/19 Q1012;
0120832880999992013041220004-13267-043417FM-15+0443SBLP V0201201N002112200019N0112651N1+03501+02001999999ADDGA1021+009001999GF102991999999999999999999MA1101191999999REMMET051METAR SBLP 122000Z 12004KT 9999 FEW030 35/20 Q1012;
0120832880999992013041221004-13267-043417FM-15+0443SBLP V0201201N002112200019N0112651N1+03201+02101999999ADDGA1021+009001999GF102991999999999999999999MA1101191999999REMMET051METAR SBLP 122100Z 12004KT 9999 FEW030 32/21 Q1012;
0072832880999992013041509154-13267-043417FM-16+0443SBLP V0209999C000019999999Y0099001N1+02401+02301999999ADDMA1101391999999REMMET045SPECI SBLP 150915Z 00000KT CAVOK 24/23 Q1014;
0143832880999992013041510004-13267-043417FM-15+0443SBLP V0201501N001512200019N0112651N1+02401+02201999999ADDGA1021+009001999GA2041+030001999GF104991999999999999999999MA1101391999999REMMET058METAR SBLP 151000Z 15003KT 9999 FEW030 SCT100 24/22 Q1014;
0143832880999992013041511004-13267-043417FM-15+0443SBLP V0200801N002110300019N0112651N1+02701+02201999999ADDGA1021+009001999GA2071+030001999GF107991999999999999999999MA1101591999999REMMET058METAR SBLP 151100Z 08004KT 9999 FEW030 BKN100 27/22 Q1016;
0143832880999992013041512004-13267-043417FM-15+0443SBLP V0203101N002112200019N0112651N1+03001+02201999999ADDGA1021+009001999GA2041+030001999GF104991999999999999999999MA1101591999999REMMET058METAR SBLP 151200Z 31004KT 9999 FEW030 SCT100 30/22 Q1016;
0072832880999992013041513004-13267-043417FM-15+0443SBLP V0203101N002619999999Y0099001N1+03101+02101999999ADDMA1101591999999REMMET045METAR SBLP 151300Z 31005KT CAVOK 31/21 Q1016;
0072832880999992013041514004-13267-043417FM-15+0443SBLP V0203101N002619999999Y0099001N1+03301+02201999999ADDMA1101491999999REMMET045METAR SBLP 151400Z 31005KT CAVOK 33/22 Q1015;
0120832880999992013041515004-13267-043417FM-15+0443SBLP V0202801N003112200019N0112651N1+03401+01901999999ADDGA1021+009001999GF102991999999999999999999MA1101391999999REMMET051METAR SBLP 151500Z 28006KT 9999 FEW030 34/19 Q1014;
0143832880999992013041516004-13267-043417FM-15+0443SBLP V0200201N003112200019N0112651N1+03501+01901999999ADDGA1041+009001999GA2041+030001999GF104991999999999999999999MA1101191999999REMMET058METAR SBLP 151600Z 02006KT 9999 SCT030 SCT100 35/19 Q1012;
0136832880999992013041517004-13267-043417FM-15+0443SBLP V0200901N00411009001CN0112651N1+03501+01901999999ADDGA1071+009001999GA2041+030001999MA1101191999999REMMET058METAR SBLP 151700Z 09008KT 9999 BKN030 SCT100 35/19 Q1012;EQDQ01+000042SCOTCV
0143832880999992013041518004-13267-043417FM-15+0443SBLP V0209999C000012200019N0112651N1+03601+01701999999ADDGA1041+009001999GA2041+030001999GF104991999999999999999999MA1101021999999REMMET058METAR SBLP 151800Z 00000KT 9999 SCT030 SCT100 36/17 Q1010;
0143832880999992013041519004-13267-043417FM-15+0443SBLP V0201201N001512200019N0112651N1+03501+01801999999ADDGA1021+009001999GA2041+030001999GF104991999999999999999999MA1101021999999REMMET058METAR SBLP 151900Z 12003KT 9999 FEW030 SCT100 35/18 Q1010;
0143832880999992013041520004-13267-043417FM-15+0443SBLP V0209999C000012200019N0112651N1+03501+01701999999ADDGA1021+009001999GA2041+030001999GF104991999999999999999999MA1101021999999REMMET058METAR SBLP 152000Z 00000KT 9999 FEW030 SCT100 35/17 Q1010;
0120832880999992013041521004-13267-043417FM-15+0443SBLP V0209999C000012200019N0112651N1+03301+01801999999ADDGA1021+009001999GF102991999999999999999999MA1101081999999REMMET051METAR SBLP 152100Z 00000KT 9999 FEW030 33/18 Q1011;
0072832880999992013041609154-13267-043417FM-16+0443SBLP V0209999C000019999999Y0099001N1+02301+02201999999ADDMA1101191999999REMMET045SPECI SBLP 160915Z 00000KT CAVOK 23/22 Q1012;
0072832880999992013041610004-13267-043417FM-15+0443SBLP V0209999C000019999999Y0099001N1+02401+02101999999ADDMA1101291999999REMMET045METAR SBLP 161000Z 00000KT CAVOK 24/21 Q1013;
0072832880999992013041611004-13267-043417FM-15+0443SBLP V0201501N003119999999Y0099001N1+02501+02201999999ADDMA1101391999999REMMET045METAR SBLP 161100Z 15006KT CAVOK 25/22 Q1014;
0120832880999992013041612004-13267-043417FM-15+0443SBLP V0209999C000012200019N0112651N1+02801+02101999999ADDGA1021+009001999GF102991999999999999999999MA1101391999999REMMET051METAR SBLP 161200Z 00000KT 9999 FEW030 28/21 Q1014;
0120832880999992013041613004-13267-043417FM-15+0443SBLP V0202901N003112200019N0112651N1+03001+02201999999ADDGA1021+009001999GF102991999999999999999999MA1101391999999REMMET051METAR SBLP 161300Z 29006KT 9999 FEW030 30/22 Q1014;
0120832880999992013041614004-13267-043417FM-15+0443SBLP V0202601N004112200019N0112651N1+03201+02101999999ADDGA1041+009001999GF104991999999999999999999MA1101291999999REMMET051METAR SBLP 161400Z 26008KT 9999 SCT030 32/21 Q1013;
0120832880999992013041615004-13267-043417FM-15+0443SBLP V0202101N003112200019N0112651N1+03401+02001999999ADDGA1041+009001999GF104991999999999999999999MA1101191999999REMMET051METAR SBLP 161500Z 21006KT 9999 SCT030 34/20 Q1012;
0120832880999992013041616004-13267-043417FM-15+0443SBLP V0201201N002112200019N0112651N1+03501+02001999999ADDGA1041+009001999GF104991999999999999999999MA1101081999999REMMET051METAR SBLP 161600Z 12004KT 9999 SCT030 35/20 Q1011;
0120832880999992013041617004-13267-043417FM-15+0443SBLP V0202201N002112200019N0112651N1+03401+02001999999ADDGA1041+009001999GF104991999999999999999999MA1101021999999REMMET051METAR SBLP 161700Z 22004KT 9999 SCT030 34/20 Q1010;
0143832880999992013041618004-13267-043417FM-15+0443SBLP V0202101N003112200019N0112651N1+03301+02201999999ADDGA1041+009001999GA2041+030001999GF104991999999999999999999MA1100911999999REMMET058METAR SBLP 161800Z 21006KT 9999 SCT030 SCT100 33/22 Q1009;
0143832880999992013041619004-13267-043417FM-15+0443SBLP V0202701N003112200019N0112651N1+03301+02101999999ADDGA1041+009001999GA2041+030001999GF104991999999999999999999MA1101021999999REMMET058METAR SBLP 161900Z 27006KT 9999 SCT030 SCT100 33/21 Q1010;
0153832880999992013041620004-13267-043417FM-15+0443SBLP V0200901N004110300019N0112651N1+02701+02301999999ADDGA1041+006901999GA2071+030001999GF107991999999999999999999MA1101021999999MW1611REMMET062METAR SBLP 162000Z 09008KT 9999 -RA SCT023 BKN100 27/23 Q1010;
0143832880999992013041709154-13267-043417FM-16+0443SBLP V0209999C000010300019N0112651N1+02201+02101999999ADDGA1041+002101999GA2071+030001999GF107991999999999999999999MA1101491999999REMMET058SPECI SBLP 170915Z 00000KT 9999 SCT007 BKN100 22/21 Q1015;
0143832880999992013041710004-13267-043417FM-15+0443SBLP V0209999C000010300019N0112651N1+02201+02101999999ADDGA1041+003001999GA2071+030001999GF107991999999999999999999MA1101491999999REMMET058METAR SBLP 171000Z 00000KT 9999 SCT010 BKN100 22/21 Q1015;
0143832880999992013041711004-13267-043417FM-15+0443SBLP V0209999C000010300019N0112651N1+02301+02201999999ADDGA1041+003001999GA2071+030001999GF107991999999999999999999MA1101491999999REMMET058METAR SBLP 171100Z 00000KT 9999 SCT010 BKN100 23/22 Q1015;
0143832880999992013041712004-13267-043417FM-15+0443SBLP V0202701N002110300019N0112651N1+02601+02101999999ADDGA1021+006001999GA2071+030001999GF107991999999999999999999MA1101491999999REMMET058METAR SBLP 171200Z 27004KT 9999 FEW020 BKN100 26/21 Q1015;
0143832880999992013041713004-13267-043417FM-15+0443SBLP V0209999C000010300019N0112651N1+02601+02201999999ADDGA1021+006001999GA2071+030001999GF107991999999999999999999MA1101591999999REMMET058METAR SBLP 171300Z 00000KT 9999 FEW020 BKN100 26/22 Q1016;
0143832880999992013041714004-13267-043417FM-15+0443SBLP V0209999C000010300019N0112651N1+02701+02001999999ADDGA1021+006001999GA2071+030001999GF107991999999999999999999MA1101591999999REMMET058METAR SBLP 171400Z 00000KT 9999 FEW020 BKN100 27/20 Q1016;
0143832880999992013041715004-13267-043417FM-15+0443SBLP V0202401N002110300019N0112651N1+02801+02101999999ADDGA1021+006001999GA2071+030001999GF107991999999999999999999MA1101491999999REMMET058METAR SBLP 171500Z 24004KT 9999 FEW020 BKN100 28/21 Q1015;
0166832880999992013041716004-13267-043417FM-15+0443SBLP V0209999C00001009001CN0112651N1+02901+02101999999ADDGA1021+006001999GA2041+009001999GA3071+030001999GF107991999999999999999999MA1101391999999REMMET065METAR SBLP 171600Z 00000KT 9999 FEW020 SCT030 BKN100 29/21 Q1014;
0143832880999992013041717004-13267-043417FM-15+0443SBLP V0209999C000010300019N0112651N1+02901+02001999999ADDGA1021+009001999GA2071+030001999GF107991999999999999999999MA1101291999999REMMET058METAR SBLP 171700Z 00000KT 9999 FEW030 BKN100 29/20 Q1013;
0143832880999992013041718004-13267-043417FM-15+0443SBLP V0201001N002110300019N0112651N1+02901+02201999999ADDGA1021+009001999GA2071+030001999GF107991999999999999999999MA1101191999999REMMET058METAR SBLP 171800Z 10004KT 9999 FEW030 BKN100 29/22 Q1012;
0143832880999992013041719004-13267-043417FM-15+0443SBLP V0209999C000010300019N0112651N1+03001+02101999999ADDGA1021+009001999GA2071+030001999GF107991999999999999999999MA1101191999999REMMET058METAR SBLP 171900Z 00000KT 9999 FEW030 BKN100 30/21 Q1012;
0143832880999992013041720004-13267-043417FM-15+0443SBLP V0209999C000010300019N0112651N1+02901+02001999999ADDGA1021+009001999GA2071+030001999GF107991999999999999999999MA1101191999999REMMET058METAR SBLP 172000Z 00000KT 9999 FEW030 BKN100 29/20 Q1012;
0143832880999992013041721004-13267-043417FM-15+0443SBLP V0209999C000010300019N0112651N1+02801+02101999999ADDGA1021+009001999GA2071+030001999GF107991999999999999999999MA1101191999999REMMET058METAR SBLP 172100Z 00000KT 9999 FEW030 BKN100 28/21 Q1012;
0143832880999992013041809154-13267-043417FM-16+0443SBLP V0200801N002112200019N0112651N1+02401+02301999999ADDGA1021+006001999GA2041+030001999GF104991999999999999999999MA1101291999999REMMET058SPECI SBLP 180915Z 08004KT 9999 FEW020 SCT100 24/23 Q1013;
0143832880999992013041810004-13267-043417FM-15+0443SBLP V0209999C000012200019N0112651N1+02401+02301999999ADDGA1021+006001999GA2041+030001999GF104991999999999999999999MA1101391999999REMMET058METAR SBLP 181000Z 00000KT 9999 FEW020 SCT100 24/23 Q1014;
0143832880999992013041811004-13267-043417FM-15+0443SBLP V0200301N002110300019N0112651N1+02601+02201999999ADDGA1021+006001999GA2071+030001999GF107991999999999999999999MA1101391999999REMMET058METAR SBLP 181100Z 03004KT 9999 FEW020 BKN100 26/22 Q1014;
0143832880999992013041812004-13267-043417FM-15+0443SBLP V0200401N002110300019N0112651N1+02701+02201999999ADDGA1021+006001999GA2071+030001999GF107991999999999999999999MA1101491999999REMMET058METAR SBLP 181200Z 04004KT 9999 FEW020 BKN100 27/22 Q1015;
0120832880999992013041813004-13267-043417FM-15+0443SBLP V0209999C000012200019N0112651N1+03001+02101999999ADDGA1021+009001999GF102991999999999999999999MA1101491999999REMMET051METAR SBLP 181300Z 00000KT 9999 FEW030 30/21 Q1015;
0120832880999992013041814004-13267-043417FM-15+0443SBLP V0201501N002112200019N0112651N1+03101+02101999999ADDGA1041+009001999GF104991999999999999999999MA1101391999999REMMET051METAR SBLP 181400Z 15004KT 9999 SCT030 31/21 Q1014;
0120832880999992013041815004-13267-043417FM-15+0443SBLP V0203301N001512200019N0112651N1+03001+02201999999ADDGA1041+009001999GF104991999999999999999999MA1101391999999REMMET051METAR SBLP 181500Z 33003KT 9999 SCT030 30/22 Q1014;
0136832880999992013041816004-13267-043417FM-15+0443SBLP V0209999C00001009001CN0112651N1+03201+02101999999ADDGA1071+009001999GA2041+030001999MA1101291999999REMMET058METAR SBLP 181600Z 00000KT 9999 BKN030 SCT100 32/21 Q1013;EQDQ01+000042SCOTCV
0136832880999992013041817004-13267-043417FM-15+0443SBLP V0200701N00211008101CN0112651N1+03101+02101999999ADDGA1071+008101999GA2041+030001999MA1101191999999REMMET058METAR SBLP 181700Z 07004KT 9999 BKN027 SCT100 31/21 Q1012;EQDQ01+000042SCOTCV
0136832880999992013041818004-13267-043417FM-15+0443SBLP V0200801N00261009001CN0112651N1+03101+02201999999ADDGA1071+009001999GA2041+030001999MA1101081999999REMMET058METAR SBLP 181800Z 08005KT 9999 BKN030 SCT100 31/22 Q1011;EQDQ01+000042SCOTCV
0143832880999992013041819004-13267-043417FM-15+0443SBLP V0200801N002110300019N0112651N1+03301+02001999999ADDGA1041+009001999GA2071+030001999GF107991999999999999999999MA1101081999999REMMET058METAR SBLP 181900Z 08004KT 9999 SCT030 BKN100 33/20 Q1011;
0143832880999992013041820004-13267-043417FM-15+0443SBLP V0201001N002110300019N0112651N1+03101+02101999999ADDGA1021+009001999GA2071+030001999GF107991999999999999999999MA1101081999999REMMET058METAR SBLP 182000Z 10004KT 9999 FEW030 BKN100 31/21 Q1011;
0143832880999992013041821004-13267-043417FM-15+0443SBLP V0200601N002610300019N0112651N1+02901+02101999999ADDGA1021+009001999GA2071+030001999GF107991999999999999999999MA1101191999999REMMET058METAR SBLP 182100Z 06005KT 9999 FEW030 BKN100 29/21 Q1012;
0127832880999992013041906154-13267-043417FM-16+0443SBLP V0201201N001512200019N0112651N1+02201+02001999999ADDGA1021+009001999GA2041+030001999GF104991999999999999999999REMMET057SPECI SBLP 190615Z 12003KT 9999 FEW030 SCT100 22/20 Q014;
0143832880999992013041909154-13267-043417FM-16+0443SBLP V0201201N001512200019N0112651N1+02201+02001999999ADDGA1021+009001999GA2041+030001999GF104991999999999999999999MA1101391999999REMMET058SPECI SBLP 190915Z 12003KT 9999 FEW030 SCT100 22/20 Q1014;
0072832880999992013041910004-13267-043417FM-15+0443SBLP V0201101N001519999999Y0099001N1+02201+02101999999ADDMA1101491999999REMMET045METAR SBLP 191000Z 11003KT CAVOK 22/21 Q1015;
0072832880999992013041911004-13267-043417FM-15+0443SBLP V0209999C000019999999Y0099001N1+02401+02001999999ADDMA1101591999999REMMET045METAR SBLP 191100Z 00000KT CAVOK 24/20 Q1016;
0072832880999992013041912004-13267-043417FM-15+0443SBLP V0200901N002119999999Y0099001N1+02801+02001999999ADDMA1101591999999REMMET045METAR SBLP 191200Z 09004KT CAVOK 28/20 Q1016;
0072832880999992013041913004-13267-043417FM-15+0443SBLP V0201201N002619999999Y0099001N1+02801+02101999999ADDMA1101691999999REMMET045METAR SBLP 191300Z 12005KT CAVOK 28/21 Q1017;
0143832880999992013041914004-13267-043417FM-15+0443SBLP V0209999C000012200019N0112651N1+02901+02101999999ADDGA1021+009001999GA2041+030001999GF104991999999999999999999MA1101591999999REMMET058METAR SBLP 191400Z 00000KT 9999 FEW030 SCT100 29/21 Q1016;
0143832880999992013041915004-13267-043417FM-15+0443SBLP V0201501N002612200019N0112651N1+02901+02101999999ADDGA1041+009001999GA2041+030001999GF104991999999999999999999MA1101491999999REMMET058METAR SBLP 191500Z 15005KT 9999 SCT030 SCT100 29/21 Q1015;
0143832880999992013041916004-13267-043417FM-15+0443SBLP V0201501N001510300019N0112651N1+03001+02001999999ADDGA1041+009001999GA2071+030001999GF107991999999999999999999MA1101391999999REMMET058METAR SBLP 191600Z 15003KT 9999 SCT030 BKN100 30/20 Q1014;
0143832880999992013041917004-13267-043417FM-15+0443SBLP V0201401N003110300019N0112651N1+03001+02001999999ADDGA1041+009001999GA2071+030001999GF107991999999999999999999MA1101391999999REMMET058METAR SBLP 191700Z 14006KT 9999 SCT030 BKN100 30/20 Q1014;
0143832880999992013041918004-13267-043417FM-15+0443SBLP V0201101N003610300019N0112651N1+03001+02001999999ADDGA1021+009001999GA2071+030001999GF107991999999999999999999MA1101291999999REMMET058METAR SBLP 191800Z 11007KT 9999 FEW030 BKN100 30/20 Q1013;
0143832880999992013041919004-13267-043417FM-15+0443SBLP V0201201N003110300019N0112651N1+02901+02001999999ADDGA1021+009001999GA2071+030001999GF107991999999999999999999MA1101291999999REMMET058METAR SBLP 191900Z 12006KT 9999 FEW030 BKN100 29/20 Q1013;
0143832880999992013041920004-13267-043417FM-15+0443SBLP V0200901N002610300019N0112651N1+02801+02101999999ADDGA1021+009001999GA2071+030001999GF107991999999999999999999MA1101291999999REMMET058METAR SBLP 192000Z 09005KT 9999 FEW030 BKN100 28/21 Q1013;
0143832880999992013041921004-13267-043417FM-15+0443SBLP V0201001N001510300019N0112651N1+02601+02201999999ADDGA1021+009001999GA2071+030001999GF107991999999999999999999MA1101291999999REMMET058METAR SBLP 192100Z 10003KT 9999 FEW030 BKN100 26/22 Q1013;
0072832880999992013042209154-13267-043417FM-16+0443SBLP V0201301N002119999999Y0099001N1+02001+01701999999ADDMA1101591999999REMMET045SPECI SBLP 220915Z 13004KT CAVOK 20/17 Q1016;
0072832880999992013042210004-13267-043417FM-15+0443SBLP V0201101N003119999999Y0099001N1+02001+01701999999ADDMA1101591999999REMMET045METAR SBLP 221000Z 11006KT CAVOK 20/17 Q1016;
0072832880999992013042211004-13267-043417FM-15+0443SBLP V0201101N004119999999Y0099001N1+02401+01801999999ADDMA1101691999999REMMET045METAR SBLP 221100Z 11008KT CAVOK 24/18 Q1017;
0072832880999992013042212004-13267-043417FM-15+0443SBLP V0200801N005119999999Y0099001N1+02601+01701999999ADDMA1101801999999REMMET045METAR SBLP 221200Z 08010KT CAVOK 26/17 Q1018;
0072832880999992013042213004-13267-043417FM-15+0443SBLP V0200601N003119999999Y0099001N1+02801+01701999999ADDMA1101801999999REMMET045METAR SBLP 221300Z 06006KT CAVOK 28/17 Q1018;
0120832880999992013042214004-13267-043417FM-15+0443SBLP V0200701N004112200019N0112651N1+03001+01701999999ADDGA1021+009001999GF102991999999999999999999MA1101691999999REMMET051METAR SBLP 221400Z 07008KT 9999 FEW030 30/17 Q1017;
0120832880999992013042215004-13267-043417FM-15+0443SBLP V0200501N003112200019N0112651N1+03001+01601999999ADDGA1021+009001999GF102991999999999999999999MA1101691999999REMMET051METAR SBLP 221500Z 05006KT 9999 FEW030 30/16 Q1017;
0120832880999992013042216004-13267-043417FM-15+0443SBLP V0201201N003112200019N0112651N1+03201+01701999999ADDGA1041+009001999GF104991999999999999999999MA1101591999999REMMET051METAR SBLP 221600Z 12006KT 9999 SCT030 32/17 Q1016;
0120832880999992013042217004-13267-043417FM-15+0443SBLP V0200801N002112200019N0112651N1+03201+01601999999ADDGA1041+009001999GF104991999999999999999999MA1101391999999REMMET051METAR SBLP 221700Z 08004KT 9999 SCT030 32/16 Q1014;
0120832880999992013042218004-13267-043417FM-15+0443SBLP V0200701N005112200019N0112651N1+03301+01601999999ADDGA1041+009001999GF104991999999999999999999MA1101391999999REMMET051METAR SBLP 221800Z 07010KT 9999 SCT030 33/16 Q1014;
0120832880999992013042219004-13267-043417FM-15+0443SBLP V0201201N004112200019N0112651N1+03301+01601999999ADDGA1021+009001999GF102991999999999999999999MA1101391999999REMMET051METAR SBLP 221900Z 12008KT 9999 FEW030 33/16 Q1014;
0120832880999992013042220004-13267-043417FM-15+0443SBLP V0201201N002112200019N0112651N1+03001+01601999999ADDGA1041+009001999GF104991999999999999999999MA1101391999999REMMET051METAR SBLP 222000Z 12004KT 9999 SCT030 30/16 Q1014;
0143832880999992013042221004-13267-043417FM-15+0443SBLP V0200901N002112200019N0112651N1+02901+01701999999ADDGA1041+009001999GA2041+030001999GF104991999999999999999999MA1101391999999REMMET058METAR SBLP 222100Z 09004KT 9999 SCT030 SCT100 29/17 Q1014;
0072832880999992013042309154-13267-043417FM-16+0443SBLP V0201001N003119999999Y0099001N1+02001+01701999999ADDMA1101691999999REMMET045SPECI SBLP 230915Z 10006KT CAVOK 20/17 Q1017;
0072832880999992013042310004-13267-043417FM-15+0443SBLP V0201001N003119999999Y0099001N1+02001+01701999999ADDMA1101801999999REMMET045METAR SBLP 231000Z 10006KT CAVOK 20/17 Q1018;
0072832880999992013042311004-13267-043417FM-15+0443SBLP V0201001N003119999999Y0099001N1+02401+01701999999ADDMA1101901999999REMMET045METAR SBLP 231100Z 10006KT CAVOK 24/17 Q1019;
0072832880999992013042312004-13267-043417FM-15+0443SBLP V0200601N004119999999Y0099001N1+02601+01801999999ADDMA1101901999999REMMET045METAR SBLP 231200Z 06008KT CAVOK 26/18 Q1019;
0120832880999992013042313004-13267-043417FM-15+0443SBLP V0201101N003112200019N0112651N1+02801+01701999999ADDGA1021+009001999GF102991999999999999999999MA1101901999999REMMET051METAR SBLP 231300Z 11006KT 9999 FEW030 28/17 Q1019;
0120832880999992013042314004-13267-043417FM-15+0443SBLP V0201001N003112200019N0112651N1+02901+01501999999ADDGA1021+009001999GF102991999999999999999999MA1101901999999REMMET051METAR SBLP 231400Z 10006KT 9999 FEW030 29/15 Q1019;
0120832880999992013042315004-13267-043417FM-15+0443SBLP V0200601N003112200019N0112651N1+03001+01601999999ADDGA1021+009001999GF102991999999999999999999MA1101801999999REMMET051METAR SBLP 231500Z 06006KT 9999 FEW030 30/16 Q1018;
0120832880999992013042316004-13267-043417FM-15+0443SBLP V0201801N002112200019N0112651N1+03101+01601999999ADDGA1041+009001999GF104991999999999999999999MA1101591999999REMMET051METAR SBLP 231600Z 18004KT 9999 SCT030 31/16 Q1016;
0120832880999992013042317004-13267-043417FM-15+0443SBLP V0200901N003112200019N0112651N1+03101+01601999999ADDGA1041+009001999GF104991999999999999999999MA1101491999999REMMET051METAR SBLP 231700Z 09006KT 9999 SCT030 31/16 Q1015;
0120832880999992013042318004-13267-043417FM-15+0443SBLP V0209999C000012200019N0112651N1+03201+01601999999ADDGA1041+009001999GF104991999999999999999999MA1101491999999REMMET051METAR SBLP 231800Z 00000KT 9999 SCT030 32/16 Q1015;
0120832880999992013042319004-13267-043417FM-15+0443SBLP V0200701N004112200019N0112651N1+03101+01601999999ADDGA1021+009001999GF102991999999999999999999MA1101491999999REMMET051METAR SBLP 231900Z 07008KT 9999 FEW030 31/16 Q1015;
0120832880999992013042320004-13267-043417FM-15+0443SBLP V0200901N004112200019N0112651N1+03001+01601999999ADDGA1021+009001999GF102991999999999999999999MA1101491999999REMMET051METAR SBLP 232000Z 09008KT 9999 FEW030 30/16 Q1015;
0072832880999992013042321004-13267-043417FM-15+0443SBLP V0201001N003119999999Y0099001N1+02801+01601999999ADDMA1101591999999REMMET045METAR SBLP 232100Z 10006KT CAVOK 28/16 Q1016;
0072832880999992013042409154-13267-043417FM-16+0443SBLP V0209999C000019999999Y0099001N1+01901+01601999999ADDMA1101691999999REMMET045SPECI SBLP 240915Z 00000KT CAVOK 19/16 Q1017;
0072832880999992013042410004-13267-043417FM-15+0443SBLP V0201201N001519999999Y0099001N1+01901+01501999999ADDMA1101801999999REMMET045METAR SBLP 241000Z 12003KT CAVOK 19/15 Q1018;
0072832880999992013042411004-13267-043417FM-15+0443SBLP V0201201N004119999999Y0099001N1+02101+01601999999ADDMA1101801999999REMMET045METAR SBLP 241100Z 12008KT CAVOK 21/16 Q1018;
0072832880999992013042412004-13267-043417FM-15+0443SBLP V0201201N003119999999Y0099001N1+02501+01601999999ADDMA1101901999999REMMET045METAR SBLP 241200Z 12006KT CAVOK 25/16 Q1019;
0072832880999992013042413004-13267-043417FM-15+0443SBLP V0201201N003119999999Y0099001N1+02801+01601999999ADDMA1101901999999REMMET045METAR SBLP 241300Z 12006KT CAVOK 28/16 Q1019;
0072832880999992013042414004-13267-043417FM-15+0443SBLP V0201301N002119999999Y0099001N1+02901+01601999999ADDMA1101901999999REMMET045METAR SBLP 241400Z 13004KT CAVOK 29/16 Q1019;
0072832880999992013042415004-13267-043417FM-15+0443SBLP V0201301N003119999999Y0099001N1+03001+01601999999ADDMA1101691999999REMMET045METAR SBLP 241500Z 13006KT CAVOK 30/16 Q1017;
0120832880999992013042416004-13267-043417FM-15+0443SBLP V0201801N003612200019N0112651N1+03101+01601999999ADDGA1021+009001999GF102991999999999999999999MA1101591999999REMMET051METAR SBLP 241600Z 18007KT 9999 FEW030 31/16 Q1016;
0120832880999992013042417004-13267-043417FM-15+0443SBLP V0201301N003112200019N0112651N1+03201+01701999999ADDGA1021+009001999GF102991999999999999999999MA1101491999999REMMET051METAR SBLP 241700Z 13006KT 9999 FEW030 32/17 Q1015;
0143832880999992013042418004-13267-043417FM-15+0443SBLP V0201201N005112200019N0112651N1+03201+01701999999ADDGA1021+009001999GA2041+030001999GF104991999999999999999999MA1101391999999REMMET058METAR SBLP 241800Z 12010KT 9999 FEW030 SCT100 32/17 Q1014;
0143832880999992013042419004-13267-043417FM-15+0443SBLP V0201401N002112200019N0112651N1+03201+01601999999ADDGA1021+009001999GA2041+030001999GF104991999999999999999999MA1101391999999REMMET058METAR SBLP 241900Z 14004KT 9999 FEW030 SCT100 32/16 Q1014;
0143832880999992013042420004-13267-043417FM-15+0443SBLP V0201601N002612200019N0112651N1+03201+01801999999ADDGA1021+009001999GA2041+030001999GF104991999999999999999999MA1101391999999REMMET058METAR SBLP 242000Z 16005KT 9999 FEW030 SCT100 32/18 Q1014;
0143832880999992013042421004-13267-043417FM-15+0443SBLP V0201601N002112200019N0112651N1+03001+01801999999ADDGA1041+006901999GA2041+027001999GF104991999999999999999999MA1101491999999REMMET058METAR SBLP 242100Z 16004KT 9999 SCT023 SCT093 30/18 Q1015;
0072832880999992013042509154-13267-043417FM-16+0443SBLP V0201601N001519999999Y0099001N1+01901+01801999999ADDMA1101691999999REMMET045SPECI SBLP 250915Z 16003KT CAVOK 19/18 Q1017;
0072832880999992013042510004-13267-043417FM-15+0443SBLP V0209999C000019999999Y0099001N1+02001+01801999999ADDMA1101691999999REMMET045METAR SBLP 251000Z 00000KT CAVOK 20/18 Q1017;
0072832880999992013042511004-13267-043417FM-15+0443SBLP V0201301N002619999999Y0099001N1+02301+01901999999ADDMA1101801999999REMMET045METAR SBLP 251100Z 13005KT CAVOK 23/19 Q1018;
0072832880999992013042512004-13267-043417FM-15+0443SBLP V0201601N002619999999Y0099001N1+02601+02001999999ADDMA1101901999999REMMET045METAR SBLP 251200Z 16005KT CAVOK 26/20 Q1019;
0072832880999992013042513004-13267-043417FM-15+0443SBLP V0200701N002619999999Y0099001N1+02801+01801999999ADDMA1101901999999REMMET045METAR SBLP 251300Z 07005KT CAVOK 28/18 Q1019;
0143832880999992013042514004-13267-043417FM-15+0443SBLP V0201301N002612200019N0112651N1+03001+01801999999ADDGA1021+009001999GA2041+030001999GF104991999999999999999999MA1101801999999REMMET058METAR SBLP 251400Z 13005KT 9999 FEW030 SCT100 30/18 Q1018;
0143832880999992013042515004-13267-043417FM-15+0443SBLP V0209999C000010300019N0112651N1+03101+01801999999ADDGA1021+009001999GA2071+030001999GF107991999999999999999999MA1101691999999REMMET058METAR SBLP 251500Z 00000KT 9999 FEW030 BKN100 31/18 Q1017;
0136832880999992013042517004-13267-043417FM-15+0443SBLP V0209999C00001009001CN0112651N1+03201+01701999999ADDGA1071+009001999GA2041+030001999MA1101491999999REMMET058METAR SBLP 251700Z 00000KT 9999 BKN030 SCT100 32/17 Q1015;EQDQ01+000042SCOTCV
0120832880999992013042518004-13267-043417FM-15+0443SBLP V0200801N004110090019N0112651N1+03201+01701999999ADDGA1071+009001999GF107991999999999999999999MA1101491999999REMMET051METAR SBLP 251800Z 08008KT 9999 BKN030 32/17 Q1015;
0120832880999992013042519004-13267-043417FM-15+0443SBLP V0200901N003110090019N0112651N1+03101+01701999999ADDGA1071+009001999GF107991999999999999999999MA1101491999999REMMET051METAR SBLP 251900Z 09006KT 9999 BKN030 31/17 Q1015;
0120832880999992013042520004-13267-043417FM-15+0443SBLP V0201001N002610090019N0112651N1+03101+01601999999ADDGA1071+009001999GF107991999999999999999999MA1101491999999REMMET051METAR SBLP 252000Z 10005KT 9999 BKN030 31/16 Q1015;
0143832880999992013042521004-13267-043417FM-15+0443SBLP V0200801N002112200019N0112651N1+03001+01701999999ADDGA1041+009001999GA2041+030001999GF104991999999999999999999MA1101491999999REMMET058METAR SBLP 252100Z 08004KT 9999 SCT030 SCT100 30/17 Q1015;
0072832880999992013042609154-13267-043417FM-16+0443SBLP V0201201N001519999999Y0099001N1+02001+01701999999ADDMA1101691999999REMMET045SPECI SBLP 260915Z 12003KT CAVOK 20/17 Q1017;
0072832880999992013042610004-13267-043417FM-15+0443SBLP V0201401N001519999999Y0099001N1+02001+01701999999ADDMA1101801999999REMMET045METAR SBLP 261000Z 14003KT CAVOK 20/17 Q1018;
0072832880999992013042611004-13267-043417FM-15+0443SBLP V0201201N002119999999Y0099001N1+02201+01801999999ADDMA1101801999999REMMET045METAR SBLP 261100Z 12004KT CAVOK 22/18 Q1018;
0072832880999992013042612004-13267-043417FM-15+0443SBLP V0201201N003119999999Y0099001N1+02501+01701999999ADDMA1101901999999REMMET045METAR SBLP 261200Z 12006KT CAVOK 25/17 Q1019;
0072832880999992013042613004-13267-043417FM-15+0443SBLP V0200801N003119999999Y0099001N1+02901+01601999999ADDMA1101901999999REMMET045METAR SBLP 261300Z 08006KT CAVOK 29/16 Q1019;
0120832880999992013042614004-13267-043417FM-15+0443SBLP V0201501N003112200019N0112651N1+03101+01701999999ADDGA1021+009001999GF102991999999999999999999MA1101801999999REMMET051METAR SBLP 261400Z 15006KT 9999 FEW030 31/17 Q1018;
0120832880999992013042615004-13267-043417FM-15+0443SBLP V0201801N003612200019N0112651N1+03101+01801999999ADDGA1021+009001999GF102991999999999999999999MA1101691999999REMMET051METAR SBLP 261500Z 18007KT 9999 FEW030 31/18 Q1017;
0120832880999992013042616004-13267-043417FM-15+0443SBLP V0202401N003112200019N0112651N1+03201+01701999999ADDGA1021+009001999GF102991999999999999999999MA1101491999999REMMET051METAR SBLP 261600Z 24006KT 9999 FEW030 32/17 Q1015;
0120832880999992013042617004-13267-043417FM-15+0443SBLP V0202301N003112200019N0112651N1+03301+01701999999ADDGA1041+009001999GF104991999999999999999999MA1101391999999REMMET051METAR SBLP 261700Z 23006KT 9999 SCT030 33/17 Q1014;
0120832880999992013042618004-13267-043417FM-15+0443SBLP V0201201N003112200019N0112651N1+03401+01601999999ADDGA1041+009001999GF104991999999999999999999MA1101291999999REMMET051METAR SBLP 261800Z 12006KT 9999 SCT030 34/16 Q1013;
0120832880999992013042619004-13267-043417FM-15+0443SBLP V0201801N004112200019N0112651N1+03301+01701999999ADDGA1041+009001999GF104991999999999999999999MA1101291999999REMMET051METAR SBLP 261900Z 18008KT 9999 SCT030 33/17 Q1013;
0120832880999992013042620004-13267-043417FM-15+0443SBLP V0201501N002610090019N0112651N1+03201+01701999999ADDGA1071+009001999GF107991999999999999999999MA1101391999999REMMET051METAR SBLP 262000Z 15005KT 9999 BKN030 32/17 Q1014;
0120832880999992013042621004-13267-043417FM-15+0443SBLP V0209999C000010090019N0112651N1+03001+01801999999ADDGA1071+009001999GF107991999999999999999999MA1101391999999REMMET051METAR SBLP 262100Z 00000KT 9999 BKN030 30/18 Q1014;
0072832880999992013042909154-13267-043417FM-16+0443SBLP V0201501N002119999999Y0099001N1+01901+01701999999ADDMA1101491999999REMMET045SPECI SBLP 290915Z 15004KT CAVOK 19/17 Q1015;
0072832880999992013042910004-13267-043417FM-15+0443SBLP V0201501N001519999999Y0099001N1+01901+01701999999ADDMA1101591999999REMMET045METAR SBLP 291000Z 15003KT CAVOK 19/17 Q1016;
0072832880999992013042911004-13267-043417FM-15+0443SBLP V0201501N002119999999Y0099001N1+02301+01801999999ADDMA1101691999999REMMET045METAR SBLP 291100Z 15004KT CAVOK 23/18 Q1017;
0072832880999992013042912004-13267-043417FM-15+0443SBLP V0201201N002119999999Y0099001N1+02601+01701999999ADDMA1101691999999REMMET045METAR SBLP 291200Z 12004KT CAVOK 26/17 Q1017;
0072832880999992013042913004-13267-043417FM-15+0443SBLP V0201201N003119999999Y0099001N1+02901+01601999999ADDMA1101691999999REMMET045METAR SBLP 291300Z 12006KT CAVOK 29/16 Q1017;
0120832880999992013042914004-13267-043417FM-15+0443SBLP V0201501N001512200019N0112651N1+03001+01501999999ADDGA1021+009001999GF102991999999999999999999MA1101591999999REMMET051METAR SBLP 291400Z 15003KT 9999 FEW030 30/15 Q1016;
0120832880999992013042915004-13267-043417FM-15+0443SBLP V0200901N002112200019N0112651N1+03101+01601999999ADDGA1021+009001999GF102991999999999999999999MA1101491999999REMMET051METAR SBLP 291500Z 09004KT 9999 FEW030 31/16 Q1015;
0120832880999992013042916004-13267-043417FM-15+0443SBLP V0202601N002112200019N0112651N1+03201+01601999999ADDGA1021+009001999GF102991999999999999999999MA1101391999999REMMET051METAR SBLP 291600Z 26004KT 9999 FEW030 32/16 Q1014;
0120832880999992013042917004-13267-043417FM-15+0443SBLP V0202401N003112200019N0112651N1+03301+01601999999ADDGA1041+009001999GF104991999999999999999999MA1101291999999REMMET051METAR SBLP 291700Z 24006KT 9999 SCT030 33/16 Q1013;
0120832880999992013042918004-13267-043417FM-15+0443SBLP V0201901N003112200019N0112651N1+03301+01301999999ADDGA1021+009001999GF102991999999999999999999MA1101291999999REMMET051METAR SBLP 291800Z 19006KT 9999 FEW030 33/13 Q1013;
0120832880999992013042919004-13267-043417FM-15+0443SBLP V0202301N003112200019N0112651N1+03301+01301999999ADDGA1021+009001999GF102991999999999999999999MA1101191999999REMMET051METAR SBLP 291900Z 23006KT 9999 FEW030 33/13 Q1012;
0072832880999992013042920004-13267-043417FM-15+0443SBLP V0202001N002119999999Y0099001N1+03101+01601999999ADDMA1101291999999REMMET045METAR SBLP 292000Z 20004KT CAVOK 31/16 Q1013;
0143832880999992013042921004-13267-043417FM-15+0443SBLP V0201601N001512200019N0112651N1+02901+01601999999ADDGA1021+009001999GA2041+030001999GF104991999999999999999999MA1101291999999REMMET058METAR SBLP 292100Z 16003KT 9999 FEW030 SCT100 29/16 Q1013;
0072832880999992013043009154-13267-043417FM-16+0443SBLP V0201701N001519999999Y0099001N1+01901+01601999999ADDMA1101591999999REMMET045SPECI SBLP 300915Z 17003KT CAVOK 19/16 Q1016;
0072832880999992013043010004-13267-043417FM-15+0443SBLP V0209999C000019999999Y0099001N1+01901+01701999999ADDMA1101591999999REMMET045METAR SBLP 301000Z 00000KT CAVOK 19/17 Q1016;
0072832880999992013043011004-13267-043417FM-15+0443SBLP V0201201N001519999999Y0099001N1+02501+01701999999ADDMA1101691999999REMMET045METAR SBLP 301100Z 12003KT CAVOK 25/17 Q1017;
0072832880999992013043012004-13267-043417FM-15+0443SBLP V0201201N002119999999Y0099001N1+02801+01701999999ADDMA1101691999999REMMET045METAR SBLP 301200Z 12004KT CAVOK 28/17 Q1017;
0072832880999992013043013004-13267-043417FM-15+0443SBLP V0200401N001519999999Y0099001N1+03001+01701999999ADDMA1101691999999REMMET045METAR SBLP 301300Z 04003KT CAVOK 30/17 Q1017;
0120832880999992013043014004-13267-043417FM-15+0443SBLP V0209999C000012200019N0112651N1+03101+01601999999ADDGA1021+009001999GF102991999999999999999999MA1101591999999REMMET051METAR SBLP 301400Z 00000KT 9999 FEW030 31/16 Q1016;
0120832880999992013043015004-13267-043417FM-15+0443SBLP V0202601N002112200019N0112651N1+03201+01701999999ADDGA1021+009001999GF102991999999999999999999MA1101491999999REMMET051METAR SBLP 301500Z 26004KT 9999 FEW030 32/17 Q1015;
0120832880999992013043016004-13267-043417FM-15+0443SBLP V0202401N002612200019N0112651N1+03301+01701999999ADDGA1041+009001999GF104991999999999999999999MA1101391999999REMMET051METAR SBLP 301600Z 24005KT 9999 SCT030 33/17 Q1014;
0120832880999992013043017004-13267-043417FM-15+0443SBLP V0202701N002112200019N0112651N1+03401+01801999999ADDGA1041+009001999GF104991999999999999999999MA1101291999999REMMET051METAR SBLP 301700Z 27004KT 9999 SCT030 34/18 Q1013;
0120832880999992013043018004-13267-043417FM-15+0443SBLP V0202401N002612200019N0112651N1+03401+01701999999ADDGA1041+009001999GF104991999999999999999999MA1101291999999REMMET051METAR SBLP 301800Z 24005KT 9999 SCT030 34/17 Q1013;
0120832880999992013043019004-13267-043417FM-15+0443SBLP V0202201N002612200019N0112651N1+03401+01801999999ADDGA1021+009001999GF102991999999999999999999MA1101291999999REMMET051METAR SBLP 301900Z 22005KT 9999 FEW030 34/18 Q1013;
0120832880999992013043020004-13267-043417FM-15+0443SBLP V0202101N002612200019N0112651N1+03301+01801999999ADDGA1021+009001999GF102991999999999999999999MA1101291999999REMMET051METAR SBLP 302000Z 21005KT 9999 FEW030 33/18 Q1013;
0120832880999992013043021004-13267-043417FM-15+0443SBLP V0201901N001512200019N0112651N1+03101+01701999999ADDGA1021+009001999GF102991999999999999999999MA1101391999999REMMET051METAR SBLP 302100Z 19003KT 9999 FEW030 31/17 Q1014;
0149832880999992013050112004-13260-043410FM-12+044099999V0203601N0000199999999020000199+02591+01911101371ADDAA101999990AZ101061AZ201061GA1021+025001021GE19MSL   +99999+99999GF102991999999999999999999KA1120N+01951MA1999990096491MD1909990-0031REMSYN004BUFR
0136832880999992013050118004-13260-043410FM-12+044099999V0202301N0015199999999020000199+03421+01831100891ADDAA101999990AZ101061AZ201061GA1031+008001081GE19MSL   +99999+99999GF103991999999999999999999MA1999990096071MD1909990-0161REMSYN004BUFR
0072832880999992013050209154-13262-043408FM-16+044399999V0209999C000019999999Y999999999+02001+01601999999ADDMA1101601999990REMMET045SPECI SBLP 020915Z 00000KT CAVOK 20/16 Q1016=
0072832880999992013050210004-13262-043408FM-15+044399999V0201701N002619999999Y999999999+02001+01701999999ADDMA1101601999990REMMET045METAR SBLP 021000Z 17005KT CAVOK 20/17 Q1016=
0072832880999992013050211004-13262-043408FM-15+044399999V0201601N003119999999Y999999999+02401+01701999999ADDMA1101701999990REMMET045METAR SBLP 021100Z 16006KT CAVOK 24/17 Q1017=
0111832880999992013050212004-13260-043410FM-12+044099999V0203601N0000122000199020000199+02691+01841101391ADDAA101999990AZ101061AZ201061GF100991999999999999999999KA1120N+01991MA1999990096541MD1909990+0051REMSYN004BUFR
0072832880999992013050212004-13262-043408FM-15+044399999V0201201N001519999999Y999999999+02801+01801999999ADDMA1101801999990REMMET045METAR SBLP 021200Z 12003KT CAVOK 28/18 Q1018=
0072832880999992013050213004-13262-043408FM-15+044399999V0201301N003619999999Y999999999+03001+01701999999ADDMA1101801999990REMMET045METAR SBLP 021300Z 13007KT CAVOK 30/17 Q1018=
0116832880999992013050214004-13262-043408FM-15+044399999V0201901N003119999999N009999199+03101+01801999999ADDGA1021+009141991GE19MSL   +99999+99999MA1101701999990REMMET051METAR SBLP 021400Z 19006KT 9999 FEW030 31/18 Q1017=
0116832880999992013050215004-13262-043408FM-15+044399999V0200701N003119999999N009999199+03201+01901999999ADDGA1041+009141991GE19MSL   +99999+99999MA1101601999990REMMET051METAR SBLP 021500Z 07006KT 9999 SCT030 32/19 Q1016=
0116832880999992013050216004-13262-043408FM-15+044399999V0201901N005119999999N009999199+03301+01901999999ADDGA1041+009141991GE19MSL   +99999+99999MA1101401999990REMMET051METAR SBLP 021600Z 19010KT 9999 SCT030 33/19 Q1014=
0116832880999992013050217004-13262-043408FM-15+044399999V0201301N004119999999N009999199+03401+01501999999ADDGA1021+009141991GE19MSL   +99999+99999MA1101301999990REMMET051METAR SBLP 021700Z 13008KT 9999 FEW030 34/15 Q1013=
0136832880999992013050218004-13260-043410FM-12+044099999V0202301N0026199999999020000199+03251+01681100911ADDAA101999990AZ101061AZ201061GA1011+008001081GE19MSL   +99999+99999GF101991999999999999999999MA1999990096081MD1909990+0011REMSYN004BUFR
0116832880999992013050218004-13262-043408FM-15+044399999V0202101N004119999999N009999199+03401+01601999999ADDGA1021+009141991GE19MSL   +99999+99999MA1101201999990REMMET051METAR SBLP 021800Z 21008KT 9999 FEW030 34/16 Q1012=
0116832880999992013050219004-13262-043408FM-15+044399999V0201801N002619999999N009999199+03401+01601999999ADDGA1021+009141991GE19MSL   +99999+99999MA1101201999990REMMET051METAR SBLP 021900Z 18005KT 9999 FEW030 34/16 Q1012=
0116832880999992013050220004-13262-043408FM-15+044399999V0202001N003119999999N009999199+03401+01501999999ADDGA1021+009141991GE19MSL   +99999+99999MA1101301999990REMMET051METAR SBLP 022000Z 20006KT 9999 FEW030 34/15 Q1013=
0072832880999992013050221004-13262-043408FM-15+044399999V0201701N002119999999Y999999999+03101+01601999999ADDMA1101301999990REMMET045METAR SBLP 022100Z 17004KT CAVOK 31/16 Q1013=
0072832880999992013050309154-13262-043408FM-16+044399999V0209999C000019999999Y999999999+01901+01701999999ADDMA1101501999990REMMET045SPECI SBLP 030915Z 00000KT CAVOK 19/17 Q1015=
0072832880999992013050310004-13262-043408FM-15+044399999V0209999C000019999999Y999999999+02001+01801999999ADDMA1101601999990REMMET045METAR SBLP 031000Z 00000KT CAVOK 20/18 Q1016=
0072832880999992013050311004-13262-043408FM-15+044399999V0201501N002119999999Y999999999+02401+01901999999ADDMA1101701999990REMMET045METAR SBLP 031100Z 15004KT CAVOK 24/19 Q1017=
0111832880999992013050312004-13260-043410FM-12+044099999V0202301N0015122000199020000199+02521+01851101471ADDAA101999990AZ101061AZ201061GF100991999999999999999999KA1120N+01901MA1999990096581MD1909990+0041REMSYN004BUFR
0072832880999992013050312004-13262-043408FM-15+044399999V0201801N003119999999Y999999999+02701+01801999999ADDMA1101701999990REMMET045METAR SBLP 031200Z 18006KT CAVOK 27/18 Q1017=
0072832880999992013050313004-13262-043408FM-15+044399999V0201701N001519999999Y999999999+03001+01801999999ADDMA1101701999990REMMET045METAR SBLP 031300Z 17003KT CAVOK 30/18 Q1017=
0116832880999992013050314004-13262-043408FM-15+044399999V0202101N002619999999N009999199+03101+01901999999ADDGA1021+009141991GE19MSL   +99999+99999MA1101601999990REMMET051METAR SBLP 031400Z 21005KT 9999 FEW030 31/19 Q1016=
0116832880999992013050315004-13262-043408FM-15+044399999V0202401N002119999999N009999199+03101+01901999999ADDGA1041+009141991GE19MSL   +99999+99999MA1101501999990REMMET051METAR SBLP 031500Z 24004KT 9999 SCT030 31/19 Q1015=
0116832880999992013050316004-13262-043408FM-15+044399999V0202701N004119999999N009999199+03301+01701999999ADDGA1041+009141991GE19MSL   +99999+99999MA1101301999990REMMET051METAR SBLP 031600Z 27008KT 9999 SCT030 33/17 Q1013=
0116832880999992013050317004-13262-043408FM-15+044399999V0201301N002119999999N009999199+03401+01401999999ADDGA1041+009141991GE19MSL   +99999+99999MA1101301999990REMMET051METAR SBLP 031700Z 13004KT 9999 SCT030 34/14 Q1013=
0136832880999992013050318004-13260-043410FM-12+044099999V0202701N0015199999999020000199+03391+01811100841ADDAA101999990AZ101061AZ201061GA1041+008001081GE19MSL   +99999+99999GF104991999999999999999999MA1999990096021MD1909990-0061REMSYN004BUFR
0116832880999992013050318004-13262-043408FM-15+044399999V0201701N002119999999N009999199+03401+01501999999ADDGA1041+009141991GE19MSL   +99999+99999MA1101201999990REMMET051METAR SBLP 031800Z 17004KT 9999 SCT030 34/15 Q1012=
0116832880999992013050319004-13262-043408FM-15+044399999V0209999C000019999999N009999199+03401+01401999999ADDGA1041+009141991GE19MSL   +99999+99999MA1101201999990REMMET051METAR SBLP 031900Z 00000KT 9999 SCT030 34/14 Q1012=
0116832880999992013050320004-13262-043408FM-15+044399999V0201801N003119999999N009999199+03401+01501999999ADDGA1021+009141991GE19MSL   +99999+99999MA1101201999990REMMET051METAR SBLP 032000Z 18006KT 9999 FEW030 34/15 Q1012=
0116832880999992013050321004-13262-043408FM-15+044399999V0201501N003119999999N009999199+03101+01501999999ADDGA1021+009141991GE19MSL   +99999+99999MA1101301999990REMMET051METAR SBLP 032100Z 15006KT 9999 FEW030 31/15 Q1013=
0111832880999992013050412004-13260-043410FM-12+044099999V0202301N0010122000199020000199+02591+01981101381ADDAA101999990AZ101061AZ201061GF100991999999999999999999KA1120N+01991MA1999990096501MD1909990-0081REMSYN004BUFR
0136832880999992013050418004-13260-043410FM-12+044099999V0202301N0015199999999020000199+03371+01901100851ADDAA101999990AZ101061AZ201061GA1041+008001081GE19MSL   +99999+99999GF104991999999999999999999MA1999990096041MD1909990+0021REMSYN004BUFR
0111832880999992013050512004-13260-043410FM-12+044099999V0202301N0010122000199020000199+02471+01801101341ADDAA101999990AZ101061AZ201061GF100991999999999999999999KA1120N+01921MA1999990096461MD1909990-0041REMSYN004BUFR
0098832880999992013050518004-13260-043410FM-12+044099999V0202701N0026122000199020000199+03391+01641100781ADDAA101999990AZ101061AZ201061GF100991999999999999999999MA1999990095971MD1909990-0071REMSYN004BUFR
0116832880999992013050609154-13262-043408FM-16+044399999V0209999C000019999999N009999199+02201+01501999999ADDGA1021+007011991GE19MSL   +99999+99999MA1101501999990REMMET051SPECI SBLP 060915Z 00000KT 9999 FEW023 22/15 Q1015=
0116832880999992013050610004-13262-043408FM-15+044399999V0209999C000019999999N009999199+02101+01601999999ADDGA1021+007011991GE19MSL   +99999+99999MA1101501999990REMMET051METAR SBLP 061000Z 00000KT 9999 FEW023 21/16 Q1015=
0072832880999992013050611004-13262-043408FM-15+044399999V0209999C000019999999Y999999999+02501+01601999999ADDMA1101601999990REMMET045METAR SBLP 061100Z 00000KT CAVOK 25/16 Q1016=
0149832880999992013050612004-13260-043410FM-12+044099999V0200501N0005199999999020000199+02671+01881101311ADDAA101999990AZ101061AZ201061GA1991+025001021GE19MSL   +99999+99999GF102991999999999999999999KA1120N+02161MA1999990096451MD1909990-0011REMSYN004BUFR
0072832880999992013050612004-13262-043408FM-15+044399999V0209999C000019999999Y999999999+02801+01601999999ADDMA1101601999990REMMET045METAR SBLP 061200Z 00000KT CAVOK 28/16 Q1016=
0072832880999992013050613004-13262-043408FM-15+044399999V0203101N002119999999Y999999999+03001+01601999999ADDMA1101601999990REMMET045METAR SBLP 061300Z 31004KT CAVOK 30/16 Q1016=
0072832880999992013050614004-13262-043408FM-15+044399999V0203401N002119999999Y999999999+03301+01501999999ADDMA1101501999990REMMET045METAR SBLP 061400Z 34004KT CAVOK 33/15 Q1015=
0116832880999992013050615004-13262-043408FM-15+044399999V0202801N001519999999N009999199+03401+01401999999ADDGA1021+009141991GE19MSL   +99999+99999MA1101401999990REMMET051METAR SBLP 061500Z 28003KT 9999 FEW030 34/14 Q1014=
0116832880999992013050616004-13262-043408FM-15+044399999V0203001N001519999999N009999199+03501+01701999999ADDGA1021+009141991GE19MSL   +99999+99999MA1101201999990REMMET051METAR SBLP 061600Z 30003KT 9999 FEW030 35/17 Q1012=
0116832880999992013050617004-13262-043408FM-15+044399999V0200601N002119999999N009999199+03501+01101999999ADDGA1021+009141991GE19MSL   +99999+99999MA1101101999990REMMET051METAR SBLP 061700Z 06004KT 9999 FEW030 35/11 Q1011=
0152832880999992013050618004-13260-043410FM-12+044099999V0203601N0010199999999020000199+03451+01821100641ADDAA101999990AZ101061AZ201061GA1011+008001081GA2991+999991021GE19MSL   +99999+99999GF102991999999999999999999MA1999990095871MD1909990-0101REMSYN004BUFR
0116832880999992013050618004-13262-043408FM-15+044399999V0203601N003119999999N009999199+03601+01101999999ADDGA1021+009141991GE19MSL   +99999+99999MA1101001999990REMMET051METAR SBLP 061800Z 36006KT 9999 FEW030 36/11 Q1010=
0116832880999992013050619004-13262-043408FM-15+044399999V0209999C000019999999N009999199+03601+01002999999ADDGA1021+009141991GE19MSL   +99999+99999MA1101001999990REMMET051METAR SBLP 061900Z 00000KT 9999 FEW030 36/10 Q1010=
0072832880999992013050620004-13262-043408FM-15+044399999V0203601N002119999999Y999999999+03501+01201999999ADDMA1101101999990REMMET045METAR SBLP 062000Z 36004KT CAVOK 35/12 Q1011=
0072832880999992013050621004-13262-043408FM-15+044399999V0209999C000019999999Y999999999+03201+01301999999ADDMA1101101999990REMMET045METAR SBLP 062100Z 00000KT CAVOK 32/13 Q1011=
0116832880999992013050709154-13262-043408FM-16+044399999V0209999C000019999999N009999199+02201+01701999999ADDGA1041+007011991GE19MSL   +99999+99999MA1101601999990REMMET051SPECI SBLP 070915Z 00000KT 9999 SCT023 22/17 Q1016=
0116832880999992013050710004-13262-043408FM-15+044399999V0209999C000019999999N009999199+02201+01701999999ADDGA1041+007011991GE19MSL   +99999+99999MA1101601999990REMMET051METAR SBLP 071000Z 00000KT 9999 SCT023 22/17 Q1016=
0116832880999992013050711004-13262-043408FM-15+044399999V0209999C000019999999N009999199+02501+01601999999ADDGA1021+009141991GE19MSL   +99999+99999MA1101701999990REMMET051METAR SBLP 071100Z 00000KT 9999 FEW030 25/16 Q1017=
0165832880999992013050712004-13260-043410FM-12+044099999V0202301N0015199999999020000199+02551+01851101471ADDAA101999990AZ101061AZ201061GA1031+008001081GA2991+999991031GE19MSL   +99999+99999GF105991999999999999999999KA1120N+02241MA1999990096611MD1909990+0161REMSYN004BUFR
0116832880999992013050712004-13262-043408FM-15+044399999V0202001N002119999999N009999199+02601+01701999999ADDGA1021+009141991GE19MSL   +99999+99999MA1101801999990REMMET051METAR SBLP 071200Z 20004KT 9999 FEW030 26/17 Q1018=
0116832880999992013050713004-13262-043408FM-15+044399999V0209999C000019999999N009999199+02901+01601999999ADDGA1021+009141991GE19MSL   +99999+99999MA1101801999990REMMET051METAR SBLP 071300Z 00000KT 9999 FEW030 29/16 Q1018=
0116832880999992013050714004-13262-043408FM-15+044399999V0202001N001519999999N009999199+03201+01601999999ADDGA1021+009141991GE19MSL   +99999+99999MA1101701999990REMMET051METAR SBLP 071400Z 20003KT 9999 FEW030 32/16 Q1017=
0116832880999992013050715004-13262-043408FM-15+044399999V0203401N002119999999N009999199+03401+01501999999ADDGA1021+009141991GE19MSL   +99999+99999MA1101601999990REMMET051METAR SBLP 071500Z 34004KT 9999 FEW030 34/15 Q1016=
0116832880999992013050716004-13262-043408FM-15+044399999V0209999C000019999999N009999199+03601+01401999999ADDGA1021+009141991GE19MSL   +99999+99999MA1101501999990REMMET051METAR SBLP 071600Z 00000KT 9999 FEW030 36/14 Q1015=
0116832880999992013050717004-13262-043408FM-15+044399999V0201801N003119999999N009999199+03501+01401999999ADDGA1041+009141991GE19MSL   +99999+99999MA1101401999990REMMET051METAR SBLP 071700Z 18006KT 9999 SCT030 35/14 Q1014=
0152832880999992013050718004-13260-043410FM-12+044099999V0202301N0005199999999020000199+03441+01961100941ADDAA101999990AZ101061AZ201061GA1031+008001081GA2991+999991001GE19MSL   +99999+99999GF105991999999999999999999MA1999990096141MD1909990+0271REMSYN004BUFR
0116832880999992013050718004-13262-043408FM-15+044399999V0202701N002119999999N009999199+03601+01201999999ADDGA1041+009141991GE19MSL   +99999+99999MA1101301999990REMMET051METAR SBLP 071800Z 27004KT 9999 SCT030 36/12 Q1013=
0116832880999992013050719004-13262-043408FM-15+044399999V0202701N003119999999N009999199+03501+01201999999ADDGA1021+009141991GE19MSL   +99999+99999MA1101301999990REMMET051METAR SBLP 071900Z 27006KT 9999 FEW030 35/12 Q1013=
0111832880999992013050720004-13262-043408FM-15+044399999V0201901N003619999999N999999999+03401+01301999999ADDGA1021+009141991GE19MSL   +99999+99999MA1101301999990REMMET046METAR SBLP 072000Z 19007KT FEW030 34/13 Q1013=
0072832880999992013050721004-13262-043408FM-15+044399999V0201601N002619999999Y999999999+03101+01401999999ADDMA1101401999990REMMET045METAR SBLP 072100Z 16005KT CAVOK 31/14 Q1014=
0072832880999992013050809154-13262-043408FM-16+044399999V0209999C000019999999Y999999999+02201+01501999999ADDMA1101501999990REMMET045SPECI SBLP 080915Z 00000KT CAVOK 22/15 Q1015=
0072832880999992013050810004-13262-043408FM-15+044399999V0209999C000019999999Y999999999+02101+01601999999ADDMA1101601999990REMMET045METAR SBLP 081000Z 00000KT CAVOK 21/16 Q1016=
0072832880999992013050811004-13262-043408FM-15+044399999V0209999C000019999999Y999999999+02501+01701999999ADDMA1101501999990REMMET045METAR SBLP 081100Z 00000KT CAVOK 25/17 Q1015=
0111832880999992013050812004-13260-043410FM-12+044099999V0202301N0021122000199020000199+02621+01731101331ADDAA101999990AZ101061AZ201061GF100991999999999999999999KA1120N+02081MA1999990096481MD1909990-0131REMSYN004BUFR
0072832880999992013050812004-13262-043408FM-15+044399999V0202101N002119999999Y999999999+02801+01601999999ADDMA1101701999990REMMET045METAR SBLP 081200Z 21004KT CAVOK 28/16 Q1017=
0072832880999992013050813004-13262-043408FM-15+044399999V0209999C000019999999Y999999999+03001+01701999999ADDMA1101701999990REMMET045METAR SBLP 081300Z 00000KT CAVOK 30/17 Q1017=
0116832880999992013050814004-13262-043408FM-15+044399999V0203301N001519999999N009999199+03201+01801999999ADDGA1021+009141991GE19MSL   +99999+99999MA1101701999990REMMET051METAR SBLP 081400Z 33003KT 9999 FEW030 32/18 Q1017=
0116832880999992013050815004-13262-043408FM-15+044399999V0202201N002119999999N009999199+03401+01601999999ADDGA1021+009141991GE19MSL   +99999+99999MA1101601999990REMMET051METAR SBLP 081500Z 22004KT 9999 FEW030 34/16 Q1016=
0116832880999992013050816004-13262-043408FM-15+044399999V0202701N002119999999N009999199+03401+02001999999ADDGA1041+009141991GE19MSL   +99999+99999MA1101501999990REMMET051METAR SBLP 081600Z 27004KT 9999 SCT030 34/20 Q1015=
0116832880999992013050817004-13262-043408FM-15+044399999V0202701N002619999999N009999199+03501+01801999999ADDGA1041+009141991GE19MSL   +99999+99999MA1101401999990REMMET051METAR SBLP 081700Z 27005KT 9999 SCT030 35/18 Q1014=
0136832880999992013050818004-13260-043410FM-12+044099999V0202301N0021199999999020000199+03391+01891100981ADDAA101999990AZ101061AZ201061GA1031+008001081GE19MSL   +99999+99999GF103991999999999999999999MA1999990096181MD1909990+0041REMSYN004BUFR
0116832880999992013050818004-13262-043408FM-15+044399999V0201801N001519999999N009999199+03501+01801999999ADDGA1041+009141991GE19MSL   +99999+99999MA1101401999990REMMET051METAR SBLP 081800Z 18003KT 9999 SCT030 35/18 Q1014=
0116832880999992013050819004-13262-043408FM-15+044399999V0202101N003119999999N009999199+03501+02001999999ADDGA1041+009141991GE19MSL   +99999+99999MA1101401999990REMMET051METAR SBLP 081900Z 21006KT 9999 SCT030 35/20 Q1014=
0116832880999992013050820004-13262-043408FM-15+044399999V0202101N002119999999N009999199+03401+01901999999ADDGA1041+009141991GE19MSL   +99999+99999MA1101401999990REMMET051METAR SBLP 082000Z 21004KT 9999 SCT030 34/19 Q1014=
0139832880999992013050821004-13262-043408FM-15+044399999V0209999C000019999999N009999199+03101+01901999999ADDGA1021+009141991GA2041+030481991GE19MSL   +99999+99999MA1101401999990REMMET058METAR SBLP 082100Z 00000KT 9999 FEW030 SCT100 31/19 Q1014=
0139832880999992013050909154-13262-043408FM-16+044399999V0201801N001519999999N009999199+02201+01901999999ADDGA1021+009141991GA2041+030481991GE19MSL   +99999+99999MA1101601999990REMMET058SPECI SBLP 090915Z 18003KT 9999 FEW030 SCT100 22/19 Q1016=
0072832880999992013050910004-13262-043408FM-15+044399999V0201901N001519999999Y999999999+02301+01901999999ADDMA1101701999990REMMET045METAR SBLP 091000Z 19003KT CAVOK 23/19 Q1017=
0072832880999992013050911004-13262-043408FM-15+044399999V0201801N002119999999Y999999999+02601+01901999999ADDMA1101701999990REMMET045METAR SBLP 091100Z 18004KT CAVOK 26/19 Q1017=
0181832880999992013050912004-13260-043410FM-12+044099999V0200901N0010199999999020000199+02801+01901101391ADDAA101999990AZ101061AZ201061GA1011+008001081GA2991+999991031GA3991+999991001GE19MSL   +99999+99999GF104991999999999999999999KA1120N+02261MA1999990096551MD1909990+0071REMSYN004BUFR
0072832880999992013050912004-13262-043408FM-15+044399999V0201301N002119999999Y999999999+03001+01901999999ADDMA1101801999990REMMET045METAR SBLP 091200Z 13004KT CAVOK 30/19 Q1018=
0139832880999992013050913004-13262-043408FM-15+044399999V0201001N002119999999N009999199+03201+01801999999ADDGA1021+009141991GA2041+030481991GE19MSL   +99999+99999MA1101801999990REMMET058METAR SBLP 091300Z 10004KT 9999 FEW030 SCT100 32/18 Q1018=
0139832880999992013050914004-13262-043408FM-15+044399999V0200601N002619999999N009999199+03301+02001999999ADDGA1041+009141991GA2041+030481991GE19MSL   +99999+99999MA1101801999990REMMET058METAR SBLP 091400Z 06005KT 9999 SCT030 SCT100 33/20 Q1018=
0116832880999992013050915004-13262-043408FM-15+044399999V0201901N003119999999N009999199+03401+01701999999ADDGA1041+009141991GE19MSL   +99999+99999MA1101701999990REMMET051METAR SBLP 091500Z 19006KT 9999 SCT030 34/17 Q1017=
0116832880999992013050916004-13262-043408FM-15+044399999V0209999C000010091419N009999199+03301+01801999999ADDGA1071+009141991GE19MSL   +99999+99999MA1101601999990REMMET051METAR SBLP 091600Z 00000KT 9999 BKN030 33/18 Q1016=
0116832880999992013050917004-13262-043408FM-15+044399999V0209999C000010091419N009999199+03401+01701999999ADDGA1071+009141991GE19MSL   +99999+99999MA1101401999990REMMET051METAR SBLP 091700Z 00000KT 9999 BKN030 34/17 Q1014=
0152832880999992013050918004-13260-043410FM-12+044099999V0200901N0005199999999020000199+03371+02021100981ADDAA101999990AZ101061AZ201061GA1041+008001081GA2991+999991021GE19MSL   +99999+99999GF105991999999999999999999MA1999990096201MD1909990+0021REMSYN004BUFR
0116832880999992013050918004-13262-043408FM-15+044399999V0202001N004110091419N009999199+03501+01601999999ADDGA1071+009141991GE19MSL   +99999+99999MA1101401999990REMMET051METAR SBLP 091800Z 20008KT 9999 BKN030 35/16 Q1014=
0155832880999992013050919004-13262-043408FM-15+044399999V0203301N003110091419N009999199+02502+02301999999ADDGA1071+009141991GA2021+012191091GE19MSL   +99999+99999MA1101401999990MW1171REMMET068METAR SBLP 091900Z 33006KT 9999 TS BKN030 FEW040CB 25/23 Q1014 RERA=
0144832880999992013050920004-13262-043408FM-15+044399999V0209999C000019999999N009999199+02601+02201999999ADDGA1021+006101991GA2041+009141991GE19MSL   +99999+99999MA1101401999990REMMET063METAR SBLP 092000Z 00000KT 9999 FEW020 SCT030 26/22 Q1014 RETS=
0116832880999992013050921004-13262-043408FM-15+044399999V0209999C000019999999N009999199+02701+02301999999ADDGA1021+006101991GE19MSL   +99999+99999MA1101401999990REMMET051METAR SBLP 092100Z 00000KT 9999 FEW020 27/23 Q1014=
0072832880999992013051009154-13262-043408FM-16+044399999V0202001N001519999999Y999999999+02001+01801999999ADDMA1101801999990REMMET045SPECI SBLP 100915Z 20003KT CAVOK 20/18 Q1018=
0072832880999992013051010004-13262-043408FM-15+044399999V0209999C000019999999Y999999999+02001+01801999999ADDMA1101801999990REMMET045METAR SBLP 101000Z 00000KT CAVOK 20/18 Q1018=
0072832880999992013051011004-13262-043408FM-15+044399999V0201701N002119999999Y999999999+02401+01801999999ADDMA1101901999990REMMET045METAR SBLP 101100Z 17004KT CAVOK 24/18 Q1019=
0149832880999992013051012004-13260-043410FM-12+044099999V0200901N0010101250199020000199+02601+01931101581ADDAA124016031AZ101061AZ201061GA1062+012501051GE19MSL   +99999+99999GF105992999999999999999999KA1120N+02061MA1999990096691MD1909990+0141REMSYN004BUFR
0116832880999992013051012004-13262-043408FM-15+044399999V0201501N003619999999N009999199+02801+01901999999ADDGA1021+009141991GE19MSL   +99999+99999MA1102001999990REMMET051METAR SBLP 101200Z 15007KT 9999 FEW030 28/19 Q1020=
0116832880999992013051013004-13262-043408FM-15+044399999V0201201N002119999999N009999199+02901+01801999999ADDGA1041+009141991GE19MSL   +99999+99999MA1102001999990REMMET051METAR SBLP 101300Z 12004KT 9999 SCT030 29/18 Q1020=
0116832880999992013051014004-13262-043408FM-15+044399999V0201301N002119999999N009999199+03001+01801999999ADDGA1041+009141991GE19MSL   +99999+99999MA1101901999990REMMET051METAR SBLP 101400Z 13004KT 9999 SCT030 30/18 Q1019=
0116832880999992013051015004-13262-043408FM-15+044399999V0201401N003110091419N009999199+03101+01801999999ADDGA1071+009141991GE19MSL   +99999+99999MA1101801999990REMMET051METAR SBLP 101500Z 14006KT 9999 BKN030 31/18 Q1018=
0116832880999992013051016004-13262-043408FM-15+044399999V0201501N003110070119N009999199+03201+02101999999ADDGA1071+007011991GE19MSL   +99999+99999MA1101701999990REMMET051METAR SBLP 101600Z 15006KT 9999 BKN023 32/21 Q1017=
0116832880999992013051017004-13262-043408FM-15+044399999V0201501N003110070119N009999199+03201+01801999999ADDGA1071+007011991GE19MSL   +99999+99999MA1101601999990REMMET051METAR SBLP 101700Z 15006KT 9999 BKN023 32/18 Q1016=
0168832880999992013051018004-13260-043410FM-12+044099999V0201401N0026199999999020000199+03021+01871101201ADDAA101999990AZ101061AZ201061GA1041+008001061GA2991+999991051GA3991+999991021GE19MSL   +99999+99999GF107991999999999999999999MA1999990096331MD1909990+0131REMSYN004BUFR
0139832880999992013051018004-13262-043408FM-15+044399999V0201601N003110070119N009999199+03101+02001999999ADDGA1071+007011991GA2041+030481991GE19MSL   +99999+99999MA1101501999990REMMET058METAR SBLP 101800Z 16006KT 9999 BKN023 SCT100 31/20 Q1015=
0139832880999992013051019004-13262-043408FM-15+044399999V0201801N004119999999N009999199+03101+01601999999ADDGA1041+009141991GA2041+030481991GE19MSL   +99999+99999MA1101501999990REMMET058METAR SBLP 101900Z 18008KT 9999 SCT030 SCT100 31/16 Q1015=
0139832880999992013051020004-13262-043408FM-15+044399999V0201801N005119999999N009999199+03001+01601999999ADDGA1041+009141991GA2041+030481991GE19MSL   +99999+99999MA1101501999990REMMET058METAR SBLP 102000Z 18010KT 9999 SCT030 SCT100 30/16 Q1015=
0139832880999992013051021004-13262-043408FM-15+044399999V0201801N003110304819N009999199+02901+01601999999ADDGA1041+007011991GA2071+030481991GE19MSL   +99999+99999MA1101601999990REMMET058METAR SBLP 102100Z 18006KT 9999 SCT023 BKN100 29/16 Q1016=
0149832880999992013051112004-13260-043410FM-12+044099999V0201801N0015199999999020000199+02471+01681101621ADDAA101999990AZ101061AZ201061GA1991+025001011GE19MSL   +99999+99999GF102991999999999999999999KA1120N+01931MA1999990096721MD1909990+0031REMSYN004BUFR
0136832880999992013051118004-13260-043410FM-12+044099999V0203601N0000100800199020000199+03171+01791101131ADDAA101999990AZ101061AZ201061GA1061+008001081GE19MSL   +99999+99999GF106991999999999999999999MA1999990096271MD1909990-0061REMSYN004BUFR
0149832880999992013051212004-13260-043410FM-12+044099999V0201801N0010199999999020000199+02721+01771101521ADDAA101999990AZ101061AZ201061GA1011+008001081GE19MSL   +99999+99999GF101991999999999999999999KA1120N+02381MA1999990096661MD1909990-0061REMSYN004BUFR
0136832880999992013051218004-13260-043410FM-12+044099999V0201401N0015199999999020000199+03201+01871100981ADDAA101999990AZ101061AZ201061GA1041+008001081GE19MSL   +99999+99999GF104991999999999999999999MA1999990096181MD1909990-0091REMSYN004BUFR
0116832880999992013051309154-13262-043408FM-16+044399999V0202401N002110070119N009999199+02101+01801999999ADDGA1071+007011991GE19MSL   +99999+99999MA1101701999990REMMET051SPECI SBLP 130915Z 24004KT 9999 BKN023 21/18 Q1017=
0116832880999992013051310004-13262-043408FM-15+044399999V0202301N002119999999N009999199+02201+01801999999ADDGA1041+007011991GE19MSL   +99999+99999MA1101801999990REMMET051METAR SBLP 131000Z 23004KT 9999 SCT023 22/18 Q1018=
0072832880999992013051311004-13262-043408FM-15+044399999V0202401N002119999999Y999999999+02501+01701999999ADDMA1101801999990REMMET045METAR SBLP 131100Z 24004KT CAVOK 25/17 Q1018=
0149832880999992013051312004-13260-043410FM-12+044099999V0200501N0010199999999020000199+02601+01881101591ADDAA101999990AZ101061AZ201061GA1031+008001081GE19MSL   +99999+99999GF103991999999999999999999KA1120N+02141MA1999990096701MD1909990+0041REMSYN004BUFR
0116832880999992013051312004-13262-043408FM-15+044399999V0202301N002119999999N009999199+02801+01801999999ADDGA1021+009141991GE19MSL   +99999+99999MA1101901999990REMMET051METAR SBLP 131200Z 23004KT 9999 FEW030 28/18 Q1019=
0116832880999992013051313004-13262-043408FM-15+044399999V0202001N003119999999N009999199+03001+01701999999ADDGA1041+009141991GE19MSL   +99999+99999MA1101901999990REMMET051METAR SBLP 131300Z 20006KT 9999 SCT030 30/17 Q1019=
0116832880999992013051314004-13262-043408FM-15+044399999V0202101N003110091419N009999199+03001+01601999999ADDGA1071+009141991GE19MSL   +99999+99999MA1101801999990REMMET051METAR SBLP 131400Z 21006KT 9999 BKN030 30/16 Q1018=
0116832880999992013051315004-13262-043408FM-15+044399999V0202001N002110091419N009999199+03101+01801999999ADDGA1071+009141991GE19MSL   +99999+99999MA1101701999990REMMET051METAR SBLP 131500Z 20004KT 9999 BKN030 31/18 Q1017=
0116832880999992013051316004-13262-043408FM-15+044399999V0202101N003110091419N009999199+03201+01701999999ADDGA1071+009141991GE19MSL   +99999+99999MA1101601999990REMMET051METAR SBLP 131600Z 21006KT 9999 BKN030 32/17 Q1016=
0116832880999992013051317004-13262-043408FM-15+044399999V0201801N003110061019N009999199+03201+01701999999ADDGA1071+006101991GE19MSL   +99999+99999MA1101501999990REMMET051METAR SBLP 131700Z 18006KT 9999 BKN020 32/17 Q1015=
0168832880999992013051318004-13260-043410FM-12+044099999V0200901N0015100800199020000199+03021+01881101111ADDAA101999990AZ101061AZ201061GA1081+008001061GA2991+999991101GA3991+999991101GE19MSL   +99999+99999GF108991999999999999999999MA1999990096261MD1909990+0081REMSYN004BUFR
0116832880999992013051318004-13262-043408FM-15+044399999V0201801N004110061019N009999199+03101+01701999999ADDGA1071+006101991GE19MSL   +99999+99999MA1101401999990REMMET051METAR SBLP 131800Z 18008KT 9999 BKN020 31/17 Q1014=
0116832880999992013051319004-13262-043408FM-15+044399999V0201901N003610061019N009999199+03101+01701999999ADDGA1071+006101991GE19MSL   +99999+99999MA1101401999990REMMET051METAR SBLP 131900Z 19007KT 9999 BKN020 31/17 Q1014=
0116832880999992013051320004-13262-043408FM-15+044399999V0202001N001510061019N009999199+03001+01701999999ADDGA1071+006101991GE19MSL   +99999+99999MA1101401999990REMMET051METAR SBLP 132000Z 20003KT 9999 BKN020 30/17 Q1014=
0116832880999992013051321004-13262-043408FM-15+044399999V0209999C000010061019N009999199+02901+01701999999ADDGA1071+006101991GE19MSL   +99999+99999MA1101501999990REMMET051METAR SBLP 132100Z 00000KT 9999 BKN020 29/17 Q1015=
0116832880999992013051409154-13262-043408FM-16+044399999V0209999C000019999999N009999199+02001+01801999999ADDGA1021+006101991GE19MSL   +99999+99999MA1101701999990REMMET051SPECI SBLP 140915Z 00000KT 9999 FEW020 20/18 Q1017=
0116832880999992013051410004-13262-043408FM-15+044399999V0209999C000019999999N009999199+02001+01801999999ADDGA1021+006101991GE19MSL   +99999+99999MA1101801999990REMMET051METAR SBLP 141000Z 00000KT 9999 FEW020 20/18 Q1018=
0072832880999992013051411004-13262-043408FM-15+044399999V0202601N003119999999Y999999999+02401+01801999999ADDMA1101801999990REMMET045METAR SBLP 141100Z 26006KT CAVOK 24/18 Q1018=
0111832880999992013051412004-13260-043410FM-12+044099999V0201401N0026122000199020000199+02591+01821101531ADDAA101999990AZ101061AZ201061GF100991999999999999999999KA1120N+02041MA1999990096651MD1909990-0051REMSYN004BUFR
0116832880999992013051412004-13262-043408FM-15+044399999V0202501N004119999999N009999199+02501+01801999999ADDGA1021+009141991GE19MSL   +99999+99999MA1101901999990REMMET051METAR SBLP 141200Z 25008KT 9999 FEW030 25/18 Q1019=
0116832880999992013051413004-13262-043408FM-15+044399999V0209999C000019999999N009999199+03001+01701999999ADDGA1041+009141991GE19MSL   +99999+99999MA1101901999990REMMET051METAR SBLP 141300Z 00000KT 9999 SCT030 30/17 Q1019=
0116832880999992013051414004-13262-043408FM-15+044399999V0202201N002619999999N009999199+03001+01601999999ADDGA1041+009141991GE19MSL   +99999+99999MA1101801999990REMMET051METAR SBLP 141400Z 22005KT 9999 SCT030 30/16 Q1018=
0116832880999992013051415004-13262-043408FM-15+044399999V0209999C000019999999N009999199+03101+01601999999ADDGA1041+009141991GE19MSL   +99999+99999MA1101701999990REMMET051METAR SBLP 141500Z 00000KT 9999 SCT030 31/16 Q1017=
0116832880999992013051416004-13262-043408FM-15+044399999V0209999C000010082319N009999199+03301+01701999999ADDGA1071+008231991GE19MSL   +99999+99999MA1101601999990REMMET051METAR SBLP 141600Z 00000KT 9999 BKN027 33/17 Q1016=
0116832880999992013051417004-13262-043408FM-15+044399999V0203501N002610082319N009999199+03301+01701999999ADDGA1071+008231991GE19MSL   +99999+99999MA1101501999990REMMET051METAR SBLP 141700Z 35005KT 9999 BKN027 33/17 Q1015=
0136832880999992013051418004-13260-043410FM-12+044099999V0201801N0015100800199020000199+03201+01781101041ADDAA101999990AZ101061AZ201061GA1061+008001081GE19MSL   +99999+99999GF106991999999999999999999MA1999990096211MD1909990-0051REMSYN004BUFR
0116832880999992013051418004-13262-043408FM-15+044399999V0209999C000010082319N009999199+03301+01701999999ADDGA1071+008231991GE19MSL   +99999+99999MA1101401999990REMMET051METAR SBLP 141800Z 00000KT 9999 BKN027 33/17 Q1014=
0116832880999992013051419004-13262-043408FM-15+044399999V0202401N001510091419N009999199+03501+01601999999ADDGA1071+009141991GE19MSL   +99999+99999MA1101401999990REMMET051METAR SBLP 141900Z 24003KT 9999 BKN030 35/16 Q1014=
0116832880999992013051420004-13262-043408FM-15+044399999V0202701N003110082319N009999199+03201+01701999999ADDGA1071+008231991GE19MSL   +99999+99999MA1101401999990REMMET051METAR SBLP 142000Z 27006KT 9999 BKN027 32/17 Q1014=
0116832880999992013051421004-13262-043408FM-15+044399999V0202601N002610082319N009999199+03001+01701999999ADDGA1071+008231991GE19MSL   +99999+99999MA1101501999990REMMET051METAR SBLP 142100Z 26005KT 9999 BKN027 30/17 Q1015=
0139832880999992013051509154-13262-043408FM-16+044399999V0209999C000019999999N009999199+02101+01901999999ADDGA1021+006101991GA2041+009141991GE19MSL   +99999+99999MA1101701999990REMMET058SPECI SBLP 150915Z 00000KT 9999 FEW020 SCT030 21/19 Q1017=
0139832880999992013051510004-13262-043408FM-15+044399999V0209999C000019999999N009999199+02301+01901999999ADDGA1021+006101991GA2041+009141991GE19MSL   +99999+99999MA1101701999990REMMET058METAR SBLP 151000Z 00000KT 9999 FEW020 SCT030 23/19 Q1017=
0116832880999992013051511004-13262-043408FM-15+044399999V0202501N003119999999N009999199+02501+01901999999ADDGA1021+009141991GE19MSL   +99999+99999MA1101801999990REMMET051METAR SBLP 151100Z 25006KT 9999 FEW030 25/19 Q1018=
0149832880999992013051512004-13260-043410FM-12+044099999V0200901N0015199999999020000199+02701+01921101441ADDAA101999990AZ101061AZ201061GA1011+008001081GE19MSL   +99999+99999GF101991999999999999999999KA1120N+02141MA1999990096601MD1909990-0051REMSYN004BUFR
0116832880999992013051512004-13262-043408FM-15+044399999V0202701N002619999999N009999199+02801+01801999999ADDGA1021+009141991GE19MSL   +99999+99999MA1101801999990REMMET051METAR SBLP 151200Z 27005KT 9999 FEW030 28/18 Q1018=
0116832880999992013051513004-13262-043408FM-15+044399999V0209999C000019999999N009999199+02901+01901999999ADDGA1041+009141991GE19MSL   +99999+99999MA1101801999990REMMET051METAR SBLP 151300Z 00000KT 9999 SCT030 29/19 Q1018=
0116832880999992013051514004-13262-043408FM-15+044399999V0202601N002110082319N009999199+03101+01801999999ADDGA1071+008231991GE19MSL   +99999+99999MA1101701999990REMMET051METAR SBLP 151400Z 26004KT 9999 BKN027 31/18 Q1017=
0116832880999992013051515004-13262-043408FM-15+044399999V0203101N002610082319N009999199+03101+01901999999ADDGA1071+008231991GE19MSL   +99999+99999MA1101601999990REMMET051METAR SBLP 151500Z 31005KT 9999 BKN027 31/19 Q1016=
0116832880999992013051516004-13262-043408FM-15+044399999V0203001N002110082319N009999199+03201+01701999999ADDGA1071+008231991GE19MSL   +99999+99999MA1101501999990REMMET051METAR SBLP 151600Z 30004KT 9999 BKN027 32/17 Q1015=
0116832880999992013051517004-13262-043408FM-15+044399999V0202901N002119999999N009999199+03301+01701999999ADDGA1041+008231991GE19MSL   +99999+99999MA1101401999990REMMET051METAR SBLP 151700Z 29004KT 9999 SCT027 33/17 Q1014=
0136832880999992013051518004-13260-043410FM-12+044099999V0200901N0015199999999020000199+03221+01951100951ADDAA101999990AZ101061AZ201061GA1031+008001081GE19MSL   +99999+99999GF103991999999999999999999MA1999990096121MD1909990-0091REMSYN004BUFR
0116832880999992013051518004-13262-043408FM-15+044399999V0201801N001519999999N009999199+03401+01501999999ADDGA1041+009141991GE19MSL   +99999+99999MA1101301999990REMMET051METAR SBLP 151800Z 18003KT 9999 SCT030 34/15 Q1013=
0116832880999992013051519004-13262-043408FM-15+044399999V0203501N003119999999N009999199+03401+01601999999ADDGA1021+009141991GE19MSL   +99999+99999MA1101201999990REMMET051METAR SBLP 151900Z 35006KT 9999 FEW030 34/16 Q1012=
0116832880999992013051520004-13262-043408FM-15+044399999V0203001N003119999999N009999199+03301+01301999999ADDGA1021+009141991GE19MSL   +99999+99999MA1101301999990REMMET051METAR SBLP 152000Z 30006KT 9999 FEW030 33/13 Q1013=
0116832880999992013051521004-13262-043408FM-15+044399999V0202801N002119999999N009999199+03001+01201999999ADDGA1021+009141991GE19MSL   +99999+99999MA1101301999990REMMET051METAR SBLP 152100Z 28004KT 9999 FEW030 30/12 Q1013=
0072832880999992013051609154-13262-043408FM-16+044399999V0209999C000019999999Y999999999+02001+01601999999ADDMA1101601999990REMMET045SPECI SBLP 160915Z 00000KT CAVOK 20/16 Q1016=
0072832880999992013051610004-13262-043408FM-15+044399999V0209999C000019999999Y999999999+02001+01701999999ADDMA1101701999990REMMET045METAR SBLP 161000Z 00000KT CAVOK 20/17 Q1017=
0072832880999992013051611004-13262-043408FM-15+044399999V0209999C000019999999Y999999999+02401+01701999999ADDMA1101801999990REMMET045METAR SBLP 161100Z 00000KT CAVOK 24/17 Q1018=
0111832880999992013051612004-13260-043410FM-12+044099999V0203601N0000122000199020000199+02591+01831101521ADDAA101999990AZ101061AZ201061GF100991999999999999999999KA1120N+02061MA1999990096631MD1909990+0031REMSYN004BUFR
0072832880999992013051612004-13262-043408FM-15+044399999V0203101N001519999999Y999999999+02701+01601999999ADDMA1101801999990REMMET045METAR SBLP 161200Z 31003KT CAVOK 27/16 Q1018=
0072832880999992013051613004-13262-043408FM-15+044399999V0203501N002619999999Y999999999+02801+01601999999ADDMA1101801999990REMMET045METAR SBLP 161300Z 35005KT CAVOK 28/16 Q1018=
0116832880999992013051614004-13262-043408FM-15+044399999V0202701N001519999999N009999199+03001+01601999999ADDGA1021+009141991GE19MSL   +99999+99999MA1101801999990REMMET051METAR SBLP 161400Z 27003KT 9999 FEW030 30/16 Q1018=
0116832880999992013051615004-13262-043408FM-15+044399999V0200901N002119999999N009999199+03101+01701999999ADDGA1021+009141991GE19MSL   +99999+99999MA1101601999990REMMET051METAR SBLP 161500Z 09004KT 9999 FEW030 31/17 Q1016=
0116832880999992013051616004-13262-043408FM-15+044399999V0200301N002619999999N009999199+03301+01601999999ADDGA1021+009141991GE19MSL   +99999+99999MA1101501999990REMMET051METAR SBLP 161600Z 03005KT 9999 FEW030 33/16 Q1015=
0116832880999992013051617004-13262-043408FM-15+044399999V0200601N004119999999N009999199+03201+01901999999ADDGA1041+009141991GE19MSL   +99999+99999MA1101401999990REMMET051METAR SBLP 161700Z 06008KT 9999 SCT030 32/19 Q1014=
0136832880999992013051618004-13260-043410FM-12+044099999V0202301N0010199999999020000199+03251+01841100951ADDAA101999990AZ101061AZ201061GA1041+008001081GE19MSL   +99999+99999GF104991999999999999999999MA1999990096131MD1909990+0011REMSYN004BUFR
0116832880999992013051618004-13262-043408FM-15+044399999V0200401N004119999999N009999199+03401+01601999999ADDGA1041+009141991GE19MSL   +99999+99999MA1101301999990REMMET051METAR SBLP 161800Z 04008KT 9999 SCT030 34/16 Q1013=
0116832880999992013051619004-13262-043408FM-15+044399999V0200501N002619999999N009999199+03201+01901999999ADDGA1021+009141991GE19MSL   +99999+99999MA1101201999990REMMET051METAR SBLP 161900Z 05005KT 9999 FEW030 32/19 Q1012=
0116832880999992013051620004-13262-043408FM-15+044399999V0209999C000019999999N009999199+03401+01501999999ADDGA1021+009141991GE19MSL   +99999+99999MA1101301999990REMMET051METAR SBLP 162000Z 00000KT 9999 FEW030 34/15 Q1013=
0116832880999992013051621004-13262-043408FM-15+044399999V0203201N005119999999N009999199+03201+01601999999ADDGA1041+008231991GE19MSL   +99999+99999MA1101401999990REMMET051METAR SBLP 162100Z 32010KT 9999 SCT027 32/16 Q1014=
0072832880999992013051709154-13262-043408FM-16+044399999V0209999C000019999999Y999999999+02001+01801999999ADDMA1101601999990REMMET045SPECI SBLP 170915Z 00000KT CAVOK 20/18 Q1016=
0072832880999992013051710004-13262-043408FM-15+044399999V0209999C000019999999Y999999999+02001+01801999999ADDMA1101701999990REMMET045METAR SBLP 171000Z 00000KT CAVOK 20/18 Q1017=
0072832880999992013051711004-13262-043408FM-15+044399999V0203301N001519999999Y999999999+02301+01801999999ADDMA1101801999990REMMET045METAR SBLP 171100Z 33003KT CAVOK 23/18 Q1018=
0111832880999992013051712004-13260-043410FM-12+044099999V0201801N0015122000199020000199+02591+01871101511ADDAA101999990AZ101061AZ201061GF100991999999999999999999KA1120N+02021MA1999990096621MD1909990-0011REMSYN004BUFR
0072832880999992013051712004-13262-043408FM-15+044399999V0209999C000019999999Y999999999+02701+01801999999ADDMA1101801999990REMMET045METAR SBLP 171200Z 00000KT CAVOK 27/18 Q1018=
0116832880999992013051713004-13262-043408FM-15+044399999V0209999C000019999999N009999199+03001+01801999999ADDGA1021+009141991GE19MSL   +99999+99999MA1101801999990REMMET051METAR SBLP 171300Z 00000KT 9999 FEW030 30/18 Q1018=
0116832880999992013051714004-13262-043408FM-15+044399999V0200401N001519999999N009999199+03101+01701999999ADDGA1021+009141991GE19MSL   +99999+99999MA1101701999990REMMET051METAR SBLP 171400Z 04003KT 9999 FEW030 31/17 Q1017=
0116832880999992013051715004-13262-043408FM-15+044399999V0200201N004119999999N009999199+03201+01801999999ADDGA1041+009141991GE19MSL   +99999+99999MA1101601999990REMMET051METAR SBLP 171500Z 02008KT 9999 SCT030 32/18 Q1016=
0116832880999992013051716004-13262-043408FM-15+044399999V0203101N002119999999N009999199+03301+01601999999ADDGA1041+009141991GE19MSL   +99999+99999MA1101501999990REMMET051METAR SBLP 171600Z 31004KT 9999 SCT030 33/16 Q1015=
0116832880999992013051717004-13262-043408FM-15+044399999V0203501N003119999999N009999199+03401+01401999999ADDGA1041+009141991GE19MSL   +99999+99999MA1101401999990REMMET051METAR SBLP 171700Z 35006KT 9999 SCT030 34/14 Q1014=
0136832880999992013051718004-13260-043410FM-12+044099999V0201801N0015199999999020000199+03341+01671100931ADDAA101999990AZ101061AZ201061GA1011+008001081GE19MSL   +99999+99999GF101991999999999999999999MA1999990096111MD1909990-0021REMSYN004BUFR
0116832880999992013051718004-13262-043408FM-15+044399999V0203001N003119999999N009999199+03401+01401999999ADDGA1041+009141991GE19MSL   +99999+99999MA1101301999990REMMET051METAR SBLP 171800Z 30006KT 9999 SCT030 34/14 Q1013=
0116832880999992013051719004-13262-043408FM-15+044399999V0202901N004119999999N009999199+03501+01401999999ADDGA1021+009141991GE19MSL   +99999+99999MA1101301999990REMMET051METAR SBLP 171900Z 29008KT 9999 FEW030 35/14 Q1013=
0116832880999992013051720004-13262-043408FM-15+044399999V0202901N003619999999N009999199+03401+01401999999ADDGA1021+006101991GE19MSL   +99999+99999MA1101301999990REMMET051METAR SBLP 172000Z 29007KT 9999 FEW020 34/14 Q1013=
0116832880999992013051721004-13262-043408FM-15+044399999V0203201N002619999999N009999199+03101+01401999999ADDGA1021+009141991GE19MSL   +99999+99999MA1101401999990REMMET051METAR SBLP 172100Z 32005KT 9999 FEW030 31/14 Q1014=
0111832880999992013051812004-13260-043410FM-12+044099999V0201801N0015122000199020000199+02521+01751101651ADDAA101999990AZ101061AZ201061GF100991999999999999999999KA1120N+02001MA1999990096761MD1909990+0141REMSYN004BUFR
0152832880999992013051818004-13260-043410FM-12+044099999V0201801N0015199999999020000199+03251+01601101091ADDAA101999990AZ101061AZ201061GA1021+008001081GA2991+999991021GE19MSL   +99999+99999GF104991999999999999999999MA1999990096251MD1909990+0141REMSYN004BUFR
0149832880999992013051912004-13260-043410FM-12+044099999V0201401N0026102500199020000199+02521+01751101741ADDAA101999990AZ101061AZ201061GA1051+025001021GE19MSL   +99999+99999GF105991999999999999999999KA1120N+01961MA1999990096831MD1909990+0071REMSYN004BUFR
0152832880999992013051918004-13260-043410FM-12+044099999V0201401N0015199999999020000199+03271+01611101121ADDAA101999990AZ101061AZ201061GA1031+008001081GA2991+999991021GE19MSL   +99999+99999GF105991999999999999999999MA1999990096271MD1909990+0021REMSYN004BUFR
0072832880999992013052009154-13262-043408FM-16+044399999V0209999C000019999999Y999999999+01901+01701999999ADDMA1101801999990REMMET045SPECI SBLP 200915Z 00000KT CAVOK 19/17 Q1018=
0072832880999992013052010004-13262-043408FM-15+044399999V0209999C000019999999Y999999999+01901+01701999999ADDMA1101801999990REMMET045METAR SBLP 201000Z 00000KT CAVOK 19/17 Q1018=
0072832880999992013052011004-13262-043408FM-15+044399999V0203101N002119999999Y999999999+02301+01701999999ADDMA1101901999990REMMET045METAR SBLP 201100Z 31004KT CAVOK 23/17 Q1019=
0149832880999992013052012004-13260-043410FM-12+044099999V0201801N0015199999999020000199+02391+01781101581ADDAA101999990AZ101061AZ201061GA1991+025001001GE19MSL   +99999+99999GF101991999999999999999999KA1120N+01941MA1999990096671MD1909990-0161REMSYN004BUFR
0072832880999992013052012004-13262-043408FM-15+044399999V0209999C000019999999Y999999999+02501+01601999999ADDMA1101901999990REMMET045METAR SBLP 201200Z 00000KT CAVOK 25/16 Q1019=
0072832880999992013052013004-13262-043408FM-15+044399999V0201101N002119999999Y999999999+02801+01601999999ADDMA1101901999990REMMET045METAR SBLP 201300Z 11004KT CAVOK 28/16 Q1019=
0072832880999992013052014004-13262-043408FM-15+044399999V0200101N002119999999Y999999999+02801+01701999999ADDMA1101801999990REMMET045METAR SBLP 201400Z 01004KT CAVOK 28/17 Q1018=
0116832880999992013052015004-13262-043408FM-15+044399999V0203301N002119999999N009999199+03001+01601999999ADDGA1021+009141991GE19MSL   +99999+99999MA1101701999990REMMET051METAR SBLP 201500Z 33004KT 9999 FEW030 30/16 Q1017=
0116832880999992013052016004-13262-043408FM-15+044399999V0203301N003119999999N009999199+03201+01701999999ADDGA1021+009141991GE19MSL   +99999+99999MA1101601999990REMMET051METAR SBLP 201600Z 33006KT 9999 FEW030 32/17 Q1016=
0116832880999992013052017004-13262-043408FM-15+044399999V0203301N004119999999N009999199+03201+01701999999ADDGA1041+009141991GE19MSL   +99999+99999MA1101401999990REMMET051METAR SBLP 201700Z 33008KT 9999 SCT030 32/17 Q1014=
0136832880999992013052018004-13260-043410FM-12+044099999V0201801N0021199999999020000199+03251+01761100931ADDAA101999990AZ101061AZ201061GA1011+008001081GE19MSL   +99999+99999GF101991999999999999999999MA1999990096091MD1909990-0181REMSYN004BUFR
0116832880999992013052018004-13262-043408FM-15+044399999V0203601N003119999999N009999199+03301+01601999999ADDGA1041+009141991GE19MSL   +99999+99999MA1101301999990REMMET051METAR SBLP 201800Z 36006KT 9999 SCT030 33/16 Q1013=
0116832880999992013052019004-13262-043408FM-15+044399999V0203601N004119999999N009999199+03301+01701999999ADDGA1041+009141991GE19MSL   +99999+99999MA1101301999990REMMET051METAR SBLP 201900Z 36008KT 9999 SCT030 33/17 Q1013=
0116832880999992013052020004-13262-043408FM-15+044399999V0203301N002119999999N009999199+03201+01601999999ADDGA1021+009141991GE19MSL   +99999+99999MA1101301999990REMMET051METAR SBLP 202000Z 33004KT 9999 FEW030 32/16 Q1013=
0116832880999992013052021004-13262-043408FM-15+044399999V0203201N001519999999N009999199+02901+01501999999ADDGA1021+009141991GE19MSL   +99999+99999MA1101301999990REMMET051METAR SBLP 202100Z 32003KT 9999 FEW030 29/15 Q1013=
0072832880999992013052109154-13262-043408FM-16+044399999V0209999C000019999999Y999999999+02001+01601999999ADDMA1101401999990REMMET045SPECI SBLP 210915Z 00000KT CAVOK 20/16 Q1014=
0072832880999992013052110004-13262-043408FM-15+044399999V0209999C000019999999Y999999999+02001+01701999999ADDMA1101501999990REMMET045METAR SBLP 211000Z 00000KT CAVOK 20/17 Q1015=
0072832880999992013052111004-13262-043408FM-15+044399999V0209999C000019999999Y999999999+02401+01801999999ADDMA1101501999990REMMET045METAR SBLP 211100Z 00000KT CAVOK 24/18 Q1015=
0149832880999992013052112004-13260-043410FM-12+044099999V0201801N0005199999999020000199+02621+01871101271ADDAA101999990AZ101061AZ201061GA1991+025001021GE19MSL   +99999+99999GF102991999999999999999999KA1120N+02041MA1999990096401MD1909990-0271REMSYN004BUFR
0072832880999992013052112004-13262-043408FM-15+044399999V0209999C000019999999Y999999999+02801+01701999999ADDMA1101601999990REMMET045METAR SBLP 211200Z 00000KT CAVOK 28/17 Q1016=
0072832880999992013052113004-13262-043408FM-15+044399999V0209999C000019999999Y999999999+03001+01701999999ADDMA1101601999990REMMET045METAR SBLP 211300Z 00000KT CAVOK 30/17 Q1016=
0116832880999992013052114004-13262-043408FM-15+044399999V0209999C000019999999N009999199+03101+01701999999ADDGA1021+009141991GE19MSL   +99999+99999MA1101501999990REMMET051METAR SBLP 211400Z 00000KT 9999 FEW030 31/17 Q1015=
0116832880999992013052115004-13262-043408FM-15+044399999V0203301N001519999999N009999199+03201+01701999999ADDGA1021+009141991GE19MSL   +99999+99999MA1101301999990REMMET051METAR SBLP 211500Z 33003KT 9999 FEW030 32/17 Q1013=
0116832880999992013052116004-13262-043408FM-15+044399999V0200401N001519999999N009999199+03301+01701999999ADDGA1041+009141991GE19MSL   +99999+99999MA1101201999990REMMET051METAR SBLP 211600Z 04003KT 9999 SCT030 33/17 Q1012=
0116832880999992013052117004-13262-043408FM-15+044399999V0200501N002119999999N009999199+03401+01401999999ADDGA1041+009141991GE19MSL   +99999+99999MA1101101999990REMMET051METAR SBLP 211700Z 05004KT 9999 SCT030 34/14 Q1011=
0136832880999992013052118004-13260-043410FM-12+044099999V0202701N0015199999999020000199+03321+01781100701ADDAA101999990AZ101061AZ201061GA1031+008001081GE19MSL   +99999+99999GF103991999999999999999999MA1999990095881MD1909990-0211REMSYN004BUFR
0116832880999992013052118004-13262-043408FM-15+044399999V0203401N002119999999N009999199+03401+01501999999ADDGA1021+009141991GE19MSL   +99999+99999MA1101001999990REMMET051METAR SBLP 211800Z 34004KT 9999 FEW030 34/15 Q1010=
0116832880999992013052119004-13262-043408FM-15+044399999V0203501N001019999999N009999199+03501+01401999999ADDGA1021+009141991GE19MSL   +99999+99999MA1101001999990REMMET051METAR SBLP 211900Z 35002KT 9999 FEW030 35/14 Q1010=
0116832880999992013052120004-13262-043408FM-15+044399999V0209999C000019999999N009999199+03401+01601999999ADDGA1021+009141991GE19MSL   +99999+99999MA1101001999990REMMET051METAR SBLP 212000Z 00000KT 9999 FEW030 34/16 Q1010=
0076832880999992013052121004-13262-043408FM-15+044399999V0209999C000019999999N999999999+03101+01401999999ADDMA1101101999990REMMET049METAR SBLP 212100Z 00000KT C A V O K 31/14 Q1011=
0072832880999992013052209154-13262-043408FM-16+044399999V0203101N002119999999Y999999999+02101+01601999999ADDMA1101401999990REMMET045SPECI SBLP 220915Z 31004KT CAVOK 21/16 Q1014=
0072832880999992013052210004-13262-043408FM-15+044399999V0203001N001519999999Y999999999+02101+01601999999ADDMA1101401999990REMMET045METAR SBLP 221000Z 30003KT CAVOK 21/16 Q1014=
0072832880999992013052211004-13262-043408FM-15+044399999V0202901N001519999999Y999999999+02401+01501999999ADDMA1101501999990REMMET045METAR SBLP 221100Z 29003KT CAVOK 24/15 Q1015=
0165832880999992013052212004-13260-043410FM-12+044099999V0203601N0000199999999020000199+02521+01671101251ADDAA101999990AZ101061AZ201061GA1031+008001081GA2991+999991031GE19MSL   +99999+99999GF105991999999999999999999KA1120N+02061MA1999990096381MD1909990-0021REMSYN004BUFR
0072832880999992013052212004-13262-043408FM-15+044399999V0209999C000019999999Y999999999+02701+01501999999ADDMA1101601999990REMMET045METAR SBLP 221200Z 00000KT CAVOK 27/15 Q1016=
0072832880999992013052213004-13262-043408FM-15+044399999V0209999C000019999999Y999999999+03001+01601999999ADDMA1101601999990REMMET045METAR SBLP 221300Z 00000KT CAVOK 30/16 Q1016=
0072832880999992013052214004-13262-043408FM-15+044399999V0209999C000019999999Y999999999+03101+01601999999ADDMA1101301999990REMMET045METAR SBLP 221400Z 00000KT CAVOK 31/16 Q1013=
0139832880999992013052215004-13262-043408FM-15+044399999V0202301N001019999999N009999199+03301+01501999999ADDGA1021+009141991GA2041+030481991GE19MSL   +99999+99999MA1101301999990REMMET058METAR SBLP 221500Z 23002KT 9999 FEW030 SCT100 33/15 Q1013=
0116832880999992013052216004-13262-043408FM-15+044399999V0209999C000019999999N009999199+03501+01601999999ADDGA1041+009141991GE19MSL   +99999+99999MA1101201999990REMMET051METAR SBLP 221600Z 00000KT 9999 SCT030 35/16 Q1012=
0116832880999992013052217004-13262-043408FM-15+044399999V0200101N002619999999N009999199+03301+01701999999ADDGA1041+008231991GE19MSL   +99999+99999MA1101101999990REMMET051METAR SBLP 221700Z 01005KT 9999 SCT027 33/17 Q1011=
0152832880999992013052218004-13260-043410FM-12+044099999V0202701N0005199999999020000199+03421+01621100691ADDAA101999990AZ101061AZ201061GA1031+008001081GA2991+999991051GE19MSL   +99999+99999GF106991999999999999999999MA1999990095881MD1909990+0001REMSYN004BUFR
0139832880999992013052218004-13262-043408FM-15+044399999V0203601N003119999999N009999199+03501+01601999999ADDGA1041+008231991GA2041+030481991GE19MSL   +99999+99999MA1101001999990REMMET058METAR SBLP 221800Z 36006KT 9999 SCT027 SCT100 35/16 Q1010=
0116832880999992013052219004-13262-043408FM-15+044399999V0209999C000019999999N009999199+03501+01401999999ADDGA1021+009141991GE19MSL   +99999+99999MA1101001999990REMMET051METAR SBLP 221900Z 00000KT 9999 FEW030 35/14 Q1010=
0139832880999992013052220004-13262-043408FM-15+044399999V0203201N002119999999N009999199+03401+01501999999ADDGA1021+009141991GA2041+030481991GE19MSL   +99999+99999MA1101001999990REMMET058METAR SBLP 222000Z 32004KT 9999 FEW030 SCT100 34/15 Q1010=
0139832880999992013052221004-13262-043408FM-15+044399999V0209999C000019999999N009999199+03101+01501999999ADDGA1021+009141991GA2041+030481991GE19MSL   +99999+99999MA1101101999990REMMET058METAR SBLP 222100Z 00000KT 9999 FEW030 SCT100 31/15 Q1011=
0072832880999992013052309154-13262-043408FM-16+044399999V0209999C000019999999Y999999999+02001+01801999999ADDMA1101301999990REMMET045SPECI SBLP 230915Z 00000KT CAVOK 20/18 Q1013=
0072832880999992013052310004-13262-043408FM-15+044399999V0209999C000019999999Y999999999+02101+01601999999ADDMA1101401999990REMMET045METAR SBLP 231000Z 00000KT CAVOK 21/16 Q1014=
0072832880999992013052311004-13262-043408FM-15+044399999V0203601N001519999999Y999999999+02501+01601999999ADDMA1101501999990REMMET045METAR SBLP 231100Z 36003KT CAVOK 25/16 Q1015=
0111832880999992013052312004-13260-043410FM-12+044099999V0203201N0015122000199020000199+02621+01831101161ADDAA101999990AZ101061AZ201061GF100991999999999999999999KA1120N+02161MA1999990096321MD1909990-0061REMSYN004BUFR
0072832880999992013052312004-13262-043408FM-15+044399999V0209999C000019999999Y999999999+02801+01701999999ADDMA1101501999990REMMET045METAR SBLP 231200Z 00000KT CAVOK 28/17 Q1015=
0072832880999992013052313004-13262-043408FM-15+044399999V0201001N002619999999Y999999999+03001+01701999999ADDMA1101501999990REMMET045METAR SBLP 231300Z 10005KT CAVOK 30/17 Q1015=
0116832880999992013052314004-13262-043408FM-15+044399999V0200901N003119999999N009999199+03301+01701999999ADDGA1021+009141991GE19MSL   +99999+99999MA1101401999990REMMET051METAR SBLP 231400Z 09006KT 9999 FEW030 33/17 Q1014=
0116832880999992013052315004-13262-043408FM-15+044399999V0201101N002619999999N009999199+03401+01701999999ADDGA1021+009141991GE19MSL   +99999+99999MA1101301999990REMMET051METAR SBLP 231500Z 11005KT 9999 FEW030 34/17 Q1013=
0116832880999992013052316004-13262-043408FM-15+044399999V0201201N003119999999N009999199+03401+01401999999ADDGA1021+009141991GE19MSL   +99999+99999MA1101201999990REMMET051METAR SBLP 231600Z 12006KT 9999 FEW030 34/14 Q1012=
0116832880999992013052317004-13262-043408FM-15+044399999V0201301N003119999999N009999199+03601+01301999999ADDGA1021+009141991GE19MSL   +99999+99999MA1101101999990REMMET051METAR SBLP 231700Z 13006KT 9999 FEW030 36/13 Q1011=
0152832880999992013052318004-13260-043410FM-12+044099999V0203201N0015199999999020000199+03501+01901100771ADDAA101999990AZ101061AZ201061GA1011+008001081GA2991+999991001GE19MSL   +99999+99999GF103991999999999999999999MA1999990096001MD1909990+0121REMSYN004BUFR
0116832880999992013052318004-13262-043408FM-15+044399999V0209999C000019999999N009999199+03601+01201999999ADDGA1021+009141991GE19MSL   +99999+99999MA1101001999990REMMET051METAR SBLP 231800Z 00000KT 9999 FEW030 36/12 Q1010=
0116832880999992013052319004-13262-043408FM-15+044399999V0201401N002119999999N009999199+03601+01201999999ADDGA1021+009141991GE19MSL   +99999+99999MA1101001999990REMMET051METAR SBLP 231900Z 14004KT 9999 FEW030 36/12 Q1010=
0116832880999992013052320004-13262-043408FM-15+044399999V0209999C000019999999N009999199+03501+01301999999ADDGA1021+009141991GE19MSL   +99999+99999MA1101001999990REMMET051METAR SBLP 232000Z 00000KT 9999 FEW030 35/13 Q1010=
0072832880999992013052321004-13262-043408FM-15+044399999V0209999C000019999999Y999999999+03201+01501999999ADDMA1101101999990REMMET045METAR SBLP 232100Z 00000KT CAVOK 32/15 Q1011=
0072832880999992013052409154-13262-043408FM-16+044399999V0209999C000019999999Y999999999+02001+01701999999ADDMA1101301999990REMMET045SPECI SBLP 240915Z 00000KT CAVOK 20/17 Q1013=
0072832880999992013052410004-13262-043408FM-15+044399999V0201501N002119999999Y999999999+02101+01601999999ADDMA1101401999990REMMET045METAR SBLP 241000Z 15004KT CAVOK 21/16 Q1014=
0072832880999992013052411004-13262-043408FM-15+044399999V0201201N001519999999Y999999999+02401+01601999999ADDMA1101501999990REMMET045METAR SBLP 241100Z 12003KT CAVOK 24/16 Q1015=
0181832880999992013052412004-13260-043410FM-12+044099999V0203601N0005199999999020000199+02571+01811101201ADDAA101999990AZ101061AZ201061GA1011+008001081GA2991+999991031GA3991+999991001GE19MSL   +99999+99999GF102991999999999999999999KA1120N+02101MA1999990096361MD1909990+0041REMSYN004BUFR
0072832880999992013052412004-13262-043408FM-15+044399999V0201501N002119999999Y999999999+02701+01601999999ADDMA1101501999990REMMET045METAR SBLP 241200Z 15004KT CAVOK 27/16 Q1015=
0072832880999992013052413004-13262-043408FM-15+044399999V0201601N001519999999Y999999999+03101+01601999999ADDMA1101601999990REMMET045METAR SBLP 241300Z 16003KT CAVOK 31/16 Q1016=
0116832880999992013052414004-13262-043408FM-15+044399999V0209999C000019999999N009999199+03301+01401999999ADDGA1021+009141991GE19MSL   +99999+99999MA1101501999990REMMET051METAR SBLP 241400Z 00000KT 9999 FEW030 33/14 Q1015=
0116832880999992013052415004-13262-043408FM-15+044399999V0200301N002119999999N009999199+03401+01401999999ADDGA1021+009141991GE19MSL   +99999+99999MA1101401999990REMMET051METAR SBLP 241500Z 03004KT 9999 FEW030 34/14 Q1014=
0116832880999992013052416004-13262-043408FM-15+044399999V0203301N003119999999N009999199+03501+01401999999ADDGA1041+009141991GE19MSL   +99999+99999MA1101301999990REMMET051METAR SBLP 241600Z 33006KT 9999 SCT030 35/14 Q1013=
0116832880999992013052417004-13262-043408FM-15+044399999V0200601N003619999999N009999199+03601+01401999999ADDGA1041+009141991GE19MSL   +99999+99999MA1101201999990REMMET051METAR SBLP 241700Z 06007KT 9999 SCT030 36/14 Q1012=
0136832880999992013052418004-13260-043410FM-12+044099999V0203201N0015199999999020000199+03471+01751100771ADDAA101999990AZ101061AZ201061GA1041+008001081GE19MSL   +99999+99999GF104991999999999999999999MA1999990095981MD1909990-0021REMSYN004BUFR
0116832880999992013052418004-13262-043408FM-15+044399999V0201301N003119999999N009999199+03601+01201999999ADDGA1021+009141991GE19MSL   +99999+99999MA1101101999990REMMET051METAR SBLP 241800Z 13006KT 9999 FEW030 36/12 Q1011=
0116832880999992013052419004-13262-043408FM-15+044399999V0201201N002119999999N009999199+03601+01201999999ADDGA1021+009141991GE19MSL   +99999+99999MA1101101999990REMMET051METAR SBLP 241900Z 12004KT 9999 FEW030 36/12 Q1011=
0116832880999992013052420004-13262-043408FM-15+044399999V0201501N002119999999N009999199+03501+01301999999ADDGA1021+009141991GE19MSL   +99999+99999MA1101101999990REMMET051METAR SBLP 242000Z 15004KT 9999 FEW030 35/13 Q1011=
0116832880999992013052421004-13262-043408FM-15+044399999V0209999C000019999999N009999199+03201+01501999999ADDGA1021+009141991GE19MSL   +99999+99999MA1101201999990REMMET051METAR SBLP 242100Z 00000KT 9999 FEW030 32/15 Q1012=
0111832880999992013052512004-13260-043410FM-12+044099999V0203601N0015122000199020000199+02721+01851101221ADDAA101999990AZ101061AZ201061GF100991999999999999999999KA1120N+02191MA1999990096391MD1909990+0031REMSYN004BUFR
0136832880999992013052518004-13260-043410FM-12+044099999V0203601N0000199999999020000199+03541+01971100741ADDAA101999990AZ101061AZ201061GA1011+025001081GE19MSL   +99999+99999GF101991999999999999999999MA1999990095951MD1909990-0031REMSYN004BUFR
0149832880999992013052612004-13260-043410FM-12+044099999V0200901N0005100800199020000199+02671+02041101461ADDAA101999990AZ101061AZ201061GA1061+008001081GE19MSL   +99999+99999GF106991999999999999999999KA1120N+02421MA1999990096621MD1909990+0231REMSYN004BUFR
0136832880999992013052618004-13260-043410FM-12+044099999V0201801N0021100800199020000199+02971+02021101071ADDAA101999990AZ101061AZ201061GA1071+008001081GE19MSL   +99999+99999GF107991999999999999999999MA1999990096241MD1909990+0291REMSYN004BUFR
0072832880999992013052709154-13262-043408FM-16+044399999V0203401N002119999999Y999999999+02001+01801999999ADDMA1101701999990REMMET045SPECI SBLP 270915Z 34004KT CAVOK 20/18 Q1017=
0072832880999992013052710004-13262-043408FM-15+044399999V0203001N001519999999Y999999999+02001+01801999999ADDMA1101701999990REMMET045METAR SBLP 271000Z 30003KT CAVOK 20/18 Q1017=
0139832880999992013052711004-13262-043408FM-15+044399999V0202701N002119999999N009999199+02301+01801999999ADDGA1021+009141991GA2041+030481991GE19MSL   +99999+99999MA1101801999990REMMET058METAR SBLP 271100Z 27004KT 9999 FEW030 SCT100 23/18 Q1018=
0181832880999992013052712004-13260-043410FM-12+044099999V0200901N0005199999999020000199+02421+01851101751ADDAA101999990AZ101061AZ201061GA1011+008001081GA2991+999991031GA3991+999991021GE19MSL   +99999+99999GF108991999999999999999999KA1120N+02041MA1999990096651MD1909990+0031REMSYN004BUFR
0116832880999992013052712004-13262-043408FM-15+044399999V0202401N002119999999N009999199+02601+01801999999ADDGA1021+009141991GE19MSL   +99999+99999MA1101901999990REMMET051METAR SBLP 271200Z 24004KT 9999 FEW030 26/18 Q1019=
0116832880999992013052713004-13262-043408FM-15+044399999V0202401N002119999999N009999199+02801+01701999999ADDGA1021+009141991GE19MSL   +99999+99999MA1101901999990REMMET051METAR SBLP 271300Z 24004KT 9999 FEW030 28/17 Q1019=
0116832880999992013052714004-13262-043408FM-15+044399999V0202101N002619999999N009999199+03001+01701999999ADDGA1021+009141991GE19MSL   +99999+99999MA1101801999990REMMET051METAR SBLP 271400Z 21005KT 9999 FEW030 30/17 Q1018=
0116832880999992013052715004-13262-043408FM-15+044399999V0209999C000019999999N009999199+03201+01701999999ADDGA1021+009141991GE19MSL   +99999+99999MA1101701999990REMMET051METAR SBLP 271500Z 00000KT 9999 FEW030 32/17 Q1017=
0116832880999992013052716004-13262-043408FM-15+044399999V0202801N002119999999N009999199+03101+01701999999ADDGA1021+009141991GE19MSL   +99999+99999MA1101501999990REMMET051METAR SBLP 271600Z 28004KT 9999 FEW030 31/17 Q1015=
0116832880999992013052717004-13262-043408FM-15+044399999V0202901N001519999999N009999199+03201+01701999999ADDGA1041+009141991GE19MSL   +99999+99999MA1101401999990REMMET051METAR SBLP 271700Z 29003KT 9999 SCT030 32/17 Q1014=
0152832880999992013052718004-13260-043410FM-12+044099999V0202701N0010199999999020000199+03121+01901101041ADDAA101999990AZ101061AZ201061GA1031+008001081GA2991+999991021GE19MSL   +99999+99999GF105991999999999999999999MA1999990096171MD1909990-0071REMSYN004BUFR
0116832880999992013052718004-13262-043408FM-15+044399999V0203501N002119999999N009999199+03301+01701999999ADDGA1041+009141991GE19MSL   +99999+99999MA1101301999990REMMET051METAR SBLP 271800Z 35004KT 9999 SCT030 33/17 Q1013=
0139832880999992013052719004-13262-043408FM-15+044399999V0203301N002119999999N009999199+03301+01701999999ADDGA1021+006101991GA2041+009141991GE19MSL   +99999+99999MA1101301999990REMMET058METAR SBLP 271900Z 33004KT 9999 FEW020 SCT030 33/17 Q1013=
0139832880999992013052720004-13262-043408FM-15+044399999V0202901N002619999999N009999199+03201+01601999999ADDGA1021+006101991GA2041+009141991GE19MSL   +99999+99999MA1101301999990REMMET058METAR SBLP 272000Z 29005KT 9999 FEW020 SCT030 32/16 Q1013=
0116832880999992013052721004-13262-043408FM-15+044399999V0203001N002119999999N009999199+03001+01701999999ADDGA1021+006101991GE19MSL   +99999+99999MA1101301999990REMMET051METAR SBLP 272100Z 30004KT 9999 FEW020 30/17 Q1013=
0072832880999992013052809154-13262-043408FM-16+044399999V0203201N001519999999Y999999999+02001+01701999999ADDMA1101601999990REMMET045SPECI SBLP 280915Z 32003KT CAVOK 20/17 Q1016=
0072832880999992013052810004-13262-043408FM-15+044399999V0203301N002119999999Y999999999+01901+01701999999ADDMA1101601999990REMMET045METAR SBLP 281000Z 33004KT CAVOK 19/17 Q1016=
0072832880999992013052811004-13262-043408FM-15+044399999V0203001N001519999999Y999999999+02301+01801999999ADDMA1101701999990REMMET045METAR SBLP 281100Z 30003KT CAVOK 23/18 Q1017=
0111832880999992013052812004-13260-043410FM-12+044099999V0203601N0000122000199020000199+02471+01891101381ADDAA101999990AZ101061AZ201061GF100991999999999999999999KA1120N+01941MA1999990096481MD1909990-0171REMSYN004BUFR
0072832880999992013052812004-13262-043408FM-15+044399999V0209999C000019999999Y999999999+02701+01701999999ADDMA1101701999990REMMET045METAR SBLP 281200Z 00000KT CAVOK 27/17 Q1017=
0072832880999992013052813004-13262-043408FM-15+044399999V0209999C000019999999Y999999999+02901+01701999999ADDMA1101601999990REMMET045METAR SBLP 281300Z 00000KT CAVOK 29/17 Q1016=
0072832880999992013052814004-13262-043408FM-15+044399999V0209999C000019999999Y999999999+03101+01601999999ADDMA1101501999990REMMET045METAR SBLP 281400Z 00000KT CAVOK 31/16 Q1015=
0072832880999992013052815004-13262-043408FM-15+044399999V0200301N002119999999Y999999999+03201+01701999999ADDMA1101401999990REMMET045METAR SBLP 281500Z 03004KT CAVOK 32/17 Q1014=
0116832880999992013052816004-13262-043408FM-15+044399999V0209999C000019999999N009999199+03301+01701999999ADDGA1021+009141991GE19MSL   +99999+99999MA1101301999990REMMET051METAR SBLP 281600Z 00000KT 9999 FEW030 33/17 Q1013=
0116832880999992013052817004-13262-043408FM-15+044399999V0209999C000019999999N009999199+03301+01701999999ADDGA1021+009141991GE19MSL   +99999+99999MA1101201999990REMMET051METAR SBLP 281700Z 00000KT 9999 FEW030 33/17 Q1012=
0136832880999992013052818004-13260-043410FM-12+044099999V0203601N0000100800199020000199+03341+01721100851ADDAA101999990AZ101061AZ201061GA1051+008001081GE19MSL   +99999+99999GF105991999999999999999999MA1999990096021MD1909990-0151REMSYN004BUFR
0116832880999992013052818004-13262-043408FM-15+044399999V0209999C000019999999N009999199+03501+01801999999ADDGA1021+009141991GE19MSL   +99999+99999MA1101101999990REMMET051METAR SBLP 281800Z 00000KT 9999 FEW030 35/18 Q1011=
0116832880999992013052819004-13262-043408FM-15+044399999V0202701N002119999999N009999199+03501+01601999999ADDGA1021+009141991GE19MSL   +99999+99999MA1101101999990REMMET051METAR SBLP 281900Z 27004KT 9999 FEW030 35/16 Q1011=
0116832880999992013052820004-13262-043408FM-15+044399999V0209999C000019999999N009999199+03401+01701999999ADDGA1021+009141991GE19MSL   +99999+99999MA1101101999990REMMET051METAR SBLP 282000Z 00000KT 9999 FEW030 34/17 Q1011=
0116832880999992013052821004-13262-043408FM-15+044399999V0209999C000019999999N009999199+03201+01701999999ADDGA1021+009141991GE19MSL   +99999+99999MA1101101999990REMMET051METAR SBLP 282100Z 00000KT 9999 FEW030 32/17 Q1011=
0072832880999992013052909154-13262-043408FM-16+044399999V0209999C000019999999Y999999999+02101+01801999999ADDMA1101401999990REMMET045SPECI SBLP 290915Z 00000KT CAVOK 21/18 Q1014=
0072832880999992013052910004-13262-043408FM-15+044399999V0209999C000019999999Y999999999+02401+01801999999ADDMA1101501999990REMMET045METAR SBLP 291000Z 00000KT CAVOK 24/18 Q1015=
0072832880999992013052911004-13262-043408FM-15+044399999V0209999C000019999999Y999999999+02501+01801999999ADDMA1101601999990REMMET045METAR SBLP 291100Z 00000KT CAVOK 25/18 Q1016=
0111832880999992013052912004-13260-043410FM-12+044099999V0203601N0000122000199020000199+02671+01861101221ADDAA101999990AZ101061AZ201061GF100991999999999999999999KA1120N+02151MA1999990096381MD1909990-0101REMSYN004BUFR
0072832880999992013052912004-13262-043408FM-15+044399999V0201901N001519999999Y999999999+02801+01801999999ADDMA1101601999990REMMET045METAR SBLP 291200Z 19003KT CAVOK 28/18 Q1016=
0072832880999992013052913004-13262-043408FM-15+044399999V0201801N002119999999Y999999999+03001+01801999999ADDMA1101601999990REMMET045METAR SBLP 291300Z 18004KT CAVOK 30/18 Q1016=
0116832880999992013052914004-13262-043408FM-15+044399999V0209999C000019999999N009999199+03201+01701999999ADDGA1021+009141991GE19MSL   +99999+99999MA1101501999990REMMET051METAR SBLP 291400Z 00000KT 9999 FEW030 32/17 Q1015=
0116832880999992013052915004-13262-043408FM-15+044399999V0209999C000019999999N009999199+03301+01701999999ADDGA1021+009141991GE19MSL   +99999+99999MA1101401999990REMMET051METAR SBLP 291500Z 00000KT 9999 FEW030 33/17 Q1014=
0116832880999992013052916004-13262-043408FM-15+044399999V0201001N002119999999N009999199+03501+01501999999ADDGA1041+009141991GE19MSL   +99999+99999MA1101301999990REMMET051METAR SBLP 291600Z 10004KT 9999 SCT030 35/15 Q1013=
0116832880999992013052917004-13262-043408FM-15+044399999V0201201N002119999999N009999199+03501+01501999999ADDGA1041+009141991GE19MSL   +99999+99999MA1101301999990REMMET051METAR SBLP 291700Z 12004KT 9999 SCT030 35/15 Q1013=
0136832880999992013052918004-13260-043410FM-12+044099999V0202701N0010199999999020000199+03471+01881100751ADDAA101999990AZ101061AZ201061GA1031+008001081GE19MSL   +99999+99999GF103991999999999999999999MA1999990095961MD1909990-0061REMSYN004BUFR
0116832880999992013052918004-13262-043408FM-15+044399999V0209999C000019999999N009999199+03601+01401999999ADDGA1041+009141991GE19MSL   +99999+99999MA1101101999990REMMET051METAR SBLP 291800Z 00000KT 9999 SCT030 36/14 Q1011=
0116832880999992013052919004-13262-043408FM-15+044399999V0209999C000019999999N009999199+03601+01301999999ADDGA1021+009141991GE19MSL   +99999+99999MA1101101999990REMMET051METAR SBLP 291900Z 00000KT 9999 FEW030 36/13 Q1011=
0116832880999992013052920004-13262-043408FM-15+044399999V0200301N001519999999N009999199+03501+01301999999ADDGA1021+009141991GE19MSL   +99999+99999MA1101201999990REMMET051METAR SBLP 292000Z 03003KT 9999 FEW030 35/13 Q1012=
0116832880999992013052921004-13262-043408FM-15+044399999V0209999C000019999999N009999199+03201+01401999999ADDGA1021+009141991GE19MSL   +99999+99999MA1101201999990REMMET051METAR SBLP 292100Z 00000KT 9999 FEW030 32/14 Q1012=
0072832880999992013053009154-13262-043408FM-16+044399999V0209999C000019999999Y999999999+02201+01701999999ADDMA1101501999990REMMET045SPECI SBLP 300915Z 00000KT CAVOK 22/17 Q1015=
0072832880999992013053010004-13262-043408FM-15+044399999V0209999C000019999999Y999999999+02201+01701999999ADDMA1101501999990REMMET045METAR SBLP 301000Z 00000KT CAVOK 22/17 Q1015=
0072832880999992013053011004-13262-043408FM-15+044399999V0200401N002119999999Y999999999+02401+01601999999ADDMA1101601999990REMMET045METAR SBLP 301100Z 04004KT CAVOK 24/16 Q1016=
0149832880999992013053012004-13260-043410FM-12+044099999V0201801N0005199999999020000199+02501+01811101341ADDAA101999990AZ101061AZ201061GA1991+025001001GE19MSL   +99999+99999GF102991999999999999999999KA1120N+02201MA1999990096481MD1909990+0101REMSYN004BUFR
0072832880999992013053012004-13262-043408FM-15+044399999V0209999C000019999999Y999999999+02701+01701999999ADDMA1101701999990REMMET045METAR SBLP 301200Z 00000KT CAVOK 27/17 Q1017=
0072832880999992013053013004-13262-043408FM-15+044399999V0209999C000019999999Y999999999+02901+01601999999ADDMA1101701999990REMMET045METAR SBLP 301300Z 00000KT CAVOK 29/16 Q1017=
0072832880999992013053014004-13262-043408FM-15+044399999V0209999C000019999999Y999999999+03201+01601999999ADDMA1102001999990REMMET045METAR SBLP 301400Z 00000KT CAVOK 32/16 Q1020=
0116832880999992013053015004-13262-043408FM-15+044399999V0201101N002119999999N009999199+03301+01701999999ADDGA1021+009141991GE19MSL   +99999+99999MA1101601999990REMMET051METAR SBLP 301500Z 11004KT 9999 FEW030 33/17 Q1016=
0116832880999992013053016004-13262-043408FM-15+044399999V0200901N003119999999N009999199+03401+01601999999ADDGA1021+009141991GE19MSL   +99999+99999MA1101501999990REMMET051METAR SBLP 301600Z 09006KT 9999 FEW030 34/16 Q1015=
0116832880999992013053017004-13262-043408FM-15+044399999V0200701N001519999999N009999199+03501+01901999999ADDGA1021+009141991GE19MSL   +99999+99999MA1101301999990REMMET051METAR SBLP 301700Z 07003KT 9999 FEW030 35/19 Q1013=
0152832880999992013053018004-13260-043410FM-12+044099999V0202301N0010199999999020000199+03371+01711100861ADDAA101999990AZ101061AZ201061GA1021+008001081GA2991+999991001GE19MSL   +99999+99999GF103991999999999999999999MA1999990096061MD1909990+0101REMSYN004BUFR
0116832880999992013053018004-13262-043408FM-15+044399999V0209999C000019999999N009999199+03601+01501999999ADDGA1021+009141991GE19MSL   +99999+99999MA1101201999990REMMET051METAR SBLP 301800Z 00000KT 9999 FEW030 36/15 Q1012=
0116832880999992013053019004-13262-043408FM-15+044399999V0209999C000019999999N009999199+03501+01501999999ADDGA1021+009141991GE19MSL   +99999+99999MA1101201999990REMMET051METAR SBLP 301900Z 00000KT 9999 FEW030 35/15 Q1012=
0116832880999992013053020004-13262-043408FM-15+044399999V0209999C000019999999N009999199+03501+01501999999ADDGA1021+009141991GE19MSL   +99999+99999MA1101201999990REMMET051METAR SBLP 302000Z 00000KT 9999 FEW030 35/15 Q1012=
0116832880999992013053021004-13262-043408FM-15+044399999V0209999C000019999999N009999199+03101+01701999999ADDGA1021+009141991GE19MSL   +99999+99999MA1101301999990REMMET051METAR SBLP 302100Z 00000KT 9999 FEW030 31/17 Q1013=
0072832880999992013053109154-13262-043408FM-16+044399999V0209999C000019999999Y999999999+02201+01801999999ADDMA1101501999990REMMET045SPECI SBLP 310915Z 00000KT CAVOK 22/18 Q1015=
0072832880999992013053110004-13262-043408FM-15+044399999V0209999C000019999999Y999999999+02201+01901999999ADDMA1101601999990REMMET045METAR SBLP 311000Z 00000KT CAVOK 22/19 Q1016=
0072832880999992013053111004-13262-043408FM-15+044399999V0203501N001519999999Y999999999+02501+01901999999ADDMA1101601999990REMMET045METAR SBLP 311100Z 35003KT CAVOK 25/19 Q1016=
0111832880999992013053112004-13260-043410FM-12+044099999V0202301N0015122000199020000199+02571+01961101441ADDAA101999990AZ101061AZ201061GF100991999999999999999999KA1120N+02181MA1999990096551MD1909990+0071REMSYN004BUFR
0072832880999992013053112004-13262-043408FM-15+044399999V0203601N002119999999Y999999999+02801+01901999999ADDMA1101701999990REMMET045METAR SBLP 311200Z 36004KT CAVOK 28/19 Q1017=
0072832880999992013053113004-13262-043408FM-15+044399999V0209999C000019999999Y999999999+03101+01801999999ADDMA1101701999990REMMET045METAR SBLP 311300Z 00000KT CAVOK 31/18 Q1017=
0072832880999992013053114004-13262-043408FM-15+044399999V0209999C000019999999Y999999999+03201+01901999999ADDMA1101601999990REMMET045METAR SBLP 311400Z 00000KT CAVOK 32/19 Q1016=
0116832880999992013053115004-13262-043408FM-15+044399999V0209999C000019999999N009999199+03401+01901999999ADDGA1021+009141991GE19MSL   +99999+99999MA1101501999990REMMET051METAR SBLP 311500Z 00000KT 9999 FEW030 34/19 Q1015=
0116832880999992013053116004-13262-043408FM-15+044399999V0200901N003119999999N009999199+03501+01601999999ADDGA1021+009141991GE19MSL   +99999+99999MA1101401999990REMMET051METAR SBLP 311600Z 09006KT 9999 FEW030 35/16 Q1014=
0116832880999992013053117004-13262-043408FM-15+044399999V0209999C000019999999N009999199+03601+01601999999ADDGA1041+009141991GE19MSL   +99999+99999MA1101201999990REMMET051METAR SBLP 311700Z 00000KT 9999 SCT030 36/16 Q1012=
0168832880999992013053118004-13260-043410FM-12+044099999V0202301N0015199999999020000199+03491+01981100831ADDAA101999990AZ101061AZ201061GA1041+008001081GA2991+999991051GA3991+999991021GE19MSL   +99999+99999GF107991999999999999999999MA1999990096021MD1909990-0041REMSYN004BUFR
0139832880999992013053118004-13262-043408FM-15+044399999V0203301N003119999999N009999199+03601+01601999999ADDGA1041+009141991GA2041+030481991GE19MSL   +99999+99999MA1101201999990REMMET058METAR SBLP 311800Z 33006KT 9999 SCT030 SCT100 36/16 Q1012=
0139832880999992013053119004-13262-043408FM-15+044399999V0201601N003119999999N009999199+02901+02301999999ADDGA1021+009141991GA2041+030481991GE19MSL   +99999+99999MA1101201999990REMMET058METAR SBLP 311900Z 16006KT 9999 FEW030 SCT100 29/23 Q1012=
0139832880999992013053120004-13262-043408FM-15+044399999V0202401N003119999999N009999199+03101+01901999999ADDGA1021+009141991GA2041+030481991GE19MSL   +99999+99999MA1101201999990REMMET058METAR SBLP 312000Z 24006KT 9999 FEW030 SCT100 31/19 Q1012=
0139832880999992013053121004-13262-043408FM-15+044399999V0202401N003119999999N009999199+02901+02001999999ADDGA1021+009141991GA2041+030481991GE19MSL   +99999+99999MA1101301999990REMMET058METAR SBLP 312100Z 24006KT 9999 FEW030 SCT100 29/20 Q1013=
0111832880999992013060112004-13260-043410FM-12+044099999V0200901N0026122000199020000199+02701+01881101541ADDAA124010031AZ101061AZ201061GF100991999999999999999999KA1120N+02181MA1999990096671MD1909990+0121REMSYN004BUFR
0136832880999992013060118004-13260-043410FM-12+044099999V0201801N0015199999999020000199+03271+01761100961ADDAA101999990AZ101061AZ201061GA1031+008001081GE19MSL   +99999+99999GF103991999999999999999999MA1999990096141MD1909990+0121REMSYN004BUFR
0111832880999992013060212004-13260-043410FM-12+044099999V0201401N0005122000199020000199+02591+01881101461ADDAA101999990AZ101061AZ201061GF100991999999999999999999KA1120N+02021MA1999990096571MD1909990-0101REMSYN004BUFR
0136832880999992013060218004-13260-043410FM-12+044099999V0201801N0015100800199020000199+03071+01671101101ADDAA101999990AZ101061AZ201061GA1071+008001061GE19MSL   +99999+99999GF107991999999999999999999MA1999990096231MD1909990+0091REMSYN004BUFR
0072832880999992013060309154-13262-043408FM-16+044399999V0203001N001519999999Y999999999+02001+01701999999ADDMA1101601999990REMMET045SPECI SBLP 030915Z 30003KT CAVOK 20/17 Q1016=
0072832880999992013060310004-13262-043408FM-15+044399999V0203301N001519999999Y999999999+02001+01701999999ADDMA1101701999990REMMET045METAR SBLP 031000Z 33003KT CAVOK 20/17 Q1017=
0072832880999992013060311004-13262-043408FM-15+044399999V0209999C000019999999Y999999999+02201+01901999999ADDMA1101801999990REMMET045METAR SBLP 031100Z 00000KT CAVOK 22/19 Q1018=
0149832880999992013060312004-13260-043410FM-12+044099999V0203601N0000199999999020000199+02451+01921101511ADDAA101999990AZ101061AZ201061GA1991+025001001GE19MSL   +99999+99999GF101991999999999999999999KA1120N+02021MA1999990096601MD1909990+0031REMSYN004BUFR
0072832880999992013060312004-13262-043408FM-15+044399999V0209999C000019999999Y999999999+02601+01801999999ADDMA1101801999990REMMET045METAR SBLP 031200Z 00000KT CAVOK 26/18 Q1018=
0072832880999992013060313004-13262-043408FM-15+044399999V0209999C000019999999Y999999999+02901+01701999999ADDMA1101801999990REMMET045METAR SBLP 031300Z 00000KT CAVOK 29/17 Q1018=
0116832880999992013060314004-13262-043408FM-15+044399999V0209999C000019999999N009999199+03101+01701999999ADDGA1021+009141991GE19MSL   +99999+99999MA1101801999990REMMET051METAR SBLP 031400Z 00000KT 9999 FEW030 31/17 Q1018=
0116832880999992013060315004-13262-043408FM-15+044399999V0209999C000019999999N009999199+03201+01601999999ADDGA1021+009141991GE19MSL   +99999+99999MA1101601999990REMMET051METAR SBLP 031500Z 00000KT 9999 FEW030 32/16 Q1016=
0116832880999992013060316004-13262-043408FM-15+044399999V0209999C000019999999N009999199+03301+01601999999ADDGA1021+009141991GE19MSL   +99999+99999MA1101501999990REMMET051METAR SBLP 031600Z 00000KT 9999 FEW030 33/16 Q1015=
0116832880999992013060317004-13262-043408FM-15+044399999V0203501N002119999999N009999199+03401+01501999999ADDGA1021+009141991GE19MSL   +99999+99999MA1101401999990REMMET051METAR SBLP 031700Z 35004KT 9999 FEW030 34/15 Q1014=
0136832880999992013060318004-13260-043410FM-12+044099999V0203601N0000199999999020000199+03271+01861100991ADDAA101999990AZ101061AZ201061GA1011+008001081GE19MSL   +99999+99999GF101991999999999999999999MA1999990096151MD1909990-0081REMSYN004BUFR
0116832880999992013060318004-13262-043408FM-15+044399999V0203301N002119999999N009999199+03401+01501999999ADDGA1021+009141991GE19MSL   +99999+99999MA1101301999990REMMET051METAR SBLP 031800Z 33004KT 9999 FEW030 34/15 Q1013=
0116832880999992013060319004-13262-043408FM-15+044399999V0200101N002119999999N009999199+03501+01501999999ADDGA1021+009141991GE19MSL   +99999+99999MA1101301999990REMMET051METAR SBLP 031900Z 01004KT 9999 FEW030 35/15 Q1013=
0116832880999992013060320004-13262-043408FM-15+044399999V0209999C000019999999N009999199+03401+01401999999ADDGA1021+009141991GE19MSL   +99999+99999MA1101301999990REMMET051METAR SBLP 032000Z 00000KT 9999 FEW030 34/14 Q1013=
0116832880999992013060321004-13262-043408FM-15+044399999V0209999C000019999999N009999199+03101+01601999999ADDGA1021+009141991GE19MSL   +99999+99999MA1101401999990REMMET051METAR SBLP 032100Z 00000KT 9999 FEW030 31/16 Q1014=
0072832880999992013060409154-13262-043408FM-16+044399999V0202901N001519999999Y999999999+02201+01901999999ADDMA1101701999990REMMET045SPECI SBLP 040915Z 29003KT CAVOK 22/19 Q1017=
0072832880999992013060410004-13262-043408FM-15+044399999V0209999C000019999999Y999999999+02501+01901999999ADDMA1101701999990REMMET045METAR SBLP 041000Z 00000KT CAVOK 25/19 Q1017=
0072832880999992013060411004-13262-043408FM-15+044399999V0203101N002619999999Y999999999+02501+01901999999ADDMA1101801999990REMMET045METAR SBLP 041100Z 31005KT CAVOK 25/19 Q1018=
0111832880999992013060412004-13260-043410FM-12+044099999V0202301N0026122000199020000199+02471+02021101471ADDAA101999990AZ101061AZ201061GF100991999999999999999999KA1120N+02171MA1999990096581MD1909990+0021REMSYN004BUFR
0072832880999992013060412004-13262-043408FM-15+044399999V0203101N002119999999Y999999999+02601+01901999999ADDMA1101801999990REMMET045METAR SBLP 041200Z 31004KT CAVOK 26/19 Q1018=
0072832880999992013060413004-13262-043408FM-15+044399999V0203001N002619999999Y999999999+02901+01901999999ADDMA1101801999990REMMET045METAR SBLP 041300Z 30005KT CAVOK 29/19 Q1018=
0116832880999992013060414004-13262-043408FM-15+044399999V0209999C000019999999N009999199+03001+01901999999ADDGA1021+009141991GE19MSL   +99999+99999MA1101701999990REMMET051METAR SBLP 041400Z 00000KT 9999 FEW030 30/19 Q1017=
0116832880999992013060415004-13262-043408FM-15+044399999V0200501N001519999999N009999199+03201+01901999999ADDGA1021+009141991GE19MSL   +99999+99999MA1101601999990REMMET051METAR SBLP 041500Z 05003KT 9999 FEW030 32/19 Q1016=
0116832880999992013060416004-13262-043408FM-15+044399999V0201401N001519999999N009999199+03301+01701999999ADDGA1041+009141991GE19MSL   +99999+99999MA1101501999990REMMET051METAR SBLP 041600Z 14003KT 9999 SCT030 33/17 Q1015=
0116832880999992013060417004-13262-043408FM-15+044399999V0203501N003119999999N009999199+03401+01701999999ADDGA1041+009141991GE19MSL   +99999+99999MA1101401999990REMMET051METAR SBLP 041700Z 35006KT 9999 SCT030 34/17 Q1014=
0136832880999992013060418004-13260-043410FM-12+044099999V0202301N0015100800199020000199+03421+02021100941ADDAA101999990AZ101061AZ201061GA1061+008001081GE19MSL   +99999+99999GF106991999999999999999999MA1999990096141MD1909990-0011REMSYN004BUFR
0116832880999992013060418004-13262-043408FM-15+044399999V0203501N003119999999N009999199+03501+01601999999ADDGA1041+009141991GE19MSL   +99999+99999MA1101301999990REMMET051METAR SBLP 041800Z 35006KT 9999 SCT030 35/16 Q1013=
0116832880999992013060419004-13262-043408FM-15+044399999V0203601N002119999999N009999199+03401+01501999999ADDGA1041+009141991GE19MSL   +99999+99999MA1101301999990REMMET051METAR SBLP 041900Z 36004KT 9999 SCT030 34/15 Q1013=
0139832880999992013060420004-13262-043408FM-15+044399999V0203101N003119999999N009999199+03401+01601999999ADDGA1021+007011991GA2041+009141991GE19MSL   +99999+99999MA1101301999990REMMET058METAR SBLP 042000Z 31006KT 9999 FEW023 SCT030 34/16 Q1013=
0149832880999992013060421004-13262-043408FM-15+044399999V0202901N003110304819N009000199+02801+02001999999ADDGA1041+006101991GA2071+030481991GE19MSL   +99999+99999MA1101401999990MW1611REMMET062METAR SBLP 042100Z 29006KT 9000 -RA SCT020 BKN100 28/20 Q1014=
0072832880999992013060509154-13262-043408FM-16+044399999V0203301N004119999999Y999999999+02201+01901999999ADDMA1101701999990REMMET045SPECI SBLP 050915Z 33008KT CAVOK 22/19 Q1017=
0072832880999992013060510004-13262-043408FM-15+044399999V0203501N003119999999Y999999999+02201+01901999999ADDMA1101701999990REMMET045METAR SBLP 051000Z 35006KT CAVOK 22/19 Q1017=
0072832880999992013060511004-13262-043408FM-15+044399999V0203501N002119999999Y999999999+02401+01901999999ADDMA1101801999990REMMET045METAR SBLP 051100Z 35004KT CAVOK 24/19 Q1018=
0149832880999992013060512004-13260-043410FM-12+044099999V0201801N0021199999999020000199+02491+02001101581ADDAA124012031AZ101061AZ201061GA1991+025001001GE19MSL   +99999+99999GF101991999999999999999999KA1120N+02221MA1999990096661MD1909990+0081REMSYN004BUFR
0072832880999992013060512004-13262-043408FM-15+044399999V0202901N002119999999Y999999999+02601+01901999999ADDMA1101901999990REMMET045METAR SBLP 051200Z 29004KT CAVOK 26/19 Q1019=
0116832880999992013060513004-13262-043408FM-15+044399999V0203001N001519999999N009999199+02801+01901999999ADDGA1021+009141991GE19MSL   +99999+99999MA1101901999990REMMET051METAR SBLP 051300Z 30003KT 9999 FEW030 28/19 Q1019=
0116832880999992013060514004-13262-043408FM-15+044399999V0202901N003119999999N009999199+03001+01801999999ADDGA1021+009141991GE19MSL   +99999+99999MA1101801999990REMMET051METAR SBLP 051400Z 29006KT 9999 FEW030 30/18 Q1018=
0116832880999992013060515004-13262-043408FM-15+044399999V0202601N002119999999N009999199+03101+01801999999ADDGA1041+009141991GE19MSL   +99999+99999MA1101701999990REMMET051METAR SBLP 051500Z 26004KT 9999 SCT030 31/18 Q1017=
0116832880999992013060516004-13262-043408FM-15+044399999V0203101N003119999999N009999199+03201+01801999999ADDGA1041+009141991GE19MSL   +99999+99999MA1101601999990REMMET051METAR SBLP 051600Z 31006KT 9999 SCT030 32/18 Q1016=
0116832880999992013060517004-13262-043408FM-15+044399999V0203401N003119999999N009999199+03301+01701999999ADDGA1041+009141991GE19MSL   +99999+99999MA1101501999990REMMET051METAR SBLP 051700Z 34006KT 9999 SCT030 33/17 Q1015=
0136832880999992013060518004-13260-043410FM-12+044099999V0200901N0015199999999020000199+03221+01881100991ADDAA101999990AZ101061AZ201061GA1041+008001081GE19MSL   +99999+99999GF104991999999999999999999MA1999990096171MD1909990+0031REMSYN004BUFR
0116832880999992013060518004-13262-043408FM-15+044399999V0202801N003619999999N009999199+03401+01601999999ADDGA1041+009141991GE19MSL   +99999+99999MA1101401999990REMMET051METAR SBLP 051800Z 28007KT 9999 SCT030 34/16 Q1014=
0116832880999992013060519004-13262-043408FM-15+044399999V0203201N002619999999N009999199+03301+01901999999ADDGA1041+009141991GE19MSL   +99999+99999MA1101401999990REMMET051METAR SBLP 051900Z 32005KT 9999 SCT030 33/19 Q1014=
0116832880999992013060520004-13262-043408FM-15+044399999V0209999C000019999999N009999199+03001+01801999999ADDGA1041+009141991GE19MSL   +99999+99999MA1101401999990REMMET051METAR SBLP 052000Z 00000KT 9999 SCT030 30/18 Q1014=
0116832880999992013060521004-13262-043408FM-15+044399999V0203201N001510091419N009999199+02801+01901999999ADDGA1071+009141991GE19MSL   +99999+99999MA1101401999990REMMET051METAR SBLP 052100Z 32003KT 9999 BKN030 28/19 Q1014=
0072832880999992013060609154-13262-043408FM-16+044399999V0209999C000019999999Y999999999+02001+01901999999ADDMA1101701999990REMMET045SPECI SBLP 060915Z 00000KT CAVOK 20/19 Q1017=
0072832880999992013060610004-13262-043408FM-15+044399999V0209999C000019999999Y999999999+02001+01901999999ADDMA1101801999990REMMET045METAR SBLP 061000Z 00000KT CAVOK 20/19 Q1018=
0116832880999992013060611004-13262-043408FM-15+044399999V0209999C000019999999N009999199+02401+02001999999ADDGA1021+009141991GE19MSL   +99999+99999MA1101901999990REMMET051METAR SBLP 061100Z 00000KT 9999 FEW030 24/20 Q1019=
0149832880999992013060612004-13260-043410FM-12+044099999V0201801N0015199999999020000199+02521+01981101611ADDAA124003031AZ101061AZ201061GA1991+025001001GE19MSL   +99999+99999GF106991999999999999999999KA1120N+02051MA1999990096701MD1909990+0041REMSYN004BUFR
0116832880999992013060612004-13262-043408FM-15+044399999V0202901N002119999999N009999199+02701+01901999999ADDGA1021+009141991GE19MSL   +99999+99999MA1101901999990REMMET051METAR SBLP 061200Z 29004KT 9999 FEW030 27/19 Q1019=
0116832880999992013060613004-13262-043408FM-15+044399999V0202601N002619999999N009999199+02901+01901999999ADDGA1021+009141991GE19MSL   +99999+99999MA1101901999990REMMET051METAR SBLP 061300Z 26005KT 9999 FEW030 29/19 Q1019=
0116832880999992013060615004-13262-043408FM-15+044399999V0202301N002619999999N009999199+03201+01701999999ADDGA1041+009141991GE19MSL   +99999+99999MA1101801999990REMMET051METAR SBLP 061500Z 23005KT 9999 SCT030 32/17 Q1018=
0116832880999992013060616004-13262-043408FM-15+044399999V0202401N003119999999N009999199+03201+01601999999ADDGA1041+009141991GE19MSL   +99999+99999MA1101701999990REMMET051METAR SBLP 061600Z 24006KT 9999 SCT030 32/16 Q1017=
0116832880999992013060617004-13262-043408FM-15+044399999V0209999C000019999999N009999199+03301+01601999999ADDGA1041+009141991GE19MSL   +99999+99999MA1101601999990REMMET051METAR SBLP 061700Z 00000KT 9999 SCT030 33/16 Q1016=
0152832880999992013060618004-13260-043410FM-12+044099999V0201401N0015199999999020000199+03141+01801101141ADDAA101999990AZ101061AZ201061GA1031+008001081GA2991+999991001GE19MSL   +99999+99999GF105991999999999999999999MA1999990096271MD1909990+0101REMSYN004BUFR
0116832880999992013060618004-13262-043408FM-15+044399999V0202401N003619999999N009999199+03201+01701999999ADDGA1041+009141991GE19MSL   +99999+99999MA1101501999990REMMET051METAR SBLP 061800Z 24007KT 9999 SCT030 32/17 Q1015=
0116832880999992013060619004-13262-043408FM-15+044399999V0202801N004119999999N009999199+03201+01601999999ADDGA1041+009141991GE19MSL   +99999+99999MA1101501999990REMMET051METAR SBLP 061900Z 28008KT 9999 SCT030 32/16 Q1015=
0116832880999992013060620004-13262-043408FM-15+044399999V0202701N003119999999N009999199+03101+01601999999ADDGA1021+009141991GE19MSL   +99999+99999MA1101501999990REMMET051METAR SBLP 062000Z 27006KT 9999 FEW030 31/16 Q1015=
0072832880999992013060621004-13262-043408FM-15+044399999V0202801N003119999999Y999999999+02901+01601999999ADDMA1101601999990REMMET045METAR SBLP 062100Z 28006KT CAVOK 29/16 Q1016=
0072832880999992013060709154-13262-043408FM-16+044399999V0209999C000019999999Y999999999+02001+01701999999ADDMA1101701999990REMMET045SPECI SBLP 070915Z 00000KT CAVOK 20/17 Q1017=
0072832880999992013060710004-13262-043408FM-15+044399999V0209999C000019999999Y999999999+02101+01701999999ADDMA1101801999990REMMET045METAR SBLP 071000Z 00000KT CAVOK 21/17 Q1018=
0072832880999992013060711004-13262-043408FM-15+044399999V0203001N002619999999Y999999999+02301+01801999999ADDMA1101901999990REMMET045METAR SBLP 071100Z 30005KT CAVOK 23/18 Q1019=
0149832880999992013060712004-13260-043410FM-12+044099999V0203601N0000199999999020000199+02491+01671101631ADDAA101999990AZ101061AZ201061GA1041+025001001GE19MSL   +99999+99999GF104991999999999999999999KA1120N+02061MA1999990096701MD1909990+0021REMSYN004BUFR
0072832880999992013060712004-13262-043408FM-15+044399999V0202501N003119999999Y999999999+02601+01701999999ADDMA1101901999990REMMET045METAR SBLP 071200Z 25006KT CAVOK 26/17 Q1019=
0072832880999992013060713004-13262-043408FM-15+044399999V0202101N003119999999Y999999999+02901+01601999999ADDMA1101901999990REMMET045METAR SBLP 071300Z 21006KT CAVOK 29/16 Q1019=
0072832880999992013060714004-13262-043408FM-15+044399999V0201801N003119999999Y999999999+03101+01601999999ADDMA1101801999990REMMET045METAR SBLP 071400Z 18006KT CAVOK 31/16 Q1018=
0116832880999992013060715004-13262-043408FM-15+044399999V0201701N002619999999N009999199+03201+01301999999ADDGA1021+009141991GE19MSL   +99999+99999MA1101801999990REMMET051METAR SBLP 071500Z 17005KT 9999 FEW030 32/13 Q1018=
0139832880999992013060716004-13262-043408FM-15+044399999V0202501N00361030481CN009999199+03201+01701999999ADDGA1041+009141991GA2041+030481991GE19MSL   +99999+99999MA1101601999990REMMET058METAR SBLP 071600Z 25007KT 9999 SCT030 SCT100 32/17 Q1016=
0139832880999992013060717004-13262-043408FM-15+044399999V0202701N002610082319N009999199+03401+01701999999ADDGA1071+008231991GA2041+030481991GE19MSL   +99999+99999MA1101501999990REMMET058METAR SBLP 071700Z 27005KT 9999 BKN027 SCT100 34/17 Q1015=
0136832880999992013060718004-13260-043410FM-12+044099999V0202301N0015100450199020000199+03191+01661101131ADDAA101999990AZ101061AZ201061GA1071+004501061GE19MSL   +99999+99999GF107991999999999999999999MA1999990096281MD1909990+0011REMSYN004BUFR
0139832880999992013060718004-13262-043408FM-15+044399999V0203101N002110082319N009999199+03301+01501999999ADDGA1071+008231991GA2041+030481991GE19MSL   +99999+99999MA1101501999990REMMET058METAR SBLP 071800Z 31004KT 9999 BKN027 SCT100 33/15 Q1015=
0139832880999992013060719004-13262-043408FM-15+044399999V0203601N002110082319N009999199+03301+01601999999ADDGA1071+008231991GA2041+030481991GE19MSL   +99999+99999MA1101501999990REMMET058METAR SBLP 071900Z 36004KT 9999 BKN027 SCT100 33/16 Q1015=
0116832880999992013060720004-13262-043408FM-15+044399999V0203101N001510082319N009999199+03201+01701999999ADDGA1071+008231991GE19MSL   +99999+99999MA1101501999990REMMET051METAR SBLP 072000Z 31003KT 9999 BKN027 32/17 Q1015=
0139832880999992013060721004-13262-043408FM-15+044399999V0202701N00211030481CN009999199+03101+01701999999ADDGA1041+009141991GA2041+030481991GE19MSL   +99999+99999MA1101501999990REMMET058METAR SBLP 072100Z 27004KT 9999 SCT030 SCT100 31/17 Q1015=
0149832880999992013060812004-13260-043410FM-12+044099999V0200901N0026199999999020000199+02591+01801101681ADDAA101999990AZ101061AZ201061GA1991+025001001GE19MSL   +99999+99999GF106991999999999999999999KA1120N+02201MA1999990096881MD1909990+0161REMSYN004BUFR
0152832880999992013060818004-13260-043410FM-12+044099999V0201401N0026199999999020000199+03041+01641101361ADDAA101999990AZ101061AZ201061GA1021+008001081GA2991+999991001GE19MSL   +99999+99999GF104991999999999999999999MA1999990096481MD1909990+0201REMSYN004BUFR
0149832880999992013060912004-13260-043410FM-12+044099999V0201401N0015100800199020000199+02521+01831101711ADDAA101999990AZ101061AZ201061GA1051+008001081GE19MSL   +99999+99999GF105991999999999999999999KA1120N+02101MA1999990096791MD1909990-0091REMSYN004BUFR
0136832880999992013060918004-13260-043410FM-12+044099999V0201401N0015100800199020000199+03041+01541101301ADDAA101999990AZ101061AZ201061GA1051+008001081GE19MSL   +99999+99999GF105991999999999999999999MA1999990096421MD1909990-0061REMSYN004BUFR
0072832880999992013061009154-13262-043408FM-16+044399999V0209999C000019999999Y999999999+02001+01601999999ADDMA1101801999990REMMET045SPECI SBLP 100915Z 00000KT CAVOK 20/16 Q1018=
0072832880999992013061010004-13262-043408FM-15+044399999V0203001N002119999999Y999999999+02201+01801999999ADDMA1101901999990REMMET045METAR SBLP 101000Z 30004KT CAVOK 22/18 Q1019=
0072832880999992013061011004-13262-043408FM-15+044399999V0202901N001519999999Y999999999+02201+01701999999ADDMA1102001999990REMMET045METAR SBLP 101100Z 29003KT CAVOK 22/17 Q1020=
0149832880999992013061012004-13260-043410FM-12+044099999V0201401N0031101750199020000199+02391+01611101721ADDAA101999990AZ101061AZ201061GA1071+017501051GE19MSL   +99999+99999GF107991999999999999999999KA1120N+02021MA1999990096801MD1909990+0011REMSYN004BUFR
0139832880999992013061012004-13262-043408FM-15+044399999V0202801N003110283519N009999199+02501+01701999999ADDGA1021+008231991GA2071+028351991GE19MSL   +99999+99999MA1102001999990REMMET058METAR SBLP 101200Z 28006KT 9999 FEW027 BKN093 25/17 Q1020=
0139832880999992013061013004-13262-043408FM-15+044399999V0202601N00311028351CN009999199+02601+01701999999ADDGA1041+008231991GA2041+028351991GE19MSL   +99999+99999MA1102001999990REMMET058METAR SBLP 101300Z 26006KT 9999 SCT027 SCT093 26/17 Q1020=
0139832880999992013061014004-13262-043408FM-15+044399999V0202701N00311030481CN009999199+02901+01601999999ADDGA1041+008231991GA2041+030481991GE19MSL   +99999+99999MA1102001999990REMMET058METAR SBLP 101400Z 27006KT 9999 SCT027 SCT100 29/16 Q1020=
0116832880999992013061015004-13262-043408FM-15+044399999V0202901N005110082319N009999199+03001+01601999999ADDGA1071+008231991GE19MSL   +99999+99999MA1101901999990REMMET051METAR SBLP 101500Z 29010KT 9999 BKN027 30/16 Q1019=
0139832880999992013061016004-13262-043408FM-15+044399999V0202401N004110082319N009999199+03001+01501999999ADDGA1071+008231991GA2041+030481991GE19MSL   +99999+99999MA1101801999990REMMET058METAR SBLP 101600Z 24008KT 9999 BKN027 SCT100 30/15 Q1018=
0139832880999992013061017004-13262-043408FM-15+044399999V0202601N003110082319N009999199+03101+01401999999ADDGA1071+008231991GA2041+030481991GE19MSL   +99999+99999MA1101701999990REMMET058METAR SBLP 101700Z 26006KT 9999 BKN027 SCT100 31/14 Q1017=
0136832880999992013061018004-13260-043410FM-12+044099999V0201401N0026100800199020000199+02971+01591101281ADDAA101999990AZ101061AZ201061GA1071+008001081GE19MSL   +99999+99999GF107991999999999999999999MA1999990096391MD1909990-0031REMSYN004BUFR
0116832880999992013061018004-13262-043408FM-15+044399999V0202801N003610061019N009999199+03101+01801999999ADDGA1071+006101991GE19MSL   +99999+99999MA1101601999990REMMET051METAR SBLP 101800Z 28007KT 9999 BKN020 31/18 Q1016=
0116832880999992013061019004-13262-043408FM-15+044399999V0202601N004110061019N009999199+02901+01401999999ADDGA1071+006101991GE19MSL   +99999+99999MA1101601999990REMMET051METAR SBLP 101900Z 26008KT 9999 BKN020 29/14 Q1016=
0116832880999992013061020004-13262-043408FM-15+044399999V0202901N003610061019N009999199+02901+01401999999ADDGA1071+006101991GE19MSL   +99999+99999MA1101601999990REMMET051METAR SBLP 102000Z 29007KT 9999 BKN020 29/14 Q1016=
0116832880999992013061021004-13262-043408FM-15+044399999V0203001N005110061019N009999199+02801+01401999999ADDGA1071+006101991GE19MSL   +99999+99999MA1101701999990REMMET051METAR SBLP 102100Z 30010KT 9999 BKN020 28/14 Q1017=
0072832880999992013061109154-13262-043408FM-16+044399999V0203301N001519999999Y999999999+01801+01601999999ADDMA1101901999990REMMET045SPECI SBLP 110915Z 33003KT CAVOK 18/16 Q1019=
0072832880999992013061110004-13262-043408FM-15+044399999V0203301N002119999999Y999999999+01901+01601999999ADDMA1102001999990REMMET045METAR SBLP 111000Z 33004KT CAVOK 19/16 Q1020=
0072832880999992013061111004-13262-043408FM-15+044399999V0203301N003119999999Y999999999+02201+01601999999ADDMA1102101999990REMMET045METAR SBLP 111100Z 33006KT CAVOK 22/16 Q1021=
0111832880999992013061112004-13260-043410FM-12+044099999V0201801N0015122000199020000199+02321+01611101871ADDAA101999990AZ101061AZ201061GF100991999999999999999999KA1120N+01881MA1999990096931MD1909990+0131REMSYN004BUFR
0072832880999992013061112004-13262-043408FM-15+044399999V0203101N002119999999Y999999999+02501+01501999999ADDMA1102101999990REMMET045METAR SBLP 111200Z 31004KT CAVOK 25/15 Q1021=
0072832880999992013061113004-13262-043408FM-15+044399999V0202701N001519999999Y999999999+02701+01501999999ADDMA1102101999990REMMET045METAR SBLP 111300Z 27003KT CAVOK 27/15 Q1021=
0072832880999992013061114004-13262-043408FM-15+044399999V0202701N003119999999Y999999999+02801+01501999999ADDMA1102001999990REMMET045METAR SBLP 111400Z 27006KT CAVOK 28/15 Q1020=
0116832880999992013061115004-13262-043408FM-15+044399999V0209999C000019999999N009999199+03001+01501999999ADDGA1021+009141991GE19MSL   +99999+99999MA1101901999990REMMET051METAR SBLP 111500Z 00000KT 9999 FEW030 30/15 Q1019=
0116832880999992013061116004-13262-043408FM-15+044399999V0200901N003119999999N009999199+03201+01401999999ADDGA1021+009141991GE19MSL   +99999+99999MA1101801999990REMMET051METAR SBLP 111600Z 09006KT 9999 FEW030 32/14 Q1018=
0116832880999992013061117004-13262-043408FM-15+044399999V0200301N001519999999N009999199+03101+01501999999ADDGA1021+009141991GE19MSL   +99999+99999MA1101701999990REMMET051METAR SBLP 111700Z 03003KT 9999 FEW030 31/15 Q1017=
0136832880999992013061118004-13260-043410FM-12+044099999V0202301N0015199999999020000199+03091+01611101321ADDAA101999990AZ101061AZ201061GA1031+008001081GE19MSL   +99999+99999GF103991999999999999999999MA1999990096421MD1909990+0031REMSYN004BUFR
0116832880999992013061118004-13262-043408FM-15+044399999V0209999C000019999999N009999199+03201+01401999999ADDGA1021+009141991GE19MSL   +99999+99999MA1101601999990REMMET051METAR SBLP 111800Z 00000KT 9999 FEW030 32/14 Q1016=
0116832880999992013061119004-13262-043408FM-15+044399999V0200201N002119999999N009999199+03201+01401999999ADDGA1021+009141991GE19MSL   +99999+99999MA1101601999990REMMET051METAR SBLP 111900Z 02004KT 9999 FEW030 32/14 Q1016=
0116832880999992013061120004-13262-043408FM-15+044399999V0203601N002119999999N009999199+03201+01401999999ADDGA1021+009141991GE19MSL   +99999+99999MA1101601999990REMMET051METAR SBLP 112000Z 36004KT 9999 FEW030 32/14 Q1016=
0116832880999992013061121004-13262-043408FM-15+044399999V0203601N001519999999N009999199+02901+01501999999ADDGA1041+009141991GE19MSL   +99999+99999MA1101601999990REMMET051METAR SBLP 112100Z 36003KT 9999 SCT030 29/15 Q1016=
0072832880999992013061209154-13262-043408FM-16+044399999V0200901N003119999999Y999999999+01801+01501999999ADDMA1101901999990REMMET045SPECI SBLP 120915Z 09006KT CAVOK 18/15 Q1019=
0072832880999992013061210004-13262-043408FM-15+044399999V0203601N002119999999Y999999999+01901+01501999999ADDMA1102001999990REMMET045METAR SBLP 121000Z 36004KT CAVOK 19/15 Q1020=
0072832880999992013061211004-13262-043408FM-15+044399999V0209999C000019999999Y999999999+02101+01601999999ADDMA1102101999990REMMET045METAR SBLP 121100Z 00000KT CAVOK 21/16 Q1021=
0111832880999992013061212004-13260-043410FM-12+044099999V0202301N0021122000199020000199+02341+01671101811ADDAA101999990AZ101061AZ201061GF100991999999999999999999KA1120N+01841MA1999990096881MD1909990-0031REMSYN004BUFR
0072832880999992013061212004-13262-043408FM-15+044399999V0203301N002119999999Y999999999+02501+01701999999ADDMA1102101999990REMMET045METAR SBLP 121200Z 33004KT CAVOK 25/17 Q1021=
0072832880999992013061213004-13262-043408FM-15+044399999V0209999C000019999999Y999999999+02801+01701999999ADDMA1102101999990REMMET045METAR SBLP 121300Z 00000KT CAVOK 28/17 Q1021=
0116832880999992013061214004-13262-043408FM-15+044399999V0203201N003119999999N009999199+03001+01601999999ADDGA1021+009141991GE19MSL   +99999+99999MA1102001999990REMMET051METAR SBLP 121400Z 32006KT 9999 FEW030 30/16 Q1020=
0116832880999992013061215004-13262-043408FM-15+044399999V0203401N002119999999N009999199+03101+01501999999ADDGA1021+009141991GE19MSL   +99999+99999MA1101901999990REMMET051METAR SBLP 121500Z 34004KT 9999 FEW030 31/15 Q1019=
0116832880999992013061216004-13262-043408FM-15+044399999V0200601N002119999999N009999199+03201+01501999999ADDGA1021+009141991GE19MSL   +99999+99999MA1101801999990REMMET051METAR SBLP 121600Z 06004KT 9999 FEW030 32/15 Q1018=
0116832880999992013061217004-13262-043408FM-15+044399999V0200701N001019999999N009999199+03201+01501999999ADDGA1021+009141991GE19MSL   +99999+99999MA1101601999990REMMET051METAR SBLP 121700Z 07002KT 9999 FEW030 32/15 Q1016=
0136832880999992013061218004-13260-043410FM-12+044099999V0202701N0021199999999020000199+03251+01721101241ADDAA101999990AZ101061AZ201061GA1011+008001081GE19MSL   +99999+99999GF101991999999999999999999MA1999990096371MD1909990-0051REMSYN004BUFR
0116832880999992013061218004-13262-043408FM-15+044399999V0200701N004119999999N009999199+03301+01501999999ADDGA1021+009141991GE19MSL   +99999+99999MA1101601999990REMMET051METAR SBLP 121800Z 07008KT 9999 FEW030 33/15 Q1016=
0116832880999992013061219004-13262-043408FM-15+044399999V0203601N002119999999N009999199+03301+01401999999ADDGA1021+009141991GE19MSL   +99999+99999MA1101501999990REMMET051METAR SBLP 121900Z 36004KT 9999 FEW030 33/14 Q1015=
0116832880999992013061220004-13262-043408FM-15+044399999V0203301N003119999999N009999199+03301+01401999999ADDGA1041+009141991GE19MSL   +99999+99999MA1101501999990REMMET051METAR SBLP 122000Z 33006KT 9999 SCT030 33/14 Q1015=
0116832880999992013061221004-13262-043408FM-15+044399999V0203001N004119999999N009999199+03101+01401999999ADDGA1021+006101991GE19MSL   +99999+99999MA1101601999990REMMET051METAR SBLP 122100Z 30008KT 9999 FEW020 31/14 Q1016=
0116832880999992013061309154-13262-043408FM-16+044399999V0209999C000019999999N009999199+02001+01801999999ADDGA1021+006101991GE19MSL   +99999+99999MA1101801999990REMMET051SPECI SBLP 130915Z 00000KT 9999 FEW020 20/18 Q1018=
0072832880999992013061310004-13262-043408FM-15+044399999V0209999C000019999999Y999999999+02001+01801999999ADDMA1101801999990REMMET045METAR SBLP 131000Z 00000KT CAVOK 20/18 Q1018=
0072832880999992013061311004-13262-043408FM-15+044399999V0203001N001019999999Y999999999+02301+01901999999ADDMA1101901999990REMMET045METAR SBLP 131100Z 30002KT CAVOK 23/19 Q1019=
0149832880999992013061312004-13260-043410FM-12+044099999V0203601N0000199999999020000199+02421+01851101731ADDAA101999990AZ101061AZ201061GA1021+012501031GE19MSL   +99999+99999GF102991999999999999999999KA1120N+02011MA1999990096811MD1909990-0071REMSYN004BUFR
0116832880999992013061312004-13262-043408FM-15+044399999V0202401N001019999999N009999199+02501+01801999999ADDGA1021+009141991GE19MSL   +99999+99999MA1102001999990REMMET051METAR SBLP 131200Z 24002KT 9999 FEW030 25/18 Q1020=
0116832880999992013061313004-13262-043408FM-15+044399999V0202401N001519999999N009999199+02801+01701999999ADDGA1021+009141991GE19MSL   +99999+99999MA1102001999990REMMET051METAR SBLP 131300Z 24003KT 9999 FEW030 28/17 Q1020=
0116832880999992013061314004-13262-043408FM-15+044399999V0209999C000019999999N009999199+02901+01701999999ADDGA1021+009141991GE19MSL   +99999+99999MA1101901999990REMMET051METAR SBLP 131400Z 00000KT 9999 FEW030 29/17 Q1019=
0116832880999992013061315004-13262-043408FM-15+044399999V0209999C000019999999N009999199+03101+01701999999ADDGA1021+009141991GE19MSL   +99999+99999MA1101801999990REMMET051METAR SBLP 131500Z 00000KT 9999 FEW030 31/17 Q1018=
0116832880999992013061316004-13262-043408FM-15+044399999V0202801N002119999999N009999199+03301+01701999999ADDGA1041+009141991GE19MSL   +99999+99999MA1101601999990REMMET051METAR SBLP 131600Z 28004KT 9999 SCT030 33/17 Q1016=
0116832880999992013061317004-13262-043408FM-15+044399999V0209999C000019999999N009999199+03401+01601999999ADDGA1041+009141991GE19MSL   +99999+99999MA1101501999990REMMET051METAR SBLP 131700Z 00000KT 9999 SCT030 34/16 Q1015=
0136832880999992013061318004-13260-043410FM-12+044099999V0202301N0015199999999020000199+03271+01731101031ADDAA101999990AZ101061AZ201061GA1031+008001081GE19MSL   +99999+99999GF103991999999999999999999MA1999990096191MD1909990+0181REMSYN004BUFR
0116832880999992013061318004-13262-043408FM-15+044399999V0203301N001519999999N009999199+03401+01701999999ADDGA1041+009141991GE19MSL   +99999+99999MA1101401999990REMMET051METAR SBLP 131800Z 33003KT 9999 SCT030 34/17 Q1014=
0116832880999992013061319004-13262-043408FM-15+044399999V0202701N002119999999N009999199+03401+01601999999ADDGA1041+009141991GE19MSL   +99999+99999MA1101401999990REMMET051METAR SBLP 131900Z 27004KT 9999 SCT030 34/16 Q1014=
0116832880999992013061320004-13262-043408FM-15+044399999V0203301N001519999999N009999199+03301+01501999999ADDGA1021+009141991GE19MSL   +99999+99999MA1101401999990REMMET051METAR SBLP 132000Z 33003KT 9999 FEW030 33/15 Q1014=
0116832880999992013061321004-13262-043408FM-15+044399999V0209999C000019999999N009999199+03101+01601999999ADDGA1021+009141991GE19MSL   +99999+99999MA1101401999990REMMET051METAR SBLP 132100Z 00000KT 9999 FEW030 31/16 Q1014=
0072832880999992013061409154-13262-043408FM-16+044399999V0209999C000019999999Y999999999+01901+01601999999ADDMA1101601999990REMMET045SPECI SBLP 140915Z 00000KT CAVOK 19/16 Q1016=
0072832880999992013061410004-13262-043408FM-15+044399999V0209999C000019999999Y999999999+02001+01601999999ADDMA1101601999990REMMET045METAR SBLP 141000Z 00000KT CAVOK 20/16 Q1016=
0072832880999992013061411004-13262-043408FM-15+044399999V0202701N002119999999Y999999999+02201+01601999999ADDMA1101701999990REMMET045METAR SBLP 141100Z 27004KT CAVOK 22/16 Q1017=
0111832880999992013061412004-13260-043410FM-12+044099999V0201401N0015122000199020000199+02491+01721101391ADDAA101999990AZ101061AZ201061GF100991999999999999999999KA1120N+01981MA1999990096521MD1909990-0291REMSYN004BUFR
0072832880999992013061412004-13262-043408FM-15+044399999V0202501N002619999999Y999999999+02701+01601999999ADDMA1101801999990REMMET045METAR SBLP 141200Z 25005KT CAVOK 27/16 Q1018=
0072832880999992013061413004-13262-043408FM-15+044399999V0201801N002119999999Y999999999+02901+01801999999ADDMA1101801999990REMMET045METAR SBLP 141300Z 18004KT CAVOK 29/18 Q1018=
0116832880999992013061414004-13262-043408FM-15+044399999V0202701N002619999999N009999199+03101+01601999999ADDGA1021+009141991GE19MSL   +99999+99999MA1101701999990REMMET051METAR SBLP 141400Z 27005KT 9999 FEW030 31/16 Q1017=
0116832880999992013061415004-13262-043408FM-15+044399999V0209999C000019999999N009999199+03201+01601999999ADDGA1021+009141991GE19MSL   +99999+99999MA1101601999990REMMET051METAR SBLP 141500Z 00000KT 9999 FEW030 32/16 Q1016=
0116832880999992013061416004-13262-043408FM-15+044399999V0209999C000019999999N009999199+03201+01401999999ADDGA1041+009141991GE19MSL   +99999+99999MA1101501999990REMMET051METAR SBLP 141600Z 00000KT 9999 SCT030 32/14 Q1015=
0116832880999992013061417004-13262-043408FM-15+044399999V0200101N001519999999N009999199+03301+01401999999ADDGA1041+009141991GE19MSL   +99999+99999MA1101401999990REMMET051METAR SBLP 141700Z 01003KT 9999 SCT030 33/14 Q1014=
0136832880999992013061418004-13260-043410FM-12+044099999V0202301N0021199999999020000199+03221+01651100991ADDAA101999990AZ101061AZ201061GA1031+008001081GE19MSL   +99999+99999GF103991999999999999999999MA1999990096141MD1909990-0051REMSYN004BUFR
0116832880999992013061418004-13262-043408FM-15+044399999V0203201N002619999999N009999199+03401+01201999999ADDGA1041+009141991GE19MSL   +99999+99999MA1101301999990REMMET051METAR SBLP 141800Z 32005KT 9999 SCT030 34/12 Q1013=
0116832880999992013061419004-13262-043408FM-15+044399999V0209999C000019999999N009999199+03401+01201999999ADDGA1041+009141991GE19MSL   +99999+99999MA1101301999990REMMET051METAR SBLP 141900Z 00000KT 9999 SCT030 34/12 Q1013=
0116832880999992013061420004-13262-043408FM-15+044399999V0203101N003119999999N009999199+03301+01201999999ADDGA1041+009141991GE19MSL   +99999+99999MA1101301999990REMMET051METAR SBLP 142000Z 31006KT 9999 SCT030 33/12 Q1013=
0116832880999992013061421004-13262-043408FM-15+044399999V0203001N003119999999N009999199+03001+01301999999ADDGA1021+009141991GE19MSL   +99999+99999MA1101401999990REMMET051METAR SBLP 142100Z 30006KT 9999 FEW030 30/13 Q1014=
0149832880999992013061512004-13260-043410FM-12+044099999V0201801N0005199999999020000199+02401+01661101461ADDAA101999990AZ101061AZ201061GA1031+025001001GE19MSL   +99999+99999GF103991999999999999999999KA1120N+02021MA1999990096551MD1909990+0031REMSYN004BUFR
0136832880999992013061518004-13260-043410FM-12+044099999V0202301N0010199999999020000199+03221+01521101021ADDAA101999990AZ101061AZ201061GA1031+008001081GE19MSL   +99999+99999GF103991999999999999999999MA1999990096151MD1909990+0011REMSYN004BUFR
0111832880999992013061612004-13260-043410FM-12+044099999V0203601N0000122000199020000199+02421+01841101501ADDAA101999990AZ101061AZ201061GF100991999999999999999999KA1120N+01921MA1999990096601MD1909990+0051REMSYN004BUFR
0136832880999992013061618004-13260-043410FM-12+044099999V0202301N0021199999999020000199+03271+01721100981ADDAA101999990AZ101061AZ201061GA1011+008001081GE19MSL   +99999+99999GF101991999999999999999999MA1999990096141MD1909990-0011REMSYN004BUFR
0072832880999992013061709154-13262-043408FM-16+044399999V0209999C000019999999Y999999999+01901+01401999999ADDMA1101801999990REMMET045SPECI SBLP 170915Z 00000KT CAVOK 19/14 Q1018=
0072832880999992013061710004-13262-043408FM-15+044399999V0209999C000019999999Y999999999+01901+01601999999ADDMA1101801999990REMMET045METAR SBLP 171000Z 00000KT CAVOK 19/16 Q1018=
0072832880999992013061711004-13262-043408FM-15+044399999V0202901N001519999999Y999999999+02001+01701999999ADDMA1101901999990REMMET045METAR SBLP 171100Z 29003KT CAVOK 20/17 Q1019=
0149832880999992013061712004-13260-043410FM-12+044099999V0200901N0015199999999020000199+02541+01641101621ADDAA101999990AZ101061AZ201061GA1041+025001001GE19MSL   +99999+99999GF104991999999999999999999KA1120N+01921MA1999990096731MD1909990+0131REMSYN004BUFR
0072832880999992013061712004-13262-043408FM-15+044399999V0202001N003119999999Y999999999+02501+01601999999ADDMA1101901999990REMMET045METAR SBLP 171200Z 20006KT CAVOK 25/16 Q1019=
0072832880999992013061713004-13262-043408FM-15+044399999V0202401N001519999999Y999999999+02801+01501999999ADDMA1101901999990REMMET045METAR SBLP 171300Z 24003KT CAVOK 28/15 Q1019=
0072832880999992013061714004-13262-043408FM-15+044399999V0209999C000019999999Y999999999+03101+01401999999ADDMA1101801999990REMMET045METAR SBLP 171400Z 00000KT CAVOK 31/14 Q1018=
0072832880999992013061715004-13262-043408FM-15+044399999V0202501N002619999999Y999999999+03201+01301999999ADDMA1101701999990REMMET045METAR SBLP 171500Z 25005KT CAVOK 32/13 Q1017=
0116832880999992013061716004-13262-043408FM-15+044399999V0203401N003119999999N009999199+03301+01401999999ADDGA1021+009141991GE19MSL   +99999+99999MA1101601999990REMMET051METAR SBLP 171600Z 34006KT 9999 FEW030 33/14 Q1016=
0116832880999992013061717004-13262-043408FM-15+044399999V0203501N002619999999N009999199+03301+01301999999ADDGA1021+009141991GE19MSL   +99999+99999MA1101501999990REMMET051METAR SBLP 171700Z 35005KT 9999 FEW030 33/13 Q1015=
0152832880999992013061718004-13260-043410FM-12+044099999V0202301N0015199999999020000199+03291+01591101121ADDAA101999990AZ101061AZ201061GA1031+008001081GA2991+999991031GE19MSL   +99999+99999GF105991999999999999999999MA1999990096271MD1909990+0131REMSYN004BUFR
0116832880999992013061718004-13262-043408FM-15+044399999V0203601N003119999999N009999199+03401+01301999999ADDGA1041+009141991GE19MSL   +99999+99999MA1101401999990REMMET051METAR SBLP 171800Z 36006KT 9999 SCT030 34/13 Q1014=
0116832880999992013061719004-13262-043408FM-15+044399999V0203601N003119999999N009999199+03401+01401999999ADDGA1021+009141991GE19MSL   +99999+99999MA1101401999990REMMET051METAR SBLP 171900Z 36006KT 9999 FEW030 34/14 Q1014=
0116832880999992013061720004-13262-043408FM-15+044399999V0203401N002119999999N009999199+03201+01401999999ADDGA1021+009141991GE19MSL   +99999+99999MA1101401999990REMMET051METAR SBLP 172000Z 34004KT 9999 FEW030 32/14 Q1014=
0072832880999992013061721004-13262-043408FM-15+044399999V0203301N002119999999Y999999999+02901+01501999999ADDMA1101501999990REMMET045METAR SBLP 172100Z 33004KT CAVOK 29/15 Q1015=
0072832880999992013061809154-13262-043408FM-16+044399999V0203401N002119999999Y999999999+01901+01601999999ADDMA1101601999990REMMET045SPECI SBLP 180915Z 34004KT CAVOK 19/16 Q1016=
0072832880999992013061810004-13262-043408FM-15+044399999V0203301N001519999999Y999999999+01901+01601999999ADDMA1101601999990REMMET045METAR SBLP 181000Z 33003KT CAVOK 19/16 Q1016=
0072832880999992013061811004-13262-043408FM-15+044399999V0209999C000019999999Y999999999+02101+01701999999ADDMA1101701999990REMMET045METAR SBLP 181100Z 00000KT CAVOK 21/17 Q1017=
0149832880999992013061812004-13260-043410FM-12+044099999V0203601N0000199999999020000199+02441+01881101451ADDAA101999990AZ101061AZ201061GA1991+025001001GE19MSL   +99999+99999GF106991999999999999999999KA1120N+01921MA1999990096551MD1909990-0181REMSYN004BUFR
0072832880999992013061812004-13262-043408FM-15+044399999V0209999C000019999999Y999999999+02601+01701999999ADDMA1101801999990REMMET045METAR SBLP 181200Z 00000KT CAVOK 26/17 Q1018=
0072832880999992013061813004-13262-043408FM-15+044399999V0209999C000019999999Y999999999+02901+01601999999ADDMA1101801999990REMMET045METAR SBLP 181300Z 00000KT CAVOK 29/16 Q1018=
0072832880999992013061815004-13262-043408FM-15+044399999V0200301N003119999999Y999999999+03101+01501999999ADDMA1101601999990REMMET045METAR SBLP 181500Z 03006KT CAVOK 31/15 Q1016=
0072832880999992013061816004-13262-043408FM-15+044399999V0200301N002119999999Y999999999+03001+01401999999ADDMA1101501999990REMMET045METAR SBLP 181600Z 03004KT CAVOK 30/14 Q1015=
0072832880999992013061817004-13262-043408FM-15+044399999V0203601N001019999999Y999999999+03101+01401999999ADDMA1101401999990REMMET045METAR SBLP 181700Z 36002KT CAVOK 31/14 Q1014=
0136832880999992013061818004-13260-043410FM-12+044099999V0202301N0015199999999020000199+03201+01701101021ADDAA101999990AZ101061AZ201061GA1991+025001001GE19MSL   +99999+99999GF103991999999999999999999MA1999990096151MD1909990-0121REMSYN004BUFR
0072832880999992013061818004-13262-043408FM-15+044399999V0201101N001519999999Y999999999+03201+01201999999ADDMA1101301999990REMMET045METAR SBLP 181800Z 11003KT CAVOK 32/12 Q1013=
0072832880999992013061819004-13262-043408FM-15+044399999V0200801N002119999999Y999999999+03201+01201999999ADDMA1101301999990REMMET045METAR SBLP 181900Z 08004KT CAVOK 32/12 Q1013=
0072832880999992013061820004-13262-043408FM-15+044399999V0201001N001519999999Y999999999+03301+01101999999ADDMA1101401999990REMMET045METAR SBLP 182000Z 10003KT CAVOK 33/11 Q1014=
0072832880999992013061821004-13262-043408FM-15+044399999V0209999C000019999999Y999999999+02901+01201999999ADDMA1101401999990REMMET045METAR SBLP 182100Z 00000KT CAVOK 29/12 Q1014=
0072832880999992013061909154-13262-043408FM-16+044399999V0202701N001519999999Y999999999+01901+01601999999ADDMA1101601999990REMMET045SPECI SBLP 190915Z 27003KT CAVOK 19/16 Q1016=
0072832880999992013061910004-13262-043408FM-15+044399999V0209999C000019999999Y999999999+01901+01501999999ADDMA1101701999990REMMET045METAR SBLP 191000Z 00000KT CAVOK 19/15 Q1017=
0072832880999992013061911004-13262-043408FM-15+044399999V0209999C000019999999Y999999999+02201+01701999999ADDMA1101701999990REMMET045METAR SBLP 191100Z 00000KT CAVOK 22/17 Q1017=
0111832880999992013061912004-13260-043410FM-12+044099999V0203601N0000122000199020000199+02471+01841101581ADDAA101999990AZ101061AZ201061GF100991999999999999999999KA1120N+01901MA1999990096671MD1909990+0121REMSYN004BUFR
0072832880999992013061912004-13262-043408FM-15+044399999V0203101N001519999999Y999999999+02601+01801999999ADDMA1101801999990REMMET045METAR SBLP 191200Z 31003KT CAVOK 26/18 Q1018=
0072832880999992013061913004-13262-043408FM-15+044399999V0209999C000019999999Y999999999+02901+01701999999ADDMA1101801999990REMMET045METAR SBLP 191300Z 00000KT CAVOK 29/17 Q1018=
0116832880999992013061914004-13262-043408FM-15+044399999V0202901N002119999999N009999199+03201+01701999999ADDGA1021+009141991GE19MSL   +99999+99999MA1101701999990REMMET051METAR SBLP 191400Z 29004KT 9999 FEW030 32/17 Q1017=
0116832880999992013061915004-13262-043408FM-15+044399999V0201101N002119999999N009999199+03201+01701999999ADDGA1041+009141991GE19MSL   +99999+99999MA1101601999990REMMET051METAR SBLP 191500Z 11004KT 9999 SCT030 32/17 Q1016=
0116832880999992013061916004-13262-043408FM-15+044399999V0203601N002610091419N009999199+03301+01801999999ADDGA1071+009141991GE19MSL   +99999+99999MA1101501999990REMMET051METAR SBLP 191600Z 36005KT 9999 BKN030 33/18 Q1015=
0116832880999992013061917004-13262-043408FM-15+044399999V0200601N004110091419N009999199+03401+01901999999ADDGA1071+009141991GE19MSL   +99999+99999MA1101301999990REMMET051METAR SBLP 191700Z 06008KT 9999 BKN030 34/19 Q1013=
0136832880999992013061918004-13260-043410FM-12+044099999V0202301N0010100800199020000199+03341+01671100911ADDAA101999990AZ101061AZ201061GA1051+008001081GE19MSL   +99999+99999GF105991999999999999999999MA1999990096071MD1909990-0081REMSYN004BUFR
0116832880999992013061918004-13262-043408FM-15+044399999V0203101N002110091419N009999199+03401+01601999999ADDGA1071+009141991GE19MSL   +99999+99999MA1101301999990REMMET051METAR SBLP 191800Z 31004KT 9999 BKN030 34/16 Q1013=
0116832880999992013061919004-13262-043408FM-15+044399999V0202601N006219999999N009999199+03401+01801999999ADDGA1041+009141991GE19MSL   +99999+99999MA1101201999990REMMET051METAR SBLP 191900Z 26012KT 9999 SCT030 34/18 Q1012=
0116832880999992013061920004-13262-043408FM-15+044399999V0202701N002619999999N009999199+03301+01701999999ADDGA1041+009141991GE19MSL   +99999+99999MA1101301999990REMMET051METAR SBLP 192000Z 27005KT 9999 SCT030 33/17 Q1013=
0139832880999992013061921004-13262-043408FM-15+044399999V0203001N00311030481CN009999199+03101+01701999999ADDGA1021+009141991GA2041+030481991GE19MSL   +99999+99999MA1101301999990REMMET058METAR SBLP 192100Z 30006KT 9999 FEW030 SCT100 31/17 Q1013=
0072832880999992013062009154-13262-043408FM-16+044399999V0203301N001519999999Y999999999+02001+01901999999ADDMA1101601999990REMMET045SPECI SBLP 200915Z 33003KT CAVOK 20/19 Q1016=
0072832880999992013062010004-13262-043408FM-15+044399999V0209999C000019999999Y999999999+02101+01801999999ADDMA1101701999990REMMET045METAR SBLP 201000Z 00000KT CAVOK 21/18 Q1017=
0072832880999992013062011004-13262-043408FM-15+044399999V0203301N001519999999Y999999999+02401+01901999999ADDMA1101801999990REMMET045METAR SBLP 201100Z 33003KT CAVOK 24/19 Q1018=
0111832880999992013062012004-13260-043410FM-12+044099999V0200901N0015122000199020000199+02541+01911101471ADDAA101999990AZ101061AZ201061GF100991999999999999999999KA1120N+02031MA1999990096581MD1909990-0091REMSYN004BUFR
0116832880999992013062012004-13262-043408FM-15+044399999V0203101N001519999999N009999199+02701+01901999999ADDGA1021+009141991GE19MSL   +99999+99999MA1101801999990REMMET051METAR SBLP 201200Z 31003KT 9999 FEW030 27/19 Q1018=
0116832880999992013062013004-13262-043408FM-15+044399999V0202501N002619999999N009999199+03001+01901999999ADDGA1021+009141991GE19MSL   +99999+99999MA1101801999990REMMET051METAR SBLP 201300Z 25005KT 9999 FEW030 30/19 Q1018=
0116832880999992013062014004-13262-043408FM-15+044399999V0201901N001519999999N009999199+03001+01901999999ADDGA1041+009141991GE19MSL   +99999+99999MA1101701999990REMMET051METAR SBLP 201400Z 19003KT 9999 SCT030 30/19 Q1017=
0116832880999992013062015004-13262-043408FM-15+044399999V0209999C000010091419N009999199+03301+01801999999ADDGA1071+009141991GE19MSL   +99999+99999MA1101601999990REMMET051METAR SBLP 201500Z 00000KT 9999 BKN030 33/18 Q1016=
0116832880999992013062016004-13262-043408FM-15+044399999V0203401N002110091419N009999199+03301+01701999999ADDGA1071+009141991GE19MSL   +99999+99999MA1101501999990REMMET051METAR SBLP 201600Z 34004KT 9999 BKN030 33/17 Q1015=
0116832880999992013062017004-13262-043408FM-15+044399999V0203001N001510091419N009999199+03301+01801999999ADDGA1071+009141991GE19MSL   +99999+99999MA1101401999990REMMET051METAR SBLP 201700Z 30003KT 9999 BKN030 33/18 Q1014=
0136832880999992013062018004-13260-043410FM-12+044099999V0200901N0021100800199020000199+03201+01751101011ADDAA101999990AZ101061AZ201061GA1051+008001081GE19MSL   +99999+99999GF105991999999999999999999MA1999990096171MD1909990+0101REMSYN004BUFR
0116832880999992013062018004-13262-043408FM-15+044399999V0202901N004110091419N009999199+03301+01601999999ADDGA1071+009141991GE19MSL   +99999+99999MA1101401999990REMMET051METAR SBLP 201800Z 29008KT 9999 BKN030 33/16 Q1014=
0116832880999992013062019004-13262-043408FM-15+044399999V0203001N003119999999N009999199+03001+02001999999ADDGA1041+009141991GE19MSL   +99999+99999MA1101301999990REMMET051METAR SBLP 201900Z 30006KT 9999 SCT030 30/20 Q1013=
0116832880999992013062020004-13262-043408FM-15+044399999V0202901N002119999999N009999199+03101+01701999999ADDGA1021+009141991GE19MSL   +99999+99999MA1101301999990REMMET051METAR SBLP 202000Z 29004KT 9999 FEW030 31/17 Q1013=
0116832880999992013062021004-13262-043408FM-15+044399999V0202101N006219999999N009999199+02901+01801999999ADDGA1021+009141991GE19MSL   +99999+99999MA1101401999990REMMET051METAR SBLP 202100Z 21012KT 9999 FEW030 29/18 Q1014=
0072832880999992013062109154-13262-043408FM-16+044399999V0209999C000019999999Y999999999+02001+01801999999ADDMA1101601999990REMMET045SPECI SBLP 210915Z 00000KT CAVOK 20/18 Q1016=
0072832880999992013062110004-13262-043408FM-15+044399999V0202601N001519999999Y999999999+02101+01801999999ADDMA1101601999990REMMET045METAR SBLP 211000Z 26003KT CAVOK 21/18 Q1016=
0072832880999992013062111004-13262-043408FM-15+044399999V0202401N002119999999Y999999999+02401+01801999999ADDMA1101701999990REMMET045METAR SBLP 211100Z 24004KT CAVOK 24/18 Q1017=
0111832880999992013062112004-13260-043410FM-12+044099999V0201401N0010122000199020000199+02591+01621101451ADDAA101999990AZ101061AZ201061GF100991999999999999999999KA1120N+02101MA1999990096561MD1909990-0021REMSYN004BUFR
0072832880999992013062112004-13262-043408FM-15+044399999V0202201N004119999999Y999999999+02701+01601999999ADDMA1101801999990REMMET045METAR SBLP 211200Z 22008KT CAVOK 27/16 Q1018=
0072832880999992013062113004-13262-043408FM-15+044399999V0202401N003119999999Y999999999+02801+01601999999ADDMA1101801999990REMMET045METAR SBLP 211300Z 24006KT CAVOK 28/16 Q1018=
0072832880999992013062114004-13262-043408FM-15+044399999V0202401N002619999999Y999999999+03001+01401999999ADDMA1101701999990REMMET045METAR SBLP 211400Z 24005KT CAVOK 30/14 Q1017=
0072832880999992013062115004-13262-043408FM-15+044399999V0202501N001519999999Y999999999+03201+01401999999ADDMA1101601999990REMMET045METAR SBLP 211500Z 25003KT CAVOK 32/14 Q1016=
0116832880999992013062116004-13262-043408FM-15+044399999V0209999C000019999999N009999199+03301+01401999999ADDGA1021+009141991GE19MSL   +99999+99999MA1101501999990REMMET051METAR SBLP 211600Z 00000KT 9999 FEW030 33/14 Q1015=
0116832880999992013062117004-13262-043408FM-15+044399999V0209999C000019999999N009999199+03401+01401999999ADDGA1021+009141991GE19MSL   +99999+99999MA1101301999990REMMET051METAR SBLP 211700Z 00000KT 9999 FEW030 34/14 Q1013=
0136832880999992013062118004-13260-043410FM-12+044099999V0203601N0000199999999020000199+03341+01671100891ADDAA101999990AZ101061AZ201061GA1011+025001081GE19MSL   +99999+99999GF101991999999999999999999MA1999990096071MD1909990-0101REMSYN004BUFR
0116832880999992013062118004-13262-043408FM-15+044399999V0200701N002119999999N009999199+03401+01401999999ADDGA1021+009141991GE19MSL   +99999+99999MA1101301999990REMMET051METAR SBLP 211800Z 07004KT 9999 FEW030 34/14 Q1013=
0136832880999992013062200004-13260-043410FM-12+044099999V0200501N0010199999999002000199+02671+01571101201ADDAA101999990AZ101061AZ201061GA1021+008001081GE19MSL   +99999+99999GF102991999999999999999999MA1999990096331MD1909990-0031REMSYN004BUFR
0111832880999992013062212004-13260-043410FM-12+044099999V0203601N0000122000199020000199+02501+01961101471ADDAA101999990AZ101061AZ201061GF100991999999999999999999KA1120N+01991MA1999990096591MD1909990+0031REMSYN004BUFR
0136832880999992013062218004-13260-043410FM-12+044099999V0201801N0021199999999020000199+03351+01561100941ADDAA101999990AZ101061AZ201061GA1011+008001081GE19MSL   +99999+99999GF101991999999999999999999MA1999990096121MD1909990+0051REMSYN004BUFR
0149832880999992013062312004-13260-043410FM-12+044099999V0202301N0005199999999020000199+02541+01831101491ADDAA101999990AZ101061AZ201061GA1031+012501031GE19MSL   +99999+99999GF103991999999999999999999KA1120N+02201MA1999990096631MD1909990+0041REMSYN004BUFR
0136832880999992013062318004-13260-043410FM-12+044099999V0201401N0015100800199020000199+03251+01681101011ADDAA101999990AZ101061AZ201061GA1071+008001061GE19MSL   +99999+99999GF107991999999999999999999MA1999990096211MD1909990+0091REMSYN004BUFR
0098832880999992013062400004-13260-043410FM-12+044099999V0200501N0031122000199002000199+02801+01641101271ADDAA101999990AZ101061AZ201061GF100991999999999999999999MA1999990096421MD1909990+0081REMSYN004BUFR
0072832880999992013062409154-13262-043408FM-16+044399999V0209999C000019999999Y999999999+02001+01601999999ADDMA1101801999990REMMET045SPECI SBLP 240915Z 00000KT CAVOK 20/16 Q1018=
0116832880999992013062410004-13262-043408FM-15+044399999V0209999C000019999999N009999199+02101+01701999999ADDGA1021+007011991GE19MSL   +99999+99999MA1101801999990REMMET051METAR SBLP 241000Z 00000KT 9999 FEW023 21/17 Q1018=
0116832880999992013062411004-13262-043408FM-15+044399999V0209999C000019999999N009999199+02401+01701999999ADDGA1021+007011991GE19MSL   +99999+99999MA1101901999990REMMET051METAR SBLP 241100Z 00000KT 9999 FEW023 24/17 Q1019=
0116832880999992013062412004-13262-043408FM-15+044399999V0202001N003619999999N009999199+02701+01701999999ADDGA1021+009141991GE19MSL   +99999+99999MA1102001999990REMMET051METAR SBLP 241200Z 20007KT 9999 FEW030 27/17 Q1020=
0116832880999992013062413004-13262-043408FM-15+044399999V0202701N004119999999N009999199+02801+01801999999ADDGA1041+009141991GE19MSL   +99999+99999MA1101901999990REMMET051METAR SBLP 241300Z 27008KT 9999 SCT030 28/18 Q1019=
0116832880999992013062414004-13262-043408FM-15+044399999V0202101N005110091419N009999199+02901+01701999999ADDGA1071+009141991GE19MSL   +99999+99999MA1101901999990REMMET051METAR SBLP 241400Z 21010KT 9999 BKN030 29/17 Q1019=
0116832880999992013062415004-13262-043408FM-15+044399999V0202301N006210091419N009999199+03001+01901999999ADDGA1071+009141991GE19MSL   +99999+99999MA1101801999990REMMET051METAR SBLP 241500Z 23012KT 9999 BKN030 30/19 Q1018=
0116832880999992013062416004-13262-043408FM-15+044399999V0202101N005110091419N009999199+02901+01701999999ADDGA1071+009141991GE19MSL   +99999+99999MA1101701999990REMMET051METAR SBLP 241600Z 21010KT 9999 BKN030 29/17 Q1017=
0116832880999992013062417004-13262-043408FM-15+044399999V0202201N005119999999N009999199+03001+01601999999ADDGA1041+009141991GE19MSL   +99999+99999MA1101601999990REMMET051METAR SBLP 241700Z 22010KT 9999 SCT030 30/16 Q1016=
0152832880999992013062418004-13260-043410FM-12+044099999V0201401N0015199999999020000199+02991+01751101201ADDAA101999990AZ101061AZ201061GA1041+025001081GA2991+999991031GE19MSL   +99999+99999GF105991999999999999999999MA1999990096361MD1909990+0151REMSYN004BUFR
0116832880999992013062418004-13262-043408FM-15+044399999V0202101N005119999999N009999199+03101+01601999999ADDGA1021+009141991GE19MSL   +99999+99999MA1101501999990REMMET051METAR SBLP 241800Z 21010KT 9999 FEW030 31/16 Q1015=
0116832880999992013062419004-13262-043408FM-15+044399999V0202401N004119999999N009999199+03001+01601999999ADDGA1021+009141991GE19MSL   +99999+99999MA1101501999990REMMET051METAR SBLP 241900Z 24008KT 9999 FEW030 30/16 Q1015=
0116832880999992013062420004-13262-043408FM-15+044399999V0202101N002119999999N009999199+02901+01601999999ADDGA1021+009141991GE19MSL   +99999+99999MA1101501999990REMMET051METAR SBLP 242000Z 21004KT 9999 FEW030 29/16 Q1015=
0078832880999992013062421004-13262-043408FM-15+044399999V0202501N003119999999N009999199+02801+01601999999ADDMA1101601999990REMMET051METAR SBLP 242100Z 25006KT 9999 FEX020 28/16 Q1016=
0136832880999992013062500004-13260-043410FM-12+044099999V0200501N0015199999999002000199+02501+01811101501ADDAA101999990AZ101061AZ201061GA1041+008001081GE19MSL   +99999+99999GF104991999999999999999999MA1999990096611MD1909990+1091REMSYN004BUFR
0072832880999992013062509154-13262-043408FM-16+044399999V0203001N001019999999Y999999999+02001+01701999999ADDMA1101901999990REMMET045SPECI SBLP 250915Z 30002KT CAVOK 20/17 Q1019=
0072832880999992013062510004-13262-043408FM-15+044399999V0203001N001019999999Y999999999+02001+01701999999ADDMA1101901999990REMMET045METAR SBLP 251000Z 30002KT CAVOK 20/17 Q1019=
0072832880999992013062511004-13262-043408FM-15+044399999V0202801N004119999999Y999999999+02301+01701999999ADDMA1102001999990REMMET045METAR SBLP 251100Z 28008KT CAVOK 23/17 Q1020=
0149832880999992013062512004-13260-043410FM-12+044099999V0201401N0026199999999020000199+02401+01701101741ADDAA101999990AZ101061AZ201061GA1011+025001081GE19MSL   +99999+99999GF101991999999999999999999KA1120N+02031MA1999990096811MD1909990+0071REMSYN004BUFR
0116832880999992013062512004-13262-043408FM-15+044399999V0202501N003119999999N009999199+02601+01401999999ADDGA1021+009141991GE19MSL   +99999+99999MA1102001999990REMMET051METAR SBLP 251200Z 25006KT 9999 FEW030 26/14 Q1020=
0116832880999992013062513004-13262-043408FM-15+044399999V0202801N004119999999N009999199+02601+01601999999ADDGA1041+006101991GE19MSL   +99999+99999MA1102001999990REMMET051METAR SBLP 251300Z 28008KT 9999 SCT020 26/16 Q1020=
0116832880999992013062514004-13262-043408FM-15+044399999V0203001N002119999999N009999199+02801+01601999999ADDGA1041+006101991GE19MSL   +99999+99999MA1101901999990REMMET051METAR SBLP 251400Z 30004KT 9999 SCT020 28/16 Q1019=
0116832880999992013062515004-13262-043408FM-15+044399999V0202701N002119999999N009999199+03001+01601999999ADDGA1041+009141991GE19MSL   +99999+99999MA1101801999990REMMET051METAR SBLP 251500Z 27004KT 9999 SCT030 30/16 Q1018=
0116832880999992013062516004-13262-043408FM-15+044399999V0202701N004110091419N009999199+03201+01701999999ADDGA1071+009141991GE19MSL   +99999+99999MA1101701999990REMMET051METAR SBLP 251600Z 27008KT 9999 BKN030 32/17 Q1017=
0116832880999992013062517004-13262-043408FM-15+044399999V0202401N002619999999N009999199+03301+01501999999ADDGA1041+009141991GE19MSL   +99999+99999MA1101501999990REMMET051METAR SBLP 251700Z 24005KT 9999 SCT030 33/15 Q1015=
0136832880999992013062518004-13260-043410FM-12+044099999V0200901N0021199999999020000199+03101+01701101181ADDAA101999990AZ101061AZ201061GA1011+008001081GE19MSL   +99999+99999GF101991999999999999999999MA1999990096311MD1909990-0051REMSYN004BUFR
0116832880999992013062518004-13262-043408FM-15+044399999V0202501N001519999999N009999199+03301+01501999999ADDGA1041+009141991GE19MSL   +99999+99999MA1101501999990REMMET051METAR SBLP 251800Z 25003KT 9999 SCT030 33/15 Q1015=
0116832880999992013062519004-13262-043408FM-15+044399999V0202701N003119999999N009999199+03301+01501999999ADDGA1021+009141991GE19MSL   +99999+99999MA1101501999990REMMET051METAR SBLP 251900Z 27006KT 9999 FEW030 33/15 Q1015=
0116832880999992013062520004-13262-043408FM-15+044399999V0202501N002619999999N009999199+03201+01601999999ADDGA1021+009141991GE19MSL   +99999+99999MA1101501999990REMMET051METAR SBLP 252000Z 25005KT 9999 FEW030 32/16 Q1015=
0072832880999992013062521004-13262-043408FM-15+044399999V0202301N003619999999Y999999999+02901+01301999999ADDMA1101501999990REMMET045METAR SBLP 252100Z 23007KT CAVOK 29/13 Q1015=
0136832880999992013062600004-13260-043410FM-12+044099999V0201401N0015199999999002000199+02501+01641101381ADDAA101999990AZ101061AZ201061GA1991+025001001GE19MSL   +99999+99999GF101991999999999999999999MA1999990096471MD1909990-0141REMSYN004BUFR
0072832880999992013062609154-13262-043408FM-16+044399999V0209999C000019999999Y999999999+01801+01701999999ADDMA1101801999990REMMET045SPECI SBLP 260915Z 00000KT CAVOK 18/17 Q1018=
0072832880999992013062610004-13262-043408FM-15+044399999V0209999C000019999999Y999999999+01801+01701999999ADDMA1101901999990REMMET045METAR SBLP 261000Z 00000KT CAVOK 18/17 Q1019=
0072832880999992013062611004-13262-043408FM-15+044399999V0209999C000019999999Y999999999+02101+01801999999ADDMA1102001999990REMMET045METAR SBLP 261100Z 00000KT CAVOK 21/18 Q1020=
0111832880999992013062612004-13260-043410FM-12+044099999V0201401N0015122000199020000199+02421+01841101731ADDAA101999990AZ101061AZ201061GF100991999999999999999999KA1120N+01831MA1999990096801MD1909990-0011REMSYN004BUFR
0072832880999992013062612004-13262-043408FM-15+044399999V0202801N002619999999Y999999999+02501+01701999999ADDMA1102001999990REMMET045METAR SBLP 261200Z 28005KT CAVOK 25/17 Q1020=
0072832880999992013062613004-13262-043408FM-15+044399999V0209999C000019999999Y999999999+02801+01601999999ADDMA1102001999990REMMET045METAR SBLP 261300Z 00000KT CAVOK 28/16 Q1020=
0116832880999992013062614004-13262-043408FM-15+044399999V0202701N002119999999N009999199+03001+01601999999ADDGA1021+009141991GE19MSL   +99999+99999MA1101901999990REMMET051METAR SBLP 261400Z 27004KT 9999 FEW030 30/16 Q1019=
0116832880999992013062615004-13262-043408FM-15+044399999V0202801N002619999999N009999199+03101+01601999999ADDGA1021+009141991GE19MSL   +99999+99999MA1101801999990REMMET051METAR SBLP 261500Z 28005KT 9999 FEW030 31/16 Q1018=
0116832880999992013062616004-13262-043408FM-15+044399999V0209999C000019999999N009999199+03201+01301999999ADDGA1021+009141991GE19MSL   +99999+99999MA1101601999990REMMET051METAR SBLP 261600Z 00000KT 9999 FEW030 32/13 Q1016=
0116832880999992013062617004-13262-043408FM-15+044399999V0202401N002119999999N009999199+03301+01201999999ADDGA1021+009141991GE19MSL   +99999+99999MA1101501999990REMMET051METAR SBLP 261700Z 24004KT 9999 FEW030 33/12 Q1015=
0136832880999992013062618004-13260-043410FM-12+044099999V0201801N0015199999999020000199+03191+01401101021ADDAA101999990AZ101061AZ201061GA1011+008001081GE19MSL   +99999+99999GF101991999999999999999999MA1999990096151MD1909990-0161REMSYN004BUFR
0116832880999992013062618004-13262-043408FM-15+044399999V0202701N003119999999N009999199+03301+01201999999ADDGA1021+009141991GE19MSL   +99999+99999MA1101401999990REMMET051METAR SBLP 261800Z 27006KT 9999 FEW030 33/12 Q1014=
0116832880999992013062619004-13262-043408FM-15+044399999V0203001N003119999999N009999199+03301+01201999999ADDGA1021+009141991GE19MSL   +99999+99999MA1101401999990REMMET051METAR SBLP 261900Z 30006KT 9999 FEW030 33/12 Q1014=
0072832880999992013062620004-13262-043408FM-15+044399999V0202801N002119999999Y999999999+03301+01301999999ADDMA1101401999990REMMET045METAR SBLP 262000Z 28004KT CAVOK 33/13 Q1014=
0072832880999992013062621004-13262-043408FM-15+044399999V0202801N003119999999Y999999999+03001+01201999999ADDMA1101401999990REMMET045METAR SBLP 262100Z 28006KT CAVOK 30/12 Q1014=
0098832880999992013062700004-13260-043410FM-12+044099999V0201401N0015122000199002000199+02521+01581101351ADDAA101999990AZ101061AZ201061GF100991999999999999999999MA1999990096451MD1909990-0021REMSYN004BUFR
0072832880999992013062709154-13262-043408FM-16+044399999V0203001N003119999999Y999999999+02001+01601999999ADDMA1101901999990REMMET045SPECI SBLP 270915Z 30006KT CAVOK 20/16 Q1019=
0072832880999992013062710004-13262-043408FM-15+044399999V0203201N001519999999Y999999999+02001+01701999999ADDMA1101901999990REMMET045METAR SBLP 271000Z 32003KT CAVOK 20/17 Q1019=
0072832880999992013062711004-13262-043408FM-15+044399999V0209999C000019999999Y999999999+02301+01701999999ADDMA1102001999990REMMET045METAR SBLP 271100Z 00000KT CAVOK 23/17 Q1020=
0111832880999992013062712004-13260-043410FM-12+044099999V0203601N0000122000199020000199+02491+01861101751ADDAA101999990AZ101061AZ201061GF100991999999999999999999KA1120N+01961MA1999990096831MD1909990+0031REMSYN004BUFR
0072832880999992013062712004-13262-043408FM-15+044399999V0203201N002119999999Y999999999+02601+01601999999ADDMA1102001999990REMMET045METAR SBLP 271200Z 32004KT CAVOK 26/16 Q1020=
0072832880999992013062713004-13262-043408FM-15+044399999V0209999C000019999999Y999999999+02801+01601999999ADDMA1102001999990REMMET045METAR SBLP 271300Z 00000KT CAVOK 28/16 Q1020=
0116832880999992013062714004-13262-043408FM-15+044399999V0201201N002619999999N009999199+03001+01501999999ADDGA1021+009141991GE19MSL   +99999+99999MA1102001999990REMMET051METAR SBLP 271400Z 12005KT 9999 FEW030 30/15 Q1020=
0116832880999992013062715004-13262-043408FM-15+044399999V0209999C000019999999N009999199+03101+01501999999ADDGA1021+009141991GE19MSL   +99999+99999MA1101801999990REMMET051METAR SBLP 271500Z 00000KT 9999 FEW030 31/15 Q1018=
0116832880999992013062716004-13262-043408FM-15+044399999V0203201N002119999999N009999199+03301+01701999999ADDGA1021+009141991GE19MSL   +99999+99999MA1101701999990REMMET051METAR SBLP 271600Z 32004KT 9999 FEW030 33/17 Q1017=
0116832880999992013062717004-13262-043408FM-15+044399999V0203601N003119999999N009999199+03301+01601999999ADDGA1021+009141991GE19MSL   +99999+99999MA1101601999990REMMET051METAR SBLP 271700Z 36006KT 9999 FEW030 33/16 Q1016=
0136832880999992013062718004-13260-043410FM-12+044099999V0202701N0015199999999020000199+03191+01591101201ADDAA101999990AZ101061AZ201061GA1031+008001081GE19MSL   +99999+99999GF103991999999999999999999MA1999990096331MD1909990+0181REMSYN004BUFR
0116832880999992013062718004-13262-043408FM-15+044399999V0203601N002119999999N009999199+03301+01501999999ADDGA1041+009141991GE19MSL   +99999+99999MA1101501999990REMMET051METAR SBLP 271800Z 36004KT 9999 SCT030 33/15 Q1015=
0116832880999992013062719004-13262-043408FM-15+044399999V0203501N003119999999N009999199+03301+01501999999ADDGA1041+009141991GE19MSL   +99999+99999MA1101501999990REMMET051METAR SBLP 271900Z 35006KT 9999 SCT030 33/15 Q1015=
0116832880999992013062720004-13262-043408FM-15+044399999V0203301N004119999999N009999199+03201+01301999999ADDGA1021+009141991GE19MSL   +99999+99999MA1101501999990REMMET051METAR SBLP 272000Z 33008KT 9999 FEW030 32/13 Q1015=
0116832880999992013062721004-13262-043408FM-15+044399999V0203101N003119999999N009999199+02901+01301999999ADDGA1021+009141991GE19MSL   +99999+99999MA1101401999990REMMET051METAR SBLP 272100Z 31006KT 9999 FEW030 29/13 Q1014=
0072832880999992013062809154-13262-043408FM-16+044399999V0209999C000019999999Y999999999+01701+01401999999ADDMA1101701999990REMMET045SPECI SBLP 280915Z 00000KT CAVOK 17/14 Q1017=
0072832880999992013062810004-13262-043408FM-15+044399999V0209999C000019999999Y999999999+01801+01401999999ADDMA1101701999990REMMET045METAR SBLP 281000Z 00000KT CAVOK 18/14 Q1017=
0072832880999992013062811004-13262-043408FM-15+044399999V0202501N003119999999Y999999999+02201+01601999999ADDMA1101801999990REMMET045METAR SBLP 281100Z 25006KT CAVOK 22/16 Q1018=
0111832880999992013062812004-13260-043410FM-12+044099999V0201401N0015122000199020000199+02501+01641101461ADDAA101999990AZ101061AZ201061GF100991999999999999999999KA1120N+01831MA1999990096561MD1909990-0271REMSYN004BUFR
0072832880999992013062812004-13262-043408FM-15+044399999V0209999C000019999999Y999999999+02501+01601999999ADDMA1101801999990REMMET045METAR SBLP 281200Z 00000KT CAVOK 25/16 Q1018=
0072832880999992013062813004-13262-043408FM-15+044399999V0202301N002119999999Y999999999+02901+01501999999ADDMA1101801999990REMMET045METAR SBLP 281300Z 23004KT CAVOK 29/15 Q1018=
0116832880999992013062814004-13262-043408FM-15+044399999V0209999C000019999999N009999199+03101+01601999999ADDGA1021+009141991GE19MSL   +99999+99999MA1101701999990REMMET051METAR SBLP 281400Z 00000KT 9999 FEW030 31/16 Q1017=
0116832880999992013062815004-13262-043408FM-15+044399999V0200601N002119999999N009999199+03101+01301999999ADDGA1021+009141991GE19MSL   +99999+99999MA1101601999990REMMET051METAR SBLP 281500Z 06004KT 9999 FEW030 31/13 Q1016=
0116832880999992013062816004-13262-043408FM-15+044399999V0203201N003119999999N009999199+03301+01101999999ADDGA1021+009141991GE19MSL   +99999+99999MA1101401999990REMMET051METAR SBLP 281600Z 32006KT 9999 FEW030 33/11 Q1014=
0116832880999992013062817004-13262-043408FM-15+044399999V0203501N003619999999N009999199+03301+01201999999ADDGA1021+009141991GE19MSL   +99999+99999MA1101301999990REMMET051METAR SBLP 281700Z 35007KT 9999 FEW030 33/12 Q1013=
0136832880999992013062818004-13260-043410FM-12+044099999V0202701N0015199999999020000199+03251+01601100921ADDAA101999990AZ101061AZ201061GA1011+008001081GE19MSL   +99999+99999GF101991999999999999999999MA1999990096061MD1909990-0271REMSYN004BUFR
0116832880999992013062818004-13262-043408FM-15+044399999V0203501N003119999999N009999199+03401+01201999999ADDGA1021+009141991GE19MSL   +99999+99999MA1101201999990REMMET051METAR SBLP 281800Z 35006KT 9999 FEW030 34/12 Q1012=
0116832880999992013062819004-13262-043408FM-15+044399999V0200201N003119999999N009999199+03301+01101999999ADDGA1021+009141991GE19MSL   +99999+99999MA1101201999990REMMET051METAR SBLP 281900Z 02006KT 9999 FEW030 33/11 Q1012=
0116832880999992013062820004-13262-043408FM-15+044399999V0203501N002119999999N009999199+03301+01001999999ADDGA1021+009141991GE19MSL   +99999+99999MA1101201999990REMMET051METAR SBLP 282000Z 35004KT 9999 FEW030 33/10 Q1012=
0116832880999992013062821004-13262-043408FM-15+044399999V0203201N001519999999N009999199+03001+01201999999ADDGA1021+009141991GE19MSL   +99999+99999MA1101201999990REMMET051METAR SBLP 282100Z 32003KT 9999 FEW030 30/12 Q1012=
0098832880999992013062900004-13260-043410FM-12+044099999V0203601N0000122000199002000199+02571+01551101061ADDAA101999990AZ101061AZ201061GF100991999999999999999999MA1999990096181MD1909990-0211REMSYN004BUFR
0111832880999992013062912004-13260-043410FM-12+044099999V0201401N0005122000199020000199+02421+01781101321ADDAA101999990AZ101061AZ201061GF100991999999999999999999KA1120N+01861MA1999990096421MD1909990-0141REMSYN004BUFR
0136832880999992013062918004-13260-043410FM-12+044099999V0203201N0005199999999020000199+03321+01851100921ADDAA101999990AZ101061AZ201061GA1031+008001081GE19MSL   +99999+99999GF103991999999999999999999MA1999990096081MD1909990+0021REMSYN004BUFR
0111832880999992013063012004-13260-043410FM-12+044099999V0203601N0000122000199020000199+02441+01611101351ADDAA101999990AZ101061AZ201061GF100991999999999999999999KA1120N+01921MA1999990096471MD1909990+0051REMSYN004BUFR
0072832880999992013070109154-13262-043408FM-16+044399999V0202201N002119999999Y999999999+01901+01201999999ADDMA1101601999990REMMET045SPECI SBLP 010915Z 22004KT CAVOK 19/12 Q1016=
0072832880999992013070110004-13262-043408FM-15+044399999V0202301N001519999999Y999999999+01901+01101999999ADDMA1101701999990REMMET045METAR SBLP 011000Z 23003KT CAVOK 19/11 Q1017=
0072832880999992013070111004-13262-043408FM-15+044399999V0203101N003119999999Y999999999+02201+01201999999ADDMA1101701999990REMMET045METAR SBLP 011100Z 31006KT CAVOK 22/12 Q1017=
0111832880999992013070112004-13260-043410FM-12+044099999V0202301N0015122000199020000199+02371+01441101491ADDAA101999990AZ101061AZ201061GF100991999999999999999999KA1120N+01941MA1999990096581MD1909990+0111REMSYN004BUFR
0072832880999992013070112004-13262-043408FM-15+044399999V0203101N003619999999Y999999999+02501+01101999999ADDMA1101801999990REMMET045METAR SBLP 011200Z 31007KT CAVOK 25/11 Q1018=
0072832880999992013070113004-13262-043408FM-15+044399999V0202901N003119999999Y999999999+02801+01001999999ADDMA1101801999990REMMET045METAR SBLP 011300Z 29006KT CAVOK 28/10 Q1018=
0072832880999992013070114004-13262-043408FM-15+044399999V0209999C000019999999Y999999999+02901+01001999999ADDMA1101701999990REMMET045METAR SBLP 011400Z 00000KT CAVOK 29/10 Q1017=
0072832880999992013070115004-13262-043408FM-15+044399999V0202201N004119999999Y999999999+03101+00901999999ADDMA1101601999990REMMET045METAR SBLP 011500Z 22008KT CAVOK 31/09 Q1016=
0072832880999992013070116004-13262-043408FM-15+044399999V0209999C000019999999Y999999999+03201+00801999999ADDMA1101501999990REMMET045METAR SBLP 011600Z 00000KT CAVOK 32/08 Q1015=
0072832880999992013070117004-13262-043408FM-15+044399999V0200301N005119999999Y999999999+03301+00801999999ADDMA1101401999990REMMET045METAR SBLP 011700Z 03010KT CAVOK 33/08 Q1014=
0098832880999992013070118004-13260-043410FM-12+044099999V0202701N0015122000199020000199+03191+01111101071ADDAA101999990AZ101061AZ201061GF100991999999999999999999MA1999990096231MD1909990+0261REMSYN004BUFR
0072832880999992013070118004-13262-043408FM-15+044399999V0200101N002119999999Y999999999+03301+01201999999ADDMA1101401999990REMMET045METAR SBLP 011800Z 01004KT CAVOK 33/12 Q1014=
0072832880999992013070119004-13262-043408FM-15+044399999V0200201N002119999999Y999999999+03301+00701999999ADDMA1101401999990REMMET045METAR SBLP 011900Z 02004KT CAVOK 33/07 Q1014=
0072832880999992013070120004-13262-043408FM-15+044399999V0203601N002119999999Y999999999+03201+00901999999ADDMA1101401999990REMMET045METAR SBLP 012000Z 36004KT CAVOK 32/09 Q1014=
0072832880999992013070121004-13262-043408FM-15+044399999V0209999C000019999999Y999999999+02901+00901999999ADDMA1101401999990REMMET045METAR SBLP 012100Z 00000KT CAVOK 29/09 Q1014=
0098832880999992013070200004-13260-043410FM-12+044099999V0202901N0010122000199002000199+02521+01151101221ADDAA101999990AZ101061AZ201061GF100991999999999999999999MA1999990096321MD1909990+0071REMSYN004BUFR
0072832880999992013070209154-13262-043408FM-16+044399999V0209999C000019999999Y999999999+01801+01501999999ADDMA1101701999990REMMET045SPECI SBLP 020915Z 00000KT CAVOK 18/15 Q1017=
0072832880999992013070210004-13262-043408FM-15+044399999V0209999C000019999999Y999999999+02001+01601999999ADDMA1101701999990REMMET045METAR SBLP 021000Z 00000KT CAVOK 20/16 Q1017=
0072832880999992013070211004-13262-043408FM-15+044399999V0209999C000019999999Y999999999+02101+01501999999ADDMA1101801999990REMMET045METAR SBLP 021100Z 00000KT CAVOK 21/15 Q1018=
0111832880999992013070212004-13260-043410FM-12+044099999V0203601N0000122000199020000199+02291+01611101561ADDAA101999990AZ101061AZ201061GF100991999999999999999999KA1120N+01801MA1999990096631MD1909990+0051REMSYN004BUFR
0072832880999992013070212004-13262-043408FM-15+044399999V0209999C000019999999Y999999999+02501+01501999999ADDMA1101901999990REMMET045METAR SBLP 021200Z 00000KT CAVOK 25/15 Q1019=
0072832880999992013070213004-13262-043408FM-15+044399999V0209999C000019999999Y999999999+02801+01501999999ADDMA1101801999990REMMET045METAR SBLP 021300Z 00000KT CAVOK 28/15 Q1018=
0072832880999992013070214004-13262-043408FM-15+044399999V0209999C000019999999Y999999999+03001+01401999999ADDMA1101801999990REMMET045METAR SBLP 021400Z 00000KT CAVOK 30/14 Q1018=
0116832880999992013070215004-13262-043408FM-15+044399999V0209999C000019999999N009999199+03101+01601999999ADDGA1021+009141991GE19MSL   +99999+99999MA1101601999990REMMET051METAR SBLP 021500Z 00000KT 9999 FEW030 31/16 Q1016=
0116832880999992013070216004-13262-043408FM-15+044399999V0209999C000019999999N009999199+03301+01101999999ADDGA1021+009141991GE19MSL   +99999+99999MA1101501999990REMMET051METAR SBLP 021600Z 00000KT 9999 FEW030 33/11 Q1015=
0116832880999992013070217004-13262-043408FM-15+044399999V0200501N002119999999N009999199+03301+01201999999ADDGA1021+009141991GE19MSL   +99999+99999MA1101401999990REMMET051METAR SBLP 021700Z 05004KT 9999 FEW030 33/12 Q1014=
0098832880999992013070218004-13260-043410FM-12+044099999V0202301N0021122000199020000199+03251+01681100981ADDAA101999990AZ101061AZ201061GF100991999999999999999999MA1999990096131MD1909990-0101REMSYN004BUFR
0072832880999992013070218004-13262-043408FM-15+044399999V0200301N002119999999Y999999999+03301+01201999999ADDMA1101301999990REMMET045METAR SBLP 021800Z 03004KT CAVOK 33/12 Q1013=
0072832880999992013070219004-13262-043408FM-15+044399999V0200601N002119999999Y999999999+03301+01001999999ADDMA1101301999990REMMET045METAR SBLP 021900Z 06004KT CAVOK 33/10 Q1013=
0072832880999992013070220004-13262-043408FM-15+044399999V0200301N002119999999Y999999999+03301+01001999999ADDMA1101301999990REMMET045METAR SBLP 022000Z 03004KT CAVOK 33/10 Q1013=
0072832880999992013070221004-13262-043408FM-15+044399999V0203501N001019999999Y999999999+03001+01201999999ADDMA1101401999990REMMET045METAR SBLP 022100Z 35002KT CAVOK 30/12 Q1014=
0098832880999992013070300004-13260-043410FM-12+044099999V0201401N0021122000199002000199+02671+01231101281ADDAA101999990AZ101061AZ201061GF100991999999999999999999MA1999990096381MD1909990+0061REMSYN004BUFR
0072832880999992013070309154-13262-043408FM-16+044399999V0209999C000019999999Y999999999+02001+01501999999ADDMA1101801999990REMMET045SPECI SBLP 030915Z 00000KT CAVOK 20/15 Q1018=
0072832880999992013070310004-13262-043408FM-15+044399999V0209999C000019999999Y999999999+02001+01601999999ADDMA1101801999990REMMET045METAR SBLP 031000Z 00000KT CAVOK 20/16 Q1018=
0072832880999992013070311004-13262-043408FM-15+044399999V0203501N001019999999Y999999999+02201+01601999999ADDMA1101901999990REMMET045METAR SBLP 031100Z 35002KT CAVOK 22/16 Q1019=
0111832880999992013070312004-13260-043410FM-12+044099999V0201401N0015122000199020000199+02501+01481101721ADDAA101999990AZ101061AZ201061GF100991999999999999999999KA1120N+01921MA1999990096801MD1909990+0171REMSYN004BUFR
0072832880999992013070312004-13262-043408FM-15+044399999V0202701N002119999999Y999999999+02601+01401999999ADDMA1102001999990REMMET045METAR SBLP 031200Z 27004KT CAVOK 26/14 Q1020=
0072832880999992013070313004-13262-043408FM-15+044399999V0203001N003119999999Y999999999+02901+01301999999ADDMA1102001999990REMMET045METAR SBLP 031300Z 30006KT CAVOK 29/13 Q1020=
0072832880999992013070314004-13262-043408FM-15+044399999V0202601N003119999999Y999999999+03001+01301999999ADDMA1102001999990REMMET045METAR SBLP 031400Z 26006KT CAVOK 30/13 Q1020=
0116832880999992013070315004-13262-043408FM-15+044399999V0209999C000019999999N009999199+03201+01101999999ADDGA1021+009141991GE19MSL   +99999+99999MA1101901999990REMMET051METAR SBLP 031500Z 00000KT 9999 FEW030 32/11 Q1019=
0116832880999992013070316004-13262-043408FM-15+044399999V0202701N006219999999N009999199+03201+01501999999ADDGA1021+009141991GE19MSL   +99999+99999MA1101801999990REMMET051METAR SBLP 031600Z 27012KT 9999 FEW030 32/15 Q1018=
0116832880999992013070317004-13262-043408FM-15+044399999V0202801N005119999999N009999199+03301+01101999999ADDGA1021+009141991GE19MSL   +99999+99999MA1101601999990REMMET051METAR SBLP 031700Z 28010KT 9999 FEW030 33/11 Q1016=
0136832880999992013070318004-13260-043410FM-12+044099999V0201801N0021199999999020000199+03191+01271101261ADDAA101999990AZ101061AZ201061GA1031+008001081GE19MSL   +99999+99999GF103991999999999999999999MA1999990096411MD1909990+0281REMSYN004BUFR
0116832880999992013070318004-13262-043408FM-15+044399999V0202901N003119999999N009999199+03201+01101999999ADDGA1041+009141991GE19MSL   +99999+99999MA1101601999990REMMET051METAR SBLP 031800Z 29006KT 9999 SCT030 32/11 Q1016=
0116832880999992013070319004-13262-043408FM-15+044399999V0202901N004119999999N009999199+03201+01301999999ADDGA1041+009141991GE19MSL   +99999+99999MA1101601999990REMMET051METAR SBLP 031900Z 29008KT 9999 SCT030 32/13 Q1016=
0116832880999992013070320004-13262-043408FM-15+044399999V0202801N005119999999N009999199+03101+01201999999ADDGA1041+009141991GE19MSL   +99999+99999MA1101601999990REMMET051METAR SBLP 032000Z 28010KT 9999 SCT030 31/12 Q1016=
0116832880999992013070321004-13262-043408FM-15+044399999V0202801N004119999999N009999199+02901+01201999999ADDGA1041+009141991GE19MSL   +99999+99999MA1101701999990REMMET051METAR SBLP 032100Z 28008KT 9999 SCT030 29/12 Q1017=
0168832880999992013070400004-13260-043410FM-12+044099999V0201401N0015122000199002000199+02651+01441101581ADDAA101999990AZ101061AZ201061GA1991+999991101GA2991+999991101GA3991+999991101GE19MSL   +99999+99999GF100991999999999999999999MA1999990096691MD1909990+0311REMSYN004BUFR
0072832880999992013070409154-13262-043408FM-16+044399999V0203601N003119999999Y999999999+01701+01501999999ADDMA1102001999990REMMET045SPECI SBLP 040915Z 36006KT CAVOK 17/15 Q1020=
0072832880999992013070410004-13262-043408FM-15+044399999V0203601N003119999999Y999999999+01701+01601999999ADDMA1102101999990REMMET045METAR SBLP 041000Z 36006KT CAVOK 17/16 Q1021=
0072832880999992013070411004-13262-043408FM-15+044399999V0203601N003119999999Y999999999+02101+01601999999ADDMA1102201999990REMMET045METAR SBLP 041100Z 36006KT CAVOK 21/16 Q1022=
0111832880999992013070412004-13260-043410FM-12+044099999V0201801N0015122000199020000199+02271+01621101931ADDAA101999990AZ101061AZ201061GF100991999999999999999999KA1120N+01931MA1999990096991MD1909990+0191REMSYN004BUFR
0072832880999992013070412004-13262-043408FM-15+044399999V0203201N004119999999Y999999999+02401+01601999999ADDMA1102201999990REMMET045METAR SBLP 041200Z 32008KT CAVOK 24/16 Q1022=
0072832880999992013070413004-13262-043408FM-15+044399999V0203101N004119999999Y999999999+02701+01601999999ADDMA1102201999990REMMET045METAR SBLP 041300Z 31008KT CAVOK 27/16 Q1022=
0116832880999992013070414004-13262-043408FM-15+044399999V0203401N002119999999N009999199+02901+01501999999ADDGA1021+009141991GE19MSL   +99999+99999MA1102101999990REMMET051METAR SBLP 041400Z 34004KT 9999 FEW030 29/15 Q1021=
0116832880999992013070415004-13262-043408FM-15+044399999V0203601N006219999999N009999199+03101+01601999999ADDGA1021+009141991GE19MSL   +99999+99999MA1102001999990REMMET051METAR SBLP 041500Z 36012KT 9999 FEW030 31/16 Q1020=
0116832880999992013070416004-13262-043408FM-15+044399999V0202701N003619999999N009999199+03101+01401999999ADDGA1021+009141991GE19MSL   +99999+99999MA1101901999990REMMET051METAR SBLP 041600Z 27007KT 9999 FEW030 31/14 Q1019=
0116832880999992013070417004-13262-043408FM-15+044399999V0202701N005119999999N009999199+03201+01301999999ADDGA1041+009141991GE19MSL   +99999+99999MA1101801999990REMMET051METAR SBLP 041700Z 27010KT 9999 SCT030 32/13 Q1018=
0136832880999992013070418004-13260-043410FM-12+044099999V0200901N0026199999999020000199+03051+01771101431ADDAA101999990AZ101061AZ201061GA1011+008001081GE19MSL   +99999+99999GF101991999999999999999999MA1999990096541MD1909990+0131REMSYN004BUFR
0116832880999992013070418004-13262-043408FM-15+044399999V0203401N006219999999N009999199+03201+01401999999ADDGA1041+009141991GE19MSL   +99999+99999MA1101801999990REMMET051METAR SBLP 041800Z 34012KT 9999 SCT030 32/14 Q1018=
0116832880999992013070419004-13262-043408FM-15+044399999V0203201N004119999999N009999199+03101+01401999999ADDGA1021+009141991GE19MSL   +99999+99999MA1101701999990REMMET051METAR SBLP 041900Z 32008KT 9999 FEW030 31/14 Q1017=
0116832880999992013070420004-13262-043408FM-15+044399999V0203201N006219999999N009999199+03001+01301999999ADDGA1021+009141991GE19MSL   +99999+99999MA1101801999990REMMET051METAR SBLP 042000Z 32012KT 9999 FEW030 30/13 Q1018=
0072832880999992013070421004-13262-043408FM-15+044399999V0203301N003619999999Y999999999+02801+01401999999ADDMA1101801999990REMMET045METAR SBLP 042100Z 33007KT CAVOK 28/14 Q1018=
0098832880999992013070500004-13260-043410FM-12+044099999V0201401N0031122000199002000199+02441+01691101801ADDAA101999990AZ101061AZ201061GF100991999999999999999999MA1999990096461MD1909990+1171REMSYN004BUFR
0116832880999992013070509154-13262-043408FM-16+044399999V0200201N002119999999N009999199+01901+01501999999ADDGA1021+006101991GE19MSL   +99999+99999MA1102101999990REMMET051SPECI SBLP 050915Z 02004KT 9999 FEW020 19/15 Q1021=
0116832880999992013070510004-13262-043408FM-15+044399999V0200301N003110061019N009999199+01901+01501999999ADDGA1071+006101991GE19MSL   +99999+99999MA1102101999990REMMET051METAR SBLP 051000Z 03006KT 9999 BKN020 19/15 Q1021=
0116832880999992013070511004-13262-043408FM-15+044399999V0200301N004119999999N009999199+02201+01701999999ADDGA1041+006101991GE19MSL   +99999+99999MA1102201999990REMMET051METAR SBLP 051100Z 03008KT 9999 SCT020 22/17 Q1022=
0149832880999992013070512004-13260-043410FM-12+044099999V0201801N0015100800199020000199+02271+01721101971ADDAA101999990AZ101061AZ201061GA1051+008001081GE19MSL   +99999+99999GF105991999999999999999999KA1120N+01921MA1999990097011MD1909990+0021REMSYN004BUFR
0139832880999992013070512004-13262-043408FM-15+044399999V0200101N005110304819N009999199+02401+01701999999ADDGA1041+006101991GA2071+030481991GE19MSL   +99999+99999MA1102201999990REMMET058METAR SBLP 051200Z 01010KT 9999 SCT020 BKN100 24/17 Q1022=
0139832880999992013070513004-13262-043408FM-15+044399999V0200101N006210061019N009999199+02201+01701999999ADDGA1071+006101991GA2071+030481991GE19MSL   +99999+99999MA1102301999990REMMET058METAR SBLP 051300Z 01012KT 9999 BKN020 BKN100 22/17 Q1023=
0139832880999992013070514004-13262-043408FM-15+044399999V0200201N005710304819N009999199+02401+01701999999ADDGA1041+006101991GA2071+030481991GE19MSL   +99999+99999MA1102201999990REMMET058METAR SBLP 051400Z 02011KT 9999 SCT020 BKN100 24/17 Q1022=
0162832880999992013070516004-13262-043408FM-15+044399999V0203601N00511009141CN009999199+02701+01701999999ADDGA1021+006101991GA2041+009141991GA3071+030481991GE19MSL   +99999+99999MA1102001999990REMMET065METAR SBLP 051600Z 36010KT 9999 FEW020 SCT030 BKN100 27/17 Q1020=
0139832880999992013070517004-13262-043408FM-15+044399999V0203301N002610304819N009999199+02801+01701999999ADDGA1041+008231991GA2071+030481991GE19MSL   +99999+99999MA1101901999990REMMET058METAR SBLP 051700Z 33005KT 9999 SCT027 BKN100 28/17 Q1019=
0168832880999992013070518004-13260-043410FM-12+044099999V0201801N0021100800199020000199+02771+01661101551ADDAA101999990AZ101061AZ201061GA1081+008001081GA2991+999991101GA3991+999991101GE19MSL   +99999+99999GF108991999999999999999999MA1999990096621MD1909990+0081REMSYN004BUFR
0139832880999992013070518004-13262-043408FM-15+044399999V0203501N004110082319N009999199+02901+01601999999ADDGA1071+008231991GA2041+030481991GE19MSL   +99999+99999MA1101801999990REMMET058METAR SBLP 051800Z 35008KT 9999 BKN027 SCT100 29/16 Q1018=
0139832880999992013070519004-13262-043408FM-15+044399999V0203301N00411030481CN009999199+02901+01501999999ADDGA1041+009141991GA2041+030481991GE19MSL   +99999+99999MA1101801999990REMMET058METAR SBLP 051900Z 33008KT 9999 SCT030 SCT100 29/15 Q1018=
0139832880999992013070520004-13262-043408FM-15+044399999V0203301N00411030481CN009999199+02901+01601999999ADDGA1041+009141991GA2041+030481991GE19MSL   +99999+99999MA1101801999990REMMET058METAR SBLP 052000Z 33008KT 9999 SCT030 SCT100 29/16 Q1018=
0139832880999992013070521004-13262-043408FM-15+044399999V0203601N002610304819N009999199+02801+01401999999ADDGA1021+009141991GA2071+030481991GE19MSL   +99999+99999MA1101801999990REMMET058METAR SBLP 052100Z 36005KT 9999 FEW030 BKN100 28/14 Q1018=
0136832880999992013070600004-13260-043410FM-12+044099999V0201801N0010199999999002000199+02401+01561101711ADDAA101999990AZ101061AZ201061GA1021+008001081GE19MSL   +99999+99999GF102991999999999999999999MA1999990096771MD1909990-0091REMSYN004BUFR
0111832880999992013070612004-13260-043410FM-12+044099999V0201401N0026122000199020000199+02241+01431101871ADDAA101999990AZ101061AZ201061GF100991999999999999999999KA1120N+01821MA1999990096921MD1909990-0091REMSYN004BUFR
0136832880999992013070618004-13260-043410FM-12+044099999V0201401N0021199999999020000199+03001+01371101261ADDAA101999990AZ101061AZ201061GA1011+008001081GE19MSL   +99999+99999GF101991999999999999999999MA1999990096361MD1909990-0261REMSYN004BUFR
0098832880999992013070700004-13260-043410FM-12+044099999V0203601N0000122000199002000199+02341+01741101551ADDAA101999990AZ101061AZ201061GF100991999999999999999999MA1999990096601MD1909990-0161REMSYN004BUFR
0111832880999992013070712004-13260-043410FM-12+044099999V0202701N0010122000199020000199+02221+01591101741ADDAA101999990AZ101061AZ201061GF100991999999999999999999KA1120N+01761MA1999990096781MD1909990-0141REMSYN004BUFR
0136832880999992013070718004-13260-043410FM-12+044099999V0201801N0010199999999020000199+03101+01511101211ADDAA101999990AZ101061AZ201061GA1031+008001081GE19MSL   +99999+99999GF103991999999999999999999MA1999990096321MD1909990+0041REMSYN004BUFR
0072832880999992013070809154-13262-043408FM-16+044399999V0209999C000019999999Y999999999+01701+01601999999ADDMA1101801999990REMMET045SPECI SBLP 080915Z 00000KT CAVOK 17/16 Q1018=
0072832880999992013070810004-13262-043408FM-15+044399999V0209999C000019999999Y999999999+01901+01701999999ADDMA1101801999990REMMET045METAR SBLP 081000Z 00000KT CAVOK 19/17 Q1018=
0072832880999992013070811004-13262-043408FM-15+044399999V0209999C000019999999Y999999999+01901+01701999999ADDMA1101901999990REMMET045METAR SBLP 081100Z 00000KT CAVOK 19/17 Q1019=
0111832880999992013070812004-13260-043410FM-12+044099999V0201401N0015122000199020000199+02321+01701101701ADDAA101999990AZ101061AZ201061GF100991999999999999999999KA1120N+02251MA1999990096761MD1909990-0021REMSYN004BUFR
0072832880999992013070812004-13262-043408FM-15+044399999V0209999C000019999999Y999999999+02501+01601999999ADDMA1102001999990REMMET045METAR SBLP 081200Z 00000KT CAVOK 25/16 Q1020=
0072832880999992013070813004-13262-043408FM-15+044399999V0200101N002619999999Y999999999+02801+01601999999ADDMA1102001999990REMMET045METAR SBLP 081300Z 01005KT CAVOK 28/16 Q1020=
0116832880999992013070814004-13262-043408FM-15+044399999V0203101N002119999999N009999199+03001+01501999999ADDGA1021+009141991GE19MSL   +99999+99999MA1102001999990REMMET051METAR SBLP 081400Z 31004KT 9999 FEW030 30/15 Q1020=
0116832880999992013070815004-13262-043408FM-15+044399999V0203601N002119999999N009999199+03201+01501999999ADDGA1021+009141991GE19MSL   +99999+99999MA1101901999990REMMET051METAR SBLP 081500Z 36004KT 9999 FEW030 32/15 Q1019=
0116832880999992013070816004-13262-043408FM-15+044399999V0203201N002119999999N009999199+03301+01201999999ADDGA1041+009141991GE19MSL   +99999+99999MA1101701999990REMMET051METAR SBLP 081600Z 32004KT 9999 SCT030 33/12 Q1017=
0116832880999992013070817004-13262-043408FM-15+044399999V0200101N001519999999N009999199+03301+01201999999ADDGA1041+009141991GE19MSL   +99999+99999MA1101601999990REMMET051METAR SBLP 081700Z 01003KT 9999 SCT030 33/12 Q1016=
0136832880999992013070818004-13260-043410FM-12+044099999V0201401N0031199999999020000199+03221+01521101231ADDAA101999990AZ101061AZ201061GA1011+008001081GE19MSL   +99999+99999GF101991999999999999999999MA1999990096351MD1909990+0031REMSYN004BUFR
0116832880999992013070818004-13262-043408FM-15+044399999V0200101N004119999999N009999199+03401+01201999999ADDGA1041+009141991GE19MSL   +99999+99999MA1101601999990REMMET051METAR SBLP 081800Z 01008KT 9999 SCT030 34/12 Q1016=
0116832880999992013070819004-13262-043408FM-15+044399999V0203501N004119999999N009999199+03401+01201999999ADDGA1021+009141991GE19MSL   +99999+99999MA1101501999990REMMET051METAR SBLP 081900Z 35008KT 9999 FEW030 34/12 Q1015=
0116832880999992013070820004-13262-043408FM-15+044399999V0203301N004119999999N009999199+03201+01301999999ADDGA1021+009141991GE19MSL   +99999+99999MA1101601999990REMMET051METAR SBLP 082000Z 33008KT 9999 FEW030 32/13 Q1016=
0072832880999992013070821004-13262-043408FM-15+044399999V0203401N004119999999Y999999999+03001+01401999999ADDMA1101601999990REMMET045METAR SBLP 082100Z 34008KT CAVOK 30/14 Q1016=
0098832880999992013070900004-13260-043410FM-12+044099999V0201401N0015122000199002000199+02541+01741101551ADDAA101999990AZ101061AZ201061GF100991999999999999999999MA1999990096681MD1909990+0131REMSYN004BUFR
0116832880999992013070909154-13262-043408FM-16+044399999V0200101N001519999999N009999199+02001+01601999999ADDGA1021+006101991GE19MSL   +99999+99999MA1101901999990REMMET051SPECI SBLP 090915Z 01003KT 9999 FEW020 20/16 Q1019=
0116832880999992013070910004-13262-043408FM-15+044399999V0203501N001519999999N009999199+02001+01501999999ADDGA1021+006101991GE19MSL   +99999+99999MA1102001999990REMMET051METAR SBLP 091000Z 35003KT 9999 FEW020 20/15 Q1020=
0072832880999992013070911004-13262-043408FM-15+044399999V0203401N003119999999Y999999999+02301+01501999999ADDMA1102101999990REMMET045METAR SBLP 091100Z 34006KT CAVOK 23/15 Q1021=
0111832880999992013070912004-13260-043410FM-12+044099999V0201401N0015122000199020000199+02501+01571101821ADDAA101999990AZ101061AZ201061GF100991999999999999999999KA1120N+02001MA1999990096901MD1909990+0141REMSYN004BUFR
0072832880999992013070912004-13262-043408FM-15+044399999V0203201N003119999999Y999999999+02601+01401999999ADDMA1102101999990REMMET045METAR SBLP 091200Z 32006KT CAVOK 26/14 Q1021=
0072832880999992013070913004-13262-043408FM-15+044399999V0203201N004119999999Y999999999+02801+01301999999ADDMA1102101999990REMMET045METAR SBLP 091300Z 32008KT CAVOK 28/13 Q1021=
0116832880999992013070914004-13262-043408FM-15+044399999V0200201N003119999999N009999199+03001+01401999999ADDGA1021+009141991GE19MSL   +99999+99999MA1102101999990REMMET051METAR SBLP 091400Z 02006KT 9999 FEW030 30/14 Q1021=
0116832880999992013070915004-13262-043408FM-15+044399999V0203401N004119999999N009999199+03001+01101999999ADDGA1021+009141991GE19MSL   +99999+99999MA1102001999990REMMET051METAR SBLP 091500Z 34008KT 9999 FEW030 30/11 Q1020=
0116832880999992013070916004-13262-043408FM-15+044399999V0203101N004119999999N009999199+03101+01301999999ADDGA1041+009141991GE19MSL   +99999+99999MA1101901999990REMMET051METAR SBLP 091600Z 31008KT 9999 SCT030 31/13 Q1019=
0116832880999992013070917004-13262-043408FM-15+044399999V0203601N003119999999N009999199+03101+01201999999ADDGA1041+009141991GE19MSL   +99999+99999MA1101801999990REMMET051METAR SBLP 091700Z 36006KT 9999 SCT030 31/12 Q1018=
0136832880999992013070918004-13260-043410FM-12+044099999V0200901N0010199999999020000199+03021+01501101341ADDAA101999990AZ101061AZ201061GA1031+008001081GE19MSL   +99999+99999GF103991999999999999999999MA1999990096441MD1909990+0091REMSYN004BUFR
0116832880999992013070918004-13262-043408FM-15+044399999V0203601N006210091419N009999199+03101+01201999999ADDGA1071+009141991GE19MSL   +99999+99999MA1101701999990REMMET051METAR SBLP 091800Z 36012KT 9999 BKN030 31/12 Q1017=
0116832880999992013070919004-13262-043408FM-15+044399999V0203301N003119999999N009999199+03101+01201999999ADDGA1041+009141991GE19MSL   +99999+99999MA1101701999990REMMET051METAR SBLP 091900Z 33006KT 9999 SCT030 31/12 Q1017=
0116832880999992013070920004-13262-043408FM-15+044399999V0203401N003119999999N009999199+03101+01201999999ADDGA1021+009141991GE19MSL   +99999+99999MA1101701999990REMMET051METAR SBLP 092000Z 34006KT 9999 FEW030 31/12 Q1017=
0116832880999992013070921004-13262-043408FM-15+044399999V0203601N003119999999N009999199+02801+01101999999ADDGA1021+009141991GE19MSL   +99999+99999MA1101801999990REMMET051METAR SBLP 092100Z 36006KT 9999 FEW030 28/11 Q1018=
0072832880999992013071009154-13262-043408FM-16+044399999V0200301N002119999999Y999999999+01601+01101999999ADDMA1102001999990REMMET045SPECI SBLP 100915Z 03004KT CAVOK 16/11 Q1020=
0072832880999992013071010004-13262-043408FM-15+044399999V0200401N001519999999Y999999999+01601+01101999999ADDMA1102001999990REMMET045METAR SBLP 101000Z 04003KT CAVOK 16/11 Q1020=
0072832880999992013071011004-13262-043408FM-15+044399999V0200301N004119999999Y999999999+02101+01401999999ADDMA1102101999990REMMET045METAR SBLP 101100Z 03008KT CAVOK 21/14 Q1021=
0111832880999992013071012004-13260-043410FM-12+044099999V0201401N0015122000199020000199+02371+01361101861ADDAA101999990AZ101061AZ201061GF100991999999999999999999KA1120N+01741MA1999990096921MD1909990+0021REMSYN004BUFR
0072832880999992013071012004-13262-043408FM-15+044399999V0203601N006219999999Y999999999+02401+01301999999ADDMA1102201999990REMMET045METAR SBLP 101200Z 36012KT CAVOK 24/13 Q1022=
0072832880999992013071013004-13262-043408FM-15+044399999V0203301N003119999999Y999999999+02701+01201999999ADDMA1102201999990REMMET045METAR SBLP 101300Z 33006KT CAVOK 27/12 Q1022=
0072832880999992013071014004-13262-043408FM-15+044399999V0203601N006219999999Y999999999+02901+01301999999ADDMA1102101999990REMMET045METAR SBLP 101400Z 36012KT CAVOK 29/13 Q1021=
0072832880999992013071015004-13262-043408FM-15+044399999V0203301N005119999999Y999999999+03001+01001999999ADDMA1102001999990REMMET045METAR SBLP 101500Z 33010KT CAVOK 30/10 Q1020=
0116832880999992013071016004-13262-043408FM-15+044399999V0203001N002119999999N009999199+03101+01001999999ADDGA1021+009141991GE19MSL   +99999+99999MA1101901999990REMMET051METAR SBLP 101600Z 30004KT 9999 FEW030 31/10 Q1019=
0116832880999992013071017004-13262-043408FM-15+044399999V0202701N003119999999N009999199+03201+00801999999ADDGA1021+009141991GE19MSL   +99999+99999MA1101801999990REMMET051METAR SBLP 101700Z 27006KT 9999 FEW030 32/08 Q1018=
0098832880999992013071018004-13260-043410FM-12+044099999V0200901N0015122000199020000199+03071+00951101341ADDAA101999990AZ101061AZ201061GF100991999999999999999999MA1999990096451MD1909990+0011REMSYN004BUFR
0116832880999992013071018004-13262-043408FM-15+044399999V0203001N004119999999N009999199+03201+00801999999ADDGA1021+009141991GE19MSL   +99999+99999MA1101701999990REMMET051METAR SBLP 101800Z 30008KT 9999 FEW030 32/08 Q1017=
0072832880999992013071019004-13262-043408FM-15+044399999V0203201N004119999999Y999999999+03201+00801999999ADDMA1101701999990REMMET045METAR SBLP 101900Z 32008KT CAVOK 32/08 Q1017=
0072832880999992013071020004-13262-043408FM-15+044399999V0203201N004119999999Y999999999+03101+00701999999ADDMA1101701999990REMMET045METAR SBLP 102000Z 32008KT CAVOK 31/07 Q1017=
0072832880999992013071021004-13262-043408FM-15+044399999V0203201N002119999999Y999999999+02801+00701999999ADDMA1101701999990REMMET045METAR SBLP 102100Z 32004KT CAVOK 28/07 Q1017=
0098832880999992013071100004-13260-043410FM-12+044099999V0201401N0015122000199002000199+02391+01081101621ADDAA101999990AZ101061AZ201061GF100991999999999999999999MA1999990096691MD1909990-0051REMSYN004BUFR
0072832880999992013071109154-13262-043408FM-16+044399999V0203601N003119999999Y999999999+01701+01401999999ADDMA1101901999990REMMET045SPECI SBLP 110915Z 36006KT CAVOK 17/14 Q1019=
0072832880999992013071110004-13262-043408FM-15+044399999V0200301N002119999999Y999999999+01701+01401999999ADDMA1102001999990REMMET045METAR SBLP 111000Z 03004KT CAVOK 17/14 Q1020=
0072832880999992013071111004-13262-043408FM-15+044399999V0203501N003119999999Y999999999+02001+01201999999ADDMA1102101999990REMMET045METAR SBLP 111100Z 35006KT CAVOK 20/12 Q1021=
0149832880999992013071112004-13260-043410FM-12+044099999V0201401N0031199999999020000199+02221+01471101871ADDAA101999990AZ101061AZ201061GA1021+008001081GE19MSL   +99999+99999GF102991999999999999999999KA1120N+01761MA1999990096911MD1909990-0011REMSYN004BUFR
0116832880999992013071112004-13262-043408FM-15+044399999V0203201N004119999999N009999199+02301+01401999999ADDGA1021+009141991GE19MSL   +99999+99999MA1102101999990REMMET051METAR SBLP 111200Z 32008KT 9999 FEW030 23/14 Q1021=
0116832880999992013071113004-13262-043408FM-15+044399999V0203301N005119999999N009999199+02501+01401999999ADDGA1021+006101991GE19MSL   +99999+99999MA1102101999990REMMET051METAR SBLP 111300Z 33010KT 9999 FEW020 25/14 Q1021=
0116832880999992013071114004-13262-043408FM-15+044399999V0203301N007219999999N009999199+02601+01301999999ADDGA1041+006101991GE19MSL   +99999+99999MA1102101999990REMMET051METAR SBLP 111400Z 33014KT 9999 SCT020 26/13 Q1021=
0116832880999992013071115004-13262-043408FM-15+044399999V0203001N005110061019N009999199+02701+01401999999ADDGA1071+006101991GE19MSL   +99999+99999MA1102001999990REMMET051METAR SBLP 111500Z 30010KT 9999 BKN020 27/14 Q1020=
0162832880999992013071116004-13262-043408FM-15+044399999V0203601N00311009141CN009999199+02701+01501999999ADDGA1021+006101991GA2041+009141991GA3071+030481991GE19MSL   +99999+99999MA1102001999990REMMET065METAR SBLP 111600Z 36006KT 9999 FEW020 SCT030 BKN100 27/15 Q1020=
0162832880999992013071117004-13262-043408FM-15+044399999V0203101N00511009141CN009999199+02801+01601999999ADDGA1021+006101991GA2041+009141991GA3071+030481991GE19MSL   +99999+99999MA1101801999990REMMET065METAR SBLP 111700Z 31010KT 9999 FEW020 SCT030 BKN100 28/16 Q1018=
0168832880999992013071118004-13260-043410FM-12+044099999V0201401N0015100800199020000199+02701+01511101501ADDAA101999990AZ101061AZ201061GA1081+008001081GA2991+999991101GA3991+999991101GE19MSL   +99999+99999GF108991999999999999999999MA1999990096561MD1909990+0111REMSYN004BUFR
0162832880999992013071118004-13262-043408FM-15+044399999V0202901N00511009141CN009999199+02801+01601999999ADDGA1021+006101991GA2041+009141991GA3071+030481991GE19MSL   +99999+99999MA1101801999990REMMET065METAR SBLP 111800Z 29010KT 9999 FEW020 SCT030 BKN100 28/16 Q1018=
0139832880999992013071119004-13262-043408FM-15+044399999V0203401N002610304819N009999199+02801+01401999999ADDGA1041+009141991GA2071+030481991GE19MSL   +99999+99999MA1101701999990REMMET058METAR SBLP 111900Z 34005KT 9999 SCT030 BKN100 28/14 Q1017=
0139832880999992013071120004-13262-043408FM-15+044399999V0203301N002110304819N009999199+02701+01501999999ADDGA1021+009141991GA2071+030481991GE19MSL   +99999+99999MA1101801999990REMMET058METAR SBLP 112000Z 33004KT 9999 FEW030 BKN100 27/15 Q1018=
0139832880999992013071121004-13262-043408FM-15+044399999V0203301N00261030481CN009999199+02601+01501999999ADDGA1021+009141991GA2041+030481991GE19MSL   +99999+99999MA1101801999990REMMET058METAR SBLP 112100Z 33005KT 9999 FEW030 SCT100 26/15 Q1018=
0136832880999992013071200004-13260-043410FM-12+044099999V0201401N0031100800199002000199+02471+01501101651ADDAA101999990AZ101061AZ201061GA1051+008001081GE19MSL   +99999+99999GF105991999999999999999999MA1999990096711MD1909990+0021REMSYN004BUFR
0072832880999992013071209154-13262-043408FM-16+044399999V0200101N002119999999Y999999999+02001+01601999999ADDMA1102001999990REMMET045SPECI SBLP 120915Z 01004KT CAVOK 20/16 Q1020=
0072832880999992013071210004-13262-043408FM-15+044399999V0200201N002119999999Y999999999+02101+01601999999ADDMA1102001999990REMMET045METAR SBLP 121000Z 02004KT CAVOK 21/16 Q1020=
0072832880999992013071211004-13262-043408FM-15+044399999V0200101N003119999999Y999999999+02201+01401999999ADDMA1102101999990REMMET045METAR SBLP 121100Z 01006KT CAVOK 22/14 Q1021=
0111832880999992013071212004-13260-043410FM-12+044099999V0201401N0021122000199020000199+02241+01481101871ADDAA101999990AZ101061AZ201061GF100991999999999999999999KA1120N+01961MA1999990096921MD1909990+0011REMSYN004BUFR
0139832880999992013071212004-13262-043408FM-15+044399999V0200101N00261030481CN009999199+02401+01501999999ADDGA1021+009141991GA2041+030481991GE19MSL   +99999+99999MA1102101999990REMMET058METAR SBLP 121200Z 01005KT 9999 FEW030 SCT100 24/15 Q1021=
0139832880999992013071213004-13262-043408FM-15+044399999V0203601N00311030481CN009999199+02601+01601999999ADDGA1041+009141991GA2041+030481991GE19MSL   +99999+99999MA1102101999990REMMET058METAR SBLP 121300Z 36006KT 9999 SCT030 SCT100 26/16 Q1021=
0116832880999992013071214004-13262-043408FM-15+044399999V0203501N004110091419N009999199+02701+01701999999ADDGA1071+009141991GE19MSL   +99999+99999MA1102101999990REMMET051METAR SBLP 121400Z 35008KT 9999 BKN030 27/17 Q1021=
0116832880999992013071215004-13262-043408FM-15+044399999V0203601N005110091419N009999199+02801+01601999999ADDGA1071+009141991GE19MSL   +99999+99999MA1102001999990REMMET051METAR SBLP 121500Z 36010KT 9999 BKN030 28/16 Q1020=
0116832880999992013071216004-13262-043408FM-15+044399999V0203501N004110091419N009999199+02801+01401999999ADDGA1071+009141991GE19MSL   +99999+99999MA1101901999990REMMET051METAR SBLP 121600Z 35008KT 9999 BKN030 28/14 Q1019=
0116832880999992013071217004-13262-043408FM-15+044399999V0203301N003110091419N009999199+02901+01401999999ADDGA1071+009141991GE19MSL   +99999+99999MA1101801999990REMMET051METAR SBLP 121700Z 33006KT 9999 BKN030 29/14 Q1018=
0136832880999992013071218004-13260-043410FM-12+044099999V0201401N0026100800199020000199+02871+01611101371ADDAA101999990AZ101061AZ201061GA1071+008001061GE19MSL   +99999+99999GF107991999999999999999999MA1999990096481MD1909990-0081REMSYN004BUFR
0116832880999992013071218004-13262-043408FM-15+044399999V0203201N003610091419N009999199+02901+01401999999ADDGA1071+009141991GE19MSL   +99999+99999MA1101701999990REMMET051METAR SBLP 121800Z 32007KT 9999 BKN030 29/14 Q1017=
0116832880999992013071219004-13262-043408FM-15+044399999V0203301N003110091419N009999199+03001+01401999999ADDGA1071+009141991GE19MSL   +99999+99999MA1101701999990REMMET051METAR SBLP 121900Z 33006KT 9999 BKN030 30/14 Q1017=
0116832880999992013071220004-13262-043408FM-15+044399999V0200101N002610091419N009999199+02901+01301999999ADDGA1071+009141991GE19MSL   +99999+99999MA1101701999990REMMET051METAR SBLP 122000Z 01005KT 9999 BKN030 29/13 Q1017=
0116832880999992013071221004-13262-043408FM-15+044399999V0200201N003119999999N009999199+02801+01401999999ADDGA1041+009141991GE19MSL   +99999+99999MA1101701999990REMMET051METAR SBLP 122100Z 02006KT 9999 SCT030 28/14 Q1017=
0098832880999992013071300004-13260-043410FM-12+044099999V0201401N0015122000199002000199+02451+01611101541ADDAA101999990AZ101061AZ201061GF100991999999999999999999MA1999990096601MD1909990-0111REMSYN004BUFR
0111832880999992013071312004-13260-043410FM-12+044099999V0200901N0010122000199020000199+02301+01661101821ADDAA101999990AZ101061AZ201061GF100991999999999999999999KA1120N+01921MA1999990096881MD1909990-0041REMSYN004BUFR
0152832880999992013071318004-13260-043410FM-12+044099999V0202301N0015100800199020000199+03171+01731101311ADDAA101999990AZ101061AZ201061GA1051+008001081GA2991+999991031GE19MSL   +99999+99999GF105991999999999999999999MA1999990096431MD1909990-0051REMSYN004BUFR
0152832880999992013071400004-13260-043410FM-12+044099999V0200901N0010199999999002000199+02621+01791101491ADDAA101999990AZ101061AZ201061GA1011+008001081GA2991+999991031GE19MSL   +99999+99999GF103991999999999999999999MA1999990096581MD1909990-0021REMSYN004BUFR
0111832880999992013071412004-13260-043410FM-12+044099999V0203601N0000122000199020000199+02521+01401101711ADDAA101999990AZ101061AZ201061GF100991999999999999999999KA1120N+02161MA1999990096811MD1909990+0071REMSYN004BUFR
0136832880999992013071418004-13260-043410FM-12+044099999V0202701N0021199999999020000199+03341+01491101101ADDAA101999990AZ101061AZ201061GA1991+025001001GE19MSL   +99999+99999GF102991999999999999999999MA1999990096281MD1909990-0151REMSYN004BUFR
0136832880999992013071500004-13260-043410FM-12+044099999V0201401N0010199999999002000199+02691+01321101391ADDAA101999990AZ101061AZ201061GA1991+025001001GE19MSL   +99999+99999GF101991999999999999999999MA1999990096511MD1909990-0071REMSYN004BUFR
0116832880999992013071509154-13262-043408FM-16+044399999V0209999C000019999999N009999199+02001+01501999999ADDGA1021+006101991GE19MSL   +99999+99999MA1101701999990REMMET051SPECI SBLP 150915Z 00000KT 9999 FEW020 20/15 Q1017=
0072832880999992013071510004-13262-043408FM-15+044399999V0209999C000019999999Y999999999+01901+01501999999ADDMA1101701999990REMMET045METAR SBLP 151000Z 00000KT CAVOK 19/15 Q1017=
0072832880999992013071511004-13262-043408FM-15+044399999V0209999C000019999999Y999999999+02301+01601999999ADDMA1101801999990REMMET045METAR SBLP 151100Z 00000KT CAVOK 23/16 Q1018=
0165832880999992013071512004-13260-043410FM-12+044099999V0200901N0010199999999020000199+02521+01591101541ADDAA101999990AZ101061AZ201061GA1011+008001081GA2991+999991001GE19MSL   +99999+99999GF103991999999999999999999KA1120N+02041MA1999990096651MD1909990-0161REMSYN004BUFR
0072832880999992013071512004-13262-043408FM-15+044399999V0202801N002119999999Y999999999+02601+01501999999ADDMA1101801999990REMMET045METAR SBLP 151200Z 28004KT CAVOK 26/15 Q1018=
0072832880999992013071513004-13262-043408FM-15+044399999V0202701N002619999999Y999999999+02901+01401999999ADDMA1101801999990REMMET045METAR SBLP 151300Z 27005KT CAVOK 29/14 Q1018=
0072832880999992013071514004-13262-043408FM-15+044399999V0203401N003119999999Y999999999+03001+01201999999ADDMA1101801999990REMMET045METAR SBLP 151400Z 34006KT CAVOK 30/12 Q1018=
0072832880999992013071515004-13262-043408FM-15+044399999V0200301N003119999999Y999999999+03201+01201999999ADDMA1101701999990REMMET045METAR SBLP 151500Z 03006KT CAVOK 32/12 Q1017=
0072832880999992013071516004-13262-043408FM-15+044399999V0200401N003119999999Y999999999+03301+01201999999ADDMA1101601999990REMMET045METAR SBLP 151600Z 04006KT CAVOK 33/12 Q1016=
0072832880999992013071517004-13262-043408FM-15+044399999V0203601N003119999999Y999999999+03401+01301999999ADDMA1101501999990REMMET045METAR SBLP 151700Z 36006KT CAVOK 34/13 Q1015=
0152832880999992013071518004-13260-043410FM-12+044099999V0202301N0015199999999020000199+03291+01591101051ADDAA101999990AZ101061AZ201061GA1021+008001081GA2991+999991001GE19MSL   +99999+99999GF104991999999999999999999MA1999990096231MD1909990-0051REMSYN004BUFR
0116832880999992013071518004-13262-043408FM-15+044399999V0200301N002119999999N009999199+03401+01301999999ADDGA1021+009141991GE19MSL   +99999+99999MA1101401999990REMMET051METAR SBLP 151800Z 03004KT 9999 FEW030 34/13 Q1014=
0116832880999992013071519004-13262-043408FM-15+044399999V0200601N002619999999N009999199+03501+01201999999ADDGA1041+009141991GE19MSL   +99999+99999MA1101401999990REMMET051METAR SBLP 151900Z 06005KT 9999 SCT030 35/12 Q1014=
0116832880999992013071520004-13262-043408FM-15+044399999V0200201N003119999999N009999199+03401+01201999999ADDGA1041+009141991GE19MSL   +99999+99999MA1101401999990REMMET051METAR SBLP 152000Z 02006KT 9999 SCT030 34/12 Q1014=
0116832880999992013071521004-13262-043408FM-15+044399999V0203601N003119999999N009999199+03001+01301999999ADDGA1021+009141991GE19MSL   +99999+99999MA1101401999990REMMET051METAR SBLP 152100Z 36006KT 9999 FEW030 30/13 Q1014=
0152832880999992013071600004-13260-043410FM-12+044099999V0201801N0010199999999002000199+02791+01521101241ADDAA101999990AZ101061AZ201061GA1031+008001081GA2991+999991031GE19MSL   +99999+99999GF105991999999999999999999MA1999990096371MD1909990-0141REMSYN004BUFR
0072832880999992013071609154-13262-043408FM-16+044399999V0209999C000019999999Y999999999+02001+01301999999ADDMA1101701999990REMMET045SPECI SBLP 160915Z 00000KT CAVOK 20/13 Q1017=
0072832880999992013071610004-13262-043408FM-15+044399999V0209999C000019999999Y999999999+02001+01301999999ADDMA1101701999990REMMET045METAR SBLP 161000Z 00000KT CAVOK 20/13 Q1017=
0072832880999992013071611004-13262-043408FM-15+044399999V0209999C000019999999Y999999999+02401+01401999999ADDMA1101801999990REMMET045METAR SBLP 161100Z 00000KT CAVOK 24/14 Q1018=
0111832880999992013071612004-13260-043410FM-12+044099999V0203601N0015122000199020000199+02571+01731101461ADDAA101999990AZ101061AZ201061GF100991999999999999999999KA1120N+02111MA1999990096601MD1909990-0051REMSYN004BUFR
0072832880999992013071612004-13262-043408FM-15+044399999V0200901N002119999999Y999999999+02701+01601999999ADDMA1101801999990REMMET045METAR SBLP 161200Z 09004KT CAVOK 27/16 Q1018=
0072832880999992013071613004-13262-043408FM-15+044399999V0200601N002119999999Y999999999+03001+01601999999ADDMA1101801999990REMMET045METAR SBLP 161300Z 06004KT CAVOK 30/16 Q1018=
0116832880999992013071615004-13262-043408FM-15+044399999V0200301N002119999999N009999199+03301+01701999999ADDGA1021+009141991GE19MSL   +99999+99999MA1101701999990REMMET051METAR SBLP 161500Z 03004KT 9999 FEW030 33/17 Q1017=
0116832880999992013071616004-13262-043408FM-15+044399999V0200301N002119999999N009999199+03301+01401999999ADDGA1041+009141991GE19MSL   +99999+99999MA1101601999990REMMET051METAR SBLP 161600Z 03004KT 9999 SCT030 33/14 Q1016=
0116832880999992013071617004-13262-043408FM-15+044399999V0203301N002119999999N009999199+03501+01301999999ADDGA1041+009141991GE19MSL   +99999+99999MA1101501999990REMMET051METAR SBLP 161700Z 33004KT 9999 SCT030 35/13 Q1015=
0136832880999992013071618004-13260-043410FM-12+044099999V0203201N0021199999999020000199+03421+01781101041ADDAA101999990AZ101061AZ201061GA1011+008001081GE19MSL   +99999+99999GF101991999999999999999999MA1999990096221MD1909990-0011REMSYN004BUFR
0116832880999992013071618004-13262-043408FM-15+044399999V0203301N003119999999N009999199+03501+01101999999ADDGA1021+009141991GE19MSL   +99999+99999MA1101401999990REMMET051METAR SBLP 161800Z 33006KT 9999 FEW030 35/11 Q1014=
0116832880999992013071619004-13262-043408FM-15+044399999V0203001N002119999999N009999199+03501+01101999999ADDGA1021+009141991GE19MSL   +99999+99999MA1101401999990REMMET051METAR SBLP 161900Z 30004KT 9999 FEW030 35/11 Q1014=
0116832880999992013071620004-13262-043408FM-15+044399999V0203001N002119999999N009999199+03401+01101999999ADDGA1021+009141991GE19MSL   +99999+99999MA1101401999990REMMET051METAR SBLP 162000Z 30004KT 9999 FEW030 34/11 Q1014=
0116832880999992013071621004-13262-043408FM-15+044399999V0209999C000019999999N009999199+03101+01301999999ADDGA1021+009141991GE19MSL   +99999+99999MA1101501999990REMMET051METAR SBLP 162100Z 00000KT 9999 FEW030 31/13 Q1015=
0072832880999992013071709154-13262-043408FM-16+044399999V0209999C000019999999Y999999999+02001+01301999999ADDMA1101801999990REMMET045SPECI SBLP 170915Z 00000KT CAVOK 20/13 Q1018=
0072832880999992013071710004-13262-043408FM-15+044399999V0209999C000019999999Y999999999+02001+01401999999ADDMA1101801999990REMMET045METAR SBLP 171000Z 00000KT CAVOK 20/14 Q1018=
0072832880999992013071711004-13262-043408FM-15+044399999V0209999C000019999999Y999999999+02201+01501999999ADDMA1101901999990REMMET045METAR SBLP 171100Z 00000KT CAVOK 22/15 Q1019=
0165832880999992013071712004-13260-043410FM-12+044099999V0201801N0005199999999020000199+02471+01691101621ADDAA101999990AZ101061AZ201061GA1011+008001081GA2991+999991001GE19MSL   +99999+99999GF102991999999999999999999KA1120N+02121MA1999990096741MD1909990+0141REMSYN004BUFR
0072832880999992013071712004-13262-043408FM-15+044399999V0203001N001019999999Y999999999+02601+01601999999ADDMA1102001999990REMMET045METAR SBLP 171200Z 30002KT CAVOK 26/16 Q1020=
0072832880999992013071713004-13262-043408FM-15+044399999V0202801N002119999999Y999999999+02901+01401999999ADDMA1101901999990REMMET045METAR SBLP 171300Z 28004KT CAVOK 29/14 Q1019=
0072832880999992013071714004-13262-043408FM-15+044399999V0209999C000019999999Y999999999+03101+01501999999ADDMA1101901999990REMMET045METAR SBLP 171400Z 00000KT CAVOK 31/15 Q1019=
0072832880999992013071715004-13262-043408FM-15+044399999V0203001N002119999999Y999999999+03201+01401999999ADDMA1101801999990REMMET045METAR SBLP 171500Z 30004KT CAVOK 32/14 Q1018=
0116832880999992013071716004-13262-043408FM-15+044399999V0209999C000019999999N009999199+03201+01301999999ADDGA1021+009141991GE19MSL   +99999+99999MA1101601999990REMMET051METAR SBLP 171600Z 00000KT 9999 FEW030 32/13 Q1016=
0116832880999992013071717004-13262-043408FM-15+044399999V0209999C000019999999N009999199+03401+01601999999ADDGA1021+009141991GE19MSL   +99999+99999MA1101501999990REMMET051METAR SBLP 171700Z 00000KT 9999 FEW030 34/16 Q1015=
0152832880999992013071718004-13260-043410FM-12+044099999V0201401N0015199999999020000199+03321+01331101081ADDAA101999990AZ101061AZ201061GA1031+008001081GA2991+999991001GE19MSL   +99999+99999GF105991999999999999999999MA1999990096251MD1909990-0031REMSYN004BUFR
0115832880999992013071718004-13262-043408FM-15+044399999V0202101N003119999999N009999199+03501+01401999999ADDGA1041+009141991GE19MSL   +99999+99999MA1101401999990REMMET050METAR SBLP 171800Z 21006KT 9999 SCT030 35/14Q1014=
0116832880999992013071719004-13262-043408FM-15+044399999V0202701N005119999999N009999199+03501+01401999999ADDGA1041+009141991GE19MSL   +99999+99999MA1101401999990REMMET051METAR SBLP 171900Z 27010KT 9999 SCT030 35/14 Q1014=
0116832880999992013071720004-13262-043408FM-15+044399999V0202301N002119999999N009999199+03201+01501999999ADDGA1041+009141991GE19MSL   +99999+99999MA1101401999990REMMET051METAR SBLP 172000Z 23004KT 9999 SCT030 32/15 Q1014=
0116832880999992013071721004-13262-043408FM-15+044399999V0202601N002119999999N009999199+03101+01401999999ADDGA1021+009141991GE19MSL   +99999+99999MA1101501999990REMMET051METAR SBLP 172100Z 26004KT 9999 FEW030 31/14 Q1015=
0098832880999992013071800004-13260-043410FM-12+044099999V0201401N0010122000199002000199+02601+01451101351ADDAA101999990AZ101061AZ201061GF100991999999999999999999MA1999990096461MD1909990+0041REMSYN004BUFR
0072832880999992013071809154-13262-043408FM-16+044399999V0209999C000019999999Y999999999+01901+01401999999ADDMA1101701999990REMMET045SPECI SBLP 180915Z 00000KT CAVOK 19/14 Q1017=
0072832880999992013071810004-13262-043408FM-15+044399999V0209999C000019999999Y999999999+02001+01501999999ADDMA1101801999990REMMET045METAR SBLP 181000Z 00000KT CAVOK 20/15 Q1018=
0072832880999992013071811004-13262-043408FM-15+044399999V0209999C000019999999Y999999999+02301+01501999999ADDMA1101901999990REMMET045METAR SBLP 181100Z 00000KT CAVOK 23/15 Q1019=
0111832880999992013071812004-13260-043410FM-12+044099999V0200901N0021122000199020000199+02491+01531101591ADDAA101999990AZ101061AZ201061GF100991999999999999999999KA1120N+02011MA1999990096691MD1909990-0051REMSYN004BUFR
0072832880999992013071812004-13262-043408FM-15+044399999V0202501N002619999999Y999999999+02601+01601999999ADDMA1101901999990REMMET045METAR SBLP 181200Z 25005KT CAVOK 26/16 Q1019=
0072832880999992013071813004-13262-043408FM-15+044399999V0202701N001519999999Y999999999+02801+01501999999ADDMA1101901999990REMMET045METAR SBLP 181300Z 27003KT CAVOK 28/15 Q1019=
0072832880999992013071814004-13262-043408FM-15+044399999V0202401N002119999999Y999999999+03001+01601999999ADDMA1101801999990REMMET045METAR SBLP 181400Z 24004KT CAVOK 30/16 Q1018=
0116832880999992013071815004-13262-043408FM-15+044399999V0202701N002119999999N009999199+03201+01501999999ADDGA1021+009141991GE19MSL   +99999+99999MA1101701999990REMMET051METAR SBLP 181500Z 27004KT 9999 FEW030 32/15 Q1017=
0116832880999992013071816004-13262-043408FM-15+044399999V0202601N002619999999N009999199+03301+01301999999ADDGA1021+009141991GE19MSL   +99999+99999MA1101601999990REMMET051METAR SBLP 181600Z 26005KT 9999 FEW030 33/13 Q1016=
0116832880999992013071817004-13262-043408FM-15+044399999V0203501N004119999999N009999199+03301+01301999999ADDGA1041+009141991GE19MSL   +99999+99999MA1101401999990REMMET051METAR SBLP 181700Z 35008KT 9999 SCT030 33/13 Q1014=
0136832880999992013071818004-13260-043410FM-12+044099999V0200901N0021199999999020000199+03251+01601101051ADDAA101999990AZ101061AZ201061GA1011+008001081GE19MSL   +99999+99999GF101991999999999999999999MA1999990096211MD1909990-0041REMSYN004BUFR
0116832880999992013071818004-13262-043408FM-15+044399999V0202501N002619999999N009999199+03501+01101999999ADDGA1041+009141991GE19MSL   +99999+99999MA1101401999990REMMET051METAR SBLP 181800Z 25005KT 9999 SCT030 35/11 Q1014=
0116832880999992013071819004-13262-043408FM-15+044399999V0203101N004119999999N009999199+03401+01101999999ADDGA1021+009141991GE19MSL   +99999+99999MA1101301999990REMMET051METAR SBLP 181900Z 31008KT 9999 FEW030 34/11 Q1013=
0116832880999992013071820004-13262-043408FM-15+044399999V0202701N003119999999N009999199+03301+01101999999ADDGA1021+009141991GE19MSL   +99999+99999MA1101401999990REMMET051METAR SBLP 182000Z 27006KT 9999 FEW030 33/11 Q1014=
0116832880999992013071821004-13262-043408FM-15+044399999V0202901N002619999999N009999199+03101+01101999999ADDGA1021+009141991GE19MSL   +99999+99999MA1101401999990REMMET051METAR SBLP 182100Z 29005KT 9999 FEW030 31/11 Q1014=
0072832880999992013071909154-13262-043408FM-16+044399999V0209999C000019999999Y999999999+01901+01301999999ADDMA1101701999990REMMET045SPECI SBLP 190915Z 00000KT CAVOK 19/13 Q1017=
0072832880999992013071910004-13262-043408FM-15+044399999V0209999C000019999999Y999999999+01801+01401999999ADDMA1101801999990REMMET045METAR SBLP 191000Z 00000KT CAVOK 18/14 Q1018=
0072832880999992013071911004-13262-043408FM-15+044399999V0209999C000019999999Y999999999+02001+01501999999ADDMA1101801999990REMMET045METAR SBLP 191100Z 00000KT CAVOK 20/15 Q1018=
0111832880999992013071912004-13260-043410FM-12+044099999V0202301N0005122000199020000199+02301+01591101611ADDAA101999990AZ101061AZ201061GF100991999999999999999999KA1120N+01841MA1999990096701MD1909990+0011REMSYN004BUFR
0072832880999992013071912004-13262-043408FM-15+044399999V0209999C000019999999Y999999999+02401+01401999999ADDMA1101901999990REMMET045METAR SBLP 191200Z 00000KT CAVOK 24/14 Q1019=
0072832880999992013071913004-13262-043408FM-15+044399999V0200401N002619999999Y999999999+02701+01401999999ADDMA1101901999990REMMET045METAR SBLP 191300Z 04005KT CAVOK 27/14 Q1019=
0072832880999992013071914004-13262-043408FM-15+044399999V0202401N002119999999Y999999999+03101+01201999999ADDMA1101801999990REMMET045METAR SBLP 191400Z 24004KT CAVOK 31/12 Q1018=
0072832880999992013071915004-13262-043408FM-15+044399999V0202401N003619999999Y999999999+03301+01001999999ADDMA1101601999990REMMET045METAR SBLP 191500Z 24007KT CAVOK 33/10 Q1016=
0072832880999992013071916004-13262-043408FM-15+044399999V0202501N004119999999Y999999999+03502+00601999999ADDMA1101501999990REMMET045METAR SBLP 191600Z 25008KT CAVOK 35/06 Q1015=
0072832880999992013071917004-13262-043408FM-15+044399999V0203001N005119999999Y999999999+03501+00701999999ADDMA1101401999990REMMET045METAR SBLP 191700Z 30010KT CAVOK 35/07 Q1014=
0098832880999992013071918004-13260-043410FM-12+044099999V0201801N0026122000199020000199+03391+00921100931ADDAA101999990AZ101061AZ201061GF100991999999999999999999MA1999990096111MD1909990-0101REMSYN004BUFR
0072832880999992013071918004-13262-043408FM-15+044399999V0202901N005119999999Y999999999+03501+00601999999ADDMA1101301999990REMMET045METAR SBLP 191800Z 29010KT CAVOK 35/06 Q1013=
0072832880999992013071919004-13262-043408FM-15+044399999V0203201N003119999999Y999999999+03501+00501999999ADDMA1101301999990REMMET045METAR SBLP 191900Z 32006KT CAVOK 35/05 Q1013=
0072832880999992013071920004-13262-043408FM-15+044399999V0202801N004119999999Y999999999+03401+00601999999ADDMA1101301999990REMMET045METAR SBLP 192000Z 28008KT CAVOK 34/06 Q1013=
0072832880999992013071921004-13262-043408FM-15+044399999V0202901N003619999999Y999999999+03201+00601999999ADDMA1101301999990REMMET045METAR SBLP 192100Z 29007KT CAVOK 32/06 Q1013=
0098832880999992013072000004-13260-043410FM-12+044099999V0201801N0010122000199002000199+02721+01051101201ADDAA101999990AZ101061AZ201061GF100991999999999999999999MA1999990096321MD1909990-0131REMSYN004BUFR
0111832880999992013072012004-13260-043410FM-12+044099999V0203601N0000122000199020000199+02491+01801101441ADDAA101999990AZ101061AZ201061GF100991999999999999999999KA1120N+01921MA1999990096551MD1909990-0151REMSYN004BUFR
0098832880999992013072018004-13260-043410FM-12+044099999V0200501N0026122000199020000199+03391+01641100861ADDAA101999990AZ101061AZ201061GF100991999999999999999999MA1999990096031MD1909990-0081REMSYN004BUFR
0111832880999992013072112004-13260-043410FM-12+044099999V0203601N0000122000199020000199+02521+01801101441ADDAA101999990AZ101061AZ201061GF100991999999999999999999KA1120N+02061MA1999990096561MD1909990+0011REMSYN004BUFR
0136832880999992013072118004-13260-043410FM-12+044099999V0202301N0010199999999020000199+03421+01611100921ADDAA101999990AZ101061AZ201061GA1011+008001081GE19MSL   +99999+99999GF101991999999999999999999MA1999990096121MD1909990+0091REMSYN004BUFR
0072832880999992013072209154-13262-043408FM-16+044399999V0209999C000019999999Y999999999+02001+01501999999ADDMA1101601999990REMMET045SPECI SBLP 220915Z 00000KT CAVOK 20/15 Q1016=
0072832880999992013072210004-13262-043408FM-15+044399999V0209999C000019999999Y999999999+02001+01401999999ADDMA1101601999990REMMET045METAR SBLP 221000Z 00000KT CAVOK 20/14 Q1016=
0072832880999992013072211004-13262-043408FM-15+044399999V0209999C000019999999Y999999999+02201+01501999999ADDMA1101701999990REMMET045METAR SBLP 221100Z 00000KT CAVOK 22/15 Q1017=
0111832880999992013072212004-13260-043410FM-12+044099999V0203601N0000122000199020000199+02491+01831101441ADDAA101999990AZ101061AZ201061GF100991999999999999999999KA1120N+02041MA1999990096581MD1909990+0021REMSYN004BUFR
0072832880999992013072212004-13262-043408FM-15+044399999V0209999C000019999999Y999999999+02701+01701999999ADDMA1101801999990REMMET045METAR SBLP 221200Z 00000KT CAVOK 27/17 Q1018=
0072832880999992013072213004-13262-043408FM-15+044399999V0209999C000019999999Y999999999+03001+01501999999ADDMA1101801999990REMMET045METAR SBLP 221300Z 00000KT CAVOK 30/15 Q1018=
0072832880999992013072214004-13262-043408FM-15+044399999V0203601N003119999999Y999999999+03101+01601999999ADDMA1101701999990REMMET045METAR SBLP 221400Z 36006KT CAVOK 31/16 Q1017=
0072832880999992013072215004-13262-043408FM-15+044399999V0203301N003119999999Y999999999+03301+01601999999ADDMA1101601999990REMMET045METAR SBLP 221500Z 33006KT CAVOK 33/16 Q1016=
0116832880999992013072216004-13262-043408FM-15+044399999V0203101N005119999999N009999199+03501+01101999999ADDGA1021+009141991GE19MSL   +99999+99999MA1101401999990REMMET051METAR SBLP 221600Z 31010KT 9999 FEW030 35/11 Q1014=
0116832880999992013072217004-13262-043408FM-15+044399999V0202401N004119999999N009999199+03601+01001999999ADDGA1021+009141991GE19MSL   +99999+99999MA1101301999990REMMET051METAR SBLP 221700Z 24008KT 9999 FEW030 36/10 Q1013=
0136832880999992013072218004-13260-043410FM-12+044099999V0202301N0015199999999020000199+03521+01341100781ADDAA101999990AZ101061AZ201061GA1041+008001081GE19MSL   +99999+99999GF104991999999999999999999MA1999990096011MD1909990-0111REMSYN004BUFR
0116832880999992013072218004-13262-043408FM-15+044399999V0203001N003619999999N009999199+03701+00901999999ADDGA1021+009141991GE19MSL   +99999+99999MA1101201999990REMMET051METAR SBLP 221800Z 30007KT 9999 FEW030 37/09 Q1012=
0116832880999992013072219004-13262-043408FM-15+044399999V0203201N003119999999N009999199+03601+00901999999ADDGA1021+009141991GE19MSL   +99999+99999MA1101201999990REMMET051METAR SBLP 221900Z 32006KT 9999 FEW030 36/09 Q1012=
0116832880999992013072220004-13262-043408FM-15+044399999V0203001N004119999999N009999199+03501+00801999999ADDGA1021+009141991GE19MSL   +99999+99999MA1101201999990REMMET051METAR SBLP 222000Z 30008KT 9999 FEW030 35/08 Q1012=
0116832880999992013072221004-13262-043408FM-15+044399999V0203101N003119999999N009999199+03301+00901999999ADDGA1021+009141991GE19MSL   +99999+99999MA1101201999990REMMET051METAR SBLP 222100Z 31006KT 9999 FEW030 33/09 Q1012=
0098832880999992013072300004-13260-043410FM-12+044099999V0200901N0010122000199002000199+02771+01321101081ADDAA101999990AZ101061AZ201061GF100991999999999999999999MA1999990096211MD1909990-0151REMSYN004BUFR
0072832880999992013072309154-13262-043408FM-16+044399999V0209999C000019999999Y999999999+02001+01401999999ADDMA1101501999990REMMET045SPECI SBLP 230915Z 00000KT CAVOK 20/14 Q1015=
0072832880999992013072310004-13262-043408FM-15+044399999V0209999C000019999999Y999999999+01901+01401999999ADDMA1101601999990REMMET045METAR SBLP 231000Z 00000KT CAVOK 19/14 Q1016=
0072832880999992013072311004-13262-043408FM-15+044399999V0209999C000019999999Y999999999+02201+01401999999ADDMA1101701999990REMMET045METAR SBLP 231100Z 00000KT CAVOK 22/14 Q1017=
0111832880999992013072312004-13260-043410FM-12+044099999V0203201N0010122000199020000199+02521+01691101401ADDAA101999990AZ101061AZ201061GF100991999999999999999999KA1120N+02011MA1999990096531MD1909990-0051REMSYN004BUFR
0072832880999992013072312004-13262-043408FM-15+044399999V0201901N001519999999Y999999999+02601+01401999999ADDMA1101701999990REMMET045METAR SBLP 231200Z 19003KT CAVOK 26/14 Q1017=
0072832880999992013072313004-13262-043408FM-15+044399999V0209999C000019999999Y999999999+02901+01301999999ADDMA1101701999990REMMET045METAR SBLP 231300Z 00000KT CAVOK 29/13 Q1017=
0072832880999992013072314004-13262-043408FM-15+044399999V0209999C000019999999Y999999999+03101+01401999999ADDMA1101701999990REMMET045METAR SBLP 231400Z 00000KT CAVOK 31/14 Q1017=
0072832880999992013072315004-13262-043408FM-15+044399999V0201201N002119999999Y999999999+03201+01301999999ADDMA1101501999990REMMET045METAR SBLP 231500Z 12004KT CAVOK 32/13 Q1015=
0116832880999992013072316004-13262-043408FM-15+044399999V0200901N001519999999N009999199+03301+01501999999ADDGA1021+009141991GE19MSL   +99999+99999MA1101401999990REMMET051METAR SBLP 231600Z 09003KT 9999 FEW030 33/15 Q1014=
0116832880999992013072317004-13262-043408FM-15+044399999V0203401N002119999999N009999199+03401+01401999999ADDGA1021+009141991GE19MSL   +99999+99999MA1101301999990REMMET051METAR SBLP 231700Z 34004KT 9999 FEW030 34/14 Q1013=
0098832880999992013072318004-13260-043410FM-12+044099999V0201401N0015122000199020000199+03441+01631100781ADDAA101999990AZ101061AZ201061GF100991999999999999999999MA1999990095971MD1909990-0041REMSYN004BUFR
0116832880999992013072318004-13262-043408FM-15+044399999V0200901N002619999999N009999199+03601+01301999999ADDGA1021+009141991GE19MSL   +99999+99999MA1101201999990REMMET051METAR SBLP 231800Z 09005KT 9999 FEW030 36/13 Q1012=
0116832880999992013072319004-13262-043408FM-15+044399999V0200301N002619999999N009999199+03601+01301999999ADDGA1021+009141991GE19MSL   +99999+99999MA1101101999990REMMET051METAR SBLP 231900Z 03005KT 9999 FEW030 36/13 Q1011=
0116832880999992013072320004-13262-043408FM-15+044399999V0200101N002119999999N009999199+03501+01201999999ADDGA1021+009141991GE19MSL   +99999+99999MA1101101999990REMMET051METAR SBLP 232000Z 01004KT 9999 FEW030 35/12 Q1011=
0072832880999992013072321004-13262-043408FM-15+044399999V0200101N001519999999Y999999999+03201+01301999999ADDMA1101201999990REMMET045METAR SBLP 232100Z 01003KT CAVOK 32/13 Q1012=
0098832880999992013072400004-13260-043410FM-12+044099999V0201801N0015122000199002000199+02841+01601100981ADDAA101999990AZ101061AZ201061GF100991999999999999999999MA1999990096141MD1909990-0071REMSYN004BUFR
0072832880999992013072409154-13262-043408FM-16+044399999V0209999C000019999999Y999999999+02001+01501999999ADDMA1101601999990REMMET045SPECI SBLP 240915Z 00000KT CAVOK 20/15 Q1016=
0072832880999992013072410004-13262-043408FM-15+044399999V0209999C000019999999Y999999999+02101+01501999999ADDMA1101601999990REMMET045METAR SBLP 241000Z 00000KT CAVOK 21/15 Q1016=
0072832880999992013072411004-13262-043408FM-15+044399999V0203101N001519999999Y999999999+02401+01601999999ADDMA1101701999990REMMET045METAR SBLP 241100Z 31003KT CAVOK 24/16 Q1017=
0111832880999992013072412004-13260-043410FM-12+044099999V0200901N0015122000199020000199+02641+01671101391ADDAA101999990AZ101061AZ201061GF100991999999999999999999KA1120N+02041MA1999990096541MD1909990+0011REMSYN004BUFR
0072832880999992013072412004-13262-043408FM-15+044399999V0202801N002119999999Y999999999+02801+01601999999ADDMA1101801999990REMMET045METAR SBLP 241200Z 28004KT CAVOK 28/16 Q1018=
0072832880999992013072413004-13262-043408FM-15+044399999V0209999C000019999999Y999999999+03001+01401999999ADDMA1101801999990REMMET045METAR SBLP 241300Z 00000KT CAVOK 30/14 Q1018=
0072832880999992013072414004-13262-043408FM-15+044399999V0202901N002119999999Y999999999+03101+01701999999ADDMA1101801999990REMMET045METAR SBLP 241400Z 29004KT CAVOK 31/17 Q1018=
0072832880999992013072415004-13262-043408FM-15+044399999V0209999C000019999999Y999999999+03201+01501999999ADDMA1101601999990REMMET045METAR SBLP 241500Z 00000KT CAVOK 32/15 Q1016=
0116832880999992013072416004-13262-043408FM-15+044399999V0209999C000019999999N009999199+03401+01201999999ADDGA1021+009141991GE19MSL   +99999+99999MA1101501999990REMMET051METAR SBLP 241600Z 00000KT 9999 FEW030 34/12 Q1015=
0116832880999992013072417004-13262-043408FM-15+044399999V0203001N002619999999N009999199+03601+01101999999ADDGA1021+009141991GE19MSL   +99999+99999MA1101401999990REMMET051METAR SBLP 241700Z 30005KT 9999 FEW030 36/11 Q1014=
0136832880999992013072418004-13260-043410FM-12+044099999V0202301N0005199999999020000199+03421+01701100971ADDAA101999990AZ101061AZ201061GA1031+008001081GE19MSL   +99999+99999GF103991999999999999999999MA1999990096171MD1909990+0201REMSYN004BUFR
0116832880999992013072418004-13262-043408FM-15+044399999V0209999C000019999999N009999199+03601+01001999999ADDGA1021+009141991GE19MSL   +99999+99999MA1101401999990REMMET051METAR SBLP 241800Z 00000KT 9999 FEW030 36/10 Q1014=
0116832880999992013072419004-13262-043408FM-15+044399999V0200101N003119999999N009999199+03501+00802999999ADDGA1021+009141991GE19MSL   +99999+99999MA1101301999990REMMET051METAR SBLP 241900Z 01006KT 9999 FEW030 35/08 Q1013=
0116832880999992013072420004-13262-043408FM-15+044399999V0200201N003119999999N009999199+03501+01001999999ADDGA1021+009141991GE19MSL   +99999+99999MA1101401999990REMMET051METAR SBLP 242000Z 02006KT 9999 FEW030 35/10 Q1014=
0072832880999992013072421004-13262-043408FM-15+044399999V0203501N002619999999Y999999999+03201+00901999999ADDMA1101401999990REMMET045METAR SBLP 242100Z 35005KT CAVOK 32/09 Q1014=
0098832880999992013072500004-13260-043410FM-12+044099999V0201401N0015122000199020000199+02671+01451101111ADDAA101999990AZ101061AZ201061GF100991999999999999999999MA1999990096261MD1909990+0121REMSYN004BUFR
0072832880999992013072509154-13262-043408FM-16+044399999V0202901N002119999999Y999999999+02001+01401999999ADDMA1102001999990REMMET045SPECI SBLP 250915Z 29004KT CAVOK 20/14 Q1020=
0072832880999992013072510004-13262-043408FM-15+044399999V0203301N002619999999Y999999999+02001+01201999999ADDMA1102001999990REMMET045METAR SBLP 251000Z 33005KT CAVOK 20/12 Q1020=
0072832880999992013072511004-13262-043408FM-15+044399999V0203501N003119999999Y999999999+02301+01201999999ADDMA1102101999990REMMET045METAR SBLP 251100Z 35006KT CAVOK 23/12 Q1021=
0111832880999992013072512004-13260-043410FM-12+044099999V0201401N0015122000199020000199+02521+01381101801ADDAA101999990AZ101061AZ201061GF100991999999999999999999KA1120N+02021MA1999990096901MD1909990+0361REMSYN004BUFR
0072832880999992013072512004-13262-043408FM-15+044399999V0200101N003619999999Y999999999+02701+01101999999ADDMA1102101999990REMMET045METAR SBLP 251200Z 01007KT CAVOK 27/11 Q1021=
0072832880999992013072513004-13262-043408FM-15+044399999V0203201N003119999999Y999999999+02901+00901999999ADDMA1102101999990REMMET045METAR SBLP 251300Z 32006KT CAVOK 29/09 Q1021=
0072832880999992013072514004-13262-043408FM-15+044399999V0200301N003119999999Y999999999+03101+01101999999ADDMA1102001999990REMMET045METAR SBLP 251400Z 03006KT CAVOK 31/11 Q1020=
0072832880999992013072515004-13262-043408FM-15+044399999V0202701N001519999999Y999999999+03201+01001999999ADDMA1101901999990REMMET045METAR SBLP 251500Z 27003KT CAVOK 32/10 Q1019=
0072832880999992013072516004-13262-043408FM-15+044399999V0200901N003119999999Y999999999+03201+01101999999ADDMA1101801999990REMMET045METAR SBLP 251600Z 09006KT CAVOK 32/11 Q1018=
0072832880999992013072517004-13262-043408FM-15+044399999V0209999C000019999999Y999999999+03401+00901999999ADDMA1101701999990REMMET045METAR SBLP 251700Z 00000KT CAVOK 34/09 Q1017=
0098832880999992013072518004-13260-043410FM-12+044099999V0201401N0010122000199020000199+03351+01561101241ADDAA101999990AZ101061AZ201061GF100991999999999999999999MA1999990096411MD1909990+0241REMSYN004BUFR
0072832880999992013072518004-13262-043408FM-15+044399999V0201201N003119999999Y999999999+03401+01401999999ADDMA1101601999990REMMET045METAR SBLP 251800Z 12006KT CAVOK 34/14 Q1016=
0072832880999992013072519004-13262-043408FM-15+044399999V0200701N002619999999Y999999999+03501+00801999999ADDMA1101601999990REMMET045METAR SBLP 251900Z 07005KT CAVOK 35/08 Q1016=
0072832880999992013072520004-13262-043408FM-15+044399999V0209999C000019999999Y999999999+03401+00701999999ADDMA1101601999990REMMET045METAR SBLP 252000Z 00000KT CAVOK 34/07 Q1016=
0072832880999992013072521004-13262-043408FM-15+044399999V0209999C000019999999Y999999999+03101+01001999999ADDMA1101701999990REMMET045METAR SBLP 252100Z 00000KT CAVOK 31/10 Q1017=
0098832880999992013072600004-13260-043410FM-12+044099999V0202301N0010122000199002000199+02621+01251101481ADDAA101999990AZ101061AZ201061GF100991999999999999999999MA1999990096591MD1909990+0331REMSYN004BUFR
0072832880999992013072609154-13262-043408FM-16+044399999V0209999C000019999999Y999999999+01701+01101999999ADDMA1102001999990REMMET045SPECI SBLP 260915Z 00000KT CAVOK 17/11 Q1020=
0072832880999992013072610004-13262-043408FM-15+044399999V0209999C000019999999Y999999999+01801+01101999999ADDMA1102101999990REMMET045METAR SBLP 261000Z 00000KT CAVOK 18/11 Q1021=
0072832880999992013072611004-13262-043408FM-15+044399999V0209999C000019999999Y999999999+02101+01201999999ADDMA1102201999990REMMET045METAR SBLP 261100Z 00000KT CAVOK 21/12 Q1022=
0111832880999992013072612004-13260-043410FM-12+044099999V0202301N0010122000199020000199+02301+01511101941ADDAA101999990AZ101061AZ201061GF100991999999999999999999KA1120N+01851MA1999990097001MD1909990+0101REMSYN004BUFR
0072832880999992013072612004-13262-043408FM-15+044399999V0209999C000019999999Y999999999+02501+01401999999ADDMA1102201999990REMMET045METAR SBLP 261200Z 00000KT CAVOK 25/14 Q1022=
0072832880999992013072613004-13262-043408FM-15+044399999V0209999C000019999999Y999999999+02901+01401999999ADDMA1102201999990REMMET045METAR SBLP 261300Z 00000KT CAVOK 29/14 Q1022=
0072832880999992013072614004-13262-043408FM-15+044399999V0200901N002119999999Y999999999+03201+01401999999ADDMA1102101999990REMMET045METAR SBLP 261400Z 09004KT CAVOK 32/14 Q1021=
0116832880999992013072615004-13262-043408FM-15+044399999V0209999C000019999999N009999199+03301+01201999999ADDGA1021+009141991GE19MSL   +99999+99999MA1102001999990REMMET051METAR SBLP 261500Z 00000KT 9999 FEW030 33/12 Q1020=
0116832880999992013072616004-13262-043408FM-15+044399999V0200701N003119999999N009999199+03502+00901999999ADDGA1021+009141991GE19MSL   +99999+99999MA1101901999990REMMET051METAR SBLP 261600Z 07006KT 9999 FEW030 35/09 Q1019=
0116832880999992013072617004-13262-043408FM-15+044399999V0201001N004119999999N009999199+03501+00801999999ADDGA1021+009141991GE19MSL   +99999+99999MA1101801999990REMMET051METAR SBLP 261700Z 10008KT 9999 FEW030 35/08 Q1018=
0136832880999992013072618004-13260-043410FM-12+044099999V0201801N0015199999999020000199+03441+01381101361ADDAA101999990AZ101061AZ201061GA1041+008001081GE19MSL   +99999+99999GF104991999999999999999999MA1999990096501MD1909990+0091REMSYN004BUFR
0139832880999992013072618004-13262-043408FM-15+044399999V0200901N00311030481CN009999199+03501+00901999999ADDGA1021+009141991GA2041+030481991GE19MSL   +99999+99999MA1101701999990REMMET058METAR SBLP 261800Z 09006KT 9999 FEW030 SCT100 35/09 Q1017=
0139832880999992013072619004-13262-043408FM-15+044399999V0200401N003610304819N009999199+03401+00901999999ADDGA1041+009141991GA2071+030481991GE19MSL   +99999+99999MA1101701999990REMMET058METAR SBLP 261900Z 04007KT 9999 SCT030 BKN100 34/09 Q1017=
0139832880999992013072620004-13262-043408FM-15+044399999V0200501N003110304819N009999199+03301+00901999999ADDGA1041+009141991GA2071+030481991GE19MSL   +99999+99999MA1101701999990REMMET058METAR SBLP 262000Z 05006KT 9999 SCT030 BKN100 33/09 Q1017=
0139832880999992013072621004-13262-043408FM-15+044399999V0200201N00261030481CN009999199+03201+00901999999ADDGA1021+009141991GA2041+030481991GE19MSL   +99999+99999MA1101701999990REMMET058METAR SBLP 262100Z 02005KT 9999 FEW030 SCT100 32/09 Q1017=
0136832880999992013072700004-13260-043410FM-12+044099999V0200901N0031199999999002000199+02821+01771101561ADDAA101999990AZ101061AZ201061GA1031+017501031GE19MSL   +99999+99999GF103991999999999999999999MA1999990096661MD1909990+0071REMSYN004BUFR
0149832880999992013072712004-13260-043410FM-12+044099999V0201401N0010199999999020000199+02501+01731101741ADDAA101999990AZ101061AZ201061GA1031+012501031GE19MSL   +99999+99999GF103991999999999999999999KA1120N+02111MA1999990096861MD1909990-0141REMSYN004BUFR
0136832880999992013072718004-13260-043410FM-12+044099999V0201401N0015100800199020000199+03221+01481101181ADDAA101999990AZ101061AZ201061GA1051+008001081GE19MSL   +99999+99999GF105991999999999999999999MA1999990096371MD1909990-0131REMSYN004BUFR
0149832880999992013072812004-13260-043410FM-12+044099999V0201801N0015199999999020000199+02401+01641101711ADDAA101999990AZ101061AZ201061GA1021+008001081GE19MSL   +99999+99999GF102991999999999999999999KA1120N+02001MA1999990096801MD1909990-0061REMSYN004BUFR
0136832880999992013072818004-13260-043410FM-12+044099999V0202301N0005199999999020000199+03271+01581101161ADDAA101999990AZ101061AZ201061GA1011+008001081GE19MSL   +99999+99999GF101991999999999999999999MA1999990096331MD1909990-0041REMSYN004BUFR
0072832880999992013072909154-13262-043408FM-16+044399999V0209999C000019999999Y999999999+01901+01401999999ADDMA1101901999990REMMET045SPECI SBLP 290915Z 00000KT CAVOK 19/14 Q1019=
0072832880999992013072910004-13262-043408FM-15+044399999V0209999C000019999999Y999999999+01901+01401999999ADDMA1101901999990REMMET045METAR SBLP 291000Z 00000KT CAVOK 19/14 Q1019=
0072832880999992013072911004-13262-043408FM-15+044399999V0200101N001519999999Y999999999+02301+01601999999ADDMA1102001999990REMMET045METAR SBLP 291100Z 01003KT CAVOK 23/16 Q1020=
0111832880999992013072912004-13260-043410FM-12+044099999V0201401N0015122000199020000199+02521+01791101771ADDAA101999990AZ101061AZ201061GF100991999999999999999999KA1120N+01991MA1999990096871MD1909990+0071REMSYN004BUFR
0072832880999992013072912004-13262-043408FM-15+044399999V0203501N004119999999Y999999999+02701+01601999999ADDMA1102101999990REMMET045METAR SBLP 291200Z 35008KT CAVOK 27/16 Q1021=
0072832880999992013072913004-13262-043408FM-15+044399999V0200201N003619999999Y999999999+02901+01501999999ADDMA1102101999990REMMET045METAR SBLP 291300Z 02007KT CAVOK 29/15 Q1021=
0116832880999992013072914004-13262-043408FM-15+044399999V0200401N003119999999N009999199+03001+01501999999ADDGA1021+009141991GE19MSL   +99999+99999MA1102001999990REMMET051METAR SBLP 291400Z 04006KT 9999 FEW030 30/15 Q1020=
0116832880999992013072915004-13262-043408FM-15+044399999V0200101N003619999999N009999199+03201+01501999999ADDGA1021+009141991GE19MSL   +99999+99999MA1101901999990REMMET051METAR SBLP 291500Z 01007KT 9999 FEW030 32/15 Q1019=
0116832880999992013072916004-13262-043408FM-15+044399999V0200601N004119999999N009999199+03301+01701999999ADDGA1041+009141991GE19MSL   +99999+99999MA1101801999990REMMET051METAR SBLP 291600Z 06008KT 9999 SCT030 33/17 Q1018=
0116832880999992013072917004-13262-043408FM-15+044399999V0200901N002619999999N009999199+03401+01401999999ADDGA1041+009141991GE19MSL   +99999+99999MA1101701999990REMMET051METAR SBLP 291700Z 09005KT 9999 SCT030 34/14 Q1017=
0136832880999992013072918004-13260-043410FM-12+044099999V0201401N0021199999999020000199+03201+01421101301ADDAA101999990AZ101061AZ201061GA1031+008001081GE19MSL   +99999+99999GF103991999999999999999999MA1999990096451MD1909990+0121REMSYN004BUFR
0116832880999992013072918004-13262-043408FM-15+044399999V0200501N002619999999N009999199+03401+01301999999ADDGA1041+009141991GE19MSL   +99999+99999MA1101601999990REMMET051METAR SBLP 291800Z 05005KT 9999 SCT030 34/13 Q1016=
0116832880999992013072919004-13262-043408FM-15+044399999V0200501N002619999999N009999199+03401+01301999999ADDGA1041+009141991GE19MSL   +99999+99999MA1101601999990REMMET051METAR SBLP 291900Z 05005KT 9999 SCT030 34/13 Q1016=
0116832880999992013072920004-13262-043408FM-15+044399999V0200501N004119999999N009999199+03301+01201999999ADDGA1021+009141991GE19MSL   +99999+99999MA1101701999990REMMET051METAR SBLP 292000Z 05008KT 9999 FEW030 33/12 Q1017=
0072832880999992013072921004-13262-043408FM-15+044399999V0200101N002619999999Y999999999+03101+01301999999ADDMA1101701999990REMMET045METAR SBLP 292100Z 01005KT CAVOK 31/13 Q1017=
0098832880999992013073000004-13260-043410FM-12+044099999V0201401N0015122000199002000199+02591+01521101561ADDAA101999990AZ101061AZ201061GF100991999999999999999999MA1999990096661MD1909990+0191REMSYN004BUFR
0072832880999992013073009154-13262-043408FM-16+044399999V0209999C000019999999Y999999999+01901+01501999999ADDMA1102001999990REMMET045SPECI SBLP 300915Z 00000KT CAVOK 19/15 Q1020=
0072832880999992013073010004-13262-043408FM-15+044399999V0209999C000019999999Y999999999+02101+01501999999ADDMA1102001999990REMMET045METAR SBLP 301000Z 00000KT CAVOK 21/15 Q1020=
0072832880999992013073011004-13262-043408FM-15+044399999V0209999C000019999999Y999999999+02101+01501999999ADDMA1102101999990REMMET045METAR SBLP 301100Z 00000KT CAVOK 21/15 Q1021=
0111832880999992013073012004-13260-043410FM-12+044099999V0203601N0000122000199020000199+02441+01711101841ADDAA101999990AZ101061AZ201061GF100991999999999999999999KA1120N+01921MA1999990096921MD1909990+0051REMSYN004BUFR
0072832880999992013073012004-13262-043408FM-15+044399999V0209999C000019999999Y999999999+02601+01501999999ADDMA1102201999990REMMET045METAR SBLP 301200Z 00000KT CAVOK 26/15 Q1022=
0072832880999992013073013004-13262-043408FM-15+044399999V0203301N002619999999Y999999999+02901+01501999999ADDMA1102201999990REMMET045METAR SBLP 301300Z 33005KT CAVOK 29/15 Q1022=
0072832880999992013073014004-13262-043408FM-15+044399999V0200101N002619999999Y999999999+03101+01701999999ADDMA1102101999990REMMET045METAR SBLP 301400Z 01005KT CAVOK 31/17 Q1021=
0116832880999992013073015004-13262-043408FM-15+044399999V0201001N002619999999N009999199+03301+01401999999ADDGA1021+009141991GE19MSL   +99999+99999MA1102001999990REMMET051METAR SBLP 301500Z 10005KT 9999 FEW030 33/14 Q1020=
0116832880999992013073016004-13262-043408FM-15+044399999V0200301N003119999999N009999199+03201+01101999999ADDGA1021+009141991GE19MSL   +99999+99999MA1101901999990REMMET051METAR SBLP 301600Z 03006KT 9999 FEW030 32/11 Q1019=
0116832880999992013073017004-13262-043408FM-15+044399999V0200601N002119999999N009999199+03401+01001999999ADDGA1021+009141991GE19MSL   +99999+99999MA1101801999990REMMET051METAR SBLP 301700Z 06004KT 9999 FEW030 34/10 Q1018=
0136832880999992013073018004-13260-043410FM-12+044099999V0201401N0015199999999020000199+03201+01381101381ADDAA101999990AZ101061AZ201061GA1031+008001081GE19MSL   +99999+99999GF103991999999999999999999MA1999990096501MD1909990+0051REMSYN004BUFR
0116832880999992013073018004-13262-043408FM-15+044399999V0200501N005119999999N009999199+03301+01001999999ADDGA1021+009141991GE19MSL   +99999+99999MA1101701999990REMMET051METAR SBLP 301800Z 05010KT 9999 FEW030 33/10 Q1017=
0116832880999992013073019004-13262-043408FM-15+044399999V0200501N005119999999N009999199+03301+00901999999ADDGA1021+009141991GE19MSL   +99999+99999MA1101701999990REMMET051METAR SBLP 301900Z 05010KT 9999 FEW030 33/09 Q1017=
0116832880999992013073020004-13262-043408FM-15+044399999V0200901N004119999999N009999199+03301+01001999999ADDGA1021+009141991GE19MSL   +99999+99999MA1101701999990REMMET051METAR SBLP 302000Z 09008KT 9999 FEW030 33/10 Q1017=
0072832880999992013073021004-13262-043408FM-15+044399999V0200601N003119999999Y999999999+03001+00901999999ADDMA1101701999990REMMET045METAR SBLP 302100Z 06006KT CAVOK 30/09 Q1017=
0098832880999992013073100004-13260-043410FM-12+044099999V0201401N0015122000199002000199+02541+01241101651ADDAA101999990AZ101061AZ201061GF100991999999999999999999MA1999990096741MD1909990+0081REMSYN004BUFR
0072832880999992013073109154-13262-043408FM-16+044399999V0200601N001019999999Y999999999+01801+01301999999ADDMA1102001999990REMMET045SPECI SBLP 310915Z 06002KT CAVOK 18/13 Q1020=
0072832880999992013073110004-13262-043408FM-15+044399999V0200601N001019999999Y999999999+01801+01301999999ADDMA1102101999990REMMET045METAR SBLP 311000Z 06002KT CAVOK 18/13 Q1021=
0072832880999992013073111004-13262-043408FM-15+044399999V0200401N002119999999Y999999999+02101+01401999999ADDMA1102101999990REMMET045METAR SBLP 311100Z 04004KT CAVOK 21/14 Q1021=
0111832880999992013073112004-13260-043410FM-12+044099999V0201401N0010122000199020000199+02391+01571101891ADDAA101999990AZ101061AZ201061GF100991999999999999999999KA1120N+01861MA1999990096961MD1909990+0041REMSYN004BUFR
0072832880999992013073112004-13262-043408FM-15+044399999V0203601N002119999999Y999999999+02501+01401999999ADDMA1102201999990REMMET045METAR SBLP 311200Z 36004KT CAVOK 25/14 Q1022=
0072832880999992013073113004-13262-043408FM-15+044399999V0203601N001019999999Y999999999+02801+01401999999ADDMA1102201999990REMMET045METAR SBLP 311300Z 36002KT CAVOK 28/14 Q1022=
0072832880999992013073114004-13262-043408FM-15+044399999V0200601N003119999999Y999999999+03001+01301999999ADDMA1102101999990REMMET045METAR SBLP 311400Z 06006KT CAVOK 30/13 Q1021=
0072832880999992013073115004-13262-043408FM-15+044399999V0200301N004119999999Y999999999+03101+01101999999ADDMA1102001999990REMMET045METAR SBLP 311500Z 03008KT CAVOK 31/11 Q1020=
0072832880999992013073116004-13262-043408FM-15+044399999V0200301N003119999999Y999999999+03201+01101999999ADDMA1101801999990REMMET045METAR SBLP 311600Z 03006KT CAVOK 32/11 Q1018=
0072832880999992013073117004-13262-043408FM-15+044399999V0203601N003119999999Y999999999+03301+01101999999ADDMA1101701999990REMMET045METAR SBLP 311700Z 36006KT CAVOK 33/11 Q1017=
0136832880999992013073118004-13260-043410FM-12+044099999V0202301N0015199999999020000199+03171+01561101351ADDAA101999990AZ101061AZ201061GA1011+008001081GE19MSL   +99999+99999GF101991999999999999999999MA1999990096451MD1909990-0051REMSYN004BUFR
0072832880999992013073118004-13262-043408FM-15+044399999V0200301N002119999999Y999999999+03301+01201999999ADDMA1101601999990REMMET045METAR SBLP 311800Z 03004KT CAVOK 33/12 Q1016=
0072832880999992013073119004-13262-043408FM-15+044399999V0201201N003119999999Y999999999+03301+01101999999ADDMA1101601999990REMMET045METAR SBLP 311900Z 12006KT CAVOK 33/11 Q1016=
0072832880999992013073120004-13262-043408FM-15+044399999V0200901N003119999999Y999999999+03201+01101999999ADDMA1101601999990REMMET045METAR SBLP 312000Z 09006KT CAVOK 32/11 Q1016=
0072832880999992013073121004-13262-043408FM-15+044399999V0200701N003119999999Y999999999+03001+01101999999ADDMA1101701999990REMMET045METAR SBLP 312100Z 07006KT CAVOK 30/11 Q1017=
0072832880999992013080109154-13262-043408FM-16+044399999V0200301N001519999999Y999999999+01701+01101999999ADDMA1102001999990REMMET045SPECI SBLP 010915Z 03003KT CAVOK 17/11 Q1020=
0072832880999992013080110004-13262-043408FM-15+044399999V0200501N001519999999Y999999999+01701+01201999999ADDMA1102001999990REMMET045METAR SBLP 011000Z 05003KT CAVOK 17/12 Q1020=
0072832880999992013080111004-13262-043408FM-15+044399999V0200301N002119999999Y999999999+02101+01201999999ADDMA1102101999990REMMET045METAR SBLP 011100Z 03004KT CAVOK 21/12 Q1021=
0111832880999992013080112004-13260-043410FM-12+044099999V0201401N0021122000199020000199+02341+01441101831ADDAA101999990AZ101061AZ201061GF100991999999999999999999KA1120N+01821MA1999990096901MD1909990-0061REMSYN004BUFR
0072832880999992013080112004-13262-043408FM-15+044399999V0200301N001519999999Y999999999+02501+01201999999ADDMA1102101999990REMMET045METAR SBLP 011200Z 03003KT CAVOK 25/12 Q1021=
0072832880999992013080113004-13262-043408FM-15+044399999V0200301N004119999999Y999999999+02801+01301999999ADDMA1102101999990REMMET045METAR SBLP 011300Z 03008KT CAVOK 28/13 Q1021=
0072832880999992013080114004-13262-043408FM-15+044399999V0200601N001519999999Y999999999+02901+01101999999ADDMA1102101999990REMMET045METAR SBLP 011400Z 06003KT CAVOK 29/11 Q1021=
0072832880999992013080115004-13262-043408FM-15+044399999V0200901N002119999999Y999999999+03101+01001999999ADDMA1102001999990REMMET045METAR SBLP 011500Z 09004KT CAVOK 31/10 Q1020=
0116832880999992013080116004-13262-043408FM-15+044399999V0200401N003119999999N009999199+03201+01101999999ADDGA1021+009141991GE19MSL   +99999+99999MA1101801999990REMMET051METAR SBLP 011600Z 04006KT 9999 FEW030 32/11 Q1018=
0072832880999992013080117004-13262-043408FM-15+044399999V0200101N003619999999Y999999999+03301+00901999999ADDMA1101701999990REMMET045METAR SBLP 011700Z 01007KT CAVOK 33/09 Q1017=
0098832880999992013080118004-13260-043410FM-12+044099999V0201801N0010122000199020000199+03171+01381101321ADDAA101999990AZ101061AZ201061GF100991999999999999999999MA1999990096421MD1909990-0031REMSYN004BUFR
0072832880999992013080118004-13262-043408FM-15+044399999V0200501N001519999999Y999999999+03401+00801999999ADDMA1101601999990REMMET045METAR SBLP 011800Z 05003KT CAVOK 34/08 Q1016=
0072832880999992013080119004-13262-043408FM-15+044399999V0203501N001519999999Y999999999+03401+00701999999ADDMA1101601999990REMMET045METAR SBLP 011900Z 35003KT CAVOK 34/07 Q1016=
0072832880999992013080120004-13262-043408FM-15+044399999V0203401N001519999999Y999999999+03201+00701999999ADDMA1101601999990REMMET045METAR SBLP 012000Z 34003KT CAVOK 32/07 Q1016=
0072832880999992013080121004-13262-043408FM-15+044399999V0200701N002619999999Y999999999+03001+00801999999ADDMA1101601999990REMMET045METAR SBLP 012100Z 07005KT CAVOK 30/08 Q1016=
0098832880999992013080200004-13260-043410FM-12+044099999V0201401N0015122000199002000199+02521+00991101501ADDAA101999990AZ101061AZ201061GF100991999999999999999999MA1999990096581MD1909990-0101REMSYN004BUFR
0072832880999992013080209154-13262-043408FM-16+044399999V0209999C000019999999Y999999999+01601+00901999999ADDMA1101901999990REMMET045SPECI SBLP 020915Z 00000KT CAVOK 16/09 Q1019=
0072832880999992013080210004-13262-043408FM-15+044399999V0209999C000019999999Y999999999+01601+01001999999ADDMA1102001999990REMMET045METAR SBLP 021000Z 00000KT CAVOK 16/10 Q1020=
0072832880999992013080211004-13262-043408FM-15+044399999V0209999C000019999999Y999999999+02001+01101999999ADDMA1102001999990REMMET045METAR SBLP 021100Z 00000KT CAVOK 20/11 Q1020=
0111832880999992013080212004-13260-043410FM-12+044099999V0203601N0000122000199020000199+02371+01241101241ADDAA101999990AZ101061AZ201061GF100991999999999999999999KA1120N+01721MA1999990096871MD1909990-0031REMSYN004BUFR
0072832880999992013080212004-13262-043408FM-15+044399999V0203501N003119999999Y999999999+02401+01001999999ADDMA1102101999990REMMET045METAR SBLP 021200Z 35006KT CAVOK 24/10 Q1021=
0072832880999992013080213004-13262-043408FM-15+044399999V0209999C000019999999Y999999999+02701+00901999999ADDMA1102101999990REMMET045METAR SBLP 021300Z 00000KT CAVOK 27/09 Q1021=
0072832880999992013080214004-13262-043408FM-15+044399999V0200301N002119999999Y999999999+02901+00901999999ADDMA1102001999990REMMET045METAR SBLP 021400Z 03004KT CAVOK 29/09 Q1020=
0072832880999992013080215004-13262-043408FM-15+044399999V0209999C000019999999Y999999999+03001+00801999999ADDMA1102101999990REMMET045METAR SBLP 021500Z 00000KT CAVOK 30/08 Q1021=
0072832880999992013080216004-13262-043408FM-15+044399999V0200201N002119999999Y999999999+03201+01001999999ADDMA1101801999990REMMET045METAR SBLP 021600Z 02004KT CAVOK 32/10 Q1018=
0072832880999992013080217004-13262-043408FM-15+044399999V0209999C000019999999Y999999999+03201+01101999999ADDMA1101601999990REMMET045METAR SBLP 021700Z 00000KT CAVOK 32/11 Q1016=
0098832880999992013080218004-13260-043410FM-12+044099999V0202301N0005122000199020000199+03121+01261101191ADDAA101999990AZ101061AZ201061GF100991999999999999999999MA1999990096301MD1909990-0121REMSYN004BUFR
0072832880999992013080218004-13262-043408FM-15+044399999V0209999C000019999999Y999999999+03301+00901999999ADDMA1101501999990REMMET045METAR SBLP 021800Z 00000KT CAVOK 33/09 Q1015=
0072832880999992013080219004-13262-043408FM-15+044399999V0203301N002619999999Y999999999+03301+00601999999ADDMA1101501999990REMMET045METAR SBLP 021900Z 33005KT CAVOK 33/06 Q1015=
0072832880999992013080220004-13262-043408FM-15+044399999V0200901N002619999999Y999999999+03201+01101999999ADDMA1101501999990REMMET045METAR SBLP 022000Z 09005KT CAVOK 32/11 Q1015=
0072832880999992013080221004-13262-043408FM-15+044399999V0200501N002119999999Y999999999+03001+01001999999ADDMA1101601999990REMMET045METAR SBLP 022100Z 05004KT CAVOK 30/10 Q1016=
0098832880999992013080300004-13260-043410FM-12+044099999V0201401N0015122000199002000199+02441+01151101491ADDAA101999990AZ101061AZ201061GF100991999999999999999999MA1999990096561MD1909990+0021REMSYN004BUFR
0111832880999992013080312004-13260-043410FM-12+044099999V0201401N0021122000199020000199+02441+01031101741ADDAA101999990AZ101061AZ201061GF100991999999999999999999KA1120N+01661MA1999990096811MD1909990-0061REMSYN004BUFR
0098832880999992013080318004-13260-043410FM-12+044099999V0200901N0026122000199020000199+03171+01441101161ADDAA101999990AZ101061AZ201061GF100991999999999999999999MA1999990096251MD1909990-0051REMSYN004BUFR
0111832880999992013080412004-13260-043410FM-12+044099999V0200501N0026122000199020000199+02491+01401101721ADDAA101999990AZ101061AZ201061GF100991999999999999999999KA1120N+01931MA1999990096811MD1909990+0001REMSYN004BUFR
0098832880999992013080418004-13260-043410FM-12+044099999V0200901N0026122000199020000199+03191+01381101301ADDAA101999990AZ101061AZ201061GF100991999999999999999999MA1999990096421MD1909990+0171REMSYN004BUFR
0072832880999992013080509154-13262-043408FM-16+044399999V0209999C000019999999Y999999999+01801+01301999999ADDMA1101801999990REMMET045SPECI SBLP 050915Z 00000KT CAVOK 18/13 Q1018=
0072832880999992013080510004-13262-043408FM-15+044399999V0209999C000019999999Y999999999+01801+01301999999ADDMA1101801999990REMMET045METAR SBLP 051000Z 00000KT CAVOK 18/13 Q1018=
0072832880999992013080511004-13262-043408FM-15+044399999V0209999C000019999999Y999999999+02001+01501999999ADDMA1101901999990REMMET045METAR SBLP 051100Z 00000KT CAVOK 20/15 Q1019=
0111832880999992013080512004-13260-043410FM-12+044099999V0203601N0000122000199020000199+02391+01581101681ADDAA101999990AZ101061AZ201061GF100991999999999999999999KA1120N+01861MA1999990096761MD1909990-0051REMSYN004BUFR
0072832880999992013080512004-13262-043408FM-15+044399999V0209999C000019999999Y999999999+02601+01401999999ADDMA1102001999990REMMET045METAR SBLP 051200Z 00000KT CAVOK 26/14 Q1020=
0072832880999992013080513004-13262-043408FM-15+044399999V0200301N003119999999Y999999999+03001+01001999999ADDMA1102001999990REMMET045METAR SBLP 051300Z 03006KT CAVOK 30/10 Q1020=
0072832880999992013080514004-13262-043408FM-15+044399999V0200301N002619999999Y999999999+03101+00901999999ADDMA1101901999990REMMET045METAR SBLP 051400Z 03005KT CAVOK 31/09 Q1019=
0072832880999992013080515004-13262-043408FM-15+044399999V0203601N003119999999Y999999999+03201+00901999999ADDMA1101801999990REMMET045METAR SBLP 051500Z 36006KT CAVOK 32/09 Q1018=
0072832880999992013080516004-13262-043408FM-15+044399999V0203301N002119999999Y999999999+03301+00801999999ADDMA1101701999990REMMET045METAR SBLP 051600Z 33004KT CAVOK 33/08 Q1017=
0072832880999992013080517004-13262-043408FM-15+044399999V0203001N005119999999Y999999999+03401+00701999999ADDMA1101701999990REMMET045METAR SBLP 051700Z 30010KT CAVOK 34/07 Q1017=
0098832880999992013080518004-13260-043410FM-12+044099999V0200501N0010122000199020000199+03291+01211101161ADDAA101999990AZ101061AZ201061GF100991999999999999999999MA1999990096301MD1909990-0121REMSYN004BUFR
0072832880999992013080518004-13262-043408FM-15+044399999V0200801N001019999999Y999999999+03501+00701999999ADDMA1101401999990REMMET045METAR SBLP 051800Z 08002KT CAVOK 35/07 Q1014=
0072832880999992013080519004-13262-043408FM-15+044399999V0203601N004119999999Y999999999+03401+00801999999ADDMA1101401999990REMMET045METAR SBLP 051900Z 36008KT CAVOK 34/08 Q1014=
0072832880999992013080520004-13262-043408FM-15+044399999V0203501N004119999999Y999999999+03301+00801999999ADDMA1101401999990REMMET045METAR SBLP 052000Z 35008KT CAVOK 33/08 Q1014=
0072832880999992013080521004-13262-043408FM-15+044399999V0203501N004119999999Y999999999+03101+01001999999ADDMA1101501999990REMMET045METAR SBLP 052100Z 35008KT CAVOK 31/10 Q1015=
0098832880999992013080600004-13260-043410FM-12+044099999V0201401N0015122000199002000199+02651+01371101401ADDAA101999990AZ101061AZ201061GF100991999999999999999999MA1999990096501MD1909990-0051REMSYN004BUFR
0072832880999992013080609154-13262-043408FM-16+044399999V0200301N003119999999Y999999999+01801+01401999999ADDMA1101801999990REMMET045SPECI SBLP 060915Z 03006KT CAVOK 18/14 Q1018=
0072832880999992013080610004-13262-043408FM-15+044399999V0200401N002119999999Y999999999+01901+01501999999ADDMA1101801999990REMMET045METAR SBLP 061000Z 04004KT CAVOK 19/15 Q1018=
0072832880999992013080611004-13262-043408FM-15+044399999V0200301N003119999999Y999999999+02201+01601999999ADDMA1101901999990REMMET045METAR SBLP 061100Z 03006KT CAVOK 22/16 Q1019=
0111832880999992013080612004-13260-043410FM-12+044099999V0201401N0015122000199020000199+02471+01531101691ADDAA101999990AZ101061AZ201061GF100991999999999999999999KA1120N+01901MA1999990096781MD1909990+0021REMSYN004BUFR
0116832880999992013080612004-13262-043408FM-15+044399999V0200101N004619999999N009999199+02501+01501999999ADDGA1021+009141991GE19MSL   +99999+99999MA1102001999990REMMET051METAR SBLP 061200Z 01009KT 9999 FEW030 25/15 Q1020=
0116832880999992013080613004-13262-043408FM-15+044399999V0200101N004119999999N009999199+02801+01301999999ADDGA1021+009141991GE19MSL   +99999+99999MA1102001999990REMMET051METAR SBLP 061300Z 01008KT 9999 FEW030 28/13 Q1020=
0116832880999992013080614004-13262-043408FM-15+044399999V0203001N006219999999N009999199+03001+01201999999ADDGA1021+009141991GE19MSL   +99999+99999MA1101901999990REMMET051METAR SBLP 061400Z 30012KT 9999 FEW030 30/12 Q1019=
0116832880999992013080615004-13262-043408FM-15+044399999V0203501N003119999999N009999199+03201+01101999999ADDGA1021+009141991GE19MSL   +99999+99999MA1101801999990REMMET051METAR SBLP 061500Z 35006KT 9999 FEW030 32/11 Q1018=
0116832880999992013080616004-13262-043408FM-15+044399999V0203001N002619999999N009999199+03401+01201999999ADDGA1021+009141991GE19MSL   +99999+99999MA1101601999990REMMET051METAR SBLP 061600Z 30005KT 9999 FEW030 34/12 Q1016=
0116832880999992013080617004-13262-043408FM-15+044399999V0203201N002619999999N009999199+03401+01001999999ADDGA1021+009141991GE19MSL   +99999+99999MA1101501999990REMMET051METAR SBLP 061700Z 32005KT 9999 FEW030 34/10 Q1015=
0136832880999992013080618004-13260-043410FM-12+044099999V0200901N0010199999999020000199+03391+01401101061ADDAA101999990AZ101061AZ201061GA1021+008001081GE19MSL   +99999+99999GF102991999999999999999999MA1999990096231MD1909990-0071REMSYN004BUFR
0116832880999992013080618004-13262-043408FM-15+044399999V0202101N002619999999N009999199+03501+01001999999ADDGA1021+009141991GE19MSL   +99999+99999MA1101401999990REMMET051METAR SBLP 061800Z 21005KT 9999 FEW030 35/10 Q1014=
0116832880999992013080619004-13262-043408FM-15+044399999V0202101N001519999999N009999199+03501+01101999999ADDGA1021+009141991GE19MSL   +99999+99999MA1101401999990REMMET051METAR SBLP 061900Z 21003KT 9999 FEW030 35/11 Q1014=
0116832880999992013080620004-13262-043408FM-15+044399999V0203301N005119999999N009999199+03501+01401999999ADDGA1041+009141991GE19MSL   +99999+99999MA1101401999990REMMET051METAR SBLP 062000Z 33010KT 9999 SCT030 35/14 Q1014=
0139832880999992013080621004-13262-043408FM-15+044399999V0203101N00261030481CN009999199+03101+01601999999ADDGA1021+009141991GA2041+030481991GE19MSL   +99999+99999MA1101401999990REMMET058METAR SBLP 062100Z 31005KT 9999 FEW030 SCT100 31/16 Q1014=
0136832880999992013080700004-13260-043410FM-12+044099999V0201801N0015199999999002000199+02671+01301101371ADDAA101999990AZ101061AZ201061GA1011+008001081GE19MSL   +99999+99999GF101991999999999999999999MA1999990096491MD1909990-0011REMSYN004BUFR
0072832880999992013080709154-13262-043408FM-16+044399999V0209999C000019999999Y999999999+01901+01701999999ADDMA1101701999990REMMET045SPECI SBLP 070915Z 00000KT CAVOK 19/17 Q1017=
0072832880999992013080710004-13262-043408FM-15+044399999V0209999C000019999999Y999999999+01901+01601999999ADDMA1101701999990REMMET045METAR SBLP 071000Z 00000KT CAVOK 19/16 Q1017=
0072832880999992013080711004-13262-043408FM-15+044399999V0200101N002619999999Y999999999+02201+01601999999ADDMA1101801999990REMMET045METAR SBLP 071100Z 01005KT CAVOK 22/16 Q1018=
0111832880999992013080712004-13260-043410FM-12+044099999V0202301N0005122000199020000199+02371+01621101511ADDAA101999990AZ101061AZ201061GF100991999999999999999999KA1120N+01961MA1999990096601MD1909990-0181REMSYN004BUFR
0072832880999992013080712004-13262-043408FM-15+044399999V0200101N001519999999Y999999999+02501+01601999999ADDMA1101801999990REMMET045METAR SBLP 071200Z 01003KT CAVOK 25/16 Q1018=
0072832880999992013080713004-13262-043408FM-15+044399999V0203301N002619999999Y999999999+02801+01501999999ADDMA1101801999990REMMET045METAR SBLP 071300Z 33005KT CAVOK 28/15 Q1018=
0116832880999992013080714004-13262-043408FM-15+044399999V0209999C000019999999N009999199+03001+01501999999ADDGA1021+009141991GE19MSL   +99999+99999MA1101801999990REMMET051METAR SBLP 071400Z 00000KT 9999 FEW030 30/15 Q1018=
0116832880999992013080715004-13262-043408FM-15+044399999V0209999C000019999999N009999199+03101+01501999999ADDGA1041+009141991GE19MSL   +99999+99999MA1101601999990REMMET051METAR SBLP 071500Z 00000KT 9999 SCT030 31/15 Q1016=
0116832880999992013080716004-13262-043408FM-15+044399999V0200501N002119999999N009999199+03201+01301999999ADDGA1041+009141991GE19MSL   +99999+99999MA1101501999990REMMET051METAR SBLP 071600Z 05004KT 9999 SCT030 32/13 Q1015=
0116832880999992013080717004-13262-043408FM-15+044399999V0200901N003119999999N009999199+03301+01201999999ADDGA1041+009141991GE19MSL   +99999+99999MA1101401999990REMMET051METAR SBLP 071700Z 09006KT 9999 SCT030 33/12 Q1014=
0136832880999992013080718004-13260-043410FM-12+044099999V0202701N0021199999999020000199+03191+01501100941ADDAA101999990AZ101061AZ201061GA1041+008001081GE19MSL   +99999+99999GF104991999999999999999999MA1999990096101MD1909990-0131REMSYN004BUFR
0116832880999992013080718004-13262-043408FM-15+044399999V0201201N001519999999N009999199+03401+01201999999ADDGA1021+009141991GE19MSL   +99999+99999MA1101301999990REMMET051METAR SBLP 071800Z 12003KT 9999 FEW030 34/12 Q1013=
0116832880999992013080719004-13262-043408FM-15+044399999V0201101N003619999999N009999199+03301+01101999999ADDGA1021+009141991GE19MSL   +99999+99999MA1101201999990REMMET051METAR SBLP 071900Z 11007KT 9999 FEW030 33/11 Q1012=
0116832880999992013080720004-13262-043408FM-15+044399999V0200701N002119999999N009999199+03301+01101999999ADDGA1021+009141991GE19MSL   +99999+99999MA1101201999990REMMET051METAR SBLP 072000Z 07004KT 9999 FEW030 33/11 Q1012=
0116832880999992013080721004-13262-043408FM-15+044399999V0203301N003119999999N009999199+03101+00901999999ADDGA1021+009141991GE19MSL   +99999+99999MA1101201999990REMMET051METAR SBLP 072100Z 33006KT 9999 FEW030 31/09 Q1012=
0098832880999992013080800004-13260-043410FM-12+044099999V0201801N0015122000199002000199+02671+01381101131ADDAA101999990AZ101061AZ201061GF100991999999999999999999MA1999990096241MD1909990-0251REMSYN004BUFR
0072832880999992013080809154-13262-043408FM-16+044399999V0203501N001519999999Y999999999+01801+01001999999ADDMA1101601999990REMMET045SPECI SBLP 080915Z 35003KT CAVOK 18/10 Q1016=
0072832880999992013080810004-13262-043408FM-15+044399999V0209999C000019999999Y999999999+01901+01201999999ADDMA1101601999990REMMET045METAR SBLP 081000Z 00000KT CAVOK 19/12 Q1016=
0072832880999992013080811004-13262-043408FM-15+044399999V0203201N006219999999Y999999999+02301+01201999999ADDMA1101701999990REMMET045METAR SBLP 081100Z 32012KT CAVOK 23/12 Q1017=
0111832880999992013080812004-13260-043410FM-12+044099999V0200901N0026122000199020000199+02521+01221101441ADDAA101999990AZ101061AZ201061GF100991999999999999999999KA1120N+01961MA1999990096551MD1909990-0051REMSYN004BUFR
0072832880999992013080812004-13262-043408FM-15+044399999V0203101N005119999999Y999999999+02601+01101999999ADDMA1101801999990REMMET045METAR SBLP 081200Z 31010KT CAVOK 26/11 Q1018=
0072832880999992013080813004-13262-043408FM-15+044399999V0203101N003619999999Y999999999+02701+01101999999ADDMA1101801999990REMMET045METAR SBLP 081300Z 31007KT CAVOK 27/11 Q1018=
0116832880999992013080814004-13262-043408FM-15+044399999V0202901N004119999999N009999199+03001+00901999999ADDGA1021+009141991GE19MSL   +99999+99999MA1101701999990REMMET051METAR SBLP 081400Z 29008KT 9999 FEW030 30/09 Q1017=
0116832880999992013080815004-13262-043408FM-15+044399999V0202701N003119999999N009999199+03001+01001999999ADDGA1021+009141991GE19MSL   +99999+99999MA1101601999990REMMET051METAR SBLP 081500Z 27006KT 9999 FEW030 30/10 Q1016=
0116832880999992013080816004-13262-043408FM-15+044399999V0202401N003119999999N009999199+03101+01101999999ADDGA1021+009141991GE19MSL   +99999+99999MA1101501999990REMMET051METAR SBLP 081600Z 24006KT 9999 FEW030 31/11 Q1015=
0116832880999992013080817004-13262-043408FM-15+044399999V0202401N004119999999N009999199+03201+01101999999ADDGA1021+009141991GE19MSL   +99999+99999MA1101401999990REMMET051METAR SBLP 081700Z 24008KT 9999 FEW030 32/11 Q1014=
0136832880999992013080818004-13260-043410FM-12+044099999V0200901N0005100800199020000199+03071+01271101031ADDAA101999990AZ101061AZ201061GA1051+008001081GE19MSL   +99999+99999GF105991999999999999999999MA1999990096161MD1909990+0061REMSYN004BUFR
0116832880999992013080818004-13262-043408FM-15+044399999V0202401N003119999999N009999199+03201+00901999999ADDGA1021+009141991GE19MSL   +99999+99999MA1101301999990REMMET051METAR SBLP 081800Z 24006KT 9999 FEW030 32/09 Q1013=
0116832880999992013080819004-13262-043408FM-15+044399999V0202701N003119999999N009999199+03201+01001999999ADDGA1021+009141991GE19MSL   +99999+99999MA1101301999990REMMET051METAR SBLP 081900Z 27006KT 9999 FEW030 32/10 Q1013=
0116832880999992013080820004-13262-043408FM-15+044399999V0202701N005119999999N009999199+03101+01001999999ADDGA1041+009141991GE19MSL   +99999+99999MA1101301999990REMMET051METAR SBLP 082000Z 27010KT 9999 SCT030 31/10 Q1013=
0116832880999992013080821004-13262-043408FM-15+044399999V0202801N006219999999N009999199+02801+01101999999ADDGA1041+009141991GE19MSL   +99999+99999MA1101401999990REMMET051METAR SBLP 082100Z 28012KT 9999 SCT030 28/11 Q1014=
0098832880999992013080900004-13260-043410FM-12+044099999V0201401N0015122000199002000199+02491+01611101311ADDAA101999990AZ101061AZ201061GF100991999999999999999999MA1999990096411MD1909990+0171REMSYN004BUFR
0072832880999992013080909154-13262-043408FM-16+044399999V0209999C000019999999Y999999999+01801+01301999999ADDMA1101701999990REMMET045SPECI SBLP 090915Z 00000KT CAVOK 18/13 Q1017=
0072832880999992013080910004-13262-043408FM-15+044399999V0209999C000019999999Y999999999+01801+01401999999ADDMA1101701999990REMMET045METAR SBLP 091000Z 00000KT CAVOK 18/14 Q1017=
0072832880999992013080911004-13262-043408FM-15+044399999V0209999C000019999999Y999999999+02201+01501999999ADDMA1101801999990REMMET045METAR SBLP 091100Z 00000KT CAVOK 22/15 Q1018=
0149832880999992013080912004-13260-043410FM-12+044099999V0201801N0010199999999020000199+02421+01651101561ADDAA101999990AZ101061AZ201061GA1011+008001081GE19MSL   +99999+99999GF101991999999999999999999KA1120N+01861MA1999990096641MD1909990+0091REMSYN004BUFR
0116832880999992013080912004-13262-043408FM-15+044399999V0203001N003119999999N009999199+02601+01401999999ADDGA1021+009141991GE19MSL   +99999+99999MA1101801999990REMMET051METAR SBLP 091200Z 30006KT 9999 FEW030 26/14 Q1018=
0116832880999992013080913004-13262-043408FM-15+044399999V0202801N002119999999N009999199+02801+01401999999ADDGA1021+009141991GE19MSL   +99999+99999MA1101901999990REMMET051METAR SBLP 091300Z 28004KT 9999 FEW030 28/14 Q1019=
0116832880999992013080914004-13262-043408FM-15+044399999V0202801N003119999999N009999199+02901+01401999999ADDGA1021+009141991GE19MSL   +99999+99999MA1101801999990REMMET051METAR SBLP 091400Z 28006KT 9999 FEW030 29/14 Q1018=
0116832880999992013080915004-13262-043408FM-15+044399999V0203001N002619999999N009999199+02901+01401999999ADDGA1041+009141991GE19MSL   +99999+99999MA1101701999990REMMET051METAR SBLP 091500Z 30005KT 9999 SCT030 29/14 Q1017=
0116832880999992013080916004-13262-043408FM-15+044399999V0203401N002110091419N009999199+03201+01101999999ADDGA1071+009141991GE19MSL   +99999+99999MA1101601999990REMMET051METAR SBLP 091600Z 34004KT 9999 BKN030 32/11 Q1016=
0116832880999992013080917004-13262-043408FM-15+044399999V0202401N002619999999N009999199+03301+00901999999ADDGA1041+009141991GE19MSL   +99999+99999MA1101501999990REMMET051METAR SBLP 091700Z 24005KT 9999 SCT030 33/09 Q1015=
0136832880999992013080918004-13260-043410FM-12+044099999V0203601N0005199999999020000199+03121+01681101111ADDAA101999990AZ101061AZ201061GA1041+008001081GE19MSL   +99999+99999GF104991999999999999999999MA1999990096231MD1909990+0071REMSYN004BUFR
0116832880999992013080918004-13262-043408FM-15+044399999V0203401N003119999999N009999199+03301+01001999999ADDGA1041+009141991GE19MSL   +99999+99999MA1101401999990REMMET051METAR SBLP 091800Z 34006KT 9999 SCT030 33/10 Q1014=
0116832880999992013080919004-13262-043408FM-15+044399999V0200301N002619999999N009999199+03301+01001999999ADDGA1041+009141991GE19MSL   +99999+99999MA1101301999990REMMET051METAR SBLP 091900Z 03005KT 9999 SCT030 33/10 Q1013=
0116832880999992013080920004-13262-043408FM-15+044399999V0200601N001519999999N009999199+03301+01001999999ADDGA1041+009141991GE19MSL   +99999+99999MA1101301999990REMMET051METAR SBLP 092000Z 06003KT 9999 SCT030 33/10 Q1013=
0116832880999992013080921004-13262-043408FM-15+044399999V0200101N002119999999N009999199+03101+00901999999ADDGA1021+009141991GE19MSL   +99999+99999MA1101301999990REMMET051METAR SBLP 092100Z 01004KT 9999 FEW030 31/09 Q1013=
0098832880999992013081000004-13260-043410FM-12+044099999V0200901N0015122000199002000199+02721+01531101171ADDAA101999990AZ101061AZ201061GF100991999999999999999999MA1999990096301MD1909990-0111REMSYN004BUFR
0111832880999992013081012004-13260-043410FM-12+044099999V0203601N0000122000199020000199+02341+01741101571ADDAA101999990AZ101061AZ201061GF100991999999999999999999KA1120N+01951MA1999990096671MD1909990+0031REMSYN004BUFR
0136832880999992013081018004-13260-043410FM-12+044099999V0200901N0015199999999020000199+03171+01601101051ADDAA101999990AZ101061AZ201061GA1011+008001081GE19MSL   +99999+99999GF101991999999999999999999MA1999990096191MD1909990-0111REMSYN004BUFR
0149832880999992013081112004-13260-043410FM-12+044099999V0203601N0000199999999020000199+02421+01551101421ADDAA101999990AZ101061AZ201061GA1041+025001021GE19MSL   +99999+99999GF104991999999999999999999KA1120N+01961MA1999990096521MD1909990-0151REMSYN004BUFR
0136832880999992013081118004-13260-043410FM-12+044099999V0203601N0000199999999020000199+03271+01441100781ADDAA101999990AZ101061AZ201061GA1031+025001021GE19MSL   +99999+99999GF103991999999999999999999MA1999990095951MD1909990-0241REMSYN004BUFR
0072832880999992013081209154-13262-043408FM-16+044399999V0200601N001519999999Y999999999+01801+01301999999ADDMA1101501999990REMMET045SPECI SBLP 120915Z 06003KT CAVOK 18/13 Q1015=
0072832880999992013081210004-13262-043408FM-15+044399999V0209999C000019999999Y999999999+01901+01301999999ADDMA1101601999990REMMET045METAR SBLP 121000Z 00000KT CAVOK 19/13 Q1016=
0072832880999992013081211004-13262-043408FM-15+044399999V0209999C000019999999Y999999999+02301+01401999999ADDMA1101601999990REMMET045METAR SBLP 121100Z 00000KT CAVOK 23/14 Q1016=
0111832880999992013081212004-13260-043410FM-12+044099999V0200901N0010122000199020000199+02421+01701101411ADDAA101999990AZ101061AZ201061GF100991999999999999999999KA1120N+01861MA1999990096521MD1909990+0001REMSYN004BUFR
0072832880999992013081212004-13262-043408FM-15+044399999V0203001N002619999999Y999999999+02701+01501999999ADDMA1101701999990REMMET045METAR SBLP 121200Z 30005KT CAVOK 27/15 Q1017=
0072832880999992013081213004-13262-043408FM-15+044399999V0209999C000019999999Y999999999+03001+01301999999ADDMA1101701999990REMMET045METAR SBLP 121300Z 00000KT CAVOK 30/13 Q1017=
0072832880999992013081214004-13262-043408FM-15+044399999V0203401N003619999999Y999999999+03201+01001999999ADDMA1101601999990REMMET045METAR SBLP 121400Z 34007KT CAVOK 32/10 Q1016=
0116832880999992013081215004-13262-043408FM-15+044399999V0203501N003119999999N009999199+03301+01001999999ADDGA1021+009141991GE19MSL   +99999+99999MA1101501999990REMMET051METAR SBLP 121500Z 35006KT 9999 FEW030 33/10 Q1015=
0116832880999992013081216004-13262-043408FM-15+044399999V0200501N002119999999N009999199+03401+00801999999ADDGA1021+009141991GE19MSL   +99999+99999MA1101401999990REMMET051METAR SBLP 121600Z 05004KT 9999 FEW030 34/08 Q1014=
0116832880999992013081217004-13262-043408FM-15+044399999V0200201N003119999999N009999199+03301+00701999999ADDGA1021+009141991GE19MSL   +99999+99999MA1101301999990REMMET051METAR SBLP 121700Z 02006KT 9999 FEW030 33/07 Q1013=
0136832880999992013081218004-13260-043410FM-12+044099999V0201801N0015199999999020000199+03391+01191100751ADDAA101999990AZ101061AZ201061GA1031+008001081GE19MSL   +99999+99999GF103991999999999999999999MA1999990095931MD1909990-0021REMSYN004BUFR
0116832880999992013081218004-13262-043408FM-15+044399999V0200301N002119999999N009999199+03301+00801999999ADDGA1021+009141991GE19MSL   +99999+99999MA1101201999990REMMET051METAR SBLP 121800Z 03004KT 9999 FEW030 33/08 Q1012=
0116832880999992013081219004-13262-043408FM-15+044399999V0203501N005119999999N009999199+03401+00801999999ADDGA1021+009141991GE19MSL   +99999+99999MA1101201999990REMMET051METAR SBLP 121900Z 35010KT 9999 FEW030 34/08 Q1012=
0116832880999992013081220004-13262-043408FM-15+044399999V0200101N003119999999N009999199+03301+00701999999ADDGA1021+009141991GE19MSL   +99999+99999MA1101201999990REMMET051METAR SBLP 122000Z 01006KT 9999 FEW030 33/07 Q1012=
0116832880999992013081221004-13262-043408FM-15+044399999V0200101N003119999999N009999199+03001+00801999999ADDGA1021+009141991GE19MSL   +99999+99999MA1101301999990REMMET051METAR SBLP 122100Z 01006KT 9999 FEW030 30/08 Q1013=
0136832880999992013081300004-13260-043410FM-12+044099999V0201401N0010199999999002000199+02671+01341101191ADDAA101999990AZ101061AZ201061GA1021+012501031GE19MSL   +99999+99999GF102991999999999999999999MA1999990096311MD1909990+0051REMSYN004BUFR
0072832880999992013081309154-13262-043408FM-16+044399999V0209999C000019999999Y999999999+01901+01301999999ADDMA1101601999990REMMET045SPECI SBLP 130915Z 00000KT CAVOK 19/13 Q1016=
0072832880999992013081310004-13262-043408FM-15+044399999V0200301N001519999999Y999999999+01901+01301999999ADDMA1101601999990REMMET045METAR SBLP 131000Z 03003KT CAVOK 19/13 Q1016=
0072832880999992013081311004-13262-043408FM-15+044399999V0203601N004119999999Y999999999+02301+01401999999ADDMA1101701999990REMMET045METAR SBLP 131100Z 36008KT CAVOK 23/14 Q1017=
0111832880999992013081312004-13260-043410FM-12+044099999V0201401N0015122000199020000199+02641+01541101451ADDAA101999990AZ101061AZ201061GF100991999999999999999999KA1120N+01921MA1999990096571MD1909990+0051REMSYN004BUFR
0072832880999992013081312004-13262-043408FM-15+044399999V0203601N002119999999Y999999999+02701+01301999999ADDMA1101801999990REMMET045METAR SBLP 131200Z 36004KT CAVOK 27/13 Q1018=
0072832880999992013081313004-13262-043408FM-15+044399999V0203001N001519999999Y999999999+02901+01201999999ADDMA1101801999990REMMET045METAR SBLP 131300Z 30003KT CAVOK 29/12 Q1018=
0072832880999992013081314004-13262-043408FM-15+044399999V0209999C000019999999Y999999999+03101+01101999999ADDMA1101701999990REMMET045METAR SBLP 131400Z 00000KT CAVOK 31/11 Q1017=
0116832880999992013081315004-13262-043408FM-15+044399999V0209999C000019999999N009999199+03201+01201999999ADDGA1021+009141991GE19MSL   +99999+99999MA1101601999990REMMET051METAR SBLP 131500Z 00000KT 9999 FEW030 32/12 Q1016=
0116832880999992013081316004-13262-043408FM-15+044399999V0200801N003119999999N009999199+03301+00901999999ADDGA1021+009141991GE19MSL   +99999+99999MA1101501999990REMMET051METAR SBLP 131600Z 08006KT 9999 FEW030 33/09 Q1015=
0116832880999992013081317004-13262-043408FM-15+044399999V0200601N004119999999N009999199+03401+00901999999ADDGA1021+009141991GE19MSL   +99999+99999MA1101401999990REMMET051METAR SBLP 131700Z 06008KT 9999 FEW030 34/09 Q1014=
0136832880999992013081318004-13260-043410FM-12+044099999V0202301N0026199999999020000199+03321+01381100961ADDAA101999990AZ101061AZ201061GA1011+008001081GE19MSL   +99999+99999GF101991999999999999999999MA1999990096121MD1909990+0191REMSYN004BUFR
0116832880999992013081318004-13262-043408FM-15+044399999V0200901N005119999999N009999199+03401+00801999999ADDGA1021+009141991GE19MSL   +99999+99999MA1101301999990REMMET051METAR SBLP 131800Z 09010KT 9999 FEW030 34/08 Q1013=
0116832880999992013081319004-13262-043408FM-15+044399999V0201001N003119999999N009999199+03401+00801999999ADDGA1021+009141991GE19MSL   +99999+99999MA1101301999990REMMET051METAR SBLP 131900Z 10006KT 9999 FEW030 34/08 Q1013=
0116832880999992013081320004-13262-043408FM-15+044399999V0200801N003119999999N009999199+03401+00701999999ADDGA1021+009141991GE19MSL   +99999+99999MA1101301999990REMMET051METAR SBLP 132000Z 08006KT 9999 FEW030 34/07 Q1013=
0116832880999992013081321004-13262-043408FM-15+044399999V0209999C000019999999N009999199+03101+00901999999ADDGA1041+009141991GE19MSL   +99999+99999MA1101301999990REMMET051METAR SBLP 132100Z 00000KT 9999 SCT030 31/09 Q1013=
0136832880999992013081400004-13260-043410FM-12+044099999V0201801N0015199999999002000199+02851+01621101171ADDAA101999990AZ101061AZ201061GA1011+017501031GE19MSL   +99999+99999GF101991999999999999999999MA1999990096341MD1909990+0031REMSYN004BUFR
0116832880999992013081409154-13262-043408FM-16+044399999V0203001N003110061019N009999199+02201+01701999999ADDGA1071+006101991GE19MSL   +99999+99999MA1101701999990REMMET051SPECI SBLP 140915Z 30006KT 9999 BKN020 22/17 Q1017=
0139832880999992013081410004-13262-043408FM-15+044399999V0203001N002110091419N009999199+02301+01701999999ADDGA1041+006101991GA2071+009141991GE19MSL   +99999+99999MA1101801999990REMMET058METAR SBLP 141000Z 30004KT 9999 SCT020 BKN030 23/17 Q1018=
0116832880999992013081411004-13262-043408FM-15+044399999V0202501N004110091419N009999199+02401+01701999999ADDGA1071+009141991GE19MSL   +99999+99999MA1101801999990REMMET051METAR SBLP 141100Z 25008KT 9999 BKN030 24/17 Q1018=
0149832880999992013081412004-13260-043410FM-12+044099999V0200901N0015199999999020000199+02551+01801101541ADDAA101999990AZ101061AZ201061GA1031+012501031GE19MSL   +99999+99999GF103991999999999999999999KA1120N+02221MA1999990096671MD1909990+0101REMSYN004BUFR
0139832880999992013081412004-13262-043408FM-15+044399999V0202601N00311030481CN009999199+02601+01701999999ADDGA1021+009141991GA2041+030481991GE19MSL   +99999+99999MA1101901999990REMMET058METAR SBLP 141200Z 26006KT 9999 FEW030 SCT100 26/17 Q1019=
0072832880999992013081413004-13262-043408FM-15+044399999V0209999C000019999999Y999999999+02801+01601999999ADDMA1101901999990REMMET045METAR SBLP 141300Z 00000KT CAVOK 28/16 Q1019=
0072832880999992013081414004-13262-043408FM-15+044399999V0202201N004119999999Y999999999+03101+01501999999ADDMA1101801999990REMMET045METAR SBLP 141400Z 22008KT CAVOK 31/15 Q1018=
0116832880999992013081415004-13262-043408FM-15+044399999V0202801N003119999999N009999199+03201+01401999999ADDGA1021+009141991GE19MSL   +99999+99999MA1101701999990REMMET051METAR SBLP 141500Z 28006KT 9999 FEW030 32/14 Q1017=
0116832880999992013081416004-13262-043408FM-15+044399999V0202101N002119999999N009999199+03401+01401999999ADDGA1021+009141991GE19MSL   +99999+99999MA1101501999990REMMET051METAR SBLP 141600Z 21004KT 9999 FEW030 34/14 Q1015=
0116832880999992013081417004-13262-043408FM-15+044399999V0203301N002119999999N009999199+03401+01101999999ADDGA1021+009141991GE19MSL   +99999+99999MA1101401999990REMMET051METAR SBLP 141700Z 33004KT 9999 FEW030 34/11 Q1014=
0152832880999992013081418004-13260-043410FM-12+044099999V0202301N0015199999999020000199+03391+01541100951ADDAA101999990AZ101061AZ201061GA1021+008001081GA2991+999991001GE19MSL   +99999+99999GF104991999999999999999999MA1999990096151MD1909990+0031REMSYN004BUFR
0116832880999992013081418004-13262-043408FM-15+044399999V0203501N003119999999N009999199+03501+00901999999ADDGA1021+009141991GE19MSL   +99999+99999MA1101301999990REMMET051METAR SBLP 141800Z 35006KT 9999 FEW030 35/09 Q1013=
0116832880999992013081419004-13262-043408FM-15+044399999V0203201N004119999999N009999199+03501+00801999999ADDGA1021+009141991GE19MSL   +99999+99999MA1101301999990REMMET051METAR SBLP 141900Z 32008KT 9999 FEW030 35/08 Q1013=
0116832880999992013081420004-13262-043408FM-15+044399999V0203401N003119999999N009999199+03401+00801999999ADDGA1021+009141991GE19MSL   +99999+99999MA1101301999990REMMET051METAR SBLP 142000Z 34006KT 9999 FEW030 34/08 Q1013=
0116832880999992013081421004-13262-043408FM-15+044399999V0203301N001019999999N009999199+03201+00801999999ADDGA1021+009141991GE19MSL   +99999+99999MA1101401999990REMMET051METAR SBLP 142100Z 33002KT 9999 FEW030 32/08 Q1014=
0098832880999992013081500004-13260-043410FM-12+044099999V0201401N0010122000199002000199+02791+01491101151ADDAA101999990AZ101061AZ201061GF100991999999999999999999MA1999990096301MD1909990-0041REMSYN004BUFR
0072832880999992013081509154-13262-043408FM-16+044399999V0203201N001519999999Y999999999+01901+01501999999ADDMA1101401999990REMMET045SPECI SBLP 150915Z 32003KT CAVOK 19/15 Q1014=
0072832880999992013081510004-13262-043408FM-15+044399999V0209999C000019999999Y999999999+01901+01301999999ADDMA1101501999990REMMET045METAR SBLP 151000Z 00000KT CAVOK 19/13 Q1015=
0072832880999992013081511004-13262-043408FM-15+044399999V0203201N002119999999Y999999999+02301+01401999999ADDMA1101601999990REMMET045METAR SBLP 151100Z 32004KT CAVOK 23/14 Q1016=
0149832880999992013081512004-13260-043410FM-12+044099999V0202701N0010199999999020000199+02491+01551101311ADDAA101999990AZ101061AZ201061GA1991+025001001GE19MSL   +99999+99999GF104991999999999999999999KA1120N+01941MA1999990096441MD1909990-0231REMSYN004BUFR
0072832880999992013081512004-13262-043408FM-15+044399999V0209999C000019999999Y999999999+02601+01401999999ADDMA1101601999990REMMET045METAR SBLP 151200Z 00000KT CAVOK 26/14 Q1016=
0072832880999992013081513004-13262-043408FM-15+044399999V0200301N001519999999Y999999999+02901+01401999999ADDMA1101601999990REMMET045METAR SBLP 151300Z 03003KT CAVOK 29/14 Q1016=
0072832880999992013081514004-13262-043408FM-15+044399999V0209999C000019999999Y999999999+03201+01301999999ADDMA1101501999990REMMET045METAR SBLP 151400Z 00000KT CAVOK 32/13 Q1015=
0116832880999992013081515004-13262-043408FM-15+044399999V0209999C000019999999N009999199+03301+01201999999ADDGA1021+009141991GE19MSL   +99999+99999MA1101401999990REMMET051METAR SBLP 151500Z 00000KT 9999 FEW030 33/12 Q1014=
0116832880999992013081516004-13262-043408FM-15+044399999V0209999C000019999999N009999199+03501+01101999999ADDGA1021+009141991GE19MSL   +99999+99999MA1101301999990REMMET051METAR SBLP 151600Z 00000KT 9999 FEW030 35/11 Q1013=
0116832880999992013081517004-13262-043408FM-15+044399999V0202701N002119999999N009999199+03501+00901999999ADDGA1021+009141991GE19MSL   +99999+99999MA1101201999990REMMET051METAR SBLP 151700Z 27004KT 9999 FEW030 35/09 Q1012=
0152832880999992013081518004-13260-043410FM-12+044099999V0202301N0005199999999020000199+03521+01451100751ADDAA101999990AZ101061AZ201061GA1031+008001081GA2991+999991021GE19MSL   +99999+99999GF105991999999999999999999MA1999990095961MD1909990-0191REMSYN004BUFR
0116832880999992013081518004-13262-043408FM-15+044399999V0203001N006219999999N009999199+03701+00901999999ADDGA1021+009141991GE19MSL   +99999+99999MA1101101999990REMMET051METAR SBLP 151800Z 30012KT 9999 FEW030 37/09 Q1011=
0116832880999992013081519004-13262-043408FM-15+044399999V0203001N002119999999N009999199+03601+00901999999ADDGA1021+009141991GE19MSL   +99999+99999MA1101101999990REMMET051METAR SBLP 151900Z 30004KT 9999 FEW030 36/09 Q1011=
0116832880999992013081520004-13262-043408FM-15+044399999V0203001N005119999999N009999199+03501+00801999999ADDGA1021+009141991GE19MSL   +99999+99999MA1101101999990REMMET051METAR SBLP 152000Z 30010KT 9999 FEW030 35/08 Q1011=
0072832880999992013081521004-13262-043408FM-15+044399999V0202801N003119999999Y999999999+03301+00801999999ADDMA1101201999990REMMET045METAR SBLP 152100Z 28006KT CAVOK 33/08 Q1012=
0098832880999992013081600004-13260-043410FM-12+044099999V0201401N0010122000199002000199+02871+01451101051ADDAA101999990AZ101061AZ201061GF100991999999999999999999MA1999990096211MD1909990-0091REMSYN004BUFR
0116832880999992013081609154-13262-043408FM-16+044399999V0202501N001019999999N009999199+02101+01301999999ADDGA1021+006101991GE19MSL   +99999+99999MA1101701999990REMMET051SPECI SBLP 160915Z 25002KT 9999 FEW020 21/13 Q1017=
0116832880999992013081610004-13262-043408FM-15+044399999V0209999C000019999999N009999199+02101+01401999999ADDGA1021+006101991GE19MSL   +99999+99999MA1101801999990REMMET051METAR SBLP 161000Z 00000KT 9999 FEW020 21/14 Q1018=
0116832880999992013081611004-13262-043408FM-15+044399999V0202701N001019999999N009999199+02401+01501999999ADDGA1021+006101991GE19MSL   +99999+99999MA1101901999990REMMET051METAR SBLP 161100Z 27002KT 9999 FEW020 24/15 Q1019=
0149832880999992013081612004-13260-043410FM-12+044099999V0200901N0015199999999020000199+02651+01651101641ADDAA101999990AZ101061AZ201061GA1991+025001001GE19MSL   +99999+99999GF101991999999999999999999KA1120N+02041MA1999990096781MD1909990+0341REMSYN004BUFR
0072832880999992013081612004-13262-043408FM-15+044399999V0202801N003119999999Y999999999+02701+01501999999ADDMA1102001999990REMMET045METAR SBLP 161200Z 28006KT CAVOK 27/15 Q1020=
0072832880999992013081613004-13262-043408FM-15+044399999V0202801N004119999999Y999999999+02901+01401999999ADDMA1102001999990REMMET045METAR SBLP 161300Z 28008KT CAVOK 29/14 Q1020=
0072832880999992013081614004-13262-043408FM-15+044399999V0202801N007219999999Y999999999+03001+01301999999ADDMA1101901999990REMMET045METAR SBLP 161400Z 28014KT CAVOK 30/13 Q1019=
0072832880999992013081615004-13262-043408FM-15+044399999V0202501N003119999999Y999999999+03201+01401999999ADDMA1101801999990REMMET045METAR SBLP 161500Z 25006KT CAVOK 32/14 Q1018=
0072832880999992013081616004-13262-043408FM-15+044399999V0203001N003119999999Y999999999+03301+01101999999ADDMA1101701999990REMMET045METAR SBLP 161600Z 30006KT CAVOK 33/11 Q1017=
0072832880999992013081617004-13262-043408FM-15+044399999V0202501N002119999999Y999999999+03401+01001999999ADDMA1101601999990REMMET045METAR SBLP 161700Z 25004KT CAVOK 34/10 Q1016=
0136832880999992013081618004-13260-043410FM-12+044099999V0201801N0015199999999020000199+03251+01511101131ADDAA101999990AZ101061AZ201061GA1011+025001081GE19MSL   +99999+99999GF101991999999999999999999MA1999990096301MD1909990+0341REMSYN004BUFR
0072832880999992013081618004-13262-043408FM-15+044399999V0203501N003119999999Y999999999+03401+00901999999ADDMA1101501999990REMMET045METAR SBLP 161800Z 35006KT CAVOK 34/09 Q1015=
0116832880999992013081619004-13262-043408FM-15+044399999V0203101N004119999999N009999199+03401+00901999999ADDGA1021+009141991GE19MSL   +99999+99999MA1101501999990REMMET051METAR SBLP 161900Z 31008KT 9999 FEW030 34/09 Q1015=
0072832880999992013081620004-13262-043408FM-15+044399999V0203001N003119999999Y999999999+03301+01201999999ADDMA1101501999990REMMET045METAR SBLP 162000Z 30006KT CAVOK 33/12 Q1015=
0072832880999992013081621004-13262-043408FM-15+044399999V0203301N003619999999Y999999999+03001+01101999999ADDMA1101601999990REMMET045METAR SBLP 162100Z 33007KT CAVOK 30/11 Q1016=
0098832880999992013081700004-13260-043410FM-12+044099999V0201401N0021122000199002000199+02671+02472101481ADDAA101999990AZ101061AZ201061GF100991999999999999999999MA1999990096601MD1909990+0391REMSYN004BUFR
0111832880999992013081712004-13260-043410FM-12+044099999V0200901N0026122000199020000199+02521+01631101731ADDAA101999990AZ101061AZ201061GF100991999999999999999999KA1120N+01981MA1999990096831MD1909990+0051REMSYN004BUFR
0136832880999992013081718004-13260-043410FM-12+044099999V0201801N0031199999999020000199+03221+01081101091ADDAA101999990AZ101061AZ201061GA1011+008001081GE19MSL   +99999+99999GF101991999999999999999999MA1999990096231MD1909990-0071REMSYN004BUFR
0149832880999992013081812004-13260-043410FM-12+044099999V0201801N0005199999999020000199+02471+01611101771ADDAA101999990AZ101061AZ201061GA1991+025001001GE19MSL   +99999+99999GF104991999999999999999999KA1120N+01981MA1999990096851MD1909990+0021REMSYN004BUFR
0136832880999992013081818004-13260-043410FM-12+044099999V0200901N0015199999999020000199+03121+01571101191ADDAA101999990AZ101061AZ201061GA1021+008001081GE19MSL   +99999+99999GF102991999999999999999999MA1999990096341MD1909990+0111REMSYN004BUFR
0072832880999992013081909154-13262-043408FM-16+044399999V0200301N001519999999Y999999999+01901+01201999999ADDMA1101901999990REMMET045SPECI SBLP 190915Z 03003KT CAVOK 19/12 Q1019=
0072832880999992013081910004-13262-043408FM-15+044399999V0200501N001519999999Y999999999+01901+01301999999ADDMA1102001999990REMMET045METAR SBLP 191000Z 05003KT CAVOK 19/13 Q1020=
0072832880999992013081911004-13262-043408FM-15+044399999V0203601N003119999999Y999999999+02301+01301999999ADDMA1102001999990REMMET045METAR SBLP 191100Z 36006KT CAVOK 23/13 Q1020=
0149832880999992013081912004-13260-043410FM-12+044099999V0201401N0015199999999020000199+02371+01381101801ADDAA101999990AZ101061AZ201061GA1991+025001001GE19MSL   +99999+99999GF101991999999999999999999KA1120N+01891MA1999990096881MD1909990+0031REMSYN004BUFR
0072832880999992013081912004-13262-043408FM-15+044399999V0203201N004119999999Y999999999+02501+01301999999ADDMA1102101999990REMMET045METAR SBLP 191200Z 32008KT CAVOK 25/13 Q1021=
0072832880999992013081913004-13262-043408FM-15+044399999V0203401N003119999999Y999999999+02701+01101999999ADDMA1102101999990REMMET045METAR SBLP 191300Z 34006KT CAVOK 27/11 Q1021=
0072832880999992013081914004-13262-043408FM-15+044399999V0203301N004119999999Y999999999+02801+01001999999ADDMA1102001999990REMMET045METAR SBLP 191400Z 33008KT CAVOK 28/10 Q1020=
0072832880999992013081915004-13262-043408FM-15+044399999V0200401N004119999999Y999999999+03001+01101999999ADDMA1101901999990REMMET045METAR SBLP 191500Z 04008KT CAVOK 30/11 Q1019=
0116832880999992013081916004-13262-043408FM-15+044399999V0200201N006219999999N009999199+03101+00901999999ADDGA1021+009141991GE19MSL   +99999+99999MA1101701999990REMMET051METAR SBLP 191600Z 02012KT 9999 FEW030 31/09 Q1017=
0116832880999992013081917004-13262-043408FM-15+044399999V0200301N004119999999N009999199+03201+00801999999ADDGA1021+009141991GE19MSL   +99999+99999MA1101601999990REMMET051METAR SBLP 191700Z 03008KT 9999 FEW030 32/08 Q1016=
0136832880999992013081918004-13260-043410FM-12+044099999V0201801N0031199999999020000199+03071+01201101191ADDAA101999990AZ101061AZ201061GA1991+025001001GE19MSL   +99999+99999GF101991999999999999999999MA1999990096331MD1909990+0011REMSYN004BUFR
0116832880999992013081918004-13262-043408FM-15+044399999V0200101N003619999999N009999199+03201+00901999999ADDGA1021+009141991GE19MSL   +99999+99999MA1101501999990REMMET051METAR SBLP 191800Z 01007KT 9999 FEW030 32/09 Q1015=
0116832880999992013081919004-13262-043408FM-15+044399999V0200601N005119999999N009999199+03101+00901999999ADDGA1021+009141991GE19MSL   +99999+99999MA1101501999990REMMET051METAR SBLP 191900Z 06010KT 9999 FEW030 31/09 Q1015=
0116832880999992013081920004-13262-043408FM-15+044399999V0200601N004119999999N009999199+03001+00801999999ADDGA1021+009141991GE19MSL   +99999+99999MA1101501999990REMMET051METAR SBLP 192000Z 06008KT 9999 FEW030 30/08 Q1015=
0116832880999992013081921004-13262-043408FM-15+044399999V0200601N006219999999N009999199+02801+01001999999ADDGA1021+009141991GE19MSL   +99999+99999MA1101601999990REMMET051METAR SBLP 192100Z 06012KT 9999 FEW030 28/10 Q1016=
0098832880999992013082000004-13260-043410FM-12+044099999V0201401N0015122000199002000199+02741+00971101481ADDAA101999990AZ101061AZ201061GF100991999999999999999999MA1999990096581MD1909990+0021REMSYN004BUFR
0072832880999992013082009154-13262-043408FM-16+044399999V0201001N003119999999Y999999999+01801+01401999999ADDMA1101901999990REMMET045SPECI SBLP 200915Z 10006KT CAVOK 18/14 Q1019=
0072832880999992013082010004-13262-043408FM-15+044399999V0200601N002619999999Y999999999+01801+01401999999ADDMA1101901999990REMMET045METAR SBLP 201000Z 06005KT CAVOK 18/14 Q1019=
0072832880999992013082011004-13262-043408FM-15+044399999V0200501N004119999999Y999999999+02201+01501999999ADDMA1102001999990REMMET045METAR SBLP 201100Z 05008KT CAVOK 22/15 Q1020=
0111832880999992013082012004-13260-043410FM-12+044099999V0201401N0021122000199020000199+02321+01541101721ADDAA101999990AZ101061AZ201061GF100991999999999999999999KA1120N+01841MA1999990096801MD1909990-0081REMSYN004BUFR
0116832880999992013082012004-13262-043408FM-15+044399999V0200401N006219999999N009999199+02501+01401999999ADDGA1021+009141991GE19MSL   +99999+99999MA1102001999990REMMET051METAR SBLP 201200Z 04012KT 9999 FEW030 25/14 Q1020=
0116832880999992013082013004-13262-043408FM-15+044399999V0200501N004119999999N009999199+02701+01401999999ADDGA1021+009141991GE19MSL   +99999+99999MA1102001999990REMMET051METAR SBLP 201300Z 05008KT 9999 FEW030 27/14 Q1020=
0102832880999992013082014004-13262-043408FM-15+044399999V0200901N003119999999N009999199+02901+01201999999ADDGA1041+009141991GE19MSL   +99999+99999REMMET052METAR SBLP 201400Z 09006KT 9999 SCT030 29/12 Q 1019=
0116832880999992013082015004-13262-043408FM-15+044399999V0200101N002619999999N009999199+03001+01201999999ADDGA1041+009141991GE19MSL   +99999+99999MA1101801999990REMMET051METAR SBLP 201500Z 01005KT 9999 SCT030 30/12 Q1018=
0116832880999992013082016004-13262-043408FM-15+044399999V0209999C000019999999N009999199+03101+01201999999ADDGA1041+009141991GE19MSL   +99999+99999MA1101701999990REMMET051METAR SBLP 201600Z 00000KT 9999 SCT030 31/12 Q1017=
0116832880999992013082017004-13262-043408FM-15+044399999V0203601N001510091419N009999199+03101+01101999999ADDGA1071+009141991GE19MSL   +99999+99999MA1101601999990REMMET051METAR SBLP 201700Z 36003KT 9999 BKN030 31/11 Q1016=
0155832880999992013082018004-13260-043410FM-12+044099999V0201401N0015100800199020000199+03041+99999101211ADDAA101999990AZ101061AZ201061GA1061+008001081GE19MSL   +99999+99999GF106991999999999999999999MA1999990096321MD1909990-0011REMSYN004BUFREQDQ0119.5  3ATOD  
0116832880999992013082018004-13262-043408FM-15+044399999V0203601N005110091419N009999199+03101+01101999999ADDGA1071+009141991GE19MSL   +99999+99999MA1101501999990REMMET051METAR SBLP 201800Z 36010KT 9999 BKN030 31/11 Q1015=
0116832880999992013082019004-13262-043408FM-15+044399999V0203601N004119999999N009999199+03301+01001999999ADDGA1041+009141991GE19MSL   +99999+99999MA1101501999990REMMET051METAR SBLP 201900Z 36008KT 9999 SCT030 33/10 Q1015=
0116832880999992013082020004-13262-043408FM-15+044399999V0203601N004119999999N009999199+03201+01001999999ADDGA1021+009141991GE19MSL   +99999+99999MA1101501999990REMMET051METAR SBLP 202000Z 36008KT 9999 FEW030 32/10 Q1015=
0116832880999992013082021004-13262-043408FM-15+044399999V0200301N002619999999N009999199+03001+01001999999ADDGA1021+009141991GE19MSL   +99999+99999MA1101501999990REMMET051METAR SBLP 202100Z 03005KT 9999 FEW030 30/10 Q1015=
0098832880999992013082100004-13260-043410FM-12+044099999V0201401N0026122000199002000199+02501+01651101491ADDAA101999990AZ101061AZ201061GF100991999999999999999999MA1999990096561MD1909990-0021REMSYN004BUFR
0072832880999992013082109154-13262-043408FM-16+044399999V0203601N002619999999Y999999999+02001+01401999999ADDMA1101901999990REMMET045SPECI SBLP 210915Z 36005KT CAVOK 20/14 Q1019=
0072832880999992013082110004-13262-043408FM-15+044399999V0200301N002619999999Y999999999+02001+01401999999ADDMA1101901999990REMMET045METAR SBLP 211000Z 03005KT CAVOK 20/14 Q1019=
0072832880999992013082111004-13262-043408FM-15+044399999V0200301N003119999999Y999999999+02401+01501999999ADDMA1102001999990REMMET045METAR SBLP 211100Z 03006KT CAVOK 24/15 Q1020=
0165832880999992013082112004-13260-043410FM-12+044099999V0201801N0015199999999020000199+02371+01571101741ADDAA101999990AZ101061AZ201061GA1021+008001081GA2991+999991001GE19MSL   +99999+99999GF103991999999999999999999KA1120N+02001MA1999990096811MD1909990+0011REMSYN004BUFR
0116832880999992013082112004-13262-043408FM-15+044399999V0200401N004119999999N009999199+02501+01401999999ADDGA1021+009141991GE19MSL   +99999+99999MA1102001999990REMMET051METAR SBLP 211200Z 04008KT 9999 FEW030 25/14 Q1020=
0116832880999992013082113004-13262-043408FM-15+044399999V0200401N002119999999N009999199+02701+01401999999ADDGA1021+009141991GE19MSL   +99999+99999MA1102001999990REMMET051METAR SBLP 211300Z 04004KT 9999 FEW030 27/14 Q1020=
0116832880999992013082114004-13262-043408FM-15+044399999V0200301N001519999999N009999199+02901+01301999999ADDGA1021+009141991GE19MSL   +99999+99999MA1101901999990REMMET051METAR SBLP 211400Z 03003KT 9999 FEW030 29/13 Q1019=
0116832880999992013082115004-13262-043408FM-15+044399999V0200201N003119999999N009999199+03101+01301999999ADDGA1041+009141991GE19MSL   +99999+99999MA1101801999990REMMET051METAR SBLP 211500Z 02006KT 9999 SCT030 31/13 Q1018=
0116832880999992013082116004-13262-043408FM-15+044399999V0209999C000019999999N009999199+03201+01301999999ADDGA1041+009141991GE19MSL   +99999+99999MA1101701999990REMMET051METAR SBLP 211600Z 00000KT 9999 SCT030 32/13 Q1017=
0116832880999992013082117004-13262-043408FM-15+044399999V0200301N002119999999N009999199+03201+01301999999ADDGA1041+009141991GE19MSL   +99999+99999MA1101501999990REMMET051METAR SBLP 211700Z 03004KT 9999 SCT030 32/13 Q1015=
0136832880999992013082118004-13260-043410FM-12+044099999V0201401N0010100800199020000199+03091+01731101181ADDAA101999990AZ101061AZ201061GA1051+008001081GE19MSL   +99999+99999GF105991999999999999999999MA1999990096281MD1909990-0041REMSYN004BUFR
0116832880999992013082118004-13262-043408FM-15+044399999V0200101N003110091419N009999199+03201+01201999999ADDGA1071+009141991GE19MSL   +99999+99999MA1101501999990REMMET051METAR SBLP 211800Z 01006KT 9999 BKN030 32/12 Q1015=
0116832880999992013082119004-13262-043408FM-15+044399999V0203301N002119999999N009999199+03201+01301999999ADDGA1041+009141991GE19MSL   +99999+99999MA1101401999990REMMET051METAR SBLP 211900Z 33004KT 9999 SCT030 32/13 Q1014=
0116832880999992013082120004-13262-043408FM-15+044399999V0203601N004119999999N009999199+03101+01301999999ADDGA1041+009141991GE19MSL   +99999+99999MA1101401999990REMMET051METAR SBLP 212000Z 36008KT 9999 SCT030 31/13 Q1014=
0116832880999992013082121004-13262-043408FM-15+044399999V0203601N005119999999N009999199+03001+01301999999ADDGA1041+009141991GE19MSL   +99999+99999MA1101501999990REMMET051METAR SBLP 212100Z 36010KT 9999 SCT030 30/13 Q1015=
0152832880999992013082200004-13260-043410FM-12+044099999V0201401N0010199999999002000199+02521+01671101411ADDAA101999990AZ101061AZ201061GA1011+008001081GA2991+999991031GE19MSL   +99999+99999GF102991999999999999999999MA1999990096501MD1909990-0061REMSYN004BUFR
0072832880999992013082209154-13262-043408FM-16+044399999V0209999C000019999999Y999999999+01901+01501999999ADDMA1101701999990REMMET045SPECI SBLP 220915Z 00000KT CAVOK 19/15 Q1017=
0072832880999992013082210004-13262-043408FM-15+044399999V0200301N002119999999Y999999999+01901+01501999999ADDMA1101701999990REMMET045METAR SBLP 221000Z 03004KT CAVOK 19/15 Q1017=
0072832880999992013082211004-13262-043408FM-15+044399999V0200201N003119999999Y999999999+02301+01501999999ADDMA1101801999990REMMET045METAR SBLP 221100Z 02006KT CAVOK 23/15 Q1018=
0149832880999992013082212004-13260-043410FM-12+044099999V0201401N0005101250199020000199+02421+01631101561ADDAA101999990AZ101061AZ201061GA1051+012501031GE19MSL   +99999+99999GF105991999999999999999999KA1120N+01921MA1999990096651MD1909990-0161REMSYN004BUFR
0072832880999992013082212004-13262-043408FM-15+044399999V0203601N002119999999Y999999999+02601+01401999999ADDMA1101901999990REMMET045METAR SBLP 221200Z 36004KT CAVOK 26/14 Q1019=
0072832880999992013082213004-13262-043408FM-15+044399999V0200901N003119999999Y999999999+02801+01401999999ADDMA1101901999990REMMET045METAR SBLP 221300Z 09006KT CAVOK 28/14 Q1019=
0072832880999992013082214004-13262-043408FM-15+044399999V0200601N002119999999Y999999999+02901+01301999999ADDMA1101801999990REMMET045METAR SBLP 221400Z 06004KT CAVOK 29/13 Q1018=
0072832880999992013082215004-13262-043408FM-15+044399999V0209999C000019999999Y999999999+03001+01401999999ADDMA1101701999990REMMET045METAR SBLP 221500Z 00000KT CAVOK 30/14 Q1017=
0116832880999992013082216004-13262-043408FM-15+044399999V0203401N004119999999N009999199+03201+01301999999ADDGA1021+009141991GE19MSL   +99999+99999MA1101501999990REMMET051METAR SBLP 221600Z 34008KT 9999 FEW030 32/13 Q1015=
0116832880999992013082217004-13262-043408FM-15+044399999V0201001N002119999999N009999199+03401+01201999999ADDGA1021+009141991GE19MSL   +99999+99999MA1101401999990REMMET051METAR SBLP 221700Z 10004KT 9999 FEW030 34/12 Q1014=
0152832880999992013082218004-13267-043417FM-12+044199999V0203601N0000199999999020000199+03271+01741101001ADDAA101999990AZ101061AZ201061GA1031+008001081GA2991+999991031GE19MSL   +99999+99999GF106991999999999999999999MA1999990096141MD1909990-0141REMSYN004BUFR
0116832880999992013082219004-13262-043408FM-15+044399999V0202901N002119999999N009999199+03401+01201999999ADDGA1021+009141991GE19MSL   +99999+99999MA1101301999990REMMET051METAR SBLP 221900Z 29004KT 9999 FEW030 34/12 Q1013=
0116832880999992013082220004-13262-043408FM-15+044399999V0203601N003119999999N009999199+03301+01201999999ADDGA1021+009141991GE19MSL   +99999+99999MA1101301999990REMMET051METAR SBLP 222000Z 36006KT 9999 FEW030 33/12 Q1013=
0116832880999992013082221004-13262-043408FM-15+044399999V0200101N004119999999N009999199+03101+01301999999ADDGA1021+009141991GE19MSL   +99999+99999MA1101301999990REMMET051METAR SBLP 222100Z 01008KT 9999 FEW030 31/13 Q1013=
0152832880999992013082300004-13267-043417FM-12+044199999V0200501N0015199999999002000199+02821+01751101301ADDAA101999990AZ101061AZ201061GA1031+008001081GA2991+999991031GE19MSL   +99999+99999GF106991999999999999999999MA1999990096421MD1909990-0081REMSYN004BUFR
0072832880999992013082309154-13262-043408FM-16+044399999V0209999C000019999999Y999999999+01901+01501999999ADDMA1101701999990REMMET045SPECI SBLP 230915Z 00000KT CAVOK 19/15 Q1017=
0072832880999992013082310004-13262-043408FM-15+044399999V0200301N002119999999Y999999999+01901+01601999999ADDMA1101801999990REMMET045METAR SBLP 231000Z 03004KT CAVOK 19/16 Q1018=
0072832880999992013082311004-13262-043408FM-15+044399999V0209999C000019999999Y999999999+02401+01601999999ADDMA1101901999990REMMET045METAR SBLP 231100Z 00000KT CAVOK 24/16 Q1019=
0111832880999992013082312004-13267-043417FM-12+044199999V0201401N0005122000199020000199+02501+01681101611ADDAA101999990AZ101061AZ201061GF100991999999999999999999KA1120N+01921MA1999990096741MD1909990+0091REMSYN004BUFR
0072832880999992013082312004-13262-043408FM-15+044399999V0209999C000019999999Y999999999+02601+01401999999ADDMA1101901999990REMMET045METAR SBLP 231200Z 00000KT CAVOK 26/14 Q1019=
0072832880999992013082313004-13262-043408FM-15+044399999V0202701N003119999999Y999999999+02801+01401999999ADDMA1101901999990REMMET045METAR SBLP 231300Z 27006KT CAVOK 28/14 Q1019=
0072832880999992013082314004-13262-043408FM-15+044399999V0203101N002119999999Y999999999+03001+01301999999ADDMA1101801999990REMMET045METAR SBLP 231400Z 31004KT CAVOK 30/13 Q1018=
0072832880999992013082315004-13262-043408FM-15+044399999V0202801N004119999999Y999999999+03101+01201999999ADDMA1101701999990REMMET045METAR SBLP 231500Z 28008KT CAVOK 31/12 Q1017=
0072832880999992013082316004-13262-043408FM-15+044399999V0203101N006219999999Y999999999+03301+01001999999ADDMA1101601999990REMMET045METAR SBLP 231600Z 31012KT CAVOK 33/10 Q1016=
0116832880999992013082317004-13262-043408FM-15+044399999V0203301N003619999999N009999199+03401+00901999999ADDGA1021+009141991GE19MSL   +99999+99999MA1101401999990REMMET051METAR SBLP 231700Z 33007KT 9999 FEW030 34/09 Q1014=
0098832880999992013082318004-13267-043417FM-12+044199999V0203601N0000122000199020000199+03291+01681101031ADDAA101999990AZ101061AZ201061GF100991999999999999999999MA1999990096191MD1909990+0051REMSYN004BUFR
0116832880999992013082318004-13262-043408FM-15+044399999V0203401N003119999999N009999199+03501+00801999999ADDGA1021+009141991GE19MSL   +99999+99999MA1101401999990REMMET051METAR SBLP 231800Z 34006KT 9999 FEW030 35/08 Q1014=
0072832880999992013082319004-13262-043408FM-15+044399999V0203101N005119999999Y999999999+03501+00702999999ADDMA1101301999990REMMET045METAR SBLP 231900Z 31010KT CAVOK 35/07 Q1013=
0073832880999992013082320004-13262-043408FM-15+044399999V0209999N999999999999Y999999999+03401+00901999999ADDMA1101301999990REMMET046METAR SBLP 232000Z 330006KT CAVOK 34/09 Q1013=
0072832880999992013082321004-13262-043408FM-15+044399999V0203301N004119999999Y999999999+03101+00901999999ADDMA1101301999990REMMET045METAR SBLP 232100Z 33008KT CAVOK 31/09 Q1013=
0098832880999992013082400004-13267-043417FM-12+044199999V0201401N0015122000199002000199+02691+01461101141ADDAA101999990AZ101061AZ201061GF100991999999999999999999MA1999990096271MD1909990-0151REMSYN004BUFR
0111832880999992013082412004-13267-043417FM-12+044199999V0201401N0015122000199020000199+02441+01591101661ADDAA101999990AZ101061AZ201061GF100991999999999999999999KA1120N+01941MA1999990096761MD1909990+0021REMSYN004BUFR
0098832880999992013082418004-13267-043417FM-12+044199999V0202301N0015122000199020000199+03251+01561101141ADDAA101999990AZ101061AZ201061GF100991999999999999999999MA1999990096261MD1909990+0071REMSYN004BUFR
0111832880999992013082512004-13267-043417FM-12+044199999V0200501N0021122000199020000199+02541+01951101561ADDAA101999990AZ101061AZ201061GF100991999999999999999999KA1120N+01921MA1999990096681MD1909990-0081REMSYN004BUFR
0136832880999992013082518004-13267-043417FM-12+044199999V0202701N0021199999999020000199+03371+01381101031ADDAA101999990AZ101061AZ201061GA1011+008001081GE19MSL   +99999+99999GF101991999999999999999999MA1999990096191MD1909990-0071REMSYN004BUFR
0072832880999992013082609154-13262-043408FM-16+044399999V0209999C000019999999Y999999999+02001+01501999999ADDMA1101601999990REMMET045SPECI SBLP 260915Z 00000KT CAVOK 20/15 Q1016=
0072832880999992013082610004-13262-043408FM-15+044399999V0209999C000019999999Y999999999+02001+01601999999ADDMA1101601999990REMMET045METAR SBLP 261000Z 00000KT CAVOK 20/16 Q1016=
0072832880999992013082611004-13262-043408FM-15+044399999V0209999C000019999999Y999999999+02301+01501999999ADDMA1101701999990REMMET045METAR SBLP 261100Z 00000KT CAVOK 23/15 Q1017=
0111832880999992013082612004-13267-043417FM-12+044199999V0203601N0000122000199002000199+02591+01651101391ADDAA101999990AZ101061AZ201061GF100991999999999999999999KA1120N+02041MA1999990096531MD1909990+0151REMSYN004BUFR
0072832880999992013082612004-13262-043408FM-15+044399999V0209999C000019999999Y999999999+02601+01501999999ADDMA1101701999990REMMET045METAR SBLP 261200Z 00000KT CAVOK 26/15 Q1017=
0072832880999992013082613004-13262-043408FM-15+044399999V0202401N002619999999Y999999999+03001+01401999999ADDMA1101701999990REMMET045METAR SBLP 261300Z 24005KT CAVOK 30/14 Q1017=
0072832880999992013082615004-13262-043408FM-15+044399999V0203301N003119999999Y999999999+03401+01201999999ADDMA1101501999990REMMET045METAR SBLP 261500Z 33006KT CAVOK 34/12 Q1015=
0072832880999992013082616004-13262-043408FM-15+044399999V0203601N001519999999Y999999999+03501+01301999999ADDMA1101401999990REMMET045METAR SBLP 261600Z 36003KT CAVOK 35/13 Q1014=
0072832880999992013082617004-13262-043408FM-15+044399999V0200301N003119999999Y999999999+03501+01301999999ADDMA1101201999990REMMET045METAR SBLP 261700Z 03006KT CAVOK 35/13 Q1012=
0098832880999992013082618004-13267-043417FM-12+044199999V0203201N0005122000199020000199+03471+01561100821ADDAA101999990AZ101061AZ201061GF100991999999999999999999MA1999990096011MD1909990-0181REMSYN004BUFR
0072832880999992013082618004-13262-043408FM-15+044399999V0209999C000019999999Y999999999+03501+01301999999ADDMA1101201999990REMMET045METAR SBLP 261800Z 00000KT CAVOK 35/13 Q1012=
0072832880999992013082619004-13262-043408FM-15+044399999V0209999C000019999999Y999999999+03601+01001999999ADDMA1101201999990REMMET045METAR SBLP 261900Z 00000KT CAVOK 36/10 Q1012=
0072832880999992013082620004-13262-043408FM-15+044399999V0209999C000019999999Y999999999+03501+00901999999ADDMA1101201999990REMMET045METAR SBLP 262000Z 00000KT CAVOK 35/09 Q1012=
0072832880999992013082621004-13262-043408FM-15+044399999V0209999C000019999999Y999999999+03201+01101999999ADDMA1101201999990REMMET045METAR SBLP 262100Z 00000KT CAVOK 32/11 Q1012=
0098832880999992013082700004-13267-043417FM-12+044199999V0203601N0000122000199002000199+02971+01481101111ADDAA101999990AZ101061AZ201061GF100991999999999999999999MA1999990096281MD1909990-0351REMSYN004BUFR
0072832880999992013082709154-13262-043408FM-16+044399999V0209999C000019999999Y999999999+02001+01401999999ADDMA1101501999990REMMET045SPECI SBLP 270915Z 00000KT CAVOK 20/14 Q1015=
0072832880999992013082710004-13262-043408FM-15+044399999V0209999C000019999999Y999999999+02001+01301999999ADDMA1101501999990REMMET045METAR SBLP 271000Z 00000KT CAVOK 20/13 Q1015=
0072832880999992013082711004-13262-043408FM-15+044399999V0209999C000019999999Y999999999+02401+01201999999ADDMA1101601999990REMMET045METAR SBLP 271100Z 00000KT CAVOK 24/12 Q1016=
0111832880999992013082712004-13267-043417FM-12+044199999V0202701N0005122000199020000199+02601+01451101341ADDAA101999990AZ101061AZ201061GF100991999999999999999999KA1120N+02061MA1999990096501MD1909990-0031REMSYN004BUFR
0072832880999992013082712004-13262-043408FM-15+044399999V0209999C000019999999Y999999999+02701+01401999999ADDMA1101701999990REMMET045METAR SBLP 271200Z 00000KT CAVOK 27/14 Q1017=
0072832880999992013082713004-13262-043408FM-15+044399999V0209999C000019999999Y999999999+03001+01401999999ADDMA1101701999990REMMET045METAR SBLP 271300Z 00000KT CAVOK 30/14 Q1017=
0116832880999992013082714004-13262-043408FM-15+044399999V0209999C000019999999N009999199+03201+01301999999ADDGA1021+009141991GE19MSL   +99999+99999MA1101601999990REMMET051METAR SBLP 271400Z 00000KT 9999 FEW030 32/13 Q1016=
0116832880999992013082715004-13262-043408FM-15+044399999V0209999C000019999999N009999199+03501+01301999999ADDGA1021+009141991GE19MSL   +99999+99999MA1101501999990REMMET051METAR SBLP 271500Z 00000KT 9999 FEW030 35/13 Q1015=
0116832880999992013082716004-13262-043408FM-15+044399999V0209999C000019999999N009999199+03501+01101999999ADDGA1021+009141991GE19MSL   +99999+99999MA1101401999990REMMET051METAR SBLP 271600Z 00000KT 9999 FEW030 35/11 Q1014=
0116832880999992013082717004-13262-043408FM-15+044399999V0209999C000019999999N009999199+03601+00801999999ADDGA1021+009141991GE19MSL   +99999+99999MA1101301999990REMMET051METAR SBLP 271700Z 00000KT 9999 FEW030 36/08 Q1013=
0136832880999992013082718004-13267-043417FM-12+044199999V0201801N0005199999999020000199+03521+01161100881ADDAA101999990AZ101061AZ201061GA1021+008001081GE19MSL   +99999+99999GF102991999999999999999999MA1999990096081MD1909990+0071REMSYN004BUFR
0116832880999992013082718004-13262-043408FM-15+044399999V0209999C000019999999N009999199+03701+00701999999ADDGA1021+009141991GE19MSL   +99999+99999MA1101201999990REMMET051METAR SBLP 271800Z 00000KT 9999 FEW030 37/07 Q1012=
0116832880999992013082719004-13262-043408FM-15+044399999V0200701N002119999999N009999199+03701+00701999999ADDGA1021+009141991GE19MSL   +99999+99999MA1101201999990REMMET051METAR SBLP 271900Z 07004KT 9999 FEW030 37/07 Q1012=
0116832880999992013082720004-13262-043408FM-15+044399999V0209999C000019999999N009999199+03701+00601999999ADDGA1021+009141991GE19MSL   +99999+99999MA1101201999990REMMET051METAR SBLP 272000Z 00000KT 9999 FEW030 37/06 Q1012=
0116832880999992013082721004-13262-043408FM-15+044399999V0209999C000019999999N009999199+03401+00701999999ADDGA1021+009141991GE19MSL   +99999+99999MA1101301999990REMMET051METAR SBLP 272100Z 00000KT 9999 FEW030 34/07 Q1013=
0098832880999992013082800004-13267-043417FM-12+044199999V0203601N0000122000199002000199+02971+01341101081ADDAA101999990AZ101061AZ201061GF100991999999999999999999MA1999990096251MD1909990-0031REMSYN004BUFR
0072832880999992013082809154-13262-043408FM-16+044399999V0200301N001519999999Y999999999+02001+01101999999ADDMA1101601999990REMMET045SPECI SBLP 280915Z 03003KT CAVOK 20/11 Q1016=
0072832880999992013082810004-13262-043408FM-15+044399999V0200101N001519999999Y999999999+02101+01101999999ADDMA1101701999990REMMET045METAR SBLP 281000Z 01003KT CAVOK 21/11 Q1017=
0072832880999992013082811004-13262-043408FM-15+044399999V0200101N003119999999Y999999999+02501+01201999999ADDMA1101801999990REMMET045METAR SBLP 281100Z 01006KT CAVOK 25/12 Q1018=
0111832880999992013082812004-13267-043417FM-12+044199999V0201801N0010122000199020000199+02821+01411101431ADDAA101999990AZ101061AZ201061GF100991999999999999999999KA1120N+02161MA1999990096611MD1909990-0111REMSYN004BUFR
0072832880999992013082812004-13262-043408FM-15+044399999V0203501N003119999999Y999999999+02901+01301999999ADDMA1101801999990REMMET045METAR SBLP 281200Z 35006KT CAVOK 29/13 Q1018=
0072832880999992013082813004-13262-043408FM-15+044399999V0201201N002119999999Y999999999+03201+01101999999ADDMA1101801999990REMMET045METAR SBLP 281300Z 12004KT CAVOK 32/11 Q1018=
0072832880999992013082814004-13262-043408FM-15+044399999V0201801N002119999999Y999999999+03401+01101999999ADDMA1101701999990REMMET045METAR SBLP 281400Z 18004KT CAVOK 34/11 Q1017=
0116832880999992013082815004-13262-043408FM-15+044399999V0201201N003119999999N009999199+03501+01101999999ADDGA1021+009141991GE19MSL   +99999+99999MA1101601999990REMMET051METAR SBLP 281500Z 12006KT 9999 FEW030 35/11 Q1016=
0116832880999992013082816004-13262-043408FM-15+044399999V0200601N003119999999N009999199+03601+01101999999ADDGA1021+009141991GE19MSL   +99999+99999MA1101501999990REMMET051METAR SBLP 281600Z 06006KT 9999 FEW030 36/11 Q1015=
0116832880999992013082817004-13262-043408FM-15+044399999V0200801N003619999999N009999199+03701+01001999999ADDGA1021+009141991GE19MSL   +99999+99999MA1101401999990REMMET051METAR SBLP 281700Z 08007KT 9999 FEW030 37/10 Q1014=
0136832880999992013082818004-13267-043417FM-12+044199999V0202301N0021199999999020000199+03621+01361100881ADDAA101999990AZ101061AZ201061GA1011+008001081GE19MSL   +99999+99999GF101991999999999999999999MA1999990096101MD1909990+0021REMSYN004BUFR
0116832880999992013082818004-13262-043408FM-15+044399999V0201001N005119999999N009999199+03701+00801999999ADDGA1021+009141991GE19MSL   +99999+99999MA1101301999990REMMET051METAR SBLP 281800Z 10010KT 9999 FEW030 37/08 Q1013=
0116832880999992013082819004-13262-043408FM-15+044399999V0200301N003119999999N009999199+03501+01001999999ADDGA1021+009141991GE19MSL   +99999+99999MA1101301999990REMMET051METAR SBLP 281900Z 03006KT 9999 FEW030 35/10 Q1013=
0116832880999992013082820004-13262-043408FM-15+044399999V0200601N001519999999N009999199+03701+00801999999ADDGA1021+009141991GE19MSL   +99999+99999MA1101301999990REMMET051METAR SBLP 282000Z 06003KT 9999 FEW030 37/08 Q1013=
0072832880999992013082821004-13262-043408FM-15+044399999V0200301N002119999999Y999999999+03401+00901999999ADDMA1101301999990REMMET045METAR SBLP 282100Z 03004KT CAVOK 34/09 Q1013=
0098832880999992013082900004-13267-043417FM-12+044199999V0203601N0000122000199002000199+03101+01541101111ADDAA101999990AZ101061AZ201061GF100991999999999999999999MA1999990096311MD1909990+0061REMSYN004BUFR
0116832880999992013082909154-13262-043408FM-16+044399999V0202201N001519999999N009999199+02501+01601999999ADDGA1021+006101991GE19MSL   +99999+99999MA1101901999990REMMET051SPECI SBLP 290915Z 22003KT 9999 FEW020 25/16 Q1019=
0116832880999992013082910004-13262-043408FM-15+044399999V0209999C000019999999N009999199+02401+01601999999ADDGA1021+006101991GE19MSL   +99999+99999MA1102001999990REMMET051METAR SBLP 291000Z 00000KT 9999 FEW020 24/16 Q1020=
0072832880999992013082911004-13262-043408FM-15+044399999V0209999C000019999999Y999999999+02501+01701999999ADDMA1102001999990REMMET045METAR SBLP 291100Z 00000KT CAVOK 25/17 Q1020=
0149832880999992013082912004-13267-043417FM-12+044199999V0200901N0010199999999020000199+02791+01771101601ADDAA101999990AZ101061AZ201061GA1021+012501031GE19MSL   +99999+99999GF102991999999999999999999KA1120N+02301MA1999990096781MD1909990+0171REMSYN004BUFR
0072832880999992013082912004-13262-043408FM-15+044399999V0202901N003119999999Y999999999+02901+01501999999ADDMA1102201999990REMMET045METAR SBLP 291200Z 29006KT CAVOK 29/15 Q1022=
0072832880999992013082913004-13262-043408FM-15+044399999V0203101N005119999999Y999999999+03101+01401999999ADDMA1102101999990REMMET045METAR SBLP 291300Z 31010KT CAVOK 31/14 Q1021=
0072832880999992013082914004-13262-043408FM-15+044399999V0202701N003119999999Y999999999+03201+01301999999ADDMA1102001999990REMMET045METAR SBLP 291400Z 27006KT CAVOK 32/13 Q1020=
0072832880999992013082915004-13262-043408FM-15+044399999V0209999C000019999999Y999999999+03301+01301999999ADDMA1101901999990REMMET045METAR SBLP 291500Z 00000KT CAVOK 33/13 Q1019=
0116832880999992013082916004-13262-043408FM-15+044399999V0203201N003119999999N009999199+03401+01501999999ADDGA1021+009141991GE19MSL   +99999+99999MA1101801999990REMMET051METAR SBLP 291600Z 32006KT 9999 FEW030 34/15 Q1018=
0116832880999992013082917004-13262-043408FM-15+044399999V0203301N005119999999N009999199+03501+01401999999ADDGA1021+009141991GE19MSL   +99999+99999MA1101701999990REMMET051METAR SBLP 291700Z 33010KT 9999 FEW030 35/14 Q1017=
0136832880999992013082918004-13267-043417FM-12+044199999V0200901N0015199999999020000199+03321+01621101001ADDAA101999990AZ101061AZ201061GA1031+008001081GE19MSL   +99999+99999GF103991999999999999999999MA1999990096221MD1909990+0121REMSYN004BUFR
0116832880999992013082918004-13262-043408FM-15+044399999V0203601N004119999999N009999199+03501+01401999999ADDGA1021+009141991GE19MSL   +99999+99999MA1101601999990REMMET051METAR SBLP 291800Z 36008KT 9999 FEW030 35/14 Q1016=
0116832880999992013082919004-13262-043408FM-15+044399999V0203401N006219999999N009999199+03501+01501999999ADDGA1021+009141991GE19MSL   +99999+99999MA1101601999990REMMET051METAR SBLP 291900Z 34012KT 9999 FEW030 35/15 Q1016=
0116832880999992013082920004-13262-043408FM-15+044399999V0203301N005119999999N009999199+03401+01401999999ADDGA1021+009141991GE19MSL   +99999+99999MA1101601999990REMMET051METAR SBLP 292000Z 33010KT 9999 FEW030 34/14 Q1016=
0072832880999992013082921004-13262-043408FM-15+044399999V0203401N006219999999Y999999999+03101+01401999999ADDMA1101601999990REMMET045METAR SBLP 292100Z 34012KT CAVOK 31/14 Q1016=
0098832880999992013083000004-13267-043417FM-12+044199999V0201401N0015122000199002000199+02801+01611101431ADDAA101999990AZ101061AZ201061GF100991999999999999999999MA1999990096591MD1909990+0281REMSYN004BUFR
0072832880999992013083009154-13262-043408FM-16+044399999V0203601N002119999999Y999999999+02001+01701999999ADDMA1102001999990REMMET045SPECI SBLP 300915Z 36004KT CAVOK 20/17 Q1020=
0072832880999992013083010004-13262-043408FM-15+044399999V0203601N002619999999Y999999999+02201+01601999999ADDMA1102001999990REMMET045METAR SBLP 301000Z 36005KT CAVOK 22/16 Q1020=
0072832880999992013083011004-13262-043408FM-15+044399999V0203601N004119999999Y999999999+02501+01601999999ADDMA1102101999990REMMET045METAR SBLP 301100Z 36008KT CAVOK 25/16 Q1021=
0149832880999992013083012004-13267-043417FM-12+044199999V0201401N0015199999999020000199+02591+01671101821ADDAA101999990AZ101061AZ201061GA1021+008001081GE19MSL   +99999+99999GF102991999999999999999999KA1120N+02121MA1999990096941MD1909990+0161REMSYN004BUFR
0116832880999992013083012004-13262-043408FM-15+044399999V0203301N004119999999N009999199+02701+01601999999ADDGA1021+009141991GE19MSL   +99999+99999MA1102201999990REMMET051METAR SBLP 301200Z 33008KT 9999 FEW030 27/16 Q1022=
0116832880999992013083013004-13262-043408FM-15+044399999V0203101N004119999999N009999199+02901+01601999999ADDGA1021+009141991GE19MSL   +99999+99999MA1102101999990REMMET051METAR SBLP 301300Z 31008KT 9999 FEW030 29/16 Q1021=
0116832880999992013083014004-13262-043408FM-15+044399999V0203601N002119999999N009999199+03101+01501999999ADDGA1021+009141991GE19MSL   +99999+99999MA1102001999990REMMET051METAR SBLP 301400Z 36004KT 9999 FEW030 31/15 Q1020=
0116832880999992013083015004-13262-043408FM-15+044399999V0203601N002119999999N009999199+03201+01501999999ADDGA1021+009141991GE19MSL   +99999+99999MA1101901999990REMMET051METAR SBLP 301500Z 36004KT 9999 FEW030 32/15 Q1019=
0116832880999992013083016004-13262-043408FM-15+044399999V0203301N003119999999N009999199+03301+01401999999ADDGA1021+009141991GE19MSL   +99999+99999MA1101801999990REMMET051METAR SBLP 301600Z 33006KT 9999 FEW030 33/14 Q1018=
0116832880999992013083017004-13262-043408FM-15+044399999V0203601N003119999999N009999199+03401+01401999999ADDGA1021+009141991GE19MSL   +99999+99999MA1101701999990REMMET051METAR SBLP 301700Z 36006KT 9999 FEW030 34/14 Q1017=
0136832880999992013083018004-13267-043417FM-12+044199999V0201801N0010199999999020000199+03251+01511101281ADDAA101999990AZ101061AZ201061GA1031+008001081GE19MSL   +99999+99999GF103991999999999999999999MA1999990096441MD1909990+0221REMSYN004BUFR
0116832880999992013083018004-13262-043408FM-15+044399999V0202601N002119999999N009999199+03501+01201999999ADDGA1021+009141991GE19MSL   +99999+99999MA1101601999990REMMET051METAR SBLP 301800Z 26004KT 9999 FEW030 35/12 Q1016=
0116832880999992013083019004-13262-043408FM-15+044399999V0200201N003619999999N009999199+03401+01301999999ADDGA1021+009141991GE19MSL   +99999+99999MA1101601999990REMMET051METAR SBLP 301900Z 02007KT 9999 FEW030 34/13 Q1016=
0116832880999992013083020004-13262-043408FM-15+044399999V0200301N003119999999N009999199+03301+01201999999ADDGA1021+009141991GE19MSL   +99999+99999MA1101601999990REMMET051METAR SBLP 302000Z 03006KT 9999 FEW030 33/12 Q1016=
0116832880999992013083021004-13262-043408FM-15+044399999V0203601N006219999999N009999199+03101+01401999999ADDGA1021+009141991GE19MSL   +99999+99999MA1101601999990REMMET051METAR SBLP 302100Z 36012KT 9999 FEW030 31/14 Q1016=
0098832880999992013083100004-13267-043417FM-12+044199999V0201801N0021122000199002000199+02521+01561101511ADDAA101999990AZ101061AZ201061GF100991999999999999999999MA1999990096631MD1909990+0041REMSYN004BUFR
0111832880999992013083112004-13267-043417FM-12+044199999V0200901N0021122000199020000199+02501+01561101801ADDAA101999990AZ101061AZ201061GF100991999999999999999999KA1120N+01921MA1999990096881MD1909990-0061REMSYN004BUFR
0136832880999992013083118004-13267-043417FM-12+044199999V0203601N0010199999999020000199+03201+01711101101ADDAA101999990AZ101061AZ201061GA1021+008001081GE19MSL   +99999+99999GF102991999999999999999999MA1999990096231MD1909990-0211REMSYN004BUFR
0072832880999992013090209154-13262-043408FM-16+044399999V0203501N002119999999Y999999999+02001+01501999999ADDMA1101601999990REMMET045SPECI SBLP 020915Z 35004KT CAVOK 20/15 Q1016=
0072832880999992013090210004-13262-043408FM-15+044399999V0203501N002119999999Y999999999+02101+01601999999ADDMA1101701999990REMMET045METAR SBLP 021000Z 35004KT CAVOK 21/16 Q1017=
0072832880999992013090211004-13262-043408FM-15+044399999V0203301N002119999999Y999999999+02301+01601999999ADDMA1101801999990REMMET045METAR SBLP 021100Z 33004KT CAVOK 23/16 Q1018=
0149832880999992013090212004-13267-043417FM-12+044199999V0200901N0010199999999020000199+02521+01591101551ADDAA124000631AZ101061AZ201061GA1041+012501031GE19MSL   +99999+99999GF104991999999999999999999KA1120N+02021MA1999990096641MD1909990-0061REMSYN004BUFR
0072832880999992013090212004-13262-043408FM-15+044399999V0203001N002619999999Y999999999+02601+01701999999ADDMA1101801999990REMMET045METAR SBLP 021200Z 30005KT CAVOK 26/17 Q1018=
0072832880999992013090213004-13262-043408FM-15+044399999V0202701N002119999999Y999999999+02901+01401999999ADDMA1101801999990REMMET045METAR SBLP 021300Z 27004KT CAVOK 29/14 Q1018=
0116832880999992013090214004-13262-043408FM-15+044399999V0203601N001019999999N009999199+03001+01401999999ADDGA1021+006101991GE19MSL   +99999+99999MA1101701999990REMMET051METAR SBLP 021400Z 36002KT 9999 FEW020 30/14 Q1017=
0116832880999992013090215004-13262-043408FM-15+044399999V0209999C000019999999N009999199+03201+01301999999ADDGA1021+006101991GE19MSL   +99999+99999MA1101601999990REMMET051METAR SBLP 021500Z 00000KT 9999 FEW020 32/13 Q1016=
0116832880999992013090216004-13262-043408FM-15+044399999V0200301N001519999999N009999199+03301+01201999999ADDGA1021+009141991GE19MSL   +99999+99999MA1101401999990REMMET051METAR SBLP 021600Z 03003KT 9999 FEW030 33/12 Q1014=
0116832880999992013090217004-13262-043408FM-15+044399999V0203301N002119999999N009999199+03401+01701999999ADDGA1041+009141991GE19MSL   +99999+99999MA1101201999990REMMET051METAR SBLP 021700Z 33004KT 9999 SCT030 34/17 Q1012=
0152832880999992013090218004-13267-043417FM-12+044199999V0202301N0015199999999020000199+03271+01781100791ADDAA101999990AZ101061AZ201061GA1031+008001081GA2991+999991021GE19MSL   +99999+99999GF105991999999999999999999MA1999990096001MD1909990+0081REMSYN004BUFR
0116832880999992013090218004-13262-043408FM-15+044399999V0203601N002619999999N009999199+03401+01401999999ADDGA1021+009141991GE19MSL   +99999+99999MA1101101999990REMMET051METAR SBLP 021800Z 36005KT 9999 FEW030 34/14 Q1011=
0139832880999992013090219004-13262-043408FM-15+044399999V0200301N00211030481CN009999199+03501+01301999999ADDGA1041+009141991GA2041+030481991GE19MSL   +99999+99999MA1101101999990REMMET058METAR SBLP 021900Z 03004KT 9999 SCT030 SCT100 35/13 Q1011=
0139832880999992013090220004-13262-043408FM-15+044399999V0203301N00261030481CN009999199+03501+01001999999ADDGA1041+009141991GA2041+030481991GE19MSL   +99999+99999MA1101101999990REMMET058METAR SBLP 022000Z 33005KT 9999 SCT030 SCT100 35/10 Q1011=
0139832880999992013090221004-13262-043408FM-15+044399999V0203101N00261030481CN009999199+03301+01301999999ADDGA1021+009141991GA2041+030481991GE19MSL   +99999+99999MA1101101999990REMMET058METAR SBLP 022100Z 31005KT 9999 FEW030 SCT100 33/13 Q1011=
0152832880999992013090300004-13267-043417FM-12+044199999V0201401N0015199999999002000199+02791+01381100971ADDAA101999990AZ101061AZ201061GA1011+008001081GA2991+999991031GE19MSL   +99999+99999GF102991999999999999999999MA1999990096121MD1909990-0181REMSYN004BUFR
0072832880999992013090309154-13262-043408FM-16+044399999V0209999C000019999999Y999999999+02001+01401999999ADDMA1101501999990REMMET045SPECI SBLP 030915Z 00000KT CAVOK 20/14 Q1015=
0165832880999992013090310004-13262-043408FM-15+044399999V0209999C000010295719N009999199+02101+01501999999ADDGA1021+009141991GA2071+029571991GE19MSL   +99999+99999GF199999021990009141991991MA1101601999990REMMET058METAR SBLP 031000Z 00000KT 9999 FEW030 BKN097 21/15 Q1016=
0072832880999992013090311004-13262-043408FM-15+044399999V0203101N002619999999Y999999999+02501+01501999999ADDMA1101701999990REMMET045METAR SBLP 031100Z 31005KT CAVOK 25/15 Q1017=
0149832880999992013090312004-13267-043417FM-12+044199999V0200901N0026199999999020000199+02651+01561101391ADDAA101999990AZ101061AZ201061GA1991+025001011GE19MSL   +99999+99999GF106991990990025001991991KA1120N+02161MA1999990096531MD1909990-0111REMSYN004BUFR
0072832880999992013090312004-13262-043408FM-15+044399999V0202701N002619999999Y999999999+02801+01501999999ADDMA1101701999990REMMET045METAR SBLP 031200Z 27005KT CAVOK 28/15 Q1017=
0165832880999992013090313004-13262-043408FM-15+044399999V0203601N002110304819N009999199+03001+01501999999ADDGA1021+009141991GA2071+030481991GE19MSL   +99999+99999GF199999021990009141991991MA1101701999990REMMET058METAR SBLP 031300Z 36004KT 9999 FEW030 BKN100 30/15 Q1017=
0165832880999992013090314004-13262-043408FM-15+044399999V0203101N00211030481CN009999199+03201+01501999999ADDGA1021+009141991GA2041+030481991GE19MSL   +99999+99999GF199999021990009141991991MA1101601999990REMMET058METAR SBLP 031400Z 31004KT 9999 FEW030 SCT100 32/15 Q1016=
0165832880999992013090315004-13262-043408FM-15+044399999V0202701N00261030481CN009999199+03301+01501999999ADDGA1021+009141991GA2041+030481991GE19MSL   +99999+99999GF199999021990009141991991MA1101501999990REMMET058METAR SBLP 031500Z 27005KT 9999 FEW030 SCT100 33/15 Q1015=
0142832880999992013090316004-13262-043408FM-15+044399999V0209999C000019999999N009999199+03401+01201999999ADDGA1021+009141991GE19MSL   +99999+99999GF199999021990009141991991MA1101401999990REMMET051METAR SBLP 031600Z 00000KT 9999 FEW030 34/12 Q1014=
0142832880999992013090317004-13262-043408FM-15+044399999V0201001N003119999999N009999199+03401+01201999999ADDGA1021+009141991GE19MSL   +99999+99999GF199999021990009141991991MA1101301999990REMMET051METAR SBLP 031700Z 10006KT 9999 FEW030 34/12 Q1013=
0152832880999992013090318004-13267-043417FM-12+044199999V0200501N0015199999999020000199+03341+01711100861ADDAA101999990AZ101061AZ201061GA1021+008001081GA2991+999991001GE19MSL   +99999+99999GF107991021990008001991991MA1999990096051MD1909990+0051REMSYN004BUFR
0142832880999992013090318004-13262-043408FM-15+044399999V0200301N002119999999N009999199+03401+01101999999ADDGA1041+009141991GE19MSL   +99999+99999GF199999041990009141991991MA1101201999990REMMET051METAR SBLP 031800Z 03004KT 9999 SCT030 34/11 Q1012=
0142832880999992013090319004-13262-043408FM-15+044399999V0200301N003119999999N009999199+03501+01101999999ADDGA1021+009141991GE19MSL   +99999+99999GF199999021990009141991991MA1101201999990REMMET051METAR SBLP 031900Z 03006KT 9999 FEW030 35/11 Q1012=
0142832880999992013090320004-13262-043408FM-15+044399999V0200401N001519999999N009999199+03401+01001999999ADDGA1021+009141991GE19MSL   +99999+99999GF199999021990009141991991MA1101201999990REMMET051METAR SBLP 032000Z 04003KT 9999 FEW030 34/10 Q1012=
0072832880999992013090321004-13262-043408FM-15+044399999V0200401N002119999999Y999999999+03101+01201999999ADDMA1101301999990REMMET045METAR SBLP 032100Z 04004KT CAVOK 31/12 Q1013=
0072832880999992013090409154-13262-043408FM-16+044399999V0209999C000019999999Y999999999+02101+01401999999ADDMA1101501999990REMMET045SPECI SBLP 040915Z 00000KT CAVOK 21/14 Q1015=
0072832880999992013090410004-13262-043408FM-15+044399999V0200401N002119999999Y999999999+02301+01301999999ADDMA1101601999990REMMET045METAR SBLP 041000Z 04004KT CAVOK 23/13 Q1016=
0072832880999992013090411004-13262-043408FM-15+044399999V0209999C000019999999Y999999999+02501+01401999999ADDMA1101701999990REMMET045METAR SBLP 041100Z 00000KT CAVOK 25/14 Q1017=
0072832880999992013090412004-13262-043408FM-15+044399999V0209999C000019999999Y999999999+02801+01401999999ADDMA1101701999990REMMET045METAR SBLP 041200Z 00000KT CAVOK 28/14 Q1017=
0072832880999992013090413004-13262-043408FM-15+044399999V0202201N002119999999Y999999999+03001+01401999999ADDMA1101701999990REMMET045METAR SBLP 041300Z 22004KT CAVOK 30/14 Q1017=
0072832880999992013090414004-13262-043408FM-15+044399999V0201401N002119999999Y999999999+03301+01401999999ADDMA1101701999990REMMET045METAR SBLP 041400Z 14004KT CAVOK 33/14 Q1017=
0142832880999992013090415004-13262-043408FM-15+044399999V0209999C000019999999N009999199+03401+01401999999ADDGA1021+009141991GE19MSL   +99999+99999GF199999021990009141991991MA1101601999990REMMET051METAR SBLP 041500Z 00000KT 9999 FEW030 34/14 Q1016=
0142832880999992013090416004-13262-043408FM-15+044399999V0201701N002119999999N009999199+03601+01101999999ADDGA1021+009141991GE19MSL   +99999+99999GF199999021990009141991991MA1101401999990REMMET051METAR SBLP 041600Z 17004KT 9999 FEW030 36/11 Q1014=
0142832880999992013090417004-13262-043408FM-15+044399999V0200201N003119999999N009999199+03601+01101999999ADDGA1021+009141991GE19MSL   +99999+99999GF199999021990009141991991MA1101301999990REMMET051METAR SBLP 041700Z 02006KT 9999 FEW030 36/11 Q1013=
0152832880999992013090418004-13267-043417FM-12+044199999V0202701N0010199999999020000199+03551+01821100871ADDAA101999990AZ101061AZ201061GA1031+008001081GA2991+999991021GE19MSL   +99999+99999GF106991031990008001991991MA1999990096081MD1909990+0031REMSYN004BUFR
0142832880999992013090418004-13262-043408FM-15+044399999V0201201N002619999999N009999199+03701+01101999999ADDGA1021+009141991GE19MSL   +99999+99999GF199999021990009141991991MA1101301999990REMMET051METAR SBLP 041800Z 12005KT 9999 FEW030 37/11 Q1013=
0142832880999992013090419004-13262-043408FM-15+044399999V0200901N003119999999N009999199+03601+01002999999ADDGA1021+009141991GE19MSL   +99999+99999GF199999021990009141991991MA1101201999990REMMET051METAR SBLP 041900Z 09006KT 9999 FEW030 36/10 Q1012=
0165832880999992013090420004-13262-043408FM-15+044399999V0200101N00151030481CN009999199+03601+01001999999ADDGA1021+009141991GA2041+030481991GE19MSL   +99999+99999GF199999021990009141991991MA1101301999990REMMET058METAR SBLP 042000Z 01003KT 9999 FEW030 SCT100 36/10 Q1013=
0165832880999992013090421004-13262-043408FM-15+044399999V0209999C000010304819N009999199+03401+01101999999ADDGA1021+009141991GA2071+030481991GE19MSL   +99999+99999GF199999021990009141991991MA1101301999990REMMET058METAR SBLP 042100Z 00000KT 9999 FEW030 BKN100 34/11 Q1013=
0072832880999992013090509154-13262-043408FM-16+044399999V0203301N002119999999Y999999999+02401+01701999999ADDMA1101701999990REMMET045SPECI SBLP 050915Z 33004KT CAVOK 24/17 Q1017=
0072832880999992013090510004-13262-043408FM-15+044399999V0203101N002119999999Y999999999+02401+01701999999ADDMA1101801999990REMMET045METAR SBLP 051000Z 31004KT CAVOK 24/17 Q1018=
0072832880999992013090511004-13262-043408FM-15+044399999V0203301N002619999999Y999999999+02801+01701999999ADDMA1101801999990REMMET045METAR SBLP 051100Z 33005KT CAVOK 28/17 Q1018=
0165832880999992013090512004-13267-043417FM-12+044199999V0200901N0010199999999020000199+02791+01711101471ADDAA101999990AZ101061AZ201061GA1021+012501051GA2991+999991021GE19MSL   +99999+99999GF104991021990012501991991KA1120N+02301MA1999990096661MD1909990+0111REMSYN004BUFR
0072832880999992013090512004-13262-043408FM-15+044399999V0203601N002619999999Y999999999+03001+01701999999ADDMA1101901999990REMMET045METAR SBLP 051200Z 36005KT CAVOK 30/17 Q1019=
0072832880999992013090513004-13262-043408FM-15+044399999V0203301N004119999999Y999999999+03101+01601999999ADDMA1101901999990REMMET045METAR SBLP 051300Z 33008KT CAVOK 31/16 Q1019=
0142832880999992013090514004-13262-043408FM-15+044399999V0203001N002619999999N009999199+03301+01701999999ADDGA1021+009141991GE19MSL   +99999+99999GF199999021990009141991991MA1101801999990REMMET051METAR SBLP 051400Z 30005KT 9999 FEW030 33/17 Q1018=
0142832880999992013090515004-13262-043408FM-15+044399999V0203201N003119999999N009999199+03401+01101999999ADDGA1021+009141991GE19MSL   +99999+99999GF199999021990009141991991MA1101701999990REMMET051METAR SBLP 051500Z 32006KT 9999 FEW030 34/11 Q1017=
0142832880999992013090516004-13262-043408FM-15+044399999V0200201N004119999999N009999199+03501+01301999999ADDGA1021+009141991GE19MSL   +99999+99999GF199999021990009141991991MA1101601999990REMMET051METAR SBLP 051600Z 02008KT 9999 FEW030 35/13 Q1016=
0142832880999992013090517004-13262-043408FM-15+044399999V0203201N006219999999N009999199+03501+01001999999ADDGA1041+009141991GE19MSL   +99999+99999GF199999041990009141991991MA1101501999990REMMET051METAR SBLP 051700Z 32012KT 9999 SCT030 35/10 Q1015=
0168832880999992013090518004-13267-043417FM-12+044199999V0201401N0010199999999020000199+03391+01681101011ADDAA101999990AZ101061AZ201061GA1031+008001081GA2991+999991021GA3991+999991051GE19MSL   +99999+99999GF106991031990008001991991MA1999990096241MD1909990+0161REMSYN004BUFR
0142832880999992013090518004-13262-043408FM-15+044399999V0203001N004119999999N009999199+03501+01301999999ADDGA1041+009141991GE19MSL   +99999+99999GF199999041990009141991991MA1101401999990REMMET051METAR SBLP 051800Z 30008KT 9999 SCT030 35/13 Q1014=
0142832880999992013090519004-13262-043408FM-15+044399999V0203401N003119999999N009999199+03401+01101999999ADDGA1041+009141991GE19MSL   +99999+99999GF199999041990009141991991MA1101401999990REMMET051METAR SBLP 051900Z 34006KT 9999 SCT030 34/11 Q1014=
0142832880999992013090520004-13262-043408FM-15+044399999V0203601N006219999999N009999199+03301+01201999999ADDGA1021+009141991GE19MSL   +99999+99999GF199999021990009141991991MA1101401999990REMMET051METAR SBLP 052000Z 36012KT 9999 FEW030 33/12 Q1014=
0142832880999992013090521004-13262-043408FM-15+044399999V0203501N006719999999N009999199+03201+01101999999ADDGA1021+009141991GE19MSL   +99999+99999GF199999021990009141991991MA1101501999990REMMET051METAR SBLP 052100Z 35013KT 9999 FEW030 32/11 Q1015=
0136832880999992013090600004-13267-043417FM-12+044199999V0200501N0015100800199002000199+02901+01601101351ADDAA101999990AZ101061AZ201061GA1051+008001081GE19MSL   +99999+99999GF105991051990008001991991MA1999990096521MD1909990+0191REMSYN004BUFR
0072832880999992013090609154-13262-043408FM-16+044399999V0200201N002119999999Y999999999+02101+01501999999ADDMA1101801999990REMMET045SPECI SBLP 060915Z 02004KT CAVOK 21/15 Q1018=
0072832880999992013090610004-13262-043408FM-15+044399999V0200101N002119999999Y999999999+02301+01601999999ADDMA1101901999990REMMET045METAR SBLP 061000Z 01004KT CAVOK 23/16 Q1019=
0072832880999992013090611004-13262-043408FM-15+044399999V0203601N004119999999Y999999999+02601+01601999999ADDMA1101901999990REMMET045METAR SBLP 061100Z 36008KT CAVOK 26/16 Q1019=
0149832880999992013090612004-13267-043417FM-12+044199999V0201801N0026199999999020000199+02601+01761101631ADDAA101999990AZ101061AZ201061GA1991+025001011GE19MSL   +99999+99999GF101991990990025001991991KA1120N+02191MA1999990096771MD1909990+0111REMSYN004BUFR
0072832880999992013090612004-13262-043408FM-15+044399999V0203601N004119999999Y999999999+02701+01601999999ADDMA1102001999990REMMET045METAR SBLP 061200Z 36008KT CAVOK 27/16 Q1020=
0072832880999992013090613004-13262-043408FM-15+044399999V0203601N003119999999Y999999999+03001+01601999999ADDMA1102001999990REMMET045METAR SBLP 061300Z 36006KT CAVOK 30/16 Q1020=
0142832880999992013090614004-13262-043408FM-15+044399999V0203501N003119999999N009999199+03101+01601999999ADDGA1021+009141991GE19MSL   +99999+99999GF199999021990009141991991MA1101901999990REMMET051METAR SBLP 061400Z 35006KT 9999 FEW030 31/16 Q1019=
0142832880999992013090615004-13262-043408FM-15+044399999V0203601N004119999999N009999199+03201+01701999999ADDGA1021+009141991GE19MSL   +99999+99999GF199999021990009141991991MA1101801999990REMMET051METAR SBLP 061500Z 36008KT 9999 FEW030 32/17 Q1018=
0142832880999992013090616004-13262-043408FM-15+044399999V0203501N004119999999N009999199+03201+01601999999ADDGA1021+009141991GE19MSL   +99999+99999GF199999021990009141991991MA1101701999990REMMET051METAR SBLP 061600Z 35008KT 9999 FEW030 32/16 Q1017=
0142832880999992013090617004-13262-043408FM-15+044399999V0203101N002119999999N009999199+03301+01501999999ADDGA1021+009141991GE19MSL   +99999+99999GF199999021990009141991991MA1101601999990REMMET051METAR SBLP 061700Z 31004KT 9999 FEW030 33/15 Q1016=
0136832880999992013090618004-13267-043417FM-12+044199999V0200901N0031199999999020000199+03241+01751101141ADDAA101999990AZ101061AZ201061GA1011+008001081GE19MSL   +99999+99999GF101991011990008001991991MA1999990096301MD1909990+0061REMSYN004BUFR
0142832880999992013090618004-13262-043408FM-15+044399999V0203601N005119999999N009999199+03301+01501999999ADDGA1021+009141991GE19MSL   +99999+99999GF199999021990009141991991MA1101501999990REMMET051METAR SBLP 061800Z 36010KT 9999 FEW030 33/15 Q1015=
0142832880999992013090619004-13262-043408FM-15+044399999V0203601N006219999999N009999199+03301+01501999999ADDGA1021+009141991GE19MSL   +99999+99999GF199999021990009141991991MA1101501999990REMMET051METAR SBLP 061900Z 36012KT 9999 FEW030 33/15 Q1015=
0072832880999992013090620004-13262-043408FM-15+044399999V0203601N005119999999Y999999999+03101+01501999999ADDMA1101501999990REMMET045METAR SBLP 062000Z 36010KT CAVOK 31/15 Q1015=
0072832880999992013090621004-13262-043408FM-15+044399999V0203601N005119999999Y999999999+03001+01401999999ADDMA1101601999990REMMET045METAR SBLP 062100Z 36010KT CAVOK 30/14 Q1016=
0098832880999992013090700004-13267-043417FM-12+044199999V0201401N0026122000199002000199+02741+01641101381ADDAA101999990AZ101061AZ201061GF100991999999999999999999MA1999990096521MD1909990+0001REMSYN004BUFR
0072832880999992013090709154-13262-043408FM-16+044399999V0200501N003119999999Y999999999+02001+01501999999ADDMA1101901999990REMMET045SPECI SBLP 070915Z 05006KT CAVOK 20/15 Q1019=
0072832880999992013090710004-13262-043408FM-15+044399999V0200401N002619999999Y999999999+02101+01501999999ADDMA1101901999990REMMET045METAR SBLP 071000Z 04005KT CAVOK 21/15 Q1019=
0142832880999992013090711004-13262-043408FM-15+044399999V0200101N003619999999N009999199+02401+01501999999ADDGA1021+006101991GE19MSL   +99999+99999GF199999021990006101991991MA1101901999990REMMET051METAR SBLP 071100Z 01007KT 9999 FEW020 24/15 Q1019=
0111832880999992013090712004-13267-043417FM-12+044199999V0201401N0026122000199020000199+02521+01551101671ADDAA101999990AZ101061AZ201061GF100991999999999999999999KA1120N+02061MA1999990096781MD1909990+0011REMSYN004BUFR
0072832880999992013090712004-13262-043408FM-15+044399999V0203301N003119999999Y999999999+02701+01501999999ADDMA1102001999990REMMET045METAR SBLP 071200Z 33006KT CAVOK 27/15 Q1020=
0142832880999992013090713004-13262-043408FM-15+044399999V0200301N002119999999N009999199+02901+01501999999ADDGA1021+009141991GE19MSL   +99999+99999GF199999021990009141991991MA1102001999990REMMET051METAR SBLP 071300Z 03004KT 9999 FEW030 29/15 Q1020=
0142832880999992013090714004-13262-043408FM-15+044399999V0200401N005119999999N009999199+03101+01401999999ADDGA1021+009141991GE19MSL   +99999+99999GF199999021990009141991991MA1101901999990REMMET051METAR SBLP 071400Z 04010KT 9999 FEW030 31/14 Q1019=
0142832880999992013090715004-13262-043408FM-15+044399999V0200101N003619999999N009999199+03201+01401999999ADDGA1041+009141991GE19MSL   +99999+99999GF199999041990009141991991MA1101701999990REMMET051METAR SBLP 071500Z 01007KT 9999 SCT030 32/14 Q1017=
0142832880999992013090716004-13262-043408FM-15+044399999V0203601N002619999999N009999199+03301+01601999999ADDGA1041+009141991GE19MSL   +99999+99999GF199999041990009141991991MA1101601999990REMMET051METAR SBLP 071600Z 36005KT 9999 SCT030 33/16 Q1016=
0142832880999992013090717004-13262-043408FM-15+044399999V0200301N002119999999N009999199+03401+01301999999ADDGA1041+009141991GE19MSL   +99999+99999GF199999041990009141991991MA1101501999990REMMET051METAR SBLP 071700Z 03004KT 9999 SCT030 34/13 Q1015=
0152832880999992013090718004-13267-043417FM-12+044199999V0201401N0021199999999020000199+03291+01591101061ADDAA101999990AZ101061AZ201061GA1031+008001081GA2991+999991001GE19MSL   +99999+99999GF105991031990008001991991MA1999990096231MD1909990-0071REMSYN004BUFR
0142832880999992013090718004-13262-043408FM-15+044399999V0203601N003119999999N009999199+03401+01201999999ADDGA1041+009141991GE19MSL   +99999+99999GF199999041990009141991991MA1101401999990REMMET051METAR SBLP 071800Z 36006KT 9999 SCT030 34/12 Q1014=
0142832880999992013090719004-13262-043408FM-15+044399999V0200301N005119999999N009999199+03301+01401999999ADDGA1041+009141991GE19MSL   +99999+99999GF199999041990009141991991MA1101401999990REMMET051METAR SBLP 071900Z 03010KT 9999 SCT030 33/14 Q1014=
0142832880999992013090720004-13262-043408FM-15+044399999V0200301N005719999999N009999199+03301+01601999999ADDGA1021+009141991GE19MSL   +99999+99999GF199999021990009141991991MA1101501999990REMMET051METAR SBLP 072000Z 03011KT 9999 FEW030 33/16 Q1015=
0165832880999992013090721004-13262-043408FM-15+044399999V0200301N00511030481CN009999199+03001+01301999999ADDGA1021+009141991GA2041+030481991GE19MSL   +99999+99999GF199999021990009141991991MA1101601999990REMMET058METAR SBLP 072100Z 03010KT 9999 FEW030 SCT100 30/13 Q1016=
0072832880999992013090809154-13262-043408FM-16+044399999V0209999C000019999999Y999999999+01901+01601999999ADDMA1101901999990REMMET045SPECI SBLP 080915Z 00000KT CAVOK 19/16 Q1019=
0072832880999992013090810004-13262-043408FM-15+044399999V0200801N002119999999Y999999999+02101+01501999999ADDMA1101901999990REMMET045METAR SBLP 081000Z 08004KT CAVOK 21/15 Q1019=
0072832880999992013090811004-13262-043408FM-15+044399999V0200301N003119999999Y999999999+02401+01601999999ADDMA1102001999990REMMET045METAR SBLP 081100Z 03006KT CAVOK 24/16 Q1020=
0181832880999992013090812004-13267-043417FM-12+044199999V0200901N0010199999999020000199+02621+01621101721ADDAA101999990AZ101061AZ201061GA1011+008001081GA2991+999991021GA3991+999991031GE19MSL   +99999+99999GF104991011990008001991991KA1120N+01981MA1999990096821MD1909990+0041REMSYN004BUFR
0072832880999992013090812004-13262-043408FM-15+044399999V0203301N003619999999Y999999999+02801+01601999999ADDMA1102001999990REMMET045METAR SBLP 081200Z 33007KT CAVOK 28/16 Q1020=
0142832880999992013090813004-13262-043408FM-15+044399999V0203601N002619999999N009999199+03001+01501999999ADDGA1021+009141991GE19MSL   +99999+99999GF199999021990009141991991MA1102001999990REMMET051METAR SBLP 081300Z 36005KT 9999 FEW030 30/15 Q1020=
0165832880999992013090814004-13262-043408FM-15+044399999V0209999C00001030481CN009999199+03201+01601999999ADDGA1021+009141991GA2041+030481991GE19MSL   +99999+99999GF199999021990009141991991MA1101901999990REMMET058METAR SBLP 081400Z 00000KT 9999 FEW030 SCT100 32/16 Q1019=
0165832880999992013090815004-13262-043408FM-15+044399999V0203001N00211030481CN009999199+03301+01501999999ADDGA1021+009141991GA2041+030481991GE19MSL   +99999+99999GF199999021990009141991991MA1101801999990REMMET058METAR SBLP 081500Z 30004KT 9999 FEW030 SCT100 33/15 Q1018=
0142832880999992013090816004-13262-043408FM-15+044399999V0200301N003119999999N009999199+03401+01301999999ADDGA1021+009141991GE19MSL   +99999+99999GF199999021990009141991991MA1101701999990REMMET051METAR SBLP 081600Z 03006KT 9999 FEW030 34/13 Q1017=
0142832880999992013090817004-13262-043408FM-15+044399999V0200201N002119999999N009999199+03301+01301999999ADDGA1021+009141991GE19MSL   +99999+99999GF199999021990009141991991MA1101601999990REMMET051METAR SBLP 081700Z 02004KT 9999 FEW030 33/13 Q1016=
0168832880999992013090818004-13267-043417FM-12+044199999V0200901N0015199999999020000199+03271+01621101191ADDAA101999990AZ101061AZ201061GA1021+008001081GA2991+999991011GA3991+999991031GE19MSL   +99999+99999GF105991021990008001991991MA1999990096361MD1909990+0131REMSYN004BUFR
0142832880999992013090818004-13262-043408FM-15+044399999V0203301N002119999999N009999199+03501+01301999999ADDGA1021+009141991GE19MSL   +99999+99999GF199999021990009141991991MA1101501999990REMMET051METAR SBLP 081800Z 33004KT 9999 FEW030 35/13 Q1015=
0142832880999992013090819004-13262-043408FM-15+044399999V0200201N005119999999N009999199+03301+01301999999ADDGA1021+009141991GE19MSL   +99999+99999GF199999021990009141991991MA1101601999990REMMET051METAR SBLP 081900Z 02010KT 9999 FEW030 33/13 Q1016=
0142832880999992013090820004-13262-043408FM-15+044399999V0200201N005119999999N009999199+03201+01301999999ADDGA1021+009141991GE19MSL   +99999+99999GF199999021990009141991991MA1101601999990REMMET051METAR SBLP 082000Z 02010KT 9999 FEW030 32/13 Q1016=
0072832880999992013090821004-13262-043408FM-15+044399999V0203601N007219999999Y999999999+03001+01301999999ADDMA1101601999990REMMET045METAR SBLP 082100Z 36014KT CAVOK 30/13 Q1016=
0072832880999992013091009154-13262-043408FM-16+044399999V0209999C000019999999Y999999999+01801+01201999999ADDMA1101901999990REMMET045SPECI SBLP 100915Z 00000KT CAVOK 18/12 Q1019=
0072832880999992013091010004-13262-043408FM-15+044399999V0200201N002119999999Y999999999+02001+01301999999ADDMA1102001999990REMMET045METAR SBLP 101000Z 02004KT CAVOK 20/13 Q1020=
0072832880999992013091011004-13262-043408FM-15+044399999V0203601N003119999999Y999999999+02401+01301999999ADDMA1102101999990REMMET045METAR SBLP 101100Z 36006KT CAVOK 24/13 Q1021=
0165832880999992013091012004-13267-043417FM-12+044199999V0200501N0015199999999020000199+02521+01351101801ADDAA101999990AZ101061AZ201061GA1021+012501051GA2991+999991021GE19MSL   +99999+99999GF104991021990012501991991KA1120N+01941MA1999990096901MD1909990+0031REMSYN004BUFR
0072832880999992013091012004-13262-043408FM-15+044399999V0203301N005119999999Y999999999+02601+01301999999ADDMA1102101999990REMMET045METAR SBLP 101200Z 33010KT CAVOK 26/13 Q1021=
0072832880999992013091013004-13262-043408FM-15+044399999V0203401N006219999999Y999999999+02801+01101999999ADDMA1102101999990REMMET045METAR SBLP 101300Z 34012KT CAVOK 28/11 Q1021=
0142832880999992013091014004-13262-043408FM-15+044399999V0203601N005119999999N009999199+03001+01001999999ADDGA1021+009141991GE19MSL   +99999+99999GF199999021990009141991991MA1102001999990REMMET051METAR SBLP 101400Z 36010KT 9999 FEW030 30/10 Q1020=
0142832880999992013091015004-13262-043408FM-15+044399999V0203401N006219999999N009999199+03101+01101999999ADDGA1021+009141991GE19MSL   +99999+99999GF199999021990009141991991MA1101901999990REMMET051METAR SBLP 101500Z 34012KT 9999 FEW030 31/11 Q1019=
0142832880999992013091016004-13262-043408FM-15+044399999V0200901N003119999999N009999199+03301+00901999999ADDGA1021+009141991GE19MSL   +99999+99999GF199999021990009141991991MA1101801999990REMMET051METAR SBLP 101600Z 09006KT 9999 FEW030 33/09 Q1018=
0142832880999992013091017004-13262-043408FM-15+044399999V0209999C000019999999N009999199+03301+01001999999ADDGA1021+009141991GE19MSL   +99999+99999GF199999021990009141991991MA1101701999990REMMET051METAR SBLP 101700Z 00000KT 9999 FEW030 33/10 Q1017=
0152832880999992013091018004-13267-043417FM-12+044199999V0201401N0015100450199020000199+03241+01221101251ADDAA101999990AZ101061AZ201061GA1051+004501081GA2991+999991051GE19MSL   +99999+99999GF107991051990004501991991MA1999990096401MD1909990+0001REMSYN004BUFR
0142832880999992013091018004-13262-043408FM-15+044399999V0201801N003119999999N009999199+03301+01001999999ADDGA1041+009141991GE19MSL   +99999+99999GF199999041990009141991991MA1101601999990REMMET051METAR SBLP 101800Z 18006KT 9999 SCT030 33/10 Q1016=
0142832880999992013091019004-13262-043408FM-15+044399999V0201301N002119999999N009999199+03301+01001999999ADDGA1041+009141991GE19MSL   +99999+99999GF199999041990009141991991MA1101601999990REMMET051METAR SBLP 101900Z 13004KT 9999 SCT030 33/10 Q1016=
0142832880999992013091020004-13262-043408FM-15+044399999V0201701N005119999999N009999199+03101+01001999999ADDGA1021+009141991GE19MSL   +99999+99999GF199999021990009141991991MA1101601999990REMMET051METAR SBLP 102000Z 17010KT 9999 FEW030 31/10 Q1016=
0072832880999992013091021004-13262-043408FM-15+044399999V0201701N003119999999Y999999999+03001+01001999999ADDMA1101601999990REMMET045METAR SBLP 102100Z 17006KT CAVOK 30/10 Q1016=
0136832880999992013091100004-13267-043417FM-12+044199999V0201401N0015199999999002000199+02641+01401101501ADDAA101999990AZ101061AZ201061GA1031+008001081GE19MSL   +99999+99999GF103991031990008001991991MA1999990096611MD1909990-0031REMSYN004BUFR
0142832880999992013091109154-13262-043408FM-16+044399999V0202101N001019999999N009999199+02101+01601999999ADDGA1021+006101991GE19MSL   +99999+99999GF199999021990006101991991MA1101801999990REMMET051SPECI SBLP 110915Z 21002KT 9999 FEW020 21/16 Q1018=
0142832880999992013091110004-13262-043408FM-15+044399999V0201701N006219999999N009999199+02301+01501999999ADDGA1021+006101991GE19MSL   +99999+99999GF199999021990006101991991MA1101901999990REMMET051METAR SBLP 111000Z 17012KT 9999 FEW020 23/15 Q1019=
0142832880999992013091111004-13262-043408FM-15+044399999V0201801N004119999999N009999199+02401+01401999999ADDGA1021+009141991GE19MSL   +99999+99999GF199999021990009141991991MA1102001999990REMMET051METAR SBLP 111100Z 18008KT 9999 FEW030 24/14 Q1020=
0149832880999992013091112004-13267-043417FM-12+044199999V0201401N0015199999999020000199+02501+01391101731ADDAA101999990AZ101061AZ201061GA1041+008001081GE19MSL   +99999+99999GF104991041990008001991991KA1120N+02061MA1999990096831MD1909990-0071REMSYN004BUFR
0142832880999992013091112004-13262-043408FM-15+044399999V0202401N006219999999N009999199+02601+01401999999ADDGA1021+009141991GE19MSL   +99999+99999GF199999021990009141991991MA1102001999990REMMET051METAR SBLP 111200Z 24012KT 9999 FEW030 26/14 Q1020=
0142832880999992013091113004-13262-043408FM-15+044399999V0202301N006219999999N009999199+02701+01301999999ADDGA1021+009141991GE19MSL   +99999+99999GF199999021990009141991991MA1102001999990REMMET051METAR SBLP 111300Z 23012KT 9999 FEW030 27/13 Q1020=
0072832880999992013091115004-13262-043408FM-15+044399999V0201701N003119999999Y999999999+03101+00901999999ADDMA1101801999990REMMET045METAR SBLP 111500Z 17006KT CAVOK 31/09 Q1018=
0072832880999992013091116004-13262-043408FM-15+044399999V0200901N003619999999Y999999999+03201+00601999999ADDMA1101701999990REMMET045METAR SBLP 111600Z 09007KT CAVOK 32/06 Q1017=
0072832880999992013091117004-13262-043408FM-15+044399999V0201501N006219999999Y999999999+03201+00601999999ADDMA1101601999990REMMET045METAR SBLP 111700Z 15012KT CAVOK 32/06 Q1016=
0152832880999992013091118004-13267-043417FM-12+044199999V0201801N0015199999999020000199+03091+01131101141ADDAA101999990AZ101061AZ201061GA1011+008001081GA2991+999991001GE19MSL   +99999+99999GF102991011990008001991991MA1999990096271MD1909990-0131REMSYN004BUFR
0072832880999992013091118004-13262-043408FM-15+044399999V0201401N004119999999Y999999999+03301+00701999999ADDMA1101401999990REMMET045METAR SBLP 111800Z 14008KT CAVOK 33/07 Q1014=
0072832880999992013091119004-13262-043408FM-15+044399999V0201701N006219999999Y999999999+03301+00601999999ADDMA1101401999990REMMET045METAR SBLP 111900Z 17012KT CAVOK 33/06 Q1014=
0072832880999992013091120004-13262-043408FM-15+044399999V0201701N005119999999Y999999999+03201+00601999999ADDMA1101401999990REMMET045METAR SBLP 112000Z 17010KT CAVOK 32/06 Q1014=
0072832880999992013091121004-13262-043408FM-15+044399999V0201601N003619999999Y999999999+02901+00601999999ADDMA1101501999990REMMET045METAR SBLP 112100Z 16007KT CAVOK 29/06 Q1015=
0136832880999992013091200004-13267-043417FM-12+044199999V0201401N0010199999999002000199+02471+01161101371ADDAA101999990AZ101061AZ201061GA1991+025001021GE19MSL   +99999+99999GF103991990990025001991991MA1999990096471MD1909990-0431REMSYN004BUFR
0072832880999992013091209154-13262-043408FM-16+044399999V0201201N002119999999Y999999999+02001+01301999999ADDMA1101801999990REMMET045SPECI SBLP 120915Z 12004KT CAVOK 20/13 Q1018=
0165832880999992013091210004-13262-043408FM-15+044399999V0201201N00211030481CN009999199+02101+01401999999ADDGA1021+006101991GA2041+030481991GE19MSL   +99999+99999GF199999021990006101991991MA1101801999990REMMET058METAR SBLP 121000Z 12004KT 9999 FEW020 SCT100 21/14 Q1018=
0165832880999992013091211004-13262-043408FM-15+044399999V0201001N004110304819N009999199+02301+01401999999ADDGA1021+006101991GA2071+030481991GE19MSL   +99999+99999GF199999021990006101991991MA1101901999990REMMET058METAR SBLP 121100Z 10008KT 9999 FEW020 BKN100 23/14 Q1019=
0181832880999992013091212004-13267-043417FM-12+044199999V0201401N0026100800199020000199+02391+01591101641ADDAA101999990AZ101061AZ201061GA1081+008001061GA2991+999991101GA3991+999991101GE19MSL   +99999+99999GF108991081990008001991991KA1120N+01951MA1999990096711MD1909990-0121REMSYN004BUFR
0165832880999992013091212004-13262-043408FM-15+044399999V0201201N004110304819N009999199+02501+01501999999ADDGA1041+006101991GA2071+030481991GE19MSL   +99999+99999GF199999041990006101991991MA1101901999990REMMET058METAR SBLP 121200Z 12008KT 9999 SCT020 BKN100 25/15 Q1019=
0165832880999992013091213004-13262-043408FM-15+044399999V0200701N003110304819N009999199+02601+01401999999ADDGA1041+006101991GA2071+030481991GE19MSL   +99999+99999GF199999041990006101991991MA1101901999990REMMET058METAR SBLP 121300Z 07006KT 9999 SCT020 BKN100 26/14 Q1019=
0165832880999992013091214004-13262-043408FM-15+044399999V0201501N003110304819N009999199+02601+01601999999ADDGA1021+006101991GA2071+030481991GE19MSL   +99999+99999GF199999021990006101991991MA1101901999990REMMET058METAR SBLP 121400Z 15006KT 9999 FEW020 BKN100 26/16 Q1019=
0142832880999992013091215004-13262-043408FM-15+044399999V0201801N003119999999N009999199+02801+01601999999ADDGA1041+006101991GE19MSL   +99999+99999GF199999041990006101991991MA1101701999990REMMET051METAR SBLP 121500Z 18006KT 9999 SCT020 28/16 Q1017=
0165832880999992013091216004-13262-043408FM-15+044399999V0201201N00211030481CN009999199+02901+01501999999ADDGA1041+009141991GA2041+030481991GE19MSL   +99999+99999GF199999041990009141991991MA1101601999990REMMET058METAR SBLP 121600Z 12004KT 9999 SCT030 SCT100 29/15 Q1016=
0142832880999992013091217004-13262-043408FM-15+044399999V0201301N002110070119N009999199+02901+01601999999ADDGA1071+007011991GE19MSL   +99999+99999GF199999071990007011991991MA1101501999990REMMET051METAR SBLP 121700Z 13004KT 9999 BKN023 29/16 Q1015=
0152832880999992013091218004-13267-043417FM-12+044199999V0201401N0015100800199020000199+02891+01591101141ADDAA101999990AZ101061AZ201061GA1061+008001061GA2991+999991031GE19MSL   +99999+99999GF107991061990008001991991MA1999990096231MD1909990-0041REMSYN004BUFR
0149832880999992013091218004-13262-043408FM-15+044399999V0201401N00151030481CN009999199+03001+01501999999ADDGA1041+008231991GA2041+030481991GE19MSL   +99999+99999GF199999041990008231991991REMMET057METAR SBLP 121800Z 14003KT 9999 SCT027 SCT100 30/15 Q014=
0142832880999992013091219004-13262-043408FM-15+044399999V0201201N001519999999N009999199+03001+01201999999ADDGA1041+009141991GE19MSL   +99999+99999GF199999041990009141991991MA1101301999990REMMET051METAR SBLP 121900Z 12003KT 9999 SCT030 30/12 Q1013=
0165832880999992013091220004-13262-043408FM-15+044399999V0201401N00211009141CN009999199+03001+01201999999ADDGA1021+006101991GA2041+009141991GE19MSL   +99999+99999GF199999021990006101991991MA1101401999990REMMET058METAR SBLP 122000Z 14004KT 9999 FEW020 SCT030 30/12 Q1014=
0165832880999992013091221004-13262-043408FM-15+044399999V0209999C00001030481CN009999199+02901+01301999999ADDGA1041+006101991GA2041+030481991GE19MSL   +99999+99999GF199999041990006101991991MA1101401999990REMMET058METAR SBLP 122100Z 00000KT 9999 SCT020 SCT100 29/13 Q1014=
0168832880999992013091300004-13267-043417FM-12+044199999V0201401N0026100800199002000199+02541+01451101341ADDAA101999990AZ101061AZ201061GA1081+008001061GA2991+999991101GA3991+999991101GE19MSL   +99999+99999GF108991081990008001991991MA1999990096441MD1909990-0031REMSYN004BUFR
0072832880999992013091309154-13262-043408FM-16+044399999V0209999C000019999999Y999999999+01801+01301999999ADDMA1101801999990REMMET045SPECI SBLP 130915Z 00000KT CAVOK 18/13 Q1018=
0072832880999992013091310004-13262-043408FM-15+044399999V0209999C000019999999Y999999999+02001+01501999999ADDMA1101801999990REMMET045METAR SBLP 131000Z 00000KT CAVOK 20/15 Q1018=
0165832880999992013091312004-13267-043417FM-12+044199999V0200901N0015199999999020000199+02471+01401101591ADDAA101999990AZ101061AZ201061GA1021+012501051GA2991+999991021GE19MSL   +99999+99999GF104991021990012501991991KA1120N+01971MA1999990096681MD1909990-0031REMSYN004BUFR
0072832880999992013091312004-13262-043408FM-15+044399999V0209999C000019999999Y999999999+02801+01301999999ADDMA1101901999990REMMET045METAR SBLP 131200Z 00000KT CAVOK 28/13 Q1019=
0072832880999992013091313004-13262-043408FM-15+044399999V0201401N005119999999Y999999999+02801+01601999999ADDMA1101901999990REMMET045METAR SBLP 131300Z 14010KT CAVOK 28/16 Q1019=
0142832880999992013091314004-13262-043408FM-15+044399999V0201601N005119999999N009999199+03101+01401999999ADDGA1021+009141991GE19MSL   +99999+99999GF199999021990009141991991MA1101801999990REMMET051METAR SBLP 131400Z 16010KT 9999 FEW030 31/14 Q1018=
0142832880999992013091315004-13262-043408FM-15+044399999V0201601N004119999999N009999199+03001+01501999999ADDGA1021+009141991GE19MSL   +99999+99999GF199999021990009141991991MA1101701999990REMMET051METAR SBLP 131500Z 16008KT 9999 FEW030 30/15 Q1017=
0142832880999992013091316004-13262-043408FM-15+044399999V0209999C000019999999N009999199+03201+01201999999ADDGA1021+009141991GE19MSL   +99999+99999GF199999021990009141991991MA1101501999990REMMET051METAR SBLP 131600Z 00000KT 9999 FEW030 32/12 Q1015=
0142832880999992013091317004-13262-043408FM-15+044399999V0200701N002119999999N009999199+03301+01301999999ADDGA1021+009141991GE19MSL   +99999+99999GF199999021990009141991991MA1101401999990REMMET051METAR SBLP 131700Z 07004KT 9999 FEW030 33/13 Q1014=
0168832880999992013091318004-13267-043417FM-12+044199999V0200501N0015199999999020000199+03221+01391101091ADDAA101999990AZ101061AZ201061GA1041+008001081GA2991+999991021GA3991+999991051GE19MSL   +99999+99999GF107991041990008001991991MA1999990096221MD1909990-0011REMSYN004BUFR
0142832880999992013091318004-13262-043408FM-15+044399999V0200701N003119999999N009999199+03301+01201999999ADDGA1041+009141991GE19MSL   +99999+99999GF199999041990009141991991MA1101301999990REMMET051METAR SBLP 131800Z 07006KT 9999 SCT030 33/12 Q1013=
0142832880999992013091319004-13262-043408FM-15+044399999V0200701N002110091419N009999199+03301+01001999999ADDGA1071+009141991GE19MSL   +99999+99999GF199999071990009141991991MA1101301999990REMMET051METAR SBLP 131900Z 07004KT 9999 BKN030 33/10 Q1013=
0142832880999992013091320004-13262-043408FM-15+044399999V0201401N001019999999N009999199+03101+01301999999ADDGA1041+009141991GE19MSL   +99999+99999GF199999041990009141991991MA1101301999990REMMET051METAR SBLP 132000Z 14002KT 9999 SCT030 31/13 Q1013=
0142832880999992013091321004-13262-043408FM-15+044399999V0201001N003110091419N009999199+03001+01301999999ADDGA1071+009141991GE19MSL   +99999+99999GF199999071990009141991991MA1101401999990REMMET051METAR SBLP 132100Z 10006KT 9999 BKN030 30/13 Q1014=
0158832880999992013091400004-13267-043417FM-12+044199999V0201401N0015199999999002000199+02621+01631101331ADDAA106002031AY161061AY221061GA1031+008001061GA2991+999991031GE19MSL   +99999+99999GF106991031990008001991991MA1999990096441MD1909990+0001MW1011REMSYN004BUFR
0142832880999992013091409154-13262-043408FM-16+044399999V0209999C000019999999N009999199+01901+01501999999ADDGA1021+006101991GE19MSL   +99999+99999GF199999021990006101991991MA1101801999990REMMET051SPECI SBLP 140915Z 00000KT 9999 FEW020 19/15 Q1018=
0072832880999992013091410004-13262-043408FM-15+044399999V0209999C000019999999Y999999999+02001+01501999999ADDMA1101801999990REMMET045METAR SBLP 141000Z 00000KT CAVOK 20/15 Q1018=
0072832880999992013091411004-13262-043408FM-15+044399999V0201801N002119999999Y999999999+02401+01501999999ADDMA1101901999990REMMET045METAR SBLP 141100Z 18004KT CAVOK 24/15 Q1019=
0149832880999992013091412004-13267-043417FM-12+044199999V0201801N0015199999999020000199+02521+01591101661ADDAA124002031AZ101061AZ201061GA1991+025001021GE19MSL   +99999+99999GF103991990990025001991991KA1120N+01941MA1999990096761MD1909990+0081REMSYN004BUFR
0072832880999992013091412004-13262-043408FM-15+044399999V0201301N003119999999Y999999999+02701+01401999999ADDMA1102001999990REMMET045METAR SBLP 141200Z 13006KT CAVOK 27/14 Q1020=
0072832880999992013091413004-13262-043408FM-15+044399999V0209999C000019999999Y999999999+02901+01301999999ADDMA1101901999990REMMET045METAR SBLP 141300Z 00000KT CAVOK 29/13 Q1019=
0072832880999992013091414004-13262-043408FM-15+044399999V0201901N002119999999Y999999999+03101+01301999999ADDMA1101901999990REMMET045METAR SBLP 141400Z 19004KT CAVOK 31/13 Q1019=
0142832880999992013091415004-13262-043408FM-15+044399999V0201001N002119999999N009999199+03301+01301999999ADDGA1021+009141991GE19MSL   +99999+99999GF199999021990009141991991MA1101701999990REMMET051METAR SBLP 141500Z 10004KT 9999 FEW030 33/13 Q1017=
0142832880999992013091416004-13262-043408FM-15+044399999V0201301N002119999999N009999199+03401+01101999999ADDGA1021+009141991GE19MSL   +99999+99999GF199999021990009141991991MA1101601999990REMMET051METAR SBLP 141600Z 13004KT 9999 FEW030 34/11 Q1016=
0142832880999992013091417004-13262-043408FM-15+044399999V0200801N002119999999N009999199+03501+01101999999ADDGA1021+009141991GE19MSL   +99999+99999GF199999021990009141991991MA1101501999990REMMET051METAR SBLP 141700Z 08004KT 9999 FEW030 35/11 Q1015=
0136832880999992013091418004-13267-043417FM-12+044199999V0201401N0010199999999020000199+03371+01571101051ADDAA101999990AZ101061AZ201061GA1041+008001081GE19MSL   +99999+99999GF104991041990008001991991MA1999990096211MD1909990-0011REMSYN004BUFR
0142832880999992013091418004-13262-043408FM-15+044399999V0201001N002119999999N009999199+03501+01101999999ADDGA1021+009141991GE19MSL   +99999+99999GF199999021990009141991991MA1101401999990REMMET051METAR SBLP 141800Z 10004KT 9999 FEW030 35/11 Q1014=
0142832880999992013091419004-13262-043408FM-15+044399999V0203001N003119999999N009999199+03501+01101999999ADDGA1021+009141991GE19MSL   +99999+99999GF199999021990009141991991MA1101401999990REMMET051METAR SBLP 141900Z 30006KT 9999 FEW030 35/11 Q1014=
0142832880999992013091420004-13262-043408FM-15+044399999V0201801N002119999999N009999199+03501+01201999999ADDGA1021+009141991GE19MSL   +99999+99999GF199999021990009141991991MA1101401999990REMMET051METAR SBLP 142000Z 18004KT 9999 FEW030 35/12 Q1014=
0142832880999992013091421004-13262-043408FM-15+044399999V0201801N001519999999N009999199+03201+01201999999ADDGA1021+009141991GE19MSL   +99999+99999GF199999021990009141991991MA1101401999990REMMET051METAR SBLP 142100Z 18003KT 9999 FEW030 32/12 Q1014=
0072832880999992013091509154-13262-043408FM-16+044399999V0209999C000019999999Y999999999+02101+01401999999ADDMA1101701999990REMMET045SPECI SBLP 150915Z 00000KT CAVOK 21/14 Q1017=
0072832880999992013091510004-13262-043408FM-15+044399999V0209999C000019999999Y999999999+02301+01601999999ADDMA1101701999990REMMET045METAR SBLP 151000Z 00000KT CAVOK 23/16 Q1017=
0072832880999992013091511004-13262-043408FM-15+044399999V0209999C000019999999Y999999999+02701+01601999999ADDMA1101801999990REMMET045METAR SBLP 151100Z 00000KT CAVOK 27/16 Q1018=
0111832880999992013091512004-13267-043417FM-12+044199999V0200901N0015122000199020000199+02771+01751101481ADDAA101999990AZ101061AZ201061GF100991999999999999999999KA1120N+02171MA1999990096651MD1909990-0111REMSYN004BUFR
0072832880999992013091512004-13262-043408FM-15+044399999V0200901N003119999999Y999999999+02901+01601999999ADDMA1101901999990REMMET045METAR SBLP 151200Z 09006KT CAVOK 29/16 Q1019=
0072832880999992013091513004-13262-043408FM-15+044399999V0209999C000019999999Y999999999+03101+01501999999ADDMA1101801999990REMMET045METAR SBLP 151300Z 00000KT CAVOK 31/15 Q1018=
0072832880999992013091514004-13262-043408FM-15+044399999V0209999C000019999999Y999999999+03301+01601999999ADDMA1101701999990REMMET045METAR SBLP 151400Z 00000KT CAVOK 33/16 Q1017=
0072832880999992013091515004-13262-043408FM-15+044399999V0209999C000019999999Y999999999+03501+01501999999ADDMA1101601999990REMMET045METAR SBLP 151500Z 00000KT CAVOK 35/15 Q1016=
0142832880999992013091516004-13262-043408FM-15+044399999V0203101N001019999999N009999199+03501+01401999999ADDGA1021+009141991GE19MSL   +99999+99999GF199999021990009141991991MA1101501999990REMMET051METAR SBLP 151600Z 31002KT 9999 FEW030 35/14 Q1015=
0142832880999992013091517004-13262-043408FM-15+044399999V0201401N002119999999N009999199+03601+01401999999ADDGA1021+009141991GE19MSL   +99999+99999GF199999021990009141991991MA1101301999990REMMET051METAR SBLP 151700Z 14004KT 9999 FEW030 36/14 Q1013=
0136832880999992013091518004-13267-043417FM-12+044199999V0201801N0041199999999020000199+03621+01781100771ADDAA101999990AZ101061AZ201061GA1031+008001081GE19MSL   +99999+99999GF103991031990008001991991MA1999990096021MD1909990-0191REMSYN004BUFR
0142832880999992013091518004-13262-043408FM-15+044399999V0201701N003119999999N009999199+03701+01301999999ADDGA1041+009141991GE19MSL   +99999+99999GF199999041990009141991991MA1101201999990REMMET051METAR SBLP 151800Z 17006KT 9999 SCT030 37/13 Q1012=
0142832880999992013091519004-13262-043408FM-15+044399999V0202201N001019999999N009999199+03701+01201999999ADDGA1041+009141991GE19MSL   +99999+99999GF199999041990009141991991MA1101201999990REMMET051METAR SBLP 151900Z 22002KT 9999 SCT030 37/12 Q1012=
0142832880999992013091520004-13262-043408FM-15+044399999V0201701N004119999999N009999199+03601+01201999999ADDGA1041+009141991GE19MSL   +99999+99999GF199999041990009141991991MA1101201999990REMMET051METAR SBLP 152000Z 17008KT 9999 SCT030 36/12 Q1012=
0142832880999992013091521004-13262-043408FM-15+044399999V0201801N002119999999N009999199+03301+01201999999ADDGA1021+009141991GE19MSL   +99999+99999GF199999021990009141991991MA1101301999990REMMET051METAR SBLP 152100Z 18004KT 9999 FEW030 33/12 Q1013=
0072832880999992013091609154-13262-043408FM-16+044399999V0209999C000019999999Y999999999+02201+01601999999ADDMA1101401999990REMMET045SPECI SBLP 160915Z 00000KT CAVOK 22/16 Q1014=
0072832880999992013091610004-13262-043408FM-15+044399999V0201201N001019999999Y999999999+02401+01701999999ADDMA1101501999990REMMET045METAR SBLP 161000Z 12002KT CAVOK 24/17 Q1015=
0072832880999992013091611004-13262-043408FM-15+044399999V0200701N001519999999Y999999999+02701+01701999999ADDMA1101601999990REMMET045METAR SBLP 161100Z 07003KT CAVOK 27/17 Q1016=
0149832880999992013091612004-13267-043417FM-12+044199999V0203601N0000199999999020000199+02791+01831101151ADDAA101999990AZ101061AZ201061GA1041+025001021GE19MSL   +99999+99999GF104991041990025001991991KA1120N+02271MA1999990096341MD1909990-0311REMSYN004BUFR
0072832880999992013091612004-13262-043408FM-15+044399999V0200301N002119999999Y999999999+03001+01701999999ADDMA1101601999990REMMET045METAR SBLP 161200Z 03004KT CAVOK 30/17 Q1016=
0072832880999992013091613004-13262-043408FM-15+044399999V0200701N002119999999Y999999999+03101+01701999999ADDMA1101601999990REMMET045METAR SBLP 161300Z 07004KT CAVOK 31/17 Q1016=
0072832880999992013091614004-13262-043408FM-15+044399999V0209999C000019999999Y999999999+03301+01601999999ADDMA1101501999990REMMET045METAR SBLP 161400Z 00000KT CAVOK 33/16 Q1015=
0142832880999992013091615004-13262-043408FM-15+044399999V0201001N003119999999N009999199+03501+01501999999ADDGA1021+009141991GE19MSL   +99999+99999GF199999021990009141991991MA1101301999990REMMET051METAR SBLP 161500Z 10006KT 9999 FEW030 35/15 Q1013=
0142832880999992013091616004-13262-043408FM-15+044399999V0200201N003119999999N009999199+03601+01301999999ADDGA1041+009141991GE19MSL   +99999+99999GF199999041990009141991991MA1101201999990REMMET051METAR SBLP 161600Z 02006KT 9999 SCT030 36/13 Q1012=
0142832880999992013091617004-13262-043408FM-15+044399999V0209999C000019999999N009999199+03501+01401999999ADDGA1041+009141991GE19MSL   +99999+99999GF199999041990009141991991MA1101101999990REMMET051METAR SBLP 161700Z 00000KT 9999 SCT030 35/14 Q1011=
0136832880999992013091618004-13267-043417FM-12+044199999V0202301N0005100450199020000199+03521+01701100601ADDAA101999990AZ101061AZ201061GA1061+004501061GE19MSL   +99999+99999GF106991061990004501991991MA1999990095821MD1909990-0201REMSYN004BUFR
0142832880999992013091618004-13262-043408FM-15+044399999V0201401N001510091419N009999199+03701+01301999999ADDGA1071+009141991GE19MSL   +99999+99999GF199999071990009141991991MA1101001999990REMMET051METAR SBLP 161800Z 14003KT 9999 BKN030 37/13 Q1010=
0142832880999992013091619004-13262-043408FM-15+044399999V0201801N003110091419N009999199+03601+01301999999ADDGA1071+009141991GE19MSL   +99999+99999GF199999071990009141991991MA1101001999990REMMET051METAR SBLP 161900Z 18006KT 9999 BKN030 36/13 Q1010=
0142832880999992013091620004-13262-043408FM-15+044399999V0201601N002119999999N009999199+03601+01201999999ADDGA1041+009141991GE19MSL   +99999+99999GF199999041990009141991991MA1101001999990REMMET051METAR SBLP 162000Z 16004KT 9999 SCT030 36/12 Q1010=
0142832880999992013091621004-13262-043408FM-15+044399999V0201201N001519999999N009999199+03401+01201999999ADDGA1041+009141991GE19MSL   +99999+99999GF199999041990009141991991MA1102102999990REMMET051METAR SBLP 162100Z 12003KT 9999 SCT030 34/12 Q1021=
0098832880999992013091700004-13267-043417FM-12+044199999V0200501N0005122000199002000199+03021+01561100871ADDAA101999990AZ101061AZ201061GF100991999999999999999999MA1999990096071MD1909990-0151REMSYN004BUFR
0072832880999992013091709154-13262-043408FM-16+044399999V0209999C000019999999Y999999999+02301+01601999999ADDMA1101401999990REMMET045SPECI SBLP 170915Z 00000KT CAVOK 23/16 Q1014=
0072832880999992013091710004-13262-043408FM-15+044399999V0209999C000019999999Y999999999+02401+01601999999ADDMA1101401999990REMMET045METAR SBLP 171000Z 00000KT CAVOK 24/16 Q1014=
0072832880999992013091711004-13262-043408FM-15+044399999V0200401N002119999999Y999999999+02801+01701999999ADDMA1101501999990REMMET045METAR SBLP 171100Z 04004KT CAVOK 28/17 Q1015=
0149832880999992013091712004-13267-043417FM-12+044199999V0200501N0010199999999020000199+02921+01781101121ADDAA101999990AZ101061AZ201061GA1991+025001021GE19MSL   +99999+99999GF101991990990025001991991KA1120N+02381MA1999990096331MD1909990-0011REMSYN004BUFR
0072832880999992013091712004-13262-043408FM-15+044399999V0200601N003119999999Y999999999+03101+01601999999ADDMA1101501999990REMMET045METAR SBLP 171200Z 06006KT CAVOK 31/16 Q1015=
0072832880999992013091713004-13262-043408FM-15+044399999V0200101N002619999999Y999999999+03301+01601999999ADDMA1101501999990REMMET045METAR SBLP 171300Z 01005KT CAVOK 33/16 Q1015=
0072832880999992013091714004-13262-043408FM-15+044399999V0200201N003119999999Y999999999+03501+01601999999ADDMA1101401999990REMMET045METAR SBLP 171400Z 02006KT CAVOK 35/16 Q1014=
0142832880999992013091715004-13262-043408FM-15+044399999V0202201N003119999999N009999199+03601+01701999999ADDGA1021+009141991GE19MSL   +99999+99999GF199999021990009141991991MA1101301999990REMMET051METAR SBLP 171500Z 22006KT 9999 FEW030 36/17 Q1013=
0142832880999992013091716004-13262-043408FM-15+044399999V0202801N003119999999N009999199+03701+01501999999ADDGA1021+009141991GE19MSL   +99999+99999GF199999021990009141991991MA1101201999990REMMET051METAR SBLP 171600Z 28006KT 9999 FEW030 37/15 Q1012=
0142832880999992013091717004-13262-043408FM-15+044399999V0202001N001019999999N009999199+03801+01401999999ADDGA1041+009141991GE19MSL   +99999+99999GF199999041990009141991991MA1101001999990REMMET051METAR SBLP 171700Z 20002KT 9999 SCT030 38/14 Q1010=
0142832880999992013091718004-13262-043408FM-15+044399999V0209999C000019999999N009999199+03801+01301999999ADDGA1041+009141991GE19MSL   +99999+99999GF199999041990009141991991MA1100901999990REMMET051METAR SBLP 171800Z 00000KT 9999 SCT030 38/13 Q1009=
0142832880999992013091719004-13262-043408FM-15+044399999V0202801N001019999999N009999199+03801+01301999999ADDGA1041+009141991GE19MSL   +99999+99999GF199999041990009141991991MA1100901999990REMMET051METAR SBLP 171900Z 28002KT 9999 SCT030 38/13 Q1009=
0142832880999992013091720004-13262-043408FM-15+044399999V0201901N001019999999N009999199+03701+01301999999ADDGA1021+009141991GE19MSL   +99999+99999GF199999021990009141991991MA1100901999990REMMET051METAR SBLP 172000Z 19002KT 9999 FEW030 37/13 Q1009=
0142832880999992013091721004-13262-043408FM-15+044399999V0209999C000019999999N009999199+03601+01301999999ADDGA1021+009141991GE19MSL   +99999+99999GF199999021990009141991991MA1100901999990REMMET051METAR SBLP 172100Z 00000KT 9999 FEW030 36/13 Q1009=
0136832880999992013091800004-13267-043417FM-12+044199999V0200901N0005199999999002000199+03191+01881100691ADDAA101999990AZ101061AZ201061GA1021+008001081GE19MSL   +99999+99999GF102991021990008001991991MA1999990095931MD1909990-0141REMSYN004BUFR
0072832880999992013091809154-13262-043408FM-16+044399999V0202001N002119999999Y999999999+02401+01601999999ADDMA1101601999990REMMET045SPECI SBLP 180915Z 20004KT CAVOK 24/16 Q1016=
0072832880999992013091810004-13262-043408FM-15+044399999V0202001N002119999999Y999999999+02401+01701999999ADDMA1101801999990REMMET045METAR SBLP 181000Z 20004KT CAVOK 24/17 Q1018=
0142832880999992013091811004-13262-043408FM-15+044399999V0201601N003119999999N009999199+02701+01701999999ADDGA1021+009141991GE19MSL   +99999+99999GF199999021990009141991991MA1101801999990REMMET051METAR SBLP 181100Z 16006KT 9999 FEW030 27/17 Q1018=
0149832880999992013091812004-13267-043417FM-12+044199999V0201401N0026199999999020000199+02771+01801101491ADDAA101999990AZ101061AZ201061GA1991+025001011GE19MSL   +99999+99999GF103991990990025001991991KA1120N+02421MA1999990096681MD1909990+0351REMSYN004BUFR
0142832880999992013091812004-13262-043408FM-15+044399999V0201501N005119999999N009999199+02901+01701999999ADDGA1021+009141991GE19MSL   +99999+99999GF199999021990009141991991MA1101901999990REMMET051METAR SBLP 181200Z 15010KT 9999 FEW030 29/17 Q1019=
0072832880999992013091813004-13262-043408FM-15+044399999V0201501N003119999999Y999999999+03101+01601999999ADDMA1101901999990REMMET045METAR SBLP 181300Z 15006KT CAVOK 31/16 Q1019=
0072832880999992013091814004-13262-043408FM-15+044399999V0201801N002119999999Y999999999+03301+01601999999ADDMA1101801999990REMMET045METAR SBLP 181400Z 18004KT CAVOK 33/16 Q1018=
0165832880999992013091815004-13262-043408FM-15+044399999V0201801N00211030481CN009999199+03301+01601999999ADDGA1021+009141991GA2041+030481991GE19MSL   +99999+99999GF199999021990009141991991MA1101701999990REMMET058METAR SBLP 181500Z 18004KT 9999 FEW030 SCT100 33/16 Q1017=
0165832880999992013091816004-13262-043408FM-15+044399999V0201601N00311030481CN009999199+03401+01501999999ADDGA1021+009141991GA2041+030481991GE19MSL   +99999+99999GF199999021990009141991991MA1101601999990REMMET058METAR SBLP 181600Z 16006KT 9999 FEW030 SCT100 34/15 Q1016=
0165832880999992013091817004-13262-043408FM-15+044399999V0201801N00411030481CN009999199+03501+01501999999ADDGA1021+009141991GA2041+030481991GE19MSL   +99999+99999GF199999021990009141991991MA1101501999990REMMET058METAR SBLP 181700Z 18008KT 9999 FEW030 SCT100 35/15 Q1015=
0136832880999992013091818004-13267-043417FM-12+044199999V0201401N0026199999999020000199+03421+01871101021ADDAA101999990AZ101061AZ201061GA1031+008001081GE19MSL   +99999+99999GF103991031990008001991991MA1999990096231MD1909990+0441REMSYN004BUFR
0165832880999992013091818004-13262-043408FM-15+044399999V0201601N00311030481CN009999199+03501+01501999999ADDGA1021+009141991GA2041+030481991GE19MSL   +99999+99999GF199999021990009141991991MA1101401999990REMMET058METAR SBLP 181800Z 16006KT 9999 FEW030 SCT100 35/15 Q1014=
0142832880999992013091819004-13262-043408FM-15+044399999V0201801N004119999999N009999199+03501+01501999999ADDGA1021+009141991GE19MSL   +99999+99999GF199999021990009141991991MA1101401999990REMMET051METAR SBLP 181900Z 18008KT 9999 FEW030 35/15 Q1014=
0142832880999992013091820004-13262-043408FM-15+044399999V0202001N004119999999N009999199+03501+01501999999ADDGA1021+009141991GE19MSL   +99999+99999GF199999021990009141991991MA1101401999990REMMET051METAR SBLP 182000Z 20008KT 9999 FEW030 35/15 Q1014=
0142832880999992013091821004-13262-043408FM-15+044399999V0201601N004119999999N009999199+03301+01501999999ADDGA1021+009141991GE19MSL   +99999+99999GF199999021990009141991991MA1101401999990REMMET051METAR SBLP 182100Z 16008KT 9999 FEW030 33/15 Q1014=
0098832880999992013091900004-13267-043417FM-12+044199999V0201401N0026122000199002000199+03071+01701101321ADDAA101999990AZ101061AZ201061GF100991999999999999999999MA1999990096501MD1909990+0571REMSYN004BUFR
0072832880999992013091909154-13262-043408FM-16+044399999V0209999C000019999999Y999999999+02301+01601999999ADDMA1101701999990REMMET045SPECI SBLP 190915Z 00000KT CAVOK 23/16 Q1017=
0072832880999992013091910004-13262-043408FM-15+044399999V0209999C000019999999Y999999999+02501+01801999999ADDMA1101801999990REMMET045METAR SBLP 191000Z 00000KT CAVOK 25/18 Q1018=
0072832880999992013091911004-13262-043408FM-15+044399999V0201601N001519999999Y999999999+02801+01801999999ADDMA1101901999990REMMET045METAR SBLP 191100Z 16003KT CAVOK 28/18 Q1019=
0149832880999992013091912004-13267-043417FM-12+044199999V0201401N0010199999999020000199+02891+01841101431ADDAA101999990AZ101061AZ201061GA1021+008001081GE19MSL   +99999+99999GF102991021990008001991991KA1120N+02301MA1999990096631MD1909990-0051REMSYN004BUFR
0142832880999992013091912004-13262-043408FM-15+044399999V0209999C000019999999N009999199+03001+01701999999ADDGA1021+009141991GE19MSL   +99999+99999GF199999021990009141991991MA1101901999990REMMET051METAR SBLP 191200Z 00000KT 9999 FEW030 30/17 Q1019=
0142832880999992013091913004-13262-043408FM-15+044399999V0201301N001519999999N009999199+03201+01801999999ADDGA1021+009141991GE19MSL   +99999+99999GF199999021990009141991991MA1101901999990REMMET051METAR SBLP 191300Z 13003KT 9999 FEW030 32/18 Q1019=
0142832880999992013091914004-13262-043408FM-15+044399999V0201301N002619999999N009999199+03401+01601999999ADDGA1041+009141991GE19MSL   +99999+99999GF199999041990009141991991MA1101801999990REMMET051METAR SBLP 191400Z 13005KT 9999 SCT030 34/16 Q1018=
0142832880999992013091915004-13262-043408FM-15+044399999V0209999C000019999999N009999199+03501+01701999999ADDGA1041+009141991GE19MSL   +99999+99999GF199999041990009141991991MA1101701999990REMMET051METAR SBLP 191500Z 00000KT 9999 SCT030 35/17 Q1017=
0161832880999992013091916004-13262-043408FM-15+044399999V0201001N004119999999N009999199+03501+99999999999ADDGA1041+009141991GE19MSL   +99999+99999GF199999041990009141991991MA1101601999990REMMET051METAR SBLP 191600Z 10008KT 9999 SCT030 35/00 Q1016=EQDQ010     3ATOD  
0142832880999992013091917004-13262-043408FM-15+044399999V0201301N002619999999N009999199+03601+01501999999ADDGA1041+009141991GE19MSL   +99999+99999GF199999041990009141991991MA1101401999990REMMET051METAR SBLP 191700Z 13005KT 9999 SCT030 36/15 Q1014=
0168832880999992013091918004-13267-043417FM-12+044199999V0201401N0015199999999020000199+03471+01791100951ADDAA101999990AZ101061AZ201061GA1041+008001081GA2991+999991001GA3991+999991051GE19MSL   +99999+99999GF107991041990008001991991MA1999990096171MD1909990-0061REMSYN004BUFR
0142832880999992013091918004-13262-043408FM-15+044399999V0201201N003119999999N009999199+03601+01601999999ADDGA1041+009141991GE19MSL   +99999+99999GF199999041990009141991991MA1101301999990REMMET051METAR SBLP 191800Z 12006KT 9999 SCT030 36/16 Q1013=
0142832880999992013091919004-13262-043408FM-15+044399999V0201201N005119999999N009999199+03501+01601999999ADDGA1041+009141991GE19MSL   +99999+99999GF199999041990009141991991MA1101301999990REMMET051METAR SBLP 191900Z 12010KT 9999 SCT030 35/16 Q1013=
0142832880999992013091920004-13262-043408FM-15+044399999V0201601N005119999999N009999199+03401+01701999999ADDGA1041+009141991GE19MSL   +99999+99999GF199999041990009141991991MA1101401999990REMMET051METAR SBLP 192000Z 16010KT 9999 SCT030 34/17 Q1014=
0142832880999992013091921004-13262-043408FM-15+044399999V0201801N006219999999N009999199+03201+01801999999ADDGA1021+009141991GE19MSL   +99999+99999GF199999021990009141991991MA1101501999990REMMET051METAR SBLP 192100Z 18012KT 9999 FEW030 32/18 Q1015=
0152832880999992013092000004-13267-043417FM-12+044199999V0200901N0015199999999002000199+02721+01831101321ADDAA101999990AZ101061AZ201061GA1031+012501051GA2991+999991001GE19MSL   +99999+99999GF105991031990012501991991MA1999990096481MD1909990-0021REMSYN004BUFR
0072832880999992013092009154-13262-043408FM-16+044399999V0209999C000019999999Y999999999+02001+01501999999ADDMA1101701999990REMMET045SPECI SBLP 200915Z 00000KT CAVOK 20/15 Q1017=
0072832880999992013092010004-13262-043408FM-15+044399999V0209999C000019999999Y999999999+02201+01601999999ADDMA1101801999990REMMET045METAR SBLP 201000Z 00000KT CAVOK 22/16 Q1018=
0072832880999992013092011004-13262-043408FM-15+044399999V0209999C000019999999Y999999999+02601+01601999999ADDMA1101901999990REMMET045METAR SBLP 201100Z 00000KT CAVOK 26/16 Q1019=
0165832880999992013092012004-13267-043417FM-12+044199999V0201401N0015199999999020000199+02621+01621101541ADDAA101999990AZ101061AZ201061GA1011+008001081GA2991+999991001GE19MSL   +99999+99999GF102991011990008001991991KA1120N+02061MA1999990096671MD1909990+0041REMSYN004BUFR
0072832880999992013092012004-13262-043408FM-15+044399999V0202401N002619999999Y999999999+02801+01501999999ADDMA1101901999990REMMET045METAR SBLP 201200Z 24005KT CAVOK 28/15 Q1019=
0072832880999992013092013004-13262-043408FM-15+044399999V0202501N003119999999Y999999999+03001+01501999999ADDMA1101901999990REMMET045METAR SBLP 201300Z 25006KT CAVOK 30/15 Q1019=
0072832880999992013092014004-13262-043408FM-15+044399999V0202301N002119999999Y999999999+03101+01401999999ADDMA1101801999990REMMET045METAR SBLP 201400Z 23004KT CAVOK 31/14 Q1018=
0142832880999992013092015004-13262-043408FM-15+044399999V0202001N003119999999N009999199+03301+01401999999ADDGA1021+009141991GE19MSL   +99999+99999GF199999021990009141991991MA1101601999990REMMET051METAR SBLP 201500Z 20006KT 9999 FEW030 33/14 Q1016=
0142832880999992013092016004-13262-043408FM-15+044399999V0201701N002119999999N009999199+03401+01301999999ADDGA1021+009141991GE19MSL   +99999+99999GF199999021990009141991991MA1101501999990REMMET051METAR SBLP 201600Z 17004KT 9999 FEW030 34/13 Q1015=
0142832880999992013092017004-13262-043408FM-15+044399999V0200201N001019999999N009999199+03501+01101999999ADDGA1021+009141991GE19MSL   +99999+99999GF199999021990009141991991MA1101301999990REMMET051METAR SBLP 201700Z 02002KT 9999 FEW030 35/11 Q1013=
0136832880999992013092018004-13267-043417FM-12+044199999V0202701N0005199999999020000199+03471+01791100811ADDAA101999990AZ101061AZ201061GA1021+008001081GE19MSL   +99999+99999GF102991021990008001991991MA1999990096021MD1909990-0151REMSYN004BUFR
0142832880999992013092018004-13262-043408FM-15+044399999V0209999C000019999999N009999199+03601+01201999999ADDGA1021+009141991GE19MSL   +99999+99999GF199999021990009141991991MA1101201999990REMMET051METAR SBLP 201800Z 00000KT 9999 FEW030 36/12 Q1012=
0142832880999992013092019004-13262-043408FM-15+044399999V0209999C000019999999N009999199+03601+01101999999ADDGA1021+009141991GE19MSL   +99999+99999GF199999021990009141991991MA1101101999990REMMET051METAR SBLP 201900Z 00000KT 9999 FEW030 36/11 Q1011=
0142832880999992013092020004-13262-043408FM-15+044399999V0209999C000019999999N009999199+03501+00901999999ADDGA1021+009141991GE19MSL   +99999+99999GF199999021990009141991991MA1101101999990REMMET051METAR SBLP 202000Z 00000KT 9999 FEW030 35/09 Q1011=
0142832880999992013092021004-13262-043408FM-15+044399999V0209999C000019999999N009999199+03401+00901999999ADDGA1021+009141991GE19MSL   +99999+99999GF199999021990009141991991MA1101201999990REMMET051METAR SBLP 202100Z 00000KT 9999 FEW030 34/09 Q1012=
0098832880999992013092100004-13267-043417FM-12+044199999V0201401N0015122000199002000199+02871+01561101071ADDAA101999990AZ101061AZ201061GF100991999999999999999999MA1999990096241MD1909990-0241REMSYN004BUFR
0072832880999992013092109154-13262-043408FM-16+044399999V0209999C000019999999Y999999999+02101+01401999999ADDMA1101601999990REMMET045SPECI SBLP 210915Z 00000KT CAVOK 21/14 Q1016=
0072832880999992013092110004-13262-043408FM-15+044399999V0201401N001519999999Y999999999+02401+01501999999ADDMA1101701999990REMMET045METAR SBLP 211000Z 14003KT CAVOK 24/15 Q1017=
0072832880999992013092111004-13262-043408FM-15+044399999V0201501N002119999999Y999999999+02601+01601999999ADDMA1101801999990REMMET045METAR SBLP 211100Z 15004KT CAVOK 26/16 Q1018=
0111832880999992013092112004-13267-043417FM-12+044199999V0200901N0021122000199020000199+02701+01691101381ADDAA101999990AZ101061AZ201061GF100991999999999999999999KA1120N+02161MA1999990096541MD1909990-0131REMSYN004BUFR
0072832880999992013092112004-13262-043408FM-15+044399999V0201401N002119999999Y999999999+02901+01501999999ADDMA1101801999990REMMET045METAR SBLP 211200Z 14004KT CAVOK 29/15 Q1018=
0072832880999992013092113004-13262-043408FM-15+044399999V0209999C000019999999Y999999999+03101+01301999999ADDMA1101701999990REMMET045METAR SBLP 211300Z 00000KT CAVOK 31/13 Q1017=
0072832880999992013092114004-13262-043408FM-15+044399999V0209999C000019999999Y999999999+03301+01301999999ADDMA1101701999990REMMET045METAR SBLP 211400Z 00000KT CAVOK 33/13 Q1017=
0142832880999992013092115004-13262-043408FM-15+044399999V0203501N001519999999N009999199+03501+01201999999ADDGA1021+009141991GE19MSL   +99999+99999GF199999021990009141991991MA1101601999990REMMET051METAR SBLP 211500Z 35003KT 9999 FEW030 35/12 Q1016=
0142832880999992013092116004-13262-043408FM-15+044399999V0209999C000019999999N009999199+03501+01401999999ADDGA1021+009141991GE19MSL   +99999+99999GF199999021990009141991991MA1101401999990REMMET051METAR SBLP 211600Z 00000KT 9999 FEW030 35/14 Q1014=
0142832880999992013092117004-13262-043408FM-15+044399999V0201501N001519999999N009999199+03701+01201999999ADDGA1021+009141991GE19MSL   +99999+99999GF199999021990009141991991MA1101301999990REMMET051METAR SBLP 211700Z 15003KT 9999 FEW030 37/12 Q1013=
0136832880999992013092118004-13267-043417FM-12+044199999V0202301N0015199999999020000199+03591+01721100821ADDAA101999990AZ101061AZ201061GA1011+008001081GE19MSL   +99999+99999GF101991011990008001991991MA1999990096031MD1909990+0011REMSYN004BUFR
0142832880999992013092118004-13262-043408FM-15+044399999V0203501N003119999999N009999199+03701+01001999999ADDGA1021+009141991GE19MSL   +99999+99999GF199999021990009141991991MA1101201999990REMMET051METAR SBLP 211800Z 35006KT 9999 FEW030 37/10 Q1012=
0142832880999992013092119004-13262-043408FM-15+044399999V0200201N003119999999N009999199+03601+01001999999ADDGA1021+009141991GE19MSL   +99999+99999GF199999021990009141991991MA1101201999990REMMET051METAR SBLP 211900Z 02006KT 9999 FEW030 36/10 Q1012=
0142832880999992013092120004-13262-043408FM-15+044399999V0203201N003119999999N009999199+03601+01001999999ADDGA1021+009141991GE19MSL   +99999+99999GF199999021990009141991991MA1101201999990REMMET051METAR SBLP 212000Z 32006KT 9999 FEW030 36/10 Q1012=
0142832880999992013092121004-13262-043408FM-15+044399999V0203101N001519999999N009999199+03401+01101999999ADDGA1021+009141991GE19MSL   +99999+99999GF199999021990009141991991MA1101201999990REMMET051METAR SBLP 212100Z 31003KT 9999 FEW030 34/11 Q1012=
0072832880999992013092209154-13262-043408FM-16+044399999V0209999C000019999999Y999999999+02101+01401999999ADDMA1101601999990REMMET045SPECI SBLP 220915Z 00000KT CAVOK 21/14 Q1016=
0072832880999992013092210004-13262-043408FM-15+044399999V0202001N003119999999Y999999999+02401+01201999999ADDMA1101601999990REMMET045METAR SBLP 221000Z 20006KT CAVOK 24/12 Q1016=
0072832880999992013092211004-13262-043408FM-15+044399999V0201401N002619999999Y999999999+02801+01301999999ADDMA1101701999990REMMET045METAR SBLP 221100Z 14005KT CAVOK 28/13 Q1017=
0111832880999992013092212004-13267-043417FM-12+044199999V0203601N0000122000199020000199+02971+01621101361ADDAA101999990AZ101061AZ201061GF100991999999999999999999KA1120N+02201MA1999990096561MD1909990+0021REMSYN004BUFR
0072832880999992013092212004-13262-043408FM-15+044399999V0201201N001519999999Y999999999+03101+01201999999ADDMA1101801999990REMMET045METAR SBLP 221200Z 12003KT CAVOK 31/12 Q1018=
0072832880999992013092213004-13262-043408FM-15+044399999V0201801N001519999999Y999999999+03401+01101999999ADDMA1101801999990REMMET045METAR SBLP 221300Z 18003KT CAVOK 34/11 Q1018=
0072832880999992013092214004-13262-043408FM-15+044399999V0200901N003119999999Y999999999+03501+01101999999ADDMA1101701999990REMMET045METAR SBLP 221400Z 09006KT CAVOK 35/11 Q1017=
0072832880999992013092215004-13262-043408FM-15+044399999V0200601N002119999999Y999999999+03601+01001999999ADDMA1101601999990REMMET045METAR SBLP 221500Z 06004KT CAVOK 36/10 Q1016=
0142832880999992013092216004-13262-043408FM-15+044399999V0209999C000019999999N009999199+03801+00901999999ADDGA1021+009141991GE19MSL   +99999+99999GF199999021990009141991991MA1101401999990REMMET051METAR SBLP 221600Z 00000KT 9999 FEW030 38/09 Q1014=
0142832880999992013092217004-13262-043408FM-15+044399999V0201001N004119999999N009999199+03901+00801999999ADDGA1021+009141991GE19MSL   +99999+99999GF199999021990009141991991MA1101301999990REMMET051METAR SBLP 221700Z 10008KT 9999 FEW030 39/08 Q1013=
0142832880999992013092218004-13262-043408FM-15+044399999V0200401N002119999999N009999199+03901+00801999999ADDGA1021+009141991GE19MSL   +99999+99999GF199999021990009141991991MA1101201999990REMMET051METAR SBLP 221800Z 04004KT 9999 FEW030 39/08 Q1012=
0142832880999992013092219004-13262-043408FM-15+044399999V0209999C000019999999N009999199+03901+00701999999ADDGA1021+009141991GE19MSL   +99999+99999GF199999021990009141991991MA1101201999990REMMET051METAR SBLP 221900Z 00000KT 9999 FEW030 39/07 Q1012=
0142832880999992013092220004-13262-043408FM-15+044399999V0200701N001019999999N009999199+03801+00701999999ADDGA1021+009141991GE19MSL   +99999+99999GF199999021990009141991991MA1101201999990REMMET051METAR SBLP 222000Z 07002KT 9999 FEW030 38/07 Q1012=
0142832880999992013092221004-13262-043408FM-15+044399999V0201001N002119999999N009999199+03501+00601999999ADDGA1021+009141991GE19MSL   +99999+99999GF199999021990009141991991MA1101301999990REMMET051METAR SBLP 222100Z 10004KT 9999 FEW030 35/06 Q1013=
0072832880999992013092309154-13262-043408FM-16+044399999V0201401N001519999999Y999999999+02301+01301999999ADDMA1101601999990REMMET045SPECI SBLP 230915Z 14003KT CAVOK 23/13 Q1016=
0072832880999992013092310004-13262-043408FM-15+044399999V0209999C000019999999Y999999999+02501+01401999999ADDMA1101701999990REMMET045METAR SBLP 231000Z 00000KT CAVOK 25/14 Q1017=
0072832880999992013092311004-13262-043408FM-15+044399999V0209999C000019999999Y999999999+02901+01401999999ADDMA1101801999990REMMET045METAR SBLP 231100Z 00000KT CAVOK 29/14 Q1018=
0111832880999992013092312004-13267-043417FM-12+044199999V0203201N0005122000199020000199+03021+01741101381ADDAA101999990AZ101061AZ201061GF100991999999999999999999KA1120N+02361MA1999990096591MD1909990-0031REMSYN004BUFR
0072832880999992013092312004-13262-043408FM-15+044399999V0200201N001019999999Y999999999+03201+01401999999ADDMA1101801999990REMMET045METAR SBLP 231200Z 02002KT CAVOK 32/14 Q1018=
0072832880999992013092313004-13262-043408FM-15+044399999V0201801N002119999999Y999999999+03501+01401999999ADDMA1101701999990REMMET045METAR SBLP 231300Z 18004KT CAVOK 35/14 Q1017=
0072832880999992013092314004-13262-043408FM-15+044399999V0201501N002119999999Y999999999+03701+01301999999ADDMA1101601999990REMMET045METAR SBLP 231400Z 15004KT CAVOK 37/13 Q1016=
0142832880999992013092315004-13262-043408FM-15+044399999V0200701N003119999999N009999199+03801+00701999999ADDGA1041+009141991GE19MSL   +99999+99999GF199999041990009141991991MA1101501999990REMMET051METAR SBLP 231500Z 07006KT 9999 SCT030 38/07 Q1015=
0142832880999992013092316004-13262-043408FM-15+044399999V0209999C000019999999N009999199+03801+01301999999ADDGA1041+009141991GE19MSL   +99999+99999GF199999041990009141991991MA1101401999990REMMET051METAR SBLP 231600Z 00000KT 9999 SCT030 38/13 Q1014=
0142832880999992013092317004-13262-043408FM-15+044399999V0200301N003619999999N009999199+04001+01201999999ADDGA1041+009141991GE19MSL   +99999+99999GF199999041990009141991991MA1101201999990REMMET051METAR SBLP 231700Z 03007KT 9999 SCT030 40/12 Q1012=
0136832880999992013092318004-13267-043417FM-12+044199999V0202701N0015199999999020000199+03821+01471100631ADDAA101999990AZ101061AZ201061GA1041+008001081GE19MSL   +99999+99999GF104991041990008001991991MA1999990095911MD1909990-0171REMSYN004BUFR
0126832880999992013092318004-13262-043408FM-15+044399999V0202101N002119999999N009999199+03901+00901999999ADDGA1041+009141991GE19MSL   +99999+99999GF199999041990009141991991REMMET050METAR SBLP 231800Z 21004KT 9999 SCT030 39/09 1011=
0142832880999992013092319004-13262-043408FM-15+044399999V0200601N002119999999N009999199+03901+01501999999ADDGA1021+009141991GE19MSL   +99999+99999GF199999021990009141991991MA1101101999990REMMET051METAR SBLP 231900Z 06004KT 9999 FEW030 39/15 Q1011=
0165832880999992013092320004-13262-043408FM-15+044399999V0200801N00211030481CN009999199+03801+01101999999ADDGA1021+009141991GA2041+030481991GE19MSL   +99999+99999GF199999021990009141991991MA1101101999990REMMET058METAR SBLP 232000Z 08004KT 9999 FEW030 SCT100 38/11 Q1011=
0072832880999992013092321004-13262-043408FM-15+044399999V0209999C000019999999Y999999999+03701+00801999999ADDMA1101201999990REMMET045METAR SBLP 232100Z 00000KT CAVOK 37/08 Q1012=
0152832880999992013092400004-13267-043417FM-12+044199999V0201401N0010199999999002000199+03121+01351100921ADDAA101999990AZ101061AZ201061GA1011+008001081GA2991+999991031GE19MSL   +99999+99999GF104991011990008001991991MA1999990096161MD1909990-0151REMSYN004BUFR
0072832880999992013092409154-13262-043408FM-16+044399999V0200901N001519999999Y999999999+02401+01501999999ADDMA1101401999990REMMET045SPECI SBLP 240915Z 09003KT CAVOK 24/15 Q1014=
0072832880999992013092410004-13262-043408FM-15+044399999V0209999C000019999999Y999999999+02501+01301999999ADDMA1101501999990REMMET045METAR SBLP 241000Z 00000KT CAVOK 25/13 Q1015=
0072832880999992013092411004-13262-043408FM-15+044399999V0201501N003119999999Y999999999+02801+01301999999ADDMA1101601999990REMMET045METAR SBLP 241100Z 15006KT CAVOK 28/13 Q1016=
0111832880999992013092412004-13267-043417FM-12+044199999V0203201N0015122000199020000199+02971+01641101191ADDAA101999990AZ101061AZ201061GF100991999999999999999999KA1120N+02421MA1999990096411MD1909990-0181REMSYN004BUFR
0072832880999992013092412004-13262-043408FM-15+044399999V0201201N002119999999Y999999999+03201+01201999999ADDMA1101601999990REMMET045METAR SBLP 241200Z 12004KT CAVOK 32/12 Q1016=
0072832880999992013092413004-13262-043408FM-15+044399999V0201901N002619999999Y999999999+03601+01101999999ADDMA1101501999990REMMET045METAR SBLP 241300Z 19005KT CAVOK 36/11 Q1015=
0072832880999992013092414004-13262-043408FM-15+044399999V0201301N001519999999Y999999999+03701+01201999999ADDMA1101501999990REMMET045METAR SBLP 241400Z 13003KT CAVOK 37/12 Q1015=
0072832880999992013092415004-13262-043408FM-15+044399999V0209999C000019999999Y999999999+03901+00801999999ADDMA1101301999990REMMET045METAR SBLP 241500Z 00000KT CAVOK 39/08 Q1013=
0142832880999992013092416004-13262-043408FM-15+044399999V0201701N003119999999N009999199+03901+00701999999ADDGA1021+009141991GE19MSL   +99999+99999GF199999021990009141991991MA1101201999990REMMET051METAR SBLP 241600Z 17006KT 9999 FEW030 39/07 Q1012=
0142832880999992013092417004-13262-043408FM-15+044399999V0200701N002619999999N009999199+04001+00601999999ADDGA1021+009141991GE19MSL   +99999+99999GF199999021990009141991991MA1101101999990REMMET051METAR SBLP 241700Z 07005KT 9999 FEW030 40/06 Q1011=
0155832880999992013092418004-13267-043417FM-12+044199999V0203201N0015199999999020000199+03941+99999100541ADDAA101999990AZ101061AZ201061GA1011+008001081GE19MSL   +99999+99999GF101991011990008001991991MA1999990095821MD1909990-0091REMSYN004BUFREQDQ0114.4  3ATOD  
0142832880999992013092418004-13262-043408FM-15+044399999V0200301N004119999999N009999199+04001+00601999999ADDGA1021+009141991GE19MSL   +99999+99999GF199999021990009141991991MA1101001999990REMMET051METAR SBLP 241800Z 03008KT 9999 FEW030 40/06 Q1010=
0142832880999992013092419004-13262-043408FM-15+044399999V0201201N002119999999N009999199+04001+00601999999ADDGA1021+009141991GE19MSL   +99999+99999GF199999021990009141991991MA1100901999990REMMET051METAR SBLP 241900Z 12004KT 9999 FEW030 40/06 Q1009=
0142832880999992013092420004-13262-043408FM-15+044399999V0200501N002619999999N009999199+03901+00401999999ADDGA1021+009141991GE19MSL   +99999+99999GF199999021990009141991991MA1100901999990REMMET051METAR SBLP 242000Z 05005KT 9999 FEW030 39/04 Q1009=
0142832880999992013092421004-13262-043408FM-15+044399999V0200501N002619999999N009999199+03601+00601999999ADDGA1021+009141991GE19MSL   +99999+99999GF199999021990009141991991MA1100901999990REMMET051METAR SBLP 242100Z 05005KT 9999 FEW030 36/06 Q1009=
0142832880999992013092509154-13262-043408FM-16+044399999V0203501N001519999999N009999199+02401+00901999999ADDGA1021+009141991GE19MSL   +99999+99999GF199999021990009141991991MA1101301999990REMMET051SPECI SBLP 250915Z 35003KT 9999 FEW030 24/09 Q1013=
0165832880999992013092510004-13262-043408FM-15+044399999V0209999C00001030481CN009999199+02501+00801999999ADDGA1021+009141991GA2041+030481991GE19MSL   +99999+99999GF199999021990009141991991MA1101301999990REMMET058METAR SBLP 251000Z 00000KT 9999 FEW030 SCT100 25/08 Q1013=
0072832880999992013092511004-13262-043408FM-15+044399999V0202101N001519999999Y999999999+02801+00801999999ADDMA1101401999990REMMET045METAR SBLP 251100Z 21003KT CAVOK 28/08 Q1014=
0130832880999992013092512004-13267-043417FM-12+044199999V0201401N0005122000199020000199+03001+99999100991ADDAA101999990AZ101061AZ201061GF100991999999999999999999KA1120N+02481MA1999990096231MD1909990-0181REMSYN004BUFREQDQ01 +01623ATOD  
0072832880999992013092512004-13262-043408FM-15+044399999V0201801N003619999999Y999999999+03301+00801999999ADDMA1101401999990REMMET045METAR SBLP 251200Z 18007KT CAVOK 33/08 Q1014=
0072832880999992013092513004-13262-043408FM-15+044399999V0201001N003119999999Y999999999+03401+00901999999ADDMA1101401999990REMMET045METAR SBLP 251300Z 10006KT CAVOK 34/09 Q1014=
0072832880999992013092514004-13262-043408FM-15+044399999V0201701N004119999999Y999999999+03701+00701999999ADDMA1101301999990REMMET045METAR SBLP 251400Z 17008KT CAVOK 37/07 Q1013=
0072832880999992013092515004-13262-043408FM-15+044399999V0201801N005119999999Y999999999+03801+00701999999ADDMA1101201999990REMMET045METAR SBLP 251500Z 18010KT CAVOK 38/07 Q1012=
0142832880999992013092516004-13262-043408FM-15+044399999V0201401N004119999999N009999199+04001+00801999999ADDGA1021+009141991GE19MSL   +99999+99999GF199999021990009141991991MA1101101999990REMMET051METAR SBLP 251600Z 14008KT 9999 FEW030 40/08 Q1011=
0142832880999992013092517004-13262-043408FM-15+044399999V0200901N002619999999N009999199+04001+00801999999ADDGA1021+009141991GE19MSL   +99999+99999GF199999021990009141991991MA1101001999990REMMET051METAR SBLP 251700Z 09005KT 9999 FEW030 40/08 Q1010=
0136832880999992013092518004-13267-043417FM-12+044199999V0203601N0000199999999020000199+03821+01591100421ADDAA101999990AZ101061AZ201061GA1031+008001081GE19MSL   +99999+99999GF103991031990008001991991MA1999990095731MD1909990-0091REMSYN004BUFR
0142832880999992013092518004-13262-043408FM-15+044399999V0203501N001519999999N009999199+04001+00801999999ADDGA1021+009141991GE19MSL   +99999+99999GF199999021990009141991991MA1100901999990REMMET051METAR SBLP 251800Z 35003KT 9999 FEW030 40/08 Q1009=
0142832880999992013092519004-13262-043408FM-15+044399999V0201801N002119999999N009999199+04001+00801999999ADDGA1021+009141991GE19MSL   +99999+99999GF199999021990009141991991MA1100801999990REMMET051METAR SBLP 251900Z 18004KT 9999 FEW030 40/08 Q1008=
0142832880999992013092520004-13262-043408FM-15+044399999V0200701N002119999999N009999199+03701+01201999999ADDGA1021+009141991GE19MSL   +99999+99999GF199999021990009141991991MA1100901999990REMMET051METAR SBLP 252000Z 07004KT 9999 FEW030 37/12 Q1009=
0142832880999992013092521004-13262-043408FM-15+044399999V0201201N002119999999N009999199+03501+01101999999ADDGA1021+009141991GE19MSL   +99999+99999GF199999021990009141991991MA1100901999990REMMET051METAR SBLP 252100Z 12004KT 9999 FEW030 35/11 Q1009=
0098832880999992013092600004-13267-043417FM-12+044199999V0203201N0005122000199002000199+03191+01991100691ADDAA101999990AZ101061AZ201061GF100991999999999999999999MA1999990095941MD1909990+0021REMSYN004BUFR
0072832880999992013092609154-13262-043408FM-16+044399999V0200301N002119999999Y999999999+02701+01601999999ADDMA1101301999990REMMET045SPECI SBLP 260915Z 03004KT CAVOK 27/16 Q1013=
0072832880999992013092610004-13262-043408FM-15+044399999V0203301N002119999999Y999999999+02701+01801999999ADDMA1101401999990REMMET045METAR SBLP 261000Z 33004KT CAVOK 27/18 Q1014=
0072832880999992013092611004-13262-043408FM-15+044399999V0203301N002119999999Y999999999+03101+01601999999ADDMA1101401999990REMMET045METAR SBLP 261100Z 33004KT CAVOK 31/16 Q1014=
0149832880999992013092612004-13267-043417FM-12+044199999V0201401N0015199999999020000199+03201+01871101001ADDAA101999990AZ101061AZ201061GA1991+025001021GE19MSL   +99999+99999GF105991990990025001991991KA1120N+02621MA1999990096261MD1909990+0031REMSYN004BUFR
0072832880999992013092612004-13262-043408FM-15+044399999V0203001N003119999999Y999999999+03301+01601999999ADDMA1101401999990REMMET045METAR SBLP 261200Z 30006KT CAVOK 33/16 Q1014=
0072832880999992013092613004-13262-043408FM-15+044399999V0203501N001519999999Y999999999+03501+01501999999ADDMA1101401999990REMMET045METAR SBLP 261300Z 35003KT CAVOK 35/15 Q1014=
0142832880999992013092614004-13262-043408FM-15+044399999V0209999C000019999999N009999199+03601+01301999999ADDGA1021+009141991GE19MSL   +99999+99999GF199999021990009141991991MA1101301999990REMMET051METAR SBLP 261400Z 00000KT 9999 FEW030 36/13 Q1013=
0142832880999992013092615004-13262-043408FM-15+044399999V0202801N002119999999N009999199+03701+01401999999ADDGA1021+009141991GE19MSL   +99999+99999GF199999021990009141991991MA1101201999990REMMET051METAR SBLP 261500Z 28004KT 9999 FEW030 37/14 Q1012=
0142832880999992013092616004-13262-043408FM-15+044399999V0209999C000019999999N009999199+03901+01601999999ADDGA1021+009141991GE19MSL   +99999+99999GF199999021990009141991991MA1101101999990REMMET051METAR SBLP 261600Z 00000KT 9999 FEW030 39/16 Q1011=
0142832880999992013092617004-13262-043408FM-15+044399999V0209999C000019999999N009999199+03901+01201999999ADDGA1041+009141991GE19MSL   +99999+99999GF199999041990009141991991MA1101001999990REMMET051METAR SBLP 261700Z 00000KT 9999 SCT030 39/12 Q1010=
0136832880999992013092618004-13267-043417FM-12+044199999V0203601N0005100800199020000199+03751+01861101611ADDAA101999990AZ101061AZ201061GA1061+008001061GE19MSL   +99999+99999GF106991061990008001991991MA1999990095901MD1909990+0171REMSYN004BUFR
0165832880999992013092618004-13262-043408FM-15+044399999V0200301N00261030481CN009999199+03801+01501999999ADDGA1041+009141991GA2041+030481991GE19MSL   +99999+99999GF199999041990009141991991MA1100901999990REMMET058METAR SBLP 261800Z 03005KT 9999 SCT030 SCT100 38/15 Q1009=
0165832880999992013092619004-13262-043408FM-15+044399999V0202701N00211030481CN009999199+03801+01701999999ADDGA1021+009141991GA2041+030481991GE19MSL   +99999+99999GF199999021990009141991991MA1100901999990REMMET058METAR SBLP 261900Z 27004KT 9999 FEW030 SCT100 38/17 Q1009=
0165832880999992013092620004-13262-043408FM-15+044399999V0209999C00001030481CN009999199+03701+01401999999ADDGA1021+009141991GA2041+030481991GE19MSL   +99999+99999GF199999021990009141991991MA1101001999990REMMET058METAR SBLP 262000Z 00000KT 9999 FEW030 SCT100 37/14 Q1010=
0165832880999992013092621004-13262-043408FM-15+044399999V0209999C00001030481CN009999199+03601+01601999999ADDGA1021+009141991GA2041+030481991GE19MSL   +99999+99999GF199999021990009141991991MA1101001999990REMMET058METAR SBLP 262100Z 00000KT 9999 FEW030 SCT100 36/16 Q1010=
0136832880999992013092700004-13267-043417FM-12+044199999V0201401N0021199999999002000199+03321+01611100771ADDAA101999990AZ101061AZ201061GA1991+025001021GE19MSL   +99999+99999GF104991990990025001991991MA1999990096051MD1909990+0111REMSYN004BUFR
0142832880999992013092709154-13262-043408FM-16+044399999V0209999C000019999999N009999199+02501+01501999999ADDGA1021+009141991GE19MSL   +99999+99999GF199999021990009141991991MA1101401999990REMMET051SPECI SBLP 270915Z 00000KT 9999 FEW030 25/15 Q1014=
0142832880999992013092710004-13262-043408FM-15+044399999V0202901N002119999999N009999199+02501+01401999999ADDGA1021+009141991GE19MSL   +99999+99999GF199999021990009141991991MA1101501999990REMMET051METAR SBLP 271000Z 29004KT 9999 FEW030 25/14 Q1015=
0072832880999992013092711004-13262-043408FM-15+044399999V0202401N002619999999Y999999999+02801+01601999999ADDMA1101601999990REMMET045METAR SBLP 271100Z 24005KT CAVOK 28/16 Q1016=
0111832880999992013092712004-13267-043417FM-12+044199999V0200901N0021122000199020000199+02851+01721101191ADDAA101999990AZ101061AZ201061GF100991999999999999999999KA1120N+02501MA1999990096421MD1909990+0161REMSYN004BUFR
0072832880999992013092712004-13262-043408FM-15+044399999V0202601N002119999999Y999999999+03001+01601999999ADDMA1101601999990REMMET045METAR SBLP 271200Z 26004KT CAVOK 30/16 Q1016=
0072832880999992013092713004-13262-043408FM-15+044399999V0209999C000019999999Y999999999+03201+01601999999ADDMA1101601999990REMMET045METAR SBLP 271300Z 00000KT CAVOK 32/16 Q1016=
0072832880999992013092714004-13262-043408FM-15+044399999V0201201N002619999999Y999999999+03401+01501999999ADDMA1101501999990REMMET045METAR SBLP 271400Z 12005KT CAVOK 34/15 Q1015=
0072832880999992013092715004-13262-043408FM-15+044399999V0201601N002119999999Y999999999+03601+01501999999ADDMA1101401999990REMMET045METAR SBLP 271500Z 16004KT CAVOK 36/15 Q1014=
0142832880999992013092716004-13262-043408FM-15+044399999V0209999C000019999999N009999199+03701+01501999999ADDGA1041+009141991GE19MSL   +99999+99999GF199999041990009141991991MA1101301999990REMMET051METAR SBLP 271600Z 00000KT 9999 SCT030 37/15 Q1013=
0142832880999992013092717004-13262-043408FM-15+044399999V0200901N002119999999N009999199+03801+01401999999ADDGA1041+009141991GE19MSL   +99999+99999GF199999041990009141991991MA1101101999990REMMET051METAR SBLP 271700Z 09004KT 9999 SCT030 38/14 Q1011=
0136832880999992013092718004-13267-043417FM-12+044199999V0200901N0021100800199020000199+03651+01721100601ADDAA101999990AZ101061AZ201061GA1051+008001081GE19MSL   +99999+99999GF105991051990008001991991MA1999990095871MD1909990-0031REMSYN004BUFR
0142832880999992013092718004-13262-043408FM-15+044399999V0203601N001010091419N009999199+03901+01301999999ADDGA1071+009141991GE19MSL   +99999+99999GF199999071990009141991991MA1101101999990REMMET051METAR SBLP 271800Z 36002KT 9999 BKN030 39/13 Q1011=
0142832880999992013092719004-13262-043408FM-15+044399999V0200901N001010091419N009999199+03601+01401999999ADDGA1071+009141991GE19MSL   +99999+99999GF199999071990009141991991MA1101101999990REMMET051METAR SBLP 271900Z 09002KT 9999 BKN030 36/14 Q1011=
0146832880999992013092720004-13262-043408FM-15+044399999V0202101N002119999999N009999199+03601+01301999999ADDGA1041+009141991GE19MSL   +99999+99999GF199999041990009141991991MA1101101999990REMMET055METAR COR SBLP 272000Z 21004KT 9999 SCT030 36/13 Q1011=
0142832880999992013092721004-13262-043408FM-15+044399999V0201801N004119999999N009999199+03501+01201999999ADDGA1021+009141991GE19MSL   +99999+99999GF199999021990009141991991MA1101101999990REMMET051METAR SBLP 272100Z 18008KT 9999 FEW030 35/12 Q1011=
0098832880999992013092800004-13267-043417FM-12+044199999V0200901N0015122000199002000199+03141+01731100951ADDAA101999990AZ101061AZ201061GF100991999999999999999999MA1999990096171MD1909990+0121REMSYN004BUFR
0072832880999992013092809154-13262-043408FM-16+044399999V0203001N001519999999Y999999999+02401+01501999999ADDMA1101601999990REMMET045SPECI SBLP 280915Z 30003KT CAVOK 24/15 Q1016=
0072832880999992013092810004-13262-043408FM-15+044399999V0203301N002119999999Y999999999+02501+01501999999ADDMA1101701999990REMMET045METAR SBLP 281000Z 33004KT CAVOK 25/15 Q1017=
0072832880999992013092811004-13262-043408FM-15+044399999V0203101N002119999999Y999999999+02801+01601999999ADDMA1101801999990REMMET045METAR SBLP 281100Z 31004KT CAVOK 28/16 Q1018=
0149832880999992013092812004-13267-043417FM-12+044199999V0200901N0015199999999020000199+02891+01771101411ADDAA101999990AZ101061AZ201061GA1991+025001001GE19MSL   +99999+99999GF101991990990025001991991KA1120N+02441MA1999990096611MD1909990+0191REMSYN004BUFR
0072832880999992013092812004-13262-043408FM-15+044399999V0202801N003119999999Y999999999+03301+01501999999ADDMA1101801999990REMMET045METAR SBLP 281200Z 28006KT CAVOK 33/15 Q1018=
0072832880999992013092813004-13262-043408FM-15+044399999V0203601N001519999999Y999999999+03201+01601999999ADDMA1101801999990REMMET045METAR SBLP 281300Z 36003KT CAVOK 32/16 Q1018=
0072832880999992013092814004-13262-043408FM-15+044399999V0203301N001519999999Y999999999+03401+01601999999ADDMA1101701999990REMMET045METAR SBLP 281400Z 33003KT CAVOK 34/16 Q1017=
0142832880999992013092815004-13262-043408FM-15+044399999V0200301N003119999999N009999199+03501+01601999999ADDGA1021+009141991GE19MSL   +99999+99999GF199999021990009141991991MA1101601999990REMMET051METAR SBLP 281500Z 03006KT 9999 FEW030 35/16 Q1016=
0142832880999992013092816004-13262-043408FM-15+044399999V0200901N002119999999N009999199+03501+01501999999ADDGA1021+009141991GE19MSL   +99999+99999GF199999021990009141991991MA1101401999990REMMET051METAR SBLP 281600Z 09004KT 9999 FEW030 35/15 Q1014=
0142832880999992013092817004-13262-043408FM-15+044399999V0200901N002119999999N009999199+03701+02001999999ADDGA1021+009141991GE19MSL   +99999+99999GF199999021990009141991991MA1101301999990REMMET051METAR SBLP 281700Z 09004KT 9999 FEW030 37/20 Q1013=
0152832880999992013092818004-13267-043417FM-12+044199999V0202301N0015199999999020000199+03521+01911100851ADDAA101999990AZ101061AZ201061GA1021+000201081GA2991+999991001GE19MSL   +99999+99999GF199999021990000201991991MA1999990096081MD1909990+0211REMSYN004BUFR
0165832880999992013092818004-13262-043408FM-15+044399999V0200801N00261030481CN009999199+03601+01801999999ADDGA1021+009141991GA2041+030481991GE19MSL   +99999+99999GF199999021990009141991991MA1101301999990REMMET058METAR SBLP 281800Z 08005KT 9999 FEW030 SCT100 36/18 Q1013=
0165832880999992013092819004-13262-043408FM-15+044399999V0200901N00211030481CN009999199+03601+01501999999ADDGA1041+009141991GA2041+030481991GE19MSL   +99999+99999GF199999041990009141991991MA1101201999990REMMET058METAR SBLP 281900Z 09004KT 9999 SCT030 SCT100 36/15 Q1012=
0165832880999992013092820004-13262-043408FM-15+044399999V0200301N00211030481CN009999199+03601+01701999999ADDGA1021+009141991GA2041+030481991GE19MSL   +99999+99999GF199999021990009141991991MA1101201999990REMMET058METAR SBLP 282000Z 03004KT 9999 FEW030 SCT100 36/17 Q1012=
0165832880999992013092821004-13262-043408FM-15+044399999V0209999C00001030481CN009999199+03501+01501999999ADDGA1021+009141991GA2041+030481991GE19MSL   +99999+99999GF199999021990009141991991MA1101301999990REMMET058METAR SBLP 282100Z 00000KT 9999 FEW030 SCT100 35/15 Q1013=
0072832880999992013092909154-13262-043408FM-16+044399999V0209999C000019999999Y999999999+02301+01601999999ADDMA1101401999990REMMET045SPECI SBLP 290915Z 00000KT CAVOK 23/16 Q1014=
0072832880999992013092910004-13262-043408FM-15+044399999V0209999C000019999999Y999999999+02401+01601999999ADDMA1101501999990REMMET045METAR SBLP 291000Z 00000KT CAVOK 24/16 Q1015=
0072832880999992013092911004-13262-043408FM-15+044399999V0209999C000019999999Y999999999+02801+01601999999ADDMA1101501999990REMMET045METAR SBLP 291100Z 00000KT CAVOK 28/16 Q1015=
0149832880999992013092912004-13267-043417FM-12+044199999V0203601N0000199999999020000199+02921+01871101141ADDAA101999990AZ101061AZ201061GA1991+025001001GE19MSL   +99999+99999GF105991990990025001991991KA1120N+02321MA1999990096381MD1909990-0251REMSYN004BUFR
0072832880999992013092912004-13262-043408FM-15+044399999V0209999C000019999999Y999999999+03101+01601999999ADDMA1101501999990REMMET045METAR SBLP 291200Z 00000KT CAVOK 31/16 Q1015=
0072832880999992013092913004-13262-043408FM-15+044399999V0209999C000019999999Y999999999+03201+01501999999ADDMA1101501999990REMMET045METAR SBLP 291300Z 00000KT CAVOK 32/15 Q1015=
0072832880999992013092914004-13262-043408FM-15+044399999V0209999C000019999999Y999999999+03401+01401999999ADDMA1101401999990REMMET045METAR SBLP 291400Z 00000KT CAVOK 34/14 Q1014=
0072832880999992013092915004-13262-043408FM-15+044399999V0203401N004119999999Y999999999+03601+01401999999ADDMA1101301999990REMMET045METAR SBLP 291500Z 34008KT CAVOK 36/14 Q1013=
0142832880999992013092916004-13262-043408FM-15+044399999V0203601N003119999999N009999199+03701+01401999999ADDGA1021+009141991GE19MSL   +99999+99999GF199999021990009141991991MA1101201999990REMMET051METAR SBLP 291600Z 36006KT 9999 FEW030 37/14 Q1012=
0142832880999992013092917004-13262-043408FM-15+044399999V0203301N003119999999N009999199+03901+01501999999ADDGA1021+009141991GE19MSL   +99999+99999GF199999021990009141991991MA1101001999990REMMET051METAR SBLP 291700Z 33006KT 9999 FEW030 39/15 Q1010=
0152832880999992013092918004-13267-043417FM-12+044199999V0201801N0005199999999020000199+03771+01501101531ADDAA101999990AZ101061AZ201061GA1031+008001081GA2991+999991021GE19MSL   +99999+99999GF104991031990008001991991MA1999990095811MD1909990-0271REMSYN004BUFR
0142832880999992013092918004-13262-043408FM-15+044399999V0203401N005119999999N009999199+04001+01501999999ADDGA1021+009141991GE19MSL   +99999+99999GF199999021990009141991991MA1101001999990REMMET051METAR SBLP 291800Z 34010KT 9999 FEW030 40/15 Q1010=
0142832880999992013092919004-13262-043408FM-15+044399999V0203601N003119999999N009999199+03901+01201999999ADDGA1021+009141991GE19MSL   +99999+99999GF199999021990009141991991MA1100901999990REMMET051METAR SBLP 291900Z 36006KT 9999 FEW030 39/12 Q1009=
0142832880999992013092920004-13262-043408FM-15+044399999V0203301N004119999999N009999199+03701+01201999999ADDGA1021+009141991GE19MSL   +99999+99999GF199999021990009141991991MA1101001999990REMMET051METAR SBLP 292000Z 33008KT 9999 FEW030 37/12 Q1010=
0072832880999992013092921004-13262-043408FM-15+044399999V0203601N004119999999Y999999999+03601+01201999999ADDMA1101001999990REMMET045METAR SBLP 292100Z 36008KT CAVOK 36/12 Q1010=
0072832880999992013093009154-13262-043408FM-16+044399999V0200301N002119999999Y999999999+02201+01701999999ADDMA1101601999990REMMET045SPECI SBLP 300915Z 03004KT CAVOK 22/17 Q1016=
0072832880999992013093010004-13262-043408FM-15+044399999V0200301N003119999999Y999999999+02401+01701999999ADDMA1101701999990REMMET045METAR SBLP 301000Z 03006KT CAVOK 24/17 Q1017=
0072832880999992013093011004-13262-043408FM-15+044399999V0203601N003119999999Y999999999+02801+01601999999ADDMA1101701999990REMMET045METAR SBLP 301100Z 36006KT CAVOK 28/16 Q1017=
0111832880999992013093012004-13267-043417FM-12+044199999V0200901N0026122000199020000199+02821+01801101321ADDAA101999990AZ101061AZ201061GF100991999999999999999999KA1120N+02321MA1999990096511MD1909990+0151REMSYN004BUFR
0072832880999992013093012004-13262-043408FM-15+044399999V0203301N003119999999Y999999999+03101+01601999999ADDMA1101701999990REMMET045METAR SBLP 301200Z 33006KT CAVOK 31/16 Q1017=
0072832880999992013093013004-13262-043408FM-15+044399999V0203301N005119999999Y999999999+03201+01601999999ADDMA1101601999990REMMET045METAR SBLP 301300Z 33010KT CAVOK 32/16 Q1016=
0072832880999992013093014004-13262-043408FM-15+044399999V0200901N002119999999Y999999999+03401+01601999999ADDMA1101501999990REMMET045METAR SBLP 301400Z 09004KT CAVOK 34/16 Q1015=
0072832880999992013093015004-13262-043408FM-15+044399999V0200901N003119999999Y999999999+03601+01501999999ADDMA1101301999990REMMET045METAR SBLP 301500Z 09006KT CAVOK 36/15 Q1013=
0072832880999992013093016004-13262-043408FM-15+044399999V0202401N001019999999Y999999999+03601+01301999999ADDMA1101101999990REMMET045METAR SBLP 301600Z 24002KT CAVOK 36/13 Q1011=
0072832880999992013093017004-13262-043408FM-15+044399999V0200801N003119999999Y999999999+03801+01301999999ADDMA1101001999990REMMET045METAR SBLP 301700Z 08006KT CAVOK 38/13 Q1010=
0136832880999992013093018004-13267-043417FM-12+044199999V0203201N0021199999999020000199+03621+01831100521ADDAA101999990AZ101061AZ201061GA1991+025001001GE19MSL   +99999+99999GF103991990990025001991991MA1999990095771MD1909990-0041REMSYN004BUFR
0142832880999992013093018004-13262-043408FM-15+044399999V0200901N003119999999N009999199+03701+01201999999ADDGA1021+009141991GE19MSL   +99999+99999GF199999021990009141991991MA1100901999990REMMET051METAR SBLP 301800Z 09006KT 9999 FEW030 37/12 Q1009=
0142832880999992013093019004-13262-043408FM-15+044399999V0202901N002119999999N009999199+03601+01201999999ADDGA1021+009141991GE19MSL   +99999+99999GF199999021990009141991991MA1100901999990REMMET051METAR SBLP 301900Z 29004KT 9999 FEW030 36/12 Q1009=
0142832880999992013093020004-13262-043408FM-15+044399999V0202801N002119999999N009999199+03601+01201999999ADDGA1021+009141991GE19MSL   +99999+99999GF199999021990009141991991MA1100901999990REMMET051METAR SBLP 302000Z 28004KT 9999 FEW030 36/12 Q1009=
0142832880999992013093021004-13262-043408FM-15+044399999V0209999C000019999999N009999199+03501+01301999999ADDGA1021+009141991GE19MSL   +99999+99999GF199999021990009141991991MA1100901999990REMMET051METAR SBLP 302100Z 00000KT 9999 FEW030 35/13 Q1009=
0136832880999992013100100004-13267-043417FM-12+044199999V0201401N0021199999999002000199+03251+01721100661ADDAA101999990AZ101061AZ201061GA1021+017501031GE19MSL   +99999+99999GF102991021990017501991991MA1999990095901MD1909990-0021REMSYN004BUFR
0072832880999992013100109154-13262-043408FM-16+044399999V0209999C000019999999Y999999999+02201+01501999999ADDMA1101501999990REMMET045SPECI SBLP 010915Z 00000KT CAVOK 22/15 Q1015=
0072832880999992013100110004-13262-043408FM-15+044399999V0203401N002119999999Y999999999+02501+01501999999ADDMA1101501999990REMMET045METAR SBLP 011000Z 34004KT CAVOK 25/15 Q1015=
0072832880999992013100111004-13262-043408FM-15+044399999V0203301N001019999999Y999999999+02701+01401999999ADDMA1101601999990REMMET045METAR SBLP 011100Z 33002KT CAVOK 27/14 Q1016=
0149832880999992013100112004-13267-043417FM-12+044199999V0202301N0010199999999020000199+02871+01631101271ADDAA101999990AZ101061AZ201061GA1991+025001021GE19MSL   +99999+99999GF106991990990025001991991KA1120N+02301MA1999990096481MD1909990-0031REMSYN004BUFR
0072832880999992013100112004-13262-043408FM-15+044399999V0200201N003119999999Y999999999+03001+01401999999ADDMA1101701999990REMMET045METAR SBLP 011200Z 02006KT CAVOK 30/14 Q1017=
0072832880999992013100113004-13262-043408FM-15+044399999V0200601N001519999999Y999999999+03101+01401999999ADDMA1101701999990REMMET045METAR SBLP 011300Z 06003KT CAVOK 31/14 Q1017=
0072832880999992013100114004-13262-043408FM-15+044399999V0209999C000019999999Y999999999+03201+01301999999ADDMA1101601999990REMMET045METAR SBLP 011400Z 00000KT CAVOK 32/13 Q1016=
0072832880999992013100115004-13262-043408FM-15+044399999V0200601N003119999999Y999999999+03401+01301999999ADDMA1101401999990REMMET045METAR SBLP 011500Z 06006KT CAVOK 34/13 Q1014=
0142832880999992013100116004-13262-043408FM-15+044399999V0200301N002619999999N009999199+03601+01501999999ADDGA1021+009141991GE19MSL   +99999+99999GF199999021990009141991991MA1101301999990REMMET051METAR SBLP 011600Z 03005KT 9999 FEW030 36/15 Q1013=
0142832880999992013100117004-13262-043408FM-15+044399999V0200301N002619999999N009999199+03601+01201999999ADDGA1021+009141991GE19MSL   +99999+99999GF199999021990009141991991MA1101201999990REMMET051METAR SBLP 011700Z 03005KT 9999 FEW030 36/12 Q1012=
0152832880999992013100118004-13267-043417FM-12+044199999V0202701N0010199999999020000199+03471+01611100801ADDAA101999990AZ101061AZ201061GA1011+008001081GA2991+999991021GE19MSL   +99999+99999GF104991011990008001991991MA1999990096021MD1909990+0251REMSYN004BUFR
0165832880999992013100118004-13262-043408FM-15+044399999V0200101N00211030481CN009999199+03601+01201999999ADDGA1021+009141991GA2041+030481991GE19MSL   +99999+99999GF199999021990009141991991MA1101201999990REMMET058METAR SBLP 011800Z 01004KT 9999 FEW030 SCT100 36/12 Q1012=
0165832880999992013100119004-13262-043408FM-15+044399999V0202301N00211030481CN009999199+03601+01201999999ADDGA1021+009141991GA2041+030481991GE19MSL   +99999+99999GF199999021990009141991991MA1101101999990REMMET058METAR SBLP 011900Z 23004KT 9999 FEW030 SCT100 36/12 Q1011=
0165832880999992013100120004-13262-043408FM-15+044399999V0202701N00211030481CN009999199+03501+01401999999ADDGA1021+009141991GA2041+030481991GE19MSL   +99999+99999GF199999021990009141991991MA1101101999990REMMET058METAR SBLP 012000Z 27004KT 9999 FEW030 SCT100 35/14 Q1011=
0072832880999992013100121004-13262-043408FM-15+044399999V0209999C000019999999Y999999999+03401+01501999999ADDMA1101101999990REMMET045METAR SBLP 012100Z 00000KT CAVOK 34/15 Q1011=
0098832880999992013100200004-13267-043417FM-12+044199999V0201801N0005122000199002000199+03021+01561100861ADDAA101999990AZ101061AZ201061GF100991999999999999999999MA1999990096071MD1909990-0171REMSYN004BUFR
0072832880999992013100209154-13262-043408FM-16+044399999V0209999C000019999999Y999999999+02201+01601999999ADDMA1101401999990REMMET045SPECI SBLP 020915Z 00000KT CAVOK 22/16 Q1014=
0072832880999992013100210004-13262-043408FM-15+044399999V0209999C000019999999Y999999999+02401+01601999999ADDMA1101401999990REMMET045METAR SBLP 021000Z 00000KT CAVOK 24/16 Q1014=
0072832880999992013100211004-13262-043408FM-15+044399999V0209999C000019999999Y999999999+02801+01401999999ADDMA1101501999990REMMET045METAR SBLP 021100Z 00000KT CAVOK 28/14 Q1015=
0111832880999992013100212004-13267-043417FM-12+044199999V0203601N0000122000199020000199+03021+01521101131ADDAA101999990AZ101061AZ201061GF100991999999999999999999KA1120N+02281MA1999990096341MD1909990-0141REMSYN004BUFR
0072832880999992013100212004-13262-043408FM-15+044399999V0209999C000019999999Y999999999+03101+01201999999ADDMA1101501999990REMMET045METAR SBLP 021200Z 00000KT CAVOK 31/12 Q1015=
0072832880999992013100213004-13262-043408FM-15+044399999V0209999C000019999999Y999999999+03501+01101999999ADDMA1101501999990REMMET045METAR SBLP 021300Z 00000KT CAVOK 35/11 Q1015=
0072832880999992013100214004-13262-043408FM-15+044399999V0209999C000019999999Y999999999+03601+01301999999ADDMA1101401999990REMMET045METAR SBLP 021400Z 00000KT CAVOK 36/13 Q1014=
0142832880999992013100215004-13262-043408FM-15+044399999V0209999C000019999999N009999199+03801+01201999999ADDGA1021+009141991GE19MSL   +99999+99999GF199999021990009141991991MA1101301999990REMMET051METAR SBLP 021500Z 00000KT 9999 FEW030 38/12 Q1013=
0142832880999992013100216004-13262-043408FM-15+044399999V0209999C000019999999N009999199+03801+01201999999ADDGA1021+009141991GE19MSL   +99999+99999GF199999021990009141991991MA1101201999990REMMET051METAR SBLP 021600Z 00000KT 9999 FEW030 38/12 Q1012=
0142832880999992013100217004-13262-043408FM-15+044399999V0202101N002119999999N009999199+03901+01501999999ADDGA1041+009141991GE19MSL   +99999+99999GF199999041990009141991991MA1101101999990REMMET051METAR SBLP 021700Z 21004KT 9999 SCT030 39/15 Q1011=
0168832880999992013100218004-13267-043417FM-12+044199999V0202701N0010100800199020000199+03771+01721100581ADDAA101999990AZ101061AZ201061GA1051+008001081GA2991+999991021GA3991+999991051GE19MSL   +99999+99999GF107991051990008001991991MA1999990095861MD1909990-0161REMSYN004BUFR
0142832880999992013100218004-13262-043408FM-15+044399999V0202101N002119999999N009999199+03901+01301999999ADDGA1041+009141991GE19MSL   +99999+99999GF199999041990009141991991MA1101001999990REMMET051METAR SBLP 021800Z 21004KT 9999 SCT030 39/13 Q1010=
0142832880999992013100219004-13262-043408FM-15+044399999V0209999C000010091419N009999199+03701+01201999999ADDGA1071+009141991GE19MSL   +99999+99999GF199999071990009141991991MA1101001999990REMMET051METAR SBLP 021900Z 00000KT 9999 BKN030 37/12 Q1010=
0165832880999992013100220004-13262-043408FM-15+044399999V0209999C00001030481CN009999199+03801+01101999999ADDGA1021+009141991GA2041+030481991GE19MSL   +99999+99999GF199999021990009141991991MA1101001999990REMMET058METAR SBLP 022000Z 00000KT 9999 FEW030 SCT100 38/11 Q1010=
0072832880999992013100221004-13262-043408FM-15+044399999V0201701N001519999999Y999999999+03601+01301999999ADDMA1101001999990REMMET045METAR SBLP 022100Z 17003KT CAVOK 36/13 Q1010=
0136832880999992013100300004-13267-043417FM-12+044199999V0201401N0005100800199002000199+03201+01381100791ADDAA101999990AZ101061AZ201061GA1051+008001081GE19MSL   +99999+99999GF105991051990008001991991MA1999990096041MD1909990-0031REMSYN004BUFR
0072832880999992013100309154-13262-043408FM-16+044399999V0209999C000019999999Y999999999+02401+01601999999ADDMA1101401999990REMMET045SPECI SBLP 030915Z 00000KT CAVOK 24/16 Q1014=
0072832880999992013100310004-13262-043408FM-15+044399999V0209999C000019999999Y999999999+02501+01601999999ADDMA1101501999990REMMET045METAR SBLP 031000Z 00000KT CAVOK 25/16 Q1015=
0072832880999992013100311004-13262-043408FM-15+044399999V0201701N002619999999Y999999999+03001+01701999999ADDMA1101601999990REMMET045METAR SBLP 031100Z 17005KT CAVOK 30/17 Q1016=
0111832880999992013100312004-13267-043417FM-12+044199999V0200501N0005122000199020000199+03051+01581101241ADDAA101999990AZ101061AZ201061GF100991999999999999999999KA1120N+02441MA1999990096471MD1909990+0131REMSYN004BUFR
0072832880999992013100312004-13262-043408FM-15+044399999V0202301N002619999999Y999999999+03201+01701999999ADDMA1101701999990REMMET045METAR SBLP 031200Z 23005KT CAVOK 32/17 Q1017=
0072832880999992013100313004-13262-043408FM-15+044399999V0209999C000019999999Y999999999+03301+01601999999ADDMA1101601999990REMMET045METAR SBLP 031300Z 00000KT CAVOK 33/16 Q1016=
0072832880999992013100314004-13262-043408FM-15+044399999V0201601N001519999999Y999999999+03501+01701999999ADDMA1101601999990REMMET045METAR SBLP 031400Z 16003KT CAVOK 35/17 Q1016=
0142832880999992013100315004-13262-043408FM-15+044399999V0201101N002119999999N009999199+03701+01501999999ADDGA1021+009141991GE19MSL   +99999+99999GF199999021990009141991991MA1101401999990REMMET051METAR SBLP 031500Z 11004KT 9999 FEW030 37/15 Q1014=
0142832880999992013100316004-13262-043408FM-15+044399999V0209999C000019999999N009999199+03801+01201999999ADDGA1021+009141991GE19MSL   +99999+99999GF199999021990009141991991MA1101301999990REMMET051METAR SBLP 031600Z 00000KT 9999 FEW030 38/12 Q1013=
0142832880999992013100317004-13262-043408FM-15+044399999V0209999C000019999999N009999199+03801+01201999999ADDGA1021+009141991GE19MSL   +99999+99999GF199999021990009141991991MA1101101999990REMMET051METAR SBLP 031700Z 00000KT 9999 FEW030 38/12 Q1011=
0136832880999992013100318004-13267-043417FM-12+044199999V0203201N0005100800199020000199+03891+01601100581ADDAA101999990AZ101061AZ201061GA1061+008001081GE19MSL   +99999+99999GF106991061990008001991991MA1999990095881MD1909990+0021REMSYN004BUFR
0142832880999992013100318004-13262-043408FM-15+044399999V0203601N001519999999N009999199+03901+01201999999ADDGA1041+009141991GE19MSL   +99999+99999GF199999041990009141991991MA1101001999990REMMET051METAR SBLP 031800Z 36003KT 9999 SCT030 39/12 Q1010=
0142832880999992013100319004-13262-043408FM-15+044399999V0203001N001510091419N009999199+03701+00901999999ADDGA1071+009141991GE19MSL   +99999+99999GF199999071990009141991991MA1101001999990REMMET051METAR SBLP 031900Z 30003KT 9999 BKN030 37/09 Q1010=
0142832880999992013100320004-13262-043408FM-15+044399999V0209999C000010091419N009999199+03701+01201999999ADDGA1071+009141991GE19MSL   +99999+99999GF199999071990009141991991MA1101001999990REMMET051METAR SBLP 032000Z 00000KT 9999 BKN030 37/12 Q1010=
0142832880999992013100321004-13262-043408FM-15+044399999V0202101N002110091419N009999199+03601+01201999999ADDGA1071+009141991GE19MSL   +99999+99999GF199999071990009141991991MA1101101999990REMMET051METAR SBLP 032100Z 21004KT 9999 BKN030 36/12 Q1011=
0136832880999992013100400004-13267-043417FM-12+044199999V0200501N0010100800199002000199+03341+01581100921ADDAA101999990AZ101061AZ201061GA1061+008001081GE19MSL   +99999+99999GF106991061990008001991991MA1999990096181MD1909990+0141REMSYN004BUFR
0072832880999992013100409154-13262-043408FM-16+044399999V0201301N001519999999Y999999999+02401+01101999999ADDMA1101401999990REMMET045SPECI SBLP 040915Z 13003KT CAVOK 24/11 Q1014=
0072832880999992013100410004-13262-043408FM-15+044399999V0201301N002119999999Y999999999+02601+01201999999ADDMA1101501999990REMMET045METAR SBLP 041000Z 13004KT CAVOK 26/12 Q1015=
0072832880999992013100411004-13262-043408FM-15+044399999V0201501N003119999999Y999999999+03101+01401999999ADDMA1101601999990REMMET045METAR SBLP 041100Z 15006KT CAVOK 31/14 Q1016=
0149832880999992013100412004-13267-043417FM-12+044199999V0203601N0000199999999020000199+03091+01781101151ADDAA101999990AZ101061AZ201061GA1021+012501031GE19MSL   +99999+99999GF102991021990012501991991KA1120N+02401MA1999990096401MD1909990-0071REMSYN004BUFR
0072832880999992013100412004-13262-043408FM-15+044399999V0200901N001519999999Y999999999+03201+01301999999ADDMA1101601999990REMMET045METAR SBLP 041200Z 09003KT CAVOK 32/13 Q1016=
0072832880999992013100413004-13262-043408FM-15+044399999V0200201N002119999999Y999999999+03501+01501999999ADDMA1101501999990REMMET045METAR SBLP 041300Z 02004KT CAVOK 35/15 Q1015=
0072832880999992013100414004-13262-043408FM-15+044399999V0200901N001519999999Y999999999+03601+01101999999ADDMA1101501999990REMMET045METAR SBLP 041400Z 09003KT CAVOK 36/11 Q1015=
0142832880999992013100415004-13262-043408FM-15+044399999V0202901N002119999999N009999199+03701+01201999999ADDGA1021+009141991GE19MSL   +99999+99999GF199999021990009141991991MA1101301999990REMMET051METAR SBLP 041500Z 29004KT 9999 FEW030 37/12 Q1013=
0142832880999992013100416004-13262-043408FM-15+044399999V0200501N002619999999N009999199+03801+01501999999ADDGA1021+009141991GE19MSL   +99999+99999GF199999021990009141991991MA1101201999990REMMET051METAR SBLP 041600Z 05005KT 9999 FEW030 38/15 Q1012=
0142832880999992013100417004-13262-043408FM-15+044399999V0209999C000019999999N009999199+03901+01301999999ADDGA1021+009141991GE19MSL   +99999+99999GF199999021990009141991991MA1101001999990REMMET051METAR SBLP 041700Z 00000KT 9999 FEW030 39/13 Q1010=
0136832880999992013100418004-13267-043417FM-12+044199999V0203201N0010199999999020000199+03871+01641100471ADDAA101999990AZ101061AZ201061GA1041+008001081GE19MSL   +99999+99999GF104991041990008001991991MA1999990095771MD1909990-0111REMSYN004BUFR
0142832880999992013100418004-13262-043408FM-15+044399999V0209999C000019999999N009999199+03901+01501999999ADDGA1021+009141991GE19MSL   +99999+99999GF199999021990009141991991MA1100901999990REMMET051METAR SBLP 041800Z 00000KT 9999 FEW030 39/15 Q1009=
0142832880999992013100419004-13262-043408FM-15+044399999V0209999C000019999999N009999199+03801+01401999999ADDGA1021+009141991GE19MSL   +99999+99999GF199999021990009141991991MA1100901999990REMMET051METAR SBLP 041900Z 00000KT 9999 FEW030 38/14 Q1009=
0142832880999992013100420004-13262-043408FM-15+044399999V0209999C000019999999N009999199+03801+01401999999ADDGA1021+009141991GE19MSL   +99999+99999GF199999021990009141991991MA1100801999990REMMET051METAR SBLP 042000Z 00000KT 9999 FEW030 38/14 Q1008=
0142832880999992013100421004-13262-043408FM-15+044399999V0209999C000019999999N009999199+03601+02001999999ADDGA1021+009141991GE19MSL   +99999+99999GF199999021990009141991991MA1100901999990REMMET051METAR SBLP 042100Z 00000KT 9999 FEW030 36/20 Q1009=
0136832880999992013100500004-13267-043417FM-12+044199999V0200501N0010100800199002000199+03291+02021100731ADDAA101999990AZ101061AZ201061GA1051+008001081GE19MSL   +99999+99999GF105991051990008001991991MA1999990096001MD1909990-0181REMSYN004BUFR
0165832880999992013100509154-13262-043408FM-16+044399999V0209999C00001030481CN009999199+02701+01501999999ADDGA1021+002131991GA2041+030481991GE19MSL   +99999+99999GF199999021990002131991991MA1101301999990REMMET058SPECI SBLP 050915Z 00000KT 9999 FEW007 SCT100 27/15 Q1013=
0165832880999992013100510004-13262-043408FM-15+044399999V0209999C00001030481CN009999199+02901+01401999999ADDGA1021+006101991GA2041+030481991GE19MSL   +99999+99999GF199999021990006101991991MA1101301999990REMMET058METAR SBLP 051000Z 00000KT 9999 FEW020 SCT100 29/14 Q1013=
0142832880999992013100511004-13262-043408FM-15+044399999V0209999C000019999999N009999199+03101+01801999999ADDGA1021+009141991GE19MSL   +99999+99999GF199999021990009141991991MA1101401999990REMMET051METAR SBLP 051100Z 00000KT 9999 FEW030 31/18 Q1014=
0165832880999992013100512004-13267-043417FM-12+044199999V0203601N0010199999999020000199+03201+01561101011ADDAA101999990AZ101061AZ201061GA1011+008001081GA2991+999991031GE19MSL   +99999+99999GF103991011990008001991991KA1120N+02541MA1999990096281MD1909990-0121REMSYN004BUFR
0142832880999992013100512004-13262-043408FM-15+044399999V0200901N001019999999N009999199+03301+02101999999ADDGA1021+009141991GE19MSL   +99999+99999GF199999021990009141991991MA1101401999990REMMET051METAR SBLP 051200Z 09002KT 9999 FEW030 33/21 Q1014=
0142832880999992013100513004-13262-043408FM-15+044399999V0200301N003119999999N009999199+03501+02101999999ADDGA1021+009141991GE19MSL   +99999+99999GF199999021990009141991991MA1101401999990REMMET051METAR SBLP 051300Z 03006KT 9999 FEW030 35/21 Q1014=
0072832880999992013100514004-13262-043408FM-15+044399999V0203601N003119999999Y999999999+03701+02301999999ADDMA1101301999990REMMET045METAR SBLP 051400Z 36006KT CAVOK 37/23 Q1013=
0072832880999992013100515004-13262-043408FM-15+044399999V0200301N004119999999Y999999999+03801+01402999999ADDMA1101201999990REMMET045METAR SBLP 051500Z 03008KT CAVOK 38/14 Q1012=
0142832880999992013100516004-13262-043408FM-15+044399999V0200601N003619999999N009999199+04001+01001999999ADDGA1021+009141991GE19MSL   +99999+99999GF199999021990009141991991MA1101101999990REMMET051METAR SBLP 051600Z 06007KT 9999 FEW030 40/10 Q1011=
0142832880999992013100517004-13262-043408FM-15+044399999V0202101N002119999999N009999199+03901+00902999999ADDGA1021+009141991GE19MSL   +99999+99999GF199999021990009141991991MA1100901999990REMMET051METAR SBLP 051700Z 21004KT 9999 FEW030 39/09 Q1009=
0152832880999992013100518004-13267-043417FM-12+044199999V0203601N0005199999999020000199+03891+01541100491ADDAA101999990AZ101061AZ201061GA1021+008001081GA2991+999991021GE19MSL   +99999+99999GF103991021990008001991991MA1999990095821MD1909990+0051REMSYN004BUFR
0142832880999992013100518004-13262-043408FM-15+044399999V0201601N001019999999N009999199+03901+00901999999ADDGA1021+009141991GE19MSL   +99999+99999GF199999021990009141991991MA1100801999990REMMET051METAR SBLP 051800Z 16002KT 9999 FEW030 39/09 Q1008=
0142832880999992013100519004-13262-043408FM-15+044399999V0201601N005119999999N009999199+03901+00901999999ADDGA1021+009141991GE19MSL   +99999+99999GF199999021990009141991991MA1100801999990REMMET051METAR SBLP 051900Z 16010KT 9999 FEW030 39/09 Q1008=
0142832880999992013100520004-13262-043408FM-15+044399999V0201801N003119999999N009999199+03801+00901999999ADDGA1021+009141991GE19MSL   +99999+99999GF199999021990009141991991MA1100801999990REMMET051METAR SBLP 052000Z 18006KT 9999 FEW030 38/09 Q1008=
0142832880999992013100521004-13262-043408FM-15+044399999V0202101N002119999999N009999199+03601+01001999999ADDGA1021+009141991GE19MSL   +99999+99999GF199999021990009141991991MA1100901999990REMMET051METAR SBLP 052100Z 21004KT 9999 FEW030 36/10 Q1009=
0142832880999992013100609154-13262-043408FM-16+044399999V0203101N002119999999N009999199+02701+01601999999ADDGA1021+009141991GE19MSL   +99999+99999GF199999021990009141991991MA1101401999990REMMET051SPECI SBLP 060915Z 31004KT 9999 FEW030 27/16 Q1014=
0072832880999992013100610004-13262-043408FM-15+044399999V0203501N002119999999Y999999999+02801+01901999999ADDMA1101401999990REMMET045METAR SBLP 061000Z 35004KT CAVOK 28/19 Q1014=
0072832880999992013100611004-13262-043408FM-15+044399999V0203401N003119999999Y999999999+02901+01901999999ADDMA1101501999990REMMET045METAR SBLP 061100Z 34006KT CAVOK 29/19 Q1015=
0165832880999992013100612004-13267-043417FM-12+044199999V0201401N0026199999999020000199+03041+01851101061ADDAA101999990AZ101061AZ201061GA1031+017501031GA2991+999991011GE19MSL   +99999+99999GF106991031990017501991991KA1120N+02741MA1999990096311MD1909990+0031REMSYN004BUFR
0072832880999992013100612004-13262-043408FM-15+044399999V0203301N003119999999Y999999999+03201+01801999999ADDMA1101501999990REMMET045METAR SBLP 061200Z 33006KT CAVOK 32/18 Q1015=
0142832880999992013100613004-13262-043408FM-15+044399999V0203401N002119999999N009999199+03401+01701999999ADDGA1021+009141991GE19MSL   +99999+99999GF199999021990009141991991MA1101501999990REMMET051METAR SBLP 061300Z 34004KT 9999 FEW030 34/17 Q1015=
0142832880999992013100614004-13262-043408FM-15+044399999V0203201N003119999999N009999199+03601+01701999999ADDGA1021+009141991GE19MSL   +99999+99999GF199999021990009141991991MA1101401999990REMMET051METAR SBLP 061400Z 32006KT 9999 FEW030 36/17 Q1014=
0142832880999992013100615004-13262-043408FM-15+044399999V0200101N006219999999N009999199+03401+01601999999ADDGA1041+009141991GE19MSL   +99999+99999GF199999041990009141991991MA1101301999990REMMET051METAR SBLP 061500Z 01012KT 9999 SCT030 34/16 Q1013=
0165832880999992013100616004-13262-043408FM-15+044399999V0200301N002610304819N009999199+03601+01701999999ADDGA1021+009141991GA2071+030481991GE19MSL   +99999+99999GF199999021990009141991991MA1101201999990REMMET058METAR SBLP 061600Z 03005KT 9999 FEW030 BKN100 36/17 Q1012=
0165832880999992013100617004-13262-043408FM-15+044399999V0200201N003110304819N009999199+03501+01601999999ADDGA1041+009141991GA2071+030481991GE19MSL   +99999+99999GF199999041990009141991991MA1101101999990REMMET058METAR SBLP 061700Z 02006KT 9999 SCT030 BKN100 35/16 Q1011=
0168832880999992013100618004-13267-043417FM-12+044199999V0202301N0031199999999020000199+02951+01961100791ADDAA101999990AZ101061AZ201061GA1021+008001081GA2991+999991001GA3991+999991031GE19MSL   +99999+99999GF108991021990008001991991MA1999990096011MD1909990+0191REMSYN004BUFR
0165832880999992013100618004-13262-043408FM-15+044399999V0200701N003110304819N009999199+03001+01801999999ADDGA1021+009141991GA2071+030481991GE19MSL   +99999+99999GF199999021990009141991991MA1101101999990REMMET058METAR SBLP 061800Z 07006KT 9999 FEW030 BKN100 30/18 Q1011=
0165832880999992013100619004-13262-043408FM-15+044399999V0200301N003610304819N009999199+03001+01801999999ADDGA1021+009141991GA2071+030481991GE19MSL   +99999+99999GF199999021990009141991991MA1101201999990REMMET058METAR SBLP 061900Z 03007KT 9999 FEW030 BKN100 30/18 Q1012=
0165832880999992013100620004-13262-043408FM-15+044399999V0200301N003110304819N009999199+02901+01901999999ADDGA1041+009141991GA2071+030481991GE19MSL   +99999+99999GF199999041990009141991991MA1101201999990REMMET058METAR SBLP 062000Z 03006KT 9999 SCT030 BKN100 29/19 Q1012=
0165832880999992013100621004-13262-043408FM-15+044399999V0209999C000010304819N009999199+02801+01801999999ADDGA1041+009141991GA2071+030481991GE19MSL   +99999+99999GF199999041990009141991991MA1101301999990REMMET058METAR SBLP 062100Z 00000KT 9999 SCT030 BKN100 28/18 Q1013=
0165832880999992013100709154-13262-043408FM-16+044399999V0200301N00151030481CN009999199+02301+02101999999ADDGA1021+006101991GA2041+030481991GE19MSL   +99999+99999GF199999021990006101991991MA1101601999990REMMET058SPECI SBLP 070915Z 03003KT 9999 FEW020 SCT100 23/21 Q1016=
0165832880999992013100710004-13262-043408FM-15+044399999V0200201N00211030481CN009999199+02501+02101999999ADDGA1021+009141991GA2041+030481991GE19MSL   +99999+99999GF199999021990009141991991MA1101601999990REMMET058METAR SBLP 071000Z 02004KT 9999 FEW030 SCT100 25/21 Q1016=
0142832880999992013100711004-13262-043408FM-15+044399999V0200101N003119999999N009999199+02801+02001999999ADDGA1021+009141991GE19MSL   +99999+99999GF199999021990009141991991MA1101701999990REMMET051METAR SBLP 071100Z 01006KT 9999 FEW030 28/20 Q1017=
0181832880999992013100712004-13267-043417FM-12+044199999V0203601N0000199999999020000199+02941+01971101321ADDAA101999990AZ101061AZ201061GA1031+008001081GA2991+999991021GA3991+999991031GE19MSL   +99999+99999GF106991031990008001991991KA1120N+02361MA1999990096481MD1909990+0171REMSYN004BUFR
0142832880999992013100712004-13262-043408FM-15+044399999V0209999C000019999999N009999199+03001+01901999999ADDGA1021+009141991GE19MSL   +99999+99999GF199999021990009141991991MA1101701999990REMMET051METAR SBLP 071200Z 00000KT 9999 FEW030 30/19 Q1017=
0142832880999992013100713004-13262-043408FM-15+044399999V0202101N003619999999N009999199+03101+01901999999ADDGA1021+009141991GE19MSL   +99999+99999GF199999021990009141991991MA1101701999990REMMET051METAR SBLP 071300Z 21007KT 9999 FEW030 31/19 Q1017=
0165832880999992013100714004-13262-043408FM-15+044399999V0209999C00001030481CN009999199+03401+01801999999ADDGA1021+009141991GA2041+030481991GE19MSL   +99999+99999GF199999021990009141991991MA1101701999990REMMET058METAR SBLP 071400Z 00000KT 9999 FEW030 SCT100 34/18 Q1017=
0165832880999992013100715004-13262-043408FM-15+044399999V0201901N005110304819N009999199+03301+01801999999ADDGA1041+009141991GA2071+030481991GE19MSL   +99999+99999GF199999041990009141991991MA1101601999990REMMET058METAR SBLP 071500Z 19010KT 9999 SCT030 BKN100 33/18 Q1016=
0175832880999992013100716004-13262-043408FM-15+044399999V0200901N004110304819N007000199+02801+02201999999ADDGA1041+006101991GA2071+030481991GE19MSL   +99999+99999GF199999041990006101991991MA1101601999990MW1611REMMET062METAR SBLP 071600Z 09008KT 7000 -RA SCT020 BKN100 28/22 Q1016=
0165832880999992013100717004-13262-043408FM-15+044399999V0201101N003110304819N009999199+02701+02301999999ADDGA1041+006101991GA2071+030481991GE19MSL   +99999+99999GF199999041990006101991991MA1101501999990REMMET058METAR SBLP 071700Z 11006KT 9999 SCT020 BKN100 27/23 Q1015=
0158832880999992013100718004-13267-043417FM-12+044199999V0202301N0005100450199020000199+02821+02151101071ADDAA106014031AY161061AY221061GA1051+004501061GA2991+999991031GE19MSL   +99999+99999GF106991051990004501991991MA1999990096231MD1909990+0221MW1011REMSYN004BUFR
0165832880999992013100718004-13262-043408FM-15+044399999V0201801N002610304819N009999199+02801+02101999999ADDGA1041+006101991GA2071+030481991GE19MSL   +99999+99999GF199999041990006101991991MA1101401999990REMMET058METAR SBLP 071800Z 18005KT 9999 SCT020 BKN100 28/21 Q1014=
0165832880999992013100719004-13262-043408FM-15+044399999V0201501N001510304819N009999199+02901+02001999999ADDGA1021+009141991GA2071+030481991GE19MSL   +99999+99999GF199999021990009141991991MA1101301999990REMMET058METAR SBLP 071900Z 15003KT 9999 FEW030 BKN100 29/20 Q1013=
0165832880999992013100720004-13262-043408FM-15+044399999V0201601N001510304819N009999199+02901+02101999999ADDGA1021+009141991GA2071+030481991GE19MSL   +99999+99999GF199999021990009141991991MA1101301999990REMMET058METAR SBLP 072000Z 16003KT 9999 FEW030 BKN100 29/21 Q1013=
0165832880999992013100721004-13262-043408FM-15+044399999V0209999C000010304819N009999199+02801+01901999999ADDGA1021+009141991GA2071+030481991GE19MSL   +99999+99999GF199999021990009141991991MA1101401999990REMMET058METAR SBLP 072100Z 00000KT 9999 FEW030 BKN100 28/19 Q1014=
0168832880999992013100800004-13267-043417FM-12+044199999V0201401N0015100800199002000199+02541+02241101261ADDAA101999990AZ101061AZ201061GA1081+008001061GA2991+999991101GA3991+999991101GE19MSL   +99999+99999GF108991081990008001991991MA1999990096411MD1909990+0091REMSYN004BUFR
0165832880999992013100809154-13262-043408FM-16+044399999V0202001N004110304819N009999199+02201+01901999999ADDGA1021+006101991GA2071+030481991GE19MSL   +99999+99999GF199999021990006101991991MA1101901999990REMMET058SPECI SBLP 080915Z 20008KT 9999 FEW020 BKN100 22/19 Q1019=
0165832880999992013100810004-13262-043408FM-15+044399999V0202001N005110304819N009999199+02301+01901999999ADDGA1021+006101991GA2071+030481991GE19MSL   +99999+99999GF199999021990006101991991MA1101901999990REMMET058METAR SBLP 081000Z 20010KT 9999 FEW020 BKN100 23/19 Q1019=
0165832880999992013100811004-13262-043408FM-15+044399999V0202101N003110304819N009999199+02501+01901999999ADDGA1021+009141991GA2071+030481991GE19MSL   +99999+99999GF199999021990009141991991MA1102001999990REMMET058METAR SBLP 081100Z 21006KT 9999 FEW030 BKN100 25/19 Q1020=
0165832880999992013100812004-13267-043417FM-12+044199999V0201401N0015199999999020000199+02601+01971101671ADDAA124014031AZ101061AZ201061GA1031+008001081GA2991+999991021GE19MSL   +99999+99999GF105991031990008001991991KA1120N+02221MA1999990096771MD1909990+0291REMSYN004BUFR
0165832880999992013100812004-13262-043408FM-15+044399999V0201501N00261030481CN009999199+02801+01801999999ADDGA1021+009141991GA2041+030481991GE19MSL   +99999+99999GF199999021990009141991991MA1102001999990REMMET058METAR SBLP 081200Z 15005KT 9999 FEW030 SCT100 28/18 Q1020=
0142832880999992013100813004-13262-043408FM-15+044399999V0201801N002619999999N009999199+03001+01801999999ADDGA1041+009141991GE19MSL   +99999+99999GF199999041990009141991991MA1101901999990REMMET051METAR SBLP 081300Z 18005KT 9999 SCT030 30/18 Q1019=
0142832880999992013100814004-13262-043408FM-15+044399999V0209999C000019999999N009999199+03101+01601999999ADDGA1041+009141991GE19MSL   +99999+99999GF199999041990009141991991MA1101801999990REMMET051METAR SBLP 081400Z 00000KT 9999 SCT030 31/16 Q1018=
0142832880999992013100815004-13262-043408FM-15+044399999V0202501N003119999999N009999199+03201+01801999999ADDGA1041+009141991GE19MSL   +99999+99999GF199999041990009141991991MA1101701999990REMMET051METAR SBLP 081500Z 25006KT 9999 SCT030 32/18 Q1017=
0142832880999992013100816004-13262-043408FM-15+044399999V0203201N001019999999N009999199+03301+01601999999ADDGA1041+009141991GE19MSL   +99999+99999GF199999041990009141991991MA1101601999990REMMET051METAR SBLP 081600Z 32002KT 9999 SCT030 33/16 Q1016=
0142832880999992013100817004-13262-043408FM-15+044399999V0202301N002110091419N009999199+03301+01401999999ADDGA1071+009141991GE19MSL   +99999+99999GF199999071990009141991991MA1101501999990REMMET051METAR SBLP 081700Z 23004KT 9999 BKN030 33/14 Q1015=
0168832880999992013100818004-13267-043417FM-12+044199999V0202301N0010100800199020000199+03121+01901101121ADDAA101999990AZ101061AZ201061GA1081+008001061GA2991+999991101GA3991+999991101GE19MSL   +99999+99999GF108991081990008001991991MA1999990096291MD1909990+0061REMSYN004BUFR
0165832880999992013100818004-13262-043408FM-15+044399999V0202701N00311030481CN009999199+03201+01501999999ADDGA1041+009141991GA2041+030481991GE19MSL   +99999+99999GF199999041990009141991991MA1101501999990REMMET058METAR SBLP 081800Z 27006KT 9999 SCT030 SCT100 32/15 Q1015=
0165832880999992013100819004-13262-043408FM-15+044399999V0202701N00411030481CN009999199+03301+01401999999ADDGA1021+009141991GA2041+030481991GE19MSL   +99999+99999GF199999021990009141991991MA1101401999990REMMET058METAR SBLP 081900Z 27008KT 9999 FEW030 SCT100 33/14 Q1014=
0165832880999992013100820004-13262-043408FM-15+044399999V0202701N00311030481CN009999199+03301+01501999999ADDGA1021+009141991GA2041+030481991GE19MSL   +99999+99999GF199999021990009141991991MA1101401999990REMMET058METAR SBLP 082000Z 27006KT 9999 FEW030 SCT100 33/15 Q1014=
0142832880999992013100821004-13262-043408FM-15+044399999V0202601N004119999999N009999199+03101+01401999999ADDGA1021+009141991GE19MSL   +99999+99999GF199999021990009141991991MA1101401999990REMMET051METAR SBLP 082100Z 26008KT 9999 FEW030 31/14 Q1014=
0136832880999992013100900004-13267-043417FM-12+044199999V0201801N0015199999999002000199+02821+01781101191ADDAA101999990AZ101061AZ201061GA1041+008001061GE19MSL   +99999+99999GF104991041990008001991991MA1999990096341MD1909990-0071REMSYN004BUFR
0165832880999992013100909154-13262-043408FM-16+044399999V0202501N00261030481CN009999199+02201+01701999999ADDGA1021+009141991GA2041+030481991GE19MSL   +99999+99999GF199999021990009141991991MA1101801999990REMMET058SPECI SBLP 090915Z 25005KT 9999 FEW030 SCT100 22/17 Q1018=
0165832880999992013100910004-13262-043408FM-15+044399999V0202601N003610304819N009999199+02301+01601999999ADDGA1021+009141991GA2071+030481991GE19MSL   +99999+99999GF199999021990009141991991MA1101801999990REMMET058METAR SBLP 091000Z 26007KT 9999 FEW030 BKN100 23/16 Q1018=
0165832880999992013100911004-13262-043408FM-15+044399999V0202701N003610304819N009999199+02401+01601999999ADDGA1021+009141991GA2071+030481991GE19MSL   +99999+99999GF199999021990009141991991MA1101901999990REMMET058METAR SBLP 091100Z 27007KT 9999 FEW030 BKN100 24/16 Q1019=
0165832880999992013100912004-13267-043417FM-12+044199999V0201401N0010101750199020000199+02401+01731101591ADDAA101999990AZ101061AZ201061GA1081+017501031GA2991+999991101GE19MSL   +99999+99999GF108991081990017501991991KA1120N+02181MA1999990096701MD1909990-0071REMSYN004BUFR
0165832880999992013100912004-13262-043408FM-15+044399999V0202501N002110304819N009999199+02601+01601999999ADDGA1021+009141991GA2071+030481991GE19MSL   +99999+99999GF199999021990009141991991MA1101901999990REMMET058METAR SBLP 091200Z 25004KT 9999 FEW030 BKN100 26/16 Q1019=
0165832880999992013100913004-13262-043408FM-15+044399999V0201701N004610304819N009999199+02901+01601999999ADDGA1021+009141991GA2071+030481991GE19MSL   +99999+99999GF199999021990009141991991MA1101901999990REMMET058METAR SBLP 091300Z 17009KT 9999 FEW030 BKN100 29/16 Q1019=
0165832880999992013100914004-13262-043408FM-15+044399999V0209999C000010304819N009999199+03001+01601999999ADDGA1021+009141991GA2071+030481991GE19MSL   +99999+99999GF199999021990009141991991MA1101801999990REMMET058METAR SBLP 091400Z 00000KT 9999 FEW030 BKN100 30/16 Q1018=
0165832880999992013100915004-13262-043408FM-15+044399999V0209999C000010304819N009999199+03201+01601999999ADDGA1021+009141991GA2071+030481991GE19MSL   +99999+99999GF199999021990009141991991MA1101701999990REMMET058METAR SBLP 091500Z 00000KT 9999 FEW030 BKN100 32/16 Q1017=
0165832880999992013100916004-13262-043408FM-15+044399999V0202201N004110304819N009999199+03201+01501999999ADDGA1021+009141991GA2071+030481991GE19MSL   +99999+99999GF199999021990009141991991MA1101601999990REMMET058METAR SBLP 091600Z 22008KT 9999 FEW030 BKN100 32/15 Q1016=
0165832880999992013100917004-13262-043408FM-15+044399999V0202901N00511030481CN009999199+03301+01501999999ADDGA1021+009141991GA2041+030481991GE19MSL   +99999+99999GF199999021990009141991991MA1101501999990REMMET058METAR SBLP 091700Z 29010KT 9999 FEW030 SCT100 33/15 Q1015=
0168832880999992013100918004-13267-043417FM-12+044199999V0201801N0026199999999020000199+03141+01801101121ADDAA101999990AZ101061AZ201061GA1031+008001081GA2991+999991001GA3991+999991031GE19MSL   +99999+99999GF107991031990008001991991MA1999990096261MD1909990-0031REMSYN004BUFR
0165832880999992013100918004-13262-043408FM-15+044399999V0202601N004610304819N009999199+03201+01501999999ADDGA1041+009141991GA2071+030481991GE19MSL   +99999+99999GF199999041990009141991991MA1101501999990REMMET058METAR SBLP 091800Z 26009KT 9999 SCT030 BKN100 32/15 Q1015=
0165832880999992013100919004-13262-043408FM-15+044399999V0202501N006210304819N009999199+03101+01401999999ADDGA1041+009141991GA2071+030481991GE19MSL   +99999+99999GF199999041990009141991991MA1101501999990REMMET058METAR SBLP 091900Z 25012KT 9999 SCT030 BKN100 31/14 Q1015=
0165832880999992013100920004-13262-043408FM-15+044399999V0202601N004110304819N009999199+03001+01501999999ADDGA1041+009141991GA2071+030481991GE19MSL   +99999+99999GF199999041990009141991991MA1101501999990REMMET058METAR SBLP 092000Z 26008KT 9999 SCT030 BKN100 30/15 Q1015=
0165832880999992013100921004-13262-043408FM-15+044399999V0202501N006210304819N009999199+02901+01401999999ADDGA1041+009141991GA2071+030481991GE19MSL   +99999+99999GF199999041990009141991991MA1101501999990REMMET058METAR SBLP 092100Z 25012KT 9999 SCT030 BKN100 29/14 Q1015=
0152832880999992013101000004-13267-043417FM-12+044199999V0201801N0031199999999002000199+02571+01621101371ADDAA101999990AZ101061AZ201061GA1031+017501031GA2991+999991001GE19MSL   +99999+99999GF108991031990017501991991MA1999990096471MD1909990+0131REMSYN004BUFR
0165832880999992013101009154-13262-043408FM-16+044399999V0202501N00361030481CN009999199+02101+01501999999ADDGA1021+009141991GA2041+030481991GE19MSL   +99999+99999GF199999021990009141991991MA1101801999990REMMET058SPECI SBLP 100915Z 25007KT 9999 FEW030 SCT100 21/15 Q1018=
0142832880999992013101010004-13262-043408FM-15+044399999V0202401N005119999999N009999199+02201+01501999999ADDGA1021+009141991GE19MSL   +99999+99999GF199999021990009141991991MA1101801999990REMMET051METAR SBLP 101000Z 24010KT 9999 FEW030 22/15 Q1018=
0072832880999992013101011004-13262-043408FM-15+044399999V0202401N003119999999Y999999999+02501+01401999999ADDMA1101901999990REMMET045METAR SBLP 101100Z 24006KT CAVOK 25/14 Q1019=
0149832880999992013101012004-13267-043417FM-12+044199999V0202301N0026199999999020000199+02521+01621101611ADDAA101999990AZ101061AZ201061GA1031+012501031GE19MSL   +99999+99999GF103991031990012501991991KA1120N+02061MA1999990096711MD1909990+0011REMSYN004BUFR
0072832880999992013101012004-13262-043408FM-15+044399999V0202701N001519999999Y999999999+02701+01401999999ADDMA1101901999990REMMET045METAR SBLP 101200Z 27003KT CAVOK 27/14 Q1019=
0072832880999992013101013004-13262-043408FM-15+044399999V0200401N003119999999Y999999999+02901+01501999999ADDMA1101801999990REMMET045METAR SBLP 101300Z 04006KT CAVOK 29/15 Q1018=
0142832880999992013101014004-13262-043408FM-15+044399999V0201501N002619999999N009999199+03001+01401999999ADDGA1021+009141991GE19MSL   +99999+99999GF199999021990009141991991MA1101701999990REMMET051METAR SBLP 101400Z 15005KT 9999 FEW030 30/14 Q1017=
0142832880999992013101015004-13262-043408FM-15+044399999V0202201N003119999999N009999199+03201+01401999999ADDGA1041+009141991GE19MSL   +99999+99999GF199999041990009141991991MA1101601999990REMMET051METAR SBLP 101500Z 22006KT 9999 SCT030 32/14 Q1016=
0142832880999992013101016004-13262-043408FM-15+044399999V0202201N003619999999N009999199+03401+01401999999ADDGA1041+009141991GE19MSL   +99999+99999GF199999041990009141991991MA1101501999990REMMET051METAR SBLP 101600Z 22007KT 9999 SCT030 34/14 Q1015=
0142832880999992013101017004-13262-043408FM-15+044399999V0203401N002119999999N009999199+03501+01201999999ADDGA1041+009141991GE19MSL   +99999+99999GF199999041990009141991991MA1101301999990REMMET051METAR SBLP 101700Z 34004KT 9999 SCT030 35/12 Q1013=
0136832880999992013101018004-13267-043417FM-12+044199999V0200901N0010100800199020000199+03271+01861100931ADDAA101999990AZ101061AZ201061GA1061+008001081GE19MSL   +99999+99999GF106991061990008001991991MA1999990096091MD1909990-0171REMSYN004BUFR
0142832880999992013101018004-13262-043408FM-15+044399999V0201201N002119999999N009999199+03301+01301999999ADDGA1041+009141991GE19MSL   +99999+99999GF199999041990009141991991MA1101301999990REMMET051METAR SBLP 101800Z 12004KT 9999 SCT030 33/13 Q1013=
0142832880999992013101019004-13262-043408FM-15+044399999V0201601N003119999999N009999199+03501+01301999999ADDGA1041+009141991GE19MSL   +99999+99999GF199999041990009141991991MA1101301999990REMMET051METAR SBLP 101900Z 16006KT 9999 SCT030 35/13 Q1013=
0142832880999992013101020004-13262-043408FM-15+044399999V0201701N006219999999N009999199+03301+01301999999ADDGA1041+009141991GE19MSL   +99999+99999GF199999041990009141991991MA1101301999990REMMET051METAR SBLP 102000Z 17012KT 9999 SCT030 33/13 Q1013=
0142832880999992013101021004-13262-043408FM-15+044399999V0201801N006219999999N009999199+03101+01301999999ADDGA1041+009141991GE19MSL   +99999+99999GF199999041990009141991991MA1101301999990REMMET051METAR SBLP 102100Z 18012KT 9999 SCT030 31/13 Q1013=
0136832880999992013101100004-13267-043417FM-12+044199999V0202301N0026100800199002000199+02701+01551101311ADDAA101999990AZ101061AZ201061GA1061+008001081GE19MSL   +99999+99999GF106991061990008001991991MA1999990096431MD1909990-0041REMSYN004BUFR
0072832880999992013101109154-13262-043408FM-16+044399999V0202001N002119999999Y999999999+02001+01401999999ADDMA1101701999990REMMET045SPECI SBLP 110915Z 20004KT CAVOK 20/14 Q1017=
0072832880999992013101110004-13262-043408FM-15+044399999V0202001N003119999999Y999999999+02301+01401999999ADDMA1101801999990REMMET045METAR SBLP 111000Z 20006KT CAVOK 23/14 Q1018=
0072832880999992013101111004-13262-043408FM-15+044399999V0201701N002119999999Y999999999+02501+01401999999ADDMA1101901999990REMMET045METAR SBLP 111100Z 17004KT CAVOK 25/14 Q1019=
0149832880999992013101112004-13267-043417FM-12+044199999V0201801N0010199999999020000199+02571+01481101571ADDAA101999990AZ101061AZ201061GA1991+025001001GE19MSL   +99999+99999GF101991990990025001991991KA1120N+02041MA1999990096691MD1909990-0021REMSYN004BUFR
0072832880999992013101112004-13262-043408FM-15+044399999V0201901N002119999999Y999999999+02701+01301999999ADDMA1101901999990REMMET045METAR SBLP 111200Z 19004KT CAVOK 27/13 Q1019=
0072832880999992013101113004-13262-043408FM-15+044399999V0203101N002119999999Y999999999+02901+01301999999ADDMA1101801999990REMMET045METAR SBLP 111300Z 31004KT CAVOK 29/13 Q1018=
0072832880999992013101114004-13262-043408FM-15+044399999V0201801N001519999999Y999999999+03101+01301999999ADDMA1101801999990REMMET045METAR SBLP 111400Z 18003KT CAVOK 31/13 Q1018=
0142832880999992013101115004-13262-043408FM-15+044399999V0201101N003119999999N009999199+03301+01301999999ADDGA1021+009141991GE19MSL   +99999+99999GF199999021990009141991991MA1101601999990REMMET051METAR SBLP 111500Z 11006KT 9999 FEW030 33/13 Q1016=
0142832880999992013101116004-13262-043408FM-15+044399999V0201601N002119999999N009999199+03401+01401999999ADDGA1021+009141991GE19MSL   +99999+99999GF199999021990009141991991MA1101501999990REMMET051METAR SBLP 111600Z 16004KT 9999 FEW030 34/14 Q1015=
0142832880999992013101117004-13262-043408FM-15+044399999V0201701N002619999999N009999199+03501+01401999999ADDGA1021+009141991GE19MSL   +99999+99999GF199999021990009141991991MA1101301999990REMMET051METAR SBLP 111700Z 17005KT 9999 FEW030 35/14 Q1013=
0136832880999992013101118004-13267-043417FM-12+044199999V0201801N0015199999999020000199+03371+01791100881ADDAA101999990AZ101061AZ201061GA1021+008001081GE19MSL   +99999+99999GF102991021990008001991991MA1999990096061MD1909990-0031REMSYN004BUFR
0142832880999992013101118004-13262-043408FM-15+044399999V0201901N002119999999N009999199+03501+01701999999ADDGA1021+009141991GE19MSL   +99999+99999GF199999021990009141991991MA1101201999990REMMET051METAR SBLP 111800Z 19004KT 9999 FEW030 35/17 Q1012=
0142832880999992013101119004-13262-043408FM-15+044399999V0201801N004619999999N009999199+03501+02101999999ADDGA1021+009141991GE19MSL   +99999+99999GF199999021990009141991991MA1101201999990REMMET051METAR SBLP 111900Z 18009KT 9999 FEW030 35/21 Q1012=
0142832880999992013101120004-13262-043408FM-15+044399999V0201901N005119999999N009999199+03401+01701999999ADDGA1021+009141991GE19MSL   +99999+99999GF199999021990009141991991MA1101201999990REMMET051METAR SBLP 112000Z 19010KT 9999 FEW030 34/17 Q1012=
0072832880999992013101121004-13262-043408FM-15+044399999V0202101N004119999999Y999999999+03201+01601999999ADDMA1101301999990REMMET045METAR SBLP 112100Z 21008KT CAVOK 32/16 Q1013=
0098832880999992013101200004-13267-043417FM-12+044199999V0201801N0021122000199002000199+02701+01561101181ADDAA101999990AZ101061AZ201061GF100991999999999999999999MA1999990096331MD1909990-0101REMSYN004BUFR
0072832880999992013101209154-13262-043408FM-16+044399999V0209999C000019999999Y999999999+02001+01701999999ADDMA1101801999990REMMET045SPECI SBLP 120915Z 00000KT CAVOK 20/17 Q1018=
0072832880999992013101210004-13262-043408FM-15+044399999V0202601N002619999999Y999999999+02301+01501999999ADDMA1101801999990REMMET045METAR SBLP 121000Z 26005KT CAVOK 23/15 Q1018=
0072832880999992013101211004-13262-043408FM-15+044399999V0202401N003119999999Y999999999+02701+01601999999ADDMA1101901999990REMMET045METAR SBLP 121100Z 24006KT CAVOK 27/16 Q1019=
0142832880999992013101214004-13262-043408FM-15+044399999V0203601N003119999999N009999199+03201+01601999999ADDGA1021+009141991GE19MSL   +99999+99999GF199999021990009141991991MA1101801999990REMMET051METAR SBLP 121400Z 36006KT 9999 FEW030 32/16 Q1018=
0142832880999992013101215004-13262-043408FM-15+044399999V0201701N003619999999N009999199+03301+01601999999ADDGA1021+009141991GE19MSL   +99999+99999GF199999021990009141991991MA1101601999990REMMET051METAR SBLP 121500Z 17007KT 9999 FEW030 33/16 Q1016=
0142832880999992013101216004-13262-043408FM-15+044399999V0201801N003119999999N009999199+03401+01401999999ADDGA1021+009141991GE19MSL   +99999+99999GF199999021990009141991991MA1101501999990REMMET051METAR SBLP 121600Z 18006KT 9999 FEW030 34/14 Q1015=
0142832880999992013101217004-13262-043408FM-15+044399999V0202001N003119999999N009999199+03501+01401999999ADDGA1021+009141991GE19MSL   +99999+99999GF199999021990009141991991MA1101401999990REMMET051METAR SBLP 121700Z 20006KT 9999 FEW030 35/14 Q1014=
0136832880999992013101218004-13267-043417FM-12+044199999V0200901N0015199999999020000199+03321+01891100931ADDAA101999990AZ101061AZ201061GA1011+000701081GE19MSL   +99999+99999GF101991011990000701991991MA1999990096101MD1909990+0041REMSYN004BUFR
0142832880999992013101218004-13262-043408FM-15+044399999V0202701N004119999999N009999199+03501+01101999999ADDGA1041+009141991GE19MSL   +99999+99999GF199999041990009141991991MA1101301999990REMMET051METAR SBLP 121800Z 27008KT 9999 SCT030 35/11 Q1013=
0142832880999992013101219004-13262-043408FM-15+044399999V0202601N005119999999N009999199+03501+01101999999ADDGA1041+009141991GE19MSL   +99999+99999GF199999041990009141991991MA1101301999990REMMET051METAR SBLP 121900Z 26010KT 9999 SCT030 35/11 Q1013=
0142832880999992013101220004-13262-043408FM-15+044399999V0202101N004119999999N009999199+03301+01101999999ADDGA1021+009141991GE19MSL   +99999+99999GF199999021990009141991991MA1101301999990REMMET051METAR SBLP 122000Z 21008KT 9999 FEW030 33/11 Q1013=
0142832880999992013101221004-13262-043408FM-15+044399999V0202301N004119999999N009999199+03201+01001999999ADDGA1021+009141991GE19MSL   +99999+99999GF199999021990009141991991MA1101401999990REMMET051METAR SBLP 122100Z 23008KT 9999 FEW030 32/10 Q1014=
0072832880999992013101309154-13262-043408FM-16+044399999V0209999C000019999999Y999999999+02001+01501999999ADDMA1101801999990REMMET045SPECI SBLP 130915Z 00000KT CAVOK 20/15 Q1018=
0072832880999992013101310004-13262-043408FM-15+044399999V0201801N003119999999Y999999999+02301+01501999999ADDMA1101801999990REMMET045METAR SBLP 131000Z 18006KT CAVOK 23/15 Q1018=
0072832880999992013101311004-13262-043408FM-15+044399999V0201601N003119999999Y999999999+02601+01501999999ADDMA1101901999990REMMET045METAR SBLP 131100Z 16006KT CAVOK 26/15 Q1019=
0111832880999992013101312004-13267-043417FM-12+044199999V0202301N0015122000199020000199+02621+01771101581ADDAA101999990AZ101061AZ201061GF100991999999999999999999KA1120N+02041MA1999990096711MD1909990+0031REMSYN004BUFR
0072832880999992013101312004-13262-043408FM-15+044399999V0202201N003119999999Y999999999+02801+01401999999ADDMA1101901999990REMMET045METAR SBLP 131200Z 22006KT CAVOK 28/14 Q1019=
0072832880999992013101313004-13262-043408FM-15+044399999V0202001N003119999999Y999999999+03001+01501999999ADDMA1101901999990REMMET045METAR SBLP 131300Z 20006KT CAVOK 30/15 Q1019=
0142832880999992013101314004-13262-043408FM-15+044399999V0202701N003119999999N009999199+03101+01301999999ADDGA1021+009141991GE19MSL   +99999+99999GF199999021990009141991991MA1101801999990REMMET051METAR SBLP 131400Z 27006KT 9999 FEW030 31/13 Q1018=
0142832880999992013101315004-13262-043408FM-15+044399999V0202201N004119999999N009999199+03201+01401999999ADDGA1021+009141991GE19MSL   +99999+99999GF199999021990009141991991MA1101601999990REMMET051METAR SBLP 131500Z 22008KT 9999 FEW030 32/14 Q1016=
0142832880999992013101316004-13262-043408FM-15+044399999V0203601N003119999999N009999199+03401+01801999999ADDGA1021+009141991GE19MSL   +99999+99999GF199999021990009141991991MA1101501999990REMMET051METAR SBLP 131600Z 36006KT 9999 FEW030 34/18 Q1015=
0142832880999992013101317004-13262-043408FM-15+044399999V0209999C000019999999N009999199+03501+01901999999ADDGA1041+009141991GE19MSL   +99999+99999GF199999041990009141991991MA1101301999990REMMET051METAR SBLP 131700Z 00000KT 9999 SCT030 35/19 Q1013=
0136832880999992013101318004-13267-043417FM-12+044199999V0202301N0010100800199020000199+03351+01851100881ADDAA101999990AZ101061AZ201061GA1051+008001081GE19MSL   +99999+99999GF105991051990008001991991MA1999990096081MD1909990-0021REMSYN004BUFR
0142832880999992013101318004-13262-043408FM-15+044399999V0202501N002119999999N009999199+03601+02101999999ADDGA1041+009141991GE19MSL   +99999+99999GF199999041990009141991991MA1101201999990REMMET051METAR SBLP 131800Z 25004KT 9999 SCT030 36/21 Q1012=
0142832880999992013101319004-13262-043408FM-15+044399999V0202301N002610091419N009999199+03601+02101999999ADDGA1071+009141991GE19MSL   +99999+99999GF199999071990009141991991MA1101201999990REMMET051METAR SBLP 131900Z 23005KT 9999 BKN030 36/21 Q1012=
0142832880999992013101320004-13262-043408FM-15+044399999V0209999C000019999999N009999199+03401+01801999999ADDGA1041+009141991GE19MSL   +99999+99999GF199999041990009141991991MA1101201999990REMMET051METAR SBLP 132000Z 00000KT 9999 SCT030 34/18 Q1012=
0165832880999992013101321004-13262-043408FM-15+044399999V0202801N00311030481CN009999199+03201+01501999999ADDGA1041+009141991GA2041+030481991GE19MSL   +99999+99999GF199999041990009141991991MA1101301999990REMMET058METAR SBLP 132100Z 28006KT 9999 SCT030 SCT100 32/15 Q1013=
0072832880999992013101409154-13262-043408FM-16+044399999V0202501N001519999999Y999999999+02101+01501999999ADDMA1101701999990REMMET045SPECI SBLP 140915Z 25003KT CAVOK 21/15 Q1017=
0072832880999992013101410004-13262-043408FM-15+044399999V0202301N002119999999Y999999999+02501+01501999999ADDMA1101701999990REMMET045METAR SBLP 141000Z 23004KT CAVOK 25/15 Q1017=
0072832880999992013101411004-13262-043408FM-15+044399999V0202401N002119999999Y999999999+02701+01501999999ADDMA1101801999990REMMET045METAR SBLP 141100Z 24004KT CAVOK 27/15 Q1018=
0111832880999992013101412004-13267-043417FM-12+044199999V0200901N0005122000199020000199+02791+01831101461ADDAA101999990AZ101061AZ201061GF100991999999999999999999KA1120N+02121MA1999990096621MD1909990-0091REMSYN004BUFR
0072832880999992013101412004-13262-043408FM-15+044399999V0209999C000019999999Y999999999+02901+01501999999ADDMA1101801999990REMMET045METAR SBLP 141200Z 00000KT CAVOK 29/15 Q1018=
0072832880999992013101413004-13262-043408FM-15+044399999V0201701N002119999999Y999999999+03101+01401999999ADDMA1101701999990REMMET045METAR SBLP 141300Z 17004KT CAVOK 31/14 Q1017=
0072832880999992013101414004-13262-043408FM-15+044399999V0201901N002119999999Y999999999+03301+01501999999ADDMA1101701999990REMMET045METAR SBLP 141400Z 19004KT CAVOK 33/15 Q1017=
0142832880999992013101415004-13262-043408FM-15+044399999V0202101N001519999999N009999199+03401+01401999999ADDGA1021+009141991GE19MSL   +99999+99999GF199999021990009141991991MA1101501999990REMMET051METAR SBLP 141500Z 21003KT 9999 FEW030 34/14 Q1015=
0142832880999992013101416004-13262-043408FM-15+044399999V0202001N001519999999N009999199+03501+01101999999ADDGA1021+009141991GE19MSL   +99999+99999GF199999021990009141991991MA1101401999990REMMET051METAR SBLP 141600Z 20003KT 9999 FEW030 35/11 Q1014=
0142832880999992013101417004-13262-043408FM-15+044399999V0201701N003119999999N009999199+03601+01301999999ADDGA1021+009141991GE19MSL   +99999+99999GF199999021990009141991991MA1101201999990REMMET051METAR SBLP 141700Z 17006KT 9999 FEW030 36/13 Q1012=
0136832880999992013101418004-13267-043417FM-12+044199999V0202301N0010199999999020000199+03521+02031100731ADDAA101999990AZ101061AZ201061GA1041+008001081GE19MSL   +99999+99999GF104991041990008001991991MA1999990095961MD1909990-0121REMSYN004BUFR
0142832880999992013101418004-13262-043408FM-15+044399999V0201901N002619999999N009999199+03601+01301999999ADDGA1041+009141991GE19MSL   +99999+99999GF199999041990009141991991MA1101101999990REMMET051METAR SBLP 141800Z 19005KT 9999 SCT030 36/13 Q1011=
0142832880999992013101419004-13262-043408FM-15+044399999V0202601N002119999999N009999199+03701+01201999999ADDGA1021+009141991GE19MSL   +99999+99999GF199999021990009141991991MA1101101999990REMMET051METAR SBLP 141900Z 26004KT 9999 FEW030 37/12 Q1011=
0142832880999992013101420004-13262-043408FM-15+044399999V0201801N003119999999N009999199+03601+01001999999ADDGA1021+009141991GE19MSL   +99999+99999GF199999021990009141991991MA1101101999990REMMET051METAR SBLP 142000Z 18006KT 9999 FEW030 36/10 Q1011=
0142832880999992013101421004-13262-043408FM-15+044399999V0202201N002619999999N009999199+03401+01101999999ADDGA1021+009141991GE19MSL   +99999+99999GF199999021990009141991991MA1101101999990REMMET051METAR SBLP 142100Z 22005KT 9999 FEW030 34/11 Q1011=
0098832880999992013101500004-13267-043417FM-12+044199999V0201401N0015122000199002000199+02991+01701101021ADDAA101999990AZ101061AZ201061GF100991999999999999999999MA1999990096221MD1909990-0161REMSYN004BUFR
0072832880999992013101509154-13262-043408FM-16+044399999V0201701N003119999999Y999999999+02301+01601999999ADDMA1101501999990REMMET045SPECI SBLP 150915Z 17006KT CAVOK 23/16 Q1015=
0072832880999992013101510004-13262-043408FM-15+044399999V0201801N003119999999Y999999999+02601+01701999999ADDMA1101601999990REMMET045METAR SBLP 151000Z 18006KT CAVOK 26/17 Q1016=
0072832880999992013101511004-13262-043408FM-15+044399999V0201101N003619999999Y999999999+02801+01701999999ADDMA1101701999990REMMET045METAR SBLP 151100Z 11007KT CAVOK 28/17 Q1017=
0111832880999992013101512004-13267-043417FM-12+044199999V0200901N0015122000199020000199+02841+01851101301ADDAA101999990AZ101061AZ201061GF100991999999999999999999KA1120N+02321MA1999990096481MD1909990-0141REMSYN004BUFR
0072832880999992013101512004-13262-043408FM-15+044399999V0201701N003119999999Y999999999+03001+01701999999ADDMA1101701999990REMMET045METAR SBLP 151200Z 17006KT CAVOK 30/17 Q1017=
0142832880999992013101513004-13262-043408FM-15+044399999V0201201N002119999999N009999199+03201+01601999999ADDGA1021+009141991GE19MSL   +99999+99999GF199999021990009141991991MA1101701999990REMMET051METAR SBLP 151300Z 12004KT 9999 FEW030 32/16 Q1017=
0142832880999992013101514004-13262-043408FM-15+044399999V0203201N001519999999N009999199+03301+01501999999ADDGA1021+009141991GE19MSL   +99999+99999GF199999021990009141991991MA1101601999990REMMET051METAR SBLP 151400Z 32003KT 9999 FEW030 33/15 Q1016=
0142832880999992013101516004-13262-043408FM-15+044399999V0202901N004119999999N009999199+03501+01401999999ADDGA1041+009141991GE19MSL   +99999+99999GF199999041990009141991991MA1101301999990REMMET051METAR SBLP 151600Z 29008KT 9999 SCT030 35/14 Q1013=
0142832880999992013101517004-13262-043408FM-15+044399999V0209999C000019999999N009999199+03601+01301999999ADDGA1041+009141991GE19MSL   +99999+99999GF199999041990009141991991MA1101201999990REMMET051METAR SBLP 151700Z 00000KT 9999 SCT030 36/13 Q1012=
0136832880999992013101518004-13267-043417FM-12+044199999V0201801N0015199999999020000199+03641+02021100731ADDAA101999990AZ101061AZ201061GA1021+008001081GE19MSL   +99999+99999GF102991021990008001991991MA1999990095971MD1909990+0011REMSYN004BUFR
0142832880999992013101518004-13262-043408FM-15+044399999V0202101N003119999999N009999199+03701+01201999999ADDGA1041+009141991GE19MSL   +99999+99999GF199999041990009141991991MA1101101999990REMMET051METAR SBLP 151800Z 21006KT 9999 SCT030 37/12 Q1011=
0142832880999992013101519004-13262-043408FM-15+044399999V0203001N003119999999N009999199+03701+01102999999ADDGA1021+009141991GE19MSL   +99999+99999GF199999021990009141991991MA1101101999990REMMET051METAR SBLP 151900Z 30006KT 9999 FEW030 37/11 Q1011=
0142832880999992013101520004-13262-043408FM-15+044399999V0202701N003119999999N009999199+03601+01101999999ADDGA1021+009141991GE19MSL   +99999+99999GF199999021990009141991991MA1101101999990REMMET051METAR SBLP 152000Z 27006KT 9999 FEW030 36/11 Q1011=
0072832880999992013101521004-13262-043408FM-15+044399999V0202701N001519999999Y999999999+03401+00901999999ADDMA1101101999990REMMET045METAR SBLP 152100Z 27003KT CAVOK 34/09 Q1011=
0098832880999992013101600004-13267-043417FM-12+044199999V0201401N0026122000199002000199+03041+01601100981ADDAA101999990AZ101061AZ201061GF100991999999999999999999MA1999990096191MD1909990+0261REMSYN004BUFR
0072832880999992013101609154-13262-043408FM-16+044399999V0202001N002119999999Y999999999+02301+01601999999ADDMA1101501999990REMMET045SPECI SBLP 160915Z 20004KT CAVOK 23/16 Q1015=
0072832880999992013101610004-13262-043408FM-15+044399999V0201801N003119999999Y999999999+02601+01601999999ADDMA1101601999990REMMET045METAR SBLP 161000Z 18006KT CAVOK 26/16 Q1016=
0072832880999992013101611004-13262-043408FM-15+044399999V0202001N002119999999Y999999999+02801+01701999999ADDMA1101701999990REMMET045METAR SBLP 161100Z 20004KT CAVOK 28/17 Q1017=
0111832880999992013101612004-13267-043417FM-12+044199999V0201401N0026122000199020000199+02841+01891101331ADDAA101999990AZ101061AZ201061GF100991999999999999999999KA1120N+02281MA1999990096521MD1909990+0041REMSYN004BUFR
0072832880999992013101612004-13262-043408FM-15+044399999V0201801N004119999999Y999999999+03001+01601999999ADDMA1101701999990REMMET045METAR SBLP 161200Z 18008KT CAVOK 30/16 Q1017=
0072832880999992013101613004-13262-043408FM-15+044399999V0201901N002119999999Y999999999+03201+01501999999ADDMA1101601999990REMMET045METAR SBLP 161300Z 19004KT CAVOK 32/15 Q1016=
0072832880999992013101614004-13262-043408FM-15+044399999V0201601N002119999999Y999999999+03401+01401999999ADDMA1101501999990REMMET045METAR SBLP 161400Z 16004KT CAVOK 34/14 Q1015=
0142832880999992013101615004-13262-043408FM-15+044399999V0202401N002119999999N009999199+03401+01401999999ADDGA1021+009141991GE19MSL   +99999+99999GF199999021990009141991991MA1101401999990REMMET051METAR SBLP 161500Z 24004KT 9999 FEW030 34/14 Q1014=
0142832880999992013101616004-13262-043408FM-15+044399999V0203301N005119999999N009999199+03501+01301999999ADDGA1021+009141991GE19MSL   +99999+99999GF199999021990009141991991MA1101201999990REMMET051METAR SBLP 161600Z 33010KT 9999 FEW030 35/13 Q1012=
0142832880999992013101617004-13262-043408FM-15+044399999V0203501N001519999999N009999199+03701+01201999999ADDGA1041+009141991GE19MSL   +99999+99999GF199999041990009141991991MA1101101999990REMMET051METAR SBLP 161700Z 35003KT 9999 SCT030 37/12 Q1011=
0155832880999992013101618004-13267-043417FM-12+044199999V0202701N0010199999999020000199+03591+99999100611ADDAA101999990AZ101061AZ201061GA1031+008001081GE19MSL   +99999+99999GF103991031990008001991991MA1999990095851MD1909990-0121REMSYN004BUFREQDQ0120.7  3ATOD  
0142832880999992013101618004-13262-043408FM-15+044399999V0201101N003119999999N009999199+03701+01201999999ADDGA1041+009141991GE19MSL   +99999+99999GF199999041990009141991991MA1101001999990REMMET051METAR SBLP 161800Z 11006KT 9999 SCT030 37/12 Q1010=
0142832880999992013101619004-13262-043408FM-15+044399999V0201801N002619999999N009999199+03801+00801999999ADDGA1021+009141991GE19MSL   +99999+99999GF199999021990009141991991MA1100901999990REMMET051METAR SBLP 161900Z 18005KT 9999 FEW030 38/08 Q1009=
0142832880999992013101620004-13262-043408FM-15+044399999V0203001N001519999999N009999199+03701+01001999999ADDGA1021+009141991GE19MSL   +99999+99999GF199999021990009141991991MA1100901999990REMMET051METAR SBLP 162000Z 30003KT 9999 FEW030 37/10 Q1009=
0142832880999992013101621004-13262-043408FM-15+044399999V0202901N003119999999N009999199+03501+01101999999ADDGA1021+009141991GE19MSL   +99999+99999GF199999021990009141991991MA1101001999990REMMET051METAR SBLP 162100Z 29006KT 9999 FEW030 35/11 Q1010=
0136832880999992013101700004-13267-043417FM-12+044199999V0202301N0015100800199002000199+03191+01621100721ADDAA101999990AZ101061AZ201061GA1051+008001081GE19MSL   +99999+99999GF105991051990008001991991MA1999990095951MD1909990-0241REMSYN004BUFR
0072832880999992013101709154-13262-043408FM-16+044399999V0209999C000019999999Y999999999+02501+01701999999ADDMA1101401999990REMMET045SPECI SBLP 170915Z 00000KT CAVOK 25/17 Q1014=
0072832880999992013101710004-13262-043408FM-15+044399999V0209999C000019999999Y999999999+02601+01701999999ADDMA1101401999990REMMET045METAR SBLP 171000Z 00000KT CAVOK 26/17 Q1014=
0072832880999992013101711004-13262-043408FM-15+044399999V0209999C000019999999Y999999999+02801+01801999999ADDMA1101501999990REMMET045METAR SBLP 171100Z 00000KT CAVOK 28/18 Q1015=
0149832880999992013101712004-13267-043417FM-12+044199999V0200901N0010199999999020000199+02971+02031101081ADDAA101999990AZ101061AZ201061GA1991+025001021GE19MSL   +99999+99999GF103991990990025001991991KA1120N+02441MA1999990096311MD1909990-0211REMSYN004BUFR
0072832880999992013101712004-13262-043408FM-15+044399999V0201301N003119999999Y999999999+03001+01601999999ADDMA1101501999990REMMET045METAR SBLP 171200Z 13006KT CAVOK 30/16 Q1015=
0072832880999992013101713004-13262-043408FM-15+044399999V0200901N003619999999Y999999999+03301+01601999999ADDMA1101401999990REMMET045METAR SBLP 171300Z 09007KT CAVOK 33/16 Q1014=
0142832880999992013101714004-13262-043408FM-15+044399999V0202201N003119999999N009999199+03501+01401999999ADDGA1021+009141991GE19MSL   +99999+99999GF199999021990009141991991MA1101301999990REMMET051METAR SBLP 171400Z 22006KT 9999 FEW030 35/14 Q1013=
0142832880999992013101715004-13262-043408FM-15+044399999V0209999C000019999999N009999199+03601+01501999999ADDGA1021+009141991GE19MSL   +99999+99999GF199999021990009141991991MA1101201999990REMMET051METAR SBLP 171500Z 00000KT 9999 FEW030 36/15 Q1012=
0142832880999992013101716004-13262-043408FM-15+044399999V0201201N003119999999N009999199+03701+01401999999ADDGA1041+009141991GE19MSL   +99999+99999GF199999041990009141991991MA1101101999990REMMET051METAR SBLP 171600Z 12006KT 9999 SCT030 37/14 Q1011=
0142832880999992013101717004-13262-043408FM-15+044399999V0200701N002619999999N009999199+03801+01401999999ADDGA1041+009141991GE19MSL   +99999+99999GF199999041990009141991991MA1101001999990REMMET051METAR SBLP 171700Z 07005KT 9999 SCT030 38/14 Q1010=
0171832880999992013101718004-13267-043417FM-12+044199999V0202301N0010199999999020000199+03791+99999100481ADDAA101999990AZ101061AZ201061GA1031+008001081GA2991+999991021GE19MSL   +99999+99999GF104991031990008001991991MA1999990095751MD1909990-0101REMSYN004BUFREQDQ0123.2  3ATOD  
0142832880999992013101718004-13262-043408FM-15+044399999V0203201N003119999999N009999199+03801+01501999999ADDGA1041+009141991GE19MSL   +99999+99999GF199999041990009141991991MA1100901999990REMMET051METAR SBLP 171800Z 32006KT 9999 SCT030 38/15 Q1009=
0142832880999992013101719004-13262-043408FM-15+044399999V0209999C000019999999N009999199+03801+01401999999ADDGA1041+009141991GE19MSL   +99999+99999GF199999041990009141991991MA1100801999990REMMET051METAR SBLP 171900Z 00000KT 9999 SCT030 38/14 Q1008=
0096832880999992013101720004-13262-043408FM-15+044399999V0209999N999999999999N011265199+03801+01501999999ADDMA1100801999990REMMET050METAR SBLP 172000Z 0000KT 9999 FEW030 38/15 Q1008=EQDD01      0ADE693
0165832880999992013101721004-13262-043408FM-15+044399999V0209999C00001030481CN009999199+03601+01301999999ADDGA1021+009141991GA2041+030481991GE19MSL   +99999+99999GF199999021990009141991991MA1100901999990REMMET058METAR SBLP 172100Z 00000KT 9999 FEW030 SCT100 36/13 Q1009=
0168832880999992013101800004-13267-043417FM-12+044199999V0201801N0010100800199002000199+03101+01941100911ADDAA101999990AZ101061AZ201061GA1081+008001061GA2991+999991101GA3991+999991101GE19MSL   +99999+99999GF108991081990008001991991MA1999990096141MD1909990+0191REMSYN004BUFR
0165832880999992013101809154-13262-043408FM-16+044399999V0209999C000010304819N009999199+02501+02201999999ADDGA1021+009141991GA2071+030481991GE19MSL   +99999+99999GF199999021990009141991991MA1101201999990REMMET058SPECI SBLP 180915Z 00000KT 9999 FEW030 BKN100 25/22 Q1012=
0165832880999992013101810004-13262-043408FM-15+044399999V0209999C000010304819N009999199+02501+02101999999ADDGA1021+009141991GA2071+030481991GE19MSL   +99999+99999GF199999021990009141991991MA1101301999990REMMET058METAR SBLP 181000Z 00000KT 9999 FEW030 BKN100 25/21 Q1013=
0165832880999992013101811004-13262-043408FM-15+044399999V0209999C00001030481CN009999199+02701+01901999999ADDGA1021+009141991GA2041+030481991GE19MSL   +99999+99999GF199999021990009141991991MA1101401999990REMMET058METAR SBLP 181100Z 00000KT 9999 FEW030 SCT100 27/19 Q1014=
0149832880999992013101812004-13267-043417FM-12+044199999V0201401N0015199999999020000199+02741+02051101041ADDAA124002031AZ101061AZ201061GA1991+025001011GE19MSL   +99999+99999GF106991990990025001991991KA1120N+02431MA1999990096241MD1909990-0071REMSYN004BUFR
0165832880999992013101812004-13262-043408FM-15+044399999V0209999C00001030481CN009999199+02901+01901999999ADDGA1021+009141991GA2041+030481991GE19MSL   +99999+99999GF199999021990009141991991MA1101401999990REMMET058METAR SBLP 181200Z 00000KT 9999 FEW030 SCT100 29/19 Q1014=
0165832880999992013101813004-13262-043408FM-15+044399999V0209999C00001030481CN009999199+03101+01801999999ADDGA1021+009141991GA2041+030481991GE19MSL   +99999+99999GF199999021990009141991991MA1101401999990REMMET058METAR SBLP 181300Z 00000KT 9999 FEW030 SCT100 31/18 Q1014=
0142832880999992013101814004-13262-043408FM-15+044399999V0209999C000019999999N009999199+03201+01801999999ADDGA1021+009141991GE19MSL   +99999+99999GF199999021990009141991991MA1101401999990REMMET051METAR SBLP 181400Z 00000KT 9999 FEW030 32/18 Q1014=
0142832880999992013101815004-13262-043408FM-15+044399999V0200701N002119999999N009999199+03301+01801999999ADDGA1021+009141991GE19MSL   +99999+99999GF199999021990009141991991MA1101301999990REMMET051METAR SBLP 181500Z 07004KT 9999 FEW030 33/18 Q1013=
0165832880999992013101816004-13262-043408FM-15+044399999V0203101N003110304819N009999199+03501+01901999999ADDGA1041+009141991GA2071+030481991GE19MSL   +99999+99999GF199999041990009141991991MA1101101999990REMMET058METAR SBLP 181600Z 31006KT 9999 SCT030 BKN100 35/19 Q1011=
0165832880999992013101817004-13262-043408FM-15+044399999V0203301N00461030481CN009999199+03401+02001999999ADDGA1041+009141991GA2041+030481991GE19MSL   +99999+99999GF199999041990009141991991MA1101001999990REMMET058METAR SBLP 181700Z 33009KT 9999 SCT030 SCT100 34/20 Q1010=
0174832880999992013101818004-13267-043417FM-12+044199999V0203601N0041100800199020000199+02701+02061100801ADDAA101999990AY131061AZ101999GA1051+008001061GA2991+999991021GA3991+999991051GE19MSL   +99999+99999GF108991051990008001991991MA1999990095941MD1909990+0191MW1961REMSYN004BUFR
0188832880999992013101818004-13262-043408FM-15+044399999V0201701N00511009141CN008000199+02901+01901999999ADDGA1021+006101991GA2041+009141991GA3071+030481991GE19MSL   +99999+99999GF199999021990006101991991MA1101201999990REMMET065METAR SBLP 181800Z 17010KT 8000 FEW020 SCT030 BKN100 29/19 Q1012=
0229832880999992013101818104-13262-043408FM-16+044399999V0203101N00411009141CN005000199+02301+02001999999ADDGA1041+006101991GA2041+009141991GA3021+012191091GA4071+030481991GE19MSL   +99999+99999GF199999041990006101991991MA1101301999990MW1951REMMET084SPECI SBLP 181810Z 31008KT 5000 TSRA SCT020 SCT030 FEW040CB BKN100      23/20 Q1013=
0207832880999992013101819004-13262-043408FM-15+044399999V0202701N003110304819N006000199+02201+02101999999ADDGA1041+009141991GA2021+012191091GA3081+030481991GE19MSL   +99999+99999GF199999041990009141991991MA1101201999990MW1951REMMET078METAR SBLP 181900Z 27006KT 6000 -TSRA SCT030 FEW040CB OVC100 22/21      Q1012=
0207832880999992013101820004-13262-043408FM-15+044399999V0202501N002110304819N008000199+02201+02101999999ADDGA1041+009141991GA2021+012191091GA3081+030481991GE19MSL   +99999+99999GF199999041990009141991991MA1101301999990MW1951REMMET078METAR SBLP 182000Z 25004KT 8000 -TSRA SCT030 FEW040CB OVC100 22/21      Q1013=
0175832880999992013101821004-13262-043408FM-15+044399999V0209999C000010283519N008000199+02201+02101999999ADDGA1041+008231991GA2081+028351991GE19MSL   +99999+99999GF199999041990008231991991MA1101401999990MW1611REMMET062METAR SBLP 182100Z 00000KT 8000 -RA SCT027 OVC093 22/21 Q1014=
0142832880999992013101900004-13267-043417FM-12+044199999V0200501N0015199999999002000199+02171+02101101171ADDAA106044031AY191061AY261061GA1991+025001021GE19MSL   +99999+99999GF107991990990025001991991MA1999990096271MD1909990+0131MW1021REMSYN004BUFR
0165832880999992013101909154-13262-043408FM-16+044399999V0209999C000010304819N009999199+02301+02201999999ADDGA1021+003051991GA2071+030481991GE19MSL   +99999+99999GF199999021990003051991991MA1101301999990REMMET058SPECI SBLP 190915Z 00000KT 9999 FEW010 BKN100 23/22 Q1013=
0165832880999992013101910004-13262-043408FM-15+044399999V0209999C000010304819N009999199+02401+02201999999ADDGA1021+004571991GA2071+030481991GE19MSL   +99999+99999GF199999021990004571991991MA1101401999990REMMET058METAR SBLP 191000Z 00000KT 9999 FEW015 BKN100 24/22 Q1014=
0165832880999992013101911004-13262-043408FM-15+044399999V0209999C00001030481CN009999199+02601+02201999999ADDGA1021+006101991GA2041+030481991GE19MSL   +99999+99999GF199999021990006101991991MA1101401999990REMMET058METAR SBLP 191100Z 00000KT 9999 FEW020 SCT100 26/22 Q1014=
0155832880999992013101912004-13267-043417FM-12+044199999V0202301N0010199999999020000199+02621+02171101301ADDAA124044031AY161061AY221061GA1041+012501031GE19MSL   +99999+99999GF104991041990012501991991KA1120N+02151MA1999990096381MD1909990+0141MW1011REMSYN004BUFR
0142832880999992013101912004-13262-043408FM-15+044399999V0209999C000019999999N009999199+02801+02201999999ADDGA1021+006101991GE19MSL   +99999+99999GF199999021990006101991991MA1101501999990REMMET051METAR SBLP 191200Z 00000KT 9999 FEW020 28/22 Q1015=
0165832880999992013101913004-13262-043408FM-15+044399999V0209999C000010304819N009999199+02901+02101999999ADDGA1041+004571991GA2071+030481991GE19MSL   +99999+99999GF199999041990004571991991MA1101501999990REMMET058METAR SBLP 191300Z 00000KT 9999 SCT015 BKN100 29/21 Q1015=
0165832880999992013101914004-13262-043408FM-15+044399999V0209999C000010304819N009999199+03001+02001999999ADDGA1041+004571991GA2071+030481991GE19MSL   +99999+99999GF199999041990004571991991MA1101501999990REMMET058METAR SBLP 191400Z 00000KT 9999 SCT015 BKN100 30/20 Q1015=
0165832880999992013101915004-13262-043408FM-15+044399999V0209999C000010304819N009999199+03101+02101999999ADDGA1041+006101991GA2071+030481991GE19MSL   +99999+99999GF199999041990006101991991MA1101401999990REMMET058METAR SBLP 191500Z 00000KT 9999 SCT020 BKN100 31/21 Q1014=
0165832880999992013101916004-13262-043408FM-15+044399999V0209999C00001030481CN009999199+03201+01901999999ADDGA1021+009141991GA2041+030481991GE19MSL   +99999+99999GF199999021990009141991991MA1101201999990REMMET058METAR SBLP 191600Z 00000KT 9999 FEW030 SCT100 32/19 Q1012=
0165832880999992013101917004-13262-043408FM-15+044399999V0201801N00311030481CN009999199+03201+02101999999ADDGA1041+009141991GA2041+030481991GE19MSL   +99999+99999GF199999041990009141991991MA1101101999990REMMET058METAR SBLP 191700Z 18006KT 9999 SCT030 SCT100 32/21 Q1011=
0136832880999992013101918004-13267-043417FM-12+044199999V0202301N0015100800199020000199+02991+02341100911ADDAA101999990AZ101061AZ201061GA1071+008001061GE19MSL   +99999+99999GF107991071990008001991991MA1999990096031MD1909990+0091REMSYN004BUFR
0165832880999992013101918004-13262-043408FM-15+044399999V0201801N00211030481CN009999199+03001+02101999999ADDGA1041+009141991GA2041+030481991GE19MSL   +99999+99999GF199999041990009141991991MA1101101999990REMMET058METAR SBLP 191800Z 18004KT 9999 SCT030 SCT100 30/21 Q1011=
0165832880999992013101919004-13262-043408FM-15+044399999V0200301N003110304819N009999199+03001+02101999999ADDGA1021+009141991GA2071+030481991GE19MSL   +99999+99999GF199999021990009141991991MA1101001999990REMMET058METAR SBLP 191900Z 03006KT 9999 FEW030 BKN100 30/21 Q1010=
0165832880999992013101920004-13262-043408FM-15+044399999V0200501N003110304819N009999199+02801+02201999999ADDGA1021+009141991GA2071+030481991GE19MSL   +99999+99999GF199999021990009141991991MA1101001999990REMMET058METAR SBLP 192000Z 05006KT 9999 FEW030 BKN100 28/22 Q1010=
0165832880999992013101921004-13262-043408FM-15+044399999V0200601N002110304819N009999199+02701+02201999999ADDGA1041+009141991GA2071+030481991GE19MSL   +99999+99999GF199999041990009141991991MA1101101999990REMMET058METAR SBLP 192100Z 06004KT 9999 SCT030 BKN100 27/22 Q1011=
0198832880999992013102009154-13262-043408FM-16+044399999V0203301N00311006101CN007000199+02001+01901999999ADDGA1021+002131991GA2041+006101991GA3081+027431991GE19MSL   +99999+99999GF199999021990002131991991MA1101601999990MW1611REMMET069SPECI SBLP 200915Z 33006KT 7000 -RA FEW007 SCT020 OVC090 20/19 Q1016=
0188832880999992013102010004-13262-043408FM-15+044399999V0201601N00311006101CN009999199+02001+01901999999ADDGA1021+002131991GA2041+006101991GA3081+027431991GE19MSL   +99999+99999GF199999021990002131991991MA1101701999990REMMET065METAR SBLP 201000Z 16006KT 9999 FEW007 SCT020 OVC090 20/19 Q1017=
0188832880999992013102011004-13262-043408FM-15+044399999V0201701N00311006101CN009999199+02101+02001999999ADDGA1021+002131991GA2041+006101991GA3081+027431991GE19MSL   +99999+99999GF199999021990002131991991MA1101801999990REMMET065METAR SBLP 201100Z 17006KT 9999 FEW007 SCT020 OVC090 21/20 Q1018=
0187832880999992013102012004-13267-043417FM-12+044199999V0203601N0000199999999004000199+02091+02021101611ADDAA124020031AY161061AY221061GA1041+008001071GA2991+999991101GA3991+999991051GE19MSL   +99999+99999GF108991041990008001991991KA1120N+01981MA1999990096671MD1909990+0291MW1631REMSYN004BUFR
0198832880999992013102012004-13262-043408FM-15+044399999V0200301N001510061019N006000199+02101+02001999999ADDGA1021+002131991GA2071+006101991GA3081+027431991GE19MSL   +99999+99999GF199999021990002131991991MA1101901999990MW1611REMMET069METAR SBLP 201200Z 03003KT 6000 -RA FEW007 BKN020 OVC090 21/20 Q1019=
0197832880999992013102013004-13262-043408FM-15+044399999V0200301N002610045719N005000199+02101+02101999999ADDGA1021+000911991GA2071+004571991GA3081+021341991GE19MSL   +99999+99999GF199999021990000911991991MA1101901999990MW1631REMMET068METAR SBLP 201300Z 03005KT 5000 RA FEW003 BKN015 OVC070 21/21 Q1019=
0208832880999992013102014004-13262-043408FM-15+044399999V0200301N002110045719N007000199+02201+02101999999ADDGA1021+000911991GA2071+004571991GA3081+021341991GE19MSL   +99999+99999GF199999021990000911991991MA1101901999990MW1611REMMET079METAR SBLP 201400Z 03004KT 7000 -RA FEW003 BKN015 OVC070 22/21 Q1019      RERA=
0198832880999992013102015004-13262-043408FM-15+044399999V0200601N003110045719N007000199+02301+02201999999ADDGA1021+000911991GA2071+004571991GA3081+021341991GE19MSL   +99999+99999GF199999021990000911991991MA1101801999990MW1611REMMET069METAR SBLP 201500Z 06006KT 7000 -RA FEW003 BKN015 OVC070 23/22 Q1018=
0198832880999992013102016004-13262-043408FM-15+044399999V0201801N003110045719N009999199+02301+02201999999ADDGA1021+000911991GA2071+004571991GA3081+021341991GE19MSL   +99999+99999GF199999021990000911991991MA1101701999990MW1611REMMET069METAR SBLP 201600Z 18006KT 9999 -RA FEW003 BKN015 OVC070 23/22 Q1017=
0198832880999992013102017004-13262-043408FM-15+044399999V0202001N002110061019N009999199+02301+02201999999ADDGA1021+002131991GA2071+006101991GA3081+021341991GE19MSL   +99999+99999GF199999021990002131991991MA1101601999990MW1611REMMET069METAR SBLP 201700Z 20004KT 9999 -RA FEW007 BKN020 OVC070 23/22 Q1016=
0174832880999992013102018004-13267-043417FM-12+044199999V0200901N0010199999999020000199+02221+02151101381ADDAA106010031AY161061AY251061GA1041+008001071GA2991+999991101GA3991+999991041GE19MSL   +99999+99999GF108991041990008001991991MA1999990096401MD1909990+0371MW1511REMSYN004BUFR
0198832880999992013102018004-13262-043408FM-15+044399999V0202001N00151006101CN009999199+02301+02201999999ADDGA1021+002131991GA2041+006101991GA3081+021341991GE19MSL   +99999+99999GF199999021990002131991991MA1101601999990MW1611REMMET069METAR SBLP 201800Z 20003KT 9999 -RA FEW007 SCT020 OVC070 23/22 Q1016=
0198832880999992013102019004-13262-043408FM-15+044399999V0202101N00211006101CN009999199+02301+02101999999ADDGA1021+002131991GA2041+006101991GA3081+021341991GE19MSL   +99999+99999GF199999021990002131991991MA1101501999990MW1611REMMET069METAR SBLP 201900Z 21004KT 9999 -RA FEW007 SCT020 OVC070 23/21 Q1015=
0165832880999992013102020004-13262-043408FM-15+044399999V0202701N002110304819N009999199+02301+02201999999ADDGA1041+006101991GA2071+030481991GE19MSL   +99999+99999GF199999041990006101991991MA1101601999990REMMET058METAR SBLP 202000Z 27004KT 9999 SCT020 BKN100 23/22 Q1016=
0165832880999992013102021004-13262-043408FM-15+044399999V0202301N002110304819N009999199+02201+02001999999ADDGA1021+006101991GA2071+030481991GE19MSL   +99999+99999GF199999021990006101991991MA1101501999990REMMET058METAR SBLP 202100Z 23004KT 9999 FEW020 BKN100 22/20 Q1015=
0071832880999992013102109154-13262-043408FM-16+044399999V0209999C000019999999N008000199+02101+02101999999ADDMA1101601999990REMMET044SPECI SBLP 210915Z 00000KT 8000 21/21 Q1016=
0071832880999992013102110004-13262-043408FM-15+044399999V0209999C000019999999N009000199+02301+02101999999ADDMA1101701999990REMMET044METAR SBLP 211000Z 00000KT 9000 23/21 Q1017=
0072832880999992013102111004-13262-043408FM-15+044399999V0209999C000019999999Y999999999+02601+02101999999ADDMA1101701999990REMMET045METAR SBLP 211100Z 00000KT CAVOK 26/21 Q1017=
0149832880999992013102112004-13267-043417FM-12+044199999V0203601N0000199999999020000199+02521+02211101441ADDAA124010031AZ101061AZ201061GA1991+025001001GE19MSL   +99999+99999GF105991990990025001991991KA1120N+02051MA1999990096511MD1909990-0161REMSYN004BUFR
0165832880999992013102112004-13262-043408FM-15+044399999V0209999C00001030481CN009999199+02801+02101999999ADDGA1021+009141991GA2041+030481991GE19MSL   +99999+99999GF199999021990009141991991MA1101701999990REMMET058METAR SBLP 211200Z 00000KT 9999 FEW030 SCT100 28/21 Q1017=
0142832880999992013102113004-13262-043408FM-15+044399999V0201301N002119999999N009999199+03001+02101999999ADDGA1021+009141991GE19MSL   +99999+99999GF199999021990009141991991MA1101701999990REMMET051METAR SBLP 211300Z 13004KT 9999 FEW030 30/21 Q1017=
0142832880999992013102114004-13262-043408FM-15+044399999V0202901N002119999999N009999199+03001+02101999999ADDGA1021+009141991GE19MSL   +99999+99999GF199999021990009141991991MA1101601999990REMMET051METAR SBLP 211400Z 29004KT 9999 FEW030 30/21 Q1016=
0142832880999992013102115004-13262-043408FM-15+044399999V0203001N002119999999N009999199+03101+02201999999ADDGA1041+009141991GE19MSL   +99999+99999GF199999041990009141991991MA1101501999990REMMET051METAR SBLP 211500Z 30004KT 9999 SCT030 31/22 Q1015=
0142832880999992013102116004-13262-043408FM-15+044399999V0203301N001519999999N009999199+03201+02101999999ADDGA1041+009141991GE19MSL   +99999+99999GF199999041990009141991991MA1101301999990REMMET051METAR SBLP 211600Z 33003KT 9999 SCT030 32/21 Q1013=
0165832880999992013102117004-13262-043408FM-15+044399999V0200301N00211009141CN009999199+03401+02101999999ADDGA1021+006101991GA2041+009141991GE19MSL   +99999+99999GF199999021990006101991991MA1101201999990REMMET058METAR SBLP 211700Z 03004KT 9999 FEW020 SCT030 34/21 Q1012=
0152832880999992013102118004-13267-043417FM-12+044199999V0200901N0021199999999020000199+02841+02121100961ADDAA101999990AZ101061AZ201061GA1031+008001081GA2991+999991001GE19MSL   +99999+99999GF106991031990008001991991MA1999990096071MD1909990-0331REMSYN004BUFR
0199832880999992013102118004-13262-043408FM-15+044399999V0201401N00211009141CN008000199+02901+02201999999ADDGA1041+006101991GA2041+009141991GA3021+012191091GE19MSL   +99999+99999GF199999041990006101991991MA1101201999990MW1171REMMET070METAR SBLP 211800Z 14004KT 8000 TS SCT020 SCT030 FEW040CB 29/22 Q1012=
0193832880999992013102119004-13262-043408FM-15+044399999V0201801N00621009141CN008000199+02701+02001999999ADDGA1041+006101991GA2041+009141991GA3071+030481991GE19MSL   +99999+99999GF199999041990006101991991MA1101201999990REMMET070METAR SBLP 211900Z 18012KT 8000 SCT020 SCT030 BKN100 27/20 Q1012 RETS=
0171832880999992013102120004-13262-043408FM-15+044399999V0201901N003610304819N009999199+02801+01901999999ADDGA1021+006101991GA2071+030481991GA3041+999991991GE19MSL   +99999+99999GF199999021990006101991991REMMET063METAR SBLP 212000Z 19007KT 9999 FEW020 SCT30 BKN100 28/19 Q012=
0165832880999992013102121004-13262-043408FM-15+044399999V0201701N002610304819N009999199+02601+02001999999ADDGA1021+009141991GA2071+030481991GE19MSL   +99999+99999GF199999021990009141991991MA1101301999990REMMET058METAR SBLP 212100Z 17005KT 9999 FEW030 BKN100 26/20 Q1013=
0136832880999992013102200004-13267-043417FM-12+044199999V0203201N0015199999999002000199+02471+02191101201ADDAA101999990AZ101061AZ201061GA1991+025001001GE19MSL   +99999+99999GF104991990990025001991991MA1999990096211MD1909990-0141REMSYN004BUFR
0165832880999992013102209154-13262-043408FM-16+044399999V0209999C000010304819N009999199+02201+02101999999ADDGA1021+006101991GA2071+030481991GE19MSL   +99999+99999GF199999021990006101991991MA1101401999990REMMET058SPECI SBLP 220915Z 00000KT 9999 FEW020 BKN100 22/21 Q1014=
0165832880999992013102210004-13262-043408FM-15+044399999V0209999C00001030481CN009999199+02301+02101999999ADDGA1021+006101991GA2041+030481991GE19MSL   +99999+99999GF199999021990006101991991MA1101501999990REMMET058METAR SBLP 221000Z 00000KT 9999 FEW020 SCT100 23/21 Q1015=
0165832880999992013102211004-13262-043408FM-15+044399999V0209999C00001030481CN009999199+02601+02101999999ADDGA1021+006101991GA2041+030481991GE19MSL   +99999+99999GF199999021990006101991991MA1101501999990REMMET058METAR SBLP 221100Z 00000KT 9999 FEW020 SCT100 26/21 Q1015=
0165832880999992013102212004-13267-043417FM-12+044199999V0203601N0000199999999020000199+02691+02151101211ADDAA101999990AZ101061AZ201061GA1041+008001061GA2991+999991031GE19MSL   +99999+99999GF107991041990008001991991KA1120N+02201MA1999990096341MD1909990-0171REMSYN004BUFR
0165832880999992013102212004-13262-043408FM-15+044399999V0209999C00001030481CN009999199+02801+02101999999ADDGA1021+006101991GA2041+030481991GE19MSL   +99999+99999GF199999021990006101991991MA1101601999990REMMET058METAR SBLP 221200Z 00000KT 9999 FEW020 SCT100 28/21 Q1016=
0165832880999992013102213004-13262-043408FM-15+044399999V0201801N00311030481CN009999199+03001+02001999999ADDGA1021+009141991GA2041+030481991GE19MSL   +99999+99999GF199999021990009141991991MA1101501999990REMMET058METAR SBLP 221300Z 18006KT 9999 FEW030 SCT100 30/20 Q1015=
0165832880999992013102214004-13262-043408FM-15+044399999V0201401N00211030481CN009999199+03201+01801999999ADDGA1021+009141991GA2041+030481991GE19MSL   +99999+99999GF199999021990009141991991MA1101501999990REMMET058METAR SBLP 221400Z 14004KT 9999 FEW030 SCT100 32/18 Q1015=
0165832880999992013102215004-13262-043408FM-15+044399999V0201901N00411030481CN009999199+03401+02001999999ADDGA1041+009141991GA2041+030481991GE19MSL   +99999+99999GF199999041990009141991991MA1101401999990REMMET058METAR SBLP 221500Z 19008KT 9999 SCT030 SCT100 34/20 Q1014=
0142832880999992013102216004-13262-043408FM-15+044399999V0202101N003119999999N009999199+03301+01801999999ADDGA1041+009141991GE19MSL   +99999+99999GF199999041990009141991991MA1101301999990REMMET051METAR SBLP 221600Z 21006KT 9999 SCT030 33/18 Q1013=
0176832880999992013102217004-13262-043408FM-15+044399999V0202001N003119999999N009999199+03301+01801999999ADDGA1041+009141991GA2021+012191091GE19MSL   +99999+99999GF199999041990009141991991MA1101101999990MW1171REMMET063METAR SBLP 221700Z 20006KT 9999 TS SCT030 FEW040CB 33/18 Q1011=
0152832880999992013102218004-13267-043417FM-12+044199999V0201801N0026199999999020000199+03051+02081100781ADDAA101999990AZ101061AZ201061GA1041+008001061GA2991+999991051GE19MSL   +99999+99999GF107991041990008001991991MA1999990095921MD1909990-0151REMSYN004BUFR
0142832880999992013102218004-13262-043408FM-15+044399999V0202701N003119999999N009999199+03101+01801999999ADDGA1041+009141991GE19MSL   +99999+99999GF199999041990009141991991MA1101101999990REMMET051METAR SBLP 221800Z 27006KT 9999 SCT030 31/18 Q1011=
0142832880999992013102219004-13262-043408FM-15+044399999V0202101N002119999999N009999199+03301+01701999999ADDGA1021+009141991GE19MSL   +99999+99999GF199999021990009141991991MA1101001999990REMMET051METAR SBLP 221900Z 21004KT 9999 FEW030 33/17 Q1010=
0142832880999992013102220004-13262-043408FM-15+044399999V0202701N003119999999N009999199+03301+01701999999ADDGA1021+009141991GE19MSL   +99999+99999GF199999021990009141991991MA1101001999990REMMET051METAR SBLP 222000Z 27006KT 9999 FEW030 33/17 Q1010=
0142832880999992013102221004-13262-043408FM-15+044399999V0200701N001019999999N009999199+03001+01901999999ADDGA1021+009141991GE19MSL   +99999+99999GF199999021990009141991991MA1101101999990REMMET051METAR SBLP 222100Z 07002KT 9999 FEW030 30/19 Q1011=
0098832880999992013102300004-13267-043417FM-12+044199999V0201401N0015122000199002000199+02701+01881100951ADDAA101999990AZ101061AZ201061GF100991999999999999999999MA1999990096111MD1909990-0201REMSYN004BUFR
0072832880999992013102309154-13262-043408FM-16+044399999V0202701N001519999999Y999999999+02101+01701999999ADDMA1101501999990REMMET045SPECI SBLP 230915Z 27003KT CAVOK 21/17 Q1015=
0072832880999992013102310004-13262-043408FM-15+044399999V0202101N001519999999Y999999999+02501+01701999999ADDMA1101601999990REMMET045METAR SBLP 231000Z 21003KT CAVOK 25/17 Q1016=
0072832880999992013102311004-13262-043408FM-15+044399999V0201801N004119999999Y999999999+02701+01601999999ADDMA1101601999990REMMET045METAR SBLP 231100Z 18008KT CAVOK 27/16 Q1016=
0165832880999992013102312004-13267-043417FM-12+044199999V0200501N0015199999999020000199+02791+01801101321ADDAA101999990AZ101061AZ201061GA1011+012501031GA2991+999991021GE19MSL   +99999+99999GF102991011990012501991991KA1120N+02121MA1999990096471MD1909990+0131REMSYN004BUFR
0072832880999992013102312004-13262-043408FM-15+044399999V0201801N003119999999Y999999999+02901+01501999999ADDMA1101701999990REMMET045METAR SBLP 231200Z 18006KT CAVOK 29/15 Q1017=
0072832880999992013102313004-13262-043408FM-15+044399999V0202101N003119999999Y999999999+03101+01501999999ADDMA1101601999990REMMET045METAR SBLP 231300Z 21006KT CAVOK 31/15 Q1016=
0142832880999992013102314004-13262-043408FM-15+044399999V0202101N003119999999N009999199+03201+01301999999ADDGA1021+009141991GE19MSL   +99999+99999GF199999021990009141991991MA1101601999990REMMET051METAR SBLP 231400Z 21006KT 9999 FEW030 32/13 Q1016=
0142832880999992013102315004-13262-043408FM-15+044399999V0202101N002119999999N009999199+03301+01401999999ADDGA1021+009141991GE19MSL   +99999+99999GF199999021990009141991991MA1101501999990REMMET051METAR SBLP 231500Z 21004KT 9999 FEW030 33/14 Q1015=
0142832880999992013102316004-13262-043408FM-15+044399999V0200901N002619999999N009999199+03401+01701999999ADDGA1021+009141991GE19MSL   +99999+99999GF199999021990009141991991MA1101301999990REMMET051METAR SBLP 231600Z 09005KT 9999 FEW030 34/17 Q1013=
0142832880999992013102317004-13262-043408FM-15+044399999V0209999C000019999999N009999199+03501+01601999999ADDGA1021+009141991GE19MSL   +99999+99999GF199999021990009141991991MA1101201999990REMMET051METAR SBLP 231700Z 00000KT 9999 FEW030 35/16 Q1012=
0152832880999992013102318004-13267-043417FM-12+044199999V0201801N0005199999999020000199+03351+01731100831ADDAA101999990AZ101061AZ201061GA1021+008001081GA2991+999991021GE19MSL   +99999+99999GF104991021990008001991991MA1999990096001MD1909990+0081REMSYN004BUFR
0142832880999992013102318004-13262-043408FM-15+044399999V0201601N001519999999N009999199+03501+01301999999ADDGA1021+009141991GE19MSL   +99999+99999GF199999021990009141991991MA1101201999990REMMET051METAR SBLP 231800Z 16003KT 9999 FEW030 35/13 Q1012=
0142832880999992013102319004-13262-043408FM-15+044399999V0201801N002619999999N009999199+03601+01101999999ADDGA1021+009141991GE19MSL   +99999+99999GF199999021990009141991991MA1101201999990REMMET051METAR SBLP 231900Z 18005KT 9999 FEW030 36/11 Q1012=
0142832880999992013102320004-13262-043408FM-15+044399999V0201701N002619999999N009999199+03501+01401999999ADDGA1021+009141991GE19MSL   +99999+99999GF199999021990009141991991MA1101201999990REMMET051METAR SBLP 232000Z 17005KT 9999 FEW030 35/14 Q1012=
0165832880999992013102321004-13262-043408FM-15+044399999V0201001N00261030481CN009999199+03301+01701999999ADDGA1021+009141991GA2041+030481991GE19MSL   +99999+99999GF199999021990009141991991MA1101201999990REMMET058METAR SBLP 232100Z 10005KT 9999 FEW030 SCT100 33/17 Q1012=
0098832880999992013102400004-13267-043417FM-12+044199999V0200901N0010122000199002000199+02821+01901101081ADDAA101999990AZ101061AZ201061GF100991999999999999999999MA1999990096251MD1909990+0141REMSYN004BUFR
0072832880999992013102409154-13262-043408FM-16+044399999V0209999C000019999999Y999999999+02201+01801999999ADDMA1101601999990REMMET045SPECI SBLP 240915Z 00000KT CAVOK 22/18 Q1016=
0072832880999992013102410004-13262-043408FM-15+044399999V0209999C000019999999Y999999999+02401+01601999999ADDMA1101701999990REMMET045METAR SBLP 241000Z 00000KT CAVOK 24/16 Q1017=
0072832880999992013102411004-13262-043408FM-15+044399999V0201601N004119999999Y999999999+02701+01601999999ADDMA1101801999990REMMET045METAR SBLP 241100Z 16008KT CAVOK 27/16 Q1018=
0111832880999992013102412004-13267-043417FM-12+044199999V0200501N0021122000199020000199+02721+01711101391ADDAA101999990AZ101061AZ201061GF100991999999999999999999KA1120N+02211MA1999990096551MD1909990+0081REMSYN004BUFR
0072832880999992013102412004-13262-043408FM-15+044399999V0201701N003619999999Y999999999+02901+01501999999ADDMA1101801999990REMMET045METAR SBLP 241200Z 17007KT CAVOK 29/15 Q1018=
0072832880999992013102413004-13262-043408FM-15+044399999V0201701N003619999999Y999999999+03001+01601999999ADDMA1101701999990REMMET045METAR SBLP 241300Z 17007KT CAVOK 30/16 Q1017=
0072832880999992013102414004-13262-043408FM-15+044399999V0201901N002619999999Y999999999+03301+01601999999ADDMA1101701999990REMMET045METAR SBLP 241400Z 19005KT CAVOK 33/16 Q1017=
0142832880999992013102415004-13262-043408FM-15+044399999V0201701N003119999999N009999199+03401+01601999999ADDGA1021+009141991GE19MSL   +99999+99999GF199999021990009141991991MA1101501999990REMMET051METAR SBLP 241500Z 17006KT 9999 FEW030 34/16 Q1015=
0142832880999992013102416004-13262-043408FM-15+044399999V0202101N001519999999N009999199+03501+01301999999ADDGA1021+009141991GE19MSL   +99999+99999GF199999021990009141991991MA1101401999990REMMET051METAR SBLP 241600Z 21003KT 9999 FEW030 35/13 Q1014=
0142832880999992013102417004-13262-043408FM-15+044399999V0201901N004119999999N009999199+03601+01101999999ADDGA1021+009141991GE19MSL   +99999+99999GF199999021990009141991991MA1101301999990REMMET051METAR SBLP 241700Z 19008KT 9999 FEW030 36/11 Q1013=
0117832880999992013102418004-13267-043417FM-12+044199999V0202701N0015122000199020000199+03541+99999100831ADDAA101999990AZ101061AZ201061GF100991999999999999999999MA1999990096041MD1909990+0041REMSYN004BUFREQDQ0120.5  3ATOD  
0142832880999992013102418004-13262-043408FM-15+044399999V0201801N001519999999N009999199+03601+01101999999ADDGA1021+009141991GE19MSL   +99999+99999GF199999021990009141991991MA1101201999990REMMET051METAR SBLP 241800Z 18003KT 9999 FEW030 36/11 Q1012=
0142832880999992013102419004-13262-043408FM-15+044399999V0200801N001519999999N009999199+03501+01101999999ADDGA1021+009141991GE19MSL   +99999+99999GF199999021990009141991991MA1101201999990REMMET051METAR SBLP 241900Z 08003KT 9999 FEW030 35/11 Q1012=
0142832880999992013102420004-13262-043408FM-15+044399999V0202301N002619999999N009999199+03601+01001999999ADDGA1021+009141991GE19MSL   +99999+99999GF199999021990009141991991MA1101201999990REMMET051METAR SBLP 242000Z 23005KT 9999 FEW030 36/10 Q1012=
0142832880999992013102421004-13262-043408FM-15+044399999V0202101N003619999999N009999199+03401+01201999999ADDGA1041+009141991GE19MSL   +99999+99999GF199999041990009141991991MA1101301999990REMMET051METAR SBLP 242100Z 21007KT 9999 SCT030 34/12 Q1013=
0098832880999992013102500004-13267-043417FM-12+044199999V0201401N0015122000199002000199+02891+01371101141ADDAA101999990AZ101061AZ201061GF100991999999999999999999MA1999990096311MD1909990+0061REMSYN004BUFR
0072832880999992013102509154-13262-043408FM-16+044399999V0209999C000019999999Y999999999+02201+01501999999ADDMA1101601999990REMMET045SPECI SBLP 250915Z 00000KT CAVOK 22/15 Q1016=
0072832880999992013102510004-13262-043408FM-15+044399999V0209999C000019999999Y999999999+02501+01601999999ADDMA1101701999990REMMET045METAR SBLP 251000Z 00000KT CAVOK 25/16 Q1017=
0072832880999992013102511004-13262-043408FM-15+044399999V0201201N003119999999Y999999999+02801+01601999999ADDMA1101801999990REMMET045METAR SBLP 251100Z 12006KT CAVOK 28/16 Q1018=
0111832880999992013102512004-13267-043417FM-12+044199999V0200901N0015122000199020000199+02901+01591101491ADDAA101999990AZ101061AZ201061GF100991999999999999999999KA1120N+02241MA1999990096571MD1909990+0021REMSYN004BUFR
0072832880999992013102512004-13262-043408FM-15+044399999V0201501N002119999999Y999999999+03001+01501999999ADDMA1101801999990REMMET045METAR SBLP 251200Z 15004KT CAVOK 30/15 Q1018=
0072832880999992013102513004-13262-043408FM-15+044399999V0201201N001519999999Y999999999+03101+01501999999ADDMA1101701999990REMMET045METAR SBLP 251300Z 12003KT CAVOK 31/15 Q1017=
0072832880999992013102514004-13262-043408FM-15+044399999V0202001N003119999999Y999999999+03301+01301999999ADDMA1101701999990REMMET045METAR SBLP 251400Z 20006KT CAVOK 33/13 Q1017=
0142832880999992013102515004-13262-043408FM-15+044399999V0202101N002619999999N009999199+03501+01201999999ADDGA1021+009141991GE19MSL   +99999+99999GF199999021990009141991991MA1101501999990REMMET051METAR SBLP 251500Z 21005KT 9999 FEW030 35/12 Q1015=
0142832880999992013102516004-13262-043408FM-15+044399999V0202401N006219999999N009999199+03601+01001999999ADDGA1021+009141991GE19MSL   +99999+99999GF199999021990009141991991MA1101401999990REMMET051METAR SBLP 251600Z 24012KT 9999 FEW030 36/10 Q1014=
0142832880999992013102517004-13262-043408FM-15+044399999V0202301N001519999999N009999199+03701+01001999999ADDGA1021+009141991GE19MSL   +99999+99999GF199999021990009141991991MA1101301999990REMMET051METAR SBLP 251700Z 23003KT 9999 FEW030 37/10 Q1013=
0136832880999992013102518004-13267-043417FM-12+044199999V0202301N0010199999999020000199+03571+01271100851ADDAA101999990AZ101061AZ201061GA1011+008001081GE19MSL   +99999+99999GF101991011990008001991991MA1999990096051MD1909990+0011REMSYN004BUFR
0142832880999992013102518004-13262-043408FM-15+044399999V0202201N005119999999N009999199+03701+00901999999ADDGA1021+009141991GE19MSL   +99999+99999GF199999021990009141991991MA1101201999990REMMET051METAR SBLP 251800Z 22010KT 9999 FEW030 37/09 Q1012=
0142832880999992013102519004-13262-043408FM-15+044399999V0202601N004119999999N009999199+03601+01001999999ADDGA1021+009141991GE19MSL   +99999+99999GF199999021990009141991991MA1101101999990REMMET051METAR SBLP 251900Z 26008KT 9999 FEW030 36/10 Q1011=
0142832880999992013102520004-13262-043408FM-15+044399999V0202501N003119999999N009999199+03601+00901999999ADDGA1021+009141991GE19MSL   +99999+99999GF199999021990009141991991MA1101101999990REMMET051METAR SBLP 252000Z 25006KT 9999 FEW030 36/09 Q1011=
0072832880999992013102521004-13262-043408FM-15+044399999V0202401N002619999999Y999999999+03401+01001999999ADDMA1101101999990REMMET045METAR SBLP 252100Z 24005KT CAVOK 34/10 Q1011=
0098832880999992013102600004-13267-043417FM-12+044199999V0201801N0010122000199002000199+02971+01341100951ADDAA101999990AZ101061AZ201061GF100991999999999999999999MA1999990096161MD1909990-0151REMSYN004BUFR
0072832880999992013102609154-13262-043408FM-16+044399999V0202501N002619999999Y999999999+02201+01601999999ADDMA1101501999990REMMET045SPECI SBLP 260915Z 25005KT CAVOK 22/16 Q1015=
0072832880999992013102610004-13262-043408FM-15+044399999V0202301N004119999999Y999999999+02501+01801999999ADDMA1101501999990REMMET045METAR SBLP 261000Z 23008KT CAVOK 25/18 Q1015=
0072832880999992013102611004-13262-043408FM-15+044399999V0202001N005119999999Y999999999+02801+01701999999ADDMA1101601999990REMMET045METAR SBLP 261100Z 20010KT CAVOK 28/17 Q1016=
0111832880999992013102612004-13267-043417FM-12+044199999V0201401N0015122000199020000199+02841+01801101241ADDAA101999990AZ101061AZ201061GF100991999999999999999999KA1120N+02201MA1999990096431MD1909990-0141REMSYN004BUFR
0072832880999992013102612004-13262-043408FM-15+044399999V0202101N004119999999Y999999999+03001+01501999999ADDMA1101601999990REMMET045METAR SBLP 261200Z 21008KT CAVOK 30/15 Q1016=
0072832880999992013102613004-13262-043408FM-15+044399999V0202201N003119999999Y999999999+03101+01501999999ADDMA1101601999990REMMET045METAR SBLP 261300Z 22006KT CAVOK 31/15 Q1016=
0072832880999992013102614004-13262-043408FM-15+044399999V0202101N001519999999Y999999999+03301+01501999999ADDMA1101501999990REMMET045METAR SBLP 261400Z 21003KT CAVOK 33/15 Q1015=
0072832880999992013102615004-13262-043408FM-15+044399999V0201601N005119999999Y999999999+03401+01201999999ADDMA1101401999990REMMET045METAR SBLP 261500Z 16010KT CAVOK 34/12 Q1014=
0072832880999992013102616004-13262-043408FM-15+044399999V0202501N002619999999Y999999999+03501+01201999999ADDMA1101201999990REMMET045METAR SBLP 261600Z 25005KT CAVOK 35/12 Q1012=
0142832880999992013102617004-13262-043408FM-15+044399999V0201801N002119999999N009999199+03601+01401999999ADDGA1021+009141991GE19MSL   +99999+99999GF199999021990009141991991MA1101101999990REMMET051METAR SBLP 261700Z 18004KT 9999 FEW030 36/14 Q1011=
0136832880999992013102618004-13267-043417FM-12+044199999V0201801N0005199999999020000199+03471+01661100711ADDAA101999990AZ101061AZ201061GA1011+008001081GE19MSL   +99999+99999GF101991011990008001991991MA1999990095911MD1909990-0141REMSYN004BUFR
0142832880999992013102618004-13262-043408FM-15+044399999V0202801N002119999999N009999199+03701+01501999999ADDGA1021+009141991GE19MSL   +99999+99999GF199999021990009141991991MA1101101999990REMMET051METAR SBLP 261800Z 28004KT 9999 FEW030 37/15 Q1011=
0142832880999992013102619004-13262-043408FM-15+044399999V0202301N002119999999N009999199+03601+01501999999ADDGA1021+009141991GE19MSL   +99999+99999GF199999021990009141991991MA1101001999990REMMET051METAR SBLP 261900Z 23004KT 9999 FEW030 36/15 Q1010=
0142832880999992013102620004-13262-043408FM-15+044399999V0201901N002119999999N009999199+03601+01501999999ADDGA1021+009141991GE19MSL   +99999+99999GF199999021990009141991991MA1101001999990REMMET051METAR SBLP 262000Z 19004KT 9999 FEW030 36/15 Q1010=
0142832880999992013102621004-13262-043408FM-15+044399999V0202201N002119999999N009999199+03401+01101999999ADDGA1021+009141991GE19MSL   +99999+99999GF199999021990009141991991MA1101101999990REMMET051METAR SBLP 262100Z 22004KT 9999 FEW030 34/11 Q1011=
0142832880999992013102709154-13262-043408FM-16+044399999V0209999C000019999999N009999199+02101+01501999999ADDGA1021+009141991GE19MSL   +99999+99999GF199999021990009141991991MA1101401999990REMMET051SPECI SBLP 270915Z 00000KT 9999 FEW030 21/15 Q1014=
0072832880999992013102710004-13262-043408FM-15+044399999V0209999C000019999999Y999999999+02301+01501999999ADDMA1101501999990REMMET045METAR SBLP 271000Z 00000KT CAVOK 23/15 Q1015=
0072832880999992013102711004-13262-043408FM-15+044399999V0201801N002119999999Y999999999+02701+01601999999ADDMA1101501999990REMMET045METAR SBLP 271100Z 18004KT CAVOK 27/16 Q1015=
0111832880999992013102712004-13267-043417FM-12+044199999V0201801N0015122000199020000199+02841+02011101161ADDAA101999990AZ101061AZ201061GF100991999999999999999999KA1120N+02131MA1999990096331MD1909990-0131REMSYN004BUFR
0072832880999992013102712004-13262-043408FM-15+044399999V0209999C000019999999Y999999999+03001+01701999999ADDMA1101501999990REMMET045METAR SBLP 271200Z 00000KT CAVOK 30/17 Q1015=
0072832880999992013102713004-13262-043408FM-15+044399999V0202001N001519999999Y999999999+03201+01501999999ADDMA1101401999990REMMET045METAR SBLP 271300Z 20003KT CAVOK 32/15 Q1014=
0072832880999992013102714004-13262-043408FM-15+044399999V0203601N001519999999Y999999999+03301+01601999999ADDMA1101301999990REMMET045METAR SBLP 271400Z 36003KT CAVOK 33/16 Q1013=
0072832880999992013102715004-13262-043408FM-15+044399999V0201601N003119999999Y999999999+03501+01601999999ADDMA1101201999990REMMET045METAR SBLP 271500Z 16006KT CAVOK 35/16 Q1012=
0142832880999992013102716004-13262-043408FM-15+044399999V0202401N003119999999N009999199+03601+01001999999ADDGA1021+009141991GE19MSL   +99999+99999GF199999021990009141991991MA1101101999990REMMET051METAR SBLP 271600Z 24006KT 9999 FEW030 36/10 Q1011=
0142832880999992013102717004-13262-043408FM-15+044399999V0202101N002119999999N009999199+03701+01101999999ADDGA1021+009141991GE19MSL   +99999+99999GF199999021990009141991991MA1100901999990REMMET051METAR SBLP 271700Z 21004KT 9999 FEW030 37/11 Q1009=
0098832880999992013102718004-13267-043417FM-12+044199999V0201801N0021122000199020000199+03641+01441100461ADDAA101999990AZ101061AZ201061GF100991999999999999999999MA1999990095681MD1909990-0231REMSYN004BUFR
0142832880999992013102718004-13262-043408FM-15+044399999V0201801N003119999999N009999199+03701+00901999999ADDGA1021+009141991GE19MSL   +99999+99999GF199999021990009141991991MA1100901999990REMMET051METAR SBLP 271800Z 18006KT 9999 FEW030 37/09 Q1009=
0142832880999992013102719004-13262-043408FM-15+044399999V0201801N003119999999N009999199+03701+00801999999ADDGA1021+009141991GE19MSL   +99999+99999GF199999021990009141991991MA1100801999990REMMET051METAR SBLP 271900Z 18006KT 9999 FEW030 37/08 Q1008=
0142832880999992013102720004-13262-043408FM-15+044399999V0202001N004119999999N009999199+03601+00801999999ADDGA1021+009141991GE19MSL   +99999+99999GF199999021990009141991991MA1100801999990REMMET051METAR SBLP 272000Z 20008KT 9999 FEW030 36/08 Q1008=
0142832880999992013102721004-13262-043408FM-15+044399999V0209999C000019999999N009999199+03401+01101999999ADDGA1021+009141991GE19MSL   +99999+99999GF199999021990009141991991MA1100801999990REMMET051METAR SBLP 272100Z 00000KT 9999 FEW030 34/11 Q1008=
0072832880999992013102809154-13262-043408FM-16+044399999V0209999C000019999999Y999999999+02301+01601999999ADDMA1101201999990REMMET045SPECI SBLP 280915Z 00000KT CAVOK 23/16 Q1012=
0072832880999992013102810004-13262-043408FM-15+044399999V0203601N002619999999Y999999999+02701+01501999999ADDMA1101301999990REMMET045METAR SBLP 281000Z 36005KT CAVOK 27/15 Q1013=
0072832880999992013102811004-13262-043408FM-15+044399999V0203601N002119999999Y999999999+03001+01801999999ADDMA1101401999990REMMET045METAR SBLP 281100Z 36004KT CAVOK 30/18 Q1014=
0111832880999992013102812004-13267-043417FM-12+044199999V0201801N0015122000199020000199+03021+01871100991ADDAA101999990AZ101061AZ201061GF100991999999999999999999KA1120N+02261MA1999990096211MD1909990-0121REMSYN004BUFR
0072832880999992013102812004-13262-043408FM-15+044399999V0203301N002619999999Y999999999+03201+01701999999ADDMA1101401999990REMMET045METAR SBLP 281200Z 33005KT CAVOK 32/17 Q1014=
0072832880999992013102813004-13262-043408FM-15+044399999V0203301N003619999999Y999999999+03401+01601999999ADDMA1101301999990REMMET045METAR SBLP 281300Z 33007KT CAVOK 34/16 Q1013=
0142832880999992013102814004-13262-043408FM-15+044399999V0203601N003119999999N009999199+03501+01501999999ADDGA1021+009141991GE19MSL   +99999+99999GF199999021990009141991991MA1101301999990REMMET051METAR SBLP 281400Z 36006KT 9999 FEW030 35/15 Q1013=
0142832880999992013102815004-13262-043408FM-15+044399999V0203301N002619999999N009999199+03601+01701999999ADDGA1021+009141991GE19MSL   +99999+99999GF199999021990009141991991MA1101201999990REMMET051METAR SBLP 281500Z 33005KT 9999 FEW030 36/17 Q1012=
0142832880999992013102816004-13262-043408FM-15+044399999V0203301N003119999999N009999199+03701+01101999999ADDGA1021+009141991GE19MSL   +99999+99999GF199999021990009141991991MA1101001999990REMMET051METAR SBLP 281600Z 33006KT 9999 FEW030 37/11 Q1010=
0142832880999992013102817004-13262-043408FM-15+044399999V0200901N002619999999N009999199+03101+01101999999ADDGA1041+009141991GE19MSL   +99999+99999GF199999041990009141991991MA1100901999990REMMET051METAR SBLP 281700Z 09005KT 9999 SCT030 31/11 Q1009=
0168832880999992013102818004-13267-043417FM-12+044199999V0200501N0005199999999020000199+03721+01881100441ADDAA101999990AZ101061AZ201061GA1021+008001081GA2991+999991001GA3991+999991051GE19MSL   +99999+99999GF104991021990008001991991MA1999990095701MD1909990+0021REMSYN004BUFR
0142832880999992013102818004-13262-043408FM-15+044399999V0202501N002119999999N009999199+03801+00802999999ADDGA1041+009141991GE19MSL   +99999+99999GF199999041990009141991991MA1100801999990REMMET051METAR SBLP 281800Z 25004KT 9999 SCT030 38/08 Q1008=
0142832880999992013102819004-13262-043408FM-15+044399999V0209999C000019999999N009999199+03901+00802999999ADDGA1021+009141991GE19MSL   +99999+99999GF199999021990009141991991MA1100801999990REMMET051METAR SBLP 281900Z 00000KT 9999 FEW030 39/08 Q1008=
0142832880999992013102820004-13262-043408FM-15+044399999V0202801N001519999999N009999199+03701+00801999999ADDGA1021+009141991GE19MSL   +99999+99999GF199999021990009141991991MA1100801999990REMMET051METAR SBLP 282000Z 28003KT 9999 FEW030 37/08 Q1008=
0142832880999992013102821004-13262-043408FM-15+044399999V0209999C000019999999N009999199+03601+00901999999ADDGA1021+009141991GE19MSL   +99999+99999GF199999021990009141991991MA1100801999990REMMET051METAR SBLP 282100Z 00000KT 9999 FEW030 36/09 Q1008=
0098832880999992013102900004-13267-043417FM-12+044199999V0201401N0005122000199002000199+03041+01891100681ADDAA101999990AZ101061AZ201061GF100991999999999999999999MA1999990095911MD1909990+0121REMSYN004BUFR
0072832880999992013102909154-13262-043408FM-16+044399999V0200901N002119999999Y999999999+02601+01501999999ADDMA1101201999990REMMET045SPECI SBLP 290915Z 09004KT CAVOK 26/15 Q1012=
0072832880999992013102910004-13262-043408FM-15+044399999V0200901N002119999999Y999999999+02801+01401999999ADDMA1101301999990REMMET045METAR SBLP 291000Z 09004KT CAVOK 28/14 Q1013=
0072832880999992013102911004-13262-043408FM-15+044399999V0201001N002119999999Y999999999+03001+01701999999ADDMA1101401999990REMMET045METAR SBLP 291100Z 10004KT CAVOK 30/17 Q1014=
0165832880999992013102912004-13267-043417FM-12+044199999V0200501N0015199999999020000199+03101+01941100961ADDAA101999990AZ101061AZ201061GA1011+008001081GA2991+999991001GE19MSL   +99999+99999GF102991011990008001991991KA1120N+02441MA1999990096201MD1909990-0011REMSYN004BUFR
0072832880999992013102912004-13262-043408FM-15+044399999V0200601N003119999999Y999999999+03301+01501999999ADDMA1101401999990REMMET045METAR SBLP 291200Z 06006KT CAVOK 33/15 Q1014=
0142832880999992013102913004-13262-043408FM-15+044399999V0203501N002119999999N009999199+03401+01601999999ADDGA1021+009141991GE19MSL   +99999+99999GF199999021990009141991991MA1101301999990REMMET051METAR SBLP 291300Z 35004KT 9999 FEW030 34/16 Q1013=
0142832880999992013102914004-13262-043408FM-15+044399999V0209999C000019999999N009999199+03501+01701999999ADDGA1041+009141991GE19MSL   +99999+99999GF199999041990009141991991MA1101301999990REMMET051METAR SBLP 291400Z 00000KT 9999 SCT030 35/17 Q1013=
0142832880999992013102915004-13262-043408FM-15+044399999V0209999C000010091419N009999199+03601+01701999999ADDGA1071+009141991GE19MSL   +99999+99999GF199999071990009141991991MA1101201999990REMMET051METAR SBLP 291500Z 00000KT 9999 BKN030 36/17 Q1012=
0142832880999992013102916004-13262-043408FM-15+044399999V0201001N001010091419N009999199+03501+01801999999ADDGA1071+009141991GE19MSL   +99999+99999GF199999071990009141991991MA1101101999990REMMET051METAR SBLP 291600Z 10002KT 9999 BKN030 35/18 Q1011=
0142832880999992013102917004-13262-043408FM-15+044399999V0202101N002119999999N009999199+03601+01601999999ADDGA1041+009141991GE19MSL   +99999+99999GF199999041990009141991991MA1101001999990REMMET051METAR SBLP 291700Z 21004KT 9999 SCT030 36/16 Q1010=
0152832880999992013102918004-13267-043417FM-12+044199999V0200501N0010199999999020000199+03271+01931100591ADDAA101999990AZ101061AZ201061GA1031+008001081GA2991+999991021GE19MSL   +99999+99999GF104991031990008001991991MA1999990095771MD1909990+0071REMSYN004BUFR
0142832880999992013102918004-13262-043408FM-15+044399999V0201201N002110091419N009999199+03601+01601999999ADDGA1071+009141991GE19MSL   +99999+99999GF199999071990009141991991MA1100901999990REMMET051METAR SBLP 291800Z 12004KT 9999 BKN030 36/16 Q1009=
0165832880999992013102920004-13262-043408FM-15+044399999V0201701N00411030481CN009999199+03101+01601999999ADDGA1041+009141991GA2041+030481991GE19MSL   +99999+99999GF199999041990009141991991MA1100901999990REMMET058METAR SBLP 292000Z 17008KT 9999 SCT030 SCT100 31/16 Q1009=
0165832880999992013102921004-13262-043408FM-15+044399999V0201701N00311030481CN009999199+02901+01901999999ADDGA1041+009141991GA2041+030481991GE19MSL   +99999+99999GF199999041990009141991991MA1101001999990REMMET058METAR SBLP 292100Z 17006KT 9999 SCT030 SCT100 29/19 Q1010=
0136832880999992013103000004-13267-043417FM-12+044199999V0202301N0010100800199002000199+02891+02061100791ADDAA101999990AZ101061AZ201061GA1061+008001061GE19MSL   +99999+99999GF106991061990008001991991MA1999990096021MD1909990+0111REMSYN004BUFR
0072832880999992013103009154-13262-043408FM-16+044399999V0202201N001519999999Y999999999+02301+01901999999ADDMA1101301999990REMMET045SPECI SBLP 300915Z 22003KT CAVOK 23/19 Q1013=
0072832880999992013103010004-13262-043408FM-15+044399999V0202101N002119999999Y999999999+02601+01901999999ADDMA1101401999990REMMET045METAR SBLP 301000Z 21004KT CAVOK 26/19 Q1014=
0072832880999992013103011004-13262-043408FM-15+044399999V0202101N003119999999Y999999999+02901+01801999999ADDMA1101501999990REMMET045METAR SBLP 301100Z 21006KT CAVOK 29/18 Q1015=
0165832880999992013103012004-13267-043417FM-12+044199999V0201401N0015199999999020000199+02851+02061101111ADDAA101999990AZ101061AZ201061GA1031+008001081GA2991+999991031GE19MSL   +99999+99999GF105991031990008001991991KA1120N+02301MA1999990096301MD1909990+0101REMSYN004BUFR
0142832880999992013103012004-13262-043408FM-15+044399999V0201801N003119999999N009999199+03001+01801999999ADDGA1021+009141991GE19MSL   +99999+99999GF199999021990009141991991MA1101501999990REMMET051METAR SBLP 301200Z 18006KT 9999 FEW030 30/18 Q1015=
0142832880999992013103013004-13262-043408FM-15+044399999V0201901N003619999999N009999199+03201+01701999999ADDGA1041+009141991GE19MSL   +99999+99999GF199999041990009141991991MA1101401999990REMMET051METAR SBLP 301300Z 19007KT 9999 SCT030 32/17 Q1014=
0142832880999992013103014004-13262-043408FM-15+044399999V0201501N003119999999N009999199+03201+01701999999ADDGA1041+009141991GE19MSL   +99999+99999GF199999041990009141991991MA1101301999990REMMET051METAR SBLP 301400Z 15006KT 9999 SCT030 32/17 Q1013=
0142832880999992013103015004-13262-043408FM-15+044399999V0201701N003119999999N009999199+03501+01501999999ADDGA1041+009141991GE19MSL   +99999+99999GF199999041990009141991991MA1101301999990REMMET051METAR SBLP 301500Z 17006KT 9999 SCT030 35/15 Q1013=
0142832880999992013103016004-13262-043408FM-15+044399999V0209999C000019999999N009999199+03501+01601999999ADDGA1041+009141991GE19MSL   +99999+99999GF199999041990009141991991MA1101101999990REMMET051METAR SBLP 301600Z 00000KT 9999 SCT030 35/16 Q1011=
0142832880999992013103017004-13262-043408FM-15+044399999V0203401N002119999999N009999199+03601+01601999999ADDGA1041+009141991GE19MSL   +99999+99999GF199999041990009141991991MA1101001999990REMMET051METAR SBLP 301700Z 34004KT 9999 SCT030 36/16 Q1010=
0136832880999992013103018004-13267-043417FM-12+044199999V0201401N0005199999999020000199+03471+02071100531ADDAA101999990AZ101061AZ201061GA1041+008001081GE19MSL   +99999+99999GF104991041990008001991991MA1999990095751MD1909990-0021REMSYN004BUFR
0142832880999992013103018004-13262-043408FM-15+044399999V0201801N001019999999N009999199+03501+01401999999ADDGA1041+009141991GE19MSL   +99999+99999GF199999041990009141991991MA1100901999990REMMET051METAR SBLP 301800Z 18002KT 9999 SCT030 35/14 Q1009=
0142832880999992013103019004-13262-043408FM-15+044399999V0201401N002119999999N009999199+03601+01401999999ADDGA1041+009141991GE19MSL   +99999+99999GF199999041990009141991991MA1100801999990REMMET051METAR SBLP 301900Z 14004KT 9999 SCT030 36/14 Q1008=
0142832880999992013103020004-13262-043408FM-15+044399999V0201701N006219999999N009999199+03501+01401999999ADDGA1041+009141991GE19MSL   +99999+99999GF199999041990009141991991MA1100801999990REMMET051METAR SBLP 302000Z 17012KT 9999 SCT030 35/14 Q1008=
0142832880999992013103021004-13262-043408FM-15+044399999V0209999C000019999999N009999199+03101+01601999999ADDGA1041+009141991GE19MSL   +99999+99999GF199999041990009141991991MA1100901999990REMMET051METAR SBLP 302100Z 00000KT 9999 SCT030 31/16 Q1009=
0136832880999992013103100004-13267-043417FM-12+044199999V0203601N0000100800199002000199+03021+02051100751ADDAA101999990AZ101061AZ201061GA1051+008001081GE19MSL   +99999+99999GF105991051990008001991991MA1999990095961MD1909990-0061REMSYN004BUFR
0072832880999992013103109154-13262-043408FM-16+044399999V0202201N001519999999Y999999999+02401+02001999999ADDMA1101301999990REMMET045SPECI SBLP 310915Z 22003KT CAVOK 24/20 Q1013=
0072832880999992013103110004-13262-043408FM-15+044399999V0202001N004119999999Y999999999+02501+02001999999ADDMA1101401999990REMMET045METAR SBLP 311000Z 20008KT CAVOK 25/20 Q1014=
0072832880999992013103111004-13262-043408FM-15+044399999V0201401N002619999999Y999999999+02901+01901999999ADDMA1101401999990REMMET045METAR SBLP 311100Z 14005KT CAVOK 29/19 Q1014=
0149832880999992013103112004-13267-043417FM-12+044199999V0200901N0015199999999020000199+02841+02091101021ADDAA101999990AZ101061AZ201061GA1991+025001011GE19MSL   +99999+99999GF105991990990025001991991KA1120N+02351MA1999990096231MD1909990-0071REMSYN004BUFR
0165832880999992013103112004-13262-043408FM-15+044399999V0201101N004110304819N009999199+03101+01701999999ADDGA1021+009141991GA2071+030481991GE19MSL   +99999+99999GF199999021990009141991991MA1101401999990REMMET058METAR SBLP 311200Z 11008KT 9999 FEW030 BKN100 31/17 Q1014=
0165832880999992013103113004-13262-043408FM-15+044399999V0200601N00151030481CN009999199+03101+01801999999ADDGA1021+009141991GA2041+030481991GE19MSL   +99999+99999GF199999021990009141991991MA1101301999990REMMET058METAR SBLP 311300Z 06003KT 9999 FEW030 SCT100 31/18 Q1013=
0165832880999992013103114004-13262-043408FM-15+044399999V0202201N00311030481CN009999199+03301+01701999999ADDGA1021+009141991GA2041+030481991GE19MSL   +99999+99999GF199999021990009141991991MA1101301999990REMMET058METAR SBLP 311400Z 22006KT 9999 FEW030 SCT100 33/17 Q1013=
0165832880999992013103115004-13262-043408FM-15+044399999V0202301N003110304819N009999199+03401+01601999999ADDGA1021+009141991GA2071+030481991GE19MSL   +99999+99999GF199999021990009141991991MA1101201999990REMMET058METAR SBLP 311500Z 23006KT 9999 FEW030 BKN100 34/16 Q1012=
0165832880999992013103116004-13262-043408FM-15+044399999V0201801N002110304819N009999199+03501+01501999999ADDGA1021+009141991GA2071+030481991GE19MSL   +99999+99999GF199999021990009141991991MA1101101999990REMMET058METAR SBLP 311600Z 18004KT 9999 FEW030 BKN100 35/15 Q1011=
0165832880999992013103117004-13262-043408FM-15+044399999V0201701N002610304819N009999199+03501+02001999999ADDGA1021+009141991GA2071+030481991GE19MSL   +99999+99999GF199999021990009141991991MA1101101999990REMMET058METAR SBLP 311700Z 17005KT 9999 FEW030 BKN100 35/20 Q1011=
0152832880999992013103118004-13267-043417FM-12+044199999V0202301N0021199999999020000199+03391+01851100551ADDAA101999990AZ101061AZ201061GA1041+008001081GA2991+999991001GE19MSL   +99999+99999GF106991041990008001991991MA1999990095791MD1909990+0041REMSYN004BUFR
0165832880999992013103118004-13262-043408FM-15+044399999V0209999C00001030481CN009999199+03501+01701999999ADDGA1041+009141991GA2041+030481991GE19MSL   +99999+99999GF199999041990009141991991MA1101001999990REMMET058METAR SBLP 311800Z 00000KT 9999 SCT030 SCT100 35/17 Q1010=
0165832880999992013103119004-13262-043408FM-15+044399999V0201901N00361030481CN009999199+03501+01701999999ADDGA1041+009141991GA2041+030481991GE19MSL   +99999+99999GF199999041990009141991991MA1100901999990REMMET058METAR SBLP 311900Z 19007KT 9999 SCT030 SCT100 35/17 Q1009=
0165832880999992013103120004-13262-043408FM-15+044399999V0202001N00211030481CN009999199+03401+01601999999ADDGA1041+009141991GA2041+030481991GE19MSL   +99999+99999GF199999041990009141991991MA1100901999990REMMET058METAR SBLP 312000Z 20004KT 9999 SCT030 SCT100 34/16 Q1009=
0165832880999992013103121004-13262-043408FM-15+044399999V0201801N002110304819N009999199+03301+01701999999ADDGA1021+009141991GA2071+030481991GE19MSL   +99999+99999GF199999021990009141991991MA1101001999990REMMET058METAR SBLP 312100Z 18004KT 9999 FEW030 BKN100 33/17 Q1010=
0152832880999992013110100004-13267-043417FM-12+044199999V0201401N0015199999999002000199+02991+01861100781ADDAA101999990AZ101061AZ201061GA1011+017501031GA2991+999991001GE19MSL   +99999+99999GF105991011990017501991991MA1999990095991MD1909990+0031REMSYN004BUFR
0165832880999992013110109154-13262-043408FM-16+044399999V0201801N002110304819N009999199+02401+01901999999ADDGA1021+007011991GA2071+030481991GE19MSL   +99999+99999GF199999021990007011991991MA1101401999990REMMET058SPECI SBLP 010915Z 18004KT 9999 FEW023 BKN100 24/19 Q1014=
0165832880999992013110110004-13262-043408FM-15+044399999V0201901N00211030481CN009999199+02701+01901999999ADDGA1021+007011991GA2041+030481991GE19MSL   +99999+99999GF199999021990007011991991MA1101401999990REMMET058METAR SBLP 011000Z 19004KT 9999 FEW023 SCT100 27/19 Q1014=
0165832880999992013110111004-13262-043408FM-15+044399999V0201701N00211030481CN009999199+02901+01901999999ADDGA1021+009141991GA2041+030481991GE19MSL   +99999+99999GF199999021990009141991991MA1101501999990REMMET058METAR SBLP 011100Z 17004KT 9999 FEW030 SCT100 29/19 Q1015=
0165832880999992013110112004-13267-043417FM-12+044199999V0200901N0005199999999020000199+02891+01921101231ADDAA101999990AZ101061AZ201061GA1021+008001081GA2991+999991031GE19MSL   +99999+99999GF104991021990008001991991KA1120N+02321MA1999990096431MD1909990+0201REMSYN004BUFR
0165832880999992013110112004-13262-043408FM-15+044399999V0202301N00211030481CN009999199+03001+01901999999ADDGA1021+009141991GA2041+030481991GE19MSL   +99999+99999GF199999021990009141991991MA1101501999990REMMET058METAR SBLP 011200Z 23004KT 9999 FEW030 SCT100 30/19 Q1015=
0165832880999992013110113004-13262-043408FM-15+044399999V0201801N00311030481CN009999199+03201+01901999999ADDGA1021+009141991GA2041+030481991GE19MSL   +99999+99999GF199999021990009141991991MA1101501999990REMMET058METAR SBLP 011300Z 18006KT 9999 FEW030 SCT100 32/19 Q1015=
0165832880999992013110114004-13262-043408FM-15+044399999V0201801N00261030481CN009999199+03301+01901999999ADDGA1021+009141991GA2041+030481991GE19MSL   +99999+99999GF199999021990009141991991MA1101401999990REMMET058METAR SBLP 011400Z 18005KT 9999 FEW030 SCT100 33/19 Q1014=
0142832880999992013110115004-13262-043408FM-15+044399999V0209999C000019999999N009999199+03501+01601999999ADDGA1041+009141991GE19MSL   +99999+99999GF199999041990009141991991MA1101301999990REMMET051METAR SBLP 011500Z 00000KT 9999 SCT030 35/16 Q1013=
0142832880999992013110116004-13262-043408FM-15+044399999V0202501N001519999999N009999199+03401+01401999999ADDGA1041+009141991GE19MSL   +99999+99999GF199999041990009141991991MA1101101999990REMMET051METAR SBLP 011600Z 25003KT 9999 SCT030 34/14 Q1011=
0142832880999992013110117004-13262-043408FM-15+044399999V0202201N004119999999N009999199+03701+01401999999ADDGA1041+009141991GE19MSL   +99999+99999GF199999041990009141991991MA1101101999990REMMET051METAR SBLP 011700Z 22008KT 9999 SCT030 37/14 Q1011=
0136832880999992013110118004-13267-043417FM-12+044199999V0201401N0015199999999020000199+03551+01681100591ADDAA101999990AZ101061AZ201061GA1041+008001081GE19MSL   +99999+99999GF104991041990008001991991MA1999990095831MD1909990+0041REMSYN004BUFR
0142832880999992013110118004-13262-043408FM-15+044399999V0202401N005119999999N009999199+03701+01501999999ADDGA1021+009141991GE19MSL   +99999+99999GF199999021990009141991991MA1101001999990REMMET051METAR SBLP 011800Z 24010KT 9999 FEW030 37/15 Q1010=
0142832880999992013110119004-13262-043408FM-15+044399999V0203101N006219999999N009999199+03701+01401999999ADDGA1021+009141991GE19MSL   +99999+99999GF199999021990009141991991MA1100901999990REMMET051METAR SBLP 011900Z 31012KT 9999 FEW030 37/14 Q1009=
0142832880999992013110120004-13262-043408FM-15+044399999V0200301N003619999999N009999199+03501+01301999999ADDGA1021+009141991GE19MSL   +99999+99999GF199999021990009141991991MA1100901999990REMMET051METAR SBLP 012000Z 03007KT 9999 FEW030 35/13 Q1009=
0142832880999992013110121004-13262-043408FM-15+044399999V0200601N003119999999N009999199+03301+01301999999ADDGA1021+009141991GE19MSL   +99999+99999GF199999021990009141991991MA1101001999990REMMET051METAR SBLP 012100Z 06006KT 9999 FEW030 33/13 Q1010=
0098832880999992013110200004-13267-043417FM-12+044199999V0201401N0010122000199002000199+02891+01711100791ADDAA101999990AZ101061AZ201061GF100991999999999999999999MA1999990096001MD1909990+0011REMSYN004BUFR
0165832880999992013110209154-13262-043408FM-16+044399999V0201601N00211030481CN009999199+02401+01901999999ADDGA1021+007011991GA2041+030481991GE19MSL   +99999+99999GF199999021990007011991991MA1101501999990REMMET058SPECI SBLP 020915Z 16004KT 9999 FEW023 SCT100 24/19 Q1015=
0165832880999992013110210004-13262-043408FM-15+044399999V0201101N00261030481CN009999199+02601+01901999999ADDGA1021+007011991GA2041+030481991GE19MSL   +99999+99999GF199999021990007011991991MA1101501999990REMMET058METAR SBLP 021000Z 11005KT 9999 FEW023 SCT100 26/19 Q1015=
0072832880999992013110211004-13262-043408FM-15+044399999V0200901N002119999999Y999999999+02901+01901999999ADDMA1101601999990REMMET045METAR SBLP 021100Z 09004KT CAVOK 29/19 Q1016=
0149832880999992013110212004-13267-043417FM-12+044199999V0201401N0021199999999020000199+02771+01861101241ADDAA101999990AZ101061AZ201061GA1011+008001081GE19MSL   +99999+99999GF101991011990008001991991KA1120N+02361MA1999990096421MD1909990-0011REMSYN004BUFR
0142832880999992013110212004-13262-043408FM-15+044399999V0200601N002119999999N009999199+03001+02101999999ADDGA1021+009141991GE19MSL   +99999+99999GF199999021990009141991991MA1101601999990REMMET051METAR SBLP 021200Z 06004KT 9999 FEW030 30/21 Q1016=
0142832880999992013110213004-13262-043408FM-15+044399999V0209999C000019999999N009999199+03101+01801999999ADDGA1041+009141991GE19MSL   +99999+99999GF199999041990009141991991MA1101601999990REMMET051METAR SBLP 021300Z 00000KT 9999 SCT030 31/18 Q1016=
0142832880999992013110214004-13262-043408FM-15+044399999V0209999C000019999999N009999199+03201+01701999999ADDGA1041+009141991GE19MSL   +99999+99999GF199999041990009141991991MA1101501999990REMMET051METAR SBLP 021400Z 00000KT 9999 SCT030 32/17 Q1015=
0142832880999992013110215004-13262-043408FM-15+044399999V0201801N002610091419N009999199+03501+02001999999ADDGA1071+009141991GE19MSL   +99999+99999GF199999071990009141991991MA1101401999990REMMET051METAR SBLP 021500Z 18005KT 9999 BKN030 35/20 Q1014=
0142832880999992013110216004-13262-043408FM-15+044399999V0209999C000010091419N009999199+03401+01601999999ADDGA1071+009141991GE19MSL   +99999+99999GF199999071990009141991991MA1101301999990REMMET051METAR SBLP 021600Z 00000KT 9999 BKN030 34/16 Q1013=
0142832880999992013110217004-13262-043408FM-15+044399999V0202501N003110091419N009999199+03401+01501999999ADDGA1071+009141991GE19MSL   +99999+99999GF199999071990009141991991MA1101201999990REMMET051METAR SBLP 021700Z 25006KT 9999 BKN030 34/15 Q1012=
0136832880999992013110218004-13267-043417FM-12+044199999V0201801N0026199999999020000199+03391+01771100731ADDAA101999990AZ101061AZ201061GA1011+008001081GE19MSL   +99999+99999GF101991011990008001991991MA1999990095931MD1909990+0101REMSYN004BUFR
0142832880999992013110218004-13262-043408FM-15+044399999V0202901N002119999999N009999199+03501+01601999999ADDGA1041+009141991GE19MSL   +99999+99999GF199999041990009141991991MA1101101999990REMMET051METAR SBLP 021800Z 29004KT 9999 SCT030 35/16 Q1011=
0142832880999992013110219004-13262-043408FM-15+044399999V0202801N002119999999N009999199+03401+01501999999ADDGA1041+009141991GE19MSL   +99999+99999GF199999041990009141991991MA1101101999990REMMET051METAR SBLP 021900Z 28004KT 9999 SCT030 34/15 Q1011=
0142832880999992013110220004-13262-043408FM-15+044399999V0203001N006219999999N009999199+03401+01601999999ADDGA1021+009141991GE19MSL   +99999+99999GF199999021990009141991991MA1101101999990REMMET051METAR SBLP 022000Z 30012KT 9999 FEW030 34/16 Q1011=
0072832880999992013110221004-13262-043408FM-15+044399999V0203201N003119999999Y999999999+03201+01601999999ADDMA1101101999990REMMET045METAR SBLP 022100Z 32006KT CAVOK 32/16 Q1011=
0072832880999992013110309154-13262-043408FM-16+044399999V0200201N002119999999Y999999999+02201+01601999999ADDMA1101401999990REMMET045SPECI SBLP 030915Z 02004KT CAVOK 22/16 Q1014=
0072832880999992013110310004-13262-043408FM-15+044399999V0200201N004119999999Y999999999+02401+01601999999ADDMA1101501999990REMMET045METAR SBLP 031000Z 02008KT CAVOK 24/16 Q1015=
0072832880999992013110311004-13262-043408FM-15+044399999V0203501N003119999999Y999999999+02701+01601999999ADDMA1101601999990REMMET045METAR SBLP 031100Z 35006KT CAVOK 27/16 Q1016=
0149832880999992013110312004-13267-043417FM-12+044199999V0201401N0015102500199020000199+02651+01771101261ADDAA101999990AZ101061AZ201061GA1061+025001021GE19MSL   +99999+99999GF106991061990025001991991KA1120N+02201MA1999990096431MD1909990+0011REMSYN004BUFR
0072832880999992013110312004-13262-043408FM-15+044399999V0209999C000019999999Y999999999+02801+01601999999ADDMA1101601999990REMMET045METAR SBLP 031200Z 00000KT CAVOK 28/16 Q1016=
0142832880999992013110313004-13262-043408FM-15+044399999V0201201N002119999999N009999199+03001+01601999999ADDGA1021+009141991GE19MSL   +99999+99999GF199999021990009141991991MA1101601999990REMMET051METAR SBLP 031300Z 12004KT 9999 FEW030 30/16 Q1016=
0142832880999992013110314004-13262-043408FM-15+044399999V0201201N003119999999N009999199+03101+01601999999ADDGA1021+009141991GE19MSL   +99999+99999GF199999021990009141991991MA1101501999990REMMET051METAR SBLP 031400Z 12006KT 9999 FEW030 31/16 Q1015=
0142832880999992013110316004-13262-043408FM-15+044399999V0201801N004119999999N009999199+03301+01501999999ADDGA1041+009141991GE19MSL   +99999+99999GF199999041990009141991991MA1101201999990REMMET051METAR SBLP 031600Z 18008KT 9999 SCT030 33/15 Q1012=
0152832880999992013110318004-13267-043417FM-12+044199999V0202301N0010199999999020000199+03321+01581100611ADDAA101999990AZ101061AZ201061GA1041+008001081GA2991+999991021GE19MSL   +99999+99999GF106991041990008001991991MA1999990095831MD1909990-0101REMSYN004BUFR
0142832880999992013110319004-13262-043408FM-15+044399999V0202101N003119999999N009999199+03401+01201999999ADDGA1041+009141991GE19MSL   +99999+99999GF199999041990009141991991MA1100901999990REMMET051METAR SBLP 031900Z 21006KT 9999 SCT030 34/12 Q1009=
0142832880999992013110320004-13262-043408FM-15+044399999V0201801N002119999999N009999199+03401+01101999999ADDGA1021+009141991GE19MSL   +99999+99999GF199999021990009141991991MA1100801999990REMMET051METAR SBLP 032000Z 18004KT 9999 FEW030 34/11 Q1008=
0142832880999992013110321004-13262-043408FM-15+044399999V0201401N002619999999N009999199+03201+01101999999ADDGA1021+009141991GE19MSL   +99999+99999GF199999021990009141991991MA1100901999990REMMET051METAR SBLP 032100Z 14005KT 9999 FEW030 32/11 Q1009=
0072832880999992013110409154-13262-043408FM-16+044399999V0209999C000019999999Y999999999+02101+01501999999ADDMA1101201999990REMMET045SPECI SBLP 040915Z 00000KT CAVOK 21/15 Q1012=
0072832880999992013110410004-13262-043408FM-15+044399999V0201001N002619999999Y999999999+02401+01501999999ADDMA1101301999990REMMET045METAR SBLP 041000Z 10005KT CAVOK 24/15 Q1013=
0072832880999992013110411004-13262-043408FM-15+044399999V0200701N003119999999Y999999999+02701+01501999999ADDMA1101401999990REMMET045METAR SBLP 041100Z 07006KT CAVOK 27/15 Q1014=
0149832880999992013110412004-13267-043417FM-12+044199999V0200501N0015199999999020000199+02701+01701100991ADDAA101999990AZ101061AZ201061GA1991+025001021GE19MSL   +99999+99999GF102991990990025001991991KA1120N+02081MA1999990096171MD1909990-0261REMSYN004BUFR
0072832880999992013110412004-13262-043408FM-15+044399999V0200401N003619999999Y999999999+02701+01501999999ADDMA1101401999990REMMET045METAR SBLP 041200Z 04007KT CAVOK 27/15 Q1014=
0072832880999992013110413004-13262-043408FM-15+044399999V0200901N001519999999Y999999999+03101+01501999999ADDMA1101301999990REMMET045METAR SBLP 041300Z 09003KT CAVOK 31/15 Q1013=
0142832880999992013110414004-13262-043408FM-15+044399999V0200701N003119999999N009999199+03301+01401999999ADDGA1021+009141991GE19MSL   +99999+99999GF199999021990009141991991MA1101201999990REMMET051METAR SBLP 041400Z 07006KT 9999 FEW030 33/14 Q1012=
0142832880999992013110415004-13262-043408FM-15+044399999V0203001N003619999999N009999199+03401+01201999999ADDGA1021+009141991GE19MSL   +99999+99999GF199999021990009141991991MA1101101999990REMMET051METAR SBLP 041500Z 30007KT 9999 FEW030 34/12 Q1011=
0142832880999992013110416004-13262-043408FM-15+044399999V0201601N002119999999N009999199+03401+01401999999ADDGA1041+009141991GE19MSL   +99999+99999GF199999041990009141991991MA1101001999990REMMET051METAR SBLP 041600Z 16004KT 9999 SCT030 34/14 Q1010=
0142832880999992013110417004-13262-043408FM-15+044399999V0202401N002119999999N009999199+03501+01301999999ADDGA1041+009141991GE19MSL   +99999+99999GF199999041990009141991991MA1100801999990REMMET051METAR SBLP 041700Z 24004KT 9999 SCT030 35/13 Q1008=
0136832880999992013110418004-13267-043417FM-12+044199999V0202701N0010199999999020000199+03491+01531100401ADDAA101999990AZ101061AZ201061GA1021+008001081GE19MSL   +99999+99999GF103991021990008001991991MA1999990095631MD1909990-0201REMSYN004BUFR
0142832880999992013110418004-13262-043408FM-15+044399999V0202101N001519999999N009999199+03501+01401999999ADDGA1041+009141991GE19MSL   +99999+99999GF199999041990009141991991MA1100701999990REMMET051METAR SBLP 041800Z 21003KT 9999 SCT030 35/14 Q1007=
0142832880999992013110419004-13262-043408FM-15+044399999V0201001N002119999999N009999199+03601+01001999999ADDGA1021+009141991GE19MSL   +99999+99999GF199999021990009141991991MA1100601999990REMMET051METAR SBLP 041900Z 10004KT 9999 FEW030 36/10 Q1006=
0142832880999992013110420004-13262-043408FM-15+044399999V0202201N002119999999N009999199+03601+01001999999ADDGA1021+009141991GE19MSL   +99999+99999GF199999021990009141991991MA1100601999990REMMET051METAR SBLP 042000Z 22004KT 9999 FEW030 36/10 Q1006=
0142832880999992013110421004-13262-043408FM-15+044399999V0209999C000019999999N009999199+03301+01301999999ADDGA1021+009141991GE19MSL   +99999+99999GF199999021990009141991991MA1100701999990REMMET051METAR SBLP 042100Z 00000KT 9999 FEW030 33/13 Q1007=
0136832880999992013110500004-13267-043417FM-12+044199999V0203601N0000199999999002000199+02921+01841100581ADDAA101999990AZ101061AZ201061GA1021+008001081GE19MSL   +99999+99999GF102991021990008001991991MA1999990095781MD1909990-0231REMSYN004BUFR
0165832880999992013110509154-13262-043408FM-16+044399999V0209999C000010304819N009999199+02401+01701999999ADDGA1021+009141991GA2071+030481991GE19MSL   +99999+99999GF199999021990009141991991MA1101201999990REMMET058SPECI SBLP 050915Z 00000KT 9999 FEW030 BKN100 24/17 Q1012=
0165832880999992013110510004-13262-043408FM-15+044399999V0209999C000010304819N009999199+02601+01701999999ADDGA1021+009141991GA2071+030481991GE19MSL   +99999+99999GF199999021990009141991991MA1101201999990REMMET058METAR SBLP 051000Z 00000KT 9999 FEW030 BKN100 26/17 Q1012=
0165832880999992013110511004-13262-043408FM-15+044399999V0200201N003110304819N009999199+02801+01801999999ADDGA1021+009141991GA2071+030481991GE19MSL   +99999+99999GF199999021990009141991991MA1101301999990REMMET058METAR SBLP 051100Z 02006KT 9999 FEW030 BKN100 28/18 Q1013=
0149832880999992013110512004-13267-043417FM-12+044199999V0200901N0021199999999020000199+02841+01761100961ADDAA101999990AZ101061AZ201061GA1991+025001011GE19MSL   +99999+99999GF105991990990025001991991KA1120N+02411MA1999990096161MD1909990-0011REMSYN004BUFR
0165832880999992013110512004-13262-043408FM-15+044399999V0200101N002610304819N009999199+03101+01801999999ADDGA1021+009141991GA2071+030481991GE19MSL   +99999+99999GF199999021990009141991991MA1101401999990REMMET058METAR SBLP 051200Z 01005KT 9999 FEW030 BKN100 31/18 Q1014=
0165832880999992013110513004-13262-043408FM-15+044399999V0200101N003610304819N009999199+03301+01801999999ADDGA1021+009141991GA2071+030481991GE19MSL   +99999+99999GF199999021990009141991991MA1101401999990REMMET058METAR SBLP 051300Z 01007KT 9999 FEW030 BKN100 33/18 Q1014=
0165832880999992013110514004-13262-043408FM-15+044399999V0203101N00411030481CN009999199+03301+01701999999ADDGA1041+009141991GA2041+030481991GE19MSL   +99999+99999GF199999041990009141991991MA1101301999990REMMET058METAR SBLP 051400Z 31008KT 9999 SCT030 SCT100 33/17 Q1013=
0165832880999992013110515004-13262-043408FM-15+044399999V0202801N00261030481CN009999199+03501+01801999999ADDGA1041+009141991GA2041+030481991GE19MSL   +99999+99999GF199999041990009141991991MA1101201999990REMMET058METAR SBLP 051500Z 28005KT 9999 SCT030 SCT100 35/18 Q1012=
0142832880999992013110516004-13262-043408FM-15+044399999V0202401N003110091419N009999199+03501+01601999999ADDGA1071+009141991GE19MSL   +99999+99999GF199999071990009141991991MA1101001999990REMMET051METAR SBLP 051600Z 24006KT 9999 BKN030 35/16 Q1010=
0165832880999992013110517004-13262-043408FM-15+044399999V0201901N004110091419N009999199+03501+01401999999ADDGA1071+009141991GA2041+030481991GE19MSL   +99999+99999GF199999071990009141991991MA1101001999990REMMET058METAR SBLP 051700Z 19008KT 9999 BKN030 SCT100 35/14 Q1010=
0152832880999992013110518004-13267-043417FM-12+044199999V0203601N0021199999999020000199+03321+01851100521ADDAA101999990AZ101061AZ201061GA1041+008001081GA2991+999991001GE19MSL   +99999+99999GF108991041990008001991991MA1999990095741MD1909990+0111REMSYN004BUFR
0165832880999992013110518004-13262-043408FM-15+044399999V0201801N005110304819N009999199+03301+01601999999ADDGA1041+009141991GA2071+030481991GE19MSL   +99999+99999GF199999041990009141991991MA1100901999990REMMET058METAR SBLP 051800Z 18010KT 9999 SCT030 BKN100 33/16 Q1009=
0165832880999992013110519004-13262-043408FM-15+044399999V0201801N003610304819N009999199+03201+01601999999ADDGA1041+009141991GA2071+030481991GE19MSL   +99999+99999GF199999041990009141991991MA1100901999990REMMET058METAR SBLP 051900Z 18007KT 9999 SCT030 BKN100 32/16 Q1009=
0165832880999992013110520004-13262-043408FM-15+044399999V0201401N002610304819N009999199+03001+01701999999ADDGA1041+009141991GA2071+030481991GE19MSL   +99999+99999GF199999041990009141991991MA1101001999990REMMET058METAR SBLP 052000Z 14005KT 9999 SCT030 BKN100 30/17 Q1010=
0165832880999992013110521004-13262-043408FM-15+044399999V0202301N003110304819N009999199+02801+01701999999ADDGA1021+009141991GA2071+030481991GE19MSL   +99999+99999GF199999021990009141991991MA1101101999990REMMET058METAR SBLP 052100Z 23006KT 9999 FEW030 BKN100 28/17 Q1011=
0136832880999992013110600004-13267-043417FM-12+044199999V0203601N0000199999999002000199+02601+01941101091ADDAA101999990AZ101061AZ201061GA1991+025001001GE19MSL   +99999+99999GF105991990990025001991991MA1999990096231MD1909990+0451REMSYN004BUFR
0165832880999992013110609154-13262-043408FM-16+044399999V0209999C000010304819N009999199+02401+01901999999ADDGA1021+009141991GA2071+030481991GE19MSL   +99999+99999GF199999021990009141991991MA1101601999990REMMET058SPECI SBLP 060915Z 00000KT 9999 FEW030 BKN100 24/19 Q1016=
0165832880999992013110610004-13262-043408FM-15+044399999V0200201N001010304819N009999199+02401+01901999999ADDGA1021+009141991GA2071+030481991GE19MSL   +99999+99999GF199999021990009141991991MA1101701999990REMMET058METAR SBLP 061000Z 02002KT 9999 FEW030 BKN100 24/19 Q1017=
0165832880999992013110611004-13262-043408FM-15+044399999V0200601N001510304819N009999199+02601+01901999999ADDGA1021+009141991GA2071+030481991GE19MSL   +99999+99999GF199999021990009141991991MA1101701999990REMMET058METAR SBLP 061100Z 06003KT 9999 FEW030 BKN100 26/19 Q1017=
0149832880999992013110612004-13267-043417FM-12+044199999V0202301N0015100450199020000199+02621+01941101441ADDAA101999990AZ101061AZ201061GA1071+004501061GE19MSL   +99999+99999GF107991071990004501991991KA1120N+02201MA1999990096551MD1909990+0391REMSYN004BUFR
0165832880999992013110612004-13262-043408FM-15+044399999V0200401N001510304819N009999199+02701+01901999999ADDGA1021+009141991GA2071+030481991GE19MSL   +99999+99999GF199999021990009141991991MA1101701999990REMMET058METAR SBLP 061200Z 04003KT 9999 FEW030 BKN100 27/19 Q1017=
0165832880999992013110613004-13262-043408FM-15+044399999V0203401N00211030481CN009999199+02901+01901999999ADDGA1041+009141991GA2041+030481991GE19MSL   +99999+99999GF199999041990009141991991MA1101701999990REMMET058METAR SBLP 061300Z 34004KT 9999 SCT030 SCT100 29/19 Q1017=
0142832880999992013110614004-13262-043408FM-15+044399999V0200701N002119999999N009999199+02901+01801999999ADDGA1041+009141991GE19MSL   +99999+99999GF199999041990009141991991MA1101701999990REMMET051METAR SBLP 061400Z 07004KT 9999 SCT030 29/18 Q1017=
0142832880999992013110615004-13262-043408FM-15+044399999V0209999C000019999999N009999199+03101+01801999999ADDGA1041+009141991GE19MSL   +99999+99999GF199999041990009141991991MA1101601999990REMMET051METAR SBLP 061500Z 00000KT 9999 SCT030 31/18 Q1016=
0165832880999992013110616004-13262-043408FM-15+044399999V0202701N002610091419N009999199+03301+01901999999ADDGA1071+009141991GA2041+030481991GE19MSL   +99999+99999GF199999071990009141991991MA1101501999990REMMET058METAR SBLP 061600Z 27005KT 9999 BKN030 SCT100 33/19 Q1015=
0165832880999992013110617004-13262-043408FM-15+044399999V0209999C000010091419N009999199+03301+01801999999ADDGA1071+009141991GA2041+030481991GE19MSL   +99999+99999GF199999071990009141991991MA1101301999990REMMET058METAR SBLP 061700Z 00000KT 9999 BKN030 SCT100 33/18 Q1013=
0136832880999992013110618004-13267-043417FM-12+044199999V0202301N0005100450199020000199+03171+01871100891ADDAA101999990AZ101061AZ201061GA1071+004501061GE19MSL   +99999+99999GF107991071990004501991991MA1999990096071MD1909990+0331REMSYN004BUFR
0165832880999992013110618004-13262-043408FM-15+044399999V0209999C000010091419N009999199+03301+01801999999ADDGA1071+009141991GA2041+030481991GE19MSL   +99999+99999GF199999071990009141991991MA1101301999990REMMET058METAR SBLP 061800Z 00000KT 9999 BKN030 SCT100 33/18 Q1013=
0188832880999992013110619004-13262-043408FM-15+044399999V0209999C00001009141CN009999199+03101+01901999999ADDGA1021+006101991GA2041+009141991GA3071+030481991GE19MSL   +99999+99999GF199999021990006101991991MA1101201999990REMMET065METAR SBLP 061900Z 00000KT 9999 FEW020 SCT030 BKN100 31/19 Q1012=
0188832880999992013110620004-13262-043408FM-15+044399999V0209999C00001009141CN009999199+02901+02001999999ADDGA1021+006101991GA2041+009141991GA3071+030481991GE19MSL   +99999+99999GF199999021990006101991991MA1101201999990REMMET065METAR SBLP 062000Z 00000KT 9999 FEW020 SCT030 BKN100 29/20 Q1012=
0188832880999992013110621004-13262-043408FM-15+044399999V0201801N00261009141CN009999199+02701+02001999999ADDGA1021+006101991GA2041+009141991GA3071+030481991GE19MSL   +99999+99999GF199999021990006101991991MA1101401999990REMMET065METAR SBLP 062100Z 18005KT 9999 FEW020 SCT030 BKN100 27/20 Q1014=
0174832880999992013110700004-13267-043417FM-12+044199999V0201401N0021100450199002000199+02271+02101101411ADDAA106013031AY161061AY261061GA1081+004501071GA2991+999991101GA3991+999991101GE19MSL   +99999+99999GF108991081990004501991991MA1999990096501MD1909990+0271MW1611REMSYN004BUFR
0188832880999992013110709154-13262-043408FM-16+044399999V0202101N00261009141CN009999199+02101+02001999999ADDGA1021+006101991GA2041+009141991GA3071+030481991GE19MSL   +99999+99999GF199999021990006101991991MA1101601999990REMMET065SPECI SBLP 070915Z 21005KT 9999 FEW020 SCT030 BKN100 21/20 Q1016=
0188832880999992013110710004-13262-043408FM-15+044399999V0201901N00211009141CN009999199+02201+02101999999ADDGA1021+006101991GA2041+009141991GA3071+030481991GE19MSL   +99999+99999GF199999021990006101991991MA1101701999990REMMET065METAR SBLP 071000Z 19004KT 9999 FEW020 SCT030 BKN100 22/21 Q1017=
0188832880999992013110711004-13262-043408FM-15+044399999V0202401N00261009141CN009999199+02301+02201999999ADDGA1041+006101991GA2041+009141991GA3071+030481991GE19MSL   +99999+99999GF199999041990006101991991MA1101801999990REMMET065METAR SBLP 071100Z 24005KT 9999 SCT020 SCT030 BKN100 23/22 Q1018=
0165832880999992013110712004-13267-043417FM-12+044199999V0201801N0021100450199020000199+02351+02131101511ADDAA124030031AZ101061AZ201061GA1051+004501061GA2991+999991021GE19MSL   +99999+99999GF108991051990004501991991KA1120N+02051MA1999990096561MD1909990+0011REMSYN004BUFR
0188832880999992013110712004-13262-043408FM-15+044399999V0202201N00311009141CN009999199+02501+02201999999ADDGA1021+006101991GA2041+009141991GA3071+030481991GE19MSL   +99999+99999GF199999021990006101991991MA1101801999990REMMET065METAR SBLP 071200Z 22006KT 9999 FEW020 SCT030 BKN100 25/22 Q1018=
0188832880999992013110713004-13262-043408FM-15+044399999V0202101N00361009141CN009999199+02701+02201999999ADDGA1021+006101991GA2041+009141991GA3071+030481991GE19MSL   +99999+99999GF199999021990006101991991MA1101801999990REMMET065METAR SBLP 071300Z 21007KT 9999 FEW020 SCT030 BKN100 27/22 Q1018=
0188832880999992013110714004-13262-043408FM-15+044399999V0202301N00261009141CN009999199+02901+02301999999ADDGA1021+006101991GA2041+009141991GA3071+030481991GE19MSL   +99999+99999GF199999021990006101991991MA1101701999990REMMET065METAR SBLP 071400Z 23005KT 9999 FEW020 SCT030 BKN100 29/23 Q1017=
0165832880999992013110715004-13262-043408FM-15+044399999V0202101N001510304819N009999199+03001+02201999999ADDGA1041+009141991GA2071+030481991GE19MSL   +99999+99999GF199999041990009141991991MA1101601999990REMMET058METAR SBLP 071500Z 21003KT 9999 SCT030 BKN100 30/22 Q1016=
0176832880999992013110716004-13262-043408FM-15+044399999V0203001N002119999999N009999199+03101+02101999999ADDGA1041+009141991GA2021+012191091GE19MSL   +99999+99999GF199999041990009141991991MA1101401999990MW1171REMMET063METAR SBLP 071600Z 30004KT 9999 TS SCT030 FEW040CB 31/21 Q1014=
0170832880999992013110717004-13262-043408FM-15+044399999V0200401N002610091419N009999199+02901+02101999999ADDGA1071+009141991GA2071+030481991GE19MSL   +99999+99999GF199999071990009141991991MA1101401999990REMMET063METAR SBLP 071700Z 04005KT 9999 BKN030 BKN100 29/21 Q1014 RETS=
0152832880999992013110718004-13267-043417FM-12+044199999V0202701N0005199999999020000199+03021+02191101001ADDAA101999990AZ101061AZ201061GA1021+008001091GA2991+999991031GE19MSL   +99999+99999GF105991021990008001991991MA1999990096121MD1909990+0051REMSYN004BUFR
0176832880999992013110718004-13262-043408FM-15+044399999V0209999C000019999999N009999199+03201+02001999999ADDGA1041+009141991GA2021+012191091GE19MSL   +99999+99999GF199999041990009141991991MA1101301999990MW1171REMMET063METAR SBLP 071800Z 00000KT 9999 TS SCT030 FEW040CB 32/20 Q1013=
0170832880999992013110719004-13262-043408FM-15+044399999V0202101N00411030481CN009999199+03101+02001999999ADDGA1041+009141991GA2041+030481991GE19MSL   +99999+99999GF199999041990009141991991MA1101301999990REMMET063METAR SBLP 071900Z 21008KT 9999 SCT030 SCT100 31/20 Q1013 RETS=
0165832880999992013110720004-13262-043408FM-15+044399999V0202401N003110304819N009999199+02901+01901999999ADDGA1021+009141991GA2071+030481991GE19MSL   +99999+99999GF199999021990009141991991MA1101301999990REMMET058METAR SBLP 072000Z 24006KT 9999 FEW030 BKN100 29/19 Q1013=
0165832880999992013110721004-13262-043408FM-15+044399999V0202401N001510304819N009999199+02701+02001999999ADDGA1021+009141991GA2071+030481991GE19MSL   +99999+99999GF199999021990009141991991MA1101301999990REMMET058METAR SBLP 072100Z 24003KT 9999 FEW030 BKN100 27/20 Q1013=
0152832880999992013110800004-13267-043417FM-12+044199999V0201801N0010199999999002000199+02421+02101101141ADDAA101999990AZ101061AZ201061GA1021+008001081GA2991+999991031GE19MSL   +99999+99999GF104991021990008001991991MA1999990096231MD1909990-0271REMSYN004BUFR
0142832880999992013110809154-13262-043408FM-16+044399999V0202401N001519999999N009999199+02201+02101999999ADDGA1021+009141991GE19MSL   +99999+99999GF199999021990009141991991MA1101401999990REMMET051SPECI SBLP 080915Z 24003KT 9999 FEW030 22/21 Q1014=
0072832880999992013110810004-13262-043408FM-15+044399999V0201801N002119999999Y999999999+02501+02201999999ADDMA1101401999990REMMET045METAR SBLP 081000Z 18004KT CAVOK 25/22 Q1014=
0072832880999992013110811004-13262-043408FM-15+044399999V0201601N003119999999Y999999999+02701+02001999999ADDMA1101401999990REMMET045METAR SBLP 081100Z 16006KT CAVOK 27/20 Q1014=
0165832880999992013110812004-13267-043417FM-12+044199999V0200901N0005199999999020000199+02871+01931101131ADDAA101999990AZ101061AZ201061GA1011+012501031GA2991+999991011GE19MSL   +99999+99999GF102991011990012501991991KA1120N+02201MA1999990096271MD1909990-0291REMSYN004BUFR
0072832880999992013110812004-13262-043408FM-15+044399999V0201201N001519999999Y999999999+03001+01901999999ADDMA1101501999990REMMET045METAR SBLP 081200Z 12003KT CAVOK 30/19 Q1015=
0072832880999992013110813004-13262-043408FM-15+044399999V0202501N002619999999Y999999999+03201+01901999999ADDMA1101401999990REMMET045METAR SBLP 081300Z 25005KT CAVOK 32/19 Q1014=
0142832880999992013110814004-13262-043408FM-15+044399999V0202301N002119999999N009999199+03301+01801999999ADDGA1021+009141991GE19MSL   +99999+99999GF199999021990009141991991MA1101401999990REMMET051METAR SBLP 081400Z 23004KT 9999 FEW030 33/18 Q1014=
0142832880999992013110815004-13262-043408FM-15+044399999V0209999C000019999999N009999199+03301+01801999999ADDGA1021+009141991GE19MSL   +99999+99999GF199999021990009141991991MA1101301999990REMMET051METAR SBLP 081500Z 00000KT 9999 FEW030 33/18 Q1013=
0142832880999992013110816004-13262-043408FM-15+044399999V0209999C000019999999N009999199+03401+01801999999ADDGA1021+009141991GE19MSL   +99999+99999GF199999021990009141991991MA1101201999990REMMET051METAR SBLP 081600Z 00000KT 9999 FEW030 34/18 Q1012=
0142832880999992013110817004-13262-043408FM-15+044399999V0200701N002619999999N009999199+03401+01701999999ADDGA1021+009141991GE19MSL   +99999+99999GF199999021990009141991991MA1101101999990REMMET051METAR SBLP 081700Z 07005KT 9999 FEW030 34/17 Q1011=
0136832880999992013110818004-13267-043417FM-12+044199999V0202701N0021199999999020000199+03441+02071100621ADDAA101999990AZ101061AZ201061GA1011+008001081GE19MSL   +99999+99999GF101991011990008001991991MA1999990095811MD1909990-0311REMSYN004BUFR
0142832880999992013110818004-13262-043408FM-15+044399999V0209999C000019999999N009999199+03501+01801999999ADDGA1021+009141991GE19MSL   +99999+99999GF199999021990009141991991MA1101001999990REMMET051METAR SBLP 081800Z 00000KT 9999 FEW030 35/18 Q1010=
0142832880999992013110819004-13262-043408FM-15+044399999V0202101N001019999999N009999199+03501+01701999999ADDGA1041+009141991GE19MSL   +99999+99999GF199999041990009141991991MA1100901999990REMMET051METAR SBLP 081900Z 21002KT 9999 SCT030 35/17 Q1009=
0142832880999992013110820004-13262-043408FM-15+044399999V0202101N002119999999N009999199+03501+01701999999ADDGA1021+009141991GE19MSL   +99999+99999GF199999021990009141991991MA1100901999990REMMET051METAR SBLP 082000Z 21004KT 9999 FEW030 35/17 Q1009=
0142832880999992013110821004-13262-043408FM-15+044399999V0209999C000019999999N009999199+03301+01801999999ADDGA1021+009141991GE19MSL   +99999+99999GF199999021990009141991991MA1100901999990REMMET051METAR SBLP 082100Z 00000KT 9999 FEW030 33/18 Q1009=
0136832880999992013110900004-13267-043417FM-12+044199999V0203601N0000199999999002000199+03041+02231100681ADDAA101999990AZ101061AZ201061GA1991+025001011GE19MSL   +99999+99999GF104991990990025001991991MA1999990095911MD1909990-0321REMSYN004BUFR
0142832880999992013110909154-13262-043408FM-16+044399999V0209999C000019999999N009999199+02301+02101999999ADDGA1021+006101991GE19MSL   +99999+99999GF199999021990006101991991MA1101201999990REMMET051SPECI SBLP 090915Z 00000KT 9999 FEW020 23/21 Q1012=
0072832880999992013110910004-13262-043408FM-15+044399999V0201201N002619999999Y999999999+02601+02101999999ADDMA1101301999990REMMET045METAR SBLP 091000Z 12005KT CAVOK 26/21 Q1013=
0072832880999992013110911004-13262-043408FM-15+044399999V0200901N003119999999Y999999999+02701+02201999999ADDMA1101301999990REMMET045METAR SBLP 091100Z 09006KT CAVOK 27/22 Q1013=
0171832880999992013110912004-13267-043417FM-12+044199999V0201401N0015199999999020000199+02771+02151100991ADDAA124015031AY191061AY261061GA1021+012501031GA2991+999991001GE19MSL   +99999+99999GF103991021990012501991991KA1120N+02281MA1999990096191MD1909990-0081MW1021REMSYN004BUFR
0072832880999992013110912004-13262-043408FM-15+044399999V0209999C000019999999Y999999999+03001+02201999999ADDMA1101301999990REMMET045METAR SBLP 091200Z 00000KT CAVOK 30/22 Q1013=
0072832880999992013110913004-13262-043408FM-15+044399999V0200401N003119999999Y999999999+03101+01901999999ADDMA1101301999990REMMET045METAR SBLP 091300Z 04006KT CAVOK 31/19 Q1013=
0072832880999992013110914004-13262-043408FM-15+044399999V0202901N003119999999Y999999999+03201+02101999999ADDMA1101201999990REMMET045METAR SBLP 091400Z 29006KT CAVOK 32/21 Q1012=
0142832880999992013110915004-13262-043408FM-15+044399999V0202701N001519999999N009999199+03301+01901999999ADDGA1021+009141991GE19MSL   +99999+99999GF199999021990009141991991MA1101101999990REMMET051METAR SBLP 091500Z 27003KT 9999 FEW030 33/19 Q1011=
0142832880999992013110916004-13262-043408FM-15+044399999V0203601N002119999999N009999199+03301+01801999999ADDGA1021+009141991GE19MSL   +99999+99999GF199999021990009141991991MA1101001999990REMMET051METAR SBLP 091600Z 36004KT 9999 FEW030 33/18 Q1010=
0142832880999992013110917004-13262-043408FM-15+044399999V0201701N002619999999N009999199+03301+01801999999ADDGA1021+009141991GE19MSL   +99999+99999GF199999021990009141991991MA1100901999990REMMET051METAR SBLP 091700Z 17005KT 9999 FEW030 33/18 Q1009=
0168832880999992013110918004-13267-043417FM-12+044199999V0202301N0010199999999020000199+03391+02041100511ADDAA101999990AZ101061AZ201061GA1021+008001081GA2991+999991001GA3991+999991031GE19MSL   +99999+99999GF106991021990008001991991MA1999990095731MD1909990-0081REMSYN004BUFR
0165832880999992013110918004-13262-043408FM-15+044399999V0200201N00261030481CN009999199+03501+02001999999ADDGA1021+009141991GA2041+030481991GE19MSL   +99999+99999GF199999021990009141991991MA1100901999990REMMET058METAR SBLP 091800Z 02005KT 9999 FEW030 SCT100 35/20 Q1009=
0165832880999992013110919004-13262-043408FM-15+044399999V0209999C000010304819N009999199+03401+02001999999ADDGA1041+009141991GA2071+030481991GE19MSL   +99999+99999GF199999041990009141991991MA1100801999990REMMET058METAR SBLP 091900Z 00000KT 9999 SCT030 BKN100 34/20 Q1008=
0165832880999992013110920004-13262-043408FM-15+044399999V0203601N002110304819N009999199+03301+02201999999ADDGA1041+009141991GA2071+030481991GE19MSL   +99999+99999GF199999041990009141991991MA1100901999990REMMET058METAR SBLP 092000Z 36004KT 9999 SCT030 BKN100 33/22 Q1009=
0188832880999992013110921004-13262-043408FM-15+044399999V0209999C00001009141CN009999199+03201+02101999999ADDGA1021+006101991GA2041+009141991GA3071+030481991GE19MSL   +99999+99999GF199999021990006101991991MA1100901999990REMMET065METAR SBLP 092100Z 00000KT 9999 FEW020 SCT030 BKN100 32/21 Q1009=
0165832880999992013111009154-13262-043408FM-16+044399999V0209999C000010304819N009999199+02601+02101999999ADDGA1021+009141991GA2071+030481991GE19MSL   +99999+99999GF199999021990009141991991MA1101101999990REMMET058SPECI SBLP 100915Z 00000KT 9999 FEW030 BKN100 26/21 Q1011=
0165832880999992013111010004-13262-043408FM-15+044399999V0209999C000010304819N009999199+02701+02101999999ADDGA1021+009141991GA2071+030481991GE19MSL   +99999+99999GF199999021990009141991991MA1101201999990REMMET058METAR SBLP 101000Z 00000KT 9999 FEW030 BKN100 27/21 Q1012=
0072832880999992013111011004-13262-043408FM-15+044399999V0209999C000019999999Y999999999+03001+02001999999ADDMA1101301999990REMMET045METAR SBLP 101100Z 00000KT CAVOK 30/20 Q1013=
0181832880999992013111012004-13267-043417FM-12+044199999V0200901N0005199999999020000199+03001+01911100921ADDAA101999990AZ101061AZ201061GA1011+008001081GA2991+999991001GA3991+999991031GE19MSL   +99999+99999GF105991011990008001991991KA1120N+02521MA1999990096141MD1909990-0051REMSYN004BUFR
0165832880999992013111012004-13262-043408FM-15+044399999V0202301N00151030481CN009999199+03101+02001999999ADDGA1021+009141991GA2041+030481991GE19MSL   +99999+99999GF199999021990009141991991MA1101301999990REMMET058METAR SBLP 101200Z 23003KT 9999 FEW030 SCT100 31/20 Q1013=
0165832880999992013111013004-13262-043408FM-15+044399999V0202601N00151030481CN009999199+03301+01901999999ADDGA1021+009141991GA2041+030481991GE19MSL   +99999+99999GF199999021990009141991991MA1101301999990REMMET058METAR SBLP 101300Z 26003KT 9999 FEW030 SCT100 33/19 Q1013=
0188832880999992013111014004-13262-043408FM-15+044399999V0202001N00411009141CN009999199+03201+02101999999ADDGA1021+006101991GA2041+009141991GA3071+030481991GE19MSL   +99999+99999GF199999021990006101991991MA1101301999990REMMET065METAR SBLP 101400Z 20008KT 9999 FEW020 SCT030 BKN100 32/21 Q1013=
0165832880999992013111015004-13262-043408FM-15+044399999V0201901N00361030481CN009999199+03401+02101999999ADDGA1021+009141991GA2041+030481991GE19MSL   +99999+99999GF199999021990009141991991MA1101201999990REMMET058METAR SBLP 101500Z 19007KT 9999 FEW030 SCT100 34/21 Q1012=
0142832880999992013111016004-13262-043408FM-15+044399999V0201701N002619999999N009999199+03401+01801999999ADDGA1021+009141991GE19MSL   +99999+99999GF199999021990009141991991MA1101001999990REMMET051METAR SBLP 101600Z 17005KT 9999 FEW030 34/18 Q1010=
0142832880999992013111017004-13262-043408FM-15+044399999V0209999C000019999999N009999199+03501+01801999999ADDGA1041+009141991GE19MSL   +99999+99999GF199999041990009141991991MA1100901999990REMMET051METAR SBLP 101700Z 00000KT 9999 SCT030 35/18 Q1009=
0152832880999992013111018004-13267-043417FM-12+044199999V0200901N0010199999999020000199+03371+01951100451ADDAA101999990AZ101061AZ201061GA1031+008001081GA2991+999991031GE19MSL   +99999+99999GF105991031990008001991991MA1999990095691MD1909990-0041REMSYN004BUFR
0142832880999992013111018004-13262-043408FM-15+044399999V0209999C000019999999N009999199+03501+01801999999ADDGA1041+009141991GE19MSL   +99999+99999GF199999041990009141991991MA1100801999990REMMET051METAR SBLP 101800Z 00000KT 9999 SCT030 35/18 Q1008=
0142832880999992013111019004-13262-043408FM-15+044399999V0200601N002619999999N009999199+03401+01801999999ADDGA1041+009141991GE19MSL   +99999+99999GF199999041990009141991991MA1100801999990REMMET051METAR SBLP 101900Z 06005KT 9999 SCT030 34/18 Q1008=
0142832880999992013111020004-13262-043408FM-15+044399999V0200701N002119999999N009999199+03301+01801999999ADDGA1021+009141991GE19MSL   +99999+99999GF199999021990009141991991MA1100801999990REMMET051METAR SBLP 102000Z 07004KT 9999 FEW030 33/18 Q1008=
0176832880999992013111021004-13262-043408FM-15+044399999V0209999C000019999999N009999199+03201+01801999999ADDGA1021+009141991GA2021+012191091GE19MSL   +99999+99999GF199999021990009141991991MA1100801999990MW1171REMMET063METAR SBLP 102100Z 00000KT 9999 TS FEW030 FEW040CB 32/18 Q1008=
0142832880999992013111109154-13262-043408FM-16+044399999V0209999C000019999999N009999199+02301+02101999999ADDGA1021+009141991GE19MSL   +99999+99999GF199999021990009141991991MA1101201999990REMMET051SPECI SBLP 110915Z 00000KT 9999 FEW030 23/21 Q1012=
0142832880999992013111110004-13262-043408FM-15+044399999V0209999C000019999999N009999199+02501+02201999999ADDGA1041+009141991GE19MSL   +99999+99999GF199999041990009141991991MA1101301999990REMMET051METAR SBLP 111000Z 00000KT 9999 SCT030 25/22 Q1013=
0142832880999992013111111004-13262-043408FM-15+044399999V0201901N002119999999N009999199+02901+02001999999ADDGA1021+009141991GE19MSL   +99999+99999GF199999021990009141991991MA1101301999990REMMET051METAR SBLP 111100Z 19004KT 9999 FEW030 29/20 Q1013=
0111832880999992013111112004-13267-043417FM-12+044199999V0201401N0015122000199020000199+02941+02051100941ADDAA101999990AZ101061AZ201061GF100991999999999999999999KA1120N+02351MA1999990095131MD1909990-0011REMSYN004BUFR
0072832880999992013111112004-13262-043408FM-15+044399999V0201701N002119999999Y999999999+03201+02101999999ADDMA1101301999990REMMET045METAR SBLP 111200Z 17004KT CAVOK 32/21 Q1013=
0142832880999992013111113004-13262-043408FM-15+044399999V0209999C000019999999N009999199+03401+02001999999ADDGA1021+009141991GE19MSL   +99999+99999GF199999021990009141991991MA1101301999990REMMET051METAR SBLP 111300Z 00000KT 9999 FEW030 34/20 Q1013=
0142832880999992013111114004-13262-043408FM-15+044399999V0202301N002619999999N009999199+03401+02001999999ADDGA1021+009141991GE19MSL   +99999+99999GF199999021990009141991991MA1101301999990REMMET051METAR SBLP 111400Z 23005KT 9999 FEW030 34/20 Q1013=
0142832880999992013111115004-13262-043408FM-15+044399999V0209999C000019999999N009999199+03501+01801999999ADDGA1041+009141991GE19MSL   +99999+99999GF199999041990009141991991MA1101201999990REMMET051METAR SBLP 111500Z 00000KT 9999 SCT030 35/18 Q1012=
0142832880999992013111116004-13262-043408FM-15+044399999V0202801N002119999999N009999199+03601+01601999999ADDGA1041+009141991GE19MSL   +99999+99999GF199999041990009141991991MA1101001999990REMMET051METAR SBLP 111600Z 28004KT 9999 SCT030 36/16 Q1010=
0142832880999992013111117004-13262-043408FM-15+044399999V0200201N002119999999N009999199+03501+01701999999ADDGA1041+009141991GE19MSL   +99999+99999GF199999041990009141991991MA1100901999990REMMET051METAR SBLP 111700Z 02004KT 9999 SCT030 35/17 Q1009=
0136832880999992013111118004-13267-043417FM-12+044199999V0201401N0015199999999020000199+03441+02001100451ADDAA101999990AZ101061AZ201061GA1041+008001081GE19MSL   +99999+99999GF104991041990008001991991MA1999990095681MD1909990-0011REMSYN004BUFR
0142832880999992013111118004-13262-043408FM-15+044399999V0203201N001519999999N009999199+03601+01701999999ADDGA1041+009141991GE19MSL   +99999+99999GF199999041990009141991991MA1100801999990REMMET051METAR SBLP 111800Z 32003KT 9999 SCT030 36/17 Q1008=
0142832880999992013111119004-13262-043408FM-15+044399999V0203401N004119999999N009999199+03601+01701999999ADDGA1041+009141991GE19MSL   +99999+99999GF199999041990009141991991MA1100801999990REMMET051METAR SBLP 111900Z 34008KT 9999 SCT030 36/17 Q1008=
0142832880999992013111120004-13262-043408FM-15+044399999V0202401N004119999999N009999199+03401+01901999999ADDGA1041+009141991GE19MSL   +99999+99999GF199999041990009141991991MA1100801999990REMMET051METAR SBLP 112000Z 24008KT 9999 SCT030 34/19 Q1008=
0142832880999992013111121004-13262-043408FM-15+044399999V0201701N001019999999N009999199+03101+01901999999ADDGA1041+009141991GE19MSL   +99999+99999GF199999041990009141991991MA1100901999990REMMET051METAR SBLP 112100Z 17002KT 9999 SCT030 31/19 Q1009=
0136832880999992013111200004-13267-043417FM-12+044199999V0200501N0015101750199002000199+02801+02131100811ADDAA101999990AZ101061AZ201061GA1051+017501031GE19MSL   +99999+99999GF105991051990017501991991MA1999990096021MD1909990+0201REMSYN004BUFR
0072832880999992013111209154-13262-043408FM-16+044399999V0209999C000019999999Y999999999+02401+02201999999ADDMA1101301999990REMMET045SPECI SBLP 120915Z 00000KT CAVOK 24/22 Q1013=
0142832880999992013111210004-13262-043408FM-15+044399999V0209999C000019999999N009999199+02701+02201999999ADDGA1021+009141991GE19MSL   +99999+99999GF199999021990009141991991MA1101401999990REMMET051METAR SBLP 121000Z 00000KT 9999 FEW030 27/22 Q1014=
0072832880999992013111211004-13262-043408FM-15+044399999V0209999C000019999999Y999999999+02901+02101999999ADDMA1101401999990REMMET045METAR SBLP 121100Z 00000KT CAVOK 29/21 Q1014=
0165832880999992013111212004-13267-043417FM-12+044199999V0202301N0005199999999020000199+02891+02111101091ADDAA101999990AZ101061AZ201061GA1021+012501051GA2991+999991001GE19MSL   +99999+99999GF104991021990012501991991KA1120N+02301MA1999990096271MD1909990+0141REMSYN004BUFR
0142832880999992013111212004-13262-043408FM-15+044399999V0201701N002119999999N009999199+03101+02001999999ADDGA1021+009141991GE19MSL   +99999+99999GF199999021990009141991991MA1101401999990REMMET051METAR SBLP 121200Z 17004KT 9999 FEW030 31/20 Q1014=
0142832880999992013111213004-13262-043408FM-15+044399999V0200701N002619999999N009999199+03201+02001999999ADDGA1021+009141991GE19MSL   +99999+99999GF199999021990009141991991MA1101401999990REMMET051METAR SBLP 121300Z 07005KT 9999 FEW030 32/20 Q1014=
0142832880999992013111214004-13262-043408FM-15+044399999V0200301N002119999999N009999199+03301+02101999999ADDGA1041+009141991GE19MSL   +99999+99999GF199999041990009141991991MA1101401999990REMMET051METAR SBLP 121400Z 03004KT 9999 SCT030 33/21 Q1014=
0142832880999992013111215004-13262-043408FM-15+044399999V0200601N001519999999N009999199+03401+02001999999ADDGA1041+009141991GE19MSL   +99999+99999GF199999041990009141991991MA1101301999990REMMET051METAR SBLP 121500Z 06003KT 9999 SCT030 34/20 Q1013=
0142832880999992013111216004-13262-043408FM-15+044399999V0202601N001019999999N009999199+03401+01901999999ADDGA1041+009141991GE19MSL   +99999+99999GF199999041990009141991991MA1101101999990REMMET051METAR SBLP 121600Z 26002KT 9999 SCT030 34/19 Q1011=
0142832880999992013111217004-13262-043408FM-15+044399999V0200401N001510091419N009999199+03601+01901999999ADDGA1071+009141991GE19MSL   +99999+99999GF199999071990009141991991MA1101001999990REMMET051METAR SBLP 121700Z 04003KT 9999 BKN030 36/19 Q1010=
0136832880999992013111218004-13267-043417FM-12+044199999V0200501N0015100450199020000199+03171+02001100681ADDAA101999990AZ101061AZ201061GA1061+004501061GE19MSL   +99999+99999GF106991061990004501991991MA1999990095831MD1909990+0151REMSYN004BUFR
0142832880999992013111218004-13262-043408FM-15+044399999V0201601N007210091419N009999199+03401+01901999999ADDGA1071+009141991GE19MSL   +99999+99999GF199999071990009141991991MA1101001999990REMMET051METAR SBLP 121800Z 16014KT 9999 BKN030 34/19 Q1010=
0142832880999992013111219004-13262-043408FM-15+044399999V0201901N004110091419N009999199+03301+02001999999ADDGA1071+009141991GE19MSL   +99999+99999GF199999071990009141991991MA1101001999990REMMET051METAR SBLP 121900Z 19008KT 9999 BKN030 33/20 Q1010=
0142832880999992013111220004-13262-043408FM-15+044399999V0203401N011319999999N009999199+03501+01701999999ADDGA1041+009141991GE19MSL   +99999+99999GF199999041990009141991991MA1100901999990REMMET051METAR SBLP 122000Z 34022KT 9999 SCT030 35/17 Q1009=
0142832880999992013111221004-13262-043408FM-15+044399999V0209999C000019999999N009999199+03301+01801999999ADDGA1041+009141991GE19MSL   +99999+99999GF199999041990009141991991MA1101001999990REMMET051METAR SBLP 122100Z 00000KT 9999 SCT030 33/18 Q1010=
0136832880999992013111300004-13267-043417FM-12+044199999V0201401N0010199999999002000199+02891+02071100801ADDAA101999990AZ101061AZ201061GA1041+012501031GE19MSL   +99999+99999GF104991041990012501991991MA1999990096011MD1909990-0011REMSYN004BUFR
0072832880999992013111309154-13262-043408FM-16+044399999V0201301N001519999999Y999999999+02401+02001999999ADDMA1101301999990REMMET045SPECI SBLP 130915Z 13003KT CAVOK 24/20 Q1013=
0072832880999992013111310004-13262-043408FM-15+044399999V0201001N001519999999Y999999999+02701+02101999999ADDMA1101301999990REMMET045METAR SBLP 131000Z 10003KT CAVOK 27/21 Q1013=
0072832880999992013111311004-13262-043408FM-15+044399999V0209999C000019999999Y999999999+02901+02001999999ADDMA1101401999990REMMET045METAR SBLP 131100Z 00000KT CAVOK 29/20 Q1014=
0165832880999992013111312004-13267-043417FM-12+044199999V0203601N0010199999999020000199+02991+02021101001ADDAA101999990AZ101061AZ201061GA1021+012501031GA2991+999991021GE19MSL   +99999+99999GF104991021990012501991991KA1120N+02361MA1999990096211MD1909990-0061REMSYN004BUFR
0072832880999992013111312004-13262-043408FM-15+044399999V0209999C000019999999Y999999999+03201+01801999999ADDMA1101401999990REMMET045METAR SBLP 131200Z 00000KT CAVOK 32/18 Q1014=
0072832880999992013111313004-13262-043408FM-15+044399999V0209999N999999999999Y999999999+03301+01901999999ADDMA1101401999990REMMET045METAR SBLP 131300Z /////KT CAVOK 33/19 Q1014=
0142832880999992013111314004-13262-043408FM-15+044399999V0209999N999999999999N009999199+03501+01801999999ADDGA1021+009141991GE19MSL   +99999+99999GF199999021990009141991991MA1101301999990REMMET051METAR SBLP 131400Z /////KT 9999 FEW030 35/18 Q1013=
0142832880999992013111315004-13262-043408FM-15+044399999V0209999N999999999999N009999199+03501+01801999999ADDGA1021+009141991GE19MSL   +99999+99999GF199999021990009141991991MA1101201999990REMMET051METAR SBLP 131500Z /////KT 9999 FEW030 35/18 Q1012=
0142832880999992013111316004-13262-043408FM-15+044399999V0209999N999999999999N009999199+03601+01701999999ADDGA1041+009141991GE19MSL   +99999+99999GF199999041990009141991991MA1101101999990REMMET051METAR SBLP 131600Z /////KT 9999 SCT030 36/17 Q1011=
0142832880999992013111317004-13262-043408FM-15+044399999V0209999N999999999999N009999199+03601+01601999999ADDGA1041+009141991GE19MSL   +99999+99999GF199999041990009141991991MA1101001999990REMMET051METAR SBLP 131700Z /////KT 9999 SCT030 36/16 Q1010=
0152832880999992013111318004-13267-043417FM-12+044199999V0201801N0005199999999020000199+03591+02111100421ADDAA101999990AZ101061AZ201061GA1031+008001081GA2991+999991021GE19MSL   +99999+99999GF104991031990008001991991MA1999990095661MD1909990-0171REMSYN004BUFR
0142832880999992013111318004-13262-043408FM-15+044399999V0209999N999999999999N009999199+03801+01501999999ADDGA1041+009141991GE19MSL   +99999+99999GF199999041990009141991991MA1100801999990REMMET051METAR SBLP 131800Z /////KT 9999 SCT030 38/15 Q1008=
0142832880999992013111319004-13262-043408FM-15+044399999V0209999N999999999999N009999199+03801+01501999999ADDGA1041+009141991GE19MSL   +99999+99999GF199999041990009141991991MA1100701999990REMMET051METAR SBLP 131900Z /////KT 9999 SCT030 38/15 Q1007=
0142832880999992013111320004-13262-043408FM-15+044399999V0209999N999999999999N009999199+03701+01401999999ADDGA1041+009141991GE19MSL   +99999+99999GF199999041990009141991991MA1100701999990REMMET051METAR SBLP 132000Z /////KT 9999 SCT030 37/14 Q1007=
0142832880999992013111321004-13262-043408FM-15+044399999V0209999N999999999999N009999199+03501+01601999999ADDGA1021+009141991GE19MSL   +99999+99999GF199999021990009141991991MA1100801999990REMMET051METAR SBLP 132100Z /////KT 9999 FEW030 35/16 Q1008=
0152832880999992013111400004-13267-043417FM-12+044199999V0200901N0010199999999002000199+03091+01861100631ADDAA101999990AZ101061AZ201061GA1041+008001081GA2991+999991031GE19MSL   +99999+99999GF106991041990008001991991MA1999990095871MD1909990-0141REMSYN004BUFR
0072832880999992013111409154-13262-043408FM-16+044399999V0209999N999999999999Y999999999+02501+01801999999ADDMA1101401999990REMMET045SPECI SBLP 140915Z /////KT CAVOK 25/18 Q1014=
0072832880999992013111410004-13262-043408FM-15+044399999V0209999N999999999999Y999999999+02801+01801999999ADDMA1101501999990REMMET045METAR SBLP 141000Z /////KT CAVOK 28/18 Q1015=
0072832880999992013111411004-13262-043408FM-15+044399999V0209999N999999999999Y999999999+02901+01801999999ADDMA1101501999990REMMET045METAR SBLP 141100Z /////KT CAVOK 29/18 Q1015=
0111832880999992013111412004-13267-043417FM-12+044199999V0200901N0026122000199020000199+02871+01901101111ADDAA101999990AZ101061AZ201061GF100991999999999999999999KA1120N+02481MA1999990096321MD1909990+0111REMSYN004BUFR
0142832880999992013111412004-13262-043408FM-15+044399999V0209999N999999999999N009999199+03101+01801999999ADDGA1021+009141991GE19MSL   +99999+99999GF199999021990009141991991MA1101501999990REMMET051METAR SBLP 141200Z /////KT 9999 FEW030 31/18 Q1015=
0142832880999992013111413004-13262-043408FM-15+044399999V0209999N999999999999N009999199+03301+01701999999ADDGA1021+009141991GE19MSL   +99999+99999GF199999021990009141991991MA1101501999990REMMET051METAR SBLP 141300Z /////KT 9999 FEW030 33/17 Q1015=
0142832880999992013111414004-13262-043408FM-15+044399999V0209999N999999999999N009999199+03401+01701999999ADDGA1021+009141991GE19MSL   +99999+99999GF199999021990009141991991MA1101401999990REMMET051METAR SBLP 141400Z /////KT 9999 FEW030 34/17 Q1014=
0142832880999992013111415004-13262-043408FM-15+044399999V0209999N999999999999N009999199+03501+01601999999ADDGA1041+009141991GE19MSL   +99999+99999GF199999041990009141991991MA1101301999990REMMET051METAR SBLP 141500Z /////KT 9999 SCT030 35/16 Q1013=
0142832880999992013111416004-13262-043408FM-15+044399999V0209999N999999999999N009999199+03601+01701999999ADDGA1041+009141991GE19MSL   +99999+99999GF199999041990009141991991MA1101201999990REMMET051METAR SBLP 141600Z /////KT 9999 SCT030 36/17 Q1012=
0142832880999992013111417004-13262-043408FM-15+044399999V0209999N999999999999N009999199+03601+01501999999ADDGA1041+009141991GE19MSL   +99999+99999GF199999041990009141991991MA1101101999990REMMET051METAR SBLP 141700Z /////KT 9999 SCT030 36/15 Q1011=
0136832880999992013111418004-13267-043417FM-12+044199999V0201401N0015199999999020000199+03451+01641100531ADDAA101999990AZ101061AZ201061GA1011+008001081GE19MSL   +99999+99999GF101991011990008001991991MA1999990095771MD1909990+0111REMSYN004BUFR
0142832880999992013111418004-13262-043408FM-15+044399999V0209999N999999999999N009999199+03601+01701999999ADDGA1041+009141991GE19MSL   +99999+99999GF199999041990009141991991MA1101001999990REMMET051METAR SBLP 141800Z /////KT 9999 SCT030 36/17 Q1010=
0142832880999992013111419004-13262-043408FM-15+044399999V0209999N999990091419N009999199+03701+01701999999ADDGA1071+009141991GE19MSL   +99999+99999GF199999071990009141991991MA1100901999990REMMET051METAR SBLP 141900Z /////KT 9999 BKN030 37/17 Q1009=
0142832880999992013111420004-13262-043408FM-15+044399999V0209999N999990091419N009999199+03601+01501999999ADDGA1071+009141991GE19MSL   +99999+99999GF199999071990009141991991MA1100901999990REMMET051METAR SBLP 142000Z /////KT 9999 BKN030 36/15 Q1009=
0136832880999992013111500004-13267-043417FM-12+044199999V0201401N0015100800199002000199+03101+01541100781ADDAA101999990AZ101061AZ201061GA1071+008001081GE19MSL   +99999+99999GF107991071990008001991991MA1999990096011MD1909990+0141REMSYN004BUFR
0072832880999992013111510004-13262-043408FM-15+044399999V0209999N999999999999Y999999999+02601+01501999999ADDMA1101501999990REMMET045METAR SBLP 151000Z /////KT CAVOK 26/15 Q1015=
0072832880999992013111511004-13262-043408FM-15+044399999V0209999N999999999999Y999999999+02801+01501999999ADDMA1101701999990REMMET045METAR SBLP 151100Z /////KT CAVOK 28/15 Q1017=
0072832880999992013111512004-13262-043408FM-15+044399999V0209999N999999999999Y999999999+03001+01701999999ADDMA1101601999990REMMET045METAR SBLP 151200Z /////KT CAVOK 30/17 Q1016=
0072832880999992013111513004-13262-043408FM-15+044399999V0209999N999999999999Y999999999+03001+01701999999ADDMA1101601999990REMMET045METAR SBLP 151300Z /////KT CAVOK 30/17 Q1016=
0165832880999992013111515004-13262-043408FM-15+044399999V0209999N99999030481CN009999199+03501+01801999999ADDGA1021+009141991GA2041+030481991GE19MSL   +99999+99999GF199999021990009141991991MA1101401999990REMMET058METAR SBLP 151500Z /////KT 9999 FEW030 SCT100 35/18 Q1014=
0165832880999992013111516004-13262-043408FM-15+044399999V0209999N99999030481CN009999199+03601+01201999999ADDGA1021+009141991GA2041+030481991GE19MSL   +99999+99999GF199999021990009141991991MA1101201999990REMMET058METAR SBLP 151600Z /////KT 9999 FEW030 SCT100 36/12 Q1012=
0165832880999992013111517004-13262-043408FM-15+044399999V0209999N99999030481CN009999199+03401+01101999999ADDGA1021+009141991GA2041+030481991GE19MSL   +99999+99999GF199999021990009141991991MA1101201999990REMMET058METAR SBLP 151700Z /////KT 9999 FEW030 SCT100 34/11 Q1012=
0165832880999992013111518004-13262-043408FM-15+044399999V0209999N99999030481CN009999199+03501+01101999999ADDGA1021+009141991GA2041+030481991GE19MSL   +99999+99999GF199999021990009141991991MA1101101999990REMMET058METAR SBLP 151800Z /////KT 9999 FEW030 SCT100 35/11 Q1011=
0165832880999992013111519004-13262-043408FM-15+044399999V0209999N99999030481CN009999199+03601+00901999999ADDGA1041+009141991GA2041+030481991GE19MSL   +99999+99999GF199999041990009141991991MA1101001999990REMMET058METAR SBLP 151900Z /////KT 9999 SCT030 SCT100 36/09 Q1010=
0165832880999992013111520004-13262-043408FM-15+044399999V0209999N99999030481CN009999199+03501+01101999999ADDGA1021+009141991GA2041+030481991GE19MSL   +99999+99999GF199999021990009141991991MA1101001999990REMMET058METAR SBLP 152000Z /////KT 9999 FEW030 SCT100 35/11 Q1010=
0142832880999992013111521004-13262-043408FM-15+044399999V0209999N999999999999N009999199+03301+01101999999ADDGA1041+009141991GE19MSL   +99999+99999GF199999041990009141991991MA1101101999990REMMET051METAR SBLP 152100Z /////KT 9999 SCT030 33/11 Q1011=
0142832880999992013111609154-13262-043408FM-16+044399999V0209999N999999999999N009999199+02201+01601999999ADDGA1021+009141991GE19MSL   +99999+99999GF199999021990009141991991MA1101501999990REMMET051SPECI SBLP 160915Z /////KT 9999 FEW030 22/16 Q1015=
0142832880999992013111610004-13262-043408FM-15+044399999V0209999N999999999999N009999199+02501+01701999999ADDGA1021+009141991GE19MSL   +99999+99999GF199999021990009141991991MA1101601999990REMMET051METAR SBLP 161000Z /////KT 9999 FEW030 25/17 Q1016=
0142832880999992013111611004-13262-043408FM-15+044399999V0209999N999999999999N009999199+02801+01601999999ADDGA1021+009141991GE19MSL   +99999+99999GF199999021990009141991991MA1101601999990REMMET051METAR SBLP 161100Z /////KT 9999 FEW030 28/16 Q1016=
0072832880999992013111612004-13262-043408FM-15+044399999V0209999N999999999999Y999999999+02901+01501999999ADDMA1101601999990REMMET045METAR SBLP 161200Z /////KT CAVOK 29/15 Q1016=
0142832880999992013111613004-13262-043408FM-15+044399999V0209999N999999999999N009999199+03101+01601999999ADDGA1021+009141991GE19MSL   +99999+99999GF199999021990009141991991MA1101601999990REMMET051METAR SBLP 161300Z /////KT 9999 FEW030 31/16 Q1016=
0142832880999992013111614004-13262-043408FM-15+044399999V0209999N999999999999N009999199+03301+01601999999ADDGA1021+009141991GE19MSL   +99999+99999GF199999021990009141991991MA1101501999990REMMET051METAR SBLP 161400Z /////KT 9999 FEW030 33/16 Q1015=
0142832880999992013111615004-13262-043408FM-15+044399999V0209999N999999999999N009999199+03301+01601999999ADDGA1021+009141991GE19MSL   +99999+99999GF199999021990009141991991MA1101301999990REMMET051METAR SBLP 161500Z /////KT 9999 FEW030 33/16 Q1013=
0142832880999992013111616004-13262-043408FM-15+044399999V0209999N999999999999N009999199+03301+01501999999ADDGA1021+009141991GE19MSL   +99999+99999GF199999021990009141991991MA1101201999990REMMET051METAR SBLP 161600Z /////KT 9999 FEW030 33/15 Q1012=
0142832880999992013111617004-13262-043408FM-15+044399999V0209999N999999999999N009999199+03401+01501999999ADDGA1041+009141991GE19MSL   +99999+99999GF199999041990009141991991MA1101101999990REMMET051METAR SBLP 161700Z /////KT 9999 SCT030 34/15 Q1011=
0142832880999992013111618004-13262-043408FM-15+044399999V0209999N999999999999N009999199+03501+01401999999ADDGA1041+009141991GE19MSL   +99999+99999GF199999041990009141991991MA1101001999990REMMET051METAR SBLP 161800Z /////KT 9999 SCT030 35/14 Q1010=
0142832880999992013111619004-13262-043408FM-15+044399999V0209999N999999999999N009999199+03501+01601999999ADDGA1041+009141991GE19MSL   +99999+99999GF199999041990009141991991MA1100901999990REMMET051METAR SBLP 161900Z /////KT 9999 SCT030 35/16 Q1009=
0142832880999992013111620004-13262-043408FM-15+044399999V0209999N999999999999N009999199+03401+01401999999ADDGA1041+009141991GE19MSL   +99999+99999GF199999041990009141991991MA1100901999990REMMET051METAR SBLP 162000Z /////KT 9999 SCT030 34/14 Q1009=
0142832880999992013111621004-13262-043408FM-15+044399999V0209999N999999999999N009999199+03401+01401999999ADDGA1041+009141991GE19MSL   +99999+99999GF199999041990009141991991MA1100901999990REMMET051METAR SBLP 162100Z /////KT 9999 SCT030 34/14 Q1009=
0072832880999992013111709154-13262-043408FM-16+044399999V0209999N999999999999Y999999999+02301+01601999999ADDMA1101301999990REMMET045SPECI SBLP 170915Z /////KT CAVOK 23/16 Q1013=
0072832880999992013111710004-13262-043408FM-15+044399999V0209999N999999999999Y999999999+02501+01601999999ADDMA1101301999990REMMET045METAR SBLP 171000Z /////KT CAVOK 25/16 Q1013=
0072832880999992013111711004-13262-043408FM-15+044399999V0209999N999999999999Y999999999+02701+01501999999ADDMA1101401999990REMMET045METAR SBLP 171100Z /////KT CAVOK 27/15 Q1014=
0072832880999992013111712004-13262-043408FM-15+044399999V0209999N999999999999Y999999999+02901+01501999999ADDMA1101401999990REMMET045METAR SBLP 171200Z /////KT CAVOK 29/15 Q1014=
0072832880999992013111713004-13262-043408FM-15+044399999V0209999N999999999999Y999999999+03201+01701999999ADDMA1101401999990REMMET045METAR SBLP 171300Z /////KT CAVOK 32/17 Q1014=
0142832880999992013111714004-13262-043408FM-15+044399999V0209999N999999999999N009999199+03301+01701999999ADDGA1021+009141991GE19MSL   +99999+99999GF199999021990009141991991MA1101401999990REMMET051METAR SBLP 171400Z /////KT 9999 FEW030 33/17 Q1014=
0142832880999992013111715004-13262-043408FM-15+044399999V0209999N999999999999N009999199+03501+01601999999ADDGA1041+009141991GE19MSL   +99999+99999GF199999041990009141991991MA1101301999990REMMET051METAR SBLP 171500Z /////KT 9999 SCT030 35/16 Q1013=
0142832880999992013111716004-13262-043408FM-15+044399999V0209999N999999999999N009999199+03501+01501999999ADDGA1041+009141991GE19MSL   +99999+99999GF199999041990009141991991MA1101101999990REMMET051METAR SBLP 171600Z /////KT 9999 SCT030 35/15 Q1011=
0142832880999992013111717004-13262-043408FM-15+044399999V0209999N999999999999N009999199+03601+01501999999ADDGA1041+009141991GE19MSL   +99999+99999GF199999041990009141991991MA1101001999990REMMET051METAR SBLP 171700Z /////KT 9999 SCT030 36/15 Q1010=
0142832880999992013111718004-13262-043408FM-15+044399999V0209999N999999999999N009999199+03501+01701999999ADDGA1041+009141991GE19MSL   +99999+99999GF199999041990009141991991MA1100901999990REMMET051METAR SBLP 171800Z /////KT 9999 SCT030 35/17 Q1009=
0142832880999992013111719004-13262-043408FM-15+044399999V0209999N999999999999N009999199+03601+01301999999ADDGA1041+009141991GE19MSL   +99999+99999GF199999041990009141991991MA1100801999990REMMET051METAR SBLP 171900Z /////KT 9999 SCT030 36/13 Q1008=
0142832880999992013111720004-13262-043408FM-15+044399999V0209999N999999999999N009999199+03601+01201999999ADDGA1041+009141991GE19MSL   +99999+99999GF199999041990009141991991MA1100801999990REMMET051METAR SBLP 172000Z /////KT 9999 SCT030 36/12 Q1008=
0165832880999992013111721004-13262-043408FM-15+044399999V0209999N999990091419N009999199+03201+01501999999ADDGA1041+006101991GA2071+009141991GE19MSL   +99999+99999GF199999041990006101991991MA1100801999990REMMET058METAR SBLP 172100Z /////KT 9999 SCT020 BKN030 32/15 Q1008=
0072832880999992013111809154-13262-043408FM-16+044399999V0209999N999999999999Y999999999+02201+01601999999ADDMA1101201999990REMMET045SPECI SBLP 180915Z /////KT CAVOK 22/16 Q1012=
0072832880999992013111810004-13262-043408FM-15+044399999V0209999N999999999999Y999999999+02601+01401999999ADDMA1101301999990REMMET045METAR SBLP 181000Z /////KT CAVOK 26/14 Q1013=
0072832880999992013111811004-13262-043408FM-15+044399999V0209999N999999999999Y999999999+02901+01501999999ADDMA1101301999990REMMET045METAR SBLP 181100Z /////KT CAVOK 29/15 Q1013=
0072832880999992013111812004-13262-043408FM-15+044399999V0209999N999999999999Y999999999+03101+01501999999ADDMA1101401999990REMMET045METAR SBLP 181200Z /////KT CAVOK 31/15 Q1014=
0072832880999992013111813004-13262-043408FM-15+044399999V0209999N999999999999Y999999999+03301+01401999999ADDMA1101401999990REMMET045METAR SBLP 181300Z /////KT CAVOK 33/14 Q1014=
0142832880999992013111814004-13262-043408FM-15+044399999V0209999N999999999999N009999199+03401+01401999999ADDGA1021+009141991GE19MSL   +99999+99999GF199999021990009141991991MA1101301999990REMMET051METAR SBLP 181400Z /////KT 9999 FEW030 34/14 Q1013=
0142832880999992013111815004-13262-043408FM-15+044399999V0209999N999999999999N009999199+03501+01301999999ADDGA1021+009141991GE19MSL   +99999+99999GF199999021990009141991991MA1101201999990REMMET051METAR SBLP 181500Z /////KT 9999 FEW030 35/13 Q1012=
0142832880999992013111816004-13262-043408FM-15+044399999V0209999N999999999999N009999199+03501+01301999999ADDGA1041+009141991GE19MSL   +99999+99999GF199999041990009141991991MA1101101999990REMMET051METAR SBLP 181600Z /////KT 9999 SCT030 35/13 Q1011=
0142832880999992013111817004-13262-043408FM-15+044399999V0209999N999990091419N009999199+03601+01201999999ADDGA1071+009141991GE19MSL   +99999+99999GF199999071990009141991991MA1101001999990REMMET051METAR SBLP 181700Z /////KT 9999 BKN030 36/12 Q1010=
0168832880999992013111818004-13267-043417FM-12+044199999V0201401N0005199999999020000199+03471+01791100561ADDAA101999990AZ101061AZ201061GA1031+004501061GA2991+999991021GA3991+999991051GE19MSL   +99999+99999GF106991031990004501991991MA1999990095801MD1909990+0121REMSYN004BUFR
0142832880999992013111818004-13262-043408FM-15+044399999V0209999N999990091419N009999199+03601+01301999999ADDGA1071+009141991GE19MSL   +99999+99999GF199999071990009141991991MA1100901999990REMMET051METAR SBLP 181800Z /////KT 9999 BKN030 36/13 Q1009=
0142832880999992013111819004-13262-043408FM-15+044399999V0209999N999999999999N009999199+03701+01201999999ADDGA1041+009141991GE19MSL   +99999+99999GF199999041990009141991991MA1100901999990REMMET051METAR SBLP 181900Z /////KT 9999 SCT030 37/12 Q1009=
0142832880999992013111820004-13262-043408FM-15+044399999V0209999N999999999999N009999199+03601+01101999999ADDGA1041+009141991GE19MSL   +99999+99999GF199999041990009141991991MA1100901999990REMMET051METAR SBLP 182000Z /////KT 9999 SCT030 36/11 Q1009=
0142832880999992013111821004-13262-043408FM-15+044399999V0209999N999999999999N009999199+03301+01101999999ADDGA1021+009141991GE19MSL   +99999+99999GF199999021990009141991991MA1100901999990REMMET051METAR SBLP 182100Z /////KT 9999 FEW030 33/11 Q1009=
0098832880999992013111900004-13267-043417FM-12+044199999V0201401N0036122000199002000199+02891+01321100821ADDAA101999990AZ101061AZ201061GF100991999999999999999999MA1999990096031MD1909990-0071REMSYN004BUFR
0072832880999992013111909154-13262-043408FM-16+044399999V0209999N999999999999Y999999999+02201+01501999999ADDMA1101401999990REMMET045SPECI SBLP 190915Z /////KT CAVOK 22/15 Q1014=
0072832880999992013111910004-13262-043408FM-15+044399999V0209999N999999999999Y999999999+02501+01601999999ADDMA1101401999990REMMET045METAR SBLP 191000Z /////KT CAVOK 25/16 Q1014=
0072832880999992013111911004-13262-043408FM-15+044399999V0209999N999999999999Y999999999+02801+01501999999ADDMA1101501999990REMMET045METAR SBLP 191100Z /////KT CAVOK 28/15 Q1015=
0111832880999992013111912004-13267-043417FM-12+044199999V0200901N0015122000199020000199+02891+01431101121ADDAA101999990AZ101061AZ201061GF100991999999999999999999KA1120N+02221MA1999990096311MD1909990+0011REMSYN004BUFR
0072832880999992013111912004-13262-043408FM-15+044399999V0209999N999999999999Y999999999+03101+01401999999ADDMA1101501999990REMMET045METAR SBLP 191200Z /////KT CAVOK 31/14 Q1015=
0072832880999992013111913004-13262-043408FM-15+044399999V0209999N999999999999Y999999999+03201+01301999999ADDMA1101501999990REMMET045METAR SBLP 191300Z /////KT CAVOK 32/13 Q1015=
0142832880999992013111914004-13262-043408FM-15+044399999V0209999N999999999999N009999199+03401+01401999999ADDGA1021+009141991GE19MSL   +99999+99999GF199999021990009141991991MA1101401999990REMMET051METAR SBLP 191400Z /////KT 9999 FEW030 34/14 Q1014=
0142832880999992013111915004-13262-043408FM-15+044399999V0209999N999999999999N009999199+03501+01301999999ADDGA1021+009141991GE19MSL   +99999+99999GF199999021990009141991991MA1101301999990REMMET051METAR SBLP 191500Z /////KT 9999 FEW030 35/13 Q1013=
0142832880999992013111916004-13262-043408FM-15+044399999V0209999N999999999999N009999199+03601+01301999999ADDGA1021+009141991GE19MSL   +99999+99999GF199999021990009141991991MA1101201999990REMMET051METAR SBLP 191600Z /////KT 9999 FEW030 36/13 Q1012=
0142832880999992013111917004-13262-043408FM-15+044399999V0209999N999999999999N009999199+03801+01401999999ADDGA1041+009141991GE19MSL   +99999+99999GF199999041990009141991991MA1101101999990REMMET051METAR SBLP 191700Z /////KT 9999 SCT030 38/14 Q1011=
0136832880999992013111918004-13267-043417FM-12+044199999V0200901N0015199999999020000199+03571+01441100641ADDAA101999990AZ101061AZ201061GA1041+008001081GE19MSL   +99999+99999GF104991041990008001991991MA1999990095851MD1909990+0051REMSYN004BUFR
0142832880999992013111918004-13262-043408FM-15+044399999V0209999N999999999999N009999199+03701+01401999999ADDGA1041+009141991GE19MSL   +99999+99999GF199999041990009141991991MA1101001999990REMMET051METAR SBLP 191800Z /////KT 9999 SCT030 37/14 Q1010=
0142832880999992013111919004-13262-043408FM-15+044399999V0209999N999999999999N009999199+03701+01601999999ADDGA1041+009141991GE19MSL   +99999+99999GF199999041990009141991991MA1100901999990REMMET051METAR SBLP 191900Z /////KT 9999 SCT030 37/16 Q1009=
0142832880999992013111920004-13262-043408FM-15+044399999V0209999N999999999999N009999199+03501+01301999999ADDGA1041+009141991GE19MSL   +99999+99999GF199999041990009141991991MA1101001999990REMMET051METAR SBLP 192000Z /////KT 9999 SCT030 35/13 Q1010=
0165832880999992013111921004-13262-043408FM-15+044399999V0209999N99999030481CN009999199+03401+01201999999ADDGA1021+009141991GA2041+030481991GE19MSL   +99999+99999GF199999021990009141991991MA1101001999990REMMET058METAR SBLP 192100Z /////KT 9999 FEW030 SCT100 34/12 Q1010=
0152832880999992013112000004-13267-043417FM-12+044199999V0200901N0015199999999002000199+02891+01471100881ADDAA101999990AZ101061AZ201061GA1031+008001081GA2991+999991031GE19MSL   +99999+99999GF104991031990008001991991MA1999990096081MD1909990+0051REMSYN004BUFR
0072832880999992013112009154-13262-043408FM-16+044399999V0209999N999999999999Y999999999+02401+01701999999ADDMA1101501999990REMMET045SPECI SBLP 200915Z /////KT CAVOK 24/17 Q1015=
0072832880999992013112010004-13262-043408FM-15+044399999V0209999N999999999999Y999999999+02601+01901999999ADDMA1101601999990REMMET045METAR SBLP 201000Z /////KT CAVOK 26/19 Q1016=
0072832880999992013112011004-13262-043408FM-15+044399999V0209999N999999999999Y999999999+02901+01601999999ADDMA1101601999990REMMET045METAR SBLP 201100Z /////KT CAVOK 29/16 Q1016=
0111832880999992013112012004-13267-043417FM-12+044199999V0201401N0015122000199020000199+02791+01641101721ADDAA101999990AZ101061AZ201061GF100991999999999999999999KA1120N+02351MA1999990096451MD1909990+0141REMSYN004BUFR
0072832880999992013112012004-13262-043408FM-15+044399999V0209999N999999999999Y999999999+03001+01601999999ADDMA1101701999990REMMET045METAR SBLP 201200Z /////KT CAVOK 30/16 Q1017=
0072832880999992013112013004-13262-043408FM-15+044399999V0201801N003119999999Y999999999+03201+01601999999ADDMA1101701999990REMMET045METAR SBLP 201300Z 18006KT CAVOK 32/16 Q1017=
0142832880999992013112014004-13262-043408FM-15+044399999V0202101N002619999999N009999199+03301+01601999999ADDGA1021+009141991GE19MSL   +99999+99999GF199999021990009141991991MA1101601999990REMMET051METAR SBLP 201400Z 21005KT 9999 FEW030 33/16 Q1016=
0142832880999992013112015004-13262-043408FM-15+044399999V0209999C000019999999N009999199+03401+01901999999ADDGA1021+009141991GE19MSL   +99999+99999GF199999021990009141991991MA1101501999990REMMET051METAR SBLP 201500Z 00000KT 9999 FEW030 34/19 Q1015=
0142832880999992013112016004-13262-043408FM-15+044399999V0202001N003119999999N009999199+03601+01301999999ADDGA1041+009141991GE19MSL   +99999+99999GF199999041990009141991991MA1101301999990REMMET051METAR SBLP 201600Z 20006KT 9999 SCT030 36/13 Q1013=
0142832880999992013112017004-13262-043408FM-15+044399999V0201701N003119999999N009999199+03501+01401999999ADDGA1041+009141991GE19MSL   +99999+99999GF199999041990009141991991MA1101201999990REMMET051METAR SBLP 201700Z 17006KT 9999 SCT030 35/14 Q1012=
0136832880999992013112018004-13267-043417FM-12+044199999V0200501N0015199999999020000199+03451+01641100731ADDAA101999990AZ101061AZ201061GA1021+008001081GE19MSL   +99999+99999GF102991021990008001991991MA1999990095941MD1909990+0091REMSYN004BUFR
0142832880999992013112018004-13262-043408FM-15+044399999V0201701N001519999999N009999199+03701+01201999999ADDGA1041+009141991GE19MSL   +99999+99999GF199999041990009141991991MA1101101999990REMMET051METAR SBLP 201800Z 17003KT 9999 SCT030 37/12 Q1011=
0142832880999992013112019004-13262-043408FM-15+044399999V0202301N002119999999N009999199+03601+01301999999ADDGA1041+009141991GE19MSL   +99999+99999GF199999041990009141991991MA1101101999990REMMET051METAR SBLP 201900Z 23004KT 9999 SCT030 36/13 Q1011=
0142832880999992013112020004-13262-043408FM-15+044399999V0202301N004119999999N009999199+03601+01201999999ADDGA1021+009141991GE19MSL   +99999+99999GF199999021990009141991991MA1101101999990REMMET051METAR SBLP 202000Z 23008KT 9999 FEW030 36/12 Q1011=
0142832880999992013112021004-13262-043408FM-15+044399999V0202201N002119999999N009999199+03401+01101999999ADDGA1021+009141991GE19MSL   +99999+99999GF199999021990009141991991MA1101101999990REMMET051METAR SBLP 202100Z 22004KT 9999 FEW030 34/11 Q1011=
0098832880999992013112100004-13267-043417FM-12+044199999V0200901N0015122000199002000199+02901+01281100911ADDAA101999990AZ101061AZ201061GF100991999999999999999999MA1999990096101MD1909990+0021REMSYN004BUFR
0072832880999992013112109154-13262-043408FM-16+044399999V0209999C000019999999Y999999999+02201+01501999999ADDMA1101501999990REMMET045SPECI SBLP 210915Z 00000KT CAVOK 22/15 Q1015=
0053832880999992013112110004-13262-043408FM-15+044399999V0209999C000019999999Y999999999+02501+01601999999REMMET044METAR SBLP 211000Z 00000KT CAVOK 25/16 Q101=
0072832880999992013112111004-13262-043408FM-15+044399999V0201701N002619999999Y999999999+02901+01501999999ADDMA1101601999990REMMET045METAR SBLP 211100Z 17005KT CAVOK 29/15 Q1016=
0111832880999992013112112004-13267-043417FM-12+044199999V0201401N0015122000199020000199+02791+01601101251ADDAA101999990AZ101061AZ201061GF100991999999999999999999KA1120N+02271MA1999990096431MD1909990-0021REMSYN004BUFR
0072832880999992013112112004-13262-043408FM-15+044399999V0201701N003619999999Y999999999+03001+01401999999ADDMA1101601999990REMMET045METAR SBLP 211200Z 17007KT CAVOK 30/14 Q1016=
0142832880999992013112113004-13262-043408FM-15+044399999V0201801N001519999999N009999199+03001+01401999999ADDGA1021+009141991GE19MSL   +99999+99999GF199999021990009141991991MA1101601999990REMMET051METAR SBLP 211300Z 18003KT 9999 FEW030 30/14 Q1016=
0142832880999992013112114004-13262-043408FM-15+044399999V0201201N002119999999N009999199+03101+01401999999ADDGA1021+009141991GE19MSL   +99999+99999GF199999021990009141991991MA1101501999990REMMET051METAR SBLP 211400Z 12004KT 9999 FEW030 31/14 Q1015=
0142832880999992013112115004-13262-043408FM-15+044399999V0201301N003119999999N009999199+03301+01301999999ADDGA1021+009141991GE19MSL   +99999+99999GF199999021990009141991991MA1101301999990REMMET051METAR SBLP 211500Z 13006KT 9999 FEW030 33/13 Q1013=
0142832880999992013112116004-13262-043408FM-15+044399999V0202401N006219999999N009999199+03601+01201999999ADDGA1021+009141991GE19MSL   +99999+99999GF199999021990009141991991MA1101201999990REMMET051METAR SBLP 211600Z 24012KT 9999 FEW030 36/12 Q1012=
0142832880999992013112117004-13262-043408FM-15+044399999V0202501N003119999999N009999199+03601+01101999999ADDGA1021+009141991GE19MSL   +99999+99999GF199999021990009141991991MA1101101999990REMMET051METAR SBLP 211700Z 25006KT 9999 FEW030 36/11 Q1011=
0136832880999992013112118004-13267-043417FM-12+044199999V0202301N0010199999999020000199+03471+01701100621ADDAA101999990AZ101061AZ201061GA1031+008001081GE19MSL   +99999+99999GF103991031990008001991991MA1999990095841MD1909990-0101REMSYN004BUFR
0142832880999992013112118004-13262-043408FM-15+044399999V0202601N005119999999N009999199+03601+01001999999ADDGA1021+009141991GE19MSL   +99999+99999GF199999021990009141991991MA1101001999990REMMET051METAR SBLP 211800Z 26010KT 9999 FEW030 36/10 Q1010=
0142832880999992013112119004-13262-043408FM-15+044399999V0202801N003119999999N009999199+03601+01001999999ADDGA1021+009141991GE19MSL   +99999+99999GF199999021990009141991991MA1100901999990REMMET051METAR SBLP 211900Z 28006KT 9999 FEW030 36/10 Q1009=
0142832880999992013112120004-13262-043408FM-15+044399999V0202401N005119999999N009999199+03601+01001999999ADDGA1021+009141991GE19MSL   +99999+99999GF199999021990009141991991MA1100901999990REMMET051METAR SBLP 212000Z 24010KT 9999 FEW030 36/10 Q1009=
0072832880999992013112121004-13262-043408FM-15+044399999V0202401N002619999999Y999999999+03401+00901999999ADDMA1100901999990REMMET045METAR SBLP 212100Z 24005KT CAVOK 34/09 Q1009=
0098832880999992013112200004-13267-043417FM-12+044199999V0203601N0000122000199002000199+02871+01351100671ADDAA101999990AZ101061AZ201061GF100991999999999999999999MA1999990095861MD1909990-0241REMSYN004BUFR
0072832880999992013112209154-13262-043408FM-16+044399999V0202401N001519999999Y999999999+02101+01201999999ADDMA1101101999990REMMET045SPECI SBLP 220915Z 24003KT CAVOK 21/12 Q1011=
0072832880999992013112210004-13262-043408FM-15+044399999V0209999C000019999999Y999999999+02401+01301999999ADDMA1101101999990REMMET045METAR SBLP 221000Z 00000KT CAVOK 24/13 Q1011=
0072832880999992013112211004-13262-043408FM-15+044399999V0200501N002119999999Y999999999+02801+01101999999ADDMA1101101999990REMMET045METAR SBLP 221100Z 05004KT CAVOK 28/11 Q1011=
0111832880999992013112212004-13267-043417FM-12+044199999V0203201N0015122000199020000199+02821+01691100781ADDAA101999990AZ101061AZ201061GF100991999999999999999999KA1120N+02161MA1999990095981MD1909990-0451REMSYN004BUFR
0072832880999992013112212004-13262-043408FM-15+044399999V0200401N001519999999Y999999999+03001+01501999999ADDMA1101201999990REMMET045METAR SBLP 221200Z 04003KT CAVOK 30/15 Q1012=
0072832880999992013112213004-13262-043408FM-15+044399999V0200301N003119999999Y999999999+03301+01501999999ADDMA1101101999990REMMET045METAR SBLP 221300Z 03006KT CAVOK 33/15 Q1011=
0142832880999992013112214004-13262-043408FM-15+044399999V0200701N002619999999N009999199+03501+01101999999ADDGA1021+009141991GE19MSL   +99999+99999GF199999021990009141991991MA1101001999990REMMET051METAR SBLP 221400Z 07005KT 9999 FEW030 35/11 Q1010=
0142832880999992013112215004-13262-043408FM-15+044399999V0201001N003119999999N009999199+03601+01201999999ADDGA1021+009141991GE19MSL   +99999+99999GF199999021990009141991991MA1100901999990REMMET051METAR SBLP 221500Z 10006KT 9999 FEW030 36/12 Q1009=
0142832880999992013112216004-13262-043408FM-15+044399999V0201801N001019999999N009999199+03701+00801999999ADDGA1041+009141991GE19MSL   +99999+99999GF199999041990009141991991MA1100801999990REMMET051METAR SBLP 221600Z 18002KT 9999 SCT030 37/08 Q1008=
0142832880999992013112217004-13262-043408FM-15+044399999V0209999C000019999999N009999199+03701+00801999999ADDGA1041+009141991GE19MSL   +99999+99999GF199999041990009141991991MA1100601999990REMMET051METAR SBLP 221700Z 00000KT 9999 SCT030 37/08 Q1006=
0136832880999992013112218004-13267-043417FM-12+044199999V0201801N0010199999999020000199+03651+01211100171ADDAA101999990AZ101061AZ201061GA1031+008001081GE19MSL   +99999+99999GF103991031990008001991991MA1999990095431MD1909990-0411REMSYN004BUFR
0142832880999992013112218004-13262-043408FM-15+044399999V0202101N001519999999N009999199+03801+00701999999ADDGA1041+009141991GE19MSL   +99999+99999GF199999041990009141991991MA1100501999990REMMET051METAR SBLP 221800Z 21003KT 9999 SCT030 38/07 Q1005=
0142832880999992013112219004-13262-043408FM-15+044399999V0202501N003119999999N009999199+03801+00901999999ADDGA1021+009141991GE19MSL   +99999+99999GF199999021990009141991991MA1100501999990REMMET051METAR SBLP 221900Z 25006KT 9999 FEW030 38/09 Q1005=
0142832880999992013112220004-13262-043408FM-15+044399999V0202101N002119999999N009999199+03701+00501999999ADDGA1021+009141991GE19MSL   +99999+99999GF199999021990009141991991MA1100501999990REMMET051METAR SBLP 222000Z 21004KT 9999 FEW030 37/05 Q1005=
0142832880999992013112221004-13262-043408FM-15+044399999V0209999C000019999999N009999199+03501+00601999999ADDGA1021+009141991GE19MSL   +99999+99999GF199999021990009141991991MA1100501999990REMMET051METAR SBLP 222100Z 00000KT 9999 FEW030 35/06 Q1005=
0098832880999992013112300004-13267-043417FM-12+044199999V0203601N0000122000199002000199+03101+01812100261ADDAA101999990AZ101061AZ201061GF100991999999999999999999MA1999990095511MD1909990-0351REMSYN004BUFR
0072832880999992013112309154-13262-043408FM-16+044399999V0200301N003619999999Y999999999+02501+01601999999ADDMA1101001999990REMMET045SPECI SBLP 230915Z 03007KT CAVOK 25/16 Q1010=
0142832880999992013112310004-13262-043408FM-15+044399999V0200301N003619999999N009999199+02601+01701999999ADDGA1021+009141991GE19MSL   +99999+99999GF199999021990009141991991MA1101101999990REMMET051METAR SBLP 231000Z 03007KT 9999 FEW030 26/17 Q1011=
0142832880999992013112311004-13262-043408FM-15+044399999V0200401N004119999999N009999199+02901+01701999999ADDGA1021+009141991GE19MSL   +99999+99999GF199999021990009141991991MA1101101999990REMMET051METAR SBLP 231100Z 04008KT 9999 FEW030 29/17 Q1011=
0149832880999992013112312004-13267-043417FM-12+044199999V0203601N0021199999999020000199+02891+01911100711ADDAA101999990AZ101061AZ201061GA1011+008001081GE19MSL   +99999+99999GF101991011990008001991991KA1120N+02491MA1999990095941MD1909990-0041REMSYN004BUFR
0142832880999992013112312004-13262-043408FM-15+044399999V0200101N002619999999N009999199+03101+01801999999ADDGA1021+009141991GE19MSL   +99999+99999GF199999021990009141991991MA1101101999990REMMET051METAR SBLP 231200Z 01005KT 9999 FEW030 31/18 Q1011=
0142832880999992013112313004-13262-043408FM-15+044399999V0200601N003119999999N009999199+03401+01601999999ADDGA1021+009141991GE19MSL   +99999+99999GF199999021990009141991991MA1101101999990REMMET051METAR SBLP 231300Z 06006KT 9999 FEW030 34/16 Q1011=
0142832880999992013112314004-13262-043408FM-15+044399999V0200301N004119999999N009999199+03501+01601999999ADDGA1021+009141991GE19MSL   +99999+99999GF199999021990009141991991MA1101001999990REMMET051METAR SBLP 231400Z 03008KT 9999 FEW030 35/16 Q1010=
0142832880999992013112315004-13262-043408FM-15+044399999V0200101N003619999999N009999199+03601+01501999999ADDGA1021+009141991GE19MSL   +99999+99999GF199999021990009141991991MA1100901999990REMMET051METAR SBLP 231500Z 01007KT 9999 FEW030 36/15 Q1009=
0142832880999992013112316004-13262-043408FM-15+044399999V0203601N002119999999N009999199+03701+01401999999ADDGA1041+009141991GE19MSL   +99999+99999GF199999041990009141991991MA1100801999990REMMET051METAR SBLP 231600Z 36004KT 9999 SCT030 37/14 Q1008=
0142832880999992013112317004-13262-043408FM-15+044399999V0200301N003119999999N009999199+03701+01501999999ADDGA1041+009141991GE19MSL   +99999+99999GF199999041990009141991991MA1100701999990REMMET051METAR SBLP 231700Z 03006KT 9999 SCT030 37/15 Q1007=
0152832880999992013112318004-13267-043417FM-12+044199999V0203601N0010199999999020000199+03651+01721100281ADDAA101999990AZ101061AZ201061GA1011+008001081GA2991+999991011GE19MSL   +99999+99999GF103991011990008001991991MA1999990095551MD1909990+0121REMSYN004BUFR
0142832880999992013112318004-13262-043408FM-15+044399999V0200201N002119999999N009999199+03801+01501999999ADDGA1041+009141991GE19MSL   +99999+99999GF199999041990009141991991MA1100601999990REMMET051METAR SBLP 231800Z 02004KT 9999 SCT030 38/15 Q1006=
0165832880999992013112319004-13262-043408FM-15+044399999V0203301N00151030481CN009999199+03801+01301999999ADDGA1041+009141991GA2041+030481991GE19MSL   +99999+99999GF199999041990009141991991MA1100601999990REMMET058METAR SBLP 231900Z 33003KT 9999 SCT030 SCT100 38/13 Q1006=
0165832880999992013112320004-13262-043408FM-15+044399999V0203001N00311030481CN009999199+03601+01501999999ADDGA1041+009141991GA2041+030481991GE19MSL   +99999+99999GF199999041990009141991991MA1100501999990REMMET058METAR SBLP 232000Z 30006KT 9999 SCT030 SCT100 36/15 Q1005=
0165832880999992013112321004-13262-043408FM-15+044399999V0203001N00411030481CN009999199+03301+01601999999ADDGA1041+006101991GA2041+030481991GE19MSL   +99999+99999GF199999041990006101991991MA1100601999990REMMET058METAR SBLP 232100Z 30008KT 9999 SCT020 SCT100 33/16 Q1006=
0188832880999992013112409154-13262-043408FM-16+044399999V0209999C00001009141CN009999199+02301+02101999999ADDGA1021+006101991GA2041+009141991GA3071+030481991GE19MSL   +99999+99999GF199999021990006101991991MA1101401999990REMMET065SPECI SBLP 240915Z 00000KT 9999 FEW020 SCT030 BKN100 23/21 Q1014=
0198832880999992013112410004-13262-043408FM-15+044399999V0200901N00411009141CN008000199+02301+02201999999ADDGA1041+006101991GA2041+009141991GA3071+030481991GE19MSL   +99999+99999GF199999041990006101991991MA1101501999990MW1611REMMET069METAR SBLP 241000Z 09008KT 8000 -RA SCT020 SCT030 BKN100 23/22 Q1015=
0198832880999992013112411004-13262-043408FM-15+044399999V0200301N00261009141CN009000199+02301+02201999999ADDGA1021+006101991GA2041+009141991GA3081+030481991GE19MSL   +99999+99999GF199999021990006101991991MA1101501999990MW1611REMMET069METAR SBLP 241100Z 03005KT 9000 -RA FEW020 SCT030 OVC100 23/22 Q1015=
0187832880999992013112412004-13267-043417FM-12+044199999V0200501N0010100450199020000199+02301+02191101281ADDAA124014031AY191061AY261061GA1081+004501061GA2991+999991101GA3991+999991101GE19MSL   +99999+99999GF108991081990004501991991KA1120N+02061MA1999990096431MD1909990+0491MW1021REMSYN004BUFR
0188832880999992013112412004-13262-043408FM-15+044399999V0200801N00211008231CN009999199+02401+02201999999ADDGA1041+005181991GA2041+008231991GA3081+028351991GE19MSL   +99999+99999GF199999041990005181991991MA1101601999990REMMET065METAR SBLP 241200Z 08004KT 9999 SCT017 SCT027 OVC093 24/22 Q1016=
0198832880999992013112413004-13262-043408FM-15+044399999V0201001N00411007011CN008000199+02201+02101999999ADDGA1041+003961991GA2041+007011991GA3081+027431991GE19MSL   +99999+99999GF199999041990003961991991MA1101701999990MW1611REMMET069METAR SBLP 241300Z 10008KT 8000 -RA SCT013 SCT023 OVC090 22/21 Q1017=
0188832880999992013112414004-13262-043408FM-15+044399999V0209999C00001009141CN009999199+02301+02001999999ADDGA1041+006101991GA2041+009141991GA3081+030481991GE19MSL   +99999+99999GF199999041990006101991991MA1101601999990REMMET065METAR SBLP 241400Z 00000KT 9999 SCT020 SCT030 OVC100 23/20 Q1016=
0188832880999992013112415004-13262-043408FM-15+044399999V0202601N00211009141CN009999199+02301+02101999999ADDGA1021+006101991GA2041+009141991GA3071+030481991GE19MSL   +99999+99999GF199999021990006101991991MA1101601999990REMMET065METAR SBLP 241500Z 26004KT 9999 FEW020 SCT030 BKN100 23/21 Q1016=
0165832880999992013112416004-13262-043408FM-15+044399999V0209999C000010304819N009999199+02301+02101999999ADDGA1021+006101991GA2071+030481991GE19MSL   +99999+99999GF199999021990006101991991MA1101601999990REMMET058METAR SBLP 241600Z 00000KT 9999 FEW020 BKN100 23/21 Q1016=
0165832880999992013112417004-13262-043408FM-15+044399999V0209999C000010304819N009999199+02501+02101999999ADDGA1021+006101991GA2071+030481991GE19MSL   +99999+99999GF199999021990006101991991MA1101501999990REMMET058METAR SBLP 241700Z 00000KT 9999 FEW020 BKN100 25/21 Q1015=
0174832880999992013112418004-13267-043417FM-12+044199999V0202701N0010100450199020000199+02671+01981101141ADDAA106006031AY161061AY261061GA1081+004501061GA2991+999991101GA3991+999991101GE19MSL   +99999+99999GF108991081990004501991991MA1999990096251MD1909990+0701MW1021REMSYN004BUFR
0165832880999992013112418004-13262-043408FM-15+044399999V0209999C000010304819N009999199+02701+02001999999ADDGA1021+006101991GA2071+030481991GE19MSL   +99999+99999GF199999021990006101991991MA1101401999990REMMET058METAR SBLP 241800Z 00000KT 9999 FEW020 BKN100 27/20 Q1014=
0165832880999992013112419004-13262-043408FM-15+044399999V0209999C000010304819N009999199+02701+02001999999ADDGA1041+006101991GA2071+030481991GE19MSL   +99999+99999GF199999041990006101991991MA1101301999990REMMET058METAR SBLP 241900Z 00000KT 9999 SCT020 BKN100 27/20 Q1013=
0165832880999992013112420004-13262-043408FM-15+044399999V0201001N001510304819N009999199+02601+02101999999ADDGA1041+006101991GA2071+030481991GE19MSL   +99999+99999GF199999041990006101991991MA1101301999990REMMET058METAR SBLP 242000Z 10003KT 9999 SCT020 BKN100 26/21 Q1013=
0165832880999992013112421004-13262-043408FM-15+044399999V0200901N001510304819N009999199+02501+02101999999ADDGA1021+006101991GA2071+030481991GE19MSL   +99999+99999GF199999021990006101991991MA1101401999990REMMET058METAR SBLP 242100Z 09003KT 9999 FEW020 BKN100 25/21 Q1014=
0165832880999992013112509154-13262-043408FM-16+044399999V0209999C00001030481CN009999199+02101+02101999999ADDGA1021+006101991GA2041+030481991GE19MSL   +99999+99999GF199999021990006101991991MA1101501999990REMMET058SPECI SBLP 250915Z 00000KT 9999 FEW020 SCT100 21/21 Q1015=
0165832880999992013112510004-13262-043408FM-15+044399999V0202401N002110304819N009999199+02301+02101999999ADDGA1021+006101991GA2071+030481991GE19MSL   +99999+99999GF199999021990006101991991MA1101501999990REMMET058METAR SBLP 251000Z 24004KT 9999 FEW020 BKN100 23/21 Q1015=
0165832880999992013112511004-13262-043408FM-15+044399999V0201901N001510304819N009999199+02501+02101999999ADDGA1021+006101991GA2071+030481991GE19MSL   +99999+99999GF199999021990006101991991MA1101501999990REMMET058METAR SBLP 251100Z 19003KT 9999 FEW020 BKN100 25/21 Q1015=
0149832880999992013112512004-13267-043417FM-12+044199999V0200901N0015199999999020000199+02521+02211101271ADDAA124008031AZ101061AZ201061GA1021+008001081GE19MSL   +99999+99999GF102991021990008001991991KA1120N+02071MA1999990096351MD1909990-0081REMSYN004BUFR
0165832880999992013112512004-13262-043408FM-15+044399999V0201701N00151030481CN009999199+02801+02201999999ADDGA1021+006101991GA2041+030481991GE19MSL   +99999+99999GF199999021990006101991991MA1101601999990REMMET058METAR SBLP 251200Z 17003KT 9999 FEW020 SCT100 28/22 Q1016=
0165832880999992013112513004-13262-043408FM-15+044399999V0209999C00001030481CN009999199+02901+02101999999ADDGA1041+009141991GA2041+030481991GE19MSL   +99999+99999GF199999041990009141991991MA1101501999990REMMET058METAR SBLP 251300Z 00000KT 9999 SCT030 SCT100 29/21 Q1015=
0142832880999992013112514004-13262-043408FM-15+044399999V0209999C000019999999N009999199+03001+02101999999ADDGA1041+009141991GE19MSL   +99999+99999GF199999041990009141991991MA1101401999990REMMET051METAR SBLP 251400Z 00000KT 9999 SCT030 30/21 Q1014=
0142832880999992013112515004-13262-043408FM-15+044399999V0209999C000019999999N009999199+03201+01901999999ADDGA1041+009141991GE19MSL   +99999+99999GF199999041990009141991991MA1101301999990REMMET051METAR SBLP 251500Z 00000KT 9999 SCT030 32/19 Q1013=
0142832880999992013112516004-13262-043408FM-15+044399999V0202001N002610091419N009999199+03301+01901999999ADDGA1071+009141991GE19MSL   +99999+99999GF199999071990009141991991MA1101201999990REMMET051METAR SBLP 251600Z 20005KT 9999 BKN030 33/19 Q1012=
0142832880999992013112517004-13262-043408FM-15+044399999V0202701N001019999999N009999199+03301+01901999999ADDGA1041+009141991GE19MSL   +99999+99999GF199999041990009141991991MA1101101999990REMMET051METAR SBLP 251700Z 27002KT 9999 SCT030 33/19 Q1011=
0168832880999992013112518004-13267-043417FM-12+044199999V0203601N0000199999999020000199+03171+02121100691ADDAA101999990AZ101061AZ201061GA1041+008001081GA2991+999991101GA3991+999991031GE19MSL   +99999+99999GF108991041990008001991991MA1999990095841MD1909990-0411REMSYN004BUFR
0165832880999992013112518004-13262-043408FM-15+044399999V0209999C000010304819N009999199+03301+01801999999ADDGA1041+009141991GA2071+030481991GE19MSL   +99999+99999GF199999041990009141991991MA1101001999990REMMET058METAR SBLP 251800Z 00000KT 9999 SCT030 BKN100 33/18 Q1010=
0165832880999992013112519004-13262-043408FM-15+044399999V0202701N002110304819N009999199+03301+01801999999ADDGA1041+009141991GA2071+030481991GE19MSL   +99999+99999GF199999041990009141991991MA1101001999990REMMET058METAR SBLP 251900Z 27004KT 9999 SCT030 BKN100 33/18 Q1010=
0165832880999992013112520004-13262-043408FM-15+044399999V0201801N004110304819N009999199+03001+02001999999ADDGA1041+009141991GA2071+030481991GE19MSL   +99999+99999GF199999041990009141991991MA1101001999990REMMET058METAR SBLP 252000Z 18008KT 9999 SCT030 BKN100 30/20 Q1010=
0165832880999992013112521004-13262-043408FM-15+044399999V0201801N002610304819N009999199+02801+02001999999ADDGA1021+009141991GA2071+030481991GE19MSL   +99999+99999GF199999021990009141991991MA1101001999990REMMET058METAR SBLP 252100Z 18005KT 9999 FEW030 BKN100 28/20 Q1010=
0168832880999992013112600004-13267-043417FM-12+044199999V0203601N0000199999999002000199+02551+02091100831ADDAA101999990AZ101061AZ201061GA1031+008001081GA2991+999991101GA3991+999991031GE19MSL   +99999+99999GF108991031990008001991991MA1999990095961MD1909990+0541REMSYN004BUFR
0198832880999992013112609154-13262-043408FM-16+044399999V0202101N00151007011CN008000199+02201+02201999999ADDGA1041+003961991GA2041+007011991GA3081+028351991GE19MSL   +99999+99999GF199999041990003961991991MA1101301999990MW1611REMMET069SPECI SBLP 260915Z 21003KT 8000 -RA SCT013 SCT023 OVC093 22/22 Q1013=
0188832880999992013112610004-13262-043408FM-15+044399999V0202101N00261009141CN009999199+02201+02101999999ADDGA1041+005181991GA2041+009141991GA3071+030481991GE19MSL   +99999+99999GF199999041990005181991991MA1101301999990REMMET065METAR SBLP 261000Z 21005KT 9999 SCT017 SCT030 BKN100 22/21 Q1013=
0198832880999992013112611004-13262-043408FM-15+044399999V0209999C00001009141CN008000199+02301+02201999999ADDGA1041+006101991GA2041+009141991GA3081+030481991GE19MSL   +99999+99999GF199999041990006101991991MA1101401999990MW1611REMMET069METAR SBLP 261100Z 00000KT 8000 -RA SCT020 SCT030 OVC100 23/22 Q1014=
0187832880999992013112612004-13267-043417FM-12+044199999V0203601N0000100800199020000199+02321+02171101141ADDAA124009031AY161061AY261061GA1061+008001061GA2991+999991101GA3991+999991041GE19MSL   +99999+99999GF108991061990008001991991KA1120N+02201MA1999990096241MD1909990-0111MW1031REMSYN004BUFR
0199832880999992013112612004-13262-043408FM-15+044399999V0209999C00001007011CN005000199+02401+02201999999ADDGA1041+003051991GA2041+007011991GA3081+027431991GE19MSL   +99999+99999GF199999041990003051991991MA1101401999990MW1161REMMET070METAR SBLP 261200Z 00000KT 5000 VCSH SCT010 SCT023 OVC090 24/22 Q1014=
0198832880999992013112613004-13262-043408FM-15+044399999V0201701N00211006101CN008000199+02401+02201999999ADDGA1041+003051991GA2041+006101991GA3081+027431991GE19MSL   +99999+99999GF199999041990003051991991MA1101401999990MW1611REMMET069METAR SBLP 261300Z 17004KT 8000 -RA SCT010 SCT020 OVC090 24/22 Q1014=
0188832880999992013112614004-13262-043408FM-15+044399999V0209999C000010304819N009999199+02401+02201999999ADDGA1041+006101991GA2021+006101991GA3071+030481991GE19MSL   +99999+99999GF199999041990006101991991MA1101301999990REMMET065METAR SBLP 261400Z 00000KT 9999 SCT020 FEW020 BKN100 24/22 Q1013=
0165832880999992013112615004-13262-043408FM-15+044399999V0209999C000010061019N009999199+02701+02301999999ADDGA1041+003051991GA2071+006101991GE19MSL   +99999+99999GF199999041990003051991991MA1101201999990REMMET058METAR SBLP 261500Z 00000KT 9999 SCT010 BKN020 27/23 Q1012=
0188832880999992013112616004-13262-043408FM-15+044399999V0209999C00001009141CN009999199+02701+02201999999ADDGA1021+006101991GA2041+009141991GA3071+030481991GE19MSL   +99999+99999GF199999021990006101991991MA1101001999990REMMET065METAR SBLP 261600Z 00000KT 9999 FEW020 SCT030 BKN100 27/22 Q1010=
0165832880999992013112617004-13262-043408FM-15+044399999V0201201N003110091419N009999199+02901+02301999999ADDGA1041+006101991GA2071+009141991GE19MSL   +99999+99999GF199999041990006101991991MA1100901999990REMMET058METAR SBLP 261700Z 12006KT 9999 SCT020 BKN030 29/23 Q1009=
0158832880999992013112618004-13267-043417FM-12+044199999V0200901N0005199999999020000199+02691+02291100541ADDAA106000231AY151061AY221061GA1041+008001061GA2991+999991031GE19MSL   +99999+99999GF106991041990008001991991MA1999990095691MD1909990-0151MW1021REMSYN004BUFR
0165832880999992013112618004-13262-043408FM-15+044399999V0209999C000010304819N009999199+02801+02301999999ADDGA1041+009141991GA2071+030481991GE19MSL   +99999+99999GF199999041990009141991991MA1100801999990REMMET058METAR SBLP 261800Z 00000KT 9999 SCT030 BKN100 28/23 Q1008=
0165832880999992013112619004-13262-043408FM-15+044399999V0209999C00001030481CN009999199+03001+02201999999ADDGA1021+009141991GA2041+030481991GE19MSL   +99999+99999GF199999021990009141991991MA1100801999990REMMET058METAR SBLP 261900Z 00000KT 9999 FEW030 SCT100 30/22 Q1008=
0165832880999992013112620004-13262-043408FM-15+044399999V0209999C000010304819N009999199+02901+02101999999ADDGA1041+009141991GA2071+030481991GE19MSL   +99999+99999GF199999041990009141991991MA1100701999990REMMET058METAR SBLP 262000Z 00000KT 9999 SCT030 BKN100 29/21 Q1007=
0165832880999992013112621004-13262-043408FM-15+044399999V0209999C000010304819N009999199+02801+02101999999ADDGA1041+009141991GA2071+030481991GE19MSL   +99999+99999GF199999041990009141991991MA1100801999990REMMET058METAR SBLP 262100Z 00000KT 9999 SCT030 BKN100 28/21 Q1008=
0168832880999992013112700004-13267-043417FM-12+044199999V0201801N0005100800199002000199+02491+02261100651ADDAA101999990AZ101061AZ201061GA1081+008001071GA2991+999991101GA3991+999991101GE19MSL   +99999+99999GF108991081990008001991991MA1999990095761MD1909990-0201REMSYN004BUFR
0198832880999992013112709154-13262-043408FM-16+044399999V0201801N00311006101CN006000199+02301+02201999999ADDGA1021+003051991GA2041+006101991GA3071+030481991GE19MSL   +99999+99999GF199999021990003051991991MA1100901999990MW1611REMMET069SPECI SBLP 270915Z 18006KT 6000 -RA FEW010 SCT020 BKN100 23/22 Q1009=
0188832880999992013112710004-13262-043408FM-15+044399999V0201801N00261006101CN008000199+02301+02301999999ADDGA1041+003051991GA2041+006101991GA3071+030481991GE19MSL   +99999+99999GF199999041990003051991991MA1100901999990REMMET065METAR SBLP 271000Z 18005KT 8000 SCT010 SCT020 BKN100 23/23 Q1009=
0188832880999992013112711004-13262-043408FM-15+044399999V0201701N00411009141CN009999199+02401+02301999999ADDGA1021+006101991GA2041+009141991GA3071+030481991GE19MSL   +99999+99999GF199999021990006101991991MA1101001999990REMMET065METAR SBLP 271100Z 17008KT 9999 FEW020 SCT030 BKN100 24/23 Q1010=
0155832880999992013112712004-13267-043417FM-12+044199999V0201401N0015100800199020000199+02441+02101100811ADDAA124001031AY151061AY251061GA1071+008001061GE19MSL   +99999+99999GF107991071990008001991991KA1120N+02221MA1999990095941MD1909990-0301MW1011REMSYN004BUFR
0165832880999992013112712004-13262-043408FM-15+044399999V0202101N00211030481CN009999199+02701+02301999999ADDGA1041+009141991GA2041+030481991GE19MSL   +99999+99999GF199999041990009141991991MA1101001999990REMMET058METAR SBLP 271200Z 21004KT 9999 SCT030 SCT100 27/23 Q1010=
0165832880999992013112713004-13262-043408FM-15+044399999V0209999C000010304819N009999199+02801+02201999999ADDGA1041+009141991GA2071+030481991GE19MSL   +99999+99999GF199999041990009141991991MA1101001999990REMMET058METAR SBLP 271300Z 00000KT 9999 SCT030 BKN100 28/22 Q1010=
0165832880999992013112714004-13262-043408FM-15+044399999V0209999C000010304819N009999199+03001+02201999999ADDGA1041+009141991GA2071+030481991GE19MSL   +99999+99999GF199999041990009141991991MA1100901999990REMMET058METAR SBLP 271400Z 00000KT 9999 SCT030 BKN100 30/22 Q1009=
0165832880999992013112715004-13262-043408FM-15+044399999V0209999C00001030481CN009999199+03201+02201999999ADDGA1041+009141991GA2041+030481991GE19MSL   +99999+99999GF199999041990009141991991MA1100801999990REMMET058METAR SBLP 271500Z 00000KT 9999 SCT030 SCT100 32/22 Q1008=
0165832880999992013112716004-13262-043408FM-15+044399999V0200701N00311030481CN009999199+03301+02001999999ADDGA1041+009141991GA2041+030481991GE19MSL   +99999+99999GF199999041990009141991991MA1100701999990REMMET058METAR SBLP 271600Z 07006KT 9999 SCT030 SCT100 33/20 Q1007=
0165832880999992013112717004-13262-043408FM-15+044399999V0203401N00211030481CN009999199+03301+01901999999ADDGA1041+009141991GA2041+030481991GE19MSL   +99999+99999GF199999041990009141991991MA1100501999990REMMET058METAR SBLP 271700Z 34004KT 9999 SCT030 SCT100 33/19 Q1005=
0168832880999992013112718004-13267-043417FM-12+044199999V0202301N0005100800199020000199+03191+02081100321ADDAA101999990AZ101061AZ201061GA1081+008001061GA2991+999991101GA3991+999991101GE19MSL   +99999+99999GF108991081990008001991991MA1999990095511MD1909990-0181REMSYN004BUFR
0165832880999992013112718004-13262-043408FM-15+044399999V0209999C000010304819N009999199+03201+01701999999ADDGA1041+009141991GA2071+030481991GE19MSL   +99999+99999GF199999041990009141991991MA1100501999990REMMET058METAR SBLP 271800Z 00000KT 9999 SCT030 BKN100 32/17 Q1005=
0209832880999992013112719004-13262-043408FM-15+044399999V0201301N004110304819N009999199+02601+02301999999ADDGA1041+009141991GA2021+012191091GA3071+030481991GE19MSL   +99999+99999GF199999041990009141991991MA1100501999990MW1171REMMET080METAR SBLP 271900Z 13008KT 9999 TS SCT030 FEW040CB BKN100 26/23 Q1005      RETS=
0207832880999992013112720004-13262-043408FM-15+044399999V0202401N001510304819N009000199+02401+02201999999ADDGA1041+009141991GA2021+012191091GA3071+030481991GE19MSL   +99999+99999GF199999041990009141991991MA1100701999990MW1951REMMET078METAR SBLP 272000Z 24003KT 9000 -TSRA SCT030 FEW040CB BKN100 24/22      Q1007=
0207832880999992013112721004-13262-043408FM-15+044399999V0201001N003110091419N009999199+02401+02301999999ADDGA1071+009141991GA2021+012191091GA3081+021341991GE19MSL   +99999+99999GF199999071990009141991991MA1100701999990MW1951REMMET078METAR SBLP 272100Z 10006KT 9999 -TSRA BKN030 FEW040CB OVC070 24/23      Q1007=
0174832880999992013112800004-13267-043417FM-12+044199999V0200501N0015100800199002000199+02271+02191100751ADDAA106006031AY161061AY261061GA1081+008001061GA2991+999991101GA3991+999991101GE19MSL   +99999+99999GF108991081990008001991991MA1999990095861MD1909990+0101MW1021REMSYN004BUFR
0174832880999992013112809154-13262-043408FM-16+044399999V0200101N001010213419N009000199+02101+02001999999ADDGA1021+006101991GA2081+021341991GE19MSL   +99999+99999GF199999021990006101991991MA1101201999990MW1631REMMET061SPECI SBLP 280915Z 01002KT 9000 RA FEW020 OVC070 21/20 Q1012=
0180832880999992013112810004-13262-043408FM-15+044399999V0209999C000010213419N009000199+02201+02101999999ADDGA1021+006101991GA2081+021341991GE19MSL   +99999+99999GF199999021990006101991991MA1101301999990MW1611REMMET067METAR SBLP 281000Z 00000KT 9000 -RA FEW020 OVC070 22/21 Q1013 RERA=
0175832880999992013112811004-13262-043408FM-15+044399999V0200901N001010274319N009000199+02201+02101999999ADDGA1021+006101991GA2081+027431991GE19MSL   +99999+99999GF199999021990006101991991MA1101301999990MW1611REMMET062METAR SBLP 281100Z 09002KT 9000 -RA FEW020 OVC090 22/21 Q1013=
0187832880999992013112812004-13267-043417FM-12+044199999V0200501N0010199999999020000199+02221+02151101071ADDAA124036031AY161061AY261061GA1031+008001081GA2991+999991101GA3991+999991051GE19MSL   +99999+99999GF108991031990008001991991KA1120N+02101MA1999990096141MD1909990+0201MW1031REMSYN004BUFR
0175832880999992013112812004-13262-043408FM-15+044399999V0200901N002610274319N009000199+02301+02201999999ADDGA1021+006101991GA2081+027431991GE19MSL   +99999+99999GF199999021990006101991991MA1101301999990MW1611REMMET062METAR SBLP 281200Z 09005KT 9000 -RA FEW020 OVC090 23/22 Q1013=
0165832880999992013112813004-13262-043408FM-15+044399999V0200601N003110304819N009999199+02601+02201999999ADDGA1041+006101991GA2071+030481991GE19MSL   +99999+99999GF199999041990006101991991MA1101301999990REMMET058METAR SBLP 281300Z 06006KT 9999 SCT020 BKN100 26/22 Q1013=
0165832880999992013112814004-13262-043408FM-15+044399999V0209999C000010304819N009999199+02601+02101999999ADDGA1021+006101991GA2071+030481991GE19MSL   +99999+99999GF199999021990006101991991MA1101301999990REMMET058METAR SBLP 281400Z 00000KT 9999 FEW020 BKN100 26/21 Q1013=
0165832880999992013112815004-13262-043408FM-15+044399999V0203301N002610304819N009999199+02701+02201999999ADDGA1021+006101991GA2071+030481991GE19MSL   +99999+99999GF199999021990006101991991MA1101201999990REMMET058METAR SBLP 281500Z 33005KT 9999 FEW020 BKN100 27/22 Q1012=
0165832880999992013112816004-13262-043408FM-15+044399999V0200901N001510304819N009999199+02701+02101999999ADDGA1041+009141991GA2071+030481991GE19MSL   +99999+99999GF199999041990009141991991MA1101101999990REMMET058METAR SBLP 281600Z 09003KT 9999 SCT030 BKN100 27/21 Q1011=
0174832880999992013112817004-13262-043408FM-15+044399999V0200601N004110304819N009000199+02401+02101999999ADDGA1021+006101991GA2071+030481991GE19MSL   +99999+99999GF199999021990006101991991MA1101101999990MW1631REMMET061METAR SBLP 281700Z 06008KT 9000 RA FEW020 BKN100 24/21 Q1011=
0174832880999992013112818004-13267-043417FM-12+044199999V0200901N0010199999999020000199+02191+02091100831ADDAA106004031AY161061AY221061GA1041+008001071GA2991+999991101GA3991+999991041GE19MSL   +99999+99999GF108991041990008001991991MA1999990095891MD1909990+0381MW1501REMSYN004BUFR
0180832880999992013112818004-13262-043408FM-15+044399999V0201001N003110274319N009000199+02301+02201999999ADDGA1041+006101991GA2081+027431991GE19MSL   +99999+99999GF199999041990006101991991MA1101001999990MW1611REMMET067METAR SBLP 281800Z 10006KT 9000 -RA SCT020 OVC090 23/22 Q1010 RERA=
0165832880999992013112819004-13262-043408FM-15+044399999V0201001N003610304819N009999199+02301+02201999999ADDGA1041+006101991GA2071+030481991GE19MSL   +99999+99999GF199999041990006101991991MA1101001999990REMMET058METAR SBLP 281900Z 10007KT 9999 SCT020 BKN100 23/22 Q1010=
0165832880999992013112820004-13262-043408FM-15+044399999V0201201N002110304819N009999199+02301+02201999999ADDGA1021+006101991GA2071+030481991GE19MSL   +99999+99999GF199999021990006101991991MA1101001999990REMMET058METAR SBLP 282000Z 12004KT 9999 FEW020 BKN100 23/22 Q1010=
0165832880999992013112821004-13262-043408FM-15+044399999V0201501N001510304819N009999199+02301+02201999999ADDGA1021+006101991GA2071+030481991GE19MSL   +99999+99999GF199999021990006101991991MA1101001999990REMMET058METAR SBLP 282100Z 15003KT 9999 FEW020 BKN100 23/22 Q1010=
0174832880999992013112900004-13267-043417FM-12+044199999V0200901N0005100800199002000199+02221+02201100961ADDAA106002031AY161061AY221061GA1081+008001071GA2991+999991101GA3991+999991101GE19MSL   +99999+99999GF108991081990008001991991MA1999990096021MD1909990+0161MW1031REMSYN004BUFR
0165832880999992013112909154-13262-043408FM-16+044399999V0201501N003110304819N009999199+02201+02101999999ADDGA1021+006101991GA2071+030481991GE19MSL   +99999+99999GF199999021990006101991991MA1101301999990REMMET058SPECI SBLP 290915Z 15006KT 9999 FEW020 BKN100 22/21 Q1013=
0165832880999992013112910004-13262-043408FM-15+044399999V0201701N001510304819N009999199+02201+02101999999ADDGA1021+006101991GA2071+030481991GE19MSL   +99999+99999GF199999021990006101991991MA1101401999990REMMET058METAR SBLP 291000Z 17003KT 9999 FEW020 BKN100 22/21 Q1014=
0165832880999992013112911004-13262-043408FM-15+044399999V0209999C000010304819N009999199+02401+02101999999ADDGA1021+006101991GA2071+030481991GE19MSL   +99999+99999GF199999021990006101991991MA1101501999990REMMET058METAR SBLP 291100Z 00000KT 9999 FEW020 BKN100 24/21 Q1015=
0165832880999992013112912004-13267-043417FM-12+044199999V0203601N0000199999999020000199+02471+02191101251ADDAA124006031AZ101061AZ201061GA1041+008001061GA2991+999991051GE19MSL   +99999+99999GF106991041990008001991991KA1120N+02111MA1999990096331MD1909990+0191REMSYN004BUFR
0165832880999992013112912004-13262-043408FM-15+044399999V0201801N002110304819N009999199+02701+02101999999ADDGA1021+009141991GA2071+030481991GE19MSL   +99999+99999GF199999021990009141991991MA1101501999990REMMET058METAR SBLP 291200Z 18004KT 9999 FEW030 BKN100 27/21 Q1015=
0165832880999992013112913004-13262-043408FM-15+044399999V0202901N001510304819N009999199+02901+02101999999ADDGA1021+009141991GA2071+030481991GE19MSL   +99999+99999GF199999021990009141991991MA1101501999990REMMET058METAR SBLP 291300Z 29003KT 9999 FEW030 BKN100 29/21 Q1015=
0165832880999992013112914004-13262-043408FM-15+044399999V0201801N002110304819N009999199+03101+02101999999ADDGA1041+009141991GA2071+030481991GE19MSL   +99999+99999GF199999041990009141991991MA1101401999990REMMET058METAR SBLP 291400Z 18004KT 9999 SCT030 BKN100 31/21 Q1014=
0165832880999992013112915004-13262-043408FM-15+044399999V0200401N003610091419N009999199+03101+02101999999ADDGA1071+009141991GA2071+030481991GE19MSL   +99999+99999GF199999071990009141991991MA1101301999990REMMET058METAR SBLP 291500Z 04007KT 9999 BKN030 BKN100 31/21 Q1013=
0165832880999992013112916004-13262-043408FM-15+044399999V0209999C000010091419N009999199+03001+02101999999ADDGA1071+009141991GA2071+030481991GE19MSL   +99999+99999GF199999071990009141991991MA1101201999990REMMET058METAR SBLP 291600Z 00000KT 9999 BKN030 BKN100 30/21 Q1012=
0188832880999992013112917004-13262-043408FM-15+044399999V0201301N00151009141CN009999199+02801+02301999999ADDGA1021+006101991GA2041+009141991GA3071+030481991GE19MSL   +99999+99999GF199999021990006101991991MA1101201999990REMMET065METAR SBLP 291700Z 13003KT 9999 FEW020 SCT030 BKN100 28/23 Q1012=
0174832880999992013112918004-13267-043417FM-12+044199999V0203201N0015100800199020000199+02391+02231100911ADDAA106007031AY161061AY261061GA1081+008001061GA2991+999991101GA3991+999991101GE19MSL   +99999+99999GF108991081990008001991991MA1999990095971MD1909990+0081MW1021REMSYN004BUFR
0198832880999992013112918004-13262-043408FM-15+044399999V0203001N00311006101CN006000199+02401+02201999999ADDGA1041+003051991GA2041+006101991GA3071+028351991GE19MSL   +99999+99999GF199999041990003051991991MA1101201999990MW1611REMMET069METAR SBLP 291800Z 30006KT 6000 -RA SCT010 SCT020 BKN093 24/22 Q1012=
0188832880999992013112919004-13262-043408FM-15+044399999V0202701N00311009141CN009999199+02401+02201999999ADDGA1021+006101991GA2041+009141991GA3071+030481991GE19MSL   +99999+99999GF199999021990006101991991MA1101101999990REMMET065METAR SBLP 291900Z 27006KT 9999 FEW020 SCT030 BKN100 24/22 Q1011=
0188832880999992013112920004-13262-043408FM-15+044399999V0209999C00001009141CN009999199+02401+02201999999ADDGA1021+006101991GA2041+009141991GA3071+030481991GE19MSL   +99999+99999GF199999021990006101991991MA1101101999990REMMET065METAR SBLP 292000Z 00000KT 9999 FEW020 SCT030 BKN100 24/22 Q1011=
0188832880999992013112921004-13262-043408FM-15+044399999V0209999C00001009141CN009999199+02401+02201999999ADDGA1021+006101991GA2041+009141991GA3071+030481991GE19MSL   +99999+99999GF199999021990006101991991MA1101201999990REMMET065METAR SBLP 292100Z 00000KT 9999 FEW020 SCT030 BKN100 24/22 Q1012=
0168832880999992013113000004-13267-043417FM-12+044199999V0200501N0015100800199002000199+02321+02191101201ADDAA101999990AZ101061AZ201061GA1081+008001061GA2991+999991101GA3991+999991101GE19MSL   +99999+99999GF108991081990008001991991MA1999990096291MD1909990+0271REMSYN004BUFR
0181832880999992013113012004-13267-043417FM-12+044199999V0203601N0000100800199020000199+02441+02281101251ADDAA124009031AZ101061AZ201061GA1081+008001061GA2991+999991011GA3991+999991051GE19MSL   +99999+99999GF108991081990008001991991KA1120N+02191MA1999990096341MD1909990+0011REMSYN004BUFR
0136832880999992013113018004-13267-043417FM-12+044199999V0203601N0000199999999020000199+03221+02261100791ADDAA101999990AZ101061AZ201061GA1041+008001081GE19MSL   +99999+99999GF104991041990008001991991MA1999990095971MD1909990+0001REMSYN004BUFR
0149832880999992013120112004-13267-043417FM-12+044199999V0200901N0010199999999020000199+02821+01901101161ADDAA101999990AZ101061AZ201061GA1991+025001001GE19MSL   +99999+99999GF101991990990025001991991KA1120N+02201MA1999990096311MD1909990-0031REMSYN004BUFR
0136832880999992013120118004-13267-043417FM-12+044199999V0201801N0010199999999020000199+03291+01761100771ADDAA101999990AZ101061AZ201061GA1031+008001081GE19MSL   +99999+99999GF103991031990008001991991MA1999990095961MD1909990-0011REMSYN004BUFR
0072832880999992013120209154-13262-043408FM-16+044399999V0209999C000019999999Y999999999+02201+02001999999ADDMA1101401999990REMMET045SPECI SBLP 020915Z 00000KT CAVOK 22/20 Q1014=
0072832880999992013120210004-13262-043408FM-15+044399999V0201901N002119999999Y999999999+02601+01901999999ADDMA1101401999990REMMET045METAR SBLP 021000Z 19004KT CAVOK 26/19 Q1014=
0072832880999992013120211004-13262-043408FM-15+044399999V0200501N003119999999Y999999999+02801+01701999999ADDMA1101501999990REMMET045METAR SBLP 021100Z 05006KT CAVOK 28/17 Q1015=
0111832880999992013120212004-13267-043417FM-12+044199999V0200901N0021122000199020000199+02791+01691101171ADDAA101999990AZ101061AZ201061GF100991999999999999999999KA1120N+02171MA1999990096341MD1909990+0031REMSYN004BUFR
0072832880999992013120212004-13262-043408FM-15+044399999V0201801N003119999999Y999999999+03001+01701999999ADDMA1101501999990REMMET045METAR SBLP 021200Z 18006KT CAVOK 30/17 Q1015=
0072832880999992013120213004-13262-043408FM-15+044399999V0201201N002619999999Y999999999+03201+01701999999ADDMA1101401999990REMMET045METAR SBLP 021300Z 12005KT CAVOK 32/17 Q1014=
0142832880999992013120214004-13262-043408FM-15+044399999V0209999C000019999999N009999199+03301+01601999999ADDGA1021+009141991GE19MSL   +99999+99999GF199999021990009141991991MA1101501999990REMMET051METAR SBLP 021400Z 00000KT 9999 FEW030 33/16 Q1015=
0142832880999992013120215004-13262-043408FM-15+044399999V0209999C000019999999N009999199+03301+01401999999ADDGA1021+009141991GE19MSL   +99999+99999GF199999021990009141991991MA1101401999990REMMET051METAR SBLP 021500Z 00000KT 9999 FEW030 33/14 Q1014=
0142832880999992013120216004-13262-043408FM-15+044399999V0201701N003119999999N009999199+03301+01601999999ADDGA1021+009141991GE19MSL   +99999+99999GF199999021990009141991991MA1101301999990REMMET051METAR SBLP 021600Z 17006KT 9999 FEW030 33/16 Q1013=
0142832880999992013120217004-13262-043408FM-15+044399999V0209999C000019999999N009999199+03501+01701999999ADDGA1021+009141991GE19MSL   +99999+99999GF199999021990009141991991MA1101201999990REMMET051METAR SBLP 021700Z 00000KT 9999 FEW030 35/17 Q1012=
0136832880999992013120218004-13267-043417FM-12+044199999V0202301N0026199999999020000199+03351+01731100711ADDAA101999990AZ101061AZ201061GA1011+008001081GE19MSL   +99999+99999GF101991011990008001991991MA1999990095901MD1909990-0061REMSYN004BUFR
0142832880999992013120218004-13262-043408FM-15+044399999V0203001N001519999999N009999199+03401+01501999999ADDGA1021+009141991GE19MSL   +99999+99999GF199999021990009141991991MA1101101999990REMMET051METAR SBLP 021800Z 30003KT 9999 FEW030 34/15 Q1011=
0142832880999992013120219004-13262-043408FM-15+044399999V0202101N002119999999N009999199+03501+01701999999ADDGA1021+009141991GE19MSL   +99999+99999GF199999021990009141991991MA1101001999990REMMET051METAR SBLP 021900Z 21004KT 9999 FEW030 35/17 Q1010=
0142832880999992013120220004-13262-043408FM-15+044399999V0209999C000019999999N009999199+03401+01601999999ADDGA1021+009141991GE19MSL   +99999+99999GF199999021990009141991991MA1101001999990REMMET051METAR SBLP 022000Z 00000KT 9999 FEW030 34/16 Q1010=
0142832880999992013120221004-13262-043408FM-15+044399999V0209999C000019999999N009999199+03301+01701999999ADDGA1021+009141991GE19MSL   +99999+99999GF199999021990009141991991MA1101001999990REMMET051METAR SBLP 022100Z 00000KT 9999 FEW030 33/17 Q1010=
0098832880999992013120300004-13267-043417FM-12+044199999V0203601N0000122000199002000199+02841+01831100951ADDAA101999990AZ101061AZ201061GF100991999999999999999999MA1999990096131MD1909990+0091REMSYN004BUFR
0072832880999992013120309154-13262-043408FM-16+044399999V0203401N001519999999Y999999999+02401+01801999999ADDMA1101401999990REMMET045SPECI SBLP 030915Z 34003KT CAVOK 24/18 Q1014=
0072832880999992013120310004-13262-043408FM-15+044399999V0209999C000019999999Y999999999+02501+02001999999ADDMA1101401999990REMMET045METAR SBLP 031000Z 00000KT CAVOK 25/20 Q1014=
0072832880999992013120311004-13262-043408FM-15+044399999V0200901N002119999999Y999999999+02801+01901999999ADDMA1101401999990REMMET045METAR SBLP 031100Z 09004KT CAVOK 28/19 Q1014=
0165832880999992013120312004-13267-043417FM-12+044199999V0201401N0005199999999020000199+02841+02151101111ADDAA101999990AZ101061AZ201061GA1031+012501051GA2991+999991021GE19MSL   +99999+99999GF105991031990012501991991KA1120N+02271MA1999990096291MD1909990-0051REMSYN004BUFR
0072832880999992013120312004-13262-043408FM-15+044399999V0209999C000019999999Y999999999+03101+02101999999ADDMA1101501999990REMMET045METAR SBLP 031200Z 00000KT CAVOK 31/21 Q1015=
0072832880999992013120313004-13262-043408FM-15+044399999V0209999C000019999999Y999999999+03301+01901999999ADDMA1101501999990REMMET045METAR SBLP 031300Z 00000KT CAVOK 33/19 Q1015=
0142832880999992013120314004-13262-043408FM-15+044399999V0201201N001519999999N009999199+03501+01701999999ADDGA1021+009141991GE19MSL   +99999+99999GF199999021990009141991991MA1101401999990REMMET051METAR SBLP 031400Z 12003KT 9999 FEW030 35/17 Q1014=
0142832880999992013120315004-13262-043408FM-15+044399999V0203301N003119999999N009999199+03601+01501999999ADDGA1021+009141991GE19MSL   +99999+99999GF199999021990009141991991MA1101301999990REMMET051METAR SBLP 031500Z 33006KT 9999 FEW030 36/15 Q1013=
0142832880999992013120316004-13262-043408FM-15+044399999V0209999C000019999999N009999199+03501+01801999999ADDGA1021+009141991GE19MSL   +99999+99999GF199999021990009141991991MA1101301999990REMMET051METAR SBLP 031600Z 00000KT 9999 FEW030 35/18 Q1013=
0142832880999992013120317004-13262-043408FM-15+044399999V0209999C000019999999N009999199+03701+02001999999ADDGA1021+009141991GE19MSL   +99999+99999GF199999021990009141991991MA1101201999990REMMET051METAR SBLP 031700Z 00000KT 9999 FEW030 37/20 Q1012=
0168832880999992013120318004-13267-043417FM-12+044199999V0202701N0015199999999020000199+03541+01631100691ADDAA101999990AZ101061AZ201061GA1031+008001081GA2991+999991021GA3991+999991051GE19MSL   +99999+99999GF105991031990008001991991MA1999990095901MD1909990+0001REMSYN004BUFR
0142832880999992013120318004-13262-043408FM-15+044399999V0209999C000019999999N009999199+03601+01401999999ADDGA1021+009141991GE19MSL   +99999+99999GF199999021990009141991991MA1101101999990REMMET051METAR SBLP 031800Z 00000KT 9999 FEW030 36/14 Q1011=
0142832880999992013120321004-13262-043408FM-15+044399999V0209999C000019999999N009999199+03401+01701999999ADDGA1021+009141991GE19MSL   +99999+99999GF199999021990009141991991MA1101101999990REMMET051METAR SBLP 032100Z 00000KT 9999 FEW030 34/17 Q1011=
0098832880999992013120400004-13267-043417FM-12+044199999V0203601N0000122000199002000199+03001+02041100871ADDAA101999990AZ101061AZ201061GF100991999999999999999999MA1999990096071MD1909990-0061REMSYN004BUFR
0072832880999992013120409154-13262-043408FM-16+044399999V0202401N001519999999Y999999999+02401+02001999999ADDMA1101301999990REMMET045SPECI SBLP 040915Z 24003KT CAVOK 24/20 Q1013=
0142832880999992013120410004-13262-043408FM-15+044399999V0203201N002119999999N009999199+02601+02001999999ADDGA1021+009141991GE19MSL   +99999+99999GF199999021990009141991991MA1101401999990REMMET051METAR SBLP 041000Z 32004KT 9999 FEW030 26/20 Q1014=
0142832880999992013120411004-13262-043408FM-15+044399999V0203401N002619999999N009999199+02901+01901999999ADDGA1021+009141991GE19MSL   +99999+99999GF199999021990009141991991MA1101501999990REMMET051METAR SBLP 041100Z 34005KT 9999 FEW030 29/19 Q1015=
0165832880999992013120412004-13267-043417FM-12+044199999V0200501N0015199999999020000199+02921+02071101191ADDAA101999990AZ101061AZ201061GA1011+008001081GA2991+999991021GE19MSL   +99999+99999GF103991011990008001991991KA1120N+02321MA1999990096301MD1909990+0011REMSYN004BUFR
0142832880999992013120412004-13262-043408FM-15+044399999V0200401N003119999999N009999199+03201+02001999999ADDGA1021+009141991GE19MSL   +99999+99999GF199999021990009141991991MA1101501999990REMMET051METAR SBLP 041200Z 04006KT 9999 FEW030 32/20 Q1015=
0142832880999992013120413004-13262-043408FM-15+044399999V0200301N002619999999N009999199+03401+01801999999ADDGA1021+009141991GE19MSL   +99999+99999GF199999021990009141991991MA1101501999990REMMET051METAR SBLP 041300Z 03005KT 9999 FEW030 34/18 Q1015=
0142832880999992013120414004-13262-043408FM-15+044399999V0200101N003119999999N009999199+03601+01701999999ADDGA1021+009141991GE19MSL   +99999+99999GF199999021990009141991991MA1101401999990REMMET051METAR SBLP 041400Z 01006KT 9999 FEW030 36/17 Q1014=
0142832880999992013120415004-13262-043408FM-15+044399999V0200601N003619999999N009999199+03601+01701999999ADDGA1021+009141991GE19MSL   +99999+99999GF199999021990009141991991MA1101301999990REMMET051METAR SBLP 041500Z 06007KT 9999 FEW030 36/17 Q1013=
0142832880999992013120416004-13262-043408FM-15+044399999V0203601N003619999999N009999199+03601+01701999999ADDGA1021+009141991GE19MSL   +99999+99999GF199999021990009141991991MA1101201999990REMMET051METAR SBLP 041600Z 36007KT 9999 FEW030 36/17 Q1012=
0142832880999992013120417004-13262-043408FM-15+044399999V0209999C000019999999N009999199+03701+01501999999ADDGA1041+009141991GE19MSL   +99999+99999GF199999041990009141991991MA1101101999990REMMET051METAR SBLP 041700Z 00000KT 9999 SCT030 37/15 Q1011=
0152832880999992013120418004-13267-043417FM-12+044199999V0203601N0010199999999020000199+03591+02031100591ADDAA101999990AZ101061AZ201061GA1021+008001081GA2991+999991021GE19MSL   +99999+99999GF104991021990008001991991MA1999990095831MD1909990-0071REMSYN004BUFR
0142832880999992013120418004-13262-043408FM-15+044399999V0203301N003119999999N009999199+03601+01701999999ADDGA1021+009141991GE19MSL   +99999+99999GF199999021990009141991991MA1101001999990REMMET051METAR SBLP 041800Z 33006KT 9999 FEW030 36/17 Q1010=
0142832880999992013120419004-13262-043408FM-15+044399999V0209999C000019999999N009999199+03601+01701999999ADDGA1021+009141991GE19MSL   +99999+99999GF199999021990009141991991MA1101001999990REMMET051METAR SBLP 041900Z 00000KT 9999 FEW030 36/17 Q1010=
0165832880999992013120420004-13262-043408FM-15+044399999V0203601N00361030481CN009999199+03501+01801999999ADDGA1021+009141991GA2041+030481991GE19MSL   +99999+99999GF199999021990009141991991MA1101001999990REMMET058METAR SBLP 042000Z 36007KT 9999 FEW030 SCT100 35/18 Q1010=
0165832880999992013120421004-13262-043408FM-15+044399999V0203401N00311030481CN009999199+03401+01701999999ADDGA1021+009141991GA2041+030481991GE19MSL   +99999+99999GF199999021990009141991991MA1101001999990REMMET058METAR SBLP 042100Z 34006KT 9999 FEW030 SCT100 34/17 Q1010=
0098832880999992013120500004-13267-043417FM-12+044199999V0201401N0010122000199002000199+02921+02101100891ADDAA101999990AZ101061AZ201061GF100991999999999999999999MA1999990096091MD1909990+0021REMSYN004BUFR
0072832880999992013120509154-13262-043408FM-16+044399999V0200401N001519999999Y999999999+02501+02001999999ADDMA1101301999990REMMET045SPECI SBLP 050915Z 04003KT CAVOK 25/20 Q1013=
0072832880999992013120510004-13262-043408FM-15+044399999V0202701N001519999999Y999999999+02601+02101999999ADDMA1101301999990REMMET045METAR SBLP 051000Z 27003KT CAVOK 26/21 Q1013=
0072832880999992013120511004-13262-043408FM-15+044399999V0202401N002119999999Y999999999+02801+02101999999ADDMA1101301999990REMMET045METAR SBLP 051100Z 24004KT CAVOK 28/21 Q1013=
0149832880999992013120512004-13267-043417FM-12+044199999V0201801N0015199999999020000199+02871+02161100931ADDAA101999990AZ101061AZ201061GA1991+025001001GE19MSL   +99999+99999GF101991990990025001991991KA1120N+02391MA1999990096131MD1909990-0171REMSYN004BUFR
0142832880999992013120512004-13262-043408FM-15+044399999V0209999C000019999999N009999199+03101+02101999999ADDGA1021+009141991GE19MSL   +99999+99999GF199999021990009141991991MA1101301999990REMMET051METAR SBLP 051200Z 00000KT 9999 FEW030 31/21 Q1013=
0142832880999992013120513004-13262-043408FM-15+044399999V0201301N001519999999N009999199+03201+02101999999ADDGA1021+009141991GE19MSL   +99999+99999GF199999021990009141991991MA1101301999990REMMET051METAR SBLP 051300Z 13003KT 9999 FEW030 32/21 Q1013=
0142832880999992013120514004-13262-043408FM-15+044399999V0202801N002119999999N009999199+03401+02101999999ADDGA1021+009141991GE19MSL   +99999+99999GF199999021990009141991991MA1101301999990REMMET051METAR SBLP 051400Z 28004KT 9999 FEW030 34/21 Q1013=
0142832880999992013120515004-13262-043408FM-15+044399999V0203001N003119999999N009999199+03501+02101999999ADDGA1021+009141991GE19MSL   +99999+99999GF199999021990009141991991MA1101101999990REMMET051METAR SBLP 051500Z 30006KT 9999 FEW030 35/21 Q1011=
0142832880999992013120516004-13262-043408FM-15+044399999V0209999C000019999999N009999199+03501+02101999999ADDGA1021+009141991GE19MSL   +99999+99999GF199999021990009141991991MA1101001999990REMMET051METAR SBLP 051600Z 00000KT 9999 FEW030 35/21 Q1010=
0188832880999992013120517004-13262-043408FM-15+044399999V0203601N00361009141CN009999199+03401+02101999999ADDGA1021+006101991GA2041+009141991GA3071+030481991GE19MSL   +99999+99999GF199999021990006101991991MA1101001999990REMMET065METAR SBLP 051700Z 36007KT 9999 FEW020 SCT030 BKN100 34/21 Q1010=
0152832880999992013120518004-13267-043417FM-12+044199999V0203601N0015199999999020000199+02771+02041100571ADDAA101999990AZ101061AZ201061GA1041+008001081GA2991+999991001GE19MSL   +99999+99999GF108991041990008001991991MA1999990095731MD1909990-0101REMSYN004BUFR
0188832880999992013120518004-13262-043408FM-15+044399999V0200601N00511009141CN009999199+02801+02001999999ADDGA1021+006101991GA2041+009141991GA3071+030481991GE19MSL   +99999+99999GF199999021990006101991991MA1100901999990REMMET065METAR SBLP 051800Z 06010KT 9999 FEW020 SCT030 BKN100 28/20 Q1009=
0188832880999992013120519004-13262-043408FM-15+044399999V0202301N00361009141CN009999199+02901+02001999999ADDGA1021+006101991GA2041+009141991GA3071+030481991GE19MSL   +99999+99999GF199999021990006101991991MA1100801999990REMMET065METAR SBLP 051900Z 23007KT 9999 FEW020 SCT030 BKN100 29/20 Q1008=
0188832880999992013120520004-13262-043408FM-15+044399999V0209999C00001009141CN009999199+02901+02001999999ADDGA1021+006101991GA2041+009141991GA3071+030481991GE19MSL   +99999+99999GF199999021990006101991991MA1100901999990REMMET065METAR SBLP 052000Z 00000KT 9999 FEW020 SCT030 BKN100 29/20 Q1009=
0165832880999992013120521004-13262-043408FM-15+044399999V0209999C000010304819N009999199+02701+02101999999ADDGA1041+009141991GA2071+030481991GE19MSL   +99999+99999GF199999041990009141991991MA1101001999990REMMET058METAR SBLP 052100Z 00000KT 9999 SCT030 BKN100 27/21 Q1010=
0136832880999992013120600004-13267-043417FM-12+044199999V0201801N0010199999999002000199+02601+02171100841ADDAA101999990AZ101061AZ201061GA1991+025001001GE19MSL   +99999+99999GF107991990990025001991991MA1999990096021MD1909990-0071REMSYN004BUFR
0165832880999992013120609154-13262-043408FM-16+044399999V0201701N002610061019N009999199+02301+02201999999ADDGA1041+002131991GA2071+006101991GE19MSL   +99999+99999GF199999041990002131991991MA1101301999990REMMET058SPECI SBLP 060915Z 17005KT 9999 SCT007 BKN020 23/22 Q1013=
0165832880999992013120610004-13262-043408FM-15+044399999V0209999C000010061019N009999199+02301+02201999999ADDGA1021+002131991GA2071+006101991GE19MSL   +99999+99999GF199999021990002131991991MA1101401999990REMMET058METAR SBLP 061000Z 00000KT 9999 FEW007 BKN020 23/22 Q1014=
0165832880999992013120611004-13262-043408FM-15+044399999V0202101N001510304819N009999199+02401+02201999999ADDGA1041+006101991GA2071+030481991GE19MSL   +99999+99999GF199999041990006101991991MA1101401999990REMMET058METAR SBLP 061100Z 21003KT 9999 SCT020 BKN100 24/22 Q1014=
0187832880999992013120612004-13267-043417FM-12+044199999V0202301N0010100800199020000199+02391+02231101181ADDAA124013031AY161061AY261061GA1081+008001061GA2991+999991101GA3991+999991101GE19MSL   +99999+99999GF108991081990008001991991KA1120N+02221MA1999990096281MD1909990+0151MW1021REMSYN004BUFR
0165832880999992013120612004-13262-043408FM-15+044399999V0202401N002110304819N009999199+02501+02201999999ADDGA1041+006101991GA2071+030481991GE19MSL   +99999+99999GF199999041990006101991991MA1101501999990REMMET058METAR SBLP 061200Z 24004KT 9999 SCT020 BKN100 25/22 Q1015=
0165832880999992013120613004-13262-043408FM-15+044399999V0202301N001510304819N009999199+02701+02301999999ADDGA1041+006101991GA2071+030481991GE19MSL   +99999+99999GF199999041990006101991991MA1101501999990REMMET058METAR SBLP 061300Z 23003KT 9999 SCT020 BKN100 27/23 Q1015=
0188832880999992013120614004-13262-043408FM-15+044399999V0202501N00261009141CN009999199+02701+02301999999ADDGA1021+006101991GA2041+009141991GA3071+030481991GE19MSL   +99999+99999GF199999021990006101991991MA1101401999990REMMET065METAR SBLP 061400Z 25005KT 9999 FEW020 SCT030 BKN100 27/23 Q1014=
0165832880999992013120615004-13262-043408FM-15+044399999V0202901N00311030481CN009999199+02901+02201999999ADDGA1021+009141991GA2041+030481991GE19MSL   +99999+99999GF199999021990009141991991MA1101301999990REMMET058METAR SBLP 061500Z 29006KT 9999 FEW030 SCT100 29/22 Q1013=
0165832880999992013120616004-13262-043408FM-15+044399999V0202701N00361030481CN009999199+02901+02101999999ADDGA1021+009141991GA2041+030481991GE19MSL   +99999+99999GF199999021990009141991991MA1101201999990REMMET058METAR SBLP 061600Z 27007KT 9999 FEW030 SCT100 29/21 Q1012=
0165832880999992013120617004-13262-043408FM-15+044399999V0202601N00211030481CN009999199+03101+01901999999ADDGA1021+009141991GA2041+030481991GE19MSL   +99999+99999GF199999021990009141991991MA1101101999990REMMET058METAR SBLP 061700Z 26004KT 9999 FEW030 SCT100 31/19 Q1011=
0165832880999992013120618004-13262-043408FM-15+044399999V0202401N00151030481CN009999199+03201+02201999999ADDGA1021+009141991GA2041+030481991GE19MSL   +99999+99999GF199999021990009141991991MA1101001999990REMMET058METAR SBLP 061800Z 24003KT 9999 FEW030 SCT100 32/22 Q1010=
0165832880999992013120619004-13262-043408FM-15+044399999V0201801N002610304819N009999199+03201+02001999999ADDGA1021+009141991GA2071+030481991GE19MSL   +99999+99999GF199999021990009141991991MA1101001999990REMMET058METAR SBLP 061900Z 18005KT 9999 FEW030 BKN100 32/20 Q1010=
0165832880999992013120620004-13262-043408FM-15+044399999V0200801N00361030481CN009999199+02901+02301999999ADDGA1021+009141991GA2041+030481991GE19MSL   +99999+99999GF199999021990009141991991MA1101001999990REMMET058METAR SBLP 062000Z 08007KT 9999 FEW030 SCT100 29/23 Q1010=
0165832880999992013120621004-13262-043408FM-15+044399999V0200701N00411030481CN009999199+02601+02201999999ADDGA1021+009141991GA2041+030481991GE19MSL   +99999+99999GF199999021990009141991991MA1101001999990REMMET058METAR SBLP 062100Z 07008KT 9999 FEW030 SCT100 26/22 Q1010=
0181832880999992013120712004-13267-043417FM-12+044199999V0200501N0015199999999020000199+02591+02201101281ADDAA101999990AZ101061AZ201061GA1041+008001061GA2991+999991021GA3991+999991031GE19MSL   +99999+99999GF108991041990008001991991KA1120N+02281MA1999990096391MD1909990+0111REMSYN004BUFR
0152832880999992013120718004-13267-043417FM-12+044199999V0203601N0015199999999020000199+03101+02161100861ADDAA101999990AZ101061AZ201061GA1031+008001081GA2991+999991021GE19MSL   +99999+99999GF105991031990008001991991MA1999990096011MD1909990+0161REMSYN004BUFR
0149832880999992013120812004-13267-043417FM-12+044199999V0203601N0000199999999020000199+02551+02361101251ADDAA124013031AZ101061AZ201061GA1041+008001081GE19MSL   +99999+99999GF104991041990008001991991KA1120N+02301MA1999990096361MD1909990-0031REMSYN004BUFR
0158832880999992013120818004-13267-043417FM-12+044199999V0201401N0015199999999020000199+02501+02251100961ADDAA106000431AY151061AY251061GA1041+008001061GA2991+999991001GE19MSL   +99999+99999GF108991041990008001991991MA1999990096051MD1909990+0011MW1021REMSYN004BUFR
0188832880999992013120909154-13262-043408FM-16+044399999V0202001N00211006101CN009999199+02201+02201999999ADDGA1021+002131991GA2041+006101991GA3071+030481991GE19MSL   +99999+99999GF199999021990002131991991MA1101501999990REMMET065SPECI SBLP 090915Z 20004KT 9999 FEW007 SCT020 BKN100 22/22 Q1015=
0188832880999992013120910004-13262-043408FM-15+044399999V0202101N00311006101CN009999199+02301+02201999999ADDGA1021+002131991GA2041+006101991GA3071+030481991GE19MSL   +99999+99999GF199999021990002131991991MA1101501999990REMMET065METAR SBLP 091000Z 21006KT 9999 FEW007 SCT020 BKN100 23/22 Q1015=
0165832880999992013120911004-13262-043408FM-15+044399999V0202301N002610304819N009999199+02301+02201999999ADDGA1041+006101991GA2071+030481991GE19MSL   +99999+99999GF199999041990006101991991MA1101601999990REMMET058METAR SBLP 091100Z 23005KT 9999 SCT020 BKN100 23/22 Q1016=
0187832880999992013120912004-13267-043417FM-12+044199999V0202301N0005100800199020000199+02391+02271101391ADDAA124016031AY161061AY261061GA1081+008001061GA2991+999991101GA3991+999991101GE19MSL   +99999+99999GF108991081990008001991991KA1120N+02181MA1999990096461MD1909990+0101MW1021REMSYN004BUFR
0188832880999992013120912004-13262-043408FM-15+044399999V0202501N00311006101CN009999199+02401+02301999999ADDGA1021+002131991GA2041+006101991GA3071+030481991GE19MSL   +99999+99999GF199999021990002131991991MA1101601999990REMMET065METAR SBLP 091200Z 25006KT 9999 FEW007 SCT020 BKN100 24/23 Q1016=
0165832880999992013120913004-13262-043408FM-15+044399999V0202401N003110061019N009999199+02601+02301999999ADDGA1071+006101991GA2071+030481991GE19MSL   +99999+99999GF199999071990006101991991MA1101701999990REMMET058METAR SBLP 091300Z 24006KT 9999 BKN020 BKN100 26/23 Q1017=
0165832880999992013120914004-13262-043408FM-15+044399999V0202801N003110304819N009999199+02701+02301999999ADDGA1041+006101991GA2071+030481991GE19MSL   +99999+99999GF199999041990006101991991MA1101701999990REMMET058METAR SBLP 091400Z 28006KT 9999 SCT020 BKN100 27/23 Q1017=
0165832880999992013120915004-13262-043408FM-15+044399999V0202701N002110304819N009999199+02701+02201999999ADDGA1041+006101991GA2071+030481991GE19MSL   +99999+99999GF199999041990006101991991MA1101601999990REMMET058METAR SBLP 091500Z 27004KT 9999 SCT020 BKN100 27/22 Q1016=
0165832880999992013120916004-13262-043408FM-15+044399999V0202401N003110304819N009999199+02601+02201999999ADDGA1041+006101991GA2071+030481991GE19MSL   +99999+99999GF199999041990006101991991MA1101601999990REMMET058METAR SBLP 091600Z 24006KT 9999 SCT020 BKN100 26/22 Q1016=
0191832880999992013120917004-13262-043408FM-15+044399999V0202101N007210304819N009999199+02601+02101999999ADDGA1041+006101991GA2021+012191081GA3071+030481991GE19MSL   +99999+99999GF199999041990006101991991MA1101601999990REMMET068METAR SBLP 091700Z 21014KT 9999 SCT020 FEW040TCU BKN100 26/21 Q1016=
0168832880999992013120918004-13267-043417FM-12+044199999V0201801N0015100800199020000199+02491+02091101231ADDAA101999990AZ101061AZ201061GA1081+008001061GA2991+999991101GA3991+999991101GE19MSL   +99999+99999GF108991081990008001991991MA1999990096301MD1909990+0251REMSYN004BUFR
0188832880999992013120918004-13262-043408FM-15+044399999V0202401N00311006101CN009999199+02301+02101999999ADDGA1021+002131991GA2041+006101991GA3071+030481991GE19MSL   +99999+99999GF199999021990002131991991MA1101401999990REMMET065METAR SBLP 091800Z 24006KT 9999 FEW007 SCT020 BKN100 23/21 Q1014=
0165832880999992013120919004-13262-043408FM-15+044399999V0202201N002110304819N009999199+02401+02101999999ADDGA1041+006101991GA2071+030481991GE19MSL   +99999+99999GF199999041990006101991991MA1101401999990REMMET058METAR SBLP 091900Z 22004KT 9999 SCT020 BKN100 24/21 Q1014=
0165832880999992013120920004-13262-043408FM-15+044399999V0201201N003110304819N009999199+02401+02101999999ADDGA1021+006101991GA2071+030481991GE19MSL   +99999+99999GF199999021990006101991991MA1101401999990REMMET058METAR SBLP 092000Z 12006KT 9999 FEW020 BKN100 24/21 Q1014=
0165832880999992013120921004-13262-043408FM-15+044399999V0209999C000010304819N009999199+02401+02101999999ADDGA1021+006101991GA2071+030481991GE19MSL   +99999+99999GF199999021990006101991991MA1101401999990REMMET058METAR SBLP 092100Z 00000KT 9999 FEW020 BKN100 24/21 Q1014=
0168832880999992013121000004-13267-043417FM-12+044199999V0201401N0005100450199002000199+02291+02211101301ADDAA101999990AZ101061AZ201061GA1081+004501061GA2991+999991101GA3991+999991101GE19MSL   +99999+99999GF108991081990004501991991MA1999990096361MD1909990+0181REMSYN004BUFR
0165832880999992013121009154-13262-043408FM-16+044399999V0202401N002110304819N009999199+02301+02201999999ADDGA1041+006101991GA2071+030481991GE19MSL   +99999+99999GF199999041990006101991991MA1101601999990REMMET058SPECI SBLP 100915Z 24004KT 9999 SCT020 BKN100 23/22 Q1016=
0165832880999992013121010004-13262-043408FM-15+044399999V0209999C000010304819N009999199+02301+02201999999ADDGA1021+006101991GA2071+030481991GE19MSL   +99999+99999GF199999021990006101991991MA1101601999990REMMET058METAR SBLP 101000Z 00000KT 9999 FEW020 BKN100 23/22 Q1016=
0165832880999992013121011004-13262-043408FM-15+044399999V0209999C000010304819N009999199+02601+02201999999ADDGA1021+006101991GA2071+030481991GE19MSL   +99999+99999GF199999021990006101991991MA1101701999990REMMET058METAR SBLP 101100Z 00000KT 9999 FEW020 BKN100 26/22 Q1017=
0165832880999992013121012004-13267-043417FM-12+044199999V0201801N0010199999999020000199+02571+02381101411ADDAA101999990AZ101061AZ201061GA1041+008001061GA2991+999991031GE19MSL   +99999+99999GF106991041990008001991991KA1120N+02201MA1999990096481MD1909990+0021REMSYN004BUFR
0165832880999992013121012004-13262-043408FM-15+044399999V0202201N002110304819N009999199+02701+02201999999ADDGA1021+009141991GA2071+030481991GE19MSL   +99999+99999GF199999021990009141991991MA1101701999990REMMET058METAR SBLP 101200Z 22004KT 9999 FEW030 BKN100 27/22 Q1017=
0165832880999992013121013004-13262-043408FM-15+044399999V0201601N00211030481CN009999199+02901+02301999999ADDGA1021+009141991GA2041+030481991GE19MSL   +99999+99999GF199999021990009141991991MA1101601999990REMMET058METAR SBLP 101300Z 16004KT 9999 FEW030 SCT100 29/23 Q1016=
0165832880999992013121014004-13262-043408FM-15+044399999V0202201N00311030481CN009999199+03001+02201999999ADDGA1041+009141991GA2041+030481991GE19MSL   +99999+99999GF199999041990009141991991MA1101601999990REMMET058METAR SBLP 101400Z 22006KT 9999 SCT030 SCT100 30/22 Q1016=
0142832880999992013121015004-13262-043408FM-15+044399999V0202701N003119999999N009999199+03201+02101999999ADDGA1041+009141991GE19MSL   +99999+99999GF199999041990009141991991MA1101501999990REMMET051METAR SBLP 101500Z 27006KT 9999 SCT030 32/21 Q1015=
0142832880999992013121016004-13262-043408FM-15+044399999V0209999C000019999999N009999199+03201+02101999999ADDGA1041+009141991GE19MSL   +99999+99999GF199999041990009141991991MA1101401999990REMMET051METAR SBLP 101600Z 00000KT 9999 SCT030 32/21 Q1014=
0142832880999992013121017004-13262-043408FM-15+044399999V0202401N002619999999N009999199+03201+02201999999ADDGA1021+009141991GE19MSL   +99999+99999GF199999021990009141991991MA1101301999990REMMET051METAR SBLP 101700Z 24005KT 9999 FEW030 32/22 Q1013=
0152832880999992013121018004-13267-043417FM-12+044199999V0201801N0005199999999020000199+03121+02421100821ADDAA101999990AZ101061AZ201061GA1021+008001081GA2991+999991001GE19MSL   +99999+99999GF104991021990008001991991MA1999990095971MD1909990-0331REMSYN004BUFR
0142832880999992013121018004-13262-043408FM-15+044399999V0209999C000019999999N009999199+03301+02001999999ADDGA1021+009141991GE19MSL   +99999+99999GF199999021990009141991991MA1101101999990REMMET051METAR SBLP 101800Z 00000KT 9999 FEW030 33/20 Q1011=
0142832880999992013121019004-13262-043408FM-15+044399999V0202701N002119999999N009999199+03301+02101999999ADDGA1021+009141991GE19MSL   +99999+99999GF199999021990009141991991MA1101101999990REMMET051METAR SBLP 101900Z 27004KT 9999 FEW030 33/21 Q1011=
0142832880999992013121020004-13262-043408FM-15+044399999V0202501N002619999999N009999199+03301+02001999999ADDGA1021+009141991GE19MSL   +99999+99999GF199999021990009141991991MA1101001999990REMMET051METAR SBLP 102000Z 25005KT 9999 FEW030 33/20 Q1010=
0142832880999992013121021004-13262-043408FM-15+044399999V0202701N001519999999N009999199+03101+02001999999ADDGA1021+009141991GE19MSL   +99999+99999GF199999021990009141991991MA1101101999990REMMET051METAR SBLP 102100Z 27003KT 9999 FEW030 31/20 Q1011=
0142832880999992013121100004-13267-043417FM-12+044199999V0202701N0010199999999002000199+02371+02201101021ADDAA106008031AY161061AY221061GA1031+008001061GE19MSL   +99999+99999GF103991031990008001991991MA1999990096141MD1909990-0221MW1021REMSYN004BUFR
0165832880999992013121109154-13262-043408FM-16+044399999V0209999C00001030481CN009999199+02401+02201999999ADDGA1021+006101991GA2041+030481991GE19MSL   +99999+99999GF199999021990006101991991MA1101401999990REMMET058SPECI SBLP 110915Z 00000KT 9999 FEW020 SCT100 24/22 Q1014=
0165832880999992013121110004-13262-043408FM-15+044399999V0200301N00211030481CN009999199+02401+02301999999ADDGA1021+009141991GA2041+030481991GE19MSL   +99999+99999GF199999021990009141991991MA1101401999990REMMET058METAR SBLP 111000Z 03004KT 9999 FEW030 SCT100 24/23 Q1014=
0165832880999992013121111004-13262-043408FM-15+044399999V0209999C00001030481CN009999199+02501+02201999999ADDGA1021+009141991GA2041+030481991GE19MSL   +99999+99999GF199999021990009141991991MA1101401999990REMMET058METAR SBLP 111100Z 00000KT 9999 FEW030 SCT100 25/22 Q1014=
0165832880999992013121112004-13267-043417FM-12+044199999V0203601N0000199999999020000199+02621+02251101151ADDAA124008031AZ101061AZ201061GA1041+008001081GA2991+999991001GE19MSL   +99999+99999GF107991041990008001991991KA1120N+02231MA1999990096261MD1909990-0221REMSYN004BUFR
0165832880999992013121112004-13262-043408FM-15+044399999V0200301N00151030481CN009999199+02701+02201999999ADDGA1041+009141991GA2041+030481991GE19MSL   +99999+99999GF199999041990009141991991MA1101401999990REMMET058METAR SBLP 111200Z 03003KT 9999 SCT030 SCT100 27/22 Q1014=
0165832880999992013121113004-13262-043408FM-15+044399999V0200601N002110304819N009999199+02801+02301999999ADDGA1041+009141991GA2071+030481991GE19MSL   +99999+99999GF199999041990009141991991MA1101401999990REMMET058METAR SBLP 111300Z 06004KT 9999 SCT030 BKN100 28/23 Q1014=
0165832880999992013121114004-13262-043408FM-15+044399999V0200301N00261030481CN009999199+03001+02201999999ADDGA1021+009141991GA2041+030481991GE19MSL   +99999+99999GF199999021990009141991991MA1101401999990REMMET058METAR SBLP 111400Z 03005KT 9999 FEW030 SCT100 30/22 Q1014=
0165832880999992013121115004-13262-043408FM-15+044399999V0203601N00261030481CN009999199+03101+02101999999ADDGA1041+009141991GA2041+030481991GE19MSL   +99999+99999GF199999041990009141991991MA1101301999990REMMET058METAR SBLP 111500Z 36005KT 9999 SCT030 SCT100 31/21 Q1013=
0165832880999992013121116004-13262-043408FM-15+044399999V0200501N00211030481CN009999199+03301+02001999999ADDGA1041+009141991GA2041+030481991GE19MSL   +99999+99999GF199999041990009141991991MA1101201999990REMMET058METAR SBLP 111600Z 05004KT 9999 SCT030 SCT100 33/20 Q1012=
0165832880999992013121117004-13262-043408FM-15+044399999V0209999C00001030481CN009999199+03201+02101999999ADDGA1041+009141991GA2041+030481991GE19MSL   +99999+99999GF199999041990009141991991MA1101101999990REMMET058METAR SBLP 111700Z 00000KT 9999 SCT030 SCT100 32/21 Q1011=
0136832880999992013121118004-13267-043417FM-12+044199999V0203201N0010199999999020000199+03191+02251100581ADDAA101999990AZ101061AZ201061GA1991+025001001GE19MSL   +99999+99999GF105991990990025001991991MA1999990095761MD1909990-0211REMSYN004BUFR
0165832880999992013121118004-13262-043408FM-15+044399999V0209999C00001030481CN009999199+03301+02001999999ADDGA1021+009141991GA2041+030481991GE19MSL   +99999+99999GF199999021990009141991991MA1101001999990REMMET058METAR SBLP 111800Z 00000KT 9999 FEW030 SCT100 33/20 Q1010=
0142832880999992013121119004-13262-043408FM-15+044399999V0200601N001019999999N009999199+03401+01901999999ADDGA1021+009141991GE19MSL   +99999+99999GF199999021990009141991991MA1100901999990REMMET051METAR SBLP 111900Z 06002KT 9999 FEW030 34/19 Q1009=
0142832880999992013121120004-13262-043408FM-15+044399999V0200701N002119999999N009999199+03401+02001999999ADDGA1021+009141991GE19MSL   +99999+99999GF199999021990009141991991MA1100901999990REMMET051METAR SBLP 112000Z 07004KT 9999 FEW030 34/20 Q1009=
0142832880999992013121121004-13262-043408FM-15+044399999V0209999C000019999999N009999199+03401+01901999999ADDGA1021+009141991GE19MSL   +99999+99999GF199999021990009141991991MA1100901999990REMMET051METAR SBLP 112100Z 00000KT 9999 FEW030 34/19 Q1009=
0136832880999992013121200004-13267-043417FM-12+044199999V0203601N0000199999999002000199+02871+02211100781ADDAA101999990AZ101061AZ201061GA1991+025001011GE19MSL   +99999+99999GF102991990990025001991991MA1999990095961MD1909990-0181REMSYN004BUFR
0165832880999992013121209154-13262-043408FM-16+044399999V0209999C000010304819N009999199+02401+02101999999ADDGA1021+006101991GA2071+030481991GE19MSL   +99999+99999GF199999021990006101991991MA1101201999990REMMET058SPECI SBLP 120915Z 00000KT 9999 FEW020 BKN100 24/21 Q1012=
0188832880999992013121210004-13262-043408FM-15+044399999V0203401N00311009141CN009999199+02501+02201999999ADDGA1021+006101991GA2041+009141991GA3071+030481991GE19MSL   +99999+99999GF199999021990006101991991MA1101201999990REMMET065METAR SBLP 121000Z 34006KT 9999 FEW020 SCT030 BKN100 25/22 Q1012=
0188832880999992013121211004-13262-043408FM-15+044399999V0203601N00211009141CN009999199+02501+02201999999ADDGA1021+006101991GA2041+009141991GA3071+030481991GE19MSL   +99999+99999GF199999021990006101991991MA1101301999990REMMET065METAR SBLP 121100Z 36004KT 9999 FEW020 SCT030 BKN100 25/22 Q1013=
0181832880999992013121212004-13267-043417FM-12+044199999V0203601N0000100800199020000199+02621+02151100911ADDAA101999990AZ101061AZ201061GA1081+008001061GA2991+999991101GA3991+999991101GE19MSL   +99999+99999GF108991081990008001991991KA1120N+02321MA1999990096081MD1909990-0181REMSYN004BUFR
0188832880999992013121212004-13262-043408FM-15+044399999V0200301N00151009141CN009999199+02701+02201999999ADDGA1021+006101991GA2041+009141991GA3071+030481991GE19MSL   +99999+99999GF199999021990006101991991MA1101301999990REMMET065METAR SBLP 121200Z 03003KT 9999 FEW020 SCT030 BKN100 27/22 Q1013=
0165832880999992013121213004-13262-043408FM-15+044399999V0200301N002110304819N009999199+02801+02201999999ADDGA1041+009141991GA2071+030481991GE19MSL   +99999+99999GF199999041990009141991991MA1101301999990REMMET058METAR SBLP 121300Z 03004KT 9999 SCT030 BKN100 28/22 Q1013=
0165832880999992013121214004-13262-043408FM-15+044399999V0203201N002110304819N009999199+02901+02201999999ADDGA1041+009141991GA2071+030481991GE19MSL   +99999+99999GF199999041990009141991991MA1101201999990REMMET058METAR SBLP 121400Z 32004KT 9999 SCT030 BKN100 29/22 Q1012=
0165832880999992013121215004-13262-043408FM-15+044399999V0209999C000010304819N009999199+03101+02101999999ADDGA1041+009141991GA2071+030481991GE19MSL   +99999+99999GF199999041990009141991991MA1101101999990REMMET058METAR SBLP 121500Z 00000KT 9999 SCT030 BKN100 31/21 Q1011=
0165832880999992013121216004-13262-043408FM-15+044399999V0209999C000010304819N009999199+03301+02101999999ADDGA1041+009141991GA2071+030481991GE19MSL   +99999+99999GF199999041990009141991991MA1101001999990REMMET058METAR SBLP 121600Z 00000KT 9999 SCT030 BKN100 33/21 Q1010=
0165832880999992013121217004-13262-043408FM-15+044399999V0200501N004110304819N009999199+02801+02201999999ADDGA1041+009141991GA2071+030481991GE19MSL   +99999+99999GF199999041990009141991991MA1101001999990REMMET058METAR SBLP 121700Z 05008KT 9999 SCT030 BKN100 28/22 Q1010=
0168832880999992013121218004-13267-043417FM-12+044199999V0203601N0000100800199020000199+02871+02171100621ADDAA101999990AZ101061AZ201061GA1081+008001061GA2991+999991101GA3991+999991101GE19MSL   +99999+99999GF108991081990008001991991MA1999990095771MD1909990+0011REMSYN004BUFR
0165832880999992013121218004-13262-043408FM-15+044399999V0200901N002110304819N009999199+03001+02001999999ADDGA1041+009141991GA2071+030481991GE19MSL   +99999+99999GF199999041990009141991991MA1100901999990REMMET058METAR SBLP 121800Z 09004KT 9999 SCT030 BKN100 30/20 Q1009=
0165832880999992013121219004-13262-043408FM-15+044399999V0200801N001510304819N009999199+02901+02201999999ADDGA1041+009141991GA2071+030481991GE19MSL   +99999+99999GF199999041990009141991991MA1100901999990REMMET058METAR SBLP 121900Z 08003KT 9999 SCT030 BKN100 29/22 Q1009=
0165832880999992013121220004-13262-043408FM-15+044399999V0200801N005110304819N009999199+02801+02101999999ADDGA1041+009141991GA2071+030481991GE19MSL   +99999+99999GF199999041990009141991991MA1100901999990REMMET058METAR SBLP 122000Z 08010KT 9999 SCT030 BKN100 28/21 Q1009=
0230832880999992013121221004-13262-043408FM-15+044399999V0203501N003110304819N009999199+02501+02101999999ADDGA1041+006101991GA2021+012191091GA3021+012191081GA4071+030481991GE19MSL   +99999+99999GF199999041990006101991991MA1101101999990MW1171REMMET085METAR SBLP 122100Z 35006KT 9999 TS SCT020 FEW040CB FEW040TCU BKN100      25/21 Q1011=
0174832880999992013121300004-13267-043417FM-12+044199999V0202301N0015100800199002000199+02341+02161101041ADDAA106000431AY151061AY251061GA1081+008001061GA2991+999991101GA3991+999991101GE19MSL   +99999+99999GF108991081990008001991991MA1999990096151MD1909990+0191MW1021REMSYN004BUFR
0165832880999992013121309154-13262-043408FM-16+044399999V0200401N004110274319N009999199+02201+02101999999ADDGA1041+003051991GA2081+027431991GE19MSL   +99999+99999GF199999041990003051991991MA1101301999990REMMET058SPECI SBLP 130915Z 04008KT 9999 SCT010 OVC090 22/21 Q1013=
0165832880999992013121310004-13262-043408FM-15+044399999V0200301N002610304819N009999199+02201+02101999999ADDGA1041+005181991GA2081+030481991GE19MSL   +99999+99999GF199999041990005181991991MA1101401999990REMMET058METAR SBLP 131000Z 03005KT 9999 SCT017 OVC100 22/21 Q1014=
0188832880999992013121311004-13262-043408FM-15+044399999V0203601N00261009141CN009999199+02201+02101999999ADDGA1021+006101991GA2041+009141991GA3071+030481991GE19MSL   +99999+99999GF199999021990006101991991MA1101401999990REMMET065METAR SBLP 131100Z 36005KT 9999 FEW020 SCT030 BKN100 22/21 Q1014=
0187832880999992013121312004-13267-043417FM-12+044199999V0203601N0005100800199020000199+02271+02151101201ADDAA124003031AY161061AY261061GA1061+008001061GA2991+999991101GA3991+999991041GE19MSL   +99999+99999GF108991061990008001991991KA1120N+02141MA1999990096271MD1909990+0191MW1031REMSYN004BUFR
0165832880999992013121312004-13262-043408FM-15+044399999V0203601N002610304819N009999199+02301+02101999999ADDGA1041+009141991GA2071+030481991GE19MSL   +99999+99999GF199999041990009141991991MA1101501999990REMMET058METAR SBLP 131200Z 36005KT 9999 SCT030 BKN100 23/21 Q1015=
0188832880999992013121313004-13262-043408FM-15+044399999V0209999C00001009141CN009999199+02401+02101999999ADDGA1021+006101991GA2041+009141991GA3071+030481991GE19MSL   +99999+99999GF199999021990006101991991MA1101501999990REMMET065METAR SBLP 131300Z 00000KT 9999 FEW020 SCT030 BKN100 24/21 Q1015=
0188832880999992013121314004-13262-043408FM-15+044399999V0200201N00311009141CN009999199+02401+02201999999ADDGA1021+006101991GA2041+009141991GA3071+030481991GE19MSL   +99999+99999GF199999021990006101991991MA1101501999990REMMET065METAR SBLP 131400Z 02006KT 9999 FEW020 SCT030 BKN100 24/22 Q1015=
0188832880999992013121315004-13262-043408FM-15+044399999V0200301N00261009141CN009999199+02401+02201999999ADDGA1041+006101991GA2041+009141991GA3071+030481991GE19MSL   +99999+99999GF199999041990006101991991MA1101501999990REMMET065METAR SBLP 131500Z 03005KT 9999 SCT020 SCT030 BKN100 24/22 Q1015=
0165832880999992013121316004-13262-043408FM-15+044399999V0201801N002110304819N009999199+02601+02201999999ADDGA1041+006101991GA2071+030481991GE19MSL   +99999+99999GF199999041990006101991991MA1101301999990REMMET058METAR SBLP 131600Z 18004KT 9999 SCT020 BKN100 26/22 Q1013=
0165832880999992013121317004-13262-043408FM-15+044399999V0209999C000010304819N009999199+02901+02201999999ADDGA1021+009141991GA2071+030481991GE19MSL   +99999+99999GF199999021990009141991991MA1101201999990REMMET058METAR SBLP 131700Z 00000KT 9999 FEW030 BKN100 29/22 Q1012=
0152832880999992013121318004-13267-043417FM-12+044199999V0203601N0005199999999020000199+02871+02071100661ADDAA101999990AZ101061AZ201061GA1021+008001081GA2991+999991001GE19MSL   +99999+99999GF104991021990008001991991MA1999990095871MD1909990+0101REMSYN004BUFR
0165832880999992013121318004-13262-043408FM-15+044399999V0201001N00411030481CN009999199+03101+01901999999ADDGA1021+009141991GA2041+030481991GE19MSL   +99999+99999GF199999021990009141991991MA1101001999990REMMET058METAR SBLP 131800Z 10008KT 9999 FEW030 SCT100 31/19 Q1010=
0165832880999992013121319004-13262-043408FM-15+044399999V0201001N00261030481CN009999199+03101+02001999999ADDGA1021+009141991GA2041+030481991GE19MSL   +99999+99999GF199999021990009141991991MA1101001999990REMMET058METAR SBLP 131900Z 10005KT 9999 FEW030 SCT100 31/20 Q1010=
0165832880999992013121320004-13262-043408FM-15+044399999V0201001N00101030481CN009999199+03001+02001999999ADDGA1021+009141991GA2041+030481991GE19MSL   +99999+99999GF199999021990009141991991MA1101001999990REMMET058METAR SBLP 132000Z 10002KT 9999 FEW030 SCT100 30/20 Q1010=
0165832880999992013121321004-13262-043408FM-15+044399999V0201001N001010304819N009999199+02801+02101999999ADDGA1041+009141991GA2071+030481991GE19MSL   +99999+99999GF199999041990009141991991MA1101101999990REMMET058METAR SBLP 132100Z 10002KT 9999 SCT030 BKN100 28/21 Q1011=
0174832880999992013121400004-13267-043417FM-12+044199999V0203601N0010100800199002000199+02201+02111101161ADDAA106001031AY161061AY221061GA1081+008001071GA2991+999991101GA3991+999991101GE19MSL   +99999+99999GF108991081990008001991991MA1999990096221MD1909990+0071MW1501REMSYN004BUFR
0165832880999992013121412004-13267-043417FM-12+044199999V0203601N0000100800199020000199+02421+02151101251ADDAA124001031AZ101061AZ201061GA1051+008001061GA2991+999991011GE19MSL   +99999+99999GF107991051990008001991991KA1120N+02171MA1999990096321MD1909990+0051REMSYN004BUFR
0152832880999992013121418004-13267-043417FM-12+044199999V0201801N0015199999999020000199+02941+01581101061ADDAA101999990AZ101061AZ201061GA1011+008001081GA2991+999991001GE19MSL   +99999+99999GF106991011990008001991991MA1999990096181MD1909990+0311REMSYN004BUFR
0181832880999992013121512004-13267-043417FM-12+044199999V0203601N0010100800199020000199+02521+02221101111ADDAA101999990AZ101061AZ201061GA1051+008001061GA2991+999991101GA3991+999991031GE19MSL   +99999+99999GF108991051990008001991991KA1120N+02321MA1999990096221MD1909990-0101REMSYN004BUFR
0174832880999992013121518004-13267-043417FM-12+044199999V0203601N0015199999999020000199+02901+02181100631ADDAA106000631AY151061AY221061GA1041+008001081GA2991+999991001GA3991+999991031GE19MSL   +99999+99999GF108991041990008001991991MA1999990095781MD1909990-0401MW1031REMSYN004BUFR
0188832880999992013121609154-13262-043408FM-16+044399999V0209999C00001009141CN009999199+02301+02201999999ADDGA1021+006101991GA2041+009141991GA3071+030481991GE19MSL   +99999+99999GF199999021990006101991991MA1101201999990REMMET065SPECI SBLP 160915Z 00000KT 9999 FEW020 SCT030 BKN100 23/22 Q1012=
0188832880999992013121610004-13262-043408FM-15+044399999V0209999C00001009141CN009999199+02401+02201999999ADDGA1021+006101991GA2041+009141991GA3071+030481991GE19MSL   +99999+99999GF199999021990006101991991MA1101201999990REMMET065METAR SBLP 161000Z 00000KT 9999 FEW020 SCT030 BKN100 24/22 Q1012=
0199832880999992013121611004-13262-043408FM-15+044399999V0201201N005110061019N006000199+02301+02201999999ADDGA1041+003051991GA2071+006101991GA3081+028351991GE19MSL   +99999+99999GF199999041990003051991991MA1101401999990MW1161REMMET070METAR SBLP 161100Z 12010KT 6000 VCSH SCT010 BKN020 OVC093 23/22 Q1014=
0187832880999992013121612004-13267-043417FM-12+044199999V0200501N0010100800199004000199+02121+02061101161ADDAA124014031AY161061AY221061GA1081+008001071GA2991+999991101GA3991+999991101GE19MSL   +99999+99999GF108991081990008001991991KA1120N+02141MA1999990096221MD1909990+0001MW1631REMSYN004BUFR
0175832880999992013121612004-13262-043408FM-15+044399999V0200301N004110051819N005000199+02101+02001999999ADDGA1071+005181991GA2081+027431991GE19MSL   +99999+99999GF199999071990005181991991MA1101401999990MW1611REMMET062METAR SBLP 161200Z 03008KT 5000 -RA BKN017 OVC090 21/20 Q1014=
0175832880999992013121613004-13262-043408FM-15+044399999V0200301N002610051819N005000199+02101+02101999999ADDGA1071+005181991GA2081+027431991GE19MSL   +99999+99999GF199999071990005181991991MA1101401999990MW1611REMMET062METAR SBLP 161300Z 03005KT 5000 -RA BKN017 OVC090 21/21 Q1014=
0198832880999992013121614004-13262-043408FM-15+044399999V0200201N00311009141CN007000199+02201+02201999999ADDGA1041+006101991GA2041+009141991GA3081+030481991GE19MSL   +99999+99999GF199999041990006101991991MA1101301999990MW1611REMMET069METAR SBLP 161400Z 02006KT 7000 -RA SCT020 SCT030 OVC100 22/22 Q1013=
0188832880999992013121615004-13262-043408FM-15+044399999V0203601N00361009141CN009999199+02301+02201999999ADDGA1021+006101991GA2041+009141991GA3081+030481991GE19MSL   +99999+99999GF199999021990006101991991MA1101201999990REMMET065METAR SBLP 161500Z 36007KT 9999 FEW020 SCT030 OVC100 23/22 Q1012=
0165832880999992013121616004-13262-043408FM-15+044399999V0200201N003110304819N009999199+02601+02301999999ADDGA1041+006101991GA2071+030481991GE19MSL   +99999+99999GF199999041990006101991991MA1101101999990REMMET058METAR SBLP 161600Z 02006KT 9999 SCT020 BKN100 26/23 Q1011=
0188832880999992013121617004-13262-043408FM-15+044399999V0200601N00101009141CN009999199+02601+02201999999ADDGA1041+006101991GA2041+009141991GA3071+030481991GE19MSL   +99999+99999GF199999041990006101991991MA1101001999990REMMET065METAR SBLP 161700Z 06002KT 9999 SCT020 SCT030 BKN100 26/22 Q1010=
0174832880999992013121618004-13267-043417FM-12+044199999V0200501N0015100800199020000199+02491+02241100681ADDAA106016031AY161061AY261061GA1051+008001061GA2991+999991101GA3991+999991041GE19MSL   +99999+99999GF108991051990008001991991MA1999990095791MD1909990+0011MW1031REMSYN004BUFR
0165832880999992013121618004-13262-043408FM-15+044399999V0200601N002110061019N009999199+02501+02201999999ADDGA1071+006101991GA2071+030481991GE19MSL   +99999+99999GF199999071990006101991991MA1100901999990REMMET058METAR SBLP 161800Z 06004KT 9999 BKN020 BKN100 25/22 Q1009=
0165832880999992013121619004-13262-043408FM-15+044399999V0200501N003110304819N009999199+02501+02201999999ADDGA1041+006101991GA2071+030481991GE19MSL   +99999+99999GF199999041990006101991991MA1100801999990REMMET058METAR SBLP 161900Z 05006KT 9999 SCT020 BKN100 25/22 Q1008=
0165832880999992013121620004-13262-043408FM-15+044399999V0200501N003110304819N009999199+02501+02201999999ADDGA1041+006101991GA2071+030481991GE19MSL   +99999+99999GF199999041990006101991991MA1100801999990REMMET058METAR SBLP 162000Z 05006KT 9999 SCT020 BKN100 25/22 Q1008=
0165832880999992013121621004-13262-043408FM-15+044399999V0200601N003110304819N009999199+02501+02201999999ADDGA1041+006101991GA2071+030481991GE19MSL   +99999+99999GF199999041990006101991991MA1100801999990REMMET058METAR SBLP 162100Z 06006KT 9999 SCT020 BKN100 25/22 Q1008=
0168832880999992013121700004-13267-043417FM-12+044199999V0203601N0000100800199002000199+02371+02251100791ADDAA101999990AZ101061AZ201061GA1051+008001061GA2991+999991101GA3991+999991031GE19MSL   +99999+99999GF108991051990008001991991MA1999990095871MD1909990-0171REMSYN004BUFR
0198832880999992013121709154-13262-043408FM-16+044399999V0200201N00151009141CN008000199+02201+02201999999ADDGA1041+006101991GA2041+009141991GA3081+027431991GE19MSL   +99999+99999GF199999041990006101991991MA1101101999990MW1611REMMET069SPECI SBLP 170915Z 02003KT 8000 -RA SCT020 SCT030 OVC090 22/22 Q1011=
0175832880999992013121710004-13262-043408FM-15+044399999V0200201N002110051819N005000199+02201+02201999999ADDGA1071+005181991GA2081+027431991GE19MSL   +99999+99999GF199999071990005181991991MA1101101999990MW1611REMMET062METAR SBLP 171000Z 02004KT 5000 -RA BKN017 OVC090 22/22 Q1011=
0175832880999992013121710354-13262-043408FM-16+044399999V0200301N003110039619N004000199+02201+02201999999ADDGA1071+003961991GA2081+027431991GE19MSL   +99999+99999GF199999071990003961991991MA1101201999990MW1611REMMET062SPECI SBLP 171035Z 03006KT 4000 -RA BKN013 OVC090 22/22 Q1012=
0175832880999992013121711004-13262-043408FM-15+044399999V0209999C000010039619N004000199+02201+02201999999ADDGA1071+003961991GA2081+027431991GE19MSL   +99999+99999GF199999071990003961991991MA1101201999990MW1611REMMET062METAR SBLP 171100Z 00000KT 4000 -RA BKN013 OVC090 22/22 Q1012=
0181832880999992013121712004-13267-043417FM-12+044199999V0203601N0015100450199020000199+02241+02211100951ADDAA124022031AZ101061AZ201061GA1061+004501061GA2991+999991101GA3991+999991051GE19MSL   +99999+99999GF108991061990004501991991KA1120N+02121MA1999990096031MD1909990-0191REMSYN004BUFR
0176832880999992013121712004-13262-043408FM-15+044399999V0200201N004110051819N006000199+02301+02201999999ADDGA1071+005181991GA2081+027431991GE19MSL   +99999+99999GF199999071990005181991991MA1101201999990MW1161REMMET063METAR SBLP 171200Z 02008KT 6000 VCSH BKN017 OVC090 23/22 Q1012=
0188832880999992013121713004-13262-043408FM-15+044399999V0203401N00261009141CN009999199+02301+02201999999ADDGA1021+006101991GA2041+009141991GA3081+030481991GE19MSL   +99999+99999GF199999021990006101991991MA1101201999990REMMET065METAR SBLP 171300Z 34005KT 9999 FEW020 SCT030 OVC100 23/22 Q1012=
0188832880999992013121714004-13262-043408FM-15+044399999V0203301N00511009141CN009999199+02401+02201999999ADDGA1041+006101991GA2041+009141991GA3071+030481991GE19MSL   +99999+99999GF199999041990006101991991MA1101201999990REMMET065METAR SBLP 171400Z 33010KT 9999 SCT020 SCT030 BKN100 24/22 Q1012=
0198832880999992013121715004-13262-043408FM-15+044399999V0203501N00511006101CN008000199+02401+02201999999ADDGA1041+003051991GA2041+006101991GA3071+027431991GE19MSL   +99999+99999GF199999041990003051991991MA1101101999990MW1611REMMET069METAR SBLP 171500Z 35010KT 8000 -RA SCT010 SCT020 BKN090 24/22 Q1011=
0175832880999992013121716004-13262-043408FM-15+044399999V0203001N002110274319N009999199+02401+02201999999ADDGA1021+002131991GA2081+027431991GE19MSL   +99999+99999GF199999021990002131991991MA1101001999990MW1611REMMET062METAR SBLP 171600Z 30004KT 9999 -RA FEW007 OVC090 24/22 Q1010=
0175832880999992013121717004-13262-043408FM-15+044399999V0200201N001510274319N009999199+02501+02201999999ADDGA1021+006101991GA2081+027431991GE19MSL   +99999+99999GF199999021990006101991991MA1101001999990MW1611REMMET062METAR SBLP 171700Z 02003KT 9999 -RA FEW020 OVC090 25/22 Q1010=
0158832880999992013121718004-13267-043417FM-12+044199999V0203601N0000101750199020000199+02441+02171100521ADDAA106002031AY151061AY251061GA1081+017501031GA2991+999991101GE19MSL   +99999+99999GF108991081990017501991991MA1999990095631MD1909990-0161MW1021REMSYN004BUFR
0165832880999992013121718004-13262-043408FM-15+044399999V0200501N001510304819N009999199+02501+02201999999ADDGA1021+006101991GA2071+030481991GE19MSL   +99999+99999GF199999021990006101991991MA1100801999990REMMET058METAR SBLP 171800Z 05003KT 9999 FEW020 BKN100 25/22 Q1008=
0165832880999992013121719004-13262-043408FM-15+044399999V0200301N002110304819N009999199+02501+02201999999ADDGA1021+006101991GA2071+030481991GE19MSL   +99999+99999GF199999021990006101991991MA1100801999990REMMET058METAR SBLP 171900Z 03004KT 9999 FEW020 BKN100 25/22 Q1008=
0165832880999992013121720004-13262-043408FM-15+044399999V0200501N001010304819N009999199+02501+02201999999ADDGA1021+006101991GA2071+030481991GE19MSL   +99999+99999GF199999021990006101991991MA1100701999990REMMET058METAR SBLP 172000Z 05002KT 9999 FEW020 BKN100 25/22 Q1007=
0165832880999992013121721004-13262-043408FM-15+044399999V0200701N001010304819N009999199+02401+02301999999ADDGA1021+006101991GA2071+030481991GE19MSL   +99999+99999GF199999021990006101991991MA1100801999990REMMET058METAR SBLP 172100Z 07002KT 9999 FEW020 BKN100 24/23 Q1008=
0168832880999992013121800004-13267-043417FM-12+044199999V0202701N0021100450199002000199+02341+02241100741ADDAA101999990AZ101061AZ201061GA1061+004501061GA2991+999991101GA3991+999991051GE19MSL   +99999+99999GF108991061990004501991991MA1999990095831MD1909990-0041REMSYN004BUFR
0175832880999992013121809154-13262-043408FM-16+044399999V0203601N005110051819N006000199+02101+02001999999ADDGA1071+005181991GA2081+027431991GE19MSL   +99999+99999GF199999071990005181991991MA1101001999990MW1611REMMET062SPECI SBLP 180915Z 36010KT 6000 -RA BKN017 OVC090 21/20 Q1010=
0175832880999992013121810004-13262-043408FM-15+044399999V0200301N004110051819N005000199+02101+02001999999ADDGA1071+005181991GA2081+027431991GE19MSL   +99999+99999GF199999071990005181991991MA1101101999990MW1611REMMET062METAR SBLP 181000Z 03008KT 5000 -RA BKN017 OVC090 21/20 Q1011=
0175832880999992013121811004-13262-043408FM-15+044399999V0200201N004110051819N005000199+02101+02001999999ADDGA1071+005181991GA2081+027431991GE19MSL   +99999+99999GF199999071990005181991991MA1101201999990MW1611REMMET062METAR SBLP 181100Z 02008KT 5000 -RA BKN017 OVC090 21/20 Q1012=
0187832880999992013121812004-13267-043417FM-12+044199999V0200501N0015100450199020000199+02071+02031101201ADDAA124015031AY161061AY261061GA1081+004501061GA2991+999991101GA3991+999991101GE19MSL   +99999+99999GF108991081990004501991991KA1120N+01881MA1999990096251MD1909990+0221MW1021REMSYN004BUFR
0175832880999992013121812004-13262-043408FM-15+044399999V0200201N004110051819N005000199+02101+02001999999ADDGA1071+005181991GA2081+027431991GE19MSL   +99999+99999GF199999071990005181991991MA1101201999990MW1611REMMET062METAR SBLP 181200Z 02008KT 5000 -RA BKN017 OVC090 21/20 Q1012=
0199832880999992013121813004-13262-043408FM-15+044399999V0200401N004110061019N006000199+02201+02101999999ADDGA1071+006101991GA2041+009141991GA3081+027431991GE19MSL   +99999+99999GF199999071990006101991991MA1101201999990MW1161REMMET070METAR SBLP 181300Z 04008KT 6000 VCSH BKN020 SCT030 OVC090 22/21 Q1012=
0198832880999992013121814004-13262-043408FM-15+044399999V0200201N003610051819N006000199+02201+02101999999ADDGA1071+005181991GA2041+006101991GA3081+027431991GE19MSL   +99999+99999GF199999071990005181991991MA1101201999990MW1611REMMET069METAR SBLP 181400Z 02007KT 6000 -RA BKN017 SCT020 OVC090 22/21 Q1012=
0198832880999992013121815004-13262-043408FM-15+044399999V0200301N004110051819N006000199+02301+02101999999ADDGA1071+005181991GA2041+006101991GA3081+027431991GE19MSL   +99999+99999GF199999071990005181991991MA1101101999990MW1611REMMET069METAR SBLP 181500Z 03008KT 6000 -RA BKN017 SCT020 OVC090 23/21 Q1011=
0175832880999992013121816004-13262-043408FM-15+044399999V0200201N004110243819N008000199+02301+02201999999ADDGA1041+005181991GA2081+024381991GE19MSL   +99999+99999GF199999041990005181991991MA1101001999990MW1611REMMET062METAR SBLP 181600Z 02008KT 8000 -RA SCT017 OVC080 23/22 Q1010=
0175832880999992013121817004-13262-043408FM-15+044399999V0200301N002110051819N008000199+02401+02201999999ADDGA1071+005181991GA2081+024381991GE19MSL   +99999+99999GF199999071990005181991991MA1101001999990MW1611REMMET062METAR SBLP 181700Z 03004KT 8000 -RA BKN017 OVC080 24/22 Q1010=
0174832880999992013121818004-13267-043417FM-12+044199999V0201401N0015100800199020000199+02401+02291100681ADDAA106002031AY151061AY251061GA1081+008001061GA2991+999991101GA3991+999991101GE19MSL   +99999+99999GF108991081990008001991991MA1999990095771MD1909990+0141MW1021REMSYN004BUFR
0165832880999992013121818004-13262-043408FM-15+044399999V0203601N005110051819N009999199+02501+02201999999ADDGA1071+005181991GA2071+025301991GE19MSL   +99999+99999GF199999071990005181991991MA1100901999990REMMET058METAR SBLP 181800Z 36010KT 9999 BKN017 BKN083 25/22 Q1009=
0165832880999992013121819004-13262-043408FM-15+044399999V0200301N002110051819N009999199+02501+02301999999ADDGA1071+005181991GA2071+025301991GE19MSL   +99999+99999GF199999071990005181991991MA1100801999990REMMET058METAR SBLP 181900Z 03004KT 9999 BKN017 BKN083 25/23 Q1008=
0165832880999992013121820004-13262-043408FM-15+044399999V0200201N002110253019N009999199+02401+02301999999ADDGA1041+005181991GA2071+025301991GE19MSL   +99999+99999GF199999041990005181991991MA1100801999990REMMET058METAR SBLP 182000Z 02004KT 9999 SCT017 BKN083 24/23 Q1008=
0165832880999992013121821004-13262-043408FM-15+044399999V0200301N002610274319N009999199+02401+02201999999ADDGA1021+006101991GA2071+027431991GE19MSL   +99999+99999GF199999021990006101991991MA1100801999990REMMET058METAR SBLP 182100Z 03005KT 9999 FEW020 BKN090 24/22 Q1008=
0168832880999992013121900004-13267-043417FM-12+044199999V0200501N0015100800199002000199+02271+02171100931ADDAA101999990AZ101061AZ201061GA1081+008001061GA2991+999991101GA3991+999991101GE19MSL   +99999+99999GF108991081990008001991991MA1999990095991MD1909990+0161REMSYN004BUFR
0188832880999992013121909154-13262-043408FM-16+044399999V0200201N00211009141CN009999199+02101+02101999999ADDGA1021+006101991GA2041+009141991GA3071+030481991GE19MSL   +99999+99999GF199999021990006101991991MA1101001999990REMMET065SPECI SBLP 190915Z 02004KT 9999 FEW020 SCT030 BKN100 21/21 Q1010=
0198832880999992013121910004-13262-043408FM-15+044399999V0200401N00261006101CN008000199+02201+02101999999ADDGA1041+005181991GA2041+006101991GA3071+030481991GE19MSL   +99999+99999GF199999041990005181991991MA1101001999990MW1611REMMET069METAR SBLP 191000Z 04005KT 8000 -RA SCT017 SCT020 BKN100 22/21 Q1010=
0188832880999992013121911004-13262-043408FM-15+044399999V0200101N00311009141CN009999199+02301+02201999999ADDGA1041+006101991GA2041+009141991GA3071+030481991GE19MSL   +99999+99999GF199999041990006101991991MA1101101999990REMMET065METAR SBLP 191100Z 01006KT 9999 SCT020 SCT030 BKN100 23/22 Q1011=
0171832880999992013121912004-13267-043417FM-12+044199999V0203601N0000100450199020000199+02341+02221100831ADDAA124015031AY161061AY261061GA1061+004501061GA2991+999991021GE19MSL   +99999+99999GF108991061990004501991991KA1120N+02121MA1999990095921MD1909990-0331MW1031REMSYN004BUFR
0188832880999992013121912004-13262-043408FM-15+044399999V0203601N00311009141CN009999199+02401+02201999999ADDGA1041+006101991GA2041+009141991GA3071+030481991GE19MSL   +99999+99999GF199999041990006101991991MA1101101999990REMMET065METAR SBLP 191200Z 36006KT 9999 SCT020 SCT030 BKN100 24/22 Q1011=
0199832880999992013121913004-13262-043408FM-15+044399999V0203601N003110051819N008000199+02401+02201999999ADDGA1071+005181991GA2041+006101991GA3081+027431991GE19MSL   +99999+99999GF199999071990005181991991MA1101101999990MW1161REMMET070METAR SBLP 191300Z 36006KT 8000 VCSH BKN017 SCT020 OVC090 24/22 Q1011=
0175832880999992013121914004-13262-043408FM-15+044399999V0203601N006210051819N006000199+02401+02201999999ADDGA1071+005181991GA2081+027431991GE19MSL   +99999+99999GF199999071990005181991991MA1101101999990MW1611REMMET062METAR SBLP 191400Z 36012KT 6000 -RA BKN017 OVC090 24/22 Q1011=
0198832880999992013121915004-13262-043408FM-15+044399999V0203501N004610051819N006000199+02401+02201999999ADDGA1071+005181991GA2041+006101991GA3081+027431991GE19MSL   +99999+99999GF199999071990005181991991MA1101001999990MW1611REMMET069METAR SBLP 191500Z 35009KT 6000 -RA BKN017 SCT020 OVC090 24/22 Q1010=
0165832880999992013121916004-13262-043408FM-15+044399999V0203601N003110051819N009999199+02501+02301999999ADDGA1071+005181991GA2071+025301991GE19MSL   +99999+99999GF199999071990005181991991MA1101001999990REMMET058METAR SBLP 191600Z 36006KT 9999 BKN017 BKN083 25/23 Q1010=
0165832880999992013121917004-13262-043408FM-15+044399999V0200301N001510051819N009999199+02501+02301999999ADDGA1071+005181991GA2071+025301991GE19MSL   +99999+99999GF199999071990005181991991MA1100901999990REMMET058METAR SBLP 191700Z 03003KT 9999 BKN017 BKN083 25/23 Q1009=
0152832880999992013121918004-13267-043417FM-12+044199999V0203601N0021199999999020000199+02521+02311100541ADDAA101999990AZ101061AZ201061GA1021+004501061GA2991+999991021GE19MSL   +99999+99999GF108991021990004501991991MA1999990095651MD1909990-0121REMSYN004BUFR
0165832880999992013121918004-13262-043408FM-15+044399999V0203601N002610253019N009999199+02601+02301999999ADDGA1041+005181991GA2071+025301991GE19MSL   +99999+99999GF199999041990005181991991MA1100801999990REMMET058METAR SBLP 191800Z 36005KT 9999 SCT017 BKN083 26/23 Q1008=
0175832880999992013121919004-13262-043408FM-15+044399999V0203001N005110039619N008000199+02501+02301999999ADDGA1071+003961991GA2081+025301991GE19MSL   +99999+99999GF199999071990003961991991MA1100801999990MW1611REMMET062METAR SBLP 191900Z 30010KT 8000 -RA BKN013 OVC083 25/23 Q1008=
0199832880999992013121920004-13262-043408FM-15+044399999V0200401N001510051819N009999199+02401+02301999999ADDGA1071+005181991GA2021+010061091GA3071+025301991GE19MSL   +99999+99999GF199999071990005181991991MA1100701999990MW1171REMMET070METAR SBLP 192000Z 04003KT 9999 TS BKN017 FEW033CB BKN083 24/23 Q1007=
0175832880999992013121921004-13262-043408FM-15+044399999V0202901N002110045719N008000199+02401+02201999999ADDGA1071+004571991GA2071+025301991GE19MSL   +99999+99999GF199999071990004571991991MA1100801999990MW1611REMMET062METAR SBLP 192100Z 29004KT 8000 -RA BKN015 BKN083 24/22 Q1008=
0142832880999992013122000004-13267-043417FM-12+044199999V0203601N0015199999999002000199+02221+02171100751ADDAA106005031AY161061AY261061GA1991+025001021GE19MSL   +99999+99999GF108991990990025001991991MA1999990095841MD1909990-0151MW1021REMSYN004BUFR
0188832880999992013122009154-13262-043408FM-16+044399999V0200201N00261006101CN009999199+02201+02101999999ADDGA1041+003051991GA2041+006101991GA3071+030481991GE19MSL   +99999+99999GF199999041990003051991991MA1101001999990REMMET065SPECI SBLP 200915Z 02005KT 9999 SCT010 SCT020 BKN100 22/21 Q1010=
0188832880999992013122010004-13262-043408FM-15+044399999V0200401N002610030519N006000199+02201+02101999999ADDGA1071+003051991GA2041+006101991GA3071+030481991GE19MSL   +99999+99999GF199999071990003051991991MA1101001999990REMMET065METAR SBLP 201000Z 04005KT 6000 BKN010 SCT020 BKN100 22/21 Q1010=
0199832880999992013122011004-13262-043408FM-15+044399999V0200201N003110051819N006000199+02301+02201999999ADDGA1071+005181991GA2041+006101991GA3071+030481991GE19MSL   +99999+99999GF199999071990005181991991MA1101101999990MW1161REMMET070METAR SBLP 201100Z 02006KT 6000 VCSH BKN017 SCT020 BKN100 23/22 Q1011=
0165832880999992013122012004-13267-043417FM-12+044199999V0203601N0015100450199020000199+02401+02211100841ADDAA124005031AZ101061AZ201061GA1071+004501061GA2991+999991021GE19MSL   +99999+99999GF108991071990004501991991KA1120N+02161MA1999990095931MD1909990+0011REMSYN004BUFR
0188832880999992013122012004-13262-043408FM-15+044399999V0200201N003110091419N009999199+02401+02201999999ADDGA1041+006101991GA2071+009141991GA3071+030481991GE19MSL   +99999+99999GF199999041990006101991991MA1101101999990REMMET065METAR SBLP 201200Z 02006KT 9999 SCT020 BKN030 BKN100 24/22 Q1011=
0188832880999992013122013004-13262-043408FM-15+044399999V0200101N00261009141CN009999199+02501+02301999999ADDGA1041+006101991GA2041+009141991GA3071+030481991GE19MSL   +99999+99999GF199999041990006101991991MA1101101999990REMMET065METAR SBLP 201300Z 01005KT 9999 SCT020 SCT030 BKN100 25/23 Q1011=
0188832880999992013122014004-13262-043408FM-15+044399999V0200201N004610091419N009999199+02601+02301999999ADDGA1041+006101991GA2071+009141991GA3071+030481991GE19MSL   +99999+99999GF199999041990006101991991MA1101101999990REMMET065METAR SBLP 201400Z 02009KT 9999 SCT020 BKN030 BKN100 26/23 Q1011=
0188832880999992013122015004-13262-043408FM-15+044399999V0200201N005110061019N009999199+02501+02201999999ADDGA1041+005181991GA2071+006101991GA3071+030481991GE19MSL   +99999+99999GF199999041990005181991991MA1101001999990REMMET065METAR SBLP 201500Z 02010KT 9999 SCT017 BKN020 BKN100 25/22 Q1010=
0188832880999992013122016004-13262-043408FM-15+044399999V0203501N003110045719N009999199+02601+02201999999ADDGA1041+000911991GA2071+004571991GA3071+025301991GE19MSL   +99999+99999GF199999041990000911991991MA1100901999990REMMET065METAR SBLP 201600Z 35006KT 9999 SCT003 BKN015 BKN083 26/22 Q1009=
0188832880999992013122017004-13262-043408FM-15+044399999V0203001N004110045719N009999199+02401+02101999999ADDGA1021+000911991GA2071+004571991GA3071+025301991GE19MSL   +99999+99999GF199999021990000911991991MA1100901999990REMMET065METAR SBLP 201700Z 30008KT 9999 FEW003 BKN015 BKN083 24/21 Q1009=
0152832880999992013122018004-13267-043417FM-12+044199999V0203601N0015100450199020000199+02271+02111100551ADDAA101999990AZ101061AZ201061GA1061+004501061GA2991+999991021GE19MSL   +99999+99999GF108991061990004501991991MA1999990095641MD1909990+0011REMSYN004BUFR
0175832880999992013122018004-13262-043408FM-15+044399999V0203301N002110253019N009999199+02301+02101999999ADDGA1021+004571991GA2071+025301991GE19MSL   +99999+99999GF199999021990004571991991MA1100801999990MW1611REMMET062METAR SBLP 201800Z 33004KT 9999 -RA FEW015 BKN083 23/21 Q1008=
0175832880999992013122019004-13262-043408FM-15+044399999V0200301N001510253019N009999199+02301+02201999999ADDGA1041+004571991GA2071+025301991GE19MSL   +99999+99999GF199999041990004571991991MA1100701999990MW1611REMMET062METAR SBLP 201900Z 03003KT 9999 -RA SCT015 BKN083 23/22 Q1007=
0165832880999992013122020004-13262-043408FM-15+044399999V0200401N002110253019N009999199+02401+02201999999ADDGA1041+004571991GA2071+025301991GE19MSL   +99999+99999GF199999041990004571991991MA1100801999990REMMET058METAR SBLP 202000Z 04004KT 9999 SCT015 BKN083 24/22 Q1008=
0165832880999992013122021004-13262-043408FM-15+044399999V0200701N001510304819N009999199+02301+02301999999ADDGA1041+004571991GA2071+030481991GE19MSL   +99999+99999GF199999041990004571991991MA1100801999990REMMET058METAR SBLP 202100Z 07003KT 9999 SCT015 BKN100 23/23 Q1008=
0174832880999992013122100004-13267-043417FM-12+044199999V0203601N0000199999999002000199+02301+02221100731ADDAA106000831AY151061AY251061GA1021+004501061GA2991+999991001GA3991+999991051GE19MSL   +99999+99999GF108991021990004501991991MA1999990095831MD1909990+0011MW1021REMSYN004BUFR
0187832880999992013122112004-13267-043417FM-12+044199999V0201401N0015100450199020000199+02421+02221100911ADDAA124003031AY161061AY261061GA1081+004501061GA2991+999991101GA3991+999991101GE19MSL   +99999+99999GF108991081990004501991991KA1120N+02151MA1999990096011MD1909990+0081MW1021REMSYN004BUFR
0174832880999992013122118004-13267-043417FM-12+044199999V0203601N0026100450199020000199+02401+02201100701ADDAA106005031AY161061AY261061GA1081+004501061GA2991+999991101GA3991+999991101GE19MSL   +99999+99999GF108991081990004501991991MA1999990095791MD1909990+0151MW1021REMSYN004BUFR
0187832880999992013122212004-13267-043417FM-12+044199999V0201401N0015100450199020000199+02201+02131101031ADDAA124033031AY161061AY261061GA1081+004501071GA2991+999991101GA3991+999991101GE19MSL   +99999+99999GF108991081990004501991991KA1120N+01921MA1999990096091MD1909990+0081MW1611REMSYN004BUFR
0174832880999992013122218004-13267-043417FM-12+044199999V0201401N0015100450199020000199+02291+02081100811ADDAA106017031AY161061AY261061GA1081+004501071GA2991+999991101GA3991+999991101GE19MSL   +99999+99999GF108991081990004501991991MA1999990095901MD1909990+0111MW1611REMSYN004BUFR
0188832880999992013122309154-13262-043408FM-16+044399999V0200101N00211006101CN006000199+02101+02101999999ADDGA1041+003051991GA2041+006101991GA3071+030481991GE19MSL   +99999+99999GF199999041990003051991991MA1101301999990REMMET065SPECI SBLP 230915Z 01004KT 6000 SCT010 SCT020 BKN100 21/21 Q1013=
0199832880999992013122310004-13262-043408FM-15+044399999V0203601N00211006101CN005000199+02201+02101999999ADDGA1041+003051991GA2041+006101991GA3071+030481991GE19MSL   +99999+99999GF199999041990003051991991MA1101401999990MW1161REMMET070METAR SBLP 231000Z 36004KT 5000 VCSH SCT010 SCT020 BKN100 22/21 Q1014=
0188832880999992013122311004-13262-043408FM-15+044399999V0203601N00211009141CN009999199+02201+02101999999ADDGA1041+006101991GA2041+009141991GA3071+030481991GE19MSL   +99999+99999GF199999041990006101991991MA1101401999990REMMET065METAR SBLP 231100Z 36004KT 9999 SCT020 SCT030 BKN100 22/21 Q1014=
0181832880999992013122312004-13267-043417FM-12+044199999V0203601N0021100450199020000199+02291+02181101181ADDAA124021031AZ101061AZ201061GA1051+004501061GA2991+999991021GA3991+999991051GE19MSL   +99999+99999GF108991051990004501991991KA1120N+02121MA1999990096241MD1909990+0151REMSYN004BUFR
0188832880999992013122312004-13262-043408FM-15+044399999V0203601N00211009141CN009999199+02301+02201999999ADDGA1041+006101991GA2041+009141991GA3071+030481991GE19MSL   +99999+99999GF199999041990006101991991MA1101501999990REMMET065METAR SBLP 231200Z 36004KT 9999 SCT020 SCT030 BKN100 23/22 Q1015=
0188832880999992013122313004-13262-043408FM-15+044399999V0203601N00311009141CN009999199+02501+02101999999ADDGA1041+006101991GA2041+009141991GA3071+030481991GE19MSL   +99999+99999GF199999041990006101991991MA1101501999990REMMET065METAR SBLP 231300Z 36006KT 9999 SCT020 SCT030 BKN100 25/21 Q1015=
0188832880999992013122314004-13262-043408FM-15+044399999V0200301N002610091419N009999199+02601+02201999999ADDGA1041+006101991GA2071+009141991GA3071+030481991GE19MSL   +99999+99999GF199999041990006101991991MA1101401999990REMMET065METAR SBLP 231400Z 03005KT 9999 SCT020 BKN030 BKN100 26/22 Q1014=
0165832880999992013122315004-13262-043408FM-15+044399999V0203501N002610091419N009999199+02701+02101999999ADDGA1071+009141991GA2041+030481991GE19MSL   +99999+99999GF199999071990009141991991MA1101401999990REMMET058METAR SBLP 231500Z 35005KT 9999 BKN030 SCT100 27/21 Q1014=
0165832880999992013122316004-13262-043408FM-15+044399999V0202601N003110091419N009999199+02901+02201999999ADDGA1071+009141991GA2041+030481991GE19MSL   +99999+99999GF199999071990009141991991MA1101301999990REMMET058METAR SBLP 231600Z 26006KT 9999 BKN030 SCT100 29/22 Q1013=
0165832880999992013122317004-13262-043408FM-15+044399999V0203301N00311030481CN009999199+02901+02201999999ADDGA1041+009141991GA2041+030481991GE19MSL   +99999+99999GF199999041990009141991991MA1101201999990REMMET058METAR SBLP 231700Z 33006KT 9999 SCT030 SCT100 29/22 Q1012=
0152832880999992013122318004-13267-043417FM-12+044199999V0203601N0021199999999020000199+02821+02201100771ADDAA101999990AZ101061AZ201061GA1041+008001081GA2991+999991011GE19MSL   +99999+99999GF106991041990008001991991MA1999990095901MD1909990+0001REMSYN004BUFR
0165832880999992013122318004-13262-043408FM-15+044399999V0203301N00311030481CN009999199+02901+02101999999ADDGA1041+009141991GA2041+030481991GE19MSL   +99999+99999GF199999041990009141991991MA1101101999990REMMET058METAR SBLP 231800Z 33006KT 9999 SCT030 SCT100 29/21 Q1011=
0142832880999992013122319004-13262-043408FM-15+044399999V0203501N004119999999N009999199+03001+02001999999ADDGA1021+009141991GE19MSL   +99999+99999GF199999021990009141991991MA1101001999990REMMET051METAR SBLP 231900Z 35008KT 9999 FEW030 30/20 Q1010=
0142832880999992013122320004-13262-043408FM-15+044399999V0200301N003119999999N009999199+02901+02301999999ADDGA1021+009141991GE19MSL   +99999+99999GF199999021990009141991991MA1101001999990REMMET051METAR SBLP 232000Z 03006KT 9999 FEW030 29/23 Q1010=
0142832880999992013122321004-13262-043408FM-15+044399999V0203601N002119999999N009999199+02701+02201999999ADDGA1021+009141991GE19MSL   +99999+99999GF199999021990009141991991MA1101001999990REMMET051METAR SBLP 232100Z 36004KT 9999 FEW030 27/22 Q1010=
0136832880999992013122400004-13267-043417FM-12+044199999V0203601N0000199999999002000199+02501+02271100991ADDAA101999990AZ101061AZ201061GA1021+008001081GE19MSL   +99999+99999GF102991021990008001991991MA1999990096091MD1909990-0031REMSYN004BUFR
0199832880999992013122409154-13262-043408FM-16+044399999V0200501N00361006101CN008000199+02201+02101999999ADDGA1041+005181991GA2041+006101991GA3071+027431991GE19MSL   +99999+99999GF199999041990005181991991MA1101501999990MW1161REMMET070SPECI SBLP 240915Z 05007KT 8000 VCSH SCT017 SCT020 BKN090 22/21 Q1015=
0199832880999992013122410004-13262-043408FM-15+044399999V0200501N004610051819N006000199+02201+02201999999ADDGA1071+005181991GA2041+006101991GA3071+027431991GE19MSL   +99999+99999GF199999071990005181991991MA1101401999990MW1161REMMET070METAR SBLP 241000Z 05009KT 6000 VCSH BKN017 SCT020 BKN090 22/22 Q1014=
0198832880999992013122411004-13262-043408FM-15+044399999V0200301N002110030519N005000199+02101+02101999999ADDGA1071+003051991GA2041+005181991GA3081+027431991GE19MSL   +99999+99999GF199999071990003051991991MA1101601999990MW1611REMMET069METAR SBLP 241100Z 03004KT 5000 -RA BKN010 SCT017 OVC090 21/21 Q1016=
0187832880999992013122412004-13267-043417FM-12+044199999V0203601N0000100450199020000199+02191+02141101361ADDAA124010031AY161061AY261061GA1081+004501071GA2991+999991101GA3991+999991101GE19MSL   +99999+99999GF108991081990004501991991KA1120N+02121MA1999990096431MD1909990+0191MW1611REMSYN004BUFR
0198832880999992013122412004-13262-043408FM-15+044399999V0209999C000010039619N005000199+02201+02101999999ADDGA1071+003961991GA2041+006101991GA3081+027431991GE19MSL   +99999+99999GF199999071990003961991991MA1101601999990MW1611REMMET069METAR SBLP 241200Z 00000KT 5000 -RA BKN013 SCT020 OVC090 22/21 Q1016=
0198832880999992013122413004-13262-043408FM-15+044399999V0201101N001510039619N005000199+02201+02101999999ADDGA1071+003961991GA2041+006101991GA3081+027431991GE19MSL   +99999+99999GF199999071990003961991991MA1101601999990MW1611REMMET069METAR SBLP 241300Z 11003KT 5000 -RA BKN013 SCT020 OVC090 22/21 Q1016=
0188832880999992013122414004-13262-043408FM-15+044399999V0201301N002110061019N009999199+02301+02101999999ADDGA1071+006101991GA2041+009141991GA3081+027431991GE19MSL   +99999+99999GF199999071990006101991991MA1101601999990REMMET065METAR SBLP 241400Z 13004KT 9999 BKN020 SCT030 OVC090 23/21 Q1016=
0188832880999992013122415004-13262-043408FM-15+044399999V0201401N00151009141CN009999199+02301+02201999999ADDGA1041+006101991GA2041+009141991GA3071+030481991GE19MSL   +99999+99999GF199999041990006101991991MA1101601999990REMMET065METAR SBLP 241500Z 14003KT 9999 SCT020 SCT030 BKN100 23/22 Q1016=
0188832880999992013122416004-13262-043408FM-15+044399999V0201001N00211009141CN009999199+02601+02301999999ADDGA1021+006101991GA2041+009141991GA3071+030481991GE19MSL   +99999+99999GF199999021990006101991991MA1101501999990REMMET065METAR SBLP 241600Z 10004KT 9999 FEW020 SCT030 BKN100 26/23 Q1015=
0165832880999992013122417004-13262-043408FM-15+044399999V0201301N00311030481CN009999199+02701+02301999999ADDGA1021+009141991GA2041+030481991GE19MSL   +99999+99999GF199999021990009141991991MA1101301999990REMMET058METAR SBLP 241700Z 13006KT 9999 FEW030 SCT100 27/23 Q1013=
0174832880999992013122418004-13267-043417FM-12+044199999V0201801N0005199999999020000199+02691+02191100921ADDAA106004031AY161061AY261061GA1031+008001061GA2991+999991001GA3991+999991031GE19MSL   +99999+99999GF106991031990008001991991MA1999990096041MD1909990+0141MW1011REMSYN004BUFR
0165832880999992013122418004-13262-043408FM-15+044399999V0201001N00261030481CN009999199+02901+02101999999ADDGA1021+009141991GA2041+030481991GE19MSL   +99999+99999GF199999021990009141991991MA1101201999990REMMET058METAR SBLP 241800Z 10005KT 9999 FEW030 SCT100 29/21 Q1012=
0142832880999992013122419004-13262-043408FM-15+044399999V0201301N002119999999N009999199+03001+02301999999ADDGA1021+009141991GE19MSL   +99999+99999GF199999021990009141991991MA1101201999990REMMET051METAR SBLP 241900Z 13004KT 9999 FEW030 30/23 Q1012=
0142832880999992013122420004-13262-043408FM-15+044399999V0209999C000019999999N009999199+03301+02101999999ADDGA1021+009141991GE19MSL   +99999+99999GF199999021990009141991991MA1101201999990REMMET051METAR SBLP 242000Z 00000KT 9999 FEW030 33/21 Q1012=
0165832880999992013122421004-13262-043408FM-15+044399999V0202201N00151030481CN009999199+02801+02301999999ADDGA1021+009141991GA2041+030481991GE19MSL   +99999+99999GF199999021990009141991991MA1101201999990REMMET058METAR SBLP 242100Z 22003KT 9999 FEW030 SCT100 28/23 Q1012=
0188832880999992013122509154-13262-043408FM-16+044399999V0209999C00001009141CN009999199+02201+02201999999ADDGA1021+006101991GA2041+009141991GA3071+030481991GE19MSL   +99999+99999GF199999021990006101991991MA1101501999990REMMET065SPECI SBLP 250915Z 00000KT 9999 FEW020 SCT030 BKN100 22/22 Q1015=
0165832880999992013122510004-13262-043408FM-15+044399999V0209999C000010304819N009999199+02301+02201999999ADDGA1041+009141991GA2071+030481991GE19MSL   +99999+99999GF199999041990009141991991MA1101501999990REMMET058METAR SBLP 251000Z 00000KT 9999 SCT030 BKN100 23/22 Q1015=
0165832880999992013122511004-13262-043408FM-15+044399999V0209999C000010304819N009999199+02401+02201999999ADDGA1041+009141991GA2071+030481991GE19MSL   +99999+99999GF199999041990009141991991MA1101501999990REMMET058METAR SBLP 251100Z 00000KT 9999 SCT030 BKN100 24/22 Q1015=
0165832880999992013122512004-13267-043417FM-12+044199999V0202701N0005199999999020000199+02521+02391101221ADDAA124004031AZ101061AZ201061GA1041+008001061GA2991+999991031GE19MSL   +99999+99999GF106991041990008001991991KA1120N+02161MA1999990096331MD1909990-0101REMSYN004BUFR
0165832880999992013122512004-13262-043408FM-15+044399999V0209999C000010304819N009999199+02601+02301999999ADDGA1041+009141991GA2071+030481991GE19MSL   +99999+99999GF199999041990009141991991MA1101601999990REMMET058METAR SBLP 251200Z 00000KT 9999 SCT030 BKN100 26/23 Q1016=
0165832880999992013122513004-13262-043408FM-15+044399999V0202801N001510304819N009999199+02801+02301999999ADDGA1041+009141991GA2071+030481991GE19MSL   +99999+99999GF199999041990009141991991MA1101501999990REMMET058METAR SBLP 251300Z 28003KT 9999 SCT030 BKN100 28/23 Q1015=
0165832880999992013122514004-13262-043408FM-15+044399999V0202601N00211030481CN009999199+02901+02301999999ADDGA1041+009141991GA2041+030481991GE19MSL   +99999+99999GF199999041990009141991991MA1101501999990REMMET058METAR SBLP 251400Z 26004KT 9999 SCT030 SCT100 29/23 Q1015=
0142832880999992013122515004-13262-043408FM-15+044399999V0202301N001519999999N009999199+03001+02301999999ADDGA1021+009141991GE19MSL   +99999+99999GF199999021990009141991991MA1101401999990REMMET051METAR SBLP 251500Z 23003KT 9999 FEW030 30/23 Q1014=
0142832880999992013122516004-13262-043408FM-15+044399999V0202401N001519999999N009999199+03201+02201999999ADDGA1041+009141991GE19MSL   +99999+99999GF199999041990009141991991MA1101301999990REMMET051METAR SBLP 251600Z 24003KT 9999 SCT030 32/22 Q1013=
0142832880999992013122517004-13262-043408FM-15+044399999V0202201N002119999999N009999199+03301+02001999999ADDGA1041+009141991GE19MSL   +99999+99999GF199999041990009141991991MA1101201999990REMMET051METAR SBLP 251700Z 22004KT 9999 SCT030 33/20 Q1012=
0152832880999992013122518004-13267-043417FM-12+044199999V0202701N0010199999999020000199+03221+02291100781ADDAA101999990AZ101061AZ201061GA1031+008001091GA2991+999991021GE19MSL   +99999+99999GF105991031990008001991991MA1999990095951MD1909990-0091REMSYN004BUFR
0142832880999992013122518004-13262-043408FM-15+044399999V0202301N002110091419N009999199+03401+02101999999ADDGA1071+009141991GE19MSL   +99999+99999GF199999071990009141991991MA1101101999990REMMET051METAR SBLP 251800Z 23004KT 9999 BKN030 34/21 Q1011=
0142832880999992013122519004-13262-043408FM-15+044399999V0200901N001510091419N009999199+03401+02001999999ADDGA1071+009141991GE19MSL   +99999+99999GF199999071990009141991991MA1101101999990REMMET051METAR SBLP 251900Z 09003KT 9999 BKN030 34/20 Q1011=
0142832880999992013122520004-13262-043408FM-15+044399999V0200601N002119999999N009999199+03101+02301999999ADDGA1041+009141991GE19MSL   +99999+99999GF199999041990009141991991MA1101101999990REMMET051METAR SBLP 252000Z 06004KT 9999 SCT030 31/23 Q1011=
0165832880999992013122521004-13262-043408FM-15+044399999V0200801N00151030481CN009999199+02901+02201999999ADDGA1021+009141991GA2041+030481991GE19MSL   +99999+99999GF199999021990009141991991MA1101101999990REMMET058METAR SBLP 252100Z 08003KT 9999 FEW030 SCT100 29/22 Q1011=
0165832880999992013122609154-13262-043408FM-16+044399999V0202001N002110304819N009999199+02301+02301999999ADDGA1041+009141991GA2071+030481991GE19MSL   +99999+99999GF199999041990009141991991MA1101401999990REMMET058SPECI SBLP 260915Z 20004KT 9999 SCT030 BKN100 23/23 Q1014=
0165832880999992013122610004-13262-043408FM-15+044399999V0202201N001510304819N009999199+02401+02301999999ADDGA1041+009141991GA2071+030481991GE19MSL   +99999+99999GF199999041990009141991991MA1101401999990REMMET058METAR SBLP 261000Z 22003KT 9999 SCT030 BKN100 24/23 Q1014=
0165832880999992013122611004-13262-043408FM-15+044399999V0201801N002610304819N009999199+02601+02301999999ADDGA1021+009141991GA2071+030481991GE19MSL   +99999+99999GF199999021990009141991991MA1101401999990REMMET058METAR SBLP 261100Z 18005KT 9999 FEW030 BKN100 26/23 Q1014=
0149832880999992013122612004-13267-043417FM-12+044199999V0201801N0010199999999020000199+02771+02391101081ADDAA101999990AZ101061AZ201061GA1991+025001001GE19MSL   +99999+99999GF106991990990025001991991KA1120N+02381MA1999990096251MD1909990-0081REMSYN004BUFR
0165832880999992013122612004-13262-043408FM-15+044399999V0209999C00001030481CN009999199+02801+02401999999ADDGA1021+009141991GA2041+030481991GE19MSL   +99999+99999GF199999021990009141991991MA1101501999990REMMET058METAR SBLP 261200Z 00000KT 9999 FEW030 SCT100 28/24 Q1015=
0142832880999992013122613004-13262-043408FM-15+044399999V0202601N002619999999N009999199+02801+02301999999ADDGA1021+009141991GE19MSL   +99999+99999GF199999021990009141991991MA1101501999990REMMET051METAR SBLP 261300Z 26005KT 9999 FEW030 28/23 Q1015=
0142832880999992013122614004-13262-043408FM-15+044399999V0209999C000019999999N009999199+03001+02301999999ADDGA1021+009141991GE19MSL   +99999+99999GF199999021990009141991991MA1101401999990REMMET051METAR SBLP 261400Z 00000KT 9999 FEW030 30/23 Q1014=
0142832880999992013122615004-13262-043408FM-15+044399999V0202501N002619999999N009999199+03101+02301999999ADDGA1041+009141991GE19MSL   +99999+99999GF199999041990009141991991MA1101301999990REMMET051METAR SBLP 261500Z 25005KT 9999 SCT030 31/23 Q1013=
0142832880999992013122616004-13262-043408FM-15+044399999V0202101N001019999999N009999199+03301+02201999999ADDGA1041+009141991GE19MSL   +99999+99999GF199999041990009141991991MA1101201999990REMMET051METAR SBLP 261600Z 21002KT 9999 SCT030 33/22 Q1012=
0142832880999992013122617004-13262-043408FM-15+044399999V0201701N002610091419N009999199+03401+02201999999ADDGA1071+009141991GE19MSL   +99999+99999GF199999071990009141991991MA1101101999990REMMET051METAR SBLP 261700Z 17005KT 9999 BKN030 34/22 Q1011=
0168832880999992013122618004-13267-043417FM-12+044199999V0202301N0015199999999020000199+03191+02421100751ADDAA101999990AZ101061AZ201061GA1031+008001061GA2991+999991021GA3991+999991031GE19MSL   +99999+99999GF106991031990008001991991MA1999990095941MD1909990-0011REMSYN004BUFR
0191832880999992013122618004-13262-043408FM-15+044399999V0200601N006219999999N009999199+03301+02201999999ADDGA1041+006101991GA2021+012191081GA3041+030481991GE19MSL   +99999+99999GF199999041990006101991991MA1101201999990REMMET068METAR SBLP 261800Z 06012KT 9999 SCT020 FEW040TCU SCT100 33/22 Q1012=
0191832880999992013122619004-13262-043408FM-15+044399999V0200601N00621030481CN009999199+02701+02101999999ADDGA1021+006101991GA2021+012191081GA3041+030481991GE19MSL   +99999+99999GF199999021990006101991991MA1101101999990REMMET068METAR SBLP 261900Z 06012KT 9999 FEW020 FEW040TCU SCT100 27/21 Q1011=
0219832880999992013122620004-13262-043408FM-15+044399999V0200301N00311009141CN009999199+02601+02201999999ADDGA1041+006101991GA2041+009141991GA3021+012191081GA4071+030481991GE19MSL   +99999+99999GF199999041990006101991991MA1101201999990REMMET080METAR SBLP 262000Z 03006KT 9999 SCT020 SCT030 FEW040TCU BKN100 26/22      Q1012=
0188832880999992013122621004-13262-043408FM-15+044399999V0200601N00311009141CN009999199+02401+02201999999ADDGA1041+006101991GA2041+009141991GA3071+030481991GE19MSL   +99999+99999GF199999041990006101991991MA1101301999990REMMET065METAR SBLP 262100Z 06006KT 9999 SCT020 SCT030 BKN100 24/22 Q1013=
0188832880999992013122709154-13262-043408FM-16+044399999V0201901N00261009141CN009999199+02101+02001999999ADDGA1021+006101991GA2041+009141991GA3071+030481991GE19MSL   +99999+99999GF199999021990006101991991MA1101501999990REMMET065SPECI SBLP 270915Z 19005KT 9999 FEW020 SCT030 BKN100 21/20 Q1015=
0188832880999992013122710004-13262-043408FM-15+044399999V0201601N00151009141CN009999199+02101+02001999999ADDGA1021+006101991GA2041+009141991GA3071+030481991GE19MSL   +99999+99999GF199999021990006101991991MA1101501999990REMMET065METAR SBLP 271000Z 16003KT 9999 FEW020 SCT030 BKN100 21/20 Q1015=
0188832880999992013122711004-13262-043408FM-15+044399999V0202101N00151009141CN009999199+02101+02001999999ADDGA1021+006101991GA2041+009141991GA3071+030481991GE19MSL   +99999+99999GF199999021990006101991991MA1101601999990REMMET065METAR SBLP 271100Z 21003KT 9999 FEW020 SCT030 BKN100 21/20 Q1016=
0187832880999992013122712004-13267-043417FM-12+044199999V0202701N0005100800199020000199+02251+02071101361ADDAA124000531AY151061AY251061GA1081+008001061GA2991+999991101GA3991+999991101GE19MSL   +99999+99999GF108991081990008001991991KA1120N+02101MA1999990096421MD1909990+0171MW1021REMSYN004BUFR
0188832880999992013122712004-13262-043408FM-15+044399999V0202701N00151009141CN009999199+02301+02101999999ADDGA1041+006101991GA2041+009141991GA3071+030481991GE19MSL   +99999+99999GF199999041990006101991991MA1101601999990REMMET065METAR SBLP 271200Z 27003KT 9999 SCT020 SCT030 BKN100 23/21 Q1016=
0188832880999992013122713004-13262-043408FM-15+044399999V0209999C00001009141CN009999199+02401+02101999999ADDGA1041+006101991GA2041+009141991GA3071+030481991GE19MSL   +99999+99999GF199999041990006101991991MA1101601999990REMMET065METAR SBLP 271300Z 00000KT 9999 SCT020 SCT030 BKN100 24/21 Q1016=
0188832880999992013122714004-13262-043408FM-15+044399999V0209999C00001009141CN009999199+02601+02101999999ADDGA1041+006101991GA2041+009141991GA3071+030481991GE19MSL   +99999+99999GF199999041990006101991991MA1101601999990REMMET065METAR SBLP 271400Z 00000KT 9999 SCT020 SCT030 BKN100 26/21 Q1016=
0188832880999992013122715004-13262-043408FM-15+044399999V0202401N00211009141CN009999199+02701+02101999999ADDGA1021+006101991GA2041+009141991GA3071+030481991GE19MSL   +99999+99999GF199999021990006101991991MA1101501999990REMMET065METAR SBLP 271500Z 24004KT 9999 FEW020 SCT030 BKN100 27/21 Q1015=
0165832880999992013122716004-13262-043408FM-15+044399999V0202101N003110304819N009999199+02901+02201999999ADDGA1021+009141991GA2071+030481991GE19MSL   +99999+99999GF199999021990009141991991MA1101401999990REMMET058METAR SBLP 271600Z 21006KT 9999 FEW030 BKN100 29/22 Q1014=
0165832880999992013122717004-13262-043408FM-15+044399999V0202401N003110304819N009999199+02901+02201999999ADDGA1041+009141991GA2071+030481991GE19MSL   +99999+99999GF199999041990009141991991MA1101301999990REMMET058METAR SBLP 271700Z 24006KT 9999 SCT030 BKN100 29/22 Q1013=
0168832880999992013122718004-13267-043417FM-12+044199999V0202701N0005100800199020000199+02841+02271100981ADDAA101999990AZ101061AZ201061GA1081+008001061GA2991+999991101GA3991+999991101GE19MSL   +99999+99999GF108991081990008001991991MA1999990096101MD1909990+0161REMSYN004BUFR
0165832880999992013122718004-13262-043408FM-15+044399999V0202101N001510304819N009999199+02901+02201999999ADDGA1041+006101991GA2071+030481991GE19MSL   +99999+99999GF199999041990006101991991MA1101301999990REMMET058METAR SBLP 271800Z 21003KT 9999 SCT020 BKN100 29/22 Q1013=
0193832880999992013122719004-13262-043408FM-15+044399999V0200301N007210304819N009000199+02401+02201999999ADDGA1041+009141991GA2021+012191091GA3071+030481991GE19MSL   +99999+99999GF199999041990009141991991MW1951REMMET079METAR SBLP 271900Z 03014KT 9000 -TSRA SCT030 FEW040CB BKN100 24/22      Q1 014=
0201832880999992013122719124-13262-043408FM-16+044399999V0203601N009310304819N003000199+02301+02101999999ADDGA1041+009141991GA2021+012191091GA3071+030481991GE19MSL   +99999+99999GF199999041990009141991991MA1101401999990MW1951REMMET072SPECI SBLP 271912Z 36018KT 3000 TSRA SCT030 FEW040CB BKN100 23/21 Q1014=
0175832880999992013122720004-13262-043408FM-15+044399999V0200801N002110274319N009000199+02101+02101999999ADDGA1041+006101991GA2081+027431991GE19MSL   +99999+99999GF199999041990006101991991MA1101401999990MW1611REMMET062METAR SBLP 272000Z 08004KT 9000 -RA SCT020 OVC090 21/21 Q1014=
0175832880999992013122721004-13262-043408FM-15+044399999V0200801N002110274319N009999199+02101+02101999999ADDGA1041+006101991GA2081+027431991GE19MSL   +99999+99999GF199999041990006101991991MA1101401999990MW1611REMMET062METAR SBLP 272100Z 08004KT 9999 -RA SCT020 OVC090 21/21 Q1014=
0187832880999992013122812004-13267-043417FM-12+044199999V0201801N0010100800199020000199+02271+02151101501ADDAA124040031AY161061AY261061GA1051+008001071GA2991+999991101GA3991+999991041GE19MSL   +99999+99999GF108991051990008001991991KA1120N+02101MA1999990096531MD1909990+0111MW1031REMSYN004BUFR
0174832880999992013122818004-13267-043417FM-12+044199999V0202701N0005199999999020000199+02601+02281101161ADDAA106000231AY151061AY221061GA1021+008001061GA2991+999991101GA3991+999991041GE19MSL   +99999+99999GF108991021990008001991991MA1999990096231MD1909990+0131MW1031REMSYN004BUFR
0165832880999992013122912004-13267-043417FM-12+044199999V0201801N0015101750199020000199+02371+02191101381ADDAA124001031AZ101061AZ201061GA1051+017501031GA2991+999991001GE19MSL   +99999+99999GF108991051990017501991991KA1120N+02131MA1999990096441MD1909990-0011REMSYN004BUFR
0152832880999992013122918004-13267-043417FM-12+044199999V0203601N0000199999999020000199+03041+02411100921ADDAA101999990AZ101061AZ201061GA1011+008001081GA2991+999991031GE19MSL   +99999+99999GF104991011990008001991991MA1999990096061MD1909990-0171REMSYN004BUFR
0165832880999992013123009154-13262-043408FM-16+044399999V0209999C000010304819N009999199+02301+02201999999ADDGA1021+009141991GA2071+030481991GE19MSL   +99999+99999GF199999021990009141991991MA1101401999990REMMET058SPECI SBLP 300915Z 00000KT 9999 FEW030 BKN100 23/22 Q1014=
0165832880999992013123010004-13262-043408FM-15+044399999V0201801N001510304819N009999199+02501+02301999999ADDGA1021+009141991GA2071+030481991GE19MSL   +99999+99999GF199999021990009141991991MA1101501999990REMMET058METAR SBLP 301000Z 18003KT 9999 FEW030 BKN100 25/23 Q1015=
0072832880999992013123011004-13262-043408FM-15+044399999V0209999C000019999999Y999999999+02701+02101999999ADDMA1101501999990REMMET045METAR SBLP 301100Z 00000KT CAVOK 27/21 Q1015=
0165832880999992013123012004-13267-043417FM-12+044199999V0203601N0000199999999020000199+02771+02221101231ADDAA101999990AZ101061AZ201061GA1031+012501031GA2991+999991021GE19MSL   +99999+99999GF106991031990012501991991KA1120N+02241MA1999990096381MD1909990-0061REMSYN004BUFR
0072832880999992013123012004-13262-043408FM-15+044399999V0200701N002119999999Y999999999+02801+02101999999ADDMA1101601999990REMMET045METAR SBLP 301200Z 07004KT CAVOK 28/21 Q1016=
0072832880999992013123013004-13262-043408FM-15+044399999V0200501N001519999999Y999999999+02901+02101999999ADDMA1101601999990REMMET045METAR SBLP 301300Z 05003KT CAVOK 29/21 Q1016=
0072832880999992013123014004-13262-043408FM-15+044399999V0201801N001519999999Y999999999+03001+02101999999ADDMA1101501999990REMMET045METAR SBLP 301400Z 18003KT CAVOK 30/21 Q1015=
0142832880999992013123015004-13262-043408FM-15+044399999V0209999C000019999999N009999199+03001+02101999999ADDGA1021+009141991GE19MSL   +99999+99999GF199999021990009141991991MA1101501999990REMMET051METAR SBLP 301500Z 00000KT 9999 FEW030 30/21 Q1015=
0142832880999992013123016004-13262-043408FM-15+044399999V0202701N002619999999N009999199+03301+02101999999ADDGA1041+009141991GE19MSL   +99999+99999GF199999041990009141991991MA1101401999990REMMET051METAR SBLP 301600Z 27005KT 9999 SCT030 33/21 Q1014=
0142832880999992013123017004-13262-043408FM-15+044399999V0202401N001519999999N009999199+03301+02001999999ADDGA1041+009141991GE19MSL   +99999+99999GF199999041990009141991991MA1101301999990REMMET051METAR SBLP 301700Z 24003KT 9999 SCT030 33/20 Q1013=
0168832880999992013123018004-13267-043417FM-12+044199999V0203601N0005199999999020000199+03241+02281100771ADDAA101999990AZ101061AZ201061GA1031+008001081GA2991+999991021GA3991+999991051GE19MSL   +99999+99999GF106991031990008001991991MA1999990095941MD1909990-0121REMSYN004BUFR
0142832880999992013123018004-13262-043408FM-15+044399999V0202801N001019999999N009999199+03401+01901999999ADDGA1041+009141991GE19MSL   +99999+99999GF199999041990009141991991MA1101101999990REMMET051METAR SBLP 301800Z 28002KT 9999 SCT030 34/19 Q1011=
0142832880999992013123019004-13262-043408FM-15+044399999V0203501N002619999999N009999199+03401+01901999999ADDGA1021+009141991GE19MSL   +99999+99999GF199999021990009141991991MA1101101999990REMMET051METAR SBLP 301900Z 35005KT 9999 FEW030 34/19 Q1011=
0142832880999992013123020004-13262-043408FM-15+044399999V0203601N002119999999N009999199+03301+01901999999ADDGA1021+009141991GE19MSL   +99999+99999GF199999021990009141991991MA1101101999990REMMET051METAR SBLP 302000Z 36004KT 9999 FEW030 33/19 Q1011=
0142832880999992013123021004-13262-043408FM-15+044399999V0200201N001019999999N009999199+03201+02001999999ADDGA1021+009141991GE19MSL   +99999+99999GF199999021990009141991991MA1101101999990REMMET051METAR SBLP 302100Z 02002KT 9999 FEW030 32/20 Q1011=
0072832880999992013123109154-13262-043408FM-16+044399999V0209999C000019999999Y999999999+02301+02201999999ADDMA1101401999990REMMET045SPECI SBLP 310915Z 00000KT CAVOK 23/22 Q1014=
0072832880999992013123110004-13262-043408FM-15+044399999V0209999C000019999999Y999999999+02501+02201999999ADDMA1101401999990REMMET045METAR SBLP 311000Z 00000KT CAVOK 25/22 Q1014=
0072832880999992013123111004-13262-043408FM-15+044399999V0209999C000019999999Y999999999+02901+02001999999ADDMA1101501999990REMMET045METAR SBLP 311100Z 00000KT CAVOK 29/20 Q1015=
0149832880999992013123112004-13267-043417FM-12+044199999V0203601N0000199999999020000199+02801+02091101191ADDAA101999990AZ101061AZ201061GA1991+025001021GE19MSL   +99999+99999GF102991990990025001991991KA1120N+02561MA1999990096341MD1909990-0041REMSYN004BUFR
0072832880999992013123112004-13262-043408FM-15+044399999V0200701N001019999999Y999999999+03001+01901999999ADDMA1101501999990REMMET045METAR SBLP 311200Z 07002KT CAVOK 30/19 Q1015=
0072832880999992013123113004-13262-043408FM-15+044399999V0209999C000019999999Y999999999+03201+01801999999ADDMA1101601999990REMMET045METAR SBLP 311300Z 00000KT CAVOK 32/18 Q1016=
0072832880999992013123114004-13262-043408FM-15+044399999V0202401N001019999999Y999999999+03201+01901999999ADDMA1101501999990REMMET045METAR SBLP 311400Z 24002KT CAVOK 32/19 Q1015=
0142832880999992013123115004-13262-043408FM-15+044399999V0201201N002119999999N009999199+03301+01701999999ADDGA1021+009141991GE19MSL   +99999+99999GF199999021990009141991991MA1101401999990REMMET051METAR SBLP 311500Z 12004KT 9999 FEW030 33/17 Q1014=
0142832880999992013123116004-13262-043408FM-15+044399999V0203401N002119999999N009999199+03201+01801999999ADDGA1021+009141991GE19MSL   +99999+99999GF199999021990009141991991MA1101401999990REMMET051METAR SBLP 311600Z 34004KT 9999 FEW030 32/18 Q1014=
0142832880999992013123117004-13262-043408FM-15+044399999V0203201N002119999999N009999199+03201+01901999999ADDGA1041+009141991GE19MSL   +99999+99999GF199999041990009141991991MA1101201999990REMMET051METAR SBLP 311700Z 32004KT 9999 SCT030 32/19 Q1012=
0136832880999992013123118004-13267-043417FM-12+044199999V0202701N0005199999999020000199+03251+01981100781ADDAA101999990AZ101061AZ201061GA1031+008001081GE19MSL   +99999+99999GF103991031990008001991991MA1999990095961MD1909990+0021REMSYN004BUFR
0142832880999992013123118004-13262-043408FM-15+044399999V0202401N002119999999N009999199+03201+01801999999ADDGA1041+009141991GE19MSL   +99999+99999GF199999041990009141991991MA1101201999990REMMET051METAR SBLP 311800Z 24004KT 9999 SCT030 32/18 Q1012=
0142832880999992013123119004-13262-043408FM-15+044399999V0201901N002119999999N009999199+03201+01901999999ADDGA1021+009141991GE19MSL   +99999+99999GF199999021990009141991991MA1101101999990REMMET051METAR SBLP 311900Z 19004KT 9999 FEW030 32/19 Q1011=
0142832880999992013123120004-13262-043408FM-15+044399999V0202101N002619999999N009999199+03201+01901999999ADDGA1021+009141991GE19MSL   +99999+99999GF199999021990009141991991MA1101001999990REMMET051METAR SBLP 312000Z 21005KT 9999 FEW030 32/19 Q1010=
0142832880999992013123121004-13262-043408FM-15+044399999V0209999C000019999999N009999199+03101+01901999999ADDGA1021+009141991GE19MSL   +99999+99999GF199999021990009141991991MA1101101999990REMMET051METAR SBLP 312100Z 00000KT 9999 FEW030 31/19 Q1011=
