0168821980999992007010100004-01717-045400FM-12+004499999V0200501N003611050019N0002001N1+02701+02371101151ADDGF105991021021004501061011KA1240M+03201MA1999999100641MD1999999-0011REMSYN088AAXX  01004 82198 32492 50507 10270 20237 30064 40115 82261 333 10320 29077 55083 59001;
0156821980999992007010112004-01717-045400FM-12+004499999V0200501N003110450019N0010001N1+03011+02461101241ADDGF106991041021004501061001KA1240N+02371MA1999999100731MD1999999+0051REMSYN076AAXX  01124 82198 32494 60506 10301 20246 30073 40124 84260 333 20237 58005;
0137821980999992007010118004-01717-045400FM-12+004499999V0200501N006210450019N0010001N1+03161+02371100891ADDGF105991041021004501061001MA1999999100381MD1999999+0021REMSYN070AAXX  01184 82198 32494 50512 10316 20237 30038 40089 84260 333 58002;
0168821980999992007010200004-01717-045400FM-12+004499999V0200501N004612200019N0002001N1+02741+02361101141ADDGF103991031021008001001001KA1240M+03301MA1999999100631MD1999999-0011REMSYN088AAXX  02004 82198 32592 30509 10274 20236 30063 40114 83200 333 10330 29074 55086 59001;
0184821980999992007010212004-01717-045400FM-12+004499999V0200701N006212200019N0005001N1+03141+02291101171ADDAY101061AY221061GF103991021021004501031001KA1240N+02421MA1999999100661MD1999999-0071MW1041REMSYN082AAXX  02124 82198 31493 30712 10314 20229 30066 40117 70402 82230 333 20242 59007;
0165821980999992007010218004-01717-045400FM-12+004499999V0200901N005110042019N0005001N1+03241+02311100881ADDAY121061AY231061GF106991061021004501001001MA1999999100371MD1999999-0011MW1041REMSYN076AAXX  02184 82198 31493 60910 10324 20231 30037 40088 70423 86200 333 59001;
0168821980999992007010300004-01717-045400FM-12+004499999V0200701N003610450019N0002001N1+02771+02401101031ADDGF108991021011004501011001KA1240M+03521MA1999999100521MD1999999-0111REMSYN088AAXX  03004 82198 32492 80707 10277 20240 30052 40103 82110 333 10352 29070 55101 59011;
0184821980999992007010312004-01717-045400FM-12+004499999V0200701N004610042019N0005001N1+02941+02331101181ADDAY101061AY221061GF107991051051004501061011KA1240N+02441MA1999999100671MD1999999+0011MW1041REMSYN082AAXX  03124 82198 31493 70709 10294 20233 30067 40118 70402 85561 333 20244 58001;
0182821980999992007010318004-01717-045400FM-12+004499999V0200901N004610450019N0005001N1+03151+02211100951ADDAA106002091AY161061AY221061GF106991041051004501061001MA1999999100441MD1999999+0071MW1041REMSYN082AAXX  03184 82198 21493 60909 10315 20221 30044 40095 70462 84560 333 58007 60021;
0168821980999992007010400004-01717-045400FM-12+004499999V0200701N003612200019N0002001N1+02721+02301101091ADDGF106991041001017501011041KA1240M+03241MA1999999100581MD1999999+0061REMSYN088AAXX  04004 82198 32792 60707 10272 20230 30058 40109 84014 333 10324 29071 55068 58006;
0201821980999992007010412004-01717-045400FM-12+004499999V0200501N005712200019N0010001N1+03051+02191101141ADDAA124002091AY101061AY221061GF104991031021004501001011KA1240N+02471MA1999999100631MD1999999-0041MW1041REMSYN088AAXX  04124 82198 21494 40511 10305 20219 30063 40114 70402 83201 333 20247 59004 60024;
0165821980999992007010418004-01717-045400FM-12+004499999V0200501N005110450019N0005001N1+03131+02031100901ADDAY111061AY221061GF106991041021004501031011MA1999999100391MD1999999-0051MW1041REMSYN076AAXX  04184 82198 31493 60510 10313 20203 30039 40090 70412 84231 333 59005;
0168821980999992007010500004-01717-045400FM-12+004499999V0200501N003612200019N0002001N1+02711+02281100981ADDGF103991021011999999001011KA1240M+03251MA1999999100471MD1999999-0111REMSYN088AAXX  05004 82198 32992 30507 10271 20228 30047 40098 82101 333 10325 29068 55090 59011;
0184821980999992007010512004-01717-045400FM-12+004499999V0200501N005110042019N0010001N1+02921+02191101061ADDAY101061AY211061GF105991051021004501001001KA1240N+02351MA1999999100551MD1999999-0081MW1041REMSYN082AAXX  05124 82198 31494 50510 10292 20219 30055 40106 70401 85200 333 20235 59008;
0165821980999992007010518004-01717-045400FM-12+004499999V0203601N007212200019N0010001N1+03131+02031100821ADDAY121061AY221061GF104991041021004501001001MA1999999100311MD1999999-0081MW1041REMSYN076AAXX  05184 82198 31494 43614 10313 20203 30031 40082 70422 84200 333 59008;
0168821980999992007010600004-01717-045400FM-12+004499999V0200901N003612200019N0002001N1+02671+02141100941ADDGF101991011011004501001001KA1240M+03301MA1999999100431MD1999999-0041REMSYN088AAXX  06004 82198 32492 10907 10267 20214 30043 40094 81100 333 10330 29068 55113 59004;
0184821980999992007010612004-01717-045400FM-12+004499999V0200501N005710042019N0010001N1+02931+02321101051ADDAY101061AY211061GF106991061021004501001001KA1240N+02271MA1999999100541MD1999999+0021MW1041REMSYN082AAXX  06124 82198 31494 60511 10293 20232 30054 40105 70401 86200 333 20227 58002;
0165821980999992007010618004-01717-045400FM-12+004499999V0203601N005710450019N0010001N1+03171+02121100801ADDAY121061AY221061GF106991031021004501031011MA1999999100291MD1999999-0021MW1041REMSYN076AAXX  06184 82198 31494 63611 10317 20212 30029 40080 70422 83231 333 59002;
0168821980999992007010700004-01717-045400FM-12+004499999V0203601N003112200019N0002001N1+02711+02221100991ADDGF102991021021004501001001KA1240M+03271MA1999999100481MD1999999+0051REMSYN088AAXX  07004 82198 32492 23606 10271 20222 30048 40099 82200 333 10327 29068 55101 58005;
0184821980999992007010712004-01717-045400FM-12+004499999V0200501N003110450019N0010001N1+02931+02341101191ADDAY101061AY221061GF106991031051004501061011KA1240N+02351MA1999999100681MD1999999+0111MW1041REMSYN082AAXX  07124 82198 31494 60506 10293 20234 30068 40119 70402 83561 333 20235 58011;
0165821980999992007010718004-01717-045400FM-12+004499999V0200701N006210450019N0010001N1+03221+02121100821ADDAY121061AY221061GF106991031021004501011061MA1999999100311MD1999999+0021MW1041REMSYN076AAXX  07184 82198 31494 60712 10322 20212 30031 40082 70422 83216 333 58002;
0178821980999992007010800004-01717-045400FM-12+004499999V0200501N002612200019N0002001N1+02691+02311101001ADDGA1001+999999999GF100991001001999999001001KA1240M+03491MA1999999100501MD1999999+0021REMSYN082AAXX  08004 82198 32992 00505 10269 20231 30050 40100 333 10349 29073 55082 58002;
0184821980999992007010812004-01717-045400FM-12+004499999V0200501N002610042019N0010001N1+02961+02331101031ADDAY111061AY221061GF106991061021004501001001KA1240N+02411MA1999999100521MD1999999-0161MW1041REMSYN082AAXX  08124 82198 31494 60505 10296 20233 30052 40103 70412 86200 333 20241 59016;
0165821980999992007010818004-01717-045400FM-12+004499999V0203601N004610450019N0010001N1+02961+02281100791ADDAY121061AY221061GF106991041051004501061001MA1999999100281MD1999999-0031MW1041REMSYN076AAXX  08184 82198 31494 63609 10296 20228 30028 40079 70422 84560 333 59003;
0196821980999992007010900004-01717-045400FM-12+004499999V0200501N002612200019N0002001N1+02691+02231100951ADDAY111061AY221061GF103991021021004501061001KA1240M+03101MA1999999100441MD1999999-0061MW1131REMSYN094AAXX  09004 82198 31492 30505 10269 20223 30044 40095 71312 82260 333 10310 29074 55042 59006;
0156821980999992007010912004-01717-045400FM-12+004499999V0200501N004610042019N0010001N1+03001+02371101071ADDGF107991051021004501041001KA1240N+02381MA1999999100561MD1999999+0041REMSYN076AAXX  09124 82198 32494 70509 10300 20237 30056 40107 85240 333 20238 58004;
0201821980999992007010918004-01717-045400FM-12+004499999V0200501N005110450019N0010001N1+02991+02351100721ADDAA106000091AY151061AY221061GF106991041021008001061001MA1999999100211MD1999999-0071MW1021REMSYN082AAXX  09184 82198 21594 60510 10299 20235 30021 40072 70252 84260 333 59007 69911;EQDQ01  00002PRCP06
0168821980999992007011000004-01717-045400FM-12+004499999V0200501N002610450019N0002001N1+02741+02381100961ADDGF106991031041008001011001KA1240M+03251MA1999999100451MD1999999+0011REMSYN088AAXX  10004 82198 32592 60505 10274 20238 30045 40096 83410 333 10325 29075 55054 58001;
0192821980999992007011012004-01717-045400FM-12+004499999V0200501N004610450019N0010001N1+02961+02401101071ADDAA124000091GF107991041021004501041001KA1240N+02461MA1999999100561MD1999999+0001REMSYN082AAXX  10124 82198 22494 70509 10296 20240 30056 40107 84240 333 20246 58000 69914;EQDQ01  00002PRCP24
0182821980999992007011018004-01717-045400FM-12+004499999V0200501N004610450019N0005001N1+02921+02501100811ADDAA106007191AY161061AY221061GF105991031021004501031001MA1999999100301MD1999999+0091MW1631REMSYN082AAXX  10184 82198 21493 50509 10292 20250 30030 40081 76362 83230 333 58009 60071;
0168821980999992007011100004-01717-045400FM-12+004499999V0200501N003112200019N0002001N1+02691+02411101041ADDGF103991031001012501061001KA1240M+03221MA1999999100531MD1999999+0081REMSYN088AAXX  11004 82198 32692 30506 10269 20241 30053 40104 83060 333 10322 29080 55069 58008;
0173821980999992007011112004-01717-045400FM-12+004499999V0200501N003610450019N0010001N1+02911+02411101141ADDAA124007191GF105991031021004501061001KA1240N+02401MA1999999100631MD1999999+0071REMSYN082AAXX  11124 82198 22494 50507 10291 20241 30063 40114 83260 333 20240 58007 60074;
0182821980999992007011118004-01717-045400FM-12+004499999V0200501N006712200019N0010001N1+03091+02351100791ADDAA106003091AY161061AY221061GF104991031021004501041001MA1999999100281MD1999999-0021MW1041REMSYN082AAXX  11184 82198 21494 40513 10309 20235 30028 40079 70462 83240 333 59002 60031;
0168821980999992007011200004-01717-045400FM-12+004499999V0200701N002110450019N0002001N1+02681+02431101001ADDGF106991031041004501061001KA1240M+03241MA1999999100491MD1999999-0091REMSYN088AAXX  12004 82198 32492 60704 10268 20243 30049 40100 83460 333 10324 29078 55075 59009;
0173821980999992007011212004-01717-045400FM-12+004499999V0200501N003610450019N0010001N1+02921+02411101051ADDAA124003091GF105991041021004501061001KA1240N+02281MA1999999100541MD1999999-0091REMSYN082AAXX  12124 82198 22494 50507 10292 20241 30054 40105 84260 333 20228 59009 60034;
0182821980999992007011218004-01717-045400FM-12+004499999V0203601N005110450019N0005001N1+02721+02561100751ADDAA106017091AY161061AY251061GF107991041051004501011001MA1999999100241MD1999999-0041MW1621REMSYN082AAXX  12184 82198 21493 73610 10272 20256 30024 40075 76265 84510 333 59004 60171;
0213821980999992007011300004-01717-045400FM-12+004499999V0200501N003110450019N0002001N1+02681+02461100891ADDAA106001091AY161061AY221061GF106991031051004501041001KA1240M+03071MA1999999100381MD1999999-0111MW1021REMSYN100AAXX  13004 82198 21492 60506 10268 20246 30038 40089 70262 83540 333 10307 29085 55038 59011 60011;
0173821980999992007011312004-01717-045400FM-12+004499999V0200201N004610042019N0010001N1+03041+02451100991ADDAA124018091GF105991051021004501001001KA1240N+02451MA1999999100481MD1999999-0061REMSYN082AAXX  13124 82198 22494 50209 10304 20245 30048 40099 85200 333 20245 59006 60184;
0165821980999992007011318004-01717-045400FM-12+004499999V0200501N005112200019N0010001N1+03241+02161100661ADDAY121061AY211061GF103991031021004501001001MA1999999100151MD1999999-0091MW1041REMSYN076AAXX  13184 82198 31494 30510 10324 20216 30015 40066 70421 83200 333 59009;
0168821980999992007011400004-01717-045400FM-12+004499999V0200701N002612200019N0002001N1+02681+02351100831ADDGF104991031011004501061001KA1240M+03341MA1999999100321MD1999999-0061REMSYN088AAXX  14004 82198 32492 40705 10268 20235 30032 40083 83160 333 10334 29072 55102 59006;
0184821980999992007011412004-01717-045400FM-12+004499999V0200901N003110450019N0010001N1+02931+02391101031ADDAY121061AY221061GF106991031021004501031001KA1240N+02301MA1999999100521MD1999999+0041MW1041REMSYN082AAXX  14124 82198 31494 60906 10293 20239 30052 40103 70422 83230 333 20230 58004;
0165821980999992007011418004-01717-045400FM-12+004499999V0200901N005112200019N0010001N1+03361+02151100721ADDAY121061AY211061GF103991021011004501041001MA1999999100211MD1999999+0061MW1041REMSYN076AAXX  14184 82198 31494 30910 10336 20215 30021 40072 70421 82140 333 58006;
0168821980999992007011500004-01717-045400FM-12+004499999V0200501N002112200019N0002001N1+02711+02351100841ADDGF103991031001008001061001KA1240M+03431MA1999999100331MD1999999+0011REMSYN088AAXX  15004 82198 32592 30504 10271 20235 30033 40084 83060 333 10343 29071 55083 58001;
0184821980999992007011512004-01717-045400FM-12+004499999V0200501N003610450019N0010001N1+02861+02421101021ADDAY121061AY221061GF106991031021004501011001KA1240N+02441MA1999999100511MD1999999-0011MW1041REMSYN082AAXX  15124 82198 31494 60507 10286 20242 30051 40102 70422 83210 333 20244 59001;
0165821980999992007011518004-01717-045400FM-12+004499999V0200901N005110450019N0010001N1+03261+02271100741ADDAY121061AY211061GF107991041021004501031001MA1999999100231MD1999999+0021MW1041REMSYN076AAXX  15184 82198 31494 70910 10326 20227 30023 40074 70421 84230 333 58002;
0168821980999992007011600004-01717-045400FM-12+004499999V0200501N002610450019N0002001N1+02781+02401100881ADDGF105991031011008001061001KA1240M+03411MA1999999100371MD1999999+0041REMSYN088AAXX  16004 82198 32592 50505 10278 20240 30037 40088 83160 333 10341 29073 55028 58004;
0184821980999992007011612004-01717-045400FM-12+004499999V0200501N001510042019N0002001N1+02901+02501100991ADDAY101061AY221061GF108991061051004501011001KA1240N+02431MA1999999100481MD1999999-0031MW1051REMSYN082AAXX  16124 82198 31492 80503 10290 20250 30048 40099 70502 86510 333 20243 59003;
0182821980999992007011618004-01717-045400FM-12+004499999V0200501N005710042019N0005001N1+03221+02291100701ADDAA106000891AY151061AY221061GF106991051021004501001011MA1999999100191MD1999999-0041MW1051REMSYN082AAXX  16184 82198 21493 60511 10322 20229 30019 40070 70552 85201 333 59004 69971;
0178821980999992007011700004-01717-045400FM-12+004499999V0200701N003112200019N0002001N1+02741+02401100781ADDGA1001+999999999GF100991001001999999001001KA1240M+03361MA1999999100271MD1999999-0101REMSYN082AAXX  17004 82198 32992 00706 10274 20240 30027 40078 333 10336 29075 55063 59010;
0201821980999992007011712004-01717-045400FM-12+004499999V0200901N003610450019N0005001N1+02981+02471100921ADDAA124000891AY101061AY221061GF106991031021004501011041KA1240N+02391MA1999999100411MD1999999-0071MW1051REMSYN088AAXX  17124 82198 21493 60907 10298 20247 30041 40092 70502 83214 333 20239 59007 69974;
0165821980999992007011718004-01717-045400FM-12+004499999V0201101N007210450019N0005001N1+03281+02031100671ADDAY121061AY221061GF106991041021004501011001MA1999999100161MD1999999-0031MW1051REMSYN076AAXX  17184 82198 31493 61114 10328 20203 30016 40067 70522 84210 333 59003;
0178821980999992007011800004-01717-045400FM-12+004499999V0200501N003112200019N0002001N1+02761+02421100931ADDGA1001+999999999GF100991001001999999001001KA1240M+03411MA1999999100421MD1999999+0151REMSYN082AAXX  18004 82198 32992 00506 10276 20242 30042 40093 333 10341 29072 55091 58015;
0184821980999992007011812004-01717-045400FM-12+004499999V0200901N005110450019N0005001N1+02991+02391101051ADDAY101061AY211061GF106991041051004501061001KA1240N+02461MA1999999100541MD1999999+0131MW1051REMSYN082AAXX  18124 82198 31493 60910 10299 20239 30054 40105 70501 84560 333 20246 58013;
0165821980999992007011818004-01717-045400FM-12+004499999V0200701N005112200019N0005001N1+03351+02121100781ADDAY111061AY221061GF105991031021004501001061MA1999999100271MD1999999+0111MW1041REMSYN076AAXX  18184 82198 31493 50710 10335 20212 30027 40078 70412 83206 333 58011;
0178821980999992007011900004-01717-045400FM-12+004499999V0200501N002612200019N0002001N1+02761+02341100991ADDGA1001+999999999GF100991001001999999001001KA1240M+03441MA1999999100481MD1999999+0061REMSYN082AAXX  19004 82198 32992 00505 10276 20234 30048 40099 333 10344 29069 55100 58006;
0184821980999992007011912004-01717-045400FM-12+004499999V0200501N004610450019N0005001N1+03021+02311101151ADDAY101061AY211061GF105991031021004501061001KA1240N+02431MA1999999100641MD1999999+0101MW1041REMSYN082AAXX  19124 82198 31493 50509 10302 20231 30064 40115 70401 83260 333 20243 58010;
0165821980999992007011918004-01717-045400FM-12+004499999V0200501N004110450019N0005001N1+03021+02161100941ADDAY161061AY221061GF105991031021004501061001MA1999999100431MD1999999+0161MW1041REMSYN076AAXX  19184 82198 31493 50508 10302 20216 30043 40094 70462 83260 333 58016;
0178821980999992007012000004-01717-045400FM-12+004499999V0200501N004612200019N0002001N1+02741+02321101111ADDGA1001+999999999GF100991001001999999001001KA1240M+03241MA1999999100601MD1999999+0121REMSYN082AAXX  20004 82198 32992 00509 10274 20232 30060 40111 333 10324 29070 55093 58012;
0184821980999992007012012004-01717-045400FM-12+004499999V0203601N005710450019N0005001N1+03061+02301101141ADDAY101061AY211061GF106991031021004501031011KA1240N+02441MA1999999100631MD1999999-0011MW1041REMSYN082AAXX  20124 82198 31493 63611 10306 20230 30063 40114 70401 83231 333 20244 59001;
0165821980999992007012018004-01717-045400FM-12+004499999V0200901N006210450019N0005001N1+03241+02161100981ADDAY121061AY221061GF105991031021004501031091MA1999999100471MD1999999+0041MW1041REMSYN076AAXX  20184 82198 31493 50912 10324 20216 30047 40098 70422 83239 333 58004;
0178821980999992007012100004-01717-045400FM-12+004499999V0200701N002612200019N0002001N1+02731+02371101151ADDGA1001+999999999GF100991001001999999001001KA1240M+03491MA1999999100641MD1999999+0041REMSYN082AAXX  21004 82198 32992 00705 10273 20237 30064 40115 333 10349 29070 55098 58004;
0184821980999992007012112004-01717-045400FM-12+004499999V0200901N003610042019N0005001N1+03001+02441101221ADDAY101061AY211061GF105991051021004501001001KA1240N+02731MA1999999100711MD1999999+0031MW1041REMSYN082AAXX  21124 82198 31493 50907 10300 20244 30071 40122 70401 85200 333 20273 58003;
0165821980999992007012118004-01717-045400FM-12+004499999V0200701N005112200019N0005001N1+03331+02271101001ADDAY121061AY221061GF104991031021004501031001MA1999999100491MD1999999+0021MW1041REMSYN076AAXX  21184 82198 31493 40710 10333 20227 30049 40100 70422 83230 333 58002;
0197821980999992007012200004-01717-045400FM-12+004499999V0203001N030822200019N0002001N1+02771+02481101061ADDGA1001+999999999GF100991001001999999001001KA1240M+03491MA1999999100551MD1999999-0091REMSYN082AAXX  22004 82198 32992 03060 10277 20248 30055 40106 333 10349 29073 55104 59009;EQDQ01+003083WOSPD 
0184821980999992007012212004-01717-045400FM-12+004499999V0200501N005112200019N0005001N1+02971+02531101121ADDAY101061AY211061GF105991031021004501001011KA1240N+02461MA1999999100611MD1999999-0101MW1041REMSYN082AAXX  22124 82198 31493 50510 10297 20253 30061 40112 70401 83201 333 20246 59010;
0165821980999992007012218004-01717-045400FM-12+004499999V0200501N005712200019N0005001N1+03311+02331100851ADDAY121061AY221061GF105991031021004501001011MA1999999100341MD1999999-0151MW1041REMSYN076AAXX  22184 82198 31493 50511 10331 20233 30034 40085 70422 83201 333 59015;
0168821980999992007012300004-01717-045400FM-12+004499999V0200501N004612200019N0002001N1+02741+02341101001ADDGF103991021021004501011001KA1240M+03281MA1999999100491MD1999999-0061REMSYN088AAXX  23004 82198 32492 30509 10274 20234 30049 40100 82210 333 10328 29073 55092 59006;
0184821980999992007012312004-01717-045400FM-12+004499999V0200501N004612200019N0005001N1+03021+02391101031ADDAY101061AY211061GF104991031021004501061001KA1240N+02471MA1999999100521MD1999999-0091MW1041REMSYN082AAXX  23124 82198 31493 40509 10302 20239 30052 40103 70401 83260 333 20247 59009;
0165821980999992007012318004-01717-045400FM-12+004499999V0200501N006212200019N0005001N1+03121+02411100841ADDAY121061AY221061GF104991041021004501001001MA1999999100331MD1999999-0011MW1041REMSYN076AAXX  23184 82198 31493 40512 10312 20241 30033 40084 70422 84200 333 59001;
0178821980999992007012400004-01717-045400FM-12+004499999V0200501N004612200019N0002001N1+02761+02381100971ADDGA1001+999999999GF100991001001999999001001KA1240M+03371MA1999999100461MD1999999-0031REMSYN082AAXX  24004 82198 32992 00509 10276 20238 30046 40097 333 10337 29074 55105 59003;
0184821980999992007012412004-01717-045400FM-12+004499999V0200501N004610042019N0005001N1+02961+02351101151ADDAY121061AY211061GF106991051021004501061001KA1240N+02411MA1999999100641MD1999999+0121MW1041REMSYN082AAXX  24124 82198 31493 60509 10296 20235 30064 40115 70421 85260 333 20241 58012;
0165821980999992007012418004-01717-045400FM-12+004499999V0200201N006210042019N0005001N1+03041+02381100931ADDAY121061AY221061GF105991051021004501001001MA1999999100421MD1999999+0091MW1041REMSYN076AAXX  24184 82198 31493 50212 10304 20238 30042 40093 70422 85200 333 58009;
0168821980999992007012500004-01717-045400FM-12+004499999V0200501N005712200019N0002001N1+02741+02341100991ADDGF102991021021004501001001KA1240M+03161MA1999999100481MD1999999+0021REMSYN088AAXX  25004 82198 32492 20511 10274 20234 30048 40099 82200 333 10316 29074 55069 58002;
0184821980999992007012512004-01717-045400FM-12+004499999V0200501N004610042019N0005001N1+02951+02471101151ADDAY121061AY211061GF106991051021004501061001KA1240N+02461MA1999999100641MD1999999+0001MW1041REMSYN082AAXX  25124 82198 31493 60509 10295 20247 30064 40115 70421 85260 333 20246 58000;
0182821980999992007012518004-01717-045400FM-12+004499999V0200501N003110450019N0010001N1+02871+02481100871ADDAA106005191AY161061AY221061GF105991031021004501041001MA1999999100361MD1999999-0061MW1631REMSYN082AAXX  25184 82198 21494 50506 10287 20248 30036 40087 76362 83240 333 59006 60051;
0168821980999992007012600004-01717-045400FM-12+004499999V0200701N002612200019N0002001N1+02671+02461100971ADDGF102991021021004501001001KA1240M+03241MA1999999100461MD1999999-0021REMSYN088AAXX  26004 82198 32492 20705 10267 20246 30046 40097 82200 333 10324 29082 55091 59002;
0173821980999992007012612004-01717-045400FM-12+004499999V0200901N003610450019N0010001N1+03061+02351101051ADDAA124005191GF106991041021004501061011KA1240N+02401MA1999999100541MD1999999-0101REMSYN082AAXX  26124 82198 22494 60907 10306 20235 30054 40105 84261 333 20240 59010 60054;
0137821980999992007012618004-01717-045400FM-12+004499999V0200901N005111050019N0010001N1+03321+02171100821ADDGF105991021021004501071011MA1999999100311MD1999999-0051REMSYN070AAXX  26184 82198 32494 50910 10332 20217 30031 40082 82271 333 59005;
0168821980999992007012700004-01717-045400FM-12+004499999V0200501N002612200019N0002001N1+02721+02411100991ADDGF102991021021004501001001KA1240M+03461MA1999999100481MD1999999+0021REMSYN088AAXX  27004 82198 32492 20505 10272 20241 30048 40099 82200 333 10346 29071 55100 58002;
0156821980999992007012712004-01717-045400FM-12+004499999V0200501N003110042019N0010001N1+03011+02421101121ADDGF105991051021004501001001KA1240N+02421MA1999999100611MD1999999+0071REMSYN076AAXX  27124 82198 32494 50506 10301 20242 30061 40112 85200 333 20242 58007;
0137821980999992007012718004-01717-045400FM-12+004499999V0200501N004612200019N0010001N1+03321+02171100861ADDGF104991021011004501041001MA1999999100351MD1999999+0041REMSYN070AAXX  27184 82198 32494 40509 10332 20217 30035 40086 82140 333 58004;
0168821980999992007012800004-01717-045400FM-12+004499999V0200501N004610450019N0002001N1+02761+02401101091ADDGF106991041011004501011001KA1240M+03471MA1999999100581MD1999999+0101REMSYN088AAXX  28004 82198 32492 60509 10276 20240 30058 40109 84110 333 10347 29071 55102 58010;
0156821980999992007012812004-01717-045400FM-12+004499999V0200501N004610450019N0010001N1+02981+02401101341ADDGF106991041021004501031001KA1240N+02481MA1999999100831MD1999999+0221REMSYN076AAXX  28124 82198 32494 60509 10298 20240 30083 40134 84230 333 20248 58022;
0165821980999992007012818004-01717-045400FM-12+004499999V0200501N005712200019N0005001N1+03181+02311101051ADDAY121061AY221061GF104991021021004501041001MA1999999100541MD1999999+0191MW1041REMSYN076AAXX  28184 82198 31493 40511 10318 20231 30054 40105 70422 82240 333 58019;
0184821980999992007012912004-01717-045400FM-12+004499999V0200901N005110042019N0010001N1+03021+02461101261ADDAY121061AY221061GF106991051021004501061001KA1240N+02501MA1999999100751MD1999999-0081MW1041REMSYN082AAXX  29124 82198 31494 60910 10302 20246 30075 40126 70422 85260 333 20250 59008;
0182821980999992007012918004-01717-045400FM-12+004499999V0200501N006710042019N0010001N1+03031+02261101001ADDAA106000591AY151061AY221061GF105991051021004501001001MA1999999100491MD1999999-0051MW1041REMSYN082AAXX  29184 82198 21494 50513 10303 20226 30049 40100 70452 85200 333 59005 69941;
0168821980999992007013000004-01717-045400FM-12+004499999V0200701N003112200019N0002001N1+02741+02431101151ADDGF102991021021004501001001KA1240M+03221MA1999999100641MD1999999-0061REMSYN088AAXX  30004 82198 32492 20706 10274 20243 30064 40115 82200 333 10322 29076 55085 59006;
0201821980999992007013012004-01717-045400FM-12+004499999V0200501N004110450019N0005001N1+03031+02341101251ADDAA124000591AY101061AY211061GF106991031021004501061041KA1240N+02501MA1999999100741MD1999999-0011MW1041REMSYN088AAXX  30124 82198 21493 60508 10303 20234 30074 40125 70401 83264 333 20250 59001 69944;
0165821980999992007013018004-01717-045400FM-12+004499999V0200501N006210450019N0005001N1+03171+02411100901ADDAY121061AY211061GF105991031021004501011011MA1999999100391MD1999999-0101MW1041REMSYN076AAXX  30184 82198 31493 50512 10317 20241 30039 40090 70421 83211 333 59010;
0168821980999992007013100004-01717-045400FM-12+004499999V0203601N004610042019N0002001N1+02791+02421101091ADDGF107991051051004501011001KA1240M+03291MA1999999100581MD1999999-0061REMSYN088AAXX  31004 82198 32492 73609 10279 20242 30058 40109 85510 333 10329 29073 55080 59006;
0201821980999992007013112004-01717-045400FM-12+004499999V0203601N004610042019N0005001N1+02961+02531101151ADDAA124001091AY161061AY221061GF108991051051004501061001KA1240N+02411MA1999999100641MD1999999-0101MW1151REMSYN088AAXX  31124 82198 21493 83609 10296 20253 30064 40115 71562 85560 333 20241 59010 60014;
0165821980999992007013118004-01717-045400FM-12+004499999V0203601N006210450019N0005001N1+03001+02341100921ADDAY121061AY221061GF107991041051004501011011MA1999999100311MD1999999-0081MW1041REMSYN076AAXX  31184 82198 31493 73612 10300 20234 30031 40092 70422 84511 333 59008;
0168821980999992007020100004-01717-045400FM-12+004499999V0203201N005110450019N0002001N1+02661+02431101091ADDGF106991041071004501031001KA1240M+03121MA1999999100581MD1999999+0001REMSYN088AAXX  01004 82198 32492 63210 10266 20243 30058 40109 84730 333 10312 29080 55032 58000;
0201821980999992007020112004-01717-045400FM-12+004499999V0200501N008210042019N0005001N1+02971+02371101221ADDAA124001091AY151061AY221061GF107991051051004501061001KA1240N+02361MA1999999100711MD1999999-0031MW1151REMSYN088AAXX  01124 82198 21493 70516 10297 20237 30071 40122 71552 85560 333 20236 59003 69994;
0165821980999992007020118004-01717-045400FM-12+004499999V0203601N005710450019N0005001N1+03111+02341100841ADDAY121061AY221061GF106991031021004501041061MA1999999100331MD1999999+0021MW1041REMSYN076AAXX  01184 82198 31493 63611 10311 20234 30033 40084 70422 83246 333 58002;
0168821980999992007020200004-01717-045400FM-12+004499999V0203601N003110450019N0002001N1+02791+02421101111ADDGF108991041051004501011001KA1240M+03291MA1999999100601MD1999999+0021REMSYN088AAXX  02004 82198 32492 83606 10279 20242 30060 40111 84510 333 10329 29073 55095 58002;
0201821980999992007020212004-01717-045400FM-12+004499999V0203601N004610042019N0005001N1+02561+02361101351ADDAA124010991AY161061AY221061GF108991051071004501061001KA1240N+02271MA1999999100831MD1999999+0121MW1151REMSYN088AAXX  02124 82198 21493 83609 10256 20236 30083 40135 71562 85760 333 20227 58012 60114;
0182821980999992007020218004-01717-045400FM-12+004499999V0200901N002610042019N0005001N1+02701+02371101071ADDAA106006191AY161061AY221061GF108991051071004501061001MA1999999100561MD1999999+0231MW1041REMSYN082AAXX  02184 82198 21493 80905 10270 20237 30056 40107 70462 85760 333 58023 60061;
0213821980999992007020300004-01717-045400FM-12+004499999V0200701N002610450019N0002001N1+02551+02401101181ADDAA106001091AY161061AY221061GF107991041021004501031001KA1240M+02861MA1999999100671MD1999999+0071MW1031REMSYN100AAXX  03004 82198 21492 70705 10255 20240 30067 40118 70362 84230 333 10286 29087 55002 58007 60011;
0201821980999992007020312004-01717-045400FM-12+004499999V0203601N002610042019N0005001N1+02741+02341101251ADDAA124008991AY161061AY221061GF108991051071004501031001KA1240N+02251MA1999999100731MD1999999-0101MW1101REMSYN088AAXX  03124 82198 21493 83605 10274 20234 30073 40125 71062 85730 333 20225 59010 60094;
0165821980999992007020318004-01717-045400FM-12+004499999V0200501N006710450019N0005001N1+02911+02171100991ADDAY121061AY221061GF108991041071004501061001MA1999999100481MD1999999-0081MW1041REMSYN076AAXX  03184 82198 31493 80513 10291 20217 30048 40099 70422 84760 333 59008;
0168821980999992007020400004-01717-045400FM-12+004499999V0203601N003110450019N0002001N1+02691+02211101141ADDGF106991041021004501061001KA1240M+03151MA1999999100061MD1999999-0041REMSYN088AAXX  04004 82198 32492 63606 10269 20221 30006 40114 84260 333 10315 29076 55023 59004;
0201821980999992007020412004-01717-045400FM-12+004499999V0200901N003610450019N0005001N1+02831+02421101171ADDAA124004191AY161061AY221061GF107991031051004501061041KA1240N+02231MA1999999100661MD1999999-0071MW1051REMSYN088AAXX  04124 82198 21493 70907 10283 20242 30066 40117 70562 83564 333 20223 59007 60044;
0165821980999992007020418004-01717-045400FM-12+004499999V0203601N005110042019N0005001N1+02951+02321100541ADDAY121061AY221061GF108991051071004501021001MA1999999100431MD1999999-0051MW1041REMSYN076AAXX  04184 82198 31493 83610 10295 20232 30043 40054 70422 85720 333 59005;
0168821980999992007020500004-01717-045400FM-12+004499999V0200501N003610450019N0002001N1+02731+02331101081ADDGF106991031021004501031001KA1240M+03121MA1999999100571MD1999999-0061REMSYN088AAXX  05004 82198 32492 60507 10273 20233 30057 40108 83230 333 10312 29077 55026 59006;
0201821980999992007020512004-01717-045400FM-12+004499999V0201101N002110450019N0005001N1+02921+02471101211ADDAA124000391AY161061AY221061GF107991041071004501061001KA1240N+02271MA1999999100701MD1999999+0041MW1031REMSYN088AAXX  05124 82198 21493 71104 10292 20247 30070 40121 70362 84760 333 20227 58004 69934;
0182821980999992007020518004-01717-045400FM-12+004499999V0203601N004110450019N0005001N1+02571+02501100961ADDAA106013091AY161061AY261061GF108991041071004501021001MA1999999100451MD1999999+0021MW1021REMSYN082AAXX  05184 82198 21493 83608 10257 20250 30045 40096 70266 84720 333 58002 60131;
0213821980999992007020600004-01717-045400FM-12+004499999V0200501N001010450019N0002001N1+02541+02451101091ADDAA106003091AY161061AY221061GF106991041021004501061001KA1240M+03041MA1999999100581MD1999999+0011MW1011REMSYN100AAXX  06004 82198 21492 60502 10254 20245 30058 40109 70162 84260 333 10304 29090 55014 58001 60031;
0173821980999992007020612004-01717-045400FM-12+004499999V0200901N003110450019N0010001N1+02881+02441101091ADDAA124016091GF106991031021004501031001KA1240N+02281MA1999999100581MD1999999-0121REMSYN082AAXX  06124 82198 22494 60906 10288 20244 30058 40109 83230 333 20228 59012 60164;
0182821980999992007020618004-01717-045400FM-12+004499999V0200501N004110042019N0005001N1+02651+02391100851ADDAA106005191AY161061AY221061GF107991051051004501041001MA1999999100341MD1999999-0111MW1521REMSYN082AAXX  06184 82198 21493 70508 10265 20239 30034 40085 75262 85540 333 59011 60051;
0213821980999992007020700004-01717-045400FM-12+004499999V0200501N002610450019N0002001N1+02631+02411101031ADDAA106000891AY151061AY221061GF106991031021004501061001KA1240M+03051MA1999999100521MD1999999-0061MW1021REMSYN100AAXX  07004 82198 21492 60505 10263 20241 30052 40103 70252 83260 333 10305 29085 55022 59006 69981;
0173821980999992007020712004-01717-045400FM-12+004499999V0203601N001010450019N0010001N1+02761+02401101171ADDAA124006191GF107991041031008001041001KA1240N+02341MA1999999100661MD1999999+0081REMSYN082AAXX  07124 82198 22594 73602 10276 20240 30066 40117 84340 333 20234 58008 60064;
0137821980999992007020718004-01717-045400FM-12+004499999V0200201N002610450019N0010001N1+02901+02371100931ADDGF108991031031004501041999MA1999999100421MD1999999+0081REMSYN070AAXX  07184 82198 32494 80205 10290 20237 30042 40093 8334/ 333 58008;
0213821980999992007020800004-01717-045400FM-12+004499999V0203201N000510450019N0002001N1+02561+02361101141ADDAA106004191AY161061AY221061GF108991041051004501021999KA1240M+02981MA1999999100631MD1999999+0111MW1521REMSYN100AAXX  08004 82198 21492 83201 10256 20236 30063 40114 75262 8452/ 333 10298 29084 55004 58011 60041;
0201821980999992007020812004-01717-045400FM-12+004499999V0202701N002110450019N0010001N1+02601+02331101261ADDAA124006191AY161061AY251061GF107991031031004501061001KA1240N+02101MA1999999100751MD1999999+0091MW1021REMSYN088AAXX  08124 82198 21494 72704 10260 20233 30075 40126 70265 83360 333 20210 58009 60064;
0182821980999992007020818004-01717-045400FM-12+004499999V0200501N005110042019N0005001N1+02381+02261101041ADDAA106008991AY161061AY221061GF108991051071004501021999MA1999999100531MD1999999+0111MW1621REMSYN082AAXX  08184 82198 21493 80510 10238 20226 30053 40104 76262 8572/ 333 58011 60091;
0213821980999992007020900004-01717-045400FM-12+004499999V0203501N001510042019N0002001N1+02341+02241101291ADDAA106009991AY161061AY221061GF108991051051004501021999KA1240M+03151MA1999999100781MD1999999+0151MW1631REMSYN100AAXX  09004 82198 21492 83503 10234 20224 30078 40129 76362 8552/ 333 10315 29092 55029 58015 60101;
0201821980999992007020912004-01717-045400FM-12+004499999V0202301N001510450019N0010001N1+02641+02411101351ADDAA124020191AY151061AY221061GF107991031041004501061001KA1240N+02051MA1999999100841MD1999999+0091MW1021REMSYN088AAXX  09124 82198 21494 72303 10264 20241 30084 40135 70252 83460 333 20205 58009 60204;
0137821980999992007020918004-01717-045400FM-12+004499999V0200501N001510450019N0010001N1+03151+02321100991ADDGF105991031021004501061001MA1999999100481MD1999999-0051REMSYN070AAXX  09184 82198 32494 50503 10315 20232 30048 40099 83260 333 59005;
0213821980999992007021000004-01717-045400FM-12+004499999V0200501N001010450019N0002001N1+02541+02451101251ADDAA106000591AY151061AY221061GF106991031021004501061001KA1240M+03261MA1999999100741MD1999999-0041MW1021REMSYN100AAXX  10004 82198 21492 60502 10254 20245 30074 40125 70252 83260 333 10326 29084 55043 59004 69941;
0173821980999992007021012004-01717-045400FM-12+004499999V0200501N001010042019N0010001N1+02901+02481101371ADDAA124000591GF107991051041004501071001KA1240N+02081MA1999999100861MD1999999+0021REMSYN082AAXX  10124 82198 22494 70502 10290 20248 30086 40137 85470 333 20208 58002 69944;
0182821980999992007021018004-01717-045400FM-12+004499999V0200501N005710450019N0005001N1+02921+02501101051ADDAA106001091AY161061AY221061GF107991041041004501031001MA1999999100541MD1999999+0061MW1151REMSYN082AAXX  10184 82198 21493 70511 10292 20250 30054 40105 71562 84430 333 58006 60011;
0168821980999992007021100004-01717-045400FM-12+004499999V0200501N003612200019N0002001N1+02701+02451101311ADDGF103991031001004501061001KA1240M+03061MA1999999100801MD1999999+0061REMSYN088AAXX  11004 82198 32492 30507 10270 20245 30080 40131 83060 333 10306 29082 55020 58006;
0173821980999992007021112004-01717-045400FM-12+004499999V0200201N003610450019N0005001N1+02941+02521101371ADDAA124001091GF106991041021004501031001KA1240N+02401MA1999999100861MD1999999+0001REMSYN082AAXX  11124 82198 22493 60207 10294 20252 30086 40137 84230 333 20240 58000 60014;
0184821980999992007021212004-01717-045400FM-12+004499999V0200501N004610042019N0010001N1+02901+02431101271ADDAY121061AY221061GF107991051041004501031001KA1240N+02371MA1999999100761MD1999999-0061MW1041REMSYN082AAXX  12124 82198 31494 70509 10290 20243 30076 40127 70422 85430 333 20237 59006;
0182821980999992007021218004-01717-045400FM-12+004499999V0200501N004610450019N0010001N1+03021+02291100951ADDAA106009991AY161061AY221061GF105991031041008001061001MA1999999100441MD1999999-0091MW1041REMSYN082AAXX  12184 82198 21594 50509 10302 20229 30044 40095 70462 83460 333 59009 60101;
0168821980999992007021300004-01717-045400FM-12+004499999V0200201N002112200019N0002001N1+02561+02331101071ADDGF103991031001012501061001KA1240M+03051MA1999999100561MD1999999-0201REMSYN088AAXX  13004 82198 32692 30204 10256 20233 30056 40107 83060 333 10305 29079 55020 59020;
0201821980999992007021312004-01717-045400FM-12+004499999V0203201N001010450019N0005001N1+02811+02361101161ADDAA124009991AY111061AY221061GF107991031051004501031001KA1240N+02211MA1999999100651MD1999999-0151MW1041REMSYN088AAXX  13124 82198 21493 73202 10281 20236 30065 40116 70412 83530 333 20221 59015 60104;
0165821980999992007021318004-01717-045400FM-12+004499999V0200501N003110450019N0005001N1+03141+02271100841ADDAY121061AY221061GF106991031071004501031011MA1999999100331MD1999999-0111MW1041REMSYN076AAXX  13184 82198 31493 60506 10314 20227 30033 40084 70422 83731 333 59011;
0168821980999992007021400004-01717-045400FM-12+004499999V0203601N003610450019N0002001N1+02701+02371101011ADDGF106991041051004501061001KA1240M+03281MA1999999100501MD1999999-0061REMSYN088AAXX  14004 82198 32492 63607 10270 20237 30050 40101 84560 333 10328 29075 55050 59006;
0201821980999992007021412004-01717-045400FM-12+004499999V0201401N001510042019N0005001N1+02571+02421101211ADDAA124006191AY161061AY221061GF108991051071004501061001KA1240N+02211MA1999999100701MD1999999+0051MW1041REMSYN088AAXX  14124 82198 21493 81403 10257 20242 30070 40121 70462 85760 333 20221 58005 60064;
0165821980999992007021418004-01717-045400FM-12+004499999V0203601N002110450019N0005001N1+02961+02451100831ADDAY111061AY221061GF106991031051004501031041MA1999999100321MD1999999-0011MW1041REMSYN076AAXX  14184 82198 31493 63604 10296 20245 30032 40083 70412 83534 333 59001;
0213821980999992007021500004-01717-045400FM-12+004499999V0203601N001510450019N0002001N1+02601+02421101061ADDAA106000391AY151061AY221061GF105991031021004501061001KA1240M+03131MA1999999100551MD1999999+0051MW1011REMSYN100AAXX  15004 82198 21492 53603 10260 20242 30055 40106 70152 83260 333 10313 29086 55020 58005 69931;
0201821980999992007021512004-01717-045400FM-12+004499999V0203601N001510450019N0005001N1+02931+02391101081ADDAA124010991AY161061AY221061GF107991041051004501061041KA1240N+02161MA1999999100571MD1999999-0131MW1031REMSYN088AAXX  15124 82198 21493 73603 10293 20239 30057 40108 70362 84564 333 20216 59013 60114;
0201821980999992007021812004-01717-045400FM-12+004499999V0203201N001010450019N0010001N1+02541+02401101181ADDAA124040991AY161061AY221061GF106991031051004501061041KA1240N+02161MA1999999100671MD1999999+0101MW1031REMSYN088AAXX  18124 82198 21494 63202 10254 20240 30067 40118 70362 83564 333 20216 58010 60414;
0182821980999992007021818004-01717-045400FM-12+004499999V0203601N001010450019N0010001N1+02731+02301100851ADDAA106000591AY161061AY221061GF108991041071004501061001MA1999999100341MD1999999+0001MW1501REMSYN082AAXX  18184 82198 21494 83602 10273 20230 30034 40085 75062 84760 333 58000 69951;
0213821980999992007021900004-01717-045400FM-12+004499999V0203201N002610450019N0002001N1+02451+02331101031ADDAA106008991AY161061AY221061GF105991031011004501061001KA1240M+03031MA1999999100521MD1999999+0041MW1211REMSYN100AAXX  19004 82198 21492 53205 10245 20233 30052 40103 72162 83160 333 10303 29091 55029 58004 60091;
0201821980999992007021912004-01717-045400FM-12+004499999V0209999C000010450019N0005001N1+02361+02191101281ADDAA124017091AY161061AY221061GF108991041071004501061001KA1240N+02071MA1999999100761MD1999999+0091MW1621REMSYN088AAXX  19124 82198 21493 80000 10236 20219 30076 40128 76262 84760 333 20207 58009 60174;
0182821980999992007021918004-01717-045400FM-12+004499999V0201801N002110450019N0010001N1+02611+02251100911ADDAA106005191AY161061AY221061GF108991041051004501011001MA1999999100401MD1999999+0061MW1021REMSYN082AAXX  19184 82198 21494 81804 10261 20225 30040 40091 70262 84510 333 58006 60051;
0168821980999992007022000004-01717-045400FM-12+004499999V0203201N002610042019N0002001N1+02321+02221101121ADDGF108991051071004501061021KA1240M+02911MA1999999100611MD1999999+0001REMSYN088AAXX  20004 82198 32492 83205 10232 20222 30061 40112 85762 333 10291 29090 55000 58000;
0201821980999992007022012004-01717-045400FM-12+004499999V0200901N001510075019N0010001N1+02661+02331101241ADDAA124007191AY161061AY221061GF107991051021008001061001KA1240N+02121MA1999999100731MD1999999-0031MW1021REMSYN088AAXX  20124 82198 21594 70903 10266 20233 30073 40124 70262 85260 333 20212 59003 60074;
0137821980999992007022018004-01717-045400FM-12+004499999V0200501N006210450019N0010001N1+02821+02051100871ADDGF105991031021004501061021MA1999999100361MD1999999-0041REMSYN070AAXX  20184 82198 32494 50512 10282 20205 30036 40087 83262 333 59004;
0168821980999992007022100004-01717-045400FM-12+004499999V0200501N002112200019N0002001N1+02551+02271101011ADDGF103991031001012501061001KA1240M+03141MA1999999100501MD1999999-0111REMSYN088AAXX  21004 82198 32692 30504 10255 20227 30050 40101 83060 333 10314 29078 55059 59011;
0156821980999992007022112004-01717-045400FM-12+004499999V0200701N003612200019N0010001N1+02941+02261101131ADDGF104991031011008001061001KA1240N+02141MA1999999100621MD1999999-0111REMSYN076AAXX  21124 82198 32594 40707 10294 20226 30062 40113 83160 333 20214 59011;
0137821980999992007022118004-01717-045400FM-12+004499999V0200501N005112200019N0010001N1+03121+02221100781ADDGF104991041021004501001001MA1999999100271MD1999999-0091REMSYN070AAXX  21184 82198 32494 40510 10312 20222 30027 40078 84200 333 59009;
0168821980999992007022200004-01717-045400FM-12+004499999V0200501N003612200019N0002001N1+02601+02311101091ADDGF102991021001008001061001KA1240M+03231MA1999999100581MD1999999+0081REMSYN088AAXX  22004 82198 32592 20507 10260 20231 30058 40109 82060 333 10323 29074 55106 58008;
0156821980999992007022212004-01717-045400FM-12+004499999V0200701N004110042019N0010001N1+02941+02361101261ADDGF107991051031004501041001KA1240N+02281MA1999999100751MD1999999+0131REMSYN076AAXX  22124 82198 32494 70708 10294 20236 30075 40126 85340 333 20228 58013;
0182821980999992007022218004-01717-045400FM-12+004499999V0202301N001010075019N0010001N1+02501+02361101091ADDAA106026991AY191061AY261061GF108991051071008001061999MA1999999100581MD1999999+0311MW1211REMSYN082AAXX  22184 82198 21594 82302 10250 20236 30058 40109 72196 8576/ 333 58031 60271;
0168821980999992007022300004-01717-045400FM-12+004499999V0201801N002110450019N0002001N1+02401+02281101341ADDGF107991041071008001041001KA1240M+03001MA1999999100831MD1999999+0251REMSYN088AAXX  23004 82198 32592 71804 10240 20228 30083 40134 84740 333 10300 29087 55025 58025;
0201821980999992007022312004-01717-045400FM-12+004499999V0201401N003110042019N0010001N1+02481+02341101371ADDAA124033091AY161061AY221061GF108991051071004501011999KA1240N+02101MA1999999100861MD1999999+0111MW1021REMSYN088AAXX  23124 82198 21494 81406 10248 20234 30086 40137 70262 8571/ 333 20210 58011 60334;
0137821980999992007022318004-01717-045400FM-12+004499999V0201601N004610450019N0010001N1+02831+02291101101ADDGF107991041041008001091001MA1999999100591MD1999999+0011REMSYN070AAXX  23184 82198 32594 71609 10283 20229 30059 40110 84490 333 58001;
0168821980999992007022400004-01717-045400FM-12+004499999V0200901N002612200019N0002001N1+02541+02271101291ADDGF103991011011008001061001KA1240M+02941MA1999999100781MD1999999-0051REMSYN088AAXX  24004 82198 32592 30905 10254 20227 30078 40129 81160 333 10294 29084 55030 59005;
0156821980999992007022412004-01717-045400FM-12+004499999V0200901N003112200019N0010001N1+02841+02351101301ADDGF104991031021008001041001KA1240N+02141MA1999999100791MD1999999-0071REMSYN076AAXX  24124 82198 32594 40906 10284 20235 30079 40130 83240 333 20214 59007;
0182821980999992007022418004-01717-045400FM-12+004499999V0200501N002110450019N0010001N1+02981+02251101031ADDAA106003091AY161061AY221061GF105991031021004501061001MA1999999100521MD1999999-0071MW1151REMSYN082AAXX  24184 82198 21494 50504 10298 20225 30052 40103 71562 83260 333 59007 60031;
0178821980999992007022500004-01717-045400FM-12+004499999V0200701N002612200019N0002001N1+02601+02351101181ADDGA1001+999999999GF100991001001999999001001KA1240M+03131MA1999999100671MD1999999-0111REMSYN082AAXX  25004 82198 32992 00705 10260 20235 30067 40118 333 10313 29078 55069 59011;
0173821980999992007022512004-01717-045400FM-12+004499999V0200501N003612200019N0010001N1+02981+02401101221ADDAA124003091GF104991041011008001001001KA1240N+02241MA1999999100711MD1999999-0081REMSYN082AAXX  25124 82198 22594 40507 10298 20240 30071 40122 84100 333 20224 59008 60034;
0182821980999992007022518004-01717-045400FM-12+004499999V0200701N003110450019N0010001N1+03001+02421100931ADDAA106001091AY161061AY221061GF106991041031004501071001MA1999999100421MD1999999-0101MW1021REMSYN082AAXX  25184 82198 21494 60706 10300 20242 30042 40093 70262 84370 333 59010 60011;
0168821980999992007022600004-01717-045400FM-12+004499999V0200501N002112200019N0002001N1+02611+02371101111ADDGF102991021001012501061001KA1240M+03111MA1999999100601MD1999999-0071REMSYN088AAXX  26004 82198 32692 20504 10261 20237 30060 40111 82060 333 10311 29079 55071 59007;
0173821980999992007022612004-01717-045400FM-12+004499999V0200501N003110450019N0010001N1+02911+02581101221ADDAA124001091GF105991031021004501041001KA1240N+02291MA1999999100711MD1999999+0001REMSYN082AAXX  26124 82198 22494 50506 10291 20258 30071 40122 83240 333 20229 58000 60014;
0182821980999992007022618004-01717-045400FM-12+004499999V0200501N004610042019N0010001N1+02801+02401100881ADDAA106000591AY151061AY221061GF107991051031004501041001MA1999999100371MD1999999-0051MW1021REMSYN082AAXX  26184 82198 21494 70509 10280 20240 30037 40088 70252 85340 333 59005 69941;
0232821980999992007022700004-01717-045400FM-12+004499999V0200501N002110450019N0002001N1+02581+02441101121ADDAA106000091AY151061AY221061GF105991031021008001061001KA1240M+03051MA1999999100611MD1999999+0011MW1021REMSYN100AAXX  27004 82198 21592 50504 10258 20244 30061 40112 70252 83260 333 10305 29086 55046 58001 69921;EQDQ01  00002PRCP06
0201821980999992007022712004-01717-045400FM-12+004499999V0200701N002112200019N0010001N1+02861+02501101151ADDAA124002091AY121061AY201061GF104991031021004501001061KA1240N+02121MA1999999100641MD1999999-0071MW1141REMSYN088AAXX  27124 82198 21494 40704 10286 20250 30064 40115 71420 83206 333 20212 59007 60024;
0182821980999992007022718004-01717-045400FM-12+004499999V0200501N005110450019N0005001N1+02721+02471100891ADDAA106002091AY161061AY221061GF106991041071004501061001MA1999999100381MD1999999+0011MW1621REMSYN082AAXX  27184 82198 21493 60510 10272 20247 30038 40089 76262 84760 333 58001 60021;
0213821980999992007022800004-01717-045400FM-12+004499999V0203601N004110450019N0002001N1+02521+02401101081ADDAA106003091AY161061AY221061GF105991031051004501061061KA1240M+03191MA1999999100571MD1999999-0041MW1601REMSYN100AAXX  28004 82198 21492 53608 10252 20240 30057 40108 76062 83566 333 10319 29088 55063 59004 60031;
0182821980999992007022818004-01717-045400FM-12+004499999V0200501N002610450019N0010001N1+02431+02301100861ADDAA106045091AY191061AY261061GF107991041051004501061011MA1999999100351MD1999999-0031MW1631REMSYN082AAXX  28184 82198 21494 70505 10243 20230 30035 40086 76396 84561 333 59003 60451;
0168821980999992007030100004-01717-045400FM-12+004499999V0200901N001510450019N0002001N1+02581+02381101031ADDGF107991041051004501011041KA1240M+03181MA1999999100521MD1999999-0051REMSYN088AAXX  01004 82198 32492 70903 10258 20238 30052 40103 84514 333 10318 29088 55033 59005;
0201821980999992007030112004-01717-045400FM-12+004499999V0200901N002110450019N0010001N1+02561+02441101021ADDAA124048091AY141061AY221061GF106991031021004501041061KA1240N+02131MA1999999100511MD1999999-0101MW1621REMSYN088AAXX  01124 82198 21494 60904 10256 20244 30051 40102 76242 83246 333 20213 59010 60484;
0182821980999992007030118004-01717-045400FM-12+004499999V0200501N000510450019N0010001N1+02531+02411100741ADDAA106053191AY191061AY261061GF107991041031004501011041MA1999999100231MD1999999-0221MW1621REMSYN082AAXX  01184 82198 21494 70501 10253 20241 30023 40074 76296 84314 333 59022 60531;
0168821980999992007030200004-01717-045400FM-12+004499999V0200501N001010450019N0002001N1+02561+02421100951ADDGF106991031021004501011041KA1240M+03041MA1999999100441MD1999999-0081REMSYN088AAXX  02004 82198 32492 60502 10256 20242 30044 40095 83214 333 10304 29093 55017 59008;
0201821980999992007030212004-01717-045400FM-12+004499999V0201401N002110450019N0005001N1+02631+02401101051ADDAA124055991AY161061AY221061GF107991041071004501061001KA1240N+02171MA1999999100541MD1999999+0031MW1621REMSYN088AAXX  02124 82198 21493 71404 10263 20240 30054 40105 76262 84760 333 20217 58003 60564;
0182821980999992007030218004-01717-045400FM-12+004499999V0200701N002110450019N0005001N1+02601+02551100711ADDAA106041991AY161061AY221061GF107991041071004501021001MA1999999100201MD1999999-0031MW1621REMSYN082AAXX  02184 82198 21493 70704 10260 20255 30020 40071 76262 84720 333 59003 60421;
0213821980999992007030300004-01717-045400FM-12+004499999V0200901N002110450019N0002001N1+02531+02431101031ADDAA106007191AY161061AY221061GF107991041071004501021001KA1240M+02991MA1999999100521MD1999999+0081MW1511REMSYN100AAXX  03004 82198 21492 70904 10253 20243 30052 40103 75162 84720 333 10299 29094 55026 58008 60071;
0201821980999992007030312004-01717-045400FM-12+004499999V0200901N004610450019N0005001N1+02471+02301101171ADDAA124057991AY161061AY221061GF108991041031004501011001KA1240N+02101MA1999999100661MD1999999+0121MW1531REMSYN088AAXX  03124 82198 21493 80909 10247 20230 30066 40117 75362 84310 333 20210 58012 60584;
0165821980999992007030318004-01717-045400FM-12+004499999V0200501N002610450019N0010001N1+02781+02341100861ADDAY161061AY221061GF108991041051004501011001MA1999999100351MD1999999+0151MW1021REMSYN076AAXX  03184 82198 31494 80505 10278 20234 30035 40086 70262 84510 333 58015;
0213821980999992007030400004-01717-045400FM-12+004499999V0200501N002110450019N0002001N1+02481+02361101081ADDAA106002091AY161061AY221061GF105991031021004501061001KA1240M+02861MA1999999100571MD1999999+0051MW1011REMSYN100AAXX  04004 82198 21492 50504 10248 20236 30057 40108 70162 83260 333 10286 29089 55009 58005 60021;
0201821980999992007030412004-01717-045400FM-12+004499999V0201401N003110450019N0010001N1+02691+02291101071ADDAA124019191AY161061AY221061GF106991031021004501041061KA1240N+02041MA1999999100561MD1999999-0101MW1031REMSYN088AAXX  04124 82198 21494 61406 10269 20229 30056 40107 70362 83246 333 20204 59010 60194;
0182821980999992007030418004-01717-045400FM-12+004499999V0203201N002610450019N0010001N1+02701+02391100801ADDAA106000591AY121061AY221061GF108991041031004501011001MA1999999100291MD1999999-0061MW1211REMSYN082AAXX  04184 82198 21494 83205 10270 20239 30029 40080 72122 84310 333 59006 69951;
0168821980999992007030500004-01717-045400FM-12+004499999V0201401N001010450019N0002001N1+02621+02411101071ADDGF107991041051004501011001KA1240M+03011MA1999999100561MD1999999-0011REMSYN088AAXX  05004 82198 32492 71402 10262 20241 30056 40107 84510 333 10301 29086 55031 59001;
0201821980999992007030512004-01717-045400FM-12+004499999V0200901N002610450019N0005001N1+02411+02301101211ADDAA124005191AY161061AY221061GF108991041051004501061001KA1240N+02081MA1999999100701MD1999999+0041MW1611REMSYN088AAXX  05124 82198 21493 80905 10241 20230 30070 40121 76162 84560 333 20208 58004 60054;
0182821980999992007030518004-01717-045400FM-12+004499999V0200901N003110450019N0005001N1+02821+02331100901ADDAA106000591AY151061AY221061GF108991041051004501011001MA1999999100391MD1999999+0101MW1051REMSYN082AAXX  05184 82198 21493 80906 10282 20233 30039 40090 70552 84510 333 58010 69941;
0168821980999992007030600004-01717-045400FM-12+004499999V0200901N002619999999N0002001N1+02591+02441101201ADDGF106991041001004501031061KA1240M+02911MA1999999100691MD1999999+0131REMSYN088AAXX  06004 82198 32492 60905 10259 20244 30069 40120 84036 333 10291 29088 55002 58013;
0201821980999992007030612004-01717-045400FM-12+004499999V0200701N001510450019N0010001N1+02591+02491101281ADDAA124007991AY161061AY221061GF106991041011008001061001KA1240N+02121MA1999999100771MD1999999+0071MW1021REMSYN088AAXX  06124 82198 21594 60703 10259 20249 30077 40128 70262 84160 333 20212 58007 60084;
0182821980999992007030618004-01717-045400FM-12+004499999V0200701N003610042019N0005001N1+02741+02381100991ADDAA106003091AY161061AY221061GF106991051051004501041001MA1999999100481MD1999999+0091MW1211REMSYN082AAXX  06184 82198 21493 60707 10274 20238 30048 40099 72162 85540 333 58009 60031;
0168821980999992007030700004-01717-045400FM-12+004499999V0200701N002110450019N0002001N1+02561+02331101211ADDGF105991021011004501041001KA1240M+03311MA1999999100701MD1999999-0011REMSYN088AAXX  07004 82198 32492 50704 10256 20233 30070 40121 82140 333 10331 29086 55042 59001;
0182821980999992007030718004-01717-045400FM-12+004499999V0200701N004610075019N0005001N1+02481+02251101011ADDAA106000891AY151061AY221061GF108991051071008001011999MA1999999100501MD1999999+0021MW1151REMSYN082AAXX  07184 82198 21593 80709 10248 20225 30050 40101 71552 8571/ 333 58002 69981;
0232821980999992007030800004-01717-045400FM-12+004499999V0200901N002110042019N0002001N1+02511+02381101291ADDAA106000091AY151061AY221061GF107991051071004501041001KA1240M+03091MA1999999100781MD1999999+0081MW1021REMSYN100AAXX  08004 82198 21492 70904 10251 20238 30078 40129 70252 85740 333 10309 29088 55056 58008 69921;EQDQ01  00002PRCP06
0182821980999992007030818004-01717-045400FM-12+004499999V0200701N001010075019N0005001N1+02481+02361100961ADDAA106019191AY191061AY261061GF108991051071008001041999MA1999999100451MD1999999-0051MW1211REMSYN082AAXX  08184 82198 21593 80702 10248 20236 30045 40096 72196 8574/ 333 59005 60191;
0213821980999992007030900004-01717-045400FM-12+004499999V0200701N002110450019N0002001N1+02461+02341101041ADDAA106000021AY151061AY221061GF106991041051004501041001KA1240M+03011MA1999999100531MD1999999-0251MW1021REMSYN100AAXX  09004 82198 21492 60704 10246 20234 30053 40104 70252 84540 333 10301 29093 55015 59025 69921;
0173821980999992007030912004-01717-045400FM-12+004499999V0209999C000010075019N0010001N1+02521+02451101141ADDAA124020191GF108991051051008001041999KA1240N+02111MA1999999100631MD1999999-0101REMSYN082AAXX  09124 82198 22594 80000 10252 20245 30063 40114 8554/ 333 20211 59010 60204;
0137821980999992007030918004-01717-045400FM-12+004499999V0200901N002110075019N0005001N1+02621+02351100841ADDGF108991061051008001011999MA1999999100331MD1999999-0121REMSYN070AAXX  09184 82198 32593 80904 10262 20235 30033 40084 8651/ 333 59012;
0168821980999992007031000004-01717-045400FM-12+004499999V0200701N001510450019N0002001N1+02561+02401101061ADDGF106991041051008001041001KA1240M+02961MA1999999100551MD1999999+0021REMSYN088AAXX  10004 82198 32592 60703 10256 20240 30055 40106 84540 333 10296 29091 55009 58002;
0201821980999992007031012004-01717-045400FM-12+004499999V0209999C000010075019N0010001N1+02391+02311101191ADDAA124047091AY161061AY221061GF108991051051008001041999KA1240N+02101MA1999999100681MD1999999+0051MW1521REMSYN088AAXX  10124 82198 21594 80000 10239 20231 30068 40119 75262 8554/ 333 20210 58005 60474;
0182821980999992007031018004-01717-045400FM-12+004499999V0203601N001510450019N0010001N1+02741+02481100841ADDAA106006191AY161061AY221061GF107991041071008001041001MA1999999100331MD1999999+0001MW1211REMSYN082AAXX  10184 82198 21594 73603 10274 20248 30033 40084 72162 84740 333 58000 60061;
0213821980999992007031100004-01717-045400FM-12+004499999V0200901N002610042019N0002001N1+02571+02461101141ADDAA106004191AY161061AY221061GF108991051071004501021999KA1240M+03051MA1999999100631MD1999999+0081MW1021REMSYN100AAXX  11004 82198 21492 80905 10257 20246 30063 40114 70262 8572/ 333 10305 29092 55020 58008 60041;
0201821980999992007031112004-01717-045400FM-12+004499999V0209999C000010042019N0010001N1+02551+02471101191ADDAA124018091AY161061AY221061GF107991051021004501061001KA1240N+02111MA1999999100681MD1999999+0001MW1021REMSYN088AAXX  11124 82198 21494 70000 10255 20247 30068 40119 70262 85260 333 20211 58000 60184;
0137821980999992007031118004-01717-045400FM-12+004499999V0200501N003610450019N0010001N1+02811+02421100881ADDGF107991041031004501061001MA1999999100371MD1999999+0041REMSYN070AAXX  11184 82198 32494 70507 10281 20242 30037 40088 84360 333 58004;
0168821980999992007031200004-01717-045400FM-12+004499999V0200501N000512200019N0002001N1+02521+02381101071ADDGF104991021011004501061001KA1240M+02961MA1999999100561MD1999999-0071REMSYN088AAXX  12004 82198 32492 40501 10252 20238 30056 40107 82160 333 10296 29090 55017 59007;
0201821980999992007031212004-01717-045400FM-12+004499999V0200501N003610450019N0010001N1+02791+02581101191ADDAA124020191AY161061AY221061GF105991031011004501061001KA1240N+02171MA1999999100681MD1999999+0011MW1021REMSYN088AAXX  12124 82198 21494 50507 10279 20258 30068 40119 70262 83160 333 20217 58001 60204;
0182821980999992007031218004-01717-045400FM-12+004499999V0201601N002610450019N0010001N1+02471+02341100871ADDAA106010991AY161061AY221061GF107991041031004501041001MA1999999100361MD1999999-0011MW1021REMSYN082AAXX  12184 82198 21494 71605 10247 20234 30036 40087 70262 84340 333 59001 60111;
0168821980999992007031300004-01717-045400FM-12+004499999V0200501N002110042019N0002001N1+02581+02441101151ADDGF107991051071004501041001KA1240M+03161MA1999999100641MD1999999+0081REMSYN088AAXX  13004 82198 32492 70504 10258 20244 30064 40115 85740 333 10316 29091 55055 58008;
0201821980999992007031312004-01717-045400FM-12+004499999V0202301N001010450019N0002001N1+02261+02211101331ADDAA124042991AY161061AY261061GF108991021071004501021001KA1240N+01991MA1999999100811MD1999999+0131MW1631REMSYN088AAXX  13124 82198 21492 82302 10226 20221 30081 40133 76366 82720 333 20199 58013 60434;
0182821980999992007031318004-01717-045400FM-12+004499999V0200901N001510450019N0005001N1+02441+02371101021ADDAA106007991AY161061AY221061GF108991041051004501021001MA1999999100511MD1999999+0151MW1531REMSYN082AAXX  13184 82198 21493 80903 10244 20237 30051 40102 75362 84520 333 58015 60081;
0196821980999992007031400004-01717-045400FM-12+004499999V0200501N001510450019N0002001N1+02471+02331101111ADDAY121061AY221061GF106991041011004501061001KA1240M+02601MA1999999100601MD1999999-0041MW1131REMSYN094AAXX  14004 82198 31492 60503 10247 20233 30060 40111 71322 84160 333 10260 29096 55000 59004;
0201821980999992007031412004-01717-045400FM-12+004499999V0200501N002110450019N0010001N1+02641+02411101161ADDAA124007991AY141061AY221061GF106991031071004501011041KA1240N+02041MA1999999100651MD1999999-0161MW1151REMSYN088AAXX  14124 82198 21494 60504 10264 20241 30065 40116 71542 83714 333 20204 59016 60084;
0182821980999992007031418004-01717-045400FM-12+004499999V0203601N005710450019N0010001N1+02781+02381100811ADDAA106007191AY161061AY241061GF108991041071004501061001MA1999999100301MD1999999-0211MW1151REMSYN082AAXX  14184 82198 21494 83611 10278 20238 30030 40081 71564 84760 333 59021 60071;
0168821980999992007031500004-01717-045400FM-12+004499999V0200901N002112200019N0002001N1+02571+02421101011ADDGF103991031021004501001001KA1240M+02951MA1999999100501MD1999999-0101REMSYN088AAXX  15004 82198 32492 30904 10257 20242 30050 40101 83200 333 10295 29088 55038 59010;
0201821980999992007031512004-01717-045400FM-12+004499999V0200701N000510450019N0010001N1+02581+02551101151ADDAA124010991AY161061AY221061GF108991031051004501011001KA1240N+02121MA1999999100641MD1999999-0061MW1401REMSYN088AAXX  15124 82198 21494 80701 10258 20255 30064 40115 74062 83510 333 20212 59006 60114;
0182821980999992007031518004-01717-045400FM-12+004499999V0200701N002110450019N0010001N1+02511+02401100911ADDAA106013091AY161061AY221061GF108991041071004501011001MA1999999100401MD1999999+0101MW1151REMSYN082AAXX  15184 82198 21494 80704 10251 20240 30040 40091 71562 84710 333 58010 60131;
0213821980999992007031600004-01717-045400FM-12+004499999V0203601N006210042019N0002001N1+02381+02211101211ADDAA106007991AY121061AY221061GF108991061071004501021001KA1240M+02951MA1999999100701MD1999999+0201MW1621REMSYN100AAXX  16004 82198 21492 83612 10238 20221 30070 40121 76222 86720 333 10295 29093 55000 58020 60081;
0201821980999992007031612004-01717-045400FM-12+004499999V0202001N001510450019N0010001N1+02591+02421101281ADDAA124030091AY161061AY241061GF107991031051004501011061KA1240N+02011MA1999999100771MD1999999+0131MW1421REMSYN088AAXX  16124 82198 21494 72003 10259 20242 30077 40128 74264 83516 333 20201 58013 60304;
0182821980999992007031618004-01717-045400FM-12+004499999V0200501N000510450019N0010001N1+02561+02441101011ADDAA106007191AY161061AY221061GF107991041051004501011041MA1999999100501MD1999999+0101MW1611REMSYN082AAXX  16184 82198 21494 70501 10256 20244 30050 40101 76162 84514 333 58010 60071;
0196821980999992007031700004-01717-045400FM-12+004499999V0203601N001512200019N0002001N1+02481+02411101231ADDAY121061AY211061GF102991021011004501001001KA1240M+03001MA1999999100721MD1999999+0021MW1131REMSYN094AAXX  17004 82198 31492 23603 10248 20241 30072 40123 71321 82100 333 10300 29094 55019 58002;
0201821980999992007031712004-01717-045400FM-12+004499999V0209999C000010450019N0010001N1+02681+02461101341ADDAA124007191AY141061AY221061GF106991031071004501061061KA1240N+02101MA1999999100821MD1999999+0051MW1281REMSYN088AAXX  17124 82198 21494 60000 10268 20246 30082 40134 72842 83766 333 20210 58005 60074;
0182821980999992007031718004-01717-045400FM-12+004499999V0200501N003610450019N0010001N1+02861+02371100951ADDAA106004191AY161061AY221061GF106991031021004501041061MA1999999100441MD1999999-0061MW1151REMSYN082AAXX  17184 82198 21494 60507 10286 20237 30044 40095 71562 83246 333 59006 60041;
0173821980999992007031812004-01717-045400FM-12+004499999V0200501N002110450019N0010001N1+02821+02421101341ADDAA124016091GF106991031071004501061061KA1240N+02151MA1999999100821MD1999999+0001REMSYN082AAXX  18124 82198 22494 60504 10282 20242 30082 40134 83766 333 20215 58000 60164;
0173821980999992007031912004-01717-045400FM-12+004499999V0200701N002110042019N0010001N1+02741+02581101281ADDAA124003091GF106991061021004501001001KA1240N+02321MA1999999100771MD1999999-0051REMSYN082AAXX  19124 82198 22494 60704 10274 20258 30077 40128 86200 333 20232 59005 60034;
0182821980999992007031918004-01717-045400FM-12+004499999V0200501N006710450019N0010001N1+03021+02391100971ADDAA106000591AY151061AY221061GF106991031021004501011061MA1999999100461MD1999999-0021MW1151REMSYN082AAXX  19184 82198 21494 60513 10302 20239 30046 40097 71552 83216 333 59002 69941;
0173821980999992007032012004-01717-045400FM-12+004499999V0200901N000510042019N0010001N1+02851+02461101271ADDAA124000591GF107991051021004501041001KA1240N+02131MA1999999100761MD1999999-0011REMSYN082AAXX  20124 82198 22494 70901 10285 20246 30076 40127 85240 333 20213 59001 69944;
0182821980999992007032018004-01717-045400FM-12+004499999V0200201N000510042019N0005001N1+02501+02401100981ADDAA106019191AY191061AY261061GF108991051071004501041999MA1999999100471MD1999999+0011MW1021REMSYN082AAXX  20184 82198 21493 80201 10250 20240 30047 40098 70296 8574/ 333 58001 60191;
0196821980999992007032100004-01717-045400FM-12+004499999V0203601N001010450019N0002001N1+02461+02371101181ADDAY121061AY211061GF105991031071004501041001KA1240M+03071MA1999999100671MD1999999-0071MW1131REMSYN094AAXX  21004 82198 31492 53602 10246 20237 30067 40118 71321 83740 333 10307 29091 55034 59007;
0201821980999992007032112004-01717-045400FM-12+004499999V0202701N000510450019N0010001N1+02681+02521101111ADDAA124019191AY141061AY221061GF107991041021004501041001KA1240N+02031MA1999999100601MD1999999-0161MW1031REMSYN088AAXX  21124 82198 21494 72701 10268 20252 30060 40111 70342 84240 333 20203 59016 60194;
0137821980999992007032118004-01717-045400FM-12+004499999V0200501N004610450019N0010001N1+02971+02301100761ADDGF106991041021004501061001MA1999999100251MD1999999-0221REMSYN070AAXX  21184 82198 32494 60509 10297 20230 30025 40076 84260 333 59022;
0213821980999992007032200004-01717-045400FM-12+004499999V0200501N002610450019N0002001N1+02571+02381101011ADDAA106002091AY161061AY221061GF106991041071004501041001KA1240M+03091MA1999999100501MD1999999-0171MW1021REMSYN100AAXX  22004 82198 21492 60505 10257 20238 30050 40101 70262 84740 333 10309 29084 55046 59017 60021;
0173821980999992007032212004-01717-045400FM-12+004499999V0200501N002110042019N0010001N1+02881+02321101131ADDAA124002091GF106991051021004501041001KA1240N+02241MA1999999100621MD1999999+0021REMSYN082AAXX  22124 82198 22494 60504 10288 20232 30062 40113 85240 333 20224 58002 60024;
0182821980999992007032218004-01717-045400FM-12+004499999V0200501N005110450019N0010001N1+03051+02281100751ADDAA106005191AY161061AY221061GF106991041021004501061001MA1999999100241MD1999999-0011MW1021REMSYN082AAXX  22184 82198 21494 60510 10305 20228 30024 40075 70262 84260 333 59001 60051;
0168821980999992007032300004-01717-045400FM-12+004499999V0200501N003110450019N0002001N1+02621+02351101001ADDGF106991031071004501041001KA1240M+03171MA1999999100491MD1999999-0011REMSYN088AAXX  23004 82198 32492 60506 10262 20235 30049 40100 83740 333 10317 29077 55081 59001;
0173821980999992007032312004-01717-045400FM-12+004499999V0200901N001510450019N0010001N1+02921+02431101241ADDAA124005191GF106991041021008001061001KA1240N+02161MA1999999100731MD1999999+0111REMSYN082AAXX  23124 82198 22594 60903 10292 20243 30073 40124 84260 333 20216 58011 60054;
0182821980999992007032318004-01717-045400FM-12+004499999V0201401N001510450019N0010001N1+02541+02401100921ADDAA106022191AY191061AY261061GF107991031041008001011001MA1999999100411MD1999999+0171MW1021REMSYN082AAXX  23184 82198 21594 71403 10254 20240 30041 40092 70296 83410 333 58017 60221;
0168821980999992007032400004-01717-045400FM-12+004499999V0200901N002612200019N0002001N1+02501+02361101111ADDGF102991021011004501001001KA1240M+03051MA1999999100601MD1999999+0111REMSYN088AAXX  24004 82198 32492 20905 10250 20236 30060 40111 82100 333 10305 29088 55038 58011;
0173821980999992007032412004-01717-045400FM-12+004499999V0200701N004612200019N0010001N1+02971+02421101131ADDAA124022191GF104991031011004501061001KA1240N+02231MA1999999100621MD1999999-0111REMSYN082AAXX  24124 82198 22494 40709 10297 20242 30062 40113 83160 333 20223 59011 60224;
0137821980999992007032418004-01717-045400FM-12+004499999V0200901N006210042019N0010001N1+03041+02331100841ADDGF106991051021004501041001MA1999999100331MD1999999-0081REMSYN070AAXX  24184 82198 32494 60912 10304 20233 30033 40084 85240 333 59008;
0213821980999992007032500004-01717-045400FM-12+004499999V0200501N002110042019N0002001N1+02621+02411101041ADDAA106005191AY161061AY221061GF106991051051004501041001KA1240M+03261MA1999999100531MD1999999-0071MW1021REMSYN100AAXX  25004 82198 21492 60504 10262 20241 30053 40104 70262 85540 333 10326 29078 55077 59007 60051;
0173821980999992007032512004-01717-045400FM-12+004499999V0200501N002610042019N0005001N1+02841+02461101071ADDAA124005191GF107991051021004501021001KA1240N+02261MA1999999100571MD1999999-0051REMSYN082AAXX  25124 82198 22493 70505 10284 20246 30057 40107 85220 333 20226 59005 60054;
0182821980999992007032518004-01717-045400FM-12+004499999V0200701N002610042019N0010001N1+02761+02501100741ADDAA106002091AY161061AY221061GF107991051031004501041001MA1999999100231MD1999999-0101MW1021REMSYN082AAXX  25184 82198 21494 70705 10276 20250 30023 40074 70262 85340 333 59010 60021;
0196821980999992007032600004-01717-045400FM-12+004499999V0200901N002610450019N0002001N1+02601+02461100951ADDAY121061AY221061GF106991031011004501041001KA1240M+03271MA1999999100441MD1999999-0091MW1131REMSYN094AAXX  26004 82198 31492 60905 10260 20246 30044 40095 71322 83140 333 10327 29086 55048 59009;
0173821980999992007032612004-01717-045400FM-12+004499999V0200501N004110450019N0010001N1+02951+02641101011ADDAA124002091GF106991041021004501061001KA1240N+02301MA1999999100501MD1999999-0071REMSYN082AAXX  26124 82198 22494 60508 10295 20264 30050 40101 84260 333 20230 59007 60024;
0182821980999992007032618004-01717-045400FM-12+004499999V0200501N005110042019N0010001N1+02981+02471100691ADDAA106003091AY161061AY221061GF107991051021004501041001MA1999999100181MD1999999-0051MW1021REMSYN082AAXX  26184 82198 21494 70510 10298 20247 30018 40069 70262 85240 333 59005 60031;
0168821980999992007032700004-01717-045400FM-12+004499999V0200501N002110450019N0002001N1+02651+02481100951ADDGF105991031021004501061001KA1240M+03241MA1999999100441MD1999999+0001REMSYN088AAXX  27004 82198 32492 50504 10265 20248 30044 40095 83260 333 10324 29085 55040 58000;
0173821980999992007032712004-01717-045400FM-12+004499999V0200501N003110450019N0010001N1+02941+02451101091ADDAA124003091GF106991031021004501061041KA1240N+02301MA1999999100581MD1999999+0081REMSYN082AAXX  27124 82198 22494 60506 10294 20245 30058 40109 83264 333 20230 58008 60034;
0182821980999992007032718004-01717-045400FM-12+004499999V0200501N005710450019N0010001N1+03021+02441100711ADDAA106004191AY161061AY221061GF106991031021004501061061MA1999999100201MD1999999+0021MW1151REMSYN082AAXX  27184 82198 21494 60511 10302 20244 30020 40071 71562 83266 333 58002 60041;
0213821980999992007032800004-01717-045400FM-12+004499999V0203601N000510450019N0002001N1+02491+02311101091ADDAA106002091AY161061AY221061GF106991041021004501061001KA1240M+03181MA1999999100581MD1999999+0141MW1031REMSYN100AAXX  28004 82198 21492 63601 10249 20231 30058 40109 70362 84260 333 10318 29084 55067 58014 60021;
0201821980999992007032812004-01717-045400FM-12+004499999V0209999C000010042019N0005001N1+02441+02351101191ADDAA124032091AY161061AY221061GF108991061071004501021001KA1240N+02161MA1999999100681MD1999999+0101MW1601REMSYN088AAXX  28124 82198 21493 80000 10244 20235 30068 40119 76062 86720 333 20216 58010 60324;
0182821980999992007032818004-01717-045400FM-12+004499999V0200501N002110450019N0010001N1+02761+02441100831ADDAA106004191AY161061AY221061GF107991041051004501011041MA1999999100321MD1999999+0121MW1211REMSYN082AAXX  28184 82198 21494 70504 10276 20244 30032 40083 72162 84514 333 58012 60041;
0168821980999992007032900004-01717-045400FM-12+004499999V0203601N002110450019N0002001N1+02481+02361101071ADDGF107991041051004501011001KA1240M+02771MA1999999100561MD1999999-0021REMSYN088AAXX  29004 82198 32492 73604 10248 20236 30056 40107 84510 333 10277 29091 55000 59002;
0201821980999992007032912004-01717-045400FM-12+004499999V0209999C000010042019N0005001N1+02491+02311101111ADDAA124010991AY161061AY221061GF108991051051004501021001KA1240N+02131MA1999999100601MD1999999-0081MW1511REMSYN088AAXX  29124 82198 21493 80000 10249 20231 30060 40111 75162 85520 333 20213 59008 60114;
0182821980999992007032918004-01717-045400FM-12+004499999V0200501N001510450019N0005001N1+02671+02421100821ADDAA106002091AY161061AY221061GF108991041031004501021001MA1999999100311MD1999999-0011MW1511REMSYN082AAXX  29184 82198 21493 80503 10267 20242 30031 40082 75162 84320 333 59001 60021;
0213821980999992007033000004-01717-045400FM-12+004499999V0200901N003110450019N0002001N1+02491+02311100951ADDAA106000591AY161061AY221061GF107991041051004501011041KA1240M+02931MA1999999100441MD1999999-0121MW1021REMSYN100AAXX  30004 82198 21492 70906 10249 20231 30044 40095 70262 84514 333 10293 29094 55006 59012 69951;
0201821980999992007033012004-01717-045400FM-12+004499999V0201401N003110450019N0010001N1+02891+02381100961ADDAA124002091AY121061AY221061GF106991031011004501031091KA1240N+02211MA1999999100451MD1999999-0151MW1021REMSYN088AAXX  30124 82198 21494 61406 10289 20238 30045 40096 70222 83139 333 20221 59015 60024;
0182821980999992007033018004-01717-045400FM-12+004499999V0202301N003110450019N0005001N1+02651+02351100651ADDAA106000891AY161061AY221061GF107991031031004501011061MA1999999100141MD1999999-0171MW1171REMSYN082AAXX  30184 82198 21493 72306 10265 20235 30014 40065 71762 83316 333 59017 69981;
0196821980999992007033100004-01717-045400FM-12+004499999V0200501N002110450019N0002001N1+02591+02421100871ADDAY121061AY221061GF106991031021004501011061KA1240M+03341MA1999999100361MD1999999-0081MW1131REMSYN094AAXX  31004 82198 31492 60504 10259 20242 30036 40087 71322 83216 333 10334 29086 55047 59008;
0173821980999992007033112004-01717-045400FM-12+004499999V0200701N004110450019N0010001N1+03061+02451100971ADDAA124000891GF106991031021004501061011KA1240N+02181MA1999999100461MD1999999+0011REMSYN082AAXX  31124 82198 22494 60708 10306 20245 30046 40097 83261 333 20218 58001 69984;
0137821980999992007033118004-01717-045400FM-12+004499999V0200901N005110450019N0010001N1+03231+02301100701ADDGF106991031021004501011061MA1999999100191MD1999999+0041REMSYN070AAXX  31184 82198 32494 60910 10323 20230 30019 40070 83216 333 58004;
0168821980999992007040100004-01717-045400FM-12+004499999V0200901N001510450019N0002001N1+02671+02371100991ADDGF106991031011004501011061KA1240M+03391MA1999999100481MD1999999+0141REMSYN088AAXX  01004 82198 32492 60903 10267 20237 30048 40099 83116 333 10339 29076 55084 58014;
0184821980999992007040112004-01717-045400FM-12+004499999V0200901N003610450019N0010001N1+03021+02501101091ADDAY141061AY221061GF106991031021004501061011KA1240N+02211MA1999999100581MD1999999+0121MW1021REMSYN082AAXX  01124 82198 31494 60907 10302 20250 30058 40109 70242 83261 333 20221 58012;
0182821980999992007040118004-01717-045400FM-12+004499999V0202001N003610450019N0005001N1+02621+02481100791ADDAA106022191AY161061AY221061GF107991041071004501021011MA1999999100281MD1999999+0091MW1631REMSYN082AAXX  01184 82198 21493 72007 10262 20248 30028 40079 76362 84721 333 58009 60221;
0213821980999992007040200004-01717-045400FM-12+004499999V0200701N002610450019N0002001N1+02641+02481101121ADDAA106001091AY161061AY221061GF107991041071004501061001KA1240M+03201MA1999999100611MD1999999+0131MW1021REMSYN100AAXX  02004 82198 21492 70705 10264 20248 30061 40112 70262 84760 333 10320 29087 55038 58013 60011;
0201821980999992007040212004-01717-045400FM-12+004499999V0200501N002610450019N0005001N1+02751+02621101111ADDAA124023191AY141061AY221061GF107991041071004501021001KA1240N+02171MA1999999100601MD1999999+0021MW1021REMSYN088AAXX  02124 82198 21493 70505 10275 20262 30060 40111 70242 84720 333 20217 58002 60234;
0182821980999992007040218004-01717-045400FM-12+004499999V0200901N004610450019N0005001N1+02991+02421100791ADDAA106000591AY151061AY241061GF107991031071004501011041MA1999999100281MD1999999+0001MW1021REMSYN082AAXX  02184 82198 21493 70909 10299 20242 30028 40079 70254 83714 333 58000 69941;
0168821980999992007040300004-01717-045400FM-12+004499999V0200501N003110450019N0002001N1+02651+02351101091ADDGF108991041021004501031001KA1240M+03051MA1999999100581MD1999999-0031REMSYN088AAXX  03004 82198 32492 80506 10265 20235 30058 40109 84230 333 10305 29083 55028 59003;
0173821980999992007040312004-01717-045400FM-12+004499999V0202701N001010042019N0005001N1+02691+02461101091ADDAA124000591GF107991051021004501061001KA1240N+02171MA1999999100581MD1999999-0021REMSYN082AAXX  03124 82198 22493 72702 10269 20246 30058 40109 85260 333 20217 59002 69944;
0137821980999992007040318004-01717-045400FM-12+004499999V0200501N005710450019N0010001N1+02941+02491100741ADDGF105991031021004501061001MA1999999100231MD1999999-0051REMSYN070AAXX  03184 82198 32494 50511 10294 20249 30023 40074 83260 333 59005;
0213821980999992007040400004-01717-045400FM-12+004499999V0200501N002610450019N0002001N1+02631+02441100961ADDAA106007991AY161061AY221061GF106991031071008001041001KA1240M+03171MA1999999100451MD1999999-0131MW1021REMSYN100AAXX  04004 82198 21592 60505 10263 20244 30045 40096 70262 83740 333 10317 29086 55049 59013 60081;
0173821980999992007040412004-01717-045400FM-12+004499999V0200501N003110450019N0010001N1+02821+02441101131ADDAA124007991GF107991031011004501031001KA1240N+02251MA1999999100621MD1999999+0041REMSYN082AAXX  04124 82198 22494 70506 10282 20244 30062 40113 83130 333 20225 58004 60084;
0182821980999992007040418004-01717-045400FM-12+004499999V0200501N003110042019N0010001N1+02861+02441100721ADDAA106009991AY161061AY221061GF107991051071004501041001MA1999999100281MD1999999+0051MW1151REMSYN082AAXX  04184 82198 21494 70506 10286 20244 30028 40072 71562 85740 333 58005 60101;
0168821980999992007040500004-01717-045400FM-12+004499999V0200701N002610450019N0002001N1+02561+02361101051ADDGF106991021011004501061001KA1240M+03181MA1999999100541MD1999999+0091REMSYN088AAXX  05004 82198 32492 60705 10256 20236 30054 40105 82160 333 10318 29084 55011 58009;
0173821980999992007040512004-01717-045400FM-12+004499999V0200501N003110450019N0010001N1+02941+02521101131ADDAA124009991GF106991031021004501031011KA1240N+02301MA1999999100621MD1999999+0001REMSYN082AAXX  05124 82198 22494 60506 10294 20252 30062 40113 83231 333 20230 58000 60104;
0137821980999992007040518004-01717-045400FM-12+004499999V0200501N004610450019N0010001N1+03071+02441100831ADDGF105991031021004501061011MA1999999100321MD1999999+0041REMSYN070AAXX  05184 82198 32494 50509 10307 20244 30032 40083 83261 333 58004;
0168821980999992007040600004-01717-045400FM-12+004499999V0200501N002110450019N0002001N1+02661+02411101141ADDGF106991021011004501061001KA1240M+03181MA1999999100631MD1999999+0091REMSYN088AAXX  06004 82198 32492 60504 10266 20241 30063 40114 82160 333 10318 29080 55072 58009;
0156821980999992007040612004-01717-045400FM-12+004499999V0200501N003610450019N0010001N1+02981+02491101231ADDGF107991041021004501061011KA1240N+02241MA1999999100721MD1999999+0101REMSYN076AAXX  06124 82198 32494 70507 10298 20249 30072 40123 84261 333 20224 58010;
0201821980999992007040618004-01717-045400FM-12+004499999V0200501N004610450019N0010001N1+03141+02321100851ADDAA106000091AY151061AY221061GF105991031021004501041021MA1999999100341MD1999999+0021MW1011REMSYN082AAXX  06184 82198 21494 50509 10314 20232 30034 40085 70152 83242 333 58002 69921;EQDQ01  00002PRCP06
0168821980999992007040700004-01717-045400FM-12+004499999V0200501N003112200019N0002001N1+02701+02451100991ADDGF104991021011004501061001KA1240M+03381MA1999999100481MD1999999-0151REMSYN088AAXX  07004 82198 32492 40506 10270 20245 30048 40099 82160 333 10338 29077 55081 59015;
0192821980999992007040712004-01717-045400FM-12+004499999V0200501N002610450019N0010001N1+03061+02501101271ADDAA124000091GF106991041021004501061001KA1240N+02341MA1999999100761MD1999999+0041REMSYN082AAXX  07124 82198 22494 60505 10306 20250 30076 40127 84260 333 20234 58004 69924;EQDQ01  00002PRCP24
0182821980999992007040718004-01717-045400FM-12+004499999V0200201N004610450019N0010001N1+02821+02401100911ADDAA106002091AY161061AY221061GF107991041071004501041011MA1999999100401MD1999999+0061MW1151REMSYN082AAXX  07184 82198 21494 70209 10282 20240 30040 40091 71562 84741 333 58006 60021;
0168821980999992007040800004-01717-045400FM-12+004499999V0200501N002112200019N0002001N1+02641+02441101161ADDGF104991041001008001061001KA1240M+03201MA1999999100651MD1999999+0171REMSYN088AAXX  08004 82198 32592 40504 10264 20244 30065 40116 84060 333 10320 29082 55053 58017;
0173821980999992007040812004-01717-045400FM-12+004499999V0200501N004611050019N0010001N1+03021+02551101281ADDAA124002091GF105991021021004501041081KA1240N+02371MA1999999100771MD1999999+0011REMSYN082AAXX  08124 82198 22494 50509 10302 20255 30077 40128 82248 333 20237 58001 60024;
0182821980999992007040818004-01717-045400FM-12+004499999V0200501N006210450019N0010001N1+03011+02421100951ADDAA106002091AY161061AY221061GF107991041021004501041001MA1999999100441MD1999999+0041MW1031REMSYN082AAXX  08184 82198 21494 70512 10301 20242 30044 40095 70362 84240 333 58004 60021;
0168821980999992007040900004-01717-045400FM-12+004499999V0200501N002112200019N0002001N1+02661+02481101161ADDGF103991031001008001061001KA1240M+03201MA1999999100651MD1999999+0001REMSYN088AAXX  09004 82198 32592 30504 10266 20248 30065 40116 83060 333 10320 29082 55059 58000;
0173821980999992007040912004-01717-045400FM-12+004499999V0200701N001510042019N0010001N1+02981+02661101171ADDAA124002091GF107991051021004501061011KA1240N+02261MA1999999100681MD1999999-0091REMSYN082AAXX  09124 82198 22494 70703 10298 20266 30068 40117 85261 333 20226 59009 60024;
0182821980999992007040918004-01717-045400FM-12+004499999V0200501N003610042019N0010001N1+02921+02541100791ADDAA106000591AY151061AY221061GF107991051071004501021001MA1999999100281MD1999999-0161MW1021REMSYN082AAXX  09184 82198 21494 70507 10292 20254 30028 40079 70252 85720 333 59016 69951;
0168821980999992007041000004-01717-045400FM-12+004499999V0200501N001510450019N0002001N1+02641+02501101091ADDGF106991041071004501021001KA1240M+03151MA1999999100581MD1999999-0071REMSYN088AAXX  10004 82198 32492 60503 10264 20250 30058 40109 84720 333 10315 29087 55047 59007;
0201821980999992007041012004-01717-045400FM-12+004499999V0200901N001510450019N0010001N1+03021+02571101161ADDAA124005191AY161061AY221061GF105991031021004501061041KA1240N+02261MA1999999100651MD1999999-0031MW1031REMSYN088AAXX  10124 82198 21494 50903 10302 20257 30065 40116 70362 83264 333 20226 59003 60054;
0165821980999992007041018004-01717-045400FM-12+004499999V0203601N001510450019N0005001N1+02681+02411100861ADDAY191061AY221061GF107991041031004501061001MA1999999100351MD1999999+0071MW1151REMSYN076AAXX  10184 82198 31493 73603 10268 20241 30035 40086 71592 84360 333 58007;
0242821980999992007041100004-01717-045400FM-12+004499999V0200701N002610450019N0002001N1+02451+02231101251ADDAA106000091AY191061AY221061GF107991041071004501061001KA1240M+03241MA1999999100741MD1999999+0161REMSYN100AAXX  11004 82198 21492 70705 10245 20223 30074 40125 72492 84760 333 10324 29086 55049 58016 69911;EQDQ01+000242PRSWM1Q02  00002PRCP06
0201821980999992007041112004-01717-045400FM-12+004499999V0209999C000010450019N0005001N1+02571+02461101291ADDAA124002091AY161061AY241061GF107991031071004501061011KA1240N+02101MA1999999100781MD1999999+0131MW1021REMSYN088AAXX  11124 82198 21493 70000 10257 20246 30078 40129 70264 83761 333 20210 58013 60024;
0182821980999992007041118004-01717-045400FM-12+004499999V0201101N005710042019N0005001N1+02291+02101101111ADDAA106017091AY161061AY261061GF108991051071004501021001MA1999999100601MD1999999+0251MW1631REMSYN082AAXX  11184 82198 21493 81111 10229 20210 30060 40111 76366 85720 333 58025 60171;
0213821980999992007041200004-01717-045400FM-12+004499999V0209999C000010150019N0002001N1+02371+02331101371ADDAA106019191AY161061AY261061GF108991081001017501021999KA1240M+02881MA1999999100851MD1999999+0111MW1631REMSYN100AAXX  12004 82198 21792 80000 10237 20233 30085 40137 76366 8802/ 333 10288 29094 55000 58011 60191;
0201821980999992007041212004-01717-045400FM-12+004499999V0202701N001010450019N0010001N1+02691+02371101441ADDAA124037191AY141061AY261061GF107991041051004501031041KA1240N+02071MA1999999100921MD1999999+0141MW1021REMSYN088AAXX  12124 82198 21494 72702 10269 20237 30092 40144 70246 84534 333 20207 58014 60374;
0182821980999992007041218004-01717-045400FM-12+004499999V0200701N002110450019N0005001N1+03071+02391101041ADDAA106004191AY191061AY261061GF107991031071004501021011MA1999999100531MD1999999-0071MW1601REMSYN082AAXX  12184 82198 21493 70704 10307 20239 30053 40104 76096 83721 333 59007 60041;
0213821980999992007041300004-01717-045400FM-12+004499999V0203201N001010450019N0002001N1+02521+02421101301ADDAA106003091AY161061AY221061GF106991041021004501061001KA1240M+03341MA1999999100791MD1999999-0061MW1011REMSYN100AAXX  13004 82198 21492 63202 10252 20242 30079 40130 70162 84260 333 10334 29086 55048 59006 60031;
0201821980999992007041312004-01717-045400FM-12+004499999V0202701N001510450019N0010001N1+02651+02421101381ADDAA124007191AY161061AY221061GF107991041051004501031001KA1240N+02131MA1999999100861MD1999999-0061MW1401REMSYN088AAXX  13124 82198 21494 72703 10265 20242 30086 40138 74062 84530 333 20213 59006 60074;
0182821980999992007041318004-01717-045400FM-12+004499999V0201101N004110450019N0010001N1+02491+02211101041ADDAA106021191AY191061AY261061GF108991041071004501011041MA1999999100531MD1999999+0001MW1171REMSYN082AAXX  13184 82198 21494 81108 10249 20221 30053 40104 71796 84714 333 58000 60211;
0196821980999992007041400004-01717-045400FM-12+004499999V0200501N001512200019N0002001N1+02551+02501101231ADDAY191061AY211061GF103991031011004501001001KA1240M+03001MA1999999100721MD1999999-0071MW1011REMSYN094AAXX  14004 82198 31492 30503 10255 20250 30072 40123 70191 83100 333 10300 29092 55002 59007;
0201821980999992007041412004-01717-045400FM-12+004499999V0200901N002110450019N0010001N1+02741+02141101341ADDAA124022191AY161061AY221061GF106991031011004501031011KA1240N+02091MA1999999100821MD1999999-0041MW1011REMSYN088AAXX  14124 82198 21494 60904 10274 20214 30082 40134 70162 83131 333 20209 59004 60224;
0137821980999992007041418004-01717-045400FM-12+004499999V0200701N003110450019N0010001N1+03001+02371100941ADDGF106991031021004501041061MA1999999100431MD1999999-0101REMSYN070AAXX  14184 82198 32494 60706 10300 20237 30043 40094 83246 333 59010;
0196821980999992007041500004-01717-045400FM-12+004499999V0200701N002612200019N0002001N1+02641+02411101231ADDAY121061AY211061GF103991031011004501001001KA1240M+03261MA1999999100721MD1999999+0001MW1131REMSYN094AAXX  15004 82198 31492 30705 10264 20241 30072 40123 71321 83100 333 10326 29078 55021 58000;
0201821980999992007041512004-01717-045400FM-12+004499999V0200701N004610450019N0010001N1+02911+02481101251ADDAA124000591AY151061AY221061GF106991031051004501061001KA1240N+02241MA1999999100741MD1999999-0081MW1031REMSYN088AAXX  15124 82198 21494 60709 10291 20248 30074 40125 70352 83560 333 20224 59008 69954;
0182821980999992007041518004-01717-045400FM-12+004499999V0200501N005710450019N0010001N1+03041+02311100921ADDAA106008991AY161061AY221061GF106991031021004501041061MA1999999100411MD1999999-0021MW1021REMSYN082AAXX  15184 82198 21494 60511 10304 20231 30041 40092 70262 83246 333 59002 60091;
0213821980999992007041600004-01717-045400FM-12+004499999V0203601N002610450019N0002001N1+02471+02261101331ADDAA106015091AY191061AY261061GF106991041071004501021001KA1240M+03321MA1999999100811MD1999999+0091MW1601REMSYN100AAXX  16004 82198 21492 63605 10247 20226 30081 40133 76096 84720 333 10332 29082 55061 58009 60151;
0201821980999992007041612004-01717-045400FM-12+004499999V0200901N004610450019N0010001N1+02741+02481101251ADDAA124026991AY161061AY221061GF107991031051004501031011KA1240N+02191MA1999999100741MD1999999+0001MW1031REMSYN088AAXX  16124 82198 21494 70909 10274 20248 30074 40125 70362 83531 333 20219 58000 60274;
0165821980999992007041618004-01717-045400FM-12+004499999V0200501N002611050019N0010001N1+02861+02371100891ADDAY191061AY221061GF106991021031004501041061MA1999999100381MD1999999-0031MW1031REMSYN076AAXX  16184 82198 31494 60505 10286 20237 30038 40089 70392 82346 333 59003;
0168821980999992007041700004-01717-045400FM-12+004499999V0203201N002110450019N0002001N1+02591+02441101131ADDGF106991041021004501061001KA1240M+03281MA1999999100621MD1999999-0191REMSYN088AAXX  17004 82198 32492 63204 10259 20244 30062 40113 84260 333 10328 29086 55038 59019;
0201821980999992007041712004-01717-045400FM-12+004499999V0200501N001510450019N0010001N1+02621+02441101071ADDAA124007191AY161061AY221061GF107991021021004501061001KA1240N+02091MA1999999100561MD1999999-0181MW1021REMSYN088AAXX  17124 82198 21494 70503 10262 20244 30056 40107 70262 82260 333 20209 59018 60074;
0182821980999992007041718004-01717-045400FM-12+004499999V0200201N001510450019N0010001N1+02751+02431100861ADDAA106000021AY191061AY221061GF108991041031004501041999MA1999999100351MD1999999-0031MW1201REMSYN082AAXX  17184 82198 21494 80203 10275 20243 30035 40086 72092 8434/ 333 59003 69921;
0168821980999992007041800004-01717-045400FM-12+004499999V0200501N001510450019N0200001N1+02561+02401101041ADDGF107991041051004501041001KA1240M+03191MA1999999100531MD1999999-0091REMSYN088AAXX  18004 82198 32498 70503 10256 20240 30053 40104 84540 333 10319 29089 55026 59009;
0201821980999992007041812004-01717-045400FM-12+004499999V0200901N001010450019N0010001N1+02601+02391101091ADDAA124000391AY151061AY221061GF107991031041004501061001KA1240N+02111MA1999999100581MD1999999+0021MW1021REMSYN088AAXX  18124 82198 21494 70902 10260 20239 30058 40109 70252 83460 333 20211 58002 69934;
0182821980999992007041818004-01717-045400FM-12+004499999V0200901N004610042019N0010001N1+02861+02331100771ADDAA106002091AY161061AY221061GF107991051051004501011001MA1999999100261MD1999999-0091MW1521REMSYN082AAXX  18184 82198 21494 70909 10286 20233 30026 40077 75262 85510 333 59009 60021;
0168821980999992007041900004-01717-045400FM-12+004499999V0200501N001010450019N0002001N1+02631+02441101041ADDGF107991041071008001041001KA1240M+03161MA1999999100531MD1999999+0001REMSYN088AAXX  19004 82198 32592 70502 10263 20244 30053 40104 84740 333 10316 29085 55010 58000;
0173821980999992007041912004-01717-045400FM-12+004499999V0201101N002110450019N0010001N1+02891+02441101111ADDAA124002091GF106991041021004501061011KA1240N+02171MA1999999100601MD1999999+0021REMSYN082AAXX  19124 82198 22494 61104 10289 20244 30060 40111 84261 333 20217 58002 60024;
0182821980999992007041918004-01717-045400FM-12+004499999V0200501N003110450019N0010001N1+02961+02401100731ADDAA106005191AY161061AY221061GF106991031031004501041021MA1999999100221MD1999999-0041MW1151REMSYN082AAXX  19184 82198 21494 60506 10296 20240 30022 40073 71562 83342 333 59004 60051;
0168821980999992007042000004-01717-045400FM-12+004499999V0200701N002112200019N0002001N1+02661+02411101371ADDGF103991031001012501061001KA1240M+03121MA1999999100861MD1999999-0101REMSYN088AAXX  20004 82198 32692 30704 10266 20241 30086 40137 83060 333 10312 29080 55041 59010;
0173821980999992007042012004-01717-045400FM-12+004499999V0200901N002610450019N0010001N1+02991+02491101091ADDAA124005191GF106991041021004501031001KA1240N+02181MA1999999100581MD1999999-0021REMSYN082AAXX  20124 82198 22494 60905 10299 20249 30058 40109 84230 333 20218 59002 60054;
0182821980999992007042018004-01717-045400FM-12+004499999V0202501N002610042019N0010001N1+02781+02461100741ADDAA106000021AY121061AY221061GF107991051051004501041001MA1999999100231MD1999999+0011MW1201REMSYN082AAXX  20184 82198 21494 72505 10278 20246 30023 40074 72022 85540 333 58001 69921;
0213821980999992007042100004-01717-045400FM-12+004499999V0201801N002610450019N0002001N1+02571+02441100941ADDAA106000021AY151061AY221061GF105991031041004501061001KA1240M+03221MA1999999100431MD1999999+0001MW1021REMSYN100AAXX  21004 82198 21492 51805 10257 20244 30043 40094 70252 83460 333 10322 29086 55041 58000 69911;
0173821980999992007042112004-01717-045400FM-12+004499999V0203501N001510042019N0010001N1+02691+02541101061ADDAA124000391GF107991051061004501041001KA1240N+02191MA1999999100551MD1999999-0031REMSYN082AAXX  21124 82198 22494 73503 10269 20254 30055 40106 85640 333 20219 59003 69934;
0182821980999992007042118004-01717-045400FM-12+004499999V0203601N003110042019N0005001N1+02401+02311100891ADDAA106017091AY161061AY221061GF108991061091004501021999MA1999999100381MD1999999+0151MW1631REMSYN082AAXX  21184 82198 21493 83606 10240 20231 30038 40089 76362 8692/ 333 58015 60171;
0213821980999992007042200004-01717-045400FM-12+004499999V0209999C000010450019N0002001N1+02351+02281101161ADDAA106017091AY161061AY261061GF107991041051004501041001KA1240M+02901MA1999999100651MD1999999+0221MW1211REMSYN100AAXX  22004 82198 21492 70000 10235 20228 30065 40116 72166 84540 333 10290 29094 55000 58022 60171;
0201821980999992007042212004-01717-045400FM-12+004499999V0202301N001510450019N0010001N1+02641+02411101141ADDAA124036191AY161061AY221061GF106991041021004501031001KA1240N+02061MA1999999100631MD1999999+0081MW1021REMSYN088AAXX  22124 82198 21494 62303 10264 20241 30063 40114 70262 84230 333 20206 58008 60364;
0137821980999992007042218004-01717-045400FM-12+004499999V0200501N004610042019N0010001N1+03031+02361100811ADDGF107991051051004501061001MA1999999100301MD1999999-0081REMSYN070AAXX  22184 82198 32494 70509 10303 20236 30030 40081 85560 333 59008;
0213821980999992007042300004-01717-045400FM-12+004499999V0200501N001510042019N0002001N1+02321+02251101341ADDAA106023991AY161061AY221061GF108991061051004501021999KA1240M+03261MA1999999100831MD1999999+0181MW1631REMSYN100AAXX  23004 82198 21492 80503 10232 20225 30083 40134 76362 8652/ 333 10326 29087 55048 58018 60241;
0201821980999992007042312004-01717-045400FM-12+004499999V0209999C000010042019N0010001N1+02581+02401101321ADDAA124034091AY161061AY221061GF107991051071004501041001KA1240N+02041MA1999999100811MD1999999+0181MW1021REMSYN088AAXX  23124 82198 21494 70000 10258 20240 30081 40132 70262 85740 333 20204 58018 60344;
0137821980999992007042318004-01717-045400FM-12+004499999V0200901N002110090019N0010001N1+02761+02301101081ADDGF107991051081004501041001MA1999999100571MD1999999+0271REMSYN070AAXX  23184 82198 32494 70904 10276 20230 30057 40108 85840 333 58027;
0168821980999992007042400004-01717-045400FM-12+004499999V0203601N001010042019N0002001N1+02471+02301101261ADDGF107991051051004501041001KA1240M+02981MA1999999100751MD1999999-0081REMSYN088AAXX  24004 82198 32492 73602 10247 20230 30075 40126 85540 333 10298 29086 55011 59008;
0220821980999992007042412004-01717-045400FM-12+004499999V0200501N002110450019N0010001N1+02751+02421101301ADDAA124000091AY141061AY221061GF107991031021004501031011KA1240N+02041MA1999999100791MD1999999-0021MW1011REMSYN088AAXX  24124 82198 21494 70504 10275 20242 30079 40130 70142 83231 333 20204 59002 69904;EQDQ01  00002PRCP24
0165821980999992007042418004-01717-045400FM-12+004499999V0200501N004610450019N0010001N1+02931+02341100931ADDAY191061AY221061GF106991031071004501061001MA1999999100421MD1999999-0121MW1171REMSYN076AAXX  24184 82198 31494 60509 10293 20234 30042 40093 71792 83760 333 59012;
0213821980999992007042500004-01717-045400FM-12+004499999V0203601N000510450019N0002001N1+02481+02391101261ADDAA106017091AY161061AY221061GF107991041071004501021001KA1240M+03261MA1999999100751MD1999999+0001MW1211REMSYN100AAXX  25004 82198 21492 73601 10248 20239 30075 40126 72162 84720 333 10326 29086 55065 58000 60171;
0201821980999992007042512004-01717-045400FM-12+004499999V0201101N002610450019N0010001N1+02791+02421101231ADDAA124024991AY161061AY241061GF106991031021004501041061KA1240N+02091MA1999999100721MD1999999-0071MW1031REMSYN088AAXX  25124 82198 21494 61105 10279 20242 30072 40123 70364 83246 333 20209 59007 60254;
0182821980999992007042518004-01717-045400FM-12+004499999V0203601N002610450019N0005001N1+02491+02231100891ADDAA106011991AY191061AY261061GF106991031071004501061001MA1999999100381MD1999999-0041MW1601REMSYN082AAXX  25184 82198 21493 63605 10249 20223 30038 40089 76096 83760 333 59004 60121;
0196821980999992007042600004-01717-045400FM-12+004499999V0200901N002110450019N0002001N1+02541+02381101011ADDAY121061AY221061GF105991031021004501031041KA1240M+03231MA1999999100501MD1999999-0251MW1131REMSYN094AAXX  26004 82198 31492 50904 10254 20238 30050 40101 71322 83234 333 10323 29088 55051 59025;
0173821980999992007042612004-01717-045400FM-12+004499999V0202701N002610450019N0010001N1+02991+02461101141ADDAA124011991GF105991031021004501031011KA1240N+02181MA1999999100631MD1999999-0091REMSYN082AAXX  26124 82198 22494 52705 10299 20246 30063 40114 83231 333 20218 59009 60124;
0182821980999992007042618004-01717-045400FM-12+004499999V0203201N001510450019N0010001N1+02601+02421100771ADDAA106027991AY191061AY261061GF107991041021004501041061MA1999999100261MD1999999-0121MW1031REMSYN082AAXX  26184 82198 21494 73203 10260 20242 30026 40077 70396 84246 333 59012 60281;
0196821980999992007042700004-01717-045400FM-12+004499999V0200501N001010450019N0002001N1+02561+02441101031ADDAY121061AY221061GF106991031021004501011061KA1240M+03231MA1999999100521MD1999999+0021MW1131REMSYN094AAXX  27004 82198 31492 60502 10256 20244 30052 40103 71322 83216 333 10323 29087 55043 58002;
0201821980999992007042712004-01717-045400FM-12+004499999V0201401N002110450019N0005001N1+02561+02361101201ADDAA124030091AY161061AY221061GF108991041051004501011001KA1240N+02101MA1999999100691MD1999999+0061MW1031REMSYN088AAXX  27124 82198 21493 81404 10256 20236 30069 40120 70362 84510 333 20210 58006 60304;
0182821980999992007042718004-01717-045400FM-12+004499999V0200901N002610042019N0005001N1+02451+02281100941ADDAA106014091AY191061AY261061GF108991051071004501011001MA1999999100431MD1999999+0171MW1611REMSYN082AAXX  27184 82198 21493 80905 10245 20228 30043 40094 76196 85710 333 58017 60141;
0213821980999992007042800004-01717-045400FM-12+004499999V0201101N003110450019N0002001N1+02441+02301101171ADDAA106000021AY151061AY221061GF107991041051004501031041KA1240M+03041MA1999999100661MD1999999+0141MW1011REMSYN100AAXX  28004 82198 21492 71106 10244 20230 30066 40117 70152 84534 333 10304 29092 55011 58014 69911;
0201821980999992007042812004-01717-045400FM-12+004499999V0200501N002610450019N0010001N1+02961+02491101301ADDAA124014091AY141061AY221061GF106991031071004501061041KA1240N+02111MA1999999100791MD1999999+0101MW1011REMSYN088AAXX  28124 82198 21494 60505 10296 20249 30079 40130 70142 83764 333 20211 58010 60144;
0182821980999992007042818004-01717-045400FM-12+004499999V0200901N002110450019N0005001N1+02481+02411101031ADDAA106035191AY191061AY261061GF108991041071004501011001MA1999999100521MD1999999+0091MW1211REMSYN082AAXX  28184 82198 21493 80904 10248 20241 30052 40103 72196 84710 333 58009 60351;
0168821980999992007042900004-01717-045400FM-12+004499999V0200901N002610450019N0002001N1+02491+02261101201ADDGF107991041051004501011011KA1240M+03021MA1999999100691MD1999999+0031REMSYN088AAXX  29004 82198 32492 70905 10249 20226 30069 40120 84511 333 10302 29089 55040 58003;
0173821980999992007042912004-01717-045400FM-12+004499999V0201401N000510450019N0010001N1+02681+02411101321ADDAA124035191GF108991041011004501041061KA1240N+02101MA1999999100801MD1999999+0011REMSYN082AAXX  29124 82198 22494 81401 10268 20241 30080 40132 84146 333 20210 58001 60354;
0182821980999992007042918004-01717-045400FM-12+004499999V0200501N005710042019N0005001N1+02391+02351101011ADDAA106047091AY191061AY261061GF108991061071004501021001MA1999999100501MD1999999-0021MW1631REMSYN082AAXX  29184 82198 21493 80511 10239 20235 30050 40101 76396 86720 333 59002 60471;
0213821980999992007043000004-01717-045400FM-12+004499999V0202001N002110450019N0002001N1+02431+02331101241ADDAA106004191AY161061AY221061GF108991041051004501011001KA1240M+03061MA1999999100731MD1999999+0041MW1021REMSYN100AAXX  30004 82198 21492 82004 10243 20233 30073 40124 70262 84510 333 10306 29094 55028 58004 60041;
0201821980999992007043012004-01717-045400FM-12+004499999V0209999C000010450019N0010001N1+02731+02581101341ADDAA124050091AY141061AY221061GF107991031021004501031041KA1240N+02081MA1999999100821MD1999999+0021MW1021REMSYN088AAXX  30124 82198 21494 70000 10273 20258 30082 40134 70242 83234 333 20208 58002 60504;
0165821980999992007043018004-01717-045400FM-12+004499999V0203601N003110450019N0005001N1+02571+02311100981ADDAY121061AY221061GF108991031071004501061001MA1999999100471MD1999999-0031MW1151REMSYN076AAXX  30184 82198 31493 83606 10257 20231 30047 40098 71522 83760 333 59003;
0213821980999992007050100004-01717-045400FM-12+004499999V0209999C000011050019N0002001N1+02511+02381101121ADDAA106005191AY161061AY221061GF106991021011004501031061KA1240M+03161MA1999999100611MD1999999-0121MW1131REMSYN100AAXX  01004 82198 21492 60000 10251 20238 30061 40112 71362 82136 333 10316 29091 55024 59012 60051;
0173821980999992007050112004-01717-045400FM-12+004499999V0200501N003112200019N0010001N1+02951+02581101181ADDAA124005191GF104991041011004501001001KA1240N+02051MA1999999100671MD1999999-0151REMSYN082AAXX  01124 82198 22494 40506 10295 20258 30067 40118 84100 333 20205 59015 60054;
0137821980999992007050118004-01717-045400FM-12+004499999V0200501N005110042019N0010001N1+03081+02441100791ADDGF106991051021004501061001MA1999999100281MD1999999-0191REMSYN070AAXX  01184 82198 32494 60510 10308 20244 30028 40079 85260 333 59019;
0232821980999992007050200004-01717-045400FM-12+004499999V0203601N000510450019N0002001N1+02591+02461101131ADDAA106000091AY191061AY251061GF107991041051004501031001KA1240M+03251MA1999999100621MD1999999+0011MW1021REMSYN100AAXX  02004 82198 21492 73601 10259 20246 30062 40113 70295 84530 333 10325 29084 55079 58001 69921;EQDQ01  00002PRCP06
0201821980999992007050212004-01717-045400FM-12+004499999V0200901N001010450019N0010001N1+02841+02441101261ADDAA124007191AY161061AY251061GF105991031021004501041021KA1240N+02091MA1999999100751MD1999999+0081MW1021REMSYN088AAXX  02124 82198 21494 50902 10284 20244 30075 40126 70265 83242 333 20209 58008 60074;
0182821980999992007050218004-01717-045400FM-12+004499999V0200501N002110042019N0005001N1+02821+02561100871ADDAA106002091AY161061AY251061GF108991061091004501021999MA1999999100361MD1999999+0081MW1621REMSYN082AAXX  02184 82198 21493 80504 10282 20256 30036 40087 76265 8692/ 333 58008 60021;
0213821980999992007050300004-01717-045400FM-12+004499999V0200201N001012200019N0002001N1+02491+02381101121ADDAA106036191AY161061AY251061GF103991021021004501041001KA1240M+03211MA1999999100611MD1999999-0011MW1011REMSYN100AAXX  03004 82198 21492 30202 10249 20238 30061 40112 70165 82240 333 10321 29088 55056 59001 60361;
0173821980999992007050312004-01717-045400FM-12+004499999V0200701N001010042019N0010001N1+02861+02561101241ADDAA124038191GF106991051021004501041001KA1240N+02091MA1999999100731MD1999999-0021REMSYN082AAXX  03124 82198 22494 60702 10286 20256 30073 40124 85240 333 20209 59002 60384;
0182821980999992007050318004-01717-045400FM-12+004499999V0202701N000510450019N0010001N1+02771+02481100851ADDAA106007191AY161061AY221061GF107991041071004501041001MA1999999100341MD1999999-0021MW1211REMSYN082AAXX  03184 82198 21494 72701 10277 20248 30034 40085 72162 84740 333 59002 60071;
0213821980999992007050400004-01717-045400FM-12+004499999V0200501N001510042019N0002001N1+02511+02381101111ADDAA106000591AY121061AY221061GF107991051051004501021001KA1240M+03101MA1999999100601MD1999999-0011MW1531REMSYN100AAXX  04004 82198 21492 70503 10251 20238 30060 40111 75322 85520 333 10310 29089 55038 59001 69941;
0201821980999992007050412004-01717-045400FM-12+004499999V0201601N002610450019N0005001N1+02441+02371101241ADDAA124023991AY161061AY221061GF108991041071004501011999KA1240N+02151MA1999999100731MD1999999+0001MW1621REMSYN088AAXX  04124 82198 21493 81605 10244 20237 30073 40124 76262 8471/ 333 20215 58000 60244;
0182821980999992007050418004-01717-045400FM-12+004499999V0200501N002610450019N0010001N1+03121+02481100751ADDAA106000021AY151061AY221061GF105991031021004501041001MA1999999100241MD1999999-0101MW1011REMSYN082AAXX  04184 82198 21494 50505 10312 20248 30024 40075 70152 83240 333 59010 69921;
0168821980999992007050500004-01717-045400FM-12+004499999V0200701N002112200019N0002001N1+02641+02481100991ADDGF104991031021004501061001KA1240M+03231MA1999999100481MD1999999-0121REMSYN088AAXX  05004 82198 32492 40704 10264 20248 30048 40099 83260 333 10323 29086 55039 59012;
0173821980999992007050512004-01717-045400FM-12+004499999V0200701N003612200019N0010001N1+02901+02481100971ADDAA124000021GF105991041021004501001011KA1240N+02211MA1999999100461MD1999999-0271REMSYN082AAXX  05124 82198 22494 50707 10290 20248 30046 40097 84201 333 20221 59027 69924;
0182821980999992007050518004-01717-045400FM-12+004499999V0200501N001010450019N0010001N1+02951+02561100651ADDAA106008991AY161061AY221061GF107991041031004501041001MA1999999100141MD1999999-0101MW1021REMSYN082AAXX  05184 82198 21494 70502 10295 20256 30014 40065 70262 84340 333 59010 60091;
0196821980999992007050600004-01717-045400FM-12+004499999V0200501N001010450019N0002001N1+02671+02481100891ADDAY191061AY221061GF106991031031004501061001KA1240M+03021MA1999999100381MD1999999-0101MW1131REMSYN094AAXX  06004 82198 31492 60502 10267 20248 30038 40089 71392 83360 333 10302 29084 55024 59010;
0201821980999992007050612004-01717-045400FM-12+004499999V0200901N002110450019N0010001N1+02731+02501100941ADDAA124019191AY161061AY251061GF107991031011004501041021KA1240N+02211MA1999999100431MD1999999-0031MW1021REMSYN088AAXX  06124 82198 21494 70904 10273 20250 30043 40094 70265 83142 333 20221 59003 60194;
0165821980999992007050618004-01717-045400FM-12+004499999V0200501N004610042019N0010001N1+02891+02501100631ADDAY191061AY221061GF107991051071004501041001MA1999999100121MD1999999-0021MW1151REMSYN076AAXX  06184 82198 31494 70509 10289 20250 30012 40063 71592 85740 333 59002;
0201821980999992007050712004-01717-045400FM-12+004499999V0200901N001510450019N0010001N1+03001+02681100921ADDAA124007991AY161061AY221061GF107991041021004501031001KA1240N+02231MA1999999100411MD1999999-0021MW1031REMSYN088AAXX  07124 82198 21494 70903 10300 20268 30041 40092 70362 84230 333 20223 59002 60084;
0182821980999992007050718004-01717-045400FM-12+004499999V0203601N002610042019N0010001N1+02701+02481100691ADDAA106003091AY161061AY221061GF107991051021004501091001MA1999999100181MD1999999+0061MW1211REMSYN082AAXX  07184 82198 21494 73605 10270 20248 30018 40069 72162 85290 333 58006 60031;
0168821980999992007050800004-01717-045400FM-12+004499999V0200701N001010042019N0002001N1+02621+02481100931ADDGF108991051051004501041999KA1240M+03081MA1999999100421MD1999999+0091REMSYN088AAXX  08004 82198 32492 80702 10262 20248 30042 40093 8554/ 333 10308 29089 55009 58009;
0201821980999992007050812004-01717-045400FM-12+004499999V0209999C000010450019N0005001N1+02861+02541101031ADDAA124003091AY141061AY221061GF107991031071004501061011KA1240N+02201MA1999999100521MD1999999+0111MW1011REMSYN088AAXX  08124 82198 21493 70000 10286 20254 30052 40103 70142 83761 333 20220 58011 60034;
0182821980999992007050818004-01717-045400FM-12+004499999V0200501N002610450019N0010001N1+02621+02411100831ADDAA106052191AY191061AY261061GF108991041051004501011001MA1999999100321MD1999999+0141MW1171REMSYN082AAXX  08184 82198 21494 80505 10262 20241 30032 40083 71796 84510 333 58014 60521;
0168821980999992007050900004-01717-045400FM-12+004499999V0201801N002110450019N0002001N1+02501+02361101091ADDGF106991041071004501061001KA1240M+02981MA1999999100581MD1999999+0161REMSYN088AAXX  09004 82198 32492 61804 10250 20236 30058 40109 84760 333 10298 29089 55013 58016;
0173821980999992007050912004-01717-045400FM-12+004499999V0203601N001010450019N0010001N1+02751+02521101151ADDAA124052191GF107991041051004501011011KA1240N+02091MA1999999100641MD1999999+0121REMSYN082AAXX  09124 82198 22494 73602 10275 20252 30064 40115 84511 333 20209 58012 60524;
0182821980999992007050918004-01717-045400FM-12+004499999V0203201N001010450019N0010001N1+02731+02461100891ADDAA106002091AY161061AY221061GF108991041071004501011001MA1999999100381MD1999999+0061MW1031REMSYN082AAXX  09184 82198 21494 83202 10273 20246 30038 40089 70362 84710 333 58006 60021;
0168821980999992007051000004-01717-045400FM-12+004499999V0200501N000510042019N0002001N1+02591+02511101131ADDGF108991061011004501061001KA1240M+02891MA1999999100621MD1999999+0041REMSYN088AAXX  10004 82198 32492 80501 10259 20251 30062 40113 86160 333 10289 29090 55001 58004;
0201821980999992007051012004-01717-045400FM-12+004499999V0200501N003110450019N0010001N1+02891+02401101161ADDAA124003091AY161061AY221061GF107991031011004501031011KA1240N+02261MA1999999100651MD1999999+0011MW1011REMSYN088AAXX  10124 82198 21494 70506 10289 20240 30065 40116 70162 83131 333 20226 58001 60034;
0182821980999992007051018004-01717-045400FM-12+004499999V0202501N001010042019N0010001N1+02821+02461100961ADDAA106002091AY191061AY261061GF108991051071004501061001MA1999999100451MD1999999+0071MW1521REMSYN082AAXX  10184 82198 21494 82502 10282 20246 30045 40096 75296 85760 333 58007 60021;
0223821980999992007051100004-01717-045400FM-12+004499999V0200501N002112200019N0002001N1+02611+02441101191ADDAA106003091AY161061AY201061GA1001+999999999GF100991001001999999001001KA1240M+03121MA1999999100681MD1999999+0061MW1011REMSYN094AAXX  11004 82198 21992 00504 10261 20244 30068 40119 70160 333 10312 29086 55019 58006 60031;
0173821980999992007051112004-01717-045400FM-12+004499999V0200901N003110042019N0010001N1+03021+02531101361ADDAA124005191GF106991061021004501001001KA1240N+02221MA1999999100841MD1999999+0191REMSYN082AAXX  11124 82198 22494 60906 10302 20253 30084 40136 86200 333 20222 58019 60054;
0165821980999992007051118004-01717-045400FM-12+004499999V0201801N002110450019N0005001N1+02761+02401101041ADDAY161061AY221061GF107991041071004501061001MA1999999100531MD1999999+0081MW1151REMSYN076AAXX  11184 82198 31493 71804 10276 20240 30053 40104 71562 84760 333 58008;
0201821980999992007051212004-01717-045400FM-12+004499999V0200901N002110042019N0010001N1+02981+02531101491ADDAA124022191AY141061AY221061GF105991051021004501001001KA1240N+02111MA1999999100971MD1999999+0131MW1031REMSYN088AAXX  12124 82198 21494 50904 10298 20253 30097 40149 70342 85200 333 20211 58013 60224;
0182821980999992007051218004-01717-045400FM-12+004499999V0203201N002110450019N0010001N1+02781+02361101211ADDAA106005191AY191061AY261061GF107991041071004501061001MA1999999100701MD1999999+0171MW1171REMSYN082AAXX  12184 82198 21494 73204 10278 20236 30070 40121 71796 84760 333 58017 60051;
0196821980999992007051300004-01717-045400FM-12+004499999V0202501N001510042019N0002001N1+02461+02301101501ADDAY121061AY221061GF107991051021004501061001KA1240M+03101MA1999999100991MD1999999+0111MW1131REMSYN094AAXX  13004 82198 31492 72503 10246 20230 30099 40150 71322 85260 333 10310 29084 55062 58011;
0201821980999992007051312004-01717-045400FM-12+004499999V0200701N002610450019N0010001N1+02711+02281101421ADDAA124014091AY161061AY221061GF105991031021004501031091KA1240N+02131MA1999999100901MD1999999-0071MW1011REMSYN088AAXX  13124 82198 21494 50705 10271 20228 30090 40142 70162 83239 333 20213 59007 60144;
0182821980999992007051318004-01717-045400FM-12+004499999V0202301N001010450019N0010001N1+02741+02521101111ADDAA106007991AY161061AY221061GF107991041051004501061001MA1999999100601MD1999999-0101MW1031REMSYN082AAXX  13184 82198 21494 72302 10274 20252 30060 40111 70362 84560 333 59010 60081;
0201821980999992007051412004-01717-045400FM-12+004499999V0200901N001010450019N0010001N1+02811+02601101381ADDAA124007991AY141061AY221061GF106991041071004501031011KA1240N+02191MA1999999100861MD1999999-0041MW1031REMSYN088AAXX  14124 82198 21494 60902 10281 20260 30086 40138 70342 84731 333 20219 59004 60084;
0182821980999992007051418004-01717-045400FM-12+004499999V0200501N003610450019N0005001N1+02811+02311101021ADDAA106004191AY191061AY261061GF107991041071004501011041MA1999999100511MD1999999-0091MW1211REMSYN082AAXX  14184 82198 21493 70507 10281 20231 30051 40102 72196 84714 333 59009 60041;
0213821980999992007051500004-01717-045400FM-12+004499999V0201801N002110042019N0002001N1+02411+02301101291ADDAA106024991AY191061AY261061GF108991061071004501021999KA1240M+03151MA1999999100781MD1999999-0011MW1631REMSYN100AAXX  15004 82198 21492 81804 10241 20230 30078 40129 76396 8672/ 333 10315 29088 55033 59001 60251;
0201821980999992007051512004-01717-045400FM-12+004499999V0201101N002110450019N0010001N1+02901+02501101291ADDAA124031091AY161061AY221061GF105991041021004501061001KA1240N+02081MA1999999100781MD1999999-0081MW1021REMSYN088AAXX  15124 82198 21494 51104 10290 20250 30078 40129 70262 84260 333 20208 59008 60314;
0182821980999992007051518004-01717-045400FM-12+004499999V0202301N002610042019N0010001N1+02421+02281100991ADDAA106007991AY191061AY261061GF107991051071004501011001MA1999999100481MD1999999-0031MW1621REMSYN082AAXX  15184 82198 21494 72305 10242 20228 30048 40099 76296 85710 333 59003 60081;
0173821980999992007051612004-01717-045400FM-12+004499999V0200901N004610042019N0010001N1+02941+02491101181ADDAA124007991GF105991051021004501001001KA1240N+02091MA1999999100671MD1999999-0111REMSYN082AAXX  16124 82198 22494 50909 10294 20249 30067 40118 85200 333 20209 59011 60084;
0178821980999992007051700004-01717-045400FM-12+004499999V0200501N003112200019N0002001N1+02641+02441101061ADDGA1001+999999999GF100991001001999999001001KA1240M+03331MA1999999100551MD1999999-0041REMSYN082AAXX  17004 82198 32992 00506 10264 20244 30055 40106 333 10333 29078 55103 59004;
0156821980999992007051712004-01717-045400FM-12+004499999V0200501N003610042019N0010001N1+03041+02521101141ADDGF105991051021004501001001KA1240N+02251MA1999999100631MD1999999-0041REMSYN076AAXX  17124 82198 32494 50507 10304 20252 30063 40114 85200 333 20225 59004;
0182821980999992007051718004-01717-045400FM-12+004499999V0200901N003612200019N0010001N1+02981+02471100771ADDAA106000021AY121061AY211061GF103991021011004501041001MA1999999100261MD1999999-0041MW1531REMSYN082AAXX  17184 82198 21494 30907 10298 20247 30026 40077 75321 82140 333 59004 69921;
0173821980999992007051812004-01717-045400FM-12+004499999V0201101N003610042019N0010001N1+03001+02491101141ADDAA124000021GF105991051011004501001001KA1240N+02271MA1999999100631MD1999999+0001REMSYN082AAXX  18124 82198 22494 51107 10300 20249 30063 40114 85100 333 20227 58000 69924;
0182821980999992007051818004-01717-045400FM-12+004499999V0200501N002110450019N0010001N1+02971+02421100851ADDAA106000591AY151061AY221061GF106991031021004501061001MA1999999100341MD1999999+0081MW1021REMSYN082AAXX  18184 82198 21494 60504 10297 20242 30034 40085 70252 83260 333 58008 69941;
0168821980999992007051900004-01717-045400FM-12+004499999V0201101N001010450019N0002001N1+02701+02411101121ADDGF106991041021004501041001KA1240M+03341MA1999999100611MD1999999+0081REMSYN088AAXX  19004 82198 32492 61102 10270 20241 30061 40112 84240 333 10334 29078 55060 58008;
0201821980999992007051912004-01717-045400FM-12+004499999V0201601N002612200019N0020001N1+02861+02371101141ADDAA124018091AY161061AY221061GF104991011011008001031021KA1240N+02051MA1999999100631MD1999999+0001MW1021REMSYN088AAXX  19124 82198 21595 41605 10286 20237 30063 40114 70262 81132 333 20205 58000 60184;
0182821980999992007051918004-01717-045400FM-12+004499999V0203601N002612200019N0010001N1+02941+02541100761ADDAA106007991AY161061AY251061GF104991041021004501001001MA1999999100251MD1999999-0091MW1631REMSYN082AAXX  19184 82198 21494 43605 10294 20254 30025 40076 76365 84200 333 59009 60081;
0213821980999992007052000004-01717-045400FM-12+004499999V0200501N002110042019N0002001N1+02681+02461100991ADDAA106000591AY151061AY221061GF106991051071004501041001KA1240M+03331MA1999999100481MD1999999-0131MW1021REMSYN100AAXX  20004 82198 21492 60504 10268 20246 30048 40099 70252 85740 333 10333 29082 55061 59013 69961;
0173821980999992007052012004-01717-045400FM-12+004499999V0200901N003610042019N0010001N1+02931+02541101181ADDAA124008991GF106991051021004501061001KA1240N+02301MA1999999100671MD1999999+0041REMSYN082AAXX  20124 82198 22494 60907 10293 20254 30067 40118 85260 333 20230 58004 60094;
0182821980999992007052018004-01717-045400FM-12+004499999V0200201N001510450019N0010001N1+02681+02481100871ADDAA106013091AY191061AY261061GF107991041021004501041001MA1999999100361MD1999999+0111MW1021REMSYN082AAXX  20184 82198 21494 70203 10268 20248 30036 40087 70296 84240 333 58011 60131;
0168821980999992007052100004-01717-045400FM-12+004499999V0200901N001010450019N0002001N1+02631+02481101091ADDGF105991031011004501061001KA1240M+03071MA1999999100581MD1999999+0101REMSYN088AAXX  21004 82198 32492 50902 10263 20248 30058 40109 83160 333 10307 29088 55017 58010;
0173821980999992007052112004-01717-045400FM-12+004499999V0200901N004610042019N0010001N1+02951+02641101081ADDAA124013091GF106991051021004501061001KA1240N+02221MA1999999100571MD1999999-0101REMSYN082AAXX  21124 82198 22494 60909 10295 20264 30057 40108 85260 333 20222 59010 60134;
0137821980999992007052118004-01717-045400FM-12+004499999V0200901N005110450019N0010001N1+03141+02431100771ADDGF105991041021004501041001MA1999999100261MD1999999-0101REMSYN070AAXX  21184 82198 32494 50910 10314 20243 30026 40077 84240 333 59010;
0168821980999992007052200004-01717-045400FM-12+004499999V0200501N002612200019N0002001N1+02651+02481100981ADDGF102991021001012501061001KA1240M+03341MA1999999100471MD1999999-0111REMSYN088AAXX  22004 82198 32692 20505 10265 20248 30047 40098 82060 333 10334 29082 55096 59011;
0184821980999992007052212004-01717-045400FM-12+004499999V0201101N004110450019N0010001N1+02831+02271101081ADDAY141061AY221061GF107991041071004501061011KA1240N+02281MA1999999100571MD1999999+0001MW1031REMSYN082AAXX  22124 82198 31494 71108 10283 20227 30057 40108 70342 84761 333 20228 58000;
0137821980999992007052218004-01717-045400FM-12+004499999V0200901N003610450019N0010001N1+03151+02461100691ADDGF105991031021004501041061MA1999999100181MD1999999-0081REMSYN070AAXX  22184 82198 32494 50907 10315 20246 30018 40069 83246 333 59008;
0201821980999992007052412004-01717-045400FM-12+004499999V0200901N002612200019N0010001N1+02921+02431101261ADDAA124006191AY141061AY221061GF103991021021004501001011KA1240N+02111MA1999999100751MD1999999+0141MW1021REMSYN088AAXX  24124 82198 21494 30905 10292 20243 30075 40126 70242 82201 333 20211 58014 60064;
0196821980999992007052500004-01717-045400FM-12+004499999V0200501N003612200019N0002001N1+02641+02331101181ADDAY121061AY211061GF102991011011004501001011KA1240M+03341MA1999999100671MD1999999+0121MW1131REMSYN094AAXX  25004 82198 31492 20507 10264 20233 30067 40118 71321 81101 333 10334 29076 55100 58012;
0203821980999992007052512004-01717-045400FM-12+004499999V0200501N004110042019N0010001N1+03001+02461101181ADDAY141061AY221061GF106991999021004501001001KA1240N+02201MA1999999100671MD1999999-0081MW1031REMSYN082AAXX  25124 82198 31494 60508 10300 20246 30067 40118 70342 85200 333 20220 59008;EQDQ01+000052SCOTLC
0137821980999992007052518004-01717-045400FM-12+004499999V0201401N003110450019N0010001N1+03121+02481100801ADDGF105991031021004501061001MA1999999100291MD1999999-0161REMSYN070AAXX  25184 82198 32494 51406 10312 20248 30029 40080 83260 333 59016;
0168821980999992007052600004-01717-045400FM-12+004499999V0200701N005112200019N0002001N1+02701+02451101061ADDGF103991011011004501041041KA1240M+03401MA1999999100551MD1999999-0121REMSYN088AAXX  26004 82198 32492 30710 10270 20245 30055 40106 81144 333 10340 29078 55081 59012;
0201821980999992007052612004-01717-045400FM-12+004499999V0203601N002110450019N0005001N1+02371+02261101191ADDAA124003091AY191061AY261061GF108991041071004501021001KA1240N+02101MA1999999100681MD1999999+0011MW1631REMSYN088AAXX  26124 82198 21493 83604 10237 20226 30068 40119 76396 84720 333 20210 58001 60034;
0201821980999992007052712004-01717-045400FM-12+004499999V0200901N004610450019N0010001N1+02921+02451101231ADDAA124009991AY141061AY221061GF106991031021004501061011KA1240N+02091MA1999999100721MD1999999+0041MW1031REMSYN088AAXX  27124 82198 21494 60909 10292 20245 30072 40123 70342 83261 333 20209 58004 60104;
0137821980999992007052718004-01717-045400FM-12+004499999V0200701N006212200019N0010001N1+03151+02461100971ADDGF105991031021004501001011MA1999999100461MD1999999+0051REMSYN070AAXX  27184 82198 32494 50712 10315 20246 30046 40097 83201 333 58005;
0168821980999992007052800004-01717-045400FM-12+004499999V0200701N002612200019N0002001N1+02661+02391101191ADDGF102991021011004501001001KA1240M+03281MA1999999100681MD1999999+0011REMSYN088AAXX  28004 82198 32492 20705 10266 20239 30068 40119 82100 333 10328 29078 55092 58001;
0220821980999992007052812004-01717-045400FM-12+004499999V0200901N003610450019N0010001N1+03031+02681101311ADDAA124000091AY121061AY211061GF106991031021004501061011KA1240N+02271MA1999999100801MD1999999+0081MW1031REMSYN088AAXX  28124 82198 21494 60907 10303 20268 30080 40131 70321 83261 333 20227 58008 69904;EQDQ01  00002PRCP24
0137821980999992007052818004-01717-045400FM-12+004499999V0200901N004110450019N0010001N1+03171+02271100901ADDGF105991031021004501041041MA1999999100391MD1999999-0071REMSYN070AAXX  28184 82198 32494 50908 10317 20227 30039 40090 83244 333 59007;
0196821980999992007052900004-01717-045400FM-12+004499999V0200501N002112200019N0002001N1+02661+02391101251ADDAY191061AY201061GF103991011021004501041061KA1240M+03321MA1999999100741MD1999999+0061MW1171REMSYN094AAXX  29004 82198 31492 30504 10266 20239 30074 40125 71790 81246 333 10332 29078 55103 58006;
0156821980999992007052912004-01717-045400FM-12+004499999V0200901N002610042019N0010001N1+03011+02511101271ADDGF105991051021004501001001KA1240N+02311MA1999999100761MD1999999-0041REMSYN076AAXX  29124 82198 32494 50905 10301 20251 30076 40127 85200 333 20231 59004;
0182821980999992007052918004-01717-045400FM-12+004499999V0201101N001510450019N0010001N1+03021+02461100971ADDAA106003091AY191061AY261061GF106991041031004501041001MA1999999100461MD1999999+0071MW1151REMSYN082AAXX  29184 82198 21494 61103 10302 20246 30046 40097 71596 84340 333 58007 60031;
0196821980999992007053000004-01717-045400FM-12+004499999V0200501N001512200019N0002001N1+02621+02421101181ADDAY191061AY201061GF104991021011004501041001KA1240M+03131MA1999999100671MD1999999-0071MW1011REMSYN094AAXX  30004 82198 31492 40503 10262 20242 30067 40118 70190 82140 333 10313 29081 55055 59007;
0173821980999992007053012004-01717-045400FM-12+004499999V0201101N002610450019N0010001N1+02981+02551101321ADDAA124003091GF105991041021004501061001KA1240N+02251MA1999999100811MD1999999+0051REMSYN082AAXX  30124 82198 22494 51105 10298 20255 30081 40132 84260 333 20225 58005 60034;
0182821980999992007053018004-01717-045400FM-12+004499999V0202001N001510042019N0005001N1+02541+02381101051ADDAA106013091AY161061AY221061GF108991051051004501021999MA1999999100541MD1999999+0081MW1621REMSYN082AAXX  30184 82198 21493 82003 10254 20238 30054 40105 76262 8552/ 333 58008 60131;
0173821980999992007053112004-01717-045400FM-12+004499999V0200501N003610042019N0010001N1+02991+02511101281ADDAA124018091GF105991051021004501001001KA1240N+02151MA1999999100771MD1999999-0041REMSYN082AAXX  31124 82198 22494 50507 10299 20251 30077 40128 85200 333 20215 59004 60184;
0137821980999992007053118004-01717-045400FM-12+004499999V0200901N004610450019N0010001N1+03171+02471100921ADDGF105991041021004501041001MA1999999100411MD1999999-0131REMSYN070AAXX  31184 82198 32494 50909 10317 20247 30041 40092 84240 333 59013;
0201821980999992007060112004-01717-045400FM-12+004499999V0200901N002110450019N0010001N1+02691+02451101321ADDAA124010991AY161061AY221061GF106991021011004501061011KA1240N+02081MA1999999100811MD1999999+0041MW1031REMSYN088AAXX  01124 82198 21494 60904 10269 20245 30081 40132 70362 82161 333 20208 58004 60114;
0182821980999992007060118004-01717-045400FM-12+004499999V0201101N002110450019N0010001N1+02441+02301101051ADDAA106015091AY191061AY261061GF107991041071004501041001MA1999999100541MD1999999+0131MW1621REMSYN082AAXX  01184 82198 21494 71104 10244 20230 30054 40105 76296 84740 333 58013 60151;
0168821980999992007060200004-01717-045400FM-12+004499999V0201801N003112200019N0002001N1+02421+02321101331ADDGF102991021001012501041001KA1240M+02811MA1999999100821MD1999999+0151REMSYN088AAXX  02004 82198 32692 21806 10242 20232 30082 40133 82040 333 10281 29092 55007 58015;
0173821980999992007060212004-01717-045400FM-12+004499999V0201101N001510450019N0010001N1+02621+02371101341ADDAA124015091GF106991021021004501061001KA1240N+02031MA1999999100831MD1999999+0021REMSYN082AAXX  02124 82198 22494 61103 10262 20237 30083 40134 82260 333 20203 58002 60154;
0182821980999992007060218004-01717-045400FM-12+004499999V0200901N004112200019N0010001N1+02971+02371101041ADDAA106004191AY161061AY221061GF104991041021004501001001MA1999999100531MD1999999-0031MW1021REMSYN082AAXX  02184 82198 21494 40908 10297 20237 30053 40104 70262 84200 333 59003 60041;
0168821980999992007060300004-01717-045400FM-12+004499999V0200501N001512200019N0002001N1+02601+02271101211ADDGF102991021001012501061001KA1240M+03181MA1999999100701MD1999999-0121REMSYN088AAXX  03004 82198 32692 20503 10260 20227 30070 40121 82060 333 10318 29080 55074 59012;
0173821980999992007060312004-01717-045400FM-12+004499999V0201101N002612200019N0010001N1+02921+02431101391ADDAA124004191GF103991031011004501001001KA1240N+02031MA1999999100881MD1999999+0051REMSYN082AAXX  03124 82198 22494 31105 10292 20243 30088 40139 83100 333 20203 58005 60044;
0182821980999992007060318004-01717-045400FM-12+004499999V0200501N001510450019N0010001N1+02691+02391101171ADDAA106007991AY161061AY221061GF105991031021004501041001MA1999999100661MD1999999+0151MW1211REMSYN082AAXX  03184 82198 21494 50503 10269 20239 30066 40117 72162 83240 333 58015 60081;
0178821980999992007060400004-01717-045400FM-12+004499999V0200501N001512200019N0002001N1+02561+02421101341ADDGA1001+999999999GF100991001001999999001001KA1240M+03281MA1999999100831MD1999999+0131REMSYN082AAXX  04004 82198 32992 00503 10256 20242 30083 40134 333 10328 29086 55064 58013;
0173821980999992007060412004-01717-045400FM-12+004499999V0200901N004610042019N0010001N1+02981+02551101331ADDAA124007991GF106991061021004501001001KA1240N+02191MA1999999100821MD1999999-0061REMSYN082AAXX  04124 82198 22494 60909 10298 20255 30082 40133 86200 333 20219 59006 60084;
0182821980999992007060418004-01717-045400FM-12+004499999V0202701N003110042019N0002001N1+02521+02361101181ADDAA106017091AY191061AY261061GF108991051071004501021999MA1999999100671MD1999999+0011MW1211REMSYN082AAXX  04184 82198 21492 82706 10252 20236 30067 40118 72196 8572/ 333 58001 60171;
0213821980999992007060500004-01717-045400FM-12+004499999V0200501N002112200019N0002001N1+02531+02451101371ADDAA106022191AY191061AY261061GF103991021011004501061001KA1240M+03261MA1999999100861MD1999999+0031MW1011REMSYN100AAXX  05004 82198 21492 30504 10253 20245 30086 40137 70196 82160 333 10326 29090 55056 58003 60221;
0173821980999992007060512004-01717-045400FM-12+004499999V0200901N003112200019N0010001N1+02931+02411101461ADDAA124039191GF103991021021004501031001KA1240N+02161MA1999999100941MD1999999+0121REMSYN082AAXX  05124 82198 22494 30906 10293 20241 30094 40146 82230 333 20216 58012 60394;
0137821980999992007060518004-01717-045400FM-12+004499999V0200501N005112200019N0010001N1+03031+02241101171ADDGF104991041021004501001001MA1999999100661MD1999999-0011REMSYN070AAXX  05184 82198 32494 40510 10303 20224 30066 40117 84200 333 59001;
0168821980999992007060600004-01717-045400FM-12+004499999V0200501N002112200019N0002001N1+02561+02251101411ADDGF101991011011004501001001KA1240M+03131MA1999999100891MD1999999+0031REMSYN088AAXX  06004 82198 32492 10504 10256 20225 30089 40141 81100 333 10313 29076 55099 58003;
0156821980999992007060612004-01717-045400FM-12+004499999V0200501N003110042019N0010001N1+02931+02271101441ADDGF105991051021004501001001KA1240N+02111MA1999999100921MD1999999-0021REMSYN076AAXX  06124 82198 32494 50506 10293 20227 30092 40144 85200 333 20211 59002;
0165821980999992007060618004-01717-045400FM-12+004499999V0203601N004110450019N0010001N1+03021+02291101201ADDAY121061AY221061GF105991031021004501061001MA1999999100691MD1999999+0031MW1151REMSYN076AAXX  06184 82198 31494 53608 10302 20229 30069 40120 71522 83260 333 58003;
0178821980999992007060700004-01717-045400FM-12+004499999V0200501N002612200019N0002001N1+02601+02311101311ADDGA1001+999999999GF100991001001999999001001KA1240M+03311MA1999999100801MD1999999-0091REMSYN082AAXX  07004 82198 32992 00505 10260 20231 30080 40131 333 10331 29076 55092 59009;
0156821980999992007060712004-01717-045400FM-12+004499999V0200901N003110450019N0010001N1+02861+02371101271ADDGF106991041021004501061001KA1240N+02121MA1999999100761MD1999999-0161REMSYN076AAXX  07124 82198 32494 60906 10286 20237 30076 40127 84260 333 20212 59016;
0182821980999992007060718004-01717-045400FM-12+004499999V0200901N002610450019N0005001N1+02971+02511101011ADDAA106016091AY191061AY261061GF107991031071004501061041MA1999999100501MD1999999-0191MW1171REMSYN082AAXX  07184 82198 21493 70905 10297 20251 30050 40101 71796 83764 333 59019 60161;
0178821980999992007060800004-01717-045400FM-12+004499999V0200501N000512200019N0002001N1+02581+02381101231ADDGA1001+999999999GF100991001001999999001001KA1240M+03141MA1999999100721MD1999999-0081REMSYN082AAXX  08004 82198 32992 00501 10258 20238 30072 40123 333 10314 29065 55045 59008;
0173821980999992007060812004-01717-045400FM-12+004499999V0200501N005110450019N0010001N1+02971+02421101291ADDAA124016091GF106991031021004501061011KA1240N+02171MA1999999100781MD1999999+0021REMSYN082AAXX  08124 82198 22494 60510 10297 20242 30078 40129 83261 333 20217 58002 60164;
0182821980999992007060818004-01717-045400FM-12+004499999V0200901N006710450019N0010001N1+02991+02191100981ADDAA106000391AY151061AY221061GF106991031051004501041061MA1999999100471MD1999999-0031MW1021REMSYN082AAXX  08184 82198 21494 60913 10299 20219 30047 40098 70252 83546 333 59003 69931;
0168821980999992007060900004-01717-045400FM-12+004499999V0200501N002112200019N0002001N1+02611+02331101191ADDGF101991011011004501001001KA1240M+03241MA1999999100681MD1999999-0041REMSYN088AAXX  09004 82198 32492 10504 10261 20233 30068 40119 81100 333 10324 29076 55071 59004;
0173821980999992007060912004-01717-045400FM-12+004499999V0200901N002112200019N0010001N1+02851+02291101261ADDAA124000391GF104991021021004501061041KA1240N+02201MA1999999100751MD1999999-0031REMSYN082AAXX  09124 82198 22494 40904 10285 20229 30075 40126 82264 333 20220 59003 69934;
0182821980999992007060918004-01717-045400FM-12+004499999V0200701N005110450019N0010001N1+02911+02171100971ADDAA106001091AY161061AY221061GF106991031021004501041061MA1999999100461MD1999999-0011MW1031REMSYN082AAXX  09184 82198 21494 60710 10291 20217 30046 40097 70362 83246 333 59001 60011;
0201821980999992007061012004-01717-045400FM-12+004499999V0200901N004610450019N0010001N1+02941+02361101281ADDAA124003091AY161061AY221061GF105991031021004501061011KA1240N+02161MA1999999100771MD1999999+0021MW1031REMSYN088AAXX  10124 82198 21494 50909 10294 20236 30077 40128 70362 83261 333 20216 58002 60034;
0182821980999992007061018004-01717-045400FM-12+004499999V0200901N005110042019N0010001N1+03251+02151101001ADDAA106001091AY161061AY221061GF105991051021004501001001MA1999999100491MD1999999+0031MW1021REMSYN082AAXX  10184 82198 21494 50910 10325 20215 30049 40100 70262 85200 333 58003 60011;
0206821980999992007061100004-01717-045400FM-12+004499999V0200901N002112200019N0002001N1+02571+02311101241ADDAY121061AY201061GA1001+999999999GF100991001001999999001001KA1240M+03281MA1999999100731MD1999999+0071MW1131REMSYN088AAXX  11004 82198 31992 00904 10257 20231 30073 40124 71320 333 10328 29073 55102 58007;
0201821980999992007061112004-01717-045400FM-12+004499999V0203601N003610450019N0005001N1+02611+02421101281ADDAA124001091AY141061AY251061GF106991031071004501061001KA1240N+02081MA1999999100771MD1999999+0001MW1151REMSYN088AAXX  11124 82198 21493 63607 10261 20242 30077 40128 71545 83760 333 20208 58000 60014;
0182821980999992007061118004-01717-045400FM-12+004499999V0209999C000010450019N0005001N1+02531+02311101011ADDAA106031091AY191061AY261061GF107991041071004501011061MA1999999100501MD1999999+0011MW1211REMSYN082AAXX  11184 82198 21493 70000 10253 20231 30050 40101 72196 84716 333 58001 60311;
0168821980999992007061200004-01717-045400FM-12+004499999V0209999C000012200019N0002001N1+02491+02281101221ADDGF101991011011004501001001KA1240M+02831MA1999999100711MD1999999-0021REMSYN088AAXX  12004 82198 32492 10000 10249 20228 30071 40122 81100 333 10283 29091 55019 59002;
0173821980999992007061212004-01717-045400FM-12+004499999V0200701N003110042019N0010001N1+02951+02491101191ADDAA124031091GF105991051021004501001001KA1240N+02031MA1999999100681MD1999999-0091REMSYN082AAXX  12124 82198 22494 50706 10295 20249 30068 40119 85200 333 20203 59009 60314;
0137821980999992007061218004-01717-045400FM-12+004499999V0200501N004110450019N0010001N1+02991+02371100921ADDGF105991041021004501041001MA1999999100411MD1999999-0091REMSYN070AAXX  12184 82198 32494 50508 10299 20237 30041 40092 84240 333 59009;
0168821980999992007061300004-01717-045400FM-12+004499999V0200501N002112200019N0002001N1+02641+02391101171ADDGF103991021011004501061001KA1240M+03321MA1999999100661MD1999999-0051REMSYN088AAXX  13004 82198 32492 30504 10264 20239 30066 40117 82160 333 10332 29080 55083 59005;
0156821980999992007061312004-01717-045400FM-12+004499999V0200901N005112200019N0010001N1+02931+02451101191ADDGF104991031011004501061001KA1240N+02211MA1999999100681MD1999999+0001REMSYN076AAXX  13124 82198 32494 40910 10293 20245 30068 40119 83160 333 20221 58000;
0137821980999992007061318004-01717-045400FM-12+004499999V0200701N006710450019N0010001N1+03121+02281100901ADDGF105991031021004501061011MA1999999100391MD1999999-0021REMSYN070AAXX  13184 82198 32494 50713 10312 20228 30039 40090 83261 333 59002;
0178821980999992007061400004-01717-045400FM-12+004499999V0200501N002112200019N0002001N1+02591+02291101141ADDGA1001+999999999GF100991001001999999001001KA1240M+03281MA1999999100631MD1999999-0031REMSYN082AAXX  14004 82198 32992 00504 10259 20229 30063 40114 333 10328 29076 55085 59003;
0156821980999992007061412004-01717-045400FM-12+004499999V0200501N004612200019N0010001N1+02991+02491101141ADDGF104991041021004501001001KA1240N+02121MA1999999100641MD1999999-0041REMSYN076AAXX  14124 82198 32494 40509 10299 20249 30064 40114 84200 333 20212 59004;
0182821980999992007061418004-01717-045400FM-12+004499999V0200901N003610450019N0010001N1+02831+02461100871ADDAA106002091AY161061AY221061GF105991031021004501061001MA1999999100361MD1999999-0031MW1021REMSYN082AAXX  14184 82198 21494 50907 10283 20246 30036 40087 70262 83260 333 59003 60021;
0197821980999992007061500004-01717-045400FM-12+004499999V0200501N002112200019N0002001N1+02601+02311103142ADDGA1001+999999999GF100991001001999999001001KA1240M+03141MA1999999101021MD1999999-0121REMSYN082AAXX  15004 82198 32992 00504 10260 20231 30102 40314 333 10314 29081 55068 59012;EQDQ01+103143APOSLP
0173821980999992007061512004-01717-045400FM-12+004499999V0200901N004610450019N0010001N1+02881+02391101151ADDAA124002091GF106991031011004501031001KA1240N+02171MA1999999100641MD1999999+0001REMSYN082AAXX  15124 82198 22494 60909 10288 20239 30064 40115 83130 333 20217 58000 60024;
0182821980999992007061518004-01717-045400FM-12+004499999V0200901N005110450019N0010001N1+03011+02321100901ADDAA106001091AY161061AY221061GF106991041021004501041001MA1999999100391MD1999999+0031MW1021REMSYN082AAXX  15184 82198 21494 60910 10301 20232 30039 40090 70262 84240 333 58003 60011;
0178821980999992007061600004-01717-045400FM-12+004499999V0200501N001512200019N0002001N1+02601+02351101151ADDGA1001+999999999GF100991001001999999001001KA1240M+03201MA1999999100641MD1999999+0131REMSYN082AAXX  16004 82198 32992 00503 10260 20235 30064 40115 333 10320 29078 55076 58013;
0173821980999992007061612004-01717-045400FM-12+004499999V0200701N004612200019N0010001N1+02921+02391101241ADDAA124001091GF104991041011004501001001KA1240N+02161MA1999999100731MD1999999+0091REMSYN082AAXX  16124 82198 22494 40709 10292 20239 30073 40124 84100 333 20216 58009 60014;
0137821980999992007061618004-01717-045400FM-12+004499999V0200701N005112200019N0010001N1+03161+02171100991ADDGF104991021021004501041011MA1999999100481MD1999999+0091REMSYN070AAXX  16184 82198 32494 40710 10316 20217 30048 40099 82241 333 58009;
0178821980999992007061700004-01717-045400FM-12+004499999V0200501N002112200019N0002001N1+02641+02351101231ADDGA1001+999999999GF100991001001999999001001KA1240M+03271MA1999999100721MD1999999+0081REMSYN082AAXX  17004 82198 32992 00504 10264 20235 30072 40123 333 10327 29074 55104 58008;
0156821980999992007061712004-01717-045400FM-12+004499999V0200501N003112200019N0010001N1+03001+02441101241ADDGF103991021011004501041001KA1240N+02191MA1999999100731MD1999999+0001REMSYN076AAXX  17124 82198 32494 30506 10300 20244 30073 40124 82140 333 20219 58000;
0137821980999992007061718004-01717-045400FM-12+004499999V0200701N002110450019N0010001N1+03191+02391101021ADDGF106991041021004501061001MA1999999100511MD1999999+0031REMSYN070AAXX  17184 82198 32494 60704 10319 20239 30051 40102 84260 333 58003;
0168821980999992007061800004-01717-045400FM-12+004499999V0200501N002610450019N0002001N1+02701+02451101291ADDGF106991031041004501061001KA1240M+03381MA1999999100781MD1999999+0061REMSYN088AAXX  18004 82198 32492 60505 10270 20245 30078 40129 83460 333 10338 29077 55078 58006;
0201821980999992007061812004-01717-045400FM-12+004499999V0200901N005110450019N0010001N1+02631+02311101351ADDAA124000891AY151061AY221061GF106991041021004501041001KA1240N+02021MA1999999100841MD1999999+0111MW1201REMSYN088AAXX  18124 82198 21494 60910 10263 20231 30084 40135 72052 84240 333 20202 58011 69984;
0182821980999992007061818004-01717-045400FM-12+004499999V0200701N005710450019N0010001N1+02971+02401101031ADDAA106002091AY161061AY221061GF105991031021004501061021MA1999999100521MD1999999+0011MW1021REMSYN082AAXX  18184 82198 21494 50711 10297 20240 30052 40103 70262 83262 333 58001 60021;
0213821980999992007061900004-01717-045400FM-12+004499999V0200901N001510450019N0002001N1+02481+02321101281ADDAA106000591AY121061AY221061GF106991031071004501041001KA1240M+03081MA1999999100771MD1999999-0011MW1201REMSYN100AAXX  19004 82198 21492 60903 10248 20232 30077 40128 72022 83740 333 10308 29084 55067 59001 69941;
0201821980999992007061912004-01717-045400FM-12+004499999V0209999C000010450019N0005001N1+02531+02341101351ADDAA124007991AY161061AY221061GF107991041051004501061001KA1240N+01991MA1999999100831MD1999999-0011MW1211REMSYN088AAXX  19124 82198 21493 70000 10253 20234 30083 40135 72162 84560 333 20199 59001 60084;
0182821980999992007061918004-01717-045400FM-12+004499999V0209999C000010450019N0005001N1+03011+02371101121ADDAA106003091AY191061AY261061GF106991031051004501041061MA1999999100611MD1999999+0091MW1031REMSYN082AAXX  19184 82198 21493 60000 10301 20237 30061 40112 70396 83546 333 58009 60031;
0168821980999992007062000004-01717-045400FM-12+004499999V0200701N002112200019N0002001N1+02601+02401101331ADDGF102991011011004501011001KA1240M+03161MA1999999100811MD1999999-0041REMSYN088AAXX  20004 82198 32492 20704 10260 20240 30081 40133 81110 333 10316 29084 55059 59004;
0173821980999992007062012004-01717-045400FM-12+004499999V0200701N004610042019N0010001N1+02921+02411101301ADDAA124004191GF106991061021004501001001KA1240N+02181MA1999999100791MD1999999-0041REMSYN082AAXX  20124 82198 22494 60709 10292 20241 30079 40130 86200 333 20218 59004 60044;
0182821980999992007062018004-01717-045400FM-12+004499999V0201601N002110450019N0010001N1+03041+02311101111ADDAA106000591AY161061AY221061GF106991031021004501061041MA1999999100601MD1999999-0011MW1021REMSYN082AAXX  20184 82198 21494 61604 10304 20231 30060 40111 70262 83264 333 59001 69961;
0168821980999992007062100004-01717-045400FM-12+004499999V0200901N001512200019N0002001N1+02651+02351101371ADDGF101991011011004501001001KA1240M+03161MA1999999100851MD1999999+0041REMSYN088AAXX  21004 82198 32492 10903 10265 20235 30085 40137 81100 333 10316 29078 55081 58004;
0173821980999992007062112004-01717-045400FM-12+004499999V0200901N004110042019N0010001N1+02951+02441101361ADDAA124000591GF105991051021004501001001KA1240N+02161MA1999999100841MD1999999+0051REMSYN082AAXX  21124 82198 22494 50908 10295 20244 30084 40136 85200 333 20216 58005 69964;
0182821980999992007062118004-01717-045400FM-12+004499999V0200701N004610450019N0010001N1+03021+02411101081ADDAA106001091AY161061AY221061GF105991031021004501061041MA1999999100571MD1999999-0031MW1021REMSYN082AAXX  21184 82198 21494 50709 10302 20241 30057 40108 70262 83264 333 59003 60011;
0213821980999992007062200004-01717-045400FM-12+004499999V0200901N001010042019N0002001N1+02591+02421101281ADDAA106003091AY161061AY221061GF107991051051004501061001KA1240M+03201MA1999999100771MD1999999-0081MW1031REMSYN100AAXX  22004 82198 21492 70902 10259 20242 30077 40128 70362 85560 333 10320 29080 55067 59008 60031;
0201821980999992007062212004-01717-045400FM-12+004499999V0200501N003110042019N0010001N1+02881+02371101241ADDAA124005191AY161061AY221061GF105991051021004501001001KA1240N+02141MA1999999100731MD1999999-0111MW1011REMSYN088AAXX  22124 82198 21494 50506 10288 20237 30073 40124 70162 85200 333 20214 59011 60054;
0137821980999992007062218004-01717-045400FM-12+004499999V0200901N003610450019N0010001N1+03021+02211100961ADDGF106991031021004501061001MA1999999100451MD1999999-0121REMSYN070AAXX  22184 82198 32494 60907 10302 20221 30045 40096 83260 333 59012;
0168821980999992007062300004-01717-045400FM-12+004499999V0200501N002112200019N0002001N1+02601+02271101141ADDGF102991021011004501001001KA1240M+03241MA1999999100631MD1999999-0141REMSYN088AAXX  23004 82198 32492 20504 10260 20227 30063 40114 82100 333 10324 29075 55095 59014;
0220821980999992007062312004-01717-045400FM-12+004499999V0200501N003110042019N0010001N1+02951+02391101051ADDAA124000091AY101061AY211061GF105991051021004501001001KA1240N+02071MA1999999100541MD1999999-0191MW1031REMSYN088AAXX  23124 82198 21494 50506 10295 20239 30054 40105 70301 85200 333 20207 59019 69904;EQDQ01  00002PRCP24
0201821980999992007062318004-01717-045400FM-12+004499999V0200901N005110450019N0010001N1+02931+02151100901ADDAA106000091AY151061AY221061GF105991031021004501061001MA1999999100391MD1999999-0061MW1021REMSYN082AAXX  23184 82198 21494 50910 10293 20215 30039 40090 70252 83260 333 59006 69911;EQDQ01  00002PRCP06
0168821980999992007062400004-01717-045400FM-12+004499999V0200901N002110042019N0002001N1+02641+02291101171ADDGF107991051021004501031001KA1240M+03141MA1999999100661MD1999999+0031REMSYN088AAXX  24004 82198 32492 70904 10264 20229 30066 40117 85230 333 10314 29074 55079 58003;
0192821980999992007062412004-01717-045400FM-12+004499999V0200501N003610450019N0005001N1+02931+02461101231ADDAA124000091GF106991041051004501061001KA1240N+02211MA1999999100721MD1999999+0181REMSYN082AAXX  24124 82198 22493 60507 10293 20246 30072 40123 84560 333 20221 58018 69914;EQDQ01  00002PRCP24
0165821980999992007062418004-01717-045400FM-12+004499999V0200901N003110450019N0005001N1+03131+02341100971ADDAY161061AY221061GF106991041021004501061001MA1999999100461MD1999999+0071MW1151REMSYN076AAXX  24184 82198 31493 60906 10313 20234 30046 40097 71562 84260 333 58007;
0168821980999992007062500004-01717-045400FM-12+004499999V0200501N003112200019N0002001N1+02631+02391101351ADDGF103991011011004501011011KA1240M+03241MA1999999100841MD1999999+0181REMSYN088AAXX  25004 82198 32492 30506 10263 20239 30084 40135 81111 333 10324 29079 55059 58018;
0156821980999992007062512004-01717-045400FM-12+004499999V0200501N002112200019N0010001N1+02961+02581101421ADDGF103991021011004501001011KA1240N+02181MA1999999100911MD1999999+0191REMSYN076AAXX  25124 82198 32494 30504 10296 20258 30091 40142 82101 333 20218 58019;
0182821980999992007062518004-01717-045400FM-12+004499999V0200501N002610450019N0005001N1+02851+02291101141ADDAA106008991AY191061AY261061GF107991041051004501061011MA1999999100631MD1999999+0171MW1211REMSYN082AAXX  25184 82198 21493 70505 10285 20229 30063 40114 72196 84561 333 58017 60091;
0178821980999992007062600004-01717-045400FM-12+004499999V0200901N002612200019N0002001N1+02531+02341101371ADDGA1001+999999999GF100991001001999999001001KA1240M+03301MA1999999100851MD1999999+0011REMSYN082AAXX  26004 82198 32992 00905 10253 20234 30085 40137 333 10330 29085 55058 58001;
0173821980999992007062612004-01717-045400FM-12+004499999V0200501N003610450019N0010001N1+02941+02491101441ADDAA124008991GF106991041021004501041001KA1240N+02071MA1999999100931MD1999999+0021REMSYN082AAXX  26124 82198 22494 60507 10294 20249 30093 40144 84240 333 20207 58002 60094;
0137821980999992007062618004-01717-045400FM-12+004499999V0200901N006712200019N0010001N1+02981+02281101091ADDGF104991041021004501001001MA1999999100581MD1999999-0051REMSYN070AAXX  26184 82198 32494 40913 10298 20228 30058 40109 84200 333 59005;
0178821980999992007062700004-01717-045400FM-12+004499999V0200501N001012200019N0002001N1+02601+02331101361ADDGA1001+999999999GF100991001001999999001001KA1240M+03221MA1999999100841MD1999999-0011REMSYN082AAXX  27004 82198 32992 00502 10260 20233 30084 40136 333 10322 29078 55080 59001;
0156821980999992007062712004-01717-045400FM-12+004499999V0201101N005110450019N0010001N1+02861+02331101361ADDGF105991041021004501061001KA1240N+02121MA1999999100851MD1999999-0081REMSYN076AAXX  27124 82198 32494 51110 10286 20233 30085 40136 84260 333 20212 59008;
0201821980999992007062718004-01717-045400FM-12+004499999V0200501N004112200019N0010001N1+03031+02131101071ADDAA106000091AY151061AY221061GF104991041021004501001001MA1999999100561MD1999999-0021MW1021REMSYN082AAXX  27184 82198 21494 40508 10303 20213 30056 40107 70252 84200 333 59002 69921;EQDQ01  00002PRCP06
0168821980999992007062800004-01717-045400FM-12+004499999V0200901N001512200019N0002001N1+02561+02331101341ADDGF102991021001012501061001KA1240M+03151MA1999999100831MD1999999-0011REMSYN088AAXX  28004 82198 32692 20903 10256 20233 30083 40134 82060 333 10315 29076 55106 59001;
0192821980999992007062812004-01717-045400FM-12+004499999V0200901N003612200019N0010001N1+02901+02391101331ADDAA124000091GF104991041011004501001001KA1240N+02061MA1999999100821MD1999999-0031REMSYN082AAXX  28124 82198 22494 40907 10290 20239 30082 40133 84100 333 20206 59003 69924;EQDQ01  00002PRCP24
0182821980999992007062818004-01717-045400FM-12+004499999V0203601N001510450019N0010001N1+02821+02481101081ADDAA106017091AY121061AY221061GF106991031021004501041001MA1999999100571MD1999999+0011MW1211REMSYN082AAXX  28184 82198 21494 63603 10282 20248 30057 40108 72122 83240 333 58001 60171;
0223821980999992007062900004-01717-045400FM-12+004499999V0200501N002112200019N0002001N1+02591+02371101341ADDAA106000591AY151061AY221061GA1001+999999999GF100991001001999999001001KA1240M+03321MA1999999100831MD1999999+0001MW1011REMSYN094AAXX  29004 82198 21992 00504 10259 20237 30083 40134 70152 333 10332 29083 55088 58000 69941;
0173821980999992007062912004-01717-045400FM-12+004499999V0200501N004110042019N0010001N1+02941+02471101491ADDAA124018091GF106991061021004501001001KA1240N+02201MA1999999100981MD1999999+0161REMSYN082AAXX  29124 82198 22494 60508 10294 20247 30098 40149 86200 333 20220 58016 60184;
0182821980999992007062918004-01717-045400FM-12+004499999V0200501N002110042019N0010001N1+03161+02421101181ADDAA106002091AY161061AY221061GF106991061021004501001001MA1999999100671MD1999999+0101MW1021REMSYN082AAXX  29184 82198 21494 60504 10316 20242 30067 40118 70262 86200 333 58010 60021;
0168821980999992007063000004-01717-045400FM-12+004499999V0200501N003110450019N0002001N1+02631+02411101451ADDGF106991041021004501061001KA1240M+03231MA1999999100941MD1999999+0111REMSYN088AAXX  30004 82198 32492 60506 10263 20241 30094 40145 84260 333 10323 29079 55069 58011;
0173821980999992007063012004-01717-045400FM-12+004499999V0200501N003612200019N0010001N1+02971+02371101611ADDAA124002091GF104991041011004501001001KA1240N+02151MA1999999101101MD1999999+0121REMSYN082AAXX  30124 82198 22494 40507 10297 20237 30110 40161 84100 333 20215 58012 60024;
0182821980999992007063018004-01717-045400FM-12+004499999V0200501N002610042019N0010001N1+03041+02381101401ADDAA106006191AY161061AY221061GF105991051021004501001001MA1999999100891MD1999999+0221MW1021REMSYN082AAXX  30184 82198 21494 50505 10304 20238 30089 40140 70262 85200 333 58022 60061;
0168821980999992007070100004-01717-045400FM-12+004499999V0200501N003112200019N0002001N1+02561+02361101611ADDGF102991021021004501001001KA1240M+03171MA1999999101101MD1999999+0161REMSYN088AAXX  01004 82198 32492 20506 10256 20236 30110 40161 82200 333 10317 29079 55093 58016;
0173821980999992007070112004-01717-045400FM-12+004499999V0200901N002612200019N0010001N1+02961+02401101671ADDAA124006191GF103991021011004501041001KA1240N+02141MA1999999101161MD1999999+0061REMSYN082AAXX  01124 82198 22494 30905 10296 20240 30116 40167 82140 333 20214 58006 60064;
0137821980999992007070118004-01717-045400FM-12+004499999V0200501N004610042019N0010001N1+03021+02441101351ADDGF105991051021004501001001MA1999999100841MD1999999-0051REMSYN070AAXX  01184 82198 32494 50509 10302 20244 30084 40135 85200 333 59005;
0168821980999992007070200004-01717-045400FM-12+004499999V0200501N002112200019N0002001N1+02601+02391101641ADDGF102991021001012501061001KA1240M+03281MA1999999101131MD1999999-0031REMSYN088AAXX  02004 82198 32692 20504 10260 20239 30113 40164 82060 333 10328 29080 55093 59003;
0156821980999992007070212004-01717-045400FM-12+004499999V0200901N002610042019N0010001N1+02941+02621101591ADDGF106991061021004501001001KA1240N+02131MA1999999101081MD1999999-0081REMSYN076AAXX  02124 82198 32494 60905 10294 20262 30108 40159 86200 333 20213 59008;
0182821980999992007070218004-01717-045400FM-12+004499999V0203601N004110042019N0010001N1+02771+02421101281ADDAA106005191AY161061AY221061GF106991061021004501001001MA1999999100771MD1999999-0071MW1211REMSYN082AAXX  02184 82198 21494 63608 10277 20242 30077 40128 72162 86200 333 59007 60051;
0168821980999992007070300004-01717-045400FM-12+004499999V0200501N003112200019N0002001N1+02581+02401101451ADDGF103991021021004501041001KA1240M+03151MA1999999100941MD1999999-0191REMSYN088AAXX  03004 82198 32492 30506 10258 20240 30094 40145 82240 333 10315 29086 55078 59019;
0201821980999992007070312004-01717-045400FM-12+004499999V0200501N004610042019N0010001N1+02881+02411101541ADDAA124005191AY151061AY221061GF105991051011004501001001KA1240N+02121MA1999999101021MD1999999-0061MW1031REMSYN088AAXX  03124 82198 21494 50509 10288 20241 30102 40154 70352 85100 333 20212 59006 60054;
0182821980999992007070318004-01717-045400FM-12+004499999V0203601N003610450019N0005001N1+02651+02401101261ADDAA106020191AY191061AY261061GF107991041071004501021001MA1999999100751MD1999999-0021MW1211REMSYN082AAXX  03184 82198 21493 73607 10265 20240 30075 40126 72196 84720 333 59002 60201;
0213821980999992007070400004-01717-045400FM-12+004499999V0200701N002612200019N0002001N1+02461+02371101491ADDAA106033091AY191061AY261061GF104991021021004501011061KA1240M+03071MA1999999100971MD1999999-0031MW1011REMSYN100AAXX  04004 82198 21492 40705 10246 20237 30097 40149 70196 82216 333 10307 29089 55051 59003 60331;
0173821980999992007070412004-01717-045400FM-12+004499999V0200701N005110450019N0005001N1+02861+02371101511ADDAA124052191GF106991041021004501061001KA1240N+02041MA1999999100991MD1999999-0031REMSYN082AAXX  04124 82198 22493 60710 10286 20237 30099 40151 84260 333 20204 59003 60524;
0182821980999992007070418004-01717-045400FM-12+004499999V0200901N005110450019N0005001N1+02921+02321101261ADDAA106001091AY191061AY261061GF105991041021004501061001MA1999999100751MD1999999+0001MW1011REMSYN082AAXX  04184 82198 21493 50910 10292 20232 30075 40126 70196 84260 333 58000 60011;
0223821980999992007070500004-01717-045400FM-12+004499999V0200901N001512200019N0002001N1+02551+02401101471ADDAA106000591AY101061AY261061GA1001+999999999GF100991001001999999001001KA1240M+03141MA1999999100951MD1999999-0021MW1001REMSYN094AAXX  05004 82198 21992 00903 10255 20240 30095 40147 70006 333 10314 29081 55082 59002 69961;
0173821980999992007070512004-01717-045400FM-12+004499999V0200901N005112200019N0010001N1+02881+02351101471ADDAA124002091GF102991011011004501031001KA1240N+02131MA1999999100951MD1999999-0041REMSYN082AAXX  05124 82198 22494 20910 10288 20235 30095 40147 81130 333 20213 59004 60024;
0137821980999992007070518004-01717-045400FM-12+004499999V0200901N005712200019N0010001N1+03041+02231101251ADDGF104991041021004501001001MA1999999100741MD1999999+0001REMSYN070AAXX  05184 82198 32494 40911 10304 20223 30074 40125 84200 333 58000;
0178821980999992007070600004-01717-045400FM-12+004499999V0200701N002112200019N0002001N1+02551+02351101401ADDGA1001+999999999GF100991001001999999001001KA1240M+03181MA1999999100881MD1999999-0071REMSYN082AAXX  06004 82198 32992 00704 10255 20235 30088 40140 333 10318 29077 55099 59007;
0156821980999992007070612004-01717-045400FM-12+004499999V0200901N005112200019N0010001N1+02911+02341101341ADDGF103991031011004501001001KA1240N+02141MA1999999100821MD1999999-0131REMSYN076AAXX  06124 82198 32494 30910 10291 20234 30082 40134 83100 333 20214 59013;
0182821980999992007070618004-01717-045400FM-12+004499999V0201401N001510450019N0005001N1+02951+02341101091ADDAA106003091AY161061AY221061GF106991031021004501061011MA1999999100581MD1999999-0171MW1031REMSYN082AAXX  06184 82198 21493 61403 10295 20234 30058 40109 70362 83261 333 59017 60031;
0178821980999992007070700004-01717-045400FM-12+004499999V0203601N001512200019N0002001N1+02581+02311101281ADDGA1001+999999999GF100991001001999999001001KA1240M+03141MA1999999100771MD1999999-0111REMSYN082AAXX  07004 82198 32992 03603 10258 20231 30077 40128 333 10314 29078 55076 59011;
0173821980999992007070712004-01717-045400FM-12+004499999V0200701N004612200019N0010001N1+02941+02471101211ADDAA124003091GF103991021011004501031001KA1240N+02131MA1999999100701MD1999999-0121REMSYN082AAXX  07124 82198 22494 30709 10294 20247 30070 40121 82130 333 20213 59012 60034;
0137821980999992007070718004-01717-045400FM-12+004499999V0200701N004110450019N0005001N1+02671+02311100991ADDGF106991031071004501061001MA1999999100481MD1999999-0101REMSYN070AAXX  07184 82198 32493 60708 10267 20231 30048 40099 83760 333 59010;
0223821980999992007070800004-01717-045400FM-12+004499999V0200501N002612200019N0002001N1+02481+02321101121ADDAA106002091AY161061AY201061GA1001+999999999GF100991001001999999001001KA1240M+03201MA1999999100611MD1999999-0161MW1001REMSYN094AAXX  08004 82198 21992 00505 10248 20232 30061 40112 70060 333 10320 29086 55063 59016 60021;
0137821980999992007070818004-01717-045400FM-12+004499999V0200901N006212200019N0010001N1+03051+02191100931ADDGF103991031021004501001001MA1999999100421MD1999999-0061REMSYN070AAXX  08184 82198 32494 30912 10305 20219 30042 40093 83200 333 59006;
0178821980999992007070900004-01717-045400FM-12+004499999V0200901N001512200019N0002001N1+02601+02271101151ADDGA1001+999999999GF100991001001999999001001KA1240M+03201MA1999999100641MD1999999+0031REMSYN082AAXX  09004 82198 32992 00903 10260 20227 30064 40115 333 10320 29076 55102 58003;
0156821980999992007070912004-01717-045400FM-12+004499999V0200901N003610450019N0005001N1+02861+02561101311ADDGF106991031021004501061001KA1240N+02221MA1999999100801MD1999999+0121REMSYN076AAXX  09124 82198 32493 60907 10286 20256 30080 40131 83260 333 20222 58012;
0182821980999992007070918004-01717-045400FM-12+004499999V0201801N001010450019N0005001N1+02941+02561101031ADDAA106007191AY161061AY221061GF107991031071004501061001MA1999999100521MD1999999+0101MW1151REMSYN082AAXX  09184 82198 21493 71802 10294 20256 30052 40103 71562 83760 333 58010 60071;
0196821980999992007071000004-01717-045400FM-12+004499999V0200501N002610450019N0002001N1+02611+02351101181ADDAY121061AY221061GF105991031021004501061001KA1240M+03131MA1999999100671MD1999999+0031MW1131REMSYN094AAXX  10004 82198 31492 50505 10261 20235 30067 40118 71322 83260 333 10313 29084 55050 58003;
0201821980999992007071012004-01717-045400FM-12+004499999V0200901N002610450019N0010001N1+02851+02441101261ADDAA124018091AY161061AY221061GF107991041021004501061001KA1240N+02051MA1999999100751MD1999999-0051MW1021REMSYN088AAXX  10124 82198 21494 70905 10285 20244 30075 40126 70262 84260 333 20205 59005 60184;
0182821980999992007071018004-01717-045400FM-12+004499999V0200701N001510042019N0010001N1+02471+02321101041ADDAA106020191AY161061AY221061GF107991051051004501041001MA1999999100531MD1999999+0011MW1211REMSYN082AAXX  10184 82198 21494 70703 10247 20232 30053 40104 72162 85540 333 58001 60201;
0168821980999992007071100004-01717-045400FM-12+004499999V0200701N001510450019N0002001N1+02441+02301101251ADDGF107991041051004501061001KA1240M+03171MA1999999100741MD1999999+0071REMSYN088AAXX  11004 82198 32492 70703 10244 20230 30074 40125 84560 333 10317 29088 55035 58007;
0173821980999992007071112004-01717-045400FM-12+004499999V0200701N004610042019N0010001N1+02941+02541101271ADDAA124020191GF106991061021004501001001KA1240N+02081MA1999999100761MD1999999+0011REMSYN082AAXX  11124 82198 22494 60709 10294 20254 30076 40127 86200 333 20208 58001 60204;
0182821980999992007071118004-01717-045400FM-12+004499999V0201101N002610042019N0010001N1+02451+02341101001ADDAA106019191AY191061AY261061GF108991051051004501041999MA1999999100491MD1999999-0041MW1621REMSYN082AAXX  11184 82198 21494 81105 10245 20234 30049 40100 76296 8554/ 333 59004 60191;
0178821980999992007071200004-01717-045400FM-12+004499999V0200501N002612200019N0002001N1+02501+02401101251ADDGA1001+999999999GF100991001001999999001001KA1240M+03171MA1999999100741MD1999999+0001REMSYN082AAXX  12004 82198 32992 00505 10250 20240 30074 40125 333 10317 29090 55050 58000;
0173821980999992007071212004-01717-045400FM-12+004499999V0200701N005110042019N0010001N1+02831+02381101381ADDAA124019191GF106991061021004501001001KA1240N+02151MA1999999100871MD1999999+0111REMSYN082AAXX  12124 82198 22494 60710 10283 20238 30087 40138 86200 333 20215 58011 60194;
0182821980999992007071218004-01717-045400FM-12+004499999V0200901N005110450019N0010001N1+02881+02321101091ADDAA106002091AY161061AY221061GF105991031031004501061001MA1999999100581MD1999999+0091MW1021REMSYN082AAXX  12184 82198 21494 50910 10288 20232 30058 40109 70262 83360 333 58009 60021;
0173821980999992007071312004-01717-045400FM-12+004499999V0200501N004110042019N0010001N1+02901+02361101401ADDAA124002091GF106991061021004501001001KA1240N+02121MA1999999100891MD1999999+0021REMSYN082AAXX  13124 82198 22494 60508 10290 20236 30089 40140 86200 333 20212 58002 60024;
0137821980999992007071318004-01717-045400FM-12+004499999V0200901N006712200019N0010001N1+03071+02291101151ADDGF104991041021004501001001MA1999999100641MD1999999+0061REMSYN070AAXX  13184 82198 32494 40913 10307 20229 30064 40115 84200 333 58006;
0178821980999992007071400004-01717-045400FM-12+004499999V0200501N002112200019N0002001N1+02581+02401101291ADDGA1001+999999999GF100991001001999999001001KA1240M+03221MA1999999100781MD1999999-0041REMSYN082AAXX  14004 82198 32992 00504 10258 20240 30078 40129 333 10322 29080 55102 59004;
0156821980999992007071412004-01717-045400FM-12+004499999V0200901N003610450019N0010001N1+02871+02391101391ADDGF106991041021004501061001KA1240N+02351MA1999999100881MD1999999-0011REMSYN076AAXX  14124 82198 32494 60907 10287 20239 30088 40139 84260 333 20235 59001;
0182821980999992007071418004-01717-045400FM-12+004499999V0200901N003110450019N0010001N1+02801+02381101151ADDAA106001091AY121061AY221061GF105991041031004501061001MA1999999100641MD1999999+0001MW1211REMSYN082AAXX  14184 82198 21494 50906 10280 20238 30064 40115 72122 84360 333 58000 60011;
0178821980999992007071500004-01717-045400FM-12+004499999V0200501N002612200019N0002001N1+02561+02361101291ADDGA1001+999999999GF100991001001999999001001KA1240M+03251MA1999999100781MD1999999+0001REMSYN082AAXX  15004 82198 32992 00505 10256 20236 30078 40129 333 10325 29083 55071 58000;
0173821980999992007071512004-01717-045400FM-12+004499999V0200501N003610042019N0010001N1+02911+02391101291ADDAA124001091GF105991051021004501001001KA1240N+02331MA1999999100781MD1999999-0081REMSYN082AAXX  15124 82198 22494 50507 10291 20239 30078 40129 85200 333 20233 59008 60014;
0182821980999992007071518004-01717-045400FM-12+004499999V0200501N005110042019N0010001N1+02921+02431101091ADDAA106000591AY151061AY221061GF105991051021004501001001MA1999999100581MD1999999-0061MW1021REMSYN082AAXX  15184 82198 21494 50510 10292 20243 30058 40109 70252 85200 333 59006 69951;
0178821980999992007071600004-01717-045400FM-12+004499999V0200501N002112200019N0002001N1+02581+02441101261ADDGA1001+999999999GF100991001001999999001001KA1240M+03071MA1999999100751MD1999999-0031REMSYN082AAXX  16004 82198 32992 00504 10258 20244 30075 40126 333 10307 29083 55081 59003;
0173821980999992007071612004-01717-045400FM-12+004499999V0200501N003610042019N0010001N1+02861+02461101211ADDAA124000591GF106991051021004501001011KA1240N+02311MA1999999100701MD1999999-0081REMSYN082AAXX  16124 82198 22494 60507 10286 20246 30070 40121 85201 333 20231 59008 69954;
0137821980999992007071618004-01717-045400FM-12+004499999V0200901N005110450019N0010001N1+03131+02381100941ADDGF105991041021004501061001MA1999999100431MD1999999-0151REMSYN070AAXX  16184 82198 32494 50910 10313 20238 30043 40094 84260 333 59015;
0178821980999992007071700004-01717-045400FM-12+004499999V0200501N002112200019N0002001N1+02581+02381101191ADDGA1001+999999999GF100991001001999999001001KA1240M+03241MA1999999100681MD1999999-0071REMSYN082AAXX  17004 82198 32992 00504 10258 20238 30068 40119 333 10324 29080 55099 59007;
0156821980999992007071712004-01717-045400FM-12+004499999V0200501N003610042019N0010001N1+02811+02361101251ADDGF106991051021004501061001KA1240N+02331MA1999999100741MD1999999+0041REMSYN076AAXX  17124 82198 32494 60507 10281 20236 30074 40125 85260 333 20233 58004;
0137821980999992007071718004-01717-045400FM-12+004499999V0200501N005710042019N0010001N1+03021+02291101041ADDGF105991051021004501001001MA1999999100531MD1999999+0101REMSYN070AAXX  17184 82198 32494 50511 10302 20229 30053 40104 85200 333 58010;
0178821980999992007071800004-01717-045400FM-12+004499999V0200501N004612200019N0002001N1+02571+02381101251ADDGA1001+999999999GF100991001001999999001001KA1240M+03221MA1999999100741MD1999999+0061REMSYN082AAXX  18004 82198 32992 00509 10257 20238 30074 40125 333 10322 29080 55097 58006;
0156821980999992007071812004-01717-045400FM-12+004499999V0200501N003610042019N0010001N1+02891+02441101251ADDGF105991051021004501001001KA1240N+02331MA1999999100741MD1999999+0001REMSYN076AAXX  18124 82198 32494 50507 10289 20244 30074 40125 85200 333 20233 58000;
0137821980999992007071818004-01717-045400FM-12+004499999V0200501N004612200019N0010001N1+02841+02401101091ADDGF104991031021004501041001MA1999999100581MD1999999+0051REMSYN070AAXX  18184 82198 32494 40509 10284 20240 30058 40109 83240 333 58005;
0168821980999992007071900004-01717-045400FM-12+004499999V0200501N001512200019N0002001N1+02601+02351101301ADDGF102991021001012501061001KA1240M+03301MA1999999100791MD1999999+0051REMSYN088AAXX  19004 82198 32692 20503 10260 20235 30079 40130 82060 333 10330 29082 55090 58005;
0156821980999992007071912004-01717-045400FM-12+004499999V0200201N003110042019N0010001N1+02851+02381101321ADDGF105991051021004501001001KA1240N+02341MA1999999100811MD1999999+0071REMSYN076AAXX  19124 82198 32494 50206 10285 20238 30081 40132 85200 333 20234 58007;
0137821980999992007071918004-01717-045400FM-12+004499999V0200501N005110042019N0010001N1+02981+02351100921ADDGF106991061021004501001001MA1999999100411MD1999999-0171REMSYN070AAXX  19184 82198 32494 60510 10298 20235 30041 40092 86200 333 59017;
0223821980999992007072000004-01717-045400FM-12+004499999V0200501N003112200019N0002001N1+02581+02371101131ADDAA106000891AY151061AY221061GA1001+999999999GF100991001001999999001001KA1240M+03171MA1999999100621MD1999999-0171MW1011REMSYN094AAXX  20004 82198 21992 00506 10258 20237 30062 40113 70152 333 10317 29080 55073 59017 69971;
0173821980999992007072012004-01717-045400FM-12+004499999V0200901N004610042019N0010001N1+02841+02381101281ADDAA124000891GF106991061021004501001001KA1240N+02341MA1999999100771MD1999999-0041REMSYN082AAXX  20124 82198 22494 60909 10284 20238 30077 40128 86200 333 20234 59004 69974;
0137821980999992007072018004-01717-045400FM-12+004499999V0200501N003610042019N0010001N1+03041+02261101091ADDGF105991051021004501001001MA1999999100581MD1999999+0171REMSYN070AAXX  20184 82198 32494 50507 10304 20226 30058 40109 85200 333 58017;
0178821980999992007072100004-01717-045400FM-12+004499999V0200501N002612200019N0002001N1+02581+02351101261ADDGA1001+999999999GF100991001001999999001001KA1240M+03181MA1999999100751MD1999999+0131REMSYN082AAXX  21004 82198 32992 00505 10258 20235 30075 40126 333 10318 29078 55086 58013;
0156821980999992007072112004-01717-045400FM-12+004499999V0200901N005110042019N0010001N1+02831+02291101431ADDGF105991051021004501001001KA1240N+02351MA1999999100941MD1999999+0151REMSYN076AAXX  21124 82198 32494 50910 10283 20229 30094 40143 85200 333 20235 58015;
0137821980999992007072118004-01717-045400FM-12+004499999V0200901N006712200019N0010001N1+03011+02191101191ADDGF104991041021004501001001MA1999999100681MD1999999+0101REMSYN070AAXX  21184 82198 32494 40913 10301 20219 30068 40119 84200 333 58010;
0156821980999992007072212004-01717-045400FM-12+004499999V0200501N004110042019N0010001N1+02831+02311101331ADDGF105991051021004501001001KA1240N+02301MA1999999100821MD1999999-0101REMSYN076AAXX  22124 82198 32494 50508 10283 20231 30082 40133 85200 333 20230 59010;
0137821980999992007072218004-01717-045400FM-12+004499999V0200501N003112200019N0010001N1+03141+02181101081ADDGF104991041021004501001001MA1999999100571MD1999999-0111REMSYN070AAXX  22184 82198 32494 40506 10314 20218 30057 40108 84200 333 59011;
0178821980999992007072300004-01717-045400FM-12+004499999V0200501N003112200019N0002001N1+02521+02211101251ADDGA1001+999999999GF100991001001999999001001KA1240M+03321MA1999999100741MD1999999-0011REMSYN082AAXX  23004 82198 32992 00506 10252 20221 30074 40125 333 10332 29074 55103 59001;
0156821980999992007072312004-01717-045400FM-12+004499999V0200201N003112200019N0010001N1+02871+02441101271ADDGF102991021011004501001001KA1240N+02191MA1999999100761MD1999999-0061REMSYN076AAXX  23124 82198 32494 20206 10287 20244 30076 40127 82100 333 20219 59006;
0137821980999992007072318004-01717-045400FM-12+004499999V0200201N004112200019N0010001N1+03051+02301101071ADDGF104991031021004501061001MA1999999100561MD1999999-0011REMSYN070AAXX  23184 82198 32494 40208 10305 20230 30056 40107 83260 333 59001;
0242821980999992007072400004-01717-045400FM-12+004499999V0200501N002612200019N0002001N1+02501+02271101261ADDAA106000091AY151061AY211061GA1001+999999999GF100991001001999999001001KA1240M+03211MA1999999100751MD1999999+0011MW1001REMSYN094AAXX  24004 82198 21992 00505 10250 20227 30075 40126 70051 333 10321 29079 55088 58001 69911;EQDQ01  00002PRCP06
0192821980999992007072412004-01717-045400FM-12+004499999V0200501N003612200019N0010001N1+02891+02371101361ADDAA124000091GF103991031011004501001001KA1240N+02231MA1999999100841MD1999999+0081REMSYN082AAXX  24124 82198 22494 30507 10289 20237 30084 40136 83100 333 20223 58008 69914;EQDQ01  00002PRCP24
0182821980999992007072418004-01717-045400FM-12+004499999V0200901N005110042019N0010001N1+03151+02231101041ADDAA106000591AY151061AY221061GF105991051021004501001001MA1999999100531MD1999999-0031MW1031REMSYN082AAXX  24184 82198 21494 50910 10315 20223 30053 40104 70352 85200 333 59003 69961;
0178821980999992007072500004-01717-045400FM-12+004499999V0200501N003112200019N0002001N1+02581+02351101221ADDGA1001+999999999GF100991001001999999001001KA1240M+03241MA1999999100711MD1999999-0041REMSYN082AAXX  25004 82198 32992 00506 10258 20235 30071 40122 333 10324 29078 55085 59004;
0173821980999992007072512004-01717-045400FM-12+004499999V0200501N003610042019N0010001N1+02821+02421101351ADDAA124000591GF106991061021004501001001KA1240N+02301MA1999999100831MD1999999-0011REMSYN082AAXX  25124 82198 22494 60507 10282 20242 30083 40135 86200 333 20230 59001 69964;
0137821980999992007072518004-01717-045400FM-12+004499999V0200701N004610042019N0010001N1+03081+02351101121ADDGF105991051021004501001001MA1999999100611MD1999999+0111REMSYN070AAXX  25184 82198 32494 50709 10308 20235 30061 40112 85200 333 58011;
0178821980999992007072600004-01717-045400FM-12+004499999V0200501N002112200019N0002001N1+02561+02291101381ADDGA1001+999999999GF100991001001999999001001KA1240M+03241MA1999999100871MD1999999+0161REMSYN082AAXX  26004 82198 32992 00504 10256 20229 30087 40138 333 10324 29078 55091 58016;
0156821980999992007072612004-01717-045400FM-12+004499999V0200701N004112200019N0010001N1+02931+02341101521ADDGF104991041011004501001001KA1240N+02301MA1999999101011MD1999999+0181REMSYN076AAXX  26124 82198 32494 40708 10293 20234 30101 40152 84100 333 20230 58018;
0137821980999992007072618004-01717-045400FM-12+004499999V0200901N005112200019N0010001N1+03141+02301101171ADDGF104991041021004501001001MA1999999100661MD1999999+0051REMSYN070AAXX  26184 82198 32494 40910 10314 20230 30066 40117 84200 333 58005;
0168821980999992007072700004-01717-045400FM-12+004499999V0200901N002112200019N0002001N1+02581+02371101391ADDGF102991021001012501061001KA1240M+03381MA1999999100871MD1999999+0001REMSYN088AAXX  27004 82198 32692 20904 10258 20237 30087 40139 82060 333 10338 29077 55100 58000;
0156821980999992007072712004-01717-045400FM-12+004499999V0200501N005110042019N0010001N1+02911+02321101411ADDGF105991051021004501001001KA1240N+02281MA1999999100841MD1999999-0121REMSYN076AAXX  27124 82198 32494 50510 10291 20232 30084 40141 85200 333 20228 59012;
0137821980999992007072718004-01717-045400FM-12+004499999V0200501N004610042019N0010001N1+03041+02311101081ADDGF105991051021004501001001MA1999999100571MD1999999-0091REMSYN070AAXX  27184 82198 32494 50509 10304 20231 30057 40108 85200 333 59009;
0178821980999992007072800004-01717-045400FM-12+004499999V0200501N002612200019N0002001N1+02561+02331101281ADDGA1001+999999999GF100991001001999999001001KA1240M+03251MA1999999100771MD1999999-0101REMSYN082AAXX  28004 82198 32992 00505 10256 20233 30077 40128 333 10325 29078 55084 59010;
0156821980999992007072812004-01717-045400FM-12+004499999V0200501N004610042019N0010001N1+02831+02371101421ADDGF106991061021004501001001KA1240N+02341MA1999999100911MD1999999+0021REMSYN076AAXX  28124 82198 32494 60509 10283 20237 30091 40142 86200 333 20234 58002;
0137821980999992007072818004-01717-045400FM-12+004499999V0200501N005710450019N0010001N1+02821+02421101061ADDGF105991031021004501041011MA1999999100551MD1999999-0021REMSYN070AAXX  28184 82198 32494 50511 10282 20242 30055 40106 83241 333 59002;
0232821980999992007072900004-01717-045400FM-12+004499999V0200501N002610450019N0002001N1+02501+02211101331ADDAA106000091AY151061AY221061GF107991041031004501071001KA1240M+03241MA1999999100821MD1999999+0051MW1021REMSYN100AAXX  29004 82198 21492 70505 10250 20221 30082 40133 70252 84370 333 10324 29080 55090 58005 69921;EQDQ01  00002PRCP06
0192821980999992007072912004-01717-045400FM-12+004499999V0200501N002112200019N0010001N1+02991+02531101361ADDAA124000091GF102991021011004501001001KA1240N+02361MA1999999100851MD1999999-0061REMSYN082AAXX  29124 82198 22494 20504 10299 20253 30085 40136 82100 333 20236 59006 69924;EQDQ01  00002PRCP24
0137821980999992007072918004-01717-045400FM-12+004499999V0203601N002612200019N0010001N1+03081+02371101031ADDGF104991041031004501001001MA1999999100521MD1999999-0031REMSYN070AAXX  29184 82198 32494 43605 10308 20237 30052 40103 84300 333 59003;
0223821980999992007073000004-01717-045400FM-12+004499999V0200501N002112200019N0002001N1+02581+02331101291ADDAA106000591AY151061AY221061GA1001+999999999GF100991001001999999001001KA1240M+03371MA1999999100781MD1999999-0041MW1011REMSYN094AAXX  30004 82198 21992 00504 10258 20233 30078 40129 70152 333 10337 29079 55093 59004 69941;
0173821980999992007073012004-01717-045400FM-12+004499999V0200501N002110042019N0010001N1+02801+02461101301ADDAA124000591GF107991051021004501061001KA1240N+02241MA1999999100791MD1999999-0061REMSYN082AAXX  30124 82198 22494 70504 10280 20246 30079 40130 85260 333 20224 59006 69944;
0137821980999992007073018004-01717-045400FM-12+004499999V0200701N003110450019N0010001N1+02901+02321101051ADDGF106991041021004501061001MA1999999100541MD1999999+0021REMSYN070AAXX  30184 82198 32494 60706 10290 20232 30054 40105 84260 333 58002;
0178821980999992007073100004-01717-045400FM-12+004499999V0200501N002112200019N0002001N1+02521+02291101301ADDGA1001+999999999GF100991001001999999001001KA1240M+03271MA1999999100791MD1999999+0011REMSYN082AAXX  31004 82198 32992 00504 10252 20229 30079 40130 333 10327 29082 55069 58001;
0156821980999992007073112004-01717-045400FM-12+004499999V0201401N003610042019N0010001N1+02741+02431101361ADDGF107991061021004501061001KA1240N+02281MA1999999100841MD1999999+0051REMSYN076AAXX  31124 82198 32494 71407 10274 20243 30084 40136 86260 333 20228 58005;
0137821980999992007073118004-01717-045400FM-12+004499999V0201101N003612200019N0010001N1+03201+02181100931ADDGF104991041021004501001001MA1999999100421MD1999999-0121REMSYN070AAXX  31184 82198 32494 41107 10320 20218 30042 40093 84200 333 59012;
0178821980999992007080100004-01717-045400FM-12+004499999V0200501N002112200019N0002001N1+02601+02391101201ADDGA1001+999999999GF100991001001999999001001KA1240M+03301MA1999999100691MD1999999-0101REMSYN082AAXX  01004 82198 32992 00504 10260 20239 30069 40120 333 10330 29078 55087 59010;
0156821980999992007080112004-01717-045400FM-12+004499999V0200701N003610042019N0010001N1+02581+02381101341ADDGF107991051021004501061001KA1240N+02261MA1999999100831MD1999999-0011REMSYN076AAXX  01124 82198 32494 70707 10258 20238 30083 40134 85260 333 20226 59001;
0182821980999992007080118004-01717-045400FM-12+004499999V0200901N002110450019N0010001N1+02961+02351101051ADDAA106005191AY161061AY221061GF105991031021004501061001MA1999999100541MD1999999+0121MW1021REMSYN082AAXX  01184 82198 21494 50904 10296 20235 30054 40105 70262 83260 333 58012 60051;
0178821980999992007080200004-01717-045400FM-12+004499999V0200501N003112200019N0002001N1+02561+02351101281ADDGA1001+999999999GF100991001001999999001001KA1240M+03321MA1999999100771MD1999999-0081REMSYN082AAXX  02004 82198 32992 00506 10256 20235 30077 40128 333 10332 29081 55069 59008;
0173821980999992007080212004-01717-045400FM-12+004499999V0200901N005112200019N0010001N1+02871+02411101351ADDAA124005191GF103991031011004501001001KA1240N+02261MA1999999100841MD1999999+0011REMSYN082AAXX  02124 82198 22494 30910 10287 20241 30084 40135 83100 333 20226 58001 60054;
0182821980999992007080218004-01717-045400FM-12+004499999V0200901N002110450019N0010001N1+02961+02351101051ADDAA106005191AY161061AY221061GF105991031021004501061001MA1999999100541MD1999999+0121MW1021REMSYN082AAXX  02184 82198 21494 50904 10296 20235 30054 40105 70262 83260 333 58012 60051;
0242821980999992007080300004-01717-045400FM-12+004499999V0200501N002612200019N0002001N1+02561+02401101331ADDAA106000091AY151061AY221061GA1001+999999999GF100991001001999999001001KA1240M+03131MA1999999100821MD1999999+0051MW1001REMSYN094AAXX  03004 82198 21992 00505 10256 20240 30082 40133 70052 333 10313 29082 55059 58005 69911;EQDQ01  00002PRCP06
0192821980999992007080312004-01717-045400FM-12+004499999V0200901N005110042019N0010001N1+02841+02401101451ADDAA124000091GF106991061021004501001001KA1240N+02301MA1999999100931MD1999999+0091REMSYN082AAXX  03124 82198 22494 60910 10284 20240 30093 40145 86200 333 20230 58009 69914;EQDQ01  00002PRCP24
0137821980999992007080318004-01717-045400FM-12+004499999V0200701N006712200019N0010001N1+03051+02271101151ADDGF104991041021004501001001MA1999999100641MD1999999+0001REMSYN070AAXX  03184 82198 32494 40713 10305 20227 30064 40115 84200 333 58000;
0178821980999992007080400004-01717-045400FM-12+004499999V0200501N002612200019N0002001N1+02541+02231101341ADDGA1001+999999999GF100991001001999999001001KA1240M+03201MA1999999100831MD1999999+0011REMSYN082AAXX  04004 82198 32992 00505 10254 20223 30083 40134 333 10320 29076 55093 58001;
0156821980999992007080412004-01717-045400FM-12+004499999V0200701N003612200019N0010001N1+02951+02421101461ADDGF104991031011004501061001KA1240N+02251MA1999999100951MD1999999+0021REMSYN076AAXX  04124 82198 32494 40707 10295 20242 30095 40146 83160 333 20225 58002;
0137821980999992007080418004-01717-045400FM-12+004499999V0200701N003612200019N0010001N1+03121+02251101151ADDGF104991031021004501061001MA1999999100641MD1999999+0001REMSYN070AAXX  04184 82198 32494 40707 10312 20225 30064 40115 83260 333 58000;
0178821980999992007080500004-01717-045400FM-12+004499999V0200501N001512200019N0002001N1+02621+02371101351ADDGA1001+999999999GF100991001001999999001001KA1240M+03341MA1999999100831MD1999999+0001REMSYN082AAXX  05004 82198 32992 00503 10262 20237 30083 40135 333 10334 29076 55097 58000;
0156821980999992007080512004-01717-045400FM-12+004499999V0200901N004610450019N0010001N1+02891+02371101361ADDGF106991041021004501061001KA1240N+02301MA1999999100851MD1999999-0101REMSYN076AAXX  05124 82198 32494 60909 10289 20237 30085 40136 84260 333 20230 59010;
0182821980999992007080518004-01717-045400FM-12+004499999V0201101N002610450019N0010001N1+02721+02121101061ADDAA106006191AY161061AY221061GF106991041071004501061001MA1999999100551MD1999999-0091MW1151REMSYN082AAXX  05184 82198 21494 61105 10272 20212 30055 40106 71562 84760 333 59009 60061;
0178821980999992007080600004-01717-045400FM-12+004499999V0200501N002112200019N0002001N1+02521+02381101261ADDGA1001+999999999GF100991001001999999001001KA1240M+03231MA1999999100751MD1999999-0081REMSYN082AAXX  06004 82198 32992 00504 10252 20238 30075 40126 333 10323 29082 55063 59008;
0173821980999992007080612004-01717-045400FM-12+004499999V0200901N004610042019N0010001N1+02831+02461101351ADDAA124006191GF106991061021004501001001KA1240N+02301MA1999999100831MD1999999-0021REMSYN082AAXX  06124 82198 22494 60909 10283 20246 30083 40135 86200 333 20230 59002 60064;
0182821980999992007080618004-01717-045400FM-12+004499999V0200901N001510450019N0010001N1+02741+02321101071ADDAA106009991AY161061AY221061GF106991021031004501061001MA1999999100561MD1999999+0011MW1021REMSYN082AAXX  06184 82198 21494 60903 10274 20232 30056 40107 70262 82360 333 58001 60101;
0178821980999992007080700004-01717-045400FM-12+004499999V0200501N003112200019N0002001N1+02541+02381101191ADDGA1001+999999999GF100991001001999999001001KA1240M+03041MA1999999100681MD1999999-0071REMSYN082AAXX  07004 82198 32992 00506 10254 20238 30068 40119 333 10304 29085 55049 59007;
0173821980999992007080712004-01717-045400FM-12+004499999V0200501N005110042019N0010001N1+02901+02391101341ADDAA124009991GF106991061021004501001001KA1240N+02211MA1999999100831MD1999999+0001REMSYN082AAXX  07124 82198 22494 60510 10290 20239 30083 40134 86200 333 20221 58000 60104;
0182821980999992007080718004-01717-045400FM-12+004499999V0200901N006212200019N0010001N1+03081+02271101061ADDAA106000591AY151061AY211061GF103991031021004501001001MA1999999100551MD1999999-0011MW1021REMSYN082AAXX  07184 82198 21494 30912 10308 20227 30055 40106 70251 83200 333 59001 69951;
0178821980999992007080800004-01717-045400FM-12+004499999V0200501N002612200019N0002001N1+02561+02291101271ADDGA1001+999999999GF100991001001999999001001KA1240M+03161MA1999999100761MD1999999+0081REMSYN082AAXX  08004 82198 32992 00505 10256 20229 30076 40127 333 10316 29076 55091 58008;
0173821980999992007080812004-01717-045400FM-12+004499999V0200701N006210450019N0010001N1+02841+02401101341ADDAA124000591GF106991041021004501061001KA1240N+02321MA1999999100831MD1999999+0001REMSYN082AAXX  08124 82198 22494 60712 10284 20240 30083 40134 84260 333 20232 58000 69954;
0137821980999992007080818004-01717-045400FM-12+004499999V0200501N006212200019N0010001N1+03071+02271101021ADDGF103991031021004501001001MA1999999100511MD1999999-0041REMSYN070AAXX  08184 82198 32494 30512 10307 20227 30051 40102 83200 333 59004;
0178821980999992007080900004-01717-045400FM-12+004499999V0200501N002112200019N0002001N1+02561+02331101201ADDGA1001+999999999GF100991001001999999001001KA1240M+03121MA1999999100691MD1999999-0071REMSYN082AAXX  09004 82198 32992 00504 10256 20233 30069 40120 333 10312 29078 55074 59007;
0175821980999992007080912004-01717-045400FM-12+004499999V0200501N005710042019N0010001N1+02881+02301101271ADDGF108991999021004501001001KA1240N+02271MA1999999100761MD1999999-0071REMSYN076AAXX  09124 82198 32494 80511 10288 20230 30076 40127 86200 333 20227 59007;EQDQ01+000062SCOTLC
0182821980999992007080918004-01717-045400FM-12+004499999V0200901N005712200019N0010001N1+03001+02221100971ADDAA106002091AY161061AY211061GF103991031011004501001001MA1999999100461MD1999999-0051MW1011REMSYN082AAXX  09184 82198 21494 30911 10300 20222 30046 40097 70161 83100 333 59005 60021;
0178821980999992007081000004-01717-045400FM-12+004499999V0200501N002612200019N0002001N1+02521+02231101161ADDGA1001+999999999GF100991001001999999001001KA1240M+03101MA1999999100651MD1999999-0041REMSYN082AAXX  10004 82198 32992 00505 10252 20223 30065 40116 333 10310 29076 55093 59004;
0173821980999992007081012004-01717-045400FM-12+004499999V0201101N005110042019N0010001N1+02801+02361101321ADDAA124002091GF106991061021004501001001KA1240N+02231MA1999999100801MD1999999+0041REMSYN082AAXX  10124 82198 22494 61110 10280 20236 30080 40132 86200 333 20223 58004 60024;
0137821980999992007081018004-01717-045400FM-12+004499999V0201401N002112200019N0010001N1+03201+02241100941ADDGF104991031021004501001011MA1999999100431MD1999999-0031REMSYN070AAXX  10184 82198 32494 41404 10320 20224 30043 40094 83201 333 59003;
0178821980999992007081100004-01717-045400FM-12+004499999V0200901N001512200019N0002001N1+02701+02451101191ADDGA1001+999999999GF100991001001999999001001KA1240M+03291MA1999999100681MD1999999+0031REMSYN082AAXX  11004 82198 32992 00903 10270 20245 30068 40119 333 10329 29076 55095 58003;
0156821980999992007081112004-01717-045400FM-12+004499999V0200901N004610042019N0010001N1+02891+02391101331ADDGF105991051021004501001001KA1240N+02281MA1999999100821MD1999999+0021REMSYN076AAXX  11124 82198 32494 50909 10289 20239 30082 40133 85200 333 20228 58002;
0182821980999992007081118004-01717-045400FM-12+004499999V0200701N002610450019N0010001N1+02931+02411101081ADDAA106004191AY161061AY221061GF106991041021004501061001MA1999999100571MD1999999+0141MW1201REMSYN082AAXX  11184 82198 21494 60705 10293 20241 30057 40108 72062 84260 333 58014 60041;
0178821980999992007081200004-01717-045400FM-12+004499999V0200701N002612200019N0002001N1+02571+02381101321ADDGA1001+999999999GF100991001001999999001001KA1240M+03221MA1999999100801MD1999999+0121REMSYN082AAXX  12004 82198 32992 00705 10257 20238 30080 40132 333 10322 29082 55082 58012;
0173821980999992007081212004-01717-045400FM-12+004499999V0200701N005710042019N0010001N1+02871+02411101351ADDAA124004191GF107991051021004501061001KA1240N+02301MA1999999100841MD1999999+0021REMSYN082AAXX  12124 82198 22494 70711 10287 20241 30084 40135 85260 333 20230 58002 60044;
0137821980999992007081218004-01717-045400FM-12+004499999V0200701N001010450019N0010001N1+02961+02331101041ADDGF107991041071004501061001MA1999999100531MD1999999-0041REMSYN070AAXX  12184 82198 32494 70702 10296 20233 30053 40104 84760 333 59004;
0178821980999992007081300004-01717-045400FM-12+004499999V0200501N002612200019N0002001N1+02521+02211101321ADDGA1001+999999999GF100991001001999999001001KA1240M+03181MA1999999100811MD1999999+0011REMSYN082AAXX  13004 82198 32992 00505 10252 20221 30081 40132 333 10318 29078 55065 58001;
0156821980999992007081312004-01717-045400FM-12+004499999V0201401N004610042019N0010001N1+02831+02401101381ADDGF105991051021004501001001KA1240N+02281MA1999999100871MD1999999+0031REMSYN076AAXX  13124 82198 32494 51409 10283 20240 30087 40138 85200 333 20228 58003;
0182821980999992007081318004-01717-045400FM-12+004499999V0200901N002110450019N0010001N1+02961+02351101061ADDAA106004191AY161061AY251061GF107991031021004501041001MA1999999100551MD1999999+0021MW1021REMSYN082AAXX  13184 82198 21494 70904 10296 20235 30055 40106 70265 83240 333 58002 60041;
0168821980999992007081400004-01717-045400FM-12+004499999V0200501N002610042019N0002001N1+02601+02401101231ADDGF107991051031004501041001KA1240M+03161MA1999999100721MD1999999-0091REMSYN088AAXX  14004 82198 32492 70505 10260 20240 30072 40123 85340 333 10316 29082 55056 59009;
0173821980999992007081412004-01717-045400FM-12+004499999V0200901N003610450019N0010001N1+02821+02401101291ADDAA124004191GF106991041021004501031001KA1240N+02231MA1999999100781MD1999999-0091REMSYN082AAXX  14124 82198 22494 60907 10282 20240 30078 40129 84230 333 20223 59009 60044;
0137821980999992007081418004-01717-045400FM-12+004499999V0200901N003110450019N0010001N1+02731+02301101041ADDGF107991041031004501041001MA1999999100531MD1999999-0021REMSYN070AAXX  14184 82198 32494 70906 10273 20230 30053 40104 84340 333 59002;
0168821980999992007081500004-01717-045400FM-12+004499999V0200501N002612200019N0002001N1+02561+02361101211ADDGF103991031001012501061001KA1240M+03141MA1999999100701MD1999999-0021REMSYN088AAXX  15004 82198 32692 30505 10256 20236 30070 40121 83060 333 10314 29084 55056 59002;
0156821980999992007081512004-01717-045400FM-12+004499999V0200701N005110042019N0010001N1+02851+02311101241ADDGF106991051021004501061001KA1240N+02271MA1999999100731MD1999999-0051REMSYN076AAXX  15124 82198 32494 60710 10285 20231 30073 40124 85260 333 20227 59005;
0182821980999992007081518004-01717-045400FM-12+004499999V0201401N003112200019N0010001N1+03101+02121100971ADDAA106007191AY161061AY221061GF104991031021004501001011MA1999999100461MD1999999-0071MW1011REMSYN082AAXX  15184 82198 21494 41406 10310 20212 30046 40097 70162 83201 333 59007 60071;
0178821980999992007081600004-01717-045400FM-12+004499999V0200701N003612200019N0002001N1+02561+02291101191ADDGA1001+999999999GF100991001001999999001001KA1240M+03201MA1999999100681MD1999999-0021REMSYN082AAXX  16004 82198 32992 00707 10256 20229 30068 40119 333 10320 29075 55090 59002;
0201821980999992007081612004-01717-045400FM-12+004499999V0201401N005110450019N0005001N1+02841+02351101331ADDAA124007191AY141061AY221061GF106991041021004501061001KA1240N+02231MA1999999100811MD1999999+0081MW1281REMSYN088AAXX  16124 82198 21493 61410 10284 20235 30081 40133 72842 84260 333 20223 58008 60074;
0137821980999992007081618004-01717-045400FM-12+004499999V0203601N002610450019N0010001N1+02891+02171101001ADDGF106991041021004501031001MA1999999100491MD1999999+0031REMSYN070AAXX  16184 82198 32494 63605 10289 20217 30049 40100 84230 333 58003;
0178821980999992007081700004-01717-045400FM-12+004499999V0200501N002112200019N0002001N1+02541+02191101181ADDGA1001+999999999GF100991001001999999001001KA1240M+03061MA1999999100671MD1999999-0011REMSYN082AAXX  17004 82198 32992 00504 10254 20219 30067 40118 333 10306 29076 55065 59001;
0173821980999992007081712004-01717-045400FM-12+004499999V0200701N003610450019N0010001N1+02801+02341101191ADDAA124000591GF105991031021004501061001KA1240N+02211MA1999999100681MD1999999-0131REMSYN082AAXX  17124 82198 22494 50707 10280 20234 30068 40119 83260 333 20221 59013 69944;
0182821980999992007081718004-01717-045400FM-12+004499999V0203601N004110450019N0005001N1+02671+02351100941ADDAA106002091AY161061AY221061GF107991041071004501061001MA1999999100431MD1999999-0061MW1631REMSYN082AAXX  17184 82198 21493 73608 10267 20235 30043 40094 76362 84760 333 59006 60021;
0168821980999992007081800004-01717-045400FM-12+004499999V0203601N002112200019N0002001N1+02601+02271101091ADDGF102991011021004501001011KA1240M+03221MA1999999100581MD1999999-0091REMSYN088AAXX  18004 82198 32492 23604 10260 20227 30058 40109 81201 333 10322 29082 55078 59009;
0173821980999992007081812004-01717-045400FM-12+004499999V0200901N003610042019N0010001N1+02881+02521101221ADDAA124002091GF105991051021004501001001KA1240N+02311MA1999999100711MD1999999+0031REMSYN082AAXX  18124 82198 22494 50907 10288 20252 30071 40122 85200 333 20231 58003 60024;
0182821980999992007081818004-01717-045400FM-12+004499999V0203201N003110450019N0005001N1+02561+02491100941ADDAA106014091AY191061AY261061GF107991041071004501061001MA1999999100431MD1999999+0001MW1621REMSYN082AAXX  18184 82198 21493 73206 10256 20249 30043 40094 76296 84760 333 58000 60141;
0223821980999992007081900004-01717-045400FM-12+004499999V0200501N003112200019N0002001N1+02411+02311101191ADDAA106005191AY161061AY201061GA1001+999999999GF100991001001999999001001KA1240M+03171MA1999999100681MD1999999+0101MW1001REMSYN094AAXX  19004 82198 21992 00506 10241 20231 30068 40119 70060 333 10317 29090 55062 58010 60051;
0173821980999992007081912004-01717-045400FM-12+004499999V0200901N005710450019N0005001N1+02841+02421101351ADDAA124019191GF106991041021004501061001KA1240N+02201MA1999999100831MD1999999+0121REMSYN082AAXX  19124 82198 22493 60911 10284 20242 30083 40135 84260 333 20220 58012 60194;
0137821980999992007081918004-01717-045400FM-12+004499999V0200901N007210042019N0010001N1+03011+02111101091ADDGF105991051021004501001001MA1999999100581MD1999999+0151REMSYN070AAXX  19184 82198 32494 50914 10301 20211 30058 40109 85200 333 58015;
0168821980999992007082000004-01717-045400FM-12+004499999V0200501N002110450019N0002001N1+02561+02211101261ADDGF105991031011004501031001KA1240M+03141MA1999999100751MD1999999+0071REMSYN088AAXX  20004 82198 32492 50504 10256 20221 30075 40126 83130 333 10314 29075 55101 58007;
0156821980999992007082012004-01717-045400FM-12+004499999V0200501N004610042019N0010001N1+02921+02501101371ADDGF105991051021004501001001KA1240N+02311MA1999999100851MD1999999+0021REMSYN076AAXX  20124 82198 32494 50509 10292 20250 30085 40137 85200 333 20231 58002;
0137821980999992007082018004-01717-045400FM-12+004499999V0200901N005112200019N0010001N1+03081+02241101111ADDGF104991041021004501001001MA1999999100601MD1999999+0021REMSYN070AAXX  20184 82198 32494 40910 10308 20224 30060 40111 84200 333 58002;
0168821980999992007082100004-01717-045400FM-12+004499999V0200501N002610150019N0002001N1+02591+02291101311ADDGF108991081001017501031001KA1240M+03201MA1999999100801MD1999999+0051REMSYN088AAXX  21004 82198 32792 80505 10259 20229 30080 40131 88030 333 10320 29076 55088 58005;
0156821980999992007082112004-01717-045400FM-12+004499999V0200501N004610042019N0010001N1+02791+02321101381ADDGF107991051051004501061001KA1240N+02391MA1999999100861MD1999999+0011REMSYN076AAXX  21124 82198 32494 70509 10279 20232 30086 40138 85560 333 20239 58001;
0182821980999992007082118004-01717-045400FM-12+004499999V0200901N005112200019N0010001N1+02911+02341101051ADDAA106000391AY151061AY221061GF104991031021004501061001MA1999999100541MD1999999-0061MW1021REMSYN082AAXX  21184 82198 21494 40910 10291 20234 30054 40105 70252 83260 333 59006 69931;
0168821980999992007082200004-01717-045400FM-12+004499999V0200501N003112200019N0002001N1+02601+02351101271ADDGF103991031011004501001001KA1240M+03171MA1999999100761MD1999999-0041REMSYN088AAXX  22004 82198 32492 30506 10260 20235 30076 40127 83100 333 10317 29080 55056 59004;
0173821980999992007082212004-01717-045400FM-12+004499999V0200901N003110042019N0010001N1+02851+02381101361ADDAA124000391GF107991051051004501041001KA1240N+02411MA1999999100841MD1999999-0021REMSYN082AAXX  22124 82198 22494 70906 10285 20238 30084 40136 85540 333 20241 59002 69934;
0182821980999992007082218004-01717-045400FM-12+004499999V0200901N004610450019N0010001N1+02971+02351100921ADDAA106000591AY151061AY221061GF105991041021004501061001MA1999999100411MD1999999-0131MW1011REMSYN082AAXX  22184 82198 21494 50909 10297 20235 30041 40092 70152 84260 333 59013 69941;
0168821980999992007082300004-01717-045400FM-12+004499999V0200501N003612200019N0002001N1+02561+02291101131ADDGF103991021011004501061001KA1240M+03131MA1999999100621MD1999999-0141REMSYN088AAXX  23004 82198 32492 30507 10256 20229 30062 40113 82160 333 10313 29079 55033 59014;
0173821980999992007082312004-01717-045400FM-12+004499999V0200901N005110042019N0010001N1+02871+02301101271ADDAA124000591GF107991051021004501061001KA1240N+02301MA1999999100761MD1999999-0081REMSYN082AAXX  23124 82198 22494 70910 10287 20230 30076 40127 85260 333 20230 59008 69944;
0182821980999992007082318004-01717-045400FM-12+004499999V0200901N004610450019N0010001N1+02881+02211100941ADDAA106000591AY151061AY221061GF106991041021008001061011MA1999999100431MD1999999+0021MW1011REMSYN082AAXX  23184 82198 21594 60909 10288 20221 30043 40094 70152 84261 333 58002 69951;
0178821980999992007082400004-01717-045400FM-12+004499999V0200501N002612200019N0002001N1+02501+02251101071ADDGA1001+999999999GF100991001001999999001001KA1240M+03161MA1999999100561MD1999999-0121REMSYN082AAXX  24004 82198 32992 00505 10250 20225 30056 40107 333 10316 29078 55084 59012;
0173821980999992007082412004-01717-045400FM-12+004499999V0200901N005710042019N0010001N1+02851+02221101191ADDAA124000591GF106991061021004501001001KA1240N+02241MA1999999100681MD1999999-0081REMSYN082AAXX  24124 82198 22494 60911 10285 20222 30068 40119 86200 333 20224 59008 69954;
0137821980999992007082418004-01717-045400FM-12+004499999V0200501N005112200019N0010001N1+03061+02191100881ADDGF104991041021004501001001MA1999999100371MD1999999-0061REMSYN070AAXX  24184 82198 32494 40510 10306 20219 30037 40088 84200 333 59006;
0178821980999992007082500004-01717-045400FM-12+004499999V0200501N003112200019N0002001N1+02581+02251101101ADDGA1001+999999999GF100991001001999999001001KA1240M+03171MA1999999100591MD1999999+0031REMSYN082AAXX  25004 82198 32992 00506 10258 20225 30059 40110 333 10317 29075 55099 58003;
0156821980999992007082512004-01717-045400FM-12+004499999V0200901N003612200019N0010001N1+02961+02331101041ADDGF102991021011004501001001KA1240N+02301MA1999999100531MD1999999-0151REMSYN076AAXX  25124 82198 32494 20907 10296 20233 30053 40104 82100 333 20230 59015;
0137821980999992007082518004-01717-045400FM-12+004499999V0200901N004612200019N0010001N1+03211+02271100841ADDGF103991031021004501001001MA1999999100331MD1999999-0041REMSYN070AAXX  25184 82198 32494 30909 10321 20227 30033 40084 83200 333 59004;
0156821980999992007082612004-01717-045400FM-12+004499999V0200701N004110450019N0010001N1+02961+02401101281ADDGF106991041021004501061001KA1240N+02361MA1999999100771MD1999999+0141REMSYN076AAXX  26124 82198 32494 60708 10296 20240 30077 40128 84260 333 20236 58014;
0182821980999992007082618004-01717-045400FM-12+004499999V0200701N006710450019N0010001N1+02901+02121101041ADDAA106009991AY161061AY221061GF106991031021004501061001MA1999999100531MD1999999+0201MW1021REMSYN082AAXX  26184 82198 21494 60713 10290 20212 30053 40104 70262 83260 333 58020 60101;
0168821980999992007082700004-01717-045400FM-12+004499999V0200501N003610450019N0002001N1+02601+02311101191ADDGF107991031041008001061001KA1240M+03091MA1999999100681MD1999999+0111REMSYN088AAXX  27004 82198 32592 70507 10260 20231 30068 40119 83460 333 10309 29076 55055 58011;
0173821980999992007082712004-01717-045400FM-12+004499999V0200901N005112200019N0010001N1+02901+02481101361ADDAA124009991GF104991041011004501001001KA1240N+02201MA1999999100851MD1999999+0071REMSYN082AAXX  27124 82198 22494 40910 10290 20248 30085 40136 84100 333 20220 58007 60104;
0137821980999992007082718004-01717-045400FM-12+004499999V0200501N005112200019N0010001N1+03121+02051101071ADDGF102991021011004501001001MA1999999100561MD1999999+0031REMSYN070AAXX  27184 82198 32494 20510 10312 20205 30056 40107 82100 333 58003;
0178821980999992007082800004-01717-045400FM-12+004499999V0200501N002612200019N0002001N1+02531+02291101251ADDGA1001+999999999GF100991001001999999001001KA1240M+03211MA1999999100741MD1999999+0061REMSYN082AAXX  28004 82198 32992 00505 10253 20229 30074 40125 333 10321 29076 55098 58006;
0184821980999992007082912004-01717-045400FM-12+004499999V0200901N005110450019N0005001N1+02781+02271101411ADDAY101061AY221061GF106991041021004501061001KA1240N+02271MA1999999100891MD1999999+0071MW1051REMSYN082AAXX  29124 82198 31493 60910 10278 20227 30089 40141 70502 84260 333 20227 58007;
0165821980999992007082918004-01717-045400FM-12+004499999V0200501N004110450019N0005001N1+03021+02241101121ADDAY141061AY221061GF106991041021004501061001MA1999999100611MD1999999+0051MW1051REMSYN076AAXX  29184 82198 31493 60508 10302 20224 30061 40112 70542 84260 333 58005;
0168821980999992007083000004-01717-045400FM-12+004499999V0200501N003112200019N0002001N1+02561+02231101281ADDGF101991011011004501001001KA1240M+03211MA1999999100771MD1999999+0071REMSYN088AAXX  30004 82198 32492 10506 10256 20223 30077 40128 81100 333 10321 29075 55090 58007;
0184821980999992007083012004-01717-045400FM-12+004499999V0200901N004610450019N0005001N1+02841+02311101421ADDAY101061AY221061GF106991041021004501061001KA1240N+02231MA1999999100901MD1999999+0011MW1051REMSYN082AAXX  30124 82198 31493 60909 10284 20231 30090 40142 70502 84260 333 20223 58001;
0165821980999992007083018004-01717-045400FM-12+004499999V0200501N006210450019N0005001N1+02961+02231101131ADDAY121061AY221061GF106991041021004501061001MA1999999100621MD1999999+0011MW1151REMSYN076AAXX  30184 82198 31493 60512 10296 20223 30062 40113 71522 84260 333 58001;
0178821980999992007083100004-01717-045400FM-12+004499999V0200701N003612200019N0002001N1+02531+02231101311ADDGA1001+999999999GF100991001001999999001001KA1240M+03131MA1999999100801MD1999999+0031REMSYN082AAXX  31004 82198 32992 00707 10253 20223 30080 40131 333 10313 29077 55084 58003;
0184821980999992007083112004-01717-045400FM-12+004499999V0200701N007210042019N0010001N1+02941+02291101441ADDAY101061AY221061GF105991051021004501001001KA1240N+02311MA1999999100921MD1999999+0021MW1051REMSYN082AAXX  31124 82198 31494 50714 10294 20229 30092 40144 70502 85200 333 20231 58002;
0196821980999992007090100004-01717-045400FM-12+004499999V0200501N002112200019N0002001N1+02541+02131101401ADDAY101061AY211061GF101991011011004501001001KA1240M+03151MA1999999100881MD1999999+0081MW1131REMSYN094AAXX  01004 82198 31492 10504 10254 20213 30088 40140 71301 81100 333 10315 29070 55102 58008;
0184821980999992007090112004-01717-045400FM-12+004499999V0200701N005110042019N0005001N1+02901+02301101471ADDAY101061AY221061GF105991051021004501001001KA1240N+02201MA1999999100951MD1999999+0031MW1051REMSYN082AAXX  01124 82198 31493 50710 10290 20230 30095 40147 70502 85200 333 20220 58003;
0165821980999992007090118004-01717-045400FM-12+004499999V0200701N005110042019N0005001N1+03071+02051101251ADDAY121061AY221061GF106991061021004501001001MA1999999100741MD1999999+0041MW1051REMSYN076AAXX  01184 82198 31493 60710 10307 20205 30074 40125 70522 86200 333 58004;
0178821980999992007090200004-01717-045400FM-12+004499999V0200501N002612200019N0002001N1+02501+02211101371ADDGA1001+999999999GF100991001001999999001001KA1240M+03181MA1999999100851MD1999999-0031REMSYN082AAXX  02004 82198 32992 00505 10250 20221 30085 40137 333 10318 29074 55096 59003;
0184821980999992007090212004-01717-045400FM-12+004499999V0200901N004610450019N0005001N1+02881+02321101491ADDAY101061AY221061GF106991041021004501061001KA1240N+02231MA1999999100971MD1999999+0021MW1051REMSYN082AAXX  02124 82198 31493 60909 10288 20232 30097 40149 70502 84260 333 20223 58002;
0165821980999992007090218004-01717-045400FM-12+004499999V0200901N005112200019N0010001N1+03201+02211101191ADDAY121061AY221061GF104991041021004501001001MA1999999100681MD1999999-0061MW1041REMSYN076AAXX  02184 82198 31494 40910 10320 20221 30068 40119 70422 84200 333 59006;
0178821980999992007090300004-01717-045400FM-12+004499999V0200501N003612200019N0002001N1+02581+02291101361ADDGA1001+999999999GF100991001001999999001001KA1240M+03341MA1999999100841MD1999999-0011REMSYN082AAXX  03004 82198 32992 00507 10258 20229 30084 40136 333 10334 29074 55105 59001;
0184821980999992007090312004-01717-045400FM-12+004499999V0200501N003610450019N0005001N1+02831+02421101461ADDAY101061AY221061GF106991041021004501061001KA1240N+02341MA1999999100941MD1999999-0031MW1051REMSYN082AAXX  03124 82198 31493 60507 10283 20242 30094 40146 70502 84260 333 20234 59003;
0165821980999992007090318004-01717-045400FM-12+004499999V0200701N006212200019N0010001N1+03141+02211101141ADDAY121061AY211061GF103991021021004501001011MA1999999100631MD1999999-0051MW1041REMSYN076AAXX  03184 82198 31494 30712 10314 20221 30063 40114 70421 82201 333 59005;
0178821980999992007090400004-01717-045400FM-12+004499999V0200501N003112200019N0002001N1+02561+02271101381ADDGA1001+999999999GF100991001001999999001001KA1240M+03231MA1999999100861MD1999999+0021REMSYN082AAXX  04004 82198 32992 00506 10256 20227 30086 40138 333 10323 29076 55099 58002;
0184821980999992007090412004-01717-045400FM-12+004499999V0200901N004610450019N0005001N1+02781+02321101471ADDAY141061AY221061GF106991041021004501061001KA1240N+02271MA1999999100951MD1999999+0011MW1041REMSYN082AAXX  04124 82198 31493 60909 10278 20232 30095 40147 70442 84260 333 20227 58001;
0165821980999992007090418004-01717-045400FM-12+004499999V0200901N005712200019N0010001N1+03131+02121101181ADDAY121061AY221061GF103991031021004501001001MA1999999100671MD1999999+0041MW1041REMSYN076AAXX  04184 82198 31494 30911 10313 20212 30067 40118 70422 83200 333 58004;
0178821980999992007090500004-01717-045400FM-12+004499999V0200501N003112200019N0002001N1+02551+02291101351ADDGA1001+999999999GF100991001001999999001001KA1240M+03221MA1999999100831MD1999999-0031REMSYN082AAXX  05004 82198 32992 00506 10255 20229 30083 40135 333 10322 29074 55100 59003;
0184821980999992007090512004-01717-045400FM-12+004499999V0200901N005710042019N0010001N1+02881+02251101471ADDAY141061AY221061GF105991051021004501001001KA1240N+02261MA1999999100951MD1999999+0001MW1041REMSYN082AAXX  05124 82198 31494 50911 10288 20225 30095 40147 70442 85200 333 20226 58000;
0165821980999992007090518004-01717-045400FM-12+004499999V0200901N003112200019N0005001N1+03171+02181101201ADDAY121061AY221061GF104991041021004501001001MA1999999100691MD1999999+0021MW1041REMSYN076AAXX  05184 82198 31493 40906 10317 20218 30069 40120 70422 84200 333 58002;
0178821980999992007090600004-01717-045400FM-12+004499999V0200501N002612200019N0002001N1+02561+02231101401ADDGA1001+999999999GF100991001001999999001001KA1240M+03231MA1999999100881MD1999999+0051REMSYN082AAXX  06004 82198 32992 00505 10256 20223 30088 40140 333 10323 29072 55102 58005;
0184821980999992007090612004-01717-045400FM-12+004499999V0200501N005110042019N0010001N1+02921+02291101491ADDAY141061AY221061GF106991061021004501001001KA1240N+02281MA1999999100971MD1999999+0021MW1041REMSYN082AAXX  06124 82198 31494 60510 10292 20229 30097 40149 70442 86200 333 20228 58002;
0182821980999992007090618004-01717-045400FM-12+004499999V0203601N004110450019N0005001N1+02891+02201101181ADDAA106006191AY161061AY221061GF107991041071004501021001MA1999999100671MD1999999-0021MW1151REMSYN082AAXX  06184 82198 21493 73608 10289 20220 30067 40118 71562 84720 333 59002 60061;
0178821980999992007090700004-01717-045400FM-12+004499999V0200701N003612200019N0002001N1+02581+02231101381ADDGA1001+999999999GF100991001001999999001001KA1240M+03151MA1999999100861MD1999999-0021REMSYN082AAXX  07004 82198 32992 00707 10258 20223 30086 40138 333 10315 29075 55067 59002;
0201821980999992007090712004-01717-045400FM-12+004499999V0200501N008210450019N0005001N1+02881+02301101501ADDAA124006191AY141061AY221061GF107991041021004501061011KA1240N+02401MA1999999100981MD1999999+0011MW1281REMSYN088AAXX  07124 82198 21493 70516 10288 20230 30098 40150 72842 84261 333 20240 58001 60064;
0182821980999992007090718004-01717-045400FM-12+004499999V0200901N004110450019N0005001N1+03081+02291101151ADDAA106000591AY151061AY221061GF107991041021004501061001MA1999999100641MD1999999-0031MW1041REMSYN082AAXX  07184 82198 21493 70908 10308 20229 30064 40115 70452 84260 333 59003 69941;
0196821980999992007090800004-01717-045400FM-12+004499999V0200501N003112200019N0002001N1+02561+02211101411ADDAY111061AY221061GF103991031001017501061001KA1240M+03201MA1999999100891MD1999999+0031MW1131REMSYN094AAXX  08004 82198 31792 30506 10256 20221 30089 40141 71312 83060 333 10320 29074 55070 58003;
0201821980999992007090812004-01717-045400FM-12+004499999V0200901N005710042019N0010001N1+02881+02211101371ADDAA124000591AY141061AY221061GF106991061021004501001001KA1240N+02311MA1999999100851MD1999999-0131MW1281REMSYN088AAXX  08124 82198 21494 60911 10288 20221 30085 40137 72842 86200 333 20231 59013 69944;
0165821980999992007090818004-01717-045400FM-12+004499999V0200501N005710450019N0010001N1+03051+02141101121ADDAY141061AY221061GF106991041021004501061011MA1999999100611MD1999999-0031MW1041REMSYN076AAXX  08184 82198 31494 60511 10305 20214 30061 40112 70442 84261 333 59003;
0178821980999992007090900004-01717-045400FM-12+004499999V0200501N003612200019N0002001N1+02561+02271101251ADDGA1001+999999999GF100991001001999999001001KA1240M+03401MA1999999100741MD1999999-0151REMSYN082AAXX  09004 82198 32992 00507 10256 20227 30074 40125 333 10340 29074 55105 59015;
0184821980999992007090912004-01717-045400FM-12+004499999V0200901N003110450019N0005001N1+02801+02341101271ADDAY141061AY221061GF107991041051004501061001KA1240N+02281MA1999999100761MD1999999-0091MW1281REMSYN082AAXX  09124 82198 31493 70906 10280 20234 30076 40127 72842 84560 333 20228 59009;
0182821980999992007090918004-01717-045400FM-12+004499999V0200901N006210450019N0010001N1+02841+02221101021ADDAA106000591AY161061AY221061GF105991031021004501061001MA1999999100511MD1999999-0101MW1041REMSYN082AAXX  09184 82198 21494 50912 10284 20222 30051 40102 70462 83260 333 59010 69961;
0168821980999992007091000004-01717-045400FM-12+004499999V0200201N003612200019N0002001N1+02591+02271101171ADDGF101991011001022501001011KA1240M+03161MA1999999100661MD1999999-0081REMSYN088AAXX  10004 82198 32892 10207 10259 20227 30066 40117 81001 333 10316 29077 55068 59008;
0201821980999992007091012004-01717-045400FM-12+004499999V0200901N005110450019N0005001N1+02851+02401101291ADDAA124000591AY141061AY221061GF106991041021004501061001KA1240N+02301MA1999999100781MD1999999+0021MW1281REMSYN088AAXX  10124 82198 21493 60910 10285 20240 30078 40129 72842 84260 333 20230 58002 69964;
0165821980999992007091018004-01717-045400FM-12+004499999V0200701N003612200019N0010001N1+03241+02261100941ADDAY141061AY221061GF103991031021004501001001MA1999999100431MD1999999-0081MW1041REMSYN076AAXX  10184 82198 31494 30707 10324 20226 30043 40094 70442 83200 333 59008;
0178821980999992007091100004-01717-045400FM-12+004499999V0200501N004112200019N0002001N1+02591+02331101081ADDGA1001+999999999GF100991001001999999001001KA1240M+03311MA1999999100571MD1999999-0111REMSYN082AAXX  11004 82198 32992 00508 10259 20233 30057 40108 333 10331 29076 55101 59011;
0156821980999992007091112004-01717-045400FM-12+004499999V0200901N004610042019N0010001N1+02891+02391101331ADDGF105991051021004501001001KA1240N+02281MA1999999100821MD1999999+0021REMSYN076AAXX  11124 82198 32494 50909 10289 20239 30082 40133 85200 333 20228 58002;
0165821980999992007091118004-01717-045400FM-12+004499999V0200901N002110450019N0005001N1+03091+02271100921ADDAY141061AY221061GF106991041021004501061011MA1999999100411MD1999999-0021MW1041REMSYN076AAXX  11184 82198 31493 60904 10309 20227 30041 40092 70442 84261 333 59002;
0178821980999992007091200004-01717-045400FM-12+004499999V0200901N002612200019N0002001N1+02591+02351101121ADDGA1001+999999999GF100991001001999999001001KA1240M+03261MA1999999100611MD1999999+0041REMSYN082AAXX  12004 82198 32992 00905 10259 20235 30061 40112 333 10326 29076 55093 58004;
0184821980999992007091212004-01717-045400FM-12+004499999V0201101N005110450019N0005001N1+02831+02201101271ADDAY141061AY221061GF106991031021004501061001KA1240N+02221MA1999999100761MD1999999+0001MW1281REMSYN082AAXX  12124 82198 31493 61110 10283 20220 30076 40127 72842 83260 333 20222 58000;
0165821980999992007091218004-01717-045400FM-12+004499999V0200901N005110042019N0005001N1+03291+01931100921ADDAY141061AY221061GF105991051021004501001001MA1999999100411MD1999999+0001MW1041REMSYN076AAXX  12184 82198 31493 50910 10329 20193 30041 40092 70442 85200 333 58000;
0178821980999992007091300004-01717-045400FM-12+004499999V0200501N002112200019N0002001N1+02591+02191101141ADDGA1001+999999999GF100991001001999999001001KA1240M+03351MA1999999100631MD1999999+0021REMSYN082AAXX  13004 82198 32992 00504 10259 20219 30063 40114 333 10335 29068 55100 58002;
0184821980999992007091312004-01717-045400FM-12+004499999V0200901N005710042019N0005001N1+02871+02181101211ADDAY141061AY221061GF106991061021004501001001KA1240N+02301MA1999999100701MD1999999-0081MW1281REMSYN082AAXX  13124 82198 31493 60911 10287 20218 30070 40121 72842 86200 333 20230 59008;
0165821980999992007091318004-01717-045400FM-12+004499999V0200901N007212200019N0002001N1+03141+01971100941ADDAY111061AY221061GF103991031011004501001001MA1999999100431MD1999999+0021MW1041REMSYN076AAXX  13184 82198 31492 30914 10314 20197 30043 40094 70412 83100 333 58002;
0178821980999992007091400004-01717-045400FM-12+004499999V0200501N003112200019N0002001N1+02581+02291101111ADDGA1001+999999999GF100991001001999999001001KA1240M+03251MA1999999100601MD1999999-0031REMSYN082AAXX  14004 82198 32992 00506 10258 20229 30060 40111 333 10325 29072 55102 59003;
0201821980999992007091418004-01717-045400FM-12+004499999V0200701N004612200019N0005001N1+03151+02181101051ADDAA106000391AY151061AY221061GF103991999021004501001001MA1999999100541MD1999999+0111MW1041REMSYN082AAXX  14184 82198 21493 30709 10315 20218 30054 40105 70452 82200 333 58011 69931;EQDQ01+000022SCOTLC
0178821980999992007091500004-01717-045400FM-12+004499999V0200501N003112200019N0002001N1+02561+02231101171ADDGA1001+999999999GF100991001001999999001001KA1240M+03231MA1999999100661MD1999999+0061REMSYN082AAXX  15004 82198 32992 00506 10256 20223 30066 40117 333 10323 29072 55084 58006;
0201821980999992007091512004-01717-045400FM-12+004499999V0200901N003110450019N0005001N1+02791+02341101261ADDAA124000391AY141061AY221061GF107991041051004501021001KA1240N+02251MA1999999100751MD1999999+0021MW1051REMSYN088AAXX  15124 82198 21493 70906 10279 20234 30075 40126 70542 84520 333 20225 58002 69934;
0165821980999992007091518004-01717-045400FM-12+004499999V0200901N005112200019N0010001N1+03161+02181100971ADDAY161061AY221061GF104991041021004501001001MA1999999100461MD1999999-0081MW1041REMSYN076AAXX  15184 82198 31494 40910 10316 20218 30046 40097 70462 84200 333 59008;
0178821980999992007091600004-01717-045400FM-12+004499999V0200701N002612200019N0002001N1+02571+02311101131ADDGA1001+999999999GF100991001001999999001001KA1240M+03271MA1999999100621MD1999999-0041REMSYN082AAXX  16004 82198 32992 00705 10257 20231 30062 40113 333 10327 29076 55100 59004;
0184821980999992007091612004-01717-045400FM-12+004499999V0200701N004610450019N0010001N1+02881+02301101231ADDAY111061AY221061GF106991041021004501061001KA1240N+02261MA1999999100721MD1999999-0031MW1051REMSYN082AAXX  16124 82198 31494 60709 10288 20230 30072 40123 70512 84260 333 20226 59003;
0165821980999992007091618004-01717-045400FM-12+004499999V0200701N004110042019N0005001N1+03101+02261101001ADDAY121061AY221061GF106991061021004501001001MA1999999100491MD1999999+0031MW1041REMSYN076AAXX  16184 82198 31493 60708 10310 20226 30049 40100 70422 86200 333 58003;
0178821980999992007091700004-01717-045400FM-12+004499999V0200501N003112200019N0002001N1+02601+02251101101ADDGA1001+999999999GF100991001001999999001001KA1240M+03231MA1999999100591MD1999999-0031REMSYN082AAXX  17004 82198 32992 00506 10260 20225 30059 40110 333 10323 29074 55082 59003;
0184821980999992007091712004-01717-045400FM-12+004499999V0200501N004612200019N0010001N1+02991+02531101221ADDAY101061AY221061GF103991021021004501001011KA1240N+02331MA1999999100711MD1999999-0011MW1281REMSYN082AAXX  17124 82198 31494 30509 10299 20253 30071 40122 72802 82201 333 20233 59001;
0165821980999992007091718004-01717-045400FM-12+004499999V0200701N005112200019N0010001N1+03231+02301101091ADDAY121061AY221061GF103991021021004501001011MA1999999100581MD1999999+0091MW1041REMSYN076AAXX  17184 82198 31494 30710 10323 20230 30058 40109 70422 82201 333 58009;
0184821980999992007091812004-01717-045400FM-12+004499999V0200501N005710450019N0010001N1+02771+02271101381ADDAY101061AY221061GF106991041021004501061001KA1240N+02361MA1999999100861MD1999999+0151MW1281REMSYN082AAXX  18124 82198 31494 60511 10277 20227 30086 40138 72802 84260 333 20236 58015;
0178821980999992007091900004-01717-045400FM-12+004499999V02099999999992200019N0002001N1+02581+02231101271ADDGA1001+999999999GF100991001001999999001001KA1240M+03371MA1999999100761MD1999999+0061REMSYN082AAXX  19004 82198 32992 0//// 10258 20223 30076 40127 333 10337 29072 55094 58006;
0184821980999992007091912004-01717-045400FM-12+004499999V02099999999990450019N0010001N1+02911+02201101471ADDAY101061AY221061GF106991041021004501061001KA1240N+02301MA1999999100951MD1999999+0091MW1051REMSYN082AAXX  19124 82198 31494 6//// 10291 20220 30095 40147 70502 84260 333 20230 58009;
0165821980999992007091918004-01717-045400FM-12+004499999V02099999999992200019N0010001N1+03121+02141101191ADDAY121061AY221061GF104991041021004501001001MA1999999100681MD1999999-0031MW1041REMSYN076AAXX  19184 82198 31494 4//// 10312 20214 30068 40119 70422 84200 333 59003;
0168821980999992007092000004-01717-045400FM-12+004499999V02099999999992200019N0002001N1+02581+02271101241ADDGF102991021011004501001001KA1240M+03371MA1999999100731MD1999999-0031REMSYN088AAXX  20004 82198 32492 2//// 10258 20227 30073 40124 82100 333 10337 29072 55105 59003;
0184821980999992007092012004-01717-045400FM-12+004499999V02099999999990042019N0010001N1+02841+02331101241ADDAY101061AY221061GF105991051021004501001001KA1240N+02271MA1999999100731MD1999999-0221MW1051REMSYN082AAXX  20124 82198 31494 5//// 10284 20233 30073 40124 70502 85200 333 20227 59022;
0165821980999992007092018004-01717-045400FM-12+004499999V02099999999990450019N0005001N1+03161+02151100961ADDAY121061AY221061GF106991041021004501061001MA1999999100451MD1999999-0231MW1041REMSYN076AAXX  20184 82198 31493 6//// 10316 20215 30045 40096 70422 84260 333 59023;
0178821980999992007092100004-01717-045400FM-12+004499999V02099999999992200019N0002001N1+02591+02231101121ADDGA1001+999999999GF100991001001999999001001KA1240M+03481MA1999999100611MD1999999-0121REMSYN082AAXX  21004 82198 32992 0//// 10259 20223 30061 40112 333 10348 29073 55095 59012;
0184821980999992007092112004-01717-045400FM-12+004499999V02099999999990042019N0005001N1+02791+02311101231ADDAY101061AY221061GF107991051071004501021001KA1240N+02331MA1999999100721MD1999999-0011MW1051REMSYN082AAXX  21124 82198 31493 7//// 10279 20231 30072 40123 70502 85720 333 20233 59001;
0165821980999992007092118004-01717-045400FM-12+004499999V02099999999992200019N0010001N1+03201+02211100991ADDAY121061AY221061GF103991031021004501001001MA1999999100481MD1999999+0031MW1041REMSYN076AAXX  21184 82198 31494 3//// 10320 20221 30048 40099 70422 83200 333 58003;
0168821980999992007092200004-01717-045400FM-12+004499999V02099999999992200019N0002001N1+02591+02271101301ADDGF102991021001022501001011KA1240M+03331MA1999999100791MD1999999+0181REMSYN088AAXX  22004 82198 32892 2//// 10259 20227 30079 40130 82001 333 10333 29074 55074 58018;
0165821980999992007092218004-01717-045400FM-12+004499999V02099999999990450019N0005001N1+03081+02111101011ADDAY121061AY221061GF106991041021004501011001MA1999999100501MD1999999+0021MW1041REMSYN076AAXX  22184 82198 31493 6//// 10308 20211 30050 40101 70422 84210 333 58002;
0184821980999992007092312004-01717-045400FM-12+004499999V02099999999990450019N0005001N1+02971+02271101291ADDAY101061AY221061GF106991041051004501061001KA1240N+02291MA1999999100781MD1999999+0041MW1051REMSYN082AAXX  23124 82198 31493 6//// 10297 20227 30078 40129 70502 84560 333 20229 58004;
0165821980999992007092318004-01717-045400FM-12+004499999V02099999999992200019N0005001N1+03181+02041101021ADDAY121061AY221061GF104991041021004501001001MA1999999100511MD1999999+0011MW1041REMSYN076AAXX  23184 82198 31493 4//// 10318 20204 30051 40102 70422 84200 333 58001;
0168821980999992007092400004-01717-045400FM-12+004499999V02099999999992200019N0002001N1+02601+02251101181ADDGF102991021011004501001001KA1240M+03271MA1999999100671MD1999999+0011REMSYN088AAXX  24004 82198 32492 2//// 10260 20225 30067 40118 82100 333 10327 29027 55103 58001;
0184821980999992007092412004-01717-045400FM-12+004499999V02099999999990450019N0005001N1+02971+02601101401ADDAY101061AY221061GF106991041051004501061001KA1240N+02341MA1999999100881MD1999999+0101MW1051REMSYN082AAXX  24124 82198 31493 6//// 10297 20260 30088 40140 70502 84560 333 20234 58010;
0165821980999992007092418004-01717-045400FM-12+004499999V02099999999990450019N0005001N1+03141+02161101121ADDAY121061AY221061GF106991041021004501061001MA1999999100611MD1999999+0101MW1041REMSYN076AAXX  24184 82198 31493 6//// 10314 20216 30061 40112 70422 84260 333 58010;
0178821980999992007092500004-01717-045400FM-12+004499999V02099999999992200019N0002001N1+02631+02291101251ADDGA1001+999999999GF100991001001999999001001KA1240M+03401MA1999999100741MD1999999+0071REMSYN082AAXX  25004 82198 32992 0//// 10263 20229 30074 40125 333 10340 29075 55099 58007;
0184821980999992007092512004-01717-045400FM-12+004499999V02099999999990450019N0005001N1+02961+02231101361ADDAY101061AY221061GF106991041051004501061001KA1240N+02331MA1999999100841MD1999999-0041MW1051REMSYN082AAXX  25124 82198 31493 6//// 10296 20223 30084 40136 70502 84560 333 20233 59004;
0168821980999992007092600004-01717-045400FM-12+004499999V02099999999992200019N0002001N1+02561+02271101281ADDGF101991011011004501001001KA1240M+03211MA1999999100771MD1999999+0031REMSYN088AAXX  26004 82198 32492 1//// 10256 20227 30077 40128 81100 333 10321 29074 55098 58003;
0184821980999992007092612004-01717-045400FM-12+004499999V02099999999990450019N0005001N1+02851+02251101441ADDAY141061AY221061GF107991041021004501061001KA1240N+02271MA1999999100921MD1999999+0081MW1041REMSYN082AAXX  26124 82198 31493 7//// 10285 20225 30092 40144 70442 84260 333 20227 58008;
0165821980999992007092618004-01717-045400FM-12+004499999V02099999999990042019N0005001N1+03051+02051101091ADDAY161061AY221061GF106991061021004501001001MA1999999100581MD1999999+0011MW1041REMSYN076AAXX  26184 82198 31493 6//// 10305 20205 30058 40109 70462 86200 333 58001;
0178821980999992007092700004-01717-045400FM-12+004499999V02099999999992200019N0002001N1+02571+02401101371ADDGA1001+999999999GF100991001001999999001001KA1240M+03201MA1999999100851MD1999999+0081REMSYN082AAXX  27004 82198 32992 0//// 10257 20240 30085 40137 333 10320 29077 55066 58008;
0184821980999992007092712004-01717-045400FM-12+004499999V02099999999990450019N0005001N1+02851+02151101521ADDAY101061AY221061GF107991041071004501061001KA1240N+02291MA1999999101001MD1999999+0081MW1041REMSYN082AAXX  27124 82198 31493 7//// 10285 20215 30100 40152 70402 84760 333 20229 58008;
0165821980999992007092718004-01717-045400FM-12+004499999V02099999999990042019N0005001N1+03151+02121101121ADDAY121061AY221061GF105991051021004501001001MA1999999100611MD1999999+0031MW1041REMSYN076AAXX  27184 82198 31493 5//// 10315 20212 30061 40112 70422 85200 333 58003;
0178821980999992007092800004-01717-045400FM-12+004499999V02099999999992200019N0002001N1+02591+02271101291ADDGA1001+999999999GF100991001001999999001001KA1240M+03221MA1999999100781MD1999999-0071REMSYN082AAXX  28004 82198 32992 0//// 10259 20227 30078 40129 333 10322 29071 55098 59007;
0201821980999992007092818004-01717-045400FM-12+004499999V02099999999999999999N0005001N1+02991+02221101241ADDAA106000391AY161061AY221061GF106991999021004501011001MA1999999100731MD1999999+0121MW1041REMSYN082AAXX  28184 82198 21493 6//// 10299 20222 30073 40124 70462 80210 333 58012 69931;EQDQ01+000002SCOTLC
0165821980999992007092918004-01717-045400FM-12+004499999V02099999999992200019N0005001N1+03211+02181101201ADDAY141061AY221061GF105991031021004501001011MA1999999100691MD1999999-0041MW1041REMSYN076AAXX  29184 82198 31493 5//// 10321 20218 30069 40120 70442 83201 333 59004;
0168821980999992007093000004-01717-045400FM-12+004499999V02099999999992200019N0002001N1+02601+02251101341ADDGF102991011011004501001061KA1240M+03211MA1999999100821MD1999999-0071REMSYN088AAXX  30004 82198 32492 2//// 10260 20225 30082 40134 81106 333 10321 29072 55100 59007;
0184821980999992007100112004-01717-045400FM-12+004499999V02099999999990450019N0005001N1+02891+02311101481ADDAY101061AY221061GF106991041021004501061001KA1240N+02351MA1999999100961MD1999999+0111MW1051REMSYN082AAXX  01124 82198 31493 6//// 10289 20231 30096 40148 70502 84260 333 20235 58011;
0178821980999992007100200004-01717-045400FM-12+004499999V02099999999992200019N0002001N1+02581+02291101311ADDGA1001+999999999GF100991001001999999001001KA1240M+03351MA1999999100801MD1999999+0021REMSYN082AAXX  02004 82198 32992 0//// 10258 20229 30080 40131 333 10335 29075 55100 58002;
0184821980999992007100312004-01717-045400FM-12+004499999V02099999999990075019N0005001N1+02831+02271101341ADDAY121061AY201061GF107991051021008001031001KA1240N+02291MA1999999100831MD1999999-0101MW1051REMSYN082AAXX  03124 82198 31593 7//// 10283 20227 30083 40134 70520 85230 333 20229 59010;
0137821980999992007100318004-01717-045400FM-12+004499999V02099999999990450019N0010001N1+03091+02241101031ADDGF105991031021004501061001MA1999999100521MD1999999-0121REMSYN070AAXX  03184 82198 32494 5//// 10309 20224 30052 40103 83260 333 59012;
0178821980999992007100400004-01717-045400FM-12+004499999V02099999999992200019N0002001N1+02601+02311101221ADDGA1001+999999999GF100991001001999999001001KA1240M+03211MA1999999100711MD1999999-0071REMSYN082AAXX  04004 82198 32992 0//// 10260 20231 30071 40122 333 10321 29076 55066 59007;
0156821980999992007100412004-01717-045400FM-12+004499999V02099999999990042019N0010001N1+02851+02331101301ADDGF107991051021004501061001KA1240N+02361MA1999999100791MD1999999-0041REMSYN076AAXX  04124 82198 32494 7//// 10285 20233 30079 40130 85260 333 20236 59004;
0182821980999992007100418004-01717-045400FM-12+004499999V02099999999990042019N0010001N1+02471+02391100971ADDAA106004191AY191061AY261061GF107991051041004501041001MA1999999100461MD1999999-0061MW1621REMSYN082AAXX  04184 82198 21494 7//// 10247 20239 30046 40097 76296 85440 333 59006 60041;
0168821980999992007100500004-01717-045400FM-12+004499999V02099999999999999999N0002001N1+02461+02341101191ADDGF105991051001012501061001KA1240M+03211MA1999999100681MD1999999-0031REMSYN088AAXX  05004 82198 32692 5//// 10246 20234 30068 40119 85060 333 10321 29089 55052 59003;
0173821980999992007100512004-01717-045400FM-12+004499999V02099999999990450019N0010001N1+02761+02401101331ADDAA124004191GF105991031021004501061001KA1240N+02291MA1999999100821MD1999999+0031REMSYN082AAXX  05124 82198 22494 5//// 10276 20240 30082 40133 83260 333 20229 58003 60044;
0165821980999992007100518004-01717-045400FM-12+004499999V02099999999992200019N0010001N1+03051+02191100971ADDAY121061AY211061GF104991031021004501061001MA1999999100461MD1999999+0001MW1041REMSYN076AAXX  05184 82198 31494 4//// 10305 20219 30046 40097 70421 83260 333 58000;
0178821980999992007100600004-01717-045400FM-12+004499999V02099999999992200019N0002001N1+02541+02251101081ADDGA1001+999999999GF100991001001999999001001KA1240M+03201MA1999999100571MD1999999-0111REMSYN082AAXX  06004 82198 32992 0//// 10254 20225 30057 40108 333 10320 29077 55060 59011;
0156821980999992007100612004-01717-045400FM-12+004499999V02099999999990450019N0010001N1+02941+02331101171ADDGF105991041021004501061001KA1240N+02251MA1999999100661MD1999999-0161REMSYN076AAXX  06124 82198 32494 5//// 10294 20233 30066 40117 84260 333 20225 59016;
0137821980999992007100618004-01717-045400FM-12+004499999V02099999999992200019N0010001N1+03211+02061100881ADDGF102991021021004501001001MA1999999100371MD1999999-0091REMSYN070AAXX  06184 82198 32494 2//// 10321 20206 30037 40088 82200 333 59009;
0178821980999992007100700004-01717-045400FM-12+004499999V02099999999992200019N0002001N1+02561+02271101061ADDGA1001+999999999GF100991001001999999001001KA1240M+03321MA1999999100551MD1999999-0021REMSYN082AAXX  07004 82198 32992 0//// 10256 20227 30055 40106 333 10332 29072 55108 59002;
0156821980999992007100712004-01717-045400FM-12+004499999V02099999999990042019N0010001N1+02961+02231101121ADDGF105991051021004501001001KA1240N+02301MA1999999100611MD1999999-0051REMSYN076AAXX  07124 82198 32494 5//// 10296 20223 30061 40112 85200 333 20230 59005;
0137821980999992007100718004-01717-045400FM-12+004499999V02099999999992200019N0010001N1+03161+02171100781ADDGF103991031021004501001001MA1999999100271MD1999999-0101REMSYN070AAXX  07184 82198 32494 3//// 10316 20217 30027 40078 83200 333 59010;
0178821980999992007100800004-01717-045400FM-12+004499999V02099999999992200019N0002001N1+02581+02231101031ADDGA1001+999999999GF100991001001999999001001KA1240M+03281MA1999999100521MD1999999-0031REMSYN082AAXX  08004 82198 32992 0//// 10258 20223 30052 40103 333 10328 29071 55094 59003;
0156821980999992007100812004-01717-045400FM-12+004499999V02099999999990042019N0010001N1+02871+02351101181ADDGF106991051021004501061001KA1240N+02271MA1999999100671MD1999999+0061REMSYN076AAXX  08124 82198 32494 6//// 10287 20235 30067 40118 85260 333 20227 58006;
0165821980999992007100818004-01717-045400FM-12+004499999V02099999999992200019N0005001N1+03091+02211100791ADDAY121061AY211061GF102991021011004501001001MA1999999100281MD1999999+0011MW1041REMSYN076AAXX  08184 82198 31493 2//// 10309 20221 30028 40079 70421 82100 333 58001;
0178821980999992007100900004-01717-045400FM-12+004499999V02099999999992200019N0002001N1+02581+02271100971ADDGA1001+999999999GF100991001001999999001001KA1240M+03221MA1999999100461MD1999999-0061REMSYN082AAXX  09004 82198 32992 0//// 10258 20227 30046 40097 333 10322 29075 55081 59006;
0184821980999992007100912004-01717-045400FM-12+004499999V02099999999990450019N0005001N1+02891+02271101191ADDAY101061AY221061GF107991041051004501061001KA1240N+02271MA1999999100681MD1999999+0011MW1281REMSYN082AAXX  09124 82198 31493 7//// 10289 20227 30068 40119 72802 84560 333 20227 58001;
0201821980999992007100918004-01717-045400FM-12+004499999V02099999999990042019N0005001N1+03181+02121100781ADDAA106000091AY151061AY221061GF105991051021004501001001MA1999999100271MD1999999-0011MW1041REMSYN082AAXX  09184 82198 21493 5//// 10318 20212 30027 40078 70452 85200 333 59001 69921;EQDQ01  00002PRCP06
0178821980999992007101000004-01717-045400FM-12+004499999V02099999999992200019N0002001N1+02641+02351101091ADDGA1001+999999999GF100991001001999999001001KA1240M+03281MA1999999100581MD1999999+0121REMSYN082AAXX  10004 82198 32992 0//// 10264 20235 30058 40109 333 10328 29073 55077 58012;
0220821980999992007101012004-01717-045400FM-12+004499999V02099999999990450019N0005001N1+02831+02271101211ADDAA124000091AY141061AY221061GF107991041071004501061001KA1240N+02321MA1999999100701MD1999999+0021MW1281REMSYN088AAXX  10124 82198 21493 7//// 10283 20227 30070 40121 72842 84760 333 20232 58002 69924;EQDQ01  00002PRCP24
0165821980999992007101018004-01717-045400FM-12+004499999V02099999999990042019N0005001N1+03111+02261100761ADDAY121061AY221061GF105991051021004501001001MA1999999100251MD1999999-0021MW1041REMSYN076AAXX  10184 82198 31493 5//// 10311 20226 30025 40076 70422 85200 333 59002;
0168821980999992007101100004-01717-045400FM-12+004499999V02099999999992200019N0002001N1+02651+02191101061ADDGF101991011011004501001001KA1240M+03311MA1999999100551MD1999999-0031REMSYN088AAXX  11004 82198 32492 1//// 10265 20219 30055 40106 81100 333 10331 29072 55073 59003;
0184821980999992007101112004-01717-045400FM-12+004499999V02099999999990450019N0005001N1+02841+02311101111ADDAY101061AY221061GF107991041031004501041001KA1240N+02361MA1999999100601MD1999999-0101MW1281REMSYN082AAXX  11124 82198 31493 7//// 10284 20231 30060 40111 72802 84340 333 20236 59010;
0182821980999992007101118004-01717-045400FM-12+004499999V02099999999990042019N0010001N1+03091+02111100781ADDAA106000591AY151061AY221061GF105991051021004501001001MA1999999100271MD1999999+0021MW1041REMSYN082AAXX  11184 82198 21494 5//// 10309 20211 30027 40078 70452 85200 333 58002 69941;
0178821980999992007101200004-01717-045400FM-12+004499999V02099999999992200019N0002001N1+02601+02351100941ADDGA1001+999999999GF100991001001999999001001KA1240M+03141MA1999999100431MD1999999-0121REMSYN082AAXX  12004 82198 32992 0//// 10260 20235 30043 40094 333 10314 29076 55046 59012;
0201821980999992007101212004-01717-045400FM-12+004499999V02099999999990450019N0005001N1+02831+02181101081ADDAA124000591AY101061AY221061GF107991041031004501041001KA1240N+02311MA1999999100571MD1999999-0031MW1281REMSYN088AAXX  12124 82198 21493 7//// 10283 20218 30057 40108 72802 84340 333 20231 59003 69944;
0165821980999992007101218004-01717-045400FM-12+004499999V02099999999992200019N0010001N1+03111+02181100831ADDAY121061AY221061GF104991041021004501001001MA1999999100321MD1999999+0051MW1041REMSYN076AAXX  12184 82198 31494 4//// 10311 20218 30032 40083 70422 84200 333 58005;
0178821980999992007101300004-01717-045400FM-12+004499999V02099999999992200019N0002001N1+02571+02251100981ADDGA1001+999999999GF100991001001999999001001KA1240M+03281MA1999999100471MD1999999+0041REMSYN082AAXX  13004 82198 32992 0//// 10257 20225 30047 40098 333 10328 29072 55073 58004;
0184821980999992007101312004-01717-045400FM-12+004499999V02099999999990450019N0005001N1+02841+02171101111ADDAY101061AY221061GF107991041071004501061001KA1240N+02251MA1999999100601MD1999999+0031MW1281REMSYN082AAXX  13124 82198 31493 7//// 10284 20217 30060 40111 72802 84760 333 20225 58003;
0165821980999992007101318004-01717-045400FM-12+004499999V02099999999990042019N0010001N1+03151+02121100861ADDAY121061AY221061GF106991061021004501001001MA1999999100351MD1999999+0031MW1041REMSYN076AAXX  13184 82198 31494 6//// 10315 20212 30035 40086 70422 86200 333 58003;
0184821980999992007101412004-01717-045400FM-12+004499999V02099999999990042019N0010001N1+02921+02241100991ADDAY101061AY221061GF105991051021004501001001KA1240N+02361MA1999999100481MD1999999-0121MW1281REMSYN082AAXX  14124 82198 31494 5//// 10292 20224 30048 40099 72802 85200 333 20236 59012;
0165821980999992007101518004-01717-045400FM-12+004499999V02099999999992200019N0010001N1+03251+02031100901ADDAY121061AY221061GF103991031021004501001001MA1999999100391MD1999999+0151MW1041REMSYN076AAXX  15184 82198 31494 3//// 10325 20203 30039 40090 70422 83200 333 58015;
0178821980999992007103100004-01717-045400FM-12+004499999V02099999999992200019N0002001N1+02621+02251100841ADDGA1001+999999999GF100991001001999999001001KA1240M+03181MA1999999100331MD1999999-0091REMSYN082AAXX  31004 82198 32992 0//// 10262 20225 30033 40084 333 10318 29071 55102 59009;
0156821980999992007103112004-01717-045400FM-12+004499999V02099999999990042019N0010001N1+02901+02321100951ADDGF107991051021004501061001KA1240N+02301MA1999999100441MD1999999+0011REMSYN076AAXX  31124 82198 32494 7//// 10290 20232 30044 40095 85260 333 20230 58001;
0165821980999992007103118004-01717-045400FM-12+004499999V02099999999990450019N0010001N1+03201+02091100681ADDAY121061AY221061GF105991031021004501061001MA1999999100171MD1999999+0041MW1041REMSYN076AAXX  31184 82198 31494 5//// 10320 20209 30017 40068 70422 83260 333 58004;
0178821980999992007110100004-01717-045400FM-12+004499999V02099999999992200019N0002001N1+02601+02271100881ADDGA1001+999999999GF100991001001999999001001KA1240M+03311MA1999999100371MD1999999+0041REMSYN082AAXX  01004 82198 32992 0//// 10260 20227 30037 40088 333 10331 29072 55093 58004;
0156821980999992007110112004-01717-045400FM-12+004499999V02099999999990450019N0010001N1+02901+02271101041ADDGF105991041021004501061001KA1240N+02311MA1999999100531MD1999999+0091REMSYN076AAXX  01124 82198 32494 5//// 10290 20227 30053 40104 84260 333 20231 58009;
0165821980999992007110118004-01717-045400FM-12+004499999V02099999999990450019N0010001N1+03061+02301100831ADDAY121061AY221061GF106991041021004501061001MA1999999100321MD1999999+0151MW1041REMSYN076AAXX  01184 82198 31494 6//// 10306 20230 30032 40083 70422 84260 333 58015;
0168821980999992007110200004-01717-045400FM-12+004499999V02099999999992200019N0002001N1+02631+02331100991ADDGF104991031011004501061001KA1240M+03201MA1999999100481MD1999999+0111REMSYN088AAXX  02004 82198 32492 4//// 10263 20233 30048 40099 83160 333 10320 29075 55103 58011;
0156821980999992007110212004-01717-045400FM-12+004499999V02099999999990450019N0010001N1+02911+02271101201ADDGF106991041021004501061001KA1240N+02371MA1999999100691MD1999999+0161REMSYN076AAXX  02124 82198 32494 6//// 10291 20227 30069 40120 84260 333 20237 58016;
0137821980999992007110218004-01717-045400FM-12+004499999V02099999999990450019N0010001N1+03051+02331100891ADDGF105991021021004501041001MA1999999100381MD1999999+0061REMSYN070AAXX  02184 82198 32494 5//// 10305 20233 30038 40089 82240 333 58006;
0178821980999992007110300004-01717-045400FM-12+004499999V02099999999992200019N0002001N1+02621+02351101071ADDGA1001+999999999GF100991001001999999001001KA1240M+03401MA1999999100561MD1999999+0081REMSYN082AAXX  03004 82198 32992 0//// 10262 20235 30056 40107 333 10340 29076 55100 58008;
0156821980999992007110312004-01717-045400FM-12+004499999V02099999999990450019N0010001N1+03011+02291101141ADDGF106991041021004501041001KA1240N+02321MA1999999100631MD1999999-0061REMSYN076AAXX  03124 82198 32494 6//// 10301 20229 30063 40114 84240 333 20232 59006;
0165821980999992007110318004-01717-045400FM-12+004499999V02099999999992200019N0010001N1+03141+02101100811ADDAY121061AY211061GF103991021021004501041001MA1999999100301MD1999999-0081MW1041REMSYN076AAXX  03184 82198 31494 3//// 10314 20210 30030 40081 70421 82240 333 59008;
0178821980999992007110400004-01717-045400FM-12+004499999V02099999999992200019N0002001N1+02631+02311100991ADDGA1001+999999999GF100991001001999999001001KA1240M+03291MA1999999100481MD1999999-0081REMSYN082AAXX  04004 82198 32992 0//// 10263 20231 30048 40099 333 10329 29071 55106 59008;
0156821980999992007110412004-01717-045400FM-12+004499999V02099999999990042019N0010001N1+02971+02171101041ADDGF106991061021004501001001KA1240N+02341MA1999999100531MD1999999-0101REMSYN076AAXX  04124 82198 32494 6//// 10297 20217 30053 40104 86200 333 20234 59010;
0165821980999992007110418004-01717-045400FM-12+004499999V02099999999990450019N0010001N1+03121+02221100701ADDAY121061AY221061GF106991041021004501061001MA1999999100191MD1999999-0111MW1041REMSYN076AAXX  04184 82198 31494 6//// 10312 20222 30019 40070 70422 84260 333 59011;
0156821980999992007110512004-01717-045400FM-12+004499999V02099999999990042019N0010001N1+02931+02411100931ADDGF106991061021004501001001KA1240N+02261MA1999999100421MD1999999-0111REMSYN076AAXX  05124 82198 32494 6//// 10293 20241 30042 40093 86200 333 20226 59011;
0165821980999992007110518004-01717-045400FM-12+004499999V02099999999990042019N0010001N1+03041+02201100641ADDAY121061AY221061GF106991051021004501061001MA1999999100131MD1999999-0061MW1041REMSYN076AAXX  05184 82198 31494 6//// 10304 20220 30013 40064 70422 85260 333 59006;
0178821980999992007110600004-01717-045400FM-12+004499999V02099999999992200019N0002001N1+02631+02291100871ADDGA1001+999999999GF100991001001999999001001KA1240M+03181MA1999999100361MD1999999-0061REMSYN082AAXX  06004 82198 32992 0//// 10263 20229 30036 40087 333 10318 29075 55103 59006;
0184821980999992007110612004-01717-045400FM-12+004499999V02099999999990450019N0005001N1+02921+02141101111ADDAY101061AY221061GF107991041051004501061001KA1240N+02311MA1999999100601MD1999999+0181MW1281REMSYN082AAXX  06124 82198 31493 7//// 10292 20214 30060 40111 72802 84560 333 20231 58018;
0165821980999992007110618004-01717-045400FM-12+004499999V02099999999990042019N0005001N1+03261+02151100881ADDAY161061AY221061GF106991061021004501001001MA1999999100371MD1999999+0241MW1041REMSYN076AAXX  06184 82198 31493 6//// 10326 20215 30037 40088 70462 86200 333 58024;
0178821980999992007110700004-01717-045400FM-12+004499999V02099999999992200019N0002001N1+02591+02291101071ADDGA1001+999999999GF100991001001999999001001KA1240M+03361MA1999999100561MD1999999+0201REMSYN082AAXX  07004 82198 32992 0//// 10259 20229 30056 40107 333 10336 29070 55100 58020;
0156821980999992007110712004-01717-045400FM-12+004499999V02099999999990042019N0005001N1+02971+02271101091ADDGF106991061021004501001001KA1240N+02351MA1999999100581MD1999999-0021REMSYN076AAXX  07124 82198 32493 6//// 10297 20227 30058 40109 86200 333 20235 59002;
0165821980999992007110718004-01717-045400FM-12+004499999V02099999999992200019N0005001N1+03201+01961100791ADDAY121061AY211061GF103991031021004501001001MA1999999100281MD1999999+0091MW1041REMSYN076AAXX  07184 82198 31493 3//// 10320 20196 30028 40079 70421 83200 333 58009;
0178821980999992007110800004-01717-045400FM-12+004499999V02099999999992200019N0002001N1+02581+02311100931ADDGA1001+999999999GF100991001001999999001001KA1240M+03351MA1999999100421MD1999999-0141REMSYN082AAXX  08004 82198 32992 0//// 10258 20231 30042 40093 333 10335 29071 55113 59014;
0156821980999992007110812004-01717-045400FM-12+004499999V02099999999990042019N0010001N1+02931+02151100961ADDGF105991051021004501001001KA1240N+02331MA1999999100451MD1999999-0131REMSYN076AAXX  08124 82198 32494 5//// 10293 20215 30045 40096 85200 333 20233 59013;
0165821980999992007110818004-01717-045400FM-12+004499999V02099999999992200019N0010001N1+03261+02051100681ADDAY161061AY211061GF103991031021004501001001MA1999999100171MD1999999-0111MW1041REMSYN076AAXX  08184 82198 31494 3//// 10326 20205 30017 40068 70461 83200 333 59011;
0178821980999992007110900004-01717-045400FM-12+004499999V02099999999992200019N0002001N1+02691+02291100831ADDGA1001+999999999GF100991001001999999001001KA1240M+03381MA1999999100321MD1999999-0101REMSYN082AAXX  09004 82198 32992 0//// 10269 20229 30032 40083 333 10338 29070 55110 59010;
0182821980999992007110918004-01717-045400FM-12+004499999V02099999999992200019N0010001N1+03271+02091100601ADDAA106000591AY191061AY261061GF105991031021004501001061MA1999999100091MD1999999-0081MW1041REMSYN082AAXX  09184 82198 21494 5//// 10327 20209 30009 40060 70496 83206 333 59008 69961;
0178821980999992007111000004-01717-045400FM-12+004499999V02099999999992200019N0002001N1+02671+02311100751ADDGA1001+999999999GF100991001001999999001001KA1240M+03391MA1999999100241MD1999999-0081REMSYN082AAXX  10004 82198 32992 0//// 10267 20231 30024 40075 333 10339 29073 55094 59008;
0173821980999992007111012004-01717-045400FM-12+004499999V02099999999992200019N0010001N1+02981+02301100901ADDAA124000591GF104991021021004501061041KA1240N+02371MA1999999100391MD1999999-0031REMSYN082AAXX  10124 82198 22494 4//// 10298 20230 30039 40090 82264 333 20237 59003 69964;
0137821980999992007111018004-01717-045400FM-12+004499999V02099999999992200019N0010001N1+03131+02171100601ADDGF105991031021004501001011MA1999999100091MD1999999+0001REMSYN070AAXX  10184 82198 32494 5//// 10313 20217 30009 40060 83201 333 58000;
0168821980999992007111100004-01717-045400FM-12+004499999V02099999999992200019N0002001N1+02671+02271100811ADDGF101991011011004501001001KA1240M+03371MA1999999100301MD1999999+0061REMSYN088AAXX  11004 82198 32492 1//// 10267 20227 30030 40081 81100 333 10337 29072 55112 58006;
0156821980999992007111112004-01717-045400FM-12+004499999V02099999999990450019N0010001N1+02841+02311100961ADDGF107991041051004501061041KA1240N+02291MA1999999100451MD1999999+0061REMSYN076AAXX  11124 82198 32494 7//// 10284 20231 30045 40096 84564 333 20229 58006;
0165821980999992007111118004-01717-045400FM-12+004499999V02099999999990450019N0010001N1+02991+02171100781ADDAY121061AY221061GF107991041021004501041011MA1999999100271MD1999999+0161MW1041REMSYN076AAXX  11184 82198 31494 7//// 10299 20217 30027 40078 70422 84241 333 58016;
0178821980999992007111200004-01717-045400FM-12+004499999V02099999999992200019N0002001N1+02641+02331101011ADDGA1001+999999999GF100991001001999999001001KA1240M+03031MA1999999100501MD1999999+0201REMSYN082AAXX  12004 82198 32992 0//// 10264 20233 30050 40101 333 10303 29075 55035 58020;
0156821980999992007111212004-01717-045400FM-12+004499999V02099999999990450019N0010001N1+02911+02541101111ADDGF107991041071004501061011KA1240N+02301MA1999999100601MD1999999+0151REMSYN076AAXX  12124 82198 32494 7//// 10291 20254 30060 40111 84761 333 20230 58015;
0137821980999992007111218004-01717-045400FM-12+004499999V02099999999990042019N0010001N1+03131+02231100791ADDGF106991061021004501001001MA1999999100281MD1999999+0011REMSYN070AAXX  12184 82198 32494 6//// 10313 20223 30028 40079 86200 333 58001;
0178821980999992007111300004-01717-045400FM-12+004499999V02099999999992200019N0002001N1+02661+02371100941ADDGA1001+999999999GF100991001001999999001001KA1240M+03251MA1999999100431MD1999999-0071REMSYN082AAXX  13004 82198 32992 0//// 10266 20237 30043 40094 333 10325 29077 55088 59007;
0156821980999992007111312004-01717-045400FM-12+004499999V02099999999990042019N0010001N1+03001+02321101001ADDGF105991051021004501001001KA1240N+02281MA1999999100491MD1999999-0111REMSYN076AAXX  13124 82198 32494 5//// 10300 20232 30049 40100 85200 333 20228 59011;
0137821980999992007111318004-01717-045400FM-12+004499999V02099999999990450019N0010001N1+03061+02141100771ADDGF105991031021004501061001MA1999999100261MD1999999-0021REMSYN070AAXX  13184 82198 32494 5//// 10306 20214 30026 40077 83260 333 59002;
0178821980999992007111400004-01717-045400FM-12+004499999V02099999999992200019N0002001N1+02601+02311100951ADDGA1001+999999999GF100991001001999999001001KA1240M+03211MA1999999100441MD1999999+0011REMSYN082AAXX  14004 82198 32992 0//// 10260 20231 30044 40095 333 10321 29073 55097 58001;
0156821980999992007111412004-01717-045400FM-12+004499999V02099999999990042019N0010001N1+03041+02181101131ADDGF105991051021004501001001KA1240N+02261MA1999999100621MD1999999+0131REMSYN076AAXX  14124 82198 32494 5//// 10304 20218 30062 40113 85200 333 20226 58013;
0137821980999992007111418004-01717-045400FM-12+004499999V02099999999992200019N0010001N1+03141+02181100831ADDGF104991041021004501001001MA1999999100321MD1999999+0061REMSYN070AAXX  14184 82198 32494 4//// 10314 20218 30032 40083 84200 333 58006;
0156821980999992007111512004-01717-045400FM-12+004499999V02099999999992200019N0010001N1+03041+02181101141ADDGF104991041021004501001001KA1240N+02321MA1999999100631MD1999999+0011REMSYN076AAXX  15124 82198 32494 4//// 10304 20218 30063 40114 84200 333 20232 58001;
0137821980999992007111518004-01717-045400FM-12+004499999V02099999999992200019N0010001N1+03181+02251100851ADDGF104991041021004501001001MA1999999100341MD1999999+0021REMSYN070AAXX  15184 82198 32494 4//// 10318 20225 30034 40085 84200 333 58002;
0178821980999992007111600004-01717-045400FM-12+004499999V02099999999992200019N0002001N1+02621+02291100981ADDGA1001+999999999GF100991001001999999001001KA1240M+03381MA1999999100471MD1999999-0051REMSYN082AAXX  16004 82198 32992 0//// 10262 20229 30047 40098 333 10338 29070 55112 59005;
0156821980999992007111612004-01717-045400FM-12+004499999V02099999999990042019N0010001N1+03031+02181101051ADDGF105991051021004501001001KA1240N+02311MA1999999100541MD1999999-0091REMSYN076AAXX  16124 82198 32494 5//// 10303 20218 30054 40105 85200 333 20231 59009;
0137821980999992007111618004-01717-045400FM-12+004499999V02099999999992200019N0010001N1+03201+02151100841ADDGF103991031021004501001001MA1999999100331MD1999999-0011REMSYN070AAXX  16184 82198 32494 3//// 10320 20215 30033 40084 83200 333 59001;
0178821980999992007111700004-01717-045400FM-12+004499999V02099999999992200019N0002001N1+02641+02291100961ADDGA1001+999999999GF100991001001999999001001KA1240M+03381MA1999999100451MD1999999-0021REMSYN082AAXX  17004 82198 32992 0//// 10264 20229 30045 40096 333 10338 29069 55111 59002;
0156821980999992007111712004-01717-045400FM-12+004499999V02099999999990042019N0010001N1+02921+02271101151ADDGF107991051021004501061001KA1240N+02341MA1999999100641MD1999999+0101REMSYN076AAXX  17124 82198 32494 7//// 10292 20227 30064 40115 85260 333 20234 58010;
0165821980999992007111718004-01717-045400FM-12+004499999V02099999999992200019N0010001N1+03171+02131100841ADDAY121061AY211061GF103991031021004501001001MA1999999100331MD1999999+0001MW1041REMSYN076AAXX  17184 82198 31494 3//// 10317 20213 30033 40084 70421 83200 333 58000;
0178821980999992007111800004-01717-045400FM-12+004499999V02099999999992200019N0002001N1+02621+02271101011ADDGA1001+999999999GF100991001001999999001001KA1240M+03321MA1999999100501MD1999999+0051REMSYN082AAXX  18004 82198 32992 0//// 10262 20227 30050 40101 333 10332 29071 55106 58005;
0156821980999992007111812004-01717-045400FM-12+004499999V02099999999990450019N0010001N1+02931+02271101081ADDGF105991041021004501061001KA1240N+02311MA1999999100571MD1999999-0071REMSYN076AAXX  18124 82198 32494 5//// 10293 20227 30057 40108 84260 333 20231 59007;
0137821980999992007111818004-01717-045400FM-12+004499999V02099999999992200019N0010001N1+03251+02111100781ADDGF103991031011004501001001MA1999999100271MD1999999-0061REMSYN070AAXX  18184 82198 32494 3//// 10325 20211 30027 40078 83100 333 59006;
0178821980999992007111900004-01717-045400FM-12+004499999V02099999999992200019N0002001N1+02621+02271101041ADDGA1001+999999999GF100991001001999999001001KA1240M+03391MA1999999100531MD1999999+0031REMSYN082AAXX  19004 82198 32992 0//// 10262 20227 30053 40104 333 10339 29070 55101 58003;
0165821980999992007111918004-01717-045400FM-12+004499999V02099999999992200019N0010001N1+03161+02051100821ADDAY121061AY211061GF103991021011004501041001MA1999999100311MD1999999+0041MW1041REMSYN076AAXX  19184 82198 31494 3//// 10316 20205 30031 40082 70421 82140 333 58004;
0178821980999992007112000004-01717-045400FM-12+004499999V02099999999992200019N0002001N1+02621+02351100951ADDGA1001+999999999GF100991001001999999001001KA1240M+03291MA1999999100441MD1999999-0091REMSYN082AAXX  20004 82198 32992 0//// 10262 20235 30044 40095 333 10329 29074 55107 59009;
0184821980999992007112012004-01717-045400FM-12+004499999V02099999999990450019N0005001N1+02891+02251101091ADDAY101061AY221061GF106991031021004501061001KA1240N+02361MA1999999100581MD1999999-0071MW1281REMSYN082AAXX  20124 82198 31493 6//// 10289 20225 30058 40109 72802 83260 333 20236 59007;
0165821980999992007112018004-01717-045400FM-12+004499999V02099999999990450019N0005001N1+02951+02321100911ADDAY121061AY221061GF107991031051004501061001MA1999999100401MD1999999+0091MW1041REMSYN076AAXX  20184 82198 31493 7//// 10295 20232 30040 40091 70422 83560 333 58009;
0178821980999992007112100004-01717-045400FM-12+004499999V02099999999992200019N0002001N1+02631+02311101061ADDGA1001+999999999GF100991001001999999001001KA1240M+03171MA1999999100551MD1999999+0111REMSYN082AAXX  21004 82198 32992 0//// 10263 20231 30055 40106 333 10317 29077 55080 58011;
0156821980999992007112112004-01717-045400FM-12+004499999V02099999999990450019N0010001N1+03021+02391101231ADDGF106991041021004501061001KA1240N+02341MA1999999100721MD1999999+0141REMSYN076AAXX  21124 82198 32494 6//// 10302 20239 30072 40123 84260 333 20234 58014;
0165821980999992007112118004-01717-045400FM-12+004499999V02099999999990450019N0010001N1+03251+02301100961ADDAY121061AY221061GF105991031021004501061011MA1999999100451MD1999999+0051MW1041REMSYN076AAXX  21184 82198 31494 5//// 10325 20230 30045 40096 70422 83261 333 58005;
0168821980999992007112200004-01717-045400FM-12+004499999V02099999999992200019N0002001N1+02671+02311101131ADDGF101991011011004501001001KA1240M+03401MA1999999100621MD1999999+0071REMSYN088AAXX  22004 82198 32492 1//// 10267 20231 30062 40113 81100 333 10340 29074 55103 58007;
0156821980999992007112212004-01717-045400FM-12+004499999V02099999999990450019N0010001N1+03061+02221101241ADDGF107991041051004501061001KA1240N+02411MA1999999100731MD1999999+0011REMSYN076AAXX  22124 82198 32494 7//// 10306 20222 30073 40124 84560 333 20241 58001;
0182821980999992007112218004-01717-045400FM-12+004499999V02099999999990042019N0005001N1+02721+02451101011ADDAA106001091AY161061AY221061GF108991051071004501061001MA1999999100501MD1999999+0051MW1151REMSYN082AAXX  22184 82198 21493 8//// 10272 20245 30050 40101 71562 85760 333 58005 60011;
0168821980999992007112300004-01717-045400FM-12+004499999V02099999999992200019N0002001N1+02631+02231101101ADDGF101991011011004501001001KA1240M+03251MA1999999100591MD1999999-0031REMSYN088AAXX  23004 82198 32492 1//// 10263 20223 30059 40110 81100 333 10325 29076 55071 59003;
0201821980999992007112312004-01717-045400FM-12+004499999V02099999999990450019N0005001N1+02821+02331101241ADDAA124001091AY141061AY221061GF106991041021004501061001KA1240N+02311MA1999999100731MD1999999+0001MW1031REMSYN088AAXX  23124 82198 21493 6//// 10282 20233 30073 40124 70342 84260 333 20231 58000 60014;
0165821980999992007112318004-01717-045400FM-12+004499999V02099999999992200019N0005001N1+03071+02191100911ADDAY121061AY221061GF104991031021004501001011MA1999999100401MD1999999-0101MW1041REMSYN076AAXX  23184 82198 31493 4//// 10307 20219 30040 40091 70422 83201 333 59010;
0168821980999992007112400004-01717-045400FM-12+004499999V02099999999992200019N0002001N1+02621+02351101061ADDGF101991011011004501001001KA1240M+03331MA1999999100551MD1999999-0041REMSYN088AAXX  24004 82198 32492 1//// 10262 20235 30055 40106 81100 333 10333 29077 55110 59004;
0184821980999992007112412004-01717-045400FM-12+004499999V02099999999990450019N0005001N1+02881+02351101191ADDAY101061AY221061GF106991041021004501061001KA1240N+02271MA1999999100681MD1999999-0051MW1041REMSYN082AAXX  24124 82198 31493 6//// 10288 20235 30068 40119 70402 84260 333 20227 59005;
0165821980999992007112418004-01717-045400FM-12+004499999V02099999999990450019N0005001N1+03041+02201100821ADDAY121061AY221061GF106991041021004501061001MA1999999100311MD1999999-0091MW1041REMSYN076AAXX  24184 82198 31493 6//// 10304 20220 30031 40082 70422 84260 333 59009;
0168821980999992007112500004-01717-045400FM-12+004499999V02099999999992200019N0002001N1+02661+02331100981ADDGF102991011011004501001011KA1240M+03311MA1999999100471MD1999999-0081REMSYN088AAXX  25004 82198 32492 2//// 10266 20233 30047 40098 81101 333 10331 29074 55104 59008;
0184821980999992007112512004-01717-045400FM-12+004499999V02099999999990042019N0005001N1+03041+02361101051ADDAY101061AY221061GF105991051021004501001001KA1240N+02311MA1999999100541MD1999999-0141MW1041REMSYN082AAXX  25124 82198 31493 5//// 10304 20236 30054 40105 70402 85200 333 20231 59014;
0165821980999992007112518004-01717-045400FM-12+004499999V02099999999990042019N0010001N1+03201+02091100801ADDAY121061AY221061GF105991051021004501001001MA1999999100291MD1999999-0021MW1041REMSYN076AAXX  25184 82198 31494 5//// 10320 20209 30029 40080 70422 85200 333 59002;
0168821980999992007112600004-01717-045400FM-12+004499999V02099999999992200019N0002001N1+02691+02311101031ADDGF103991031021004501001001KA1240M+03381MA1999999100521MD1999999+0051REMSYN088AAXX  26004 82198 32492 3//// 10269 20231 30052 40103 83200 333 10338 29072 55085 58005;
0184821980999992007112612004-01717-045400FM-12+004499999V02099999999990450019N0010001N1+02991+02571101071ADDAY101061AY221061GF106991041021004501061001KA1240N+02381MA1999999100561MD1999999+0021MW1041REMSYN082AAXX  26124 82198 31494 6//// 10299 20257 30056 40107 70402 84260 333 20238 58002;
0165821980999992007112618004-01717-045400FM-12+004499999V02099999999990450019N0005001N1+02901+02341100831ADDAY161061AY221061GF106991031021004501061061MA1999999100321MD1999999+0031MW1041REMSYN076AAXX  26184 82198 31493 6//// 10290 20234 30032 40083 70462 83266 333 58003;
0168821980999992007112700004-01717-045400FM-12+004499999V02099999999992200019N0002001N1+02641+02351100961ADDGF102991011011004501001011KA1240M+03251MA1999999100451MD1999999-0071REMSYN088AAXX  27004 82198 32492 2//// 10264 20235 30045 40096 81101 333 10325 29080 55091 59007;
0184821980999992007112712004-01717-045400FM-12+004499999V02099999999990450019N0005001N1+02921+02291101021ADDAY101061AY221061GF105991031011004501031041KA1240N+02301MA1999999100511MD1999999-0051MW1041REMSYN082AAXX  27124 82198 31493 5//// 10292 20229 30051 40102 70402 83134 333 20230 59005;
0165821980999992007112718004-01717-045400FM-12+004499999V0200501N005112200019N0010001N1+03111+02261100671ADDAY121061AY211061GF104991021021004501031001MA1999999100161MD1999999-0161MW1041REMSYN076AAXX  27184 82198 31494 40510 10311 20226 30016 40067 70421 82230 333 59016;
0178821980999992007112800004-01717-045400FM-12+004499999V0200501N003612200019N0002001N1+02651+02271100831ADDGA1001+999999999GF100991001001999999001001KA1240M+03301MA1999999100321MD1999999-0131REMSYN082AAXX  28004 82198 32992 00507 10265 20227 30032 40083 333 10330 29072 55107 59013;
0156821980999992007112812004-01717-045400FM-12+004499999V0200701N003612200019N0010001N1+03001+02271101021ADDGF104991031021004501041001KA1240N+02261MA1999999100511MD1999999+0001REMSYN076AAXX  28124 82198 32494 40707 10300 20227 30051 40102 83240 333 20226 58000;
0165821980999992007112818004-01717-045400FM-12+004499999V0200701N004612200019N0010001N1+03101+02031100701ADDAY111061AY211061GF103991021021004501061001MA1999999100191MD1999999+0031MW1041REMSYN076AAXX  28184 82198 31494 30709 10310 20203 30019 40070 70411 82260 333 58003;
0165821980999992007112918004-01717-045400FM-12+004499999V0200501N005712200019N0005001N1+03141+02181100641ADDAY121061AY211061GF104991031021004501061001MA1999999100131MD1999999-0061MW1041REMSYN076AAXX  29184 82198 31493 40511 10314 20218 30013 40064 70421 83260 333 59006;
0178821980999992007113000004-01717-045400FM-12+004499999V0200501N003112200019N0002001N1+02661+02351100801ADDGA1001+999999999GF100991001001999999001001KA1240M+03321MA1999999100291MD1999999-0091REMSYN082AAXX  30004 82198 32992 00506 10266 20235 30029 40080 333 10332 29073 55113 59009;
0156821980999992007113012004-01717-045400FM-12+004499999V0200501N003110450019N0010001N1+02991+02331101001ADDGF106991041021004501061001KA1240N+02341MA1999999100491MD1999999+0081REMSYN076AAXX  30124 82198 32494 60506 10299 20233 30049 40100 84260 333 20234 58008;
0182821980999992007113018004-01717-045400FM-12+004499999V0200501N005710450019N0010001N1+03001+02341100691ADDAA106000391AY151061AY221061GF106991041021004501061001MA1999999100181MD1999999+0051MW1151REMSYN082AAXX  30184 82198 21494 60511 10300 20234 30018 40069 71552 84260 333 58005 69931;
0168821980999992007120100004-01717-045400FM-12+004499999V0200501N002110450019N0002001N1+02671+02411100851ADDGF105991031021004501071001KA1240M+03231MA1999999100341MD1999999+0051REMSYN088AAXX  01004 82198 32492 50504 10267 20241 30034 40085 83270 333 10323 29076 55078 58005;
0165821980999992007120118004-01717-045400FM-12+004499999V0200901N004110450019N0010001N1+03001+02291100781ADDAY121061AY221061GF107991041031004501041001MA1999999100271MD1999999+0091MW1041REMSYN076AAXX  01184 82198 31494 70908 10300 20229 30027 40078 70422 84340 333 58009;
0168821980999992007120200004-01717-045400FM-12+004499999V0200501N002110450019N0002001N1+02631+02331100951ADDGF106991021031004501041001KA1240M+03161MA1999999100441MD1999999+0101REMSYN088AAXX  02004 82198 32492 60504 10263 20233 30044 40095 82340 333 10316 29076 55023 58010;
0156821980999992007120212004-01717-045400FM-12+004499999V0200501N002610042019N0010001N1+02981+02401101141ADDGF106991051021004501041001KA1240N+02341MA1999999100631MD1999999+0081REMSYN076AAXX  02124 82198 32494 60505 10298 20240 30063 40114 85240 333 20234 58008;
0137821980999992007120218004-01717-045400FM-12+004499999V0200501N004612200019N0010001N1+03211+02301100781ADDGF103991031011004501001001MA1999999100271MD1999999+0001REMSYN070AAXX  02184 82198 32494 30509 10321 20230 30027 40078 83100 333 58000;
0178821980999992007120300004-01717-045400FM-12+004499999V0200501N003112200019N0002001N1+02661+02351101051ADDGA1001+999999999GF100991001001999999001001KA1240M+03271MA1999999100541MD1999999+0101REMSYN082AAXX  03004 82198 32992 00506 10266 20235 30054 40105 333 10327 29074 55098 58010;
0175821980999992007120312004-01717-045400FM-12+004499999V0200501N003119999999N0010001N1+02931+02501101201ADDGF107991999051004501021061KA1240N+02321MA1999999100691MD1999999+0061REMSYN076AAXX  03124 82198 32494 70506 10293 20250 30069 40120 88526 333 20232 58006;EQDQ01+000082SCOTLC
0165821980999992007120318004-01717-045400FM-12+004499999V0200501N005112200019N0010001N1+03061+02221100861ADDAY121061AY211061GF104991031021004501041001MA1999999100351MD1999999+0081MW1041REMSYN076AAXX  03184 82198 31494 40510 10306 20222 30035 40086 70421 83240 333 58008;
0178821980999992007120400004-01717-045400FM-12+004499999V0200501N003112200019N0002001N1+02611+02331101031ADDGA1001+999999999GF100991001001999999001001KA1240M+03271MA1999999100521MD1999999-0021REMSYN082AAXX  04004 82198 32992 00506 10261 20233 30052 40103 333 10327 29077 55088 59002;
0184821980999992007120412004-01717-045400FM-12+004499999V0200701N004112200019N0010001N1+03051+02171101101ADDAY101061AY221061GF104991031021004501001011KA1240N+02351MA1999999100591MD1999999-0101MW1041REMSYN082AAXX  04124 82198 31494 40708 10305 20217 30059 40110 70402 83201 333 20235 59010;
0165821980999992007120418004-01717-045400FM-12+004499999V0200501N005712200019N0005001N1+03151+02351100781ADDAY121061AY221061GF103991021021004501001011MA1999999100271MD1999999-0081MW1041REMSYN076AAXX  04184 82198 31493 30511 10315 20235 30027 40078 70422 82201 333 59008;
0178821980999992007120500004-01717-045400FM-12+004499999V0200501N002612200019N0002001N1+02671+02271101001ADDGA1001+999999999GF100991001001999999001001KA1240M+03411MA1999999100491MD1999999-0031REMSYN082AAXX  05004 82198 32992 00505 10267 20227 30049 40100 333 10341 29072 55111 59003;
0165821980999992007120518004-01717-045400FM-12+004499999V0200501N005710450019N0005001N1+03061+02251100961ADDAY161061AY221061GF107991041021004501011061MA1999999100451MD1999999+0181MW1041REMSYN076AAXX  05184 82198 31493 70511 10306 20225 30045 40096 70462 84216 333 58018;
0196821980999992007120600004-01717-045400FM-12+004499999V0200701N003110450019N0002001N1+02701+02371101261ADDAY121061AY221061GF108991041021004501061001KA1240M+03281MA1999999100751MD1999999+0261MW1131REMSYN094AAXX  06004 82198 31492 80706 10270 20237 30075 40126 71322 84260 333 10328 29074 55085 58026;
0184821980999992007120612004-01717-045400FM-12+004499999V0200901N004110450019N0005001N1+02901+02391101241ADDAY101061AY221061GF107991031021004501011061KA1240N+02371MA1999999100731MD1999999-0031MW1041REMSYN082AAXX  06124 82198 31493 70908 10290 20239 30073 40124 70402 83216 333 20237 59003;
0165821980999992007120618004-01717-045400FM-12+004499999V0200501N005710450019N0005001N1+03141+02271100951ADDAY121061AY221061GF105991031021004501031061MA1999999100441MD1999999+0011MW1041REMSYN076AAXX  06184 82198 31493 50511 10314 20227 30044 40095 70422 83236 333 58001;
0196821980999992007120700004-01717-045400FM-12+004499999V0200701N002612200019N0002001N1+02681+02371101161ADDAY111061AY211061GF102991011021004501061001KA1240M+03211MA1999999100651MD1999999-0101MW1131REMSYN094AAXX  07004 82198 31492 20705 10268 20237 30065 40116 71311 81260 333 10321 29075 55055 59010;
0184821980999992007120712004-01717-045400FM-12+004499999V0200501N004612200019N0005001N1+03011+02291101171ADDAY101061AY211061GF103991021021004501001041KA1240N+02361MA1999999100661MD1999999-0071MW1041REMSYN082AAXX  07124 82198 31493 30509 10301 20229 30066 40117 70401 82204 333 20236 59007;
0165821980999992007120718004-01717-045400FM-12+004499999V0200701N005710450019N0005001N1+03081+02191100881ADDAY121061AY221061GF106991031021004501031011MA1999999100371MD1999999-0071MW1041REMSYN076AAXX  07184 82198 31493 60711 10308 20219 30037 40088 70422 83231 333 59007;
0178821980999992007120800004-01717-045400FM-12+004499999V0200901N002112200019N0002001N1+02681+02391101011ADDGA1001+999999999GF100991001001999999001001KA1240M+03301MA1999999100501MD1999999-0151REMSYN082AAXX  08004 82198 32992 00904 10268 20239 30050 40101 333 10330 29073 55109 59015;
0184821980999992007120812004-01717-045400FM-12+004499999V0200501N005110450019N0005001N1+02891+02291100951ADDAY151061AY221061GF107991041021004501031061KA1240N+02401MA1999999100441MD1999999-0221MW1041REMSYN082AAXX  08124 82198 31493 70510 10289 20229 30044 40095 70452 84236 333 20240 59022;
0178821980999992007120900004-01717-045400FM-12+004499999V0200901N002612200019N0002001N1+02681+02311101001ADDGA1001+999999999GF100991001001999999001001KA1240M+03311MA1999999100491MD1999999-0011REMSYN082AAXX  09004 82198 32992 00905 10268 20231 30049 40100 333 10331 29074 55041 59001;
0184821980999992007120912004-01717-045400FM-12+004499999V0200901N001510450019N0005001N1+02931+02321101131ADDAY141061AY221061GF107991041021004501061061KA1240N+02111MA1999999100621MD1999999+0181MW1041REMSYN082AAXX  09124 82198 31493 70903 10293 20232 30062 40113 70442 84266 333 20211 58018;
0184821980999992007121012004-01717-045400FM-12+004499999V0200501N005710450019N0010001N1+03061+02541101041ADDAY101061AY221061GF105991031021004501041061KA1240N+02331MA1999999100531MD1999999-0091MW1041REMSYN082AAXX  10124 82198 31494 50511 10306 20254 30053 40104 70402 83246 333 20233 59009;
0165821980999992007121018004-01717-045400FM-12+004499999V0200901N006210450019N0010001N1+03241+02161100861ADDAY151061AY221061GF106991031021004501041061MA1999999100351MD1999999+0061MW1041REMSYN076AAXX  10184 82198 31494 60912 10324 20216 30035 40086 70452 83246 333 58006;
0168821980999992007121100004-01717-045400FM-12+004499999V0200901N003610450019N0002001N1+02691+02291100961ADDGF106991041021004501061001KA1240M+03331MA1999999100451MD1999999+0031REMSYN088AAXX  11004 82198 32492 60907 10269 20229 30045 40096 84260 333 10333 29073 55100 58003;
0201821980999992007121112004-01717-045400FM-12+004499999V0200501N003610042019N0010001N1+02771+02461101051ADDAA124000021AY121061AY221061GF108991061051004501021999KA1240N+02321MA1999999100541MD1999999+0011MW1201REMSYN088AAXX  11124 82198 21494 80507 10277 20246 30054 40105 72022 8652/ 333 20232 58001 69924;
0182821980999992007121118004-01717-045400FM-12+004499999V0202301N003610450019N0010001N1+02411+02331100821ADDAA106039191AY191061AY261061GF108991041051004501081999MA1999999100311MD1999999-0041MW1211REMSYN082AAXX  11184 82198 21494 82307 10241 20233 30031 40082 72196 8458/ 333 59004 60391;
0213821980999992007121200004-01717-045400FM-12+004499999V0200501N002110450019N0002001N1+02471+02411100991ADDAA106009991AY161061AY221061GF106991031031008001041001KA1240M+02881MA1999999100481MD1999999+0031MW1021REMSYN100AAXX  12004 82198 21592 60504 10247 20241 30048 40099 70262 83340 333 10288 29094 55000 58003 60101;
0165821980999992007121218004-01717-045400FM-12+004499999V0200901N006210450019N0010001N1+02991+02301100731ADDAY161061AY221061GF105991031021004501041001MA1999999100221MD1999999-0091MW1021REMSYN076AAXX  12184 82198 31494 50912 10299 20230 30022 40073 70262 83240 333 59009;
0168821980999992007121300004-01717-045400FM-12+004499999V0200501N002612200019N0002001N1+02631+02351100781ADDGF103991031021004501001001KA1240M+03221MA1999999100271MD1999999-0211REMSYN088AAXX  13004 82198 32492 30505 10263 20235 30027 40078 83200 333 10322 29078 55110 59021;
0156821980999992007121312004-01717-045400FM-12+004499999V0200501N004110042019N0010001N1+02821+02331100941ADDGF107991051041004501061001KA1240N+02341MA1999999100431MD1999999-0031REMSYN076AAXX  13124 82198 32494 70508 10282 20233 30043 40094 85460 333 20234 59003;
0182821980999992007121318004-01717-045400FM-12+004499999V0200501N004110450019N0005001N1+02391+02291100771ADDAA106013091AY161061AY221061GF108991041051004501021999MA1999999100261MD1999999+0041MW1621REMSYN082AAXX  13184 82198 21493 80508 10239 20229 30026 40077 76262 8452/ 333 58004 60131;
0213821980999992007121400004-01717-045400FM-12+004499999V0200701N002612200019N0002001N1+02501+02311100941ADDAA106007191AY161061AY221061GF103991031001004501061001KA1240M+03011MA1999999100431MD1999999+0161MW1011REMSYN100AAXX  14004 82198 21492 30705 10250 20231 30043 40094 70162 83060 333 10301 29087 55018 58016 60071;
0173821980999992007121412004-01717-045400FM-12+004499999V0200901N005110450019N0010001N1+02891+02281101041ADDAA124020191GF106991031021004501041001KA1240N+02151MA1999999100531MD1999999+0101REMSYN082AAXX  14124 82198 22494 60910 10289 20228 30053 40104 83240 333 20215 58010 60204;
0165821980999992007121418004-01717-045400FM-12+004499999V0203601N003610450019N0010001N1+02991+02401100831ADDAY121061AY221061GF106991031021004501081001MA1999999100321MD1999999+0061MW1041REMSYN076AAXX  14184 82198 31494 63607 10299 20240 30032 40083 70422 83280 333 58006;
0168821980999992007121500004-01717-045400FM-12+004499999V0200501N002112200019N0002001N1+02611+02291100921ADDGF102991021001008001061001KA1240M+03151MA1999999100411MD1999999-0021REMSYN088AAXX  15004 82198 32592 20504 10261 20229 30041 40092 82060 333 10315 29077 55063 59002;
0156821980999992007121512004-01717-045400FM-12+004499999V0200901N002110450019N0010001N1+02901+02391100971ADDGF106991041021004501061001KA1240N+02321MA1999999100461MD1999999-0071REMSYN076AAXX  15124 82198 32494 60904 10290 20239 30046 40097 84260 333 20232 59007;
0165821980999992007121518004-01717-045400FM-12+004499999V0200501N004610450019N0010001N1+03041+02361100591ADDAY121061AY221061GF106991031021004501041001MA1999999100081MD1999999-0241MW1041REMSYN076AAXX  15184 82198 31494 60509 10304 20236 30008 40059 70422 83240 333 59024;
0168821980999992007121600004-01717-045400FM-12+004499999V0200501N003110450019N0002001N1+02721+02451100891ADDGF106991031031004501061001KA1240M+03301MA1999999100381MD1999999-0031REMSYN088AAXX  16004 82198 32492 60506 10272 20245 30038 40089 83360 333 10330 29078 55069 59003;
0201821980999992007121612004-01717-045400FM-12+004499999V0201401N002610042019N0010001N1+02401+02301101051ADDAA124014091AY191061AY261061GF108991061051004501011999KA1240N+02031MA1999999100541MD1999999+0081MW1021REMSYN088AAXX  16124 82198 21494 81405 10240 20230 30054 40105 70296 8651/ 333 20203 58008 60144;
0137821980999992007121618004-01717-045400FM-12+004499999V0200901N004610450019N0010001N1+02751+02161100891ADDGF107991041021004501081001MA1999999100381MD1999999+0301REMSYN070AAXX  16184 82198 32494 70909 10275 20216 30038 40089 84280 333 58030;
0168821980999992007121700004-01717-045400FM-12+004499999V0200501N002612200019N0002001N1+02441+02251100921ADDGF103991031011004501001001KA1240M+02901MA1999999100411MD1999999+0031REMSYN088AAXX  17004 82198 32492 30505 10244 20225 30041 40092 83100 333 10290 29086 55013 58003;
0156821980999992007121712004-01717-045400FM-12+004499999V0200501N004110450019N0010001N1+02841+02461101031ADDGF106991041021004501061001KA1240N+02321MA1999999100521MD1999999-0021REMSYN076AAXX  17124 82198 32494 60508 10284 20246 30052 40103 84260 333 20232 59002;
0137821980999992007121718004-01717-045400FM-12+004499999V0200901N005110450019N0010001N1+03101+02121100841ADDGF105991041021004501061001MA1999999100331MD1999999-0051REMSYN070AAXX  17184 82198 32494 50910 10310 20212 30033 40084 84260 333 59005;
0168821980999992007121800004-01717-045400FM-12+004499999V0209999C000010450019N0002001N1+02641+02371101071ADDGF107991021021004501031001KA1240M+03281MA1999999100561MD1999999+0151REMSYN088AAXX  18004 82198 32492 70000 10264 20237 30056 40107 82230 333 10328 29076 55086 58015;
0184821980999992007121812004-01717-045400FM-12+004499999V0200701N004612200019N0005001N1+02931+02301101101ADDAY101061AY221061GF106991041021004501001041KA1240N+02291MA1999999100591MD1999999+0071MW1041REMSYN082AAXX  18124 82198 31493 60709 10293 20230 30059 40110 70402 84204 333 20229 58007;
0165821980999992007121818004-01717-045400FM-12+004499999V0200901N006210450019N0005001N1+03161+02081100871ADDAY121061AY221061GF106991031021004501041061MA1999999100361MD1999999+0031MW1041REMSYN076AAXX  18184 82198 31493 60912 10316 20208 30036 40087 70422 83246 333 58003;
0168821980999992007121900004-01717-045400FM-12+004499999V0200701N002112200019N0002001N1+02641+02371101041ADDGF102991021011004501001001KA1240M+03271MA1999999100531MD1999999-0031REMSYN088AAXX  19004 82198 32492 20704 10264 20237 30053 40104 82100 333 10327 29073 55095 59003;
0184821980999992007121912004-01717-045400FM-12+004499999V0200501N005112200019N0010001N1+02931+02321101071ADDAY101061AY221061GF104991041021004501001001KA1240N+02281MA1999999100561MD1999999-0031MW1041REMSYN082AAXX  19124 82198 31494 40510 10293 20232 30056 40107 70402 84200 333 20228 59003;
0165821980999992007121918004-01717-045400FM-12+004499999V0200501N004610042019N0005001N1+03041+02361100801ADDAY121061AY221061GF105991051021004501001001MA1999999100291MD1999999-0071MW1041REMSYN076AAXX  19184 82198 31493 50509 10304 20236 30029 40080 70422 85200 333 59007;
0168821980999992007122000004-01717-045400FM-12+004499999V0200701N002112200019N0002001N1+02641+02391100931ADDGF101991011011004501001001KA1240M+03351MA1999999100421MD1999999-0111REMSYN088AAXX  20004 82198 32492 10704 10264 20239 30042 40093 81100 333 10335 29078 55104 59011;
0184821980999992007122012004-01717-045400FM-12+004499999V0200901N004610042019N0010001N1+02901+02271100981ADDAY101061AY221061GF106991061021004501001001KA1240N+02311MA1999999100471MD1999999-0091MW1041REMSYN082AAXX  20124 82198 31494 60909 10290 20227 30047 40098 70402 86200 333 20231 59009;
0165821980999992007122018004-01717-045400FM-12+004499999V0200701N006210450019N0002001N1+03151+02211100791ADDAY121061AY221061GF107991041021004501011041MA1999999100281MD1999999-0011MW1041REMSYN076AAXX  20184 82198 31492 70712 10315 20221 30028 40079 70422 84214 333 59001;
0168821980999992007122100004-01717-045400FM-12+004499999V0200501N002112200019N0002001N1+02641+02351100881ADDGF102991021001022501001041KA1240M+03321MA1999999100371MD1999999-0051REMSYN088AAXX  21004 82198 32892 20504 10264 20235 30037 40088 82004 333 10332 29073 55101 59005;
0184821980999992007122112004-01717-045400FM-12+004499999V0200701N003110450019N0010001N1+02971+02421101041ADDAY101061AY221061GF106991041021004501061001KA1240N+02331MA1999999100531MD1999999+0061MW1041REMSYN082AAXX  21124 82198 31494 60706 10297 20242 30053 40104 70402 84260 333 20233 58006;
0165821980999992007122118004-01717-045400FM-12+004499999V0200501N006210450019N0002001N1+03121+02361100801ADDAY121061AY221061GF106991031021004501011041MA1999999100291MD1999999+0011MW1041REMSYN076AAXX  21184 82198 31492 60512 10312 20236 30029 40080 70422 83214 333 58001;
0168821980999992007122200004-01717-045400FM-12+004499999V0200501N003612200019N0002001N1+02691+02291100841ADDGF103991031021004501001001KA1240M+03391MA1999999100331MD1999999-0041REMSYN088AAXX  22004 82198 32492 30507 10269 20229 30033 40084 83200 333 10339 29075 55106 59004;
0184821980999992007122212004-01717-045400FM-12+004499999V0200501N004610450019N0005001N1+02901+02341101081ADDAY101061AY221061GF106991031021004501061011KA1240N+02331MA1999999100571MD1999999+0041MW1041REMSYN082AAXX  22124 82198 31493 60509 10290 20234 30057 40108 70402 83261 333 20233 58004;
0165821980999992007122218004-01717-045400FM-12+004499999V0200701N005712200019N0005001N1+03121+02251100801ADDAY121061AY221061GF106991041021004501001011MA1999999100291MD1999999+0001MW1041REMSYN076AAXX  22184 82198 31493 60711 10312 20225 30029 40080 70422 84201 333 58000;
0184821980999992007122312004-01717-045400FM-12+004499999V0200701N006710042019N0005001N1+02991+02341101021ADDAY101061AY221061GF106991061021004501001001KA1240N+02321MA1999999100511MD1999999-0061MW1041REMSYN082AAXX  23124 82198 31493 60713 10299 20234 30051 40102 70402 86200 333 20232 59006;
0168821980999992007122400004-01717-045400FM-12+004499999V0200701N003612200019N0002001N1+02681+02391100901ADDGF105991011011004501001061KA1240M+03351MA1999999100391MD1999999-0091REMSYN088AAXX  24004 82198 32492 50707 10268 20239 30039 40090 81106 333 10335 29074 55099 59009;
0184821980999992007122412004-01717-045400FM-12+004499999V0200501N004110450019N0005001N1+02851+02341101071ADDAY101061AY221061GF106991041051004501061001KA1240N+02351MA1999999100561MD1999999+0051MW1041REMSYN082AAXX  24124 82198 31493 60508 10285 20234 30056 40107 70402 84560 333 20235 58005;
0182821980999992007122418004-01717-045400FM-12+004499999V0200501N006210450019N0005001N1+03051+02141100781ADDAA106001091AY161061AY221061GF106991031021004501011041MA1999999100271MD1999999-0041MW1041REMSYN082AAXX  24184 82198 21493 60512 10305 20214 30027 40078 70462 83214 333 59004 60011;
0168821980999992007122500004-01717-045400FM-12+004499999V0200501N004610450019N0002001N1+02661+02331100901ADDGF108991021011004501011001KA1240M+03141MA1999999100391MD1999999+0001REMSYN088AAXX  25004 82198 32492 80509 10266 20233 30039 40090 82110 333 10314 29075 55053 58000;
0173821980999992007122512004-01717-045400FM-12+004499999V0200501N003610450019N0010001N1+02821+02291101051ADDAA124001091GF105991031021004501041001KA1240N+02271MA1999999100541MD1999999-0021REMSYN082AAXX  25124 82198 22494 50507 10282 20229 30054 40105 83240 333 20227 59002 60014;
0137821980999992007122518004-01717-045400FM-12+004499999V0200501N004610450019N0010001N1+03021+02291100841ADDGF105991041021004501061001MA1999999100331MD1999999+0061REMSYN070AAXX  25184 82198 32494 50509 10302 20229 30033 40084 84260 333 58006;
0168821980999992007122600004-01717-045400FM-12+004499999V0200701N002612200019N0002001N1+02641+02351100941ADDGF102991021001012501061001KA1240M+03181MA1999999100431MD1999999+0041REMSYN088AAXX  26004 82198 32692 20705 10264 20235 30043 40094 82060 333 10318 29076 55094 58004;
0156821980999992007122612004-01717-045400FM-12+004499999V0200501N005110450019N0010001N1+02871+02371101041ADDGF105991041021004501061001KA1240N+02361MA1999999100531MD1999999-0011REMSYN076AAXX  26124 82198 32494 50510 10287 20237 30053 40104 84260 333 20236 59001;
0165821980999992007122618004-01717-045400FM-12+004499999V0200501N004610450019N0010001N1+02991+02251100781ADDAY121061AY221061GF107991041021004501061001MA1999999100271MD1999999-0061MW1041REMSYN076AAXX  26184 82198 31494 70509 10299 20225 30027 40078 70422 84260 333 59006;
0168821980999992007122700004-01717-045400FM-12+004499999V0200501N002110450019N0002001N1+02651+02371100901ADDGF106991031011004501061001KA1240M+03201MA1999999100391MD1999999-0041REMSYN088AAXX  27004 82198 32492 60504 10265 20237 30039 40090 83160 333 10320 29077 55099 59004;
0156821980999992007122712004-01717-045400FM-12+004499999V0200501N004110042019N0010001N1+02991+02401100961ADDGF106991061021004501001001KA1240N+02321MA1999999100451MD1999999-0081REMSYN076AAXX  27124 82198 32494 60508 10299 20240 30045 40096 86200 333 20232 59008;
0182821980999992007122718004-01717-045400FM-12+004499999V0200901N002610450019N0010001N1+02781+02271100691ADDAA106005191AY161061AY221061GF108991031071004501011999MA1999999100181MD1999999-0091MW1021REMSYN082AAXX  27184 82198 21494 80905 10278 20227 30018 40069 70262 8371/ 333 59009 60051;
0168821980999992007122800004-01717-045400FM-12+004499999V0200501N002610450019N0002001N1+02621+02331100851ADDGF106991031081004501011001KA1240M+03121MA1999999100341MD1999999-0051REMSYN088AAXX  28004 82198 32492 60505 10262 20233 30034 40085 83810 333 10312 29078 55033 59005;
0173821980999992007122812004-01717-045400FM-12+004499999V0200901N003110450019N0010001N1+02911+02481101031ADDAA124005191GF106991031021004501041001KA1240N+02321MA1999999100521MD1999999+0071REMSYN082AAXX  28124 82198 22494 60906 10291 20248 30052 40103 83240 333 20232 58007 60054;
0182821980999992007122818004-01717-045400FM-12+004499999V0200501N005110450019N0010001N1+03021+02311100671ADDAA106003091AY161061AY221061GF107991041021004501041001MA1999999100161MD1999999-0021MW1041REMSYN082AAXX  28184 82198 21494 70510 10302 20231 30016 40067 70462 84240 333 59002 60031;
0168821980999992007122900004-01717-045400FM-12+004499999V0200501N002110450019N0002001N1+02671+02391100961ADDGF107991041081004501041001KA1240M+03181MA1999999100451MD1999999+0111REMSYN088AAXX  29004 82198 32492 70504 10267 20239 30045 40096 84840 333 10318 29078 55030 58011;
0173821980999992007122912004-01717-045400FM-12+004499999V0200501N005110042019N0010001N1+02901+02431101061ADDAA124003091GF107991051041004501041001KA1240N+02311MA1999999100551MD1999999+0031REMSYN082AAXX  29124 82198 22494 70510 10290 20243 30055 40106 85440 333 20231 58003 60034;
0182821980999992007122918004-01717-045400FM-12+004499999V0200501N003610042019N0010001N1+02801+02401100841ADDAA106001091AY161061AY221061GF108991051031004501041999MA1999999100331MD1999999+0171MW1041REMSYN082AAXX  29184 82198 21494 80507 10280 20240 30033 40084 70462 8534/ 333 58017 60011;
0168821980999992007123000004-01717-045400FM-12+004499999V0200501N002610042019N0002001N1+02651+02331100971ADDGF107991051031004501061001KA1240M+02991MA1999999100461MD1999999+0051REMSYN088AAXX  30004 82198 32492 70505 10265 20233 30046 40097 85360 333 10299 29080 55004 58005;
0173821980999992007123012004-01717-045400FM-12+004499999V0200501N003110042019N0010001N1+02881+02391101071ADDAA124001091GF107991051051004501031001KA1240N+02261MA1999999100561MD1999999+0011REMSYN082AAXX  30124 82198 22494 70506 10288 20239 30056 40107 85530 333 20226 58001 60014;
0182821980999992007123018004-01717-045400FM-12+004499999V0200501N002110042019N0010001N1+02451+02341100821ADDAA106021191AY191061AY261061GF108991051071004501021999MA1999999100311MD1999999-0021MW1211REMSYN082AAXX  30184 82198 21494 80504 10245 20234 30031 40082 72196 8572/ 333 59002 60211;
0168821980999992007123100004-01717-045400FM-12+004499999V0200501N002610450019N0002001N1+02561+02381100981ADDGF108991041071004501041999KA1240M+02971MA1999999100471MD1999999+0011REMSYN088AAXX  31004 82198 32492 80505 10256 20238 30047 40098 8474/ 333 10297 29087 55017 58001;
0173821980999992007123112004-01717-045400FM-12+004499999V0203601N002610450019N0010001N1+02721+02391101121ADDAA124021191GF106991041021004501041001KA1240N+02181MA1999999100611MD1999999+0051REMSYN082AAXX  31124 82198 22494 63605 10272 20239 30061 40112 84240 333 20218 58005 60214;
0182821980999992007123118004-01717-045400FM-12+004499999V0200501N004610042019N0010001N1+02781+02271100871ADDAA106002091AY161061AY221061GF108991051031004501041999MA1999999100361MD1999999+0051MW1021REMSYN082AAXX  31184 82198 21494 80509 10278 20227 30036 40087 70262 8534/ 333 58005 60021;
