0156823970999992007040212004-03767-038600FM-12+002699999V0201401N002112200019N0200001N1+02801+02181101281ADDGF104991011011008001031001KA1240N+02461MA1999999100971MD1999999+0121REMSYN076AAXX  02124 82397 32598 41404 10280 20218 30097 40128 81130 333 20246 58012;
0137823970999992007040218004-03767-038600FM-12+002699999V0200901N003611050019N0200001N1+03061+02191100841ADDGF107991021011008001001061MA1999999100531MD1999999-0051REMSYN070AAXX  02184 82397 32598 70907 10306 20219 30053 40084 82106 333 59005;
0211823970999992007041712004-03767-038600FM-12+002699999V0201401N000510075019N0100001N1+02521+02431101281ADDAA124015091AY191061AY261061GF108991081071008001999999KA1240N+02431MA1101521100971MD1999999-0191MW1611REMSYN098AAXX  17124 82397 21597 81401 10252 20243 30097 40128 76196 887// 333 20243 59019 60154 555 10152;
0137823970999992007092518004-03767-038600FM-12+002699999V0200901N004112200019N0200001N1+02861+02211101191ADDGF102991021011008001001001MA1999999100881MD1999999+0021REMSYN070AAXX  25184 82397 32598 20908 10286 20221 30088 40119 82100 333 58002;
