0173823920999992007010112004-03700-040350FM-12+008399999V0203601N001012200019N0500001N1+02801+02201101321ADDAA124009991GF104991041021004501001001KA1240N+02341MA1999999100301MD1999999+0051REMSYN082AAXX  01124 82392 22499 43602 10280 20220 30030 40132 84200 333 20234 58005 60104;
0168823920999992007010200004-03700-040350FM-12+008399999V0200501N003112200019N0040001N1+02681+02351101171ADDGF102991021001008001031001KA1240M+03481MA1999999100151MD1999999+0011REMSYN088AAXX  02004 82392 32596 20506 10268 20235 30015 40117 82030 333 10348 29078 55054 58001;
0173823920999992007010212004-03700-040350FM-12+008399999V0200501N001010450019N0500001N1+02741+02141101371ADDAA124007991GF106991041041004501031001KA1240N+02321MA1999999100351MD1999999+0051REMSYN082AAXX  02124 82392 22499 60502 10274 20214 30035 40137 84430 333 20232 58005 60084;
0182823920999992007010218004-03700-040350FM-12+008399999V0200901N002612200019N0500001N1+02961+02131100881ADDAA106000891AY121061AY221061GF104991041041004501001001MA1999999099861MD1999999-0101MW1211REMSYN082AAXX  02184 82392 21499 40905 10296 20213 39986 40088 72122 84400 333 59010 69971;
0168823920999992007010300004-03700-040350FM-12+008399999V0200501N004112200019N0040001N1+02681+02261101141ADDGF104991021011004501031001KA1240M+03541MA1999999100121MD1999999-0031REMSYN088AAXX  03004 82392 32496 40508 10268 20226 30012 40114 82130 333 10354 29072 55070 59003;
0137823920999992007010318004-03700-040350FM-12+008399999V0200501N003112200019N0500001N1+03341+01801100921ADDGF104991041051004501001001MA1999999099901MD1999999+0041REMSYN070AAXX  03184 82392 32499 40506 10334 20180 39990 40092 84500 333 58004;
0213823920999992007010400004-03700-040350FM-12+008399999V0200501N002112200019N0040001N1+02621+02261101141ADDAA106002091AY161061AY221061GF102991021001004501031001KA1240M+03541MA1999999100121MD1999999+0001MW1031REMSYN100AAXX  04004 82392 21496 20504 10262 20226 30012 40114 70362 82030 333 10354 29068 55055 58000 60021;
0201823920999992007010412004-03700-040350FM-12+008399999V0200901N000510450019N0500001N1+02751+02191101201ADDAA124002091AY161061AY261061GF106991041041004501031001KA1240N+02471MA1999999100181MD1999999-0061MW1021REMSYN088AAXX  04124 82392 21499 60901 10275 20219 30018 40120 70266 84430 333 20247 59006 60024;
0137823920999992007010418004-03700-040350FM-12+008399999V0203601N001010042019N0500001N1+03481+01791100781ADDGF106991061021004501001001MA1999999099771MD1999999-0131REMSYN070AAXX  04184 82392 32499 63602 10348 20179 39977 40078 86200 333 59013;
0178823920999992007010500004-03700-040350FM-12+008399999V0203601N004612200019N0040001N1+02641+02141101061ADDGA1001+999999999GF100991001001999999001001KA1240M+03641MA1999999100041MD1999999-0081REMSYN082AAXX  05004 82392 32996 03609 10264 20214 30004 40106 333 10364 29064 55084 59008;
0156823920999992007010512004-03700-040350FM-12+008399999V0200501N002612200019N0500001N1+02921+01981101141ADDGF103991031021004501001001KA1240N+02001MA1999999100121MD1999999-0061REMSYN076AAXX  05124 82392 32499 30505 10292 20198 30012 40114 83200 333 20200 59006;
0137823920999992007010518004-03700-040350FM-12+008399999V0200501N001010450019N0500001N1+03461+01901100671ADDGF106991031021004501031001MA1999999099651MD1999999-0121REMSYN070AAXX  05184 82392 32499 60502 10346 20190 39965 40067 83230 333 59012;
0168823920999992007010600004-03700-040350FM-12+008399999V0203601N004110450019N0040001N1+02781+02181101011ADDGF106991031041004501031001KA1240M+03521MA1999999100001MD1999999-0041REMSYN088AAXX  06004 82392 32496 63608 10278 20218 30000 40101 83430 333 10352 29059 55091 59004;
0156823920999992007010612004-03700-040350FM-12+008399999V0200901N002110450019N0500001N1+02941+02081101131ADDGF106991031021004501031001KA1240N+02451MA1999999100121MD1999999+0001REMSYN076AAXX  06124 82392 32499 60904 10294 20208 30012 40113 83230 333 20245 58000;
0137823920999992007010618004-03700-040350FM-12+008399999V0200901N003112200019N0500001N1+03621+01041100621ADDGF103991021011004501031001MA1999999099621MD1999999-0031REMSYN070AAXX  06184 82392 32499 30906 10362 20104 39962 40062 82130 333 59003;
0178823920999992007010700004-03700-040350FM-12+008399999V0203601N004112200019N0040001N1+02721+01951101021ADDGA1001+999999999GF100991001001999999001001KA1240M+03721MA1999999100001MD1999999+0001REMSYN082AAXX  07004 82392 32996 03608 10272 20195 30000 40102 333 10372 29051 55109 58000;
0156823920999992007010712004-03700-040350FM-12+008399999V0200501N000510042019N0500001N1+02811+02291101241ADDGF107991051061004501031001KA1240N+02491MA1999999100221MD1999999+0101REMSYN076AAXX  07124 82392 32499 70501 10281 20229 30022 40124 85630 333 20249 58010;
0201823920999992007010718004-03700-040350FM-12+008399999V0201401N000510450019N0500001N1+03461+01981100721ADDAA106000091AY151061AY251061GF106991041021004501011001MA1999999099711MD1999999+0091MW1021REMSYN082AAXX  07184 82392 21499 61401 10346 20198 39971 40072 70255 84210 333 58009 69911;EQDQ01  00002PRCP06
0168823920999992007010800004-03700-040350FM-12+008399999V0203601N001512200019N0040001N1+02781+02161100971ADDGF102991021001008001031001KA1240M+03541MA1999999099951MD1999999-0051REMSYN088AAXX  08004 82392 32596 23603 10278 20216 39995 40097 82030 333 10354 29063 55078 59005;
0192823920999992007010812004-03700-040350FM-12+008399999V0200901N002610450019N0500001N1+02961+01961101131ADDAA124000091GF106991041021004501031001KA1240N+02381MA1999999100121MD1999999-0101REMSYN082AAXX  08124 82392 22499 60905 10296 20196 30012 40113 84230 333 20238 59010 69914;EQDQ01  00002PRCP24
0137823920999992007010818004-03700-040350FM-12+008399999V0200901N003112200019N0500001N1+03661+01341100711ADDGF104991041021004501001001MA1999999099701MD1999999-0011REMSYN070AAXX  08184 82392 32499 40906 10366 20134 39970 40071 84200 333 59001;
0178823920999992007010900004-03700-040350FM-12+008399999V0203601N001012200019N0040001N1+02831+02121100931ADDGA1001+999999999GF100991001001999999001001KA1240M+03701MA1999999099921MD1999999-0031REMSYN082AAXX  09004 82392 32996 03602 10283 20212 39992 40093 333 10370 29053 55083 59003;
0156823920999992007010912004-03700-040350FM-12+008399999V0200901N001512200019N0500001N1+02821+01971101091ADDGF103991031011004501001001KA1240N+02261MA1999999100071MD1999999-0051REMSYN076AAXX  09124 82392 32499 30903 10282 20197 30007 40109 83100 333 20226 59005;
0137823920999992007010918004-03700-040350FM-12+008399999V0203601N002110450019N0500001N1+02831+02311100791ADDGF106991031061004501021001MA1999999099771MD1999999+0071REMSYN070AAXX  09184 82392 32499 63604 10283 20231 39977 40079 83620 333 58007;
0168823920999992007011000004-03700-040350FM-12+008399999V0203601N001512200019N0040001N1+02701+02151100961ADDGF102991021001008001011001KA1240M+03551MA1999999099941MD1999999+0021REMSYN088AAXX  10004 82392 32596 23603 10270 20215 39994 40096 82010 333 10355 29069 55052 58002;
0156823920999992007011012004-03700-040350FM-12+008399999V0200501N003112200019N0500001N1+03021+02021101111ADDGF104991021011004501031001KA1240N+02301MA1999999100101MD1999999+0031REMSYN076AAXX  10124 82392 32499 40506 10302 20202 30010 40111 82130 333 20230 58003;
0137823920999992007011018004-03700-040350FM-12+008399999V0200901N001012200019N0500001N1+03601+01161100711ADDGF104991041021004501001001MA1999999099701MD1999999-0071REMSYN070AAXX  10184 82392 32499 40902 10360 20116 39970 40071 84200 333 59007;
0178823920999992007011100004-03700-040350FM-12+008399999V0203601N002112200019N0040001N1+02771+02011101011ADDGA1001+999999999GF100991001001999999001001KA1240M+03741MA1999999100001MD1999999+0061REMSYN082AAXX  11004 82392 32996 03604 10277 20201 30000 40101 333 10374 29051 55100 58006;
0156823920999992007011112004-03700-040350FM-12+008399999V0203601N001010042019N0500001N1+02961+02151101071ADDGF106991051021004501011001KA1240N+02271MA1999999100061MD1999999-0041REMSYN076AAXX  11124 82392 32499 63602 10296 20215 30006 40107 85210 333 20227 59004;
0137823920999992007011118004-03700-040350FM-12+008399999V0200501N001010042019N0500001N1+03571+01881100671ADDGF106991051021004501001011MA1999999099661MD1999999-0041REMSYN070AAXX  11184 82392 32499 60502 10357 20188 39966 40067 85201 333 59004;
0213823920999992007011200004-03700-040350FM-12+008399999V0203601N003112200019N0040001N1+02761+02041101051ADDAA106005191AY161061AY221061GF102991021001004501031001KA1240M+03701MA1999999100041MD1999999+0041MW1021REMSYN100AAXX  12004 82392 21496 23606 10276 20204 30004 40105 70262 82030 333 10370 29057 55077 58004 60051;
0192823920999992007011212004-03700-040350FM-12+008399999V0200901N001019999999N0500001N1+02821+02221101171ADDAA124005191GF106991999021004501001001KA1240N+02301MA1999999100151MD1999999+0091REMSYN082AAXX  12124 82392 22499 60902 10282 20222 30015 40117 84200 333 20230 58009 60054;EQDQ01+000042SCOTLC
0137823920999992007011218004-03700-040350FM-12+008399999V0203601N000510450019N0500001N1+03461+01941100631ADDGF106991031021004501011001MA1999999099631MD1999999-0031REMSYN070AAXX  12184 82392 32499 63601 10346 20194 39963 40063 83210 333 59003;
0178823920999992007011300004-03700-040350FM-12+008399999V0203601N005112200019N0040001N1+02701+02111100921ADDGA1001+999999999GF100991001001999999001001KA1240M+03561MA1999999099901MD1999999-0141REMSYN082AAXX  13004 82392 32996 03610 10270 20211 39990 40092 333 10356 29063 55032 59014;
0156823920999992007011312004-03700-040350FM-12+008399999V0200501N000510042019N0500001N1+02771+02161101081ADDGF106991051021004501011001KA1240N+02291MA1999999100061MD1999999-0091REMSYN076AAXX  13124 82392 32499 60501 10277 20216 30006 40108 85210 333 20229 59009;
0137823920999992007011318004-03700-040350FM-12+008399999V0200901N001010450019N0500001N1+03511+01651100571ADDGF105991041021004501031001MA1999999099571MD1999999-0061REMSYN070AAXX  13184 82392 32499 50902 10351 20165 39957 40057 84230 333 59006;
0178823920999992007011400004-03700-040350FM-12+008399999V0200501N000512200019N0040001N1+02671+01921100921ADDGA1001+999999999GF100991001001999999001001KA1240M+03641MA1999999099901MD1999999+0001REMSYN082AAXX  14004 82392 32996 00501 10267 20192 39990 40092 333 10364 29057 55089 58000;
0156823920999992007011412004-03700-040350FM-12+008399999V0200501N003112200019N0500001N1+02961+01961101121ADDGF104991041021004501001001KA1240N+02101MA1999999100101MD1999999+0041REMSYN076AAXX  14124 82392 32499 40506 10296 20196 30010 40112 84200 333 20210 58004;
0137823920999992007011418004-03700-040350FM-12+008399999V0200501N002610450019N0500001N1+03621+01481100661ADDGF105991031021004501031001MA1999999099651MD1999999+0081REMSYN070AAXX  14184 82392 32499 50505 10362 20148 39965 40066 83230 333 58008;
0168823920999992007011500004-03700-040350FM-12+008399999V0200501N003110042019N0040001N1+02921+02061100861ADDGF106991051041004501031001KA1240M+03701MA1999999099851MD1999999-0051REMSYN088AAXX  15004 82392 32496 60506 10292 20206 39985 40086 85430 333 10370 29051 55077 59005;
0156823920999992007011512004-03700-040350FM-12+008399999V0201401N002110450019N0500001N1+02941+02161101061ADDGF108991041051004501021999KA1240N+02401MA1999999100051MD1999999-0051REMSYN076AAXX  15124 82392 32499 81404 10294 20216 30005 40106 8452/ 333 20240 59005;
0137823920999992007011518004-03700-040350FM-12+008399999V0200901N002110450019N0500001N1+03481+01571100631ADDGF107991031051004501031001MA1999999099631MD1999999-0021REMSYN070AAXX  15184 82392 32499 70904 10348 20157 39963 40063 83530 333 59002;
0168823920999992007011600004-03700-040350FM-12+008399999V0200501N001512200019N0040001N1+02871+02161100921ADDGF103991031001008001011001KA1240M+03601MA1999999099911MD1999999+0061REMSYN088AAXX  16004 82392 32596 30503 10287 20216 39991 40092 83010 333 10360 29056 55022 58006;
0156823920999992007011612004-03700-040350FM-12+008399999V0200901N003112200019N0500001N1+03061+02081100961ADDGF104991041021004501001001KA1240N+02201MA1999999099951MD1999999-0101REMSYN076AAXX  16124 82392 32499 40906 10306 20208 39995 40096 84200 333 20220 59010;
0137823920999992007011618004-03700-040350FM-12+008399999V0201401N001010450019N0500001N1+03561+01731100541ADDGF107991031021004501011011MA1999999099541MD1999999-0091REMSYN070AAXX  16184 82392 32499 71402 10356 20173 39954 40054 83211 333 59009;
0178823920999992007011700004-03700-040350FM-12+008399999V0203601N004112200019N0040001N1+02871+02131100861ADDGA1001+999999999GF100991001001999999001001KA1240M+03711MA1999999099851MD1999999-0061REMSYN082AAXX  17004 82392 32996 03608 10287 20213 39985 40086 333 10371 29055 55081 59006;
0156823920999992007011712004-03700-040350FM-12+008399999V0200901N002612200019N0500001N1+03021+02021101011ADDGF103991031011004501001001KA1240N+02281MA1999999100001MD1999999+0051REMSYN076AAXX  17124 82392 32499 30905 10302 20202 30000 40101 83100 333 20228 58005;
0137823920999992007011718004-03700-040350FM-12+008399999V0200901N002112200019N0500001N1+03721+01321100541ADDGF102991021011004501001001MA1999999099541MD1999999+0001REMSYN070AAXX  17184 82392 32499 20904 10372 20132 39954 40054 82100 333 58000;
0213823920999992007011800004-03700-040350FM-12+008399999V0200501N003610450019N0040001N1+03031+02031100871ADDAA106000591AY161061AY261061GF106991031021004501031001KA1240M+03791MA1999999099861MD1999999+0011MW1021REMSYN100AAXX  18004 82392 21496 60507 10303 20203 39986 40087 70266 83230 333 10379 29047 55099 58001 69951;
0173823920999992007011812004-03700-040350FM-12+008399999V0201401N001010450019N0500001N1+02981+02061101111ADDAA124000591GF107991031021004501031011KA1240N+02411MA1999999100101MD1999999+0101REMSYN082AAXX  18124 82392 22499 71402 10298 20206 30010 40111 83231 333 20241 58010 69954;
0137823920999992007011818004-03700-040350FM-12+008399999V0200501N003110042019N0500001N1+03601+01621100601ADDGF106991061021004501001001MA1999999099601MD1999999+0061REMSYN070AAXX  18184 82392 32499 60506 10360 20162 39960 40060 86200 333 58006;
0178823920999992007011900004-03700-040350FM-12+008399999V0203601N005112200019N0040001N1+02881+01861100951ADDGA1001+999999999GF100991001001999999001001KA1240M+03761MA1999999099941MD1999999-0081REMSYN082AAXX  19004 82392 32996 03610 10288 20186 39994 40095 333 10376 29049 55093 59008;
0156823920999992007011912004-03700-040350FM-12+008399999V0201401N002112200019N0500001N1+02881+02031101161ADDGF104991021021004501031001KA1240N+02101MA1999999100151MD1999999+0051REMSYN076AAXX  19124 82392 32499 41404 10288 20203 30015 40116 82230 333 20210 58005;
0137823920999992007011918004-03700-040350FM-12+008399999V0200501N001510042019N0500001N1+03691+01711100741ADDGF106991061021004501001001MA1999999099731MD1999999+0131REMSYN070AAXX  19184 82392 32499 60503 10369 20171 39973 40074 86200 333 58013;
0178823920999992007012000004-03700-040350FM-12+008399999V0200501N005712200019N0040001N1+02801+02141101141ADDGA1001+999999999GF100991001001999999001001KA1240M+03741MA1999999100121MD1999999+0181REMSYN082AAXX  20004 82392 32996 00511 10280 20214 30012 40114 333 10374 29056 55092 58018;
0156823920999992007012012004-03700-040350FM-12+008399999V0200901N001010450019N0500001N1+02901+02201101251ADDGF105991031021004501031001KA1240N+02401MA1999999100241MD1999999+0091REMSYN076AAXX  20124 82392 32499 50902 10290 20220 30024 40125 83230 333 20240 58009;
0178823920999992007012100004-03700-040350FM-12+008399999V0200501N001012200019N0040001N1+02891+02021101141ADDGA1001+999999999GF100991001001999999001001KA1240M+03721MA1999999100131MD1999999+0011REMSYN082AAXX  21004 82392 32996 00502 10289 20202 30013 40114 333 10372 29053 55084 58001;
0156823920999992007012112004-03700-040350FM-12+008399999V0200901N001512200019N0500001N1+03091+02151101231ADDGF102991011011004501031001KA1240N+02281MA1999999100221MD1999999-0021REMSYN076AAXX  21124 82392 32499 20903 10309 20215 30022 40123 81130 333 20228 59002;
0137823920999992007012118004-03700-040350FM-12+008399999V0200901N002112200019N0500001N1+03681+01581100751ADDGF104991041021004501001001MA1999999099741MD1999999-0071REMSYN070AAXX  21184 82392 32499 40904 10368 20158 39974 40075 84200 333 59007;
0178823920999992007012200004-03700-040350FM-12+008399999V0203601N001012200019N0040001N1+02851+01981101021ADDGA1001+999999999GF100991001001999999001001KA1240M+03821MA1999999100011MD1999999-0121REMSYN082AAXX  22004 82392 32996 03602 10285 20198 30001 40102 333 10382 29051 55106 59012;
0156823920999992007012212004-03700-040350FM-12+008399999V0200501N002610450019N0500001N1+02901+02041101191ADDGF106991041021004501031001KA1240N+02311MA1999999100181MD1999999-0041REMSYN076AAXX  22124 82392 32499 60505 10290 20204 30018 40119 84230 333 20231 59004;
0137823920999992007012218004-03700-040350FM-12+008399999V0200501N002112200019N0500001N1+03641+01321100671ADDGF103991031011004501001001MA1999999099661MD1999999-0081REMSYN070AAXX  22184 82392 32499 30504 10364 20132 39966 40067 83100 333 59008;
0168823920999992007012300004-03700-040350FM-12+008399999V0203601N003112200019N0040001N1+02731+02141101001ADDGF103991031001008001031001KA1240M+03741MA1999999099981MD1999999-0031REMSYN088AAXX  23004 82392 32596 33606 10273 20214 39998 40100 83030 333 10374 29056 55105 59003;
0156823920999992007012312004-03700-040350FM-12+008399999V0200901N002112200019N0500001N1+02801+02201101131ADDGF103991031021004501001001KA1240N+02301MA1999999100111MD1999999-0071REMSYN076AAXX  23124 82392 32499 30904 10280 20220 30011 40113 83200 333 20230 59007;
0156823920999992007012318004-03700-040350FM-12+008399999V0203601N003119999999N0500001N1+03591+01901100671ADDGF106991999021004501001001MA1999999099661MD1999999+0001REMSYN070AAXX  23184 82392 32499 63606 10359 20190 39966 40067 83200 333 58000;EQDQ01+000032SCOTLC
0168823920999992007012400004-03700-040350FM-12+008399999V0203601N003112200019N0040001N1+02781+02161100991ADDGF102991021001008001031001KA1240M+03731MA1999999099971MD1999999-0011REMSYN088AAXX  24004 82392 32596 23606 10278 20216 39997 40099 82030 333 10373 29061 55077 59001;
0156823920999992007012412004-03700-040350FM-12+008399999V0203601N001010042019N0500001N1+02801+02201101251ADDGF106991051021004501031001KA1240N+02311MA1999999100231MD1999999+0121REMSYN076AAXX  24124 82392 32499 63602 10280 20220 30023 40125 85230 333 20231 58012;
0137823920999992007012418004-03700-040350FM-12+008399999V0200901N003112200019N0500001N1+03621+01301100761ADDGF104991041021004501001001MA1999999099751MD1999999+0091REMSYN070AAXX  24184 82392 32499 40906 10362 20130 39975 40076 84200 333 58009;
0168823920999992007012500004-03700-040350FM-12+008399999V0203601N003619999999N0040001N1+02831+02121101021ADDGF106991061001008001031001KA1240M+03701MA1999999100001MD1999999+0031REMSYN088AAXX  25004 82392 32596 63607 10283 20212 30000 40102 86030 333 10370 29056 55080 58003;
0156823920999992007012512004-03700-040350FM-12+008399999V0203601N000510450019N0500001N1+02911+02221101161ADDGF106991031041004501031001KA1240N+02491MA1999999100151MD1999999-0081REMSYN076AAXX  25124 82392 32499 63601 10291 20222 30015 40116 83430 333 20249 59008;
0137823920999992007012518004-03700-040350FM-12+008399999V0200901N001010450019N0500001N1+03591+01941100681ADDGF106991031021004501031001MA1999999099671MD1999999-0081REMSYN070AAXX  25184 82392 32499 60902 10359 20194 39967 40068 83230 333 59008;
0168823920999992007012600004-03700-040350FM-12+008399999V0200501N004612200019N0040001N1+02761+02161100971ADDGF102991021001004501031001KA1240M+03681MA1999999099951MD1999999-0051REMSYN088AAXX  26004 82392 32496 20509 10276 20216 39995 40097 82030 333 10368 29061 55088 59005;
0156823920999992007012612004-03700-040350FM-12+008399999V0200901N002110450019N0500001N1+03021+02021101111ADDGF106991031021004501031001KA1240N+02201MA1999999100101MD1999999-0051REMSYN076AAXX  26124 82392 32499 60904 10302 20202 30010 40111 83230 333 20220 59005;
0137823920999992007012618004-03700-040350FM-12+008399999V0200501N002112200019N0500001N1+03711+01961100601ADDGF104991031021004501001011MA1999999099601MD1999999-0071REMSYN070AAXX  26184 82392 32499 40504 10371 20196 39960 40060 83201 333 59007;
0178823920999992007012700004-03700-040350FM-12+008399999V0203601N004612200019N0040001N1+02821+02001100911ADDGA1001+999999999GF100991001001999999001001KA1240M+03801MA1999999099901MD1999999-0051REMSYN082AAXX  27004 82392 32996 03609 10282 20200 39990 40091 333 10380 29053 55102 59005;
0156823920999992007012712004-03700-040350FM-12+008399999V0200901N000512200019N0500001N1+02931+02051101141ADDGF104991031021004501031001KA1240N+02321MA1999999100131MD1999999+0031REMSYN076AAXX  27124 82392 32499 40901 10293 20205 30013 40114 83230 333 20232 58003;
0137823920999992007012718004-03700-040350FM-12+008399999V0200501N001012200019N0500001N1+03761+01361100661ADDGF101991011011004501001001MA1999999099651MD1999999+0051REMSYN070AAXX  27184 82392 32499 10502 10376 20136 39965 40066 81100 333 58005;
0178823920999992007012800004-03700-040350FM-12+008399999V0203601N005112200019N0040001N1+02861+01751101011ADDGA1001+999999999GF100991001001999999001001KA1240M+03841MA1999999100001MD1999999+0101REMSYN082AAXX  28004 82392 32996 03610 10286 20175 30000 40101 333 10384 29046 55105 58010;
0156823920999992007012812004-03700-040350FM-12+008399999V0200901N003110450019N0500001N1+02961+02101101341ADDGF105991041021004501031001KA1240N+02341MA1999999100331MD1999999+0001REMSYN076AAXX  28124 82392 32499 50906 10296 20210 30033 40134 84230 333 20234 58000;
0137823920999992007012818004-03700-040350FM-12+008399999V0203601N002110450019N0500001N1+03701+01311100791ADDGF106991031021004501031001MA1999999099781MD1999999+0131REMSYN070AAXX  28184 82392 32499 63604 10370 20131 39978 40079 83230 333 58013;
0178823920999992007012900004-03700-040350FM-12+008399999V0200501N006212200019N0040001N1+02801+02201101151ADDGA1001+999999999GF100991001001999999001001KA1240M+03861MA1999999100141MD1999999+0141REMSYN082AAXX  29004 82392 32996 00512 10280 20220 30014 40115 333 10386 29056 55096 58014;
0156823920999992007012912004-03700-040350FM-12+008399999V0200501N002610042019N0500001N1+02841+02291101321ADDGF107991051051004501031001KA1240N+02401MA1999999100301MD1999999-0031REMSYN076AAXX  29124 82392 32499 70505 10284 20229 30030 40132 85530 333 20240 59003;
0137823920999992007012918004-03700-040350FM-12+008399999V0200501N006212200019N0500001N1+03561+01481100831ADDGF103991031021004501001001MA1999999099821MD1999999+0041REMSYN070AAXX  29184 82392 32499 30512 10356 20148 39982 40083 83200 333 58004;
0178823920999992007013000004-03700-040350FM-12+008399999V0200501N005112200019N0040001N1+02811+02271101161ADDGA1001+999999999GF100991001001999999001001KA1240M+03731MA1999999100141MD1999999+0001REMSYN082AAXX  30004 82392 32996 00510 10281 20227 30014 40116 333 10373 29061 55077 58000;
0156823920999992007013012004-03700-040350FM-12+008399999V0201401N001010042019N0500001N1+02941+02241101261ADDGF105991051021004501001001KA1240N+02501MA1999999100251MD1999999-0051REMSYN076AAXX  30124 82392 32499 51402 10294 20224 30025 40126 85200 333 20250 59005;
0137823920999992007013018004-03700-040350FM-12+008399999V0209999C000010450019N0500001N1+03591+01811100741ADDGF106991031041004501011001MA1999999099731MD1999999-0091REMSYN070AAXX  30184 82392 32499 60000 10359 20181 39973 40074 83410 333 59009;
0168823920999992007013100004-03700-040350FM-12+008399999V0203601N000519999999N0040001N1+02871+02181101041ADDGF108991041001008001011011KA1240M+03731MA1999999100031MD1999999-0111REMSYN088AAXX  31004 82392 32596 83601 10287 20218 30003 40104 84011 333 10373 29058 55062 59011;
0156823920999992007013112004-03700-040350FM-12+008399999V0200501N002110450019N0500001N1+02761+02381101081ADDGF107991041041004501011001KA1240N+02511MA1999999100061MD1999999-0191REMSYN076AAXX  31124 82392 32499 70504 10276 20238 30006 40108 84410 333 20251 59019;
0137823920999992007013118004-03700-040350FM-12+008399999V0200501N003110450019N0500001N1+03401+01961100701ADDGF107991031021004501031001MA1999999099691MD1999999-0041REMSYN070AAXX  31184 82392 32499 70506 10340 20196 39969 40070 83230 333 59004;
0168823920999992007020100004-03700-040350FM-12+008399999V0203601N001010450019N0040001N1+02791+02271101101ADDGF108991041061004501011999KA1240M+02961MA1999999100081MD1999999+0051REMSYN088AAXX  01004 82392 32496 83602 10279 20227 30008 40110 8461/ 333 10296 29067 55006 58005;
0156823920999992007020112004-03700-040350FM-12+008399999V0203601N002110450019N0500001N1+02991+02241101191ADDGF106991031041004501031001KA1240N+02601MA1999999100181MD1999999+0121REMSYN076AAXX  01124 82392 32499 63604 10299 20224 30018 40119 83430 333 20260 58012;
0137823920999992007020118004-03700-040350FM-12+008399999V0200501N005110450019N0500001N1+03571+02051100681ADDGF107991041061004501031001MA1999999099671MD1999999-0021REMSYN070AAXX  01184 82392 32499 70510 10357 20205 39967 40068 84630 333 59002;
0168823920999992007020200004-03700-040350FM-12+008399999V0200501N004612200019N0040001N1+02721+02261101161ADDGF104991041041004501001001KA1240M+03681MA1999999100151MD1999999+0071REMSYN088AAXX  02004 82392 32496 40509 10272 20226 30015 40116 84400 333 10368 29064 55067 58007;
0201823920999992007020212004-03700-040350FM-12+008399999V0201401N001012200019N0500001N1+02681+02501101321ADDAA124002091AY151061AY251061GF104991041041004501001001KA1240N+02411MA1999999100301MD1999999+0121MW1021REMSYN088AAXX  02124 82392 21499 41402 10268 20250 30030 40132 70255 84400 333 20241 58012 60024;
0137823920999992007020218004-03700-040350FM-12+008399999V0200501N003110450019N0500001N1+02961+02261100821ADDGF106991041061004501031001MA1999999099801MD1999999+0131REMSYN070AAXX  02184 82392 32499 60506 10296 20226 39980 40082 84630 333 58013;
0168823920999992007020300004-03700-040350FM-12+008399999V0200501N003110450019N0040001N1+02481+02341101171ADDGF106991041041004501031001KA1240M+03401MA1999999100151MD1999999+0001REMSYN088AAXX  03004 82392 32496 60506 10248 20234 30015 40117 84430 333 10340 29085 55060 58000;
0201823920999992007020312004-03700-040350FM-12+008399999V0200501N001010450019N0500001N1+02761+02281101201ADDAA124000391AY151061AY221061GF108991041051004501031001KA1240N+02301MA1999999100181MD1999999-0121MW1021REMSYN088AAXX  03124 82392 21499 80502 10276 20228 30018 40120 70252 84530 333 20230 59012 69934;
0137823920999992007020318004-03700-040350FM-12+008399999V0203601N005710450019N0500001N1+03061+01991100831ADDGF106991031041004501031001MA1999999099811MD1999999-0011REMSYN070AAXX  03184 82392 32499 63611 10306 20199 39981 40083 83430 333 59001;
0213823920999992007020400004-03700-040350FM-12+008399999V0203601N001010450019N0040001N1+02481+02461101141ADDAA106025991AY161061AY261061GF108991031071004501021999KA1240M+03601MA1999999100121MD1999999-0031MW1021REMSYN100AAXX  04004 82392 21496 83602 10248 20246 30012 40114 70266 8372/ 333 10360 29082 55051 59003 60261;
0201823920999992007020412004-03700-040350FM-12+008399999V0202701N000510042019N0500001N1+02531+02451101251ADDAA124029091AY161061AY261061GF107991051061004501031001KA1240N+02291MA1999999100221MD1999999+0041MW1021REMSYN088AAXX  04124 82392 21499 72701 10253 20245 30022 40125 70266 85630 333 20229 58004 60294;
0156823920999992007020418004-03700-040350FM-12+008399999V0200501N003119999999N0500001N1+02891+02391100911ADDGF106991999031004501001001MA1999999099901MD1999999+0091REMSYN070AAXX  04184 82392 32499 60506 10289 20239 39990 40091 84300 333 58009;EQDQ01+000042SCOTLC
0213823920999992007020500004-03700-040350FM-12+008399999V0200901N000510450019N0040001N1+02411+02371101221ADDAA106013091AY161061AY261061GF108991031061004501021999KA1240M+03311MA1999999100191MD1999999+0071MW1021REMSYN100AAXX  05004 82392 21496 80901 10241 20237 30019 40122 70266 8362/ 333 10331 29091 55031 58007 60131;
0201823920999992007020512004-03700-040350FM-12+008399999V0200901N001010450019N0500001N1+02741+02321101241ADDAA124013091AY161061AY261061GF107991041051004501031001KA1240N+02381MA1999999100221MD1999999+0001MW1031REMSYN088AAXX  05124 82392 21499 70902 10274 20232 30022 40124 70366 84530 333 20238 58000 60134;
0182823920999992007020518004-03700-040350FM-12+008399999V0203201N001510450019N0200001N1+02301+02221101011ADDAA106010991AY161061AY221061GF108991041071004501021999MA1999999099981MD1999999+0081MW1031REMSYN082AAXX  05184 82392 21498 83203 10230 20222 39998 40101 70362 8472/ 333 58008 60111;
0213823920999992007020600004-03700-040350FM-12+008399999V0203601N000510450019N0040001N1+02361+02261101161ADDAA106001091AY161061AY261061GF107991041061004501021001KA1240M+03261MA1999999100141MD1999999-0051MW1021REMSYN100AAXX  06004 82392 21496 73601 10236 20226 30014 40116 70266 84620 333 10326 29090 55024 59005 60011;
0201823920999992007020612004-03700-040350FM-12+008399999V0200901N001010450019N0500001N1+02781+02301101121ADDAA124011991AY151061AY251061GF107991041051004501031001KA1240N+02301MA1999999100101MD1999999-0121MW1031REMSYN088AAXX  06124 82392 21499 70902 10278 20230 30010 40112 70355 84530 333 20230 59012 60124;
0137823920999992007020618004-03700-040350FM-12+008399999V0203601N001510450019N0500001N1+03331+02371100631ADDGF106991031061004501031001MA1999999099631MD1999999-0351REMSYN070AAXX  06184 82392 32499 63603 10333 20237 39963 40063 83630 333 59035;
0213823920999992007020700004-03700-040350FM-12+008399999V0203601N003112200019N0040001N1+02711+02341100971ADDAA106000391AY151061AY251061GF104991021061004501011001KA1240M+03391MA1999999099951MD1999999-0191MW1021REMSYN100AAXX  07004 82392 21496 43606 10271 20234 39995 40097 70255 82610 333 10339 29073 55068 59019 69931;
0173823920999992007020712004-03700-040350FM-12+008399999V0203601N002110450019N0500001N1+02801+02181101071ADDAA124000391GF106991031041004501031001KA1240N+02481MA1999999100051MD1999999-0051REMSYN082AAXX  07124 82392 22499 63604 10280 20218 30005 40107 83430 333 20248 59005 69934;
0137823920999992007020718004-03700-040350FM-12+008399999V0200501N004110450019N0500001N1+03401+01851100691ADDGF106991041041004501031001MA1999999099681MD1999999+0051REMSYN070AAXX  07184 82392 32499 60508 10340 20185 39968 40069 84430 333 58005;
0213823920999992007020800004-03700-040350FM-12+008399999V0203601N001010450019N0040001N1+02591+02271101021ADDAA106002091AY161061AY261061GF106991031061004501011001KA1240M+03361MA1999999100001MD1999999+0051MW1021REMSYN100AAXX  08004 82392 21496 63602 10259 20227 30000 40102 70266 83610 333 10336 29068 55052 58005 60021;
0173823920999992007020812004-03700-040350FM-12+008399999V0200901N000510042019N0500001N1+02761+02321101191ADDAA124002091GF107991051061004501031001KA1240N+02371MA1999999100171MD1999999+0121REMSYN082AAXX  08124 82392 22499 70901 10276 20232 30017 40119 85630 333 20237 58012 60024;
0137823920999992007020818004-03700-040350FM-12+008399999V0200901N001510450019N0500001N1+03411+02061100731ADDGF106991031051004501011001MA1999999099721MD1999999+0041REMSYN070AAXX  08184 82392 32499 60903 10341 20206 39972 40073 83510 333 58004;
0168823920999992007020900004-03700-040350FM-12+008399999V0203601N004612200019N0040001N1+02661+02331101101ADDGF104991031011004501031001KA1240M+03401MA1999999100081MD1999999+0081REMSYN088AAXX  09004 82392 32496 43609 10266 20233 30008 40110 83130 333 10340 29072 55041 58008;
0156823920999992007020912004-03700-040350FM-12+008399999V0200501N001512200019N0500001N1+02701+02431101321ADDGF104991021021004501031001KA1240N+02501MA1999999100301MD1999999+0131REMSYN076AAXX  09124 82392 32499 40503 10270 20243 30030 40132 82230 333 20250 58013;
0182823920999992007020918004-03700-040350FM-12+008399999V0202701N000510450019N0500001N1+03031+02361100891ADDAA106001091AY161061AY261061GF107991041061004501031011MA1999999099871MD1999999+0151MW1211REMSYN082AAXX  09184 82392 21499 72701 10303 20236 39987 40089 72166 84631 333 58015 60011;
0168823920999992007021000004-03700-040350FM-12+008399999V0203601N004110450019N0040001N1+02701+02391101171ADDGF106991031041004501031001KA1240M+03301MA1999999100151MD1999999+0071REMSYN088AAXX  10004 82392 32496 63608 10270 20239 30015 40117 83430 333 10330 29079 55046 58007;
0173823920999992007021012004-03700-040350FM-12+008399999V0200901N001010450019N0500001N1+02881+02351101381ADDAA124001091GF106991031021004501031001KA1240N+02391MA1999999100361MD1999999+0061REMSYN082AAXX  10124 82392 22499 60902 10288 20235 30036 40138 83230 333 20239 58006 60014;
0137823920999992007021018004-03700-040350FM-12+008399999V0200901N001010450019N0500001N1+03461+01981100901ADDGF106991031021004501031001MA1999999099891MD1999999+0021REMSYN070AAXX  10184 82392 32499 60902 10346 20198 39989 40090 83230 333 58002;
0178823920999992007021100004-03700-040350FM-12+008399999V0203601N002112200019N0040001N1+02691+02171101221ADDGA1001+999999999GF100991001001999999001001KA1240M+03501MA1999999100201MD1999999+0151REMSYN082AAXX  11004 82392 32996 03604 10269 20217 30020 40122 333 10350 29063 55083 58015;
0156823920999992007021112004-03700-040350FM-12+008399999V0200501N003110450019N0500001N1+02781+02301101371ADDGF106991041041004501031001KA1240N+02401MA1999999100351MD1999999-0011REMSYN076AAXX  11124 82392 32499 60506 10278 20230 30035 40137 84430 333 20240 59001;
0137823920999992007021118004-03700-040350FM-12+008399999V0200501N004612200019N0500001N1+03301+01591100891ADDGF104991041021004501001001MA1999999099881MD1999999-0011REMSYN070AAXX  11184 82392 32499 40509 10330 20159 39988 40089 84200 333 59001;
0168823920999992007021200004-03700-040350FM-12+008399999V0203601N005112200019N0040001N1+02681+02181101211ADDGF102991021001004501031001KA1240M+03381MA1999999100191MD1999999-0011REMSYN088AAXX  12004 82392 32496 23610 10268 20218 30019 40121 82030 333 10338 29065 55056 59001;
0156823920999992007021212004-03700-040350FM-12+008399999V0200901N001012200019N0500001N1+02741+02321101311ADDGF104991041021004501001001KA1240N+02301MA1999999100291MD1999999-0061REMSYN076AAXX  12124 82392 32499 40902 10274 20232 30029 40131 84200 333 20230 59006;
0137823920999992007021218004-03700-040350FM-12+008399999V0203601N003110450019N0500001N1+03101+02261100801ADDGF105991031021004501031001MA1999999099781MD1999999-0101REMSYN070AAXX  12184 82392 32499 53606 10310 20226 39978 40080 83230 333 59010;
0213823920999992007021300004-03700-040350FM-12+008399999V0200901N000510450019N0040001N1+02491+02411101101ADDAA106002091AY161061AY261061GF108991031051004501021999KA1240M+03281MA1999999100081MD1999999-0111MW1021REMSYN100AAXX  13004 82392 21496 80901 10249 20241 30008 40110 70266 8352/ 333 10328 29082 55057 59011 60021;
0201823920999992007021312004-03700-040350FM-12+008399999V0200501N000510450019N0500001N1+02721+02451101101ADDAA124003091AY151061AY251061GF106991041051004501031001KA1240N+02401MA1999999100081MD1999999-0211MW1021REMSYN088AAXX  13124 82392 21499 60501 10272 20245 30008 40110 70255 84530 333 20240 59021 60034;
0201823920999992007021318004-03700-040350FM-12+008399999V0203601N001010090019N0200001N1+02381+02311100901ADDAA106004191AY161061AY261061GF108991999081004501061999MA1999999099871MD1999999+0091MW1621REMSYN082AAXX  13184 82392 21498 83602 10238 20231 39987 40090 76266 8886/ 333 58009 60041;EQDQ01+000082SCOTLC
0213823920999992007021400004-03700-040350FM-12+008399999V0209999C000010042019N0040001N1+02421+02371101021ADDAA106001091AY151061AY251061GF107991051061004501011001KA1240M+03181MA1999999100001MD1999999-0081MW1021REMSYN100AAXX  14004 82392 21496 70000 10242 20237 30000 40102 70255 85610 333 10318 29094 55033 59008 60011;
0201823920999992007021412004-03700-040350FM-12+008399999V0202301N000512200019N0500001N1+02661+02391101111ADDAA124006191AY161061AY251061GF104991041041004501001001KA1240N+02301MA1999999100081MD1999999+0001MW1021REMSYN088AAXX  14124 82392 21499 42301 10266 20239 30008 40111 70265 84400 333 20230 58000 60064;
0182823920999992007021418004-03700-040350FM-12+008399999V0200901N000510450019N0100001N1+02241+02211101051ADDAA106023991AY161061AY261061GF108991041061004501021999MA1999999100021MD1999999+0151MW1631REMSYN082AAXX  14184 82392 21497 80901 10224 20221 30002 40105 76366 8462/ 333 58015 60241;
0213823920999992007021500004-03700-040350FM-12+008399999V0201801N000510042019N0040001N1+02281+02231101101ADDAA106010991AY161061AY261061GF108991081061004501999999KA1240M+03021MA1999999100071MD1999999+0071MW1021REMSYN100AAXX  15004 82392 21496 81801 10228 20223 30007 40110 70266 886// 333 10302 29094 55026 58007 60111;
0201823920999992007021512004-03700-040350FM-12+008399999V0201801N000512200019N0500001N1+02671+02351101111ADDAA124035191AY151061AY251061GF104991021021004501031001KA1240N+02171MA1999999100081MD1999999+0001MW1021REMSYN088AAXX  15124 82392 21499 41801 10267 20235 30008 40111 70255 82230 333 20217 58000 60354;
0182823920999992007021518004-03700-040350FM-12+008399999V0203601N000510042019N0100001N1+02361+02291100971ADDAA106005191AY161061AY261061GF108991081061004501999999MA1999999099941MD1999999-0081MW1621REMSYN082AAXX  15184 82392 21497 83601 10236 20229 39994 40097 76266 886// 333 59008 60051;
0213823920999992007021600004-03700-040350FM-12+008399999V0209999C000010042019N0040001N1+02321+02251101081ADDAA106000891AY151061AY261061GF106991061051004501001001KA1240M+02981MA1999999100051MD1999999-0021MW1021REMSYN100AAXX  16004 82392 21496 60000 10232 20225 30005 40108 70256 86500 333 10298 29092 55029 59002 69981;
0173823920999992007021612004-03700-040350FM-12+008399999V0202701N000512200019N0500001N1+02641+02371101001ADDAA124006191GF104991041021004501001001KA1240N+02301MA1999999099971MD1999999-0111REMSYN082AAXX  16124 82392 22499 42701 10264 20237 39997 40100 84200 333 20230 59011 60064;
0182823920999992007021618004-03700-040350FM-12+008399999V0203601N001010042019N0100001N1+02561+02461100591ADDAA106011991AY161061AY261061GF108991061061004501071999MA1999999099571MD1999999-0371MW1021REMSYN082AAXX  16184 82392 21497 83602 10256 20246 39957 40059 70266 8667/ 333 59037 60121;
0213823920999992007021700004-03700-040350FM-12+008399999V0209999C000010450019N0040001N1+02401+02331100931ADDAA106013091AY161061AY261061GF108991041071004501021999KA1240M+03201MA1999999099901MD1999999-0151MW1021REMSYN100AAXX  17004 82392 21496 80000 10240 20233 39990 40093 70266 8472/ 333 10320 29093 55055 59015 60131;
0201823920999992007021712004-03700-040350FM-12+008399999V0202301N002110450019N0500001N1+02641+02501101031ADDAA124025991AY161061AY251061GF107991041051004501011001KA1240N+02221MA1999999100001MD1999999+0031MW1031REMSYN088AAXX  17124 82392 21499 72304 10264 20250 30000 40103 70365 84510 333 20222 58003 60264;
0182823920999992007021718004-03700-040350FM-12+008399999V0200501N001510450019N0500001N1+02361+02311100791ADDAA106033091AY161061AY261061GF108991031071004501021999MA1999999099761MD1999999+0191MW1021REMSYN082AAXX  17184 82392 21499 80503 10236 20231 39976 40079 70266 8372/ 333 58019 60331;
0213823920999992007021800004-03700-040350FM-12+008399999V0209999C000010450019N0040001N1+02321+02291100981ADDAA106000391AY151061AY261061GF108991041061004501021999KA1240M+02941MA1999999099951MD1999999+0051MW1021REMSYN100AAXX  18004 82392 21496 80000 10232 20229 39995 40098 70256 8462/ 333 10294 29096 55021 58005 69931;
0201823920999992007021812004-03700-040350FM-12+008399999V0202301N005110042019N0500001N1+02531+02401101141ADDAA124034091AY151061AY251061GF108991081061004501999999KA1240N+02301MA1999999100111MD1999999+0111MW1021REMSYN088AAXX  18124 82392 21499 82310 10253 20240 30011 40114 70255 886// 333 20230 58011 60344;
0137823920999992007021818004-03700-040350FM-12+008399999V0202701N000510450019N0500001N1+03011+02181100701ADDGF107991031021004501021001MA1999999099681MD1999999-0081REMSYN070AAXX  18184 82392 32499 72701 10301 20218 39968 40070 83220 333 59008;
0168823920999992007021900004-03700-040350FM-12+008399999V0200501N000510450019N0040001N1+02341+02241101041ADDGF108991031051004501021999KA1240M+03121MA1999999100011MD1999999+0061REMSYN088AAXX  19004 82392 32496 80501 10234 20224 30001 40104 8352/ 333 10312 29085 55036 58006;
0201823920999992007021912004-03700-040350FM-12+008399999V0202301N000512200019N0500001N1+02541+02401101051ADDAA124007991AY161061AY261061GF104991031041004501031001KA1240N+02201MA1999999100021MD1999999-0091MW1021REMSYN088AAXX  19124 82392 21499 42301 10254 20240 30002 40105 70266 83430 333 20220 59009 60084;
0182823920999992007021918004-03700-040350FM-12+008399999V0200501N001510450019N0500001N1+02681+02311100831ADDAA106000591AY161061AY221061GF107991041071004501031001MA1999999099801MD1999999+0121MW1021REMSYN082AAXX  19184 82392 21499 70503 10268 20231 39980 40083 70262 84730 333 58012 69961;
0213823920999992007022000004-03700-040350FM-12+008399999V0203601N000510450019N0040001N1+02311+02271101151ADDAA106002091AY161061AY261061GF108991041061004501021999KA1240M+02981MA1999999100121MD1999999+0111MW1021REMSYN100AAXX  20004 82392 21496 83601 10231 20227 30012 40115 70266 8462/ 333 10298 29092 55039 58011 60021;
0201823920999992007022012004-03700-040350FM-12+008399999V0201801N000510450019N0500001N1+02381+02291101231ADDAA124014091AY161061AY261061GF108991031071004501021999KA1240N+02101MA1999999100201MD1999999+0181MW1021REMSYN088AAXX  20124 82392 21499 81801 10238 20229 30020 40123 70266 8372/ 333 20210 58018 60144;
0137823920999992007022018004-03700-040350FM-12+008399999V0202701N000510450019N0500001N1+02911+02191100891ADDGF106991031021004501061001MA1999999099861MD1999999+0061REMSYN070AAXX  20184 82392 32499 62701 10291 20219 39986 40089 83260 333 58006;
0168823920999992007022100004-03700-040350FM-12+008399999V0201801N000510450019N0040001N1+02521+02361100951ADDGF108991041051004501021999KA1240M+03011MA1999999099921MD1999999-0201REMSYN088AAXX  21004 82392 32496 81801 10252 20236 39992 40095 8452/ 333 10301 29086 55037 59020;
0156823920999992007022112004-03700-040350FM-12+008399999V0202301N000512200019N0500001N1+02641+02371101221ADDGF104991041041004501001001KA1240N+02201MA1999999100201MD1999999+0001REMSYN076AAXX  21124 82392 32499 42301 10264 20237 30020 40122 84400 333 20220 58000;
0137823920999992007022118004-03700-040350FM-12+008399999V0209999C000010450019N0500001N1+03141+02041100761ADDGF105991031021004501031001MA1999999099741MD1999999-0121REMSYN070AAXX  21184 82392 32499 50000 10314 20204 39974 40076 83230 333 59012;
0168823920999992007022200004-03700-040350FM-12+008399999V0203601N000510450019N0040001N1+02551+02351101131ADDGF106991031051004501011001KA1240M+03201MA1999999100111MD1999999-0191REMSYN088AAXX  22004 82392 32496 63601 10255 20235 30011 40113 83510 333 10320 29078 55078 59019;
0156823920999992007022212004-03700-040350FM-12+008399999V0209999C000010450019N0500001N1+02771+02251101261ADDGF106991021021004501031011KA1240N+02441MA1999999100241MD1999999+0041REMSYN076AAXX  22124 82392 32499 60000 10277 20225 30024 40126 82231 333 20244 58004;
0182823920999992007022218004-03700-040350FM-12+008399999V0203601N000510450019N0500001N1+02771+02441100901ADDAA106001091AY101061AY221061GF107991041061004501031021MA1999999099881MD1999999+0141MW1211REMSYN082AAXX  22184 82392 21499 73601 10277 20244 39988 40090 72102 84632 333 58014 60011;
0168823920999992007022300004-03700-040350FM-12+008399999V0200501N001512200019N0040001N1+02501+02401101201ADDGF102991021001008001031001KA1240M+03221MA1999999100181MD1999999+0071REMSYN088AAXX  23004 82392 32596 20503 10250 20240 30018 40120 82030 333 10322 29086 55065 58007;
0182823920999992007022318004-03700-040350FM-12+008399999V0209999C000010450019N0500001N1+02561+02211101211ADDAA106001091AY151061AY251061GF108991031061004501011999MA1999999100181MD1999999+0271MW1021REMSYN082AAXX  23184 82392 21499 81400 10256 20221 30018 40121 70255 8361/ 333 58027 60011;
0168823920999992007022400004-03700-040350FM-12+008399999V0202301N000510450019N0040001N1+02301+02271101381ADDGF106991031051004501031001KA1240M+02621MA1999999100351MD1999999+0171REMSYN088AAXX  24004 82392 32496 62301 10230 20227 30035 40138 83530 333 10262 29094 55000 58017;
0173823920999992007022412004-03700-040350FM-12+008399999V0201801N001010450019N0500001N1+02571+02371101361ADDAA124001091GF107991041041004501031011KA1240N+02091MA1999999100331MD1999999-0121REMSYN082AAXX  24124 82392 22499 71802 10257 20237 30033 40136 84431 333 20209 59012 60014;
0182823920999992007022418004-03700-040350FM-12+008399999V0209999C000010450019N0500001N1+02841+02461100991ADDAA106000021AY101061AY221061GF106991041041004501031011MA1999999099961MD1999999-0191MW1201REMSYN082AAXX  24184 82392 21499 62300 10284 20246 39996 40099 72002 84431 333 59019 69911;
0213823920999992007022500004-03700-040350FM-12+008399999V0209999C000012200019N0040001N1+02451+02321101241ADDAA106005191AY161061AY261061GF104991031001008001031011KA1240M+03171MA1999999100211MD1999999-0141MW1021REMSYN100AAXX  25004 82392 21596 43600 10245 20232 30021 40124 70266 83031 333 10317 29088 55073 59014 60051;
0173823920999992007022512004-03700-040350FM-12+008399999V0200901N001010450019N0500001N1+02681+02311101261ADDAA124005191GF105991031021004501031001KA1240N+02181MA1999999100241MD1999999-0091REMSYN082AAXX  25124 82392 22499 50902 10268 20231 30024 40126 83230 333 20218 59009 60054;
0137823920999992007022518004-03700-040350FM-12+008399999V0200901N001012200019N0500001N1+03201+02151100881ADDGF103991031011004501001001MA1999999099861MD1999999-0101REMSYN070AAXX  25184 82392 32499 30902 10320 20215 39986 40088 83100 333 59010;
0213823920999992007022600004-03700-040350FM-12+008399999V0200501N001512200019N0040001N1+02441+02371101161ADDAA106011991AY161061AY221061GF102991021001004501031001KA1240M+03241MA1999999100141MD1999999-0071MW1021REMSYN100AAXX  26004 82392 21496 20503 10244 20237 30014 40116 70262 82030 333 10324 29082 55093 59007 60121;
0173823920999992007022612004-03700-040350FM-12+008399999V0200901N000510450019N0500001N1+02761+02481101221ADDAA124011991GF107991041051004501031001KA1240N+02311MA1999999100201MD1999999-0041REMSYN082AAXX  26124 82392 22499 70901 10276 20248 30020 40122 84530 333 20231 59004 60124;
0182823920999992007022618004-03700-040350FM-12+008399999V0200501N003110450019N0500001N1+02921+02361100881ADDAA106003091AY161061AY251061GF106991041041004501031001MA1999999099861MD1999999+0001MW1021REMSYN082AAXX  26184 82392 21499 60506 10292 20236 39986 40088 70265 84430 333 58000 60031;
0192823920999992007022700004-03700-040350FM-12+008399999V0200901N000510450019N0500001N1+02761+02481101221ADDAA124011991GF107991041051004501031001KA1240M+99999MA1999999100201MD1999999-0041REMSYN082AAXX  27004 82392 22499 70901 10276 20248 30020 40122 84530 333 10231 59004 60124;EQDQ01 +02312ATMX  
0173823920999992007022712004-03700-040350FM-12+008399999V0202301N001012200019N0500001N1+02601+02461101171ADDAA124003091GF104991021011004501031001KA1240N+02211MA1999999100151MD1999999-0051REMSYN082AAXX  27124 82392 22499 42302 10260 20246 30015 40117 82130 333 20221 59005 60034;
0137823920999992007022718004-03700-040350FM-12+008399999V0201401N001012200019N0500001N1+03141+02071100811ADDGF103991021021004501001011MA1999999099791MD1999999-0071REMSYN070AAXX  27184 82392 32499 31402 10314 20207 39979 40081 82201 333 59007;
0168823920999992007022800004-03700-040350FM-12+008399999V0203601N000519999999N0040001N1+02581+02351101031ADDGF105991041001008001031011KA1240M+03231MA1999999100011MD1999999-0061REMSYN088AAXX  28004 82392 32596 53601 10258 20235 30001 40103 84031 333 10323 29080 55096 59006;
0137823920999992007022818004-03700-040350FM-12+008399999V0200901N001512200019N0500001N1+03001+02171100681ADDGF104991041041004501001001MA1999999099661MD1999999-0131REMSYN070AAXX  28184 82392 32499 40903 10300 20217 39966 40068 84400 333 59013;
0213823920999992007030100004-03700-040350FM-12+008399999V0200501N000512200019N0040001N1+02471+02391100961ADDAA106003091AY161061AY261061GF103991021001008001031011KA1240M+03141MA1999999099941MD1999999-0071MW1021REMSYN100AAXX  01004 82392 21596 30501 10247 20239 39994 40096 70266 82031 333 10314 29082 55070 59007 60031;
0173823920999992007030112004-03700-040350FM-12+008399999V0201801N001510450019N0500001N1+02601+02371101021ADDAA124003091GF106991031041004501031001KA1240N+02291MA1999999099991MD1999999-0081REMSYN082AAXX  01124 82392 22499 61803 10260 20237 39999 40102 83430 333 20229 59008 60034;
0137823920999992007030118004-03700-040350FM-12+008399999V0201801N001010450019N0500001N1+02841+02421100641ADDGF107991041061004501011001MA1999999099631MD1999999-0031REMSYN070AAXX  01184 82392 32499 71802 10284 20242 39963 40064 84610 333 59003;
0213823920999992007030200004-03700-040350FM-12+008399999V0201801N002110450019N0040001N1+02401+02381101011ADDAA106002091AY161061AY261061GF108991041061004501021999KA1240M+03141MA1999999099981MD1999999-0041MW1021REMSYN100AAXX  02004 82392 21496 81804 10240 20238 39998 40101 70266 8462/ 333 10314 29091 55041 59004 60021;
0173823920999992007030212004-03700-040350FM-12+008399999V0200901N000510450019N0500001N1+02601+02421101031ADDAA124002091GF107991041051004501011001KA1240N+02281MA1999999100001MD1999999+0011REMSYN082AAXX  02124 82392 22499 70901 10260 20242 30000 40103 84510 333 20228 58001 60024;
0137823920999992007030218004-03700-040350FM-12+008399999V0201401N000510450019N0500001N1+03041+02201100651ADDGF107991031051004501031001MA1999999099641MD1999999+0011REMSYN070AAXX  02184 82392 32499 71401 10304 20220 39964 40065 83530 333 58001;
0168823920999992007030300004-03700-040350FM-12+008399999V0200501N001010450019N0040001N1+02461+02431100971ADDGF107991031051004501031001KA1240M+03161MA1999999099951MD1999999-0031REMSYN088AAXX  03004 82392 32496 70502 10246 20243 39995 40097 83530 333 10316 29087 55063 59003;
0156823920999992007030312004-03700-040350FM-12+008399999V0201401N001010450019N0500001N1+02741+02401101021ADDGF106991031041004501031001KA1240N+02221MA1999999100001MD1999999+0001REMSYN076AAXX  03124 82392 32499 61402 10274 20240 30000 40102 83430 333 20222 58000;
0137823920999992007030318004-03700-040350FM-12+008399999V0200501N001010450019N0500001N1+03001+02241100721ADDGF105991041051004501031001MA1999999099701MD1999999+0061REMSYN070AAXX  03184 82392 32499 50502 10300 20224 39970 40072 84530 333 58006;
0168823920999992007030400004-03700-040350FM-12+008399999V0200501N002612200019N0040001N1+02461+02431101041ADDGF103991031021004501001001KA1240M+03161MA1999999100021MD1999999+0071REMSYN088AAXX  04004 82392 32496 30505 10246 20243 30002 40104 83200 333 10316 29086 55050 58007;
0156823920999992007030412004-03700-040350FM-12+008399999V0201401N000510450019N0500001N1+02661+02351101091ADDGF106991041041004501031001KA1240N+02311MA1999999100071MD1999999+0071REMSYN076AAXX  04124 82392 32499 61401 10266 20235 30007 40109 84430 333 20231 58007;
0137823920999992007030418004-03700-040350FM-12+008399999V0201401N000512200019N0500001N1+03191+02151100731ADDGF104991031021004501031001MA1999999099711MD1999999+0011REMSYN070AAXX  04184 82392 32499 41401 10319 20215 39971 40073 83230 333 58001;
0168823920999992007030500004-03700-040350FM-12+008399999V0203601N000512200019N0040001N1+02571+02381100981ADDGF102991011021004501031001KA1240M+03261MA1999999099961MD1999999-0061REMSYN088AAXX  05004 82392 32496 23601 10257 20238 39996 40098 81230 333 10326 29079 55090 59006;
0156823920999992007030512004-03700-040350FM-12+008399999V0201801N001510450019N0500001N1+02641+02371101131ADDGF106991041041004501031001KA1240N+02251MA1999999100111MD1999999+0041REMSYN076AAXX  05124 82392 32499 61803 10264 20237 30011 40113 84430 333 20225 58004;
0137823920999992007030518004-03700-040350FM-12+008399999V0200901N001012200019N0500001N1+03141+01971100821ADDGF103991031021004501001001MA1999999099801MD1999999+0091REMSYN070AAXX  05184 82392 32499 30902 10314 20197 39980 40082 83200 333 58009;
0156823920999992007030612004-03700-040350FM-12+008399999V0200501N001012200019N0500001N1+02741+02401101271ADDGF103991011021004501031001KA1240N+02201MA1999999100251MD1999999+0141REMSYN076AAXX  06124 82392 32499 30502 10274 20240 30025 40127 81230 333 20220 58014;
0182823920999992007030618004-03700-040350FM-12+008399999V0209999C000010450019N0500001N1+02531+02361101011ADDAA106003091AY101061AY221061GF107991041061004501031001MA1999999099981MD1999999+0181MW1211REMSYN082AAXX  06184 82392 21499 73600 10253 20236 39998 40101 72102 84630 333 58018 60031;
0168823920999992007030700004-03700-040350FM-12+008399999V0200901N000510450019N0040001N1+02481+02341101201ADDGF108991021061004501011999KA1240M+03191MA1999999100181MD1999999+0051REMSYN088AAXX  07004 82392 32496 80901 10248 20234 30018 40120 8261/ 333 10319 29089 55061 58005;
0137823920999992007030718004-03700-040350FM-12+008399999V0203601N002610450019N0500001N1+02721+02521101031ADDGF108991041071004501021001MA1999999100001MD1999999+0021REMSYN070AAXX  07184 82392 32499 83605 10272 20252 30000 40103 84720 333 58002;
0213823920999992007030800004-03700-040350FM-12+008399999V0201801N000510042019N0040001N1+02311+02241101211ADDAA106016091AY161061AY261061GF108991081061004501999999KA1240M+03121MA1999999100191MD1999999+0011MW1021REMSYN100AAXX  08004 82392 21496 81801 10231 20224 30019 40121 70266 886// 333 10312 29088 55032 58001 60161;
0137823920999992007030818004-03700-040350FM-12+008399999V0200901N001010450019N0500001N1+02491+02331100831ADDGF107991021051004501031001MA1999999099811MD1999999-0191REMSYN070AAXX  08184 82392 32499 70902 10249 20233 39981 40083 82530 333 59019;
0168823920999992007030900004-03700-040350FM-12+008399999V0200501N000510450019N0040001N1+02481+02411101021ADDGF106991031051004501031001KA1240M+03181MA1999999100001MD1999999-0191REMSYN088AAXX  09004 82392 32496 60501 10248 20241 30000 40102 83530 333 10318 29086 55066 59019;
0156823920999992007030912004-03700-040350FM-12+008399999V0201401N001012200019N0500001N1+02721+02391101071ADDGF103991031011004501001001KA1240N+02291MA1999999100051MD1999999-0181REMSYN076AAXX  09124 82392 32499 31402 10272 20239 30005 40107 83100 333 20229 59018;
0156823920999992007030918004-03700-040350FM-12+008399999V0203601N001019999999N0500001N1+03161+02471100671ADDGF106991999021004501001001MA1999999099651MD1999999-0161REMSYN070AAXX  09184 82392 32499 63602 10316 20247 39965 40067 83200 333 59016;EQDQ01+000032SCOTLC
0213823920999992007031000004-03700-040350FM-12+008399999V0209999C000010450019N0040001N1+02461+02431100981ADDAA106003091AY161061AY221061GF106991031041004501031001KA1240M+03261MA1999999099961MD1999999-0041MW1021REMSYN100AAXX  10004 82392 21496 60000 10246 20243 39996 40098 70262 83430 333 10326 29086 55076 59004 60031;
0173823920999992007031012004-03700-040350FM-12+008399999V0201401N001010450019N0500001N1+02811+02381101151ADDAA124003091GF107991041041004501031001KA1240N+02341MA1999999100131MD1999999+0081REMSYN082AAXX  10124 82392 22499 71402 10281 20238 30013 40115 84430 333 20234 58008 60034;
0182823920999992007031018004-03700-040350FM-12+008399999V0203601N001010450019N0500001N1+02861+02441100751ADDAA106005191AY161061AY261061GF107991041061004501011001MA1999999099731MD1999999+0081MW1021REMSYN082AAXX  10184 82392 21499 73602 10286 20244 39973 40075 70266 84610 333 58008 60051;
0168823920999992007031100004-03700-040350FM-12+008399999V0209999C000010450019N0040001N1+02431+02301101081ADDGF108991041051004501021999KA1240M+03141MA1999999100061MD1999999+0101REMSYN088AAXX  11004 82392 32496 80000 10243 20230 30006 40108 8452/ 333 10314 29086 55041 58010;
0182823920999992007031118004-03700-040350FM-12+008399999V0200901N002110450019N0500001N1+02981+02121100841ADDAA106000891AY151061AY221061GF106991031051004501031001MA1999999099821MD1999999+0091MW1021REMSYN082AAXX  11184 82392 21499 60904 10298 20212 39982 40084 70252 83530 333 58009 69981;
0213823920999992007031200004-03700-040350FM-12+008399999V0209999C000010450019N0040001N1+02341+02291101151ADDAA106025991AY161061AY221061GF107991041071004501031001KA1240M+03061MA1999999100121MD1999999+0061MW1031REMSYN100AAXX  12004 82392 21496 70000 10234 20229 30012 40115 70362 84730 333 10306 29086 55058 58006 60261;
0173823920999992007031212004-03700-040350FM-12+008399999V0201401N001010450019N0500001N1+02541+02381101231ADDAA124025991GF108991031081004501031999KA1240N+02191MA1999999100201MD1999999+0061REMSYN082AAXX  12124 82392 22499 81402 10254 20238 30020 40123 8383/ 333 20219 58006 60264;
0137823920999992007031218004-03700-040350FM-12+008399999V0200901N000510450019N0500001N1+02981+02121100871ADDGF106991031041004501031001MA1999999099851MD1999999+0031REMSYN070AAXX  12184 82392 32499 60901 10298 20212 39985 40087 83430 333 58003;
0168823920999992007031300004-03700-040350FM-12+008399999V0203601N000510450019N0040001N1+02551+02381101121ADDGF108991041041004501031999KA1240M+03041MA1999999100101MD1999999-0021REMSYN088AAXX  13004 82392 32496 83601 10255 20238 30010 40112 8443/ 333 10304 29083 55013 59002;
0201823920999992007031312004-03700-040350FM-12+008399999V0209999C000010450019N0500001N1+02361+02331101281ADDAA124003091AY151061AY221061GF108991041071004501021999KA1240N+02211MA1999999100251MD1999999+0051MW1211REMSYN088AAXX  13124 82392 21499 80000 10236 20233 30025 40128 72152 8472/ 333 20221 58005 60034;
0137823920999992007031318004-03700-040350FM-12+008399999V0209999C000010450019N0500001N1+02731+02261100961ADDGF106991021021004501011001MA1999999099931MD1999999+0081REMSYN070AAXX  13184 82392 32499 60000 10273 20226 39993 40096 82210 333 58008;
0168823920999992007031400004-03700-040350FM-12+008399999V0209999C000010450019N0040001N1+02531+02361101021ADDGF107991031021004501011001KA1240M+02881MA1999999100001MD1999999-0101REMSYN088AAXX  14004 82392 32496 70000 10253 20236 30000 40102 83210 333 10288 29088 55021 59010;
0156823920999992007031412004-03700-040350FM-12+008399999V0200501N001512200019N0500001N1+02761+02341101101ADDGF104991041041004501001001KA1240N+02191MA1999999100081MD1999999-0171REMSYN076AAXX  14124 82392 32499 40503 10276 20234 30008 40110 84400 333 20219 59017;
0137823920999992007031418004-03700-040350FM-12+008399999V0200901N002112200019N0500001N1+03141+02071100671ADDGF104991021021004501031001MA1999999099651MD1999999-0281REMSYN070AAXX  14184 82392 32499 40904 10314 20207 39965 40067 82230 333 59028;
0232823920999992007031500004-03700-040350FM-12+008399999V0209999C000010450019N0040001N1+02391+02241101021ADDAA106000091AY151061AY251061GF106991021051004501011001KA1240M+03231MA1999999100001MD1999999+0001MW1021REMSYN100AAXX  15004 82392 21496 60500 10239 20224 30000 40102 70255 82510 333 10323 29078 55084 58000 69921;EQDQ01  00002PRCP06
0192823920999992007031512004-03700-040350FM-12+008399999V0200901N000511050019N0500001N1+02781+02301101101ADDAA124000091GF105991021021004501031011KA1240N+02121MA1999999100081MD1999999+0021REMSYN082AAXX  15124 82392 22499 50901 10278 20230 30008 40110 82231 333 20212 58002 69924;EQDQ01  00002PRCP24
0182823920999992007031518004-03700-040350FM-12+008399999V0203601N000510450019N0500001N1+02781+02501100771ADDAA106003091AY161061AY261061GF107991031061004501031011MA1999999099751MD1999999+0101MW1021REMSYN082AAXX  15184 82392 21499 73601 10278 20250 39975 40077 70266 83631 333 58010 60031;
0168823920999992007031600004-03700-040350FM-12+008399999V0203601N001010450019N0040001N1+02521+02381101051ADDGF106991031041004501031001KA1240M+03221MA1999999100031MD1999999+0031REMSYN088AAXX  16004 82392 32496 63602 10252 20238 30003 40105 83430 333 10322 29086 55073 58003;
0201823920999992007031612004-03700-040350FM-12+008399999V0200901N002112200019N0500001N1+02681+02261101201ADDAA124004191AY161061AY221061GF104991041021004501001001KA1240N+02301MA1999999100181MD1999999+0101MW1021REMSYN088AAXX  16124 82392 21499 40904 10268 20226 30018 40120 70262 84200 333 20230 58010 60044;
0137823920999992007031618004-03700-040350FM-12+008399999V0209999C000010450019N0500001N1+03211+02261100731ADDGF106991031051004501011011MA1999999099711MD1999999-0041REMSYN070AAXX  16184 82392 32499 61800 10321 20226 39971 40073 83511 333 59004;
0213823920999992007031700004-03700-040350FM-12+008399999V0201801N003110450019N0040001N1+02401+02331101121ADDAA106001091AY161061AY221061GF106991031041004501031001KA1240M+03301MA1999999100101MD1999999+0071MW1021REMSYN100AAXX  17004 82392 21496 61806 10240 20233 30010 40112 70262 83430 333 10330 29082 55077 58007 60011;
0173823920999992007031712004-03700-040350FM-12+008399999V0200901N002112200019N0500001N1+02641+02481101191ADDAA124001091GF103991031011004501001001KA1240N+02201MA1999999100161MD1999999-0021REMSYN082AAXX  17124 82392 22499 30904 10264 20248 30016 40119 83100 333 20220 59002 60014;
0201823920999992007031718004-03700-040350FM-12+008399999V0200901N002610450019N0500001N1+02461+02281100981ADDAA106000091AY151061AY221061GF108991031071004501021999MA1999999099951MD1999999+0241MW1021REMSYN082AAXX  17184 82392 21499 80905 10246 20228 39995 40098 70252 8372/ 333 58024 69921;EQDQ01  00002PRCP06
0192823920999992007031812004-03700-040350FM-12+008399999V0209999C000010450019N0500001N1+02541+02381101341ADDAA124000091GF107991041051004501031001KA1240N+02161MA1999999100311MD1999999+0151REMSYN082AAXX  18124 82392 22499 71800 10254 20238 30031 40134 84530 333 20216 58015 69924;EQDQ01  00002PRCP24
0213823920999992007031900004-03700-040350FM-12+008399999V0209999C000012200019N0040001N1+02321+02271101201ADDAA106000591AY151061AY251061GF101991011001008001031001KA1240M+03181MA1999999100171MD1999999-0051MW1021REMSYN100AAXX  19004 82392 21596 10000 10232 20227 30017 40120 70255 81030 333 10318 29094 55033 59005 69951;
0173823920999992007031912004-03700-040350FM-12+008399999V0200901N001010450019N0500001N1+02601+02531101271ADDAA124010991GF107991031051004501031001KA1240N+02211MA1999999100241MD1999999-0071REMSYN082AAXX  19124 82392 22499 70902 10260 20253 30024 40127 83530 333 20221 59007 60114;
0137823920999992007031918004-03700-040350FM-12+008399999V0203601N003110450019N0500001N1+02961+02351100911ADDGF106991041041004501031001MA1999999099891MD1999999-0111REMSYN070AAXX  19184 82392 32499 63606 10296 20235 39989 40091 84430 333 59011;
0213823920999992007032000004-03700-040350FM-12+008399999V0209999C000010450019N0040001N1+02471+02431101191ADDAA106001091AY161061AY261061GF108991041041004501021999KA1240M+03191MA1999999100161MD1999999-0011MW1021REMSYN100AAXX  20004 82392 21496 81800 10247 20243 30016 40119 70266 8442/ 333 10319 29090 55076 59001 60011;
0173823920999992007032012004-03700-040350FM-12+008399999V0201401N002610450019N0500001N1+02681+02411101261ADDAA124001091GF105991031041004501031001KA1240N+02241MA1999999100241MD1999999+0001REMSYN082AAXX  20124 82392 22499 51405 10268 20241 30024 40126 83430 333 20224 58000 60014;
0137823920999992007032018004-03700-040350FM-12+008399999V0209999C000011050019N0500001N1+03061+02301100811ADDGF107991031021004501001021MA1999999099791MD1999999-0101REMSYN070AAXX  20184 82392 32499 70000 10306 20230 39979 40081 83202 333 59010;
0178823920999992007032100004-03700-040350FM-12+008399999V0209999C000012200019N0040001N1+02541+02361101091ADDGA1001+999999999GF100991001001999999001001KA1240M+03101MA1999999100071MD1999999-0091REMSYN082AAXX  21004 82392 32996 03600 10254 20236 30007 40109 333 10310 29082 55028 59009;
0156823920999992007032112004-03700-040350FM-12+008399999V0200901N001010042019N0500001N1+02721+02341101121ADDGF105991051021004501001001KA1240N+02211MA1999999100101MD1999999-0141REMSYN076AAXX  21124 82392 32499 50902 10272 20234 30010 40112 85200 333 20221 59014;
0182823920999992007032118004-03700-040350FM-12+008399999V0203201N002610090019N0500001N1+02861+02311100721ADDAA106005191AY121061AY221061GF107991051081004501031001MA1999999099701MD1999999-0091MW1631REMSYN082AAXX  21184 82392 21499 73205 10286 20231 39970 40072 76322 85830 333 59009 60051;
0213823920999992007032200004-03700-040350FM-12+008399999V0209999C000010450019N0040001N1+02271+02231101001ADDAA106058991AY191061AY291061GF106991031061004501021001KA1240M+03191MA1999999099971MD1999999-0101MW1021REMSYN100AAXX  22004 82392 21496 60000 10227 20223 39997 40100 70299 83620 333 10319 29087 55077 59010 60591;
0173823920999992007032212004-03700-040350FM-12+008399999V0209999C000012200019N0500001N1+02661+02411101141ADDAA124064091GF105991041041004501001011KA1240N+02191MA1999999100111MD1999999+0011REMSYN082AAXX  22124 82392 22499 50000 10266 20241 30011 40114 84401 333 20219 58001 60644;
0137823920999992007032218004-03700-040350FM-12+008399999V0203601N001010450019N0500001N1+03041+02361100651ADDGF106991031061004501031021MA1999999099641MD1999999-0061REMSYN070AAXX  22184 82392 32499 63602 10304 20236 39964 40065 83632 333 59006;
0213823920999992007032300004-03700-040350FM-12+008399999V0203601N002612200019N0040001N1+02541+02471100961ADDAA106000591AY151061AY221061GF103991031021004501001001KA1240M+03281MA1999999099941MD1999999-0031MW1021REMSYN100AAXX  23004 82392 21496 33605 10254 20247 39994 40096 70252 83200 333 10328 29086 55086 59003 69961;
0173823920999992007032312004-03700-040350FM-12+008399999V0200501N002612200019N0500001N1+02761+02341101181ADDAA124000591GF104991041021004501001001KA1240N+02381MA1999999100161MD1999999+0051REMSYN082AAXX  23124 82392 22499 40505 10276 20234 30016 40118 84200 333 20238 58005 69964;
0182823920999992007032318004-03700-040350FM-12+008399999V0202701N000510042019N0500001N1+02461+02371100921ADDAA106010991AY161061AY261061GF108991051061004501021999MA1999999099891MD1999999+0251MW1211REMSYN082AAXX  23184 82392 21499 82701 10246 20237 39989 40092 72166 8562/ 333 58025 60111;
0168823920999992007032400004-03700-040350FM-12+008399999V0209999C000012200019N0040001N1+02401+02351101141ADDGF104991031011004501031001KA1240M+03021MA1999999100121MD1999999+0181REMSYN088AAXX  24004 82392 32496 40000 10240 20235 30012 40114 83130 333 10302 29092 55046 58018;
0173823920999992007032412004-03700-040350FM-12+008399999V0200901N000510450019N0500001N1+02781+02441101131ADDAA124010991GF105991031041004501031011KA1240N+02211MA1999999100111MD1999999-0051REMSYN082AAXX  24124 82392 22499 50901 10278 20244 30011 40113 83431 333 20221 59005 60114;
0137823920999992007032418004-03700-040350FM-12+008399999V0200501N000510450019N0500001N1+03031+02281100811ADDGF107991041071004501031001MA1999999099791MD1999999-0101REMSYN070AAXX  24184 82392 32499 70501 10303 20228 39979 40081 84730 333 59010;
0178823920999992007032500004-03700-040350FM-12+008399999V0203601N000512200019N0040001N1+02531+02441101061ADDGA1001+999999999GF100991001001999999001001KA1240M+03241MA1999999100041MD1999999-0081REMSYN082AAXX  25004 82392 32996 03601 10253 20244 30004 40106 333 10324 29084 55061 59008;
0156823920999992007032512004-03700-040350FM-12+008399999V0200901N001510450019N0500001N1+02761+02281101101ADDGF106991031041004501031001KA1240N+02301MA1999999100081MD1999999-0031REMSYN076AAXX  25124 82392 32499 60903 10276 20228 30008 40110 83430 333 20230 59003;
0137823920999992007032518004-03700-040350FM-12+008399999V0200501N001512200019N0500001N1+03181+01981100651ADDGF103991031011004501001001MA1999999099641MD1999999-0151REMSYN070AAXX  25184 82392 32499 30503 10318 20198 39964 40065 83100 333 59015;
0168823920999992007032600004-03700-040350FM-12+008399999V0203601N002612200019N0040001N1+02581+02371100891ADDGF102991021001004501031001KA1240M+03261MA1999999099871MD1999999-0171REMSYN088AAXX  26004 82392 32496 23605 10258 20237 39987 40089 82030 333 10326 29075 55097 59017;
0156823920999992007032612004-03700-040350FM-12+008399999V0200501N000512200019N0500001N1+02801+02201101061ADDGF103991031011004501001001KA1240N+02201MA1999999100041MD1999999-0041REMSYN076AAXX  26124 82392 32499 30501 10280 20220 30004 40106 83100 333 20220 59004;
0137823920999992007032618004-03700-040350FM-12+008399999V0200901N000510450019N0500001N1+03221+01651100671ADDGF106991041021004501031001MA1999999099651MD1999999+0011REMSYN070AAXX  26184 82392 32499 60901 10322 20165 39965 40067 84230 333 58001;
0168823920999992007032700004-03700-040350FM-12+008399999V0203601N001019999999N0040001N1+02581+02271101011ADDGF106991061001008001031001KA1240M+03311MA1999999099991MD1999999+0121REMSYN088AAXX  27004 82392 32596 63602 10258 20227 39999 40101 86030 333 10331 29069 55074 58012;
0156823920999992007032712004-03700-040350FM-12+008399999V0200901N001012200019N0500001N1+02821+02171101021ADDGF102991021011004501001001KA1240N+02211MA1999999100001MD1999999-0041REMSYN076AAXX  27124 82392 32499 20902 10282 20217 30000 40102 82100 333 20221 59004;
0137823920999992007032718004-03700-040350FM-12+008399999V0203601N001010450019N0500001N1+02991+02371100721ADDGF107991031061004501031001MA1999999099701MD1999999+0051REMSYN070AAXX  27184 82392 32499 73602 10299 20237 39970 40072 83630 333 58005;
0168823920999992007032800004-03700-040350FM-12+008399999V0209999C000010450019N0040001N1+02541+02351100991ADDGF107991031061004501031001KA1240M+03141MA1999999099971MD1999999-0021REMSYN088AAXX  28004 82392 32496 70000 10254 20235 39997 40099 83630 333 10314 29079 55058 59002;
0156823920999992007032812004-03700-040350FM-12+008399999V0200901N002110450019N0500001N1+02761+02161101041ADDGF106991041021004501031001KA1240N+02231MA1999999100021MD1999999+0021REMSYN076AAXX  28124 82392 32499 60904 10276 20216 30002 40104 84230 333 20223 58002;
0137823920999992007032818004-03700-040350FM-12+008399999V0200901N001010450019N0500001N1+03041+02181100701ADDGF107991031051004501031001MA1999999099681MD1999999-0021REMSYN070AAXX  28184 82392 32499 70902 10304 20218 39968 40070 83530 333 59002;
0213823920999992007032900004-03700-040350FM-12+008399999V0209999C000010450019N0040001N1+02371+02351100971ADDAA106018091AY161061AY261061GF108991021061004501011999KA1240M+03171MA1999999099951MD1999999-0021MW1021REMSYN100AAXX  29004 82392 21496 80000 10237 20235 39995 40097 70266 8261/ 333 10317 29082 55038 59002 60181;
0173823920999992007032912004-03700-040350FM-12+008399999V0200901N001010450019N0500001N1+02781+02401100981ADDAA124018091GF105991041021004501011001KA1240N+02291MA1999999099961MD1999999-0061REMSYN082AAXX  29124 82392 22499 50902 10278 20240 39996 40098 84210 333 20229 59006 60184;
0137823920999992007032918004-03700-040350FM-12+008399999V0203201N000510450019N0500001N1+03001+02271100591ADDGF106991021061004501031011MA1999999099571MD1999999-0111REMSYN070AAXX  29184 82392 32499 63201 10300 20227 39957 40059 82631 333 59011;
0168823920999992007033000004-03700-040350FM-12+008399999V0203601N001012200019N0040001N1+02601+02271100861ADDGF103991031001004501031001KA1240M+03201MA1999999099841MD1999999-0111REMSYN088AAXX  30004 82392 32496 33602 10260 20227 39984 40086 83030 333 10320 29077 55071 59011;
0156823920999992007033012004-03700-040350FM-12+008399999V0200901N002110450019N0500001N1+02801+02311100921ADDGF106991031021004501031001KA1240N+02251MA1999999099901MD1999999-0061REMSYN076AAXX  30124 82392 32499 60904 10280 20231 39990 40092 83230 333 20225 59006;
0137823920999992007033018004-03700-040350FM-12+008399999V0200901N000512200019N0500001N1+03201+01891100521ADDGF104991021021004501031001MA1999999099511MD1999999-0061REMSYN070AAXX  30184 82392 32499 40901 10320 20189 39951 40052 82230 333 59006;
0178823920999992007033100004-03700-040350FM-12+008399999V0200501N003112200019N0040001N1+02501+02361100801ADDGA1001+999999999GF100991001001999999001001KA1240M+03301MA1999999099781MD1999999-0061REMSYN082AAXX  31004 82392 32996 00506 10250 20236 39978 40080 333 10330 29076 55101 59006;
0156823920999992007033112004-03700-040350FM-12+008399999V0201401N002112200019N0500001N1+02841+02121100921ADDGF103991031011004501001001KA1240N+02181MA1999999099901MD1999999+0001REMSYN076AAXX  31124 82392 32499 31404 10284 20212 39990 40092 83100 333 20218 58000;
0137823920999992007033118004-03700-040350FM-12+008399999V0200501N003110450019N0500001N1+03221+02341100591ADDGF106991041041004501031001MA1999999099581MD1999999+0071REMSYN070AAXX  31184 82392 32499 60506 10322 20234 39958 40059 84430 333 58007;
0213823920999992007040100004-03700-040350FM-12+008399999V0202301N001010450019N0040001N1+02501+02431100971ADDAA106000591AY151061AY221061GF106991031041004501031001KA1240M+03281MA1999999099951MD1999999+0171MW1021REMSYN100AAXX  01004 82392 21496 62302 10250 20243 39995 40097 70252 83430 333 10328 29079 55071 58017 69961;
0173823920999992007040112004-03700-040350FM-12+008399999V0201401N000512200019N0500001N1+02791+02381101031ADDAA124000591GF106991041041004501001011KA1240N+02291MA1999999100011MD1999999+0111REMSYN082AAXX  01124 82392 22499 61401 10279 20238 30001 40103 84401 333 20229 58011 69964;
0137823920999992007040118004-03700-040350FM-12+008399999V0201801N000510450019N0500001N1+03111+02481100671ADDGF106991041061004501031011MA1999999099651MD1999999+0071REMSYN070AAXX  01184 82392 32499 61801 10311 20248 39965 40067 84631 333 58007;
0213823920999992007040200004-03700-040350FM-12+008399999V0201801N001010450019N0040001N1+02411+02331101011ADDAA106007991AY161061AY261061GF108991041061004501011999KA1240M+03331MA1999999099991MD1999999+0041MW1021REMSYN100AAXX  02004 82392 21496 81802 10241 20233 39999 40101 70266 8461/ 333 10333 29084 55072 58004 60081;
0173823920999992007040212004-03700-040350FM-12+008399999V0201801N002112200019N0020001N1+02721+02241101021ADDAA124007991GF104991041021004501001001KA1240N+02301MA1999999100041MD1999999+0031REMSYN082AAXX  02124 82392 22495 41804 10272 20224 30004 40102 84200 333 20230 58003 60084;
0137823920999992007040218004-03700-040350FM-12+008399999V0200501N002610450019N0500001N1+03181+01841100671ADDGF106991031041004501031001MA1999999099651MD1999999+0001REMSYN070AAXX  02184 82392 32499 60505 10318 20184 39965 40067 83430 333 58000;
0168823920999992007040300004-03700-040350FM-12+008399999V0203601N001510450019N0040001N1+02691+02351100991ADDGF108991021021004501031071KA1240M+03321MA1999999099971MD1999999-0021REMSYN088AAXX  03004 82392 32496 83603 10269 20235 39997 40099 82237 333 10332 29071 55093 59002;
0156823920999992007040312004-03700-040350FM-12+008399999V0200901N001512200019N0500001N1+02801+02311101071ADDGF102991021011004501001001KA1240N+02281MA1999999100051MD1999999+0011REMSYN076AAXX  03124 82392 32499 20903 10280 20231 30005 40107 82100 333 20228 58001;
0137823920999992007040318004-03700-040350FM-12+008399999V0203601N002110450019N0500001N1+03091+02391100651ADDGF107991031061004501031001MA1999999099641MD1999999-0011REMSYN070AAXX  03184 82392 32499 73604 10309 20239 39964 40065 83630 333 59001;
0168823920999992007040400004-03700-040350FM-12+008399999V0209999C000019999999N0040001N1+02501+02291100961ADDGF108991031061999999031999KA1240M+03291MA1999999099941MD1999999-0031REMSYN088AAXX  04004 82392 32996 83600 10250 20229 39994 40096 8363/ 333 10329 29079 55073 59003;
0156823920999992007040412004-03700-040350FM-12+008399999V0200501N001010042019N0500001N1+02741+02171101171ADDGF105991051021004501001001KA1240N+02301MA1999999100151MD1999999+0101REMSYN076AAXX  04124 82392 32499 50502 10274 20217 30015 40117 85200 333 20230 58010;
0137823920999992007040418004-03700-040350FM-12+008399999V0203601N002610450019N0500001N1+02901+02041100761ADDGF107991041041004501031001MA1999999099741MD1999999+0111REMSYN070AAXX  04184 82392 32499 73605 10290 20204 39974 40076 84430 333 58011;
0168823920999992007040500004-03700-040350FM-12+008399999V0203601N000510450019N0040001N1+02551+02381101031ADDGF106991021021004501031001KA1240M+03201MA1999999100011MD1999999+0071REMSYN088AAXX  05004 82392 32496 63601 10255 20238 30001 40103 82230 333 10320 29078 55059 58007;
0156823920999992007040512004-03700-040350FM-12+008399999V0201401N000510450019N0500001N1+02831+02351101181ADDGF106991041041004501031001KA1240N+02181MA1999999100161MD1999999+0011REMSYN076AAXX  05124 82392 32499 61401 10283 20235 30016 40118 84430 333 20218 58001;
0137823920999992007040518004-03700-040350FM-12+008399999V0203601N001010450019N0500001N1+03091+02361100751ADDGF105991031091004501031021MA1999999099731MD1999999-0011REMSYN070AAXX  05184 82392 32499 53602 10309 20236 39973 40075 83932 333 59001;
0213823920999992007040600004-03700-040350FM-12+008399999V0203601N000510450019N0040001N1+02381+02311101121ADDAA106025991AY161061AY221061GF106991031041004501031001KA1240M+03181MA1999999100101MD1999999+0091MW1021REMSYN100AAXX  06004 82392 21496 63601 10238 20231 30010 40112 70262 83430 333 10318 29083 55076 58009 60261;
0173823920999992007040612004-03700-040350FM-12+008399999V0201401N001010450019N0500001N1+02601+02391101231ADDAA124025991GF106991041051004501031001KA1240N+02281MA1999999100201MD1999999+0041REMSYN082AAXX  06124 82392 22499 61402 10260 20239 30020 40123 84530 333 20228 58004 60264;
0137823920999992007040618004-03700-040350FM-12+008399999V0202701N000511050019N0500001N1+03141+02451100741ADDGF105991021041004501001021MA1999999099721MD1999999-0011REMSYN070AAXX  06184 82392 32499 52701 10314 20245 39972 40074 82402 333 59001;
0213823920999992007040700004-03700-040350FM-12+008399999V0200501N003110450019N0040001N1+02501+02291101021ADDAA106001091AY121061AY261061GF108991041071004501021999KA1240M+03241MA1999999100001MD1999999-0101MW1021REMSYN100AAXX  07004 82392 21496 80506 10250 20229 30000 40102 70226 8472/ 333 10324 29083 55075 59010 60011;
0173823920999992007040712004-03700-040350FM-12+008399999V0200901N000510450019N0500001N1+02821+02381101251ADDAA124001091GF106991041021004501031001KA1240N+02331MA1999999100231MD1999999+0031REMSYN082AAXX  07124 82392 22499 60901 10282 20238 30023 40125 84230 333 20233 58003 60014;
0137823920999992007040718004-03700-040350FM-12+008399999V0209999C000010450019N0500001N1+03181+02331100861ADDGF106991041061004501021001MA1999999099841MD1999999+0121REMSYN070AAXX  07184 82392 32499 60000 10318 20233 39984 40086 84620 333 58012;
0168823920999992007040800004-03700-040350FM-12+008399999V0209999C000010450019N0040001N1+02611+02441101161ADDGF108991041061004501021999KA1240M+03291MA1999999100141MD1999999+0141REMSYN088AAXX  08004 82392 32496 83600 10261 20244 30014 40116 8462/ 333 10329 29080 55084 58014;
0156823920999992007040812004-03700-040350FM-12+008399999V0200501N000512200019N0500001N1+02821+02271101281ADDGF104991041021004501001001KA1240N+02201MA1999999100261MD1999999+0031REMSYN076AAXX  08124 82392 32499 40501 10282 20227 30026 40128 84200 333 20220 58003;
0137823920999992007040818004-03700-040350FM-12+008399999V0200501N002612200019N0500001N1+03181+02391100851ADDGF103991021011004501031001MA1999999099831MD1999999-0011REMSYN070AAXX  08184 82392 32499 30505 10318 20239 39983 40085 82130 333 59001;
0168823920999992007040900004-03700-040350FM-12+008399999V0203601N002110450019N0040001N1+02621+02531101141ADDGF106991031021004501031001KA1240M+03261MA1999999100121MD1999999-0021REMSYN088AAXX  09004 82392 32496 63604 10262 20253 30012 40114 83230 333 10326 29082 55097 59002;
0156823920999992007040912004-03700-040350FM-12+008399999V0201401N002110042019N0500001N1+02801+02381101221ADDGF105991051021004501001001KA1240N+02311MA1999999100201MD1999999-0061REMSYN076AAXX  09124 82392 32499 51404 10280 20238 30020 40122 85200 333 20231 59006;
0182823920999992007040918004-03700-040350FM-12+008399999V0203601N003110450019N0200001N1+02341+02291100791ADDAA106020191AY121061AY221061GF108991031081004501021999MA1999999099761MD1999999-0061MW1621REMSYN082AAXX  09184 82392 21498 83606 10234 20229 39976 40079 76222 8382/ 333 59006 60201;
0168823920999992007041000004-03700-040350FM-12+008399999V0200501N002612200019N0040001N1+02541+02471101061ADDGF102991021001004501031001KA1240M+03281MA1999999100041MD1999999-0081REMSYN088AAXX  10004 82392 32496 20505 10254 20247 30004 40106 82030 333 10328 29092 55072 59008;
0173823920999992007041012004-03700-040350FM-12+008399999V0200501N001010450019N0500001N1+02701+02461101151ADDAA124020191GF108991041061004501021999KA1240N+02441MA1999999100131MD1999999-0071REMSYN082AAXX  10124 82392 22499 80502 10270 20246 30013 40115 8462/ 333 20244 59007 60204;
0182823920999992007041018004-03700-040350FM-12+008399999V0202301N002110450019N0500001N1+02501+02321100831ADDAA106010991AY161061AY261061GF107991031051004501031001MA1999999099801MD1999999+0041MW1021REMSYN082AAXX  10184 82392 21499 72304 10250 20232 39980 40083 70266 83530 333 58004 60111;
0168823920999992007041100004-03700-040350FM-12+008399999V0200501N000512200019N0040001N1+02461+02431101121ADDGF104991021011004501031001KA1240M+02781MA1999999100101MD1999999+0061REMSYN088AAXX  11004 82392 32496 40501 10246 20243 30010 40112 82130 333 10278 29093 55008 58006;
0173823920999992007041112004-03700-040350FM-12+008399999V0200501N003110042019N0500001N1+02661+02241101251ADDAA124010991GF105991051021004501001001KA1240N+02301MA1999999100231MD1999999+0101REMSYN082AAXX  11124 82392 22499 50506 10266 20224 30023 40125 85200 333 20230 58010 60114;
0137823920999992007041118004-03700-040350FM-12+008399999V0200501N002610450019N0500001N1+02981+02151100901ADDGF108991041051004501021999MA1999999099881MD1999999+0081REMSYN070AAXX  11184 82392 32499 80505 10298 20215 39988 40090 8452/ 333 58008;
0168823920999992007041200004-03700-040350FM-12+008399999V0200501N001012200019N0040001N1+02541+02361101171ADDGF102991021001004501031001KA1240M+03181MA1999999100151MD1999999+0051REMSYN088AAXX  12004 82392 32496 20502 10254 20236 30015 40117 82030 333 10318 29080 55038 58005;
0156823920999992007041212004-03700-040350FM-12+008399999V0200901N002110042019N0500001N1+02781+02181101321ADDGF107991051071004501031001KA1240N+02401MA1999999100301MD1999999+0071REMSYN076AAXX  12124 82392 32499 70904 10278 20218 30030 40132 85730 333 20240 58007;
0137823920999992007041218004-03700-040350FM-12+008399999V0202301N001010450019N0500001N1+03141+01911100931ADDGF106991031021004501031001MA1999999099911MD1999999+0031REMSYN070AAXX  12184 82392 32499 62302 10314 20191 39991 40093 83230 333 58003;
0213823920999992007041400004-03700-040350FM-12+008399999V0200501N002112200019N0040001N1+02541+02321101261ADDAA106005191AY161061AY221061GF102991021001004501031001KA1240M+03301MA1999999100241MD1999999+0041MW1021REMSYN100AAXX  14004 82392 21496 20504 10254 20232 30024 40126 70262 82030 333 10330 29080 55074 58004 60051;
0201823920999992007041412004-03700-040350FM-12+008399999V0200901N001510450019N0500001N1+02721+02241101271ADDAA124006191AY161061AY251061GF106991041021004501031001KA1240N+02401MA1999999100251MD1999999-0051MW1021REMSYN088AAXX  14124 82392 21499 60903 10272 20224 30025 40127 70265 84230 333 20240 59005 60064;
0137823920999992007041418004-03700-040350FM-12+008399999V0200501N002612200019N0500001N1+03161+01991100861ADDGF103991021011004501031001MA1999999099841MD1999999+0011REMSYN070AAXX  14184 82392 32499 30505 10316 20199 39984 40086 82130 333 58001;
0168823920999992007041500004-03700-040350FM-12+008399999V0203601N002112200019N0040001N1+02561+02291101171ADDGF102991021001004501031001KA1240M+03241MA1999999100151MD1999999-0091REMSYN088AAXX  15004 82392 32496 23604 10256 20229 30015 40117 82030 333 10324 29074 55073 59009;
0156823920999992007041512004-03700-040350FM-12+008399999V0200901N001010450019N0500001N1+02801+02381101291ADDGF106991041061004501031001KA1240N+02231MA1999999100271MD1999999+0021REMSYN076AAXX  15124 82392 32499 60902 10280 20238 30027 40129 84630 333 20223 58002;
0137823920999992007041518004-03700-040350FM-12+008399999V0203601N000510042019N0500001N1+02981+02421100871ADDGF107991051061004501031001MA1999999099851MD1999999+0011REMSYN070AAXX  15184 82392 32499 73601 10298 20242 39985 40087 85630 333 58001;
0213823920999992007041600004-03700-040350FM-12+008399999V0209999C000010450019N0040001N1+02501+02341101241ADDAA106011991AY161061AY261061GF107991031041004501021001KA1240M+03321MA1999999100221MD1999999+0071MW1021REMSYN100AAXX  16004 82392 21496 70000 10250 20234 30022 40124 70266 83420 333 10332 29083 55063 58007 60121;
0173823920999992007041612004-03700-040350FM-12+008399999V0200901N000510450019N0500001N1+02701+02431101271ADDAA124011991GF106991031021004501031001KA1240N+02341MA1999999100251MD1999999-0021REMSYN082AAXX  16124 82392 22499 60901 10270 20243 30025 40127 83230 333 20234 59002 60124;
0182823920999992007041618004-03700-040350FM-12+008399999V0209999C000010450019N0500001N1+02481+02341100831ADDAA106004191AY161061AY251061GF108991041071004501021999MA1999999099801MD1999999-0051MW1021REMSYN082AAXX  16184 82392 21499 80000 10248 20234 39980 40083 70265 8472/ 333 59005 60041;
0168823920999992007041700004-03700-040350FM-12+008399999V0209999C000010450019N0040001N1+02431+02391101071ADDGF108991041051004501021999KA1240M+03101MA1999999100051MD1999999-0171REMSYN088AAXX  17004 82392 32496 81800 10243 20239 30005 40107 8452/ 333 10310 29093 55031 59017;
0201823920999992007041712004-03700-040350FM-12+008399999V0201801N000510450019N0500001N1+02561+02471101181ADDAA124005191AY161061AY221061GF108991041061004501021999KA1240N+02321MA1999999100151MD1999999-0101MW1611REMSYN088AAXX  17124 82392 21499 81801 10256 20247 30015 40118 76162 8462/ 333 20232 59010 60054;
0182823920999992007041718004-03700-040350FM-12+008399999V0209999C000010042019N0500001N1+02441+02351100761ADDAA106009991AY161061AY261061GF107991051061004501031001MA1999999099731MD1999999-0071MW1021REMSYN082AAXX  17184 82392 21499 70000 10244 20235 39973 40076 70266 85630 333 59007 60101;
0232823920999992007041800004-03700-040350FM-12+008399999V0209999C000010042019N0040001N1+02501+02401101061ADDAA106000091AY151061AY251061GF108991051061004501021999KA1240M+03001MA1999999100031MD1999999-0021MW1021REMSYN100AAXX  18004 82392 21496 80000 10250 20240 30003 40106 70255 8562/ 333 10300 29095 55021 59002 69921;EQDQ01  00002PRCP06
0201823920999992007041812004-03700-040350FM-12+008399999V0203601N000510450019N0500001N1+02421+02331101131ADDAA124056991AY161061AY261061GF108991031061004501021999KA1240N+02091MA1999999100101MD1999999-0051MW1021REMSYN088AAXX  18124 82392 21499 83601 10242 20233 30010 40113 70266 8362/ 333 20209 59005 60574;
0137823920999992007041818004-03700-040350FM-12+008399999V0200501N000510450019N0500001N1+02601+02391100931ADDGF108991041071004501021001MA1999999099901MD1999999+0171REMSYN070AAXX  18184 82392 32499 80501 10260 20239 39990 40093 84720 333 58017;
0213823920999992007041900004-03700-040350FM-12+008399999V0209999C000010450019N0040001N1+02471+02431101141ADDAA106003091AY161061AY261061GF107991041071004501021001KA1240M+02651MA1999999100111MD1999999+0081MW1211REMSYN100AAXX  19004 82392 21496 70000 10247 20243 30011 40114 72166 84720 333 10265 29094 55000 58008 60031;
0173823920999992007041912004-03700-040350FM-12+008399999V0209999C000010042019N0500001N1+02661+02411101081ADDAA124003091GF107991051061004501031001KA1240N+02271MA1999999100061MD1999999-0041REMSYN082AAXX  19124 82392 22499 70000 10266 20241 30006 40108 85630 333 20227 59004 60034;
0137823920999992007041918004-03700-040350FM-12+008399999V0209999C000010450019N0500001N1+02961+02331100711ADDGF105991031061004501031001MA1999999099691MD1999999-0211REMSYN070AAXX  19184 82392 32499 50000 10296 20233 39969 40071 83630 333 59021;
0213823920999992007042000004-03700-040350FM-12+008399999V0200501N000510450019N0040001N1+02521+02421101021ADDAA106003091AY121061AY221061GF106991041061004501031001KA1240M+03101MA1999999100001MD1999999-0111MW1211REMSYN100AAXX  20004 82392 21496 60501 10252 20242 30000 40102 72122 84630 333 10310 29086 55071 59011 60031;
0201823920999992007042012004-03700-040350FM-12+008399999V0209999C000012200019N0500001N1+02661+02391101071ADDAA124004191AY161061AY261061GF102991021011004501001001KA1240N+02401MA1999999100051MD1999999-0011MW1021REMSYN088AAXX  20124 82392 21499 20000 10266 20239 30005 40107 70266 82100 333 20240 59001 60044;
0137823920999992007042018004-03700-040350FM-12+008399999V0201801N001010450019N0500001N1+03131+02401100641ADDGF107991031061004501031041MA1999999099631MD1999999-0061REMSYN070AAXX  20184 82392 32499 71802 10313 20240 39963 40064 83634 333 59006;
0168823920999992007042100004-03700-040350FM-12+008399999V0200501N002112200019N0040001N1+02601+02501100881ADDGF102991021001004501031001KA1240M+03221MA1999999099861MD1999999-0141REMSYN088AAXX  21004 82392 32496 20504 10260 20250 39986 40088 82030 333 10322 29084 55084 59014;
0156823920999992007042112004-03700-040350FM-12+008399999V0209999C000010042019N0500001N1+02611+02421101101ADDGF108991061051004501031999KA1240N+02371MA1999999100081MD1999999+0031REMSYN076AAXX  21124 82392 32499 80500 10261 20242 30008 40110 8653/ 333 20237 58003;
0182823920999992007042118004-03700-040350FM-12+008399999V0203601N000510042019N0500001N1+02611+02481100831ADDAA106016091AY161061AY261061GF108991051051004501011999MA1999999099801MD1999999+0171MW1021REMSYN082AAXX  21184 82392 21499 83601 10261 20248 39980 40083 70266 8551/ 333 58017 60161;
0232823920999992007042200004-03700-040350FM-12+008399999V0209999C000010042019N0040001N1+02481+02451101031ADDAA106000091AY151061AY251061GF108991081051004501999999KA1240M+02781MA1999999100011MD1999999+0151MW1021REMSYN100AAXX  22004 82392 21496 81800 10248 20245 30001 40103 70255 885// 333 10278 29094 55002 58015 69911;EQDQ01  00002PRCP06
0201823920999992007042212004-03700-040350FM-12+008399999V0202301N002112200019N0500001N1+02601+02331101131ADDAA124016091AY151061AY251061GF104991021011004501031001KA1240N+02211MA1999999100101MD1999999+0021MW1021REMSYN088AAXX  22124 82392 21499 42304 10260 20233 30010 40113 70255 82130 333 20221 58002 60164;
0137823920999992007042218004-03700-040350FM-12+008399999V0200901N002610450019N0500001N1+03161+01961100771ADDGF106991041041004501031001MA1999999099751MD1999999-0051REMSYN070AAXX  22184 82392 32499 60905 10316 20196 39975 40077 84430 333 59005;
0178823920999992007042300004-03700-040350FM-12+008399999V0200501N003112200019N0040001N1+02521+02491101071ADDGA1001+999999999GF100991001001999999001001KA1240M+03241MA1999999100051MD1999999+0041REMSYN082AAXX  23004 82392 32996 00506 10252 20249 30005 40107 333 10324 29082 55072 58004;
0201823920999992007042312004-03700-040350FM-12+008399999V0202301N001010450019N0500001N1+02701+02431101221ADDAA124000591AY151061AY221061GF108991041071004501021999KA1240N+02401MA1999999100201MD1999999+0101MW1021REMSYN088AAXX  23124 82392 21499 82302 10270 20243 30020 40122 70252 8472/ 333 20240 58010 69954;
0137823920999992007042318004-03700-040350FM-12+008399999V0209999C000010450019N0500001N1+02621+02351100931ADDGF108991031051004501021999MA1999999099901MD1999999+0151REMSYN070AAXX  23184 82392 32499 80000 10262 20235 39990 40093 8352/ 333 58015;
0173823920999992007042412004-03700-040350FM-12+008399999V0202301N001010450019N0500001N1+02521+02431101271ADDAA124000391GF107991041061004501031001KA1240N+02341MA1999999100241MD1999999+0041REMSYN082AAXX  24124 82392 22499 72302 10252 20243 30024 40127 84630 333 20234 58004 69934;
0182823920999992007042418004-03700-040350FM-12+008399999V0209999C000010042019N0500001N1+02301+02231100971ADDAA106018091AY161061AY261061GF108991061061004501011999MA1999999099941MD1999999+0041MW1631REMSYN082AAXX  24184 82392 21499 83600 10230 20223 39994 40097 76366 8661/ 333 58004 60181;
0213823920999992007042500004-03700-040350FM-12+008399999V0209999C000010450019N0040001N1+02371+02331101211ADDAA106000891AY151061AY251061GF108991021061004501011999KA1240M+03011MA1999999100181MD1999999+0001MW1021REMSYN100AAXX  25004 82392 21496 80000 10237 20233 30018 40121 70255 8261/ 333 10301 29096 55030 58000 69971;
0173823920999992007042512004-03700-040350FM-12+008399999V0200501N001010450019N0500001N1+02621+02351101231ADDAA124018091GF106991031041004501031001KA1240N+02201MA1999999100201MD1999999-0041REMSYN082AAXX  25124 82392 22499 60502 10262 20235 30020 40123 83430 333 20220 59004 60184;
0182823920999992007042518004-03700-040350FM-12+008399999V0203601N002110450019N0500001N1+02561+02491100881ADDAA106002091AY151061AY251061GF108991041071004501021999MA1999999099851MD1999999-0091MW1021REMSYN082AAXX  25184 82392 21499 83604 10256 20249 39985 40088 70255 8472/ 333 59009 60021;
0168823920999992007042600004-03700-040350FM-12+008399999V0209999C000010450019N0040001N1+02371+02331101051ADDGF108991021061004501011999KA1240M+02971MA1999999100021MD1999999-0161REMSYN088AAXX  26004 82392 32496 80000 10237 20233 30002 40105 8261/ 333 10297 29094 55034 59016;
0173823920999992007042612004-03700-040350FM-12+008399999V0209999C000010450019N0500001N1+02791+02311101081ADDAA124002091GF105991031021004501031001KA1240N+02241MA1999999100061MD1999999-0141REMSYN082AAXX  26124 82392 22499 50900 10279 20231 30006 40108 83230 333 20224 59014 60024;
0182823920999992007042618004-03700-040350FM-12+008399999V0200901N000510042019N0500001N1+02471+02321100841ADDAA106002091AY101061AY221061GF108991061061004501011999MA1999999099811MD1999999-0041MW1631REMSYN082AAXX  26184 82392 21499 80901 10247 20232 39981 40084 76302 8661/ 333 59004 60021;
0213823920999992007042700004-03700-040350FM-12+008399999V0202301N001010450019N0040001N1+02321+02271101091ADDAA106020191AY161061AY261061GF108991041071004501021999KA1240M+03141MA1999999100061MD1999999+0041MW1021REMSYN100AAXX  27004 82392 21496 82302 10232 20227 30006 40109 70266 8472/ 333 10314 29090 55074 58004 60201;
0173823920999992007042712004-03700-040350FM-12+008399999V0202301N002112200019N0500001N1+02601+02461101191ADDAA124022191GF104991031011004501031001KA1240N+02241MA1999999100161MD1999999+0101REMSYN082AAXX  27124 82392 22499 42304 10260 20246 30016 40119 83130 333 20224 58010 60224;
0137823920999992007042718004-03700-040350FM-12+008399999V0209999C000010450019N0500001N1+03121+02281100791ADDGF106991031061004501031011MA1999999099771MD1999999-0041REMSYN070AAXX  27184 82392 32499 61800 10312 20228 39977 40079 83631 333 59004;
0168823920999992007042800004-03700-040350FM-12+008399999V0209999C000010042019N0040001N1+02421+02391101131ADDGF105991051041004501001001KA1240M+03181MA1999999100101MD1999999+0041REMSYN088AAXX  28004 82392 32496 50000 10242 20239 30010 40113 85400 333 10318 29087 55075 58004;
0156823920999992007042812004-03700-040350FM-12+008399999V0200901N002112200019N0500001N1+02721+02391101281ADDGF103991031011004501001001KA1240N+02261MA1999999100261MD1999999+0101REMSYN076AAXX  28124 82392 32499 30904 10272 20239 30026 40128 83100 333 20226 58010;
0182823920999992007042818004-03700-040350FM-12+008399999V0203601N002610042019N0200001N1+02601+02571100871ADDAA106002091AY121061AY221061GF108991051061004501021999MA1999999099841MD1999999+0071MW1631REMSYN082AAXX  28184 82392 21498 83605 10260 20257 39984 40087 76322 8562/ 333 58007 60021;
0213823920999992007042900004-03700-040350FM-12+008399999V0202701N001010450019N0040001N1+02341+02271101271ADDAA106009991AY161061AY261061GF108991041071004501021999KA1240M+03141MA1999999100241MD1999999+0141MW1021REMSYN100AAXX  29004 82392 21496 82702 10234 20227 30024 40127 70266 8472/ 333 10314 29073 55073 58014 60101;
0173823920999992007042912004-03700-040350FM-12+008399999V0209999C000010450019N0500001N1+02661+02371100381ADDAA124011991GF106991031021004501031011KA1240N+02221MA1999999100351MD1999999+0091REMSYN082AAXX  29124 82392 22499 60900 10266 20237 30035 40038 83231 333 20222 58009 60124;
0137823920999992007042918004-03700-040350FM-12+008399999V0209999C000010450019N0500001N1+03111+02381100881ADDGF106991041061004501031021MA1999999099861MD1999999+0021REMSYN070AAXX  29184 82392 32499 61400 10311 20238 39986 40088 84632 333 58002;
0168823920999992007043000004-03700-040350FM-12+008399999V0209999C000010450019N0040001N1+02471+02381101191ADDGF106991031021004501031001KA1240M+03171MA1999999100171MD1999999-0071REMSYN088AAXX  30004 82392 32496 60000 10247 20238 30017 40119 83230 333 10317 29084 55055 59007;
0156823920999992007043012004-03700-040350FM-12+008399999V0203601N000512200019N0500001N1+02701+02261101291ADDGF104991021021004501031001KA1240N+02191MA1999999100271MD1999999-0081REMSYN076AAXX  30124 82392 32499 43601 10270 20226 30027 40129 82230 333 20219 59008;
0182823920999992007043018004-03700-040350FM-12+008399999V0203201N000510042019N0500001N1+02461+02431100901ADDAA106018091AY161061AY261061GF107991051071004501031001MA1999999099871MD1999999+0011MW1021REMSYN082AAXX  30184 82392 21499 73201 10246 20243 39987 40090 70266 85730 333 58001 60181;
0168823920999992007050100004-03700-040350FM-12+008399999V0200501N000510450019N0040001N1+02451+02431101121ADDGF106991031021004501031001KA1240M+02981MA1999999100101MD1999999-0171REMSYN088AAXX  01004 82392 32496 60501 10245 20243 30010 40112 83230 333 10298 29093 55055 59017;
0201823920999992007050112004-03700-040350FM-12+008399999V0202301N001012200019N0500001N1+02621+02411101191ADDAA124019191AY151061AY261061GF104991041021004501001001KA1240N+02301MA1999999100161MD1999999-0111MW1021REMSYN088AAXX  01124 82392 21499 42302 10262 20241 30016 40119 70256 84200 333 20230 59011 60194;
0137823920999992007050118004-03700-040350FM-12+008399999V0201401N001510450019N0500001N1+03071+02441100731ADDGF106991041061004501031001MA1999999099711MD1999999-0161REMSYN070AAXX  01184 82392 32499 61403 10307 20244 39971 40073 84630 333 59016;
0213823920999992007050200004-03700-040350FM-12+008399999V0209999C000010450019N0040001N1+02471+02431101171ADDAA106002091AY161061AY261061GF108991041061004501011999KA1240M+03181MA1999999100151MD1999999+0051MW1021REMSYN100AAXX  02004 82392 21496 80000 10247 20243 30015 40117 70266 8461/ 333 10318 29088 55072 58005 60021;
0201823920999992007050212004-03700-040350FM-12+008399999V0200501N002610450019N0500001N1+02661+02331101321ADDAA124008991AY161061AY261061GF108991041071004501021999KA1240N+02241MA1999999100301MD1999999+0141MW1021REMSYN088AAXX  02124 82392 21499 80505 10266 20233 30030 40132 70266 8472/ 333 20224 58014 60094;
0137823920999992007050218004-03700-040350FM-12+008399999V0203601N000510450019N0500001N1+03101+01941100781ADDGF105991031021004501031001MA1999999099761MD1999999+0051REMSYN070AAXX  02184 82392 32499 53601 10310 20194 39976 40078 83230 333 58005;
0168823920999992007050300004-03700-040350FM-12+008399999V0209999C00001045001CN0500001N1+02461+02341101111ADDGF105991011011004501031001KA1240M+03141MA1999999100091MD1999999-0061REMSYN088AAXX  03004 82392 32499 50000 10246 20234 30009 40111 81130 333 10314 29080 55081 59006;
0156823920999992007050312004-03700-040350FM-12+008399999V0209999C00001045001CN0500001N1+02791+02381101251ADDGF107991041021004501031001KA1240N+02291MA1999999100231MD1999999-0071REMSYN076AAXX  03124 82392 32499 70000 10279 20238 30023 40125 84230 333 20229 59007;
0182823920999992007050318004-03700-040350FM-12+008399999V0209999C000010042019N0200001N1+02541+02381100871ADDAA106004191AY161061AY261061GF108991061061004501021999MA1999999099841MD1999999+0081MW1211REMSYN082AAXX  03184 82392 21498 80000 10254 20238 39984 40087 72166 8662/ 333 58008 60041;
0213823920999992007050400004-03700-040350FM-12+008399999V0209999C000010042019N0040001N1+02481+02391101061ADDAA106001091AY161061AY261061GF106991051041004501031001KA1240M+03041MA1999999100041MD1999999-0051MW1021REMSYN100AAXX  04004 82392 21496 60000 10248 20239 30004 40106 70266 85430 333 10304 29090 55060 59005 60011;
0173823920999992007050412004-03700-040350FM-12+008399999V0201801N001012200019N0500001N1+02741+02141101121ADDAA124005191GF102991021011004501001001KA1240N+02161MA1999999100101MD1999999-0131REMSYN082AAXX  04124 82392 22499 21802 10274 20214 30010 40112 82100 333 20216 59013 60054;
0137823920999992007050418004-03700-040350FM-12+008399999V0201801N000510450019N0500001N1+03131+02351100791ADDGF105991031041004501031001MA1999999099771MD1999999-0071REMSYN070AAXX  04184 82392 32499 51801 10313 20235 39977 40079 83430 333 59007;
0168823920999992007050500004-03700-040350FM-12+008399999V0200501N001012200019N0040001N1+02481+02301101021ADDGF102991021001008001031001KA1240M+03221MA1999999100001MD1999999-0041REMSYN088AAXX  05004 82392 32596 20502 10248 20230 30000 40102 82030 333 10322 29078 55094 59004;
0156823920999992007050512004-03700-040350FM-12+008399999V0201401N000510450019N0500001N1+02661+02351101061ADDGF107991041051004501031001KA1240N+02291MA1999999100041MD1999999-0061REMSYN076AAXX  05124 82392 32499 71401 10266 20235 30004 40106 84530 333 20229 59006;
0137823920999992007050518004-03700-040350FM-12+008399999V0200901N000510042019N0500001N1+02991+02321100631ADDGF107991051051004501031001MA1999999099621MD1999999-0151REMSYN070AAXX  05184 82392 32499 70901 10299 20232 39962 40063 85530 333 59015;
0168823920999992007050600004-03700-040350FM-12+008399999V0209999C000012200019N0040001N1+02491+02341100881ADDGF102991011021004501031001KA1240M+03161MA1999999099861MD1999999-0141REMSYN088AAXX  06004 82392 32496 20000 10249 20234 39986 40088 81230 333 10316 29083 55073 59014;
0220823920999992007050612004-03700-040350FM-12+008399999V0200901N003110450019N0500001N1+02741+02141101041ADDAA124000091AY151061AY221061GF106991031021004501031001KA1240N+02341MA1999999100021MD1999999-0021MW1021REMSYN088AAXX  06124 82392 21499 60906 10274 20214 30002 40104 70252 83230 333 20234 59002 69924;EQDQ01  00002PRCP24
0137823920999992007050618004-03700-040350FM-12+008399999V0200501N002110450019N0500001N1+02821+02101100721ADDGF106991041041004501031001MA1999999099701MD1999999+0081REMSYN070AAXX  06184 82392 32499 60504 10282 20210 39970 40072 84430 333 58008;
0178823920999992007050700004-03700-040350FM-12+008399999V0203601N000512200019N0040001N1+02421+02391100881ADDGA1001+999999999GF100991001001999999001001KA1240M+02981MA1999999099861MD1999999+0001REMSYN082AAXX  07004 82392 32996 03601 10242 20239 39986 40088 333 10298 29083 55020 58000;
0156823920999992007050712004-03700-040350FM-12+008399999V0209999C000012200019N0500001N1+02681+02351101011ADDGF104991041041004501001001KA1240N+02181MA1999999099991MD1999999-0031REMSYN076AAXX  07124 82392 32499 40000 10268 20235 39999 40101 84400 333 20218 59003;
0137823920999992007050718004-03700-040350FM-12+008399999V0200901N002610450019N0500001N1+03061+02111100631ADDGF105991031021004501031001MA1999999099621MD1999999-0081REMSYN070AAXX  07184 82392 32499 50905 10306 20211 39962 40063 83230 333 59008;
0168823920999992007050800004-03700-040350FM-12+008399999V0209999C000012200019N0040001N1+02491+02411100881ADDGF102991011021004501011001KA1240M+03181MA1999999099861MD1999999+0001REMSYN088AAXX  08004 82392 32496 20000 10249 20241 39986 40088 81210 333 10318 29082 55082 58000;
0201823920999992007050812004-03700-040350FM-12+008399999V0202701N001010450019N0500001N1+02601+02461101091ADDAA124001091AY151061AY251061GF107991041051004501021001KA1240N+02301MA1999999100061MD1999999+0071MW1021REMSYN088AAXX  08124 82392 21499 72702 10260 20246 30006 40109 70255 84520 333 20230 58007 60014;
0137823920999992007050818004-03700-040350FM-12+008399999V0209999C000010450019N0500001N1+03161+02321100761ADDGF106991031061004501031001MA1999999099741MD1999999+0121REMSYN070AAXX  08184 82392 32499 60000 10316 20232 39974 40076 83630 333 58012;
0168823920999992007050900004-03700-040350FM-12+008399999V0209999C000010450019N0040001N1+02571+02481100991ADDGF105991021061004501031001KA1240M+03211MA1999999099971MD1999999+0111REMSYN088AAXX  09004 82392 32496 53600 10257 20248 39997 40099 82630 333 10321 29085 55057 58011;
0156823920999992007050912004-03700-040350FM-12+008399999V0201801N001012200019N0500001N1+02761+02141101141ADDGF102991021011004501001001KA1240N+02301MA1999999100121MD1999999+0061REMSYN076AAXX  09124 82392 32499 21802 10276 20214 30012 40114 82100 333 20230 58006;
0137823920999992007050918004-03700-040350FM-12+008399999V0200901N001010042019N0500001N1+02941+02401100831ADDGF107991051061004501031001MA1999999099811MD1999999+0071REMSYN070AAXX  09184 82392 32499 70902 10294 20240 39981 40083 85630 333 58007;
0168823920999992007051000004-03700-040350FM-12+008399999V0203601N000510450019N0040001N1+02491+02411101171ADDGF105991021021004501011001KA1240M+03231MA1999999100151MD1999999+0181REMSYN088AAXX  10004 82392 32496 53601 10249 20241 30015 40117 82210 333 10323 29083 55062 58018;
0156823920999992007051012004-03700-040350FM-12+008399999V0209999C000012200019N0500001N1+02731+02241101221ADDGF103991011021004501031011KA1240N+02131MA1999999100201MD1999999+0081REMSYN076AAXX  10124 82392 32499 30000 10273 20224 30020 40122 81231 333 20213 58008;
0137823920999992007051018004-03700-040350FM-12+008399999V0200901N000510450019N0500001N1+03181+02011100881ADDGF106991021011004501011011MA1999999099871MD1999999+0061REMSYN070AAXX  10184 82392 32499 60901 10318 20201 39987 40088 82111 333 58006;
0178823920999992007051100004-03700-040350FM-12+008399999V0203601N001012200019N0040001N1+02521+02381101221ADDGA1001+999999999GF100991001001999999001001KA1240M+03301MA1999999100201MD1999999+0051REMSYN082AAXX  11004 82392 32996 03602 10252 20238 30020 40122 333 10330 29077 55104 58005;
0156823920999992007051112004-03700-040350FM-12+008399999V0202301N001012200019N0500001N1+02701+02221101431ADDGF103991021011004501031001KA1240N+02101MA1999999100411MD1999999+0211REMSYN076AAXX  11124 82392 32499 32302 10270 20222 30041 40143 82130 333 20210 58021;
0137823920999992007051118004-03700-040350FM-12+008399999V0202301N000510450019N0500001N1+03081+02321101021ADDGF105991041021004501031001MA1999999100001MD1999999+0131REMSYN070AAXX  11184 82392 32499 52301 10308 20232 30000 40102 84230 333 58013;
0178823920999992007051200004-03700-040350FM-12+008399999V0200501N001012200019N0040001N1+02601+02271101361ADDGA1001+999999999GF100991001001999999001001KA1240M+03221MA1999999100341MD1999999+0141REMSYN082AAXX  12004 82392 32996 00502 10260 20227 30034 40136 333 10322 29076 55091 58014;
0156823920999992007051212004-03700-040350FM-12+008399999V0201801N003110042019N0500001N1+02501+02321101591ADDGF106991051041004501031001KA1240N+02401MA1999999100561MD1999999+0151REMSYN076AAXX  12124 82392 32499 61806 10250 20232 30056 40159 85430 333 20240 58015;
0137823920999992007051218004-03700-040350FM-12+008399999V0202301N002112200019N0500001N1+03001+02191101171ADDGF104991041021004501001001MA1999999100151MD1999999+0151REMSYN070AAXX  12184 82392 32499 42304 10300 20219 30015 40117 84200 333 58015;
0213823920999992007051300004-03700-040350FM-12+008399999V0200501N002612200019N0040001N1+02581+02551101511ADDAA106002091AY161061AY221061GF102991021001004501031001KA1240M+03101MA1999999100471MD1999999+0131MW1021REMSYN100AAXX  13004 82392 21496 20505 10258 20255 30047 40151 70262 82030 333 10310 29088 55059 58013 60021;
0173823920999992007051312004-03700-040350FM-12+008399999V0201801N000512200019N0500001N1+02661+02271101531ADDAA124002091GF104991011011004501011011KA1240N+02191MA1999999100501MD1999999-0061REMSYN082AAXX  13124 82392 22499 41801 10266 20227 30050 40153 81111 333 20219 59006 60024;
0137823920999992007051318004-03700-040350FM-12+008399999V0203601N000511050019N0500001N1+02981+02421101041ADDGF105991021021004501001021MA1999999100021MD1999999-0131REMSYN070AAXX  13184 82392 32499 53601 10298 20242 30002 40104 82202 333 59013;
0168823920999992007051400004-03700-040350FM-12+008399999V0200501N000512200019N0040001N1+02491+02401101281ADDGF102991021041004501001001KA1240M+03081MA1999999100261MD1999999-0211REMSYN088AAXX  14004 82392 32496 20501 10249 20240 30026 40128 82400 333 10308 29085 55061 59021;
0156823920999992007051412004-03700-040350FM-12+008399999V0202301N002610450019N0500001N1+02691+02371101401ADDGF105991041041004501031001KA1240N+02381MA1999999100381MD1999999-0121REMSYN076AAXX  14124 82392 32499 52305 10269 20237 30038 40140 84430 333 20238 59012;
0182823920999992007051418004-03700-040350FM-12+008399999V0202701N001012200019N0500001N1+02871+02181101021ADDAA106005191AY121061AY261061GF104991041021004501001001MA1999999100001MD1999999-0021MW1021REMSYN082AAXX  14184 82392 21499 42702 10287 20218 30000 40102 70226 84200 333 59002 60051;
0178823920999992007051500004-03700-040350FM-12+008399999V0200501N000512200019N0040001N1+02411+02391101311ADDGA1001+999999999GF100991001001999999001001KA1240M+02981MA1999999100291MD1999999+0031REMSYN082AAXX  15004 82392 32996 00501 10241 20239 30029 40131 333 10298 29086 55062 58003;
0173823920999992007051512004-03700-040350FM-12+008399999V0209999C000012200019N0500001N1+02611+02291101381ADDAA124005191GF103991021011004501031001KA1240N+02001MA1999999100351MD1999999-0031REMSYN082AAXX  15124 82392 22499 30000 10261 20229 30035 40138 82130 333 20200 59003 60054;
0137823920999992007051518004-03700-040350FM-12+008399999V0202701N000512200019N0500001N1+03231+02361100901ADDGF103991031021004501001001MA1999999099881MD1999999-0121REMSYN070AAXX  15184 82392 32499 32701 10323 20236 39988 40090 83200 333 59012;
0168823920999992007051600004-03700-040350FM-12+008399999V0203601N000512200019N0040001N1+02471+02291101111ADDGF102991021001004501011001KA1240M+03281MA1999999100081MD1999999-0211REMSYN088AAXX  16004 82392 32496 23601 10247 20229 30008 40111 82010 333 10328 29080 55098 59021;
0156823920999992007051612004-03700-040350FM-12+008399999V0201801N000512200019N0500001N1+02661+02181101271ADDGF103991031021004501001001KA1240N+02101MA1999999100251MD1999999-0101REMSYN076AAXX  16124 82392 32499 31801 10266 20218 30025 40127 83200 333 20210 59010;
0137823920999992007051618004-03700-040350FM-12+008399999V0200501N002612200019N0500001N1+03131+01691100881ADDGF103991031011004501001001MA1999999099861MD1999999-0021REMSYN070AAXX  16184 82392 32499 30505 10313 20169 39986 40088 83100 333 59002;
0178823920999992007051700004-03700-040350FM-12+008399999V0201401N000512200019N0040001N1+02491+02111101151ADDGA1001+999999999GF100991001001999999001001KA1240M+03261MA1999999100131MD1999999+0051REMSYN082AAXX  17004 82392 32996 01401 10249 20211 30013 40115 333 10326 29069 55108 58005;
0156823920999992007051712004-03700-040350FM-12+008399999V0201801N000510042019N0500001N1+02721+02251101231ADDGF105991051021004501001001KA1240N+02081MA1999999100211MD1999999-0041REMSYN076AAXX  17124 82392 32499 51801 10272 20225 30021 40123 85200 333 20208 59004;
0137823920999992007051718004-03700-040350FM-12+008399999V0200501N000512200019N0005001N1+03201+02031100781ADDGF102991021011004501001001MA1999999099761MD1999999-0101REMSYN070AAXX  17184 82392 32493 20501 10320 20203 39976 40078 82100 333 59010;
0178823920999992007051800004-03700-040350FM-12+008399999V0200501N000512200019N0040001N1+02401+02311101071ADDGA1001+999999999GF100991001001999999001001KA1240M+03281MA1999999100051MD1999999-0081REMSYN082AAXX  18004 82392 32996 00501 10240 20231 30005 40107 333 10328 29078 55102 59008;
0156823920999992007051812004-03700-040350FM-12+008399999V0201801N000512200019N0500001N1+02701+02221101211ADDGF101991011011004501001001KA1240N+02181MA1999999100191MD1999999-0021REMSYN076AAXX  18124 82392 32499 11801 10270 20222 30019 40121 81100 333 20218 59002;
0137823920999992007051818004-03700-040350FM-12+008399999V0201801N000510450019N0500001N1+03241+02001100791ADDGF106991041021004501031001MA1999999099771MD1999999+0011REMSYN070AAXX  18184 82392 32499 61801 10324 20200 39977 40079 84230 333 58001;
0178823920999992007051900004-03700-040350FM-12+008399999V0200501N003112200019N0040001N1+02461+02371101171ADDGA1001+999999999GF100991001001999999001001KA1240M+03301MA1999999100151MD1999999+0101REMSYN082AAXX  19004 82392 32996 00506 10246 20237 30015 40117 333 10330 29078 55077 58010;
0156823920999992007051912004-03700-040350FM-12+008399999V0209999C000012200019N0500001N1+02691+02281101241ADDGF102991011011004501001011KA1240N+02091MA1999999100221MD1999999+0031REMSYN076AAXX  19124 82392 32499 20000 10269 20228 30022 40124 81101 333 20209 58003;
0137823920999992007051918004-03700-040350FM-12+008399999V0201801N000512200019N0500001N1+03301+02181100721ADDGF102991011011004501031001MA1999999099701MD1999999-0071REMSYN070AAXX  19184 82392 32499 21801 10330 20218 39970 40072 81130 333 59007;
0178823920999992007052000004-03700-040350FM-12+008399999V0203601N001012200019N0040001N1+02551+02311100991ADDGA1001+999999999GF100991001001999999001001KA1240M+03381MA1999999099971MD1999999-0181REMSYN082AAXX  20004 82392 32996 03602 10255 20231 39997 40099 333 10338 29076 55100 59018;
0156823920999992007052012004-03700-040350FM-12+008399999V0202701N000512200019N0500001N1+02601+02291101241ADDGF103991031021004501001001KA1240N+02231MA1999999100221MD1999999+0001REMSYN076AAXX  20124 82392 32499 32701 10260 20229 30022 40124 83200 333 20223 58000;
0137823920999992007052018004-03700-040350FM-12+008399999V0202301N002610042019N0500001N1+03091+02201100871ADDGF106991051041004501031001MA1999999099851MD1999999+0151REMSYN070AAXX  20184 82392 32499 62305 10309 20220 39985 40087 85430 333 58015;
0168823920999992007052100004-03700-040350FM-12+008399999V0209999C000012200019N0040001N1+02481+02391101071ADDGF102991021001008001031001KA1240M+03261MA1999999100041MD1999999+0071REMSYN088AAXX  21004 82392 32596 20000 10248 20239 30004 40107 82030 333 10326 29083 55059 58007;
0156823920999992007052112004-03700-040350FM-12+008399999V0200901N001012200019N0500001N1+02711+02121101201ADDGF103991031011004501001001KA1240N+02101MA1999999100181MD1999999-0041REMSYN076AAXX  21124 82392 32499 30902 10271 20212 30018 40120 83100 333 20210 59004;
0137823920999992007052118004-03700-040350FM-12+008399999V0201801N000512200019N0500001N1+03331+01981100771ADDGF104991031011004501031001MA1999999099751MD1999999-0101REMSYN070AAXX  21184 82392 32499 41801 10333 20198 39975 40077 83130 333 59010;
0213823920999992007052200004-03700-040350FM-12+008399999V0203601N000510450019N0040001N1+02491+02431101081ADDAA106003091AY161061AY261061GF105991021021004501021001KA1240M+03361MA1999999100061MD1999999+0021MW1021REMSYN100AAXX  22004 82392 21496 53601 10249 20243 30006 40108 70266 82220 333 10336 29077 55082 58002 60031;
0173823920999992007052212004-03700-040350FM-12+008399999V0202301N000510042019N0500001N1+02581+02381101151ADDAA124003091GF107991051051004501031001KA1240N+02201MA1999999100121MD1999999-0061REMSYN082AAXX  22124 82392 22499 72301 10258 20238 30012 40115 85530 333 20220 59006 60034;
0137823920999992007052218004-03700-040350FM-12+008399999V0201401N000510450019N0500001N1+03091+02181100691ADDGF106991041061004501031001MA1999999099671MD1999999-0081REMSYN070AAXX  22184 82392 32499 61401 10309 20218 39967 40069 84630 333 59008;
0213823920999992007052300004-03700-040350FM-12+008399999V0200501N000510042019N0040001N1+02521+02401100961ADDAA106004191AY161061AY261061GF108991061061004501031001KA1240M+03171MA1999999099941MD1999999-0121MW1021REMSYN100AAXX  23004 82392 21496 80501 10252 20240 39994 40096 70266 86630 333 10317 29083 55042 59012 60041;
0173823920999992007052312004-03700-040350FM-12+008399999V0200901N001010450019N0500001N1+02771+02301101121ADDAA124004191GF106991031041004501031001KA1240N+02241MA1999999100101MD1999999-0021REMSYN082AAXX  23124 82392 22499 60902 10277 20230 30010 40112 83430 333 20224 59002 60044;
0137823920999992007052318004-03700-040350FM-12+008399999V0202701N002112200019N0500001N1+03321+02141100721ADDGF102991021011004501001001MA1999999099701MD1999999+0031REMSYN070AAXX  23184 82392 32499 22704 10332 20214 39970 40072 82100 333 58003;
0168823920999992007052400004-03700-040350FM-12+008399999V0200501N001010450019N0040001N1+02641+02351101021ADDGF106991041021004501031001KA1240M+03381MA1999999100001MD1999999+0061REMSYN088AAXX  24004 82392 32496 60502 10264 20235 30000 40102 84230 333 10338 29073 55100 58006;
0156823920999992007052412004-03700-040350FM-12+008399999V0200501N000512200019N0500001N1+02821+02361101241ADDGF103991031021004501001001KA1240N+02291MA1999999100221MD1999999+0121REMSYN076AAXX  24124 82392 32499 30501 10282 20236 30022 40124 83200 333 20229 58012;
0137823920999992007052418004-03700-040350FM-12+008399999V0209999C000010450019N0500001N1+03351+02421100841ADDGF106991041061004501031001MA1999999099821MD1999999+0121REMSYN070AAXX  24184 82392 32499 60000 10335 20242 39982 40084 84630 333 58012;
0213823920999992007052500004-03700-040350FM-12+008399999V0200501N002610450019N0040001N1+02301+02271101231ADDAA106013091AY161061AY261061GF108991031071004501021999KA1240M+03401MA1999999100211MD1999999+0211MW1021REMSYN100AAXX  25004 82392 21496 80505 10230 20227 30021 40123 70266 8372/ 333 10340 29082 55080 58021 60131;
0173823920999992007052512004-03700-040350FM-12+008399999V0201801N001012200019N0500001N1+02661+02441101291ADDAA124013091GF104991041021004501001001KA1240N+02201MA1999999100261MD1999999+0041REMSYN082AAXX  25124 82392 22499 41802 10266 20244 30026 40129 84200 333 20220 58004 60134;
0137823920999992007052518004-03700-040350FM-12+008399999V0201801N001012200019N0500001N1+03251+02381100681ADDGF103991021021004501031001MA1999999099661MD1999999-0161REMSYN070AAXX  25184 82392 32499 31802 10325 20238 39966 40068 82230 333 59016;
0178823920999992007052600004-03700-040350FM-12+008399999V0200501N003112200019N0040001N1+02621+02481100981ADDGA1001+999999999GF100991001001999999001001KA1240M+03341MA1999999099961MD1999999-0251REMSYN082AAXX  26004 82392 32996 00506 10262 20248 39996 40098 333 10334 29083 55089 59025;
0156823920999992007052612004-03700-040350FM-12+008399999V0200501N000512200019N0500001N1+02811+02401101211ADDGF104991041041004501001001KA1240N+02281MA1999999100191MD1999999-0071REMSYN076AAXX  26124 82392 32499 40501 10281 20240 30019 40121 84400 333 20228 59007;
0137823920999992007052618004-03700-040350FM-12+008399999V0209999C000012200019N0500001N1+03241+02251100791ADDGF104991031021004501001021MA1999999099771MD1999999+0111REMSYN070AAXX  26184 82392 32499 40000 10324 20225 39977 40079 83202 333 58011;
0178823920999992007052700004-03700-040350FM-12+008399999V0203601N000512200019N0040001N1+02491+02211101141ADDGA1001+999999999GF100991001001999999001001KA1240M+03291MA1999999100121MD1999999+0161REMSYN082AAXX  27004 82392 32996 03601 10249 20221 30012 40114 333 10329 29076 55100 58016;
0156823920999992007052712004-03700-040350FM-12+008399999V0201401N000512200019N0500001N1+02731+02301101321ADDGF103991031021004501001001KA1240N+02071MA1999999100301MD1999999+0111REMSYN076AAXX  27124 82392 32499 31401 10273 20230 30030 40132 83200 333 20207 58011;
0137823920999992007052718004-03700-040350FM-12+008399999V0203601N001510450019N0500001N1+03241+02161101021ADDGF105991031061004501031001MA1999999100001MD1999999+0231REMSYN070AAXX  27184 82392 32499 53603 10324 20216 30000 40102 83630 333 58023;
0168823920999992007052800004-03700-040350FM-12+008399999V0209999C000012200019N0040001N1+02501+02311101211ADDGF101991011001008001031001KA1240M+03281MA1999999100191MD1999999+0071REMSYN088AAXX  28004 82392 32596 10500 10250 20231 30019 40121 81030 333 10328 29077 55094 58007;
0156823920999992007052812004-03700-040350FM-12+008399999V0201801N001012200019N0500001N1+02601+02251101331ADDGF102991021011004501001001KA1240N+02001MA1999999100311MD1999999+0011REMSYN076AAXX  28124 82392 32499 21802 10260 20225 30031 40133 82100 333 20200 58001;
0137823920999992007052818004-03700-040350FM-12+008399999V0200501N001512200019N0500001N1+03301+01841100901ADDGF103991031021004501001001MA1999999099881MD1999999-0121REMSYN070AAXX  28184 82392 32499 30503 10330 20184 39988 40090 83200 333 59012;
0168823920999992007052900004-03700-040350FM-12+008399999V0203601N000512200019N0040001N1+02471+02271101241ADDGF102991021001008001031001KA1240M+03321MA1999999100211MD1999999+0021REMSYN088AAXX  29004 82392 32596 23601 10247 20227 30021 40124 82030 333 10332 29075 55100 58002;
0156823920999992007052912004-03700-040350FM-12+008399999V0200501N001012200019N0500001N1+02761+02161101301ADDGF103991031021004501001001KA1240N+02101MA1999999100281MD1999999-0031REMSYN076AAXX  29124 82392 32499 30502 10276 20216 30028 40130 83200 333 20210 59003;
0137823920999992007052918004-03700-040350FM-12+008399999V0203601N000512200019N0500001N1+03371+02091100811ADDGF103991031021004501001001MA1999999099791MD1999999-0091REMSYN070AAXX  29184 82392 32499 33601 10337 20209 39979 40081 83200 333 59009;
0178823920999992007053000004-03700-040350FM-12+008399999V0203601N000512200019N0040001N1+02571+02311101111ADDGA1001+999999999GF100991001001999999001001KA1240M+03401MA1999999100091MD1999999-0121REMSYN082AAXX  30004 82392 32996 03601 10257 20231 30009 40111 333 10340 29077 55102 59012;
0137823920999992007053018004-03700-040350FM-12+008399999V0202301N002112200019N0500001N1+03321+01891100961ADDGF103991021011004501031001MA1999999099941MD1999999+0151REMSYN070AAXX  30184 82392 32499 32304 10332 20189 39994 40096 82130 333 58015;
0168823920999992007053100004-03700-040350FM-12+008399999V0200501N000512200019N0040001N1+02491+02171101221ADDGF102991021001008001031001KA1240M+03441MA1999999100201MD1999999+0111REMSYN088AAXX  31004 82392 32596 20501 10249 20217 30020 40122 82030 333 10344 29069 55099 58011;
0156823920999992007053112004-03700-040350FM-12+008399999V0209999C000012200019N0500001N1+02711+02321101301ADDGF106991021021004501001011KA1240N+02161MA1999999100281MD1999999-0021REMSYN076AAXX  31124 82392 32499 60000 10271 20232 30028 40130 82201 333 20216 59002;
0182823920999992007053118004-03700-040350FM-12+008399999V0200501N000510042019N0040001N1+02711+02391101001ADDAA106005191AY161061AY261061GF108991051061004501021999MA1999999099971MD1999999+0031MW1651REMSYN082AAXX  31184 82392 21496 80501 10271 20239 39997 40100 76566 8562/ 333 58003 60051;
0168823920999992007060100004-03700-040350FM-12+008399999V0200501N000512200019N0040001N1+02401+02331101271ADDGF102991021001008001031001KA1240M+03301MA1999999100251MD1999999+0051REMSYN088AAXX  01004 82392 32596 20501 10240 20233 30025 40127 82030 333 10330 29087 55047 58005;
0173823920999992007060112004-03700-040350FM-12+008399999V0201801N001012200019N0500001N1+02641+02141101431ADDAA124005191GF103991021011004501031001KA1240N+02211MA1999999100401MD1999999+0121REMSYN082AAXX  01124 82392 22499 31802 10264 20214 30040 40143 82130 333 20221 58012 60054;
0137823920999992007060118004-03700-040350FM-12+008399999V0200901N002610450019N0500001N1+03141+01971101041ADDGF106991041021004501031001MA1999999100021MD1999999+0051REMSYN070AAXX  01184 82392 32499 60905 10314 20197 30002 40104 84230 333 58005;
0168823920999992007060200004-03700-040350FM-12+008399999V0203601N001012200019N0040001N1+02561+02291101321ADDGF102991021001008001031001KA1240M+03261MA1999999100301MD1999999+0051REMSYN088AAXX  02004 82392 32596 23602 10256 20229 30030 40132 82030 333 10326 29074 55087 58005;
0156823920999992007060212004-03700-040350FM-12+008399999V0201401N000512200019N0500001N1+02721+02151101401ADDGF104991041021004501001001KA1240N+02121MA1999999100381MD1999999-0021REMSYN076AAXX  02124 82392 32499 41401 10272 20215 30038 40140 84200 333 20212 59002;
0137823920999992007060218004-03700-040350FM-12+008399999V0200901N001012200019N0500001N1+03331+01711100971ADDGF104991041021004501001001MA1999999099951MD1999999-0071REMSYN070AAXX  02184 82392 32499 40902 10333 20171 39995 40097 84200 333 59007;
0178823920999992007060300004-03700-040350FM-12+008399999V0200501N000512200019N0040001N1+02341+01931101231ADDGA1001+999999999GF100991001001999999001001KA1240M+03361MA1999999100201MD1999999-0101REMSYN082AAXX  03004 82392 32996 00501 10234 20193 30020 40123 333 10336 29066 55103 59010;
0156823920999992007060312004-03700-040350FM-12+008399999V0202301N002110450019N0500001N1+02561+02291101431ADDGF106991031041004501031001KA1240N+02201MA1999999100401MD1999999-0021REMSYN076AAXX  03124 82392 32499 62304 10256 20229 30040 40143 83430 333 20220 59002;
0137823920999992007060318004-03700-040350FM-12+008399999V0202301N002610450019N0500001N1+03101+01871101061ADDGF105991041021004501031001MA1999999100041MD1999999+0091REMSYN070AAXX  03184 82392 32499 52305 10310 20187 30004 40106 84230 333 58009;
0168823920999992007060400004-03700-040350FM-12+008399999V0200501N002112200019N0040001N1+02481+02451101371ADDGF102991021001008001031001KA1240M+03301MA1999999100351MD1999999+0151REMSYN088AAXX  04004 82392 32596 20504 10248 20245 30035 40137 82030 333 10330 29082 55075 58015;
0156823920999992007060412004-03700-040350FM-12+008399999V0201801N001512200019N0500001N1+02881+02031101451ADDGF102991021011004501001001KA1240N+02041MA1999999100431MD1999999+0031REMSYN076AAXX  04124 82392 32499 21803 10288 20203 30043 40145 82100 333 20204 58003;
0137823920999992007060418004-03700-040350FM-12+008399999V0200501N000510042019N0500001N1+03391+01981100931ADDGF105991051021004501001001MA1999999099911MD1999999-0131REMSYN070AAXX  04184 82392 32499 50501 10339 20198 39991 40093 85200 333 59013;
0178823920999992007060500004-03700-040350FM-12+008399999V0203601N001012200019N0040001N1+02561+02311101331ADDGA1001+999999999GF100991001001999999001001KA1240M+03541MA1999999100311MD1999999-0041REMSYN082AAXX  05004 82392 32996 03602 10256 20231 30031 40133 333 10354 29069 55087 59004;
0156823920999992007060512004-03700-040350FM-12+008399999V0200501N003110450019N0500001N1+02741+02321101531ADDGF105991031021004501031001KA1240N+02311MA1999999100501MD1999999+0071REMSYN076AAXX  05124 82392 32499 50506 10274 20232 30050 40153 83230 333 20231 58007;
0137823920999992007060518004-03700-040350FM-12+008399999V0203601N001012200019N0500001N1+03261+02151101071ADDGF104991031061004501031001MA1999999100051MD1999999+0141REMSYN070AAXX  05184 82392 32499 43602 10326 20215 30005 40107 83630 333 58014;
0213823920999992007060600004-03700-040350FM-12+008399999V0203601N000510450019N0040001N1+02391+02351101451ADDAA106003091AY161061AY261061GF106991041061004501031001KA1240M+03431MA1999999100431MD1999999+0121MW1211REMSYN100AAXX  06004 82392 21496 63601 10239 20235 30043 40145 72166 84630 333 10343 29081 55075 58012 60031;
0173823920999992007060612004-03700-040350FM-12+008399999V0201801N000510042019N0500001N1+02601+02251101491ADDAA124003091GF106991061041004501001001KA1240N+02121MA1999999100451MD1999999-0051REMSYN082AAXX  06124 82392 22499 61801 10260 20225 30045 40149 86400 333 20212 59005 60034;
0182823920999992007060618004-03700-040350FM-12+008399999V0202301N001510042019N0500001N1+02961+02231101101ADDAA106003091AY161061AY221061GF107991051051004501031001MA1999999100081MD1999999+0031MW1021REMSYN082AAXX  06184 82392 21499 72303 10296 20223 30008 40110 70262 85530 333 58003 60031;
0168823920999992007060700004-03700-040350FM-12+008399999V0200501N000512200019N0040001N1+02561+02331101301ADDGF104991041001008001031001KA1240M+03181MA1999999100281MD1999999-0151REMSYN088AAXX  07004 82392 32596 40501 10256 20233 30028 40130 84030 333 10318 29080 55059 59015;
0173823920999992007060712004-03700-040350FM-12+008399999V0209999C000010042019N0500001N1+02701+02261101351ADDAA124003091GF105991051021004501001001KA1240N+02141MA1999999100331MD1999999-0121REMSYN082AAXX  07124 82392 22499 50000 10270 20226 30033 40135 85200 333 20214 59012 60034;
0137823920999992007060718004-03700-040350FM-12+008399999V0202701N000510042019N0500001N1+03341+02121100881ADDGF105991051021004501001001MA1999999099861MD1999999-0221REMSYN070AAXX  07184 82392 32499 52701 10334 20212 39986 40088 85200 333 59022;
0168823920999992007060800004-03700-040350FM-12+008399999V0203601N001012200019N0040001N1+02461+02251101201ADDGF102991021001008001031001KA1240M+03441MA1999999100181MD1999999-0101REMSYN088AAXX  08004 82392 32596 23602 10246 20225 30018 40120 82030 333 10344 29076 55093 59010;
0156823920999992007060812004-03700-040350FM-12+008399999V0201401N000512200019N0500001N1+02681+02131101321ADDGF103991021011004501031001KA1240N+02181MA1999999100301MD1999999-0031REMSYN076AAXX  08124 82392 32499 31401 10268 20213 30030 40132 82130 333 20218 59003;
0156823920999992007060818004-03700-040350FM-12+008399999V0203201N001019999999N0500001N1+03411+02021100871ADDGF105991999011004501001001MA1999999099851MD1999999-0011REMSYN070AAXX  08184 82392 32499 53202 10341 20202 39985 40087 82100 333 59001;EQDQ01+000022SCOTLC
0178823920999992007060900004-03700-040350FM-12+008399999V0203601N001012200019N0040001N1+02601+02331101171ADDGA1001+999999999GF100991001001999999001001KA1240M+03461MA1999999100151MD1999999-0031REMSYN082AAXX  09004 82392 32996 03602 10260 20233 30015 40117 333 10346 29072 55100 59003;
0156823920999992007060912004-03700-040350FM-12+008399999V0200501N002110450019N0500001N1+02501+02361101361ADDGF108991041051004501031001KA1240N+02241MA1999999100341MD1999999+0041REMSYN076AAXX  09124 82392 32499 80504 10250 20236 30034 40136 84530 333 20224 58004;
0137823920999992007060918004-03700-040350FM-12+008399999V0202701N001510450019N0500001N1+02901+02301101021ADDGF106991041051004501031001MA1999999100001MD1999999+0151REMSYN070AAXX  09184 82392 32499 62703 10290 20230 30000 40102 84530 333 58015;
0232823920999992007061000004-03700-040350FM-12+008399999V0203601N001012200019N0040001N1+02481+02411101281ADDAA106000091AY151061AY221061GF103991021011008001031001KA1240M+03141MA1999999100251MD1999999+0101MW1021REMSYN100AAXX  10004 82392 21596 33602 10248 20241 30025 40128 70252 82130 333 10314 29088 55029 58010 69921;EQDQ01  00002PRCP06
0192823920999992007061012004-03700-040350FM-12+008399999V0200901N000510450019N0500001N1+02671+02131101351ADDAA124000091GF106991041061004501031001KA1240N+02181MA1999999100331MD1999999-0011REMSYN082AAXX  10124 82392 22499 60901 10267 20213 30033 40135 84630 333 20218 59001 69924;EQDQ01  00002PRCP24
0137823920999992007061018004-03700-040350FM-12+008399999V0200901N001510450019N0500001N1+03261+01801100911ADDGF106991041061004501031001MA1999999099891MD1999999-0111REMSYN070AAXX  10184 82392 32499 60903 10326 20180 39989 40091 84630 333 59011;
0168823920999992007061100004-03700-040350FM-12+008399999V0200501N000512200019N0040001N1+02491+02171101211ADDGF104991999999999999999999KA1240M+03331MA1999999100191MD1999999-0061REMSYN088AAXX  11004 82392 32996 40501 10249 20217 30019 40121 8//// 333 10333 29070 55066 59006;
0156823920999992007061112004-03700-040350FM-12+008399999V0202701N000512200019N0500001N1+02701+02261101321ADDGF104991031011004501031001KA1240N+02081MA1999999100301MD1999999-0031REMSYN076AAXX  11124 82392 32499 42701 10270 20226 30030 40132 83130 333 20208 59003;
0137823920999992007061118004-03700-040350FM-12+008399999V0201801N002112200019N0500001N1+03261+01511100881ADDGF104991041021004501001001MA1999999099861MD1999999-0031REMSYN070AAXX  11184 82392 32499 41804 10326 20151 39986 40088 84200 333 59003;
0178823920999992007061200004-03700-040350FM-12+008399999V0203601N000512200019N0040001N1+02451+02011101241ADDGA1001+999999999GF100991001001999999001001KA1240M+03401MA1999999100221MD1999999+0031REMSYN082AAXX  12004 82392 32996 03601 10245 20201 30022 40124 333 10340 29066 55076 58003;
0137823920999992007061218004-03700-040350FM-12+008399999V0200901N001510042019N0500001N1+03141+01941100951ADDGF107991061061004501031001MA1999999099931MD1999999+0071REMSYN070AAXX  12184 82392 32499 70903 10314 20194 39993 40095 86630 333 58007;
0178823920999992007061300004-03700-040350FM-12+008399999V0200501N000512200019N0040001N1+02371+02241101221ADDGA1001+999999999GF100991001001999999001001KA1240M+03331MA1999999100191MD1999999-0031REMSYN082AAXX  13004 82392 32996 00501 10237 20224 30019 40122 333 10333 29075 55077 59003;
0156823920999992007061312004-03700-040350FM-12+008399999V0201401N002112200019N0500001N1+02701+02111101221ADDGF104991041021004501001001KA1240N+02101MA1999999100201MD1999999+0051REMSYN076AAXX  13124 82392 32499 41404 10270 20211 30020 40122 84200 333 20210 58005;
0137823920999992007061318004-03700-040350FM-12+008399999V0200501N001510450019N0500001N1+03181+01871100901ADDGF106991031041004501031001MA1999999099881MD1999999-0051REMSYN070AAXX  13184 82392 32499 60503 10318 20187 39988 40090 83430 333 59005;
0168823920999992007061400004-03700-040350FM-12+008399999V0200901N000510450019N0040001N1+02391+02091101181ADDGF107991021041004501031001KA1240M+03221MA1999999100161MD1999999-0031REMSYN088AAXX  14004 82392 32496 70901 10239 20209 30016 40118 82430 333 10322 29071 55060 59003;
0156823920999992007061412004-03700-040350FM-12+008399999V0201801N000512200019N0500001N1+02811+02101101181ADDGF104991031021004501031001KA1240N+02171MA1999999100161MD1999999-0041REMSYN076AAXX  14124 82392 32499 41801 10281 20210 30016 40118 83230 333 20217 59004;
0137823920999992007061418004-03700-040350FM-12+008399999V0200901N002112200019N0500001N1+03331+01801100781ADDGF104991041021004501001001MA1999999099761MD1999999-0121REMSYN070AAXX  14184 82392 32499 40904 10333 20180 39976 40078 84200 333 59012;
0178823920999992007061500004-03700-040350FM-12+008399999V0200501N001512200019N0040001N1+02461+02281101021ADDGA1001+999999999GF100991001001999999001001KA1240M+03401MA1999999100001MD1999999-0161REMSYN082AAXX  15004 82392 32996 00503 10246 20228 30000 40102 333 10340 29072 55094 59016;
0156823920999992007061512004-03700-040350FM-12+008399999V0201401N002112200019N0500001N1+02821+02101101201ADDGF101991011011004501001001KA1240N+02001MA1999999100181MD1999999+0021REMSYN076AAXX  15124 82392 32499 11404 10282 20210 30018 40120 81100 333 20200 58002;
0137823920999992007061518004-03700-040350FM-12+008399999V0200901N002112200019N0500001N1+03331+01491100831ADDGF103991031011004501001001MA1999999099811MD1999999+0051REMSYN070AAXX  15184 82392 32499 30904 10333 20149 39981 40083 83100 333 58005;
0178823920999992007061600004-03700-040350FM-12+008399999V0200501N001512200019N0040001N1+02401+02331101221ADDGA1001+999999999GF100991001001999999001001KA1240M+03421MA1999999100201MD1999999+0201REMSYN082AAXX  16004 82392 32996 00503 10240 20233 30020 40122 333 10342 29072 55102 58020;
0156823920999992007061612004-03700-040350FM-12+008399999V0201801N000510042019N0500001N1+02791+01981101341ADDGF106991061021004501001001KA1240N+02021MA1999999100321MD1999999+0141REMSYN076AAXX  16124 82392 32499 61801 10279 20198 30032 40134 86200 333 20202 58014;
0137823920999992007061618004-03700-040350FM-12+008399999V0200901N001012200019N0500001N1+03391+01641100871ADDGF104991041021004501001001MA1999999099851MD1999999+0041REMSYN070AAXX  16184 82392 32499 40902 10339 20164 39985 40087 84200 333 58004;
0178823920999992007061700004-03700-040350FM-12+008399999V0203601N000512200019N0040001N1+02441+01901101231ADDGA1001+999999999GF100991001001999999001001KA1240M+03481MA1999999100211MD1999999+0011REMSYN082AAXX  17004 82392 32996 03601 10244 20190 30021 40123 333 10348 29060 55103 58001;
0156823920999992007061712004-03700-040350FM-12+008399999V0201801N001512200019N0500001N1+02601+02011101291ADDGF104991041021004501001001KA1240N+01991MA1999999100261MD1999999-0061REMSYN076AAXX  17124 82392 32499 41803 10260 20201 30026 40129 84200 333 20199 59006;
0137823920999992007061718004-03700-040350FM-12+008399999V0203601N001512200019N0500001N1+03321+01781101001ADDGF104991041021004501001001MA1999999099981MD1999999-0031REMSYN070AAXX  17184 82392 32499 43603 10332 20178 39998 40100 84200 333 59003;
0168823920999992007061800004-03700-040350FM-12+008399999V0203601N002112200019N0040001N1+02551+02081101261ADDGF102991021001008001031001KA1240M+03421MA1999999100241MD1999999+0031REMSYN088AAXX  18004 82392 32596 23604 10255 20208 30024 40126 82030 333 10342 29065 55050 58003;
0201823920999992007061812004-03700-040350FM-12+008399999V0202301N001010450019N0500001N1+02601+02511101421ADDAA124009991AY161061AY221061GF106991041041004501031001KA1240N+02301MA1999999100401MD1999999+0141MW1021REMSYN088AAXX  18124 82392 21499 62302 10260 20251 30040 40142 70262 84430 333 20230 58014 60104;
0137823920999992007061818004-03700-040350FM-12+008399999V0200501N003112200019N0500001N1+03181+01651101021ADDGF104991041041004501001001MA1999999100001MD1999999+0021REMSYN070AAXX  18184 82392 32499 40506 10318 20165 30000 40102 84400 333 58002;
0168823920999992007061900004-03700-040350FM-12+008399999V0200901N000510450019N0500001N1+02551+02171101281ADDGF105991021021004501031001KA1240M+03381MA1999999100261MD1999999+0021REMSYN088AAXX  19004 82392 32499 50901 10255 20217 30026 40128 82230 333 10338 29073 55087 58002;
0156823920999992007061912004-03700-040350FM-12+008399999V0201401N002112200019N0500001N1+02741+01971101371ADDGF103991021011004501031001KA1240N+02101MA1999999100351MD1999999-0051REMSYN076AAXX  19124 82392 32499 31404 10274 20197 30035 40137 82130 333 20210 59005;
0137823920999992007061918004-03700-040350FM-12+008399999V0200501N001012200019N0500001N1+03291+01841101011ADDGF104991041021004501001001MA1999999099991MD1999999-0011REMSYN070AAXX  19184 82392 32499 40502 10329 20184 39999 40101 84200 333 59001;
0178823920999992007062000004-03700-040350FM-12+008399999V0203601N001012200019N0040001N1+02531+02171101341ADDGA1001+999999999GF100991001001999999001001KA1240M+03441MA1999999100321MD1999999+0061REMSYN082AAXX  20004 82392 32996 03602 10253 20217 30032 40134 333 10344 29066 55091 58006;
0156823920999992007062012004-03700-040350FM-12+008399999V0201401N002612200019N0500001N1+02701+02061101381ADDGF104991031011004501001011KA1240N+02001MA1999999100361MD1999999+0011REMSYN076AAXX  20124 82392 32499 41405 10270 20206 30036 40138 83101 333 20200 58001;
0137823920999992007062018004-03700-040350FM-12+008399999V0201401N001012200019N0500001N1+03401+01291101051ADDGF103991021011004501031001MA1999999100031MD1999999+0041REMSYN070AAXX  20184 82392 32499 31402 10340 20129 30003 40105 82130 333 58004;
0178823920999992007062100004-03700-040350FM-12+008399999V0209999C000012200019N0040001N1+02491+01801101301ADDGA1001+999999999GF100991001001999999001001KA1240M+03481MA1999999100281MD1999999-0041REMSYN082AAXX  21004 82392 32996 00000 10249 20180 30028 40130 333 10348 29057 55094 59004;
0156823920999992007062112004-03700-040350FM-12+008399999V0201801N002112200019N0500001N1+02861+01841101481ADDGF103991031021004501001001KA1240N+02041MA1999999100451MD1999999+0091REMSYN076AAXX  21124 82392 32499 31804 10286 20184 30045 40148 83200 333 20204 58009;
0137823920999992007062118004-03700-040350FM-12+008399999V0200901N001012200019N0500001N1+03271+01491101051ADDGF101991011011004501001001MA1999999100031MD1999999+0001REMSYN070AAXX  21184 82392 32499 10902 10327 20149 30003 40105 81100 333 58000;
0168823920999992007062200004-03700-040350FM-12+008399999V0200501N001512200019N0040001N1+02341+01761101331ADDGF102991021001008001031001KA1240M+03361MA1999999100311MD1999999+0031REMSYN088AAXX  22004 82392 32596 20503 10234 20176 30031 40133 82030 333 10336 29057 55101 58003;
0156823920999992007062212004-03700-040350FM-12+008399999V0201401N002612200019N0500001N1+02701+01571101361ADDGF102991021011004501001001KA1240N+01901MA1999999100331MD1999999-0121REMSYN076AAXX  22124 82392 32499 21405 10270 20157 30033 40136 82100 333 20190 59012;
0137823920999992007062218004-03700-040350FM-12+008399999V0200901N001512200019N0500001N1+03411+01511100841ADDGF101991011011004501001001MA1999999099821MD1999999-0211REMSYN070AAXX  22184 82392 32499 10903 10341 20151 39982 40084 81100 333 59021;
0168823920999992007062300004-03700-040350FM-12+008399999V0200501N001012200019N0040001N1+02601+01711101161ADDGF101991011001008001031001KA1240M+03471MA1999999100141MD1999999-0171REMSYN088AAXX  23004 82392 32596 10502 10260 20171 30014 40116 81030 333 10347 29050 55105 59017;
0156823920999992007062312004-03700-040350FM-12+008399999V0200501N004610042019N0500001N1+02781+01731101171ADDGF106991051041004501031001KA1240N+02001MA1999999100151MD1999999-0181REMSYN076AAXX  23124 82392 32499 60509 10278 20173 30015 40117 85430 333 20200 59018;
0137823920999992007062318004-03700-040350FM-12+008399999V0200901N001010450019N0500001N1+03151+01631100871ADDGF107991041051004501031001MA1999999099851MD1999999+0031REMSYN070AAXX  23184 82392 32499 70902 10315 20163 39985 40087 84530 333 58003;
0168823920999992007062400004-03700-040350FM-12+008399999V0203601N001012200019N0040001N1+02391+02071101191ADDGF101991011001008001031001KA1240M+03281MA1999999100171MD1999999+0031REMSYN088AAXX  24004 82392 32596 13602 10239 20207 30017 40119 81030 333 10328 29064 55058 58003;
0156823920999992007062412004-03700-040350FM-12+008399999V0201801N000510450019N0500001N1+02711+02151101311ADDGF106991041041004501031001KA1240N+02091MA1999999100291MD1999999+0141REMSYN076AAXX  24124 82392 32499 61801 10271 20215 30029 40131 84430 333 20209 58014;
0137823920999992007062418004-03700-040350FM-12+008399999V0209999C000012200019N0500001N1+03441+01631100881ADDGF103991031021004501001001MA1999999099861MD1999999+0011REMSYN070AAXX  24184 82392 32499 30000 10344 20163 39986 40088 83200 333 58001;
0178823920999992007062500004-03700-040350FM-12+008399999V0203601N000512200019N0040001N1+02571+02101101231ADDGA1001+999999999GF100991001001999999001001KA1240M+03511MA1999999100211MD1999999+0041REMSYN082AAXX  25004 82392 32996 03601 10257 20210 30021 40123 333 10351 29064 55093 58004;
0156823920999992007062512004-03700-040350FM-12+008399999V0201401N001510450019N0500001N1+02751+02021101531ADDGF105991031041004501031001KA1240N+02041MA1999999100501MD1999999+0211REMSYN076AAXX  25124 82392 32499 51403 10275 20202 30050 40153 83430 333 20204 58021;
0137823920999992007062518004-03700-040350FM-12+008399999V0202301N001012200019N0500001N1+03381+01661101041ADDGF104991041021004501001001MA1999999100021MD1999999+0161REMSYN070AAXX  25184 82392 32499 42302 10338 20166 30002 40104 84200 333 58016;
0168823920999992007062600004-03700-040350FM-12+008399999V0203601N000512200019N0040001N1+02561+01971101391ADDGF102991021001008001031001KA1240M+03511MA1999999100371MD1999999+0161REMSYN088AAXX  26004 82392 32596 23601 10256 20197 30037 40139 82030 333 10351 29060 55087 58016;
0156823920999992007062612004-03700-040350FM-12+008399999V0200901N002612200019N0500001N1+02691+02131101531ADDGF102991011011004501031001KA1240N+01801MA1999999100501MD1999999+0001REMSYN076AAXX  26124 82392 32499 20905 10269 20213 30050 40153 81130 333 20180 58000;
0137823920999992007062618004-03700-040350FM-12+008399999V0200901N000512200019N0500001N1+03361+01651101061ADDGF104991041021004501001001MA1999999100051MD1999999+0031REMSYN070AAXX  26184 82392 32499 40901 10336 20165 30005 40106 84200 333 58003;
0178823920999992007062700004-03700-040350FM-12+008399999V0203601N000512200019N0040001N1+02471+01831101391ADDGA1001+999999999GF100991001001999999001001KA1240M+03441MA1999999100371MD1999999+0001REMSYN082AAXX  27004 82392 32996 03601 10247 20183 30037 40139 333 10344 29060 55106 58000;
0156823920999992007062712004-03700-040350FM-12+008399999V0200901N003112200019N0500001N1+02811+02101101381ADDGF104991041021004501001001KA1240N+01881MA1999999100361MD1999999-0141REMSYN076AAXX  27124 82392 32499 40906 10281 20210 30036 40138 84200 333 20188 59014;
0137823920999992007062718004-03700-040350FM-12+008399999V0200501N002112200019N0500001N1+03421+01641100981ADDGF101991011011004501001001MA1999999099961MD1999999-0091REMSYN070AAXX  27184 82392 32499 10504 10342 20164 39996 40098 81100 333 59009;
0178823920999992007062800004-03700-040350FM-12+008399999V0203601N000512200019N0040001N1+02531+02091101311ADDGA1001+999999999GF100991001001999999001001KA1240M+03481MA1999999100291MD1999999-0081REMSYN082AAXX  28004 82392 32996 03601 10253 20209 30029 40131 333 10348 29063 55104 59008;
0201823920999992007062812004-03700-040350FM-12+008399999V0201801N000510042019N0500001N1+02571+02251101421ADDAA124004191AY161061AY261061GF107991061061004501031001KA1240N+02101MA1999999100411MD1999999+0051MW1021REMSYN088AAXX  28124 82392 21499 71801 10257 20225 30041 40142 70266 86630 333 20210 58005 60044;
0137823920999992007062818004-03700-040350FM-12+008399999V0201801N000510042019N0500001N1+02901+01901101021ADDGF107991061061004501031001MA1999999100001MD1999999+0041REMSYN070AAXX  28184 82392 32499 71801 10290 20190 30000 40102 86630 333 58004;
0168823920999992007062900004-03700-040350FM-12+008399999V0200501N002110042019N0040001N1+02601+02011101341ADDGF107991051051004501031001KA1240M+03181MA1999999100321MD1999999+0031REMSYN088AAXX  29004 82392 32496 70504 10260 20201 30032 40134 85530 333 10318 29069 55042 58003;
0201823920999992007062912004-03700-040350FM-12+008399999V0203201N001010450019N0500001N1+02381+02331101581ADDAA124000891AY161061AY221061GF108991041061004501021999KA1240N+02201MA1999999100541MD1999999+0131MW1021REMSYN088AAXX  29124 82392 21499 83202 10238 20233 30054 40158 70262 8462/ 333 20220 58013 69984;
0137823920999992007062918004-03700-040350FM-12+008399999V0202301N000510450019N0500001N1+03211+01881101141ADDGF106991031051004501031001MA1999999100121MD1999999+0121REMSYN070AAXX  29184 82392 32499 62301 10321 20188 30012 40114 83530 333 58012;
0168823920999992007063000004-03700-040350FM-12+008399999V0203601N002112200019N0040001N1+02601+01941101431ADDGF102991021011004501001001KA1240M+03361MA1999999100401MD1999999+0081REMSYN088AAXX  30004 82392 32496 23604 10260 20194 30040 40143 82100 333 10336 29069 55051 58008;
0156823920999992007063012004-03700-040350FM-12+008399999V0201401N001012200019N0500001N1+02771+01961101741ADDGF101991011011004501001001KA1240N+01981MA1999999100711MD1999999+0171REMSYN076AAXX  30124 82392 32499 11402 10277 20196 30071 40174 81100 333 20198 58017;
0137823920999992007063018004-03700-040350FM-12+008399999V0202701N000510450019N0500001N1+03461+01641101291ADDGF105991031021004501031001MA1999999100271MD1999999+0151REMSYN070AAXX  30184 82392 32499 52701 10346 20164 30027 40129 83230 333 58015;
0168823920999992007070100004-03700-040350FM-12+008399999V0200501N000512200019N0040001N1+02591+02171101591ADDGF104991041001008001031001KA1240M+03511MA1999999100571MD1999999+0171REMSYN088AAXX  01004 82392 32596 40501 10259 20217 30057 40159 84030 333 10351 29062 55096 58017;
0156823920999992007070112004-03700-040350FM-12+008399999V0201401N001510450019N0500001N1+02561+02191101761ADDGF108991041051008001021001KA1240N+02101MA1999999100731MD1999999+0021REMSYN076AAXX  01124 82392 32599 81403 10256 20219 30073 40176 84520 333 20210 58002;
0168823920999992007070200004-03700-040350FM-12+008399999V0203601N003112200019N0040001N1+02701+02111101551ADDGF102991021001008001031001KA1240M+03561MA1999999100521MD1999999-0051REMSYN088AAXX  02004 82392 32596 23606 10270 20211 30052 40155 82030 333 10356 29073 55076 59005;
0156823920999992007070212004-03700-040350FM-12+008399999V0201401N002112200019N0500001N1+02721+02001101651ADDGF104991041021004501001001KA1240N+02001MA1999999100621MD1999999-0111REMSYN076AAXX  02124 82392 32499 41404 10272 20200 30062 40165 84200 333 20200 59011;
0168823920999992007070300004-03700-040350FM-12+008399999V0200501N001012200019N0040001N1+02631+02181101411ADDGF102991021001008001011001KA1240M+03521MA1999999100391MD1999999-0131REMSYN088AAXX  03004 82392 32596 20502 10263 20218 30039 40141 82010 333 10352 29072 55090 59013;
0156823920999992007070312004-03700-040350FM-12+008399999V0201401N001010450019N0500001N1+02811+02071101601ADDGF105991041021004501011001KA1240N+02131MA1999999100571MD1999999-0051REMSYN076AAXX  03124 82392 32499 51402 10281 20207 30057 40160 84210 333 20213 59005;
0168823920999992007070400004-03700-040350FM-12+008399999V0203601N000512200019N0040001N1+02621+02101101441ADDGF101991011001008001031001KA1240M+03541MA1999999100421MD1999999+0031REMSYN088AAXX  04004 82392 32596 13601 10262 20210 30042 40144 81030 333 10354 29070 55101 58003;
0156823920999992007070412004-03700-040350FM-12+008399999V0200901N000512200019N0500001N1+02831+01881101621ADDGF104991031011004501031001KA1240N+02191MA1999999100591MD1999999+0021REMSYN076AAXX  04124 82392 32499 40901 10283 20188 30059 40162 83130 333 20219 58002;
0178823920999992007070500004-03700-040350FM-12+008399999V0200501N000512200019N0040001N1+02531+01781101481ADDGA1001+999999999GF100991001001999999001001KA1240M+03461MA1999999100451MD1999999+0031REMSYN082AAXX  05004 82392 32996 00501 10253 20178 30045 40148 333 10346 29061 55106 58003;
0156823920999992007070512004-03700-040350FM-12+008399999V0201801N001012200019N0500001N1+02791+01921101591ADDGF104991041021004501001001KA1240N+01941MA1999999100561MD1999999-0031REMSYN076AAXX  05124 82392 32499 41802 10279 20192 30056 40159 84200 333 20194 59003;
0168823920999992007070600004-03700-040350FM-12+008399999V0203601N001010042019N0040001N1+02761+02041101381ADDGF108991051051004501021999KA1240M+03521MA1999999100361MD1999999-0091REMSYN088AAXX  06004 82392 32496 83602 10276 20204 30036 40138 8552/ 333 10352 29063 55092 59009;
0156823920999992007070612004-03700-040350FM-12+008399999V0201801N001012200019N0500001N1+02841+01911101431ADDGF104991041021004501001001KA1240N+02041MA1999999100411MD1999999-0151REMSYN076AAXX  06124 82392 32499 41802 10284 20191 30041 40143 84200 333 20204 59015;
0178823920999992007070700004-03700-040350FM-12+008399999V0203601N001012200019N0040001N1+02541+02001101201ADDGA1001+999999999GF100991001001999999001001KA1240M+03431MA1999999100181MD1999999-0181REMSYN082AAXX  07004 82392 32996 03602 10254 20200 30018 40120 333 10343 29059 55102 59018;
0156823920999992007070712004-03700-040350FM-12+008399999V0201401N001012200019N0500001N1+02911+01571101361ADDGF101991011011004501001001KA1240N+02911MA1999999100341MD1999999-0071REMSYN076AAXX  07124 82392 32499 11402 10291 20157 30034 40136 81100 333 20291 59007;
0178823920999992007070800004-03700-040350FM-12+008399999V0203601N000512200019N0040001N1+02571+01941101171ADDGA1001+999999999GF100991001001999999001001KA1240M+03511MA1999999100151MD1999999-0031REMSYN082AAXX  08004 82392 32996 03601 10257 20194 30015 40117 333 10351 29051 55107 59003;
0168823920999992007070900004-03700-040350FM-12+008399999V0200501N002110042019N0040001N1+02671+02241101251ADDGF108991051041004501011999KA1240M+03441MA1999999100231MD1999999+0081REMSYN088AAXX  09004 82392 32496 80504 10267 20224 30023 40125 8541/ 333 10344 29064 55080 58008;
0201823920999992007070912004-03700-040350FM-12+008399999V0201401N000510450019N0500001N1+02711+02191101331ADDAA124000391AY151061AY251061GF105991031041004501031001KA1240N+02291MA1999999100311MD1999999+0041MW1021REMSYN088AAXX  09124 82392 21499 51401 10271 20219 30031 40133 70255 83430 333 20229 58004 69934;
0178823920999992007071000004-03700-040350FM-12+008399999V0202601N002112200019N0040001N1+02471+02151101171ADDGA1001+999999999GF100991001001999999001001KA1240M+03441MA1999999100151MD1999999-0081REMSYN082AAXX  10004 82392 32996 02604 10247 20215 30015 40117 333 10344 29079 55079 59008;
0156823920999992007071012004-03700-040350FM-12+008399999V0200901N003110450019N0500001N1+02841+01931101321ADDGF106991041051004501031001KA1240N+02131MA1999999100301MD1999999-0011REMSYN076AAXX  10124 82392 32499 60906 10284 20193 30030 40132 84530 333 20213 59001;
0168823920999992007071100004-03700-040350FM-12+008399999V0200501N000512200019N0040001N1+02571+02041101151ADDGF102991021001008001031001KA1240M+03411MA1999999100131MD1999999-0021REMSYN088AAXX  11004 82392 32596 20501 10257 20204 30013 40115 82030 333 10341 29067 55082 59002;
0156823920999992007071112004-03700-040350FM-12+008399999V0201401N002610042019N0500001N1+02761+01861101351ADDGF106991051021004501031001KA1240N+02081MA1999999100331MD1999999+0031REMSYN076AAXX  11124 82392 32499 61405 10276 20186 30033 40135 85230 333 20208 58003;
0178823920999992007071200004-03700-040350FM-12+008399999V0203601N002112200019N0040001N1+02631+02031101231ADDGA1001+999999999GF100991001001999999001001KA1240M+03371MA1999999100211MD1999999+0081REMSYN082AAXX  12004 82392 32996 03604 10263 20203 30021 40123 333 10337 29065 55084 58008;
0156823920999992007071212004-03700-040350FM-12+008399999V0201401N001512200019N0500001N1+02791+02001101431ADDGF104991041011004501001001KA1240N+02041MA1999999100411MD1999999+0081REMSYN076AAXX  12124 82392 32499 41403 10279 20200 30041 40143 84100 333 20204 58008;
0178823920999992007071300004-03700-040350FM-12+008399999V0203601N001512200019N0040001N1+02631+02071101311ADDGA1001+999999999GF100991001001999999001001KA1240M+03541MA1999999100291MD1999999+0081REMSYN082AAXX  13004 82392 32996 03603 10263 20207 30029 40131 333 10354 29068 55095 58008;
0201823920999992007071312004-03700-040350FM-12+008399999V0200901N000510042019N0500001N1+02661+02201101491ADDAA124000391AY101061AY221061GF107991061061004501031001KA1240N+02261MA1999999100461MD1999999+0051MW1211REMSYN088AAXX  13124 82392 21499 70901 10266 20220 30046 40149 72102 86630 333 20226 58005 69934;
0168823920999992007071400004-03700-040350FM-12+008399999V0203601N001510450019N0040001N1+02611+02211101311ADDGF106991041051004501031001KA1240M+03421MA1999999100291MD1999999+0001REMSYN088AAXX  14004 82392 32496 63603 10261 20221 30029 40131 84530 333 10342 29077 55048 58000;
0156823920999992007071412004-03700-040350FM-12+008399999V0200901N000510042019N0500001N1+02741+02101101421ADDGF106991051061004501031001KA1240N+02161MA1999999100401MD1999999-0061REMSYN076AAXX  14124 82392 32499 60901 10274 20210 30040 40142 85630 333 20216 59006;
0168823920999992007071500004-03700-040350FM-12+008399999V0203601N001012200019N0040001N1+02691+02201101151ADDGF103991021021004501031001KA1240M+03541MA1999999100131MD1999999-0161REMSYN088AAXX  15004 82392 32496 33602 10269 20220 30013 40115 82230 333 10354 29072 55068 59016;
0201823920999992007071512004-03700-040350FM-12+008399999V0200901N001010450019N0500001N1+02681+02281101341ADDAA124002091AY161061AY261061GF106991041061004501031001KA1240N+02251MA1999999100321MD1999999-0081MW1021REMSYN088AAXX  15124 82392 21499 60902 10268 20228 30032 40134 70266 84630 333 20225 59008 60024;
0178823920999992007071600004-03700-040350FM-12+008399999V0203601N001012200019N0040001N1+02571+02121101171ADDGA1001+999999999GF100991001001999999001001KA1240M+03511MA1999999100151MD1999999+0021REMSYN082AAXX  16004 82392 32996 03602 10257 20212 30015 40117 333 10351 29077 55077 58002;
0220823920999992007071612004-03700-040350FM-12+008399999V0201801N000512200019N0500001N1+02681+02201101301ADDAA124000091AY151061AY251061GF104991031041004501031001KA1240N+02151MA1999999100281MD1999999-0041MW1021REMSYN088AAXX  16124 82392 21499 41801 10268 20220 30028 40130 70255 83430 333 20215 59004 69914;EQDQ01  00002PRCP24
0178823920999992007071700004-03700-040350FM-12+008399999V0200501N003112200019N0040001N1+02551+02081101121ADDGA1001+999999999GF100991001001999999001001KA1240M+03521MA1999999100101MD1999999-0051REMSYN082AAXX  17004 82392 32996 00506 10255 20208 30010 40112 333 10352 29075 55088 59005;
0156823920999992007071712004-03700-040350FM-12+008399999V0202301N000510042019N0500001N1+02571+02171101401ADDGF107991061041004501031001KA1240N+02001MA1999999100381MD1999999+0101REMSYN076AAXX  17124 82392 32499 72301 10257 20217 30038 40140 86430 333 20200 58010;
0178823920999992007071800004-03700-040350FM-12+008399999V0203601N000512200019N0040001N1+02571+02081101221ADDGA1001+999999999GF100991001001999999001001KA1240M+03561MA1999999100201MD1999999+0101REMSYN082AAXX  18004 82392 32996 03601 10257 20208 30020 40122 333 10356 29075 55079 58010;
0156823920999992007071812004-03700-040350FM-12+008399999V0201801N000510042019N0500001N1+02661+02091101311ADDGF106991051041004501031001KA1240N+01991MA1999999100291MD1999999-0091REMSYN076AAXX  18124 82392 32499 61801 10266 20209 30029 40131 85430 333 20199 59009;
0178823920999992007071900004-03700-040350FM-12+008399999V0203601N003112200019N0040001N1+02571+02101101161ADDGA1001+999999999GF100991001001999999001001KA1240M+03661MA1999999100141MD1999999-0061REMSYN082AAXX  19004 82392 32996 03606 10257 20210 30014 40116 333 10366 29074 55094 59006;
0156823920999992007071912004-03700-040350FM-12+008399999V0200901N001512200019N0500001N1+02841+02121101351ADDGF104991041021004501001001KA1240N+02151MA1999999100331MD1999999+0041REMSYN076AAXX  19124 82392 32499 40903 10284 20212 30033 40135 84200 333 20215 58004;
0168823920999992007072000004-03700-040350FM-12+008399999V0200501N001012200019N0040001N1+02581+01741101081ADDGF101991011021004501001001KA1240M+03561MA1999999100061MD1999999-0081REMSYN088AAXX  20004 82392 32496 10502 10258 20174 30006 40108 81200 333 10356 29062 55102 59008;
0156823920999992007072012004-03700-040350FM-12+008399999V0200901N001012200019N0500001N1+02791+01981101361ADDGF102991021021004501001001KA1240N+02091MA1999999100341MD1999999+0011REMSYN076AAXX  20124 82392 32499 20902 10279 20198 30034 40136 82200 333 20209 58001;
0156823920999992007072112004-03700-040350FM-12+008399999V0200901N001012200019N0500001N1+02821+01911101531ADDGF104991041021004501001001KA1240N+01901MA1999999100501MD1999999+0161REMSYN076AAXX  21124 82392 32499 40902 10282 20191 30050 40153 84200 333 20190 58016;
0178823920999992007072200004-03700-040350FM-12+008399999V0203601N002112200019N0040001N1+02531+01781101261ADDGA1001+999999999GF100991001001999999001001KA1240M+03481MA1999999100241MD1999999+0041REMSYN082AAXX  22004 82392 32996 03604 10253 20178 30024 40126 333 10348 29061 55106 58004;
0156823920999992007072212004-03700-040350FM-12+008399999V0209999C000012200019N0500001N1+02701+01831101311ADDGF102991021011004501001001KA1240N+01821MA1999999100291MD1999999-0211REMSYN076AAXX  22124 82392 32499 20000 10270 20183 30029 40131 82100 333 20182 59021;
0168823920999992007072300004-03700-040350FM-12+008399999V0203601N001012200019N0040001N1+02571+02101101141ADDGF102991021001008001031001KA1240M+03611MA1999999100121MD1999999-0121REMSYN088AAXX  23004 82392 32596 23602 10257 20210 30012 40114 82030 333 10361 29070 55090 59012;
0156823920999992007072312004-03700-040350FM-12+008399999V0200901N000510450019N0500001N1+02731+02121101271ADDGF105991041041004501031001KA1240N+02341MA1999999100251MD1999999-0041REMSYN076AAXX  23124 82392 32499 50901 10273 20212 30025 40127 84430 333 20234 59004;
0168823920999992007072400004-03700-040350FM-12+008399999V0203601N001012200019N0040001N1+02521+02191101231ADDGF102991021001008001031001KA1240M+03181MA1999999100211MD1999999-0091REMSYN088AAXX  24004 82392 32596 23602 10252 20219 30021 40123 82030 333 10318 29078 55028 59009;
0156823920999992007072412004-03700-040350FM-12+008399999V0201401N001010450019N0500001N1+02711+02051101361ADDGF106991041061004501031001KA1240N+02101MA1999999100341MD1999999+0091REMSYN076AAXX  24124 82392 32499 61402 10271 20205 30034 40136 84630 333 20210 58009;
0178823920999992007072500004-03700-040350FM-12+008399999V0203601N001512200019N0040001N1+02571+01901101151ADDGA1001+999999999GF100991001001999999001001KA1240M+03501MA1999999100131MD1999999-0081REMSYN082AAXX  25004 82392 32996 03603 10257 20190 30013 40115 333 10350 29066 55096 59008;
0156823920999992007072512004-03700-040350FM-12+008399999V0201401N001012200019N0500001N1+02811+01891101361ADDGF103991031011004501001001KA1240N+01911MA1999999100341MD1999999+0001REMSYN076AAXX  25124 82392 32499 31402 10281 20189 30034 40136 83100 333 20191 58000;
0156823920999992007072612004-03700-040350FM-12+008399999V0201401N000510042019N0500001N1+02671+02061101631ADDGF107991051051004501031001KA1240N+02021MA1999999100601MD1999999+0261REMSYN076AAXX  26124 82392 32499 71401 10267 20206 30060 40163 85530 333 20202 58026;
0168823920999992007072700004-03700-040350FM-12+008399999V0203601N001012200019N0040001N1+02601+02011101351ADDGF101991011001008001031001KA1240M+03541MA1999999100331MD1999999+0011REMSYN088AAXX  27004 82392 32596 13602 10260 20201 30033 40135 81030 333 10354 29070 55078 58001;
0156823920999992007072712004-03700-040350FM-12+008399999V0200901N000510042019N0500001N1+02771+02061101511ADDGF105991051021004501001001KA1240N+02091MA1999999100481MD1999999-0121REMSYN076AAXX  27124 82392 32499 50901 10277 20206 30048 40151 85200 333 20209 59012;
0178823920999992007072800004-03700-040350FM-12+008399999V0203601N001512200019N0040001N1+02611+02121101241ADDGA1001+999999999GF100991001001999999001001KA1240M+03531MA1999999100221MD1999999-0111REMSYN082AAXX  28004 82392 32996 03603 10261 20212 30022 40124 333 10353 29071 55098 59011;
0156823920999992007072812004-03700-040350FM-12+008399999V0200901N001010450019N0500001N1+02831+01911101431ADDGF105991031021004501031001KA1240N+02231MA1999999100411MD1999999-0071REMSYN076AAXX  28124 82392 32499 50902 10283 20191 30041 40143 83230 333 20223 59007;
0178823920999992007072900004-03700-040350FM-12+008399999V0200501N000512200019N0040001N1+02591+01681101231ADDGA1001+999999999GF100991001001999999001001KA1240M+03471MA1999999100211MD1999999-0011REMSYN082AAXX  29004 82392 32596 00501 10259 20168 30021 40123 333 10347 29057 55074 59001;
0156823920999992007072912004-03700-040350FM-12+008399999V0201401N000512200019N0500001N1+02831+01851101401ADDGF101991011011004501001001KA1240N+01921MA1999999100381MD1999999-0041REMSYN076AAXX  29124 82392 32499 11401 10283 20185 30038 40140 81100 333 20192 59004;
0168823920999992007073000004-03700-040350FM-12+008399999V0203601N001012200019N0040001N1+03731+01951101121ADDGF102991021001008001031001KA1240M+03711MA1999999100101MD1999999-0111REMSYN088AAXX  30004 82392 32596 23602 10373 20195 30010 40112 82030 333 10371 29058 55107 59011;
0156823920999992007073012004-03700-040350FM-12+008399999V0201401N001010450019N0500001N1+02831+02041101301ADDGF106991041041004501031001KA1240N+02041MA1999999100281MD1999999-0101REMSYN076AAXX  30124 82392 32499 61402 10283 20204 30028 40130 84430 333 20204 59010;
0168823920999992007073100004-03700-040350FM-12+008399999V0203601N001012200019N0040001N1+02691+02081101181ADDGF102991021001008001031001KA1240M+03641MA1999999100161MD1999999+0101REMSYN088AAXX  31004 82392 32596 23602 10269 20208 30016 40118 82030 333 10364 29067 55099 58010;
0156823920999992007073112004-03700-040350FM-12+008399999V0201801N001512200019N0500001N1+02831+01731101391ADDGF101991011011004501001001KA1240N+02151MA1999999100371MD1999999+0091REMSYN076AAXX  31124 82392 32499 11803 10283 20173 30037 40139 81100 333 20215 58009;
0123823920999992007073118004-03700-040350FM-12+008399999V0201401N001012200019N0500001N1+03471+01571100831ADDGF103991031021004501001001MA1999999099821REMSYN070AAXX  31184 82392 32499 31402 10347 20157 39982 40083 83200 333 5////;
0168823920999992007080100004-03700-040350FM-12+008399999V0201401N001012200019N0040001N1+02831+01601101121ADDGF102991021001008001031001KA1240M+03541MA1999999100101MD1999999-0061REMSYN088AAXX  01004 82392 32596 21402 10283 20160 30010 40112 82030 333 10354 29044 55108 59006;
0156823920999992007080112004-03700-040350FM-12+008399999V0201801N001010450019N0500001N1+02761+01801101361ADDGF106991041061004501031001KA1240N+02291MA1999999100341MD1999999-0031REMSYN076AAXX  01124 82392 32499 61802 10276 20180 30034 40136 84630 333 20229 59003;
0137823920999992007080118004-03700-040350FM-12+008399999V0201401N001010042019N0500001N1+03251+01641100951ADDGF105991051021004501001001MA1999999099931MD1999999+0111REMSYN070AAXX  01184 82392 32499 51402 10325 20164 39993 40095 85200 333 58011;
0178823920999992007080200004-03700-040350FM-12+008399999V0203601N001512200019N0040001N1+02591+01891101261ADDGA1001+999999999GF100991001001999999001001KA1240M+03341MA1999999100241MD1999999+0141REMSYN082AAXX  02004 82392 32996 03603 10259 20189 30024 40126 333 10334 29056 55067 58014;
0156823920999992007080212004-03700-040350FM-12+008399999V0200901N000510450019N0500001N1+02811+01891101411ADDGF106991041041004501031001KA1240N+02341MA1999999100391MD1999999+0051REMSYN076AAXX  02124 82392 32499 60901 10281 20189 30039 40141 84430 333 20234 58005;
0137823920999992007080218004-03700-040350FM-12+008399999V0200901N001010042019N0500001N1+03301+01761101061ADDGF105991051021004501001001MA1999999100041MD1999999+0111REMSYN070AAXX  02184 82392 32499 50902 10330 20176 30004 40106 85200 333 58011;
0178823920999992007080300004-03700-040350FM-12+008399999V0203601N003112200019N0040001N1+02691+02061101281ADDGA1001+999999999GF100991001001999999001001KA1240M+03401MA1999999100261MD1999999+0021REMSYN082AAXX  03004 82392 32996 03606 10269 20206 30026 40128 333 10340 29038 55080 58002;
0175823920999992007080312004-03700-040350FM-12+008399999V0200901N004612200019N0500001N1+02841+01881101531ADDGF102991999011004501001001KA1240N+02101MA1999999100501MD1999999+0111REMSYN076AAXX  03124 82392 32499 20909 10284 20188 30050 40153 81100 333 20210 58011;EQDQ01+000012SCOTLC
0137823920999992007080318004-03700-040350FM-12+008399999V0201401N000512200019N0500001N1+03451+01341101011ADDGF102991021011004501001001MA1999999100001MD1999999-0041REMSYN070AAXX  03184 82392 32499 21401 10345 20134 30000 40101 82100 333 59004;
0178823920999992007080400004-03700-040350FM-12+008399999V0203601N002612200019N0040001N1+02681+01891101271ADDGA1001+999999999GF100991001001999999001001KA1240M+03541MA1999999100251MD1999999-0011REMSYN082AAXX  04004 82392 32996 03605 10268 20189 30025 40127 333 10354 29052 55108 59001;
0156823920999992007080412004-03700-040350FM-12+008399999V0201401N001012200019N0500001N1+02871+01831101451ADDGF102991011011004501031001KA1240N+02031MA1999999100431MD1999999-0071REMSYN076AAXX  04124 82392 32499 21402 10287 20183 30043 40145 81130 333 20203 59007;
0137823920999992007080418004-03700-040350FM-12+008399999V0200501N000510042019N0500001N1+03611+01531100911ADDGF105991051021004501001001MA1999999099901MD1999999-0101REMSYN070AAXX  04184 82392 32499 50501 10361 20153 39990 40091 85200 333 59010;
0178823920999992007080500004-03700-040350FM-12+008399999V0203601N001012200019N0040001N1+02651+01921101251ADDGA1001+999999999GF100991001001999999001001KA1240M+03641MA1999999100231MD1999999-0021REMSYN082AAXX  05004 82392 32996 03602 10265 20192 30023 40125 333 10364 29053 55098 59002;
0156823920999992007080512004-03700-040350FM-12+008399999V0201401N001012200019N0500001N1+02741+01921101441ADDGF103991011011004501031001KA1240N+01921MA1999999100421MD1999999-0011REMSYN076AAXX  05124 82392 32499 31402 10274 20192 30042 40144 81130 333 20192 59001;
0137823920999992007080518004-03700-040350FM-12+008399999V0201801N001012200019N0500001N1+03601+01161100871ADDGF103991031021004501001001MA1999999099851MD1999999-0051REMSYN070AAXX  05184 82392 32499 31802 10360 20116 39985 40087 83200 333 59005;
0178823920999992007080600004-03700-040350FM-12+008399999V0203601N002112200019N0040001N1+02761+02041101121ADDGA1001+999999999GF100991001001999999001001KA1240M+03681MA1999999100121MD1999999-0111REMSYN082AAXX  06004 82392 32996 03604 10276 20204 30012 40112 333 10368 29050 55097 59011;
0156823920999992007080612004-03700-040350FM-12+008399999V0201801N001512200019N0500001N1+02741+01891101421ADDGF102991021011004501001001KA1240N+02041MA1999999100401MD1999999-0021REMSYN076AAXX  06124 82392 32499 21803 10274 20189 30040 40142 82100 333 20204 59002;
0137823920999992007080618004-03700-040350FM-12+008399999V0200501N003112200019N0500001N1+03581+01431100961ADDGF103991031011004501001001MA1999999099941MD1999999+0091REMSYN070AAXX  06184 82392 32499 30506 10358 20143 39994 40096 83100 333 58009;
0178823920999992007080700004-03700-040350FM-12+008399999V0203601N001012200019N0040001N1+02671+01941101161ADDGA1001+999999999GF100991001001999999001001KA1240M+03541MA1999999100141MD1999999+0021REMSYN082AAXX  07004 82392 32996 03602 10267 20194 30014 40116 333 10354 29054 55095 58002;
0156823920999992007080712004-03700-040350FM-12+008399999V0200901N002612200019N0500001N1+02941+02001101421ADDGF104991041021004501001001KA1240N+02101MA1999999100401MD1999999+0001REMSYN076AAXX  07124 82392 32499 40905 10294 20200 30040 40142 84200 333 20210 58000;
0137823920999992007080718004-03700-040350FM-12+008399999V0201401N000512200019N0500001N1+03441+01531100931ADDGF103991031011004501001001MA1999999099921MD1999999-0021REMSYN070AAXX  07184 82392 32499 31401 10344 20153 39992 40093 83100 333 59002;
0178823920999992007080800004-03700-040350FM-12+008399999V0203601N000512200019N0040001N1+02751+01891101191ADDGA1001+999999999GF100991001001999999001001KA1240M+03541MA1999999100181MD1999999+0041REMSYN082AAXX  08004 82392 32996 03601 10275 20189 30018 40119 333 10354 29052 55107 58004;
0156823920999992007080812004-03700-040350FM-12+008399999V0201401N002110042019N0500001N1+02891+02041101461ADDGF105991051021004501001001KA1240N+02191MA1999999100441MD1999999+0041REMSYN076AAXX  08124 82392 32499 51404 10289 20204 30044 40146 85200 333 20219 58004;
0137823920999992007080818004-03700-040350FM-12+008399999V0201401N001510042019N0500001N1+03381+01621100971ADDGF105991051021004501001001MA1999999099951MD1999999+0031REMSYN070AAXX  08184 82392 32499 51403 10338 20162 39995 40097 85200 333 58003;
0178823920999992007080900004-03700-040350FM-12+008399999V0203601N002112200019N0040001N1+02611+01961101221ADDGA1001+999999999GF100991001001999999001001KA1240M+03471MA1999999100201MD1999999+0021REMSYN082AAXX  09004 82392 32996 03604 10261 20196 30020 40122 333 10347 29058 55098 58002;
0156823920999992007080912004-03700-040350FM-12+008399999V0201401N001012200019N0500001N1+02841+01791101371ADDGF104991041021004501001001KA1240N+02271MA1999999100351MD1999999-0091REMSYN076AAXX  09124 82392 32499 41402 10284 20179 30035 40137 84200 333 20227 59009;
0135823920999992007080918004-03700-040350FM-12+008399999V0200901N000512200019N0020001N1+03491+01531100801ADDGF103991999999004501999999MD1999999-0161REMSYN064AAXX  09184 82392 32495 30901 10349 20153 31000 40080 333 59016;EQDQ01+010001APOSP 
0178823920999992007081000004-03700-040350FM-12+008399999V0203601N004612200019N0040001N1+02701+02061101121ADDGA1001+999999999GF100991001001999999001001KA1240M+03581MA1999999100101MD1999999-0101REMSYN082AAXX  10004 82392 32996 03609 10270 20206 30010 40112 333 10358 29055 55098 59010;
0156823920999992007081012004-03700-040350FM-12+008399999V0201401N001012200019N0500001N1+02881+02031101341ADDGF102991021011004501001001KA1240N+02011MA1999999100321MD1999999-0031REMSYN076AAXX  10124 82392 32499 21402 10288 20203 30032 40134 82100 333 20201 59003;
0137823920999992007081018004-03700-040350FM-12+008399999V0209999C000012200019N0500001N1+03631+01381100791ADDGF102991011011004501031001MA1999999099781MD1999999-0011REMSYN070AAXX  10184 82392 32499 20000 10363 20138 39978 40079 81130 333 59001;
0178823920999992007081100004-03700-040350FM-12+008399999V0200501N002612200019N0040001N1+02691+02011101141ADDGA1001+999999999GF100991001001999999001001KA1240M+03701MA1999999100121MD1999999+0021REMSYN082AAXX  11004 82392 32996 00505 10269 20201 30012 40114 333 10370 29054 55105 58002;
0156823920999992007081112004-03700-040350FM-12+008399999V0200501N004612200019N0500001N1+02891+01961101381ADDGF101991011011004501001001KA1240N+02101MA1999999100361MD1999999+0041REMSYN076AAXX  11124 82392 32499 10509 10289 20196 30036 40138 81100 333 20210 58004;
0137823920999992007081118004-03700-040350FM-12+008399999V0201401N002112200019N0500001N1+03401+01721100921ADDGF103991031021004501001001MA1999999099901MD1999999+0121REMSYN070AAXX  11184 82392 32499 31404 10340 20172 39990 40092 83200 333 58012;
0178823920999992007081200004-03700-040350FM-12+008399999V0203601N004112200019N0040001N1+02741+02261101261ADDGA1001+999999999GF100991001001999999001001KA1240M+03521MA1999999100241MD1999999+0121REMSYN082AAXX  12004 82392 32996 03608 10274 20226 30024 40126 333 10352 29062 55098 58012;
0156823920999992007081212004-03700-040350FM-12+008399999V0201401N001512200019N0500001N1+02911+01531101361ADDGF101991011011004501001001KA1240N+02201MA1999999100341MD1999999-0021REMSYN076AAXX  12124 82392 32499 11403 10291 20153 30034 40136 81100 333 20220 59002;
0137823920999992007081218004-03700-040350FM-12+008399999V0200901N000512200019N0500001N1+03421+01471100851ADDGF104991041021004501001001MA1999999099841MD1999999-0061REMSYN070AAXX  12184 82392 32499 40901 10342 20147 39984 40085 84200 333 59006;
0178823920999992007081300004-03700-040350FM-12+008399999V0203601N001012200019N0040001N1+02651+02091101241ADDGA1001+999999999GF100991001001999999001001KA1240M+03581MA1999999100221MD1999999-0021REMSYN082AAXX  13004 82392 32996 03602 10265 20209 30022 40124 333 10358 29054 55088 59002;
0156823920999992007081312004-03700-040350FM-12+008399999V0201401N003112200019N0500001N1+02841+01821101441ADDGF102991021011004501001001KA1240N+02101MA1999999100421MD1999999+0081REMSYN076AAXX  13124 82392 32499 21406 10284 20182 30042 40144 82100 333 20210 58008;
0137823920999992007081318004-03700-040350FM-12+008399999V0201801N001512200019N0500001N1+03601+00951100881ADDGF101991011001004501031001MA1999999099871MD1999999+0031REMSYN070AAXX  13184 82392 32499 11803 10360 20095 39987 40088 81030 333 58003;
0168823920999992007081400004-03700-040350FM-12+008399999V0203601N001019999999N0040001N1+02751+01911101191ADDGF106991061001008001091001KA1240M+03661MA1999999100171MD1999999-0051REMSYN088AAXX  14004 82392 32596 63602 10275 20191 30017 40119 86090 333 10366 29049 55104 59005;
0156823920999992007081412004-03700-040350FM-12+008399999V0201801N002612200019N0500001N1+02801+01951101321ADDGF104991041021004501001001KA1240N+02021MA1999999100301MD1999999-0121REMSYN076AAXX  14124 82392 32499 41805 10280 20195 30030 40132 84200 333 20202 59012;
0137823920999992007081418004-03700-040350FM-12+008399999V0201401N002110450019N0500001N1+03331+01581100931ADDGF106991031021004501031001MA1999999099911MD1999999+0041REMSYN070AAXX  14184 82392 32499 61404 10333 20158 39991 40093 83230 333 58004;
0168823920999992007081500004-03700-040350FM-12+008399999V0200901N001510450019N0040001N1+02931+01721101221ADDGF106991031021004501031001KA1240M+03431MA1999999100211MD1999999+0041REMSYN088AAXX  15004 82392 32496 60903 10293 20172 30021 40122 83230 333 10343 29048 55071 58004;
0156823920999992007081512004-03700-040350FM-12+008399999V0200901N001012200019N0500001N1+02771+01821101311ADDGF101991011011004501001001KA1240N+02001MA1999999100301MD1999999+0001REMSYN076AAXX  15124 82392 32499 10902 10277 20182 30030 40131 81100 333 20200 58000;
0137823920999992007081518004-03700-040350FM-12+008399999V0201401N001012200019N0500001N1+03501+01201100911ADDGF101991011011004501001001MA1999999099901MD1999999-0011REMSYN070AAXX  15184 82392 32499 11402 10350 20120 39990 40091 81100 333 59001;
0178823920999992007081600004-03700-040350FM-12+008399999V0203601N001012200019N0040001N1+02631+01831101151ADDGA1001+999999999GF100991001001999999001001KA1240M+03531MA1999999100131MD1999999-0081REMSYN082AAXX  16004 82392 32996 03602 10263 20183 30013 40115 333 10353 29051 55109 59008;
0156823920999992007081612004-03700-040350FM-12+008399999V0201801N002112200019N0500001N1+02791+01601101351ADDGF104991011011004501031001KA1240N+02101MA1999999100331MD1999999+0031REMSYN076AAXX  16124 82392 32499 41804 10279 20160 30033 40135 81130 333 20210 58003;
0137823920999992007081618004-03700-040350FM-12+008399999V0201401N001512200019N0500001N1+03471+01521100851ADDGF102991021011004501001001MA1999999099841MD1999999-0061REMSYN070AAXX  16184 82392 32499 21403 10347 20152 39984 40085 82100 333 59006;
0168823920999992007081700004-03700-040350FM-12+008399999V0200501N003112200019N0040001N1+02921+01741101121ADDGF102991021001999999031001KA1240M+03601MA1999999100111MD1999999+0021REMSYN088AAXX  17004 82392 32996 20506 10292 20174 30011 40112 82030 333 10360 29044 55101 58002;
0156823920999992007081712004-03700-040350FM-12+008399999V0201801N001512200019N0500001N1+02801+02081101231ADDGF102991021011004501001001KA1240N+02001MA1999999100221MD1999999-0111REMSYN076AAXX  17124 82392 32499 21803 10280 20208 30022 40123 82100 333 20200 59011;
0137823920999992007081718004-03700-040350FM-12+008399999V0201401N001512200019N0500001N1+03541+01621100671ADDGF102991021011004501001001MA1999999099651MD1999999-0191REMSYN070AAXX  17184 82392 32499 21403 10354 20162 39965 40067 82100 333 59019;
0178823920999992007081800004-03700-040350FM-12+008399999V0203601N004612200019N0040001N1+02681+02201101041ADDGA1001+999999999GF100991001001999999001001KA1240M+03641MA1999999100021MD1999999-0091REMSYN082AAXX  18004 82392 32996 03609 10268 20220 30002 40104 333 10364 29062 55107 59009;
0156823920999992007081812004-03700-040350FM-12+008399999V0200901N000512200019N0500001N1+02901+01591101271ADDGF101991011011004501001001KA1240N+01911MA1999999100251MD1999999+0031REMSYN076AAXX  18124 82392 32499 10901 10290 20159 30025 40127 81100 333 20191 58003;
0137823920999992007081818004-03700-040350FM-12+008399999V0201401N000512200019N0500001N1+03501+01381100811ADDGF102991021011004501001001MA1999999099791MD1999999+0141REMSYN070AAXX  18184 82392 32499 21401 10350 20138 39979 40081 82100 333 58014;
0178823920999992007081900004-03700-040350FM-12+008399999V0203601N001012200019N0040001N1+02591+01841101241ADDGA1001+999999999GF100991001001999999001001KA1240M+03571MA1999999100221MD1999999+0201REMSYN082AAXX  19004 82392 32996 03602 10259 20184 30022 40124 333 10357 29050 55109 58020;
0156823920999992007081912004-03700-040350FM-12+008399999V0200501N004610042019N0500001N1+02661+02041101491ADDGF106991061041004501001001KA1240N+02001MA1999999100461MD1999999+0211REMSYN076AAXX  19124 82392 32499 60509 10266 20204 30046 40149 86400 333 20200 58021;
0137823920999992007081918004-03700-040350FM-12+008399999V0200501N005712200019N0500001N1+03461+01691101061ADDGF104991041021004501001001MA1999999100041MD1999999+0251REMSYN070AAXX  19184 82392 32499 40511 10346 20169 30004 40106 84200 333 58025;
0168823920999992007082000004-03700-040350FM-12+008399999V0203601N005112200019N0040001N1+02681+02091101321ADDGF101991011001008001031001KA1240M+03551MA1999999100301MD1999999+0081REMSYN088AAXX  20004 82392 32596 13610 10268 20209 30030 40132 81030 333 10355 29061 55089 58008;
0156823920999992007082012004-03700-040350FM-12+008399999V0200901N004112200019N0500001N1+02861+02011101521ADDGF101991011011004501001001KA1240N+02101MA1999999100491MD1999999+0031REMSYN076AAXX  20124 82392 32499 10908 10286 20201 30049 40152 81100 333 20210 58003;
0137823920999992007082018004-03700-040350FM-12+008399999V0200501N004612200019N0500001N1+03601+01291100951ADDGF103991031021004501001001MA1999999099941MD1999999-0101REMSYN070AAXX  20184 82392 32499 30509 10360 20129 39994 40095 83200 333 59010;
0168823920999992007082100004-03700-040350FM-12+008399999V0203601N002112200019N0040001N1+02671+02021101251ADDGF101991011001008001031001KA1240M+03661MA1999999100231MD1999999-0071REMSYN088AAXX  21004 82392 32596 13604 10267 20202 30023 40125 81030 333 10366 29055 55103 59007;
0156823920999992007082112004-03700-040350FM-12+008399999V0200901N002110042019N0500001N1+02821+02201101401ADDGF107991051051004501031001KA1240N+02411MA1999999100381MD1999999-0111REMSYN076AAXX  21124 82392 32499 70904 10282 20220 30038 40140 85530 333 20241 59011;
0137823920999992007082118004-03700-040350FM-12+008399999V0201401N000510450019N0500001N1+03571+01701100891ADDGF106991041021004501031001MA1999999099881MD1999999-0061REMSYN070AAXX  21184 82392 32499 61401 10357 20170 39988 40089 84230 333 59006;
0168823920999992007082200004-03700-040350FM-12+008399999V0200501N005112200019N0040001N1+02671+02061101211ADDGF102991021001008001031001KA1240M+03601MA1999999100191MD1999999-0041REMSYN088AAXX  22004 82392 32596 20510 10267 20206 30019 40121 82030 333 10360 29060 55081 59004;
0156823920999992007082212004-03700-040350FM-12+008399999V0200901N002112200019N0500001N1+02821+01941101421ADDGF104991041021004501001001KA1240N+02401MA1999999100401MD1999999+0021REMSYN076AAXX  22124 82392 32499 40904 10282 20194 30040 40142 84200 333 20240 58002;
0178823920999992007082300004-03700-040350FM-12+008399999V0203601N002112200019N0040001N1+02611+01831101081ADDGA1001+999999999GF100991001001999999001001KA1240M+03661MA1999999100061MD1999999-0131REMSYN082AAXX  23004 82392 32996 03604 10261 20183 30006 40108 333 10366 29052 55105 59013;
0156823920999992007082312004-03700-040350FM-12+008399999V0200901N002110450019N0500001N1+02761+01941101311ADDGF105991031021004501031001KA1240N+02141MA1999999100291MD1999999-0111REMSYN076AAXX  23124 82392 32499 50904 10276 20194 30029 40131 83230 333 20214 59011;
0137823920999992007082318004-03700-040350FM-12+008399999V0200901N001012200019N0500001N1+03421+01561100811ADDGF103991031021004501001001MA1999999099791MD1999999-0061REMSYN070AAXX  23184 82392 32499 30902 10342 20156 39979 40081 83200 333 59006;
0178823920999992007082400004-03700-040350FM-12+008399999V0200501N003112200019N0040001N1+02541+01831101111ADDGA1001+999999999GF100991001001999999001001KA1240M+03521MA1999999100091MD1999999+0031REMSYN082AAXX  24004 82392 32996 00506 10254 20183 30009 40111 333 10352 29056 55105 58003;
0156823920999992007082412004-03700-040350FM-12+008399999V0200901N001012200019N0500001N1+02801+01661101251ADDGF102991021011004501001001KA1240N+02031MA1999999100231MD1999999-0061REMSYN076AAXX  24124 82392 32499 20902 10280 20166 30023 40125 82100 333 20203 59006;
0137823920999992007082418004-03700-040350FM-12+008399999V0200501N001512200019N0500001N1+03511+01501100751ADDGF104991041021004501001001MA1999999099731MD1999999-0061REMSYN070AAXX  24184 82392 32499 40503 10351 20150 39973 40075 84200 333 59006;
0178823920999992007082500004-03700-040350FM-12+008399999V0203601N002612200019N0040001N1+02661+02021101071ADDGA1001+999999999GF100991001001999999001001KA1240M+03541MA1999999100051MD1999999-0041REMSYN082AAXX  25004 82392 32996 03605 10266 20202 30005 40107 333 10354 29054 55108 59004;
0156823920999992007082512004-03700-040350FM-12+008399999V0201801N000512200019N0500001N1+02901+02041101121ADDGF101991011011004501001001KA1240N+02091MA1999999100101MD1999999-0131REMSYN076AAXX  25124 82392 32499 11801 10290 20204 30010 40112 81100 333 20209 59013;
0168823920999992007082600004-03700-040350FM-12+008399999V0203601N004612200019N0040001N1+02701+02151100991ADDGF102991021001004501031001KA1240M+03701MA1999999099971MD1999999-0081REMSYN088AAXX  26004 82392 32496 23609 10270 20215 39997 40099 82030 333 10370 29058 55097 59008;
0156823920999992007082612004-03700-040350FM-12+008399999V0201401N001512200019N0500001N1+02941+01691101311ADDGF102991021011004501001001KA1240N+02271MA1999999100291MD1999999+0191REMSYN076AAXX  26124 82392 32499 21403 10294 20169 30029 40131 82100 333 20227 58019;
0137823920999992007082618004-03700-040350FM-12+008399999V0200901N001512200019N0500001N1+03501+01481100801ADDGF103991031011004501001001MA1999999099791MD1999999+0141REMSYN070AAXX  26184 82392 32499 30903 10350 20148 39979 40080 83100 333 58014;
0178823920999992007082700004-03700-040350FM-12+008399999V0203601N002112200019N0040001N1+02651+01741101171ADDGA1001+999999999GF100991001001999999001001KA1240M+03561MA1999999100151MD1999999+0181REMSYN082AAXX  27004 82392 32996 03604 10265 20174 30015 40117 333 10356 29048 55103 58018;
0166823920999992007082712004-03700-040350FM-12+008399999V0200901N004112200019N0500001N1+02881+01731101381ADDGA1001+999999999GF100991001001999999001001KA1240N+01901MA1999999100361MD1999999+0071REMSYN070AAXX  27124 82392 32499 00908 10288 20173 30036 40138 333 20190 58007;
0137823920999992007082718004-03700-040350FM-12+008399999V0201401N002112200019N0500001N1+03591+01291100921ADDGF103991031021004501001001MA1999999099901MD1999999+0111REMSYN070AAXX  27184 82392 32499 31404 10359 20129 39990 40092 83200 333 58011;
0178823920999992007082800004-03700-040350FM-12+008399999V0203601N001012200019N0040001N1+02611+01781101261ADDGA1001+999999999GF100991001001999999001001KA1240M+03641MA1999999100241MD1999999+0091REMSYN082AAXX  28004 82392 32996 03602 10261 20178 30024 40126 333 10364 29089 55104 58009;
0156823920999992007082912004-03700-040350FM-12+008399999V0200901N001510042019N0500001N1+02811+01971101531ADDGF106991051041004501031001KA1240N+02201MA1999999100501MD1999999+0151REMSYN076AAXX  29124 82392 32499 60903 10281 20197 30050 40153 85430 333 20220 58015;
0137823920999992007082918004-03700-040350FM-12+008399999V0200901N003112200019N0500001N1+03591+01351100881ADDGF101991011011004501001001MA1999999099871MD1999999+0131REMSYN070AAXX  29184 82392 32499 10906 10359 20135 39987 40088 81100 333 58013;
0178823920999992007083000004-03700-040350FM-12+008399999V0203601N002112200019N0040001N1+02531+01861101221ADDGA1001+999999999GF100991001001999999001001KA1240M+03641MA1999999100201MD1999999+0081REMSYN082AAXX  30004 82392 32996 03604 10253 20186 30020 40122 333 10364 29055 55100 58008;
0156823920999992007083012004-03700-040350FM-12+008399999V0200901N001510075019N0500001N1+02931+01821101531ADDGF106991061021008001001001KA1240N+02211MA1999999100501MD1999999+0001REMSYN076AAXX  30124 82392 32599 60903 10293 20182 30050 40153 86200 333 20221 58000;
0137823920999992007083018004-03700-040350FM-12+008399999V0201401N001012200019N0500001N1+03511+01501101001ADDGF103991031011004501001001MA1999999099981MD1999999+0111REMSYN070AAXX  30184 82392 32499 31402 10351 20150 39998 40100 83100 333 58011;
0178823920999992007083100004-03700-040350FM-12+008399999V0203601N002612200019N0020001N1+02691+02111101321ADDGA1001+999999999GF100991001001999999001001KA1240M+03581MA1999999100301MD1999999+0101REMSYN082AAXX  31004 82392 32595 03605 10269 20211 30030 40132 333 10358 29052 55104 58010;
0156823920999992007083112004-03700-040350FM-12+008399999V0200901N004612200019N0500001N1+02821+02201101571ADDGF103991031021004501001001KA1240N+02391MA1999999100541MD1999999+0041REMSYN076AAXX  31124 82392 32499 30909 10282 20220 30054 40157 83200 333 20239 58004;
0178823920999992007090100004-03700-040350FM-12+008399999V0200501N005112200019N0040001N1+02591+02121101411ADDGA1001+999999999GF100991001001999999001001KA1240M+03521MA1999999100391MD1999999+0091REMSYN082AAXX  01004 82392 32996 00510 10259 20212 30039 40141 333 10352 29062 55105 58009;
0156823920999992007090112004-03700-040350FM-12+008399999V0201401N003110450019N0500001N1+02861+01721101591ADDGF106991041041004501031001KA1240N+02071MA1999999100561MD1999999+0021REMSYN076AAXX  01124 82392 32499 61406 10286 20172 30056 40159 84430 333 20207 58002;
0137823920999992007090118004-03700-040350FM-12+008399999V0200901N001012200019N0500001N1+03531+01241101031ADDGF102991021011004501001001MA1999999100021MD1999999-0051REMSYN070AAXX  01184 82392 32499 20902 10353 20124 30002 40103 82100 333 59005;
0156823920999992007090212004-03700-040350FM-12+008399999V0200501N002112200019N0500001N1+03001+01841101531ADDGF104991041021004501001001KA1240N+01901MA1999999100501MD1999999-0061REMSYN076AAXX  02124 82392 32499 40504 10300 20184 30050 40153 84200 333 20190 59006;
0137823920999992007090218004-03700-040350FM-12+008399999V0200901N001010450019N0500001N1+03471+01251101061ADDGF106991031021004501031001MA1999999100041MD1999999+0021REMSYN070AAXX  02184 82392 32499 60902 10347 20125 30004 40106 83230 333 58002;
0168823920999992007090300004-03700-040350FM-12+008399999V0203601N004112200019N0040001N1+02811+01971101321ADDGF102991021001004501031001KA1240M+03581MA1999999100311MD1999999+0031REMSYN088AAXX  03004 82392 32496 23608 10281 20197 30031 40132 82030 333 10358 29049 55080 58003;
0156823920999992007090312004-03700-040350FM-12+008399999V0201401N004612200019N0500001N1+02881+01701101531ADDGF101991011011004501001001KA1240N+02011MA1999999100501MD1999999+0001REMSYN076AAXX  03124 82392 32499 11409 10288 20170 30050 40153 81100 333 20201 58000;
0137823920999992007090318004-03700-040350FM-12+008399999V0202301N004112200019N0500001N1+03591+01351100991ADDGF101991011011004501001001MA1999999099981MD1999999-0061REMSYN070AAXX  03184 82392 32499 12308 10359 20135 39998 40099 81100 333 59006;
0178823920999992007090400004-03700-040350FM-12+008399999V0203601N002112200019N0040001N1+02591+01821101341ADDGA1001+999999999GF100991001001999999001001KA1240M+03661MA1999999100321MD1999999+0011REMSYN082AAXX  04004 82392 32996 03604 10259 20182 30032 40134 333 10366 29050 55105 58001;
0156823920999992007090412004-03700-040350FM-12+008399999V0202301N001012200019N0500001N1+02841+01991101531ADDGF102991021011004501001001KA1240N+01901MA1999999100501MD1999999+0001REMSYN076AAXX  04124 82392 32499 22302 10284 20199 30050 40153 82100 333 20190 58000;
0137823920999992007090418004-03700-040350FM-12+008399999V0200901N001012200019N0500001N1+03571+01331101021ADDGF103991031011004501001001MA1999999100001MD1999999+0021REMSYN070AAXX  04184 82392 32499 30902 10357 20133 30000 40102 83100 333 58002;
0178823920999992007090500004-03700-040350FM-12+008399999V0203601N001012200019N0040001N1+02551+01951101371ADDGA1001+999999999GF100991001001999999001001KA1240M+03631MA1999999100351MD1999999+0031REMSYN082AAXX  05004 82392 32996 03602 10255 20195 30035 40137 333 10363 29056 55105 58003;
0156823920999992007090512004-03700-040350FM-12+008399999V0200901N004110450019N0500001N1+02901+02041101531ADDGF106991041041004501031001KA1240N+02001MA1999999100501MD1999999+0001REMSYN076AAXX  05124 82392 32499 60908 10290 20204 30050 40153 84430 333 20200 58000;
0137823920999992007090518004-03700-040350FM-12+008399999V0200501N005112200019N0500001N1+03411+01651101081ADDGF103991031021004501001001MA1999999100061MD1999999+0061REMSYN070AAXX  05184 82392 32499 30510 10341 20165 30006 40108 83200 333 58006;
0168823920999992007090600004-03700-040350FM-12+008399999V0200501N002112200019N0040001N1+02711+02031101411ADDGF102991011011004501031001KA1240M+03481MA1999999100391MD1999999+0041REMSYN088AAXX  06004 82392 32496 20504 10271 20203 30039 40141 81130 333 10348 29057 55101 58004;
0156823920999992007090612004-03700-040350FM-12+008399999V0201401N001010450019N0500001N1+02841+01791101551ADDGF106991041051004501031001KA1240N+02341MA1999999100521MD1999999+0021REMSYN076AAXX  06124 82392 32499 61402 10284 20179 30052 40155 84530 333 20234 58002;
0137823920999992007090618004-03700-040350FM-12+008399999V0200901N002110450019N0500001N1+03231+01631101121ADDGF106991041051004501031001MA1999999100101MD1999999-0061REMSYN070AAXX  06184 82392 32499 60904 10323 20163 30010 40112 84530 333 59006;
0178823920999992007090700004-03700-040350FM-12+008399999V0200501N003112200019N0040001N1+02631+02031101371ADDGA1001+999999999GF100991001001999999001001KA1240M+03281MA1999999100351MD1999999-0041REMSYN082AAXX  07004 82392 32996 00506 10263 20203 30035 40137 333 10328 29057 55043 59004;
0156823920999992007090712004-03700-040350FM-12+008399999V0202301N001012200019N0500001N1+02881+01731101461ADDGF102991021011004501001001KA1240N+02101MA1999999100441MD1999999-0081REMSYN076AAXX  07124 82392 32499 22302 10288 20173 30044 40146 82100 333 20210 59008;
0137823920999992007090718004-03700-040350FM-12+008399999V0201401N001012200019N0500001N1+03541+01941100971ADDGF101991011011004501001001MA1999999099961MD1999999-0141REMSYN070AAXX  07184 82392 32499 11402 10354 20194 39996 40097 81100 333 59014;
0178823920999992007090800004-03700-040350FM-12+008399999V0203601N004612200019N0040001N1+02641+02001101321ADDGA1001+999999999GF100991001001999999001001KA1240M+03661MA1999999100301MD1999999-0051REMSYN082AAXX  08004 82392 32996 03609 10264 20200 30030 40132 333 10366 29052 55103 59005;
0156823920999992007090812004-03700-040350FM-12+008399999V0200901N003112200019N0500001N1+02861+02011101401ADDGF104991041021004501001001KA1240N+02301MA1999999100381MD1999999-0061REMSYN076AAXX  08124 82392 32499 40906 10286 20201 30038 40140 84200 333 20230 59006;
0137823920999992007090818004-03700-040350FM-12+008399999V0201401N001512200019N0500001N1+03601+01291100851ADDGF103991031011004501001001MA1999999099841MD1999999-0121REMSYN070AAXX  08184 82392 32499 31403 10360 20129 39984 40085 83100 333 59012;
0178823920999992007090900004-03700-040350FM-12+008399999V0203601N005112200019N0040001N1+02621+02011101221ADDGA1001+999999999GF100991001001999999001001KA1240M+03681MA1999999100201MD1999999-0101REMSYN082AAXX  09004 82392 32996 03610 10262 20201 30020 40122 333 10368 29058 55091 59010;
0156823920999992007090912004-03700-040350FM-12+008399999V0201401N001010450019N0500001N1+02941+01851101381ADDGF105991031021004501031001KA1240N+02281MA1999999100361MD1999999-0021REMSYN076AAXX  09124 82392 32499 51402 10294 20185 30036 40138 83230 333 20228 59002;
0137823920999992007090918004-03700-040350FM-12+008399999V0209999C000012200019N0500001N1+03661+01461100781ADDGF104991041011004501001001MA1999999099771MD1999999-0071REMSYN070AAXX  09184 82392 32499 40000 10366 20146 39977 40078 84100 333 59007;
0178823920999992007091000004-03700-040350FM-12+008399999V0203601N001012200019N0040001N1+02731+01761101071ADDGA1001+999999999GF100991001001999999001001KA1240M+03731MA1999999100051MD1999999-0151REMSYN082AAXX  10004 82392 32996 03602 10273 20176 30005 40107 333 10373 29047 55107 59015;
0156823920999992007091012004-03700-040350FM-12+008399999V0200901N002612200019N0500001N1+03001+01911101361ADDGF103991031021004501001001KA1240N+02191MA1999999100351MD1999999-0011REMSYN076AAXX  10124 82392 32499 30905 10300 20191 30035 40136 83200 333 20219 59001;
0137823920999992007091018004-03700-040350FM-12+008399999V0200501N002112200019N0500001N1+03581+01271100781ADDGF104991041021004501001001MA1999999099771MD1999999+0001REMSYN070AAXX  10184 82392 32499 40504 10358 20127 39977 40078 84200 333 58000;
0178823920999992007091100004-03700-040350FM-12+008399999V0203601N001012200019N0040001N1+02711+01931101111ADDGA1001+999999999GF100991001001999999001001KA1240M+03671MA1999999100101MD1999999+0051REMSYN082AAXX  11004 82392 32996 03602 10271 20193 30010 40111 333 10367 29050 55098 58005;
0156823920999992007091112004-03700-040350FM-12+008399999V0200901N005112200019N0500001N1+02941+01761101381ADDGF104991021011004501031001KA1240N+02001MA1999999100361MD1999999+0011REMSYN076AAXX  11124 82392 32499 40910 10294 20176 30036 40138 82130 333 20200 58001;
0137823920999992007091118004-03700-040350FM-12+008399999V0200901N000512200019N0500001N1+03521+01281100801ADDGF102991021011004501001001MA1999999099781MD1999999+0011REMSYN070AAXX  11184 82392 32499 20901 10352 20128 39978 40080 82100 333 58001;
0178823920999992007091200004-03700-040350FM-12+008399999V0203601N001512200019N0040001N1+02701+01831101181ADDGA1001+999999999GF100991001001999999001001KA1240M+03621MA1999999100161MD1999999+0061REMSYN082AAXX  12004 82392 32996 03603 10270 20183 30016 40118 333 10362 29048 55105 58006;
0156823920999992007091212004-03700-040350FM-12+008399999V0201401N002112200019N0500001N1+03061+01551101351ADDGF101991011001004501001011KA1240N+02001MA1999999100341MD1999999-0021REMSYN076AAXX  12124 82392 32499 11404 10306 20155 30034 40135 81001 333 20200 59002;
0137823920999992007091218004-03700-040350FM-12+008399999V0200501N002612200019N0500001N1+03601+01411100831ADDGF103991031021004501001001MA1999999099821MD1999999+0041REMSYN070AAXX  12184 82392 32499 30505 10360 20141 39982 40083 83200 333 58004;
0178823920999992007091300004-03700-040350FM-12+008399999V0203601N000512200019N0040001N1+02761+01751101161ADDGA1001+999999999GF100991001001999999001001KA1240M+03661MA1999999100151MD1999999-0011REMSYN082AAXX  13004 82392 32996 03601 10276 20175 30015 40116 333 10366 29044 55103 59001;
0156823920999992007091312004-03700-040350FM-12+008399999V0200901N001512200019N0500001N1+03051+01801101281ADDGF104991041021004501001001KA1240N+02371MA1999999100271MD1999999-0071REMSYN076AAXX  13124 82392 32499 40903 10305 20180 30027 40128 84200 333 20237 59007;
0137823920999992007091318004-03700-040350FM-12+008399999V0200901N001512200019N0500001N1+03591+01461100731ADDGF102991021011004501001001MA1999999099721MD1999999-0101REMSYN070AAXX  13184 82392 32499 20903 10359 20146 39972 40073 82100 333 59010;
0178823920999992007091400004-03700-040350FM-12+008399999V0203601N002612200019N0040001N1+02661+02071101071ADDGA1001+999999999GF100991001001999999001001KA1240M+03661MA1999999100061MD1999999-0091REMSYN082AAXX  14004 82392 32996 03605 10266 20207 30006 40107 333 10366 29054 55108 59009;
0156823920999992007091412004-03700-040350FM-12+008399999V0201401N002112200019N0500001N1+02941+01791101271ADDGF102991021001004501031001KA1240N+02081MA1999999100251MD1999999-0021REMSYN076AAXX  14124 82392 32499 21404 10294 20179 30025 40127 82030 333 20208 59002;
0137823920999992007091418004-03700-040350FM-12+008399999V0201401N001012200019N0500001N1+03561+01371100791ADDGF102991011011004501031001MA1999999099781MD1999999+0061REMSYN070AAXX  14184 82392 32499 21402 10356 20137 39978 40079 81130 333 58006;
0178823920999992007091500004-03700-040350FM-12+008399999V0200501N004612200019N0040001N1+02661+02141101161ADDGA1001+999999999GF100991001001999999001001KA1240M+03661MA1999999100141MD1999999+0081REMSYN082AAXX  15004 82392 32996 00509 10266 20214 30014 40116 333 10366 29056 55107 58008;
0156823920999992007091512004-03700-040350FM-12+008399999V0201401N001012200019N0500001N1+02941+01821101261ADDGF104991041021004501001001KA1240N+02361MA1999999100241MD1999999-0011REMSYN076AAXX  15124 82392 32499 41402 10294 20182 30024 40126 84200 333 20236 59001;
0137823920999992007091518004-03700-040350FM-12+008399999V0200901N001512200019N0500001N1+03571+01551100711ADDGF104991041011004501001001MA1999999099701MD1999999-0081REMSYN070AAXX  15184 82392 32499 40903 10357 20155 39970 40071 84100 333 59008;
0178823920999992007091600004-03700-040350FM-12+008399999V0203601N001512200019N0040001N1+02711+01911101061ADDGA1001+999999999GF100991001001999999001001KA1240M+03641MA1999999100041MD1999999-0101REMSYN082AAXX  16004 82392 32996 03603 10271 20191 30004 40106 333 10364 29051 55107 59010;
0156823920999992007091612004-03700-040350FM-12+008399999V0201401N003112200019N0500001N1+02921+02061101261ADDGF101991011011004501001001KA1240N+02221MA1999999100241MD1999999+0001REMSYN076AAXX  16124 82392 32499 11406 10292 20206 30024 40126 81100 333 20222 58000;
0137823920999992007091618004-03700-040350FM-12+008399999V0200501N002112200019N0500001N1+03641+01601100751ADDGF103991031011004501001001MA1999999099741MD1999999+0041REMSYN070AAXX  16184 82392 32499 30504 10364 20160 39974 40075 83100 333 58004;
0178823920999992007091700004-03700-040350FM-12+008399999V0200501N004612200019N0040001N1+02761+01911101101ADDGA1001+999999999GF100991001001999999001001KA1240M+03721MA1999999100081MD1999999+0041REMSYN082AAXX  17004 82392 32996 00509 10276 20191 30008 40110 333 10372 29052 55107 58004;
0156823920999992007091712004-03700-040350FM-12+008399999V0200501N005712200019N0500001N1+02881+02031101351ADDGF102991021011004501001001KA1240N+02081MA1999999100331MD1999999+0091REMSYN076AAXX  17124 82392 32499 20511 10288 20203 30033 40135 82100 333 20208 58009;
0137823920999992007091718004-03700-040350FM-12+008399999V0200501N004112200019N0500001N1+03701+01601100801ADDGF104991041021008001001001MA1999999099791MD1999999+0051REMSYN070AAXX  17184 82392 32599 40508 10370 20160 39979 40080 84200 333 58005;
0168823920999992007091800004-03700-040350FM-12+008399999V0203601N002612200019N0040001N1+02611+01911101081ADDGF102991021001008001011001KA1240M+03741MA1999999100061MD1999999-0021REMSYN088AAXX  18004 82392 32596 23605 10261 20191 30006 40108 82010 333 10374 29055 55103 59002;
0156823920999992007091812004-03700-040350FM-12+008399999V0200901N004610450019N0500001N1+02801+01951101421ADDGF106991041041004501031001KA1240N+02211MA1999999100401MD1999999+0071REMSYN076AAXX  18124 82392 32499 60909 10280 20195 30040 40142 84430 333 20221 58007;
0137823920999992007091818004-03700-040350FM-12+008399999V0200501N002112200019N0500001N1+03641+01381100921ADDGF104991031011004501011001MA1999999099911MD1999999+0121REMSYN070AAXX  18184 82392 32499 40504 10364 20138 39991 40092 83110 333 58012;
0178823920999992007091900004-03700-040350FM-12+008399999V0203601N001512200019N0040001N1+02671+01781101271ADDGA1001+999999999GF100991001001999999001001KA1240M+03721MA1999999100251MD1999999+0191REMSYN082AAXX  19004 82392 32996 03603 10267 20178 30025 40127 333 10372 29051 55082 58019;
0156823920999992007091912004-03700-040350FM-12+008399999V0201401N003110450019N0500001N1+02861+02011101531ADDGF106991031041004501031001KA1240N+02121MA1999999100501MD1999999+0101REMSYN076AAXX  19124 82392 32499 61406 10286 20201 30050 40153 83430 333 20212 58010;
0137823920999992007091918004-03700-040350FM-12+008399999V0201801N002112200019N0500001N1+03501+01201100961ADDGF104991041021004501001001MA1999999099951MD1999999+0041REMSYN070AAXX  19184 82392 32499 41804 10350 20120 39995 40096 84200 333 58004;
0178823920999992007092000004-03700-040350FM-12+008399999V0203601N002612200019N0040001N1+02601+01921101221ADDGA1001+999999999GF100991001001999999001001KA1240M+03571MA1999999100201MD1999999-0051REMSYN082AAXX  20004 82392 32996 03605 10260 20192 30020 40122 333 10357 29054 55079 59005;
0156823920999992007092012004-03700-040350FM-12+008399999V0201401N001010450019N0500001N1+02731+02071101321ADDGF106991031051004501031001KA1240N+02281MA1999999100301MD1999999-0201REMSYN076AAXX  20124 82392 32499 61402 10273 20207 30030 40132 83530 333 20228 59020;
0137823920999992007092018004-03700-040350FM-12+008399999V0200901N001510042019N0500001N1+03391+01721100771ADDGF105991051021004501001001MA1999999099761MD1999999-0191REMSYN070AAXX  20184 82392 32499 50903 10339 20172 39976 40077 85200 333 59019;
0178823920999992007092100004-03700-040350FM-12+008399999V0200501N005112200019N0040001N1+02621+02121101021ADDGA1001+999999999GF100991001001999999001001KA1240M+03571MA1999999100001MD1999999-0201REMSYN082AAXX  21004 82392 32996 00510 10262 20212 30000 40102 333 10357 29063 55073 59020;
0156823920999992007092112004-03700-040350FM-12+008399999V0200901N001012200019N0500001N1+02901+01811101281ADDGF103991031011004501001001KA1240N+02121MA1999999100261MD1999999-0041REMSYN076AAXX  21124 82392 32499 30902 10290 20181 30026 40128 83100 333 20212 59004;
0137823920999992007092118004-03700-040350FM-12+008399999V0201401N001012200019N0500001N1+03631+01381100801ADDGF104991031011004501011001MA1999999099791MD1999999+0031REMSYN070AAXX  21184 82392 32499 41402 10363 20138 39979 40080 83110 333 58003;
0178823920999992007092200004-03700-040350FM-12+008399999V0200501N002112200019N0040001N1+02601+02081101181ADDGA1001+999999999GF100991001001999999001001KA1240M+03681MA1999999100161MD1999999+0161REMSYN082AAXX  22004 82392 32996 00504 10260 20208 30016 40118 333 10368 29056 55101 58016;
0137823920999992007092218004-03700-040350FM-12+008399999V0200901N002112200019N0500001N1+03701+01491100761ADDGF103991031011004501001001MA1999999099751MD1999999-0041REMSYN070AAXX  22184 82392 32499 30904 10370 20149 39975 40076 83100 333 59004;
0178823920999992007092300004-03700-040350FM-12+008399999V0200501N004112200019N0040001N1+02731+01951101141ADDGA1001+999999999GF100991001001999999001001KA1240M+03741MA1999999100121MD1999999-0041REMSYN082AAXX  23004 82392 32996 00508 10273 20195 30012 40114 333 10374 29050 55107 59004;
0156823920999992007092312004-03700-040350FM-12+008399999V0200901N003112200019N0500001N1+03011+01661101341ADDGF102991021011004501001001KA1240N+02221MA1999999100331MD1999999-0061REMSYN076AAXX  23124 82392 32499 20906 10301 20166 30033 40134 82100 333 20222 59006;
0137823920999992007092318004-03700-040350FM-12+008399999V0200901N000512200019N0500001N1+03571+01391100731ADDGF101991011011004501001001MA1999999099721MD1999999-0031REMSYN070AAXX  23184 82392 32499 10901 10357 20139 39972 40073 81100 333 59003;
0178823920999992007092400004-03700-040350FM-12+008399999V0203601N001012200019N0040001N1+02741+01731101091ADDGA1001+999999999GF100991001001999999001001KA1240M+03661MA1999999100081MD1999999-0041REMSYN082AAXX  24004 82392 32996 03602 10274 20173 30008 40109 333 10366 29045 55104 59004;
0156823920999992007092412004-03700-040350FM-12+008399999V0201401N002112200019N0500001N1+02921+01831101421ADDGF102991021011004501001001KA1240N+02101MA1999999100401MD1999999+0071REMSYN076AAXX  24124 82392 32499 21404 10292 20183 30040 40142 82100 333 20210 58007;
0137823920999992007092418004-03700-040350FM-12+008399999V0200501N002612200019N0500001N1+03621+01301100811ADDGF103991021011004501001011MA1999999099801MD1999999+0081REMSYN070AAXX  24184 82392 32499 30505 10362 20130 39980 40081 82101 333 58008;
0178823920999992007092500004-03700-040350FM-12+008399999V0200501N002112200019N0040001N1+02671+01841101171ADDGA1001+999999999GF100991001001999999001001KA1240M+03661MA1999999100151MD1999999+0071REMSYN082AAXX  25004 82392 32996 00504 10267 20184 30015 40117 333 10366 29049 55099 58007;
0166823920999992007092512004-03700-040350FM-12+008399999V0200901N001512200019N0500001N1+02901+01811101321ADDGA1001+999999999GF100991001001999999001001KA1240N+02001MA1999999100301MD1999999-0101REMSYN070AAXX  25124 82392 32499 00903 10290 20181 30030 40132 333 20200 59010;
0178823920999992007092600004-03700-040350FM-12+008399999V0203601N002112200019N0040001N1+02551+01991101281ADDGA1001+999999999GF100991001001999999001001KA1240M+02551MA1999999100261MD1999999+0111REMSYN082AAXX  26004 82392 32996 03604 10255 20199 30026 40128 333 10255 29054 55104 58011;
0156823920999992007092612004-03700-040350FM-12+008399999V0200901N002610450019N0500001N1+02731+01891101421ADDGF107991041041004501031001KA1240N+02211MA1999999100401MD1999999+0101REMSYN076AAXX  26124 82392 32499 70905 10273 20189 30040 40142 84430 333 20221 58010;
0137823920999992007092618004-03700-040350FM-12+008399999V0200901N001512200019N0500001N1+03621+01301100811ADDGF102991021011004501001001MA1999999099801MD1999999+0101REMSYN070AAXX  26184 82392 32499 20903 10362 20130 39980 40081 82100 333 58010;
0178823920999992007092700004-03700-040350FM-12+008399999V0203601N002112200019N0040001N1+02611+01961101301ADDGA1001+999999999GF100991001001999999001001KA1240M+03661MA1999999100281MD1999999+0021REMSYN082AAXX  27004 82392 32996 03604 10261 20196 30028 40130 333 10366 29055 55082 58002;
0156823920999992007092712004-03700-040350FM-12+008399999V0201401N004112200019N0500001N1+02971+01621101551ADDGF102991021011004501001001KA1240N+02191MA1999999100531MD1999999+0131REMSYN076AAXX  27124 82392 32499 21408 10297 20162 30053 40155 82100 333 20219 58013;
0137823920999992007092718004-03700-040350FM-12+008399999V0200901N000512200019N0500001N1+03571+01501100901ADDGF105991021011004501001011MA1999999099891MD1999999+0091REMSYN070AAXX  27184 82392 32499 50901 10357 20150 39989 40090 82101 333 58009;
0168823920999992007092800004-03700-040350FM-12+008399999V0200501N004112200019N0040001N1+02661+02071101281ADDGF102991021001008001031001KA1240M+03661MA1999999100261MD1999999-0021REMSYN088AAXX  28004 82392 32596 20508 10266 20207 30026 40128 82030 333 10366 29053 55106 59002;
0137823920999992007092818004-03700-040350FM-12+008399999V0200901N002112200019N0500001N1+03631+01381100961ADDGF104991041011004501001001MA1999999099951MD1999999+0061REMSYN070AAXX  28184 82392 32499 40904 10363 20138 39995 40096 84100 333 58006;
0178823920999992007092900004-03700-040350FM-12+008399999V0200501N005112200019N0040001N1+02661+02021101381ADDGA1001+999999999GF100991001001999999001001KA1240M+03701MA1999999100361MD1999999+0101REMSYN082AAXX  29004 82392 32996 00510 10266 20202 30036 40138 333 10370 29052 55104 58010;
0156823920999992007092912004-03700-040350FM-12+008399999V0200901N000512200019N0500001N1+02931+01761101501ADDGF102991021011004501001001KA1240N+02231MA1999999100471MD1999999-0011REMSYN076AAXX  29124 82392 32499 20901 10293 20176 30047 40150 82100 333 20223 59001;
0137823920999992007092918004-03700-040350FM-12+008399999V0200901N001512200019N0500001N1+03561+01431100941ADDGF104991041011004501001001MA1999999099931MD1999999-0021REMSYN070AAXX  29184 82392 32499 40903 10356 20143 39993 40094 84100 333 59002;
0178823920999992007093000004-03700-040350FM-12+008399999V0203601N002112200019N0040001N1+02671+01941101311ADDGA1001+999999999GF100991001001999999001001KA1240M+03641MA1999999100291MD1999999-0071REMSYN082AAXX  30004 82392 32996 03604 10267 20194 30029 40131 333 10364 29051 55107 59007;
0156823920999992007093012004-03700-040350FM-12+008399999V0200901N001012200019N0500001N1+02941+01791101431ADDGF102991021011004501001001KA1240N+02161MA1999999100411MD1999999-0061REMSYN076AAXX  30124 82392 32499 20902 10294 20179 30041 40143 82100 333 20216 59006;
0137823920999992007093018004-03700-040350FM-12+008399999V0200901N004112200019N0500001N1+03661+01001100861ADDGF102991011011004501001011MA1999999099851MD1999999-0081REMSYN070AAXX  30184 82392 32499 20908 10366 20100 39985 40086 81101 333 59008;
0178823920999992007100100004-03700-040350FM-12+008399999V0200501N005712200019N0040001N1+02641+01931101261ADDGA1001+999999999GF100991001001999999001001KA1240M+03721MA1999999100241MD1999999-0051REMSYN082AAXX  01004 82392 32996 00511 10264 20193 30024 40126 333 10372 29050 55106 59005;
0156823920999992007100112004-03700-040350FM-12+008399999V0200901N002612200019N0500001N1+02881+01731101551ADDGF101991011011004501001001KA1240N+02191MA1999999100521MD1999999+0111REMSYN076AAXX  01124 82392 32499 10905 10288 20173 30052 40155 81100 333 20219 58011;
0137823920999992007100118004-03700-040350FM-12+008399999V0200901N002112200019N0500001N1+03661+01461100871ADDGF102991021011004501001001MA1999999099861MD1999999+0011REMSYN070AAXX  01184 82392 32499 20904 10366 20146 39986 40087 82100 333 58001;
0178823920999992007100200004-03700-040350FM-12+008399999V0203601N001012200019N0040001N1+02631+01851101261ADDGA1001+999999999GF100991001001999999001001KA1240M+03721MA1999999100241MD1999999+0001REMSYN082AAXX  02004 82392 32996 03602 10263 20185 30024 40126 333 10372 29050 55096 58000;
0156823920999992007100212004-03700-040350FM-12+008399999V0200901N001012200019N0500001N1+02891+01871101441ADDGF103991021011004501031001KA1240N+02121MA1999999100421MD1999999-0101REMSYN076AAXX  02124 82392 32499 30902 10289 20187 30042 40144 82130 333 20212 59010;
0137823920999992007100218004-03700-040350FM-12+008399999V0200901N001010450019N0500001N1+03591+01621100861ADDGF106991041021004501031001MA1999999099851MD1999999-0011REMSYN070AAXX  02184 82392 32499 60902 10359 20162 39985 40086 84230 333 59001;
0168823920999992007100300004-03700-040350FM-12+008399999V0203601N002110450019N0040001N1+02671+01891101311ADDGF106991041021004501031001KA1240M+03701MA1999999100291MD1999999+0051REMSYN088AAXX  03004 82392 32496 63604 10267 20189 30029 40131 84230 333 10370 29052 55099 58005;
0156823920999992007100312004-03700-040350FM-12+008399999V0200901N001512200019N0500001N1+02921+01981101361ADDGF102991011011004501031001KA1240N+02121MA1999999100341MD1999999-0081REMSYN076AAXX  03124 82392 32499 20903 10292 20198 30034 40136 81130 333 20212 59008;
0137823920999992007100318004-03700-040350FM-12+008399999V0200901N001012200019N0500001N1+03621+01481100721ADDGF102991021011004501001001MA1999999099711MD1999999-0141REMSYN070AAXX  03184 82392 32499 20902 10362 20148 39971 40072 82100 333 59014;
0168823920999992007100400004-03700-040350FM-12+008399999V0203601N002112200019N0040001N1+02701+01961101171ADDGF103991011011004501031001KA1240M+03701MA1999999100151MD1999999-0141REMSYN088AAXX  04004 82392 32496 33604 10270 20196 30015 40117 81130 333 10370 29053 55100 59014;
0156823920999992007100412004-03700-040350FM-12+008399999V0200901N002110450019N0500001N1+02911+01861101301ADDGF106991031021004501031001KA1240N+02331MA1999999100281MD1999999-0061REMSYN076AAXX  04124 82392 32499 60904 10291 20186 30028 40130 83230 333 20233 59006;
0137823920999992007100418004-03700-040350FM-12+008399999V0200501N002611050019N0500001N1+03501+01631100781ADDGF106991031021004501001021MA1999999099771MD1999999+0061REMSYN070AAXX  04184 82392 32499 60505 10350 20163 39977 40078 83202 333 58006;
0178823920999992007100500004-03700-040350FM-12+008399999V0200501N005112200019N0040001N1+02661+01921101161ADDGA1001+999999999GF100991001001999999001001KA1240M+03581MA1999999100141MD1999999-0011REMSYN082AAXX  05004 82392 32996 00510 10266 20192 30014 40116 333 10358 29054 55084 59001;
0175823920999992007100512004-03700-040350FM-12+008399999V0200901N002119999999N0500001N1+02901+01751101421ADDGF105991999011004501001001KA1240N+02101MA1999999100401MD1999999+0121REMSYN076AAXX  05124 82392 32499 50904 10290 20175 30040 40142 82100 333 20210 58012;EQDQ01+000022SCOTLC
0137823920999992007100518004-03700-040350FM-12+008399999V0200501N001012200019N0500001N1+03591+01381100761ADDGF102991011011004501001011MA1999999099751MD1999999-0021REMSYN070AAXX  05184 82392 32499 20502 10359 20138 39975 40076 81101 333 59002;
0178823920999992007100600004-03700-040350FM-12+008399999V0200501N004612200019N0040001N1+02701+01721101131ADDGA1001+999999999GF100991001001999999001001KA1240M+03681MA1999999100111MD1999999-0031REMSYN082AAXX  06004 82392 32996 00509 10270 20172 30011 40113 333 10368 29046 55105 59003;
0156823920999992007100612004-03700-040350FM-12+008399999V0200901N001512200019N0500001N1+02861+01781101271ADDGF103991021011004501001011KA1240N+02101MA1999999100251MD1999999-0151REMSYN076AAXX  06124 82392 32499 30903 10286 20178 30025 40127 82101 333 20210 59015;
0137823920999992007100618004-03700-040350FM-12+008399999V0200501N002112200019N0500001N1+03571+01271100701ADDGF101991011011004501001001MA1999999099691MD1999999-0061REMSYN070AAXX  06184 82392 32499 10504 10357 20127 39969 40070 81100 333 59006;
0178823920999992007100700004-03700-040350FM-12+008399999V0200501N005112200019N0040001N1+02621+01781101061ADDGA1001+999999999GF100991001001999999001001KA1240M+03651MA1999999100041MD1999999-0071REMSYN082AAXX  07004 82392 32996 00510 10262 20178 30004 40106 333 10365 29049 55109 59007;
0156823920999992007100712004-03700-040350FM-12+008399999V0200901N001012200019N0500001N1+02911+01891101151ADDGF104991041021004501001001KA1240N+02131MA1999999100131MD1999999-0121REMSYN076AAXX  07124 82392 32499 40902 10291 20189 30013 40115 84200 333 20213 59012;
0137823920999992007100718004-03700-040350FM-12+008399999V0200501N000512200019N0500001N1+03661+01571100511ADDGF104991041011004501001001MA1999999099511MD1999999-0181REMSYN070AAXX  07184 82392 32499 40501 10366 20157 39951 40051 84100 333 59018;
0178823920999992007100800004-03700-040350FM-12+008399999V0203601N001512200019N0040001N1+02591+02031100991ADDGA1001+999999999GF100991001001999999001001KA1240M+03701MA1999999099971MD1999999-0071REMSYN082AAXX  08004 82392 32996 03603 10259 20203 39997 40099 333 10370 29056 55109 59007;
0156823920999992007100812004-03700-040350FM-12+008399999V0200901N003112200019N0500001N1+02901+01751101261ADDGF101991011011004501001001KA1240N+02301MA1999999100241MD1999999+0111REMSYN076AAXX  08124 82392 32499 10906 10290 20175 30024 40126 81100 333 20230 58011;
0137823920999992007100818004-03700-040350FM-12+008399999V0201401N002112200019N0500001N1+03701+01031100521ADDGF101991011011004501001001MA1999999099521MD1999999+0011REMSYN070AAXX  08184 82392 32499 11404 10370 20103 39952 40052 81100 333 58001;
0178823920999992007100900004-03700-040350FM-12+008399999V0203601N002112200019N0040001N1+02631+02031101021ADDGA1001+999999999GF100991001001999999001001KA1240M+03721MA1999999100001MD1999999+0031REMSYN082AAXX  09004 82392 32996 03604 10263 20203 30000 40102 333 10372 29052 55110 58003;
0156823920999992007100912004-03700-040350FM-12+008399999V0200901N004612200019N0500001N1+02941+02081101621ADDGF103991031021004501001001KA1240N+02351MA1999999100341MD1999999+0001REMSYN076AAXX  09124 82392 32499 30909 10294 20208 30034 40162 83200 333 20235 58000;
0137823920999992007100918004-03700-040350FM-12+008399999V0200901N001012200019N0500001N1+03611+01531100581ADDGF102991011011004501001011MA1999999099581MD1999999+0061REMSYN070AAXX  09184 82392 32499 20902 10361 20153 39958 40058 81101 333 58006;
0178823920999992007101000004-03700-040350FM-12+008399999V0203601N002112200019N0040001N1+02631+02031101071ADDGA1001+999999999GF100991001001999999001001KA1240M+03661MA1999999100051MD1999999+0051REMSYN082AAXX  10004 82392 32996 03604 10263 20203 30005 40107 333 10366 29057 55094 58005;
0156823920999992007101012004-03700-040350FM-12+008399999V0201401N002112200019N0500001N1+02981+01981101181ADDGF102991021011004501001001KA1240N+02281MA1999999100161MD1999999-0081REMSYN076AAXX  10124 82392 32499 21404 10298 20198 30016 40118 82100 333 20228 59008;
0178823920999992007101100004-03700-040350FM-12+008399999V0203601N003112200019N0040001N1+02671+02061100951ADDGA1001+999999999GF100991001001999999001001KA1240M+03761MA1999999099931MD1999999-0121REMSYN082AAXX  11004 82392 32996 03606 10267 20206 39993 40095 333 10376 29054 55102 59012;
0156823920999992007101112004-03700-040350FM-12+008399999V0200901N001512200019N0500001N1+02971+01761101071ADDGF103991011011004501011011KA1240N+02221MA1999999100061MD1999999-0101REMSYN076AAXX  11124 82392 32499 30903 10297 20176 30006 40107 81111 333 20222 59010;
0137823920999992007101118004-03700-040350FM-12+008399999V0200501N001011050019N0500001N1+03591+01461100481ADDGF105991021011004501011011MA1999999099481MD1999999-0041REMSYN070AAXX  11184 82392 32499 50502 10359 20146 39948 40048 82111 333 59004;
0178823920999992007101200004-03700-040350FM-12+008399999V0200501N005712200019N0040001N1+02601+02121100861ADDGA1001+999999999GF100991001001999999001001KA1240M+03681MA1999999099841MD1999999-0091REMSYN082AAXX  12004 82392 32496 00511 10260 20212 39984 40086 333 10368 29056 55092 59009;
0156823920999992007101212004-03700-040350FM-12+008399999V0200901N001512200019N0500001N1+02901+02041101111ADDGF104991031021004501001011KA1240N+02121MA1999999100091MD1999999+0091REMSYN076AAXX  12124 82392 32499 40903 10290 20204 30009 40111 83201 333 20212 58009;
0178823920999992007101300004-03700-040350FM-12+008399999V0203601N001512200019N0040001N1+02611+01961100911ADDGA1001+999999999GF100991001001999999001001KA1240M+03731MA1999999099891MD1999999+0051REMSYN082AAXX  13004 82392 32996 03603 10261 20196 39989 40091 333 10373 29056 55106 58005;
0156823920999992007101312004-03700-040350FM-12+008399999V0201401N005110042019N0500001N1+03031+01911101161ADDGF107991071021004501001001KA1240N+02371MA1999999100141MD1999999+0051REMSYN076AAXX  13124 82392 32499 71410 10303 20191 30014 40116 87200 333 20237 58005;
0137823920999992007101318004-03700-040350FM-12+008399999V0200501N002612200019N0500001N1+03691+01551100571ADDGF102991011011004501011001MA1999999099571MD1999999+0081REMSYN070AAXX  13184 82392 32499 20505 10369 20155 39957 40057 81110 333 58008;
0178823920999992007101400004-03700-040350FM-12+008399999V0203601N001512200019N0040001N1+02671+01841100921ADDGA1001+999999999GF100991001001999999001001KA1240M+03681MA1999999099911MD1999999+0031REMSYN082AAXX  14004 82392 32996 03603 10267 20184 39991 40092 333 10368 29050 55097 58003;
0156823920999992007101412004-03700-040350FM-12+008399999V0200901N002110042019N0500001N1+02891+01811101081ADDGF106991061021004501001001KA1240N+02321MA1999999100061MD1999999-0081REMSYN076AAXX  14124 82392 32499 60904 10289 20181 30006 40108 86200 333 20232 59008;
0137823920999992007101418004-03700-040350FM-12+008399999V0200901N001512200019N0500001N1+03581+01441100581ADDGF102991021011004501001001MA1999999099581MD1999999+0011REMSYN070AAXX  14184 82392 32499 20903 10358 20144 39958 40058 82100 333 58001;
0178823920999992007101500004-03700-040350FM-12+008399999V0203601N001012200019N0040001N1+02711+01711100931ADDGA1001+999999999GF100991001001999999001001KA1240M+03661MA1999999099911MD1999999+0001REMSYN082AAXX  15004 82392 32996 03602 10271 20171 39991 40093 333 10366 29047 55101 58000;
0156823920999992007101512004-03700-040350FM-12+008399999V0200901N002110450019N0500001N1+02901+02041101221ADDGF105991041021004501031001KA1240N+02221MA1999999100201MD1999999+0141REMSYN076AAXX  15124 82392 32499 50904 10290 20204 30020 40122 84230 333 20222 58014;
0137823920999992007101518004-03700-040350FM-12+008399999V0200501N002612200019N0500001N1+03581+01441100691ADDGF102991021011004501001001MA1999999099681MD1999999+0101REMSYN070AAXX  15184 82392 32499 20505 10358 20144 39968 40069 82100 333 58010;
0178823920999992007103100004-03700-040350FM-12+008399999V0203601N001012200019N0040001N1+02661+01921100791ADDGA1001+999999999GF100991001001999999001001KA1240M+03741MA1999999099771MD1999999-0091REMSYN082AAXX  31004 82392 32996 03602 10266 20192 39977 40079 333 10374 29052 55105 59009;
0156823920999992007103112004-03700-040350FM-12+008399999V0200901N005112200019N0500001N1+02981+01981100951ADDGF103991031021004501001001KA1240N+02201MA1999999099931MD1999999+0021REMSYN076AAXX  31124 82392 32499 30910 10298 20198 39993 40095 83200 333 20220 58002;
0137823920999992007103118004-03700-040350FM-12+008399999V0200501N001012200019N0500001N1+03641+01381100441ADDGF104991041021004501001001MA1999999099441MD1999999+0161REMSYN070AAXX  31184 82392 32499 40502 10364 20138 39944 40044 84200 333 58016;
0178823920999992007110100004-03700-040350FM-12+008399999V0200501N001012200019N0040001N1+02741+01871100791ADDGA1001+999999999GF100991001001999999001001KA1240M+03701MA1999999099771MD1999999+0001REMSYN082AAXX  01004 82392 32996 00502 10274 20187 39977 40079 333 10370 29050 55088 58000;
0156823920999992007110112004-03700-040350FM-12+008399999V0200901N000510450019N0500001N1+02991+02051101051ADDGF106991041021004501031001KA1240N+02341MA1999999100041MD1999999+0111REMSYN076AAXX  01124 82392 32499 60901 10299 20205 30004 40105 84230 333 20234 58011;
0182823920999992007110118004-03700-040350FM-12+008399999V0203601N000510450019N0500001N1+02961+02211100591ADDAA106001091AY101061AY221061GF106991041061004501031011MA1999999099581MD1999999+0141MW1211REMSYN082AAXX  01184 82392 21499 63601 10296 20221 39958 40059 72102 84631 333 58014 60011;
0178823920999992007110200004-03700-040350FM-12+008399999V0200501N005112200019N0040001N1+02611+02181100951ADDGA1001+999999999GF100991001001999999001001KA1240M+03701MA1999999099931MD1999999+0161REMSYN082AAXX  02004 82392 32996 00510 10261 20218 39993 40095 333 10370 29069 55071 58016;
0173823920999992007110212004-03700-040350FM-12+008399999V0200901N001012200019N0500001N1+02811+02081101271ADDAA124001091GF103991031021004501001001KA1240N+02201MA1999999100221MD1999999-0211REMSYN082AAXX  02124 82392 22499 30902 10281 20208 30022 40127 83200 333 20220 59021 60014;
0137823920999992007110218004-03700-040350FM-12+008399999V0203601N001510450019N0500001N1+03601+01521100701ADDGF105991041021004501011001MA1999999099691MD1999999+0111REMSYN070AAXX  02184 82392 32499 53603 10360 20152 39969 40070 84210 333 58011;
0178823920999992007110300004-03700-040350FM-12+008399999V0203601N005712200019N0040001N1+02721+01881101061ADDGA1001+999999999GF100991001001999999001001KA1240M+03681MA1999999100041MD1999999+0111REMSYN082AAXX  03004 82392 32996 03611 10272 20188 30004 40106 333 10368 29054 55081 58011;
0156823920999992007110312004-03700-040350FM-12+008399999V0200901N002112200019N0500001N1+02941+01911101141ADDGF104991041021004501001001KA1240N+02101MA1999999100121MD1999999-0131REMSYN076AAXX  03124 82392 32499 40904 10294 20191 30012 40114 84200 333 20210 59013;
0137823920999992007110318004-03700-040350FM-12+008399999V0203601N003112200019N0500001N1+03621+01591100561ADDGF104991041021004501001001MA1999999099561MD1999999-0131REMSYN070AAXX  03184 82392 32499 43606 10362 20159 39956 40056 84200 333 59013;
0178823920999992007110400004-03700-040350FM-12+008399999V0200501N002612200019N0040001N1+02621+01911101021ADDGA1001+999999999GF100991001001999999001001KA1240M+03801MA1999999100001MD1999999-0041REMSYN082AAXX  04004 82392 32996 00505 10262 20191 30000 40102 333 10380 29054 55106 59004;
0156823920999992007110412004-03700-040350FM-12+008399999V0200901N001510450019N0500001N1+02991+01941101091ADDGF106991041021004501031001KA1240N+02121MA1999999100071MD1999999-0051REMSYN076AAXX  04124 82392 32499 60903 10299 20194 30007 40109 84230 333 20212 59005;
0137823920999992007110418004-03700-040350FM-12+008399999V0200501N000510042019N0500001N1+03621+01591100461ADDGF105991051021004501001001MA1999999099461MD1999999-0101REMSYN070AAXX  04184 82392 32499 50501 10362 20159 39946 40046 85200 333 59010;
0178823920999992007110500004-03700-040350FM-12+008399999V0203601N001012200019N0040001N1+02671+01781100831ADDGA1001+999999999GF100991001001999999001001KA1240M+03661MA1999999099811MD1999999-0191REMSYN082AAXX  05004 82392 32996 03602 10267 20178 39981 40083 333 10366 29050 55098 59019;
0156823920999992007110512004-03700-040350FM-12+008399999V0200901N005110042019N0500001N1+02881+01891101021ADDGF106991051041004501031001KA1240N+02101MA1999999100001MD1999999-0071REMSYN076AAXX  05124 82392 32499 60910 10288 20189 30000 40102 85430 333 20210 59007;
0137823920999992007110518004-03700-040350FM-12+008399999V0200901N002112200019N0500001N1+03701+01311100371ADDGF103991031021004501001001MA1999999099371MD1999999-0091REMSYN070AAXX  05184 82392 32499 30904 10370 20131 39937 40037 83200 333 59009;
0178823920999992007110600004-03700-040350FM-12+008399999V0203601N001012200019N0040001N1+02671+01731100831ADDGA1001+999999999GF100991001001999999001001KA1240M+03741MA1999999099811MD1999999+0001REMSYN082AAXX  06004 82392 32996 03602 10267 20173 39981 40083 333 10374 29048 55104 58000;
0156823920999992007110612004-03700-040350FM-12+008399999V0200901N004612200019N0500001N1+03001+02001101181ADDGF104991041021004501001001KA1240N+02081MA1999999100161MD1999999+0161REMSYN076AAXX  06124 82392 32499 40909 10300 20200 30016 40118 84200 333 20208 58016;
0137823920999992007110618004-03700-040350FM-12+008399999V0200901N001012200019N0500001N1+03631+01381100611ADDGF101991011011004501001001MA1999999099611MD1999999+0241REMSYN070AAXX  06184 82392 32499 10902 10363 20138 39961 40061 81100 333 58024;
0178823920999992007110700004-03700-040350FM-12+008399999V0203601N002112200019N0040001N1+02711+02001101041ADDGA1001+999999999GF100991001001999999001001KA1240M+03731MA1999999100031MD1999999+0221REMSYN082AAXX  07004 82392 32996 03604 10271 20200 30003 40104 333 10373 29053 55113 58022;
0156823920999992007110712004-03700-040350FM-12+008399999V0200901N003112200019N0500001N1+03021+01691101161ADDGF101991011011004501001001KA1240N+02211MA1999999100151MD1999999-0011REMSYN076AAXX  07124 82392 32499 10906 10302 20169 30015 40116 81100 333 20221 59001;
0137823920999992007110718004-03700-040350FM-12+008399999V0200901N002112200019N0500001N1+03721+01391100551ADDGF101991011011004501001001MA1999999099551MD1999999-0061REMSYN070AAXX  07184 82392 32499 10904 10372 20139 39955 40055 81100 333 59006;
0178823920999992007110800004-03700-040350FM-12+008399999V0203601N001012200019N0040001N1+02711+02001100961ADDGA1001+999999999GF100991001001999999001001KA1240M+03781MA1999999099951MD1999999+0081REMSYN082AAXX  08004 82392 32996 03602 10271 20200 39995 40096 333 10378 29050 55114 58008;
0156823920999992007110812004-03700-040350FM-12+008399999V0200901N001510042019N0500001N1+03031+02001100961ADDGF105991051021004501001001KA1240N+02531MA1999999099951MD1999999-0201REMSYN076AAXX  08124 82392 32499 50903 10303 20200 39995 40096 85200 333 20253 59020;
0137823920999992007110818004-03700-040350FM-12+008399999V0200901N001012200019N0500001N1+03641+01651100391ADDGF104991041021004501001001MA1999999099391MD1999999-0161REMSYN070AAXX  08184 82392 32499 40902 10364 20165 39939 40039 84200 333 59016;
0178823920999992007110900004-03700-040350FM-12+008399999V0203601N005112200019N0040001N1+02801+02081100791ADDGA1001+999999999GF100991001001999999001001KA1240M+03781MA1999999099781MD1999999-0171REMSYN082AAXX  09004 82392 32996 03610 10280 20208 39978 40079 333 10378 29054 55105 59017;
0156823920999992007110912004-03700-040350FM-12+008399999V0200901N004612200019N0500001N1+02981+02061100911ADDGF103991021011004501001011KA1240N+02301MA1999999099901MD1999999-0051REMSYN076AAXX  09124 82392 32499 30909 10298 20206 39990 40091 82101 333 20230 59005;
0156823920999992007110918004-03700-040350FM-12+008399999V0200501N001012200019N0500001N1+03701+01241100331ADDGF102991999011004501001001MA1999999099331MD1999999-0061REMSYN070AAXX  09184 82392 32499 20502 10370 20124 39933 40033 81100 333 59006;EQDQ01+000012SCOTLC
0178823920999992007111000004-03700-040350FM-12+008399999V0200501N005712200019N0040001N1+02721+02081100751ADDGA1001+999999999GF100991001001999999001001KA1240M+03821MA1999999099741MD1999999-0041REMSYN082AAXX  10004 82392 32996 00511 10272 20208 39974 40075 333 10382 29054 55110 59004;
0156823920999992007111012004-03700-040350FM-12+008399999V0200901N001510042019N0500001N1+02931+01911100931ADDGF105991051021004501001001KA1240N+02361MA1999999099911MD1999999+0011REMSYN076AAXX  10124 82392 32499 50903 10293 20191 39991 40093 85200 333 20236 58001;
0137823920999992007111018004-03700-040350FM-12+008399999V0209999C000012200019N0500001N1+03711+01391100261ADDGF102991011011004501011001MA1999999099261MD1999999-0071REMSYN070AAXX  10184 82392 32499 20000 10371 20139 39926 40026 81110 333 59007;
0178823920999992007111100004-03700-040350FM-12+008399999V0203601N003112200019N0040001N1+02671+01971100761ADDGA1001+999999999GF100991001001999999001001KA1240M+03801MA1999999099741MD1999999-0031REMSYN082AAXX  11004 82392 32996 03606 10267 20197 39974 40076 333 10380 29052 55102 59003;
0156823920999992007111112004-03700-040350FM-12+008399999V0200901N003112200019N0500001N1+02901+02201100981ADDGF104991041021004501001001KA1240N+02491MA1999999099961MD1999999+0051REMSYN076AAXX  11124 82392 32499 40906 10290 20220 39996 40098 84200 333 20249 58005;
0137823920999992007111118004-03700-040350FM-12+008399999V0200901N001012200019N0500001N1+03641+01651100441ADDGF103991031021004501001001MA1999999099441MD1999999+0181REMSYN070AAXX  11184 82392 32499 30902 10364 20165 39944 40044 83200 333 58018;
0178823920999992007111200004-03700-040350FM-12+008399999V0200501N005112200019N0040001N1+02681+02221100891ADDGA1001+999999999GF100991001001999999001001KA1240M+03771MA1999999099871MD1999999+0161REMSYN082AAXX  12004 82392 32996 00510 10268 20222 39987 40089 333 10377 29062 55093 58016;
0156823920999992007111212004-03700-040350FM-12+008399999V0200501N001012200019N0500001N1+02901+02041101161ADDGF104991041041004501001001KA1240N+02101MA1999999100141MD1999999+0181REMSYN076AAXX  12124 82392 32499 40502 10290 20204 30014 40116 84400 333 20210 58018;
0137823920999992007111218004-03700-040350FM-12+008399999V0200901N001012200019N0500001N1+03581+01701100551ADDGF104991041021004501001001MA1999999099551MD1999999+0111REMSYN070AAXX  12184 82392 32499 40902 10358 20170 39955 40055 84200 333 58011;
0168823920999992007111300004-03700-040350FM-12+008399999V0203601N002612200019N0040001N1+02631+02031100931ADDGF102991021011004501001001KA1240M+03691MA1999999099911MD1999999+0041REMSYN088AAXX  13004 82392 32496 23605 10263 20203 39991 40093 82100 333 10369 29058 55095 58004;
0156823920999992007111312004-03700-040350FM-12+008399999V0200901N004110450019N0500001N1+02861+01871101081ADDGF105991031021004501031001KA1240N+02201MA1999999100061MD1999999-0081REMSYN076AAXX  13124 82392 32499 50908 10286 20187 30006 40108 83230 333 20220 59008;
0137823920999992007111318004-03700-040350FM-12+008399999V0200501N003112200019N0500001N1+03601+01411100491ADDGF103991031021004501001001MA1999999099491MD1999999-0061REMSYN070AAXX  13184 82392 32499 30506 10360 20141 39949 40049 83200 333 59006;
0178823920999992007111400004-03700-040350FM-12+008399999V0200501N001012200019N0040001N1+02651+01711100961ADDGA1001+999999999GF100991001001999999001001KA1240M+03671MA1999999099941MD1999999+0031REMSYN082AAXX  14004 82392 32996 00502 10265 20171 39994 40096 333 10367 29049 55109 58003;
0156823920999992007111412004-03700-040350FM-12+008399999V0200901N004612200019N0500001N1+02961+02151101131ADDGF104991031021004501001011KA1240N+02081MA1999999100111MD1999999+0051REMSYN076AAXX  14124 82392 32499 40909 10296 20215 30011 40113 83201 333 20208 58005;
0137823920999992007111418004-03700-040350FM-12+008399999V0200901N002112200019N0500001N1+03461+01731100631ADDGF104991041021004501001001MA1999999099621MD1999999+0131REMSYN070AAXX  14184 82392 32499 40904 10346 20173 39962 40063 84200 333 58013;
0178823920999992007111500004-03700-040350FM-12+008399999V0200501N002112200019N0040001N1+02611+02011101071ADDGA1001+999999999GF100991001001999999001001KA1240M+03621MA1999999100051MD1999999+0111REMSYN082AAXX  15004 82392 32996 00504 10261 20201 30005 40107 333 10362 29059 55087 58011;
0156823920999992007111512004-03700-040350FM-12+008399999V0201401N001512200019N0500001N1+03011+02021101131ADDGF104991041021004501001001KA1240N+02101MA1999999100121MD1999999+0011REMSYN076AAXX  15124 82392 32499 41403 10301 20202 30012 40113 84200 333 20210 58001;
0137823920999992007111518004-03700-040350FM-12+008399999V0200901N001012200019N0500001N1+03511+01501100681ADDGF104991041021004501001001MA1999999099671MD1999999+0051REMSYN070AAXX  15184 82392 32499 40902 10351 20150 39967 40068 84200 333 58005;
0178823920999992007111600004-03700-040350FM-12+008399999V0200501N004612200019N0040001N1+02721+02111100981ADDGA1001+999999999GF100991001001999999001001KA1240M+03681MA1999999099971MD1999999-0081REMSYN082AAXX  16004 82392 32996 00509 10272 20211 39997 40098 333 10368 29056 55108 59008;
0156823920999992007111612004-03700-040350FM-12+008399999V0200901N005112200019N0500001N1+02981+01981101161ADDGF104991041021004501001001KA1240N+02191MA1999999100151MD1999999+0031REMSYN076AAXX  16124 82392 32499 40910 10298 20198 30015 40116 84200 333 20219 58003;
0137823920999992007111618004-03700-040350FM-12+008399999V0201401N001512200019N0500001N1+03751+01361100711ADDGF102991021011004501001001MA1999999099701MD1999999+0031REMSYN070AAXX  16184 82392 32499 21403 10375 20136 39970 40071 82100 333 58003;
0178823920999992007111700004-03700-040350FM-12+008399999V0200501N005112200019N0040001N1+02781+02231100931ADDGA1001+999999999GF100991001001999999001001KA1240M+03781MA1999999099921MD1999999-0051REMSYN082AAXX  17004 82392 32996 00510 10278 20223 39992 40093 333 10378 29056 55109 59005;
0156823920999992007111712004-03700-040350FM-12+008399999V0200901N004612200019N0500001N1+03001+01841101161ADDGF103991021011004501001011KA1240N+02311MA1999999100151MD1999999+0001REMSYN076AAXX  17124 82392 32499 30909 10300 20184 30015 40116 82101 333 20231 58000;
0137823920999992007111718004-03700-040350FM-12+008399999V0200901N001012200019N0500001N1+03641+01501100641ADDGF103991031021004501001001MA1999999099641MD1999999-0061REMSYN070AAXX  17184 82392 32499 30902 10364 20150 39964 40064 83200 333 59006;
0178823920999992007111800004-03700-040350FM-12+008399999V0200501N004112200019N0040001N1+02741+02141101001ADDGA1001+999999999GF100991001001999999001001KA1240M+03701MA1999999099991MD1999999+0071REMSYN082AAXX  18004 82392 32996 00508 10274 20214 39999 40100 333 10370 29054 55113 58007;
0137823920999992007111818004-03700-040350FM-12+008399999V0201801N000512200019N0500001N1+03731+01461100481ADDGF103991021011004501011001MA1999999099481MD1999999-0161REMSYN070AAXX  18184 82392 32499 31801 10373 20146 39948 40048 82110 333 59016;
0168823920999992007111900004-03700-040350FM-12+008399999V0200501N001512200019N0040001N1+02711+01791100971ADDGF102991021001008001031001KA1240M+03761MA1999999099991MD1999999-0031REMSYN088AAXX  19004 82392 32596 20503 10271 20179 39999 40097 82030 333 10376 29046 55113 59003;
0156823920999992007111912004-03700-040350FM-12+008399999V0201401N002610450019N0500001N1+02841+02121101221ADDGF106991031021004501031001KA1240N+02201MA1999999100201MD1999999+0141REMSYN076AAXX  19124 82392 32499 61405 10284 20212 30020 40122 83230 333 20220 58014;
0137823920999992007111918004-03700-040350FM-12+008399999V0200901N001012200019N0500001N1+03561+01781100591ADDGF104991041021004501001001MA1999999099591MD1999999+0111REMSYN070AAXX  19184 82392 32499 40902 10356 20178 39959 40059 84200 333 58011;
0156823920999992007112012004-03700-040350FM-12+008399999V0200901N002110450019N0500001N1+02781+02131101171ADDGF108991041051004501021999KA1240N+02301MA1999999100151MD1999999-0051REMSYN076AAXX  20124 82392 32499 80904 10278 20213 30015 40117 8452/ 333 20230 59005;
0137823920999992007112018004-03700-040350FM-12+008399999V0200501N002112200019N0500001N1+03591+01721100631ADDGF103991031011004501001001MA1999999099631MD1999999+0041REMSYN070AAXX  20184 82392 32499 30504 10359 20172 39963 40063 83100 333 58004;
0178823920999992007112100004-03700-040350FM-12+008399999V0203601N001012200019N0040001N1+02721+02001101041ADDGA1001+999999999GF100991001001999999001001KA1240M+03631MA1999999100021MD1999999+0151REMSYN082AAXX  21004 82392 32996 03602 10272 20200 30002 40104 333 10363 29058 55075 58015;
0156823920999992007112112004-03700-040350FM-12+008399999V0200901N002612200019N0500001N1+02981+02121101191ADDGF104991041041004501001001KA1240N+02401MA1999999100181MD1999999+0031REMSYN076AAXX  21124 82392 32499 40905 10298 20212 30018 40119 84400 333 20240 58003;
0137823920999992007112118004-03700-040350FM-12+008399999V0200901N002110450019N0500001N1+03741+01741100691ADDGF106991031021004501031001MA1999999099681MD1999999+0051REMSYN070AAXX  21184 82392 32499 60904 10374 20174 39968 40069 83230 333 58005;
0178823920999992007112200004-03700-040350FM-12+008399999V0203601N002112200019N0040001N1+02731+02141101111ADDGA1001+999999999GF100991001001999999001001KA1240M+03771MA1999999100101MD1999999+0081REMSYN082AAXX  22004 82392 32996 03604 10273 20214 30010 40111 333 10377 29058 55087 58008;
0156823920999992007112212004-03700-040350FM-12+008399999V0200901N001510450019N0500001N1+02991+02111101211ADDGF106991041041004501031001KA1240N+02481MA1999999100201MD1999999+0021REMSYN076AAXX  22124 82392 32499 60903 10299 20211 30020 40121 84430 333 20248 58002;
0137823920999992007112218004-03700-040350FM-12+008399999V0203601N001012200019N0500001N1+03731+01691100661ADDGF103991031021004501001001MA1999999099651MD1999999-0021REMSYN070AAXX  22184 82392 32499 33602 10373 20169 39965 40066 83200 333 59002;
0178823920999992007112300004-03700-040350FM-12+008399999V0203601N004112200019N0040001N1+02721+01951101051ADDGA1001+999999999GF100991001001999999001001KA1240M+03771MA1999999100041MD1999999-0061REMSYN082AAXX  23004 82392 32996 03608 10272 20195 30004 40105 333 10377 29054 55098 59006;
0156823920999992007112312004-03700-040350FM-12+008399999V0200901N001012200019N0500001N1+02981+02091101131ADDGF104991041021004501001001KA1240N+02211MA1999999100121MD1999999-0081REMSYN076AAXX  23124 82392 32499 40902 10298 20209 30012 40113 84200 333 20221 59008;
0137823920999992007112318004-03700-040350FM-12+008399999V0203601N000510450019N0500001N1+03561+01911100601ADDGF106991031051004501031001MA1999999099601MD1999999-0051REMSYN070AAXX  23184 82392 32499 63601 10356 20191 39960 40060 83530 333 59005;
0168823920999992007112400004-03700-040350FM-12+008399999V0200501N004612200019N0040001N1+02741+02141101011ADDGF102991021001008001031001KA1240M+03681MA1999999100001MD1999999-0041REMSYN088AAXX  24004 82392 32596 20509 10274 20214 30000 40101 82030 333 10368 29059 55092 59004;
0156823920999992007112418004-03700-040350FM-12+008399999V0203601N000519999999N0500001N1+03541+01851100521ADDGF106991999061004501001001MA1999999099521MD1999999-0081REMSYN070AAXX  24184 82392 32499 63601 10354 20185 39952 40052 83600 333 59008;EQDQ01+000032SCOTLC
0232823920999992007112500004-03700-040350FM-12+008399999V0203601N002112200019N0040001N1+02661+02141100951ADDAA106000091AY151061AY251061GF102991021001008001031001KA1240M+03681MA1999999099931MD1999999-0071MW1021REMSYN100AAXX  25004 82392 21596 23604 10266 20214 39993 40095 70255 82030 333 10368 29063 55055 59007 69911;EQDQ01  00002PRCP06
0192823920999992007112512004-03700-040350FM-12+008399999V0200501N001012200019N0500001N1+02961+02051100981ADDAA124000091GF104991041021004501001001KA1240N+02431MA1999999099961MD1999999+0031REMSYN082AAXX  25124 82392 22499 40502 10296 20205 39996 40098 84200 333 20243 58003 69914;EQDQ01  00002PRCP24
0137823920999992007112518004-03700-040350FM-12+008399999V0200501N002112200019N0500001N1+03541+02341100871ADDGF104991041021004501001001MA1999999099861MD1999999+0341REMSYN070AAXX  25184 82392 32499 40504 10354 20234 39986 40087 84200 333 58034;
0156823920999992007112612004-03700-040350FM-12+008399999V0200501N001010450019N0500001N1+02891+02041101071ADDGF106991031061004501031001KA1240N+02311MA1999999100051MD1999999+0091REMSYN076AAXX  26124 82392 32499 60502 10289 20204 30005 40107 83630 333 20231 58009;
0137823920999992007112618004-03700-040350FM-12+008399999V0200901N001510450019N0500001N1+03451+01901100601ADDGF105991021061004501031001MA1999999099601MD1999999+0011REMSYN070AAXX  26184 82392 32499 50903 10345 20190 39960 40060 82630 333 58001;
0178823920999992007112700004-03700-040350FM-12+008399999V0203601N001012200019N0040001N1+02611+02071100981ADDGA1001+999999999GF100991001001999999001001KA1240M+03561MA1999999099961MD1999999+0051REMSYN082AAXX  27004 82392 32996 03602 10261 20207 39996 40098 333 10356 29061 55074 58005;
0156823920999992007112712004-03700-040350FM-12+008399999V0200501N000512200019N0500001N1+02991+02001101021ADDGF104991041021004501001001KA1240N+02201MA1999999100001MD1999999-0051REMSYN076AAXX  27124 82392 32499 40501 10299 20200 30000 40102 84200 333 20220 59005;
0137823920999992007112718004-03700-040350FM-12+008399999V0200501N000512200019N0500001N1+03561+01681100471ADDGF104991031021004501001011MA1999999099471MD1999999-0131REMSYN070AAXX  27184 82392 32499 40501 10356 20168 39947 40047 83201 333 59013;
0178823920999992007112800004-03700-040350FM-12+008399999V0203601N001512200019N0040001N1+02691+01961100811ADDGA1001+999999999GF100991001001999999001001KA1240M+03691MA1999999099791MD1999999-0171REMSYN082AAXX  28004 82392 32996 03603 10269 20196 39979 40081 333 10369 29054 55108 59017;
0156823920999992007112812004-03700-040350FM-12+008399999V0200901N001510042019N0500001N1+02861+02061100981ADDGF107991051051004501031001KA1240N+02261MA1999999099961MD1999999-0041REMSYN076AAXX  28124 82392 32499 70903 10286 20206 39996 40098 85530 333 20226 59004;
0137823920999992007112818004-03700-040350FM-12+008399999V0201401N001012200019N0500001N1+03681+01531100411ADDGF105991031011004501001011MA1999999099411MD1999999-0061REMSYN070AAXX  28184 82392 32499 51402 10368 20153 39941 40041 83101 333 59006;
0178823920999992007112900004-03700-040350FM-12+008399999V0203601N002612200019N0040001N1+02681+02041100861ADDGA1001+999999999GF100991001001999999001001KA1240M+03791MA1999999099841MD1999999+0051REMSYN082AAXX  29004 82392 32996 03605 10268 20204 39984 40086 333 10379 29057 55106 58005;
0156823920999992007112912004-03700-040350FM-12+008399999V0200501N001010042019N0500001N1+02981+02041100961ADDGF105991051021004501001001KA1240N+02301MA1999999099941MD1999999-0021REMSYN076AAXX  29124 82392 32499 50502 10298 20204 39994 40096 85200 333 20230 59002;
0137823920999992007112918004-03700-040350FM-12+008399999V0201801N000510450019N0500001N1+03681+01741100451ADDGF106991041051004501031001MA1999999099451MD1999999+0041REMSYN070AAXX  29184 82392 32499 61801 10368 20174 39945 40045 84530 333 58004;
0178823920999992007113000004-03700-040350FM-12+008399999V0203601N004112200019N0040001N1+02721+02151100811ADDGA1001+999999999GF100991001001999999001001KA1240M+03681MA1999999099801MD1999999-0041REMSYN082AAXX  30004 82392 32996 03608 10272 20215 39980 40081 333 10368 29058 55072 59004;
0156823920999992007113012004-03700-040350FM-12+008399999V0200901N000510042019N0500001N1+02941+02001101021ADDGF107991061051004501031001KA1240N+02331MA1999999100001MD1999999+0061REMSYN076AAXX  30124 82392 32499 70901 10294 20200 30000 40102 86530 333 20233 58006;
0137823920999992007113018004-03700-040350FM-12+008399999V0200901N000510450019N0500001N1+03421+01871100511ADDGF105991041021004501011001MA1999999099511MD1999999+0061REMSYN070AAXX  30184 82392 32499 50901 10342 20187 39951 40051 84210 333 58006;
0178823920999992007120100004-03700-040350FM-12+008399999V0203601N001012200019N0040001N1+02671+02091100751ADDGA1001+999999999GF100991001001999999001001KA1240M+03541MA1999999099731MD1999999-0071REMSYN082AAXX  01004 82392 32996 03602 10267 20209 39973 40075 333 10354 29059 55056 59007;
0178823920999992007120200004-03700-040350FM-12+008399999V0200501N005712200019N0040001N1+02721+02261100931ADDGA1001+999999999GF100991001001999999001001KA1240M+03681MA1999999099911MD1999999+0181REMSYN082AAXX  02004 82392 32996 00511 10272 20226 39991 40093 333 10368 29075 55057 58018;
0156823920999992007120212004-03700-040350FM-12+008399999V0200901N001510450019N0500001N1+03031+02031101151ADDGF106991041021004501031001KA1240N+02451MA1999999100141MD1999999+0071REMSYN076AAXX  02124 82392 32499 60903 10303 20203 30014 40115 84230 333 20245 58007;
0156823920999992007120312004-03700-040350FM-12+008399999V0200501N004610450019N0500001N1+02881+02081101161ADDGF105991031021004501031001KA1240N+02221MA1999999100141MD1999999+0001REMSYN076AAXX  03124 82392 32499 50509 10288 20208 30014 40116 83230 333 20222 58000;
0178823920999992007120400004-03700-040350FM-12+008399999V0203601N002612200019N0040001N1+02711+02081100931ADDGA1001+999999999GF100991001001999999001001KA1240M+03741MA1999999100911MD1999999-0041REMSYN082AAXX  04004 82392 32996 03605 10271 20208 30091 40093 333 10374 29066 55096 59004;
0156823920999992007120412004-03700-040350FM-12+008399999V0200501N004110450019N0040001N1+02881+02051101151ADDGF105991041021004501031001KA1240N+02401MA1999999100131MD1999999-0011REMSYN076AAXX  04124 82392 32496 50508 10288 20205 30013 40115 84230 333 20240 59001;
0178823920999992007120500004-03700-040350FM-12+008399999V0200501N003112200019N0040001N1+02781+01981100911ADDGA1001+999999999GF100991001001999999001001KA1240M+03731MA1999999099891MD1999999-0021REMSYN082AAXX  05004 82392 32996 00506 10278 20198 39989 40091 333 10373 29062 55105 59002;
0156823920999992007120512004-03700-040350FM-12+008399999V0200501N001010450019N0500001N1+02921+02091101251ADDGF106991041021004501031001KA1240N+02391MA1999999100241MD1999999+0111REMSYN076AAXX  05124 82392 32499 60502 10292 20209 30024 40125 84230 333 20239 58011;
0192823920999992007120612004-03700-040350FM-12+008399999V0200901N001012200019N0500001N1+02881+02211101301ADDAA124000091GF104991041021004501001001KA1240N+02401MA1999999100281MD1999999+0041REMSYN082AAXX  06124 82392 22499 40902 10288 20221 30028 40130 84200 333 20240 58004 69914;EQDQ01  00002PRCP24
0168823920999992007120700004-03700-040350FM-12+008399999V0200501N004112200019N0040001N1+02761+02041101051ADDGF103991031021004501001001KA1240M+03581MA1999999100031MD1999999-0121REMSYN088AAXX  07004 82392 32496 30508 10276 20204 30003 40105 83200 333 10358 29066 55056 59012;
0156823920999992007120712004-03700-040350FM-12+008399999V0200501N003110450019N0500001N1+02941+02191101231ADDGF105991031021004501031001KA1240N+02381MA1999999100221MD1999999-0061REMSYN076AAXX  07124 82392 32499 50506 10294 20219 30022 40123 83230 333 20238 59006;
0223823920999992007120800004-03700-040350FM-12+008399999V0200501N002612200019N0040001N1+02581+02401100961ADDAA106003091AY161061AY221061GA1001+999999999GF100991001001999999001001KA1240M+03441MA1999999099941MD1999999-0041MW1021REMSYN094AAXX  08004 82392 21996 00505 10258 20240 39994 40096 70262 333 10344 29081 55060 59004 60031;
0178823920999992007120900004-03700-040350FM-12+008399999V0200501N003112200019N0040001N1+02681+02111100931ADDGA1001+999999999GF100991001001999999001001KA1240M+03561MA1999999099911MD1999999-0031REMSYN082AAXX  09004 82392 32996 00506 10268 20211 39991 40093 333 10356 29070 55090 59003;
0156823920999992007120912004-03700-040350FM-12+008399999V0200901N002612200019N0500001N1+02901+02041101171ADDGF104991041021004501001001KA1240N+02161MA1999999100151MD1999999+0071REMSYN076AAXX  09124 82392 32499 40905 10290 20204 30015 40117 84200 333 20216 58007;
0178823920999992007121000004-03700-040350FM-12+008399999V0203601N003112200019N0040001N1+02761+02141100931ADDGA1001+999999999GF100991001001999999001001KA1240M+03741MA1999999099911MD1999999+0001REMSYN082AAXX  10004 82392 32996 03606 10276 20214 39991 40093 333 10374 29067 55108 58000;
0232823920999992007121100004-03700-040350FM-12+008399999V0200501N005712200019N0040001N1+02721+02281100971ADDAA106000091AY151061AY221061GF102991021001004501031001KA1240M+03761MA1999999099951MD1999999+0041MW1021REMSYN100AAXX  11004 82392 21496 20511 10272 20228 39995 40097 70252 82030 333 10376 29072 55085 58004 69911;EQDQ01  00002PRCP06
0192823920999992007121112004-03700-040350FM-12+008399999V0200901N003110450019N0500001N1+02921+02041101041ADDAA124000091GF105991031021004501031001KA1240N+02551MA1999999100021MD1999999-0031REMSYN082AAXX  11124 82392 22499 50906 10292 20204 30002 40104 83230 333 20255 59003 69914;EQDQ01  00002PRCP24
0178823920999992007121200004-03700-040350FM-12+008399999V0203601N003112200019N0040001N1+02701+02131100831ADDGA1001+999999999GF100991001001999999001001KA1240M+03591MA1999999099811MD1999999-0141REMSYN082AAXX  12004 82392 32996 03606 10270 20213 39981 40083 333 10359 29067 55056 59014;
0175823920999992007121212004-03700-040350FM-12+008399999V0200901N002619999999N0500001N1+02941+02081101071ADDGF106991999021004501001001KA1240N+02381MA1999999100051MD1999999+0031REMSYN076AAXX  12124 82392 32499 60905 10294 20208 30005 40107 83200 333 20238 58003;EQDQ01+000032SCOTLC
0178823920999992007121300004-03700-040350FM-12+008399999V0203601N004112200019N0040001N1+02681+02161100781ADDGA1001+999999999GF100991001001999999001001KA1240M+03681MA1999999099761MD1999999-0051REMSYN082AAXX  13004 82392 32996 03608 10268 20216 39976 40078 333 10368 29069 55088 59005;
0156823920999992007121312004-03700-040350FM-12+008399999V0203601N001012200019N0040001N1+02801+02131101001ADDGF103991031021999999001001KA1240N+02341MA1999999099981MD1999999-0071REMSYN076AAXX  13124 82392 32996 33602 10280 20213 39998 40100 83200 333 20234 59007;
0178823920999992007121400004-03700-040350FM-12+008399999V0200501N004612200019N0040001N1+02681+02261101021ADDGA1001+999999999GF100991001001999999001001KA1240M+03441MA1999999100001MD1999999+0241REMSYN082AAXX  14004 82392 32596 00509 10268 20226 30000 40102 333 10344 29074 55048 58024;
0213823920999992007121500004-03700-040350FM-12+008399999V0200501N000510450019N0040001N1+02421+02391100931ADDAA106000891AY161061AY221061GF108991041061004501021999KA1240M+03401MA1999999099911MD1999999-0091MW1021REMSYN100AAXX  15004 82392 21496 80501 10242 20239 39991 40093 70262 8462/ 333 10340 29089 55008 59009 69971;
0173823920999992007121512004-03700-040350FM-12+008399999V0201801N002110450019N0500001N1+02741+02241100901ADDAA124000891GF106991021021004501031001KA1240N+02311MA1999999099881MD1999999-0181REMSYN082AAXX  15124 82392 22499 61804 10274 20224 39988 40090 82230 333 20231 59018 69974;
0168823920999992007121600004-03700-040350FM-12+008399999V0203601N003112200019N0040001N1+02681+02311100801ADDGF102991021001004501031001KA1240M+03571MA1999999099781MD1999999-0131REMSYN088AAXX  16004 82392 32496 23606 10268 20231 39978 40080 82030 333 10357 29078 55044 59013;
0201823920999992007121612004-03700-040350FM-12+008399999V0202301N002110450019N0200001N1+02301+02271101091ADDAA124019191AY161061AY261061GF108991031061004501021999KA1240N+02101MA1999999100061MD1999999+0181MW1521REMSYN088AAXX  16124 82392 21498 82304 10230 20227 30006 40109 75266 8362/ 333 20210 58018 60194;
0168823920999992007121700004-03700-040350FM-12+008399999V0209999C000010450019N0040001N1+02241+02211100961ADDGF107991031041004501031001KA1240M+02741MA1999999099931MD1999999+0151REMSYN088AAXX  17004 82392 32496 70000 10224 20221 39993 40096 83430 333 10274 29098 55000 58015;
0173823920999992007121712004-03700-040350FM-12+008399999V0200901N001012200019N0500001N1+02661+02181101171ADDAA124023991GF104991041021004501001001KA1240N+02121MA1999999100141MD1999999+0081REMSYN082AAXX  17124 82392 22499 40902 10266 20218 30014 40117 84200 333 20212 58008 60244;
0168823920999992007121800004-03700-040350FM-12+008399999V0200501N003112200019N0040001N1+02621+02031101061ADDGF101991011001004501031001KA1240M+03381MA1999999100041MD1999999+0111REMSYN088AAXX  18004 82392 32496 10506 10262 20203 30004 40106 81030 333 10338 29072 55084 58011;
0156823920999992007121812004-03700-040350FM-12+008399999V0200501N002112200019N0500001N1+02761+02161101141ADDGF104991041021004501001001KA1240N+02141MA1999999100121MD1999999-0021REMSYN076AAXX  18124 82392 32499 40504 10276 20216 30012 40114 84200 333 20214 59002;
0178823920999992007121900004-03700-040350FM-12+008399999V0200501N002112200019N0040001N1+02681+02181100981ADDGA1001+999999999GF100991001001999999001001KA1240M+03541MA1999999099961MD1999999-0081REMSYN082AAXX  19004 82392 32596 00504 10268 20218 39996 40098 333 10354 29073 55100 59008;
0156823920999992007121912004-03700-040350FM-12+008399999V0203601N001010450019N0500001N1+02721+02171101111ADDGF106991031021004501031001KA1240N+02201MA1999999100091MD1999999-0031REMSYN076AAXX  19124 82392 32499 63602 10272 20217 30009 40111 83230 333 20220 59003;
0178823920999992007122000004-03700-040350FM-12+008399999V0203601N002112200019N0040001N1+02761+01621100891ADDGA1001+999999999GF100991001001999999001001KA1240M+03561MA1999999099871MD1999999-0091REMSYN082AAXX  20004 82392 32996 03604 10276 20162 39987 40089 333 10356 29057 55094 59009;
0156823920999992007122012004-03700-040350FM-12+008399999V0200901N004110450019N0500001N1+02861+02161101011ADDGF106991031021004501031001KA1240N+02181MA1999999099991MD1999999-0101REMSYN076AAXX  20124 82392 32499 60908 10286 20216 39999 40101 83230 333 20218 59010;
0178823920999992007122100004-03700-040350FM-12+008399999V0200501N002612200019N0040001N1+02721+01931100911ADDGA1001+999999999GF100991001001999999001001KA1240M+03641MA1999999099891MD1999999+0021REMSYN082AAXX  21004 82392 32996 00505 10272 20193 39989 40091 333 10364 29063 55107 58002;
0156823920999992007122112004-03700-040350FM-12+008399999V0200901N003112200019N0500001N1+02941+02111101061ADDGF103991021021004501001011KA1240N+02191MA1999999100041MD1999999+0051REMSYN076AAXX  21124 82392 32499 30906 10294 20211 30004 40106 82201 333 20219 58005;
0168823920999992007122200004-03700-040350FM-12+008399999V0200501N004612200019N0040001N1+02781+01961100901ADDGF102991021001004501031001KA1240M+03581MA1999999099891MD1999999+0001REMSYN088AAXX  22004 82392 32496 20509 10278 20196 39989 40090 82030 333 10358 29061 55105 58000;
0156823920999992007122212004-03700-040350FM-12+008399999V0201801N001510450019N0040001N1+02881+02251101111ADDGF106991031041004501011001KA1240N+02341MA1999999100051MD1999999+0051REMSYN076AAXX  22124 82392 32496 61803 10288 20225 30005 40111 83410 333 20234 58005;
0156823920999992007122312004-03700-040350FM-12+008399999V0200901N005112200019N0500001N1+02901+02041101091ADDGF104991041021004501001001KA1240N+02381MA1999999100071MD1999999-0021REMSYN076AAXX  23124 82392 32499 40910 10290 20204 30007 40109 84200 333 20238 59002;
0178823920999992007122400004-03700-040350FM-12+008399999V0200501N002612200019N0040001N1+02701+02111100951ADDGA1001+999999999GF100991001001999999001001KA1240M+03681MA1999999099931MD1999999-0011REMSYN082AAXX  24004 82392 32996 00505 10270 20211 39993 40095 333 10368 29067 55101 59001;
0156823920999992007122412004-03700-040350FM-12+008399999V0200901N003110450019N0500001N1+02901+02041101071ADDGF105991021021004501031001KA1240N+02301MA1999999100051MD1999999-0021REMSYN076AAXX  24124 82392 32499 50906 10290 20204 30005 40107 82230 333 20230 59002;
0156823920999992007122512004-03700-040350FM-12+008399999V0200501N001010450019N0500001N1+02821+02201101061ADDGF106991031021004501031001KA1240N+02261MA1999999100041MD1999999-0011REMSYN076AAXX  25124 82392 32499 60502 10282 20220 30004 40106 83230 333 20226 59001;
0178823920999992007122600004-03700-040350FM-12+008399999V0203601N004112200019N0040001N1+02741+01761100931ADDGA1001+999999999GF100991001001999999001001KA1240M+03011MA1999999099911MD1999999+0041REMSYN082AAXX  26004 82392 32996 03608 10274 20176 39991 40093 333 10301 29060 55096 58004;
0156823920999992007122612004-03700-040350FM-12+008399999V0200901N001010450019N0500001N1+02741+02241101071ADDGF107991041051004501031001KA1240N+02251MA1999999100051MD1999999+0011REMSYN076AAXX  26124 82392 32499 70902 10274 20224 30005 40107 84530 333 20225 58001;
0168823920999992007122700004-03700-040350FM-12+008399999V0200501N003112200019N0040001N1+02561+02191100951ADDGF103991031001004501031001KA1240M+03521MA1999999099931MD1999999+0021REMSYN088AAXX  27004 82392 32496 30506 10256 20219 39993 40095 83030 333 10352 29078 55068 58002;
0156823920999992007122712004-03700-040350FM-12+008399999V0200501N002610450019N0500001N1+02801+02201100971ADDGF106991041041004501031001KA1240N+02301MA1999999099951MD1999999-0101REMSYN076AAXX  27124 82392 32499 60505 10280 20220 39995 40097 84430 333 20230 59010;
0178823920999992007122800004-03700-040350FM-12+008399999V0200501N005712200019N0040001N1+02721+02121100941ADDGA1001+999999999GF100991001001999999001001KA1240M+03481MA1999999099921MD1999999-0011REMSYN082AAXX  28004 82392 32996 00511 10272 20212 39992 40094 333 10348 29070 55060 59001;
0175823920999992007122812004-03700-040350FM-12+008399999V0203601N001019999999N0500001N1+02761+02281101041ADDGF106991999041004501001001KA1240N+02281MA1999999100021MD1999999+0071REMSYN076AAXX  28124 82392 32499 63602 10276 20228 30002 40104 83400 333 20228 58007;EQDQ01+000032SCOTLC
0178823920999992007122900004-03700-040350FM-12+008399999V0200501N003112200019N0040001N1+02701+01861100871ADDGA1001+999999999GF100991001001999999001001KA1240M+03601MA1999999099851MD1999999-0071REMSYN082AAXX  29004 82392 32996 00506 10270 20186 39985 40087 333 10360 29065 55087 59007;
0156823920999992007122912004-03700-040350FM-12+008399999V0200501N002612200019N0500001N1+02821+01941101021ADDGF104991041021004501001001KA1240N+02221MA1999999100001MD1999999-0021REMSYN076AAXX  29124 82392 32499 40505 10282 20194 30000 40102 84200 333 20222 59002;
0178823920999992007123000004-03700-040350FM-12+008399999V0200501N004112200019N0040001N1+02701+01941100951ADDGA1001+999999999GF100991001001999999001001KA1240M+03481MA1999999099991MD1999999+0081REMSYN082AAXX  30004 82392 32996 00508 10270 20194 39999 40095 333 10348 29062 55062 58008;
0156823920999992007123012004-03700-040350FM-12+008399999V0200501N002112200019N0500001N1+02961+01991101091ADDGF104991041021004501001001KA1240N+02311MA1999999100071MD1999999+0071REMSYN076AAXX  30124 82392 32499 40504 10296 20199 30007 40109 84200 333 20231 58007;
0187823920999992007123100004-03700-040350FM-12+008399999V0200501N003112200019N0040001N1+02601+02101100951ADDGF102991999021004501001001KA1240M+03321MA1999999099931MD1999999+0001REMSYN088AAXX  31004 82392 32496 20506 10260 20210 39993 40095 83200 333 10332 29068 55048 58000;EQDQ01+000032SCOTLC
0173823920999992007123112004-03700-040350FM-12+008399999V0200901N003110450019N0500001N1+02781+02181101031ADDAA124002091GF105991031021004501031001KA1240N+02341MA1999999100011MD1999999-0061REMSYN082AAXX  31124 82392 22499 50906 10278 20218 30001 40103 83230 333 20234 59006 60024;
0123823920999992007123118004-03700-040350FM-12+008399999V0200901N004110042019N0500001N1+03421+01651100601ADDGF105991051021004501001001MA1999999099601REMSYN070AAXX  31184 82392 32499 50908 10342 20165 39960 40060 85200 333 5////;
