0183825640999992007040212004-05533-047500FM-12+0123SBIZ V0203601N001010450019N0100001N1+02711+02301101141ADDAA124002091GF107991031051004501091001KA1240N+02391MA1100201099741MD1999999-0021REMSYN092AAXX  02124 82564 22497 73602 10271 20230 39974 40114 83590 333 20239 59002 60024 555 10021;
0137825640999992007040218004-05533-047500FM-12+0123SBIZ V0202001N002110450019N0100001N1+03281+02431100671ADDGF107991031021004501021001MA1999999099281MD1999999-0091REMSYN070AAXX  02184 82564 32497 72004 10328 20243 39928 40067 83220 333 59009;
0211825640999992007041712004-05533-047500FM-12+0123SBIZ V0201401N001010450019N0100001N1+02501+02271101211ADDAA124014091AY161061AY221061GF106991031051004501091001KA1240N+02191MA1101421099811MD1999999-0191MW1031REMSYN098AAXX  17124 82564 21497 61402 10250 20227 39981 40121 70362 83590 333 20219 59019 60144 555 10144;
0120825640999992007062918004-05533-047500FM-15+0123SBIZ V0201601N004612200019N0112651N1+03601+01801999999ADDGA1041+006001999GF104991999999999999999999MA1101191999999REMMET051METAR SBIZ 291800Z 16009KT 9999 SCT020 36/18 Q1012;
0120825640999992007062919004-05533-047500FM-15+0123SBIZ V0201101N005112200019N0112651N1+03501+01901999999ADDGA1021+006001999GF102991999999999999999999MA1101191999999REMMET051METAR SBIZ 291900Z 11010KT 9999 FEW020 35/19 Q1012;
0120825640999992007062920004-05533-047500FM-15+0123SBIZ V0201201N003612200019N0112651N1+03301+01801999999ADDGA1021+006001999GF102991999999999999999999MA1101191999999REMMET051METAR SBIZ 292000Z 12007KT 9999 FEW020 33/18 Q1012;
0120825640999992007062921004-05533-047500FM-15+0123SBIZ V0209999C000012200019N0112651N1+03101+02001999999ADDGA1021+006001999GF102991999999999999999999MA1101291999999REMMET051METAR SBIZ 292100Z 00000KT 9999 FEW020 31/20 Q1013;
0072825640999992007062922004-05533-047500FM-15+0123SBIZ V0209999C00001220001CN0099001N1+02801+02101999999ADDMA1101291999999REMMET045METAR SBIZ 292200Z 00000KT CAVOK 28/21 Q1013;
0072825640999992007062923004-05533-047500FM-15+0123SBIZ V0209999C00001220001CN0099001N1+02701+02001999999ADDMA1101391999999REMMET045METAR SBIZ 292300Z 00000KT CAVOK 27/20 Q1014;
0072825640999992007063000004-05533-047500FM-15+0123SBIZ V0209999C00001220001CN0099001N1+02501+02101999999ADDMA1101491999999REMMET045METAR SBIZ 300000Z 00000KT CAVOK 25/21 Q1015;
0120825640999992007063001004-05533-047500FM-15+0123SBIZ V0209999C000012200019N0070001N1+02401+02001999999ADDGF100991999999999999999999MA1101491999999REMMET048METAR SBIZ 300100Z 00000KT 7000 SKC 24/20 Q1015;EQDQ01    003SCCGA1
0120825640999992007063002004-05533-047500FM-15+0123SBIZ V0209999C000012200019N0070001N1+02301+02001999999ADDGF100991999999999999999999MA1101491999999REMMET048METAR SBIZ 300200Z 00000KT 7000 SKC 23/20 Q1015;EQDQ01    003SCCGA1
0120825640999992007063003004-05533-047500FM-15+0123SBIZ V0201201N001012200019N0070001N1+02301+02001999999ADDGF100991999999999999999999MA1101491999999REMMET048METAR SBIZ 300300Z 12002KT 7000 SKC 23/20 Q1015;EQDQ01    003SCCGA1
0120825640999992007063004004-05533-047500FM-15+0123SBIZ V0209999C000012200019N0070001N1+02201+02001999999ADDGF100991999999999999999999MA1101491999999REMMET048METAR SBIZ 300400Z 00000KT 7000 NSC 22/20 Q1015;EQDQ01    003SCCGA1
0072825640999992007063009004-05533-047500FM-15+0123SBIZ V0209999C00001220001CN0099001N1+02001+01901999999ADDMA1101491999999REMMET045METAR SBIZ 300900Z 00000KT CAVOK 20/19 Q1015;
0072825640999992007063010004-05533-047500FM-15+0123SBIZ V0209999C00001220001CN0099001N1+02001+01901999999ADDMA1101591999999REMMET045METAR SBIZ 301000Z 00000KT CAVOK 20/19 Q1016;
0072825640999992007063011004-05533-047500FM-15+0123SBIZ V0209999C00001220001CN0099001N1+02401+01901999999ADDMA1101691999999REMMET045METAR SBIZ 301100Z 00000KT CAVOK 24/19 Q1017;
0072825640999992007063012004-05533-047500FM-15+0123SBIZ V0209999C00001220001CN0099001N1+02801+02001999999ADDMA1101801999999REMMET045METAR SBIZ 301200Z 00000KT CAVOK 28/20 Q1018;
0072825640999992007063013004-05533-047500FM-15+0123SBIZ V0201201N00511220001CN0099001N1+03001+02101999999ADDMA1101801999999REMMET045METAR SBIZ 301300Z 12010KT CAVOK 30/21 Q1018;
0072825640999992007063014004-05533-047500FM-15+0123SBIZ V0200901N00771220001CN0099001N1+03101+02101999999ADDMA1101691999999REMMET045METAR SBIZ 301400Z 09015KT CAVOK 31/21 Q1017;
0072825640999992007063015004-05533-047500FM-15+0123SBIZ V0200901N00511220001CN0099001N1+03301+02101999999ADDMA1101691999999REMMET045METAR SBIZ 301500Z 09010KT CAVOK 33/21 Q1017;
0120825640999992007063016004-05533-047500FM-15+0123SBIZ V0201201N006212200019N0112651N1+03401+02101999999ADDGA1041+006001999GF104991999999999999999999MA1101591999999REMMET051METAR SBIZ 301600Z 12012KT 9999 SCT020 34/21 Q1016;
0120825640999992007063017004-05533-047500FM-15+0123SBIZ V0200901N005112200019N0112651N1+03501+02001999999ADDGA1041+006001999GF104991999999999999999999MA1101491999999REMMET051METAR SBIZ 301700Z 09010KT 9999 SCT020 35/20 Q1015;
0120825640999992007063018004-05533-047500FM-15+0123SBIZ V0201201N005712200019N0112651N1+03501+02001999999ADDGA1041+006001999GF104991999999999999999999MA1101391999999REMMET051METAR SBIZ 301800Z 12011KT 9999 SCT020 35/20 Q1014;
0120825640999992007063019004-05533-047500FM-15+0123SBIZ V0201201N003112200019N0112651N1+03401+02001999999ADDGA1021+006001999GF102991999999999999999999MA1101391999999REMMET051METAR SBIZ 301900Z 12006KT 9999 FEW020 34/20 Q1014;
0120825640999992007063020004-05533-047500FM-15+0123SBIZ V0201801N002612200019N0112651N1+03301+02001999999ADDGA1021+006001999GF102991999999999999999999MA1101391999999REMMET051METAR SBIZ 302000Z 18005KT 9999 FEW020 33/20 Q1014;
0120825640999992007063021004-05533-047500FM-15+0123SBIZ V0201501N001012200019N0112651N1+03001+02101999999ADDGA1021+006001999GF102991999999999999999999MA1101391999999REMMET051METAR SBIZ 302100Z 15002KT 9999 FEW020 30/21 Q1014;
0072825640999992007063022004-05533-047500FM-15+0123SBIZ V0201201N00101220001CN0099001N1+02801+01901999999ADDMA1101491999999REMMET045METAR SBIZ 302200Z 12002KT CAVOK 28/19 Q1015;
0072825640999992007070211004-05533-047500FM-15+0123SBIZ V0209999C00001220001CN0099001N1+02501+02201999999ADDMA1101691999999REMMET045METAR SBIZ 021100Z 00000KT CAVOK 25/22 Q1017;
0072825640999992007070212004-05533-047500FM-15+0123SBIZ V0200901N00411220001CN0099001N1+02801+02201999999ADDMA1101691999999REMMET045METAR SBIZ 021200Z 09008KT CAVOK 28/22 Q1017;
0072825640999992007070213004-05533-047500FM-15+0123SBIZ V0200301N00511220001CN0099001N1+03001+02201999999ADDMA1101691999999REMMET045METAR SBIZ 021300Z 03010KT CAVOK 30/22 Q1017;
0120825640999992007070214004-05533-047500FM-15+0123SBIZ V0201501N004112200019N0112651N1+03201+02201999999ADDGA1021+006001999GF102991999999999999999999MA1101691999999REMMET051METAR SBIZ 021400Z 15008KT 9999 FEW020 32/22 Q1017;
0120825640999992007070215004-05533-047500FM-15+0123SBIZ V0201201N004112200019N0112651N1+03301+02101999999ADDGA1041+006001999GF104991999999999999999999MA1101591999999REMMET051METAR SBIZ 021500Z 12008KT 9999 SCT020 33/21 Q1016;
0120825640999992007070216004-05533-047500FM-15+0123SBIZ V0200701N005110075019N0112651N1+03401+02101999999ADDGA1071+007501999GF107991999999999999999999MA1101491999999REMMET051METAR SBIZ 021600Z 07010KT 9999 BKN025 34/21 Q1015;
0120825640999992007070217004-05533-047500FM-15+0123SBIZ V0202101N002110075019N0112651N1+03401+02101999999ADDGA1071+007501999GF107991999999999999999999MA1101391999999REMMET051METAR SBIZ 021700Z 21004KT 9999 BKN025 34/21 Q1014;
0120825640999992007070218004-05533-047500FM-15+0123SBIZ V0201801N005112200019N0112651N1+03501+02101999999ADDGA1041+021001999GF104991999999999999999999MA1101291999999REMMET051METAR SBIZ 021800Z 18010KT 9999 SCT075 35/21 Q1013;
0120825640999992007070219004-05533-047500FM-15+0123SBIZ V0201201N004112200019N0112651N1+03501+02101999999ADDGA1041+007501999GF104991999999999999999999MA1101291999999REMMET051METAR SBIZ 021900Z 12008KT 9999 SCT025 35/21 Q1013;
0120825640999992007070220004-05533-047500FM-15+0123SBIZ V0201501N005112200019N0112651N1+03301+02001999999ADDGA1021+007501999GF102991999999999999999999MA1101291999999REMMET051METAR SBIZ 022000Z 15010KT 9999 FEW025 33/20 Q1013;
0143825640999992007070221004-05533-047500FM-15+0123SBIZ V0209999C000012200019N0112651N1+03101+02101999999ADDGA1021+007501999GA2041+120001999GF104991999999999999999999MA1101291999999REMMET058METAR SBIZ 022100Z 00000KT 9999 FEW025 SCT400 31/21 Q1013;
0072825640999992007070222004-05533-047500FM-15+0123SBIZ V0209999C00001220001CN0099001N1+02801+02101999999ADDMA1101291999999REMMET045METAR SBIZ 022200Z 00000KT CAVOK 28/21 Q1013;
0072825640999992007070223004-05533-047500FM-15+0123SBIZ V0209999C00001220001CN0099001N1+02601+02101999999ADDMA1101391999999REMMET045METAR SBIZ 022300Z 00000KT CAVOK 26/21 Q1014;
0072825640999992007070300004-05533-047500FM-15+0123SBIZ V0201501N00211220001CN0099001N1+02501+02201999999ADDMA1101491999999REMMET045METAR SBIZ 030000Z 15004KT CAVOK 25/22 Q1015;
0072825640999992007070301004-05533-047500FM-15+0123SBIZ V0200901N00311220001CN0099001N1+02401+02101999999ADDMA1101491999999REMMET045METAR SBIZ 030100Z 09006KT CAVOK 24/21 Q1015;
0072825640999992007070302004-05533-047500FM-15+0123SBIZ V0209999C00001220001CN0099001N1+02401+02101999999ADDMA1101491999999REMMET045METAR SBIZ 030200Z 00000KT CAVOK 24/21 Q1015;
0072825640999992007070303004-05533-047500FM-15+0123SBIZ V0209999C00001220001CN0099001N1+02301+02101999999ADDMA1101491999999REMMET045METAR SBIZ 030300Z 00000KT CAVOK 23/21 Q1015;
0072825640999992007070304004-05533-047500FM-15+0123SBIZ V0201401N00211220001CN0099001N1+02201+02101999999ADDMA1101491999999REMMET045METAR SBIZ 030400Z 14004KT CAVOK 22/21 Q1015;
0072825640999992007070305004-05533-047500FM-15+0123SBIZ V0209999C00001220001CN0099001N1+02201+02001999999ADDMA1101491999999REMMET045METAR SBIZ 030500Z 00000KT CAVOK 22/20 Q1015;
0072825640999992007070309004-05533-047500FM-15+0123SBIZ V0209999C00001220001CN0099001N1+02001+02001999999ADDMA1101491999999REMMET045METAR SBIZ 030900Z 00000KT CAVOK 20/20 Q1015;
0072825640999992007070310004-05533-047500FM-15+0123SBIZ V0209999C00001220001CN0099001N1+02001+01901999999ADDMA1101491999999REMMET045METAR SBIZ 031000Z 00000KT CAVOK 20/19 Q1015;
0072825640999992007070311004-05533-047500FM-15+0123SBIZ V0209999C00001220001CN0099001N1+02401+02001999999ADDMA1101591999999REMMET045METAR SBIZ 031100Z 00000KT CAVOK 24/20 Q1016;
0072825640999992007070312004-05533-047500FM-15+0123SBIZ V0200901N00311220001CN0099001N1+02701+02101999999ADDMA1101591999999REMMET045METAR SBIZ 031200Z 09006KT CAVOK 27/21 Q1016;
0072825640999992007070313004-05533-047500FM-15+0123SBIZ V0201201N00411220001CN0099001N1+03001+02201999999ADDMA1101691999999REMMET045METAR SBIZ 031300Z 12008KT CAVOK 30/22 Q1017;
0120825640999992007070314004-05533-047500FM-15+0123SBIZ V0200601N005112200019N0112651N1+03201+02201999999ADDGA1021+007501999GF102991999999999999999999MA1101591999999REMMET051METAR SBIZ 031400Z 06010KT 9999 FEW025 32/22 Q1016;
0120825640999992007070315004-05533-047500FM-15+0123SBIZ V0200901N005110075019N0112651N1+03401+02201999999ADDGA1071+007501999GF107991999999999999999999MA1101491999999REMMET051METAR SBIZ 031500Z 09010KT 9999 BKN025 34/22 Q1015;
0120825640999992007070316004-05533-047500FM-15+0123SBIZ V0201201N007710075019N0112651N1+03401+02201999999ADDGA1071+007501999GF107991999999999999999999MA1101391999999REMMET051METAR SBIZ 031600Z 12015KT 9999 BKN025 34/22 Q1014;
0143825640999992007070317004-05533-047500FM-15+0123SBIZ V0200901N010312200019N0112651N1+03501+02101999999ADDGA1041+007501999GA2041+120001999GF104991999999999999999999MA1101391999999REMMET058METAR SBIZ 031700Z 09020KT 9999 SCT025 SCT400 35/21 Q1014;
0143825640999992007070318004-05533-047500FM-15+0123SBIZ V0201301N006211200019N0112651N1+03501+01901999999ADDGA1041+007501999GA2071+120001999GF107991999999999999999999MA1101291999999REMMET058METAR SBIZ 031800Z 13012KT 9999 SCT025 BKN400 35/19 Q1013;
0143825640999992007070319004-05533-047500FM-15+0123SBIZ V0200901N005111200019N0112651N1+03301+02001999999ADDGA1021+007501999GA2071+120001999GF107991999999999999999999MA1101191999999REMMET058METAR SBIZ 031900Z 09010KT 9999 FEW025 BKN400 33/20 Q1012;
0143825640999992007070320004-05533-047500FM-15+0123SBIZ V0201201N005111200019N0112651N1+03101+02101999999ADDGA1021+007501999GA2071+120001999GF107991999999999999999999MA1101291999999REMMET058METAR SBIZ 032000Z 12010KT 9999 FEW025 BKN400 31/21 Q1013;
0143825640999992007070321004-05533-047500FM-15+0123SBIZ V0209999C000011200019N0112651N1+02901+02201999999ADDGA1021+007501999GA2071+120001999GF107991999999999999999999MA1101291999999REMMET058METAR SBIZ 032100Z 00000KT 9999 FEW025 BKN400 29/22 Q1013;
0143825640999992007070322004-05533-047500FM-15+0123SBIZ V0200901N001512200019N0112651N1+02801+02101999999ADDGA1021+006001999GA2041+120001999GF104991999999999999999999MA1101291999999REMMET058METAR SBIZ 032200Z 09003KT 9999 FEW020 SCT400 28/21 Q1013;
0072825640999992007070323004-05533-047500FM-15+0123SBIZ V0201201N00151220001CN0099001N1+02601+02201999999ADDMA1101391999999REMMET045METAR SBIZ 032300Z 12003KT CAVOK 26/22 Q1014;
0072825640999992007070400004-05533-047500FM-15+0123SBIZ V0209999C00001220001CN0099001N1+02501+02201999999ADDMA1101491999999REMMET045METAR SBIZ 040000Z 00000KT CAVOK 25/22 Q1015;
0072825640999992007070401004-05533-047500FM-15+0123SBIZ V0200901N00261220001CN0099001N1+02401+02201999999ADDMA1101491999999REMMET045METAR SBIZ 040100Z 09005KT CAVOK 24/22 Q1015;
0072825640999992007070402004-05533-047500FM-15+0123SBIZ V0200901N00211220001CN0099001N1+02401+02101999999ADDMA1101491999999REMMET045METAR SBIZ 040200Z 09004KT CAVOK 24/21 Q1015;
0072825640999992007070403004-05533-047500FM-15+0123SBIZ V0209999C00001220001CN0099001N1+02301+02101999999ADDMA1101491999999REMMET045METAR SBIZ 040300Z 00000KT CAVOK 23/21 Q1015;
0072825640999992007070404004-05533-047500FM-15+0123SBIZ V0209999C00001220001CN0099001N1+02201+02101999999ADDMA1101491999999REMMET045METAR SBIZ 040400Z 00000KT CAVOK 22/21 Q1015;
0072825640999992007070409004-05533-047500FM-15+0123SBIZ V0209999C00001220001CN0099001N1+02001+02001999999ADDMA1101491999999REMMET045METAR SBIZ 040900Z 00000KT CAVOK 20/20 Q1015;
0072825640999992007070410004-05533-047500FM-15+0123SBIZ V0209999C00001220001CN0099001N1+02101+01901999999ADDMA1101491999999REMMET045METAR SBIZ 041000Z 00000KT CAVOK 21/19 Q1015;
0143825640999992007070413004-05533-047500FM-15+0123SBIZ V0200901N007711200019N0112651N1+02801+02201999999ADDGA1021+006001999GA2071+120001999GF107991999999999999999999MA1101691999999REMMET058METAR SBIZ 041300Z 09015KT 9999 FEW020 BKN400 28/22 Q1017;
0143825640999992007070414004-05533-047500FM-15+0123SBIZ V0200601N005111200019N0112651N1+03001+02201999999ADDGA1041+006001999GA2071+120001999GF107991999999999999999999MA1101591999999REMMET058METAR SBIZ 041400Z 06010KT 9999 SCT020 BKN400 30/22 Q1016;
0143825640999992007070415004-05533-047500FM-15+0123SBIZ V0201301N005110060019N0112651N1+03001+02201999999ADDGA1071+006001999GA2071+120001999GF107991999999999999999999MA1101491999999REMMET058METAR SBIZ 041500Z 13010KT 9999 BKN020 BKN400 30/22 Q1015;
0120825640999992007070416004-05533-047500FM-15+0123SBIZ V0201201N005110060019N0112651N1+03201+02201999999ADDGA1071+006001999GF107991999999999999999999MA1101391999999REMMET051METAR SBIZ 041600Z 12010KT 9999 BKN020 32/22 Q1014;
0120825640999992007070417004-05533-047500FM-15+0123SBIZ V0201201N005110060019N0112651N1+03301+01801999999ADDGA1071+006001999GF107991999999999999999999MA1101291999999REMMET051METAR SBIZ 041700Z 12010KT 9999 BKN020 33/18 Q1013;
0120825640999992007070419004-05533-047500FM-15+0123SBIZ V0201301N005112200019N0112651N1+03301+02001999999ADDGA1021+006001999GF102991999999999999999999MA1101191999999REMMET051METAR SBIZ 041900Z 13010KT 9999 FEW020 33/20 Q1012;
0120825640999992007070420004-05533-047500FM-15+0123SBIZ V0201201N005112200019N0112651N1+03201+01901999999ADDGA1021+006001999GF102991999999999999999999MA1101291999999REMMET051METAR SBIZ 042000Z 12010KT 9999 FEW020 32/19 Q1013;
0072825640999992007070421004-05533-047500FM-15+0123SBIZ V0200501N00211220001CN0099001N1+03101+02101999999ADDMA1101291999999REMMET045METAR SBIZ 042100Z 05004KT CAVOK 31/21 Q1013;
0072825640999992007070422004-05533-047500FM-15+0123SBIZ V0209999C00001220001CN0099001N1+02801+02001999999ADDMA1101291999999REMMET045METAR SBIZ 042200Z 00000KT CAVOK 28/20 Q1013;
0072825640999992007070423004-05533-047500FM-15+0123SBIZ V0209999C00001220001CN0099001N1+02601+02101999999ADDMA1101391999999REMMET045METAR SBIZ 042300Z 00000KT CAVOK 26/21 Q1014;
0072825640999992007070500004-05533-047500FM-15+0123SBIZ V0209999C00001220001CN0099001N1+02501+02101999999ADDMA1101391999999REMMET045METAR SBIZ 050000Z 00000KT CAVOK 25/21 Q1014;
0072825640999992007070501004-05533-047500FM-15+0123SBIZ V0209999C00001220001CN0099001N1+02401+02101999999ADDMA1101491999999REMMET045METAR SBIZ 050100Z 00000KT CAVOK 24/21 Q1015;
0072825640999992007070503004-05533-047500FM-15+0123SBIZ V0209999C00001220001CN0099001N1+02301+02101999999ADDMA1101491999999REMMET045METAR SBIZ 050300Z 00000KT CAVOK 23/21 Q1015;
0072825640999992007070509004-05533-047500FM-15+0123SBIZ V0209999C00001220001CN0099001N1+02101+02001999999ADDMA1101491999999REMMET045METAR SBIZ 050900Z 00000KT CAVOK 21/20 Q1015;
0166825640999992007070510004-05533-047500FM-15+0123SBIZ V0201001N00311006001CN0112651N1+02101+02001999999ADDGA1021+004501999GA2041+006001999GA3071+120001999GF107991999999999999999999MA1101491999999REMMET065METAR SBIZ 051000Z 10006KT 9999 FEW015 SCT020 BKN400 21/20 Q1015;
0166825640999992007070511004-05533-047500FM-15+0123SBIZ V0201001N00511030001CN0112651N1+02601+02101999999ADDGA1021+006001999GA2041+030001999GA3071+120001999GF107991999999999999999999MA1101591999999REMMET065METAR SBIZ 051100Z 10010KT 9999 FEW020 SCT100 BKN400 26/21 Q1016;
0120825640999992007070512004-05533-047500FM-15+0123SBIZ V0200801N006212200019N0112651N1+02801+02201999999ADDGA1021+006001999GF102991999999999999999999MA1101591999999REMMET051METAR SBIZ 051200Z 08012KT 9999 FEW020 28/22 Q1016;
0120825640999992007070513004-05533-047500FM-15+0123SBIZ V0200801N005112200019N0112651N1+03001+02301999999ADDGA1021+006001999GF102991999999999999999999MA1101691999999REMMET051METAR SBIZ 051300Z 08010KT 9999 FEW020 30/23 Q1017;
0120825640999992007070514004-05533-047500FM-15+0123SBIZ V0201001N007710060019N0112651N1+03101+02101999999ADDGA1071+006001999GF107991999999999999999999MA1101591999999REMMET051METAR SBIZ 051400Z 10015KT 9999 BKN020 31/21 Q1016;
0120825640999992007070515004-05533-047500FM-15+0123SBIZ V0201001N007710060019N0112651N1+03201+02101999999ADDGA1071+006001999GF107991999999999999999999MA1101491999999REMMET051METAR SBIZ 051500Z 10015KT 9999 BKN020 32/21 Q1015;
0120825640999992007070516004-05533-047500FM-15+0123SBIZ V0200901N006212200019N0112651N1+03301+02101999999ADDGA1041+006001999GF104991999999999999999999MA1101391999999REMMET051METAR SBIZ 051600Z 09012KT 9999 SCT020 33/21 Q1014;
0120825640999992007070517004-05533-047500FM-15+0123SBIZ V0201201N006212200019N0112651N1+03301+02001999999ADDGA1021+006001999GF102991999999999999999999MA1101291999999REMMET051METAR SBIZ 051700Z 12012KT 9999 FEW020 33/20 Q1013;
0120825640999992007070518004-05533-047500FM-15+0123SBIZ V0201501N006212200019N0112651N1+03401+02101999999ADDGA1041+006001999GF104991999999999999999999MA1101291999999REMMET051METAR SBIZ 051800Z 15012KT 9999 SCT020 34/21 Q1013;
0120825640999992007070519004-05533-047500FM-15+0123SBIZ V0201001N006212200019N0112651N1+03401+02001999999ADDGA1021+006001999GF102991999999999999999999MA1101191999999REMMET051METAR SBIZ 051900Z 10012KT 9999 FEW020 34/20 Q1012;
0120825640999992007070520004-05533-047500FM-15+0123SBIZ V0201801N002612200019N0112651N1+03201+02101999999ADDGA1021+006001999GF102991999999999999999999MA1101191999999REMMET051METAR SBIZ 052000Z 18005KT 9999 FEW020 32/21 Q1012;
0120825640999992007070521004-05533-047500FM-15+0123SBIZ V0201201N002612200019N0112651N1+03001+02001999999ADDGA1021+006001999GF102991999999999999999999MA1101191999999REMMET051METAR SBIZ 052100Z 12005KT 9999 FEW020 30/20 Q1012;
0072825640999992007070522004-05533-047500FM-15+0123SBIZ V0200901N00311220001CN0099001N1+02801+01901999999ADDMA1101191999999REMMET045METAR SBIZ 052200Z 09006KT CAVOK 28/19 Q1012;
0072825640999992007070523004-05533-047500FM-15+0123SBIZ V0209999C00001220001CN0099001N1+02601+02101999999ADDMA1101291999999REMMET045METAR SBIZ 052300Z 00000KT CAVOK 26/21 Q1013;
0072825640999992007070600004-05533-047500FM-15+0123SBIZ V0209999C00001220001CN0099001N1+02501+02101999999ADDMA1101391999999REMMET045METAR SBIZ 060000Z 00000KT CAVOK 25/21 Q1014;
0072825640999992007070601004-05533-047500FM-15+0123SBIZ V0209999C00001220001CN0099001N1+02301+02101999999ADDMA1101391999999REMMET045METAR SBIZ 060100Z 00000KT CAVOK 23/21 Q1014;
0072825640999992007070602004-05533-047500FM-15+0123SBIZ V0209999C00001220001CN0099001N1+02301+02001999999ADDMA1101391999999REMMET045METAR SBIZ 060200Z 00000KT CAVOK 23/20 Q1014;
0072825640999992007070603004-05533-047500FM-15+0123SBIZ V0209999C00001220001CN0099001N1+02301+02001999999ADDMA1101391999999REMMET045METAR SBIZ 060300Z 00000KT CAVOK 23/20 Q1014;
0072825640999992007070609004-05533-047500FM-15+0123SBIZ V0209999C00001220001CN0099001N1+02001+01901999999ADDMA1101391999999REMMET045METAR SBIZ 060900Z 00000KT CAVOK 20/19 Q1014;
0072825640999992007070610004-05533-047500FM-15+0123SBIZ V0209999C00001220001CN0099001N1+02101+01901999999ADDMA1101391999999REMMET045METAR SBIZ 061000Z 00000KT CAVOK 21/19 Q1014;
0072825640999992007070611004-05533-047500FM-15+0123SBIZ V0209999C00001220001CN0099001N1+02301+02001999999ADDMA1101491999999REMMET045METAR SBIZ 061100Z 00000KT CAVOK 23/20 Q1015;
0072825640999992007070612004-05533-047500FM-15+0123SBIZ V0201201N00261220001CN0099001N1+02701+02001999999ADDMA1101491999999REMMET045METAR SBIZ 061200Z 12005KT CAVOK 27/20 Q1015;
0072825640999992007070613004-05533-047500FM-15+0123SBIZ V0201501N00771220001CN0099001N1+02901+01701999999ADDMA1101491999999REMMET045METAR SBIZ 061300Z 15015KT CAVOK 29/17 Q1015;
0072825640999992007070614004-05533-047500FM-15+0123SBIZ V0201201N01031220001CN0099001N1+03001+01901999999ADDMA1101491999999REMMET045METAR SBIZ 061400Z 12020KT CAVOK 30/19 Q1015;
0072825640999992007070615004-05533-047500FM-15+0123SBIZ V0201501N00621220001CN0099001N1+03201+01701999999ADDMA1101391999999REMMET045METAR SBIZ 061500Z 15012KT CAVOK 32/17 Q1014;
0143825640999992007070616004-05533-047500FM-15+0123SBIZ V0201501N006211200019N0112651N1+03201+01601999999ADDGA1021+006001999GA2071+120001999GF107991999999999999999999MA1101391999999REMMET058METAR SBIZ 061600Z 15012KT 9999 FEW020 BKN400 32/16 Q1014;
0143825640999992007070617004-05533-047500FM-15+0123SBIZ V0201301N006211200019N0112651N1+03201+01601999999ADDGA1021+006001999GA2071+120001999GF107991999999999999999999MA1101291999999REMMET058METAR SBIZ 061700Z 13012KT 9999 FEW020 BKN400 32/16 Q1013;
0143825640999992007070618004-05533-047500FM-15+0123SBIZ V0201201N005111200019N0112651N1+03301+01601999999ADDGA1021+006001999GA2071+120001999GF107991999999999999999999MA1101191999999REMMET058METAR SBIZ 061800Z 12010KT 9999 FEW020 BKN400 33/16 Q1012;
0143825640999992007070619004-05533-047500FM-15+0123SBIZ V0201101N005111200019N0112651N1+03401+01801999999ADDGA1021+006001999GA2071+120001999GF107991999999999999999999MA1101191999999REMMET058METAR SBIZ 061900Z 11010KT 9999 FEW020 BKN400 34/18 Q1012;
0143825640999992007070620004-05533-047500FM-15+0123SBIZ V0201201N004611200019N0112651N1+03201+01801999999ADDGA1021+006001999GA2071+120001999GF107991999999999999999999MA1101191999999REMMET058METAR SBIZ 062000Z 12009KT 9999 FEW020 BKN400 32/18 Q1012;
0072825640999992007070621004-05533-047500FM-15+0123SBIZ V0201201N00101220001CN0099001N1+03101+01901999999ADDMA1101191999999REMMET045METAR SBIZ 062100Z 12002KT CAVOK 31/19 Q1012;
0072825640999992007070622004-05533-047500FM-15+0123SBIZ V0209999C00001220001CN0099001N1+02801+01901999999ADDMA1101191999999REMMET045METAR SBIZ 062200Z 00000KT CAVOK 28/19 Q1012;
0072825640999992007070623004-05533-047500FM-15+0123SBIZ V0209999C00001220001CN0099001N1+02601+02001999999ADDMA1101191999999REMMET045METAR SBIZ 062300Z 00000KT CAVOK 26/20 Q1012;
0072825640999992007070700004-05533-047500FM-15+0123SBIZ V0200901N00211220001CN0099001N1+02401+02101999999ADDMA1101291999999REMMET045METAR SBIZ 070000Z 09004KT CAVOK 24/21 Q1013;
0072825640999992007070701004-05533-047500FM-15+0123SBIZ V0201101N00211220001CN0099001N1+02301+02101999999ADDMA1101291999999REMMET045METAR SBIZ 070100Z 11004KT CAVOK 23/21 Q1013;
0072825640999992007070702004-05533-047500FM-15+0123SBIZ V0209999C00001220001CN0099001N1+02201+02001999999ADDMA1101291999999REMMET045METAR SBIZ 070200Z 00000KT CAVOK 22/20 Q1013;
0072825640999992007070703004-05533-047500FM-15+0123SBIZ V0209999C00001220001CN0099001N1+02201+02001999999ADDMA1101291999999REMMET045METAR SBIZ 070300Z 00000KT CAVOK 22/20 Q1013;
0072825640999992007070704004-05533-047500FM-15+0123SBIZ V0209999C00001220001CN0099001N1+02101+02001999999ADDMA1101291999999REMMET045METAR SBIZ 070400Z 00000KT CAVOK 21/20 Q1013;
0072825640999992007070709004-05533-047500FM-15+0123SBIZ V0209999C00001220001CN0099001N1+01901+01801999999ADDMA1101191999999REMMET045METAR SBIZ 070900Z 00000KT CAVOK 19/18 Q1012;
0072825640999992007070710004-05533-047500FM-15+0123SBIZ V0201201N00261220001CN0099001N1+01901+01801999999ADDMA1101291999999REMMET045METAR SBIZ 071000Z 12005KT CAVOK 19/18 Q1013;
0072825640999992007070711004-05533-047500FM-15+0123SBIZ V0202101N00411220001CN0099001N1+02301+02001999999ADDMA1101391999999REMMET045METAR SBIZ 071100Z 21008KT CAVOK 23/20 Q1014;
0072825640999992007070712004-05533-047500FM-15+0123SBIZ V0201501N00511220001CN0099001N1+02801+01901999999ADDMA1101391999999REMMET045METAR SBIZ 071200Z 15010KT CAVOK 28/19 Q1014;
0072825640999992007070713004-05533-047500FM-15+0123SBIZ V0201201N00931220001CN0099001N1+03001+01901999999ADDMA1101391999999REMMET045METAR SBIZ 071300Z 12018KT CAVOK 30/19 Q1014;
0072825640999992007070714004-05533-047500FM-15+0123SBIZ V0201201N00621220001CN0099001N1+03101+01801999999ADDMA1101291999999REMMET045METAR SBIZ 071400Z 12012KT CAVOK 31/18 Q1013;
0072825640999992007070715004-05533-047500FM-15+0123SBIZ V0200901N00931220001CN0099001N1+03201+01801999999ADDMA1101291999999REMMET045METAR SBIZ 071500Z 09018KT CAVOK 32/18 Q1013;
0120825640999992007070716004-05533-047500FM-15+0123SBIZ V0200901N007712200019N0112651N1+03301+01801999999ADDGA1041+006001999GF104991999999999999999999MA1101191999999REMMET051METAR SBIZ 071600Z 09015KT 9999 SCT020 33/18 Q1012;
0120825640999992007070717004-05533-047500FM-15+0123SBIZ V0201801N006212200019N0112651N1+03401+01801999999ADDGA1041+006001999GF104991999999999999999999MA1101081999999REMMET051METAR SBIZ 071700Z 18012KT 9999 SCT020 34/18 Q1011;
0120825640999992007070718004-05533-047500FM-15+0123SBIZ V0201501N003112200019N0112651N1+03401+01801999999ADDGA1041+006001999GF104991999999999999999999MA1101021999999REMMET051METAR SBIZ 071800Z 15006KT 9999 SCT020 34/18 Q1010;
0120825640999992007070719004-05533-047500FM-15+0123SBIZ V0201801N005112200019N0112651N1+03401+01901999999ADDGA1041+006001999GF104991999999999999999999MA1101021999999REMMET051METAR SBIZ 071900Z 18010KT 9999 SCT020 34/19 Q1010;
0120825640999992007070720004-05533-047500FM-15+0123SBIZ V0201501N005112200019N0112651N1+03301+01801999999ADDGA1021+006001999GF102991999999999999999999MA1101021999999REMMET051METAR SBIZ 072000Z 15010KT 9999 FEW020 33/18 Q1010;
0072825640999992007070721004-05533-047500FM-15+0123SBIZ V0201301N00311220001CN0099001N1+03101+01901999999ADDMA1101021999999REMMET045METAR SBIZ 072100Z 13006KT CAVOK 31/19 Q1010;
0072825640999992007070722004-05533-047500FM-15+0123SBIZ V0209999C00001220001CN0099001N1+02801+01801999999ADDMA1101021999999REMMET045METAR SBIZ 072200Z 00000KT CAVOK 28/18 Q1010;
0072825640999992007070723004-05533-047500FM-15+0123SBIZ V0209999C00001220001CN0099001N1+02601+01901999999ADDMA1101081999999REMMET045METAR SBIZ 072300Z 00000KT CAVOK 26/19 Q1011;
0072825640999992007070800004-05533-047500FM-15+0123SBIZ V0209999C00001220001CN0099001N1+02501+02001999999ADDMA1101191999999REMMET045METAR SBIZ 080000Z 00000KT CAVOK 25/20 Q1012;
0072825640999992007070801004-05533-047500FM-15+0123SBIZ V0209999C00001220001CN0099001N1+02401+01901999999ADDMA1101191999999REMMET045METAR SBIZ 080100Z 00000KT CAVOK 24/19 Q1012;
0072825640999992007070802004-05533-047500FM-15+0123SBIZ V0209999C00001220001CN0099001N1+02301+01901999999ADDMA1101191999999REMMET045METAR SBIZ 080200Z 00000KT CAVOK 23/19 Q1012;
0072825640999992007070803004-05533-047500FM-15+0123SBIZ V0209999C00001220001CN0099001N1+02301+01901999999ADDMA1101191999999REMMET045METAR SBIZ 080300Z 00000KT CAVOK 23/19 Q1012;
0072825640999992007070804004-05533-047500FM-15+0123SBIZ V0209999C00001220001CN0099001N1+02201+01901999999ADDMA1101191999999REMMET045METAR SBIZ 080400Z 00000KT CAVOK 22/19 Q1012;
0072825640999992007070809004-05533-047500FM-15+0123SBIZ V0209999C00001220001CN0099001N1+01901+01801999999ADDMA1101191999999REMMET045METAR SBIZ 080900Z 00000KT CAVOK 19/18 Q1012;
0072825640999992007070813004-05533-047500FM-15+0123SBIZ V0200901N00621220001CN0099001N1+03001+01701999999ADDMA1101291999999REMMET045METAR SBIZ 081300Z 09012KT CAVOK 30/17 Q1013;
0072825640999992007070814004-05533-047500FM-15+0123SBIZ V0201501N00511220001CN0099001N1+03101+01701999999ADDMA1101291999999REMMET045METAR SBIZ 081400Z 15010KT CAVOK 31/17 Q1013;
0072825640999992007070815004-05533-047500FM-15+0123SBIZ V0201201N00621220001CN0099001N1+03201+01701999999ADDMA1101191999999REMMET045METAR SBIZ 081500Z 12012KT CAVOK 32/17 Q1012;
0072825640999992007070816004-05533-047500FM-15+0123SBIZ V0200901N00511220001CN0099001N1+03301+01601999999ADDMA1101081999999REMMET045METAR SBIZ 081600Z 09010KT CAVOK 33/16 Q1011;
0072825640999992007070817004-05533-047500FM-15+0123SBIZ V0201201N00511220001CN0099001N1+03401+01701999999ADDMA1101021999999REMMET045METAR SBIZ 081700Z 12010KT CAVOK 34/17 Q1010;
0072825640999992007070818004-05533-047500FM-15+0123SBIZ V0201201N00511220001CN0099001N1+03501+01701999999ADDMA1100911999999REMMET045METAR SBIZ 081800Z 12010KT CAVOK 35/17 Q1009;
0072825640999992007070819004-05533-047500FM-15+0123SBIZ V0201501N00311220001CN0099001N1+03401+01801999999ADDMA1100911999999REMMET045METAR SBIZ 081900Z 15006KT CAVOK 34/18 Q1009;
0072825640999992007070820004-05533-047500FM-15+0123SBIZ V0201101N00411220001CN0099001N1+03301+01801999999ADDMA1101021999999REMMET045METAR SBIZ 082000Z 11008KT CAVOK 33/18 Q1010;
0072825640999992007070821004-05533-047500FM-15+0123SBIZ V0200901N00411220001CN0099001N1+03101+01801999999ADDMA1101021999999REMMET045METAR SBIZ 082100Z 09008KT CAVOK 31/18 Q1010;
0072825640999992007070822004-05533-047500FM-15+0123SBIZ V0209999C00001220001CN0099001N1+02801+01801999999ADDMA1101021999999REMMET045METAR SBIZ 082200Z 00000KT CAVOK 28/18 Q1010;
0072825640999992007070823004-05533-047500FM-15+0123SBIZ V0201001N00261220001CN0099001N1+02701+02001999999ADDMA1101081999999REMMET045METAR SBIZ 082300Z 10005KT CAVOK 27/20 Q1011;
0072825640999992007070900004-05533-047500FM-15+0123SBIZ V0201001N00211220001CN0099001N1+02601+02001999999ADDMA1101191999999REMMET045METAR SBIZ 090000Z 10004KT CAVOK 26/20 Q1012;
0072825640999992007070901004-05533-047500FM-15+0123SBIZ V0209999C00001220001CN0099001N1+02501+01901999999ADDMA1101191999999REMMET045METAR SBIZ 090100Z 00000KT CAVOK 25/19 Q1012;
0072825640999992007070902004-05533-047500FM-15+0123SBIZ V0209999C00001220001CN0099001N1+02401+02001999999ADDMA1101191999999REMMET045METAR SBIZ 090200Z 00000KT CAVOK 24/20 Q1012;
0072825640999992007070903004-05533-047500FM-15+0123SBIZ V0209999C00001220001CN0099001N1+02301+02001999999ADDMA1101191999999REMMET045METAR SBIZ 090300Z 00000KT CAVOK 23/20 Q1012;
0072825640999992007070909004-05533-047500FM-15+0123SBIZ V0209999C00001220001CN0099001N1+02001+02001999999ADDMA1101291999999REMMET045METAR SBIZ 090900Z 00000KT CAVOK 20/20 Q1013;
0072825640999992007070910004-05533-047500FM-15+0123SBIZ V0209999C00001220001CN0099001N1+02101+01901999999ADDMA1101291999999REMMET045METAR SBIZ 091000Z 00000KT CAVOK 21/19 Q1013;
0072825640999992007070911004-05533-047500FM-15+0123SBIZ V0209999C00001220001CN0099001N1+02301+02001999999ADDMA1101391999999REMMET045METAR SBIZ 091100Z 00000KT CAVOK 23/20 Q1014;
0072825640999992007070912004-05533-047500FM-15+0123SBIZ V0201501N00211220001CN0099001N1+02501+02101999999ADDMA1101491999999REMMET045METAR SBIZ 091200Z 15004KT CAVOK 25/21 Q1015;
0072825640999992007070913004-05533-047500FM-15+0123SBIZ V0201101N00511220001CN0099001N1+03001+02101999999ADDMA1101391999999REMMET045METAR SBIZ 091300Z 11010KT CAVOK 30/21 Q1014;
0072825640999992007070914004-05533-047500FM-15+0123SBIZ V0201501N00511220001CN0099001N1+03201+01901999999ADDMA1101391999999REMMET045METAR SBIZ 091400Z 15010KT CAVOK 32/19 Q1014;
0120825640999992007070915004-05533-047500FM-15+0123SBIZ V0201201N010312200019N0112651N1+03301+01801999999ADDGA1021+006001999GF102991999999999999999999MA1101291999999REMMET051METAR SBIZ 091500Z 12020KT 9999 FEW020 33/18 Q1013;
0120825640999992007070916004-05533-047500FM-15+0123SBIZ V0201101N007712200019N0112651N1+03401+01901999999ADDGA1021+006001999GF102991999999999999999999MA1101191999999REMMET051METAR SBIZ 091600Z 11015KT 9999 FEW020 34/19 Q1012;
0143825640999992007070917004-05533-047500FM-15+0123SBIZ V0201501N005112200019N0112651N1+03501+01801999999ADDGA1041+006001999GA2041+030001999GF104991999999999999999999MA1101081999999REMMET058METAR SBIZ 091700Z 15010KT 9999 SCT020 SCT100 35/18 Q1011;
0143825640999992007070918004-05533-047500FM-15+0123SBIZ V0201501N003612200019N0112651N1+03401+01801999999ADDGA1041+006001999GA2041+030001999GF104991999999999999999999MA1101021999999REMMET058METAR SBIZ 091800Z 15007KT 9999 SCT020 SCT100 34/18 Q1010;
0120825640999992007070919004-05533-047500FM-15+0123SBIZ V0201501N003612200019N0112651N1+03501+01901999999ADDGA1021+006001999GF102991999999999999999999MA1101021999999REMMET051METAR SBIZ 091900Z 15007KT 9999 FEW020 35/19 Q1010;
0072825640999992007070920004-05533-047500FM-15+0123SBIZ V0201301N00311220001CN0099001N1+03401+02101999999ADDMA1101021999999REMMET045METAR SBIZ 092000Z 13006KT CAVOK 34/21 Q1010;
0120825640999992007070921004-05533-047500FM-15+0123SBIZ V0201501N002112200019N0112651N1+03201+02101999999ADDGA1021+006001999GF102991999999999999999999MA1101021999999REMMET051METAR SBIZ 092100Z 15004KT 9999 FEW020 32/21 Q1010;
0072825640999992007070922004-05533-047500FM-15+0123SBIZ V0209999C00001220001CN0099001N1+02901+02001999999ADDMA1101021999999REMMET045METAR SBIZ 092200Z 00000KT CAVOK 29/20 Q1010;
0072825640999992007070923004-05533-047500FM-15+0123SBIZ V0209999C00001220001CN0099001N1+02701+02101999999ADDMA1101081999999REMMET045METAR SBIZ 092300Z 00000KT CAVOK 27/21 Q1011;
0072825640999992007071000004-05533-047500FM-15+0123SBIZ V0209999C00001220001CN0099001N1+02601+02101999999ADDMA1101191999999REMMET045METAR SBIZ 100000Z 00000KT CAVOK 26/21 Q1012;
0072825640999992007071001004-05533-047500FM-15+0123SBIZ V0201201N00101220001CN0099001N1+02501+02101999999ADDMA1101191999999REMMET045METAR SBIZ 100100Z 12002KT CAVOK 25/21 Q1012;
0072825640999992007071002004-05533-047500FM-15+0123SBIZ V0200901N00101220001CN0099001N1+02501+02101999999ADDMA1101191999999REMMET045METAR SBIZ 100200Z 09002KT CAVOK 25/21 Q1012;
0072825640999992007071003004-05533-047500FM-15+0123SBIZ V0209999C00001220001CN0099001N1+02401+02101999999ADDMA1101191999999REMMET045METAR SBIZ 100300Z 00000KT CAVOK 24/21 Q1012;
0120825640999992007071009004-05533-047500FM-15+0123SBIZ V0201501N002612200019N0070001N1+02101+02001999999ADDGA1041+003001999GF104991999999999999999999MA1101191999999REMMET051METAR SBIZ 100900Z 15005KT 7000 SCT010 21/20 Q1012;
0143825640999992007071010004-05533-047500FM-15+0123SBIZ V0201101N002110300019N0112651N1+02201+02001999999ADDGA1041+003001999GA2071+030001999GF107991999999999999999999MA1101291999999REMMET058METAR SBIZ 101000Z 11004KT 9999 SCT010 BKN100 22/20 Q1013;
0072825640999992007071011004-05533-047500FM-15+0123SBIZ V0201501N00211220001CN0099001N1+02601+02301999999ADDMA1101291999999REMMET045METAR SBIZ 101100Z 15004KT CAVOK 26/23 Q1013;
0072825640999992007071012004-05533-047500FM-15+0123SBIZ V0200901N00511220001CN0099001N1+02901+02001999999ADDMA1101391999999REMMET045METAR SBIZ 101200Z 09010KT CAVOK 29/20 Q1014;
0072825640999992007071013004-05533-047500FM-15+0123SBIZ V0201101N01031220001CN0099001N1+03001+01801999999ADDMA1101391999999REMMET045METAR SBIZ 101300Z 11020KT CAVOK 30/18 Q1014;
0072825640999992007071014004-05533-047500FM-15+0123SBIZ V0201301N00621220001CN0099001N1+03201+01801999999ADDMA1101291999999REMMET045METAR SBIZ 101400Z 13012KT CAVOK 32/18 Q1013;
0072825640999992007071015004-05533-047500FM-15+0123SBIZ V0200901N01031220001CN0099001N1+03201+01901999999ADDMA1101291999999REMMET045METAR SBIZ 101500Z 09020KT CAVOK 32/19 Q1013;
0072825640999992007071016004-05533-047500FM-15+0123SBIZ V0200901N00511220001CN0099001N1+03401+01801999999ADDMA1101081999999REMMET045METAR SBIZ 101600Z 09010KT CAVOK 34/18 Q1011;
0120825640999992007071017004-05533-047500FM-15+0123SBIZ V0201801N002612200019N0112651N1+03501+01901999999ADDGA1021+006001999GF102991999999999999999999MA1101021999999REMMET051METAR SBIZ 101700Z 18005KT 9999 FEW020 35/19 Q1010;
0120825640999992007071018004-05533-047500FM-15+0123SBIZ V0201301N005112200019N0112651N1+03501+01801999999ADDGA1021+006001999GF102991999999999999999999MA1101021999999REMMET051METAR SBIZ 101800Z 13010KT 9999 FEW020 35/18 Q1010;
0072825640999992007071019004-05533-047500FM-15+0123SBIZ V0201801N00461220001CN0099001N1+03501+01801999999ADDMA1100911999999REMMET045METAR SBIZ 101900Z 18009KT CAVOK 35/18 Q1009;
0072825640999992007071020004-05533-047500FM-15+0123SBIZ V0201501N00051220001CN0099001N1+03401+01801999999ADDMA1100911999999REMMET045METAR SBIZ 102000Z 15001KT CAVOK 34/18 Q1009;
0072825640999992007071021004-05533-047500FM-15+0123SBIZ V0209999C00001220001CN0099001N1+03101+01901999999ADDMA1101021999999REMMET045METAR SBIZ 102100Z 00000KT CAVOK 31/19 Q1010;
0072825640999992007071022004-05533-047500FM-15+0123SBIZ V0201101N00101220001CN0099001N1+02901+01701999999ADDMA1101021999999REMMET045METAR SBIZ 102200Z 11002KT CAVOK 29/17 Q1010;
0072825640999992007071100004-05533-047500FM-15+0123SBIZ V0201201N00211220001CN0099001N1+02501+02001999999ADDMA1101191999999REMMET045METAR SBIZ 110000Z 12004KT CAVOK 25/20 Q1012;
0072825640999992007071101004-05533-047500FM-15+0123SBIZ V0209999C00001220001CN0099001N1+02401+02001999999ADDMA1101191999999REMMET045METAR SBIZ 110100Z 00000KT CAVOK 24/20 Q1012;
0072825640999992007071102004-05533-047500FM-15+0123SBIZ V0201301N00051220001CN0099001N1+02301+02001999999ADDMA1101191999999REMMET045METAR SBIZ 110200Z 13001KT CAVOK 23/20 Q1012;
0072825640999992007071103004-05533-047500FM-15+0123SBIZ V0200901N00311220001CN0099001N1+02201+01901999999ADDMA1101191999999REMMET045METAR SBIZ 110300Z 09006KT CAVOK 22/19 Q1012;
0072825640999992007071104004-05533-047500FM-15+0123SBIZ V0209999C00001220001CN0099001N1+02101+01901999999ADDMA1101191999999REMMET045METAR SBIZ 110400Z 00000KT CAVOK 21/19 Q1012;
0072825640999992007071105004-05533-047500FM-15+0123SBIZ V0209999C00001220001CN0099001N1+02101+01901999999ADDMA1101081999999REMMET045METAR SBIZ 110500Z 00000KT CAVOK 21/19 Q1011;
0072825640999992007071109004-05533-047500FM-15+0123SBIZ V0209999C00001220001CN0099001N1+02001+01901999999ADDMA1101191999999REMMET045METAR SBIZ 110900Z 00000KT CAVOK 20/19 Q1012;
0072825640999992007071110004-05533-047500FM-15+0123SBIZ V0209999C00001220001CN0099001N1+02101+01901999999ADDMA1101291999999REMMET045METAR SBIZ 111000Z 00000KT CAVOK 21/19 Q1013;
0072825640999992007071111004-05533-047500FM-15+0123SBIZ V0209999C00001220001CN0099001N1+02401+02001999999ADDMA1101291999999REMMET045METAR SBIZ 111100Z 00000KT CAVOK 24/20 Q1013;
0072825640999992007071112004-05533-047500FM-15+0123SBIZ V0201301N00261220001CN0099001N1+02801+02001999999ADDMA1101391999999REMMET045METAR SBIZ 111200Z 13005KT CAVOK 28/20 Q1014;
0072825640999992007071113004-05533-047500FM-15+0123SBIZ V0201201N00511220001CN0099001N1+03101+01901999999ADDMA1101391999999REMMET045METAR SBIZ 111300Z 12010KT CAVOK 31/19 Q1014;
0072825640999992007071114004-05533-047500FM-15+0123SBIZ V0201001N00771220001CN0099001N1+03201+01901999999ADDMA1101291999999REMMET045METAR SBIZ 111400Z 10015KT CAVOK 32/19 Q1013;
0072825640999992007071115004-05533-047500FM-15+0123SBIZ V0201201N00511220001CN0099001N1+03401+01901999999ADDMA1101291999999REMMET045METAR SBIZ 111500Z 12010KT CAVOK 34/19 Q1013;
0072825640999992007071116004-05533-047500FM-15+0123SBIZ V0201501N00511220001CN0099001N1+03401+01701999999ADDMA1101081999999REMMET045METAR SBIZ 111600Z 15010KT CAVOK 34/17 Q1011;
0072825640999992007071117004-05533-047500FM-15+0123SBIZ V0200901N00511220001CN0099001N1+03501+01701999999ADDMA1101081999999REMMET045METAR SBIZ 111700Z 09010KT CAVOK 35/17 Q1011;
0072825640999992007071118004-05533-047500FM-15+0123SBIZ V0201501N00411220001CN0099001N1+03501+01601999999ADDMA1100911999999REMMET045METAR SBIZ 111800Z 15008KT CAVOK 35/16 Q1009;
0072825640999992007071119004-05533-047500FM-15+0123SBIZ V0201501N00511220001CN0099001N1+03501+01601999999ADDMA1100911999999REMMET045METAR SBIZ 111900Z 15010KT CAVOK 35/16 Q1009;
0072825640999992007071120004-05533-047500FM-15+0123SBIZ V0201501N00311220001CN0099001N1+03401+01701999999ADDMA1100911999999REMMET045METAR SBIZ 112000Z 15006KT CAVOK 34/17 Q1009;
0072825640999992007071121004-05533-047500FM-15+0123SBIZ V0200901N00511220001CN0099001N1+03201+01801999999ADDMA1100911999999REMMET045METAR SBIZ 112100Z 09010KT CAVOK 32/18 Q1009;
0072825640999992007071122004-05533-047500FM-15+0123SBIZ V0200301N00211220001CN0099001N1+02901+01901999999ADDMA1101021999999REMMET045METAR SBIZ 112200Z 03004KT CAVOK 29/19 Q1010;
0072825640999992007071123004-05533-047500FM-15+0123SBIZ V0209999C00001220001CN0099001N1+02701+02001999999ADDMA1101081999999REMMET045METAR SBIZ 112300Z 00000KT CAVOK 27/20 Q1011;
0072825640999992007071200004-05533-047500FM-15+0123SBIZ V0209999C00001220001CN0099001N1+02501+02001999999ADDMA1101081999999REMMET045METAR SBIZ 120000Z 00000KT CAVOK 25/20 Q1011;
0072825640999992007071201004-05533-047500FM-15+0123SBIZ V0209999C00001220001CN0099001N1+02401+02001999999ADDMA1101191999999REMMET045METAR SBIZ 120100Z 00000KT CAVOK 24/20 Q1012;
0072825640999992007071202004-05533-047500FM-15+0123SBIZ V0209999C00001220001CN0099001N1+02301+02101999999ADDMA1101191999999REMMET045METAR SBIZ 120200Z 00000KT CAVOK 23/21 Q1012;
0072825640999992007071203004-05533-047500FM-15+0123SBIZ V0209999C00001220001CN0099001N1+02201+02001999999ADDMA1101191999999REMMET045METAR SBIZ 120300Z 00000KT CAVOK 22/20 Q1012;
0072825640999992007071204004-05533-047500FM-15+0123SBIZ V0209999C00001220001CN0099001N1+02101+02001999999ADDMA1101191999999REMMET045METAR SBIZ 120400Z 00000KT CAVOK 21/20 Q1012;
0072825640999992007071209004-05533-047500FM-15+0123SBIZ V0209999C00001220001CN0099001N1+02001+01901999999ADDMA1101191999999REMMET045METAR SBIZ 120900Z 00000KT CAVOK 20/19 Q1012;
0072825640999992007071210004-05533-047500FM-15+0123SBIZ V0209999C00001220001CN0099001N1+02101+01901999999ADDMA1101391999999REMMET045METAR SBIZ 121000Z 00000KT CAVOK 21/19 Q1014;
0072825640999992007071211004-05533-047500FM-15+0123SBIZ V0209999C00001220001CN0099001N1+02401+02001999999ADDMA1101491999999REMMET045METAR SBIZ 121100Z 00000KT CAVOK 24/20 Q1015;
0072825640999992007071212004-05533-047500FM-15+0123SBIZ V0201001N00511220001CN0099001N1+02901+02001999999ADDMA1101591999999REMMET045METAR SBIZ 121200Z 10010KT CAVOK 29/20 Q1016;
0072825640999992007071213004-05533-047500FM-15+0123SBIZ V0201501N00721220001CN0099001N1+03001+01901999999ADDMA1101491999999REMMET045METAR SBIZ 121300Z 15014KT CAVOK 30/19 Q1015;
0120825640999992007071214004-05533-047500FM-15+0123SBIZ V0201201N009312200019N0112651N1+03201+01801999999ADDGA1021+006001999GF102991999999999999999999MA1101491999999REMMET051METAR SBIZ 121400Z 12018KT 9999 FEW020 32/18 Q1015;
0143825640999992007071215004-05533-047500FM-15+0123SBIZ V0201201N009310300019N0112651N1+03201+01801999999ADDGA1021+006001999GA2071+030001999GF107991999999999999999999MA1101391999999REMMET058METAR SBIZ 121500Z 12018KT 9999 FEW020 BKN100 32/18 Q1014;
0120825640999992007071217004-05533-047500FM-15+0123SBIZ V0200901N005112200019N0112651N1+03401+01801999999ADDGA1041+006001999GF104991999999999999999999MA1101191999999REMMET051METAR SBIZ 121700Z 09010KT 9999 SCT020 34/18 Q1012;
0120825640999992007071218004-05533-047500FM-15+0123SBIZ V0201201N005112200019N0112651N1+03401+01801999999ADDGA1041+006001999GF104991999999999999999999MA1101081999999REMMET051METAR SBIZ 121800Z 12010KT 9999 SCT020 34/18 Q1011;
0120825640999992007071219004-05533-047500FM-15+0123SBIZ V0201201N007712200019N0112651N1+03401+01901999999ADDGA1041+006001999GF104991999999999999999999MA1101021999999REMMET051METAR SBIZ 121900Z 12015KT 9999 SCT020 34/19 Q1010;
0120825640999992007071220004-05533-047500FM-15+0123SBIZ V0201201N005112200019N0112651N1+03301+01901999999ADDGA1021+006001999GF102991999999999999999999MA1101021999999REMMET051METAR SBIZ 122000Z 12010KT 9999 FEW020 33/19 Q1010;
0072825640999992007071221004-05533-047500FM-15+0123SBIZ V0200901N00411220001CN0099001N1+03101+01901999999ADDMA1101021999999REMMET045METAR SBIZ 122100Z 09008KT CAVOK 31/19 Q1010;
0072825640999992007071222004-05533-047500FM-15+0123SBIZ V0200901N00261220001CN0099001N1+02801+02001999999ADDMA1101081999999REMMET045METAR SBIZ 122200Z 09005KT CAVOK 28/20 Q1011;
0072825640999992007071223004-05533-047500FM-15+0123SBIZ V0200901N00261220001CN0099001N1+02701+02001999999ADDMA1101191999999REMMET045METAR SBIZ 122300Z 09005KT CAVOK 27/20 Q1012;
0072825640999992007071300004-05533-047500FM-15+0123SBIZ V0209999C00001220001CN0099001N1+02601+02001999999ADDMA1101191999999REMMET045METAR SBIZ 130000Z 00000KT CAVOK 26/20 Q1012;
0072825640999992007071301004-05533-047500FM-15+0123SBIZ V0209999C00001220001CN0099001N1+02501+02101999999ADDMA1101291999999REMMET045METAR SBIZ 130100Z 00000KT CAVOK 25/21 Q1013;
0072825640999992007071302004-05533-047500FM-15+0123SBIZ V0209999C00001220001CN0099001N1+02401+02001999999ADDMA1101291999999REMMET045METAR SBIZ 130200Z 00000KT CAVOK 24/20 Q1013;
0072825640999992007071303004-05533-047500FM-15+0123SBIZ V0209999C00001220001CN0099001N1+02301+02001999999ADDMA1101391999999REMMET045METAR SBIZ 130300Z 00000KT CAVOK 23/20 Q1014;
0072825640999992007071304004-05533-047500FM-15+0123SBIZ V0209999C00001220001CN0099001N1+02201+02101999999ADDMA1101391999999REMMET045METAR SBIZ 130400Z 00000KT CAVOK 22/21 Q1014;
0072825640999992007071309004-05533-047500FM-15+0123SBIZ V0209999C00001220001CN0099001N1+02001+02001999999ADDMA1101291999999REMMET045METAR SBIZ 130900Z 00000KT CAVOK 20/20 Q1013;
0072825640999992007071310004-05533-047500FM-15+0123SBIZ V0209999C00001220001CN0099001N1+02101+02001999999ADDMA1101391999999REMMET045METAR SBIZ 131000Z 00000KT CAVOK 21/20 Q1014;
0072825640999992007071311004-05533-047500FM-15+0123SBIZ V0209999C00001220001CN0099001N1+02401+02001999999ADDMA1101491999999REMMET045METAR SBIZ 131100Z 00000KT CAVOK 24/20 Q1015;
0072825640999992007071312004-05533-047500FM-15+0123SBIZ V0201201N00511220001CN0099001N1+02701+02101999999ADDMA1101491999999REMMET045METAR SBIZ 131200Z 12010KT CAVOK 27/21 Q1015;
0120825640999992007071313004-05533-047500FM-15+0123SBIZ V0200901N006212200019N0112651N1+03001+02101999999ADDGA1021+006001999GF102991999999999999999999MA1101491999999REMMET051METAR SBIZ 131300Z 09012KT 9999 FEW020 30/21 Q1015;
0120825640999992007071314004-05533-047500FM-15+0123SBIZ V0200901N007712200019N0112651N1+03201+02001999999ADDGA1041+006001999GF104991999999999999999999MA1101491999999REMMET051METAR SBIZ 131400Z 09015KT 9999 SCT020 32/20 Q1015;
0120825640999992007071315004-05533-047500FM-15+0123SBIZ V0201301N006210060019N0112651N1+03201+02001999999ADDGA1071+006001999GF107991999999999999999999MA1101491999999REMMET051METAR SBIZ 131500Z 13012KT 9999 BKN020 32/20 Q1015;
0120825640999992007071316004-05533-047500FM-15+0123SBIZ V0200901N005110060019N0112651N1+03301+02001999999ADDGA1071+006001999GF107991999999999999999999MA1101291999999REMMET051METAR SBIZ 131600Z 09010KT 9999 BKN020 33/20 Q1013;
0120825640999992007071317004-05533-047500FM-15+0123SBIZ V0201201N007710060019N0112651N1+03501+02101999999ADDGA1071+006001999GF107991999999999999999999MA1101291999999REMMET051METAR SBIZ 131700Z 12015KT 9999 BKN020 35/21 Q1013;
0120825640999992007071318004-05533-047500FM-15+0123SBIZ V0200901N004112200019N0112651N1+03401+02001999999ADDGA1041+006001999GF104991999999999999999999MA1101191999999REMMET051METAR SBIZ 131800Z 09008KT 9999 SCT020 34/20 Q1012;
0120825640999992007071319004-05533-047500FM-15+0123SBIZ V0200901N005112200019N0112651N1+03401+01901999999ADDGA1021+006001999GF102991999999999999999999MA1101191999999REMMET051METAR SBIZ 131900Z 09010KT 9999 FEW020 34/19 Q1012;
0120825640999992007071320004-05533-047500FM-15+0123SBIZ V0201201N005112200019N0112651N1+03301+01801999999ADDGA1021+006001999GF102991999999999999999999MA1101191999999REMMET051METAR SBIZ 132000Z 12010KT 9999 FEW020 33/18 Q1012;
0072825640999992007071321004-05533-047500FM-15+0123SBIZ V0201101N00311220001CN0099001N1+03001+01901999999ADDMA1101191999999REMMET045METAR SBIZ 132100Z 11006KT CAVOK 30/19 Q1012;
0072825640999992007071322004-05533-047500FM-15+0123SBIZ V0209999C00001220001CN0099001N1+02801+02001999999ADDMA1101191999999REMMET045METAR SBIZ 132200Z 00000KT CAVOK 28/20 Q1012;
0072825640999992007071323004-05533-047500FM-15+0123SBIZ V0209999C00001220001CN0099001N1+02601+02101999999ADDMA1101291999999REMMET045METAR SBIZ 132300Z 00000KT CAVOK 26/21 Q1013;
0072825640999992007071401004-05533-047500FM-15+0123SBIZ V0201301N00211220001CN0099001N1+02401+02101999999ADDMA1101391999999REMMET045METAR SBIZ 140100Z 13004KT CAVOK 24/21 Q1014;
0072825640999992007071402004-05533-047500FM-15+0123SBIZ V0209999C00001220001CN0099001N1+02301+02001999999ADDMA1101391999999REMMET045METAR SBIZ 140200Z 00000KT CAVOK 23/20 Q1014;
0072825640999992007071403004-05533-047500FM-15+0123SBIZ V0209999C00001220001CN0099001N1+02201+02101999999ADDMA1101391999999REMMET045METAR SBIZ 140300Z 00000KT CAVOK 22/21 Q1014;
0072825640999992007071409004-05533-047500FM-15+0123SBIZ V0209999C00001220001CN0099001N1+02001+01901999999ADDMA1101291999999REMMET045METAR SBIZ 140900Z 00000KT CAVOK 20/19 Q1013;
0072825640999992007071410004-05533-047500FM-15+0123SBIZ V0209999C00001220001CN0099001N1+02101+01901999999ADDMA1101291999999REMMET045METAR SBIZ 141000Z 00000KT CAVOK 21/19 Q1013;
0072825640999992007071411004-05533-047500FM-15+0123SBIZ V0209999C00001220001CN0099001N1+02401+02001999999ADDMA1101391999999REMMET045METAR SBIZ 141100Z 00000KT CAVOK 24/20 Q1014;
0120825640999992007071412004-05533-047500FM-15+0123SBIZ V0201201N002112200019N0112651N1+02801+02101999999ADDGA1021+006001999GF102991999999999999999999MA1101491999999REMMET051METAR SBIZ 141200Z 12004KT 9999 FEW020 28/21 Q1015;
0120825640999992007071413004-05533-047500FM-15+0123SBIZ V0201201N002112200019N0112651N1+03101+02201999999ADDGA1021+006001999GF102991999999999999999999MA1101491999999REMMET051METAR SBIZ 141300Z 12004KT 9999 FEW020 31/22 Q1015;
0120825640999992007071414004-05533-047500FM-15+0123SBIZ V0201801N006210060019N0112651N1+03101+02201999999ADDGA1071+006001999GF107991999999999999999999MA1101491999999REMMET051METAR SBIZ 141400Z 18012KT 9999 BKN020 31/22 Q1015;
0120825640999992007071415004-05533-047500FM-15+0123SBIZ V0201501N005110060019N0112651N1+03201+02201999999ADDGA1071+006001999GF107991999999999999999999MA1101391999999REMMET051METAR SBIZ 141500Z 15010KT 9999 BKN020 32/22 Q1014;
0120825640999992007071417004-05533-047500FM-15+0123SBIZ V0201001N006212200019N0112651N1+03501+02101999999ADDGA1041+006001999GF104991999999999999999999MA1101191999999REMMET051METAR SBIZ 141700Z 10012KT 9999 SCT020 35/21 Q1012;
0120825640999992007071418004-05533-047500FM-15+0123SBIZ V0201201N002612200019N0112651N1+03301+02001999999ADDGA1041+006001999GF104991999999999999999999MA1101081999999REMMET051METAR SBIZ 141800Z 12005KT 9999 SCT020 33/20 Q1011;
0120825640999992007071419004-05533-047500FM-15+0123SBIZ V0201201N002612200019N0112651N1+03501+01901999999ADDGA1021+006001999GF102991999999999999999999MA1101081999999REMMET051METAR SBIZ 141900Z 12005KT 9999 FEW020 35/19 Q1011;
0120825640999992007071420004-05533-047500FM-15+0123SBIZ V0201001N003612200019N0112651N1+03301+01901999999ADDGA1021+006001999GF102991999999999999999999MA1101081999999REMMET051METAR SBIZ 142000Z 10007KT 9999 FEW020 33/19 Q1011;
0072825640999992007071422004-05533-047500FM-15+0123SBIZ V0209999C00001220001CN0099001N1+02801+02101999999ADDMA1101081999999REMMET045METAR SBIZ 142200Z 00000KT CAVOK 28/21 Q1011;
0072825640999992007071423004-05533-047500FM-15+0123SBIZ V0209999C00001220001CN0099001N1+02701+02101999999ADDMA1101191999999REMMET045METAR SBIZ 142300Z 00000KT CAVOK 27/21 Q1012;
0072825640999992007071500004-05533-047500FM-15+0123SBIZ V0209999C00001220001CN0099001N1+02401+02201999999ADDMA1101291999999REMMET045METAR SBIZ 150000Z 00000KT CAVOK 24/22 Q1013;
0120825640999992007071501004-05533-047500FM-15+0123SBIZ V0209999C000012200019N0080001N1+02501+02201999999ADDGF100991999999999999999999MA1101291999999REMMET048METAR SBIZ 150100Z 00000KT 8000 SKC 25/22 Q1013;EQDQ01    003SCCGA1
0120825640999992007071502004-05533-047500FM-15+0123SBIZ V0209999C000012200019N0080001N1+02401+02101999999ADDGF100991999999999999999999MA1101291999999REMMET048METAR SBIZ 150200Z 00000KT 8000 SKC 24/21 Q1013;EQDQ01    003SCCGA1
0120825640999992007071503004-05533-047500FM-15+0123SBIZ V0209999C000012200019N0080001N1+02301+02101999999ADDGF100991999999999999999999MA1101291999999REMMET048METAR SBIZ 150300Z 00000KT 8000 SKC 23/21 Q1013;EQDQ01    003SCCGA1
0120825640999992007071504004-05533-047500FM-15+0123SBIZ V0209999C000012200019N0080001N1+02201+02101999999ADDGF100991999999999999999999MA1101291999999REMMET048METAR SBIZ 150400Z 00000KT 8000 SKC 22/21 Q1013;EQDQ01    003SCCGA1
0120825640999992007071505004-05533-047500FM-15+0123SBIZ V0209999C000012200019N0080001N1+02201+02101999999ADDGF100991999999999999999999MA1101191999999REMMET048METAR SBIZ 150500Z 00000KT 8000 SKC 22/21 Q1012;EQDQ01    003SCCGA1
0120825640999992007071506004-05533-047500FM-15+0123SBIZ V0209999C000012200019N0080001N1+02101+02001999999ADDGF100991999999999999999999MA1101191999999REMMET048METAR SBIZ 150600Z 00000KT 8000 SKC 21/20 Q1012;EQDQ01    003SCCGA1
0072825640999992007071509004-05533-047500FM-15+0123SBIZ V0209999C00001220001CN0099001N1+02001+01901999999ADDMA1101191999999REMMET045METAR SBIZ 150900Z 00000KT CAVOK 20/19 Q1012;
0072825640999992007071510004-05533-047500FM-15+0123SBIZ V0209999C00001220001CN0099001N1+02101+02001999999ADDMA1101291999999REMMET045METAR SBIZ 151000Z 00000KT CAVOK 21/20 Q1013;
0072825640999992007071511004-05533-047500FM-15+0123SBIZ V0209999C00001220001CN0099001N1+02501+02101999999ADDMA1101291999999REMMET045METAR SBIZ 151100Z 00000KT CAVOK 25/21 Q1013;
0072825640999992007071512004-05533-047500FM-15+0123SBIZ V0209999C00001220001CN0099001N1+02801+02201999999ADDMA1101391999999REMMET045METAR SBIZ 151200Z 00000KT CAVOK 28/22 Q1014;
0072825640999992007071513004-05533-047500FM-15+0123SBIZ V0209999C00001220001CN0099001N1+03101+02301999999ADDMA1101391999999REMMET045METAR SBIZ 151300Z 00000KT CAVOK 31/23 Q1014;
0120825640999992007071514004-05533-047500FM-15+0123SBIZ V0200901N001512200019N0112651N1+03201+02301999999ADDGA1021+006001999GF102991999999999999999999MA1101391999999REMMET051METAR SBIZ 151400Z 09003KT 9999 FEW020 32/23 Q1014;
0143825640999992007071515004-05533-047500FM-15+0123SBIZ V0200601N005110060019N0112651N1+03301+02401999999ADDGA1021+004501999GA2071+006001999GF107991999999999999999999MA1101291999999REMMET058METAR SBIZ 151500Z 06010KT 9999 FEW015 BKN020 33/24 Q1013;
0164825640999992007071516004-05533-047500FM-15+0123SBIZ V0200901N005110060019N0080001N1+02501+02301999999ADDGA1021+004501999GA2071+006001999GF107991999999999999999999MA1101291999999MW1611REMMET073METAR SBIZ 151600Z 09010KT 8000 3000W -RA FEW015 BKN020 25/23 Q1013 RERA;
0120825640999992007071517004-05533-047500FM-15+0123SBIZ V0200701N006212200019N0112651N1+02901+02401999999ADDGA1041+006001999GF104991999999999999999999MA1101191999999REMMET051METAR SBIZ 151700Z 07012KT 9999 SCT020 29/24 Q1012;
0120825640999992007071518004-05533-047500FM-15+0123SBIZ V0200701N005112200019N0112651N1+03201+02301999999ADDGA1041+006001999GF104991999999999999999999MA1101081999999REMMET051METAR SBIZ 151800Z 07010KT 9999 SCT020 32/23 Q1011;
0120825640999992007071519004-05533-047500FM-15+0123SBIZ V0201501N002612200019N0112651N1+03301+02201999999ADDGA1021+006001999GF102991999999999999999999MA1101021999999REMMET051METAR SBIZ 151900Z 15005KT 9999 FEW020 33/22 Q1010;
0120825640999992007071520004-05533-047500FM-15+0123SBIZ V0201501N001012200019N0112651N1+03201+02301999999ADDGA1021+006001999GF102991999999999999999999MA1101021999999REMMET051METAR SBIZ 152000Z 15002KT 9999 FEW020 32/23 Q1010;
0072825640999992007071521004-05533-047500FM-15+0123SBIZ V0209999C00001220001CN0099001N1+03001+02201999999ADDMA1101021999999REMMET045METAR SBIZ 152100Z 00000KT CAVOK 30/22 Q1010;
0072825640999992007071522004-05533-047500FM-15+0123SBIZ V0209999C00001220001CN0099001N1+02701+02201999999ADDMA1101081999999REMMET045METAR SBIZ 152200Z 00000KT CAVOK 27/22 Q1011;
0072825640999992007071523004-05533-047500FM-15+0123SBIZ V0209999C00001220001CN0099001N1+02601+02301999999ADDMA1101081999999REMMET045METAR SBIZ 152300Z 00000KT CAVOK 26/23 Q1011;
0072825640999992007071600004-05533-047500FM-15+0123SBIZ V0209999C00001220001CN0099001N1+02501+02301999999ADDMA1101191999999REMMET045METAR SBIZ 160000Z 00000KT CAVOK 25/23 Q1012;
0072825640999992007071601004-05533-047500FM-15+0123SBIZ V0209999C00001220001CN0099001N1+02401+02301999999ADDMA1101191999999REMMET045METAR SBIZ 160100Z 00000KT CAVOK 24/23 Q1012;
0072825640999992007071602004-05533-047500FM-15+0123SBIZ V0209999C00001220001CN0099001N1+02401+02201999999ADDMA1101191999999REMMET045METAR SBIZ 160200Z 00000KT CAVOK 24/22 Q1012;
0072825640999992007071603004-05533-047500FM-15+0123SBIZ V0209999C00001220001CN0099001N1+02301+02201999999ADDMA1101191999999REMMET045METAR SBIZ 160300Z 00000KT CAVOK 23/22 Q1012;
0072825640999992007071604004-05533-047500FM-15+0123SBIZ V0209999C00001220001CN0099001N1+02201+02201999999ADDMA1101191999999REMMET045METAR SBIZ 160400Z 00000KT CAVOK 22/22 Q1012;
0072825640999992007071609004-05533-047500FM-15+0123SBIZ V0201501N00101220001CN0099001N1+02101+02001999999ADDMA1101081999999REMMET045METAR SBIZ 160900Z 15002KT CAVOK 21/20 Q1011;
0072825640999992007071610004-05533-047500FM-15+0123SBIZ V0209999C00001220001CN0099001N1+02101+02001999999ADDMA1101191999999REMMET045METAR SBIZ 161000Z 00000KT CAVOK 21/20 Q1012;
0072825640999992007071611004-05533-047500FM-15+0123SBIZ V0209999C00001220001CN0099001N1+02401+02201999999ADDMA1101191999999REMMET045METAR SBIZ 161100Z 00000KT CAVOK 24/22 Q1012;
0072825640999992007071612004-05533-047500FM-15+0123SBIZ V0209999C00001220001CN0099001N1+02801+02201999999ADDMA1101291999999REMMET045METAR SBIZ 161200Z 00000KT CAVOK 28/22 Q1013;
0072825640999992007071613004-05533-047500FM-15+0123SBIZ V0200901N00411220001CN0099001N1+03101+02201999999ADDMA1101291999999REMMET045METAR SBIZ 161300Z 09008KT CAVOK 31/22 Q1013;
0120825640999992007071614004-05533-047500FM-15+0123SBIZ V0200601N003112200019N0112651N1+03301+02301999999ADDGA1021+006001999GF102991999999999999999999MA1101291999999REMMET051METAR SBIZ 161400Z 06006KT 9999 FEW020 33/23 Q1013;
0072825640999992007071703004-05533-047500FM-15+0123SBIZ V0209999C00001220001CN0099001N1+02401+02301999999ADDMA1101191999999REMMET045METAR SBIZ 170300Z 00000KT CAVOK 24/23 Q1012;
0072825640999992007071704004-05533-047500FM-15+0123SBIZ V0209999C00001220001CN0099001N1+02401+02301999999ADDMA1101191999999REMMET045METAR SBIZ 170400Z 00000KT CAVOK 24/23 Q1012;
0072825640999992007071705004-05533-047500FM-15+0123SBIZ V0209999C00001220001CN0099001N1+02301+02301999999ADDMA1101081999999REMMET045METAR SBIZ 170500Z 00000KT CAVOK 23/23 Q1011;
0072825640999992007071709004-05533-047500FM-15+0123SBIZ V0209999C00001220001CN0099001N1+02201+02101999999ADDMA1101081999999REMMET045METAR SBIZ 170900Z 00000KT CAVOK 22/21 Q1011;
0072825640999992007071710004-05533-047500FM-15+0123SBIZ V0209999C00001220001CN0099001N1+02201+02101999999ADDMA1101191999999REMMET045METAR SBIZ 171000Z 00000KT CAVOK 22/21 Q1012;
0072825640999992007071711004-05533-047500FM-15+0123SBIZ V0209999C00001220001CN0099001N1+02501+02201999999ADDMA1101291999999REMMET045METAR SBIZ 171100Z 00000KT CAVOK 25/22 Q1013;
0072825640999992007071712004-05533-047500FM-15+0123SBIZ V0200601N00261220001CN0099001N1+02901+02301999999ADDMA1101291999999REMMET045METAR SBIZ 171200Z 06005KT CAVOK 29/23 Q1013;
0120825640999992007071713004-05533-047500FM-15+0123SBIZ V0201201N003112200019N0112651N1+03101+02401999999ADDGA1041+006001999GF104991999999999999999999MA1101291999999REMMET051METAR SBIZ 171300Z 12006KT 9999 SCT020 31/24 Q1013;
0120825640999992007071714004-05533-047500FM-15+0123SBIZ V0201201N010310060019N0112651N1+03001+02301999999ADDGA1071+006001999GF107991999999999999999999MA1101391999999REMMET051METAR SBIZ 171400Z 12020KT 9999 BKN020 30/23 Q1014;
0120825640999992007071715004-05533-047500FM-15+0123SBIZ V0200901N007712200019N0112651N1+03001+02301999999ADDGA1041+006001999GF104991999999999999999999MA1101291999999REMMET051METAR SBIZ 171500Z 09015KT 9999 SCT020 30/23 Q1013;
0120825640999992007071716004-05533-047500FM-15+0123SBIZ V0201201N007712200019N0112651N1+03101+02201999999ADDGA1021+006001999GF102991999999999999999999MA1101191999999REMMET051METAR SBIZ 171600Z 12015KT 9999 FEW020 31/22 Q1012;
0120825640999992007071717004-05533-047500FM-15+0123SBIZ V0201101N005112200019N0112651N1+03201+02201999999ADDGA1021+006001999GF102991999999999999999999MA1101081999999REMMET051METAR SBIZ 171700Z 11010KT 9999 FEW020 32/22 Q1011;
0120825640999992007071718004-05533-047500FM-15+0123SBIZ V0200901N005112200019N0112651N1+03301+02101999999ADDGA1041+006001999GF104991999999999999999999MA1101081999999REMMET051METAR SBIZ 171800Z 09010KT 9999 SCT020 33/21 Q1011;
0143825640999992007071719004-05533-047500FM-15+0123SBIZ V0201201N006211200019N0112651N1+03301+02101999999ADDGA1021+006001999GA2071+120001999GF107991999999999999999999MA1101021999999REMMET058METAR SBIZ 171900Z 12012KT 9999 FEW020 BKN400 33/21 Q1010;
0143825640999992007071720004-05533-047500FM-15+0123SBIZ V0201201N005112200019N0112651N1+03301+02201999999ADDGA1021+006001999GA2041+120001999GF104991999999999999999999MA1101021999999REMMET058METAR SBIZ 172000Z 12010KT 9999 FEW020 SCT400 33/22 Q1010;
0072825640999992007071721004-05533-047500FM-15+0123SBIZ V0201301N00211220001CN0099001N1+03001+02101999999ADDMA1101021999999REMMET045METAR SBIZ 172100Z 13004KT CAVOK 30/21 Q1010;
0072825640999992007071722004-05533-047500FM-15+0123SBIZ V0209999C00001220001CN0099001N1+02801+02201999999ADDMA1101021999999REMMET045METAR SBIZ 172200Z 00000KT CAVOK 28/22 Q1010;
0072825640999992007071723004-05533-047500FM-15+0123SBIZ V0209999C00001220001CN0099001N1+02701+02201999999ADDMA1101081999999REMMET045METAR SBIZ 172300Z 00000KT CAVOK 27/22 Q1011;
0072825640999992007071800004-05533-047500FM-15+0123SBIZ V0201301N00101220001CN0099001N1+02601+02301999999ADDMA1101191999999REMMET045METAR SBIZ 180000Z 13002KT CAVOK 26/23 Q1012;
0072825640999992007071801004-05533-047500FM-15+0123SBIZ V0209999C00001220001CN0099001N1+02501+02201999999ADDMA1101191999999REMMET045METAR SBIZ 180100Z 00000KT CAVOK 25/22 Q1012;
0072825640999992007071802004-05533-047500FM-15+0123SBIZ V0209999C00001220001CN0099001N1+02401+02201999999ADDMA1101191999999REMMET045METAR SBIZ 180200Z 00000KT CAVOK 24/22 Q1012;
0072825640999992007071803004-05533-047500FM-15+0123SBIZ V0209999C00001220001CN0099001N1+02401+02201999999ADDMA1101191999999REMMET045METAR SBIZ 180300Z 00000KT CAVOK 24/22 Q1012;
0072825640999992007071804004-05533-047500FM-15+0123SBIZ V0209999C00001220001CN0099001N1+02301+02101999999ADDMA1101081999999REMMET045METAR SBIZ 180400Z 00000KT CAVOK 23/21 Q1011;
0072825640999992007071805004-05533-047500FM-15+0123SBIZ V0209999C00001220001CN0099001N1+02301+02101999999ADDMA1101081999999REMMET045METAR SBIZ 180500Z 00000KT CAVOK 23/21 Q1011;
0072825640999992007071806004-05533-047500FM-15+0123SBIZ V0209999C00001220001CN0099001N1+02201+02101999999ADDMA1101081999999REMMET045METAR SBIZ 180600Z 00000KT CAVOK 22/21 Q1011;
0072825640999992007071807004-05533-047500FM-15+0123SBIZ V0209999C00001220001CN0099001N1+02201+02101999999ADDMA1101081999999REMMET045METAR SBIZ 180700Z 00000KT CAVOK 22/21 Q1011;
0072825640999992007071808004-05533-047500FM-15+0123SBIZ V0209999C00001220001CN0099001N1+02201+02101999999ADDMA1101081999999REMMET045METAR SBIZ 180800Z 00000KT CAVOK 22/21 Q1011;
0120825640999992007071809004-05533-047500FM-15+0123SBIZ V0209999C000012200019N0070001N1+02101+02001999999ADDGF100991999999999999999999MA1101081999999REMMET048METAR SBIZ 180900Z 00000KT 7000 SKC 21/20 Q1011;EQDQ01    003SCCGA1
0072825640999992007071810004-05533-047500FM-15+0123SBIZ V0209999C00001220001CN0099001N1+02201+02101999999ADDMA1101191999999REMMET045METAR SBIZ 181000Z 00000KT CAVOK 22/21 Q1012;
0072825640999992007071811004-05533-047500FM-15+0123SBIZ V0209999C00001220001CN0099001N1+02501+02401999999ADDMA1101291999999REMMET045METAR SBIZ 181100Z 00000KT CAVOK 25/24 Q1013;
0120825640999992007071812004-05533-047500FM-15+0123SBIZ V0200501N005110045019N0112651N1+02701+02201999999ADDGA1081+004501999GF108991999999999999999999MA1101391999999REMMET051METAR SBIZ 181200Z 05010KT 9999 OVC015 27/22 Q1014;
0120825640999992007071813004-05533-047500FM-15+0123SBIZ V0201201N004110045019N0112651N1+02701+02301999999ADDGA1081+004501999GF108991999999999999999999MA1101491999999REMMET051METAR SBIZ 181300Z 12008KT 9999 OVC015 27/23 Q1015;
0120825640999992007071814004-05533-047500FM-15+0123SBIZ V0200901N005110060019N0112651N1+02901+02301999999ADDGA1071+006001999GF107991999999999999999999MA1101391999999REMMET051METAR SBIZ 181400Z 09010KT 9999 BKN020 29/23 Q1014;
0120825640999992007071815004-05533-047500FM-15+0123SBIZ V0201201N005110060019N0112651N1+03101+02301999999ADDGA1071+006001999GF107991999999999999999999MA1101391999999REMMET051METAR SBIZ 181500Z 12010KT 9999 BKN020 31/23 Q1014;
0120825640999992007071816004-05533-047500FM-15+0123SBIZ V0200901N006212200019N0112651N1+03301+02301999999ADDGA1041+006001999GF104991999999999999999999MA1101291999999REMMET051METAR SBIZ 181600Z 09012KT 9999 SCT020 33/23 Q1013;
0120825640999992007071817004-05533-047500FM-15+0123SBIZ V0200901N007712200019N0112651N1+03401+02301999999ADDGA1021+006001999GF102991999999999999999999MA1101191999999REMMET051METAR SBIZ 181700Z 09015KT 9999 FEW020 34/23 Q1012;
0072825640999992007071819004-05533-047500FM-15+0123SBIZ V0200901N00511220001CN0099001N1+03401+02101999999ADDMA1101081999999REMMET045METAR SBIZ 181900Z 09010KT CAVOK 34/21 Q1011;
0072825640999992007071822004-05533-047500FM-15+0123SBIZ V0200901N00311220001CN0099001N1+02801+02201999999ADDMA1101081999999REMMET045METAR SBIZ 182200Z 09006KT CAVOK 28/22 Q1011;
0072825640999992007071823004-05533-047500FM-15+0123SBIZ V0200901N00261220001CN0099001N1+02701+02201999999ADDMA1101081999999REMMET045METAR SBIZ 182300Z 09005KT CAVOK 27/22 Q1011;
0072825640999992007071900004-05533-047500FM-15+0123SBIZ V0209999C00001220001CN0099001N1+02501+02201999999ADDMA1101191999999REMMET045METAR SBIZ 190000Z 00000KT CAVOK 25/22 Q1012;
0072825640999992007071901004-05533-047500FM-15+0123SBIZ V0209999C00001220001CN0099001N1+02401+02201999999ADDMA1101291999999REMMET045METAR SBIZ 190100Z 00000KT CAVOK 24/22 Q1013;
0072825640999992007071902004-05533-047500FM-15+0123SBIZ V0201001N00261220001CN0099001N1+02401+02101999999ADDMA1101291999999REMMET045METAR SBIZ 190200Z 10005KT CAVOK 24/21 Q1013;
0072825640999992007071903004-05533-047500FM-15+0123SBIZ V0201301N00151220001CN0099001N1+02301+02101999999ADDMA1101191999999REMMET045METAR SBIZ 190300Z 13003KT CAVOK 23/21 Q1012;
0072825640999992007071904004-05533-047500FM-15+0123SBIZ V0209999C00001220001CN0099001N1+02301+02101999999ADDMA1101191999999REMMET045METAR SBIZ 190400Z 00000KT CAVOK 23/21 Q1012;
0072825640999992007071905004-05533-047500FM-15+0123SBIZ V0209999C00001220001CN0099001N1+02201+02101999999ADDMA1101191999999REMMET045METAR SBIZ 190500Z 00000KT CAVOK 22/21 Q1012;
0072825640999992007071906004-05533-047500FM-15+0123SBIZ V0203501N00151220001CN0099001N1+02201+02101999999ADDMA1101081999999REMMET045METAR SBIZ 190600Z 35003KT CAVOK 22/21 Q1011;
0072825640999992007071909004-05533-047500FM-15+0123SBIZ V0201201N00151220001CN0099001N1+02101+02001999999ADDMA1101191999999REMMET045METAR SBIZ 190900Z 12003KT CAVOK 21/20 Q1012;
0072825640999992007071910004-05533-047500FM-15+0123SBIZ V0201501N00151220001CN0099001N1+02101+02001999999ADDMA1101191999999REMMET045METAR SBIZ 191000Z 15003KT CAVOK 21/20 Q1012;
0129825640999992007071911004-05533-047500FM-15+0123SBIZ V0209999C000012200019N0050001N1+02501+02101999999ADDGF100991999999999999999999MA1101291999999MW1101REMMET051METAR SBIZ 191100Z 00000KT 5000 BR SKC 25/21 Q1013;EQDQ01    003SCCGA1
0120825640999992007071912004-05533-047500FM-15+0123SBIZ V0200301N004112200019N0080001N1+02801+02201999999ADDGF100991999999999999999999MA1101291999999REMMET048METAR SBIZ 191200Z 03008KT 8000 SKC 28/22 Q1013;EQDQ01    003SCCGA1
0120825640999992007071913004-05533-047500FM-15+0123SBIZ V0200101N005112200019N0112651N1+02901+02301999999ADDGA1041+006001999GF104991999999999999999999MA1101291999999REMMET051METAR SBIZ 191300Z 01010KT 9999 SCT020 29/23 Q1013;
0120825640999992007071914004-05533-047500FM-15+0123SBIZ V0203601N005110060019N0112651N1+03101+02301999999ADDGA1071+006001999GF107991999999999999999999MA1101191999999REMMET051METAR SBIZ 191400Z 36010KT 9999 BKN020 31/23 Q1012;
0120825640999992007071915004-05533-047500FM-15+0123SBIZ V0203601N004110060019N0112651N1+03301+02301999999ADDGA1071+006001999GF107991999999999999999999MA1101191999999REMMET051METAR SBIZ 191500Z 36008KT 9999 BKN020 33/23 Q1012;
0120825640999992007071916004-05533-047500FM-15+0123SBIZ V0200901N002610060019N0112651N1+03501+02301999999ADDGA1071+006001999GF107991999999999999999999MA1101081999999REMMET051METAR SBIZ 191600Z 09005KT 9999 BKN020 35/23 Q1011;
0120825640999992007071917004-05533-047500FM-15+0123SBIZ V0200601N003112200019N0112651N1+03501+02301999999ADDGA1041+006001999GF104991999999999999999999MA1100911999999REMMET051METAR SBIZ 191700Z 06006KT 9999 SCT020 35/23 Q1009;
0120825640999992007071918004-05533-047500FM-15+0123SBIZ V0201201N007712200019N0112651N1+03301+02301999999ADDGA1021+006001999GF102991999999999999999999MA1100911999999REMMET051METAR SBIZ 191800Z 12015KT 9999 FEW020 33/23 Q1009;
0120825640999992007071919004-05533-047500FM-15+0123SBIZ V0201201N007712200019N0112651N1+03301+02201999999ADDGA1021+006001999GF102991999999999999999999MA1100911999999REMMET051METAR SBIZ 191900Z 12015KT 9999 FEW020 33/22 Q1009;
0120825640999992007071920004-05533-047500FM-15+0123SBIZ V0200901N005112200019N0112651N1+03201+02201999999ADDGA1021+006001999GF102991999999999999999999MA1100911999999REMMET051METAR SBIZ 192000Z 09010KT 9999 FEW020 32/22 Q1009;
0072825640999992007071921004-05533-047500FM-15+0123SBIZ V0200801N00511220001CN0099001N1+03001+02201999999ADDMA1100911999999REMMET045METAR SBIZ 192100Z 08010KT CAVOK 30/22 Q1009;
0072825640999992007071922004-05533-047500FM-15+0123SBIZ V0201201N00151220001CN0099001N1+02801+02201999999ADDMA1101021999999REMMET045METAR SBIZ 192200Z 12003KT CAVOK 28/22 Q1010;
0072825640999992007071923004-05533-047500FM-15+0123SBIZ V0201001N00411220001CN0099001N1+02701+02201999999ADDMA1101021999999REMMET045METAR SBIZ 192300Z 10008KT CAVOK 27/22 Q1010;
0072825640999992007072000004-05533-047500FM-15+0123SBIZ V0209999C00001220001CN0099001N1+02601+02201999999ADDMA1101081999999REMMET045METAR SBIZ 200000Z 00000KT CAVOK 26/22 Q1011;
0072825640999992007072001004-05533-047500FM-15+0123SBIZ V0209999C00001220001CN0099001N1+02501+02201999999ADDMA1101081999999REMMET045METAR SBIZ 200100Z 00000KT CAVOK 25/22 Q1011;
0072825640999992007072002004-05533-047500FM-15+0123SBIZ V0209999C00001220001CN0099001N1+02401+02201999999ADDMA1101081999999REMMET045METAR SBIZ 200200Z 00000KT CAVOK 24/22 Q1011;
0072825640999992007072003004-05533-047500FM-15+0123SBIZ V0209999C00001220001CN0099001N1+02301+02101999999ADDMA1101081999999REMMET045METAR SBIZ 200300Z 00000KT CAVOK 23/21 Q1011;
0072825640999992007072004004-05533-047500FM-15+0123SBIZ V0209999C00001220001CN0099001N1+02301+02101999999ADDMA1101081999999REMMET045METAR SBIZ 200400Z 00000KT CAVOK 23/21 Q1011;
0072825640999992007072009004-05533-047500FM-15+0123SBIZ V0209999C00001220001CN0099001N1+02101+02001999999ADDMA1101191999999REMMET045METAR SBIZ 200900Z 00000KT CAVOK 21/20 Q1012;
0072825640999992007072010004-05533-047500FM-15+0123SBIZ V0209999C00001220001CN0099001N1+02201+02001999999ADDMA1101191999999REMMET045METAR SBIZ 201000Z 00000KT CAVOK 22/20 Q1012;
0072825640999992007072011004-05533-047500FM-15+0123SBIZ V0200301N00511220001CN0099001N1+02501+02201999999ADDMA1101291999999REMMET045METAR SBIZ 201100Z 03010KT CAVOK 25/22 Q1013;
0143825640999992007072012004-05533-047500FM-15+0123SBIZ V0200301N005110024019N0112651N1+02501+02301999999ADDGA1071+002401999GA2071+006001999GF107991999999999999999999MA1101391999999REMMET058METAR SBIZ 201200Z 03010KT 9999 BKN008 BKN020 25/23 Q1014;
0143825640999992007072013004-05533-047500FM-15+0123SBIZ V0200901N005110045019N0112651N1+02601+02201999999ADDGA1071+004501999GA2071+006001999GF107991999999999999999999MA1101491999999REMMET058METAR SBIZ 201300Z 09010KT 9999 BKN015 BKN020 26/22 Q1015;
0120825640999992007072015004-05533-047500FM-15+0123SBIZ V0200501N002610060019N0112651N1+03101+02401999999ADDGA1071+006001999GF107991999999999999999999MA1101291999999REMMET051METAR SBIZ 201500Z 05005KT 9999 BKN020 31/24 Q1013;
0120825640999992007072016004-05533-047500FM-15+0123SBIZ V0201301N005110060019N0112651N1+03201+02201999999ADDGA1071+006001999GF107991999999999999999999MA1101191999999REMMET051METAR SBIZ 201600Z 13010KT 9999 BKN020 32/22 Q1012;
0120825640999992007072017004-05533-047500FM-15+0123SBIZ V0201201N002610060019N0112651N1+03101+02201999999ADDGA1071+006001999GF107991999999999999999999MA1101081999999REMMET051METAR SBIZ 201700Z 12005KT 9999 BKN020 31/22 Q1011;
0120825640999992007072018004-05533-047500FM-15+0123SBIZ V0200601N005112200019N0112651N1+03301+02201999999ADDGA1041+006001999GF104991999999999999999999MA1101021999999REMMET051METAR SBIZ 201800Z 06010KT 9999 SCT020 33/22 Q1010;
0120825640999992007072019004-05533-047500FM-15+0123SBIZ V0201801N002612200019N0112651N1+03501+02201999999ADDGA1021+006001999GF102991999999999999999999MA1101021999999REMMET051METAR SBIZ 201900Z 18005KT 9999 FEW020 35/22 Q1010;
0120825640999992007072020004-05533-047500FM-15+0123SBIZ V0200601N001512200019N0112651N1+03301+02101999999ADDGA1021+006001999GF102991999999999999999999MA1101021999999REMMET051METAR SBIZ 202000Z 06003KT 9999 FEW020 33/21 Q1010;
0120825640999992007072021004-05533-047500FM-15+0123SBIZ V0209999C000012200019N0112651N1+03101+02101999999ADDGA1041+006001999GF104991999999999999999999MA1101021999999REMMET051METAR SBIZ 202100Z 00000KT 9999 SCT020 31/21 Q1010;
0120825640999992007072022004-05533-047500FM-15+0123SBIZ V0200301N002612200019N0112651N1+02901+02201999999ADDGA1021+006001999GF102991999999999999999999MA1101021999999REMMET051METAR SBIZ 202200Z 03005KT 9999 FEW020 29/22 Q1010;
0072825640999992007072023004-05533-047500FM-15+0123SBIZ V0209999C00001220001CN0099001N1+02701+02101999999ADDMA1101081999999REMMET045METAR SBIZ 202300Z 00000KT CAVOK 27/21 Q1011;
0120825640999992007072101004-05533-047500FM-15+0123SBIZ V0200901N002112200019N0112651N1+02501+02101999999ADDGA1021+006001999GF102991999999999999999999MA1101291999999REMMET051METAR SBIZ 210100Z 09004KT 9999 FEW020 25/21 Q1013;
0120825640999992007072102004-05533-047500FM-15+0123SBIZ V0209999C000012200019N0112651N1+02501+02101999999ADDGA1041+009001999GF104991999999999999999999MA1101291999999REMMET051METAR SBIZ 210200Z 00000KT 9999 SCT030 25/21 Q1013;
0120825640999992007072103004-05533-047500FM-15+0123SBIZ V0209999C000012200019N0112651N1+02501+02101999999ADDGA1041+009001999GF104991999999999999999999MA1101291999999REMMET051METAR SBIZ 210300Z 00000KT 9999 SCT030 25/21 Q1013;
0120825640999992007072104004-05533-047500FM-15+0123SBIZ V0209999C000012200019N0112651N1+02501+02201999999ADDGA1041+009001999GF104991999999999999999999MA1101291999999REMMET051METAR SBIZ 210400Z 00000KT 9999 SCT030 25/22 Q1013;
0120825640999992007072105004-05533-047500FM-15+0123SBIZ V0209999C000012200019N0112651N1+02501+02101999999ADDGA1041+009001999GF104991999999999999999999MA1101191999999REMMET051METAR SBIZ 210500Z 00000KT 9999 SCT030 25/21 Q1012;
0072825640999992007072107004-05533-047500FM-15+0123SBIZ V0209999C00001220001CN0099001N1+02501+02201999999ADDMA1101191999999REMMET045METAR SBIZ 210700Z 00000KT CAVOK 25/22 Q1012;
0072825640999992007072108004-05533-047500FM-15+0123SBIZ V0201201N00511220001CN0099001N1+02301+02101999999ADDMA1101291999999REMMET045METAR SBIZ 210800Z 12010KT CAVOK 23/21 Q1013;
0120825640999992007072109004-05533-047500FM-15+0123SBIZ V0201001N001012200019N0112651N1+02201+02101999999ADDGA1041+004501999GF104991999999999999999999MA1101391999999REMMET051METAR SBIZ 210900Z 10002KT 9999 SCT015 22/21 Q1014;
0120825640999992007072110004-05533-047500FM-15+0123SBIZ V0209999C000012200019N0112651N1+02301+02101999999ADDGA1041+004501999GF104991999999999999999999MA1101491999999REMMET051METAR SBIZ 211000Z 00000KT 9999 SCT015 23/21 Q1015;
0120825640999992007072111004-05533-047500FM-15+0123SBIZ V0200901N002612200019N0112651N1+02501+02201999999ADDGA1041+006001999GF104991999999999999999999MA1101491999999REMMET051METAR SBIZ 211100Z 09005KT 9999 SCT020 25/22 Q1015;
0120825640999992007072112004-05533-047500FM-15+0123SBIZ V0200801N006212200019N0112651N1+02801+02301999999ADDGA1041+006001999GF104991999999999999999999MA1101591999999REMMET051METAR SBIZ 211200Z 08012KT 9999 SCT020 28/23 Q1016;
0120825640999992007072113004-05533-047500FM-15+0123SBIZ V0200901N007712200019N0112651N1+02901+02301999999ADDGA1041+006001999GF104991999999999999999999MA1101491999999REMMET051METAR SBIZ 211300Z 09015KT 9999 SCT020 29/23 Q1015;
0120825640999992007072114004-05533-047500FM-15+0123SBIZ V0201301N007212200019N0112651N1+03101+02101999999ADDGA1041+006001999GF104991999999999999999999MA1101491999999REMMET051METAR SBIZ 211400Z 13014KT 9999 SCT020 31/21 Q1015;
0120825640999992007072116004-05533-047500FM-15+0123SBIZ V0200601N005110060019N0112651N1+03301+02201999999ADDGA1071+006001999GF107991999999999999999999MA1101291999999REMMET051METAR SBIZ 211600Z 06010KT 9999 BKN020 33/22 Q1013;
0120825640999992007072117004-05533-047500FM-15+0123SBIZ V0200901N007712200019N0112651N1+03301+02001999999ADDGA1041+006001999GF104991999999999999999999MA1101191999999REMMET051METAR SBIZ 211700Z 09015KT 9999 SCT020 33/20 Q1012;
0120825640999992007072118004-05533-047500FM-15+0123SBIZ V0200901N005112200019N0112651N1+03301+02001999999ADDGA1041+006001999GF104991999999999999999999MA1101081999999REMMET051METAR SBIZ 211800Z 09010KT 9999 SCT020 33/20 Q1011;
0120825640999992007072119004-05533-047500FM-15+0123SBIZ V0201201N005112200019N0112651N1+03401+01901999999ADDGA1041+006001999GF104991999999999999999999MA1101081999999REMMET051METAR SBIZ 211900Z 12010KT 9999 SCT020 34/19 Q1011;
0120825640999992007072120004-05533-047500FM-15+0123SBIZ V0201201N005112200019N0112651N1+03201+01901999999ADDGA1021+006001999GF102991999999999999999999MA1101021999999REMMET051METAR SBIZ 212000Z 12010KT 9999 FEW020 32/19 Q1010;
0072825640999992007072121004-05533-047500FM-15+0123SBIZ V0201101N00311220001CN0099001N1+03001+01901999999ADDMA1101081999999REMMET045METAR SBIZ 212100Z 11006KT CAVOK 30/19 Q1011;
0072825640999992007072122004-05533-047500FM-15+0123SBIZ V0200901N00151220001CN0099001N1+02801+02001999999ADDMA1101081999999REMMET045METAR SBIZ 212200Z 09003KT CAVOK 28/20 Q1011;
0072825640999992007072123004-05533-047500FM-15+0123SBIZ V0201201N00211220001CN0099001N1+02701+02001999999ADDMA1101081999999REMMET045METAR SBIZ 212300Z 12004KT CAVOK 27/20 Q1011;
0072825640999992007072200004-05533-047500FM-15+0123SBIZ V0201201N00211220001CN0099001N1+02501+02101999999ADDMA1101191999999REMMET045METAR SBIZ 220000Z 12004KT CAVOK 25/21 Q1012;
0072825640999992007072201004-05533-047500FM-15+0123SBIZ V0201301N00101220001CN0099001N1+02401+02101999999ADDMA1101191999999REMMET045METAR SBIZ 220100Z 13002KT CAVOK 24/21 Q1012;
0072825640999992007072202004-05533-047500FM-15+0123SBIZ V0209999C00001220001CN0099001N1+02301+02101999999ADDMA1101191999999REMMET045METAR SBIZ 220200Z 00000KT CAVOK 23/21 Q1012;
0072825640999992007072203004-05533-047500FM-15+0123SBIZ V0209999C00001220001CN0099001N1+02301+02001999999ADDMA1101191999999REMMET045METAR SBIZ 220300Z 00000KT CAVOK 23/20 Q1012;
0072825640999992007072204004-05533-047500FM-15+0123SBIZ V0209999C00001220001CN0099001N1+02201+02001999999ADDMA1101191999999REMMET045METAR SBIZ 220400Z 00000KT CAVOK 22/20 Q1012;
0072825640999992007072205004-05533-047500FM-15+0123SBIZ V0209999C00001220001CN0099001N1+02101+02001999999ADDMA1101081999999REMMET045METAR SBIZ 220500Z 00000KT CAVOK 21/20 Q1011;
0072825640999992007072209004-05533-047500FM-15+0123SBIZ V0209999C00001220001CN0099001N1+01901+01801999999ADDMA1101191999999REMMET045METAR SBIZ 220900Z 00000KT CAVOK 19/18 Q1012;
0072825640999992007072210004-05533-047500FM-15+0123SBIZ V0201201N00261220001CN0099001N1+02001+01801999999ADDMA1101191999999REMMET045METAR SBIZ 221000Z 12005KT CAVOK 20/18 Q1012;
0072825640999992007072211004-05533-047500FM-15+0123SBIZ V0201001N00311220001CN0099001N1+02301+02001999999ADDMA1101291999999REMMET045METAR SBIZ 221100Z 10006KT CAVOK 23/20 Q1013;
0072825640999992007072212004-05533-047500FM-15+0123SBIZ V0200901N00511220001CN0099001N1+02701+02101999999ADDMA1101391999999REMMET045METAR SBIZ 221200Z 09010KT CAVOK 27/21 Q1014;
0072825640999992007072213004-05533-047500FM-15+0123SBIZ V0201501N00771220001CN0099001N1+02901+02201999999ADDMA1101391999999REMMET045METAR SBIZ 221300Z 15015KT CAVOK 29/22 Q1014;
0120825640999992007072214004-05533-047500FM-15+0123SBIZ V0201101N006212200019N0112651N1+03001+02201999999ADDGA1021+006001999GF102991999999999999999999MA1101391999999REMMET051METAR SBIZ 221400Z 11012KT 9999 FEW020 30/22 Q1014;
0120825640999992007072215004-05533-047500FM-15+0123SBIZ V0201001N005112200019N0112651N1+03101+02201999999ADDGA1021+006001999GF102991999999999999999999MA1101291999999REMMET051METAR SBIZ 221500Z 10010KT 9999 FEW020 31/22 Q1013;
0143825640999992007072216004-05533-047500FM-15+0123SBIZ V0200901N007211200019N0112651N1+03201+01901999999ADDGA1021+006001999GA2071+120001999GF107991999999999999999999MA1101191999999REMMET058METAR SBIZ 221600Z 09014KT 9999 FEW020 BKN400 32/19 Q1012;
0143825640999992007072217004-05533-047500FM-15+0123SBIZ V0201001N006211200019N0112651N1+03301+01901999999ADDGA1021+006001999GA2071+120001999GF107991999999999999999999MA1101081999999REMMET058METAR SBIZ 221700Z 10012KT 9999 FEW020 BKN400 33/19 Q1011;
0143825640999992007072218004-05533-047500FM-15+0123SBIZ V0201801N005111200019N0112651N1+03401+01901999999ADDGA1021+006001999GA2071+120001999GF107991999999999999999999MA1101021999999REMMET058METAR SBIZ 221800Z 18010KT 9999 FEW020 BKN400 34/19 Q1010;
0143825640999992007072219004-05533-047500FM-15+0123SBIZ V0201201N005111200019N0112651N1+03401+01901999999ADDGA1021+006001999GA2071+120001999GF107991999999999999999999MA1101021999999REMMET058METAR SBIZ 221900Z 12010KT 9999 FEW020 BKN400 34/19 Q1010;
0120825640999992007072220004-05533-047500FM-15+0123SBIZ V0200901N004112200019N0112651N1+03401+01701999999ADDGA1021+006001999GF102991999999999999999999MA1101021999999REMMET051METAR SBIZ 222000Z 09008KT 9999 FEW020 34/17 Q1010;
0072825640999992007072221004-05533-047500FM-15+0123SBIZ V0200601N00411220001CN0099001N1+03101+01801999999ADDMA1101021999999REMMET045METAR SBIZ 222100Z 06008KT CAVOK 31/18 Q1010;
0120825640999992007072222004-05533-047500FM-15+0123SBIZ V0209999C000012200019N0112651N1+02901+01901999999ADDGA1021+004501999GF102991999999999999999999MA1101021999999REMMET051METAR SBIZ 222200Z 00000KT 9999 FEW015 29/19 Q1010;
0072825640999992007072223004-05533-047500FM-15+0123SBIZ V0209999C00001220001CN0099001N1+02601+02001999999ADDMA1101081999999REMMET045METAR SBIZ 222300Z 00000KT CAVOK 26/20 Q1011;
0072825640999992007072300004-05533-047500FM-15+0123SBIZ V0209999C00001220001CN0099001N1+02501+02001999999ADDMA1101191999999REMMET045METAR SBIZ 230000Z 00000KT CAVOK 25/20 Q1012;
0072825640999992007072301004-05533-047500FM-15+0123SBIZ V0209999C00001220001CN0099001N1+02401+02001999999ADDMA1101191999999REMMET045METAR SBIZ 230100Z 00000KT CAVOK 24/20 Q1012;
0072825640999992007072302004-05533-047500FM-15+0123SBIZ V0209999C00001220001CN0099001N1+02301+02001999999ADDMA1101291999999REMMET045METAR SBIZ 230200Z 00000KT CAVOK 23/20 Q1013;
0072825640999992007072303004-05533-047500FM-15+0123SBIZ V0209999C00001220001CN0099001N1+02301+02001999999ADDMA1101291999999REMMET045METAR SBIZ 230300Z 00000KT CAVOK 23/20 Q1013;
0072825640999992007072304004-05533-047500FM-15+0123SBIZ V0209999C00001220001CN0099001N1+02201+02001999999ADDMA1101191999999REMMET045METAR SBIZ 230400Z 00000KT CAVOK 22/20 Q1012;
0072825640999992007072305004-05533-047500FM-15+0123SBIZ V0209999C00001220001CN0099001N1+02201+02001999999ADDMA1101081999999REMMET045METAR SBIZ 230500Z 00000KT CAVOK 22/20 Q1011;
0072825640999992007072306004-05533-047500FM-15+0123SBIZ V0209999C00001220001CN0099001N1+02101+02001999999ADDMA1101081999999REMMET045METAR SBIZ 230600Z 00000KT CAVOK 21/20 Q1011;
0072825640999992007072307004-05533-047500FM-15+0123SBIZ V0209999C00001220001CN0099001N1+02101+02001999999ADDMA1101081999999REMMET045METAR SBIZ 230700Z 00000KT CAVOK 21/20 Q1011;
0072825640999992007072308004-05533-047500FM-15+0123SBIZ V0209999C00001220001CN0099001N1+02101+02001999999ADDMA1101191999999REMMET045METAR SBIZ 230800Z 00000KT CAVOK 21/20 Q1012;
0120825640999992007072309004-05533-047500FM-15+0123SBIZ V0209999C000012200019N0112651N1+02101+01901999999ADDGA1041+009001999GF104991999999999999999999MA1101191999999REMMET051METAR SBIZ 230900Z 00000KT 9999 SCT030 21/19 Q1012;
0120825640999992007072310004-05533-047500FM-15+0123SBIZ V0209999C000012200019N0112651N1+02001+02001999999ADDGA1041+009001999GF104991999999999999999999MA1101291999999REMMET051METAR SBIZ 231000Z 00000KT 9999 SCT030 20/20 Q1013;
0120825640999992007072311004-05533-047500FM-15+0123SBIZ V0209999C000012200019N0112651N1+02401+02001999999ADDGA1021+006001999GF102991999999999999999999MA1101291999999REMMET051METAR SBIZ 231100Z 00000KT 9999 FEW020 24/20 Q1013;
0072825640999992007072312004-05533-047500FM-15+0123SBIZ V0203301N00411220001CN0099001N1+02701+02001999999ADDMA1101291999999REMMET045METAR SBIZ 231200Z 33008KT CAVOK 27/20 Q1013;
0072825640999992007072313004-05533-047500FM-15+0123SBIZ V0203201N00411220001CN0099001N1+02901+02201999999ADDMA1101291999999REMMET045METAR SBIZ 231300Z 32008KT CAVOK 29/22 Q1013;
0120825640999992007072314004-05533-047500FM-15+0123SBIZ V0203601N003112200019N0112651N1+03201+02101999999ADDGA1021+006001999GF102991999999999999999999MA1101291999999REMMET051METAR SBIZ 231400Z 36006KT 9999 FEW020 32/21 Q1013;
0120825640999992007072316004-05533-047500FM-15+0123SBIZ V0200901N005110060019N0112651N1+03401+02101999999ADDGA1071+006001999GF107991999999999999999999MA1101191999999REMMET051METAR SBIZ 231600Z 09010KT 9999 BKN020 34/21 Q1012;
0120825640999992007072317004-05533-047500FM-15+0123SBIZ V0201201N005110060019N0112651N1+03301+02001999999ADDGA1071+006001999GF107991999999999999999999MA1101081999999REMMET051METAR SBIZ 231700Z 12010KT 9999 BKN020 33/20 Q1011;
0120825640999992007072318004-05533-047500FM-15+0123SBIZ V0201101N001510060019N0112651N1+03301+02001999999ADDGA1071+006001999GF107991999999999999999999MA1101021999999REMMET051METAR SBIZ 231800Z 11003KT 9999 BKN020 33/20 Q1010;
0120825640999992007072319004-05533-047500FM-15+0123SBIZ V0201201N005112200019N0112651N1+03401+02001999999ADDGA1041+006001999GF104991999999999999999999MA1101021999999REMMET051METAR SBIZ 231900Z 12010KT 9999 SCT020 34/20 Q1010;
0120825640999992007072320004-05533-047500FM-15+0123SBIZ V0201201N005112200019N0112651N1+03301+02001999999ADDGA1021+006001999GF102991999999999999999999MA1101021999999REMMET051METAR SBIZ 232000Z 12010KT 9999 FEW020 33/20 Q1010;
0120825640999992007072321004-05533-047500FM-15+0123SBIZ V0201201N005112200019N0112651N1+03001+02001999999ADDGA1021+006001999GF102991999999999999999999MA1101021999999REMMET051METAR SBIZ 232100Z 12010KT 9999 FEW020 30/20 Q1010;
0072825640999992007072322004-05533-047500FM-15+0123SBIZ V0209999C00001220001CN0099001N1+02801+02001999999ADDMA1101081999999REMMET045METAR SBIZ 232200Z 00000KT CAVOK 28/20 Q1011;
0072825640999992007072323004-05533-047500FM-15+0123SBIZ V0209999C00001220001CN0099001N1+02601+02101999999ADDMA1101081999999REMMET045METAR SBIZ 232300Z 00000KT CAVOK 26/21 Q1011;
0072825640999992007072400004-05533-047500FM-15+0123SBIZ V0209999C00001220001CN0099001N1+02501+02101999999ADDMA1101191999999REMMET045METAR SBIZ 240000Z 00000KT CAVOK 25/21 Q1012;
0072825640999992007072401004-05533-047500FM-15+0123SBIZ V0209999C00001220001CN0099001N1+02401+02001999999ADDMA1101191999999REMMET045METAR SBIZ 240100Z 00000KT CAVOK 24/20 Q1012;
0072825640999992007072405004-05533-047500FM-15+0123SBIZ V0209999C00001220001CN0099001N1+02201+02001999999ADDMA1101081999999REMMET045METAR SBIZ 240500Z 00000KT CAVOK 22/20 Q1011;
0072825640999992007072406004-05533-047500FM-15+0123SBIZ V0209999C00001220001CN0099001N1+02101+02001999999ADDMA1101081999999REMMET045METAR SBIZ 240600Z 00000KT CAVOK 21/20 Q1011;
0072825640999992007072407004-05533-047500FM-15+0123SBIZ V0209999C00001220001CN0099001N1+02101+02001999999ADDMA1101081999999REMMET045METAR SBIZ 240700Z 00000KT CAVOK 21/20 Q1011;
0072825640999992007072408004-05533-047500FM-15+0123SBIZ V0209999C00001220001CN0099001N1+02001+01901999999ADDMA1101081999999REMMET045METAR SBIZ 240800Z 00000KT CAVOK 20/19 Q1011;
0120825640999992007072409004-05533-047500FM-15+0123SBIZ V0209999C000012200019N0080001N1+02001+01901999999ADDGF100991999999999999999999MA1101191999999REMMET048METAR SBIZ 240900Z 00000KT 8000 SKC 20/19 Q1012;EQDQ01    003SCCGA1
0120825640999992007072410004-05533-047500FM-15+0123SBIZ V0201301N002112200019N0080001N1+02001+01901999999ADDGF100991999999999999999999MA1101291999999REMMET048METAR SBIZ 241000Z 13004KT 8000 SKC 20/19 Q1013;EQDQ01    003SCCGA1
0120825640999992007072411004-05533-047500FM-15+0123SBIZ V0209999C000012200019N0080001N1+02401+02001999999ADDGF100991999999999999999999MA1101291999999REMMET048METAR SBIZ 241100Z 00000KT 8000 SKC 24/20 Q1013;EQDQ01    003SCCGA1
0072825640999992007072413004-05533-047500FM-15+0123SBIZ V0200901N00211220001CN0099001N1+03001+02201999999ADDMA1101391999999REMMET045METAR SBIZ 241300Z 09004KT CAVOK 30/22 Q1014;
0120825640999992007072414004-05533-047500FM-15+0123SBIZ V0201201N004112200019N0112651N1+03201+02201999999ADDGA1041+006001999GF104991999999999999999999MA1101391999999REMMET051METAR SBIZ 241400Z 12008KT 9999 SCT020 32/22 Q1014;
0120825640999992007072415004-05533-047500FM-15+0123SBIZ V0201201N005110060019N0112651N1+03301+02101999999ADDGA1071+006001999GF107991999999999999999999MA1101291999999REMMET051METAR SBIZ 241500Z 12010KT 9999 BKN020 33/21 Q1013;
0120825640999992007072416004-05533-047500FM-15+0123SBIZ V0200901N005112200019N0112651N1+03401+02201999999ADDGA1041+006001999GF104991999999999999999999MA1101191999999REMMET051METAR SBIZ 241600Z 09010KT 9999 SCT020 34/22 Q1012;
0120825640999992007072417004-05533-047500FM-15+0123SBIZ V0201001N005112200019N0112651N1+03401+02001999999ADDGA1041+006001999GF104991999999999999999999MA1101081999999REMMET051METAR SBIZ 241700Z 10010KT 9999 SCT020 34/20 Q1011;
0120825640999992007072418004-05533-047500FM-15+0123SBIZ V0201201N005112200019N0112651N1+03401+02101999999ADDGA1041+006001999GF104991999999999999999999MA1101021999999REMMET051METAR SBIZ 241800Z 12010KT 9999 SCT020 34/21 Q1010;
0120825640999992007072419004-05533-047500FM-15+0123SBIZ V0200901N003612200019N0112651N1+03401+02001999999ADDGA1041+006001999GF104991999999999999999999MA1101021999999REMMET051METAR SBIZ 241900Z 09007KT 9999 SCT020 34/20 Q1010;
0120825640999992007072420004-05533-047500FM-15+0123SBIZ V0200701N003612200019N0112651N1+03401+02101999999ADDGA1021+006001999GF102991999999999999999999MA1101021999999REMMET051METAR SBIZ 242000Z 07007KT 9999 FEW020 34/21 Q1010;
0072825640999992007072421004-05533-047500FM-15+0123SBIZ V0200901N00261220001CN0099001N1+03101+02101999999ADDMA1101021999999REMMET045METAR SBIZ 242100Z 09005KT CAVOK 31/21 Q1010;
0072825640999992007072422004-05533-047500FM-15+0123SBIZ V0209999C00001220001CN0099001N1+02701+02101999999ADDMA1101021999999REMMET045METAR SBIZ 242200Z 00000KT CAVOK 27/21 Q1010;
0072825640999992007072423004-05533-047500FM-15+0123SBIZ V0200901N00261220001CN0099001N1+02701+02001999999ADDMA1101081999999REMMET045METAR SBIZ 242300Z 09005KT CAVOK 27/20 Q1011;
0072825640999992007072501004-05533-047500FM-15+0123SBIZ V0209999C00001220001CN0099001N1+02401+02001999999ADDMA1101191999999REMMET045METAR SBIZ 250100Z 00000KT CAVOK 24/20 Q1012;
0072825640999992007072502004-05533-047500FM-15+0123SBIZ V0209999C00001220001CN0099001N1+02301+02001999999ADDMA1101191999999REMMET045METAR SBIZ 250200Z 00000KT CAVOK 23/20 Q1012;
0072825640999992007072503004-05533-047500FM-15+0123SBIZ V0201201N00211220001CN0099001N1+02301+02001999999ADDMA1101191999999REMMET045METAR SBIZ 250300Z 12004KT CAVOK 23/20 Q1012;
0072825640999992007072504004-05533-047500FM-15+0123SBIZ V0209999C00001220001CN0099001N1+02201+02001999999ADDMA1101191999999REMMET045METAR SBIZ 250400Z 00000KT CAVOK 22/20 Q1012;
0072825640999992007072505004-05533-047500FM-15+0123SBIZ V0209999C00001220001CN0099001N1+02201+02001999999ADDMA1101081999999REMMET045METAR SBIZ 250500Z 00000KT CAVOK 22/20 Q1011;
0072825640999992007072506004-05533-047500FM-15+0123SBIZ V0209999C00001220001CN0099001N1+02101+02001999999ADDMA1101081999999REMMET045METAR SBIZ 250600Z 00000KT CAVOK 21/20 Q1011;
0072825640999992007072509004-05533-047500FM-15+0123SBIZ V0209999C00001220001CN0099001N1+02001+01901999999ADDMA1101191999999REMMET045METAR SBIZ 250900Z 00000KT CAVOK 20/19 Q1012;
0129825640999992007072510004-05533-047500FM-15+0123SBIZ V0209999C000012200019N0050001N1+02001+02001999999ADDGF100991999999999999999999MA1101191999999MW1101REMMET051METAR SBIZ 251000Z 00000KT 5000 BR SKC 20/20 Q1012;EQDQ01    003SCCGA1
0120825640999992007072511004-05533-047500FM-15+0123SBIZ V0201201N003612200019N0080001N1+02401+02101999999ADDGF100991999999999999999999MA1101391999999REMMET048METAR SBIZ 251100Z 12007KT 8000 SKC 24/21 Q1014;EQDQ01    003SCCGA1
0143825640999992007072512004-05533-047500FM-15+0123SBIZ V0200901N006210060019N0112651N1+02601+02201999999ADDGA1021+004501999GA2071+006001999GF107991999999999999999999MA1101391999999REMMET058METAR SBIZ 251200Z 09012KT 9999 FEW015 BKN020 26/22 Q1014;
0143825640999992007072513004-05533-047500FM-15+0123SBIZ V0201201N007710045019N0112651N1+02701+02201999999ADDGA1071+004501999GA2071+006001999GF107991999999999999999999MA1101491999999REMMET058METAR SBIZ 251300Z 12015KT 9999 BKN015 BKN020 27/22 Q1015;
0120825640999992007072515004-05533-047500FM-15+0123SBIZ V0201201N005110060019N0112651N1+03001+02201999999ADDGA1071+006001999GF107991999999999999999999MA1101391999999REMMET051METAR SBIZ 251500Z 12010KT 9999 BKN020 30/22 Q1014;
0120825640999992007072517004-05533-047500FM-15+0123SBIZ V0209999C000012200019N0112651N1+03301+02201999999ADDGA1041+006001999GF104991999999999999999999MA1101191999999REMMET051METAR SBIZ 251700Z 00000KT 9999 SCT020 33/22 Q1012;
0120825640999992007072518004-05533-047500FM-15+0123SBIZ V0200901N001512200019N0112651N1+03501+02101999999ADDGA1041+006001999GF104991999999999999999999MA1101081999999REMMET051METAR SBIZ 251800Z 09003KT 9999 SCT020 35/21 Q1011;
0120825640999992007072519004-05533-047500FM-15+0123SBIZ V0209999C000012200019N0112651N1+03401+02001999999ADDGA1041+006001999GF104991999999999999999999MA1101081999999REMMET051METAR SBIZ 251900Z 00000KT 9999 SCT020 34/20 Q1011;
0120825640999992007072520004-05533-047500FM-15+0123SBIZ V0201201N004612200019N0112651N1+03301+02001999999ADDGA1021+006001999GF102991999999999999999999MA1101081999999REMMET051METAR SBIZ 252000Z 12009KT 9999 FEW020 33/20 Q1011;
0120825640999992007072521004-05533-047500FM-15+0123SBIZ V0209999C000012200019N0112651N1+03101+02001999999ADDGA1021+006001999GF102991999999999999999999MA1101191999999REMMET051METAR SBIZ 252100Z 00000KT 9999 FEW020 31/20 Q1012;
0072825640999992007072522004-05533-047500FM-15+0123SBIZ V0209999C00001220001CN0099001N1+02801+02001999999ADDMA1101191999999REMMET045METAR SBIZ 252200Z 00000KT CAVOK 28/20 Q1012;
0072825640999992007072523004-05533-047500FM-15+0123SBIZ V0209999C00001220001CN0099001N1+02701+02001999999ADDMA1101291999999REMMET045METAR SBIZ 252300Z 00000KT CAVOK 27/20 Q1013;
0072825640999992007072600004-05533-047500FM-15+0123SBIZ V0209999C00001220001CN0099001N1+02501+02101999999ADDMA1101291999999REMMET045METAR SBIZ 260000Z 00000KT CAVOK 25/21 Q1013;
0072825640999992007072601004-05533-047500FM-15+0123SBIZ V0209999C00001220001CN0099001N1+02401+02101999999ADDMA1101391999999REMMET045METAR SBIZ 260100Z 00000KT CAVOK 24/21 Q1014;
0072825640999992007072602004-05533-047500FM-15+0123SBIZ V0209999C00001220001CN0099001N1+02301+02101999999ADDMA1101391999999REMMET045METAR SBIZ 260200Z 00000KT CAVOK 23/21 Q1014;
0072825640999992007072603004-05533-047500FM-15+0123SBIZ V0209999C00001220001CN0099001N1+02301+02101999999ADDMA1101491999999REMMET045METAR SBIZ 260300Z 00000KT CAVOK 23/21 Q1015;
0072825640999992007072604004-05533-047500FM-15+0123SBIZ V0201301N00211220001CN0099001N1+02201+02001999999ADDMA1101391999999REMMET045METAR SBIZ 260400Z 13004KT CAVOK 22/20 Q1014;
0072825640999992007072609004-05533-047500FM-15+0123SBIZ V0209999C00001220001CN0099001N1+02101+02001999999ADDMA1101391999999REMMET045METAR SBIZ 260900Z 00000KT CAVOK 21/20 Q1014;
0120825640999992007072610004-05533-047500FM-15+0123SBIZ V0209999C000012200019N0112651N1+02101+02001999999ADDGA1021+003001999GF102991999999999999999999MA1101391999999REMMET051METAR SBIZ 261000Z 00000KT 9999 FEW010 21/20 Q1014;
0072825640999992007072611004-05533-047500FM-15+0123SBIZ V0209999C00001220001CN0099001N1+02401+02101999999ADDMA1101491999999REMMET045METAR SBIZ 261100Z 00000KT CAVOK 24/21 Q1015;
0072825640999992007072612004-05533-047500FM-15+0123SBIZ V0200901N00261220001CN0099001N1+02801+02201999999ADDMA1101591999999REMMET045METAR SBIZ 261200Z 09005KT CAVOK 28/22 Q1016;
0072825640999992007072613004-05533-047500FM-15+0123SBIZ V0200601N00511220001CN0099001N1+03001+02201999999ADDMA1101491999999REMMET045METAR SBIZ 261300Z 06010KT CAVOK 30/22 Q1015;
0120825640999992007072614004-05533-047500FM-15+0123SBIZ V0201201N005112200019N0112651N1+03301+02201999999ADDGA1021+006001999GF102991999999999999999999MA1101491999999REMMET051METAR SBIZ 261400Z 12010KT 9999 FEW020 33/22 Q1015;
0120825640999992007072615004-05533-047500FM-15+0123SBIZ V0200901N007712200019N0112651N1+03401+02201999999ADDGA1021+006001999GF102991999999999999999999MA1101391999999REMMET051METAR SBIZ 261500Z 09015KT 9999 FEW020 34/22 Q1014;
0120825640999992007072616004-05533-047500FM-15+0123SBIZ V0200901N005112200019N0112651N1+03501+02001999999ADDGA1041+006001999GF104991999999999999999999MA1101291999999REMMET051METAR SBIZ 261600Z 09010KT 9999 SCT020 35/20 Q1013;
0120825640999992007072617004-05533-047500FM-15+0123SBIZ V0200901N005112200019N0112651N1+03501+01901999999ADDGA1041+006001999GF104991999999999999999999MA1101191999999REMMET051METAR SBIZ 261700Z 09010KT 9999 SCT020 35/19 Q1012;
0120825640999992007072618004-05533-047500FM-15+0123SBIZ V0201501N005112200019N0112651N1+03501+01801999999ADDGA1041+006001999GF104991999999999999999999MA1101081999999REMMET051METAR SBIZ 261800Z 15010KT 9999 SCT020 35/18 Q1011;
0120825640999992007072619004-05533-047500FM-15+0123SBIZ V0201401N005112200019N0112651N1+03501+01901999999ADDGA1041+006001999GF104991999999999999999999MA1101081999999REMMET051METAR SBIZ 261900Z 14010KT 9999 SCT020 35/19 Q1011;
0120825640999992007072620004-05533-047500FM-15+0123SBIZ V0201201N006212200019N0112651N1+03401+01901999999ADDGA1021+006001999GF102991999999999999999999MA1101081999999REMMET051METAR SBIZ 262000Z 12012KT 9999 FEW020 34/19 Q1011;
0120825640999992007072621004-05533-047500FM-15+0123SBIZ V0201201N003112200019N0112651N1+03201+01901999999ADDGA1021+006001999GF102991999999999999999999MA1101081999999REMMET051METAR SBIZ 262100Z 12006KT 9999 FEW020 32/19 Q1011;
0072825640999992007072622004-05533-047500FM-15+0123SBIZ V0200901N00101220001CN0099001N1+02901+02001999999ADDMA1101191999999REMMET045METAR SBIZ 262200Z 09002KT CAVOK 29/20 Q1012;
0072825640999992007072623004-05533-047500FM-15+0123SBIZ V0209999C00001220001CN0099001N1+02701+02101999999ADDMA1101191999999REMMET045METAR SBIZ 262300Z 00000KT CAVOK 27/21 Q1012;
0072825640999992007072700004-05533-047500FM-15+0123SBIZ V0209999C00001220001CN0099001N1+02601+02101999999ADDMA1101291999999REMMET045METAR SBIZ 270000Z 00000KT CAVOK 26/21 Q1013;
0129825640999992007072701004-05533-047500FM-15+0123SBIZ V0209999C000012200019N0050001N1+02501+02101999999ADDGF100991999999999999999999MA1101291999999MW1101REMMET051METAR SBIZ 270100Z 00000KT 5000 BR NSC 25/21 Q1013;EQDQ01    003SCCGA1
0129825640999992007072702004-05533-047500FM-15+0123SBIZ V0209999C000012200019N0050001N1+02401+02001999999ADDGF100991999999999999999999MA1101291999999MW1101REMMET051METAR SBIZ 270200Z 00000KT 5000 BR NSC 24/20 Q1013;EQDQ01    003SCCGA1
0120825640999992007072703004-05533-047500FM-15+0123SBIZ V0209999C000012200019N0080001N1+02301+02101999999ADDGF100991999999999999999999MA1101391999999REMMET048METAR SBIZ 270300Z 00000KT 8000 SKC 23/21 Q1014;EQDQ01    003SCCGA1
0120825640999992007072709004-05533-047500FM-15+0123SBIZ V0209999C000012200019N0070001N1+02001+01901999999ADDGF100991999999999999999999MA1101291999999REMMET048METAR SBIZ 270900Z 00000KT 7000 SKC 20/19 Q1013;EQDQ01    003SCCGA1
0072825640999992007072710004-05533-047500FM-15+0123SBIZ V0209999C00001220001CN0099001N1+02001+01901999999ADDMA1101291999999REMMET045METAR SBIZ 271000Z 00000KT CAVOK 20/19 Q1013;
0072825640999992007072711004-05533-047500FM-15+0123SBIZ V0209999C00001220001CN0099001N1+02301+02001999999ADDMA1101391999999REMMET045METAR SBIZ 271100Z 00000KT CAVOK 23/20 Q1014;
0072825640999992007072712004-05533-047500FM-15+0123SBIZ V0209999C00001220001CN0099001N1+02701+02001999999ADDMA1101491999999REMMET045METAR SBIZ 271200Z 00000KT CAVOK 27/20 Q1015;
0072825640999992007072713004-05533-047500FM-15+0123SBIZ V0200601N00211220001CN0099001N1+03001+02201999999ADDMA1101491999999REMMET045METAR SBIZ 271300Z 06004KT CAVOK 30/22 Q1015;
0120825640999992007072714004-05533-047500FM-15+0123SBIZ V0201001N004112200019N0112651N1+03201+02101999999ADDGA1041+006001999GF104991999999999999999999MA1101491999999REMMET051METAR SBIZ 271400Z 10008KT 9999 SCT020 32/21 Q1015;
0120825640999992007072716004-05533-047500FM-15+0123SBIZ V0201801N003112200019N0112651N1+03401+02201999999ADDGA1041+006001999GF104991999999999999999999MA1101191999999REMMET051METAR SBIZ 271600Z 18006KT 9999 SCT020 34/22 Q1012;
0120825640999992007072717004-05533-047500FM-15+0123SBIZ V0201201N007712200019N0112651N1+03501+02101999999ADDGA1041+006001999GF104991999999999999999999MA1101081999999REMMET051METAR SBIZ 271700Z 12015KT 9999 SCT020 35/21 Q1011;
0120825640999992007072720004-05533-047500FM-15+0123SBIZ V0200901N005112200019N0112651N1+03301+01901999999ADDGA1021+007501999GF102991999999999999999999MA1101021999999REMMET051METAR SBIZ 272000Z 09010KT 9999 FEW025 33/19 Q1010;
0120825640999992007072721004-05533-047500FM-15+0123SBIZ V0201101N005112200019N0112651N1+03101+01901999999ADDGA1021+007501999GF102991999999999999999999MA1101021999999REMMET051METAR SBIZ 272100Z 11010KT 9999 FEW025 31/19 Q1010;
0072825640999992007072722004-05533-047500FM-15+0123SBIZ V0201001N00311220001CN0099001N1+02901+01901999999ADDMA1101081999999REMMET045METAR SBIZ 272200Z 10006KT CAVOK 29/19 Q1011;
0072825640999992007072723004-05533-047500FM-15+0123SBIZ V0201001N00211220001CN0099001N1+02801+02001999999ADDMA1101081999999REMMET045METAR SBIZ 272300Z 10004KT CAVOK 28/20 Q1011;
0072825640999992007072800004-05533-047500FM-15+0123SBIZ V0201201N00261220001CN0099001N1+02701+02001999999ADDMA1101191999999REMMET045METAR SBIZ 280000Z 12005KT CAVOK 27/20 Q1012;
0072825640999992007072801004-05533-047500FM-15+0123SBIZ V0209999C00001220001CN0099001N1+02501+02101999999ADDMA1101291999999REMMET045METAR SBIZ 280100Z 00000KT CAVOK 25/21 Q1013;
0120825640999992007072802004-05533-047500FM-15+0123SBIZ V0209999C000012200019N0112651N1+02501+02001999999ADDGA1021+006001999GF102991999999999999999999MA1101291999999REMMET051METAR SBIZ 280200Z 00000KT 9999 FEW020 25/20 Q1013;
0072825640999992007072803004-05533-047500FM-15+0123SBIZ V0209999C00001220001CN0099001N1+02401+02001999999ADDMA1101291999999REMMET045METAR SBIZ 280300Z 00000KT CAVOK 24/20 Q1013;
0143825640999992007072809004-05533-047500FM-15+0123SBIZ V0209999C000012200019N0112651N1+02101+02001999999ADDGA1021+004501999GA2041+009001999GF104991999999999999999999MA1101291999999REMMET058METAR SBIZ 280900Z 00000KT 9999 FEW015 SCT030 21/20 Q1013;
0120825640999992007072810004-05533-047500FM-15+0123SBIZ V0200901N004110090019N0112651N1+02101+02001999999ADDGA1071+009001999GF107991999999999999999999MA1101391999999REMMET051METAR SBIZ 281000Z 09008KT 9999 BKN030 21/20 Q1014;
0143825640999992007072811004-05533-047500FM-15+0123SBIZ V0201501N004110090019N0112651N1+02301+02101999999ADDGA1041+004501999GA2081+009001999GF108991999999999999999999MA1101491999999REMMET058METAR SBIZ 281100Z 15008KT 9999 SCT015 OVC030 23/21 Q1015;
0120825640999992007072812004-05533-047500FM-15+0123SBIZ V0201201N006212200019N0112651N1+02701+02101999999ADDGA1041+006001999GF104991999999999999999999MA1101591999999REMMET051METAR SBIZ 281200Z 12012KT 9999 SCT020 27/21 Q1016;
0120825640999992007072813004-05533-047500FM-15+0123SBIZ V0201201N006210060019N0112651N1+02701+02201999999ADDGA1071+006001999GF107991999999999999999999MA1101591999999REMMET051METAR SBIZ 281300Z 12012KT 9999 BKN020 27/22 Q1016;
0120825640999992007072814004-05533-047500FM-15+0123SBIZ V0201201N005110060019N0112651N1+02701+02201999999ADDGA1071+006001999GF107991999999999999999999MA1101591999999REMMET051METAR SBIZ 281400Z 12010KT 9999 BKN020 27/22 Q1016;
0120825640999992007072815004-05533-047500FM-15+0123SBIZ V0201301N004110060019N0112651N1+02801+02201999999ADDGA1071+006001999GF107991999999999999999999MA1101491999999REMMET051METAR SBIZ 281500Z 13008KT 9999 BKN020 28/22 Q1015;
0120825640999992007072816004-05533-047500FM-15+0123SBIZ V0201301N002612200019N0112651N1+03201+02201999999ADDGA1021+006001999GF102991999999999999999999MA1101291999999REMMET051METAR SBIZ 281600Z 13005KT 9999 FEW020 32/22 Q1013;
0120825640999992007072817004-05533-047500FM-15+0123SBIZ V0200601N005112200019N0112651N1+03301+02101999999ADDGA1021+006001999GF102991999999999999999999MA1101191999999REMMET051METAR SBIZ 281700Z 06010KT 9999 FEW020 33/21 Q1012;
0120825640999992007072818004-05533-047500FM-15+0123SBIZ V0202101N003612200019N0112651N1+03401+02101999999ADDGA1021+006001999GF102991999999999999999999MA1101021999999REMMET051METAR SBIZ 281800Z 21007KT 9999 FEW020 34/21 Q1010;
0120825640999992007072819004-05533-047500FM-15+0123SBIZ V0200901N002112200019N0112651N1+03401+02101999999ADDGA1041+006001999GF104991999999999999999999MA1101021999999REMMET051METAR SBIZ 281900Z 09004KT 9999 SCT020 34/21 Q1010;
0120825640999992007072820004-05533-047500FM-15+0123SBIZ V0209999C000012200019N0112651N1+03301+02001999999ADDGA1021+006001999GF102991999999999999999999MA1101021999999REMMET051METAR SBIZ 282000Z 00000KT 9999 FEW020 33/20 Q1010;
0120825640999992007072821004-05533-047500FM-15+0123SBIZ V0201801N002612200019N0112651N1+03201+02101999999ADDGA1021+006001999GF102991999999999999999999MA1101081999999REMMET051METAR SBIZ 282100Z 18005KT 9999 FEW020 32/21 Q1011;
0120825640999992007072822004-05533-047500FM-15+0123SBIZ V0209999C000012200019N0112651N1+02901+02201999999ADDGA1021+006001999GF102991999999999999999999MA1101081999999REMMET051METAR SBIZ 282200Z 00000KT 9999 FEW020 29/22 Q1011;
0120825640999992007072823004-05533-047500FM-15+0123SBIZ V0203501N004112200019N0112651N1+02801+02301999999ADDGA1041+006001999GF104991999999999999999999MA1101191999999REMMET051METAR SBIZ 282300Z 35008KT 9999 SCT020 28/23 Q1012;
0120825640999992007072900004-05533-047500FM-15+0123SBIZ V0203601N003112200019N0112651N1+02801+02301999999ADDGA1021+006001999GF102991999999999999999999MA1101291999999REMMET051METAR SBIZ 290000Z 36006KT 9999 FEW020 28/23 Q1013;
0120825640999992007072901004-05533-047500FM-15+0123SBIZ V0209999C000012200019N0112651N1+02701+02301999999ADDGA1021+006001999GF102991999999999999999999MA1101291999999REMMET051METAR SBIZ 290100Z 00000KT 9999 FEW020 27/23 Q1013;
0120825640999992007072902004-05533-047500FM-15+0123SBIZ V0209999C000012200019N0112651N1+02601+02301999999ADDGA1021+006001999GF102991999999999999999999MA1101391999999REMMET051METAR SBIZ 290200Z 00000KT 9999 FEW020 26/23 Q1014;
0072825640999992007072903004-05533-047500FM-15+0123SBIZ V0209999C00001220001CN0099001N1+02401+02301999999ADDMA1101391999999REMMET045METAR SBIZ 290300Z 00000KT CAVOK 24/23 Q1014;
0120825640999992007072909004-05533-047500FM-15+0123SBIZ V0209999C000012200019N0080001N1+02101+02101999999ADDGF100991999999999999999999MA1101291999999REMMET048METAR SBIZ 290900Z 00000KT 8000 NSC 21/21 Q1013;EQDQ01    003SCCGA1
0129825640999992007072910004-05533-047500FM-15+0123SBIZ V0209999C000012200019N0050001N1+02101+02001999999ADDGA1041+006001999GF104991999999999999999999MA1101391999999MW1101REMMET054METAR SBIZ 291000Z 00000KT 5000 BR SCT020 21/20 Q1014;
0152825640999992007072911004-05533-047500FM-15+0123SBIZ V0200901N003112200019N0050001N1+02601+02201999999ADDGA1041+006001999GA2041+030001999GF104991999999999999999999MA1101491999999MW1101REMMET061METAR SBIZ 291100Z 09006KT 5000 BR SCT020 SCT100 26/22 Q1015;
0143825640999992007072912004-05533-047500FM-15+0123SBIZ V0201201N005112200019N0112651N1+02801+02201999999ADDGA1021+006001999GA2041+030001999GF104991999999999999999999MA1101491999999REMMET058METAR SBIZ 291200Z 12010KT 9999 FEW020 SCT100 28/22 Q1015;
0120825640999992007072913004-05533-047500FM-15+0123SBIZ V0200901N004110060019N0112651N1+03001+02201999999ADDGA1071+006001999GF107991999999999999999999MA1101491999999REMMET051METAR SBIZ 291300Z 09008KT 9999 BKN020 30/22 Q1015;
0143825640999992007072914004-05533-047500FM-15+0123SBIZ V0201501N002110060019N0112651N1+02701+02201999999ADDGA1041+004501999GA2071+006001999GF107991999999999999999999MA1101491999999REMMET058METAR SBIZ 291400Z 15004KT 9999 SCT015 BKN020 27/22 Q1015;
0143825640999992007072915004-05533-047500FM-15+0123SBIZ V0203501N002110060019N0112651N1+02901+02301999999ADDGA1041+004501999GA2071+006001999GF107991999999999999999999MA1101491999999REMMET058METAR SBIZ 291500Z 35004KT 9999 SCT015 BKN020 29/23 Q1015;
0120825640999992007072916004-05533-047500FM-15+0123SBIZ V0202001N002612200019N0112651N1+03001+02201999999ADDGA1041+006001999GF104991999999999999999999MA1101291999999REMMET051METAR SBIZ 291600Z 20005KT 9999 SCT020 30/22 Q1013;
0120825640999992007072917004-05533-047500FM-15+0123SBIZ V0203601N001512200019N0112651N1+03401+01601999999ADDGA1021+006001999GF102991999999999999999999MA1101191999999REMMET051METAR SBIZ 291700Z 36003KT 9999 FEW020 34/16 Q1012;
0120825640999992007072918004-05533-047500FM-15+0123SBIZ V0203001N001512200019N0112651N1+03401+01901999999ADDGA1021+006001999GF102991999999999999999999MA1101081999999REMMET051METAR SBIZ 291800Z 30003KT 9999 FEW020 34/19 Q1011;
0120825640999992007072919004-05533-047500FM-15+0123SBIZ V0201501N006212200019N0112651N1+03401+01801999999ADDGA1021+006001999GF102991999999999999999999MA1101021999999REMMET051METAR SBIZ 291900Z 15012KT 9999 FEW020 34/18 Q1010;
0120825640999992007072920004-05533-047500FM-15+0123SBIZ V0201201N005112200019N0112651N1+03301+01901999999ADDGA1021+006001999GF102991999999999999999999MA1101021999999REMMET051METAR SBIZ 292000Z 12010KT 9999 FEW020 33/19 Q1010;
0072825640999992007072921004-05533-047500FM-15+0123SBIZ V0209999C00001220001CN0099001N1+03101+01901999999ADDMA1101021999999REMMET045METAR SBIZ 292100Z 00000KT CAVOK 31/19 Q1010;
0072825640999992007072922004-05533-047500FM-15+0123SBIZ V0209999C00001220001CN0099001N1+02801+01901999999ADDMA1101081999999REMMET045METAR SBIZ 292200Z 00000KT CAVOK 28/19 Q1011;
0072825640999992007072923004-05533-047500FM-15+0123SBIZ V0209999C00001220001CN0099001N1+02601+02001999999ADDMA1101081999999REMMET045METAR SBIZ 292300Z 00000KT CAVOK 26/20 Q1011;
0072825640999992007073000004-05533-047500FM-15+0123SBIZ V0209999C00001220001CN0099001N1+02501+02101999999ADDMA1101191999999REMMET045METAR SBIZ 300000Z 00000KT CAVOK 25/21 Q1012;
0072825640999992007073001004-05533-047500FM-15+0123SBIZ V0209999C00001220001CN0099001N1+02401+02101999999ADDMA1101291999999REMMET045METAR SBIZ 300100Z 00000KT CAVOK 24/21 Q1013;
0072825640999992007073002004-05533-047500FM-15+0123SBIZ V0209999C00001220001CN0099001N1+02301+02001999999ADDMA1101291999999REMMET045METAR SBIZ 300200Z 00000KT CAVOK 23/20 Q1013;
0072825640999992007073003004-05533-047500FM-15+0123SBIZ V0201301N00151220001CN0099001N1+02201+02001999999ADDMA1101291999999REMMET045METAR SBIZ 300300Z 13003KT CAVOK 22/20 Q1013;
0072825640999992007073004004-05533-047500FM-15+0123SBIZ V0209999C00001220001CN0099001N1+02101+01901999999ADDMA1101291999999REMMET045METAR SBIZ 300400Z 00000KT CAVOK 21/19 Q1013;
0072825640999992007073005004-05533-047500FM-15+0123SBIZ V0209999C00001220001CN0099001N1+02101+01901999999ADDMA1101291999999REMMET045METAR SBIZ 300500Z 00000KT CAVOK 21/19 Q1013;
0072825640999992007073009004-05533-047500FM-15+0123SBIZ V0209999C00001220001CN0099001N1+01901+01801999999ADDMA1101291999999REMMET045METAR SBIZ 300900Z 00000KT CAVOK 19/18 Q1013;
0120825640999992007073010004-05533-047500FM-15+0123SBIZ V0209999C000012200019N0112651N1+01901+01701999999ADDGA1021+006001999GF102991999999999999999999MA1101391999999REMMET051METAR SBIZ 301000Z 00000KT 9999 FEW020 19/17 Q1014;
0120825640999992007073011004-05533-047500FM-15+0123SBIZ V0201301N002112200019N0112651N1+02301+01901999999ADDGA1021+006001999GF102991999999999999999999MA1101491999999REMMET051METAR SBIZ 301100Z 13004KT 9999 FEW020 23/19 Q1015;
0072825640999992007073012004-05533-047500FM-15+0123SBIZ V0201301N00261220001CN0099001N1+02701+02001999999ADDMA1101491999999REMMET045METAR SBIZ 301200Z 13005KT CAVOK 27/20 Q1015;
0072825640999992007073013004-05533-047500FM-15+0123SBIZ V0201201N01031220001CN0099001N1+03001+01801999999ADDMA1101491999999REMMET045METAR SBIZ 301300Z 12020KT CAVOK 30/18 Q1015;
0072825640999992007073014004-05533-047500FM-15+0123SBIZ V0200701N00931220001CN0099001N1+03301+01701999999ADDMA1101491999999REMMET045METAR SBIZ 301400Z 07018KT CAVOK 33/17 Q1015;
0072825640999992007073015004-05533-047500FM-15+0123SBIZ V0201201N00151220001CN0099001N1+03301+01501999999ADDMA1101391999999REMMET045METAR SBIZ 301500Z 12003KT CAVOK 33/15 Q1014;
0072825640999992007073016004-05533-047500FM-15+0123SBIZ V0201201N00671220001CN0099001N1+03401+01701999999ADDMA1101291999999REMMET045METAR SBIZ 301600Z 12013KT CAVOK 34/17 Q1013;
0120825640999992007073017004-05533-047500FM-15+0123SBIZ V0200901N007212200019N0112651N1+03501+01601999999ADDGA1021+006001999GF102991999999999999999999MA1101191999999REMMET051METAR SBIZ 301700Z 09014KT 9999 FEW020 35/16 Q1012;
0120825640999992007073018004-05533-047500FM-15+0123SBIZ V0201801N002612200019N0112651N1+03501+01801999999ADDGA1021+006001999GF102991999999999999999999MA1101081999999REMMET051METAR SBIZ 301800Z 18005KT 9999 FEW020 35/18 Q1011;
0072825640999992007073019004-05533-047500FM-15+0123SBIZ V0201301N00511220001CN0099001N1+03501+01701999999ADDMA1101021999999REMMET045METAR SBIZ 301900Z 13010KT CAVOK 35/17 Q1010;
0072825640999992007073020004-05533-047500FM-15+0123SBIZ V0209999C00001220001CN0099001N1+03401+01701999999ADDMA1101021999999REMMET045METAR SBIZ 302000Z 00000KT CAVOK 34/17 Q1010;
0072825640999992007073021004-05533-047500FM-15+0123SBIZ V0209999C00001220001CN0099001N1+03201+01601999999ADDMA1101081999999REMMET045METAR SBIZ 302100Z 00000KT CAVOK 32/16 Q1011;
0072825640999992007073022004-05533-047500FM-15+0123SBIZ V0201301N00101220001CN0099001N1+02801+01401999999ADDMA1101081999999REMMET045METAR SBIZ 302200Z 13002KT CAVOK 28/14 Q1011;
0072825640999992007073023004-05533-047500FM-15+0123SBIZ V0209999C00001220001CN0099001N1+02601+01601999999ADDMA1101081999999REMMET045METAR SBIZ 302300Z 00000KT CAVOK 26/16 Q1011;
0072825640999992007073100004-05533-047500FM-15+0123SBIZ V0209999C00001220001CN0099001N1+02401+01701999999ADDMA1101191999999REMMET045METAR SBIZ 310000Z 00000KT CAVOK 24/17 Q1012;
0072825640999992007073110004-05533-047500FM-15+0123SBIZ V0209999C00001220001CN0099001N1+01701+01501999999ADDMA1101391999999REMMET045METAR SBIZ 311000Z 00000KT CAVOK 17/15 Q1014;
0072825640999992007073111004-05533-047500FM-15+0123SBIZ V0209999C00001220001CN0099001N1+02201+01801999999ADDMA1101491999999REMMET045METAR SBIZ 311100Z 00000KT CAVOK 22/18 Q1015;
0072825640999992007073112004-05533-047500FM-15+0123SBIZ V0209999C00001220001CN0099001N1+02601+01701999999ADDMA1101491999999REMMET045METAR SBIZ 311200Z 00000KT CAVOK 26/17 Q1015;
0072825640999992007073113004-05533-047500FM-15+0123SBIZ V0201201N00671220001CN0099001N1+03001+01701999999ADDMA1101491999999REMMET045METAR SBIZ 311300Z 12013KT CAVOK 30/17 Q1015;
0072825640999992007073114004-05533-047500FM-15+0123SBIZ V0200901N00771220001CN0099001N1+03201+01801999999ADDMA1101391999999REMMET045METAR SBIZ 311400Z 09015KT CAVOK 32/18 Q1014;
0072825640999992007073115004-05533-047500FM-15+0123SBIZ V0201001N00771220001CN0099001N1+03201+01701999999ADDMA1101291999999REMMET045METAR SBIZ 311500Z 10015KT CAVOK 32/17 Q1013;
0120825640999992007073116004-05533-047500FM-15+0123SBIZ V0201501N005112200019N0112651N1+03401+01601999999ADDGA1021+006001999GF102991999999999999999999MA1101191999999REMMET051METAR SBIZ 311600Z 15010KT 9999 FEW020 34/16 Q1012;
0120825640999992007073117004-05533-047500FM-15+0123SBIZ V0201501N002112200019N0112651N1+03401+01601999999ADDGA1041+006001999GF104991999999999999999999MA1101081999999REMMET051METAR SBIZ 311700Z 15004KT 9999 SCT020 34/16 Q1011;
0120825640999992007073118004-05533-047500FM-15+0123SBIZ V0201501N002112200019N0112651N1+03501+01601999999ADDGA1041+006001999GF104991999999999999999999MA1101021999999REMMET051METAR SBIZ 311800Z 15004KT 9999 SCT020 35/16 Q1010;
0120825640999992007073119004-05533-047500FM-15+0123SBIZ V0201501N002112200019N0112651N1+03501+01601999999ADDGA1041+006001999GF104991999999999999999999MA1100911999999REMMET051METAR SBIZ 311900Z 15004KT 9999 SCT020 35/16 Q1009;
0120825640999992007073120004-05533-047500FM-15+0123SBIZ V0201501N002612200019N0112651N1+03401+01501999999ADDGA1021+006001999GF102991999999999999999999MA1100911999999REMMET051METAR SBIZ 312000Z 15005KT 9999 FEW020 34/15 Q1009;
0120825640999992007073121004-05533-047500FM-15+0123SBIZ V0201501N004112200019N0112651N1+03201+01601999999ADDGA1021+006001999GF102991999999999999999999MA1101021999999REMMET051METAR SBIZ 312100Z 15008KT 9999 FEW020 32/16 Q1010;
0072825640999992007073122004-05533-047500FM-15+0123SBIZ V0209999C00001220001CN0099001N1+02801+01801999999ADDMA1101021999999REMMET045METAR SBIZ 312200Z 00000KT CAVOK 28/18 Q1010;
0072825640999992007073123004-05533-047500FM-15+0123SBIZ V0209999C00001220001CN0099001N1+02601+01801999999ADDMA1101081999999REMMET045METAR SBIZ 312300Z 00000KT CAVOK 26/18 Q1011;
0072825640999992007080100004-05533-047500FM-15+0123SBIZ V0209999C00001220001CN0099001N1+02501+01901999999ADDMA1101081999999REMMET045METAR SBIZ 010000Z 00000KT CAVOK 25/19 Q1011;
0072825640999992007080101004-05533-047500FM-15+0123SBIZ V0209999C00001220001CN0099001N1+02301+01901999999ADDMA1101191999999REMMET045METAR SBIZ 010100Z 00000KT CAVOK 23/19 Q1012;
0072825640999992007080102004-05533-047500FM-15+0123SBIZ V0209999C00001220001CN0099001N1+02301+01901999999ADDMA1101291999999REMMET045METAR SBIZ 010200Z 00000KT CAVOK 23/19 Q1013;
0072825640999992007080103004-05533-047500FM-15+0123SBIZ V0209999C00001220001CN0099001N1+02201+01901999999ADDMA1101291999999REMMET045METAR SBIZ 010300Z 00000KT CAVOK 22/19 Q1013;
0072825640999992007080104004-05533-047500FM-15+0123SBIZ V0209999C00001220001CN0099001N1+02101+01901999999ADDMA1101291999999REMMET045METAR SBIZ 010400Z 00000KT CAVOK 21/19 Q1013;
0072825640999992007080109004-05533-047500FM-15+0123SBIZ V0209999C00001220001CN0099001N1+01801+01701999999ADDMA1101291999999REMMET045METAR SBIZ 010900Z 00000KT CAVOK 18/17 Q1013;
0072825640999992007080110004-05533-047500FM-15+0123SBIZ V0209999C00001220001CN0099001N1+01901+01701999999ADDMA1101391999999REMMET045METAR SBIZ 011000Z 00000KT CAVOK 19/17 Q1014;
0072825640999992007080111004-05533-047500FM-15+0123SBIZ V0209999C00001220001CN0099001N1+02401+01901999999ADDMA1101491999999REMMET045METAR SBIZ 011100Z 00000KT CAVOK 24/19 Q1015;
0072825640999992007080112004-05533-047500FM-15+0123SBIZ V0201501N00771220001CN0099001N1+02701+01701999999ADDMA1101491999999REMMET045METAR SBIZ 011200Z 15015KT CAVOK 27/17 Q1015;
0072825640999992007080113004-05533-047500FM-15+0123SBIZ V0201301N00621220001CN0099001N1+03001+01501999999ADDMA1101491999999REMMET045METAR SBIZ 011300Z 13012KT CAVOK 30/15 Q1015;
0072825640999992007080114004-05533-047500FM-15+0123SBIZ V0201001N00621220001CN0099001N1+03101+01501999999ADDMA1101391999999REMMET045METAR SBIZ 011400Z 10012KT CAVOK 31/15 Q1014;
0072825640999992007080115004-05533-047500FM-15+0123SBIZ V0201401N00621220001CN0099001N1+03301+01501999999ADDMA1101391999999REMMET045METAR SBIZ 011500Z 14012KT CAVOK 33/15 Q1014;
0072825640999992007080116004-05533-047500FM-15+0123SBIZ V0201201N00771220001CN0099001N1+03401+01601999999ADDMA1101191999999REMMET045METAR SBIZ 011600Z 12015KT CAVOK 34/16 Q1012;
0072825640999992007080117004-05533-047500FM-15+0123SBIZ V0201501N00511220001CN0099001N1+03401+01401999999ADDMA1101081999999REMMET045METAR SBIZ 011700Z 15010KT CAVOK 34/14 Q1011;
0072825640999992007080118004-05533-047500FM-15+0123SBIZ V0201501N00411220001CN0099001N1+03501+01401999999ADDMA1101021999999REMMET045METAR SBIZ 011800Z 15008KT CAVOK 35/14 Q1010;
0072825640999992007080119004-05533-047500FM-15+0123SBIZ V0201501N00511220001CN0099001N1+03501+01301999999ADDMA1101021999999REMMET045METAR SBIZ 011900Z 15010KT CAVOK 35/13 Q1010;
0072825640999992007080120004-05533-047500FM-15+0123SBIZ V0201301N00211220001CN0099001N1+03301+01301999999ADDMA1101021999999REMMET045METAR SBIZ 012000Z 13004KT CAVOK 33/13 Q1010;
0072825640999992007080121004-05533-047500FM-15+0123SBIZ V0201301N00211220001CN0099001N1+03001+01401999999ADDMA1101021999999REMMET045METAR SBIZ 012100Z 13004KT CAVOK 30/14 Q1010;
0072825640999992007080122004-05533-047500FM-15+0123SBIZ V0209999C00001220001CN0099001N1+02801+02302999999ADDMA1101081999999REMMET045METAR SBIZ 012200Z 00000KT CAVOK 28/23 Q1011;
0072825640999992007080123004-05533-047500FM-15+0123SBIZ V0209999C00001220001CN0099001N1+02601+01601999999ADDMA1101191999999REMMET045METAR SBIZ 012300Z 00000KT CAVOK 26/16 Q1012;
0072825640999992007080200004-05533-047500FM-15+0123SBIZ V0209999C00001220001CN0099001N1+02401+01801999999ADDMA1101291999999REMMET045METAR SBIZ 020000Z 00000KT CAVOK 24/18 Q1013;
0120825640999992007080201004-05533-047500FM-15+0123SBIZ V0209999C000012200019N0112651N1+02301+01701999999ADDGA1021+006001999GF102991999999999999999999MA1101291999999REMMET051METAR SBIZ 020100Z 00000KT 9999 FEW020 23/17 Q1013;
0120825640999992007080202004-05533-047500FM-15+0123SBIZ V0209999C000012200019N0112651N1+02201+01701999999ADDGA1021+006001999GF102991999999999999999999MA1101291999999REMMET051METAR SBIZ 020200Z 00000KT 9999 FEW020 22/17 Q1013;
0072825640999992007080203004-05533-047500FM-15+0123SBIZ V0209999C00001220001CN0099001N1+02201+01701999999ADDMA1101391999999REMMET045METAR SBIZ 020300Z 00000KT CAVOK 22/17 Q1014;
0120825640999992007080204004-05533-047500FM-15+0123SBIZ V0209999C000012200019N0112651N1+02101+01701999999ADDGA1021+006001999GF102991999999999999999999MA1101291999999REMMET051METAR SBIZ 020400Z 00000KT 9999 FEW020 21/17 Q1013;
0072825640999992007080209004-05533-047500FM-15+0123SBIZ V0209999C00001220001CN0099001N1+01801+01701999999ADDMA1101291999999REMMET045METAR SBIZ 020900Z 00000KT CAVOK 18/17 Q1013;
0072825640999992007080210004-05533-047500FM-15+0123SBIZ V0209999C00001220001CN0099001N1+01801+01701999999ADDMA1101291999999REMMET045METAR SBIZ 021000Z 00000KT CAVOK 18/17 Q1013;
0072825640999992007080211004-05533-047500FM-15+0123SBIZ V0201301N00211220001CN0099001N1+02201+01801999999ADDMA1101491999999REMMET045METAR SBIZ 021100Z 13004KT CAVOK 22/18 Q1015;
0072825640999992007080212004-05533-047500FM-15+0123SBIZ V0200901N00511220001CN0099001N1+02801+01801999999ADDMA1101491999999REMMET045METAR SBIZ 021200Z 09010KT CAVOK 28/18 Q1015;
0083825640999992007080213004-05533-047500FM-15+0123SBIZ V0201201N01031220001CN0099001N1+03001+01601999999ADDMA1101491999999OC101801REMMET048METAR SBIZ 021300Z 12020G35KT CAVOK 30/16 Q1015;
0072825640999992007080214004-05533-047500FM-15+0123SBIZ V0201201N00931220001CN0099001N1+03101+01601999999ADDMA1101491999999REMMET045METAR SBIZ 021400Z 12018KT CAVOK 31/16 Q1015;
0072825640999992007080215004-05533-047500FM-15+0123SBIZ V0201201N00771220001CN0099001N1+03301+01601999999ADDMA1101391999999REMMET045METAR SBIZ 021500Z 12015KT CAVOK 33/16 Q1014;
0120825640999992007080216004-05533-047500FM-15+0123SBIZ V0200901N006212200019N0112651N1+03301+01601999999ADDGA1021+006001999GF102991999999999999999999MA1101291999999REMMET051METAR SBIZ 021600Z 09012KT 9999 FEW020 33/16 Q1013;
0120825640999992007080217004-05533-047500FM-15+0123SBIZ V0201001N003112200019N0112651N1+03501+01601999999ADDGA1041+006001999GF104991999999999999999999MA1101191999999REMMET051METAR SBIZ 021700Z 10006KT 9999 SCT020 35/16 Q1012;
0120825640999992007080218004-05533-047500FM-15+0123SBIZ V0200901N006210060019N0112651N1+03501+01501999999ADDGA1071+006001999GF107991999999999999999999MA1101081999999REMMET051METAR SBIZ 021800Z 09012KT 9999 BKN020 35/15 Q1011;
0120825640999992007080219004-05533-047500FM-15+0123SBIZ V0201801N002610060019N0112651N1+03401+01501999999ADDGA1071+006001999GF107991999999999999999999MA1101081999999REMMET051METAR SBIZ 021900Z 18005KT 9999 BKN020 34/15 Q1011;
0120825640999992007080220004-05533-047500FM-15+0123SBIZ V0201201N002112200019N0112651N1+03401+01601999999ADDGA1041+006001999GF104991999999999999999999MA1101081999999REMMET051METAR SBIZ 022000Z 12004KT 9999 SCT020 34/16 Q1011;
0120825640999992007080221004-05533-047500FM-15+0123SBIZ V0201501N001012200019N0112651N1+03101+01801999999ADDGA1041+006001999GF104991999999999999999999MA1101081999999REMMET051METAR SBIZ 022100Z 15002KT 9999 SCT020 31/18 Q1011;
0120825640999992007080222004-05533-047500FM-15+0123SBIZ V0201301N001512200019N0112651N1+02901+01601999999ADDGA1021+006001999GF102991999999999999999999MA1101081999999REMMET051METAR SBIZ 022200Z 13003KT 9999 FEW020 29/16 Q1011;
0072825640999992007080223004-05533-047500FM-15+0123SBIZ V0201301N00101220001CN0099001N1+02701+01901999999ADDMA1101191999999REMMET045METAR SBIZ 022300Z 13002KT CAVOK 27/19 Q1012;
0072825640999992007080300004-05533-047500FM-15+0123SBIZ V0201301N00211220001CN0099001N1+02401+01901999999ADDMA1101291999999REMMET045METAR SBIZ 030000Z 13004KT CAVOK 24/19 Q1013;
0072825640999992007080301004-05533-047500FM-15+0123SBIZ V0209999C00001220001CN0099001N1+02401+01801999999ADDMA1101391999999REMMET045METAR SBIZ 030100Z 00000KT CAVOK 24/18 Q1014;
0072825640999992007080302004-05533-047500FM-15+0123SBIZ V0209999C00001220001CN0099001N1+02301+01901999999ADDMA1101391999999REMMET045METAR SBIZ 030200Z 00000KT CAVOK 23/19 Q1014;
0072825640999992007080303004-05533-047500FM-15+0123SBIZ V0209999C00001220001CN0099001N1+02201+01901999999ADDMA1101391999999REMMET045METAR SBIZ 030300Z 00000KT CAVOK 22/19 Q1014;
0072825640999992007080304004-05533-047500FM-15+0123SBIZ V0209999C00001220001CN0099001N1+02201+01901999999ADDMA1101291999999REMMET045METAR SBIZ 030400Z 00000KT CAVOK 22/19 Q1013;
0072825640999992007080309004-05533-047500FM-15+0123SBIZ V0209999C00001220001CN0099001N1+01901+01801999999ADDMA1101391999999REMMET045METAR SBIZ 030900Z 00000KT CAVOK 19/18 Q1014;
0072825640999992007080310004-05533-047500FM-15+0123SBIZ V0209999C00001220001CN0099001N1+02001+01801999999ADDMA1101391999999REMMET045METAR SBIZ 031000Z 00000KT CAVOK 20/18 Q1014;
0072825640999992007080311004-05533-047500FM-15+0123SBIZ V0201301N00101220001CN0099001N1+02401+01801999999ADDMA1101491999999REMMET045METAR SBIZ 031100Z 13002KT CAVOK 24/18 Q1015;
0072825640999992007080312004-05533-047500FM-15+0123SBIZ V0200901N00511220001CN0099001N1+02901+01801999999ADDMA1101591999999REMMET045METAR SBIZ 031200Z 09010KT CAVOK 29/18 Q1016;
0072825640999992007080313004-05533-047500FM-15+0123SBIZ V0201201N01031220001CN0099001N1+03001+01801999999ADDMA1101591999999REMMET045METAR SBIZ 031300Z 12020KT CAVOK 30/18 Q1016;
0120825640999992007080314004-05533-047500FM-15+0123SBIZ V0201201N010312200019N0112651N1+03201+01801999999ADDGA1021+006001999GF102991999999999999999999MA1101491999999REMMET051METAR SBIZ 031400Z 12020KT 9999 FEW020 32/18 Q1015;
0120825640999992007080315004-05533-047500FM-15+0123SBIZ V0201201N009312200019N0112651N1+03201+01801999999ADDGA1041+006001999GF104991999999999999999999MA1101391999999REMMET051METAR SBIZ 031500Z 12018KT 9999 SCT020 32/18 Q1014;
0120825640999992007080316004-05533-047500FM-15+0123SBIZ V0201501N007712200019N0112651N1+03401+01801999999ADDGA1041+006001999GF104991999999999999999999MA1101291999999REMMET051METAR SBIZ 031600Z 15015KT 9999 SCT020 34/18 Q1013;
0120825640999992007080317004-05533-047500FM-15+0123SBIZ V0201001N007712200019N0112651N1+03501+01901999999ADDGA1041+006001999GF104991999999999999999999MA1101191999999REMMET051METAR SBIZ 031700Z 10015KT 9999 SCT020 35/19 Q1012;
0120825640999992007080318004-05533-047500FM-15+0123SBIZ V0201201N005110060019N0112651N1+03401+01701999999ADDGA1071+006001999GF107991999999999999999999MA1101081999999REMMET051METAR SBIZ 031800Z 12010KT 9999 BKN020 34/17 Q1011;
0120825640999992007080319004-05533-047500FM-15+0123SBIZ V0201401N007712200019N0112651N1+03301+01701999999ADDGA1041+006001999GF104991999999999999999999MA1101081999999REMMET051METAR SBIZ 031900Z 14015KT 9999 SCT020 33/17 Q1011;
0120825640999992007080320004-05533-047500FM-15+0123SBIZ V0201201N003112200019N0112651N1+03301+01601999999ADDGA1021+006001999GF102991999999999999999999MA1101081999999REMMET051METAR SBIZ 032000Z 12006KT 9999 FEW020 33/16 Q1011;
0072825640999992007080322004-05533-047500FM-15+0123SBIZ V0209999C00001220001CN0099001N1+02801+01601999999ADDMA1101191999999REMMET045METAR SBIZ 032200Z 00000KT CAVOK 28/16 Q1012;
0072825640999992007080323004-05533-047500FM-15+0123SBIZ V0209999C00001220001CN0099001N1+02601+01901999999ADDMA1101191999999REMMET045METAR SBIZ 032300Z 00000KT CAVOK 26/19 Q1012;
0120825640999992007080400004-05533-047500FM-15+0123SBIZ V0209999C000012200019N0070001N1+02501+02001999999ADDGF100991999999999999999999MA1101291999999REMMET048METAR SBIZ 040000Z 00000KT 7000 SKC 25/20 Q1013;EQDQ01    003SCCGA1
0120825640999992007080401004-05533-047500FM-15+0123SBIZ V0209999C000012200019N0070001N1+02401+01901999999ADDGF100991999999999999999999MA1101391999999REMMET048METAR SBIZ 040100Z 00000KT 7000 SKC 24/19 Q1014;EQDQ01    003SCCGA1
0120825640999992007080402004-05533-047500FM-15+0123SBIZ V0209999C000012200019N0070001N1+02401+01901999999ADDGF100991999999999999999999MA1101391999999REMMET048METAR SBIZ 040200Z 00000KT 7000 SKC 24/19 Q1014;EQDQ01    003SCCGA1
0120825640999992007080403004-05533-047500FM-15+0123SBIZ V0209999C000012200019N0070001N1+02301+01901999999ADDGF100991999999999999999999MA1101391999999REMMET048METAR SBIZ 040300Z 00000KT 7000 SKC 23/19 Q1014;EQDQ01    003SCCGA1
0072825640999992007080409004-05533-047500FM-15+0123SBIZ V0209999C00001220001CN0099001N1+01901+01801999999ADDMA1101291999999REMMET045METAR SBIZ 040900Z 00000KT CAVOK 19/18 Q1013;
0072825640999992007080410004-05533-047500FM-15+0123SBIZ V0201301N00101220001CN0099001N1+01901+01801999999ADDMA1101391999999REMMET045METAR SBIZ 041000Z 13002KT CAVOK 19/18 Q1014;
0072825640999992007080411004-05533-047500FM-15+0123SBIZ V0209999C00001220001CN0099001N1+02401+01901999999ADDMA1101491999999REMMET045METAR SBIZ 041100Z 00000KT CAVOK 24/19 Q1015;
0072825640999992007080412004-05533-047500FM-15+0123SBIZ V0201201N00771220001CN0099001N1+02801+01801999999ADDMA1101491999999REMMET045METAR SBIZ 041200Z 12015KT CAVOK 28/18 Q1015;
0072825640999992007080413004-05533-047500FM-15+0123SBIZ V0201301N00771220001CN0099001N1+03101+01801999999ADDMA1101491999999REMMET045METAR SBIZ 041300Z 13015KT CAVOK 31/18 Q1015;
0072825640999992007080414004-05533-047500FM-15+0123SBIZ V0201201N00511220001CN0099001N1+03201+01901999999ADDMA1101491999999REMMET045METAR SBIZ 041400Z 12010KT CAVOK 32/19 Q1015;
0072825640999992007080415004-05533-047500FM-15+0123SBIZ V0201201N00511220001CN0099001N1+03301+02001999999ADDMA1101391999999REMMET045METAR SBIZ 041500Z 12010KT CAVOK 33/20 Q1014;
0120825640999992007080416004-05533-047500FM-15+0123SBIZ V0200601N005112200019N0112651N1+03501+01901999999ADDGA1041+006001999GF104991999999999999999999MA1101291999999REMMET051METAR SBIZ 041600Z 06010KT 9999 SCT020 35/19 Q1013;
0120825640999992007080417004-05533-047500FM-15+0123SBIZ V0200901N005712200019N0112651N1+03501+01801999999ADDGA1041+006001999GF104991999999999999999999MA1101191999999REMMET051METAR SBIZ 041700Z 09011KT 9999 SCT020 35/18 Q1012;
0120825640999992007080418004-05533-047500FM-15+0123SBIZ V0201001N005112200019N0112651N1+03601+01901999999ADDGA1041+009001999GF104991999999999999999999MA1101081999999REMMET051METAR SBIZ 041800Z 10010KT 9999 SCT030 36/19 Q1011;
0120825640999992007080419004-05533-047500FM-15+0123SBIZ V0201001N004112200019N0112651N1+03601+02101999999ADDGA1041+009001999GF104991999999999999999999MA1101081999999REMMET051METAR SBIZ 041900Z 10008KT 9999 SCT030 36/21 Q1011;
0120825640999992007080420004-05533-047500FM-15+0123SBIZ V0200901N002612200019N0112651N1+03301+01901999999ADDGA1021+009001999GF102991999999999999999999MA1101081999999REMMET051METAR SBIZ 042000Z 09005KT 9999 FEW030 33/19 Q1011;
0072825640999992007080421004-05533-047500FM-15+0123SBIZ V0200901N00151220001CN0099001N1+03101+01901999999ADDMA1101081999999REMMET045METAR SBIZ 042100Z 09003KT CAVOK 31/19 Q1011;
0072825640999992007080423004-05533-047500FM-15+0123SBIZ V0209999C00001220001CN0099001N1+02701+02001999999ADDMA1101191999999REMMET045METAR SBIZ 042300Z 00000KT CAVOK 27/20 Q1012;
0072825640999992007080500004-05533-047500FM-15+0123SBIZ V0209999C00001220001CN0099001N1+02701+01901999999ADDMA1101291999999REMMET045METAR SBIZ 050000Z 00000KT CAVOK 27/19 Q1013;
0072825640999992007080501004-05533-047500FM-15+0123SBIZ V0209999C00001220001CN0099001N1+02401+01901999999ADDMA1101391999999REMMET045METAR SBIZ 050100Z 00000KT CAVOK 24/19 Q1014;
0072825640999992007080502004-05533-047500FM-15+0123SBIZ V0209999C00001220001CN0099001N1+02401+02001999999ADDMA1101391999999REMMET045METAR SBIZ 050200Z 00000KT CAVOK 24/20 Q1014;
0072825640999992007080503004-05533-047500FM-15+0123SBIZ V0209999C00001220001CN0099001N1+02301+01901999999ADDMA1101291999999REMMET045METAR SBIZ 050300Z 00000KT CAVOK 23/19 Q1013;
0072825640999992007080504004-05533-047500FM-15+0123SBIZ V0209999C00001220001CN0099001N1+02201+01901999999ADDMA1101291999999REMMET045METAR SBIZ 050400Z 00000KT CAVOK 22/19 Q1013;
0120825640999992007080509004-05533-047500FM-15+0123SBIZ V0201501N001512200019N0080001N1+02001+01901999999ADDGA1041+003601999GF104991999999999999999999MA1101291999999REMMET051METAR SBIZ 050900Z 15003KT 8000 SCT012 20/19 Q1013;
0117825640999992007080510004-05533-047500FM-15+0123SBIZ V0209999C00001220001CN0112651N1+02101+01901999999ADDGA1071+004501999GA2041+006001999MA1101391999999REMMET058METAR SBIZ 051000Z 00000KT 9999 BKN015 SCT020 21/19 Q1014;
0120825640999992007080511004-05533-047500FM-15+0123SBIZ V0209999C000012200019N0112651N1+02301+01901999999ADDGA1041+004501999GF104991999999999999999999MA1101391999999REMMET051METAR SBIZ 051100Z 00000KT 9999 SCT015 23/19 Q1014;
0072825640999992007080512004-05533-047500FM-15+0123SBIZ V0201201N00671220001CN0099001N1+02901+01801999999ADDMA1101491999999REMMET045METAR SBIZ 051200Z 12013KT CAVOK 29/18 Q1015;
0072825640999992007080513004-05533-047500FM-15+0123SBIZ V0201001N01031220001CN0099001N1+03101+02001999999ADDMA1101491999999REMMET045METAR SBIZ 051300Z 10020KT CAVOK 31/20 Q1015;
0072825640999992007080514004-05533-047500FM-15+0123SBIZ V0201301N00931220001CN0099001N1+03201+01801999999ADDMA1101391999999REMMET045METAR SBIZ 051400Z 13018KT CAVOK 32/18 Q1014;
0072825640999992007080515004-05533-047500FM-15+0123SBIZ V0201301N00671220001CN0099001N1+03301+01701999999ADDMA1101291999999REMMET045METAR SBIZ 051500Z 13013KT CAVOK 33/17 Q1013;
0072825640999992007080516004-05533-047500FM-15+0123SBIZ V0202101N00571220001CN0099001N1+03501+02001999999ADDMA1101191999999REMMET045METAR SBIZ 051600Z 21011KT CAVOK 35/20 Q1012;
0120825640999992007080517004-05533-047500FM-15+0123SBIZ V0201501N003112200019N0112651N1+03601+01801999999ADDGA1021+009001999GF102991999999999999999999MA1101081999999REMMET051METAR SBIZ 051700Z 15006KT 9999 FEW030 36/18 Q1011;
0120825640999992007080518004-05533-047500FM-15+0123SBIZ V0201501N005712200019N0112651N1+03501+01701999999ADDGA1041+009001999GF104991999999999999999999MA1101021999999REMMET051METAR SBIZ 051800Z 15011KT 9999 SCT030 35/17 Q1010;
0120825640999992007080519004-05533-047500FM-15+0123SBIZ V0201501N002612200019N0112651N1+03501+01701999999ADDGA1041+009001999GF104991999999999999999999MA1101021999999REMMET051METAR SBIZ 051900Z 15005KT 9999 SCT030 35/17 Q1010;
0120825640999992007080520004-05533-047500FM-15+0123SBIZ V0201801N001512200019N0112651N1+03501+01701999999ADDGA1021+009001999GF102991999999999999999999MA1101021999999REMMET051METAR SBIZ 052000Z 18003KT 9999 FEW030 35/17 Q1010;
0072825640999992007080521004-05533-047500FM-15+0123SBIZ V0209999C00001220001CN0099001N1+03201+01801999999ADDMA1101021999999REMMET045METAR SBIZ 052100Z 00000KT CAVOK 32/18 Q1010;
0072825640999992007080522004-05533-047500FM-15+0123SBIZ V0209999C00001220001CN0099001N1+02901+01601999999ADDMA1101021999999REMMET045METAR SBIZ 052200Z 00000KT CAVOK 29/16 Q1010;
0072825640999992007080523004-05533-047500FM-15+0123SBIZ V0209999C00001220001CN0099001N1+02801+01801999999ADDMA1101081999999REMMET045METAR SBIZ 052300Z 00000KT CAVOK 28/18 Q1011;
0072825640999992007080600004-05533-047500FM-15+0123SBIZ V0209999C00001220001CN0099001N1+02701+01801999999ADDMA1101081999999REMMET045METAR SBIZ 060000Z 00000KT CAVOK 27/18 Q1011;
0072825640999992007080601004-05533-047500FM-15+0123SBIZ V0209999C00001220001CN0099001N1+02501+01801999999ADDMA1101191999999REMMET045METAR SBIZ 060100Z 00000KT CAVOK 25/18 Q1012;
0120825640999992007080602004-05533-047500FM-15+0123SBIZ V0209999C000012200019N0112651N1+02501+02001999999ADDGA1041+009001999GF104991999999999999999999MA1101191999999REMMET051METAR SBIZ 060200Z 00000KT 9999 SCT030 25/20 Q1012;
0072825640999992007080603004-05533-047500FM-15+0123SBIZ V0209999C00001220001CN0099001N1+02401+02001999999ADDMA1101191999999REMMET045METAR SBIZ 060300Z 00000KT CAVOK 24/20 Q1012;
0072825640999992007080604004-05533-047500FM-15+0123SBIZ V0209999C00001220001CN0099001N1+02401+02001999999ADDMA1101081999999REMMET045METAR SBIZ 060400Z 00000KT CAVOK 24/20 Q1011;
0072825640999992007080609004-05533-047500FM-15+0123SBIZ V0209999C00001220001CN0099001N1+02101+01901999999ADDMA1101191999999REMMET045METAR SBIZ 060900Z 00000KT CAVOK 21/19 Q1012;
0072825640999992007080610004-05533-047500FM-15+0123SBIZ V0201201N00151220001CN0099001N1+02101+02001999999ADDMA1101291999999REMMET045METAR SBIZ 061000Z 12003KT CAVOK 21/20 Q1013;
0072825640999992007080611004-05533-047500FM-15+0123SBIZ V0209999C00001220001CN0099001N1+02501+01901999999ADDMA1101391999999REMMET045METAR SBIZ 061100Z 00000KT CAVOK 25/19 Q1014;
0072825640999992007080612004-05533-047500FM-15+0123SBIZ V0201201N00461220001CN0099001N1+02901+01801999999ADDMA1101391999999REMMET045METAR SBIZ 061200Z 12009KT CAVOK 29/18 Q1014;
0072825640999992007080613004-05533-047500FM-15+0123SBIZ V0201201N00931220001CN0099001N1+03101+01801999999ADDMA1101391999999REMMET045METAR SBIZ 061300Z 12018KT CAVOK 31/18 Q1014;
0072825640999992007080614004-05533-047500FM-15+0123SBIZ V0200901N00931220001CN0099001N1+03301+01901999999ADDMA1101291999999REMMET045METAR SBIZ 061400Z 09018KT CAVOK 33/19 Q1013;
0072825640999992007080615004-05533-047500FM-15+0123SBIZ V0201501N00771220001CN0099001N1+03401+01701999999ADDMA1101291999999REMMET045METAR SBIZ 061500Z 15015KT CAVOK 34/17 Q1013;
0072825640999992007080616004-05533-047500FM-15+0123SBIZ V0200901N00511220001CN0099001N1+03501+01401999999ADDMA1101081999999REMMET045METAR SBIZ 061600Z 09010KT CAVOK 35/14 Q1011;
0120825640999992007080617004-05533-047500FM-15+0123SBIZ V0201201N007212200019N0112651N1+03601+01401999999ADDGA1021+006001999GF102991999999999999999999MA1101021999999REMMET051METAR SBIZ 061700Z 12014KT 9999 FEW020 36/14 Q1010;
0072825640999992007080618004-05533-047500FM-15+0123SBIZ V0201801N00511220001CN0099001N1+03701+01301999999ADDMA1100911999999REMMET045METAR SBIZ 061800Z 18010KT CAVOK 37/13 Q1009;
0072825640999992007080619004-05533-047500FM-15+0123SBIZ V0201801N00411220001CN0099001N1+03601+01301999999ADDMA1100911999999REMMET045METAR SBIZ 061900Z 18008KT CAVOK 36/13 Q1009;
0072825640999992007080620004-05533-047500FM-15+0123SBIZ V0201501N00211220001CN0099001N1+03501+01301999999ADDMA1100911999999REMMET045METAR SBIZ 062000Z 15004KT CAVOK 35/13 Q1009;
0072825640999992007080621004-05533-047500FM-15+0123SBIZ V0201301N00101220001CN0099001N1+03301+01501999999ADDMA1100911999999REMMET045METAR SBIZ 062100Z 13002KT CAVOK 33/15 Q1009;
0072825640999992007080622004-05533-047500FM-15+0123SBIZ V0209999C00001220001CN0099001N1+02901+01901999999ADDMA1100911999999REMMET045METAR SBIZ 062200Z 00000KT CAVOK 29/19 Q1009;
0072825640999992007080623004-05533-047500FM-15+0123SBIZ V0209999C00001220001CN0099001N1+02701+01901999999ADDMA1101021999999REMMET045METAR SBIZ 062300Z 00000KT CAVOK 27/19 Q1010;
0072825640999992007080700004-05533-047500FM-15+0123SBIZ V0209999C00001220001CN0099001N1+02501+01801999999ADDMA1101081999999REMMET045METAR SBIZ 070000Z 00000KT CAVOK 25/18 Q1011;
0072825640999992007080701004-05533-047500FM-15+0123SBIZ V0209999C00001220001CN0099001N1+02401+01801999999ADDMA1101191999999REMMET045METAR SBIZ 070100Z 00000KT CAVOK 24/18 Q1012;
0072825640999992007080702004-05533-047500FM-15+0123SBIZ V0209999C00001220001CN0099001N1+02301+01701999999ADDMA1101191999999REMMET045METAR SBIZ 070200Z 00000KT CAVOK 23/17 Q1012;
0072825640999992007080703004-05533-047500FM-15+0123SBIZ V0209999C00001220001CN0099001N1+02301+01701999999ADDMA1101191999999REMMET045METAR SBIZ 070300Z 00000KT CAVOK 23/17 Q1012;
0120825640999992007080709004-05533-047500FM-15+0123SBIZ V0209999C000012200019N0080001N1+01801+01701999999ADDGA1021+001801999GF102991999999999999999999MA1101191999999REMMET051METAR SBIZ 070900Z 00000KT 8000 FEW006 18/17 Q1012;
0072825640999992007080710004-05533-047500FM-15+0123SBIZ V0201501N00311220001CN0099001N1+01801+01601999999ADDMA1101391999999REMMET045METAR SBIZ 071000Z 15006KT CAVOK 18/16 Q1014;
0072825640999992007080711004-05533-047500FM-15+0123SBIZ V0201301N00101220001CN0099001N1+02101+01701999999ADDMA1101491999999REMMET045METAR SBIZ 071100Z 13002KT CAVOK 21/17 Q1015;
0072825640999992007080712004-05533-047500FM-15+0123SBIZ V0200901N00511220001CN0099001N1+02701+01901999999ADDMA1101491999999REMMET045METAR SBIZ 071200Z 09010KT CAVOK 27/19 Q1015;
0072825640999992007080713004-05533-047500FM-15+0123SBIZ V0200901N00411220001CN0099001N1+03001+01901999999ADDMA1101491999999REMMET045METAR SBIZ 071300Z 09008KT CAVOK 30/19 Q1015;
0120825640999992007080714004-05533-047500FM-15+0123SBIZ V0200901N006212200019N0112651N1+03101+01801999999ADDGA1021+006001999GF102991999999999999999999MA1101391999999REMMET051METAR SBIZ 071400Z 09012KT 9999 FEW020 31/18 Q1014;
0072825640999992007080715004-05533-047500FM-15+0123SBIZ V0201101N00511220001CN0099001N1+03301+01701999999ADDMA1101391999999REMMET045METAR SBIZ 071500Z 11010KT CAVOK 33/17 Q1014;
0072825640999992007080716004-05533-047500FM-15+0123SBIZ V0201501N00101220001CN0099001N1+03501+01801999999ADDMA1101191999999REMMET045METAR SBIZ 071600Z 15002KT CAVOK 35/18 Q1012;
0072825640999992007080717004-05533-047500FM-15+0123SBIZ V0200901N00311220001CN0099001N1+03601+01701999999ADDMA1101081999999REMMET045METAR SBIZ 071700Z 09006KT CAVOK 36/17 Q1011;
0072825640999992007080718004-05533-047500FM-15+0123SBIZ V0201201N00771220001CN0099001N1+03601+01701999999ADDMA1101021999999REMMET045METAR SBIZ 071800Z 12015KT CAVOK 36/17 Q1010;
0072825640999992007080719004-05533-047500FM-15+0123SBIZ V0201201N00411220001CN0099001N1+03601+01601999999ADDMA1101021999999REMMET045METAR SBIZ 071900Z 12008KT CAVOK 36/16 Q1010;
0072825640999992007080720004-05533-047500FM-15+0123SBIZ V0201801N00211220001CN0099001N1+03501+01601999999ADDMA1101021999999REMMET045METAR SBIZ 072000Z 18004KT CAVOK 35/16 Q1010;
0072825640999992007080721004-05533-047500FM-15+0123SBIZ V0209999C00001220001CN0099001N1+03201+01901999999ADDMA1101021999999REMMET045METAR SBIZ 072100Z 00000KT CAVOK 32/19 Q1010;
0072825640999992007080722004-05533-047500FM-15+0123SBIZ V0209999C00001220001CN0099001N1+03001+01701999999ADDMA1101021999999REMMET045METAR SBIZ 072200Z 00000KT CAVOK 30/17 Q1010;
0072825640999992007080723004-05533-047500FM-15+0123SBIZ V0209999C00001220001CN0099001N1+02701+01901999999ADDMA1101081999999REMMET045METAR SBIZ 072300Z 00000KT CAVOK 27/19 Q1011;
0072825640999992007080800004-05533-047500FM-15+0123SBIZ V0209999C00001220001CN0099001N1+02501+02001999999ADDMA1101191999999REMMET045METAR SBIZ 080000Z 00000KT CAVOK 25/20 Q1012;
0072825640999992007080801004-05533-047500FM-15+0123SBIZ V0201001N00511220001CN0099001N1+02401+01901999999ADDMA1101191999999REMMET045METAR SBIZ 080100Z 10010KT CAVOK 24/19 Q1012;
0072825640999992007080802004-05533-047500FM-15+0123SBIZ V0201301N00101220001CN0099001N1+02401+01901999999ADDMA1101191999999REMMET045METAR SBIZ 080200Z 13002KT CAVOK 24/19 Q1012;
0072825640999992007080803004-05533-047500FM-15+0123SBIZ V0209999C00001220001CN0099001N1+02301+01901999999ADDMA1101191999999REMMET045METAR SBIZ 080300Z 00000KT CAVOK 23/19 Q1012;
0072825640999992007080804004-05533-047500FM-15+0123SBIZ V0209999C00001220001CN0099001N1+02201+01801999999ADDMA1101191999999REMMET045METAR SBIZ 080400Z 00000KT CAVOK 22/18 Q1012;
0072825640999992007080805004-05533-047500FM-15+0123SBIZ V0209999C00001220001CN0099001N1+02101+01801999999ADDMA1101081999999REMMET045METAR SBIZ 080500Z 00000KT CAVOK 21/18 Q1011;
0120825640999992007080806004-05533-047500FM-15+0123SBIZ V0209999C000012200019N0090001N1+02001+01801999999ADDGF100991999999999999999999MA1101081999999REMMET048METAR SBIZ 080600Z 00000KT 9000 SKC 20/18 Q1011;EQDQ01    003SCCGA1
0120825640999992007080807004-05533-047500FM-15+0123SBIZ V0209999C000012200019N0090001N1+02001+01801999999ADDGF100991999999999999999999MA1101081999999REMMET048METAR SBIZ 080700Z 00000KT 9000 SKC 20/18 Q1011;EQDQ01    003SCCGA1
0120825640999992007080808004-05533-047500FM-15+0123SBIZ V0209999C000012200019N0090001N1+02001+01801999999ADDGF100991999999999999999999MA1101191999999REMMET048METAR SBIZ 080800Z 00000KT 9000 SKC 20/18 Q1012;EQDQ01    003SCCGA1
0120825640999992007080809004-05533-047500FM-15+0123SBIZ V0209999C000012200019N0060001N1+01901+01801999999ADDGF100991999999999999999999MA1101191999999REMMET048METAR SBIZ 080900Z 00000KT 6000 SKC 19/18 Q1012;EQDQ01    003SCCGA1
0120825640999992007080810004-05533-047500FM-15+0123SBIZ V0209999C000012200019N0060001N1+02001+01801999999ADDGF100991999999999999999999MA1101291999999REMMET048METAR SBIZ 081000Z 00000KT 6000 SKC 20/18 Q1013;EQDQ01    003SCCGA1
0072825640999992007080811004-05533-047500FM-15+0123SBIZ V0201301N00211220001CN0099001N1+02301+01801999999ADDMA1101391999999REMMET045METAR SBIZ 081100Z 13004KT CAVOK 23/18 Q1014;
0072825640999992007080812004-05533-047500FM-15+0123SBIZ V0200901N00511220001CN0099001N1+02801+01901999999ADDMA1101491999999REMMET045METAR SBIZ 081200Z 09010KT CAVOK 28/19 Q1015;
0072825640999992007080813004-05533-047500FM-15+0123SBIZ V0200901N00511220001CN0099001N1+03101+02101999999ADDMA1101391999999REMMET045METAR SBIZ 081300Z 09010KT CAVOK 31/21 Q1014;
0120825640999992007080814004-05533-047500FM-15+0123SBIZ V0201301N003612200019N0112651N1+03201+02001999999ADDGA1021+006001999GF102991999999999999999999MA1101291999999REMMET051METAR SBIZ 081400Z 13007KT 9999 FEW020 32/20 Q1013;
0120825640999992007080815004-05533-047500FM-15+0123SBIZ V0201001N005112200019N0112651N1+03301+01801999999ADDGA1021+006001999GF102991999999999999999999MA1101191999999REMMET051METAR SBIZ 081500Z 10010KT 9999 FEW020 33/18 Q1012;
0072825640999992007080816004-05533-047500FM-15+0123SBIZ V0201301N00671220001CN0099001N1+03401+01801999999ADDMA1101081999999REMMET045METAR SBIZ 081600Z 13013KT CAVOK 34/18 Q1011;
0072825640999992007080817004-05533-047500FM-15+0123SBIZ V0201001N00411220001CN0099001N1+03501+01701999999ADDMA1101021999999REMMET045METAR SBIZ 081700Z 10008KT CAVOK 35/17 Q1010;
0072825640999992007080818004-05533-047500FM-15+0123SBIZ V0201301N00411220001CN0099001N1+03601+01801999999ADDMA1100911999999REMMET045METAR SBIZ 081800Z 13008KT CAVOK 36/18 Q1009;
0072825640999992007080819004-05533-047500FM-15+0123SBIZ V0201101N00511220001CN0099001N1+03601+01601999999ADDMA1100911999999REMMET045METAR SBIZ 081900Z 11010KT CAVOK 36/16 Q1009;
0072825640999992007080820004-05533-047500FM-15+0123SBIZ V0201101N00621220001CN0099001N1+03501+01601999999ADDMA1100911999999REMMET045METAR SBIZ 082000Z 11012KT CAVOK 35/16 Q1009;
0072825640999992007080821004-05533-047500FM-15+0123SBIZ V0201001N00151220001CN0099001N1+03301+01801999999ADDMA1100911999999REMMET045METAR SBIZ 082100Z 10003KT CAVOK 33/18 Q1009;
0072825640999992007080822004-05533-047500FM-15+0123SBIZ V0209999C00001220001CN0099001N1+02901+01601999999ADDMA1100911999999REMMET045METAR SBIZ 082200Z 00000KT CAVOK 29/16 Q1009;
0072825640999992007080823004-05533-047500FM-15+0123SBIZ V0209999C00001220001CN0099001N1+02701+01801999999ADDMA1101021999999REMMET045METAR SBIZ 082300Z 00000KT CAVOK 27/18 Q1010;
0072825640999992007080900004-05533-047500FM-15+0123SBIZ V0200901N00461220001CN0099001N1+02601+01701999999ADDMA1101081999999REMMET045METAR SBIZ 090000Z 09009KT CAVOK 26/17 Q1011;
0120825640999992007080901004-05533-047500FM-15+0123SBIZ V0200901N002612200019N0070001N1+02501+01801999999ADDGF100991999999999999999999MA1101081999999REMMET048METAR SBIZ 090100Z 09005KT 7000 SKC 25/18 Q1011;EQDQ01    003SCCGA1
0120825640999992007080902004-05533-047500FM-15+0123SBIZ V0209999C000012200019N0070001N1+02301+01801999999ADDGF100991999999999999999999MA1101191999999REMMET048METAR SBIZ 090200Z 00000KT 7000 SKC 23/18 Q1012;EQDQ01    003SCCGA1
0120825640999992007080903004-05533-047500FM-15+0123SBIZ V0209999C000012200019N0070001N1+02201+01801999999ADDGF100991999999999999999999MA1101191999999REMMET048METAR SBIZ 090300Z 00000KT 7000 SKC 22/18 Q1012;EQDQ01    003SCCGA1
0120825640999992007080904004-05533-047500FM-15+0123SBIZ V0209999C000012200019N0070001N1+02201+01701999999ADDGF100991999999999999999999MA1101191999999REMMET048METAR SBIZ 090400Z 00000KT 7000 SKC 22/17 Q1012;EQDQ01    003SCCGA1
0072825640999992007080909004-05533-047500FM-15+0123SBIZ V0209999C00001220001CN0099001N1+01901+01701999999ADDMA1101191999999REMMET045METAR SBIZ 090900Z 00000KT CAVOK 19/17 Q1012;
0072825640999992007080910004-05533-047500FM-15+0123SBIZ V0209999C00001220001CN0099001N1+02001+01701999999ADDMA1101291999999REMMET045METAR SBIZ 091000Z 00000KT CAVOK 20/17 Q1013;
0072825640999992007080911004-05533-047500FM-15+0123SBIZ V0209999C00001220001CN0099001N1+02401+01801999999ADDMA1101391999999REMMET045METAR SBIZ 091100Z 00000KT CAVOK 24/18 Q1014;
0072825640999992007080912004-05533-047500FM-15+0123SBIZ V0200901N00511220001CN0099001N1+02801+02001999999ADDMA1101491999999REMMET045METAR SBIZ 091200Z 09010KT CAVOK 28/20 Q1015;
0072825640999992007080913004-05533-047500FM-15+0123SBIZ V0201301N00621220001CN0099001N1+03001+02001999999ADDMA1101391999999REMMET045METAR SBIZ 091300Z 13012KT CAVOK 30/20 Q1014;
0072825640999992007080914004-05533-047500FM-15+0123SBIZ V0201201N01031220001CN0099001N1+03201+01801999999ADDMA1101391999999REMMET045METAR SBIZ 091400Z 12020KT CAVOK 32/18 Q1014;
0072825640999992007080915004-05533-047500FM-15+0123SBIZ V0201501N01031220001CN0099001N1+03301+01901999999ADDMA1101191999999REMMET045METAR SBIZ 091500Z 15020KT CAVOK 33/19 Q1012;
0072825640999992007080916004-05533-047500FM-15+0123SBIZ V0201001N00511220001CN0099001N1+03401+01801999999ADDMA1101081999999REMMET045METAR SBIZ 091600Z 10010KT CAVOK 34/18 Q1011;
0072825640999992007080917004-05533-047500FM-15+0123SBIZ V0201301N00511220001CN0099001N1+03501+01901999999ADDMA1101021999999REMMET045METAR SBIZ 091700Z 13010KT CAVOK 35/19 Q1010;
0072825640999992007080918004-05533-047500FM-15+0123SBIZ V0201301N00261220001CN0099001N1+03501+01901999999ADDMA1100911999999REMMET045METAR SBIZ 091800Z 13005KT CAVOK 35/19 Q1009;
0072825640999992007080920004-05533-047500FM-15+0123SBIZ V0201101N00411220001CN0099001N1+03401+01801999999ADDMA1100911999999REMMET045METAR SBIZ 092000Z 11008KT CAVOK 34/18 Q1009;
0072825640999992007080921004-05533-047500FM-15+0123SBIZ V0201001N00101220001CN0099001N1+03201+01801999999ADDMA1100911999999REMMET045METAR SBIZ 092100Z 10002KT CAVOK 32/18 Q1009;
0072825640999992007080922004-05533-047500FM-15+0123SBIZ V0209999C00001220001CN0099001N1+02901+01701999999ADDMA1100911999999REMMET045METAR SBIZ 092200Z 00000KT CAVOK 29/17 Q1009;
0072825640999992007080923004-05533-047500FM-15+0123SBIZ V0209999C00001220001CN0099001N1+02701+01801999999ADDMA1101021999999REMMET045METAR SBIZ 092300Z 00000KT CAVOK 27/18 Q1010;
0072825640999992007081001004-05533-047500FM-15+0123SBIZ V0209999C00001220001CN0099001N1+02501+01801999999ADDMA1101191999999REMMET045METAR SBIZ 100100Z 00000KT CAVOK 25/18 Q1012;
0072825640999992007081002004-05533-047500FM-15+0123SBIZ V0209999C00001220001CN0099001N1+02401+01801999999ADDMA1101191999999REMMET045METAR SBIZ 100200Z 00000KT CAVOK 24/18 Q1012;
0072825640999992007081003004-05533-047500FM-15+0123SBIZ V0209999C00001220001CN0099001N1+02301+01801999999ADDMA1101191999999REMMET045METAR SBIZ 100300Z 00000KT CAVOK 23/18 Q1012;
0072825640999992007081004004-05533-047500FM-15+0123SBIZ V0209999C00001220001CN0099001N1+02201+01801999999ADDMA1101081999999REMMET045METAR SBIZ 100400Z 00000KT CAVOK 22/18 Q1011;
0120825640999992007081009004-05533-047500FM-15+0123SBIZ V0209999C000012200019N0080001N1+01801+01701999999ADDGF100991999999999999999999MA1101291999999REMMET048METAR SBIZ 100900Z 00000KT 8000 SKC 18/17 Q1013;EQDQ01    003SCCGA1
0120825640999992007081010004-05533-047500FM-15+0123SBIZ V0201801N002112200019N0080001N1+01801+01701999999ADDGF100991999999999999999999MA1101291999999REMMET048METAR SBIZ 101000Z 18004KT 8000 SKC 18/17 Q1013;EQDQ01    003SCCGA1
0053825640999992007081011004-05533-047500FM-15+0123SBIZ V0200901N00261220001CN0099001N1+02301+01801999999REMMET044METAR SBIZ 101100Z 09005KT CAVOK 23/18 Q101;
0072825640999992007081012004-05533-047500FM-15+0123SBIZ V0201301N00621220001CN0099001N1+02701+01401999999ADDMA1101491999999REMMET045METAR SBIZ 101200Z 13012KT CAVOK 27/14 Q1015;
0072825640999992007081013004-05533-047500FM-15+0123SBIZ V0201201N00931220001CN0099001N1+03001+01401999999ADDMA1101391999999REMMET045METAR SBIZ 101300Z 12018KT CAVOK 30/14 Q1014;
0072825640999992007081014004-05533-047500FM-15+0123SBIZ V0201301N00511220001CN0099001N1+03201+01601999999ADDMA1101391999999REMMET045METAR SBIZ 101400Z 13010KT CAVOK 32/16 Q1014;
0072825640999992007081015004-05533-047500FM-15+0123SBIZ V0201201N00931220001CN0099001N1+03301+01601999999ADDMA1101291999999REMMET045METAR SBIZ 101500Z 12018KT CAVOK 33/16 Q1013;
0072825640999992007081018004-05533-047500FM-15+0123SBIZ V0201501N00511220001CN0099001N1+03601+01701999999ADDMA1101021999999REMMET045METAR SBIZ 101800Z 15010KT CAVOK 36/17 Q1010;
0072825640999992007081019004-05533-047500FM-15+0123SBIZ V0201801N00621220001CN0099001N1+03701+01601999999ADDMA1100911999999REMMET045METAR SBIZ 101900Z 18012KT CAVOK 37/16 Q1009;
0072825640999992007081020004-05533-047500FM-15+0123SBIZ V0201201N00511220001CN0099001N1+03501+01301999999ADDMA1100911999999REMMET045METAR SBIZ 102000Z 12010KT CAVOK 35/13 Q1009;
0072825640999992007081021004-05533-047500FM-15+0123SBIZ V0209999C00001220001CN0099001N1+03201+01501999999ADDMA1101021999999REMMET045METAR SBIZ 102100Z 00000KT CAVOK 32/15 Q1010;
0072825640999992007081022004-05533-047500FM-15+0123SBIZ V0209999C00001220001CN0099001N1+02801+01501999999ADDMA1101021999999REMMET045METAR SBIZ 102200Z 00000KT CAVOK 28/15 Q1010;
0072825640999992007081023004-05533-047500FM-15+0123SBIZ V0209999C00001220001CN0099001N1+02601+01501999999ADDMA1101081999999REMMET045METAR SBIZ 102300Z 00000KT CAVOK 26/15 Q1011;
0072825640999992007081100004-05533-047500FM-15+0123SBIZ V0209999C00001220001CN0099001N1+02401+01601999999ADDMA1101191999999REMMET045METAR SBIZ 110000Z 00000KT CAVOK 24/16 Q1012;
0072825640999992007081101004-05533-047500FM-15+0123SBIZ V0209999C00001220001CN0099001N1+02301+01601999999ADDMA1101191999999REMMET045METAR SBIZ 110100Z 00000KT CAVOK 23/16 Q1012;
0072825640999992007081102004-05533-047500FM-15+0123SBIZ V0209999C00001220001CN0099001N1+02201+01601999999ADDMA1101291999999REMMET045METAR SBIZ 110200Z 00000KT CAVOK 22/16 Q1013;
0072825640999992007081103004-05533-047500FM-15+0123SBIZ V0209999C00001220001CN0099001N1+02001+01701999999ADDMA1101291999999REMMET045METAR SBIZ 110300Z 00000KT CAVOK 20/17 Q1013;
0120825640999992007081109004-05533-047500FM-15+0123SBIZ V0209999C000012200019N0070001N1+01701+01501999999ADDGF100991999999999999999999MA1101191999999REMMET048METAR SBIZ 110900Z 00000KT 7000 SKC 17/15 Q1012;EQDQ01    003SCCGA1
0120825640999992007081110004-05533-047500FM-15+0123SBIZ V0209999C000012200019N0070001N1+01701+01501999999ADDGF100991999999999999999999MA1101291999999REMMET048METAR SBIZ 111000Z 00000KT 7000 SKC 17/15 Q1013;EQDQ01    003SCCGA1
0120825640999992007081111004-05533-047500FM-15+0123SBIZ V0209999C000012200019N0070001N1+02201+01501999999ADDGF100991999999999999999999MA1101391999999REMMET048METAR SBIZ 111100Z 00000KT 7000 SKC 22/15 Q1014;EQDQ01    003SCCGA1
0072825640999992007081112004-05533-047500FM-15+0123SBIZ V0209999C00001220001CN0099001N1+02501+01701999999ADDMA1101491999999REMMET045METAR SBIZ 111200Z 00000KT CAVOK 25/17 Q1015;
0072825640999992007081113004-05533-047500FM-15+0123SBIZ V0200901N00261220001CN0099001N1+03101+01701999999ADDMA1101391999999REMMET045METAR SBIZ 111300Z 09005KT CAVOK 31/17 Q1014;
0072825640999992007081114004-05533-047500FM-15+0123SBIZ V0200601N00511220001CN0099001N1+03301+01801999999ADDMA1101391999999REMMET045METAR SBIZ 111400Z 06010KT CAVOK 33/18 Q1014;
0072825640999992007081115004-05533-047500FM-15+0123SBIZ V0200901N00821220001CN0099001N1+03401+01701999999ADDMA1101291999999REMMET045METAR SBIZ 111500Z 09016KT CAVOK 34/17 Q1013;
0072825640999992007081116004-05533-047500FM-15+0123SBIZ V0201101N00511220001CN0099001N1+03501+01601999999ADDMA1101191999999REMMET045METAR SBIZ 111600Z 11010KT CAVOK 35/16 Q1012;
0072825640999992007081117004-05533-047500FM-15+0123SBIZ V0209999C00001220001CN0099001N1+03601+01401999999ADDMA1101081999999REMMET045METAR SBIZ 111700Z 00000KT CAVOK 36/14 Q1011;
0072825640999992007081118004-05533-047500FM-15+0123SBIZ V0201801N00511220001CN0099001N1+03801+01401999999ADDMA1101021999999REMMET045METAR SBIZ 111800Z 18010KT CAVOK 38/14 Q1010;
0072825640999992007081119004-05533-047500FM-15+0123SBIZ V0201501N00411220001CN0099001N1+03801+01401999999ADDMA1100911999999REMMET045METAR SBIZ 111900Z 15008KT CAVOK 38/14 Q1009;
0072825640999992007081120004-05533-047500FM-15+0123SBIZ V0201501N00211220001CN0099001N1+03601+01501999999ADDMA1101021999999REMMET045METAR SBIZ 112000Z 15004KT CAVOK 36/15 Q1010;
0072825640999992007081121004-05533-047500FM-15+0123SBIZ V0201501N00411220001CN0099001N1+03301+01501999999ADDMA1101021999999REMMET045METAR SBIZ 112100Z 15008KT CAVOK 33/15 Q1010;
0072825640999992007081122004-05533-047500FM-15+0123SBIZ V0209999C00001220001CN0099001N1+02901+01601999999ADDMA1101081999999REMMET045METAR SBIZ 112200Z 00000KT CAVOK 29/16 Q1011;
0072825640999992007081123004-05533-047500FM-15+0123SBIZ V0209999C00001220001CN0099001N1+02701+01701999999ADDMA1101081999999REMMET045METAR SBIZ 112300Z 00000KT CAVOK 27/17 Q1011;
0072825640999992007081200004-05533-047500FM-15+0123SBIZ V0209999C00001220001CN0099001N1+02601+01801999999ADDMA1101191999999REMMET045METAR SBIZ 120000Z 00000KT CAVOK 26/18 Q1012;
0072825640999992007081201004-05533-047500FM-15+0123SBIZ V0209999C00001220001CN0099001N1+02401+01801999999ADDMA1101291999999REMMET045METAR SBIZ 120100Z 00000KT CAVOK 24/18 Q1013;
0072825640999992007081202004-05533-047500FM-15+0123SBIZ V0209999C00001220001CN0099001N1+02301+01701999999ADDMA1101291999999REMMET045METAR SBIZ 120200Z 00000KT CAVOK 23/17 Q1013;
0072825640999992007081203004-05533-047500FM-15+0123SBIZ V0209999C00001220001CN0099001N1+02301+01701999999ADDMA1101291999999REMMET045METAR SBIZ 120300Z 00000KT CAVOK 23/17 Q1013;
0120825640999992007081209004-05533-047500FM-15+0123SBIZ V0209999C000012200019N0080001N1+01901+01701999999ADDGA1041+012001999GF104991999999999999999999MA1101291999999REMMET051METAR SBIZ 120900Z 00000KT 8000 SCT040 19/17 Q1013;
0120825640999992007081210004-05533-047500FM-15+0123SBIZ V0209999C000012200019N0112651N1+01901+01701999999ADDGA1041+012001999GF104991999999999999999999MA1101291999999REMMET051METAR SBIZ 121000Z 00000KT 9999 SCT040 19/17 Q1013;
0072825640999992007081211004-05533-047500FM-15+0123SBIZ V0209999C00001220001CN0099001N1+02101+01701999999ADDMA1101391999999REMMET045METAR SBIZ 121100Z 00000KT CAVOK 21/17 Q1014;
0072825640999992007081212004-05533-047500FM-15+0123SBIZ V0201501N00411220001CN0099001N1+02801+01801999999ADDMA1101391999999REMMET045METAR SBIZ 121200Z 15008KT CAVOK 28/18 Q1014;
0072825640999992007081213004-05533-047500FM-15+0123SBIZ V0200901N00771220001CN0099001N1+03201+01901999999ADDMA1101391999999REMMET045METAR SBIZ 121300Z 09015KT CAVOK 32/19 Q1014;
0120825640999992007081214004-05533-047500FM-15+0123SBIZ V0200901N006212200019N0112651N1+03301+01801999999ADDGA1021+009001999GF102991999999999999999999MA1101391999999REMMET051METAR SBIZ 121400Z 09012KT 9999 FEW030 33/18 Q1014;
0120825640999992007081215004-05533-047500FM-15+0123SBIZ V0200901N005112200019N0112651N1+03301+01801999999ADDGA1041+009001999GF104991999999999999999999MA1101291999999REMMET051METAR SBIZ 121500Z 09010KT 9999 SCT030 33/18 Q1013;
0120825640999992007081216004-05533-047500FM-15+0123SBIZ V0201001N007710060019N0112651N1+03401+02001999999ADDGA1071+006001999GF107991999999999999999999MA1101191999999REMMET051METAR SBIZ 121600Z 10015KT 9999 BKN020 34/20 Q1012;
0120825640999992007081217004-05533-047500FM-15+0123SBIZ V0201201N005110060019N0112651N1+03501+01801999999ADDGA1071+006001999GF107991999999999999999999MA1101081999999REMMET051METAR SBIZ 121700Z 12010KT 9999 BKN020 35/18 Q1011;
0120825640999992007081218004-05533-047500FM-15+0123SBIZ V0209999C000012200019N0112651N1+03601+01901999999ADDGA1041+006001999GF104991999999999999999999MA1101021999999REMMET051METAR SBIZ 121800Z 00000KT 9999 SCT020 36/19 Q1010;
0120825640999992007081219004-05533-047500FM-15+0123SBIZ V0209999C000012200019N0112651N1+03601+01601999999ADDGA1021+006001999GF102991999999999999999999MA1101021999999REMMET051METAR SBIZ 121900Z 00000KT 9999 FEW020 36/16 Q1010;
0120825640999992007081220004-05533-047500FM-15+0123SBIZ V0201501N003112200019N0112651N1+03401+01601999999ADDGA1021+006001999GF102991999999999999999999MA1101021999999REMMET051METAR SBIZ 122000Z 15006KT 9999 FEW020 34/16 Q1010;
0072825640999992007081221004-05533-047500FM-15+0123SBIZ V0201801N00361220001CN0099001N1+03201+01901999999ADDMA1101021999999REMMET045METAR SBIZ 122100Z 18007KT CAVOK 32/19 Q1010;
0072825640999992007081222004-05533-047500FM-15+0123SBIZ V0209999C00001220001CN0099001N1+02901+01901999999ADDMA1101081999999REMMET045METAR SBIZ 122200Z 00000KT CAVOK 29/19 Q1011;
0072825640999992007081223004-05533-047500FM-15+0123SBIZ V0209999C00001220001CN0099001N1+02801+02001999999ADDMA1101081999999REMMET045METAR SBIZ 122300Z 00000KT CAVOK 28/20 Q1011;
0072825640999992007081300004-05533-047500FM-15+0123SBIZ V0209999C00001220001CN0099001N1+02601+02001999999ADDMA1101191999999REMMET045METAR SBIZ 130000Z 00000KT CAVOK 26/20 Q1012;
0120825640999992007081301004-05533-047500FM-15+0123SBIZ V0209999C000012200019N0090001N1+02501+02001999999ADDGF100991999999999999999999MA1101191999999REMMET048METAR SBIZ 130100Z 00000KT 9000 SKC 25/20 Q1012;EQDQ01    003SCCGA1
0072825640999992007081302004-05533-047500FM-15+0123SBIZ V0201101N00261220001CN0099001N1+02501+01901999999ADDMA1101291999999REMMET045METAR SBIZ 130200Z 11005KT CAVOK 25/19 Q1013;
0072825640999992007081303004-05533-047500FM-15+0123SBIZ V0209999C00001220001CN0099001N1+02401+02001999999ADDMA1101291999999REMMET045METAR SBIZ 130300Z 00000KT CAVOK 24/20 Q1013;
0120825640999992007081309004-05533-047500FM-15+0123SBIZ V0209999C000012200019N0080001N1+02201+01901999999ADDGF100991999999999999999999MA1101291999999REMMET048METAR SBIZ 130900Z 00000KT 8000 NSC 22/19 Q1013;EQDQ01    003SCCGA1
0129825640999992007081310004-05533-047500FM-15+0123SBIZ V0209999C000012200019N0050001N1+02101+01901999999ADDGF100991999999999999999999MA1101391999999MW1101REMMET051METAR SBIZ 131000Z 00000KT 5000 BR NSC 21/19 Q1014;EQDQ01    003SCCGA1
0129825640999992007081311004-05533-047500FM-15+0123SBIZ V0201301N002112200019N0050001N1+02501+01901999999ADDGF100991999999999999999999MA1101491999999MW1041REMMET051METAR SBIZ 131100Z 13004KT 5000 FU NSC 25/19 Q1015;EQDQ01    003SCCGA1
0120825640999992007081312004-05533-047500FM-15+0123SBIZ V0201101N003112200019N0080001N1+02801+01901999999ADDGF100991999999999999999999MA1101491999999REMMET048METAR SBIZ 131200Z 11006KT 8000 NSC 28/19 Q1015;EQDQ01    003SCCGA1
0120825640999992007081313004-05533-047500FM-15+0123SBIZ V0201201N007712200019N0112651N1+03101+01901999999ADDGA1021+006001999GF102991999999999999999999MA1101491999999REMMET051METAR SBIZ 131300Z 12015KT 9999 FEW020 31/19 Q1015;
0072825640999992007081314004-05533-047500FM-15+0123SBIZ V0201201N00511220001CN0099001N1+03301+01801999999ADDMA1101391999999REMMET045METAR SBIZ 131400Z 12010KT CAVOK 33/18 Q1014;
0072825640999992007081315004-05533-047500FM-15+0123SBIZ V0201301N00411220001CN0099001N1+03401+01701999999ADDMA1101291999999REMMET045METAR SBIZ 131500Z 13008KT CAVOK 34/17 Q1013;
0072825640999992007081316004-05533-047500FM-15+0123SBIZ V0201401N00621220001CN0099001N1+03501+01901999999ADDMA1101191999999REMMET045METAR SBIZ 131600Z 14012KT CAVOK 35/19 Q1012;
0120825640999992007081317004-05533-047500FM-15+0123SBIZ V0202101N010312200019N0112651N1+03501+01701999999ADDGA1021+006001999GF102991999999999999999999MA1101081999999REMMET051METAR SBIZ 131700Z 21020KT 9999 FEW020 35/17 Q1011;
0120825640999992007081318004-05533-047500FM-15+0123SBIZ V0201801N005112200019N0112651N1+03601+01701999999ADDGA1021+006001999GF102991999999999999999999MA1101021999999REMMET051METAR SBIZ 131800Z 18010KT 9999 FEW020 36/17 Q1010;
0120825640999992007081319004-05533-047500FM-15+0123SBIZ V0201301N007712200019N0112651N1+03501+01501999999ADDGA1021+006001999GF102991999999999999999999MA1101021999999REMMET051METAR SBIZ 131900Z 13015KT 9999 FEW020 35/15 Q1010;
0120825640999992007081320004-05533-047500FM-15+0123SBIZ V0201501N006212200019N0112651N1+03401+01601999999ADDGA1021+006001999GF102991999999999999999999MA1101021999999REMMET051METAR SBIZ 132000Z 15012KT 9999 FEW020 34/16 Q1010;
0072825640999992007081321004-05533-047500FM-15+0123SBIZ V0201801N00151220001CN0099001N1+03201+01601999999ADDMA1101021999999REMMET045METAR SBIZ 132100Z 18003KT CAVOK 32/16 Q1010;
0072825640999992007081322004-05533-047500FM-15+0123SBIZ V0209999C00001220001CN0099001N1+02801+01501999999ADDMA1101081999999REMMET045METAR SBIZ 132200Z 00000KT CAVOK 28/15 Q1011;
0072825640999992007081323004-05533-047500FM-15+0123SBIZ V0209999C00001220001CN0099001N1+02701+02302999999ADDMA1101081999999REMMET045METAR SBIZ 132300Z 00000KT CAVOK 27/23 Q1011;
0072825640999992007081400004-05533-047500FM-15+0123SBIZ V0209999C00001220001CN0099001N1+02501+01601999999ADDMA1101191999999REMMET045METAR SBIZ 140000Z 00000KT CAVOK 25/16 Q1012;
0072825640999992007081401004-05533-047500FM-15+0123SBIZ V0209999C00001220001CN0099001N1+02301+01501999999ADDMA1101291999999REMMET045METAR SBIZ 140100Z 00000KT CAVOK 23/15 Q1013;
0072825640999992007081402004-05533-047500FM-15+0123SBIZ V0209999C00001220001CN0099001N1+02201+01701999999ADDMA1101291999999REMMET045METAR SBIZ 140200Z 00000KT CAVOK 22/17 Q1013;
0072825640999992007081403004-05533-047500FM-15+0123SBIZ V0209999C00001220001CN0099001N1+02101+01701999999ADDMA1101291999999REMMET045METAR SBIZ 140300Z 00000KT CAVOK 21/17 Q1013;
0072825640999992007081404004-05533-047500FM-15+0123SBIZ V0209999C00001220001CN0099001N1+02101+01601999999ADDMA1101191999999REMMET045METAR SBIZ 140400Z 00000KT CAVOK 21/16 Q1012;
0072825640999992007081405004-05533-047500FM-15+0123SBIZ V0209999C00001220001CN0099001N1+02001+01701999999ADDMA1101191999999REMMET045METAR SBIZ 140500Z 00000KT CAVOK 20/17 Q1012;
0120825640999992007081409004-05533-047500FM-15+0123SBIZ V0201301N002112200019N0060001N1+01801+01601999999ADDGF100991999999999999999999MA1101191999999REMMET048METAR SBIZ 140900Z 13004KT 6000 SKC 18/16 Q1012;EQDQ01    003SCCGA1
0120825640999992007081410004-05533-047500FM-15+0123SBIZ V0202701N002112200019N0080001N1+01801+01601999999ADDGF100991999999999999999999MA1101291999999REMMET048METAR SBIZ 141000Z 27004KT 8000 SKC 18/16 Q1013;EQDQ01    003SCCGA1
0072825640999992007081411004-05533-047500FM-15+0123SBIZ V0209999C00001220001CN0099001N1+02301+01601999999ADDMA1101291999999REMMET045METAR SBIZ 141100Z 00000KT CAVOK 23/16 Q1013;
0072825640999992007081412004-05533-047500FM-15+0123SBIZ V0201301N00261220001CN0099001N1+02801+01601999999ADDMA1101291999999REMMET045METAR SBIZ 141200Z 13005KT CAVOK 28/16 Q1013;
0072825640999992007081413004-05533-047500FM-15+0123SBIZ V0201501N00771220001CN0099001N1+03201+01701999999ADDMA1101391999999REMMET045METAR SBIZ 141300Z 15015KT CAVOK 32/17 Q1014;
0072825640999992007081414004-05533-047500FM-15+0123SBIZ V0201301N00981220001CN0099001N1+03301+01601999999ADDMA1101291999999REMMET045METAR SBIZ 141400Z 13019KT CAVOK 33/16 Q1013;
0072825640999992007081415004-05533-047500FM-15+0123SBIZ V0200801N01181220001CN0099001N1+03401+01701999999ADDMA1101291999999REMMET045METAR SBIZ 141500Z 08023KT CAVOK 34/17 Q1013;
0072825640999992007081416004-05533-047500FM-15+0123SBIZ V0201001N00931220001CN0099001N1+03501+01801999999ADDMA1101081999999REMMET045METAR SBIZ 141600Z 10018KT CAVOK 35/18 Q1011;
0120825640999992007081417004-05533-047500FM-15+0123SBIZ V0201801N005712200019N0112651N1+03601+01601999999ADDGA1021+009001999GF102991999999999999999999MA1101021999999REMMET051METAR SBIZ 141700Z 18011KT 9999 FEW030 36/16 Q1010;
0120825640999992007081418004-05533-047500FM-15+0123SBIZ V0201801N005112200019N0112651N1+03601+01701999999ADDGA1041+009001999GF104991999999999999999999MA1100911999999REMMET051METAR SBIZ 141800Z 18010KT 9999 SCT030 36/17 Q1009;
0120825640999992007081419004-05533-047500FM-15+0123SBIZ V0201001N006212200019N0112651N1+03601+01701999999ADDGA1021+009001999GF102991999999999999999999MA1100911999999REMMET051METAR SBIZ 141900Z 10012KT 9999 FEW030 36/17 Q1009;
0120825640999992007081420004-05533-047500FM-15+0123SBIZ V0201001N005112200019N0112651N1+03401+01701999999ADDGA1021+009001999GF102991999999999999999999MA1100911999999REMMET051METAR SBIZ 142000Z 10010KT 9999 FEW030 34/17 Q1009;
0120825640999992007081421004-05533-047500FM-15+0123SBIZ V0200901N002612200019N0112651N1+03101+01701999999ADDGA1021+009001999GF102991999999999999999999MA1101021999999REMMET051METAR SBIZ 142100Z 09005KT 9999 FEW030 31/17 Q1010;
0072825640999992007081422004-05533-047500FM-15+0123SBIZ V0201101N00411220001CN0099001N1+02901+01501999999ADDMA1101021999999REMMET045METAR SBIZ 142200Z 11008KT CAVOK 29/15 Q1010;
0072825640999992007081423004-05533-047500FM-15+0123SBIZ V0200901N00411220001CN0099001N1+02801+01601999999ADDMA1101081999999REMMET045METAR SBIZ 142300Z 09008KT CAVOK 28/16 Q1011;
0072825640999992007081500004-05533-047500FM-15+0123SBIZ V0201001N00411220001CN0099001N1+02701+01701999999ADDMA1101191999999REMMET045METAR SBIZ 150000Z 10008KT CAVOK 27/17 Q1012;
0120825640999992007081501004-05533-047500FM-15+0123SBIZ V0201001N004112200019N0080001N1+02601+01701999999ADDGF100991999999999999999999MA1101191999999REMMET048METAR SBIZ 150100Z 10008KT 8000 SKC 26/17 Q1012;EQDQ01    003SCCGA1
0120825640999992007081502004-05533-047500FM-15+0123SBIZ V0200901N004112200019N0060001N1+02501+01701999999ADDGF100991999999999999999999MA1101291999999REMMET048METAR SBIZ 150200Z 09008KT 6000 SKC 25/17 Q1013;EQDQ01    003SCCGA1
0120825640999992007081503004-05533-047500FM-15+0123SBIZ V0201001N004112200019N0060001N1+02401+01701999999ADDGF100991999999999999999999MA1101291999999REMMET048METAR SBIZ 150300Z 10008KT 6000 SKC 24/17 Q1013;EQDQ01    003SCCGA1
0129825640999992007081509004-05533-047500FM-15+0123SBIZ V0209999C000012200019N0050001N1+01901+01701999999ADDGF100991999999999999999999MA1101191999999MW1101REMMET051METAR SBIZ 150900Z 00000KT 5000 BR SKC 19/17 Q1012;EQDQ01    003SCCGA1
0120825640999992007081510004-05533-047500FM-15+0123SBIZ V0209999C000012200019N0080001N1+01901+01701999999ADDGF100991999999999999999999MA1101191999999REMMET048METAR SBIZ 151000Z 00000KT 8000 SKC 19/17 Q1012;EQDQ01    003SCCGA1
0129825640999992007081511004-05533-047500FM-15+0123SBIZ V0201101N001512200019N0030001N1+02401+01801999999ADDGF100991999999999999999999MA1101291999999MW1041REMMET051METAR SBIZ 151100Z 11003KT 3000 FU SKC 24/18 Q1013;EQDQ01    003SCCGA1
0129825640999992007081512004-05533-047500FM-15+0123SBIZ V0209999C000012200019N0050001N1+02801+01801999999ADDGF100991999999999999999999MA1101291999999MW1041REMMET051METAR SBIZ 151200Z 00000KT 5000 FU SKC 28/18 Q1013;EQDQ01    003SCCGA1
0072825640999992007081513004-05533-047500FM-15+0123SBIZ V0201801N00511220001CN0099001N1+03101+01501999999ADDMA1101391999999REMMET045METAR SBIZ 151300Z 18010KT CAVOK 31/15 Q1014;
0072825640999992007081514004-05533-047500FM-15+0123SBIZ V0201801N00511220001CN0099001N1+03301+01501999999ADDMA1101291999999REMMET045METAR SBIZ 151400Z 18010KT CAVOK 33/15 Q1013;
0072825640999992007081515004-05533-047500FM-15+0123SBIZ V0201601N00621220001CN0099001N1+03401+01601999999ADDMA1101291999999REMMET045METAR SBIZ 151500Z 16012KT CAVOK 34/16 Q1013;
0072825640999992007081517004-05533-047500FM-15+0123SBIZ V0201501N01031220001CN0099001N1+03601+01201999999ADDMA1101081999999REMMET045METAR SBIZ 151700Z 15020KT CAVOK 36/12 Q1011;
0072825640999992007081518004-05533-047500FM-15+0123SBIZ V0201801N00621220001CN0099001N1+03601+01201999999ADDMA1101021999999REMMET045METAR SBIZ 151800Z 18012KT CAVOK 36/12 Q1010;
0072825640999992007081519004-05533-047500FM-15+0123SBIZ V0201801N00511220001CN0099001N1+03601+01201999999ADDMA1100911999999REMMET045METAR SBIZ 151900Z 18010KT CAVOK 36/12 Q1009;
0072825640999992007081520004-05533-047500FM-15+0123SBIZ V0201801N00211220001CN0099001N1+03401+01201999999ADDMA1100911999999REMMET045METAR SBIZ 152000Z 18004KT CAVOK 34/12 Q1009;
0072825640999992007081521004-05533-047500FM-15+0123SBIZ V0201801N00411220001CN0099001N1+03301+01201999999ADDMA1101021999999REMMET045METAR SBIZ 152100Z 18008KT CAVOK 33/12 Q1010;
0072825640999992007081522004-05533-047500FM-15+0123SBIZ V0209999C00001220001CN0099001N1+02901+01501999999ADDMA1101021999999REMMET045METAR SBIZ 152200Z 00000KT CAVOK 29/15 Q1010;
0072825640999992007081523004-05533-047500FM-15+0123SBIZ V0209999C00001220001CN0099001N1+02701+01501999999ADDMA1101081999999REMMET045METAR SBIZ 152300Z 00000KT CAVOK 27/15 Q1011;
0072825640999992007081600004-05533-047500FM-15+0123SBIZ V0200701N00511220001CN0099001N1+02501+01501999999ADDMA1101191999999REMMET045METAR SBIZ 160000Z 07010KT CAVOK 25/15 Q1012;
0072825640999992007081601004-05533-047500FM-15+0123SBIZ V0209999C00001220001CN0099001N1+02401+01501999999ADDMA1101291999999REMMET045METAR SBIZ 160100Z 00000KT CAVOK 24/15 Q1013;
0072825640999992007081613004-05533-047500FM-15+0123SBIZ V0201001N00821220001CN0099001N1+03001+01601999999ADDMA1101391999999REMMET045METAR SBIZ 161300Z 10016KT CAVOK 30/16 Q1014;
0072825640999992007081614004-05533-047500FM-15+0123SBIZ V0201301N00621220001CN0099001N1+03201+01501999999ADDMA1101391999999REMMET045METAR SBIZ 161400Z 13012KT CAVOK 32/15 Q1014;
0072825640999992007081615004-05533-047500FM-15+0123SBIZ V0200901N00511220001CN0099001N1+03301+01501999999ADDMA1101291999999REMMET045METAR SBIZ 161500Z 09010KT CAVOK 33/15 Q1013;
0072825640999992007081616004-05533-047500FM-15+0123SBIZ V0201501N00511220001CN0099001N1+03501+01501999999ADDMA1101191999999REMMET045METAR SBIZ 161600Z 15010KT CAVOK 35/15 Q1012;
0072825640999992007081617004-05533-047500FM-15+0123SBIZ V0201101N00621220001CN0099001N1+03501+01501999999ADDMA1101081999999REMMET045METAR SBIZ 161700Z 11012KT CAVOK 35/15 Q1011;
0072825640999992007083002004-05533-047500FM-15+0123SBIZ V0209999C00001220001CN0099001N1+02601+02101999999ADDMA1101291999999REMMET045METAR SBIZ 300200Z 00000KT CAVOK 26/21 Q1013;
0120825640999992007083113004-05533-047500FM-15+0123SBIZ V0200601N002112200019N0112651N1+03001+02201999999ADDGA1041+006001999GF104991999999999999999999MA1101591999999REMMET051METAR SBIZ 311300Z 06004KT 9999 SCT020 30/22 Q1016;
0120825640999992007083114004-05533-047500FM-15+0123SBIZ V0200901N007710060019N0112651N1+03201+02001999999ADDGA1071+006001999GF107991999999999999999999MA1101491999999REMMET051METAR SBIZ 311400Z 09015KT 9999 BKN020 32/20 Q1015;
0120825640999992007083115004-05533-047500FM-15+0123SBIZ V0201001N007710060019N0112651N1+03401+02101999999ADDGA1071+006001999GF107991999999999999999999MA1101391999999REMMET051METAR SBIZ 311500Z 10015KT 9999 BKN020 34/21 Q1014;
0072825640999992007083122004-05533-047500FM-15+0123SBIZ V0200901N00151220001CN0099001N1+02901+01901999999ADDMA1101191999999REMMET045METAR SBIZ 312200Z 09003KT CAVOK 29/19 Q1012;
0072825640999992007083123004-05533-047500FM-15+0123SBIZ V0201201N00151220001CN0099001N1+02801+01901999999ADDMA1101191999999REMMET045METAR SBIZ 312300Z 12003KT CAVOK 28/19 Q1012;
0072825640999992007090100004-05533-047500FM-15+0123SBIZ V0201201N00411220001CN0099001N1+02801+02001999999ADDMA1101291999999REMMET045METAR SBIZ 010000Z 12008KT CAVOK 28/20 Q1013;
0072825640999992007090101004-05533-047500FM-15+0123SBIZ V0201301N00311220001CN0099001N1+02701+02001999999ADDMA1101291999999REMMET045METAR SBIZ 010100Z 13006KT CAVOK 27/20 Q1013;
0072825640999992007090102004-05533-047500FM-15+0123SBIZ V0201301N00311220001CN0099001N1+02601+02001999999ADDMA1101391999999REMMET045METAR SBIZ 010200Z 13006KT CAVOK 26/20 Q1014;
0072825640999992007090103004-05533-047500FM-15+0123SBIZ V0200901N00511220001CN0099001N1+02501+02001999999ADDMA1101391999999REMMET045METAR SBIZ 010300Z 09010KT CAVOK 25/20 Q1014;
0120825640999992007090109004-05533-047500FM-15+0123SBIZ V0200601N002112200019N0060001N1+02301+02001999999ADDGF100991999999999999999999MA1101391999999REMMET048METAR SBIZ 010900Z 06004KT 6000 SKC 23/20 Q1014;EQDQ01    003SCCGA1
0072825640999992007090110004-05533-047500FM-15+0123SBIZ V0209999C00001220001CN0099001N1+02301+02001999999ADDMA1101491999999REMMET045METAR SBIZ 011000Z 00000KT CAVOK 23/20 Q1015;
0072825640999992007090111004-05533-047500FM-15+0123SBIZ V0200601N00461220001CN0099001N1+02701+02101999999ADDMA1101491999999REMMET045METAR SBIZ 011100Z 06009KT CAVOK 27/21 Q1015;
0072825640999992007090112004-05533-047500FM-15+0123SBIZ V0201101N00511220001CN0099001N1+02801+02001999999ADDMA1101591999999REMMET045METAR SBIZ 011200Z 11010KT CAVOK 28/20 Q1016;
0072825640999992007090113004-05533-047500FM-15+0123SBIZ V0201501N00931220001CN0099001N1+03101+01901999999ADDMA1101591999999REMMET045METAR SBIZ 011300Z 15018KT CAVOK 31/19 Q1016;
0072825640999992007090114004-05533-047500FM-15+0123SBIZ V0201201N00931220001CN0099001N1+03301+01801999999ADDMA1101491999999REMMET045METAR SBIZ 011400Z 12018KT CAVOK 33/18 Q1015;
0120825640999992007090115004-05533-047500FM-15+0123SBIZ V0201201N007712200019N0112651N1+03401+01801999999ADDGA1021+006001999GF102991999999999999999999MA1101391999999REMMET051METAR SBIZ 011500Z 12015KT 9999 FEW020 34/18 Q1014;
0120825640999992007090116004-05533-047500FM-15+0123SBIZ V0201801N005112200019N0112651N1+03601+01701999999ADDGA1041+006001999GF104991999999999999999999MA1101291999999REMMET051METAR SBIZ 011600Z 18010KT 9999 SCT020 36/17 Q1013;
0120825640999992007090117004-05533-047500FM-15+0123SBIZ V0200901N003112200019N0112651N1+03701+01601999999ADDGA1041+006001999GF104991999999999999999999MA1101191999999REMMET051METAR SBIZ 011700Z 09006KT 9999 SCT020 37/16 Q1012;
0120825640999992007090118004-05533-047500FM-15+0123SBIZ V0201501N005112200019N0112651N1+03701+01501999999ADDGA1041+006001999GF104991999999999999999999MA1101081999999REMMET051METAR SBIZ 011800Z 15010KT 9999 SCT020 37/15 Q1011;
0120825640999992007090119004-05533-047500FM-15+0123SBIZ V0201801N005112200019N0112651N1+03701+01501999999ADDGA1041+006001999GF104991999999999999999999MA1101081999999REMMET051METAR SBIZ 011900Z 18010KT 9999 SCT020 37/15 Q1011;
0120825640999992007090120004-05533-047500FM-15+0123SBIZ V0201501N003112200019N0112651N1+03501+01501999999ADDGA1021+006001999GF102991999999999999999999MA1101081999999REMMET051METAR SBIZ 012000Z 15006KT 9999 FEW020 35/15 Q1011;
0143825640999992007090121004-05533-047500FM-15+0123SBIZ V0209999C000012200019N0080001N1+03301+01701999999ADDGA1021+006001999GA2041+120001999GF104991999999999999999999MA1101081999999REMMET058METAR SBIZ 012100Z 00000KT 8000 FEW020 SCT400 33/17 Q1011;
0120825640999992007090122004-05533-047500FM-15+0123SBIZ V0209999C000012200019N0080001N1+03001+01701999999ADDGF100991999999999999999999MA1101081999999REMMET048METAR SBIZ 012200Z 00000KT 8000 NSC 30/17 Q1011;EQDQ01    003SCCGA1
0120825640999992007090123004-05533-047500FM-15+0123SBIZ V0209999C000012200019N0080001N1+02901+01801999999ADDGF100991999999999999999999MA1101081999999REMMET048METAR SBIZ 012300Z 00000KT 8000 NSC 29/18 Q1011;EQDQ01    003SCCGA1
0120825640999992007090200004-05533-047500FM-15+0123SBIZ V0209999C000012200019N0080001N1+02801+01901999999ADDGF100991999999999999999999MA1101191999999REMMET048METAR SBIZ 020000Z 00000KT 8000 NSC 28/19 Q1012;EQDQ01    003SCCGA1
0120825640999992007090201004-05533-047500FM-15+0123SBIZ V0201001N001512200019N0080001N1+02801+01801999999ADDGF100991999999999999999999MA1101291999999REMMET048METAR SBIZ 020100Z 10003KT 8000 NSC 28/18 Q1013;EQDQ01    003SCCGA1
0120825640999992007090202004-05533-047500FM-15+0123SBIZ V0209999C000012200019N0070001N1+02701+02001999999ADDGF100991999999999999999999MA1101391999999REMMET048METAR SBIZ 020200Z 00000KT 7000 NSC 27/20 Q1014;EQDQ01    003SCCGA1
0120825640999992007090203004-05533-047500FM-15+0123SBIZ V0209999C000012200019N0070001N1+02601+01901999999ADDGF100991999999999999999999MA1101291999999REMMET048METAR SBIZ 020300Z 00000KT 7000 NSC 26/19 Q1013;EQDQ01    003SCCGA1
0120825640999992007090209004-05533-047500FM-15+0123SBIZ V0209999C000012200019N0060001N1+02301+01901999999ADDGF100991999999999999999999MA1101391999999REMMET048METAR SBIZ 020900Z 00000KT 6000 NSC 23/19 Q1014;EQDQ01    003SCCGA1
0072825640999992007090210004-05533-047500FM-15+0123SBIZ V0201201N00511220001CN0099001N1+02301+01901999999ADDMA1101491999999REMMET045METAR SBIZ 021000Z 12010KT CAVOK 23/19 Q1015;
0072825640999992007090211004-05533-047500FM-15+0123SBIZ V0200901N00511220001CN0099001N1+02701+02001999999ADDMA1101591999999REMMET045METAR SBIZ 021100Z 09010KT CAVOK 27/20 Q1016;
0072825640999992007090212004-05533-047500FM-15+0123SBIZ V0200901N00511220001CN0099001N1+02901+02001999999ADDMA1101591999999REMMET045METAR SBIZ 021200Z 09010KT CAVOK 29/20 Q1016;
0072825640999992007090213004-05533-047500FM-15+0123SBIZ V0200601N00771220001CN0099001N1+03201+02001999999ADDMA1101591999999REMMET045METAR SBIZ 021300Z 06015KT CAVOK 32/20 Q1016;
0072825640999992007090214004-05533-047500FM-15+0123SBIZ V0201201N01031220001CN0099001N1+03301+01901999999ADDMA1101491999999REMMET045METAR SBIZ 021400Z 12020KT CAVOK 33/19 Q1015;
0072825640999992007090215004-05533-047500FM-15+0123SBIZ V0201201N01031220001CN0099001N1+03401+01801999999ADDMA1101391999999REMMET045METAR SBIZ 021500Z 12020KT CAVOK 34/18 Q1014;
0072825640999992007090216004-05533-047500FM-15+0123SBIZ V0201801N00511220001CN0099001N1+03601+01701999999ADDMA1101291999999REMMET045METAR SBIZ 021600Z 18010KT CAVOK 36/17 Q1013;
0072825640999992007090217004-05533-047500FM-15+0123SBIZ V0201801N00621220001CN0099001N1+03701+01401999999ADDMA1101191999999REMMET045METAR SBIZ 021700Z 18012KT CAVOK 37/14 Q1012;
0120825640999992007090218004-05533-047500FM-15+0123SBIZ V0200801N003612200019N0112651N1+03701+01701999999ADDGA1041+006001999GF104991999999999999999999MA1101081999999REMMET051METAR SBIZ 021800Z 08007KT 9999 SCT020 37/17 Q1011;
0120825640999992007090219004-05533-047500FM-15+0123SBIZ V0201301N001512200019N0112651N1+03501+01701999999ADDGA1041+006001999GF104991999999999999999999MA1101021999999REMMET051METAR SBIZ 021900Z 13003KT 9999 SCT020 35/17 Q1010;
0120825640999992007090220004-05533-047500FM-15+0123SBIZ V0209999C000012200019N0112651N1+03501+01701999999ADDGA1021+006001999GF102991999999999999999999MA1101021999999REMMET051METAR SBIZ 022000Z 00000KT 9999 FEW020 35/17 Q1010;
0072825640999992007090221004-05533-047500FM-15+0123SBIZ V0201501N00361220001CN0099001N1+03301+01701999999ADDMA1101081999999REMMET045METAR SBIZ 022100Z 15007KT CAVOK 33/17 Q1011;
0120825640999992007090222004-05533-047500FM-15+0123SBIZ V0209999C000012200019N0080001N1+03001+01701999999ADDGF100991999999999999999999MA1101081999999REMMET048METAR SBIZ 022200Z 00000KT 8000 SKC 30/17 Q1011;EQDQ01    003SCCGA1
0120825640999992007090223004-05533-047500FM-15+0123SBIZ V0209999C000012200019N0080001N1+02801+01801999999ADDGF100991999999999999999999MA1101191999999REMMET048METAR SBIZ 022300Z 00000KT 8000 SKC 28/18 Q1012;EQDQ01    003SCCGA1
0120825640999992007090300004-05533-047500FM-15+0123SBIZ V0201201N001012200019N0080001N1+02601+01901999999ADDGF100991999999999999999999MA1101191999999REMMET048METAR SBIZ 030000Z 12002KT 8000 SKC 26/19 Q1012;EQDQ01    003SCCGA1
0120825640999992007090301004-05533-047500FM-15+0123SBIZ V0209999C000012200019N0080001N1+02501+01701999999ADDGF100991999999999999999999MA1101291999999REMMET048METAR SBIZ 030100Z 00000KT 8000 SKC 25/17 Q1013;EQDQ01    003SCCGA1
0120825640999992007090302004-05533-047500FM-15+0123SBIZ V0209999C000012200019N0080001N1+02501+01801999999ADDGF100991999999999999999999MA1101291999999REMMET048METAR SBIZ 030200Z 00000KT 8000 SKC 25/18 Q1013;EQDQ01    003SCCGA1
0120825640999992007090303004-05533-047500FM-15+0123SBIZ V0209999C000012200019N0080001N1+02501+01801999999ADDGF100991999999999999999999MA1101291999999REMMET048METAR SBIZ 030300Z 00000KT 8000 SKC 25/18 Q1013;EQDQ01    003SCCGA1
0129825640999992007090309004-05533-047500FM-15+0123SBIZ V0201501N005112200019N0045001N1+02201+01901999999ADDGA1021+004501999GF102991999999999999999999MA1101391999999MW1101REMMET054METAR SBIZ 030900Z 15010KT 4500 BR FEW015 22/19 Q1014;
0120825640999992007090310004-05533-047500FM-15+0123SBIZ V0201201N001512200019N0070001N1+02301+01901999999ADDGF100991999999999999999999MA1101491999999REMMET048METAR SBIZ 031000Z 12003KT 7000 SKC 23/19 Q1015;EQDQ01    003SCCGA1
0120825640999992007090311004-05533-047500FM-15+0123SBIZ V0201201N003612200019N0080001N1+02601+02001999999ADDGF100991999999999999999999MA1101591999999REMMET048METAR SBIZ 031100Z 12007KT 8000 SKC 26/20 Q1016;EQDQ01    003SCCGA1
0120825640999992007090312004-05533-047500FM-15+0123SBIZ V0200701N006712200019N0090001N1+02901+02101999999ADDGF100991999999999999999999MA1101591999999REMMET048METAR SBIZ 031200Z 07013KT 9000 SKC 29/21 Q1016;EQDQ01    003SCCGA1
0120825640999992007090313004-05533-047500FM-15+0123SBIZ V0201001N006212200019N0090001N1+03201+02001999999ADDGA1041+006001999GF104991999999999999999999MA1101591999999REMMET051METAR SBIZ 031300Z 10012KT 9000 SCT020 32/20 Q1016;
0120825640999992007090314004-05533-047500FM-15+0123SBIZ V0201201N005112200019N0112651N1+03301+01701999999ADDGA1021+006001999GF102991999999999999999999MA1101491999999REMMET051METAR SBIZ 031400Z 12010KT 9999 FEW020 33/17 Q1015;
0120825640999992007090315004-05533-047500FM-15+0123SBIZ V0200901N005112200019N0112651N1+03401+01901999999ADDGA1021+006001999GF102991999999999999999999MA1101491999999REMMET051METAR SBIZ 031500Z 09010KT 9999 FEW020 34/19 Q1015;
0120825640999992007090316004-05533-047500FM-15+0123SBIZ V0200901N005112200019N0112651N1+03601+01801999999ADDGA1021+006001999GF102991999999999999999999MA1101291999999REMMET051METAR SBIZ 031600Z 09010KT 9999 FEW020 36/18 Q1013;
0120825640999992007090317004-05533-047500FM-15+0123SBIZ V0201201N007212200019N0112651N1+03701+01801999999ADDGA1021+006001999GF102991999999999999999999MA1101191999999REMMET051METAR SBIZ 031700Z 12014KT 9999 FEW020 37/18 Q1012;
0120825640999992007090318004-05533-047500FM-15+0123SBIZ V0201501N005112200019N0112651N1+03701+01801999999ADDGA1021+006001999GF102991999999999999999999MA1101081999999REMMET051METAR SBIZ 031800Z 15010KT 9999 FEW020 37/18 Q1011;
0120825640999992007090319004-05533-047500FM-15+0123SBIZ V0201501N005112200019N0112651N1+03601+01901999999ADDGA1021+006001999GF102991999999999999999999MA1101081999999REMMET051METAR SBIZ 031900Z 15010KT 9999 FEW020 36/19 Q1011;
0120825640999992007090320004-05533-047500FM-15+0123SBIZ V0201501N002112200019N0080001N1+03501+01701999999ADDGA1021+006001999GF102991999999999999999999MA1101081999999REMMET051METAR SBIZ 032000Z 15004KT 8000 FEW020 35/17 Q1011;
0120825640999992007090321004-05533-047500FM-15+0123SBIZ V0209999C000012200019N0080001N1+03301+01701999999ADDGA1021+006001999GF102991999999999999999999MA1101081999999REMMET051METAR SBIZ 032100Z 00000KT 8000 FEW020 33/17 Q1011;
0129825640999992007090322004-05533-047500FM-15+0123SBIZ V0209999C000012200019N0050001N1+03001+01601999999ADDGF100991999999999999999999MA1101081999999MW1041REMMET051METAR SBIZ 032200Z 00000KT 5000 FU SKC 30/16 Q1011;EQDQ01    003SCCGA1
0129825640999992007090323004-05533-047500FM-15+0123SBIZ V0209999C000012200019N0050001N1+02901+01701999999ADDGF100991999999999999999999MA1101191999999MW1041REMMET051METAR SBIZ 032300Z 00000KT 5000 FU SKC 29/17 Q1012;EQDQ01    003SCCGA1
0129825640999992007090400004-05533-047500FM-15+0123SBIZ V0201501N001012200019N0030001N1+02701+01801999999ADDGF100991999999999999999999MA1101291999999MW1041REMMET051METAR SBIZ 040000Z 15002KT 3000 FU SKC 27/18 Q1013;EQDQ01    003SCCGA1
0129825640999992007090401004-05533-047500FM-15+0123SBIZ V0209999C000012200019N0040001N1+02601+01801999999ADDGF100991999999999999999999MA1101291999999MW1041REMMET051METAR SBIZ 040100Z 00000KT 4000 FU NSC 26/18 Q1013;EQDQ01    003SCCGA1
0129825640999992007090402004-05533-047500FM-15+0123SBIZ V0209999C000012200019N0040001N1+02601+01801999999ADDGF100991999999999999999999MA1101291999999MW1041REMMET051METAR SBIZ 040200Z 00000KT 4000 FU NSC 26/18 Q1013;EQDQ01    003SCCGA1
0129825640999992007090403004-05533-047500FM-15+0123SBIZ V0200301N004112200019N0040001N1+02601+01901999999ADDGF100991999999999999999999MA1101291999999MW1041REMMET051METAR SBIZ 040300Z 03008KT 4000 FU NSC 26/19 Q1013;EQDQ01    003SCCGA1
0129825640999992007090409004-05533-047500FM-15+0123SBIZ V0209999C000012200019N0035001N1+02201+01801999999ADDGF100991999999999999999999MA1101391999999MW1041REMMET051METAR SBIZ 040900Z 00000KT 3500 FU SKC 22/18 Q1014;EQDQ01    003SCCGA1
0129825640999992007090410004-05533-047500FM-15+0123SBIZ V0201301N001512200019N0040001N1+02201+01901999999ADDGF100991999999999999999999MA1101491999999MW1101REMMET051METAR SBIZ 041000Z 13003KT 4000 BR SKC 22/19 Q1015;EQDQ01    003SCCGA1
0129825640999992007090411004-05533-047500FM-15+0123SBIZ V0200601N004612200019N0050001N1+02701+02001999999ADDGF100991999999999999999999MA1101491999999MW1041REMMET051METAR SBIZ 041100Z 06009KT 5000 FU SKC 27/20 Q1015;EQDQ01    003SCCGA1
0120825640999992007090412004-05533-047500FM-15+0123SBIZ V0201201N006212200019N0080001N1+02901+02001999999ADDGF100991999999999999999999MA1101591999999REMMET048METAR SBIZ 041200Z 12012KT 8000 SKC 29/20 Q1016;EQDQ01    003SCCGA1
0120825640999992007090413004-05533-047500FM-15+0123SBIZ V0201001N009312200019N0090001N1+03101+01901999999ADDGF100991999999999999999999MA1101591999999REMMET048METAR SBIZ 041300Z 10018KT 9000 SKC 31/19 Q1016;EQDQ01    003SCCGA1
0120825640999992007090415004-05533-047500FM-15+0123SBIZ V0201201N009312200019N0090001N1+03401+01801999999ADDGF100991999999999999999999MA1101391999999REMMET048METAR SBIZ 041500Z 12018KT 9000 SKC 34/18 Q1014;EQDQ01    003SCCGA1
0129825640999992007090416004-05533-047500FM-15+0123SBIZ V0201801N006212200019N0050001N1+03501+01501999999ADDGF100991999999999999999999MA1101291999999MW1041REMMET051METAR SBIZ 041600Z 18012KT 5000 FU SKC 35/15 Q1013;EQDQ01    003SCCGA1
0129825640999992007090417004-05533-047500FM-15+0123SBIZ V0200901N006212200019N0050001N1+03601+01401999999ADDGF100991999999999999999999MA1101191999999MW1041REMMET051METAR SBIZ 041700Z 09012KT 5000 FU SKC 36/14 Q1012;EQDQ01    003SCCGA1
0129825640999992007090418004-05533-047500FM-15+0123SBIZ V0201801N008212200019N0030001N1+03701+01301999999ADDGF100991999999999999999999MA1101081999999MW1041REMMET051METAR SBIZ 041800Z 18016KT 3000 FU SKC 37/13 Q1011;EQDQ01    003SCCGA1
0129825640999992007090419004-05533-047500FM-15+0123SBIZ V0201201N006212200019N0030001N1+03601+01301999999ADDGF100991999999999999999999MA1101021999999MW1041REMMET051METAR SBIZ 041900Z 12012KT 3000 FU SKC 36/13 Q1010;EQDQ01    003SCCGA1
0129825640999992007090420004-05533-047500FM-15+0123SBIZ V0201301N004112200019N0030001N1+03501+01301999999ADDGF100991999999999999999999MA1101021999999MW1041REMMET051METAR SBIZ 042000Z 13008KT 3000 FU SKC 35/13 Q1010;EQDQ01    003SCCGA1
0129825640999992007090421004-05533-047500FM-15+0123SBIZ V0201301N003112200019N0050001N1+03301+01301999999ADDGF100991999999999999999999MA1101021999999MW1041REMMET051METAR SBIZ 042100Z 13006KT 5000 FU SKC 33/13 Q1010;EQDQ01    003SCCGA1
0129825640999992007090422004-05533-047500FM-15+0123SBIZ V0209999C000012200019N0050001N1+03001+01501999999ADDGF100991999999999999999999MA1101081999999MW1041REMMET051METAR SBIZ 042200Z 00000KT 5000 FU SKC 30/15 Q1011;EQDQ01    003SCCGA1
0129825640999992007090423004-05533-047500FM-15+0123SBIZ V0201201N002112200019N0050001N1+02901+01601999999ADDGF100991999999999999999999MA1101191999999MW1041REMMET051METAR SBIZ 042300Z 12004KT 5000 FU SKC 29/16 Q1012;EQDQ01    003SCCGA1
0129825640999992007090500004-05533-047500FM-15+0123SBIZ V0201201N003112200019N0050001N1+02801+01701999999ADDGF100991999999999999999999MA1101191999999MW1041REMMET051METAR SBIZ 050000Z 12006KT 5000 FU SKC 28/17 Q1012;EQDQ01    003SCCGA1
0129825640999992007090501004-05533-047500FM-15+0123SBIZ V0201101N002112200019N0050001N1+02701+01601999999ADDGF100991999999999999999999MA1101291999999MW1041REMMET051METAR SBIZ 050100Z 11004KT 5000 FU NSC 27/16 Q1013;EQDQ01    003SCCGA1
0129825640999992007090502004-05533-047500FM-15+0123SBIZ V0200901N004112200019N0050001N1+02801+01601999999ADDGF100991999999999999999999MA1101391999999MW1041REMMET051METAR SBIZ 050200Z 09008KT 5000 FU NSC 28/16 Q1014;EQDQ01    003SCCGA1
0129825640999992007090503004-05533-047500FM-15+0123SBIZ V0209999C000012200019N0050001N1+02601+01701999999ADDGF100991999999999999999999MA1101291999999MW1041REMMET051METAR SBIZ 050300Z 00000KT 5000 FU NSC 26/17 Q1013;EQDQ01    003SCCGA1
0120825640999992007090602004-05533-047500FM-15+0123SBIZ V0201301N002112200019N0060001N1+02501+01801999999ADDGF100991999999999999999999MA1101391999999REMMET048METAR SBIZ 060200Z 13004KT 6000 SKC 25/18 Q1014;EQDQ01    003SCCGA1
0120825640999992007090603004-05533-047500FM-15+0123SBIZ V0200901N003112200019N0080001N1+02401+02001999999ADDGF100991999999999999999999MA1101391999999REMMET048METAR SBIZ 060300Z 09006KT 8000 SKC 24/20 Q1014;EQDQ01    003SCCGA1
0120825640999992007090609004-05533-047500FM-15+0123SBIZ V0209999C000012200019N0060001N1+02101+01701999999ADDGA1041+009001999GF104991999999999999999999MA1101391999999REMMET051METAR SBIZ 060900Z 00000KT 6000 SCT030 21/17 Q1014;
0120825640999992007090610004-05533-047500FM-15+0123SBIZ V0209999C000012200019N0080001N1+02201+01701999999ADDGA1041+009001999GF104991999999999999999999MA1101491999999REMMET051METAR SBIZ 061000Z 00000KT 8000 SCT030 22/17 Q1015;
0120825640999992007090611004-05533-047500FM-15+0123SBIZ V0209999C000012200019N0080001N1+02501+01801999999ADDGA1041+009001999GF104991999999999999999999MA1101491999999REMMET051METAR SBIZ 061100Z 00000KT 8000 SCT030 25/18 Q1015;
0083825640999992007090613004-05533-047500FM-15+0123SBIZ V0201201N01031220001CN0099001N1+03301+01401999999ADDMA1101591999999OC101651REMMET048METAR SBIZ 061300Z 12020G32KT CAVOK 33/14 Q1016;
0083825640999992007090614004-05533-047500FM-15+0123SBIZ V0200901N00771220001CN0099001N1+03401+01601999999ADDMA1101491999999OC101291REMMET048METAR SBIZ 061400Z 09015G25KT CAVOK 34/16 Q1015;
0120825640999992007090615004-05533-047500FM-15+0123SBIZ V0201501N009312200019N0112651N1+03501+01501999999ADDGA1021+007501999GF102991999999999999999999MA1101391999999REMMET051METAR SBIZ 061500Z 15018KT 9999 FEW025 35/15 Q1014;
0120825640999992007090616004-05533-047500FM-15+0123SBIZ V0201501N005112200019N0112651N1+03601+01401999999ADDGA1041+006001999GF104991999999999999999999MA1101291999999REMMET051METAR SBIZ 061600Z 15010KT 9999 SCT020 36/14 Q1013;
0120825640999992007090617004-05533-047500FM-15+0123SBIZ V0201501N002612200019N0112651N1+03701+01601999999ADDGA1041+006001999GF104991999999999999999999MA1101191999999REMMET051METAR SBIZ 061700Z 15005KT 9999 SCT020 37/16 Q1012;
0120825640999992007090618004-05533-047500FM-15+0123SBIZ V0202101N002612200019N0112651N1+03701+01401999999ADDGA1041+006001999GF104991999999999999999999MA1101081999999REMMET051METAR SBIZ 061800Z 21005KT 9999 SCT020 37/14 Q1011;
0120825640999992007090619004-05533-047500FM-15+0123SBIZ V0201001N005110060019N0112651N1+03701+01401999999ADDGA1071+006001999GF107991999999999999999999MA1101021999999REMMET051METAR SBIZ 061900Z 10010KT 9999 BKN020 37/14 Q1010;
0120825640999992007090620004-05533-047500FM-15+0123SBIZ V0201501N003112200019N0060001N1+03501+01501999999ADDGA1041+006001999GF104991999999999999999999MA1101021999999REMMET051METAR SBIZ 062000Z 15006KT 6000 SCT020 35/15 Q1010;
0129825640999992007090621004-05533-047500FM-15+0123SBIZ V0201301N003112200019N0050001N1+03301+01601999999ADDGA1041+006001999GF104991999999999999999999MA1101081999999MW1041REMMET054METAR SBIZ 062100Z 13006KT 5000 FU SCT020 33/16 Q1011;
0120825640999992007090622004-05533-047500FM-15+0123SBIZ V0201301N001012200019N0080001N1+03001+01701999999ADDGA1041+009001999GF104991999999999999999999MA1101191999999REMMET051METAR SBIZ 062200Z 13002KT 8000 SCT030 30/17 Q1012;
0120825640999992007090623004-05533-047500FM-15+0123SBIZ V0209999C000012200019N0080001N1+02901+01701999999ADDGA1041+009001999GF104991999999999999999999MA1101191999999REMMET051METAR SBIZ 062300Z 00000KT 8000 SCT030 29/17 Q1012;
0120825640999992007090700004-05533-047500FM-15+0123SBIZ V0209999C000012200019N0070001N1+02801+01901999999ADDGA1041+009001999GF104991999999999999999999MA1101291999999REMMET051METAR SBIZ 070000Z 00000KT 7000 SCT030 28/19 Q1013;
0120825640999992007090701004-05533-047500FM-15+0123SBIZ V0209999C000012200019N0080001N1+02701+01801999999ADDGA1041+009001999GF104991999999999999999999MA1101291999999REMMET051METAR SBIZ 070100Z 00000KT 8000 SCT030 27/18 Q1013;
0120825640999992007090702004-05533-047500FM-15+0123SBIZ V0209999C000012200019N0080001N1+02701+02001999999ADDGA1041+009001999GF104991999999999999999999MA1101391999999REMMET051METAR SBIZ 070200Z 00000KT 8000 SCT030 27/20 Q1014;
0120825640999992007090703004-05533-047500FM-15+0123SBIZ V0201001N002612200019N0080001N1+02601+01901999999ADDGA1041+009001999GF104991999999999999999999MA1101291999999REMMET051METAR SBIZ 070300Z 10005KT 8000 SCT030 26/19 Q1013;
0120825640999992007090704004-05533-047500FM-15+0123SBIZ V0201001N001510090019N0080001N1+02601+01801999999ADDGA1071+009001999GF107991999999999999999999MA1101291999999REMMET051METAR SBIZ 070400Z 10003KT 8000 BKN030 26/18 Q1013;
0129825640999992007090709004-05533-047500FM-15+0123SBIZ V0209999C000012200019N0020001N1+02301+01901999999ADDGF100991999999999999999999MA1101391999999MW1041REMMET051METAR SBIZ 070900Z 00000KT 2000 FU NSC 23/19 Q1014;EQDQ01    003SCCGA1
0129825640999992007090710004-05533-047500FM-15+0123SBIZ V0209999C000012200019N0020001N1+02201+01801999999ADDGF100991999999999999999999MA1101491999999MW1041REMMET051METAR SBIZ 071000Z 00000KT 2000 FU SKC 22/18 Q1015;EQDQ01    003SCCGA1
0129825640999992007090711004-05533-047500FM-15+0123SBIZ V0209999C000012200019N0020001N1+02601+01901999999ADDGF100991999999999999999999MA1101591999999MW1041REMMET051METAR SBIZ 071100Z 00000KT 2000 FU SKC 26/19 Q1016;EQDQ01    003SCCGA1
0129825640999992007090712004-05533-047500FM-15+0123SBIZ V0200901N004112200019N0030001N1+02901+01901999999ADDGF100991999999999999999999MA1101591999999MW1041REMMET051METAR SBIZ 071200Z 09008KT 3000 FU SKC 29/19 Q1016;EQDQ01    003SCCGA1
0120825640999992007090713004-05533-047500FM-15+0123SBIZ V0201501N010312200019N0080001N1+03201+01501999999ADDGF100991999999999999999999MA1101591999999REMMET048METAR SBIZ 071300Z 15020KT 8000 SKC 32/15 Q1016;EQDQ01    003SCCGA1
0120825640999992007090714004-05533-047500FM-15+0123SBIZ V0201301N007712200019N0080001N1+03401+01601999999ADDGF100991999999999999999999MA1101491999999REMMET048METAR SBIZ 071400Z 13015KT 8000 SKC 34/16 Q1015;EQDQ01    003SCCGA1
0120825640999992007090715004-05533-047500FM-15+0123SBIZ V0201201N007712200019N0080001N1+03501+01501999999ADDGF100991999999999999999999MA1101391999999REMMET048METAR SBIZ 071500Z 12015KT 8000 SKC 35/15 Q1014;EQDQ01    003SCCGA1
0120825640999992007090716004-05533-047500FM-15+0123SBIZ V0201701N003612200019N0080001N1+03601+01701999999ADDGF100991999999999999999999MA1101291999999REMMET048METAR SBIZ 071600Z 17007KT 8000 SKC 36/17 Q1013;EQDQ01    003SCCGA1
0120825640999992007090717004-05533-047500FM-15+0123SBIZ V0209999C000012200019N0080001N1+03601+01601999999ADDGF100991999999999999999999MA1101081999999REMMET048METAR SBIZ 071700Z 00000KT 8000 SKC 36/16 Q1011;EQDQ01    003SCCGA1
0120825640999992007090718004-05533-047500FM-15+0123SBIZ V0200301N001512200019N0080001N1+03701+01701999999ADDGA1021+006001999GF102991999999999999999999MA1101021999999REMMET051METAR SBIZ 071800Z 03003KT 8000 FEW020 37/17 Q1010;
0120825640999992007090719004-05533-047500FM-15+0123SBIZ V0202101N005112200019N0080001N1+03701+01601999999ADDGF100991999999999999999999MA1101021999999REMMET048METAR SBIZ 071900Z 21010KT 8000 SKC 37/16 Q1010;EQDQ01    003SCCGA1
0120825640999992007090720004-05533-047500FM-15+0123SBIZ V0201101N003612200019N0080001N1+03501+01601999999ADDGA1041+006001999GF104991999999999999999999MA1101021999999REMMET051METAR SBIZ 072000Z 11007KT 8000 SCT020 35/16 Q1010;
0120825640999992007090721004-05533-047500FM-15+0123SBIZ V0201201N001510060019N0080001N1+03301+01701999999ADDGA1071+006001999GF107991999999999999999999MA1101021999999REMMET051METAR SBIZ 072100Z 12003KT 8000 BKN020 33/17 Q1010;
0120825640999992007090722004-05533-047500FM-15+0123SBIZ V0209999C000010060019N0080001N1+03101+01601999999ADDGA1071+006001999GF107991999999999999999999MA1101081999999REMMET051METAR SBIZ 072200Z 00000KT 8000 BKN020 31/16 Q1011;
0120825640999992007090723004-05533-047500FM-15+0123SBIZ V0201501N002610060019N0080001N1+03001+01701999999ADDGA1071+006001999GF107991999999999999999999MA1101191999999REMMET051METAR SBIZ 072300Z 15005KT 8000 BKN020 30/17 Q1012;
0120825640999992007090800004-05533-047500FM-15+0123SBIZ V0201001N001512200019N0080001N1+02901+01701999999ADDGA1041+006001999GF104991999999999999999999MA1101291999999REMMET051METAR SBIZ 080000Z 10003KT 8000 SCT020 29/17 Q1013;
0120825640999992007090801004-05533-047500FM-15+0123SBIZ V0201001N002112200019N0080001N1+02901+01801999999ADDGA1041+006001999GF104991999999999999999999MA1101291999999REMMET051METAR SBIZ 080100Z 10004KT 8000 SCT020 29/18 Q1013;
0120825640999992007090802004-05533-047500FM-15+0123SBIZ V0200701N002610060019N0060001N1+02901+01701999999ADDGA1071+006001999GF107991999999999999999999MA1101391999999REMMET051METAR SBIZ 080200Z 07005KT 6000 BKN020 29/17 Q1014;
0120825640999992007090803004-05533-047500FM-15+0123SBIZ V0200901N001512200019N0060001N1+02701+01801999999ADDGA1021+006001999GF102991999999999999999999MA1101291999999REMMET051METAR SBIZ 080300Z 09003KT 6000 FEW020 27/18 Q1013;
0129825640999992007090809004-05533-047500FM-15+0123SBIZ V0209999C000012200019N0010001N1+02101+01701999999ADDGF100991999999999999999999MA1101291999999MW1041REMMET051METAR SBIZ 080900Z 00000KT 1000 FU SKC 21/17 Q1013;EQDQ01    003SCCGA1
0129825640999992007090810004-05533-047500FM-15+0123SBIZ V0200701N001512200019N0020001N1+02201+01801999999ADDGF100991999999999999999999MA1101391999999MW1041REMMET051METAR SBIZ 081000Z 07003KT 2000 FU NSC 22/18 Q1014;EQDQ01    003SCCGA1
0129825640999992007090811004-05533-047500FM-15+0123SBIZ V0209999C000012200019N0035001N1+02601+01901999999ADDGF100991999999999999999999MA1101391999999MW1041REMMET051METAR SBIZ 081100Z 00000KT 3500 FU SKC 26/19 Q1014;EQDQ01    003SCCGA1
0129825640999992007090812004-05533-047500FM-15+0123SBIZ V0209999C000012200019N0040001N1+02801+02101999999ADDGF100991999999999999999999MA1101491999999MW1041REMMET051METAR SBIZ 081200Z 00000KT 4000 FU NSC 28/21 Q1015;EQDQ01    003SCCGA1
0129825640999992007090813004-05533-047500FM-15+0123SBIZ V0200301N002612200019N0050001N1+03201+01501999999ADDGA1021+006001999GF102991999999999999999999MA1101491999999MW1041REMMET054METAR SBIZ 081300Z 03005KT 5000 FU FEW020 32/15 Q1015;
0120825640999992007090814004-05533-047500FM-15+0123SBIZ V0201001N010312200019N0090001N1+03301+02001999999ADDGA1021+006001999GF102991999999999999999999MA1101391999999REMMET051METAR SBIZ 081400Z 10020KT 9000 FEW020 33/20 Q1014;
0120825640999992007090815004-05533-047500FM-15+0123SBIZ V0201401N006212200019N0112651N1+03501+02001999999ADDGA1021+006001999GF102991999999999999999999MA1101291999999REMMET051METAR SBIZ 081500Z 14012KT 9999 FEW020 35/20 Q1013;
0120825640999992007090816004-05533-047500FM-15+0123SBIZ V0201201N002612200019N0080001N1+03501+02001999999ADDGA1041+006001999GF104991999999999999999999MA1101081999999REMMET051METAR SBIZ 081600Z 12005KT 8000 SCT020 35/20 Q1011;
0120825640999992007090817004-05533-047500FM-15+0123SBIZ V0201201N006212200019N0080001N1+03501+01801999999ADDGA1041+006001999GF104991999999999999999999MA1101021999999REMMET051METAR SBIZ 081700Z 12012KT 8000 SCT020 35/18 Q1010;
0120825640999992007090818004-05533-047500FM-15+0123SBIZ V0200901N005112200019N0080001N1+03601+01701999999ADDGA1041+006001999GF104991999999999999999999MA1100911999999REMMET051METAR SBIZ 081800Z 09010KT 8000 SCT020 36/17 Q1009;
0120825640999992007090819004-05533-047500FM-15+0123SBIZ V0201201N001012200019N0080001N1+03401+01901999999ADDGA1041+006001999GF104991999999999999999999MA1100911999999REMMET051METAR SBIZ 081900Z 12002KT 8000 SCT020 34/19 Q1009;
0120825640999992007090820004-05533-047500FM-15+0123SBIZ V0200901N004112200019N0080001N1+03401+01901999999ADDGA1021+006001999GF102991999999999999999999MA1100911999999REMMET051METAR SBIZ 082000Z 09008KT 8000 FEW020 34/19 Q1009;
0120825640999992007090821004-05533-047500FM-15+0123SBIZ V0200901N002612200019N0080001N1+03201+01901999999ADDGA1021+006001999GF102991999999999999999999MA1100911999999REMMET051METAR SBIZ 082100Z 09005KT 8000 FEW020 32/19 Q1009;
0120825640999992007090822004-05533-047500FM-15+0123SBIZ V0200801N001012200019N0060001N1+03101+01701999999ADDGF100991999999999999999999MA1101021999999REMMET048METAR SBIZ 082200Z 08002KT 6000 SKC 31/17 Q1010;EQDQ01    003SCCGA1
0120825640999992007090823004-05533-047500FM-15+0123SBIZ V0200401N005112200019N0080001N1+03101+01801999999ADDGF100991999999999999999999MA1101081999999REMMET048METAR SBIZ 082300Z 04010KT 8000 SKC 31/18 Q1011;EQDQ01    003SCCGA1
0120825640999992007090900004-05533-047500FM-15+0123SBIZ V0200501N005112200019N0080001N1+03001+01701999999ADDGF100991999999999999999999MA1101081999999REMMET048METAR SBIZ 090000Z 05010KT 8000 SKC 30/17 Q1011;EQDQ01    003SCCGA1
0120825640999992007090901004-05533-047500FM-15+0123SBIZ V0201201N001012200019N0080001N1+02801+01901999999ADDGF100991999999999999999999MA1101191999999REMMET048METAR SBIZ 090100Z 12002KT 8000 SKC 28/19 Q1012;EQDQ01    003SCCGA1
0120825640999992007090902004-05533-047500FM-15+0123SBIZ V0209999C000012200019N0080001N1+02701+01901999999ADDGA1021+004501999GF102991999999999999999999MA1101191999999REMMET051METAR SBIZ 090200Z 00000KT 8000 FEW015 27/19 Q1012;
0120825640999992007090903004-05533-047500FM-15+0123SBIZ V0209999C000012200019N0080001N1+02701+01901999999ADDGA1041+004501999GF104991999999999999999999MA1101191999999REMMET051METAR SBIZ 090300Z 00000KT 8000 SCT015 27/19 Q1012;
0120825640999992007090904004-05533-047500FM-15+0123SBIZ V0209999C000012200019N0080001N1+02601+01901999999ADDGA1041+004501999GF104991999999999999999999MA1101191999999REMMET051METAR SBIZ 090400Z 00000KT 8000 SCT015 26/19 Q1012;
0120825640999992007090909004-05533-047500FM-15+0123SBIZ V0200101N003612200019N0070001N1+02501+02001999999ADDGA1021+006001999GF102991999999999999999999MA1101191999999REMMET051METAR SBIZ 090900Z 01007KT 7000 FEW020 25/20 Q1012;
0120825640999992007090910004-05533-047500FM-15+0123SBIZ V0201201N005110054019N0080001N1+02501+02101999999ADDGA1081+005401999GF108991999999999999999999MA1101391999999REMMET051METAR SBIZ 091000Z 12010KT 8000 OVC018 25/21 Q1014;
0120825640999992007090911004-05533-047500FM-15+0123SBIZ V0201001N005710054019N0070001N1+02601+02001999999ADDGA1071+005401999GF107991999999999999999999MA1101391999999REMMET051METAR SBIZ 091100Z 10011KT 7000 BKN018 26/20 Q1014;
0120825640999992007090912004-05533-047500FM-15+0123SBIZ V0200701N006712200019N0070001N1+02801+02301999999ADDGA1021+006001999GF102991999999999999999999MA1101491999999REMMET051METAR SBIZ 091200Z 07013KT 7000 FEW020 28/23 Q1015;
0120825640999992007090913004-05533-047500FM-15+0123SBIZ V0200301N002612200019N0070001N1+03001+02201999999ADDGA1021+006001999GF102991999999999999999999MA1101491999999REMMET051METAR SBIZ 091300Z 03005KT 7000 FEW020 30/22 Q1015;
0120825640999992007090914004-05533-047500FM-15+0123SBIZ V0201801N005112200019N0070001N1+03301+02001999999ADDGA1021+006001999GF102991999999999999999999MA1101391999999REMMET051METAR SBIZ 091400Z 18010KT 7000 FEW020 33/20 Q1014;
0120825640999992007090915004-05533-047500FM-15+0123SBIZ V0200301N002612200019N0070001N1+03401+02001999999ADDGA1041+006001999GF104991999999999999999999MA1101291999999REMMET051METAR SBIZ 091500Z 03005KT 7000 SCT020 34/20 Q1013;
0120825640999992007090916004-05533-047500FM-15+0123SBIZ V0201301N003112200019N0070001N1+03501+01701999999ADDGA1041+006001999GF104991999999999999999999MA1101081999999REMMET051METAR SBIZ 091600Z 13006KT 7000 SCT020 35/17 Q1011;
0120825640999992007090917004-05533-047500FM-15+0123SBIZ V0200301N005112200019N0080001N1+03601+01701999999ADDGA1041+006001999GF104991999999999999999999MA1101021999999REMMET051METAR SBIZ 091700Z 03010KT 8000 SCT020 36/17 Q1010;
0120825640999992007090918004-05533-047500FM-15+0123SBIZ V0201301N005112200019N0112651N1+03701+01501999999ADDGA1041+006001999GF104991999999999999999999MA1100911999999REMMET051METAR SBIZ 091800Z 13010KT 9999 SCT020 37/15 Q1009;
0120825640999992007090919004-05533-047500FM-15+0123SBIZ V0201801N005112200019N0112651N1+03701+01401999999ADDGA1041+006001999GF104991999999999999999999MA1100811999999REMMET051METAR SBIZ 091900Z 18010KT 9999 SCT020 37/14 Q1008;
0120825640999992007090920004-05533-047500FM-15+0123SBIZ V0201101N004112200019N0112651N1+03601+01401999999ADDGA1021+006001999GF102991999999999999999999MA1100811999999REMMET051METAR SBIZ 092000Z 11008KT 9999 FEW020 36/14 Q1008;
0120825640999992007090921004-05533-047500FM-15+0123SBIZ V0201301N001012200019N0070001N1+03401+01501999999ADDGF100991999999999999999999MA1100811999999REMMET048METAR SBIZ 092100Z 13002KT 7000 SKC 34/15 Q1008;EQDQ01    003SCCGA1
0120825640999992007090922004-05533-047500FM-15+0123SBIZ V0209999C000012200019N0080001N1+03001+01801999999ADDGF100991999999999999999999MA1100911999999REMMET048METAR SBIZ 092200Z 00000KT 8000 SKC 30/18 Q1009;EQDQ01    003SCCGA1
0072825640999992007090923004-05533-047500FM-15+0123SBIZ V0209999C00001220001CN0099001N1+03001+01801999999ADDMA1101021999999REMMET045METAR SBIZ 092300Z 00000KT CAVOK 30/18 Q1010;
0072825640999992007091000004-05533-047500FM-15+0123SBIZ V0209999C00001220001CN0099001N1+02701+02001999999ADDMA1101021999999REMMET045METAR SBIZ 100000Z 00000KT CAVOK 27/20 Q1010;
0072825640999992007091001004-05533-047500FM-15+0123SBIZ V0209999C00001220001CN0099001N1+02701+01901999999ADDMA1101081999999REMMET045METAR SBIZ 100100Z 00000KT CAVOK 27/19 Q1011;
0072825640999992007091002004-05533-047500FM-15+0123SBIZ V0209999C00001220001CN0099001N1+02601+01901999999ADDMA1101191999999REMMET045METAR SBIZ 100200Z 00000KT CAVOK 26/19 Q1012;
0072825640999992007091003004-05533-047500FM-15+0123SBIZ V0201801N00151220001CN0099001N1+02601+01901999999ADDMA1101191999999REMMET045METAR SBIZ 100300Z 18003KT CAVOK 26/19 Q1012;
0072825640999992007091004004-05533-047500FM-15+0123SBIZ V0209999C00001220001CN0099001N1+02601+01901999999ADDMA1101081999999REMMET045METAR SBIZ 100400Z 00000KT CAVOK 26/19 Q1011;
0120825640999992007091009004-05533-047500FM-15+0123SBIZ V0200901N001012200019N0080001N1+02301+01901999999ADDGF100991999999999999999999MA1101081999999REMMET048METAR SBIZ 100900Z 09002KT 8000 NSC 23/19 Q1011;EQDQ01    003SCCGA1
0120825640999992007091010004-05533-047500FM-15+0123SBIZ V0209999C000012200019N0080001N1+02301+01901999999ADDGF100991999999999999999999MA1101191999999REMMET048METAR SBIZ 101000Z 00000KT 8000 SKC 23/19 Q1012;EQDQ01    003SCCGA1
0120825640999992007091011004-05533-047500FM-15+0123SBIZ V0200901N005112200019N0080001N1+02701+02101999999ADDGF100991999999999999999999MA1101291999999REMMET048METAR SBIZ 101100Z 09010KT 8000 SKC 27/21 Q1013;EQDQ01    003SCCGA1
0120825640999992007091012004-05533-047500FM-15+0123SBIZ V0200901N005112200019N0080001N1+02901+02201999999ADDGF100991999999999999999999MA1101391999999REMMET048METAR SBIZ 101200Z 09010KT 8000 SKC 29/22 Q1014;EQDQ01    003SCCGA1
0120825640999992007091013004-05533-047500FM-15+0123SBIZ V0201101N006712200019N0112651N1+03101+02201999999ADDGA1021+006001999GF102991999999999999999999MA1101391999999REMMET051METAR SBIZ 101300Z 11013KT 9999 FEW020 31/22 Q1014;
0120825640999992007091014004-05533-047500FM-15+0123SBIZ V0201501N005112200019N0112651N1+03201+02001999999ADDGA1021+006001999GF102991999999999999999999MA1101291999999REMMET051METAR SBIZ 101400Z 15010KT 9999 FEW020 32/20 Q1013;
0120825640999992007091015004-05533-047500FM-15+0123SBIZ V0200701N002612200019N0070001N1+03401+01901999999ADDGA1021+006001999GF102991999999999999999999MA1101291999999REMMET051METAR SBIZ 101500Z 07005KT 7000 FEW020 34/19 Q1013;
0129825640999992007091016004-05533-047500FM-15+0123SBIZ V0200901N005112200019N0050001N1+03601+01901999999ADDGA1021+006001999GF102991999999999999999999MA1101081999999MW1041REMMET054METAR SBIZ 101600Z 09010KT 5000 FU FEW020 36/19 Q1011;
0129825640999992007091017004-05533-047500FM-15+0123SBIZ V0201801N005112200019N0050001N1+03701+01601999999ADDGA1021+006001999GF102991999999999999999999MA1101021999999MW1041REMMET054METAR SBIZ 101700Z 18010KT 5000 FU FEW020 37/16 Q1010;
0120825640999992007091018004-05533-047500FM-15+0123SBIZ V0209999C000012200019N0080001N1+03601+01701999999ADDGA1041+006001999GF104991999999999999999999MA1100811999999REMMET051METAR SBIZ 101800Z 00000KT 8000 SCT020 36/17 Q1008;
0129825640999992007091019004-05533-047500FM-15+0123SBIZ V0209999C000012200019N0050001N1+03701+01601999999ADDGA1041+006001999GF104991999999999999999999MA1100811999999MW1041REMMET054METAR SBIZ 101900Z 00000KT 5000 FU SCT020 37/16 Q1008;
0129825640999992007091020004-05533-047500FM-15+0123SBIZ V0209999C000012200019N0050001N1+03601+01601999999ADDGA1021+006001999GF102991999999999999999999MA1100811999999MW1041REMMET054METAR SBIZ 102000Z 00000KT 5000 FU FEW020 36/16 Q1008;
0129825640999992007091021004-05533-047500FM-15+0123SBIZ V0209999C000012200019N0050001N1+03301+01701999999ADDGF100991999999999999999999MA1100811999999MW1041REMMET051METAR SBIZ 102100Z 00000KT 5000 FU NSC 33/17 Q1008;EQDQ01    003SCCGA1
0129825640999992007091022004-05533-047500FM-15+0123SBIZ V0209999C000012200019N0050001N1+03001+01601999999ADDGF100991999999999999999999MA1100911999999MW1041REMMET051METAR SBIZ 102200Z 00000KT 5000 FU SKC 30/16 Q1009;EQDQ01    003SCCGA1
0129825640999992007091023004-05533-047500FM-15+0123SBIZ V0209999C000012200019N0050001N1+02901+01801999999ADDGF100991999999999999999999MA1100911999999MW1041REMMET051METAR SBIZ 102300Z 00000KT 5000 FU SKC 29/18 Q1009;EQDQ01    003SCCGA1
0129825640999992007091100004-05533-047500FM-15+0123SBIZ V0209999C000012200019N0050001N1+02701+01801999999ADDGF100991999999999999999999MA1101021999999MW1041REMMET051METAR SBIZ 110000Z 00000KT 5000 FU SKC 27/18 Q1010;EQDQ01    003SCCGA1
0129825640999992007091101004-05533-047500FM-15+0123SBIZ V0209999C000012200019N0020001N1+02601+01701999999ADDGF100991999999999999999999MA1101081999999MW1041REMMET051METAR SBIZ 110100Z 00000KT 2000 FU SKC 26/17 Q1011;EQDQ01    003SCCGA1
0129825640999992007091102004-05533-047500FM-15+0123SBIZ V0209999C000012200019N0050001N1+02501+01801999999ADDGF100991999999999999999999MA1101081999999MW1041REMMET051METAR SBIZ 110200Z 00000KT 5000 FU NSC 25/18 Q1011;EQDQ01    003SCCGA1
0129825640999992007091103004-05533-047500FM-15+0123SBIZ V0209999C000012200019N0050001N1+02501+01801999999ADDGF100991999999999999999999MA1101081999999MW1041REMMET051METAR SBIZ 110300Z 00000KT 5000 FU NSC 25/18 Q1011;EQDQ01    003SCCGA1
0129825640999992007091104004-05533-047500FM-15+0123SBIZ V0209999C000012200019N0050001N1+02401+01801999999ADDGF100991999999999999999999MA1101021999999MW1041REMMET051METAR SBIZ 110400Z 00000KT 5000 FU NSC 24/18 Q1010;EQDQ01    003SCCGA1
0129825640999992007091109004-05533-047500FM-15+0123SBIZ V0209999C000012200019N0025001N1+02101+01801999999ADDGF100991999999999999999999MA1101191999999MW1041REMMET051METAR SBIZ 110900Z 00000KT 2500 FU SKC 21/18 Q1012;EQDQ01    003SCCGA1
0129825640999992007091110004-05533-047500FM-15+0123SBIZ V0201101N005112200019N0020001N1+02201+01801999999ADDGF100991999999999999999999MA1101291999999MW1041REMMET051METAR SBIZ 111000Z 11010KT 2000 FU SKC 22/18 Q1013;EQDQ01    003SCCGA1
0129825640999992007091111004-05533-047500FM-15+0123SBIZ V0201201N005112200019N0040001N1+02601+01901999999ADDGF100991999999999999999999MA1101391999999MW1041REMMET051METAR SBIZ 111100Z 12010KT 4000 FU SKC 26/19 Q1014;EQDQ01    003SCCGA1
0120825640999992007091112004-05533-047500FM-15+0123SBIZ V0200601N005112200019N0060001N1+03001+02001999999ADDGF100991999999999999999999MA1101391999999REMMET048METAR SBIZ 111200Z 06010KT 6000 SKC 30/20 Q1014;EQDQ01    003SCCGA1
0120825640999992007091113004-05533-047500FM-15+0123SBIZ V0201201N005112200019N0080001N1+03201+02001999999ADDGF100991999999999999999999MA1101391999999REMMET048METAR SBIZ 111300Z 12010KT 8000 SKC 32/20 Q1014;EQDQ01    003SCCGA1
0129825640999992007091114004-05533-047500FM-15+0123SBIZ V0201501N005112200019N0050001N1+03301+01801999999ADDGF100991999999999999999999MA1101291999999MW1041REMMET051METAR SBIZ 111400Z 15010KT 5000 FU SKC 33/18 Q1013;EQDQ01    003SCCGA1
0129825640999992007091115004-05533-047500FM-15+0123SBIZ V0200601N005112200019N0050001N1+03501+01801999999ADDGF100991999999999999999999MA1101191999999MW1041REMMET051METAR SBIZ 111500Z 06010KT 5000 FU SKC 35/18 Q1012;EQDQ01    003SCCGA1
0120825640999992007091116004-05533-047500FM-15+0123SBIZ V0209999C000012200019N0070001N1+03601+01601999999ADDGA1021+006001999GF102991999999999999999999MA1101081999999REMMET051METAR SBIZ 111600Z 00000KT 7000 FEW020 36/16 Q1011;
0120825640999992007091117004-05533-047500FM-15+0123SBIZ V0200901N007712200019N0080001N1+03701+01401999999ADDGA1021+006001999GF102991999999999999999999MA1100911999999REMMET051METAR SBIZ 111700Z 09015KT 8000 FEW020 37/14 Q1009;
0120825640999992007091118004-05533-047500FM-15+0123SBIZ V0201501N002612200019N0080001N1+03701+01401999999ADDGA1021+006001999GF102991999999999999999999MA1100811999999REMMET051METAR SBIZ 111800Z 15005KT 8000 FEW020 37/14 Q1008;
0120825640999992007091119004-05533-047500FM-15+0123SBIZ V0201801N005112200019N0080001N1+03701+01201999999ADDGA1021+006001999GF102991999999999999999999MA1100811999999REMMET051METAR SBIZ 111900Z 18010KT 8000 FEW020 37/12 Q1008;
0120825640999992007091120004-05533-047500FM-15+0123SBIZ V0201801N002612200019N0070001N1+03601+01301999999ADDGF100991999999999999999999MA1100811999999REMMET048METAR SBIZ 112000Z 18005KT 7000 SKC 36/13 Q1008;EQDQ01    003SCCGA1
0120825640999992007091121004-05533-047500FM-15+0123SBIZ V0209999C000012200019N0060001N1+03301+01601999999ADDGF100991999999999999999999MA1100811999999REMMET048METAR SBIZ 112100Z 00000KT 6000 SKC 33/16 Q1008;EQDQ01    003SCCGA1
0120825640999992007091122004-05533-047500FM-15+0123SBIZ V0209999C000012200019N0070001N1+03101+01601999999ADDGF100991999999999999999999MA1100911999999REMMET048METAR SBIZ 112200Z 00000KT 7000 SKC 31/16 Q1009;EQDQ01    003SCCGA1
0120825640999992007091123004-05533-047500FM-15+0123SBIZ V0209999C000012200019N0070001N1+02801+01701999999ADDGF100991999999999999999999MA1100911999999REMMET048METAR SBIZ 112300Z 00000KT 7000 SKC 28/17 Q1009;EQDQ01    003SCCGA1
0120825640999992007091200004-05533-047500FM-15+0123SBIZ V0209999C000012200019N0080001N1+02701+01801999999ADDGF100991999999999999999999MA1101021999999REMMET048METAR SBIZ 120000Z 00000KT 8000 SKC 27/18 Q1010;EQDQ01    003SCCGA1
0120825640999992007091201004-05533-047500FM-15+0123SBIZ V0209999C000012200019N0080001N1+02701+01701999999ADDGF100991999999999999999999MA1101081999999REMMET048METAR SBIZ 120100Z 00000KT 8000 SKC 27/17 Q1011;EQDQ01    003SCCGA1
0120825640999992007091202004-05533-047500FM-15+0123SBIZ V0209999C000012200019N0080001N1+02601+01801999999ADDGF100991999999999999999999MA1101081999999REMMET048METAR SBIZ 120200Z 00000KT 8000 SKC 26/18 Q1011;EQDQ01    003SCCGA1
0120825640999992007091203004-05533-047500FM-15+0123SBIZ V0209999C000012200019N0060001N1+02501+01801999999ADDGA1041+006001999GF104991999999999999999999MA1101081999999REMMET051METAR SBIZ 120300Z 00000KT 6000 SCT020 25/18 Q1011;
0120825640999992007091204004-05533-047500FM-15+0123SBIZ V0209999C000012200019N0060001N1+02401+01801999999ADDGA1041+006001999GF104991999999999999999999MA1101081999999REMMET051METAR SBIZ 120400Z 00000KT 6000 SCT020 24/18 Q1011;
0129825640999992007091209004-05533-047500FM-15+0123SBIZ V0209999C000012200019N0020001N1+02001+01801999999ADDGF100991999999999999999999MA1101191999999MW1101REMMET051METAR SBIZ 120900Z 00000KT 2000 BR NSC 20/18 Q1012;EQDQ01    003SCCGA1
0129825640999992007091210004-05533-047500FM-15+0123SBIZ V0201101N002112200019N0030001N1+02101+01601999999ADDGF100991999999999999999999MA1101291999999MW1041REMMET051METAR SBIZ 121000Z 11004KT 3000 FU SKC 21/16 Q1013;EQDQ01    003SCCGA1
0129825640999992007091211004-05533-047500FM-15+0123SBIZ V0201201N003112200019N0020001N1+02601+01501999999ADDGF100991999999999999999999MA1101391999999MW1041REMMET051METAR SBIZ 121100Z 12006KT 2000 FU SKC 26/15 Q1014;EQDQ01    003SCCGA1
0129825640999992007091212004-05533-047500FM-15+0123SBIZ V0201201N005112200019N0020001N1+02901+01501999999ADDGF100991999999999999999999MA1101391999999MW1041REMMET051METAR SBIZ 121200Z 12010KT 2000 FU SKC 29/15 Q1014;EQDQ01    003SCCGA1
0129825640999992007091213004-05533-047500FM-15+0123SBIZ V0201501N009312200019N0030001N1+03201+01501999999ADDGF100991999999999999999999MA1101391999999MW1041REMMET051METAR SBIZ 121300Z 15018KT 3000 FU SKC 32/15 Q1014;EQDQ01    003SCCGA1
0129825640999992007091214004-05533-047500FM-15+0123SBIZ V0201201N007712200019N0050001N1+03301+01501999999ADDGF100991999999999999999999MA1101291999999MW1041REMMET051METAR SBIZ 121400Z 12015KT 5000 FU SKC 33/15 Q1013;EQDQ01    003SCCGA1
0120825640999992007091215004-05533-047500FM-15+0123SBIZ V0201201N007712200019N0070001N1+03401+01401999999ADDGF100991999999999999999999MA1101191999999REMMET048METAR SBIZ 121500Z 12015KT 7000 SKC 34/14 Q1012;EQDQ01    003SCCGA1
0120825640999992007091216004-05533-047500FM-15+0123SBIZ V0200801N005112200019N0070001N1+03601+01401999999ADDGF100991999999999999999999MA1101081999999REMMET048METAR SBIZ 121600Z 08010KT 7000 SKC 36/14 Q1011;EQDQ01    003SCCGA1
0120825640999992007091217004-05533-047500FM-15+0123SBIZ V0201201N006212200019N0070001N1+03701+01601999999ADDGF100991999999999999999999MA1100911999999REMMET048METAR SBIZ 121700Z 12012KT 7000 SKC 37/16 Q1009;EQDQ01    003SCCGA1
0120825640999992007091218004-05533-047500FM-15+0123SBIZ V0201201N005712200019N0070001N1+03701+01601999999ADDGF100991999999999999999999MA1100811999999REMMET048METAR SBIZ 121800Z 12011KT 7000 SKC 37/16 Q1008;EQDQ01    003SCCGA1
0120825640999992007091219004-05533-047500FM-15+0123SBIZ V0201201N005112200019N0070001N1+03701+01501999999ADDGF100991999999999999999999MA1100811999999REMMET048METAR SBIZ 121900Z 12010KT 7000 SKC 37/15 Q1008;EQDQ01    003SCCGA1
0120825640999992007091220004-05533-047500FM-15+0123SBIZ V0201501N002612200019N0070001N1+03501+01501999999ADDGF100991999999999999999999MA1100711999999REMMET048METAR SBIZ 122000Z 15005KT 7000 SKC 35/15 Q1007;EQDQ01    003SCCGA1
0120825640999992007091221004-05533-047500FM-15+0123SBIZ V0209999C000012200019N0070001N1+03201+01501999999ADDGF100991999999999999999999MA1100811999999REMMET048METAR SBIZ 122100Z 00000KT 7000 NSC 32/15 Q1008;EQDQ01    003SCCGA1
0120825640999992007091222004-05533-047500FM-15+0123SBIZ V0209999C000012200019N0070001N1+03001+01601999999ADDGF100991999999999999999999MA1100811999999REMMET048METAR SBIZ 122200Z 00000KT 7000 SKC 30/16 Q1008;EQDQ01    003SCCGA1
0120825640999992007091223004-05533-047500FM-15+0123SBIZ V0201001N003112200019N0070001N1+03001+01601999999ADDGF100991999999999999999999MA1100911999999REMMET048METAR SBIZ 122300Z 10006KT 7000 SKC 30/16 Q1009;EQDQ01    003SCCGA1
0129825640999992007091300004-05533-047500FM-15+0123SBIZ V0201501N002112200019N0050001N1+02801+01601999999ADDGF100991999999999999999999MA1101021999999MW1041REMMET051METAR SBIZ 130000Z 15004KT 5000 FU SKC 28/16 Q1010;EQDQ01    003SCCGA1
0129825640999992007091301004-05533-047500FM-15+0123SBIZ V0201001N004112200019N0050001N1+02701+01601999999ADDGF100991999999999999999999MA1101021999999MW1041REMMET051METAR SBIZ 130100Z 10008KT 5000 FU SKC 27/16 Q1010;EQDQ01    003SCCGA1
0129825640999992007091302004-05533-047500FM-15+0123SBIZ V0201001N003612200019N0030001N1+02701+01601999999ADDGF100991999999999999999999MA1101081999999MW1041REMMET051METAR SBIZ 130200Z 10007KT 3000 FU SKC 27/16 Q1011;EQDQ01    003SCCGA1
0129825640999992007091303004-05533-047500FM-15+0123SBIZ V0201001N001512200019N0040001N1+02601+01601999999ADDGF100991999999999999999999MA1101081999999MW1041REMMET051METAR SBIZ 130300Z 10003KT 4000 FU SKC 26/16 Q1011;EQDQ01    003SCCGA1
0129825640999992007091309004-05533-047500FM-15+0123SBIZ V0209999C000012200019N0018001N1+02101+01701999999ADDGF100991999999999999999999MA1101081999999MW1041REMMET051METAR SBIZ 130900Z 00000KT 1800 FU SKC 21/17 Q1011;EQDQ01    003SCCGA1
0129825640999992007091310004-05533-047500FM-15+0123SBIZ V0209999C000012200019N0015001N1+02101+01701999999ADDGF100991999999999999999999MA1101191999999MW1041REMMET051METAR SBIZ 131000Z 00000KT 1500 FU SKC 21/17 Q1012;EQDQ01    003SCCGA1
0129825640999992007091311004-05533-047500FM-15+0123SBIZ V0202101N002112200019N0010001N1+02501+01801999999ADDGF100991999999999999999999MA1101191999999MW1041REMMET051METAR SBIZ 131100Z 21004KT 1000 FU SKC 25/18 Q1012;EQDQ01    003SCCGA1
0129825640999992007091312004-05533-047500FM-15+0123SBIZ V0201301N003112200019N0014001N1+02901+01701999999ADDGF100991999999999999999999MA1101291999999MW1041REMMET051METAR SBIZ 131200Z 13006KT 1400 FU SKC 29/17 Q1013;EQDQ01    003SCCGA1
0120825640999992007091313004-05533-047500FM-15+0123SBIZ V0201201N005112200019N0070001N1+03201+01501999999ADDGF100991999999999999999999MA1101291999999REMMET048METAR SBIZ 131300Z 12010KT 7000 SKC 32/15 Q1013;EQDQ01    003SCCGA1
0120825640999992007091314004-05533-047500FM-15+0123SBIZ V0201501N006212200019N0070001N1+03301+01901999999ADDGF100991999999999999999999MA1101191999999REMMET048METAR SBIZ 131400Z 15012KT 7000 SKC 33/19 Q1012;EQDQ01    003SCCGA1
0129825640999992007091315004-05533-047500FM-15+0123SBIZ V0201201N009312200019N0050001N1+03501+01501999999ADDGF100991999999999999999999MA1101191999999MW1041REMMET051METAR SBIZ 131500Z 12018KT 5000 FU SKC 35/15 Q1012;EQDQ01    003SCCGA1
0129825640999992007091316004-05533-047500FM-15+0123SBIZ V0201101N004612200019N0050001N1+03601+01901999999ADDGF100991999999999999999999MA1101021999999MW1041REMMET051METAR SBIZ 131600Z 11009KT 5000 FU SKC 36/19 Q1010;EQDQ01    003SCCGA1
0120825640999992007091317004-05533-047500FM-15+0123SBIZ V0201201N006712200019N0060001N1+03801+01501999999ADDGF100991999999999999999999MA1100911999999REMMET048METAR SBIZ 131700Z 12013KT 6000 SKC 38/15 Q1009;EQDQ01    003SCCGA1
0120825640999992007091318004-05533-047500FM-15+0123SBIZ V0201801N004612200019N0060001N1+03801+01501999999ADDGF100991999999999999999999MA1100811999999REMMET048METAR SBIZ 131800Z 18009KT 6000 SKC 38/15 Q1008;EQDQ01    003SCCGA1
0120825640999992007091319004-05533-047500FM-15+0123SBIZ V0201201N003612200019N0060001N1+03701+01501999999ADDGA1021+006001999GF102991999999999999999999MA1100711999999REMMET051METAR SBIZ 131900Z 12007KT 6000 FEW020 37/15 Q1007;
0120825640999992007091320004-05533-047500FM-15+0123SBIZ V0201301N001512200019N0060001N1+03601+01601999999ADDGF100991999999999999999999MA1100711999999REMMET048METAR SBIZ 132000Z 13003KT 6000 SKC 36/16 Q1007;EQDQ01    003SCCGA1
0120825640999992007091321004-05533-047500FM-15+0123SBIZ V0209999C000012200019N0060001N1+03401+01601999999ADDGA1041+006001999GF104991999999999999999999MA1100811999999REMMET051METAR SBIZ 132100Z 00000KT 6000 SCT020 34/16 Q1008;
0120825640999992007091322004-05533-047500FM-15+0123SBIZ V0209999C000012200019N0060001N1+03001+01801999999ADDGA1021+006001999GF102991999999999999999999MA1100811999999REMMET051METAR SBIZ 132200Z 00000KT 6000 FEW020 30/18 Q1008;
0120825640999992007091323004-05533-047500FM-15+0123SBIZ V0209999C000012200019N0060001N1+03001+01801999999ADDGF100991999999999999999999MA1100911999999REMMET048METAR SBIZ 132300Z 00000KT 6000 SKC 30/18 Q1009;EQDQ01    003SCCGA1
0129825640999992007091400004-05533-047500FM-15+0123SBIZ V0201201N002112200019N0050001N1+02901+01801999999ADDGF100991999999999999999999MA1101021999999MW1041REMMET051METAR SBIZ 140000Z 12004KT 5000 FU SKC 29/18 Q1010;EQDQ01    003SCCGA1
0129825640999992007091401004-05533-047500FM-15+0123SBIZ V0200901N002112200019N0030001N1+02901+01801999999ADDGF100991999999999999999999MA1101021999999MW1041REMMET051METAR SBIZ 140100Z 09004KT 3000 FU SKC 29/18 Q1010;EQDQ01    003SCCGA1
0129825640999992007091402004-05533-047500FM-15+0123SBIZ V0200601N002612200019N0030001N1+02801+01701999999ADDGF100991999999999999999999MA1101021999999MW1041REMMET051METAR SBIZ 140200Z 06005KT 3000 FU SKC 28/17 Q1010;EQDQ01    003SCCGA1
0129825640999992007091403004-05533-047500FM-15+0123SBIZ V0200901N001512200019N0030001N1+02701+01901999999ADDGF100991999999999999999999MA1101021999999MW1041REMMET051METAR SBIZ 140300Z 09003KT 3000 FU SKC 27/19 Q1010;EQDQ01    003SCCGA1
0129825640999992007091409004-05533-047500FM-15+0123SBIZ V0201501N000512200019N0025001N1+02501+01801999999ADDGF100991999999999999999999MA1101021999999MW1041REMMET051METAR SBIZ 140900Z 15001KT 2500 FU SKC 25/18 Q1010;EQDQ01    003SCCGA1
0129825640999992007091410004-05533-047500FM-15+0123SBIZ V0209999C000012200019N0012001N1+02301+01901999999ADDGF100991999999999999999999MA1101191999999MW1041REMMET051METAR SBIZ 141000Z 00000KT 1200 FU SKC 23/19 Q1012;EQDQ01    003SCCGA1
0129825640999992007091411004-05533-047500FM-15+0123SBIZ V0200901N005112200019N0025001N1+02701+02001999999ADDGF100991999999999999999999MA1101291999999MW1041REMMET051METAR SBIZ 141100Z 09010KT 2500 FU SKC 27/20 Q1013;EQDQ01    003SCCGA1
0129825640999992007091412004-05533-047500FM-15+0123SBIZ V0201101N010312200019N0050001N1+03001+02001999999ADDGF100991999999999999999999MA1101291999999MW1041REMMET051METAR SBIZ 141200Z 11020KT 5000 FU SKC 30/20 Q1013;EQDQ01    003SCCGA1
0120825640999992007091413004-05533-047500FM-15+0123SBIZ V0201001N010312200019N0060001N1+03201+01701999999ADDGF100991999999999999999999MA1101291999999REMMET048METAR SBIZ 141300Z 10020KT 6000 SKC 32/17 Q1013;EQDQ01    003SCCGA1
0120825640999992007091414004-05533-047500FM-15+0123SBIZ V0201801N006212200019N0060001N1+03401+01901999999ADDGF100991999999999999999999MA1101191999999REMMET048METAR SBIZ 141400Z 18012KT 6000 SKC 34/19 Q1012;EQDQ01    003SCCGA1
0120825640999992007091415004-05533-047500FM-15+0123SBIZ V0201401N006212200019N0060001N1+03601+01801999999ADDGF100991999999999999999999MA1101191999999REMMET048METAR SBIZ 141500Z 14012KT 6000 SKC 36/18 Q1012;EQDQ01    003SCCGA1
0120825640999992007091416004-05533-047500FM-15+0123SBIZ V0209999C000012200019N0090001N1+03701+01701999999ADDGF100991999999999999999999MA1101021999999REMMET048METAR SBIZ 141600Z 00000KT 9000 SKC 37/17 Q1010;EQDQ01    003SCCGA1
0120825640999992007091417004-05533-047500FM-15+0123SBIZ V0201801N003112200019N0090001N1+03701+01601999999ADDGA1041+009001999GF104991999999999999999999MA1100911999999REMMET051METAR SBIZ 141700Z 18006KT 9000 SCT030 37/16 Q1009;
0120825640999992007091418004-05533-047500FM-15+0123SBIZ V0201201N005112200019N0090001N1+03701+01701999999ADDGA1041+009001999GF104991999999999999999999MA1100811999999REMMET051METAR SBIZ 141800Z 12010KT 9000 SCT030 37/17 Q1008;
0120825640999992007091419004-05533-047500FM-15+0123SBIZ V0201501N006212200019N0090001N1+03601+01501999999ADDGA1041+009001999GF104991999999999999999999MA1100811999999REMMET051METAR SBIZ 141900Z 15012KT 9000 SCT030 36/15 Q1008;
0120825640999992007091420004-05533-047500FM-15+0123SBIZ V0201201N001012200019N0090001N1+03401+01401999999ADDGA1021+009001999GF102991999999999999999999MA1100811999999REMMET051METAR SBIZ 142000Z 12002KT 9000 FEW030 34/14 Q1008;
0120825640999992007091421004-05533-047500FM-15+0123SBIZ V0201201N001512200019N0090001N1+03201+01601999999ADDGA1021+009001999GF102991999999999999999999MA1100811999999REMMET051METAR SBIZ 142100Z 12003KT 9000 FEW030 32/16 Q1008;
0120825640999992007091422004-05533-047500FM-15+0123SBIZ V0200901N004112200019N0080001N1+03001+01501999999ADDGF100991999999999999999999MA1100911999999REMMET048METAR SBIZ 142200Z 09008KT 8000 SKC 30/15 Q1009;EQDQ01    003SCCGA1
0072825640999992007091423004-05533-047500FM-15+0123SBIZ V0201201N00211220001CN0099001N1+02901+01601999999ADDMA1101021999999REMMET045METAR SBIZ 142300Z 12004KT CAVOK 29/16 Q1010;
0129825640999992007091500004-05533-047500FM-15+0123SBIZ V0201301N002112200019N0050001N1+02801+01601999999ADDGF100991999999999999999999MA1101021999999MW1041REMMET051METAR SBIZ 150000Z 13004KT 5000 FU SKC 28/16 Q1010;EQDQ01    003SCCGA1
0129825640999992007091501004-05533-047500FM-15+0123SBIZ V0201101N001012200019N0030001N1+02701+01701999999ADDGF100991999999999999999999MA1101081999999MW1041REMMET051METAR SBIZ 150100Z 11002KT 3000 FU SKC 27/17 Q1011;EQDQ01    003SCCGA1
0129825640999992007091502004-05533-047500FM-15+0123SBIZ V0209999C000012200019N0030001N1+02601+01701999999ADDGF100991999999999999999999MA1101081999999MW1041REMMET051METAR SBIZ 150200Z 00000KT 3000 FU SKC 26/17 Q1011;EQDQ01    003SCCGA1
0129825640999992007091503004-05533-047500FM-15+0123SBIZ V0209999C000012200019N0030001N1+02501+01701999999ADDGF100991999999999999999999MA1101081999999MW1041REMMET051METAR SBIZ 150300Z 00000KT 3000 FU SKC 25/17 Q1011;EQDQ01    003SCCGA1
0129825640999992007091509004-05533-047500FM-15+0123SBIZ V0209999C000012200019N0040001N1+01901+01801999999ADDGF100991999999999999999999MA1101081999999MW1041REMMET051METAR SBIZ 150900Z 00000KT 4000 FU SKC 19/18 Q1011;EQDQ01    003SCCGA1
0129825640999992007091510004-05533-047500FM-15+0123SBIZ V0200701N004112200019N0035001N1+02001+01801999999ADDGF100991999999999999999999MA1101291999999MW1041REMMET051METAR SBIZ 151000Z 07008KT 3500 FU SKC 20/18 Q1013;EQDQ01    003SCCGA1
0129825640999992007091511004-05533-047500FM-15+0123SBIZ V0200901N002612200019N0035001N1+02401+01901999999ADDGF100991999999999999999999MA1101291999999MW1041REMMET051METAR SBIZ 151100Z 09005KT 3500 FU SKC 24/19 Q1013;EQDQ01    003SCCGA1
0129825640999992007091512004-05533-047500FM-15+0123SBIZ V0200901N005112200019N0050001N1+02801+02201999999ADDGF100991999999999999999999MA1101391999999MW1041REMMET051METAR SBIZ 151200Z 09010KT 5000 FU SKC 28/22 Q1014;EQDQ01    003SCCGA1
0120825640999992007091513004-05533-047500FM-15+0123SBIZ V0200901N005112200019N0060001N1+03001+02201999999ADDGF100991999999999999999999MA1101391999999REMMET048METAR SBIZ 151300Z 09010KT 6000 SKC 30/22 Q1014;EQDQ01    003SCCGA1
0120825640999992007091514004-05533-047500FM-15+0123SBIZ V0201201N005112200019N0060001N1+03201+02001999999ADDGF100991999999999999999999MA1101291999999REMMET048METAR SBIZ 151400Z 12010KT 6000 SKC 32/20 Q1013;EQDQ01    003SCCGA1
0120825640999992007091515004-05533-047500FM-15+0123SBIZ V0200901N005112200019N0060001N1+03301+02001999999ADDGF100991999999999999999999MA1101191999999REMMET048METAR SBIZ 151500Z 09010KT 6000 SKC 33/20 Q1012;EQDQ01    003SCCGA1
0129825640999992007091516004-05533-047500FM-15+0123SBIZ V0201801N005112200019N0050001N1+03601+01801999999ADDGF100991999999999999999999MA1101021999999MW1041REMMET051METAR SBIZ 151600Z 18010KT 5000 FU SKC 36/18 Q1010;EQDQ01    003SCCGA1
0129825640999992007091517004-05533-047500FM-15+0123SBIZ V0201801N005112200019N0050001N1+03601+01701999999ADDGF100991999999999999999999MA1100911999999MW1041REMMET051METAR SBIZ 151700Z 18010KT 5000 FU SKC 36/17 Q1009;EQDQ01    003SCCGA1
0129825640999992007091518004-05533-047500FM-15+0123SBIZ V0209999C000012200019N0050001N1+03701+01701999999ADDGA1021+009001999GF102991999999999999999999MA1100811999999MW1041REMMET054METAR SBIZ 151800Z 00000KT 5000 FU FEW030 37/17 Q1008;
0129825640999992007091519004-05533-047500FM-15+0123SBIZ V0209999C000012200019N0050001N1+03601+01701999999ADDGA1021+009001999GF102991999999999999999999MA1100811999999MW1041REMMET054METAR SBIZ 151900Z 00000KT 5000 FU FEW030 36/17 Q1008;
0129825640999992007091520004-05533-047500FM-15+0123SBIZ V0209999C000012200019N0050001N1+03601+01601999999ADDGA1021+009001999GF102991999999999999999999MA1100711999999MW1041REMMET054METAR SBIZ 152000Z 00000KT 5000 FU FEW030 36/16 Q1007;
0129825640999992007091521004-05533-047500FM-15+0123SBIZ V0209999C000012200019N0050001N1+03301+01701999999ADDGF100991999999999999999999MA1100811999999MW1041REMMET051METAR SBIZ 152100Z 00000KT 5000 FU SKC 33/17 Q1008;EQDQ01    003SCCGA1
0129825640999992007091522004-05533-047500FM-15+0123SBIZ V0203101N002112200019N0050001N1+03001+01701999999ADDGF100991999999999999999999MA1100811999999MW1041REMMET051METAR SBIZ 152200Z 31004KT 5000 FU SKC 30/17 Q1008;EQDQ01    003SCCGA1
0129825640999992007091523004-05533-047500FM-15+0123SBIZ V0209999C000012200019N0050001N1+03001+01801999999ADDGF100991999999999999999999MA1100911999999MW1041REMMET051METAR SBIZ 152300Z 00000KT 5000 FU SKC 30/18 Q1009;EQDQ01    003SCCGA1
0129825640999992007091600004-05533-047500FM-15+0123SBIZ V0200301N002612200019N0050001N1+02701+01801999999ADDGF100991999999999999999999MA1101021999999MW1041REMMET051METAR SBIZ 160000Z 03005KT 5000 FU SKC 27/18 Q1010;EQDQ01    003SCCGA1
0129825640999992007091601004-05533-047500FM-15+0123SBIZ V0209999C000012200019N0050001N1+02601+01901999999ADDGF100991999999999999999999MA1101021999999MW1041REMMET051METAR SBIZ 160100Z 00000KT 5000 FU SKC 26/19 Q1010;EQDQ01    003SCCGA1
0129825640999992007091602004-05533-047500FM-15+0123SBIZ V0209999C000012200019N0050001N1+02601+01901999999ADDGF100991999999999999999999MA1101081999999MW1041REMMET051METAR SBIZ 160200Z 00000KT 5000 FU SKC 26/19 Q1011;EQDQ01    003SCCGA1
0129825640999992007091603004-05533-047500FM-15+0123SBIZ V0209999C000012200019N0050001N1+02501+01901999999ADDGA1041+004501999GF104991999999999999999999MA1101081999999MW1041REMMET054METAR SBIZ 160300Z 00000KT 5000 FU SCT015 25/19 Q1011;
0129825640999992007091609004-05533-047500FM-15+0123SBIZ V0209999C000012200019N0020001N1+02201+01901999999ADDGF100991999999999999999999MA1101081999999MW1101REMMET051METAR SBIZ 160900Z 00000KT 2000 BR SKC 22/19 Q1011;EQDQ01    003SCCGA1
0129825640999992007091610004-05533-047500FM-15+0123SBIZ V0209999C000012200019N0020001N1+02301+01901999999ADDGF100991999999999999999999MA1101191999999MW1041REMMET051METAR SBIZ 161000Z 00000KT 2000 FU SKC 23/19 Q1012;EQDQ01    003SCCGA1
0129825640999992007091611004-05533-047500FM-15+0123SBIZ V0200601N006212200019N0050001N1+02801+02201999999ADDGF100991999999999999999999MA1101291999999MW1041REMMET051METAR SBIZ 161100Z 06012KT 5000 FU SKC 28/22 Q1013;EQDQ01    003SCCGA1
0120825640999992007091612004-05533-047500FM-15+0123SBIZ V0200901N005112200019N0112651N1+02901+02201999999ADDGA1041+006001999GF104991999999999999999999MA1101291999999REMMET051METAR SBIZ 161200Z 09010KT 9999 SCT020 29/22 Q1013;
0120825640999992007091613004-05533-047500FM-15+0123SBIZ V0201101N006210060019N0112651N1+03101+02201999999ADDGA1071+006001999GF107991999999999999999999MA1101291999999REMMET051METAR SBIZ 161300Z 11012KT 9999 BKN020 31/22 Q1013;
0120825640999992007091614004-05533-047500FM-15+0123SBIZ V0209999C000012200019N0070001N1+03301+02201999999ADDGA1021+006001999GF102991999999999999999999MA1101291999999REMMET051METAR SBIZ 161400Z 00000KT 7000 FEW020 33/22 Q1013;
0129825640999992007091615004-05533-047500FM-15+0123SBIZ V0200301N005110060019N0050001N1+03401+02101999999ADDGA1071+006001999GF107991999999999999999999MA1101191999999MW1041REMMET054METAR SBIZ 161500Z 03010KT 5000 FU BKN020 34/21 Q1012;
0120825640999992007091616004-05533-047500FM-15+0123SBIZ V0200201N001010060019N0080001N1+03501+02001999999ADDGA1071+006001999GF107991999999999999999999MA1101021999999REMMET051METAR SBIZ 161600Z 02002KT 8000 BKN020 35/20 Q1010;
0120825640999992007091617004-05533-047500FM-15+0123SBIZ V0200701N007710060019N0080001N1+03601+02001999999ADDGA1071+006001999GF107991999999999999999999MA1100911999999REMMET051METAR SBIZ 161700Z 07015KT 8000 BKN020 36/20 Q1009;
0120825640999992007091618004-05533-047500FM-15+0123SBIZ V0201801N001512200019N0080001N1+03601+01801999999ADDGA1041+006001999GF104991999999999999999999MA1100811999999REMMET051METAR SBIZ 161800Z 18003KT 8000 SCT020 36/18 Q1008;
0120825640999992007091619004-05533-047500FM-15+0123SBIZ V0202101N001512200019N0070001N1+03701+01801999999ADDGA1041+006001999GF104991999999999999999999MA1100811999999REMMET051METAR SBIZ 161900Z 21003KT 7000 SCT020 37/18 Q1008;
0120825640999992007091620004-05533-047500FM-15+0123SBIZ V0201501N001012200019N0070001N1+03501+01701999999ADDGA1021+006001999GF102991999999999999999999MA1100811999999REMMET051METAR SBIZ 162000Z 15002KT 7000 FEW020 35/17 Q1008;
0120825640999992007091621004-05533-047500FM-15+0123SBIZ V0202501N002112200019N0060001N1+03301+01801999999ADDGA1021+006001999GF102991999999999999999999MA1100811999999REMMET051METAR SBIZ 162100Z 25004KT 6000 FEW020 33/18 Q1008;
0120825640999992007091622004-05533-047500FM-15+0123SBIZ V0203001N001512200019N0060001N1+03001+01701999999ADDGF100991999999999999999999MA1100811999999REMMET048METAR SBIZ 162200Z 30003KT 6000 SKC 30/17 Q1008;EQDQ01    003SCCGA1
0120825640999992007091623004-05533-047500FM-15+0123SBIZ V0203301N001012200019N0060001N1+03001+01901999999ADDGF100991999999999999999999MA1100911999999REMMET048METAR SBIZ 162300Z 33002KT 6000 SKC 30/19 Q1009;EQDQ01    003SCCGA1
0120825640999992007091700004-05533-047500FM-15+0123SBIZ V0200301N003612200019N0060001N1+03001+01901999999ADDGA1041+006001999GF104991999999999999999999MA1101021999999REMMET051METAR SBIZ 170000Z 03007KT 6000 SCT020 30/19 Q1010;
0156825640999992007091701004-05533-047500FM-15+0123SBIZ V0200801N01541220001CN0050001N1+02601+01801999999ADDGA1081+006001999GA2041+007501091MA1101191999999MW1801MW2951REMMET066METAR SBIZ 170100Z 08030KT 5000 -TSRA OVC020 SCT025CB 26/18 Q1012;EQDQ01+000042SCOTCV
0156825640999992007091702004-05533-047500FM-15+0123SBIZ V0200601N01031220001CN0060001N1+02401+01801999999ADDGA1041+009001091GA2071+009001999MA1101081999999MW1801MW2951REMMET066METAR SBIZ 170200Z 06020KT 6000 -TSRA BKN030 SCT030CB 24/18 Q1011;EQDQ01+000042SCOTCV
0147825640999992007091703004-05533-047500FM-15+0123SBIZ V0203001N00361220001CN0070001N1+02401+01901999999ADDGA1071+006001999GA2021+007501091MA1101021999999MW1171REMMET063METAR SBIZ 170300Z 30007KT 7000 TS BKN020 FEW025CB 24/19 Q1010;EQDQ01+000022SCOTCV
0120825640999992007091709004-05533-047500FM-15+0123SBIZ V0203601N002112200019N0080001N1+02401+02101999999ADDGF100991999999999999999999MA1101191999999REMMET048METAR SBIZ 170900Z 36004KT 8000 NSC 24/21 Q1012;EQDQ01    003SCCGA1
0120825640999992007091710004-05533-047500FM-15+0123SBIZ V0200601N004112200019N0080001N1+02401+02001999999ADDGF100991999999999999999999MA1101191999999REMMET048METAR SBIZ 171000Z 06008KT 8000 NSC 24/20 Q1012;EQDQ01    003SCCGA1
0120825640999992007091711004-05533-047500FM-15+0123SBIZ V0203301N002112200019N0080001N1+02601+02001999999ADDGF100991999999999999999999MA1101291999999REMMET048METAR SBIZ 171100Z 33004KT 8000 SKC 26/20 Q1013;EQDQ01    003SCCGA1
0143825640999992007091712004-05533-047500FM-15+0123SBIZ V0200901N005110300019N0080001N1+02801+02201999999ADDGA1021+006001999GA2071+030001999GF107991999999999999999999MA1101391999999REMMET058METAR SBIZ 171200Z 09010KT 8000 FEW020 BKN100 28/22 Q1014;
0166825640999992007091713004-05533-047500FM-15+0123SBIZ V0200901N00511006001CN0112651N1+02701+02301999999ADDGA1021+004501999GA2041+006001999GA3071+030001999GF107991999999999999999999MA1101391999999REMMET065METAR SBIZ 171300Z 09010KT 9999 FEW015 SCT020 BKN100 27/23 Q1014;
0143825640999992007091714004-05533-047500FM-15+0123SBIZ V0200501N002612200019N0090001N1+03101+02001999999ADDGA1021+004501999GA2041+006001999GF104991999999999999999999MA1101291999999REMMET058METAR SBIZ 171400Z 05005KT 9000 FEW015 SCT020 31/20 Q1013;
0120825640999992007091715004-05533-047500FM-15+0123SBIZ V0203601N005110060019N0090001N1+03201+02301999999ADDGA1071+006001999GF107991999999999999999999MA1101191999999REMMET051METAR SBIZ 171500Z 36010KT 9000 BKN020 32/23 Q1012;
0120825640999992007091716004-05533-047500FM-15+0123SBIZ V0200301N006210060019N0090001N1+03401+02301999999ADDGA1071+006001999GF107991999999999999999999MA1101081999999REMMET051METAR SBIZ 171600Z 03012KT 9000 BKN020 34/23 Q1011;
0120825640999992007091717004-05533-047500FM-15+0123SBIZ V0200301N004112200019N0112651N1+03501+02301999999ADDGA1041+006001999GF104991999999999999999999MA1101021999999REMMET051METAR SBIZ 171700Z 03008KT 9999 SCT020 35/23 Q1010;
0120825640999992007091718004-05533-047500FM-15+0123SBIZ V0203501N002110060019N0112651N1+03601+02101999999ADDGA1071+006001999GF107991999999999999999999MA1100911999999REMMET051METAR SBIZ 171800Z 35004KT 9999 BKN020 36/21 Q1009;
0166825640999992007091719004-05533-047500FM-15+0123SBIZ V0200301N00461006001CN0112651N1+03501+02201999999ADDGA1021+005401999GA2041+006001999GA3071+120001999GF107991999999999999999999MA1100911999999REMMET065METAR SBIZ 171900Z 03009KT 9999 FEW018 SCT020 BKN400 35/22 Q1009;
0169825640999992007091720004-05533-047500FM-15+0123SBIZ V0203301N004112200019N0112651N1+03401+02201999999ADDGA1041+006001999GA2021+007501021GA3041+120001999GF104991999999999999999999MA1100911999999REMMET068METAR SBIZ 172000Z 33008KT 9999 SCT020 FEW025TCU SCT400 34/22 Q1009;
0143825640999992007091721004-05533-047500FM-15+0123SBIZ V0203301N001511200019N0112651N1+03201+02101999999ADDGA1021+006001999GA2071+120001999GF107991999999999999999999MA1100911999999REMMET058METAR SBIZ 172100Z 33003KT 9999 FEW020 BKN400 32/21 Q1009;
0072825640999992007091722004-05533-047500FM-15+0123SBIZ V0203601N00511220001CN0099001N1+03001+02201999999ADDMA1100911999999REMMET045METAR SBIZ 172200Z 36010KT CAVOK 30/22 Q1009;
0120825640999992007091723004-05533-047500FM-15+0123SBIZ V0203601N005112200019N0112651N1+02901+02201999999ADDGA1041+006001999GF104991999999999999999999MA1101021999999REMMET051METAR SBIZ 172300Z 36010KT 9999 SCT020 29/22 Q1010;
0120825640999992007091800004-05533-047500FM-15+0123SBIZ V0203601N004110060019N0112651N1+02901+02201999999ADDGA1071+006001999GF107991999999999999999999MA1101021999999REMMET051METAR SBIZ 180000Z 36008KT 9999 BKN020 29/22 Q1010;
0120825640999992007091801004-05533-047500FM-15+0123SBIZ V0203601N005112200019N0112651N1+02801+02301999999ADDGA1041+006001999GF104991999999999999999999MA1101081999999REMMET051METAR SBIZ 180100Z 36010KT 9999 SCT020 28/23 Q1011;
0120825640999992007091802004-05533-047500FM-15+0123SBIZ V0203601N002612200019N0112651N1+02701+02201999999ADDGA1021+006001999GF102991999999999999999999MA1101191999999REMMET051METAR SBIZ 180200Z 36005KT 9999 FEW020 27/22 Q1012;
0120825640999992007091803004-05533-047500FM-15+0123SBIZ V0203301N002612200019N0112651N1+02701+02201999999ADDGA1021+006001999GF102991999999999999999999MA1101081999999REMMET051METAR SBIZ 180300Z 33005KT 9999 FEW020 27/22 Q1011;
0120825640999992007091804004-05533-047500FM-15+0123SBIZ V0203601N001512200019N0112651N1+02601+02201999999ADDGA1041+006001999GF104991999999999999999999MA1101081999999REMMET051METAR SBIZ 180400Z 36003KT 9999 SCT020 26/22 Q1011;
0072825640999992007091809004-05533-047500FM-15+0123SBIZ V0209999C00001220001CN0099001N1+02101+02101999999ADDMA1101291999999REMMET045METAR SBIZ 180900Z 00000KT CAVOK 21/21 Q1013;
0143825640999992007091810004-05533-047500FM-15+0123SBIZ V0209999C000010300019N0112651N1+02201+02101999999ADDGA1021+001201999GA2071+030001999GF107991999999999999999999MA1101391999999REMMET058METAR SBIZ 181000Z 00000KT 9999 FEW004 BKN100 22/21 Q1014;
0072825640999992007091811004-05533-047500FM-15+0123SBIZ V0209999C00001220001CN0099001N1+02501+02201999999ADDMA1101491999999REMMET045METAR SBIZ 181100Z 00000KT CAVOK 25/22 Q1015;
0143825640999992007091812004-05533-047500FM-15+0123SBIZ V0200601N007710300019N0112651N1+02701+02301999999ADDGA1041+006001999GA2071+030001999GF107991999999999999999999MA1101491999999REMMET058METAR SBIZ 181200Z 06015KT 9999 SCT020 BKN100 27/23 Q1015;
0143825640999992007091813004-05533-047500FM-15+0123SBIZ V0200301N009310300019N0112651N1+03001+02201999999ADDGA1041+006001999GA2071+030001999GF107991999999999999999999MA1101491999999REMMET058METAR SBIZ 181300Z 03018KT 9999 SCT020 BKN100 30/22 Q1015;
0117825640999992007091814004-05533-047500FM-15+0123SBIZ V0200901N00621220001CN0112651N1+03101+02201999999ADDGA1071+006001999GA2041+120001999MA1101491999999REMMET058METAR SBIZ 181400Z 09012KT 9999 BKN020 SCT400 31/22 Q1015;
0120825640999992007091815004-05533-047500FM-15+0123SBIZ V0200901N007710060019N0112651N1+03201+02201999999ADDGA1071+006001999GF107991999999999999999999MA1101391999999REMMET051METAR SBIZ 181500Z 09015KT 9999 BKN020 32/22 Q1014;
0120825640999992007091816004-05533-047500FM-15+0123SBIZ V0200901N005110060019N0112651N1+03201+02201999999ADDGA1071+006001999GF107991999999999999999999MA1101291999999REMMET051METAR SBIZ 181600Z 09010KT 9999 BKN020 32/22 Q1013;
0120825640999992007091817004-05533-047500FM-15+0123SBIZ V0200601N005112200019N0112651N1+03401+02201999999ADDGA1041+006001999GF104991999999999999999999MA1101191999999REMMET051METAR SBIZ 181700Z 06010KT 9999 SCT020 34/22 Q1012;
0120825640999992007091818004-05533-047500FM-15+0123SBIZ V0200601N002610060019N0112651N1+03401+02201999999ADDGA1071+006001999GF107991999999999999999999MA1101081999999REMMET051METAR SBIZ 181800Z 06005KT 9999 BKN020 34/22 Q1011;
0120825640999992007091819004-05533-047500FM-15+0123SBIZ V0200601N006212200019N0112651N1+03301+02201999999ADDGA1041+006001999GF104991999999999999999999MA1101021999999REMMET051METAR SBIZ 181900Z 06012KT 9999 SCT020 33/22 Q1010;
0120825640999992007091820004-05533-047500FM-15+0123SBIZ V0200601N005112200019N0112651N1+03201+02101999999ADDGA1021+006001999GF102991999999999999999999MA1101021999999REMMET051METAR SBIZ 182000Z 06010KT 9999 FEW020 32/21 Q1010;
0143825640999992007091821004-05533-047500FM-15+0123SBIZ V0200601N005112200019N0112651N1+03001+02201999999ADDGA1021+006001999GA2041+120001999GF104991999999999999999999MA1101081999999REMMET058METAR SBIZ 182100Z 06010KT 9999 FEW020 SCT400 30/22 Q1011;
0072825640999992007091822004-05533-047500FM-15+0123SBIZ V0200601N00511220001CN0099001N1+02901+02101999999ADDMA1101191999999REMMET045METAR SBIZ 182200Z 06010KT CAVOK 29/21 Q1012;
0072825640999992007091823004-05533-047500FM-15+0123SBIZ V0200701N00211220001CN0099001N1+02701+02001999999ADDMA1101191999999REMMET045METAR SBIZ 182300Z 07004KT CAVOK 27/20 Q1012;
0120825640999992007091900004-05533-047500FM-15+0123SBIZ V0200301N003112200019N0112651N1+02601+02101999999ADDGA1041+009001999GF104991999999999999999999MA1101291999999REMMET051METAR SBIZ 190000Z 03006KT 9999 SCT030 26/21 Q1013;
0072825640999992007091901004-05533-047500FM-15+0123SBIZ V0200901N00101220001CN0099001N1+02601+02101999999ADDMA1101291999999REMMET045METAR SBIZ 190100Z 09002KT CAVOK 26/21 Q1013;
0072825640999992007091902004-05533-047500FM-15+0123SBIZ V0201201N00211220001CN0099001N1+02601+02101999999ADDMA1101291999999REMMET045METAR SBIZ 190200Z 12004KT CAVOK 26/21 Q1013;
0072825640999992007091903004-05533-047500FM-15+0123SBIZ V0201501N00211220001CN0099001N1+02501+02101999999ADDMA1101291999999REMMET045METAR SBIZ 190300Z 15004KT CAVOK 25/21 Q1013;
0170825640999992007091909004-05533-047500FM-15+0123SBIZ V0200701N00261220001CN0080001N1+02301+02201999999ADDGA1041+004501999GA2071+006001999GA3021+007501091MA1101391999999MW1171REMMET070METAR SBIZ 190900Z 07005KT 8000 TS SCT015 BKN020 FEW025CB 23/22 Q1014;EQDQ01+000022SCOTCV
0171825640999992007091910004-05533-047500FM-15+0123SBIZ V0209999C00001006001CN0112651N1+02401+02301999999ADDGA1021+004501999GA2041+006001999GA3071+030001999GF107991999999999999999999MA1101491999999REMMET070METAR SBIZ 191000Z 00000KT 9999 FEW015 SCT020 BKN100 24/23 Q1015 RETS;
0120825640999992007091911004-05533-047500FM-15+0123SBIZ V0200901N003112200019N0080001N1+02501+02201999999ADDGA1021+006001999GF102991999999999999999999MA1101491999999REMMET051METAR SBIZ 191100Z 09006KT 8000 FEW020 25/22 Q1015;
0120825640999992007091912004-05533-047500FM-15+0123SBIZ V0201301N005112200019N0080001N1+02801+02301999999ADDGA1021+006001999GF102991999999999999999999MA1101591999999REMMET051METAR SBIZ 191200Z 13010KT 8000 FEW020 28/23 Q1016;
0120825640999992007091913004-05533-047500FM-15+0123SBIZ V0201801N002110060019N0090001N1+02901+02201999999ADDGA1071+006001999GF107991999999999999999999MA1101591999999REMMET051METAR SBIZ 191300Z 18004KT 9000 BKN020 29/22 Q1016;
0120825640999992007091914004-05533-047500FM-15+0123SBIZ V0200301N001512200019N0112651N1+03101+02201999999ADDGA1041+006001999GF104991999999999999999999MA1101491999999REMMET051METAR SBIZ 191400Z 03003KT 9999 SCT020 31/22 Q1015;
0120825640999992007091915004-05533-047500FM-15+0123SBIZ V0201001N004610060019N0112651N1+03201+02201999999ADDGA1071+006001999GF107991999999999999999999MA1101391999999REMMET051METAR SBIZ 191500Z 10009KT 9999 BKN020 32/22 Q1014;
0120825640999992007091916004-05533-047500FM-15+0123SBIZ V0200601N009312200019N0112651N1+03401+02201999999ADDGA1041+006001999GF104991999999999999999999MA1101291999999REMMET051METAR SBIZ 191600Z 06018KT 9999 SCT020 34/22 Q1013;
0120825640999992007091917004-05533-047500FM-15+0123SBIZ V0200601N009312200019N0112651N1+03401+02001999999ADDGA1041+006001999GF104991999999999999999999MA1101191999999REMMET051METAR SBIZ 191700Z 06018KT 9999 SCT020 34/20 Q1012;
0120825640999992007091918004-05533-047500FM-15+0123SBIZ V0200901N006212200019N0112651N1+03501+01901999999ADDGA1041+006001999GF104991999999999999999999MA1101081999999REMMET051METAR SBIZ 191800Z 09012KT 9999 SCT020 35/19 Q1011;
0120825640999992007091919004-05533-047500FM-15+0123SBIZ V0200901N005112200019N0112651N1+03501+02001999999ADDGA1041+006001999GF104991999999999999999999MA1101021999999REMMET051METAR SBIZ 191900Z 09010KT 9999 SCT020 35/20 Q1010;
0120825640999992007091920004-05533-047500FM-15+0123SBIZ V0201101N004112200019N0112651N1+03301+01901999999ADDGA1021+006001999GF102991999999999999999999MA1101021999999REMMET051METAR SBIZ 192000Z 11008KT 9999 FEW020 33/19 Q1010;
0072825640999992007091921004-05533-047500FM-15+0123SBIZ V0200901N00411220001CN0099001N1+03201+02001999999ADDMA1101021999999REMMET045METAR SBIZ 192100Z 09008KT CAVOK 32/20 Q1010;
0072825640999992007091922004-05533-047500FM-15+0123SBIZ V0209999C00001220001CN0099001N1+03001+02101999999ADDMA1101021999999REMMET045METAR SBIZ 192200Z 00000KT CAVOK 30/21 Q1010;
0072825640999992007091923004-05533-047500FM-15+0123SBIZ V0209999C00001220001CN0099001N1+02801+02201999999ADDMA1101081999999REMMET045METAR SBIZ 192300Z 00000KT CAVOK 28/22 Q1011;
0072825640999992007092000004-05533-047500FM-15+0123SBIZ V0209999C00001220001CN0099001N1+02701+02201999999ADDMA1101081999999REMMET045METAR SBIZ 200000Z 00000KT CAVOK 27/22 Q1011;
0072825640999992007092001004-05533-047500FM-15+0123SBIZ V0209999C00001220001CN0099001N1+02601+02301999999ADDMA1101191999999REMMET045METAR SBIZ 200100Z 00000KT CAVOK 26/23 Q1012;
0072825640999992007092003004-05533-047500FM-15+0123SBIZ V0209999C00001220001CN0099001N1+02501+02201999999ADDMA1101081999999REMMET045METAR SBIZ 200300Z 00000KT CAVOK 25/22 Q1011;
0072825640999992007092009004-05533-047500FM-15+0123SBIZ V0209999C00001220001CN0099001N1+02301+02101999999ADDMA1101081999999REMMET045METAR SBIZ 200900Z 00000KT CAVOK 23/21 Q1011;
0072825640999992007092010004-05533-047500FM-15+0123SBIZ V0200901N00261220001CN0099001N1+02401+02101999999ADDMA1101191999999REMMET045METAR SBIZ 201000Z 09005KT CAVOK 24/21 Q1012;
0072825640999992007092011004-05533-047500FM-15+0123SBIZ V0201001N00261220001CN0099001N1+02701+02101999999ADDMA1101291999999REMMET045METAR SBIZ 201100Z 10005KT CAVOK 27/21 Q1013;
0072825640999992007092012004-05533-047500FM-15+0123SBIZ V0201201N00621220001CN0099001N1+02901+02001999999ADDMA1101391999999REMMET045METAR SBIZ 201200Z 12012KT CAVOK 29/20 Q1014;
0072825640999992007092013004-05533-047500FM-15+0123SBIZ V0200901N00771220001CN0099001N1+03101+02101999999ADDMA1101391999999REMMET045METAR SBIZ 201300Z 09015KT CAVOK 31/21 Q1014;
0072825640999992007092014004-05533-047500FM-15+0123SBIZ V0201001N00671220001CN0099001N1+03201+02101999999ADDMA1101291999999REMMET045METAR SBIZ 201400Z 10013KT CAVOK 32/21 Q1013;
0072825640999992007092015004-05533-047500FM-15+0123SBIZ V0200301N00511220001CN0099001N1+03301+02201999999ADDMA1101191999999REMMET045METAR SBIZ 201500Z 03010KT CAVOK 33/22 Q1012;
0120825640999992007092016004-05533-047500FM-15+0123SBIZ V0200501N004112200019N0112651N1+03501+02001999999ADDGA1021+006001999GF102991999999999999999999MA1101021999999REMMET051METAR SBIZ 201600Z 05008KT 9999 FEW020 35/20 Q1010;
0120825640999992007092017004-05533-047500FM-15+0123SBIZ V0200901N007712200019N0112651N1+03601+01801999999ADDGA1021+006001999GF102991999999999999999999MA1100911999999REMMET051METAR SBIZ 201700Z 09015KT 9999 FEW020 36/18 Q1009;
0120825640999992007092018004-05533-047500FM-15+0123SBIZ V0201001N004112200019N0112651N1+03601+01801999999ADDGA1021+006001999GF102991999999999999999999MA1100811999999REMMET051METAR SBIZ 201800Z 10008KT 9999 FEW020 36/18 Q1008;
0120825640999992007092019004-05533-047500FM-15+0123SBIZ V0200701N005112200019N0112651N1+03601+01701999999ADDGA1021+006001999GF102991999999999999999999MA1100711999999REMMET051METAR SBIZ 201900Z 07010KT 9999 FEW020 36/17 Q1007;
0072825640999992007092020004-05533-047500FM-15+0123SBIZ V0201201N00411220001CN0099001N1+03501+01701999999ADDMA1100811999999REMMET045METAR SBIZ 202000Z 12008KT CAVOK 35/17 Q1008;
0072825640999992007092021004-05533-047500FM-15+0123SBIZ V0201101N00411220001CN0099001N1+03301+01701999999ADDMA1100811999999REMMET045METAR SBIZ 202100Z 11008KT CAVOK 33/17 Q1008;
0072825640999992007092022004-05533-047500FM-15+0123SBIZ V0200801N00211220001CN0099001N1+03101+01801999999ADDMA1100811999999REMMET045METAR SBIZ 202200Z 08004KT CAVOK 31/18 Q1008;
0072825640999992007092023004-05533-047500FM-15+0123SBIZ V0200801N00361220001CN0099001N1+02901+01901999999ADDMA1100911999999REMMET045METAR SBIZ 202300Z 08007KT CAVOK 29/19 Q1009;
0072825640999992007092100004-05533-047500FM-15+0123SBIZ V0209999C00001220001CN0099001N1+02801+02101999999ADDMA1100911999999REMMET045METAR SBIZ 210000Z 00000KT CAVOK 28/21 Q1009;
0120825640999992007092101004-05533-047500FM-15+0123SBIZ V0209999C000012200019N0112651N1+02701+02101999999ADDGA1021+004501999GF102991999999999999999999MA1101021999999REMMET051METAR SBIZ 210100Z 00000KT 9999 FEW015 27/21 Q1010;
0072825640999992007092102004-05533-047500FM-15+0123SBIZ V0209999C00001220001CN0099001N1+02601+02101999999ADDMA1101021999999REMMET045METAR SBIZ 210200Z 00000KT CAVOK 26/21 Q1010;
0072825640999992007092103004-05533-047500FM-15+0123SBIZ V0209999C00001220001CN0099001N1+02601+02101999999ADDMA1100911999999REMMET045METAR SBIZ 210300Z 00000KT CAVOK 26/21 Q1009;
0129825640999992007092109004-05533-047500FM-15+0123SBIZ V0203601N003112200019N0050001N1+02401+02101999999ADDGF100991999999999999999999MA1101021999999MW1101REMMET051METAR SBIZ 210900Z 36006KT 5000 BR SKC 24/21 Q1010;EQDQ01    003SCCGA1
0152825640999992007092110004-05533-047500FM-15+0123SBIZ V0209999C000010090019N0050001N1+02401+02201999999ADDGA1021+004501999GA2071+009001999GF107991999999999999999999MA1101191999999MW1101REMMET061METAR SBIZ 211000Z 00000KT 5000 BR FEW015 BKN030 24/22 Q1012;
0120825640999992007092111004-05533-047500FM-15+0123SBIZ V0201201N004110090019N0080001N1+02601+02201999999ADDGA1081+009001999GF108991999999999999999999MA1101291999999REMMET051METAR SBIZ 211100Z 12008KT 8000 OVC030 26/22 Q1013;
0143825640999992007092112004-05533-047500FM-15+0123SBIZ V0200901N004110090019N0112651N1+02601+02201999999ADDGA1041+004501999GA2081+009001999GF108991999999999999999999MA1101391999999REMMET058METAR SBIZ 211200Z 09008KT 9999 SCT015 OVC030 26/22 Q1014;
0143825640999992007092113004-05533-047500FM-15+0123SBIZ V0200901N005110090019N0080001N1+02601+02201999999ADDGA1041+004501999GA2081+009001999GF108991999999999999999999MA1101391999999REMMET058METAR SBIZ 211300Z 09010KT 8000 SCT015 OVC030 26/22 Q1014;
0143825640999992007092114004-05533-047500FM-15+0123SBIZ V0200901N005110090019N0080001N1+02801+02201999999ADDGA1041+004501999GA2081+009001999GF108991999999999999999999MA1101391999999REMMET058METAR SBIZ 211400Z 09010KT 8000 SCT015 OVC030 28/22 Q1014;
0120825640999992007092115004-05533-047500FM-15+0123SBIZ V0200901N005110060019N0080001N1+03001+02101999999ADDGA1071+006001999GF107991999999999999999999MA1101291999999REMMET051METAR SBIZ 211500Z 09010KT 8000 BKN020 30/21 Q1013;
0120825640999992007092116004-05533-047500FM-15+0123SBIZ V0203501N005110060019N0112651N1+03101+02201999999ADDGA1071+006001999GF107991999999999999999999MA1101081999999REMMET051METAR SBIZ 211600Z 35010KT 9999 BKN020 31/22 Q1011;
0120825640999992007092117004-05533-047500FM-15+0123SBIZ V0203601N005110060019N0112651N1+03301+02101999999ADDGA1071+006001999GF107991999999999999999999MA1101021999999REMMET051METAR SBIZ 211700Z 36010KT 9999 BKN020 33/21 Q1010;
0120825640999992007092119004-05533-047500FM-15+0123SBIZ V0203001N003112200019N0112651N1+03401+02101999999ADDGA1021+006001999GF102991999999999999999999MA1101021999999REMMET051METAR SBIZ 211900Z 30006KT 9999 FEW020 34/21 Q1010;
0072825640999992007092120004-05533-047500FM-15+0123SBIZ V0202501N00411220001CN0099001N1+03301+02001999999ADDMA1101021999999REMMET045METAR SBIZ 212000Z 25008KT CAVOK 33/20 Q1010;
0072825640999992007092121004-05533-047500FM-15+0123SBIZ V0203001N00411220001CN0099001N1+03101+02101999999ADDMA1101021999999REMMET045METAR SBIZ 212100Z 30008KT CAVOK 31/21 Q1010;
0072825640999992007092122004-05533-047500FM-15+0123SBIZ V0202901N00361220001CN0099001N1+02901+02201999999ADDMA1101021999999REMMET045METAR SBIZ 212200Z 29007KT CAVOK 29/22 Q1010;
0072825640999992007092123004-05533-047500FM-15+0123SBIZ V0203001N00261220001CN0099001N1+02801+02201999999ADDMA1101081999999REMMET045METAR SBIZ 212300Z 30005KT CAVOK 28/22 Q1011;
0072825640999992007092200004-05533-047500FM-15+0123SBIZ V0209999C00001220001CN0099001N1+02801+02301999999ADDMA1101081999999REMMET045METAR SBIZ 220000Z 00000KT CAVOK 28/23 Q1011;
0120825640999992007092201004-05533-047500FM-15+0123SBIZ V0200501N003612200019N0090001N1+02801+02201999999ADDGF100991999999999999999999MA1101191999999REMMET048METAR SBIZ 220100Z 05007KT 9000 NSC 28/22 Q1012;EQDQ01    003SCCGA1
0120825640999992007092202004-05533-047500FM-15+0123SBIZ V0209999C000012200019N0090001N1+02701+02201999999ADDGF100991999999999999999999MA1101191999999REMMET048METAR SBIZ 220200Z 00000KT 9000 NSC 27/22 Q1012;EQDQ01    003SCCGA1
0120825640999992007092203004-05533-047500FM-15+0123SBIZ V0209999C000012200019N0090001N1+02601+02201999999ADDGF100991999999999999999999MA1101081999999REMMET048METAR SBIZ 220300Z 00000KT 9000 NSC 26/22 Q1011;EQDQ01    003SCCGA1
0129825640999992007092209004-05533-047500FM-15+0123SBIZ V0209999C000012200019N0050001N1+02401+02201999999ADDGF100991999999999999999999MA1101191999999MW1101REMMET051METAR SBIZ 220900Z 00000KT 5000 BR NSC 24/22 Q1012;EQDQ01    003SCCGA1
0120825640999992007092210004-05533-047500FM-15+0123SBIZ V0200701N001512200019N0060001N1+02401+02201999999ADDGF100991999999999999999999MA1101291999999REMMET048METAR SBIZ 221000Z 07003KT 6000 NSC 24/22 Q1013;EQDQ01    003SCCGA1
0143825640999992007092211004-05533-047500FM-15+0123SBIZ V0200701N007710060019N0080001N1+02701+02201999999ADDGA1041+004501999GA2071+006001999GF107991999999999999999999MA1101391999999REMMET058METAR SBIZ 221100Z 07015KT 8000 SCT015 BKN020 27/22 Q1014;
0143825640999992007092212004-05533-047500FM-15+0123SBIZ V0200901N006210045019N0080001N1+02701+02201999999ADDGA1071+004501999GA2071+006001999GF107991999999999999999999MA1101491999999REMMET058METAR SBIZ 221200Z 09012KT 8000 BKN015 BKN020 27/22 Q1015;
0143825640999992007092213004-05533-047500FM-15+0123SBIZ V0201201N005110060019N0080001N1+02801+02201999999ADDGA1041+004501999GA2071+006001999GF107991999999999999999999MA1101491999999REMMET058METAR SBIZ 221300Z 12010KT 8000 SCT015 BKN020 28/22 Q1015;
0143825640999992007092214004-05533-047500FM-15+0123SBIZ V0200601N005110060019N0112651N1+03001+02201999999ADDGA1041+004501999GA2071+006001999GF107991999999999999999999MA1101391999999REMMET058METAR SBIZ 221400Z 06010KT 9999 SCT015 BKN020 30/22 Q1014;
0120825640999992007092215004-05533-047500FM-15+0123SBIZ V0200601N007710060019N0112651N1+03201+02301999999ADDGA1071+006001999GF107991999999999999999999MA1101291999999REMMET051METAR SBIZ 221500Z 06015KT 9999 BKN020 32/23 Q1013;
0120825640999992007092216004-05533-047500FM-15+0123SBIZ V0200701N004612200019N0112651N1+03401+02301999999ADDGA1041+006001999GF104991999999999999999999MA1101191999999REMMET051METAR SBIZ 221600Z 07009KT 9999 SCT020 34/23 Q1012;
0120825640999992007092217004-05533-047500FM-15+0123SBIZ V0201001N003612200019N0112651N1+03401+02101999999ADDGA1041+006001999GF104991999999999999999999MA1101021999999REMMET051METAR SBIZ 221700Z 10007KT 9999 SCT020 34/21 Q1010;
0120825640999992007092218004-05533-047500FM-15+0123SBIZ V0201301N005112200019N0112651N1+03501+02001999999ADDGA1041+006001999GF104991999999999999999999MA1100911999999REMMET051METAR SBIZ 221800Z 13010KT 9999 SCT020 35/20 Q1009;
0072825640999992007092219004-05533-047500FM-15+0123SBIZ V0200301N00361220001CN0099001N1+03501+02201999999ADDMA1100811999999REMMET045METAR SBIZ 221900Z 03007KT CAVOK 35/22 Q1008;
0072825640999992007092220004-05533-047500FM-15+0123SBIZ V0201001N00151220001CN0099001N1+03401+02001999999ADDMA1100811999999REMMET045METAR SBIZ 222000Z 10003KT CAVOK 34/20 Q1008;
0123825640999992007092221004-05533-047500FM-15+0123SBIZ V0201001N001512200019N0112651N1+03201+02101999999ADDGA1021+007501021GF102991999999999999999999MA1100811999999REMMET054METAR SBIZ 222100Z 10003KT 9999 FEW025TCU 32/21 Q1008;
0072825640999992007092222004-05533-047500FM-15+0123SBIZ V0200901N00411220001CN0099001N1+03001+02101999999ADDMA1100911999999REMMET045METAR SBIZ 222200Z 09008KT CAVOK 30/21 Q1009;
0072825640999992007092223004-05533-047500FM-15+0123SBIZ V0203601N00151220001CN0099001N1+02901+02201999999ADDMA1101021999999REMMET045METAR SBIZ 222300Z 36003KT CAVOK 29/22 Q1010;
0120825640999992007092300004-05533-047500FM-15+0123SBIZ V0203601N001512200019N0112651N1+02801+02201999999ADDGA1041+006001999GF104991999999999999999999MA1101021999999REMMET051METAR SBIZ 230000Z 36003KT 9999 SCT020 28/22 Q1010;
0120825640999992007092301004-05533-047500FM-15+0123SBIZ V0200401N004112200019N0112651N1+02801+02101999999ADDGA1021+006001999GF102991999999999999999999MA1101081999999REMMET051METAR SBIZ 230100Z 04008KT 9999 FEW020 28/21 Q1011;
0072825640999992007092302004-05533-047500FM-15+0123SBIZ V0203301N00101220001CN0099001N1+02701+02101999999ADDMA1101081999999REMMET045METAR SBIZ 230200Z 33002KT CAVOK 27/21 Q1011;
0072825640999992007092303004-05533-047500FM-15+0123SBIZ V0209999C00001220001CN0099001N1+02601+02101999999ADDMA1101081999999REMMET045METAR SBIZ 230300Z 00000KT CAVOK 26/21 Q1011;
0129825640999992007092309004-05533-047500FM-15+0123SBIZ V0201201N002112200019N0050001N1+02301+02101999999ADDGF100991999999999999999999MA1101191999999MW1101REMMET051METAR SBIZ 230900Z 12004KT 5000 BR SKC 23/21 Q1012;EQDQ01    003SCCGA1
0143825640999992007092310004-05533-047500FM-15+0123SBIZ V0200901N002610300019N0060001N1+02401+02101999999ADDGA1041+004501999GA2071+030001999GF107991999999999999999999MA1101291999999REMMET058METAR SBIZ 231000Z 09005KT 6000 SCT015 BKN100 24/21 Q1013;
0166825640999992007092311004-05533-047500FM-15+0123SBIZ V0200901N005110060019N0080001N1+02501+02201999999ADDGA1041+004501999GA2071+006001999GA3081+021001999GF108991999999999999999999MA1101391999999REMMET065METAR SBIZ 231100Z 09010KT 8000 SCT015 BKN020 OVC070 25/22 Q1014;
0143825640999992007092312004-05533-047500FM-15+0123SBIZ V0200701N007710060019N0080001N1+02801+02301999999ADDGA1041+004501999GA2071+006001999GF107991999999999999999999MA1101391999999REMMET058METAR SBIZ 231200Z 07015KT 8000 SCT015 BKN020 28/23 Q1014;
0143825640999992007092313004-05533-047500FM-15+0123SBIZ V0200901N004110060019N0112651N1+02901+02201999999ADDGA1021+004501999GA2071+006001999GF107991999999999999999999MA1101391999999REMMET058METAR SBIZ 231300Z 09008KT 9999 FEW015 BKN020 29/22 Q1014;
0143825640999992007092314004-05533-047500FM-15+0123SBIZ V0209999C000010060019N0112651N1+03101+02301999999ADDGA1021+004501999GA2071+006001999GF107991999999999999999999MA1101291999999REMMET058METAR SBIZ 231400Z 00000KT 9999 FEW015 BKN020 31/23 Q1013;
0120825640999992007092315004-05533-047500FM-15+0123SBIZ V0202801N001512200019N0112651N1+03201+02301999999ADDGA1041+006001999GF104991999999999999999999MA1101191999999REMMET051METAR SBIZ 231500Z 28003KT 9999 SCT020 32/23 Q1012;
0120825640999992007092316004-05533-047500FM-15+0123SBIZ V0203601N004612200019N0112651N1+03501+02101999999ADDGA1041+006001999GF104991999999999999999999MA1101081999999REMMET051METAR SBIZ 231600Z 36009KT 9999 SCT020 35/21 Q1011;
0120825640999992007092317004-05533-047500FM-15+0123SBIZ V0200901N002612200019N0112651N1+03601+02001999999ADDGA1041+006001999GF104991999999999999999999MA1100911999999REMMET051METAR SBIZ 231700Z 09005KT 9999 SCT020 36/20 Q1009;
0120825640999992007092318004-05533-047500FM-15+0123SBIZ V0201201N002612200019N0112651N1+03601+02001999999ADDGA1021+006001999GF102991999999999999999999MA1100811999999REMMET051METAR SBIZ 231800Z 12005KT 9999 FEW020 36/20 Q1008;
0120825640999992007092319004-05533-047500FM-15+0123SBIZ V0201201N002612200019N0112651N1+03601+02001999999ADDGA1021+006001999GF102991999999999999999999MA1100711999999REMMET051METAR SBIZ 231900Z 12005KT 9999 FEW020 36/20 Q1007;
0072825640999992007092320004-05533-047500FM-15+0123SBIZ V0200301N00261220001CN0099001N1+03501+02101999999ADDMA1100811999999REMMET045METAR SBIZ 232000Z 03005KT CAVOK 35/21 Q1008;
0120825640999992007092321004-05533-047500FM-15+0123SBIZ V0203601N001012200019N0112651N1+03401+02101999999ADDGA1021+006001999GF102991999999999999999999MA1100811999999REMMET051METAR SBIZ 232100Z 36002KT 9999 FEW020 34/21 Q1008;
0072825640999992007092322004-05533-047500FM-15+0123SBIZ V0209999C00001220001CN0099001N1+03101+02001999999ADDMA1100811999999REMMET045METAR SBIZ 232200Z 00000KT CAVOK 31/20 Q1008;
0120825640999992007092323004-05533-047500FM-15+0123SBIZ V0209999C000012200019N0112651N1+03001+02001999999ADDGA1021+009001999GF102991999999999999999999MA1100911999999REMMET051METAR SBIZ 232300Z 00000KT 9999 FEW030 30/20 Q1009;
0072825640999992007092400004-05533-047500FM-15+0123SBIZ V0200801N00411220001CN0099001N1+02801+02101999999ADDMA1101021999999REMMET045METAR SBIZ 240000Z 08008KT CAVOK 28/21 Q1010;
0072825640999992007092401004-05533-047500FM-15+0123SBIZ V0203601N00311220001CN0099001N1+03001+02101999999ADDMA1101081999999REMMET045METAR SBIZ 240100Z 36006KT CAVOK 30/21 Q1011;
0072825640999992007092402004-05533-047500FM-15+0123SBIZ V0203301N00361220001CN0099001N1+02901+02101999999ADDMA1101081999999REMMET045METAR SBIZ 240200Z 33007KT CAVOK 29/21 Q1011;
0072825640999992007092403004-05533-047500FM-15+0123SBIZ V0203601N00311220001CN0099001N1+02801+02101999999ADDMA1101081999999REMMET045METAR SBIZ 240300Z 36006KT CAVOK 28/21 Q1011;
0120825640999992007092409004-05533-047500FM-15+0123SBIZ V0200701N001512200019N0070001N1+02501+02101999999ADDGF100991999999999999999999MA1101191999999REMMET048METAR SBIZ 240900Z 07003KT 7000 SKC 25/21 Q1012;EQDQ01    003SCCGA1
0120825640999992007092410004-05533-047500FM-15+0123SBIZ V0201001N003612200019N0080001N1+02501+02101999999ADDGF100991999999999999999999MA1101391999999REMMET048METAR SBIZ 241000Z 10007KT 8000 SKC 25/21 Q1014;EQDQ01    003SCCGA1
0120825640999992007092411004-05533-047500FM-15+0123SBIZ V0200801N008210054019N0090001N1+02701+02101999999ADDGA1071+005401999GF107991999999999999999999MA1101491999999REMMET051METAR SBIZ 241100Z 08016KT 9000 BKN018 27/21 Q1015;
0120825640999992007092412004-05533-047500FM-15+0123SBIZ V0200901N005712200019N0112651N1+02801+02001999999ADDGA1041+006001999GF104991999999999999999999MA1101491999999REMMET051METAR SBIZ 241200Z 09011KT 9999 SCT020 28/20 Q1015;
0120825640999992007092413004-05533-047500FM-15+0123SBIZ V0200701N006210060019N0112651N1+03101+02301999999ADDGA1071+006001999GF107991999999999999999999MA1101591999999REMMET051METAR SBIZ 241300Z 07012KT 9999 BKN020 31/23 Q1016;
0120825640999992007092414004-05533-047500FM-15+0123SBIZ V0200601N008712200019N0112651N1+03201+02101999999ADDGA1041+006001999GF104991999999999999999999MA1101491999999REMMET051METAR SBIZ 241400Z 06017KT 9999 SCT020 32/21 Q1015;
0120825640999992007092415004-05533-047500FM-15+0123SBIZ V0203601N002612200019N0112651N1+03301+02201999999ADDGA1041+006001999GF104991999999999999999999MA1101391999999REMMET051METAR SBIZ 241500Z 36005KT 9999 SCT020 33/22 Q1014;
0120825640999992007092416004-05533-047500FM-15+0123SBIZ V0201201N001512200019N0112651N1+03401+02101999999ADDGA1041+006001999GF104991999999999999999999MA1101191999999REMMET051METAR SBIZ 241600Z 12003KT 9999 SCT020 34/21 Q1012;
0120825640999992007092417004-05533-047500FM-15+0123SBIZ V0200601N002612200019N0112651N1+03501+02201999999ADDGA1041+006001999GF104991999999999999999999MA1101081999999REMMET051METAR SBIZ 241700Z 06005KT 9999 SCT020 35/22 Q1011;
0120825640999992007092418004-05533-047500FM-15+0123SBIZ V0200601N005112200019N0112651N1+03601+02001999999ADDGA1041+006001999GF104991999999999999999999MA1101021999999REMMET051METAR SBIZ 241800Z 06010KT 9999 SCT020 36/20 Q1010;
0120825640999992007092419004-05533-047500FM-15+0123SBIZ V0201001N002112200019N0112651N1+03601+01901999999ADDGA1021+006001999GF102991999999999999999999MA1100911999999REMMET051METAR SBIZ 241900Z 10004KT 9999 FEW020 36/19 Q1009;
0072825640999992007092420004-05533-047500FM-15+0123SBIZ V0201201N00101220001CN0099001N1+03401+02001999999ADDMA1100911999999REMMET045METAR SBIZ 242000Z 12002KT CAVOK 34/20 Q1009;
0072825640999992007092421004-05533-047500FM-15+0123SBIZ V0209999C00001220001CN0099001N1+03301+01901999999ADDMA1100911999999REMMET045METAR SBIZ 242100Z 00000KT CAVOK 33/19 Q1009;
0120825640999992007092422004-05533-047500FM-15+0123SBIZ V0203301N002112200019N0080001N1+03201+01901999999ADDGF100991999999999999999999MA1100911999999REMMET048METAR SBIZ 242200Z 33004KT 8000 SKC 32/19 Q1009;EQDQ01    003SCCGA1
0120825640999992007092423004-05533-047500FM-15+0123SBIZ V0203601N004112200019N0080001N1+03101+02001999999ADDGF100991999999999999999999MA1101021999999REMMET048METAR SBIZ 242300Z 36008KT 8000 SKC 31/20 Q1010;EQDQ01    003SCCGA1
0072825640999992007092500004-05533-047500FM-15+0123SBIZ V0203601N00311220001CN0099001N1+03101+02001999999ADDMA1101021999999REMMET045METAR SBIZ 250000Z 36006KT CAVOK 31/20 Q1010;
0072825640999992007092501004-05533-047500FM-15+0123SBIZ V0200801N00511220001CN0099001N1+02901+02001999999ADDMA1101081999999REMMET045METAR SBIZ 250100Z 08010KT CAVOK 29/20 Q1011;
0072825640999992007092502004-05533-047500FM-15+0123SBIZ V0200601N00511220001CN0099001N1+03001+01901999999ADDMA1101081999999REMMET045METAR SBIZ 250200Z 06010KT CAVOK 30/19 Q1011;
0072825640999992007092503004-05533-047500FM-15+0123SBIZ V0201201N00771220001CN0099001N1+02701+01801999999ADDMA1101191999999REMMET045METAR SBIZ 250300Z 12015KT CAVOK 27/18 Q1012;
0120825640999992007092509004-05533-047500FM-15+0123SBIZ V0200701N002612200019N0080001N1+02401+02101999999ADDGA1021+009001999GF102991999999999999999999MA1101191999999REMMET051METAR SBIZ 250900Z 07005KT 8000 FEW030 24/21 Q1012;
0120825640999992007092510004-05533-047500FM-15+0123SBIZ V0200601N005112200019N0080001N1+02501+02201999999ADDGA1021+004501999GF102991999999999999999999MA1101291999999REMMET051METAR SBIZ 251000Z 06010KT 8000 FEW015 25/22 Q1013;
0120825640999992007092511004-05533-047500FM-15+0123SBIZ V0200601N007712200019N0080001N1+02701+02201999999ADDGA1041+004501999GF104991999999999999999999MA1101391999999REMMET051METAR SBIZ 251100Z 06015KT 8000 SCT015 27/22 Q1014;
0120825640999992007092512004-05533-047500FM-15+0123SBIZ V0200901N008210060019N0112651N1+02801+02101999999ADDGA1071+006001999GF107991999999999999999999MA1101391999999REMMET051METAR SBIZ 251200Z 09016KT 9999 BKN020 28/21 Q1014;
0120825640999992007092513004-05533-047500FM-15+0123SBIZ V0200301N007710060019N0112651N1+03101+02101999999ADDGA1071+006001999GF107991999999999999999999MA1101391999999REMMET051METAR SBIZ 251300Z 03015KT 9999 BKN020 31/21 Q1014;
0120825640999992007092514004-05533-047500FM-15+0123SBIZ V0200301N007710060019N0112651N1+03101+02201999999ADDGA1071+006001999GF107991999999999999999999MA1101391999999REMMET051METAR SBIZ 251400Z 03015KT 9999 BKN020 31/22 Q1014;
0120825640999992007092515004-05533-047500FM-15+0123SBIZ V0200901N005110060019N0112651N1+03101+02201999999ADDGA1071+006001999GF107991999999999999999999MA1101291999999REMMET051METAR SBIZ 251500Z 09010KT 9999 BKN020 31/22 Q1013;
0120825640999992007092516004-05533-047500FM-15+0123SBIZ V0200301N005110060019N0112651N1+03301+02101999999ADDGA1071+006001999GF107991999999999999999999MA1101191999999REMMET051METAR SBIZ 251600Z 03010KT 9999 BKN020 33/21 Q1012;
0120825640999992007092517004-05533-047500FM-15+0123SBIZ V0200501N001010060019N0112651N1+03401+02201999999ADDGA1071+006001999GF107991999999999999999999MA1101081999999REMMET051METAR SBIZ 251700Z 05002KT 9999 BKN020 34/22 Q1011;
0210825640999992007092518004-05533-047500SY-MT+0123SBIZ V0203201N001512200019N0100001N1+03361+02391100891ADDGA1041+006001999GF107991041011008001001071MA1101021099501MD1999999+0001REMSYN070AAXX  25184 82564 32597 73203 10336 20239 39950 40089 84107 333 58000;MET051METAR SBIZ 251800Z 26004KT 9999 SCT020 35/22 Q1010;
0120825640999992007092520004-05533-047500FM-15+0123SBIZ V0202701N005112200019N0080001N1+03401+02101999999ADDGA1021+006001999GF102991999999999999999999MA1100911999999REMMET051METAR SBIZ 252000Z 27010KT 8000 FEW020 34/21 Q1009;
0120825640999992007092521004-05533-047500FM-15+0123SBIZ V0203301N005112200019N0080001N1+03501+02001999999ADDGF100991999999999999999999MA1101021999999REMMET048METAR SBIZ 252100Z 33010KT 8000 SKC 35/20 Q1010;EQDQ01    003SCCGA1
0120825640999992007092522004-05533-047500FM-15+0123SBIZ V0202701N002612200019N0080001N1+03101+02201999999ADDGF100991999999999999999999MA1101021999999REMMET048METAR SBIZ 252200Z 27005KT 8000 SKC 31/22 Q1010;EQDQ01    003SCCGA1
0120825640999992007092523004-05533-047500FM-15+0123SBIZ V0209999C000012200019N0080001N1+02901+02201999999ADDGA1041+004501999GF104991999999999999999999MA1101081999999REMMET051METAR SBIZ 252300Z 00000KT 8000 SCT015 29/22 Q1011;
0120825640999992007092600004-05533-047500FM-15+0123SBIZ V0203601N003612200019N0070001N1+03001+02201999999ADDGA1041+004501999GF104991999999999999999999MA1101191999999REMMET051METAR SBIZ 260000Z 36007KT 7000 SCT015 30/22 Q1012;
0143825640999992007092601004-05533-047500FM-15+0123SBIZ V0200301N002610060019N0070001N1+02901+02201999999ADDGA1041+004501999GA2071+006001999GF107991999999999999999999MA1101291999999REMMET058METAR SBIZ 260100Z 03005KT 7000 SCT015 BKN020 29/22 Q1013;
0143825640999992007092602004-05533-047500FM-15+0123SBIZ V0203501N005112200019N0070001N1+03001+02201999999ADDGA1021+004501999GA2041+006001999GF104991999999999999999999MA1101291999999REMMET058METAR SBIZ 260200Z 35010KT 7000 FEW015 SCT020 30/22 Q1013;
0120825640999992007092603004-05533-047500FM-15+0123SBIZ V0203601N005112200019N0070001N1+02901+02101999999ADDGF100991999999999999999999MA1101191999999REMMET048METAR SBIZ 260300Z 36010KT 7000 NSC 29/21 Q1012;EQDQ01    003SCCGA1
0120825640999992007092604004-05533-047500FM-15+0123SBIZ V0203001N002612200019N0070001N1+02801+02201999999ADDGF100991999999999999999999MA1101191999999REMMET048METAR SBIZ 260400Z 30005KT 7000 NSC 28/22 Q1012;EQDQ01    003SCCGA1
0166825640999992007092609004-05533-047500FM-15+0123SBIZ V0200901N00311009001CN0080001N1+02201+02101999999ADDGA1021+004501999GA2041+009001999GA3081+021001999GF108991999999999999999999MA1101191999999REMMET065METAR SBIZ 260900Z 09006KT 8000 FEW015 SCT030 OVC070 22/21 Q1012;
0143825640999992007092610004-05533-047500FM-15+0123SBIZ V0201201N005110045019N0112651N1+02201+02101999999ADDGA1071+004501999GA2081+021001999GF108991999999999999999999MA1101391999999REMMET058METAR SBIZ 261000Z 12010KT 9999 BKN015 OVC070 22/21 Q1014;
0143825640999992007092611004-05533-047500FM-15+0123SBIZ V0209999C000010210019N0112651N1+02301+02201999999ADDGA1021+004501999GA2081+021001999GF108991999999999999999999MA1101491999999REMMET058METAR SBIZ 261100Z 00000KT 9999 FEW015 OVC070 23/22 Q1015;
0186825640999992007092612004-05533-047500FM-15+0123SBIZ V0200901N00771007501CN0020001N1+02201+02101999999ADDGA1041+004501999GA2021+007501091GA3081+021001999GF108991999999999999999999MA1101691999999MW1821MW2971REMMET073METAR SBIZ 261200Z 09015KT 2000 +TSRA SCT015 FEW025CB OVC070 22/21 Q1017;
0183825640999992007092613004-05533-047500FM-15+0123SBIZ V0201501N00101006001CN0112651N1+02301+02101999999ADDGA1021+002401999GA2041+006001999GA3071+120001999GF107991999999999999999999MA1101591999999MW1611REMMET076METAR SBIZ 261300Z 15002KT 9999 -RA FEW008 SCT020 BKN400 23/21 Q1016 RETSRA;
0143825640999992007092615004-05533-047500FM-15+0123SBIZ V0200901N004111200019N0112651N1+02701+02101999999ADDGA1021+006001999GA2071+120001999GF107991999999999999999999MA1101391999999REMMET058METAR SBIZ 261500Z 09008KT 9999 FEW020 BKN400 27/21 Q1014;
0166825640999992007092616004-05533-047500FM-15+0123SBIZ V0201101N00311030001CN0112651N1+03001+02201999999ADDGA1041+006001999GA2041+030001999GA3071+120001999GF107991999999999999999999MA1101291999999REMMET065METAR SBIZ 261600Z 11006KT 9999 SCT020 SCT100 BKN400 30/22 Q1013;
0166825640999992007092617004-05533-047500FM-15+0123SBIZ V0201201N01031030001CN0112651N1+03101+02201999999ADDGA1041+006001999GA2041+030001999GA3071+120001999GF107991999999999999999999MA1101191999999REMMET065METAR SBIZ 261700Z 12020KT 9999 SCT020 SCT100 BKN400 31/22 Q1012;
0166825640999992007092618004-05533-047500FM-15+0123SBIZ V0201501N00211030001CN0112651N1+03101+02101999999ADDGA1021+006001999GA2041+030001999GA3071+120001999GF107991999999999999999999MA1101081999999REMMET065METAR SBIZ 261800Z 15004KT 9999 FEW020 SCT100 BKN400 31/21 Q1011;
0143825640999992007092619004-05533-047500FM-15+0123SBIZ V0201301N005111200019N0112651N1+03101+02101999999ADDGA1041+006001999GA2071+120001999GF107991999999999999999999MA1101081999999REMMET058METAR SBIZ 261900Z 13010KT 9999 SCT020 BKN400 31/21 Q1011;
0143825640999992007092620004-05533-047500FM-15+0123SBIZ V0201501N002612200019N0112651N1+03101+02301999999ADDGA1021+006001999GA2041+120001999GF104991999999999999999999MA1101081999999REMMET058METAR SBIZ 262000Z 15005KT 9999 FEW020 SCT400 31/23 Q1011;
0120825640999992007092711004-05533-047500FM-15+0123SBIZ V0200901N002612200019N0080001N1+02501+02301999999ADDGA1041+006001999GF104991999999999999999999MA1101591999999REMMET051METAR SBIZ 271100Z 09005KT 8000 SCT020 25/23 Q1016;
0120825640999992007092712004-05533-047500FM-15+0123SBIZ V0201201N006210060019N0112651N1+02801+02201999999ADDGA1071+006001999GF107991999999999999999999MA1101691999999REMMET051METAR SBIZ 271200Z 12012KT 9999 BKN020 28/22 Q1017;
0120825640999992007092713004-05533-047500FM-15+0123SBIZ V0201001N004610060019N0112651N1+02901+02301999999ADDGA1071+006001999GF107991999999999999999999MA1101691999999REMMET051METAR SBIZ 271300Z 10009KT 9999 BKN020 29/23 Q1017;
0120825640999992007092714004-05533-047500FM-15+0123SBIZ V0201201N006210060019N0112651N1+03001+02201999999ADDGA1071+006001999GF107991999999999999999999MA1101591999999REMMET051METAR SBIZ 271400Z 12012KT 9999 BKN020 30/22 Q1016;
0120825640999992007092715004-05533-047500FM-15+0123SBIZ V0200801N006212200019N0112651N1+03101+02101999999ADDGA1041+006001999GF104991999999999999999999MA1101491999999REMMET051METAR SBIZ 271500Z 08012KT 9999 SCT020 31/21 Q1015;
0120825640999992007092716004-05533-047500FM-15+0123SBIZ V0201201N005112200019N0112651N1+03201+02001999999ADDGA1041+006001999GF104991999999999999999999MA1101291999999REMMET051METAR SBIZ 271600Z 12010KT 9999 SCT020 32/20 Q1013;
0120825640999992007092717004-05533-047500FM-15+0123SBIZ V0201201N005112200019N0112651N1+03401+01901999999ADDGA1041+006001999GF104991999999999999999999MA1101191999999REMMET051METAR SBIZ 271700Z 12010KT 9999 SCT020 34/19 Q1012;
0120825640999992007092718004-05533-047500FM-15+0123SBIZ V0201101N005112200019N0112651N1+03401+01801999999ADDGA1041+006001999GF104991999999999999999999MA1101081999999REMMET051METAR SBIZ 271800Z 11010KT 9999 SCT020 34/18 Q1011;
0120825640999992007092719004-05533-047500FM-15+0123SBIZ V0201301N005112200019N0112651N1+03301+01701999999ADDGA1041+006001999GF104991999999999999999999MA1101081999999REMMET051METAR SBIZ 271900Z 13010KT 9999 SCT020 33/17 Q1011;
0120825640999992007092720004-05533-047500FM-15+0123SBIZ V0201201N005112200019N0112651N1+03301+01801999999ADDGA1021+006001999GF102991999999999999999999MA1101081999999REMMET051METAR SBIZ 272000Z 12010KT 9999 FEW020 33/18 Q1011;
0072825640999992007092721004-05533-047500FM-15+0123SBIZ V0201201N00211220001CN0099001N1+03101+01801999999ADDMA1101081999999REMMET045METAR SBIZ 272100Z 12004KT CAVOK 31/18 Q1011;
0072825640999992007092722004-05533-047500FM-15+0123SBIZ V0209999C00001220001CN0099001N1+02801+02201999999ADDMA1101191999999REMMET045METAR SBIZ 272200Z 00000KT CAVOK 28/22 Q1012;
0072825640999992007092723004-05533-047500FM-15+0123SBIZ V0201501N00151220001CN0099001N1+02601+02101999999ADDMA1101191999999REMMET045METAR SBIZ 272300Z 15003KT CAVOK 26/21 Q1012;
0072825640999992007092800004-05533-047500FM-15+0123SBIZ V0201301N00411220001CN0099001N1+02601+02201999999ADDMA1101191999999REMMET045METAR SBIZ 280000Z 13008KT CAVOK 26/22 Q1012;
0072825640999992007092801004-05533-047500FM-15+0123SBIZ V0201301N00411220001CN0099001N1+02501+02101999999ADDMA1101291999999REMMET045METAR SBIZ 280100Z 13008KT CAVOK 25/21 Q1013;
0120825640999992007092802004-05533-047500FM-15+0123SBIZ V0201301N001512200019N0090001N1+02401+02201999999ADDGF100991999999999999999999MA1101291999999REMMET048METAR SBIZ 280200Z 13003KT 9000 SKC 24/22 Q1013;EQDQ01    003SCCGA1
0120825640999992007092803004-05533-047500FM-15+0123SBIZ V0209999C000012200019N0090001N1+02301+02101999999ADDGF100991999999999999999999MA1101191999999REMMET048METAR SBIZ 280300Z 00000KT 9000 SKC 23/21 Q1012;EQDQ01    003SCCGA1
0120825640999992007092804004-05533-047500FM-15+0123SBIZ V0209999C000012200019N0090001N1+02201+02101999999ADDGF100991999999999999999999MA1101191999999REMMET048METAR SBIZ 280400Z 00000KT 9000 SKC 22/21 Q1012;EQDQ01    003SCCGA1
0120825640999992007092805004-05533-047500FM-15+0123SBIZ V0209999C000012200019N0090001N1+02201+02001999999ADDGF100991999999999999999999MA1101081999999REMMET048METAR SBIZ 280500Z 00000KT 9000 SKC 22/20 Q1011;EQDQ01    003SCCGA1
0120825640999992007092806004-05533-047500FM-15+0123SBIZ V0209999C000012200019N0090001N1+02201+02101999999ADDGF100991999999999999999999MA1101081999999REMMET048METAR SBIZ 280600Z 00000KT 9000 SKC 22/21 Q1011;EQDQ01    003SCCGA1
0120825640999992007092807004-05533-047500FM-15+0123SBIZ V0209999C000012200019N0090001N1+02101+02001999999ADDGF100991999999999999999999MA1101081999999REMMET048METAR SBIZ 280700Z 00000KT 9000 SKC 21/20 Q1011;EQDQ01    003SCCGA1
0120825640999992007092808004-05533-047500FM-15+0123SBIZ V0209999C000012200019N0090001N1+02101+02001999999ADDGF100991999999999999999999MA1101081999999REMMET048METAR SBIZ 280800Z 00000KT 9000 SKC 21/20 Q1011;EQDQ01    003SCCGA1
0120825640999992007092809004-05533-047500FM-15+0123SBIZ V0209999C000012200019N0070001N1+02001+02001999999ADDGF100991999999999999999999MA1101191999999REMMET048METAR SBIZ 280900Z 00000KT 7000 SKC 20/20 Q1012;EQDQ01    003SCCGA1
0120825640999992007092810004-05533-047500FM-15+0123SBIZ V0201501N002110060019N0070001N1+02201+02001999999ADDGA1071+006001999GF107991999999999999999999MA1101391999999REMMET051METAR SBIZ 281000Z 15004KT 7000 BKN020 22/20 Q1014;
0120825640999992007092811004-05533-047500FM-15+0123SBIZ V0209999C000012200019N0070001N1+02401+02001999999ADDGA1021+006001999GF102991999999999999999999MA1101491999999REMMET051METAR SBIZ 281100Z 00000KT 7000 FEW020 24/20 Q1015;
0120825640999992007092812004-05533-047500FM-15+0123SBIZ V0200601N005112200019N0070001N1+02901+02201999999ADDGF100991999999999999999999MA1101491999999REMMET048METAR SBIZ 281200Z 06010KT 7000 SKC 29/22 Q1015;EQDQ01    003SCCGA1
0120825640999992007092813004-05533-047500FM-15+0123SBIZ V0200901N005112200019N0080001N1+03101+02101999999ADDGF100991999999999999999999MA1101491999999REMMET048METAR SBIZ 281300Z 09010KT 8000 SKC 31/21 Q1015;EQDQ01    003SCCGA1
0120825640999992007092814004-05533-047500FM-15+0123SBIZ V0201201N005112200019N0080001N1+03201+02001999999ADDGA1021+006001999GF102991999999999999999999MA1101491999999REMMET051METAR SBIZ 281400Z 12010KT 8000 FEW020 32/20 Q1015;
0120825640999992007092815004-05533-047500FM-15+0123SBIZ V0201301N006212200019N0090001N1+03301+01901999999ADDGF100991999999999999999999MA1101391999999REMMET048METAR SBIZ 281500Z 13012KT 9000 SKC 33/19 Q1014;EQDQ01    003SCCGA1
0120825640999992007092816004-05533-047500FM-15+0123SBIZ V0209999C000012200019N0090001N1+03501+02101999999ADDGA1021+006001999GF102991999999999999999999MA1101291999999REMMET051METAR SBIZ 281600Z 00000KT 9000 FEW020 35/21 Q1013;
0120825640999992007092817004-05533-047500FM-15+0123SBIZ V0200901N005112200019N0090001N1+03601+02001999999ADDGA1041+006001999GF104991999999999999999999MA1101191999999REMMET051METAR SBIZ 281700Z 09010KT 9000 SCT020 36/20 Q1012;
0120825640999992007092818004-05533-047500FM-15+0123SBIZ V0200801N004112200019N0112651N1+03601+02001999999ADDGA1041+006001999GF104991999999999999999999MA1101081999999REMMET051METAR SBIZ 281800Z 08008KT 9999 SCT020 36/20 Q1011;
0120825640999992007092819004-05533-047500FM-15+0123SBIZ V0201201N007712200019N0112651N1+03601+01701999999ADDGA1021+006001999GF102991999999999999999999MA1101081999999REMMET051METAR SBIZ 281900Z 12015KT 9999 FEW020 36/17 Q1011;
0120825640999992007092820004-05533-047500FM-15+0123SBIZ V0201201N005112200019N0112651N1+03401+01901999999ADDGA1021+006001999GF102991999999999999999999MA1101081999999REMMET051METAR SBIZ 282000Z 12010KT 9999 FEW020 34/19 Q1011;
0120825640999992007092821004-05533-047500FM-15+0123SBIZ V0201501N001012200019N0112651N1+03401+02001999999ADDGA1021+006001999GF102991999999999999999999MA1101081999999REMMET051METAR SBIZ 282100Z 15002KT 9999 FEW020 34/20 Q1011;
0072825640999992007092822004-05533-047500FM-15+0123SBIZ V0209999C00001220001CN0099001N1+03001+01901999999ADDMA1101081999999REMMET045METAR SBIZ 282200Z 00000KT CAVOK 30/19 Q1011;
0072825640999992007092823004-05533-047500FM-15+0123SBIZ V0201201N00461220001CN0099001N1+02801+01901999999ADDMA1101191999999REMMET045METAR SBIZ 282300Z 12009KT CAVOK 28/19 Q1012;
0072825640999992007092900004-05533-047500FM-15+0123SBIZ V0201201N00511220001CN0099001N1+02701+02101999999ADDMA1101191999999REMMET045METAR SBIZ 290000Z 12010KT CAVOK 27/21 Q1012;
0072825640999992007092901004-05533-047500FM-15+0123SBIZ V0201301N00101220001CN0099001N1+02601+02101999999ADDMA1101291999999REMMET045METAR SBIZ 290100Z 13002KT CAVOK 26/21 Q1013;
0072825640999992007092902004-05533-047500FM-15+0123SBIZ V0201301N00511220001CN0099001N1+02501+02101999999ADDMA1101291999999REMMET045METAR SBIZ 290200Z 13010KT CAVOK 25/21 Q1013;
0072825640999992007092903004-05533-047500FM-15+0123SBIZ V0201201N00511220001CN0099001N1+02501+02001999999ADDMA1101191999999REMMET045METAR SBIZ 290300Z 12010KT CAVOK 25/20 Q1012;
0072825640999992007092904004-05533-047500FM-15+0123SBIZ V0200301N00101220001CN0099001N1+02401+02001999999ADDMA1101191999999REMMET045METAR SBIZ 290400Z 03002KT CAVOK 24/20 Q1012;
0129825640999992007092909004-05533-047500FM-15+0123SBIZ V0209999C000012200019N0050001N1+02101+02001999999ADDGF100991999999999999999999MA1101291999999MW1101REMMET051METAR SBIZ 290900Z 00000KT 5000 BR SKC 21/20 Q1013;EQDQ01    003SCCGA1
0120825640999992007092910004-05533-047500FM-15+0123SBIZ V0200801N003612200019N0070001N1+02301+02101999999ADDGF100991999999999999999999MA1101391999999REMMET048METAR SBIZ 291000Z 08007KT 7000 SKC 23/21 Q1014;EQDQ01    003SCCGA1
0129825640999992007092911004-05533-047500FM-15+0123SBIZ V0200601N007710054019N0050001N1+02501+02301999999ADDGA1081+005401999GF108991999999999999999999MA1101491999999MW1101REMMET054METAR SBIZ 291100Z 06015KT 5000 BR OVC018 25/23 Q1015;
0129825640999992007092912004-05533-047500FM-15+0123SBIZ V0201301N004110045019N0050001N1+02501+02201999999ADDGA1081+004501999GF108991999999999999999999MA1101491999999MW1101REMMET054METAR SBIZ 291200Z 13008KT 5000 BR OVC015 25/22 Q1015;
0120825640999992007092913004-05533-047500FM-15+0123SBIZ V0201501N002610060019N0070001N1+02801+01901999999ADDGA1071+006001999GF107991999999999999999999MA1101491999999REMMET051METAR SBIZ 291300Z 15005KT 7000 BKN020 28/19 Q1015;
0120825640999992007092914004-05533-047500FM-15+0123SBIZ V0201001N001012200019N0080001N1+03101+02401999999ADDGF100991999999999999999999MA1101391999999REMMET048METAR SBIZ 291400Z 10002KT 8000 SKC 31/24 Q1014;EQDQ01    003SCCGA1
0120825640999992007092915004-05533-047500FM-15+0123SBIZ V0201501N004112200019N0090001N1+03201+02301999999ADDGA1021+006001999GF102991999999999999999999MA1101291999999REMMET051METAR SBIZ 291500Z 15008KT 9000 FEW020 32/23 Q1013;
0120825640999992007092916004-05533-047500FM-15+0123SBIZ V0201501N005112200019N0090001N1+03401+02101999999ADDGA1021+006001999GF102991999999999999999999MA1101191999999REMMET051METAR SBIZ 291600Z 15010KT 9000 FEW020 34/21 Q1012;
0120825640999992007092917004-05533-047500FM-15+0123SBIZ V0201001N005112200019N0090001N1+03501+02101999999ADDGA1021+006001999GF102991999999999999999999MA1101081999999REMMET051METAR SBIZ 291700Z 10010KT 9000 FEW020 35/21 Q1011;
0120825640999992007092918004-05533-047500FM-15+0123SBIZ V0200901N005112200019N0090001N1+03601+02101999999ADDGA1021+006001999GF102991999999999999999999MA1101081999999REMMET051METAR SBIZ 291800Z 09010KT 9000 FEW020 36/21 Q1011;
0120825640999992007092919004-05533-047500FM-15+0123SBIZ V0200601N004612200019N0090001N1+03601+02101999999ADDGF100991999999999999999999MA1101021999999REMMET048METAR SBIZ 291900Z 06009KT 9000 SKC 36/21 Q1010;EQDQ01    003SCCGA1
0120825640999992007092920004-05533-047500FM-15+0123SBIZ V0200901N002612200019N0090001N1+03401+02001999999ADDGF100991999999999999999999MA1101021999999REMMET048METAR SBIZ 292000Z 09005KT 9000 SKC 34/20 Q1010;EQDQ01    003SCCGA1
0120825640999992007092921004-05533-047500FM-15+0123SBIZ V0200901N001512200019N0090001N1+03201+02001999999ADDGF100991999999999999999999MA1101021999999REMMET048METAR SBIZ 292100Z 09003KT 9000 SKC 32/20 Q1010;EQDQ01    003SCCGA1
0120825640999992007092922004-05533-047500FM-15+0123SBIZ V0209999C000012200019N0090001N1+03001+01901999999ADDGF100991999999999999999999MA1101021999999REMMET048METAR SBIZ 292200Z 00000KT 9000 SKC 30/19 Q1010;EQDQ01    003SCCGA1
0120825640999992007092923004-05533-047500FM-15+0123SBIZ V0209999C000012200019N0060001N1+02901+02101999999ADDGF100991999999999999999999MA1101081999999REMMET048METAR SBIZ 292300Z 00000KT 6000 SKC 29/21 Q1011;EQDQ01    003SCCGA1
0129825640999992007093000004-05533-047500FM-15+0123SBIZ V0209999C000012200019N0050001N1+02701+02301999999ADDGF100991999999999999999999MA1101081999999MW1041REMMET051METAR SBIZ 300000Z 00000KT 5000 FU SKC 27/23 Q1011;EQDQ01    003SCCGA1
0129825640999992007093001004-05533-047500FM-15+0123SBIZ V0209999C000012200019N0050001N1+02601+02201999999ADDGF100991999999999999999999MA1101191999999MW1041REMMET051METAR SBIZ 300100Z 00000KT 5000 FU SKC 26/22 Q1012;EQDQ01    003SCCGA1
0129825640999992007093002004-05533-047500FM-15+0123SBIZ V0209999C000012200019N0050001N1+02601+02201999999ADDGF100991999999999999999999MA1101291999999MW1101REMMET051METAR SBIZ 300200Z 00000KT 5000 BR SKC 26/22 Q1013;EQDQ01    003SCCGA1
0129825640999992007093003004-05533-047500FM-15+0123SBIZ V0209999C000012200019N0050001N1+02501+02301999999ADDGF100991999999999999999999MA1101191999999MW1101REMMET051METAR SBIZ 300300Z 00000KT 5000 BR SKC 25/23 Q1012;EQDQ01    003SCCGA1
0120825640999992007093009004-05533-047500FM-15+0123SBIZ V0200901N003112200019N0080001N1+02301+02101999999ADDGF100991999999999999999999MA1101291999999REMMET048METAR SBIZ 300900Z 09006KT 8000 NSC 23/21 Q1013;EQDQ01    003SCCGA1
0120825640999992007093010004-05533-047500FM-15+0123SBIZ V0200601N005112200019N0080001N1+02401+02001999999ADDGA1021+006001999GF102991999999999999999999MA1101391999999REMMET051METAR SBIZ 301000Z 06010KT 8000 FEW020 24/20 Q1014;
0120825640999992007093011004-05533-047500FM-15+0123SBIZ V0200901N003612200019N0080001N1+02701+02101999999ADDGA1021+006001999GF102991999999999999999999MA1101391999999REMMET051METAR SBIZ 301100Z 09007KT 8000 FEW020 27/21 Q1014;
0120825640999992007093012004-05533-047500FM-15+0123SBIZ V0200601N004612200019N0080001N1+03001+02201999999ADDGF100991999999999999999999MA1101491999999REMMET048METAR SBIZ 301200Z 06009KT 8000 SKC 30/22 Q1015;EQDQ01    003SCCGA1
0072825640999992007093013004-05533-047500FM-15+0123SBIZ V0200601N00511220001CN0099001N1+03101+02201999999ADDMA1101491999999REMMET045METAR SBIZ 301300Z 06010KT CAVOK 31/22 Q1015;
0072825640999992007093014004-05533-047500FM-15+0123SBIZ V0200901N00511220001CN0099001N1+03301+02101999999ADDMA1101391999999REMMET045METAR SBIZ 301400Z 09010KT CAVOK 33/21 Q1014;
0120825640999992007093015004-05533-047500FM-15+0123SBIZ V0200101N002612200019N0112651N1+03401+02101999999ADDGA1041+006001999GF104991999999999999999999MA1101291999999REMMET051METAR SBIZ 301500Z 01005KT 9999 SCT020 34/21 Q1013;
0120825640999992007093016004-05533-047500FM-15+0123SBIZ V0200701N003112200019N0112651N1+03601+02101999999ADDGA1041+006001999GF104991999999999999999999MA1101191999999REMMET051METAR SBIZ 301600Z 07006KT 9999 SCT020 36/21 Q1012;
0120825640999992007093017004-05533-047500FM-15+0123SBIZ V0201801N002112200019N0112651N1+03601+02101999999ADDGA1041+006001999GF104991999999999999999999MA1101081999999REMMET051METAR SBIZ 301700Z 18004KT 9999 SCT020 36/21 Q1011;
0120825640999992007093018004-05533-047500FM-15+0123SBIZ V0202101N004112200019N0112651N1+03601+02001999999ADDGA1021+006001999GF102991999999999999999999MA1101021999999REMMET051METAR SBIZ 301800Z 21008KT 9999 FEW020 36/20 Q1010;
0120825640999992007093019004-05533-047500FM-15+0123SBIZ V0200901N005112200019N0112651N1+03601+02001999999ADDGA1021+006001999GF102991999999999999999999MA1100911999999REMMET051METAR SBIZ 301900Z 09010KT 9999 FEW020 36/20 Q1009;
0143825640999992007093020004-05533-047500FM-15+0123SBIZ V0200901N002612200019N0112651N1+03501+02001999999ADDGA1021+006001999GA2041+009001999GF104991999999999999999999MA1100911999999REMMET058METAR SBIZ 302000Z 09005KT 9999 FEW020 SCT030 35/20 Q1009;
0120825640999992007093021004-05533-047500FM-15+0123SBIZ V0200901N002112200019N0080001N1+03201+02001999999ADDGA1021+009001999GF102991999999999999999999MA1100911999999REMMET051METAR SBIZ 302100Z 09004KT 8000 FEW030 32/20 Q1009;
0120825640999992007093022004-05533-047500FM-15+0123SBIZ V0200101N002612200019N0080001N1+03001+02201999999ADDGA1021+004501999GF102991999999999999999999MA1101021999999REMMET051METAR SBIZ 302200Z 01005KT 8000 FEW015 30/22 Q1010;
0120825640999992007093023004-05533-047500FM-15+0123SBIZ V0200101N005112200019N0080001N1+03001+02001999999ADDGA1021+004501999GF102991999999999999999999MA1101081999999REMMET051METAR SBIZ 302300Z 01010KT 8000 FEW015 30/20 Q1011;
0120825640999992007100100004-05533-047500FM-15+0123SBIZ V0203301N001512200019N0080001N1+02901+02001999999ADDGA1041+004501999GF104991999999999999999999MA1101191999999REMMET051METAR SBIZ 010000Z 33003KT 8000 SCT015 29/20 Q1012;
0120825640999992007100101004-05533-047500FM-15+0123SBIZ V0200101N002612200019N0070001N1+02801+02001999999ADDGF100991999999999999999999MA1101191999999REMMET048METAR SBIZ 010100Z 01005KT 7000 SKC 28/20 Q1012;EQDQ01    003SCCGA1
0120825640999992007100102004-05533-047500FM-15+0123SBIZ V0203601N005112200019N0070001N1+02701+02301999999ADDGA1041+004501999GF104991999999999999999999MA1101291999999REMMET051METAR SBIZ 010200Z 36010KT 7000 SCT015 27/23 Q1013;
0120825640999992007100103004-05533-047500FM-15+0123SBIZ V0209999C000012200019N0070001N1+02701+02301999999ADDGA1041+004501999GF104991999999999999999999MA1101291999999REMMET051METAR SBIZ 010300Z 00000KT 7000 SCT015 27/23 Q1013;
0120825640999992007100109004-05533-047500FM-15+0123SBIZ V0200501N001012200019N0080001N1+02401+02101999999ADDGF100991999999999999999999MA1101291999999REMMET048METAR SBIZ 010900Z 05002KT 8000 SKC 24/21 Q1013;EQDQ01    003SCCGA1
0120825640999992007100110004-05533-047500FM-15+0123SBIZ V0200701N002112200019N0080001N1+02401+02101999999ADDGF100991999999999999999999MA1101491999999REMMET048METAR SBIZ 011000Z 07004KT 8000 SKC 24/21 Q1015;EQDQ01    003SCCGA1
0072825640999992007100111004-05533-047500FM-15+0123SBIZ V0201201N00411220001CN0099001N1+02701+02101999999ADDMA1101491999999REMMET045METAR SBIZ 011100Z 12008KT CAVOK 27/21 Q1015;
0120825640999992007100112004-05533-047500FM-15+0123SBIZ V0201101N005112200019N0112651N1+02901+02101999999ADDGA1021+006001999GF102991999999999999999999MA1101591999999REMMET051METAR SBIZ 011200Z 11010KT 9999 FEW020 29/21 Q1016;
0120825640999992007100113004-05533-047500FM-15+0123SBIZ V0200601N002112200019N0112651N1+03001+02101999999ADDGA1021+006001999GF102991999999999999999999MA1101591999999REMMET051METAR SBIZ 011300Z 06004KT 9999 FEW020 30/21 Q1016;
0120825640999992007100114004-05533-047500FM-15+0123SBIZ V0200901N007712200019N0112651N1+03201+02101999999ADDGA1021+006001999GF102991999999999999999999MA1101491999999REMMET051METAR SBIZ 011400Z 09015KT 9999 FEW020 32/21 Q1015;
0120825640999992007100115004-05533-047500FM-15+0123SBIZ V0201801N002112200019N0112651N1+03301+02101999999ADDGA1041+006001999GF104991999999999999999999MA1101391999999REMMET051METAR SBIZ 011500Z 18004KT 9999 SCT020 33/21 Q1014;
0120825640999992007100116004-05533-047500FM-15+0123SBIZ V0200901N005112200019N0090001N1+03401+01901999999ADDGA1041+006001999GF104991999999999999999999MA1101291999999REMMET051METAR SBIZ 011600Z 09010KT 9000 SCT020 34/19 Q1013;
0120825640999992007100117004-05533-047500FM-15+0123SBIZ V0201301N001012200019N0112651N1+03501+02001999999ADDGA1041+006001999GF104991999999999999999999MA1101081999999REMMET051METAR SBIZ 011700Z 13002KT 9999 SCT020 35/20 Q1011;
0120825640999992007100118004-05533-047500FM-15+0123SBIZ V0201001N003112200019N0112651N1+03601+01901999999ADDGA1041+006001999GF104991999999999999999999MA1101021999999REMMET051METAR SBIZ 011800Z 10006KT 9999 SCT020 36/19 Q1010;
0120825640999992007100119004-05533-047500FM-15+0123SBIZ V0201501N003112200019N0112651N1+03501+01801999999ADDGA1041+006001999GF104991999999999999999999MA1101021999999REMMET051METAR SBIZ 011900Z 15006KT 9999 SCT020 35/18 Q1010;
0120825640999992007100120004-05533-047500FM-15+0123SBIZ V0201201N005112200019N0112651N1+03401+01801999999ADDGA1021+006001999GF102991999999999999999999MA1101021999999REMMET051METAR SBIZ 012000Z 12010KT 9999 FEW020 34/18 Q1010;
0143825640999992007100121004-05533-047500FM-15+0123SBIZ V0201201N002112200019N0112651N1+03201+01801999999ADDGA1021+006001999GA2041+120001999GF104991999999999999999999MA1101021999999REMMET058METAR SBIZ 012100Z 12004KT 9999 FEW020 SCT400 32/18 Q1010;
0072825640999992007100122004-05533-047500FM-15+0123SBIZ V0209999C00001220001CN0099001N1+03001+02001999999ADDMA1101021999999REMMET045METAR SBIZ 012200Z 00000KT CAVOK 30/20 Q1010;
0072825640999992007100123004-05533-047500FM-15+0123SBIZ V0201201N00151220001CN0099001N1+02801+02001999999ADDMA1101081999999REMMET045METAR SBIZ 012300Z 12003KT CAVOK 28/20 Q1011;
0072825640999992007100200004-05533-047500FM-15+0123SBIZ V0209999C00001220001CN0099001N1+02801+02101999999ADDMA1101081999999REMMET045METAR SBIZ 020000Z 00000KT CAVOK 28/21 Q1011;
0072825640999992007100201004-05533-047500FM-15+0123SBIZ V0209999C00001220001CN0099001N1+02701+02101999999ADDMA1101191999999REMMET045METAR SBIZ 020100Z 00000KT CAVOK 27/21 Q1012;
0120825640999992007100202004-05533-047500FM-15+0123SBIZ V0209999C000012200019N0090001N1+02601+02101999999ADDGF100991999999999999999999MA1101191999999REMMET048METAR SBIZ 020200Z 00000KT 9000 NSC 26/21 Q1012;EQDQ01    003SCCGA1
0120825640999992007100203004-05533-047500FM-15+0123SBIZ V0209999C000012200019N0090001N1+02501+02101999999ADDGF100991999999999999999999MA1101191999999REMMET048METAR SBIZ 020300Z 00000KT 9000 NSC 25/21 Q1012;EQDQ01    003SCCGA1
0129825640999992007100209004-05533-047500FM-15+0123SBIZ V0209999C000012200019N0050001N1+02301+02101999999ADDGF100991999999999999999999MA1101291999999MW1101REMMET051METAR SBIZ 020900Z 00000KT 5000 BR SKC 23/21 Q1013;EQDQ01    003SCCGA1
0120825640999992007100210004-05533-047500FM-15+0123SBIZ V0201001N002612200019N0060001N1+02401+02101999999ADDGF100991999999999999999999MA1101391999999REMMET048METAR SBIZ 021000Z 10005KT 6000 NSC 24/21 Q1014;EQDQ01    003SCCGA1
0120825640999992007100211004-05533-047500FM-15+0123SBIZ V0201001N005112200019N0080001N1+02701+02101999999ADDGF100991999999999999999999MA1101491999999REMMET048METAR SBIZ 021100Z 10010KT 8000 NSC 27/21 Q1015;EQDQ01    003SCCGA1
0120825640999992007100212004-05533-047500FM-15+0123SBIZ V0201501N002612200019N0080001N1+02901+02101999999ADDGF100991999999999999999999MA1101491999999REMMET048METAR SBIZ 021200Z 15005KT 8000 NSC 29/21 Q1015;EQDQ01    003SCCGA1
0120825640999992007100213004-05533-047500FM-15+0123SBIZ V0201301N002612200019N0080001N1+03101+02001999999ADDGF100991999999999999999999MA1101491999999REMMET048METAR SBIZ 021300Z 13005KT 8000 NSC 31/20 Q1015;EQDQ01    003SCCGA1
0120825640999992007100214004-05533-047500FM-15+0123SBIZ V0209999C000012200019N0080001N1+03101+02001999999ADDGF100991999999999999999999MA1101491999999REMMET048METAR SBIZ 021400Z 00000KT 8000 NSC 31/20 Q1015;EQDQ01    003SCCGA1
0120825640999992007100215004-05533-047500FM-15+0123SBIZ V0203001N003112200019N0080001N1+03301+02101999999ADDGF100991999999999999999999MA1101391999999REMMET048METAR SBIZ 021500Z 30006KT 8000 NSC 33/21 Q1014;EQDQ01    003SCCGA1
0120825640999992007100216004-05533-047500FM-15+0123SBIZ V0200901N002612200019N0080001N1+03301+02101999999ADDGF100991999999999999999999MA1101291999999REMMET048METAR SBIZ 021600Z 09005KT 8000 NSC 33/21 Q1013;EQDQ01    003SCCGA1
0120825640999992007100217004-05533-047500FM-15+0123SBIZ V0200901N004112200019N0080001N1+03401+02001999999ADDGF100991999999999999999999MA1101081999999REMMET048METAR SBIZ 021700Z 09008KT 8000 NSC 34/20 Q1011;EQDQ01    003SCCGA1
0120825640999992007100218004-05533-047500FM-15+0123SBIZ V0200901N005112200019N0080001N1+03501+02201999999ADDGF100991999999999999999999MA1101081999999REMMET048METAR SBIZ 021800Z 09010KT 8000 NSC 35/22 Q1011;EQDQ01    003SCCGA1
0120825640999992007100219004-05533-047500FM-15+0123SBIZ V0200901N002612200019N0080001N1+03501+01901999999ADDGF100991999999999999999999MA1101021999999REMMET048METAR SBIZ 021900Z 09005KT 8000 NSC 35/19 Q1010;EQDQ01    003SCCGA1
0120825640999992007100220004-05533-047500FM-15+0123SBIZ V0201201N001012200019N0070001N1+03301+02001999999ADDGF100991999999999999999999MA1101081999999REMMET048METAR SBIZ 022000Z 12002KT 7000 NSC 33/20 Q1011;EQDQ01    003SCCGA1
0120825640999992007100221004-05533-047500FM-15+0123SBIZ V0209999C000012200019N0070001N1+03201+02101999999ADDGF100991999999999999999999MA1101081999999REMMET048METAR SBIZ 022100Z 00000KT 7000 NSC 32/21 Q1011;EQDQ01    003SCCGA1
0120825640999992007100222004-05533-047500FM-15+0123SBIZ V0209999C000012200019N0070001N1+03001+02001999999ADDGF100991999999999999999999MA1101081999999REMMET048METAR SBIZ 022200Z 00000KT 7000 NSC 30/20 Q1011;EQDQ01    003SCCGA1
0120825640999992007100223004-05533-047500FM-15+0123SBIZ V0203301N003612200019N0070001N1+02801+02101999999ADDGF100991999999999999999999MA1101191999999REMMET048METAR SBIZ 022300Z 33007KT 7000 NSC 28/21 Q1012;EQDQ01    003SCCGA1
0120825640999992007100300004-05533-047500FM-15+0123SBIZ V0203301N004110120019N0070001N1+02801+02201999999ADDGA1071+012001999GF107991999999999999999999MA1101191999999REMMET051METAR SBIZ 030000Z 33008KT 7000 BKN040 28/22 Q1012;
0120825640999992007100301004-05533-047500FM-15+0123SBIZ V0201001N001012200019N0070001N1+02701+02101999999ADDGA1041+012001999GF104991999999999999999999MA1101191999999REMMET051METAR SBIZ 030100Z 10002KT 7000 SCT040 27/21 Q1012;
0120825640999992007100302004-05533-047500FM-15+0123SBIZ V0201201N001512200019N0070001N1+02601+02101999999ADDGA1041+012001999GF104991999999999999999999MA1101191999999REMMET051METAR SBIZ 030200Z 12003KT 7000 SCT040 26/21 Q1012;
0120825640999992007100303004-05533-047500FM-15+0123SBIZ V0200701N002612200019N0070001N1+02501+02101999999ADDGA1021+012001999GF102991999999999999999999MA1101191999999REMMET051METAR SBIZ 030300Z 07005KT 7000 FEW040 25/21 Q1012;
0129825640999992007100309004-05533-047500FM-15+0123SBIZ V0200401N002612200019N0025001N1+02301+02101999999ADDGF100991999999999999999999MA1101291999999MW1101REMMET051METAR SBIZ 030900Z 04005KT 2500 BR NSC 23/21 Q1013;EQDQ01    003SCCGA1
0129825640999992007100310004-05533-047500FM-15+0123SBIZ V0200501N001512200019N0035001N1+02401+02101999999ADDGF100991999999999999999999MA1101291999999MW1101REMMET051METAR SBIZ 031000Z 05003KT 3500 BR NSC 24/21 Q1013;EQDQ01    003SCCGA1
0129825640999992007100311004-05533-047500FM-15+0123SBIZ V0200301N001012200019N0020001N1+02701+02101999999ADDGF100991999999999999999999MA1101391999999MW1041REMMET051METAR SBIZ 031100Z 03002KT 2000 FU NSC 27/21 Q1014;EQDQ01    003SCCGA1
0175825640999992007100312004-05533-047500FM-15+0123SBIZ V0200701N00511006001CN0020001N1+02901+02201999999ADDGA1021+004501999GA2041+006001999GA3081+120001999GF108991999999999999999999MA1101491999999MW1041REMMET068METAR SBIZ 031200Z 07010KT 2000 FU FEW015 SCT020 OVC400 29/22 Q1015;
0166825640999992007100313004-05533-047500FM-15+0123SBIZ V0201001N005710060019N0060001N1+02901+02201999999ADDGA1021+004501999GA2071+006001999GA3071+120001999GF107991999999999999999999MA1101491999999REMMET065METAR SBIZ 031300Z 10011KT 6000 FEW015 BKN020 BKN400 29/22 Q1015;
0166825640999992007100314004-05533-047500FM-15+0123SBIZ V0200601N006210060019N0060001N1+03101+02201999999ADDGA1021+004501999GA2071+006001999GA3071+120001999GF107991999999999999999999MA1101391999999REMMET065METAR SBIZ 031400Z 06012KT 6000 FEW015 BKN020 BKN400 31/22 Q1014;
0143825640999992007100315004-05533-047500FM-15+0123SBIZ V0200301N002110060019N0060001N1+03101+02201999999ADDGA1071+006001999GA2071+120001999GF107991999999999999999999MA1101291999999REMMET058METAR SBIZ 031500Z 03004KT 6000 BKN020 BKN400 31/22 Q1013;
0152825640999992007100316004-05533-047500FM-15+0123SBIZ V0200701N002611200019N0050001N1+03201+02301999999ADDGA1041+006001999GA2071+120001999GF107991999999999999999999MA1101191999999MW1041REMMET061METAR SBIZ 031600Z 07005KT 5000 FU SCT020 BKN400 32/23 Q1012;
0152825640999992007100317004-05533-047500FM-15+0123SBIZ V0203301N001012200019N0050001N1+03301+02301999999ADDGA1041+006001999GA2041+120001999GF104991999999999999999999MA1101081999999MW1041REMMET061METAR SBIZ 031700Z 33002KT 5000 FU SCT020 SCT400 33/23 Q1011;
0152825640999992007100318004-05533-047500FM-15+0123SBIZ V0202801N001512200019N0050001N1+03401+02201999999ADDGA1041+006001999GA2041+120001999GF104991999999999999999999MA1101021999999MW1041REMMET061METAR SBIZ 031800Z 28003KT 5000 FU SCT020 SCT400 34/22 Q1010;
0152825640999992007100319004-05533-047500FM-15+0123SBIZ V0209999C000012200019N0050001N1+03401+02201999999ADDGA1041+006001999GA2041+120001999GF104991999999999999999999MA1100911999999MW1041REMMET061METAR SBIZ 031900Z 00000KT 5000 FU SCT020 SCT400 34/22 Q1009;
0129825640999992007100320004-05533-047500FM-15+0123SBIZ V0203601N001512200019N0050001N1+03301+02101999999ADDGF100991999999999999999999MA1100911999999MW1041REMMET051METAR SBIZ 032000Z 36003KT 5000 FU NSC 33/21 Q1009;EQDQ01    003SCCGA1
0129825640999992007100321004-05533-047500FM-15+0123SBIZ V0203301N002112200019N0050001N1+03101+02101999999ADDGF100991999999999999999999MA1100911999999MW1041REMMET051METAR SBIZ 032100Z 33004KT 5000 FU NSC 31/21 Q1009;EQDQ01    003SCCGA1
0129825640999992007100322004-05533-047500FM-15+0123SBIZ V0203001N002112200019N0040001N1+03001+02201999999ADDGF100991999999999999999999MA1101021999999MW1041REMMET051METAR SBIZ 032200Z 30004KT 4000 FU SKC 30/22 Q1010;EQDQ01    003SCCGA1
0129825640999992007100323004-05533-047500FM-15+0123SBIZ V0200301N005112200019N0040001N1+02901+02201999999ADDGF100991999999999999999999MA1101021999999MW1041REMMET051METAR SBIZ 032300Z 03010KT 4000 FU SKC 29/22 Q1010;EQDQ01    003SCCGA1
0129825640999992007100400004-05533-047500FM-15+0123SBIZ V0203301N005112200019N0035001N1+02801+02301999999ADDGF100991999999999999999999MA1101081999999MW1041REMMET051METAR SBIZ 040000Z 33010KT 3500 FU SKC 28/23 Q1011;EQDQ01    003SCCGA1
0129825640999992007100401004-05533-047500FM-15+0123SBIZ V0200301N002112200019N0030001N1+02801+02101999999ADDGF100991999999999999999999MA1101081999999MW1041REMMET051METAR SBIZ 040100Z 03004KT 3000 FU SKC 28/21 Q1011;EQDQ01    003SCCGA1
0129825640999992007100402004-05533-047500FM-15+0123SBIZ V0203601N002612200019N0030001N1+02801+02201999999ADDGF100991999999999999999999MA1101081999999MW1041REMMET051METAR SBIZ 040200Z 36005KT 3000 FU SKC 28/22 Q1011;EQDQ01    003SCCGA1
0129825640999992007100403004-05533-047500FM-15+0123SBIZ V0203301N003112200019N0030001N1+02701+02101999999ADDGF100991999999999999999999MA1101081999999MW1041REMMET051METAR SBIZ 040300Z 33006KT 3000 FU SKC 27/21 Q1011;EQDQ01    003SCCGA1
0120825640999992007100409004-05533-047500FM-15+0123SBIZ V0203601N003110060019N0060001N1+02501+02201999999ADDGA1071+006001999GF107991999999999999999999MA1101191999999REMMET051METAR SBIZ 040900Z 36006KT 6000 BKN020 25/22 Q1012;
0120825640999992007100410004-05533-047500FM-15+0123SBIZ V0200601N002612200019N0080001N1+02601+02201999999ADDGF100991999999999999999999MA1101291999999REMMET048METAR SBIZ 041000Z 06005KT 8000 SKC 26/22 Q1013;EQDQ01    003SCCGA1
0120825640999992007100411004-05533-047500FM-15+0123SBIZ V0200901N005112200019N0080001N1+02801+02201999999ADDGA1041+006001999GF104991999999999999999999MA1101391999999REMMET051METAR SBIZ 041100Z 09010KT 8000 SCT020 28/22 Q1014;
0143825640999992007100412004-05533-047500FM-15+0123SBIZ V0200801N009310060019N0112651N1+02801+02201999999ADDGA1041+004501999GA2071+006001999GF107991999999999999999999MA1101391999999REMMET058METAR SBIZ 041200Z 08018KT 9999 SCT015 BKN020 28/22 Q1014;
0143825640999992007100413004-05533-047500FM-15+0123SBIZ V0200901N007210060019N0112651N1+02801+02101999999ADDGA1041+004501999GA2081+006001999GF108991999999999999999999MA1101491999999REMMET058METAR SBIZ 041300Z 09014KT 9999 SCT015 OVC020 28/21 Q1015;
0143825640999992007100414004-05533-047500FM-15+0123SBIZ V0201801N001510060019N0112651N1+03001+02301999999ADDGA1021+004501999GA2071+006001999GF107991999999999999999999MA1101391999999REMMET058METAR SBIZ 041400Z 18003KT 9999 FEW015 BKN020 30/23 Q1014;
0120825640999992007100415004-05533-047500FM-15+0123SBIZ V0203601N005110060019N0112651N1+03101+02101999999ADDGA1071+006001999GF107991999999999999999999MA1101191999999REMMET051METAR SBIZ 041500Z 36010KT 9999 BKN020 31/21 Q1012;
0120825640999992007100416004-05533-047500FM-15+0123SBIZ V0203201N007710054019N0112651N1+03301+02301999999ADDGA1071+005401999GF107991999999999999999999MA1101081999999REMMET051METAR SBIZ 041600Z 32015KT 9999 BKN018 33/23 Q1011;
0120825640999992007100417004-05533-047500FM-15+0123SBIZ V0209999C000012200019N0112651N1+03301+02301999999ADDGA1041+005401999GF104991999999999999999999MA1101021999999REMMET051METAR SBIZ 041700Z 00000KT 9999 SCT018 33/23 Q1010;
0143825640999992007100418004-05533-047500FM-15+0123SBIZ V0202801N001511200019N0112651N1+03401+02201999999ADDGA1041+006001999GA2071+120001999GF107991999999999999999999MA1100911999999REMMET058METAR SBIZ 041800Z 28003KT 9999 SCT020 BKN400 34/22 Q1009;
0143825640999992007100419004-05533-047500FM-15+0123SBIZ V0203601N001510060019N0112651N1+03301+02201999999ADDGA1071+006001999GA2081+120001999GF108991999999999999999999MA1100911999999REMMET058METAR SBIZ 041900Z 36003KT 9999 BKN020 OVC400 33/22 Q1009;
0161825640999992007100420004-05533-047500FM-15+0123SBIZ V0201301N006210060019N0112651N1+02901+02001999999ADDGA1071+006001999GA2081+120001999GF108991999999999999999999MA1101021999999MW1161REMMET070METAR SBIZ 042000Z 13012KT 9999 5000NE VCSH BKN020 OVC400 29/20 Q1010;
0143825640999992007100421004-05533-047500FM-15+0123SBIZ V0200801N002610270019N0080001N1+02601+02401999999ADDGA1071+027001999GA2081+120001999GF108991999999999999999999MA1101021999999REMMET058METAR SBIZ 042100Z 08005KT 8000 BKN090 OVC400 26/24 Q1010;
0143825640999992007100422004-05533-047500FM-15+0123SBIZ V0201201N004111200019N0112651N1+02601+02201999999ADDGA1041+009001999GA2081+120001999GF108991999999999999999999MA1101021999999REMMET058METAR SBIZ 042200Z 12008KT 9999 SCT030 OVC400 26/22 Q1010;
0143825640999992007100423004-05533-047500FM-15+0123SBIZ V0201501N002111200019N0112651N1+02501+02201999999ADDGA1041+009001999GA2081+120001999GF108991999999999999999999MA1101081999999REMMET058METAR SBIZ 042300Z 15004KT 9999 SCT030 OVC400 25/22 Q1011;
0143825640999992007100500004-05533-047500FM-15+0123SBIZ V0209999C000011200019N0112651N1+02501+02201999999ADDGA1021+009001999GA2081+120001999GF108991999999999999999999MA1101081999999REMMET058METAR SBIZ 050000Z 00000KT 9999 FEW030 OVC400 25/22 Q1011;
0143825640999992007100501004-05533-047500FM-15+0123SBIZ V0203001N002611200019N0080001N1+02501+02201999999ADDGA1021+009001999GA2081+120001999GF108991999999999999999999MA1101191999999REMMET058METAR SBIZ 050100Z 30005KT 8000 FEW030 OVC400 25/22 Q1012;
0143825640999992007100502004-05533-047500FM-15+0123SBIZ V0203301N002111200019N0060001N1+02601+02101999999ADDGA1021+004501999GA2081+120001999GF108991999999999999999999MA1101191999999REMMET058METAR SBIZ 050200Z 33004KT 6000 FEW015 OVC400 26/21 Q1012;
0166825640999992007100503004-05533-047500FM-15+0123SBIZ V0203301N005110210019N0080001N1+02601+02201999999ADDGA1021+004501999GA2071+021001999GA3081+090001999GF108991999999999999999999MA1101191999999REMMET065METAR SBIZ 050300Z 33010KT 8000 FEW015 BKN070 OVC333 26/22 Q1012;
0120825640999992007100509004-05533-047500FM-15+0123SBIZ V0201201N001012200019N0080001N1+02301+02201999999ADDGA1021+006001999GF102991999999999999999999MA1101191999999REMMET051METAR SBIZ 050900Z 12002KT 8000 FEW020 23/22 Q1012;
0143825640999992007100510004-05533-047500FM-15+0123SBIZ V0209999C000011200019N0080001N1+02401+02201999999ADDGA1021+006001999GA2071+120001999GF107991999999999999999999MA1101291999999REMMET058METAR SBIZ 051000Z 00000KT 8000 FEW020 BKN400 24/22 Q1013;
0143825640999992007100511004-05533-047500FM-15+0123SBIZ V0201201N005110060019N0080001N1+02901+02101999999ADDGA1071+006001999GA2071+120001999GF107991999999999999999999MA1101291999999REMMET058METAR SBIZ 051100Z 12010KT 8000 BKN020 BKN400 29/21 Q1013;
0143825640999992007100513004-05533-047500FM-15+0123SBIZ V0200901N005111200019N0080001N1+02901+02301999999ADDGA1041+006001999GA2071+120001999GF107991999999999999999999MA1101291999999REMMET058METAR SBIZ 051300Z 09010KT 8000 SCT020 BKN400 29/23 Q1013;
0143825640999992007100514004-05533-047500FM-15+0123SBIZ V0200901N005111200019N0112651N1+03101+02201999999ADDGA1041+006001999GA2071+120001999GF107991999999999999999999MA1101291999999REMMET058METAR SBIZ 051400Z 09010KT 9999 SCT020 BKN400 31/22 Q1013;
0143825640999992007100515004-05533-047500FM-15+0123SBIZ V0201501N005112200019N0112651N1+03301+02201999999ADDGA1041+006001999GA2041+120001999GF104991999999999999999999MA1101191999999REMMET058METAR SBIZ 051500Z 15010KT 9999 SCT020 SCT400 33/22 Q1012;
0143825640999992007100516004-05533-047500FM-15+0123SBIZ V0201201N006210300019N0112651N1+03301+02201999999ADDGA1041+006001999GA2071+030001999GF107991999999999999999999MA1101081999999REMMET058METAR SBIZ 051600Z 12012KT 9999 SCT020 BKN100 33/22 Q1011;
0143825640999992007100517004-05533-047500FM-15+0123SBIZ V0200701N005110300019N0112651N1+03301+02201999999ADDGA1041+006001999GA2071+030001999GF107991999999999999999999MA1101021999999REMMET058METAR SBIZ 051700Z 07010KT 9999 SCT020 BKN100 33/22 Q1010;
0166825640999992007100518004-05533-047500FM-15+0123SBIZ V0201001N00261021001CN0112651N1+02901+02501999999ADDGA1041+006001999GA2041+021001999GA3071+090001999GF107991999999999999999999MA1100911999999REMMET065METAR SBIZ 051800Z 10005KT 9999 SCT020 SCT070 BKN300 29/25 Q1009;
0143825640999992007100519004-05533-047500FM-15+0123SBIZ V0201201N005112200019N0112651N1+03401+02001999999ADDGA1021+006001999GA2041+030001999GF104991999999999999999999MA1100811999999REMMET058METAR SBIZ 051900Z 12010KT 9999 FEW020 SCT100 34/20 Q1008;
0143825640999992007100520004-05533-047500FM-15+0123SBIZ V0202501N003111200019N0080001N1+03301+02001999999ADDGA1021+006001999GA2071+120001999GF107991999999999999999999MA1100811999999REMMET058METAR SBIZ 052000Z 25006KT 8000 FEW020 BKN400 33/20 Q1008;
0143825640999992007100521004-05533-047500FM-15+0123SBIZ V0201901N001011200019N0080001N1+03201+02101999999ADDGA1021+006001999GA2081+120001999GF108991999999999999999999MA1100811999999REMMET058METAR SBIZ 052100Z 19002KT 8000 FEW020 OVC400 32/21 Q1008;
0120825640999992007100522004-05533-047500FM-15+0123SBIZ V0209999C000012200019N0080001N1+03001+02101999999ADDGF100991999999999999999999MA1100911999999REMMET048METAR SBIZ 052200Z 00000KT 8000 NSC 30/21 Q1009;EQDQ01    003SCCGA1
0143825640999992007100523004-05533-047500FM-15+0123SBIZ V0209999C000011200019N0080001N1+03001+02201999999ADDGA1041+004501999GA2071+120001999GF107991999999999999999999MA1100911999999REMMET058METAR SBIZ 052300Z 00000KT 8000 SCT015 BKN400 30/22 Q1009;
0143825640999992007100600004-05533-047500FM-15+0123SBIZ V0203501N005111200019N0080001N1+02901+02201999999ADDGA1041+004501999GA2071+120001999GF107991999999999999999999MA1101021999999REMMET058METAR SBIZ 060000Z 35010KT 8000 SCT015 BKN400 29/22 Q1010;
0143825640999992007100601004-05533-047500FM-15+0123SBIZ V0203401N006211200019N0080001N1+02801+02301999999ADDGA1041+004501999GA2071+120001999GF107991999999999999999999MA1101021999999REMMET058METAR SBIZ 060100Z 34012KT 8000 SCT015 BKN400 28/23 Q1010;
0143825640999992007100602004-05533-047500FM-15+0123SBIZ V0203301N004112200019N0080001N1+02701+02201999999ADDGA1041+004501999GA2041+120001999GF104991999999999999999999MA1101081999999REMMET058METAR SBIZ 060200Z 33008KT 8000 SCT015 SCT400 27/22 Q1011;
0143825640999992007100603004-05533-047500FM-15+0123SBIZ V0203301N005112200019N0080001N1+02701+02201999999ADDGA1041+004501999GA2041+120001999GF104991999999999999999999MA1101081999999REMMET058METAR SBIZ 060300Z 33010KT 8000 SCT015 SCT400 27/22 Q1011;
0120825640999992007100609004-05533-047500FM-15+0123SBIZ V0201201N001012200019N0080001N1+02401+02201999999ADDGF100991999999999999999999MA1101081999999REMMET048METAR SBIZ 060900Z 12002KT 8000 NSC 24/22 Q1011;EQDQ01    003SCCGA1
0120825640999992007100610004-05533-047500FM-15+0123SBIZ V0200501N006212200019N0080001N1+02501+02201999999ADDGF100991999999999999999999MA1101191999999REMMET048METAR SBIZ 061000Z 05012KT 8000 NSC 25/22 Q1012;EQDQ01    003SCCGA1
0143825640999992007100611004-05533-047500FM-15+0123SBIZ V0200601N005111200019N0112651N1+02701+02101999999ADDGA1021+006001999GA2071+120001999GF107991999999999999999999MA1101291999999REMMET058METAR SBIZ 061100Z 06010KT 9999 FEW020 BKN400 27/21 Q1013;
0143825640999992007100612004-05533-047500FM-15+0123SBIZ V0201201N006211200019N0112651N1+02901+02101999999ADDGA1021+006001999GA2071+120001999GF107991999999999999999999MA1101291999999REMMET058METAR SBIZ 061200Z 12012KT 9999 FEW020 BKN400 29/21 Q1013;
0143825640999992007100613004-05533-047500FM-15+0123SBIZ V0200901N006211200019N0112651N1+03001+02101999999ADDGA1041+006001999GA2071+120001999GF107991999999999999999999MA1101291999999REMMET058METAR SBIZ 061300Z 09012KT 9999 SCT020 BKN400 30/21 Q1013;
0143825640999992007100614004-05533-047500FM-15+0123SBIZ V0200601N005111200019N0112651N1+03201+02101999999ADDGA1041+006001999GA2071+120001999GF107991999999999999999999MA1101291999999REMMET058METAR SBIZ 061400Z 06010KT 9999 SCT020 BKN400 32/21 Q1013;
0143825640999992007100615004-05533-047500FM-15+0123SBIZ V0201201N003112200019N0112651N1+03301+02101999999ADDGA1021+006001999GA2041+120001999GF104991999999999999999999MA1101191999999REMMET058METAR SBIZ 061500Z 12006KT 9999 FEW020 SCT400 33/21 Q1012;
0143825640999992007100616004-05533-047500FM-15+0123SBIZ V0200301N001511200019N0112651N1+03301+02001999999ADDGA1041+006001999GA2071+120001999GF107991999999999999999999MA1101021999999REMMET058METAR SBIZ 061600Z 03003KT 9999 SCT020 BKN400 33/20 Q1010;
0143825640999992007100617004-05533-047500FM-15+0123SBIZ V0201501N005111200019N0112651N1+03301+01901999999ADDGA1021+006001999GA2071+120001999GF107991999999999999999999MA1100911999999REMMET058METAR SBIZ 061700Z 15010KT 9999 FEW020 BKN400 33/19 Q1009;
0143825640999992007100618004-05533-047500FM-15+0123SBIZ V0201001N005111200019N0112651N1+03401+02001999999ADDGA1021+006001999GA2071+120001999GF107991999999999999999999MA1100911999999REMMET058METAR SBIZ 061800Z 10010KT 9999 FEW020 BKN400 34/20 Q1009;
0143825640999992007100619004-05533-047500FM-15+0123SBIZ V0201001N005111200019N0112651N1+03301+02001999999ADDGA1021+006001999GA2071+120001999GF107991999999999999999999MA1100811999999REMMET058METAR SBIZ 061900Z 10010KT 9999 FEW020 BKN400 33/20 Q1008;
0143825640999992007100620004-05533-047500FM-15+0123SBIZ V0201001N002611200019N0112651N1+03301+01901999999ADDGA1021+006001999GA2071+120001999GF107991999999999999999999MA1100811999999REMMET058METAR SBIZ 062000Z 10005KT 9999 FEW020 BKN400 33/19 Q1008;
0143825640999992007100621004-05533-047500FM-15+0123SBIZ V0209999C000012200019N0112651N1+03101+02001999999ADDGA1021+006001999GA2041+120001999GF104991999999999999999999MA1100811999999REMMET058METAR SBIZ 062100Z 00000KT 9999 FEW020 SCT400 31/20 Q1008;
0072825640999992007100622004-05533-047500FM-15+0123SBIZ V0209999C00001220001CN0099001N1+02901+02101999999ADDMA1100811999999REMMET045METAR SBIZ 062200Z 00000KT CAVOK 29/21 Q1008;
0072825640999992007100623004-05533-047500FM-15+0123SBIZ V0209999C00001220001CN0099001N1+02801+02301999999ADDMA1100911999999REMMET045METAR SBIZ 062300Z 00000KT CAVOK 28/23 Q1009;
0072825640999992007100700004-05533-047500FM-15+0123SBIZ V0200701N00101220001CN0099001N1+02701+02201999999ADDMA1101021999999REMMET045METAR SBIZ 070000Z 07002KT CAVOK 27/22 Q1010;
0072825640999992007100701004-05533-047500FM-15+0123SBIZ V0201001N00101220001CN0099001N1+02601+02201999999ADDMA1101021999999REMMET045METAR SBIZ 070100Z 10002KT CAVOK 26/22 Q1010;
0072825640999992007100702004-05533-047500FM-15+0123SBIZ V0201001N00151220001CN0099001N1+02601+02301999999ADDMA1101021999999REMMET045METAR SBIZ 070200Z 10003KT CAVOK 26/23 Q1010;
0120825640999992007100703004-05533-047500FM-15+0123SBIZ V0209999C000012200019N0090001N1+02501+02201999999ADDGF100991999999999999999999MA1101021999999REMMET048METAR SBIZ 070300Z 00000KT 9000 SKC 25/22 Q1010;EQDQ01    003SCCGA1
0120825640999992007100704004-05533-047500FM-15+0123SBIZ V0209999C000012200019N0090001N1+02501+02201999999ADDGF100991999999999999999999MA1100911999999REMMET048METAR SBIZ 070400Z 00000KT 9000 SKC 25/22 Q1009;EQDQ01    003SCCGA1
0129825640999992007100709004-05533-047500FM-15+0123SBIZ V0200901N003112200019N0035001N1+02401+02101999999ADDGF100991999999999999999999MA1101021999999MW1101REMMET051METAR SBIZ 070900Z 09006KT 3500 BR SKC 24/21 Q1010;EQDQ01    003SCCGA1
0120825640999992007100710004-05533-047500FM-15+0123SBIZ V0200901N005112200019N0080001N1+02501+02001999999ADDGF100991999999999999999999MA1101081999999REMMET048METAR SBIZ 071000Z 09010KT 8000 SKC 25/20 Q1011;EQDQ01    003SCCGA1
0120825640999992007100711004-05533-047500FM-15+0123SBIZ V0200601N005112200019N0080001N1+02601+02101999999ADDGA1041+004501999GF104991999999999999999999MA1101191999999REMMET051METAR SBIZ 071100Z 06010KT 8000 SCT015 26/21 Q1012;
0143825640999992007100712004-05533-047500FM-15+0123SBIZ V0201201N005112200019N0112651N1+02901+02101999999ADDGA1021+004501999GA2041+006001999GF104991999999999999999999MA1101191999999REMMET058METAR SBIZ 071200Z 12010KT 9999 FEW015 SCT020 29/21 Q1012;
0120825640999992007100713004-05533-047500FM-15+0123SBIZ V0201301N005112200019N0112651N1+03101+02101999999ADDGA1041+006001999GF104991999999999999999999MA1101191999999REMMET051METAR SBIZ 071300Z 13010KT 9999 SCT020 31/21 Q1012;
0120825640999992007100714004-05533-047500FM-15+0123SBIZ V0203601N004112200019N0112651N1+03301+02001999999ADDGA1041+006001999GF104991999999999999999999MA1101081999999REMMET051METAR SBIZ 071400Z 36008KT 9999 SCT020 33/20 Q1011;
0120825640999992007100715004-05533-047500FM-15+0123SBIZ V0209999C000012200019N0112651N1+03401+02201999999ADDGA1041+006001999GF104991999999999999999999MA1101021999999REMMET051METAR SBIZ 071500Z 00000KT 9999 SCT020 34/22 Q1010;
0120825640999992007100716004-05533-047500FM-15+0123SBIZ V0209999C000012200019N0112651N1+03501+02101999999ADDGA1041+006001999GF104991999999999999999999MA1100811999999REMMET051METAR SBIZ 071600Z 00000KT 9999 SCT020 35/21 Q1008;
0120825640999992007100717004-05533-047500FM-15+0123SBIZ V0201301N004112200019N0112651N1+03601+02001999999ADDGA1041+006001999GF104991999999999999999999MA1100711999999REMMET051METAR SBIZ 071700Z 13008KT 9999 SCT020 36/20 Q1007;
0120825640999992007100718004-05533-047500FM-15+0123SBIZ V0201501N006212200019N0112651N1+03601+02101999999ADDGA1041+006001999GF104991999999999999999999MA1100611999999REMMET051METAR SBIZ 071800Z 15012KT 9999 SCT020 36/21 Q1006;
0120825640999992007100719004-05533-047500FM-15+0123SBIZ V0201201N005112200019N0112651N1+03601+02001999999ADDGA1041+006001999GF104991999999999999999999MA1100611999999REMMET051METAR SBIZ 071900Z 12010KT 9999 SCT020 36/20 Q1006;
0120825640999992007100720004-05533-047500FM-15+0123SBIZ V0201501N001012200019N0112651N1+03501+02101999999ADDGA1021+006001999GF102991999999999999999999MA1100511999999REMMET051METAR SBIZ 072000Z 15002KT 9999 FEW020 35/21 Q1005;
0120825640999992007100721004-05533-047500FM-15+0123SBIZ V0209999C000012200019N0112651N1+03301+02101999999ADDGA1021+006001999GF102991999999999999999999MA1100611999999REMMET051METAR SBIZ 072100Z 00000KT 9999 FEW020 33/21 Q1006;
0120825640999992007100722004-05533-047500FM-15+0123SBIZ V0209999C000012200019N0112651N1+03101+02001999999ADDGA1021+006001999GF102991999999999999999999MA1100711999999REMMET051METAR SBIZ 072200Z 00000KT 9999 FEW020 31/20 Q1007;
0120825640999992007100723004-05533-047500FM-15+0123SBIZ V0200301N002612200019N0112651N1+02901+02101999999ADDGA1021+006001999GF102991999999999999999999MA1100711999999REMMET051METAR SBIZ 072300Z 03005KT 9999 FEW020 29/21 Q1007;
0139825640999992007100800004-05533-047500FM-15+0123SBIZ V0203601N004112200019N0112651N1+03101+02001999999ADDGA1041+006001999GA2021+007501021MA1100911999999REMMET061METAR SBIZ 080000Z 36008KT 9999 SCT020 FEW025TCU 31/20 Q1009;EQDQ01+000022SCOTCV
0120825640999992007100801004-05533-047500FM-15+0123SBIZ V0203601N004612200019N0112651N1+03001+02101999999ADDGA1041+006001999GA2021+007501021MA1100911999999REMMET061METAR SBIZ 080100Z 36009KT 9999 SCT020 FEW025TCU 30/21 Q1009;
0120825640999992007100802004-05533-047500FM-15+0123SBIZ V0203301N005112200019N0112651N1+02901+02101999999ADDGA1041+006001999GF104991999999999999999999MA1101021999999REMMET051METAR SBIZ 080200Z 33010KT 9999 SCT020 29/21 Q1010;
0120825640999992007100803004-05533-047500FM-15+0123SBIZ V0203301N003112200019N0080001N1+02701+02201999999ADDGA1041+009001999GF104991999999999999999999MA1101021999999REMMET051METAR SBIZ 080300Z 33006KT 8000 SCT030 27/22 Q1010;
0120825640999992007100804004-05533-047500FM-15+0123SBIZ V0201201N005112200019N0080001N1+02701+02201999999ADDGA1041+009001999GF104991999999999999999999MA1101021999999REMMET051METAR SBIZ 080400Z 12010KT 8000 SCT030 27/22 Q1010;
0158825640999992007100805004-05533-047500FM-15+0123SBIZ V0200501N01031220001CN0070001N1+02601+02301999999ADDGA1071+006001999GA2041+007501091MA1100911999999MW1161MW2171REMMET068METAR SBIZ 080500Z 05020KT 7000 TS VCSH BKN020 SCT025CB 26/23 Q1009;EQDQ01+000042SCOTCV
0143825640999992007100809004-05533-047500FM-15+0123SBIZ V0200901N002111200019N0112651N1+02401+02101999999ADDGA1041+004501999GA2081+120001999GF108991999999999999999999MA1101021999999REMMET058METAR SBIZ 080900Z 09004KT 9999 SCT015 OVC400 24/21 Q1010;
0072825640999992007100810004-05533-047500FM-15+0123SBIZ V0200901N00511220001CN0099001N1+02401+02201999999ADDMA1101191999999REMMET045METAR SBIZ 081000Z 09010KT CAVOK 24/22 Q1012;
0072825640999992007100811004-05533-047500FM-15+0123SBIZ V0201201N00671220001CN0099001N1+02501+02201999999ADDMA1101191999999REMMET045METAR SBIZ 081100Z 12013KT CAVOK 25/22 Q1012;
0166825640999992007100812004-05533-047500FM-15+0123SBIZ V0201201N00511006001CN0112651N1+02801+02301999999ADDGA1021+004501999GA2041+006001999GA3071+120001999GF107991999999999999999999MA1101191999999REMMET065METAR SBIZ 081200Z 12010KT 9999 FEW015 SCT020 BKN400 28/23 Q1012;
0143825640999992007100813004-05533-047500FM-15+0123SBIZ V0200901N009312200019N0112651N1+03001+02301999999ADDGA1041+006001999GA2041+030001999GF104991999999999999999999MA1101191999999REMMET058METAR SBIZ 081300Z 09018KT 9999 SCT020 SCT100 30/23 Q1012;
0143825640999992007100814004-05533-047500FM-15+0123SBIZ V0200601N004612200019N0112651N1+03201+02301999999ADDGA1041+006001999GA2041+120001999GF104991999999999999999999MA1101191999999REMMET058METAR SBIZ 081400Z 06009KT 9999 SCT020 SCT400 32/23 Q1012;
0136825640999992007100815004-05533-047500FM-15+0123SBIZ V0200601N00511220001CN0112651N1+03201+02201999999ADDGA1071+006001999GA2041+120001999MA1101081999999REMMET058METAR SBIZ 081500Z 06010KT 9999 BKN020 SCT400 32/22 Q1011;EQDQ01+000042SCOTCV
0136825640999992007100816004-05533-047500FM-15+0123SBIZ V0200601N00511220001CN0112651N1+03301+02201999999ADDGA1071+006001999GA2041+120001999MA1100911999999REMMET058METAR SBIZ 081600Z 06010KT 9999 BKN020 SCT400 33/22 Q1009;EQDQ01+000042SCOTCV
0143825640999992007100817004-05533-047500FM-15+0123SBIZ V0201201N006711200019N0112651N1+03501+02301999999ADDGA1041+006001999GA2071+120001999GF107991999999999999999999MA1100811999999REMMET058METAR SBIZ 081700Z 12013KT 9999 SCT020 BKN400 35/23 Q1008;
0143825640999992007100818004-05533-047500FM-15+0123SBIZ V0200901N006211200019N0112651N1+03401+02201999999ADDGA1041+006001999GA2071+120001999GF107991999999999999999999MA1100611999999REMMET058METAR SBIZ 081800Z 09012KT 9999 SCT020 BKN400 34/22 Q1006;
0143825640999992007100819004-05533-047500FM-15+0123SBIZ V0201301N005112200019N0112651N1+03401+02201999999ADDGA1041+006001999GA2041+120001999GF104991999999999999999999MA1100611999999REMMET058METAR SBIZ 081900Z 13010KT 9999 SCT020 SCT400 34/22 Q1006;
0143825640999992007100820004-05533-047500FM-15+0123SBIZ V0200401N005111200019N0112651N1+03401+02201999999ADDGA1021+006001999GA2071+120001999GF107991999999999999999999MA1100611999999REMMET058METAR SBIZ 082000Z 04010KT 9999 FEW020 BKN400 34/22 Q1006;
0143825640999992007100821004-05533-047500FM-15+0123SBIZ V0209999C000011200019N0112651N1+03201+02201999999ADDGA1021+006001999GA2071+120001999GF107991999999999999999999MA1100611999999REMMET058METAR SBIZ 082100Z 00000KT 9999 FEW020 BKN400 32/22 Q1006;
0072825640999992007100822004-05533-047500FM-15+0123SBIZ V0209999C00001220001CN0099001N1+03001+02101999999ADDMA1100711999999REMMET045METAR SBIZ 082200Z 00000KT CAVOK 30/21 Q1007;
0072825640999992007100823004-05533-047500FM-15+0123SBIZ V0203601N00101220001CN0099001N1+03101+02101999999ADDMA1100711999999REMMET045METAR SBIZ 082300Z 36002KT CAVOK 31/21 Q1007;
0072825640999992007100900004-05533-047500FM-15+0123SBIZ V0203601N00211220001CN0099001N1+03001+02201999999ADDMA1100811999999REMMET045METAR SBIZ 090000Z 36004KT CAVOK 30/22 Q1008;
0072825640999992007100901004-05533-047500FM-15+0123SBIZ V0203601N00101220001CN0099001N1+02901+02201999999ADDMA1100911999999REMMET045METAR SBIZ 090100Z 36002KT CAVOK 29/22 Q1009;
0072825640999992007100902004-05533-047500FM-15+0123SBIZ V0200901N00361220001CN0099001N1+02701+02201999999ADDMA1100911999999REMMET045METAR SBIZ 090200Z 09007KT CAVOK 27/22 Q1009;
0072825640999992007100903004-05533-047500FM-15+0123SBIZ V0209999C00001220001CN0099001N1+02601+02301999999ADDMA1100911999999REMMET045METAR SBIZ 090300Z 00000KT CAVOK 26/23 Q1009;
0129825640999992007100909004-05533-047500FM-15+0123SBIZ V0200501N001512200019N0032001N1+02501+02201999999ADDGF100991999999999999999999MA1101021999999MW1101REMMET051METAR SBIZ 090900Z 05003KT 3200 BR SKC 25/22 Q1010;EQDQ01    003SCCGA1
0129825640999992007100910004-05533-047500FM-15+0123SBIZ V0201001N004610045019N0042001N1+02501+02201999999ADDGA1071+004501999GF107991999999999999999999MA1101081999999MW1101REMMET054METAR SBIZ 091000Z 10009KT 4200 BR BKN015 25/22 Q1011;
0129825640999992007100911004-05533-047500FM-15+0123SBIZ V0201201N005110045019N0050001N1+02601+02201999999ADDGA1081+004501999GF108991999999999999999999MA1101191999999MW1101REMMET054METAR SBIZ 091100Z 12010KT 5000 BR OVC015 26/22 Q1012;
0129825640999992007100912004-05533-047500FM-15+0123SBIZ V0201301N005110045019N0050001N1+02601+02301999999ADDGA1081+004501999GF108991999999999999999999MA1101291999999MW1101REMMET054METAR SBIZ 091200Z 13010KT 5000 BR OVC015 26/23 Q1013;
0129825640999992007100913004-05533-047500FM-15+0123SBIZ V0200901N005710045019N0050001N1+02801+02301999999ADDGA1081+004501999GF108991999999999999999999MA1101291999999MW1041REMMET054METAR SBIZ 091300Z 09011KT 5000 FU OVC015 28/23 Q1013;
0120825640999992007100917004-05533-047500FM-15+0123SBIZ V0200901N005112200019N0112651N1+03501+02201999999ADDGA1041+006001999GF104991999999999999999999MA1100811999999REMMET051METAR SBIZ 091700Z 09010KT 9999 SCT020 35/22 Q1008;
0120825640999992007100918004-05533-047500FM-15+0123SBIZ V0201001N005112200019N0112651N1+03501+02201999999ADDGA1041+006001999GF104991999999999999999999MA1100711999999REMMET051METAR SBIZ 091800Z 10010KT 9999 SCT020 35/22 Q1007;
0120825640999992007100919004-05533-047500FM-15+0123SBIZ V0201201N005112200019N0112651N1+03501+02101999999ADDGA1021+006001999GF102991999999999999999999MA1100711999999REMMET051METAR SBIZ 091900Z 12010KT 9999 FEW020 35/21 Q1007;
0120825640999992007100920004-05533-047500FM-15+0123SBIZ V0200901N002612200019N0112651N1+03401+02101999999ADDGA1021+006001999GF102991999999999999999999MA1100711999999REMMET051METAR SBIZ 092000Z 09005KT 9999 FEW020 34/21 Q1007;
0120825640999992007100921004-05533-047500FM-15+0123SBIZ V0200901N001512200019N0112651N1+03201+02201999999ADDGA1021+006001999GF102991999999999999999999MA1100811999999REMMET051METAR SBIZ 092100Z 09003KT 9999 FEW020 32/22 Q1008;
0072825640999992007100922004-05533-047500FM-15+0123SBIZ V0209999C00001220001CN0099001N1+03001+02101999999ADDMA1100811999999REMMET045METAR SBIZ 092200Z 00000KT CAVOK 30/21 Q1008;
0072825640999992007101000004-05533-047500FM-15+0123SBIZ V0209999C00001220001CN0099001N1+02901+02001999999ADDMA1100911999999REMMET045METAR SBIZ 100000Z 00000KT CAVOK 29/20 Q1009;
0072825640999992007101001004-05533-047500FM-15+0123SBIZ V0203601N00461220001CN0099001N1+02701+02101999999ADDMA1101021999999REMMET045METAR SBIZ 100100Z 36009KT CAVOK 27/21 Q1010;
0072825640999992007101002004-05533-047500FM-15+0123SBIZ V0203601N00151220001CN0099001N1+02601+02101999999ADDMA1101021999999REMMET045METAR SBIZ 100200Z 36003KT CAVOK 26/21 Q1010;
0072825640999992007101003004-05533-047500FM-15+0123SBIZ V0201201N00101220001CN0099001N1+02501+02101999999ADDMA1100911999999REMMET045METAR SBIZ 100300Z 12002KT CAVOK 25/21 Q1009;
0129825640999992007101009004-05533-047500FM-15+0123SBIZ V0200901N002610045019N0050001N1+02401+02101999999ADDGA1071+004501999GF107991999999999999999999MA1101081999999MW1041REMMET054METAR SBIZ 100900Z 09005KT 5000 FU BKN015 24/21 Q1011;
0152825640999992007101010004-05533-047500FM-15+0123SBIZ V0200901N005110060019N0030001N1+02601+02201999999ADDGA1021+004501999GA2071+006001999GF107991999999999999999999MA1101191999999MW1041REMMET061METAR SBIZ 101000Z 09010KT 3000 FU FEW015 BKN020 26/22 Q1012;
0120825640999992007101011004-05533-047500FM-15+0123SBIZ V0200901N005110060019N0060001N1+02701+02201999999ADDGA1081+006001999GF108991999999999999999999MA1101291999999REMMET051METAR SBIZ 101100Z 09010KT 6000 OVC020 27/22 Q1013;
0120825640999992007101012004-05533-047500FM-15+0123SBIZ V0200901N005112200019N0080001N1+02901+02201999999ADDGA1041+006001999GF104991999999999999999999MA1101291999999REMMET051METAR SBIZ 101200Z 09010KT 8000 SCT020 29/22 Q1013;
0120825640999992007101013004-05533-047500FM-15+0123SBIZ V0200501N002112200019N0112651N1+03001+02201999999ADDGA1041+006001999GF104991999999999999999999MA1101191999999REMMET051METAR SBIZ 101300Z 05004KT 9999 SCT020 30/22 Q1012;
0120825640999992007101014004-05533-047500FM-15+0123SBIZ V0203601N001512200019N0112651N1+03201+02201999999ADDGA1021+006001999GF102991999999999999999999MA1101191999999REMMET051METAR SBIZ 101400Z 36003KT 9999 FEW020 32/22 Q1012;
0120825640999992007101016004-05533-047500FM-15+0123SBIZ V0200901N005112200019N0112651N1+03501+02001999999ADDGA1041+006001999GF104991999999999999999999MA1100911999999REMMET051METAR SBIZ 101600Z 09010KT 9999 SCT020 35/20 Q1009;
0120825640999992007101017004-05533-047500FM-15+0123SBIZ V0203601N001012200019N0112651N1+03501+02001999999ADDGA1041+006001999GF104991999999999999999999MA1100811999999REMMET051METAR SBIZ 101700Z 36002KT 9999 SCT020 35/20 Q1008;
0120825640999992007101018004-05533-047500FM-15+0123SBIZ V0200601N003612200019N0112651N1+03501+02001999999ADDGA1041+006001999GF104991999999999999999999MA1100711999999REMMET051METAR SBIZ 101800Z 06007KT 9999 SCT020 35/20 Q1007;
0072825640999992007101020004-05533-047500FM-15+0123SBIZ V0202701N00101220001CN0099001N1+03601+01901999999ADDMA1100611999999REMMET045METAR SBIZ 102000Z 27002KT CAVOK 36/19 Q1006;
0120825640999992007101021004-05533-047500FM-15+0123SBIZ V0200801N002112200019N0080001N1+03401+02001999999ADDGF100991999999999999999999MA1100611999999REMMET048METAR SBIZ 102100Z 08004KT 8000 SKC 34/20 Q1006;EQDQ01    003SCCGA1
0120825640999992007101022004-05533-047500FM-15+0123SBIZ V0209999C000012200019N0060001N1+03101+02001999999ADDGF100991999999999999999999MA1100711999999REMMET048METAR SBIZ 102200Z 00000KT 6000 SKC 31/20 Q1007;EQDQ01    003SCCGA1
0129825640999992007101023004-05533-047500FM-15+0123SBIZ V0209999C000012200019N0050001N1+03001+02101999999ADDGF100991999999999999999999MA1100811999999MW1041REMMET051METAR SBIZ 102300Z 00000KT 5000 FU SKC 30/21 Q1008;EQDQ01    003SCCGA1
0120825640999992007101100004-05533-047500FM-15+0123SBIZ V0200301N002112200019N0070001N1+02801+02101999999ADDGF100991999999999999999999MA1100811999999REMMET048METAR SBIZ 110000Z 03004KT 7000 SKC 28/21 Q1008;EQDQ01    003SCCGA1
0120825640999992007101101004-05533-047500FM-15+0123SBIZ V0200301N003612200019N0080001N1+02801+02101999999ADDGA1041+004501999GF104991999999999999999999MA1100911999999REMMET051METAR SBIZ 110100Z 03007KT 8000 SCT015 28/21 Q1009;
0120825640999992007101102004-05533-047500FM-15+0123SBIZ V0200901N001512200019N0080001N1+02801+02101999999ADDGA1041+004501999GF104991999999999999999999MA1100911999999REMMET051METAR SBIZ 110200Z 09003KT 8000 SCT015 28/21 Q1009;
0120825640999992007101103004-05533-047500FM-15+0123SBIZ V0209999C000012200019N0080001N1+02701+02201999999ADDGF100991999999999999999999MA1100911999999REMMET048METAR SBIZ 110300Z 00000KT 8000 SKC 27/22 Q1009;EQDQ01    003SCCGA1
0120825640999992007101109004-05533-047500FM-15+0123SBIZ V0203301N004110120019N0060001N1+02601+02201999999ADDGA1071+012001999GF107991999999999999999999MA1100911999999REMMET051METAR SBIZ 110900Z 33008KT 6000 BKN040 26/22 Q1009;
0175825640999992007101110004-05533-047500FM-15+0123SBIZ V0203601N00411030001CN0050001N1+02601+02301999999ADDGA1021+012001999GA2041+030001999GA3081+120001999GF108991999999999999999999MA1101021999999MW1041REMMET068METAR SBIZ 111000Z 36008KT 5000 FU FEW040 SCT100 OVC400 26/23 Q1010;
0129825640999992007101111004-05533-047500FM-15+0123SBIZ V0201201N005112200019N0050001N1+02601+02101999999ADDGF100991999999999999999999MA1101191999999MW1041REMMET051METAR SBIZ 111100Z 12010KT 5000 FU NSC 26/21 Q1012;EQDQ01    003SCCGA1
0120825640999992007101112004-05533-047500FM-15+0123SBIZ V0201301N006212200019N0080001N1+02601+02201999999ADDGF100991999999999999999999MA1101191999999REMMET048METAR SBIZ 111200Z 13012KT 8000 NSC 26/22 Q1012;EQDQ01    003SCCGA1
0072825640999992007101113004-05533-047500FM-15+0123SBIZ V0200901N00311220001CN0099001N1+02701+02201999999ADDMA1101191999999REMMET045METAR SBIZ 111300Z 09006KT CAVOK 27/22 Q1012;
0143825640999992007101114004-05533-047500FM-15+0123SBIZ V0203301N003110300019N0112651N1+02901+02301999999ADDGA1021+006001999GA2071+030001999GF107991999999999999999999MA1101191999999REMMET058METAR SBIZ 111400Z 33006KT 9999 FEW020 BKN100 29/23 Q1012;
0120825640999992007101115004-05533-047500FM-15+0123SBIZ V0203101N004112200019N0112651N1+03101+02201999999ADDGA1041+006001999GF104991999999999999999999MA1101081999999REMMET051METAR SBIZ 111500Z 31008KT 9999 SCT020 31/22 Q1011;
0143825640999992007101116004-05533-047500FM-15+0123SBIZ V0200601N005110060019N0112651N1+03201+02201999999ADDGA1021+004501999GA2071+006001999GF107991999999999999999999MA1100911999999REMMET058METAR SBIZ 111600Z 06010KT 9999 FEW015 BKN020 32/22 Q1009;
0120825640999992007101117004-05533-047500FM-15+0123SBIZ V0201201N005712200019N0112651N1+03401+02201999999ADDGA1041+006001999GF104991999999999999999999MA1100711999999REMMET051METAR SBIZ 111700Z 12011KT 9999 SCT020 34/22 Q1007;
0120825640999992007101118004-05533-047500FM-15+0123SBIZ V0200901N003112200019N0112651N1+03501+02101999999ADDGA1041+006001999GF104991999999999999999999MA1100611999999REMMET051METAR SBIZ 111800Z 09006KT 9999 SCT020 35/21 Q1006;
0143825640999992007101119004-05533-047500FM-15+0123SBIZ V0209999C000011200019N0112651N1+03401+02101999999ADDGA1021+006001999GA2071+120001999GF107991999999999999999999MA1100611999999REMMET058METAR SBIZ 111900Z 00000KT 9999 FEW020 BKN400 34/21 Q1006;
0143825640999992007101120004-05533-047500FM-15+0123SBIZ V0203601N002611200019N0112651N1+03401+02001999999ADDGA1021+006001999GA2071+120001999GF107991999999999999999999MA1100511999999REMMET058METAR SBIZ 112000Z 36005KT 9999 FEW020 BKN400 34/20 Q1005;
0072825640999992007101121004-05533-047500FM-15+0123SBIZ V0203601N00261220001CN0099001N1+03301+02001999999ADDMA1100511999999REMMET045METAR SBIZ 112100Z 36005KT CAVOK 33/20 Q1005;
0072825640999992007101122004-05533-047500FM-15+0123SBIZ V0203601N00151220001CN0099001N1+03201+02101999999ADDMA1100611999999REMMET045METAR SBIZ 112200Z 36003KT CAVOK 32/21 Q1006;
0072825640999992007101123004-05533-047500FM-15+0123SBIZ V0209999C00001220001CN0099001N1+03001+02201999999ADDMA1100711999999REMMET045METAR SBIZ 112300Z 00000KT CAVOK 30/22 Q1007;
0072825640999992007101200004-05533-047500FM-15+0123SBIZ V0203601N00261220001CN0099001N1+02901+02301999999ADDMA1100811999999REMMET045METAR SBIZ 120000Z 36005KT CAVOK 29/23 Q1008;
0072825640999992007101201004-05533-047500FM-15+0123SBIZ V0200501N00101220001CN0099001N1+02801+02201999999ADDMA1100811999999REMMET045METAR SBIZ 120100Z 05002KT CAVOK 28/22 Q1008;
0072825640999992007101202004-05533-047500FM-15+0123SBIZ V0200301N00151220001CN0099001N1+02701+02301999999ADDMA1100811999999REMMET045METAR SBIZ 120200Z 03003KT CAVOK 27/23 Q1008;
0072825640999992007101203004-05533-047500FM-15+0123SBIZ V0203601N00261220001CN0099001N1+02801+02301999999ADDMA1100811999999REMMET045METAR SBIZ 120300Z 36005KT CAVOK 28/23 Q1008;
0072825640999992007101204004-05533-047500FM-15+0123SBIZ V0203601N00311220001CN0099001N1+02701+02201999999ADDMA1100811999999REMMET045METAR SBIZ 120400Z 36006KT CAVOK 27/22 Q1008;
0143825640999992007101209004-05533-047500FM-15+0123SBIZ V0200301N002611200019N0070001N1+02601+02201999999ADDGA1041+004501999GA2071+120001999GF107991999999999999999999MA1101021999999REMMET058METAR SBIZ 120900Z 03005KT 7000 SCT015 BKN400 26/22 Q1010;
0166825640999992007101210004-05533-047500FM-15+0123SBIZ V0200101N003110060019N0112651N1+02601+02201999999ADDGA1041+004501999GA2071+006001999GA3071+120001999GF107991999999999999999999MA1101081999999REMMET065METAR SBIZ 121000Z 01006KT 9999 SCT015 BKN020 BKN400 26/22 Q1011;
0166825640999992007101211004-05533-047500FM-15+0123SBIZ V0203601N004110045019N0112651N1+02601+02201999999ADDGA1071+004501999GA2071+006001999GA3081+120001999GF108991999999999999999999MA1101191999999REMMET065METAR SBIZ 121100Z 36008KT 9999 BKN015 BKN020 OVC400 26/22 Q1012;
0166825640999992007101212004-05533-047500FM-15+0123SBIZ V0200701N007710060019N0112651N1+02701+02201999999ADDGA1041+004501999GA2071+006001999GA3081+120001999GF108991999999999999999999MA1101191999999REMMET065METAR SBIZ 121200Z 07015KT 9999 SCT015 BKN020 OVC400 27/22 Q1012;
0166825640999992007101213004-05533-047500FM-15+0123SBIZ V0203601N003610060019N0112651N1+02701+02201999999ADDGA1041+004501999GA2071+006001999GA3081+120001999GF108991999999999999999999MA1101191999999REMMET065METAR SBIZ 121300Z 36007KT 9999 SCT015 BKN020 OVC400 27/22 Q1012;
0143825640999992007101214004-05533-047500FM-15+0123SBIZ V0200301N004110060019N0112651N1+03001+02201999999ADDGA1021+004501999GA2071+006001999GF107991999999999999999999MA1101191999999REMMET058METAR SBIZ 121400Z 03008KT 9999 FEW015 BKN020 30/22 Q1012;
0120825640999992007101215004-05533-047500FM-15+0123SBIZ V0200301N005110060019N0112651N1+03201+02301999999ADDGA1071+006001999GF107991999999999999999999MA1101081999999REMMET051METAR SBIZ 121500Z 03010KT 9999 BKN020 32/23 Q1011;
0120825640999992007101216004-05533-047500FM-15+0123SBIZ V0200601N008710054019N0112651N1+03201+02301999999ADDGA1081+005401999GF108991999999999999999999MA1101021999999REMMET051METAR SBIZ 121600Z 06017KT 9999 OVC018 32/23 Q1010;
0143825640999992007101217004-05533-047500FM-15+0123SBIZ V0203301N005112200019N0112651N1+03301+02301999999ADDGA1041+005401999GA2041+120001999GF104991999999999999999999MA1100911999999REMMET058METAR SBIZ 121700Z 33010KT 9999 SCT018 SCT400 33/23 Q1009;
0143825640999992007101218004-05533-047500FM-15+0123SBIZ V0200301N004112200019N0112651N1+03401+02101999999ADDGA1041+005401999GA2041+120001999GF104991999999999999999999MA1100811999999REMMET058METAR SBIZ 121800Z 03008KT 9999 SCT018 SCT400 34/21 Q1008;
0143825640999992007101219004-05533-047500FM-15+0123SBIZ V0209999C000011200019N0112651N1+03301+02301999999ADDGA1041+006001999GA2071+120001999GF107991999999999999999999MA1100711999999REMMET058METAR SBIZ 121900Z 00000KT 9999 SCT020 BKN400 33/23 Q1007;
0169825640999992007101220004-05533-047500FM-15+0123SBIZ V0203601N00411007501CN0112651N1+03301+02201999999ADDGA1041+004501999GA2021+007501021GA3071+120001999GF107991999999999999999999MA1100711999999REMMET068METAR SBIZ 122000Z 36008KT 9999 SCT015 FEW025TCU BKN400 33/22 Q1007;
0169825640999992007101221004-05533-047500FM-15+0123SBIZ V0203101N00511007501CN0112651N1+03201+02401999999ADDGA1041+004501999GA2021+007501021GA3071+120001999GF107991999999999999999999MA1100711999999REMMET068METAR SBIZ 122100Z 31010KT 9999 SCT015 FEW025TCU BKN400 32/24 Q1007;
0143825640999992007101222004-05533-047500FM-15+0123SBIZ V0203601N005111200019N0112651N1+03101+02201999999ADDGA1021+006001999GA2071+120001999GF107991999999999999999999MA1100811999999REMMET058METAR SBIZ 122200Z 36010KT 9999 FEW020 BKN400 31/22 Q1008;
0120825640999992007101223004-05533-047500FM-15+0123SBIZ V0203601N004612200019N0112651N1+03001+02201999999ADDGA1021+006001999GF102991999999999999999999MA1100811999999REMMET051METAR SBIZ 122300Z 36009KT 9999 FEW020 30/22 Q1008;
0120825640999992007101300004-05533-047500FM-15+0123SBIZ V0203601N005112200019N0112651N1+02901+02201999999ADDGA1041+006001999GF104991999999999999999999MA1100911999999REMMET051METAR SBIZ 130000Z 36010KT 9999 SCT020 29/22 Q1009;
0143825640999992007101301004-05533-047500FM-15+0123SBIZ V0203301N005112200019N0112651N1+02801+02301999999ADDGA1021+006001999GA2041+030001999GF104991999999999999999999MA1101021999999REMMET058METAR SBIZ 130100Z 33010KT 9999 FEW020 SCT100 28/23 Q1010;
0143825640999992007101302004-05533-047500FM-15+0123SBIZ V0203301N002610300019N0112651N1+02701+02301999999ADDGA1021+006001999GA2071+030001999GF107991999999999999999999MA1101021999999REMMET058METAR SBIZ 130200Z 33005KT 9999 FEW020 BKN100 27/23 Q1010;
0143825640999992007101303004-05533-047500FM-15+0123SBIZ V0203601N004110300019N0112651N1+02701+02201999999ADDGA1021+006001999GA2071+030001999GF107991999999999999999999MA1100911999999REMMET058METAR SBIZ 130300Z 36008KT 9999 FEW020 BKN100 27/22 Q1009;
0129825640999992007101309004-05533-047500FM-15+0123SBIZ V0203301N002112200019N0040001N1+02401+02301999999ADDGF100991999999999999999999MA1100911999999MW1101REMMET051METAR SBIZ 130900Z 33004KT 4000 BR NSC 24/23 Q1009;EQDQ01    003SCCGA1
0175825640999992007101310004-05533-047500FM-15+0123SBIZ V0200601N005110060019N0050001N1+02601+02301999999ADDGA1041+004501999GA2071+006001999GA3081+120001999GF108991999999999999999999MA1101081999999MW1101REMMET068METAR SBIZ 131000Z 06010KT 5000 BR SCT015 BKN020 OVC400 26/23 Q1011;
0143825640999992007101312004-05533-047500FM-15+0123SBIZ V0200601N005111200019N0112651N1+03001+02201999999ADDGA1041+006001999GA2071+120001999GF107991999999999999999999MA1101191999999REMMET058METAR SBIZ 131200Z 06010KT 9999 SCT020 BKN400 30/22 Q1012;
0143825640999992007101313004-05533-047500FM-15+0123SBIZ V0200901N007712200019N0112651N1+03101+02201999999ADDGA1041+006001999GA2041+120001999GF104991999999999999999999MA1101191999999REMMET058METAR SBIZ 131300Z 09015KT 9999 SCT020 SCT400 31/22 Q1012;
0120825640999992007101314004-05533-047500FM-15+0123SBIZ V0200901N005110060019N0112651N1+03101+02101999999ADDGA1071+006001999GF107991999999999999999999MA1101081999999REMMET051METAR SBIZ 131400Z 09010KT 9999 BKN020 31/21 Q1011;
0120825640999992007101315004-05533-047500FM-15+0123SBIZ V0203301N005110060019N0112651N1+03301+02101999999ADDGA1071+006001999GF107991999999999999999999MA1101021999999REMMET051METAR SBIZ 131500Z 33010KT 9999 BKN020 33/21 Q1010;
0120825640999992007101316004-05533-047500FM-15+0123SBIZ V0201201N004112200019N0112651N1+03401+02101999999ADDGA1041+006001999GF104991999999999999999999MA1100911999999REMMET051METAR SBIZ 131600Z 12008KT 9999 SCT020 34/21 Q1009;
0120825640999992007101317004-05533-047500FM-15+0123SBIZ V0201001N005112200019N0112651N1+03401+02101999999ADDGA1041+006001999GF104991999999999999999999MA1100811999999REMMET051METAR SBIZ 131700Z 10010KT 9999 SCT020 34/21 Q1008;
0120825640999992007101318004-05533-047500FM-15+0123SBIZ V0200701N006212200019N0112651N1+03501+02201999999ADDGA1041+006001999GF104991999999999999999999MA1100711999999REMMET051METAR SBIZ 131800Z 07012KT 9999 SCT020 35/22 Q1007;
0120825640999992007101319004-05533-047500FM-15+0123SBIZ V0201001N005112200019N0112651N1+03501+02101999999ADDGA1021+006001999GF102991999999999999999999MA1100611999999REMMET051METAR SBIZ 131900Z 10010KT 9999 FEW020 35/21 Q1006;
0120825640999992007101320004-05533-047500FM-15+0123SBIZ V0200901N005112200019N0112651N1+03401+02101999999ADDGA1021+006001999GF102991999999999999999999MA1100611999999REMMET051METAR SBIZ 132000Z 09010KT 9999 FEW020 34/21 Q1006;
0072825640999992007101321004-05533-047500FM-15+0123SBIZ V0200901N00151220001CN0099001N1+03201+02201999999ADDMA1100611999999REMMET045METAR SBIZ 132100Z 09003KT CAVOK 32/22 Q1006;
0072825640999992007101322004-05533-047500FM-15+0123SBIZ V0209999C00001220001CN0099001N1+03001+02101999999ADDMA1100611999999REMMET045METAR SBIZ 132200Z 00000KT CAVOK 30/21 Q1006;
0072825640999992007101323004-05533-047500FM-15+0123SBIZ V0209999C00001220001CN0099001N1+02901+02101999999ADDMA1100611999999REMMET045METAR SBIZ 132300Z 00000KT CAVOK 29/21 Q1006;
0072825640999992007101400004-05533-047500FM-15+0123SBIZ V0200901N00051220001CN0099001N1+02801+02001999999ADDMA1100711999999REMMET045METAR SBIZ 140000Z 09001KT CAVOK 28/20 Q1007;
0072825640999992007101401004-05533-047500FM-15+0123SBIZ V0209999C00001220001CN0099001N1+02701+02001999999ADDMA1100811999999REMMET045METAR SBIZ 140100Z 00000KT CAVOK 27/20 Q1008;
0072825640999992007101402004-05533-047500FM-15+0123SBIZ V0209999C00001220001CN0099001N1+02701+02101999999ADDMA1100811999999REMMET045METAR SBIZ 140200Z 00000KT CAVOK 27/21 Q1008;
0072825640999992007101403004-05533-047500FM-15+0123SBIZ V0209999C00001220001CN0099001N1+02601+02201999999ADDMA1100711999999REMMET045METAR SBIZ 140300Z 00000KT CAVOK 26/22 Q1007;
0072825640999992007101404004-05533-047500FM-15+0123SBIZ V0209999C00001220001CN0099001N1+02501+02201999999ADDMA1100711999999REMMET045METAR SBIZ 140400Z 00000KT CAVOK 25/22 Q1007;
0120825640999992007101408004-05533-047500FM-15+0123SBIZ V0200701N009310045019N0060001N1+02501+02101999999ADDGA1071+004501999GF107991999999999999999999MA1100811999999REMMET051METAR SBIZ 140800Z 07018KT 6000 BKN015 25/21 Q1008;
0120825640999992007101409004-05533-047500FM-15+0123SBIZ V0200501N006212200019N0080001N1+02501+02101999999ADDGA1021+004501999GF102991999999999999999999MA1100911999999REMMET051METAR SBIZ 140900Z 05012KT 8000 FEW015 25/21 Q1009;
0120825640999992007101410004-05533-047500FM-15+0123SBIZ V0201001N004112200019N0112651N1+02601+02101999999ADDGA1021+004501999GF102991999999999999999999MA1101021999999REMMET051METAR SBIZ 141000Z 10008KT 9999 FEW015 26/21 Q1010;
0120825640999992007101411004-05533-047500FM-15+0123SBIZ V0200701N006212200019N0112651N1+02801+02201999999ADDGA1041+006001999GF104991999999999999999999MA1101081999999REMMET051METAR SBIZ 141100Z 07012KT 9999 SCT020 28/22 Q1011;
0143825640999992007101412004-05533-047500FM-15+0123SBIZ V0200601N006211200019N0112651N1+02901+02301999999ADDGA1041+006001999GA2071+120001999GF107991999999999999999999MA1101081999999REMMET058METAR SBIZ 141200Z 06012KT 9999 SCT020 BKN400 29/23 Q1011;
0117825640999992007101413004-05533-047500FM-15+0123SBIZ V0200301N01031220001CN0112651N1+03101+02201999999ADDGA1071+006001999GA2041+120001999MA1101081999999REMMET058METAR SBIZ 141300Z 03020KT 9999 BKN020 SCT400 31/22 Q1011;
0120825640999992007101414004-05533-047500FM-15+0123SBIZ V0201101N006710060019N0112651N1+03101+02201999999ADDGA1081+006001999GF108991999999999999999999MA1101081999999REMMET051METAR SBIZ 141400Z 11013KT 9999 OVC020 31/22 Q1011;
0120825640999992007101415004-05533-047500FM-15+0123SBIZ V0201001N006212200019N0112651N1+03201+02201999999ADDGA1041+006001999GF104991999999999999999999MA1101021999999REMMET051METAR SBIZ 141500Z 10012KT 9999 SCT020 32/22 Q1010;
0120825640999992007101416004-05533-047500FM-15+0123SBIZ V0201201N004112200019N0112651N1+03401+02201999999ADDGA1041+006001999GF104991999999999999999999MA1100911999999REMMET051METAR SBIZ 141600Z 12008KT 9999 SCT020 34/22 Q1009;
0120825640999992007101417004-05533-047500FM-15+0123SBIZ V0200301N004612200019N0112651N1+03501+02201999999ADDGA1041+006001999GF104991999999999999999999MA1100711999999REMMET051METAR SBIZ 141700Z 03009KT 9999 SCT020 35/22 Q1007;
0120825640999992007101418004-05533-047500FM-15+0123SBIZ V0203601N001512200019N0112651N1+03601+02101999999ADDGA1041+006001999GF104991999999999999999999MA1100611999999REMMET051METAR SBIZ 141800Z 36003KT 9999 SCT020 36/21 Q1006;
0120825640999992007101419004-05533-047500FM-15+0123SBIZ V0201501N005112200019N0112651N1+03501+02101999999ADDGA1021+006001999GF102991999999999999999999MA1100611999999REMMET051METAR SBIZ 141900Z 15010KT 9999 FEW020 35/21 Q1006;
0120825640999992007101420004-05533-047500FM-15+0123SBIZ V0201801N002612200019N0112651N1+03501+02001999999ADDGA1021+006001999GF102991999999999999999999MA1100611999999REMMET051METAR SBIZ 142000Z 18005KT 9999 FEW020 35/20 Q1006;
0143825640999992007101421004-05533-047500FM-15+0123SBIZ V0209999C000011200019N0112651N1+03301+02001999999ADDGA1021+006001999GA2071+120001999GF107991999999999999999999MA1100611999999REMMET058METAR SBIZ 142100Z 00000KT 9999 FEW020 BKN400 33/20 Q1006;
0072825640999992007101422004-05533-047500FM-15+0123SBIZ V0209999C00001220001CN0099001N1+03101+01901999999ADDMA1100611999999REMMET045METAR SBIZ 142200Z 00000KT CAVOK 31/19 Q1006;
0072825640999992007101423004-05533-047500FM-15+0123SBIZ V0209999C00001220001CN0099001N1+02901+01901999999ADDMA1100711999999REMMET045METAR SBIZ 142300Z 00000KT CAVOK 29/19 Q1007;
0072825640999992007101500004-05533-047500FM-15+0123SBIZ V0203601N00411220001CN0099001N1+03001+02101999999ADDMA1100811999999REMMET045METAR SBIZ 150000Z 36008KT CAVOK 30/21 Q1008;
0120825640999992007101501004-05533-047500FM-15+0123SBIZ V0203101N001512200019N0112651N1+02801+02001999999ADDGA1041+012001999GF104991999999999999999999MA1100911999999REMMET051METAR SBIZ 150100Z 31003KT 9999 SCT040 28/20 Q1009;
0072825640999992007101502004-05533-047500FM-15+0123SBIZ V0203301N00101220001CN0099001N1+02801+02001999999ADDMA1100911999999REMMET045METAR SBIZ 150200Z 33002KT CAVOK 28/20 Q1009;
0072825640999992007101503004-05533-047500FM-15+0123SBIZ V0203601N00411220001CN0099001N1+02701+02001999999ADDMA1100911999999REMMET045METAR SBIZ 150300Z 36008KT CAVOK 27/20 Q1009;
0072825640999992007101508004-05533-047500FM-15+0123SBIZ V0209999C00001220001CN0099001N1+02501+02001999999ADDMA1101021999999REMMET045METAR SBIZ 150800Z 00000KT CAVOK 25/20 Q1010;
0143825640999992007101509004-05533-047500FM-15+0123SBIZ V0200901N002610270019N0112651N1+02501+02001999999ADDGA1041+006001999GA2071+027001999GF107991999999999999999999MA1101081999999REMMET058METAR SBIZ 150900Z 09005KT 9999 SCT020 BKN090 25/20 Q1011;
0143825640999992007101510004-05533-047500FM-15+0123SBIZ V0201001N001010270019N0112651N1+02401+02101999999ADDGA1021+006001999GA2071+027001999GF107991999999999999999999MA1101191999999REMMET058METAR SBIZ 151000Z 10002KT 9999 FEW020 BKN090 24/21 Q1012;
0072825640999992007101511004-05533-047500FM-15+0123SBIZ V0200901N00511220001CN0099001N1+02801+02101999999ADDMA1101191999999REMMET045METAR SBIZ 151100Z 09010KT CAVOK 28/21 Q1012;
0143825640999992007101512004-05533-047500FM-15+0123SBIZ V0200901N007710300019N0112651N1+03001+02101999999ADDGA1041+006001999GA2071+030001999GF107991999999999999999999MA1101191999999REMMET058METAR SBIZ 151200Z 09015KT 9999 SCT020 BKN100 30/21 Q1012;
0143825640999992007101513004-05533-047500FM-15+0123SBIZ V0200901N009310300019N0112651N1+03101+02201999999ADDGA1041+006001999GA2071+030001999GF107991999999999999999999MA1101191999999REMMET058METAR SBIZ 151300Z 09018KT 9999 SCT020 BKN100 31/22 Q1012;
0120825640999992007101514004-05533-047500FM-15+0123SBIZ V0200301N005110060019N0112651N1+03201+02201999999ADDGA1071+006001999GF107991999999999999999999MA1101191999999REMMET051METAR SBIZ 151400Z 03010KT 9999 BKN020 32/22 Q1012;
0120825640999992007101515004-05533-047500FM-15+0123SBIZ V0200901N002110060019N0112651N1+03501+02101999999ADDGA1071+006001999GF107991999999999999999999MA1101081999999REMMET051METAR SBIZ 151500Z 09004KT 9999 BKN020 35/21 Q1011;
0120825640999992007101516004-05533-047500FM-15+0123SBIZ V0200501N004112200019N0112651N1+03501+02001999999ADDGA1041+006001999GF104991999999999999999999MA1100911999999REMMET051METAR SBIZ 151600Z 05008KT 9999 SCT020 35/20 Q1009;
0120825640999992007101518004-05533-047500FM-15+0123SBIZ V0200901N005112200019N0112651N1+03601+02001999999ADDGA1041+006001999GF104991999999999999999999MA1100711999999REMMET051METAR SBIZ 151800Z 09010KT 9999 SCT020 36/20 Q1007;
0120825640999992007101519004-05533-047500FM-15+0123SBIZ V0203101N005112200019N0112651N1+03601+01901999999ADDGA1021+006001999GF102991999999999999999999MA1100711999999REMMET051METAR SBIZ 151900Z 31010KT 9999 FEW020 36/19 Q1007;
0120825640999992007101520004-05533-047500FM-15+0123SBIZ V0200901N005112200019N0112651N1+03601+01801999999ADDGA1021+006001999GF102991999999999999999999MA1100711999999REMMET051METAR SBIZ 152000Z 09010KT 9999 FEW020 36/18 Q1007;
0120825640999992007101521004-05533-047500FM-15+0123SBIZ V0209999C000012200019N0112651N1+03301+01901999999ADDGA1021+006001999GF102991999999999999999999MA1100811999999REMMET051METAR SBIZ 152100Z 00000KT 9999 FEW020 33/19 Q1008;
0072825640999992007101522004-05533-047500FM-15+0123SBIZ V0203301N00261220001CN0099001N1+03301+02001999999ADDMA1100811999999REMMET045METAR SBIZ 152200Z 33005KT CAVOK 33/20 Q1008;
0120825640999992007101523004-05533-047500FM-15+0123SBIZ V0203301N002612200019N0112651N1+03201+02101999999ADDGA1021+004501999GF102991999999999999999999MA1100911999999REMMET051METAR SBIZ 152300Z 33005KT 9999 FEW015 32/21 Q1009;
0147825640999992007101600004-05533-047500FM-15+0123SBIZ V0200301N004112200019N0112651N1+02901+02301999999ADDGA1041+004501999GA2021+007501091MA1101021999999MW1171REMMET063METAR SBIZ 160000Z 03008KT 9999 TS SCT015 FEW025CB 29/23 Q1010;EQDQ01+000022SCOTCV
0170825640999992007101601004-05533-047500FM-15+0123SBIZ V0203601N00621220001CN0112651N1+02501+02101999999ADDGA1071+004501999GA2041+006001999GA3021+007501091MA1101081999999MW1171REMMET070METAR SBIZ 160100Z 36012KT 9999 TS BKN015 SCT020 FEW025CB 25/21 Q1011;EQDQ01+000022SCOTCV
0170825640999992007101602004-05533-047500FM-15+0123SBIZ V0203501N002112200019N0112651N1+02501+02101999999ADDGA1041+004501999GA2041+006001999GA3021+007501091MA1101081999999MW1171REMMET070METAR SBIZ 160200Z 35004KT 9999 TS SCT015 SCT020 FEW025CB 25/21 Q1011;EQDQ01+000022SCOTCV
0125825640999992007101603004-05533-047500FM-15+0123SBIZ V0203001N002612200019N0112651N1+02501+02201999999ADDGA1041+004501999GF104991999999999999999999MA1101081999999REMMET056METAR SBIZ 160300Z 30005KT 9999 SCT015 25/22 Q1011 RETS;
0120825640999992007101608004-05533-047500FM-15+0123SBIZ V0200301N004112200019N0090001N1+02201+02001999999ADDGA1021+002401999GF102991999999999999999999MA1101081999999REMMET051METAR SBIZ 160800Z 03008KT 9000 FEW008 22/20 Q1011;
0120825640999992007101609004-05533-047500FM-15+0123SBIZ V0201301N003112200019N0070001N1+02201+02101999999ADDGF100991999999999999999999MA1101191999999REMMET048METAR SBIZ 160900Z 13006KT 7000 SKC 22/21 Q1012;EQDQ01    003SCCGA1
0129825640999992007101610004-05533-047500FM-15+0123SBIZ V0209999C000012200019N0050001N1+02301+02101999999ADDGF100991999999999999999999MA1101191999999MW1101REMMET051METAR SBIZ 161000Z 00000KT 5000 BR SKC 23/21 Q1012;EQDQ01    003SCCGA1
0120825640999992007101611004-05533-047500FM-15+0123SBIZ V0202101N004112200019N0060001N1+02601+02001999999ADDGF100991999999999999999999MA1101291999999REMMET048METAR SBIZ 161100Z 21008KT 6000 SKC 26/20 Q1013;EQDQ01    003SCCGA1
0129825640999992007101612004-05533-047500FM-15+0123SBIZ V0200901N002612200019N0050001N1+02901+02201999999ADDGF100991999999999999999999MA1101291999999MW1041REMMET051METAR SBIZ 161200Z 09005KT 5000 FU SKC 29/22 Q1013;EQDQ01    003SCCGA1
0129825640999992007101613004-05533-047500FM-15+0123SBIZ V0201301N005112200019N0050001N1+03201+02001999999ADDGF100991999999999999999999MA1101291999999MW1041REMMET051METAR SBIZ 161300Z 13010KT 5000 FU SKC 32/20 Q1013;EQDQ01    003SCCGA1
0120825640999992007101614004-05533-047500FM-15+0123SBIZ V0200501N005112200019N0080001N1+03301+02001999999ADDGF100991999999999999999999MA1101291999999REMMET048METAR SBIZ 161400Z 05010KT 8000 SKC 33/20 Q1013;EQDQ01    003SCCGA1
0120825640999992007101615004-05533-047500FM-15+0123SBIZ V0200901N005112200019N0060001N1+03401+01901999999ADDGF100991999999999999999999MA1101081999999REMMET048METAR SBIZ 161500Z 09010KT 6000 NSC 34/19 Q1011;EQDQ01    003SCCGA1
0143825640999992007101616004-05533-047500FM-15+0123SBIZ V0200901N007712200019N0060001N1+03601+01801999999ADDGA1021+006001999GA2041+120001999GF104991999999999999999999MA1101021999999REMMET058METAR SBIZ 161600Z 09015KT 6000 FEW020 SCT400 36/18 Q1010;
0143825640999992007101617004-05533-047500FM-15+0123SBIZ V0200501N005112200019N0080001N1+03601+01801999999ADDGA1021+006001999GA2041+120001999GF104991999999999999999999MA1100911999999REMMET058METAR SBIZ 161700Z 05010KT 8000 FEW020 SCT400 36/18 Q1009;
0143825640999992007101618004-05533-047500FM-15+0123SBIZ V0200901N002612200019N0112651N1+03801+01901999999ADDGA1021+006001999GA2041+120001999GF104991999999999999999999MA1100811999999REMMET058METAR SBIZ 161800Z 09005KT 9999 FEW020 SCT400 38/19 Q1008;
0143825640999992007101620004-05533-047500FM-15+0123SBIZ V0209999C000012200019N0112651N1+03601+01701999999ADDGA1021+006001999GA2041+120001999GF104991999999999999999999MA1100811999999REMMET058METAR SBIZ 162000Z 00000KT 9999 FEW020 SCT400 36/17 Q1008;
0129825640999992007101621004-05533-047500FM-15+0123SBIZ V0202801N005112200019N0050001N1+03401+02001999999ADDGF100991999999999999999999MA1100811999999MW1041REMMET051METAR SBIZ 162100Z 28010KT 5000 FU NSC 34/20 Q1008;EQDQ01    003SCCGA1
0120825640999992007101622004-05533-047500FM-15+0123SBIZ V0203201N002112200019N0070001N1+03101+02001999999ADDGF100991999999999999999999MA1100811999999REMMET048METAR SBIZ 162200Z 32004KT 7000 NSC 31/20 Q1008;EQDQ01    003SCCGA1
0120825640999992007101623004-05533-047500FM-15+0123SBIZ V0203001N001012200019N0070001N1+02901+02001999999ADDGF100991999999999999999999MA1100911999999REMMET048METAR SBIZ 162300Z 30002KT 7000 NSC 29/20 Q1009;EQDQ01    003SCCGA1
0143825640999992007101700004-05533-047500FM-15+0123SBIZ V0200301N003112200019N0070001N1+03001+02101999999ADDGA1041+006001999GA2041+120001999GF104991999999999999999999MA1101021999999REMMET058METAR SBIZ 170000Z 03006KT 7000 SCT020 SCT400 30/21 Q1010;
0120825640999992007101701004-05533-047500FM-15+0123SBIZ V0200301N001512200019N0070001N1+02801+02201999999ADDGF100991999999999999999999MA1101021999999REMMET048METAR SBIZ 170100Z 03003KT 7000 NSC 28/22 Q1010;EQDQ01    003SCCGA1
0120825640999992007101702004-05533-047500FM-15+0123SBIZ V0209999C000012200019N0070001N1+02701+02101999999ADDGF100991999999999999999999MA1101081999999REMMET048METAR SBIZ 170200Z 00000KT 7000 NSC 27/21 Q1011;EQDQ01    003SCCGA1
0120825640999992007101703004-05533-047500FM-15+0123SBIZ V0209999C000012200019N0070001N1+02701+02101999999ADDGF100991999999999999999999MA1101021999999REMMET048METAR SBIZ 170300Z 00000KT 7000 NSC 27/21 Q1010;EQDQ01    003SCCGA1
0120825640999992007101704004-05533-047500FM-15+0123SBIZ V0202801N001012200019N0070001N1+02601+02101999999ADDGF100991999999999999999999MA1101021999999REMMET048METAR SBIZ 170400Z 28002KT 7000 NSC 26/21 Q1010;EQDQ01    003SCCGA1
0129825640999992007101708004-05533-047500FM-15+0123SBIZ V0203601N002610045019N0050001N1+02501+02001999999ADDGA1071+004501999GF107991999999999999999999MA1101081999999MW1041REMMET054METAR SBIZ 170800Z 36005KT 5000 FU BKN015 25/20 Q1011;
0175825640999992007101709004-05533-047500FM-15+0123SBIZ V0200901N00261030001CN0025001N1+02501+02101999999ADDGA1021+004501999GA2041+030001999GA3081+120001999GF108991999999999999999999MA1101081999999MW1101REMMET068METAR SBIZ 170900Z 09005KT 2500 BR FEW015 SCT100 OVC400 25/21 Q1011;
0152825640999992007101710004-05533-047500FM-15+0123SBIZ V0200901N002611200019N0040001N1+02401+02101999999ADDGA1041+006001999GA2071+120001999GF107991999999999999999999MA1101191999999MW1101REMMET061METAR SBIZ 171000Z 09005KT 4000 BR SCT020 BKN400 24/21 Q1012;
0152825640999992007101711004-05533-047500FM-15+0123SBIZ V0200701N007710300019N0040001N1+02701+02101999999ADDGA1041+006001999GA2071+030001999GF107991999999999999999999MA1101291999999MW1041REMMET061METAR SBIZ 171100Z 07015KT 4000 FU SCT020 BKN100 27/21 Q1013;
0152825640999992007101712004-05533-047500FM-15+0123SBIZ V0200701N010310300019N0040001N1+02901+02101999999ADDGA1041+006001999GA2071+030001999GF107991999999999999999999MA1101391999999MW1041REMMET061METAR SBIZ 171200Z 07020KT 4000 FU SCT020 BKN100 29/21 Q1014;
0145825640999992007101713004-05533-047500FM-15+0123SBIZ V0200601N00511220001CN0050001N1+03001+02201999999ADDGA1071+006001999GA2041+030001999MA1101391999999MW1041REMMET061METAR SBIZ 171300Z 06010KT 5000 FU BKN020 SCT100 30/22 Q1014;EQDQ01+000042SCOTCV
0152825640999992007101714004-05533-047500FM-15+0123SBIZ V0200901N006210060019N0050001N1+03201+02201999999ADDGA1071+006001999GA2071+120001999GF107991999999999999999999MA1101291999999MW1041REMMET061METAR SBIZ 171400Z 09012KT 5000 FU BKN020 BKN400 32/22 Q1013;
0152825640999992007101715004-05533-047500FM-15+0123SBIZ V0209999C000010060019N0050001N1+03301+02201999999ADDGA1071+006001999GA2071+120001999GF107991999999999999999999MA1101191999999MW1041REMMET061METAR SBIZ 171500Z 00000KT 5000 FU BKN020 BKN400 33/22 Q1012;
0152825640999992007101716004-05533-047500FM-15+0123SBIZ V0203601N002611200019N0050001N1+03401+02201999999ADDGA1041+006001999GA2071+120001999GF107991999999999999999999MA1101081999999MW1041REMMET061METAR SBIZ 171600Z 36005KT 5000 FU SCT020 BKN400 34/22 Q1011;
0152825640999992007101717004-05533-047500FM-15+0123SBIZ V0202101N001011200019N0050001N1+03401+02101999999ADDGA1041+006001999GA2071+120001999GF107991999999999999999999MA1100911999999MW1041REMMET061METAR SBIZ 171700Z 21002KT 5000 FU SCT020 BKN400 34/21 Q1009;
0152825640999992007101718004-05533-047500FM-15+0123SBIZ V0202001N001011200019N0050001N1+03601+02001999999ADDGA1041+006001999GA2071+120001999GF107991999999999999999999MA1100811999999MW1041REMMET061METAR SBIZ 171800Z 20002KT 5000 FU SCT020 BKN400 36/20 Q1008;
0152825640999992007101719004-05533-047500FM-15+0123SBIZ V0203601N005111200019N0050001N1+03501+02101999999ADDGA1041+006001999GA2071+120001999GF107991999999999999999999MA1100811999999MW1041REMMET061METAR SBIZ 171900Z 36010KT 5000 FU SCT020 BKN400 35/21 Q1008;
0129825640999992007101720004-05533-047500FM-15+0123SBIZ V0203601N002612200019N0050001N1+03401+02101999999ADDGF100991999999999999999999MA1100811999999MW1041REMMET051METAR SBIZ 172000Z 36005KT 5000 FU NSC 34/21 Q1008;EQDQ01    003SCCGA1
0143825640999992007101721004-05533-047500FM-15+0123SBIZ V0203001N004612200019N0060001N1+03201+02101999999ADDGA1021+006001999GA2041+120001999GF104991999999999999999999MA1100811999999REMMET058METAR SBIZ 172100Z 30009KT 6000 FEW020 SCT400 32/21 Q1008;
0120825640999992007101722004-05533-047500FM-15+0123SBIZ V0203301N005112200019N0080001N1+03101+02101999999ADDGF100991999999999999999999MA1100911999999REMMET048METAR SBIZ 172200Z 33010KT 8000 SKC 31/21 Q1009;EQDQ01    003SCCGA1
0120825640999992007101723004-05533-047500FM-15+0123SBIZ V0200901N005112200019N0080001N1+03001+02301999999ADDGF100991999999999999999999MA1101021999999REMMET048METAR SBIZ 172300Z 09010KT 8000 SKC 30/23 Q1010;EQDQ01    003SCCGA1
0120825640999992007101800004-05533-047500FM-15+0123SBIZ V0200601N005112200019N0080001N1+03001+02101999999ADDGA1041+006001999GF104991999999999999999999MA1101021999999REMMET051METAR SBIZ 180000Z 06010KT 8000 SCT020 30/21 Q1010;
0120825640999992007101801004-05533-047500FM-15+0123SBIZ V0203601N002612200019N0080001N1+02901+02201999999ADDGA1041+006001999GF104991999999999999999999MA1101021999999REMMET051METAR SBIZ 180100Z 36005KT 8000 SCT020 29/22 Q1010;
0120825640999992007101802004-05533-047500FM-15+0123SBIZ V0203301N001512200019N0080001N1+02901+02201999999ADDGA1021+006001999GF102991999999999999999999MA1101021999999REMMET051METAR SBIZ 180200Z 33003KT 8000 FEW020 29/22 Q1010;
0120825640999992007101803004-05533-047500FM-15+0123SBIZ V0203601N001012200019N0080001N1+02801+02201999999ADDGF100991999999999999999999MA1101021999999REMMET048METAR SBIZ 180300Z 36002KT 8000 SKC 28/22 Q1010;EQDQ01    003SCCGA1
0120825640999992007101808004-05533-047500FM-15+0123SBIZ V0200701N002610060019N0070001N1+02601+02201999999ADDGA1071+006001999GF107991999999999999999999MA1101021999999REMMET051METAR SBIZ 180800Z 07005KT 7000 BKN020 26/22 Q1010;
0129825640999992007101809004-05533-047500FM-15+0123SBIZ V0201301N002110045019N0050001N1+02601+02201999999ADDGA1071+004501999GF107991999999999999999999MA1101081999999MW1101REMMET054METAR SBIZ 180900Z 13004KT 5000 BR BKN015 26/22 Q1011;
0145825640999992007101810004-05533-047500FM-15+0123SBIZ V0201001N00411220001CN0050001N1+02601+02201999999ADDGA1071+009001999GA2041+021001999MA1101191999999MW1041REMMET061METAR SBIZ 181000Z 10008KT 5000 FU BKN030 SCT070 26/22 Q1012;EQDQ01+000042SCOTCV
0143825640999992007101811004-05533-047500FM-15+0123SBIZ V0201001N005110060019N0070001N1+02701+02201999999ADDGA1021+004501999GA2071+006001999GF107991999999999999999999MA1101291999999REMMET058METAR SBIZ 181100Z 10010KT 7000 FEW015 BKN020 27/22 Q1013;
0143825640999992007101812004-05533-047500FM-15+0123SBIZ V0200501N007710060019N0112651N1+02901+02101999999ADDGA1021+004501999GA2071+006001999GF107991999999999999999999MA1101291999999REMMET058METAR SBIZ 181200Z 05015KT 9999 FEW015 BKN020 29/21 Q1013;
0143825640999992007101813004-05533-047500FM-15+0123SBIZ V0200901N005110060019N0112651N1+02901+02101999999ADDGA1021+004501999GA2071+006001999GF107991999999999999999999MA1101391999999REMMET058METAR SBIZ 181300Z 09010KT 9999 FEW015 BKN020 29/21 Q1014;
0143825640999992007101814004-05533-047500FM-15+0123SBIZ V0200701N005110060019N0112651N1+03001+02101999999ADDGA1021+004501999GA2071+006001999GF107991999999999999999999MA1101291999999REMMET058METAR SBIZ 181400Z 07010KT 9999 FEW015 BKN020 30/21 Q1013;
0143825640999992007101815004-05533-047500FM-15+0123SBIZ V0200601N006710060019N0112651N1+03101+02101999999ADDGA1021+004501999GA2071+006001999GF107991999999999999999999MA1101191999999REMMET058METAR SBIZ 181500Z 06013KT 9999 FEW015 BKN020 31/21 Q1012;
0143825640999992007101816004-05533-047500FM-15+0123SBIZ V0200301N005110060019N0112651N1+03101+02201999999ADDGA1021+004501999GA2071+006001999GF107991999999999999999999MA1101191999999REMMET058METAR SBIZ 181600Z 03010KT 9999 FEW015 BKN020 31/22 Q1012;
0143825640999992007101817004-05533-047500FM-15+0123SBIZ V0203301N001010060019N0112651N1+03101+02101999999ADDGA1021+004501999GA2071+006001999GF107991999999999999999999MA1101081999999REMMET058METAR SBIZ 181700Z 33002KT 9999 FEW015 BKN020 31/21 Q1011;
0120825640999992007101818004-05533-047500FM-15+0123SBIZ V0203601N004612200019N0112651N1+03301+02101999999ADDGA1041+006001999GF104991999999999999999999MA1101021999999REMMET051METAR SBIZ 181800Z 36009KT 9999 SCT020 33/21 Q1010;
0120825640999992007101820004-05533-047500FM-15+0123SBIZ V0203001N005112200019N0080001N1+03201+02101999999ADDGF100991999999999999999999MA1100911999999REMMET048METAR SBIZ 182000Z 30010KT 8000 NSC 32/21 Q1009;EQDQ01    003SCCGA1
0143825640999992007101821004-05533-047500FM-15+0123SBIZ V0203101N005111200019N0080001N1+03101+02001999999ADDGA1021+006001999GA2071+120001999GF107991999999999999999999MA1100911999999REMMET058METAR SBIZ 182100Z 31010KT 8000 FEW020 BKN400 31/20 Q1009;
0143825640999992007101822004-05533-047500FM-15+0123SBIZ V0203501N005111200019N0080001N1+03001+02101999999ADDGA1021+006001999GA2071+120001999GF107991999999999999999999MA1100911999999REMMET058METAR SBIZ 182200Z 35010KT 8000 FEW020 BKN400 30/21 Q1009;
0143825640999992007101823004-05533-047500FM-15+0123SBIZ V0203101N004111200019N0080001N1+03001+02101999999ADDGA1021+006001999GA2071+120001999GF107991999999999999999999MA1101021999999REMMET058METAR SBIZ 182300Z 31008KT 8000 FEW020 BKN400 30/21 Q1010;
0120825640999992007101900004-05533-047500FM-15+0123SBIZ V0202901N002112200019N0080001N1+02801+02101999999ADDGF100991999999999999999999MA1101021999999REMMET048METAR SBIZ 190000Z 29004KT 8000 NSC 28/21 Q1010;EQDQ01    003SCCGA1
0120825640999992007101901004-05533-047500FM-15+0123SBIZ V0203301N002612200019N0080001N1+02701+02101999999ADDGF100991999999999999999999MA1101021999999REMMET048METAR SBIZ 190100Z 33005KT 8000 NSC 27/21 Q1010;EQDQ01    003SCCGA1
0120825640999992007101902004-05533-047500FM-15+0123SBIZ V0203501N003112200019N0060001N1+02601+02201999999ADDGF100991999999999999999999MA1101081999999REMMET048METAR SBIZ 190200Z 35006KT 6000 NSC 26/22 Q1011;EQDQ01    003SCCGA1
0120825640999992007101903004-05533-047500FM-15+0123SBIZ V0202501N001512200019N0060001N1+02501+02201999999ADDGF100991999999999999999999MA1101081999999REMMET048METAR SBIZ 190300Z 25003KT 6000 NSC 25/22 Q1011;EQDQ01    003SCCGA1
0129825640999992007101908004-05533-047500FM-15+0123SBIZ V0200501N002610060019N0050001N1+02401+02201999999ADDGA1071+006001999GF107991999999999999999999MA1101021999999MW1101REMMET054METAR SBIZ 190800Z 05005KT 5000 BR BKN020 24/22 Q1010;
0152825640999992007101909004-05533-047500FM-15+0123SBIZ V0200801N002612200019N0050001N1+02301+02201999999ADDGA1021+009001999GA2041+120001999GF104991999999999999999999MA1101081999999MW1101REMMET061METAR SBIZ 190900Z 08005KT 5000 BR FEW030 SCT400 23/22 Q1011;
0129825640999992007101910004-05533-047500FM-15+0123SBIZ V0201001N002612200019N0050001N1+02401+02201999999ADDGF100991999999999999999999MA1101191999999MW1101REMMET051METAR SBIZ 191000Z 10005KT 5000 BR NSC 24/22 Q1012;EQDQ01    003SCCGA1
0129825640999992007101911004-05533-047500FM-15+0123SBIZ V0200301N003612200019N0050001N1+02701+02201999999ADDGF100991999999999999999999MA1101191999999MW1041REMMET051METAR SBIZ 191100Z 03007KT 5000 FU NSC 27/22 Q1012;EQDQ01    003SCCGA1
0129825640999992007101912004-05533-047500FM-15+0123SBIZ V0200601N005112200019N0050001N1+03001+02301999999ADDGF100991999999999999999999MA1101291999999MW1041REMMET051METAR SBIZ 191200Z 06010KT 5000 FU NSC 30/23 Q1013;EQDQ01    003SCCGA1
0129825640999992007101913004-05533-047500FM-15+0123SBIZ V0203601N004112200019N0050001N1+03101+02301999999ADDGA1021+006001999GF102991999999999999999999MA1101291999999MW1041REMMET054METAR SBIZ 191300Z 36008KT 5000 FU FEW020 31/23 Q1013;
0129825640999992007101914004-05533-047500FM-15+0123SBIZ V0200601N005110060019N0050001N1+03101+02301999999ADDGA1071+006001999GF107991999999999999999999MA1101291999999MW1041REMMET054METAR SBIZ 191400Z 06010KT 5000 FU BKN020 31/23 Q1013;
0143825640999992007101915004-05533-047500FM-15+0123SBIZ V0200601N006210060019N0080001N1+03201+02201999999ADDGA1041+004501999GA2071+006001999GF107991999999999999999999MA1101191999999REMMET058METAR SBIZ 191500Z 06012KT 8000 SCT015 BKN020 32/22 Q1012;
0120825640999992007101916004-05533-047500FM-15+0123SBIZ V0203601N005712200019N0080001N1+03301+02301999999ADDGA1041+006001999GF104991999999999999999999MA1101081999999REMMET051METAR SBIZ 191600Z 36011KT 8000 SCT020 33/23 Q1011;
0120825640999992007101917004-05533-047500FM-15+0123SBIZ V0200601N003112200019N0080001N1+03401+02301999999ADDGA1041+006001999GF104991999999999999999999MA1101021999999REMMET051METAR SBIZ 191700Z 06006KT 8000 SCT020 34/23 Q1010;
0120825640999992007101918004-05533-047500FM-15+0123SBIZ V0203001N002612200019N0080001N1+03401+02201999999ADDGA1041+006001999GF104991999999999999999999MA1100911999999REMMET051METAR SBIZ 191800Z 30005KT 8000 SCT020 34/22 Q1009;
0120825640999992007101919004-05533-047500FM-15+0123SBIZ V0200601N005112200019N0080001N1+03401+02101999999ADDGA1021+006001999GF102991999999999999999999MA1100911999999REMMET051METAR SBIZ 191900Z 06010KT 8000 FEW020 34/21 Q1009;
0120825640999992007101920004-05533-047500FM-15+0123SBIZ V0200301N005112200019N0080001N1+03301+02101999999ADDGA1021+006001999GF102991999999999999999999MA1100811999999REMMET051METAR SBIZ 192000Z 03010KT 8000 FEW020 33/21 Q1008;
0129825640999992007101921004-05533-047500FM-15+0123SBIZ V0200401N005112200019N0050001N1+03201+02101999999ADDGF100991999999999999999999MA1100811999999MW1041REMMET051METAR SBIZ 192100Z 04010KT 5000 FU SKC 32/21 Q1008;EQDQ01    003SCCGA1
0129825640999992007101922004-05533-047500FM-15+0123SBIZ V0200301N005112200019N0050001N1+03101+02101999999ADDGF100991999999999999999999MA1100911999999MW1041REMMET051METAR SBIZ 192200Z 03010KT 5000 FU SKC 31/21 Q1009;EQDQ01    003SCCGA1
0120825640999992007101923004-05533-047500FM-15+0123SBIZ V0203601N004112200019N0060001N1+03001+02101999999ADDGF100991999999999999999999MA1100911999999REMMET048METAR SBIZ 192300Z 36008KT 6000 SKC 30/21 Q1009;EQDQ01    003SCCGA1
0120825640999992007102000004-05533-047500FM-15+0123SBIZ V0200101N004612200019N0060001N1+02901+02101999999ADDGF100991999999999999999999MA1101021999999REMMET048METAR SBIZ 200000Z 01009KT 6000 SKC 29/21 Q1010;EQDQ01    003SCCGA1
0120825640999992007102001004-05533-047500FM-15+0123SBIZ V0200301N001012200019N0060001N1+02801+02101999999ADDGF100991999999999999999999MA1101081999999REMMET048METAR SBIZ 200100Z 03002KT 6000 SKC 28/21 Q1011;EQDQ01    003SCCGA1
0120825640999992007102002004-05533-047500FM-15+0123SBIZ V0200301N002112200019N0060001N1+02701+02101999999ADDGF100991999999999999999999MA1101081999999REMMET048METAR SBIZ 200200Z 03004KT 6000 SKC 27/21 Q1011;EQDQ01    003SCCGA1
0129825640999992007102003004-05533-047500FM-15+0123SBIZ V0200301N001512200019N0035001N1+02601+02101999999ADDGF100991999999999999999999MA1101021999999MW1041REMMET051METAR SBIZ 200300Z 03003KT 3500 FU SKC 26/21 Q1010;EQDQ01    003SCCGA1
0129825640999992007102004004-05533-047500FM-15+0123SBIZ V0203301N001012200019N0035001N1+02601+02001999999ADDGF100991999999999999999999MA1100911999999MW1041REMMET051METAR SBIZ 200400Z 33002KT 3500 FU SKC 26/20 Q1009;EQDQ01    003SCCGA1
0129825640999992007102005004-05533-047500FM-15+0123SBIZ V0203601N002112200019N0035001N1+02601+02101999999ADDGF100991999999999999999999MA1100911999999MW1041REMMET051METAR SBIZ 200500Z 36004KT 3500 FU SKC 26/21 Q1009;EQDQ01    003SCCGA1
0081825640999992007102007154-05533-047500FM-16+0123SBIZ V0209999C000012200019N9999999N1+02301+02101999999ADDMA1100901999999REMMET054METAR SBIZ 200715Z SPECI 00000KT 8000 SKC 23/21 Q1009;
0120825640999992007102008004-05533-047500FM-15+0123SBIZ V0203601N004112200019N0060001N1+02301+02101999999ADDGF100991999999999999999999MA1101021999999REMMET048METAR SBIZ 200800Z 36008KT 6000 SKC 23/21 Q1010;EQDQ01    003SCCGA1
0120825640999992007102009004-05533-047500FM-15+0123SBIZ V0209999C000012200019N0060001N1+02301+02101999999ADDGF100991999999999999999999MA1101081999999REMMET048METAR SBIZ 200900Z 00000KT 6000 SKC 23/21 Q1011;EQDQ01    003SCCGA1
0120825640999992007102010004-05533-047500FM-15+0123SBIZ V0200901N002612200019N0080001N1+02501+02101999999ADDGF100991999999999999999999MA1101191999999REMMET048METAR SBIZ 201000Z 09005KT 8000 SKC 25/21 Q1012;EQDQ01    003SCCGA1
0120825640999992007102011004-05533-047500FM-15+0123SBIZ V0200701N004612200019N0080001N1+02801+02201999999ADDGF100991999999999999999999MA1101291999999REMMET048METAR SBIZ 201100Z 07009KT 8000 SKC 28/22 Q1013;EQDQ01    003SCCGA1
0120825640999992007102012004-05533-047500FM-15+0123SBIZ V0200301N005112200019N0080001N1+03001+02201999999ADDGF100991999999999999999999MA1101391999999REMMET048METAR SBIZ 201200Z 03010KT 8000 SKC 30/22 Q1014;EQDQ01    003SCCGA1
0072825640999992007102013004-05533-047500FM-15+0123SBIZ V0200601N00511220001CN0099001N1+03201+02101999999ADDMA1101391999999REMMET045METAR SBIZ 201300Z 06010KT CAVOK 32/21 Q1014;
0143825640999992007102014004-05533-047500FM-15+0123SBIZ V0200301N002612200019N0112651N1+03301+02001999999ADDGA1021+006001999GA2041+030001999GF104991999999999999999999MA1101291999999REMMET058METAR SBIZ 201400Z 03005KT 9999 FEW020 SCT100 33/20 Q1013;
0143825640999992007102015004-05533-047500FM-15+0123SBIZ V0203601N005111200019N0112651N1+03201+02001999999ADDGA1041+006001999GA2081+120001999GF108991999999999999999999MA1101291999999REMMET058METAR SBIZ 201500Z 36010KT 9999 SCT020 OVC400 32/20 Q1013;
0143825640999992007102016004-05533-047500FM-15+0123SBIZ V0203601N005110120019N0112651N1+03301+02101999999ADDGA1041+006001999GA2081+012001999GF108991999999999999999999MA1101081999999REMMET058METAR SBIZ 201600Z 36010KT 9999 SCT020 OVC040 33/21 Q1011;
0143825640999992007102017004-05533-047500FM-15+0123SBIZ V0203601N004110120019N0112651N1+03301+02101999999ADDGA1041+006001999GA2081+012001999GF108991999999999999999999MA1101081999999REMMET058METAR SBIZ 201700Z 36008KT 9999 SCT020 OVC040 33/21 Q1011;
0166825640999992007102018004-05533-047500FM-15+0123SBIZ V0200601N004110120019N0112651N1+03301+02001999999ADDGA1021+006001999GA2071+012001999GA3081+120001999GF108991999999999999999999MA1101021999999REMMET065METAR SBIZ 201800Z 06008KT 9999 FEW020 BKN040 OVC400 33/20 Q1010;
0143825640999992007102019004-05533-047500FM-15+0123SBIZ V0200301N004111200019N0112651N1+03301+02001999999ADDGA1021+006001999GA2081+120001999GF108991999999999999999999MA1101021999999REMMET058METAR SBIZ 201900Z 03008KT 9999 FEW020 OVC400 33/20 Q1010;
0143825640999992007102020004-05533-047500FM-15+0123SBIZ V0200301N004111200019N0112651N1+03201+01901999999ADDGA1021+006001999GA2071+120001999GF107991999999999999999999MA1101021999999REMMET058METAR SBIZ 202000Z 03008KT 9999 FEW020 BKN400 32/19 Q1010;
0072825640999992007102021004-05533-047500FM-15+0123SBIZ V0200901N00261220001CN0099001N1+03101+02001999999ADDMA1101021999999REMMET045METAR SBIZ 202100Z 09005KT CAVOK 31/20 Q1010;
0072825640999992007102022004-05533-047500FM-15+0123SBIZ V0201301N00101220001CN0099001N1+02901+02001999999ADDMA1101021999999REMMET045METAR SBIZ 202200Z 13002KT CAVOK 29/20 Q1010;
0072825640999992007102023004-05533-047500FM-15+0123SBIZ V0209999C00001220001CN0099001N1+02801+02101999999ADDMA1101021999999REMMET045METAR SBIZ 202300Z 00000KT CAVOK 28/21 Q1010;
0072825640999992007102100004-05533-047500FM-15+0123SBIZ V0209999C00001220001CN0099001N1+02701+02101999999ADDMA1101081999999REMMET045METAR SBIZ 210000Z 00000KT CAVOK 27/21 Q1011;
0072825640999992007102101004-05533-047500FM-15+0123SBIZ V0200301N00101220001CN0099001N1+02701+02201999999ADDMA1101081999999REMMET045METAR SBIZ 210100Z 03002KT CAVOK 27/22 Q1011;
0072825640999992007102102004-05533-047500FM-15+0123SBIZ V0201301N00101220001CN0099001N1+02601+02201999999ADDMA1101081999999REMMET045METAR SBIZ 210200Z 13002KT CAVOK 26/22 Q1011;
0072825640999992007102103004-05533-047500FM-15+0123SBIZ V0200901N00151220001CN0099001N1+02501+02201999999ADDMA1101021999999REMMET045METAR SBIZ 210300Z 09003KT CAVOK 25/22 Q1010;
0120825640999992007102108004-05533-047500FM-15+0123SBIZ V0209999C000012200019N0080001N1+02301+02201999999ADDGF100991999999999999999999MA1101021999999REMMET048METAR SBIZ 210800Z 00000KT 8000 SKC 23/22 Q1010;EQDQ01    003SCCGA1
0120825640999992007102109004-05533-047500FM-15+0123SBIZ V0209999C000012200019N0080001N1+02301+02101999999ADDGF100991999999999999999999MA1101081999999REMMET048METAR SBIZ 210900Z 00000KT 8000 SKC 23/21 Q1011;EQDQ01    003SCCGA1
0120825640999992007102110004-05533-047500FM-15+0123SBIZ V0200301N001012200019N0080001N1+02401+02101999999ADDGF100991999999999999999999MA1101191999999REMMET048METAR SBIZ 211000Z 03002KT 8000 SKC 24/21 Q1012;EQDQ01    003SCCGA1
0072825640999992007102111004-05533-047500FM-15+0123SBIZ V0201501N00411220001CN0099001N1+02701+02101999999ADDMA1101291999999REMMET045METAR SBIZ 211100Z 15008KT CAVOK 27/21 Q1013;
0072825640999992007102112004-05533-047500FM-15+0123SBIZ V0200601N00511220001CN0099001N1+02901+02201999999ADDMA1101291999999REMMET045METAR SBIZ 211200Z 06010KT CAVOK 29/22 Q1013;
0120825640999992007102113004-05533-047500FM-15+0123SBIZ V0201301N005112200019N0112651N1+03101+02201999999ADDGA1021+006001999GF102991999999999999999999MA1101291999999REMMET051METAR SBIZ 211300Z 13010KT 9999 FEW020 31/22 Q1013;
0120825640999992007102114004-05533-047500FM-15+0123SBIZ V0200901N005112200019N0112651N1+03201+02201999999ADDGA1041+006001999GF104991999999999999999999MA1101191999999REMMET051METAR SBIZ 211400Z 09010KT 9999 SCT020 32/22 Q1012;
0120825640999992007102115004-05533-047500FM-15+0123SBIZ V0200701N005110060019N0112651N1+03301+02201999999ADDGA1071+006001999GF107991999999999999999999MA1101191999999REMMET051METAR SBIZ 211500Z 07010KT 9999 BKN020 33/22 Q1012;
0120825640999992007102116004-05533-047500FM-15+0123SBIZ V0201201N005112200019N0112651N1+03501+02201999999ADDGA1041+006001999GF104991999999999999999999MA1101021999999REMMET051METAR SBIZ 211600Z 12010KT 9999 SCT020 35/22 Q1010;
0120825640999992007102117004-05533-047500FM-15+0123SBIZ V0209999C000012200019N0112651N1+03401+02101999999ADDGA1041+006001999GF104991999999999999999999MA1100911999999REMMET051METAR SBIZ 211700Z 00000KT 9999 SCT020 34/21 Q1009;
0170825640999992007102118004-05533-047500FM-15+0123SBIZ V0201201N01541220001CN0090001N1+03401+02201999999ADDGA1071+004501999GA2071+006001999GA3021+007501091MA1101021999999MW1171REMMET070METAR SBIZ 211800Z 12030KT 9000 TS BKN015 BKN020 FEW025CB 34/22 Q1010;EQDQ01+000022SCOTCV
0160825640999992007102119004-05533-047500FM-15+0123SBIZ V0202701N00361220001CN0112651N1+02401+02201999999ADDGA1071+004501999GA2071+006001999GA3021+007501091MA1100911999999MW1801MW2951REMMET073METAR SBIZ 211900Z 27007KT 9999 -TSRA BKN015 BKN020 FEW025CB 24/22 Q1009;
0171825640999992007102120004-05533-047500FM-15+0123SBIZ V0203301N00261006001CN0112651N1+02501+02301999999ADDGA1041+004501999GA2041+006001999GA3081+021001999GF108991999999999999999999MA1100911999999REMMET070METAR SBIZ 212000Z 33005KT 9999 SCT015 SCT020 OVC070 25/23 Q1009 RETS;
0195825640999992007102121004-05533-047500FM-15+0123SBIZ V0200301N00311009001CN0112651N1+02501+02201999999ADDGA1021+007501091GA2041+009001999GA3081+030001999GF108991999999999999999999MA1100911999999MW1161MW2171REMMET082METAR SBIZ 212100Z 03006KT 9999 9000NW TS VCSH FEW025CB SCT030 OVC100 25/22 Q1009;
0148825640999992007102122004-05533-047500FM-15+0123SBIZ V0203501N001010300019N0112651N1+02401+02201999999ADDGA1041+009001999GA2081+030001999GF108991999999999999999999MA1100911999999REMMET063METAR SBIZ 212200Z 35002KT 9999 SCT030 OVC100 24/22 Q1009 RETS;
0143825640999992007102123004-05533-047500FM-15+0123SBIZ V0201001N001010300019N0112651N1+02401+02301999999ADDGA1041+009001999GA2081+030001999GF108991999999999999999999MA1101021999999REMMET058METAR SBIZ 212300Z 10002KT 9999 SCT030 OVC100 24/23 Q1010;
0143825640999992007102200004-05533-047500FM-15+0123SBIZ V0203501N004110300019N0112651N1+02401+02201999999ADDGA1041+009001999GA2071+030001999GF107991999999999999999999MA1101081999999REMMET058METAR SBIZ 220000Z 35008KT 9999 SCT030 BKN100 24/22 Q1011;
0143825640999992007102201004-05533-047500FM-15+0123SBIZ V0203301N002610090019N0112651N1+02401+02201999999ADDGA1071+009001999GA2071+030001999GF107991999999999999999999MA1101081999999REMMET058METAR SBIZ 220100Z 33005KT 9999 BKN030 BKN100 24/22 Q1011;
0143825640999992007102202004-05533-047500FM-15+0123SBIZ V0203301N002610300019N0112651N1+02401+02201999999ADDGA1041+009001999GA2071+030001999GF107991999999999999999999MA1101081999999REMMET058METAR SBIZ 220200Z 33005KT 9999 SCT030 BKN100 24/22 Q1011;
0129825640999992007102208004-05533-047500FM-15+0123SBIZ V0209999C000012200019N0050001N1+02301+02201999999ADDGA1021+004501999GF102991999999999999999999MA1101021999999MW1101REMMET054METAR SBIZ 220800Z 00000KT 5000 BR FEW015 23/22 Q1010;
0129825640999992007102209004-05533-047500FM-15+0123SBIZ V0200301N001012200019N0040001N1+02301+02201999999ADDGF100991999999999999999999MA1101081999999MW1101REMMET051METAR SBIZ 220900Z 03002KT 4000 BR NSC 23/22 Q1011;EQDQ01    003SCCGA1
0152825640999992007102210004-05533-047500FM-15+0123SBIZ V0201301N002111200019N0050001N1+02401+02301999999ADDGA1021+004501999GA2081+120001999GF108991999999999999999999MA1101191999999MW1101REMMET061METAR SBIZ 221000Z 13004KT 5000 BR FEW015 OVC400 24/23 Q1012;
0143825640999992007102211004-05533-047500FM-15+0123SBIZ V0200901N001510060019N0070001N1+02501+02301999999ADDGA1021+004501999GA2071+006001999GF107991999999999999999999MA1101291999999REMMET058METAR SBIZ 221100Z 09003KT 7000 FEW015 BKN020 25/23 Q1013;
0143825640999992007102212004-05533-047500FM-15+0123SBIZ V0200501N005110060019N0112651N1+02801+02201999999ADDGA1041+004501999GA2071+006001999GF107991999999999999999999MA1101391999999REMMET058METAR SBIZ 221200Z 05010KT 9999 SCT015 BKN020 28/22 Q1014;
0153825640999992007102213004-05533-047500FM-15+0123SBIZ V0200901N005110030019N0040001N1+02301+02201999999ADDGA1071+003001999GA2071+006001999GF107991999999999999999999MA1101391999999MW1611REMMET062METAR SBIZ 221300Z 09010KT 4000 -RA BKN010 BKN020 23/22 Q1014;
0095825640999992007102213354-05533-047500FM-16+0123SBIZ V0200901N003112200019N9999999N1+02301+02201999999ADDMA1101401999999REMMET068METAR SBIZ 221335Z SPECI 09006KT 5000 -RA BKN015 BKN020 23/22 Q1014;
0176825640999992007102215004-05533-047500FM-15+0123SBIZ V0200901N00511006001CN0090001N1+02401+02201999999ADDGA1021+004501999GA2041+006001999GA3081+021001999GF108991999999999999999999MA1101291999999MW1611REMMET069METAR SBIZ 221500Z 09010KT 9000 -RA FEW015 SCT020 OVC070 24/22 Q1013;
0153825640999992007102216004-05533-047500FM-15+0123SBIZ V0200601N002610210019N0112651N1+02401+02201999999ADDGA1021+003001999GA2081+021001999GF108991999999999999999999MA1101191999999MW1611REMMET062METAR SBIZ 221600Z 06005KT 9999 -RA FEW010 OVC070 24/22 Q1012;
0143825640999992007102217004-05533-047500FM-15+0123SBIZ V0200901N001010210019N0112651N1+02501+02301999999ADDGA1021+004501999GA2081+021001999GF108991999999999999999999MA1101081999999REMMET058METAR SBIZ 221700Z 09002KT 9999 FEW015 OVC070 25/23 Q1011;
0143825640999992007102218004-05533-047500FM-15+0123SBIZ V0200901N005110210019N0112651N1+02601+02301999999ADDGA1021+004501999GA2071+021001999GF107991999999999999999999MA1101081999999REMMET058METAR SBIZ 221800Z 09010KT 9999 FEW015 BKN070 26/23 Q1011;
0143825640999992007102219004-05533-047500FM-15+0123SBIZ V0201201N004110210019N0112651N1+02601+02201999999ADDGA1021+004501999GA2071+021001999GF107991999999999999999999MA1101021999999REMMET058METAR SBIZ 221900Z 12008KT 9999 FEW015 BKN070 26/22 Q1010;
0166825640999992007102220004-05533-047500FM-15+0123SBIZ V0201201N001510210019N0112651N1+02501+02201999999ADDGA1021+006001999GA2071+021001999GA3071+120001999GF107991999999999999999999MA1101021999999REMMET065METAR SBIZ 222000Z 12003KT 9999 FEW020 BKN070 BKN400 25/22 Q1010;
0143825640999992007102221004-05533-047500FM-15+0123SBIZ V0209999C000010090019N0112651N1+02401+02201999999ADDGA1071+009001999GA2071+030001999GF107991999999999999999999MA1101021999999REMMET058METAR SBIZ 222100Z 00000KT 9999 BKN030 BKN100 24/22 Q1010;
0143825640999992007102222004-05533-047500FM-15+0123SBIZ V0209999C000010090019N0112651N1+02401+02201999999ADDGA1071+009001999GA2071+030001999GF107991999999999999999999MA1101081999999REMMET058METAR SBIZ 222200Z 00000KT 9999 BKN030 BKN100 24/22 Q1011;
0120825640999992007102223004-05533-047500FM-15+0123SBIZ V0201001N001012200019N0112651N1+02301+02201999999ADDGA1041+009001999GF104991999999999999999999MA1101081999999REMMET051METAR SBIZ 222300Z 10002KT 9999 SCT030 23/22 Q1011;
0143825640999992007102300004-05533-047500FM-15+0123SBIZ V0200101N002611200019N0112651N1+02301+02201999999ADDGA1041+009001999GA2071+120001999GF107991999999999999999999MA1101081999999REMMET058METAR SBIZ 230000Z 01005KT 9999 SCT030 BKN400 23/22 Q1011;
0143825640999992007102301004-05533-047500FM-15+0123SBIZ V0203301N001012200019N0112651N1+02301+02201999999ADDGA1021+009001999GA2041+120001999GF104991999999999999999999MA1101191999999REMMET058METAR SBIZ 230100Z 33002KT 9999 FEW030 SCT400 23/22 Q1012;
0120825640999992007102302004-05533-047500FM-15+0123SBIZ V0203101N002612200019N0090001N1+02301+02201999999ADDGA1041+002101999GF104991999999999999999999MA1101191999999REMMET051METAR SBIZ 230200Z 31005KT 9000 SCT007 23/22 Q1012;
0101825640999992007102307154-05533-047500FM-16+0123SBIZ V0200501N002612200019N9999999N1+02201+02201999999ADDMA1101101999999REMMET074METAR SBIZ 230715Z SPECI 05005KT 2000 BR BKN004 BKN006 BKN020 22/22 Q1011;
0101825640999992007102307404-05533-047500FM-16+0123SBIZ V0209999C000012200019N9999999N1+02201+02201999999ADDMA1101101999999REMMET074METAR SBIZ 230740Z SPECI 00000KT 1000 BR BKN003 BKN005 BKN020 22/22 Q1011;
0128825640999992007102309004-05533-047500FM-15+0123SBIZ V0203301N002610009019N0004001N1+02201+02201999999ADDGA1091+000901999GF109991999999000251999999MA1101191999999MW1451REMMET053METAR SBIZ 230900Z 33005KT 0400 FG VV003 22/22 Q1012;
0161825640999992007102310004-05533-047500FM-15+0123SBIZ V0201001N00211220001CN0010001N1+02301+02201999999ADDGA1071+000901999GA2041+001501999MA1101291999999MW1101MW2441REMMET071METAR SBIZ 231000Z 10004KT 1000 0450NE FG BR BKN003 SCT005 23/22 Q1013;EQDQ01+000042SCOTCV
0143825640999992007102311004-05533-047500FM-15+0123SBIZ V0203601N002610045019N0070001N1+02401+02201999999ADDGA1041+002701999GA2071+004501999GF107991999999999999999999MA1101291999999REMMET058METAR SBIZ 231100Z 36005KT 7000 SCT009 BKN015 24/22 Q1013;
0143825640999992007102312004-05533-047500FM-15+0123SBIZ V0200301N003610060019N0112651N1+02601+02201999999ADDGA1041+004501999GA2071+006001999GF107991999999999999999999MA1101291999999REMMET058METAR SBIZ 231200Z 03007KT 9999 SCT015 BKN020 26/22 Q1013;
0143825640999992007102313004-05533-047500FM-15+0123SBIZ V0200301N002610060019N0112651N1+02901+02201999999ADDGA1021+004501999GA2071+006001999GF107991999999999999999999MA1101291999999REMMET058METAR SBIZ 231300Z 03005KT 9999 FEW015 BKN020 29/22 Q1013;
0120825640999992007102314004-05533-047500FM-15+0123SBIZ V0200501N005110060019N0112651N1+03001+02201999999ADDGA1071+006001999GF107991999999999999999999MA1101291999999REMMET051METAR SBIZ 231400Z 05010KT 9999 BKN020 30/22 Q1013;
0120825640999992007102316004-05533-047500FM-15+0123SBIZ V0201101N002610060019N0112651N1+03301+02301999999ADDGA1071+006001999GF107991999999999999999999MA1101081999999REMMET051METAR SBIZ 231600Z 11005KT 9999 BKN020 33/23 Q1011;
0120825640999992007102317004-05533-047500FM-15+0123SBIZ V0200401N005110060019N0112651N1+03401+02201999999ADDGA1071+006001999GF107991999999999999999999MA1101021999999REMMET051METAR SBIZ 231700Z 04010KT 9999 BKN020 34/22 Q1010;
0120825640999992007102318004-05533-047500FM-15+0123SBIZ V0203001N004112200019N0112651N1+03501+02301999999ADDGA1041+006001999GF104991999999999999999999MA1100911999999REMMET051METAR SBIZ 231800Z 30008KT 9999 SCT020 35/23 Q1009;
0139825640999992007102319004-05533-047500FM-15+0123SBIZ V0200501N004612200019N0112651N1+03501+02201999999ADDGA1041+006001999GA2021+007501021MA1100811999999REMMET061METAR SBIZ 231900Z 05009KT 9999 SCT020 FEW025TCU 35/22 Q1008;EQDQ01+000022SCOTCV
0120825640999992007102320004-05533-047500FM-15+0123SBIZ V0200201N005112200019N0112651N1+03401+02301999999ADDGA1041+006001999GF104991999999999999999999MA1100811999999REMMET051METAR SBIZ 232000Z 02010KT 9999 SCT020 34/23 Q1008;
0143825640999992007102321004-05533-047500FM-15+0123SBIZ V0200301N004111200019N0112651N1+03201+02001999999ADDGA1041+006001999GA2071+120001999GF107991999999999999999999MA1100811999999REMMET058METAR SBIZ 232100Z 03008KT 9999 SCT020 BKN400 32/20 Q1008;
0143825640999992007102322004-05533-047500FM-15+0123SBIZ V0200301N004112200019N0112651N1+03101+02101999999ADDGA1021+006001999GA2041+030001999GF104991999999999999999999MA1100911999999REMMET058METAR SBIZ 232200Z 03008KT 9999 FEW020 SCT100 31/21 Q1009;
0072825640999992007102323004-05533-047500FM-15+0123SBIZ V0209999C00001220001CN0099001N1+02801+02301999999ADDMA1101021999999REMMET045METAR SBIZ 232300Z 00000KT CAVOK 28/23 Q1010;
0072825640999992007102400004-05533-047500FM-15+0123SBIZ V0200501N00411220001CN0099001N1+02601+02301999999ADDMA1101081999999REMMET045METAR SBIZ 240000Z 05008KT CAVOK 26/23 Q1011;
0072825640999992007102401004-05533-047500FM-15+0123SBIZ V0209999C00001220001CN0099001N1+02501+02301999999ADDMA1101081999999REMMET045METAR SBIZ 240100Z 00000KT CAVOK 25/23 Q1011;
0072825640999992007102402004-05533-047500FM-15+0123SBIZ V0209999C00001220001CN0099001N1+02501+02301999999ADDMA1101081999999REMMET045METAR SBIZ 240200Z 00000KT CAVOK 25/23 Q1011;
0072825640999992007102403004-05533-047500FM-15+0123SBIZ V0209999C00001220001CN0099001N1+02501+02301999999ADDMA1101021999999REMMET045METAR SBIZ 240300Z 00000KT CAVOK 25/23 Q1010;
0136825640999992007102408004-05533-047500FM-15+0123SBIZ V0200301N002612200019N0070001N1+02401+02001999999ADDGA1041+003001999GF104991999999999999999999MA1101081999999MW1101REMMET061METAR SBIZ 240800Z 03005KT 7000 3400NW BR SCT010 24/20 Q1011;
0129825640999992007102409004-05533-047500FM-15+0123SBIZ V0200501N001012200019N0050001N1+02401+02001999999ADDGA1021+006001999GF102991999999999999999999MA1101191999999MW1051REMMET054METAR SBIZ 240900Z 05002KT 5000 HZ FEW020 24/20 Q1012;
0129825640999992007102410004-05533-047500FM-15+0123SBIZ V0200801N003610120019N0050001N1+02301+02101999999ADDGA1071+012001999GF107991999999999999999999MA1101291999999MW1101REMMET054METAR SBIZ 241000Z 08007KT 5000 BR BKN040 23/21 Q1013;
0129825640999992007102411004-05533-047500FM-15+0123SBIZ V0200701N002610120019N0050001N1+02601+02201999999ADDGA1071+012001999GF107991999999999999999999MA1101391999999MW1101REMMET054METAR SBIZ 241100Z 07005KT 5000 BR BKN040 26/22 Q1014;
0129825640999992007102412004-05533-047500FM-15+0123SBIZ V0203501N001012200019N0050001N1+02901+02101999999ADDGA1041+012001999GF104991999999999999999999MA1101491999999MW1041REMMET054METAR SBIZ 241200Z 35002KT 5000 FU SCT040 29/21 Q1015;
0129825640999992007102413004-05533-047500FM-15+0123SBIZ V0203301N001510090019N0050001N1+02901+02101999999ADDGA1071+009001999GF107991999999999999999999MA1101491999999MW1041REMMET054METAR SBIZ 241300Z 33003KT 5000 FU BKN030 29/21 Q1015;
0129825640999992007102414004-05533-047500FM-15+0123SBIZ V0200301N006210090019N0050001N1+03001+02201999999ADDGA1071+009001999GF107991999999999999999999MA1101391999999MW1041REMMET054METAR SBIZ 241400Z 03012KT 5000 FU BKN030 30/22 Q1014;
0120825640999992007102415004-05533-047500FM-15+0123SBIZ V0203601N002612200019N0080001N1+03301+02101999999ADDGA1041+006001999GF104991999999999999999999MA1101291999999REMMET051METAR SBIZ 241500Z 36005KT 8000 SCT020 33/21 Q1013;
0120825640999992007102416004-05533-047500FM-15+0123SBIZ V0200501N005112200019N0080001N1+03301+02001999999ADDGA1041+006001999GF104991999999999999999999MA1101081999999REMMET051METAR SBIZ 241600Z 05010KT 8000 SCT020 33/20 Q1011;
0120825640999992007102417004-05533-047500FM-15+0123SBIZ V0202401N005112200019N0080001N1+03501+02001999999ADDGA1041+006001999GF104991999999999999999999MA1101021999999REMMET051METAR SBIZ 241700Z 24010KT 8000 SCT020 35/20 Q1010;
0120825640999992007102418004-05533-047500FM-15+0123SBIZ V0203001N002612200019N0080001N1+03501+02001999999ADDGA1041+006001999GF104991999999999999999999MA1100911999999REMMET051METAR SBIZ 241800Z 30005KT 8000 SCT020 35/20 Q1009;
0120825640999992007102419004-05533-047500FM-15+0123SBIZ V0201501N001012200019N0080001N1+03501+02101999999ADDGA1021+006001999GF102991999999999999999999MA1100811999999REMMET051METAR SBIZ 241900Z 15002KT 8000 FEW020 35/21 Q1008;
0120825640999992007102420004-05533-047500FM-15+0123SBIZ V0203001N001012200019N0080001N1+03401+02001999999ADDGA1021+006001999GF102991999999999999999999MA1100811999999REMMET051METAR SBIZ 242000Z 30002KT 8000 FEW020 34/20 Q1008;
0143825640999992007102421004-05533-047500FM-15+0123SBIZ V0203601N004111200019N0112651N1+03201+02001999999ADDGA1021+006001999GA2071+120001999GF107991999999999999999999MA1100811999999REMMET058METAR SBIZ 242100Z 36008KT 9999 FEW020 BKN400 32/20 Q1008;
0120825640999992007102422004-05533-047500FM-15+0123SBIZ V0203501N004112200019N0080001N1+03101+02001999999ADDGF100991999999999999999999MA1100911999999REMMET048METAR SBIZ 242200Z 35008KT 8000 NSC 31/20 Q1009;EQDQ01    003SCCGA1
0120825640999992007102423004-05533-047500FM-15+0123SBIZ V0203301N002612200019N0080001N1+03001+02001999999ADDGF100991999999999999999999MA1100911999999REMMET048METAR SBIZ 242300Z 33005KT 8000 NSC 30/20 Q1009;EQDQ01    003SCCGA1
0120825640999992007102500004-05533-047500FM-15+0123SBIZ V0203301N001012200019N0080001N1+02701+02101999999ADDGF100991999999999999999999MA1101021999999REMMET048METAR SBIZ 250000Z 33002KT 8000 SKC 27/21 Q1010;EQDQ01    003SCCGA1
0072825640999992007102501004-05533-047500FM-15+0123SBIZ V0209999C00001220001CN0099001N1+02701+02101999999ADDMA1101081999999REMMET045METAR SBIZ 250100Z 00000KT CAVOK 27/21 Q1011;
0072825640999992007102502004-05533-047500FM-15+0123SBIZ V0201201N00101220001CN0099001N1+02501+02101999999ADDMA1101081999999REMMET045METAR SBIZ 250200Z 12002KT CAVOK 25/21 Q1011;
0120825640999992007102508004-05533-047500FM-15+0123SBIZ V0201201N002610060019N0080001N1+02301+02201999999ADDGA1071+006001999GF107991999999999999999999MA1101081999999REMMET051METAR SBIZ 250800Z 12005KT 8000 BKN020 23/22 Q1011;
0143825640999992007102509004-05533-047500FM-15+0123SBIZ V0201201N001012200019N0080001N1+02301+02101999999ADDGA1041+006001999GA2041+120001999GF104991999999999999999999MA1101081999999REMMET058METAR SBIZ 250900Z 12002KT 8000 SCT020 SCT400 23/21 Q1011;
0120825640999992007102510004-05533-047500FM-15+0123SBIZ V0209999C000012200019N0080001N1+02501+02201999999ADDGA1041+006001999GF104991999999999999999999MA1101081999999REMMET051METAR SBIZ 251000Z 00000KT 8000 SCT020 25/22 Q1011;
0120825640999992007102511004-05533-047500FM-15+0123SBIZ V0200901N004612200019N0080001N1+02701+02301999999ADDGF100991999999999999999999MA1101191999999REMMET048METAR SBIZ 251100Z 09009KT 8000 SKC 27/23 Q1012;EQDQ01    003SCCGA1
0120825640999992007102512004-05533-047500FM-15+0123SBIZ V0200901N005112200019N0112651N1+03001+02301999999ADDGA1041+006001999GF104991999999999999999999MA1101191999999REMMET051METAR SBIZ 251200Z 09010KT 9999 SCT020 30/23 Q1012;
0120825640999992007102513004-05533-047500FM-15+0123SBIZ V0200301N002612200019N0112651N1+03101+02301999999ADDGA1041+006001999GF104991999999999999999999MA1101191999999REMMET051METAR SBIZ 251300Z 03005KT 9999 SCT020 31/23 Q1012;
0120825640999992007102514004-05533-047500FM-15+0123SBIZ V0201201N004112200019N0112651N1+03201+02301999999ADDGA1041+006001999GF104991999999999999999999MA1101081999999REMMET051METAR SBIZ 251400Z 12008KT 9999 SCT020 32/23 Q1011;
0120825640999992007102515004-05533-047500FM-15+0123SBIZ V0202101N004112200019N0112651N1+03401+02201999999ADDGA1041+006001999GF104991999999999999999999MA1101081999999REMMET051METAR SBIZ 251500Z 21008KT 9999 SCT020 34/22 Q1011;
0120825640999992007102516004-05533-047500FM-15+0123SBIZ V0200901N005112200019N0112651N1+03501+02001999999ADDGA1041+006001999GF104991999999999999999999MA1100911999999REMMET051METAR SBIZ 251600Z 09010KT 9999 SCT020 35/20 Q1009;
0120825640999992007102517004-05533-047500FM-15+0123SBIZ V0203601N005112200019N0112651N1+03401+02101999999ADDGA1041+006001999GF104991999999999999999999MA1100811999999REMMET051METAR SBIZ 251700Z 36010KT 9999 SCT020 34/21 Q1008;
0120825640999992007102518004-05533-047500FM-15+0123SBIZ V0201201N001012200019N0112651N1+03501+02101999999ADDGA1041+006001999GF104991999999999999999999MA1100711999999REMMET051METAR SBIZ 251800Z 12002KT 9999 SCT020 35/21 Q1007;
0120825640999992007102519004-05533-047500FM-15+0123SBIZ V0209999C000012200019N0112651N1+03601+02001999999ADDGA1021+006001999GF102991999999999999999999MA1100611999999REMMET051METAR SBIZ 251900Z 00000KT 9999 FEW020 36/20 Q1006;
0120825640999992007102520004-05533-047500FM-15+0123SBIZ V0209999C000012200019N0112651N1+03501+01901999999ADDGA1021+006001999GF102991999999999999999999MA1100611999999REMMET051METAR SBIZ 252000Z 00000KT 9999 FEW020 35/19 Q1006;
0120825640999992007102600004-05533-047500FM-15+0123SBIZ V0203601N002612200019N0112651N1+03001+02101999999ADDGA1041+004501999GF104991999999999999999999MA1100911999999REMMET051METAR SBIZ 260000Z 36005KT 9999 SCT015 30/21 Q1009;
0120825640999992007102601004-05533-047500FM-15+0123SBIZ V0200301N002612200019N0112651N1+02901+02101999999ADDGA1041+004501999GF104991999999999999999999MA1101021999999REMMET051METAR SBIZ 260100Z 03005KT 9999 SCT015 29/21 Q1010;
0143825640999992007102602004-05533-047500FM-15+0123SBIZ V0209999C000012200019N0112651N1+02801+02201999999ADDGA1021+004501999GA2041+006001999GF104991999999999999999999MA1101021999999REMMET058METAR SBIZ 260200Z 00000KT 9999 FEW015 SCT020 28/22 Q1010;
0072825640999992007102603004-05533-047500FM-15+0123SBIZ V0209999C00001220001CN0099001N1+02601+02301999999ADDMA1100911999999REMMET045METAR SBIZ 260300Z 00000KT CAVOK 26/23 Q1009;
0120825640999992007102608004-05533-047500FM-15+0123SBIZ V0201501N001012200019N0060001N1+02401+02201999999ADDGF100991999999999999999999MA1101021999999REMMET048METAR SBIZ 260800Z 15002KT 6000 SKC 24/22 Q1010;EQDQ01    003SCCGA1
0129825640999992007102610004-05533-047500FM-15+0123SBIZ V0201201N001512200019N0050001N1+02501+02201999999ADDGF100991999999999999999999MA1101191999999MW1101REMMET051METAR SBIZ 261000Z 12003KT 5000 BR SKC 25/22 Q1012;EQDQ01    003SCCGA1
0120825640999992007102611004-05533-047500FM-15+0123SBIZ V0209999C000012200019N0060001N1+02801+02201999999ADDGF100991999999999999999999MA1101191999999REMMET048METAR SBIZ 261100Z 00000KT 6000 SKC 28/22 Q1012;EQDQ01    003SCCGA1
0120825640999992007102612004-05533-047500FM-15+0123SBIZ V0209999C000012200019N0080001N1+03001+02201999999ADDGF100991999999999999999999MA1101191999999REMMET048METAR SBIZ 261200Z 00000KT 8000 SKC 30/22 Q1012;EQDQ01    003SCCGA1
0072825640999992007102613004-05533-047500FM-15+0123SBIZ V0209999C00001220001CN0099001N1+03201+02101999999ADDMA1101191999999REMMET045METAR SBIZ 261300Z 00000KT CAVOK 32/21 Q1012;
0120825640999992007102614004-05533-047500FM-15+0123SBIZ V0201301N004112200019N0080001N1+03301+02001999999ADDGF100991999999999999999999MA1101191999999REMMET048METAR SBIZ 261400Z 13008KT 8000 SKC 33/20 Q1012;EQDQ01    003SCCGA1
0120825640999992007102615004-05533-047500FM-15+0123SBIZ V0201501N002612200019N0112651N1+03401+02001999999ADDGA1041+006001999GF104991999999999999999999MA1101021999999REMMET051METAR SBIZ 261500Z 15005KT 9999 SCT020 34/20 Q1010;
0120825640999992007102616004-05533-047500FM-15+0123SBIZ V0200201N006212200019N0112651N1+03601+02101999999ADDGA1041+006001999GF104991999999999999999999MA1100911999999REMMET051METAR SBIZ 261600Z 02012KT 9999 SCT020 36/21 Q1009;
0120825640999992007102617004-05533-047500FM-15+0123SBIZ V0200701N007712200019N0112651N1+03701+01901999999ADDGA1041+006001999GF104991999999999999999999MA1100811999999REMMET051METAR SBIZ 261700Z 07015KT 9999 SCT020 37/19 Q1008;
0120825640999992007102618004-05533-047500FM-15+0123SBIZ V0203301N002612200019N0112651N1+03601+01801999999ADDGA1041+006001999GF104991999999999999999999MA1100711999999REMMET051METAR SBIZ 261800Z 33005KT 9999 SCT020 36/18 Q1007;
0120825640999992007102619004-05533-047500FM-15+0123SBIZ V0201201N005112200019N0112651N1+03601+01801999999ADDGA1021+006001999GF102991999999999999999999MA1100611999999REMMET051METAR SBIZ 261900Z 12010KT 9999 FEW020 36/18 Q1006;
0120825640999992007102620004-05533-047500FM-15+0123SBIZ V0200901N002612200019N0112651N1+03501+01801999999ADDGA1021+006001999GF102991999999999999999999MA1100611999999REMMET051METAR SBIZ 262000Z 09005KT 9999 FEW020 35/18 Q1006;
0120825640999992007102621004-05533-047500FM-15+0123SBIZ V0203601N002612200019N0112651N1+03401+02101999999ADDGA1021+006001999GF102991999999999999999999MA1100711999999REMMET051METAR SBIZ 262100Z 36005KT 9999 FEW020 34/21 Q1007;
0120825640999992007102622004-05533-047500FM-15+0123SBIZ V0203501N002612200019N0112651N1+03301+02001999999ADDGA1021+006001999GF102991999999999999999999MA1100811999999REMMET051METAR SBIZ 262200Z 35005KT 9999 FEW020 33/20 Q1008;
0120825640999992007102623004-05533-047500FM-15+0123SBIZ V0203501N004112200019N0090001N1+03001+02201999999ADDGA1021+006001999GF102991999999999999999999MA1100811999999REMMET051METAR SBIZ 262300Z 35008KT 9000 FEW020 30/22 Q1008;
0120825640999992007102700004-05533-047500FM-15+0123SBIZ V0200701N003612200019N0090001N1+02801+02201999999ADDGA1021+006001999GF102991999999999999999999MA1100911999999REMMET051METAR SBIZ 270000Z 07007KT 9000 FEW020 28/22 Q1009;
0120825640999992007102701004-05533-047500FM-15+0123SBIZ V0201301N002112200019N0090001N1+02701+02201999999ADDGF100991999999999999999999MA1100911999999REMMET048METAR SBIZ 270100Z 13004KT 9000 SKC 27/22 Q1009;EQDQ01    003SCCGA1
0120825640999992007102702004-05533-047500FM-15+0123SBIZ V0209999C000012200019N0090001N1+02701+02101999999ADDGF100991999999999999999999MA1100911999999REMMET048METAR SBIZ 270200Z 00000KT 9000 SKC 27/21 Q1009;EQDQ01    003SCCGA1
0129825640999992007102703004-05533-047500FM-15+0123SBIZ V0202801N002112200019N0050001N1+02601+02201999999ADDGF100991999999999999999999MA1100911999999MW1041REMMET051METAR SBIZ 270300Z 28004KT 5000 FU SKC 26/22 Q1009;EQDQ01    003SCCGA1
0129825640999992007102708004-05533-047500FM-15+0123SBIZ V0203601N001012200019N0050001N1+02501+02001999999ADDGF100991999999999999999999MA1101021999999MW1041REMMET051METAR SBIZ 270800Z 36002KT 5000 FU SKC 25/20 Q1010;EQDQ01    003SCCGA1
0129825640999992007102709004-05533-047500FM-15+0123SBIZ V0203501N003612200019N0050001N1+02401+02001999999ADDGF100991999999999999999999MA1101081999999MW1041REMMET051METAR SBIZ 270900Z 35007KT 5000 FU NSC 24/20 Q1011;EQDQ01    003SCCGA1
0129825640999992007102710004-05533-047500FM-15+0123SBIZ V0209999C000012200019N0050001N1+02401+02101999999ADDGF100991999999999999999999MA1101191999999MW1101REMMET051METAR SBIZ 271000Z 00000KT 5000 BR NSC 24/21 Q1012;EQDQ01    003SCCGA1
0129825640999992007102711004-05533-047500FM-15+0123SBIZ V0201201N001512200019N0050001N1+02701+02101999999ADDGF100991999999999999999999MA1101291999999MW1041REMMET051METAR SBIZ 271100Z 12003KT 5000 FU NSC 27/21 Q1013;EQDQ01    003SCCGA1
0120825640999992007102712004-05533-047500FM-15+0123SBIZ V0200901N006212200019N0070001N1+02901+02101999999ADDGA1021+004501999GF102991999999999999999999MA1101291999999REMMET051METAR SBIZ 271200Z 09012KT 7000 FEW015 29/21 Q1013;
0120825640999992007102713004-05533-047500FM-15+0123SBIZ V0200901N002612200019N0112651N1+03101+02101999999ADDGA1021+004501999GF102991999999999999999999MA1101191999999REMMET051METAR SBIZ 271300Z 09005KT 9999 FEW015 31/21 Q1012;
0120825640999992007102714004-05533-047500FM-15+0123SBIZ V0201101N005112200019N0112651N1+03201+02101999999ADDGA1021+006001999GF102991999999999999999999MA1101191999999REMMET051METAR SBIZ 271400Z 11010KT 9999 FEW020 32/21 Q1012;
0120825640999992007102715004-05533-047500FM-15+0123SBIZ V0201501N002612200019N0112651N1+03401+02201999999ADDGA1021+006001999GF102991999999999999999999MA1101021999999REMMET051METAR SBIZ 271500Z 15005KT 9999 FEW020 34/22 Q1010;
0120825640999992007102716004-05533-047500FM-15+0123SBIZ V0201201N005112200019N0112651N1+03501+02201999999ADDGA1041+006001999GF104991999999999999999999MA1100911999999REMMET051METAR SBIZ 271600Z 12010KT 9999 SCT020 35/22 Q1009;
0120825640999992007102717004-05533-047500FM-15+0123SBIZ V0200901N006712200019N0112651N1+03601+02101999999ADDGA1041+006001999GF104991999999999999999999MA1100811999999REMMET051METAR SBIZ 271700Z 09013KT 9999 SCT020 36/21 Q1008;
0120825640999992007102718004-05533-047500FM-15+0123SBIZ V0203601N005112200019N0112651N1+03601+02101999999ADDGA1041+006001999GF104991999999999999999999MA1100711999999REMMET051METAR SBIZ 271800Z 36010KT 9999 SCT020 36/21 Q1007;
0120825640999992007102719004-05533-047500FM-15+0123SBIZ V0200501N006212200019N0112651N1+03701+02001999999ADDGA1041+006001999GF104991999999999999999999MA1100611999999REMMET051METAR SBIZ 271900Z 05012KT 9999 SCT020 37/20 Q1006;
0120825640999992007102720004-05533-047500FM-15+0123SBIZ V0200601N003112200019N0112651N1+03501+02201999999ADDGA1041+006001999GF104991999999999999999999MA1100611999999REMMET051METAR SBIZ 272000Z 06006KT 9999 SCT020 35/22 Q1006;
0120825640999992007102721004-05533-047500FM-15+0123SBIZ V0203601N005112200019N0080001N1+03401+02001999999ADDGA1041+006001999GF104991999999999999999999MA1100711999999REMMET051METAR SBIZ 272100Z 36010KT 8000 SCT020 34/20 Q1007;
0120825640999992007102722004-05533-047500FM-15+0123SBIZ V0200601N001512200019N0080001N1+03201+02101999999ADDGA1021+006001999GF102991999999999999999999MA1100811999999REMMET051METAR SBIZ 272200Z 06003KT 8000 FEW020 32/21 Q1008;
0120825640999992007102723004-05533-047500FM-15+0123SBIZ V0200301N002612200019N0080001N1+03101+02101999999ADDGF100991999999999999999999MA1100811999999REMMET048METAR SBIZ 272300Z 03005KT 8000 NSC 31/21 Q1008;EQDQ01    003SCCGA1
0120825640999992007102800004-05533-047500FM-15+0123SBIZ V0200301N001012200019N0060001N1+02901+02101999999ADDGF100991999999999999999999MA1100911999999REMMET048METAR SBIZ 280000Z 03002KT 6000 SKC 29/21 Q1009;EQDQ01    003SCCGA1
0120825640999992007102801004-05533-047500FM-15+0123SBIZ V0203601N001012200019N0060001N1+02801+02101999999ADDGA1041+006001999GF104991999999999999999999MA1100911999999REMMET051METAR SBIZ 280100Z 36002KT 6000 SCT020 28/21 Q1009;
0120825640999992007102802004-05533-047500FM-15+0123SBIZ V0200301N001012200019N0060001N1+02801+02101999999ADDGF100991999999999999999999MA1100911999999REMMET048METAR SBIZ 280200Z 03002KT 6000 SKC 28/21 Q1009;EQDQ01    003SCCGA1
0129825640999992007102808004-05533-047500FM-15+0123SBIZ V0200901N002112200019N0050001N1+02401+02001999999ADDGF100991999999999999999999MA1100911999999MW1041REMMET051METAR SBIZ 280800Z 09004KT 5000 FU SKC 24/20 Q1009;EQDQ01    003SCCGA1
0117825640999992007102809004-05533-047500FM-15+0123SBIZ V0200901N00261220001CN0070001N1+02401+02001999999ADDGA1071+004501999GA2041+120001999MA1101021999999REMMET058METAR SBIZ 280900Z 09005KT 7000 BKN015 SCT400 24/20 Q1010;
0166825640999992007102810004-05533-047500FM-15+0123SBIZ V0201101N001010045019N0112651N1+02501+02101999999ADDGA1071+004501999GA2071+006001999GA3081+120001999GF108991999999999999999999MA1101081999999REMMET065METAR SBIZ 281000Z 11002KT 9999 BKN015 BKN020 OVC400 25/21 Q1011;
0166825640999992007102811004-05533-047500FM-15+0123SBIZ V0201501N001010060019N0112651N1+02701+02101999999ADDGA1041+004501999GA2071+006001999GA3071+120001999GF107991999999999999999999MA1101081999999REMMET065METAR SBIZ 281100Z 15002KT 9999 SCT015 BKN020 BKN400 27/21 Q1011;
0143825640999992007102812004-05533-047500FM-15+0123SBIZ V0200901N005112200019N0112651N1+02801+02101999999ADDGA1021+004501999GA2041+006001999GF104991999999999999999999MA1101081999999REMMET058METAR SBIZ 281200Z 09010KT 9999 FEW015 SCT020 28/21 Q1011;
0143825640999992007102813004-05533-047500FM-15+0123SBIZ V0200901N005712200019N0112651N1+03001+02301999999ADDGA1021+004501999GA2041+006001999GF104991999999999999999999MA1101081999999REMMET058METAR SBIZ 281300Z 09011KT 9999 FEW015 SCT020 30/23 Q1011;
0120825640999992007102814004-05533-047500FM-15+0123SBIZ V0203601N002612200019N0112651N1+03101+02301999999ADDGA1041+006001999GF104991999999999999999999MA1101081999999REMMET051METAR SBIZ 281400Z 36005KT 9999 SCT020 31/23 Q1011;
0120825640999992007102815004-05533-047500FM-15+0123SBIZ V0200901N005110060019N0112651N1+03201+02301999999ADDGA1071+006001999GF107991999999999999999999MA1101021999999REMMET051METAR SBIZ 281500Z 09010KT 9999 BKN020 32/23 Q1010;
0120825640999992007102816004-05533-047500FM-15+0123SBIZ V0200901N002612200019N0112651N1+03401+02201999999ADDGA1041+006001999GF104991999999999999999999MA1100911999999REMMET051METAR SBIZ 281600Z 09005KT 9999 SCT020 34/22 Q1009;
0120825640999992007102817004-05533-047500FM-15+0123SBIZ V0202401N001512200019N0080001N1+03501+02301999999ADDGA1041+006001999GF104991999999999999999999MA1100811999999REMMET051METAR SBIZ 281700Z 24003KT 8000 SCT020 35/23 Q1008;
0120825640999992007102818004-05533-047500FM-15+0123SBIZ V0201201N000512200019N0080001N1+03501+02201999999ADDGA1021+006001999GF102991999999999999999999MA1100711999999REMMET051METAR SBIZ 281800Z 12001KT 8000 FEW020 35/22 Q1007;
0120825640999992007102819004-05533-047500FM-15+0123SBIZ V0203601N005112200019N0080001N1+03501+02201999999ADDGA1021+006001999GF102991999999999999999999MA1100611999999REMMET051METAR SBIZ 281900Z 36010KT 8000 FEW020 35/22 Q1006;
0120825640999992007102820004-05533-047500FM-15+0123SBIZ V0203601N002612200019N0080001N1+03401+02201999999ADDGA1021+006001999GF102991999999999999999999MA1100611999999REMMET051METAR SBIZ 282000Z 36005KT 8000 FEW020 34/22 Q1006;
0120825640999992007102821004-05533-047500FM-15+0123SBIZ V0203301N005112200019N0080001N1+03301+02101999999ADDGF100991999999999999999999MA1100611999999REMMET048METAR SBIZ 282100Z 33010KT 8000 SKC 33/21 Q1006;EQDQ01    003SCCGA1
0120825640999992007102822004-05533-047500FM-15+0123SBIZ V0203301N004112200019N0080001N1+03101+02201999999ADDGF100991999999999999999999MA1100711999999REMMET048METAR SBIZ 282200Z 33008KT 8000 SKC 31/22 Q1007;EQDQ01    003SCCGA1
0120825640999992007102823004-05533-047500FM-15+0123SBIZ V0203301N004112200019N0080001N1+03001+02301999999ADDGF100991999999999999999999MA1100711999999REMMET048METAR SBIZ 282300Z 33008KT 8000 SKC 30/23 Q1007;EQDQ01    003SCCGA1
0120825640999992007102900004-05533-047500FM-15+0123SBIZ V0203601N002112200019N0060001N1+03001+02201999999ADDGF100991999999999999999999MA1100811999999REMMET048METAR SBIZ 290000Z 36004KT 6000 SKC 30/22 Q1008;EQDQ01    003SCCGA1
0129825640999992007102901004-05533-047500FM-15+0123SBIZ V0203601N004112200019N0050001N1+02801+02301999999ADDGF100991999999999999999999MA1100811999999MW1041REMMET051METAR SBIZ 290100Z 36008KT 5000 FU SKC 28/23 Q1008;EQDQ01    003SCCGA1
0129825640999992007102902004-05533-047500FM-15+0123SBIZ V0203301N005112200019N0050001N1+02801+02201999999ADDGF100991999999999999999999MA1100811999999MW1041REMMET051METAR SBIZ 290200Z 33010KT 5000 FU SKC 28/22 Q1008;EQDQ01    003SCCGA1
0129825640999992007102903004-05533-047500FM-15+0123SBIZ V0203101N001012200019N0050001N1+02701+02301999999ADDGF100991999999999999999999MA1100811999999MW1041REMMET051METAR SBIZ 290300Z 31002KT 5000 FU SKC 27/23 Q1008;EQDQ01    003SCCGA1
0087825640999992007102907154-05533-047500FM-16+0123SBIZ V0203601N002112200019N9999999N1+02601+02301999999ADDMA1100801999999REMMET060METAR SBIZ 290715Z SPECI 36004KT 5000 BR BKN015 26/23 Q1008;
0129825640999992007102908004-05533-047500FM-15+0123SBIZ V0201301N001510045019N0050001N1+02501+02301999999ADDGA1071+004501999GF107991999999999999999999MA1100811999999MW1101REMMET054METAR SBIZ 290800Z 13003KT 5000 BR BKN015 25/23 Q1008;
0129825640999992007102909004-05533-047500FM-15+0123SBIZ V0201301N001510054019N0050001N1+02501+02301999999ADDGA1081+005401999GF108991999999999999999999MA1100911999999MW1101REMMET054METAR SBIZ 290900Z 13003KT 5000 BR OVC018 25/23 Q1009;
0129825640999992007102910004-05533-047500FM-15+0123SBIZ V0201101N004110090019N0050001N1+02601+02301999999ADDGA1081+009001999GF108991999999999999999999MA1101021999999MW1101REMMET054METAR SBIZ 291000Z 11008KT 5000 BR OVC030 26/23 Q1010;
0129825640999992007102911004-05533-047500FM-15+0123SBIZ V0201001N003610090019N0050001N1+02701+02301999999ADDGA1071+009001999GF107991999999999999999999MA1101021999999MW1041REMMET054METAR SBIZ 291100Z 10007KT 5000 FU BKN030 27/23 Q1010;
0129825640999992007102912004-05533-047500FM-15+0123SBIZ V0200801N004112200019N0050001N1+02901+02201999999ADDGA1041+006001999GF104991999999999999999999MA1101021999999MW1041REMMET054METAR SBIZ 291200Z 08008KT 5000 FU SCT020 29/22 Q1010;
0129825640999992007102913004-05533-047500FM-15+0123SBIZ V0201301N002612200019N0050001N1+03101+02201999999ADDGA1041+006001999GF104991999999999999999999MA1101081999999MW1041REMMET054METAR SBIZ 291300Z 13005KT 5000 FU SCT020 31/22 Q1011;
0129825640999992007102914004-05533-047500FM-15+0123SBIZ V0202701N005112200019N0050001N1+03201+02301999999ADDGA1041+006001999GF104991999999999999999999MA1101021999999MW1041REMMET054METAR SBIZ 291400Z 27010KT 5000 FU SCT020 32/23 Q1010;
0120825640999992007102915004-05533-047500FM-15+0123SBIZ V0202701N004112200019N0080001N1+03301+02001999999ADDGA1021+006001999GF102991999999999999999999MA1100911999999REMMET051METAR SBIZ 291500Z 27008KT 8000 FEW020 33/20 Q1009;
0120825640999992007102916004-05533-047500FM-15+0123SBIZ V0203301N005110060019N0080001N1+03401+02101999999ADDGA1071+006001999GF107991999999999999999999MA1100811999999REMMET051METAR SBIZ 291600Z 33010KT 8000 BKN020 34/21 Q1008;
0120825640999992007102917004-05533-047500FM-15+0123SBIZ V0201101N004112200019N0060001N1+03501+02101999999ADDGA1041+006001999GF104991999999999999999999MA1100711999999REMMET051METAR SBIZ 291700Z 11008KT 6000 SCT020 35/21 Q1007;
0129825640999992007102918004-05533-047500FM-15+0123SBIZ V0203301N002612200019N0050001N1+03601+02101999999ADDGA1021+006001999GF102991999999999999999999MA1100611999999MW1041REMMET054METAR SBIZ 291800Z 33005KT 5000 FU FEW020 36/21 Q1006;
0129825640999992007102919004-05533-047500FM-15+0123SBIZ V0200601N004112200019N0050001N1+03501+02101999999ADDGA1021+006001999GF102991999999999999999999MA1100611999999MW1041REMMET054METAR SBIZ 291900Z 06008KT 5000 FU FEW020 35/21 Q1006;
0129825640999992007102920004-05533-047500FM-15+0123SBIZ V0203301N002112200019N0050001N1+03401+02101999999ADDGF100991999999999999999999MA1100611999999MW1041REMMET051METAR SBIZ 292000Z 33004KT 5000 FU SKC 34/21 Q1006;EQDQ01    003SCCGA1
0129825640999992007102921004-05533-047500FM-15+0123SBIZ V0203301N002612200019N0050001N1+03301+02201999999ADDGF100991999999999999999999MA1100611999999MW1041REMMET051METAR SBIZ 292100Z 33005KT 5000 FU SKC 33/22 Q1006;EQDQ01    003SCCGA1
0120825640999992007102922004-05533-047500FM-15+0123SBIZ V0203401N004112200019N0060001N1+03201+02201999999ADDGA1021+006001999GF102991999999999999999999MA1100611999999REMMET051METAR SBIZ 292200Z 34008KT 6000 FEW020 32/22 Q1006;
0120825640999992007102923004-05533-047500FM-15+0123SBIZ V0203401N005112200019N0060001N1+03101+02201999999ADDGA1041+006001999GF104991999999999999999999MA1100711999999REMMET051METAR SBIZ 292300Z 34010KT 6000 SCT020 31/22 Q1007;
0120825640999992007103000004-05533-047500FM-15+0123SBIZ V0203601N005112200019N0060001N1+03001+02301999999ADDGA1041+006001999GF104991999999999999999999MA1100811999999REMMET051METAR SBIZ 300000Z 36010KT 6000 SCT020 30/23 Q1008;
0187825640999992007103001004-05533-047500FM-15+0123SBIZ V0201201N00211220001CN0035001N1+02901+02301999999ADDGA1041+004501999GA2071+006001999GA3021+007501091MA1100911999999MW1041MW2811MW3951REMMET075METAR SBIZ 300100Z 12004KT 3500 TSRA FU SCT015 BKN020 FEW025CB 29/23 Q1009;EQDQ01+000022SCOTCV
0152825640999992007103002004-05533-047500FM-15+0123SBIZ V0203601N005112200019N0080001N1+02701+02301999999ADDGA1041+006001999GA2021+007501091MA1100911999999MW1171REMMET068METAR SBIZ 300200Z 36010KT 8000 TS SCT020 FEW025CB 27/23 Q1009 RERA;EQDQ01+000022SCOTCV
0125825640999992007103003004-05533-047500FM-15+0123SBIZ V0203601N005112200019N0080001N1+02701+02301999999ADDGA1041+006001999GF104991999999999999999999MA1100811999999REMMET056METAR SBIZ 300300Z 36010KT 8000 SCT020 27/23 Q1008 RETS;
0143825640999992007103008004-05533-047500FM-15+0123SBIZ V0201201N002110300019N0080001N1+02501+02301999999ADDGA1041+004501999GA2071+030001999GF107991999999999999999999MA1100911999999REMMET058METAR SBIZ 300800Z 12004KT 8000 SCT015 BKN100 25/23 Q1009;
0143825640999992007103009004-05533-047500FM-15+0123SBIZ V0200901N002110090019N0080001N1+02501+02301999999ADDGA1021+004501999GA2071+009001999GF107991999999999999999999MA1100911999999REMMET058METAR SBIZ 300900Z 09004KT 8000 FEW015 BKN030 25/23 Q1009;
0152825640999992007103010004-05533-047500FM-15+0123SBIZ V0200701N005110090019N0050001N1+02501+02301999999ADDGA1021+004501999GA2071+009001999GF107991999999999999999999MA1101021999999MW1101REMMET061METAR SBIZ 301000Z 07010KT 5000 BR FEW015 BKN030 25/23 Q1010;
0152825640999992007103011004-05533-047500FM-15+0123SBIZ V0201301N002110090019N0050001N1+02701+02301999999ADDGA1021+004501999GA2071+009001999GF107991999999999999999999MA1101021999999MW1041REMMET061METAR SBIZ 301100Z 13004KT 5000 FU FEW015 BKN030 27/23 Q1010;
0120825640999992007103012004-05533-047500FM-15+0123SBIZ V0200601N006212200019N0080001N1+02901+02201999999ADDGA1041+006001999GF104991999999999999999999MA1101021999999REMMET051METAR SBIZ 301200Z 06012KT 8000 SCT020 29/22 Q1010;
0143825640999992007103013004-05533-047500FM-15+0123SBIZ V0200301N006210120019N0080001N1+03001+02201999999ADDGA1021+006001999GA2071+012001999GF107991999999999999999999MA1101021999999REMMET058METAR SBIZ 301300Z 03012KT 8000 FEW020 BKN040 30/22 Q1010;
0120825640999992007103014004-05533-047500FM-15+0123SBIZ V0203501N004112200019N0080001N1+03201+02201999999ADDGA1021+006001999GF102991999999999999999999MA1100911999999REMMET051METAR SBIZ 301400Z 35008KT 8000 FEW020 32/22 Q1009;
0120825640999992007103015004-05533-047500FM-15+0123SBIZ V0200501N002612200019N0112651N1+03301+02101999999ADDGA1041+006001999GF104991999999999999999999MA1100811999999REMMET051METAR SBIZ 301500Z 05005KT 9999 SCT020 33/21 Q1008;
0120825640999992007103016004-05533-047500FM-15+0123SBIZ V0200301N005112200019N0112651N1+03501+02201999999ADDGA1041+006001999GF104991999999999999999999MA1100611999999REMMET051METAR SBIZ 301600Z 03010KT 9999 SCT020 35/22 Q1006;
0120825640999992007103017004-05533-047500FM-15+0123SBIZ V0200901N004612200019N0112651N1+03601+02301999999ADDGA1041+006001999GF104991999999999999999999MA1100511999999REMMET051METAR SBIZ 301700Z 09009KT 9999 SCT020 36/23 Q1005;
0143825640999992007103018004-05533-047500FM-15+0123SBIZ V0203301N004612200019N0112651N1+03501+02301999999ADDGA1041+006001999GA2041+030001999GF104991999999999999999999MA1100511999999REMMET058METAR SBIZ 301800Z 33009KT 9999 SCT020 SCT100 35/23 Q1005;
0120825640999992007103019004-05533-047500FM-15+0123SBIZ V0203301N004112200019N0112651N1+03501+02201999999ADDGA1041+006001999GF104991999999999999999999MA1100411999999REMMET051METAR SBIZ 301900Z 33008KT 9999 SCT020 35/22 Q1004;
0143825640999992007103021004-05533-047500FM-15+0123SBIZ V0203601N002611200019N0112651N1+03301+02101999999ADDGA1021+006001999GA2071+120001999GF107991999999999999999999MA1100511999999REMMET058METAR SBIZ 302100Z 36005KT 9999 FEW020 BKN400 33/21 Q1005;
0143825640999992007103022004-05533-047500FM-15+0123SBIZ V0203301N005111200019N0112651N1+03201+02101999999ADDGA1021+006001999GA2071+120001999GF107991999999999999999999MA1100611999999REMMET058METAR SBIZ 302200Z 33010KT 9999 FEW020 BKN400 32/21 Q1006;
0143825640999992007103023004-05533-047500FM-15+0123SBIZ V0203501N002611200019N0112651N1+03101+02201999999ADDGA1021+004501999GA2071+120001999GF107991999999999999999999MA1100611999999REMMET058METAR SBIZ 302300Z 35005KT 9999 FEW015 BKN400 31/22 Q1006;
0143825640999992007103100004-05533-047500FM-15+0123SBIZ V0200301N003111200019N0112651N1+03001+02201999999ADDGA1041+004501999GA2071+120001999GF107991999999999999999999MA1100711999999REMMET058METAR SBIZ 310000Z 03006KT 9999 SCT015 BKN400 30/22 Q1007;
0072825640999992007103101004-05533-047500FM-15+0123SBIZ V0200101N00311220001CN0099001N1+02901+02201999999ADDMA1100711999999REMMET045METAR SBIZ 310100Z 01006KT CAVOK 29/22 Q1007;
0072825640999992007103102004-05533-047500FM-15+0123SBIZ V0203301N00311220001CN0099001N1+02901+02201999999ADDMA1100711999999REMMET045METAR SBIZ 310200Z 33006KT CAVOK 29/22 Q1007;
0200825640999992007103108004-05533-047500FM-15+0123SBIZ V0201501N004110060019N0080001N1+02101+02001999999ADDGA1021+004501999GA2071+006001999GA3021+007501091GA4081+021001999GF108991999999999999999999MA1100911999999MW1171REMMET077METAR SBIZ 310800Z 15008KT 8000 TS FEW015 BKN020 FEW025CB OVC070 21/20 Q1009;
0177825640999992007103109004-05533-047500FM-15+0123SBIZ V0202701N00261007501CN0112651N1+02201+02001999999ADDGA1041+006001999GA2021+007501091GA3081+021001999GF108991999999999999999999MA1101021999999MW1171REMMET070METAR SBIZ 310900Z 27005KT 9999 TS SCT020 FEW025CB OVC070 22/20 Q1010;
0148825640999992007103110004-05533-047500FM-15+0123SBIZ V0209999C000010210019N0112651N1+02201+02101999999ADDGA1041+006001999GA2081+021001999GF108991999999999999999999MA1101021999999REMMET063METAR SBIZ 311000Z 00000KT 9999 SCT020 OVC070 22/21 Q1010 RETS;
0143825640999992007103111004-05533-047500FM-15+0123SBIZ V0200501N004110210019N0112651N1+02301+02101999999ADDGA1041+006001999GA2081+021001999GF108991999999999999999999MA1101081999999REMMET058METAR SBIZ 311100Z 05008KT 9999 SCT020 OVC070 23/21 Q1011;
0143825640999992007103113004-05533-047500FM-15+0123SBIZ V0203601N004610210019N0112651N1+02801+02201999999ADDGA1021+006001999GA2071+021001999GF107991999999999999999999MA1101081999999REMMET058METAR SBIZ 311300Z 36009KT 9999 FEW020 BKN070 28/22 Q1011;
0166825640999992007103114004-05533-047500FM-15+0123SBIZ V0201201N005110060019N0112651N1+03001+02201999999ADDGA1021+004501999GA2071+006001999GA3081+021001999GF108991999999999999999999MA1101081999999REMMET065METAR SBIZ 311400Z 12010KT 9999 FEW015 BKN020 OVC070 30/22 Q1011;
0166825640999992007103115004-05533-047500FM-15+0123SBIZ V0201001N002610060019N0112651N1+03001+02201999999ADDGA1021+004501999GA2071+006001999GA3081+021001999GF108991999999999999999999MA1101021999999REMMET065METAR SBIZ 311500Z 10005KT 9999 FEW015 BKN020 OVC070 30/22 Q1010;
0143825640999992007103116004-05533-047500FM-15+0123SBIZ V0203601N002610210019N0112651N1+03001+02101999999ADDGA1021+006001999GA2071+021001999GF107991999999999999999999MA1100911999999REMMET058METAR SBIZ 311600Z 36005KT 9999 FEW020 BKN070 30/21 Q1009;
0143825640999992007103117004-05533-047500FM-15+0123SBIZ V0202701N005110210019N0112651N1+02901+02201999999ADDGA1021+006001999GA2071+021001999GF107991999999999999999999MA1100811999999REMMET058METAR SBIZ 311700Z 27010KT 9999 FEW020 BKN070 29/22 Q1008;
0143825640999992007103118004-05533-047500FM-15+0123SBIZ V0202801N004110210019N0112651N1+02901+02301999999ADDGA1021+004501999GA2071+021001999GF107991999999999999999999MA1100811999999REMMET058METAR SBIZ 311800Z 28008KT 9999 FEW015 BKN070 29/23 Q1008;
0166825640999992007103119004-05533-047500FM-15+0123SBIZ V0202301N00151021001CN0112651N1+02901+02201999999ADDGA1021+004501999GA2041+021001999GA3071+030001999GF107991999999999999999999MA1100711999999REMMET065METAR SBIZ 311900Z 23003KT 9999 FEW015 SCT070 BKN100 29/22 Q1007;
0143825640999992007103120004-05533-047500FM-15+0123SBIZ V0209999C000010300019N0112651N1+02901+02301999999ADDGA1021+004501999GA2071+030001999GF107991999999999999999999MA1100711999999REMMET058METAR SBIZ 312000Z 00000KT 9999 FEW015 BKN100 29/23 Q1007;
0143825640999992007103121004-05533-047500FM-15+0123SBIZ V0202101N001010300019N0112651N1+02801+02401999999ADDGA1021+006001999GA2071+030001999GF107991999999999999999999MA1100711999999REMMET058METAR SBIZ 312100Z 21002KT 9999 FEW020 BKN100 28/24 Q1007;
0143825640999992007103122004-05533-047500FM-15+0123SBIZ V0202801N001010090019N0112651N1+02701+02301999999ADDGA1071+009001999GA2071+030001999GF107991999999999999999999MA1100711999999REMMET058METAR SBIZ 312200Z 28002KT 9999 BKN030 BKN100 27/23 Q1007;
0072825640999992007103123004-05533-047500FM-15+0123SBIZ V0209999C00001220001CN0099001N1+02701+02301999999ADDMA1100811999999REMMET045METAR SBIZ 312300Z 00000KT CAVOK 27/23 Q1008;
0143825640999992007110100004-05533-047500FM-15+0123SBIZ V0209999C000010090019N0112651N1+02601+02401999999ADDGA1071+009001999GA2071+120001999GF107991999999999999999999MA1100811999999REMMET058METAR SBIZ 010000Z 00000KT 9999 BKN030 BKN400 26/24 Q1008;
0143825640999992007110101004-05533-047500FM-15+0123SBIZ V0200501N001510090019N0112651N1+02501+02401999999ADDGA1071+009001999GA2071+120001999GF107991999999999999999999MA1100911999999REMMET058METAR SBIZ 010100Z 05003KT 9999 BKN030 BKN400 25/24 Q1009;
0143825640999992007110102004-05533-047500FM-15+0123SBIZ V0203601N001510120019N0112651N1+02601+02301999999ADDGA1071+012001999GA2071+120001999GF107991999999999999999999MA1100811999999REMMET058METAR SBIZ 010200Z 36003KT 9999 BKN040 BKN400 26/23 Q1008;
0094825640999992007110107154-05533-047500FM-16+0123SBIZ V0203301N001012200019N9999999N1+02401+02301999999ADDMA1100801999999REMMET067METAR SBIZ 010715Z SPECI 33002KT 5000 BR SCT015 BKN020 24/23 Q1008;
0152825640999992007110108004-05533-047500FM-15+0123SBIZ V0203501N001012200019N0050001N1+02401+02301999999ADDGA1041+004501999GA2041+006001999GF104991999999999999999999MA1100911999999MW1101REMMET061METAR SBIZ 010800Z 35002KT 5000 BR SCT015 SCT020 24/23 Q1009;
0175825640999992007110109004-05533-047500FM-15+0123SBIZ V0200401N005110030019N0030001N1+02401+02301999999ADDGA1071+003001999GA2071+006001999GA3081+021001999GF108991999999999999999999MA1101021999999MW1101REMMET068METAR SBIZ 010900Z 04010KT 3000 BR BKN010 BKN020 OVC070 24/23 Q1010;
0175825640999992007110110004-05533-047500FM-15+0123SBIZ V0203601N002610060019N0035001N1+02501+02301999999ADDGA1041+003001999GA2071+006001999GA3081+021001999GF108991999999999999999999MA1101021999999MW1101REMMET068METAR SBIZ 011000Z 36005KT 3500 BR SCT010 BKN020 OVC070 25/23 Q1010;
0175825640999992007110111004-05533-047500FM-15+0123SBIZ V0203601N001010045019N0040001N1+02601+02301999999ADDGA1071+004501999GA2041+006001999GA3071+030001999GF107991999999999999999999MA1101081999999MW1101REMMET068METAR SBIZ 011100Z 36002KT 4000 BR BKN015 SCT020 BKN100 26/23 Q1011;
0152825640999992007110112004-05533-047500FM-15+0123SBIZ V0200201N005112200019N0050001N1+02801+02201999999ADDGA1021+004501999GA2041+006001999GF104991999999999999999999MA1101081999999MW1041REMMET061METAR SBIZ 011200Z 02010KT 5000 FU FEW015 SCT020 28/22 Q1011;
0143825640999992007110113004-05533-047500FM-15+0123SBIZ V0200701N005110060019N0070001N1+03001+02001999999ADDGA1021+004501999GA2071+006001999GF107991999999999999999999MA1101081999999REMMET058METAR SBIZ 011300Z 07010KT 7000 FEW015 BKN020 30/20 Q1011;
0120825640999992007110114004-05533-047500FM-15+0123SBIZ V0201501N001512200019N0112651N1+03201+02001999999ADDGA1041+006001999GF104991999999999999999999MA1101021999999REMMET051METAR SBIZ 011400Z 15003KT 9999 SCT020 32/20 Q1010;
0136825640999992007110115004-05533-047500FM-15+0123SBIZ V0201501N00311220001CN0112651N1+03201+02301999999ADDGA1071+006001999GA2041+030001999MA1101021999999REMMET058METAR SBIZ 011500Z 15006KT 9999 BKN020 SCT100 32/23 Q1010;EQDQ01+000042SCOTCV
0136825640999992007110116004-05533-047500FM-15+0123SBIZ V0203001N00511220001CN0112651N1+03301+02201999999ADDGA1071+006001999GA2041+120001999MA1100911999999REMMET058METAR SBIZ 011600Z 30010KT 9999 BKN020 SCT400 33/22 Q1009;EQDQ01+000042SCOTCV
0136825640999992007110117004-05533-047500FM-15+0123SBIZ V0203601N00261220001CN0112651N1+03301+02301999999ADDGA1071+006001999GA2041+120001999MA1100811999999REMMET058METAR SBIZ 011700Z 36005KT 9999 BKN020 SCT400 33/23 Q1008;EQDQ01+000042SCOTCV
0120825640999992007110118004-05533-047500FM-15+0123SBIZ V0202101N002612200019N0112651N1+03401+02101999999ADDGA1041+006001999GF104991999999999999999999MA1100711999999REMMET051METAR SBIZ 011800Z 21005KT 9999 SCT020 34/21 Q1007;
0120825640999992007110119004-05533-047500FM-15+0123SBIZ V0203101N004112200019N0112651N1+03401+02201999999ADDGA1021+006001999GF102991999999999999999999MA1100711999999REMMET051METAR SBIZ 011900Z 31008KT 9999 FEW020 34/22 Q1007;
0120825640999992007110120004-05533-047500FM-15+0123SBIZ V0203201N002612200019N0112651N1+03401+02201999999ADDGA1021+006001999GF102991999999999999999999MA1100611999999REMMET051METAR SBIZ 012000Z 32005KT 9999 FEW020 34/22 Q1006;
0143825640999992007110121004-05533-047500FM-15+0123SBIZ V0203001N002612200019N0080001N1+03101+02101999999ADDGA1021+006001999GA2041+120001999GF104991999999999999999999MA1100711999999REMMET058METAR SBIZ 012100Z 30005KT 8000 FEW020 SCT400 31/21 Q1007;
0120825640999992007110122004-05533-047500FM-15+0123SBIZ V0203301N001012200019N0080001N1+02901+02201999999ADDGF100991999999999999999999MA1100711999999REMMET048METAR SBIZ 012200Z 33002KT 8000 NSC 29/22 Q1007;EQDQ01    003SCCGA1
0120825640999992007110123004-05533-047500FM-15+0123SBIZ V0209999C000012200019N0080001N1+02801+02201999999ADDGF100991999999999999999999MA1100811999999REMMET048METAR SBIZ 012300Z 00000KT 8000 SKC 28/22 Q1008;EQDQ01    003SCCGA1
0120825640999992007110200004-05533-047500FM-15+0123SBIZ V0200901N001012200019N0080001N1+02701+02301999999ADDGF100991999999999999999999MA1100911999999REMMET048METAR SBIZ 020000Z 09002KT 8000 NSC 27/23 Q1009;EQDQ01    003SCCGA1
0120825640999992007110201004-05533-047500FM-15+0123SBIZ V0209999C000012200019N0080001N1+02601+02301999999ADDGF100991999999999999999999MA1100911999999REMMET048METAR SBIZ 020100Z 00000KT 8000 SKC 26/23 Q1009;EQDQ01    003SCCGA1
0120825640999992007110202004-05533-047500FM-15+0123SBIZ V0200301N001012200019N0080001N1+02701+02201999999ADDGA1021+004501999GF102991999999999999999999MA1100911999999REMMET051METAR SBIZ 020200Z 03002KT 8000 FEW015 27/22 Q1009;
0120825640999992007110203004-05533-047500FM-15+0123SBIZ V0209999C000012200019N0080001N1+02601+02301999999ADDGF100991999999999999999999MA1100911999999REMMET048METAR SBIZ 020300Z 00000KT 8000 SKC 26/23 Q1009;EQDQ01    003SCCGA1
0120825640999992007110208004-05533-047500FM-15+0123SBIZ V0203501N002112200019N0070001N1+02501+02101999999ADDGF100991999999999999999999MA1101081999999REMMET048METAR SBIZ 020800Z 35004KT 7000 SKC 25/21 Q1011;EQDQ01    003SCCGA1
0120825640999992007110209004-05533-047500FM-15+0123SBIZ V0201501N001010060019N0070001N1+02401+02101999999ADDGA1081+006001999GF108991999999999999999999MA1101081999999REMMET051METAR SBIZ 020900Z 15002KT 7000 OVC020 24/21 Q1011;
0120825640999992007110210004-05533-047500FM-15+0123SBIZ V0201001N001010060019N0070001N1+02501+02201999999ADDGA1071+006001999GF107991999999999999999999MA1101191999999REMMET051METAR SBIZ 021000Z 10002KT 7000 BKN020 25/22 Q1012;
0120825640999992007110211004-05533-047500FM-15+0123SBIZ V0200601N006212200019N0112651N1+02801+02301999999ADDGA1041+006001999GF104991999999999999999999MA1101291999999REMMET051METAR SBIZ 021100Z 06012KT 9999 SCT020 28/23 Q1013;
0120825640999992007110212004-05533-047500FM-15+0123SBIZ V0200501N009310060019N0112651N1+02901+02201999999ADDGA1071+006001999GF107991999999999999999999MA1101291999999REMMET051METAR SBIZ 021200Z 05018KT 9999 BKN020 29/22 Q1013;
0120825640999992007110213004-05533-047500FM-15+0123SBIZ V0200401N005110060019N0112651N1+03001+02201999999ADDGA1071+006001999GF107991999999999999999999MA1101291999999REMMET051METAR SBIZ 021300Z 04010KT 9999 BKN020 30/22 Q1013;
0120825640999992007110214004-05533-047500FM-15+0123SBIZ V0200501N006210060019N0112651N1+03101+02101999999ADDGA1071+006001999GF107991999999999999999999MA1101191999999REMMET051METAR SBIZ 021400Z 05012KT 9999 BKN020 31/21 Q1012;
0120825640999992007110215004-05533-047500FM-15+0123SBIZ V0201201N002110060019N0112651N1+03201+02201999999ADDGA1071+006001999GF107991999999999999999999MA1101191999999REMMET051METAR SBIZ 021500Z 12004KT 9999 BKN020 32/22 Q1012;
0120825640999992007110216004-05533-047500FM-15+0123SBIZ V0200301N004112200019N0112651N1+03401+02201999999ADDGA1041+006001999GF104991999999999999999999MA1101021999999REMMET051METAR SBIZ 021600Z 03008KT 9999 SCT020 34/22 Q1010;
0120825640999992007110217004-05533-047500FM-15+0123SBIZ V0200301N005112200019N0112651N1+03501+02101999999ADDGA1041+006001999GF104991999999999999999999MA1100911999999REMMET051METAR SBIZ 021700Z 03010KT 9999 SCT020 35/21 Q1009;
0120825640999992007110218004-05533-047500FM-15+0123SBIZ V0203301N002112200019N0112651N1+03401+02101999999ADDGA1041+006001999GF104991999999999999999999MA1100811999999REMMET051METAR SBIZ 021800Z 33004KT 9999 SCT020 34/21 Q1008;
0120825640999992007110219004-05533-047500FM-15+0123SBIZ V0203501N001012200019N0112651N1+03501+02101999999ADDGA1041+006001999GF104991999999999999999999MA1100811999999REMMET051METAR SBIZ 021900Z 35002KT 9999 SCT020 35/21 Q1008;
0120825640999992007110220004-05533-047500FM-15+0123SBIZ V0201201N003112200019N0112651N1+03301+02101999999ADDGA1041+006001999GF104991999999999999999999MA1100811999999REMMET051METAR SBIZ 022000Z 12006KT 9999 SCT020 33/21 Q1008;
0120825640999992007110221004-05533-047500FM-15+0123SBIZ V0203301N001512200019N0112651N1+03201+02301999999ADDGA1041+006001999GF104991999999999999999999MA1100811999999REMMET051METAR SBIZ 022100Z 33003KT 9999 SCT020 32/23 Q1008;
0120825640999992007110222004-05533-047500FM-15+0123SBIZ V0203301N005112200019N0112651N1+03101+02201999999ADDGA1041+006001999GF104991999999999999999999MA1100911999999REMMET051METAR SBIZ 022200Z 33010KT 9999 SCT020 31/22 Q1009;
0120825640999992007110223004-05533-047500FM-15+0123SBIZ V0202701N004112200019N0112651N1+03001+02201999999ADDGA1041+006001999GF104991999999999999999999MA1100911999999REMMET051METAR SBIZ 022300Z 27008KT 9999 SCT020 30/22 Q1009;
0156825640999992007110300004-05533-047500FM-15+0123SBIZ V0200901N00621220001CN0080001N1+02801+02301999999ADDGA1071+006001999GA2021+007501091MA1101021999999MW1801MW2951REMMET066METAR SBIZ 030000Z 09012KT 8000 -TSRA BKN020 FEW025CB 28/23 Q1010;EQDQ01+000022SCOTCV
0147825640999992007110301004-05533-047500FM-15+0123SBIZ V0201801N00771220001CN0112651N1+02501+02201999999ADDGA1071+006001999GA2021+007501091MA1101191999999MW1171REMMET063METAR SBIZ 030100Z 18015KT 9999 TS BKN020 FEW025CB 25/22 Q1012;EQDQ01+000022SCOTCV
0147825640999992007110302004-05533-047500FM-15+0123SBIZ V0203001N007712200019N0112651N1+02401+02201999999ADDGA1041+006001999GA2021+007501091MA1101081999999MW1171REMMET063METAR SBIZ 030200Z 30015KT 9999 TS SCT020 FEW025CB 24/22 Q1011;EQDQ01+000022SCOTCV
0147825640999992007110303004-05533-047500FM-15+0123SBIZ V0200601N005112200019N0112651N1+02401+02101999999ADDGA1041+006001999GA2021+007501091MA1101081999999MW1171REMMET063METAR SBIZ 030300Z 06010KT 9999 TS SCT020 FEW025CB 24/21 Q1011;EQDQ01+000022SCOTCV
0120825640999992007110308004-05533-047500FM-15+0123SBIZ V0209999C000012200019N0060001N1+02301+02201999999ADDGF100991999999999999999999MA1100911999999REMMET048METAR SBIZ 030800Z 00000KT 6000 SKC 23/22 Q1009;EQDQ01    003SCCGA1
0120825640999992007110309004-05533-047500FM-15+0123SBIZ V0201301N001012200019N0070001N1+02301+02201999999ADDGF100991999999999999999999MA1101021999999REMMET048METAR SBIZ 030900Z 13002KT 7000 SKC 23/22 Q1010;EQDQ01    003SCCGA1
0120825640999992007110310004-05533-047500FM-15+0123SBIZ V0209999C000012200019N0090001N1+02401+02201999999ADDGA1021+004501999GF102991999999999999999999MA1101081999999REMMET051METAR SBIZ 031000Z 00000KT 9000 FEW015 24/22 Q1011;
0120825640999992007110311004-05533-047500FM-15+0123SBIZ V0200501N005110045019N0090001N1+02701+02301999999ADDGA1071+004501999GF107991999999999999999999MA1101081999999REMMET051METAR SBIZ 031100Z 05010KT 9000 BKN015 27/23 Q1011;
0120825640999992007110312004-05533-047500FM-15+0123SBIZ V0200701N007710060019N0112651N1+02801+02301999999ADDGA1081+006001999GF108991999999999999999999MA1101191999999REMMET051METAR SBIZ 031200Z 07015KT 9999 OVC020 28/23 Q1012;
0120825640999992007110313004-05533-047500FM-15+0123SBIZ V0200601N003110060019N0112651N1+03001+02201999999ADDGA1081+006001999GF108991999999999999999999MA1101191999999REMMET051METAR SBIZ 031300Z 06006KT 9999 OVC020 30/22 Q1012;
0120825640999992007110314004-05533-047500FM-15+0123SBIZ V0203601N003610060019N0112651N1+03001+02301999999ADDGA1081+006001999GF108991999999999999999999MA1101081999999REMMET051METAR SBIZ 031400Z 36007KT 9999 OVC020 30/23 Q1011;
0120825640999992007110315004-05533-047500FM-15+0123SBIZ V0200901N002110060019N0112651N1+03201+02301999999ADDGA1071+006001999GF107991999999999999999999MA1101021999999REMMET051METAR SBIZ 031500Z 09004KT 9999 BKN020 32/23 Q1010;
0120825640999992007110316004-05533-047500FM-15+0123SBIZ V0203301N004110060019N0112651N1+03301+02301999999ADDGA1071+006001999GF107991999999999999999999MA1100911999999REMMET051METAR SBIZ 031600Z 33008KT 9999 BKN020 33/23 Q1009;
0120825640999992007110317004-05533-047500FM-15+0123SBIZ V0202701N005112200019N0112651N1+03401+02301999999ADDGA1041+006001999GF104991999999999999999999MA1100811999999REMMET051METAR SBIZ 031700Z 27010KT 9999 SCT020 34/23 Q1008;
0120825640999992007110318004-05533-047500FM-15+0123SBIZ V0203301N004112200019N0112651N1+03501+02301999999ADDGA1041+006001999GF104991999999999999999999MA1100711999999REMMET051METAR SBIZ 031800Z 33008KT 9999 SCT020 35/23 Q1007;
0120825640999992007110319004-05533-047500FM-15+0123SBIZ V0203601N001512200019N0112651N1+03401+02301999999ADDGA1021+006001999GF102991999999999999999999MA1100611999999REMMET051METAR SBIZ 031900Z 36003KT 9999 FEW020 34/23 Q1006;
0120825640999992007110320004-05533-047500FM-15+0123SBIZ V0202701N004112200019N0112651N1+03401+02301999999ADDGA1021+006001999GF102991999999999999999999MA1100611999999REMMET051METAR SBIZ 032000Z 27008KT 9999 FEW020 34/23 Q1006;
0151825640999992007110321004-05533-047500FM-15+0123SBIZ V0203001N005112200019N0112651N1+03201+02201999999ADDGA1021+004501999GA2041+006001999GA3021+007501091MA1100711999999MW1171REMMET070METAR SBIZ 032100Z 30010KT 9999 TS FEW015 SCT020 FEW025CB 32/22 Q1007;
0160825640999992007110322004-05533-047500FM-15+0123SBIZ V0200301N00931220001CN0080001N1+02601+02301999999ADDGA1041+004501999GA2071+006001999GA3021+007501091MA1100911999999MW1801MW2951REMMET073METAR SBIZ 032200Z 03018KT 8000 -TSRA SCT015 BKN020 FEW025CB 26/23 Q1009;
0171825640999992007110323004-05533-047500FM-15+0123SBIZ V0200301N005110090019N0112651N1+02401+02201999999ADDGA1021+004501999GA2071+009001999GA3081+120001999GF108991999999999999999999MA1100811999999REMMET070METAR SBIZ 032300Z 03010KT 9999 FEW015 BKN030 OVC400 24/22 Q1008 RETS;
0143825640999992007110400004-05533-047500FM-15+0123SBIZ V0201501N003112200019N0112651N1+02401+02301999999ADDGA1021+004501999GA2041+120001999GF104991999999999999999999MA1100911999999REMMET058METAR SBIZ 040000Z 15006KT 9999 FEW015 SCT400 24/23 Q1009;
0072825640999992007110401004-05533-047500FM-15+0123SBIZ V0201101N00211220001CN0099001N1+02401+02201999999ADDMA1100911999999REMMET045METAR SBIZ 040100Z 11004KT CAVOK 24/22 Q1009;
0072825640999992007110402004-05533-047500FM-15+0123SBIZ V0209999C00001220001CN0099001N1+02401+02201999999ADDMA1100911999999REMMET045METAR SBIZ 040200Z 00000KT CAVOK 24/22 Q1009;
0072825640999992007110403004-05533-047500FM-15+0123SBIZ V0209999C00001220001CN0099001N1+02301+02201999999ADDMA1100911999999REMMET045METAR SBIZ 040300Z 00000KT CAVOK 23/22 Q1009;
0072825640999992007110408004-05533-047500FM-15+0123SBIZ V0209999C00001220001CN0099001N1+02301+02201999999ADDMA1100911999999REMMET045METAR SBIZ 040800Z 00000KT CAVOK 23/22 Q1009;
0120825640999992007110409004-05533-047500FM-15+0123SBIZ V0200601N001512200019N0112651N1+02301+02201999999ADDGA1041+009001999GF104991999999999999999999MA1100911999999REMMET051METAR SBIZ 040900Z 06003KT 9999 SCT030 23/22 Q1009;
0120825640999992007110410004-05533-047500FM-15+0123SBIZ V0200301N001010090019N0112651N1+02501+02201999999ADDGA1071+009001999GF107991999999999999999999MA1101021999999REMMET051METAR SBIZ 041000Z 03002KT 9999 BKN030 25/22 Q1010;
0120825640999992007110411004-05533-047500FM-15+0123SBIZ V0200301N002610090019N0112651N1+02601+02201999999ADDGA1071+009001999GF107991999999999999999999MA1101021999999REMMET051METAR SBIZ 041100Z 03005KT 9999 BKN030 26/22 Q1010;
0143825640999992007110412004-05533-047500FM-15+0123SBIZ V0200301N002110060019N0112651N1+02801+02201999999ADDGA1021+004501999GA2071+006001999GF107991999999999999999999MA1101081999999REMMET058METAR SBIZ 041200Z 03004KT 9999 FEW015 BKN020 28/22 Q1011;
0143825640999992007110413004-05533-047500FM-15+0123SBIZ V0209999C000010060019N0112651N1+02801+02301999999ADDGA1021+004501999GA2071+006001999GF107991999999999999999999MA1101081999999REMMET058METAR SBIZ 041300Z 00000KT 9999 FEW015 BKN020 28/23 Q1011;
0143825640999992007110414004-05533-047500FM-15+0123SBIZ V0201501N001510060019N0112651N1+02901+02301999999ADDGA1041+004501999GA2071+006001999GF107991999999999999999999MA1101081999999REMMET058METAR SBIZ 041400Z 15003KT 9999 SCT015 BKN020 29/23 Q1011;
0143825640999992007110415004-05533-047500FM-15+0123SBIZ V0200901N001010060019N0112651N1+03001+02301999999ADDGA1041+004501999GA2071+006001999GF107991999999999999999999MA1101021999999REMMET058METAR SBIZ 041500Z 09002KT 9999 SCT015 BKN020 30/23 Q1010;
0120825640999992007110416004-05533-047500FM-15+0123SBIZ V0201101N004112200019N0112651N1+03301+02101999999ADDGA1021+006001999GF102991999999999999999999MA1100811999999REMMET051METAR SBIZ 041600Z 11008KT 9999 FEW020 33/21 Q1008;
0120825640999992007110417004-05533-047500FM-15+0123SBIZ V0203001N003112200019N0112651N1+03401+02201999999ADDGA1021+006001999GF102991999999999999999999MA1100711999999REMMET051METAR SBIZ 041700Z 30006KT 9999 FEW020 34/22 Q1007;
0120825640999992007110418004-05533-047500FM-15+0123SBIZ V0203001N004112200019N0112651N1+03501+02201999999ADDGA1021+006001999GF102991999999999999999999MA1100611999999REMMET051METAR SBIZ 041800Z 30008KT 9999 FEW020 35/22 Q1006;
0120825640999992007110419004-05533-047500FM-15+0123SBIZ V0202701N002112200019N0112651N1+03401+02201999999ADDGA1021+006001999GF102991999999999999999999MA1100511999999REMMET051METAR SBIZ 041900Z 27004KT 9999 FEW020 34/22 Q1005;
0120825640999992007110420004-05533-047500FM-15+0123SBIZ V0203101N004112200019N0112651N1+03401+02201999999ADDGA1021+006001999GF102991999999999999999999MA1100511999999REMMET051METAR SBIZ 042000Z 31008KT 9999 FEW020 34/22 Q1005;
0143825640999992007110421004-05533-047500FM-15+0123SBIZ V0203101N002111200019N0112651N1+03201+02201999999ADDGA1021+006001999GA2071+120001999GF107991999999999999999999MA1100611999999REMMET058METAR SBIZ 042100Z 31004KT 9999 FEW020 BKN400 32/22 Q1006;
0143825640999992007110422004-05533-047500FM-15+0123SBIZ V0202801N004112200019N0112651N1+03001+02301999999ADDGA1041+004501999GA2041+120001999GF104991999999999999999999MA1100711999999REMMET058METAR SBIZ 042200Z 28008KT 9999 SCT015 SCT400 30/23 Q1007;
0072825640999992007110423004-05533-047500FM-15+0123SBIZ V0203301N00261220001CN0099001N1+02901+02301999999ADDMA1100811999999REMMET045METAR SBIZ 042300Z 33005KT CAVOK 29/23 Q1008;
0072825640999992007110500004-05533-047500FM-15+0123SBIZ V0203301N00211220001CN0099001N1+02801+02301999999ADDMA1100811999999REMMET045METAR SBIZ 050000Z 33004KT CAVOK 28/23 Q1008;
0072825640999992007110501004-05533-047500FM-15+0123SBIZ V0209999C00001220001CN0099001N1+02701+02301999999ADDMA1100911999999REMMET045METAR SBIZ 050100Z 00000KT CAVOK 27/23 Q1009;
0072825640999992007110502004-05533-047500FM-15+0123SBIZ V0200301N00361220001CN0099001N1+02601+02401999999ADDMA1100911999999REMMET045METAR SBIZ 050200Z 03007KT CAVOK 26/24 Q1009;
0072825640999992007110503004-05533-047500FM-15+0123SBIZ V0200301N00311220001CN0099001N1+02501+02401999999ADDMA1100811999999REMMET045METAR SBIZ 050300Z 03006KT CAVOK 25/24 Q1008;
0120825640999992007110508004-05533-047500FM-15+0123SBIZ V0209999C000012200019N0080001N1+02401+02301999999ADDGF100991999999999999999999MA1100811999999REMMET048METAR SBIZ 050800Z 00000KT 8000 SKC 24/23 Q1008;EQDQ01    003SCCGA1
0120825640999992007110509004-05533-047500FM-15+0123SBIZ V0209999C000012200019N0080001N1+02401+02301999999ADDGA1041+012001999GF104991999999999999999999MA1100811999999REMMET051METAR SBIZ 050900Z 00000KT 8000 SCT040 24/23 Q1008;
0120825640999992007110510004-05533-047500FM-15+0123SBIZ V0209999C000010120019N0080001N1+02401+02201999999ADDGA1071+012001999GF107991999999999999999999MA1100911999999REMMET051METAR SBIZ 051000Z 00000KT 8000 BKN040 24/22 Q1009;
0120825640999992007110511004-05533-047500FM-15+0123SBIZ V0200901N006212200019N0112651N1+02701+02101999999ADDGA1021+006001999GF102991999999999999999999MA1101021999999REMMET051METAR SBIZ 051100Z 09012KT 9999 FEW020 27/21 Q1010;
0143825640999992007110512004-05533-047500FM-15+0123SBIZ V0200901N009310090019N0112651N1+02901+02101999999ADDGA1021+006001999GA2071+009001999GF107991999999999999999999MA1101021999999REMMET058METAR SBIZ 051200Z 09018KT 9999 FEW020 BKN030 29/21 Q1010;
0143825640999992007110513004-05533-047500FM-15+0123SBIZ V0200901N006210090019N0112651N1+02901+02001999999ADDGA1021+006001999GA2071+009001999GF107991999999999999999999MA1101021999999REMMET058METAR SBIZ 051300Z 09012KT 9999 FEW020 BKN030 29/20 Q1010;
0143825640999992007110514004-05533-047500FM-15+0123SBIZ V0200401N005110090019N0112651N1+03101+02001999999ADDGA1021+006001999GA2071+009001999GF107991999999999999999999MA1100911999999REMMET058METAR SBIZ 051400Z 04010KT 9999 FEW020 BKN030 31/20 Q1009;
0143825640999992007110515004-05533-047500FM-15+0123SBIZ V0209999C000010060019N0112651N1+03201+02201999999ADDGA1021+004501999GA2071+006001999GF107991999999999999999999MA1100811999999REMMET058METAR SBIZ 051500Z 00000KT 9999 FEW015 BKN020 32/22 Q1008;
0120825640999992007110516004-05533-047500FM-15+0123SBIZ V0201201N002612200019N0112651N1+03201+02201999999ADDGA1041+006001999GF104991999999999999999999MA1100711999999REMMET051METAR SBIZ 051600Z 12005KT 9999 SCT020 32/22 Q1007;
0120825640999992007110517004-05533-047500FM-15+0123SBIZ V0201701N003612200019N0112651N1+03401+02201999999ADDGA1041+006001999GF104991999999999999999999MA1100611999999REMMET051METAR SBIZ 051700Z 17007KT 9999 SCT020 34/22 Q1006;
0120825640999992007110518004-05533-047500FM-15+0123SBIZ V0202301N002612200019N0112651N1+03401+02101999999ADDGA1041+006001999GF104991999999999999999999MA1100511999999REMMET051METAR SBIZ 051800Z 23005KT 9999 SCT020 34/21 Q1005;
0120825640999992007110519004-05533-047500FM-15+0123SBIZ V0202101N002112200019N0112651N1+03401+02101999999ADDGA1021+006001999GF102991999999999999999999MA1100511999999REMMET051METAR SBIZ 051900Z 21004KT 9999 FEW020 34/21 Q1005;
0143825640999992007110520004-05533-047500FM-15+0123SBIZ V0201801N001012200019N0112651N1+03401+02101999999ADDGA1021+006001999GA2041+120001999GF104991999999999999999999MA1100511999999REMMET058METAR SBIZ 052000Z 18002KT 9999 FEW020 SCT400 34/21 Q1005;
0123825640999992007110521004-05533-047500FM-15+0123SBIZ V0202001N001012200019N0112651N1+03201+02301999999ADDGA1021+007501021GF102991999999999999999999MA1100511999999REMMET054METAR SBIZ 052100Z 20002KT 9999 FEW025TCU 32/23 Q1005;
0120825640999992007110522004-05533-047500FM-15+0123SBIZ V0203401N001512200019N0112651N1+03101+02201999999ADDGA1021+006001999GF102991999999999999999999MA1100611999999REMMET051METAR SBIZ 052200Z 34003KT 9999 FEW020 31/22 Q1006;
0120825640999992007110523004-05533-047500FM-15+0123SBIZ V0200201N002612200019N0090001N1+03001+02301999999ADDGA1041+006001999GF104991999999999999999999MA1100711999999REMMET051METAR SBIZ 052300Z 02005KT 9000 SCT020 30/23 Q1007;
0120825640999992007110600004-05533-047500FM-15+0123SBIZ V0203601N004112200019N0090001N1+02901+02301999999ADDGA1041+006001999GF104991999999999999999999MA1100711999999REMMET051METAR SBIZ 060000Z 36008KT 9000 SCT020 29/23 Q1007;
0120825640999992007110601004-05533-047500FM-15+0123SBIZ V0203401N001012200019N0090001N1+02701+02301999999ADDGA1021+006001999GF102991999999999999999999MA1100811999999REMMET051METAR SBIZ 060100Z 34002KT 9000 FEW020 27/23 Q1008;
0120825640999992007110602004-05533-047500FM-15+0123SBIZ V0203501N001512200019N0090001N1+02801+02301999999ADDGA1041+006001999GF104991999999999999999999MA1100911999999REMMET051METAR SBIZ 060200Z 35003KT 9000 SCT020 28/23 Q1009;
0120825640999992007110603004-05533-047500FM-15+0123SBIZ V0203601N002612200019N0080001N1+02701+02201999999ADDGA1021+006001999GF102991999999999999999999MA1100811999999REMMET051METAR SBIZ 060300Z 36005KT 8000 FEW020 27/22 Q1008;
0120825640999992007110604004-05533-047500FM-15+0123SBIZ V0203401N002112200019N0070001N1+02701+02201999999ADDGA1021+006001999GF102991999999999999999999MA1100811999999REMMET051METAR SBIZ 060400Z 34004KT 7000 FEW020 27/22 Q1008;
0120825640999992007110605004-05533-047500FM-15+0123SBIZ V0203601N001512200019N0070001N1+02601+02201999999ADDGA1021+006001999GF102991999999999999999999MA1100711999999REMMET051METAR SBIZ 060500Z 36003KT 7000 FEW020 26/22 Q1007;
0129825640999992007110608004-05533-047500FM-15+0123SBIZ V0200301N002612200019N0050001N1+02601+02201999999ADDGF100991999999999999999999MA1100911999999MW1101REMMET051METAR SBIZ 060800Z 03005KT 5000 BR SKC 26/22 Q1009;EQDQ01    003SCCGA1
0129825640999992007110609004-05533-047500FM-15+0123SBIZ V0200701N002612200019N0050001N1+02501+02201999999ADDGA1041+004501999GF104991999999999999999999MA1101021999999MW1101REMMET054METAR SBIZ 060900Z 07005KT 5000 BR SCT015 25/22 Q1010;
0120825640999992007110610004-05533-047500FM-15+0123SBIZ V0200601N004110045019N0112651N1+02601+02201999999ADDGA1071+004501999GF107991999999999999999999MA1101021999999REMMET051METAR SBIZ 061000Z 06008KT 9999 BKN015 26/22 Q1010;
0120825640999992007110611004-05533-047500FM-15+0123SBIZ V0200901N007710045019N0112651N1+02701+02101999999ADDGA1071+004501999GF107991999999999999999999MA1101191999999REMMET051METAR SBIZ 061100Z 09015KT 9999 BKN015 27/21 Q1012;
0143825640999992007110612004-05533-047500FM-15+0123SBIZ V0200901N007710210019N0112651N1+02901+02101999999ADDGA1041+004501999GA2081+021001999GF108991999999999999999999MA1101191999999REMMET058METAR SBIZ 061200Z 09015KT 9999 SCT015 OVC070 29/21 Q1012;
0166825640999992007110613004-05533-047500FM-15+0123SBIZ V0201501N00261006001CN0112651N1+02901+02101999999ADDGA1041+004501999GA2041+006001999GA3081+021001999GF108991999999999999999999MA1101191999999REMMET065METAR SBIZ 061300Z 15005KT 9999 SCT015 SCT020 OVC070 29/21 Q1012;
0136825640999992007110614004-05533-047500FM-15+0123SBIZ V0201201N00771220001CN0112651N1+03201+02301999999ADDGA1071+006001999GA2041+021001999MA1101081999999REMMET058METAR SBIZ 061400Z 12015KT 9999 BKN020 SCT070 32/23 Q1011;EQDQ01+000042SCOTCV
0136825640999992007110615004-05533-047500FM-15+0123SBIZ V0201301N00511220001CN0112651N1+03301+02301999999ADDGA1071+006001999GA2041+030001999MA1101021999999REMMET058METAR SBIZ 061500Z 13010KT 9999 BKN020 SCT100 33/23 Q1010;EQDQ01+000042SCOTCV
0136825640999992007110616004-05533-047500FM-15+0123SBIZ V0200901N00211220001CN0112651N1+03301+02201999999ADDGA1071+006001999GA2041+030001999MA1100911999999REMMET058METAR SBIZ 061600Z 09004KT 9999 BKN020 SCT100 33/22 Q1009;EQDQ01+000042SCOTCV
0120825640999992007110617004-05533-047500FM-15+0123SBIZ V0200801N005112200019N0112651N1+03301+02301999999ADDGA1041+006001999GF104991999999999999999999MA1100811999999REMMET051METAR SBIZ 061700Z 08010KT 9999 SCT020 33/23 Q1008;
0143825640999992007110618004-05533-047500FM-15+0123SBIZ V0200901N005112200019N0112651N1+03401+02301999999ADDGA1041+006001999GA2041+120001999GF104991999999999999999999MA1100811999999REMMET058METAR SBIZ 061800Z 09010KT 9999 SCT020 SCT400 34/23 Q1008;
0120825640999992007110619004-05533-047500FM-15+0123SBIZ V0200901N005112200019N0112651N1+03401+02201999999ADDGA1021+006001999GF102991999999999999999999MA1100811999999REMMET051METAR SBIZ 061900Z 09010KT 9999 FEW020 34/22 Q1008;
0072825640999992007110620004-05533-047500FM-15+0123SBIZ V0200501N00621220001CN0099001N1+03401+02201999999ADDMA1100711999999REMMET045METAR SBIZ 062000Z 05012KT CAVOK 34/22 Q1007;
0072825640999992007110621004-05533-047500FM-15+0123SBIZ V0200901N00151220001CN0099001N1+03101+02101999999ADDMA1100811999999REMMET045METAR SBIZ 062100Z 09003KT CAVOK 31/21 Q1008;
0072825640999992007110622004-05533-047500FM-15+0123SBIZ V0209999C00001220001CN0099001N1+02901+02201999999ADDMA1100811999999REMMET045METAR SBIZ 062200Z 00000KT CAVOK 29/22 Q1008;
0072825640999992007110623004-05533-047500FM-15+0123SBIZ V0209999C00001220001CN0099001N1+02801+02201999999ADDMA1100911999999REMMET045METAR SBIZ 062300Z 00000KT CAVOK 28/22 Q1009;
0072825640999992007110700004-05533-047500FM-15+0131SBIZ V0209999C00001220001CN0099001N1+02701+02201999999ADDMA1101021999999REMMET045METAR SBIZ 070000Z 00000KT CAVOK 27/22 Q1010;
0072825640999992007110701004-05533-047500FM-15+0131SBIZ V0209999C00001220001CN0099001N1+02701+02201999999ADDMA1100911999999REMMET045METAR SBIZ 070100Z 00000KT CAVOK 27/22 Q1009;
0072825640999992007110702004-05533-047500FM-15+0131SBIZ V0209999C00001220001CN0099001N1+02601+02301999999ADDMA1100911999999REMMET045METAR SBIZ 070200Z 00000KT CAVOK 26/23 Q1009;
0072825640999992007110703004-05533-047500FM-15+0131SBIZ V0209999C00001220001CN0099001N1+02501+02301999999ADDMA1100911999999REMMET045METAR SBIZ 070300Z 00000KT CAVOK 25/23 Q1009;
0084825640999992007110707154-05533-047500FM-16+0131SBIZ V0200401N005112200019N9999999N1+02501+02101999999ADDMA1100901999999REMMET057METAR SBIZ 070715Z SPECI 04010KT 5000 BR SKC 25/21 Q1009;
0129825640999992007110708004-05533-047500FM-15+0131SBIZ V0200901N002112200019N0050001N1+02401+02101999999ADDGF100991999999999999999999MA1101021999999MW1101REMMET051METAR SBIZ 070800Z 09004KT 5000 BR SKC 24/21 Q1010;EQDQ01    003SCCGA1
0136825640999992007110709004-05533-047500FM-15+0131SBIZ V0201801N00261220001CN0070001N1+02401+02101999999ADDGA1071+004501999GA2041+006001999MA1101081999999REMMET058METAR SBIZ 070900Z 18005KT 7000 BKN015 SCT020 24/21 Q1011;EQDQ01+000042SCOTCV
0120825640999992007110710004-05533-047500FM-15+0131SBIZ V0209999C000012200019N0112651N1+02501+02101999999ADDGA1021+004501999GF102991999999999999999999MA1101081999999REMMET051METAR SBIZ 071000Z 00000KT 9999 FEW015 25/21 Q1011;
0136825640999992007110711004-05533-047500FM-15+0131SBIZ V0200701N00511220001CN0112651N1+02701+02101999999ADDGA1071+004501999GA2041+006001999MA1101191999999REMMET058METAR SBIZ 071100Z 07010KT 9999 BKN015 SCT020 27/21 Q1012;EQDQ01+000042SCOTCV
0120825640999992007110712004-05533-047500FM-15+0131SBIZ V0201501N002112200019N0112651N1+02901+02101999999ADDGA1041+004501999GF104991999999999999999999MA1101191999999REMMET051METAR SBIZ 071200Z 15004KT 9999 SCT015 29/21 Q1012;
0120825640999992007110713004-05533-047500FM-15+0131SBIZ V0200401N003612200019N0112651N1+03101+02301999999ADDGA1021+004501999GF102991999999999999999999MA1101191999999REMMET051METAR SBIZ 071300Z 04007KT 9999 FEW015 31/23 Q1012;
0120825640999992007110714004-05533-047500FM-15+0131SBIZ V0201001N004112200019N0112651N1+03301+02201999999ADDGA1021+004501999GF102991999999999999999999MA1101081999999REMMET051METAR SBIZ 071400Z 10008KT 9999 FEW015 33/22 Q1011;
0120825640999992007110715004-05533-047500FM-15+0131SBIZ V0201201N005712200019N0112651N1+03401+02101999999ADDGA1041+006001999GF104991999999999999999999MA1101021999999REMMET051METAR SBIZ 071500Z 12011KT 9999 SCT020 34/21 Q1010;
0120825640999992007110716004-05533-047500FM-15+0131SBIZ V0201501N005112200019N0112651N1+03501+02101999999ADDGA1041+006001999GF104991999999999999999999MA1100911999999REMMET051METAR SBIZ 071600Z 15010KT 9999 SCT020 35/21 Q1009;
0120825640999992007110717004-05533-047500FM-15+0131SBIZ V0200601N006212200019N0112651N1+03501+02101999999ADDGA1041+006001999GF104991999999999999999999MA1100811999999REMMET051METAR SBIZ 071700Z 06012KT 9999 SCT020 35/21 Q1008;
0120825640999992007110718004-05533-047500FM-15+0131SBIZ V0201301N005112200019N0112651N1+03601+01801999999ADDGA1041+006001999GF104991999999999999999999MA1100611999999REMMET051METAR SBIZ 071800Z 13010KT 9999 SCT020 36/18 Q1006;
0120825640999992007110719004-05533-047500FM-15+0131SBIZ V0201301N004112200019N0112651N1+03701+01801999999ADDGA1021+006001999GF102991999999999999999999MA1100611999999REMMET051METAR SBIZ 071900Z 13008KT 9999 FEW020 37/18 Q1006;
0120825640999992007110720004-05533-047500FM-15+0131SBIZ V0201501N006212200019N0112651N1+03601+01901999999ADDGA1021+006001999GF102991999999999999999999MA1100611999999REMMET051METAR SBIZ 072000Z 15012KT 9999 FEW020 36/19 Q1006;
0072825640999992007110721004-05533-047500FM-15+0131SBIZ V0209999C00001220001CN0099001N1+03301+02001999999ADDMA1100611999999REMMET045METAR SBIZ 072100Z 00000KT CAVOK 33/20 Q1006;
0072825640999992007110722004-05533-047500FM-15+0131SBIZ V0209999C00001220001CN0099001N1+03101+01901999999ADDMA1100611999999REMMET045METAR SBIZ 072200Z 00000KT CAVOK 31/19 Q1006;
0072825640999992007110723004-05533-047500FM-15+0131SBIZ V0209999C00001220001CN0099001N1+02901+02101999999ADDMA1100711999999REMMET045METAR SBIZ 072300Z 00000KT CAVOK 29/21 Q1007;
0072825640999992007110800004-05533-047500FM-15+0131SBIZ V0209999C00001220001CN0099001N1+02801+02101999999ADDMA1100811999999REMMET045METAR SBIZ 080000Z 00000KT CAVOK 28/21 Q1008;
0072825640999992007110801004-05533-047500FM-15+0131SBIZ V0209999C00001220001CN0099001N1+02801+02101999999ADDMA1100811999999REMMET045METAR SBIZ 080100Z 00000KT CAVOK 28/21 Q1008;
0072825640999992007110802004-05533-047500FM-15+0131SBIZ V0209999C00001220001CN0099001N1+02601+02101999999ADDMA1100811999999REMMET045METAR SBIZ 080200Z 00000KT CAVOK 26/21 Q1008;
0072825640999992007110803004-05533-047500FM-15+0131SBIZ V0209999C00001220001CN0099001N1+02601+02101999999ADDMA1100711999999REMMET045METAR SBIZ 080300Z 00000KT CAVOK 26/21 Q1007;
0129825640999992007110808004-05533-047500FM-15+0131SBIZ V0200701N001012200019N0050001N1+02501+01901999999ADDGF100991999999999999999999MA1100811999999MW1041REMMET051METAR SBIZ 080800Z 07002KT 5000 FU SKC 25/19 Q1008;EQDQ01    003SCCGA1
0120825640999992007110811004-05533-047500FM-15+0131SBIZ V0200501N003112200019N0060001N1+02601+02101999999ADDGA1041+009001999GF104991999999999999999999MA1101081999999REMMET051METAR SBIZ 081100Z 05006KT 6000 SCT030 26/21 Q1011;
0120825640999992007110812004-05533-047500FM-15+0131SBIZ V0200601N005110060019N0080001N1+02801+02101999999ADDGA1071+006001999GF107991999999999999999999MA1101191999999REMMET051METAR SBIZ 081200Z 06010KT 8000 BKN020 28/21 Q1012;
0120825640999992007110813004-05533-047500FM-15+0131SBIZ V0209999C000012200019N0080001N1+03001+02101999999ADDGA1021+006001999GF102991999999999999999999MA1101081999999REMMET051METAR SBIZ 081300Z 00000KT 8000 FEW020 30/21 Q1011;
0120825640999992007110814004-05533-047500FM-15+0131SBIZ V0200601N002612200019N0080001N1+03201+02201999999ADDGA1021+006001999GF102991999999999999999999MA1101081999999REMMET051METAR SBIZ 081400Z 06005KT 8000 FEW020 32/22 Q1011;
0120825640999992007110815004-05533-047500FM-15+0131SBIZ V0200301N005112200019N0080001N1+03401+02201999999ADDGA1041+006001999GF104991999999999999999999MA1101021999999REMMET051METAR SBIZ 081500Z 03010KT 8000 SCT020 34/22 Q1010;
0120825640999992007110816004-05533-047500FM-15+0131SBIZ V0200901N005112200019N0080001N1+03401+02201999999ADDGA1041+006001999GF104991999999999999999999MA1100811999999REMMET051METAR SBIZ 081600Z 09010KT 8000 SCT020 34/22 Q1008;
0120825640999992007110817004-05533-047500FM-15+0131SBIZ V0203601N002612200019N0080001N1+03501+02001999999ADDGA1041+006001999GF104991999999999999999999MA1100711999999REMMET051METAR SBIZ 081700Z 36005KT 8000 SCT020 35/20 Q1007;
0120825640999992007110818004-05533-047500FM-15+0131SBIZ V0203301N002612200019N0080001N1+03601+02101999999ADDGA1021+006001999GF102991999999999999999999MA1100611999999REMMET051METAR SBIZ 081800Z 33005KT 8000 FEW020 36/21 Q1006;
0120825640999992007110819004-05533-047500FM-15+0131SBIZ V0203601N005112200019N0080001N1+03601+02101999999ADDGA1021+006001999GF102991999999999999999999MA1100511999999REMMET051METAR SBIZ 081900Z 36010KT 8000 FEW020 36/21 Q1005;
0120825640999992007110820004-05533-047500FM-15+0131SBIZ V0202101N001012200019N0080001N1+03501+02001999999ADDGA1021+006001999GF102991999999999999999999MA1100511999999REMMET051METAR SBIZ 082000Z 21002KT 8000 FEW020 35/20 Q1005;
0120825640999992007110821004-05533-047500FM-15+0131SBIZ V0202501N002612200019N0080001N1+03301+02201999999ADDGF100991999999999999999999MA1100511999999REMMET048METAR SBIZ 082100Z 25005KT 8000 SKC 33/22 Q1005;EQDQ01    003SCCGA1
0120825640999992007110822004-05533-047500FM-15+0131SBIZ V0203001N002612200019N0080001N1+03101+02201999999ADDGF100991999999999999999999MA1100611999999REMMET048METAR SBIZ 082200Z 30005KT 8000 SKC 31/22 Q1006;EQDQ01    003SCCGA1
0120825640999992007110823004-05533-047500FM-15+0131SBIZ V0203001N001012200019N0080001N1+02901+02201999999ADDGF100991999999999999999999MA1100611999999REMMET048METAR SBIZ 082300Z 30002KT 8000 SKC 29/22 Q1006;EQDQ01    003SCCGA1
0120825640999992007110900004-05533-047500FM-15+0131SBIZ V0203301N002112200019N0080001N1+02801+02201999999ADDGF100991999999999999999999MA1100611999999REMMET048METAR SBIZ 090000Z 33004KT 8000 SKC 28/22 Q1006;EQDQ01    003SCCGA1
0120825640999992007110901004-05533-047500FM-15+0131SBIZ V0201501N001512200019N0080001N1+02701+02301999999ADDGA1041+009001999GF104991999999999999999999MA1100611999999REMMET051METAR SBIZ 090100Z 15003KT 8000 SCT030 27/23 Q1006;
0120825640999992007110902004-05533-047500FM-15+0131SBIZ V0201601N001512200019N0080001N1+02701+02201999999ADDGA1041+009001999GF104991999999999999999999MA1100611999999REMMET051METAR SBIZ 090200Z 16003KT 8000 SCT030 27/22 Q1006;
0120825640999992007110903004-05533-047500FM-15+0131SBIZ V0209999C000012200019N0070001N1+02601+02301999999ADDGA1041+009001999GF104991999999999999999999MA1100611999999REMMET051METAR SBIZ 090300Z 00000KT 7000 SCT030 26/23 Q1006;
0120825640999992007110904004-05533-047500FM-15+0131SBIZ V0203501N002112200019N0070001N1+02601+02301999999ADDGA1041+009001999GF104991999999999999999999MA1100511999999REMMET051METAR SBIZ 090400Z 35004KT 7000 SCT030 26/23 Q1005;
0129825640999992007110908004-05533-047500FM-15+0131SBIZ V0209999C000012200019N0040001N1+02301+02101999999ADDGF100991999999999999999999MA1100711999999MW1041REMMET051METAR SBIZ 090800Z 00000KT 4000 FU SKC 23/21 Q1007;EQDQ01    003SCCGA1
0129825640999992007110909004-05533-047500FM-15+0131SBIZ V0201201N001012200019N0016001N1+02301+02101999999ADDGF100991999999999999999999MA1100811999999MW1041REMMET051METAR SBIZ 090900Z 12002KT 1600 FU SKC 23/21 Q1008;EQDQ01    003SCCGA1
0129825640999992007110910004-05533-047500FM-15+0131SBIZ V0209999C000010060019N0020001N1+02501+02101999999ADDGA1071+006001999GF107991999999999999999999MA1100911999999MW1041REMMET054METAR SBIZ 091000Z 00000KT 2000 FU BKN020 25/21 Q1009;
0120825640999992007110911004-05533-047500FM-15+0131SBIZ V0203601N004612200019N0080001N1+02701+02101999999ADDGA1041+006001999GF104991999999999999999999MA1101021999999REMMET051METAR SBIZ 091100Z 36009KT 8000 SCT020 27/21 Q1010;
0120825640999992007110912004-05533-047500FM-15+0131SBIZ V0200301N004610060019N0080001N1+02901+02201999999ADDGA1071+006001999GF107991999999999999999999MA1101081999999REMMET051METAR SBIZ 091200Z 03009KT 8000 BKN020 29/22 Q1011;
0120825640999992007110913004-05533-047500FM-15+0131SBIZ V0200601N005110060019N0080001N1+03101+02201999999ADDGA1071+006001999GF107991999999999999999999MA1101081999999REMMET051METAR SBIZ 091300Z 06010KT 8000 BKN020 31/22 Q1011;
0120825640999992007110914004-05533-047500FM-15+0131SBIZ V0200601N002610060019N0080001N1+03101+02201999999ADDGA1071+006001999GF107991999999999999999999MA1101021999999REMMET051METAR SBIZ 091400Z 06005KT 8000 BKN020 31/22 Q1010;
0120825640999992007110915004-05533-047500FM-15+0131SBIZ V0203501N003110060019N0112651N1+03301+02201999999ADDGA1071+006001999GF107991999999999999999999MA1100911999999REMMET051METAR SBIZ 091500Z 35006KT 9999 BKN020 33/22 Q1009;
0120825640999992007110916004-05533-047500FM-15+0131SBIZ V0202801N002612200019N0112651N1+03401+02201999999ADDGA1041+006001999GF104991999999999999999999MA1100811999999REMMET051METAR SBIZ 091600Z 28005KT 9999 SCT020 34/22 Q1008;
0120825640999992007110917004-05533-047500FM-15+0131SBIZ V0200401N001012200019N0112651N1+03501+02101999999ADDGA1041+006001999GF104991999999999999999999MA1100711999999REMMET051METAR SBIZ 091700Z 04002KT 9999 SCT020 35/21 Q1007;
0120825640999992007110918004-05533-047500FM-15+0131SBIZ V0203001N002612200019N0112651N1+03501+02101999999ADDGA1041+006001999GF104991999999999999999999MA1100511999999REMMET051METAR SBIZ 091800Z 30005KT 9999 SCT020 35/21 Q1005;
0120825640999992007110919004-05533-047500FM-15+0131SBIZ V0202401N002112200019N0112651N1+03501+02101999999ADDGA1021+006001999GF102991999999999999999999MA1100511999999REMMET051METAR SBIZ 091900Z 24004KT 9999 FEW020 35/21 Q1005;
0120825640999992007110920004-05533-047500FM-15+0131SBIZ V0202701N003612200019N0112651N1+03501+02101999999ADDGA1021+006001999GF102991999999999999999999MA1100411999999REMMET051METAR SBIZ 092000Z 27007KT 9999 FEW020 35/21 Q1004;
0120825640999992007110921004-05533-047500FM-15+0131SBIZ V0202801N005112200019N0080001N1+03201+02201999999ADDGF100991999999999999999999MA1100511999999REMMET048METAR SBIZ 092100Z 28010KT 8000 NSC 32/22 Q1005;EQDQ01    003SCCGA1
0120825640999992007110922004-05533-047500FM-15+0131SBIZ V0202801N003612200019N0080001N1+03101+02201999999ADDGF100991999999999999999999MA1100611999999REMMET048METAR SBIZ 092200Z 28007KT 8000 NSC 31/22 Q1006;EQDQ01    003SCCGA1
0120825640999992007110923004-05533-047500FM-15+0131SBIZ V0203001N002612200019N0080001N1+02901+02301999999ADDGF100991999999999999999999MA1100711999999REMMET048METAR SBIZ 092300Z 30005KT 8000 NSC 29/23 Q1007;EQDQ01    003SCCGA1
0120825640999992007111000004-05533-047500FM-15+0131SBIZ V0203501N001512200019N0080001N1+02901+02201999999ADDGF100991999999999999999999MA1100711999999REMMET048METAR SBIZ 100000Z 35003KT 8000 NSC 29/22 Q1007;EQDQ01    003SCCGA1
0120825640999992007111001004-05533-047500FM-15+0131SBIZ V0209999C000012200019N0060001N1+02801+02301999999ADDGF100991999999999999999999MA1100811999999REMMET048METAR SBIZ 100100Z 00000KT 6000 SKC 28/23 Q1008;EQDQ01    003SCCGA1
0120825640999992007111002004-05533-047500FM-15+0131SBIZ V0209999C000012200019N0060001N1+02701+02201999999ADDGF100991999999999999999999MA1100711999999REMMET048METAR SBIZ 100200Z 00000KT 6000 SKC 27/22 Q1007;EQDQ01    003SCCGA1
0120825640999992007111003004-05533-047500FM-15+0131SBIZ V0203301N002612200019N0080001N1+02601+02301999999ADDGF100991999999999999999999MA1100711999999REMMET048METAR SBIZ 100300Z 33005KT 8000 SKC 26/23 Q1007;EQDQ01    003SCCGA1
0084825640999992007111007154-05533-047500FM-16+0131SBIZ V0200301N002612200019N9999999N1+02601+02201999999ADDMA1100601999999REMMET057METAR SBIZ 100715Z SPECI 03005KT 7000 BKN020 26/22 Q1006;
0120825640999992007111008004-05533-047500FM-15+0131SBIZ V0200701N005110060019N0070001N1+02601+02201999999ADDGA1071+006001999GF107991999999999999999999MA1100711999999REMMET051METAR SBIZ 100800Z 07010KT 7000 BKN020 26/22 Q1007;
0120825640999992007111009004-05533-047500FM-15+0131SBIZ V0200401N004110090019N0060001N1+02601+02201999999ADDGA1081+009001999GF108991999999999999999999MA1100811999999REMMET051METAR SBIZ 100900Z 04008KT 6000 OVC030 26/22 Q1008;
0129825640999992007111010004-05533-047500FM-15+0131SBIZ V0201001N001010090019N0050001N1+02601+02301999999ADDGA1081+009001999GF108991999999999999999999MA1100911999999MW1041REMMET054METAR SBIZ 101000Z 10002KT 5000 FU OVC030 26/23 Q1009;
0129825640999992007111011004-05533-047500FM-15+0131SBIZ V0200601N006212200019N0050001N1+02801+02301999999ADDGF100991999999999999999999MA1100911999999MW1041REMMET051METAR SBIZ 101100Z 06012KT 5000 FU SKC 28/23 Q1009;EQDQ01    003SCCGA1
0120825640999992007111012004-05533-047500FM-15+0131SBIZ V0200701N006212200019N0070001N1+03001+02301999999ADDGF100991999999999999999999MA1100911999999REMMET048METAR SBIZ 101200Z 07012KT 7000 SKC 30/23 Q1009;EQDQ01    003SCCGA1
0120825640999992007111013004-05533-047500FM-15+0131SBIZ V0200901N005112200019N0070001N1+03201+02301999999ADDGA1041+006001999GF104991999999999999999999MA1100911999999REMMET051METAR SBIZ 101300Z 09010KT 7000 SCT020 32/23 Q1009;
0120825640999992007111014004-05533-047500FM-15+0131SBIZ V0203301N003612200019N0070001N1+03301+02401999999ADDGA1041+006001999GF104991999999999999999999MA1100911999999REMMET051METAR SBIZ 101400Z 33007KT 7000 SCT020 33/24 Q1009;
0120825640999992007111015004-05533-047500FM-15+0131SBIZ V0201301N002610060019N0080001N1+03301+02201999999ADDGA1071+006001999GF107991999999999999999999MA1100811999999REMMET051METAR SBIZ 101500Z 13005KT 8000 BKN020 33/22 Q1008;
0120825640999992007111017004-05533-047500FM-15+0131SBIZ V0200901N003112200019N0112651N1+03601+02101999999ADDGA1041+006001999GF104991999999999999999999MA1100511999999REMMET051METAR SBIZ 101700Z 09006KT 9999 SCT020 36/21 Q1005;
0120825640999992007111018004-05533-047500FM-15+0131SBIZ V0209999C000010060019N0112651N1+03501+02001999999ADDGA1071+006001999GF107991999999999999999999MA1100511999999REMMET051METAR SBIZ 101800Z 00000KT 9999 BKN020 35/20 Q1005;
0143825640999992007111019004-05533-047500FM-15+0131SBIZ V0202101N002612200019N0112651N1+03601+01901999999ADDGA1041+006001999GA2041+120001999GF104991999999999999999999MA1100411999999REMMET058METAR SBIZ 101900Z 21005KT 9999 SCT020 SCT400 36/19 Q1004;
0143825640999992007111020004-05533-047500FM-15+0131SBIZ V0202801N002611200019N0112651N1+03501+02101999999ADDGA1021+006001999GA2071+120001999GF107991999999999999999999MA1100411999999REMMET058METAR SBIZ 102000Z 28005KT 9999 FEW020 BKN400 35/21 Q1004;
0143825640999992007111021004-05533-047500FM-15+0131SBIZ V0202801N002111200019N0112651N1+03301+02101999999ADDGA1041+004501999GA2071+120001999GF107991999999999999999999MA1100511999999REMMET058METAR SBIZ 102100Z 28004KT 9999 SCT015 BKN400 33/21 Q1005;
0143825640999992007111022004-05533-047500FM-15+0131SBIZ V0209999C000011200019N0112651N1+03101+02101999999ADDGA1041+004501999GA2071+120001999GF107991999999999999999999MA1100511999999REMMET058METAR SBIZ 102200Z 00000KT 9999 SCT015 BKN400 31/21 Q1005;
0143825640999992007111023004-05533-047500FM-15+0131SBIZ V0209999C000012200019N0112651N1+03001+02101999999ADDGA1041+004501999GA2041+120001999GF104991999999999999999999MA1100611999999REMMET058METAR SBIZ 102300Z 00000KT 9999 SCT015 SCT400 30/21 Q1006;
0136825640999992007111100004-05533-047500FM-15+0131SBIZ V0201501N00211220001CN0112651N1+03001+02201999999ADDGA1071+004501999GA2041+120001999MA1100711999999REMMET058METAR SBIZ 110000Z 15004KT 9999 BKN015 SCT400 30/22 Q1007;EQDQ01+000042SCOTCV
0072825640999992007111101004-05533-047500FM-15+0131SBIZ V0201801N00101220001CN0099001N1+02901+02201999999ADDMA1100811999999REMMET045METAR SBIZ 110100Z 18002KT CAVOK 29/22 Q1008;
0072825640999992007111102004-05533-047500FM-15+0131SBIZ V0203101N00261220001CN0099001N1+02801+02201999999ADDMA1100811999999REMMET045METAR SBIZ 110200Z 31005KT CAVOK 28/22 Q1008;
0072825640999992007111103004-05533-047500FM-15+0131SBIZ V0203601N00151220001CN0099001N1+02801+02201999999ADDMA1100711999999REMMET045METAR SBIZ 110300Z 36003KT CAVOK 28/22 Q1007;
0129825640999992007111108004-05533-047500FM-15+0131SBIZ V0200301N002610060019N0050001N1+02701+02201999999ADDGA1071+006001999GF107991999999999999999999MA1100811999999MW1041REMMET054METAR SBIZ 110800Z 03005KT 5000 FU BKN020 27/22 Q1008;
0129825640999992007111109004-05533-047500FM-15+0131SBIZ V0200801N004110039019N0050001N1+02601+02201999999ADDGA1071+003901999GF107991999999999999999999MA1100911999999MW1041REMMET054METAR SBIZ 110900Z 08008KT 5000 FU BKN013 26/22 Q1009;
0129825640999992007111110004-05533-047500FM-15+0131SBIZ V0200701N004110045019N0035001N1+02601+02201999999ADDGA1071+004501999GF107991999999999999999999MA1101021999999MW1041REMMET054METAR SBIZ 111000Z 07008KT 3500 FU BKN015 26/22 Q1010;
0129825640999992007111111004-05533-047500FM-15+0131SBIZ V0200401N005710060019N0050001N1+02901+02201999999ADDGA1071+006001999GF107991999999999999999999MA1101021999999MW1041REMMET054METAR SBIZ 111100Z 04011KT 5000 FU BKN020 29/22 Q1010;
0120825640999992007111112004-05533-047500FM-15+0131SBIZ V0200601N006712200019N0070001N1+03001+02201999999ADDGA1041+004501999GF104991999999999999999999MA1101021999999REMMET051METAR SBIZ 111200Z 06013KT 7000 SCT015 30/22 Q1010;
0120825640999992007111113004-05533-047500FM-15+0131SBIZ V0200601N005110060019N0080001N1+03101+02201999999ADDGA1071+006001999GF107991999999999999999999MA1101021999999REMMET051METAR SBIZ 111300Z 06010KT 8000 BKN020 31/22 Q1010;
0120825640999992007111114004-05533-047500FM-15+0131SBIZ V0200901N001510060019N0090001N1+03201+02201999999ADDGA1071+006001999GF107991999999999999999999MA1101021999999REMMET051METAR SBIZ 111400Z 09003KT 9000 BKN020 32/22 Q1010;
0120825640999992007111115004-05533-047500FM-15+0131SBIZ V0203501N001510060019N0112651N1+03201+02201999999ADDGA1071+006001999GF107991999999999999999999MA1100911999999REMMET051METAR SBIZ 111500Z 35003KT 9999 BKN020 32/22 Q1009;
0120825640999992007111116004-05533-047500FM-15+0131SBIZ V0209999C000010060019N0112651N1+03201+02201999999ADDGA1071+006001999GF107991999999999999999999MA1100911999999REMMET051METAR SBIZ 111600Z 00000KT 9999 BKN020 32/22 Q1009;
0120825640999992007111117004-05533-047500FM-15+0131SBIZ V0203001N003612200019N0112651N1+03201+02201999999ADDGA1041+006001999GF104991999999999999999999MA1100811999999REMMET051METAR SBIZ 111700Z 30007KT 9999 SCT020 32/22 Q1008;
0143825640999992007111118004-05533-047500FM-15+0131SBIZ V0203101N003111200019N0112651N1+03401+02201999999ADDGA1041+006001999GA2071+120001999GF107991999999999999999999MA1100811999999REMMET058METAR SBIZ 111800Z 31006KT 9999 SCT020 BKN400 34/22 Q1008;
0143825640999992007111119004-05533-047500FM-15+0131SBIZ V0202501N003111200019N0112651N1+03301+02201999999ADDGA1021+006001999GA2071+120001999GF107991999999999999999999MA1100711999999REMMET058METAR SBIZ 111900Z 25006KT 9999 FEW020 BKN400 33/22 Q1007;
0143825640999992007111120004-05533-047500FM-15+0131SBIZ V0202801N005111200019N0112651N1+03201+02201999999ADDGA1021+006001999GA2071+120001999GF107991999999999999999999MA1100711999999REMMET058METAR SBIZ 112000Z 28010KT 9999 FEW020 BKN400 32/22 Q1007;
0143825640999992007111121004-05533-047500FM-15+0131SBIZ V0202801N006211200019N0080001N1+03001+02201999999ADDGA1041+006001999GA2071+120001999GF107991999999999999999999MA1100811999999REMMET058METAR SBIZ 112100Z 28012KT 8000 SCT020 BKN400 30/22 Q1008;
0154825640999992007111122004-05533-047500FM-15+0131SBIZ V0202701N005111200019N0080001N1+02901+02201999999ADDGA1021+007501091GA2071+120001999GF107991999999999999999999MA1100911999999MW1171REMMET063METAR SBIZ 112200Z 27010KT 8000 TS FEW025CB BKN400 29/22 Q1009;
0177825640999992007111123004-05533-047500FM-15+0131SBIZ V0200601N002610060019N0080001N1+02901+02301999999ADDGA1071+006001999GA2021+007501091GA3071+120001999GF107991999999999999999999MA1101021999999MW1171REMMET070METAR SBIZ 112300Z 06005KT 8000 TS BKN020 FEW025CB BKN400 29/23 Q1010;
0148825640999992007111200004-05533-047500FM-15+0131SBIZ V0209999C000011200019N0080001N1+02801+02201999999ADDGA1041+006001999GA2071+120001999GF107991999999999999999999MA1100911999999REMMET063METAR SBIZ 120000Z 00000KT 8000 SCT020 BKN400 28/22 Q1009 RETS;
0143825640999992007111201004-05533-047500FM-15+0131SBIZ V0209999C000011200019N0080001N1+02701+02201999999ADDGA1041+006001999GA2071+120001999GF107991999999999999999999MA1101021999999REMMET058METAR SBIZ 120100Z 00000KT 8000 SCT020 BKN400 27/22 Q1010;
0143825640999992007111202004-05533-047500FM-15+0131SBIZ V0201501N001011200019N0080001N1+02601+02201999999ADDGA1021+006001999GA2071+120001999GF107991999999999999999999MA1101021999999REMMET058METAR SBIZ 120200Z 15002KT 8000 FEW020 BKN400 26/22 Q1010;
0120825640999992007111203004-05533-047500FM-15+0131SBIZ V0209999C000012200019N0080001N1+02501+02201999999ADDGF100991999999999999999999MA1101021999999REMMET048METAR SBIZ 120300Z 00000KT 8000 NSC 25/22 Q1010;EQDQ01    003SCCGA1
0129825640999992007111208004-05533-047500FM-15+0131SBIZ V0209999C000012200019N0050001N1+02401+02201999999ADDGF100991999999999999999999MA1101021999999MW1101REMMET051METAR SBIZ 120800Z 00000KT 5000 BR SKC 24/22 Q1010;EQDQ01    003SCCGA1
0129825640999992007111209004-05533-047500FM-15+0131SBIZ V0201501N001010060019N0040001N1+02301+02201999999ADDGA1071+006001999GF107991999999999999999999MA1101081999999MW1041REMMET054METAR SBIZ 120900Z 15002KT 4000 FU BKN020 23/22 Q1011;
0129825640999992007111210004-05533-047500FM-15+0131SBIZ V0201501N001010060019N0050001N1+02401+02301999999ADDGA1081+006001999GF108991999999999999999999MA1101081999999MW1101REMMET054METAR SBIZ 121000Z 15002KT 5000 BR OVC020 24/23 Q1011;
0129825640999992007111211004-05533-047500FM-15+0131SBIZ V0201501N001510060019N0050001N1+02501+02401999999ADDGA1081+006001999GF108991999999999999999999MA1101191999999MW1041REMMET054METAR SBIZ 121100Z 15003KT 5000 FU OVC020 25/24 Q1012;
0129825640999992007111212004-05533-047500FM-15+0131SBIZ V0201501N001510060019N0050001N1+02601+02401999999ADDGA1081+006001999GF108991999999999999999999MA1101191999999MW1041REMMET054METAR SBIZ 121200Z 15003KT 5000 FU OVC020 26/24 Q1012;
0120825640999992007111213004-05533-047500FM-15+0131SBIZ V0201001N002610060019N0070001N1+02901+02401999999ADDGA1071+006001999GF107991999999999999999999MA1101191999999REMMET051METAR SBIZ 121300Z 10005KT 7000 BKN020 29/24 Q1012;
0120825640999992007111214004-05533-047500FM-15+0131SBIZ V0200101N004110060019N0070001N1+03101+02301999999ADDGA1071+006001999GF107991999999999999999999MA1101191999999REMMET051METAR SBIZ 121400Z 01008KT 7000 BKN020 31/23 Q1012;
0120825640999992007111215004-05533-047500FM-15+0131SBIZ V0200701N005112200019N0112651N1+03301+02301999999ADDGA1041+006001999GF104991999999999999999999MA1101021999999REMMET051METAR SBIZ 121500Z 07010KT 9999 SCT020 33/23 Q1010;
0120825640999992007111216004-05533-047500FM-15+0131SBIZ V0202101N002612200019N0112651N1+03401+02301999999ADDGA1041+006001999GF104991999999999999999999MA1100911999999REMMET051METAR SBIZ 121600Z 21005KT 9999 SCT020 34/23 Q1009;
0120825640999992007111217004-05533-047500FM-15+0131SBIZ V0202101N003112200019N0112651N1+03501+02301999999ADDGA1041+006001999GF104991999999999999999999MA1100811999999REMMET051METAR SBIZ 121700Z 21006KT 9999 SCT020 35/23 Q1008;
0120825640999992007111218004-05533-047500FM-15+0131SBIZ V0201801N003110060019N0112651N1+03401+02201999999ADDGA1071+006001999GF107991999999999999999999MA1100711999999REMMET051METAR SBIZ 121800Z 18006KT 9999 BKN020 34/22 Q1007;
0120825640999992007111219004-05533-047500FM-15+0131SBIZ V0201801N005112200019N0112651N1+03501+02201999999ADDGA1041+006001999GF104991999999999999999999MA1100611999999REMMET051METAR SBIZ 121900Z 18010KT 9999 SCT020 35/22 Q1006;
0120825640999992007111220004-05533-047500FM-15+0131SBIZ V0201501N002612200019N0112651N1+03401+02201999999ADDGA1041+006001999GF104991999999999999999999MA1100611999999REMMET051METAR SBIZ 122000Z 15005KT 9999 SCT020 34/22 Q1006;
0148825640999992007111221004-05533-047500FM-15+0131SBIZ V0200601N004111200019N0090001N1+03001+02101999999ADDGA1021+006001999GA2071+120001999GF107991999999999999999999MA1100711999999REMMET063METAR SBIZ 122100Z 06008KT 9000 FEW020 BKN400 30/21 Q1007 RETS;
0120825640999992007111222004-05533-047500FM-15+0131SBIZ V0200601N004112200019N0080001N1+02801+02101999999ADDGF100991999999999999999999MA1100711999999REMMET048METAR SBIZ 122200Z 06008KT 8000 NSC 28/21 Q1007;EQDQ01    003SCCGA1
0072825640999992007111223004-05533-047500FM-15+0131SBIZ V0203601N00771220001CN0099001N1+02701+02201999999ADDMA1100811999999REMMET045METAR SBIZ 122300Z 36015KT CAVOK 27/22 Q1008;
0072825640999992007111300004-05533-047500FM-15+0131SBIZ V0209999C00001220001CN0099001N1+02601+02301999999ADDMA1100811999999REMMET045METAR SBIZ 130000Z 00000KT CAVOK 26/23 Q1008;
0120825640999992007111301004-05533-047500FM-15+0131SBIZ V0209999C000012200019N0112651N1+02601+02201999999ADDGA1041+004501999GF104991999999999999999999MA1100911999999REMMET051METAR SBIZ 130100Z 00000KT 9999 SCT015 26/22 Q1009;
0072825640999992007111302004-05533-047500FM-15+0131SBIZ V0209999C00001220001CN0099001N1+02601+02201999999ADDMA1100911999999REMMET045METAR SBIZ 130200Z 00000KT CAVOK 26/22 Q1009;
0081825640999992007111307154-05533-047500FM-16+0131SBIZ V0203501N001512200019N9999999N1+02501+02201999999ADDMA1100801999999REMMET054METAR SBIZ 130715Z SPECI 35003KT 6000 SKC 25/22 Q1008;
0120825640999992007111308004-05533-047500FM-15+0131SBIZ V0203501N001512200019N0060001N1+02401+02201999999ADDGF100991999999999999999999MA1100911999999REMMET048METAR SBIZ 130800Z 35003KT 6000 SKC 24/22 Q1009;EQDQ01    003SCCGA1
0143825640999992007111309004-05533-047500FM-15+0131SBIZ V0209999C000011200019N0112651N1+02401+02201999999ADDGA1021+004501999GA2071+120001999GF107991999999999999999999MA1100911999999REMMET058METAR SBIZ 130900Z 00000KT 9999 FEW015 BKN400 24/22 Q1009;
0143825640999992007111310004-05533-047500FM-15+0131SBIZ V0200601N002611200019N0112651N1+02501+02201999999ADDGA1021+006001999GA2071+120001999GF107991999999999999999999MA1101021999999REMMET058METAR SBIZ 131000Z 06005KT 9999 FEW020 BKN400 25/22 Q1010;
0120825640999992007111311004-05533-047500FM-15+0131SBIZ V0203601N005110060019N0112651N1+02601+02201999999ADDGA1081+006001999GF108991999999999999999999MA1101021999999REMMET051METAR SBIZ 131100Z 36010KT 9999 OVC020 26/22 Q1010;
0120825640999992007111312004-05533-047500FM-15+0131SBIZ V0200301N006210060019N0112651N1+02901+02201999999ADDGA1071+006001999GF107991999999999999999999MA1101021999999REMMET051METAR SBIZ 131200Z 03012KT 9999 BKN020 29/22 Q1010;
0120825640999992007111313004-05533-047500FM-15+0131SBIZ V0200601N005110060019N0112651N1+02901+02201999999ADDGA1071+006001999GF107991999999999999999999MA1101081999999REMMET051METAR SBIZ 131300Z 06010KT 9999 BKN020 29/22 Q1011;
0120825640999992007111314004-05533-047500FM-15+0131SBIZ V0200301N002612200019N0112651N1+03001+02201999999ADDGA1041+006001999GF104991999999999999999999MA1101021999999REMMET051METAR SBIZ 131400Z 03005KT 9999 SCT020 30/22 Q1010;
0166825640999992007111315004-05533-047500FM-15+0131SBIZ V0200301N00311006001CN0112651N1+03101+02201999999ADDGA1021+004501999GA2041+006001999GA3071+009001999GF107991999999999999999999MA1101021999999REMMET065METAR SBIZ 131500Z 03006KT 9999 FEW015 SCT020 BKN030 31/22 Q1010;
0143825640999992007111316004-05533-047500FM-15+0131SBIZ V0203601N005110090019N0112651N1+03201+02101999999ADDGA1041+006001999GA2071+009001999GF107991999999999999999999MA1100911999999REMMET058METAR SBIZ 131600Z 36010KT 9999 SCT020 BKN030 32/21 Q1009;
0143825640999992007111317004-05533-047500FM-15+0131SBIZ V0201201N001511200019N0112651N1+03201+02101999999ADDGA1041+006001999GA2071+120001999GF107991999999999999999999MA1100811999999REMMET058METAR SBIZ 131700Z 12003KT 9999 SCT020 BKN400 32/21 Q1008;
0143825640999992007111318004-05533-047500FM-15+0131SBIZ V0203601N004111200019N0112651N1+03501+02101999999ADDGA1041+006001999GA2071+120001999GF107991999999999999999999MA1100711999999REMMET058METAR SBIZ 131800Z 36008KT 9999 SCT020 BKN400 35/21 Q1007;
0143825640999992007111319004-05533-047500FM-15+0131SBIZ V0202101N004111200019N0112651N1+03301+02101999999ADDGA1041+006001999GA2071+120001999GF107991999999999999999999MA1100611999999REMMET058METAR SBIZ 131900Z 21008KT 9999 SCT020 BKN400 33/21 Q1006;
0166825640999992007111320004-05533-047500FM-15+0131SBIZ V0202101N00411006001CN0112651N1+03201+02101999999ADDGA1021+004501999GA2041+006001999GA3071+120001999GF107991999999999999999999MA1100611999999REMMET065METAR SBIZ 132000Z 21008KT 9999 FEW015 SCT020 BKN400 32/21 Q1006;
0143825640999992007111321004-05533-047500FM-15+0131SBIZ V0201801N001511200019N0112651N1+03001+02301999999ADDGA1021+006001999GA2071+120001999GF107991999999999999999999MA1100711999999REMMET058METAR SBIZ 132100Z 18003KT 9999 FEW020 BKN400 30/23 Q1007;
0143825640999992007111322004-05533-047500FM-15+0131SBIZ V0201801N002111200019N0112651N1+02901+02301999999ADDGA1041+006001999GA2071+120001999GF107991999999999999999999MA1100711999999REMMET058METAR SBIZ 132200Z 18004KT 9999 SCT020 BKN400 29/23 Q1007;
0143825640999992007111323004-05533-047500FM-15+0131SBIZ V0201801N001511200019N0112651N1+02801+02301999999ADDGA1041+004501999GA2071+120001999GF107991999999999999999999MA1100811999999REMMET058METAR SBIZ 132300Z 18003KT 9999 SCT015 BKN400 28/23 Q1008;
0177825640999992007111400004-05533-047500FM-15+0131SBIZ V0200301N007711200019N0112651N1+02701+02001999999ADDGA1021+004501999GA2021+007501091GA3071+120001999GF107991999999999999999999MA1101021999999MW1171REMMET070METAR SBIZ 140000Z 03015KT 9999 TS FEW015 FEW025CB BKN400 27/20 Q1010;
0177825640999992007111401004-05533-047500FM-15+0131SBIZ V0202801N00511007501CN0112651N1+02601+01901999999ADDGA1041+004501999GA2021+007501091GA3071+120001999GF107991999999999999999999MA1101021999999MW1171REMMET070METAR SBIZ 140100Z 28010KT 9999 TS SCT015 FEW025CB BKN400 26/19 Q1010;
0148825640999992007111402004-05533-047500FM-15+0131SBIZ V0203401N002112200019N0112651N1+02601+02101999999ADDGA1021+004501999GA2041+120001999GF104991999999999999999999MA1101021999999REMMET063METAR SBIZ 140200Z 34004KT 9999 FEW015 SCT400 26/21 Q1010 RETS;
0143825640999992007111408004-05533-047500FM-15+0131SBIZ V0200901N004110060019N0112651N1+02401+02201999999ADDGA1041+004501999GA2071+006001999GF107991999999999999999999MA1101021999999REMMET058METAR SBIZ 140800Z 09008KT 9999 SCT015 BKN020 24/22 Q1010;
0143825640999992007111409004-05533-047500FM-15+0131SBIZ V0201201N002610060019N0112651N1+02401+02201999999ADDGA1041+004501999GA2071+006001999GF107991999999999999999999MA1101081999999REMMET058METAR SBIZ 140900Z 12005KT 9999 SCT015 BKN020 24/22 Q1011;
0143825640999992007111410004-05533-047500FM-15+0131SBIZ V0201201N004110300019N0112651N1+02401+02301999999ADDGA1041+006001999GA2071+030001999GF107991999999999999999999MA1101081999999REMMET058METAR SBIZ 141000Z 12008KT 9999 SCT020 BKN100 24/23 Q1011;
0120825640999992007111411004-05533-047500FM-15+0131SBIZ V0209999C000010090019N0112651N1+02501+02301999999ADDGA1071+009001999GF107991999999999999999999MA1101191999999REMMET051METAR SBIZ 141100Z 00000KT 9999 BKN030 25/23 Q1012;
0143825640999992007111412004-05533-047500FM-15+0131SBIZ V0200601N003112200019N0112651N1+02801+02301999999ADDGA1041+006001999GA2041+030001999GF104991999999999999999999MA1101191999999REMMET058METAR SBIZ 141200Z 06006KT 9999 SCT020 SCT100 28/23 Q1012;
0166825640999992007111413004-05533-047500FM-15+0131SBIZ V0200601N00621030001CN0112651N1+03101+02201999999ADDGA1021+006001999GA2041+030001999GA3071+120001999GF107991999999999999999999MA1101191999999REMMET065METAR SBIZ 141300Z 06012KT 9999 FEW020 SCT100 BKN400 31/22 Q1012;
0120825640999992007111414004-05533-047500FM-15+0131SBIZ V0200901N006212200019N0112651N1+03201+02101999999ADDGA1041+006001999GF104991999999999999999999MA1101081999999REMMET051METAR SBIZ 141400Z 09012KT 9999 SCT020 32/21 Q1011;
0136825640999992007111415004-05533-047500FM-15+0131SBIZ V0200701N00261220001CN0112651N1+03301+02001999999ADDGA1071+006001999GA2041+030001999MA1101021999999REMMET058METAR SBIZ 141500Z 07005KT 9999 BKN020 SCT100 33/20 Q1010;EQDQ01+000042SCOTCV
0143825640999992007111416004-05533-047500FM-15+0131SBIZ V0201501N003610060019N0112651N1+03301+02001999999ADDGA1021+004501999GA2071+006001999GF107991999999999999999999MA1100911999999REMMET058METAR SBIZ 141600Z 15007KT 9999 FEW015 BKN020 33/20 Q1009;
0143825640999992007111417004-05533-047500FM-15+0131SBIZ V0200901N005112200019N0112651N1+03501+02101999999ADDGA1021+004501999GA2041+006001999GF104991999999999999999999MA1100811999999REMMET058METAR SBIZ 141700Z 09010KT 9999 FEW015 SCT020 35/21 Q1008;
0143825640999992007111418004-05533-047500FM-15+0131SBIZ V0201201N005112200019N0112651N1+03301+02101999999ADDGA1021+004501999GA2041+006001999GF104991999999999999999999MA1100711999999REMMET058METAR SBIZ 141800Z 12010KT 9999 FEW015 SCT020 33/21 Q1007;
0120825640999992007111419004-05533-047500FM-15+0131SBIZ V0200901N003612200019N0112651N1+03501+01901999999ADDGA1041+006001999GF104991999999999999999999MA1100711999999REMMET051METAR SBIZ 141900Z 09007KT 9999 SCT020 35/19 Q1007;
0143825640999992007111420004-05533-047500FM-15+0131SBIZ V0209999C000012200019N0112651N1+03401+02001999999ADDGA1041+006001999GA2041+030001999GF104991999999999999999999MA1100711999999REMMET058METAR SBIZ 142000Z 00000KT 9999 SCT020 SCT100 34/20 Q1007;
0143825640999992007111421004-05533-047500FM-15+0131SBIZ V0202501N001512200019N0112651N1+03301+02001999999ADDGA1021+004501999GA2041+006001999GF104991999999999999999999MA1100711999999REMMET058METAR SBIZ 142100Z 25003KT 9999 FEW015 SCT020 33/20 Q1007;
0120825640999992007111422004-05533-047500FM-15+0131SBIZ V0202401N001512200019N0112651N1+03101+02101999999ADDGA1021+004501999GF102991999999999999999999MA1100811999999REMMET051METAR SBIZ 142200Z 24003KT 9999 FEW015 31/21 Q1008;
0072825640999992007111423004-05533-047500FM-15+0131SBIZ V0209999C00001220001CN0099001N1+02901+02201999999ADDMA1100811999999REMMET045METAR SBIZ 142300Z 00000KT CAVOK 29/22 Q1008;
0072825640999992007111500004-05533-047500FM-15+0131SBIZ V0201201N00211220001CN0099001N1+02701+02101999999ADDMA1100911999999REMMET045METAR SBIZ 150000Z 12004KT CAVOK 27/21 Q1009;
0072825640999992007111501004-05533-047500FM-15+0131SBIZ V0203601N00311220001CN0099001N1+02801+02201999999ADDMA1100911999999REMMET045METAR SBIZ 150100Z 36006KT CAVOK 28/22 Q1009;
0072825640999992007111502004-05533-047500FM-15+0131SBIZ V0209999C00001220001CN0099001N1+02701+02201999999ADDMA1100911999999REMMET045METAR SBIZ 150200Z 00000KT CAVOK 27/22 Q1009;
0072825640999992007111503004-05533-047500FM-15+0131SBIZ V0209999C00001220001CN0099001N1+02601+02301999999ADDMA1100911999999REMMET045METAR SBIZ 150300Z 00000KT CAVOK 26/23 Q1009;
0120825640999992007111508004-05533-047500FM-15+0131SBIZ V0200801N006212200019N0070001N1+02501+02001999999ADDGF100991999999999999999999MA1100911999999REMMET048METAR SBIZ 150800Z 08012KT 7000 SKC 25/20 Q1009;EQDQ01    003SCCGA1
0120825640999992007111509004-05533-047500FM-15+0131SBIZ V0200801N005112200019N0070001N1+02501+02001999999ADDGA1041+004501999GF104991999999999999999999MA1101021999999REMMET051METAR SBIZ 150900Z 08010KT 7000 SCT015 25/20 Q1010;
0120825640999992007111511004-05533-047500FM-15+0131SBIZ V0200801N005112200019N0112651N1+02701+02101999999ADDGA1041+004501999GF104991999999999999999999MA1101081999999REMMET051METAR SBIZ 151100Z 08010KT 9999 SCT015 27/21 Q1011;
0143825640999992007111512004-05533-047500FM-15+0131SBIZ V0200801N005112200019N0112651N1+02901+02001999999ADDGA1021+004501999GA2041+030001999GF104991999999999999999999MA1101191999999REMMET058METAR SBIZ 151200Z 08010KT 9999 FEW015 SCT100 29/20 Q1012;
0120825640999992007111513004-05533-047500FM-15+0131SBIZ V0201001N005112200019N0112651N1+03101+02001999999ADDGA1041+004501999GF104991999999999999999999MA1101081999999REMMET051METAR SBIZ 151300Z 10010KT 9999 SCT015 31/20 Q1011;
0143825640999992007111514004-05533-047500FM-15+0131SBIZ V0201201N005112200019N0112651N1+03401+02001999999ADDGA1021+006001999GA2041+030001999GF104991999999999999999999MA1101081999999REMMET058METAR SBIZ 151400Z 12010KT 9999 FEW020 SCT100 34/20 Q1011;
0120825640999992007111515004-05533-047500FM-15+0131SBIZ V0201201N006210060019N0112651N1+03501+02101999999ADDGA1071+006001999GF107991999999999999999999MA1101021999999REMMET051METAR SBIZ 151500Z 12012KT 9999 BKN020 35/21 Q1010;
0120825640999992007111516004-05533-047500FM-15+0131SBIZ V0200601N005110060019N0112651N1+03501+02101999999ADDGA1071+006001999GF107991999999999999999999MA1100911999999REMMET051METAR SBIZ 151600Z 06010KT 9999 BKN020 35/21 Q1009;
0120825640999992007111517004-05533-047500FM-15+0131SBIZ V0201501N003110060019N0112651N1+03601+02101999999ADDGA1071+006001999GF107991999999999999999999MA1100811999999REMMET051METAR SBIZ 151700Z 15006KT 9999 BKN020 36/21 Q1008;
0120825640999992007111518004-05533-047500FM-15+0131SBIZ V0201201N005112200019N0112651N1+03701+01901999999ADDGA1041+006001999GF104991999999999999999999MA1100711999999REMMET051METAR SBIZ 151800Z 12010KT 9999 SCT020 37/19 Q1007;
0120825640999992007111519004-05533-047500FM-15+0131SBIZ V0200101N002110060019N0112651N1+03601+02001999999ADDGA1071+006001999GF107991999999999999999999MA1100611999999REMMET051METAR SBIZ 151900Z 01004KT 9999 BKN020 36/20 Q1006;
0120825640999992007111520004-05533-047500FM-15+0131SBIZ V0202701N005110060019N0112651N1+03601+02001999999ADDGA1071+006001999GF107991999999999999999999MA1100611999999REMMET051METAR SBIZ 152000Z 27010KT 9999 BKN020 36/20 Q1006;
0120825640999992007111521004-05533-047500FM-15+0131SBIZ V0202001N001010060019N0112651N1+03501+02101999999ADDGA1071+006001999GF107991999999999999999999MA1100611999999REMMET051METAR SBIZ 152100Z 20002KT 9999 BKN020 35/21 Q1006;
0120825640999992007111522004-05533-047500FM-15+0131SBIZ V0200601N010310060019N0112651N1+03201+02101999999ADDGA1071+006001999GF107991999999999999999999MA1100811999999REMMET051METAR SBIZ 152200Z 06020KT 9999 BKN020 32/21 Q1008;
0130825640999992007111523004-05533-047500FM-15+0131SBIZ V0203401N004110060019N0112651N1+02601+02301999999ADDGA1071+006001999GF107991999999999999999999MA1100911999999MW1611REMMET055METAR SBIZ 152300Z 34008KT 9999 -RA BKN020 26/23 Q1009;
0120825640999992007111602004-05533-047500FM-15+0131SBIZ V0209999C000010060019N0112651N1+02601+02501999999ADDGA1071+006001999GF107991999999999999999999MA1100911999999REMMET051METAR SBIZ 160200Z 00000KT 9999 BKN020 26/25 Q1009;
0120825640999992007111603004-05533-047500FM-15+0131SBIZ V0203601N001510060019N0112651N1+02601+02401999999ADDGA1071+006001999GF107991999999999999999999MA1100911999999REMMET051METAR SBIZ 160300Z 36003KT 9999 BKN020 26/24 Q1009;
0120825640999992007111604004-05533-047500FM-15+0131SBIZ V0200201N002610060019N0090001N1+02501+02401999999ADDGA1071+006001999GF107991999999999999999999MA1100811999999REMMET051METAR SBIZ 160400Z 02005KT 9000 BKN020 25/24 Q1008;
0120825640999992007111605004-05533-047500FM-15+0131SBIZ V0200501N002612200019N0090001N1+02501+02401999999ADDGA1041+006001999GF104991999999999999999999MA1100811999999REMMET051METAR SBIZ 160500Z 05005KT 9000 SCT020 25/24 Q1008;
0129825640999992007111608004-05533-047500FM-15+0131SBIZ V0200901N001512200019N0050001N1+02401+02101999999ADDGF100991999999999999999999MA1100911999999MW1101REMMET051METAR SBIZ 160800Z 09003KT 5000 BR SKC 24/21 Q1009;EQDQ01    003SCCGA1
0129825640999992007111609004-05533-047500FM-15+0131SBIZ V0203401N002112200019N0050001N1+02401+02001999999ADDGF100991999999999999999999MA1101021999999MW1101REMMET051METAR SBIZ 160900Z 34004KT 5000 BR NSC 24/20 Q1010;EQDQ01    003SCCGA1
0120825640999992007111610004-05533-047500FM-15+0131SBIZ V0201001N003112200019N0080001N1+02501+02101999999ADDGF100991999999999999999999MA1101081999999REMMET048METAR SBIZ 161000Z 10006KT 8000 NSC 25/21 Q1011;EQDQ01    003SCCGA1
0120825640999992007111611004-05533-047500FM-15+0131SBIZ V0201301N001512200019N0112651N1+02601+02101999999ADDGA1021+004501999GF102991999999999999999999MA1101191999999REMMET051METAR SBIZ 161100Z 13003KT 9999 FEW015 26/21 Q1012;
0120825640999992007111612004-05533-047500FM-15+0131SBIZ V0200901N005712200019N0112651N1+02901+02101999999ADDGA1021+004501999GF102991999999999999999999MA1101191999999REMMET051METAR SBIZ 161200Z 09011KT 9999 FEW015 29/21 Q1012;
0120825640999992007111613004-05533-047500FM-15+0131SBIZ V0200701N003612200019N0112651N1+03201+02101999999ADDGA1021+004501999GF102991999999999999999999MA1101081999999REMMET051METAR SBIZ 161300Z 07007KT 9999 FEW015 32/21 Q1011;
0120825640999992007111614004-05533-047500FM-15+0131SBIZ V0200901N005112200019N0112651N1+03301+02301999999ADDGA1021+004501999GF102991999999999999999999MA1101081999999REMMET051METAR SBIZ 161400Z 09010KT 9999 FEW015 33/23 Q1011;
0120825640999992007111615004-05533-047500FM-15+0131SBIZ V0200601N005112200019N0112651N1+03401+02401999999ADDGA1021+004501999GF102991999999999999999999MA1101021999999REMMET051METAR SBIZ 161500Z 06010KT 9999 FEW015 34/24 Q1010;
0120825640999992007111616004-05533-047500FM-15+0131SBIZ V0200901N008710060019N0112651N1+03601+02301999999ADDGA1071+006001999GF107991999999999999999999MA1100911999999REMMET051METAR SBIZ 161600Z 09017KT 9999 BKN020 36/23 Q1009;
0120825640999992007111617004-05533-047500FM-15+0131SBIZ V0201501N001512200019N0112651N1+03601+02201999999ADDGA1041+006001999GF104991999999999999999999MA1100811999999REMMET051METAR SBIZ 161700Z 15003KT 9999 SCT020 36/22 Q1008;
0120825640999992007111618004-05533-047500FM-15+0131SBIZ V0200501N002612200019N0112651N1+03701+02001999999ADDGA1041+006001999GF104991999999999999999999MA1100711999999REMMET051METAR SBIZ 161800Z 05005KT 9999 SCT020 37/20 Q1007;
0120825640999992007111619004-05533-047500FM-15+0131SBIZ V0200601N002612200019N0112651N1+03801+02001999999ADDGA1041+006001999GF104991999999999999999999MA1100611999999REMMET051METAR SBIZ 161900Z 06005KT 9999 SCT020 38/20 Q1006;
0120825640999992007111620004-05533-047500FM-15+0131SBIZ V0201201N006212200019N0112651N1+03601+02001999999ADDGA1021+006001999GF102991999999999999999999MA1100611999999REMMET051METAR SBIZ 162000Z 12012KT 9999 FEW020 36/20 Q1006;
0120825640999992007111621004-05533-047500FM-15+0131SBIZ V0209999C000012200019N0112651N1+03401+01901999999ADDGA1021+006001999GF102991999999999999999999MA1100611999999REMMET051METAR SBIZ 162100Z 00000KT 9999 FEW020 34/19 Q1006;
0072825640999992007111622004-05533-047500FM-15+0131SBIZ V0209999C00001220001CN0099001N1+03101+02101999999ADDMA1100711999999REMMET045METAR SBIZ 162200Z 00000KT CAVOK 31/21 Q1007;
0072825640999992007111623004-05533-047500FM-15+0131SBIZ V0209999C00001220001CN0099001N1+03001+02201999999ADDMA1100711999999REMMET045METAR SBIZ 162300Z 00000KT CAVOK 30/22 Q1007;
0072825640999992007111700004-05533-047500FM-15+0131SBIZ V0209999C00001220001CN0099001N1+02901+02201999999ADDMA1100811999999REMMET045METAR SBIZ 170000Z 00000KT CAVOK 29/22 Q1008;
0072825640999992007111701004-05533-047500FM-15+0131SBIZ V0203601N00101220001CN0099001N1+02901+02201999999ADDMA1100811999999REMMET045METAR SBIZ 170100Z 36002KT CAVOK 29/22 Q1008;
0072825640999992007111702004-05533-047500FM-15+0131SBIZ V0209999C00001220001CN0099001N1+02701+02201999999ADDMA1100811999999REMMET045METAR SBIZ 170200Z 00000KT CAVOK 27/22 Q1008;
0129825640999992007111708004-05533-047500FM-15+0131SBIZ V0209999C000012200019N0040001N1+02501+02001999999ADDGA1041+004501999GF104991999999999999999999MA1100911999999MW1041REMMET054METAR SBIZ 170800Z 00000KT 4000 FU SCT015 25/20 Q1009;
0152825640999992007111709004-05533-047500FM-15+0131SBIZ V0200301N003111200019N0020001N1+02601+02101999999ADDGA1021+004501999GA2071+120001999GF107991999999999999999999MA1101021999999MW1041REMMET061METAR SBIZ 170900Z 03006KT 2000 FU FEW015 BKN400 26/21 Q1010;
0152825640999992007111710004-05533-047500FM-15+0131SBIZ V0200301N003611200019N0030001N1+02701+02101999999ADDGA1021+006001999GA2071+120001999GF107991999999999999999999MA1101081999999MW1041REMMET061METAR SBIZ 171000Z 03007KT 3000 FU FEW020 BKN400 27/21 Q1011;
0129825640999992007111711004-05533-047500FM-15+0131SBIZ V0200301N006212200019N0040001N1+02801+02201999999ADDGA1041+006001999GF104991999999999999999999MA1101191999999MW1041REMMET054METAR SBIZ 171100Z 03012KT 4000 FU SCT020 28/22 Q1012;
0087825640999992007111711254-05533-047500FM-15+0131SBIZ V0203601N005112200019N9999999N1+02901+02201999999ADDMA1101201999999REMMET060METAR SBIZ 171125Z 36010KT SPECI 5000 FU SCT020 29/22 Q1012;
0129825640999992007111713004-05533-047500FM-15+0131SBIZ V0200701N002612200019N0050001N1+03201+02301999999ADDGF100991999999999999999999MA1101191999999MW1041REMMET051METAR SBIZ 171300Z 07005KT 5000 FU SKC 32/23 Q1012;EQDQ01    003SCCGA1
0129825640999992007111714004-05533-047500FM-15+0131SBIZ V0200601N004112200019N0050001N1+03301+02301999999ADDGF100991999999999999999999MA1101081999999MW1041REMMET051METAR SBIZ 171400Z 06008KT 5000 FU SKC 33/23 Q1011;EQDQ01    003SCCGA1
0129825640999992007111715004-05533-047500FM-15+0131SBIZ V0200601N004112200019N0050001N1+03501+02201999999ADDGA1041+006001999GF104991999999999999999999MA1101021999999MW1041REMMET054METAR SBIZ 171500Z 06008KT 5000 FU SCT020 35/22 Q1010;
0120825640999992007111716004-05533-047500FM-15+0131SBIZ V0201201N005712200019N0080001N1+03601+02101999999ADDGA1041+006001999GF104991999999999999999999MA1100911999999REMMET051METAR SBIZ 171600Z 12011KT 8000 SCT020 36/21 Q1009;
0120825640999992007111717004-05533-047500FM-15+0131SBIZ V0201201N005112200019N0080001N1+03701+02101999999ADDGA1041+006001999GF104991999999999999999999MA1100711999999REMMET051METAR SBIZ 171700Z 12010KT 8000 SCT020 37/21 Q1007;
0120825640999992007111718004-05533-047500FM-15+0131SBIZ V0203001N005112200019N0080001N1+03701+02001999999ADDGA1021+006001999GF102991999999999999999999MA1100611999999REMMET051METAR SBIZ 171800Z 30010KT 8000 FEW020 37/20 Q1006;
0120825640999992007111719004-05533-047500FM-15+0131SBIZ V0200401N004112200019N0112651N1+03701+02001999999ADDGA1041+006001999GF104991999999999999999999MA1100611999999REMMET051METAR SBIZ 171900Z 04008KT 9999 SCT020 37/20 Q1006;
0120825640999992007111720004-05533-047500FM-15+0131SBIZ V0209999C000012200019N0112651N1+03601+02001999999ADDGA1021+006001999GF102991999999999999999999MA1100611999999REMMET051METAR SBIZ 172000Z 00000KT 9999 FEW020 36/20 Q1006;
0120825640999992007111721004-05533-047500FM-15+0131SBIZ V0202801N004112200019N0112651N1+03301+01901999999ADDGA1021+006001999GF102991999999999999999999MA1100611999999REMMET051METAR SBIZ 172100Z 28008KT 9999 FEW020 33/19 Q1006;
0120825640999992007111722004-05533-047500FM-15+0131SBIZ V0203001N002112200019N0060001N1+03101+02101999999ADDGF100991999999999999999999MA1100711999999REMMET048METAR SBIZ 172200Z 30004KT 6000 NSC 31/21 Q1007;EQDQ01    003SCCGA1
0120825640999992007111723004-05533-047500FM-15+0131SBIZ V0203301N001012200019N0060001N1+03101+02101999999ADDGF100991999999999999999999MA1100811999999REMMET048METAR SBIZ 172300Z 33002KT 6000 SKC 31/21 Q1008;EQDQ01    003SCCGA1
0120825640999992007111800004-05533-047500FM-15+0131SBIZ V0203501N004112200019N0060001N1+03101+02001999999ADDGA1021+004501999GF102991999999999999999999MA1100811999999REMMET051METAR SBIZ 180000Z 35008KT 6000 FEW015 31/20 Q1008;
0120825640999992007111801004-05533-047500FM-15+0131SBIZ V0209999C000012200019N0080001N1+02801+02201999999ADDGF100991999999999999999999MA1100911999999REMMET048METAR SBIZ 180100Z 00000KT 8000 SKC 28/22 Q1009;EQDQ01    003SCCGA1
0120825640999992007111802004-05533-047500FM-15+0131SBIZ V0203301N004112200019N0080001N1+02701+02001999999ADDGA1041+009001999GF104991999999999999999999MA1100911999999REMMET051METAR SBIZ 180200Z 33008KT 8000 SCT030 27/20 Q1009;
0129825640999992007111808004-05533-047500FM-15+0131SBIZ V0201301N001012200019N0050001N1+02501+02201999999ADDGA1041+004501999GF104991999999999999999999MA1101021999999MW1101REMMET054METAR SBIZ 180800Z 13002KT 5000 BR SCT015 25/22 Q1010;
0129825640999992007111809004-05533-047500FM-15+0131SBIZ V0203401N001012200019N0040001N1+02401+02201999999ADDGA1041+004501999GF104991999999999999999999MA1101021999999MW1101REMMET054METAR SBIZ 180900Z 34002KT 4000 BR SCT015 24/22 Q1010;
0129825640999992007111810004-05533-047500FM-15+0131SBIZ V0201401N001012200019N0050001N1+02401+02201999999ADDGF100991999999999999999999MA1101081999999MW1101REMMET051METAR SBIZ 181000Z 14002KT 5000 BR SKC 24/22 Q1011;EQDQ01    003SCCGA1
0129825640999992007111811004-05533-047500FM-15+0131SBIZ V0203501N001512200019N0050001N1+02801+02201999999ADDGF100991999999999999999999MA1101191999999MW1041REMMET051METAR SBIZ 181100Z 35003KT 5000 FU SKC 28/22 Q1012;EQDQ01    003SCCGA1
0129825640999992007111812004-05533-047500FM-15+0131SBIZ V0203501N001512200019N0050001N1+03001+02301999999ADDGF100991999999999999999999MA1101191999999MW1041REMMET051METAR SBIZ 181200Z 35003KT 5000 FU SKC 30/23 Q1012;EQDQ01    003SCCGA1
0120825640999992007111813004-05533-047500FM-15+0131SBIZ V0200601N005112200019N0080001N1+03201+02101999999ADDGF100991999999999999999999MA1101191999999REMMET048METAR SBIZ 181300Z 06010KT 8000 SKC 32/21 Q1012;EQDQ01    003SCCGA1
0120825640999992007111814004-05533-047500FM-15+0131SBIZ V0201501N002612200019N0080001N1+03401+02101999999ADDGA1021+006001999GF102991999999999999999999MA1101081999999REMMET051METAR SBIZ 181400Z 15005KT 8000 FEW020 34/21 Q1011;
0120825640999992007111815004-05533-047500FM-15+0131SBIZ V0201201N004110060019N0112651N1+03601+01801999999ADDGA1071+006001999GF107991999999999999999999MA1101021999999REMMET051METAR SBIZ 181500Z 12008KT 9999 BKN020 36/18 Q1010;
0120825640999992007111816004-05533-047500FM-15+0131SBIZ V0201801N004112200019N0112651N1+03601+01801999999ADDGA1041+006001999GF104991999999999999999999MA1100811999999REMMET051METAR SBIZ 181600Z 18008KT 9999 SCT020 36/18 Q1008;
0120825640999992007111817004-05533-047500FM-15+0131SBIZ V0200401N006212200019N0060001N1+03701+01701999999ADDGA1021+006001999GF102991999999999999999999MA1100711999999REMMET051METAR SBIZ 181700Z 04012KT 6000 FEW020 37/17 Q1007;
0129825640999992007111818004-05533-047500FM-15+0131SBIZ V0202101N003112200019N0050001N1+03701+01701999999ADDGA1021+006001999GF102991999999999999999999MA1100611999999MW1041REMMET054METAR SBIZ 181800Z 21006KT 5000 FU FEW020 37/17 Q1006;
0129825640999992007111819004-05533-047500FM-15+0131SBIZ V0202101N002112200019N0050001N1+03601+01801999999ADDGA1021+006001999GF102991999999999999999999MA1100611999999MW1041REMMET054METAR SBIZ 181900Z 21004KT 5000 FU FEW020 36/18 Q1006;
0129825640999992007111820004-05533-047500FM-15+0131SBIZ V0202501N005112200019N0050001N1+03501+01801999999ADDGA1021+006001999GF102991999999999999999999MA1100611999999MW1041REMMET054METAR SBIZ 182000Z 25010KT 5000 FU FEW020 35/18 Q1006;
0152825640999992007111821004-05533-047500FM-15+0131SBIZ V0202101N002112200019N0050001N1+03301+01901999999ADDGA1021+006001999GA2041+120001999GF104991999999999999999999MA1100611999999MW1041REMMET061METAR SBIZ 182100Z 21004KT 5000 FU FEW020 SCT400 33/19 Q1006;
0129825640999992007111822004-05533-047500FM-15+0131SBIZ V0209999C000012200019N0050001N1+03101+02101999999ADDGF100991999999999999999999MA1100711999999MW1041REMMET051METAR SBIZ 182200Z 00000KT 5000 FU NSC 31/21 Q1007;EQDQ01    003SCCGA1
0129825640999992007111823004-05533-047500FM-15+0131SBIZ V0209999C000012200019N0050001N1+03001+02001999999ADDGA1021+004501999GF102991999999999999999999MA1100811999999MW1041REMMET054METAR SBIZ 182300Z 00000KT 5000 FU FEW015 30/20 Q1008;
0129825640999992007111900004-05533-047500FM-15+0131SBIZ V0209999C000012200019N0050001N1+02801+02101999999ADDGF100991999999999999999999MA1100811999999MW1041REMMET051METAR SBIZ 190000Z 00000KT 5000 FU SKC 28/21 Q1008;EQDQ01    003SCCGA1
0129825640999992007111901004-05533-047500FM-15+0131SBIZ V0200101N002112200019N0050001N1+02701+02101999999ADDGA1041+004501999GF104991999999999999999999MA1100911999999MW1041REMMET054METAR SBIZ 190100Z 01004KT 5000 FU SCT015 27/21 Q1009;
0129825640999992007111902004-05533-047500FM-15+0131SBIZ V0200301N003612200019N0050001N1+02901+02001999999ADDGA1021+004501999GF102991999999999999999999MA1100911999999MW1041REMMET054METAR SBIZ 190200Z 03007KT 5000 FU FEW015 29/20 Q1009;
0129825640999992007111903004-05533-047500FM-15+0131SBIZ V0203601N002112200019N0050001N1+02801+01901999999ADDGA1021+004501999GF102991999999999999999999MA1100911999999MW1041REMMET054METAR SBIZ 190300Z 36004KT 5000 FU FEW015 28/19 Q1009;
0091825640999992007111907154-05533-047500FM-16+0131SBIZ V0200601N005112200019N9999999N1+02601+02001999999ADDMA1100901999999REMMET064METAR SBIZ 190715Z SPECI 06010KT 8000 FEW015 BKN020 26/20 Q1009;
0152825640999992007111908004-05533-047500FM-15+0131SBIZ V0200301N005110060019N0050001N1+02601+02101999999ADDGA1021+004501999GA2071+006001999GF107991999999999999999999MA1101021999999MW1041REMMET061METAR SBIZ 190800Z 03010KT 5000 FU FEW015 BKN020 26/21 Q1010;
0094825640999992007111908354-05533-047500FM-16+0131SBIZ V0203601N002612200019N9999999N1+02601+02201999999ADDMA1101101999999REMMET067METAR SBIZ 190835Z SPECI 36005KT 3000 FU FEW015 BKN020 26/22 Q1011;
0152825640999992007111913004-05533-047500FM-15+0131SBIZ V0200301N003110060019N0050001N1+03001+02101999999ADDGA1021+004501999GA2071+006001999GF107991999999999999999999MA1101291999999MW1041REMMET061METAR SBIZ 191300Z 03006KT 5000 FU FEW015 BKN020 30/21 Q1013;
0120825640999992007111914004-05533-047500FM-15+0131SBIZ V0200701N002110060019N0060001N1+03001+02101999999ADDGA1071+006001999GF107991999999999999999999MA1101291999999REMMET051METAR SBIZ 191400Z 07004KT 6000 BKN020 30/21 Q1013;
0120825640999992007111915004-05533-047500FM-15+0131SBIZ V0203601N005112200019N0080001N1+03201+02101999999ADDGA1041+006001999GF104991999999999999999999MA1101081999999REMMET051METAR SBIZ 191500Z 36010KT 8000 SCT020 32/21 Q1011;
0120825640999992007111916004-05533-047500FM-15+0131SBIZ V0200301N002612200019N0080001N1+03301+02101999999ADDGA1041+006001999GF104991999999999999999999MA1101021999999REMMET051METAR SBIZ 191600Z 03005KT 8000 SCT020 33/21 Q1010;
0120825640999992007111917004-05533-047500FM-15+0131SBIZ V0209999C000012200019N0080001N1+03301+02101999999ADDGA1041+006001999GF104991999999999999999999MA1100911999999REMMET051METAR SBIZ 191700Z 00000KT 8000 SCT020 33/21 Q1009;
0143825640999992007111918004-05533-047500FM-15+0131SBIZ V0202801N002111200019N0080001N1+03401+02001999999ADDGA1021+006001999GA2071+120001999GF107991999999999999999999MA1100811999999REMMET058METAR SBIZ 191800Z 28004KT 8000 FEW020 BKN400 34/20 Q1008;
0152825640999992007111919004-05533-047500FM-15+0131SBIZ V0203601N002611200019N0050001N1+03401+02101999999ADDGA1021+006001999GA2071+120001999GF107991999999999999999999MA1100711999999MW1041REMMET061METAR SBIZ 191900Z 36005KT 5000 FU FEW020 BKN400 34/21 Q1007;
0152825640999992007111920004-05533-047500FM-15+0131SBIZ V0203001N005112200019N0050001N1+03401+02101999999ADDGA1041+006001999GA2041+120001999GF104991999999999999999999MA1100711999999MW1041REMMET061METAR SBIZ 192000Z 30010KT 5000 FU SCT020 SCT400 34/21 Q1007;
0175825640999992007111921004-05533-047500FM-15+0131SBIZ V0202801N00511030001CN0050001N1+03201+02201999999ADDGA1021+006001999GA2041+030001999GA3071+120001999GF107991999999999999999999MA1100711999999MW1041REMMET068METAR SBIZ 192100Z 28010KT 5000 FU FEW020 SCT100 BKN400 32/22 Q1007;
0129825640999992007111922004-05533-047500FM-15+0131SBIZ V0203301N003112200019N0050001N1+03001+02001999999ADDGF100991999999999999999999MA1100811999999MW1041REMMET051METAR SBIZ 192200Z 33006KT 5000 FU NSC 30/20 Q1008;EQDQ01    003SCCGA1
0120825640999992007112000004-05533-047500FM-15+0131SBIZ V0209999C000012200019N0070001N1+02801+02301999999ADDGF100991999999999999999999MA1100811999999REMMET048METAR SBIZ 200000Z 00000KT 7000 SKC 28/23 Q1008;EQDQ01    003SCCGA1
0129825640999992007112001004-05533-047500FM-15+0131SBIZ V0209999C000012200019N0050001N1+02701+02201999999ADDGF100991999999999999999999MA1100911999999MW1041REMMET051METAR SBIZ 200100Z 00000KT 5000 FU SKC 27/22 Q1009;EQDQ01    003SCCGA1
0129825640999992007112002004-05533-047500FM-15+0131SBIZ V0209999C000012200019N0050001N1+02701+02201999999ADDGF100991999999999999999999MA1100811999999MW1041REMMET051METAR SBIZ 200200Z 00000KT 5000 FU SKC 27/22 Q1008;EQDQ01    003SCCGA1
0129825640999992007112003004-05533-047500FM-15+0131SBIZ V0203201N002612200019N0050001N1+02601+02301999999ADDGF100991999999999999999999MA1100811999999MW1101REMMET051METAR SBIZ 200300Z 32005KT 5000 BR SKC 26/23 Q1008;EQDQ01    003SCCGA1
0129825640999992007112008004-05533-047500FM-15+0131SBIZ V0209999C000012200019N0050001N1+02301+02201999999ADDGF100991999999999999999999MA1100911999999MW1101REMMET051METAR SBIZ 200800Z 00000KT 5000 BR SKC 23/22 Q1009;EQDQ01    003SCCGA1
0129825640999992007112009004-05533-047500FM-15+0131SBIZ V0201301N001510045019N0040001N1+02301+02201999999ADDGA1071+004501999GF107991999999999999999999MA1100911999999MW1101REMMET054METAR SBIZ 200900Z 13003KT 4000 BR BKN015 23/22 Q1009;
0129825640999992007112010004-05533-047500FM-15+0131SBIZ V0209999C000010045019N0040001N1+02401+02201999999ADDGA1071+004501999GF107991999999999999999999MA1101021999999MW1101REMMET054METAR SBIZ 201000Z 00000KT 4000 BR BKN015 24/22 Q1010;
0145825640999992007112011004-05533-047500FM-15+0131SBIZ V0201201N00151220001CN0050001N1+02601+02301999999ADDGA1071+004501999GA2041+006001999MA1101081999999MW1101REMMET061METAR SBIZ 201100Z 12003KT 5000 BR BKN015 SCT020 26/23 Q1011;EQDQ01+000042SCOTCV
0152825640999992007112012004-05533-047500FM-15+0131SBIZ V0201001N002612200019N0050001N1+02801+02201999999ADDGA1041+004501999GA2041+006001999GF104991999999999999999999MA1101191999999MW1041REMMET061METAR SBIZ 201200Z 10005KT 5000 FU SCT015 SCT020 28/22 Q1012;
0152825640999992007112013004-05533-047500FM-15+0131SBIZ V0200801N005110060019N0050001N1+03001+02201999999ADDGA1041+004501999GA2071+006001999GF107991999999999999999999MA1101191999999MW1041REMMET061METAR SBIZ 201300Z 08010KT 5000 FU SCT015 BKN020 30/22 Q1012;
0152825640999992007112014004-05533-047500FM-15+0131SBIZ V0200301N005112200019N0050001N1+03101+02101999999ADDGA1021+004501999GA2041+006001999GF104991999999999999999999MA1101191999999MW1041REMMET061METAR SBIZ 201400Z 03010KT 5000 FU FEW015 SCT020 31/21 Q1012;
0152825640999992007112015004-05533-047500FM-15+0131SBIZ V0201501N002610060019N0050001N1+03201+02201999999ADDGA1021+004501999GA2071+006001999GF107991999999999999999999MA1101081999999MW1041REMMET061METAR SBIZ 201500Z 15005KT 5000 FU FEW015 BKN020 32/22 Q1011;
0143825640999992007112016004-05533-047500FM-15+0131SBIZ V0200801N003610060019N0070001N1+03301+02201999999ADDGA1021+004501999GA2071+006001999GF107991999999999999999999MA1101021999999REMMET058METAR SBIZ 201600Z 08007KT 7000 FEW015 BKN020 33/22 Q1010;
0120825640999992007112017004-05533-047500FM-15+0131SBIZ V0200701N003110060019N0080001N1+03401+02101999999ADDGA1071+006001999GF107991999999999999999999MA1100911999999REMMET051METAR SBIZ 201700Z 07006KT 8000 BKN020 34/21 Q1009;
0120825640999992007112018004-05533-047500FM-15+0131SBIZ V0201501N005110060019N0080001N1+03501+02101999999ADDGA1071+006001999GF107991999999999999999999MA1100811999999REMMET051METAR SBIZ 201800Z 15010KT 8000 BKN020 35/21 Q1008;
0120825640999992007112019004-05533-047500FM-15+0131SBIZ V0201201N002612200019N0080001N1+03401+02101999999ADDGA1041+006001999GF104991999999999999999999MA1100711999999REMMET051METAR SBIZ 201900Z 12005KT 8000 SCT020 34/21 Q1007;
0120825640999992007112020004-05533-047500FM-15+0131SBIZ V0203601N002612200019N0080001N1+03401+02101999999ADDGF100991999999999999999999MA1100711999999REMMET048METAR SBIZ 202000Z 36005KT 8000 SKC 34/21 Q1007;EQDQ01    003SCCGA1
0120825640999992007112021004-05533-047500FM-15+0131SBIZ V0209999C000012200019N0060001N1+03201+02101999999ADDGF100991999999999999999999MA1100811999999REMMET048METAR SBIZ 202100Z 00000KT 6000 SKC 32/21 Q1008;EQDQ01    003SCCGA1
0120825640999992007112022004-05533-047500FM-15+0131SBIZ V0202901N001012200019N0060001N1+03001+02201999999ADDGF100991999999999999999999MA1100811999999REMMET048METAR SBIZ 202200Z 29002KT 6000 SKC 30/22 Q1008;EQDQ01    003SCCGA1
0120825640999992007112023004-05533-047500FM-15+0131SBIZ V0209999C000012200019N0060001N1+02901+02201999999ADDGF100991999999999999999999MA1100911999999REMMET048METAR SBIZ 202300Z 00000KT 6000 SKC 29/22 Q1009;EQDQ01    003SCCGA1
0120825640999992007112100004-05533-047500FM-15+0131SBIZ V0202701N001512200019N0070001N1+02801+02201999999ADDGF100991999999999999999999MA1100911999999REMMET048METAR SBIZ 210000Z 27003KT 7000 SKC 28/22 Q1009;EQDQ01    003SCCGA1
0120825640999992007112101004-05533-047500FM-15+0131SBIZ V0200701N001012200019N0070001N1+02701+02201999999ADDGF100991999999999999999999MA1100911999999REMMET048METAR SBIZ 210100Z 07002KT 7000 SKC 27/22 Q1009;EQDQ01    003SCCGA1
0120825640999992007112102004-05533-047500FM-15+0131SBIZ V0201001N001512200019N0070001N1+02601+02201999999ADDGF100991999999999999999999MA1101021999999REMMET048METAR SBIZ 210200Z 10003KT 7000 SKC 26/22 Q1010;EQDQ01    003SCCGA1
0129825640999992007112103004-05533-047500FM-15+0131SBIZ V0201101N001012200019N0050001N1+02501+02201999999ADDGF100991999999999999999999MA1100911999999MW1101REMMET051METAR SBIZ 210300Z 11002KT 5000 BR SKC 25/22 Q1009;EQDQ01    003SCCGA1
0129825640999992007112108004-05533-047500FM-15+0131SBIZ V0200301N003612200019N0050001N1+02601+02101999999ADDGA1041+009001999GF104991999999999999999999MA1101021999999MW1041REMMET054METAR SBIZ 210800Z 03007KT 5000 FU SCT030 26/21 Q1010;
0129825640999992007112109004-05533-047500FM-15+0131SBIZ V0200901N002112200019N0035001N1+02501+02201999999ADDGA1041+003001999GF104991999999999999999999MA1101081999999MW1101REMMET054METAR SBIZ 210900Z 09004KT 3500 BR SCT010 25/22 Q1011;
0129825640999992007112110004-05533-047500FM-15+0131SBIZ V0201101N002112200019N0040001N1+02501+02201999999ADDGA1041+003001999GF104991999999999999999999MA1101191999999MW1101REMMET054METAR SBIZ 211000Z 11004KT 4000 BR SCT010 25/22 Q1012;
0129825640999992007112111004-05533-047500FM-15+0131SBIZ V0200901N004112200019N0050001N1+02701+02201999999ADDGA1041+004501999GF104991999999999999999999MA1101291999999MW1041REMMET054METAR SBIZ 211100Z 09008KT 5000 FU SCT015 27/22 Q1013;
0143825640999992007112112004-05533-047500FM-15+0131SBIZ V0200701N005712200019N0112651N1+02901+02101999999ADDGA1041+004501999GA2041+006001999GF104991999999999999999999MA1101291999999REMMET058METAR SBIZ 211200Z 07011KT 9999 SCT015 SCT020 29/21 Q1013;
0120825640999992007112113004-05533-047500FM-15+0131SBIZ V0200601N007710060019N0112651N1+03101+02201999999ADDGA1071+006001999GF107991999999999999999999MA1101291999999REMMET051METAR SBIZ 211300Z 06015KT 9999 BKN020 31/22 Q1013;
0120825640999992007112114004-05533-047500FM-15+0131SBIZ V0200701N006210060019N0112651N1+03201+02201999999ADDGA1071+006001999GF107991999999999999999999MA1101291999999REMMET051METAR SBIZ 211400Z 07012KT 9999 BKN020 32/22 Q1013;
0120825640999992007112115004-05533-047500FM-15+0131SBIZ V0201201N005110060019N0112651N1+03401+02201999999ADDGA1071+006001999GF107991999999999999999999MA1101191999999REMMET051METAR SBIZ 211500Z 12010KT 9999 BKN020 34/22 Q1012;
0120825640999992007112116004-05533-047500FM-15+0131SBIZ V0203501N001510060019N0080001N1+03501+02301999999ADDGA1071+006001999GF107991999999999999999999MA1101081999999REMMET051METAR SBIZ 211600Z 35003KT 8000 BKN020 35/23 Q1011;
0120825640999992007112117004-05533-047500FM-15+0131SBIZ V0202901N001510060019N0080001N1+03601+02201999999ADDGA1071+006001999GF107991999999999999999999MA1101021999999REMMET051METAR SBIZ 211700Z 29003KT 8000 BKN020 36/22 Q1010;
0120825640999992007112118004-05533-047500FM-15+0131SBIZ V0201501N003610060019N0080001N1+03401+02201999999ADDGA1071+006001999GF107991999999999999999999MA1100911999999REMMET051METAR SBIZ 211800Z 15007KT 8000 BKN020 34/22 Q1009;
0120825640999992007112119004-05533-047500FM-15+0131SBIZ V0203601N008710060019N0090001N1+03501+02301999999ADDGA1071+006001999GF107991999999999999999999MA1100811999999REMMET051METAR SBIZ 211900Z 36017KT 9000 BKN020 35/23 Q1008;
0120825640999992007112120004-05533-047500FM-15+0131SBIZ V0202801N002610060019N0090001N1+03401+02201999999ADDGA1071+006001999GF107991999999999999999999MA1100811999999REMMET051METAR SBIZ 212000Z 28005KT 9000 BKN020 34/22 Q1008;
0120825640999992007112121004-05533-047500FM-15+0131SBIZ V0202701N005112200019N0112651N1+03301+02201999999ADDGA1021+006001999GF102991999999999999999999MA1100811999999REMMET051METAR SBIZ 212100Z 27010KT 9999 FEW020 33/22 Q1008;
0072825640999992007112123004-05533-047500FM-15+0131SBIZ V0203001N00261220001CN0099001N1+03001+02301999999ADDMA1101021999999REMMET045METAR SBIZ 212300Z 30005KT CAVOK 30/23 Q1010;
0072825640999992007112200004-05533-047500FM-15+0131SBIZ V0209999C00001220001CN0099001N1+02901+02301999999ADDMA1101021999999REMMET045METAR SBIZ 220000Z 00000KT CAVOK 29/23 Q1010;
0072825640999992007112201004-05533-047500FM-15+0131SBIZ V0203301N00151220001CN0099001N1+02801+02301999999ADDMA1101081999999REMMET045METAR SBIZ 220100Z 33003KT CAVOK 28/23 Q1011;
0143825640999992007112202004-05533-047500FM-15+0131SBIZ V0203301N001012200019N0112651N1+02901+02301999999ADDGA1021+009001999GA2041+030001999GF104991999999999999999999MA1101081999999REMMET058METAR SBIZ 220200Z 33002KT 9999 FEW030 SCT100 29/23 Q1011;
0087825640999992007112207154-05533-047500FM-16+0131SBIZ V0200601N006212200019N9999999N1+02801+02201999999ADDMA1101001999999REMMET060METAR SBIZ 220715Z SPECI 06012KT 5000 FU BKN015 28/22 Q1010;
0129825640999992007112208004-05533-047500FM-15+0131SBIZ V0200101N007710060019N0050001N1+02701+02101999999ADDGA1071+006001999GF107991999999999999999999MA1101021999999MW1041REMMET054METAR SBIZ 220800Z 01015KT 5000 FU BKN020 27/21 Q1010;
0143825640999992007112209004-05533-047500FM-15+0131SBIZ V0200601N006210045019N0080001N1+02701+02101999999ADDGA1071+004501999GA2071+006001999GF107991999999999999999999MA1101081999999REMMET058METAR SBIZ 220900Z 06012KT 8000 BKN015 BKN020 27/21 Q1011;
0143825640999992007112210004-05533-047500FM-15+0131SBIZ V0200501N005110060019N0080001N1+02701+02101999999ADDGA1041+004501999GA2071+006001999GF107991999999999999999999MA1101191999999REMMET058METAR SBIZ 221000Z 05010KT 8000 SCT015 BKN020 27/21 Q1012;
0120825640999992007112211004-05533-047500FM-15+0131SBIZ V0200601N006212200019N0112651N1+02801+02201999999ADDGA1021+006001999GF102991999999999999999999MA1101191999999REMMET051METAR SBIZ 221100Z 06012KT 9999 FEW020 28/22 Q1012;
0120825640999992007112212004-05533-047500FM-15+0131SBIZ V0200701N010310060019N0112651N1+03101+02201999999ADDGA1071+006001999GF107991999999999999999999MA1101291999999REMMET051METAR SBIZ 221200Z 07020KT 9999 BKN020 31/22 Q1013;
0120825640999992007112213004-05533-047500FM-15+0131SBIZ V0200601N007710060019N0112651N1+03101+02301999999ADDGA1081+006001999GF108991999999999999999999MA1101291999999REMMET051METAR SBIZ 221300Z 06015KT 9999 OVC020 31/23 Q1013;
0120825640999992007112214004-05533-047500FM-15+0131SBIZ V0200701N004610060019N0112651N1+03201+02401999999ADDGA1081+006001999GF108991999999999999999999MA1101291999999REMMET051METAR SBIZ 221400Z 07009KT 9999 OVC020 32/24 Q1013;
0120825640999992007112215004-05533-047500FM-15+0131SBIZ V0201001N005110060019N0112651N1+03201+02201999999ADDGA1071+006001999GF107991999999999999999999MA1101191999999REMMET051METAR SBIZ 221500Z 10010KT 9999 BKN020 32/22 Q1012;
0120825640999992007112216004-05533-047500FM-15+0131SBIZ V0200601N002610060019N0112651N1+03201+02301999999ADDGA1071+006001999GF107991999999999999999999MA1101081999999REMMET051METAR SBIZ 221600Z 06005KT 9999 BKN020 32/23 Q1011;
0120825640999992007112217004-05533-047500FM-15+0131SBIZ V0203601N002112200019N0112651N1+03301+02201999999ADDGA1041+006001999GF104991999999999999999999MA1100911999999REMMET051METAR SBIZ 221700Z 36004KT 9999 SCT020 33/22 Q1009;
0120825640999992007112218004-05533-047500FM-15+0131SBIZ V0203001N001510060019N0112651N1+03401+02301999999ADDGA1071+006001999GF107991999999999999999999MA1100811999999REMMET051METAR SBIZ 221800Z 30003KT 9999 BKN020 34/23 Q1008;
0147825640999992007112219004-05533-047500FM-15+0131SBIZ V0200601N01031220001CN0112651N1+03201+02301999999ADDGA1071+006001999GA2021+007501091MA1100811999999MW1171REMMET063METAR SBIZ 221900Z 06020KT 9999 TS BKN020 FEW025CB 32/23 Q1008;EQDQ01+000022SCOTCV
0128825640999992007112220004-05533-047500FM-15+0131SBIZ V0203301N00511220001CN0112651N1+03101+02301999999ADDGA1071+006001999GA2021+007501091MA1100811999999MW1171REMMET063METAR SBIZ 222000Z 33010KT 9999 TS BKN020 FEW025CB 31/23 Q1008;
0148825640999992007112221004-05533-047500FM-15+0131SBIZ V0201801N001010060019N0080001N1+02901+02301999999ADDGA1041+004501999GA2071+006001999GF107991999999999999999999MA1100811999999REMMET063METAR SBIZ 222100Z 18002KT 8000 SCT015 BKN020 29/23 Q1008 RETS;
0120825640999992007112222004-05533-047500FM-15+0131SBIZ V0202501N001012200019N0080001N1+02801+02301999999ADDGA1041+006001999GF104991999999999999999999MA1100911999999REMMET051METAR SBIZ 222200Z 25002KT 8000 SCT020 28/23 Q1009;
0120825640999992007112223004-05533-047500FM-15+0131SBIZ V0209999C000012200019N0080001N1+02701+02301999999ADDGA1021+006001999GF102991999999999999999999MA1101021999999REMMET051METAR SBIZ 222300Z 00000KT 8000 FEW020 27/23 Q1010;
0120825640999992007112300004-05533-047500FM-15+0131SBIZ V0203601N004112200019N0080001N1+02601+02401999999ADDGF100991999999999999999999MA1101021999999REMMET048METAR SBIZ 230000Z 36008KT 8000 SKC 26/24 Q1010;EQDQ01    003SCCGA1
0120825640999992007112301004-05533-047500FM-15+0131SBIZ V0203501N004112200019N0080001N1+02701+02301999999ADDGF100991999999999999999999MA1101081999999REMMET048METAR SBIZ 230100Z 35008KT 8000 SKC 27/23 Q1011;EQDQ01    003SCCGA1
0120825640999992007112302004-05533-047500FM-15+0131SBIZ V0203001N002112200019N0080001N1+02601+02301999999ADDGF100991999999999999999999MA1101081999999REMMET048METAR SBIZ 230200Z 30004KT 8000 SKC 26/23 Q1011;EQDQ01    003SCCGA1
0120825640999992007112308004-05533-047500FM-15+0131SBIZ V0203501N001510060019N0060001N1+02601+02301999999ADDGA1071+006001999GF107991999999999999999999MA1101081999999REMMET051METAR SBIZ 230800Z 35003KT 6000 BKN020 26/23 Q1011;
0120825640999992007112309004-05533-047500FM-15+0131SBIZ V0200301N002612200019N0070001N1+02501+02401999999ADDGA1041+006001999GF104991999999999999999999MA1101081999999REMMET051METAR SBIZ 230900Z 03005KT 7000 SCT020 25/24 Q1011;
0120825640999992007112310004-05533-047500FM-15+0131SBIZ V0200201N004112200019N0070001N1+02601+02301999999ADDGA1041+006001999GF104991999999999999999999MA1101191999999REMMET051METAR SBIZ 231000Z 02008KT 7000 SCT020 26/23 Q1012;
0120825640999992007112311004-05533-047500FM-15+0131SBIZ V0200501N004110060019N0080001N1+02701+02301999999ADDGA1071+006001999GF107991999999999999999999MA1101291999999REMMET051METAR SBIZ 231100Z 05008KT 8000 BKN020 27/23 Q1013;
0120825640999992007112313004-05533-047500FM-15+0131SBIZ V0200601N006212200019N0112651N1+03001+02201999999ADDGA1041+006001999GF104991999999999999999999MA1101291999999REMMET051METAR SBIZ 231300Z 06012KT 9999 SCT020 30/22 Q1013;
0120825640999992007112314004-05533-047500FM-15+0131SBIZ V0200901N005112200019N0112651N1+03201+02101999999ADDGA1041+006001999GF104991999999999999999999MA1101191999999REMMET051METAR SBIZ 231400Z 09010KT 9999 SCT020 32/21 Q1012;
0143825640999992007112315004-05533-047500FM-15+0131SBIZ V0200301N005110090019N0112651N1+03201+02101999999ADDGA1041+006001999GA2071+009001999GF107991999999999999999999MA1101191999999REMMET058METAR SBIZ 231500Z 03010KT 9999 SCT020 BKN030 32/21 Q1012;
0166825640999992007112316004-05533-047500FM-15+0131SBIZ V0200301N005110060019N0112651N1+03201+02101999999ADDGA1041+004501999GA2071+006001999GA3071+009001999GF107991999999999999999999MA1101081999999REMMET065METAR SBIZ 231600Z 03010KT 9999 SCT015 BKN020 BKN030 32/21 Q1011;
0166825640999992007112317004-05533-047500FM-15+0131SBIZ V0200301N00511009001CN0112651N1+03201+02101999999ADDGA1021+006001999GA2041+009001999GA3071+090001999GF107991999999999999999999MA1101021999999REMMET065METAR SBIZ 231700Z 03010KT 9999 FEW020 SCT030 BKN300 32/21 Q1010;
0143825640999992007112318004-05533-047500FM-15+0131SBIZ V0203301N004110900019N0112651N1+03301+02101999999ADDGA1041+006001999GA2071+090001999GF107991999999999999999999MA1100911999999REMMET058METAR SBIZ 231800Z 33008KT 9999 SCT020 BKN300 33/21 Q1009;
0143825640999992007112319004-05533-047500FM-15+0131SBIZ V0203301N004110900019N0112651N1+03101+02101999999ADDGA1041+006001999GA2071+090001999GF107991999999999999999999MA1100911999999REMMET058METAR SBIZ 231900Z 33008KT 9999 SCT020 BKN300 31/21 Q1009;
0143825640999992007112320004-05533-047500FM-15+0131SBIZ V0203301N005110900019N0112651N1+03201+02101999999ADDGA1021+006001999GA2071+090001999GF107991999999999999999999MA1100811999999REMMET058METAR SBIZ 232000Z 33010KT 9999 FEW020 BKN300 32/21 Q1008;
0072825640999992007112322004-05533-047500FM-15+0131SBIZ V0203401N00211220001CN0099001N1+03001+02101999999ADDMA1100911999999REMMET045METAR SBIZ 232200Z 34004KT CAVOK 30/21 Q1009;
0072825640999992007112323004-05533-047500FM-15+0131SBIZ V0202901N00261220001CN0099001N1+02801+02201999999ADDMA1101021999999REMMET045METAR SBIZ 232300Z 29005KT CAVOK 28/22 Q1010;
0072825640999992007112400004-05533-047500FM-15+0131SBIZ V0203101N00101220001CN0099001N1+02801+02201999999ADDMA1101021999999REMMET045METAR SBIZ 240000Z 31002KT CAVOK 28/22 Q1010;
0143825640999992007112401004-05533-047500FM-15+0131SBIZ V0209999C000012200019N0112651N1+02601+02201999999ADDGA1041+004501999GA2041+090001999GF104991999999999999999999MA1101081999999REMMET058METAR SBIZ 240100Z 00000KT 9999 SCT015 SCT300 26/22 Q1011;
0143825640999992007112402004-05533-047500FM-15+0131SBIZ V0209999C000012200019N0112651N1+02601+02201999999ADDGA1021+004501999GA2041+030001999GF104991999999999999999999MA1101081999999REMMET058METAR SBIZ 240200Z 00000KT 9999 FEW015 SCT100 26/22 Q1011;
0120825640999992007112408004-05533-047500FM-15+0131SBIZ V0201301N001012200019N0080001N1+02401+02201999999ADDGF100991999999999999999999MA1101021999999REMMET048METAR SBIZ 240800Z 13002KT 8000 SKC 24/22 Q1010;EQDQ01    003SCCGA1
0143825640999992007112409004-05533-047500FM-15+0131SBIZ V0201201N001012200019N0080001N1+02301+02201999999ADDGA1021+004501999GA2041+009001999GF104991999999999999999999MA1101081999999REMMET058METAR SBIZ 240900Z 12002KT 8000 FEW015 SCT030 23/22 Q1011;
0143825640999992007112410004-05533-047500FM-15+0131SBIZ V0200901N001012200019N0080001N1+02401+02301999999ADDGA1041+004501999GA2041+006001999GF104991999999999999999999MA1101191999999REMMET058METAR SBIZ 241000Z 09002KT 8000 SCT015 SCT020 24/23 Q1012;
0120825640999992007112411004-05533-047500FM-15+0131SBIZ V0201501N002112200019N0080001N1+02601+02301999999ADDGA1021+006001999GF102991999999999999999999MA1101191999999REMMET051METAR SBIZ 241100Z 15004KT 8000 FEW020 26/23 Q1012;
0143825640999992007112412004-05533-047500FM-15+0131SBIZ V0200901N005110090019N0112651N1+02801+02201999999ADDGA1021+006001999GA2071+009001999GF107991999999999999999999MA1101191999999REMMET058METAR SBIZ 241200Z 09010KT 9999 FEW020 BKN030 28/22 Q1012;
0143825640999992007112413004-05533-047500FM-15+0131SBIZ V0200301N002110060019N0112651N1+03001+02201999999ADDGA1071+006001999GA2071+009001999GF107991999999999999999999MA1101191999999REMMET058METAR SBIZ 241300Z 03004KT 9999 BKN020 BKN030 30/22 Q1012;
0143825640999992007112414004-05533-047500FM-15+0131SBIZ V0201201N005110060019N0112651N1+03201+02201999999ADDGA1021+004501999GA2071+006001999GF107991999999999999999999MA1101191999999REMMET058METAR SBIZ 241400Z 12010KT 9999 FEW015 BKN020 32/22 Q1012;
0143825640999992007112415004-05533-047500FM-15+0131SBIZ V0203501N001010060019N0112651N1+03401+02201999999ADDGA1021+004501999GA2071+006001999GF107991999999999999999999MA1101021999999REMMET058METAR SBIZ 241500Z 35002KT 9999 FEW015 BKN020 34/22 Q1010;
0120825640999992007112416004-05533-047500FM-15+0131SBIZ V0201501N002610060019N0112651N1+03401+02201999999ADDGA1071+006001999GF107991999999999999999999MA1100911999999REMMET051METAR SBIZ 241600Z 15005KT 9999 BKN020 34/22 Q1009;
0130825640999992007112417004-05533-047500FM-15+0131SBIZ V0201801N002610060019N0112651N1+03201+02401999999ADDGA1071+006001999GF107991999999999999999999MA1100811999999MW1611REMMET055METAR SBIZ 241700Z 18005KT 9999 -RA BKN020 32/24 Q1008;
0120825640999992007112418004-05533-047500FM-15+0131SBIZ V0209999C000012200019N0112651N1+03401+02101999999ADDGA1041+006001999GF104991999999999999999999MA1100711999999REMMET051METAR SBIZ 241800Z 00000KT 9999 SCT020 34/21 Q1007;
0143825640999992007112419004-05533-047500FM-15+0131SBIZ V0201201N002112200019N0112651N1+03401+02201999999ADDGA1021+004501999GA2041+006001999GF104991999999999999999999MA1100711999999REMMET058METAR SBIZ 241900Z 12004KT 9999 FEW015 SCT020 34/22 Q1007;
0143825640999992007112420004-05533-047500FM-15+0131SBIZ V0200301N004112200019N0112651N1+03201+02201999999ADDGA1041+004501999GA2041+006001999GF104991999999999999999999MA1100711999999REMMET058METAR SBIZ 242000Z 03008KT 9999 SCT015 SCT020 32/22 Q1007;
0143825640999992007112421004-05533-047500FM-15+0131SBIZ V0200301N002611200019N0080001N1+03101+02201999999ADDGA1021+004501999GA2071+120001999GF107991999999999999999999MA1100711999999REMMET058METAR SBIZ 242100Z 03005KT 8000 FEW015 BKN400 31/22 Q1007;
0120825640999992007112422004-05533-047500FM-15+0131SBIZ V0201501N001512200019N0060001N1+02901+02401999999ADDGF100991999999999999999999MA1100711999999REMMET048METAR SBIZ 242200Z 15003KT 6000 NSC 29/24 Q1007;EQDQ01    003SCCGA1
0120825640999992007112423004-05533-047500FM-15+0131SBIZ V0209999C000012200019N0060001N1+02801+02401999999ADDGF100991999999999999999999MA1100811999999REMMET048METAR SBIZ 242300Z 00000KT 6000 NSC 28/24 Q1008;EQDQ01    003SCCGA1
0120825640999992007112500004-05533-047500FM-15+0131SBIZ V0209999C000012200019N0080001N1+02701+02401999999ADDGF100991999999999999999999MA1100811999999REMMET048METAR SBIZ 250000Z 00000KT 8000 SKC 27/24 Q1008;EQDQ01    003SCCGA1
0072825640999992007112501004-05533-047500FM-15+0131SBIZ V0209999C00001220001CN0099001N1+02601+02401999999ADDMA1100911999999REMMET045METAR SBIZ 250100Z 00000KT CAVOK 26/24 Q1009;
0072825640999992007112502004-05533-047500FM-15+0131SBIZ V0209999C00001220001CN0099001N1+02601+02301999999ADDMA1100911999999REMMET045METAR SBIZ 250200Z 00000KT CAVOK 26/23 Q1009;
0081825640999992007112507154-05533-047500FM-16+0131SBIZ V0201301N001012200019N9999999N1+02401+02301999999ADDMA1100901999999REMMET054METAR SBIZ 250715Z SPECI 13002KT 7000 SKC 24/23 Q1009;
0120825640999992007112508004-05533-047500FM-15+0131SBIZ V0201101N001012200019N0070001N1+02401+02301999999ADDGF100991999999999999999999MA1101021999999REMMET048METAR SBIZ 250800Z 11002KT 7000 SKC 24/23 Q1010;EQDQ01    003SCCGA1
0129825640999992007112509004-05533-047500FM-15+0131SBIZ V0200701N002612200019N0050001N1+02401+02201999999ADDGA1041+004501999GF104991999999999999999999MA1101021999999MW1101REMMET054METAR SBIZ 250900Z 07005KT 5000 BR SCT015 24/22 Q1010;
0120825640999992007112510004-05533-047500FM-15+0131SBIZ V0209999C000012200019N0080001N1+02501+02201999999ADDGA1041+004501999GF104991999999999999999999MA1101081999999REMMET051METAR SBIZ 251000Z 00000KT 8000 SCT015 25/22 Q1011;
0143825640999992007112511004-05533-047500FM-15+0131SBIZ V0200701N004112200019N0112651N1+02701+02201999999ADDGA1021+004501999GA2041+030001999GF104991999999999999999999MA1101081999999REMMET058METAR SBIZ 251100Z 07008KT 9999 FEW015 SCT100 27/22 Q1011;
0143825640999992007112512004-05533-047500FM-15+0131SBIZ V0200601N005112200019N0112651N1+02901+02301999999ADDGA1021+004501999GA2041+006001999GF104991999999999999999999MA1101191999999REMMET058METAR SBIZ 251200Z 06010KT 9999 FEW015 SCT020 29/23 Q1012;
0143825640999992007112513004-05533-047500FM-15+0131SBIZ V0200901N005112200019N0112651N1+03101+02301999999ADDGA1021+004501999GA2041+006001999GF104991999999999999999999MA1101191999999REMMET058METAR SBIZ 251300Z 09010KT 9999 FEW015 SCT020 31/23 Q1012;
0143825640999992007112514004-05533-047500FM-15+0131SBIZ V0200601N003112200019N0112651N1+03201+02301999999ADDGA1021+004501999GA2041+006001999GF104991999999999999999999MA1101081999999REMMET058METAR SBIZ 251400Z 06006KT 9999 FEW015 SCT020 32/23 Q1011;
0120825640999992007112515004-05533-047500FM-15+0131SBIZ V0200601N004110060019N0112651N1+03401+02301999999ADDGA1071+006001999GF107991999999999999999999MA1101021999999REMMET051METAR SBIZ 251500Z 06008KT 9999 BKN020 34/23 Q1010;
0143825640999992007112516004-05533-047500FM-15+0131SBIZ V0201501N005110060019N0112651N1+03301+02301999999ADDGA1021+004501999GA2071+006001999GF107991999999999999999999MA1100911999999REMMET058METAR SBIZ 251600Z 15010KT 9999 FEW015 BKN020 33/23 Q1009;
0120825640999992007112517004-05533-047500FM-15+0131SBIZ V0203001N003110060019N0112651N1+03401+01701999999ADDGA1071+006001999GF107991999999999999999999MA1100811999999REMMET051METAR SBIZ 251700Z 30006KT 9999 BKN020 34/17 Q1008;
0120825640999992007112518004-05533-047500FM-15+0131SBIZ V0200701N003112200019N0112651N1+03601+02201999999ADDGA1041+006001999GF104991999999999999999999MA1100711999999REMMET051METAR SBIZ 251800Z 07006KT 9999 SCT020 36/22 Q1007;
0120825640999992007112519004-05533-047500FM-15+0131SBIZ V0200301N002612200019N0112651N1+03501+02201999999ADDGA1041+006001999GF104991999999999999999999MA1100611999999REMMET051METAR SBIZ 251900Z 03005KT 9999 SCT020 35/22 Q1006;
0143825640999992007112520004-05533-047500FM-15+0131SBIZ V0202801N002612200019N0112651N1+03401+02101999999ADDGA1021+006001999GA2041+120001999GF104991999999999999999999MA1100611999999REMMET058METAR SBIZ 252000Z 28005KT 9999 FEW020 SCT400 34/21 Q1006;
0143825640999992007112521004-05533-047500FM-15+0131SBIZ V0202301N002111200019N0112651N1+03301+02201999999ADDGA1021+006001999GA2071+120001999GF107991999999999999999999MA1100611999999REMMET058METAR SBIZ 252100Z 23004KT 9999 FEW020 BKN400 33/22 Q1006;
0143825640999992007112522004-05533-047500FM-15+0131SBIZ V0202301N002611200019N0112651N1+03101+02201999999ADDGA1021+006001999GA2071+120001999GF107991999999999999999999MA1100711999999REMMET058METAR SBIZ 252200Z 23005KT 9999 FEW020 BKN400 31/22 Q1007;
0143825640999992007112523004-05533-047500FM-15+0131SBIZ V0202001N003610060019N0112651N1+02901+02201999999ADDGA1071+006001999GA2071+120001999GF107991999999999999999999MA1100811999999REMMET058METAR SBIZ 252300Z 20007KT 9999 BKN020 BKN400 29/22 Q1008;
0143825640999992007112600004-05533-047500FM-15+0131SBIZ V0201801N002610060019N0112651N1+02801+02301999999ADDGA1071+006001999GA2071+120001999GF107991999999999999999999MA1101021999999REMMET058METAR SBIZ 260000Z 18005KT 9999 BKN020 BKN400 28/23 Q1010;
0143825640999992007112601004-05533-047500FM-15+0131SBIZ V0202301N002611200019N0112651N1+02801+02301999999ADDGA1041+006001999GA2071+120001999GF107991999999999999999999MA1101021999999REMMET058METAR SBIZ 260100Z 23005KT 9999 SCT020 BKN400 28/23 Q1010;
0143825640999992007112602004-05533-047500FM-15+0131SBIZ V0201801N002610060019N0112651N1+02801+02301999999ADDGA1071+006001999GA2071+120001999GF107991999999999999999999MA1101081999999REMMET058METAR SBIZ 260200Z 18005KT 9999 BKN020 BKN400 28/23 Q1011;
0139825640999992007112608004-05533-047500FM-15+0131SBIZ V0200901N002610060019N0050001N1+02601+02301999999ADDGA1071+006001999GF107991999999999999999999MA1100911999999MW1101MW2611REMMET058METAR SBIZ 260800Z 09005KT 5000 -RA BR BKN020 26/23 Q1009;
0218825640999992007112609004-05533-047500FM-15+0131SBIZ V0201001N005110030019N0025001N1+02501+02401999999ADDGA1071+003001999GA2071+006001999GA3021+007501091GA4081+021001999GF108991999999999999999999MA1101021999999MW1101MW2801MW3951REMMET083METAR SBIZ 260900Z 10010KT 2500 -TSRA BR BKN010 BKN020 FEW025CB OVC070 25/24 Q1010;
0181825640999992007112610004-05533-047500FM-15+0131SBIZ V0200901N00621006001CN0080001N1+02301+02201999999ADDGA1041+003001999GA2041+006001999GA3081+021001999GF108991999999999999999999MA1101021999999MW1611REMMET074METAR SBIZ 261000Z 09012KT 8000 -RA SCT010 SCT020 OVC070 23/22 Q1010 RETS;
0153825640999992007112611004-05533-047500FM-15+0131SBIZ V0209999C000010210019N0112651N1+02301+02301999999ADDGA1041+004501999GA2071+021001999GF107991999999999999999999MA1101191999999MW1611REMMET062METAR SBIZ 261100Z 00000KT 9999 -RA SCT015 BKN070 23/23 Q1012;
0209825640999992007112612004-05533-047500FM-15+0131SBIZ V0209999C000010045019N0112651N1+02401+02301999999ADDGA1071+004501999GA2041+006001999GA3021+007501091GA4081+021001999GF108991999999999999999999MA1101191999999MW1801MW2951REMMET080METAR SBIZ 261200Z 00000KT 9999 -TSRA BKN015 SCT020 FEW025CB OVC070 24/23 Q1012;
0181825640999992007112613004-05533-047500FM-15+0131SBIZ V0202701N001510030019N0060001N1+02401+02301999999ADDGA1071+003001999GA2071+006001999GA3081+021001999GF108991999999999999999999MA1101291999999MW1611REMMET074METAR SBIZ 261300Z 27003KT 6000 -RA BKN010 BKN020 OVC070 24/23 Q1013 RETS;
0176825640999992007112614004-05533-047500FM-15+0131SBIZ V0202701N001010030019N0050001N1+02401+02301999999ADDGA1071+003001999GA2071+006001999GA3081+021001999GF108991999999999999999999MA1101191999999MW1611REMMET069METAR SBIZ 261400Z 27002KT 5000 -RA BKN010 BKN020 OVC070 24/23 Q1012;
0188825640999992007112615004-05533-047500FM-15+0131SBIZ V0201501N001510036019N0050001N1+02501+02401999999ADDGA1071+003601999GA2041+007501021GA3081+030001999GF108991999999999999999999MA1101081999999MW1101MW2611REMMET075METAR SBIZ 261500Z 15003KT 5000 -RA BR BKN012 SCT025TCU OVC100 25/24 Q1011;
0166825640999992007112616004-05533-047500FM-15+0131SBIZ V0201501N004110036019N0070001N1+02701+02501999999ADDGA1041+002101999GA2071+003601999GA3081+030001999GF108991999999999999999999MA1101021999999REMMET065METAR SBIZ 261600Z 15008KT 7000 SCT007 BKN012 OVC100 27/25 Q1010;
0166825640999992007112617004-05533-047500FM-15+0131SBIZ V0201001N00151004501CN0080001N1+02801+02501999999ADDGA1021+002101999GA2041+004501999GA3081+030001999GF108991999999999999999999MA1100911999999REMMET065METAR SBIZ 261700Z 10003KT 8000 FEW007 SCT015 OVC100 28/25 Q1009;
0143825640999992007112618004-05533-047500FM-15+0131SBIZ V0201501N001510360019N0080001N1+02901+02401999999ADDGA1041+003601999GA2081+036001999GF108991999999999999999999MA1100811999999REMMET058METAR SBIZ 261800Z 15003KT 8000 SCT012 OVC120 29/24 Q1008;
0143825640999992007112619004-05533-047500FM-15+0131SBIZ V0201801N001510360019N0112651N1+02901+02501999999ADDGA1041+004501999GA2081+036001999GF108991999999999999999999MA1100811999999REMMET058METAR SBIZ 261900Z 18003KT 9999 SCT015 OVC120 29/25 Q1008;
0143825640999992007112620004-05533-047500FM-15+0131SBIZ V0201801N001510360019N0112651N1+02901+02501999999ADDGA1041+004501999GA2071+036001999GF107991999999999999999999MA1100711999999REMMET058METAR SBIZ 262000Z 18003KT 9999 SCT015 BKN120 29/25 Q1007;
0143825640999992007112621004-05533-047500FM-15+0131SBIZ V0209999C000011200019N0112651N1+02801+02501999999ADDGA1021+004501999GA2071+120001999GF107991999999999999999999MA1100711999999REMMET058METAR SBIZ 262100Z 00000KT 9999 FEW015 BKN400 28/25 Q1007;
0072825640999992007112622004-05533-047500FM-15+0131SBIZ V0201801N00261220001CN0099001N1+02701+02401999999ADDMA1100811999999REMMET045METAR SBIZ 262200Z 18005KT CAVOK 27/24 Q1008;
0072825640999992007112623004-05533-047500FM-15+0131SBIZ V0209999C00001220001CN0099001N1+02601+02401999999ADDMA1100911999999REMMET045METAR SBIZ 262300Z 00000KT CAVOK 26/24 Q1009;
0120825640999992007112700004-05533-047500FM-15+0131SBIZ V0209999C000012200019N0112651N1+02501+02401999999ADDGA1021+003001999GF102991999999999999999999MA1101021999999REMMET051METAR SBIZ 270000Z 00000KT 9999 FEW010 25/24 Q1010;
0072825640999992007112701004-05533-047500FM-15+0131SBIZ V0209999C00001220001CN0099001N1+02501+02401999999ADDMA1101021999999REMMET045METAR SBIZ 270100Z 00000KT CAVOK 25/24 Q1010;
0120825640999992007112702004-05533-047500FM-15+0131SBIZ V0209999C000012200019N0112651N1+02501+02401999999ADDGA1021+006001999GF102991999999999999999999MA1101021999999REMMET051METAR SBIZ 270200Z 00000KT 9999 FEW020 25/24 Q1010;
0152825640999992007112708004-05533-047500FM-15+0131SBIZ V0203601N002610045019N0050001N1+02501+02401999999ADDGA1021+002401999GA2071+004501999GF107991999999999999999999MA1100911999999MW1101REMMET061METAR SBIZ 270800Z 36005KT 5000 BR FEW008 BKN015 25/24 Q1009;
0185825640999992007112709004-05533-047500FM-15+0131SBIZ V0203001N001010045019N0050001N1+02501+02401999999ADDGA1071+004501999GA2071+006001999GA3081+021001999GF108991999999999999999999MA1101021999999MW1101MW2611REMMET072METAR SBIZ 270900Z 30002KT 5000 -RA BR BKN015 BKN020 OVC070 25/24 Q1010;
0175825640999992007112710004-05533-047500FM-15+0131SBIZ V0202701N001010045019N0050001N1+02501+02401999999ADDGA1071+004501999GA2041+006001999GA3081+021001999GF108991999999999999999999MA1101021999999MW1101REMMET068METAR SBIZ 271000Z 27002KT 5000 BR BKN015 SCT020 OVC070 25/24 Q1010;
0175825640999992007112711004-05533-047500FM-15+0131SBIZ V0209999C000010060019N0050001N1+02601+02501999999ADDGA1041+004501999GA2071+006001999GA3071+021001999GF107991999999999999999999MA1101081999999MW1101REMMET068METAR SBIZ 271100Z 00000KT 5000 BR SCT015 BKN020 BKN070 26/25 Q1011;
0166825640999992007112712004-05533-047500FM-15+0131SBIZ V0203601N00261006001CN0080001N1+02801+02401999999ADDGA1021+004501999GA2041+006001999GA3071+030001999GF107991999999999999999999MA1101081999999REMMET065METAR SBIZ 271200Z 36005KT 8000 FEW015 SCT020 BKN100 28/24 Q1011;
0143825640999992007112713004-05533-047500FM-15+0131SBIZ V0200401N005110045019N0090001N1+02901+02301999999ADDGA1071+004501999GA2071+030001999GF107991999999999999999999MA1101081999999REMMET058METAR SBIZ 271300Z 04010KT 9000 BKN015 BKN100 29/23 Q1011;
0120825640999992007112715004-05533-047500FM-15+0131SBIZ V0203601N004610060019N0112651N1+03201+02301999999ADDGA1071+006001999GF107991999999999999999999MA1100911999999REMMET051METAR SBIZ 271500Z 36009KT 9999 BKN020 32/23 Q1009;
0120825640999992007112716004-05533-047500FM-15+0131SBIZ V0203601N002610060019N0112651N1+03401+02301999999ADDGA1071+006001999GF107991999999999999999999MA1100811999999REMMET051METAR SBIZ 271600Z 36005KT 9999 BKN020 34/23 Q1008;
0120825640999992007112717004-05533-047500FM-15+0131SBIZ V0203601N005112200019N0112651N1+03401+02301999999ADDGA1041+006001999GF104991999999999999999999MA1100711999999REMMET051METAR SBIZ 271700Z 36010KT 9999 SCT020 34/23 Q1007;
0120825640999992007112718004-05533-047500FM-15+0131SBIZ V0203601N005112200019N0112651N1+03401+02301999999ADDGA1041+006001999GF104991999999999999999999MA1100611999999REMMET051METAR SBIZ 271800Z 36010KT 9999 SCT020 34/23 Q1006;
0123825640999992007112719004-05533-047500FM-15+0131SBIZ V0200201N006212200019N0112651N1+03401+02201999999ADDGA1021+007501021GF102991999999999999999999MA1100511999999REMMET054METAR SBIZ 271900Z 02012KT 9999 FEW025TCU 34/22 Q1005;
0147825640999992007112720004-05533-047500FM-15+0131SBIZ V0203601N007712200019N0112651N1+03001+02101999999ADDGA1041+006001999GA2021+007501091MA1100611999999MW1171REMMET063METAR SBIZ 272000Z 36015KT 9999 TS SCT020 FEW025CB 30/21 Q1006;EQDQ01+000022SCOTCV
0171825640999992007112721004-05533-047500FM-15+0131SBIZ V0202501N00411009001CN0112651N1+02801+02101999999ADDGA1021+006001999GA2041+009001999GA3071+024001999GF107991999999999999999999MA1100611999999REMMET070METAR SBIZ 272100Z 25008KT 9999 FEW020 SCT030 BKN080 28/21 Q1006 RETS;
0177825640999992007112722004-05533-047500FM-15+0131SBIZ V0202201N00261007501CN0112651N1+02701+02301999999ADDGA1041+004501999GA2021+007501091GA3071+024001999GF107991999999999999999999MA1100711999999MW1171REMMET070METAR SBIZ 272200Z 22005KT 9999 TS SCT015 FEW025CB BKN080 27/23 Q1007;
0148825640999992007112723004-05533-047500FM-15+0131SBIZ V0202701N005110240019N0112651N1+02601+02301999999ADDGA1041+004501999GA2081+024001999GF108991999999999999999999MA1100811999999REMMET063METAR SBIZ 272300Z 27010KT 9999 SCT015 OVC080 26/23 Q1008 RETS;
0143825640999992007112800004-05533-047500FM-15+0131SBIZ V0202901N005110240019N0112651N1+02501+02201999999ADDGA1041+004501999GA2081+024001999GF108991999999999999999999MA1100911999999REMMET058METAR SBIZ 280000Z 29010KT 9999 SCT015 OVC080 25/22 Q1009;
0186825640999992007112801004-05533-047500FM-15+0131SBIZ V0202701N002110240019N0112651N1+02501+02301999999ADDGA1021+004501999GA2021+007501091GA3081+024001999GF108991999999999999999999MA1101021999999MW1801MW2951REMMET073METAR SBIZ 280100Z 27004KT 9999 -TSRA FEW015 FEW025CB OVC080 25/23 Q1010;
0186825640999992007112802004-05533-047500FM-15+0131SBIZ V0201501N005110045019N0060001N1+02401+02301999999ADDGA1071+004501999GA2021+007501091GA3081+024001999GF108991999999999999999999MA1101081999999MW1801MW2951REMMET073METAR SBIZ 280200Z 15010KT 6000 -TSRA BKN015 FEW025CB OVC080 24/23 Q1011;
0162825640999992007112808004-05533-047500FM-15+0131SBIZ V0200601N004110054019N0050001N1+02301+02301999999ADDGA1021+000901999GA2081+005401999GF108991999999999999999999MA1100911999999MW1101MW2611REMMET065METAR SBIZ 280800Z 06008KT 5000 -RA BR FEW003 OVC018 23/23 Q1009;
0120825640999992007112809004-05533-047500FM-15+0131SBIZ V0200101N002610090019N0080001N1+02401+02201999999ADDGA1081+009001999GF108991999999999999999999MA1101021999999REMMET051METAR SBIZ 280900Z 01005KT 8000 OVC030 24/22 Q1010;
0143825640999992007112810004-05533-047500FM-15+0131SBIZ V0200301N003110210019N0112651N1+02401+02201999999ADDGA1041+009001999GA2071+021001999GF107991999999999999999999MA1101081999999REMMET058METAR SBIZ 281000Z 03006KT 9999 SCT030 BKN070 24/22 Q1011;
0143825640999992007112811004-05533-047500FM-15+0131SBIZ V0203601N004110210019N0112651N1+02301+02201999999ADDGA1021+004501999GA2081+021001999GF108991999999999999999999MA1101191999999REMMET058METAR SBIZ 281100Z 36008KT 9999 FEW015 OVC070 23/22 Q1012;
0166825640999992007112812004-05533-047500FM-15+0131SBIZ V0203301N00261006001CN0112651N1+02401+02301999999ADDGA1021+004501999GA2041+006001999GA3081+021001999GF108991999999999999999999MA1101191999999REMMET065METAR SBIZ 281200Z 33005KT 9999 FEW015 SCT020 OVC070 24/23 Q1012;
0176825640999992007112813004-05533-047500FM-15+0131SBIZ V0203301N001510060019N0090001N1+02501+02201999999ADDGA1041+004501999GA2071+006001999GA3081+021001999GF108991999999999999999999MA1101191999999MW1611REMMET069METAR SBIZ 281300Z 33003KT 9000 -RA SCT015 BKN020 OVC070 25/22 Q1012;
0176825640999992007112814004-05533-047500FM-15+0131SBIZ V0209999C000010060019N0112651N1+02601+02301999999ADDGA1041+004501999GA2071+006001999GA3081+021001999GF108991999999999999999999MA1101081999999MW1611REMMET069METAR SBIZ 281400Z 00000KT 9999 -RA SCT015 BKN020 OVC070 26/23 Q1011;
0166825640999992007112815004-05533-047500FM-15+0131SBIZ V0203501N001010060019N0112651N1+02601+02301999999ADDGA1041+004501999GA2071+006001999GA3081+021001999GF108991999999999999999999MA1101081999999REMMET065METAR SBIZ 281500Z 35002KT 9999 SCT015 BKN020 OVC070 26/23 Q1011;
0166825640999992007112816004-05533-047500FM-15+0131SBIZ V0201901N003110060019N0112651N1+02601+02301999999ADDGA1041+004501999GA2071+006001999GA3081+021001999GF108991999999999999999999MA1101021999999REMMET065METAR SBIZ 281600Z 19006KT 9999 SCT015 BKN020 OVC070 26/23 Q1010;
0166825640999992007112817004-05533-047500FM-15+0131SBIZ V0202401N001510060019N0112651N1+02501+02301999999ADDGA1041+004501999GA2071+006001999GA3081+021001999GF108991999999999999999999MA1101021999999REMMET065METAR SBIZ 281700Z 24003KT 9999 SCT015 BKN020 OVC070 25/23 Q1010;
0166825640999992007112818004-05533-047500FM-15+0131SBIZ V0202401N004110060019N0112651N1+02601+02301999999ADDGA1041+004501999GA2071+006001999GA3081+021001999GF108991999999999999999999MA1101021999999REMMET065METAR SBIZ 281800Z 24008KT 9999 SCT015 BKN020 OVC070 26/23 Q1010;
0166825640999992007112819004-05533-047500FM-15+0131SBIZ V0202701N005110060019N0112651N1+02601+02301999999ADDGA1041+004501999GA2071+006001999GA3081+021001999GF108991999999999999999999MA1100911999999REMMET065METAR SBIZ 281900Z 27010KT 9999 SCT015 BKN020 OVC070 26/23 Q1009;
0166825640999992007112820004-05533-047500FM-15+0131SBIZ V0202501N002110060019N0112651N1+02601+02301999999ADDGA1041+004501999GA2071+006001999GA3081+021001999GF108991999999999999999999MA1100911999999REMMET065METAR SBIZ 282000Z 25004KT 9999 SCT015 BKN020 OVC070 26/23 Q1009;
0130825640999992007112821004-05533-047500FM-15+0131SBIZ V0202701N003610210019N0112651N1+02501+02201999999ADDGA1081+021001999GF108991999999999999999999MA1100911999999MW1611REMMET055METAR SBIZ 282100Z 27007KT 9999 -RA OVC070 25/22 Q1009;
0143825640999992007112822004-05533-047500FM-15+0131SBIZ V0209999C000010210019N0112651N1+02401+02301999999ADDGA1041+004501999GA2071+021001999GF107991999999999999999999MA1100911999999REMMET058METAR SBIZ 282200Z 00000KT 9999 SCT015 BKN070 24/23 Q1009;
0136825640999992007112823004-05533-047500FM-15+0131SBIZ V0209999C00001220001CN0112651N1+02401+02301999999ADDGA1071+003001999GA2041+021001999MA1101021999999REMMET058METAR SBIZ 282300Z 00000KT 9999 BKN010 SCT070 24/23 Q1010;EQDQ01+000042SCOTCV
0120825640999992007112900004-05533-047500FM-15+0131SBIZ V0209999C000012200019N0112651N1+02401+02301999999ADDGA1041+003001999GF104991999999999999999999MA1101021999999REMMET051METAR SBIZ 290000Z 00000KT 9999 SCT010 24/23 Q1010;
0120825640999992007112901004-05533-047500FM-15+0131SBIZ V0209999C000010024019N0112651N1+02401+02301999999ADDGA1071+002401999GF107991999999999999999999MA1101081999999REMMET051METAR SBIZ 290100Z 00000KT 9999 BKN008 24/23 Q1011;
0120825640999992007112902004-05533-047500FM-15+0131SBIZ V0209999C000012200019N0112651N1+02401+02301999999ADDGA1041+002401999GF104991999999999999999999MA1101081999999REMMET051METAR SBIZ 290200Z 00000KT 9999 SCT008 24/23 Q1011;
0120825640999992007112903004-05533-047500FM-15+0131SBIZ V0209999C000010024019N0112651N1+02301+02201999999ADDGA1071+002401999GF107991999999999999999999MA1101021999999REMMET051METAR SBIZ 290300Z 00000KT 9999 BKN008 23/22 Q1010;
0166825640999992007112908004-05533-047500FM-15+0131SBIZ V0209999C00001006001CN0070001N1+02301+02201999999ADDGA1041+001801999GA2041+006001999GA3081+021001999GF108991999999999999999999MA1100911999999REMMET065METAR SBIZ 290800Z 00000KT 7000 SCT006 SCT020 OVC070 23/22 Q1009;
0166825640999992007112909004-05533-047500FM-15+0131SBIZ V0209999C00001006001CN0112651N1+02301+02201999999ADDGA1021+001801999GA2041+006001999GA3071+021001999GF107991999999999999999999MA1100911999999REMMET065METAR SBIZ 290900Z 00000KT 9999 FEW006 SCT020 BKN070 23/22 Q1009;
0166825640999992007112910004-05533-047500FM-15+0131SBIZ V0209999C00001006001CN0112651N1+02301+02201999999ADDGA1021+003001999GA2041+006001999GA3071+021001999GF107991999999999999999999MA1101021999999REMMET065METAR SBIZ 291000Z 00000KT 9999 FEW010 SCT020 BKN070 23/22 Q1010;
0166825640999992007112911004-05533-047500FM-15+0131SBIZ V0209999C00001021001CN0112651N1+02401+02301999999ADDGA1021+004501999GA2041+021001999GA3071+027001999GF107991999999999999999999MA1101081999999REMMET065METAR SBIZ 291100Z 00000KT 9999 FEW015 SCT070 BKN090 24/23 Q1011;
0143825640999992007112912004-05533-047500FM-15+0131SBIZ V0201501N002110270019N0112651N1+02601+02201999999ADDGA1041+006001999GA2071+027001999GF107991999999999999999999MA1101081999999REMMET058METAR SBIZ 291200Z 15004KT 9999 SCT020 BKN090 26/22 Q1011;
0143825640999992007112913004-05533-047500FM-15+0131SBIZ V0203601N002110270019N0112651N1+02701+02201999999ADDGA1021+006001999GA2071+027001999GF107991999999999999999999MA1101081999999REMMET058METAR SBIZ 291300Z 36004KT 9999 FEW020 BKN090 27/22 Q1011;
0143825640999992007112914004-05533-047500FM-15+0131SBIZ V0200301N002110270019N0112651N1+03001+02101999999ADDGA1021+006001999GA2071+027001999GF107991999999999999999999MA1101021999999REMMET058METAR SBIZ 291400Z 03004KT 9999 FEW020 BKN090 30/21 Q1010;
0143825640999992007112915004-05533-047500FM-15+0131SBIZ V0200101N003112200019N0112651N1+03101+02301999999ADDGA1041+006001999GA2041+030001999GF104991999999999999999999MA1100911999999REMMET058METAR SBIZ 291500Z 01006KT 9999 SCT020 SCT100 31/23 Q1009;
0120825640999992007112916004-05533-047500FM-15+0131SBIZ V0200301N003610060019N0112651N1+03301+02301999999ADDGA1071+006001999GF107991999999999999999999MA1100811999999REMMET051METAR SBIZ 291600Z 03007KT 9999 BKN020 33/23 Q1008;
0143825640999992007112917004-05533-047500FM-15+0131SBIZ V0203301N003612200019N0112651N1+03301+02301999999ADDGA1041+006001999GA2041+120001999GF104991999999999999999999MA1100711999999REMMET058METAR SBIZ 291700Z 33007KT 9999 SCT020 SCT400 33/23 Q1007;
0143825640999992007112918004-05533-047500FM-15+0131SBIZ V0203001N005112200019N0112651N1+03301+02201999999ADDGA1041+006001999GA2041+120001999GF104991999999999999999999MA1100711999999REMMET058METAR SBIZ 291800Z 30010KT 9999 SCT020 SCT400 33/22 Q1007;
0143825640999992007112919004-05533-047500FM-15+0131SBIZ V0202801N003612200019N0112651N1+03301+02301999999ADDGA1041+006001999GA2041+120001999GF104991999999999999999999MA1100611999999REMMET058METAR SBIZ 291900Z 28007KT 9999 SCT020 SCT400 33/23 Q1006;
0143825640999992007112920004-05533-047500FM-15+0131SBIZ V0203301N001012200019N0112651N1+03301+02201999999ADDGA1041+006001999GA2041+120001999GF104991999999999999999999MA1100611999999REMMET058METAR SBIZ 292000Z 33002KT 9999 SCT020 SCT400 33/22 Q1006;
0143825640999992007112921004-05533-047500FM-15+0131SBIZ V0202101N002112200019N0112651N1+03101+02301999999ADDGA1021+006001999GA2041+120001999GF104991999999999999999999MA1100611999999REMMET058METAR SBIZ 292100Z 21004KT 9999 FEW020 SCT400 31/23 Q1006;
0072825640999992007112922004-05533-047500FM-15+0131SBIZ V0201501N00151220001CN0099001N1+02901+02301999999ADDMA1100711999999REMMET045METAR SBIZ 292200Z 15003KT CAVOK 29/23 Q1007;
0072825640999992007112923004-05533-047500FM-15+0131SBIZ V0209999C00001220001CN0099001N1+02801+02401999999ADDMA1100811999999REMMET045METAR SBIZ 292300Z 00000KT CAVOK 28/24 Q1008;
0120825640999992007113000004-05533-047500FM-15+0131SBIZ V0200601N004112200019N0112651N1+02701+02401999999ADDGA1041+004501999GF104991999999999999999999MA1100811999999REMMET051METAR SBIZ 300000Z 06008KT 9999 SCT015 27/24 Q1008;
0120825640999992007113001004-05533-047500FM-15+0131SBIZ V0203601N002612200019N0112651N1+02801+02301999999ADDGA1021+004501999GF102991999999999999999999MA1100911999999REMMET051METAR SBIZ 300100Z 36005KT 9999 FEW015 28/23 Q1009;
0120825640999992007113002004-05533-047500FM-15+0131SBIZ V0209999C000012200019N0112651N1+02701+02401999999ADDGA1021+004501999GF102991999999999999999999MA1100911999999REMMET051METAR SBIZ 300200Z 00000KT 9999 FEW015 27/24 Q1009;
0072825640999992007113003004-05533-047500FM-15+0131SBIZ V0209999C00001220001CN0099001N1+02601+02301999999ADDMA1100911999999REMMET045METAR SBIZ 300300Z 00000KT CAVOK 26/23 Q1009;
0120825640999992007113008004-05533-047500FM-15+0131SBIZ V0209999C000012200019N0080001N1+02401+02301999999ADDGF100991999999999999999999MA1100811999999REMMET048METAR SBIZ 300800Z 00000KT 8000 SKC 24/23 Q1008;EQDQ01    003SCCGA1
0143825640999992007113009004-05533-047500FM-15+0131SBIZ V0201201N003112200019N0080001N1+02401+02301999999ADDGA1041+004501999GA2041+030001999GF104991999999999999999999MA1100911999999REMMET058METAR SBIZ 300900Z 12006KT 8000 SCT015 SCT100 24/23 Q1009;
0143825640999992007113010004-05533-047500FM-15+0131SBIZ V0201301N002610300019N0112651N1+02401+02301999999ADDGA1041+004501999GA2071+030001999GF107991999999999999999999MA1101021999999REMMET058METAR SBIZ 301000Z 13005KT 9999 SCT015 BKN100 24/23 Q1010;
0143825640999992007113011004-05533-047500FM-15+0131SBIZ V0209999C000010210019N0112651N1+02601+02401999999ADDGA1021+004501999GA2081+021001999GF108991999999999999999999MA1101021999999REMMET058METAR SBIZ 301100Z 00000KT 9999 FEW015 OVC070 26/24 Q1010;
0143825640999992007113012004-05533-047500FM-15+0131SBIZ V0200601N002110300019N0112651N1+02801+02301999999ADDGA1021+004501999GA2071+030001999GF107991999999999999999999MA1101081999999REMMET058METAR SBIZ 301200Z 06004KT 9999 FEW015 BKN100 28/23 Q1011;
0143825640999992007113013004-05533-047500FM-15+0131SBIZ V0200301N002612200019N0112651N1+03101+02401999999ADDGA1021+004501999GA2041+006001999GF104991999999999999999999MA1101081999999REMMET058METAR SBIZ 301300Z 03005KT 9999 FEW015 SCT020 31/24 Q1011;
0143825640999992007113014004-05533-047500FM-15+0131SBIZ V0200101N004112200019N0112651N1+03101+02301999999ADDGA1021+004501999GA2041+006001999GF104991999999999999999999MA1101021999999REMMET058METAR SBIZ 301400Z 01008KT 9999 FEW015 SCT020 31/23 Q1010;
0120825640999992007113015004-05533-047500FM-15+0131SBIZ V0200301N005110060019N0112651N1+03301+02401999999ADDGA1071+006001999GF107991999999999999999999MA1101021999999REMMET051METAR SBIZ 301500Z 03010KT 9999 BKN020 33/24 Q1010;
0143825640999992007113016004-05533-047500FM-15+0131SBIZ V0203301N005110060019N0112651N1+03301+02301999999ADDGA1021+004501999GA2071+006001999GF107991999999999999999999MA1100911999999REMMET058METAR SBIZ 301600Z 33010KT 9999 FEW015 BKN020 33/23 Q1009;
0143825640999992007113017004-05533-047500FM-15+0131SBIZ V0203301N003110060019N0112651N1+03301+02401999999ADDGA1021+004501999GA2071+006001999GF107991999999999999999999MA1100711999999REMMET058METAR SBIZ 301700Z 33006KT 9999 FEW015 BKN020 33/24 Q1007;
0120825640999992007113018004-05533-047500FM-15+0131SBIZ V0200301N005110060019N0112651N1+03401+02401999999ADDGA1071+006001999GF107991999999999999999999MA1100611999999REMMET051METAR SBIZ 301800Z 03010KT 9999 BKN020 34/24 Q1006;
0120825640999992007113019004-05533-047500FM-15+0131SBIZ V0203301N002112200019N0112651N1+03301+02301999999ADDGA1021+006001999GF102991999999999999999999MA1100511999999REMMET051METAR SBIZ 301900Z 33004KT 9999 FEW020 33/23 Q1005;
0143825640999992007113020004-05533-047500FM-15+0131SBIZ V0203501N002612200019N0112651N1+03301+02301999999ADDGA1021+006001999GA2041+030001999GF104991999999999999999999MA1100511999999REMMET058METAR SBIZ 302000Z 35005KT 9999 FEW020 SCT100 33/23 Q1005;
0143825640999992007113021004-05533-047500FM-15+0131SBIZ V0203301N001010300019N0112651N1+03101+02401999999ADDGA1021+006001999GA2071+030001999GF107991999999999999999999MA1100611999999REMMET058METAR SBIZ 302100Z 33002KT 9999 FEW020 BKN100 31/24 Q1006;
0143825640999992007113022004-05533-047500FM-15+0131SBIZ V0203301N001510300019N0090001N1+03001+02401999999ADDGA1021+006001999GA2071+030001999GF107991999999999999999999MA1100711999999REMMET058METAR SBIZ 302200Z 33003KT 9000 FEW020 BKN100 30/24 Q1007;
0143825640999992007113023004-05533-047500FM-15+0131SBIZ V0203301N001510300019N0090001N1+03001+02401999999ADDGA1021+006001999GA2071+030001999GF107991999999999999999999MA1100711999999REMMET058METAR SBIZ 302300Z 33003KT 9000 FEW020 BKN100 30/24 Q1007;
0143825640999992007120100004-05533-047500FM-15+0131SBIZ V0201501N001010360019N0090001N1+02801+02501999999ADDGA1041+006001999GA2071+036001999GF107991999999999999999999MA1100911999999REMMET058METAR SBIZ 010000Z 15002KT 9000 SCT020 BKN120 28/25 Q1009;
0143825640999992007120101004-05533-047500FM-15+0131SBIZ V0203101N005110360019N0090001N1+02801+02401999999ADDGA1041+006001999GA2071+036001999GF107991999999999999999999MA1100911999999REMMET058METAR SBIZ 010100Z 31010KT 9000 SCT020 BKN120 28/24 Q1009;
0143825640999992007120102004-05533-047500FM-15+0131SBIZ V0203001N002610060019N0090001N1+02801+02401999999ADDGA1071+006001999GA2071+120001999GF107991999999999999999999MA1100911999999REMMET058METAR SBIZ 010200Z 30005KT 9000 BKN020 BKN400 28/24 Q1009;
0179825640999992007120108004-05533-047500FM-15+0131SBIZ V0203301N00101220001CN0050001N1+02301+02201999999ADDGA1041+004501999GA2071+006001999GA3021+007501091MA1101021999999MW1801MW2951REMMET073METAR SBIZ 010800Z 33002KT 5000 -TSRA SCT015 BKN020 FEW025CB 23/22 Q1010;EQDQ01+000022SCOTCV
0202825640999992007120109004-05533-047500FM-15+0131SBIZ V0201501N00101220001CN0050001N1+02301+02201999999ADDGA1021+002401999GA2041+004501999GA3071+006001999GA4021+007501091MA1101021999999MW1801MW2951REMMET080METAR SBIZ 010900Z 15002KT 5000 -TSRA FEW008 SCT015 BKN020 FEW025CB 23/22 Q1010;EQDQ01+000022SCOTCV
0209825640999992007120110004-05533-047500FM-15+0131SBIZ V0202801N002610060019N0050001N1+02301+02201999999ADDGA1041+002401999GA2071+006001999GA3021+007501091GA4081+021001999GF108991999999999999999999MA1101081999999MW1801MW2951REMMET080METAR SBIZ 011000Z 28005KT 5000 -TSRA SCT008 BKN020 FEW025CB OVC070 23/22 Q1011;
0181825640999992007120111004-05533-047500FM-15+0131SBIZ V0202801N00261006001CN0080001N1+02401+02301999999ADDGA1041+003001999GA2041+006001999GA3081+021001999GF108991999999999999999999MA1101191999999MW1611REMMET074METAR SBIZ 011100Z 28005KT 8000 -RA SCT010 SCT020 OVC070 24/23 Q1012 RETS;
0176825640999992007120112004-05533-047500FM-15+0131SBIZ V0201701N00151006001CN0112651N1+02401+02301999999ADDGA1041+003001999GA2041+006001999GA3081+021001999GF108991999999999999999999MA1101191999999MW1611REMMET069METAR SBIZ 011200Z 17003KT 9999 -RA SCT010 SCT020 OVC070 24/23 Q1012;
0176825640999992007120113004-05533-047500FM-15+0131SBIZ V0201801N003110045019N0112651N1+02401+02401999999ADDGA1071+004501999GA2071+006001999GA3081+021001999GF108991999999999999999999MA1101291999999MW1611REMMET069METAR SBIZ 011300Z 18006KT 9999 -RA BKN015 BKN020 OVC070 24/24 Q1013;
0176825640999992007120114004-05533-047500FM-15+0131SBIZ V0201801N002610060019N0112651N1+02501+02301999999ADDGA1041+004501999GA2071+006001999GA3081+021001999GF108991999999999999999999MA1101291999999MW1611REMMET069METAR SBIZ 011400Z 18005KT 9999 -RA SCT015 BKN020 OVC070 25/23 Q1013;
0169825640999992007120115004-05533-047500FM-15+0131SBIZ V0201401N004610030019N0112651N1+02501+02301999999ADDGA1071+003001999GA2041+007501021GA3081+024001999GF108991999999999999999999MA1101291999999REMMET068METAR SBIZ 011500Z 14009KT 9999 BKN010 SCT025TCU OVC080 25/23 Q1013;
0143825640999992007120116004-05533-047500FM-15+0131SBIZ V0202001N001010030019N0112651N1+02701+02301999999ADDGA1071+003001999GA2081+030001999GF108991999999999999999999MA1101191999999REMMET058METAR SBIZ 011600Z 20002KT 9999 BKN010 OVC100 27/23 Q1012;
0143825640999992007120117004-05533-047500FM-15+0131SBIZ V0202101N002610045019N0112651N1+02701+02301999999ADDGA1071+004501999GA2081+030001999GF108991999999999999999999MA1101081999999REMMET058METAR SBIZ 011700Z 21005KT 9999 BKN015 OVC100 27/23 Q1011;
0166825640999992007120118004-05533-047500FM-15+0131SBIZ V0202101N004610060019N0112651N1+02701+02401999999ADDGA1021+000901999GA2071+006001999GA3081+030001999GF108991999999999999999999MA1101021999999REMMET065METAR SBIZ 011800Z 21009KT 9999 FEW003 BKN020 OVC100 27/24 Q1010;
0143825640999992007120119004-05533-047500FM-15+0131SBIZ V0201801N004110060019N0112651N1+02701+02301999999ADDGA1071+006001999GA2081+036001999GF108991999999999999999999MA1100911999999REMMET058METAR SBIZ 011900Z 18008KT 9999 BKN020 OVC120 27/23 Q1009;
0143825640999992007120120004-05533-047500FM-15+0131SBIZ V0201801N003110060019N0112651N1+02601+02301999999ADDGA1071+006001999GA2081+036001999GF108991999999999999999999MA1100911999999REMMET058METAR SBIZ 012000Z 18006KT 9999 BKN020 OVC120 26/23 Q1009;
0166825640999992007120121004-05533-047500FM-15+0131SBIZ V0209999C000010060019N0112651N1+02501+02301999999ADDGA1071+006001999GA2071+027001999GA3071+090001999GF107991999999999999999999MA1100911999999REMMET065METAR SBIZ 012100Z 00000KT 9999 BKN020 BKN090 BKN300 25/23 Q1009;
0143825640999992007120122004-05533-047500FM-15+0131SBIZ V0209999C000010900019N0112651N1+02501+02301999999ADDGA1041+006001999GA2071+090001999GF107991999999999999999999MA1100911999999REMMET058METAR SBIZ 012200Z 00000KT 9999 SCT020 BKN300 25/23 Q1009;
0072825640999992007120123004-05533-047500FM-15+0131SBIZ V0209999C00001220001CN0099001N1+02401+02301999999ADDMA1101021999999REMMET045METAR SBIZ 012300Z 00000KT CAVOK 24/23 Q1010;
0072825640999992007120200004-05533-047500FM-15+0131SBIZ V0209999C00001220001CN0099001N1+02401+02301999999ADDMA1101021999999REMMET045METAR SBIZ 020000Z 00000KT CAVOK 24/23 Q1010;
0072825640999992007120201004-05533-047500FM-15+0131SBIZ V0209999C00001220001CN0099001N1+02301+02301999999ADDMA1101081999999REMMET045METAR SBIZ 020100Z 00000KT CAVOK 23/23 Q1011;
0120825640999992007120202004-05533-047500FM-15+0131SBIZ V0209999C000010090019N0112651N1+02301+02301999999ADDGA1071+009001999GF107991999999999999999999MA1101081999999REMMET051METAR SBIZ 020200Z 00000KT 9999 BKN030 23/23 Q1011;
0128825640999992007120208004-05533-047500FM-15+0131SBIZ V0209999C000010001519N0000001N1+02301+02301999999ADDGA1091+000151999GF109991999999000251999999MA1101081999999MW1451REMMET053METAR SBIZ 020800Z 00000KT 0000 FG VV/// 23/23 Q1011;
0128825640999992007120209004-05533-047500FM-15+0131SBIZ V0209999C000010001519N0000001N1+02201+02201999999ADDGA1091+000151999GF109991999999000251999999MA1101081999999MW1451REMMET053METAR SBIZ 020900Z 00000KT 0000 FG VV/// 22/22 Q1011;
0128825640999992007120210004-05533-047500FM-15+0131SBIZ V0209999C000010001519N0000001N1+02201+02201999999ADDGA1091+000151999GF109991999999000251999999MA1101191999999MW1451REMMET053METAR SBIZ 021000Z 00000KT 0000 FG VV/// 22/22 Q1012;
0129825640999992007120211004-05533-047500FM-15+0131SBIZ V0209999C000010009019N0015001N1+02301+02201999999ADDGA1081+000901999GF108991999999999999999999MA1101291999999MW1101REMMET054METAR SBIZ 021100Z 00000KT 1500 BR OVC003 23/22 Q1013;
0143825640999992007120212004-05533-047500FM-15+0131SBIZ V0200701N003110045019N0112651N1+02601+02301999999ADDGA1071+004501999GA2071+006001999GF107991999999999999999999MA1101391999999REMMET058METAR SBIZ 021200Z 07006KT 9999 BKN015 BKN020 26/23 Q1014;
0143825640999992007120214004-05533-047500FM-15+0131SBIZ V0200901N002112200019N0112651N1+03001+02201999999ADDGA1021+006001999GA2041+030001999GF104991999999999999999999MA1101191999999REMMET058METAR SBIZ 021400Z 09004KT 9999 FEW020 SCT100 30/22 Q1012;
0143825640999992007120215004-05533-047500FM-15+0131SBIZ V0201801N001512200019N0112651N1+03201+02401999999ADDGA1041+004501999GA2041+030001999GF104991999999999999999999MA1101191999999REMMET058METAR SBIZ 021500Z 18003KT 9999 SCT015 SCT100 32/24 Q1012;
0162825640999992007120216004-05533-047500FM-15+0131SBIZ V0200501N003612200019N0112651N1+03301+02501999999ADDGA1041+004501999GA2041+006001999GA3021+007501021MA1101081999999REMMET068METAR SBIZ 021600Z 05007KT 9999 SCT015 SCT020 FEW025TCU 33/25 Q1011;EQDQ01+000022SCOTCV
0143825640999992007120217004-05533-047500FM-15+0131SBIZ V0203601N003612200019N0112651N1+03401+02501999999ADDGA1041+006001999GA2041+030001999GF104991999999999999999999MA1101021999999REMMET058METAR SBIZ 021700Z 36007KT 9999 SCT020 SCT100 34/25 Q1010;
0143825640999992007120218004-05533-047500FM-15+0131SBIZ V0201301N003612200019N0112651N1+03301+02401999999ADDGA1041+006001999GA2041+120001999GF104991999999999999999999MA1100811999999REMMET058METAR SBIZ 021800Z 13007KT 9999 SCT020 SCT400 33/24 Q1008;
0143825640999992007120219004-05533-047500FM-15+0131SBIZ V0201401N004112200019N0112651N1+03301+02301999999ADDGA1041+006001999GA2041+120001999GF104991999999999999999999MA1100711999999REMMET058METAR SBIZ 021900Z 14008KT 9999 SCT020 SCT400 33/23 Q1007;
0169825640999992007120220004-05533-047500FM-15+0131SBIZ V0201801N00211007501CN0112651N1+03301+02301999999ADDGA1041+006001999GA2021+007501021GA3071+120001999GF107991999999999999999999MA1100711999999REMMET068METAR SBIZ 022000Z 18004KT 9999 SCT020 FEW025TCU BKN400 33/23 Q1007;
0143825640999992007120221004-05533-047500FM-15+0131SBIZ V0209999C000010900019N0112651N1+03101+02301999999ADDGA1021+006001999GA2071+090001999GF107991999999999999999999MA1100811999999REMMET058METAR SBIZ 022100Z 00000KT 9999 FEW020 BKN300 31/23 Q1008;
0072825640999992007120222004-05533-047500FM-15+0131SBIZ V0209999C00001220001CN0099001N1+02901+02301999999ADDMA1100911999999REMMET045METAR SBIZ 022200Z 00000KT CAVOK 29/23 Q1009;
0072825640999992007120223004-05533-047500FM-15+0131SBIZ V0209999C00001220001CN0099001N1+02801+02401999999ADDMA1101021999999REMMET045METAR SBIZ 022300Z 00000KT CAVOK 28/24 Q1010;
0072825640999992007120300004-05533-047500FM-15+0131SBIZ V0209999C00001220001CN0099001N1+02701+02401999999ADDMA1101081999999REMMET045METAR SBIZ 030000Z 00000KT CAVOK 27/24 Q1011;
0131825640999992007120301004-05533-047500FM-15+0131SBIZ V0209999C000012200019N0112651N1+02701+02401999999ADDGA1021+007501091GF102991999999999999999999MA1101191999999MW1171REMMET056METAR SBIZ 030100Z 00000KT 9999 TS FEW025CB 27/24 Q1012;
0077825640999992007120302004-05533-047500FM-15+0131SBIZ V0209999C00001220001CN0099001N1+02601+02401999999ADDMA1101081999999REMMET050METAR SBIZ 030200Z 00000KT CAVOK 26/24 Q1011 RETS;
0120825640999992007120308004-05533-047500FM-15+0131SBIZ V0203301N003612200019N0070001N1+02301+02201999999ADDGF100991999999999999999999MA1101081999999REMMET048METAR SBIZ 030800Z 33007KT 7000 SKC 23/22 Q1011;EQDQ01    003SCCGA1
0143825640999992007120309004-05533-047500FM-15+0131SBIZ V0203301N001010090019N0070001N1+02301+02201999999ADDGA1021+001201999GA2071+009001999GF107991999999999999999999MA1101081999999REMMET058METAR SBIZ 030900Z 33002KT 7000 FEW004 BKN030 23/22 Q1011;
0120825640999992007120310004-05533-047500FM-15+0131SBIZ V0201101N001010090019N0090001N1+02301+02201999999ADDGA1081+009001999GF108991999999999999999999MA1101191999999REMMET051METAR SBIZ 031000Z 11002KT 9000 OVC030 23/22 Q1012;
0120825640999992007120311004-05533-047500FM-15+0131SBIZ V0201301N001010090019N0090001N1+02501+02301999999ADDGA1071+009001999GF107991999999999999999999MA1101191999999REMMET051METAR SBIZ 031100Z 13002KT 9000 BKN030 25/23 Q1012;
0120825640999992007120312004-05533-047500FM-15+0131SBIZ V0201001N005110120019N0112651N1+02801+02401999999ADDGA1071+012001999GF107991999999999999999999MA1101291999999REMMET051METAR SBIZ 031200Z 10010KT 9999 BKN040 28/24 Q1013;
0143825640999992007120313004-05533-047500FM-15+0131SBIZ V0209999C000010120019N0112651N1+02901+02401999999ADDGA1041+006001999GA2081+012001999GF108991999999999999999999MA1101291999999REMMET058METAR SBIZ 031300Z 00000KT 9999 SCT020 OVC040 29/24 Q1013;
0120825640999992007120314004-05533-047500FM-15+0131SBIZ V0200901N004110060019N0112651N1+03201+02401999999ADDGA1071+006001999GF107991999999999999999999MA1101191999999REMMET051METAR SBIZ 031400Z 09008KT 9999 BKN020 32/24 Q1012;
0120825640999992007120315004-05533-047500FM-15+0131SBIZ V0203601N005110060019N0112651N1+03201+02401999999ADDGA1071+006001999GF107991999999999999999999MA1101081999999REMMET051METAR SBIZ 031500Z 36010KT 9999 BKN020 32/24 Q1011;
0120825640999992007120316004-05533-047500FM-15+0131SBIZ V0209999C000012200019N0112651N1+03401+02401999999ADDGA1041+006001999GF104991999999999999999999MA1101021999999REMMET051METAR SBIZ 031600Z 00000KT 9999 SCT020 34/24 Q1010;
0120825640999992007120317004-05533-047500FM-15+0131SBIZ V0203001N005112200019N0112651N1+03401+02401999999ADDGA1041+006001999GF104991999999999999999999MA1100911999999REMMET051METAR SBIZ 031700Z 30010KT 9999 SCT020 34/24 Q1009;
0120825640999992007120318004-05533-047500FM-15+0131SBIZ V0203301N006212200019N0112651N1+03301+02301999999ADDGA1041+006001999GF104991999999999999999999MA1100811999999REMMET051METAR SBIZ 031800Z 33012KT 9999 SCT020 33/23 Q1008;
0143825640999992007120319004-05533-047500FM-15+0131SBIZ V0200301N005110900019N0112651N1+03301+02301999999ADDGA1041+006001999GA2071+090001999GF107991999999999999999999MA1100711999999REMMET058METAR SBIZ 031900Z 03010KT 9999 SCT020 BKN300 33/23 Q1007;
0143825640999992007120320004-05533-047500FM-15+0131SBIZ V0209999C000010900019N0112651N1+03101+02301999999ADDGA1041+006001999GA2071+090001999GF107991999999999999999999MA1100711999999REMMET058METAR SBIZ 032000Z 00000KT 9999 SCT020 BKN300 31/23 Q1007;
0143825640999992007120321004-05533-047500FM-15+0131SBIZ V0202001N002610900019N0112651N1+02901+02401999999ADDGA1041+006001999GA2071+090001999GF107991999999999999999999MA1100711999999REMMET058METAR SBIZ 032100Z 20005KT 9999 SCT020 BKN300 29/24 Q1007;
0177825640999992007120322004-05533-047500FM-15+0131SBIZ V0209999C00001007501CN0112651N1+02701+02301999999ADDGA1041+006001999GA2021+007501091GA3071+090001999GF107991999999999999999999MA1100811999999MW1171REMMET070METAR SBIZ 032200Z 00000KT 9999 TS SCT020 FEW025CB BKN300 27/23 Q1008;
0077825640999992007120323004-05533-047500FM-15+0131SBIZ V0209999C00001220001CN0099001N1+02601+02301999999ADDMA1100911999999REMMET050METAR SBIZ 032300Z 00000KT CAVOK 26/23 Q1009 RETS;
0072825640999992007120400004-05533-047500FM-15+0131SBIZ V0209999C00001220001CN0099001N1+02501+02301999999ADDMA1101021999999REMMET045METAR SBIZ 040000Z 00000KT CAVOK 25/23 Q1010;
0147825640999992007120401004-05533-047500FM-15+0131SBIZ V0200701N004112200019N0112651N1+02601+02301999999ADDGA1041+003601999GA2021+007501091MA1101021999999MW1171REMMET063METAR SBIZ 040100Z 07008KT 9999 TS SCT012 FEW025CB 26/23 Q1010;EQDQ01+000022SCOTCV
0147825640999992007120402004-05533-047500FM-15+0131SBIZ V0203601N003112200019N0112651N1+02501+02301999999ADDGA1041+003601999GA2021+007501091MA1101021999999MW1171REMMET063METAR SBIZ 040200Z 36006KT 9999 TS SCT012 FEW025CB 25/23 Q1010;EQDQ01+000022SCOTCV
0125825640999992007120403004-05533-047500FM-15+0131SBIZ V0200301N004112200019N0112651N1+02601+02301999999ADDGA1041+003601999GF104991999999999999999999MA1101021999999REMMET056METAR SBIZ 040300Z 03008KT 9999 SCT012 26/23 Q1010 RETS;
0209825640999992007120408004-05533-047500FM-15+0131SBIZ V0200501N00511006001CN0080001N1+02401+02301999999ADDGA1041+003001999GA2041+006001999GA3021+007501091GA4081+021001999GF108991999999999999999999MA1100911999999MW1801MW2951REMMET080METAR SBIZ 040800Z 05010KT 8000 -TSRA SCT010 SCT020 FEW025CB OVC070 24/23 Q1009;
0171825640999992007120409004-05533-047500FM-15+0131SBIZ V0209999C000010300019N0112651N1+02401+02301999999ADDGA1021+003001999GA2071+030001999GA3071+090001999GF107991999999999999999999MA1101021999999REMMET070METAR SBIZ 040900Z 00000KT 9999 FEW010 BKN100 BKN300 24/23 Q1010 RETS;
0072825640999992007120410004-05533-047500FM-15+0131SBIZ V0203401N00311220001CN0099001N1+02401+02301999999ADDMA1101081999999REMMET045METAR SBIZ 041000Z 34006KT CAVOK 24/23 Q1011;
0143825640999992007120411004-05533-047500FM-15+0131SBIZ V0200701N004110060019N0112651N1+02601+02301999999ADDGA1071+006001999GA2081+090001999GF108991999999999999999999MA1101191999999REMMET058METAR SBIZ 041100Z 07008KT 9999 BKN020 OVC300 26/23 Q1012;
0143825640999992007120412004-05533-047500FM-15+0131SBIZ V0200901N006210060019N0112651N1+02701+02201999999ADDGA1071+006001999GA2081+090001999GF108991999999999999999999MA1101191999999REMMET058METAR SBIZ 041200Z 09012KT 9999 BKN020 OVC300 27/22 Q1012;
0143825640999992007120413004-05533-047500FM-15+0131SBIZ V0203601N005110060019N0112651N1+02801+02201999999ADDGA1071+006001999GA2081+090001999GF108991999999999999999999MA1101191999999REMMET058METAR SBIZ 041300Z 36010KT 9999 BKN020 OVC300 28/22 Q1012;
0143825640999992007120414004-05533-047500FM-15+0131SBIZ V0200601N005110060019N0112651N1+03001+02301999999ADDGA1071+006001999GA2071+090001999GF107991999999999999999999MA1101191999999REMMET058METAR SBIZ 041400Z 06010KT 9999 BKN020 BKN300 30/23 Q1012;
0120825640999992007120416004-05533-047500FM-15+0131SBIZ V0202701N004110060019N0112651N1+03101+02301999999ADDGA1071+006001999GF107991999999999999999999MA1101081999999REMMET051METAR SBIZ 041600Z 27008KT 9999 BKN020 31/23 Q1011;
0143825640999992007120417004-05533-047500FM-15+0131SBIZ V0209999C000012200019N0112651N1+03201+02301999999ADDGA1041+006001999GA2041+090001999GF104991999999999999999999MA1100911999999REMMET058METAR SBIZ 041700Z 00000KT 9999 SCT020 SCT300 32/23 Q1009;
0143825640999992007120418004-05533-047500FM-15+0131SBIZ V0202401N002610900019N0112651N1+03201+02201999999ADDGA1041+006001999GA2071+090001999GF107991999999999999999999MA1100811999999REMMET058METAR SBIZ 041800Z 24005KT 9999 SCT020 BKN300 32/22 Q1008;
0143825640999992007120419004-05533-047500FM-15+0131SBIZ V0202701N003110900019N0112651N1+03201+02201999999ADDGA1041+006001999GA2071+090001999GF107991999999999999999999MA1100711999999REMMET058METAR SBIZ 041900Z 27006KT 9999 SCT020 BKN300 32/22 Q1007;
0143825640999992007120421004-05533-047500FM-15+0131SBIZ V0209999C000011200019N0112651N1+03001+02301999999ADDGA1041+004501999GA2081+120001999GF108991999999999999999999MA1100811999999REMMET058METAR SBIZ 042100Z 00000KT 9999 SCT015 OVC400 30/23 Q1008;
0143825640999992007120422004-05533-047500FM-15+0131SBIZ V0209999C000011200019N0112651N1+02801+02301999999ADDGA1021+004501999GA2071+120001999GF107991999999999999999999MA1100811999999REMMET058METAR SBIZ 042200Z 00000KT 9999 FEW015 BKN400 28/23 Q1008;
0143825640999992007120423004-05533-047500FM-15+0131SBIZ V0209999C000011200019N0112651N1+02701+02201999999ADDGA1041+004501999GA2071+120001999GF107991999999999999999999MA1100911999999REMMET058METAR SBIZ 042300Z 00000KT 9999 SCT015 BKN400 27/22 Q1009;
0143825640999992007120500004-05533-047500FM-15+0131SBIZ V0209999C000012200019N0112651N1+02601+02201999999ADDGA1021+004501999GA2041+120001999GF104991999999999999999999MA1101021999999REMMET058METAR SBIZ 050000Z 00000KT 9999 FEW015 SCT400 26/22 Q1010;
0143825640999992007120501004-05533-047500FM-15+0131SBIZ V0209999C000012200019N0112651N1+02501+02201999999ADDGA1021+004501999GA2041+120001999GF104991999999999999999999MA1101081999999REMMET058METAR SBIZ 050100Z 00000KT 9999 FEW015 SCT400 25/22 Q1011;
0120825640999992007120502004-05533-047500FM-15+0131SBIZ V0200301N003612200019N0112651N1+02501+02401999999ADDGA1021+004501999GF102991999999999999999999MA1101021999999REMMET051METAR SBIZ 050200Z 03007KT 9999 FEW015 25/24 Q1010;
0072825640999992007120503004-05533-047500FM-15+0131SBIZ V0209999C00001220001CN0099001N1+02501+02401999999ADDMA1101021999999REMMET045METAR SBIZ 050300Z 00000KT CAVOK 25/24 Q1010;
0170825640999992007120508004-05533-047500FM-15+0131SBIZ V0209999C00001220001CN0112651N1+02401+02101999999ADDGA1041+004501999GA2071+006001999GA3021+007501091MA1101081999999MW1171REMMET070METAR SBIZ 050800Z 00000KT 9999 TS SCT015 BKN020 FEW025CB 24/21 Q1011;EQDQ01+000022SCOTCV
0141825640999992007120509004-05533-047500FM-15+0131SBIZ V0209999C00001220001CN0112651N1+02401+02101999999ADDGA1071+004501999GA2041+006001999MA1101191999999REMMET063METAR SBIZ 050900Z 00000KT 9999 BKN015 SCT020 24/21 Q1012 RETS;EQDQ01+000042SCOTCV
0136825640999992007120510004-05533-047500FM-15+0131SBIZ V0209999C00001220001CN0112651N1+02401+02201999999ADDGA1071+004501999GA2041+006001999MA1101291999999REMMET058METAR SBIZ 051000Z 00000KT 9999 BKN015 SCT020 24/22 Q1013;EQDQ01+000042SCOTCV
0136825640999992007120511004-05533-047500FM-15+0131SBIZ V0209999C00001220001CN0112651N1+02501+02201999999ADDGA1071+004501999GA2041+006001999MA1101391999999REMMET058METAR SBIZ 051100Z 00000KT 9999 BKN015 SCT020 25/22 Q1014;EQDQ01+000042SCOTCV
0143825640999992007120512004-05533-047500FM-15+0131SBIZ V0203301N004112200019N0112651N1+02601+02201999999ADDGA1041+004501999GA2041+006001999GF104991999999999999999999MA1101391999999REMMET058METAR SBIZ 051200Z 33008KT 9999 SCT015 SCT020 26/22 Q1014;
0143825640999992007120513004-05533-047500FM-15+0131SBIZ V0203301N005112200019N0112651N1+02701+02201999999ADDGA1041+006001999GA2041+090001999GF104991999999999999999999MA1101391999999REMMET058METAR SBIZ 051300Z 33010KT 9999 SCT020 SCT300 27/22 Q1014;
0143825640999992007120514004-05533-047500FM-15+0131SBIZ V0203101N005110060019N0112651N1+02701+02101999999ADDGA1021+004501999GA2071+006001999GF107991999999999999999999MA1101491999999REMMET058METAR SBIZ 051400Z 31010KT 9999 FEW015 BKN020 27/21 Q1015;
0120825640999992007120515004-05533-047500FM-15+0131SBIZ V0203601N003110060019N0112651N1+03001+02401999999ADDGA1071+006001999GF107991999999999999999999MA1101391999999REMMET051METAR SBIZ 051500Z 36006KT 9999 BKN020 30/24 Q1014;
0143825640999992007120516004-05533-047500FM-15+0131SBIZ V0209999C000010060019N0112651N1+03001+02401999999ADDGA1021+004501999GA2071+006001999GF107991999999999999999999MA1101291999999REMMET058METAR SBIZ 051600Z 00000KT 9999 FEW015 BKN020 30/24 Q1013;
0166825640999992007120517004-05533-047500FM-15+0131SBIZ V0209999C00001006001CN0112651N1+03001+02301999999ADDGA1021+004501999GA2041+006001999GA3071+120001999GF107991999999999999999999MA1101081999999REMMET065METAR SBIZ 051700Z 00000KT 9999 FEW015 SCT020 BKN400 30/23 Q1011;
0166825640999992007120520004-05533-047500FM-15+0131SBIZ V0201101N00311030001CN0112651N1+02901+02301999999ADDGA1021+004501999GA2041+030001999GA3081+120001999GF108991999999999999999999MA1101081999999REMMET065METAR SBIZ 052000Z 11006KT 9999 FEW015 SCT100 OVC400 29/23 Q1011;
0143825640999992007120522004-05533-047500FM-15+0131SBIZ V0201201N002611200019N0112651N1+02601+02201999999ADDGA1041+009001999GA2081+120001999GF108991999999999999999999MA1101191999999REMMET058METAR SBIZ 052200Z 12005KT 9999 SCT030 OVC400 26/22 Q1012;
0143825640999992007120523004-05533-047500FM-15+0131SBIZ V0201001N002611200019N0112651N1+02501+02201999999ADDGA1041+009001999GA2071+120001999GF107991999999999999999999MA1101191999999REMMET058METAR SBIZ 052300Z 10005KT 9999 SCT030 BKN400 25/22 Q1012;
0143825640999992007120600004-05533-047500FM-15+0131SBIZ V0200301N003611200019N0112651N1+02601+02201999999ADDGA1041+009001999GA2071+120001999GF107991999999999999999999MA1101291999999REMMET058METAR SBIZ 060000Z 03007KT 9999 SCT030 BKN400 26/22 Q1013;
0072825640999992007120601004-05533-047500FM-15+0131SBIZ V0201501N00101220001CN0099001N1+02501+02301999999ADDMA1101291999999REMMET045METAR SBIZ 060100Z 15002KT CAVOK 25/23 Q1013;
0072825640999992007120602004-05533-047500FM-15+0131SBIZ V0201101N00361220001CN0099001N1+02401+02201999999ADDMA1101291999999REMMET045METAR SBIZ 060200Z 11007KT CAVOK 24/22 Q1013;
0120825640999992007120608004-05533-047500FM-15+0131SBIZ V0201001N002112200019N0080001N1+02201+02101999999ADDGA1041+003901999GF104991999999999999999999MA1101081999999REMMET051METAR SBIZ 060800Z 10004KT 8000 SCT013 22/21 Q1011;
0120825640999992007120609004-05533-047500FM-15+0131SBIZ V0209999C000010090019N0112651N1+02201+02101999999ADDGA1071+009001999GF107991999999999999999999MA1101191999999REMMET051METAR SBIZ 060900Z 00000KT 9999 BKN030 22/21 Q1012;
0143825640999992007120610004-05533-047500FM-15+0131SBIZ V0201201N002610300019N0112651N1+02301+02101999999ADDGA1041+009001999GA2071+030001999GF107991999999999999999999MA1101191999999REMMET058METAR SBIZ 061000Z 12005KT 9999 SCT030 BKN100 23/21 Q1012;
0143825640999992007120611004-05533-047500FM-15+0131SBIZ V0200901N003112200019N0112651N1+02501+02201999999ADDGA1041+009001999GA2041+030001999GF104991999999999999999999MA1101291999999REMMET058METAR SBIZ 061100Z 09006KT 9999 SCT030 SCT100 25/22 Q1013;
0143825640999992007120612004-05533-047500FM-15+0131SBIZ V0201101N003612200019N0112651N1+02701+02201999999ADDGA1021+009001999GA2041+030001999GF104991999999999999999999MA1101391999999REMMET058METAR SBIZ 061200Z 11007KT 9999 FEW030 SCT100 27/22 Q1014;
0143825640999992007120614004-05533-047500FM-15+0131SBIZ V0201101N003112200019N0112651N1+03201+02301999999ADDGA1041+006001999GA2041+030001999GF104991999999999999999999MA1101291999999REMMET058METAR SBIZ 061400Z 11006KT 9999 SCT020 SCT100 32/23 Q1013;
0143825640999992007120615004-05533-047500FM-15+0131SBIZ V0201301N004110300019N0112651N1+03301+02301999999ADDGA1041+006001999GA2071+030001999GF107991999999999999999999MA1101291999999REMMET058METAR SBIZ 061500Z 13008KT 9999 SCT020 BKN100 33/23 Q1013;
0143825640999992007120616004-05533-047500FM-15+0131SBIZ V0201101N002610300019N0112651N1+03301+02301999999ADDGA1041+006001999GA2071+030001999GF107991999999999999999999MA1101081999999REMMET058METAR SBIZ 061600Z 11005KT 9999 SCT020 BKN100 33/23 Q1011;
0143825640999992007120617004-05533-047500FM-15+0131SBIZ V0200801N004110900019N0112651N1+03301+02301999999ADDGA1041+006001999GA2071+090001999GF107991999999999999999999MA1101081999999REMMET058METAR SBIZ 061700Z 08008KT 9999 SCT020 BKN300 33/23 Q1011;
0143825640999992007120618004-05533-047500FM-15+0131SBIZ V0201201N003111200019N0112651N1+03401+02301999999ADDGA1041+006001999GA2071+120001999GF107991999999999999999999MA1101021999999REMMET058METAR SBIZ 061800Z 12006KT 9999 SCT020 BKN400 34/23 Q1010;
0143825640999992007120619004-05533-047500FM-15+0131SBIZ V0201801N002611200019N0112651N1+03201+02401999999ADDGA1041+006001999GA2071+120001999GF107991999999999999999999MA1100911999999REMMET058METAR SBIZ 061900Z 18005KT 9999 SCT020 BKN400 32/24 Q1009;
0143825640999992007120620004-05533-047500FM-15+0131SBIZ V0202001N004611200019N0112651N1+03201+02401999999ADDGA1041+006001999GA2071+120001999GF107991999999999999999999MA1100911999999REMMET058METAR SBIZ 062000Z 20009KT 9999 SCT020 BKN400 32/24 Q1009;
0120825640999992007120621004-05533-047500FM-15+0131SBIZ V0201501N002610060019N0112651N1+03001+02401999999ADDGA1071+006001999GF107991999999999999999999MA1100911999999REMMET051METAR SBIZ 062100Z 15005KT 9999 BKN020 30/24 Q1009;
0120825640999992007120622004-05533-047500FM-15+0131SBIZ V0209999C000012200019N0112651N1+02901+02401999999ADDGA1041+006001999GF104991999999999999999999MA1101021999999REMMET051METAR SBIZ 062200Z 00000KT 9999 SCT020 29/24 Q1010;
0072825640999992007120623004-05533-047500FM-15+0131SBIZ V0209999C00001220001CN0099001N1+02801+02301999999ADDMA1101021999999REMMET045METAR SBIZ 062300Z 00000KT CAVOK 28/23 Q1010;
0072825640999992007120700004-05533-047500FM-15+0131SBIZ V0209999C00001220001CN0099001N1+02701+02301999999ADDMA1101081999999REMMET045METAR SBIZ 070000Z 00000KT CAVOK 27/23 Q1011;
0072825640999992007120701004-05533-047500FM-15+0131SBIZ V0200901N00151220001CN0099001N1+02601+02301999999ADDMA1101081999999REMMET045METAR SBIZ 070100Z 09003KT CAVOK 26/23 Q1011;
0120825640999992007120702004-05533-047500FM-15+0131SBIZ V0209999C000012200019N0112651N1+02601+02301999999ADDGA1041+009001999GF104991999999999999999999MA1101081999999REMMET051METAR SBIZ 070200Z 00000KT 9999 SCT030 26/23 Q1011;
0072825640999992007120703004-05533-047500FM-15+0131SBIZ V0209999C00001220001CN0099001N1+02601+02301999999ADDMA1101081999999REMMET045METAR SBIZ 070300Z 00000KT CAVOK 26/23 Q1011;
0078825640999992007120707154-05533-047500FM-16+0131SBIZ V0209999C000012200019N0099001N1+02401+02401999999ADDMA1101101999999REMMET051METAR SBIZ 070715Z SPECI 00000KT CAVOK 24/24 Q1011;
0072825640999992007120708004-05533-047500FM-15+0131SBIZ V0209999C00001220001CN0099001N1+02401+02301999999ADDMA1101081999999REMMET045METAR SBIZ 070800Z 00000KT CAVOK 24/23 Q1011;
0143825640999992007120709004-05533-047500FM-15+0131SBIZ V0209999C000011200019N0070001N1+02401+02301999999ADDGA1021+004501999GA2071+120001999GF107991999999999999999999MA1101081999999REMMET058METAR SBIZ 070900Z 00000KT 7000 FEW015 BKN400 24/23 Q1011;
0120825640999992007120710004-05533-047500FM-15+0131SBIZ V0200301N002612200019N0070001N1+02501+02301999999ADDGF100991999999999999999999MA1101191999999REMMET048METAR SBIZ 071000Z 03005KT 7000 NSC 25/23 Q1012;EQDQ01    003SCCGA1
0120825640999992007120711004-05533-047500FM-15+0131SBIZ V0200401N006212200019N0080001N1+02701+02301999999ADDGA1021+006001999GF102991999999999999999999MA1101191999999REMMET051METAR SBIZ 071100Z 04012KT 8000 FEW020 27/23 Q1012;
0120825640999992007120713004-05533-047500FM-15+0131SBIZ V0200101N005110060019N0112651N1+03101+02401999999ADDGA1071+006001999GF107991999999999999999999MA1101191999999REMMET051METAR SBIZ 071300Z 01010KT 9999 BKN020 31/24 Q1012;
0143825640999992007120714004-05533-047500FM-15+0131SBIZ V0200101N005110060019N0112651N1+03101+02401999999ADDGA1021+004501999GA2071+006001999GF107991999999999999999999MA1101191999999REMMET058METAR SBIZ 071400Z 01010KT 9999 FEW015 BKN020 31/24 Q1012;
0120825640999992007120715004-05533-047500FM-15+0131SBIZ V0200101N005712200019N0112651N1+03201+02301999999ADDGA1041+006001999GF104991999999999999999999MA1101081999999REMMET051METAR SBIZ 071500Z 01011KT 9999 SCT020 32/23 Q1011;
0120825640999992007120716004-05533-047500FM-15+0131SBIZ V0200901N004112200019N0112651N1+03201+02301999999ADDGA1041+006001999GF104991999999999999999999MA1101021999999REMMET051METAR SBIZ 071600Z 09008KT 9999 SCT020 32/23 Q1010;
0120825640999992007120717004-05533-047500FM-15+0131SBIZ V0203601N004112200019N0112651N1+03401+02301999999ADDGA1041+006001999GF104991999999999999999999MA1100911999999REMMET051METAR SBIZ 071700Z 36008KT 9999 SCT020 34/23 Q1009;
0120825640999992007120719004-05533-047500FM-15+0131SBIZ V0203601N005112200019N0112651N1+03401+02201999999ADDGA1021+006001999GF102991999999999999999999MA1100711999999REMMET051METAR SBIZ 071900Z 36010KT 9999 FEW020 34/22 Q1007;
0146825640999992007120721004-05533-047500FM-15+0131SBIZ V0200901N001010900019N0112651N1+03101+02301999999ADDGA1021+007501021GA2071+090001999GF107991999999999999999999MA1100711999999REMMET061METAR SBIZ 072100Z 09002KT 9999 FEW025TCU BKN300 31/23 Q1007;
0146825640999992007120722004-05533-047500FM-15+0131SBIZ V0200901N004110900019N0112651N1+02901+02301999999ADDGA1021+007501021GA2071+090001999GF107991999999999999999999MA1100811999999REMMET061METAR SBIZ 072200Z 09008KT 9999 FEW025TCU BKN300 29/23 Q1008;
0072825640999992007120723004-05533-047500FM-15+0131SBIZ V0201201N00101220001CN0099001N1+02801+02401999999ADDMA1100911999999REMMET045METAR SBIZ 072300Z 12002KT CAVOK 28/24 Q1009;
0120825640999992007120800004-05533-047500FM-15+0131SBIZ V0201101N004112200019N0112651N1+02701+02301999999ADDGA1041+004501999GF104991999999999999999999MA1101021999999REMMET051METAR SBIZ 080000Z 11008KT 9999 SCT015 27/23 Q1010;
0120825640999992007120801004-05533-047500FM-15+0131SBIZ V0200901N002112200019N0112651N1+02701+02301999999ADDGA1021+004501999GF102991999999999999999999MA1101081999999REMMET051METAR SBIZ 080100Z 09004KT 9999 FEW015 27/23 Q1011;
0120825640999992007120802004-05533-047500FM-15+0131SBIZ V0209999C000012200019N0112651N1+02601+02201999999ADDGA1041+009001999GF104991999999999999999999MA1101081999999REMMET051METAR SBIZ 080200Z 00000KT 9999 SCT030 26/22 Q1011;
0120825640999992007120808004-05533-047500FM-15+0131SBIZ V0200601N002610060019N0112651N1+02501+02301999999ADDGA1071+006001999GF107991999999999999999999MA1100911999999REMMET051METAR SBIZ 080800Z 06005KT 9999 BKN020 25/23 Q1009;
0143825640999992007120809004-05533-047500FM-15+0131SBIZ V0209999C000010270019N0112651N1+02401+02301999999ADDGA1041+006001999GA2071+027001999GF107991999999999999999999MA1101021999999REMMET058METAR SBIZ 080900Z 00000KT 9999 SCT020 BKN090 24/23 Q1010;
0143825640999992007120810004-05533-047500FM-15+0131SBIZ V0200301N005110270019N0112651N1+02501+02301999999ADDGA1041+006001999GA2071+027001999GF107991999999999999999999MA1101021999999REMMET058METAR SBIZ 081000Z 03010KT 9999 SCT020 BKN090 25/23 Q1010;
0120825640999992007120811004-05533-047500FM-15+0131SBIZ V0203601N005110090019N0112651N1+02601+02301999999ADDGA1071+009001999GF107991999999999999999999MA1101081999999REMMET051METAR SBIZ 081100Z 36010KT 9999 BKN030 26/23 Q1011;
0143825640999992007120812004-05533-047500FM-15+0131SBIZ V0200701N005110900019N0112651N1+02801+02201999999ADDGA1041+006001999GA2071+090001999GF107991999999999999999999MA1101191999999REMMET058METAR SBIZ 081200Z 07010KT 9999 SCT020 BKN300 28/22 Q1012;
0143825640999992007120813004-05533-047500FM-15+0131SBIZ V0200901N005110900019N0112651N1+02901+02301999999ADDGA1041+006001999GA2071+090001999GF107991999999999999999999MA1101191999999REMMET058METAR SBIZ 081300Z 09010KT 9999 SCT020 BKN300 29/23 Q1012;
0143825640999992007120814004-05533-047500FM-15+0131SBIZ V0200601N005110060019N0112651N1+03201+02401999999ADDGA1071+006001999GA2071+090001999GF107991999999999999999999MA1101081999999REMMET058METAR SBIZ 081400Z 06010KT 9999 BKN020 BKN300 32/24 Q1011;
0166825640999992007120815004-05533-047500FM-15+0131SBIZ V0201201N004110060019N0112651N1+03201+02201999999ADDGA1021+004501999GA2071+006001999GA3071+090001999GF107991999999999999999999MA1101081999999REMMET065METAR SBIZ 081500Z 12008KT 9999 FEW015 BKN020 BKN300 32/22 Q1011;
0143825640999992007120816004-05533-047500FM-15+0131SBIZ V0203301N004110060019N0112651N1+03101+02201999999ADDGA1071+006001999GA2071+090001999GF107991999999999999999999MA1101021999999REMMET058METAR SBIZ 081600Z 33008KT 9999 BKN020 BKN300 31/22 Q1010;
0166825640999992007120817004-05533-047500FM-15+0131SBIZ V0203001N005110060019N0112651N1+03201+02401999999ADDGA1021+004501999GA2071+006001999GA3071+090001999GF107991999999999999999999MA1100811999999REMMET065METAR SBIZ 081700Z 30010KT 9999 FEW015 BKN020 BKN300 32/24 Q1008;
0166825640999992007120818004-05533-047500FM-15+0131SBIZ V0203601N009310060019N0112651N1+03101+02301999999ADDGA1041+004501999GA2071+006001999GA3081+090001999GF108991999999999999999999MA1100711999999REMMET065METAR SBIZ 081800Z 36018KT 9999 SCT015 BKN020 OVC300 31/23 Q1007;
0143825640999992007120819004-05533-047500FM-15+0131SBIZ V0203001N006210900019N0112651N1+03101+02401999999ADDGA1041+006001999GA2081+090001999GF108991999999999999999999MA1100711999999REMMET058METAR SBIZ 081900Z 30012KT 9999 SCT020 OVC300 31/24 Q1007;
0143825640999992007120820004-05533-047500FM-15+0131SBIZ V0202901N008210900019N0112651N1+03001+02301999999ADDGA1041+006001999GA2081+090001999GF108991999999999999999999MA1100711999999REMMET058METAR SBIZ 082000Z 29016KT 9999 SCT020 OVC300 30/23 Q1007;
0166825640999992007120821004-05533-047500FM-15+0131SBIZ V0202701N00511006001CN0112651N1+02901+02301999999ADDGA1021+004501999GA2041+006001999GA3081+090001999GF108991999999999999999999MA1100811999999REMMET065METAR SBIZ 082100Z 27010KT 9999 FEW015 SCT020 OVC300 29/23 Q1008;
0209825640999992007120822004-05533-047500FM-15+0131SBIZ V0202101N006210060019N0112651N1+02801+02301999999ADDGA1041+004501999GA2071+006001999GA3021+007501091GA4081+090001999GF108991999999999999999999MA1100911999999MW1801MW2951REMMET080METAR SBIZ 082200Z 21012KT 9999 -TSRA SCT015 BKN020 FEW025CB OVC300 28/23 Q1009;
0208825640999992007120823004-05533-047500FM-15+0131SBIZ V0202101N001010060019N0050001N1+02201+02101999999ADDGA1041+003001999GA2071+006001999GA3021+007501091GA4081+090001999GF108991999999999999999999MA1101081999999MW1811MW2951REMMET079METAR SBIZ 082300Z 21002KT 5000 TSRA SCT010 BKN020 FEW025CB OVC300 22/21 Q1011;
0209825640999992007120900004-05533-047500FM-15+0131SBIZ V0201801N00151006001CN0050001N1+02301+02201999999ADDGA1041+003001999GA2041+006001999GA3021+007501091GA4071+090001999GF107991999999999999999999MA1101291999999MW1801MW2951REMMET080METAR SBIZ 090000Z 18003KT 5000 -TSRA SCT010 SCT020 FEW025CB BKN300 23/22 Q1013;
0209825640999992007120901004-05533-047500FM-15+0131SBIZ V0209999C00001006001CN0050001N1+02301+02201999999ADDGA1041+003001999GA2041+006001999GA3021+007501091GA4081+021001999GF108991999999999999999999MA1101191999999MW1801MW2951REMMET080METAR SBIZ 090100Z 00000KT 5000 -TSRA SCT010 SCT020 FEW025CB OVC070 23/22 Q1012;
0209825640999992007120902004-05533-047500FM-15+0131SBIZ V0201101N00151006001CN0050001N1+02301+02201999999ADDGA1041+001801999GA2041+006001999GA3021+007501091GA4081+021001999GF108991999999999999999999MA1101291999999MW1801MW2951REMMET080METAR SBIZ 090200Z 11003KT 5000 -TSRA SCT006 SCT020 FEW025CB OVC070 23/22 Q1013;
0209825640999992007120903004-05533-047500FM-15+0131SBIZ V0209999C00001006001CN0050001N1+02301+02201999999ADDGA1041+001801999GA2041+006001999GA3021+007501091GA4081+021001999GF108991999999999999999999MA1101191999999MW1801MW2951REMMET080METAR SBIZ 090300Z 00000KT 5000 -TSRA SCT006 SCT020 FEW025CB OVC070 23/22 Q1012;
0120825640999992007120908004-05533-047500FM-15+0131SBIZ V0209999C000012200019N0080001N1+02201+02201999999ADDGA1021+002101999GF102991999999999999999999MA1101021999999REMMET051METAR SBIZ 090800Z 00000KT 8000 FEW007 22/22 Q1010;
0143825640999992007120909004-05533-047500FM-15+0131SBIZ V0209999C000010900019N0112651N1+02201+02201999999ADDGA1041+012001999GA2071+090001999GF107991999999999999999999MA1101081999999REMMET058METAR SBIZ 090900Z 00000KT 9999 SCT040 BKN300 22/22 Q1011;
0120825640999992007120910004-05533-047500FM-15+0131SBIZ V0209999C000010120019N0112651N1+02301+02201999999ADDGA1071+012001999GF107991999999999999999999MA1101191999999REMMET051METAR SBIZ 091000Z 00000KT 9999 BKN040 23/22 Q1012;
0120825640999992007120911004-05533-047500FM-15+0131SBIZ V0209999C000010120019N0112651N1+02401+02301999999ADDGA1081+012001999GF108991999999999999999999MA1101191999999REMMET051METAR SBIZ 091100Z 00000KT 9999 OVC040 24/23 Q1012;
0120825640999992007120912004-05533-047500FM-15+0131SBIZ V0203501N001010120019N0112651N1+02601+02401999999ADDGA1071+012001999GF107991999999999999999999MA1101191999999REMMET051METAR SBIZ 091200Z 35002KT 9999 BKN040 26/24 Q1012;
0143825640999992007120913004-05533-047500FM-15+0131SBIZ V0203001N001012200019N0112651N1+02801+02201999999ADDGA1021+006001999GA2041+090001999GF104991999999999999999999MA1101191999999REMMET058METAR SBIZ 091300Z 30002KT 9999 FEW020 SCT300 28/22 Q1012;
0120825640999992007120914004-05533-047500FM-15+0131SBIZ V0200501N001510060019N0112651N1+03001+02301999999ADDGA1071+006001999GF107991999999999999999999MA1101191999999REMMET051METAR SBIZ 091400Z 05003KT 9999 BKN020 30/23 Q1012;
0120825640999992007120915004-05533-047500FM-15+0131SBIZ V0200401N007710060019N0112651N1+03001+02401999999ADDGA1071+006001999GF107991999999999999999999MA1101081999999REMMET051METAR SBIZ 091500Z 04015KT 9999 BKN020 30/24 Q1011;
0143825640999992007120916004-05533-047500FM-15+0131SBIZ V0203301N005112200019N0112651N1+03001+02401999999ADDGA1041+006001999GA2041+009001999GF104991999999999999999999MA1101021999999REMMET058METAR SBIZ 091600Z 33010KT 9999 SCT020 SCT030 30/24 Q1010;
0136825640999992007120917004-05533-047500FM-15+0131SBIZ V0200901N00411220001CN0112651N1+03201+02401999999ADDGA1071+006001999GA2041+009001999MA1100911999999REMMET058METAR SBIZ 091700Z 09008KT 9999 BKN020 SCT030 32/24 Q1009;EQDQ01+000042SCOTCV
0143825640999992007120918004-05533-047500FM-15+0131SBIZ V0202801N001510900019N0112651N1+03101+02301999999ADDGA1041+006001999GA2071+090001999GF107991999999999999999999MA1100711999999REMMET058METAR SBIZ 091800Z 28003KT 9999 SCT020 BKN300 31/23 Q1007;
0143825640999992007120919004-05533-047500FM-15+0131SBIZ V0201801N002110900019N0112651N1+03001+02501999999ADDGA1041+006001999GA2071+090001999GF107991999999999999999999MA1100711999999REMMET058METAR SBIZ 091900Z 18004KT 9999 SCT020 BKN300 30/25 Q1007;
0143825640999992007120920004-05533-047500FM-15+0131SBIZ V0202101N001510900019N0112651N1+03001+02401999999ADDGA1041+006001999GA2071+090001999GF107991999999999999999999MA1100711999999REMMET058METAR SBIZ 092000Z 21003KT 9999 SCT020 BKN300 30/24 Q1007;
0146825640999992007120921004-05533-047500FM-15+0131SBIZ V0209999C000010900019N0112651N1+02801+02501999999ADDGA1021+007501021GA2081+090001999GF108991999999999999999999MA1100811999999REMMET061METAR SBIZ 092100Z 00000KT 9999 FEW025TCU OVC300 28/25 Q1008;
0072825640999992007120922004-05533-047500FM-15+0131SBIZ V0209999C00001220001CN0099001N1+02701+02401999999ADDMA1100911999999REMMET045METAR SBIZ 092200Z 00000KT CAVOK 27/24 Q1009;
0143825640999992007120923004-05533-047500FM-15+0131SBIZ V0200901N005110900019N0112651N1+02701+02201999999ADDGA1021+006001999GA2081+090001999GF108991999999999999999999MA1100911999999REMMET058METAR SBIZ 092300Z 09010KT 9999 FEW020 OVC300 27/22 Q1009;
0072825640999992007121000004-05533-047500FM-15+0131SBIZ V0203601N00211220001CN0099001N1+02501+02101999999ADDMA1100911999999REMMET045METAR SBIZ 100000Z 36004KT CAVOK 25/21 Q1009;
0072825640999992007121001004-05533-047500FM-15+0131SBIZ V0209999C00001220001CN0099001N1+02501+02201999999ADDMA1101021999999REMMET045METAR SBIZ 100100Z 00000KT CAVOK 25/22 Q1010;
0072825640999992007121002004-05533-047500FM-15+0131SBIZ V0200301N00151220001CN0099001N1+02401+02201999999ADDMA1101081999999REMMET045METAR SBIZ 100200Z 03003KT CAVOK 24/22 Q1011;
0072825640999992007121003004-05533-047500FM-15+0131SBIZ V0209999C00001220001CN0099001N1+02401+02201999999ADDMA1101081999999REMMET045METAR SBIZ 100300Z 00000KT CAVOK 24/22 Q1011;
0170825640999992007121008004-05533-047500FM-15+0131SBIZ V0200901N002612200019N0060001N1+02401+02201999999ADDGA1041+003601999GA2041+006001999GA3021+007501091MA1101021999999MW1171REMMET070METAR SBIZ 100800Z 09005KT 6000 TS SCT012 SCT020 FEW025CB 24/22 Q1010;EQDQ01+000022SCOTCV
0190825640999992007121009004-05533-047500FM-15+0131SBIZ V0201301N002110030019N0050001N1+02301+02301999999ADDGA1071+003001999GA2041+006001999GA3081+021001999GF108991999999999999999999MA1101081999999MW1101MW2611REMMET077METAR SBIZ 100900Z 13004KT 5000 -RA BR BKN010 SCT020 OVC070 23/23 Q1011 RETS;
0143825640999992007121010004-05533-047500FM-15+0131SBIZ V0200901N002612200019N0112651N1+02401+02301999999ADDGA1041+004501999GA2041+030001999GF104991999999999999999999MA1101081999999REMMET058METAR SBIZ 101000Z 09005KT 9999 SCT015 SCT100 24/23 Q1011;
0143825640999992007121011004-05533-047500FM-15+0131SBIZ V0201201N003112200019N0112651N1+02401+02301999999ADDGA1041+004501999GA2041+030001999GF104991999999999999999999MA1101081999999REMMET058METAR SBIZ 101100Z 12006KT 9999 SCT015 SCT100 24/23 Q1011;
0143825640999992007121012004-05533-047500FM-15+0131SBIZ V0200801N007712200019N0112651N1+02701+02301999999ADDGA1021+004501999GA2041+006001999GF104991999999999999999999MA1101081999999REMMET058METAR SBIZ 101200Z 08015KT 9999 FEW015 SCT020 27/23 Q1011;
0136825640999992007121013004-05533-047500FM-15+0131SBIZ V0200601N00621220001CN0112651N1+03001+02301999999ADDGA1071+006001999GA2041+030001999MA1101191999999REMMET058METAR SBIZ 101300Z 06012KT 9999 BKN020 SCT100 30/23 Q1012;EQDQ01+000042SCOTCV
0136825640999992007121014004-05533-047500FM-15+0131SBIZ V0200801N00511220001CN0112651N1+02901+02201999999ADDGA1071+006001999GA2041+030001999MA1101081999999REMMET058METAR SBIZ 101400Z 08010KT 9999 BKN020 SCT100 29/22 Q1011;EQDQ01+000042SCOTCV
0136825640999992007121015004-05533-047500FM-15+0131SBIZ V0200901N00511220001CN0112651N1+03001+02301999999ADDGA1071+006001999GA2041+030001999MA1101081999999REMMET058METAR SBIZ 101500Z 09010KT 9999 BKN020 SCT100 30/23 Q1011;EQDQ01+000042SCOTCV
0143825640999992007121017004-05533-047500FM-15+0131SBIZ V0201001N006212200019N0112651N1+03201+02101999999ADDGA1021+006001999GA2041+120001999GF104991999999999999999999MA1101021999999REMMET058METAR SBIZ 101700Z 10012KT 9999 FEW020 SCT400 32/21 Q1010;
0120825640999992007121019004-05533-047500FM-15+0131SBIZ V0201501N002612200019N0112651N1+03301+02201999999ADDGA1021+006001999GF102991999999999999999999MA1100811999999REMMET051METAR SBIZ 101900Z 15005KT 9999 FEW020 33/22 Q1008;
0143825640999992007121021004-05533-047500FM-15+0131SBIZ V0201501N001011200019N0112651N1+03101+02301999999ADDGA1021+006001999GA2071+120001999GF107991999999999999999999MA1100811999999REMMET058METAR SBIZ 102100Z 15002KT 9999 FEW020 BKN400 31/23 Q1008;
0143825640999992007121022004-05533-047500FM-15+0131SBIZ V0201601N001011200019N0112651N1+02901+02401999999ADDGA1021+006001999GA2071+120001999GF107991999999999999999999MA1100811999999REMMET058METAR SBIZ 102200Z 16002KT 9999 FEW020 BKN400 29/24 Q1008;
0143825640999992007121023004-05533-047500FM-15+0131SBIZ V0209999C000011200019N0112651N1+02701+02401999999ADDGA1021+006001999GA2071+120001999GF107991999999999999999999MA1100911999999REMMET058METAR SBIZ 102300Z 00000KT 9999 FEW020 BKN400 27/24 Q1009;
0143825640999992007121100004-05533-047500FM-15+0131SBIZ V0201201N001011200019N0112651N1+02601+02401999999ADDGA1021+006001999GA2071+120001999GF107991999999999999999999MA1101021999999REMMET058METAR SBIZ 110000Z 12002KT 9999 FEW020 BKN400 26/24 Q1010;
0143825640999992007121101004-05533-047500FM-15+0131SBIZ V0203601N003611200019N0112651N1+02701+02301999999ADDGA1021+006001999GA2071+120001999GF107991999999999999999999MA1101081999999REMMET058METAR SBIZ 110100Z 36007KT 9999 FEW020 BKN400 27/23 Q1011;
0120825640999992007121102004-05533-047500FM-15+0131SBIZ V0200301N004112200019N0112651N1+02601+02301999999ADDGA1021+006001999GF102991999999999999999999MA1101081999999REMMET051METAR SBIZ 110200Z 03008KT 9999 FEW020 26/23 Q1011;
0154825640999992007121103004-05533-047500FM-15+0131SBIZ V0201801N001012200019N0112651N1+02501+02401999999ADDGA1021+006001999GA2021+007501091GF102991999999999999999999MA1101081999999MW1171REMMET063METAR SBIZ 110300Z 18002KT 9999 TS FEW020 FEW025CB 25/24 Q1011;
0125825640999992007121104004-05533-047500FM-15+0131SBIZ V0201501N001012200019N0090001N1+02501+02401999999ADDGA1021+006001999GF102991999999999999999999MA1101021999999REMMET056METAR SBIZ 110400Z 15002KT 9000 FEW020 25/24 Q1010 RETS;
0120825640999992007121108004-05533-047500FM-15+0131SBIZ V0209999C000012200019N0080001N1+02401+02301999999ADDGF100991999999999999999999MA1101021999999REMMET048METAR SBIZ 110800Z 00000KT 8000 SKC 24/23 Q1010;EQDQ01    003SCCGA1
0143825640999992007121109004-05533-047500FM-15+0131SBIZ V0203301N001012200019N0112651N1+02301+02301999999ADDGA1041+012001999GA2041+090001999GF104991999999999999999999MA1101021999999REMMET058METAR SBIZ 110900Z 33002KT 9999 SCT040 SCT300 23/23 Q1010;
0143825640999992007121110004-05533-047500FM-15+0131SBIZ V0201201N002612200019N0112651N1+02401+02301999999ADDGA1021+012001999GA2041+030001999GF104991999999999999999999MA1101081999999REMMET058METAR SBIZ 111000Z 12005KT 9999 FEW040 SCT100 24/23 Q1011;
0072825640999992007121111004-05533-047500FM-15+0131SBIZ V0209999C00001220001CN0099001N1+02601+02301999999ADDMA1101081999999REMMET045METAR SBIZ 111100Z 00000KT CAVOK 26/23 Q1011;
0072825640999992007121112004-05533-047500FM-15+0131SBIZ V0201801N00211220001CN0099001N1+02801+02301999999ADDMA1101081999999REMMET045METAR SBIZ 111200Z 18004KT CAVOK 28/23 Q1011;
0143825640999992007121115004-05533-047500FM-15+0131SBIZ V0202501N004110060019N0112651N1+03401+02401999999ADDGA1071+006001999GA2071+030001999GF107991999999999999999999MA1101021999999REMMET058METAR SBIZ 111500Z 25008KT 9999 BKN020 BKN100 34/24 Q1010;
0143825640999992007121116004-05533-047500FM-15+0131SBIZ V0201201N002110060019N0112651N1+03401+02501999999ADDGA1071+006001999GA2071+120001999GF107991999999999999999999MA1101021999999REMMET058METAR SBIZ 111600Z 12004KT 9999 BKN020 BKN400 34/25 Q1010;
0143825640999992007121117004-05533-047500FM-15+0131SBIZ V0202501N001011200019N0112651N1+03301+02401999999ADDGA1041+006001999GA2071+120001999GF107991999999999999999999MA1100911999999REMMET058METAR SBIZ 111700Z 25002KT 9999 SCT020 BKN400 33/24 Q1009;
0166825640999992007121118004-05533-047500FM-15+0131SBIZ V0202501N00101006001CN0112651N1+03401+02301999999ADDGA1041+004501999GA2041+006001999GA3071+030001999GF107991999999999999999999MA1100711999999REMMET065METAR SBIZ 111800Z 25002KT 9999 SCT015 SCT020 BKN100 34/23 Q1007;
0143825640999992007121119004-05533-047500FM-15+0131SBIZ V0202701N001511200019N0112651N1+03301+02401999999ADDGA1041+004501999GA2071+120001999GF107991999999999999999999MA1100711999999REMMET058METAR SBIZ 111900Z 27003KT 9999 SCT015 BKN400 33/24 Q1007;
0192825640999992007121120004-05533-047500FM-15+0131SBIZ V0202501N00261007501CN0112651N1+03301+02401999999ADDGA1041+006001999GA2021+007501021GA3071+030001999GA4071+120001999GF107991999999999999999999MA1100711999999REMMET075METAR SBIZ 112000Z 25005KT 9999 SCT020 FEW025TCU BKN100 BKN400 33/24 Q1007;
0143825640999992007121121004-05533-047500FM-15+0131SBIZ V0203301N005110900019N0112651N1+03101+02401999999ADDGA1021+006001999GA2071+090001999GF107991999999999999999999MA1100711999999REMMET058METAR SBIZ 112100Z 33010KT 9999 FEW020 BKN300 31/24 Q1007;
0072825640999992007121122004-05533-047500FM-15+0131SBIZ V0203601N00261220001CN0099001N1+03001+02401999999ADDMA1100711999999REMMET045METAR SBIZ 112200Z 36005KT CAVOK 30/24 Q1007;
0120825640999992007121123004-05533-047500FM-15+0131SBIZ V0203601N001512200019N0112651N1+03001+02501999999ADDGA1021+006001999GF102991999999999999999999MA1100811999999REMMET051METAR SBIZ 112300Z 36003KT 9999 FEW020 30/25 Q1008;
0072825640999992007121200004-05533-047500FM-15+0131SBIZ V0209999C00001220001CN0099001N1+02901+02501999999ADDMA1100911999999REMMET045METAR SBIZ 120000Z 00000KT CAVOK 29/25 Q1009;
0072825640999992007121201004-05533-047500FM-15+0131SBIZ V0209999C00001220001CN0099001N1+02801+02501999999ADDMA1101021999999REMMET045METAR SBIZ 120100Z 00000KT CAVOK 28/25 Q1010;
0072825640999992007121202004-05533-047500FM-15+0131SBIZ V0209999C00001220001CN0099001N1+02701+02501999999ADDMA1100911999999REMMET045METAR SBIZ 120200Z 00000KT CAVOK 27/25 Q1009;
0072825640999992007121203004-05533-047500FM-15+0131SBIZ V0209999C00001220001CN0099001N1+02601+02501999999ADDMA1100911999999REMMET045METAR SBIZ 120300Z 00000KT CAVOK 26/25 Q1009;
0072825640999992007121204004-05533-047500FM-15+0131SBIZ V0209999C00001220001CN0099001N1+02601+02501999999ADDMA1100911999999REMMET045METAR SBIZ 120400Z 00000KT CAVOK 26/25 Q1009;
0120825640999992007121208004-05533-047500FM-15+0131SBIZ V0203501N003112200019N0080001N1+02501+02401999999ADDGA1021+004501999GF102991999999999999999999MA1100811999999REMMET051METAR SBIZ 120800Z 35006KT 8000 FEW015 25/24 Q1008;
0143825640999992007121209004-05533-047500FM-15+0131SBIZ V0201301N002612200019N0112651N1+02501+02401999999ADDGA1021+004501999GA2041+030001999GF104991999999999999999999MA1100911999999REMMET058METAR SBIZ 120900Z 13005KT 9999 FEW015 SCT100 25/24 Q1009;
0166825640999992007121210004-05533-047500FM-15+0131SBIZ V0209999C00001006001CN0112651N1+02501+02401999999ADDGA1021+004501999GA2041+006001999GA3071+030001999GF107991999999999999999999MA1100911999999REMMET065METAR SBIZ 121000Z 00000KT 9999 FEW015 SCT020 BKN100 25/24 Q1009;
0166825640999992007121211004-05533-047500FM-15+0131SBIZ V0201001N00261006001CN0112651N1+02701+02401999999ADDGA1021+004501999GA2041+006001999GA3071+030001999GF107991999999999999999999MA1101021999999REMMET065METAR SBIZ 121100Z 10005KT 9999 FEW015 SCT020 BKN100 27/24 Q1010;
0166825640999992007121212004-05533-047500FM-15+0131SBIZ V0201201N002110060019N0112651N1+02801+02401999999ADDGA1021+004501999GA2071+006001999GA3081+120001999GF108991999999999999999999MA1101081999999REMMET065METAR SBIZ 121200Z 12004KT 9999 FEW015 BKN020 OVC400 28/24 Q1011;
0143825640999992007121213004-05533-047500FM-15+0131SBIZ V0200801N004111200019N0112651N1+03001+02501999999ADDGA1041+004501999GA2081+120001999GF108991999999999999999999MA1101081999999REMMET058METAR SBIZ 121300Z 08008KT 9999 SCT015 OVC400 30/25 Q1011;
0143825640999992007121215004-05533-047500FM-15+0131SBIZ V0201201N005110060019N0112651N1+03101+02401999999ADDGA1071+006001999GA2071+090001999GF107991999999999999999999MA1100911999999REMMET058METAR SBIZ 121500Z 12010KT 9999 BKN020 BKN300 31/24 Q1009;
0143825640999992007121216004-05533-047500FM-15+0131SBIZ V0209999C000010900019N0112651N1+03201+02401999999ADDGA1021+006001999GA2071+090001999GF107991999999999999999999MA1100811999999REMMET058METAR SBIZ 121600Z 00000KT 9999 FEW020 BKN300 32/24 Q1008;
0143825640999992007121218004-05533-047500FM-15+0131SBIZ V0201201N005112200019N0112651N1+03401+02401999999ADDGA1041+006001999GA2041+090001999GF104991999999999999999999MA1100611999999REMMET058METAR SBIZ 121800Z 12010KT 9999 SCT020 SCT300 34/24 Q1006;
0143825640999992007121219004-05533-047500FM-15+0131SBIZ V0201201N005112200019N0112651N1+03401+02301999999ADDGA1041+006001999GA2041+090001999GF104991999999999999999999MA1100611999999REMMET058METAR SBIZ 121900Z 12010KT 9999 SCT020 SCT300 34/23 Q1006;
0143825640999992007121220004-05533-047500FM-15+0131SBIZ V0201201N004112200019N0112651N1+03301+02301999999ADDGA1041+006001999GA2041+090001999GF104991999999999999999999MA1100511999999REMMET058METAR SBIZ 122000Z 12008KT 9999 SCT020 SCT300 33/23 Q1005;
0143825640999992007121221004-05533-047500FM-15+0131SBIZ V0200901N001512200019N0112651N1+03201+02201999999ADDGA1021+006001999GA2041+090001999GF104991999999999999999999MA1100611999999REMMET058METAR SBIZ 122100Z 09003KT 9999 FEW020 SCT300 32/22 Q1006;
0143825640999992007121222004-05533-047500FM-15+0131SBIZ V0209999C000012200019N0112651N1+03001+02301999999ADDGA1021+006001999GA2041+090001999GF104991999999999999999999MA1100611999999REMMET058METAR SBIZ 122200Z 00000KT 9999 FEW020 SCT300 30/23 Q1006;
0072825640999992007121223004-05533-047500FM-15+0131SBIZ V0209999C00001220001CN0099001N1+02801+02401999999ADDMA1100611999999REMMET045METAR SBIZ 122300Z 00000KT CAVOK 28/24 Q1006;
0072825640999992007121300004-05533-047500FM-15+0131SBIZ V0209999C00001220001CN0099001N1+02701+02401999999ADDMA1100711999999REMMET045METAR SBIZ 130000Z 00000KT CAVOK 27/24 Q1007;
0072825640999992007121301004-05533-047500FM-15+0131SBIZ V0203201N00211220001CN0099001N1+02701+02501999999ADDMA1100811999999REMMET045METAR SBIZ 130100Z 32004KT CAVOK 27/25 Q1008;
0072825640999992007121302004-05533-047500FM-15+0131SBIZ V0203301N00311220001CN0099001N1+02701+02401999999ADDMA1100811999999REMMET045METAR SBIZ 130200Z 33006KT CAVOK 27/24 Q1008;
0129825640999992007121308004-05533-047500FM-15+0131SBIZ V0201001N001512200019N0045001N1+02501+02401999999ADDGA1041+003001999GF104991999999999999999999MA1100711999999MW1101REMMET054METAR SBIZ 130800Z 10003KT 4500 BR SCT010 25/24 Q1007;
0084825640999992007121308304-05533-047500FM-15+0131SBIZ V0203601N002612200019N9999999N1+02501+02401999999ADDMA1100701999999REMMET057METAR SBIZ 130830Z SPECI 36005KT 6000 FEW010 25/24 Q1007;
0120825640999992007121309004-05533-047500FM-15+0131SBIZ V0200901N004110045019N0080001N1+02501+02301999999ADDGA1081+004501999GF108991999999999999999999MA1100911999999REMMET051METAR SBIZ 130900Z 09008KT 8000 OVC015 25/23 Q1009;
0120825640999992007121310004-05533-047500FM-15+0131SBIZ V0200901N004110045019N0080001N1+02501+02301999999ADDGA1081+004501999GF108991999999999999999999MA1100911999999REMMET051METAR SBIZ 131000Z 09008KT 8000 OVC015 25/23 Q1009;
0120825640999992007121311004-05533-047500FM-15+0131SBIZ V0200501N001510060019N0080001N1+02501+02401999999ADDGA1081+006001999GF108991999999999999999999MA1101021999999REMMET051METAR SBIZ 131100Z 05003KT 8000 OVC020 25/24 Q1010;
0120825640999992007121313004-05533-047500FM-15+0131SBIZ V0200901N005110060019N0112651N1+02801+02301999999ADDGA1071+006001999GF107991999999999999999999MA1101081999999REMMET051METAR SBIZ 131300Z 09010KT 9999 BKN020 28/23 Q1011;
0120825640999992007121314004-05533-047500FM-15+0131SBIZ V0200901N005110060019N0112651N1+03001+02401999999ADDGA1071+006001999GF107991999999999999999999MA1101081999999REMMET051METAR SBIZ 131400Z 09010KT 9999 BKN020 30/24 Q1011;
0120825640999992007121315004-05533-047500FM-15+0131SBIZ V0200501N003110060019N0112651N1+03101+02301999999ADDGA1071+006001999GF107991999999999999999999MA1101021999999REMMET051METAR SBIZ 131500Z 05006KT 9999 BKN020 31/23 Q1010;
0143825640999992007121316004-05533-047500FM-15+0131SBIZ V0200901N005110060019N0112651N1+03201+02301999999ADDGA1071+006001999GA2071+090001999GF107991999999999999999999MA1100911999999REMMET058METAR SBIZ 131600Z 09010KT 9999 BKN020 BKN300 32/23 Q1009;
0143825640999992007121317004-05533-047500FM-15+0131SBIZ V0209999C000010900019N0112651N1+03301+02301999999ADDGA1041+006001999GA2071+090001999GF107991999999999999999999MA1100811999999REMMET058METAR SBIZ 131700Z 00000KT 9999 SCT020 BKN300 33/23 Q1008;
0143825640999992007121318004-05533-047500FM-15+0131SBIZ V0209999C000010900019N0112651N1+03401+02301999999ADDGA1041+006001999GA2081+090001999GF108991999999999999999999MA1100711999999REMMET058METAR SBIZ 131800Z 00000KT 9999 SCT020 OVC300 34/23 Q1007;
0166825640999992007121319004-05533-047500FM-15+0131SBIZ V0202301N002110120019N0112651N1+03201+02201999999ADDGA1021+006001999GA2071+012001999GA3081+090001999GF108991999999999999999999MA1100711999999REMMET065METAR SBIZ 131900Z 23004KT 9999 FEW020 BKN040 OVC300 32/22 Q1007;
0166825640999992007121320004-05533-047500FM-15+0131SBIZ V0202501N00101012001CN0112651N1+03101+02301999999ADDGA1021+006001999GA2041+012001999GA3081+090001999GF108991999999999999999999MA1100711999999REMMET065METAR SBIZ 132000Z 25002KT 9999 FEW020 SCT040 OVC300 31/23 Q1007;
0166825640999992007121321004-05533-047500FM-15+0131SBIZ V0209999C00001012001CN0112651N1+02901+02301999999ADDGA1021+006001999GA2041+012001999GA3081+090001999GF108991999999999999999999MA1100711999999REMMET065METAR SBIZ 132100Z 00000KT 9999 FEW020 SCT040 OVC300 29/23 Q1007;
0143825640999992007121322004-05533-047500FM-15+0131SBIZ V0209999C000010900019N0112651N1+02801+02401999999ADDGA1041+012001999GA2071+090001999GF107991999999999999999999MA1100711999999REMMET058METAR SBIZ 132200Z 00000KT 9999 SCT040 BKN300 28/24 Q1007;
0143825640999992007121323004-05533-047500FM-15+0131SBIZ V0209999C000010900019N0112651N1+02601+02401999999ADDGA1041+009001999GA2071+090001999GF107991999999999999999999MA1100811999999REMMET058METAR SBIZ 132300Z 00000KT 9999 SCT030 BKN300 26/24 Q1008;
0143825640999992007121400004-05533-047500FM-15+0131SBIZ V0200101N002612200019N0112651N1+02701+02201999999ADDGA1041+004501999GA2041+090001999GF104991999999999999999999MA1100911999999REMMET058METAR SBIZ 140000Z 01005KT 9999 SCT015 SCT300 27/22 Q1009;
0120825640999992007121401004-05533-047500FM-15+0131SBIZ V0209999C000012200019N0112651N1+02601+02201999999ADDGA1021+004501999GF102991999999999999999999MA1100911999999REMMET051METAR SBIZ 140100Z 00000KT 9999 FEW015 26/22 Q1009;
0147825640999992007121402004-05533-047500FM-15+0131SBIZ V0209999C000012200019N0112651N1+02601+02201999999ADDGA1041+006001999GA2021+007501091MA1101021999999MW1171REMMET063METAR SBIZ 140200Z 00000KT 9999 TS SCT020 FEW025CB 26/22 Q1010;EQDQ01+000022SCOTCV
0125825640999992007121403004-05533-047500FM-15+0131SBIZ V0203501N002112200019N0112651N1+02601+02201999999ADDGA1041+006001999GF104991999999999999999999MA1101021999999REMMET056METAR SBIZ 140300Z 35004KT 9999 SCT020 26/22 Q1010 RETS;
0072825640999992007121404004-05533-047500FM-15+0131SBIZ V0203601N00361220001CN0099001N1+02501+02201999999ADDMA1100911999999REMMET045METAR SBIZ 140400Z 36007KT CAVOK 25/22 Q1009;
0072825640999992007121408004-05533-047500FM-15+0131SBIZ V0200601N00261220001CN0099001N1+02401+02201999999ADDMA1100911999999REMMET045METAR SBIZ 140800Z 06005KT CAVOK 24/22 Q1009;
0072825640999992007121409004-05533-047500FM-15+0131SBIZ V0200601N00511220001CN0099001N1+02301+02201999999ADDMA1101021999999REMMET045METAR SBIZ 140900Z 06010KT CAVOK 23/22 Q1010;
0072825640999992007121410004-05533-047500FM-15+0131SBIZ V0203601N00261220001CN0099001N1+02401+02201999999ADDMA1101021999999REMMET045METAR SBIZ 141000Z 36005KT CAVOK 24/22 Q1010;
0143825640999992007121411004-05533-047500FM-15+0131SBIZ V0201201N001010900019N0112651N1+02601+02301999999ADDGA1021+006001999GA2071+090001999GF107991999999999999999999MA1101081999999REMMET058METAR SBIZ 141100Z 12002KT 9999 FEW020 BKN300 26/23 Q1011;
0143825640999992007121412004-05533-047500FM-15+0131SBIZ V0201801N002610060019N0112651N1+02701+02301999999ADDGA1071+006001999GA2071+090001999GF107991999999999999999999MA1101191999999REMMET058METAR SBIZ 141200Z 18005KT 9999 BKN020 BKN300 27/23 Q1012;
0143825640999992007121413004-05533-047500FM-15+0131SBIZ V0200901N004110060019N0112651N1+02901+02301999999ADDGA1071+006001999GA2071+090001999GF107991999999999999999999MA1101191999999REMMET058METAR SBIZ 141300Z 09008KT 9999 BKN020 BKN300 29/23 Q1012;
0143825640999992007121414004-05533-047500FM-15+0131SBIZ V0201201N004110900019N0112651N1+03101+02301999999ADDGA1041+006001999GA2071+090001999GF107991999999999999999999MA1101081999999REMMET058METAR SBIZ 141400Z 12008KT 9999 SCT020 BKN300 31/23 Q1011;
0143825640999992007121415004-05533-047500FM-15+0131SBIZ V0209999C000010900019N0112651N1+03201+02301999999ADDGA1041+006001999GA2071+090001999GF107991999999999999999999MA1101081999999REMMET058METAR SBIZ 141500Z 00000KT 9999 SCT020 BKN300 32/23 Q1011;
0143825640999992007121416004-05533-047500FM-15+0131SBIZ V0209999C000010900019N0112651N1+03201+02301999999ADDGA1041+006001999GA2081+090001999GF108991999999999999999999MA1101021999999REMMET058METAR SBIZ 141600Z 00000KT 9999 SCT020 OVC300 32/23 Q1010;
0143825640999992007121417004-05533-047500FM-15+0131SBIZ V0209999C000010900019N0112651N1+03201+02201999999ADDGA1041+006001999GA2071+090001999GF107991999999999999999999MA1100911999999REMMET058METAR SBIZ 141700Z 00000KT 9999 SCT020 BKN300 32/22 Q1009;
0143825640999992007121418004-05533-047500FM-15+0131SBIZ V0200901N003110900019N0112651N1+03201+02201999999ADDGA1041+006001999GA2071+090001999GF107991999999999999999999MA1100811999999REMMET058METAR SBIZ 141800Z 09006KT 9999 SCT020 BKN300 32/22 Q1008;
0143825640999992007121419004-05533-047500FM-15+0131SBIZ V0201201N002112200019N0112651N1+03201+02301999999ADDGA1041+006001999GA2041+090001999GF104991999999999999999999MA1100811999999REMMET058METAR SBIZ 141900Z 12004KT 9999 SCT020 SCT300 32/23 Q1008;
0120825640999992007121420004-05533-047500FM-15+0131SBIZ V0200301N005112200019N0112651N1+03301+02301999999ADDGA1021+006001999GF102991999999999999999999MA1100711999999REMMET051METAR SBIZ 142000Z 03010KT 9999 FEW020 33/23 Q1007;
0143825640999992007121421004-05533-047500FM-15+0131SBIZ V0209999C000011200019N0112651N1+03101+02301999999ADDGA1021+006001999GA2071+120001999GF107991999999999999999999MA1100711999999REMMET058METAR SBIZ 142100Z 00000KT 9999 FEW020 BKN400 31/23 Q1007;
0143825640999992007121422004-05533-047500FM-15+0131SBIZ V0203001N002611200019N0112651N1+02901+02301999999ADDGA1021+006001999GA2071+120001999GF107991999999999999999999MA1100811999999REMMET058METAR SBIZ 142200Z 30005KT 9999 FEW020 BKN400 29/23 Q1008;
0120825640999992007121423004-05533-047500FM-15+0131SBIZ V0203101N002612200019N0112651N1+02801+02301999999ADDGA1021+003601999GF102991999999999999999999MA1100811999999REMMET051METAR SBIZ 142300Z 31005KT 9999 FEW012 28/23 Q1008;
0120825640999992007121500004-05533-047500FM-15+0131SBIZ V0201501N001012200019N0112651N1+02701+02401999999ADDGA1021+003601999GF102991999999999999999999MA1100911999999REMMET051METAR SBIZ 150000Z 15002KT 9999 FEW012 27/24 Q1009;
0120825640999992007121501004-05533-047500FM-15+0131SBIZ V0201201N001012200019N0112651N1+02601+02401999999ADDGA1041+003901999GF104991999999999999999999MA1101021999999REMMET051METAR SBIZ 150100Z 12002KT 9999 SCT013 26/24 Q1010;
0120825640999992007121502004-05533-047500FM-15+0131SBIZ V0203301N002612200019N0112651N1+02701+02301999999ADDGA1021+003901999GF102991999999999999999999MA1101021999999REMMET051METAR SBIZ 150200Z 33005KT 9999 FEW013 27/23 Q1010;
0072825640999992007121503004-05533-047500FM-15+0131SBIZ V0203301N00211220001CN0099001N1+02601+02301999999ADDMA1100911999999REMMET045METAR SBIZ 150300Z 33004KT CAVOK 26/23 Q1009;
0072825640999992007121504004-05533-047500FM-15+0131SBIZ V0203101N00151220001CN0099001N1+02501+02301999999ADDMA1100911999999REMMET045METAR SBIZ 150400Z 31003KT CAVOK 25/23 Q1009;
0120825640999992007121508004-05533-047500FM-15+0131SBIZ V0209999C000012200019N0080001N1+02301+02201999999ADDGF100991999999999999999999MA1100911999999REMMET048METAR SBIZ 150800Z 00000KT 8000 SKC 23/22 Q1009;EQDQ01    003SCCGA1
0072825640999992007121509004-05533-047500FM-15+0131SBIZ V0209999C00001220001CN0099001N1+02201+02201999999ADDMA1100911999999REMMET045METAR SBIZ 150900Z 00000KT CAVOK 22/22 Q1009;
0072825640999992007121510004-05533-047500FM-15+0131SBIZ V0200901N00311220001CN0099001N1+02301+02201999999ADDMA1101021999999REMMET045METAR SBIZ 151000Z 09006KT CAVOK 23/22 Q1010;
0072825640999992007121511004-05533-047500FM-15+0131SBIZ V0209999C00001220001CN0099001N1+02501+02401999999ADDMA1101021999999REMMET045METAR SBIZ 151100Z 00000KT CAVOK 25/24 Q1010;
0120825640999992007121512004-05533-047500FM-15+0131SBIZ V0209999C000012200019N0112651N1+02801+02401999999ADDGA1041+006001999GF104991999999999999999999MA1101081999999REMMET051METAR SBIZ 151200Z 00000KT 9999 SCT020 28/24 Q1011;
0120825640999992007121513004-05533-047500FM-15+0131SBIZ V0202401N004112200019N0112651N1+03001+02401999999ADDGA1041+006001999GF104991999999999999999999MA1101081999999REMMET051METAR SBIZ 151300Z 24008KT 9999 SCT020 30/24 Q1011;
0143825640999992007121514004-05533-047500FM-15+0131SBIZ V0200301N005112200019N0112651N1+03101+02301999999ADDGA1041+006001999GA2041+036001999GF104991999999999999999999MA1101081999999REMMET058METAR SBIZ 151400Z 03010KT 9999 SCT020 SCT120 31/23 Q1011;
0120825640999992007121515004-05533-047500FM-15+0131SBIZ V0203301N002612200019N0112651N1+03301+02201999999ADDGA1041+006001999GF104991999999999999999999MA1101021999999REMMET051METAR SBIZ 151500Z 33005KT 9999 SCT020 33/22 Q1010;
0120825640999992007121516004-05533-047500FM-15+0131SBIZ V0209999C000012200019N0112651N1+03301+02301999999ADDGA1041+006001999GF104991999999999999999999MA1100911999999REMMET051METAR SBIZ 151600Z 00000KT 9999 SCT020 33/23 Q1009;
0120825640999992007121517004-05533-047500FM-15+0131SBIZ V0202701N005112200019N0112651N1+03401+02201999999ADDGA1041+006001999GF104991999999999999999999MA1100811999999REMMET051METAR SBIZ 151700Z 27010KT 9999 SCT020 34/22 Q1008;
0120825640999992007121518004-05533-047500FM-15+0131SBIZ V0203101N002612200019N0112651N1+03501+02201999999ADDGA1041+006001999GF104991999999999999999999MA1100611999999REMMET051METAR SBIZ 151800Z 31005KT 9999 SCT020 35/22 Q1006;
0120825640999992007121519004-05533-047500FM-15+0131SBIZ V0203101N003612200019N0112651N1+03501+02101999999ADDGA1041+006001999GF104991999999999999999999MA1100611999999REMMET051METAR SBIZ 151900Z 31007KT 9999 SCT020 35/21 Q1006;
0120825640999992007121520004-05533-047500FM-15+0131SBIZ V0203501N005112200019N0112651N1+03401+02101999999ADDGA1041+006001999GF104991999999999999999999MA1100511999999REMMET051METAR SBIZ 152000Z 35010KT 9999 SCT020 34/21 Q1005;
0143825640999992007121521004-05533-047500FM-15+0131SBIZ V0203301N004612200019N0112651N1+03201+02201999999ADDGA1021+006001999GA2041+120001999GF104991999999999999999999MA1100511999999REMMET058METAR SBIZ 152100Z 33009KT 9999 FEW020 SCT400 32/22 Q1005;
0120825640999992007121522004-05533-047500FM-15+0131SBIZ V0203101N002112200019N0112651N1+03001+02201999999ADDGA1021+006001999GF102991999999999999999999MA1100511999999REMMET051METAR SBIZ 152200Z 31004KT 9999 FEW020 30/22 Q1005;
0120825640999992007121523004-05533-047500FM-15+0131SBIZ V0203601N001512200019N0112651N1+03001+02201999999ADDGA1021+006001999GF102991999999999999999999MA1100611999999REMMET051METAR SBIZ 152300Z 36003KT 9999 FEW020 30/22 Q1006;
0072825640999992007121608004-05533-047500FM-15+0131SBIZ V0209999C00001220001CN0099001N1+02301+02201999999ADDMA1100811999999REMMET045METAR SBIZ 160800Z 00000KT CAVOK 23/22 Q1008;
0143825640999992007121609004-05533-047500FM-15+0131SBIZ V0203601N002612200019N0112651N1+02401+02201999999ADDGA1021+009001999GA2041+090001999GF104991999999999999999999MA1100911999999REMMET058METAR SBIZ 160900Z 36005KT 9999 FEW030 SCT300 24/22 Q1009;
0072825640999992007121610004-05533-047500FM-15+0131SBIZ V0203601N00361220001CN0099001N1+02501+02201999999ADDMA1101021999999REMMET045METAR SBIZ 161000Z 36007KT CAVOK 25/22 Q1010;
0143825640999992007121611004-05533-047500FM-15+0131SBIZ V0203601N004112200019N0112651N1+02601+02301999999ADDGA1021+004501999GA2041+006001999GF104991999999999999999999MA1101021999999REMMET058METAR SBIZ 161100Z 36008KT 9999 FEW015 SCT020 26/23 Q1010;
0143825640999992007121612004-05533-047500FM-15+0131SBIZ V0200301N002612200019N0112651N1+02901+02401999999ADDGA1021+004501999GA2041+006001999GF104991999999999999999999MA1101021999999REMMET058METAR SBIZ 161200Z 03005KT 9999 FEW015 SCT020 29/24 Q1010;
0120825640999992007121613004-05533-047500FM-15+0131SBIZ V0200401N005110060019N0112651N1+03001+02301999999ADDGA1071+006001999GF107991999999999999999999MA1101081999999REMMET051METAR SBIZ 161300Z 04010KT 9999 BKN020 30/23 Q1011;
0120825640999992007121614004-05533-047500FM-15+0131SBIZ V0200701N005110060019N0112651N1+03101+02301999999ADDGA1071+006001999GF107991999999999999999999MA1101021999999REMMET051METAR SBIZ 161400Z 07010KT 9999 BKN020 31/23 Q1010;
0120825640999992007121615004-05533-047500FM-15+0131SBIZ V0201401N002610060019N0112651N1+03201+02301999999ADDGA1071+006001999GF107991999999999999999999MA1101021999999REMMET051METAR SBIZ 161500Z 14005KT 9999 BKN020 32/23 Q1010;
0120825640999992007121616004-05533-047500FM-15+0131SBIZ V0201301N001010060019N0112651N1+03301+02401999999ADDGA1071+006001999GF107991999999999999999999MA1100911999999REMMET051METAR SBIZ 161600Z 13002KT 9999 BKN020 33/24 Q1009;
0143825640999992007121617004-05533-047500FM-15+0131SBIZ V0200601N002612200019N0112651N1+03201+02401999999ADDGA1021+005401999GA2041+006001999GF104991999999999999999999MA1100711999999REMMET058METAR SBIZ 161700Z 06005KT 9999 FEW018 SCT020 32/24 Q1007;
0120825640999992007121619004-05533-047500FM-15+0131SBIZ V0200501N002112200019N0112651N1+03301+02301999999ADDGA1041+006001999GF104991999999999999999999MA1100611999999REMMET051METAR SBIZ 161900Z 05004KT 9999 SCT020 33/23 Q1006;
0143825640999992007121620004-05533-047500FM-15+0131SBIZ V0203001N003612200019N0112651N1+03401+02301999999ADDGA1021+006001999GA2041+120001999GF104991999999999999999999MA1100511999999REMMET058METAR SBIZ 162000Z 30007KT 9999 FEW020 SCT400 34/23 Q1005;
0143825640999992007121621004-05533-047500FM-15+0131SBIZ V0202701N002610900019N0112651N1+03201+02301999999ADDGA1021+006001999GA2071+090001999GF107991999999999999999999MA1100611999999REMMET058METAR SBIZ 162100Z 27005KT 9999 FEW020 BKN300 32/23 Q1006;
0072825640999992007121622004-05533-047500FM-15+0131SBIZ V0209999C00001220001CN0099001N1+03001+02301999999ADDMA1100711999999REMMET045METAR SBIZ 162200Z 00000KT CAVOK 30/23 Q1007;
0120825640999992007121623004-05533-047500FM-15+0131SBIZ V0200301N005112200019N0112651N1+02901+02301999999ADDGA1041+006001999GF104991999999999999999999MA1100711999999REMMET051METAR SBIZ 162300Z 03010KT 9999 SCT020 29/23 Q1007;
0120825640999992007121700004-05533-047500FM-15+0131SBIZ V0200201N005112200019N0112651N1+02801+02301999999ADDGA1021+006001999GF102991999999999999999999MA1100911999999REMMET051METAR SBIZ 170000Z 02010KT 9999 FEW020 28/23 Q1009;
0120825640999992007121701004-05533-047500FM-15+0131SBIZ V0200301N005112200019N0112651N1+02701+02301999999ADDGA1041+006001999GF104991999999999999999999MA1100911999999REMMET051METAR SBIZ 170100Z 03010KT 9999 SCT020 27/23 Q1009;
0120825640999992007121702004-05533-047500FM-15+0131SBIZ V0200601N005110060019N0112651N1+02701+02301999999ADDGA1071+006001999GF107991999999999999999999MA1101021999999REMMET051METAR SBIZ 170200Z 06010KT 9999 BKN020 27/23 Q1010;
0120825640999992007121703004-05533-047500FM-15+0131SBIZ V0201201N002612200019N0112651N1+02701+02301999999ADDGA1041+006001999GF104991999999999999999999MA1101021999999REMMET051METAR SBIZ 170300Z 12005KT 9999 SCT020 27/23 Q1010;
0120825640999992007121708004-05533-047500FM-15+0131SBIZ V0201501N001010075019N0060001N1+02401+02201999999ADDGA1071+007501999GF107991999999999999999999MA1100811999999REMMET051METAR SBIZ 170800Z 15002KT 6000 BKN025 24/22 Q1008;
0120825640999992007121709004-05533-047500FM-15+0131SBIZ V0200501N001510120019N0080001N1+02401+02201999999ADDGA1081+012001999GF108991999999999999999999MA1100911999999REMMET051METAR SBIZ 170900Z 05003KT 8000 OVC040 24/22 Q1009;
0120825640999992007121710004-05533-047500FM-15+0131SBIZ V0201501N001510120019N0090001N1+02401+02201999999ADDGA1081+012001999GF108991999999999999999999MA1101021999999REMMET051METAR SBIZ 171000Z 15003KT 9000 OVC040 24/22 Q1010;
0120825640999992007121711004-05533-047500FM-15+0131SBIZ V0201301N002610120019N0112651N1+02501+02301999999ADDGA1081+012001999GF108991999999999999999999MA1101081999999REMMET051METAR SBIZ 171100Z 13005KT 9999 OVC040 25/23 Q1011;
0143825640999992007121712004-05533-047500FM-15+0131SBIZ V0201001N003610120019N0112651N1+02701+02301999999ADDGA1021+000301999GA2081+012001999GF108991999999999999999999MA1101191999999REMMET058METAR SBIZ 171200Z 10007KT 9999 FEW001 OVC040 27/23 Q1012;
0120825640999992007121713004-05533-047500FM-15+0131SBIZ V0201001N006710120019N0112651N1+02701+02201999999ADDGA1071+012001999GF107991999999999999999999MA1101191999999REMMET051METAR SBIZ 171300Z 10013KT 9999 BKN040 27/22 Q1012;
0120825640999992007121714004-05533-047500FM-15+0131SBIZ V0201101N003110120019N0112651N1+02801+02201999999ADDGA1081+012001999GF108991999999999999999999MA1101191999999REMMET051METAR SBIZ 171400Z 11006KT 9999 OVC040 28/22 Q1012;
0143825640999992007121715004-05533-047500FM-15+0131SBIZ V0201201N005110900019N0112651N1+03001+02201999999ADDGA1021+006001999GA2071+090001999GF107991999999999999999999MA1101081999999REMMET058METAR SBIZ 171500Z 12010KT 9999 FEW020 BKN300 30/22 Q1011;
0072825640999992007121716004-05533-047500FM-15+0131SBIZ V0200901N00411220001CN0099001N1+03001+02201999999ADDMA1101021999999REMMET045METAR SBIZ 171600Z 09008KT CAVOK 30/22 Q1010;
0072825640999992007121717004-05533-047500FM-15+0131SBIZ V0201501N00511220001CN0099001N1+03101+02201999999ADDMA1100911999999REMMET045METAR SBIZ 171700Z 15010KT CAVOK 31/22 Q1009;
0143825640999992007121719004-05533-047500FM-15+0131SBIZ V0201301N002610900019N0112651N1+03101+02301999999ADDGA1041+006001999GA2071+090001999GF107991999999999999999999MA1100711999999REMMET058METAR SBIZ 171900Z 13005KT 9999 SCT020 BKN300 31/23 Q1007;
0143825640999992007121720004-05533-047500FM-15+0131SBIZ V0202101N002610900019N0112651N1+03001+02301999999ADDGA1021+006001999GA2071+090001999GF107991999999999999999999MA1100711999999REMMET058METAR SBIZ 172000Z 21005KT 9999 FEW020 BKN300 30/23 Q1007;
0143825640999992007121721004-05533-047500FM-15+0131SBIZ V0201501N002110900019N0112651N1+02801+02301999999ADDGA1021+006001999GA2071+090001999GF107991999999999999999999MA1100811999999REMMET058METAR SBIZ 172100Z 15004KT 9999 FEW020 BKN300 28/23 Q1008;
0143825640999992007121722004-05533-047500FM-15+0131SBIZ V0209999C000010900019N0112651N1+02801+02301999999ADDGA1021+006001999GA2081+090001999GF108991999999999999999999MA1100911999999REMMET058METAR SBIZ 172200Z 00000KT 9999 FEW020 OVC300 28/23 Q1009;
0143825640999992007121723004-05533-047500FM-15+0131SBIZ V0209999C000010900019N0112651N1+02701+02301999999ADDGA1021+004501999GA2081+090001999GF108991999999999999999999MA1100911999999REMMET058METAR SBIZ 172300Z 00000KT 9999 FEW015 OVC300 27/23 Q1009;
0072825640999992007121800004-05533-047500FM-15+0131SBIZ V0209999C00001220001CN0099001N1+02601+02301999999ADDMA1101021999999REMMET045METAR SBIZ 180000Z 00000KT CAVOK 26/23 Q1010;
0143825640999992007121801004-05533-047500FM-15+0131SBIZ V0209999C000012200019N0112651N1+02601+02301999999ADDGA1041+012001999GA2041+090001999GF104991999999999999999999MA1101081999999REMMET058METAR SBIZ 180100Z 00000KT 9999 SCT040 SCT300 26/23 Q1011;
0120825640999992007121802004-05533-047500FM-15+0131SBIZ V0209999C000012200019N0112651N1+02601+02301999999ADDGA1021+006001999GF102991999999999999999999MA1101081999999REMMET051METAR SBIZ 180200Z 00000KT 9999 FEW020 26/23 Q1011;
0120825640999992007121803004-05533-047500FM-15+0131SBIZ V0209999C000012200019N0112651N1+02501+02301999999ADDGA1021+004501999GF102991999999999999999999MA1101081999999REMMET051METAR SBIZ 180300Z 00000KT 9999 FEW015 25/23 Q1011;
0120825640999992007121807154-05533-047500FM-15+0131SBIZ V0201201N001512200019N0060001N1+02501+02301999999ADDGA1041+006001999GF104991999999999999999999MA1101021999999REMMET051METAR SBIZ 180715Z 12003KT 6000 SCT020 25/23 Q1010;
0120825640999992007121808004-05533-047500FM-15+0131SBIZ V0201001N002612200019N0070001N1+02401+02301999999ADDGA1021+006001999GF102991999999999999999999MA1101021999999REMMET051METAR SBIZ 180800Z 10005KT 7000 FEW020 24/23 Q1010;
0120825640999992007121809004-05533-047500FM-15+0131SBIZ V0201201N001012200019N0090001N1+02401+02201999999ADDGA1021+006001999GF102991999999999999999999MA1101021999999REMMET051METAR SBIZ 180900Z 12002KT 9000 FEW020 24/22 Q1010;
0143825640999992007121810004-05533-047500FM-15+0131SBIZ V0201101N001512200019N0112651N1+02401+02301999999ADDGA1021+006001999GA2041+120001999GF104991999999999999999999MA1101081999999REMMET058METAR SBIZ 181000Z 11003KT 9999 FEW020 SCT400 24/23 Q1011;
0143825640999992007121811004-05533-047500FM-15+0131SBIZ V0201101N004112200019N0112651N1+02601+02201999999ADDGA1021+006001999GA2041+120001999GF104991999999999999999999MA1101081999999REMMET058METAR SBIZ 181100Z 11008KT 9999 FEW020 SCT400 26/22 Q1011;
0143825640999992007121812004-05533-047500FM-15+0131SBIZ V0200701N005710900019N0112651N1+03001+02201999999ADDGA1021+006001999GA2071+090001999GF107991999999999999999999MA1101191999999REMMET058METAR SBIZ 181200Z 07011KT 9999 FEW020 BKN300 30/22 Q1012;
0143825640999992007121813004-05533-047500FM-15+0131SBIZ V0200901N008212200019N0112651N1+03101+02101999999ADDGA1041+006001999GA2041+090001999GF104991999999999999999999MA1101191999999REMMET058METAR SBIZ 181300Z 09016KT 9999 SCT020 SCT300 31/21 Q1012;
0143825640999992007121814004-05533-047500FM-15+0131SBIZ V0200601N007712200019N0112651N1+03201+02301999999ADDGA1041+006001999GA2041+090001999GF104991999999999999999999MA1101191999999REMMET058METAR SBIZ 181400Z 06015KT 9999 SCT020 SCT300 32/23 Q1012;
0120825640999992007121815004-05533-047500FM-15+0131SBIZ V0200901N009310060019N0112651N1+03301+02201999999ADDGA1071+006001999GF107991999999999999999999MA1101081999999REMMET051METAR SBIZ 181500Z 09018KT 9999 BKN020 33/22 Q1011;
0120825640999992007121816004-05533-047500FM-15+0131SBIZ V0200901N004110060019N0112651N1+03401+02201999999ADDGA1071+006001999GF107991999999999999999999MA1101021999999REMMET051METAR SBIZ 181600Z 09008KT 9999 BKN020 34/22 Q1010;
0120825640999992007121817004-05533-047500FM-15+0131SBIZ V0200601N009310060019N0112651N1+03501+02101999999ADDGA1071+006001999GF107991999999999999999999MA1100911999999REMMET051METAR SBIZ 181700Z 06018KT 9999 BKN020 35/21 Q1009;
0120825640999992007121818004-05533-047500FM-15+0131SBIZ V0200901N004112200019N0112651N1+03301+02101999999ADDGA1041+006001999GF104991999999999999999999MA1100811999999REMMET051METAR SBIZ 181800Z 09008KT 9999 SCT020 33/21 Q1008;
0120825640999992007121819004-05533-047500FM-15+0131SBIZ V0200901N004112200019N0112651N1+03201+02101999999ADDGA1041+006001999GF104991999999999999999999MA1100711999999REMMET051METAR SBIZ 181900Z 09008KT 9999 SCT020 32/21 Q1007;
0189825640999992007121820004-05533-047500FM-15+0131SBIZ V0200501N01031220001CN0020001N1+02901+02401999999ADDGA1041+004501999GA2071+006001999GA3021+007501091MA1100811999999MW1811MW2951OC102061REMMET075METAR SBIZ 182000Z 05020G40KT 2000 TSRA SCT015 BKN020 FEW025CB 29/24 Q1008;EQDQ01+000022SCOTCV
0179825640999992007121821004-05533-047500FM-15+0131SBIZ V0203101N006212200019N0050001N1+02501+02301999999ADDGA1041+004501999GA2041+006001999GA3021+007501091MA1100811999999MW1801MW2951REMMET073METAR SBIZ 182100Z 31012KT 5000 -TSRA SCT015 SCT020 FEW025CB 25/23 Q1008;EQDQ01+000022SCOTCV
0158825640999992007121822004-05533-047500FM-15+0131SBIZ V0209999C000012200019N0112651N1+02501+02401999999ADDGA1041+004501999GA2041+006001999GF104991999999999999999999MA1100811999999MW1611REMMET067METAR SBIZ 182200Z 00000KT 9999 -RA SCT015 SCT020 25/24 Q1008 RETS;
0143825640999992007121823004-05533-047500FM-15+0131SBIZ V0209999C000012200019N0112651N1+02501+02401999999ADDGA1021+006001999GA2041+009001999GF104991999999999999999999MA1100911999999REMMET058METAR SBIZ 182300Z 00000KT 9999 FEW020 SCT030 25/24 Q1009;
0143825640999992007121900004-05533-047500FM-15+0131SBIZ V0209999C000012200019N0112651N1+02501+02401999999ADDGA1041+009001999GA2041+030001999GF104991999999999999999999MA1101021999999REMMET058METAR SBIZ 190000Z 00000KT 9999 SCT030 SCT100 25/24 Q1010;
0120825640999992007121901004-05533-047500FM-15+0131SBIZ V0209999C000012200019N0112651N1+02501+02401999999ADDGA1041+006001999GF104991999999999999999999MA1101021999999REMMET051METAR SBIZ 190100Z 00000KT 9999 SCT020 25/24 Q1010;
0120825640999992007121902004-05533-047500FM-15+0131SBIZ V0209999C000012200019N0112651N1+02501+02401999999ADDGA1041+006001999GF104991999999999999999999MA1101081999999REMMET051METAR SBIZ 190200Z 00000KT 9999 SCT020 25/24 Q1011;
0120825640999992007121903004-05533-047500FM-15+0131SBIZ V0201801N002612200019N0112651N1+02501+02401999999ADDGA1041+004501999GF104991999999999999999999MA1101081999999REMMET051METAR SBIZ 190300Z 18005KT 9999 SCT015 25/24 Q1011;
0072825640999992007121904004-05533-047500FM-15+0131SBIZ V0209999C00001220001CN0099001N1+02401+02401999999ADDMA1101021999999REMMET045METAR SBIZ 190400Z 00000KT CAVOK 24/24 Q1010;
0120825640999992007121905004-05533-047500FM-15+0131SBIZ V0201101N005112200019N0112651N1+02401+02401999999ADDGA1041+004501999GF104991999999999999999999MA1100911999999REMMET051METAR SBIZ 190500Z 11010KT 9999 SCT015 24/24 Q1009;
0120825640999992007121908004-05533-047500FM-15+0131SBIZ V0209999C000012200019N0080001N1+02401+02301999999ADDGA1041+006001999GF104991999999999999999999MA1101021999999REMMET051METAR SBIZ 190800Z 00000KT 8000 SCT020 24/23 Q1010;
0120825640999992007121909004-05533-047500FM-15+0131SBIZ V0209999C000010090019N0112651N1+02401+02301999999ADDGA1071+009001999GF107991999999999999999999MA1101081999999REMMET051METAR SBIZ 190900Z 00000KT 9999 BKN030 24/23 Q1011;
0120825640999992007121910004-05533-047500FM-15+0131SBIZ V0200701N004612200019N0112651N1+02501+02401999999ADDGA1041+009001999GF104991999999999999999999MA1101081999999REMMET051METAR SBIZ 191000Z 07009KT 9999 SCT030 25/24 Q1011;
0072825640999992007121911004-05533-047500FM-15+0131SBIZ V0209999C00001220001CN0099001N1+02601+02301999999ADDMA1101081999999REMMET045METAR SBIZ 191100Z 00000KT CAVOK 26/23 Q1011;
0072825640999992007121912004-05533-047500FM-15+0131SBIZ V0200601N00511220001CN0099001N1+02901+02201999999ADDMA1101191999999REMMET045METAR SBIZ 191200Z 06010KT CAVOK 29/22 Q1012;
0120825640999992007121913004-05533-047500FM-15+0131SBIZ V0200901N005112200019N0112651N1+03101+02301999999ADDGA1021+006001999GF102991999999999999999999MA1101081999999REMMET051METAR SBIZ 191300Z 09010KT 9999 FEW020 31/23 Q1011;
0120825640999992007121914004-05533-047500FM-15+0131SBIZ V0201501N002112200019N0112651N1+03101+02301999999ADDGA1041+006001999GF104991999999999999999999MA1101081999999REMMET051METAR SBIZ 191400Z 15004KT 9999 SCT020 31/23 Q1011;
0120825640999992007121915004-05533-047500FM-15+0131SBIZ V0201201N004110060019N0112651N1+03301+02201999999ADDGA1071+006001999GF107991999999999999999999MA1101081999999REMMET051METAR SBIZ 191500Z 12008KT 9999 BKN020 33/22 Q1011;
0120825640999992007121916004-05533-047500FM-15+0131SBIZ V0200901N005112200019N0112651N1+03401+02301999999ADDGA1041+006001999GF104991999999999999999999MA1101021999999REMMET051METAR SBIZ 191600Z 09010KT 9999 SCT020 34/23 Q1010;
0120825640999992007121917004-05533-047500FM-15+0131SBIZ V0200901N005112200019N0112651N1+03501+02301999999ADDGA1041+006001999GF104991999999999999999999MA1100811999999REMMET051METAR SBIZ 191700Z 09010KT 9999 SCT020 35/23 Q1008;
0120825640999992007121918004-05533-047500FM-15+0131SBIZ V0201501N002112200019N0112651N1+03501+02101999999ADDGA1041+006001999GF104991999999999999999999MA1100711999999REMMET051METAR SBIZ 191800Z 15004KT 9999 SCT020 35/21 Q1007;
0170825640999992007121920004-05533-047500FM-15+0131SBIZ V0203201N002112200019N0112651N1+03001+02201999999ADDGA1041+004501999GA2041+006001999GA3021+007501091MA1100611999999MW1171REMMET070METAR SBIZ 192000Z 32004KT 9999 TS SCT015 SCT020 FEW025CB 30/22 Q1006;EQDQ01+000022SCOTCV
0148825640999992007121921004-05533-047500FM-15+0131SBIZ V0203301N005110060019N0112651N1+02901+02401999999ADDGA1041+004501999GA2071+006001999GF107991999999999999999999MA1100711999999REMMET063METAR SBIZ 192100Z 33010KT 9999 SCT015 BKN020 29/24 Q1007 RETS;
0143825640999992007121922004-05533-047500FM-15+0131SBIZ V0203001N002612200019N0112651N1+02801+02401999999ADDGA1041+004501999GA2041+006001999GF104991999999999999999999MA1100711999999REMMET058METAR SBIZ 192200Z 30005KT 9999 SCT015 SCT020 28/24 Q1007;
0120825640999992007121923004-05533-047500FM-15+0131SBIZ V0209999C000012200019N0112651N1+02701+02401999999ADDGA1041+004501999GF104991999999999999999999MA1100811999999REMMET051METAR SBIZ 192300Z 00000KT 9999 SCT015 27/24 Q1008;
0120825640999992007122000004-05533-047500FM-15+0131SBIZ V0209999C000010045019N0112651N1+02701+02401999999ADDGA1071+004501999GF107991999999999999999999MA1100911999999REMMET051METAR SBIZ 200000Z 00000KT 9999 BKN015 27/24 Q1009;
0120825640999992007122001004-05533-047500FM-15+0131SBIZ V0209999C000010045019N0080001N1+02701+02401999999ADDGA1071+004501999GF107991999999999999999999MA1101021999999REMMET051METAR SBIZ 200100Z 00000KT 8000 BKN015 27/24 Q1010;
0120825640999992007122002004-05533-047500FM-15+0131SBIZ V0209999C000012200019N0080001N1+02601+02401999999ADDGA1041+004501999GF104991999999999999999999MA1101021999999REMMET051METAR SBIZ 200200Z 00000KT 8000 SCT015 26/24 Q1010;
0120825640999992007122003004-05533-047500FM-15+0131SBIZ V0209999C000012200019N0080001N1+02601+02401999999ADDGA1041+004501999GF104991999999999999999999MA1100911999999REMMET051METAR SBIZ 200300Z 00000KT 8000 SCT015 26/24 Q1009;
0120825640999992007122004004-05533-047500FM-15+0131SBIZ V0209999C000012200019N0080001N1+02501+02401999999ADDGF100991999999999999999999MA1100911999999REMMET048METAR SBIZ 200400Z 00000KT 8000 SKC 25/24 Q1009;EQDQ01    003SCCGA1
0120825640999992007122005004-05533-047500FM-15+0131SBIZ V0209999C000012200019N0080001N1+02501+02401999999ADDGF100991999999999999999999MA1100811999999REMMET048METAR SBIZ 200500Z 00000KT 8000 SKC 25/24 Q1008;EQDQ01    003SCCGA1
0120825640999992007122008004-05533-047500FM-15+0131SBIZ V0201101N001010045019N0080001N1+02501+02401999999ADDGA1071+004501999GF107991999999999999999999MA1100911999999REMMET051METAR SBIZ 200800Z 11002KT 8000 BKN015 25/24 Q1009;
0120825640999992007122009004-05533-047500FM-15+0131SBIZ V0203601N001012200019N0080001N1+02501+02401999999ADDGA1041+004501999GF104991999999999999999999MA1101021999999REMMET051METAR SBIZ 200900Z 36002KT 8000 SCT015 25/24 Q1010;
0166825640999992007122010004-05533-047500FM-15+0131SBIZ V0209999C00001030001CN0112651N1+02501+02401999999ADDGA1021+004501999GA2041+030001999GA3081+090001999GF108991999999999999999999MA1101021999999REMMET065METAR SBIZ 201000Z 00000KT 9999 FEW015 SCT100 OVC300 25/24 Q1010;
0143825640999992007122011004-05533-047500FM-15+0131SBIZ V0201101N001010900019N0112651N1+02601+02401999999ADDGA1041+009001999GA2071+090001999GF107991999999999999999999MA1101081999999REMMET058METAR SBIZ 201100Z 11002KT 9999 SCT030 BKN300 26/24 Q1011;
0143825640999992007122012004-05533-047500FM-15+0131SBIZ V0200301N004110900019N0112651N1+02701+02201999999ADDGA1041+006001999GA2081+090001999GF108991999999999999999999MA1101191999999REMMET058METAR SBIZ 201200Z 03008KT 9999 SCT020 OVC300 27/22 Q1012;
0143825640999992007122013004-05533-047500FM-15+0131SBIZ V0203601N001012200019N0112651N1+02901+02301999999ADDGA1041+006001999GA2041+090001999GF104991999999999999999999MA1101081999999REMMET058METAR SBIZ 201300Z 36002KT 9999 SCT020 SCT300 29/23 Q1011;
0120825640999992007122014004-05533-047500FM-15+0131SBIZ V0209999C000012200019N0112651N1+03101+02201999999ADDGA1041+006001999GF104991999999999999999999MA1101081999999REMMET051METAR SBIZ 201400Z 00000KT 9999 SCT020 31/22 Q1011;
0120825640999992007122015004-05533-047500FM-15+0131SBIZ V0203001N005112200019N0112651N1+03301+02301999999ADDGA1041+006001999GF104991999999999999999999MA1101021999999REMMET051METAR SBIZ 201500Z 30010KT 9999 SCT020 33/23 Q1010;
0120825640999992007122016004-05533-047500FM-15+0131SBIZ V0201801N004612200019N0112651N1+03401+02301999999ADDGA1041+006001999GF104991999999999999999999MA1100911999999REMMET051METAR SBIZ 201600Z 18009KT 9999 SCT020 34/23 Q1009;
0120825640999992007122017004-05533-047500FM-15+0131SBIZ V0202801N002612200019N0112651N1+03401+02301999999ADDGA1041+006001999GF104991999999999999999999MA1100811999999REMMET051METAR SBIZ 201700Z 28005KT 9999 SCT020 34/23 Q1008;
0143825640999992007122019004-05533-047500FM-15+0131SBIZ V0202201N003112200019N0112651N1+03501+02301999999ADDGA1041+006001999GA2041+090001999GF104991999999999999999999MA1100611999999REMMET058METAR SBIZ 201900Z 22006KT 9999 SCT020 SCT300 35/23 Q1006;
0120825640999992007122020004-05533-047500FM-15+0131SBIZ V0202501N004112200019N0112651N1+03401+02201999999ADDGA1041+006001999GF104991999999999999999999MA1100611999999REMMET051METAR SBIZ 202000Z 25008KT 9999 SCT020 34/22 Q1006;
0143825640999992007122021004-05533-047500FM-15+0131SBIZ V0202001N001012200019N0112651N1+03301+02301999999ADDGA1021+006001999GA2041+090001999GF104991999999999999999999MA1100611999999REMMET058METAR SBIZ 202100Z 20002KT 9999 FEW020 SCT300 33/23 Q1006;
0143825640999992007122022004-05533-047500FM-15+0131SBIZ V0202901N001012200019N0112651N1+03101+02301999999ADDGA1021+006001999GA2041+090001999GF104991999999999999999999MA1100711999999REMMET058METAR SBIZ 202200Z 29002KT 9999 FEW020 SCT300 31/23 Q1007;
0143825640999992007122023004-05533-047500FM-15+0131SBIZ V0202801N004112200019N0112651N1+03001+02401999999ADDGA1021+006001999GA2041+090001999GF104991999999999999999999MA1100711999999REMMET058METAR SBIZ 202300Z 28008KT 9999 FEW020 SCT300 30/24 Q1007;
0120825640999992007122100004-05533-047500FM-15+0131SBIZ V0202701N002610060019N0112651N1+02801+02501999999ADDGA1071+006001999GF107991999999999999999999MA1100911999999REMMET051METAR SBIZ 210000Z 27005KT 9999 BKN020 28/25 Q1009;
0169825640999992007122101004-05533-047500FM-15+0131SBIZ V0203001N003612200019N0112651N1+02701+02401999999ADDGA1041+006001999GA2021+007501021GA3041+090001999GF104991999999999999999999MA1100911999999REMMET068METAR SBIZ 210100Z 30007KT 9999 SCT020 FEW025TCU SCT300 27/24 Q1009;
0143825640999992007122102004-05533-047500FM-15+0131SBIZ V0202801N004110900019N0112651N1+02701+02401999999ADDGA1041+006001999GA2071+090001999GF107991999999999999999999MA1101021999999REMMET058METAR SBIZ 210200Z 28008KT 9999 SCT020 BKN300 27/24 Q1010;
0186825640999992007122103004-05533-047500FM-15+0131SBIZ V0203101N005110060019N0070001N1+02701+02501999999ADDGA1071+006001999GA2041+007501091GA3071+090001999GF107991999999999999999999MA1100911999999MW1801MW2951REMMET073METAR SBIZ 210300Z 31010KT 7000 -TSRA BKN020 SCT025CB BKN300 27/25 Q1009;
0177825640999992007122104004-05533-047500FM-15+0131SBIZ V0203301N004610060019N0080001N1+02601+02401999999ADDGA1071+006001999GA2021+007501091GA3071+090001999GF107991999999999999999999MA1100911999999MW1171REMMET070METAR SBIZ 210400Z 33009KT 8000 TS BKN020 FEW025CB BKN300 26/24 Q1009;
0152825640999992007122108004-05533-047500FM-15+0131SBIZ V0200401N003112200019N0050001N1+02501+02401999999ADDGA1021+003001999GA2041+004501999GF104991999999999999999999MA1101021999999MW1101REMMET061METAR SBIZ 210800Z 04006KT 5000 BR FEW010 SCT015 25/24 Q1010;
0143825640999992007122109004-05533-047500FM-15+0131SBIZ V0200901N001510060019N0080001N1+02501+02401999999ADDGA1041+004501999GA2071+006001999GF107991999999999999999999MA1101021999999REMMET058METAR SBIZ 210900Z 09003KT 8000 SCT015 BKN020 25/24 Q1010;
0166825640999992007122110004-05533-047500FM-15+0131SBIZ V0203301N001010045019N0112651N1+02601+02401999999ADDGA1071+004501999GA2041+006001999GA3071+090001999GF107991999999999999999999MA1101081999999REMMET065METAR SBIZ 211000Z 33002KT 9999 BKN015 SCT020 BKN300 26/24 Q1011;
0143825640999992007122111004-05533-047500FM-15+0131SBIZ V0209999C000010900019N0112651N1+02701+02401999999ADDGA1021+006001999GA2071+090001999GF107991999999999999999999MA1101081999999REMMET058METAR SBIZ 211100Z 00000KT 9999 FEW020 BKN300 27/24 Q1011;
0143825640999992007122112004-05533-047500FM-15+0131SBIZ V0200701N007712200019N0112651N1+03001+02301999999ADDGA1041+006001999GA2041+090001999GF104991999999999999999999MA1101081999999REMMET058METAR SBIZ 211200Z 07015KT 9999 SCT020 SCT300 30/23 Q1011;
0136825640999992007122113004-05533-047500FM-15+0131SBIZ V0200701N00771220001CN0112651N1+03101+02301999999ADDGA1071+006001999GA2041+090001999MA1101191999999REMMET058METAR SBIZ 211300Z 07015KT 9999 BKN020 SCT300 31/23 Q1012;EQDQ01+000042SCOTCV
0120825640999992007122114004-05533-047500FM-15+0131SBIZ V0200601N004612200019N0112651N1+03101+02201999999ADDGA1041+006001999GF104991999999999999999999MA1101081999999REMMET051METAR SBIZ 211400Z 06009KT 9999 SCT020 31/22 Q1011;
0120825640999992007122115004-05533-047500FM-15+0131SBIZ V0200601N004110060019N0112651N1+03301+02401999999ADDGA1071+006001999GF107991999999999999999999MA1101021999999REMMET051METAR SBIZ 211500Z 06008KT 9999 BKN020 33/24 Q1010;
0120825640999992007122116004-05533-047500FM-15+0131SBIZ V0201001N001510060019N0112651N1+03301+02301999999ADDGA1071+006001999GF107991999999999999999999MA1100911999999REMMET051METAR SBIZ 211600Z 10003KT 9999 BKN020 33/23 Q1009;
0120825640999992007122117004-05533-047500FM-15+0131SBIZ V0201801N001010060019N0112651N1+03401+02401999999ADDGA1071+006001999GF107991999999999999999999MA1100911999999REMMET051METAR SBIZ 211700Z 18002KT 9999 BKN020 34/24 Q1009;
0120825640999992007122118004-05533-047500FM-15+0131SBIZ V0202801N001012200019N0112651N1+03401+02201999999ADDGA1041+006001999GF104991999999999999999999MA1100711999999REMMET051METAR SBIZ 211800Z 28002KT 9999 SCT020 34/22 Q1007;
0120825640999992007122119004-05533-047500FM-15+0131SBIZ V0200301N005112200019N0112651N1+03501+02301999999ADDGA1041+006001999GF104991999999999999999999MA1100611999999REMMET051METAR SBIZ 211900Z 03010KT 9999 SCT020 35/23 Q1006;
0120825640999992007122120004-05533-047500FM-15+0131SBIZ V0203301N001512200019N0112651N1+03301+02301999999ADDGA1041+006001999GF104991999999999999999999MA1100611999999REMMET051METAR SBIZ 212000Z 33003KT 9999 SCT020 33/23 Q1006;
0120825640999992007122121004-05533-047500FM-15+0131SBIZ V0203301N002612200019N0112651N1+03201+02301999999ADDGA1041+006001999GF104991999999999999999999MA1100711999999REMMET051METAR SBIZ 212100Z 33005KT 9999 SCT020 32/23 Q1007;
0120825640999992007122122004-05533-047500FM-15+0131SBIZ V0203001N004112200019N0112651N1+03001+02301999999ADDGA1021+006001999GF102991999999999999999999MA1100711999999REMMET051METAR SBIZ 212200Z 30008KT 9999 FEW020 30/23 Q1007;
0131825640999992007122123004-05533-047500FM-15+0131SBIZ V0200301N005712200019N0112651N1+03001+02301999999ADDGA1021+007501091GF102991999999999999999999MA1100811999999MW1171REMMET056METAR SBIZ 212300Z 03011KT 9999 TS FEW025CB 30/23 Q1008;
0147825640999992007122200004-05533-047500FM-15+0131SBIZ V0200701N00511220001CN0112651N1+02701+02201999999ADDGA1071+006001999GA2021+007501091MA1100911999999MW1171REMMET063METAR SBIZ 220000Z 07010KT 9999 TS BKN020 FEW025CB 27/22 Q1009;EQDQ01+000022SCOTCV
0147825640999992007122201004-05533-047500FM-15+0131SBIZ V0200901N00411220001CN0112651N1+02701+02201999999ADDGA1071+006001999GA2021+007501091MA1100911999999MW1171REMMET063METAR SBIZ 220100Z 09008KT 9999 TS BKN020 FEW025CB 27/22 Q1009;EQDQ01+000022SCOTCV
0120825640999992007122202004-05533-047500FM-15+0131SBIZ V0200901N005110060019N0112651N1+02601+02301999999ADDGA1071+006001999GF107991999999999999999999MA1101021999999REMMET051METAR SBIZ 220200Z 09010KT 9999 BKN020 26/23 Q1010;
0147825640999992007122203004-05533-047500FM-15+0131SBIZ V0201201N001512200019N0112651N1+02601+02301999999ADDGA1041+006001999GA2021+007501091MA1100911999999MW1171REMMET063METAR SBIZ 220300Z 12003KT 9999 TS SCT020 FEW025CB 26/23 Q1009;EQDQ01+000022SCOTCV
0147825640999992007122204004-05533-047500FM-15+0131SBIZ V0203001N001512200019N0112651N1+02601+02301999999ADDGA1041+006001999GA2021+007501091MA1101021999999MW1171REMMET063METAR SBIZ 220400Z 30003KT 9999 TS SCT020 FEW025CB 26/23 Q1010;EQDQ01+000022SCOTCV
0147825640999992007122208004-05533-047500FM-15+0131SBIZ V0203101N00151220001CN0070001N1+02501+02301999999ADDGA1071+006001999GA2021+007501091MA1101021999999MW1171REMMET063METAR SBIZ 220800Z 31003KT 7000 TS BKN020 FEW025CB 25/23 Q1010;EQDQ01+000022SCOTCV
0125825640999992007122209004-05533-047500FM-15+0131SBIZ V0200201N002610060019N0080001N1+02501+02301999999ADDGA1071+006001999GF107991999999999999999999MA1101081999999REMMET056METAR SBIZ 220900Z 02005KT 8000 BKN020 25/23 Q1011 RETS;
0166825640999992007122210004-05533-047500FM-15+0131SBIZ V0203501N001510060019N0090001N1+02501+02301999999ADDGA1021+000601999GA2071+006001999GA3081+021001999GF108991999999999999999999MA1101081999999REMMET065METAR SBIZ 221000Z 35003KT 9000 FEW002 BKN020 OVC070 25/23 Q1011;
0143825640999992007122211004-05533-047500FM-15+0131SBIZ V0200201N001510060019N0090001N1+02501+02301999999ADDGA1071+006001999GA2081+021001999GF108991999999999999999999MA1101191999999REMMET058METAR SBIZ 221100Z 02003KT 9000 BKN020 OVC070 25/23 Q1012;
0143825640999992007122212004-05533-047500FM-15+0131SBIZ V0201201N003110060019N0112651N1+02901+02401999999ADDGA1071+006001999GA2081+021001999GF108991999999999999999999MA1101191999999REMMET058METAR SBIZ 221200Z 12006KT 9999 BKN020 OVC070 29/24 Q1012;
0143825640999992007122213004-05533-047500FM-15+0131SBIZ V0200701N005110210019N0112651N1+03101+02401999999ADDGA1041+006001999GA2071+021001999GF107991999999999999999999MA1101191999999REMMET058METAR SBIZ 221300Z 07010KT 9999 SCT020 BKN070 31/24 Q1012;
0143825640999992007122214004-05533-047500FM-15+0131SBIZ V0200501N007710210019N0112651N1+03201+02301999999ADDGA1041+006001999GA2071+021001999GF107991999999999999999999MA1101191999999REMMET058METAR SBIZ 221400Z 05015KT 9999 SCT020 BKN070 32/23 Q1012;
0143825640999992007122215004-05533-047500FM-15+0131SBIZ V0200601N005110060019N0112651N1+03301+02301999999ADDGA1071+006001999GA2071+090001999GF107991999999999999999999MA1101081999999REMMET058METAR SBIZ 221500Z 06010KT 9999 BKN020 BKN300 33/23 Q1011;
0143825640999992007122216004-05533-047500FM-15+0131SBIZ V0203301N005110060019N0112651N1+03101+02301999999ADDGA1071+006001999GA2071+090001999GF107991999999999999999999MA1101021999999REMMET058METAR SBIZ 221600Z 33010KT 9999 BKN020 BKN300 31/23 Q1010;
0143825640999992007122217004-05533-047500FM-15+0131SBIZ V0200301N002610900019N0112651N1+03301+02301999999ADDGA1041+006001999GA2071+090001999GF107991999999999999999999MA1100911999999REMMET058METAR SBIZ 221700Z 03005KT 9999 SCT020 BKN300 33/23 Q1009;
0143825640999992007122218004-05533-047500FM-15+0131SBIZ V0203601N005110900019N0112651N1+03101+02401999999ADDGA1041+006001999GA2071+090001999GF107991999999999999999999MA1100811999999REMMET058METAR SBIZ 221800Z 36010KT 9999 SCT020 BKN300 31/24 Q1008;
0143825640999992007122219004-05533-047500FM-15+0131SBIZ V0203301N004110900019N0112651N1+03201+02301999999ADDGA1041+006001999GA2071+090001999GF107991999999999999999999MA1100811999999REMMET058METAR SBIZ 221900Z 33008KT 9999 SCT020 BKN300 32/23 Q1008;
0166825640999992007122220004-05533-047500FM-15+0131SBIZ V0203001N00411030001CN0112651N1+03101+02301999999ADDGA1021+006001999GA2041+030001999GA3071+090001999GF107991999999999999999999MA1100711999999REMMET065METAR SBIZ 222000Z 30008KT 9999 FEW020 SCT100 BKN300 31/23 Q1007;
0143825640999992007122221004-05533-047500FM-15+0131SBIZ V0203301N002112200019N0112651N1+03001+02301999999ADDGA1021+006001999GA2041+030001999GF104991999999999999999999MA1100811999999REMMET058METAR SBIZ 222100Z 33004KT 9999 FEW020 SCT100 30/23 Q1008;
0072825640999992007122222004-05533-047500FM-15+0131SBIZ V0203101N00511220001CN0099001N1+02901+02301999999ADDMA1100811999999REMMET045METAR SBIZ 222200Z 31010KT CAVOK 29/23 Q1008;
0072825640999992007122223004-05533-047500FM-15+0131SBIZ V0209999C00001220001CN0099001N1+02701+02401999999ADDMA1100811999999REMMET045METAR SBIZ 222300Z 00000KT CAVOK 27/24 Q1008;
0177825640999992007122300004-05533-047500FM-15+0131SBIZ V0200601N009312200019N0112651N1+02701+02201999999ADDGA1021+004501999GA2021+007501091GA3041+090001999GF104991999999999999999999MA1101021999999MW1171REMMET070METAR SBIZ 230000Z 06018KT 9999 TS FEW015 FEW025CB SCT300 27/22 Q1010;
0148825640999992007122301004-05533-047500FM-15+0131SBIZ V0201801N002110900019N0112651N1+02501+02101999999ADDGA1021+004501999GA2071+090001999GF107991999999999999999999MA1101021999999REMMET063METAR SBIZ 230100Z 18004KT 9999 FEW015 BKN300 25/21 Q1010 RETS;
0072825640999992007122302004-05533-047500FM-15+0131SBIZ V0209999C00001220001CN0099001N1+02501+02101999999ADDMA1101021999999REMMET045METAR SBIZ 230200Z 00000KT CAVOK 25/21 Q1010;
0072825640999992007122303004-05533-047500FM-15+0131SBIZ V0209999C00001220001CN0099001N1+02501+02101999999ADDMA1101021999999REMMET045METAR SBIZ 230300Z 00000KT CAVOK 25/21 Q1010;
0072825640999992007122304004-05533-047500FM-15+0131SBIZ V0203001N00211220001CN0099001N1+02501+02101999999ADDMA1100911999999REMMET045METAR SBIZ 230400Z 30004KT CAVOK 25/21 Q1009;
0184825640999992007122308004-05533-047500FM-15+0131SBIZ V0202201N002610090019N0040001N1+02201+02201999999ADDGA1041+007501999GA2071+009001999GA3081+060001999GF108991999999999999999999MA1101021999999MW1801MW2951REMMET071METAR SBIZ 230800Z 22005KT 4000 -TSRA BKN030 SCT025 OVC200 22/22 Q1010;
0209825640999992007122309004-05533-047500FM-15+0131SBIZ V0200901N00461006001CN0060001N1+02201+02101999999ADDGA1021+003001999GA2041+006001999GA3021+007501091GA4071+021001999GF107991999999999999999999MA1101021999999MW1801MW2951REMMET080METAR SBIZ 230900Z 09009KT 6000 -TSRA FEW010 SCT020 FEW025CB BKN070 22/21 Q1010;
0171825640999992007122310004-05533-047500FM-15+0131SBIZ V0209999C00001006001CN0080001N1+02301+02201999999ADDGA1021+003001999GA2041+006001999GA3071+021001999GF107991999999999999999999MA1101081999999REMMET070METAR SBIZ 231000Z 00000KT 8000 FEW010 SCT020 BKN070 23/22 Q1011 RETS;
0143825640999992007122311004-05533-047500FM-15+0131SBIZ V0203301N001510210019N0112651N1+02401+02201999999ADDGA1041+006001999GA2071+021001999GF107991999999999999999999MA1101191999999REMMET058METAR SBIZ 231100Z 33003KT 9999 SCT020 BKN070 24/22 Q1012;
0143825640999992007122312004-05533-047500FM-15+0131SBIZ V0203301N002610210019N0112651N1+02601+02301999999ADDGA1041+009001999GA2081+021001999GF108991999999999999999999MA1101191999999REMMET058METAR SBIZ 231200Z 33005KT 9999 SCT030 OVC070 26/23 Q1012;
0166825640999992007122313004-05533-047500FM-15+0131SBIZ V0209999C00001021001CN0112651N1+02801+02301999999ADDGA1021+006001999GA2041+021001999GA3071+090001999GF107991999999999999999999MA1101191999999REMMET065METAR SBIZ 231300Z 00000KT 9999 FEW020 SCT070 BKN300 28/23 Q1012;
0143825640999992007122314004-05533-047500FM-15+0131SBIZ V0203601N001010060019N0112651N1+02901+02401999999ADDGA1071+006001999GA2071+090001999GF107991999999999999999999MA1101191999999REMMET058METAR SBIZ 231400Z 36002KT 9999 BKN020 BKN300 29/24 Q1012;
0143825640999992007122315004-05533-047500FM-15+0131SBIZ V0203301N001010060019N0112651N1+03101+02301999999ADDGA1071+006001999GA2071+090001999GF107991999999999999999999MA1101081999999REMMET058METAR SBIZ 231500Z 33002KT 9999 BKN020 BKN300 31/23 Q1011;
0143825640999992007122316004-05533-047500FM-15+0131SBIZ V0209999C000010900019N0112651N1+03201+02301999999ADDGA1041+006001999GA2071+090001999GF107991999999999999999999MA1101021999999REMMET058METAR SBIZ 231600Z 00000KT 9999 SCT020 BKN300 32/23 Q1010;
0143825640999992007122317004-05533-047500FM-15+0131SBIZ V0201101N004110900019N0112651N1+03301+02401999999ADDGA1021+006001999GA2071+090001999GF107991999999999999999999MA1100911999999REMMET058METAR SBIZ 231700Z 11008KT 9999 FEW020 BKN300 33/24 Q1009;
0143825640999992007122318004-05533-047500FM-15+0131SBIZ V0209999C000010900019N0112651N1+03201+02301999999ADDGA1021+006001999GA2071+090001999GF107991999999999999999999MA1100811999999REMMET058METAR SBIZ 231800Z 00000KT 9999 FEW020 BKN300 32/23 Q1008;
0143825640999992007122319004-05533-047500FM-15+0131SBIZ V0209999C000010900019N0112651N1+03301+02301999999ADDGA1021+006001999GA2071+090001999GF107991999999999999999999MA1100711999999REMMET058METAR SBIZ 231900Z 00000KT 9999 FEW020 BKN300 33/23 Q1007;
0143825640999992007122320004-05533-047500FM-15+0131SBIZ V0201801N001010900019N0112651N1+03301+02401999999ADDGA1021+006001999GA2071+090001999GF107991999999999999999999MA1100711999999REMMET058METAR SBIZ 232000Z 18002KT 9999 FEW020 BKN300 33/24 Q1007;
0143825640999992007122321004-05533-047500FM-15+0131SBIZ V0209999C000010900019N0112651N1+03001+02401999999ADDGA1041+006001999GA2071+090001999GF107991999999999999999999MA1100711999999REMMET058METAR SBIZ 232100Z 00000KT 9999 SCT020 BKN300 30/24 Q1007;
0143825640999992007122322004-05533-047500FM-15+0131SBIZ V0209999C000012200019N0112651N1+02901+02501999999ADDGA1021+006001999GA2041+090001999GF104991999999999999999999MA1100711999999REMMET058METAR SBIZ 232200Z 00000KT 9999 FEW020 SCT300 29/25 Q1007;
0072825640999992007122323004-05533-047500FM-15+0131SBIZ V0209999C00001220001CN0099001N1+02801+02501999999ADDMA1100811999999REMMET045METAR SBIZ 232300Z 00000KT CAVOK 28/25 Q1008;
0143825640999992007122400004-05533-047500FM-15+0131SBIZ V0209999C000012200019N0112651N1+02701+02501999999ADDGA1021+004501999GA2041+090001999GF104991999999999999999999MA1100911999999REMMET058METAR SBIZ 240000Z 00000KT 9999 FEW015 SCT300 27/25 Q1009;
0143825640999992007122401004-05533-047500FM-15+0131SBIZ V0209999C000012200019N0112651N1+02701+02501999999ADDGA1021+004501999GA2041+090001999GF104991999999999999999999MA1100911999999REMMET058METAR SBIZ 240100Z 00000KT 9999 FEW015 SCT300 27/25 Q1009;
0143825640999992007122402004-05533-047500FM-15+0131SBIZ V0203001N001012200019N0112651N1+02601+02501999999ADDGA1041+004501999GA2041+090001999GF104991999999999999999999MA1101021999999REMMET058METAR SBIZ 240200Z 30002KT 9999 SCT015 SCT300 26/25 Q1010;
0120825640999992007122403004-05533-047500FM-15+0131SBIZ V0209999C000012200019N0112651N1+02601+02501999999ADDGA1041+004501999GF104991999999999999999999MA1100911999999REMMET051METAR SBIZ 240300Z 00000KT 9999 SCT015 26/25 Q1009;
0170825640999992007122408004-05533-047500FM-15+0131SBIZ V0200701N00771220001CN0112651N1+02501+02301999999ADDGA1021+003001999GA2071+006001999GA3041+007501091MA1100911999999MW1171REMMET070METAR SBIZ 240800Z 07015KT 9999 TS FEW010 BKN020 SCT025CB 25/23 Q1009;EQDQ01+000042SCOTCV
0214825640999992007122409004-05533-047500FM-15+0131SBIZ V0203301N00511006001CN0060001N1+02301+02201999999ADDGA1021+004501999GA2041+006001999GA3021+007501091GA4071+021001999GF107991999999999999999999MA1101021999999MW1801MW2951REMMET085METAR SBIZ 240900Z 33010KT 6000 -TSRA FEW015 SCT020 FEW025CB BKN070 23/22 Q1010 RERA;
0158825640999992007122410004-05533-047500FM-15+0131SBIZ V0203601N005110210019N0080001N1+02301+02201999999ADDGA1041+006001999GA2081+021001999GF108991999999999999999999MA1101081999999MW1611REMMET067METAR SBIZ 241000Z 36010KT 8000 -RA SCT020 OVC070 23/22 Q1011 RETS;
0153825640999992007122411004-05533-047500FM-15+0131SBIZ V0209999C000010090019N0112651N1+02301+02201999999ADDGA1071+009001999GA2081+021001999GF108991999999999999999999MA1101191999999MW1611REMMET062METAR SBIZ 241100Z 00000KT 9999 -RA BKN030 OVC070 23/22 Q1012;
0120825640999992007122412004-05533-047500FM-15+0131SBIZ V0209999C000010090019N0112651N1+02401+02301999999ADDGA1081+009001999GF108991999999999999999999MA1101291999999REMMET051METAR SBIZ 241200Z 00000KT 9999 OVC030 24/23 Q1013;
0166825640999992007122413004-05533-047500FM-15+0131SBIZ V0201801N001510060019N0112651N1+02401+02301999999ADDGA1021+004501999GA2071+006001999GA3081+021001999GF108991999999999999999999MA1101391999999REMMET065METAR SBIZ 241300Z 18003KT 9999 FEW015 BKN020 OVC070 24/23 Q1014;
0176825640999992007122414004-05533-047500FM-15+0131SBIZ V0201501N005110060019N0040001N1+02301+02201999999ADDGA1041+003001999GA2071+006001999GA3081+021001999GF108991999999999999999999MA1101391999999MW1611REMMET069METAR SBIZ 241400Z 15010KT 4000 -RA SCT010 BKN020 OVC070 23/22 Q1014;
0181825640999992007122415004-05533-047500FM-15+0131SBIZ V0202701N001510090019N0060001N1+02301+02201999999ADDGA1021+003001999GA2071+009001999GA3081+021001999GF108991999999999999999999MA1101291999999MW1611REMMET074METAR SBIZ 241500Z 27003KT 6000 -RA FEW010 BKN030 OVC070 23/22 Q1013 RERA;
0176825640999992007122416004-05533-047500FM-15+0131SBIZ V0209999C000010090019N0050001N1+02301+02201999999ADDGA1021+003001999GA2071+009001999GA3081+021001999GF108991999999999999999999MA1101191999999MW1611REMMET069METAR SBIZ 241600Z 00000KT 5000 -RA FEW010 BKN030 OVC070 23/22 Q1012;
0176825640999992007122417004-05533-047500FM-15+0131SBIZ V0209999C000010090019N0060001N1+02401+02301999999ADDGA1041+003001999GA2071+009001999GA3081+021001999GF108991999999999999999999MA1101021999999MW1611REMMET069METAR SBIZ 241700Z 00000KT 6000 -RA SCT010 BKN030 OVC070 24/23 Q1010;
0166825640999992007122418004-05533-047500FM-15+0131SBIZ V0209999C000010060019N0112651N1+02501+02301999999ADDGA1041+003001999GA2071+006001999GA3081+021001999GF108991999999999999999999MA1100911999999REMMET065METAR SBIZ 241800Z 00000KT 9999 SCT010 BKN020 OVC070 25/23 Q1009;
0143825640999992007122419004-05533-047500FM-15+0131SBIZ V0209999C000010210019N0112651N1+02501+02301999999ADDGA1041+003001999GA2081+021001999GF108991999999999999999999MA1100811999999REMMET058METAR SBIZ 241900Z 00000KT 9999 SCT010 OVC070 25/23 Q1008;
0166825640999992007122420004-05533-047500FM-15+0131SBIZ V0202501N002610060019N0112651N1+02501+02301999999ADDGA1041+003001999GA2071+006001999GA3081+021001999GF108991999999999999999999MA1100911999999REMMET065METAR SBIZ 242000Z 25005KT 9999 SCT010 BKN020 OVC070 25/23 Q1009;
0143825640999992007122421004-05533-047500FM-15+0131SBIZ V0209999C000010210019N0112651N1+02401+02301999999ADDGA1021+003001999GA2071+021001999GF107991999999999999999999MA1100911999999REMMET058METAR SBIZ 242100Z 00000KT 9999 FEW010 BKN070 24/23 Q1009;
0143825640999992007122422004-05533-047500FM-15+0131SBIZ V0209999C000010210019N0112651N1+02401+02301999999ADDGA1041+004501999GA2071+021001999GF107991999999999999999999MA1100911999999REMMET058METAR SBIZ 242200Z 00000KT 9999 SCT015 BKN070 24/23 Q1009;
0143825640999992007122423004-05533-047500FM-15+0131SBIZ V0209999C000010210019N0112651N1+02401+02301999999ADDGA1041+004501999GA2071+021001999GF107991999999999999999999MA1101021999999REMMET058METAR SBIZ 242300Z 00000KT 9999 SCT015 BKN070 24/23 Q1010;
0120825640999992007122500004-05533-047500FM-15+0131SBIZ V0209999C000010045019N0112651N1+02401+02301999999ADDGA1071+004501999GF107991999999999999999999MA1101081999999REMMET051METAR SBIZ 250000Z 00000KT 9999 BKN015 24/23 Q1011;
0120825640999992007122501004-05533-047500FM-15+0131SBIZ V0209999C000010060019N0112651N1+02401+02301999999ADDGA1071+006001999GF107991999999999999999999MA1101081999999REMMET051METAR SBIZ 250100Z 00000KT 9999 BKN020 24/23 Q1011;
0120825640999992007122502004-05533-047500FM-15+0131SBIZ V0209999C000012200019N0112651N1+02401+02301999999ADDGA1041+006001999GF104991999999999999999999MA1101081999999REMMET051METAR SBIZ 250200Z 00000KT 9999 SCT020 24/23 Q1011;
0129825640999992007122508004-05533-047500FM-15+0131SBIZ V0209999C000010021019N0050001N1+02301+02301999999ADDGA1071+002101999GF107991999999999999999999MA1100911999999MW1101REMMET054METAR SBIZ 250800Z 00000KT 5000 BR BKN007 23/23 Q1009;
0143825640999992007122509004-05533-047500FM-15+0131SBIZ V0209999C000010021019N0080001N1+02301+02201999999ADDGA1071+002101999GA2071+003001999GF107991999999999999999999MA1101021999999REMMET058METAR SBIZ 250900Z 00000KT 8000 BKN007 BKN010 23/22 Q1010;
0143825640999992007122510004-05533-047500FM-15+0131SBIZ V0209999C000010030019N0080001N1+02301+02201999999ADDGA1041+002101999GA2081+003001999GF108991999999999999999999MA1101081999999REMMET058METAR SBIZ 251000Z 00000KT 8000 SCT007 OVC010 23/22 Q1011;
0166825640999992007122511004-05533-047500FM-15+0131SBIZ V0209999C00001003001CN0112651N1+02401+02301999999ADDGA1021+002101999GA2041+003001999GA3081+021001999GF108991999999999999999999MA1101191999999REMMET065METAR SBIZ 251100Z 00000KT 9999 FEW007 SCT010 OVC070 24/23 Q1012;
0176825640999992007122512004-05533-047500FM-15+0131SBIZ V0209999C00001003001CN0060001N1+02401+02301999999ADDGA1021+002101999GA2041+003001999GA3071+021001999GF107991999999999999999999MA1101191999999MW1611REMMET069METAR SBIZ 251200Z 00000KT 6000 -RA FEW007 SCT010 BKN070 24/23 Q1012;
0166825640999992007122513004-05533-047500FM-15+0131SBIZ V0201201N00311003001CN0112651N1+02601+02301999999ADDGA1021+002101999GA2041+003001999GA3071+021001999GF107991999999999999999999MA1101191999999REMMET065METAR SBIZ 251300Z 12006KT 9999 FEW007 SCT010 BKN070 26/23 Q1012;
0143825640999992007122514004-05533-047500FM-15+0131SBIZ V0209999C000010210019N0112651N1+02501+02401999999ADDGA1041+003001999GA2071+021001999GF107991999999999999999999MA1101191999999REMMET058METAR SBIZ 251400Z 00000KT 9999 SCT010 BKN070 25/24 Q1012;
0166825640999992007122515004-05533-047500FM-15+0131SBIZ V0209999C00001006001CN0112651N1+02701+02401999999ADDGA1041+003001999GA2041+006001999GA3071+021001999GF107991999999999999999999MA1101081999999REMMET065METAR SBIZ 251500Z 00000KT 9999 SCT010 SCT020 BKN070 27/24 Q1011;
0166825640999992007122516004-05533-047500FM-15+0131SBIZ V0202401N00261006001CN0112651N1+02801+02401999999ADDGA1021+003001999GA2041+006001999GA3071+021001999GF107991999999999999999999MA1101021999999REMMET065METAR SBIZ 251600Z 24005KT 9999 FEW010 SCT020 BKN070 28/24 Q1010;
0170825640999992007122517004-05533-047500FM-15+0131SBIZ V0200401N00771220001CN0112651N1+02801+02301999999ADDGA1071+003601999GA2071+006001999GA3021+007501091MA1101021999999MW1171REMMET070METAR SBIZ 251700Z 04015KT 9999 TS BKN012 BKN020 FEW025CB 28/23 Q1010;EQDQ01+000022SCOTCV
0148825640999992007122518004-05533-047500FM-15+0131SBIZ V0200401N004110060019N0112651N1+02901+02401999999ADDGA1041+004501999GA2071+006001999GF107991999999999999999999MA1100911999999REMMET063METAR SBIZ 251800Z 04008KT 9999 SCT015 BKN020 29/24 Q1009 RETS;
0179825640999992007122519004-05533-047500FM-15+0131SBIZ V0200601N00511220001CN0112651N1+02801+02301999999ADDGA1041+004501999GA2071+006001999GA3021+007501091MA1100911999999MW1801MW2951REMMET073METAR SBIZ 251900Z 06010KT 9999 -TSRA SCT015 BKN020 FEW025CB 28/23 Q1009;EQDQ01+000022SCOTCV
0151825640999992007122520004-05533-047500FM-15+0131SBIZ V0201001N00261220001CN0112651N1+02701+02301999999ADDGA1071+004501999GA2041+006001999MA1100811999999MW1611REMMET067METAR SBIZ 252000Z 10005KT 9999 -RA BKN015 SCT020 27/23 Q1008 RETS;EQDQ01+000042SCOTCV
0143825640999992007122521004-05533-047500FM-15+0131SBIZ V0200501N003610090019N0112651N1+02601+02401999999ADDGA1071+009001999GA2081+021001999GF108991999999999999999999MA1100811999999REMMET058METAR SBIZ 252100Z 05007KT 9999 BKN030 OVC070 26/24 Q1008;
0143825640999992007122522004-05533-047500FM-15+0131SBIZ V0200601N002610090019N0112651N1+02501+02301999999ADDGA1071+009001999GA2081+021001999GF108991999999999999999999MA1100911999999REMMET058METAR SBIZ 252200Z 06005KT 9999 BKN030 OVC070 25/23 Q1009;
0143825640999992007122523004-05533-047500FM-15+0131SBIZ V0200201N001010090019N0112651N1+02501+02201999999ADDGA1071+009001999GA2081+021001999GF108991999999999999999999MA1100911999999REMMET058METAR SBIZ 252300Z 02002KT 9999 BKN030 OVC070 25/22 Q1009;
0143825640999992007122600004-05533-047500FM-15+0131SBIZ V0200301N003610060019N0112651N1+02501+02301999999ADDGA1071+006001999GA2081+021001999GF108991999999999999999999MA1101021999999REMMET058METAR SBIZ 260000Z 03007KT 9999 BKN020 OVC070 25/23 Q1010;
0143825640999992007122601004-05533-047500FM-15+0131SBIZ V0209999C000010090019N0112651N1+02401+02301999999ADDGA1071+009001999GA2081+021001999GF108991999999999999999999MA1101021999999REMMET058METAR SBIZ 260100Z 00000KT 9999 BKN030 OVC070 24/23 Q1010;
0143825640999992007122602004-05533-047500FM-15+0131SBIZ V0203301N004110090019N0112651N1+02501+02301999999ADDGA1071+009001999GA2081+021001999GF108991999999999999999999MA1101021999999REMMET058METAR SBIZ 260200Z 33008KT 9999 BKN030 OVC070 25/23 Q1010;
0120825640999992007122608004-05533-047500FM-15+0131SBIZ V0209999C000012200019N0070001N1+02301+02201999999ADDGF100991999999999999999999MA1100911999999REMMET048METAR SBIZ 260800Z 00000KT 7000 NSC 23/22 Q1009;EQDQ01    003SCCGA1
0120825640999992007122609004-05533-047500FM-15+0131SBIZ V0209999C000012200019N0070001N1+02301+02201999999ADDGF100991999999999999999999MA1101021999999REMMET048METAR SBIZ 260900Z 00000KT 7000 NSC 23/22 Q1010;EQDQ01    003SCCGA1
0143825640999992007122610004-05533-047500FM-15+0131SBIZ V0209999C000012200019N0112651N1+02301+02301999999ADDGA1041+009001999GA2041+030001999GF104991999999999999999999MA1101081999999REMMET058METAR SBIZ 261000Z 00000KT 9999 SCT030 SCT100 23/23 Q1011;
0143825640999992007122611004-05533-047500FM-15+0131SBIZ V0209999C000010300019N0112651N1+02501+02301999999ADDGA1021+009001999GA2071+030001999GF107991999999999999999999MA1101081999999REMMET058METAR SBIZ 261100Z 00000KT 9999 FEW030 BKN100 25/23 Q1011;
0166825640999992007122612004-05533-047500FM-15+0131SBIZ V0201501N00101006001CN0112651N1+02701+02301999999ADDGA1021+004501999GA2041+006001999GA3071+030001999GF107991999999999999999999MA1101191999999REMMET065METAR SBIZ 261200Z 15002KT 9999 FEW015 SCT020 BKN100 27/23 Q1012;
0143825640999992007122613004-05533-047500FM-15+0131SBIZ V0200701N006212200019N0112651N1+02901+02201999999ADDGA1021+004501999GA2041+006001999GF104991999999999999999999MA1101191999999REMMET058METAR SBIZ 261300Z 07012KT 9999 FEW015 SCT020 29/22 Q1012;
0136825640999992007122614004-05533-047500FM-15+0131SBIZ V0200601N00511220001CN0112651N1+03101+02201999999ADDGA1071+006001999GA2041+090001999MA1101191999999REMMET058METAR SBIZ 261400Z 06010KT 9999 BKN020 SCT300 31/22 Q1012;EQDQ01+000042SCOTCV
0143825640999992007122615004-05533-047500FM-15+0131SBIZ V0200901N005110060019N0112651N1+03101+02301999999ADDGA1071+006001999GA2071+090001999GF107991999999999999999999MA1101081999999REMMET058METAR SBIZ 261500Z 09010KT 9999 BKN020 BKN300 31/23 Q1011;
0143825640999992007122616004-05533-047500FM-15+0131SBIZ V0201201N004110060019N0112651N1+03301+02401999999ADDGA1071+006001999GA2071+090001999GF107991999999999999999999MA1101021999999REMMET058METAR SBIZ 261600Z 12008KT 9999 BKN020 BKN300 33/24 Q1010;
0143825640999992007122617004-05533-047500FM-15+0131SBIZ V0200701N002610060019N0112651N1+03301+02401999999ADDGA1071+006001999GA2071+090001999GF107991999999999999999999MA1100911999999REMMET058METAR SBIZ 261700Z 07005KT 9999 BKN020 BKN300 33/24 Q1009;
0166825640999992007122618004-05533-047500FM-15+0131SBIZ V0201801N002610210019N0112651N1+03201+02401999999ADDGA1041+006001999GA2071+021001999GA3071+090001999GF107991999999999999999999MA1100811999999REMMET065METAR SBIZ 261800Z 18005KT 9999 SCT020 BKN070 BKN300 32/24 Q1008;
0143825640999992007122619004-05533-047500FM-15+0131SBIZ V0201501N001510300019N0112651N1+03201+02301999999ADDGA1041+006001999GA2071+030001999GF107991999999999999999999MA1100711999999REMMET058METAR SBIZ 261900Z 15003KT 9999 SCT020 BKN100 32/23 Q1007;
0143825640999992007122620004-05533-047500FM-15+0131SBIZ V0202001N001010300019N0112651N1+03101+02301999999ADDGA1021+006001999GA2071+030001999GF107991999999999999999999MA1100711999999REMMET058METAR SBIZ 262000Z 20002KT 9999 FEW020 BKN100 31/23 Q1007;
0143825640999992007122621004-05533-047500FM-15+0131SBIZ V0202701N001510900019N0112651N1+03001+02301999999ADDGA1021+006001999GA2071+090001999GF107991999999999999999999MA1100711999999REMMET058METAR SBIZ 262100Z 27003KT 9999 FEW020 BKN300 30/23 Q1007;
0143825640999992007122622004-05533-047500FM-15+0131SBIZ V0203601N005110900019N0112651N1+02801+02301999999ADDGA1021+006001999GA2071+090001999GF107991999999999999999999MA1100711999999REMMET058METAR SBIZ 262200Z 36010KT 9999 FEW020 BKN300 28/23 Q1007;
0072825640999992007122623004-05533-047500FM-15+0131SBIZ V0201101N00311220001CN0099001N1+02701+02401999999ADDMA1100811999999REMMET045METAR SBIZ 262300Z 11006KT CAVOK 27/24 Q1008;
0072825640999992007122700004-05533-047500FM-15+0131SBIZ V0201201N00261220001CN0099001N1+02601+02301999999ADDMA1100911999999REMMET045METAR SBIZ 270000Z 12005KT CAVOK 26/23 Q1009;
0120825640999992007122701004-05533-047500FM-15+0131SBIZ V0200901N001012200019N0112651N1+02601+02301999999ADDGA1021+006001999GF102991999999999999999999MA1100911999999REMMET051METAR SBIZ 270100Z 09002KT 9999 FEW020 26/23 Q1009;
0143825640999992007122702004-05533-047500FM-15+0131SBIZ V0200601N005112200019N0112651N1+02601+02201999999ADDGA1021+006001999GA2041+030001999GF104991999999999999999999MA1100911999999REMMET058METAR SBIZ 270200Z 06010KT 9999 FEW020 SCT100 26/22 Q1009;
0072825640999992007122703004-05533-047500FM-15+0131SBIZ V0203301N00261220001CN0099001N1+02501+02101999999ADDMA1100911999999REMMET045METAR SBIZ 270300Z 33005KT CAVOK 25/21 Q1009;
0120825640999992007122708004-05533-047500FM-15+0131SBIZ V0201201N001512200019N0070001N1+02301+02301999999ADDGF100991999999999999999999MA1100811999999REMMET048METAR SBIZ 270800Z 12003KT 7000 SKC 23/23 Q1008;EQDQ01    003SCCGA1
0120825640999992007122709004-05533-047500FM-15+0131SBIZ V0201201N004112200019N0080001N1+02301+02201999999ADDGA1021+006001999GF102991999999999999999999MA1100911999999REMMET051METAR SBIZ 270900Z 12008KT 8000 FEW020 23/22 Q1009;
0120825640999992007122710004-05533-047500FM-15+0131SBIZ V0203301N004112200019N0112651N1+02401+02301999999ADDGA1041+006001999GF104991999999999999999999MA1101021999999REMMET051METAR SBIZ 271000Z 33008KT 9999 SCT020 24/23 Q1010;
0120825640999992007122711004-05533-047500FM-15+0131SBIZ V0203301N001510060019N0112651N1+02501+02401999999ADDGA1071+006001999GF107991999999999999999999MA1101021999999REMMET051METAR SBIZ 271100Z 33003KT 9999 BKN020 25/24 Q1010;
0120825640999992007122712004-05533-047500FM-15+0131SBIZ V0201001N001010060019N0112651N1+02701+02301999999ADDGA1071+006001999GF107991999999999999999999MA1101081999999REMMET051METAR SBIZ 271200Z 10002KT 9999 BKN020 27/23 Q1011;
0120825640999992007122713004-05533-047500FM-15+0131SBIZ V0201501N002610060019N0112651N1+03001+02401999999ADDGA1071+006001999GF107991999999999999999999MA1101081999999REMMET051METAR SBIZ 271300Z 15005KT 9999 BKN020 30/24 Q1011;
0120825640999992007122714004-05533-047500FM-15+0131SBIZ V0200301N003610060019N0112651N1+03101+02301999999ADDGA1071+006001999GF107991999999999999999999MA1101021999999REMMET051METAR SBIZ 271400Z 03007KT 9999 BKN020 31/23 Q1010;
0120825640999992007122715004-05533-047500FM-15+0131SBIZ V0200601N005110060019N0112651N1+03301+02301999999ADDGA1071+006001999GF107991999999999999999999MA1101021999999REMMET051METAR SBIZ 271500Z 06010KT 9999 BKN020 33/23 Q1010;
0120825640999992007122716004-05533-047500FM-15+0131SBIZ V0200701N004612200019N0112651N1+03301+02301999999ADDGA1041+006001999GF104991999999999999999999MA1100911999999REMMET051METAR SBIZ 271600Z 07009KT 9999 SCT020 33/23 Q1009;
0120825640999992007122717004-05533-047500FM-15+0131SBIZ V0203301N001012200019N0112651N1+03401+02201999999ADDGA1041+006001999GF104991999999999999999999MA1100811999999REMMET051METAR SBIZ 271700Z 33002KT 9999 SCT020 34/22 Q1008;
0120825640999992007122718004-05533-047500FM-15+0131SBIZ V0201201N005112200019N0112651N1+03401+02301999999ADDGA1041+006001999GF104991999999999999999999MA1100611999999REMMET051METAR SBIZ 271800Z 12010KT 9999 SCT020 34/23 Q1006;
0120825640999992007122719004-05533-047500FM-15+0131SBIZ V0200901N002612200019N0112651N1+03201+02301999999ADDGA1041+006001999GF104991999999999999999999MA1100611999999REMMET051METAR SBIZ 271900Z 09005KT 9999 SCT020 32/23 Q1006;
0143825640999992007122720004-05533-047500FM-15+0131SBIZ V0201501N002612200019N0112651N1+03301+02301999999ADDGA1041+006001999GA2041+090001999GF104991999999999999999999MA1100611999999REMMET058METAR SBIZ 272000Z 15005KT 9999 SCT020 SCT300 33/23 Q1006;
0143825640999992007122721004-05533-047500FM-15+0131SBIZ V0203601N002110900019N0112651N1+03101+02301999999ADDGA1021+006001999GA2071+090001999GF107991999999999999999999MA1100611999999REMMET058METAR SBIZ 272100Z 36004KT 9999 FEW020 BKN300 31/23 Q1006;
0072825640999992007122722004-05533-047500FM-15+0131SBIZ V0202701N00101220001CN0099001N1+02901+02401999999ADDMA1100611999999REMMET045METAR SBIZ 272200Z 27002KT CAVOK 29/24 Q1006;
0072825640999992007122723004-05533-047500FM-15+0131SBIZ V0200901N00411220001CN0099001N1+02801+02401999999ADDMA1100711999999REMMET045METAR SBIZ 272300Z 09008KT CAVOK 28/24 Q1007;
0120825640999992007122800004-05533-047500FM-15+0131SBIZ V0201301N004112200019N0090001N1+02701+02501999999ADDGA1021+002101999GF102991999999999999999999MA1100711999999REMMET051METAR SBIZ 280000Z 13008KT 9000 FEW007 27/25 Q1007;
0114825640999992007122800504-05533-047500FM-15+0131SBIZ V0201201N010312200019N0112651N1+02701+02501999999ADDMA1100901999999OC101801REMMET079METAR SBIZ 280050Z SPECI 12020G35KT 9999 TS SCT010 BKN020 FEW025CB 27/25 Q1009;
0191825640999992007122802004-05533-047500FM-15+0131SBIZ V0203301N00511007501CN0080001N1+02401+02301999999ADDGA1041+003001999GA2021+007501091GA3081+021001999GF108991999999999999999999MA1101021999999MW1801MW2951REMMET078METAR SBIZ 280200Z 33010KT 8000 -TSRA SCT010 FEW025CB OVC070 24/23 Q1010 RERA;
0186825640999992007122803004-05533-047500FM-15+0131SBIZ V0203301N005110210019N0080001N1+02401+02301999999ADDGA1021+003001999GA2021+007501091GA3081+021001999GF108991999999999999999999MA1100911999999MW1801MW2951REMMET073METAR SBIZ 280300Z 33010KT 8000 -TSRA FEW010 FEW025CB OVC070 24/23 Q1009;
0125825640999992007122808004-05533-047500FM-15+0131SBIZ V0209999C000010060019N0060001N1+02301+02201999999ADDGA1071+006001999GF107991999999999999999999MA1100911999999REMMET056METAR SBIZ 280800Z 00000KT 6000 BKN020 23/22 Q1009 RETS;
0120825640999992007122809004-05533-047500FM-15+0131SBIZ V0201401N001010090019N0080001N1+02301+02201999999ADDGA1071+009001999GF107991999999999999999999MA1100911999999REMMET051METAR SBIZ 280900Z 14002KT 8000 BKN030 23/22 Q1009;
0120825640999992007122810004-05533-047500FM-15+0131SBIZ V0201501N001010090019N0112651N1+02301+02201999999ADDGA1071+009001999GF107991999999999999999999MA1101021999999REMMET051METAR SBIZ 281000Z 15002KT 9999 BKN030 23/22 Q1010;
0120825640999992007122812004-05533-047500FM-15+0131SBIZ V0209999C000010090019N0112651N1+02501+02301999999ADDGA1071+009001999GF107991999999999999999999MA1101191999999REMMET051METAR SBIZ 281200Z 00000KT 9999 BKN030 25/23 Q1012;
0143825640999992007122813004-05533-047500FM-15+0131SBIZ V0203001N001010060019N0112651N1+02701+02301999999ADDGA1041+004501999GA2081+006001999GF108991999999999999999999MA1101191999999REMMET058METAR SBIZ 281300Z 30002KT 9999 SCT015 OVC020 27/23 Q1012;
0166825640999992007122814004-05533-047500FM-15+0131SBIZ V0201801N001010060019N0112651N1+02801+02301999999ADDGA1021+004501999GA2071+006001999GA3071+030001999GF107991999999999999999999MA1101191999999REMMET065METAR SBIZ 281400Z 18002KT 9999 FEW015 BKN020 BKN100 28/23 Q1012;
0120825640999992007122815004-05533-047500FM-15+0131SBIZ V0203601N004110060019N0112651N1+03101+02501999999ADDGA1071+006001999GF107991999999999999999999MA1101081999999REMMET051METAR SBIZ 281500Z 36008KT 9999 BKN020 31/25 Q1011;
0120825640999992007122816004-05533-047500FM-15+0131SBIZ V0200301N004110060019N0112651N1+03001+02401999999ADDGA1071+006001999GF107991999999999999999999MA1100911999999REMMET051METAR SBIZ 281600Z 03008KT 9999 BKN020 30/24 Q1009;
0170825640999992007122817004-05533-047500FM-15+0131SBIZ V0203601N00511220001CN0112651N1+03101+02401999999ADDGA1021+004501999GA2071+006001999GA3021+007501091MA1100911999999MW1171REMMET070METAR SBIZ 281700Z 36010KT 9999 TS FEW015 BKN020 FEW025CB 31/24 Q1009;EQDQ01+000022SCOTCV
0214825640999992007122818004-05533-047500FM-15+0131SBIZ V0202701N005110060019N0080001N1+02501+02301999999ADDGA1041+004501999GA2071+006001999GA3021+007501091GA4071+021001999GF107991999999999999999999MA1100811999999MW1801MW2951REMMET085METAR SBIZ 281800Z 27010KT 8000 -TSRA SCT015 BKN020 FEW025CB BKN070 25/23 Q1008 RERA;
0148825640999992007122819004-05533-047500FM-15+0131SBIZ V0200901N002110210019N0112651N1+02601+02401999999ADDGA1021+004501999GA2071+021001999GF107991999999999999999999MA1100711999999REMMET063METAR SBIZ 281900Z 09004KT 9999 FEW015 BKN070 26/24 Q1007 RETS;
0143825640999992007122820004-05533-047500FM-15+0131SBIZ V0203501N004110210019N0112651N1+02801+02401999999ADDGA1021+004501999GA2071+021001999GF107991999999999999999999MA1100711999999REMMET058METAR SBIZ 282000Z 35008KT 9999 FEW015 BKN070 28/24 Q1007;
0166825640999992007122821004-05533-047500FM-15+0131SBIZ V0203401N00211021001CN0112651N1+02701+02401999999ADDGA1021+009001999GA2041+021001999GA3081+090001999GF108991999999999999999999MA1100711999999REMMET065METAR SBIZ 282100Z 34004KT 9999 FEW030 SCT070 OVC300 27/24 Q1007;
0143825640999992007122822004-05533-047500FM-15+0131SBIZ V0203301N002110900019N0112651N1+02601+02401999999ADDGA1021+009001999GA2081+090001999GF108991999999999999999999MA1100811999999REMMET058METAR SBIZ 282200Z 33004KT 9999 FEW030 OVC300 26/24 Q1008;
0200825640999992007122823004-05533-047500FM-15+0131SBIZ V0201001N002610060019N0112651N1+02501+02401999999ADDGA1041+004501999GA2071+006001999GA3021+007501091GA4071+090001999GF107991999999999999999999MA1100911999999MW1171REMMET077METAR SBIZ 282300Z 10005KT 9999 TS SCT015 BKN020 FEW025CB BKN300 25/24 Q1009;
0171825640999992007122900004-05533-047500FM-15+0131SBIZ V0201001N00361006001CN0112651N1+02501+02301999999ADDGA1041+004501999GA2041+006001999GA3071+090001999GF107991999999999999999999MA1101021999999REMMET070METAR SBIZ 290000Z 10007KT 9999 SCT015 SCT020 BKN300 25/23 Q1010 RETS;
0200825640999992007122901004-05533-047500FM-15+0131SBIZ V0209999C00001006001CN0112651N1+02501+02301999999ADDGA1041+004501999GA2041+006001999GA3021+007501091GA4071+090001999GF107991999999999999999999MA1101021999999MW1171REMMET077METAR SBIZ 290100Z 00000KT 9999 TS SCT015 SCT020 FEW025CB BKN300 25/23 Q1010;
0148825640999992007122902004-05533-047500FM-15+0131SBIZ V0203001N003612200019N0112651N1+02501+02401999999ADDGA1021+006001999GA2041+090001999GF104991999999999999999999MA1101021999999REMMET063METAR SBIZ 290200Z 30007KT 9999 FEW020 SCT300 25/24 Q1010 RETS;
0179825640999992007122908004-05533-047500FM-15+0131SBIZ V0203301N00411220001CN0050001N1+02401+02301999999ADDGA1041+003601999GA2071+006001999GA3021+007501091MA1100911999999MW1801MW2951REMMET073METAR SBIZ 290800Z 33008KT 5000 -TSRA SCT012 BKN020 FEW025CB 24/23 Q1009;EQDQ01+000022SCOTCV
0209825640999992007122909004-05533-047500FM-15+0131SBIZ V0209999C000010060019N0080001N1+02401+02301999999ADDGA1041+004501999GA2071+006001999GA3021+007501091GA4081+021001999GF108991999999999999999999MA1101021999999MW1801MW2951REMMET080METAR SBIZ 290900Z 00000KT 8000 -TSRA SCT015 BKN020 FEW025CB OVC070 24/23 Q1010;
0177825640999992007122910004-05533-047500FM-15+0131SBIZ V0203301N00261007501CN0112651N1+02401+02301999999ADDGA1041+006001999GA2021+007501091GA3081+021001999GF108991999999999999999999MA1101081999999MW1171REMMET070METAR SBIZ 291000Z 33005KT 9999 TS SCT020 FEW025CB OVC070 24/23 Q1011;
0171825640999992007122911004-05533-047500FM-15+0131SBIZ V0203601N001510060019N0112651N1+02401+02301999999ADDGA1021+004501999GA2071+006001999GA3081+021001999GF108991999999999999999999MA1101191999999REMMET070METAR SBIZ 291100Z 36003KT 9999 FEW015 BKN020 OVC070 24/23 Q1012 RETS;
0166825640999992007122912004-05533-047500FM-15+0131SBIZ V0203301N001510060019N0112651N1+02501+02401999999ADDGA1021+004501999GA2071+006001999GA3081+021001999GF108991999999999999999999MA1101191999999REMMET065METAR SBIZ 291200Z 33003KT 9999 FEW015 BKN020 OVC070 25/24 Q1012;
0166825640999992007122913004-05533-047500FM-15+0131SBIZ V0203001N004610045019N0112651N1+02501+02401999999ADDGA1071+004501999GA2071+006001999GA3081+021001999GF108991999999999999999999MA1101291999999REMMET065METAR SBIZ 291300Z 30009KT 9999 BKN015 BKN020 OVC070 25/24 Q1013;
0143825640999992007122914004-05533-047500FM-15+0131SBIZ V0203001N003610060019N0112651N1+02601+02301999999ADDGA1041+004501999GA2081+006001999GF108991999999999999999999MA1101291999999REMMET058METAR SBIZ 291400Z 30007KT 9999 SCT015 OVC020 26/23 Q1013;
0208825640999992007122915004-05533-047500FM-15+0131SBIZ V0201801N005110060019N0030001N1+02601+02401999999ADDGA1041+003001999GA2071+006001999GA3021+007501091GA4081+021001999GF108991999999999999999999MA1101291999999MW1811MW2951REMMET079METAR SBIZ 291500Z 18010KT 3000 TSRA SCT010 BKN020 FEW025CB OVC070 26/24 Q1013;
0150825640999992007122916004-05533-047500FM-15+0131SBIZ V0200101N002110210019N0112651N1+02201+02101999999ADDGA1041+003001999GA2081+021001999GF108991999999999999999999MA1101081999999REMMET065METAR SBIZ 291600Z 01004KT 9999 SCT010 OVC070 22/21 Q1011 RETSRA;
0166825640999992007122917004-05533-047500FM-15+0131SBIZ V0209999C00001012001CN0112651N1+02301+02101999999ADDGA1021+006001999GA2041+012001999GA3081+021001999GF108991999999999999999999MA1101021999999REMMET065METAR SBIZ 291700Z 00000KT 9999 FEW020 SCT040 OVC070 23/21 Q1010;
0143825640999992007122918004-05533-047500FM-15+0131SBIZ V0209999C000010210019N0112651N1+02501+02201999999ADDGA1021+006001999GA2081+021001999GF108991999999999999999999MA1101021999999REMMET058METAR SBIZ 291800Z 00000KT 9999 FEW020 OVC070 25/22 Q1010;
0143825640999992007122919004-05533-047500FM-15+0131SBIZ V0209999C000010210019N0112651N1+02601+02301999999ADDGA1021+006001999GA2081+021001999GF108991999999999999999999MA1100911999999REMMET058METAR SBIZ 291900Z 00000KT 9999 FEW020 OVC070 26/23 Q1009;
0166825640999992007122920004-05533-047500FM-15+0131SBIZ V0209999C00001012001CN0112651N1+02601+02301999999ADDGA1021+006001999GA2041+012001999GA3081+021001999GF108991999999999999999999MA1100911999999REMMET065METAR SBIZ 292000Z 00000KT 9999 FEW020 SCT040 OVC070 26/23 Q1009;
0143825640999992007122921004-05533-047500FM-15+0131SBIZ V0209999C000010210019N0112651N1+02501+02301999999ADDGA1041+012001999GA2081+021001999GF108991999999999999999999MA1100911999999REMMET058METAR SBIZ 292100Z 00000KT 9999 SCT040 OVC070 25/23 Q1009;
0143825640999992007122922004-05533-047500FM-15+0131SBIZ V0209999C000010210019N0112651N1+02501+02301999999ADDGA1041+012001999GA2071+021001999GF107991999999999999999999MA1100911999999REMMET058METAR SBIZ 292200Z 00000KT 9999 SCT040 BKN070 25/23 Q1009;
0120825640999992007122923004-05533-047500FM-15+0131SBIZ V0201501N001012200019N0112651N1+02401+02301999999ADDGA1021+012001999GF102991999999999999999999MA1101021999999REMMET051METAR SBIZ 292300Z 15002KT 9999 FEW040 24/23 Q1010;
0120825640999992007123000004-05533-047500FM-15+0131SBIZ V0209999C000012200019N0112651N1+02401+02301999999ADDGA1021+012001999GF102991999999999999999999MA1101021999999REMMET051METAR SBIZ 300000Z 00000KT 9999 FEW040 24/23 Q1010;
0120825640999992007123001004-05533-047500FM-15+0131SBIZ V0209999C000012200019N0112651N1+02401+02301999999ADDGA1041+009001999GF104991999999999999999999MA1101081999999REMMET051METAR SBIZ 300100Z 00000KT 9999 SCT030 24/23 Q1011;
0120825640999992007123002004-05533-047500FM-15+0131SBIZ V0200301N001012200019N0112651N1+02401+02301999999ADDGA1041+009001999GF104991999999999999999999MA1101081999999REMMET051METAR SBIZ 300200Z 03002KT 9999 SCT030 24/23 Q1011;
0143825640999992007123008004-05533-047500FM-15+0131SBIZ V0203601N004110045019N0080001N1+02401+02301999999ADDGA1041+002101999GA2071+004501999GF107991999999999999999999MA1101021999999REMMET058METAR SBIZ 300800Z 36008KT 8000 SCT007 BKN015 24/23 Q1010;
0143825640999992007123009004-05533-047500FM-15+0131SBIZ V0203601N005110120019N0080001N1+02401+02301999999ADDGA1041+004501999GA2071+012001999GF107991999999999999999999MA1101021999999REMMET058METAR SBIZ 300900Z 36010KT 8000 SCT015 BKN040 24/23 Q1010;
0143825640999992007123010004-05533-047500FM-15+0131SBIZ V0200601N004110045019N0112651N1+02401+02301999999ADDGA1071+004501999GA2071+030001999GF107991999999999999999999MA1101081999999REMMET058METAR SBIZ 301000Z 06008KT 9999 BKN015 BKN100 24/23 Q1011;
0120825640999992007123011004-05533-047500FM-15+0131SBIZ V0209999C000010045019N0112651N1+02501+02301999999ADDGA1071+004501999GF107991999999999999999999MA1101191999999REMMET051METAR SBIZ 301100Z 00000KT 9999 BKN015 25/23 Q1012;
0143825640999992007123012004-05533-047500FM-15+0131SBIZ V0200401N003110060019N0112651N1+02701+02401999999ADDGA1041+004501999GA2071+006001999GF107991999999999999999999MA1101191999999REMMET058METAR SBIZ 301200Z 04006KT 9999 SCT015 BKN020 27/24 Q1012;
0120825640999992007123013004-05533-047500FM-15+0131SBIZ V0209999C000010060019N0112651N1+02801+02401999999ADDGA1071+006001999GF107991999999999999999999MA1101191999999REMMET051METAR SBIZ 301300Z 00000KT 9999 BKN020 28/24 Q1012;
0120825640999992007123014004-05533-047500FM-15+0131SBIZ V0200601N005112200019N0112651N1+03101+02301999999ADDGA1041+006001999GF104991999999999999999999MA1101191999999REMMET051METAR SBIZ 301400Z 06010KT 9999 SCT020 31/23 Q1012;
0120825640999992007123015004-05533-047500FM-15+0131SBIZ V0200601N003112200019N0112651N1+03101+02301999999ADDGA1041+006001999GF104991999999999999999999MA1101081999999REMMET051METAR SBIZ 301500Z 06006KT 9999 SCT020 31/23 Q1011;
0143825640999992007123016004-05533-047500FM-15+0131SBIZ V0203101N002612200019N0112651N1+03301+02401999999ADDGA1041+006001999GA2041+090001999GF104991999999999999999999MA1100911999999REMMET058METAR SBIZ 301600Z 31005KT 9999 SCT020 SCT300 33/24 Q1009;
0143825640999992007123017004-05533-047500FM-15+0131SBIZ V0200701N003112200019N0112651N1+03401+02401999999ADDGA1041+006001999GA2041+090001999GF104991999999999999999999MA1100911999999REMMET058METAR SBIZ 301700Z 07006KT 9999 SCT020 SCT300 34/24 Q1009;
0143825640999992007123018004-05533-047500FM-15+0131SBIZ V0201801N002612200019N0112651N1+03401+02201999999ADDGA1041+006001999GA2041+090001999GF104991999999999999999999MA1100811999999REMMET058METAR SBIZ 301800Z 18005KT 9999 SCT020 SCT300 34/22 Q1008;
0143825640999992007123019004-05533-047500FM-15+0131SBIZ V0201801N001012200019N0112651N1+03401+02301999999ADDGA1041+006001999GA2041+090001999GF104991999999999999999999MA1100711999999REMMET058METAR SBIZ 301900Z 18002KT 9999 SCT020 SCT300 34/23 Q1007;
0143825640999992007123020004-05533-047500FM-15+0131SBIZ V0209999C000012200019N0112651N1+03301+02301999999ADDGA1041+006001999GA2041+090001999GF104991999999999999999999MA1100711999999REMMET058METAR SBIZ 302000Z 00000KT 9999 SCT020 SCT300 33/23 Q1007;
0143825640999992007123021004-05533-047500FM-15+0131SBIZ V0201501N003112200019N0112651N1+02801+02301999999ADDGA1041+006001999GA2041+090001999GF104991999999999999999999MA1100811999999REMMET058METAR SBIZ 302100Z 15006KT 9999 SCT020 SCT300 28/23 Q1008;
0143825640999992007123022004-05533-047500FM-15+0131SBIZ V0201801N001012200019N0112651N1+02601+02201999999ADDGA1041+006001999GA2041+090001999GF104991999999999999999999MA1100811999999REMMET058METAR SBIZ 302200Z 18002KT 9999 SCT020 SCT300 26/22 Q1008;
0143825640999992007123023004-05533-047500FM-15+0131SBIZ V0201301N001512200019N0112651N1+02501+02201999999ADDGA1041+006001999GA2041+090001999GF104991999999999999999999MA1100911999999REMMET058METAR SBIZ 302300Z 13003KT 9999 SCT020 SCT300 25/22 Q1009;
0143825640999992007123100004-05533-047500FM-15+0131SBIZ V0200701N001512200019N0112651N1+02501+02201999999ADDGA1041+006001999GA2041+090001999GF104991999999999999999999MA1101021999999REMMET058METAR SBIZ 310000Z 07003KT 9999 SCT020 SCT300 25/22 Q1010;
0120825640999992007123101004-05533-047500FM-15+0131SBIZ V0201501N001012200019N0112651N1+02501+02201999999ADDGA1021+006001999GF102991999999999999999999MA1101021999999REMMET051METAR SBIZ 310100Z 15002KT 9999 FEW020 25/22 Q1010;
0120825640999992007123102004-05533-047500FM-15+0131SBIZ V0209999C000012200019N0112651N1+02501+02201999999ADDGA1041+006001999GF104991999999999999999999MA1101021999999REMMET051METAR SBIZ 310200Z 00000KT 9999 SCT020 25/22 Q1010;
0120825640999992007123108004-05533-047500FM-15+0131SBIZ V0209999C000012200019N0080001N1+02201+02201999999ADDGA1021+002401999GF102991999999999999999999MA1100911999999REMMET051METAR SBIZ 310800Z 00000KT 8000 FEW008 22/22 Q1009;
0120825640999992007123109004-05533-047500FM-15+0131SBIZ V0209999C000012200019N0112651N1+02201+02201999999ADDGA1041+009001999GF104991999999999999999999MA1101021999999REMMET051METAR SBIZ 310900Z 00000KT 9999 SCT030 22/22 Q1010;
0072825640999992007123110004-05533-047500FM-15+0131SBIZ V0209999C00001220001CN0099001N1+02301+02201999999ADDMA1101081999999REMMET045METAR SBIZ 311000Z 00000KT CAVOK 23/22 Q1011;
0143825640999992007123111004-05533-047500FM-15+0131SBIZ V0203601N001512200019N0112651N1+02501+02201999999ADDGA1021+004501999GA2041+030001999GF104991999999999999999999MA1101081999999REMMET058METAR SBIZ 311100Z 36003KT 9999 FEW015 SCT100 25/22 Q1011;
0143825640999992007123112004-05533-047500FM-15+0131SBIZ V0200401N002612200019N0112651N1+02701+02301999999ADDGA1021+004501999GA2041+006001999GF104991999999999999999999MA1101191999999REMMET058METAR SBIZ 311200Z 04005KT 9999 FEW015 SCT020 27/23 Q1012;
0143825640999992007123113004-05533-047500FM-15+0131SBIZ V0200601N002612200019N0112651N1+03001+02301999999ADDGA1041+006001999GA2041+090001999GF104991999999999999999999MA1101081999999REMMET058METAR SBIZ 311300Z 06005KT 9999 SCT020 SCT300 30/23 Q1011;
0143825640999992007123114004-05533-047500FM-15+0131SBIZ V0200701N002612200019N0112651N1+03101+02401999999ADDGA1041+006001999GA2041+090001999GF104991999999999999999999MA1101081999999REMMET058METAR SBIZ 311400Z 07005KT 9999 SCT020 SCT300 31/24 Q1011;
0136825640999992007123115004-05533-047500FM-15+0131SBIZ V0201501N00101220001CN0112651N1+03101+02301999999ADDGA1071+006001999GA2041+090001999MA1101081999999REMMET058METAR SBIZ 311500Z 15002KT 9999 BKN020 SCT300 31/23 Q1011;EQDQ01+000042SCOTCV
0188825640999992007123116004-05533-047500FM-15+0131SBIZ V0203601N00151220001CN0112651N1+03001+02301999999ADDGA1071+006001999GA2021+007501091GA3041+090001999MA1101021999999MW1161MW2171REMMET082METAR SBIZ 311600Z 36003KT 9999 5000NW TS VCSH BKN020 FEW025CB SCT300 30/23 Q1010;EQDQ01+000042SCOTCV
0164825640999992007123117004-05533-047500FM-15+0131SBIZ V0203101N00151220001CN0112651N1+03101+02401999999ADDGA1071+006001999GA2041+007501091MA1100911999999MW1161MW2171REMMET074METAR SBIZ 311700Z 31003KT 9999 9000S TS VCSH BKN020 SCT025CB 31/24 Q1009;EQDQ01+000042SCOTCV
0187825640999992007123118004-05533-047500FM-15+0131SBIZ V0202701N00261220001CN0112651N1+03201+02401999999ADDGA1071+006001999GA2021+007501091GA3041+090001999MA1100711999999MW1161MW2171REMMET081METAR SBIZ 311800Z 27005KT 9999 9000E TS VCSH BKN020 FEW025CB SCT300 32/24 Q1007;EQDQ01+000042SCOTCV
0195825640999992007123119004-05533-047500FM-15+0131SBIZ V0201501N002610060019N0112651N1+02801+02401999999ADDGA1071+006001999GA2021+007501091GA3071+090001999GF107991999999999999999999MA1100711999999MW1161MW2171REMMET082METAR SBIZ 311900Z 15005KT 9999 9000NW TS VCSH BKN020 FEW025CB BKN300 28/24 Q1007;
0143825640999992007123120004-05533-047500FM-15+0131SBIZ V0201401N002610090019N0112651N1+03001+02501999999ADDGA1071+009001999GA2071+090001999GF107991999999999999999999MA1100711999999REMMET058METAR SBIZ 312000Z 14005KT 9999 BKN030 BKN300 30/25 Q1007;
0200825640999992007123121004-05533-047500FM-15+0131SBIZ V0200901N010310060019N0112651N1+02801+02301999999ADDGA1041+004501999GA2071+006001999GA3021+007501091GA4071+090001999GF107991999999999999999999MA1100811999999MW1171REMMET077METAR SBIZ 312100Z 09020KT 9999 TS SCT015 BKN020 FEW025CB BKN300 28/23 Q1008;
0200825640999992007123122004-05533-047500FM-15+0131SBIZ V0200601N002610060019N0112651N1+02601+02301999999ADDGA1021+004501999GA2071+006001999GA3021+007501091GA4071+090001999GF107991999999999999999999MA1100911999999MW1171REMMET077METAR SBIZ 312200Z 06005KT 9999 TS FEW015 BKN020 FEW025CB BKN300 26/23 Q1009;
0148825640999992007123123004-05533-047500FM-15+0131SBIZ V0203601N005110900019N0112651N1+02601+02201999999ADDGA1041+006001999GA2071+090001999GF107991999999999999999999MA1101021999999REMMET063METAR SBIZ 312300Z 36010KT 9999 SCT020 BKN300 26/22 Q1010 RETS;
