0156825960999992007040212004-05650-035417FM-12+006199999V0201401N005710075019N0040001N1+02961+02401101291ADDGF105991051051008001001001KA1240N+02291MA1999999100571MD1999999+0091REMSYN076AAXX  02124 82596 32596 51411 10296 20240 30057 40129 85500 333 20229 58009;
0137825960999992007040218004-05650-035417FM-12+006199999V0200901N005112200019N0040001N1+03101+02361101031ADDGF103991031011008001001001MA1999999100311MD1999999+0071REMSYN070AAXX  02184 82596 32596 30910 10310 20236 30031 40103 83100 333 58007;
0211825960999992007041712004-05650-035417FM-12+006199999V0201801N004610075019N0040001N1+02721+02391101421ADDAA124002091AY161061AY211061GF105991051061008001001001KA1240N+02321MA1100201100561MD1999999-0101MW1031REMSYN098AAXX  17124 82596 21596 51809 10272 20239 30056 40142 70361 85600 333 20232 59010 60024 555 10022;
0137825960999992007092518004-05650-035417FM-12+006199999V0200901N005110075019N0040001N1+02861+02141101301ADDGF105991051021008001001001MA1999999100571MD1999999-0031REMSYN070AAXX  25184 82596 32596 50910 10286 20214 30057 40130 85200 333 59003;
