0186827980999992007021402004-07100-034867FM-15+0007SBJP V0201501N004610030019N0020001N1+02401+02301999999ADDGA1071+003001999GA2021+007501091GA3071+021001999GF107991999999999999999999MA1101191999999MW1801MW2951REMMET073METAR SBJP 140200Z 15009KT 2000 -TSRA BKN010 FEW025CB BKN070 24/23 Q1012;
0072827980999992007040100004-07100-034867FM-15+0007SBJP V0201401N00211220001CN0099001N1+02601+02301999999ADDMA1101191999999REMMET045METAR SBJP 010000Z 14004KT CAVOK 26/23 Q1012;
0072827980999992007040102004-07100-034867FM-15+0007SBJP V0201601N00151220001CN0099001N1+02501+02301999999ADDMA1101191999999REMMET045METAR SBJP 010200Z 16003KT CAVOK 25/23 Q1012;
0072827980999992007040121004-07100-034867FM-15+0007SBJP V0201401N00311220001CN0099001N1+02701+02301999999ADDMA1101081999999REMMET045METAR SBJP 012100Z 14006KT CAVOK 27/23 Q1011;
0156827980999992007040212004-07100-034867FM-12+0007SBJP V0201401N005110075019N0200001N1+03041+02431101481ADDGF105991051041008001001001KA1240N+02451MA1999999101271MD1999999+0041REMSYN076AAXX  02124 82798 32598 51410 10304 20243 30127 40148 85400 333 20245 58004;
0137827980999992007040218004-07100-034867FM-12+0007SBJP V0201401N005712200019N0200001N1+03061+02431101121ADDGF104991031021008001011001MA1999999100911MD1999999-0081REMSYN070AAXX  02184 82798 32598 41411 10306 20243 30091 40112 83210 333 59008;
0072827980999992007041312004-07100-034867FM-15+0007SBJP V0201801N00211220001CN0099001N1+02901+02301999999ADDMA1101391999999REMMET045METAR SBJP 131200Z 18004KT CAVOK 29/23 Q1014;
0211827980999992007041712004-07100-034867FM-12+0007SBJP V0201801N003110075019N0200001N1+02901+02521101441ADDAA124002091AY161061AY221061GF105991051041008001001001KA1240N+02411MA1100201101231MD1999999-0141MW1021REMSYN098AAXX  17124 82798 21598 51806 10290 20252 30123 40144 70262 85400 333 20241 59014 60024 555 10020;
0152827980999992007041816004-07100-034867FM-15+0007SBJP V0201401N003110024019N0010001N1+02601+02401999999ADDGA1071+002401999GA2071+004501999GF107991999999999999999999MA1101081999999MW1631REMMET061METAR SBJP 181600Z 14006KT 1000 RA BKN008 BKN015 26/24 Q1011;
0072827980999992007051309004-07100-034867FM-15+0007SBJP V0202901N00151220001CN0099001N1+02201+02101999999ADDMA1101591999999REMMET045METAR SBJP 130900Z 29003KT CAVOK 22/21 Q1016;
0072827980999992007051311004-07100-034867FM-15+0007SBJP V0202101N00151220001CN0099001N1+02801+02301999999ADDMA1101691999999REMMET045METAR SBJP 131100Z 21003KT CAVOK 28/23 Q1017;
0120827980999992007051312004-07100-034867FM-15+0007SBJP V0201801N003612200019N0112651N1+02901+02301999999ADDGA1041+007501999GF104991999999999999999999MA1101691999999REMMET051METAR SBJP 131200Z 18007KT 9999 SCT025 29/23 Q1017;
0120827980999992007051313004-07100-034867FM-15+0007SBJP V0201001N001512200019N0112651N1+03001+02201999999ADDGA1041+008101999GF104991999999999999999999MA1101691999999REMMET051METAR SBJP 131300Z 10003KT 9999 SCT027 30/22 Q1017;
0120827980999992007051314004-07100-034867FM-15+0007SBJP V0201601N002612200019N0112651N1+03001+02201999999ADDGA1041+009001999GF104991999999999999999999MA1101591999999REMMET051METAR SBJP 131400Z 16005KT 9999 SCT030 30/22 Q1016;
0120827980999992007051315004-07100-034867FM-15+0007SBJP V0201101N002612200019N0112651N1+03101+02101999999ADDGA1041+009001999GF104991999999999999999999MA1101491999999REMMET051METAR SBJP 131500Z 11005KT 9999 SCT030 31/21 Q1015;
0120827980999992007051316004-07100-034867FM-15+0007SBJP V0201301N003612200019N0112651N1+03101+02101999999ADDGA1041+009001999GF104991999999999999999999MA1101391999999REMMET051METAR SBJP 131600Z 13007KT 9999 SCT030 31/21 Q1014;
0120827980999992007051317004-07100-034867FM-15+0007SBJP V0201201N004112200019N0112651N1+03101+02001999999ADDGA1021+009001999GF102991999999999999999999MA1101391999999REMMET051METAR SBJP 131700Z 12008KT 9999 FEW030 31/20 Q1014;
0120827980999992007051318004-07100-034867FM-15+0007SBJP V0201201N004112200019N0112651N1+03001+02101999999ADDGA1021+009001999GF102991999999999999999999MA1101291999999REMMET051METAR SBJP 131800Z 12008KT 9999 FEW030 30/21 Q1013;
0120827980999992007051319004-07100-034867FM-15+0007SBJP V0201301N004112200019N0112651N1+02901+02201999999ADDGA1021+009001999GF102991999999999999999999MA1101391999999REMMET051METAR SBJP 131900Z 13008KT 9999 FEW030 29/22 Q1014;
0072827980999992007051320004-07100-034867FM-15+0007SBJP V0201301N00361220001CN0099001N1+02701+02201999999ADDMA1101391999999REMMET045METAR SBJP 132000Z 13007KT CAVOK 27/22 Q1014;
0072827980999992007051321004-07100-034867FM-15+0007SBJP V0201301N00311220001CN0099001N1+02601+02301999999ADDMA1101391999999REMMET045METAR SBJP 132100Z 13006KT CAVOK 26/23 Q1014;
0072827980999992007051322004-07100-034867FM-15+0007SBJP V0201401N00151220001CN0099001N1+02501+02301999999ADDMA1101491999999REMMET045METAR SBJP 132200Z 14003KT CAVOK 25/23 Q1015;
0072827980999992007051323004-07100-034867FM-15+0007SBJP V0201501N00151220001CN0099001N1+02501+02201999999ADDMA1101491999999REMMET045METAR SBJP 132300Z 15003KT CAVOK 25/22 Q1015;
0143827980999992007052119004-07100-034867FM-15+0007SBJP V0201801N001010210019N0112651N1+02601+02401999999ADDGA1041+004801999GA2071+021001999GF107991999999999999999999MA1101191999999REMMET058METAR SBJP 211900Z 18002KT 9999 SCT016 BKN070 26/24 Q1012;
0166827980999992007052610004-07100-034867FM-15+0007SBJP V0202401N00211006001CN0112651N1+02401+02301999999ADDGA1021+003001999GA2041+006001999GA3071+021001999GF107991999999999999999999MA1101291999999REMMET065METAR SBJP 261000Z 24004KT 9999 FEW010 SCT020 BKN070 24/23 Q1013;
0143827980999992007060105004-07100-034867FM-15+0007SBJP V0202201N003110210019N0112651N1+02401+02301999999ADDGA1041+002401999GA2081+021001999GF108991999999999999999999MA1101391999999REMMET058METAR SBJP 010500Z 22006KT 9999 SCT008 OVC070 24/23 Q1014;
0175827980999992007060211004-07100-034867FM-15+0007SBJP V0201101N002610015019N0010001N1+02301+02301999999ADDGA1071+001501999GA2071+004201999GA3081+021001999GF108991999999999999999999MA1101081999999MW1631REMMET068METAR SBJP 021100Z 11005KT 1000 RA BKN005 BKN014 OVC070 23/23 Q1011;
0143827980999992007062918004-07100-034867FM-15+0007SBJP V0201701N004112200019N0112651N1+02801+02201999999ADDGA1041+009001999GA2041+021001999GF104991999999999999999999MA1101491999999REMMET058METAR SBJP 291800Z 17008KT 9999 SCT030 SCT070 28/22 Q1015;
0143827980999992007062919004-07100-034867FM-15+0007SBJP V0201601N004112200019N0112651N1+02701+02301999999ADDGA1041+009001999GA2041+021001999GF104991999999999999999999MA1101491999999REMMET058METAR SBJP 291900Z 16008KT 9999 SCT030 SCT070 27/23 Q1015;
0120827980999992007062920004-07100-034867FM-15+0007SBJP V0201601N003112200019N0112651N1+02501+02301999999ADDGA1041+009001999GF104991999999999999999999MA1101591999999REMMET051METAR SBJP 292000Z 16006KT 9999 SCT030 25/23 Q1016;
0120827980999992007062921004-07100-034867FM-15+0007SBJP V0201801N002112200019N0112651N1+02401+02301999999ADDGA1021+009001999GF102991999999999999999999MA1101591999999REMMET051METAR SBJP 292100Z 18004KT 9999 FEW030 24/23 Q1016;
0072827980999992007062922004-07100-034867FM-15+0007SBJP V0201601N00211220001CN0099001N1+02401+02201999999ADDMA1101691999999REMMET045METAR SBJP 292200Z 16004KT CAVOK 24/22 Q1017;
0120827980999992007062923004-07100-034867FM-15+0007SBJP V0201801N001012200019N0112651N1+02401+02201999999ADDGA1041+006001999GF104991999999999999999999MA1101691999999REMMET051METAR SBJP 292300Z 18002KT 9999 SCT020 24/22 Q1017;
0120827980999992007063000004-07100-034867FM-15+0007SBJP V0209999C000012200019N0112651N1+02401+02201999999ADDGA1041+006001999GF104991999999999999999999MA1101691999999REMMET051METAR SBJP 300000Z 00000KT 9999 SCT020 24/22 Q1017;
0120827980999992007063001004-07100-034867FM-15+0007SBJP V0202001N001512200019N0112651N1+02301+02201999999ADDGA1021+006001999GF102991999999999999999999MA1101801999999REMMET051METAR SBJP 300100Z 20003KT 9999 FEW020 23/22 Q1018;
0120827980999992007063002004-07100-034867FM-15+0007SBJP V0202001N001512200019N0112651N1+02401+02201999999ADDGA1041+004501999GF104991999999999999999999MA1101801999999REMMET051METAR SBJP 300200Z 20003KT 9999 SCT015 24/22 Q1018;
0120827980999992007063003004-07100-034867FM-15+0007SBJP V0202201N001512200019N0112651N1+02301+02201999999ADDGA1041+004501999GF104991999999999999999999MA1101691999999REMMET051METAR SBJP 300300Z 22003KT 9999 SCT015 23/22 Q1017;
0143827980999992007063004004-07100-034867FM-15+0007SBJP V0201801N002112200019N0112651N1+02301+02301999999ADDGA1041+004501999GA2041+021001999GF104991999999999999999999MA1101691999999REMMET058METAR SBJP 300400Z 18004KT 9999 SCT015 SCT070 23/23 Q1017;
0143827980999992007063005004-07100-034867FM-15+0007SBJP V0201901N001512200019N0112651N1+02301+02201999999ADDGA1041+004501999GA2041+021001999GF104991999999999999999999MA1101591999999REMMET058METAR SBJP 300500Z 19003KT 9999 SCT015 SCT070 23/22 Q1016;
0143827980999992007063006004-07100-034867FM-15+0007SBJP V0202001N001512200019N0112651N1+02401+02201999999ADDGA1041+004501999GA2041+021001999GF104991999999999999999999MA1101591999999REMMET058METAR SBJP 300600Z 20003KT 9999 SCT015 SCT070 24/22 Q1016;
0143827980999992007063007004-07100-034867FM-15+0007SBJP V0201801N001010210019N0112651N1+02301+02201999999ADDGA1041+004501999GA2071+021001999GF107991999999999999999999MA1101691999999REMMET058METAR SBJP 300700Z 18002KT 9999 SCT015 BKN070 23/22 Q1017;
0143827980999992007063008004-07100-034867FM-15+0007SBJP V0202101N002110210019N0112651N1+02301+02201999999ADDGA1041+006001999GA2071+021001999GF107991999999999999999999MA1101691999999REMMET058METAR SBJP 300800Z 21004KT 9999 SCT020 BKN070 23/22 Q1017;
0120827980999992007063009004-07100-034867FM-15+0007SBJP V0202101N002112200019N0112651N1+02301+02101999999ADDGA1041+006001999GF104991999999999999999999MA1101691999999REMMET051METAR SBJP 300900Z 21004KT 9999 SCT020 23/21 Q1017;
0120827980999992007063010004-07100-034867FM-15+0007SBJP V0202001N002112200019N0112651N1+02401+02201999999ADDGA1041+006001999GF104991999999999999999999MA1101801999999REMMET051METAR SBJP 301000Z 20004KT 9999 SCT020 24/22 Q1018;
0120827980999992007063011004-07100-034867FM-15+0007SBJP V0201901N002612200019N0112651N1+02501+02301999999ADDGA1021+006001999GF102991999999999999999999MA1101901999999REMMET051METAR SBJP 301100Z 19005KT 9999 FEW020 25/23 Q1019;
0120827980999992007063012004-07100-034867FM-15+0007SBJP V0201901N003110060019N0112651N1+02701+02301999999ADDGA1071+006001999GF107991999999999999999999MA1102001999999REMMET051METAR SBJP 301200Z 19006KT 9999 BKN020 27/23 Q1020;
0120827980999992007063013004-07100-034867FM-15+0007SBJP V0201601N003110045019N0112651N1+02701+02301999999ADDGA1071+004501999GF107991999999999999999999MA1102001999999REMMET051METAR SBJP 301300Z 16006KT 9999 BKN015 27/23 Q1020;
0120827980999992007063014004-07100-034867FM-15+0007SBJP V0201701N004612200019N0112651N1+02901+02301999999ADDGA1041+006001999GF104991999999999999999999MA1101901999999REMMET051METAR SBJP 301400Z 17009KT 9999 SCT020 29/23 Q1019;
0120827980999992007063015004-07100-034867FM-15+0007SBJP V0201701N004612200019N0112651N1+02801+02301999999ADDGA1021+006001999GF102991999999999999999999MA1101801999999REMMET051METAR SBJP 301500Z 17009KT 9999 FEW020 28/23 Q1018;
0120827980999992007063016004-07100-034867FM-15+0007SBJP V0201701N004112200019N0112651N1+02901+02301999999ADDGA1041+007501999GF104991999999999999999999MA1101801999999REMMET051METAR SBJP 301600Z 17008KT 9999 SCT025 29/23 Q1018;
0120827980999992007063018004-07100-034867FM-15+0007SBJP V0201501N005112200019N0112651N1+02901+02101999999ADDGA1021+009001999GF102991999999999999999999MA1101691999999REMMET051METAR SBJP 301800Z 15010KT 9999 FEW030 29/21 Q1017;
0120827980999992007063019004-07100-034867FM-15+0007SBJP V0201401N005712200019N0112651N1+02801+02101999999ADDGA1021+007501999GF102991999999999999999999MA1101691999999REMMET051METAR SBJP 301900Z 14011KT 9999 FEW025 28/21 Q1017;
0072827980999992007063020004-07100-034867FM-15+0007SBJP V0201601N00311220001CN0099001N1+02701+02101999999ADDMA1101691999999REMMET045METAR SBJP 302000Z 16006KT CAVOK 27/21 Q1017;
0072827980999992007063021004-07100-034867FM-15+0007SBJP V0201701N00361220001CN0099001N1+02501+02201999999ADDMA1101691999999REMMET045METAR SBJP 302100Z 17007KT CAVOK 25/22 Q1017;
0072827980999992007063022004-07100-034867FM-15+0007SBJP V0201901N00261220001CN0099001N1+02401+02101999999ADDMA1101801999999REMMET045METAR SBJP 302200Z 19005KT CAVOK 24/21 Q1018;
0143827980999992007070211004-07100-034867FM-15+0007SBJP V0202001N003112200019N0112651N1+02501+02301999999ADDGA1021+006001999GA2041+024001999GF104991999999999999999999MA1101901999999REMMET058METAR SBJP 021100Z 20006KT 9999 FEW020 SCT080 25/23 Q1019;
0136827980999992007070212004-07100-034867FM-15+0007SBJP V0201901N00311220001CN0112651N1+02601+02301999999ADDGA1071+004501999GA2041+024001999MA1101901999999REMMET058METAR SBJP 021200Z 19006KT 9999 BKN015 SCT080 26/23 Q1019;EQDQ01+000042SCOTCV
0143827980999992007070214004-07100-034867FM-15+0007SBJP V0201601N005112200019N0112651N1+02701+02301999999ADDGA1041+006001999GA2041+024001999GF104991999999999999999999MA1101801999999REMMET058METAR SBJP 021400Z 16010KT 9999 SCT020 SCT080 27/23 Q1018;
0143827980999992007070215004-07100-034867FM-15+0007SBJP V0201601N006712200019N0112651N1+02901+02101999999ADDGA1041+007501999GA2041+090001999GF104991999999999999999999MA1101691999999REMMET058METAR SBJP 021500Z 16013KT 9999 SCT025 SCT300 29/21 Q1017;
0143827980999992007070216004-07100-034867FM-15+0007SBJP V0201801N006212200019N0112651N1+02901+02101999999ADDGA1041+007501999GA2041+090001999GF104991999999999999999999MA1101691999999REMMET058METAR SBJP 021600Z 18012KT 9999 SCT025 SCT300 29/21 Q1017;
0120827980999992007070217004-07100-034867FM-15+0007SBJP V0201601N006212200019N0112651N1+02901+02101999999ADDGA1041+007501999GF104991999999999999999999MA1101591999999REMMET051METAR SBJP 021700Z 16012KT 9999 SCT025 29/21 Q1016;
0120827980999992007070218004-07100-034867FM-15+0007SBJP V0201701N005712200019N0112651N1+02901+02101999999ADDGA1041+007501999GF104991999999999999999999MA1101591999999REMMET051METAR SBJP 021800Z 17011KT 9999 SCT025 29/21 Q1016;
0120827980999992007070219004-07100-034867FM-15+0007SBJP V0201901N005112200019N0112651N1+02801+02201999999ADDGA1041+007501999GF104991999999999999999999MA1101391999999REMMET051METAR SBJP 021900Z 19010KT 9999 SCT025 28/22 Q1014;
0120827980999992007070220004-07100-034867FM-15+0007SBJP V0202001N004112200019N0112651N1+02501+02301999999ADDGA1041+007501999GF104991999999999999999999MA1101591999999REMMET051METAR SBJP 022000Z 20008KT 9999 SCT025 25/23 Q1016;
0120827980999992007070221004-07100-034867FM-15+0007SBJP V0202001N003112200019N0112651N1+02401+02201999999ADDGA1041+007501999GF104991999999999999999999MA1101591999999REMMET051METAR SBJP 022100Z 20006KT 9999 SCT025 24/22 Q1016;
0072827980999992007070222004-07100-034867FM-15+0007SBJP V0201701N00211220001CN0099001N1+02401+02301999999ADDMA1101691999999REMMET045METAR SBJP 022200Z 17004KT CAVOK 24/23 Q1017;
0153827980999992007070223004-07100-034867FM-15+0007SBJP V0201601N002610060019N0112651N1+02401+02301999999ADDGA1071+006001999GA2071+021001999GF107991999999999999999999MA1101691999999MW1611REMMET062METAR SBJP 022300Z 16005KT 9999 -RA BKN020 BKN070 24/23 Q1017;
0072827980999992007070300004-07100-034867FM-15+0007SBJP V0201901N00211220001CN0099001N1+02401+02201999999ADDMA1101801999999REMMET045METAR SBJP 030000Z 19004KT CAVOK 24/22 Q1018;
0120827980999992007070301004-07100-034867FM-15+0007SBJP V0202001N002112200019N0112651N1+02301+02201999999ADDGA1041+006001999GF104991999999999999999999MA1101801999999REMMET051METAR SBJP 030100Z 20004KT 9999 SCT020 23/22 Q1018;
0120827980999992007070302004-07100-034867FM-15+0007SBJP V0202201N002112200019N0112651N1+02301+02201999999ADDGA1041+006001999GF104991999999999999999999MA1101801999999REMMET051METAR SBJP 030200Z 22004KT 9999 SCT020 23/22 Q1018;
0120827980999992007070303004-07100-034867FM-15+0007SBJP V0202201N002112200019N0112651N1+02301+02201999999ADDGA1021+006001999GF102991999999999999999999MA1101801999999REMMET051METAR SBJP 030300Z 22004KT 9999 FEW020 23/22 Q1018;
0120827980999992007070304004-07100-034867FM-15+0007SBJP V0202301N002612200019N0112651N1+02201+02201999999ADDGA1021+006001999GF102991999999999999999999MA1101691999999REMMET051METAR SBJP 030400Z 23005KT 9999 FEW020 22/22 Q1017;
0120827980999992007070305004-07100-034867FM-15+0007SBJP V0202101N002112200019N0112651N1+02101+02101999999ADDGA1021+006001999GF102991999999999999999999MA1101691999999REMMET051METAR SBJP 030500Z 21004KT 9999 FEW020 21/21 Q1017;
0120827980999992007070306004-07100-034867FM-15+0007SBJP V0202001N002112200019N0112651N1+02201+02101999999ADDGA1021+006001999GF102991999999999999999999MA1101591999999REMMET051METAR SBJP 030600Z 20004KT 9999 FEW020 22/21 Q1016;
0120827980999992007070307004-07100-034867FM-15+0007SBJP V0202201N002112200019N0112651N1+02101+02101999999ADDGA1021+006001999GF102991999999999999999999MA1101591999999REMMET051METAR SBJP 030700Z 22004KT 9999 FEW020 21/21 Q1016;
0120827980999992007070308004-07100-034867FM-15+0007SBJP V0202101N001512200019N0112651N1+02101+02001999999ADDGA1021+006001999GF102991999999999999999999MA1101691999999REMMET051METAR SBJP 030800Z 21003KT 9999 FEW020 21/20 Q1017;
0120827980999992007070309004-07100-034867FM-15+0007SBJP V0202301N001512200019N0112651N1+02101+02001999999ADDGA1021+006001999GF102991999999999999999999MA1101691999999REMMET051METAR SBJP 030900Z 23003KT 9999 FEW020 21/20 Q1017;
0143827980999992007070310004-07100-034867FM-15+0007SBJP V0202301N002112200019N0112651N1+02301+02201999999ADDGA1021+007501999GA2041+090001999GF104991999999999999999999MA1101801999999REMMET058METAR SBJP 031000Z 23004KT 9999 FEW025 SCT300 23/22 Q1018;
0143827980999992007070311004-07100-034867FM-15+0007SBJP V0202001N002612200019N0112651N1+02601+02201999999ADDGA1021+007501999GA2041+090001999GF104991999999999999999999MA1101901999999REMMET058METAR SBJP 031100Z 20005KT 9999 FEW025 SCT300 26/22 Q1019;
0120827980999992007070312004-07100-034867FM-15+0007SBJP V0202001N004112200019N0112651N1+02701+02201999999ADDGA1041+007501999GF104991999999999999999999MA1101901999999REMMET051METAR SBJP 031200Z 20008KT 9999 SCT025 27/22 Q1019;
0120827980999992007070313004-07100-034867FM-15+0007SBJP V0201701N006212200019N0112651N1+02801+02201999999ADDGA1041+007501999GF104991999999999999999999MA1101901999999REMMET051METAR SBJP 031300Z 17012KT 9999 SCT025 28/22 Q1019;
0120827980999992007070314004-07100-034867FM-15+0007SBJP V0201801N006212200019N0112651N1+02901+02001999999ADDGA1041+007501999GF104991999999999999999999MA1101801999999REMMET051METAR SBJP 031400Z 18012KT 9999 SCT025 29/20 Q1018;
0120827980999992007070315004-07100-034867FM-15+0007SBJP V0201801N006212200019N0112651N1+02901+01901999999ADDGA1041+007501999GF104991999999999999999999MA1101801999999REMMET051METAR SBJP 031500Z 18012KT 9999 SCT025 29/19 Q1018;
0120827980999992007070316004-07100-034867FM-15+0007SBJP V0201601N005712200019N0112651N1+02901+02001999999ADDGA1041+009001999GF104991999999999999999999MA1101691999999REMMET051METAR SBJP 031600Z 16011KT 9999 SCT030 29/20 Q1017;
0120827980999992007070317004-07100-034867FM-15+0007SBJP V0201601N005112200019N0112651N1+02901+01901999999ADDGA1041+009001999GF104991999999999999999999MA1101591999999REMMET051METAR SBJP 031700Z 16010KT 9999 SCT030 29/19 Q1016;
0120827980999992007070318004-07100-034867FM-15+0007SBJP V0201601N005712200019N0112651N1+02901+01901999999ADDGA1021+009001999GF102991999999999999999999MA1101591999999REMMET051METAR SBJP 031800Z 16011KT 9999 FEW030 29/19 Q1016;
0120827980999992007070319004-07100-034867FM-15+0007SBJP V0201501N006712200019N0112651N1+02701+02001999999ADDGA1021+009001999GF102991999999999999999999MA1101591999999REMMET051METAR SBJP 031900Z 15013KT 9999 FEW030 27/20 Q1016;
0120827980999992007070320004-07100-034867FM-15+0007SBJP V0201801N004112200019N0112651N1+02601+02101999999ADDGA1021+009001999GF102991999999999999999999MA1101691999999REMMET051METAR SBJP 032000Z 18008KT 9999 FEW030 26/21 Q1017;
0120827980999992007070321004-07100-034867FM-15+0007SBJP V0201601N002112200019N0112651N1+02501+02101999999ADDGA1021+009001999GF102991999999999999999999MA1101691999999REMMET051METAR SBJP 032100Z 16004KT 9999 FEW030 25/21 Q1017;
0120827980999992007070322004-07100-034867FM-15+0007SBJP V0201601N002112200019N0112651N1+02401+02101999999ADDGA1041+006001999GF104991999999999999999999MA1101801999999REMMET051METAR SBJP 032200Z 16004KT 9999 SCT020 24/21 Q1018;
0120827980999992007070323004-07100-034867FM-15+0007SBJP V0201601N002112200019N0112651N1+02301+02101999999ADDGA1041+006001999GF104991999999999999999999MA1101801999999REMMET051METAR SBJP 032300Z 16004KT 9999 SCT020 23/21 Q1018;
0120827980999992007070400004-07100-034867FM-15+0007SBJP V0202001N001512200019N0112651N1+02301+02101999999ADDGA1041+006001999GF104991999999999999999999MA1101901999999REMMET051METAR SBJP 040000Z 20003KT 9999 SCT020 23/21 Q1019;
0120827980999992007070401004-07100-034867FM-15+0007SBJP V0202001N001512200019N0112651N1+02301+02101999999ADDGA1041+006001999GF104991999999999999999999MA1101901999999REMMET051METAR SBJP 040100Z 20003KT 9999 SCT020 23/21 Q1019;
0072827980999992007070402004-07100-034867FM-15+0007SBJP V0202101N00101220001CN0099001N1+02201+02101999999ADDMA1101901999999REMMET045METAR SBJP 040200Z 21002KT CAVOK 22/21 Q1019;
0072827980999992007070403004-07100-034867FM-15+0007SBJP V0202001N00151220001CN0099001N1+02201+02101999999ADDMA1101901999999REMMET045METAR SBJP 040300Z 20003KT CAVOK 22/21 Q1019;
0120827980999992007070404004-07100-034867FM-15+0007SBJP V0202301N001512200019N0112651N1+02201+02101999999ADDGA1041+006001999GF104991999999999999999999MA1101801999999REMMET051METAR SBJP 040400Z 23003KT 9999 SCT020 22/21 Q1018;
0120827980999992007070405004-07100-034867FM-15+0007SBJP V0202401N002112200019N0112651N1+02101+02101999999ADDGA1041+006001999GF104991999999999999999999MA1101801999999REMMET051METAR SBJP 040500Z 24004KT 9999 SCT020 21/21 Q1018;
0120827980999992007070406004-07100-034867FM-15+0007SBJP V0202301N002612200019N0112651N1+02101+02001999999ADDGA1021+006001999GF102991999999999999999999MA1101691999999REMMET051METAR SBJP 040600Z 23005KT 9999 FEW020 21/20 Q1017;
0120827980999992007070407004-07100-034867FM-15+0007SBJP V0202201N002112200019N0112651N1+02101+02001999999ADDGA1021+006001999GF102991999999999999999999MA1101691999999REMMET051METAR SBJP 040700Z 22004KT 9999 FEW020 21/20 Q1017;
0120827980999992007070408004-07100-034867FM-15+0007SBJP V0202201N002112200019N0112651N1+02101+02001999999ADDGA1021+006001999GF102991999999999999999999MA1101691999999REMMET051METAR SBJP 040800Z 22004KT 9999 FEW020 21/20 Q1017;
0120827980999992007070409004-07100-034867FM-15+0007SBJP V0202201N002112200019N0112651N1+02101+02001999999ADDGA1021+006001999GF102991999999999999999999MA1101691999999REMMET051METAR SBJP 040900Z 22004KT 9999 FEW020 21/20 Q1017;
0120827980999992007070410004-07100-034867FM-15+0007SBJP V0201901N002612200019N0112651N1+02301+02101999999ADDGA1041+006001999GF104991999999999999999999MA1101801999999REMMET051METAR SBJP 041000Z 19005KT 9999 SCT020 23/21 Q1018;
0120827980999992007070413004-07100-034867FM-15+0007SBJP V0201501N005112200019N0112651N1+02801+02201999999ADDGA1041+009001999GF104991999999999999999999MA1101901999999REMMET051METAR SBJP 041300Z 15010KT 9999 SCT030 28/22 Q1019;
0143827980999992007070414004-07100-034867FM-15+0007SBJP V0201501N006210210019N0112651N1+02701+02001999999ADDGA1041+009001999GA2071+021001999GF107991999999999999999999MA1101801999999REMMET058METAR SBJP 041400Z 15012KT 9999 SCT030 BKN070 27/20 Q1018;
0143827980999992007070415004-07100-034867FM-15+0007SBJP V0201501N006710210019N0112651N1+02801+02001999999ADDGA1041+009001999GA2071+021001999GF107991999999999999999999MA1101801999999REMMET058METAR SBJP 041500Z 15013KT 9999 SCT030 BKN070 28/20 Q1018;
0143827980999992007070416004-07100-034867FM-15+0007SBJP V0201501N005710060019N0112651N1+02701+02101999999ADDGA1071+006001999GA2071+021001999GF107991999999999999999999MA1101801999999REMMET058METAR SBJP 041600Z 15011KT 9999 BKN020 BKN070 27/21 Q1018;
0154827980999992007070417004-07100-034867FM-15+0007SBJP V0201701N002610060019N0080001N1+02501+02201999999ADDGA1071+006001999GA2071+021001999GF107991999999999999999999MA1101691999999MW1161REMMET063METAR SBJP 041700Z 17005KT 8000 VCSH BKN020 BKN070 25/22 Q1017;
0153827980999992007070419004-07100-034867FM-15+0007SBJP V0201501N003110051019N0045001N1+02501+02301999999ADDGA1071+005101999GA2071+021001999GF107991999999999999999999MA1101691999999MW1611REMMET062METAR SBJP 041900Z 15006KT 4500 -RA BKN017 BKN070 25/23 Q1017;
0120827980999992007070420004-07100-034867FM-15+0007SBJP V0201601N002612200019N0112651N1+02501+02201999999ADDGA1041+006001999GF104991999999999999999999MA1101691999999REMMET051METAR SBJP 042000Z 16005KT 9999 SCT020 25/22 Q1017;
0120827980999992007070421004-07100-034867FM-15+0007SBJP V0201601N003110060019N0112651N1+02401+02101999999ADDGA1071+006001999GF107991999999999999999999MA1101691999999REMMET051METAR SBJP 042100Z 16006KT 9999 BKN020 24/21 Q1017;
0143827980999992007070422004-07100-034867FM-15+0007SBJP V0201801N002112200019N0112651N1+02401+02101999999ADDGA1021+007501999GA2041+021001999GF104991999999999999999999MA1101801999999REMMET058METAR SBJP 042200Z 18004KT 9999 FEW025 SCT070 24/21 Q1018;
0143827980999992007070423004-07100-034867FM-15+0007SBJP V0201801N002112200019N0112651N1+02401+02101999999ADDGA1021+006001999GA2041+021001999GF104991999999999999999999MA1101801999999REMMET058METAR SBJP 042300Z 18004KT 9999 FEW020 SCT070 24/21 Q1018;
0143827980999992007070500004-07100-034867FM-15+0007SBJP V0201701N002612200019N0112651N1+02401+02201999999ADDGA1041+006001999GA2041+021001999GF104991999999999999999999MA1101901999999REMMET058METAR SBJP 050000Z 17005KT 9999 SCT020 SCT070 24/22 Q1019;
0143827980999992007070501004-07100-034867FM-15+0007SBJP V0201701N002612200019N0112651N1+02401+02201999999ADDGA1041+006001999GA2041+021001999GF104991999999999999999999MA1101901999999REMMET058METAR SBJP 050100Z 17005KT 9999 SCT020 SCT070 24/22 Q1019;
0153827980999992007070505004-07100-034867FM-15+0007SBJP V0202001N004110045019N0112651N1+02301+02201999999ADDGA1071+004501999GA2071+006001999GF107991999999999999999999MA1101691999999MW1611REMMET062METAR SBJP 050500Z 20008KT 9999 -RA BKN015 BKN020 23/22 Q1017;
0072827980999992007070506004-07100-034867FM-15+0007SBJP V0201901N00261220001CN0099001N1+02301+02201999999ADDMA1101691999999REMMET045METAR SBJP 050600Z 19005KT CAVOK 23/22 Q1017;
0153827980999992007070507004-07100-034867FM-15+0007SBJP V0201901N002610210019N0112651N1+02201+02101999999ADDGA1041+006001999GA2071+021001999GF107991999999999999999999MA1101691999999MW1611REMMET062METAR SBJP 050700Z 19005KT 9999 -RA SCT020 BKN070 22/21 Q1017;
0153827980999992007070508004-07100-034867FM-15+0007SBJP V0201901N003110045019N0112651N1+02301+02101999999ADDGA1071+004501999GA2071+009001999GF107991999999999999999999MA1101691999999MW1611REMMET062METAR SBJP 050800Z 19006KT 9999 -RA BKN015 BKN030 23/21 Q1017;
0166827980999992007070509004-07100-034867FM-15+0007SBJP V0202001N003110060019N0112651N1+02201+02101999999ADDGA1041+004501999GA2071+006001999GA3071+021001999GF107991999999999999999999MA1101691999999REMMET065METAR SBJP 050900Z 20006KT 9999 SCT015 BKN020 BKN070 22/21 Q1017;
0153827980999992007070510004-07100-034867FM-15+0007SBJP V0201801N003110036019N0040001N1+02201+02101999999ADDGA1071+003601999GA2071+004801999GF107991999999999999999999MA1101801999999MW1611REMMET062METAR SBJP 051000Z 18006KT 4000 -RA BKN012 BKN016 22/21 Q1018;
0155827980999992007070511004-07100-034867FM-15+0007SBJP V0201801N003110048019N0112651N1+02401+02201999999ADDGA1071+004801999GF107991999999999999999999MA1999999999999REMMET051METAR SBJP 051100Z 18006KT 9999 BKN016 24/22 Q1027;EQDQ01+102713APOA  Q02 102703APOA  
0143827980999992007070512004-07100-034867FM-15+0007SBJP V0201901N004110021019N0112651N1+02501+02301999999ADDGA1071+002101999GA2071+004801999GF107991999999999999999999MA1101901999999REMMET058METAR SBJP 051200Z 19008KT 9999 BKN007 BKN016 25/23 Q1019;
0120827980999992007070513004-07100-034867FM-15+0007SBJP V0201901N003112200019N0112651N1+02601+02401999999ADDGA1041+006001999GF104991999999999999999999MA1101901999999REMMET051METAR SBJP 051300Z 19006KT 9999 SCT020 26/24 Q1019;
0120827980999992007070514004-07100-034867FM-15+0007SBJP V0201401N005712200019N0112651N1+02801+02101999999ADDGA1041+009001999GF104991999999999999999999MA1101801999999REMMET051METAR SBJP 051400Z 14011KT 9999 SCT030 28/21 Q1018;
0120827980999992007070515004-07100-034867FM-15+0007SBJP V0201501N006712200019N0112651N1+02901+02201999999ADDGA1041+009001999GF104991999999999999999999MA1101801999999REMMET051METAR SBJP 051500Z 15013KT 9999 SCT030 29/22 Q1018;
0120827980999992007070516004-07100-034867FM-15+0007SBJP V0201601N006712200019N0112651N1+02901+02101999999ADDGA1041+009001999GF104991999999999999999999MA1101691999999REMMET051METAR SBJP 051600Z 16013KT 9999 SCT030 29/21 Q1017;
0120827980999992007070517004-07100-034867FM-15+0007SBJP V0201601N005112200019N0112651N1+02901+02001999999ADDGA1021+009001999GF102991999999999999999999MA1101591999999REMMET051METAR SBJP 051700Z 16010KT 9999 FEW030 29/20 Q1016;
0120827980999992007070518004-07100-034867FM-15+0007SBJP V0201601N006212200019N0112651N1+02801+02101999999ADDGA1021+009001999GF102991999999999999999999MA1101591999999REMMET051METAR SBJP 051800Z 16012KT 9999 FEW030 28/21 Q1016;
0143827980999992007070519004-07100-034867FM-15+0007SBJP V0201501N005712200019N0112651N1+02701+02101999999ADDGA1021+007501999GA2041+021001999GF104991999999999999999999MA1101591999999REMMET058METAR SBJP 051900Z 15011KT 9999 FEW025 SCT070 27/21 Q1016;
0154827980999992007070520004-07100-034867FM-15+0007SBJP V0201401N004112200019N0090001N1+02401+02101999999ADDGA1041+006001999GA2041+021001999GF104991999999999999999999MA1101591999999MW1161REMMET063METAR SBJP 052000Z 14008KT 9000 VCSH SCT020 SCT070 24/21 Q1016;
0143827980999992007070521004-07100-034867FM-15+0007SBJP V0201601N003610210019N0112651N1+02401+02201999999ADDGA1041+006001999GA2071+021001999GF107991999999999999999999MA1101591999999REMMET058METAR SBJP 052100Z 16007KT 9999 SCT020 BKN070 24/22 Q1016;
0143827980999992007070522004-07100-034867FM-15+0007SBJP V0201501N003110210019N0112651N1+02401+02201999999ADDGA1021+006001999GA2071+021001999GF107991999999999999999999MA1101691999999REMMET058METAR SBJP 052200Z 15006KT 9999 FEW020 BKN070 24/22 Q1017;
0153827980999992007070523004-07100-034867FM-15+0007SBJP V0201601N004610210019N0060001N1+02401+02301999999ADDGA1041+005101999GA2071+021001999GF107991999999999999999999MA1101691999999MW1611REMMET062METAR SBJP 052300Z 16009KT 6000 -RA SCT017 BKN070 24/23 Q1017;
0143827980999992007070600004-07100-034867FM-15+0007SBJP V0201601N003110210019N0112651N1+02301+02201999999ADDGA1041+005101999GA2071+021001999GF107991999999999999999999MA1101801999999REMMET058METAR SBJP 060000Z 16006KT 9999 SCT017 BKN070 23/22 Q1018;
0143827980999992007070601004-07100-034867FM-15+0007SBJP V0201601N002610210019N0112651N1+02301+02101999999ADDGA1021+005101999GA2071+021001999GF107991999999999999999999MA1101801999999REMMET058METAR SBJP 060100Z 16005KT 9999 FEW017 BKN070 23/21 Q1018;
0143827980999992007070602004-07100-034867FM-15+0007SBJP V0201701N002610210019N0112651N1+02301+02101999999ADDGA1021+005101999GA2071+021001999GF107991999999999999999999MA1101691999999REMMET058METAR SBJP 060200Z 17005KT 9999 FEW017 BKN070 23/21 Q1017;
0143827980999992007070603004-07100-034867FM-15+0007SBJP V0202001N002610210019N0112651N1+02301+02101999999ADDGA1021+005101999GA2071+021001999GF107991999999999999999999MA1101691999999REMMET058METAR SBJP 060300Z 20005KT 9999 FEW017 BKN070 23/21 Q1017;
0143827980999992007070604004-07100-034867FM-15+0007SBJP V0202001N002110036019N0112651N1+02301+02101999999ADDGA1071+003601999GA2071+021001999GF107991999999999999999999MA1101691999999REMMET058METAR SBJP 060400Z 20004KT 9999 BKN012 BKN070 23/21 Q1017;
0120827980999992007070605004-07100-034867FM-15+0007SBJP V0202201N002110060019N0112651N1+02201+02101999999ADDGA1071+006001999GF107991999999999999999999MA1101591999999REMMET051METAR SBJP 060500Z 22004KT 9999 BKN020 22/21 Q1016;
0120827980999992007070606004-07100-034867FM-15+0007SBJP V0202201N001010060019N0112651N1+02201+02101999999ADDGA1071+006001999GF107991999999999999999999MA1101591999999REMMET051METAR SBJP 060600Z 22002KT 9999 BKN020 22/21 Q1016;
0120827980999992007070607004-07100-034867FM-15+0007SBJP V0202301N001012200019N0112651N1+02201+02101999999ADDGA1041+006001999GF104991999999999999999999MA1101591999999REMMET051METAR SBJP 060700Z 23002KT 9999 SCT020 22/21 Q1016;
0120827980999992007070608004-07100-034867FM-15+0007SBJP V0202201N002112200019N0112651N1+02101+02001999999ADDGA1041+006001999GF104991999999999999999999MA1101591999999REMMET051METAR SBJP 060800Z 22004KT 9999 SCT020 21/20 Q1016;
0120827980999992007070609004-07100-034867FM-15+0007SBJP V0202001N001512200019N0112651N1+02101+02001999999ADDGA1021+006001999GF102991999999999999999999MA1101591999999REMMET051METAR SBJP 060900Z 20003KT 9999 FEW020 21/20 Q1016;
0130827980999992007070610004-07100-034867FM-15+0007SBJP V0202101N002112200019N0112651N1+02201+02101999999ADDGA1041+006001999GF104991999999999999999999MA1101691999999MW1611REMMET055METAR SBJP 061000Z 21004KT 9999 -RA SCT020 22/21 Q1017;
0120827980999992007070611004-07100-034867FM-15+0007SBJP V0202001N002112200019N0112651N1+02401+02201999999ADDGA1041+007501999GF104991999999999999999999MA1101691999999REMMET051METAR SBJP 061100Z 20004KT 9999 SCT025 24/22 Q1017;
0120827980999992007070612004-07100-034867FM-15+0007SBJP V0202001N002112200019N0112651N1+02501+02301999999ADDGA1041+008101999GF104991999999999999999999MA1101691999999REMMET051METAR SBJP 061200Z 20004KT 9999 SCT027 25/23 Q1017;
0120827980999992007070613004-07100-034867FM-15+0007SBJP V0201301N007212200019N0112651N1+02801+02001999999ADDGA1021+009001999GF102991999999999999999999MA1101691999999REMMET051METAR SBJP 061300Z 13014KT 9999 FEW030 28/20 Q1017;
0120827980999992007070614004-07100-034867FM-15+0007SBJP V0201201N006712200019N0112651N1+02801+02001999999ADDGA1021+009001999GF102991999999999999999999MA1101691999999REMMET051METAR SBJP 061400Z 12013KT 9999 FEW030 28/20 Q1017;
0120827980999992007070615004-07100-034867FM-15+0007SBJP V0201201N007212200019N0112651N1+02901+01901999999ADDGA1041+009001999GF104991999999999999999999MA1101591999999REMMET051METAR SBJP 061500Z 12014KT 9999 SCT030 29/19 Q1016;
0120827980999992007070616004-07100-034867FM-15+0007SBJP V0201601N005712200019N0112651N1+02801+02101999999ADDGA1041+009001999GF104991999999999999999999MA1101491999999REMMET051METAR SBJP 061600Z 16011KT 9999 SCT030 28/21 Q1015;
0120827980999992007070617004-07100-034867FM-15+0007SBJP V0201501N005112200019N0112651N1+02801+02001999999ADDGA1041+009001999GF104991999999999999999999MA1101491999999REMMET051METAR SBJP 061700Z 15010KT 9999 SCT030 28/20 Q1015;
0120827980999992007070618004-07100-034867FM-15+0007SBJP V0201701N006212200019N0112651N1+02801+01901999999ADDGA1021+009001999GF102991999999999999999999MA1101491999999REMMET051METAR SBJP 061800Z 17012KT 9999 FEW030 28/19 Q1015;
0120827980999992007070619004-07100-034867FM-15+0007SBJP V0201601N006212200019N0112651N1+02701+02001999999ADDGA1021+009001999GF102991999999999999999999MA1101491999999REMMET051METAR SBJP 061900Z 16012KT 9999 FEW030 27/20 Q1015;
0120827980999992007070620004-07100-034867FM-15+0007SBJP V0201701N005112200019N0112651N1+02601+02101999999ADDGA1021+009001999GF102991999999999999999999MA1101491999999REMMET051METAR SBJP 062000Z 17010KT 9999 FEW030 26/21 Q1015;
0120827980999992007070621004-07100-034867FM-15+0007SBJP V0201801N003112200019N0112651N1+02501+02101999999ADDGA1021+007501999GF102991999999999999999999MA1101491999999REMMET051METAR SBJP 062100Z 18006KT 9999 FEW025 25/21 Q1015;
0072827980999992007070622004-07100-034867FM-15+0007SBJP V0201801N00361220001CN0099001N1+02401+02101999999ADDMA1101591999999REMMET045METAR SBJP 062200Z 18007KT CAVOK 24/21 Q1016;
0072827980999992007070623004-07100-034867FM-15+0007SBJP V0202001N00211220001CN0099001N1+02401+02101999999ADDMA1101591999999REMMET045METAR SBJP 062300Z 20004KT CAVOK 24/21 Q1016;
0072827980999992007070700004-07100-034867FM-15+0007SBJP V0201901N00211220001CN0099001N1+02301+02201999999ADDMA1101591999999REMMET045METAR SBJP 070000Z 19004KT CAVOK 23/22 Q1016;
0072827980999992007070701004-07100-034867FM-15+0007SBJP V0202001N00211220001CN0099001N1+02301+02101999999ADDMA1101591999999REMMET045METAR SBJP 070100Z 20004KT CAVOK 23/21 Q1016;
0072827980999992007070702004-07100-034867FM-15+0007SBJP V0202101N00151220001CN0099001N1+02301+02201999999ADDMA1101591999999REMMET045METAR SBJP 070200Z 21003KT CAVOK 23/22 Q1016;
0072827980999992007070703004-07100-034867FM-15+0007SBJP V0202101N00211220001CN0099001N1+02301+02201999999ADDMA1101591999999REMMET045METAR SBJP 070300Z 21004KT CAVOK 23/22 Q1016;
0072827980999992007070704004-07100-034867FM-15+0007SBJP V0202101N00211220001CN0099001N1+02201+02101999999ADDMA1101491999999REMMET045METAR SBJP 070400Z 21004KT CAVOK 22/21 Q1015;
0120827980999992007070705004-07100-034867FM-15+0007SBJP V0202201N001512200019N0112651N1+02201+02101999999ADDGA1041+006001999GF104991999999999999999999MA1101491999999REMMET051METAR SBJP 070500Z 22003KT 9999 SCT020 22/21 Q1015;
0120827980999992007070706004-07100-034867FM-15+0007SBJP V0202101N001512200019N0112651N1+02201+02101999999ADDGA1041+004201999GF104991999999999999999999MA1101491999999REMMET051METAR SBJP 070600Z 21003KT 9999 SCT014 22/21 Q1015;
0120827980999992007070707004-07100-034867FM-15+0007SBJP V0202201N001012200019N0112651N1+02101+02001999999ADDGA1041+004501999GF104991999999999999999999MA1101491999999REMMET051METAR SBJP 070700Z 22002KT 9999 SCT015 21/20 Q1015;
0120827980999992007070708004-07100-034867FM-15+0007SBJP V0202201N001012200019N0112651N1+02101+02001999999ADDGA1041+004501999GF104991999999999999999999MA1101491999999REMMET051METAR SBJP 070800Z 22002KT 9999 SCT015 21/20 Q1015;
0120827980999992007070709004-07100-034867FM-15+0007SBJP V0202201N001012200019N0112651N1+02101+02001999999ADDGA1041+004501999GF104991999999999999999999MA1101491999999REMMET051METAR SBJP 070900Z 22002KT 9999 SCT015 21/20 Q1015;
0143827980999992007070710004-07100-034867FM-15+0007SBJP V0202401N001512200019N0112651N1+02301+02201999999ADDGA1041+004501999GA2041+021001999GF104991999999999999999999MA1101491999999REMMET058METAR SBJP 071000Z 24003KT 9999 SCT015 SCT070 23/22 Q1015;
0143827980999992007070711004-07100-034867FM-15+0007SBJP V0202301N002612200019N0112651N1+02501+02201999999ADDGA1041+005101999GA2041+021001999GF104991999999999999999999MA1101591999999REMMET058METAR SBJP 071100Z 23005KT 9999 SCT017 SCT070 25/22 Q1016;
0136827980999992007070712004-07100-034867FM-15+0007SBJP V0202001N00411220001CN0112651N1+02501+02301999999ADDGA1071+004501999GA2041+021001999MA1101591999999REMMET058METAR SBJP 071200Z 20008KT 9999 BKN015 SCT070 25/23 Q1016;EQDQ01+000042SCOTCV
0153827980999992007070713004-07100-034867FM-15+0007SBJP V0201701N004612200019N0050001N1+02401+02301999999ADDGA1041+003901999GA2041+005101999GF104991999999999999999999MA1101591999999MW1611REMMET062METAR SBJP 071300Z 17009KT 5000 -RA SCT013 SCT017 24/23 Q1016;
0143827980999992007070714004-07100-034867FM-15+0007SBJP V0201601N003612200019N0112651N1+02701+02401999999ADDGA1021+003901999GA2041+005101999GF104991999999999999999999MA1101491999999REMMET058METAR SBJP 071400Z 16007KT 9999 FEW013 SCT017 27/24 Q1015;
0143827980999992007070715004-07100-034867FM-15+0007SBJP V0201301N004112200019N0112651N1+02801+02301999999ADDGA1041+006001999GA2041+090001999GF104991999999999999999999MA1101491999999REMMET058METAR SBJP 071500Z 13008KT 9999 SCT020 SCT300 28/23 Q1015;
0166827980999992007070716004-07100-034867FM-15+0007SBJP V0201401N006210045019N0112651N1+02501+02401999999ADDGA1041+002401999GA2071+004501999GA3071+021001999GF107991999999999999999999MA1101391999999REMMET065METAR SBJP 071600Z 14012KT 9999 SCT008 BKN015 BKN070 25/24 Q1014;
0143827980999992007070717004-07100-034867FM-15+0007SBJP V0201401N003110045019N0112651N1+02601+02301999999ADDGA1071+004501999GA2071+021001999GF107991999999999999999999MA1101391999999REMMET058METAR SBJP 071700Z 14006KT 9999 BKN015 BKN070 26/23 Q1014;
0143827980999992007070718004-07100-034867FM-15+0007SBJP V0201501N003110210019N0112651N1+02701+02301999999ADDGA1041+006001999GA2071+021001999GF107991999999999999999999MA1101391999999REMMET058METAR SBJP 071800Z 15006KT 9999 SCT020 BKN070 27/23 Q1014;
0143827980999992007070719004-07100-034867FM-15+0007SBJP V0201401N004610210019N0112651N1+02601+02201999999ADDGA1041+006001999GA2071+021001999GF107991999999999999999999MA1101391999999REMMET058METAR SBJP 071900Z 14009KT 9999 SCT020 BKN070 26/22 Q1014;
0176827980999992007070720004-07100-034867FM-15+0007SBJP V0201601N002110045019N0040001N1+02501+02301999999ADDGA1041+002401999GA2071+004501999GA3071+021001999GF107991999999999999999999MA1101391999999MW1611REMMET069METAR SBJP 072000Z 16004KT 4000 -RA SCT008 BKN015 BKN070 25/23 Q1014;
0176827980999992007070721004-07100-034867FM-15+0007SBJP V0201901N002610045019N0040001N1+02401+02301999999ADDGA1041+002401999GA2071+004501999GA3071+021001999GF107991999999999999999999MA1101391999999MW1611REMMET069METAR SBJP 072100Z 19005KT 4000 -RA SCT008 BKN015 BKN070 24/23 Q1014;
0143827980999992007070722004-07100-034867FM-15+0007SBJP V0201801N001510210019N0112651N1+02401+02301999999ADDGA1041+006001999GA2081+021001999GF108991999999999999999999MA1101491999999REMMET058METAR SBJP 072200Z 18003KT 9999 SCT020 OVC070 24/23 Q1015;
0143827980999992007070723004-07100-034867FM-15+0007SBJP V0202101N002612200019N0112651N1+02401+02301999999ADDGA1041+006001999GA2041+021001999GF104991999999999999999999MA1101491999999REMMET058METAR SBJP 072300Z 21005KT 9999 SCT020 SCT070 24/23 Q1015;
0176827980999992007070800004-07100-034867FM-15+0007SBJP V0201501N001510024019N0030001N1+02401+02301999999ADDGA1071+002401999GA2071+006001999GA3071+021001999GF107991999999999999999999MA1101591999999MW1611REMMET069METAR SBJP 080000Z 15003KT 3000 -RA BKN008 BKN020 BKN070 24/23 Q1016;
0166827980999992007070801004-07100-034867FM-15+0007SBJP V0201801N002110060019N0112651N1+02401+02301999999ADDGA1041+002401999GA2071+006001999GA3071+021001999GF107991999999999999999999MA1101491999999REMMET065METAR SBJP 080100Z 18004KT 9999 SCT008 BKN020 BKN070 24/23 Q1015;
0166827980999992007070802004-07100-034867FM-15+0007SBJP V0201601N002610060019N0112651N1+02401+02301999999ADDGA1041+004201999GA2071+006001999GA3071+021001999GF107991999999999999999999MA1101491999999REMMET065METAR SBJP 080200Z 16005KT 9999 SCT014 BKN020 BKN070 24/23 Q1015;
0143827980999992007070803004-07100-034867FM-15+0007SBJP V0201501N002610210019N0112651N1+02401+02301999999ADDGA1041+004501999GA2071+021001999GF107991999999999999999999MA1101491999999REMMET058METAR SBJP 080300Z 15005KT 9999 SCT015 BKN070 24/23 Q1015;
0143827980999992007070804004-07100-034867FM-15+0007SBJP V0201601N003112200019N0112651N1+02401+02301999999ADDGA1041+003601999GA2041+021001999GF104991999999999999999999MA1101391999999REMMET058METAR SBJP 080400Z 16006KT 9999 SCT012 SCT070 24/23 Q1014;
0146827980999992007070805004-07100-034867FM-15+0007SBJP V0201601N00261220001CN0070001N1+02401+02301999999ADDGA1071+003001999GA2041+021001999MA1101391999999MW1611REMMET062METAR SBJP 080500Z 16005KT 7000 -RA BKN010 SCT070 24/23 Q1014;EQDQ01+000042SCOTCV
0146827980999992007070806004-07100-034867FM-15+0007SBJP V0201301N00211220001CN0050001N1+02401+02301999999ADDGA1071+003001999GA2041+021001999MA1101391999999MW1611REMMET062METAR SBJP 080600Z 13004KT 5000 -RA BKN010 SCT070 24/23 Q1014;EQDQ01+000042SCOTCV
0136827980999992007070807004-07100-034867FM-15+0007SBJP V0201501N00261220001CN0112651N1+02401+02301999999ADDGA1071+003001999GA2041+021001999MA1101391999999REMMET058METAR SBJP 080700Z 15005KT 9999 BKN010 SCT070 24/23 Q1014;EQDQ01+000042SCOTCV
0143827980999992007070809004-07100-034867FM-15+0007SBJP V0201401N002612200019N0112651N1+02401+02301999999ADDGA1041+004501999GA2041+021001999GF104991999999999999999999MA1101391999999REMMET058METAR SBJP 080900Z 14005KT 9999 SCT015 SCT070 24/23 Q1014;
0166827980999992007070813004-07100-034867FM-15+0007SBJP V0201501N00571004501CN0112651N1+02801+02201999999ADDGA1041+002401999GA2041+004501999GA3071+021001999GF107991999999999999999999MA1101591999999REMMET065METAR SBJP 081300Z 15011KT 9999 SCT008 SCT015 BKN070 28/22 Q1016;
0143827980999992007070814004-07100-034867FM-15+0007SBJP V0201601N006710210019N0112651N1+02801+02101999999ADDGA1041+004501999GA2071+021001999GF107991999999999999999999MA1101491999999REMMET058METAR SBJP 081400Z 16013KT 9999 SCT015 BKN070 28/21 Q1015;
0143827980999992007070815004-07100-034867FM-15+0007SBJP V0201801N006710210019N0112651N1+02701+02201999999ADDGA1041+004501999GA2071+021001999GF107991999999999999999999MA1101491999999REMMET058METAR SBJP 081500Z 18013KT 9999 SCT015 BKN070 27/22 Q1015;
0143827980999992007070816004-07100-034867FM-15+0007SBJP V0201401N005710210019N0112651N1+02801+02101999999ADDGA1041+009001999GA2071+021001999GF107991999999999999999999MA1101391999999REMMET058METAR SBJP 081600Z 14011KT 9999 SCT030 BKN070 28/21 Q1014;
0143827980999992007070817004-07100-034867FM-15+0007SBJP V0201401N005712200019N0112651N1+02901+02201999999ADDGA1041+009001999GA2041+021001999GF104991999999999999999999MA1101391999999REMMET058METAR SBJP 081700Z 14011KT 9999 SCT030 SCT070 29/22 Q1014;
0120827980999992007070818004-07100-034867FM-15+0007SBJP V0201501N005712200019N0112651N1+02801+02101999999ADDGA1041+009001999GF104991999999999999999999MA1101391999999REMMET051METAR SBJP 081800Z 15011KT 9999 SCT030 28/21 Q1014;
0143827980999992007070819004-07100-034867FM-15+0007SBJP V0201401N003610210019N0112651N1+02501+02201999999ADDGA1041+009001999GA2071+021001999GF107991999999999999999999MA1101391999999REMMET058METAR SBJP 081900Z 14007KT 9999 SCT030 BKN070 25/22 Q1014;
0143827980999992007070820004-07100-034867FM-15+0007SBJP V0201501N006710210019N0112651N1+02501+02201999999ADDGA1041+009001999GA2071+021001999GF107991999999999999999999MA1101491999999REMMET058METAR SBJP 082000Z 15013KT 9999 SCT030 BKN070 25/22 Q1015;
0143827980999992007070821004-07100-034867FM-15+0007SBJP V0201601N002110210019N0112651N1+02401+02201999999ADDGA1041+009001999GA2071+021001999GF107991999999999999999999MA1101491999999REMMET058METAR SBJP 082100Z 16004KT 9999 SCT030 BKN070 24/22 Q1015;
0120827980999992007070822004-07100-034867FM-15+0007SBJP V0201701N002610060019N0112651N1+02401+02201999999ADDGA1071+006001999GF107991999999999999999999MA1101491999999REMMET051METAR SBJP 082200Z 17005KT 9999 BKN020 24/22 Q1015;
0072827980999992007070823004-07100-034867FM-15+0007SBJP V0201901N00151220001CN0099001N1+02401+02201999999ADDMA1101591999999REMMET045METAR SBJP 082300Z 19003KT CAVOK 24/22 Q1016;
0072827980999992007070900004-07100-034867FM-15+0007SBJP V0201901N00151220001CN0099001N1+02301+02201999999ADDMA1101591999999REMMET045METAR SBJP 090000Z 19003KT CAVOK 23/22 Q1016;
0120827980999992007070901004-07100-034867FM-15+0007SBJP V0202101N001512200019N0112651N1+02301+02101999999ADDGA1021+006001999GF102991999999999999999999MA1101591999999REMMET051METAR SBJP 090100Z 21003KT 9999 FEW020 23/21 Q1016;
0120827980999992007070902004-07100-034867FM-15+0007SBJP V0202101N001512200019N0112651N1+02201+02101999999ADDGA1041+006001999GF104991999999999999999999MA1101591999999REMMET051METAR SBJP 090200Z 21003KT 9999 SCT020 22/21 Q1016;
0120827980999992007070903004-07100-034867FM-15+0007SBJP V0202101N001012200019N0112651N1+02201+02101999999ADDGA1021+006001999GF102991999999999999999999MA1101491999999REMMET051METAR SBJP 090300Z 21002KT 9999 FEW020 22/21 Q1015;
0120827980999992007070904004-07100-034867FM-15+0007SBJP V0202401N001512200019N0112651N1+02201+02101999999ADDGA1021+006001999GF102991999999999999999999MA1101491999999REMMET051METAR SBJP 090400Z 24003KT 9999 FEW020 22/21 Q1015;
0120827980999992007070905004-07100-034867FM-15+0007SBJP V0202401N001512200019N0112651N1+02201+02101999999ADDGA1021+006001999GF102991999999999999999999MA1101391999999REMMET051METAR SBJP 090500Z 24003KT 9999 FEW020 22/21 Q1014;
0120827980999992007070906004-07100-034867FM-15+0007SBJP V0202001N002112200019N0112651N1+02201+02101999999ADDGA1021+006001999GF102991999999999999999999MA1101391999999REMMET051METAR SBJP 090600Z 20004KT 9999 FEW020 22/21 Q1014;
0143827980999992007070907004-07100-034867FM-15+0007SBJP V0202401N001512200019N0112651N1+02201+02101999999ADDGA1041+005101999GA2041+021001999GF104991999999999999999999MA1101391999999REMMET058METAR SBJP 090700Z 24003KT 9999 SCT017 SCT070 22/21 Q1014;
0143827980999992007070908004-07100-034867FM-15+0007SBJP V0202401N002112200019N0112651N1+02201+02101999999ADDGA1041+005101999GA2041+021001999GF104991999999999999999999MA1101391999999REMMET058METAR SBJP 090800Z 24004KT 9999 SCT017 SCT070 22/21 Q1014;
0143827980999992007070909004-07100-034867FM-15+0007SBJP V0202301N001512200019N0112651N1+02201+02101999999ADDGA1041+005101999GA2041+021001999GF104991999999999999999999MA1101391999999REMMET058METAR SBJP 090900Z 23003KT 9999 SCT017 SCT070 22/21 Q1014;
0143827980999992007070910004-07100-034867FM-15+0007SBJP V0201901N002110210019N0112651N1+02301+02201999999ADDGA1041+006001999GA2071+021001999GF107991999999999999999999MA1101491999999REMMET058METAR SBJP 091000Z 19004KT 9999 SCT020 BKN070 23/22 Q1015;
0176827980999992007070911004-07100-034867FM-15+0007SBJP V0201501N002110024019N0080001N1+02401+02301999999ADDGA1071+002401999GA2071+006001999GA3081+021001999GF108991999999999999999999MA1101591999999MW1611REMMET069METAR SBJP 091100Z 15004KT 8000 -RA BKN008 BKN020 OVC070 24/23 Q1016;
0166827980999992007070912004-07100-034867FM-15+0007SBJP V0201501N003110060019N0112651N1+02601+02401999999ADDGA1041+003601999GA2071+006001999GA3071+021001999GF107991999999999999999999MA1101591999999REMMET065METAR SBJP 091200Z 15006KT 9999 SCT012 BKN020 BKN070 26/24 Q1016;
0143827980999992007070913004-07100-034867FM-15+0007SBJP V0201301N006710060019N0112651N1+02701+02301999999ADDGA1071+006001999GA2071+021001999GF107991999999999999999999MA1101591999999REMMET058METAR SBJP 091300Z 13013KT 9999 BKN020 BKN070 27/23 Q1016;
0143827980999992007070914004-07100-034867FM-15+0007SBJP V0201201N005710060019N0112651N1+02901+02301999999ADDGA1071+006001999GA2071+021001999GF107991999999999999999999MA1101491999999REMMET058METAR SBJP 091400Z 12011KT 9999 BKN020 BKN070 29/23 Q1015;
0143827980999992007070915004-07100-034867FM-15+0007SBJP V0201301N006210060019N0112651N1+02701+02301999999ADDGA1071+006001999GA2071+021001999GF107991999999999999999999MA1101491999999REMMET058METAR SBJP 091500Z 13012KT 9999 BKN020 BKN070 27/23 Q1015;
0136827980999992007070916004-07100-034867FM-15+0007SBJP V0201301N00571220001CN0112651N1+02901+02301999999ADDGA1071+007501999GA2041+021001999MA1101391999999REMMET058METAR SBJP 091600Z 13011KT 9999 BKN025 SCT070 29/23 Q1014;EQDQ01+000042SCOTCV
0136827980999992007070917004-07100-034867FM-15+0007SBJP V0201501N00621220001CN0112651N1+02701+02301999999ADDGA1071+007501999GA2041+021001999MA1101291999999REMMET058METAR SBJP 091700Z 15012KT 9999 BKN025 SCT070 27/23 Q1013;EQDQ01+000042SCOTCV
0120827980999992007070918004-07100-034867FM-15+0007SBJP V0201301N007210075019N0112651N1+02901+02201999999ADDGA1071+007501999GF107991999999999999999999MA1101291999999REMMET051METAR SBJP 091800Z 13014KT 9999 BKN025 29/22 Q1013;
0120827980999992007070919004-07100-034867FM-15+0007SBJP V0201301N005112200019N0112651N1+02801+02201999999ADDGA1041+007501999GF104991999999999999999999MA1101291999999REMMET051METAR SBJP 091900Z 13010KT 9999 SCT025 28/22 Q1013;
0120827980999992007070920004-07100-034867FM-15+0007SBJP V0201201N005112200019N0112651N1+02601+02301999999ADDGA1041+007501999GF104991999999999999999999MA1101391999999REMMET051METAR SBJP 092000Z 12010KT 9999 SCT025 26/23 Q1014;
0130827980999992007070921004-07100-034867FM-15+0007SBJP V0201301N002610060019N0040001N1+02501+02301999999ADDGA1071+006001999GF107991999999999999999999MA1101391999999MW1611REMMET055METAR SBJP 092100Z 13005KT 4000 -RA BKN020 25/23 Q1014;
0130827980999992007070922004-07100-034867FM-15+0007SBJP V0201701N002610060019N0050001N1+02401+02301999999ADDGA1071+006001999GF107991999999999999999999MA1101491999999MW1611REMMET055METAR SBJP 092200Z 17005KT 5000 -RA BKN020 24/23 Q1015;
0130827980999992007070923004-07100-034867FM-15+0007SBJP V0201701N002610060019N0050001N1+02401+02301999999ADDGA1071+006001999GF107991999999999999999999MA1101491999999MW1611REMMET055METAR SBJP 092300Z 17005KT 5000 -RA BKN020 24/23 Q1015;
0143827980999992007071000004-07100-034867FM-15+0007SBJP V0201701N002610060019N0112651N1+02401+02301999999ADDGA1021+002401999GA2071+006001999GF107991999999999999999999MA1101491999999REMMET058METAR SBJP 100000Z 17005KT 9999 FEW008 BKN020 24/23 Q1015;
0120827980999992007071001004-07100-034867FM-15+0007SBJP V0201601N001012200019N0112651N1+02301+02201999999ADDGA1041+004501999GF104991999999999999999999MA1101491999999REMMET051METAR SBJP 100100Z 16002KT 9999 SCT015 23/22 Q1015;
0130827980999992007071002004-07100-034867FM-15+0007SBJP V0201801N002110045019N0050001N1+02401+02301999999ADDGA1071+004501999GF107991999999999999999999MA1101491999999MW1611REMMET055METAR SBJP 100200Z 18004KT 5000 -RA BKN015 24/23 Q1015;
0153827980999992007071003004-07100-034867FM-15+0007SBJP V0201401N002110045019N0050001N1+02401+02301999999ADDGA1021+002101999GA2071+004501999GF107991999999999999999999MA1101391999999MW1611REMMET062METAR SBJP 100300Z 14004KT 5000 -RA FEW007 BKN015 24/23 Q1014;
0120827980999992007071004004-07100-034867FM-15+0007SBJP V0201401N002110060019N0112651N1+02401+02201999999ADDGA1071+006001999GF107991999999999999999999MA1101391999999REMMET051METAR SBJP 100400Z 14004KT 9999 BKN020 24/22 Q1014;
0120827980999992007071005004-07100-034867FM-15+0007SBJP V0201301N002112200019N0112651N1+02401+02301999999ADDGA1041+006001999GF104991999999999999999999MA1101291999999REMMET051METAR SBJP 100500Z 13004KT 9999 SCT020 24/23 Q1013;
0120827980999992007071006004-07100-034867FM-15+0007SBJP V0201401N003612200019N0112651N1+02401+02201999999ADDGA1041+006001999GF104991999999999999999999MA1101291999999REMMET051METAR SBJP 100600Z 14007KT 9999 SCT020 24/22 Q1013;
0120827980999992007071007004-07100-034867FM-15+0007SBJP V0201601N002112200019N0112651N1+02401+02201999999ADDGA1041+006001999GF104991999999999999999999MA1101391999999REMMET051METAR SBJP 100700Z 16004KT 9999 SCT020 24/22 Q1014;
0120827980999992007071008004-07100-034867FM-15+0007SBJP V0201801N001512200019N0112651N1+02301+02201999999ADDGA1041+006001999GF104991999999999999999999MA1101391999999REMMET051METAR SBJP 100800Z 18003KT 9999 SCT020 23/22 Q1014;
0120827980999992007071009004-07100-034867FM-15+0007SBJP V0201801N001512200019N0112651N1+02301+02201999999ADDGA1021+006001999GF102991999999999999999999MA1101391999999REMMET051METAR SBJP 100900Z 18003KT 9999 FEW020 23/22 Q1014;
0120827980999992007071010004-07100-034867FM-15+0007SBJP V0201701N001512200019N0112651N1+02501+02301999999ADDGA1021+006001999GF102991999999999999999999MA1101391999999REMMET051METAR SBJP 101000Z 17003KT 9999 FEW020 25/23 Q1014;
0120827980999992007071011004-07100-034867FM-15+0007SBJP V0201801N003612200019N0112651N1+02601+02301999999ADDGA1041+006001999GF104991999999999999999999MA1101491999999REMMET051METAR SBJP 101100Z 18007KT 9999 SCT020 26/23 Q1015;
0120827980999992007071012004-07100-034867FM-15+0007SBJP V0201301N004112200019N0112651N1+02701+02201999999ADDGA1041+006001999GF104991999999999999999999MA1101491999999REMMET051METAR SBJP 101200Z 13008KT 9999 SCT020 27/22 Q1015;
0120827980999992007071013004-07100-034867FM-15+0007SBJP V0201201N004112200019N0112651N1+02501+02201999999ADDGA1041+006001999GF104991999999999999999999MA1101491999999REMMET051METAR SBJP 101300Z 12008KT 9999 SCT020 25/22 Q1015;
0120827980999992007071014004-07100-034867FM-15+0007SBJP V0201201N005110060019N0112651N1+02801+02201999999ADDGA1071+006001999GF107991999999999999999999MA1101491999999REMMET051METAR SBJP 101400Z 12010KT 9999 BKN020 28/22 Q1015;
0120827980999992007071015004-07100-034867FM-15+0007SBJP V0201201N005710075019N0112651N1+02801+02201999999ADDGA1071+007501999GF107991999999999999999999MA1101391999999REMMET051METAR SBJP 101500Z 12011KT 9999 BKN025 28/22 Q1014;
0120827980999992007071016004-07100-034867FM-15+0007SBJP V0201401N005710081019N0112651N1+02601+02301999999ADDGA1071+008101999GF107991999999999999999999MA1101291999999REMMET051METAR SBJP 101600Z 14011KT 9999 BKN027 26/23 Q1013;
0120827980999992007071018004-07100-034867FM-15+0007SBJP V0201201N004112200019N0112651N1+02801+02101999999ADDGA1041+009001999GF104991999999999999999999MA1101291999999REMMET051METAR SBJP 101800Z 12008KT 9999 SCT030 28/21 Q1013;
0120827980999992007071019004-07100-034867FM-15+0007SBJP V0201201N004112200019N0112651N1+02701+02001999999ADDGA1041+009001999GF104991999999999999999999MA1101291999999REMMET051METAR SBJP 101900Z 12008KT 9999 SCT030 27/20 Q1013;
0120827980999992007071020004-07100-034867FM-15+0007SBJP V0201401N003612200019N0112651N1+02601+02101999999ADDGA1041+008101999GF104991999999999999999999MA1101291999999REMMET051METAR SBJP 102000Z 14007KT 9999 SCT027 26/21 Q1013;
0120827980999992007071021004-07100-034867FM-15+0007SBJP V0201301N003612200019N0112651N1+02601+02101999999ADDGA1041+008101999GF104991999999999999999999MA1101391999999REMMET051METAR SBJP 102100Z 13007KT 9999 SCT027 26/21 Q1014;
0143827980999992007071022004-07100-034867FM-15+0007SBJP V0201701N002612200019N0112651N1+02401+02201999999ADDGA1041+007501999GA2041+021001999GF104991999999999999999999MA1101391999999REMMET058METAR SBJP 102200Z 17005KT 9999 SCT025 SCT070 24/22 Q1014;
0153827980999992007071100004-07100-034867FM-15+0007SBJP V0201701N002610210019N0112651N1+02401+02301999999ADDGA1041+005401999GA2071+021001999GF107991999999999999999999MA1101491999999MW1611REMMET062METAR SBJP 110000Z 17005KT 9999 -RA SCT018 BKN070 24/23 Q1015;
0143827980999992007071101004-07100-034867FM-15+0007SBJP V0201701N002112200019N0112651N1+02401+02201999999ADDGA1041+005401999GA2041+021001999GF104991999999999999999999MA1101491999999REMMET058METAR SBJP 110100Z 17004KT 9999 SCT018 SCT070 24/22 Q1015;
0143827980999992007071102004-07100-034867FM-15+0007SBJP V0201901N002110210019N0112651N1+02401+02301999999ADDGA1041+005401999GA2071+021001999GF107991999999999999999999MA1101491999999REMMET058METAR SBJP 110200Z 19004KT 9999 SCT018 BKN070 24/23 Q1015;
0143827980999992007071103004-07100-034867FM-15+0007SBJP V0201601N003612200019N0112651N1+02401+02201999999ADDGA1041+005401999GA2041+021001999GF104991999999999999999999MA1101491999999REMMET058METAR SBJP 110300Z 16007KT 9999 SCT018 SCT070 24/22 Q1015;
0143827980999992007071104004-07100-034867FM-15+0007SBJP V0201901N002112200019N0112651N1+02301+02101999999ADDGA1041+006001999GA2041+021001999GF104991999999999999999999MA1101391999999REMMET058METAR SBJP 110400Z 19004KT 9999 SCT020 SCT070 23/21 Q1014;
0143827980999992007071105004-07100-034867FM-15+0007SBJP V0201901N002112200019N0112651N1+02301+02101999999ADDGA1021+006001999GA2041+021001999GF104991999999999999999999MA1101391999999REMMET058METAR SBJP 110500Z 19004KT 9999 FEW020 SCT070 23/21 Q1014;
0120827980999992007071107004-07100-034867FM-15+0007SBJP V0202001N001512200019N0112651N1+02301+02101999999ADDGA1041+006001999GF104991999999999999999999MA1101391999999REMMET051METAR SBJP 110700Z 20003KT 9999 SCT020 23/21 Q1014;
0120827980999992007071108004-07100-034867FM-15+0007SBJP V0202001N001512200019N0112651N1+02201+02101999999ADDGA1041+006001999GF104991999999999999999999MA1101391999999REMMET051METAR SBJP 110800Z 20003KT 9999 SCT020 22/21 Q1014;
0120827980999992007071109004-07100-034867FM-15+0007SBJP V0202001N002612200019N0112651N1+02201+02101999999ADDGA1041+006001999GF104991999999999999999999MA1101491999999REMMET051METAR SBJP 110900Z 20005KT 9999 SCT020 22/21 Q1015;
0072827980999992007071110004-07100-034867FM-15+0007SBJP V0202001N00211220001CN0099001N1+02401+02201999999ADDMA1101591999999REMMET045METAR SBJP 111000Z 20004KT CAVOK 24/22 Q1016;
0120827980999992007071111004-07100-034867FM-15+0007SBJP V0201601N004112200019N0112651N1+02601+02101999999ADDGA1021+007501999GF102991999999999999999999MA1101591999999REMMET051METAR SBJP 111100Z 16008KT 9999 FEW025 26/21 Q1016;
0120827980999992007071112004-07100-034867FM-15+0007SBJP V0201301N004112200019N0112651N1+02601+02301999999ADDGA1041+008101999GF104991999999999999999999MA1101691999999REMMET051METAR SBJP 111200Z 13008KT 9999 SCT027 26/23 Q1017;
0140827980999992007071113004-07100-034867FM-15+0007SBJP V0201301N004612200019N0112651N1+02701+02201999999ADDGA1041+009001021GF104991999999999999999999MA1101591999999MW1161REMMET065METAR SBJP 111300Z 13009KT 9999 8000W VCSH SCT030TCU 27/22 Q1016;
0143827980999992007071114004-07100-034867FM-15+0007SBJP V0201801N004612200019N0112651N1+02601+02101999999ADDGA1041+009001999GA2041+021001999GF104991999999999999999999MA1101591999999REMMET058METAR SBJP 111400Z 18009KT 9999 SCT030 SCT070 26/21 Q1016;
0143827980999992007071115004-07100-034867FM-15+0007SBJP V0201801N004110210019N0112651N1+02601+02101999999ADDGA1041+009001999GA2071+021001999GF107991999999999999999999MA1101591999999REMMET058METAR SBJP 111500Z 18008KT 9999 SCT030 BKN070 26/21 Q1016;
0143827980999992007071116004-07100-034867FM-15+0007SBJP V0202001N004110069019N0112651N1+02701+02201999999ADDGA1071+006901999GA2071+021001999GF107991999999999999999999MA1101491999999REMMET058METAR SBJP 111600Z 20008KT 9999 BKN023 BKN070 27/22 Q1015;
0143827980999992007071117004-07100-034867FM-15+0007SBJP V0201601N005710210019N0112651N1+02701+02101999999ADDGA1041+006901999GA2071+021001999GF107991999999999999999999MA1101391999999REMMET058METAR SBJP 111700Z 16011KT 9999 SCT023 BKN070 27/21 Q1014;
0143827980999992007071118004-07100-034867FM-15+0007SBJP V0201701N005110210019N0112651N1+02701+02001999999ADDGA1021+006901999GA2071+021001999GF107991999999999999999999MA1101391999999REMMET058METAR SBJP 111800Z 17010KT 9999 FEW023 BKN070 27/20 Q1014;
0143827980999992007071119004-07100-034867FM-15+0007SBJP V0201701N005110210019N0112651N1+02701+02101999999ADDGA1021+006901999GA2071+021001999GF107991999999999999999999MA1101391999999REMMET058METAR SBJP 111900Z 17010KT 9999 FEW023 BKN070 27/21 Q1014;
0143827980999992007071120004-07100-034867FM-15+0007SBJP V0201701N003112200019N0112651N1+02501+02201999999ADDGA1021+006901999GA2041+021001999GF104991999999999999999999MA1101491999999REMMET058METAR SBJP 112000Z 17006KT 9999 FEW023 SCT070 25/22 Q1015;
0072827980999992007071121004-07100-034867FM-15+0007SBJP V0201801N00261220001CN0099001N1+02401+02101999999ADDMA1101491999999REMMET045METAR SBJP 112100Z 18005KT CAVOK 24/21 Q1015;
0072827980999992007071122004-07100-034867FM-15+0007SBJP V0201901N00151220001CN0099001N1+02301+02101999999ADDMA1101491999999REMMET045METAR SBJP 112200Z 19003KT CAVOK 23/21 Q1015;
0072827980999992007071123004-07100-034867FM-15+0007SBJP V0202101N00151220001CN0099001N1+02301+02101999999ADDMA1101591999999REMMET045METAR SBJP 112300Z 21003KT CAVOK 23/21 Q1016;
0072827980999992007071200004-07100-034867FM-15+0007SBJP V0202101N00151220001CN0099001N1+02301+02101999999ADDMA1101591999999REMMET045METAR SBJP 120000Z 21003KT CAVOK 23/21 Q1016;
0072827980999992007071201004-07100-034867FM-15+0007SBJP V0202201N00151220001CN0099001N1+02201+02101999999ADDMA1101591999999REMMET045METAR SBJP 120100Z 22003KT CAVOK 22/21 Q1016;
0072827980999992007071202004-07100-034867FM-15+0007SBJP V0202301N00211220001CN0099001N1+02201+02101999999ADDMA1101591999999REMMET045METAR SBJP 120200Z 23004KT CAVOK 22/21 Q1016;
0072827980999992007071203004-07100-034867FM-15+0007SBJP V0202301N00261220001CN0099001N1+02201+02101999999ADDMA1101491999999REMMET045METAR SBJP 120300Z 23005KT CAVOK 22/21 Q1015;
0120827980999992007071204004-07100-034867FM-15+0007SBJP V0201601N002110081019N0112651N1+02201+02001999999ADDGA1071+008101999GF107991999999999999999999MA1101491999999REMMET051METAR SBJP 120400Z 16004KT 9999 BKN027 22/20 Q1015;
0130827980999992007071205004-07100-034867FM-15+0007SBJP V0201701N002110060019N0080001N1+02201+02101999999ADDGA1071+006001999GF107991999999999999999999MA1101491999999MW1611REMMET055METAR SBJP 120500Z 17004KT 8000 -RA BKN020 22/21 Q1015;
0130827980999992007071206004-07100-034867FM-15+0007SBJP V0202001N002610042019N0050001N1+02201+02101999999ADDGA1071+004201999GF107991999999999999999999MA1101491999999MW1611REMMET055METAR SBJP 120600Z 20005KT 5000 -RA BKN014 22/21 Q1015;
0120827980999992007071207004-07100-034867FM-15+0007SBJP V0202201N002612200019N0112651N1+02201+02101999999ADDGA1041+006001999GF104991999999999999999999MA1101491999999REMMET051METAR SBJP 120700Z 22005KT 9999 SCT020 22/21 Q1015;
0153827980999992007071209004-07100-034867FM-15+0007SBJP V0201801N001010042019N0020001N1+02201+02101999999ADDGA1071+004201999GA2081+021001999GF108991999999999999999999MA1101591999999MW1611REMMET062METAR SBJP 120900Z 18002KT 2000 -RA BKN014 OVC070 22/21 Q1016;
0166827980999992007071210004-07100-034867FM-15+0007SBJP V0202301N00261004501CN0112651N1+02301+02201999999ADDGA1021+001201999GA2041+004501999GA3071+021001999GF107991999999999999999999MA1101591999999REMMET065METAR SBJP 121000Z 23005KT 9999 FEW004 SCT015 BKN070 23/22 Q1016;
0176827980999992007071211004-07100-034867FM-15+0007SBJP V0202101N003610045019N0040001N1+02301+02201999999ADDGA1041+001201999GA2071+004501999GA3071+021001999GF107991999999999999999999MA1101691999999MW1611REMMET069METAR SBJP 121100Z 21007KT 4000 -RA SCT004 BKN015 BKN070 23/22 Q1017;
0176827980999992007071212004-07100-034867FM-15+0007SBJP V0202201N003610042019N0050001N1+02401+02201999999ADDGA1071+004201999GA2041+005101999GA3081+021001999GF108991999999999999999999MA1101691999999MW1611REMMET069METAR SBJP 121200Z 22007KT 5000 -RA BKN014 SCT017 OVC070 24/22 Q1017;
0166827980999992007071213004-07100-034867FM-15+0007SBJP V0202001N00361005401CN0112651N1+02501+02301999999ADDGA1021+004501999GA2041+005401999GA3071+021001999GF107991999999999999999999MA1101691999999REMMET065METAR SBJP 121300Z 20007KT 9999 FEW015 SCT018 BKN070 25/23 Q1017;
0166827980999992007071214004-07100-034867FM-15+0007SBJP V0202001N00511021001CN0112651N1+02701+02201999999ADDGA1041+006001999GA2041+021001999GA3071+090001999GF107991999999999999999999MA1101591999999REMMET065METAR SBJP 121400Z 20010KT 9999 SCT020 SCT070 BKN300 27/22 Q1016;
0143827980999992007071215004-07100-034867FM-15+0007SBJP V0201901N004612200019N0112651N1+02801+02301999999ADDGA1041+007501999GA2041+090001999GF104991999999999999999999MA1101591999999REMMET058METAR SBJP 121500Z 19009KT 9999 SCT025 SCT300 28/23 Q1016;
0120827980999992007071217004-07100-034867FM-15+0007SBJP V0202001N004610075019N0112651N1+02701+02201999999ADDGA1071+007501999GF107991999999999999999999MA1101391999999REMMET051METAR SBJP 121700Z 20009KT 9999 BKN025 27/22 Q1014;
0120827980999992007071218004-07100-034867FM-15+0007SBJP V0201901N005110060019N0112651N1+02801+02101999999ADDGA1071+006001999GF107991999999999999999999MA1101391999999REMMET051METAR SBJP 121800Z 19010KT 9999 BKN020 28/21 Q1014;
0120827980999992007071219004-07100-034867FM-15+0007SBJP V0202101N004610060019N0112651N1+02501+02201999999ADDGA1071+006001999GF107991999999999999999999MA1101491999999REMMET051METAR SBJP 121900Z 21009KT 9999 BKN020 25/22 Q1015;
0153827980999992007071220004-07100-034867FM-15+0007SBJP V0201901N006212200019N0112651N1+02401+02201999999ADDGA1041+005101999GA2041+021001999GF104991999999999999999999MA1101491999999MW1611REMMET062METAR SBJP 122000Z 19012KT 9999 -RA SCT017 SCT070 24/22 Q1015;
0143827980999992007071221004-07100-034867FM-15+0007SBJP V0202101N003110210019N0112651N1+02401+02201999999ADDGA1041+005101999GA2071+021001999GF107991999999999999999999MA1101591999999REMMET058METAR SBJP 122100Z 21006KT 9999 SCT017 BKN070 24/22 Q1016;
0072827980999992007071222004-07100-034867FM-15+0007SBJP V0202001N00311220001CN0099001N1+02401+02201999999ADDMA1101591999999REMMET045METAR SBJP 122200Z 20006KT CAVOK 24/22 Q1016;
0143827980999992007071223004-07100-034867FM-15+0007SBJP V0202101N002110210019N0112651N1+02301+02201999999ADDGA1041+006001999GA2071+021001999GF107991999999999999999999MA1101591999999REMMET058METAR SBJP 122300Z 21004KT 9999 SCT020 BKN070 23/22 Q1016;
0176827980999992007071300004-07100-034867FM-15+0007SBJP V0201801N003610060019N0080001N1+02301+02201999999ADDGA1041+003001999GA2071+006001999GA3071+021001999GF107991999999999999999999MA1101691999999MW1611REMMET069METAR SBJP 130000Z 18007KT 8000 -RA SCT010 BKN020 BKN070 23/22 Q1017;
0143827980999992007071301004-07100-034867FM-15+0007SBJP V0201801N002610210019N0112651N1+02401+02201999999ADDGA1041+006001999GA2071+021001999GF107991999999999999999999MA1101591999999REMMET058METAR SBJP 130100Z 18005KT 9999 SCT020 BKN070 24/22 Q1016;
0176827980999992007071302004-07100-034867FM-15+0007SBJP V0201401N00211006001CN0080001N1+02301+02201999999ADDGA1041+003601999GA2041+006001999GA3071+021001999GF107991999999999999999999MA1101591999999MW1611REMMET069METAR SBJP 130200Z 14004KT 8000 -RA SCT012 SCT020 BKN070 23/22 Q1016;
0166827980999992007071303004-07100-034867FM-15+0007SBJP V0201801N00211006001CN0112651N1+02301+02201999999ADDGA1041+003601999GA2041+006001999GA3071+021001999GF107991999999999999999999MA1101591999999REMMET065METAR SBJP 130300Z 18004KT 9999 SCT012 SCT020 BKN070 23/22 Q1016;
0166827980999992007071304004-07100-034867FM-15+0007SBJP V0202101N00211006001CN0112651N1+02301+02201999999ADDGA1041+003001999GA2041+006001999GA3071+021001999GF107991999999999999999999MA1101591999999REMMET065METAR SBJP 130400Z 21004KT 9999 SCT010 SCT020 BKN070 23/22 Q1016;
0166827980999992007071305004-07100-034867FM-15+0007SBJP V0201901N00151006001CN0112651N1+02301+02201999999ADDGA1041+003001999GA2041+006001999GA3071+021001999GF107991999999999999999999MA1101591999999REMMET065METAR SBJP 130500Z 19003KT 9999 SCT010 SCT020 BKN070 23/22 Q1016;
0166827980999992007071306004-07100-034867FM-15+0007SBJP V0202001N00151006001CN0112651N1+02301+02201999999ADDGA1041+003001999GA2041+006001999GA3071+021001999GF107991999999999999999999MA1101491999999REMMET065METAR SBJP 130600Z 20003KT 9999 SCT010 SCT020 BKN070 23/22 Q1015;
0143827980999992007071307004-07100-034867FM-15+0007SBJP V0202401N001512200019N0112651N1+02301+02201999999ADDGA1021+003001999GA2041+006001999GF104991999999999999999999MA1101491999999REMMET058METAR SBJP 130700Z 24003KT 9999 FEW010 SCT020 23/22 Q1015;
0143827980999992007071308004-07100-034867FM-15+0007SBJP V0202401N001010210019N0112651N1+02301+02201999999ADDGA1041+006001999GA2071+021001999GF107991999999999999999999MA1101591999999REMMET058METAR SBJP 130800Z 24002KT 9999 SCT020 BKN070 23/22 Q1016;
0143827980999992007071309004-07100-034867FM-15+0007SBJP V0202201N001512200019N0112651N1+02301+02201999999ADDGA1041+006001999GA2041+021001999GF104991999999999999999999MA1101591999999REMMET058METAR SBJP 130900Z 22003KT 9999 SCT020 SCT070 23/22 Q1016;
0143827980999992007071310004-07100-034867FM-15+0007SBJP V0202401N001512200019N0112651N1+02401+02201999999ADDGA1041+006001999GA2041+021001999GF104991999999999999999999MA1101591999999REMMET058METAR SBJP 131000Z 24003KT 9999 SCT020 SCT070 24/22 Q1016;
0143827980999992007071311004-07100-034867FM-15+0007SBJP V0202001N002112200019N0112651N1+02501+02301999999ADDGA1041+007501999GA2041+027001999GF104991999999999999999999MA1101691999999REMMET058METAR SBJP 131100Z 20004KT 9999 SCT025 SCT090 25/23 Q1017;
0136827980999992007071312004-07100-034867FM-15+0007SBJP V0202001N00261220001CN0112651N1+02601+02301999999ADDGA1071+005101999GA2041+024001999MA1101691999999REMMET058METAR SBJP 131200Z 20005KT 9999 BKN017 SCT080 26/23 Q1017;EQDQ01+000042SCOTCV
0120827980999992007071313004-07100-034867FM-15+0007SBJP V0201501N004110051019N0112651N1+02801+02301999999ADDGA1071+005101999GF107991999999999999999999MA1101691999999REMMET051METAR SBJP 131300Z 15008KT 9999 BKN017 28/23 Q1017;
0120827980999992007071314004-07100-034867FM-15+0007SBJP V0201601N005112200019N0112651N1+02901+02201999999ADDGA1041+007501999GF104991999999999999999999MA1101591999999REMMET051METAR SBJP 131400Z 16010KT 9999 SCT025 29/22 Q1016;
0120827980999992007071315004-07100-034867FM-15+0007SBJP V0201501N005112200019N0112651N1+02901+02201999999ADDGA1041+007501999GF104991999999999999999999MA1101591999999REMMET051METAR SBJP 131500Z 15010KT 9999 SCT025 29/22 Q1016;
0120827980999992007071316004-07100-034867FM-15+0007SBJP V0201201N003612200019N0112651N1+02901+02101999999ADDGA1041+009001999GF104991999999999999999999MA1101491999999REMMET051METAR SBJP 131600Z 12007KT 9999 SCT030 29/21 Q1015;
0120827980999992007071317004-07100-034867FM-15+0007SBJP V0201301N004612200019N0112651N1+02901+02201999999ADDGA1041+009001999GF104991999999999999999999MA1101391999999REMMET051METAR SBJP 131700Z 13009KT 9999 SCT030 29/22 Q1014;
0120827980999992007071318004-07100-034867FM-15+0007SBJP V0201501N004112200019N0112651N1+02901+02201999999ADDGA1041+009001999GF104991999999999999999999MA1101391999999REMMET051METAR SBJP 131800Z 15008KT 9999 SCT030 29/22 Q1014;
0120827980999992007071319004-07100-034867FM-15+0007SBJP V0201301N004112200019N0112651N1+02801+02201999999ADDGA1041+009001999GF104991999999999999999999MA1101391999999REMMET051METAR SBJP 131900Z 13008KT 9999 SCT030 28/22 Q1014;
0120827980999992007071320004-07100-034867FM-15+0007SBJP V0201501N003612200019N0112651N1+02601+02201999999ADDGA1021+007501999GF102991999999999999999999MA1101491999999REMMET051METAR SBJP 132000Z 15007KT 9999 FEW025 26/22 Q1015;
0120827980999992007071321004-07100-034867FM-15+0007SBJP V0201501N002612200019N0112651N1+02501+02201999999ADDGA1021+007501999GF102991999999999999999999MA1101491999999REMMET051METAR SBJP 132100Z 15005KT 9999 FEW025 25/22 Q1015;
0072827980999992007071322004-07100-034867FM-15+0007SBJP V0201901N00101220001CN0099001N1+02501+02201999999ADDMA1101591999999REMMET045METAR SBJP 132200Z 19002KT CAVOK 25/22 Q1016;
0072827980999992007071323004-07100-034867FM-15+0007SBJP V0201901N00101220001CN0099001N1+02401+02201999999ADDMA1101591999999REMMET045METAR SBJP 132300Z 19002KT CAVOK 24/22 Q1016;
0120827980999992007071401004-07100-034867FM-15+0007SBJP V0202201N001512200019N0112651N1+02401+02201999999ADDGA1041+006001999GF104991999999999999999999MA1101591999999REMMET051METAR SBJP 140100Z 22003KT 9999 SCT020 24/22 Q1016;
0120827980999992007071402004-07100-034867FM-15+0007SBJP V0202101N002112200019N0112651N1+02401+02301999999ADDGA1041+006001999GF104991999999999999999999MA1101591999999REMMET051METAR SBJP 140200Z 21004KT 9999 SCT020 24/23 Q1016;
0120827980999992007071403004-07100-034867FM-15+0007SBJP V0202001N002112200019N0112651N1+02301+02201999999ADDGA1041+006001999GF104991999999999999999999MA1101591999999REMMET051METAR SBJP 140300Z 20004KT 9999 SCT020 23/22 Q1016;
0120827980999992007071404004-07100-034867FM-15+0007SBJP V0202201N002612200019N0112651N1+02301+02201999999ADDGA1041+004501999GF104991999999999999999999MA1101491999999REMMET051METAR SBJP 140400Z 22005KT 9999 SCT015 23/22 Q1015;
0143827980999992007071405004-07100-034867FM-15+0007SBJP V0202001N001512200019N0112651N1+02301+02201999999ADDGA1041+004501999GA2041+021001999GF104991999999999999999999MA1101491999999REMMET058METAR SBJP 140500Z 20003KT 9999 SCT015 SCT070 23/22 Q1015;
0143827980999992007071406004-07100-034867FM-15+0007SBJP V0202701N000512200019N0112651N1+02301+02201999999ADDGA1041+003601999GA2041+021001999GF104991999999999999999999MA1101491999999REMMET058METAR SBJP 140600Z 27001KT 9999 SCT012 SCT070 23/22 Q1015;
0143827980999992007071407004-07100-034867FM-15+0007SBJP V0202401N001512200019N0112651N1+02301+02201999999ADDGA1041+003601999GA2041+021001999GF104991999999999999999999MA1101491999999REMMET058METAR SBJP 140700Z 24003KT 9999 SCT012 SCT070 23/22 Q1015;
0143827980999992007071408004-07100-034867FM-15+0007SBJP V0202501N002112200019N0112651N1+02301+02201999999ADDGA1041+003601999GA2041+021001999GF104991999999999999999999MA1101491999999REMMET058METAR SBJP 140800Z 25004KT 9999 SCT012 SCT070 23/22 Q1015;
0143827980999992007071409004-07100-034867FM-15+0007SBJP V0202401N001512200019N0112651N1+02201+02201999999ADDGA1021+004501999GA2041+021001999GF104991999999999999999999MA1101491999999REMMET058METAR SBJP 140900Z 24003KT 9999 FEW015 SCT070 22/22 Q1015;
0143827980999992007071410004-07100-034867FM-15+0007SBJP V0202101N002610210019N0112651N1+02401+02301999999ADDGA1041+006001999GA2071+021001999GF107991999999999999999999MA1101591999999REMMET058METAR SBJP 141000Z 21005KT 9999 SCT020 BKN070 24/23 Q1016;
0176827980999992007071411004-07100-034867FM-15+0007SBJP V0202001N002610036019N0060001N1+02501+02301999999ADDGA1071+003601999GA2071+006001999GA3071+021001999GF107991999999999999999999MA1101691999999MW1611REMMET069METAR SBJP 141100Z 20005KT 6000 -RA BKN012 BKN020 BKN070 25/23 Q1017;
0143827980999992007071412004-07100-034867FM-15+0007SBJP V0201901N003612200019N0112651N1+02601+02301999999ADDGA1041+003601999GA2041+006001999GF104991999999999999999999MA1101691999999REMMET058METAR SBJP 141200Z 19007KT 9999 SCT012 SCT020 26/23 Q1017;
0153827980999992007071413004-07100-034867FM-15+0007SBJP V0201301N002610060019N0080001N1+02701+02301999999ADDGA1071+006001999GA2071+021001999GF107991999999999999999999MA1101691999999MW1611REMMET062METAR SBJP 141300Z 13005KT 8000 -RA BKN020 BKN070 27/23 Q1017;
0192827980999992007071414004-07100-034867FM-15+0007SBJP V0201901N003110060019N0112651N1+02501+02301999999ADDGA1041+003601999GA2071+006001999GA3021+009001021GA4071+021001999GF107991999999999999999999MA1101591999999REMMET075METAR SBJP 141400Z 19006KT 9999 SCT012 BKN020 FEW030TCU BKN070 25/23 Q1016;
0176827980999992007071415004-07100-034867FM-15+0007SBJP V0201701N003610060019N0080001N1+02501+02301999999ADDGA1041+003601999GA2071+006001999GA3071+021001999GF107991999999999999999999MA1101591999999MW1611REMMET069METAR SBJP 141500Z 17007KT 8000 -RA SCT012 BKN020 BKN070 25/23 Q1016;
0143827980999992007071416004-07100-034867FM-15+0007SBJP V0201801N003110045019N0112651N1+02601+02401999999ADDGA1071+004501999GA2071+021001999GF107991999999999999999999MA1101491999999REMMET058METAR SBJP 141600Z 18006KT 9999 BKN015 BKN070 26/24 Q1015;
0120827980999992007071417004-07100-034867FM-15+0007SBJP V0201201N004110060019N0112651N1+02801+02201999999ADDGA1071+006001999GF107991999999999999999999MA1101391999999REMMET051METAR SBJP 141700Z 12008KT 9999 BKN020 28/22 Q1014;
0143827980999992007071418004-07100-034867FM-15+0007SBJP V0201601N004612200019N0112651N1+02701+02301999999ADDGA1041+006001999GA2041+021001999GF104991999999999999999999MA1101391999999REMMET058METAR SBJP 141800Z 16009KT 9999 SCT020 SCT070 27/23 Q1014;
0120827980999992007071419004-07100-034867FM-15+0007SBJP V0201301N004110051019N0112651N1+02601+02301999999ADDGA1071+005101999GF107991999999999999999999MA1101391999999REMMET051METAR SBJP 141900Z 13008KT 9999 BKN017 26/23 Q1014;
0143827980999992007071420004-07100-034867FM-15+0007SBJP V0201501N003112200019N0112651N1+02501+02201999999ADDGA1041+006001999GA2041+021001999GF104991999999999999999999MA1101391999999REMMET058METAR SBJP 142000Z 15006KT 9999 SCT020 SCT070 25/22 Q1014;
0117827980999992007071421004-07100-034867FM-15+0007SBJP V0201601N00211220001CN0112651N1+02401+02201999999ADDGA1071+006001999GA2041+021001999MA1101391999999REMMET058METAR SBJP 142100Z 16004KT 9999 BKN020 SCT070 24/22 Q1014;
0143827980999992007071422004-07100-034867FM-15+0007SBJP V0201501N001512200019N0112651N1+02401+02201999999ADDGA1041+006001999GA2041+021001999GF104991999999999999999999MA1101391999999REMMET058METAR SBJP 142200Z 15003KT 9999 SCT020 SCT070 24/22 Q1014;
0143827980999992007071423004-07100-034867FM-15+0007SBJP V0201901N002112200019N0112651N1+02401+02201999999ADDGA1041+004501999GA2041+021001999GF104991999999999999999999MA1101491999999REMMET058METAR SBJP 142300Z 19004KT 9999 SCT015 SCT070 24/22 Q1015;
0153827980999992007071500004-07100-034867FM-15+0007SBJP V0201901N005110210019N0112651N1+02301+02101999999ADDGA1041+004501999GA2071+021001999GF107991999999999999999999MA1101591999999MW1611REMMET062METAR SBJP 150000Z 19010KT 9999 -RA SCT015 BKN070 23/21 Q1016;
0143827980999992007071501004-07100-034867FM-15+0007SBJP V0202001N002610210019N0112651N1+02301+02201999999ADDGA1041+004501999GA2071+021001999GF107991999999999999999999MA1101591999999REMMET058METAR SBJP 150100Z 20005KT 9999 SCT015 BKN070 23/22 Q1016;
0143827980999992007071502004-07100-034867FM-15+0007SBJP V0202001N002112200019N0112651N1+02301+02101999999ADDGA1041+004501999GA2041+021001999GF104991999999999999999999MA1101591999999REMMET058METAR SBJP 150200Z 20004KT 9999 SCT015 SCT070 23/21 Q1016;
0143827980999992007071503004-07100-034867FM-15+0007SBJP V0202001N002112200019N0112651N1+02301+02101999999ADDGA1041+004501999GA2041+021001999GF104991999999999999999999MA1101591999999REMMET058METAR SBJP 150300Z 20004KT 9999 SCT015 SCT070 23/21 Q1016;
0120827980999992007071504004-07100-034867FM-15+0007SBJP V0202301N001010060019N0112651N1+02201+02101999999ADDGA1071+006001999GF107991999999999999999999MA1101491999999REMMET051METAR SBJP 150400Z 23002KT 9999 BKN020 22/21 Q1015;
0120827980999992007071505004-07100-034867FM-15+0007SBJP V0202001N001010060019N0112651N1+02201+02101999999ADDGA1071+006001999GF107991999999999999999999MA1101491999999REMMET051METAR SBJP 150500Z 20002KT 9999 BKN020 22/21 Q1015;
0143827980999992007071506004-07100-034867FM-15+0007SBJP V0202001N001010030019N0112651N1+02301+02101999999ADDGA1071+003001999GA2071+006001999GF107991999999999999999999MA1101491999999REMMET058METAR SBJP 150600Z 20002KT 9999 BKN010 BKN020 23/21 Q1015;
0143827980999992007071507004-07100-034867FM-15+0007SBJP V0202201N002110030019N0112651N1+02201+02101999999ADDGA1071+003001999GA2071+006001999GF107991999999999999999999MA1101491999999REMMET058METAR SBJP 150700Z 22004KT 9999 BKN010 BKN020 22/21 Q1015;
0166827980999992007071508004-07100-034867FM-15+0007SBJP V0202001N00361006001CN0112651N1+02201+02101999999ADDGA1041+003001999GA2041+006001999GA3071+021001999GF107991999999999999999999MA1101491999999REMMET065METAR SBJP 150800Z 20007KT 9999 SCT010 SCT020 BKN070 22/21 Q1015;
0072827980999992007071509004-07100-034867FM-15+0007SBJP V0202201N00261220001CN0099001N1+02201+02101999999ADDMA1101491999999REMMET045METAR SBJP 150900Z 22005KT CAVOK 22/21 Q1015;
0143827980999992007071510004-07100-034867FM-15+0007SBJP V0202101N003612200019N0112651N1+02301+02101999999ADDGA1021+006001999GA2041+021001999GF104991999999999999999999MA1101591999999REMMET058METAR SBJP 151000Z 21007KT 9999 FEW020 SCT070 23/21 Q1016;
0143827980999992007071511004-07100-034867FM-15+0007SBJP V0201801N004110036019N0112651N1+02401+02101999999ADDGA1071+003601999GA2071+006001999GF107991999999999999999999MA1101591999999REMMET058METAR SBJP 151100Z 18008KT 9999 BKN012 BKN020 24/21 Q1016;
0153827980999992007071512004-07100-034867FM-15+0007SBJP V0201501N004110018019N0036001N1+02401+02201999999ADDGA1071+001801999GA2071+004501999GF107991999999999999999999MA1101691999999MW1611REMMET062METAR SBJP 151200Z 15008KT 3600 -RA BKN006 BKN015 24/22 Q1017;
0143827980999992007071513004-07100-034867FM-15+0007SBJP V0201601N003610030019N0112651N1+02501+02201999999ADDGA1071+003001999GA2071+005101999GF107991999999999999999999MA1101591999999REMMET058METAR SBJP 151300Z 16007KT 9999 BKN010 BKN017 25/22 Q1016;
0166827980999992007071514004-07100-034867FM-15+0007SBJP V0201701N00361006001CN0112651N1+02501+02201999999ADDGA1041+003001999GA2041+006001999GA3071+021001999GF107991999999999999999999MA1101591999999REMMET065METAR SBJP 151400Z 17007KT 9999 SCT010 SCT020 BKN070 25/22 Q1016;
0143827980999992007071515004-07100-034867FM-15+0007SBJP V0201801N003110210019N0112651N1+02701+02301999999ADDGA1041+004201999GA2071+021001999GF107991999999999999999999MA1101491999999REMMET058METAR SBJP 151500Z 18006KT 9999 SCT014 BKN070 27/23 Q1015;
0120827980999992007071516004-07100-034867FM-15+0007SBJP V0201501N007712200019N0112651N1+02601+02201999999ADDGA1041+006001999GF104991999999999999999999MA1101391999999REMMET051METAR SBJP 151600Z 15015KT 9999 SCT020 26/22 Q1014;
0120827980999992007071517004-07100-034867FM-15+0007SBJP V0201301N005112200019N0112651N1+02601+02301999999ADDGA1041+004501999GF104991999999999999999999MA1101391999999REMMET051METAR SBJP 151700Z 13010KT 9999 SCT015 26/23 Q1014;
0120827980999992007071518004-07100-034867FM-15+0007SBJP V0201501N005710042019N0112651N1+02601+02201999999ADDGA1071+004201999GF107991999999999999999999MA1101391999999REMMET051METAR SBJP 151800Z 15011KT 9999 BKN014 26/22 Q1014;
0120827980999992007071519004-07100-034867FM-15+0007SBJP V0201601N004110045019N0112651N1+02501+02201999999ADDGA1071+004501999GF107991999999999999999999MA1101391999999REMMET051METAR SBJP 151900Z 16008KT 9999 BKN015 25/22 Q1014;
0143827980999992007071520004-07100-034867FM-15+0007SBJP V0201701N003612200019N0112651N1+02501+02101999999ADDGA1041+004201999GA2041+021001999GF104991999999999999999999MA1101391999999REMMET058METAR SBJP 152000Z 17007KT 9999 SCT014 SCT070 25/21 Q1014;
0143827980999992007071521004-07100-034867FM-15+0007SBJP V0201701N002612200019N0112651N1+02401+02101999999ADDGA1021+004201999GA2041+021001999GF104991999999999999999999MA1101391999999REMMET058METAR SBJP 152100Z 17005KT 9999 FEW014 SCT070 24/21 Q1014;
0143827980999992007071522004-07100-034867FM-15+0007SBJP V0201901N002112200019N0112651N1+02401+02201999999ADDGA1021+004201999GA2041+021001999GF104991999999999999999999MA1101491999999REMMET058METAR SBJP 152200Z 19004KT 9999 FEW014 SCT070 24/22 Q1015;
0120827980999992007071523004-07100-034867FM-15+0007SBJP V0202001N002112200019N0112651N1+02401+02201999999ADDGA1021+004201999GF102991999999999999999999MA1101491999999REMMET051METAR SBJP 152300Z 20004KT 9999 FEW014 24/22 Q1015;
0120827980999992007071600004-07100-034867FM-15+0007SBJP V0202001N002112200019N0112651N1+02301+02201999999ADDGA1021+006001999GF102991999999999999999999MA1101591999999REMMET051METAR SBJP 160000Z 20004KT 9999 FEW020 23/22 Q1016;
0120827980999992007071601004-07100-034867FM-15+0007SBJP V0202101N001012200019N0112651N1+02301+02201999999ADDGA1021+006001999GF102991999999999999999999MA1101591999999REMMET051METAR SBJP 160100Z 21002KT 9999 FEW020 23/22 Q1016;
0120827980999992007071602004-07100-034867FM-15+0007SBJP V0202401N002112200019N0112651N1+02201+02101999999ADDGA1021+006001999GF102991999999999999999999MA1101591999999REMMET051METAR SBJP 160200Z 24004KT 9999 FEW020 22/21 Q1016;
0120827980999992007071603004-07100-034867FM-15+0007SBJP V0202501N001012200019N0112651N1+02201+02101999999ADDGA1021+006001999GF102991999999999999999999MA1101491999999REMMET051METAR SBJP 160300Z 25002KT 9999 FEW020 22/21 Q1015;
0072827980999992007071604004-07100-034867FM-15+0007SBJP V0202101N00151220001CN0099001N1+02201+02101999999ADDMA1101491999999REMMET045METAR SBJP 160400Z 21003KT CAVOK 22/21 Q1015;
0120827980999992007071605004-07100-034867FM-15+0007SBJP V0202001N001512200019N0112651N1+02201+02101999999ADDGA1041+006001999GF104991999999999999999999MA1101491999999REMMET051METAR SBJP 160500Z 20003KT 9999 SCT020 22/21 Q1015;
0120827980999992007071606004-07100-034867FM-15+0007SBJP V0201801N001510048019N0112651N1+02201+02101999999ADDGA1071+004801999GF107991999999999999999999MA1101491999999REMMET051METAR SBJP 160600Z 18003KT 9999 BKN016 22/21 Q1015;
0072827980999992007071607004-07100-034867FM-15+0007SBJP V0202101N00151220001CN0099001N1+02101+02101999999ADDMA1101391999999REMMET045METAR SBJP 160700Z 21003KT CAVOK 21/21 Q1014;
0143827980999992007071608004-07100-034867FM-15+0007SBJP V0202101N002110210019N0112651N1+02201+02101999999ADDGA1041+004501999GA2071+021001999GF107991999999999999999999MA1101491999999REMMET058METAR SBJP 160800Z 21004KT 9999 SCT015 BKN070 22/21 Q1015;
0143827980999992007071609004-07100-034867FM-15+0007SBJP V0209999C000010210019N0112651N1+02201+02101999999ADDGA1041+005101999GA2071+021001999GF107991999999999999999999MA1101491999999REMMET058METAR SBJP 160900Z 00000KT 9999 SCT017 BKN070 22/21 Q1015;
0143827980999992007071610004-07100-034867FM-15+0007SBJP V0202001N001512200019N0112651N1+02401+02201999999ADDGA1041+006001999GA2041+021001999GF104991999999999999999999MA1101591999999REMMET058METAR SBJP 161000Z 20003KT 9999 SCT020 SCT070 24/22 Q1016;
0120827980999992007071611004-07100-034867FM-15+0007SBJP V0201701N002112200019N0112651N1+02501+02201999999ADDGA1041+007501999GF104991999999999999999999MA1101591999999REMMET051METAR SBJP 161100Z 17004KT 9999 SCT025 25/22 Q1016;
0120827980999992007071612004-07100-034867FM-15+0007SBJP V0201501N004610075019N0112651N1+02801+02201999999ADDGA1071+007501999GF107991999999999999999999MA1101591999999REMMET051METAR SBJP 161200Z 15009KT 9999 BKN025 28/22 Q1016;
0120827980999992007071613004-07100-034867FM-15+0007SBJP V0201301N005112200019N0112651N1+02801+02101999999ADDGA1041+008101999GF104991999999999999999999MA1101591999999REMMET051METAR SBJP 161300Z 13010KT 9999 SCT027 28/21 Q1016;
0120827980999992007071614004-07100-034867FM-15+0007SBJP V0201201N004112200019N0112651N1+02901+02101999999ADDGA1041+009001999GF104991999999999999999999MA1101591999999REMMET051METAR SBJP 161400Z 12008KT 9999 SCT030 29/21 Q1016;
0120827980999992007071703004-07100-034867FM-15+0007SBJP V0202201N001512200019N0112651N1+02201+02101999999ADDGA1021+006001999GF102991999999999999999999MA1101491999999REMMET051METAR SBJP 170300Z 22003KT 9999 FEW020 22/21 Q1015;
0120827980999992007071704004-07100-034867FM-15+0007SBJP V0202301N001012200019N0112651N1+02201+02101999999ADDGA1021+006001999GF102991999999999999999999MA1101491999999REMMET051METAR SBJP 170400Z 23002KT 9999 FEW020 22/21 Q1015;
0120827980999992007071705004-07100-034867FM-15+0007SBJP V0202201N001512200019N0112651N1+02201+02101999999ADDGA1041+006001999GF104991999999999999999999MA1101391999999REMMET051METAR SBJP 170500Z 22003KT 9999 SCT020 22/21 Q1014;
0072827980999992007071709004-07100-034867FM-15+0007SBJP V0202101N00211220001CN0099001N1+02101+02001999999ADDMA1101491999999REMMET045METAR SBJP 170900Z 21004KT CAVOK 21/20 Q1015;
0120827980999992007071710004-07100-034867FM-15+0007SBJP V0202201N002112200019N0112651N1+02301+02201999999ADDGA1041+006001999GF104991999999999999999999MA1101591999999REMMET051METAR SBJP 171000Z 22004KT 9999 SCT020 23/22 Q1016;
0120827980999992007071712004-07100-034867FM-15+0007SBJP V0201801N004112200019N0112651N1+02701+02201999999ADDGA1041+006001999GF104991999999999999999999MA1101691999999REMMET051METAR SBJP 171200Z 18008KT 9999 SCT020 27/22 Q1017;
0120827980999992007071713004-07100-034867FM-15+0007SBJP V0201601N005112200019N0112651N1+02901+02201999999ADDGA1041+006001999GF104991999999999999999999MA1101691999999REMMET051METAR SBJP 171300Z 16010KT 9999 SCT020 29/22 Q1017;
0120827980999992007071714004-07100-034867FM-15+0007SBJP V0201501N004112200019N0112651N1+02901+02201999999ADDGA1041+006001999GF104991999999999999999999MA1101591999999REMMET051METAR SBJP 171400Z 15008KT 9999 SCT020 29/22 Q1016;
0120827980999992007071715004-07100-034867FM-15+0007SBJP V0201701N005112200019N0112651N1+02901+02101999999ADDGA1041+006001999GF104991999999999999999999MA1101591999999REMMET051METAR SBJP 171500Z 17010KT 9999 SCT020 29/21 Q1016;
0120827980999992007071716004-07100-034867FM-15+0007SBJP V0201601N004612200019N0112651N1+03001+02101999999ADDGA1041+007501999GF104991999999999999999999MA1101491999999REMMET051METAR SBJP 171600Z 16009KT 9999 SCT025 30/21 Q1015;
0120827980999992007071717004-07100-034867FM-15+0007SBJP V0201601N005112200019N0112651N1+02901+02101999999ADDGA1041+007501999GF104991999999999999999999MA1101391999999REMMET051METAR SBJP 171700Z 16010KT 9999 SCT025 29/21 Q1014;
0120827980999992007071718004-07100-034867FM-15+0007SBJP V0201801N005712200019N0112651N1+02901+02101999999ADDGA1041+007501999GF104991999999999999999999MA1101391999999REMMET051METAR SBJP 171800Z 18011KT 9999 SCT025 29/21 Q1014;
0120827980999992007071719004-07100-034867FM-15+0007SBJP V0201601N004612200019N0112651N1+02801+02101999999ADDGA1041+007501999GF104991999999999999999999MA1101391999999REMMET051METAR SBJP 171900Z 16009KT 9999 SCT025 28/21 Q1014;
0120827980999992007071720004-07100-034867FM-15+0007SBJP V0201601N004612200019N0112651N1+02601+02201999999ADDGA1021+007501999GF102991999999999999999999MA1101391999999REMMET051METAR SBJP 172000Z 16009KT 9999 FEW025 26/22 Q1014;
0120827980999992007071721004-07100-034867FM-15+0007SBJP V0201801N003612200019N0112651N1+02501+02201999999ADDGA1021+006001999GF102991999999999999999999MA1101491999999REMMET051METAR SBJP 172100Z 18007KT 9999 FEW020 25/22 Q1015;
0072827980999992007071722004-07100-034867FM-15+0007SBJP V0201601N00211220001CN0099001N1+02401+02201999999ADDMA1101491999999REMMET045METAR SBJP 172200Z 16004KT CAVOK 24/22 Q1015;
0143827980999992007071723004-07100-034867FM-15+0007SBJP V0201701N002110270019N0112651N1+02401+02201999999ADDGA1021+009001999GA2071+027001999GF107991999999999999999999MA1101591999999REMMET058METAR SBJP 172300Z 17004KT 9999 FEW030 BKN090 24/22 Q1016;
0143827980999992007071800004-07100-034867FM-15+0007SBJP V0201801N001510270019N0112651N1+02401+02201999999ADDGA1041+009001999GA2071+027001999GF107991999999999999999999MA1101591999999REMMET058METAR SBJP 180000Z 18003KT 9999 SCT030 BKN090 24/22 Q1016;
0120827980999992007071801004-07100-034867FM-15+0007SBJP V0201901N001512200019N0112651N1+02401+02201999999ADDGA1041+009001999GF104991999999999999999999MA1101591999999REMMET051METAR SBJP 180100Z 19003KT 9999 SCT030 24/22 Q1016;
0120827980999992007071802004-07100-034867FM-15+0007SBJP V0202101N001512200019N0112651N1+02301+02101999999ADDGA1041+007501999GF104991999999999999999999MA1101591999999REMMET051METAR SBJP 180200Z 21003KT 9999 SCT025 23/21 Q1016;
0120827980999992007071803004-07100-034867FM-15+0007SBJP V0202201N002112200019N0112651N1+02301+02101999999ADDGA1041+007501999GF104991999999999999999999MA1101491999999REMMET051METAR SBJP 180300Z 22004KT 9999 SCT025 23/21 Q1015;
0120827980999992007071804004-07100-034867FM-15+0007SBJP V0202301N002112200019N0112651N1+02201+02101999999ADDGA1041+007501999GF104991999999999999999999MA1101391999999REMMET051METAR SBJP 180400Z 23004KT 9999 SCT025 22/21 Q1014;
0120827980999992007071805004-07100-034867FM-15+0007SBJP V0201401N001012200019N0112651N1+02201+02101999999ADDGA1041+006001999GF104991999999999999999999MA1101391999999REMMET051METAR SBJP 180500Z 14002KT 9999 SCT020 22/21 Q1014;
0120827980999992007071806004-07100-034867FM-15+0007SBJP V0202401N002112200019N0112651N1+02201+02101999999ADDGA1021+006001999GF102991999999999999999999MA1101291999999REMMET051METAR SBJP 180600Z 24004KT 9999 FEW020 22/21 Q1013;
0120827980999992007071807004-07100-034867FM-15+0007SBJP V0202301N001012200019N0112651N1+02201+02101999999ADDGA1021+006001999GF102991999999999999999999MA1101391999999REMMET051METAR SBJP 180700Z 23002KT 9999 FEW020 22/21 Q1014;
0120827980999992007071808004-07100-034867FM-15+0007SBJP V0202401N001012200019N0112651N1+02201+02101999999ADDGA1021+006001999GF102991999999999999999999MA1101391999999REMMET051METAR SBJP 180800Z 24002KT 9999 FEW020 22/21 Q1014;
0120827980999992007071809004-07100-034867FM-15+0007SBJP V0202501N002112200019N0112651N1+02201+02101999999ADDGA1041+006001999GF104991999999999999999999MA1101391999999REMMET051METAR SBJP 180900Z 25004KT 9999 SCT020 22/21 Q1014;
0143827980999992007071810004-07100-034867FM-15+0007SBJP V0202401N001510210019N0112651N1+02301+02101999999ADDGA1041+006001999GA2071+021001999GF107991999999999999999999MA1101491999999REMMET058METAR SBJP 181000Z 24003KT 9999 SCT020 BKN070 23/21 Q1015;
0143827980999992007071811004-07100-034867FM-15+0007SBJP V0202301N001510210019N0112651N1+02401+02201999999ADDGA1041+006001999GA2071+021001999GF107991999999999999999999MA1101591999999REMMET058METAR SBJP 181100Z 23003KT 9999 SCT020 BKN070 24/22 Q1016;
0143827980999992007071812004-07100-034867FM-15+0007SBJP V0201701N002612200019N0112651N1+02601+02301999999ADDGA1041+007501999GA2041+027001999GF104991999999999999999999MA1101591999999REMMET058METAR SBJP 181200Z 17005KT 9999 SCT025 SCT090 26/23 Q1016;
0120827980999992007071813004-07100-034867FM-15+0007SBJP V0201801N005112200019N0112651N1+02801+02101999999ADDGA1041+007501999GF104991999999999999999999MA1101491999999REMMET051METAR SBJP 181300Z 18010KT 9999 SCT025 28/21 Q1015;
0120827980999992007071814004-07100-034867FM-15+0007SBJP V0201601N006210075019N0112651N1+02901+02101999999ADDGA1071+007501999GF107991999999999999999999MA1101491999999REMMET051METAR SBJP 181400Z 16012KT 9999 BKN025 29/21 Q1015;
0120827980999992007071815004-07100-034867FM-15+0007SBJP V0201601N005710075019N0112651N1+02901+02101999999ADDGA1071+007501999GF107991999999999999999999MA1101391999999REMMET051METAR SBJP 181500Z 16011KT 9999 BKN025 29/21 Q1014;
0143827980999992007071816004-07100-034867FM-15+0007SBJP V0201401N006210210019N0112651N1+02801+02201999999ADDGA1041+009001999GA2071+021001999GF107991999999999999999999MA1101391999999REMMET058METAR SBJP 181600Z 14012KT 9999 SCT030 BKN070 28/22 Q1014;
0143827980999992007071817004-07100-034867FM-15+0007SBJP V0201501N006710210019N0112651N1+02801+02101999999ADDGA1041+009001999GA2071+021001999GF107991999999999999999999MA1101291999999REMMET058METAR SBJP 181700Z 15013KT 9999 SCT030 BKN070 28/21 Q1013;
0143827980999992007071819004-07100-034867FM-15+0007SBJP V0201601N005112200019N0112651N1+02701+02001999999ADDGA1041+009001999GA2041+021001999GF104991999999999999999999MA1101291999999REMMET058METAR SBJP 181900Z 16010KT 9999 SCT030 SCT070 27/20 Q1013;
0120827980999992007071822004-07100-034867FM-15+0007SBJP V0201401N002612200019N0112651N1+02401+02101999999ADDGA1021+006001999GF102991999999999999999999MA1101391999999REMMET051METAR SBJP 182200Z 14005KT 9999 FEW020 24/21 Q1014;
0072827980999992007071823004-07100-034867FM-15+0007SBJP V0201701N00151220001CN0099001N1+02401+02001999999ADDMA1101491999999REMMET045METAR SBJP 182300Z 17003KT CAVOK 24/20 Q1015;
0072827980999992007071900004-07100-034867FM-15+0007SBJP V0201901N00151220001CN0099001N1+02301+02001999999ADDMA1101591999999REMMET045METAR SBJP 190000Z 19003KT CAVOK 23/20 Q1016;
0072827980999992007071901004-07100-034867FM-15+0007SBJP V0202301N00151220001CN0099001N1+02201+02001999999ADDMA1101591999999REMMET045METAR SBJP 190100Z 23003KT CAVOK 22/20 Q1016;
0072827980999992007071902004-07100-034867FM-15+0007SBJP V0202101N00151220001CN0099001N1+02101+02001999999ADDMA1101591999999REMMET045METAR SBJP 190200Z 21003KT CAVOK 21/20 Q1016;
0072827980999992007071903004-07100-034867FM-15+0007SBJP V0202101N00211220001CN0099001N1+02101+02001999999ADDMA1101491999999REMMET045METAR SBJP 190300Z 21004KT CAVOK 21/20 Q1015;
0072827980999992007071904004-07100-034867FM-15+0007SBJP V0202401N00101220001CN0099001N1+02101+01901999999ADDMA1101491999999REMMET045METAR SBJP 190400Z 24002KT CAVOK 21/19 Q1015;
0072827980999992007071905004-07100-034867FM-15+0007SBJP V0202401N00211220001CN0099001N1+02101+01901999999ADDMA1101391999999REMMET045METAR SBJP 190500Z 24004KT CAVOK 21/19 Q1014;
0072827980999992007071906004-07100-034867FM-15+0007SBJP V0202401N00211220001CN0099001N1+02001+01901999999ADDMA1101391999999REMMET045METAR SBJP 190600Z 24004KT CAVOK 20/19 Q1014;
0072827980999992007071907004-07100-034867FM-15+0007SBJP V0202501N00151220001CN0099001N1+02001+01901999999ADDMA1101391999999REMMET045METAR SBJP 190700Z 25003KT CAVOK 20/19 Q1014;
0120827980999992007071909004-07100-034867FM-15+0007SBJP V0202401N001012200019N0112651N1+02001+01901999999ADDGA1021+006001999GF102991999999999999999999MA1101491999999REMMET051METAR SBJP 190900Z 24002KT 9999 FEW020 20/19 Q1015;
0120827980999992007071910004-07100-034867FM-15+0007SBJP V0201901N001512200019N0112651N1+02301+02101999999ADDGA1021+006001999GF102991999999999999999999MA1101491999999REMMET051METAR SBJP 191000Z 19003KT 9999 FEW020 23/21 Q1015;
0120827980999992007071911004-07100-034867FM-15+0007SBJP V0201501N002612200019N0112651N1+02601+02101999999ADDGA1021+006001999GF102991999999999999999999MA1101591999999REMMET051METAR SBJP 191100Z 15005KT 9999 FEW020 26/21 Q1016;
0120827980999992007071912004-07100-034867FM-15+0007SBJP V0201401N005112200019N0112651N1+02801+02001999999ADDGA1041+009001999GF104991999999999999999999MA1101591999999REMMET051METAR SBJP 191200Z 14010KT 9999 SCT030 28/20 Q1016;
0120827980999992007071913004-07100-034867FM-15+0007SBJP V0201201N003612200019N0112651N1+02901+02001999999ADDGA1041+009001999GF104991999999999999999999MA1101591999999REMMET051METAR SBJP 191300Z 12007KT 9999 SCT030 29/20 Q1016;
0120827980999992007071914004-07100-034867FM-15+0007SBJP V0201301N005112200019N0112651N1+02901+01901999999ADDGA1041+009001999GF104991999999999999999999MA1101491999999REMMET051METAR SBJP 191400Z 13010KT 9999 SCT030 29/19 Q1015;
0120827980999992007071915004-07100-034867FM-15+0007SBJP V0201401N004612200019N0112651N1+02901+01901999999ADDGA1021+009001999GF102991999999999999999999MA1101391999999REMMET051METAR SBJP 191500Z 14009KT 9999 FEW030 29/19 Q1014;
0120827980999992007071916004-07100-034867FM-15+0007SBJP V0201401N004612200019N0112651N1+02901+01901999999ADDGA1021+009001999GF102991999999999999999999MA1101291999999REMMET051METAR SBJP 191600Z 14009KT 9999 FEW030 29/19 Q1013;
0072827980999992007071917004-07100-034867FM-15+0007SBJP V0201401N00411220001CN0099001N1+02901+01701999999ADDMA1101291999999REMMET045METAR SBJP 191700Z 14008KT CAVOK 29/17 Q1013;
0072827980999992007071918004-07100-034867FM-15+0007SBJP V0201101N00311220001CN0099001N1+02801+01901999999ADDMA1101191999999REMMET045METAR SBJP 191800Z 11006KT CAVOK 28/19 Q1012;
0072827980999992007071919004-07100-034867FM-15+0007SBJP V0201401N00411220001CN0099001N1+02701+01801999999ADDMA1101191999999REMMET045METAR SBJP 191900Z 14008KT CAVOK 27/18 Q1012;
0072827980999992007071920004-07100-034867FM-15+0007SBJP V0201301N00261220001CN0099001N1+02601+01901999999ADDMA1101291999999REMMET045METAR SBJP 192000Z 13005KT CAVOK 26/19 Q1013;
0072827980999992007071921004-07100-034867FM-15+0007SBJP V0201501N00151220001CN0099001N1+02401+01901999999ADDMA1101291999999REMMET045METAR SBJP 192100Z 15003KT CAVOK 24/19 Q1013;
0072827980999992007071922004-07100-034867FM-15+0007SBJP V0201501N00151220001CN0099001N1+02401+01901999999ADDMA1101291999999REMMET045METAR SBJP 192200Z 15003KT CAVOK 24/19 Q1013;
0072827980999992007072000004-07100-034867FM-15+0007SBJP V0201901N00101220001CN0099001N1+02201+01901999999ADDMA1101491999999REMMET045METAR SBJP 200000Z 19002KT CAVOK 22/19 Q1015;
0072827980999992007072001004-07100-034867FM-15+0007SBJP V0201901N00101220001CN0099001N1+02201+01901999999ADDMA1101491999999REMMET045METAR SBJP 200100Z 19002KT CAVOK 22/19 Q1015;
0072827980999992007072002004-07100-034867FM-15+0007SBJP V0209999C00001220001CN0099001N1+02101+01901999999ADDMA1101491999999REMMET045METAR SBJP 200200Z 00000KT CAVOK 21/19 Q1015;
0120827980999992007072003004-07100-034867FM-15+0007SBJP V0202201N002112200019N0112651N1+02101+01901999999ADDGA1021+004501999GF102991999999999999999999MA1101391999999REMMET051METAR SBJP 200300Z 22004KT 9999 FEW015 21/19 Q1014;
0120827980999992007072004004-07100-034867FM-15+0007SBJP V0202401N001012200019N0112651N1+02001+01901999999ADDGA1041+006001999GF104991999999999999999999MA1101391999999REMMET051METAR SBJP 200400Z 24002KT 9999 SCT020 20/19 Q1014;
0072827980999992007072005004-07100-034867FM-15+0007SBJP V0202801N00051220001CN0099001N1+02001+01901999999ADDMA1101391999999REMMET045METAR SBJP 200500Z 28001KT CAVOK 20/19 Q1014;
0120827980999992007072006004-07100-034867FM-15+0007SBJP V0202701N001012200019N0112651N1+02001+01901999999ADDGA1041+006001999GF104991999999999999999999MA1101391999999REMMET051METAR SBJP 200600Z 27002KT 9999 SCT020 20/19 Q1014;
0072827980999992007072007004-07100-034867FM-15+0007SBJP V0202801N00101220001CN0099001N1+02001+01901999999ADDMA1101391999999REMMET045METAR SBJP 200700Z 28002KT CAVOK 20/19 Q1014;
0143827980999992007072008004-07100-034867FM-15+0007SBJP V0200301N001512200019N0112651N1+02001+01901999999ADDGA1021+006001999GA2041+021001999GF104991999999999999999999MA1101391999999REMMET058METAR SBJP 200800Z 03003KT 9999 FEW020 SCT070 20/19 Q1014;
0143827980999992007072009004-07100-034867FM-15+0007SBJP V0202801N001012200019N0112651N1+02001+01901999999ADDGA1021+006001999GA2041+021001999GF104991999999999999999999MA1101391999999REMMET058METAR SBJP 200900Z 28002KT 9999 FEW020 SCT070 20/19 Q1014;
0120827980999992007072010004-07100-034867FM-15+0007SBJP V0202201N001512200019N0112651N1+02301+02001999999ADDGA1021+006001999GF102991999999999999999999MA1101491999999REMMET051METAR SBJP 201000Z 22003KT 9999 FEW020 23/20 Q1015;
0143827980999992007072011004-07100-034867FM-15+0007SBJP V0202101N002112200019N0112651N1+02501+02101999999ADDGA1021+007501999GA2041+021001999GF104991999999999999999999MA1101591999999REMMET058METAR SBJP 201100Z 21004KT 9999 FEW025 SCT070 25/21 Q1016;
0143827980999992007072012004-07100-034867FM-15+0007SBJP V0201101N001510060019N0112651N1+02501+02101999999ADDGA1071+006001999GA2071+021001999GF107991999999999999999999MA1101691999999REMMET058METAR SBJP 201200Z 11003KT 9999 BKN020 BKN070 25/21 Q1017;
0143827980999992007072013004-07100-034867FM-15+0007SBJP V0201401N005110060019N0112651N1+02601+02201999999ADDGA1071+006001999GA2071+021001999GF107991999999999999999999MA1101591999999REMMET058METAR SBJP 201300Z 14010KT 9999 BKN020 BKN070 26/22 Q1016;
0136827980999992007072015004-07100-034867FM-15+0007SBJP V0201101N00361220001CN0112651N1+02701+02101999999ADDGA1071+005101999GA2041+021001999MA1101491999999REMMET058METAR SBJP 201500Z 11007KT 9999 BKN017 SCT070 27/21 Q1015;EQDQ01+000042SCOTCV
0120827980999992007072016004-07100-034867FM-15+0007SBJP V0201201N004112200019N0112651N1+02901+01901999999ADDGA1041+009001999GF104991999999999999999999MA1101491999999REMMET051METAR SBJP 201600Z 12008KT 9999 SCT030 29/19 Q1015;
0120827980999992007072017004-07100-034867FM-15+0007SBJP V0201001N003612200019N0112651N1+02901+02001999999ADDGA1021+009001999GF102991999999999999999999MA1101391999999REMMET051METAR SBJP 201700Z 10007KT 9999 FEW030 29/20 Q1014;
0120827980999992007072018004-07100-034867FM-15+0007SBJP V0201301N003612200019N0112651N1+02901+02001999999ADDGA1021+009001999GF102991999999999999999999MA1101491999999REMMET051METAR SBJP 201800Z 13007KT 9999 FEW030 29/20 Q1015;
0072827980999992007072019004-07100-034867FM-15+0007SBJP V0201301N00411220001CN0099001N1+02801+01901999999ADDMA1101491999999REMMET045METAR SBJP 201900Z 13008KT CAVOK 28/19 Q1015;
0072827980999992007072020004-07100-034867FM-15+0007SBJP V0201301N00411220001CN0099001N1+02701+01901999999ADDMA1101491999999REMMET045METAR SBJP 202000Z 13008KT CAVOK 27/19 Q1015;
0072827980999992007072021004-07100-034867FM-15+0007SBJP V0201701N00261220001CN0099001N1+02401+02001999999ADDMA1101491999999REMMET045METAR SBJP 202100Z 17005KT CAVOK 24/20 Q1015;
0072827980999992007072022004-07100-034867FM-15+0007SBJP V0202001N00211220001CN0099001N1+02401+02001999999ADDMA1101491999999REMMET045METAR SBJP 202200Z 20004KT CAVOK 24/20 Q1015;
0072827980999992007072023004-07100-034867FM-15+0007SBJP V0202101N00211220001CN0099001N1+02301+02001999999ADDMA1101591999999REMMET045METAR SBJP 202300Z 21004KT CAVOK 23/20 Q1016;
0072827980999992007072101004-07100-034867FM-15+0007SBJP V0201801N00211220001CN0099001N1+02301+02101999999ADDMA1101591999999REMMET045METAR SBJP 210100Z 18004KT CAVOK 23/21 Q1016;
0072827980999992007072102004-07100-034867FM-15+0007SBJP V0202201N00151220001CN0099001N1+02201+02001999999ADDMA1101591999999REMMET045METAR SBJP 210200Z 22003KT CAVOK 22/20 Q1016;
0072827980999992007072103004-07100-034867FM-15+0007SBJP V0202201N00211220001CN0099001N1+02201+02001999999ADDMA1101591999999REMMET045METAR SBJP 210300Z 22004KT CAVOK 22/20 Q1016;
0072827980999992007072104004-07100-034867FM-15+0007SBJP V0202101N00211220001CN0099001N1+02101+02001999999ADDMA1101491999999REMMET045METAR SBJP 210400Z 21004KT CAVOK 21/20 Q1015;
0120827980999992007072105004-07100-034867FM-15+0007SBJP V0202001N001512200019N0112651N1+02101+02001999999ADDGA1021+006001999GF102991999999999999999999MA1101491999999REMMET051METAR SBJP 210500Z 20003KT 9999 FEW020 21/20 Q1015;
0072827980999992007072107004-07100-034867FM-15+0007SBJP V0202101N00101220001CN0099001N1+02101+02001999999ADDMA1101491999999REMMET045METAR SBJP 210700Z 21002KT CAVOK 21/20 Q1015;
0143827980999992007072108004-07100-034867FM-15+0007SBJP V0202001N001510210019N0112651N1+02101+02001999999ADDGA1041+006001999GA2071+021001999GF107991999999999999999999MA1101491999999REMMET058METAR SBJP 210800Z 20003KT 9999 SCT020 BKN070 21/20 Q1015;
0143827980999992007072109004-07100-034867FM-15+0007SBJP V0202001N002610045019N0112651N1+02201+02101999999ADDGA1071+004501999GA2071+021001999GF107991999999999999999999MA1101491999999REMMET058METAR SBJP 210900Z 20005KT 9999 BKN015 BKN070 22/21 Q1015;
0153827980999992007072110004-07100-034867FM-15+0007SBJP V0201701N002612200019N0050001N1+02201+02201999999ADDGA1041+002101999GA2041+006001999GF104991999999999999999999MA1101591999999MW1611REMMET062METAR SBJP 211000Z 17005KT 5000 -RA SCT007 SCT020 22/22 Q1016;
0143827980999992007072111004-07100-034867FM-15+0007SBJP V0201801N002612200019N0112651N1+02401+02201999999ADDGA1041+006001999GA2041+021001999GF104991999999999999999999MA1101691999999REMMET058METAR SBJP 211100Z 18005KT 9999 SCT020 SCT070 24/22 Q1017;
0143827980999992007072112004-07100-034867FM-15+0007SBJP V0202001N003112200019N0112651N1+02601+02301999999ADDGA1041+004201999GA2041+007501999GF104991999999999999999999MA1101691999999REMMET058METAR SBJP 211200Z 20006KT 9999 SCT014 SCT025 26/23 Q1017;
0143827980999992007072113004-07100-034867FM-15+0007SBJP V0201801N002112200019N0112651N1+02601+02201999999ADDGA1041+003601999GA2041+007501999GF104991999999999999999999MA1101691999999REMMET058METAR SBJP 211300Z 18004KT 9999 SCT012 SCT025 26/22 Q1017;
0120827980999992007072114004-07100-034867FM-15+0007SBJP V0201801N003112200019N0112651N1+02701+02201999999ADDGA1041+007501999GF104991999999999999999999MA1101591999999REMMET051METAR SBJP 211400Z 18006KT 9999 SCT025 27/22 Q1016;
0120827980999992007072116004-07100-034867FM-15+0007SBJP V0201701N004112200019N0112651N1+02901+02101999999ADDGA1041+009001999GF104991999999999999999999MA1101491999999REMMET051METAR SBJP 211600Z 17008KT 9999 SCT030 29/21 Q1015;
0120827980999992007072117004-07100-034867FM-15+0007SBJP V0201401N004112200019N0112651N1+02801+02101999999ADDGA1041+009001999GF104991999999999999999999MA1101391999999REMMET051METAR SBJP 211700Z 14008KT 9999 SCT030 28/21 Q1014;
0120827980999992007072118004-07100-034867FM-15+0007SBJP V0201601N004112200019N0112651N1+02901+02101999999ADDGA1041+006001999GF104991999999999999999999MA1101391999999REMMET051METAR SBJP 211800Z 16008KT 9999 SCT020 29/21 Q1014;
0120827980999992007072119004-07100-034867FM-15+0007SBJP V0201601N004112200019N0112651N1+02801+02101999999ADDGA1041+006001999GF104991999999999999999999MA1101391999999REMMET051METAR SBJP 211900Z 16008KT 9999 SCT020 28/21 Q1014;
0120827980999992007072120004-07100-034867FM-15+0007SBJP V0201801N004112200019N0112651N1+02601+02201999999ADDGA1041+006001999GF104991999999999999999999MA1101391999999REMMET051METAR SBJP 212000Z 18008KT 9999 SCT020 26/22 Q1014;
0120827980999992007072121004-07100-034867FM-15+0007SBJP V0201801N003112200019N0112651N1+02601+02201999999ADDGA1041+006001999GF104991999999999999999999MA1101391999999REMMET051METAR SBJP 212100Z 18006KT 9999 SCT020 26/22 Q1014;
0072827980999992007072122004-07100-034867FM-15+0007SBJP V0202001N00211220001CN0099001N1+02401+02201999999ADDMA1101491999999REMMET045METAR SBJP 212200Z 20004KT CAVOK 24/22 Q1015;
0072827980999992007072123004-07100-034867FM-15+0007SBJP V0201901N00261220001CN0099001N1+02401+02201999999ADDMA1101491999999REMMET045METAR SBJP 212300Z 19005KT CAVOK 24/22 Q1015;
0072827980999992007072200004-07100-034867FM-15+0007SBJP V0201801N00361220001CN0099001N1+02401+02201999999ADDMA1101591999999REMMET045METAR SBJP 220000Z 18007KT CAVOK 24/22 Q1016;
0143827980999992007072201004-07100-034867FM-15+0007SBJP V0201801N003610240019N0112651N1+02301+02201999999ADDGA1041+002401999GA2071+024001999GF107991999999999999999999MA1101591999999REMMET058METAR SBJP 220100Z 18007KT 9999 SCT008 BKN080 23/22 Q1016;
0143827980999992007072202004-07100-034867FM-15+0007SBJP V0202001N000510210019N0112651N1+02301+02201999999ADDGA1041+002401999GA2071+021001999GF107991999999999999999999MA1101491999999REMMET058METAR SBJP 220200Z 20001KT 9999 SCT008 BKN070 23/22 Q1015;
0153827980999992007072203004-07100-034867FM-15+0007SBJP V0201901N002610030019N0040001N1+02301+02201999999ADDGA1071+003001999GA2071+021001999GF107991999999999999999999MA1101491999999MW1611REMMET062METAR SBJP 220300Z 19005KT 4000 -RA BKN010 BKN070 23/22 Q1015;
0176827980999992007072204004-07100-034867FM-15+0007SBJP V0202601N00261004501CN0050001N1+02301+02201999999ADDGA1041+001801999GA2041+004501999GA3071+021001999GF107991999999999999999999MA1101391999999MW1611REMMET069METAR SBJP 220400Z 26005KT 5000 -RA SCT006 SCT015 BKN070 23/22 Q1014;
0153827980999992007072205004-07100-034867FM-15+0007SBJP V0202501N002110045019N0050001N1+02301+02201999999ADDGA1071+004501999GA2071+021001999GF107991999999999999999999MA1101391999999MW1611REMMET062METAR SBJP 220500Z 25004KT 5000 -RA BKN015 BKN070 23/22 Q1014;
0153827980999992007072206004-07100-034867FM-15+0007SBJP V0202801N002110042019N0060001N1+02201+02201999999ADDGA1071+004201999GA2071+021001999GF107991999999999999999999MA1101291999999MW1611REMMET062METAR SBJP 220600Z 28004KT 6000 -RA BKN014 BKN070 22/22 Q1013;
0176827980999992007072207004-07100-034867FM-15+0007SBJP V0202501N002610042019N0040001N1+02301+02201999999ADDGA1041+001501999GA2071+004201999GA3071+021001999GF107991999999999999999999MA1101391999999MW1611REMMET069METAR SBJP 220700Z 25005KT 4000 -RA SCT005 BKN014 BKN070 23/22 Q1014;
0120827980999992007072208004-07100-034867FM-15+0007SBJP V0202001N001510042019N0112651N1+02301+02201999999ADDGA1071+004201999GF107991999999999999999999MA1101391999999REMMET051METAR SBJP 220800Z 20003KT 9999 BKN014 23/22 Q1014;
0176827980999992007072209004-07100-034867FM-15+0007SBJP V0201601N001510024019N0020001N1+02301+02201999999ADDGA1071+002401999GA2071+004201999GA3081+021001999GF108991999999999999999999MA1101391999999MW1611REMMET069METAR SBJP 220900Z 16003KT 2000 -RA BKN008 BKN014 OVC070 23/22 Q1014;
0143827980999992007072210004-07100-034867FM-15+0007SBJP V0203301N001010210019N0112651N1+02301+02201999999ADDGA1041+004801999GA2071+021001999GF107991999999999999999999MA1101491999999REMMET058METAR SBJP 221000Z 33002KT 9999 SCT016 BKN070 23/22 Q1015;
0143827980999992007072211004-07100-034867FM-15+0007SBJP V0209999C000010210019N0112651N1+02301+02201999999ADDGA1041+006001999GA2071+021001999GF107991999999999999999999MA1101491999999REMMET058METAR SBJP 221100Z 00000KT 9999 SCT020 BKN070 23/22 Q1015;
0143827980999992007072212004-07100-034867FM-15+0007SBJP V0209999C000010210019N0112651N1+02501+02201999999ADDGA1041+006001999GA2071+021001999GF107991999999999999999999MA1101491999999REMMET058METAR SBJP 221200Z 00000KT 9999 SCT020 BKN070 25/22 Q1015;
0153827980999992007072213004-07100-034867FM-15+0007SBJP V0201701N001010048019N0040001N1+02501+02301999999ADDGA1071+004801999GA2071+021001999GF107991999999999999999999MA1101491999999MW1611REMMET062METAR SBJP 221300Z 17002KT 4000 -RA BKN016 BKN070 25/23 Q1015;
0143827980999992007072214004-07100-034867FM-15+0007SBJP V0201901N003110048019N0112651N1+02601+02401999999ADDGA1071+004801999GA2071+021001999GF107991999999999999999999MA1101391999999REMMET058METAR SBJP 221400Z 19006KT 9999 BKN016 BKN070 26/24 Q1014;
0143827980999992007072215004-07100-034867FM-15+0007SBJP V0201501N005110270019N0112651N1+02701+02201999999ADDGA1041+006001999GA2071+027001999GF107991999999999999999999MA1101391999999REMMET058METAR SBJP 221500Z 15010KT 9999 SCT020 BKN090 27/22 Q1014;
0143827980999992007072216004-07100-034867FM-15+0007SBJP V0201601N005110210019N0112651N1+02601+02201999999ADDGA1041+005101999GA2071+021001999GF107991999999999999999999MA1101291999999REMMET058METAR SBJP 221600Z 16010KT 9999 SCT017 BKN070 26/22 Q1013;
0143827980999992007072217004-07100-034867FM-15+0007SBJP V0201501N005110210019N0112651N1+02701+02201999999ADDGA1041+005101999GA2071+021001999GF107991999999999999999999MA1101291999999REMMET058METAR SBJP 221700Z 15010KT 9999 SCT017 BKN070 27/22 Q1013;
0143827980999992007072218004-07100-034867FM-15+0007SBJP V0201401N003610270019N0112651N1+02501+02301999999ADDGA1041+005101999GA2071+027001999GF107991999999999999999999MA1101291999999REMMET058METAR SBJP 221800Z 14007KT 9999 SCT017 BKN090 25/23 Q1013;
0143827980999992007072219004-07100-034867FM-15+0007SBJP V0201401N002610270019N0112651N1+02601+02201999999ADDGA1041+005101999GA2071+027001999GF107991999999999999999999MA1101291999999REMMET058METAR SBJP 221900Z 14005KT 9999 SCT017 BKN090 26/22 Q1013;
0176827980999992007072220004-07100-034867FM-15+0007SBJP V0201601N005110045019N0040001N1+02301+02201999999ADDGA1041+001801999GA2071+004501999GA3071+027001999GF107991999999999999999999MA1101291999999MW1611REMMET069METAR SBJP 222000Z 16010KT 4000 -RA SCT006 BKN015 BKN090 23/22 Q1013;
0143827980999992007072221004-07100-034867FM-15+0007SBJP V0201201N002110045019N0112651N1+02301+02201999999ADDGA1071+004501999GA2071+024001999GF107991999999999999999999MA1101291999999REMMET058METAR SBJP 222100Z 12004KT 9999 BKN015 BKN080 23/22 Q1013;
0143827980999992007072222004-07100-034867FM-15+0007SBJP V0202301N001010060019N0112651N1+02401+02201999999ADDGA1071+006001999GA2071+024001999GF107991999999999999999999MA1101391999999REMMET058METAR SBJP 222200Z 23002KT 9999 BKN020 BKN080 24/22 Q1014;
0143827980999992007072223004-07100-034867FM-15+0007SBJP V0209999C000010240019N0112651N1+02401+02201999999ADDGA1041+006001999GA2071+024001999GF107991999999999999999999MA1101391999999REMMET058METAR SBJP 222300Z 00000KT 9999 SCT020 BKN080 24/22 Q1014;
0176827980999992007072300004-07100-034867FM-15+0007SBJP V0202001N002610060019N0080001N1+02301+02301999999ADDGA1041+003601999GA2071+006001999GA3081+024001999GF108991999999999999999999MA1101491999999MW1611REMMET069METAR SBJP 230000Z 20005KT 8000 -RA SCT012 BKN020 OVC080 23/23 Q1015;
0176827980999992007072301004-07100-034867FM-15+0007SBJP V0201701N002610030019N0080001N1+02301+02201999999ADDGA1071+003001999GA2071+006001999GA3081+024001999GF108991999999999999999999MA1101491999999MW1611REMMET069METAR SBJP 230100Z 17005KT 8000 -RA BKN010 BKN020 OVC080 23/22 Q1015;
0176827980999992007072302004-07100-034867FM-15+0007SBJP V0201401N003610030019N0080001N1+02301+02201999999ADDGA1071+003001999GA2071+006001999GA3081+024001999GF108991999999999999999999MA1101491999999MW1611REMMET069METAR SBJP 230200Z 14007KT 8000 -RA BKN010 BKN020 OVC080 23/22 Q1015;
0166827980999992007072303004-07100-034867FM-15+0007SBJP V0201801N002110060019N0112651N1+02301+02201999999ADDGA1021+003001999GA2071+006001999GA3081+024001999GF108991999999999999999999MA1101491999999REMMET065METAR SBJP 230300Z 18004KT 9999 FEW010 BKN020 OVC080 23/22 Q1015;
0143827980999992007072304004-07100-034867FM-15+0007SBJP V0201801N002110060019N0112651N1+02301+02201999999ADDGA1071+006001999GA2081+024001999GF108991999999999999999999MA1101491999999REMMET058METAR SBJP 230400Z 18004KT 9999 BKN020 OVC080 23/22 Q1015;
0143827980999992007072305004-07100-034867FM-15+0007SBJP V0202201N002112200019N0112651N1+02201+02201999999ADDGA1021+003001999GA2041+006001999GF104991999999999999999999MA1101391999999REMMET058METAR SBJP 230500Z 22004KT 9999 FEW010 SCT020 22/22 Q1014;
0153827980999992007072306004-07100-034867FM-15+0007SBJP V0201801N002110030019N0040001N1+02201+02101999999ADDGA1071+003001999GA2071+021001999GF107991999999999999999999MA1101291999999MW1611REMMET062METAR SBJP 230600Z 18004KT 4000 -RA BKN010 BKN070 22/21 Q1013;
0153827980999992007072307004-07100-034867FM-15+0007SBJP V0202201N002110042019N0112651N1+02201+02201999999ADDGA1071+004201999GA2071+021001999GF107991999999999999999999MA1101391999999MW1611REMMET062METAR SBJP 230700Z 22004KT 9999 -RA BKN014 BKN070 22/22 Q1014;
0143827980999992007072308004-07100-034867FM-15+0007SBJP V0202301N002110210019N0112651N1+02201+02101999999ADDGA1041+005401999GA2071+021001999GF107991999999999999999999MA1101291999999REMMET058METAR SBJP 230800Z 23004KT 9999 SCT018 BKN070 22/21 Q1013;
0143827980999992007072309004-07100-034867FM-15+0007SBJP V0202301N002110270019N0112651N1+02201+02101999999ADDGA1041+005401999GA2071+027001999GF107991999999999999999999MA1101391999999REMMET058METAR SBJP 230900Z 23004KT 9999 SCT018 BKN090 22/21 Q1014;
0143827980999992007072310004-07100-034867FM-15+0007SBJP V0202201N002612200019N0112651N1+02301+02101999999ADDGA1041+005401999GA2041+027001999GF104991999999999999999999MA1101391999999REMMET058METAR SBJP 231000Z 22005KT 9999 SCT018 SCT090 23/21 Q1014;
0143827980999992007072311004-07100-034867FM-15+0007SBJP V0201901N004610270019N0112651N1+02401+02001999999ADDGA1041+005401999GA2071+027001999GF107991999999999999999999MA1101491999999REMMET058METAR SBJP 231100Z 19009KT 9999 SCT018 BKN090 24/20 Q1015;
0143827980999992007072312004-07100-034867FM-15+0007SBJP V0201501N003112200019N0112651N1+02701+02201999999ADDGA1041+007501999GA2041+027001999GF104991999999999999999999MA1101491999999REMMET058METAR SBJP 231200Z 15006KT 9999 SCT025 SCT090 27/22 Q1015;
0154827980999992007072313004-07100-034867FM-15+0007SBJP V0202001N003610210019N0080001N1+02501+02201999999ADDGA1041+004501999GA2071+021001999GF107991999999999999999999MA1101491999999MW1161REMMET063METAR SBJP 231300Z 20007KT 8000 VCSH SCT015 BKN070 25/22 Q1015;
0143827980999992007072314004-07100-034867FM-15+0007SBJP V0201601N002112200019N0112651N1+02501+02201999999ADDGA1041+006001999GA2041+021001999GF104991999999999999999999MA1101491999999REMMET058METAR SBJP 231400Z 16004KT 9999 SCT020 SCT070 25/22 Q1015;
0120827980999992007072315004-07100-034867FM-15+0007SBJP V0201601N004112200019N0112651N1+02901+02201999999ADDGA1041+007501999GF104991999999999999999999MA1101391999999REMMET051METAR SBJP 231500Z 16008KT 9999 SCT025 29/22 Q1014;
0143827980999992007072316004-07100-034867FM-15+0007SBJP V0201501N004610210019N0112651N1+02901+02201999999ADDGA1041+009001999GA2071+021001999GF107991999999999999999999MA1101291999999REMMET058METAR SBJP 231600Z 15009KT 9999 SCT030 BKN070 29/22 Q1013;
0143827980999992007072317004-07100-034867FM-15+0007SBJP V0201301N005110210019N0112651N1+02801+02201999999ADDGA1041+009001999GA2071+021001999GF107991999999999999999999MA1101291999999REMMET058METAR SBJP 231700Z 13010KT 9999 SCT030 BKN070 28/22 Q1013;
0120827980999992007072318004-07100-034867FM-15+0007SBJP V0201401N004612200019N0112651N1+02801+02101999999ADDGA1021+009001999GF102991999999999999999999MA1101291999999REMMET051METAR SBJP 231800Z 14009KT 9999 FEW030 28/21 Q1013;
0120827980999992007072319004-07100-034867FM-15+0007SBJP V0201301N003612200019N0112651N1+02801+02201999999ADDGA1021+007501999GF102991999999999999999999MA1101291999999REMMET051METAR SBJP 231900Z 13007KT 9999 FEW025 28/22 Q1013;
0120827980999992007072320004-07100-034867FM-15+0007SBJP V0201401N003112200019N0112651N1+02601+02201999999ADDGA1021+007501999GF102991999999999999999999MA1101291999999REMMET051METAR SBJP 232000Z 14006KT 9999 FEW025 26/22 Q1013;
0123827980999992007072321004-07100-034867FM-15+0007SBJP V0201601N002112200019N0112651N1+02501+02201999999ADDGA1021+009001021GF102991999999999999999999MA1101391999999REMMET054METAR SBJP 232100Z 16004KT 9999 FEW030TCU 25/22 Q1014;
0143827980999992007072322004-07100-034867FM-15+0007SBJP V0201701N001510240019N0112651N1+02401+02201999999ADDGA1021+006001999GA2071+024001999GF107991999999999999999999MA1101391999999REMMET058METAR SBJP 232200Z 17003KT 9999 FEW020 BKN080 24/22 Q1014;
0072827980999992007072323004-07100-034867FM-15+0007SBJP V0201501N00211220001CN0099001N1+02401+02201999999ADDMA1101491999999REMMET045METAR SBJP 232300Z 15004KT CAVOK 24/22 Q1015;
0120827980999992007072400004-07100-034867FM-15+0007SBJP V0201601N001010060019N0112651N1+02401+02201999999ADDGA1071+006001999GF107991999999999999999999MA1101491999999REMMET051METAR SBJP 240000Z 16002KT 9999 BKN020 24/22 Q1015;
0120827980999992007072401004-07100-034867FM-15+0007SBJP V0201301N002112200019N0112651N1+02401+02201999999ADDGA1041+006001999GF104991999999999999999999MA1101491999999REMMET051METAR SBJP 240100Z 13004KT 9999 SCT020 24/22 Q1015;
0143827980999992007072405004-07100-034867FM-15+0007SBJP V0202401N001512200019N0112651N1+02301+02201999999ADDGA1041+006001999GA2041+021001999GF104991999999999999999999MA1101391999999REMMET058METAR SBJP 240500Z 24003KT 9999 SCT020 SCT070 23/22 Q1014;
0143827980999992007072406004-07100-034867FM-15+0007SBJP V0202401N001512200019N0112651N1+02301+02201999999ADDGA1041+006001999GA2041+021001999GF104991999999999999999999MA1101391999999REMMET058METAR SBJP 240600Z 24003KT 9999 SCT020 SCT070 23/22 Q1014;
0143827980999992007072407004-07100-034867FM-15+0007SBJP V0202301N002112200019N0112651N1+02201+02101999999ADDGA1041+004801999GA2041+027001999GF104991999999999999999999MA1101391999999REMMET058METAR SBJP 240700Z 23004KT 9999 SCT016 SCT090 22/21 Q1014;
0143827980999992007072408004-07100-034867FM-15+0007SBJP V0202501N001512200019N0112651N1+02201+02001999999ADDGA1021+004801999GA2041+027001999GF104991999999999999999999MA1101491999999REMMET058METAR SBJP 240800Z 25003KT 9999 FEW016 SCT090 22/20 Q1015;
0143827980999992007072409004-07100-034867FM-15+0007SBJP V0202501N001012200019N0112651N1+02201+02001999999ADDGA1021+006001999GA2041+027001999GF104991999999999999999999MA1101491999999REMMET058METAR SBJP 240900Z 25002KT 9999 FEW020 SCT090 22/20 Q1015;
0143827980999992007072410004-07100-034867FM-15+0007SBJP V0202301N002110270019N0112651N1+02301+02101999999ADDGA1041+007501999GA2071+027001999GF107991999999999999999999MA1101591999999REMMET058METAR SBJP 241000Z 23004KT 9999 SCT025 BKN090 23/21 Q1016;
0143827980999992007072411004-07100-034867FM-15+0007SBJP V0202001N003110270019N0112651N1+02501+02101999999ADDGA1041+007501999GA2071+027001999GF107991999999999999999999MA1101591999999REMMET058METAR SBJP 241100Z 20006KT 9999 SCT025 BKN090 25/21 Q1016;
0120827980999992007072413004-07100-034867FM-15+0007SBJP V0201401N003112200019N0112651N1+02701+02001999999ADDGA1041+007501999GF104991999999999999999999MA1101591999999REMMET051METAR SBJP 241300Z 14006KT 9999 SCT025 27/20 Q1016;
0143827980999992007072414004-07100-034867FM-15+0007SBJP V0201501N002610210019N0112651N1+02701+02101999999ADDGA1041+009001999GA2071+021001999GF107991999999999999999999MA1101591999999REMMET058METAR SBJP 241400Z 15005KT 9999 SCT030 BKN070 27/21 Q1016;
0143827980999992007072415004-07100-034867FM-15+0007SBJP V0201201N004110210019N0112651N1+02901+02001999999ADDGA1041+009001999GA2071+021001999GF107991999999999999999999MA1101491999999REMMET058METAR SBJP 241500Z 12008KT 9999 SCT030 BKN070 29/20 Q1015;
0143827980999992007072416004-07100-034867FM-15+0007SBJP V0201201N003610210019N0112651N1+02901+02101999999ADDGA1041+009001999GA2071+021001999GF107991999999999999999999MA1101491999999REMMET058METAR SBJP 241600Z 12007KT 9999 SCT030 BKN070 29/21 Q1015;
0120827980999992007072417004-07100-034867FM-15+0007SBJP V0201101N003612200019N0112651N1+02901+02001999999ADDGA1041+009001999GF104991999999999999999999MA1101391999999REMMET051METAR SBJP 241700Z 11007KT 9999 SCT030 29/20 Q1014;
0143827980999992007072418004-07100-034867FM-15+0007SBJP V0201101N004112200019N0112651N1+02901+02001999999ADDGA1021+009001999GA2041+021001999GF104991999999999999999999MA1101391999999REMMET058METAR SBJP 241800Z 11008KT 9999 FEW030 SCT070 29/20 Q1014;
0072827980999992007072419004-07100-034867FM-15+0007SBJP V0201301N00511220001CN0099001N1+02701+02101999999ADDMA1101391999999REMMET045METAR SBJP 241900Z 13010KT CAVOK 27/21 Q1014;
0072827980999992007072420004-07100-034867FM-15+0007SBJP V0201401N00361220001CN0099001N1+02601+02201999999ADDMA1101391999999REMMET045METAR SBJP 242000Z 14007KT CAVOK 26/22 Q1014;
0072827980999992007072421004-07100-034867FM-15+0007SBJP V0201501N00311220001CN0099001N1+02501+02201999999ADDMA1101391999999REMMET045METAR SBJP 242100Z 15006KT CAVOK 25/22 Q1014;
0072827980999992007072422004-07100-034867FM-15+0007SBJP V0201601N00261220001CN0099001N1+02401+02201999999ADDMA1101491999999REMMET045METAR SBJP 242200Z 16005KT CAVOK 24/22 Q1015;
0072827980999992007072423004-07100-034867FM-15+0007SBJP V0201601N00151220001CN0099001N1+02301+02201999999ADDMA1101491999999REMMET045METAR SBJP 242300Z 16003KT CAVOK 23/22 Q1015;
0072827980999992007072501004-07100-034867FM-15+0007SBJP V0202001N00151220001CN0099001N1+02301+02101999999ADDMA1101591999999REMMET045METAR SBJP 250100Z 20003KT CAVOK 23/21 Q1016;
0120827980999992007072502004-07100-034867FM-15+0007SBJP V0202101N001512200019N0112651N1+02301+02201999999ADDGA1021+004501999GF102991999999999999999999MA1101591999999REMMET051METAR SBJP 250200Z 21003KT 9999 FEW015 23/22 Q1016;
0120827980999992007072503004-07100-034867FM-15+0007SBJP V0201901N001512200019N0112651N1+02301+02101999999ADDGA1041+004801999GF104991999999999999999999MA1101491999999REMMET051METAR SBJP 250300Z 19003KT 9999 SCT016 23/21 Q1015;
0120827980999992007072504004-07100-034867FM-15+0007SBJP V0202301N001512200019N0112651N1+02201+02101999999ADDGA1041+007501999GF104991999999999999999999MA1101491999999REMMET051METAR SBJP 250400Z 23003KT 9999 SCT025 22/21 Q1015;
0120827980999992007072505004-07100-034867FM-15+0007SBJP V0209999C000012200019N0112651N1+02201+02101999999ADDGA1021+007501999GF102991999999999999999999MA1101391999999REMMET051METAR SBJP 250500Z 00000KT 9999 FEW025 22/21 Q1014;
0120827980999992007072506004-07100-034867FM-15+0007SBJP V0202301N001012200019N0112651N1+02201+02101999999ADDGA1041+006001999GF104991999999999999999999MA1101391999999REMMET051METAR SBJP 250600Z 23002KT 9999 SCT020 22/21 Q1014;
0120827980999992007072507004-07100-034867FM-15+0007SBJP V0202201N001012200019N0112651N1+02101+02101999999ADDGA1041+006001999GF104991999999999999999999MA1101391999999REMMET051METAR SBJP 250700Z 22002KT 9999 SCT020 21/21 Q1014;
0120827980999992007072508004-07100-034867FM-15+0007SBJP V0202301N001012200019N0112651N1+02101+02001999999ADDGA1021+006001999GF102991999999999999999999MA1101391999999REMMET051METAR SBJP 250800Z 23002KT 9999 FEW020 21/20 Q1014;
0120827980999992007072509004-07100-034867FM-15+0007SBJP V0209999C000012200019N0112651N1+02101+02101999999ADDGA1021+006001999GF102991999999999999999999MA1101391999999REMMET051METAR SBJP 250900Z 00000KT 9999 FEW020 21/21 Q1014;
0120827980999992007072510004-07100-034867FM-15+0007SBJP V0202201N001512200019N0112651N1+02301+02201999999ADDGA1041+006001999GF104991999999999999999999MA1101491999999REMMET051METAR SBJP 251000Z 22003KT 9999 SCT020 23/22 Q1015;
0120827980999992007072511004-07100-034867FM-15+0007SBJP V0201601N001512200019N0112651N1+02601+02301999999ADDGA1041+006001999GF104991999999999999999999MA1101591999999REMMET051METAR SBJP 251100Z 16003KT 9999 SCT020 26/23 Q1016;
0120827980999992007072512004-07100-034867FM-15+0007SBJP V0201301N003112200019N0112651N1+02801+02201999999ADDGA1041+006001999GF104991999999999999999999MA1101591999999REMMET051METAR SBJP 251200Z 13006KT 9999 SCT020 28/22 Q1016;
0120827980999992007072513004-07100-034867FM-15+0007SBJP V0201201N003610090019N0112651N1+02901+02101999999ADDGA1071+009001999GF107991999999999999999999MA1101591999999REMMET051METAR SBJP 251300Z 12007KT 9999 BKN030 29/21 Q1016;
0120827980999992007072515004-07100-034867FM-15+0007SBJP V0201201N004110090019N0112651N1+02901+02101999999ADDGA1071+009001999GF107991999999999999999999MA1101491999999REMMET051METAR SBJP 251500Z 12008KT 9999 BKN030 29/21 Q1015;
0120827980999992007072518004-07100-034867FM-15+0007SBJP V0201601N005112200019N0112651N1+02801+02201999999ADDGA1041+009001999GF104991999999999999999999MA1101291999999REMMET051METAR SBJP 251800Z 16010KT 9999 SCT030 28/22 Q1013;
0120827980999992007072519004-07100-034867FM-15+0007SBJP V0201401N003112200019N0112651N1+02801+02201999999ADDGA1041+009001999GF104991999999999999999999MA1101391999999REMMET051METAR SBJP 251900Z 14006KT 9999 SCT030 28/22 Q1014;
0120827980999992007072520004-07100-034867FM-15+0007SBJP V0201401N002112200019N0112651N1+02701+02201999999ADDGA1041+009001999GF104991999999999999999999MA1101391999999REMMET051METAR SBJP 252000Z 14004KT 9999 SCT030 27/22 Q1014;
0120827980999992007072521004-07100-034867FM-15+0007SBJP V0201601N003112200019N0112651N1+02501+02301999999ADDGA1041+009001999GF104991999999999999999999MA1101491999999REMMET051METAR SBJP 252100Z 16006KT 9999 SCT030 25/23 Q1015;
0143827980999992007072522004-07100-034867FM-15+0007SBJP V0201601N001512200019N0112651N1+02501+02301999999ADDGA1041+006001999GA2041+021001999GF104991999999999999999999MA1101591999999REMMET058METAR SBJP 252200Z 16003KT 9999 SCT020 SCT070 25/23 Q1016;
0120827980999992007072523004-07100-034867FM-15+0007SBJP V0202001N001512200019N0112651N1+02401+02301999999ADDGA1021+006001999GF102991999999999999999999MA1101591999999REMMET051METAR SBJP 252300Z 20003KT 9999 FEW020 24/23 Q1016;
0120827980999992007072600004-07100-034867FM-15+0007SBJP V0202101N001512200019N0112651N1+02401+02301999999ADDGA1041+005401999GF104991999999999999999999MA1101691999999REMMET051METAR SBJP 260000Z 21003KT 9999 SCT018 24/23 Q1017;
0120827980999992007072601004-07100-034867FM-15+0007SBJP V0202101N001512200019N0112651N1+02401+02301999999ADDGA1041+005401999GF104991999999999999999999MA1101691999999REMMET051METAR SBJP 260100Z 21003KT 9999 SCT018 24/23 Q1017;
0120827980999992007072602004-07100-034867FM-15+0007SBJP V0202201N001012200019N0112651N1+02301+02201999999ADDGA1021+005401999GF102991999999999999999999MA1101691999999REMMET051METAR SBJP 260200Z 22002KT 9999 FEW018 23/22 Q1017;
0120827980999992007072603004-07100-034867FM-15+0007SBJP V0202301N001512200019N0112651N1+02301+02201999999ADDGA1021+005401999GF102991999999999999999999MA1101691999999REMMET051METAR SBJP 260300Z 23003KT 9999 FEW018 23/22 Q1017;
0143827980999992007072604004-07100-034867FM-15+0007SBJP V0202201N001012200019N0112651N1+02301+02201999999ADDGA1041+006001999GA2041+021001999GF104991999999999999999999MA1101591999999REMMET058METAR SBJP 260400Z 22002KT 9999 SCT020 SCT070 23/22 Q1016;
0143827980999992007072605004-07100-034867FM-15+0007SBJP V0202101N001512200019N0112651N1+02301+02201999999ADDGA1021+004801999GA2041+021001999GF104991999999999999999999MA1101591999999REMMET058METAR SBJP 260500Z 21003KT 9999 FEW016 SCT070 23/22 Q1016;
0143827980999992007072606004-07100-034867FM-15+0007SBJP V0209999C000010009019N0112651N1+02301+02201999999ADDGA1071+000901999GA2071+004501999GF107991999999999999999999MA1101591999999REMMET058METAR SBJP 260600Z 00000KT 9999 BKN003 BKN015 23/22 Q1016;
0152827980999992007072607004-07100-034867FM-15+0007SBJP V0202101N001510024019N0045001N1+02301+02201999999ADDGA1071+002401999GA2071+009001999GF107991999999999999999999MA1101591999999MW1101REMMET061METAR SBJP 260700Z 21003KT 4500 BR BKN008 BKN030 23/22 Q1016;
0143827980999992007072608004-07100-034867FM-15+0007SBJP V0202301N001510048019N0112651N1+02301+02201999999ADDGA1021+003001999GA2071+004801999GF107991999999999999999999MA1101591999999REMMET058METAR SBJP 260800Z 23003KT 9999 FEW010 BKN016 23/22 Q1016;
0143827980999992007072609004-07100-034867FM-15+0007SBJP V0202501N001512200019N0112651N1+02301+02201999999ADDGA1041+005101999GA2041+021001999GF104991999999999999999999MA1101591999999REMMET058METAR SBJP 260900Z 25003KT 9999 SCT017 SCT070 23/22 Q1016;
0143827980999992007072610004-07100-034867FM-15+0007SBJP V0202401N002112200019N0112651N1+02401+02301999999ADDGA1041+005101999GA2041+021001999GF104991999999999999999999MA1101691999999REMMET058METAR SBJP 261000Z 24004KT 9999 SCT017 SCT070 24/23 Q1017;
0153827980999992007072611004-07100-034867FM-15+0007SBJP V0202001N002110051019N0045001N1+02401+02201999999ADDGA1071+005101999GA2071+021001999GF107991999999999999999999MA1101801999999MW1611REMMET062METAR SBJP 261100Z 20004KT 4500 -RA BKN017 BKN070 24/22 Q1018;
0143827980999992007072612004-07100-034867FM-15+0007SBJP V0202401N002110210019N0112651N1+02601+02301999999ADDGA1041+009001999GA2071+021001999GF107991999999999999999999MA1101801999999REMMET058METAR SBJP 261200Z 24004KT 9999 SCT030 BKN070 26/23 Q1018;
0143827980999992007072613004-07100-034867FM-15+0007SBJP V0201901N002110210019N0112651N1+02501+02301999999ADDGA1041+009001999GA2071+021001999GF107991999999999999999999MA1101801999999REMMET058METAR SBJP 261300Z 19004KT 9999 SCT030 BKN070 25/23 Q1018;
0143827980999992007072614004-07100-034867FM-15+0007SBJP V0201701N001010210019N0112651N1+02801+02201999999ADDGA1041+006001999GA2071+021001999GF107991999999999999999999MA1101691999999REMMET058METAR SBJP 261400Z 17002KT 9999 SCT020 BKN070 28/22 Q1017;
0143827980999992007072615004-07100-034867FM-15+0007SBJP V0201701N002110210019N0112651N1+02701+02401999999ADDGA1041+006001999GA2071+021001999GF107991999999999999999999MA1101691999999REMMET058METAR SBJP 261500Z 17004KT 9999 SCT020 BKN070 27/24 Q1017;
0166827980999992007072616004-07100-034867FM-15+0007SBJP V0200201N001010054019N0112651N1+02701+02301999999ADDGA1021+003601999GA2071+005401999GA3071+021001999GF107991999999999999999999MA1101591999999REMMET065METAR SBJP 261600Z 02002KT 9999 FEW012 BKN018 BKN070 27/23 Q1016;
0143827980999992007072617004-07100-034867FM-15+0007SBJP V0201001N002610054019N0112651N1+02801+02301999999ADDGA1071+005401999GA2071+021001999GF107991999999999999999999MA1101491999999REMMET058METAR SBJP 261700Z 10005KT 9999 BKN018 BKN070 28/23 Q1015;
0143827980999992007072618004-07100-034867FM-15+0007SBJP V0201401N003612200019N0112651N1+02801+02201999999ADDGA1041+006001999GA2041+021001999GF104991999999999999999999MA1101491999999REMMET058METAR SBJP 261800Z 14007KT 9999 SCT020 SCT070 28/22 Q1015;
0143827980999992007072619004-07100-034867FM-15+0007SBJP V0201101N002612200019N0112651N1+02701+02201999999ADDGA1041+007501999GA2041+021001999GF104991999999999999999999MA1101491999999REMMET058METAR SBJP 261900Z 11005KT 9999 SCT025 SCT070 27/22 Q1015;
0143827980999992007072620004-07100-034867FM-15+0007SBJP V0201301N002612200019N0112651N1+02701+02201999999ADDGA1041+007501999GA2041+021001999GF104991999999999999999999MA1101491999999REMMET058METAR SBJP 262000Z 13005KT 9999 SCT025 SCT070 27/22 Q1015;
0120827980999992007072621004-07100-034867FM-15+0007SBJP V0201401N003112200019N0112651N1+02601+02301999999ADDGA1021+007501999GF102991999999999999999999MA1101591999999REMMET051METAR SBJP 262100Z 14006KT 9999 FEW025 26/23 Q1016;
0143827980999992007072622004-07100-034867FM-15+0007SBJP V0201601N002110210019N0112651N1+02501+02301999999ADDGA1041+006001999GA2071+021001999GF107991999999999999999999MA1101591999999REMMET058METAR SBJP 262200Z 16004KT 9999 SCT020 BKN070 25/23 Q1016;
0143827980999992007072623004-07100-034867FM-15+0007SBJP V0201901N002110210019N0112651N1+02401+02201999999ADDGA1041+004501999GA2071+021001999GF107991999999999999999999MA1101691999999REMMET058METAR SBJP 262300Z 19004KT 9999 SCT015 BKN070 24/22 Q1017;
0143827980999992007072700004-07100-034867FM-15+0007SBJP V0201901N001510210019N0112651N1+02401+02201999999ADDGA1041+004501999GA2071+021001999GF107991999999999999999999MA1101691999999REMMET058METAR SBJP 270000Z 19003KT 9999 SCT015 BKN070 24/22 Q1017;
0143827980999992007072701004-07100-034867FM-15+0007SBJP V0202501N001512200019N0112651N1+02301+02201999999ADDGA1041+005101999GA2041+027001999GF104991999999999999999999MA1101691999999REMMET058METAR SBJP 270100Z 25003KT 9999 SCT017 SCT090 23/22 Q1017;
0120827980999992007072702004-07100-034867FM-15+0007SBJP V0202701N001512200019N0112651N1+02301+02201999999ADDGA1041+005101999GF104991999999999999999999MA1101691999999REMMET051METAR SBJP 270200Z 27003KT 9999 SCT017 23/22 Q1017;
0120827980999992007072703004-07100-034867FM-15+0007SBJP V0202501N001512200019N0112651N1+02301+02201999999ADDGA1021+005101999GF102991999999999999999999MA1101591999999REMMET051METAR SBJP 270300Z 25003KT 9999 FEW017 23/22 Q1016;
0120827980999992007072704004-07100-034867FM-15+0007SBJP V0209999C000012200019N0112651N1+02301+02201999999ADDGA1041+005101999GF104991999999999999999999MA1101591999999REMMET051METAR SBJP 270400Z 00000KT 9999 SCT017 23/22 Q1016;
0120827980999992007072705004-07100-034867FM-15+0007SBJP V0202901N001010048019N0112651N1+02301+02201999999ADDGA1071+004801999GF107991999999999999999999MA1101491999999REMMET051METAR SBJP 270500Z 29002KT 9999 BKN016 23/22 Q1015;
0120827980999992007072706004-07100-034867FM-15+0007SBJP V0209999C000010048019N0112651N1+02301+02201999999ADDGA1071+004801999GF107991999999999999999999MA1101491999999REMMET051METAR SBJP 270600Z 00000KT 9999 BKN016 23/22 Q1015;
0120827980999992007072707004-07100-034867FM-15+0007SBJP V0209999C000010048019N0112651N1+02301+02201999999ADDGA1071+004801999GF107991999999999999999999MA1101491999999REMMET051METAR SBJP 270700Z 00000KT 9999 BKN016 23/22 Q1015;
0130827980999992007072708004-07100-034867FM-15+0007SBJP V0200601N001010048019N0050001N1+02301+02201999999ADDGA1071+004801999GF107991999999999999999999MA1101591999999MW1611REMMET055METAR SBJP 270800Z 06002KT 5000 -RA BKN016 23/22 Q1016;
0130827980999992007072709004-07100-034867FM-15+0007SBJP V0201901N003110048019N0050001N1+02301+02201999999ADDGA1071+004801999GF107991999999999999999999MA1101591999999MW1611REMMET055METAR SBJP 270900Z 19006KT 5000 -RA BKN016 23/22 Q1016;
0120827980999992007072710004-07100-034867FM-15+0007SBJP V0202701N002112200019N0112651N1+02401+02301999999ADDGA1041+005401999GF104991999999999999999999MA1101691999999REMMET051METAR SBJP 271000Z 27004KT 9999 SCT018 24/23 Q1017;
0120827980999992007072712004-07100-034867FM-15+0007SBJP V0201501N004110054019N0112651N1+02601+02301999999ADDGA1071+005401999GF107991999999999999999999MA1101691999999REMMET051METAR SBJP 271200Z 15008KT 9999 BKN018 26/23 Q1017;
0120827980999992007072713004-07100-034867FM-15+0007SBJP V0201501N003610060019N0112651N1+02601+02301999999ADDGA1071+006001999GF107991999999999999999999MA1101691999999REMMET051METAR SBJP 271300Z 15007KT 9999 BKN020 26/23 Q1017;
0120827980999992007072714004-07100-034867FM-15+0007SBJP V0201601N006712200019N0112651N1+02801+02201999999ADDGA1041+007501999GF104991999999999999999999MA1101691999999REMMET051METAR SBJP 271400Z 16013KT 9999 SCT025 28/22 Q1017;
0120827980999992007072718004-07100-034867FM-15+0007SBJP V0201701N006212200019N0112651N1+02901+01901999999ADDGA1041+007501999GF104991999999999999999999MA1101391999999REMMET051METAR SBJP 271800Z 17012KT 9999 SCT025 29/19 Q1014;
0120827980999992007072719004-07100-034867FM-15+0007SBJP V0201901N005712200019N0112651N1+02801+02001999999ADDGA1021+007501999GF102991999999999999999999MA1101391999999REMMET051METAR SBJP 271900Z 19011KT 9999 FEW025 28/20 Q1014;
0120827980999992007072720004-07100-034867FM-15+0007SBJP V0201801N005112200019N0112651N1+02601+02001999999ADDGA1021+007501999GF102991999999999999999999MA1101391999999REMMET051METAR SBJP 272000Z 18010KT 9999 FEW025 26/20 Q1014;
0120827980999992007072721004-07100-034867FM-15+0007SBJP V0201901N002612200019N0112651N1+02401+02101999999ADDGA1021+007501999GF102991999999999999999999MA1101391999999REMMET051METAR SBJP 272100Z 19005KT 9999 FEW025 24/21 Q1014;
0072827980999992007072722004-07100-034867FM-15+0007SBJP V0201801N00151220001CN0099001N1+02401+02101999999ADDMA1101491999999REMMET045METAR SBJP 272200Z 18003KT CAVOK 24/21 Q1015;
0120827980999992007072723004-07100-034867FM-15+0007SBJP V0202001N001512200019N0112651N1+02301+02101999999ADDGA1021+006001999GF102991999999999999999999MA1101491999999REMMET051METAR SBJP 272300Z 20003KT 9999 FEW020 23/21 Q1015;
0120827980999992007072800004-07100-034867FM-15+0007SBJP V0202201N001512200019N0112651N1+02201+02001999999ADDGA1021+006001999GF102991999999999999999999MA1101591999999REMMET051METAR SBJP 280000Z 22003KT 9999 FEW020 22/20 Q1016;
0120827980999992007072801004-07100-034867FM-15+0007SBJP V0202101N002112200019N0112651N1+02201+02001999999ADDGA1021+006001999GF102991999999999999999999MA1101591999999REMMET051METAR SBJP 280100Z 21004KT 9999 FEW020 22/20 Q1016;
0120827980999992007072802004-07100-034867FM-15+0007SBJP V0202101N001512200019N0112651N1+02201+02001999999ADDGA1021+006001999GF102991999999999999999999MA1101591999999REMMET051METAR SBJP 280200Z 21003KT 9999 FEW020 22/20 Q1016;
0120827980999992007072803004-07100-034867FM-15+0007SBJP V0202201N001512200019N0112651N1+02101+02001999999ADDGA1021+006001999GF102991999999999999999999MA1101591999999REMMET051METAR SBJP 280300Z 22003KT 9999 FEW020 21/20 Q1016;
0143827980999992007072804004-07100-034867FM-15+0007SBJP V0202301N002112200019N0112651N1+02101+02001999999ADDGA1041+006001999GA2041+021001999GF104991999999999999999999MA1101491999999REMMET058METAR SBJP 280400Z 23004KT 9999 SCT020 SCT070 21/20 Q1015;
0143827980999992007072805004-07100-034867FM-15+0007SBJP V0202401N001512200019N0112651N1+02101+02001999999ADDGA1041+006001999GA2041+021001999GF104991999999999999999999MA1101491999999REMMET058METAR SBJP 280500Z 24003KT 9999 SCT020 SCT070 21/20 Q1015;
0143827980999992007072806004-07100-034867FM-15+0007SBJP V0202201N002112200019N0112651N1+02201+02101999999ADDGA1041+006001999GA2041+021001999GF104991999999999999999999MA1101491999999REMMET058METAR SBJP 280600Z 22004KT 9999 SCT020 SCT070 22/21 Q1015;
0143827980999992007072807004-07100-034867FM-15+0007SBJP V0202301N002612200019N0112651N1+02101+02001999999ADDGA1021+006001999GA2041+021001999GF104991999999999999999999MA1101491999999REMMET058METAR SBJP 280700Z 23005KT 9999 FEW020 SCT070 21/20 Q1015;
0120827980999992007072808004-07100-034867FM-15+0007SBJP V0202601N001512200019N0112651N1+02101+02001999999ADDGA1021+006001999GF102991999999999999999999MA1101491999999REMMET051METAR SBJP 280800Z 26003KT 9999 FEW020 21/20 Q1015;
0120827980999992007072809004-07100-034867FM-15+0007SBJP V0203001N001512200019N0112651N1+02001+01901999999ADDGA1021+006001999GF102991999999999999999999MA1101491999999REMMET051METAR SBJP 280900Z 30003KT 9999 FEW020 20/19 Q1015;
0120827980999992007072810004-07100-034867FM-15+0007SBJP V0202701N001512200019N0112651N1+02201+02001999999ADDGA1021+006001999GF102991999999999999999999MA1101591999999REMMET051METAR SBJP 281000Z 27003KT 9999 FEW020 22/20 Q1016;
0120827980999992007072811004-07100-034867FM-15+0007SBJP V0202301N003112200019N0112651N1+02501+02101999999ADDGA1021+006001999GF102991999999999999999999MA1101691999999REMMET051METAR SBJP 281100Z 23006KT 9999 FEW020 25/21 Q1017;
0120827980999992007072812004-07100-034867FM-15+0007SBJP V0202201N003612200019N0112651N1+02601+02101999999ADDGA1041+007501999GF104991999999999999999999MA1101691999999REMMET051METAR SBJP 281200Z 22007KT 9999 SCT025 26/21 Q1017;
0120827980999992007072813004-07100-034867FM-15+0007SBJP V0202101N004610075019N0112651N1+02701+02201999999ADDGA1071+007501999GF107991999999999999999999MA1101691999999REMMET051METAR SBJP 281300Z 21009KT 9999 BKN025 27/22 Q1017;
0120827980999992007072814004-07100-034867FM-15+0007SBJP V0201801N005110075019N0112651N1+02801+02101999999ADDGA1071+007501999GF107991999999999999999999MA1101591999999REMMET051METAR SBJP 281400Z 18010KT 9999 BKN025 28/21 Q1016;
0143827980999992007072815004-07100-034867FM-15+0007SBJP V0201901N005112200019N0112651N1+02901+02001999999ADDGA1041+007501999GA2041+030001999GF104991999999999999999999MA1101591999999REMMET058METAR SBJP 281500Z 19010KT 9999 SCT025 SCT100 29/20 Q1016;
0143827980999992007072816004-07100-034867FM-15+0007SBJP V0201301N007212200019N0112651N1+02901+01701999999ADDGA1041+007501999GA2041+030001999GF104991999999999999999999MA1101491999999REMMET058METAR SBJP 281600Z 13014KT 9999 SCT025 SCT100 29/17 Q1015;
0143827980999992007072817004-07100-034867FM-15+0007SBJP V0201401N006210210019N0112651N1+02701+02201999999ADDGA1041+009001999GA2071+021001999GF107991999999999999999999MA1101391999999REMMET058METAR SBJP 281700Z 14012KT 9999 SCT030 BKN070 27/22 Q1014;
0143827980999992007072818004-07100-034867FM-15+0007SBJP V0201501N005110210019N0112651N1+02701+01901999999ADDGA1021+009001999GA2071+021001999GF107991999999999999999999MA1101391999999REMMET058METAR SBJP 281800Z 15010KT 9999 FEW030 BKN070 27/19 Q1014;
0143827980999992007072819004-07100-034867FM-15+0007SBJP V0201501N006210210019N0112651N1+02701+02001999999ADDGA1021+009001999GA2071+021001999GF107991999999999999999999MA1101391999999REMMET058METAR SBJP 281900Z 15012KT 9999 FEW030 BKN070 27/20 Q1014;
0143827980999992007072820004-07100-034867FM-15+0007SBJP V0201501N004110210019N0112651N1+02501+02001999999ADDGA1021+009001999GA2071+021001999GF107991999999999999999999MA1101391999999REMMET058METAR SBJP 282000Z 15008KT 9999 FEW030 BKN070 25/20 Q1014;
0153827980999992007072821004-07100-034867FM-15+0007SBJP V0201501N005710210019N0080001N1+02401+02101999999ADDGA1041+006001999GA2071+021001999GF107991999999999999999999MA1101491999999MW1611REMMET062METAR SBJP 282100Z 15011KT 8000 -RA SCT020 BKN070 24/21 Q1015;
0117827980999992007072822004-07100-034867FM-15+0007SBJP V0201601N00211220001CN0112651N1+02401+02201999999ADDGA1071+005101999GA2041+027001999MA1101491999999REMMET058METAR SBJP 282200Z 16004KT 9999 BKN017 SCT090 24/22 Q1015;
0143827980999992007072823004-07100-034867FM-15+0007SBJP V0201601N002612200019N0112651N1+02401+02201999999ADDGA1021+006001999GA2041+027001999GF104991999999999999999999MA1101591999999REMMET058METAR SBJP 282300Z 16005KT 9999 FEW020 SCT090 24/22 Q1016;
0072827980999992007072900004-07100-034867FM-15+0007SBJP V0201501N00311220001CN0099001N1+02401+02201999999ADDMA1101591999999REMMET045METAR SBJP 290000Z 15006KT CAVOK 24/22 Q1016;
0072827980999992007072901004-07100-034867FM-15+0007SBJP V0201601N00261220001CN0099001N1+02301+02101999999ADDMA1101591999999REMMET045METAR SBJP 290100Z 16005KT CAVOK 23/21 Q1016;
0143827980999992007072902004-07100-034867FM-15+0007SBJP V0201801N002112200019N0112651N1+02401+02201999999ADDGA1041+006001999GA2041+021001999GF104991999999999999999999MA1101591999999REMMET058METAR SBJP 290200Z 18004KT 9999 SCT020 SCT070 24/22 Q1016;
0143827980999992007072903004-07100-034867FM-15+0007SBJP V0202101N002110270019N0112651N1+02301+02201999999ADDGA1041+005101999GA2071+027001999GF107991999999999999999999MA1101591999999REMMET058METAR SBJP 290300Z 21004KT 9999 SCT017 BKN090 23/22 Q1016;
0143827980999992007072904004-07100-034867FM-15+0007SBJP V0202401N002112200019N0112651N1+02201+02101999999ADDGA1021+005101999GA2041+027001999GF104991999999999999999999MA1101491999999REMMET058METAR SBJP 290400Z 24004KT 9999 FEW017 SCT090 22/21 Q1015;
0143827980999992007072905004-07100-034867FM-15+0007SBJP V0202501N001512200019N0112651N1+02201+02101999999ADDGA1021+005101999GA2041+027001999GF104991999999999999999999MA1101491999999REMMET058METAR SBJP 290500Z 25003KT 9999 FEW017 SCT090 22/21 Q1015;
0143827980999992007072906004-07100-034867FM-15+0007SBJP V0202401N001512200019N0112651N1+02201+02101999999ADDGA1021+006001999GA2041+027001999GF104991999999999999999999MA1101391999999REMMET058METAR SBJP 290600Z 24003KT 9999 FEW020 SCT090 22/21 Q1014;
0143827980999992007072907004-07100-034867FM-15+0007SBJP V0202301N002612200019N0112651N1+02201+02101999999ADDGA1021+006001999GA2041+027001999GF104991999999999999999999MA1101391999999REMMET058METAR SBJP 290700Z 23005KT 9999 FEW020 SCT090 22/21 Q1014;
0143827980999992007072908004-07100-034867FM-15+0007SBJP V0202101N002612200019N0112651N1+02201+02101999999ADDGA1021+006001999GA2041+027001999GF104991999999999999999999MA1101491999999REMMET058METAR SBJP 290800Z 21005KT 9999 FEW020 SCT090 22/21 Q1015;
0143827980999992007072909004-07100-034867FM-15+0007SBJP V0202201N002610036019N0112651N1+02201+02101999999ADDGA1071+003601999GA2071+021001999GF107991999999999999999999MA1101491999999REMMET058METAR SBJP 290900Z 22005KT 9999 BKN012 BKN070 22/21 Q1015;
0143827980999992007072910004-07100-034867FM-15+0007SBJP V0201801N004610036019N0112651N1+02201+02101999999ADDGA1071+003601999GA2071+021001999GF107991999999999999999999MA1101591999999REMMET058METAR SBJP 291000Z 18009KT 9999 BKN012 BKN070 22/21 Q1016;
0143827980999992007072911004-07100-034867FM-15+0007SBJP V0202101N003610210019N0112651N1+02401+02201999999ADDGA1021+006001999GA2071+021001999GF107991999999999999999999MA1101591999999REMMET058METAR SBJP 291100Z 21007KT 9999 FEW020 BKN070 24/22 Q1016;
0143827980999992007072912004-07100-034867FM-15+0007SBJP V0201901N005110054019N0112651N1+02601+02201999999ADDGA1071+005401999GA2071+021001999GF107991999999999999999999MA1101691999999REMMET058METAR SBJP 291200Z 19010KT 9999 BKN018 BKN070 26/22 Q1017;
0143827980999992007072913004-07100-034867FM-15+0007SBJP V0201801N004110054019N0112651N1+02601+02201999999ADDGA1071+005401999GA2071+021001999GF107991999999999999999999MA1101691999999REMMET058METAR SBJP 291300Z 18008KT 9999 BKN018 BKN070 26/22 Q1017;
0153827980999992007072914004-07100-034867FM-15+0007SBJP V0201501N003610054019N0080001N1+02501+02301999999ADDGA1071+005401999GA2071+021001999GF107991999999999999999999MA1101591999999MW1611REMMET062METAR SBJP 291400Z 15007KT 8000 -RA BKN018 BKN070 25/23 Q1016;
0169827980999992007072915004-07100-034867FM-15+0007SBJP V0201801N00571007501CN0112651N1+02801+02101999999ADDGA1041+006001999GA2021+007501021GA3071+021001999GF107991999999999999999999MA1101491999999REMMET068METAR SBJP 291500Z 18011KT 9999 SCT020 FEW025TCU BKN070 28/21 Q1015;
0143827980999992007072916004-07100-034867FM-15+0007SBJP V0201501N006212200019N0112651N1+02901+02001999999ADDGA1041+007501999GA2041+021001999GF104991999999999999999999MA1101391999999REMMET058METAR SBJP 291600Z 15012KT 9999 SCT025 SCT070 29/20 Q1014;
0120827980999992007072917004-07100-034867FM-15+0007SBJP V0201601N006212200019N0112651N1+02901+02001999999ADDGA1041+009001999GF104991999999999999999999MA1101391999999REMMET051METAR SBJP 291700Z 16012KT 9999 SCT030 29/20 Q1014;
0120827980999992007072918004-07100-034867FM-15+0007SBJP V0201501N005712200019N0112651N1+02801+02101999999ADDGA1041+009001999GF104991999999999999999999MA1101391999999REMMET051METAR SBJP 291800Z 15011KT 9999 SCT030 28/21 Q1014;
0120827980999992007072919004-07100-034867FM-15+0007SBJP V0201501N006212200019N0112651N1+02701+02101999999ADDGA1041+009001999GF104991999999999999999999MA1101391999999REMMET051METAR SBJP 291900Z 15012KT 9999 SCT030 27/21 Q1014;
0120827980999992007072920004-07100-034867FM-15+0007SBJP V0201501N005112200019N0112651N1+02601+02101999999ADDGA1021+006001999GF102991999999999999999999MA1101391999999REMMET051METAR SBJP 292000Z 15010KT 9999 FEW020 26/21 Q1014;
0143827980999992007072921004-07100-034867FM-15+0007SBJP V0201601N004112200019N0112651N1+02501+02101999999ADDGA1021+006001999GA2041+021001999GF104991999999999999999999MA1101391999999REMMET058METAR SBJP 292100Z 16008KT 9999 FEW020 SCT070 25/21 Q1014;
0143827980999992007072922004-07100-034867FM-15+0007SBJP V0202101N004112200019N0112651N1+02301+02101999999ADDGA1021+006001999GA2041+021001999GF104991999999999999999999MA1101491999999REMMET058METAR SBJP 292200Z 21008KT 9999 FEW020 SCT070 23/21 Q1015;
0120827980999992007072923004-07100-034867FM-15+0007SBJP V0201801N005112200019N0112651N1+02401+02001999999ADDGA1041+006001999GF104991999999999999999999MA1101591999999REMMET051METAR SBJP 292300Z 18010KT 9999 SCT020 24/20 Q1016;
0120827980999992007073000004-07100-034867FM-15+0007SBJP V0202001N003112200019N0112651N1+02301+02101999999ADDGA1041+006001999GF104991999999999999999999MA1101591999999REMMET051METAR SBJP 300000Z 20006KT 9999 SCT020 23/21 Q1016;
0120827980999992007073001004-07100-034867FM-15+0007SBJP V0201901N003112200019N0112651N1+02301+02101999999ADDGA1041+006001999GF104991999999999999999999MA1101591999999REMMET051METAR SBJP 300100Z 19006KT 9999 SCT020 23/21 Q1016;
0120827980999992007073002004-07100-034867FM-15+0007SBJP V0202401N002112200019N0112651N1+02201+02101999999ADDGA1041+006001999GF104991999999999999999999MA1101591999999REMMET051METAR SBJP 300200Z 24004KT 9999 SCT020 22/21 Q1016;
0120827980999992007073003004-07100-034867FM-15+0007SBJP V0202201N002112200019N0112651N1+02201+02101999999ADDGA1041+006001999GF104991999999999999999999MA1101591999999REMMET051METAR SBJP 300300Z 22004KT 9999 SCT020 22/21 Q1016;
0143827980999992007073004004-07100-034867FM-15+0007SBJP V0202001N003612200019N0112651N1+02301+02101999999ADDGA1041+006001999GA2041+021001999GF104991999999999999999999MA1101491999999REMMET058METAR SBJP 300400Z 20007KT 9999 SCT020 SCT070 23/21 Q1015;
0136827980999992007073005004-07100-034867FM-15+0007SBJP V0201801N00211220001CN0112651N1+02301+02001999999ADDGA1071+006001999GA2041+021001999MA1101491999999REMMET058METAR SBJP 300500Z 18004KT 9999 BKN020 SCT070 23/20 Q1015;EQDQ01+000042SCOTCV
0072827980999992007073006004-07100-034867FM-15+0007SBJP V0202001N00311220001CN0099001N1+02201+02001999999ADDMA1101391999999REMMET045METAR SBJP 300600Z 20006KT CAVOK 22/20 Q1014;
0072827980999992007073007004-07100-034867FM-15+0007SBJP V0201901N00211220001CN0099001N1+02201+02001999999ADDMA1101491999999REMMET045METAR SBJP 300700Z 19004KT CAVOK 22/20 Q1015;
0143827980999992007073008004-07100-034867FM-15+0007SBJP V0201901N003610210019N0112651N1+02201+02001999999ADDGA1041+006001999GA2071+021001999GF107991999999999999999999MA1101491999999REMMET058METAR SBJP 300800Z 19007KT 9999 SCT020 BKN070 22/20 Q1015;
0143827980999992007073009004-07100-034867FM-15+0007SBJP V0202001N003112200019N0112651N1+02201+02001999999ADDGA1041+006001999GA2041+021001999GF104991999999999999999999MA1101491999999REMMET058METAR SBJP 300900Z 20006KT 9999 SCT020 SCT070 22/20 Q1015;
0143827980999992007073010004-07100-034867FM-15+0007SBJP V0202001N003612200019N0112651N1+02301+02001999999ADDGA1021+006001999GA2041+021001999GF104991999999999999999999MA1101591999999REMMET058METAR SBJP 301000Z 20007KT 9999 FEW020 SCT070 23/20 Q1016;
0072827980999992007073011004-07100-034867FM-15+0007SBJP V0201901N00411220001CN0099001N1+02501+02101999999ADDMA1101691999999REMMET045METAR SBJP 301100Z 19008KT CAVOK 25/21 Q1017;
0072827980999992007073012004-07100-034867FM-15+0007SBJP V0201801N00621220001CN0099001N1+02701+02001999999ADDMA1101691999999REMMET045METAR SBJP 301200Z 18012KT CAVOK 27/20 Q1017;
0120827980999992007073013004-07100-034867FM-15+0007SBJP V0201801N006212200019N0112651N1+02801+01901999999ADDGA1041+009001999GF104991999999999999999999MA1101691999999REMMET051METAR SBJP 301300Z 18012KT 9999 SCT030 28/19 Q1017;
0120827980999992007073014004-07100-034867FM-15+0007SBJP V0201701N006712200019N0112651N1+02901+01901999999ADDGA1041+009001999GF104991999999999999999999MA1101591999999REMMET051METAR SBJP 301400Z 17013KT 9999 SCT030 29/19 Q1016;
0120827980999992007073015004-07100-034867FM-15+0007SBJP V0201601N006210090019N0112651N1+02901+02001999999ADDGA1071+009001999GF107991999999999999999999MA1101491999999REMMET051METAR SBJP 301500Z 16012KT 9999 BKN030 29/20 Q1015;
0120827980999992007073016004-07100-034867FM-15+0007SBJP V0201801N008210090019N0112651N1+02901+01901999999ADDGA1071+009001999GF107991999999999999999999MA1101391999999REMMET051METAR SBJP 301600Z 18016KT 9999 BKN030 29/19 Q1014;
0120827980999992007073017004-07100-034867FM-15+0007SBJP V0201801N007710090019N0112651N1+02901+02001999999ADDGA1071+009001999GF107991999999999999999999MA1101391999999REMMET051METAR SBJP 301700Z 18015KT 9999 BKN030 29/20 Q1014;
0120827980999992007073018004-07100-034867FM-15+0007SBJP V0201801N006212200019N0112651N1+02801+02001999999ADDGA1041+009001999GF104991999999999999999999MA1101391999999REMMET051METAR SBJP 301800Z 18012KT 9999 SCT030 28/20 Q1014;
0120827980999992007073019004-07100-034867FM-15+0007SBJP V0201801N006212200019N0112651N1+02701+01901999999ADDGA1041+009001999GF104991999999999999999999MA1101391999999REMMET051METAR SBJP 301900Z 18012KT 9999 SCT030 27/19 Q1014;
0120827980999992007073020004-07100-034867FM-15+0007SBJP V0201901N005112200019N0112651N1+02601+02001999999ADDGA1021+009001999GF102991999999999999999999MA1101491999999REMMET051METAR SBJP 302000Z 19010KT 9999 FEW030 26/20 Q1015;
0120827980999992007073021004-07100-034867FM-15+0007SBJP V0201901N004112200019N0112651N1+02501+01901999999ADDGA1021+009001999GF102991999999999999999999MA1101491999999REMMET051METAR SBJP 302100Z 19008KT 9999 FEW030 25/19 Q1015;
0072827980999992007073022004-07100-034867FM-15+0007SBJP V0202001N00311220001CN0099001N1+02401+02001999999ADDMA1101491999999REMMET045METAR SBJP 302200Z 20006KT CAVOK 24/20 Q1015;
0072827980999992007073023004-07100-034867FM-15+0007SBJP V0202001N00311220001CN0099001N1+02301+02001999999ADDMA1101591999999REMMET045METAR SBJP 302300Z 20006KT CAVOK 23/20 Q1016;
0120827980999992007073100004-07100-034867FM-15+0007SBJP V0202001N002112200019N0112651N1+02201+02001999999ADDGA1021+006001999GF102991999999999999999999MA1101691999999REMMET051METAR SBJP 310000Z 20004KT 9999 FEW020 22/20 Q1017;
0120827980999992007073110004-07100-034867FM-15+0007SBJP V0202201N003612200019N0112651N1+02301+02101999999ADDGA1041+006001999GF104991999999999999999999MA1101591999999REMMET051METAR SBJP 311000Z 22007KT 9999 SCT020 23/21 Q1016;
0120827980999992007073111004-07100-034867FM-15+0007SBJP V0202101N004112200019N0112651N1+02501+02101999999ADDGA1041+006001999GF104991999999999999999999MA1101691999999REMMET051METAR SBJP 311100Z 21008KT 9999 SCT020 25/21 Q1017;
0120827980999992007073112004-07100-034867FM-15+0007SBJP V0201901N004112200019N0112651N1+02701+02201999999ADDGA1041+006001999GF104991999999999999999999MA1101691999999REMMET051METAR SBJP 311200Z 19008KT 9999 SCT020 27/22 Q1017;
0120827980999992007073113004-07100-034867FM-15+0007SBJP V0201901N005112200019N0112651N1+02701+02101999999ADDGA1041+006001999GF104991999999999999999999MA1101691999999REMMET051METAR SBJP 311300Z 19010KT 9999 SCT020 27/21 Q1017;
0120827980999992007073114004-07100-034867FM-15+0007SBJP V0201601N006212200019N0112651N1+02801+02101999999ADDGA1041+006001999GF104991999999999999999999MA1101591999999REMMET051METAR SBJP 311400Z 16012KT 9999 SCT020 28/21 Q1016;
0120827980999992007073115004-07100-034867FM-15+0007SBJP V0201601N005112200019N0112651N1+02801+02101999999ADDGA1041+006001999GF104991999999999999999999MA1101591999999REMMET051METAR SBJP 311500Z 16010KT 9999 SCT020 28/21 Q1016;
0120827980999992007073116004-07100-034867FM-15+0007SBJP V0201701N005712200019N0112651N1+02901+02101999999ADDGA1041+007501999GF104991999999999999999999MA1101391999999REMMET051METAR SBJP 311600Z 17011KT 9999 SCT025 29/21 Q1014;
0120827980999992007073117004-07100-034867FM-15+0007SBJP V0201901N006212200019N0112651N1+02801+02001999999ADDGA1041+007501999GF104991999999999999999999MA1101391999999REMMET051METAR SBJP 311700Z 19012KT 9999 SCT025 28/20 Q1014;
0120827980999992007073118004-07100-034867FM-15+0007SBJP V0201601N005712200019N0112651N1+02901+02001999999ADDGA1041+007501999GF104991999999999999999999MA1101291999999REMMET051METAR SBJP 311800Z 16011KT 9999 SCT025 29/20 Q1013;
0120827980999992007073119004-07100-034867FM-15+0007SBJP V0201701N005712200019N0112651N1+02701+02001999999ADDGA1041+007501999GF104991999999999999999999MA1101391999999REMMET051METAR SBJP 311900Z 17011KT 9999 SCT025 27/20 Q1014;
0120827980999992007073120004-07100-034867FM-15+0007SBJP V0201701N003612200019N0112651N1+02601+02101999999ADDGA1021+007501999GF102991999999999999999999MA1101391999999REMMET051METAR SBJP 312000Z 17007KT 9999 FEW025 26/21 Q1014;
0120827980999992007073121004-07100-034867FM-15+0007SBJP V0201701N002612200019N0112651N1+02401+02101999999ADDGA1021+007501999GF102991999999999999999999MA1101391999999REMMET051METAR SBJP 312100Z 17005KT 9999 FEW025 24/21 Q1014;
0072827980999992007073122004-07100-034867FM-15+0007SBJP V0202001N00211220001CN0099001N1+02401+02101999999ADDMA1101491999999REMMET045METAR SBJP 312200Z 20004KT CAVOK 24/21 Q1015;
0072827980999992007073123004-07100-034867FM-15+0007SBJP V0201901N00211220001CN0099001N1+02401+02101999999ADDMA1101491999999REMMET045METAR SBJP 312300Z 19004KT CAVOK 24/21 Q1015;
0072827980999992007080100004-07100-034867FM-15+0007SBJP V0202201N00211220001CN0099001N1+02401+02101999999ADDMA1101591999999REMMET045METAR SBJP 010000Z 22004KT CAVOK 24/21 Q1016;
0072827980999992007080101004-07100-034867FM-15+0007SBJP V0202201N00261220001CN0099001N1+02301+02001999999ADDMA1101591999999REMMET045METAR SBJP 010100Z 22005KT CAVOK 23/20 Q1016;
0072827980999992007080102004-07100-034867FM-15+0007SBJP V0202201N00311220001CN0099001N1+02301+02101999999ADDMA1101591999999REMMET045METAR SBJP 010200Z 22006KT CAVOK 23/21 Q1016;
0072827980999992007080103004-07100-034867FM-15+0007SBJP V0202201N00311220001CN0099001N1+02201+02001999999ADDMA1101591999999REMMET045METAR SBJP 010300Z 22006KT CAVOK 22/20 Q1016;
0072827980999992007080104004-07100-034867FM-15+0007SBJP V0202201N00311220001CN0099001N1+02201+02001999999ADDMA1101491999999REMMET045METAR SBJP 010400Z 22006KT CAVOK 22/20 Q1015;
0072827980999992007080105004-07100-034867FM-15+0007SBJP V0202201N00211220001CN0099001N1+02201+02001999999ADDMA1101491999999REMMET045METAR SBJP 010500Z 22004KT CAVOK 22/20 Q1015;
0072827980999992007080106004-07100-034867FM-15+0007SBJP V0202301N00211220001CN0099001N1+02101+02001999999ADDMA1101491999999REMMET045METAR SBJP 010600Z 23004KT CAVOK 21/20 Q1015;
0072827980999992007080107004-07100-034867FM-15+0007SBJP V0202301N00211220001CN0099001N1+02101+02001999999ADDMA1101491999999REMMET045METAR SBJP 010700Z 23004KT CAVOK 21/20 Q1015;
0143827980999992007080108004-07100-034867FM-15+0007SBJP V0209999C000012200019N0112651N1+02101+02001999999ADDGA1021+006001999GA2041+027001999GF104991999999999999999999MA1101491999999REMMET058METAR SBJP 010800Z 00000KT 9999 FEW020 SCT090 21/20 Q1015;
0143827980999992007080109004-07100-034867FM-15+0007SBJP V0209999C000012200019N0112651N1+02101+02001999999ADDGA1021+006001999GA2041+027001999GF104991999999999999999999MA1101491999999REMMET058METAR SBJP 010900Z 00000KT 9999 FEW020 SCT090 21/20 Q1015;
0120827980999992007080110004-07100-034867FM-15+0007SBJP V0202301N003112200019N0112651N1+02301+02101999999ADDGA1021+006001999GF102991999999999999999999MA1101591999999REMMET051METAR SBJP 011000Z 23006KT 9999 FEW020 23/21 Q1016;
0120827980999992007080111004-07100-034867FM-15+0007SBJP V0201901N003612200019N0112651N1+02501+02101999999ADDGA1021+006001999GF102991999999999999999999MA1101591999999REMMET051METAR SBJP 011100Z 19007KT 9999 FEW020 25/21 Q1016;
0120827980999992007080112004-07100-034867FM-15+0007SBJP V0201701N003612200019N0112651N1+02701+02201999999ADDGA1041+007501999GF104991999999999999999999MA1101691999999REMMET051METAR SBJP 011200Z 17007KT 9999 SCT025 27/22 Q1017;
0120827980999992007080113004-07100-034867FM-15+0007SBJP V0201701N003612200019N0112651N1+02701+02101999999ADDGA1041+007501999GF104991999999999999999999MA1101691999999REMMET051METAR SBJP 011300Z 17007KT 9999 SCT025 27/21 Q1017;
0143827980999992007080114004-07100-034867FM-15+0007SBJP V0201701N005712200019N0112651N1+02901+02001999999ADDGA1041+007501999GA2041+024001999GF104991999999999999999999MA1101591999999REMMET058METAR SBJP 011400Z 17011KT 9999 SCT025 SCT080 29/20 Q1016;
0120827980999992007080115004-07100-034867FM-15+0007SBJP V0201601N005112200019N0112651N1+02901+02001999999ADDGA1041+007501999GF104991999999999999999999MA1101491999999REMMET051METAR SBJP 011500Z 16010KT 9999 SCT025 29/20 Q1015;
0120827980999992007080116004-07100-034867FM-15+0007SBJP V0201701N005710075019N0112651N1+02801+02101999999ADDGA1071+007501999GF107991999999999999999999MA1101391999999REMMET051METAR SBJP 011600Z 17011KT 9999 BKN025 28/21 Q1014;
0120827980999992007080117004-07100-034867FM-15+0007SBJP V0201501N005110075019N0112651N1+02701+02101999999ADDGA1071+007501999GF107991999999999999999999MA1101391999999REMMET051METAR SBJP 011700Z 15010KT 9999 BKN025 27/21 Q1014;
0120827980999992007080118004-07100-034867FM-15+0007SBJP V0201601N005110075019N0112651N1+02601+02101999999ADDGA1071+007501999GF107991999999999999999999MA1101391999999REMMET051METAR SBJP 011800Z 16010KT 9999 BKN025 26/21 Q1014;
0120827980999992007080119004-07100-034867FM-15+0007SBJP V0201601N005712200019N0112651N1+02701+02001999999ADDGA1041+007501999GF104991999999999999999999MA1101391999999REMMET051METAR SBJP 011900Z 16011KT 9999 SCT025 27/20 Q1014;
0143827980999992007080120004-07100-034867FM-15+0007SBJP V0201601N005112200019N0112651N1+02701+02101999999ADDGA1041+006001999GA2041+027001999GF104991999999999999999999MA1101391999999REMMET058METAR SBJP 012000Z 16010KT 9999 SCT020 SCT090 27/21 Q1014;
0143827980999992007080121004-07100-034867FM-15+0007SBJP V0201801N003112200019N0112651N1+02501+02001999999ADDGA1041+006001999GA2041+027001999GF104991999999999999999999MA1101491999999REMMET058METAR SBJP 012100Z 18006KT 9999 SCT020 SCT090 25/20 Q1015;
0143827980999992007080122004-07100-034867FM-15+0007SBJP V0201801N002110210019N0112651N1+02401+02201999999ADDGA1021+006001999GA2071+021001999GF107991999999999999999999MA1101491999999REMMET058METAR SBJP 012200Z 18004KT 9999 FEW020 BKN070 24/22 Q1015;
0143827980999992007080123004-07100-034867FM-15+0007SBJP V0202101N002110210019N0112651N1+02401+02201999999ADDGA1021+006001999GA2071+021001999GF107991999999999999999999MA1101591999999REMMET058METAR SBJP 012300Z 21004KT 9999 FEW020 BKN070 24/22 Q1016;
0143827980999992007080200004-07100-034867FM-15+0007SBJP V0201901N002110210019N0112651N1+02401+02101999999ADDGA1041+006001999GA2071+021001999GF107991999999999999999999MA1101591999999REMMET058METAR SBJP 020000Z 19004KT 9999 SCT020 BKN070 24/21 Q1016;
0153827980999992007080201004-07100-034867FM-15+0007SBJP V0202001N002610210019N0112651N1+02301+02201999999ADDGA1041+006001999GA2071+021001999GF107991999999999999999999MA1101591999999MW1611REMMET062METAR SBJP 020100Z 20005KT 9999 -RA SCT020 BKN070 23/22 Q1016;
0153827980999992007080202004-07100-034867FM-15+0007SBJP V0201901N002110210019N0112651N1+02301+02201999999ADDGA1041+006001999GA2071+021001999GF107991999999999999999999MA1101591999999MW1611REMMET062METAR SBJP 020200Z 19004KT 9999 -RA SCT020 BKN070 23/22 Q1016;
0176827980999992007080203004-07100-034867FM-15+0007SBJP V0201901N003110036019N0060001N1+02301+02201999999ADDGA1071+003601999GA2071+006001999GA3081+021001999GF108991999999999999999999MA1101591999999MW1611REMMET069METAR SBJP 020300Z 19006KT 6000 -RA BKN012 BKN020 OVC070 23/22 Q1016;
0143827980999992007080204004-07100-034867FM-15+0007SBJP V0202001N001510210019N0112651N1+02201+02101999999ADDGA1041+003601999GA2071+021001999GF107991999999999999999999MA1101591999999REMMET058METAR SBJP 020400Z 20003KT 9999 SCT012 BKN070 22/21 Q1016;
0143827980999992007080205004-07100-034867FM-15+0007SBJP V0202001N001010210019N0112651N1+02201+02101999999ADDGA1041+004201999GA2071+021001999GF107991999999999999999999MA1101491999999REMMET058METAR SBJP 020500Z 20002KT 9999 SCT014 BKN070 22/21 Q1015;
0143827980999992007080206004-07100-034867FM-15+0007SBJP V0202201N001010210019N0112651N1+02201+02101999999ADDGA1041+004501999GA2071+021001999GF107991999999999999999999MA1101491999999REMMET058METAR SBJP 020600Z 22002KT 9999 SCT015 BKN070 22/21 Q1015;
0143827980999992007080207004-07100-034867FM-15+0007SBJP V0201601N002110210019N0112651N1+02301+02201999999ADDGA1041+004501999GA2071+021001999GF107991999999999999999999MA1101491999999REMMET058METAR SBJP 020700Z 16004KT 9999 SCT015 BKN070 23/22 Q1015;
0143827980999992007080208004-07100-034867FM-15+0007SBJP V0201701N002112200019N0112651N1+02301+02101999999ADDGA1041+005101999GA2041+021001999GF104991999999999999999999MA1101491999999REMMET058METAR SBJP 020800Z 17004KT 9999 SCT017 SCT070 23/21 Q1015;
0120827980999992007080209004-07100-034867FM-15+0007SBJP V0201601N002112200019N0112651N1+02301+02001999999ADDGA1021+006001999GF102991999999999999999999MA1101591999999REMMET051METAR SBJP 020900Z 16004KT 9999 FEW020 23/20 Q1016;
0120827980999992007080210004-07100-034867FM-15+0007SBJP V0201601N002112200019N0112651N1+02601+02201999999ADDGA1041+006001999GF104991999999999999999999MA1101591999999REMMET051METAR SBJP 021000Z 16004KT 9999 SCT020 26/22 Q1016;
0120827980999992007080211004-07100-034867FM-15+0007SBJP V0201601N004612200019N0112651N1+02701+02101999999ADDGA1041+007501999GF104991999999999999999999MA1101691999999REMMET051METAR SBJP 021100Z 16009KT 9999 SCT025 27/21 Q1017;
0120827980999992007080212004-07100-034867FM-15+0007SBJP V0201601N005710075019N0112651N1+02801+02101999999ADDGA1071+007501999GF107991999999999999999999MA1101691999999REMMET051METAR SBJP 021200Z 16011KT 9999 BKN025 28/21 Q1017;
0120827980999992007080213004-07100-034867FM-15+0007SBJP V0201401N006712200019N0112651N1+02901+02101999999ADDGA1041+007501999GF104991999999999999999999MA1101691999999REMMET051METAR SBJP 021300Z 14013KT 9999 SCT025 29/21 Q1017;
0120827980999992007080214004-07100-034867FM-15+0007SBJP V0201401N006212200019N0112651N1+02901+02001999999ADDGA1041+007501999GF104991999999999999999999MA1101691999999REMMET051METAR SBJP 021400Z 14012KT 9999 SCT025 29/20 Q1017;
0120827980999992007080215004-07100-034867FM-15+0007SBJP V0201601N006712200019N0112651N1+02901+02101999999ADDGA1041+007501999GF104991999999999999999999MA1101691999999REMMET051METAR SBJP 021500Z 16013KT 9999 SCT025 29/21 Q1017;
0120827980999992007080216004-07100-034867FM-15+0007SBJP V0201401N006212200019N0112651N1+02901+02101999999ADDGA1041+009001999GF104991999999999999999999MA1101591999999REMMET051METAR SBJP 021600Z 14012KT 9999 SCT030 29/21 Q1016;
0131827980999992007080217004-07100-034867FM-15+0007SBJP V0201301N006212200019N0112651N1+02801+02001999999ADDGA1041+009001999GF104991999999999999999999MA1101491999999OC101131REMMET054METAR SBJP 021700Z 13012G22KT 9999 SCT030 28/20 Q1015;
0120827980999992007080218004-07100-034867FM-15+0007SBJP V0201401N005112200019N0112651N1+02801+02001999999ADDGA1021+009001999GF102991999999999999999999MA1101491999999REMMET051METAR SBJP 021800Z 14010KT 9999 FEW030 28/20 Q1015;
0131827980999992007080219004-07100-034867FM-15+0007SBJP V0201401N005112200019N0112651N1+02701+02001999999ADDGA1021+009001999GF102991999999999999999999MA1101491999999OC101031REMMET054METAR SBJP 021900Z 14010G20KT 9999 FEW030 27/20 Q1015;
0120827980999992007080220004-07100-034867FM-15+0007SBJP V0201601N003612200019N0112651N1+02601+02001999999ADDGA1041+007501999GF104991999999999999999999MA1101491999999REMMET051METAR SBJP 022000Z 16007KT 9999 SCT025 26/20 Q1015;
0120827980999992007080221004-07100-034867FM-15+0007SBJP V0201601N002612200019N0112651N1+02501+02101999999ADDGA1041+007501999GF104991999999999999999999MA1101491999999REMMET051METAR SBJP 022100Z 16005KT 9999 SCT025 25/21 Q1015;
0120827980999992007080222004-07100-034867FM-15+0007SBJP V0201601N002112200019N0112651N1+02401+02101999999ADDGA1021+006001999GF102991999999999999999999MA1101591999999REMMET051METAR SBJP 022200Z 16004KT 9999 FEW020 24/21 Q1016;
0072827980999992007080223004-07100-034867FM-15+0007SBJP V0201701N00151220001CN0099001N1+02301+02001999999ADDMA1101591999999REMMET045METAR SBJP 022300Z 17003KT CAVOK 23/20 Q1016;
0120827980999992007080300004-07100-034867FM-15+0007SBJP V0202001N002112200019N0112651N1+02301+02001999999ADDGA1021+006001999GF102991999999999999999999MA1101691999999REMMET051METAR SBJP 030000Z 20004KT 9999 FEW020 23/20 Q1017;
0120827980999992007080301004-07100-034867FM-15+0007SBJP V0202101N001512200019N0112651N1+02301+02001999999ADDGA1041+006001999GF104991999999999999999999MA1101691999999REMMET051METAR SBJP 030100Z 21003KT 9999 SCT020 23/20 Q1017;
0120827980999992007080302004-07100-034867FM-15+0007SBJP V0202101N001512200019N0112651N1+02301+02101999999ADDGA1041+006001999GF104991999999999999999999MA1101691999999REMMET051METAR SBJP 030200Z 21003KT 9999 SCT020 23/21 Q1017;
0072827980999992007080303004-07100-034867FM-15+0007SBJP V0202101N00151220001CN0099001N1+02201+02001999999ADDMA1101591999999REMMET045METAR SBJP 030300Z 21003KT CAVOK 22/20 Q1016;
0120827980999992007080304004-07100-034867FM-15+0007SBJP V0202301N001512200019N0112651N1+02201+02001999999ADDGA1041+006001999GF104991999999999999999999MA1101591999999REMMET051METAR SBJP 030400Z 23003KT 9999 SCT020 22/20 Q1016;
0120827980999992007080305004-07100-034867FM-15+0007SBJP V0202401N002112200019N0112651N1+02101+02001999999ADDGA1041+006001999GF104991999999999999999999MA1101491999999REMMET051METAR SBJP 030500Z 24004KT 9999 SCT020 21/20 Q1015;
0120827980999992007080306004-07100-034867FM-15+0007SBJP V0202301N002112200019N0112651N1+02101+02001999999ADDGA1041+006001999GF104991999999999999999999MA1101491999999REMMET051METAR SBJP 030600Z 23004KT 9999 SCT020 21/20 Q1015;
0120827980999992007080307004-07100-034867FM-15+0007SBJP V0202401N001012200019N0112651N1+02101+02001999999ADDGA1021+006001999GF102991999999999999999999MA1101591999999REMMET051METAR SBJP 030700Z 24002KT 9999 FEW020 21/20 Q1016;
0120827980999992007080308004-07100-034867FM-15+0007SBJP V0202501N001012200019N0112651N1+02001+01901999999ADDGA1041+006001999GF104991999999999999999999MA1101591999999REMMET051METAR SBJP 030800Z 25002KT 9999 SCT020 20/19 Q1016;
0120827980999992007080309004-07100-034867FM-15+0007SBJP V0202401N001512200019N0112651N1+02001+01901999999ADDGA1041+006001999GF104991999999999999999999MA1101591999999REMMET051METAR SBJP 030900Z 24003KT 9999 SCT020 20/19 Q1016;
0120827980999992007080310004-07100-034867FM-15+0007SBJP V0201801N001012200019N0112651N1+02401+02101999999ADDGA1021+006001999GF102991999999999999999999MA1101691999999REMMET051METAR SBJP 031000Z 18002KT 9999 FEW020 24/21 Q1017;
0130827980999992007080311004-07100-034867FM-15+0007SBJP V0201101N005110060019N0080001N1+02701+02101999999ADDGA1071+006001999GF107991999999999999999999MA1101691999999MW1611REMMET055METAR SBJP 031100Z 11010KT 8000 -RA BKN020 27/21 Q1017;
0120827980999992007080312004-07100-034867FM-15+0007SBJP V0201101N004612200019N0112651N1+02801+02001999999ADDGA1041+009001999GF104991999999999999999999MA1101801999999REMMET051METAR SBJP 031200Z 11009KT 9999 SCT030 28/20 Q1018;
0131827980999992007080313004-07100-034867FM-15+0007SBJP V0201401N005712200019N0112651N1+02901+02001999999ADDGA1041+009001999GF104991999999999999999999MA1101801999999OC101081REMMET054METAR SBJP 031300Z 14011G21KT 9999 SCT030 29/20 Q1018;
0120827980999992007080314004-07100-034867FM-15+0007SBJP V0201201N005712200019N0112651N1+02901+02001999999ADDGA1041+009001999GF104991999999999999999999MA1101691999999REMMET051METAR SBJP 031400Z 12011KT 9999 SCT030 29/20 Q1017;
0131827980999992007080315004-07100-034867FM-15+0007SBJP V0201301N005112200019N0112651N1+02901+02001999999ADDGA1041+009001999GF104991999999999999999999MA1101691999999OC101031REMMET054METAR SBJP 031500Z 13010G20KT 9999 SCT030 29/20 Q1017;
0131827980999992007080316004-07100-034867FM-15+0007SBJP V0201401N005710090019N0112651N1+03001+01901999999ADDGA1071+009001999GF107991999999999999999999MA1101591999999OC101231REMMET054METAR SBJP 031600Z 14011G24KT 9999 BKN030 30/19 Q1016;
0120827980999992007080317004-07100-034867FM-15+0007SBJP V0201201N004610060019N0112651N1+02901+02001999999ADDGA1071+006001999GF107991999999999999999999MA1101491999999REMMET051METAR SBJP 031700Z 12009KT 9999 BKN020 29/20 Q1015;
0120827980999992007080318004-07100-034867FM-15+0007SBJP V0201301N005710090019N0112651N1+02801+02001999999ADDGA1071+009001999GF107991999999999999999999MA1101491999999REMMET051METAR SBJP 031800Z 13011KT 9999 BKN030 28/20 Q1015;
0120827980999992007080319004-07100-034867FM-15+0007SBJP V0201201N005112200019N0112651N1+02701+02101999999ADDGA1041+009001999GF104991999999999999999999MA1101491999999REMMET051METAR SBJP 031900Z 12010KT 9999 SCT030 27/21 Q1015;
0120827980999992007080320004-07100-034867FM-15+0007SBJP V0201501N004612200019N0112651N1+02601+02001999999ADDGA1021+007501999GF102991999999999999999999MA1101591999999REMMET051METAR SBJP 032000Z 15009KT 9999 FEW025 26/20 Q1016;
0120827980999992007080322004-07100-034867FM-15+0007SBJP V0201901N002112200019N0112651N1+02401+02101999999ADDGA1021+006001999GF102991999999999999999999MA1101591999999REMMET051METAR SBJP 032200Z 19004KT 9999 FEW020 24/21 Q1016;
0120827980999992007080323004-07100-034867FM-15+0007SBJP V0201801N001512200019N0112651N1+02301+02001999999ADDGA1021+006001999GF102991999999999999999999MA1101691999999REMMET051METAR SBJP 032300Z 18003KT 9999 FEW020 23/20 Q1017;
0120827980999992007080400004-07100-034867FM-15+0007SBJP V0201901N002112200019N0112651N1+02301+02101999999ADDGA1021+006001999GF102991999999999999999999MA1101691999999REMMET051METAR SBJP 040000Z 19004KT 9999 FEW020 23/21 Q1017;
0120827980999992007080401004-07100-034867FM-15+0007SBJP V0202001N001012200019N0112651N1+02301+02001999999ADDGA1021+006001999GF102991999999999999999999MA1101691999999REMMET051METAR SBJP 040100Z 20002KT 9999 FEW020 23/20 Q1017;
0120827980999992007080402004-07100-034867FM-15+0007SBJP V0201701N001012200019N0112651N1+02201+02001999999ADDGA1021+006001999GF102991999999999999999999MA1101691999999REMMET051METAR SBJP 040200Z 17002KT 9999 FEW020 22/20 Q1017;
0120827980999992007080403004-07100-034867FM-15+0007SBJP V0201701N001012200019N0112651N1+02201+02001999999ADDGA1021+006001999GF102991999999999999999999MA1101691999999REMMET051METAR SBJP 040300Z 17002KT 9999 FEW020 22/20 Q1017;
0120827980999992007080404004-07100-034867FM-15+0007SBJP V0201801N001512200019N0112651N1+02201+02001999999ADDGA1021+006001999GF102991999999999999999999MA1101591999999REMMET051METAR SBJP 040400Z 18003KT 9999 FEW020 22/20 Q1016;
0120827980999992007080405004-07100-034867FM-15+0007SBJP V0201701N001512200019N0112651N1+02201+02001999999ADDGA1021+006001999GF102991999999999999999999MA1101591999999REMMET051METAR SBJP 040500Z 17003KT 9999 FEW020 22/20 Q1016;
0120827980999992007080406004-07100-034867FM-15+0007SBJP V0201701N001012200019N0112651N1+02201+02001999999ADDGA1021+006001999GF102991999999999999999999MA1101491999999REMMET051METAR SBJP 040600Z 17002KT 9999 FEW020 22/20 Q1015;
0143827980999992007080407004-07100-034867FM-15+0007SBJP V0202001N001012200019N0112651N1+02201+02001999999ADDGA1021+006001999GA2041+021001999GF104991999999999999999999MA1101591999999REMMET058METAR SBJP 040700Z 20002KT 9999 FEW020 SCT070 22/20 Q1016;
0143827980999992007080408004-07100-034867FM-15+0007SBJP V0202201N001512200019N0112651N1+02201+02101999999ADDGA1021+006001999GA2041+021001999GF104991999999999999999999MA1101591999999REMMET058METAR SBJP 040800Z 22003KT 9999 FEW020 SCT070 22/21 Q1016;
0120827980999992007080409004-07100-034867FM-15+0007SBJP V0202201N001012200019N0112651N1+02201+02101999999ADDGA1041+006001999GF104991999999999999999999MA1101591999999REMMET051METAR SBJP 040900Z 22002KT 9999 SCT020 22/21 Q1016;
0120827980999992007080410004-07100-034867FM-15+0007SBJP V0202101N001010060019N0112651N1+02401+02201999999ADDGA1071+006001999GF107991999999999999999999MA1101691999999REMMET051METAR SBJP 041000Z 21002KT 9999 BKN020 24/22 Q1017;
0120827980999992007080411004-07100-034867FM-15+0007SBJP V0201001N003610060019N0112651N1+02701+02101999999ADDGA1071+006001999GF107991999999999999999999MA1101691999999REMMET051METAR SBJP 041100Z 10007KT 9999 BKN020 27/21 Q1017;
0130827980999992007080412004-07100-034867FM-15+0007SBJP V0201201N003110060019N0070001N1+02801+02301999999ADDGA1071+006001999GF107991999999999999999999MA1101801999999MW1611REMMET055METAR SBJP 041200Z 12006KT 7000 -RA BKN020 28/23 Q1018;
0141827980999992007080413004-07100-034867FM-15+0007SBJP V0201301N005110051019N0060001N1+02601+02301999999ADDGA1071+005101999GF107991999999999999999999MA1101801999999MW1611OC101031REMMET058METAR SBJP 041300Z 13010G20KT 6000 -RA BKN017 26/23 Q1018;
0120827980999992007080414004-07100-034867FM-15+0007SBJP V0201301N003110051019N0112651N1+02601+02301999999ADDGA1071+005101999GF107991999999999999999999MA1101691999999REMMET051METAR SBJP 041400Z 13006KT 9999 BKN017 26/23 Q1017;
0130827980999992007080415004-07100-034867FM-15+0007SBJP V0201301N005710051019N0060001N1+02401+02201999999ADDGA1071+005101999GF107991999999999999999999MA1101691999999MW1611REMMET055METAR SBJP 041500Z 13011KT 6000 -RA BKN017 24/22 Q1017;
0120827980999992007080416004-07100-034867FM-15+0007SBJP V0201401N003110060019N0112651N1+02601+02401999999ADDGA1071+006001999GF107991999999999999999999MA1101591999999REMMET051METAR SBJP 041600Z 14006KT 9999 BKN020 26/24 Q1016;
0120827980999992007080417004-07100-034867FM-15+0007SBJP V0201401N005110060019N0112651N1+02701+02201999999ADDGA1071+006001999GF107991999999999999999999MA1101491999999REMMET051METAR SBJP 041700Z 14010KT 9999 BKN020 27/22 Q1015;
0120827980999992007080418004-07100-034867FM-15+0007SBJP V0201501N004112200019N0112651N1+02701+02201999999ADDGA1041+006001999GF104991999999999999999999MA1101491999999REMMET051METAR SBJP 041800Z 15008KT 9999 SCT020 27/22 Q1015;
0120827980999992007080420004-07100-034867FM-15+0007SBJP V0201701N004112200019N0112651N1+02501+02201999999ADDGA1041+006001999GF104991999999999999999999MA1101591999999REMMET051METAR SBJP 042000Z 17008KT 9999 SCT020 25/22 Q1016;
0117827980999992007080421004-07100-034867FM-15+0007SBJP V0201801N00311220001CN0112651N1+02401+02201999999ADDGA1071+006001999GA2041+027001999MA1101591999999REMMET058METAR SBJP 042100Z 18006KT 9999 BKN020 SCT090 24/22 Q1016;
0143827980999992007080423004-07100-034867FM-15+0007SBJP V0201701N002610210019N0112651N1+02401+02201999999ADDGA1041+006001999GA2071+021001999GF107991999999999999999999MA1101691999999REMMET058METAR SBJP 042300Z 17005KT 9999 SCT020 BKN070 24/22 Q1017;
0120827980999992007080500004-07100-034867FM-15+0007SBJP V0201801N002612200019N0112651N1+02301+02101999999ADDGA1041+006001999GF104991999999999999999999MA1101691999999REMMET051METAR SBJP 050000Z 18005KT 9999 SCT020 23/21 Q1017;
0153827980999992007080501004-07100-034867FM-15+0007SBJP V0201601N003610210019N0080001N1+02301+02201999999ADDGA1041+006001999GA2071+021001999GF107991999999999999999999MA1101691999999MW1611REMMET062METAR SBJP 050100Z 16007KT 8000 -RA SCT020 BKN070 23/22 Q1017;
0143827980999992007080502004-07100-034867FM-15+0007SBJP V0201801N003110210019N0112651N1+02301+02101999999ADDGA1041+006001999GA2071+021001999GF107991999999999999999999MA1101691999999REMMET058METAR SBJP 050200Z 18006KT 9999 SCT020 BKN070 23/21 Q1017;
0120827980999992007080503004-07100-034867FM-15+0007SBJP V0202101N002112200019N0112651N1+02201+02101999999ADDGA1041+006001999GF104991999999999999999999MA1101591999999REMMET051METAR SBJP 050300Z 21004KT 9999 SCT020 22/21 Q1016;
0120827980999992007080504004-07100-034867FM-15+0007SBJP V0202001N002112200019N0112651N1+02201+02101999999ADDGA1041+005101999GF104991999999999999999999MA1101591999999REMMET051METAR SBJP 050400Z 20004KT 9999 SCT017 22/21 Q1016;
0120827980999992007080505004-07100-034867FM-15+0007SBJP V0202001N002112200019N0112651N1+02201+02101999999ADDGA1041+004801999GF104991999999999999999999MA1101591999999REMMET051METAR SBJP 050500Z 20004KT 9999 SCT016 22/21 Q1016;
0120827980999992007080506004-07100-034867FM-15+0007SBJP V0202101N001512200019N0112651N1+02201+02101999999ADDGA1041+005101999GF104991999999999999999999MA1101591999999REMMET051METAR SBJP 050600Z 21003KT 9999 SCT017 22/21 Q1016;
0120827980999992007080507004-07100-034867FM-15+0007SBJP V0202101N002112200019N0112651N1+02201+02101999999ADDGA1021+004801999GF102991999999999999999999MA1101591999999REMMET051METAR SBJP 050700Z 21004KT 9999 FEW016 22/21 Q1016;
0120827980999992007080508004-07100-034867FM-15+0007SBJP V0201901N002110048019N0112651N1+02201+02101999999ADDGA1071+004801999GF107991999999999999999999MA1101591999999REMMET051METAR SBJP 050800Z 19004KT 9999 BKN016 22/21 Q1016;
0120827980999992007080509004-07100-034867FM-15+0007SBJP V0202001N002112200019N0112651N1+02201+02101999999ADDGA1021+004801999GF102991999999999999999999MA1101591999999REMMET051METAR SBJP 050900Z 20004KT 9999 FEW016 22/21 Q1016;
0120827980999992007080510004-07100-034867FM-15+0007SBJP V0202001N003112200019N0112651N1+02301+02101999999ADDGA1041+006001999GF104991999999999999999999MA1101691999999REMMET051METAR SBJP 051000Z 20006KT 9999 SCT020 23/21 Q1017;
0120827980999992007080511004-07100-034867FM-15+0007SBJP V0202001N003612200019N0112651N1+02401+02201999999ADDGA1041+006001999GF104991999999999999999999MA1101801999999REMMET051METAR SBJP 051100Z 20007KT 9999 SCT020 24/22 Q1018;
0120827980999992007080512004-07100-034867FM-15+0007SBJP V0201901N004612200019N0112651N1+02601+02201999999ADDGA1041+004501999GF104991999999999999999999MA1101691999999REMMET051METAR SBJP 051200Z 19009KT 9999 SCT015 26/22 Q1017;
0120827980999992007080513004-07100-034867FM-15+0007SBJP V0201901N004112200019N0112651N1+02701+02201999999ADDGA1041+006001999GF104991999999999999999999MA1101691999999REMMET051METAR SBJP 051300Z 19008KT 9999 SCT020 27/22 Q1017;
0120827980999992007080514004-07100-034867FM-15+0007SBJP V0201801N006212200019N0112651N1+02801+02201999999ADDGA1041+006001999GF104991999999999999999999MA1101591999999REMMET051METAR SBJP 051400Z 18012KT 9999 SCT020 28/22 Q1016;
0120827980999992007080515004-07100-034867FM-15+0007SBJP V0201801N006212200019N0112651N1+02801+02201999999ADDGA1041+006001999GF104991999999999999999999MA1101591999999REMMET051METAR SBJP 051500Z 18012KT 9999 SCT020 28/22 Q1016;
0120827980999992007080516004-07100-034867FM-15+0007SBJP V0201401N005112200019N0112651N1+02901+02101999999ADDGA1041+007501999GF104991999999999999999999MA1101491999999REMMET051METAR SBJP 051600Z 14010KT 9999 SCT025 29/21 Q1015;
0120827980999992007080517004-07100-034867FM-15+0007SBJP V0201701N006212200019N0112651N1+02901+02101999999ADDGA1041+007501999GF104991999999999999999999MA1101491999999REMMET051METAR SBJP 051700Z 17012KT 9999 SCT025 29/21 Q1015;
0120827980999992007080518004-07100-034867FM-15+0007SBJP V0201701N005112200019N0112651N1+02901+02101999999ADDGA1041+007501999GF104991999999999999999999MA1101391999999REMMET051METAR SBJP 051800Z 17010KT 9999 SCT025 29/21 Q1014;
0120827980999992007080519004-07100-034867FM-15+0007SBJP V0201501N005712200019N0112651N1+02701+02101999999ADDGA1021+007501999GF102991999999999999999999MA1101391999999REMMET051METAR SBJP 051900Z 15011KT 9999 FEW025 27/21 Q1014;
0120827980999992007080520004-07100-034867FM-15+0007SBJP V0201701N005112200019N0112651N1+02601+02201999999ADDGA1021+007501999GF102991999999999999999999MA1101391999999REMMET051METAR SBJP 052000Z 17010KT 9999 FEW025 26/22 Q1014;
0120827980999992007080521004-07100-034867FM-15+0007SBJP V0201701N003612200019N0112651N1+02501+02201999999ADDGA1021+007501999GF102991999999999999999999MA1101491999999REMMET051METAR SBJP 052100Z 17007KT 9999 FEW025 25/22 Q1015;
0120827980999992007080522004-07100-034867FM-15+0007SBJP V0202001N002112200019N0112651N1+02401+02201999999ADDGA1021+007501999GF102991999999999999999999MA1101491999999REMMET051METAR SBJP 052200Z 20004KT 9999 FEW025 24/22 Q1015;
0120827980999992007080523004-07100-034867FM-15+0007SBJP V0202201N002112200019N0112651N1+02401+02201999999ADDGA1041+007501999GF104991999999999999999999MA1101591999999REMMET051METAR SBJP 052300Z 22004KT 9999 SCT025 24/22 Q1016;
0120827980999992007080600004-07100-034867FM-15+0007SBJP V0202201N002612200019N0112651N1+02301+02201999999ADDGA1041+006001999GF104991999999999999999999MA1101591999999REMMET051METAR SBJP 060000Z 22005KT 9999 SCT020 23/22 Q1016;
0120827980999992007080601004-07100-034867FM-15+0007SBJP V0202201N003112200019N0112651N1+02301+02201999999ADDGA1041+006001999GF104991999999999999999999MA1101591999999REMMET051METAR SBJP 060100Z 22006KT 9999 SCT020 23/22 Q1016;
0120827980999992007080603004-07100-034867FM-15+0007SBJP V0202101N003112200019N0112651N1+02301+02101999999ADDGA1041+005101999GF104991999999999999999999MA1101591999999REMMET051METAR SBJP 060300Z 21006KT 9999 SCT017 23/21 Q1016;
0120827980999992007080604004-07100-034867FM-15+0007SBJP V0202201N003112200019N0112651N1+02201+02101999999ADDGA1041+003001999GF104991999999999999999999MA1101491999999REMMET051METAR SBJP 060400Z 22006KT 9999 SCT010 22/21 Q1015;
0120827980999992007080605004-07100-034867FM-15+0007SBJP V0202301N003110045019N0112651N1+02201+02101999999ADDGA1071+004501999GF107991999999999999999999MA1101491999999REMMET051METAR SBJP 060500Z 23006KT 9999 BKN015 22/21 Q1015;
0120827980999992007080606004-07100-034867FM-15+0007SBJP V0202301N003110045019N0112651N1+02201+02101999999ADDGA1071+004501999GF107991999999999999999999MA1101491999999REMMET051METAR SBJP 060600Z 23006KT 9999 BKN015 22/21 Q1015;
0120827980999992007080607004-07100-034867FM-15+0007SBJP V0202201N002110036019N0112651N1+02201+02101999999ADDGA1071+003601999GF107991999999999999999999MA1101491999999REMMET051METAR SBJP 060700Z 22004KT 9999 BKN012 22/21 Q1015;
0120827980999992007080608004-07100-034867FM-15+0007SBJP V0202201N002112200019N0112651N1+02201+02101999999ADDGA1041+004501999GF104991999999999999999999MA1101491999999REMMET051METAR SBJP 060800Z 22004KT 9999 SCT015 22/21 Q1015;
0120827980999992007080609004-07100-034867FM-15+0007SBJP V0202101N002112200019N0112651N1+02201+02201999999ADDGA1041+006001999GF104991999999999999999999MA1101491999999REMMET051METAR SBJP 060900Z 21004KT 9999 SCT020 22/22 Q1015;
0176827980999992007080610004-07100-034867FM-15+0007SBJP V0201701N00411004201CN0070001N1+02301+02201999999ADDGA1041+001201999GA2041+004201999GA3071+021001999GF107991999999999999999999MA1101591999999MW1611REMMET069METAR SBJP 061000Z 17008KT 7000 -RA SCT004 SCT014 BKN070 23/22 Q1016;
0175827980999992007080611004-07100-034867FM-15+0007SBJP V0201301N004610024019N0020001N1+02201+02201999999ADDGA1041+001201999GA2071+002401999GA3081+021001999GF108991999999999999999999MA1101691999999MW1631REMMET068METAR SBJP 061100Z 13009KT 2000 RA SCT004 BKN008 OVC070 22/22 Q1017;
0153827980999992007080612004-07100-034867FM-15+0007SBJP V0201701N002610024019N0050001N1+02401+02301999999ADDGA1071+002401999GA2071+021001999GF107991999999999999999999MA1101691999999MW1611REMMET062METAR SBJP 061200Z 17005KT 5000 -RA BKN008 BKN070 24/23 Q1017;
0143827980999992007080613004-07100-034867FM-15+0007SBJP V0201601N006710045019N0112651N1+02601+02201999999ADDGA1071+004501999GA2071+021001999GF107991999999999999999999MA1101691999999REMMET058METAR SBJP 061300Z 16013KT 9999 BKN015 BKN070 26/22 Q1017;
0117827980999992007080614004-07100-034867FM-15+0007SBJP V0201601N00721220001CN0112651N1+02701+02201999999ADDGA1071+005401999GA2041+024001999MA1101591999999REMMET058METAR SBJP 061400Z 16014KT 9999 BKN018 SCT080 27/22 Q1016;
0136827980999992007080615004-07100-034867FM-15+0007SBJP V0201501N00671220001CN0112651N1+02801+02201999999ADDGA1071+006001999GA2041+024001999MA1101591999999REMMET058METAR SBJP 061500Z 15013KT 9999 BKN020 SCT080 28/22 Q1016;EQDQ01+000042SCOTCV
0136827980999992007080616004-07100-034867FM-15+0007SBJP V0201701N00621220001CN0112651N1+02801+02201999999ADDGA1071+006001999GA2041+024001999MA1101491999999REMMET058METAR SBJP 061600Z 17012KT 9999 BKN020 SCT080 28/22 Q1015;EQDQ01+000042SCOTCV
0120827980999992007080617004-07100-034867FM-15+0007SBJP V0201701N007210075019N0112651N1+02801+02101999999ADDGA1071+007501999GF107991999999999999999999MA1101491999999REMMET051METAR SBJP 061700Z 17014KT 9999 BKN025 28/21 Q1015;
0120827980999992007080618004-07100-034867FM-15+0007SBJP V0201701N006710075019N0112651N1+02701+02101999999ADDGA1071+007501999GF107991999999999999999999MA1101391999999REMMET051METAR SBJP 061800Z 17013KT 9999 BKN025 27/21 Q1014;
0120827980999992007080619004-07100-034867FM-15+0007SBJP V0201701N007212200019N0112651N1+02601+02101999999ADDGA1041+007501999GF104991999999999999999999MA1101491999999REMMET051METAR SBJP 061900Z 17014KT 9999 SCT025 26/21 Q1015;
0143827980999992007080620004-07100-034867FM-15+0007SBJP V0201801N004112200019N0112651N1+02601+02101999999ADDGA1041+007501999GA2041+027001999GF104991999999999999999999MA1101491999999REMMET058METAR SBJP 062000Z 18008KT 9999 SCT025 SCT090 26/21 Q1015;
0143827980999992007080621004-07100-034867FM-15+0007SBJP V0201801N003610270019N0112651N1+02501+02101999999ADDGA1041+007501999GA2071+027001999GF107991999999999999999999MA1101491999999REMMET058METAR SBJP 062100Z 18007KT 9999 SCT025 BKN090 25/21 Q1015;
0143827980999992007080622004-07100-034867FM-15+0007SBJP V0201501N003610210019N0112651N1+02401+02001999999ADDGA1041+006001999GA2071+021001999GF107991999999999999999999MA1101591999999REMMET058METAR SBJP 062200Z 15007KT 9999 SCT020 BKN070 24/20 Q1016;
0143827980999992007080623004-07100-034867FM-15+0007SBJP V0201601N003110210019N0112651N1+02401+02101999999ADDGA1041+006001999GA2071+021001999GF107991999999999999999999MA1101591999999REMMET058METAR SBJP 062300Z 16006KT 9999 SCT020 BKN070 24/21 Q1016;
0143827980999992007080700004-07100-034867FM-15+0007SBJP V0201601N003112200019N0112651N1+02401+02101999999ADDGA1021+006001999GA2041+021001999GF104991999999999999999999MA1101691999999REMMET058METAR SBJP 070000Z 16006KT 9999 FEW020 SCT070 24/21 Q1017;
0143827980999992007080701004-07100-034867FM-15+0007SBJP V0201801N002612200019N0112651N1+02301+02101999999ADDGA1041+006001999GA2041+021001999GF104991999999999999999999MA1101691999999REMMET058METAR SBJP 070100Z 18005KT 9999 SCT020 SCT070 23/21 Q1017;
0120827980999992007080702004-07100-034867FM-15+0007SBJP V0201801N002112200019N0112651N1+02301+02001999999ADDGA1021+006001999GF102991999999999999999999MA1101691999999REMMET051METAR SBJP 070200Z 18004KT 9999 FEW020 23/20 Q1017;
0120827980999992007080703004-07100-034867FM-15+0007SBJP V0202001N001512200019N0112651N1+02201+02001999999ADDGA1021+006001999GF102991999999999999999999MA1101591999999REMMET051METAR SBJP 070300Z 20003KT 9999 FEW020 22/20 Q1016;
0120827980999992007080704004-07100-034867FM-15+0007SBJP V0202301N002612200019N0112651N1+02101+02001999999ADDGA1021+006001999GF102991999999999999999999MA1101591999999REMMET051METAR SBJP 070400Z 23005KT 9999 FEW020 21/20 Q1016;
0120827980999992007080705004-07100-034867FM-15+0007SBJP V0202201N003112200019N0112651N1+02101+02001999999ADDGA1021+006001999GF102991999999999999999999MA1101491999999REMMET051METAR SBJP 070500Z 22006KT 9999 FEW020 21/20 Q1015;
0120827980999992007080706004-07100-034867FM-15+0007SBJP V0202201N002612200019N0112651N1+02101+02001999999ADDGA1021+006001999GF102991999999999999999999MA1101491999999REMMET051METAR SBJP 070600Z 22005KT 9999 FEW020 21/20 Q1015;
0120827980999992007080707004-07100-034867FM-15+0007SBJP V0202201N002612200019N0112651N1+02101+02001999999ADDGA1021+006001999GF102991999999999999999999MA1101491999999REMMET051METAR SBJP 070700Z 22005KT 9999 FEW020 21/20 Q1015;
0072827980999992007080708004-07100-034867FM-15+0007SBJP V0202201N00211220001CN0099001N1+02001+01901999999ADDMA1101491999999REMMET045METAR SBJP 070800Z 22004KT CAVOK 20/19 Q1015;
0120827980999992007080709004-07100-034867FM-15+0007SBJP V0202001N001512200019N0112651N1+02001+01901999999ADDGA1021+006001999GF102991999999999999999999MA1101591999999REMMET051METAR SBJP 070900Z 20003KT 9999 FEW020 20/19 Q1016;
0120827980999992007080710004-07100-034867FM-15+0007SBJP V0202301N002612200019N0112651N1+02201+02001999999ADDGA1021+006001999GF102991999999999999999999MA1101691999999REMMET051METAR SBJP 071000Z 23005KT 9999 FEW020 22/20 Q1017;
0120827980999992007080712004-07100-034867FM-15+0007SBJP V0201901N004110075019N0112651N1+02701+02101999999ADDGA1071+007501999GF107991999999999999999999MA1101801999999REMMET051METAR SBJP 071200Z 19008KT 9999 BKN025 27/21 Q1018;
0120827980999992007080713004-07100-034867FM-15+0007SBJP V0201901N004610060019N0112651N1+02601+02101999999ADDGA1071+006001999GF107991999999999999999999MA1101691999999REMMET051METAR SBJP 071300Z 19009KT 9999 BKN020 26/21 Q1017;
0120827980999992007080714004-07100-034867FM-15+0007SBJP V0201801N005710075019N0112651N1+02801+02001999999ADDGA1071+007501999GF107991999999999999999999MA1101691999999REMMET051METAR SBJP 071400Z 18011KT 9999 BKN025 28/20 Q1017;
0120827980999992007080715004-07100-034867FM-15+0007SBJP V0201901N005712200019N0112651N1+02901+02001999999ADDGA1041+007501999GF104991999999999999999999MA1101591999999REMMET051METAR SBJP 071500Z 19011KT 9999 SCT025 29/20 Q1016;
0120827980999992007080716004-07100-034867FM-15+0007SBJP V0201901N005712200019N0112651N1+02901+02001999999ADDGA1041+007501999GF104991999999999999999999MA1101591999999REMMET051METAR SBJP 071600Z 19011KT 9999 SCT025 29/20 Q1016;
0120827980999992007080717004-07100-034867FM-15+0007SBJP V0201401N006712200019N0112651N1+02701+02001999999ADDGA1041+009001999GF104991999999999999999999MA1101491999999REMMET051METAR SBJP 071700Z 14013KT 9999 SCT030 27/20 Q1015;
0120827980999992007080718004-07100-034867FM-15+0007SBJP V0201401N006212200019N0112651N1+02801+02101999999ADDGA1041+009001999GF104991999999999999999999MA1101491999999REMMET051METAR SBJP 071800Z 14012KT 9999 SCT030 28/21 Q1015;
0131827980999992007080719004-07100-034867FM-15+0007SBJP V0201601N006712200019N0112651N1+02701+02101999999ADDGA1041+009001999GF104991999999999999999999MA1101491999999OC101181REMMET054METAR SBJP 071900Z 16013G23KT 9999 SCT030 27/21 Q1015;
0143827980999992007080720004-07100-034867FM-15+0007SBJP V0201601N005112200019N0112651N1+02601+02101999999ADDGA1021+007501999GA2041+021001999GF104991999999999999999999MA1101591999999REMMET058METAR SBJP 072000Z 16010KT 9999 FEW025 SCT070 26/21 Q1016;
0143827980999992007080721004-07100-034867FM-15+0007SBJP V0201601N003110210019N0112651N1+02401+02101999999ADDGA1021+007501999GA2071+021001999GF107991999999999999999999MA1101591999999REMMET058METAR SBJP 072100Z 16006KT 9999 FEW025 BKN070 24/21 Q1016;
0143827980999992007080722004-07100-034867FM-15+0007SBJP V0201401N003610210019N0112651N1+02301+02101999999ADDGA1021+006001999GA2071+021001999GF107991999999999999999999MA1101591999999REMMET058METAR SBJP 072200Z 14007KT 9999 FEW020 BKN070 23/21 Q1016;
0072827980999992007080723004-07100-034867FM-15+0007SBJP V0201701N00261220001CN0099001N1+02401+02101999999ADDMA1101691999999REMMET045METAR SBJP 072300Z 17005KT CAVOK 24/21 Q1017;
0143827980999992007080800004-07100-034867FM-15+0007SBJP V0201801N003112200019N0112651N1+02301+02101999999ADDGA1041+006001999GA2041+021001999GF104991999999999999999999MA1101691999999REMMET058METAR SBJP 080000Z 18006KT 9999 SCT020 SCT070 23/21 Q1017;
0143827980999992007080801004-07100-034867FM-15+0007SBJP V0201801N002610210019N0112651N1+02301+02101999999ADDGA1041+005101999GA2071+021001999GF107991999999999999999999MA1101691999999REMMET058METAR SBJP 080100Z 18005KT 9999 SCT017 BKN070 23/21 Q1017;
0120827980999992007080802004-07100-034867FM-15+0007SBJP V0201901N002110048019N0112651N1+02301+02201999999ADDGA1071+004801999GF107991999999999999999999MA1101691999999REMMET051METAR SBJP 080200Z 19004KT 9999 BKN016 23/22 Q1017;
0120827980999992007080803004-07100-034867FM-15+0007SBJP V0201601N001512200019N0112651N1+02301+02201999999ADDGA1041+005101999GF104991999999999999999999MA1101591999999REMMET051METAR SBJP 080300Z 16003KT 9999 SCT017 23/22 Q1016;
0120827980999992007080804004-07100-034867FM-15+0007SBJP V0202201N002112200019N0112651N1+02301+02201999999ADDGA1041+005101999GF104991999999999999999999MA1101591999999REMMET051METAR SBJP 080400Z 22004KT 9999 SCT017 23/22 Q1016;
0143827980999992007080805004-07100-034867FM-15+0007SBJP V0202301N002112200019N0112651N1+02301+02201999999ADDGA1041+005101999GA2041+021001999GF104991999999999999999999MA1101491999999REMMET058METAR SBJP 080500Z 23004KT 9999 SCT017 SCT070 23/22 Q1015;
0120827980999992007080806004-07100-034867FM-15+0007SBJP V0202201N002112200019N0112651N1+02201+02101999999ADDGA1041+005101999GF104991999999999999999999MA1101591999999REMMET051METAR SBJP 080600Z 22004KT 9999 SCT017 22/21 Q1016;
0120827980999992007080807004-07100-034867FM-15+0007SBJP V0202301N001512200019N0112651N1+02201+02101999999ADDGA1041+005101999GF104991999999999999999999MA1101591999999REMMET051METAR SBJP 080700Z 23003KT 9999 SCT017 22/21 Q1016;
0120827980999992007080808004-07100-034867FM-15+0007SBJP V0202101N002112200019N0112651N1+02201+02101999999ADDGA1041+005101999GF104991999999999999999999MA1101591999999REMMET051METAR SBJP 080800Z 21004KT 9999 SCT017 22/21 Q1016;
0120827980999992007080809004-07100-034867FM-15+0007SBJP V0202301N002112200019N0112651N1+02201+02101999999ADDGA1041+005101999GF104991999999999999999999MA1101691999999REMMET051METAR SBJP 080900Z 23004KT 9999 SCT017 22/21 Q1017;
0143827980999992007080810004-07100-034867FM-15+0007SBJP V0201801N001510210019N0112651N1+02401+02201999999ADDGA1021+006001999GA2071+021001999GF107991999999999999999999MA1101691999999REMMET058METAR SBJP 081000Z 18003KT 9999 FEW020 BKN070 24/22 Q1017;
0143827980999992007080811004-07100-034867FM-15+0007SBJP V0201701N002612200019N0112651N1+02601+02201999999ADDGA1021+006001999GA2041+021001999GF104991999999999999999999MA1101801999999REMMET058METAR SBJP 081100Z 17005KT 9999 FEW020 SCT070 26/22 Q1018;
0143827980999992007080812004-07100-034867FM-15+0007SBJP V0201401N006210210019N0112651N1+02601+02201999999ADDGA1041+007501999GA2071+021001999GF107991999999999999999999MA1101801999999REMMET058METAR SBJP 081200Z 14012KT 9999 SCT025 BKN070 26/22 Q1018;
0143827980999992007080813004-07100-034867FM-15+0007SBJP V0201301N006210210019N0112651N1+02701+02101999999ADDGA1041+007501999GA2071+021001999GF107991999999999999999999MA1101801999999REMMET058METAR SBJP 081300Z 13012KT 9999 SCT025 BKN070 27/21 Q1018;
0143827980999992007080814004-07100-034867FM-15+0007SBJP V0201401N006210090019N0112651N1+02801+02101999999ADDGA1071+009001999GA2071+021001999GF107991999999999999999999MA1101691999999REMMET058METAR SBJP 081400Z 14012KT 9999 BKN030 BKN070 28/21 Q1017;
0157827980999992007080815004-07100-034867FM-15+0007SBJP V0201401N00671220001CN0080001N1+02801+02101999999ADDGA1071+009001999GA2041+021001999MA1101691999999MW1611OC101181REMMET065METAR SBJP 081500Z 14013G23KT 8000 -RA BKN030 SCT070 28/21 Q1017;EQDQ01+000042SCOTCV
0143827980999992007080816004-07100-034867FM-15+0007SBJP V0201501N006210060019N0112651N1+02801+02101999999ADDGA1071+006001999GA2071+021001999GF107991999999999999999999MA1101591999999REMMET058METAR SBJP 081600Z 15012KT 9999 BKN020 BKN070 28/21 Q1016;
0143827980999992007080817004-07100-034867FM-15+0007SBJP V0201401N006210060019N0112651N1+02801+02101999999ADDGA1071+006001999GA2071+021001999GF107991999999999999999999MA1101591999999REMMET058METAR SBJP 081700Z 14012KT 9999 BKN020 BKN070 28/21 Q1016;
0143827980999992007080818004-07100-034867FM-15+0007SBJP V0201401N005710075019N0112651N1+02701+02101999999ADDGA1071+007501999GA2071+021001999GF107991999999999999999999MA1101491999999REMMET058METAR SBJP 081800Z 14011KT 9999 BKN025 BKN070 27/21 Q1015;
0143827980999992007080819004-07100-034867FM-15+0007SBJP V0201401N005710060019N0112651N1+02701+02101999999ADDGA1071+006001999GA2071+021001999GF107991999999999999999999MA1101491999999REMMET058METAR SBJP 081900Z 14011KT 9999 BKN020 BKN070 27/21 Q1015;
0143827980999992007080820004-07100-034867FM-15+0007SBJP V0201501N004612200019N0112651N1+02601+02101999999ADDGA1041+006001999GA2041+021001999GF104991999999999999999999MA1101491999999REMMET058METAR SBJP 082000Z 15009KT 9999 SCT020 SCT070 26/21 Q1015;
0120827980999992007080821004-07100-034867FM-15+0007SBJP V0201601N003610060019N0112651N1+02501+02101999999ADDGA1071+006001999GF107991999999999999999999MA1101591999999REMMET051METAR SBJP 082100Z 16007KT 9999 BKN020 25/21 Q1016;
0120827980999992007080822004-07100-034867FM-15+0007SBJP V0201601N003110060019N0112651N1+02401+02101999999ADDGA1071+006001999GF107991999999999999999999MA1101591999999REMMET051METAR SBJP 082200Z 16006KT 9999 BKN020 24/21 Q1016;
0120827980999992007080823004-07100-034867FM-15+0007SBJP V0202101N002110060019N0112651N1+02401+02101999999ADDGA1071+006001999GF107991999999999999999999MA1101691999999REMMET051METAR SBJP 082300Z 21004KT 9999 BKN020 24/21 Q1017;
0120827980999992007080900004-07100-034867FM-15+0007SBJP V0201901N002110060019N0112651N1+02401+02101999999ADDGA1071+006001999GF107991999999999999999999MA1101691999999REMMET051METAR SBJP 090000Z 19004KT 9999 BKN020 24/21 Q1017;
0120827980999992007080901004-07100-034867FM-15+0007SBJP V0201801N002110060019N0112651N1+02401+02101999999ADDGA1071+006001999GF107991999999999999999999MA1101691999999REMMET051METAR SBJP 090100Z 18004KT 9999 BKN020 24/21 Q1017;
0120827980999992007080902004-07100-034867FM-15+0007SBJP V0201901N003110060019N0112651N1+02401+02101999999ADDGA1071+006001999GF107991999999999999999999MA1101691999999REMMET051METAR SBJP 090200Z 19006KT 9999 BKN020 24/21 Q1017;
0120827980999992007080903004-07100-034867FM-15+0007SBJP V0201801N002110060019N0112651N1+02401+02101999999ADDGA1071+006001999GF107991999999999999999999MA1101591999999REMMET051METAR SBJP 090300Z 18004KT 9999 BKN020 24/21 Q1016;
0143827980999992007080904004-07100-034867FM-15+0007SBJP V0201801N002110210019N0112651N1+02301+02101999999ADDGA1041+006001999GA2071+021001999GF107991999999999999999999MA1101491999999REMMET058METAR SBJP 090400Z 18004KT 9999 SCT020 BKN070 23/21 Q1015;
0143827980999992007080905004-07100-034867FM-15+0007SBJP V0201301N001010210019N0112651N1+02301+02001999999ADDGA1041+006001999GA2071+021001999GF107991999999999999999999MA1101491999999REMMET058METAR SBJP 090500Z 13002KT 9999 SCT020 BKN070 23/20 Q1015;
0143827980999992007080906004-07100-034867FM-15+0007SBJP V0201501N003110210019N0112651N1+02301+02001999999ADDGA1041+006001999GA2071+021001999GF107991999999999999999999MA1101491999999REMMET058METAR SBJP 090600Z 15006KT 9999 SCT020 BKN070 23/20 Q1015;
0143827980999992007080907004-07100-034867FM-15+0007SBJP V0201801N004610210019N0112651N1+02301+02001999999ADDGA1041+006001999GA2071+021001999GF107991999999999999999999MA1101491999999REMMET058METAR SBJP 090700Z 18009KT 9999 SCT020 BKN070 23/20 Q1015;
0143827980999992007080908004-07100-034867FM-15+0007SBJP V0201901N002112200019N0112651N1+02301+02001999999ADDGA1041+006001999GA2041+021001999GF104991999999999999999999MA1101591999999REMMET058METAR SBJP 090800Z 19004KT 9999 SCT020 SCT070 23/20 Q1016;
0143827980999992007080909004-07100-034867FM-15+0007SBJP V0202101N002112200019N0112651N1+02201+02101999999ADDGA1041+006001999GA2041+021001999GF104991999999999999999999MA1101591999999REMMET058METAR SBJP 090900Z 21004KT 9999 SCT020 SCT070 22/21 Q1016;
0120827980999992007080910004-07100-034867FM-15+0007SBJP V0202101N003110060019N0112651N1+02301+02101999999ADDGA1071+006001999GF107991999999999999999999MA1101591999999REMMET051METAR SBJP 091000Z 21006KT 9999 BKN020 23/21 Q1016;
0120827980999992007080911004-07100-034867FM-15+0007SBJP V0201501N003110060019N0112651N1+02701+02201999999ADDGA1071+006001999GF107991999999999999999999MA1101691999999REMMET051METAR SBJP 091100Z 15006KT 9999 BKN020 27/22 Q1017;
0120827980999992007080912004-07100-034867FM-15+0007SBJP V0201301N006210060019N0112651N1+02701+02101999999ADDGA1071+006001999GF107991999999999999999999MA1101691999999REMMET051METAR SBJP 091200Z 13012KT 9999 BKN020 27/21 Q1017;
0120827980999992007080913004-07100-034867FM-15+0007SBJP V0201601N007210060019N0112651N1+02801+02101999999ADDGA1071+006001999GF107991999999999999999999MA1101691999999REMMET051METAR SBJP 091300Z 16014KT 9999 BKN020 28/21 Q1017;
0120827980999992007080914004-07100-034867FM-15+0007SBJP V0201601N005110060019N0112651N1+02801+02201999999ADDGA1071+006001999GF107991999999999999999999MA1101691999999REMMET051METAR SBJP 091400Z 16010KT 9999 BKN020 28/22 Q1017;
0120827980999992007080915004-07100-034867FM-15+0007SBJP V0201501N006210060019N0112651N1+02801+02101999999ADDGA1071+006001999GF107991999999999999999999MA1101591999999REMMET051METAR SBJP 091500Z 15012KT 9999 BKN020 28/21 Q1016;
0130827980999992007080916004-07100-034867FM-15+0007SBJP V0201601N004110045019N0040001N1+02501+02201999999ADDGA1071+004501999GF107991999999999999999999MA1101491999999MW1611REMMET055METAR SBJP 091600Z 16008KT 4000 -RA BKN015 25/22 Q1015;
0120827980999992007080917004-07100-034867FM-15+0007SBJP V0201801N005110054019N0112651N1+02501+02201999999ADDGA1071+005401999GF107991999999999999999999MA1101391999999REMMET051METAR SBJP 091700Z 18010KT 9999 BKN018 25/22 Q1014;
0120827980999992007080918004-07100-034867FM-15+0007SBJP V0201601N007210060019N0112651N1+02701+02001999999ADDGA1071+006001999GF107991999999999999999999MA1101391999999REMMET051METAR SBJP 091800Z 16014KT 9999 BKN020 27/20 Q1014;
0120827980999992007080920004-07100-034867FM-15+0007SBJP V0201901N005112200019N0112651N1+02601+02001999999ADDGA1041+006001999GF104991999999999999999999MA1101491999999REMMET051METAR SBJP 092000Z 19010KT 9999 SCT020 26/20 Q1015;
0120827980999992007080921004-07100-034867FM-15+0007SBJP V0201801N004112200019N0112651N1+02401+02001999999ADDGA1041+006001999GF104991999999999999999999MA1101491999999REMMET051METAR SBJP 092100Z 18008KT 9999 SCT020 24/20 Q1015;
0120827980999992007080922004-07100-034867FM-15+0007SBJP V0201901N002612200019N0112651N1+02401+02001999999ADDGA1021+006001999GF102991999999999999999999MA1101491999999REMMET051METAR SBJP 092200Z 19005KT 9999 FEW020 24/20 Q1015;
0072827980999992007080923004-07100-034867FM-15+0007SBJP V0202001N00261220001CN0099001N1+02301+02001999999ADDMA1101591999999REMMET045METAR SBJP 092300Z 20005KT CAVOK 23/20 Q1016;
0072827980999992007081001004-07100-034867FM-15+0007SBJP V0202201N00261220001CN0099001N1+02201+02001999999ADDMA1101591999999REMMET045METAR SBJP 100100Z 22005KT CAVOK 22/20 Q1016;
0120827980999992007081002004-07100-034867FM-15+0007SBJP V0202101N002612200019N0112651N1+02201+02001999999ADDGA1021+006001999GF102991999999999999999999MA1101591999999REMMET051METAR SBJP 100200Z 21005KT 9999 FEW020 22/20 Q1016;
0120827980999992007081003004-07100-034867FM-15+0007SBJP V0202001N003112200019N0112651N1+02201+02001999999ADDGA1021+006001999GF102991999999999999999999MA1101491999999REMMET051METAR SBJP 100300Z 20006KT 9999 FEW020 22/20 Q1015;
0120827980999992007081004004-07100-034867FM-15+0007SBJP V0202001N002612200019N0112651N1+02101+02001999999ADDGA1021+006001999GF102991999999999999999999MA1101391999999REMMET051METAR SBJP 100400Z 20005KT 9999 FEW020 21/20 Q1014;
0120827980999992007081005004-07100-034867FM-15+0007SBJP V0202101N002112200019N0112651N1+02101+02001999999ADDGA1041+006001999GF104991999999999999999999MA1101391999999REMMET051METAR SBJP 100500Z 21004KT 9999 SCT020 21/20 Q1014;
0120827980999992007081006004-07100-034867FM-15+0007SBJP V0202101N002112200019N0112651N1+02101+02001999999ADDGA1021+006001999GF102991999999999999999999MA1101391999999REMMET051METAR SBJP 100600Z 21004KT 9999 FEW020 21/20 Q1014;
0072827980999992007081007004-07100-034867FM-15+0007SBJP V0202001N00211220001CN0099001N1+02101+02001999999ADDMA1101391999999REMMET045METAR SBJP 100700Z 20004KT CAVOK 21/20 Q1014;
0120827980999992007081008004-07100-034867FM-15+0007SBJP V0202101N002110051019N0112651N1+02101+02001999999ADDGA1071+005101999GF107991999999999999999999MA1101491999999REMMET051METAR SBJP 100800Z 21004KT 9999 BKN017 21/20 Q1015;
0120827980999992007081009004-07100-034867FM-15+0007SBJP V0202101N001512200019N0112651N1+02101+02001999999ADDGA1041+005101999GF104991999999999999999999MA1101491999999REMMET051METAR SBJP 100900Z 21003KT 9999 SCT017 21/20 Q1015;
0120827980999992007081010004-07100-034867FM-15+0007SBJP V0202201N003112200019N0112651N1+02301+02101999999ADDGA1041+005101999GF104991999999999999999999MA1101591999999REMMET051METAR SBJP 101000Z 22006KT 9999 SCT017 23/21 Q1016;
0120827980999992007081011004-07100-034867FM-15+0007SBJP V0202001N004112200019N0112651N1+02501+02201999999ADDGA1041+005101999GF104991999999999999999999MA1101691999999REMMET051METAR SBJP 101100Z 20008KT 9999 SCT017 25/22 Q1017;
0120827980999992007081012004-07100-034867FM-15+0007SBJP V0201901N004112200019N0112651N1+02701+02201999999ADDGA1041+006001999GF104991999999999999999999MA1101691999999REMMET051METAR SBJP 101200Z 19008KT 9999 SCT020 27/22 Q1017;
0120827980999992007081013004-07100-034867FM-15+0007SBJP V0201601N004112200019N0112651N1+02901+02101999999ADDGA1041+006001999GF104991999999999999999999MA1101691999999REMMET051METAR SBJP 101300Z 16008KT 9999 SCT020 29/21 Q1017;
0120827980999992007081014004-07100-034867FM-15+0007SBJP V0201501N007712200019N0112651N1+02901+02201999999ADDGA1041+006001999GF104991999999999999999999MA1101691999999REMMET051METAR SBJP 101400Z 15015KT 9999 SCT020 29/22 Q1017;
0120827980999992007081015004-07100-034867FM-15+0007SBJP V0201601N006212200019N0112651N1+02801+02101999999ADDGA1041+006001999GF104991999999999999999999MA1101591999999REMMET051METAR SBJP 101500Z 16012KT 9999 SCT020 28/21 Q1016;
0131827980999992007081018004-07100-034867FM-15+0007SBJP V0201701N006212200019N0112651N1+02901+02101999999ADDGA1041+007501999GF104991999999999999999999MA1101391999999OC101131REMMET054METAR SBJP 101800Z 17012G22KT 9999 SCT025 29/21 Q1014;
0120827980999992007081019004-07100-034867FM-15+0007SBJP V0201801N005112200019N0112651N1+02601+02201999999ADDGA1041+007501999GF104991999999999999999999MA1101391999999REMMET051METAR SBJP 101900Z 18010KT 9999 SCT025 26/22 Q1014;
0120827980999992007081020004-07100-034867FM-15+0007SBJP V0201701N003612200019N0112651N1+02601+02201999999ADDGA1021+007501999GF102991999999999999999999MA1101391999999REMMET051METAR SBJP 102000Z 17007KT 9999 FEW025 26/22 Q1014;
0143827980999992007081021004-07100-034867FM-15+0007SBJP V0201901N003112200019N0112651N1+02501+02201999999ADDGA1021+006001999GA2041+021001999GF104991999999999999999999MA1101491999999REMMET058METAR SBJP 102100Z 19006KT 9999 FEW020 SCT070 25/22 Q1015;
0143827980999992007081022004-07100-034867FM-15+0007SBJP V0202001N002612200019N0112651N1+02401+02201999999ADDGA1021+006001999GA2041+021001999GF104991999999999999999999MA1101491999999REMMET058METAR SBJP 102200Z 20005KT 9999 FEW020 SCT070 24/22 Q1015;
0143827980999992007081023004-07100-034867FM-15+0007SBJP V0201801N002112200019N0112651N1+02401+02301999999ADDGA1021+006001999GA2041+021001999GF104991999999999999999999MA1101591999999REMMET058METAR SBJP 102300Z 18004KT 9999 FEW020 SCT070 24/23 Q1016;
0177827980999992007081100004-07100-034867FM-15+0007SBJP V0201501N002610045019N0080001N1+02301+02201999999ADDGA1041+003001999GA2071+004501999GA3071+021001999GF107991999999999999999999MA1101591999999MW1161REMMET070METAR SBJP 110000Z 15005KT 8000 VCSH SCT010 BKN015 BKN070 23/22 Q1016;
0166827980999992007081101004-07100-034867FM-15+0007SBJP V0202001N00361004501CN0112651N1+02401+02301999999ADDGA1041+003001999GA2041+004501999GA3071+021001999GF107991999999999999999999MA1101591999999REMMET065METAR SBJP 110100Z 20007KT 9999 SCT010 SCT015 BKN070 24/23 Q1016;
0176827980999992007081102004-07100-034867FM-15+0007SBJP V0202101N002610045019N0050001N1+02301+02201999999ADDGA1041+003001999GA2071+004501999GA3071+021001999GF107991999999999999999999MA1101591999999MW1611REMMET069METAR SBJP 110200Z 21005KT 5000 -RA SCT010 BKN015 BKN070 23/22 Q1016;
0143827980999992007081103004-07100-034867FM-15+0007SBJP V0201701N002610210019N0112651N1+02401+02301999999ADDGA1041+004501999GA2071+021001999GF107991999999999999999999MA1101591999999REMMET058METAR SBJP 110300Z 17005KT 9999 SCT015 BKN070 24/23 Q1016;
0143827980999992007081104004-07100-034867FM-15+0007SBJP V0201401N004110210019N0112651N1+02401+02201999999ADDGA1041+004501999GA2071+021001999GF107991999999999999999999MA1101491999999REMMET058METAR SBJP 110400Z 14008KT 9999 SCT015 BKN070 24/22 Q1015;
0153827980999992007081105004-07100-034867FM-15+0007SBJP V0201501N005110045019N0045001N1+02401+02201999999ADDGA1071+004501999GA2071+021001999GF107991999999999999999999MA1101491999999MW1611REMMET062METAR SBJP 110500Z 15010KT 4500 -RA BKN015 BKN070 24/22 Q1015;
0143827980999992007081106004-07100-034867FM-15+0007SBJP V0201901N002110045019N0112651N1+02301+02201999999ADDGA1071+004501999GA2071+021001999GF107991999999999999999999MA1101491999999REMMET058METAR SBJP 110600Z 19004KT 9999 BKN015 BKN070 23/22 Q1015;
0143827980999992007081107004-07100-034867FM-15+0007SBJP V0201601N005110210019N0112651N1+02401+02201999999ADDGA1041+004501999GA2071+021001999GF107991999999999999999999MA1101491999999REMMET058METAR SBJP 110700Z 16010KT 9999 SCT015 BKN070 24/22 Q1015;
0143827980999992007081108004-07100-034867FM-15+0007SBJP V0201701N003112200019N0112651N1+02401+02101999999ADDGA1041+005401999GA2041+021001999GF104991999999999999999999MA1101491999999REMMET058METAR SBJP 110800Z 17006KT 9999 SCT018 SCT070 24/21 Q1015;
0120827980999992007081109004-07100-034867FM-15+0007SBJP V0201801N002112200019N0112651N1+02301+02101999999ADDGA1041+006001999GF104991999999999999999999MA1101591999999REMMET051METAR SBJP 110900Z 18004KT 9999 SCT020 23/21 Q1016;
0120827980999992007081110004-07100-034867FM-15+0007SBJP V0201601N004612200019N0112651N1+02501+02201999999ADDGA1041+006001999GF104991999999999999999999MA1101691999999REMMET051METAR SBJP 111000Z 16009KT 9999 SCT020 25/22 Q1017;
0120827980999992007081111004-07100-034867FM-15+0007SBJP V0201601N005110060019N0112651N1+02601+02101999999ADDGA1071+006001999GF107991999999999999999999MA1101691999999REMMET051METAR SBJP 111100Z 16010KT 9999 BKN020 26/21 Q1017;
0120827980999992007081112004-07100-034867FM-15+0007SBJP V0201601N006210075019N0112651N1+02701+02001999999ADDGA1071+007501999GF107991999999999999999999MA1101801999999REMMET051METAR SBJP 111200Z 16012KT 9999 BKN025 27/20 Q1018;
0120827980999992007081113004-07100-034867FM-15+0007SBJP V0201701N006712200019N0112651N1+02801+02101999999ADDGA1041+007501999GF104991999999999999999999MA1101691999999REMMET051METAR SBJP 111300Z 17013KT 9999 SCT025 28/21 Q1017;
0120827980999992007081114004-07100-034867FM-15+0007SBJP V0201801N006212200019N0112651N1+02901+02101999999ADDGA1021+009001999GF102991999999999999999999MA1101691999999REMMET051METAR SBJP 111400Z 18012KT 9999 FEW030 29/21 Q1017;
0120827980999992007081115004-07100-034867FM-15+0007SBJP V0201701N006712200019N0112651N1+02901+02001999999ADDGA1021+009001999GF102991999999999999999999MA1101591999999REMMET051METAR SBJP 111500Z 17013KT 9999 FEW030 29/20 Q1016;
0120827980999992007081116004-07100-034867FM-15+0007SBJP V0201801N006712200019N0112651N1+02901+01901999999ADDGA1021+009001999GF102991999999999999999999MA1101491999999REMMET051METAR SBJP 111600Z 18013KT 9999 FEW030 29/19 Q1015;
0120827980999992007081117004-07100-034867FM-15+0007SBJP V0201701N006212200019N0112651N1+02901+01901999999ADDGA1041+009001999GF104991999999999999999999MA1101391999999REMMET051METAR SBJP 111700Z 17012KT 9999 SCT030 29/19 Q1014;
0120827980999992007081118004-07100-034867FM-15+0007SBJP V0201701N006712200019N0112651N1+02801+01901999999ADDGA1041+009001999GF104991999999999999999999MA1101391999999REMMET051METAR SBJP 111800Z 17013KT 9999 SCT030 28/19 Q1014;
0120827980999992007081119004-07100-034867FM-15+0007SBJP V0201701N006712200019N0112651N1+02701+02001999999ADDGA1021+009001999GF102991999999999999999999MA1101391999999REMMET051METAR SBJP 111900Z 17013KT 9999 FEW030 27/20 Q1014;
0072827980999992007081120004-07100-034867FM-15+0007SBJP V0202001N00411220001CN0099001N1+02601+02001999999ADDMA1101491999999REMMET045METAR SBJP 112000Z 20008KT CAVOK 26/20 Q1015;
0072827980999992007081121004-07100-034867FM-15+0007SBJP V0201901N00311220001CN0099001N1+02501+02001999999ADDMA1101491999999REMMET045METAR SBJP 112100Z 19006KT CAVOK 25/20 Q1015;
0072827980999992007081122004-07100-034867FM-15+0007SBJP V0201901N00311220001CN0099001N1+02501+02001999999ADDMA1101491999999REMMET045METAR SBJP 112200Z 19006KT CAVOK 25/20 Q1015;
0072827980999992007081123004-07100-034867FM-15+0007SBJP V0202001N00261220001CN0099001N1+02401+02101999999ADDMA1101591999999REMMET045METAR SBJP 112300Z 20005KT CAVOK 24/21 Q1016;
0072827980999992007081200004-07100-034867FM-15+0007SBJP V0202101N00211220001CN0099001N1+02301+02101999999ADDMA1101691999999REMMET045METAR SBJP 120000Z 21004KT CAVOK 23/21 Q1017;
0072827980999992007081201004-07100-034867FM-15+0007SBJP V0202101N00151220001CN0099001N1+02301+02101999999ADDMA1101691999999REMMET045METAR SBJP 120100Z 21003KT CAVOK 23/21 Q1017;
0153827980999992007081202004-07100-034867FM-15+0007SBJP V0201801N002610042019N0060001N1+02301+02101999999ADDGA1071+004201999GA2071+021001999GF107991999999999999999999MA1101691999999MW1611REMMET062METAR SBJP 120200Z 18005KT 6000 -RA BKN014 BKN070 23/21 Q1017;
0176827980999992007081203004-07100-034867FM-15+0007SBJP V0201701N003110060019N0060001N1+02301+02201999999ADDGA1041+003001999GA2071+006001999GA3071+021001999GF107991999999999999999999MA1101591999999MW1611REMMET069METAR SBJP 120300Z 17006KT 6000 -RA SCT010 BKN020 BKN070 23/22 Q1016;
0166827980999992007081204004-07100-034867FM-15+0007SBJP V0201701N00361004201CN0112651N1+02301+02201999999ADDGA1041+002101999GA2041+004201999GA3071+021001999GF107991999999999999999999MA1101591999999REMMET065METAR SBJP 120400Z 17007KT 9999 SCT007 SCT014 BKN070 23/22 Q1016;
0166827980999992007081205004-07100-034867FM-15+0007SBJP V0201501N00411004501CN0112651N1+02301+02201999999ADDGA1041+002101999GA2041+004501999GA3071+021001999GF107991999999999999999999MA1101491999999REMMET065METAR SBJP 120500Z 15008KT 9999 SCT007 SCT015 BKN070 23/22 Q1015;
0166827980999992007081206004-07100-034867FM-15+0007SBJP V0201901N00361004501CN0112651N1+02301+02201999999ADDGA1041+002101999GA2041+004501999GA3071+021001999GF107991999999999999999999MA1101491999999REMMET065METAR SBJP 120600Z 19007KT 9999 SCT007 SCT015 BKN070 23/22 Q1015;
0153827980999992007081207004-07100-034867FM-15+0007SBJP V0201701N004110030019N0112651N1+02301+02201999999ADDGA1071+003001999GA2071+021001999GF107991999999999999999999MA1101491999999MW1611REMMET062METAR SBJP 120700Z 17008KT 9999 -RA BKN010 BKN070 23/22 Q1015;
0143827980999992007081208004-07100-034867FM-15+0007SBJP V0201901N002612200019N0112651N1+02301+02101999999ADDGA1021+003601999GA2041+021001999GF104991999999999999999999MA1101491999999REMMET058METAR SBJP 120800Z 19005KT 9999 FEW012 SCT070 23/21 Q1015;
0120827980999992007081209004-07100-034867FM-15+0007SBJP V0202001N002112200019N0112651N1+02301+02101999999ADDGA1041+005401999GF104991999999999999999999MA1101491999999REMMET051METAR SBJP 120900Z 20004KT 9999 SCT018 23/21 Q1015;
0120827980999992007081210004-07100-034867FM-15+0007SBJP V0201801N002610054019N0112651N1+02501+02201999999ADDGA1071+005401999GF107991999999999999999999MA1101591999999REMMET051METAR SBJP 121000Z 18005KT 9999 BKN018 25/22 Q1016;
0120827980999992007081211004-07100-034867FM-15+0007SBJP V0201601N005710054019N0112651N1+02701+02101999999ADDGA1071+005401999GF107991999999999999999999MA1101691999999REMMET051METAR SBJP 121100Z 16011KT 9999 BKN018 27/21 Q1017;
0120827980999992007081212004-07100-034867FM-15+0007SBJP V0201801N004610045019N0112651N1+02301+02101999999ADDGA1071+004501999GF107991999999999999999999MA1101691999999REMMET051METAR SBJP 121200Z 18009KT 9999 BKN015 23/21 Q1017;
0166827980999992007081213004-07100-034867FM-15+0007SBJP V0201701N005110045019N0112651N1+02601+02201999999ADDGA1041+003001999GA2071+004501999GA3071+021001999GF107991999999999999999999MA1101691999999REMMET065METAR SBJP 121300Z 17010KT 9999 SCT010 BKN015 BKN070 26/22 Q1017;
0120827980999992007081214004-07100-034867FM-15+0007SBJP V0201701N008210075019N0112651N1+02701+02001999999ADDGA1071+007501999GF107991999999999999999999MA1101591999999REMMET051METAR SBJP 121400Z 17016KT 9999 BKN025 27/20 Q1016;
0120827980999992007081215004-07100-034867FM-15+0007SBJP V0201801N008210075019N0112651N1+02801+02001999999ADDGA1071+007501999GF107991999999999999999999MA1101591999999REMMET051METAR SBJP 121500Z 18016KT 9999 BKN025 28/20 Q1016;
0131827980999992007081216004-07100-034867FM-15+0007SBJP V0201401N006712200019N0112651N1+02901+02001999999ADDGA1041+009001999GF104991999999999999999999MA1101491999999OC101291REMMET054METAR SBJP 121600Z 14013G25KT 9999 SCT030 29/20 Q1015;
0131827980999992007081217004-07100-034867FM-15+0007SBJP V0201401N007712200019N0112651N1+02801+02001999999ADDGA1041+009001999GF104991999999999999999999MA1101491999999OC101291REMMET054METAR SBJP 121700Z 14015G25KT 9999 SCT030 28/20 Q1015;
0131827980999992007081218004-07100-034867FM-15+0007SBJP V0201401N007712200019N0112651N1+02801+01801999999ADDGA1041+009001999GF104991999999999999999999MA1101391999999OC101291REMMET054METAR SBJP 121800Z 14015G25KT 9999 SCT030 28/18 Q1014;
0131827980999992007081219004-07100-034867FM-15+0007SBJP V0201701N005112200019N0112651N1+02701+02001999999ADDGA1041+009001999GF104991999999999999999999MA1101491999999OC101031REMMET054METAR SBJP 121900Z 17010G20KT 9999 SCT030 27/20 Q1015;
0143827980999992007081220004-07100-034867FM-15+0007SBJP V0201501N005712200019N0112651N1+02501+02001999999ADDGA1021+007501999GA2041+021001999GF104991999999999999999999MA1101491999999REMMET058METAR SBJP 122000Z 15011KT 9999 FEW025 SCT070 25/20 Q1015;
0143827980999992007081221004-07100-034867FM-15+0007SBJP V0201801N003112200019N0112651N1+02401+02001999999ADDGA1021+006001999GA2041+021001999GF104991999999999999999999MA1101491999999REMMET058METAR SBJP 122100Z 18006KT 9999 FEW020 SCT070 24/20 Q1015;
0143827980999992007081222004-07100-034867FM-15+0007SBJP V0201701N004110210019N0112651N1+02401+02001999999ADDGA1041+006001999GA2071+021001999GF107991999999999999999999MA1101591999999REMMET058METAR SBJP 122200Z 17008KT 9999 SCT020 BKN070 24/20 Q1016;
0120827980999992007081223004-07100-034867FM-15+0007SBJP V0201801N003112200019N0112651N1+02401+02101999999ADDGA1041+006001999GF104991999999999999999999MA1101591999999REMMET051METAR SBJP 122300Z 18006KT 9999 SCT020 24/21 Q1016;
0120827980999992007081300004-07100-034867FM-15+0007SBJP V0201801N001512200019N0112651N1+02201+02001999999ADDGA1021+006001999GF102991999999999999999999MA1101691999999REMMET051METAR SBJP 130000Z 18003KT 9999 FEW020 22/20 Q1017;
0120827980999992007081301004-07100-034867FM-15+0007SBJP V0202001N002112200019N0112651N1+02201+02001999999ADDGA1041+006001999GF104991999999999999999999MA1101691999999REMMET051METAR SBJP 130100Z 20004KT 9999 SCT020 22/20 Q1017;
0120827980999992007081302004-07100-034867FM-15+0007SBJP V0202201N002112200019N0112651N1+02101+02001999999ADDGA1021+006001999GF102991999999999999999999MA1101591999999REMMET051METAR SBJP 130200Z 22004KT 9999 FEW020 21/20 Q1016;
0120827980999992007081303004-07100-034867FM-15+0007SBJP V0202201N002112200019N0112651N1+02101+01901999999ADDGA1021+006001999GF102991999999999999999999MA1101591999999REMMET051METAR SBJP 130300Z 22004KT 9999 FEW020 21/19 Q1016;
0143827980999992007081304004-07100-034867FM-15+0007SBJP V0202401N002112200019N0112651N1+02101+02001999999ADDGA1041+006001999GA2041+021001999GF104991999999999999999999MA1101491999999REMMET058METAR SBJP 130400Z 24004KT 9999 SCT020 SCT070 21/20 Q1015;
0166827980999992007081305004-07100-034867FM-15+0007SBJP V0202301N00211004501CN0112651N1+02101+02001999999ADDGA1041+002401999GA2041+004501999GA3071+021001999GF107991999999999999999999MA1101491999999REMMET065METAR SBJP 130500Z 23004KT 9999 SCT008 SCT015 BKN070 21/20 Q1015;
0166827980999992007081306004-07100-034867FM-15+0007SBJP V0202301N00311004501CN0112651N1+02101+02001999999ADDGA1041+002401999GA2041+004501999GA3071+021001999GF107991999999999999999999MA1101391999999REMMET065METAR SBJP 130600Z 23006KT 9999 SCT008 SCT015 BKN070 21/20 Q1014;
0143827980999992007081307004-07100-034867FM-15+0007SBJP V0202101N002610210019N0112651N1+02201+02101999999ADDGA1041+004501999GA2071+021001999GF107991999999999999999999MA1101491999999REMMET058METAR SBJP 130700Z 21005KT 9999 SCT015 BKN070 22/21 Q1015;
0143827980999992007081308004-07100-034867FM-15+0007SBJP V0202201N002612200019N0112651N1+02101+02101999999ADDGA1041+004501999GA2041+021001999GF104991999999999999999999MA1101491999999REMMET058METAR SBJP 130800Z 22005KT 9999 SCT015 SCT070 21/21 Q1015;
0176827980999992007081309004-07100-034867FM-15+0007SBJP V0201701N004110045019N0040001N1+02201+02101999999ADDGA1041+002401999GA2071+004501999GA3071+021001999GF107991999999999999999999MA1101591999999MW1611REMMET069METAR SBJP 130900Z 17008KT 4000 -RA SCT008 BKN015 BKN070 22/21 Q1016;
0143827980999992007081310004-07100-034867FM-15+0007SBJP V0201501N003610210019N0112651N1+02301+02101999999ADDGA1041+006001999GA2071+021001999GF107991999999999999999999MA1101591999999REMMET058METAR SBJP 131000Z 15007KT 9999 SCT020 BKN070 23/21 Q1016;
0143827980999992007081311004-07100-034867FM-15+0007SBJP V0201501N003110210019N0112651N1+02501+02201999999ADDGA1021+006001999GA2071+021001999GF107991999999999999999999MA1101691999999REMMET058METAR SBJP 131100Z 15006KT 9999 FEW020 BKN070 25/22 Q1017;
0143827980999992007081312004-07100-034867FM-15+0007SBJP V0201001N003110060019N0112651N1+02601+02201999999ADDGA1071+006001999GA2071+021001999GF107991999999999999999999MA1101691999999REMMET058METAR SBJP 131200Z 10006KT 9999 BKN020 BKN070 26/22 Q1017;
0143827980999992007081313004-07100-034867FM-15+0007SBJP V0201301N006210210019N0112651N1+02701+02101999999ADDGA1041+006001999GA2071+021001999GF107991999999999999999999MA1101691999999REMMET058METAR SBJP 131300Z 13012KT 9999 SCT020 BKN070 27/21 Q1017;
0143827980999992007081314004-07100-034867FM-15+0007SBJP V0201401N004112200019N0112651N1+02501+02301999999ADDGA1041+006001999GA2041+021001999GF104991999999999999999999MA1101691999999REMMET058METAR SBJP 131400Z 14008KT 9999 SCT020 SCT070 25/23 Q1017;
0187827980999992007081315004-07100-034867FM-15+0007SBJP V0201501N004610060019N0060001N1+02401+02101999999ADDGA1041+003601999GA2071+006001999GA3071+021001999GF107991999999999999999999MA1101591999999MW1611OC101181REMMET072METAR SBJP 131500Z 15009G23KT 6000 -RA SCT012 BKN020 BKN070 24/21 Q1016;
0143827980999992007081316004-07100-034867FM-15+0007SBJP V0201401N006212200019N0112651N1+02701+02001999999ADDGA1041+007501999GA2041+021001999GF104991999999999999999999MA1101491999999REMMET058METAR SBJP 131600Z 14012KT 9999 SCT025 SCT070 27/20 Q1015;
0120827980999992007081317004-07100-034867FM-15+0007SBJP V0201301N005112200019N0112651N1+02701+02001999999ADDGA1041+007501999GF104991999999999999999999MA1101491999999REMMET051METAR SBJP 131700Z 13010KT 9999 SCT025 27/20 Q1015;
0120827980999992007081318004-07100-034867FM-15+0007SBJP V0201501N006212200019N0112651N1+02701+02001999999ADDGA1021+009001999GF102991999999999999999999MA1101491999999REMMET051METAR SBJP 131800Z 15012KT 9999 FEW030 27/20 Q1015;
0143827980999992007081319004-07100-034867FM-15+0007SBJP V0201501N005112200019N0112651N1+02701+02001999999ADDGA1041+007501999GA2041+027001999GF104991999999999999999999MA1101491999999REMMET058METAR SBJP 131900Z 15010KT 9999 SCT025 SCT090 27/20 Q1015;
0143827980999992007081320004-07100-034867FM-15+0007SBJP V0201601N003610240019N0112651N1+02601+02101999999ADDGA1041+007501999GA2071+024001999GF107991999999999999999999MA1101491999999REMMET058METAR SBJP 132000Z 16007KT 9999 SCT025 BKN080 26/21 Q1015;
0072827980999992007081321004-07100-034867FM-15+0007SBJP V0201701N00311220001CN0099001N1+02401+02101999999ADDMA1101491999999REMMET045METAR SBJP 132100Z 17006KT CAVOK 24/21 Q1015;
0143827980999992007081322004-07100-034867FM-15+0007SBJP V0202101N002110240019N0112651N1+02301+02101999999ADDGA1041+007501999GA2071+024001999GF107991999999999999999999MA1101591999999REMMET058METAR SBJP 132200Z 21004KT 9999 SCT025 BKN080 23/21 Q1016;
0143827980999992007081323004-07100-034867FM-15+0007SBJP V0202101N002112200019N0112651N1+02301+02101999999ADDGA1041+007501999GA2041+024001999GF104991999999999999999999MA1101591999999REMMET058METAR SBJP 132300Z 21004KT 9999 SCT025 SCT080 23/21 Q1016;
0120827980999992007081400004-07100-034867FM-15+0007SBJP V0202201N002112200019N0112651N1+02301+02101999999ADDGA1041+006001999GF104991999999999999999999MA1101691999999REMMET051METAR SBJP 140000Z 22004KT 9999 SCT020 23/21 Q1017;
0120827980999992007081401004-07100-034867FM-15+0007SBJP V0202001N003112200019N0112651N1+02201+02101999999ADDGA1041+006001999GF104991999999999999999999MA1101691999999REMMET051METAR SBJP 140100Z 20006KT 9999 SCT020 22/21 Q1017;
0120827980999992007081402004-07100-034867FM-15+0007SBJP V0202101N002112200019N0112651N1+02201+02101999999ADDGA1041+006001999GF104991999999999999999999MA1101691999999REMMET051METAR SBJP 140200Z 21004KT 9999 SCT020 22/21 Q1017;
0120827980999992007081403004-07100-034867FM-15+0007SBJP V0202001N003112200019N0112651N1+02201+02001999999ADDGA1041+006001999GF104991999999999999999999MA1101591999999REMMET051METAR SBJP 140300Z 20006KT 9999 SCT020 22/20 Q1016;
0143827980999992007081404004-07100-034867FM-15+0007SBJP V0201801N003110210019N0112651N1+02201+02001999999ADDGA1021+006001999GA2071+021001999GF107991999999999999999999MA1101491999999REMMET058METAR SBJP 140400Z 18006KT 9999 FEW020 BKN070 22/20 Q1015;
0166827980999992007081405004-07100-034867FM-15+0007SBJP V0201901N001510036019N0112651N1+02201+02101999999ADDGA1071+003601999GA2071+006001999GA3071+021001999GF107991999999999999999999MA1101491999999REMMET065METAR SBJP 140500Z 19003KT 9999 BKN012 BKN020 BKN070 22/21 Q1015;
0176827980999992007081406004-07100-034867FM-15+0007SBJP V0201901N002110024019N0060001N1+02201+02101999999ADDGA1071+002401999GA2071+006001999GA3071+021001999GF107991999999999999999999MA1101491999999MW1611REMMET069METAR SBJP 140600Z 19004KT 6000 -RA BKN008 BKN020 BKN070 22/21 Q1015;
0176827980999992007081407004-07100-034867FM-15+0007SBJP V0201301N002610024019N0060001N1+02201+02101999999ADDGA1071+002401999GA2071+006001999GA3071+021001999GF107991999999999999999999MA1101491999999MW1611REMMET069METAR SBJP 140700Z 13005KT 6000 -RA BKN008 BKN020 BKN070 22/21 Q1015;
0176827980999992007081408004-07100-034867FM-15+0007SBJP V0201901N002110024019N0112651N1+02201+02101999999ADDGA1071+002401999GA2071+006001999GA3071+021001999GF107991999999999999999999MA1101491999999MW1611REMMET069METAR SBJP 140800Z 19004KT 9999 -RA BKN008 BKN020 BKN070 22/21 Q1015;
0176827980999992007081409004-07100-034867FM-15+0007SBJP V0201401N003610060019N0080001N1+02301+02101999999ADDGA1041+003001999GA2071+006001999GA3071+021001999GF107991999999999999999999MA1101491999999MW1611REMMET069METAR SBJP 140900Z 14007KT 8000 -RA SCT010 BKN020 BKN070 23/21 Q1015;
0120827980999992007081410004-07100-034867FM-15+0007SBJP V0201501N004110051019N0112651N1+02401+02201999999ADDGA1071+005101999GF107991999999999999999999MA1101491999999REMMET051METAR SBJP 141000Z 15008KT 9999 BKN017 24/22 Q1015;
0176827980999992007081411004-07100-034867FM-15+0007SBJP V0201201N004610030019N0030001N1+02301+02201999999ADDGA1041+001201999GA2071+003001999GA3071+005101999GF107991999999999999999999MA1101591999999MW1611REMMET069METAR SBJP 141100Z 12009KT 3000 -RA SCT004 BKN010 BKN017 23/22 Q1016;
0153827980999992007081412004-07100-034867FM-15+0007SBJP V0201501N006710024019N0040001N1+02401+02201999999ADDGA1071+002401999GA2071+005101999GF107991999999999999999999MA1101691999999MW1611REMMET062METAR SBJP 141200Z 15013KT 4000 -RA BKN008 BKN017 24/22 Q1017;
0155827980999992007081413004-07100-034867FM-15+0007SBJP V0201301N008210051019N0080001N1+02401+02201999999ADDGA1071+005101999GA2041+009001999GF107991999999999999999999MA1101691999999MW1161REMMET064METAR SBJP 141300Z 13016KT 8000S VCSH SCT030 BKN017 24/22 Q1017;
0165827980999992007081414004-07100-034867FM-15+0007SBJP V0201301N007210030019N0060001N1+02401+02201999999ADDGA1071+003001999GA2071+005101999GF107991999999999999999999MA1101591999999MW1161OC101231REMMET066METAR SBJP 141400Z 13014G24KT 6000 VCSH BKN010 BKN017 24/22 Q1016;
0153827980999992007081415004-07100-034867FM-15+0007SBJP V0201201N006210030019N0040001N1+02401+02201999999ADDGA1071+003001999GA2071+005101999GF107991999999999999999999MA1101591999999MW1611REMMET062METAR SBJP 141500Z 12012KT 4000 -RA BKN010 BKN017 24/22 Q1016;
0120827980999992007081416004-07100-034867FM-15+0007SBJP V0201601N009310054019N0112651N1+02701+02201999999ADDGA1071+005401999GF107991999999999999999999MA1101491999999REMMET051METAR SBJP 141600Z 16018KT 9999 BKN018 27/22 Q1015;
0120827980999992007081417004-07100-034867FM-15+0007SBJP V0201601N009310060019N0112651N1+02701+02001999999ADDGA1071+006001999GF107991999999999999999999MA1101491999999REMMET051METAR SBJP 141700Z 16018KT 9999 BKN020 27/20 Q1015;
0120827980999992007081418004-07100-034867FM-15+0007SBJP V0201701N008210060019N0112651N1+02701+02001999999ADDGA1071+006001999GF107991999999999999999999MA1101491999999REMMET051METAR SBJP 141800Z 17016KT 9999 BKN020 27/20 Q1015;
0120827980999992007081419004-07100-034867FM-15+0007SBJP V0201801N006210060019N0112651N1+02601+02101999999ADDGA1071+006001999GF107991999999999999999999MA1101491999999REMMET051METAR SBJP 141900Z 18012KT 9999 BKN020 26/21 Q1015;
0120827980999992007081420004-07100-034867FM-15+0007SBJP V0201801N005112200019N0112651N1+02501+02001999999ADDGA1041+006001999GF104991999999999999999999MA1101491999999REMMET051METAR SBJP 142000Z 18010KT 9999 SCT020 25/20 Q1015;
0120827980999992007081421004-07100-034867FM-15+0007SBJP V0201801N004112200019N0112651N1+02401+02001999999ADDGA1041+006001999GF104991999999999999999999MA1101591999999REMMET051METAR SBJP 142100Z 18008KT 9999 SCT020 24/20 Q1016;
0120827980999992007081422004-07100-034867FM-15+0007SBJP V0201901N003112200019N0112651N1+02301+02001999999ADDGA1021+006001999GF102991999999999999999999MA1101591999999REMMET051METAR SBJP 142200Z 19006KT 9999 FEW020 23/20 Q1016;
0143827980999992007081423004-07100-034867FM-15+0007SBJP V0202001N003612200019N0112651N1+02301+02001999999ADDGA1021+006001999GA2041+024001999GF104991999999999999999999MA1101591999999REMMET058METAR SBJP 142300Z 20007KT 9999 FEW020 SCT080 23/20 Q1016;
0120827980999992007081500004-07100-034867FM-15+0007SBJP V0202001N003112200019N0112651N1+02201+02001999999ADDGA1021+006001999GF102991999999999999999999MA1101691999999REMMET051METAR SBJP 150000Z 20006KT 9999 FEW020 22/20 Q1017;
0120827980999992007081501004-07100-034867FM-15+0007SBJP V0202101N002612200019N0112651N1+02201+02001999999ADDGA1021+006001999GF102991999999999999999999MA1101691999999REMMET051METAR SBJP 150100Z 21005KT 9999 FEW020 22/20 Q1017;
0120827980999992007081502004-07100-034867FM-15+0007SBJP V0202201N002112200019N0112651N1+02101+02001999999ADDGA1021+006001999GF102991999999999999999999MA1101691999999REMMET051METAR SBJP 150200Z 22004KT 9999 FEW020 21/20 Q1017;
0120827980999992007081503004-07100-034867FM-15+0007SBJP V0202201N002112200019N0112651N1+02101+02001999999ADDGA1021+006001999GF102991999999999999999999MA1101691999999REMMET051METAR SBJP 150300Z 22004KT 9999 FEW020 21/20 Q1017;
0120827980999992007081504004-07100-034867FM-15+0007SBJP V0202101N002112200019N0112651N1+02101+02001999999ADDGA1041+006001999GF104991999999999999999999MA1101591999999REMMET051METAR SBJP 150400Z 21004KT 9999 SCT020 21/20 Q1016;
0120827980999992007081505004-07100-034867FM-15+0007SBJP V0202101N001512200019N0112651N1+02101+01901999999ADDGA1041+006001999GF104991999999999999999999MA1101491999999REMMET051METAR SBJP 150500Z 21003KT 9999 SCT020 21/19 Q1015;
0072827980999992007081506004-07100-034867FM-15+0007SBJP V0202201N00151220001CN0099001N1+02001+01901999999ADDMA1101491999999REMMET045METAR SBJP 150600Z 22003KT CAVOK 20/19 Q1015;
0120827980999992007081507004-07100-034867FM-15+0007SBJP V0202201N001512200019N0112651N1+02001+01901999999ADDGA1041+006001999GF104991999999999999999999MA1101491999999REMMET051METAR SBJP 150700Z 22003KT 9999 SCT020 20/19 Q1015;
0120827980999992007081508004-07100-034867FM-15+0007SBJP V0202101N002112200019N0112651N1+02001+01901999999ADDGA1041+006001999GF104991999999999999999999MA1101491999999REMMET051METAR SBJP 150800Z 21004KT 9999 SCT020 20/19 Q1015;
0120827980999992007081509004-07100-034867FM-15+0007SBJP V0202201N002112200019N0112651N1+02001+01901999999ADDGA1021+006001999GF102991999999999999999999MA1101491999999REMMET051METAR SBJP 150900Z 22004KT 9999 FEW020 20/19 Q1015;
0120827980999992007081510004-07100-034867FM-15+0007SBJP V0202401N002112200019N0112651N1+02301+02101999999ADDGA1021+006001999GF102991999999999999999999MA1101491999999REMMET051METAR SBJP 151000Z 24004KT 9999 FEW020 23/21 Q1015;
0120827980999992007081511004-07100-034867FM-15+0007SBJP V0201801N002112200019N0112651N1+02601+02201999999ADDGA1041+006001999GF104991999999999999999999MA1101591999999REMMET051METAR SBJP 151100Z 18004KT 9999 SCT020 26/22 Q1016;
0120827980999992007081512004-07100-034867FM-15+0007SBJP V0201601N006212200019N0112651N1+02701+02001999999ADDGA1041+006001999GF104991999999999999999999MA1101591999999REMMET051METAR SBJP 151200Z 16012KT 9999 SCT020 27/20 Q1016;
0120827980999992007081513004-07100-034867FM-15+0007SBJP V0201601N007212200019N0112651N1+02801+02101999999ADDGA1041+006001999GF104991999999999999999999MA1101591999999REMMET051METAR SBJP 151300Z 16014KT 9999 SCT020 28/21 Q1016;
0130827980999992007081514004-07100-034867FM-15+0007SBJP V0201601N008210060019N0045001N1+02401+02201999999ADDGA1071+006001999GF107991999999999999999999MA1101591999999MW1611REMMET055METAR SBJP 151400Z 16016KT 4500 -RA BKN020 24/22 Q1016;
0120827980999992007081515004-07100-034867FM-15+0007SBJP V0201901N007210060019N0112651N1+02701+02201999999ADDGA1071+006001999GF107991999999999999999999MA1101491999999REMMET051METAR SBJP 151500Z 19014KT 9999 BKN020 27/22 Q1015;
0143827980999992007081517004-07100-034867FM-15+0007SBJP V0201901N005110036019N0112651N1+02301+02201999999ADDGA1071+003601999GA2071+005401999GF107991999999999999999999MA1101491999999REMMET058METAR SBJP 151700Z 19010KT 9999 BKN012 BKN018 23/22 Q1015;
0176827980999992007081518004-07100-034867FM-15+0007SBJP V0201901N006210030019N0040001N1+02201+02201999999ADDGA1071+003001999GA2041+005401999GA3071+021001999GF107991999999999999999999MA1101491999999MW1611REMMET069METAR SBJP 151800Z 19012KT 4000 -RA BKN010 SCT018 BKN070 22/22 Q1015;
0176827980999992007081519004-07100-034867FM-15+0007SBJP V0201901N006210030019N0050001N1+02201+02101999999ADDGA1071+003001999GA2041+005401999GA3071+021001999GF107991999999999999999999MA1101491999999MW1611REMMET069METAR SBJP 151900Z 19012KT 5000 -RA BKN010 SCT018 BKN070 22/21 Q1015;
0153827980999992007081520004-07100-034867FM-15+0007SBJP V0201901N004610030019N0080001N1+02201+02101999999ADDGA1071+003001999GA2071+021001999GF107991999999999999999999MA1101491999999MW1611REMMET062METAR SBJP 152000Z 19009KT 8000 -RA BKN010 BKN070 22/21 Q1015;
0153827980999992007081521004-07100-034867FM-15+0007SBJP V0202001N004110036019N0112651N1+02201+02101999999ADDGA1071+003601999GA2081+021001999GF108991999999999999999999MA1101491999999MW1611REMMET062METAR SBJP 152100Z 20008KT 9999 -RA BKN012 OVC070 22/21 Q1015;
0143827980999992007081522004-07100-034867FM-15+0007SBJP V0202201N004110210019N0112651N1+02201+02101999999ADDGA1041+003001999GA2081+021001999GF108991999999999999999999MA1101591999999REMMET058METAR SBJP 152200Z 22008KT 9999 SCT010 OVC070 22/21 Q1016;
0143827980999992007081523004-07100-034867FM-15+0007SBJP V0202301N003110210019N0112651N1+02101+02001999999ADDGA1041+003001999GA2071+021001999GF107991999999999999999999MA1101591999999REMMET058METAR SBJP 152300Z 23006KT 9999 SCT010 BKN070 21/20 Q1016;
0143827980999992007081600004-07100-034867FM-15+0007SBJP V0202401N002610210019N0112651N1+02201+02101999999ADDGA1041+003001999GA2071+021001999GF107991999999999999999999MA1101691999999REMMET058METAR SBJP 160000Z 24005KT 9999 SCT010 BKN070 22/21 Q1017;
0153827980999992007081601004-07100-034867FM-15+0007SBJP V0202201N003110030019N0112651N1+02201+02101999999ADDGA1071+003001999GA2071+021001999GF107991999999999999999999MA1101691999999MW1611REMMET062METAR SBJP 160100Z 22006KT 9999 -RA BKN010 BKN070 22/21 Q1017;
0153827980999992007081613004-07100-034867FM-15+0007SBJP V0201601N003610042019N0040001N1+02401+02201999999ADDGA1071+004201999GA2071+021001999GF107991999999999999999999MA1101691999999MW1611REMMET062METAR SBJP 161300Z 16007KT 4000 -RA BKN014 BKN070 24/22 Q1017;
0153827980999992007081614004-07100-034867FM-15+0007SBJP V0201601N004610045019N0050001N1+02401+02301999999ADDGA1071+004501999GA2081+021001999GF108991999999999999999999MA1101591999999MW1611REMMET062METAR SBJP 161400Z 16009KT 5000 -RA BKN015 OVC070 24/23 Q1016;
0153827980999992007081615004-07100-034867FM-15+0007SBJP V0201701N004610045019N0050001N1+02401+02201999999ADDGA1071+004501999GA2081+021001999GF108991999999999999999999MA1101591999999MW1611REMMET062METAR SBJP 161500Z 17009KT 5000 -RA BKN015 OVC070 24/22 Q1016;
0143827980999992007081616004-07100-034867FM-15+0007SBJP V0201501N005710210019N0112651N1+02601+02101999999ADDGA1041+005101999GA2071+021001999GF107991999999999999999999MA1101491999999REMMET058METAR SBJP 161600Z 15011KT 9999 SCT017 BKN070 26/21 Q1015;
0120827980999992007081617004-07100-034867FM-15+0007SBJP V0201601N007212200019N0112651N1+02701+02001999999ADDGA1041+007501999GF104991999999999999999999MA1101391999999REMMET051METAR SBJP 161700Z 16014KT 9999 SCT025 27/20 Q1014;
0120827980999992007082210004-07100-034867FM-15+0007SBJP V0202301N002112200019N0112651N1+02301+02001999999ADDGA1021+006001999GF102991999999999999999999MA1101591999999REMMET051METAR SBJP 221000Z 23004KT 9999 FEW020 23/20 Q1016;
0153827980999992007083002004-07100-034867FM-15+0007SBJP V0201901N002112200019N0070001N1+02201+02101999999ADDGA1041+003601999GA2041+021001999GF104991999999999999999999MA1101691999999MW1611REMMET062METAR SBJP 300200Z 19004KT 7000 -RA SCT012 SCT070 22/21 Q1017;
0136827980999992007083113004-07100-034867FM-15+0007SBJP V0201701N00671220001CN0112651N1+02801+02201999999ADDGA1071+006001999GA2041+021001999MA1101801999999REMMET058METAR SBJP 311300Z 17013KT 9999 BKN020 SCT070 28/22 Q1018;EQDQ01+000042SCOTCV
0143827980999992007083114004-07100-034867FM-15+0007SBJP V0201701N006710210019N0112651N1+02801+02001999999ADDGA1041+006001999GA2071+021001999GF107991999999999999999999MA1101801999999REMMET058METAR SBJP 311400Z 17013KT 9999 SCT020 BKN070 28/20 Q1018;
0143827980999992007083115004-07100-034867FM-15+0007SBJP V0201701N007210240019N0112651N1+02801+01801999999ADDGA1021+007501999GA2071+024001999GF107991999999999999999999MA1101691999999REMMET058METAR SBJP 311500Z 17014KT 9999 FEW025 BKN080 28/18 Q1017;
0072827980999992007083122004-07100-034867FM-15+0007SBJP V0201801N00261220001CN0099001N1+02401+02001999999ADDMA1101691999999REMMET045METAR SBJP 312200Z 18005KT CAVOK 24/20 Q1017;
0072827980999992007083123004-07100-034867FM-15+0007SBJP V0201801N00261220001CN0099001N1+02301+02001999999ADDMA1101691999999REMMET045METAR SBJP 312300Z 18005KT CAVOK 23/20 Q1017;
0072827980999992007090100004-07100-034867FM-15+0007SBJP V0202001N00211220001CN0099001N1+02301+02001999999ADDMA1101801999999REMMET045METAR SBJP 010000Z 20004KT CAVOK 23/20 Q1018;
0120827980999992007090101004-07100-034867FM-15+0007SBJP V0202101N002612200019N0112651N1+02201+02001999999ADDGA1041+009001999GF104991999999999999999999MA1101801999999REMMET051METAR SBJP 010100Z 21005KT 9999 SCT030 22/20 Q1018;
0120827980999992007090102004-07100-034867FM-15+0007SBJP V0202101N002612200019N0112651N1+02201+02001999999ADDGA1021+009001999GF102991999999999999999999MA1101801999999REMMET051METAR SBJP 010200Z 21005KT 9999 FEW030 22/20 Q1018;
0072827980999992007090103004-07100-034867FM-15+0007SBJP V0202001N00211220001CN0099001N1+02201+02001999999ADDMA1101691999999REMMET045METAR SBJP 010300Z 20004KT CAVOK 22/20 Q1017;
0120827980999992007090104004-07100-034867FM-15+0007SBJP V0202101N002610045019N0112651N1+02201+02001999999ADDGA1071+004501999GF107991999999999999999999MA1101691999999REMMET051METAR SBJP 010400Z 21005KT 9999 BKN015 22/20 Q1017;
0120827980999992007090105004-07100-034867FM-15+0007SBJP V0202101N003110060019N0112651N1+02201+02001999999ADDGA1071+006001999GF107991999999999999999999MA1101591999999REMMET051METAR SBJP 010500Z 21006KT 9999 BKN020 22/20 Q1016;
0120827980999992007090106004-07100-034867FM-15+0007SBJP V0202101N003110060019N0112651N1+02201+02001999999ADDGA1071+006001999GF107991999999999999999999MA1101591999999REMMET051METAR SBJP 010600Z 21006KT 9999 BKN020 22/20 Q1016;
0120827980999992007090107004-07100-034867FM-15+0007SBJP V0201901N001510060019N0112651N1+02201+02101999999ADDGA1071+006001999GF107991999999999999999999MA1101591999999REMMET051METAR SBJP 010700Z 19003KT 9999 BKN020 22/21 Q1016;
0120827980999992007090108004-07100-034867FM-15+0007SBJP V0202101N003112200019N0112651N1+02201+02001999999ADDGA1041+006001999GF104991999999999999999999MA1101591999999REMMET051METAR SBJP 010800Z 21006KT 9999 SCT020 22/20 Q1016;
0120827980999992007090109004-07100-034867FM-15+0007SBJP V0202101N003112200019N0112651N1+02201+02001999999ADDGA1041+006001999GF104991999999999999999999MA1101591999999REMMET051METAR SBJP 010900Z 21006KT 9999 SCT020 22/20 Q1016;
0120827980999992007090110004-07100-034867FM-15+0007SBJP V0202201N004612200019N0112651N1+02301+02001999999ADDGA1041+007501999GF104991999999999999999999MA1101691999999REMMET051METAR SBJP 011000Z 22009KT 9999 SCT025 23/20 Q1017;
0120827980999992007090111004-07100-034867FM-15+0007SBJP V0202101N004612200019N0112651N1+02501+02101999999ADDGA1041+007501999GF104991999999999999999999MA1101801999999REMMET051METAR SBJP 011100Z 21009KT 9999 SCT025 25/21 Q1018;
0120827980999992007090112004-07100-034867FM-15+0007SBJP V0202001N006210075019N0112651N1+02601+02101999999ADDGA1071+007501999GF107991999999999999999999MA1101801999999REMMET051METAR SBJP 011200Z 20012KT 9999 BKN025 26/21 Q1018;
0120827980999992007090113004-07100-034867FM-15+0007SBJP V0201801N005712200019N0112651N1+02701+02201999999ADDGA1041+007501999GF104991999999999999999999MA1101801999999REMMET051METAR SBJP 011300Z 18011KT 9999 SCT025 27/22 Q1018;
0120827980999992007090114004-07100-034867FM-15+0007SBJP V0201901N008212200019N0112651N1+02801+02101999999ADDGA1041+007501999GF104991999999999999999999MA1101801999999REMMET051METAR SBJP 011400Z 19016KT 9999 SCT025 28/21 Q1018;
0120827980999992007090115004-07100-034867FM-15+0007SBJP V0201901N007212200019N0112651N1+02901+02001999999ADDGA1041+007501999GF104991999999999999999999MA1101691999999REMMET051METAR SBJP 011500Z 19014KT 9999 SCT025 29/20 Q1017;
0120827980999992007090116004-07100-034867FM-15+0007SBJP V0201501N006712200019N0112651N1+02901+02101999999ADDGA1041+009001999GF104991999999999999999999MA1101591999999REMMET051METAR SBJP 011600Z 15013KT 9999 SCT030 29/21 Q1016;
0120827980999992007090117004-07100-034867FM-15+0007SBJP V0201401N006712200019N0112651N1+02901+02101999999ADDGA1041+009001999GF104991999999999999999999MA1101491999999REMMET051METAR SBJP 011700Z 14013KT 9999 SCT030 29/21 Q1015;
0120827980999992007090118004-07100-034867FM-15+0007SBJP V0201501N007712200019N0112651N1+02801+02101999999ADDGA1021+009001999GF102991999999999999999999MA1101491999999REMMET051METAR SBJP 011800Z 15015KT 9999 FEW030 28/21 Q1015;
0143827980999992007090119004-07100-034867FM-15+0007SBJP V0201701N005112200019N0112651N1+02701+02001999999ADDGA1021+009001999GA2041+021001999GF104991999999999999999999MA1101491999999REMMET058METAR SBJP 011900Z 17010KT 9999 FEW030 SCT070 27/20 Q1015;
0072827980999992007090120004-07100-034867FM-15+0007SBJP V0201501N00511220001CN0099001N1+02601+02001999999ADDMA1101591999999REMMET045METAR SBJP 012000Z 15010KT CAVOK 26/20 Q1016;
0072827980999992007090121004-07100-034867FM-15+0007SBJP V0201501N00411220001CN0099001N1+02501+02001999999ADDMA1101591999999REMMET045METAR SBJP 012100Z 15008KT CAVOK 25/20 Q1016;
0072827980999992007090122004-07100-034867FM-15+0007SBJP V0201901N00311220001CN0099001N1+02401+02101999999ADDMA1101591999999REMMET045METAR SBJP 012200Z 19006KT CAVOK 24/21 Q1016;
0072827980999992007090123004-07100-034867FM-15+0007SBJP V0201901N00311220001CN0099001N1+02301+02101999999ADDMA1101691999999REMMET045METAR SBJP 012300Z 19006KT CAVOK 23/21 Q1017;
0143827980999992007090200004-07100-034867FM-15+0007SBJP V0202101N002612200019N0112651N1+02301+02101999999ADDGA1041+005401999GA2041+021001999GF104991999999999999999999MA1101691999999REMMET058METAR SBJP 020000Z 21005KT 9999 SCT018 SCT070 23/21 Q1017;
0143827980999992007090201004-07100-034867FM-15+0007SBJP V0202001N002612200019N0112651N1+02401+02201999999ADDGA1041+005401999GA2041+021001999GF104991999999999999999999MA1101801999999REMMET058METAR SBJP 020100Z 20005KT 9999 SCT018 SCT070 24/22 Q1018;
0143827980999992007090202004-07100-034867FM-15+0007SBJP V0202101N002612200019N0112651N1+02401+02201999999ADDGA1041+005401999GA2041+021001999GF104991999999999999999999MA1101801999999REMMET058METAR SBJP 020200Z 21005KT 9999 SCT018 SCT070 24/22 Q1018;
0143827980999992007090203004-07100-034867FM-15+0007SBJP V0202001N002612200019N0112651N1+02401+02201999999ADDGA1041+005401999GA2041+021001999GF104991999999999999999999MA1101691999999REMMET058METAR SBJP 020300Z 20005KT 9999 SCT018 SCT070 24/22 Q1017;
0143827980999992007090204004-07100-034867FM-15+0007SBJP V0202201N001512200019N0112651N1+02301+02201999999ADDGA1041+005401999GA2041+021001999GF104991999999999999999999MA1101691999999REMMET058METAR SBJP 020400Z 22003KT 9999 SCT018 SCT070 23/22 Q1017;
0143827980999992007090205004-07100-034867FM-15+0007SBJP V0201901N003112200019N0112651N1+02401+02101999999ADDGA1021+005401999GA2041+021001999GF104991999999999999999999MA1101591999999REMMET058METAR SBJP 020500Z 19006KT 9999 FEW018 SCT070 24/21 Q1016;
0143827980999992007090206004-07100-034867FM-15+0007SBJP V0202101N002112200019N0112651N1+02401+02101999999ADDGA1021+006001999GA2041+021001999GF104991999999999999999999MA1101691999999REMMET058METAR SBJP 020600Z 21004KT 9999 FEW020 SCT070 24/21 Q1017;
0143827980999992007090207004-07100-034867FM-15+0007SBJP V0201801N002612200019N0112651N1+02401+02101999999ADDGA1041+006001999GA2041+021001999GF104991999999999999999999MA1101691999999REMMET058METAR SBJP 020700Z 18005KT 9999 SCT020 SCT070 24/21 Q1017;
0143827980999992007090208004-07100-034867FM-15+0007SBJP V0201801N003612200019N0112651N1+02401+02101999999ADDGA1041+006001999GA2041+021001999GF104991999999999999999999MA1101691999999REMMET058METAR SBJP 020800Z 18007KT 9999 SCT020 SCT070 24/21 Q1017;
0143827980999992007090209004-07100-034867FM-15+0007SBJP V0201901N003612200019N0112651N1+02401+02101999999ADDGA1021+006001999GA2041+021001999GF104991999999999999999999MA1101691999999REMMET058METAR SBJP 020900Z 19007KT 9999 FEW020 SCT070 24/21 Q1017;
0072827980999992007090210004-07100-034867FM-15+0007SBJP V0201501N00361220001CN0099001N1+02601+02101999999ADDMA1101801999999REMMET045METAR SBJP 021000Z 15007KT CAVOK 26/21 Q1018;
0136827980999992007090211004-07100-034867FM-15+0007SBJP V0201601N00621220001CN0112651N1+02701+02101999999ADDGA1071+007501999GA2041+021001999MA1101801999999REMMET058METAR SBJP 021100Z 16012KT 9999 BKN025 SCT070 27/21 Q1018;EQDQ01+000042SCOTCV
0143827980999992007090212004-07100-034867FM-15+0007SBJP V0201401N007712200019N0112651N1+02801+02101999999ADDGA1041+009001999GA2041+021001999GF104991999999999999999999MA1101901999999REMMET058METAR SBJP 021200Z 14015KT 9999 SCT030 SCT070 28/21 Q1019;
0143827980999992007090213004-07100-034867FM-15+0007SBJP V0201501N006712200019N0112651N1+02801+02101999999ADDGA1041+009001999GA2041+021001999GF104991999999999999999999MA1101901999999REMMET058METAR SBJP 021300Z 15013KT 9999 SCT030 SCT070 28/21 Q1019;
0143827980999992007090214004-07100-034867FM-15+0007SBJP V0201401N006712200019N0112651N1+02901+02001999999ADDGA1041+009001999GA2041+021001999GF104991999999999999999999MA1101801999999REMMET058METAR SBJP 021400Z 14013KT 9999 SCT030 SCT070 29/20 Q1018;
0120827980999992007090215004-07100-034867FM-15+0007SBJP V0201701N007212200019N0112651N1+02801+02001999999ADDGA1041+009001999GF104991999999999999999999MA1101801999999REMMET051METAR SBJP 021500Z 17014KT 9999 SCT030 28/20 Q1018;
0143827980999992007090216004-07100-034867FM-15+0007SBJP V0201501N007712200019N0112651N1+02701+02001999999ADDGA1041+007501999GA2041+021001999GF104991999999999999999999MA1101691999999REMMET058METAR SBJP 021600Z 15015KT 9999 SCT025 SCT070 27/20 Q1017;
0143827980999992007090217004-07100-034867FM-15+0007SBJP V0201701N007210210019N0112651N1+02801+01901999999ADDGA1041+007501999GA2071+021001999GF107991999999999999999999MA1101691999999REMMET058METAR SBJP 021700Z 17014KT 9999 SCT025 BKN070 28/19 Q1017;
0143827980999992007090218004-07100-034867FM-15+0007SBJP V0201701N006710210019N0112651N1+02701+02001999999ADDGA1041+007501999GA2071+021001999GF107991999999999999999999MA1101591999999REMMET058METAR SBJP 021800Z 17013KT 9999 SCT025 BKN070 27/20 Q1016;
0143827980999992007090219004-07100-034867FM-15+0007SBJP V0201601N006712200019N0112651N1+02701+01901999999ADDGA1041+007501999GA2041+021001999GF104991999999999999999999MA1101591999999REMMET058METAR SBJP 021900Z 16013KT 9999 SCT025 SCT070 27/19 Q1016;
0120827980999992007090220004-07100-034867FM-15+0007SBJP V0201701N005112200019N0112651N1+02601+02001999999ADDGA1021+007501999GF102991999999999999999999MA1101591999999REMMET051METAR SBJP 022000Z 17010KT 9999 FEW025 26/20 Q1016;
0072827980999992007090221004-07100-034867FM-15+0007SBJP V0201901N00361220001CN0099001N1+02401+02001999999ADDMA1101691999999REMMET045METAR SBJP 022100Z 19007KT CAVOK 24/20 Q1017;
0120827980999992007090222004-07100-034867FM-15+0007SBJP V0202001N003112200019N0112651N1+02401+02001999999ADDGA1021+007501999GF102991999999999999999999MA1101691999999REMMET051METAR SBJP 022200Z 20006KT 9999 FEW025 24/20 Q1017;
0120827980999992007090223004-07100-034867FM-15+0007SBJP V0202001N002112200019N0112651N1+02301+02001999999ADDGA1021+007501999GF102991999999999999999999MA1101801999999REMMET051METAR SBJP 022300Z 20004KT 9999 FEW025 23/20 Q1018;
0120827980999992007090300004-07100-034867FM-15+0007SBJP V0202201N002112200019N0112651N1+02301+02101999999ADDGA1021+007501999GF102991999999999999999999MA1101801999999REMMET051METAR SBJP 030000Z 22004KT 9999 FEW025 23/21 Q1018;
0072827980999992007090301004-07100-034867FM-15+0007SBJP V0202201N00211220001CN0099001N1+02201+02001999999ADDMA1101801999999REMMET045METAR SBJP 030100Z 22004KT CAVOK 22/20 Q1018;
0120827980999992007090302004-07100-034867FM-15+0007SBJP V0202301N002112200019N0112651N1+02201+02001999999ADDGA1021+007501999GF102991999999999999999999MA1101801999999REMMET051METAR SBJP 030200Z 23004KT 9999 FEW025 22/20 Q1018;
0072827980999992007090303004-07100-034867FM-15+0007SBJP V0202201N00101220001CN0099001N1+02201+02001999999ADDMA1101691999999REMMET045METAR SBJP 030300Z 22002KT CAVOK 22/20 Q1017;
0120827980999992007090304004-07100-034867FM-15+0007SBJP V0202301N001512200019N0112651N1+02101+02001999999ADDGA1041+009001999GF104991999999999999999999MA1101691999999REMMET051METAR SBJP 030400Z 23003KT 9999 SCT030 21/20 Q1017;
0120827980999992007090305004-07100-034867FM-15+0007SBJP V0202301N002112200019N0112651N1+02101+01901999999ADDGA1021+009001999GF102991999999999999999999MA1101691999999REMMET051METAR SBJP 030500Z 23004KT 9999 FEW030 21/19 Q1017;
0143827980999992007090306004-07100-034867FM-15+0007SBJP V0202301N002612200019N0112651N1+02101+01901999999ADDGA1021+009001999GA2041+021001999GF104991999999999999999999MA1101691999999REMMET058METAR SBJP 030600Z 23005KT 9999 FEW030 SCT070 21/19 Q1017;
0072827980999992007090307004-07100-034867FM-15+0007SBJP V0202101N00211220001CN0099001N1+02001+01901999999ADDMA1101691999999REMMET045METAR SBJP 030700Z 21004KT CAVOK 20/19 Q1017;
0120827980999992007090308004-07100-034867FM-15+0007SBJP V0202201N002112200019N0112651N1+02001+01901999999ADDGA1041+006001999GF104991999999999999999999MA1101691999999REMMET051METAR SBJP 030800Z 22004KT 9999 SCT020 20/19 Q1017;
0143827980999992007090309004-07100-034867FM-15+0007SBJP V0202201N001512200019N0112651N1+02001+01901999999ADDGA1041+006001999GA2041+021001999GF104991999999999999999999MA1101801999999REMMET058METAR SBJP 030900Z 22003KT 9999 SCT020 SCT070 20/19 Q1018;
0120827980999992007090310004-07100-034867FM-15+0007SBJP V0202001N002612200019N0112651N1+02301+02001999999ADDGA1041+006001999GF104991999999999999999999MA1101801999999REMMET051METAR SBJP 031000Z 20005KT 9999 SCT020 23/20 Q1018;
0120827980999992007090311004-07100-034867FM-15+0007SBJP V0201601N003110060019N0112651N1+02601+02201999999ADDGA1071+006001999GF107991999999999999999999MA1101901999999REMMET051METAR SBJP 031100Z 16006KT 9999 BKN020 26/22 Q1019;
0120827980999992007090312004-07100-034867FM-15+0007SBJP V0201201N006210090019N0112651N1+02801+02001999999ADDGA1071+009001999GF107991999999999999999999MA1101901999999REMMET051METAR SBJP 031200Z 12012KT 9999 BKN030 28/20 Q1019;
0120827980999992007090313004-07100-034867FM-15+0007SBJP V0201401N006210090019N0112651N1+02901+02001999999ADDGA1071+009001999GF107991999999999999999999MA1101901999999REMMET051METAR SBJP 031300Z 14012KT 9999 BKN030 29/20 Q1019;
0120827980999992007090314004-07100-034867FM-15+0007SBJP V0201301N007210090019N0112651N1+02901+01901999999ADDGA1071+009001999GF107991999999999999999999MA1101801999999REMMET051METAR SBJP 031400Z 13014KT 9999 BKN030 29/19 Q1018;
0120827980999992007090315004-07100-034867FM-15+0007SBJP V0201401N006210090019N0112651N1+02801+02001999999ADDGA1071+009001999GF107991999999999999999999MA1101691999999REMMET051METAR SBJP 031500Z 14012KT 9999 BKN030 28/20 Q1017;
0120827980999992007090316004-07100-034867FM-15+0007SBJP V0201801N007210090019N0112651N1+02701+01901999999ADDGA1071+009001999GF107991999999999999999999MA1101591999999REMMET051METAR SBJP 031600Z 18014KT 9999 BKN030 27/19 Q1016;
0120827980999992007090317004-07100-034867FM-15+0007SBJP V0201801N006210090019N0112651N1+02901+02001999999ADDGA1071+009001999GF107991999999999999999999MA1101591999999REMMET051METAR SBJP 031700Z 18012KT 9999 BKN030 29/20 Q1016;
0120827980999992007090318004-07100-034867FM-15+0007SBJP V0201601N006210090019N0112651N1+02801+02001999999ADDGA1071+009001999GF107991999999999999999999MA1101591999999REMMET051METAR SBJP 031800Z 16012KT 9999 BKN030 28/20 Q1016;
0120827980999992007090319004-07100-034867FM-15+0007SBJP V0201801N006212200019N0112651N1+02701+02001999999ADDGA1041+009001999GF104991999999999999999999MA1101591999999REMMET051METAR SBJP 031900Z 18012KT 9999 SCT030 27/20 Q1016;
0120827980999992007090320004-07100-034867FM-15+0007SBJP V0201801N003112200019N0112651N1+02501+02001999999ADDGA1021+009001999GF102991999999999999999999MA1101691999999REMMET051METAR SBJP 032000Z 18006KT 9999 FEW030 25/20 Q1017;
0120827980999992007090321004-07100-034867FM-15+0007SBJP V0201801N005112200019N0112651N1+02501+02101999999ADDGA1021+009001999GF102991999999999999999999MA1101691999999REMMET051METAR SBJP 032100Z 18010KT 9999 FEW030 25/21 Q1017;
0143827980999992007090322004-07100-034867FM-15+0007SBJP V0201601N007210075019N0112651N1+02201+02001999999ADDGA1041+004501999GA2071+007501999GF107991999999999999999999MA1101801999999REMMET058METAR SBJP 032200Z 16014KT 9999 SCT015 BKN025 22/20 Q1018;
0143827980999992007090323004-07100-034867FM-15+0007SBJP V0201601N002112200019N0112651N1+02201+02001999999ADDGA1021+004501999GA2041+007501999GF104991999999999999999999MA1101801999999REMMET058METAR SBJP 032300Z 16004KT 9999 FEW015 SCT025 22/20 Q1018;
0143827980999992007090400004-07100-034867FM-15+0007SBJP V0201901N003112200019N0112651N1+02301+02001999999ADDGA1021+004501999GA2041+007501999GF104991999999999999999999MA1101901999999REMMET058METAR SBJP 040000Z 19006KT 9999 FEW015 SCT025 23/20 Q1019;
0120827980999992007090401004-07100-034867FM-15+0007SBJP V0202201N002612200019N0112651N1+02201+02001999999ADDGA1021+007501999GF102991999999999999999999MA1101901999999REMMET051METAR SBJP 040100Z 22005KT 9999 FEW025 22/20 Q1019;
0143827980999992007090402004-07100-034867FM-15+0007SBJP V0202301N002112200019N0112651N1+02201+02001999999ADDGA1021+003001999GA2041+007501999GF104991999999999999999999MA1101901999999REMMET058METAR SBJP 040200Z 23004KT 9999 FEW010 SCT025 22/20 Q1019;
0120827980999992007090403004-07100-034867FM-15+0007SBJP V0202201N003112200019N0112651N1+02201+02001999999ADDGA1041+007501999GF104991999999999999999999MA1101801999999REMMET051METAR SBJP 040300Z 22006KT 9999 SCT025 22/20 Q1018;
0153827980999992007090404004-07100-034867FM-15+0007SBJP V0202101N004112200019N0112651N1+02201+02101999999ADDGA1041+006001999GA2041+021001999GF104991999999999999999999MA1101691999999MW1611REMMET062METAR SBJP 040400Z 21008KT 9999 -RA SCT020 SCT070 22/21 Q1017;
0143827980999992007090405004-07100-034867FM-15+0007SBJP V0202401N002112200019N0112651N1+02201+02101999999ADDGA1041+005401999GA2041+021001999GF104991999999999999999999MA1101691999999REMMET058METAR SBJP 040500Z 24004KT 9999 SCT018 SCT070 22/21 Q1017;
0143827980999992007090406004-07100-034867FM-15+0007SBJP V0201901N002112200019N0112651N1+02101+02101999999ADDGA1041+005401999GA2041+021001999GF104991999999999999999999MA1101691999999REMMET058METAR SBJP 040600Z 19004KT 9999 SCT018 SCT070 21/21 Q1017;
0120827980999992007090407004-07100-034867FM-15+0007SBJP V0202201N002112200019N0112651N1+02101+02001999999ADDGA1041+005401999GF104991999999999999999999MA1101691999999REMMET051METAR SBJP 040700Z 22004KT 9999 SCT018 21/20 Q1017;
0120827980999992007090408004-07100-034867FM-15+0007SBJP V0202301N002112200019N0112651N1+02101+02001999999ADDGA1021+006001999GF102991999999999999999999MA1101691999999REMMET051METAR SBJP 040800Z 23004KT 9999 FEW020 21/20 Q1017;
0120827980999992007090409004-07100-034867FM-15+0007SBJP V0202301N002112200019N0112651N1+02101+02001999999ADDGA1021+006001999GF102991999999999999999999MA1101691999999REMMET051METAR SBJP 040900Z 23004KT 9999 FEW020 21/20 Q1017;
0120827980999992007090410004-07100-034867FM-15+0007SBJP V0202101N002112200019N0112651N1+02301+02101999999ADDGA1021+006001999GF102991999999999999999999MA1101801999999REMMET051METAR SBJP 041000Z 21004KT 9999 FEW020 23/21 Q1018;
0120827980999992007090411004-07100-034867FM-15+0007SBJP V0201601N004112200019N0112651N1+02601+02201999999ADDGA1041+006001999GF104991999999999999999999MA1101901999999REMMET051METAR SBJP 041100Z 16008KT 9999 SCT020 26/22 Q1019;
0120827980999992007090412004-07100-034867FM-15+0007SBJP V0201601N006212200019N0112651N1+02701+02101999999ADDGA1041+006001999GF104991999999999999999999MA1101901999999REMMET051METAR SBJP 041200Z 16012KT 9999 SCT020 27/21 Q1019;
0120827980999992007090413004-07100-034867FM-15+0007SBJP V0201601N007212200019N0112651N1+02801+02101999999ADDGA1041+006001999GF104991999999999999999999MA1101901999999REMMET051METAR SBJP 041300Z 16014KT 9999 SCT020 28/21 Q1019;
0120827980999992007090415004-07100-034867FM-15+0007SBJP V0201501N004112200019N0112651N1+02901+02101999999ADDGA1041+006001999GF104991999999999999999999MA1101691999999REMMET051METAR SBJP 041500Z 15008KT 9999 SCT020 29/21 Q1017;
0120827980999992007090416004-07100-034867FM-15+0007SBJP V0201401N005712200019N0112651N1+02901+02201999999ADDGA1041+006001999GF104991999999999999999999MA1101691999999REMMET051METAR SBJP 041600Z 14011KT 9999 SCT020 29/22 Q1017;
0120827980999992007090417004-07100-034867FM-15+0007SBJP V0201601N006712200019N0112651N1+02901+02101999999ADDGA1041+009001999GF104991999999999999999999MA1101591999999REMMET051METAR SBJP 041700Z 16013KT 9999 SCT030 29/21 Q1016;
0120827980999992007090418004-07100-034867FM-15+0007SBJP V0201601N006212200019N0112651N1+02801+02101999999ADDGA1041+007501999GF104991999999999999999999MA1101591999999REMMET051METAR SBJP 041800Z 16012KT 9999 SCT025 28/21 Q1016;
0120827980999992007090419004-07100-034867FM-15+0007SBJP V0201601N006212200019N0112651N1+02701+02101999999ADDGA1041+007501999GF104991999999999999999999MA1101591999999REMMET051METAR SBJP 041900Z 16012KT 9999 SCT025 27/21 Q1016;
0120827980999992007090420004-07100-034867FM-15+0007SBJP V0201601N005712200019N0112651N1+02501+02201999999ADDGA1041+007501999GF104991999999999999999999MA1101591999999REMMET051METAR SBJP 042000Z 16011KT 9999 SCT025 25/22 Q1016;
0143827980999992007090421004-07100-034867FM-15+0007SBJP V0201701N003112200019N0112651N1+02401+02201999999ADDGA1021+004501999GA2041+007501999GF104991999999999999999999MA1101691999999REMMET058METAR SBJP 042100Z 17006KT 9999 FEW015 SCT025 24/22 Q1017;
0143827980999992007090422004-07100-034867FM-15+0007SBJP V0201801N003112200019N0112651N1+02301+02201999999ADDGA1041+004501999GA2041+007501999GF104991999999999999999999MA1101691999999REMMET058METAR SBJP 042200Z 18006KT 9999 SCT015 SCT025 23/22 Q1017;
0143827980999992007090423004-07100-034867FM-15+0007SBJP V0201701N004612200019N0112651N1+02301+02201999999ADDGA1041+004501999GA2041+007501999GF104991999999999999999999MA1101801999999REMMET058METAR SBJP 042300Z 17009KT 9999 SCT015 SCT025 23/22 Q1018;
0166827980999992007090500004-07100-034867FM-15+0007SBJP V0201701N00361006001CN0112651N1+02401+02301999999ADDGA1041+002401999GA2041+006001999GA3071+021001999GF107991999999999999999999MA1101801999999REMMET065METAR SBJP 050000Z 17007KT 9999 SCT008 SCT020 BKN070 24/23 Q1018;
0153827980999992007090501004-07100-034867FM-15+0007SBJP V0201801N003610024019N0040001N1+02401+02301999999ADDGA1071+002401999GA2071+021001999GF107991999999999999999999MA1101801999999MW1611REMMET062METAR SBJP 050100Z 18007KT 4000 -RA BKN008 BKN070 24/23 Q1018;
0153827980999992007090502004-07100-034867FM-15+0007SBJP V0201601N004110024019N0050001N1+02401+02201999999ADDGA1071+002401999GA2071+021001999GF107991999999999999999999MA1101801999999MW1611REMMET062METAR SBJP 050200Z 16008KT 5000 -RA BKN008 BKN070 24/22 Q1018;
0153827980999992007090503004-07100-034867FM-15+0007SBJP V0201801N004610024019N0040001N1+02401+02201999999ADDGA1071+002401999GA2071+021001999GF107991999999999999999999MA1101691999999MW1611REMMET062METAR SBJP 050300Z 18009KT 4000 -RA BKN008 BKN070 24/22 Q1017;
0153827980999992007090504004-07100-034867FM-15+0007SBJP V0201701N004110024019N0025001N1+02401+02301999999ADDGA1071+002401999GA2071+021001999GF107991999999999999999999MA1101691999999MW1611REMMET062METAR SBJP 050400Z 17008KT 2500 -RA BKN008 BKN070 24/23 Q1017;
0153827980999992007090505004-07100-034867FM-15+0007SBJP V0201501N006210024019N0030001N1+02301+02201999999ADDGA1071+002401999GA2071+021001999GF107991999999999999999999MA1101591999999MW1611REMMET062METAR SBJP 050500Z 15012KT 3000 -RA BKN008 BKN070 23/22 Q1016;
0176827980999992007090602004-07100-034867FM-15+0007SBJP V0201601N002610042019N0080001N1+02301+02201999999ADDGA1041+003001999GA2071+004201999GA3081+021001999GF108991999999999999999999MA1101801999999MW1611REMMET069METAR SBJP 060200Z 16005KT 8000 -RA SCT010 BKN014 OVC070 23/22 Q1018;
0143827980999992007090603004-07100-034867FM-15+0007SBJP V0201501N005110210019N0112651N1+02401+02201999999ADDGA1041+006001999GA2081+021001999GF108991999999999999999999MA1101691999999REMMET058METAR SBJP 060300Z 15010KT 9999 SCT020 OVC070 24/22 Q1017;
0143827980999992007090604004-07100-034867FM-15+0007SBJP V0201801N005110210019N0112651N1+02401+02201999999ADDGA1041+006001999GA2071+021001999GF107991999999999999999999MA1101691999999REMMET058METAR SBJP 060400Z 18010KT 9999 SCT020 BKN070 24/22 Q1017;
0176827980999992007090605004-07100-034867FM-15+0007SBJP V0201601N004610060019N0040001N1+02301+02201999999ADDGA1041+003601999GA2071+006001999GA3071+021001999GF107991999999999999999999MA1101691999999MW1611REMMET069METAR SBJP 060500Z 16009KT 4000 -RA SCT012 BKN020 BKN070 23/22 Q1017;
0176827980999992007090606004-07100-034867FM-15+0007SBJP V0201801N003610060019N0080001N1+02301+02201999999ADDGA1021+003601999GA2071+006001999GA3071+021001999GF107991999999999999999999MA1101691999999MW1611REMMET069METAR SBJP 060600Z 18007KT 8000 -RA FEW012 BKN020 BKN070 23/22 Q1017;
0166827980999992007090607004-07100-034867FM-15+0007SBJP V0201801N00411006001CN0112651N1+02301+02101999999ADDGA1021+003601999GA2041+006001999GA3071+021001999GF107991999999999999999999MA1101691999999REMMET065METAR SBJP 060700Z 18008KT 9999 FEW012 SCT020 BKN070 23/21 Q1017;
0143827980999992007090608004-07100-034867FM-15+0007SBJP V0201701N003610060019N0112651N1+02301+02201999999ADDGA1021+003601999GA2071+006001999GF107991999999999999999999MA1101691999999REMMET058METAR SBJP 060800Z 17007KT 9999 FEW012 BKN020 23/22 Q1017;
0143827980999992007090609004-07100-034867FM-15+0007SBJP V0201801N004610210019N0112651N1+02301+02101999999ADDGA1041+006001999GA2071+021001999GF107991999999999999999999MA1101691999999REMMET058METAR SBJP 060900Z 18009KT 9999 SCT020 BKN070 23/21 Q1017;
0143827980999992007090610004-07100-034867FM-15+0007SBJP V0202101N003610210019N0112651N1+02401+02201999999ADDGA1041+006001999GA2071+021001999GF107991999999999999999999MA1101801999999REMMET058METAR SBJP 061000Z 21007KT 9999 SCT020 BKN070 24/22 Q1018;
0166827980999992007090611004-07100-034867FM-15+0007SBJP V0201701N00461004501CN0112651N1+02401+02201999999ADDGA1041+002401999GA2041+004501999GA3071+021001999GF107991999999999999999999MA1101801999999REMMET065METAR SBJP 061100Z 17009KT 9999 SCT008 SCT015 BKN070 24/22 Q1018;
0120827980999992007090613004-07100-034867FM-15+0007SBJP V0201701N007212200019N0112651N1+02601+02201999999ADDGA1041+007501999GF104991999999999999999999MA1101901999999REMMET051METAR SBJP 061300Z 17014KT 9999 SCT025 26/22 Q1019;
0120827980999992007090614004-07100-034867FM-15+0007SBJP V0201701N007712200019N0112651N1+02701+02201999999ADDGA1041+007501999GF104991999999999999999999MA1101801999999REMMET051METAR SBJP 061400Z 17015KT 9999 SCT025 27/22 Q1018;
0120827980999992007090615004-07100-034867FM-15+0007SBJP V0201701N007710075019N0112651N1+02701+02201999999ADDGA1071+007501999GF107991999999999999999999MA1101691999999REMMET051METAR SBJP 061500Z 17015KT 9999 BKN025 27/22 Q1017;
0154827980999992007090616004-07100-034867FM-15+0007SBJP V0201601N008712200019N0112651N1+02801+02101999999ADDGA1041+009001999GA2041+021001999GF104991999999999999999999MA1101591999999OC101441REMMET061METAR SBJP 061600Z 16017G28KT 9999 SCT030 SCT070 28/21 Q1016;
0143827980999992007090617004-07100-034867FM-15+0007SBJP V0201401N008212200019N0112651N1+02801+02101999999ADDGA1041+009001999GA2041+021001999GF104991999999999999999999MA1101591999999REMMET058METAR SBJP 061700Z 14016KT 9999 SCT030 SCT070 28/21 Q1016;
0120827980999992007090619004-07100-034867FM-15+0007SBJP V0201601N006212200019N0112651N1+02601+02101999999ADDGA1041+009001999GF104991999999999999999999MA1101591999999REMMET051METAR SBJP 061900Z 16012KT 9999 SCT030 26/21 Q1016;
0120827980999992007090620004-07100-034867FM-15+0007SBJP V0201501N005712200019N0112651N1+02501+02101999999ADDGA1021+007501999GF102991999999999999999999MA1101591999999REMMET051METAR SBJP 062000Z 15011KT 9999 FEW025 25/21 Q1016;
0143827980999992007090621004-07100-034867FM-15+0007SBJP V0201701N003112200019N0112651N1+02401+02101999999ADDGA1021+007501999GA2041+021001999GF104991999999999999999999MA1101691999999REMMET058METAR SBJP 062100Z 17006KT 9999 FEW025 SCT070 24/21 Q1017;
0143827980999992007090622004-07100-034867FM-15+0007SBJP V0201701N002612200019N0112651N1+02401+02101999999ADDGA1021+007501999GA2041+021001999GF104991999999999999999999MA1101691999999REMMET058METAR SBJP 062200Z 17005KT 9999 FEW025 SCT070 24/21 Q1017;
0143827980999992007090623004-07100-034867FM-15+0007SBJP V0202001N002612200019N0112651N1+02401+02101999999ADDGA1021+007501999GA2041+021001999GF104991999999999999999999MA1101801999999REMMET058METAR SBJP 062300Z 20005KT 9999 FEW025 SCT070 24/21 Q1018;
0120827980999992007090700004-07100-034867FM-15+0007SBJP V0202201N002612200019N0112651N1+02301+02101999999ADDGA1041+007501999GF104991999999999999999999MA1101801999999REMMET051METAR SBJP 070000Z 22005KT 9999 SCT025 23/21 Q1018;
0120827980999992007090701004-07100-034867FM-15+0007SBJP V0202201N002612200019N0112651N1+02201+02101999999ADDGA1041+007501999GF104991999999999999999999MA1101801999999REMMET051METAR SBJP 070100Z 22005KT 9999 SCT025 22/21 Q1018;
0120827980999992007090702004-07100-034867FM-15+0007SBJP V0202101N002112200019N0112651N1+02201+02101999999ADDGA1021+007501999GF102991999999999999999999MA1101801999999REMMET051METAR SBJP 070200Z 21004KT 9999 FEW025 22/21 Q1018;
0120827980999992007090703004-07100-034867FM-15+0007SBJP V0202201N002112200019N0112651N1+02101+02001999999ADDGA1021+007501999GF102991999999999999999999MA1101691999999REMMET051METAR SBJP 070300Z 22004KT 9999 FEW025 21/20 Q1017;
0072827980999992007090704004-07100-034867FM-15+0007SBJP V0202301N00211220001CN0099001N1+02101+02001999999ADDMA1101591999999REMMET045METAR SBJP 070400Z 23004KT CAVOK 21/20 Q1016;
0120827980999992007090706004-07100-034867FM-15+0007SBJP V0202201N002612200019N0112651N1+02101+02101999999ADDGA1021+007501999GF102991999999999999999999MA1101591999999REMMET051METAR SBJP 070600Z 22005KT 9999 FEW025 21/21 Q1016;
0143827980999992007090707004-07100-034867FM-15+0007SBJP V0202301N002112200019N0112651N1+02201+02101999999ADDGA1021+007501999GA2041+021001999GF104991999999999999999999MA1101591999999REMMET058METAR SBJP 070700Z 23004KT 9999 FEW025 SCT070 22/21 Q1016;
0143827980999992007090708004-07100-034867FM-15+0007SBJP V0202001N002612200019N0112651N1+02201+02101999999ADDGA1021+007501999GA2041+021001999GF104991999999999999999999MA1101591999999REMMET058METAR SBJP 070800Z 20005KT 9999 FEW025 SCT070 22/21 Q1016;
0120827980999992007090709004-07100-034867FM-15+0007SBJP V0202201N002112200019N0112651N1+02201+02101999999ADDGA1021+006001999GF102991999999999999999999MA1101591999999REMMET051METAR SBJP 070900Z 22004KT 9999 FEW020 22/21 Q1016;
0143827980999992007090710004-07100-034867FM-15+0007SBJP V0201701N003112200019N0112651N1+02401+02201999999ADDGA1041+007501999GA2041+021001999GF104991999999999999999999MA1101691999999REMMET058METAR SBJP 071000Z 17006KT 9999 SCT025 SCT070 24/22 Q1017;
0176827980999992007090711004-07100-034867FM-15+0007SBJP V0201501N005110024019N0030001N1+02501+02301999999ADDGA1071+002401999GA2071+006001999GA3081+021001999GF108991999999999999999999MA1101801999999MW1611REMMET069METAR SBJP 071100Z 15010KT 3000 -RA BKN008 BKN020 OVC070 25/23 Q1018;
0166827980999992007090712004-07100-034867FM-15+0007SBJP V0201301N006210060019N0112651N1+02601+02301999999ADDGA1041+003001999GA2071+006001999GA3081+021001999GF108991999999999999999999MA1101801999999REMMET065METAR SBJP 071200Z 13012KT 9999 SCT010 BKN020 OVC070 26/23 Q1018;
0166827980999992007090713004-07100-034867FM-15+0007SBJP V0201501N007710060019N0112651N1+02601+02301999999ADDGA1041+003001999GA2071+006001999GA3071+021001999GF107991999999999999999999MA1101691999999REMMET065METAR SBJP 071300Z 15015KT 9999 SCT010 BKN020 BKN070 26/23 Q1017;
0187827980999992007090714004-07100-034867FM-15+0007SBJP V0201601N006710030019N0040001N1+02401+02301999999ADDGA1041+001801999GA2071+003001999GA3071+006001999GF107991999999999999999999MA1101691999999MW1611OC101181REMMET072METAR SBJP 071400Z 16013G23KT 4000 -RA SCT006 BKN010 BKN020 24/23 Q1017;
0187827980999992007090715004-07100-034867FM-15+0007SBJP V0201501N008210030019N0040001N1+02601+02401999999ADDGA1071+003001999GA2071+006001999GA3071+021001999GF107991999999999999999999MA1101591999999MW1611OC101441REMMET072METAR SBJP 071500Z 15016G28KT 4000 -RA BKN010 BKN020 BKN070 26/24 Q1016;
0166827980999992007090716004-07100-034867FM-15+0007SBJP V0201801N007710036019N0112651N1+02501+02401999999ADDGA1071+003601999GA2041+006001999GA3071+021001999GF107991999999999999999999MA1101591999999REMMET065METAR SBJP 071600Z 18015KT 9999 BKN012 SCT020 BKN070 25/24 Q1016;
0166827980999992007090717004-07100-034867FM-15+0007SBJP V0201701N007710039019N0112651N1+02501+02201999999ADDGA1071+003901999GA2041+005401999GA3071+021001999GF107991999999999999999999MA1101491999999REMMET065METAR SBJP 071700Z 17015KT 9999 BKN013 SCT018 BKN070 25/22 Q1015;
0187827980999992007090718004-07100-034867FM-15+0007SBJP V0201701N006210039019N0040001N1+02401+02301999999ADDGA1071+003901999GA2041+005401999GA3071+021001999GF107991999999999999999999MA1101491999999MW1611OC101131REMMET072METAR SBJP 071800Z 17012G22KT 4000 -RA BKN013 SCT018 BKN070 24/23 Q1015;
0176827980999992007090719004-07100-034867FM-15+0007SBJP V0201701N005110036019N0050001N1+02401+02201999999ADDGA1071+003601999GA2041+005401999GA3071+021001999GF107991999999999999999999MA1101491999999MW1611REMMET069METAR SBJP 071900Z 17010KT 5000 -RA BKN012 SCT018 BKN070 24/22 Q1015;
0143827980999992007090720004-07100-034867FM-15+0007SBJP V0201601N005110210019N0112651N1+02301+02201999999ADDGA1041+004201999GA2071+021001999GF107991999999999999999999MA1101591999999REMMET058METAR SBJP 072000Z 16010KT 9999 SCT014 BKN070 23/22 Q1016;
0143827980999992007090721004-07100-034867FM-15+0007SBJP V0201701N005710210019N0112651N1+02301+02201999999ADDGA1041+004201999GA2071+021001999GF107991999999999999999999MA1101591999999REMMET058METAR SBJP 072100Z 17011KT 9999 SCT014 BKN070 23/22 Q1016;
0143827980999992007090722004-07100-034867FM-15+0007SBJP V0201901N004110210019N0112651N1+02301+02101999999ADDGA1041+005401999GA2071+021001999GF107991999999999999999999MA1101691999999REMMET058METAR SBJP 072200Z 19008KT 9999 SCT018 BKN070 23/21 Q1017;
0143827980999992007090723004-07100-034867FM-15+0007SBJP V0202001N003110210019N0112651N1+02301+02101999999ADDGA1041+005401999GA2071+021001999GF107991999999999999999999MA1101691999999REMMET058METAR SBJP 072300Z 20006KT 9999 SCT018 BKN070 23/21 Q1017;
0143827980999992007090800004-07100-034867FM-15+0007SBJP V0201801N003110210019N0112651N1+02301+02201999999ADDGA1041+006001999GA2071+021001999GF107991999999999999999999MA1101801999999REMMET058METAR SBJP 080000Z 18006KT 9999 SCT020 BKN070 23/22 Q1018;
0143827980999992007090801004-07100-034867FM-15+0007SBJP V0201601N002110210019N0112651N1+02301+02101999999ADDGA1041+006001999GA2071+021001999GF107991999999999999999999MA1101801999999REMMET058METAR SBJP 080100Z 16004KT 9999 SCT020 BKN070 23/21 Q1018;
0143827980999992007090802004-07100-034867FM-15+0007SBJP V0201601N002110210019N0112651N1+02301+02101999999ADDGA1041+006001999GA2071+021001999GF107991999999999999999999MA1101801999999REMMET058METAR SBJP 080200Z 16004KT 9999 SCT020 BKN070 23/21 Q1018;
0143827980999992007090803004-07100-034867FM-15+0007SBJP V0202301N003110210019N0112651N1+02301+02101999999ADDGA1041+006001999GA2071+021001999GF107991999999999999999999MA1101691999999REMMET058METAR SBJP 080300Z 23006KT 9999 SCT020 BKN070 23/21 Q1017;
0143827980999992007090804004-07100-034867FM-15+0007SBJP V0202101N003610210019N0112651N1+02201+02101999999ADDGA1041+006001999GA2071+021001999GF107991999999999999999999MA1101591999999REMMET058METAR SBJP 080400Z 21007KT 9999 SCT020 BKN070 22/21 Q1016;
0143827980999992007090805004-07100-034867FM-15+0007SBJP V0202101N003110210019N0112651N1+02201+02001999999ADDGA1041+006001999GA2071+021001999GF107991999999999999999999MA1101591999999REMMET058METAR SBJP 080500Z 21006KT 9999 SCT020 BKN070 22/20 Q1016;
0143827980999992007090806004-07100-034867FM-15+0007SBJP V0202001N003612200019N0112651N1+02101+02001999999ADDGA1041+006001999GA2041+021001999GF104991999999999999999999MA1101591999999REMMET058METAR SBJP 080600Z 20007KT 9999 SCT020 SCT070 21/20 Q1016;
0120827980999992007090807004-07100-034867FM-15+0007SBJP V0202001N003112200019N0112651N1+02101+01901999999ADDGA1041+006001999GF104991999999999999999999MA1101591999999REMMET051METAR SBJP 080700Z 20006KT 9999 SCT020 21/19 Q1016;
0143827980999992007090808004-07100-034867FM-15+0007SBJP V0201901N003110036019N0112651N1+02101+02001999999ADDGA1071+003601999GA2071+006001999GF107991999999999999999999MA1101591999999REMMET058METAR SBJP 080800Z 19006KT 9999 BKN012 BKN020 21/20 Q1016;
0143827980999992007090809004-07100-034867FM-15+0007SBJP V0202001N004110210019N0112651N1+02101+02001999999ADDGA1041+006001999GA2071+021001999GF107991999999999999999999MA1101591999999REMMET058METAR SBJP 080900Z 20008KT 9999 SCT020 BKN070 21/20 Q1016;
0143827980999992007090810004-07100-034867FM-15+0007SBJP V0202201N005110210019N0112651N1+02301+02101999999ADDGA1041+006001999GA2071+021001999GF107991999999999999999999MA1101691999999REMMET058METAR SBJP 081000Z 22010KT 9999 SCT020 BKN070 23/21 Q1017;
0143827980999992007090811004-07100-034867FM-15+0007SBJP V0202001N005712200019N0112651N1+02401+02101999999ADDGA1041+006001999GA2041+021001999GF104991999999999999999999MA1101691999999REMMET058METAR SBJP 081100Z 20011KT 9999 SCT020 SCT070 24/21 Q1017;
0136827980999992007090812004-07100-034867FM-15+0007SBJP V0202101N00621220001CN0112651N1+02501+02101999999ADDGA1071+006001999GA2041+021001999MA1101801999999REMMET058METAR SBJP 081200Z 21012KT 9999 BKN020 SCT070 25/21 Q1018;EQDQ01+000042SCOTCV
0120827980999992007090813004-07100-034867FM-15+0007SBJP V0202001N005110060019N0112651N1+02401+02101999999ADDGA1071+006001999GF107991999999999999999999MA1101691999999REMMET051METAR SBJP 081300Z 20010KT 9999 BKN020 24/21 Q1017;
0120827980999992007090814004-07100-034867FM-15+0007SBJP V0202001N005710060019N0112651N1+02701+02201999999ADDGA1071+006001999GF107991999999999999999999MA1101691999999REMMET051METAR SBJP 081400Z 20011KT 9999 BKN020 27/22 Q1017;
0120827980999992007090815004-07100-034867FM-15+0007SBJP V0201701N005110060019N0112651N1+02801+02001999999ADDGA1071+006001999GF107991999999999999999999MA1101591999999REMMET051METAR SBJP 081500Z 17010KT 9999 BKN020 28/20 Q1016;
0120827980999992007090816004-07100-034867FM-15+0007SBJP V0201701N006210060019N0112651N1+02901+02001999999ADDGA1071+006001999GF107991999999999999999999MA1101491999999REMMET051METAR SBJP 081600Z 17012KT 9999 BKN020 29/20 Q1015;
0120827980999992007090817004-07100-034867FM-15+0007SBJP V0202101N005110060019N0112651N1+02701+02001999999ADDGA1071+006001999GF107991999999999999999999MA1101391999999REMMET051METAR SBJP 081700Z 21010KT 9999 BKN020 27/20 Q1014;
0120827980999992007090818004-07100-034867FM-15+0007SBJP V0202001N003110060019N0112651N1+02601+02101999999ADDGA1071+006001999GF107991999999999999999999MA1101391999999REMMET051METAR SBJP 081800Z 20006KT 9999 BKN020 26/21 Q1014;
0120827980999992007090819004-07100-034867FM-15+0007SBJP V0202001N003110060019N0112651N1+02601+02101999999ADDGA1071+006001999GF107991999999999999999999MA1101391999999REMMET051METAR SBJP 081900Z 20006KT 9999 BKN020 26/21 Q1014;
0120827980999992007090820004-07100-034867FM-15+0007SBJP V0201801N005110060019N0112651N1+02501+02101999999ADDGA1071+006001999GF107991999999999999999999MA1101491999999REMMET051METAR SBJP 082000Z 18010KT 9999 BKN020 25/21 Q1015;
0120827980999992007090821004-07100-034867FM-15+0007SBJP V0201901N004110060019N0112651N1+02401+02101999999ADDGA1071+006001999GF107991999999999999999999MA1101491999999REMMET051METAR SBJP 082100Z 19008KT 9999 BKN020 24/21 Q1015;
0120827980999992007090822004-07100-034867FM-15+0007SBJP V0201901N003112200019N0112651N1+02301+02101999999ADDGA1041+006001999GF104991999999999999999999MA1101591999999REMMET051METAR SBJP 082200Z 19006KT 9999 SCT020 23/21 Q1016;
0120827980999992007090823004-07100-034867FM-15+0007SBJP V0202001N002112200019N0112651N1+02301+02101999999ADDGA1041+006001999GF104991999999999999999999MA1101691999999REMMET051METAR SBJP 082300Z 20004KT 9999 SCT020 23/21 Q1017;
0143827980999992007090900004-07100-034867FM-15+0007SBJP V0202101N002112200019N0112651N1+02301+02101999999ADDGA1041+006001999GA2041+021001999GF104991999999999999999999MA1101691999999REMMET058METAR SBJP 090000Z 21004KT 9999 SCT020 SCT070 23/21 Q1017;
0143827980999992007090901004-07100-034867FM-15+0007SBJP V0202001N003112200019N0112651N1+02301+02001999999ADDGA1041+006001999GA2041+021001999GF104991999999999999999999MA1101691999999REMMET058METAR SBJP 090100Z 20006KT 9999 SCT020 SCT070 23/20 Q1017;
0143827980999992007090902004-07100-034867FM-15+0007SBJP V0202201N002112200019N0112651N1+02201+02001999999ADDGA1041+006001999GA2041+021001999GF104991999999999999999999MA1101691999999REMMET058METAR SBJP 090200Z 22004KT 9999 SCT020 SCT070 22/20 Q1017;
0120827980999992007090903004-07100-034867FM-15+0007SBJP V0202301N002612200019N0112651N1+02201+02001999999ADDGA1041+006001999GF104991999999999999999999MA1101591999999REMMET051METAR SBJP 090300Z 23005KT 9999 SCT020 22/20 Q1016;
0120827980999992007090904004-07100-034867FM-15+0007SBJP V0202201N002612200019N0112651N1+02101+02001999999ADDGA1041+006001999GF104991999999999999999999MA1101591999999REMMET051METAR SBJP 090400Z 22005KT 9999 SCT020 21/20 Q1016;
0120827980999992007090905004-07100-034867FM-15+0007SBJP V0202301N002112200019N0112651N1+02101+02001999999ADDGA1041+006001999GF104991999999999999999999MA1101491999999REMMET051METAR SBJP 090500Z 23004KT 9999 SCT020 21/20 Q1015;
0120827980999992007090906004-07100-034867FM-15+0007SBJP V0202301N002612200019N0112651N1+02101+02001999999ADDGA1041+006001999GF104991999999999999999999MA1101491999999REMMET051METAR SBJP 090600Z 23005KT 9999 SCT020 21/20 Q1015;
0120827980999992007090907004-07100-034867FM-15+0007SBJP V0202201N001512200019N0112651N1+02101+02001999999ADDGA1041+006001999GF104991999999999999999999MA1101491999999REMMET051METAR SBJP 090700Z 22003KT 9999 SCT020 21/20 Q1015;
0120827980999992007090908004-07100-034867FM-15+0007SBJP V0202301N002112200019N0112651N1+02101+02001999999ADDGA1041+006001999GF104991999999999999999999MA1101491999999REMMET051METAR SBJP 090800Z 23004KT 9999 SCT020 21/20 Q1015;
0120827980999992007090909004-07100-034867FM-15+0007SBJP V0202401N002112200019N0112651N1+02101+02001999999ADDGA1021+006001999GF102991999999999999999999MA1101591999999REMMET051METAR SBJP 090900Z 24004KT 9999 FEW020 21/20 Q1016;
0120827980999992007090911004-07100-034867FM-15+0007SBJP V0202101N004112200019N0112651N1+02501+02101999999ADDGA1021+006001999GF102991999999999999999999MA1101691999999REMMET051METAR SBJP 091100Z 21008KT 9999 FEW020 25/21 Q1017;
0120827980999992007090912004-07100-034867FM-15+0007SBJP V0202001N004612200019N0112651N1+02601+02201999999ADDGA1041+006001999GF104991999999999999999999MA1101691999999REMMET051METAR SBJP 091200Z 20009KT 9999 SCT020 26/22 Q1017;
0120827980999992007090913004-07100-034867FM-15+0007SBJP V0201701N004110060019N0112651N1+02701+02201999999ADDGA1071+006001999GF107991999999999999999999MA1101691999999REMMET051METAR SBJP 091300Z 17008KT 9999 BKN020 27/22 Q1017;
0120827980999992007090914004-07100-034867FM-15+0007SBJP V0202001N006210060019N0112651N1+02601+02201999999ADDGA1071+006001999GF107991999999999999999999MA1101591999999REMMET051METAR SBJP 091400Z 20012KT 9999 BKN020 26/22 Q1016;
0130827980999992007090915004-07100-034867FM-15+0007SBJP V0201601N006210060019N0045001N1+02501+02301999999ADDGA1071+006001999GF107991999999999999999999MA1101591999999MW1611REMMET055METAR SBJP 091500Z 16012KT 4500 -RA BKN020 25/23 Q1016;
0131827980999992007090916004-07100-034867FM-15+0007SBJP V0201901N006210060019N0080001N1+02601+02301999999ADDGA1071+006001999GF107991999999999999999999MA1101491999999MW1161REMMET056METAR SBJP 091600Z 19012KT 8000 VCSH BKN020 26/23 Q1015;
0131827980999992007090917004-07100-034867FM-15+0007SBJP V0201601N006210060019N0080001N1+02701+02101999999ADDGA1071+006001999GF107991999999999999999999MA1101391999999MW1161REMMET056METAR SBJP 091700Z 16012KT 8000 VCSH BKN020 27/21 Q1014;
0120827980999992007090918004-07100-034867FM-15+0007SBJP V0201601N005110060019N0112651N1+02701+02101999999ADDGA1071+006001999GF107991999999999999999999MA1101391999999REMMET051METAR SBJP 091800Z 16010KT 9999 BKN020 27/21 Q1014;
0143827980999992007090919004-07100-034867FM-15+0007SBJP V0201801N004610210019N0112651N1+02601+02101999999ADDGA1041+006001999GA2071+021001999GF107991999999999999999999MA1101391999999REMMET058METAR SBJP 091900Z 18009KT 9999 SCT020 BKN070 26/21 Q1014;
0154827980999992007090920004-07100-034867FM-15+0007SBJP V0201701N003110210019N0080001N1+02401+02201999999ADDGA1041+006001999GA2071+021001999GF107991999999999999999999MA1101391999999MW1161REMMET063METAR SBJP 092000Z 17006KT 8000 VCSH SCT020 BKN070 24/22 Q1014;
0143827980999992007090921004-07100-034867FM-15+0007SBJP V0201801N003112200019N0112651N1+02301+02201999999ADDGA1041+006001999GA2041+021001999GF104991999999999999999999MA1101391999999REMMET058METAR SBJP 092100Z 18006KT 9999 SCT020 SCT070 23/22 Q1014;
0143827980999992007090922004-07100-034867FM-15+0007SBJP V0201801N003612200019N0112651N1+02401+02201999999ADDGA1041+006001999GA2041+021001999GF104991999999999999999999MA1101491999999REMMET058METAR SBJP 092200Z 18007KT 9999 SCT020 SCT070 24/22 Q1015;
0143827980999992007090923004-07100-034867FM-15+0007SBJP V0201901N002612200019N0112651N1+02401+02201999999ADDGA1041+006001999GA2041+021001999GF104991999999999999999999MA1101591999999REMMET058METAR SBJP 092300Z 19005KT 9999 SCT020 SCT070 24/22 Q1016;
0143827980999992007091000004-07100-034867FM-15+0007SBJP V0201801N003612200019N0112651N1+02401+02201999999ADDGA1041+006001999GA2041+021001999GF104991999999999999999999MA1101591999999REMMET058METAR SBJP 100000Z 18007KT 9999 SCT020 SCT070 24/22 Q1016;
0120827980999992007091001004-07100-034867FM-15+0007SBJP V0201901N003112200019N0112651N1+02401+02201999999ADDGA1021+006001999GF102991999999999999999999MA1101591999999REMMET051METAR SBJP 100100Z 19006KT 9999 FEW020 24/22 Q1016;
0143827980999992007091002004-07100-034867FM-15+0007SBJP V0201701N004610210019N0112651N1+02401+02001999999ADDGA1021+006001999GA2071+021001999GF107991999999999999999999MA1101591999999REMMET058METAR SBJP 100200Z 17009KT 9999 FEW020 BKN070 24/20 Q1016;
0143827980999992007091003004-07100-034867FM-15+0007SBJP V0201701N004110210019N0112651N1+02401+02101999999ADDGA1021+006001999GA2071+021001999GF107991999999999999999999MA1101591999999REMMET058METAR SBJP 100300Z 17008KT 9999 FEW020 BKN070 24/21 Q1016;
0143827980999992007091004004-07100-034867FM-15+0007SBJP V0201601N005110210019N0112651N1+02401+02001999999ADDGA1021+006001999GA2071+021001999GF107991999999999999999999MA1101491999999REMMET058METAR SBJP 100400Z 16010KT 9999 FEW020 BKN070 24/20 Q1015;
0143827980999992007091005004-07100-034867FM-15+0007SBJP V0201801N003110210019N0112651N1+02401+02101999999ADDGA1021+006001999GA2071+021001999GF107991999999999999999999MA1101491999999REMMET058METAR SBJP 100500Z 18006KT 9999 FEW020 BKN070 24/21 Q1015;
0143827980999992007091006004-07100-034867FM-15+0007SBJP V0201801N003110210019N0112651N1+02401+02101999999ADDGA1021+006001999GA2071+021001999GF107991999999999999999999MA1101491999999REMMET058METAR SBJP 100600Z 18006KT 9999 FEW020 BKN070 24/21 Q1015;
0143827980999992007091007004-07100-034867FM-15+0007SBJP V0202001N004112200019N0112651N1+02301+02101999999ADDGA1021+006001999GA2041+021001999GF104991999999999999999999MA1101491999999REMMET058METAR SBJP 100700Z 20008KT 9999 FEW020 SCT070 23/21 Q1015;
0143827980999992007091008004-07100-034867FM-15+0007SBJP V0202001N003112200019N0112651N1+02301+02101999999ADDGA1041+006001999GA2041+021001999GF104991999999999999999999MA1101491999999REMMET058METAR SBJP 100800Z 20006KT 9999 SCT020 SCT070 23/21 Q1015;
0120827980999992007091009004-07100-034867FM-15+0007SBJP V0202201N002112200019N0112651N1+02301+02101999999ADDGA1041+006001999GF104991999999999999999999MA1101591999999REMMET051METAR SBJP 100900Z 22004KT 9999 SCT020 23/21 Q1016;
0146827980999992007091010004-07100-034867FM-15+0007SBJP V0202301N00211220001CN0070001N1+02401+02201999999ADDGA1071+006001999GA2041+021001999MA1101591999999MW1611REMMET062METAR SBJP 101000Z 23004KT 7000 -RA BKN020 SCT070 24/22 Q1016;EQDQ01+000042SCOTCV
0154827980999992007091011004-07100-034867FM-15+0007SBJP V0202101N002110060019N0080001N1+02401+02301999999ADDGA1041+003601999GA2071+006001999GF107991999999999999999999MA1101691999999MW1161REMMET063METAR SBJP 101100Z 21004KT 8000 VCSH SCT012 BKN020 24/23 Q1017;
0131827980999992007091012004-07100-034867FM-15+0007SBJP V0201701N006210060019N0080001N1+02601+02301999999ADDGA1071+006001999GF107991999999999999999999MA1101691999999MW1161REMMET056METAR SBJP 101200Z 17012KT 8000 VCSH BKN020 26/23 Q1017;
0130827980999992007091013004-07100-034867FM-15+0007SBJP V0201801N006710060019N0080001N1+02601+02201999999ADDGA1071+006001999GF107991999999999999999999MA1101691999999MW1611REMMET055METAR SBJP 101300Z 18013KT 8000 -RA BKN020 26/22 Q1017;
0120827980999992007091014004-07100-034867FM-15+0007SBJP V0201701N007212200019N0112651N1+02701+02101999999ADDGA1041+007501999GF104991999999999999999999MA1101691999999REMMET051METAR SBJP 101400Z 17014KT 9999 SCT025 27/21 Q1017;
0130827980999992007091015004-07100-034867FM-15+0007SBJP V0201801N007210075019N0060001N1+02501+02201999999ADDGA1071+007501999GF107991999999999999999999MA1101591999999MW1611REMMET055METAR SBJP 101500Z 18014KT 6000 -RA BKN025 25/22 Q1016;
0120827980999992007091016004-07100-034867FM-15+0007SBJP V0201701N006710075019N0112651N1+02701+02201999999ADDGA1071+007501999GF107991999999999999999999MA1101491999999REMMET051METAR SBJP 101600Z 17013KT 9999 BKN025 27/22 Q1015;
0120827980999992007091017004-07100-034867FM-15+0007SBJP V0201801N005710075019N0112651N1+02501+02101999999ADDGA1071+007501999GF107991999999999999999999MA1101491999999REMMET051METAR SBJP 101700Z 18011KT 9999 BKN025 25/21 Q1015;
0136827980999992007091018004-07100-034867FM-15+0007SBJP V0201501N00871220001CN0112651N1+02601+02201999999ADDGA1071+007501999GA2041+021001999MA1101391999999REMMET058METAR SBJP 101800Z 15017KT 9999 BKN025 SCT070 26/22 Q1014;EQDQ01+000042SCOTCV
0143827980999992007091019004-07100-034867FM-15+0007SBJP V0201701N006212200019N0112651N1+02601+02101999999ADDGA1041+007501999GA2041+021001999GF104991999999999999999999MA1101391999999REMMET058METAR SBJP 101900Z 17012KT 9999 SCT025 SCT070 26/21 Q1014;
0143827980999992007091020004-07100-034867FM-15+0007SBJP V0201801N006212200019N0112651N1+02601+02101999999ADDGA1041+007501999GA2041+021001999GF104991999999999999999999MA1101391999999REMMET058METAR SBJP 102000Z 18012KT 9999 SCT025 SCT070 26/21 Q1014;
0143827980999992007091021004-07100-034867FM-15+0007SBJP V0201901N005110210019N0112651N1+02501+02101999999ADDGA1021+007501999GA2071+021001999GF107991999999999999999999MA1101491999999REMMET058METAR SBJP 102100Z 19010KT 9999 FEW025 BKN070 25/21 Q1015;
0143827980999992007091022004-07100-034867FM-15+0007SBJP V0201701N004110210019N0112651N1+02401+02101999999ADDGA1021+006001999GA2071+021001999GF107991999999999999999999MA1101491999999REMMET058METAR SBJP 102200Z 17008KT 9999 FEW020 BKN070 24/21 Q1015;
0143827980999992007091023004-07100-034867FM-15+0007SBJP V0201701N005110210019N0112651N1+02401+02101999999ADDGA1041+003601999GA2071+021001999GF107991999999999999999999MA1101591999999REMMET058METAR SBJP 102300Z 17010KT 9999 SCT012 BKN070 24/21 Q1016;
0143827980999992007091100004-07100-034867FM-15+0007SBJP V0201801N003612200019N0112651N1+02301+02101999999ADDGA1041+004501999GA2041+021001999GF104991999999999999999999MA1101591999999REMMET058METAR SBJP 110000Z 18007KT 9999 SCT015 SCT070 23/21 Q1016;
0120827980999992007091101004-07100-034867FM-15+0007SBJP V0201701N003610033019N0112651N1+02301+02201999999ADDGA1071+003301999GF107991999999999999999999MA1101591999999REMMET051METAR SBJP 110100Z 17007KT 9999 BKN011 23/22 Q1016;
0143827980999992007091102004-07100-034867FM-15+0007SBJP V0201801N003110210019N0112651N1+02301+02201999999ADDGA1041+005101999GA2071+021001999GF107991999999999999999999MA1101591999999REMMET058METAR SBJP 110200Z 18006KT 9999 SCT017 BKN070 23/22 Q1016;
0120827980999992007091103004-07100-034867FM-15+0007SBJP V0202001N002610051019N0112651N1+02301+02101999999ADDGA1071+005101999GF107991999999999999999999MA1101591999999REMMET051METAR SBJP 110300Z 20005KT 9999 BKN017 23/21 Q1016;
0143827980999992007091104004-07100-034867FM-15+0007SBJP V0202201N002110210019N0112651N1+02301+02101999999ADDGA1041+005101999GA2071+021001999GF107991999999999999999999MA1101491999999REMMET058METAR SBJP 110400Z 22004KT 9999 SCT017 BKN070 23/21 Q1015;
0143827980999992007091105004-07100-034867FM-15+0007SBJP V0202201N002610210019N0112651N1+02301+02101999999ADDGA1041+005101999GA2071+021001999GF107991999999999999999999MA1101391999999REMMET058METAR SBJP 110500Z 22005KT 9999 SCT017 BKN070 23/21 Q1014;
0143827980999992007091106004-07100-034867FM-15+0007SBJP V0202301N002610210019N0112651N1+02301+02101999999ADDGA1041+005101999GA2071+021001999GF107991999999999999999999MA1101491999999REMMET058METAR SBJP 110600Z 23005KT 9999 SCT017 BKN070 23/21 Q1015;
0143827980999992007091107004-07100-034867FM-15+0007SBJP V0202201N002610210019N0112651N1+02201+02101999999ADDGA1041+005101999GA2071+021001999GF107991999999999999999999MA1101491999999REMMET058METAR SBJP 110700Z 22005KT 9999 SCT017 BKN070 22/21 Q1015;
0143827980999992007091108004-07100-034867FM-15+0007SBJP V0201801N002110210019N0112651N1+02301+02101999999ADDGA1041+004801999GA2071+021001999GF107991999999999999999999MA1101491999999REMMET058METAR SBJP 110800Z 18004KT 9999 SCT016 BKN070 23/21 Q1015;
0143827980999992007091109004-07100-034867FM-15+0007SBJP V0202201N002610210019N0112651N1+02301+02101999999ADDGA1021+004801999GA2071+021001999GF107991999999999999999999MA1101591999999REMMET058METAR SBJP 110900Z 22005KT 9999 FEW016 BKN070 23/21 Q1016;
0120827980999992007091110004-07100-034867FM-15+0007SBJP V0202201N003612200019N0112651N1+02401+02101999999ADDGA1021+007501999GF102991999999999999999999MA1101591999999REMMET051METAR SBJP 111000Z 22007KT 9999 FEW025 24/21 Q1016;
0120827980999992007091111004-07100-034867FM-15+0007SBJP V0202101N005112200019N0112651N1+02501+02101999999ADDGA1041+007501999GF104991999999999999999999MA1101691999999REMMET051METAR SBJP 111100Z 21010KT 9999 SCT025 25/21 Q1017;
0120827980999992007091112004-07100-034867FM-15+0007SBJP V0201701N007710075019N0112651N1+02701+02101999999ADDGA1071+007501999GF107991999999999999999999MA1101691999999REMMET051METAR SBJP 111200Z 17015KT 9999 BKN025 27/21 Q1017;
0120827980999992007091113004-07100-034867FM-15+0007SBJP V0201801N008210075019N0112651N1+02801+02201999999ADDGA1071+007501999GF107991999999999999999999MA1101691999999REMMET051METAR SBJP 111300Z 18016KT 9999 BKN025 28/22 Q1017;
0120827980999992007091114004-07100-034867FM-15+0007SBJP V0201701N007712200019N0112651N1+02901+02001999999ADDGA1041+007501999GF104991999999999999999999MA1101591999999REMMET051METAR SBJP 111400Z 17015KT 9999 SCT025 29/20 Q1016;
0120827980999992007091115004-07100-034867FM-15+0007SBJP V0201701N007712200019N0112651N1+02901+02001999999ADDGA1041+007501999GF104991999999999999999999MA1101591999999REMMET051METAR SBJP 111500Z 17015KT 9999 SCT025 29/20 Q1016;
0120827980999992007091116004-07100-034867FM-15+0007SBJP V0201601N007712200019N0112651N1+02901+01901999999ADDGA1021+009001999GF102991999999999999999999MA1101491999999REMMET051METAR SBJP 111600Z 16015KT 9999 FEW030 29/19 Q1015;
0120827980999992007091117004-07100-034867FM-15+0007SBJP V0201501N007212200019N0112651N1+02901+01901999999ADDGA1041+009001999GF104991999999999999999999MA1101391999999REMMET051METAR SBJP 111700Z 15014KT 9999 SCT030 29/19 Q1014;
0120827980999992007091118004-07100-034867FM-15+0007SBJP V0201501N006712200019N0112651N1+02801+01801999999ADDGA1021+009001999GF102991999999999999999999MA1101391999999REMMET051METAR SBJP 111800Z 15013KT 9999 FEW030 28/18 Q1014;
0120827980999992007091119004-07100-034867FM-15+0007SBJP V0201501N006712200019N0112651N1+02701+02001999999ADDGA1041+009001999GF104991999999999999999999MA1101391999999REMMET051METAR SBJP 111900Z 15013KT 9999 SCT030 27/20 Q1014;
0120827980999992007091120004-07100-034867FM-15+0007SBJP V0201601N005110075019N0112651N1+02601+02101999999ADDGA1071+007501999GF107991999999999999999999MA1101491999999REMMET051METAR SBJP 112000Z 16010KT 9999 BKN025 26/21 Q1015;
0120827980999992007091121004-07100-034867FM-15+0007SBJP V0201601N003610060019N0112651N1+02501+02101999999ADDGA1071+006001999GF107991999999999999999999MA1101491999999REMMET051METAR SBJP 112100Z 16007KT 9999 BKN020 25/21 Q1015;
0120827980999992007091122004-07100-034867FM-15+0007SBJP V0201901N004112200019N0112651N1+02401+02101999999ADDGA1041+006001999GF104991999999999999999999MA1101591999999REMMET051METAR SBJP 112200Z 19008KT 9999 SCT020 24/21 Q1016;
0143827980999992007091123004-07100-034867FM-15+0007SBJP V0201901N003612200019N0112651N1+02401+02101999999ADDGA1021+006001999GA2041+021001999GF104991999999999999999999MA1101591999999REMMET058METAR SBJP 112300Z 19007KT 9999 FEW020 SCT070 24/21 Q1016;
0143827980999992007091200004-07100-034867FM-15+0007SBJP V0201901N003612200019N0112651N1+02401+02101999999ADDGA1021+006001999GA2041+021001999GF104991999999999999999999MA1101691999999REMMET058METAR SBJP 120000Z 19007KT 9999 FEW020 SCT070 24/21 Q1017;
0143827980999992007091201004-07100-034867FM-15+0007SBJP V0201701N004112200019N0112651N1+02301+02101999999ADDGA1021+006001999GA2041+021001999GF104991999999999999999999MA1101691999999REMMET058METAR SBJP 120100Z 17008KT 9999 FEW020 SCT070 23/21 Q1017;
0143827980999992007091202004-07100-034867FM-15+0007SBJP V0202001N003612200019N0112651N1+02301+02101999999ADDGA1041+006001999GA2041+021001999GF104991999999999999999999MA1101691999999REMMET058METAR SBJP 120200Z 20007KT 9999 SCT020 SCT070 23/21 Q1017;
0143827980999992007091203004-07100-034867FM-15+0007SBJP V0202101N003612200019N0112651N1+02301+02101999999ADDGA1041+005401999GA2041+021001999GF104991999999999999999999MA1101591999999REMMET058METAR SBJP 120300Z 21007KT 9999 SCT018 SCT070 23/21 Q1016;
0143827980999992007091204004-07100-034867FM-15+0007SBJP V0202301N003610210019N0112651N1+02201+02101999999ADDGA1041+005401999GA2071+021001999GF107991999999999999999999MA1101591999999REMMET058METAR SBJP 120400Z 23007KT 9999 SCT018 BKN070 22/21 Q1016;
0143827980999992007091205004-07100-034867FM-15+0007SBJP V0202201N003110210019N0112651N1+02201+02101999999ADDGA1041+005401999GA2071+021001999GF107991999999999999999999MA1101491999999REMMET058METAR SBJP 120500Z 22006KT 9999 SCT018 BKN070 22/21 Q1015;
0176827980999992007091206004-07100-034867FM-15+0007SBJP V0202001N004110045019N0040001N1+02201+02101999999ADDGA1041+002401999GA2071+004501999GA3071+021001999GF107991999999999999999999MA1101491999999MW1611REMMET069METAR SBJP 120600Z 20008KT 4000 -RA SCT008 BKN015 BKN070 22/21 Q1015;
0166827980999992007091207004-07100-034867FM-15+0007SBJP V0202001N00211004501CN0112651N1+02201+02101999999ADDGA1041+002401999GA2041+004501999GA3071+021001999GF107991999999999999999999MA1101491999999REMMET065METAR SBJP 120700Z 20004KT 9999 SCT008 SCT015 BKN070 22/21 Q1015;
0143827980999992007091208004-07100-034867FM-15+0007SBJP V0202301N002112200019N0112651N1+02201+02101999999ADDGA1041+004501999GA2041+021001999GF104991999999999999999999MA1101491999999REMMET058METAR SBJP 120800Z 23004KT 9999 SCT015 SCT070 22/21 Q1015;
0143827980999992007091209004-07100-034867FM-15+0007SBJP V0202001N002110210019N0080001N1+02201+02101999999ADDGA1041+004501999GA2071+021001999GF107991999999999999999999MA1101491999999REMMET058METAR SBJP 120900Z 20004KT 8000 SCT015 BKN070 22/21 Q1015;
0120827980999992007091210004-07100-034867FM-15+0007SBJP V0202001N002110051019N0112651N1+02301+02201999999ADDGA1071+005101999GF107991999999999999999999MA1101591999999REMMET051METAR SBJP 121000Z 20004KT 9999 BKN017 23/22 Q1016;
0120827980999992007091211004-07100-034867FM-15+0007SBJP V0201401N006210060019N0112651N1+02601+02201999999ADDGA1071+006001999GF107991999999999999999999MA1101691999999REMMET051METAR SBJP 121100Z 14012KT 9999 BKN020 26/22 Q1017;
0143827980999992007091212004-07100-034867FM-15+0007SBJP V0201301N007212200019N0112651N1+02701+02201999999ADDGA1041+006001999GA2041+021001999GF104991999999999999999999MA1101691999999REMMET058METAR SBJP 121200Z 13014KT 9999 SCT020 SCT070 27/22 Q1017;
0120827980999992007091213004-07100-034867FM-15+0007SBJP V0201401N007210060019N0112651N1+02701+02101999999ADDGA1071+006001999GF107991999999999999999999MA1101691999999REMMET051METAR SBJP 121300Z 14014KT 9999 BKN020 27/21 Q1017;
0120827980999992007091214004-07100-034867FM-15+0007SBJP V0201301N006710075019N0112651N1+02801+02201999999ADDGA1071+007501999GF107991999999999999999999MA1101691999999REMMET051METAR SBJP 121400Z 13013KT 9999 BKN025 28/22 Q1017;
0120827980999992007091215004-07100-034867FM-15+0007SBJP V0201501N007210075019N0112651N1+02801+02201999999ADDGA1071+007501999GF107991999999999999999999MA1101591999999REMMET051METAR SBJP 121500Z 15014KT 9999 BKN025 28/22 Q1016;
0153827980999992007091216004-07100-034867FM-15+0007SBJP V0201501N007710060019N0060001N1+02501+02201999999ADDGA1041+003601999GA2071+006001999GF107991999999999999999999MA1101491999999MW1611REMMET062METAR SBJP 121600Z 15015KT 6000 -RA SCT012 BKN020 25/22 Q1015;
0143827980999992007091217004-07100-034867FM-15+0007SBJP V0201701N007710069019N0112651N1+02701+02201999999ADDGA1021+004201999GA2071+006901999GF107991999999999999999999MA1101391999999REMMET058METAR SBJP 121700Z 17015KT 9999 FEW014 BKN023 27/22 Q1014;
0120827980999992007091218004-07100-034867FM-15+0007SBJP V0201901N007212200019N0112651N1+02701+02101999999ADDGA1041+007501999GF104991999999999999999999MA1101391999999REMMET051METAR SBJP 121800Z 19014KT 9999 SCT025 27/21 Q1014;
0143827980999992007091219004-07100-034867FM-15+0007SBJP V0201901N006212200019N0112651N1+02701+02101999999ADDGA1041+006901999GA2041+021001999GF104991999999999999999999MA1101391999999REMMET058METAR SBJP 121900Z 19012KT 9999 SCT023 SCT070 27/21 Q1014;
0146827980999992007091220004-07100-034867FM-15+0007SBJP V0201601N00511220001CN0030001N1+02501+02201999999ADDGA1071+005101999GA2041+021001999MA1101491999999MW1611REMMET062METAR SBJP 122000Z 16010KT 3000 -RA BKN017 SCT070 25/22 Q1015;EQDQ01+000042SCOTCV
0117827980999992007091221004-07100-034867FM-15+0007SBJP V0202001N00411220001CN0112651N1+02301+02201999999ADDGA1071+005101999GA2041+021001999MA1101491999999REMMET058METAR SBJP 122100Z 20008KT 9999 BKN017 SCT070 23/22 Q1015;
0117827980999992007091222004-07100-034867FM-15+0007SBJP V0202001N00311220001CN0112651N1+02301+02101999999ADDGA1071+005101999GA2041+021001999MA1101591999999REMMET058METAR SBJP 122200Z 20006KT 9999 BKN017 SCT070 23/21 Q1016;
0130827980999992007091223004-07100-034867FM-15+0007SBJP V0202001N003110051019N0060001N1+02301+02201999999ADDGA1071+005101999GF107991999999999999999999MA1101591999999MW1611REMMET055METAR SBJP 122300Z 20006KT 6000 -RA BKN017 23/22 Q1016;
0120827980999992007091300004-07100-034867FM-15+0007SBJP V0201801N003110051019N0112651N1+02301+02101999999ADDGA1071+005101999GF107991999999999999999999MA1101691999999REMMET051METAR SBJP 130000Z 18006KT 9999 BKN017 23/21 Q1017;
0120827980999992007091301004-07100-034867FM-15+0007SBJP V0202001N002110051019N0112651N1+02401+02101999999ADDGA1071+005101999GF107991999999999999999999MA1101691999999REMMET051METAR SBJP 130100Z 20004KT 9999 BKN017 24/21 Q1017;
0120827980999992007091302004-07100-034867FM-15+0007SBJP V0201801N003110051019N0112651N1+02401+02101999999ADDGA1071+005101999GF107991999999999999999999MA1101691999999REMMET051METAR SBJP 130200Z 18006KT 9999 BKN017 24/21 Q1017;
0120827980999992007091303004-07100-034867FM-15+0007SBJP V0201801N003110051019N0112651N1+02301+02101999999ADDGA1071+005101999GF107991999999999999999999MA1101591999999REMMET051METAR SBJP 130300Z 18006KT 9999 BKN017 23/21 Q1016;
0143827980999992007091304004-07100-034867FM-15+0007SBJP V0201601N002610210019N0112651N1+02301+02101999999ADDGA1021+006001999GA2071+021001999GF107991999999999999999999MA1101491999999REMMET058METAR SBJP 130400Z 16005KT 9999 FEW020 BKN070 23/21 Q1015;
0143827980999992007091305004-07100-034867FM-15+0007SBJP V0201401N002612200019N0112651N1+02301+02101999999ADDGA1041+006001999GA2041+021001999GF104991999999999999999999MA1101491999999REMMET058METAR SBJP 130500Z 14005KT 9999 SCT020 SCT070 23/21 Q1015;
0120827980999992007091306004-07100-034867FM-15+0007SBJP V0201501N003112200019N0112651N1+02301+02101999999ADDGA1041+006001999GF104991999999999999999999MA1101391999999REMMET051METAR SBJP 130600Z 15006KT 9999 SCT020 23/21 Q1014;
0143827980999992007091307004-07100-034867FM-15+0007SBJP V0201501N003610210019N0112651N1+02301+02001999999ADDGA1041+006001999GA2071+021001999GF107991999999999999999999MA1101391999999REMMET058METAR SBJP 130700Z 15007KT 9999 SCT020 BKN070 23/20 Q1014;
0143827980999992007091308004-07100-034867FM-15+0007SBJP V0201501N003112200019N0112651N1+02301+02001999999ADDGA1021+006001999GA2041+021001999GF104991999999999999999999MA1101491999999REMMET058METAR SBJP 130800Z 15006KT 9999 FEW020 SCT070 23/20 Q1015;
0120827980999992007091309004-07100-034867FM-15+0007SBJP V0201501N002612200019N0112651N1+02201+01901999999ADDGA1041+006001999GF104991999999999999999999MA1101491999999REMMET051METAR SBJP 130900Z 15005KT 9999 SCT020 22/19 Q1015;
0120827980999992007091310004-07100-034867FM-15+0007SBJP V0201701N003612200019N0112651N1+02501+02101999999ADDGA1041+006001999GF104991999999999999999999MA1101591999999REMMET051METAR SBJP 131000Z 17007KT 9999 SCT020 25/21 Q1016;
0120827980999992007091311004-07100-034867FM-15+0007SBJP V0201501N005710075019N0112651N1+02601+02001999999ADDGA1071+007501999GF107991999999999999999999MA1101591999999REMMET051METAR SBJP 131100Z 15011KT 9999 BKN025 26/20 Q1016;
0120827980999992007091312004-07100-034867FM-15+0007SBJP V0201601N007212200019N0112651N1+02701+02101999999ADDGA1041+007501999GF104991999999999999999999MA1101691999999REMMET051METAR SBJP 131200Z 16014KT 9999 SCT025 27/21 Q1017;
0120827980999992007091313004-07100-034867FM-15+0007SBJP V0201701N007212200019N0112651N1+02801+01901999999ADDGA1041+009001999GF104991999999999999999999MA1101591999999REMMET051METAR SBJP 131300Z 17014KT 9999 SCT030 28/19 Q1016;
0120827980999992007091314004-07100-034867FM-15+0007SBJP V0201601N006712200019N0112651N1+02901+02001999999ADDGA1041+009001999GF104991999999999999999999MA1101591999999REMMET051METAR SBJP 131400Z 16013KT 9999 SCT030 29/20 Q1016;
0120827980999992007091315004-07100-034867FM-15+0007SBJP V0201401N005712200019N0112651N1+02901+01801999999ADDGA1041+009001999GF104991999999999999999999MA1101491999999REMMET051METAR SBJP 131500Z 14011KT 9999 SCT030 29/18 Q1015;
0120827980999992007091316004-07100-034867FM-15+0007SBJP V0201701N006212200019N0112651N1+02901+01901999999ADDGA1041+009001999GF104991999999999999999999MA1101391999999REMMET051METAR SBJP 131600Z 17012KT 9999 SCT030 29/19 Q1014;
0120827980999992007091317004-07100-034867FM-15+0007SBJP V0201601N006212200019N0112651N1+02801+02001999999ADDGA1041+009001999GF104991999999999999999999MA1101391999999REMMET051METAR SBJP 131700Z 16012KT 9999 SCT030 28/20 Q1014;
0120827980999992007091318004-07100-034867FM-15+0007SBJP V0201701N007212200019N0112651N1+02701+02001999999ADDGA1041+009001999GF104991999999999999999999MA1101291999999REMMET051METAR SBJP 131800Z 17014KT 9999 SCT030 27/20 Q1013;
0120827980999992007091319004-07100-034867FM-15+0007SBJP V0201601N005112200019N0112651N1+02701+01901999999ADDGA1041+009001999GF104991999999999999999999MA1101291999999REMMET051METAR SBJP 131900Z 16010KT 9999 SCT030 27/19 Q1013;
0120827980999992007091320004-07100-034867FM-15+0007SBJP V0201701N004112200019N0112651N1+02601+02001999999ADDGA1021+009001999GF102991999999999999999999MA1101391999999REMMET051METAR SBJP 132000Z 17008KT 9999 FEW030 26/20 Q1014;
0120827980999992007091321004-07100-034867FM-15+0007SBJP V0201801N003112200019N0112651N1+02401+02001999999ADDGA1021+009001999GF102991999999999999999999MA1101391999999REMMET051METAR SBJP 132100Z 18006KT 9999 FEW030 24/20 Q1014;
0072827980999992007091322004-07100-034867FM-15+0007SBJP V0201801N00211220001CN0099001N1+02301+02001999999ADDMA1101491999999REMMET045METAR SBJP 132200Z 18004KT CAVOK 23/20 Q1015;
0072827980999992007091323004-07100-034867FM-15+0007SBJP V0202001N00151220001CN0099001N1+02301+02001999999ADDMA1101491999999REMMET045METAR SBJP 132300Z 20003KT CAVOK 23/20 Q1015;
0072827980999992007091400004-07100-034867FM-15+0007SBJP V0202101N00151220001CN0099001N1+02201+02001999999ADDMA1101591999999REMMET045METAR SBJP 140000Z 21003KT CAVOK 22/20 Q1016;
0120827980999992007091401004-07100-034867FM-15+0007SBJP V0202301N001512200019N0112651N1+02201+02001999999ADDGA1021+004501999GF102991999999999999999999MA1101591999999REMMET051METAR SBJP 140100Z 23003KT 9999 FEW015 22/20 Q1016;
0143827980999992007091402004-07100-034867FM-15+0007SBJP V0202301N001512200019N0112651N1+02201+02001999999ADDGA1021+004501999GA2041+009001999GF104991999999999999999999MA1101591999999REMMET058METAR SBJP 140200Z 23003KT 9999 FEW015 SCT030 22/20 Q1016;
0120827980999992007091403004-07100-034867FM-15+0007SBJP V0202401N002112200019N0112651N1+02101+02001999999ADDGA1021+009001999GF102991999999999999999999MA1101491999999REMMET051METAR SBJP 140300Z 24004KT 9999 FEW030 21/20 Q1015;
0120827980999992007091404004-07100-034867FM-15+0007SBJP V0202201N002612200019N0112651N1+02201+02001999999ADDGA1041+006001999GF104991999999999999999999MA1101391999999REMMET051METAR SBJP 140400Z 22005KT 9999 SCT020 22/20 Q1014;
0120827980999992007091405004-07100-034867FM-15+0007SBJP V0202201N002612200019N0112651N1+02201+02101999999ADDGA1041+006001999GF104991999999999999999999MA1101391999999REMMET051METAR SBJP 140500Z 22005KT 9999 SCT020 22/21 Q1014;
0120827980999992007091406004-07100-034867FM-15+0007SBJP V0202201N002112200019N0112651N1+02201+02101999999ADDGA1041+006001999GF104991999999999999999999MA1101391999999REMMET051METAR SBJP 140600Z 22004KT 9999 SCT020 22/21 Q1014;
0143827980999992007091407004-07100-034867FM-15+0007SBJP V0202201N002112200019N0112651N1+02201+02101999999ADDGA1041+003601999GA2041+006001999GF104991999999999999999999MA1101391999999REMMET058METAR SBJP 140700Z 22004KT 9999 SCT012 SCT020 22/21 Q1014;
0155827980999992007091408004-07100-034867FM-15+0007SBJP V0202301N00151220001CN0040001N1+02201+02101999999ADDGA1071+002701999GA2041+006001999MA1101391999999MW1101MW2611REMMET065METAR SBJP 140800Z 23003KT 4000 -RA BR BKN009 SCT020 22/21 Q1014;EQDQ01+000042SCOTCV
0143827980999992007091409004-07100-034867FM-15+0007SBJP V0201601N003112200019N0112651N1+02301+02201999999ADDGA1041+003001999GA2041+005401999GF104991999999999999999999MA1101391999999REMMET058METAR SBJP 140900Z 16006KT 9999 SCT010 SCT018 23/22 Q1014;
0154827980999992007091410004-07100-034867FM-15+0007SBJP V0201501N005112200019N0080001N1+02301+02301999999ADDGA1041+003001999GA2041+005401999GF104991999999999999999999MA1101491999999MW1161REMMET063METAR SBJP 141000Z 15010KT 8000 VCSH SCT010 SCT018 23/23 Q1015;
0120827980999992007091411004-07100-034867FM-15+0007SBJP V0201401N005112200019N0112651N1+02501+02301999999ADDGA1041+005401999GF104991999999999999999999MA1101491999999REMMET051METAR SBJP 141100Z 14010KT 9999 SCT018 25/23 Q1015;
0120827980999992007091412004-07100-034867FM-15+0007SBJP V0201601N006212200019N0112651N1+02501+02301999999ADDGA1041+006001999GF104991999999999999999999MA1101591999999REMMET051METAR SBJP 141200Z 16012KT 9999 SCT020 25/23 Q1016;
0120827980999992007091413004-07100-034867FM-15+0007SBJP V0201201N005110060019N0112651N1+02501+02301999999ADDGA1071+006001999GF107991999999999999999999MA1101591999999REMMET051METAR SBJP 141300Z 12010KT 9999 BKN020 25/23 Q1016;
0120827980999992007091414004-07100-034867FM-15+0007SBJP V0201601N006210060019N0112651N1+02601+02301999999ADDGA1071+006001999GF107991999999999999999999MA1101491999999REMMET051METAR SBJP 141400Z 16012KT 9999 BKN020 26/23 Q1015;
0120827980999992007091415004-07100-034867FM-15+0007SBJP V0201601N007210060019N0112651N1+02701+02201999999ADDGA1071+006001999GF107991999999999999999999MA1101491999999REMMET051METAR SBJP 141500Z 16014KT 9999 BKN020 27/22 Q1015;
0143827980999992007091416004-07100-034867FM-15+0007SBJP V0201501N005710060019N0112651N1+02701+02201999999ADDGA1041+004201999GA2071+006001999GF107991999999999999999999MA1101391999999REMMET058METAR SBJP 141600Z 15011KT 9999 SCT014 BKN020 27/22 Q1014;
0153827980999992007091417004-07100-034867FM-15+0007SBJP V0201701N007210060019N0060001N1+02701+02201999999ADDGA1041+004201999GA2071+006001999GF107991999999999999999999MA1101391999999MW1611REMMET062METAR SBJP 141700Z 17014KT 6000 -RA SCT014 BKN020 27/22 Q1014;
0120827980999992007091418004-07100-034867FM-15+0007SBJP V0201501N006210075019N0112651N1+02701+02201999999ADDGA1071+007501999GF107991999999999999999999MA1101291999999REMMET051METAR SBJP 141800Z 15012KT 9999 BKN025 27/22 Q1013;
0143827980999992007091419004-07100-034867FM-15+0007SBJP V0201601N006210210019N0112651N1+02601+02201999999ADDGA1041+007501999GA2071+021001999GF107991999999999999999999MA1101291999999REMMET058METAR SBJP 141900Z 16012KT 9999 SCT025 BKN070 26/22 Q1013;
0143827980999992007091420004-07100-034867FM-15+0007SBJP V0201801N005112200019N0112651N1+02601+02201999999ADDGA1041+007501999GA2041+021001999GF104991999999999999999999MA1101391999999REMMET058METAR SBJP 142000Z 18010KT 9999 SCT025 SCT070 26/22 Q1014;
0130827980999992007091421004-07100-034867FM-15+0007SBJP V0201701N004110060019N0080001N1+02401+02201999999ADDGA1071+006001999GF107991999999999999999999MA1101391999999MW1611REMMET055METAR SBJP 142100Z 17008KT 8000 -RA BKN020 24/22 Q1014;
0120827980999992007091422004-07100-034867FM-15+0007SBJP V0201801N003110051019N0112651N1+02401+02201999999ADDGA1071+005101999GF107991999999999999999999MA1101491999999REMMET051METAR SBJP 142200Z 18006KT 9999 BKN017 24/22 Q1015;
0143827980999992007091423004-07100-034867FM-15+0007SBJP V0201801N003112200019N0112651N1+02401+02201999999ADDGA1041+005101999GA2041+021001999GF104991999999999999999999MA1101591999999REMMET058METAR SBJP 142300Z 18006KT 9999 SCT017 SCT070 24/22 Q1016;
0143827980999992007091500004-07100-034867FM-15+0007SBJP V0202001N002612200019N0112651N1+02401+02201999999ADDGA1041+005101999GA2041+021001999GF104991999999999999999999MA1101591999999REMMET058METAR SBJP 150000Z 20005KT 9999 SCT017 SCT070 24/22 Q1016;
0143827980999992007091501004-07100-034867FM-15+0007SBJP V0201801N001512200019N0112651N1+02401+02201999999ADDGA1041+005101999GA2041+021001999GF104991999999999999999999MA1101591999999REMMET058METAR SBJP 150100Z 18003KT 9999 SCT017 SCT070 24/22 Q1016;
0143827980999992007091502004-07100-034867FM-15+0007SBJP V0202001N002112200019N0112651N1+02401+02201999999ADDGA1041+005101999GA2041+021001999GF104991999999999999999999MA1101591999999REMMET058METAR SBJP 150200Z 20004KT 9999 SCT017 SCT070 24/22 Q1016;
0143827980999992007091503004-07100-034867FM-15+0007SBJP V0202201N002110210019N0112651N1+02401+02201999999ADDGA1041+005101999GA2071+021001999GF107991999999999999999999MA1101491999999REMMET058METAR SBJP 150300Z 22004KT 9999 SCT017 BKN070 24/22 Q1015;
0143827980999992007091504004-07100-034867FM-15+0007SBJP V0202301N003110210019N0112651N1+02301+02201999999ADDGA1041+005101999GA2071+021001999GF107991999999999999999999MA1101391999999REMMET058METAR SBJP 150400Z 23006KT 9999 SCT017 BKN070 23/22 Q1014;
0128827980999992007091505004-07100-034867FM-15+0007SBJP V0202301N002110210019N0112651N1+02301+02201999999ADDGA1041+005101999GA2071+021001999GF107991999999999999999999REMMET058METAR SBJP 150500Z 23004KT 9999 SCT017 BKN070 23/22 Q0006;
0143827980999992007091506004-07100-034867FM-15+0007SBJP V0202201N002110210019N0112651N1+02301+02201999999ADDGA1041+006001999GA2071+021001999GF107991999999999999999999MA1101391999999REMMET058METAR SBJP 150600Z 22004KT 9999 SCT020 BKN070 23/22 Q1014;
0143827980999992007091507004-07100-034867FM-15+0007SBJP V0202301N003112200019N0112651N1+02301+02201999999ADDGA1041+006001999GA2041+021001999GF104991999999999999999999MA1101391999999REMMET058METAR SBJP 150700Z 23006KT 9999 SCT020 SCT070 23/22 Q1014;
0154827980999992007091508004-07100-034867FM-15+0007SBJP V0202101N002110210019N0080001N1+02301+02201999999ADDGA1041+006001999GA2071+021001999GF107991999999999999999999MA1101391999999MW1161REMMET063METAR SBJP 150800Z 21004KT 8000 VCSH SCT020 BKN070 23/22 Q1014;
0143827980999992007091509004-07100-034867FM-15+0007SBJP V0201801N003110210019N0112651N1+02301+02201999999ADDGA1041+006001999GA2071+021001999GF107991999999999999999999MA1101491999999REMMET058METAR SBJP 150900Z 18006KT 9999 SCT020 BKN070 23/22 Q1015;
0178827980999992007091510004-07100-034867FM-15+0007SBJP V0201401N005710210019N0112651N1+02401+02101999999ADDGA1041+006001999GA2071+021001999GF107991999999999999999999MA1999999999999REMMET058METAR SBJP 151000Z 14011KT 9999 SCT020 BKN070 24/21 Q1023;EQDQ01+102303APOA  Q02 102303APOA  
0143827980999992007091511004-07100-034867FM-15+0007SBJP V0201601N008212200019N0112651N1+02701+02101999999ADDGA1041+007501999GA2041+021001999GF104991999999999999999999MA1101591999999REMMET058METAR SBJP 151100Z 16016KT 9999 SCT025 SCT070 27/21 Q1016;
0143827980999992007091512004-07100-034867FM-15+0007SBJP V0201701N005712200019N0112651N1+02701+02101999999ADDGA1041+007501999GA2041+021001999GF104991999999999999999999MA1101591999999REMMET058METAR SBJP 151200Z 17011KT 9999 SCT025 SCT070 27/21 Q1016;
0130827980999992007091513004-07100-034867FM-15+0007SBJP V0201901N005110075019N0070001N1+02701+02101999999ADDGA1071+007501999GF107991999999999999999999MA1101591999999MW1611REMMET055METAR SBJP 151300Z 19010KT 7000 -RA BKN025 27/21 Q1016;
0143827980999992007091514004-07100-034867FM-15+0007SBJP V0201701N007710210019N0112651N1+02701+02101999999ADDGA1041+007501999GA2071+021001999GF107991999999999999999999MA1101491999999REMMET058METAR SBJP 151400Z 17015KT 9999 SCT025 BKN070 27/21 Q1015;
0143827980999992007091515004-07100-034867FM-15+0007SBJP V0201501N006210210019N0112651N1+02801+02101999999ADDGA1041+007501999GA2071+021001999GF107991999999999999999999MA1101491999999REMMET058METAR SBJP 151500Z 15012KT 9999 SCT025 BKN070 28/21 Q1015;
0143827980999992007091516004-07100-034867FM-15+0007SBJP V0201801N006710210019N0112651N1+02801+02201999999ADDGA1041+007501999GA2071+021001999GF107991999999999999999999MA1101391999999REMMET058METAR SBJP 151600Z 18013KT 9999 SCT025 BKN070 28/22 Q1014;
0143827980999992007091517004-07100-034867FM-15+0007SBJP V0201801N006712200019N0112651N1+02801+02101999999ADDGA1041+007501999GA2041+021001999GF104991999999999999999999MA1101291999999REMMET058METAR SBJP 151700Z 18013KT 9999 SCT025 SCT070 28/21 Q1013;
0120827980999992007091518004-07100-034867FM-15+0007SBJP V0201801N006712200019N0112651N1+02701+02001999999ADDGA1041+007501999GF104991999999999999999999MA1101291999999REMMET051METAR SBJP 151800Z 18013KT 9999 SCT025 27/20 Q1013;
0120827980999992007091519004-07100-034867FM-15+0007SBJP V0201801N005712200019N0112651N1+02701+02001999999ADDGA1041+007501999GF104991999999999999999999MA1101291999999REMMET051METAR SBJP 151900Z 18011KT 9999 SCT025 27/20 Q1013;
0120827980999992007091520004-07100-034867FM-15+0007SBJP V0201901N004112200019N0112651N1+02601+02001999999ADDGA1021+007501999GF102991999999999999999999MA1101291999999REMMET051METAR SBJP 152000Z 19008KT 9999 FEW025 26/20 Q1013;
0072827980999992007091521004-07100-034867FM-15+0007SBJP V0201801N00311220001CN0099001N1+02401+02101999999ADDMA1101291999999REMMET045METAR SBJP 152100Z 18006KT CAVOK 24/21 Q1013;
0120827980999992007091522004-07100-034867FM-15+0007SBJP V0201701N003112200019N0112651N1+02401+02101999999ADDGA1021+006001999GF102991999999999999999999MA1101391999999REMMET051METAR SBJP 152200Z 17006KT 9999 FEW020 24/21 Q1014;
0120827980999992007091523004-07100-034867FM-15+0007SBJP V0201801N002612200019N0112651N1+02301+02101999999ADDGA1041+006001999GF104991999999999999999999MA1101491999999REMMET051METAR SBJP 152300Z 18005KT 9999 SCT020 23/21 Q1015;
0120827980999992007091600004-07100-034867FM-15+0007SBJP V0202001N002612200019N0112651N1+02301+02101999999ADDGA1041+006001999GF104991999999999999999999MA1101491999999REMMET051METAR SBJP 160000Z 20005KT 9999 SCT020 23/21 Q1015;
0120827980999992007091601004-07100-034867FM-15+0007SBJP V0201801N002610045019N0112651N1+02301+02201999999ADDGA1071+004501999GF107991999999999999999999MA1101591999999REMMET051METAR SBJP 160100Z 18005KT 9999 BKN015 23/22 Q1016;
0120827980999992007091602004-07100-034867FM-15+0007SBJP V0201601N003610048019N0112651N1+02301+02101999999ADDGA1071+004801999GF107991999999999999999999MA1101491999999REMMET051METAR SBJP 160200Z 16007KT 9999 BKN016 23/21 Q1015;
0120827980999992007091603004-07100-034867FM-15+0007SBJP V0201301N004110045019N0112651N1+02301+02101999999ADDGA1071+004501999GF107991999999999999999999MA1101491999999REMMET051METAR SBJP 160300Z 13008KT 9999 BKN015 23/21 Q1015;
0143827980999992007091604004-07100-034867FM-15+0007SBJP V0202001N003112200019N0112651N1+02201+02101999999ADDGA1041+004501999GA2041+021001999GF104991999999999999999999MA1101391999999REMMET058METAR SBJP 160400Z 20006KT 9999 SCT015 SCT070 22/21 Q1014;
0143827980999992007091605004-07100-034867FM-15+0007SBJP V0202101N003610018019N0112651N1+02301+02101999999ADDGA1071+001801999GA2071+004501999GF107991999999999999999999MA1101391999999REMMET058METAR SBJP 160500Z 21007KT 9999 BKN006 BKN015 23/21 Q1014;
0143827980999992007091606004-07100-034867FM-15+0007SBJP V0202201N002112200019N0112651N1+02201+02101999999ADDGA1021+001801999GA2041+004501999GF104991999999999999999999MA1101391999999REMMET058METAR SBJP 160600Z 22004KT 9999 FEW006 SCT015 22/21 Q1014;
0143827980999992007091607004-07100-034867FM-15+0007SBJP V0202101N002610045019N0112651N1+02201+02101999999ADDGA1041+001801999GA2071+004501999GF107991999999999999999999MA1101291999999REMMET058METAR SBJP 160700Z 21005KT 9999 SCT006 BKN015 22/21 Q1013;
0143827980999992007091608004-07100-034867FM-15+0007SBJP V0202201N002112200019N0112651N1+02201+02101999999ADDGA1041+001801999GA2041+004501999GF104991999999999999999999MA1101291999999REMMET058METAR SBJP 160800Z 22004KT 9999 SCT006 SCT015 22/21 Q1013;
0143827980999992007091609004-07100-034867FM-15+0007SBJP V0209999C000010045019N0112651N1+02201+02101999999ADDGA1041+001801999GA2071+004501999GF107991999999999999999999MA1101391999999REMMET058METAR SBJP 160900Z 00000KT 9999 SCT006 BKN015 22/21 Q1014;
0166827980999992007091610004-07100-034867FM-15+0007SBJP V0202301N002610045019N0112651N1+02301+02201999999ADDGA1041+001801999GA2071+004501999GA3071+021001999GF107991999999999999999999MA1101491999999REMMET065METAR SBJP 161000Z 23005KT 9999 SCT006 BKN015 BKN070 23/22 Q1015;
0143827980999992007091611004-07100-034867FM-15+0007SBJP V0201901N003112200019N0112651N1+02601+02201999999ADDGA1041+004501999GA2041+027001999GF104991999999999999999999MA1101491999999REMMET058METAR SBJP 161100Z 19006KT 9999 SCT015 SCT090 26/22 Q1015;
0143827980999992007091612004-07100-034867FM-15+0007SBJP V0201501N005112200019N0112651N1+02801+02201999999ADDGA1041+007501999GA2041+027001999GF104991999999999999999999MA1101591999999REMMET058METAR SBJP 161200Z 15010KT 9999 SCT025 SCT090 28/22 Q1016;
0120827980999992007091613004-07100-034867FM-15+0007SBJP V0201501N005110075019N0112651N1+02901+02101999999ADDGA1071+007501999GF107991999999999999999999MA1101491999999REMMET051METAR SBJP 161300Z 15010KT 9999 BKN025 29/21 Q1015;
0120827980999992007091614004-07100-034867FM-15+0007SBJP V0201401N005110075019N0112651N1+02901+02101999999ADDGA1071+007501999GF107991999999999999999999MA1101391999999REMMET051METAR SBJP 161400Z 14010KT 9999 BKN025 29/21 Q1014;
0120827980999992007091615004-07100-034867FM-15+0007SBJP V0201301N005110075019N0112651N1+02901+02101999999ADDGA1071+007501999GF107991999999999999999999MA1101391999999REMMET051METAR SBJP 161500Z 13010KT 9999 BKN025 29/21 Q1014;
0120827980999992007091616004-07100-034867FM-15+0007SBJP V0201201N005110090019N0112651N1+02901+02001999999ADDGA1071+009001999GF107991999999999999999999MA1101291999999REMMET051METAR SBJP 161600Z 12010KT 9999 BKN030 29/20 Q1013;
0143827980999992007091617004-07100-034867FM-15+0007SBJP V0201401N005712200019N0112651N1+02901+02101999999ADDGA1041+009001999GA2041+021001999GF104991999999999999999999MA1101291999999REMMET058METAR SBJP 161700Z 14011KT 9999 SCT030 SCT070 29/21 Q1013;
0120827980999992007091618004-07100-034867FM-15+0007SBJP V0201401N006212200019N0112651N1+02801+02201999999ADDGA1041+006001999GF104991999999999999999999MA1101191999999REMMET051METAR SBJP 161800Z 14012KT 9999 SCT020 28/22 Q1012;
0120827980999992007091619004-07100-034867FM-15+0007SBJP V0201401N004612200019N0112651N1+02701+02101999999ADDGA1041+006001999GF104991999999999999999999MA1101291999999REMMET051METAR SBJP 161900Z 14009KT 9999 SCT020 27/21 Q1013;
0120827980999992007091620004-07100-034867FM-15+0007SBJP V0201301N004112200019N0112651N1+02601+02201999999ADDGA1041+006001999GF104991999999999999999999MA1101291999999REMMET051METAR SBJP 162000Z 13008KT 9999 SCT020 26/22 Q1013;
0120827980999992007091621004-07100-034867FM-15+0007SBJP V0201301N003612200019N0112651N1+02501+02201999999ADDGA1041+006001999GF104991999999999999999999MA1101291999999REMMET051METAR SBJP 162100Z 13007KT 9999 SCT020 25/22 Q1013;
0120827980999992007091622004-07100-034867FM-15+0007SBJP V0201301N003612200019N0112651N1+02501+02201999999ADDGA1041+006001999GF104991999999999999999999MA1101291999999REMMET051METAR SBJP 162200Z 13007KT 9999 SCT020 25/22 Q1013;
0120827980999992007091623004-07100-034867FM-15+0007SBJP V0201801N003112200019N0112651N1+02501+02201999999ADDGA1041+006001999GF104991999999999999999999MA1101591999999REMMET051METAR SBJP 162300Z 18006KT 9999 SCT020 25/22 Q1016;
0120827980999992007091700004-07100-034867FM-15+0007SBJP V0201901N003112200019N0112651N1+02401+02201999999ADDGA1041+006001999GF104991999999999999999999MA1101491999999REMMET051METAR SBJP 170000Z 19006KT 9999 SCT020 24/22 Q1015;
0120827980999992007091701004-07100-034867FM-15+0007SBJP V0202001N002112200019N0112651N1+02401+02301999999ADDGA1041+006001999GF104991999999999999999999MA1101491999999REMMET051METAR SBJP 170100Z 20004KT 9999 SCT020 24/23 Q1015;
0120827980999992007091702004-07100-034867FM-15+0007SBJP V0201901N002112200019N0112651N1+02401+02201999999ADDGA1041+006001999GF104991999999999999999999MA1101491999999REMMET051METAR SBJP 170200Z 19004KT 9999 SCT020 24/22 Q1015;
0120827980999992007091703004-07100-034867FM-15+0007SBJP V0201901N002110060019N0112651N1+02301+02201999999ADDGA1071+006001999GF107991999999999999999999MA1101491999999REMMET051METAR SBJP 170300Z 19004KT 9999 BKN020 23/22 Q1015;
0166827980999992007091704004-07100-034867FM-15+0007SBJP V0202001N00101004501CN0112651N1+02301+02201999999ADDGA1041+001801999GA2041+004501999GA3071+021001999GF107991999999999999999999MA1101391999999REMMET065METAR SBJP 170400Z 20002KT 9999 SCT006 SCT015 BKN070 23/22 Q1014;
0166827980999992007091705004-07100-034867FM-15+0007SBJP V0202401N00101004501CN0112651N1+02301+02201999999ADDGA1041+001801999GA2041+004501999GA3071+021001999GF107991999999999999999999MA1101391999999REMMET065METAR SBJP 170500Z 24002KT 9999 SCT006 SCT015 BKN070 23/22 Q1014;
0166827980999992007091706004-07100-034867FM-15+0007SBJP V0202401N00211004501CN0112651N1+02301+02201999999ADDGA1041+001801999GA2041+004501999GA3071+021001999GF107991999999999999999999MA1101391999999REMMET065METAR SBJP 170600Z 24004KT 9999 SCT006 SCT015 BKN070 23/22 Q1014;
0143827980999992007091707004-07100-034867FM-15+0007SBJP V0202401N002112200019N0112651N1+02301+02201999999ADDGA1041+004501999GA2041+021001999GF104991999999999999999999MA1101391999999REMMET058METAR SBJP 170700Z 24004KT 9999 SCT015 SCT070 23/22 Q1014;
0143827980999992007091708004-07100-034867FM-15+0007SBJP V0202301N002112200019N0112651N1+02201+02101999999ADDGA1041+004501999GA2041+021001999GF104991999999999999999999MA1101391999999REMMET058METAR SBJP 170800Z 23004KT 9999 SCT015 SCT070 22/21 Q1014;
0120827980999992007091709004-07100-034867FM-15+0007SBJP V0202201N002112200019N0112651N1+02201+02101999999ADDGA1021+006001999GF102991999999999999999999MA1101391999999REMMET051METAR SBJP 170900Z 22004KT 9999 FEW020 22/21 Q1014;
0072827980999992007091710004-07100-034867FM-15+0007SBJP V0201901N00311220001CN0099001N1+02401+02201999999ADDMA1101491999999REMMET045METAR SBJP 171000Z 19006KT CAVOK 24/22 Q1015;
0120827980999992007091711004-07100-034867FM-15+0007SBJP V0201701N002610042019N0112651N1+02601+02201999999ADDGA1071+004201999GF107991999999999999999999MA1101591999999REMMET051METAR SBJP 171100Z 17005KT 9999 BKN014 26/22 Q1016;
0120827980999992007091712004-07100-034867FM-15+0007SBJP V0201501N004110060019N0112651N1+02701+02201999999ADDGA1071+006001999GF107991999999999999999999MA1101591999999REMMET051METAR SBJP 171200Z 15008KT 9999 BKN020 27/22 Q1016;
0120827980999992007091713004-07100-034867FM-15+0007SBJP V0201301N004112200019N0112651N1+02901+02101999999ADDGA1041+006001999GF104991999999999999999999MA1101491999999REMMET051METAR SBJP 171300Z 13008KT 9999 SCT020 29/21 Q1015;
0120827980999992007091714004-07100-034867FM-15+0007SBJP V0201301N004610090019N0112651N1+02801+02101999999ADDGA1071+009001999GF107991999999999999999999MA1101491999999REMMET051METAR SBJP 171400Z 13009KT 9999 BKN030 28/21 Q1015;
0117827980999992007091715004-07100-034867FM-15+0007SBJP V0201501N00511220001CN0112651N1+02901+02301999999ADDGA1071+006001999GA2041+090001999MA1101391999999REMMET058METAR SBJP 171500Z 15010KT 9999 BKN020 SCT300 29/23 Q1014;
0143827980999992007091716004-07100-034867FM-15+0007SBJP V0201401N005110900019N0112651N1+02901+02201999999ADDGA1021+007501999GA2071+090001999GF107991999999999999999999MA1101291999999REMMET058METAR SBJP 171600Z 14010KT 9999 FEW025 BKN300 29/22 Q1013;
0143827980999992007091717004-07100-034867FM-15+0007SBJP V0201401N005112200019N0112651N1+02901+02201999999ADDGA1041+007501999GA2041+090001999GF104991999999999999999999MA1101191999999REMMET058METAR SBJP 171700Z 14010KT 9999 SCT025 SCT300 29/22 Q1012;
0120827980999992007091718004-07100-034867FM-15+0007SBJP V0201501N005112200019N0112651N1+02801+02201999999ADDGA1041+007501999GF104991999999999999999999MA1101191999999REMMET051METAR SBJP 171800Z 15010KT 9999 SCT025 28/22 Q1012;
0120827980999992007091719004-07100-034867FM-15+0007SBJP V0201501N005112200019N0112651N1+02701+02201999999ADDGA1021+007501999GF102991999999999999999999MA1101291999999REMMET051METAR SBJP 171900Z 15010KT 9999 FEW025 27/22 Q1013;
0120827980999992007091720004-07100-034867FM-15+0007SBJP V0201501N005112200019N0112651N1+02601+02201999999ADDGA1021+007501999GF102991999999999999999999MA1101291999999REMMET051METAR SBJP 172000Z 15010KT 9999 FEW025 26/22 Q1013;
0120827980999992007091721004-07100-034867FM-15+0007SBJP V0201501N004112200019N0112651N1+02501+02201999999ADDGA1021+007501999GF102991999999999999999999MA1101291999999REMMET051METAR SBJP 172100Z 15008KT 9999 FEW025 25/22 Q1013;
0120827980999992007091722004-07100-034867FM-15+0007SBJP V0201301N004112200019N0112651N1+02501+02201999999ADDGA1021+009001999GF102991999999999999999999MA1101391999999REMMET051METAR SBJP 172200Z 13008KT 9999 FEW030 25/22 Q1014;
0120827980999992007091723004-07100-034867FM-15+0007SBJP V0201201N003612200019N0112651N1+02501+02201999999ADDGA1041+007501999GF104991999999999999999999MA1101491999999REMMET051METAR SBJP 172300Z 12007KT 9999 SCT025 25/22 Q1015;
0120827980999992007091800004-07100-034867FM-15+0007SBJP V0201301N003112200019N0112651N1+02401+02201999999ADDGA1021+006001999GF102991999999999999999999MA1101491999999REMMET051METAR SBJP 180000Z 13006KT 9999 FEW020 24/22 Q1015;
0072827980999992007091801004-07100-034867FM-15+0007SBJP V0201301N00151220001CN0099001N1+02301+02101999999ADDMA1101491999999REMMET045METAR SBJP 180100Z 13003KT CAVOK 23/21 Q1015;
0072827980999992007091802004-07100-034867FM-15+0007SBJP V0201701N00101220001CN0099001N1+02401+02201999999ADDMA1101491999999REMMET045METAR SBJP 180200Z 17002KT CAVOK 24/22 Q1015;
0120827980999992007091803004-07100-034867FM-15+0007SBJP V0202001N001012200019N0112651N1+02301+02101999999ADDGA1021+006001999GF102991999999999999999999MA1101491999999REMMET051METAR SBJP 180300Z 20002KT 9999 FEW020 23/21 Q1015;
0120827980999992007091804004-07100-034867FM-15+0007SBJP V0209999C000010045019N0112651N1+02301+02201999999ADDGA1071+004501999GF107991999999999999999999MA1101391999999REMMET051METAR SBJP 180400Z 00000KT 9999 BKN015 23/22 Q1014;
0120827980999992007091805004-07100-034867FM-15+0007SBJP V0202101N001012200019N0112651N1+02201+02101999999ADDGA1021+004501999GF102991999999999999999999MA1101391999999REMMET051METAR SBJP 180500Z 21002KT 9999 FEW015 22/21 Q1014;
0120827980999992007091806004-07100-034867FM-15+0007SBJP V0202301N002112200019N0112651N1+02201+02101999999ADDGA1041+004501999GF104991999999999999999999MA1101391999999REMMET051METAR SBJP 180600Z 23004KT 9999 SCT015 22/21 Q1014;
0120827980999992007091807004-07100-034867FM-15+0007SBJP V0202101N002112200019N0112651N1+02201+02101999999ADDGA1041+004501999GF104991999999999999999999MA1101491999999REMMET051METAR SBJP 180700Z 21004KT 9999 SCT015 22/21 Q1015;
0120827980999992007091808004-07100-034867FM-15+0007SBJP V0202101N001010045019N0112651N1+02201+02101999999ADDGA1071+004501999GF107991999999999999999999MA1101491999999REMMET051METAR SBJP 180800Z 21002KT 9999 BKN015 22/21 Q1015;
0120827980999992007091809004-07100-034867FM-15+0007SBJP V0201901N001510045019N0112651N1+02301+02201999999ADDGA1071+004501999GF107991999999999999999999MA1101591999999REMMET051METAR SBJP 180900Z 19003KT 9999 BKN015 23/22 Q1016;
0120827980999992007091810004-07100-034867FM-15+0007SBJP V0202001N002112200019N0112651N1+02401+02201999999ADDGA1021+006001999GF102991999999999999999999MA1101591999999REMMET051METAR SBJP 181000Z 20004KT 9999 FEW020 24/22 Q1016;
0120827980999992007091811004-07100-034867FM-15+0007SBJP V0201701N002612200019N0112651N1+02601+02301999999ADDGA1041+006001999GF104991999999999999999999MA1101691999999REMMET051METAR SBJP 181100Z 17005KT 9999 SCT020 26/23 Q1017;
0120827980999992007091812004-07100-034867FM-15+0007SBJP V0201501N005112200019N0112651N1+02801+02201999999ADDGA1041+007501999GF104991999999999999999999MA1101691999999REMMET051METAR SBJP 181200Z 15010KT 9999 SCT025 28/22 Q1017;
0120827980999992007091813004-07100-034867FM-15+0007SBJP V0201501N006212200019N0112651N1+02901+02101999999ADDGA1041+007501999GF104991999999999999999999MA1101691999999REMMET051METAR SBJP 181300Z 15012KT 9999 SCT025 29/21 Q1017;
0120827980999992007091814004-07100-034867FM-15+0007SBJP V0201601N006712200019N0112651N1+02901+02101999999ADDGA1041+007501999GF104991999999999999999999MA1101691999999REMMET051METAR SBJP 181400Z 16013KT 9999 SCT025 29/21 Q1017;
0120827980999992007091815004-07100-034867FM-15+0007SBJP V0201601N006212200019N0112651N1+03001+02101999999ADDGA1041+009001999GF104991999999999999999999MA1101591999999REMMET051METAR SBJP 181500Z 16012KT 9999 SCT030 30/21 Q1016;
0120827980999992007091816004-07100-034867FM-15+0007SBJP V0201601N006712200019N0112651N1+03001+02001999999ADDGA1041+009001999GF104991999999999999999999MA1101491999999REMMET051METAR SBJP 181600Z 16013KT 9999 SCT030 30/20 Q1015;
0120827980999992007091817004-07100-034867FM-15+0007SBJP V0201401N006212200019N0112651N1+02901+02001999999ADDGA1041+009001999GF104991999999999999999999MA1101391999999REMMET051METAR SBJP 181700Z 14012KT 9999 SCT030 29/20 Q1014;
0120827980999992007091818004-07100-034867FM-15+0007SBJP V0201401N006712200019N0112651N1+02801+02101999999ADDGA1021+009001999GF102991999999999999999999MA1101491999999REMMET051METAR SBJP 181800Z 14013KT 9999 FEW030 28/21 Q1015;
0131827980999992007091819004-07100-034867FM-15+0007SBJP V0201501N005112200019N0112651N1+02801+02101999999ADDGA1021+009001999GF102991999999999999999999MA1101491999999OC101131REMMET054METAR SBJP 181900Z 15010G22KT 9999 FEW030 28/21 Q1015;
0120827980999992007091820004-07100-034867FM-15+0007SBJP V0201501N006212200019N0112651N1+02601+02101999999ADDGA1021+009001999GF102991999999999999999999MA1101491999999REMMET051METAR SBJP 182000Z 15012KT 9999 FEW030 26/21 Q1015;
0120827980999992007091821004-07100-034867FM-15+0007SBJP V0201601N004112200019N0112651N1+02501+02101999999ADDGA1021+009001999GF102991999999999999999999MA1101591999999REMMET051METAR SBJP 182100Z 16008KT 9999 FEW030 25/21 Q1016;
0072827980999992007091822004-07100-034867FM-15+0007SBJP V0201801N00311220001CN0099001N1+02401+02101999999ADDMA1101591999999REMMET045METAR SBJP 182200Z 18006KT CAVOK 24/21 Q1016;
0120827980999992007091823004-07100-034867FM-15+0007SBJP V0201801N003112200019N0112651N1+02401+02101999999ADDGA1021+006001999GF102991999999999999999999MA1101591999999REMMET051METAR SBJP 182300Z 18006KT 9999 FEW020 24/21 Q1016;
0120827980999992007091900004-07100-034867FM-15+0007SBJP V0201801N002612200019N0112651N1+02401+02101999999ADDGA1021+006001999GF102991999999999999999999MA1101691999999REMMET051METAR SBJP 190000Z 18005KT 9999 FEW020 24/21 Q1017;
0120827980999992007091901004-07100-034867FM-15+0007SBJP V0202401N001512200019N0112651N1+02301+02101999999ADDGA1021+006001999GF102991999999999999999999MA1101691999999REMMET051METAR SBJP 190100Z 24003KT 9999 FEW020 23/21 Q1017;
0120827980999992007091902004-07100-034867FM-15+0007SBJP V0202401N001512200019N0112651N1+02301+02101999999ADDGA1041+006001999GF104991999999999999999999MA1101691999999REMMET051METAR SBJP 190200Z 24003KT 9999 SCT020 23/21 Q1017;
0120827980999992007091903004-07100-034867FM-15+0007SBJP V0202401N002612200019N0112651N1+02201+02101999999ADDGA1041+006001999GF104991999999999999999999MA1101591999999REMMET051METAR SBJP 190300Z 24005KT 9999 SCT020 22/21 Q1016;
0120827980999992007091904004-07100-034867FM-15+0007SBJP V0202501N002112200019N0112651N1+02201+02101999999ADDGA1041+006001999GF104991999999999999999999MA1101591999999REMMET051METAR SBJP 190400Z 25004KT 9999 SCT020 22/21 Q1016;
0120827980999992007091905004-07100-034867FM-15+0007SBJP V0202001N002612200019N0112651N1+02201+02101999999ADDGA1041+006001999GF104991999999999999999999MA1101491999999REMMET051METAR SBJP 190500Z 20005KT 9999 SCT020 22/21 Q1015;
0143827980999992007091906004-07100-034867FM-15+0007SBJP V0202201N002612200019N0112651N1+02201+02101999999ADDGA1021+006001999GA2041+021001999GF104991999999999999999999MA1101591999999REMMET058METAR SBJP 190600Z 22005KT 9999 FEW020 SCT070 22/21 Q1016;
0120827980999992007091907004-07100-034867FM-15+0007SBJP V0202201N002112200019N0112651N1+02101+02101999999ADDGA1021+006001999GF102991999999999999999999MA1101591999999REMMET051METAR SBJP 190700Z 22004KT 9999 FEW020 21/21 Q1016;
0120827980999992007091908004-07100-034867FM-15+0007SBJP V0202301N002612200019N0112651N1+02101+02001999999ADDGA1021+006001999GF102991999999999999999999MA1101591999999REMMET051METAR SBJP 190800Z 23005KT 9999 FEW020 21/20 Q1016;
0143827980999992007091909004-07100-034867FM-15+0007SBJP V0202201N002612200019N0112651N1+02201+02101999999ADDGA1021+006001999GA2041+021001999GF104991999999999999999999MA1101691999999REMMET058METAR SBJP 190900Z 22005KT 9999 FEW020 SCT070 22/21 Q1017;
0143827980999992007091910004-07100-034867FM-15+0007SBJP V0201901N003112200019N0112651N1+02401+02201999999ADDGA1041+006001999GA2041+021001999GF104991999999999999999999MA1101691999999REMMET058METAR SBJP 191000Z 19006KT 9999 SCT020 SCT070 24/22 Q1017;
0143827980999992007091911004-07100-034867FM-15+0007SBJP V0201901N004612200019N0112651N1+02601+02201999999ADDGA1041+007501999GA2041+021001999GF104991999999999999999999MA1101801999999REMMET058METAR SBJP 191100Z 19009KT 9999 SCT025 SCT070 26/22 Q1018;
0120827980999992007091912004-07100-034867FM-15+0007SBJP V0201601N005712200019N0112651N1+02701+02201999999ADDGA1041+009001999GF104991999999999999999999MA1101801999999REMMET051METAR SBJP 191200Z 16011KT 9999 SCT030 27/22 Q1018;
0131827980999992007091913004-07100-034867FM-15+0007SBJP V0201601N007712200019N0112651N1+02801+02201999999ADDGA1041+009001999GF104991999999999999999999MA1101691999999OC101291REMMET054METAR SBJP 191300Z 16015G25KT 9999 SCT030 28/22 Q1017;
0120827980999992007091914004-07100-034867FM-15+0007SBJP V0201701N007712200019N0112651N1+02901+02201999999ADDGA1041+009001999GF104991999999999999999999MA1101691999999REMMET051METAR SBJP 191400Z 17015KT 9999 SCT030 29/22 Q1017;
0131827980999992007091915004-07100-034867FM-15+0007SBJP V0201601N007712200019N0112651N1+02901+02101999999ADDGA1041+009001999GF104991999999999999999999MA1101591999999OC101291REMMET054METAR SBJP 191500Z 16015G25KT 9999 SCT030 29/21 Q1016;
0120827980999992007091916004-07100-034867FM-15+0007SBJP V0201801N007212200019N0112651N1+02901+02101999999ADDGA1041+009001999GF104991999999999999999999MA1101491999999REMMET051METAR SBJP 191600Z 18014KT 9999 SCT030 29/21 Q1015;
0120827980999992007091917004-07100-034867FM-15+0007SBJP V0201701N007212200019N0112651N1+02801+02101999999ADDGA1041+009001999GF104991999999999999999999MA1101391999999REMMET051METAR SBJP 191700Z 17014KT 9999 SCT030 28/21 Q1014;
0120827980999992007091918004-07100-034867FM-15+0007SBJP V0201601N006712200019N0112651N1+02901+02101999999ADDGA1041+009001999GF104991999999999999999999MA1101391999999REMMET051METAR SBJP 191800Z 16013KT 9999 SCT030 29/21 Q1014;
0120827980999992007091919004-07100-034867FM-15+0007SBJP V0201601N007712200019N0112651N1+02801+02001999999ADDGA1041+009001999GF104991999999999999999999MA1101391999999REMMET051METAR SBJP 191900Z 16015KT 9999 SCT030 28/20 Q1014;
0120827980999992007091920004-07100-034867FM-15+0007SBJP V0201601N007712200019N0112651N1+02801+02001999999ADDGA1041+009001999GF104991999999999999999999MA1101391999999REMMET051METAR SBJP 192000Z 16015KT 9999 SCT030 28/20 Q1014;
0120827980999992007091921004-07100-034867FM-15+0007SBJP V0201701N005112200019N0112651N1+02501+02101999999ADDGA1021+009001999GF102991999999999999999999MA1101491999999REMMET051METAR SBJP 192100Z 17010KT 9999 FEW030 25/21 Q1015;
0120827980999992007091922004-07100-034867FM-15+0007SBJP V0201801N003612200019N0112651N1+02401+02201999999ADDGA1021+009001999GF102991999999999999999999MA1101591999999REMMET051METAR SBJP 192200Z 18007KT 9999 FEW030 24/22 Q1016;
0120827980999992007091923004-07100-034867FM-15+0007SBJP V0201801N004112200019N0112651N1+02401+02201999999ADDGA1021+007501999GF102991999999999999999999MA1101591999999REMMET051METAR SBJP 192300Z 18008KT 9999 FEW025 24/22 Q1016;
0072827980999992007092000004-07100-034867FM-15+0007SBJP V0201801N00411220001CN0099001N1+02401+02101999999ADDMA1101591999999REMMET045METAR SBJP 200000Z 18008KT CAVOK 24/21 Q1016;
0120827980999992007092001004-07100-034867FM-15+0007SBJP V0201901N004112200019N0112651N1+02401+02101999999ADDGA1021+007501999GF102991999999999999999999MA1101691999999REMMET051METAR SBJP 200100Z 19008KT 9999 FEW025 24/21 Q1017;
0120827980999992007092003004-07100-034867FM-15+0007SBJP V0201901N002112200019N0112651N1+02301+02001999999ADDGA1021+007501999GF102991999999999999999999MA1101591999999REMMET051METAR SBJP 200300Z 19004KT 9999 FEW025 23/20 Q1016;
0120827980999992007092004004-07100-034867FM-15+0007SBJP V0201801N002112200019N0112651N1+02201+02001999999ADDGA1021+006001999GF102991999999999999999999MA1101491999999REMMET051METAR SBJP 200400Z 18004KT 9999 FEW020 22/20 Q1015;
0120827980999992007092005004-07100-034867FM-15+0007SBJP V0201901N001512200019N0112651N1+02201+02001999999ADDGA1021+006001999GF102991999999999999999999MA1101491999999REMMET051METAR SBJP 200500Z 19003KT 9999 FEW020 22/20 Q1015;
0143827980999992007092006004-07100-034867FM-15+0007SBJP V0202201N001512200019N0112651N1+02101+01901999999ADDGA1041+006001999GA2041+021001999GF104991999999999999999999MA1101491999999REMMET058METAR SBJP 200600Z 22003KT 9999 SCT020 SCT070 21/19 Q1015;
0143827980999992007092007004-07100-034867FM-15+0007SBJP V0202201N002112200019N0112651N1+02101+01901999999ADDGA1021+006001999GA2041+021001999GF104991999999999999999999MA1101491999999REMMET058METAR SBJP 200700Z 22004KT 9999 FEW020 SCT070 21/19 Q1015;
0143827980999992007092008004-07100-034867FM-15+0007SBJP V0202101N002112200019N0112651N1+02101+01901999999ADDGA1021+006001999GA2041+021001999GF104991999999999999999999MA1101491999999REMMET058METAR SBJP 200800Z 21004KT 9999 FEW020 SCT070 21/19 Q1015;
0120827980999992007092009004-07100-034867FM-15+0007SBJP V0202101N002112200019N0112651N1+02101+02001999999ADDGA1021+006001999GF102991999999999999999999MA1101491999999REMMET051METAR SBJP 200900Z 21004KT 9999 FEW020 21/20 Q1015;
0120827980999992007092010004-07100-034867FM-15+0007SBJP V0201701N003112200019N0112651N1+02401+02101999999ADDGA1021+006001999GF102991999999999999999999MA1101591999999REMMET051METAR SBJP 201000Z 17006KT 9999 FEW020 24/21 Q1016;
0120827980999992007092011004-07100-034867FM-15+0007SBJP V0201501N006212200019N0112651N1+02601+01901999999ADDGA1041+007501999GF104991999999999999999999MA1101591999999REMMET051METAR SBJP 201100Z 15012KT 9999 SCT025 26/19 Q1016;
0120827980999992007092012004-07100-034867FM-15+0007SBJP V0201501N006212200019N0112651N1+02601+01901999999ADDGA1041+007501999GF104991999999999999999999MA1101591999999REMMET051METAR SBJP 201200Z 15012KT 9999 SCT025 26/19 Q1016;
0120827980999992007092013004-07100-034867FM-15+0007SBJP V0201601N005712200019N0112651N1+02701+02001999999ADDGA1041+007501999GF104991999999999999999999MA1101591999999REMMET051METAR SBJP 201300Z 16011KT 9999 SCT025 27/20 Q1016;
0120827980999992007092014004-07100-034867FM-15+0007SBJP V0201501N004612200019N0112651N1+02801+02001999999ADDGA1041+009001999GF104991999999999999999999MA1101591999999REMMET051METAR SBJP 201400Z 15009KT 9999 SCT030 28/20 Q1016;
0120827980999992007092015004-07100-034867FM-15+0007SBJP V0201601N006712200019N0112651N1+02901+01901999999ADDGA1041+009001999GF104991999999999999999999MA1101491999999REMMET051METAR SBJP 201500Z 16013KT 9999 SCT030 29/19 Q1015;
0120827980999992007092016004-07100-034867FM-15+0007SBJP V0201601N005710090019N0112651N1+02801+01901999999ADDGA1071+009001999GF107991999999999999999999MA1101391999999REMMET051METAR SBJP 201600Z 16011KT 9999 BKN030 28/19 Q1014;
0120827980999992007092017004-07100-034867FM-15+0007SBJP V0201401N006212200019N0112651N1+02701+01901999999ADDGA1041+009001999GF104991999999999999999999MA1101291999999REMMET051METAR SBJP 201700Z 14012KT 9999 SCT030 27/19 Q1013;
0120827980999992007092018004-07100-034867FM-15+0007SBJP V0201401N005712200019N0112651N1+02801+01901999999ADDGA1041+009001999GF104991999999999999999999MA1101291999999REMMET051METAR SBJP 201800Z 14011KT 9999 SCT030 28/19 Q1013;
0120827980999992007092019004-07100-034867FM-15+0007SBJP V0201401N005712200019N0112651N1+02801+01901999999ADDGA1041+009001999GF104991999999999999999999MA1101291999999REMMET051METAR SBJP 201900Z 14011KT 9999 SCT030 28/19 Q1013;
0120827980999992007092020004-07100-034867FM-15+0007SBJP V0201601N004612200019N0112651N1+02601+02001999999ADDGA1021+009001999GF102991999999999999999999MA1101391999999REMMET051METAR SBJP 202000Z 16009KT 9999 FEW030 26/20 Q1014;
0120827980999992007092021004-07100-034867FM-15+0007SBJP V0201801N002612200019N0112651N1+02501+02001999999ADDGA1021+007501999GF102991999999999999999999MA1101391999999REMMET051METAR SBJP 202100Z 18005KT 9999 FEW025 25/20 Q1014;
0120827980999992007092022004-07100-034867FM-15+0007SBJP V0201401N002612200019N0112651N1+02401+02001999999ADDGA1041+006001999GF104991999999999999999999MA1101491999999REMMET051METAR SBJP 202200Z 14005KT 9999 SCT020 24/20 Q1015;
0120827980999992007092023004-07100-034867FM-15+0007SBJP V0201701N002112200019N0112651N1+02301+02001999999ADDGA1021+006001999GF102991999999999999999999MA1101491999999REMMET051METAR SBJP 202300Z 17004KT 9999 FEW020 23/20 Q1015;
0120827980999992007092100004-07100-034867FM-15+0007SBJP V0201701N002112200019N0112651N1+02301+02001999999ADDGA1041+006001999GF104991999999999999999999MA1101491999999REMMET051METAR SBJP 210000Z 17004KT 9999 SCT020 23/20 Q1015;
0120827980999992007092101004-07100-034867FM-15+0007SBJP V0201801N001512200019N0112651N1+02301+02001999999ADDGA1041+006001999GF104991999999999999999999MA1101491999999REMMET051METAR SBJP 210100Z 18003KT 9999 SCT020 23/20 Q1015;
0120827980999992007092102004-07100-034867FM-15+0007SBJP V0201701N001012200019N0112651N1+02301+02001999999ADDGA1041+006001999GF104991999999999999999999MA1101491999999REMMET051METAR SBJP 210200Z 17002KT 9999 SCT020 23/20 Q1015;
0120827980999992007092103004-07100-034867FM-15+0007SBJP V0201301N003112200019N0112651N1+02301+02001999999ADDGA1021+006001999GF102991999999999999999999MA1101391999999REMMET051METAR SBJP 210300Z 13006KT 9999 FEW020 23/20 Q1014;
0143827980999992007092104004-07100-034867FM-15+0007SBJP V0201801N002112200019N0112651N1+02301+02001999999ADDGA1021+004501999GA2041+007501999GF104991999999999999999999MA1101391999999REMMET058METAR SBJP 210400Z 18004KT 9999 FEW015 SCT025 23/20 Q1014;
0120827980999992007092105004-07100-034867FM-15+0007SBJP V0201901N001012200019N0112651N1+02201+02001999999ADDGA1041+007501999GF104991999999999999999999MA1101391999999REMMET051METAR SBJP 210500Z 19002KT 9999 SCT025 22/20 Q1014;
0120827980999992007092106004-07100-034867FM-15+0007SBJP V0202301N001512200019N0112651N1+02201+02001999999ADDGA1041+007501999GF104991999999999999999999MA1101391999999REMMET051METAR SBJP 210600Z 23003KT 9999 SCT025 22/20 Q1014;
0120827980999992007092107004-07100-034867FM-15+0007SBJP V0202101N002112200019N0112651N1+02101+02001999999ADDGA1021+007501999GF102991999999999999999999MA1101391999999REMMET051METAR SBJP 210700Z 21004KT 9999 FEW025 21/20 Q1014;
0143827980999992007092108004-07100-034867FM-15+0007SBJP V0202201N002112200019N0112651N1+02201+02001999999ADDGA1021+007501999GA2041+021001999GF104991999999999999999999MA1101391999999REMMET058METAR SBJP 210800Z 22004KT 9999 FEW025 SCT070 22/20 Q1014;
0143827980999992007092109004-07100-034867FM-15+0007SBJP V0202201N002112200019N0112651N1+02201+02001999999ADDGA1021+007501999GA2041+021001999GF104991999999999999999999MA1101391999999REMMET058METAR SBJP 210900Z 22004KT 9999 FEW025 SCT070 22/20 Q1014;
0143827980999992007092110004-07100-034867FM-15+0007SBJP V0201601N003612200019N0112651N1+02601+02101999999ADDGA1021+007501999GA2041+030001999GF104991999999999999999999MA1101491999999REMMET058METAR SBJP 211000Z 16007KT 9999 FEW025 SCT100 26/21 Q1015;
0143827980999992007092111004-07100-034867FM-15+0007SBJP V0201601N005712200019N0112651N1+02701+02101999999ADDGA1041+007501999GA2041+030001999GF104991999999999999999999MA1101591999999REMMET058METAR SBJP 211100Z 16011KT 9999 SCT025 SCT100 27/21 Q1016;
0120827980999992007092112004-07100-034867FM-15+0007SBJP V0201601N007210075019N0112651N1+02701+02101999999ADDGA1071+007501999GF107991999999999999999999MA1101591999999REMMET051METAR SBJP 211200Z 16014KT 9999 BKN025 27/21 Q1016;
0120827980999992007092113004-07100-034867FM-15+0007SBJP V0201601N006710075019N0112651N1+02701+02101999999ADDGA1071+007501999GF107991999999999999999999MA1101591999999REMMET051METAR SBJP 211300Z 16013KT 9999 BKN025 27/21 Q1016;
0120827980999992007092114004-07100-034867FM-15+0007SBJP V0201601N007210075019N0112651N1+02801+02001999999ADDGA1071+007501999GF107991999999999999999999MA1101591999999REMMET051METAR SBJP 211400Z 16014KT 9999 BKN025 28/20 Q1016;
0120827980999992007092115004-07100-034867FM-15+0007SBJP V0201601N005710075019N0112651N1+02801+02001999999ADDGA1071+007501999GF107991999999999999999999MA1101491999999REMMET051METAR SBJP 211500Z 16011KT 9999 BKN025 28/20 Q1015;
0120827980999992007092116004-07100-034867FM-15+0007SBJP V0201401N006212200019N0112651N1+02901+01801999999ADDGA1041+009001999GF104991999999999999999999MA1101391999999REMMET051METAR SBJP 211600Z 14012KT 9999 SCT030 29/18 Q1014;
0120827980999992007092117004-07100-034867FM-15+0007SBJP V0201401N006212200019N0112651N1+02901+01901999999ADDGA1041+009001999GF104991999999999999999999MA1101391999999REMMET051METAR SBJP 211700Z 14012KT 9999 SCT030 29/19 Q1014;
0120827980999992007092118004-07100-034867FM-15+0007SBJP V0201401N006212200019N0112651N1+02801+02001999999ADDGA1041+009001999GF104991999999999999999999MA1101391999999REMMET051METAR SBJP 211800Z 14012KT 9999 SCT030 28/20 Q1014;
0120827980999992007092119004-07100-034867FM-15+0007SBJP V0201401N005112200019N0112651N1+02701+02001999999ADDGA1041+009001999GF104991999999999999999999MA1101391999999REMMET051METAR SBJP 211900Z 14010KT 9999 SCT030 27/20 Q1014;
0120827980999992007092120004-07100-034867FM-15+0007SBJP V0201501N004612200019N0112651N1+02601+02001999999ADDGA1021+006001999GF102991999999999999999999MA1101491999999REMMET051METAR SBJP 212000Z 15009KT 9999 FEW020 26/20 Q1015;
0120827980999992007092121004-07100-034867FM-15+0007SBJP V0201501N002612200019N0112651N1+02501+02001999999ADDGA1021+006001999GF102991999999999999999999MA1101491999999REMMET051METAR SBJP 212100Z 15005KT 9999 FEW020 25/20 Q1015;
0120827980999992007092122004-07100-034867FM-15+0007SBJP V0201801N003112200019N0112651N1+02401+02101999999ADDGA1021+005401999GF102991999999999999999999MA1101591999999REMMET051METAR SBJP 212200Z 18006KT 9999 FEW018 24/21 Q1016;
0143827980999992007092123004-07100-034867FM-15+0007SBJP V0202001N001512200019N0112651N1+02401+02101999999ADDGA1021+005401999GA2041+021001999GF104991999999999999999999MA1101591999999REMMET058METAR SBJP 212300Z 20003KT 9999 FEW018 SCT070 24/21 Q1016;
0072827980999992007092200004-07100-034867FM-15+0007SBJP V0202101N00151220001CN0099001N1+02301+02001999999ADDMA1101691999999REMMET045METAR SBJP 220000Z 21003KT CAVOK 23/20 Q1017;
0143827980999992007092201004-07100-034867FM-15+0007SBJP V0202301N002112200019N0112651N1+02201+02001999999ADDGA1021+006001999GA2041+021001999GF104991999999999999999999MA1101691999999REMMET058METAR SBJP 220100Z 23004KT 9999 FEW020 SCT070 22/20 Q1017;
0120827980999992007092202004-07100-034867FM-15+0007SBJP V0202001N002112200019N0112651N1+02201+02001999999ADDGA1021+006001999GF102991999999999999999999MA1101591999999REMMET051METAR SBJP 220200Z 20004KT 9999 FEW020 22/20 Q1016;
0120827980999992007092203004-07100-034867FM-15+0007SBJP V0202201N002112200019N0112651N1+02201+02101999999ADDGA1021+006001999GF102991999999999999999999MA1101591999999REMMET051METAR SBJP 220300Z 22004KT 9999 FEW020 22/21 Q1016;
0143827980999992007092204004-07100-034867FM-15+0007SBJP V0202201N002112200019N0112651N1+02201+02101999999ADDGA1021+006001999GA2041+021001999GF104991999999999999999999MA1101491999999REMMET058METAR SBJP 220400Z 22004KT 9999 FEW020 SCT070 22/21 Q1015;
0143827980999992007092205004-07100-034867FM-15+0007SBJP V0202201N002612200019N0112651N1+02201+02101999999ADDGA1021+006001999GA2041+021001999GF104991999999999999999999MA1101491999999REMMET058METAR SBJP 220500Z 22005KT 9999 FEW020 SCT070 22/21 Q1015;
0143827980999992007092206004-07100-034867FM-15+0007SBJP V0202401N002112200019N0112651N1+02201+02101999999ADDGA1021+006001999GA2041+021001999GF104991999999999999999999MA1101491999999REMMET058METAR SBJP 220600Z 24004KT 9999 FEW020 SCT070 22/21 Q1015;
0143827980999992007092207004-07100-034867FM-15+0007SBJP V0202101N002612200019N0112651N1+02201+02101999999ADDGA1041+006001999GA2041+021001999GF104991999999999999999999MA1101491999999REMMET058METAR SBJP 220700Z 21005KT 9999 SCT020 SCT070 22/21 Q1015;
0143827980999992007092208004-07100-034867FM-15+0007SBJP V0202401N003112200019N0112651N1+02301+02101999999ADDGA1041+006001999GA2041+021001999GF104991999999999999999999MA1101491999999REMMET058METAR SBJP 220800Z 24006KT 9999 SCT020 SCT070 23/21 Q1015;
0143827980999992007092209004-07100-034867FM-15+0007SBJP V0201901N001512200019N0112651N1+02201+02101999999ADDGA1041+007501999GA2041+027001999GF104991999999999999999999MA1101591999999REMMET058METAR SBJP 220900Z 19003KT 9999 SCT025 SCT090 22/21 Q1016;
0120827980999992007092210004-07100-034867FM-15+0007SBJP V0202001N003110060019N0112651N1+02401+02201999999ADDGA1071+006001999GF107991999999999999999999MA1101691999999REMMET051METAR SBJP 221000Z 20006KT 9999 BKN020 24/22 Q1017;
0120827980999992007092211004-07100-034867FM-15+0007SBJP V0201801N003610045019N0112651N1+02401+02201999999ADDGA1071+004501999GF107991999999999999999999MA1101691999999REMMET051METAR SBJP 221100Z 18007KT 9999 BKN015 24/22 Q1017;
0120827980999992007092212004-07100-034867FM-15+0007SBJP V0201501N006710045019N0112651N1+02601+02201999999ADDGA1071+004501999GF107991999999999999999999MA1101691999999REMMET051METAR SBJP 221200Z 15013KT 9999 BKN015 26/22 Q1017;
0120827980999992007092213004-07100-034867FM-15+0007SBJP V0201501N008210075019N0112651N1+02801+02001999999ADDGA1071+007501999GF107991999999999999999999MA1101691999999REMMET051METAR SBJP 221300Z 15016KT 9999 BKN025 28/20 Q1017;
0120827980999992007092214004-07100-034867FM-15+0007SBJP V0201401N007712200019N0112651N1+03001+02001999999ADDGA1041+009001999GF104991999999999999999999MA1101591999999REMMET051METAR SBJP 221400Z 14015KT 9999 SCT030 30/20 Q1016;
0120827980999992007092215004-07100-034867FM-15+0007SBJP V0201601N006712200019N0112651N1+02901+02001999999ADDGA1041+009001999GF104991999999999999999999MA1101491999999REMMET051METAR SBJP 221500Z 16013KT 9999 SCT030 29/20 Q1015;
0143827980999992007092216004-07100-034867FM-15+0007SBJP V0201701N007712200019N0112651N1+02901+01901999999ADDGA1041+007501999GA2041+024001999GF104991999999999999999999MA1101491999999REMMET058METAR SBJP 221600Z 17015KT 9999 SCT025 SCT080 29/19 Q1015;
0143827980999992007092217004-07100-034867FM-15+0007SBJP V0201701N007712200019N0112651N1+02901+02001999999ADDGA1041+007501999GA2041+024001999GF104991999999999999999999MA1101391999999REMMET058METAR SBJP 221700Z 17015KT 9999 SCT025 SCT080 29/20 Q1014;
0120827980999992007092218004-07100-034867FM-15+0007SBJP V0201701N006712200019N0112651N1+02801+02001999999ADDGA1021+007501999GF102991999999999999999999MA1101391999999REMMET051METAR SBJP 221800Z 17013KT 9999 FEW025 28/20 Q1014;
0120827980999992007092219004-07100-034867FM-15+0007SBJP V0201601N006712200019N0112651N1+02701+02001999999ADDGA1021+007501999GF102991999999999999999999MA1101391999999REMMET051METAR SBJP 221900Z 16013KT 9999 FEW025 27/20 Q1014;
0120827980999992007092220004-07100-034867FM-15+0007SBJP V0201801N005112200019N0112651N1+02601+02001999999ADDGA1021+007501999GF102991999999999999999999MA1101391999999REMMET051METAR SBJP 222000Z 18010KT 9999 FEW025 26/20 Q1014;
0120827980999992007092221004-07100-034867FM-15+0007SBJP V0201801N003612200019N0112651N1+02501+02001999999ADDGA1021+007501999GF102991999999999999999999MA1101391999999REMMET051METAR SBJP 222100Z 18007KT 9999 FEW025 25/20 Q1014;
0120827980999992007092222004-07100-034867FM-15+0007SBJP V0201601N003112200019N0112651N1+02401+02001999999ADDGA1021+006001999GF102991999999999999999999MA1101491999999REMMET051METAR SBJP 222200Z 16006KT 9999 FEW020 24/20 Q1015;
0120827980999992007092223004-07100-034867FM-15+0007SBJP V0201601N003112200019N0112651N1+02401+02001999999ADDGA1021+006001999GF102991999999999999999999MA1101591999999REMMET051METAR SBJP 222300Z 16006KT 9999 FEW020 24/20 Q1016;
0072827980999992007092300004-07100-034867FM-15+0007SBJP V0201801N00211220001CN0099001N1+02301+02001999999ADDMA1101691999999REMMET045METAR SBJP 230000Z 18004KT CAVOK 23/20 Q1017;
0120827980999992007092301004-07100-034867FM-15+0007SBJP V0201801N002612200019N0112651N1+02301+02001999999ADDGA1021+006001999GF102991999999999999999999MA1101591999999REMMET051METAR SBJP 230100Z 18005KT 9999 FEW020 23/20 Q1016;
0143827980999992007092302004-07100-034867FM-15+0007SBJP V0201901N001510210019N0112651N1+02301+02001999999ADDGA1021+006001999GA2071+021001999GF107991999999999999999999MA1101591999999REMMET058METAR SBJP 230200Z 19003KT 9999 FEW020 BKN070 23/20 Q1016;
0143827980999992007092303004-07100-034867FM-15+0007SBJP V0202101N002110210019N0112651N1+02301+02001999999ADDGA1021+006001999GA2071+021001999GF107991999999999999999999MA1101491999999REMMET058METAR SBJP 230300Z 21004KT 9999 FEW020 BKN070 23/20 Q1015;
0120827980999992007092304004-07100-034867FM-15+0007SBJP V0202101N002110051019N0112651N1+02201+02001999999ADDGA1071+005101999GF107991999999999999999999MA1101391999999REMMET051METAR SBJP 230400Z 21004KT 9999 BKN017 22/20 Q1014;
0120827980999992007092305004-07100-034867FM-15+0007SBJP V0202001N002612200019N0112651N1+02201+02101999999ADDGA1041+005101999GF104991999999999999999999MA1101391999999REMMET051METAR SBJP 230500Z 20005KT 9999 SCT017 22/21 Q1014;
0120827980999992007092306004-07100-034867FM-15+0007SBJP V0201901N001512200019N0112651N1+02201+02001999999ADDGA1041+005101999GF104991999999999999999999MA1101391999999REMMET051METAR SBJP 230600Z 19003KT 9999 SCT017 22/20 Q1014;
0120827980999992007092307004-07100-034867FM-15+0007SBJP V0202101N002110051019N0112651N1+02201+02101999999ADDGA1071+005101999GF107991999999999999999999MA1101391999999REMMET051METAR SBJP 230700Z 21004KT 9999 BKN017 22/21 Q1014;
0120827980999992007092308004-07100-034867FM-15+0007SBJP V0202001N002112200019N0112651N1+02201+02101999999ADDGA1041+004501999GF104991999999999999999999MA1101491999999REMMET051METAR SBJP 230800Z 20004KT 9999 SCT015 22/21 Q1015;
0120827980999992007092309004-07100-034867FM-15+0007SBJP V0202001N002112200019N0112651N1+02201+02101999999ADDGA1021+006001999GF102991999999999999999999MA1101491999999REMMET051METAR SBJP 230900Z 20004KT 9999 FEW020 22/21 Q1015;
0120827980999992007092310004-07100-034867FM-15+0007SBJP V0201901N002612200019N0112651N1+02501+02101999999ADDGA1041+006001999GF104991999999999999999999MA1101591999999REMMET051METAR SBJP 231000Z 19005KT 9999 SCT020 25/21 Q1016;
0120827980999992007092311004-07100-034867FM-15+0007SBJP V0201601N005110060019N0112651N1+02701+02201999999ADDGA1071+006001999GF107991999999999999999999MA1101591999999REMMET051METAR SBJP 231100Z 16010KT 9999 BKN020 27/22 Q1016;
0120827980999992007092312004-07100-034867FM-15+0007SBJP V0201801N006212200019N0112651N1+02801+02101999999ADDGA1041+007501999GF104991999999999999999999MA1101591999999REMMET051METAR SBJP 231200Z 18012KT 9999 SCT025 28/21 Q1016;
0120827980999992007092313004-07100-034867FM-15+0007SBJP V0201601N006712200019N0112651N1+02901+01901999999ADDGA1041+009001999GF104991999999999999999999MA1101591999999REMMET051METAR SBJP 231300Z 16013KT 9999 SCT030 29/19 Q1016;
0143827980999992007092314004-07100-034867FM-15+0007SBJP V0201701N007712200019N0112651N1+02801+02101999999ADDGA1041+009001999GA2041+021001999GF104991999999999999999999MA1101591999999REMMET058METAR SBJP 231400Z 17015KT 9999 SCT030 SCT070 28/21 Q1016;
0143827980999992007092315004-07100-034867FM-15+0007SBJP V0201601N007210075019N0112651N1+02801+02101999999ADDGA1071+007501999GA2071+021001999GF107991999999999999999999MA1101491999999REMMET058METAR SBJP 231500Z 16014KT 9999 BKN025 BKN070 28/21 Q1015;
0143827980999992007092316004-07100-034867FM-15+0007SBJP V0201401N006210075019N0112651N1+02801+02101999999ADDGA1071+007501999GA2071+021001999GF107991999999999999999999MA1101391999999REMMET058METAR SBJP 231600Z 14012KT 9999 BKN025 BKN070 28/21 Q1014;
0143827980999992007092317004-07100-034867FM-15+0007SBJP V0201401N006210210019N0112651N1+02801+01901999999ADDGA1021+007501999GA2071+021001999GF107991999999999999999999MA1101291999999REMMET058METAR SBJP 231700Z 14012KT 9999 FEW025 BKN070 28/19 Q1013;
0154827980999992007092318004-07100-034867FM-15+0007SBJP V0201601N005110210019N0112651N1+02801+02001999999ADDGA1041+007501999GA2071+021001999GF107991999999999999999999MA1101291999999OC101031REMMET061METAR SBJP 231800Z 16010G20KT 9999 SCT025 BKN070 28/20 Q1013;
0143827980999992007092319004-07100-034867FM-15+0007SBJP V0201501N006210210019N0112651N1+02701+02001999999ADDGA1041+007501999GA2071+021001999GF107991999999999999999999MA1101291999999REMMET058METAR SBJP 231900Z 15012KT 9999 SCT025 BKN070 27/20 Q1013;
0166827980999992007092320004-07100-034867FM-15+0007SBJP V0201701N004610060019N0112651N1+02401+02101999999ADDGA1021+004501999GA2071+006001999GA3071+021001999GF107991999999999999999999MA1101391999999REMMET065METAR SBJP 232000Z 17009KT 9999 FEW015 BKN020 BKN070 24/21 Q1014;
0143827980999992007092321004-07100-034867FM-15+0007SBJP V0201701N003110210019N0112651N1+02401+02101999999ADDGA1021+006001999GA2071+021001999GF107991999999999999999999MA1101391999999REMMET058METAR SBJP 232100Z 17006KT 9999 FEW020 BKN070 24/21 Q1014;
0143827980999992007092322004-07100-034867FM-15+0007SBJP V0201801N003110210019N0112651N1+02401+02101999999ADDGA1021+006001999GA2071+021001999GF107991999999999999999999MA1101391999999REMMET058METAR SBJP 232200Z 18006KT 9999 FEW020 BKN070 24/21 Q1014;
0143827980999992007092323004-07100-034867FM-15+0007SBJP V0201901N002610210019N0112651N1+02401+02101999999ADDGA1021+006001999GA2071+021001999GF107991999999999999999999MA1101491999999REMMET058METAR SBJP 232300Z 19005KT 9999 FEW020 BKN070 24/21 Q1015;
0143827980999992007092400004-07100-034867FM-15+0007SBJP V0201901N002110210019N0112651N1+02401+02001999999ADDGA1021+006001999GA2071+021001999GF107991999999999999999999MA1101491999999REMMET058METAR SBJP 240000Z 19004KT 9999 FEW020 BKN070 24/20 Q1015;
0143827980999992007092401004-07100-034867FM-15+0007SBJP V0202001N002110210019N0112651N1+02401+02101999999ADDGA1021+006001999GA2071+021001999GF107991999999999999999999MA1101591999999REMMET058METAR SBJP 240100Z 20004KT 9999 FEW020 BKN070 24/21 Q1016;
0143827980999992007092402004-07100-034867FM-15+0007SBJP V0202001N002110210019N0112651N1+02301+02101999999ADDGA1021+006001999GA2071+021001999GF107991999999999999999999MA1101491999999REMMET058METAR SBJP 240200Z 20004KT 9999 FEW020 BKN070 23/21 Q1015;
0143827980999992007092403004-07100-034867FM-15+0007SBJP V0202101N002112200019N0112651N1+02301+02001999999ADDGA1021+006001999GA2041+021001999GF104991999999999999999999MA1101491999999REMMET058METAR SBJP 240300Z 21004KT 9999 FEW020 SCT070 23/20 Q1015;
0120827980999992007092405004-07100-034867FM-15+0007SBJP V0202001N002112200019N0112651N1+02201+02001999999ADDGA1021+006001999GF102991999999999999999999MA1101291999999REMMET051METAR SBJP 240500Z 20004KT 9999 FEW020 22/20 Q1013;
0120827980999992007092406004-07100-034867FM-15+0007SBJP V0202301N002112200019N0112651N1+02201+02001999999ADDGA1041+006001999GF104991999999999999999999MA1101291999999REMMET051METAR SBJP 240600Z 23004KT 9999 SCT020 22/20 Q1013;
0120827980999992007092407004-07100-034867FM-15+0007SBJP V0202201N002612200019N0112651N1+02101+02001999999ADDGA1041+006001999GF104991999999999999999999MA1101391999999REMMET051METAR SBJP 240700Z 22005KT 9999 SCT020 21/20 Q1014;
0091827980999992007092408004-07100-034867FM-15+0007SBJP V0202301N00261220001CN0099001N1+02101+99999999999ADDMA1101391999999REMMET045METAR SBJP 240800Z 23005KT CAVOK 21/02 Q1014;EQDQ01 +00203ATOD  
0072827980999992007092409004-07100-034867FM-15+0007SBJP V0202301N00211220001CN0099001N1+02201+02001999999ADDMA1101491999999REMMET045METAR SBJP 240900Z 23004KT CAVOK 22/20 Q1015;
0143827980999992007092410004-07100-034867FM-15+0007SBJP V0202001N002610210019N0112651N1+02401+02101999999ADDGA1021+006001999GA2071+021001999GF107991999999999999999999MA1101591999999REMMET058METAR SBJP 241000Z 20005KT 9999 FEW020 BKN070 24/21 Q1016;
0143827980999992007092411004-07100-034867FM-15+0007SBJP V0201301N006210210019N0112651N1+02701+02101999999ADDGA1041+006001999GA2071+021001999GF107991999999999999999999MA1101591999999REMMET058METAR SBJP 241100Z 13012KT 9999 SCT020 BKN070 27/21 Q1016;
0154827980999992007092412004-07100-034867FM-15+0007SBJP V0201201N005112200019N0112651N1+02801+02001999999ADDGA1041+009001999GA2041+021001999GF104991999999999999999999MA1101691999999OC101031REMMET061METAR SBJP 241200Z 12010G20KT 9999 SCT030 SCT070 28/20 Q1017;
0143827980999992007092413004-07100-034867FM-15+0007SBJP V0201401N006212200019N0112651N1+02901+02001999999ADDGA1041+009001999GA2041+021001999GF104991999999999999999999MA1101691999999REMMET058METAR SBJP 241300Z 14012KT 9999 SCT030 SCT070 29/20 Q1017;
0143827980999992007092414004-07100-034867FM-15+0007SBJP V0201401N006712200019N0112651N1+02901+01901999999ADDGA1041+009001999GA2041+021001999GF104991999999999999999999MA1101591999999REMMET058METAR SBJP 241400Z 14013KT 9999 SCT030 SCT070 29/19 Q1016;
0120827980999992007092415004-07100-034867FM-15+0007SBJP V0201201N005710090019N0112651N1+02901+02001999999ADDGA1071+009001999GF107991999999999999999999MA1101491999999REMMET051METAR SBJP 241500Z 12011KT 9999 BKN030 29/20 Q1015;
0143827980999992007092416004-07100-034867FM-15+0007SBJP V0201501N004610210019N0112651N1+02601+02001999999ADDGA1041+009001999GA2071+021001999GF107991999999999999999999MA1101491999999REMMET058METAR SBJP 241600Z 15009KT 9999 SCT030 BKN070 26/20 Q1015;
0143827980999992007092417004-07100-034867FM-15+0007SBJP V0201601N005710210019N0112651N1+02901+01901999999ADDGA1021+009001999GA2071+021001999GF107991999999999999999999MA1101391999999REMMET058METAR SBJP 241700Z 16011KT 9999 FEW030 BKN070 29/19 Q1014;
0120827980999992007092418004-07100-034867FM-15+0007SBJP V0201401N004112200019N0112651N1+02801+02101999999ADDGA1041+009001999GF104991999999999999999999MA1101391999999REMMET051METAR SBJP 241800Z 14008KT 9999 SCT030 28/21 Q1014;
0120827980999992007092419004-07100-034867FM-15+0007SBJP V0201601N005712200019N0112651N1+02701+02001999999ADDGA1041+009001999GF104991999999999999999999MA1101391999999REMMET051METAR SBJP 241900Z 16011KT 9999 SCT030 27/20 Q1014;
0120827980999992007092420004-07100-034867FM-15+0007SBJP V0201501N004612200019N0112651N1+02601+02101999999ADDGA1041+009001999GF104991999999999999999999MA1101391999999REMMET051METAR SBJP 242000Z 15009KT 9999 SCT030 26/21 Q1014;
0120827980999992007092421004-07100-034867FM-15+0007SBJP V0201601N003112200019N0112651N1+02501+02101999999ADDGA1021+009001999GF102991999999999999999999MA1101491999999REMMET051METAR SBJP 242100Z 16006KT 9999 FEW030 25/21 Q1015;
0120827980999992007092422004-07100-034867FM-15+0007SBJP V0201701N003112200019N0112651N1+02301+02001999999ADDGA1021+009001999GF102991999999999999999999MA1101491999999REMMET051METAR SBJP 242200Z 17006KT 9999 FEW030 23/20 Q1015;
0120827980999992007092423004-07100-034867FM-15+0007SBJP V0201901N001012200019N0112651N1+02401+02101999999ADDGA1021+009001999GF102991999999999999999999MA1101591999999REMMET051METAR SBJP 242300Z 19002KT 9999 FEW030 24/21 Q1016;
0120827980999992007092500004-07100-034867FM-15+0007SBJP V0201801N001012200019N0112651N1+02301+02101999999ADDGA1021+006001999GF102991999999999999999999MA1101591999999REMMET051METAR SBJP 250000Z 18002KT 9999 FEW020 23/21 Q1016;
0120827980999992007092501004-07100-034867FM-15+0007SBJP V0202201N002112200019N0112651N1+02301+02101999999ADDGA1021+006001999GF102991999999999999999999MA1101591999999REMMET051METAR SBJP 250100Z 22004KT 9999 FEW020 23/21 Q1016;
0120827980999992007092502004-07100-034867FM-15+0007SBJP V0202301N002112200019N0112651N1+02201+02001999999ADDGA1021+006001999GF102991999999999999999999MA1101491999999REMMET051METAR SBJP 250200Z 23004KT 9999 FEW020 22/20 Q1015;
0120827980999992007092503004-07100-034867FM-15+0007SBJP V0202401N002112200019N0112651N1+02201+02001999999ADDGA1021+006001999GF102991999999999999999999MA1101491999999REMMET051METAR SBJP 250300Z 24004KT 9999 FEW020 22/20 Q1015;
0143827980999992007092504004-07100-034867FM-15+0007SBJP V0202201N002110210019N0112651N1+02201+02101999999ADDGA1041+006001999GA2071+021001999GF107991999999999999999999MA1101391999999REMMET058METAR SBJP 250400Z 22004KT 9999 SCT020 BKN070 22/21 Q1014;
0143827980999992007092505004-07100-034867FM-15+0007SBJP V0202201N001510210019N0112651N1+02201+02001999999ADDGA1041+006001999GA2071+021001999GF107991999999999999999999MA1101391999999REMMET058METAR SBJP 250500Z 22003KT 9999 SCT020 BKN070 22/20 Q1014;
0143827980999992007092506004-07100-034867FM-15+0007SBJP V0202101N002112200019N0112651N1+02101+02001999999ADDGA1041+006001999GA2041+021001999GF104991999999999999999999MA1101391999999REMMET058METAR SBJP 250600Z 21004KT 9999 SCT020 SCT070 21/20 Q1014;
0143827980999992007092507004-07100-034867FM-15+0007SBJP V0201801N001512200019N0112651N1+02201+02001999999ADDGA1041+006001999GA2041+021001999GF104991999999999999999999MA1101391999999REMMET058METAR SBJP 250700Z 18003KT 9999 SCT020 SCT070 22/20 Q1014;
0120827980999992007092508004-07100-034867FM-15+0007SBJP V0202401N001012200019N0112651N1+02101+02001999999ADDGA1041+006001999GF104991999999999999999999MA1101391999999REMMET051METAR SBJP 250800Z 24002KT 9999 SCT020 21/20 Q1014;
0143827980999992007092509004-07100-034867FM-15+0007SBJP V0202301N001510060019N0112651N1+02201+02001999999ADDGA1071+006001999GA2071+021001999GF107991999999999999999999MA1101491999999REMMET058METAR SBJP 250900Z 23003KT 9999 BKN020 BKN070 22/20 Q1015;
0120827980999992007092510004-07100-034867FM-15+0007SBJP V0202101N002112200019N0112651N1+02401+02201999999ADDGA1041+006001999GF104991999999999999999999MA1101491999999REMMET051METAR SBJP 251000Z 21004KT 9999 SCT020 24/22 Q1015;
0120827980999992007092511004-07100-034867FM-15+0007SBJP V0201701N002612200019N0112651N1+02601+02201999999ADDGA1041+007501999GF104991999999999999999999MA1101591999999REMMET051METAR SBJP 251100Z 17005KT 9999 SCT025 26/22 Q1016;
0120827980999992007092512004-07100-034867FM-15+0007SBJP V0201501N004612200019N0112651N1+02801+01701999999ADDGA1041+009001999GF104991999999999999999999MA1101591999999REMMET051METAR SBJP 251200Z 15009KT 9999 SCT030 28/17 Q1016;
0120827980999992007092513004-07100-034867FM-15+0007SBJP V0201501N004612200019N0112651N1+02901+01801999999ADDGA1041+009001999GF104991999999999999999999MA1101591999999REMMET051METAR SBJP 251300Z 15009KT 9999 SCT030 29/18 Q1016;
0120827980999992007092514004-07100-034867FM-15+0007SBJP V0201501N004612200019N0112651N1+02901+02001999999ADDGA1041+009001999GF104991999999999999999999MA1101591999999REMMET051METAR SBJP 251400Z 15009KT 9999 SCT030 29/20 Q1016;
0120827980999992007092515004-07100-034867FM-15+0007SBJP V0201401N005112200019N0112651N1+02901+02001999999ADDGA1041+009001999GF104991999999999999999999MA1101491999999REMMET051METAR SBJP 251500Z 14010KT 9999 SCT030 29/20 Q1015;
0120827980999992007092516004-07100-034867FM-15+0007SBJP V0201301N005112200019N0112651N1+02901+02001999999ADDGA1041+009001999GF104991999999999999999999MA1101391999999REMMET051METAR SBJP 251600Z 13010KT 9999 SCT030 29/20 Q1014;
0120827980999992007092517004-07100-034867FM-15+0007SBJP V0201501N005112200019N0112651N1+02901+02001999999ADDGA1041+009001999GF104991999999999999999999MA1101291999999REMMET051METAR SBJP 251700Z 15010KT 9999 SCT030 29/20 Q1013;
0210827980999992007092518004-07100-034867SY-MT+0007SBJP V0201401N003612200019N0200001N1+02741+02171101571ADDGA1041+006001999GF103991031021008001001001MA1101291101361MD1999999-0071REMSYN070AAXX  25184 82798 32598 31407 10274 20217 30136 40157 83200 333 59007;MET051METAR SBJP 251800Z 16012KT 9999 SCT020 28/19 Q1013;
0120827980999992007092519004-07100-034867FM-15+0007SBJP V0201601N006212200019N0112651N1+02701+01801999999ADDGA1041+006001999GF104991999999999999999999MA1101391999999REMMET051METAR SBJP 251900Z 16012KT 9999 SCT020 27/18 Q1014;
0120827980999992007092520004-07100-034867FM-15+0007SBJP V0201601N005112200019N0112651N1+02601+02101999999ADDGA1021+006001999GF102991999999999999999999MA1101391999999REMMET051METAR SBJP 252000Z 16010KT 9999 FEW020 26/21 Q1014;
0120827980999992007092521004-07100-034867FM-15+0007SBJP V0201701N003112200019N0112651N1+02501+02101999999ADDGA1041+006001999GF104991999999999999999999MA1101491999999REMMET051METAR SBJP 252100Z 17006KT 9999 SCT020 25/21 Q1015;
0120827980999992007092522004-07100-034867FM-15+0007SBJP V0201601N002112200019N0112651N1+02401+02101999999ADDGA1021+006001999GF102991999999999999999999MA1101591999999REMMET051METAR SBJP 252200Z 16004KT 9999 FEW020 24/21 Q1016;
0120827980999992007092523004-07100-034867FM-15+0007SBJP V0201701N001512200019N0112651N1+02301+02101999999ADDGA1021+006001999GF102991999999999999999999MA1101591999999REMMET051METAR SBJP 252300Z 17003KT 9999 FEW020 23/21 Q1016;
0072827980999992007092600004-07100-034867FM-15+0007SBJP V0201001N00211220001CN0099001N1+02301+02101999999ADDMA1101691999999REMMET045METAR SBJP 260000Z 10004KT CAVOK 23/21 Q1017;
0072827980999992007092601004-07100-034867FM-15+0007SBJP V0201801N00261220001CN0099001N1+02301+02101999999ADDMA1101691999999REMMET045METAR SBJP 260100Z 18005KT CAVOK 23/21 Q1017;
0120827980999992007092602004-07100-034867FM-15+0007SBJP V0202001N002110060019N0112651N1+02301+02001999999ADDGA1071+006001999GF107991999999999999999999MA1101691999999REMMET051METAR SBJP 260200Z 20004KT 9999 BKN020 23/20 Q1017;
0120827980999992007092603004-07100-034867FM-15+0007SBJP V0202001N003110060019N0112651N1+02301+02101999999ADDGA1071+006001999GF107991999999999999999999MA1101691999999REMMET051METAR SBJP 260300Z 20006KT 9999 BKN020 23/21 Q1017;
0120827980999992007092604004-07100-034867FM-15+0007SBJP V0202201N002112200019N0112651N1+02201+02001999999ADDGA1041+006001999GF104991999999999999999999MA1101591999999REMMET051METAR SBJP 260400Z 22004KT 9999 SCT020 22/20 Q1016;
0120827980999992007092605004-07100-034867FM-15+0007SBJP V0202301N002612200019N0112651N1+02201+02001999999ADDGA1041+006001999GF104991999999999999999999MA1101591999999REMMET051METAR SBJP 260500Z 23005KT 9999 SCT020 22/20 Q1016;
0120827980999992007092606004-07100-034867FM-15+0007SBJP V0202201N002610054019N0112651N1+02201+02001999999ADDGA1071+005401999GF107991999999999999999999MA1101591999999REMMET051METAR SBJP 260600Z 22005KT 9999 BKN018 22/20 Q1016;
0120827980999992007092607004-07100-034867FM-15+0007SBJP V0202301N002612200019N0112651N1+02201+02001999999ADDGA1041+005401999GF104991999999999999999999MA1101591999999REMMET051METAR SBJP 260700Z 23005KT 9999 SCT018 22/20 Q1016;
0120827980999992007092608004-07100-034867FM-15+0007SBJP V0202301N003112200019N0112651N1+02201+02001999999ADDGA1041+005401999GF104991999999999999999999MA1101591999999REMMET051METAR SBJP 260800Z 23006KT 9999 SCT018 22/20 Q1016;
0120827980999992007092609004-07100-034867FM-15+0007SBJP V0202301N002612200019N0112651N1+02201+02001999999ADDGA1041+005401999GF104991999999999999999999MA1101591999999REMMET051METAR SBJP 260900Z 23005KT 9999 SCT018 22/20 Q1016;
0120827980999992007092610004-07100-034867FM-15+0007SBJP V0202201N004112200019N0112651N1+02401+02201999999ADDGA1041+006001999GF104991999999999999999999MA1101691999999REMMET051METAR SBJP 261000Z 22008KT 9999 SCT020 24/22 Q1017;
0120827980999992007092611004-07100-034867FM-15+0007SBJP V0201801N005112200019N0112651N1+02701+02101999999ADDGA1041+006001999GF104991999999999999999999MA1101801999999REMMET051METAR SBJP 261100Z 18010KT 9999 SCT020 27/21 Q1018;
0120827980999992007092612004-07100-034867FM-15+0007SBJP V0201801N006212200019N0112651N1+02801+02101999999ADDGA1041+006001999GF104991999999999999999999MA1101801999999REMMET051METAR SBJP 261200Z 18012KT 9999 SCT020 28/21 Q1018;
0120827980999992007092613004-07100-034867FM-15+0007SBJP V0201701N008212200019N0112651N1+02901+02001999999ADDGA1041+006001999GF104991999999999999999999MA1101801999999REMMET051METAR SBJP 261300Z 17016KT 9999 SCT020 29/20 Q1018;
0120827980999992007092614004-07100-034867FM-15+0007SBJP V0201501N007212200019N0112651N1+02901+02001999999ADDGA1041+006001999GF104991999999999999999999MA1101691999999REMMET051METAR SBJP 261400Z 15014KT 9999 SCT020 29/20 Q1017;
0120827980999992007092615004-07100-034867FM-15+0007SBJP V0201801N007212200019N0112651N1+03001+02001999999ADDGA1041+006001999GF104991999999999999999999MA1101591999999REMMET051METAR SBJP 261500Z 18014KT 9999 SCT020 30/20 Q1016;
0120827980999992007092616004-07100-034867FM-15+0007SBJP V0201401N007210090019N0112651N1+02901+02001999999ADDGA1071+009001999GF107991999999999999999999MA1101491999999REMMET051METAR SBJP 261600Z 14014KT 9999 BKN030 29/20 Q1015;
0131827980999992007092617004-07100-034867FM-15+0007SBJP V0201401N007710090019N0112651N1+02901+02001999999ADDGA1071+009001999GF107991999999999999999999MA1101491999999OC101391REMMET054METAR SBJP 261700Z 14015G27KT 9999 BKN030 29/20 Q1015;
0120827980999992007092618004-07100-034867FM-15+0007SBJP V0201501N007212200019N0112651N1+02901+01901999999ADDGA1041+009001999GF104991999999999999999999MA1101391999999REMMET051METAR SBJP 261800Z 15014KT 9999 SCT030 29/19 Q1014;
0120827980999992007092619004-07100-034867FM-15+0007SBJP V0201401N007212200019N0112651N1+02701+02001999999ADDGA1041+009001999GF104991999999999999999999MA1101491999999REMMET051METAR SBJP 261900Z 14014KT 9999 SCT030 27/20 Q1015;
0072827980999992007092620004-07100-034867FM-15+0007SBJP V0201401N00621220001CN0099001N1+02601+02001999999ADDMA1101491999999REMMET045METAR SBJP 262000Z 14012KT CAVOK 26/20 Q1015;
0072827980999992007092621004-07100-034867FM-15+0007SBJP V0201601N00411220001CN0099001N1+02501+02001999999ADDMA1101591999999REMMET045METAR SBJP 262100Z 16008KT CAVOK 25/20 Q1016;
0072827980999992007092622004-07100-034867FM-15+0007SBJP V0201801N00361220001CN0099001N1+02501+02101999999ADDMA1101591999999REMMET045METAR SBJP 262200Z 18007KT CAVOK 25/21 Q1016;
0143827980999992007092623004-07100-034867FM-15+0007SBJP V0201801N003612200019N0112651N1+02501+02101999999ADDGA1021+006001999GA2041+021001999GF104991999999999999999999MA1101691999999REMMET058METAR SBJP 262300Z 18007KT 9999 FEW020 SCT070 25/21 Q1017;
0143827980999992007092700004-07100-034867FM-15+0007SBJP V0201901N002610210019N0112651N1+02401+02101999999ADDGA1021+006001999GA2071+021001999GF107991999999999999999999MA1101801999999REMMET058METAR SBJP 270000Z 19005KT 9999 FEW020 BKN070 24/21 Q1018;
0143827980999992007092701004-07100-034867FM-15+0007SBJP V0201701N003612200019N0112651N1+02501+02101999999ADDGA1021+006001999GA2041+021001999GF104991999999999999999999MA1101801999999REMMET058METAR SBJP 270100Z 17007KT 9999 FEW020 SCT070 25/21 Q1018;
0143827980999992007092702004-07100-034867FM-15+0007SBJP V0201701N003112200019N0112651N1+02401+02101999999ADDGA1041+006001999GA2041+021001999GF104991999999999999999999MA1101801999999REMMET058METAR SBJP 270200Z 17006KT 9999 SCT020 SCT070 24/21 Q1018;
0143827980999992007092703004-07100-034867FM-15+0007SBJP V0201701N003112200019N0112651N1+02401+02101999999ADDGA1041+006001999GA2041+021001999GF104991999999999999999999MA1101691999999REMMET058METAR SBJP 270300Z 17006KT 9999 SCT020 SCT070 24/21 Q1017;
0143827980999992007092704004-07100-034867FM-15+0007SBJP V0201701N003112200019N0112651N1+02401+02101999999ADDGA1041+006001999GA2041+021001999GF104991999999999999999999MA1101691999999REMMET058METAR SBJP 270400Z 17006KT 9999 SCT020 SCT070 24/21 Q1017;
0143827980999992007092705004-07100-034867FM-15+0007SBJP V0201701N003112200019N0112651N1+02301+02101999999ADDGA1041+006001999GA2041+021001999GF104991999999999999999999MA1101591999999REMMET058METAR SBJP 270500Z 17006KT 9999 SCT020 SCT070 23/21 Q1016;
0143827980999992007092706004-07100-034867FM-15+0007SBJP V0201501N004112200019N0112651N1+02401+02201999999ADDGA1041+006001999GA2041+021001999GF104991999999999999999999MA1101591999999REMMET058METAR SBJP 270600Z 15008KT 9999 SCT020 SCT070 24/22 Q1016;
0120827980999992007092707004-07100-034867FM-15+0007SBJP V0201701N003112200019N0112651N1+02401+02101999999ADDGA1041+006001999GF104991999999999999999999MA1101691999999REMMET051METAR SBJP 270700Z 17006KT 9999 SCT020 24/21 Q1017;
0120827980999992007092708004-07100-034867FM-15+0007SBJP V0201901N002112200019N0112651N1+02301+02101999999ADDGA1041+006001999GF104991999999999999999999MA1101691999999REMMET051METAR SBJP 270800Z 19004KT 9999 SCT020 23/21 Q1017;
0120827980999992007092709004-07100-034867FM-15+0007SBJP V0201901N002112200019N0112651N1+02301+02101999999ADDGA1041+006001999GF104991999999999999999999MA1101691999999REMMET051METAR SBJP 270900Z 19004KT 9999 SCT020 23/21 Q1017;
0120827980999992007092710004-07100-034867FM-15+0007SBJP V0201701N004610060019N0112651N1+02401+02201999999ADDGA1071+006001999GF107991999999999999999999MA1101801999999REMMET051METAR SBJP 271000Z 17009KT 9999 BKN020 24/22 Q1018;
0143827980999992007092711004-07100-034867FM-15+0007SBJP V0201601N006710051019N0112651N1+02501+02001999999ADDGA1071+005101999GA2071+021001999GF107991999999999999999999MA1101901999999REMMET058METAR SBJP 271100Z 16013KT 9999 BKN017 BKN070 25/20 Q1019;
0120827980999992007092712004-07100-034867FM-15+0007SBJP V0201401N005110060019N0112651N1+02801+02001999999ADDGA1071+006001999GF107991999999999999999999MA1101901999999REMMET051METAR SBJP 271200Z 14010KT 9999 BKN020 28/20 Q1019;
0120827980999992007092713004-07100-034867FM-15+0007SBJP V0201501N007212200019N0112651N1+03001+01801999999ADDGA1041+009001999GF104991999999999999999999MA1101801999999REMMET051METAR SBJP 271300Z 15014KT 9999 SCT030 30/18 Q1018;
0120827980999992007092714004-07100-034867FM-15+0007SBJP V0201501N007712200019N0112651N1+02901+01801999999ADDGA1041+009001999GF104991999999999999999999MA1101801999999REMMET051METAR SBJP 271400Z 15015KT 9999 SCT030 29/18 Q1018;
0120827980999992007092715004-07100-034867FM-15+0007SBJP V0201501N007712200019N0112651N1+03001+01901999999ADDGA1041+009001999GF104991999999999999999999MA1101691999999REMMET051METAR SBJP 271500Z 15015KT 9999 SCT030 30/19 Q1017;
0120827980999992007092716004-07100-034867FM-15+0007SBJP V0201701N007212200019N0112651N1+03001+02001999999ADDGA1041+009001999GF104991999999999999999999MA1101591999999REMMET051METAR SBJP 271600Z 17014KT 9999 SCT030 30/20 Q1016;
0120827980999992007092717004-07100-034867FM-15+0007SBJP V0201601N008212200019N0112651N1+02901+01901999999ADDGA1041+009001999GF104991999999999999999999MA1101491999999REMMET051METAR SBJP 271700Z 16016KT 9999 SCT030 29/19 Q1015;
0120827980999992007092718004-07100-034867FM-15+0007SBJP V0201701N007212200019N0112651N1+02901+01701999999ADDGA1021+009001999GF102991999999999999999999MA1101491999999REMMET051METAR SBJP 271800Z 17014KT 9999 FEW030 29/17 Q1015;
0120827980999992007092719004-07100-034867FM-15+0007SBJP V0201701N007712200019N0112651N1+02701+02001999999ADDGA1021+009001999GF102991999999999999999999MA1101491999999REMMET051METAR SBJP 271900Z 17015KT 9999 FEW030 27/20 Q1015;
0120827980999992007092720004-07100-034867FM-15+0007SBJP V0201701N005112200019N0112651N1+02601+01901999999ADDGA1021+009001999GF102991999999999999999999MA1101591999999REMMET051METAR SBJP 272000Z 17010KT 9999 FEW030 26/19 Q1016;
0120827980999992007092721004-07100-034867FM-15+0007SBJP V0201701N005112200019N0112651N1+02501+02001999999ADDGA1021+009001999GF102991999999999999999999MA1101691999999REMMET051METAR SBJP 272100Z 17010KT 9999 FEW030 25/20 Q1017;
0143827980999992007092722004-07100-034867FM-15+0007SBJP V0201601N001512200019N0112651N1+02401+02101999999ADDGA1021+006001999GA2041+021001999GF104991999999999999999999MA1101691999999REMMET058METAR SBJP 272200Z 16003KT 9999 FEW020 SCT070 24/21 Q1017;
0143827980999992007092723004-07100-034867FM-15+0007SBJP V0201401N002612200019N0112651N1+02401+02101999999ADDGA1041+007501999GA2041+021001999GF104991999999999999999999MA1101801999999REMMET058METAR SBJP 272300Z 14005KT 9999 SCT025 SCT070 24/21 Q1018;
0143827980999992007092800004-07100-034867FM-15+0007SBJP V0201601N001512200019N0112651N1+02401+02201999999ADDGA1041+007501999GA2041+021001999GF104991999999999999999999MA1101801999999REMMET058METAR SBJP 280000Z 16003KT 9999 SCT025 SCT070 24/22 Q1018;
0143827980999992007092801004-07100-034867FM-15+0007SBJP V0201501N003112200019N0112651N1+02401+02201999999ADDGA1041+007501999GA2041+021001999GF104991999999999999999999MA1101801999999REMMET058METAR SBJP 280100Z 15006KT 9999 SCT025 SCT070 24/22 Q1018;
0120827980999992007092802004-07100-034867FM-15+0007SBJP V0201701N001512200019N0112651N1+02401+02201999999ADDGA1021+007501999GF102991999999999999999999MA1101801999999REMMET051METAR SBJP 280200Z 17003KT 9999 FEW025 24/22 Q1018;
0072827980999992007092803004-07100-034867FM-15+0007SBJP V0201701N00151220001CN0099001N1+02301+02101999999ADDMA1101691999999REMMET045METAR SBJP 280300Z 17003KT CAVOK 23/21 Q1017;
0120827980999992007092804004-07100-034867FM-15+0007SBJP V0201901N001512200019N0112651N1+02301+02001999999ADDGA1041+006001999GF104991999999999999999999MA1101591999999REMMET051METAR SBJP 280400Z 19003KT 9999 SCT020 23/20 Q1016;
0072827980999992007092805004-07100-034867FM-15+0007SBJP V0201901N00211220001CN0099001N1+02201+02101999999ADDMA1101591999999REMMET045METAR SBJP 280500Z 19004KT CAVOK 22/21 Q1016;
0143827980999992007092806004-07100-034867FM-15+0007SBJP V0201901N002610210019N0112651N1+02201+02101999999ADDGA1021+006001999GA2071+021001999GF107991999999999999999999MA1101591999999REMMET058METAR SBJP 280600Z 19005KT 9999 FEW020 BKN070 22/21 Q1016;
0143827980999992007092807004-07100-034867FM-15+0007SBJP V0201901N001510210019N0112651N1+02201+02101999999ADDGA1041+006001999GA2071+021001999GF107991999999999999999999MA1101591999999REMMET058METAR SBJP 280700Z 19003KT 9999 SCT020 BKN070 22/21 Q1016;
0143827980999992007092808004-07100-034867FM-15+0007SBJP V0209999C000010210019N0112651N1+02201+02101999999ADDGA1041+006001999GA2071+021001999GF107991999999999999999999MA1101591999999REMMET058METAR SBJP 280800Z 00000KT 9999 SCT020 BKN070 22/21 Q1016;
0143827980999992007092809004-07100-034867FM-15+0007SBJP V0201801N002112200019N0112651N1+02101+02001999999ADDGA1041+006001999GA2041+021001999GF104991999999999999999999MA1101691999999REMMET058METAR SBJP 280900Z 18004KT 9999 SCT020 SCT070 21/20 Q1017;
0120827980999992007092810004-07100-034867FM-15+0007SBJP V0201801N003112200019N0112651N1+02301+02101999999ADDGA1041+006001999GF104991999999999999999999MA1101691999999REMMET051METAR SBJP 281000Z 18006KT 9999 SCT020 23/21 Q1017;
0120827980999992007092811004-07100-034867FM-15+0007SBJP V0201701N004112200019N0112651N1+02601+02101999999ADDGA1041+007501999GF104991999999999999999999MA1101801999999REMMET051METAR SBJP 281100Z 17008KT 9999 SCT025 26/21 Q1018;
0120827980999992007092812004-07100-034867FM-15+0007SBJP V0201601N005710075019N0112651N1+02701+02101999999ADDGA1071+007501999GF107991999999999999999999MA1101801999999REMMET051METAR SBJP 281200Z 16011KT 9999 BKN025 27/21 Q1018;
0120827980999992007092813004-07100-034867FM-15+0007SBJP V0201501N006710090019N0112651N1+02901+02101999999ADDGA1071+009001999GF107991999999999999999999MA1101801999999REMMET051METAR SBJP 281300Z 15013KT 9999 BKN030 29/21 Q1018;
0154827980999992007092815004-07100-034867FM-15+0007SBJP V0201501N006712200019N0112651N1+02901+02001999999ADDGA1041+009001999GA2041+024001999GF104991999999999999999999MA1101591999999OC101231REMMET061METAR SBJP 281500Z 15013G24KT 9999 SCT030 SCT080 29/20 Q1016;
0154827980999992007092816004-07100-034867FM-15+0007SBJP V0201401N006212200019N0112651N1+03001+02001999999ADDGA1041+009001999GA2041+021001999GF104991999999999999999999MA1101591999999OC101231REMMET061METAR SBJP 281600Z 14012G24KT 9999 SCT030 SCT070 30/20 Q1016;
0143827980999992007092817004-07100-034867FM-15+0007SBJP V0201501N006212200019N0112651N1+02901+02001999999ADDGA1041+009001999GA2041+021001999GF104991999999999999999999MA1101491999999REMMET058METAR SBJP 281700Z 15012KT 9999 SCT030 SCT070 29/20 Q1015;
0154827980999992007092818004-07100-034867FM-15+0007SBJP V0201501N005710210019N0112651N1+02701+02101999999ADDGA1041+009001999GA2071+021001999GF107991999999999999999999MA1101591999999OC101181REMMET061METAR SBJP 281800Z 15011G23KT 9999 SCT030 BKN070 27/21 Q1016;
0169827980999992007092819004-07100-034867FM-15+0007SBJP V0201501N00571010501CN0112651N1+02701+02001999999ADDGA1041+009001999GA2021+010501021GA3071+021001999GF107991999999999999999999MA1101591999999REMMET068METAR SBJP 281900Z 15011KT 9999 SCT030 FEW035TCU BKN070 27/20 Q1016;
0169827980999992007092820004-07100-034867FM-15+0007SBJP V0201501N005112200019N0112651N1+02601+02101999999ADDGA1041+009001999GA2021+010501021GA3041+021001999GF104991999999999999999999MA1101591999999REMMET068METAR SBJP 282000Z 15010KT 9999 SCT030 FEW035TCU SCT070 26/21 Q1016;
0120827980999992007092821004-07100-034867FM-15+0007SBJP V0201501N002612200019N0112651N1+02501+02101999999ADDGA1021+007501999GF102991999999999999999999MA1101691999999REMMET051METAR SBJP 282100Z 15005KT 9999 FEW025 25/21 Q1017;
0120827980999992007092822004-07100-034867FM-15+0007SBJP V0201801N003610060019N0112651N1+02501+02101999999ADDGA1071+006001999GF107991999999999999999999MA1101691999999REMMET051METAR SBJP 282200Z 18007KT 9999 BKN020 25/21 Q1017;
0120827980999992007092823004-07100-034867FM-15+0007SBJP V0201801N003112200019N0112651N1+02401+02101999999ADDGA1041+006001999GF104991999999999999999999MA1101801999999REMMET051METAR SBJP 282300Z 18006KT 9999 SCT020 24/21 Q1018;
0120827980999992007092900004-07100-034867FM-15+0007SBJP V0201901N002112200019N0112651N1+02401+02101999999ADDGA1041+006001999GF104991999999999999999999MA1101801999999REMMET051METAR SBJP 290000Z 19004KT 9999 SCT020 24/21 Q1018;
0120827980999992007092901004-07100-034867FM-15+0007SBJP V0201901N002112200019N0112651N1+02401+02101999999ADDGA1041+006001999GF104991999999999999999999MA1101801999999REMMET051METAR SBJP 290100Z 19004KT 9999 SCT020 24/21 Q1018;
0120827980999992007092902004-07100-034867FM-15+0007SBJP V0201601N002612200019N0112651N1+02301+02101999999ADDGA1041+006001999GF104991999999999999999999MA1101801999999REMMET051METAR SBJP 290200Z 16005KT 9999 SCT020 23/21 Q1018;
0120827980999992007092903004-07100-034867FM-15+0007SBJP V0201901N002612200019N0112651N1+02301+02101999999ADDGA1041+006001999GF104991999999999999999999MA1101691999999REMMET051METAR SBJP 290300Z 19005KT 9999 SCT020 23/21 Q1017;
0143827980999992007092904004-07100-034867FM-15+0007SBJP V0201701N002612200019N0112651N1+02401+02101999999ADDGA1041+006001999GA2041+021001999GF104991999999999999999999MA1101691999999REMMET058METAR SBJP 290400Z 17005KT 9999 SCT020 SCT070 24/21 Q1017;
0143827980999992007092905004-07100-034867FM-15+0007SBJP V0201801N001512200019N0112651N1+02301+02101999999ADDGA1041+006001999GA2041+021001999GF104991999999999999999999MA1101591999999REMMET058METAR SBJP 290500Z 18003KT 9999 SCT020 SCT070 23/21 Q1016;
0120827980999992007092906004-07100-034867FM-15+0007SBJP V0201901N002112200019N0112651N1+02301+02101999999ADDGA1021+006001999GF102991999999999999999999MA1101591999999REMMET051METAR SBJP 290600Z 19004KT 9999 FEW020 23/21 Q1016;
0120827980999992007092907004-07100-034867FM-15+0007SBJP V0201701N001512200019N0112651N1+02201+02101999999ADDGA1021+006001999GF102991999999999999999999MA1101591999999REMMET051METAR SBJP 290700Z 17003KT 9999 FEW020 22/21 Q1016;
0120827980999992007092908004-07100-034867FM-15+0007SBJP V0202001N002112200019N0112651N1+02201+02101999999ADDGA1021+006001999GF102991999999999999999999MA1101591999999REMMET051METAR SBJP 290800Z 20004KT 9999 FEW020 22/21 Q1016;
0120827980999992007092909004-07100-034867FM-15+0007SBJP V0201901N002112200019N0112651N1+02301+02101999999ADDGA1021+006001999GF102991999999999999999999MA1101691999999REMMET051METAR SBJP 290900Z 19004KT 9999 FEW020 23/21 Q1017;
0143827980999992007092910004-07100-034867FM-15+0007SBJP V0201701N002112200019N0112651N1+02501+02101999999ADDGA1021+007501999GA2041+021001999GF104991999999999999999999MA1101691999999REMMET058METAR SBJP 291000Z 17004KT 9999 FEW025 SCT070 25/21 Q1017;
0120827980999992007092911004-07100-034867FM-15+0007SBJP V0201401N005710075019N0112651N1+02601+02101999999ADDGA1071+007501999GF107991999999999999999999MA1101801999999REMMET051METAR SBJP 291100Z 14011KT 9999 BKN025 26/21 Q1018;
0120827980999992007092912004-07100-034867FM-15+0007SBJP V0201401N006712200019N0112651N1+02901+02101999999ADDGA1041+007501999GF104991999999999999999999MA1101801999999REMMET051METAR SBJP 291200Z 14013KT 9999 SCT025 29/21 Q1018;
0120827980999992007092913004-07100-034867FM-15+0007SBJP V0201301N007212200019N0112651N1+02901+02001999999ADDGA1041+009001999GF104991999999999999999999MA1101801999999REMMET051METAR SBJP 291300Z 13014KT 9999 SCT030 29/20 Q1018;
0131827980999992007092914004-07100-034867FM-15+0007SBJP V0201501N005712200019N0112651N1+02901+02101999999ADDGA1041+009001999GF104991999999999999999999MA1101691999999OC101081REMMET054METAR SBJP 291400Z 15011G21KT 9999 SCT030 29/21 Q1017;
0131827980999992007092915004-07100-034867FM-15+0007SBJP V0201601N006712200019N0112651N1+02901+02001999999ADDGA1041+009001999GF104991999999999999999999MA1101591999999OC101181REMMET054METAR SBJP 291500Z 16013G23KT 9999 SCT030 29/20 Q1016;
0120827980999992007092916004-07100-034867FM-15+0007SBJP V0201801N006212200019N0112651N1+03001+02101999999ADDGA1041+009001999GF104991999999999999999999MA1101591999999REMMET051METAR SBJP 291600Z 18012KT 9999 SCT030 30/21 Q1016;
0120827980999992007092917004-07100-034867FM-15+0007SBJP V0201801N006212200019N0112651N1+03001+02101999999ADDGA1041+009001999GF104991999999999999999999MA1101591999999REMMET051METAR SBJP 291700Z 18012KT 9999 SCT030 30/21 Q1016;
0120827980999992007092918004-07100-034867FM-15+0007SBJP V0201601N005112200019N0112651N1+02901+01901999999ADDGA1041+009001999GF104991999999999999999999MA1101491999999REMMET051METAR SBJP 291800Z 16010KT 9999 SCT030 29/19 Q1015;
0120827980999992007092919004-07100-034867FM-15+0007SBJP V0201601N005712200019N0112651N1+02801+02001999999ADDGA1041+009001999GF104991999999999999999999MA1101491999999REMMET051METAR SBJP 291900Z 16011KT 9999 SCT030 28/20 Q1015;
0120827980999992007092920004-07100-034867FM-15+0007SBJP V0201701N005112200019N0112651N1+02601+02001999999ADDGA1021+009001999GF102991999999999999999999MA1101591999999REMMET051METAR SBJP 292000Z 17010KT 9999 FEW030 26/20 Q1016;
0120827980999992007092921004-07100-034867FM-15+0007SBJP V0201801N004112200019N0112651N1+02501+02101999999ADDGA1021+009001999GF102991999999999999999999MA1101591999999REMMET051METAR SBJP 292100Z 18008KT 9999 FEW030 25/21 Q1016;
0120827980999992007092922004-07100-034867FM-15+0007SBJP V0201701N002112200019N0112651N1+02401+02001999999ADDGA1021+009001999GF102991999999999999999999MA1101691999999REMMET051METAR SBJP 292200Z 17004KT 9999 FEW030 24/20 Q1017;
0120827980999992007092923004-07100-034867FM-15+0007SBJP V0201601N002112200019N0112651N1+02301+02001999999ADDGA1021+009001999GF102991999999999999999999MA1101691999999REMMET051METAR SBJP 292300Z 16004KT 9999 FEW030 23/20 Q1017;
0120827980999992007093000004-07100-034867FM-15+0007SBJP V0201901N002112200019N0112651N1+02301+02001999999ADDGA1021+006001999GF102991999999999999999999MA1101801999999REMMET051METAR SBJP 300000Z 19004KT 9999 FEW020 23/20 Q1018;
0120827980999992007093001004-07100-034867FM-15+0007SBJP V0202201N002112200019N0112651N1+02301+02001999999ADDGA1021+006001999GF102991999999999999999999MA1101801999999REMMET051METAR SBJP 300100Z 22004KT 9999 FEW020 23/20 Q1018;
0120827980999992007093002004-07100-034867FM-15+0007SBJP V0202201N002112200019N0112651N1+02301+02001999999ADDGA1021+006001999GF102991999999999999999999MA1101801999999REMMET051METAR SBJP 300200Z 22004KT 9999 FEW020 23/20 Q1018;
0120827980999992007093003004-07100-034867FM-15+0007SBJP V0202201N002112200019N0112651N1+02301+02001999999ADDGA1041+006001999GF104991999999999999999999MA1101691999999REMMET051METAR SBJP 300300Z 22004KT 9999 SCT020 23/20 Q1017;
0120827980999992007093004004-07100-034867FM-15+0007SBJP V0202001N002112200019N0112651N1+02201+02001999999ADDGA1041+006001999GF104991999999999999999999MA1101691999999REMMET051METAR SBJP 300400Z 20004KT 9999 SCT020 22/20 Q1017;
0120827980999992007093005004-07100-034867FM-15+0007SBJP V0202201N002112200019N0112651N1+02201+02001999999ADDGA1041+006001999GF104991999999999999999999MA1101591999999REMMET051METAR SBJP 300500Z 22004KT 9999 SCT020 22/20 Q1016;
0120827980999992007093006004-07100-034867FM-15+0007SBJP V0202001N002112200019N0112651N1+02201+02001999999ADDGA1041+006001999GF104991999999999999999999MA1101591999999REMMET051METAR SBJP 300600Z 20004KT 9999 SCT020 22/20 Q1016;
0120827980999992007093007004-07100-034867FM-15+0007SBJP V0202101N002112200019N0112651N1+02201+02001999999ADDGA1041+006001999GF104991999999999999999999MA1101591999999REMMET051METAR SBJP 300700Z 21004KT 9999 SCT020 22/20 Q1016;
0120827980999992007093008004-07100-034867FM-15+0007SBJP V0202101N002112200019N0112651N1+02101+02001999999ADDGA1021+006001999GF102991999999999999999999MA1101591999999REMMET051METAR SBJP 300800Z 21004KT 9999 FEW020 21/20 Q1016;
0120827980999992007093009004-07100-034867FM-15+0007SBJP V0202101N003112200019N0112651N1+02101+02001999999ADDGA1021+007501999GF102991999999999999999999MA1101691999999REMMET051METAR SBJP 300900Z 21006KT 9999 FEW025 21/20 Q1017;
0120827980999992007093010004-07100-034867FM-15+0007SBJP V0202201N003112200019N0112651N1+02301+02101999999ADDGA1021+007501999GF102991999999999999999999MA1101691999999REMMET051METAR SBJP 301000Z 22006KT 9999 FEW025 23/21 Q1017;
0120827980999992007093011004-07100-034867FM-15+0007SBJP V0201701N006712200019N0112651N1+02801+01901999999ADDGA1041+009001999GF104991999999999999999999MA1101801999999REMMET051METAR SBJP 301100Z 17013KT 9999 SCT030 28/19 Q1018;
0120827980999992007093012004-07100-034867FM-15+0007SBJP V0201801N007212200019N0112651N1+02801+01801999999ADDGA1041+009001999GF104991999999999999999999MA1101691999999REMMET051METAR SBJP 301200Z 18014KT 9999 SCT030 28/18 Q1017;
0120827980999992007093013004-07100-034867FM-15+0007SBJP V0201601N006212200019N0112651N1+02901+01801999999ADDGA1041+009001999GF104991999999999999999999MA1101691999999REMMET051METAR SBJP 301300Z 16012KT 9999 SCT030 29/18 Q1017;
0120827980999992007093014004-07100-034867FM-15+0007SBJP V0201601N006712200019N0112651N1+02901+01801999999ADDGA1021+009001999GF102991999999999999999999MA1101691999999REMMET051METAR SBJP 301400Z 16013KT 9999 FEW030 29/18 Q1017;
0120827980999992007093015004-07100-034867FM-15+0007SBJP V0201701N006712200019N0112651N1+02901+01801999999ADDGA1041+009001999GF104991999999999999999999MA1101591999999REMMET051METAR SBJP 301500Z 17013KT 9999 SCT030 29/18 Q1016;
0120827980999992007093016004-07100-034867FM-15+0007SBJP V0201601N008212200019N0112651N1+02901+01901999999ADDGA1041+009001999GF104991999999999999999999MA1101491999999REMMET051METAR SBJP 301600Z 16016KT 9999 SCT030 29/19 Q1015;
0120827980999992007093017004-07100-034867FM-15+0007SBJP V0201601N006212200019N0112651N1+02701+02001999999ADDGA1041+009001999GF104991999999999999999999MA1101491999999REMMET051METAR SBJP 301700Z 16012KT 9999 SCT030 27/20 Q1015;
0120827980999992007093018004-07100-034867FM-15+0007SBJP V0201601N007212200019N0112651N1+02801+02001999999ADDGA1041+006001999GF104991999999999999999999MA1101491999999REMMET051METAR SBJP 301800Z 16014KT 9999 SCT020 28/20 Q1015;
0120827980999992007093019004-07100-034867FM-15+0007SBJP V0201601N007212200019N0112651N1+02701+01901999999ADDGA1041+006001999GF104991999999999999999999MA1101491999999REMMET051METAR SBJP 301900Z 16014KT 9999 SCT020 27/19 Q1015;
0120827980999992007093020004-07100-034867FM-15+0007SBJP V0201701N005112200019N0112651N1+02601+02001999999ADDGA1041+006001999GF104991999999999999999999MA1101491999999REMMET051METAR SBJP 302000Z 17010KT 9999 SCT020 26/20 Q1015;
0120827980999992007093021004-07100-034867FM-15+0007SBJP V0201801N003112200019N0112651N1+02501+01901999999ADDGA1021+006001999GF102991999999999999999999MA1101591999999REMMET051METAR SBJP 302100Z 18006KT 9999 FEW020 25/19 Q1016;
0120827980999992007093022004-07100-034867FM-15+0007SBJP V0201501N002612200019N0112651N1+02301+02001999999ADDGA1021+006001999GF102991999999999999999999MA1101691999999REMMET051METAR SBJP 302200Z 15005KT 9999 FEW020 23/20 Q1017;
0072827980999992007093023004-07100-034867FM-15+0007SBJP V0201801N00151220001CN0099001N1+02301+01901999999ADDMA1101691999999REMMET045METAR SBJP 302300Z 18003KT CAVOK 23/19 Q1017;
0072827980999992007100100004-07100-034867FM-15+0007SBJP V0201701N00211220001CN0099001N1+02201+01901999999ADDMA1101801999999REMMET045METAR SBJP 010000Z 17004KT CAVOK 22/19 Q1018;
0072827980999992007100101004-07100-034867FM-15+0007SBJP V0201801N00151220001CN0099001N1+02201+01901999999ADDMA1101801999999REMMET045METAR SBJP 010100Z 18003KT CAVOK 22/19 Q1018;
0072827980999992007100102004-07100-034867FM-15+0007SBJP V0201901N00151220001CN0099001N1+02101+01901999999ADDMA1101801999999REMMET045METAR SBJP 010200Z 19003KT CAVOK 21/19 Q1018;
0120827980999992007100103004-07100-034867FM-15+0007SBJP V0201901N002110060019N0112651N1+02101+01901999999ADDGA1071+006001999GF107991999999999999999999MA1101691999999REMMET051METAR SBJP 010300Z 19004KT 9999 BKN020 21/19 Q1017;
0120827980999992007100104004-07100-034867FM-15+0007SBJP V0202301N001012200019N0112651N1+02101+01901999999ADDGA1041+006001999GF104991999999999999999999MA1101691999999REMMET051METAR SBJP 010400Z 23002KT 9999 SCT020 21/19 Q1017;
0120827980999992007100105004-07100-034867FM-15+0007SBJP V0202401N002112200019N0112651N1+02001+01901999999ADDGA1041+006001999GF104991999999999999999999MA1101591999999REMMET051METAR SBJP 010500Z 24004KT 9999 SCT020 20/19 Q1016;
0120827980999992007100106004-07100-034867FM-15+0007SBJP V0202301N002112200019N0112651N1+02001+01901999999ADDGA1041+006001999GF104991999999999999999999MA1101591999999REMMET051METAR SBJP 010600Z 23004KT 9999 SCT020 20/19 Q1016;
0120827980999992007100107004-07100-034867FM-15+0007SBJP V0202301N002612200019N0112651N1+02001+01801999999ADDGA1041+006001999GF104991999999999999999999MA1101591999999REMMET051METAR SBJP 010700Z 23005KT 9999 SCT020 20/18 Q1016;
0120827980999992007100108004-07100-034867FM-15+0007SBJP V0202401N002112200019N0112651N1+02001+01801999999ADDGA1021+006001999GF102991999999999999999999MA1101591999999REMMET051METAR SBJP 010800Z 24004KT 9999 FEW020 20/18 Q1016;
0120827980999992007100109004-07100-034867FM-15+0007SBJP V0202401N002612200019N0112651N1+02101+01901999999ADDGA1021+006001999GF102991999999999999999999MA1101691999999REMMET051METAR SBJP 010900Z 24005KT 9999 FEW020 21/19 Q1017;
0120827980999992007100110004-07100-034867FM-15+0007SBJP V0202001N003112200019N0112651N1+02501+02001999999ADDGA1021+006001999GF102991999999999999999999MA1101801999999REMMET051METAR SBJP 011000Z 20006KT 9999 FEW020 25/20 Q1018;
0120827980999992007100111004-07100-034867FM-15+0007SBJP V0201701N005112200019N0112651N1+02601+02001999999ADDGA1021+006001999GF102991999999999999999999MA1101801999999REMMET051METAR SBJP 011100Z 17010KT 9999 FEW020 26/20 Q1018;
0120827980999992007100112004-07100-034867FM-15+0007SBJP V0201701N007212200019N0112651N1+02801+01901999999ADDGA1041+006001999GF104991999999999999999999MA1101801999999REMMET051METAR SBJP 011200Z 17014KT 9999 SCT020 28/19 Q1018;
0120827980999992007100113004-07100-034867FM-15+0007SBJP V0201701N006212200019N0112651N1+02801+01901999999ADDGA1041+006001999GF104991999999999999999999MA1101801999999REMMET051METAR SBJP 011300Z 17012KT 9999 SCT020 28/19 Q1018;
0120827980999992007100114004-07100-034867FM-15+0007SBJP V0201601N007212200019N0112651N1+02901+01901999999ADDGA1041+006001999GF104991999999999999999999MA1101801999999REMMET051METAR SBJP 011400Z 16014KT 9999 SCT020 29/19 Q1018;
0120827980999992007100115004-07100-034867FM-15+0007SBJP V0201701N005112200019N0112651N1+02901+01801999999ADDGA1041+006001999GF104991999999999999999999MA1101691999999REMMET051METAR SBJP 011500Z 17010KT 9999 SCT020 29/18 Q1017;
0120827980999992007100116004-07100-034867FM-15+0007SBJP V0201401N005710090019N0112651N1+02901+01801999999ADDGA1071+009001999GF107991999999999999999999MA1101591999999REMMET051METAR SBJP 011600Z 14011KT 9999 BKN030 29/18 Q1016;
0120827980999992007100117004-07100-034867FM-15+0007SBJP V0201401N005710090019N0112651N1+02901+01801999999ADDGA1071+009001999GF107991999999999999999999MA1101491999999REMMET051METAR SBJP 011700Z 14011KT 9999 BKN030 29/18 Q1015;
0120827980999992007100118004-07100-034867FM-15+0007SBJP V0201401N006212200019N0112651N1+02801+01901999999ADDGA1041+009001999GF104991999999999999999999MA1101591999999REMMET051METAR SBJP 011800Z 14012KT 9999 SCT030 28/19 Q1016;
0120827980999992007100119004-07100-034867FM-15+0007SBJP V0201501N005712200019N0112651N1+02701+01901999999ADDGA1041+006001999GF104991999999999999999999MA1101591999999REMMET051METAR SBJP 011900Z 15011KT 9999 SCT020 27/19 Q1016;
0120827980999992007100120004-07100-034867FM-15+0007SBJP V0201301N004612200019N0112651N1+02601+02001999999ADDGA1021+006001999GF102991999999999999999999MA1101591999999REMMET051METAR SBJP 012000Z 13009KT 9999 FEW020 26/20 Q1016;
0072827980999992007100121004-07100-034867FM-15+0007SBJP V0201401N00411220001CN0099001N1+02501+02101999999ADDMA1101591999999REMMET045METAR SBJP 012100Z 14008KT CAVOK 25/21 Q1016;
0072827980999992007100122004-07100-034867FM-15+0007SBJP V0201801N00261220001CN0099001N1+02401+02101999999ADDMA1101691999999REMMET045METAR SBJP 012200Z 18005KT CAVOK 24/21 Q1017;
0072827980999992007100123004-07100-034867FM-15+0007SBJP V0201801N00261220001CN0099001N1+02301+02001999999ADDMA1101691999999REMMET045METAR SBJP 012300Z 18005KT CAVOK 23/20 Q1017;
0072827980999992007100200004-07100-034867FM-15+0007SBJP V0201901N00151220001CN0099001N1+02301+02001999999ADDMA1101691999999REMMET045METAR SBJP 020000Z 19003KT CAVOK 23/20 Q1017;
0072827980999992007100201004-07100-034867FM-15+0007SBJP V0202301N00151220001CN0099001N1+02301+02001999999ADDMA1101801999999REMMET045METAR SBJP 020100Z 23003KT CAVOK 23/20 Q1018;
0120827980999992007100202004-07100-034867FM-15+0007SBJP V0202001N002112200019N0112651N1+02201+02001999999ADDGA1021+006001999GF102991999999999999999999MA1101691999999REMMET051METAR SBJP 020200Z 20004KT 9999 FEW020 22/20 Q1017;
0120827980999992007100203004-07100-034867FM-15+0007SBJP V0202401N001512200019N0112651N1+02201+02001999999ADDGA1021+006001999GF102991999999999999999999MA1101591999999REMMET051METAR SBJP 020300Z 24003KT 9999 FEW020 22/20 Q1016;
0120827980999992007100204004-07100-034867FM-15+0007SBJP V0202401N002112200019N0112651N1+02201+02001999999ADDGA1021+006001999GF102991999999999999999999MA1101591999999REMMET051METAR SBJP 020400Z 24004KT 9999 FEW020 22/20 Q1016;
0120827980999992007100205004-07100-034867FM-15+0007SBJP V0202301N002112200019N0112651N1+02201+02001999999ADDGA1021+006001999GF102991999999999999999999MA1101491999999REMMET051METAR SBJP 020500Z 23004KT 9999 FEW020 22/20 Q1015;
0120827980999992007100206004-07100-034867FM-15+0007SBJP V0202301N002112200019N0112651N1+02101+02001999999ADDGA1021+006001999GF102991999999999999999999MA1101491999999REMMET051METAR SBJP 020600Z 23004KT 9999 FEW020 21/20 Q1015;
0120827980999992007100207004-07100-034867FM-15+0007SBJP V0202301N002112200019N0112651N1+02201+02001999999ADDGA1021+006001999GF102991999999999999999999MA1101491999999REMMET051METAR SBJP 020700Z 23004KT 9999 FEW020 22/20 Q1015;
0120827980999992007100208004-07100-034867FM-15+0007SBJP V0202301N002112200019N0112651N1+02201+02001999999ADDGA1021+006001999GF102991999999999999999999MA1101491999999REMMET051METAR SBJP 020800Z 23004KT 9999 FEW020 22/20 Q1015;
0120827980999992007100209004-07100-034867FM-15+0007SBJP V0202201N003112200019N0112651N1+02201+02101999999ADDGA1021+006001999GF102991999999999999999999MA1101591999999REMMET051METAR SBJP 020900Z 22006KT 9999 FEW020 22/21 Q1016;
0120827980999992007100210004-07100-034867FM-15+0007SBJP V0201801N004112200019N0112651N1+02501+02201999999ADDGA1021+006001999GF102991999999999999999999MA1101591999999REMMET051METAR SBJP 021000Z 18008KT 9999 FEW020 25/22 Q1016;
0120827980999992007100211004-07100-034867FM-15+0007SBJP V0201601N005712200019N0112651N1+02701+02001999999ADDGA1041+006001999GF104991999999999999999999MA1101691999999REMMET051METAR SBJP 021100Z 16011KT 9999 SCT020 27/20 Q1017;
0120827980999992007100212004-07100-034867FM-15+0007SBJP V0201401N006710090019N0112651N1+02901+01901999999ADDGA1071+009001999GF107991999999999999999999MA1101691999999REMMET051METAR SBJP 021200Z 14013KT 9999 BKN030 29/19 Q1017;
0120827980999992007100213004-07100-034867FM-15+0007SBJP V0201401N006212200019N0112651N1+03001+01901999999ADDGA1041+009001999GF104991999999999999999999MA1101691999999REMMET051METAR SBJP 021300Z 14012KT 9999 SCT030 30/19 Q1017;
0120827980999992007100214004-07100-034867FM-15+0007SBJP V0201401N006712200019N0112651N1+03001+01801999999ADDGA1041+009001999GF104991999999999999999999MA1101691999999REMMET051METAR SBJP 021400Z 14013KT 9999 SCT030 30/18 Q1017;
0120827980999992007100215004-07100-034867FM-15+0007SBJP V0201401N006210090019N0112651N1+03001+01901999999ADDGA1071+009001999GF107991999999999999999999MA1101591999999REMMET051METAR SBJP 021500Z 14012KT 9999 BKN030 30/19 Q1016;
0120827980999992007100216004-07100-034867FM-15+0007SBJP V0201701N007212200019N0112651N1+03001+01901999999ADDGA1041+009001999GF104991999999999999999999MA1101491999999REMMET051METAR SBJP 021600Z 17014KT 9999 SCT030 30/19 Q1015;
0120827980999992007100217004-07100-034867FM-15+0007SBJP V0201701N005712200019N0112651N1+02701+02101999999ADDGA1041+009001999GF104991999999999999999999MA1101491999999REMMET051METAR SBJP 021700Z 17011KT 9999 SCT030 27/21 Q1015;
0143827980999992007100218004-07100-034867FM-15+0007SBJP V0201701N006212200019N0112651N1+02701+02101999999ADDGA1041+007501999GA2041+024001999GF104991999999999999999999MA1101491999999REMMET058METAR SBJP 021800Z 17012KT 9999 SCT025 SCT080 27/21 Q1015;
0143827980999992007100219004-07100-034867FM-15+0007SBJP V0201801N004612200019N0112651N1+02701+02101999999ADDGA1041+007501999GA2041+024001999GF104991999999999999999999MA1101491999999REMMET058METAR SBJP 021900Z 18009KT 9999 SCT025 SCT080 27/21 Q1015;
0143827980999992007100220004-07100-034867FM-15+0007SBJP V0201701N005112200019N0112651N1+02601+02101999999ADDGA1041+007501999GA2041+024001999GF104991999999999999999999MA1101491999999REMMET058METAR SBJP 022000Z 17010KT 9999 SCT025 SCT080 26/21 Q1015;
0120827980999992007100221004-07100-034867FM-15+0007SBJP V0201801N004612200019N0112651N1+02501+02101999999ADDGA1041+006001999GF104991999999999999999999MA1101591999999REMMET051METAR SBJP 022100Z 18009KT 9999 SCT020 25/21 Q1016;
0072827980999992007100222004-07100-034867FM-15+0007SBJP V0201601N00311220001CN0099001N1+02401+02101999999ADDMA1101691999999REMMET045METAR SBJP 022200Z 16006KT CAVOK 24/21 Q1017;
0072827980999992007100223004-07100-034867FM-15+0007SBJP V0201601N00261220001CN0099001N1+02401+02101999999ADDMA1101691999999REMMET045METAR SBJP 022300Z 16005KT CAVOK 24/21 Q1017;
0072827980999992007100300004-07100-034867FM-15+0007SBJP V0201801N00311220001CN0099001N1+02401+02101999999ADDMA1101801999999REMMET045METAR SBJP 030000Z 18006KT CAVOK 24/21 Q1018;
0143827980999992007100301004-07100-034867FM-15+0007SBJP V0201801N002110210019N0112651N1+02401+02101999999ADDGA1041+006001999GA2071+021001999GF107991999999999999999999MA1101801999999REMMET058METAR SBJP 030100Z 18004KT 9999 SCT020 BKN070 24/21 Q1018;
0143827980999992007100302004-07100-034867FM-15+0007SBJP V0202001N002112200019N0112651N1+02401+02101999999ADDGA1041+006001999GA2041+021001999GF104991999999999999999999MA1101691999999REMMET058METAR SBJP 030200Z 20004KT 9999 SCT020 SCT070 24/21 Q1017;
0143827980999992007100303004-07100-034867FM-15+0007SBJP V0201801N002112200019N0112651N1+02401+02101999999ADDGA1041+006001999GA2041+021001999GF104991999999999999999999MA1101591999999REMMET058METAR SBJP 030300Z 18004KT 9999 SCT020 SCT070 24/21 Q1016;
0120827980999992007100304004-07100-034867FM-15+0007SBJP V0202001N001512200019N0112651N1+02301+02101999999ADDGA1041+006001999GF104991999999999999999999MA1101491999999REMMET051METAR SBJP 030400Z 20003KT 9999 SCT020 23/21 Q1015;
0120827980999992007100305004-07100-034867FM-15+0007SBJP V0202001N002612200019N0112651N1+02301+02101999999ADDGA1021+005101999GF102991999999999999999999MA1101491999999REMMET051METAR SBJP 030500Z 20005KT 9999 FEW017 23/21 Q1015;
0072827980999992007100306004-07100-034867FM-15+0007SBJP V0201901N00261220001CN0099001N1+02301+02101999999ADDMA1101491999999REMMET045METAR SBJP 030600Z 19005KT CAVOK 23/21 Q1015;
0072827980999992007100307004-07100-034867FM-15+0007SBJP V0202001N00211220001CN0099001N1+02201+02101999999ADDMA1101491999999REMMET045METAR SBJP 030700Z 20004KT CAVOK 22/21 Q1015;
0072827980999992007100308004-07100-034867FM-15+0007SBJP V0202001N00261220001CN0099001N1+02201+02101999999ADDMA1101491999999REMMET045METAR SBJP 030800Z 20005KT CAVOK 22/21 Q1015;
0143827980999992007100309004-07100-034867FM-15+0007SBJP V0202001N002110210019N0112651N1+02201+02101999999ADDGA1041+006001999GA2071+021001999GF107991999999999999999999MA1101491999999REMMET058METAR SBJP 030900Z 20004KT 9999 SCT020 BKN070 22/21 Q1015;
0143827980999992007100310004-07100-034867FM-15+0007SBJP V0202001N004112200019N0112651N1+02601+02201999999ADDGA1021+007501999GA2041+030001999GF104991999999999999999999MA1101591999999REMMET058METAR SBJP 031000Z 20008KT 9999 FEW025 SCT100 26/22 Q1016;
0120827980999992007100311004-07100-034867FM-15+0007SBJP V0202001N004112200019N0112651N1+02701+02101999999ADDGA1041+007501999GF104991999999999999999999MA1101591999999REMMET051METAR SBJP 031100Z 20008KT 9999 SCT025 27/21 Q1016;
0120827980999992007100312004-07100-034867FM-15+0007SBJP V0201601N005112200019N0112651N1+02901+01901999999ADDGA1041+009001999GF104991999999999999999999MA1101591999999REMMET051METAR SBJP 031200Z 16010KT 9999 SCT030 29/19 Q1016;
0120827980999992007100313004-07100-034867FM-15+0007SBJP V0201801N006212200019N0112651N1+03001+02101999999ADDGA1041+009001999GF104991999999999999999999MA1101591999999REMMET051METAR SBJP 031300Z 18012KT 9999 SCT030 30/21 Q1016;
0120827980999992007100314004-07100-034867FM-15+0007SBJP V0201701N005112200019N0112651N1+03001+02001999999ADDGA1041+009001999GF104991999999999999999999MA1101491999999REMMET051METAR SBJP 031400Z 17010KT 9999 SCT030 30/20 Q1015;
0120827980999992007100315004-07100-034867FM-15+0007SBJP V0201601N006212200019N0112651N1+03001+01901999999ADDGA1041+009001999GF104991999999999999999999MA1101491999999REMMET051METAR SBJP 031500Z 16012KT 9999 SCT030 30/19 Q1015;
0120827980999992007100316004-07100-034867FM-15+0007SBJP V0201501N006212200019N0112651N1+03001+02001999999ADDGA1041+009001999GF104991999999999999999999MA1101391999999REMMET051METAR SBJP 031600Z 15012KT 9999 SCT030 30/20 Q1014;
0143827980999992007100317004-07100-034867FM-15+0007SBJP V0201301N007212200019N0112651N1+02901+01901999999ADDGA1021+009001999GA2041+090001999GF104991999999999999999999MA1101291999999REMMET058METAR SBJP 031700Z 13014KT 9999 FEW030 SCT300 29/19 Q1013;
0154827980999992007100318004-07100-034867FM-15+0007SBJP V0201401N006210900019N0112651N1+02901+02001999999ADDGA1041+009001999GA2071+090001999GF107991999999999999999999MA1101291999999OC101231REMMET061METAR SBJP 031800Z 14012G24KT 9999 SCT030 BKN300 29/20 Q1013;
0143827980999992007100319004-07100-034867FM-15+0007SBJP V0201401N005712200019N0112651N1+02801+02001999999ADDGA1021+009001999GA2041+090001999GF104991999999999999999999MA1101291999999REMMET058METAR SBJP 031900Z 14011KT 9999 FEW030 SCT300 28/20 Q1013;
0120827980999992007100320004-07100-034867FM-15+0007SBJP V0201401N005712200019N0112651N1+02601+02101999999ADDGA1021+009001999GF102991999999999999999999MA1101391999999REMMET051METAR SBJP 032000Z 14011KT 9999 FEW030 26/21 Q1014;
0143827980999992007100321004-07100-034867FM-15+0007SBJP V0201401N004112200019N0112651N1+02501+02101999999ADDGA1021+009001999GA2041+090001999GF104991999999999999999999MA1101391999999REMMET058METAR SBJP 032100Z 14008KT 9999 FEW030 SCT300 25/21 Q1014;
0120827980999992007100322004-07100-034867FM-15+0007SBJP V0201701N003112200019N0112651N1+02401+02101999999ADDGA1021+007501999GF102991999999999999999999MA1101491999999REMMET051METAR SBJP 032200Z 17006KT 9999 FEW025 24/21 Q1015;
0120827980999992007100323004-07100-034867FM-15+0007SBJP V0201701N002612200019N0112651N1+02401+02101999999ADDGA1021+007501999GF102991999999999999999999MA1101591999999REMMET051METAR SBJP 032300Z 17005KT 9999 FEW025 24/21 Q1016;
0120827980999992007100400004-07100-034867FM-15+0007SBJP V0201901N002612200019N0112651N1+02401+02101999999ADDGA1021+007501999GF102991999999999999999999MA1101591999999REMMET051METAR SBJP 040000Z 19005KT 9999 FEW025 24/21 Q1016;
0120827980999992007100401004-07100-034867FM-15+0007SBJP V0201701N003112200019N0112651N1+02401+02201999999ADDGA1021+007501999GF102991999999999999999999MA1101591999999REMMET051METAR SBJP 040100Z 17006KT 9999 FEW025 24/22 Q1016;
0120827980999992007100402004-07100-034867FM-15+0007SBJP V0201901N002612200019N0112651N1+02401+02101999999ADDGA1021+007501999GF102991999999999999999999MA1101591999999REMMET051METAR SBJP 040200Z 19005KT 9999 FEW025 24/21 Q1016;
0120827980999992007100403004-07100-034867FM-15+0007SBJP V0201601N002612200019N0112651N1+02301+02101999999ADDGA1021+007501999GF102991999999999999999999MA1101491999999REMMET051METAR SBJP 040300Z 16005KT 9999 FEW025 23/21 Q1015;
0120827980999992007100404004-07100-034867FM-15+0007SBJP V0201701N001512200019N0112651N1+02301+02101999999ADDGA1021+007501999GF102991999999999999999999MA1101391999999REMMET051METAR SBJP 040400Z 17003KT 9999 FEW025 23/21 Q1014;
0120827980999992007100405004-07100-034867FM-15+0007SBJP V0202001N001512200019N0112651N1+02301+02101999999ADDGA1021+007501999GF102991999999999999999999MA1101391999999REMMET051METAR SBJP 040500Z 20003KT 9999 FEW025 23/21 Q1014;
0120827980999992007100406004-07100-034867FM-15+0007SBJP V0202101N001512200019N0112651N1+02301+02101999999ADDGA1021+006001999GF102991999999999999999999MA1101391999999REMMET051METAR SBJP 040600Z 21003KT 9999 FEW020 23/21 Q1014;
0120827980999992007100407004-07100-034867FM-15+0007SBJP V0202401N001512200019N0112651N1+02201+02001999999ADDGA1021+006001999GF102991999999999999999999MA1101391999999REMMET051METAR SBJP 040700Z 24003KT 9999 FEW020 22/20 Q1014;
0120827980999992007100408004-07100-034867FM-15+0007SBJP V0202001N000512200019N0112651N1+02201+02001999999ADDGA1021+006001999GF102991999999999999999999MA1101391999999REMMET051METAR SBJP 040800Z 20001KT 9999 FEW020 22/20 Q1014;
0120827980999992007100409004-07100-034867FM-15+0007SBJP V0209999C000012200019N0112651N1+02201+02101999999ADDGA1041+006001999GF104991999999999999999999MA1101491999999REMMET051METAR SBJP 040900Z 00000KT 9999 SCT020 22/21 Q1015;
0120827980999992007100410004-07100-034867FM-15+0007SBJP V0201701N003112200019N0112651N1+02501+02201999999ADDGA1041+007501999GF104991999999999999999999MA1101591999999REMMET051METAR SBJP 041000Z 17006KT 9999 SCT025 25/22 Q1016;
0143827980999992007100411004-07100-034867FM-15+0007SBJP V0201201N005112200019N0112651N1+02801+02101999999ADDGA1041+007501999GA2041+021001999GF104991999999999999999999MA1101591999999REMMET058METAR SBJP 041100Z 12010KT 9999 SCT025 SCT070 28/21 Q1016;
0143827980999992007100412004-07100-034867FM-15+0007SBJP V0201301N004610075019N0112651N1+02701+02001999999ADDGA1071+007501999GA2071+021001999GF107991999999999999999999MA1101591999999REMMET058METAR SBJP 041200Z 13009KT 9999 BKN025 BKN070 27/20 Q1016;
0154827980999992007100413004-07100-034867FM-15+0007SBJP V0201301N005112200019N0112651N1+02801+02001999999ADDGA1041+009001999GA2041+021001999GF104991999999999999999999MA1101591999999OC101031REMMET061METAR SBJP 041300Z 13010G20KT 9999 SCT030 SCT070 28/20 Q1016;
0120827980999992007100414004-07100-034867FM-15+0007SBJP V0201101N005112200019N0112651N1+02901+01901999999ADDGA1041+009001999GF104991999999999999999999MA1101491999999REMMET051METAR SBJP 041400Z 11010KT 9999 SCT030 29/19 Q1015;
0120827980999992007100415004-07100-034867FM-15+0007SBJP V0201101N005112200019N0112651N1+02901+02001999999ADDGA1041+009001999GF104991999999999999999999MA1101391999999REMMET051METAR SBJP 041500Z 11010KT 9999 SCT030 29/20 Q1014;
0120827980999992007100416004-07100-034867FM-15+0007SBJP V0201501N004612200019N0112651N1+03001+02001999999ADDGA1041+009001999GF104991999999999999999999MA1101391999999REMMET051METAR SBJP 041600Z 15009KT 9999 SCT030 30/20 Q1014;
0120827980999992007100417004-07100-034867FM-15+0007SBJP V0201501N005112200019N0112651N1+02901+02001999999ADDGA1041+009001999GF104991999999999999999999MA1101291999999REMMET051METAR SBJP 041700Z 15010KT 9999 SCT030 29/20 Q1013;
0120827980999992007100418004-07100-034867FM-15+0007SBJP V0201401N004612200019N0112651N1+02901+02001999999ADDGA1041+009001999GF104991999999999999999999MA1101291999999REMMET051METAR SBJP 041800Z 14009KT 9999 SCT030 29/20 Q1013;
0120827980999992007100419004-07100-034867FM-15+0007SBJP V0201401N004612200019N0112651N1+02701+02001999999ADDGA1041+009001999GF104991999999999999999999MA1101391999999REMMET051METAR SBJP 041900Z 14009KT 9999 SCT030 27/20 Q1014;
0143827980999992007100420004-07100-034867FM-15+0007SBJP V0201501N004612200019N0112651N1+02601+02001999999ADDGA1021+009001999GA2041+090001999GF104991999999999999999999MA1101391999999REMMET058METAR SBJP 042000Z 15009KT 9999 FEW030 SCT300 26/20 Q1014;
0143827980999992007100421004-07100-034867FM-15+0007SBJP V0201401N002612200019N0112651N1+02501+02101999999ADDGA1021+007501999GA2041+090001999GF104991999999999999999999MA1101491999999REMMET058METAR SBJP 042100Z 14005KT 9999 FEW025 SCT300 25/21 Q1015;
0120827980999992007100422004-07100-034867FM-15+0007SBJP V0201501N003112200019N0112651N1+02501+02001999999ADDGA1021+006001999GF102991999999999999999999MA1101491999999REMMET051METAR SBJP 042200Z 15006KT 9999 FEW020 25/20 Q1015;
0120827980999992007100423004-07100-034867FM-15+0007SBJP V0201501N004112200019N0112651N1+02501+02001999999ADDGA1021+006001999GF102991999999999999999999MA1101491999999REMMET051METAR SBJP 042300Z 15008KT 9999 FEW020 25/20 Q1015;
0120827980999992007100500004-07100-034867FM-15+0007SBJP V0201301N003112200019N0112651N1+02501+02101999999ADDGA1021+006001999GF102991999999999999999999MA1101591999999REMMET051METAR SBJP 050000Z 13006KT 9999 FEW020 25/21 Q1016;
0120827980999992007100501004-07100-034867FM-15+0007SBJP V0201501N002112200019N0112651N1+02401+02101999999ADDGA1021+006001999GF102991999999999999999999MA1101591999999REMMET051METAR SBJP 050100Z 15004KT 9999 FEW020 24/21 Q1016;
0120827980999992007100502004-07100-034867FM-15+0007SBJP V0201501N002112200019N0112651N1+02401+02101999999ADDGA1021+006001999GF102991999999999999999999MA1101491999999REMMET051METAR SBJP 050200Z 15004KT 9999 FEW020 24/21 Q1015;
0120827980999992007100503004-07100-034867FM-15+0007SBJP V0202301N001012200019N0112651N1+02301+02001999999ADDGA1021+006001999GF102991999999999999999999MA1101491999999REMMET051METAR SBJP 050300Z 23002KT 9999 FEW020 23/20 Q1015;
0072827980999992007100504004-07100-034867FM-15+0007SBJP V0202101N00101220001CN0099001N1+02201+02001999999ADDMA1101391999999REMMET045METAR SBJP 050400Z 21002KT CAVOK 22/20 Q1014;
0072827980999992007100505004-07100-034867FM-15+0007SBJP V0209999C00001220001CN0099001N1+02101+02001999999ADDMA1101391999999REMMET045METAR SBJP 050500Z 00000KT CAVOK 21/20 Q1014;
0072827980999992007100506004-07100-034867FM-15+0007SBJP V0202001N00151220001CN0099001N1+02201+02001999999ADDMA1101391999999REMMET045METAR SBJP 050600Z 20003KT CAVOK 22/20 Q1014;
0072827980999992007100507004-07100-034867FM-15+0007SBJP V0202201N00211220001CN0099001N1+02201+02001999999ADDMA1101391999999REMMET045METAR SBJP 050700Z 22004KT CAVOK 22/20 Q1014;
0072827980999992007100508004-07100-034867FM-15+0007SBJP V0201901N00101220001CN0099001N1+02101+02001999999ADDMA1101491999999REMMET045METAR SBJP 050800Z 19002KT CAVOK 21/20 Q1015;
0072827980999992007100509004-07100-034867FM-15+0007SBJP V0201401N00101220001CN0099001N1+02201+02101999999ADDMA1101491999999REMMET045METAR SBJP 050900Z 14002KT CAVOK 22/21 Q1015;
0072827980999992007100510004-07100-034867FM-15+0007SBJP V0201801N00261220001CN0099001N1+02501+02201999999ADDMA1101591999999REMMET045METAR SBJP 051000Z 18005KT CAVOK 25/22 Q1016;
0120827980999992007100511004-07100-034867FM-15+0007SBJP V0201401N004112200019N0112651N1+02801+02001999999ADDGA1041+009001999GF104991999999999999999999MA1101591999999REMMET051METAR SBJP 051100Z 14008KT 9999 SCT030 28/20 Q1016;
0120827980999992007100512004-07100-034867FM-15+0007SBJP V0201301N004612200019N0112651N1+02801+02101999999ADDGA1041+009001999GF104991999999999999999999MA1101691999999REMMET051METAR SBJP 051200Z 13009KT 9999 SCT030 28/21 Q1017;
0120827980999992007100513004-07100-034867FM-15+0007SBJP V0201301N004112200019N0112651N1+02901+01901999999ADDGA1041+009001999GF104991999999999999999999MA1101591999999REMMET051METAR SBJP 051300Z 13008KT 9999 SCT030 29/19 Q1016;
0143827980999992007100514004-07100-034867FM-15+0007SBJP V0201201N005112200019N0112651N1+03001+01801999999ADDGA1041+009001999GA2041+090001999GF104991999999999999999999MA1101591999999REMMET058METAR SBJP 051400Z 12010KT 9999 SCT030 SCT300 30/18 Q1016;
0143827980999992007100515004-07100-034867FM-15+0007SBJP V0201301N004112200019N0112651N1+03001+01901999999ADDGA1041+009001999GA2041+090001999GF104991999999999999999999MA1101491999999REMMET058METAR SBJP 051500Z 13008KT 9999 SCT030 SCT300 30/19 Q1015;
0120827980999992007100516004-07100-034867FM-15+0007SBJP V0201301N004112200019N0112651N1+02901+01701999999ADDGA1041+009001999GF104991999999999999999999MA1101391999999REMMET051METAR SBJP 051600Z 13008KT 9999 SCT030 29/17 Q1014;
0120827980999992007100517004-07100-034867FM-15+0007SBJP V0201501N005112200019N0112651N1+02901+01801999999ADDGA1021+006001999GF102991999999999999999999MA1101391999999REMMET051METAR SBJP 051700Z 15010KT 9999 FEW020 29/18 Q1014;
0120827980999992007100518004-07100-034867FM-15+0007SBJP V0201401N005112200019N0112651N1+02901+01901999999ADDGA1041+009001999GF104991999999999999999999MA1101291999999REMMET051METAR SBJP 051800Z 14010KT 9999 SCT030 29/19 Q1013;
0120827980999992007100519004-07100-034867FM-15+0007SBJP V0201401N004112200019N0112651N1+02801+01901999999ADDGA1021+009001999GF102991999999999999999999MA1101391999999REMMET051METAR SBJP 051900Z 14008KT 9999 FEW030 28/19 Q1014;
0120827980999992007100520004-07100-034867FM-15+0007SBJP V0201501N004112200019N0112651N1+02601+02001999999ADDGA1021+009001999GF102991999999999999999999MA1101391999999REMMET051METAR SBJP 052000Z 15008KT 9999 FEW030 26/20 Q1014;
0120827980999992007100521004-07100-034867FM-15+0007SBJP V0201601N003112200019N0112651N1+02501+02101999999ADDGA1021+009001999GF102991999999999999999999MA1101491999999REMMET051METAR SBJP 052100Z 16006KT 9999 FEW030 25/21 Q1015;
0072827980999992007100522004-07100-034867FM-15+0007SBJP V0201301N00261220001CN0099001N1+02501+02101999999ADDMA1101491999999REMMET045METAR SBJP 052200Z 13005KT CAVOK 25/21 Q1015;
0072827980999992007100523004-07100-034867FM-15+0007SBJP V0201301N00261220001CN0099001N1+02401+02101999999ADDMA1101591999999REMMET045METAR SBJP 052300Z 13005KT CAVOK 24/21 Q1016;
0072827980999992007100600004-07100-034867FM-15+0007SBJP V0201201N00261220001CN0099001N1+02401+02101999999ADDMA1101591999999REMMET045METAR SBJP 060000Z 12005KT CAVOK 24/21 Q1016;
0072827980999992007100601004-07100-034867FM-15+0007SBJP V0201301N00211220001CN0099001N1+02301+02001999999ADDMA1101591999999REMMET045METAR SBJP 060100Z 13004KT CAVOK 23/20 Q1016;
0072827980999992007100602004-07100-034867FM-15+0007SBJP V0201801N00151220001CN0099001N1+02301+02101999999ADDMA1101491999999REMMET045METAR SBJP 060200Z 18003KT CAVOK 23/21 Q1015;
0120827980999992007100603004-07100-034867FM-15+0007SBJP V0201601N001012200019N0112651N1+02301+02101999999ADDGA1041+005101999GF104991999999999999999999MA1101391999999REMMET051METAR SBJP 060300Z 16002KT 9999 SCT017 23/21 Q1014;
0120827980999992007100604004-07100-034867FM-15+0007SBJP V0201301N002112200019N0112651N1+02401+02101999999ADDGA1041+005101999GF104991999999999999999999MA1101291999999REMMET051METAR SBJP 060400Z 13004KT 9999 SCT017 24/21 Q1013;
0120827980999992007100605004-07100-034867FM-15+0007SBJP V0201401N002112200019N0112651N1+02401+02101999999ADDGA1041+005101999GF104991999999999999999999MA1101291999999REMMET051METAR SBJP 060500Z 14004KT 9999 SCT017 24/21 Q1013;
0120827980999992007100606004-07100-034867FM-15+0007SBJP V0201501N002612200019N0112651N1+02401+02101999999ADDGA1041+004801999GF104991999999999999999999MA1101291999999REMMET051METAR SBJP 060600Z 15005KT 9999 SCT016 24/21 Q1013;
0120827980999992007100607004-07100-034867FM-15+0007SBJP V0201501N002612200019N0112651N1+02401+02101999999ADDGA1041+004801999GF104991999999999999999999MA1101291999999REMMET051METAR SBJP 060700Z 15005KT 9999 SCT016 24/21 Q1013;
0120827980999992007100608004-07100-034867FM-15+0007SBJP V0201501N002112200019N0112651N1+02401+02101999999ADDGA1041+004801999GF104991999999999999999999MA1101291999999REMMET051METAR SBJP 060800Z 15004KT 9999 SCT016 24/21 Q1013;
0120827980999992007100609004-07100-034867FM-15+0007SBJP V0201301N003112200019N0112651N1+02501+02101999999ADDGA1041+005401999GF104991999999999999999999MA1101391999999REMMET051METAR SBJP 060900Z 13006KT 9999 SCT018 25/21 Q1014;
0120827980999992007100610004-07100-034867FM-15+0007SBJP V0201401N005112200019N0112651N1+02601+02001999999ADDGA1041+005401999GF104991999999999999999999MA1101491999999REMMET051METAR SBJP 061000Z 14010KT 9999 SCT018 26/20 Q1015;
0120827980999992007100611004-07100-034867FM-15+0007SBJP V0201401N005112200019N0112651N1+02701+02001999999ADDGA1041+005401999GF104991999999999999999999MA1101491999999REMMET051METAR SBJP 061100Z 14010KT 9999 SCT018 27/20 Q1015;
0120827980999992007100612004-07100-034867FM-15+0007SBJP V0201401N005112200019N0112651N1+02801+02001999999ADDGA1041+006001999GF104991999999999999999999MA1101491999999REMMET051METAR SBJP 061200Z 14010KT 9999 SCT020 28/20 Q1015;
0120827980999992007100613004-07100-034867FM-15+0007SBJP V0201501N006212200019N0112651N1+02801+02001999999ADDGA1041+006001999GF104991999999999999999999MA1101491999999REMMET051METAR SBJP 061300Z 15012KT 9999 SCT020 28/20 Q1015;
0120827980999992007100614004-07100-034867FM-15+0007SBJP V0201501N005112200019N0112651N1+02901+02001999999ADDGA1041+006001999GF104991999999999999999999MA1101391999999REMMET051METAR SBJP 061400Z 15010KT 9999 SCT020 29/20 Q1014;
0120827980999992007100615004-07100-034867FM-15+0007SBJP V0201401N006212200019N0112651N1+02901+02001999999ADDGA1041+006001999GF104991999999999999999999MA1101391999999REMMET051METAR SBJP 061500Z 14012KT 9999 SCT020 29/20 Q1014;
0120827980999992007100616004-07100-034867FM-15+0007SBJP V0201201N005710090019N0112651N1+02901+02001999999ADDGA1071+009001999GF107991999999999999999999MA1101291999999REMMET051METAR SBJP 061600Z 12011KT 9999 BKN030 29/20 Q1013;
0120827980999992007100617004-07100-034867FM-15+0007SBJP V0201401N006710090019N0112651N1+02901+02101999999ADDGA1071+009001999GF107991999999999999999999MA1101291999999REMMET051METAR SBJP 061700Z 14013KT 9999 BKN030 29/21 Q1013;
0120827980999992007100618004-07100-034867FM-15+0007SBJP V0201301N006212200019N0112651N1+02801+02001999999ADDGA1041+009001999GF104991999999999999999999MA1101291999999REMMET051METAR SBJP 061800Z 13012KT 9999 SCT030 28/20 Q1013;
0120827980999992007100619004-07100-034867FM-15+0007SBJP V0201301N005712200019N0112651N1+02701+02001999999ADDGA1041+009001999GF104991999999999999999999MA1101291999999REMMET051METAR SBJP 061900Z 13011KT 9999 SCT030 27/20 Q1013;
0120827980999992007100620004-07100-034867FM-15+0007SBJP V0201301N005712200019N0112651N1+02601+02001999999ADDGA1041+006001999GF104991999999999999999999MA1101291999999REMMET051METAR SBJP 062000Z 13011KT 9999 SCT020 26/20 Q1013;
0120827980999992007100621004-07100-034867FM-15+0007SBJP V0201301N004612200019N0112651N1+02501+02001999999ADDGA1021+006001999GF102991999999999999999999MA1101391999999REMMET051METAR SBJP 062100Z 13009KT 9999 FEW020 25/20 Q1014;
0072827980999992007100622004-07100-034867FM-15+0007SBJP V0201601N00411220001CN0099001N1+02501+02001999999ADDMA1101391999999REMMET045METAR SBJP 062200Z 16008KT CAVOK 25/20 Q1014;
0072827980999992007100623004-07100-034867FM-15+0007SBJP V0201601N00411220001CN0099001N1+02401+02001999999ADDMA1101491999999REMMET045METAR SBJP 062300Z 16008KT CAVOK 24/20 Q1015;
0072827980999992007100700004-07100-034867FM-15+0007SBJP V0201601N00411220001CN0099001N1+02401+02001999999ADDMA1101491999999REMMET045METAR SBJP 070000Z 16008KT CAVOK 24/20 Q1015;
0120827980999992007100701004-07100-034867FM-15+0007SBJP V0201101N001512200019N0112651N1+02401+02101999999ADDGA1021+006001999GF102991999999999999999999MA1101591999999REMMET051METAR SBJP 070100Z 11003KT 9999 FEW020 24/21 Q1016;
0120827980999992007100702004-07100-034867FM-15+0007SBJP V0202101N001512200019N0112651N1+02401+02101999999ADDGA1021+006001999GF102991999999999999999999MA1101491999999REMMET051METAR SBJP 070200Z 21003KT 9999 FEW020 24/21 Q1015;
0143827980999992007100703004-07100-034867FM-15+0007SBJP V0201701N002112200019N0112651N1+02401+02101999999ADDGA1021+006001999GA2041+021001999GF104991999999999999999999MA1101391999999REMMET058METAR SBJP 070300Z 17004KT 9999 FEW020 SCT070 24/21 Q1014;
0143827980999992007100704004-07100-034867FM-15+0007SBJP V0201601N003112200019N0112651N1+02401+02101999999ADDGA1021+006001999GA2041+021001999GF104991999999999999999999MA1101291999999REMMET058METAR SBJP 070400Z 16006KT 9999 FEW020 SCT070 24/21 Q1013;
0120827980999992007100705004-07100-034867FM-15+0007SBJP V0201901N002112200019N0112651N1+02401+02101999999ADDGA1021+006001999GF102991999999999999999999MA1101291999999REMMET051METAR SBJP 070500Z 19004KT 9999 FEW020 24/21 Q1013;
0120827980999992007100706004-07100-034867FM-15+0007SBJP V0201701N003612200019N0112651N1+02401+02001999999ADDGA1041+006001999GF104991999999999999999999MA1101291999999REMMET051METAR SBJP 070600Z 17007KT 9999 SCT020 24/20 Q1013;
0120827980999992007100707004-07100-034867FM-15+0007SBJP V0201701N002112200019N0112651N1+02301+02001999999ADDGA1041+006001999GF104991999999999999999999MA1101291999999REMMET051METAR SBJP 070700Z 17004KT 9999 SCT020 23/20 Q1013;
0120827980999992007100708004-07100-034867FM-15+0007SBJP V0201801N002112200019N0112651N1+02201+02001999999ADDGA1041+006001999GF104991999999999999999999MA1101291999999REMMET051METAR SBJP 070800Z 18004KT 9999 SCT020 22/20 Q1013;
0120827980999992007100709004-07100-034867FM-15+0007SBJP V0201901N002112200019N0112651N1+02301+02001999999ADDGA1041+006001999GF104991999999999999999999MA1101291999999REMMET051METAR SBJP 070900Z 19004KT 9999 SCT020 23/20 Q1013;
0120827980999992007100710004-07100-034867FM-15+0007SBJP V0201601N003610075019N0112651N1+02701+02001999999ADDGA1071+007501999GF107991999999999999999999MA1101391999999REMMET051METAR SBJP 071000Z 16007KT 9999 BKN025 27/20 Q1014;
0120827980999992007100711004-07100-034867FM-15+0007SBJP V0201401N005110090019N0112651N1+02801+02001999999ADDGA1071+009001999GF107991999999999999999999MA1101391999999REMMET051METAR SBJP 071100Z 14010KT 9999 BKN030 28/20 Q1014;
0120827980999992007100712004-07100-034867FM-15+0007SBJP V0201301N005710090019N0112651N1+02801+02001999999ADDGA1071+009001999GF107991999999999999999999MA1101491999999REMMET051METAR SBJP 071200Z 13011KT 9999 BKN030 28/20 Q1015;
0120827980999992007100713004-07100-034867FM-15+0007SBJP V0201401N006710090019N0112651N1+02901+01801999999ADDGA1071+009001999GF107991999999999999999999MA1101391999999REMMET051METAR SBJP 071300Z 14013KT 9999 BKN030 29/18 Q1014;
0120827980999992007100714004-07100-034867FM-15+0007SBJP V0201201N005710090019N0112651N1+02901+01901999999ADDGA1071+009001999GF107991999999999999999999MA1101391999999REMMET051METAR SBJP 071400Z 12011KT 9999 BKN030 29/19 Q1014;
0120827980999992007100715004-07100-034867FM-15+0007SBJP V0201401N006210090019N0112651N1+02901+01901999999ADDGA1071+009001999GF107991999999999999999999MA1101291999999REMMET051METAR SBJP 071500Z 14012KT 9999 BKN030 29/19 Q1013;
0120827980999992007100716004-07100-034867FM-15+0007SBJP V0201601N006212200019N0112651N1+02901+01901999999ADDGA1041+009001999GF104991999999999999999999MA1101191999999REMMET051METAR SBJP 071600Z 16012KT 9999 SCT030 29/19 Q1012;
0120827980999992007100717004-07100-034867FM-15+0007SBJP V0201501N006212200019N0112651N1+02901+01901999999ADDGA1041+009001999GF104991999999999999999999MA1101191999999REMMET051METAR SBJP 071700Z 15012KT 9999 SCT030 29/19 Q1012;
0120827980999992007100718004-07100-034867FM-15+0007SBJP V0201501N006212200019N0112651N1+02801+01901999999ADDGA1041+009001999GF104991999999999999999999MA1101191999999REMMET051METAR SBJP 071800Z 15012KT 9999 SCT030 28/19 Q1012;
0120827980999992007100719004-07100-034867FM-15+0007SBJP V0201601N006212200019N0112651N1+02701+02001999999ADDGA1041+009001999GF104991999999999999999999MA1101191999999REMMET051METAR SBJP 071900Z 16012KT 9999 SCT030 27/20 Q1012;
0143827980999992007100720004-07100-034867FM-15+0007SBJP V0201801N004612200019N0112651N1+02501+02001999999ADDGA1041+009001999GA2041+021001999GF104991999999999999999999MA1101291999999REMMET058METAR SBJP 072000Z 18009KT 9999 SCT030 SCT070 25/20 Q1013;
0143827980999992007100721004-07100-034867FM-15+0007SBJP V0201801N003610210019N0112651N1+02501+02001999999ADDGA1041+007501999GA2071+021001999GF107991999999999999999999MA1101291999999REMMET058METAR SBJP 072100Z 18007KT 9999 SCT025 BKN070 25/20 Q1013;
0143827980999992007100722004-07100-034867FM-15+0007SBJP V0201701N002110210019N0112651N1+02401+02101999999ADDGA1041+006001999GA2071+021001999GF107991999999999999999999MA1101291999999REMMET058METAR SBJP 072200Z 17004KT 9999 SCT020 BKN070 24/21 Q1013;
0143827980999992007100723004-07100-034867FM-15+0007SBJP V0201801N002110210019N0112651N1+02301+02101999999ADDGA1021+006001999GA2071+021001999GF107991999999999999999999MA1101391999999REMMET058METAR SBJP 072300Z 18004KT 9999 FEW020 BKN070 23/21 Q1014;
0072827980999992007100800004-07100-034867FM-15+0007SBJP V0201901N00151220001CN0099001N1+02301+02101999999ADDMA1101491999999REMMET045METAR SBJP 080000Z 19003KT CAVOK 23/21 Q1015;
0143827980999992007100801004-07100-034867FM-15+0007SBJP V0201901N001512200019N0112651N1+02301+02101999999ADDGA1041+006001999GA2041+021001999GF104991999999999999999999MA1101491999999REMMET058METAR SBJP 080100Z 19003KT 9999 SCT020 SCT070 23/21 Q1015;
0143827980999992007100802004-07100-034867FM-15+0007SBJP V0202101N002112200019N0112651N1+02301+02101999999ADDGA1041+006001999GA2041+021001999GF104991999999999999999999MA1101491999999REMMET058METAR SBJP 080200Z 21004KT 9999 SCT020 SCT070 23/21 Q1015;
0143827980999992007100803004-07100-034867FM-15+0007SBJP V0202101N001512200019N0112651N1+02201+02101999999ADDGA1041+006001999GA2041+021001999GF104991999999999999999999MA1101391999999REMMET058METAR SBJP 080300Z 21003KT 9999 SCT020 SCT070 22/21 Q1014;
0120827980999992007100804004-07100-034867FM-15+0007SBJP V0202001N001510048019N0112651N1+02301+02101999999ADDGA1071+004801999GF107991999999999999999999MA1101291999999REMMET051METAR SBJP 080400Z 20003KT 9999 BKN016 23/21 Q1013;
0130827980999992007100805004-07100-034867FM-15+0007SBJP V0202001N002110048019N0060001N1+02201+02101999999ADDGA1071+004801999GF107991999999999999999999MA1101291999999MW1611REMMET055METAR SBJP 080500Z 20004KT 6000 -RA BKN016 22/21 Q1013;
0130827980999992007100806004-07100-034867FM-15+0007SBJP V0201701N001510033019N0040001N1+02201+02101999999ADDGA1071+003301999GF107991999999999999999999MA1101291999999MW1611REMMET055METAR SBJP 080600Z 17003KT 4000 -RA BKN011 22/21 Q1013;
0120827980999992007100807004-07100-034867FM-15+0007SBJP V0201701N002610045019N0112651N1+02301+02201999999ADDGA1071+004501999GF107991999999999999999999MA1101291999999REMMET051METAR SBJP 080700Z 17005KT 9999 BKN015 23/22 Q1013;
0143827980999992007100808004-07100-034867FM-15+0007SBJP V0201701N002612200019N0112651N1+02201+02101999999ADDGA1041+004801999GA2041+021001999GF104991999999999999999999MA1101391999999REMMET058METAR SBJP 080800Z 17005KT 9999 SCT016 SCT070 22/21 Q1014;
0117827980999992007100809004-07100-034867FM-15+0007SBJP V0201701N00211220001CN0112651N1+02301+02201999999ADDGA1071+004801999GA2041+021001999MA1101391999999REMMET058METAR SBJP 080900Z 17004KT 9999 BKN016 SCT070 23/22 Q1014;
0143827980999992007100810004-07100-034867FM-15+0007SBJP V0201901N003612200019N0112651N1+02401+02301999999ADDGA1041+007501999GA2041+021001999GF104991999999999999999999MA1101491999999REMMET058METAR SBJP 081000Z 19007KT 9999 SCT025 SCT070 24/23 Q1015;
0143827980999992007100811004-07100-034867FM-15+0007SBJP V0201701N005710060019N0112651N1+02701+02201999999ADDGA1041+003601999GA2071+006001999GF107991999999999999999999MA1101491999999REMMET058METAR SBJP 081100Z 17011KT 9999 SCT012 BKN020 27/22 Q1015;
0176827980999992007100812004-07100-034867FM-15+0007SBJP V0201501N004110045019N0040001N1+02401+02301999999ADDGA1041+002401999GA2071+004501999GA3071+021001999GF107991999999999999999999MA1101591999999MW1611REMMET069METAR SBJP 081200Z 15008KT 4000 -RA SCT008 BKN015 BKN070 24/23 Q1016;
0166827980999992007100813004-07100-034867FM-15+0007SBJP V0201701N00671006001CN0112651N1+02801+02201999999ADDGA1041+003001999GA2041+006001999GA3071+021001999GF107991999999999999999999MA1101491999999REMMET065METAR SBJP 081300Z 17013KT 9999 SCT010 SCT020 BKN070 28/22 Q1015;
0166827980999992007100814004-07100-034867FM-15+0007SBJP V0201001N00511006001CN0112651N1+02401+02301999999ADDGA1041+003001999GA2041+006001999GA3071+021001999GF107991999999999999999999MA1101491999999REMMET065METAR SBJP 081400Z 10010KT 9999 SCT010 SCT020 BKN070 24/23 Q1015;
0166827980999992007100815004-07100-034867FM-15+0007SBJP V0201101N00361006001CN0112651N1+02601+02301999999ADDGA1041+003001999GA2041+006001999GA3071+021001999GF107991999999999999999999MA1101391999999REMMET065METAR SBJP 081500Z 11007KT 9999 SCT010 SCT020 BKN070 26/23 Q1014;
0143827980999992007100816004-07100-034867FM-15+0007SBJP V0201401N006210210019N0112651N1+02701+02101999999ADDGA1041+009001999GA2071+021001999GF107991999999999999999999MA1101291999999REMMET058METAR SBJP 081600Z 14012KT 9999 SCT030 BKN070 27/21 Q1013;
0143827980999992007100817004-07100-034867FM-15+0007SBJP V0201401N006210210019N0112651N1+02701+02101999999ADDGA1041+009001999GA2071+021001999GF107991999999999999999999MA1101191999999REMMET058METAR SBJP 081700Z 14012KT 9999 SCT030 BKN070 27/21 Q1012;
0169827980999992007100818004-07100-034867FM-15+0007SBJP V0201601N00621010501CN0112651N1+02601+02101999999ADDGA1041+009001999GA2021+010501021GA3071+021001999GF107991999999999999999999MA1101191999999REMMET068METAR SBJP 081800Z 16012KT 9999 SCT030 FEW035TCU BKN070 26/21 Q1012;
0169827980999992007100819004-07100-034867FM-15+0007SBJP V0201501N00621010501CN0112651N1+02601+02101999999ADDGA1041+009001999GA2021+010501021GA3071+021001999GF107991999999999999999999MA1101191999999REMMET068METAR SBJP 081900Z 15012KT 9999 SCT030 FEW035TCU BKN070 26/21 Q1012;
0143827980999992007100820004-07100-034867FM-15+0007SBJP V0201301N003610210019N0112651N1+02601+02201999999ADDGA1021+009001999GA2071+021001999GF107991999999999999999999MA1101291999999REMMET058METAR SBJP 082000Z 13007KT 9999 FEW030 BKN070 26/22 Q1013;
0143827980999992007100821004-07100-034867FM-15+0007SBJP V0201301N003110240019N0112651N1+02501+02101999999ADDGA1041+007501999GA2071+024001999GF107991999999999999999999MA1101291999999REMMET058METAR SBJP 082100Z 13006KT 9999 SCT025 BKN080 25/21 Q1013;
0143827980999992007100822004-07100-034867FM-15+0007SBJP V0201501N008712200019N0112651N1+02401+02101999999ADDGA1021+007501999GA2041+024001999GF104991999999999999999999MA1101391999999REMMET058METAR SBJP 082200Z 15017KT 9999 FEW025 SCT080 24/21 Q1014;
0143827980999992007100823004-07100-034867FM-15+0007SBJP V0201601N002612200019N0112651N1+02401+02101999999ADDGA1041+007501999GA2041+024001999GF104991999999999999999999MA1101491999999REMMET058METAR SBJP 082300Z 16005KT 9999 SCT025 SCT080 24/21 Q1015;
0143827980999992007100900004-07100-034867FM-15+0007SBJP V0202001N002112200019N0112651N1+02401+02101999999ADDGA1041+007501999GA2041+024001999GF104991999999999999999999MA1101491999999REMMET058METAR SBJP 090000Z 20004KT 9999 SCT025 SCT080 24/21 Q1015;
0143827980999992007100901004-07100-034867FM-15+0007SBJP V0202401N002112200019N0112651N1+02301+02101999999ADDGA1041+007501999GA2041+024001999GF104991999999999999999999MA1101491999999REMMET058METAR SBJP 090100Z 24004KT 9999 SCT025 SCT080 23/21 Q1015;
0146827980999992007100902004-07100-034867FM-15+0007SBJP V0202001N00311220001CN0080001N1+02301+02201999999ADDGA1071+004201999GA2041+021001999MA1101491999999MW1611REMMET062METAR SBJP 090200Z 20006KT 8000 -RA BKN014 SCT070 23/22 Q1015;EQDQ01+000042SCOTCV
0136827980999992007100903004-07100-034867FM-15+0007SBJP V0202201N00151220001CN0112651N1+02201+02101999999ADDGA1071+004201999GA2041+021001999MA1101391999999REMMET058METAR SBJP 090300Z 22003KT 9999 BKN014 SCT070 22/21 Q1014;EQDQ01+000042SCOTCV
0143827980999992007100904004-07100-034867FM-15+0007SBJP V0202201N002110210019N0112651N1+02201+02101999999ADDGA1041+004201999GA2071+021001999GF107991999999999999999999MA1101291999999REMMET058METAR SBJP 090400Z 22004KT 9999 SCT014 BKN070 22/21 Q1013;
0153827980999992007100905004-07100-034867FM-15+0007SBJP V0202301N002110042019N0050001N1+02201+02101999999ADDGA1071+004201999GA2071+021001999GF107991999999999999999999MA1101291999999MW1611REMMET062METAR SBJP 090500Z 23004KT 5000 -RA BKN014 BKN070 22/21 Q1013;
0143827980999992007100906004-07100-034867FM-15+0007SBJP V0202201N002110042019N0112651N1+02201+02101999999ADDGA1071+004201999GA2071+021001999GF107991999999999999999999MA1101291999999REMMET058METAR SBJP 090600Z 22004KT 9999 BKN014 BKN070 22/21 Q1013;
0143827980999992007100907004-07100-034867FM-15+0007SBJP V0202201N001510210019N0112651N1+02201+02101999999ADDGA1041+004201999GA2071+021001999GF107991999999999999999999MA1101291999999REMMET058METAR SBJP 090700Z 22003KT 9999 SCT014 BKN070 22/21 Q1013;
0143827980999992007100908004-07100-034867FM-15+0007SBJP V0202101N001512200019N0112651N1+02201+02101999999ADDGA1041+006001999GA2041+021001999GF104991999999999999999999MA1101391999999REMMET058METAR SBJP 090800Z 21003KT 9999 SCT020 SCT070 22/21 Q1014;
0143827980999992007100909004-07100-034867FM-15+0007SBJP V0202101N002112200019N0112651N1+02201+02101999999ADDGA1041+006001999GA2041+021001999GF104991999999999999999999MA1101391999999REMMET058METAR SBJP 090900Z 21004KT 9999 SCT020 SCT070 22/21 Q1014;
0120827980999992007100910004-07100-034867FM-15+0007SBJP V0202001N001512200019N0112651N1+02401+02201999999ADDGA1041+006001999GF104991999999999999999999MA1101491999999REMMET051METAR SBJP 091000Z 20003KT 9999 SCT020 24/22 Q1015;
0146827980999992007100911004-07100-034867FM-15+0007SBJP V0201301N00411220001CN0080001N1+02401+02101999999ADDGA1071+006001999GA2041+021001999MA1101591999999MW1611REMMET062METAR SBJP 091100Z 13008KT 8000 -RA BKN020 SCT070 24/21 Q1016;EQDQ01+000042SCOTCV
0143827980999992007100912004-07100-034867FM-15+0007SBJP V0201201N004612200019N0112651N1+02701+02101999999ADDGA1041+007501999GA2041+021001999GF104991999999999999999999MA1101591999999REMMET058METAR SBJP 091200Z 12009KT 9999 SCT025 SCT070 27/21 Q1016;
0120827980999992007100913004-07100-034867FM-15+0007SBJP V0201101N004110075019N0112651N1+02701+02101999999ADDGA1071+007501999GF107991999999999999999999MA1101591999999REMMET051METAR SBJP 091300Z 11008KT 9999 BKN025 27/21 Q1016;
0131827980999992007100914004-07100-034867FM-15+0007SBJP V0201201N004110075019N0112651N1+02801+02101999999ADDGA1071+007501999GF107991999999999999999999MA1101491999999OC101031REMMET054METAR SBJP 091400Z 12008G20KT 9999 BKN025 28/21 Q1015;
0154827980999992007100915004-07100-034867FM-15+0007SBJP V0201801N004610075019N0112651N1+02501+02201999999ADDGA1071+007501999GA2071+021001999GF107991999999999999999999MA1101491999999OC100981REMMET061METAR SBJP 091500Z 18009G19KT 9999 BKN025 BKN070 25/22 Q1015;
0161827980999992007100916004-07100-034867FM-15+0007SBJP V0201301N005110060019N0112651N1+02601+02201999999ADDGA1071+006001999GA2071+021001999GF107991999999999999999999MA1101391999999MW1161REMMET070METAR SBJP 091600Z 13010KT 9999 8000SW VCSH BKN020 BKN070 26/22 Q1014;
0184827980999992007100917004-07100-034867FM-15+0007SBJP V0201601N00571005101CN0112651N1+02501+02201999999ADDGA1041+003901999GA2041+005101999GA3071+021001999GF107991999999999999999999MA1101291999999MW1161REMMET077METAR SBJP 091700Z 16011KT 9999 8000SW VCSH SCT013 SCT017 BKN070 25/22 Q1013;
0176827980999992007100918004-07100-034867FM-15+0007SBJP V0201501N00461005101CN0050001N1+02401+02201999999ADDGA1041+003601999GA2041+005101999GA3071+021001999GF107991999999999999999999MA1101291999999MW1611REMMET069METAR SBJP 091800Z 15009KT 5000 -RA SCT012 SCT017 BKN070 24/22 Q1013;
0153827980999992007100919004-07100-034867FM-15+0007SBJP V0201601N006710036019N0030001N1+02201+02201999999ADDGA1071+003601999GA2071+021001999GF107991999999999999999999MA1101391999999MW1611REMMET062METAR SBJP 091900Z 16013KT 3000 -RA BKN012 BKN070 22/22 Q1014;
0143827980999992007100920004-07100-034867FM-15+0007SBJP V0201601N003610210019N0112651N1+02301+02101999999ADDGA1041+004201999GA2071+021001999GF107991999999999999999999MA1101391999999REMMET058METAR SBJP 092000Z 16007KT 9999 SCT014 BKN070 23/21 Q1014;
0143827980999992007100921004-07100-034867FM-15+0007SBJP V0201701N003110210019N0112651N1+02301+02101999999ADDGA1041+004501999GA2071+021001999GF107991999999999999999999MA1101391999999REMMET058METAR SBJP 092100Z 17006KT 9999 SCT015 BKN070 23/21 Q1014;
0120827980999992007101000004-07100-034867FM-15+0007SBJP V0202101N002110054019N0112651N1+02301+02201999999ADDGA1071+005401999GF107991999999999999999999MA1101591999999REMMET051METAR SBJP 100000Z 21004KT 9999 BKN018 23/22 Q1016;
0120827980999992007101001004-07100-034867FM-15+0007SBJP V0202101N002110054019N0112651N1+02301+02201999999ADDGA1071+005401999GF107991999999999999999999MA1101591999999REMMET051METAR SBJP 100100Z 21004KT 9999 BKN018 23/22 Q1016;
0120827980999992007101002004-07100-034867FM-15+0007SBJP V0202201N001010054019N0112651N1+02301+02201999999ADDGA1071+005401999GF107991999999999999999999MA1101491999999REMMET051METAR SBJP 100200Z 22002KT 9999 BKN018 23/22 Q1015;
0120827980999992007101003004-07100-034867FM-15+0007SBJP V0202401N002110054019N0112651N1+02301+02201999999ADDGA1071+005401999GF107991999999999999999999MA1101491999999REMMET051METAR SBJP 100300Z 24004KT 9999 BKN018 23/22 Q1015;
0176827980999992007101004004-07100-034867FM-15+0007SBJP V0201601N002110060019N0112651N1+02301+02201999999ADDGA1041+003001999GA2071+006001999GA3081+021001999GF108991999999999999999999MA1101291999999MW1611REMMET069METAR SBJP 100400Z 16004KT 9999 -RA SCT010 BKN020 OVC070 23/22 Q1013;
0176827980999992007101005004-07100-034867FM-15+0007SBJP V0202101N001510060019N0112651N1+02301+02201999999ADDGA1041+003001999GA2071+006001999GA3081+021001999GF108991999999999999999999MA1101291999999MW1611REMMET069METAR SBJP 100500Z 21003KT 9999 -RA SCT010 BKN020 OVC070 23/22 Q1013;
0143827980999992007101006004-07100-034867FM-15+0007SBJP V0201501N002610210019N0112651N1+02301+02201999999ADDGA1041+006001999GA2081+021001999GF108991999999999999999999MA1101291999999REMMET058METAR SBJP 100600Z 15005KT 9999 SCT020 OVC070 23/22 Q1013;
0143827980999992007101007004-07100-034867FM-15+0007SBJP V0201401N002110210019N0112651N1+02301+02101999999ADDGA1041+006001999GA2081+021001999GF108991999999999999999999MA1101291999999REMMET058METAR SBJP 100700Z 14004KT 9999 SCT020 OVC070 23/21 Q1013;
0143827980999992007101008004-07100-034867FM-15+0007SBJP V0201301N003610210019N0112651N1+02301+02101999999ADDGA1041+006001999GA2071+021001999GF107991999999999999999999MA1101291999999REMMET058METAR SBJP 100800Z 13007KT 9999 SCT020 BKN070 23/21 Q1013;
0143827980999992007101009004-07100-034867FM-15+0007SBJP V0201301N002612200019N0112651N1+02401+02201999999ADDGA1041+006001999GA2041+021001999GF104991999999999999999999MA1101391999999REMMET058METAR SBJP 100900Z 13005KT 9999 SCT020 SCT070 24/22 Q1014;
0143827980999992007101010004-07100-034867FM-15+0007SBJP V0201601N005112200019N0112651N1+02601+02201999999ADDGA1021+006001999GA2041+021001999GF104991999999999999999999MA1101391999999REMMET058METAR SBJP 101000Z 16010KT 9999 FEW020 SCT070 26/22 Q1014;
0143827980999992007101011004-07100-034867FM-15+0007SBJP V0201601N006712200019N0112651N1+02701+02101999999ADDGA1041+007501999GA2041+021001999GF104991999999999999999999MA1101491999999REMMET058METAR SBJP 101100Z 16013KT 9999 SCT025 SCT070 27/21 Q1015;
0120827980999992007101012004-07100-034867FM-15+0007SBJP V0201401N006210075019N0112651N1+02701+02101999999ADDGA1071+007501999GF107991999999999999999999MA1101491999999REMMET051METAR SBJP 101200Z 14012KT 9999 BKN025 27/21 Q1015;
0120827980999992007101013004-07100-034867FM-15+0007SBJP V0201501N006710075019N0112651N1+02801+02101999999ADDGA1071+007501999GF107991999999999999999999MA1101491999999REMMET051METAR SBJP 101300Z 15013KT 9999 BKN025 28/21 Q1015;
0120827980999992007101014004-07100-034867FM-15+0007SBJP V0201501N006712200019N0112651N1+02801+02101999999ADDGA1041+007501999GF104991999999999999999999MA1101391999999REMMET051METAR SBJP 101400Z 15013KT 9999 SCT025 28/21 Q1014;
0120827980999992007101015004-07100-034867FM-15+0007SBJP V0201501N007212200019N0112651N1+02901+02001999999ADDGA1041+007501999GF104991999999999999999999MA1101291999999REMMET051METAR SBJP 101500Z 15014KT 9999 SCT025 29/20 Q1013;
0120827980999992007101016004-07100-034867FM-15+0007SBJP V0201601N006212200019N0112651N1+02901+01901999999ADDGA1041+007501999GF104991999999999999999999MA1101291999999REMMET051METAR SBJP 101600Z 16012KT 9999 SCT025 29/19 Q1013;
0120827980999992007101017004-07100-034867FM-15+0007SBJP V0201501N006212200019N0112651N1+02901+02001999999ADDGA1041+007501999GF104991999999999999999999MA1101191999999REMMET051METAR SBJP 101700Z 15012KT 9999 SCT025 29/20 Q1012;
0120827980999992007101018004-07100-034867FM-15+0007SBJP V0201701N007712200019N0112651N1+02801+01901999999ADDGA1041+007501999GF104991999999999999999999MA1101191999999REMMET051METAR SBJP 101800Z 17015KT 9999 SCT025 28/19 Q1012;
0120827980999992007101019004-07100-034867FM-15+0007SBJP V0201801N006212200019N0112651N1+02701+02001999999ADDGA1041+007501999GF104991999999999999999999MA1101191999999REMMET051METAR SBJP 101900Z 18012KT 9999 SCT025 27/20 Q1012;
0120827980999992007101020004-07100-034867FM-15+0007SBJP V0201701N005112200019N0112651N1+02601+02101999999ADDGA1041+007501999GF104991999999999999999999MA1101291999999REMMET051METAR SBJP 102000Z 17010KT 9999 SCT025 26/21 Q1013;
0120827980999992007101021004-07100-034867FM-15+0007SBJP V0201701N004112200019N0112651N1+02501+02101999999ADDGA1041+007501999GF104991999999999999999999MA1101291999999REMMET051METAR SBJP 102100Z 17008KT 9999 SCT025 25/21 Q1013;
0120827980999992007101022004-07100-034867FM-15+0007SBJP V0201601N002612200019N0112651N1+02401+02101999999ADDGA1021+006001999GF102991999999999999999999MA1101391999999REMMET051METAR SBJP 102200Z 16005KT 9999 FEW020 24/21 Q1014;
0072827980999992007101023004-07100-034867FM-15+0007SBJP V0201401N00311220001CN0099001N1+02301+02101999999ADDMA1101391999999REMMET045METAR SBJP 102300Z 14006KT CAVOK 23/21 Q1014;
0120827980999992007101100004-07100-034867FM-15+0007SBJP V0201501N002612200019N0112651N1+02401+02101999999ADDGA1021+006001999GF102991999999999999999999MA1101491999999REMMET051METAR SBJP 110000Z 15005KT 9999 FEW020 24/21 Q1015;
0072827980999992007101101004-07100-034867FM-15+0007SBJP V0201501N00211220001CN0099001N1+02301+02101999999ADDMA1101491999999REMMET045METAR SBJP 110100Z 15004KT CAVOK 23/21 Q1015;
0120827980999992007101102004-07100-034867FM-15+0007SBJP V0201701N001512200019N0112651N1+02301+02101999999ADDGA1041+006001999GF104991999999999999999999MA1101391999999REMMET051METAR SBJP 110200Z 17003KT 9999 SCT020 23/21 Q1014;
0143827980999992007101103004-07100-034867FM-15+0007SBJP V0201901N001512200019N0112651N1+02301+02101999999ADDGA1041+006001999GA2041+021001999GF104991999999999999999999MA1101391999999REMMET058METAR SBJP 110300Z 19003KT 9999 SCT020 SCT070 23/21 Q1014;
0143827980999992007101104004-07100-034867FM-15+0007SBJP V0202401N001512200019N0112651N1+02301+02101999999ADDGA1041+005101999GA2041+021001999GF104991999999999999999999MA1101291999999REMMET058METAR SBJP 110400Z 24003KT 9999 SCT017 SCT070 23/21 Q1013;
0146827980999992007101105004-07100-034867FM-15+0007SBJP V0201601N00461220001CN0070001N1+02201+02101999999ADDGA1071+003001999GA2041+005101999MA1101291999999MW1611REMMET062METAR SBJP 110500Z 16009KT 7000 -RA BKN010 SCT017 22/21 Q1013;EQDQ01+000042SCOTCV
0143827980999992007101106004-07100-034867FM-15+0007SBJP V0202201N002112200019N0112651N1+02201+02101999999ADDGA1041+003601999GA2041+021001999GF104991999999999999999999MA1101191999999REMMET058METAR SBJP 110600Z 22004KT 9999 SCT012 SCT070 22/21 Q1012;
0143827980999992007101107004-07100-034867FM-15+0007SBJP V0202001N001512200019N0112651N1+02201+02101999999ADDGA1041+003601999GA2041+021001999GF104991999999999999999999MA1101191999999REMMET058METAR SBJP 110700Z 20003KT 9999 SCT012 SCT070 22/21 Q1012;
0143827980999992007101108004-07100-034867FM-15+0007SBJP V0202201N002612200019N0112651N1+02201+02101999999ADDGA1041+004201999GA2041+021001999GF104991999999999999999999MA1101291999999REMMET058METAR SBJP 110800Z 22005KT 9999 SCT014 SCT070 22/21 Q1013;
0143827980999992007101109004-07100-034867FM-15+0007SBJP V0202001N002612200019N0112651N1+02201+02101999999ADDGA1021+006001999GA2041+021001999GF104991999999999999999999MA1101291999999REMMET058METAR SBJP 110900Z 20005KT 9999 FEW020 SCT070 22/21 Q1013;
0143827980999992007101110004-07100-034867FM-15+0007SBJP V0202001N003112200019N0112651N1+02401+02201999999ADDGA1021+006001999GA2041+021001999GF104991999999999999999999MA1101391999999REMMET058METAR SBJP 111000Z 20006KT 9999 FEW020 SCT070 24/22 Q1014;
0143827980999992007101111004-07100-034867FM-15+0007SBJP V0201801N004110300019N0112651N1+02501+02201999999ADDGA1041+006001999GA2071+030001999GF107991999999999999999999MA1101391999999REMMET058METAR SBJP 111100Z 18008KT 9999 SCT020 BKN100 25/22 Q1014;
0143827980999992007101112004-07100-034867FM-15+0007SBJP V0201501N006210300019N0112651N1+02701+02001999999ADDGA1041+006001999GA2071+030001999GF107991999999999999999999MA1101391999999REMMET058METAR SBJP 111200Z 15012KT 9999 SCT020 BKN100 27/20 Q1014;
0143827980999992007101113004-07100-034867FM-15+0007SBJP V0201601N005112200019N0112651N1+02801+02101999999ADDGA1041+006001999GA2041+030001999GF104991999999999999999999MA1101391999999REMMET058METAR SBJP 111300Z 16010KT 9999 SCT020 SCT100 28/21 Q1014;
0120827980999992007101114004-07100-034867FM-15+0007SBJP V0201601N006210060019N0112651N1+02901+01901999999ADDGA1071+006001999GF107991999999999999999999MA1101291999999REMMET051METAR SBJP 111400Z 16012KT 9999 BKN020 29/19 Q1013;
0120827980999992007101115004-07100-034867FM-15+0007SBJP V0201401N005110090019N0112651N1+02901+02101999999ADDGA1071+009001999GF107991999999999999999999MA1101291999999REMMET051METAR SBJP 111500Z 14010KT 9999 BKN030 29/21 Q1013;
0143827980999992007101116004-07100-034867FM-15+0007SBJP V0201301N006712200019N0112651N1+02901+02001999999ADDGA1041+007501999GA2041+090001999GF104991999999999999999999MA1101191999999REMMET058METAR SBJP 111600Z 13013KT 9999 SCT025 SCT300 29/20 Q1012;
0120827980999992007101117004-07100-034867FM-15+0007SBJP V0201301N006212200019N0112651N1+02801+02001999999ADDGA1041+006001999GF104991999999999999999999MA1101081999999REMMET051METAR SBJP 111700Z 13012KT 9999 SCT020 28/20 Q1011;
0120827980999992007101118004-07100-034867FM-15+0007SBJP V0201301N005710060019N0112651N1+02701+02101999999ADDGA1071+006001999GF107991999999999999999999MA1101081999999REMMET051METAR SBJP 111800Z 13011KT 9999 BKN020 27/21 Q1011;
0143827980999992007101119004-07100-034867FM-15+0007SBJP V0201301N005710210019N0112651N1+02601+02001999999ADDGA1041+006001999GA2071+021001999GF107991999999999999999999MA1101081999999REMMET058METAR SBJP 111900Z 13011KT 9999 SCT020 BKN070 26/20 Q1011;
0153827980999992007101120004-07100-034867FM-15+0007SBJP V0201301N005110030019N0090001N1+02501+02201999999ADDGA1071+003001999GA2071+021001999GF107991999999999999999999MA1101191999999MW1611REMMET062METAR SBJP 112000Z 13010KT 9000 -RA BKN010 BKN070 25/22 Q1012;
0143827980999992007101121004-07100-034867FM-15+0007SBJP V0201401N004610030019N0112651N1+02201+02101999999ADDGA1071+003001999GA2071+021001999GF107991999999999999999999MA1101191999999REMMET058METAR SBJP 112100Z 14009KT 9999 BKN010 BKN070 22/21 Q1012;
0143827980999992007101122004-07100-034867FM-15+0007SBJP V0201701N002610045019N0112651N1+02301+02201999999ADDGA1071+004501999GA2071+021001999GF107991999999999999999999MA1101191999999REMMET058METAR SBJP 112200Z 17005KT 9999 BKN015 BKN070 23/22 Q1012;
0143827980999992007101123004-07100-034867FM-15+0007SBJP V0201901N003110210019N0112651N1+02301+02101999999ADDGA1041+004501999GA2071+021001999GF107991999999999999999999MA1101291999999REMMET058METAR SBJP 112300Z 19006KT 9999 SCT015 BKN070 23/21 Q1013;
0143827980999992007101200004-07100-034867FM-15+0007SBJP V0201901N002610210019N0112651N1+02401+02201999999ADDGA1041+004501999GA2071+021001999GF107991999999999999999999MA1101291999999REMMET058METAR SBJP 120000Z 19005KT 9999 SCT015 BKN070 24/22 Q1013;
0143827980999992007101201004-07100-034867FM-15+0007SBJP V0201901N001510210019N0112651N1+02301+02201999999ADDGA1041+004501999GA2071+021001999GF107991999999999999999999MA1101391999999REMMET058METAR SBJP 120100Z 19003KT 9999 SCT015 BKN070 23/22 Q1014;
0143827980999992007101202004-07100-034867FM-15+0007SBJP V0201701N002112200019N0112651N1+02201+02101999999ADDGA1021+004501999GA2041+021001999GF104991999999999999999999MA1101291999999REMMET058METAR SBJP 120200Z 17004KT 9999 FEW015 SCT070 22/21 Q1013;
0120827980999992007101203004-07100-034867FM-15+0007SBJP V0201901N002112200019N0112651N1+02201+02101999999ADDGA1021+005101999GF102991999999999999999999MA1101191999999REMMET051METAR SBJP 120300Z 19004KT 9999 FEW017 22/21 Q1012;
0120827980999992007101204004-07100-034867FM-15+0007SBJP V0201901N002112200019N0112651N1+02201+02101999999ADDGA1021+005101999GF102991999999999999999999MA1101191999999REMMET051METAR SBJP 120400Z 19004KT 9999 FEW017 22/21 Q1012;
0120827980999992007101205004-07100-034867FM-15+0007SBJP V0202201N002112200019N0112651N1+02201+02101999999ADDGA1021+005101999GF102991999999999999999999MA1101081999999REMMET051METAR SBJP 120500Z 22004KT 9999 FEW017 22/21 Q1011;
0120827980999992007101206004-07100-034867FM-15+0007SBJP V0202301N002112200019N0112651N1+02201+02101999999ADDGA1021+007501999GF102991999999999999999999MA1101081999999REMMET051METAR SBJP 120600Z 23004KT 9999 FEW025 22/21 Q1011;
0120827980999992007101207004-07100-034867FM-15+0007SBJP V0202301N002112200019N0112651N1+02201+02101999999ADDGA1021+007501999GF102991999999999999999999MA1101081999999REMMET051METAR SBJP 120700Z 23004KT 9999 FEW025 22/21 Q1011;
0120827980999992007101208004-07100-034867FM-15+0007SBJP V0202001N002112200019N0112651N1+02201+02101999999ADDGA1021+007501999GF102991999999999999999999MA1101191999999REMMET051METAR SBJP 120800Z 20004KT 9999 FEW025 22/21 Q1012;
0120827980999992007101209004-07100-034867FM-15+0007SBJP V0202401N002112200019N0112651N1+02201+02101999999ADDGA1041+004501999GF104991999999999999999999MA1101191999999REMMET051METAR SBJP 120900Z 24004KT 9999 SCT015 22/21 Q1012;
0153827980999992007101210004-07100-034867FM-15+0007SBJP V0201801N002110033019N0040001N1+02301+02201999999ADDGA1071+003301999GA2081+021001999GF108991999999999999999999MA1101291999999MW1611REMMET062METAR SBJP 121000Z 18004KT 4000 -RA BKN011 OVC070 23/22 Q1013;
0143827980999992007101211004-07100-034867FM-15+0007SBJP V0201801N003110030019N0112651N1+02501+02301999999ADDGA1071+003001999GA2071+021001999GF107991999999999999999999MA1101391999999REMMET058METAR SBJP 121100Z 18006KT 9999 BKN010 BKN070 25/23 Q1014;
0153827980999992007101212004-07100-034867FM-15+0007SBJP V0201201N003610030019N0040001N1+02501+02301999999ADDGA1071+003001999GA2081+021001999GF108991999999999999999999MA1101391999999MW1611REMMET062METAR SBJP 121200Z 12007KT 4000 -RA BKN010 OVC070 25/23 Q1014;
0120827980999992007101213004-07100-034867FM-15+0007SBJP V0201401N005110045019N0112651N1+02701+02301999999ADDGA1071+004501999GF107991999999999999999999MA1101391999999REMMET051METAR SBJP 121300Z 14010KT 9999 BKN015 27/23 Q1014;
0130827980999992007101214004-07100-034867FM-15+0007SBJP V0201201N005110045019N0050001N1+02801+02301999999ADDGA1071+004501999GF107991999999999999999999MA1101391999999MW1611REMMET055METAR SBJP 121400Z 12010KT 5000 -RA BKN015 28/23 Q1014;
0120827980999992007101215004-07100-034867FM-15+0007SBJP V0201401N006210060019N0112651N1+02801+02201999999ADDGA1071+006001999GF107991999999999999999999MA1101291999999REMMET051METAR SBJP 121500Z 14012KT 9999 BKN020 28/22 Q1013;
0120827980999992007101216004-07100-034867FM-15+0007SBJP V0201401N006710075019N0112651N1+02901+02101999999ADDGA1071+007501999GF107991999999999999999999MA1101191999999REMMET051METAR SBJP 121600Z 14013KT 9999 BKN025 29/21 Q1012;
0120827980999992007101217004-07100-034867FM-15+0007SBJP V0201701N006712200019N0112651N1+02901+02101999999ADDGA1041+007501999GF104991999999999999999999MA1101191999999REMMET051METAR SBJP 121700Z 17013KT 9999 SCT025 29/21 Q1012;
0120827980999992007101218004-07100-034867FM-15+0007SBJP V0201601N006212200019N0112651N1+02801+02101999999ADDGA1041+009001999GF104991999999999999999999MA1101081999999REMMET051METAR SBJP 121800Z 16012KT 9999 SCT030 28/21 Q1011;
0120827980999992007101219004-07100-034867FM-15+0007SBJP V0201701N005712200019N0112651N1+02701+02101999999ADDGA1041+009001999GF104991999999999999999999MA1101191999999REMMET051METAR SBJP 121900Z 17011KT 9999 SCT030 27/21 Q1012;
0120827980999992007101220004-07100-034867FM-15+0007SBJP V0201701N005112200019N0112651N1+02601+02101999999ADDGA1021+009001999GF102991999999999999999999MA1101191999999REMMET051METAR SBJP 122000Z 17010KT 9999 FEW030 26/21 Q1012;
0120827980999992007101221004-07100-034867FM-15+0007SBJP V0201701N003112200019N0112651N1+02501+02101999999ADDGA1021+009001999GF102991999999999999999999MA1101191999999REMMET051METAR SBJP 122100Z 17006KT 9999 FEW030 25/21 Q1012;
0120827980999992007101222004-07100-034867FM-15+0007SBJP V0201801N002612200019N0112651N1+02401+02101999999ADDGA1021+009001999GF102991999999999999999999MA1101291999999REMMET051METAR SBJP 122200Z 18005KT 9999 FEW030 24/21 Q1013;
0120827980999992007101223004-07100-034867FM-15+0007SBJP V0201701N003112200019N0112651N1+02401+02101999999ADDGA1041+007501999GF104991999999999999999999MA1101391999999REMMET051METAR SBJP 122300Z 17006KT 9999 SCT025 24/21 Q1014;
0120827980999992007101300004-07100-034867FM-15+0007SBJP V0201601N002110060019N0112651N1+02401+02101999999ADDGA1071+006001999GF107991999999999999999999MA1101391999999REMMET051METAR SBJP 130000Z 16004KT 9999 BKN020 24/21 Q1014;
0120827980999992007101301004-07100-034867FM-15+0007SBJP V0201701N002612200019N0112651N1+02401+02101999999ADDGA1041+006001999GF104991999999999999999999MA1101391999999REMMET051METAR SBJP 130100Z 17005KT 9999 SCT020 24/21 Q1014;
0120827980999992007101302004-07100-034867FM-15+0007SBJP V0201701N002112200019N0112651N1+02301+02101999999ADDGA1041+006001999GF104991999999999999999999MA1101391999999REMMET051METAR SBJP 130200Z 17004KT 9999 SCT020 23/21 Q1014;
0120827980999992007101303004-07100-034867FM-15+0007SBJP V0201601N002612200019N0112651N1+02301+02101999999ADDGA1041+006001999GF104991999999999999999999MA1101291999999REMMET051METAR SBJP 130300Z 16005KT 9999 SCT020 23/21 Q1013;
0120827980999992007101304004-07100-034867FM-15+0007SBJP V0201401N002110051019N0112651N1+02301+02101999999ADDGA1071+005101999GF107991999999999999999999MA1101191999999REMMET051METAR SBJP 130400Z 14004KT 9999 BKN017 23/21 Q1012;
0120827980999992007101305004-07100-034867FM-15+0007SBJP V0201501N002112200019N0112651N1+02301+02101999999ADDGA1041+005101999GF104991999999999999999999MA1101191999999REMMET051METAR SBJP 130500Z 15004KT 9999 SCT017 23/21 Q1012;
0120827980999992007101306004-07100-034867FM-15+0007SBJP V0201501N002112200019N0112651N1+02201+02001999999ADDGA1021+006001999GF102991999999999999999999MA1101191999999REMMET051METAR SBJP 130600Z 15004KT 9999 FEW020 22/20 Q1012;
0120827980999992007101307004-07100-034867FM-15+0007SBJP V0201501N001512200019N0112651N1+02201+02101999999ADDGA1041+006001999GF104991999999999999999999MA1101191999999REMMET051METAR SBJP 130700Z 15003KT 9999 SCT020 22/21 Q1012;
0120827980999992007101308004-07100-034867FM-15+0007SBJP V0201501N001512200019N0112651N1+02201+02001999999ADDGA1021+006001999GF102991999999999999999999MA1101191999999REMMET051METAR SBJP 130800Z 15003KT 9999 FEW020 22/20 Q1012;
0120827980999992007101309004-07100-034867FM-15+0007SBJP V0201401N001010060019N0112651N1+02301+02101999999ADDGA1071+006001999GF107991999999999999999999MA1101291999999REMMET051METAR SBJP 130900Z 14002KT 9999 BKN020 23/21 Q1013;
0120827980999992007101310004-07100-034867FM-15+0007SBJP V0201501N003612200019N0112651N1+02601+02201999999ADDGA1041+007501999GF104991999999999999999999MA1101391999999REMMET051METAR SBJP 131000Z 15007KT 9999 SCT025 26/22 Q1014;
0120827980999992007101311004-07100-034867FM-15+0007SBJP V0201501N005112200019N0112651N1+02701+02101999999ADDGA1041+007501999GF104991999999999999999999MA1101391999999REMMET051METAR SBJP 131100Z 15010KT 9999 SCT025 27/21 Q1014;
0120827980999992007101312004-07100-034867FM-15+0007SBJP V0201501N004610075019N0112651N1+02801+02101999999ADDGA1071+007501999GF107991999999999999999999MA1101391999999REMMET051METAR SBJP 131200Z 15009KT 9999 BKN025 28/21 Q1014;
0120827980999992007101313004-07100-034867FM-15+0007SBJP V0201601N004110075019N0112651N1+02901+02101999999ADDGA1071+007501999GF107991999999999999999999MA1101391999999REMMET051METAR SBJP 131300Z 16008KT 9999 BKN025 29/21 Q1014;
0120827980999992007101314004-07100-034867FM-15+0007SBJP V0201401N004612200019N0112651N1+02901+01901999999ADDGA1041+007501999GF104991999999999999999999MA1101391999999REMMET051METAR SBJP 131400Z 14009KT 9999 SCT025 29/19 Q1014;
0120827980999992007101315004-07100-034867FM-15+0007SBJP V0201501N004612200019N0112651N1+02901+02001999999ADDGA1041+007501999GF104991999999999999999999MA1101291999999REMMET051METAR SBJP 131500Z 15009KT 9999 SCT025 29/20 Q1013;
0120827980999992007101316004-07100-034867FM-15+0007SBJP V0201401N005112200019N0112651N1+02901+01801999999ADDGA1041+007501999GF104991999999999999999999MA1101291999999REMMET051METAR SBJP 131600Z 14010KT 9999 SCT025 29/18 Q1013;
0120827980999992007101317004-07100-034867FM-15+0007SBJP V0201601N005112200019N0112651N1+02901+01701999999ADDGA1041+007501999GF104991999999999999999999MA1101191999999REMMET051METAR SBJP 131700Z 16010KT 9999 SCT025 29/17 Q1012;
0120827980999992007101318004-07100-034867FM-15+0007SBJP V0201501N005712200019N0112651N1+02801+02101999999ADDGA1041+007501999GF104991999999999999999999MA1101191999999REMMET051METAR SBJP 131800Z 15011KT 9999 SCT025 28/21 Q1012;
0120827980999992007101319004-07100-034867FM-15+0007SBJP V0201601N006212200019N0112651N1+02701+02001999999ADDGA1021+007501999GF102991999999999999999999MA1101191999999REMMET051METAR SBJP 131900Z 16012KT 9999 FEW025 27/20 Q1012;
0120827980999992007101320004-07100-034867FM-15+0007SBJP V0201601N005712200019N0112651N1+02601+02001999999ADDGA1021+007501999GF102991999999999999999999MA1101291999999REMMET051METAR SBJP 132000Z 16011KT 9999 FEW025 26/20 Q1013;
0120827980999992007101321004-07100-034867FM-15+0007SBJP V0201601N003612200019N0112651N1+02501+02001999999ADDGA1021+007501999GF102991999999999999999999MA1101291999999REMMET051METAR SBJP 132100Z 16007KT 9999 FEW025 25/20 Q1013;
0120827980999992007101322004-07100-034867FM-15+0007SBJP V0201601N002112200019N0112651N1+02401+02001999999ADDGA1021+007501999GF102991999999999999999999MA1101291999999REMMET051METAR SBJP 132200Z 16004KT 9999 FEW025 24/20 Q1013;
0120827980999992007101323004-07100-034867FM-15+0007SBJP V0201701N002112200019N0112651N1+02301+02001999999ADDGA1021+007501999GF102991999999999999999999MA1101391999999REMMET051METAR SBJP 132300Z 17004KT 9999 FEW025 23/20 Q1014;
0120827980999992007101400004-07100-034867FM-15+0007SBJP V0201901N002112200019N0112651N1+02301+02001999999ADDGA1021+007501999GF102991999999999999999999MA1101391999999REMMET051METAR SBJP 140000Z 19004KT 9999 FEW025 23/20 Q1014;
0143827980999992007101401004-07100-034867FM-15+0007SBJP V0201701N002112200019N0112651N1+02301+02101999999ADDGA1041+006001999GA2041+021001999GF104991999999999999999999MA1101391999999REMMET058METAR SBJP 140100Z 17004KT 9999 SCT020 SCT070 23/21 Q1014;
0120827980999992007101402004-07100-034867FM-15+0007SBJP V0201601N002112200019N0112651N1+02301+02101999999ADDGA1041+006001999GF104991999999999999999999MA1101291999999REMMET051METAR SBJP 140200Z 16004KT 9999 SCT020 23/21 Q1013;
0120827980999992007101403004-07100-034867FM-15+0007SBJP V0201501N002612200019N0112651N1+02401+02201999999ADDGA1041+006001999GF104991999999999999999999MA1101291999999REMMET051METAR SBJP 140300Z 15005KT 9999 SCT020 24/22 Q1013;
0143827980999992007101404004-07100-034867FM-15+0007SBJP V0201801N001512200019N0112651N1+02301+02101999999ADDGA1021+006001999GA2041+021001999GF104991999999999999999999MA1101291999999REMMET058METAR SBJP 140400Z 18003KT 9999 FEW020 SCT070 23/21 Q1013;
0143827980999992007101405004-07100-034867FM-15+0007SBJP V0201101N001512200019N0112651N1+02301+02101999999ADDGA1041+004501999GA2041+021001999GF104991999999999999999999MA1101191999999REMMET058METAR SBJP 140500Z 11003KT 9999 SCT015 SCT070 23/21 Q1012;
0143827980999992007101406004-07100-034867FM-15+0007SBJP V0201801N001512200019N0112651N1+02301+02201999999ADDGA1041+004501999GA2041+021001999GF104991999999999999999999MA1101191999999REMMET058METAR SBJP 140600Z 18003KT 9999 SCT015 SCT070 23/22 Q1012;
0143827980999992007101407004-07100-034867FM-15+0007SBJP V0201801N001512200019N0112651N1+02301+02101999999ADDGA1041+004501999GA2041+021001999GF104991999999999999999999MA1101191999999REMMET058METAR SBJP 140700Z 18003KT 9999 SCT015 SCT070 23/21 Q1012;
0143827980999992007101408004-07100-034867FM-15+0007SBJP V0202301N001012200019N0112651N1+02301+02101999999ADDGA1041+004501999GA2041+021001999GF104991999999999999999999MA1101191999999REMMET058METAR SBJP 140800Z 23002KT 9999 SCT015 SCT070 23/21 Q1012;
0120827980999992007101409004-07100-034867FM-15+0007SBJP V0202201N001012200019N0112651N1+02301+02201999999ADDGA1041+006001999GF104991999999999999999999MA1101291999999REMMET051METAR SBJP 140900Z 22002KT 9999 SCT020 23/22 Q1013;
0120827980999992007101410004-07100-034867FM-15+0007SBJP V0201301N005112200019N0112651N1+02701+02201999999ADDGA1041+006001999GF104991999999999999999999MA1101291999999REMMET051METAR SBJP 141000Z 13010KT 9999 SCT020 27/22 Q1013;
0143827980999992007101411004-07100-034867FM-15+0007SBJP V0201301N005712200019N0112651N1+02701+02101999999ADDGA1041+007501999GA2041+021001999GF104991999999999999999999MA1101391999999REMMET058METAR SBJP 141100Z 13011KT 9999 SCT025 SCT070 27/21 Q1014;
0120827980999992007101412004-07100-034867FM-15+0007SBJP V0201201N006212200019N0112651N1+02801+02001999999ADDGA1041+009001999GF104991999999999999999999MA1101391999999REMMET051METAR SBJP 141200Z 12012KT 9999 SCT030 28/20 Q1014;
0120827980999992007101413004-07100-034867FM-15+0007SBJP V0201401N005712200019N0112651N1+02901+02001999999ADDGA1041+009001999GF104991999999999999999999MA1101391999999REMMET051METAR SBJP 141300Z 14011KT 9999 SCT030 29/20 Q1014;
0120827980999992007101414004-07100-034867FM-15+0007SBJP V0201401N004612200019N0112651N1+02901+02001999999ADDGA1041+009001999GF104991999999999999999999MA1101391999999REMMET051METAR SBJP 141400Z 14009KT 9999 SCT030 29/20 Q1014;
0120827980999992007101415004-07100-034867FM-15+0007SBJP V0201301N005112200019N0112651N1+02901+02001999999ADDGA1041+009001999GF104991999999999999999999MA1101291999999REMMET051METAR SBJP 141500Z 13010KT 9999 SCT030 29/20 Q1013;
0120827980999992007101416004-07100-034867FM-15+0007SBJP V0201601N005712200019N0112651N1+03001+02101999999ADDGA1041+009001999GF104991999999999999999999MA1101191999999REMMET051METAR SBJP 141600Z 16011KT 9999 SCT030 30/21 Q1012;
0120827980999992007101417004-07100-034867FM-15+0007SBJP V0201401N006212200019N0112651N1+02901+02001999999ADDGA1041+009001999GF104991999999999999999999MA1101191999999REMMET051METAR SBJP 141700Z 14012KT 9999 SCT030 29/20 Q1012;
0143827980999992007101418004-07100-034867FM-15+0007SBJP V0201401N005112200019N0112651N1+02801+02101999999ADDGA1041+009001999GA2041+021001999GF104991999999999999999999MA1101191999999REMMET058METAR SBJP 141800Z 14010KT 9999 SCT030 SCT070 28/21 Q1012;
0120827980999992007101419004-07100-034867FM-15+0007SBJP V0201601N005112200019N0112651N1+02701+02101999999ADDGA1021+009001999GF102991999999999999999999MA1101191999999REMMET051METAR SBJP 141900Z 16010KT 9999 FEW030 27/21 Q1012;
0120827980999992007101420004-07100-034867FM-15+0007SBJP V0201601N004612200019N0112651N1+02601+02101999999ADDGA1021+009001999GF102991999999999999999999MA1101291999999REMMET051METAR SBJP 142000Z 16009KT 9999 FEW030 26/21 Q1013;
0120827980999992007101421004-07100-034867FM-15+0007SBJP V0201601N003612200019N0112651N1+02501+02101999999ADDGA1021+009001999GF102991999999999999999999MA1101291999999REMMET051METAR SBJP 142100Z 16007KT 9999 FEW030 25/21 Q1013;
0120827980999992007101422004-07100-034867FM-15+0007SBJP V0201601N003112200019N0112651N1+02401+02101999999ADDGA1021+009001999GF102991999999999999999999MA1101391999999REMMET051METAR SBJP 142200Z 16006KT 9999 FEW030 24/21 Q1014;
0120827980999992007101423004-07100-034867FM-15+0007SBJP V0201701N002112200019N0112651N1+02401+02101999999ADDGA1021+009001999GF102991999999999999999999MA1101391999999REMMET051METAR SBJP 142300Z 17004KT 9999 FEW030 24/21 Q1014;
0120827980999992007101500004-07100-034867FM-15+0007SBJP V0201701N002112200019N0112651N1+02401+02101999999ADDGA1021+006001999GF102991999999999999999999MA1101491999999REMMET051METAR SBJP 150000Z 17004KT 9999 FEW020 24/21 Q1015;
0120827980999992007101501004-07100-034867FM-15+0007SBJP V0201701N003112200019N0112651N1+02401+02301999999ADDGA1021+006001999GF102991999999999999999999MA1101491999999REMMET051METAR SBJP 150100Z 17006KT 9999 FEW020 24/23 Q1015;
0120827980999992007101502004-07100-034867FM-15+0007SBJP V0201501N003112200019N0112651N1+02401+02001999999ADDGA1021+006001999GF102991999999999999999999MA1101491999999REMMET051METAR SBJP 150200Z 15006KT 9999 FEW020 24/20 Q1015;
0120827980999992007101503004-07100-034867FM-15+0007SBJP V0201601N004112200019N0112651N1+02401+02001999999ADDGA1021+006001999GF102991999999999999999999MA1101291999999REMMET051METAR SBJP 150300Z 16008KT 9999 FEW020 24/20 Q1013;
0143827980999992007101506004-07100-034867FM-15+0007SBJP V0201401N003112200019N0112651N1+02301+02001999999ADDGA1021+006001999GA2041+021001999GF104991999999999999999999MA1101291999999REMMET058METAR SBJP 150600Z 14006KT 9999 FEW020 SCT070 23/20 Q1013;
0143827980999992007101507004-07100-034867FM-15+0007SBJP V0201601N002112200019N0112651N1+02301+02001999999ADDGA1021+006001999GA2041+021001999GF104991999999999999999999MA1101291999999REMMET058METAR SBJP 150700Z 16004KT 9999 FEW020 SCT070 23/20 Q1013;
0143827980999992007101508004-07100-034867FM-15+0007SBJP V0202101N002110210019N0112651N1+02201+02001999999ADDGA1021+006001999GA2071+021001999GF107991999999999999999999MA1101291999999REMMET058METAR SBJP 150800Z 21004KT 9999 FEW020 BKN070 22/20 Q1013;
0143827980999992007101509004-07100-034867FM-15+0007SBJP V0202201N001010210019N0112651N1+02301+02001999999ADDGA1021+006001999GA2071+021001999GF107991999999999999999999MA1101391999999REMMET058METAR SBJP 150900Z 22002KT 9999 FEW020 BKN070 23/20 Q1014;
0143827980999992007101510004-07100-034867FM-15+0007SBJP V0201901N003610210019N0112651N1+02501+02101999999ADDGA1041+006001999GA2071+021001999GF107991999999999999999999MA1101491999999REMMET058METAR SBJP 151000Z 19007KT 9999 SCT020 BKN070 25/21 Q1015;
0143827980999992007101511004-07100-034867FM-15+0007SBJP V0201501N005712200019N0112651N1+02701+01901999999ADDGA1041+007501999GA2041+021001999GF104991999999999999999999MA1101491999999REMMET058METAR SBJP 151100Z 15011KT 9999 SCT025 SCT070 27/19 Q1015;
0143827980999992007101512004-07100-034867FM-15+0007SBJP V0201501N005112200019N0112651N1+02801+02001999999ADDGA1041+007501999GA2041+021001999GF104991999999999999999999MA1101491999999REMMET058METAR SBJP 151200Z 15010KT 9999 SCT025 SCT070 28/20 Q1015;
0136827980999992007101513004-07100-034867FM-15+0007SBJP V0201701N00511220001CN0112651N1+02901+01901999999ADDGA1071+007501999GA2041+021001999MA1101491999999REMMET058METAR SBJP 151300Z 17010KT 9999 BKN025 SCT070 29/19 Q1015;EQDQ01+000042SCOTCV
0136827980999992007101514004-07100-034867FM-15+0007SBJP V0201801N00511220001CN0112651N1+02901+01801999999ADDGA1071+007501999GA2041+021001999MA1101491999999REMMET058METAR SBJP 151400Z 18010KT 9999 BKN025 SCT070 29/18 Q1015;EQDQ01+000042SCOTCV
0120827980999992007101515004-07100-034867FM-15+0007SBJP V0201701N005112200019N0112651N1+03001+01701999999ADDGA1041+009001999GF104991999999999999999999MA1101391999999REMMET051METAR SBJP 151500Z 17010KT 9999 SCT030 30/17 Q1014;
0120827980999992007101516004-07100-034867FM-15+0007SBJP V0201601N006212200019N0112651N1+03001+01801999999ADDGA1041+009001999GF104991999999999999999999MA1101291999999REMMET051METAR SBJP 151600Z 16012KT 9999 SCT030 30/18 Q1013;
0120827980999992007101517004-07100-034867FM-15+0007SBJP V0201601N006212200019N0112651N1+03001+01901999999ADDGA1041+009001999GF104991999999999999999999MA1101291999999REMMET051METAR SBJP 151700Z 16012KT 9999 SCT030 30/19 Q1013;
0120827980999992007101518004-07100-034867FM-15+0007SBJP V0201601N007212200019N0112651N1+02801+01901999999ADDGA1041+009001999GF104991999999999999999999MA1101291999999REMMET051METAR SBJP 151800Z 16014KT 9999 SCT030 28/19 Q1013;
0120827980999992007101519004-07100-034867FM-15+0007SBJP V0201801N006212200019N0112651N1+02801+01901999999ADDGA1041+009001999GF104991999999999999999999MA1101291999999REMMET051METAR SBJP 151900Z 18012KT 9999 SCT030 28/19 Q1013;
0120827980999992007101520004-07100-034867FM-15+0007SBJP V0201801N005112200019N0112651N1+02601+02001999999ADDGA1041+009001999GF104991999999999999999999MA1101291999999REMMET051METAR SBJP 152000Z 18010KT 9999 SCT030 26/20 Q1013;
0072827980999992007101521004-07100-034867FM-15+0007SBJP V0201801N00411220001CN0099001N1+02501+02001999999ADDMA1101291999999REMMET045METAR SBJP 152100Z 18008KT CAVOK 25/20 Q1013;
0143827980999992007101522004-07100-034867FM-15+0007SBJP V0201701N004612200019N0112651N1+02501+02001999999ADDGA1021+009001999GA2041+021001999GF104991999999999999999999MA1101391999999REMMET058METAR SBJP 152200Z 17009KT 9999 FEW030 SCT070 25/20 Q1014;
0143827980999992007101523004-07100-034867FM-15+0007SBJP V0201801N004112200019N0112651N1+02501+02001999999ADDGA1021+009001999GA2041+021001999GF104991999999999999999999MA1101491999999REMMET058METAR SBJP 152300Z 18008KT 9999 FEW030 SCT070 25/20 Q1015;
0072827980999992007101600004-07100-034867FM-15+0007SBJP V0201801N00361220001CN0099001N1+02501+02001999999ADDMA1101491999999REMMET045METAR SBJP 160000Z 18007KT CAVOK 25/20 Q1015;
0072827980999992007101601004-07100-034867FM-15+0007SBJP V0202001N00211220001CN0099001N1+02501+02001999999ADDMA1101491999999REMMET045METAR SBJP 160100Z 20004KT CAVOK 25/20 Q1015;
0072827980999992007101602004-07100-034867FM-15+0007SBJP V0202001N00211220001CN0099001N1+02401+02001999999ADDMA1101491999999REMMET045METAR SBJP 160200Z 20004KT CAVOK 24/20 Q1015;
0143827980999992007101603004-07100-034867FM-15+0007SBJP V0202001N002112200019N0112651N1+02401+02001999999ADDGA1021+006001999GA2041+021001999GF104991999999999999999999MA1101391999999REMMET058METAR SBJP 160300Z 20004KT 9999 FEW020 SCT070 24/20 Q1014;
0143827980999992007101604004-07100-034867FM-15+0007SBJP V0202001N001510210019N0112651N1+02401+02101999999ADDGA1041+005101999GA2071+021001999GF107991999999999999999999MA1101391999999REMMET058METAR SBJP 160400Z 20003KT 9999 SCT017 BKN070 24/21 Q1014;
0153827980999992007101605004-07100-034867FM-15+0007SBJP V0202101N003110210019N0112651N1+02301+02101999999ADDGA1041+004801999GA2071+021001999GF107991999999999999999999MA1101391999999MW1611REMMET062METAR SBJP 160500Z 21006KT 9999 -RA SCT016 BKN070 23/21 Q1014;
0143827980999992007101606004-07100-034867FM-15+0007SBJP V0202001N002610210019N0112651N1+02301+02101999999ADDGA1041+004501999GA2071+021001999GF107991999999999999999999MA1101391999999REMMET058METAR SBJP 160600Z 20005KT 9999 SCT015 BKN070 23/21 Q1014;
0143827980999992007101607004-07100-034867FM-15+0007SBJP V0202201N003610210019N0112651N1+02301+02101999999ADDGA1041+004501999GA2071+021001999GF107991999999999999999999MA1101391999999REMMET058METAR SBJP 160700Z 22007KT 9999 SCT015 BKN070 23/21 Q1014;
0143827980999992007101608004-07100-034867FM-15+0007SBJP V0202201N003610210019N0112651N1+02201+02101999999ADDGA1041+004501999GA2071+021001999GF107991999999999999999999MA1101391999999REMMET058METAR SBJP 160800Z 22007KT 9999 SCT015 BKN070 22/21 Q1014;
0143827980999992007101609004-07100-034867FM-15+0007SBJP V0202001N004110210019N0112651N1+02301+02001999999ADDGA1021+006001999GA2071+021001999GF107991999999999999999999MA1101491999999REMMET058METAR SBJP 160900Z 20008KT 9999 FEW020 BKN070 23/20 Q1015;
0143827980999992007101610004-07100-034867FM-15+0007SBJP V0202001N005110210019N0112651N1+02401+02101999999ADDGA1021+006001999GA2071+021001999GF107991999999999999999999MA1101491999999REMMET058METAR SBJP 161000Z 20010KT 9999 FEW020 BKN070 24/21 Q1015;
0143827980999992007101611004-07100-034867FM-15+0007SBJP V0202001N006210210019N0112651N1+02601+02101999999ADDGA1041+006001999GA2071+021001999GF107991999999999999999999MA1101591999999REMMET058METAR SBJP 161100Z 20012KT 9999 SCT020 BKN070 26/21 Q1016;
0143827980999992007101612004-07100-034867FM-15+0007SBJP V0201901N006210210019N0112651N1+02701+02101999999ADDGA1041+006001999GA2071+021001999GF107991999999999999999999MA1101591999999REMMET058METAR SBJP 161200Z 19012KT 9999 SCT020 BKN070 27/21 Q1016;
0143827980999992007101613004-07100-034867FM-15+0007SBJP V0201701N007210210019N0112651N1+02801+02101999999ADDGA1041+006001999GA2071+021001999GF107991999999999999999999MA1101591999999REMMET058METAR SBJP 161300Z 17014KT 9999 SCT020 BKN070 28/21 Q1016;
0143827980999992007101614004-07100-034867FM-15+0007SBJP V0201601N006210210019N0112651N1+02601+02001999999ADDGA1041+006001999GA2071+021001999GF107991999999999999999999MA1101491999999REMMET058METAR SBJP 161400Z 16012KT 9999 SCT020 BKN070 26/20 Q1015;
0143827980999992007101615004-07100-034867FM-15+0007SBJP V0201601N006710210019N0112651N1+02801+02101999999ADDGA1041+006001999GA2071+021001999GF107991999999999999999999MA1101391999999REMMET058METAR SBJP 161500Z 16013KT 9999 SCT020 BKN070 28/21 Q1014;
0143827980999992007101616004-07100-034867FM-15+0007SBJP V0201601N006710210019N0112651N1+02901+02101999999ADDGA1041+007501999GA2071+021001999GF107991999999999999999999MA1101391999999REMMET058METAR SBJP 161600Z 16013KT 9999 SCT025 BKN070 29/21 Q1014;
0143827980999992007101617004-07100-034867FM-15+0007SBJP V0201601N007710210019N0112651N1+02801+02101999999ADDGA1041+007501999GA2071+021001999GF107991999999999999999999MA1101291999999REMMET058METAR SBJP 161700Z 16015KT 9999 SCT025 BKN070 28/21 Q1013;
0143827980999992007101618004-07100-034867FM-15+0007SBJP V0201601N008210210019N0112651N1+02701+02101999999ADDGA1041+007501999GA2071+021001999GF107991999999999999999999MA1101291999999REMMET058METAR SBJP 161800Z 16016KT 9999 SCT025 BKN070 27/21 Q1013;
0143827980999992007101619004-07100-034867FM-15+0007SBJP V0201601N007210210019N0112651N1+02701+02001999999ADDGA1041+007501999GA2071+021001999GF107991999999999999999999MA1101291999999REMMET058METAR SBJP 161900Z 16014KT 9999 SCT025 BKN070 27/20 Q1013;
0143827980999992007101620004-07100-034867FM-15+0007SBJP V0201601N006210210019N0112651N1+02601+02101999999ADDGA1041+007501999GA2071+021001999GF107991999999999999999999MA1101391999999REMMET058METAR SBJP 162000Z 16012KT 9999 SCT025 BKN070 26/21 Q1014;
0143827980999992007101621004-07100-034867FM-15+0007SBJP V0201601N004112200019N0112651N1+02501+02101999999ADDGA1021+006001999GA2041+021001999GF104991999999999999999999MA1101391999999REMMET058METAR SBJP 162100Z 16008KT 9999 FEW020 SCT070 25/21 Q1014;
0143827980999992007101622004-07100-034867FM-15+0007SBJP V0201801N003112200019N0112651N1+02401+02101999999ADDGA1021+006001999GA2041+021001999GF104991999999999999999999MA1101491999999REMMET058METAR SBJP 162200Z 18006KT 9999 FEW020 SCT070 24/21 Q1015;
0143827980999992007101623004-07100-034867FM-15+0007SBJP V0201601N003612200019N0112651N1+02401+02101999999ADDGA1021+006001999GA2041+030001999GF104991999999999999999999MA1101491999999REMMET058METAR SBJP 162300Z 16007KT 9999 FEW020 SCT100 24/21 Q1015;
0072827980999992007101700004-07100-034867FM-15+0007SBJP V0201701N00311220001CN0099001N1+02301+02101999999ADDMA1101491999999REMMET045METAR SBJP 170000Z 17006KT CAVOK 23/21 Q1015;
0072827980999992007101701004-07100-034867FM-15+0007SBJP V0201801N00151220001CN0099001N1+02301+02001999999ADDMA1101491999999REMMET045METAR SBJP 170100Z 18003KT CAVOK 23/20 Q1015;
0072827980999992007101702004-07100-034867FM-15+0007SBJP V0202701N00101220001CN0099001N1+02301+02001999999ADDMA1101491999999REMMET045METAR SBJP 170200Z 27002KT CAVOK 23/20 Q1015;
0072827980999992007101703004-07100-034867FM-15+0007SBJP V0202301N00151220001CN0099001N1+02201+02001999999ADDMA1101391999999REMMET045METAR SBJP 170300Z 23003KT CAVOK 22/20 Q1014;
0120827980999992007101704004-07100-034867FM-15+0007SBJP V0202401N002112200019N0112651N1+02201+02001999999ADDGA1041+006001999GF104991999999999999999999MA1101391999999REMMET051METAR SBJP 170400Z 24004KT 9999 SCT020 22/20 Q1014;
0120827980999992007101705004-07100-034867FM-15+0007SBJP V0202201N002112200019N0112651N1+02101+02001999999ADDGA1021+006001999GF102991999999999999999999MA1101291999999REMMET051METAR SBJP 170500Z 22004KT 9999 FEW020 21/20 Q1013;
0120827980999992007101706004-07100-034867FM-15+0007SBJP V0201801N002112200019N0112651N1+02101+02001999999ADDGA1021+006001999GF102991999999999999999999MA1101291999999REMMET051METAR SBJP 170600Z 18004KT 9999 FEW020 21/20 Q1013;
0120827980999992007101707004-07100-034867FM-15+0007SBJP V0202501N001512200019N0112651N1+02101+02001999999ADDGA1021+006001999GF102991999999999999999999MA1101291999999REMMET051METAR SBJP 170700Z 25003KT 9999 FEW020 21/20 Q1013;
0120827980999992007101708004-07100-034867FM-15+0007SBJP V0202201N002112200019N0112651N1+02101+01901999999ADDGA1021+006001999GF102991999999999999999999MA1101391999999REMMET051METAR SBJP 170800Z 22004KT 9999 FEW020 21/19 Q1014;
0120827980999992007101709004-07100-034867FM-15+0007SBJP V0202101N002112200019N0112651N1+02201+02001999999ADDGA1021+006001999GF102991999999999999999999MA1101491999999REMMET051METAR SBJP 170900Z 21004KT 9999 FEW020 22/20 Q1015;
0120827980999992007101710004-07100-034867FM-15+0007SBJP V0202101N004112200019N0112651N1+02401+02101999999ADDGA1021+006001999GF102991999999999999999999MA1101491999999REMMET051METAR SBJP 171000Z 21008KT 9999 FEW020 24/21 Q1015;
0120827980999992007101711004-07100-034867FM-15+0007SBJP V0201901N005112200019N0112651N1+02601+02101999999ADDGA1041+007501999GF104991999999999999999999MA1101591999999REMMET051METAR SBJP 171100Z 19010KT 9999 SCT025 26/21 Q1016;
0120827980999992007101712004-07100-034867FM-15+0007SBJP V0201801N005710075019N0112651N1+02801+02101999999ADDGA1071+007501999GF107991999999999999999999MA1101591999999REMMET051METAR SBJP 171200Z 18011KT 9999 BKN025 28/21 Q1016;
0120827980999992007101713004-07100-034867FM-15+0007SBJP V0201601N005712200019N0112651N1+02901+01901999999ADDGA1041+009001999GF104991999999999999999999MA1101591999999REMMET051METAR SBJP 171300Z 16011KT 9999 SCT030 29/19 Q1016;
0120827980999992007101714004-07100-034867FM-15+0007SBJP V0201701N005112200019N0112651N1+02901+02001999999ADDGA1041+009001999GF104991999999999999999999MA1101491999999REMMET051METAR SBJP 171400Z 17010KT 9999 SCT030 29/20 Q1015;
0120827980999992007101715004-07100-034867FM-15+0007SBJP V0201501N005712200019N0112651N1+03001+01901999999ADDGA1041+009001999GF104991999999999999999999MA1101391999999REMMET051METAR SBJP 171500Z 15011KT 9999 SCT030 30/19 Q1014;
0120827980999992007101716004-07100-034867FM-15+0007SBJP V0201501N004612200019N0112651N1+02901+01901999999ADDGA1021+009001999GF102991999999999999999999MA1101291999999REMMET051METAR SBJP 171600Z 15009KT 9999 FEW030 29/19 Q1013;
0120827980999992007101717004-07100-034867FM-15+0007SBJP V0201401N005112200019N0112651N1+02901+01901999999ADDGA1021+009001999GF102991999999999999999999MA1101291999999REMMET051METAR SBJP 171700Z 14010KT 9999 FEW030 29/19 Q1013;
0120827980999992007101718004-07100-034867FM-15+0007SBJP V0201401N004612200019N0112651N1+02901+01801999999ADDGA1021+009001999GF102991999999999999999999MA1101291999999REMMET051METAR SBJP 171800Z 14009KT 9999 FEW030 29/18 Q1013;
0072827980999992007101719004-07100-034867FM-15+0007SBJP V0201501N00571220001CN0099001N1+02801+01901999999ADDMA1101291999999REMMET045METAR SBJP 171900Z 15011KT CAVOK 28/19 Q1013;
0072827980999992007101720004-07100-034867FM-15+0007SBJP V0201401N00411220001CN0099001N1+02601+01901999999ADDMA1101291999999REMMET045METAR SBJP 172000Z 14008KT CAVOK 26/19 Q1013;
0072827980999992007101721004-07100-034867FM-15+0007SBJP V0201401N00361220001CN0099001N1+02601+02101999999ADDMA1101291999999REMMET045METAR SBJP 172100Z 14007KT CAVOK 26/21 Q1013;
0072827980999992007101722004-07100-034867FM-15+0007SBJP V0201101N00211220001CN0099001N1+02501+02101999999ADDMA1101391999999REMMET045METAR SBJP 172200Z 11004KT CAVOK 25/21 Q1014;
0072827980999992007101723004-07100-034867FM-15+0007SBJP V0201001N00261220001CN0099001N1+02501+02101999999ADDMA1101391999999REMMET045METAR SBJP 172300Z 10005KT CAVOK 25/21 Q1014;
0072827980999992007101800004-07100-034867FM-15+0007SBJP V0201001N00211220001CN0099001N1+02501+02001999999ADDMA1101491999999REMMET045METAR SBJP 180000Z 10004KT CAVOK 25/20 Q1015;
0120827980999992007101801004-07100-034867FM-15+0007SBJP V0201001N003112200019N0112651N1+02501+02101999999ADDGA1021+006001999GF102991999999999999999999MA1101491999999REMMET051METAR SBJP 180100Z 10006KT 9999 FEW020 25/21 Q1015;
0120827980999992007101802004-07100-034867FM-15+0007SBJP V0201001N003112200019N0112651N1+02401+02101999999ADDGA1021+006001999GF102991999999999999999999MA1101391999999REMMET051METAR SBJP 180200Z 10006KT 9999 FEW020 24/21 Q1014;
0120827980999992007101803004-07100-034867FM-15+0007SBJP V0201101N002112200019N0112651N1+02401+02101999999ADDGA1041+006001999GF104991999999999999999999MA1101391999999REMMET051METAR SBJP 180300Z 11004KT 9999 SCT020 24/21 Q1014;
0120827980999992007101804004-07100-034867FM-15+0007SBJP V0201201N001512200019N0112651N1+02401+02101999999ADDGA1041+004801999GF104991999999999999999999MA1101291999999REMMET051METAR SBJP 180400Z 12003KT 9999 SCT016 24/21 Q1013;
0120827980999992007101805004-07100-034867FM-15+0007SBJP V0201401N001512200019N0112651N1+02401+02101999999ADDGA1041+004801999GF104991999999999999999999MA1101291999999REMMET051METAR SBJP 180500Z 14003KT 9999 SCT016 24/21 Q1013;
0120827980999992007101806004-07100-034867FM-15+0007SBJP V0209999C000012200019N0112651N1+02101+02001999999ADDGA1041+004801999GF104991999999999999999999MA1101291999999REMMET051METAR SBJP 180600Z 00000KT 9999 SCT016 21/20 Q1013;
0120827980999992007101807004-07100-034867FM-15+0007SBJP V0202701N001012200019N0112651N1+02101+02001999999ADDGA1041+004801999GF104991999999999999999999MA1101391999999REMMET051METAR SBJP 180700Z 27002KT 9999 SCT016 21/20 Q1014;
0120827980999992007101808004-07100-034867FM-15+0007SBJP V0209999C000012200019N0112651N1+02101+02001999999ADDGA1041+004801999GF104991999999999999999999MA1101391999999REMMET051METAR SBJP 180800Z 00000KT 9999 SCT016 21/20 Q1014;
0120827980999992007101809004-07100-034867FM-15+0007SBJP V0203001N001012200019N0112651N1+02201+02001999999ADDGA1021+005401999GF102991999999999999999999MA1101391999999REMMET051METAR SBJP 180900Z 30002KT 9999 FEW018 22/20 Q1014;
0120827980999992007101810004-07100-034867FM-15+0007SBJP V0201501N002112200019N0112651N1+02601+02101999999ADDGA1021+007501999GF102991999999999999999999MA1101491999999REMMET051METAR SBJP 181000Z 15004KT 9999 FEW025 26/21 Q1015;
0120827980999992007101811004-07100-034867FM-15+0007SBJP V0201101N004110075019N0112651N1+02801+02101999999ADDGA1071+007501999GF107991999999999999999999MA1101491999999REMMET051METAR SBJP 181100Z 11008KT 9999 BKN025 28/21 Q1015;
0120827980999992007101812004-07100-034867FM-15+0007SBJP V0201201N004110075019N0112651N1+02801+02001999999ADDGA1071+007501999GF107991999999999999999999MA1101591999999REMMET051METAR SBJP 181200Z 12008KT 9999 BKN025 28/20 Q1016;
0120827980999992007101813004-07100-034867FM-15+0007SBJP V0201201N004610075019N0112651N1+02901+02101999999ADDGA1071+007501999GF107991999999999999999999MA1101491999999REMMET051METAR SBJP 181300Z 12009KT 9999 BKN025 29/21 Q1015;
0120827980999992007101814004-07100-034867FM-15+0007SBJP V0201301N004610075019N0112651N1+02901+02001999999ADDGA1071+007501999GF107991999999999999999999MA1101491999999REMMET051METAR SBJP 181400Z 13009KT 9999 BKN025 29/20 Q1015;
0120827980999992007101815004-07100-034867FM-15+0007SBJP V0201101N004110075019N0112651N1+02901+02001999999ADDGA1071+007501999GF107991999999999999999999MA1101391999999REMMET051METAR SBJP 181500Z 11008KT 9999 BKN025 29/20 Q1014;
0120827980999992007101816004-07100-034867FM-15+0007SBJP V0201001N003612200019N0112651N1+03001+01901999999ADDGA1041+006001999GF104991999999999999999999MA1101291999999REMMET051METAR SBJP 181600Z 10007KT 9999 SCT020 30/19 Q1013;
0120827980999992007101817004-07100-034867FM-15+0007SBJP V0201001N004112200019N0112651N1+03001+02001999999ADDGA1041+006001999GF104991999999999999999999MA1101191999999REMMET051METAR SBJP 181700Z 10008KT 9999 SCT020 30/20 Q1012;
0120827980999992007101818004-07100-034867FM-15+0007SBJP V0201201N004112200019N0112651N1+02901+01901999999ADDGA1021+009001999GF102991999999999999999999MA1101191999999REMMET051METAR SBJP 181800Z 12008KT 9999 FEW030 29/19 Q1012;
0120827980999992007101819004-07100-034867FM-15+0007SBJP V0201201N004112200019N0112651N1+02801+02101999999ADDGA1021+009001999GF102991999999999999999999MA1101291999999REMMET051METAR SBJP 181900Z 12008KT 9999 FEW030 28/21 Q1013;
0120827980999992007101820004-07100-034867FM-15+0007SBJP V0201001N003112200019N0112651N1+02701+02101999999ADDGA1021+009001999GF102991999999999999999999MA1101291999999REMMET051METAR SBJP 182000Z 10006KT 9999 FEW030 27/21 Q1013;
0120827980999992007101821004-07100-034867FM-15+0007SBJP V0201301N003612200019N0112651N1+02601+02101999999ADDGA1041+009001999GF104991999999999999999999MA1101391999999REMMET051METAR SBJP 182100Z 13007KT 9999 SCT030 26/21 Q1014;
0120827980999992007101822004-07100-034867FM-15+0007SBJP V0201201N002112200019N0112651N1+02501+02101999999ADDGA1021+009001999GF102991999999999999999999MA1101391999999REMMET051METAR SBJP 182200Z 12004KT 9999 FEW030 25/21 Q1014;
0120827980999992007101823004-07100-034867FM-15+0007SBJP V0201301N002612200019N0112651N1+02501+02201999999ADDGA1021+007501999GF102991999999999999999999MA1101491999999REMMET051METAR SBJP 182300Z 13005KT 9999 FEW025 25/22 Q1015;
0120827980999992007101900004-07100-034867FM-15+0007SBJP V0201301N002612200019N0112651N1+02501+02201999999ADDGA1021+007501999GF102991999999999999999999MA1101491999999REMMET051METAR SBJP 190000Z 13005KT 9999 FEW025 25/22 Q1015;
0120827980999992007101901004-07100-034867FM-15+0007SBJP V0201301N002112200019N0112651N1+02501+02201999999ADDGA1021+007501999GF102991999999999999999999MA1101491999999REMMET051METAR SBJP 190100Z 13004KT 9999 FEW025 25/22 Q1015;
0120827980999992007101902004-07100-034867FM-15+0007SBJP V0201301N002112200019N0112651N1+02401+02201999999ADDGA1021+007501999GF102991999999999999999999MA1101391999999REMMET051METAR SBJP 190200Z 13004KT 9999 FEW025 24/22 Q1014;
0120827980999992007101903004-07100-034867FM-15+0007SBJP V0201301N002112200019N0112651N1+02401+02201999999ADDGA1021+006001999GF102991999999999999999999MA1101391999999REMMET051METAR SBJP 190300Z 13004KT 9999 FEW020 24/22 Q1014;
0120827980999992007101904004-07100-034867FM-15+0007SBJP V0201301N002112200019N0112651N1+02501+02301999999ADDGA1021+006001999GF102991999999999999999999MA1101291999999REMMET051METAR SBJP 190400Z 13004KT 9999 FEW020 25/23 Q1013;
0120827980999992007101905004-07100-034867FM-15+0007SBJP V0201301N001512200019N0112651N1+02401+02201999999ADDGA1021+006001999GF102991999999999999999999MA1101291999999REMMET051METAR SBJP 190500Z 13003KT 9999 FEW020 24/22 Q1013;
0120827980999992007101906004-07100-034867FM-15+0007SBJP V0201301N001512200019N0112651N1+02401+02201999999ADDGA1041+006001999GF104991999999999999999999MA1101291999999REMMET051METAR SBJP 190600Z 13003KT 9999 SCT020 24/22 Q1013;
0120827980999992007101907004-07100-034867FM-15+0007SBJP V0201501N001512200019N0112651N1+02401+02101999999ADDGA1041+006001999GF104991999999999999999999MA1101291999999REMMET051METAR SBJP 190700Z 15003KT 9999 SCT020 24/21 Q1013;
0120827980999992007101908004-07100-034867FM-15+0007SBJP V0209999C000012200019N0112651N1+02201+02001999999ADDGA1041+006001999GF104991999999999999999999MA1101291999999REMMET051METAR SBJP 190800Z 00000KT 9999 SCT020 22/20 Q1013;
0120827980999992007101909004-07100-034867FM-15+0007SBJP V0202701N001012200019N0112651N1+02301+02101999999ADDGA1041+006001999GF104991999999999999999999MA1101391999999REMMET051METAR SBJP 190900Z 27002KT 9999 SCT020 23/21 Q1014;
0120827980999992007101910004-07100-034867FM-15+0007SBJP V0201101N003112200019N0112651N1+02701+02101999999ADDGA1041+006001999GF104991999999999999999999MA1101391999999REMMET051METAR SBJP 191000Z 11006KT 9999 SCT020 27/21 Q1014;
0120827980999992007101911004-07100-034867FM-15+0007SBJP V0201101N002610075019N0112651N1+02801+02201999999ADDGA1071+007501999GF107991999999999999999999MA1101491999999REMMET051METAR SBJP 191100Z 11005KT 9999 BKN025 28/22 Q1015;
0120827980999992007101912004-07100-034867FM-15+0007SBJP V0201201N003612200019N0112651N1+02801+02101999999ADDGA1041+007501999GF104991999999999999999999MA1101491999999REMMET051METAR SBJP 191200Z 12007KT 9999 SCT025 28/21 Q1015;
0120827980999992007101913004-07100-034867FM-15+0007SBJP V0201201N004612200019N0112651N1+02901+02101999999ADDGA1041+009001999GF104991999999999999999999MA1101491999999REMMET051METAR SBJP 191300Z 12009KT 9999 SCT030 29/21 Q1015;
0120827980999992007101914004-07100-034867FM-15+0007SBJP V0201001N003612200019N0112651N1+02901+02001999999ADDGA1041+009001999GF104991999999999999999999MA1101391999999REMMET051METAR SBJP 191400Z 10007KT 9999 SCT030 29/20 Q1014;
0120827980999992007101915004-07100-034867FM-15+0007SBJP V0201301N004112200019N0112651N1+03001+02001999999ADDGA1041+009001999GF104991999999999999999999MA1101291999999REMMET051METAR SBJP 191500Z 13008KT 9999 SCT030 30/20 Q1013;
0120827980999992007101916004-07100-034867FM-15+0007SBJP V0201401N005112200019N0112651N1+03001+02001999999ADDGA1041+009001999GF104991999999999999999999MA1101291999999REMMET051METAR SBJP 191600Z 14010KT 9999 SCT030 30/20 Q1013;
0120827980999992007101917004-07100-034867FM-15+0007SBJP V0201401N005112200019N0112651N1+02901+02101999999ADDGA1041+009001999GF104991999999999999999999MA1101191999999REMMET051METAR SBJP 191700Z 14010KT 9999 SCT030 29/21 Q1012;
0120827980999992007101918004-07100-034867FM-15+0007SBJP V0201501N005112200019N0112651N1+02901+02201999999ADDGA1041+007501999GF104991999999999999999999MA1101191999999REMMET051METAR SBJP 191800Z 15010KT 9999 SCT025 29/22 Q1012;
0120827980999992007101919004-07100-034867FM-15+0007SBJP V0201601N005112200019N0112651N1+02801+02101999999ADDGA1041+007501999GF104991999999999999999999MA1101191999999REMMET051METAR SBJP 191900Z 16010KT 9999 SCT025 28/21 Q1012;
0120827980999992007101920004-07100-034867FM-15+0007SBJP V0201601N003612200019N0112651N1+02601+02201999999ADDGA1021+007501999GF102991999999999999999999MA1101291999999REMMET051METAR SBJP 192000Z 16007KT 9999 FEW025 26/22 Q1013;
0120827980999992007101921004-07100-034867FM-15+0007SBJP V0201501N003112200019N0112651N1+02601+02201999999ADDGA1021+006001999GF102991999999999999999999MA1101291999999REMMET051METAR SBJP 192100Z 15006KT 9999 FEW020 26/22 Q1013;
0120827980999992007101922004-07100-034867FM-15+0007SBJP V0201601N002112200019N0112651N1+02501+02201999999ADDGA1021+006001999GF102991999999999999999999MA1101391999999REMMET051METAR SBJP 192200Z 16004KT 9999 FEW020 25/22 Q1014;
0120827980999992007101923004-07100-034867FM-15+0007SBJP V0201601N002112200019N0112651N1+02401+02201999999ADDGA1021+006001999GF102991999999999999999999MA1101391999999REMMET051METAR SBJP 192300Z 16004KT 9999 FEW020 24/22 Q1014;
0120827980999992007102000004-07100-034867FM-15+0007SBJP V0201901N002112200019N0112651N1+02401+02201999999ADDGA1021+006001999GF102991999999999999999999MA1101491999999REMMET051METAR SBJP 200000Z 19004KT 9999 FEW020 24/22 Q1015;
0120827980999992007102001004-07100-034867FM-15+0007SBJP V0201801N001012200019N0112651N1+02401+02201999999ADDGA1021+006001999GF102991999999999999999999MA1101391999999REMMET051METAR SBJP 200100Z 18002KT 9999 FEW020 24/22 Q1014;
0120827980999992007102002004-07100-034867FM-15+0007SBJP V0202301N001012200019N0112651N1+02401+02201999999ADDGA1021+006001999GF102991999999999999999999MA1101391999999REMMET051METAR SBJP 200200Z 23002KT 9999 FEW020 24/22 Q1014;
0120827980999992007102003004-07100-034867FM-15+0007SBJP V0201801N001012200019N0112651N1+02401+02201999999ADDGA1041+006001999GF104991999999999999999999MA1101291999999REMMET051METAR SBJP 200300Z 18002KT 9999 SCT020 24/22 Q1013;
0143827980999992007102005004-07100-034867FM-15+0007SBJP V0201101N001510210019N0112651N1+02601+02201999999ADDGA1021+006001999GA2071+021001999GF107991999999999999999999MA1101291999999REMMET058METAR SBJP 200500Z 11003KT 9999 FEW020 BKN070 26/22 Q1013;
0143827980999992007102006004-07100-034867FM-15+0007SBJP V0201301N003110210019N0112651N1+02501+02201999999ADDGA1041+006001999GA2071+021001999GF107991999999999999999999MA1101291999999REMMET058METAR SBJP 200600Z 13006KT 9999 SCT020 BKN070 25/22 Q1013;
0143827980999992007102007004-07100-034867FM-15+0007SBJP V0201301N002110210019N0112651N1+02401+02201999999ADDGA1041+006001999GA2071+021001999GF107991999999999999999999MA1101291999999REMMET058METAR SBJP 200700Z 13004KT 9999 SCT020 BKN070 24/22 Q1013;
0166827980999992007102008004-07100-034867FM-15+0007SBJP V0201101N00151006001CN0112651N1+02401+02201999999ADDGA1021+003001999GA2041+006001999GA3071+021001999GF107991999999999999999999MA1101391999999REMMET065METAR SBJP 200800Z 11003KT 9999 FEW010 SCT020 BKN070 24/22 Q1014;
0117827980999992007102009004-07100-034867FM-15+0007SBJP V0201001N00211220001CN0112651N1+02601+02301999999ADDGA1071+006001999GA2041+021001999MA1101391999999REMMET058METAR SBJP 200900Z 10004KT 9999 BKN020 SCT070 26/23 Q1014;
0143827980999992007102010004-07100-034867FM-15+0007SBJP V0201101N003612200019N0112651N1+02701+02301999999ADDGA1041+006001999GA2041+021001999GF104991999999999999999999MA1101491999999REMMET058METAR SBJP 201000Z 11007KT 9999 SCT020 SCT070 27/23 Q1015;
0117827980999992007102011004-07100-034867FM-15+0007SBJP V0201301N00361220001CN0112651N1+02701+02201999999ADDGA1071+006001999GA2041+021001999MA1101491999999REMMET058METAR SBJP 201100Z 13007KT 9999 BKN020 SCT070 27/22 Q1015;
0143827980999992007102012004-07100-034867FM-15+0007SBJP V0201201N003112200019N0112651N1+02901+02101999999ADDGA1041+007501999GA2041+021001999GF104991999999999999999999MA1101491999999REMMET058METAR SBJP 201200Z 12006KT 9999 SCT025 SCT070 29/21 Q1015;
0120827980999992007102013004-07100-034867FM-15+0007SBJP V0201301N003612200019N0112651N1+03001+02001999999ADDGA1041+007501999GF104991999999999999999999MA1101391999999REMMET051METAR SBJP 201300Z 13007KT 9999 SCT025 30/20 Q1014;
0120827980999992007102014004-07100-034867FM-15+0007SBJP V0201501N003612200019N0112651N1+03001+02001999999ADDGA1041+007501999GF104991999999999999999999MA1101391999999REMMET051METAR SBJP 201400Z 15007KT 9999 SCT025 30/20 Q1014;
0120827980999992007102015004-07100-034867FM-15+0007SBJP V0201401N003612200019N0112651N1+03001+02001999999ADDGA1041+007501999GF104991999999999999999999MA1101391999999REMMET051METAR SBJP 201500Z 14007KT 9999 SCT025 30/20 Q1014;
0120827980999992007102016004-07100-034867FM-15+0007SBJP V0201301N004112200019N0112651N1+03001+01901999999ADDGA1041+007501999GF104991999999999999999999MA1101191999999REMMET051METAR SBJP 201600Z 13008KT 9999 SCT025 30/19 Q1012;
0120827980999992007102017004-07100-034867FM-15+0007SBJP V0201401N004112200019N0112651N1+03001+02001999999ADDGA1041+007501999GF104991999999999999999999MA1101191999999REMMET051METAR SBJP 201700Z 14008KT 9999 SCT025 30/20 Q1012;
0120827980999992007102018004-07100-034867FM-15+0007SBJP V0201101N003112200019N0112651N1+02901+02101999999ADDGA1021+006001999GF102991999999999999999999MA1101191999999REMMET051METAR SBJP 201800Z 11006KT 9999 FEW020 29/21 Q1012;
0120827980999992007102019004-07100-034867FM-15+0007SBJP V0201601N004112200019N0112651N1+02801+02101999999ADDGA1021+006001999GF102991999999999999999999MA1101291999999REMMET051METAR SBJP 201900Z 16008KT 9999 FEW020 28/21 Q1013;
0120827980999992007102020004-07100-034867FM-15+0007SBJP V0201501N004112200019N0112651N1+02701+02101999999ADDGA1021+006001999GF102991999999999999999999MA1101291999999REMMET051METAR SBJP 202000Z 15008KT 9999 FEW020 27/21 Q1013;
0120827980999992007102021004-07100-034867FM-15+0007SBJP V0201501N003112200019N0112651N1+02601+02201999999ADDGA1021+006001999GF102991999999999999999999MA1101391999999REMMET051METAR SBJP 202100Z 15006KT 9999 FEW020 26/22 Q1014;
0120827980999992007102022004-07100-034867FM-15+0007SBJP V0201501N002112200019N0112651N1+02501+02201999999ADDGA1021+006001999GF102991999999999999999999MA1101391999999REMMET051METAR SBJP 202200Z 15004KT 9999 FEW020 25/22 Q1014;
0072827980999992007102023004-07100-034867FM-15+0007SBJP V0201701N00101220001CN0099001N1+02401+02201999999ADDMA1101391999999REMMET045METAR SBJP 202300Z 17002KT CAVOK 24/22 Q1014;
0072827980999992007102100004-07100-034867FM-15+0007SBJP V0201801N00101220001CN0099001N1+02401+02201999999ADDMA1101491999999REMMET045METAR SBJP 210000Z 18002KT CAVOK 24/22 Q1015;
0120827980999992007102101004-07100-034867FM-15+0007SBJP V0201501N001012200019N0112651N1+02401+02201999999ADDGA1041+005401999GF104991999999999999999999MA1101491999999REMMET051METAR SBJP 210100Z 15002KT 9999 SCT018 24/22 Q1015;
0120827980999992007102102004-07100-034867FM-15+0007SBJP V0202001N001512200019N0112651N1+02401+02201999999ADDGA1021+005401999GF102991999999999999999999MA1101391999999REMMET051METAR SBJP 210200Z 20003KT 9999 FEW018 24/22 Q1014;
0120827980999992007102103004-07100-034867FM-15+0007SBJP V0202101N001012200019N0112651N1+02301+02201999999ADDGA1021+005401999GF102991999999999999999999MA1101391999999REMMET051METAR SBJP 210300Z 21002KT 9999 FEW018 23/22 Q1014;
0120827980999992007102104004-07100-034867FM-15+0007SBJP V0202301N001512200019N0112651N1+02301+02201999999ADDGA1041+005401999GF104991999999999999999999MA1101291999999REMMET051METAR SBJP 210400Z 23003KT 9999 SCT018 23/22 Q1013;
0120827980999992007102105004-07100-034867FM-15+0007SBJP V0202001N001512200019N0112651N1+02301+02201999999ADDGA1041+005401999GF104991999999999999999999MA1101291999999REMMET051METAR SBJP 210500Z 20003KT 9999 SCT018 23/22 Q1013;
0120827980999992007102106004-07100-034867FM-15+0007SBJP V0202201N001512200019N0112651N1+02201+02101999999ADDGA1021+005401999GF102991999999999999999999MA1101291999999REMMET051METAR SBJP 210600Z 22003KT 9999 FEW018 22/21 Q1013;
0120827980999992007102107004-07100-034867FM-15+0007SBJP V0202301N001012200019N0112651N1+02201+02101999999ADDGA1041+005401999GF104991999999999999999999MA1101291999999REMMET051METAR SBJP 210700Z 23002KT 9999 SCT018 22/21 Q1013;
0143827980999992007102108004-07100-034867FM-15+0007SBJP V0202501N001010210019N0112651N1+02301+02201999999ADDGA1021+006001999GA2071+021001999GF107991999999999999999999MA1101391999999REMMET058METAR SBJP 210800Z 25002KT 9999 FEW020 BKN070 23/22 Q1014;
0143827980999992007102109004-07100-034867FM-15+0007SBJP V0202501N001010210019N0112651N1+02401+02301999999ADDGA1021+006001999GA2071+021001999GF107991999999999999999999MA1101391999999REMMET058METAR SBJP 210900Z 25002KT 9999 FEW020 BKN070 24/23 Q1014;
0143827980999992007102110004-07100-034867FM-15+0007SBJP V0201801N001012200019N0112651N1+02601+02201999999ADDGA1021+006001999GA2041+021001999GF104991999999999999999999MA1101491999999REMMET058METAR SBJP 211000Z 18002KT 9999 FEW020 SCT070 26/22 Q1015;
0120827980999992007102111004-07100-034867FM-15+0007SBJP V0201501N004112200019N0112651N1+02901+02101999999ADDGA1041+006001999GF104991999999999999999999MA1101491999999REMMET051METAR SBJP 211100Z 15008KT 9999 SCT020 29/21 Q1015;
0120827980999992007102112004-07100-034867FM-15+0007SBJP V0201101N004112200019N0112651N1+02901+02101999999ADDGA1041+006001999GF104991999999999999999999MA1101491999999REMMET051METAR SBJP 211200Z 11008KT 9999 SCT020 29/21 Q1015;
0120827980999992007102113004-07100-034867FM-15+0007SBJP V0201401N004112200019N0112651N1+02901+02201999999ADDGA1041+006001999GF104991999999999999999999MA1101391999999REMMET051METAR SBJP 211300Z 14008KT 9999 SCT020 29/22 Q1014;
0120827980999992007102114004-07100-034867FM-15+0007SBJP V0201101N004112200019N0112651N1+02901+02101999999ADDGA1041+006001999GF104991999999999999999999MA1101391999999REMMET051METAR SBJP 211400Z 11008KT 9999 SCT020 29/21 Q1014;
0120827980999992007102115004-07100-034867FM-15+0007SBJP V0201401N005112200019N0112651N1+03001+02001999999ADDGA1041+006001999GF104991999999999999999999MA1101291999999REMMET051METAR SBJP 211500Z 14010KT 9999 SCT020 30/20 Q1013;
0120827980999992007102116004-07100-034867FM-15+0007SBJP V0201501N005112200019N0112651N1+03001+02101999999ADDGA1041+007501999GF104991999999999999999999MA1101191999999REMMET051METAR SBJP 211600Z 15010KT 9999 SCT025 30/21 Q1012;
0120827980999992007102117004-07100-034867FM-15+0007SBJP V0201601N005112200019N0112651N1+03001+02101999999ADDGA1041+007501999GF104991999999999999999999MA1101191999999REMMET051METAR SBJP 211700Z 16010KT 9999 SCT025 30/21 Q1012;
0120827980999992007102118004-07100-034867FM-15+0007SBJP V0201601N005112200019N0112651N1+02901+02201999999ADDGA1041+007501999GF104991999999999999999999MA1101191999999REMMET051METAR SBJP 211800Z 16010KT 9999 SCT025 29/22 Q1012;
0120827980999992007102119004-07100-034867FM-15+0007SBJP V0201601N004612200019N0112651N1+02801+02201999999ADDGA1041+006001999GF104991999999999999999999MA1101191999999REMMET051METAR SBJP 211900Z 16009KT 9999 SCT020 28/22 Q1012;
0120827980999992007102120004-07100-034867FM-15+0007SBJP V0201601N004612200019N0112651N1+02701+02201999999ADDGA1041+006001999GF104991999999999999999999MA1101291999999REMMET051METAR SBJP 212000Z 16009KT 9999 SCT020 27/22 Q1013;
0120827980999992007102121004-07100-034867FM-15+0007SBJP V0201801N003612200019N0112651N1+02601+02201999999ADDGA1021+006001999GF102991999999999999999999MA1101291999999REMMET051METAR SBJP 212100Z 18007KT 9999 FEW020 26/22 Q1013;
0120827980999992007102122004-07100-034867FM-15+0007SBJP V0201801N003112200019N0112651N1+02501+02201999999ADDGA1021+006001999GF102991999999999999999999MA1101291999999REMMET051METAR SBJP 212200Z 18006KT 9999 FEW020 25/22 Q1013;
0120827980999992007102123004-07100-034867FM-15+0007SBJP V0201601N003612200019N0112651N1+02501+02201999999ADDGA1021+006001999GF102991999999999999999999MA1101391999999REMMET051METAR SBJP 212300Z 16007KT 9999 FEW020 25/22 Q1014;
0120827980999992007102200004-07100-034867FM-15+0007SBJP V0201701N003612200019N0112651N1+02601+02201999999ADDGA1021+006001999GF102991999999999999999999MA1101391999999REMMET051METAR SBJP 220000Z 17007KT 9999 FEW020 26/22 Q1014;
0153827980999992007102201004-07100-034867FM-15+0007SBJP V0201801N002610210019N0112651N1+02601+02201999999ADDGA1041+004501999GA2071+021001999GF107991999999999999999999MA1101391999999MW1611REMMET062METAR SBJP 220100Z 18005KT 9999 -RA SCT015 BKN070 26/22 Q1014;
0143827980999992007102202004-07100-034867FM-15+0007SBJP V0201501N002610210019N0112651N1+02501+02201999999ADDGA1041+004501999GA2071+021001999GF107991999999999999999999MA1101391999999REMMET058METAR SBJP 220200Z 15005KT 9999 SCT015 BKN070 25/22 Q1014;
0143827980999992007102203004-07100-034867FM-15+0007SBJP V0201601N003110210019N0112651N1+02501+02201999999ADDGA1041+004501999GA2071+021001999GF107991999999999999999999MA1101291999999REMMET058METAR SBJP 220300Z 16006KT 9999 SCT015 BKN070 25/22 Q1013;
0143827980999992007102204004-07100-034867FM-15+0007SBJP V0201601N002110210019N0112651N1+02501+02201999999ADDGA1041+004501999GA2071+021001999GF107991999999999999999999MA1101291999999REMMET058METAR SBJP 220400Z 16004KT 9999 SCT015 BKN070 25/22 Q1013;
0143827980999992007102205004-07100-034867FM-15+0007SBJP V0201701N002110210019N0112651N1+02501+02201999999ADDGA1041+004501999GA2071+021001999GF107991999999999999999999MA1101191999999REMMET058METAR SBJP 220500Z 17004KT 9999 SCT015 BKN070 25/22 Q1012;
0143827980999992007102206004-07100-034867FM-15+0007SBJP V0201801N002110210019N0112651N1+02501+02201999999ADDGA1041+006001999GA2071+021001999GF107991999999999999999999MA1101191999999REMMET058METAR SBJP 220600Z 18004KT 9999 SCT020 BKN070 25/22 Q1012;
0143827980999992007102207004-07100-034867FM-15+0007SBJP V0201801N002110210019N0112651N1+02401+02201999999ADDGA1041+006001999GA2071+021001999GF107991999999999999999999MA1101291999999REMMET058METAR SBJP 220700Z 18004KT 9999 SCT020 BKN070 24/22 Q1013;
0143827980999992007102208004-07100-034867FM-15+0007SBJP V0201801N001010210019N0112651N1+02401+02201999999ADDGA1041+006001999GA2071+021001999GF107991999999999999999999MA1101391999999REMMET058METAR SBJP 220800Z 18002KT 9999 SCT020 BKN070 24/22 Q1014;
0143827980999992007102209004-07100-034867FM-15+0007SBJP V0202401N001012200019N0112651N1+02501+02201999999ADDGA1041+006001999GA2041+024001999GF104991999999999999999999MA1101391999999REMMET058METAR SBJP 220900Z 24002KT 9999 SCT020 SCT080 25/22 Q1014;
0120827980999992007102210004-07100-034867FM-15+0007SBJP V0201901N003110060019N0112651N1+02601+02201999999ADDGA1071+006001999GF107991999999999999999999MA1101491999999REMMET051METAR SBJP 221000Z 19006KT 9999 BKN020 26/22 Q1015;
0120827980999992007102211004-07100-034867FM-15+0007SBJP V0201801N005110060019N0112651N1+02701+02201999999ADDGA1071+006001999GF107991999999999999999999MA1101491999999REMMET051METAR SBJP 221100Z 18010KT 9999 BKN020 27/22 Q1015;
0120827980999992007102212004-07100-034867FM-15+0007SBJP V0201601N006210075019N0112651N1+02901+02201999999ADDGA1071+007501999GF107991999999999999999999MA1101591999999REMMET051METAR SBJP 221200Z 16012KT 9999 BKN025 29/22 Q1016;
0120827980999992007102213004-07100-034867FM-15+0007SBJP V0201701N004612200019N0112651N1+03001+02101999999ADDGA1041+007501999GF104991999999999999999999MA1101491999999REMMET051METAR SBJP 221300Z 17009KT 9999 SCT025 30/21 Q1015;
0120827980999992007102214004-07100-034867FM-15+0007SBJP V0201601N005112200019N0112651N1+03101+02001999999ADDGA1041+009001999GF104991999999999999999999MA1101391999999REMMET051METAR SBJP 221400Z 16010KT 9999 SCT030 31/20 Q1014;
0120827980999992007102215004-07100-034867FM-15+0007SBJP V0201901N004112200019N0112651N1+03101+02001999999ADDGA1041+009001999GF104991999999999999999999MA1101291999999REMMET051METAR SBJP 221500Z 19008KT 9999 SCT030 31/20 Q1013;
0120827980999992007102216004-07100-034867FM-15+0007SBJP V0201301N005112200019N0112651N1+03201+02001999999ADDGA1041+009001999GF104991999999999999999999MA1101191999999REMMET051METAR SBJP 221600Z 13010KT 9999 SCT030 32/20 Q1012;
0120827980999992007102217004-07100-034867FM-15+0007SBJP V0201401N005112200019N0112651N1+03001+02101999999ADDGA1041+009001999GF104991999999999999999999MA1101191999999REMMET051METAR SBJP 221700Z 14010KT 9999 SCT030 30/21 Q1012;
0120827980999992007102218004-07100-034867FM-15+0007SBJP V0201501N005712200019N0112651N1+02901+02101999999ADDGA1041+009001999GF104991999999999999999999MA1101191999999REMMET051METAR SBJP 221800Z 15011KT 9999 SCT030 29/21 Q1012;
0143827980999992007102219004-07100-034867FM-15+0007SBJP V0201601N005112200019N0112651N1+02801+02201999999ADDGA1041+009001999GA2041+030001999GF104991999999999999999999MA1101191999999REMMET058METAR SBJP 221900Z 16010KT 9999 SCT030 SCT100 28/22 Q1012;
0143827980999992007102220004-07100-034867FM-15+0007SBJP V0201801N004612200019N0112651N1+02701+02201999999ADDGA1041+007501999GA2041+030001999GF104991999999999999999999MA1101291999999REMMET058METAR SBJP 222000Z 18009KT 9999 SCT025 SCT100 27/22 Q1013;
0143827980999992007102221004-07100-034867FM-15+0007SBJP V0201701N004610270019N0112651N1+02601+02201999999ADDGA1041+007501999GA2071+027001999GF107991999999999999999999MA1101291999999REMMET058METAR SBJP 222100Z 17009KT 9999 SCT025 BKN090 26/22 Q1013;
0143827980999992007102222004-07100-034867FM-15+0007SBJP V0201301N006212200019N0112651N1+02501+02101999999ADDGA1041+004501999GA2041+021001999GF104991999999999999999999MA1101391999999REMMET058METAR SBJP 222200Z 13012KT 9999 SCT015 SCT070 25/21 Q1014;
0072827980999992007102223004-07100-034867FM-15+0007SBJP V0201101N00261220001CN0099001N1+02501+02101999999ADDMA1101491999999REMMET045METAR SBJP 222300Z 11005KT CAVOK 25/21 Q1015;
0143827980999992007102300004-07100-034867FM-15+0007SBJP V0201801N001512200019N0112651N1+02401+02101999999ADDGA1041+004801999GA2041+021001999GF104991999999999999999999MA1101491999999REMMET058METAR SBJP 230000Z 18003KT 9999 SCT016 SCT070 24/21 Q1015;
0143827980999992007102301004-07100-034867FM-15+0007SBJP V0201501N001510210019N0112651N1+02401+02101999999ADDGA1041+005101999GA2071+021001999GF107991999999999999999999MA1101491999999REMMET058METAR SBJP 230100Z 15003KT 9999 SCT017 BKN070 24/21 Q1015;
0143827980999992007102302004-07100-034867FM-15+0007SBJP V0201201N002612200019N0112651N1+02401+02201999999ADDGA1041+005101999GA2041+021001999GF104991999999999999999999MA1101391999999REMMET058METAR SBJP 230200Z 12005KT 9999 SCT017 SCT070 24/22 Q1014;
0143827980999992007102303004-07100-034867FM-15+0007SBJP V0201401N001510210019N0112651N1+02501+02201999999ADDGA1041+005101999GA2071+021001999GF107991999999999999999999MA1101291999999REMMET058METAR SBJP 230300Z 14003KT 9999 SCT017 BKN070 25/22 Q1013;
0143827980999992007102304004-07100-034867FM-15+0007SBJP V0209999C000010210019N0112651N1+02401+02201999999ADDGA1041+004801999GA2071+021001999GF107991999999999999999999MA1101291999999REMMET058METAR SBJP 230400Z 00000KT 9999 SCT016 BKN070 24/22 Q1013;
0143827980999992007102305004-07100-034867FM-15+0007SBJP V0201701N001510210019N0112651N1+02401+02201999999ADDGA1041+004801999GA2071+021001999GF107991999999999999999999MA1101191999999REMMET058METAR SBJP 230500Z 17003KT 9999 SCT016 BKN070 24/22 Q1012;
0143827980999992007102306004-07100-034867FM-15+0007SBJP V0202001N001510210019N0112651N1+02401+02201999999ADDGA1041+004801999GA2071+021001999GF107991999999999999999999MA1101191999999REMMET058METAR SBJP 230600Z 20003KT 9999 SCT016 BKN070 24/22 Q1012;
0143827980999992007102307004-07100-034867FM-15+0007SBJP V0201801N001512200019N0112651N1+02401+02201999999ADDGA1021+004801999GA2041+021001999GF104991999999999999999999MA1101291999999REMMET058METAR SBJP 230700Z 18003KT 9999 FEW016 SCT070 24/22 Q1013;
0143827980999992007102308004-07100-034867FM-15+0007SBJP V0202101N001010210019N0112651N1+02401+02201999999ADDGA1041+004801999GA2071+021001999GF107991999999999999999999MA1101291999999REMMET058METAR SBJP 230800Z 21002KT 9999 SCT016 BKN070 24/22 Q1013;
0143827980999992007102309004-07100-034867FM-15+0007SBJP V0201901N002110210019N0112651N1+02501+02201999999ADDGA1041+004801999GA2071+021001999GF107991999999999999999999MA1101391999999REMMET058METAR SBJP 230900Z 19004KT 9999 SCT016 BKN070 25/22 Q1014;
0143827980999992007102310004-07100-034867FM-15+0007SBJP V0201701N005112200019N0112651N1+02701+02201999999ADDGA1041+006001999GA2041+021001999GF104991999999999999999999MA1101491999999REMMET058METAR SBJP 231000Z 17010KT 9999 SCT020 SCT070 27/22 Q1015;
0120827980999992007102311004-07100-034867FM-15+0007SBJP V0201701N006210075019N0112651N1+02801+02201999999ADDGA1071+007501999GF107991999999999999999999MA1101591999999REMMET051METAR SBJP 231100Z 17012KT 9999 BKN025 28/22 Q1016;
0120827980999992007102312004-07100-034867FM-15+0007SBJP V0201501N005110075019N0112651N1+02801+02201999999ADDGA1071+007501999GF107991999999999999999999MA1101591999999REMMET051METAR SBJP 231200Z 15010KT 9999 BKN025 28/22 Q1016;
0120827980999992007102313004-07100-034867FM-15+0007SBJP V0201601N005710075019N0112651N1+02901+02201999999ADDGA1071+007501999GF107991999999999999999999MA1101491999999REMMET051METAR SBJP 231300Z 16011KT 9999 BKN025 29/22 Q1015;
0120827980999992007102314004-07100-034867FM-15+0007SBJP V0201601N005110075019N0112651N1+02901+02001999999ADDGA1071+007501999GF107991999999999999999999MA1101491999999REMMET051METAR SBJP 231400Z 16010KT 9999 BKN025 29/20 Q1015;
0120827980999992007102316004-07100-034867FM-15+0007SBJP V0201301N005710075019N0112651N1+03001+02101999999ADDGA1071+007501999GF107991999999999999999999MA1101291999999REMMET051METAR SBJP 231600Z 13011KT 9999 BKN025 30/21 Q1013;
0120827980999992007102317004-07100-034867FM-15+0007SBJP V0201201N005712200019N0112651N1+02901+02201999999ADDGA1041+007501999GF104991999999999999999999MA1101291999999REMMET051METAR SBJP 231700Z 12011KT 9999 SCT025 29/22 Q1013;
0143827980999992007102318004-07100-034867FM-15+0007SBJP V0201301N005710210019N0112651N1+02701+02101999999ADDGA1041+007501999GA2071+021001999GF107991999999999999999999MA1101291999999REMMET058METAR SBJP 231800Z 13011KT 9999 SCT025 BKN070 27/21 Q1013;
0143827980999992007102319004-07100-034867FM-15+0007SBJP V0201301N005110210019N0112651N1+02701+01901999999ADDGA1041+006001999GA2071+021001999GF107991999999999999999999MA1101291999999REMMET058METAR SBJP 231900Z 13010KT 9999 SCT020 BKN070 27/19 Q1013;
0143827980999992007102320004-07100-034867FM-15+0007SBJP V0201401N003110210019N0112651N1+02701+02101999999ADDGA1041+006001999GA2071+021001999GF107991999999999999999999MA1101291999999REMMET058METAR SBJP 232000Z 14006KT 9999 SCT020 BKN070 27/21 Q1013;
0143827980999992007102321004-07100-034867FM-15+0007SBJP V0201401N003110210019N0112651N1+02701+02101999999ADDGA1041+006001999GA2071+021001999GF107991999999999999999999MA1101291999999REMMET058METAR SBJP 232100Z 14006KT 9999 SCT020 BKN070 27/21 Q1013;
0143827980999992007102322004-07100-034867FM-15+0007SBJP V0201701N003110210019N0112651N1+02601+02201999999ADDGA1041+006001999GA2071+021001999GF107991999999999999999999MA1101391999999REMMET058METAR SBJP 232200Z 17006KT 9999 SCT020 BKN070 26/22 Q1014;
0153827980999992007102323004-07100-034867FM-15+0007SBJP V0201601N003610210019N0112651N1+02501+02301999999ADDGA1041+006001999GA2071+021001999GF107991999999999999999999MA1101491999999MW1611REMMET062METAR SBJP 232300Z 16007KT 9999 -RA SCT020 BKN070 25/23 Q1015;
0143827980999992007102400004-07100-034867FM-15+0007SBJP V0201901N002612200019N0112651N1+02401+02201999999ADDGA1041+006001999GA2041+021001999GF104991999999999999999999MA1101491999999REMMET058METAR SBJP 240000Z 19005KT 9999 SCT020 SCT070 24/22 Q1015;
0143827980999992007102401004-07100-034867FM-15+0007SBJP V0201901N002112200019N0112651N1+02401+02201999999ADDGA1021+006001999GA2041+021001999GF104991999999999999999999MA1101491999999REMMET058METAR SBJP 240100Z 19004KT 9999 FEW020 SCT070 24/22 Q1015;
0120827980999992007102402004-07100-034867FM-15+0007SBJP V0202001N002112200019N0112651N1+02401+02201999999ADDGA1041+005401999GF104991999999999999999999MA1101491999999REMMET051METAR SBJP 240200Z 20004KT 9999 SCT018 24/22 Q1015;
0120827980999992007102403004-07100-034867FM-15+0007SBJP V0202101N001512200019N0112651N1+02401+02201999999ADDGA1041+005401999GF104991999999999999999999MA1101391999999REMMET051METAR SBJP 240300Z 21003KT 9999 SCT018 24/22 Q1014;
0120827980999992007102404004-07100-034867FM-15+0007SBJP V0201901N001512200019N0112651N1+02401+02201999999ADDGA1041+005401999GF104991999999999999999999MA1101391999999REMMET051METAR SBJP 240400Z 19003KT 9999 SCT018 24/22 Q1014;
0120827980999992007102405004-07100-034867FM-15+0007SBJP V0201701N003112200019N0112651N1+02401+02201999999ADDGA1041+005401999GF104991999999999999999999MA1101391999999REMMET051METAR SBJP 240500Z 17006KT 9999 SCT018 24/22 Q1014;
0120827980999992007102406004-07100-034867FM-15+0007SBJP V0201901N002112200019N0112651N1+02401+02201999999ADDGA1041+005401999GF104991999999999999999999MA1101391999999REMMET051METAR SBJP 240600Z 19004KT 9999 SCT018 24/22 Q1014;
0143827980999992007102407004-07100-034867FM-15+0007SBJP V0201801N002612200019N0112651N1+02401+02201999999ADDGA1041+005401999GA2041+027001999GF104991999999999999999999MA1101391999999REMMET058METAR SBJP 240700Z 18005KT 9999 SCT018 SCT090 24/22 Q1014;
0120827980999992007102408004-07100-034867FM-15+0007SBJP V0201601N002612200019N0112651N1+02401+02201999999ADDGA1041+005401999GF104991999999999999999999MA1101491999999REMMET051METAR SBJP 240800Z 16005KT 9999 SCT018 24/22 Q1015;
0120827980999992007102409004-07100-034867FM-15+0007SBJP V0201801N002612200019N0112651N1+02501+02201999999ADDGA1041+006001999GF104991999999999999999999MA1101491999999REMMET051METAR SBJP 240900Z 18005KT 9999 SCT020 25/22 Q1015;
0143827980999992007102410004-07100-034867FM-15+0007SBJP V0201401N004112200019N0112651N1+02601+02201999999ADDGA1041+006001999GA2041+021001999GF104991999999999999999999MA1101591999999REMMET058METAR SBJP 241000Z 14008KT 9999 SCT020 SCT070 26/22 Q1016;
0120827980999992007102411004-07100-034867FM-15+0007SBJP V0201401N005112200019N0112651N1+02901+02101999999ADDGA1041+006001999GF104991999999999999999999MA1101591999999REMMET051METAR SBJP 241100Z 14010KT 9999 SCT020 29/21 Q1016;
0120827980999992007102412004-07100-034867FM-15+0007SBJP V0201201N006210060019N0112651N1+02901+02001999999ADDGA1071+006001999GF107991999999999999999999MA1101591999999REMMET051METAR SBJP 241200Z 12012KT 9999 BKN020 29/20 Q1016;
0120827980999992007102413004-07100-034867FM-15+0007SBJP V0201401N005110075019N0112651N1+02901+02101999999ADDGA1071+007501999GF107991999999999999999999MA1101591999999REMMET051METAR SBJP 241300Z 14010KT 9999 BKN025 29/21 Q1016;
0120827980999992007102414004-07100-034867FM-15+0007SBJP V0201401N005710090019N0112651N1+03001+02001999999ADDGA1071+009001999GF107991999999999999999999MA1101491999999REMMET051METAR SBJP 241400Z 14011KT 9999 BKN030 30/20 Q1015;
0120827980999992007102415004-07100-034867FM-15+0007SBJP V0201401N006212200019N0112651N1+03001+01901999999ADDGA1041+009001999GF104991999999999999999999MA1101391999999REMMET051METAR SBJP 241500Z 14012KT 9999 SCT030 30/19 Q1014;
0120827980999992007102416004-07100-034867FM-15+0007SBJP V0201601N006712200019N0112651N1+03001+01901999999ADDGA1041+009001999GF104991999999999999999999MA1101291999999REMMET051METAR SBJP 241600Z 16013KT 9999 SCT030 30/19 Q1013;
0120827980999992007102417004-07100-034867FM-15+0007SBJP V0201701N007712200019N0112651N1+03001+02101999999ADDGA1041+009001999GF104991999999999999999999MA1101291999999REMMET051METAR SBJP 241700Z 17015KT 9999 SCT030 30/21 Q1013;
0120827980999992007102418004-07100-034867FM-15+0007SBJP V0201701N006712200019N0112651N1+02901+02001999999ADDGA1041+009001999GF104991999999999999999999MA1101291999999REMMET051METAR SBJP 241800Z 17013KT 9999 SCT030 29/20 Q1013;
0120827980999992007102419004-07100-034867FM-15+0007SBJP V0201701N006212200019N0112651N1+02801+02101999999ADDGA1041+009001999GF104991999999999999999999MA1101291999999REMMET051METAR SBJP 241900Z 17012KT 9999 SCT030 28/21 Q1013;
0120827980999992007102420004-07100-034867FM-15+0007SBJP V0201701N005112200019N0112651N1+02701+02101999999ADDGA1041+009001999GF104991999999999999999999MA1101291999999REMMET051METAR SBJP 242000Z 17010KT 9999 SCT030 27/21 Q1013;
0120827980999992007102421004-07100-034867FM-15+0007SBJP V0201701N004612200019N0112651N1+02601+02101999999ADDGA1021+007501999GF102991999999999999999999MA1101291999999REMMET051METAR SBJP 242100Z 17009KT 9999 FEW025 26/21 Q1013;
0120827980999992007102422004-07100-034867FM-15+0007SBJP V0201901N003112200019N0112651N1+02501+02101999999ADDGA1021+007501999GF102991999999999999999999MA1101391999999REMMET051METAR SBJP 242200Z 19006KT 9999 FEW025 25/21 Q1014;
0120827980999992007102423004-07100-034867FM-15+0007SBJP V0201801N003112200019N0112651N1+02501+02101999999ADDGA1021+007501999GF102991999999999999999999MA1101391999999REMMET051METAR SBJP 242300Z 18006KT 9999 FEW025 25/21 Q1014;
0120827980999992007102500004-07100-034867FM-15+0007SBJP V0201801N002112200019N0112651N1+02501+02101999999ADDGA1021+007501999GF102991999999999999999999MA1101491999999REMMET051METAR SBJP 250000Z 18004KT 9999 FEW025 25/21 Q1015;
0120827980999992007102501004-07100-034867FM-15+0007SBJP V0201601N002112200019N0112651N1+02401+02101999999ADDGA1021+007501999GF102991999999999999999999MA1101491999999REMMET051METAR SBJP 250100Z 16004KT 9999 FEW025 24/21 Q1015;
0143827980999992007102502004-07100-034867FM-15+0007SBJP V0201601N002610210019N0112651N1+02501+02101999999ADDGA1021+007501999GA2071+021001999GF107991999999999999999999MA1101491999999REMMET058METAR SBJP 250200Z 16005KT 9999 FEW025 BKN070 25/21 Q1015;
0153827980999992007102503004-07100-034867FM-15+0007SBJP V0201501N003610210019N0112651N1+02401+02201999999ADDGA1041+006001999GA2071+021001999GF107991999999999999999999MA1101391999999MW1611REMMET062METAR SBJP 250300Z 15007KT 9999 -RA SCT020 BKN070 24/22 Q1014;
0143827980999992007102504004-07100-034867FM-15+0007SBJP V0201601N003112200019N0112651N1+02401+02101999999ADDGA1041+006001999GA2041+021001999GF104991999999999999999999MA1101391999999REMMET058METAR SBJP 250400Z 16006KT 9999 SCT020 SCT070 24/21 Q1014;
0120827980999992007102505004-07100-034867FM-15+0007SBJP V0201501N002612200019N0112651N1+02401+02101999999ADDGA1021+006001999GF102991999999999999999999MA1101291999999REMMET051METAR SBJP 250500Z 15005KT 9999 FEW020 24/21 Q1013;
0143827980999992007102506004-07100-034867FM-15+0007SBJP V0201601N003112200019N0112651N1+02401+02101999999ADDGA1021+006001999GA2041+021001999GF104991999999999999999999MA1101291999999REMMET058METAR SBJP 250600Z 16006KT 9999 FEW020 SCT070 24/21 Q1013;
0143827980999992007102508004-07100-034867FM-15+0007SBJP V0201801N002612200019N0112651N1+02401+02101999999ADDGA1021+006001999GA2041+021001999GF104991999999999999999999MA1101391999999REMMET058METAR SBJP 250800Z 18005KT 9999 FEW020 SCT070 24/21 Q1014;
0143827980999992007102509004-07100-034867FM-15+0007SBJP V0201501N004110210019N0112651N1+02401+02001999999ADDGA1041+006001999GA2071+021001999GF107991999999999999999999MA1101391999999REMMET058METAR SBJP 250900Z 15008KT 9999 SCT020 BKN070 24/20 Q1014;
0143827980999992007102510004-07100-034867FM-15+0007SBJP V0201601N006712200019N0112651N1+02701+02001999999ADDGA1041+006001999GA2041+021001999GF104991999999999999999999MA1101491999999REMMET058METAR SBJP 251000Z 16013KT 9999 SCT020 SCT070 27/20 Q1015;
0143827980999992007102511004-07100-034867FM-15+0007SBJP V0201701N007210210019N0112651N1+02801+02001999999ADDGA1041+007501999GA2071+021001999GF107991999999999999999999MA1101491999999REMMET058METAR SBJP 251100Z 17014KT 9999 SCT025 BKN070 28/20 Q1015;
0143827980999992007102512004-07100-034867FM-15+0007SBJP V0201601N007210210019N0112651N1+02901+02001999999ADDGA1041+007501999GA2071+021001999GF107991999999999999999999MA1101491999999REMMET058METAR SBJP 251200Z 16014KT 9999 SCT025 BKN070 29/20 Q1015;
0136827980999992007102513004-07100-034867FM-15+0007SBJP V0201601N00721220001CN0112651N1+02901+02001999999ADDGA1071+007501999GA2041+021001999MA1101491999999REMMET058METAR SBJP 251300Z 16014KT 9999 BKN025 SCT070 29/20 Q1015;EQDQ01+000042SCOTCV
0136827980999992007102514004-07100-034867FM-15+0007SBJP V0201701N00721220001CN0112651N1+02901+02101999999ADDGA1071+007501999GA2041+021001999MA1101391999999REMMET058METAR SBJP 251400Z 17014KT 9999 BKN025 SCT070 29/21 Q1014;EQDQ01+000042SCOTCV
0154827980999992007102515004-07100-034867FM-15+0007SBJP V0201501N006712200019N0112651N1+03001+01801999999ADDGA1021+007501999GA2041+021001999GF104991999999999999999999MA1101291999999OC101291REMMET061METAR SBJP 251500Z 15013G25KT 9999 FEW025 SCT070 30/18 Q1013;
0143827980999992007102516004-07100-034867FM-15+0007SBJP V0201601N007212200019N0112651N1+03001+02101999999ADDGA1021+007501999GA2041+021001999GF104991999999999999999999MA1101291999999REMMET058METAR SBJP 251600Z 16014KT 9999 FEW025 SCT070 30/21 Q1013;
0143827980999992007102517004-07100-034867FM-15+0007SBJP V0201501N007712200019N0112651N1+02901+01901999999ADDGA1021+007501999GA2041+021001999GF104991999999999999999999MA1101191999999REMMET058METAR SBJP 251700Z 15015KT 9999 FEW025 SCT070 29/19 Q1012;
0120827980999992007102518004-07100-034867FM-15+0007SBJP V0201701N006212200019N0112651N1+02901+02001999999ADDGA1041+007501999GF104991999999999999999999MA1101191999999REMMET051METAR SBJP 251800Z 17012KT 9999 SCT025 29/20 Q1012;
0120827980999992007102519004-07100-034867FM-15+0007SBJP V0201601N006212200019N0112651N1+02701+02001999999ADDGA1041+007501999GF104991999999999999999999MA1101191999999REMMET051METAR SBJP 251900Z 16012KT 9999 SCT025 27/20 Q1012;
0120827980999992007102520004-07100-034867FM-15+0007SBJP V0201801N004112200019N0112651N1+02501+02201999999ADDGA1041+007501999GF104991999999999999999999MA1101291999999REMMET051METAR SBJP 252000Z 18008KT 9999 SCT025 25/22 Q1013;
0120827980999992007102521004-07100-034867FM-15+0007SBJP V0201801N003112200019N0112651N1+02501+02101999999ADDGA1041+007501999GF104991999999999999999999MA1101291999999REMMET051METAR SBJP 252100Z 18006KT 9999 SCT025 25/21 Q1013;
0120827980999992007102522004-07100-034867FM-15+0007SBJP V0202001N002112200019N0112651N1+02401+02101999999ADDGA1021+007501999GF102991999999999999999999MA1101391999999REMMET051METAR SBJP 252200Z 20004KT 9999 FEW025 24/21 Q1014;
0143827980999992007102523004-07100-034867FM-15+0007SBJP V0201901N002112200019N0112651N1+02401+02101999999ADDGA1021+007501999GA2041+021001999GF104991999999999999999999MA1101391999999REMMET058METAR SBJP 252300Z 19004KT 9999 FEW025 SCT070 24/21 Q1014;
0120827980999992007102600004-07100-034867FM-15+0007SBJP V0201901N001512200019N0112651N1+02301+02101999999ADDGA1041+007501999GF104991999999999999999999MA1101491999999REMMET051METAR SBJP 260000Z 19003KT 9999 SCT025 23/21 Q1015;
0120827980999992007102601004-07100-034867FM-15+0007SBJP V0202001N001512200019N0112651N1+02401+02101999999ADDGA1041+007501999GF104991999999999999999999MA1101491999999REMMET051METAR SBJP 260100Z 20003KT 9999 SCT025 24/21 Q1015;
0120827980999992007102602004-07100-034867FM-15+0007SBJP V0202001N001512200019N0112651N1+02301+02001999999ADDGA1041+007501999GF104991999999999999999999MA1101391999999REMMET051METAR SBJP 260200Z 20003KT 9999 SCT025 23/20 Q1014;
0130827980999992007102603004-07100-034867FM-15+0007SBJP V0202101N002112200019N0112651N1+02301+02101999999ADDGA1041+007501999GF104991999999999999999999MA1101391999999MW1611REMMET055METAR SBJP 260300Z 21004KT 9999 -RA SCT025 23/21 Q1014;
0143827980999992007102604004-07100-034867FM-15+0007SBJP V0202001N001512200019N0112651N1+02201+02101999999ADDGA1041+006001999GA2041+021001999GF104991999999999999999999MA1101291999999REMMET058METAR SBJP 260400Z 20003KT 9999 SCT020 SCT070 22/21 Q1013;
0120827980999992007102605004-07100-034867FM-15+0007SBJP V0202001N001512200019N0112651N1+02201+02001999999ADDGA1021+006001999GF102991999999999999999999MA1101191999999REMMET051METAR SBJP 260500Z 20003KT 9999 FEW020 22/20 Q1012;
0120827980999992007102606004-07100-034867FM-15+0007SBJP V0202301N001512200019N0112651N1+02201+02001999999ADDGA1041+006001999GF104991999999999999999999MA1101191999999REMMET051METAR SBJP 260600Z 23003KT 9999 SCT020 22/20 Q1012;
0120827980999992007102607004-07100-034867FM-15+0007SBJP V0202301N002112200019N0112651N1+02201+02001999999ADDGA1041+006001999GF104991999999999999999999MA1101291999999REMMET051METAR SBJP 260700Z 23004KT 9999 SCT020 22/20 Q1013;
0120827980999992007102608004-07100-034867FM-15+0007SBJP V0202201N001512200019N0112651N1+02201+02001999999ADDGA1021+006001999GF102991999999999999999999MA1101291999999REMMET051METAR SBJP 260800Z 22003KT 9999 FEW020 22/20 Q1013;
0120827980999992007102609004-07100-034867FM-15+0007SBJP V0202201N002112200019N0112651N1+02201+02101999999ADDGA1021+006001999GF102991999999999999999999MA1101291999999REMMET051METAR SBJP 260900Z 22004KT 9999 FEW020 22/21 Q1013;
0120827980999992007102610004-07100-034867FM-15+0007SBJP V0201901N002112200019N0112651N1+02601+02201999999ADDGA1021+006001999GF102991999999999999999999MA1101391999999REMMET051METAR SBJP 261000Z 19004KT 9999 FEW020 26/22 Q1014;
0120827980999992007102611004-07100-034867FM-15+0007SBJP V0201601N005112200019N0112651N1+02701+02001999999ADDGA1041+006001999GF104991999999999999999999MA1101491999999REMMET051METAR SBJP 261100Z 16010KT 9999 SCT020 27/20 Q1015;
0120827980999992007102612004-07100-034867FM-15+0007SBJP V0201401N005110060019N0112651N1+02701+02001999999ADDGA1071+006001999GF107991999999999999999999MA1101491999999REMMET051METAR SBJP 261200Z 14010KT 9999 BKN020 27/20 Q1015;
0120827980999992007102613004-07100-034867FM-15+0007SBJP V0201501N005110060019N0112651N1+02801+01801999999ADDGA1071+006001999GF107991999999999999999999MA1101491999999REMMET051METAR SBJP 261300Z 15010KT 9999 BKN020 28/18 Q1015;
0120827980999992007102614004-07100-034867FM-15+0007SBJP V0201601N005110060019N0112651N1+02901+02001999999ADDGA1071+006001999GF107991999999999999999999MA1101391999999REMMET051METAR SBJP 261400Z 16010KT 9999 BKN020 29/20 Q1014;
0120827980999992007102615004-07100-034867FM-15+0007SBJP V0201501N005110060019N0112651N1+03001+02101999999ADDGA1071+006001999GF107991999999999999999999MA1101391999999REMMET051METAR SBJP 261500Z 15010KT 9999 BKN020 30/21 Q1014;
0120827980999992007102616004-07100-034867FM-15+0007SBJP V0201301N005112200019N0112651N1+03001+01901999999ADDGA1041+007501999GF104991999999999999999999MA1101291999999REMMET051METAR SBJP 261600Z 13010KT 9999 SCT025 30/19 Q1013;
0120827980999992007102617004-07100-034867FM-15+0007SBJP V0201401N004612200019N0112651N1+03001+02001999999ADDGA1041+009001999GF104991999999999999999999MA1101191999999REMMET051METAR SBJP 261700Z 14009KT 9999 SCT030 30/20 Q1012;
0120827980999992007102618004-07100-034867FM-15+0007SBJP V0201601N004612200019N0112651N1+03001+02101999999ADDGA1041+009001999GF104991999999999999999999MA1101191999999REMMET051METAR SBJP 261800Z 16009KT 9999 SCT030 30/21 Q1012;
0120827980999992007102619004-07100-034867FM-15+0007SBJP V0201601N005112200019N0112651N1+02801+02001999999ADDGA1041+009001999GF104991999999999999999999MA1101191999999REMMET051METAR SBJP 261900Z 16010KT 9999 SCT030 28/20 Q1012;
0120827980999992007102621004-07100-034867FM-15+0007SBJP V0201701N003612200019N0112651N1+02601+02101999999ADDGA1041+007501999GF104991999999999999999999MA1101291999999REMMET051METAR SBJP 262100Z 17007KT 9999 SCT025 26/21 Q1013;
0072827980999992007102622004-07100-034867FM-15+0007SBJP V0201801N00261220001CN0099001N1+02401+02101999999ADDMA1101391999999REMMET045METAR SBJP 262200Z 18005KT CAVOK 24/21 Q1014;
0072827980999992007102623004-07100-034867FM-15+0007SBJP V0201801N00211220001CN0099001N1+02401+02101999999ADDMA1101391999999REMMET045METAR SBJP 262300Z 18004KT CAVOK 24/21 Q1014;
0072827980999992007102700004-07100-034867FM-15+0007SBJP V0201901N00151220001CN0099001N1+02401+02101999999ADDMA1101491999999REMMET045METAR SBJP 270000Z 19003KT CAVOK 24/21 Q1015;
0072827980999992007102701004-07100-034867FM-15+0007SBJP V0201901N00151220001CN0099001N1+02301+02101999999ADDMA1101491999999REMMET045METAR SBJP 270100Z 19003KT CAVOK 23/21 Q1015;
0072827980999992007102702004-07100-034867FM-15+0007SBJP V0202001N00211220001CN0099001N1+02301+02101999999ADDMA1101391999999REMMET045METAR SBJP 270200Z 20004KT CAVOK 23/21 Q1014;
0072827980999992007102703004-07100-034867FM-15+0007SBJP V0202101N00101220001CN0099001N1+02301+02101999999ADDMA1101391999999REMMET045METAR SBJP 270300Z 21002KT CAVOK 23/21 Q1014;
0120827980999992007102704004-07100-034867FM-15+0007SBJP V0202201N002112200019N0112651N1+02301+02101999999ADDGA1041+007501999GF104991999999999999999999MA1101291999999REMMET051METAR SBJP 270400Z 22004KT 9999 SCT025 23/21 Q1013;
0120827980999992007102705004-07100-034867FM-15+0007SBJP V0202001N002112200019N0112651N1+02301+02201999999ADDGA1041+007501999GF104991999999999999999999MA1101291999999REMMET051METAR SBJP 270500Z 20004KT 9999 SCT025 23/22 Q1013;
0120827980999992007102706004-07100-034867FM-15+0007SBJP V0202001N002110060019N0112651N1+02401+02101999999ADDGA1071+006001999GF107991999999999999999999MA1101191999999REMMET051METAR SBJP 270600Z 20004KT 9999 BKN020 24/21 Q1012;
0120827980999992007102707004-07100-034867FM-15+0007SBJP V0202001N002110060019N0112651N1+02401+02101999999ADDGA1071+006001999GF107991999999999999999999MA1101191999999REMMET051METAR SBJP 270700Z 20004KT 9999 BKN020 24/21 Q1012;
0120827980999992007102708004-07100-034867FM-15+0007SBJP V0202301N002110060019N0112651N1+02301+02201999999ADDGA1071+006001999GF107991999999999999999999MA1101291999999REMMET051METAR SBJP 270800Z 23004KT 9999 BKN020 23/22 Q1013;
0120827980999992007102709004-07100-034867FM-15+0007SBJP V0202001N002110060019N0112651N1+02301+02201999999ADDGA1071+006001999GF107991999999999999999999MA1101291999999REMMET051METAR SBJP 270900Z 20004KT 9999 BKN020 23/22 Q1013;
0153827980999992007102710004-07100-034867FM-15+0007SBJP V0209999C00001220001CN0060001N1+02401+02201999999ADDGA1041+004801999GA2071+004801999GF107991999999999999999999MA1101391999999MW1611REMMET062METAR SBJP 271000Z 00000KT 6000 -RA SCT016 BKN016 24/22 Q1014;
0143827980999992007102711004-07100-034867FM-15+0007SBJP V0209999C000010048019N0112651N1+02501+02301999999ADDGA1041+003601999GA2071+004801999GF107991999999999999999999MA1101491999999REMMET058METAR SBJP 271100Z 00000KT 9999 SCT012 BKN016 25/23 Q1015;
0120827980999992007102712004-07100-034867FM-15+0007SBJP V0201801N003612200019N0112651N1+02801+02101999999ADDGA1041+006001999GF104991999999999999999999MA1101391999999REMMET051METAR SBJP 271200Z 18007KT 9999 SCT020 28/21 Q1014;
0120827980999992007102713004-07100-034867FM-15+0007SBJP V0201601N005112200019N0112651N1+02901+02001999999ADDGA1041+007501999GF104991999999999999999999MA1101391999999REMMET051METAR SBJP 271300Z 16010KT 9999 SCT025 29/20 Q1014;
0120827980999992007102714004-07100-034867FM-15+0007SBJP V0201501N005112200019N0112651N1+03001+02001999999ADDGA1041+009001999GF104991999999999999999999MA1101391999999REMMET051METAR SBJP 271400Z 15010KT 9999 SCT030 30/20 Q1014;
0120827980999992007102715004-07100-034867FM-15+0007SBJP V0201301N004612200019N0112651N1+03001+02201999999ADDGA1041+009001999GF104991999999999999999999MA1101291999999REMMET051METAR SBJP 271500Z 13009KT 9999 SCT030 30/22 Q1013;
0120827980999992007102716004-07100-034867FM-15+0007SBJP V0201501N003612200019N0112651N1+03001+02201999999ADDGA1041+009001999GF104991999999999999999999MA1101191999999REMMET051METAR SBJP 271600Z 15007KT 9999 SCT030 30/22 Q1012;
0120827980999992007102717004-07100-034867FM-15+0007SBJP V0201601N005112200019N0112651N1+02901+02101999999ADDGA1041+009001999GF104991999999999999999999MA1101081999999REMMET051METAR SBJP 271700Z 16010KT 9999 SCT030 29/21 Q1011;
0120827980999992007102718004-07100-034867FM-15+0007SBJP V0201401N004112200019N0112651N1+02901+02101999999ADDGA1041+009001999GF104991999999999999999999MA1101081999999REMMET051METAR SBJP 271800Z 14008KT 9999 SCT030 29/21 Q1011;
0120827980999992007102719004-07100-034867FM-15+0007SBJP V0201301N003612200019N0112651N1+02801+02201999999ADDGA1041+009001999GF104991999999999999999999MA1101081999999REMMET051METAR SBJP 271900Z 13007KT 9999 SCT030 28/22 Q1011;
0120827980999992007102720004-07100-034867FM-15+0007SBJP V0201501N003112200019N0112651N1+02701+02201999999ADDGA1021+009001999GF102991999999999999999999MA1101191999999REMMET051METAR SBJP 272000Z 15006KT 9999 FEW030 27/22 Q1012;
0072827980999992007102721004-07100-034867FM-15+0007SBJP V0201501N00211220001CN0099001N1+02601+02201999999ADDMA1101191999999REMMET045METAR SBJP 272100Z 15004KT CAVOK 26/22 Q1012;
0072827980999992007102722004-07100-034867FM-15+0007SBJP V0201301N00311220001CN0099001N1+02501+02201999999ADDMA1101291999999REMMET045METAR SBJP 272200Z 13006KT CAVOK 25/22 Q1013;
0072827980999992007102723004-07100-034867FM-15+0007SBJP V0201301N00311220001CN0099001N1+02501+02201999999ADDMA1101391999999REMMET045METAR SBJP 272300Z 13006KT CAVOK 25/22 Q1014;
0072827980999992007102800004-07100-034867FM-15+0007SBJP V0201301N00261220001CN0099001N1+02501+02101999999ADDMA1101491999999REMMET045METAR SBJP 280000Z 13005KT CAVOK 25/21 Q1015;
0072827980999992007102801004-07100-034867FM-15+0007SBJP V0201401N00261220001CN0099001N1+02401+02201999999ADDMA1101391999999REMMET045METAR SBJP 280100Z 14005KT CAVOK 24/22 Q1014;
0072827980999992007102802004-07100-034867FM-15+0007SBJP V0201201N00261220001CN0099001N1+02501+02201999999ADDMA1101391999999REMMET045METAR SBJP 280200Z 12005KT CAVOK 25/22 Q1014;
0072827980999992007102803004-07100-034867FM-15+0007SBJP V0201201N00261220001CN0099001N1+02501+02201999999ADDMA1101291999999REMMET045METAR SBJP 280300Z 12005KT CAVOK 25/22 Q1013;
0120827980999992007102804004-07100-034867FM-15+0007SBJP V0201301N002112200019N0112651N1+02501+02201999999ADDGA1021+006001999GF102991999999999999999999MA1101191999999REMMET051METAR SBJP 280400Z 13004KT 9999 FEW020 25/22 Q1012;
0120827980999992007102805004-07100-034867FM-15+0007SBJP V0201301N002112200019N0112651N1+02501+02201999999ADDGA1041+006001999GF104991999999999999999999MA1101191999999REMMET051METAR SBJP 280500Z 13004KT 9999 SCT020 25/22 Q1012;
0120827980999992007102806004-07100-034867FM-15+0007SBJP V0201301N002612200019N0112651N1+02401+02201999999ADDGA1041+006001999GF104991999999999999999999MA1101191999999REMMET051METAR SBJP 280600Z 13005KT 9999 SCT020 24/22 Q1012;
0120827980999992007102807004-07100-034867FM-15+0007SBJP V0201501N002112200019N0112651N1+02401+02201999999ADDGA1041+006001999GF104991999999999999999999MA1101191999999REMMET051METAR SBJP 280700Z 15004KT 9999 SCT020 24/22 Q1012;
0120827980999992007102808004-07100-034867FM-15+0007SBJP V0201901N001012200019N0112651N1+02401+02201999999ADDGA1041+006001999GF104991999999999999999999MA1101191999999REMMET051METAR SBJP 280800Z 19002KT 9999 SCT020 24/22 Q1012;
0143827980999992007102809004-07100-034867FM-15+0007SBJP V0209999C000012200019N0112651N1+02401+02201999999ADDGA1021+006001999GA2041+021001999GF104991999999999999999999MA1101291999999REMMET058METAR SBJP 280900Z 00000KT 9999 FEW020 SCT070 24/22 Q1013;
0143827980999992007102810004-07100-034867FM-15+0007SBJP V0201401N003612200019N0112651N1+02701+02201999999ADDGA1041+004501999GA2041+021001999GF104991999999999999999999MA1101291999999REMMET058METAR SBJP 281000Z 14007KT 9999 SCT015 SCT070 27/22 Q1013;
0136827980999992007102811004-07100-034867FM-15+0007SBJP V0201401N00361220001CN0112651N1+02901+02301999999ADDGA1071+005101999GA2041+021001999MA1101291999999REMMET058METAR SBJP 281100Z 14007KT 9999 BKN017 SCT070 29/23 Q1013;EQDQ01+000042SCOTCV
0143827980999992007102812004-07100-034867FM-15+0007SBJP V0201401N004612200019N0112651N1+02901+02201999999ADDGA1041+007501999GA2041+027001999GF104991999999999999999999MA1101391999999REMMET058METAR SBJP 281200Z 14009KT 9999 SCT025 SCT090 29/22 Q1014;
0120827980999992007102813004-07100-034867FM-15+0007SBJP V0201501N005112200019N0112651N1+03001+02201999999ADDGA1041+007501999GF104991999999999999999999MA1101291999999REMMET051METAR SBJP 281300Z 15010KT 9999 SCT025 30/22 Q1013;
0120827980999992007102814004-07100-034867FM-15+0007SBJP V0201301N004612200019N0112651N1+02901+02101999999ADDGA1041+009001999GF104991999999999999999999MA1101291999999REMMET051METAR SBJP 281400Z 13009KT 9999 SCT030 29/21 Q1013;
0120827980999992007102815004-07100-034867FM-15+0007SBJP V0201501N004612200019N0112651N1+03001+02201999999ADDGA1041+009001999GF104991999999999999999999MA1101191999999REMMET051METAR SBJP 281500Z 15009KT 9999 SCT030 30/22 Q1012;
0120827980999992007102816004-07100-034867FM-15+0007SBJP V0201301N005110090019N0112651N1+02901+02101999999ADDGA1071+009001999GF107991999999999999999999MA1101081999999REMMET051METAR SBJP 281600Z 13010KT 9999 BKN030 29/21 Q1011;
0120827980999992007102817004-07100-034867FM-15+0007SBJP V0201101N004610090019N0112651N1+02901+02101999999ADDGA1071+009001999GF107991999999999999999999MA1101081999999REMMET051METAR SBJP 281700Z 11009KT 9999 BKN030 29/21 Q1011;
0120827980999992007102818004-07100-034867FM-15+0007SBJP V0201201N005110090019N0112651N1+02901+02101999999ADDGA1071+009001999GF107991999999999999999999MA1101081999999REMMET051METAR SBJP 281800Z 12010KT 9999 BKN030 29/21 Q1011;
0120827980999992007102819004-07100-034867FM-15+0007SBJP V0201101N003612200019N0112651N1+02801+02101999999ADDGA1041+009001999GF104991999999999999999999MA1101081999999REMMET051METAR SBJP 281900Z 11007KT 9999 SCT030 28/21 Q1011;
0120827980999992007102820004-07100-034867FM-15+0007SBJP V0201101N003112200019N0112651N1+02701+02201999999ADDGA1041+006001999GF104991999999999999999999MA1101081999999REMMET051METAR SBJP 282000Z 11006KT 9999 SCT020 27/22 Q1011;
0120827980999992007102821004-07100-034867FM-15+0007SBJP V0201201N003112200019N0112651N1+02601+02201999999ADDGA1041+006001999GF104991999999999999999999MA1101191999999REMMET051METAR SBJP 282100Z 12006KT 9999 SCT020 26/22 Q1012;
0120827980999992007102822004-07100-034867FM-15+0007SBJP V0201401N002612200019N0112651N1+02501+02201999999ADDGA1021+006001999GF102991999999999999999999MA1101191999999REMMET051METAR SBJP 282200Z 14005KT 9999 FEW020 25/22 Q1012;
0120827980999992007102823004-07100-034867FM-15+0007SBJP V0201401N001512200019N0112651N1+02401+02201999999ADDGA1021+006001999GF102991999999999999999999MA1101291999999REMMET051METAR SBJP 282300Z 14003KT 9999 FEW020 24/22 Q1013;
0120827980999992007102900004-07100-034867FM-15+0007SBJP V0201501N001512200019N0112651N1+02401+02201999999ADDGA1021+006001999GF102991999999999999999999MA1101391999999REMMET051METAR SBJP 290000Z 15003KT 9999 FEW020 24/22 Q1014;
0120827980999992007102901004-07100-034867FM-15+0007SBJP V0201601N001512200019N0112651N1+02401+02201999999ADDGA1021+006001999GF102991999999999999999999MA1101391999999REMMET051METAR SBJP 290100Z 16003KT 9999 FEW020 24/22 Q1014;
0120827980999992007102902004-07100-034867FM-15+0007SBJP V0201301N001512200019N0112651N1+02501+02201999999ADDGA1021+005401999GF102991999999999999999999MA1101291999999REMMET051METAR SBJP 290200Z 13003KT 9999 FEW018 25/22 Q1013;
0120827980999992007102903004-07100-034867FM-15+0007SBJP V0201401N001512200019N0112651N1+02401+02201999999ADDGA1041+005401999GF104991999999999999999999MA1101191999999REMMET051METAR SBJP 290300Z 14003KT 9999 SCT018 24/22 Q1012;
0120827980999992007102904004-07100-034867FM-15+0007SBJP V0201501N001512200019N0112651N1+02301+02101999999ADDGA1041+005401999GF104991999999999999999999MA1101191999999REMMET051METAR SBJP 290400Z 15003KT 9999 SCT018 23/21 Q1012;
0120827980999992007102905004-07100-034867FM-15+0007SBJP V0202001N001512200019N0112651N1+02401+02201999999ADDGA1041+005401999GF104991999999999999999999MA1101081999999REMMET051METAR SBJP 290500Z 20003KT 9999 SCT018 24/22 Q1011;
0120827980999992007102906004-07100-034867FM-15+0007SBJP V0202101N001512200019N0112651N1+02301+02101999999ADDGA1041+005401999GF104991999999999999999999MA1101081999999REMMET051METAR SBJP 290600Z 21003KT 9999 SCT018 23/21 Q1011;
0120827980999992007102907004-07100-034867FM-15+0007SBJP V0202001N001512200019N0112651N1+02201+02101999999ADDGA1041+005401999GF104991999999999999999999MA1101081999999REMMET051METAR SBJP 290700Z 20003KT 9999 SCT018 22/21 Q1011;
0120827980999992007102908004-07100-034867FM-15+0007SBJP V0202201N001012200019N0112651N1+02201+02001999999ADDGA1021+006001999GF102991999999999999999999MA1101191999999REMMET051METAR SBJP 290800Z 22002KT 9999 FEW020 22/20 Q1012;
0120827980999992007102909004-07100-034867FM-15+0007SBJP V0202301N001012200019N0112651N1+02301+02201999999ADDGA1041+006001999GF104991999999999999999999MA1101191999999REMMET051METAR SBJP 290900Z 23002KT 9999 SCT020 23/22 Q1012;
0120827980999992007102910004-07100-034867FM-15+0007SBJP V0201501N002110048019N0112651N1+02601+02201999999ADDGA1071+004801999GF107991999999999999999999MA1101291999999REMMET051METAR SBJP 291000Z 15004KT 9999 BKN016 26/22 Q1013;
0120827980999992007102911004-07100-034867FM-15+0007SBJP V0201101N005110060019N0112651N1+02901+02101999999ADDGA1071+006001999GF107991999999999999999999MA1101291999999REMMET051METAR SBJP 291100Z 11010KT 9999 BKN020 29/21 Q1013;
0120827980999992007102912004-07100-034867FM-15+0007SBJP V0201201N005710090019N0112651N1+02901+02001999999ADDGA1071+009001999GF107991999999999999999999MA1101291999999REMMET051METAR SBJP 291200Z 12011KT 9999 BKN030 29/20 Q1013;
0120827980999992007102913004-07100-034867FM-15+0007SBJP V0201201N005710090019N0112651N1+03001+02001999999ADDGA1071+009001999GF107991999999999999999999MA1101291999999REMMET051METAR SBJP 291300Z 12011KT 9999 BKN030 30/20 Q1013;
0120827980999992007102914004-07100-034867FM-15+0007SBJP V0201201N005710090019N0112651N1+03001+01901999999ADDGA1071+009001999GF107991999999999999999999MA1101191999999REMMET051METAR SBJP 291400Z 12011KT 9999 BKN030 30/19 Q1012;
0120827980999992007102915004-07100-034867FM-15+0007SBJP V0201101N004610090019N0112651N1+03001+01901999999ADDGA1071+009001999GF107991999999999999999999MA1101191999999REMMET051METAR SBJP 291500Z 11009KT 9999 BKN030 30/19 Q1012;
0120827980999992007102916004-07100-034867FM-15+0007SBJP V0201601N005110090019N0112651N1+03001+02001999999ADDGA1071+009001999GF107991999999999999999999MA1101081999999REMMET051METAR SBJP 291600Z 16010KT 9999 BKN030 30/20 Q1011;
0120827980999992007102918004-07100-034867FM-15+0007SBJP V0201601N005112200019N0112651N1+03001+02101999999ADDGA1041+009001999GF104991999999999999999999MA1101021999999REMMET051METAR SBJP 291800Z 16010KT 9999 SCT030 30/21 Q1010;
0120827980999992007102919004-07100-034867FM-15+0007SBJP V0201601N004612200019N0112651N1+02801+02201999999ADDGA1021+009001999GF102991999999999999999999MA1101021999999REMMET051METAR SBJP 291900Z 16009KT 9999 FEW030 28/22 Q1010;
0120827980999992007102920004-07100-034867FM-15+0007SBJP V0201501N005112200019N0112651N1+02701+02101999999ADDGA1021+007501999GF102991999999999999999999MA1101021999999REMMET051METAR SBJP 292000Z 15010KT 9999 FEW025 27/21 Q1010;
0120827980999992007102921004-07100-034867FM-15+0007SBJP V0201701N003112200019N0112651N1+02601+02201999999ADDGA1021+007501999GF102991999999999999999999MA1101081999999REMMET051METAR SBJP 292100Z 17006KT 9999 FEW025 26/22 Q1011;
0120827980999992007102922004-07100-034867FM-15+0007SBJP V0201801N002112200019N0112651N1+02501+02101999999ADDGA1021+007501999GF102991999999999999999999MA1101191999999REMMET051METAR SBJP 292200Z 18004KT 9999 FEW025 25/21 Q1012;
0120827980999992007102923004-07100-034867FM-15+0007SBJP V0201901N002112200019N0112651N1+02401+02101999999ADDGA1021+007501999GF102991999999999999999999MA1101291999999REMMET051METAR SBJP 292300Z 19004KT 9999 FEW025 24/21 Q1013;
0120827980999992007103000004-07100-034867FM-15+0007SBJP V0201801N002112200019N0112651N1+02501+02101999999ADDGA1041+006001999GF104991999999999999999999MA1101291999999REMMET051METAR SBJP 300000Z 18004KT 9999 SCT020 25/21 Q1013;
0120827980999992007103001004-07100-034867FM-15+0007SBJP V0201801N002112200019N0112651N1+02501+02201999999ADDGA1041+006001999GF104991999999999999999999MA1101491999999REMMET051METAR SBJP 300100Z 18004KT 9999 SCT020 25/22 Q1015;
0120827980999992007103002004-07100-034867FM-15+0007SBJP V0201701N003112200019N0112651N1+02601+02201999999ADDGA1041+006001999GF104991999999999999999999MA1101191999999REMMET051METAR SBJP 300200Z 17006KT 9999 SCT020 26/22 Q1012;
0120827980999992007103003004-07100-034867FM-15+0007SBJP V0201801N002112200019N0112651N1+02501+02201999999ADDGA1041+006001999GF104991999999999999999999MA1101191999999REMMET051METAR SBJP 300300Z 18004KT 9999 SCT020 25/22 Q1012;
0120827980999992007103004004-07100-034867FM-15+0007SBJP V0201501N002112200019N0112651N1+02501+02201999999ADDGA1021+005101999GF102991999999999999999999MA1101081999999REMMET051METAR SBJP 300400Z 15004KT 9999 FEW017 25/22 Q1011;
0143827980999992007103005004-07100-034867FM-15+0007SBJP V0201201N002612200019N0112651N1+02401+02101999999ADDGA1021+004801999GA2041+021001999GF104991999999999999999999MA1101081999999REMMET058METAR SBJP 300500Z 12005KT 9999 FEW016 SCT070 24/21 Q1011;
0120827980999992007103006004-07100-034867FM-15+0007SBJP V0201301N003612200019N0112651N1+02501+02101999999ADDGA1021+005101999GF102991999999999999999999MA1101081999999REMMET051METAR SBJP 300600Z 13007KT 9999 FEW017 25/21 Q1011;
0072827980999992007103007004-07100-034867FM-15+0007SBJP V0201301N00261220001CN0099001N1+02401+02101999999ADDMA1101081999999REMMET045METAR SBJP 300700Z 13005KT CAVOK 24/21 Q1011;
0120827980999992007103008004-07100-034867FM-15+0007SBJP V0201301N002612200019N0112651N1+02401+02101999999ADDGA1041+006001999GF104991999999999999999999MA1101191999999REMMET051METAR SBJP 300800Z 13005KT 9999 SCT020 24/21 Q1012;
0120827980999992007103009004-07100-034867FM-15+0007SBJP V0201401N002112200019N0112651N1+02501+02201999999ADDGA1021+006001999GF102991999999999999999999MA1101191999999REMMET051METAR SBJP 300900Z 14004KT 9999 FEW020 25/22 Q1012;
0143827980999992007103010004-07100-034867FM-15+0007SBJP V0201701N005112200019N0112651N1+02801+02101999999ADDGA1021+007501999GA2041+090001999GF104991999999999999999999MA1101291999999REMMET058METAR SBJP 301000Z 17010KT 9999 FEW025 SCT300 28/21 Q1013;
0143827980999992007103011004-07100-034867FM-15+0007SBJP V0201901N005112200019N0112651N1+02901+01901999999ADDGA1021+007501999GA2041+090001999GF104991999999999999999999MA1101291999999REMMET058METAR SBJP 301100Z 19010KT 9999 FEW025 SCT300 29/19 Q1013;
0120827980999992007103012004-07100-034867FM-15+0007SBJP V0201701N004612200019N0112651N1+03001+01901999999ADDGA1041+007501999GF104991999999999999999999MA1101291999999REMMET051METAR SBJP 301200Z 17009KT 9999 SCT025 30/19 Q1013;
0143827980999992007103013004-07100-034867FM-15+0007SBJP V0201401N005112200019N0112651N1+03001+02001999999ADDGA1041+009001999GA2041+024001999GF104991999999999999999999MA1101291999999REMMET058METAR SBJP 301300Z 14010KT 9999 SCT030 SCT080 30/20 Q1013;
0120827980999992007103014004-07100-034867FM-15+0007SBJP V0201601N005112200019N0112651N1+03001+02001999999ADDGA1041+009001999GF104991999999999999999999MA1101191999999REMMET051METAR SBJP 301400Z 16010KT 9999 SCT030 30/20 Q1012;
0120827980999992007103015004-07100-034867FM-15+0007SBJP V0201501N005112200019N0112651N1+03101+01901999999ADDGA1021+009001999GF102991999999999999999999MA1101081999999REMMET051METAR SBJP 301500Z 15010KT 9999 FEW030 31/19 Q1011;
0120827980999992007103016004-07100-034867FM-15+0007SBJP V0201701N003112200019N0112651N1+03101+01701999999ADDGA1021+009001999GF102991999999999999999999MA1100911999999REMMET051METAR SBJP 301600Z 17006KT 9999 FEW030 31/17 Q1009;
0120827980999992007103017004-07100-034867FM-15+0007SBJP V0201501N005112200019N0112651N1+03101+01901999999ADDGA1021+009001999GF102991999999999999999999MA1100911999999REMMET051METAR SBJP 301700Z 15010KT 9999 FEW030 31/19 Q1009;
0120827980999992007103018004-07100-034867FM-15+0007SBJP V0201701N006212200019N0112651N1+03001+01901999999ADDGA1021+009001999GF102991999999999999999999MA1100911999999REMMET051METAR SBJP 301800Z 17012KT 9999 FEW030 30/19 Q1009;
0120827980999992007103019004-07100-034867FM-15+0007SBJP V0201701N005112200019N0112651N1+02901+01901999999ADDGA1021+009001999GF102991999999999999999999MA1100911999999REMMET051METAR SBJP 301900Z 17010KT 9999 FEW030 29/19 Q1009;
0120827980999992007103020004-07100-034867FM-15+0007SBJP V0201701N005112200019N0112651N1+02701+02001999999ADDGA1021+009001999GF102991999999999999999999MA1100911999999REMMET051METAR SBJP 302000Z 17010KT 9999 FEW030 27/20 Q1009;
0120827980999992007103021004-07100-034867FM-15+0007SBJP V0201801N003112200019N0112651N1+02601+02101999999ADDGA1021+009001999GF102991999999999999999999MA1100911999999REMMET051METAR SBJP 302100Z 18006KT 9999 FEW030 26/21 Q1009;
0120827980999992007103022004-07100-034867FM-15+0007SBJP V0201801N002112200019N0112651N1+02501+02101999999ADDGA1021+009001999GF102991999999999999999999MA1101021999999REMMET051METAR SBJP 302200Z 18004KT 9999 FEW030 25/21 Q1010;
0120827980999992007103023004-07100-034867FM-15+0007SBJP V0201901N001512200019N0112651N1+02501+02101999999ADDGA1041+009001999GF104991999999999999999999MA1101021999999REMMET051METAR SBJP 302300Z 19003KT 9999 SCT030 25/21 Q1010;
0120827980999992007103100004-07100-034867FM-15+0007SBJP V0202001N001512200019N0112651N1+02501+02101999999ADDGA1041+009001999GF104991999999999999999999MA1101021999999REMMET051METAR SBJP 310000Z 20003KT 9999 SCT030 25/21 Q1010;
0143827980999992007103101004-07100-034867FM-15+0007SBJP V0201601N001010075019N0112651N1+02501+02201999999ADDGA1021+004501999GA2071+007501999GF107991999999999999999999MA1101081999999REMMET058METAR SBJP 310100Z 16002KT 9999 FEW015 BKN025 25/22 Q1011;
0143827980999992007103102004-07100-034867FM-15+0007SBJP V0202101N001010075019N0112651N1+02501+02201999999ADDGA1041+004501999GA2071+007501999GF107991999999999999999999MA1101021999999REMMET058METAR SBJP 310200Z 21002KT 9999 SCT015 BKN025 25/22 Q1010;
0120827980999992007103103004-07100-034867FM-15+0007SBJP V0202201N001010075019N0112651N1+02401+02301999999ADDGA1071+007501999GF107991999999999999999999MA1101021999999REMMET051METAR SBJP 310300Z 22002KT 9999 BKN025 24/23 Q1010;
0143827980999992007103104004-07100-034867FM-15+0007SBJP V0202601N001012200019N0112651N1+02401+02301999999ADDGA1041+004501999GA2041+007501999GF104991999999999999999999MA1100911999999REMMET058METAR SBJP 310400Z 26002KT 9999 SCT015 SCT025 24/23 Q1009;
0136827980999992007103105004-07100-034867FM-15+0007SBJP V0201901N00151220001CN0112651N1+02401+02301999999ADDGA1071+003001999GA2041+006001999MA1100911999999REMMET058METAR SBJP 310500Z 19003KT 9999 BKN010 SCT020 24/23 Q1009;EQDQ01+000042SCOTCV
0120827980999992007103106004-07100-034867FM-15+0007SBJP V0201701N001010030019N0112651N1+02401+02301999999ADDGA1071+003001999GF107991999999999999999999MA1100911999999REMMET051METAR SBJP 310600Z 17002KT 9999 BKN010 24/23 Q1009;
0143827980999992007103107004-07100-034867FM-15+0007SBJP V0201901N001012200019N0112651N1+02401+02301999999ADDGA1041+003601999GA2041+021001999GF104991999999999999999999MA1101021999999REMMET058METAR SBJP 310700Z 19002KT 9999 SCT012 SCT070 24/23 Q1010;
0143827980999992007103108004-07100-034867FM-15+0007SBJP V0202001N001012200019N0112651N1+02401+02301999999ADDGA1021+006001999GA2041+021001999GF104991999999999999999999MA1101021999999REMMET058METAR SBJP 310800Z 20002KT 9999 FEW020 SCT070 24/23 Q1010;
0143827980999992007103109004-07100-034867FM-15+0007SBJP V0201901N001512200019N0112651N1+02401+02301999999ADDGA1021+006001999GA2041+021001999GF104991999999999999999999MA1101081999999REMMET058METAR SBJP 310900Z 19003KT 9999 FEW020 SCT070 24/23 Q1011;
0120827980999992007103110004-07100-034867FM-15+0007SBJP V0201501N003112200019N0112651N1+02701+02301999999ADDGA1021+006001999GF102991999999999999999999MA1101081999999REMMET051METAR SBJP 311000Z 15006KT 9999 FEW020 27/23 Q1011;
0120827980999992007103111004-07100-034867FM-15+0007SBJP V0201601N004112200019N0112651N1+02701+02301999999ADDGA1021+006001999GF102991999999999999999999MA1101191999999REMMET051METAR SBJP 311100Z 16008KT 9999 FEW020 27/23 Q1012;
0120827980999992007103112004-07100-034867FM-15+0007SBJP V0201601N005112200019N0112651N1+02901+02101999999ADDGA1021+006001999GF102991999999999999999999MA1101191999999REMMET051METAR SBJP 311200Z 16010KT 9999 FEW020 29/21 Q1012;
0120827980999992007103113004-07100-034867FM-15+0007SBJP V0201401N005112200019N0112651N1+03001+02201999999ADDGA1041+006001999GF104991999999999999999999MA1101191999999REMMET051METAR SBJP 311300Z 14010KT 9999 SCT020 30/22 Q1012;
0120827980999992007103114004-07100-034867FM-15+0007SBJP V0201401N006212200019N0112651N1+03001+02201999999ADDGA1041+006001999GF104991999999999999999999MA1101081999999REMMET051METAR SBJP 311400Z 14012KT 9999 SCT020 30/22 Q1011;
0120827980999992007103115004-07100-034867FM-15+0007SBJP V0201501N006212200019N0112651N1+03001+02201999999ADDGA1041+006001999GF104991999999999999999999MA1101021999999REMMET051METAR SBJP 311500Z 15012KT 9999 SCT020 30/22 Q1010;
0143827980999992007103116004-07100-034867FM-15+0007SBJP V0201601N006210900019N0112651N1+02901+02101999999ADDGA1041+007501999GA2071+090001999GF107991999999999999999999MA1101021999999REMMET058METAR SBJP 311600Z 16012KT 9999 SCT025 BKN300 29/21 Q1010;
0143827980999992007103117004-07100-034867FM-15+0007SBJP V0201401N005110900019N0112651N1+02901+02201999999ADDGA1041+007501999GA2071+090001999GF107991999999999999999999MA1100911999999REMMET058METAR SBJP 311700Z 14010KT 9999 SCT025 BKN300 29/22 Q1009;
0143827980999992007103118004-07100-034867FM-15+0007SBJP V0201601N006210900019N0112651N1+02901+02201999999ADDGA1041+007501999GA2071+090001999GF107991999999999999999999MA1100911999999REMMET058METAR SBJP 311800Z 16012KT 9999 SCT025 BKN300 29/22 Q1009;
0143827980999992007103119004-07100-034867FM-15+0007SBJP V0201501N005110900019N0112651N1+02801+02201999999ADDGA1041+007501999GA2071+090001999GF107991999999999999999999MA1101021999999REMMET058METAR SBJP 311900Z 15010KT 9999 SCT025 BKN300 28/22 Q1010;
0143827980999992007103120004-07100-034867FM-15+0007SBJP V0201601N005710900019N0112651N1+02701+02201999999ADDGA1041+007501999GA2071+090001999GF107991999999999999999999MA1101021999999REMMET058METAR SBJP 312000Z 16011KT 9999 SCT025 BKN300 27/22 Q1010;
0143827980999992007103121004-07100-034867FM-15+0007SBJP V0201601N004610900019N0112651N1+02601+02301999999ADDGA1041+007501999GA2071+090001999GF107991999999999999999999MA1101021999999REMMET058METAR SBJP 312100Z 16009KT 9999 SCT025 BKN300 26/23 Q1010;
0120827980999992007103122004-07100-034867FM-15+0007SBJP V0201601N003612200019N0112651N1+02601+02201999999ADDGA1021+007501999GF102991999999999999999999MA1101081999999REMMET051METAR SBJP 312200Z 16007KT 9999 FEW025 26/22 Q1011;
0120827980999992007103123004-07100-034867FM-15+0007SBJP V0201601N003112200019N0112651N1+02601+02301999999ADDGA1021+007501999GF102991999999999999999999MA1101081999999REMMET051METAR SBJP 312300Z 16006KT 9999 FEW025 26/23 Q1011;
0120827980999992007110100004-07100-034867FM-15+0007SBJP V0201501N003612200019N0112651N1+02501+02201999999ADDGA1021+007501999GF102991999999999999999999MA1101191999999REMMET051METAR SBJP 010000Z 15007KT 9999 FEW025 25/22 Q1012;
0120827980999992007110101004-07100-034867FM-15+0007SBJP V0201601N002112200019N0112651N1+02501+02201999999ADDGA1021+007501999GF102991999999999999999999MA1101191999999REMMET051METAR SBJP 010100Z 16004KT 9999 FEW025 25/22 Q1012;
0120827980999992007110102004-07100-034867FM-15+0007SBJP V0201601N001512200019N0112651N1+02401+02201999999ADDGA1021+007501999GF102991999999999999999999MA1101081999999REMMET051METAR SBJP 010200Z 16003KT 9999 FEW025 24/22 Q1011;
0120827980999992007110103004-07100-034867FM-15+0007SBJP V0202301N001012200019N0112651N1+02401+02201999999ADDGA1021+006001999GF102991999999999999999999MA1101081999999REMMET051METAR SBJP 010300Z 23002KT 9999 FEW020 24/22 Q1011;
0120827980999992007110104004-07100-034867FM-15+0007SBJP V0201701N001012200019N0112651N1+02401+02201999999ADDGA1021+006001999GF102991999999999999999999MA1101021999999REMMET051METAR SBJP 010400Z 17002KT 9999 FEW020 24/22 Q1010;
0120827980999992007110105004-07100-034867FM-15+0007SBJP V0201901N002112200019N0112651N1+02401+02201999999ADDGA1021+006001999GF102991999999999999999999MA1100911999999REMMET051METAR SBJP 010500Z 19004KT 9999 FEW020 24/22 Q1009;
0120827980999992007110106004-07100-034867FM-15+0007SBJP V0201901N002112200019N0112651N1+02401+02201999999ADDGA1021+007501999GF102991999999999999999999MA1101021999999REMMET051METAR SBJP 010600Z 19004KT 9999 FEW025 24/22 Q1010;
0120827980999992007110107004-07100-034867FM-15+0007SBJP V0202201N002112200019N0112651N1+02301+02101999999ADDGA1021+007501999GF102991999999999999999999MA1101021999999REMMET051METAR SBJP 010700Z 22004KT 9999 FEW025 23/21 Q1010;
0120827980999992007110108004-07100-034867FM-15+0007SBJP V0202101N001012200019N0112651N1+02301+02101999999ADDGA1021+007501999GF102991999999999999999999MA1101021999999REMMET051METAR SBJP 010800Z 21002KT 9999 FEW025 23/21 Q1010;
0120827980999992007110109004-07100-034867FM-15+0007SBJP V0202201N001012200019N0112651N1+02401+02201999999ADDGA1021+006001999GF102991999999999999999999MA1101081999999REMMET051METAR SBJP 010900Z 22002KT 9999 FEW020 24/22 Q1011;
0120827980999992007110110004-07100-034867FM-15+0007SBJP V0201401N004112200019N0112651N1+02701+02201999999ADDGA1041+006001999GF104991999999999999999999MA1101191999999REMMET051METAR SBJP 011000Z 14008KT 9999 SCT020 27/22 Q1012;
0120827980999992007110111004-07100-034867FM-15+0007SBJP V0201601N005712200019N0112651N1+02901+02201999999ADDGA1041+007501999GF104991999999999999999999MA1101191999999REMMET051METAR SBJP 011100Z 16011KT 9999 SCT025 29/22 Q1012;
0120827980999992007110112004-07100-034867FM-15+0007SBJP V0201401N005112200019N0112651N1+02901+02101999999ADDGA1041+007501999GF104991999999999999999999MA1101291999999REMMET051METAR SBJP 011200Z 14010KT 9999 SCT025 29/21 Q1013;
0120827980999992007110113004-07100-034867FM-15+0007SBJP V0201301N004612200019N0112651N1+03001+02101999999ADDGA1041+009001999GF104991999999999999999999MA1101191999999REMMET051METAR SBJP 011300Z 13009KT 9999 SCT030 30/21 Q1012;
0120827980999992007110114004-07100-034867FM-15+0007SBJP V0201301N004612200019N0112651N1+03001+02201999999ADDGA1041+009001999GF104991999999999999999999MA1101191999999REMMET051METAR SBJP 011400Z 13009KT 9999 SCT030 30/22 Q1012;
0120827980999992007110115004-07100-034867FM-15+0007SBJP V0201201N004612200019N0112651N1+02901+02201999999ADDGA1041+009001999GF104991999999999999999999MA1101081999999REMMET051METAR SBJP 011500Z 12009KT 9999 SCT030 29/22 Q1011;
0120827980999992007110116004-07100-034867FM-15+0007SBJP V0201301N004110090019N0112651N1+03001+02201999999ADDGA1071+009001999GF107991999999999999999999MA1101081999999REMMET051METAR SBJP 011600Z 13008KT 9999 BKN030 30/22 Q1011;
0120827980999992007110117004-07100-034867FM-15+0007SBJP V0201501N005110090019N0112651N1+03001+02101999999ADDGA1071+009001999GF107991999999999999999999MA1101021999999REMMET051METAR SBJP 011700Z 15010KT 9999 BKN030 30/21 Q1010;
0120827980999992007110118004-07100-034867FM-15+0007SBJP V0201501N004112200019N0112651N1+03001+02101999999ADDGA1041+009001999GF104991999999999999999999MA1101021999999REMMET051METAR SBJP 011800Z 15008KT 9999 SCT030 30/21 Q1010;
0120827980999992007110119004-07100-034867FM-15+0007SBJP V0201401N004112200019N0112651N1+02801+02001999999ADDGA1041+009001999GF104991999999999999999999MA1101021999999REMMET051METAR SBJP 011900Z 14008KT 9999 SCT030 28/20 Q1010;
0120827980999992007110120004-07100-034867FM-15+0007SBJP V0201401N002612200019N0112651N1+02701+02201999999ADDGA1041+009001999GF104991999999999999999999MA1101081999999REMMET051METAR SBJP 012000Z 14005KT 9999 SCT030 27/22 Q1011;
0120827980999992007110121004-07100-034867FM-15+0007SBJP V0201401N002612200019N0112651N1+02601+02201999999ADDGA1021+007501999GF102991999999999999999999MA1101191999999REMMET051METAR SBJP 012100Z 14005KT 9999 FEW025 26/22 Q1012;
0120827980999992007110122004-07100-034867FM-15+0007SBJP V0201301N002612200019N0112651N1+02501+02201999999ADDGA1041+004801999GF104991999999999999999999MA1101191999999REMMET051METAR SBJP 012200Z 13005KT 9999 SCT016 25/22 Q1012;
0120827980999992007110123004-07100-034867FM-15+0007SBJP V0201301N001512200019N0112651N1+02501+02201999999ADDGA1041+006001999GF104991999999999999999999MA1101291999999REMMET051METAR SBJP 012300Z 13003KT 9999 SCT020 25/22 Q1013;
0120827980999992007110200004-07100-034867FM-15+0007SBJP V0209999C000012200019N0112651N1+02501+02201999999ADDGA1041+006001999GF104991999999999999999999MA1101291999999REMMET051METAR SBJP 020000Z 00000KT 9999 SCT020 25/22 Q1013;
0120827980999992007110201004-07100-034867FM-15+0007SBJP V0201201N002112200019N0112651N1+02601+02201999999ADDGA1041+006001999GF104991999999999999999999MA1101291999999REMMET051METAR SBJP 020100Z 12004KT 9999 SCT020 26/22 Q1013;
0143827980999992007110202004-07100-034867FM-15+0007SBJP V0201301N002610210019N0112651N1+02501+02201999999ADDGA1021+006001999GA2071+021001999GF107991999999999999999999MA1101291999999REMMET058METAR SBJP 020200Z 13005KT 9999 FEW020 BKN070 25/22 Q1013;
0072827980999992007110203004-07100-034867FM-15+0007SBJP V0201201N00261220001CN0099001N1+02501+02201999999ADDMA1101191999999REMMET045METAR SBJP 020300Z 12005KT CAVOK 25/22 Q1012;
0120827980999992007110204004-07100-034867FM-15+0007SBJP V0201401N002612200019N0112651N1+02501+02201999999ADDGA1041+004801999GF104991999999999999999999MA1101191999999REMMET051METAR SBJP 020400Z 14005KT 9999 SCT016 25/22 Q1012;
0120827980999992007110205004-07100-034867FM-15+0007SBJP V0201301N002612200019N0112651N1+02501+02201999999ADDGA1041+004801999GF104991999999999999999999MA1101191999999REMMET051METAR SBJP 020500Z 13005KT 9999 SCT016 25/22 Q1012;
0120827980999992007110206004-07100-034867FM-15+0007SBJP V0201301N002112200019N0112651N1+02501+02201999999ADDGA1041+004801999GF104991999999999999999999MA1101191999999REMMET051METAR SBJP 020600Z 13004KT 9999 SCT016 25/22 Q1012;
0120827980999992007110207004-07100-034867FM-15+0007SBJP V0201301N002112200019N0112651N1+02501+02101999999ADDGA1041+004801999GF104991999999999999999999MA1101191999999REMMET051METAR SBJP 020700Z 13004KT 9999 SCT016 25/21 Q1012;
0120827980999992007110208004-07100-034867FM-15+0007SBJP V0201501N001512200019N0112651N1+02401+02101999999ADDGA1021+004801999GF102991999999999999999999MA1101291999999REMMET051METAR SBJP 020800Z 15003KT 9999 FEW016 24/21 Q1013;
0120827980999992007110209004-07100-034867FM-15+0007SBJP V0209999C000012200019N0112651N1+02501+02201999999ADDGA1041+006001999GF104991999999999999999999MA1101291999999REMMET051METAR SBJP 020900Z 00000KT 9999 SCT020 25/22 Q1013;
0120827980999992007110210004-07100-034867FM-15+0007SBJP V0201501N003610075019N0112651N1+02701+02201999999ADDGA1071+007501999GF107991999999999999999999MA1101391999999REMMET051METAR SBJP 021000Z 15007KT 9999 BKN025 27/22 Q1014;
0120827980999992007110211004-07100-034867FM-15+0007SBJP V0201101N003610075019N0112651N1+02901+02101999999ADDGA1071+007501999GF107991999999999999999999MA1101491999999REMMET051METAR SBJP 021100Z 11007KT 9999 BKN025 29/21 Q1015;
0120827980999992007110212004-07100-034867FM-15+0007SBJP V0201301N003612200019N0112651N1+03001+02001999999ADDGA1041+009001999GF104991999999999999999999MA1101491999999REMMET051METAR SBJP 021200Z 13007KT 9999 SCT030 30/20 Q1015;
0120827980999992007110213004-07100-034867FM-15+0007SBJP V0201101N003612200019N0112651N1+03001+02001999999ADDGA1041+009001999GF104991999999999999999999MA1101391999999REMMET051METAR SBJP 021300Z 11007KT 9999 SCT030 30/20 Q1014;
0120827980999992007110214004-07100-034867FM-15+0007SBJP V0201401N003612200019N0112651N1+03101+02001999999ADDGA1041+009001999GF104991999999999999999999MA1101391999999REMMET051METAR SBJP 021400Z 14007KT 9999 SCT030 31/20 Q1014;
0120827980999992007110215004-07100-034867FM-15+0007SBJP V0201001N003612200019N0112651N1+03101+02001999999ADDGA1041+009001999GF104991999999999999999999MA1101291999999REMMET051METAR SBJP 021500Z 10007KT 9999 SCT030 31/20 Q1013;
0120827980999992007110216004-07100-034867FM-15+0007SBJP V0201001N003612200019N0112651N1+03101+02001999999ADDGA1041+006001999GF104991999999999999999999MA1101291999999REMMET051METAR SBJP 021600Z 10007KT 9999 SCT020 31/20 Q1013;
0120827980999992007110217004-07100-034867FM-15+0007SBJP V0200801N003612200019N0112651N1+03001+02001999999ADDGA1041+009001999GF104991999999999999999999MA1101191999999REMMET051METAR SBJP 021700Z 08007KT 9999 SCT030 30/20 Q1012;
0120827980999992007110218004-07100-034867FM-15+0007SBJP V0201001N004112200019N0112651N1+02901+02101999999ADDGA1041+009001999GF104991999999999999999999MA1101191999999REMMET051METAR SBJP 021800Z 10008KT 9999 SCT030 29/21 Q1012;
0120827980999992007110219004-07100-034867FM-15+0007SBJP V0201101N004112200019N0112651N1+02801+02101999999ADDGA1021+009001999GF102991999999999999999999MA1101191999999REMMET051METAR SBJP 021900Z 11008KT 9999 FEW030 28/21 Q1012;
0120827980999992007110220004-07100-034867FM-15+0007SBJP V0201001N003112200019N0112651N1+02701+02101999999ADDGA1021+006001999GF102991999999999999999999MA1101191999999REMMET051METAR SBJP 022000Z 10006KT 9999 FEW020 27/21 Q1012;
0072827980999992007110221004-07100-034867FM-15+0007SBJP V0201001N00261220001CN0099001N1+02601+02201999999ADDMA1101191999999REMMET045METAR SBJP 022100Z 10005KT CAVOK 26/22 Q1012;
0143827980999992007110222004-07100-034867FM-15+0007SBJP V0201101N002612200019N0112651N1+02601+02201999999ADDGA1021+006001999GA2041+090001999GF104991999999999999999999MA1101291999999REMMET058METAR SBJP 022200Z 11005KT 9999 FEW020 SCT300 26/22 Q1013;
0120827980999992007110223004-07100-034867FM-15+0007SBJP V0201201N002112200019N0112651N1+02501+02201999999ADDGA1021+006001999GF102991999999999999999999MA1101291999999REMMET051METAR SBJP 022300Z 12004KT 9999 FEW020 25/22 Q1013;
0120827980999992007110300004-07100-034867FM-15+0007SBJP V0201301N002112200019N0112651N1+02501+02201999999ADDGA1021+006001999GF102991999999999999999999MA1101391999999REMMET051METAR SBJP 030000Z 13004KT 9999 FEW020 25/22 Q1014;
0120827980999992007110301004-07100-034867FM-15+0007SBJP V0201201N001512200019N0112651N1+02501+02201999999ADDGA1021+006001999GF102991999999999999999999MA1101391999999REMMET051METAR SBJP 030100Z 12003KT 9999 FEW020 25/22 Q1014;
0120827980999992007110302004-07100-034867FM-15+0007SBJP V0201301N002112200019N0112651N1+02501+02201999999ADDGA1021+006001999GF102991999999999999999999MA1101291999999REMMET051METAR SBJP 030200Z 13004KT 9999 FEW020 25/22 Q1013;
0120827980999992007110303004-07100-034867FM-15+0007SBJP V0201101N002112200019N0112651N1+02501+02101999999ADDGA1021+006001999GF102991999999999999999999MA1101291999999REMMET051METAR SBJP 030300Z 11004KT 9999 FEW020 25/21 Q1013;
0120827980999992007110304004-07100-034867FM-15+0007SBJP V0201001N001012200019N0112651N1+02401+02101999999ADDGA1021+006001999GF102991999999999999999999MA1101191999999REMMET051METAR SBJP 030400Z 10002KT 9999 FEW020 24/21 Q1012;
0120827980999992007110305004-07100-034867FM-15+0007SBJP V0201301N001012200019N0112651N1+02401+02101999999ADDGA1021+006001999GF102991999999999999999999MA1101191999999REMMET051METAR SBJP 030500Z 13002KT 9999 FEW020 24/21 Q1012;
0120827980999992007110306004-07100-034867FM-15+0007SBJP V0209999C000012200019N0112651N1+02401+02101999999ADDGA1041+006001999GF104991999999999999999999MA1101191999999REMMET051METAR SBJP 030600Z 00000KT 9999 SCT020 24/21 Q1012;
0120827980999992007110307004-07100-034867FM-15+0007SBJP V0202201N001012200019N0112651N1+02301+02101999999ADDGA1021+006001999GF102991999999999999999999MA1101191999999REMMET051METAR SBJP 030700Z 22002KT 9999 FEW020 23/21 Q1012;
0120827980999992007110308004-07100-034867FM-15+0007SBJP V0202301N001012200019N0112651N1+02201+02001999999ADDGA1021+006001999GF102991999999999999999999MA1101291999999REMMET051METAR SBJP 030800Z 23002KT 9999 FEW020 22/20 Q1013;
0120827980999992007110309004-07100-034867FM-15+0007SBJP V0201901N001012200019N0112651N1+02401+02101999999ADDGA1041+006001999GF104991999999999999999999MA1101291999999REMMET051METAR SBJP 030900Z 19002KT 9999 SCT020 24/21 Q1013;
0120827980999992007110310004-07100-034867FM-15+0007SBJP V0201001N004112200019N0112651N1+02701+02101999999ADDGA1041+006001999GF104991999999999999999999MA1101391999999REMMET051METAR SBJP 031000Z 10008KT 9999 SCT020 27/21 Q1014;
0120827980999992007110311004-07100-034867FM-15+0007SBJP V0201001N004110060019N0112651N1+02801+02101999999ADDGA1071+006001999GF107991999999999999999999MA1101391999999REMMET051METAR SBJP 031100Z 10008KT 9999 BKN020 28/21 Q1014;
0120827980999992007110312004-07100-034867FM-15+0007SBJP V0200901N004110090019N0112651N1+03001+02001999999ADDGA1071+009001999GF107991999999999999999999MA1101391999999REMMET051METAR SBJP 031200Z 09008KT 9999 BKN030 30/20 Q1014;
0120827980999992007110313004-07100-034867FM-15+0007SBJP V0201001N004110090019N0112651N1+02901+02001999999ADDGA1071+009001999GF107991999999999999999999MA1101391999999REMMET051METAR SBJP 031300Z 10008KT 9999 BKN030 29/20 Q1014;
0120827980999992007110314004-07100-034867FM-15+0007SBJP V0201001N004610090019N0112651N1+03001+02101999999ADDGA1071+009001999GF107991999999999999999999MA1101291999999REMMET051METAR SBJP 031400Z 10009KT 9999 BKN030 30/21 Q1013;
0120827980999992007110315004-07100-034867FM-15+0007SBJP V0200901N004110090019N0112651N1+03001+02001999999ADDGA1071+009001999GF107991999999999999999999MA1101291999999REMMET051METAR SBJP 031500Z 09008KT 9999 BKN030 30/20 Q1013;
0120827980999992007110316004-07100-034867FM-15+0007SBJP V0201301N005110090019N0112651N1+03001+02001999999ADDGA1071+009001999GF107991999999999999999999MA1101191999999REMMET051METAR SBJP 031600Z 13010KT 9999 BKN030 30/20 Q1012;
0120827980999992007110317004-07100-034867FM-15+0007SBJP V0201101N004612200019N0112651N1+02901+02001999999ADDGA1041+009001999GF104991999999999999999999MA1101191999999REMMET051METAR SBJP 031700Z 11009KT 9999 SCT030 29/20 Q1012;
0120827980999992007110318004-07100-034867FM-15+0007SBJP V0201101N004612200019N0112651N1+02901+02001999999ADDGA1041+009001999GF104991999999999999999999MA1101081999999REMMET051METAR SBJP 031800Z 11009KT 9999 SCT030 29/20 Q1011;
0120827980999992007110319004-07100-034867FM-15+0007SBJP V0201201N003612200019N0112651N1+02801+02101999999ADDGA1041+009001999GF104991999999999999999999MA1101081999999REMMET051METAR SBJP 031900Z 12007KT 9999 SCT030 28/21 Q1011;
0120827980999992007110320004-07100-034867FM-15+0007SBJP V0201501N003612200019N0112651N1+02701+02101999999ADDGA1041+009001999GF104991999999999999999999MA1101191999999REMMET051METAR SBJP 032000Z 15007KT 9999 SCT030 27/21 Q1012;
0120827980999992007110321004-07100-034867FM-15+0007SBJP V0201401N002612200019N0112651N1+02701+02201999999ADDGA1041+007501999GF104991999999999999999999MA1101291999999REMMET051METAR SBJP 032100Z 14005KT 9999 SCT025 27/22 Q1013;
0120827980999992007110322004-07100-034867FM-15+0007SBJP V0201201N003112200019N0112651N1+02601+02101999999ADDGA1041+007501999GF104991999999999999999999MA1101291999999REMMET051METAR SBJP 032200Z 12006KT 9999 SCT025 26/21 Q1013;
0120827980999992007110323004-07100-034867FM-15+0007SBJP V0201201N002112200019N0112651N1+02601+02101999999ADDGA1041+007501999GF104991999999999999999999MA1101391999999REMMET051METAR SBJP 032300Z 12004KT 9999 SCT025 26/21 Q1014;
0120827980999992007110400004-07100-034867FM-15+0007SBJP V0201301N002112200019N0112651N1+02501+02101999999ADDGA1041+007501999GF104991999999999999999999MA1101391999999REMMET051METAR SBJP 040000Z 13004KT 9999 SCT025 25/21 Q1014;
0120827980999992007110401004-07100-034867FM-15+0007SBJP V0201301N002112200019N0112651N1+02501+02101999999ADDGA1041+007501999GF104991999999999999999999MA1101291999999REMMET051METAR SBJP 040100Z 13004KT 9999 SCT025 25/21 Q1013;
0120827980999992007110402004-07100-034867FM-15+0007SBJP V0201301N002112200019N0112651N1+02501+02101999999ADDGA1041+007501999GF104991999999999999999999MA1101291999999REMMET051METAR SBJP 040200Z 13004KT 9999 SCT025 25/21 Q1013;
0120827980999992007110403004-07100-034867FM-15+0007SBJP V0201301N002112200019N0112651N1+02501+02101999999ADDGA1041+007501999GF104991999999999999999999MA1101191999999REMMET051METAR SBJP 040300Z 13004KT 9999 SCT025 25/21 Q1012;
0120827980999992007110404004-07100-034867FM-15+0007SBJP V0201001N001512200019N0112651N1+02501+02101999999ADDGA1041+006001999GF104991999999999999999999MA1101081999999REMMET051METAR SBJP 040400Z 10003KT 9999 SCT020 25/21 Q1011;
0072827980999992007110405004-07100-034867FM-15+0007SBJP V0200901N00151220001CN0099001N1+02401+02101999999ADDMA1101081999999REMMET045METAR SBJP 040500Z 09003KT CAVOK 24/21 Q1011;
0072827980999992007110406004-07100-034867FM-15+0007SBJP V0201101N00151220001CN0099001N1+02401+02101999999ADDMA1101081999999REMMET045METAR SBJP 040600Z 11003KT CAVOK 24/21 Q1011;
0120827980999992007110407004-07100-034867FM-15+0007SBJP V0201001N001512200019N0112651N1+02401+02101999999ADDGA1041+006001999GF104991999999999999999999MA1101081999999REMMET051METAR SBJP 040700Z 10003KT 9999 SCT020 24/21 Q1011;
0072827980999992007110408004-07100-034867FM-15+0007SBJP V0201101N00101220001CN0099001N1+02301+02101999999ADDMA1101081999999REMMET045METAR SBJP 040800Z 11002KT CAVOK 23/21 Q1011;
0120827980999992007110409004-07100-034867FM-15+0007SBJP V0209999C000012200019N0112651N1+02501+02101999999ADDGA1021+006001999GF102991999999999999999999MA1101191999999REMMET051METAR SBJP 040900Z 00000KT 9999 FEW020 25/21 Q1012;
0120827980999992007110410004-07100-034867FM-15+0007SBJP V0201001N002612200019N0112651N1+02701+02201999999ADDGA1041+006001999GF104991999999999999999999MA1101191999999REMMET051METAR SBJP 041000Z 10005KT 9999 SCT020 27/22 Q1012;
0120827980999992007110411004-07100-034867FM-15+0007SBJP V0201201N004112200019N0112651N1+02801+02101999999ADDGA1041+007501999GF104991999999999999999999MA1101291999999REMMET051METAR SBJP 041100Z 12008KT 9999 SCT025 28/21 Q1013;
0120827980999992007110412004-07100-034867FM-15+0007SBJP V0201001N004112200019N0112651N1+02901+02001999999ADDGA1041+009001999GF104991999999999999999999MA1101291999999REMMET051METAR SBJP 041200Z 10008KT 9999 SCT030 29/20 Q1013;
0120827980999992007110413004-07100-034867FM-15+0007SBJP V0201101N004612200019N0112651N1+03001+02101999999ADDGA1041+009001999GF104991999999999999999999MA1101291999999REMMET051METAR SBJP 041300Z 11009KT 9999 SCT030 30/21 Q1013;
0120827980999992007110414004-07100-034867FM-15+0007SBJP V0201101N003612200019N0112651N1+03001+02001999999ADDGA1041+009001999GF104991999999999999999999MA1101191999999REMMET051METAR SBJP 041400Z 11007KT 9999 SCT030 30/20 Q1012;
0120827980999992007110415004-07100-034867FM-15+0007SBJP V0201201N003612200019N0112651N1+03001+01901999999ADDGA1041+009001999GF104991999999999999999999MA1101191999999REMMET051METAR SBJP 041500Z 12007KT 9999 SCT030 30/19 Q1012;
0120827980999992007110416004-07100-034867FM-15+0007SBJP V0201101N004112200019N0112651N1+03001+02101999999ADDGA1041+009001999GF104991999999999999999999MA1101021999999REMMET051METAR SBJP 041600Z 11008KT 9999 SCT030 30/21 Q1010;
0120827980999992007110417004-07100-034867FM-15+0007SBJP V0201301N005112200019N0112651N1+02901+02101999999ADDGA1041+009001999GF104991999999999999999999MA1101021999999REMMET051METAR SBJP 041700Z 13010KT 9999 SCT030 29/21 Q1010;
0120827980999992007110418004-07100-034867FM-15+0007SBJP V0201201N004112200019N0112651N1+02901+02101999999ADDGA1041+009001999GF104991999999999999999999MA1101021999999REMMET051METAR SBJP 041800Z 12008KT 9999 SCT030 29/21 Q1010;
0120827980999992007110419004-07100-034867FM-15+0007SBJP V0201201N004112200019N0112651N1+02801+02101999999ADDGA1041+009001999GF104991999999999999999999MA1101021999999REMMET051METAR SBJP 041900Z 12008KT 9999 SCT030 28/21 Q1010;
0120827980999992007110420004-07100-034867FM-15+0007SBJP V0201401N003112200019N0112651N1+02701+02101999999ADDGA1041+009001999GF104991999999999999999999MA1101021999999REMMET051METAR SBJP 042000Z 14006KT 9999 SCT030 27/21 Q1010;
0120827980999992007110421004-07100-034867FM-15+0007SBJP V0201301N003112200019N0112651N1+02601+02101999999ADDGA1041+009001999GF104991999999999999999999MA1101081999999REMMET051METAR SBJP 042100Z 13006KT 9999 SCT030 26/21 Q1011;
0120827980999992007110422004-07100-034867FM-15+0007SBJP V0201301N002612200019N0112651N1+02601+02201999999ADDGA1021+007501999GF102991999999999999999999MA1101081999999REMMET051METAR SBJP 042200Z 13005KT 9999 FEW025 26/22 Q1011;
0120827980999992007110423004-07100-034867FM-15+0007SBJP V0201401N003112200019N0112651N1+02601+02201999999ADDGA1041+006001999GF104991999999999999999999MA1101191999999REMMET051METAR SBJP 042300Z 14006KT 9999 SCT020 26/22 Q1012;
0120827980999992007110500004-07100-034867FM-15+0007SBJP V0201301N003112200019N0112651N1+02601+02201999999ADDGA1041+006001999GF104991999999999999999999MA1101191999999REMMET051METAR SBJP 050000Z 13006KT 9999 SCT020 26/22 Q1012;
0120827980999992007110501004-07100-034867FM-15+0007SBJP V0201301N002112200019N0112651N1+02501+02101999999ADDGA1041+006001999GF104991999999999999999999MA1101191999999REMMET051METAR SBJP 050100Z 13004KT 9999 SCT020 25/21 Q1012;
0120827980999992007110502004-07100-034867FM-15+0007SBJP V0201301N002112200019N0112651N1+02501+02101999999ADDGA1041+006001999GF104991999999999999999999MA1101191999999REMMET051METAR SBJP 050200Z 13004KT 9999 SCT020 25/21 Q1012;
0120827980999992007110503004-07100-034867FM-15+0007SBJP V0201201N002112200019N0112651N1+02501+02101999999ADDGA1041+006001999GF104991999999999999999999MA1101081999999REMMET051METAR SBJP 050300Z 12004KT 9999 SCT020 25/21 Q1011;
0120827980999992007110504004-07100-034867FM-15+0007SBJP V0201201N002112200019N0112651N1+02501+02101999999ADDGA1021+006001999GF102991999999999999999999MA1101021999999REMMET051METAR SBJP 050400Z 12004KT 9999 FEW020 25/21 Q1010;
0120827980999992007110505004-07100-034867FM-15+0007SBJP V0201201N002112200019N0112651N1+02501+02101999999ADDGA1041+006001999GF104991999999999999999999MA1101021999999REMMET051METAR SBJP 050500Z 12004KT 9999 SCT020 25/21 Q1010;
0120827980999992007110506004-07100-034867FM-15+0007SBJP V0201201N001512200019N0112651N1+02501+02101999999ADDGA1041+006001999GF104991999999999999999999MA1101021999999REMMET051METAR SBJP 050600Z 12003KT 9999 SCT020 25/21 Q1010;
0120827980999992007110507004-07100-034867FM-15+0007SBJP V0201201N002112200019N0112651N1+02501+02101999999ADDGA1021+006001999GF102991999999999999999999MA1101081999999REMMET051METAR SBJP 050700Z 12004KT 9999 FEW020 25/21 Q1011;
0120827980999992007110508004-07100-034867FM-15+0007SBJP V0201301N002112200019N0112651N1+02401+02101999999ADDGA1021+006001999GF102991999999999999999999MA1101081999999REMMET051METAR SBJP 050800Z 13004KT 9999 FEW020 24/21 Q1011;
0120827980999992007110509004-07100-034867FM-15+0007SBJP V0201301N002112200019N0112651N1+02601+02101999999ADDGA1021+006001999GF102991999999999999999999MA1101191999999REMMET051METAR SBJP 050900Z 13004KT 9999 FEW020 26/21 Q1012;
0120827980999992007110510004-07100-034867FM-15+0007SBJP V0201301N003612200019N0112651N1+02701+02101999999ADDGA1021+006001999GF102991999999999999999999MA1101291999999REMMET051METAR SBJP 051000Z 13007KT 9999 FEW020 27/21 Q1013;
0120827980999992007110511004-07100-034867FM-15+0007SBJP V0201101N004112200019N0112651N1+02801+02101999999ADDGA1041+006001999GF104991999999999999999999MA1101291999999REMMET051METAR SBJP 051100Z 11008KT 9999 SCT020 28/21 Q1013;
0120827980999992007110512004-07100-034867FM-15+0007SBJP V0201401N004612200019N0112651N1+03001+02101999999ADDGA1041+006001999GF104991999999999999999999MA1101291999999REMMET051METAR SBJP 051200Z 14009KT 9999 SCT020 30/21 Q1013;
0120827980999992007110513004-07100-034867FM-15+0007SBJP V0201401N003112200019N0112651N1+03001+01901999999ADDGA1041+006001999GF104991999999999999999999MA1101291999999REMMET051METAR SBJP 051300Z 14006KT 9999 SCT020 30/19 Q1013;
0120827980999992007110514004-07100-034867FM-15+0007SBJP V0201501N005112200019N0112651N1+03001+01901999999ADDGA1041+006001999GF104991999999999999999999MA1101291999999REMMET051METAR SBJP 051400Z 15010KT 9999 SCT020 30/19 Q1013;
0120827980999992007110515004-07100-034867FM-15+0007SBJP V0201401N003112200019N0112651N1+03001+01901999999ADDGA1041+006001999GF104991999999999999999999MA1101191999999REMMET051METAR SBJP 051500Z 14006KT 9999 SCT020 30/19 Q1012;
0120827980999992007110516004-07100-034867FM-15+0007SBJP V0201501N004112200019N0112651N1+03001+01901999999ADDGA1021+006001999GF102991999999999999999999MA1101081999999REMMET051METAR SBJP 051600Z 15008KT 9999 FEW020 30/19 Q1011;
0120827980999992007110517004-07100-034867FM-15+0007SBJP V0201301N004612200019N0112651N1+02901+02001999999ADDGA1021+006001999GF102991999999999999999999MA1101081999999REMMET051METAR SBJP 051700Z 13009KT 9999 FEW020 29/20 Q1011;
0120827980999992007110518004-07100-034867FM-15+0007SBJP V0201601N005112200019N0112651N1+02801+02001999999ADDGA1041+006001999GF104991999999999999999999MA1101081999999REMMET051METAR SBJP 051800Z 16010KT 9999 SCT020 28/20 Q1011;
0120827980999992007110519004-07100-034867FM-15+0007SBJP V0201401N005112200019N0112651N1+02801+02101999999ADDGA1041+006001999GF104991999999999999999999MA1101081999999REMMET051METAR SBJP 051900Z 14010KT 9999 SCT020 28/21 Q1011;
0120827980999992007110520004-07100-034867FM-15+0007SBJP V0201301N004112200019N0112651N1+02701+02101999999ADDGA1041+006001999GF104991999999999999999999MA1101081999999REMMET051METAR SBJP 052000Z 13008KT 9999 SCT020 27/21 Q1011;
0120827980999992007110521004-07100-034867FM-15+0007SBJP V0201501N004612200019N0112651N1+02701+02101999999ADDGA1041+006001999GF104991999999999999999999MA1101191999999REMMET051METAR SBJP 052100Z 15009KT 9999 SCT020 27/21 Q1012;
0120827980999992007110522004-07100-034867FM-15+0007SBJP V0201401N002612200019N0112651N1+02601+02101999999ADDGA1041+006001999GF104991999999999999999999MA1101191999999REMMET051METAR SBJP 052200Z 14005KT 9999 SCT020 26/21 Q1012;
0120827980999992007110523004-07100-034867FM-15+0007SBJP V0201401N003612200019N0112651N1+02601+02101999999ADDGA1021+006001999GF102991999999999999999999MA1101291999999REMMET051METAR SBJP 052300Z 14007KT 9999 FEW020 26/21 Q1013;
0120827980999992007110600004-07100-034867FM-15+0007SBJP V0201601N003112200019N0112651N1+02501+02101999999ADDGA1021+006001999GF102991999999999999999999MA1101391999999REMMET051METAR SBJP 060000Z 16006KT 9999 FEW020 25/21 Q1014;
0120827980999992007110601004-07100-034867FM-15+0007SBJP V0201501N003112200019N0112651N1+02501+02101999999ADDGA1021+006001999GF102991999999999999999999MA1101391999999REMMET051METAR SBJP 060100Z 15006KT 9999 FEW020 25/21 Q1014;
0120827980999992007110602004-07100-034867FM-15+0007SBJP V0201501N003612200019N0112651N1+02601+02101999999ADDGA1021+006001999GF102991999999999999999999MA1101291999999REMMET051METAR SBJP 060200Z 15007KT 9999 FEW020 26/21 Q1013;
0120827980999992007110603004-07100-034867FM-15+0007SBJP V0201501N003112200019N0112651N1+02601+02101999999ADDGA1041+006001999GF104991999999999999999999MA1101291999999REMMET051METAR SBJP 060300Z 15006KT 9999 SCT020 26/21 Q1013;
0120827980999992007110604004-07100-034867FM-15+0007SBJP V0201401N003112200019N0112651N1+02501+02101999999ADDGA1041+006001999GF104991999999999999999999MA1101191999999REMMET051METAR SBJP 060400Z 14006KT 9999 SCT020 25/21 Q1012;
0120827980999992007110605004-07100-034867FM-15+0007SBJP V0201501N003112200019N0112651N1+02501+02001999999ADDGA1041+006001999GF104991999999999999999999MA1101081999999REMMET051METAR SBJP 060500Z 15006KT 9999 SCT020 25/20 Q1011;
0120827980999992007110606004-07100-034867FM-15+0007SBJP V0201601N003112200019N0112651N1+02401+02101999999ADDGA1041+006001999GF104991999999999999999999MA1101191999999REMMET051METAR SBJP 060600Z 16006KT 9999 SCT020 24/21 Q1012;
0120827980999992007110607004-07100-034867FM-15+0007SBJP V0201501N002112200019N0112651N1+02401+02101999999ADDGA1041+006001999GF104991999999999999999999MA1101191999999REMMET051METAR SBJP 060700Z 15004KT 9999 SCT020 24/21 Q1012;
0120827980999992007110608004-07100-034867FM-15+0007SBJP V0201501N002112200019N0112651N1+02401+02101999999ADDGA1041+006001999GF104991999999999999999999MA1101291999999REMMET051METAR SBJP 060800Z 15004KT 9999 SCT020 24/21 Q1013;
0120827980999992007110609004-07100-034867FM-15+0007SBJP V0201601N002112200019N0112651N1+02501+02101999999ADDGA1041+006001999GF104991999999999999999999MA1101291999999REMMET051METAR SBJP 060900Z 16004KT 9999 SCT020 25/21 Q1013;
0120827980999992007110610004-07100-034867FM-15+0007SBJP V0201401N004112200019N0112651N1+02701+02101999999ADDGA1041+006001999GF104991999999999999999999MA1101391999999REMMET051METAR SBJP 061000Z 14008KT 9999 SCT020 27/21 Q1014;
0120827980999992007110611004-07100-034867FM-15+0007SBJP V0201401N004112200019N0112651N1+02701+02101999999ADDGA1041+006001999GF104991999999999999999999MA1101391999999REMMET051METAR SBJP 061100Z 14008KT 9999 SCT020 27/21 Q1014;
0120827980999992007110612004-07100-034867FM-15+0007SBJP V0201301N005710090019N0112651N1+02901+01901999999ADDGA1071+009001999GF107991999999999999999999MA1101491999999REMMET051METAR SBJP 061200Z 13011KT 9999 BKN030 29/19 Q1015;
0120827980999992007110613004-07100-034867FM-15+0007SBJP V0201401N004110090019N0112651N1+02901+02101999999ADDGA1071+009001999GF107991999999999999999999MA1101491999999REMMET051METAR SBJP 061300Z 14008KT 9999 BKN030 29/21 Q1015;
0120827980999992007110614004-07100-034867FM-15+0007SBJP V0201501N005112200019N0112651N1+03001+02001999999ADDGA1041+009001999GF104991999999999999999999MA1101391999999REMMET051METAR SBJP 061400Z 15010KT 9999 SCT030 30/20 Q1014;
0120827980999992007110615004-07100-034867FM-15+0007SBJP V0201401N005712200019N0112651N1+03001+01901999999ADDGA1041+009001999GF104991999999999999999999MA1101391999999REMMET051METAR SBJP 061500Z 14011KT 9999 SCT030 30/19 Q1014;
0120827980999992007110616004-07100-034867FM-15+0007SBJP V0201601N005712200019N0112651N1+03001+01901999999ADDGA1041+009001999GF104991999999999999999999MA1101291999999REMMET051METAR SBJP 061600Z 16011KT 9999 SCT030 30/19 Q1013;
0120827980999992007110617004-07100-034867FM-15+0007SBJP V0201601N006212200019N0112651N1+02901+02001999999ADDGA1041+009001999GF104991999999999999999999MA1101191999999REMMET051METAR SBJP 061700Z 16012KT 9999 SCT030 29/20 Q1012;
0120827980999992007110618004-07100-034867FM-15+0007SBJP V0201601N006212200019N0112651N1+02901+02001999999ADDGA1041+009001999GF104991999999999999999999MA1101191999999REMMET051METAR SBJP 061800Z 16012KT 9999 SCT030 29/20 Q1012;
0120827980999992007110619004-07100-034867FM-15+0007SBJP V0201501N006212200019N0112651N1+02801+01901999999ADDGA1041+009001999GF104991999999999999999999MA1101191999999REMMET051METAR SBJP 061900Z 15012KT 9999 SCT030 28/19 Q1012;
0120827980999992007110620004-07100-034867FM-15+0007SBJP V0201601N005112200019N0112651N1+02701+02001999999ADDGA1021+009001999GF102991999999999999999999MA1101191999999REMMET051METAR SBJP 062000Z 16010KT 9999 FEW030 27/20 Q1012;
0120827980999992007110621004-07100-034867FM-15+0007SBJP V0201601N003112200019N0112651N1+02601+02001999999ADDGA1021+007501999GF102991999999999999999999MA1101291999999REMMET051METAR SBJP 062100Z 16006KT 9999 FEW025 26/20 Q1013;
0120827980999992007110622004-07100-034867FM-15+0007SBJP V0201501N002612200019N0112651N1+02501+02001999999ADDGA1021+006001999GF102991999999999999999999MA1101391999999REMMET051METAR SBJP 062200Z 15005KT 9999 FEW020 25/20 Q1014;
0072827980999992007110623004-07100-034867FM-15+0007SBJP V0201501N00261220001CN0099001N1+02501+02101999999ADDMA1101391999999REMMET045METAR SBJP 062300Z 15005KT CAVOK 25/21 Q1014;
0120827980999992007110700004-07100-034867FM-15+0066SBJP V0201501N002612200019N0112651N1+02501+02001999999ADDGA1021+006001999GF102991999999999999999999MA1101491999999REMMET051METAR SBJP 070000Z 15005KT 9999 FEW020 25/20 Q1015;
0120827980999992007110701004-07100-034867FM-15+0066SBJP V0201801N001512200019N0112651N1+02401+02001999999ADDGA1041+006001999GF104991999999999999999999MA1101491999999REMMET051METAR SBJP 070100Z 18003KT 9999 SCT020 24/20 Q1015;
0120827980999992007110702004-07100-034867FM-15+0066SBJP V0201801N001512200019N0112651N1+02401+02101999999ADDGA1041+006001999GF104991999999999999999999MA1101391999999REMMET051METAR SBJP 070200Z 18003KT 9999 SCT020 24/21 Q1014;
0143827980999992007110703004-07100-034867FM-15+0066SBJP V0201901N002612200019N0112651N1+02401+02101999999ADDGA1021+006001999GA2041+021001999GF104991999999999999999999MA1101291999999REMMET058METAR SBJP 070300Z 19005KT 9999 FEW020 SCT070 24/21 Q1013;
0120827980999992007110704004-07100-034867FM-15+0066SBJP V0202201N002610060019N0112651N1+02401+02101999999ADDGA1071+006001999GF107991999999999999999999MA1101291999999REMMET051METAR SBJP 070400Z 22005KT 9999 BKN020 24/21 Q1013;
0130827980999992007110705004-07100-034867FM-15+0066SBJP V0201701N002110060019N0040001N1+02401+02101999999ADDGA1071+006001999GF107991999999999999999999MA1101291999999MW1611REMMET055METAR SBJP 070500Z 17004KT 4000 -RA BKN020 24/21 Q1013;
0120827980999992007110706004-07100-034867FM-15+0066SBJP V0202101N002610060019N0112651N1+02301+02101999999ADDGA1071+006001999GF107991999999999999999999MA1101291999999REMMET051METAR SBJP 070600Z 21005KT 9999 BKN020 23/21 Q1013;
0120827980999992007110707004-07100-034867FM-15+0066SBJP V0201901N003112200019N0112651N1+02301+02101999999ADDGA1041+006001999GF104991999999999999999999MA1101291999999REMMET051METAR SBJP 070700Z 19006KT 9999 SCT020 23/21 Q1013;
0120827980999992007110708004-07100-034867FM-15+0066SBJP V0202001N002112200019N0112651N1+02201+02101999999ADDGA1021+006001999GF102991999999999999999999MA1101391999999REMMET051METAR SBJP 070800Z 20004KT 9999 FEW020 22/21 Q1014;
0120827980999992007110709004-07100-034867FM-15+0066SBJP V0202101N002112200019N0112651N1+02301+02201999999ADDGA1021+006001999GF102991999999999999999999MA1101391999999REMMET051METAR SBJP 070900Z 21004KT 9999 FEW020 23/22 Q1014;
0120827980999992007110710004-07100-034867FM-15+0066SBJP V0201801N004112200019N0112651N1+02501+02201999999ADDGA1041+006001999GF104991999999999999999999MA1101391999999REMMET051METAR SBJP 071000Z 18008KT 9999 SCT020 25/22 Q1014;
0120827980999992007110711004-07100-034867FM-15+0066SBJP V0201801N005112200019N0112651N1+02701+02101999999ADDGA1041+006001999GF104991999999999999999999MA1101391999999REMMET051METAR SBJP 071100Z 18010KT 9999 SCT020 27/21 Q1014;
0120827980999992007110712004-07100-034867FM-15+0066SBJP V0201701N006210075019N0112651N1+02901+02101999999ADDGA1071+007501999GF107991999999999999999999MA1101391999999REMMET051METAR SBJP 071200Z 17012KT 9999 BKN025 29/21 Q1014;
0120827980999992007110713004-07100-034867FM-15+0066SBJP V0201801N006210075019N0112651N1+02901+02101999999ADDGA1071+007501999GF107991999999999999999999MA1101391999999REMMET051METAR SBJP 071300Z 18012KT 9999 BKN025 29/21 Q1014;
0120827980999992007110714004-07100-034867FM-15+0066SBJP V0201701N005710075019N0112651N1+03001+02101999999ADDGA1071+007501999GF107991999999999999999999MA1101391999999REMMET051METAR SBJP 071400Z 17011KT 9999 BKN025 30/21 Q1014;
0120827980999992007110715004-07100-034867FM-15+0066SBJP V0201701N006210075019N0112651N1+03101+02001999999ADDGA1071+007501999GF107991999999999999999999MA1101291999999REMMET051METAR SBJP 071500Z 17012KT 9999 BKN025 31/20 Q1013;
0120827980999992007110716004-07100-034867FM-15+0066SBJP V0201401N006710090019N0112651N1+03001+02101999999ADDGA1071+009001999GF107991999999999999999999MA1101191999999REMMET051METAR SBJP 071600Z 14013KT 9999 BKN030 30/21 Q1012;
0120827980999992007110717004-07100-034867FM-15+0066SBJP V0201501N006710060019N0112651N1+02901+02301999999ADDGA1071+006001999GF107991999999999999999999MA1101081999999REMMET051METAR SBJP 071700Z 15013KT 9999 BKN020 29/23 Q1011;
0130827980999992007110718004-07100-034867FM-15+0066SBJP V0201501N006210048019N0090001N1+02701+02201999999ADDGA1071+004801999GF107991999999999999999999MA1101081999999MW1611REMMET055METAR SBJP 071800Z 15012KT 9000 -RA BKN016 27/22 Q1011;
0143827980999992007110719004-07100-034867FM-15+0066SBJP V0201601N006210045019N0112651N1+02501+02301999999ADDGA1041+003001999GA2071+004501999GF107991999999999999999999MA1101191999999REMMET058METAR SBJP 071900Z 16012KT 9999 SCT010 BKN015 25/23 Q1012;
0153827980999992007110720004-07100-034867FM-15+0066SBJP V0201601N005110030019N0045001N1+02501+02301999999ADDGA1071+003001999GA2071+004501999GF107991999999999999999999MA1101191999999MW1611REMMET062METAR SBJP 072000Z 16010KT 4500 -RA BKN010 BKN015 25/23 Q1012;
0120827980999992007110721004-07100-034867FM-15+0066SBJP V0201601N003610048019N0112651N1+02401+02301999999ADDGA1071+004801999GF107991999999999999999999MA1101191999999REMMET051METAR SBJP 072100Z 16007KT 9999 BKN016 24/23 Q1012;
0146827980999992007110722004-07100-034867FM-15+0066SBJP V0201601N00361220001CN0050001N1+02401+02301999999ADDGA1071+003001999GA2041+004801999MA1101291999999MW1611REMMET062METAR SBJP 072200Z 16007KT 5000 -RA BKN010 SCT016 24/23 Q1013;EQDQ01+000042SCOTCV
0143827980999992007110723004-07100-034867FM-15+0066SBJP V0201701N003612200019N0112651N1+02401+02301999999ADDGA1041+003001999GA2041+005401999GF104991999999999999999999MA1101391999999REMMET058METAR SBJP 072300Z 17007KT 9999 SCT010 SCT018 24/23 Q1014;
0143827980999992007110800004-07100-034867FM-15+0066SBJP V0201701N002612200019N0112651N1+02401+02301999999ADDGA1041+003001999GA2041+005401999GF104991999999999999999999MA1101391999999REMMET058METAR SBJP 080000Z 17005KT 9999 SCT010 SCT018 24/23 Q1014;
0146827980999992007110801004-07100-034867FM-15+0066SBJP V0201401N00361220001CN0112651N1+02401+02301999999ADDGA1071+003001999GA2041+005101999MA1101391999999MW1611REMMET062METAR SBJP 080100Z 14007KT 9999 -RA BKN010 SCT017 24/23 Q1014;EQDQ01+000042SCOTCV
0136827980999992007110802004-07100-034867FM-15+0066SBJP V0201301N00411220001CN0112651N1+02401+02301999999ADDGA1071+003001999GA2041+021001999MA1101291999999REMMET058METAR SBJP 080200Z 13008KT 9999 BKN010 SCT070 24/23 Q1013;EQDQ01+000042SCOTCV
0136827980999992007110803004-07100-034867FM-15+0066SBJP V0201701N00261220001CN0112651N1+02401+02301999999ADDGA1071+003601999GA2041+021001999MA1101191999999REMMET058METAR SBJP 080300Z 17005KT 9999 BKN012 SCT070 24/23 Q1012;EQDQ01+000042SCOTCV
0143827980999992007110804004-07100-034867FM-15+0066SBJP V0201601N003610036019N0112651N1+02501+02301999999ADDGA1071+003601999GA2071+021001999GF107991999999999999999999MA1101191999999REMMET058METAR SBJP 080400Z 16007KT 9999 BKN012 BKN070 25/23 Q1012;
0143827980999992007110805004-07100-034867FM-15+0066SBJP V0201601N003112200019N0112651N1+02401+02201999999ADDGA1041+004501999GA2041+021001999GF104991999999999999999999MA1101081999999REMMET058METAR SBJP 080500Z 16006KT 9999 SCT015 SCT070 24/22 Q1011;
0120827980999992007110806004-07100-034867FM-15+0066SBJP V0201501N002612200019N0112651N1+02401+02201999999ADDGA1021+006001999GF102991999999999999999999MA1101081999999REMMET051METAR SBJP 080600Z 15005KT 9999 FEW020 24/22 Q1011;
0143827980999992007110807004-07100-034867FM-15+0066SBJP V0201701N002112200019N0112651N1+02401+02201999999ADDGA1021+006001999GA2041+021001999GF104991999999999999999999MA1101081999999REMMET058METAR SBJP 080700Z 17004KT 9999 FEW020 SCT070 24/22 Q1011;
0120827980999992007110809004-07100-034867FM-15+0066SBJP V0201701N003112200019N0112651N1+02501+02201999999ADDGA1041+006001999GF104991999999999999999999MA1101191999999REMMET051METAR SBJP 080900Z 17006KT 9999 SCT020 25/22 Q1012;
0120827980999992007110811004-07100-034867FM-15+0066SBJP V0201301N004610060019N0112651N1+02801+02201999999ADDGA1071+006001999GF107991999999999999999999MA1101291999999REMMET051METAR SBJP 081100Z 13009KT 9999 BKN020 28/22 Q1013;
0120827980999992007110812004-07100-034867FM-15+0066SBJP V0201201N005110075019N0112651N1+02801+02101999999ADDGA1071+007501999GF107991999999999999999999MA1101291999999REMMET051METAR SBJP 081200Z 12010KT 9999 BKN025 28/21 Q1013;
0120827980999992007110813004-07100-034867FM-15+0066SBJP V0201301N006210090019N0112651N1+02901+02101999999ADDGA1071+009001999GF107991999999999999999999MA1101191999999REMMET051METAR SBJP 081300Z 13012KT 9999 BKN030 29/21 Q1012;
0120827980999992007110814004-07100-034867FM-15+0066SBJP V0201301N005710090019N0112651N1+03001+02001999999ADDGA1071+009001999GF107991999999999999999999MA1101191999999REMMET051METAR SBJP 081400Z 13011KT 9999 BKN030 30/20 Q1012;
0120827980999992007110815004-07100-034867FM-15+0066SBJP V0201401N006710090019N0112651N1+02901+02001999999ADDGA1071+009001999GF107991999999999999999999MA1101081999999REMMET051METAR SBJP 081500Z 14013KT 9999 BKN030 29/20 Q1011;
0120827980999992007110816004-07100-034867FM-15+0066SBJP V0201701N006710090019N0112651N1+03001+02001999999ADDGA1071+009001999GF107991999999999999999999MA1101021999999REMMET051METAR SBJP 081600Z 17013KT 9999 BKN030 30/20 Q1010;
0155827980999992007110817004-07100-034867FM-15+0066SBJP V0201601N006212200019N0112651N1+03001+01901999999ADDGA1041+009001999GF104991999999999999999999MA1999999999999REMMET051METAR SBJP 081700Z 16012KT 9999 SCT030 30/19 Q1017;EQDQ01+101693APOA  Q02 101703APOA  
0120827980999992007110818004-07100-034867FM-15+0066SBJP V0201701N006212200019N0112651N1+02901+01901999999ADDGA1041+009001999GF104991999999999999999999MA1101021999999REMMET051METAR SBJP 081800Z 17012KT 9999 SCT030 29/19 Q1010;
0120827980999992007110819004-07100-034867FM-15+0066SBJP V0201601N006712200019N0112651N1+02801+02001999999ADDGA1021+009001999GF102991999999999999999999MA1101021999999REMMET051METAR SBJP 081900Z 16013KT 9999 FEW030 28/20 Q1010;
0143827980999992007110820004-07100-034867FM-15+0066SBJP V0201701N004612200019N0112651N1+02601+02001999999ADDGA1021+007501999GA2041+090001999GF104991999999999999999999MA1101021999999REMMET058METAR SBJP 082000Z 17009KT 9999 FEW025 SCT300 26/20 Q1010;
0143827980999992007110822004-07100-034867FM-15+0066SBJP V0201801N003112200019N0112651N1+02501+02001999999ADDGA1041+007501999GA2041+021001999GF104991999999999999999999MA1101081999999REMMET058METAR SBJP 082200Z 18006KT 9999 SCT025 SCT070 25/20 Q1011;
0143827980999992007110823004-07100-034867FM-15+0066SBJP V0201801N003112200019N0112651N1+02501+02101999999ADDGA1041+007501999GA2041+021001999GF104991999999999999999999MA1101191999999REMMET058METAR SBJP 082300Z 18006KT 9999 SCT025 SCT070 25/21 Q1012;
0072827980999992007110900004-07100-034867FM-15+0066SBJP V0209999C00001220001CN0099001N1+02401+02101999999ADDMA1101191999999REMMET045METAR SBJP 090000Z 00000KT CAVOK 24/21 Q1012;
0072827980999992007110901004-07100-034867FM-15+0066SBJP V0202001N00101220001CN0099001N1+02401+02001999999ADDMA1101191999999REMMET045METAR SBJP 090100Z 20002KT CAVOK 24/20 Q1012;
0143827980999992007110902004-07100-034867FM-15+0066SBJP V0209999C000012200019N0112651N1+02401+02101999999ADDGA1041+006001999GA2041+021001999GF104991999999999999999999MA1101191999999REMMET058METAR SBJP 090200Z 00000KT 9999 SCT020 SCT070 24/21 Q1012;
0072827980999992007110903004-07100-034867FM-15+0066SBJP V0201801N00101220001CN0099001N1+02401+02101999999ADDMA1101081999999REMMET045METAR SBJP 090300Z 18002KT CAVOK 24/21 Q1011;
0143827980999992007110904004-07100-034867FM-15+0066SBJP V0201301N002110210019N0112651N1+02401+02101999999ADDGA1021+006001999GA2071+021001999GF107991999999999999999999MA1101081999999REMMET058METAR SBJP 090400Z 13004KT 9999 FEW020 BKN070 24/21 Q1011;
0072827980999992007110905004-07100-034867FM-15+0066SBJP V0201301N00151220001CN0099001N1+02401+02001999999ADDMA1101021999999REMMET045METAR SBJP 090500Z 13003KT CAVOK 24/20 Q1010;
0072827980999992007110906004-07100-034867FM-15+0066SBJP V0201301N00151220001CN0099001N1+02301+02001999999ADDMA1100911999999REMMET045METAR SBJP 090600Z 13003KT CAVOK 23/20 Q1009;
0120827980999992007110907004-07100-034867FM-15+0066SBJP V0201501N001012200019N0112651N1+02201+02001999999ADDGA1041+006001999GF104991999999999999999999MA1101021999999REMMET051METAR SBJP 090700Z 15002KT 9999 SCT020 22/20 Q1010;
0072827980999992007110908004-07100-034867FM-15+0066SBJP V0202101N00211220001CN0099001N1+02201+02101999999ADDMA1101021999999REMMET045METAR SBJP 090800Z 21004KT CAVOK 22/21 Q1010;
0072827980999992007110909004-07100-034867FM-15+0066SBJP V0202101N00151220001CN0099001N1+02301+02101999999ADDMA1101021999999REMMET045METAR SBJP 090900Z 21003KT CAVOK 23/21 Q1010;
0143827980999992007110910004-07100-034867FM-15+0066SBJP V0202001N002110210019N0112651N1+02601+02101999999ADDGA1021+006001999GA2071+021001999GF107991999999999999999999MA1101081999999REMMET058METAR SBJP 091000Z 20004KT 9999 FEW020 BKN070 26/21 Q1011;
0143827980999992007110911004-07100-034867FM-15+0066SBJP V0201601N004612200019N0112651N1+02701+01901999999ADDGA1041+007501999GA2041+021001999GF104991999999999999999999MA1101191999999REMMET058METAR SBJP 091100Z 16009KT 9999 SCT025 SCT070 27/19 Q1012;
0143827980999992007110912004-07100-034867FM-15+0066SBJP V0201501N005712200019N0112651N1+02901+01901999999ADDGA1041+009001999GA2041+024001999GF104991999999999999999999MA1101191999999REMMET058METAR SBJP 091200Z 15011KT 9999 SCT030 SCT080 29/19 Q1012;
0120827980999992007110913004-07100-034867FM-15+0066SBJP V0201501N005112200019N0112651N1+02901+01801999999ADDGA1041+009001999GF104991999999999999999999MA1101191999999REMMET051METAR SBJP 091300Z 15010KT 9999 SCT030 29/18 Q1012;
0120827980999992007110914004-07100-034867FM-15+0066SBJP V0201401N005112200019N0112651N1+02901+01801999999ADDGA1041+009001999GF104991999999999999999999MA1101191999999REMMET051METAR SBJP 091400Z 14010KT 9999 SCT030 29/18 Q1012;
0120827980999992007110915004-07100-034867FM-15+0066SBJP V0201601N005112200019N0112651N1+03001+01801999999ADDGA1041+009001999GF104991999999999999999999MA1101081999999REMMET051METAR SBJP 091500Z 16010KT 9999 SCT030 30/18 Q1011;
0120827980999992007110916004-07100-034867FM-15+0066SBJP V0201501N006212200019N0112651N1+03001+01901999999ADDGA1041+009001999GF104991999999999999999999MA1101021999999REMMET051METAR SBJP 091600Z 15012KT 9999 SCT030 30/19 Q1010;
0120827980999992007110917004-07100-034867FM-15+0066SBJP V0201701N006212200019N0112651N1+03001+01801999999ADDGA1041+009001999GF104991999999999999999999MA1100911999999REMMET051METAR SBJP 091700Z 17012KT 9999 SCT030 30/18 Q1009;
0120827980999992007110918004-07100-034867FM-15+0066SBJP V0201701N006212200019N0112651N1+02901+01801999999ADDGA1041+009001999GF104991999999999999999999MA1100911999999REMMET051METAR SBJP 091800Z 17012KT 9999 SCT030 29/18 Q1009;
0120827980999992007110919004-07100-034867FM-15+0066SBJP V0201501N004112200019N0112651N1+02801+01701999999ADDGA1021+009001999GF102991999999999999999999MA1100911999999REMMET051METAR SBJP 091900Z 15008KT 9999 FEW030 28/17 Q1009;
0072827980999992007110920004-07100-034867FM-15+0066SBJP V0201801N00411220001CN0099001N1+02701+01801999999ADDMA1101021999999REMMET045METAR SBJP 092000Z 18008KT CAVOK 27/18 Q1010;
0072827980999992007110921004-07100-034867FM-15+0066SBJP V0201801N00211220001CN0099001N1+02501+01901999999ADDMA1101021999999REMMET045METAR SBJP 092100Z 18004KT CAVOK 25/19 Q1010;
0120827980999992007110922004-07100-034867FM-15+0066SBJP V0201801N001512200019N0112651N1+02401+01901999999ADDGA1021+006001999GF102991999999999999999999MA1101081999999REMMET051METAR SBJP 092200Z 18003KT 9999 FEW020 24/19 Q1011;
0120827980999992007110923004-07100-034867FM-15+0066SBJP V0202001N001012200019N0112651N1+02401+02001999999ADDGA1021+006001999GF102991999999999999999999MA1101081999999REMMET051METAR SBJP 092300Z 20002KT 9999 FEW020 24/20 Q1011;
0120827980999992007111000004-07100-034867FM-15+0066SBJP V0202101N001012200019N0112651N1+02401+02001999999ADDGA1021+006001999GF102991999999999999999999MA1101081999999REMMET051METAR SBJP 100000Z 21002KT 9999 FEW020 24/20 Q1011;
0120827980999992007111001004-07100-034867FM-15+0066SBJP V0202101N001512200019N0112651N1+02301+02001999999ADDGA1021+006001999GF102991999999999999999999MA1101081999999REMMET051METAR SBJP 100100Z 21003KT 9999 FEW020 23/20 Q1011;
0120827980999992007111002004-07100-034867FM-15+0066SBJP V0202301N001512200019N0112651N1+02201+02001999999ADDGA1021+006001999GF102991999999999999999999MA1101081999999REMMET051METAR SBJP 100200Z 23003KT 9999 FEW020 22/20 Q1011;
0120827980999992007111003004-07100-034867FM-15+0066SBJP V0202301N001512200019N0112651N1+02201+02001999999ADDGA1041+006001999GF104991999999999999999999MA1101021999999REMMET051METAR SBJP 100300Z 23003KT 9999 SCT020 22/20 Q1010;
0120827980999992007111004004-07100-034867FM-15+0066SBJP V0202501N002112200019N0112651N1+02201+02001999999ADDGA1041+006001999GF104991999999999999999999MA1101021999999REMMET051METAR SBJP 100400Z 25004KT 9999 SCT020 22/20 Q1010;
0120827980999992007111005004-07100-034867FM-15+0066SBJP V0202201N001512200019N0112651N1+02201+02001999999ADDGA1041+006001999GF104991999999999999999999MA1100911999999REMMET051METAR SBJP 100500Z 22003KT 9999 SCT020 22/20 Q1009;
0120827980999992007111006004-07100-034867FM-15+0066SBJP V0202201N002112200019N0112651N1+02201+02001999999ADDGA1041+006001999GF104991999999999999999999MA1100911999999REMMET051METAR SBJP 100600Z 22004KT 9999 SCT020 22/20 Q1009;
0120827980999992007111007004-07100-034867FM-15+0066SBJP V0202301N002112200019N0112651N1+02201+02101999999ADDGA1041+006001999GF104991999999999999999999MA1100911999999REMMET051METAR SBJP 100700Z 23004KT 9999 SCT020 22/21 Q1009;
0143827980999992007111008004-07100-034867FM-15+0066SBJP V0202201N002112200019N0112651N1+02101+02001999999ADDGA1021+006001999GA2041+090001999GF104991999999999999999999MA1101021999999REMMET058METAR SBJP 100800Z 22004KT 9999 FEW020 SCT300 21/20 Q1010;
0120827980999992007111009004-07100-034867FM-15+0066SBJP V0202301N002112200019N0112651N1+02201+02101999999ADDGA1021+006001999GF102991999999999999999999MA1101021999999REMMET051METAR SBJP 100900Z 23004KT 9999 FEW020 22/21 Q1010;
0117827980999992007111010004-07100-034867FM-15+0066SBJP V0201701N00211220001CN0112651N1+02501+02101999999ADDGA1071+006001999GA2041+009001999MA1101081999999REMMET058METAR SBJP 101000Z 17004KT 9999 BKN020 SCT030 25/21 Q1011;
0143827980999992007111011004-07100-034867FM-15+0066SBJP V0201201N001510210019N0112651N1+02701+02101999999ADDGA1041+006001999GA2071+021001999GF107991999999999999999999MA1101081999999REMMET058METAR SBJP 101100Z 12003KT 9999 SCT020 BKN070 27/21 Q1011;
0143827980999992007111012004-07100-034867FM-15+0066SBJP V0201201N003112200019N0112651N1+02901+01901999999ADDGA1041+006001999GA2041+021001999GF104991999999999999999999MA1101191999999REMMET058METAR SBJP 101200Z 12006KT 9999 SCT020 SCT070 29/19 Q1012;
0143827980999992007111013004-07100-034867FM-15+0066SBJP V0201301N004112200019N0112651N1+02901+02001999999ADDGA1041+009001999GA2041+021001999GF104991999999999999999999MA1101081999999REMMET058METAR SBJP 101300Z 13008KT 9999 SCT030 SCT070 29/20 Q1011;
0143827980999992007111014004-07100-034867FM-15+0066SBJP V0201201N004112200019N0112651N1+03001+01901999999ADDGA1041+009001999GA2041+021001999GF104991999999999999999999MA1101081999999REMMET058METAR SBJP 101400Z 12008KT 9999 SCT030 SCT070 30/19 Q1011;
0120827980999992007111015004-07100-034867FM-15+0066SBJP V0201201N005110090019N0112651N1+02901+01901999999ADDGA1071+009001999GF107991999999999999999999MA1101021999999REMMET051METAR SBJP 101500Z 12010KT 9999 BKN030 29/19 Q1010;
0120827980999992007111016004-07100-034867FM-15+0066SBJP V0201601N004612200019N0112651N1+03001+01901999999ADDGA1041+009001999GF104991999999999999999999MA1100911999999REMMET051METAR SBJP 101600Z 16009KT 9999 SCT030 30/19 Q1009;
0143827980999992007111017004-07100-034867FM-15+0066SBJP V0201401N004610900019N0112651N1+03001+01901999999ADDGA1041+009001999GA2071+090001999GF107991999999999999999999MA1100811999999REMMET058METAR SBJP 101700Z 14009KT 9999 SCT030 BKN300 30/19 Q1008;
0143827980999992007111018004-07100-034867FM-15+0066SBJP V0201501N004610900019N0112651N1+02801+01901999999ADDGA1041+009001999GA2071+090001999GF107991999999999999999999MA1100811999999REMMET058METAR SBJP 101800Z 15009KT 9999 SCT030 BKN300 28/19 Q1008;
0143827980999992007111019004-07100-034867FM-15+0066SBJP V0201501N004110900019N0112651N1+02701+02001999999ADDGA1041+009001999GA2071+090001999GF107991999999999999999999MA1100811999999REMMET058METAR SBJP 101900Z 15008KT 9999 SCT030 BKN300 27/20 Q1008;
0143827980999992007111020004-07100-034867FM-15+0066SBJP V0201601N004610900019N0112651N1+02701+02001999999ADDGA1021+009001999GA2071+090001999GF107991999999999999999999MA1100911999999REMMET058METAR SBJP 102000Z 16009KT 9999 FEW030 BKN300 27/20 Q1009;
0143827980999992007111021004-07100-034867FM-15+0066SBJP V0201601N003112200019N0112651N1+02501+02001999999ADDGA1021+009001999GA2041+090001999GF104991999999999999999999MA1100911999999REMMET058METAR SBJP 102100Z 16006KT 9999 FEW030 SCT300 25/20 Q1009;
0120827980999992007111022004-07100-034867FM-15+0066SBJP V0201701N002112200019N0112651N1+02501+02001999999ADDGA1021+009001999GF102991999999999999999999MA1101021999999REMMET051METAR SBJP 102200Z 17004KT 9999 FEW030 25/20 Q1010;
0072827980999992007111023004-07100-034867FM-15+0066SBJP V0201701N00151220001CN0099001N1+02401+02001999999ADDMA1101081999999REMMET045METAR SBJP 102300Z 17003KT CAVOK 24/20 Q1011;
0072827980999992007111100004-07100-034867FM-15+0066SBJP V0201901N00151220001CN0099001N1+02401+02101999999ADDMA1101081999999REMMET045METAR SBJP 110000Z 19003KT CAVOK 24/21 Q1011;
0120827980999992007111101004-07100-034867FM-15+0066SBJP V0202001N001012200019N0112651N1+02401+02101999999ADDGA1021+009001999GF102991999999999999999999MA1101081999999REMMET051METAR SBJP 110100Z 20002KT 9999 FEW030 24/21 Q1011;
0120827980999992007111102004-07100-034867FM-15+0066SBJP V0202101N001012200019N0112651N1+02401+02101999999ADDGA1041+009001999GF104991999999999999999999MA1101081999999REMMET051METAR SBJP 110200Z 21002KT 9999 SCT030 24/21 Q1011;
0120827980999992007111103004-07100-034867FM-15+0066SBJP V0202401N001512200019N0112651N1+02301+02101999999ADDGA1041+006001999GF104991999999999999999999MA1101081999999REMMET051METAR SBJP 110300Z 24003KT 9999 SCT020 23/21 Q1011;
0120827980999992007111104004-07100-034867FM-15+0066SBJP V0202001N002112200019N0112651N1+02301+02101999999ADDGA1041+006001999GF104991999999999999999999MA1101021999999REMMET051METAR SBJP 110400Z 20004KT 9999 SCT020 23/21 Q1010;
0143827980999992007111105004-07100-034867FM-15+0066SBJP V0202501N000512200019N0112651N1+02301+02101999999ADDGA1041+006001999GA2041+021001999GF104991999999999999999999MA1101021999999REMMET058METAR SBJP 110500Z 25001KT 9999 SCT020 SCT070 23/21 Q1010;
0143827980999992007111106004-07100-034867FM-15+0066SBJP V0202001N001512200019N0112651N1+02301+02101999999ADDGA1041+006001999GA2041+021001999GF104991999999999999999999MA1101021999999REMMET058METAR SBJP 110600Z 20003KT 9999 SCT020 SCT070 23/21 Q1010;
0120827980999992007111107004-07100-034867FM-15+0066SBJP V0202001N000512200019N0112651N1+02201+02101999999ADDGA1041+006001999GF104991999999999999999999MA1101021999999REMMET051METAR SBJP 110700Z 20001KT 9999 SCT020 22/21 Q1010;
0120827980999992007111108004-07100-034867FM-15+0066SBJP V0202101N001512200019N0112651N1+02201+02001999999ADDGA1041+006001999GF104991999999999999999999MA1101081999999REMMET051METAR SBJP 110800Z 21003KT 9999 SCT020 22/20 Q1011;
0120827980999992007111109004-07100-034867FM-15+0066SBJP V0202001N001512200019N0112651N1+02401+02201999999ADDGA1041+006001999GF104991999999999999999999MA1101081999999REMMET051METAR SBJP 110900Z 20003KT 9999 SCT020 24/22 Q1011;
0120827980999992007111110004-07100-034867FM-15+0066SBJP V0201301N002612200019N0112651N1+02701+02101999999ADDGA1041+006001999GF104991999999999999999999MA1101191999999REMMET051METAR SBJP 111000Z 13005KT 9999 SCT020 27/21 Q1012;
0120827980999992007111111004-07100-034867FM-15+0066SBJP V0201601N003612200019N0112651N1+02801+02101999999ADDGA1041+007501999GF104991999999999999999999MA1101191999999REMMET051METAR SBJP 111100Z 16007KT 9999 SCT025 28/21 Q1012;
0120827980999992007111112004-07100-034867FM-15+0066SBJP V0201201N004112200019N0112651N1+02901+02001999999ADDGA1041+009001999GF104991999999999999999999MA1101191999999REMMET051METAR SBJP 111200Z 12008KT 9999 SCT030 29/20 Q1012;
0120827980999992007111113004-07100-034867FM-15+0066SBJP V0201401N003612200019N0112651N1+02901+02001999999ADDGA1041+009001999GF104991999999999999999999MA1101191999999REMMET051METAR SBJP 111300Z 14007KT 9999 SCT030 29/20 Q1012;
0120827980999992007111114004-07100-034867FM-15+0066SBJP V0201501N003612200019N0112651N1+03001+02001999999ADDGA1041+009001999GF104991999999999999999999MA1101191999999REMMET051METAR SBJP 111400Z 15007KT 9999 SCT030 30/20 Q1012;
0120827980999992007111115004-07100-034867FM-15+0066SBJP V0201501N003612200019N0112651N1+03101+01901999999ADDGA1041+009001999GF104991999999999999999999MA1101081999999REMMET051METAR SBJP 111500Z 15007KT 9999 SCT030 31/19 Q1011;
0120827980999992007111116004-07100-034867FM-15+0066SBJP V0201101N004112200019N0112651N1+03101+01901999999ADDGA1041+009001999GF104991999999999999999999MA1101021999999REMMET051METAR SBJP 111600Z 11008KT 9999 SCT030 31/19 Q1010;
0120827980999992007111117004-07100-034867FM-15+0066SBJP V0201301N002112200019N0112651N1+02901+02101999999ADDGA1041+009001999GF104991999999999999999999MA1101021999999REMMET051METAR SBJP 111700Z 13004KT 9999 SCT030 29/21 Q1010;
0120827980999992007111118004-07100-034867FM-15+0066SBJP V0201401N003612200019N0112651N1+02901+02001999999ADDGA1041+009001999GF104991999999999999999999MA1101021999999REMMET051METAR SBJP 111800Z 14007KT 9999 SCT030 29/20 Q1010;
0120827980999992007111119004-07100-034867FM-15+0066SBJP V0201401N003112200019N0112651N1+02801+02101999999ADDGA1041+009001999GF104991999999999999999999MA1101021999999REMMET051METAR SBJP 111900Z 14006KT 9999 SCT030 28/21 Q1010;
0120827980999992007111120004-07100-034867FM-15+0066SBJP V0201301N003112200019N0112651N1+02701+02101999999ADDGA1041+009001999GF104991999999999999999999MA1101081999999REMMET051METAR SBJP 112000Z 13006KT 9999 SCT030 27/21 Q1011;
0120827980999992007111121004-07100-034867FM-15+0066SBJP V0201401N003112200019N0112651N1+02601+02201999999ADDGA1041+009001999GF104991999999999999999999MA1101081999999REMMET051METAR SBJP 112100Z 14006KT 9999 SCT030 26/22 Q1011;
0120827980999992007111122004-07100-034867FM-15+0066SBJP V0201201N002612200019N0112651N1+02601+02201999999ADDGA1021+006001999GF102991999999999999999999MA1101081999999REMMET051METAR SBJP 112200Z 12005KT 9999 FEW020 26/22 Q1011;
0072827980999992007111123004-07100-034867FM-15+0066SBJP V0201101N00211220001CN0099001N1+02501+02201999999ADDMA1101191999999REMMET045METAR SBJP 112300Z 11004KT CAVOK 25/22 Q1012;
0072827980999992007111200004-07100-034867FM-15+0066SBJP V0201101N00211220001CN0099001N1+02501+02201999999ADDMA1101291999999REMMET045METAR SBJP 120000Z 11004KT CAVOK 25/22 Q1013;
0120827980999992007111201004-07100-034867FM-15+0066SBJP V0201101N001512200019N0112651N1+02501+02201999999ADDGA1021+006001999GF102991999999999999999999MA1101291999999REMMET051METAR SBJP 120100Z 11003KT 9999 FEW020 25/22 Q1013;
0120827980999992007111202004-07100-034867FM-15+0066SBJP V0201001N002112200019N0112651N1+02501+02101999999ADDGA1021+006001999GF102991999999999999999999MA1101191999999REMMET051METAR SBJP 120200Z 10004KT 9999 FEW020 25/21 Q1012;
0120827980999992007111203004-07100-034867FM-15+0066SBJP V0201101N001012200019N0112651N1+02401+02101999999ADDGA1041+006001999GF104991999999999999999999MA1101191999999REMMET051METAR SBJP 120300Z 11002KT 9999 SCT020 24/21 Q1012;
0120827980999992007111204004-07100-034867FM-15+0066SBJP V0201401N001512200019N0112651N1+02501+02101999999ADDGA1041+006001999GF104991999999999999999999MA1101081999999REMMET051METAR SBJP 120400Z 14003KT 9999 SCT020 25/21 Q1011;
0120827980999992007111205004-07100-034867FM-15+0066SBJP V0201401N001512200019N0112651N1+02401+02101999999ADDGA1041+006001999GF104991999999999999999999MA1101081999999REMMET051METAR SBJP 120500Z 14003KT 9999 SCT020 24/21 Q1011;
0120827980999992007111206004-07100-034867FM-15+0066SBJP V0209999C000012200019N0112651N1+02201+02001999999ADDGA1041+006001999GF104991999999999999999999MA1101081999999REMMET051METAR SBJP 120600Z 00000KT 9999 SCT020 22/20 Q1011;
0120827980999992007111207004-07100-034867FM-15+0066SBJP V0209999C000012200019N0112651N1+02101+02001999999ADDGA1041+006001999GF104991999999999999999999MA1101081999999REMMET051METAR SBJP 120700Z 00000KT 9999 SCT020 21/20 Q1011;
0120827980999992007111208004-07100-034867FM-15+0066SBJP V0202501N001012200019N0112651N1+02101+02001999999ADDGA1041+006001999GF104991999999999999999999MA1101191999999REMMET051METAR SBJP 120800Z 25002KT 9999 SCT020 21/20 Q1012;
0120827980999992007111209004-07100-034867FM-15+0066SBJP V0202601N001012200019N0112651N1+02301+02101999999ADDGA1021+006001999GF102991999999999999999999MA1101191999999REMMET051METAR SBJP 120900Z 26002KT 9999 FEW020 23/21 Q1012;
0120827980999992007111210004-07100-034867FM-15+0066SBJP V0201201N002112200019N0112651N1+02701+02101999999ADDGA1021+006001999GF102991999999999999999999MA1101291999999REMMET051METAR SBJP 121000Z 12004KT 9999 FEW020 27/21 Q1013;
0120827980999992007111211004-07100-034867FM-15+0066SBJP V0201301N004112200019N0112651N1+02801+02001999999ADDGA1021+006001999GF102991999999999999999999MA1101391999999REMMET051METAR SBJP 121100Z 13008KT 9999 FEW020 28/20 Q1014;
0120827980999992007111212004-07100-034867FM-15+0066SBJP V0201101N004112200019N0112651N1+03001+01901999999ADDGA1041+009001999GF104991999999999999999999MA1101391999999REMMET051METAR SBJP 121200Z 11008KT 9999 SCT030 30/19 Q1014;
0120827980999992007111213004-07100-034867FM-15+0066SBJP V0201001N005112200019N0112651N1+03001+01901999999ADDGA1041+009001999GF104991999999999999999999MA1101391999999REMMET051METAR SBJP 121300Z 10010KT 9999 SCT030 30/19 Q1014;
0120827980999992007111214004-07100-034867FM-15+0066SBJP V0201001N005112200019N0112651N1+03001+01901999999ADDGA1041+009001999GF104991999999999999999999MA1101291999999REMMET051METAR SBJP 121400Z 10010KT 9999 SCT030 30/19 Q1013;
0120827980999992007111215004-07100-034867FM-15+0066SBJP V0201201N005112200019N0112651N1+03001+01901999999ADDGA1041+009001999GF104991999999999999999999MA1101291999999REMMET051METAR SBJP 121500Z 12010KT 9999 SCT030 30/19 Q1013;
0120827980999992007111216004-07100-034867FM-15+0066SBJP V0200801N004112200019N0112651N1+03001+01801999999ADDGA1041+009001999GF104991999999999999999999MA1101191999999REMMET051METAR SBJP 121600Z 08008KT 9999 SCT030 30/18 Q1012;
0120827980999992007111217004-07100-034867FM-15+0066SBJP V0200801N003612200019N0112651N1+03101+01801999999ADDGA1021+009001999GF102991999999999999999999MA1101081999999REMMET051METAR SBJP 121700Z 08007KT 9999 FEW030 31/18 Q1011;
0120827980999992007111218004-07100-034867FM-15+0066SBJP V0201001N004112200019N0112651N1+03001+01901999999ADDGA1021+009001999GF102991999999999999999999MA1101081999999REMMET051METAR SBJP 121800Z 10008KT 9999 FEW030 30/19 Q1011;
0072827980999992007111219004-07100-034867FM-15+0066SBJP V0201001N00411220001CN0099001N1+02901+02001999999ADDMA1101081999999REMMET045METAR SBJP 121900Z 10008KT CAVOK 29/20 Q1011;
0072827980999992007111220004-07100-034867FM-15+0066SBJP V0201001N00311220001CN0099001N1+02701+02101999999ADDMA1101081999999REMMET045METAR SBJP 122000Z 10006KT CAVOK 27/21 Q1011;
0072827980999992007111221004-07100-034867FM-15+0066SBJP V0201201N00261220001CN0099001N1+02601+02101999999ADDMA1101191999999REMMET045METAR SBJP 122100Z 12005KT CAVOK 26/21 Q1012;
0072827980999992007111222004-07100-034867FM-15+0066SBJP V0201401N00151220001CN0099001N1+02501+02101999999ADDMA1101191999999REMMET045METAR SBJP 122200Z 14003KT CAVOK 25/21 Q1012;
0072827980999992007111223004-07100-034867FM-15+0066SBJP V0201301N00101220001CN0099001N1+02401+02101999999ADDMA1101291999999REMMET045METAR SBJP 122300Z 13002KT CAVOK 24/21 Q1013;
0072827980999992007111300004-07100-034867FM-15+0066SBJP V0201501N00151220001CN0099001N1+02401+02201999999ADDMA1101291999999REMMET045METAR SBJP 130000Z 15003KT CAVOK 24/22 Q1013;
0072827980999992007111301004-07100-034867FM-15+0066SBJP V0201301N00211220001CN0099001N1+02401+02201999999ADDMA1101291999999REMMET045METAR SBJP 130100Z 13004KT CAVOK 24/22 Q1013;
0072827980999992007111302004-07100-034867FM-15+0066SBJP V0201301N00211220001CN0099001N1+02501+02201999999ADDMA1101191999999REMMET045METAR SBJP 130200Z 13004KT CAVOK 25/22 Q1012;
0120827980999992007111303004-07100-034867FM-15+0066SBJP V0201201N001512200019N0112651N1+02501+02201999999ADDGA1021+006001999GF102991999999999999999999MA1101191999999REMMET051METAR SBJP 130300Z 12003KT 9999 FEW020 25/22 Q1012;
0120827980999992007111304004-07100-034867FM-15+0066SBJP V0202001N001012200019N0112651N1+02401+02201999999ADDGA1021+006001999GF102991999999999999999999MA1101081999999REMMET051METAR SBJP 130400Z 20002KT 9999 FEW020 24/22 Q1011;
0120827980999992007111305004-07100-034867FM-15+0066SBJP V0202001N001012200019N0112651N1+02401+02101999999ADDGA1021+006001999GF102991999999999999999999MA1101081999999REMMET051METAR SBJP 130500Z 20002KT 9999 FEW020 24/21 Q1011;
0120827980999992007111306004-07100-034867FM-15+0066SBJP V0209999C000012200019N0112651N1+02301+02101999999ADDGA1021+006001999GF102991999999999999999999MA1101081999999REMMET051METAR SBJP 130600Z 00000KT 9999 FEW020 23/21 Q1011;
0120827980999992007111307004-07100-034867FM-15+0066SBJP V0209999C000012200019N0112651N1+02201+02101999999ADDGA1021+006001999GF102991999999999999999999MA1101081999999REMMET051METAR SBJP 130700Z 00000KT 9999 FEW020 22/21 Q1011;
0120827980999992007111308004-07100-034867FM-15+0066SBJP V0209999C000012200019N0112651N1+02301+02101999999ADDGA1041+006001999GF104991999999999999999999MA1101191999999REMMET051METAR SBJP 130800Z 00000KT 9999 SCT020 23/21 Q1012;
0120827980999992007111309004-07100-034867FM-15+0066SBJP V0209999C000012200019N0112651N1+02401+02201999999ADDGA1021+006001999GF102991999999999999999999MA1101191999999REMMET051METAR SBJP 130900Z 00000KT 9999 FEW020 24/22 Q1012;
0120827980999992007111310004-07100-034867FM-15+0066SBJP V0201401N004112200019N0112651N1+02701+02101999999ADDGA1041+006001999GF104991999999999999999999MA1101291999999REMMET051METAR SBJP 131000Z 14008KT 9999 SCT020 27/21 Q1013;
0143827980999992007111311004-07100-034867FM-15+0066SBJP V0201401N005110060019N0112651N1+02801+02101999999ADDGA1071+006001999GA2071+021001999GF107991999999999999999999MA1101291999999REMMET058METAR SBJP 131100Z 14010KT 9999 BKN020 BKN070 28/21 Q1013;
0136827980999992007111312004-07100-034867FM-15+0066SBJP V0201401N00461220001CN0112651N1+02901+02101999999ADDGA1071+009001999GA2041+021001999MA1101291999999REMMET058METAR SBJP 131200Z 14009KT 9999 BKN030 SCT070 29/21 Q1013;EQDQ01+000042SCOTCV
0120827980999992007111313004-07100-034867FM-15+0066SBJP V0201301N006210090019N0112651N1+03001+02101999999ADDGA1071+009001999GF107991999999999999999999MA1101291999999REMMET051METAR SBJP 131300Z 13012KT 9999 BKN030 30/21 Q1013;
0120827980999992007111314004-07100-034867FM-15+0066SBJP V0201101N006710060019N0112651N1+02901+02101999999ADDGA1071+006001999GF107991999999999999999999MA1101291999999REMMET051METAR SBJP 131400Z 11013KT 9999 BKN020 29/21 Q1013;
0131827980999992007111315004-07100-034867FM-15+0066SBJP V0201301N005110048019N0060001N1+02801+02301999999ADDGA1071+004801999GF107991999999999999999999MA1101291999999MW1161REMMET056METAR SBJP 131500Z 13010KT 6000 VCSH BKN016 28/23 Q1013;
0120827980999992007111316004-07100-034867FM-15+0066SBJP V0201701N006210048019N0112651N1+02901+02101999999ADDGA1071+004801999GF107991999999999999999999MA1101191999999REMMET051METAR SBJP 131600Z 17012KT 9999 BKN016 29/21 Q1012;
0120827980999992007111317004-07100-034867FM-15+0066SBJP V0201501N004610048019N0112651N1+03001+02201999999ADDGA1071+004801999GF107991999999999999999999MA1101081999999REMMET051METAR SBJP 131700Z 15009KT 9999 BKN016 30/22 Q1011;
0120827980999992007111318004-07100-034867FM-15+0066SBJP V0201501N005710075019N0112651N1+02801+02201999999ADDGA1071+007501999GF107991999999999999999999MA1101081999999REMMET051METAR SBJP 131800Z 15011KT 9999 BKN025 28/22 Q1011;
0120827980999992007111319004-07100-034867FM-15+0066SBJP V0201201N006710075019N0112651N1+02701+02201999999ADDGA1071+007501999GF107991999999999999999999MA1101081999999REMMET051METAR SBJP 131900Z 12013KT 9999 BKN025 27/22 Q1011;
0120827980999992007111320004-07100-034867FM-15+0066SBJP V0201601N003110075019N0112651N1+02501+02201999999ADDGA1071+007501999GF107991999999999999999999MA1101191999999REMMET051METAR SBJP 132000Z 16006KT 9999 BKN025 25/22 Q1012;
0153827980999992007111321004-07100-034867FM-15+0066SBJP V0201701N002612200019N0040001N1+02501+02201999999ADDGA1041+004501999GA2041+021001999GF104991999999999999999999MA1101191999999MW1611REMMET062METAR SBJP 132100Z 17005KT 4000 -RA SCT015 SCT070 25/22 Q1012;
0176827980999992007111322004-07100-034867FM-15+0066SBJP V0201201N00261006001CN0080001N1+02401+02301999999ADDGA1041+001801999GA2041+006001999GA3071+021001999GF107991999999999999999999MA1101291999999MW1611REMMET069METAR SBJP 132200Z 12005KT 8000 -RA SCT006 SCT020 BKN070 24/23 Q1013;
0166827980999992007111323004-07100-034867FM-15+0066SBJP V0201501N00101006001CN0112651N1+02401+02201999999ADDGA1041+001801999GA2041+006001999GA3071+021001999GF107991999999999999999999MA1101291999999REMMET065METAR SBJP 132300Z 15002KT 9999 SCT006 SCT020 BKN070 24/22 Q1013;
0143827980999992007111400004-07100-034867FM-15+0066SBJP V0201101N001510210019N0112651N1+02401+02301999999ADDGA1041+006001999GA2071+021001999GF107991999999999999999999MA1101391999999REMMET058METAR SBJP 140000Z 11003KT 9999 SCT020 BKN070 24/23 Q1014;
0143827980999992007111401004-07100-034867FM-15+0066SBJP V0201601N002110210019N0112651N1+02301+02201999999ADDGA1041+006001999GA2071+021001999GF107991999999999999999999MA1101391999999REMMET058METAR SBJP 140100Z 16004KT 9999 SCT020 BKN070 23/22 Q1014;
0143827980999992007111402004-07100-034867FM-15+0066SBJP V0201801N001510210019N0112651N1+02301+02201999999ADDGA1041+006001999GA2071+021001999GF107991999999999999999999MA1101291999999REMMET058METAR SBJP 140200Z 18003KT 9999 SCT020 BKN070 23/22 Q1013;
0143827980999992007111403004-07100-034867FM-15+0066SBJP V0202101N001012200019N0112651N1+02301+02201999999ADDGA1021+006001999GA2041+021001999GF104991999999999999999999MA1101291999999REMMET058METAR SBJP 140300Z 21002KT 9999 FEW020 SCT070 23/22 Q1013;
0120827980999992007111404004-07100-034867FM-15+0066SBJP V0202201N001512200019N0112651N1+02301+02201999999ADDGA1041+005101999GF104991999999999999999999MA1101191999999REMMET051METAR SBJP 140400Z 22003KT 9999 SCT017 23/22 Q1012;
0120827980999992007111405004-07100-034867FM-15+0066SBJP V0209999C000012200019N0112651N1+02301+02201999999ADDGA1041+005101999GF104991999999999999999999MA1101191999999REMMET051METAR SBJP 140500Z 00000KT 9999 SCT017 23/22 Q1012;
0130827980999992007111406004-07100-034867FM-15+0066SBJP V0201501N001510030019N0040001N1+02301+02201999999ADDGA1071+003001999GF107991999999999999999999MA1101191999999MW1611REMMET055METAR SBJP 140600Z 15003KT 4000 -RA BKN010 23/22 Q1012;
0120827980999992007111407004-07100-034867FM-15+0066SBJP V0201301N002612200019N0112651N1+02401+02201999999ADDGA1041+005101999GF104991999999999999999999MA1101291999999REMMET051METAR SBJP 140700Z 13005KT 9999 SCT017 24/22 Q1013;
0120827980999992007111408004-07100-034867FM-15+0066SBJP V0201301N003112200019N0112651N1+02401+02101999999ADDGA1041+005101999GF104991999999999999999999MA1101291999999REMMET051METAR SBJP 140800Z 13006KT 9999 SCT017 24/21 Q1013;
0120827980999992007111409004-07100-034867FM-15+0066SBJP V0201301N002612200019N0112651N1+02501+02201999999ADDGA1021+006001999GF102991999999999999999999MA1101391999999REMMET051METAR SBJP 140900Z 13005KT 9999 FEW020 25/22 Q1014;
0120827980999992007111410004-07100-034867FM-15+0066SBJP V0201401N004612200019N0112651N1+02701+02101999999ADDGA1041+007501999GF104991999999999999999999MA1101391999999REMMET051METAR SBJP 141000Z 14009KT 9999 SCT025 27/21 Q1014;
0120827980999992007111411004-07100-034867FM-15+0066SBJP V0201601N005112200019N0112651N1+02801+02101999999ADDGA1041+007501999GF104991999999999999999999MA1101491999999REMMET051METAR SBJP 141100Z 16010KT 9999 SCT025 28/21 Q1015;
0120827980999992007111412004-07100-034867FM-15+0066SBJP V0201501N005112200019N0112651N1+02901+02101999999ADDGA1041+007501999GF104991999999999999999999MA1101491999999REMMET051METAR SBJP 141200Z 15010KT 9999 SCT025 29/21 Q1015;
0120827980999992007111413004-07100-034867FM-15+0066SBJP V0201201N005112200019N0112651N1+02901+02101999999ADDGA1041+007501999GF104991999999999999999999MA1101491999999REMMET051METAR SBJP 141300Z 12010KT 9999 SCT025 29/21 Q1015;
0120827980999992007111414004-07100-034867FM-15+0066SBJP V0201601N006212200019N0112651N1+02901+02001999999ADDGA1041+009001999GF104991999999999999999999MA1101491999999REMMET051METAR SBJP 141400Z 16012KT 9999 SCT030 29/20 Q1015;
0120827980999992007111415004-07100-034867FM-15+0066SBJP V0201501N006212200019N0112651N1+03001+02001999999ADDGA1041+009001999GF104991999999999999999999MA1101391999999REMMET051METAR SBJP 141500Z 15012KT 9999 SCT030 30/20 Q1014;
0120827980999992007111416004-07100-034867FM-15+0066SBJP V0201201N004612200019N0112651N1+02901+02101999999ADDGA1041+009001999GF104991999999999999999999MA1101291999999REMMET051METAR SBJP 141600Z 12009KT 9999 SCT030 29/21 Q1013;
0120827980999992007111417004-07100-034867FM-15+0066SBJP V0201301N005712200019N0112651N1+02901+02101999999ADDGA1041+009001999GF104991999999999999999999MA1101191999999REMMET051METAR SBJP 141700Z 13011KT 9999 SCT030 29/21 Q1012;
0120827980999992007111418004-07100-034867FM-15+0066SBJP V0201301N003612200019N0112651N1+02801+02101999999ADDGA1041+009001999GF104991999999999999999999MA1101191999999REMMET051METAR SBJP 141800Z 13007KT 9999 SCT030 28/21 Q1012;
0120827980999992007111419004-07100-034867FM-15+0066SBJP V0201401N004112200019N0112651N1+02801+02101999999ADDGA1041+009001999GF104991999999999999999999MA1101191999999REMMET051METAR SBJP 141900Z 14008KT 9999 SCT030 28/21 Q1012;
0120827980999992007111420004-07100-034867FM-15+0066SBJP V0201301N003612200019N0112651N1+02701+02101999999ADDGA1021+009001999GF102991999999999999999999MA1101191999999REMMET051METAR SBJP 142000Z 13007KT 9999 FEW030 27/21 Q1012;
0120827980999992007111421004-07100-034867FM-15+0066SBJP V0201401N003112200019N0112651N1+02601+02201999999ADDGA1041+007501999GF104991999999999999999999MA1101291999999REMMET051METAR SBJP 142100Z 14006KT 9999 SCT025 26/22 Q1013;
0120827980999992007111422004-07100-034867FM-15+0066SBJP V0201501N001512200019N0112651N1+02501+02201999999ADDGA1041+007501999GF104991999999999999999999MA1101291999999REMMET051METAR SBJP 142200Z 15003KT 9999 SCT025 25/22 Q1013;
0120827980999992007111423004-07100-034867FM-15+0066SBJP V0201601N002112200019N0112651N1+02401+02101999999ADDGA1041+006001999GF104991999999999999999999MA1101391999999REMMET051METAR SBJP 142300Z 16004KT 9999 SCT020 24/21 Q1014;
0120827980999992007111500004-07100-034867FM-15+0066SBJP V0201801N001512200019N0112651N1+02401+02101999999ADDGA1041+006001999GF104991999999999999999999MA1101391999999REMMET051METAR SBJP 150000Z 18003KT 9999 SCT020 24/21 Q1014;
0120827980999992007111501004-07100-034867FM-15+0066SBJP V0201701N001012200019N0112651N1+02401+02101999999ADDGA1041+006001999GF104991999999999999999999MA1101491999999REMMET051METAR SBJP 150100Z 17002KT 9999 SCT020 24/21 Q1015;
0120827980999992007111502004-07100-034867FM-15+0066SBJP V0202001N001512200019N0112651N1+02401+02101999999ADDGA1041+006001999GF104991999999999999999999MA1101391999999REMMET051METAR SBJP 150200Z 20003KT 9999 SCT020 24/21 Q1014;
0120827980999992007111503004-07100-034867FM-15+0066SBJP V0202301N001012200019N0112651N1+02301+02101999999ADDGA1041+006001999GF104991999999999999999999MA1101391999999REMMET051METAR SBJP 150300Z 23002KT 9999 SCT020 23/21 Q1014;
0143827980999992007111504004-07100-034867FM-15+0066SBJP V0201401N003112200019N0112651N1+02301+02201999999ADDGA1041+003601999GA2041+004501999GF104991999999999999999999MA1101291999999REMMET058METAR SBJP 150400Z 14006KT 9999 SCT012 SCT015 23/22 Q1013;
0143827980999992007111505004-07100-034867FM-15+0066SBJP V0201901N002112200019N0112651N1+02301+02101999999ADDGA1041+004501999GA2041+021001999GF104991999999999999999999MA1101291999999REMMET058METAR SBJP 150500Z 19004KT 9999 SCT015 SCT070 23/21 Q1013;
0143827980999992007111506004-07100-034867FM-15+0066SBJP V0202001N002612200019N0112651N1+02301+02201999999ADDGA1021+004501999GA2041+021001999GF104991999999999999999999MA1101191999999REMMET058METAR SBJP 150600Z 20005KT 9999 FEW015 SCT070 23/22 Q1012;
0120827980999992007111507004-07100-034867FM-15+0066SBJP V0202001N001512200019N0112651N1+02301+02201999999ADDGA1021+006001999GF102991999999999999999999MA1101191999999REMMET051METAR SBJP 150700Z 20003KT 9999 FEW020 23/22 Q1012;
0120827980999992007111508004-07100-034867FM-15+0066SBJP V0202201N001012200019N0112651N1+02301+02201999999ADDGA1041+006001999GF104991999999999999999999MA1101291999999REMMET051METAR SBJP 150800Z 22002KT 9999 SCT020 23/22 Q1013;
0120827980999992007111509004-07100-034867FM-15+0066SBJP V0202301N001512200019N0112651N1+02301+02201999999ADDGA1041+006001999GF104991999999999999999999MA1101291999999REMMET051METAR SBJP 150900Z 23003KT 9999 SCT020 23/22 Q1013;
0120827980999992007111510004-07100-034867FM-15+0066SBJP V0201701N003112200019N0112651N1+02601+02301999999ADDGA1041+007501999GF104991999999999999999999MA1101391999999REMMET051METAR SBJP 151000Z 17006KT 9999 SCT025 26/23 Q1014;
0120827980999992007111511004-07100-034867FM-15+0066SBJP V0201201N004610075019N0112651N1+02801+02301999999ADDGA1071+007501999GF107991999999999999999999MA1101391999999REMMET051METAR SBJP 151100Z 12009KT 9999 BKN025 28/23 Q1014;
0120827980999992007111512004-07100-034867FM-15+0066SBJP V0201301N006210075019N0112651N1+02801+02201999999ADDGA1071+007501999GF107991999999999999999999MA1101391999999REMMET051METAR SBJP 151200Z 13012KT 9999 BKN025 28/22 Q1014;
0120827980999992007111513004-07100-034867FM-15+0066SBJP V0201101N005110075019N0112651N1+02901+02201999999ADDGA1071+007501999GF107991999999999999999999MA1101391999999REMMET051METAR SBJP 151300Z 11010KT 9999 BKN025 29/22 Q1014;
0120827980999992007111514004-07100-034867FM-15+0066SBJP V0201301N006212200019N0112651N1+02901+02101999999ADDGA1041+009001999GF104991999999999999999999MA1101391999999REMMET051METAR SBJP 151400Z 13012KT 9999 SCT030 29/21 Q1014;
0120827980999992007111515004-07100-034867FM-15+0066SBJP V0201301N005112200019N0112651N1+03001+02101999999ADDGA1041+009001999GF104991999999999999999999MA1101391999999REMMET051METAR SBJP 151500Z 13010KT 9999 SCT030 30/21 Q1014;
0120827980999992007111516004-07100-034867FM-15+0066SBJP V0201401N006212200019N0112651N1+02901+02201999999ADDGA1041+009001999GF104991999999999999999999MA1101291999999REMMET051METAR SBJP 151600Z 14012KT 9999 SCT030 29/22 Q1013;
0120827980999992007111517004-07100-034867FM-15+0066SBJP V0201601N006212200019N0112651N1+02901+02101999999ADDGA1041+009001999GF104991999999999999999999MA1101291999999REMMET051METAR SBJP 151700Z 16012KT 9999 SCT030 29/21 Q1013;
0120827980999992007111518004-07100-034867FM-15+0066SBJP V0201501N004612200019N0112651N1+02801+02101999999ADDGA1041+009001999GF104991999999999999999999MA1101191999999REMMET051METAR SBJP 151800Z 15009KT 9999 SCT030 28/21 Q1012;
0120827980999992007111519004-07100-034867FM-15+0066SBJP V0201601N005712200019N0112651N1+02801+02101999999ADDGA1041+009001999GF104991999999999999999999MA1101191999999REMMET051METAR SBJP 151900Z 16011KT 9999 SCT030 28/21 Q1012;
0120827980999992007111520004-07100-034867FM-15+0066SBJP V0201601N005112200019N0112651N1+02701+02101999999ADDGA1021+009001999GF102991999999999999999999MA1101291999999REMMET051METAR SBJP 152000Z 16010KT 9999 FEW030 27/21 Q1013;
0120827980999992007111521004-07100-034867FM-15+0066SBJP V0201601N003612200019N0112651N1+02601+02101999999ADDGA1021+009001999GF102991999999999999999999MA1101291999999REMMET051METAR SBJP 152100Z 16007KT 9999 FEW030 26/21 Q1013;
0120827980999992007111522004-07100-034867FM-15+0066SBJP V0201701N002112200019N0112651N1+02501+02101999999ADDGA1021+009001999GF102991999999999999999999MA1101291999999REMMET051METAR SBJP 152200Z 17004KT 9999 FEW030 25/21 Q1013;
0120827980999992007111523004-07100-034867FM-15+0066SBJP V0201701N002112200019N0112651N1+02401+02101999999ADDGA1021+009001999GF102991999999999999999999MA1101391999999REMMET051METAR SBJP 152300Z 17004KT 9999 FEW030 24/21 Q1014;
0120827980999992007111600004-07100-034867FM-15+0066SBJP V0201801N002112200019N0112651N1+02401+02101999999ADDGA1021+009001999GF102991999999999999999999MA1101391999999REMMET051METAR SBJP 160000Z 18004KT 9999 FEW030 24/21 Q1014;
0120827980999992007111601004-07100-034867FM-15+0066SBJP V0202001N002112200019N0112651N1+02401+02101999999ADDGA1021+009001999GF102991999999999999999999MA1101391999999REMMET051METAR SBJP 160100Z 20004KT 9999 FEW030 24/21 Q1014;
0120827980999992007111602004-07100-034867FM-15+0066SBJP V0202201N001012200019N0112651N1+02301+02101999999ADDGA1021+009001999GF102991999999999999999999MA1101291999999REMMET051METAR SBJP 160200Z 22002KT 9999 FEW030 23/21 Q1013;
0120827980999992007111603004-07100-034867FM-15+0066SBJP V0202201N001012200019N0112651N1+02301+02101999999ADDGA1021+006001999GF102991999999999999999999MA1101291999999REMMET051METAR SBJP 160300Z 22002KT 9999 FEW020 23/21 Q1013;
0143827980999992007111604004-07100-034867FM-15+0066SBJP V0202001N001510210019N0112651N1+02301+02101999999ADDGA1041+009001999GA2071+021001999GF107991999999999999999999MA1101291999999REMMET058METAR SBJP 160400Z 20003KT 9999 SCT030 BKN070 23/21 Q1013;
0143827980999992007111605004-07100-034867FM-15+0066SBJP V0201901N001510210019N0112651N1+02301+02201999999ADDGA1041+009001999GA2071+021001999GF107991999999999999999999MA1101191999999REMMET058METAR SBJP 160500Z 19003KT 9999 SCT030 BKN070 23/22 Q1012;
0143827980999992007111606004-07100-034867FM-15+0066SBJP V0202101N000510210019N0112651N1+02401+02201999999ADDGA1041+006001999GA2071+021001999GF107991999999999999999999MA1101191999999REMMET058METAR SBJP 160600Z 21001KT 9999 SCT020 BKN070 24/22 Q1012;
0143827980999992007111607004-07100-034867FM-15+0066SBJP V0202201N001012200019N0112651N1+02301+02101999999ADDGA1021+006001999GA2041+021001999GF104991999999999999999999MA1101291999999REMMET058METAR SBJP 160700Z 22002KT 9999 FEW020 SCT070 23/21 Q1013;
0143827980999992007111608004-07100-034867FM-15+0066SBJP V0202001N002110210019N0112651N1+02301+02101999999ADDGA1021+006001999GA2071+021001999GF107991999999999999999999MA1101291999999REMMET058METAR SBJP 160800Z 20004KT 9999 FEW020 BKN070 23/21 Q1013;
0143827980999992007111609004-07100-034867FM-15+0066SBJP V0202101N002110210019N0112651N1+02301+02201999999ADDGA1041+007501999GA2071+021001999GF107991999999999999999999MA1101391999999REMMET058METAR SBJP 160900Z 21004KT 9999 SCT025 BKN070 23/22 Q1014;
0143827980999992007111610004-07100-034867FM-15+0066SBJP V0202101N002612200019N0112651N1+02601+02301999999ADDGA1041+006001999GA2041+021001999GF104991999999999999999999MA1101391999999REMMET058METAR SBJP 161000Z 21005KT 9999 SCT020 SCT070 26/23 Q1014;
0136827980999992007111611004-07100-034867FM-15+0066SBJP V0201601N00671220001CN0112651N1+02701+02201999999ADDGA1071+006001999GA2041+021001999MA1101491999999REMMET058METAR SBJP 161100Z 16013KT 9999 BKN020 SCT070 27/22 Q1015;EQDQ01+000042SCOTCV
0120827980999992007111612004-07100-034867FM-15+0066SBJP V0201501N007210075019N0112651N1+03001+02101999999ADDGA1071+007501999GF107991999999999999999999MA1101491999999REMMET051METAR SBJP 161200Z 15014KT 9999 BKN025 30/21 Q1015;
0120827980999992007111613004-07100-034867FM-15+0066SBJP V0201701N007212200019N0112651N1+03001+01901999999ADDGA1041+009001999GF104991999999999999999999MA1101391999999REMMET051METAR SBJP 161300Z 17014KT 9999 SCT030 30/19 Q1014;
0120827980999992007111614004-07100-034867FM-15+0066SBJP V0201801N006212200019N0112651N1+02901+02101999999ADDGA1041+009001999GF104991999999999999999999MA1101391999999REMMET051METAR SBJP 161400Z 18012KT 9999 SCT030 29/21 Q1014;
0120827980999992007111615004-07100-034867FM-15+0066SBJP V0201801N007712200019N0112651N1+03001+02101999999ADDGA1041+009001999GF104991999999999999999999MA1101391999999REMMET051METAR SBJP 161500Z 18015KT 9999 SCT030 30/21 Q1014;
0120827980999992007111616004-07100-034867FM-15+0066SBJP V0201701N006212200019N0112651N1+03101+02101999999ADDGA1041+009001999GF104991999999999999999999MA1101291999999REMMET051METAR SBJP 161600Z 17012KT 9999 SCT030 31/21 Q1013;
0120827980999992007111617004-07100-034867FM-15+0066SBJP V0201501N006212200019N0112651N1+03001+01901999999ADDGA1041+009001999GF104991999999999999999999MA1101291999999REMMET051METAR SBJP 161700Z 15012KT 9999 SCT030 30/19 Q1013;
0120827980999992007111618004-07100-034867FM-15+0066SBJP V0201501N006212200019N0112651N1+03001+02001999999ADDGA1041+009001999GF104991999999999999999999MA1101191999999REMMET051METAR SBJP 161800Z 15012KT 9999 SCT030 30/20 Q1012;
0120827980999992007111619004-07100-034867FM-15+0066SBJP V0201701N006212200019N0112651N1+02901+01901999999ADDGA1041+009001999GF104991999999999999999999MA1101191999999REMMET051METAR SBJP 161900Z 17012KT 9999 SCT030 29/19 Q1012;
0120827980999992007111620004-07100-034867FM-15+0066SBJP V0201601N005112200019N0112651N1+02701+02101999999ADDGA1021+009001999GF102991999999999999999999MA1101291999999REMMET051METAR SBJP 162000Z 16010KT 9999 FEW030 27/21 Q1013;
0120827980999992007111621004-07100-034867FM-15+0066SBJP V0201801N004112200019N0112651N1+02601+02101999999ADDGA1021+009001999GF102991999999999999999999MA1101291999999REMMET051METAR SBJP 162100Z 18008KT 9999 FEW030 26/21 Q1013;
0143827980999992007111622004-07100-034867FM-15+0066SBJP V0201601N003112200019N0112651N1+02601+02101999999ADDGA1021+006001999GA2041+021001999GF104991999999999999999999MA1101391999999REMMET058METAR SBJP 162200Z 16006KT 9999 FEW020 SCT070 26/21 Q1014;
0120827980999992007111623004-07100-034867FM-15+0066SBJP V0201501N003112200019N0112651N1+02501+02201999999ADDGA1041+006001999GF104991999999999999999999MA1101391999999REMMET051METAR SBJP 162300Z 15006KT 9999 SCT020 25/22 Q1014;
0072827980999992007111700004-07100-034867FM-15+0066SBJP V0201601N00311220001CN0099001N1+02501+02101999999ADDMA1101391999999REMMET045METAR SBJP 170000Z 16006KT CAVOK 25/21 Q1014;
0072827980999992007111701004-07100-034867FM-15+0066SBJP V0201501N00311220001CN0099001N1+02601+02201999999ADDMA1101391999999REMMET045METAR SBJP 170100Z 15006KT CAVOK 26/22 Q1014;
0143827980999992007111702004-07100-034867FM-15+0066SBJP V0201501N003110210019N0112651N1+02501+02201999999ADDGA1021+006001999GA2071+021001999GF107991999999999999999999MA1101391999999REMMET058METAR SBJP 170200Z 15006KT 9999 FEW020 BKN070 25/22 Q1014;
0120827980999992007111703004-07100-034867FM-15+0066SBJP V0201501N003110051019N0112651N1+02501+02201999999ADDGA1071+005101999GF107991999999999999999999MA1101291999999REMMET051METAR SBJP 170300Z 15006KT 9999 BKN017 25/22 Q1013;
0120827980999992007111704004-07100-034867FM-15+0066SBJP V0201701N004110054019N0112651N1+02401+02201999999ADDGA1071+005401999GF107991999999999999999999MA1101291999999REMMET051METAR SBJP 170400Z 17008KT 9999 BKN018 24/22 Q1013;
0143827980999992007111705004-07100-034867FM-15+0066SBJP V0201701N003112200019N0112651N1+02401+02201999999ADDGA1041+005401999GA2041+021001999GF104991999999999999999999MA1101191999999REMMET058METAR SBJP 170500Z 17006KT 9999 SCT018 SCT070 24/22 Q1012;
0143827980999992007111706004-07100-034867FM-15+0066SBJP V0201701N003112200019N0112651N1+02401+02201999999ADDGA1041+005401999GA2041+021001999GF104991999999999999999999MA1101191999999REMMET058METAR SBJP 170600Z 17006KT 9999 SCT018 SCT070 24/22 Q1012;
0136827980999992007111707004-07100-034867FM-15+0066SBJP V0201801N00261220001CN0112651N1+02401+02201999999ADDGA1071+005401999GA2041+021001999MA1101191999999REMMET058METAR SBJP 170700Z 18005KT 9999 BKN018 SCT070 24/22 Q1012;EQDQ01+000042SCOTCV
0143827980999992007111708004-07100-034867FM-15+0066SBJP V0202001N001512200019N0112651N1+02401+02201999999ADDGA1041+005401999GA2041+021001999GF104991999999999999999999MA1101291999999REMMET058METAR SBJP 170800Z 20003KT 9999 SCT018 SCT070 24/22 Q1013;
0143827980999992007111709004-07100-034867FM-15+0066SBJP V0201901N002112200019N0112651N1+02401+02201999999ADDGA1041+006001999GA2041+021001999GF104991999999999999999999MA1101291999999REMMET058METAR SBJP 170900Z 19004KT 9999 SCT020 SCT070 24/22 Q1013;
0143827980999992007111711004-07100-034867FM-15+0066SBJP V0201701N007210210019N0112651N1+02701+02101999999ADDGA1041+006001999GA2071+021001999GF107991999999999999999999MA1101391999999REMMET058METAR SBJP 171100Z 17014KT 9999 SCT020 BKN070 27/21 Q1014;
0143827980999992007111712004-07100-034867FM-15+0066SBJP V0201301N004110210019N0112651N1+02601+02301999999ADDGA1041+006001999GA2071+021001999GF107991999999999999999999MA1101391999999REMMET058METAR SBJP 171200Z 13008KT 9999 SCT020 BKN070 26/23 Q1014;
0143827980999992007111713004-07100-034867FM-15+0066SBJP V0201601N007710210019N0112651N1+02801+02001999999ADDGA1041+006001999GA2071+021001999GF107991999999999999999999MA1101391999999REMMET058METAR SBJP 171300Z 16015KT 9999 SCT020 BKN070 28/20 Q1014;
0143827980999992007111714004-07100-034867FM-15+0066SBJP V0201701N006210210019N0112651N1+02901+02001999999ADDGA1041+006001999GA2071+021001999GF107991999999999999999999MA1101391999999REMMET058METAR SBJP 171400Z 17012KT 9999 SCT020 BKN070 29/20 Q1014;
0143827980999992007111715004-07100-034867FM-15+0066SBJP V0201501N007212200019N0112651N1+02901+02001999999ADDGA1041+006001999GA2041+027001999GF104991999999999999999999MA1101291999999REMMET058METAR SBJP 171500Z 15014KT 9999 SCT020 SCT090 29/20 Q1013;
0120827980999992007111716004-07100-034867FM-15+0066SBJP V0201301N006710090019N0112651N1+02901+02101999999ADDGA1071+009001999GF107991999999999999999999MA1101291999999REMMET051METAR SBJP 171600Z 13013KT 9999 BKN030 29/21 Q1013;
0120827980999992007111717004-07100-034867FM-15+0066SBJP V0201401N006712200019N0112651N1+03001+01901999999ADDGA1041+009001999GF104991999999999999999999MA1101191999999REMMET051METAR SBJP 171700Z 14013KT 9999 SCT030 30/19 Q1012;
0120827980999992007111718004-07100-034867FM-15+0066SBJP V0201301N006212200019N0112651N1+02901+02001999999ADDGA1041+009001999GF104991999999999999999999MA1101191999999REMMET051METAR SBJP 171800Z 13012KT 9999 SCT030 29/20 Q1012;
0072827980999992007111719004-07100-034867FM-15+0066SBJP V0201401N00621220001CN0099001N1+02901+02001999999ADDMA1101191999999REMMET045METAR SBJP 171900Z 14012KT CAVOK 29/20 Q1012;
0143827980999992007111720004-07100-034867FM-15+0066SBJP V0201501N005710210019N0112651N1+02701+02101999999ADDGA1041+007501999GA2071+021001999GF107991999999999999999999MA1101291999999REMMET058METAR SBJP 172000Z 15011KT 9999 SCT025 BKN070 27/21 Q1013;
0120827980999992007111721004-07100-034867FM-15+0066SBJP V0201501N003612200019N0112651N1+02601+02101999999ADDGA1021+007501999GF102991999999999999999999MA1101291999999REMMET051METAR SBJP 172100Z 15007KT 9999 FEW025 26/21 Q1013;
0120827980999992007111722004-07100-034867FM-15+0066SBJP V0201801N003112200019N0112651N1+02501+02101999999ADDGA1021+007501999GF102991999999999999999999MA1101391999999REMMET051METAR SBJP 172200Z 18006KT 9999 FEW025 25/21 Q1014;
0072827980999992007111723004-07100-034867FM-15+0066SBJP V0202001N00151220001CN0099001N1+02501+02101999999ADDMA1101391999999REMMET045METAR SBJP 172300Z 20003KT CAVOK 25/21 Q1014;
0072827980999992007111800004-07100-034867FM-15+0066SBJP V0201901N00211220001CN0099001N1+02401+02101999999ADDMA1101391999999REMMET045METAR SBJP 180000Z 19004KT CAVOK 24/21 Q1014;
0072827980999992007111801004-07100-034867FM-15+0066SBJP V0202101N00211220001CN0099001N1+02501+02201999999ADDMA1101391999999REMMET045METAR SBJP 180100Z 21004KT CAVOK 25/22 Q1014;
0072827980999992007111802004-07100-034867FM-15+0066SBJP V0201801N00211220001CN0099001N1+02501+02101999999ADDMA1101391999999REMMET045METAR SBJP 180200Z 18004KT CAVOK 25/21 Q1014;
0143827980999992007111803004-07100-034867FM-15+0066SBJP V0201701N002612200019N0112651N1+02401+02201999999ADDGA1021+006001999GA2041+024001999GF104991999999999999999999MA1101291999999REMMET058METAR SBJP 180300Z 17005KT 9999 FEW020 SCT080 24/22 Q1013;
0143827980999992007111804004-07100-034867FM-15+0066SBJP V0201001N002112200019N0112651N1+02401+02201999999ADDGA1041+006001999GA2041+024001999GF104991999999999999999999MA1101191999999REMMET058METAR SBJP 180400Z 10004KT 9999 SCT020 SCT080 24/22 Q1012;
0136827980999992007111805004-07100-034867FM-15+0066SBJP V0201801N00211220001CN0112651N1+02301+02101999999ADDGA1071+005701999GA2041+024001999MA1101191999999REMMET058METAR SBJP 180500Z 18004KT 9999 BKN019 SCT080 23/21 Q1012;EQDQ01+000042SCOTCV
0136827980999992007111806004-07100-034867FM-15+0066SBJP V0201501N00211220001CN0112651N1+02301+02101999999ADDGA1071+005701999GA2041+024001999MA1101191999999REMMET058METAR SBJP 180600Z 15004KT 9999 BKN019 SCT080 23/21 Q1012;EQDQ01+000042SCOTCV
0143827980999992007111807004-07100-034867FM-15+0066SBJP V0201601N002110240019N0112651N1+02301+02101999999ADDGA1041+005701999GA2071+024001999GF107991999999999999999999MA1101191999999REMMET058METAR SBJP 180700Z 16004KT 9999 SCT019 BKN080 23/21 Q1012;
0120827980999992007111808004-07100-034867FM-15+0066SBJP V0202001N001012200019N0112651N1+02301+02101999999ADDGA1041+006001999GF104991999999999999999999MA1101191999999REMMET051METAR SBJP 180800Z 20002KT 9999 SCT020 23/21 Q1012;
0120827980999992007111809004-07100-034867FM-15+0066SBJP V0202201N001012200019N0112651N1+02401+02201999999ADDGA1041+006001999GF104991999999999999999999MA1101291999999REMMET051METAR SBJP 180900Z 22002KT 9999 SCT020 24/22 Q1013;
0120827980999992007111810004-07100-034867FM-15+0066SBJP V0201401N004112200019N0112651N1+02701+02001999999ADDGA1041+006001999GF104991999999999999999999MA1101291999999REMMET051METAR SBJP 181000Z 14008KT 9999 SCT020 27/20 Q1013;
0120827980999992007111811004-07100-034867FM-15+0066SBJP V0201301N005112200019N0112651N1+02801+02001999999ADDGA1041+009001999GF104991999999999999999999MA1101291999999REMMET051METAR SBJP 181100Z 13010KT 9999 SCT030 28/20 Q1013;
0120827980999992007111812004-07100-034867FM-15+0066SBJP V0201401N005712200019N0112651N1+02901+02001999999ADDGA1041+009001999GF104991999999999999999999MA1101291999999REMMET051METAR SBJP 181200Z 14011KT 9999 SCT030 29/20 Q1013;
0120827980999992007111813004-07100-034867FM-15+0066SBJP V0201301N005710090019N0112651N1+02901+01901999999ADDGA1071+009001999GF107991999999999999999999MA1101291999999REMMET051METAR SBJP 181300Z 13011KT 9999 BKN030 29/19 Q1013;
0120827980999992007111814004-07100-034867FM-15+0066SBJP V0201301N005110090019N0112651N1+03001+02001999999ADDGA1071+009001999GF107991999999999999999999MA1101191999999REMMET051METAR SBJP 181400Z 13010KT 9999 BKN030 30/20 Q1012;
0120827980999992007111815004-07100-034867FM-15+0066SBJP V0201201N005110090019N0112651N1+03001+01901999999ADDGA1071+009001999GF107991999999999999999999MA1101191999999REMMET051METAR SBJP 181500Z 12010KT 9999 BKN030 30/19 Q1012;
0120827980999992007111816004-07100-034867FM-15+0066SBJP V0201601N005110090019N0112651N1+03001+02001999999ADDGA1071+009001999GF107991999999999999999999MA1101081999999REMMET051METAR SBJP 181600Z 16010KT 9999 BKN030 30/20 Q1011;
0120827980999992007111817004-07100-034867FM-15+0066SBJP V0201501N004612200019N0112651N1+02901+02101999999ADDGA1041+009001999GF104991999999999999999999MA1101021999999REMMET051METAR SBJP 181700Z 15009KT 9999 SCT030 29/21 Q1010;
0120827980999992007111818004-07100-034867FM-15+0066SBJP V0201501N005112200019N0112651N1+02901+02001999999ADDGA1041+009001999GF104991999999999999999999MA1101021999999REMMET051METAR SBJP 181800Z 15010KT 9999 SCT030 29/20 Q1010;
0120827980999992007111819004-07100-034867FM-15+0066SBJP V0201301N006212200019N0112651N1+02801+02001999999ADDGA1021+009001999GF102991999999999999999999MA1101021999999REMMET051METAR SBJP 181900Z 13012KT 9999 FEW030 28/20 Q1010;
0120827980999992007111820004-07100-034867FM-15+0066SBJP V0201501N005112200019N0112651N1+02601+02001999999ADDGA1021+009001999GF102991999999999999999999MA1101081999999REMMET051METAR SBJP 182000Z 15010KT 9999 FEW030 26/20 Q1011;
0072827980999992007111821004-07100-034867FM-15+0066SBJP V0201401N00411220001CN0099001N1+02601+02101999999ADDMA1101191999999REMMET045METAR SBJP 182100Z 14008KT CAVOK 26/21 Q1012;
0072827980999992007111822004-07100-034867FM-15+0066SBJP V0201401N00311220001CN0099001N1+02501+02101999999ADDMA1101191999999REMMET045METAR SBJP 182200Z 14006KT CAVOK 25/21 Q1012;
0072827980999992007111823004-07100-034867FM-15+0066SBJP V0201401N00261220001CN0099001N1+02401+02101999999ADDMA1101291999999REMMET045METAR SBJP 182300Z 14005KT CAVOK 24/21 Q1013;
0072827980999992007111900004-07100-034867FM-15+0066SBJP V0201701N00211220001CN0099001N1+02401+02101999999ADDMA1101391999999REMMET045METAR SBJP 190000Z 17004KT CAVOK 24/21 Q1014;
0120827980999992007111901004-07100-034867FM-15+0066SBJP V0201601N001512200019N0112651N1+02401+02101999999ADDGA1041+007501999GF104991999999999999999999MA1101391999999REMMET051METAR SBJP 190100Z 16003KT 9999 SCT025 24/21 Q1014;
0120827980999992007111902004-07100-034867FM-15+0066SBJP V0201401N001512200019N0112651N1+02401+02101999999ADDGA1041+007501999GF104991999999999999999999MA1101291999999REMMET051METAR SBJP 190200Z 14003KT 9999 SCT025 24/21 Q1013;
0120827980999992007111903004-07100-034867FM-15+0066SBJP V0202301N001512200019N0112651N1+02301+02101999999ADDGA1041+007501999GF104991999999999999999999MA1101291999999REMMET051METAR SBJP 190300Z 23003KT 9999 SCT025 23/21 Q1013;
0072827980999992007111904004-07100-034867FM-15+0066SBJP V0201901N00101220001CN0099001N1+02301+02101999999ADDMA1101191999999REMMET045METAR SBJP 190400Z 19002KT CAVOK 23/21 Q1012;
0120827980999992007111905004-07100-034867FM-15+0066SBJP V0202201N001510060019N0112651N1+02201+02101999999ADDGA1071+006001999GF107991999999999999999999MA1101191999999REMMET051METAR SBJP 190500Z 22003KT 9999 BKN020 22/21 Q1012;
0120827980999992007111906004-07100-034867FM-15+0066SBJP V0202101N001510060019N0112651N1+02201+02101999999ADDGA1071+006001999GF107991999999999999999999MA1101191999999REMMET051METAR SBJP 190600Z 21003KT 9999 BKN020 22/21 Q1012;
0120827980999992007111907004-07100-034867FM-15+0066SBJP V0202101N002110060019N0112651N1+02201+02001999999ADDGA1071+006001999GF107991999999999999999999MA1101191999999REMMET051METAR SBJP 190700Z 21004KT 9999 BKN020 22/20 Q1012;
0120827980999992007111908004-07100-034867FM-15+0066SBJP V0202101N001512200019N0112651N1+02201+02001999999ADDGA1041+006001999GF104991999999999999999999MA1101291999999REMMET051METAR SBJP 190800Z 21003KT 9999 SCT020 22/20 Q1013;
0120827980999992007111909004-07100-034867FM-15+0066SBJP V0202101N001512200019N0112651N1+02201+02001999999ADDGA1021+006001999GF102991999999999999999999MA1101291999999REMMET051METAR SBJP 190900Z 21003KT 9999 FEW020 22/20 Q1013;
0120827980999992007111910004-07100-034867FM-15+0066SBJP V0201701N002612200019N0112651N1+02601+02101999999ADDGA1021+007501999GF102991999999999999999999MA1101391999999REMMET051METAR SBJP 191000Z 17005KT 9999 FEW025 26/21 Q1014;
0120827980999992007111913004-07100-034867FM-15+0066SBJP V0201501N006210090019N0112651N1+03001+02001999999ADDGA1071+009001999GF107991999999999999999999MA1101391999999REMMET051METAR SBJP 191300Z 15012KT 9999 BKN030 30/20 Q1014;
0120827980999992007111914004-07100-034867FM-15+0066SBJP V0201601N005710090019N0112651N1+02901+02001999999ADDGA1071+009001999GF107991999999999999999999MA1101291999999REMMET051METAR SBJP 191400Z 16011KT 9999 BKN030 29/20 Q1013;
0120827980999992007111915004-07100-034867FM-15+0066SBJP V0201401N005110090019N0112651N1+02901+02001999999ADDGA1071+009001999GF107991999999999999999999MA1101291999999REMMET051METAR SBJP 191500Z 14010KT 9999 BKN030 29/20 Q1013;
0120827980999992007111916004-07100-034867FM-15+0066SBJP V0201101N005112200019N0112651N1+02901+02101999999ADDGA1041+009001999GF104991999999999999999999MA1101191999999REMMET051METAR SBJP 191600Z 11010KT 9999 SCT030 29/21 Q1012;
0120827980999992007111917004-07100-034867FM-15+0066SBJP V0201401N005712200019N0112651N1+02901+02001999999ADDGA1041+009001999GF104991999999999999999999MA1101081999999REMMET051METAR SBJP 191700Z 14011KT 9999 SCT030 29/20 Q1011;
0120827980999992007111918004-07100-034867FM-15+0066SBJP V0201401N005112200019N0112651N1+02901+02001999999ADDGA1041+009001999GF104991999999999999999999MA1101081999999REMMET051METAR SBJP 191800Z 14010KT 9999 SCT030 29/20 Q1011;
0131827980999992007111919004-07100-034867FM-15+0066SBJP V0201401N005712200019N0112651N1+02801+02001999999ADDGA1021+009001999GF102991999999999999999999MA1101081999999OC101081REMMET054METAR SBJP 191900Z 14011G21KT 9999 FEW030 28/20 Q1011;
0120827980999992007111920004-07100-034867FM-15+0066SBJP V0201301N004612200019N0112651N1+02601+02001999999ADDGA1021+009001999GF102991999999999999999999MA1101081999999REMMET051METAR SBJP 192000Z 13009KT 9999 FEW030 26/20 Q1011;
0072827980999992007111921004-07100-034867FM-15+0066SBJP V0201401N00311220001CN0099001N1+02501+02001999999ADDMA1101081999999REMMET045METAR SBJP 192100Z 14006KT CAVOK 25/20 Q1011;
0072827980999992007111922004-07100-034867FM-15+0066SBJP V0201601N00211220001CN0099001N1+02401+02001999999ADDMA1101191999999REMMET045METAR SBJP 192200Z 16004KT CAVOK 24/20 Q1012;
0072827980999992007111923004-07100-034867FM-15+0066SBJP V0201701N00151220001CN0099001N1+02401+02001999999ADDMA1101191999999REMMET045METAR SBJP 192300Z 17003KT CAVOK 24/20 Q1012;
0072827980999992007112000004-07100-034867FM-15+0066SBJP V0201901N00311220001CN0099001N1+02301+02001999999ADDMA1101291999999REMMET045METAR SBJP 200000Z 19006KT CAVOK 23/20 Q1013;
0072827980999992007112001004-07100-034867FM-15+0066SBJP V0202001N00151220001CN0099001N1+02301+02001999999ADDMA1101291999999REMMET045METAR SBJP 200100Z 20003KT CAVOK 23/20 Q1013;
0072827980999992007112002004-07100-034867FM-15+0066SBJP V0201901N00101220001CN0099001N1+02301+02001999999ADDMA1101191999999REMMET045METAR SBJP 200200Z 19002KT CAVOK 23/20 Q1012;
0120827980999992007112003004-07100-034867FM-15+0066SBJP V0201901N001012200019N0112651N1+02201+02001999999ADDGA1021+006001999GF102991999999999999999999MA1101191999999REMMET051METAR SBJP 200300Z 19002KT 9999 FEW020 22/20 Q1012;
0120827980999992007112004004-07100-034867FM-15+0066SBJP V0202501N001012200019N0112651N1+02201+02001999999ADDGA1021+006001999GF102991999999999999999999MA1101081999999REMMET051METAR SBJP 200400Z 25002KT 9999 FEW020 22/20 Q1011;
0120827980999992007112005004-07100-034867FM-15+0066SBJP V0202401N001012200019N0112651N1+02201+02001999999ADDGA1021+006001999GF102991999999999999999999MA1101081999999REMMET051METAR SBJP 200500Z 24002KT 9999 FEW020 22/20 Q1011;
0120827980999992007112006004-07100-034867FM-15+0066SBJP V0202401N002112200019N0112651N1+02201+02001999999ADDGA1021+006001999GF102991999999999999999999MA1101081999999REMMET051METAR SBJP 200600Z 24004KT 9999 FEW020 22/20 Q1011;
0120827980999992007112007004-07100-034867FM-15+0066SBJP V0202401N001512200019N0112651N1+02101+02001999999ADDGA1021+006001999GF102991999999999999999999MA1101081999999REMMET051METAR SBJP 200700Z 24003KT 9999 FEW020 21/20 Q1011;
0120827980999992007112008004-07100-034867FM-15+0066SBJP V0202401N002612200019N0112651N1+02201+02001999999ADDGA1021+006001999GF102991999999999999999999MA1101191999999REMMET051METAR SBJP 200800Z 24005KT 9999 FEW020 22/20 Q1012;
0120827980999992007112009004-07100-034867FM-15+0066SBJP V0202401N002112200019N0112651N1+02301+02101999999ADDGA1041+006001999GF104991999999999999999999MA1101291999999REMMET051METAR SBJP 200900Z 24004KT 9999 SCT020 23/21 Q1013;
0120827980999992007112010004-07100-034867FM-15+0066SBJP V0201801N001512200019N0112651N1+02601+02201999999ADDGA1021+009001999GF102991999999999999999999MA1101391999999REMMET051METAR SBJP 201000Z 18003KT 9999 FEW030 26/22 Q1014;
0120827980999992007112011004-07100-034867FM-15+0066SBJP V0201501N003112200019N0112651N1+02801+02301999999ADDGA1041+009001999GF104991999999999999999999MA1101391999999REMMET051METAR SBJP 201100Z 15006KT 9999 SCT030 28/23 Q1014;
0120827980999992007112012004-07100-034867FM-15+0066SBJP V0201501N005112200019N0112651N1+03001+02101999999ADDGA1041+009001999GF104991999999999999999999MA1101391999999REMMET051METAR SBJP 201200Z 15010KT 9999 SCT030 30/21 Q1014;
0120827980999992007112013004-07100-034867FM-15+0066SBJP V0201201N005110090019N0112651N1+02901+02301999999ADDGA1071+009001999GF107991999999999999999999MA1101391999999REMMET051METAR SBJP 201300Z 12010KT 9999 BKN030 29/23 Q1014;
0120827980999992007112014004-07100-034867FM-15+0066SBJP V0201201N004110090019N0112651N1+03001+02201999999ADDGA1071+009001999GF107991999999999999999999MA1101391999999REMMET051METAR SBJP 201400Z 12008KT 9999 BKN030 30/22 Q1014;
0136827980999992007112015004-07100-034867FM-15+0066SBJP V0201001N00411220001CN0112651N1+03001+02201999999ADDGA1071+009001999GA2041+021001999MA1101291999999REMMET058METAR SBJP 201500Z 10008KT 9999 BKN030 SCT070 30/22 Q1013;EQDQ01+000042SCOTCV
0143827980999992007112016004-07100-034867FM-15+0066SBJP V0201601N005712200019N0112651N1+03101+02201999999ADDGA1041+009001999GA2041+024001999GF104991999999999999999999MA1101191999999REMMET058METAR SBJP 201600Z 16011KT 9999 SCT030 SCT080 31/22 Q1012;
0120827980999992007112017004-07100-034867FM-15+0066SBJP V0201401N005112200019N0112651N1+03001+02101999999ADDGA1041+009001999GF104991999999999999999999MA1101191999999REMMET051METAR SBJP 201700Z 14010KT 9999 SCT030 30/21 Q1012;
0143827980999992007112018004-07100-034867FM-15+0066SBJP V0201401N005110900019N0112651N1+02901+02201999999ADDGA1041+009001999GA2071+090001999GF107991999999999999999999MA1101081999999REMMET058METAR SBJP 201800Z 14010KT 9999 SCT030 BKN300 29/22 Q1011;
0143827980999992007112019004-07100-034867FM-15+0066SBJP V0201401N004112200019N0112651N1+02901+02201999999ADDGA1041+009001999GA2041+090001999GF104991999999999999999999MA1101081999999REMMET058METAR SBJP 201900Z 14008KT 9999 SCT030 SCT300 29/22 Q1011;
0120827980999992007112020004-07100-034867FM-15+0066SBJP V0201401N003612200019N0112651N1+02701+02201999999ADDGA1041+009001999GF104991999999999999999999MA1101191999999REMMET051METAR SBJP 202000Z 14007KT 9999 SCT030 27/22 Q1012;
0120827980999992007112021004-07100-034867FM-15+0066SBJP V0201401N003612200019N0112651N1+02701+02301999999ADDGA1021+009001999GF102991999999999999999999MA1101291999999REMMET051METAR SBJP 202100Z 14007KT 9999 FEW030 27/23 Q1013;
0120827980999992007112022004-07100-034867FM-15+0066SBJP V0201501N002112200019N0112651N1+02701+02301999999ADDGA1021+009001999GF102991999999999999999999MA1101291999999REMMET051METAR SBJP 202200Z 15004KT 9999 FEW030 27/23 Q1013;
0120827980999992007112023004-07100-034867FM-15+0066SBJP V0201401N002112200019N0112651N1+02601+02301999999ADDGA1021+006001999GF102991999999999999999999MA1101391999999REMMET051METAR SBJP 202300Z 14004KT 9999 FEW020 26/23 Q1014;
0120827980999992007112100004-07100-034867FM-15+0066SBJP V0201401N003112200019N0112651N1+02601+02401999999ADDGA1041+006001999GF104991999999999999999999MA1101391999999REMMET051METAR SBJP 210000Z 14006KT 9999 SCT020 26/24 Q1014;
0120827980999992007112101004-07100-034867FM-15+0066SBJP V0201401N002112200019N0112651N1+02601+02301999999ADDGA1041+006001999GF104991999999999999999999MA1101391999999REMMET051METAR SBJP 210100Z 14004KT 9999 SCT020 26/23 Q1014;
0120827980999992007112102004-07100-034867FM-15+0066SBJP V0201301N002112200019N0112651N1+02601+02301999999ADDGA1041+006001999GF104991999999999999999999MA1101391999999REMMET051METAR SBJP 210200Z 13004KT 9999 SCT020 26/23 Q1014;
0120827980999992007112103004-07100-034867FM-15+0066SBJP V0201501N002112200019N0112651N1+02601+02301999999ADDGA1041+006001999GF104991999999999999999999MA1101291999999REMMET051METAR SBJP 210300Z 15004KT 9999 SCT020 26/23 Q1013;
0120827980999992007112104004-07100-034867FM-15+0066SBJP V0201401N002112200019N0112651N1+02501+02301999999ADDGA1041+006001999GF104991999999999999999999MA1101191999999REMMET051METAR SBJP 210400Z 14004KT 9999 SCT020 25/23 Q1012;
0143827980999992007112105004-07100-034867FM-15+0066SBJP V0201301N002110210019N0112651N1+02501+02301999999ADDGA1041+006001999GA2071+021001999GF107991999999999999999999MA1101191999999REMMET058METAR SBJP 210500Z 13004KT 9999 SCT020 BKN070 25/23 Q1012;
0143827980999992007112106004-07100-034867FM-15+0066SBJP V0201201N001512200019N0112651N1+02501+02301999999ADDGA1041+006001999GA2041+021001999GF104991999999999999999999MA1101191999999REMMET058METAR SBJP 210600Z 12003KT 9999 SCT020 SCT070 25/23 Q1012;
0143827980999992007112107004-07100-034867FM-15+0066SBJP V0201001N001512200019N0112651N1+02401+02301999999ADDGA1041+006001999GA2041+021001999GF104991999999999999999999MA1101191999999REMMET058METAR SBJP 210700Z 10003KT 9999 SCT020 SCT070 24/23 Q1012;
0143827980999992007112108004-07100-034867FM-15+0066SBJP V0201801N001510210019N0112651N1+02501+02301999999ADDGA1041+006001999GA2071+021001999GF107991999999999999999999MA1101291999999REMMET058METAR SBJP 210800Z 18003KT 9999 SCT020 BKN070 25/23 Q1013;
0143827980999992007112109004-07100-034867FM-15+0066SBJP V0201101N002610210019N0112651N1+02701+02401999999ADDGA1041+004801999GA2071+021001999GF107991999999999999999999MA1101291999999REMMET058METAR SBJP 210900Z 11005KT 9999 SCT016 BKN070 27/24 Q1013;
0143827980999992007112110004-07100-034867FM-15+0066SBJP V0201301N003610210019N0112651N1+02701+02301999999ADDGA1041+005401999GA2071+021001999GF107991999999999999999999MA1101391999999REMMET058METAR SBJP 211000Z 13007KT 9999 SCT018 BKN070 27/23 Q1014;
0143827980999992007112111004-07100-034867FM-15+0066SBJP V0201101N004610240019N0112651N1+02801+02201999999ADDGA1041+006001999GA2071+024001999GF107991999999999999999999MA1101491999999REMMET058METAR SBJP 211100Z 11009KT 9999 SCT020 BKN080 28/22 Q1015;
0143827980999992007112112004-07100-034867FM-15+0066SBJP V0201301N003610240019N0112651N1+02901+02301999999ADDGA1041+006001999GA2071+024001999GF107991999999999999999999MA1101491999999REMMET058METAR SBJP 211200Z 13007KT 9999 SCT020 BKN080 29/23 Q1015;
0143827980999992007112113004-07100-034867FM-15+0066SBJP V0201401N005110240019N0112651N1+03001+02201999999ADDGA1041+006001999GA2071+024001999GF107991999999999999999999MA1101391999999REMMET058METAR SBJP 211300Z 14010KT 9999 SCT020 BKN080 30/22 Q1014;
0136827980999992007112114004-07100-034867FM-15+0066SBJP V0201401N00411220001CN0112651N1+02901+02201999999ADDGA1071+007501999GA2041+024001999MA1101391999999REMMET058METAR SBJP 211400Z 14008KT 9999 BKN025 SCT080 29/22 Q1014;EQDQ01+000042SCOTCV
0136827980999992007112115004-07100-034867FM-15+0066SBJP V0201101N00511220001CN0112651N1+02901+02101999999ADDGA1071+007501999GA2041+024001999MA1101291999999REMMET058METAR SBJP 211500Z 11010KT 9999 BKN025 SCT080 29/21 Q1013;EQDQ01+000042SCOTCV
0136827980999992007112116004-07100-034867FM-15+0066SBJP V0201201N00411220001CN0112651N1+02901+02201999999ADDGA1071+007501999GA2041+024001999MA1101291999999REMMET058METAR SBJP 211600Z 12008KT 9999 BKN025 SCT080 29/22 Q1013;EQDQ01+000042SCOTCV
0136827980999992007112117004-07100-034867FM-15+0066SBJP V0201001N00411220001CN0112651N1+02901+02101999999ADDGA1071+007501999GA2041+024001999MA1101191999999REMMET058METAR SBJP 211700Z 10008KT 9999 BKN025 SCT080 29/21 Q1012;EQDQ01+000042SCOTCV
0136827980999992007112118004-07100-034867FM-15+0066SBJP V0201401N00411220001CN0112651N1+03001+02201999999ADDGA1071+007501999GA2041+024001999MA1101191999999REMMET058METAR SBJP 211800Z 14008KT 9999 BKN025 SCT080 30/22 Q1012;EQDQ01+000042SCOTCV
0120827980999992007112119004-07100-034867FM-15+0066SBJP V0201201N004112200019N0112651N1+02901+02201999999ADDGA1041+007501999GF104991999999999999999999MA1101191999999REMMET051METAR SBJP 211900Z 12008KT 9999 SCT025 29/22 Q1012;
0120827980999992007112120004-07100-034867FM-15+0066SBJP V0201401N004112200019N0112651N1+02801+02201999999ADDGA1041+007501999GF104991999999999999999999MA1101291999999REMMET051METAR SBJP 212000Z 14008KT 9999 SCT025 28/22 Q1013;
0120827980999992007112121004-07100-034867FM-15+0066SBJP V0201401N003112200019N0112651N1+02701+02201999999ADDGA1041+007501999GF104991999999999999999999MA1101291999999REMMET051METAR SBJP 212100Z 14006KT 9999 SCT025 27/22 Q1013;
0120827980999992007112122004-07100-034867FM-15+0066SBJP V0201001N002112200019N0112651N1+02601+02201999999ADDGA1021+004501999GF102991999999999999999999MA1101391999999REMMET051METAR SBJP 212200Z 10004KT 9999 FEW015 26/22 Q1014;
0120827980999992007112123004-07100-034867FM-15+0066SBJP V0201201N002612200019N0112651N1+02601+02301999999ADDGA1021+004501999GF102991999999999999999999MA1101491999999REMMET051METAR SBJP 212300Z 12005KT 9999 FEW015 26/23 Q1015;
0120827980999992007112200004-07100-034867FM-15+0066SBJP V0201101N002612200019N0112651N1+02601+02201999999ADDGA1021+004801999GF102991999999999999999999MA1101491999999REMMET051METAR SBJP 220000Z 11005KT 9999 FEW016 26/22 Q1015;
0072827980999992007112201004-07100-034867FM-15+0066SBJP V0201201N00211220001CN0099001N1+02501+02201999999ADDMA1101491999999REMMET045METAR SBJP 220100Z 12004KT CAVOK 25/22 Q1015;
0120827980999992007112202004-07100-034867FM-15+0066SBJP V0201101N001512200019N0112651N1+02501+02201999999ADDGA1041+005101999GF104991999999999999999999MA1101391999999REMMET051METAR SBJP 220200Z 11003KT 9999 SCT017 25/22 Q1014;
0120827980999992007112203004-07100-034867FM-15+0066SBJP V0201101N001012200019N0112651N1+02501+02201999999ADDGA1041+004801999GF104991999999999999999999MA1101391999999REMMET051METAR SBJP 220300Z 11002KT 9999 SCT016 25/22 Q1014;
0120827980999992007112204004-07100-034867FM-15+0066SBJP V0202401N001512200019N0112651N1+02401+02201999999ADDGA1041+005101999GF104991999999999999999999MA1101291999999REMMET051METAR SBJP 220400Z 24003KT 9999 SCT017 24/22 Q1013;
0120827980999992007112205004-07100-034867FM-15+0066SBJP V0202401N001512200019N0112651N1+02301+02201999999ADDGA1041+005101999GF104991999999999999999999MA1101291999999REMMET051METAR SBJP 220500Z 24003KT 9999 SCT017 23/22 Q1013;
0120827980999992007112206004-07100-034867FM-15+0066SBJP V0202001N001012200019N0112651N1+02301+02201999999ADDGA1041+006001999GF104991999999999999999999MA1101291999999REMMET051METAR SBJP 220600Z 20002KT 9999 SCT020 23/22 Q1013;
0143827980999992007112207004-07100-034867FM-15+0066SBJP V0201901N001012200019N0112651N1+02301+02201999999ADDGA1041+005401999GA2041+021001999GF104991999999999999999999MA1101291999999REMMET058METAR SBJP 220700Z 19002KT 9999 SCT018 SCT070 23/22 Q1013;
0143827980999992007112208004-07100-034867FM-15+0066SBJP V0203201N000512200019N0112651N1+02301+02201999999ADDGA1041+006001999GA2041+021001999GF104991999999999999999999MA1101291999999REMMET058METAR SBJP 220800Z 32001KT 9999 SCT020 SCT070 23/22 Q1013;
0120827980999992007112209004-07100-034867FM-15+0066SBJP V0203001N000512200019N0112651N1+02401+02301999999ADDGA1021+006001999GF102991999999999999999999MA1101391999999REMMET051METAR SBJP 220900Z 30001KT 9999 FEW020 24/23 Q1014;
0120827980999992007112210004-07100-034867FM-15+0066SBJP V0201201N003112200019N0112651N1+02801+02301999999ADDGA1021+006001999GF102991999999999999999999MA1101391999999REMMET051METAR SBJP 221000Z 12006KT 9999 FEW020 28/23 Q1014;
0120827980999992007112211004-07100-034867FM-15+0066SBJP V0201201N003610060019N0112651N1+02701+02301999999ADDGA1071+006001999GF107991999999999999999999MA1101391999999REMMET051METAR SBJP 221100Z 12007KT 9999 BKN020 27/23 Q1014;
0120827980999992007112212004-07100-034867FM-15+0066SBJP V0201301N004110060019N0112651N1+03001+02201999999ADDGA1071+006001999GF107991999999999999999999MA1101391999999REMMET051METAR SBJP 221200Z 13008KT 9999 BKN020 30/22 Q1014;
0120827980999992007112213004-07100-034867FM-15+0066SBJP V0201001N003110060019N0112651N1+03001+02101999999ADDGA1071+006001999GF107991999999999999999999MA1101391999999REMMET051METAR SBJP 221300Z 10006KT 9999 BKN020 30/21 Q1014;
0120827980999992007112214004-07100-034867FM-15+0066SBJP V0201001N003110060019N0112651N1+03001+02201999999ADDGA1071+006001999GF107991999999999999999999MA1101291999999REMMET051METAR SBJP 221400Z 10006KT 9999 BKN020 30/22 Q1013;
0120827980999992007112215004-07100-034867FM-15+0066SBJP V0201201N003110060019N0112651N1+03001+02201999999ADDGA1071+006001999GF107991999999999999999999MA1101291999999REMMET051METAR SBJP 221500Z 12006KT 9999 BKN020 30/22 Q1013;
0120827980999992007112216004-07100-034867FM-15+0066SBJP V0200901N003110090019N0112651N1+03001+02101999999ADDGA1071+009001999GF107991999999999999999999MA1101191999999REMMET051METAR SBJP 221600Z 09006KT 9999 BKN030 30/21 Q1012;
0120827980999992007112217004-07100-034867FM-15+0066SBJP V0200801N003612200019N0112651N1+03001+02101999999ADDGA1041+009001999GF104991999999999999999999MA1101081999999REMMET051METAR SBJP 221700Z 08007KT 9999 SCT030 30/21 Q1011;
0120827980999992007112218004-07100-034867FM-15+0066SBJP V0200801N003112200019N0112651N1+02901+02201999999ADDGA1041+009001999GF104991999999999999999999MA1101081999999REMMET051METAR SBJP 221800Z 08006KT 9999 SCT030 29/22 Q1011;
0120827980999992007112219004-07100-034867FM-15+0066SBJP V0200901N003112200019N0112651N1+02901+02201999999ADDGA1041+007501999GF104991999999999999999999MA1101081999999REMMET051METAR SBJP 221900Z 09006KT 9999 SCT025 29/22 Q1011;
0120827980999992007112220004-07100-034867FM-15+0066SBJP V0200901N002612200019N0112651N1+02801+02201999999ADDGA1041+006001999GF104991999999999999999999MA1101081999999REMMET051METAR SBJP 222000Z 09005KT 9999 SCT020 28/22 Q1011;
0120827980999992007112221004-07100-034867FM-15+0066SBJP V0201001N002612200019N0112651N1+02701+02301999999ADDGA1021+005101999GF102991999999999999999999MA1101191999999REMMET051METAR SBJP 222100Z 10005KT 9999 FEW017 27/23 Q1012;
0120827980999992007112222004-07100-034867FM-15+0066SBJP V0201401N002112200019N0112651N1+02601+02301999999ADDGA1021+005101999GF102991999999999999999999MA1101291999999REMMET051METAR SBJP 222200Z 14004KT 9999 FEW017 26/23 Q1013;
0072827980999992007112223004-07100-034867FM-15+0066SBJP V0201301N00211220001CN0099001N1+02601+02301999999ADDMA1101291999999REMMET045METAR SBJP 222300Z 13004KT CAVOK 26/23 Q1013;
0072827980999992007112300004-07100-034867FM-15+0066SBJP V0201301N00151220001CN0099001N1+02601+02301999999ADDMA1101291999999REMMET045METAR SBJP 230000Z 13003KT CAVOK 26/23 Q1013;
0072827980999992007112301004-07100-034867FM-15+0066SBJP V0201501N00151220001CN0099001N1+02501+02301999999ADDMA1101391999999REMMET045METAR SBJP 230100Z 15003KT CAVOK 25/23 Q1014;
0120827980999992007112302004-07100-034867FM-15+0066SBJP V0201501N000512200019N0112651N1+02501+02301999999ADDGA1021+005101999GF102991999999999999999999MA1101291999999REMMET051METAR SBJP 230200Z 15001KT 9999 FEW017 25/23 Q1013;
0120827980999992007112303004-07100-034867FM-15+0066SBJP V0201401N001512200019N0112651N1+02601+02301999999ADDGA1021+005101999GF102991999999999999999999MA1101191999999REMMET051METAR SBJP 230300Z 14003KT 9999 FEW017 26/23 Q1012;
0120827980999992007112304004-07100-034867FM-15+0066SBJP V0209999C000012200019N0112651N1+02501+02301999999ADDGA1021+005101999GF102991999999999999999999MA1101191999999REMMET051METAR SBJP 230400Z 00000KT 9999 FEW017 25/23 Q1012;
0072827980999992007112305004-07100-034867FM-15+0066SBJP V0209999C00001220001CN0099001N1+02401+02201999999ADDMA1101081999999REMMET045METAR SBJP 230500Z 00000KT CAVOK 24/22 Q1011;
0072827980999992007112306004-07100-034867FM-15+0066SBJP V0209999C00001220001CN0099001N1+02401+02201999999ADDMA1101081999999REMMET045METAR SBJP 230600Z 00000KT CAVOK 24/22 Q1011;
0072827980999992007112307004-07100-034867FM-15+0066SBJP V0202401N00101220001CN0099001N1+02301+02201999999ADDMA1101081999999REMMET045METAR SBJP 230700Z 24002KT CAVOK 23/22 Q1011;
0072827980999992007112308004-07100-034867FM-15+0066SBJP V0202201N00101220001CN0099001N1+02301+02201999999ADDMA1101191999999REMMET045METAR SBJP 230800Z 22002KT CAVOK 23/22 Q1012;
0120827980999992007112309004-07100-034867FM-15+0066SBJP V0202501N002112200019N0112651N1+02301+02201999999ADDGA1021+006001999GF102991999999999999999999MA1101191999999REMMET051METAR SBJP 230900Z 25004KT 9999 FEW020 23/22 Q1012;
0120827980999992007112310004-07100-034867FM-15+0066SBJP V0201801N001010048019N0112651N1+02601+02401999999ADDGA1071+004801999GF107991999999999999999999MA1101291999999REMMET051METAR SBJP 231000Z 18002KT 9999 BKN016 26/24 Q1013;
0120827980999992007112311004-07100-034867FM-15+0066SBJP V0201401N003110048019N0112651N1+02801+02201999999ADDGA1071+004801999GF107991999999999999999999MA1101291999999REMMET051METAR SBJP 231100Z 14006KT 9999 BKN016 28/22 Q1013;
0120827980999992007112312004-07100-034867FM-15+0066SBJP V0201101N003610060019N0112651N1+02801+02301999999ADDGA1071+006001999GF107991999999999999999999MA1101291999999REMMET051METAR SBJP 231200Z 11007KT 9999 BKN020 28/23 Q1013;
0120827980999992007112313004-07100-034867FM-15+0066SBJP V0200801N002610060019N0112651N1+02801+02301999999ADDGA1071+006001999GF107991999999999999999999MA1101291999999REMMET051METAR SBJP 231300Z 08005KT 9999 BKN020 28/23 Q1013;
0130827980999992007112314004-07100-034867FM-15+0066SBJP V0201101N004110060019N0045001N1+02701+02301999999ADDGA1071+006001999GF107991999999999999999999MA1101291999999MW1611REMMET055METAR SBJP 231400Z 11008KT 4500 -RA BKN020 27/23 Q1013;
0131827980999992007112315004-07100-034867FM-15+0066SBJP V0201301N004110060019N0060001N1+02801+02401999999ADDGA1071+006001999GF107991999999999999999999MA1101191999999MW1161REMMET056METAR SBJP 231500Z 13008KT 6000 VCSH BKN020 28/24 Q1012;
0120827980999992007112316004-07100-034867FM-15+0066SBJP V0201201N003110051019N0112651N1+02901+02201999999ADDGA1071+005101999GF107991999999999999999999MA1101081999999REMMET051METAR SBJP 231600Z 12006KT 9999 BKN017 29/22 Q1011;
0120827980999992007112317004-07100-034867FM-15+0066SBJP V0201301N004610075019N0112651N1+02901+02201999999ADDGA1071+007501999GF107991999999999999999999MA1101081999999REMMET051METAR SBJP 231700Z 13009KT 9999 BKN025 29/22 Q1011;
0120827980999992007112318004-07100-034867FM-15+0066SBJP V0201201N003610075019N0112651N1+02801+02201999999ADDGA1071+007501999GF107991999999999999999999MA1101081999999REMMET051METAR SBJP 231800Z 12007KT 9999 BKN025 28/22 Q1011;
0143827980999992007112319004-07100-034867FM-15+0066SBJP V0201201N003612200019N0112651N1+02801+02201999999ADDGA1041+007501999GA2041+024001999GF104991999999999999999999MA1101081999999REMMET058METAR SBJP 231900Z 12007KT 9999 SCT025 SCT080 28/22 Q1011;
0143827980999992007112320004-07100-034867FM-15+0066SBJP V0201401N003612200019N0112651N1+02701+02301999999ADDGA1041+006001999GA2041+024001999GF104991999999999999999999MA1101081999999REMMET058METAR SBJP 232000Z 14007KT 9999 SCT020 SCT080 27/23 Q1011;
0143827980999992007112321004-07100-034867FM-15+0066SBJP V0201401N003112200019N0112651N1+02701+02301999999ADDGA1041+005101999GA2041+021001999GF104991999999999999999999MA1101081999999REMMET058METAR SBJP 232100Z 14006KT 9999 SCT017 SCT070 27/23 Q1011;
0143827980999992007112322004-07100-034867FM-15+0066SBJP V0201201N002612200019N0112651N1+02601+02301999999ADDGA1041+006001999GA2041+021001999GF104991999999999999999999MA1101191999999REMMET058METAR SBJP 232200Z 12005KT 9999 SCT020 SCT070 26/23 Q1012;
0120827980999992007112323004-07100-034867FM-15+0066SBJP V0201001N002112200019N0112651N1+02601+02301999999ADDGA1041+006001999GF104991999999999999999999MA1101291999999REMMET051METAR SBJP 232300Z 10004KT 9999 SCT020 26/23 Q1013;
0143827980999992007112400004-07100-034867FM-15+0066SBJP V0201101N002112200019N0112651N1+02601+02301999999ADDGA1041+006001999GA2041+021001999GF104991999999999999999999MA1101391999999REMMET058METAR SBJP 240000Z 11004KT 9999 SCT020 SCT070 26/23 Q1014;
0120827980999992007112401004-07100-034867FM-15+0066SBJP V0201101N002112200019N0112651N1+02601+02301999999ADDGA1041+006001999GF104991999999999999999999MA1101291999999REMMET051METAR SBJP 240100Z 11004KT 9999 SCT020 26/23 Q1013;
0120827980999992007112402004-07100-034867FM-15+0066SBJP V0201101N002112200019N0112651N1+02601+02301999999ADDGA1041+009001999GF104991999999999999999999MA1101291999999REMMET051METAR SBJP 240200Z 11004KT 9999 SCT030 26/23 Q1013;
0120827980999992007112403004-07100-034867FM-15+0066SBJP V0201201N001512200019N0112651N1+02601+02301999999ADDGA1041+006001999GF104991999999999999999999MA1101191999999REMMET051METAR SBJP 240300Z 12003KT 9999 SCT020 26/23 Q1012;
0120827980999992007112404004-07100-034867FM-15+0066SBJP V0201201N002612200019N0112651N1+02501+02201999999ADDGA1041+006001999GF104991999999999999999999MA1101081999999REMMET051METAR SBJP 240400Z 12005KT 9999 SCT020 25/22 Q1011;
0120827980999992007112405004-07100-034867FM-15+0066SBJP V0201301N001512200019N0112651N1+02401+02201999999ADDGA1041+006001999GF104991999999999999999999MA1101081999999REMMET051METAR SBJP 240500Z 13003KT 9999 SCT020 24/22 Q1011;
0120827980999992007112406004-07100-034867FM-15+0066SBJP V0201301N001512200019N0112651N1+02401+02201999999ADDGA1041+006001999GF104991999999999999999999MA1101081999999REMMET051METAR SBJP 240600Z 13003KT 9999 SCT020 24/22 Q1011;
0120827980999992007112407004-07100-034867FM-15+0066SBJP V0201201N002112200019N0112651N1+02501+02201999999ADDGA1021+006001999GF102991999999999999999999MA1101081999999REMMET051METAR SBJP 240700Z 12004KT 9999 FEW020 25/22 Q1011;
0120827980999992007112408004-07100-034867FM-15+0066SBJP V0201401N001012200019N0112651N1+02401+02201999999ADDGA1041+004501999GF104991999999999999999999MA1101191999999REMMET051METAR SBJP 240800Z 14002KT 9999 SCT015 24/22 Q1012;
0120827980999992007112409004-07100-034867FM-15+0066SBJP V0201501N001010060019N0112651N1+02501+02301999999ADDGA1071+006001999GF107991999999999999999999MA1101191999999REMMET051METAR SBJP 240900Z 15002KT 9999 BKN020 25/23 Q1012;
0120827980999992007112410004-07100-034867FM-15+0066SBJP V0201401N003110060019N0112651N1+02701+02201999999ADDGA1071+006001999GF107991999999999999999999MA1101291999999REMMET051METAR SBJP 241000Z 14006KT 9999 BKN020 27/22 Q1013;
0120827980999992007112411004-07100-034867FM-15+0066SBJP V0201301N003610075019N0112651N1+02801+02201999999ADDGA1071+007501999GF107991999999999999999999MA1101291999999REMMET051METAR SBJP 241100Z 13007KT 9999 BKN025 28/22 Q1013;
0120827980999992007112412004-07100-034867FM-15+0066SBJP V0201301N003610075019N0112651N1+02801+02201999999ADDGA1071+007501999GF107991999999999999999999MA1101391999999REMMET051METAR SBJP 241200Z 13007KT 9999 BKN025 28/22 Q1014;
0120827980999992007112413004-07100-034867FM-15+0066SBJP V0201501N004110075019N0112651N1+02901+02101999999ADDGA1071+007501999GF107991999999999999999999MA1101291999999REMMET051METAR SBJP 241300Z 15008KT 9999 BKN025 29/21 Q1013;
0120827980999992007112414004-07100-034867FM-15+0066SBJP V0201401N004110075019N0112651N1+03001+02201999999ADDGA1071+007501999GF107991999999999999999999MA1101191999999REMMET051METAR SBJP 241400Z 14008KT 9999 BKN025 30/22 Q1012;
0120827980999992007112415004-07100-034867FM-15+0066SBJP V0201401N003610075019N0112651N1+03001+02101999999ADDGA1071+007501999GF107991999999999999999999MA1101191999999REMMET051METAR SBJP 241500Z 14007KT 9999 BKN025 30/21 Q1012;
0120827980999992007112416004-07100-034867FM-15+0066SBJP V0200801N004612200019N0112651N1+02901+02101999999ADDGA1041+009001999GF104991999999999999999999MA1101081999999REMMET051METAR SBJP 241600Z 08009KT 9999 SCT030 29/21 Q1011;
0120827980999992007112417004-07100-034867FM-15+0066SBJP V0201101N003612200019N0112651N1+02901+02001999999ADDGA1041+009001999GF104991999999999999999999MA1101021999999REMMET051METAR SBJP 241700Z 11007KT 9999 SCT030 29/20 Q1010;
0120827980999992007112418004-07100-034867FM-15+0066SBJP V0201201N004112200019N0112651N1+02901+02001999999ADDGA1041+009001999GF104991999999999999999999MA1101021999999REMMET051METAR SBJP 241800Z 12008KT 9999 SCT030 29/20 Q1010;
0143827980999992007112419004-07100-034867FM-15+0066SBJP V0201101N003112200019N0112651N1+02801+02101999999ADDGA1041+009001999GA2041+021001999GF104991999999999999999999MA1101021999999REMMET058METAR SBJP 241900Z 11006KT 9999 SCT030 SCT070 28/21 Q1010;
0143827980999992007112420004-07100-034867FM-15+0066SBJP V0201101N002612200019N0112651N1+02701+02101999999ADDGA1041+009001999GA2041+021001999GF104991999999999999999999MA1101081999999REMMET058METAR SBJP 242000Z 11005KT 9999 SCT030 SCT070 27/21 Q1011;
0120827980999992007112421004-07100-034867FM-15+0066SBJP V0201101N002112200019N0112651N1+02701+02201999999ADDGA1021+009001999GF102991999999999999999999MA1101081999999REMMET051METAR SBJP 242100Z 11004KT 9999 FEW030 27/22 Q1011;
0120827980999992007112422004-07100-034867FM-15+0066SBJP V0201301N001512200019N0112651N1+02601+02301999999ADDGA1041+007501999GF104991999999999999999999MA1101191999999REMMET051METAR SBJP 242200Z 13003KT 9999 SCT025 26/23 Q1012;
0120827980999992007112423004-07100-034867FM-15+0066SBJP V0201501N002612200019N0112651N1+02601+02301999999ADDGA1041+007501999GF104991999999999999999999MA1101191999999REMMET051METAR SBJP 242300Z 15005KT 9999 SCT025 26/23 Q1012;
0120827980999992007112500004-07100-034867FM-15+0066SBJP V0201401N002612200019N0112651N1+02601+02301999999ADDGA1041+006001999GF104991999999999999999999MA1101291999999REMMET051METAR SBJP 250000Z 14005KT 9999 SCT020 26/23 Q1013;
0120827980999992007112501004-07100-034867FM-15+0066SBJP V0201301N002612200019N0112651N1+02601+02301999999ADDGA1041+006001999GF104991999999999999999999MA1101191999999REMMET051METAR SBJP 250100Z 13005KT 9999 SCT020 26/23 Q1012;
0120827980999992007112502004-07100-034867FM-15+0066SBJP V0201401N003112200019N0112651N1+02601+02201999999ADDGA1041+006001999GF104991999999999999999999MA1101191999999REMMET051METAR SBJP 250200Z 14006KT 9999 SCT020 26/22 Q1012;
0120827980999992007112503004-07100-034867FM-15+0066SBJP V0201301N002112200019N0112651N1+02501+02201999999ADDGA1021+006001999GF102991999999999999999999MA1101081999999REMMET051METAR SBJP 250300Z 13004KT 9999 FEW020 25/22 Q1011;
0120827980999992007112504004-07100-034867FM-15+0066SBJP V0201401N001512200019N0112651N1+02501+02201999999ADDGA1021+006001999GF102991999999999999999999MA1101081999999REMMET051METAR SBJP 250400Z 14003KT 9999 FEW020 25/22 Q1011;
0120827980999992007112505004-07100-034867FM-15+0066SBJP V0202001N001012200019N0112651N1+02301+02101999999ADDGA1021+006001999GF102991999999999999999999MA1101081999999REMMET051METAR SBJP 250500Z 20002KT 9999 FEW020 23/21 Q1011;
0120827980999992007112506004-07100-034867FM-15+0066SBJP V0202401N001512200019N0112651N1+02301+02101999999ADDGA1021+006001999GF102991999999999999999999MA1101081999999REMMET051METAR SBJP 250600Z 24003KT 9999 FEW020 23/21 Q1011;
0120827980999992007112507004-07100-034867FM-15+0066SBJP V0202401N001512200019N0112651N1+02201+02101999999ADDGA1021+006001999GF102991999999999999999999MA1101081999999REMMET051METAR SBJP 250700Z 24003KT 9999 FEW020 22/21 Q1011;
0120827980999992007112508004-07100-034867FM-15+0066SBJP V0202201N000512200019N0112651N1+02301+02101999999ADDGA1021+006001999GF102991999999999999999999MA1101081999999REMMET051METAR SBJP 250800Z 22001KT 9999 FEW020 23/21 Q1011;
0120827980999992007112509004-07100-034867FM-15+0066SBJP V0201901N001012200019N0112651N1+02401+02201999999ADDGA1021+006001999GF102991999999999999999999MA1101191999999REMMET051METAR SBJP 250900Z 19002KT 9999 FEW020 24/22 Q1012;
0120827980999992007112510004-07100-034867FM-15+0066SBJP V0201301N003612200019N0112651N1+02801+02101999999ADDGA1021+009001999GF102991999999999999999999MA1101291999999REMMET051METAR SBJP 251000Z 13007KT 9999 FEW030 28/21 Q1013;
0120827980999992007112511004-07100-034867FM-15+0066SBJP V0201401N004112200019N0112651N1+02901+02001999999ADDGA1041+009001999GF104991999999999999999999MA1101291999999REMMET051METAR SBJP 251100Z 14008KT 9999 SCT030 29/20 Q1013;
0120827980999992007112512004-07100-034867FM-15+0066SBJP V0201101N003112200019N0112651N1+02901+02001999999ADDGA1041+009001999GF104991999999999999999999MA1101291999999REMMET051METAR SBJP 251200Z 11006KT 9999 SCT030 29/20 Q1013;
0120827980999992007112513004-07100-034867FM-15+0066SBJP V0201201N004612200019N0112651N1+03001+02001999999ADDGA1041+009001999GF104991999999999999999999MA1101291999999REMMET051METAR SBJP 251300Z 12009KT 9999 SCT030 30/20 Q1013;
0120827980999992007112514004-07100-034867FM-15+0066SBJP V0201301N004112200019N0112651N1+03001+02001999999ADDGA1041+009001999GF104991999999999999999999MA1101291999999REMMET051METAR SBJP 251400Z 13008KT 9999 SCT030 30/20 Q1013;
0120827980999992007112515004-07100-034867FM-15+0066SBJP V0201201N004112200019N0112651N1+03001+02001999999ADDGA1041+009001999GF104991999999999999999999MA1101191999999REMMET051METAR SBJP 251500Z 12008KT 9999 SCT030 30/20 Q1012;
0120827980999992007112516004-07100-034867FM-15+0066SBJP V0201001N004612200019N0112651N1+02901+01901999999ADDGA1041+009001999GF104991999999999999999999MA1101191999999REMMET051METAR SBJP 251600Z 10009KT 9999 SCT030 29/19 Q1012;
0120827980999992007112517004-07100-034867FM-15+0066SBJP V0201001N003612200019N0112651N1+02901+02001999999ADDGA1041+009001999GF104991999999999999999999MA1101081999999REMMET051METAR SBJP 251700Z 10007KT 9999 SCT030 29/20 Q1011;
0120827980999992007112518004-07100-034867FM-15+0066SBJP V0201201N003612200019N0112651N1+02901+02001999999ADDGA1041+009001999GF104991999999999999999999MA1101021999999REMMET051METAR SBJP 251800Z 12007KT 9999 SCT030 29/20 Q1010;
0120827980999992007112519004-07100-034867FM-15+0066SBJP V0201101N003612200019N0112651N1+02901+01901999999ADDGA1041+009001999GF104991999999999999999999MA1101081999999REMMET051METAR SBJP 251900Z 11007KT 9999 SCT030 29/19 Q1011;
0120827980999992007112520004-07100-034867FM-15+0066SBJP V0201101N003112200019N0112651N1+02701+02001999999ADDGA1021+009001999GF102991999999999999999999MA1101081999999REMMET051METAR SBJP 252000Z 11006KT 9999 FEW030 27/20 Q1011;
0120827980999992007112521004-07100-034867FM-15+0066SBJP V0201101N002612200019N0112651N1+02701+02101999999ADDGA1021+009001999GF102991999999999999999999MA1101081999999REMMET051METAR SBJP 252100Z 11005KT 9999 FEW030 27/21 Q1011;
0072827980999992007112522004-07100-034867FM-15+0066SBJP V0201201N00211220001CN0099001N1+02601+02101999999ADDMA1101191999999REMMET045METAR SBJP 252200Z 12004KT CAVOK 26/21 Q1012;
0072827980999992007112523004-07100-034867FM-15+0066SBJP V0201301N00101220001CN0099001N1+02601+02101999999ADDMA1101291999999REMMET045METAR SBJP 252300Z 13002KT CAVOK 26/21 Q1013;
0120827980999992007112601004-07100-034867FM-15+0066SBJP V0202201N001012200019N0112651N1+02401+02101999999ADDGA1021+006001999GF102991999999999999999999MA1101291999999REMMET051METAR SBJP 260100Z 22002KT 9999 FEW020 24/21 Q1013;
0120827980999992007112602004-07100-034867FM-15+0066SBJP V0202501N001012200019N0112651N1+02401+02101999999ADDGA1021+006001999GF102991999999999999999999MA1101291999999REMMET051METAR SBJP 260200Z 25002KT 9999 FEW020 24/21 Q1013;
0120827980999992007112603004-07100-034867FM-15+0066SBJP V0202501N001012200019N0112651N1+02401+02101999999ADDGA1021+006001999GF102991999999999999999999MA1101191999999REMMET051METAR SBJP 260300Z 25002KT 9999 FEW020 24/21 Q1012;
0120827980999992007112604004-07100-034867FM-15+0066SBJP V0202701N001012200019N0112651N1+02301+02101999999ADDGA1041+006001999GF104991999999999999999999MA1101191999999REMMET051METAR SBJP 260400Z 27002KT 9999 SCT020 23/21 Q1012;
0120827980999992007112605004-07100-034867FM-15+0066SBJP V0202301N001012200019N0112651N1+02301+02101999999ADDGA1041+006001999GF104991999999999999999999MA1101081999999REMMET051METAR SBJP 260500Z 23002KT 9999 SCT020 23/21 Q1011;
0120827980999992007112606004-07100-034867FM-15+0066SBJP V0202401N001012200019N0112651N1+02301+02101999999ADDGA1041+006001999GF104991999999999999999999MA1101081999999REMMET051METAR SBJP 260600Z 24002KT 9999 SCT020 23/21 Q1011;
0120827980999992007112607004-07100-034867FM-15+0066SBJP V0202801N001012200019N0112651N1+02201+02001999999ADDGA1021+006001999GF102991999999999999999999MA1101081999999REMMET051METAR SBJP 260700Z 28002KT 9999 FEW020 22/20 Q1011;
0120827980999992007112608004-07100-034867FM-15+0066SBJP V0202401N001012200019N0112651N1+02201+02001999999ADDGA1021+006001999GF102991999999999999999999MA1101081999999REMMET051METAR SBJP 260800Z 24002KT 9999 FEW020 22/20 Q1011;
0120827980999992007112609004-07100-034867FM-15+0066SBJP V0202401N001512200019N0112651N1+02301+02101999999ADDGA1021+006001999GF102991999999999999999999MA1101191999999REMMET051METAR SBJP 260900Z 24003KT 9999 FEW020 23/21 Q1012;
0120827980999992007112610004-07100-034867FM-15+0066SBJP V0203601N001012200019N0112651N1+02601+02201999999ADDGA1021+007501999GF102991999999999999999999MA1101191999999REMMET051METAR SBJP 261000Z 36002KT 9999 FEW025 26/22 Q1012;
0120827980999992007112611004-07100-034867FM-15+0066SBJP V0200701N002612200019N0112651N1+02901+02101999999ADDGA1041+007501999GF104991999999999999999999MA1101291999999REMMET051METAR SBJP 261100Z 07005KT 9999 SCT025 29/21 Q1013;
0120827980999992007112612004-07100-034867FM-15+0066SBJP V0200701N003110090019N0112651N1+02901+02101999999ADDGA1071+009001999GF107991999999999999999999MA1101291999999REMMET051METAR SBJP 261200Z 07006KT 9999 BKN030 29/21 Q1013;
0120827980999992007112613004-07100-034867FM-15+0066SBJP V0200701N004110090019N0112651N1+03001+02101999999ADDGA1071+009001999GF107991999999999999999999MA1101291999999REMMET051METAR SBJP 261300Z 07008KT 9999 BKN030 30/21 Q1013;
0120827980999992007112614004-07100-034867FM-15+0066SBJP V0200701N003610090019N0112651N1+03001+02101999999ADDGA1071+009001999GF107991999999999999999999MA1101291999999REMMET051METAR SBJP 261400Z 07007KT 9999 BKN030 30/21 Q1013;
0120827980999992007112615004-07100-034867FM-15+0066SBJP V0200901N003610090019N0112651N1+03001+02101999999ADDGA1071+009001999GF107991999999999999999999MA1101191999999REMMET051METAR SBJP 261500Z 09007KT 9999 BKN030 30/21 Q1012;
0120827980999992007112616004-07100-034867FM-15+0066SBJP V0200601N003110090019N0112651N1+02901+02201999999ADDGA1071+009001999GF107991999999999999999999MA1101081999999REMMET051METAR SBJP 261600Z 06006KT 9999 BKN030 29/22 Q1011;
0153827980999992007112617004-07100-034867FM-15+0066SBJP V0201101N005110060019N0045001N1+02601+02401999999ADDGA1021+004501999GA2071+006001999GF107991999999999999999999MA1101081999999MW1611REMMET062METAR SBJP 261700Z 11010KT 4500 -RA FEW015 BKN020 26/24 Q1011;
0117827980999992007112618004-07100-034867FM-15+0066SBJP V0201401N00411220001CN0112651N1+02501+02201999999ADDGA1071+006001999GA2041+024001999MA1101081999999REMMET058METAR SBJP 261800Z 14008KT 9999 BKN020 SCT080 25/22 Q1011;
0143827980999992007112619004-07100-034867FM-15+0066SBJP V0201101N002110240019N0112651N1+02701+02101999999ADDGA1041+006001999GA2071+024001999GF107991999999999999999999MA1101021999999REMMET058METAR SBJP 261900Z 11004KT 9999 SCT020 BKN080 27/21 Q1010;
0143827980999992007112620004-07100-034867FM-15+0066SBJP V0201201N003110240019N0112651N1+02601+02101999999ADDGA1041+006001999GA2071+024001999GF107991999999999999999999MA1101081999999REMMET058METAR SBJP 262000Z 12006KT 9999 SCT020 BKN080 26/21 Q1011;
0143827980999992007112621004-07100-034867FM-15+0066SBJP V0201301N002110240019N0112651N1+02601+02201999999ADDGA1041+006001999GA2071+024001999GF107991999999999999999999MA1101081999999REMMET058METAR SBJP 262100Z 13004KT 9999 SCT020 BKN080 26/22 Q1011;
0143827980999992007112622004-07100-034867FM-15+0066SBJP V0201301N002110210019N0112651N1+02501+02301999999ADDGA1041+006001999GA2071+021001999GF107991999999999999999999MA1101191999999REMMET058METAR SBJP 262200Z 13004KT 9999 SCT020 BKN070 25/23 Q1012;
0143827980999992007112623004-07100-034867FM-15+0066SBJP V0201701N001012200019N0112651N1+02401+02201999999ADDGA1021+006001999GA2041+021001999GF104991999999999999999999MA1101191999999REMMET058METAR SBJP 262300Z 17002KT 9999 FEW020 SCT070 24/22 Q1012;
0143827980999992007112700004-07100-034867FM-15+0066SBJP V0209999C000012200019N0112651N1+02601+02201999999ADDGA1041+006001999GA2041+021001999GF104991999999999999999999MA1101291999999REMMET058METAR SBJP 270000Z 00000KT 9999 SCT020 SCT070 26/22 Q1013;
0143827980999992007112701004-07100-034867FM-15+0066SBJP V0201201N001012200019N0112651N1+02501+02201999999ADDGA1021+006001999GA2041+021001999GF104991999999999999999999MA1101291999999REMMET058METAR SBJP 270100Z 12002KT 9999 FEW020 SCT070 25/22 Q1013;
0143827980999992007112702004-07100-034867FM-15+0066SBJP V0201201N001012200019N0112651N1+02501+02201999999ADDGA1021+006001999GA2041+021001999GF104991999999999999999999MA1101191999999REMMET058METAR SBJP 270200Z 12002KT 9999 FEW020 SCT070 25/22 Q1012;
0143827980999992007112703004-07100-034867FM-15+0066SBJP V0201301N002112200019N0112651N1+02501+02201999999ADDGA1041+006001999GA2041+021001999GF104991999999999999999999MA1101081999999REMMET058METAR SBJP 270300Z 13004KT 9999 SCT020 SCT070 25/22 Q1011;
0143827980999992007112704004-07100-034867FM-15+0066SBJP V0200901N001010210019N0112651N1+02501+02301999999ADDGA1041+005401999GA2071+021001999GF107991999999999999999999MA1101081999999REMMET058METAR SBJP 270400Z 09002KT 9999 SCT018 BKN070 25/23 Q1011;
0143827980999992007112705004-07100-034867FM-15+0066SBJP V0200701N001512200019N0112651N1+02501+02201999999ADDGA1041+005401999GA2041+021001999GF104991999999999999999999MA1101021999999REMMET058METAR SBJP 270500Z 07003KT 9999 SCT018 SCT070 25/22 Q1010;
0143827980999992007112706004-07100-034867FM-15+0066SBJP V0200901N001012200019N0112651N1+02501+02201999999ADDGA1041+005401999GA2041+021001999GF104991999999999999999999MA1101021999999REMMET058METAR SBJP 270600Z 09002KT 9999 SCT018 SCT070 25/22 Q1010;
0120827980999992007112707004-07100-034867FM-15+0066SBJP V0209999C000012200019N0112651N1+02401+02201999999ADDGA1021+005401999GF102991999999999999999999MA1101021999999REMMET051METAR SBJP 270700Z 00000KT 9999 FEW018 24/22 Q1010;
0120827980999992007112708004-07100-034867FM-15+0066SBJP V0201101N001012200019N0112651N1+02401+02301999999ADDGA1021+006001999GF102991999999999999999999MA1101081999999REMMET051METAR SBJP 270800Z 11002KT 9999 FEW020 24/23 Q1011;
0120827980999992007112709004-07100-034867FM-15+0066SBJP V0201301N000512200019N0112651N1+02501+02301999999ADDGA1021+006001999GF102991999999999999999999MA1101081999999REMMET051METAR SBJP 270900Z 13001KT 9999 FEW020 25/23 Q1011;
0120827980999992007112710004-07100-034867FM-15+0066SBJP V0201101N002112200019N0112651N1+02601+02201999999ADDGA1021+006001999GF102991999999999999999999MA1101191999999REMMET051METAR SBJP 271000Z 11004KT 9999 FEW020 26/22 Q1012;
0120827980999992007112711004-07100-034867FM-15+0066SBJP V0201001N002112200019N0112651N1+02801+02201999999ADDGA1021+006001999GF102991999999999999999999MA1101191999999REMMET051METAR SBJP 271100Z 10004KT 9999 FEW020 28/22 Q1012;
0120827980999992007112712004-07100-034867FM-15+0066SBJP V0201001N002112200019N0112651N1+03001+02101999999ADDGA1041+006001999GF104991999999999999999999MA1101191999999REMMET051METAR SBJP 271200Z 10004KT 9999 SCT020 30/21 Q1012;
0120827980999992007112713004-07100-034867FM-15+0066SBJP V0201001N002112200019N0112651N1+03101+02201999999ADDGA1041+006001999GF104991999999999999999999MA1101191999999REMMET051METAR SBJP 271300Z 10004KT 9999 SCT020 31/22 Q1012;
0120827980999992007112714004-07100-034867FM-15+0066SBJP V0201001N003112200019N0112651N1+03001+02201999999ADDGA1041+006001999GF104991999999999999999999MA1101191999999REMMET051METAR SBJP 271400Z 10006KT 9999 SCT020 30/22 Q1012;
0120827980999992007112715004-07100-034867FM-15+0066SBJP V0201101N003112200019N0112651N1+03001+02201999999ADDGA1041+006001999GF104991999999999999999999MA1101081999999REMMET051METAR SBJP 271500Z 11006KT 9999 SCT020 30/22 Q1011;
0120827980999992007112716004-07100-034867FM-15+0066SBJP V0200601N003612200019N0112651N1+03001+02201999999ADDGA1041+009001999GF104991999999999999999999MA1101021999999REMMET051METAR SBJP 271600Z 06007KT 9999 SCT030 30/22 Q1010;
0120827980999992007112717004-07100-034867FM-15+0066SBJP V0200801N003112200019N0112651N1+03101+02201999999ADDGA1041+009001999GF104991999999999999999999MA1100911999999REMMET051METAR SBJP 271700Z 08006KT 9999 SCT030 31/22 Q1009;
0120827980999992007112718004-07100-034867FM-15+0066SBJP V0200801N003112200019N0112651N1+03001+02201999999ADDGA1041+009001999GF104991999999999999999999MA1100911999999REMMET051METAR SBJP 271800Z 08006KT 9999 SCT030 30/22 Q1009;
0120827980999992007112719004-07100-034867FM-15+0066SBJP V0201001N003612200019N0112651N1+02901+02201999999ADDGA1041+007501999GF104991999999999999999999MA1100911999999REMMET051METAR SBJP 271900Z 10007KT 9999 SCT025 29/22 Q1009;
0120827980999992007112720004-07100-034867FM-15+0066SBJP V0200901N003112200019N0112651N1+02801+02201999999ADDGA1041+007501999GF104991999999999999999999MA1100911999999REMMET051METAR SBJP 272000Z 09006KT 9999 SCT025 28/22 Q1009;
0120827980999992007112721004-07100-034867FM-15+0066SBJP V0201201N002112200019N0112651N1+02701+02201999999ADDGA1041+006001999GF104991999999999999999999MA1100911999999REMMET051METAR SBJP 272100Z 12004KT 9999 SCT020 27/22 Q1009;
0120827980999992007112722004-07100-034867FM-15+0066SBJP V0201201N002112200019N0112651N1+02601+02301999999ADDGA1041+006001999GF104991999999999999999999MA1101021999999REMMET051METAR SBJP 272200Z 12004KT 9999 SCT020 26/23 Q1010;
0120827980999992007112723004-07100-034867FM-15+0066SBJP V0201101N002112200019N0112651N1+02601+02301999999ADDGA1041+006001999GF104991999999999999999999MA1101081999999REMMET051METAR SBJP 272300Z 11004KT 9999 SCT020 26/23 Q1011;
0120827980999992007112800004-07100-034867FM-15+0066SBJP V0201301N001512200019N0112651N1+02601+02301999999ADDGA1041+006001999GF104991999999999999999999MA1101081999999REMMET051METAR SBJP 280000Z 13003KT 9999 SCT020 26/23 Q1011;
0120827980999992007112801004-07100-034867FM-15+0066SBJP V0201501N001512200019N0112651N1+02601+02301999999ADDGA1041+006001999GF104991999999999999999999MA1101081999999REMMET051METAR SBJP 280100Z 15003KT 9999 SCT020 26/23 Q1011;
0143827980999992007112802004-07100-034867FM-15+0066SBJP V0201301N001012200019N0112651N1+02601+02301999999ADDGA1021+006001999GA2041+021001999GF104991999999999999999999MA1101081999999REMMET058METAR SBJP 280200Z 13002KT 9999 FEW020 SCT070 26/23 Q1011;
0143827980999992007112803004-07100-034867FM-15+0066SBJP V0201301N001012200019N0112651N1+02501+02201999999ADDGA1021+006001999GA2041+021001999GF104991999999999999999999MA1101021999999REMMET058METAR SBJP 280300Z 13002KT 9999 FEW020 SCT070 25/22 Q1010;
0143827980999992007112804004-07100-034867FM-15+0066SBJP V0201301N001012200019N0112651N1+02501+02201999999ADDGA1021+006001999GA2041+021001999GF104991999999999999999999MA1101021999999REMMET058METAR SBJP 280400Z 13002KT 9999 FEW020 SCT070 25/22 Q1010;
0120827980999992007112805004-07100-034867FM-15+0066SBJP V0201101N001012200019N0112651N1+02501+02201999999ADDGA1021+006001999GF102991999999999999999999MA1100911999999REMMET051METAR SBJP 280500Z 11002KT 9999 FEW020 25/22 Q1009;
0120827980999992007112806004-07100-034867FM-15+0066SBJP V0209999C000012200019N0112651N1+02401+02201999999ADDGA1021+006001999GF102991999999999999999999MA1100911999999REMMET051METAR SBJP 280600Z 00000KT 9999 FEW020 24/22 Q1009;
0120827980999992007112807004-07100-034867FM-15+0066SBJP V0209999C000012200019N0112651N1+02401+02201999999ADDGA1021+006001999GF102991999999999999999999MA1100911999999REMMET051METAR SBJP 280700Z 00000KT 9999 FEW020 24/22 Q1009;
0120827980999992007112808004-07100-034867FM-15+0066SBJP V0209999C000012200019N0112651N1+02301+02201999999ADDGA1021+006001999GF102991999999999999999999MA1101021999999REMMET051METAR SBJP 280800Z 00000KT 9999 FEW020 23/22 Q1010;
0120827980999992007112809004-07100-034867FM-15+0066SBJP V0209999C000012200019N0112651N1+02401+02201999999ADDGA1021+006001999GF102991999999999999999999MA1101021999999REMMET051METAR SBJP 280900Z 00000KT 9999 FEW020 24/22 Q1010;
0120827980999992007112810004-07100-034867FM-15+0066SBJP V0209999C000010060019N0112651N1+02501+02301999999ADDGA1071+006001999GF107991999999999999999999MA1101081999999REMMET051METAR SBJP 281000Z 00000KT 9999 BKN020 25/23 Q1011;
0120827980999992007112811004-07100-034867FM-15+0066SBJP V0201101N002112200019N0112651N1+02901+02201999999ADDGA1041+006001999GF104991999999999999999999MA1101081999999REMMET051METAR SBJP 281100Z 11004KT 9999 SCT020 29/22 Q1011;
0120827980999992007112812004-07100-034867FM-15+0066SBJP V0201001N003612200019N0112651N1+02901+02201999999ADDGA1041+007501999GF104991999999999999999999MA1101081999999REMMET051METAR SBJP 281200Z 10007KT 9999 SCT025 29/22 Q1011;
0120827980999992007112813004-07100-034867FM-15+0066SBJP V0201001N004612200019N0112651N1+03001+02101999999ADDGA1041+009001999GF104991999999999999999999MA1101081999999REMMET051METAR SBJP 281300Z 10009KT 9999 SCT030 30/21 Q1011;
0120827980999992007112814004-07100-034867FM-15+0066SBJP V0200801N003612200019N0112651N1+03001+02201999999ADDGA1041+009001999GF104991999999999999999999MA1101081999999REMMET051METAR SBJP 281400Z 08007KT 9999 SCT030 30/22 Q1011;
0120827980999992007112815004-07100-034867FM-15+0066SBJP V0200901N003612200019N0112651N1+03001+02101999999ADDGA1041+009001999GF104991999999999999999999MA1101021999999REMMET051METAR SBJP 281500Z 09007KT 9999 SCT030 30/21 Q1010;
0120827980999992007112816004-07100-034867FM-15+0066SBJP V0201001N004610090019N0112651N1+03101+02201999999ADDGA1071+009001999GF107991999999999999999999MA1100911999999REMMET051METAR SBJP 281600Z 10009KT 9999 BKN030 31/22 Q1009;
0120827980999992007112817004-07100-034867FM-15+0066SBJP V0200701N004112200019N0112651N1+03001+02101999999ADDGA1041+009001999GF104991999999999999999999MA1100811999999REMMET051METAR SBJP 281700Z 07008KT 9999 SCT030 30/21 Q1008;
0120827980999992007112818004-07100-034867FM-15+0066SBJP V0201101N004112200019N0112651N1+02901+02201999999ADDGA1041+009001999GF104991999999999999999999MA1100811999999REMMET051METAR SBJP 281800Z 11008KT 9999 SCT030 29/22 Q1008;
0120827980999992007112819004-07100-034867FM-15+0066SBJP V0201201N003612200019N0112651N1+02901+02201999999ADDGA1041+009001999GF104991999999999999999999MA1100911999999REMMET051METAR SBJP 281900Z 12007KT 9999 SCT030 29/22 Q1009;
0120827980999992007112820004-07100-034867FM-15+0066SBJP V0201101N003112200019N0112651N1+02801+02101999999ADDGA1021+009001999GF102991999999999999999999MA1100911999999REMMET051METAR SBJP 282000Z 11006KT 9999 FEW030 28/21 Q1009;
0120827980999992007112821004-07100-034867FM-15+0066SBJP V0201201N002612200019N0112651N1+02701+02201999999ADDGA1021+007501999GF102991999999999999999999MA1101021999999REMMET051METAR SBJP 282100Z 12005KT 9999 FEW025 27/22 Q1010;
0072827980999992007112822004-07100-034867FM-15+0066SBJP V0201201N00261220001CN0099001N1+02701+02201999999ADDMA1101081999999REMMET045METAR SBJP 282200Z 12005KT CAVOK 27/22 Q1011;
0072827980999992007112823004-07100-034867FM-15+0066SBJP V0201101N00211220001CN0099001N1+02601+02201999999ADDMA1101081999999REMMET045METAR SBJP 282300Z 11004KT CAVOK 26/22 Q1011;
0072827980999992007112900004-07100-034867FM-15+0066SBJP V0201001N00211220001CN0099001N1+02601+02301999999ADDMA1101081999999REMMET045METAR SBJP 290000Z 10004KT CAVOK 26/23 Q1011;
0120827980999992007112901004-07100-034867FM-15+0066SBJP V0201001N002612200019N0112651N1+02601+02301999999ADDGA1021+006001999GF102991999999999999999999MA1101081999999REMMET051METAR SBJP 290100Z 10005KT 9999 FEW020 26/23 Q1011;
0120827980999992007112902004-07100-034867FM-15+0066SBJP V0201101N001512200019N0112651N1+02601+02301999999ADDGA1021+006001999GF102991999999999999999999MA1101081999999REMMET051METAR SBJP 290200Z 11003KT 9999 FEW020 26/23 Q1011;
0120827980999992007112903004-07100-034867FM-15+0066SBJP V0201001N001512200019N0112651N1+02501+02301999999ADDGA1021+006001999GF102991999999999999999999MA1101081999999REMMET051METAR SBJP 290300Z 10003KT 9999 FEW020 25/23 Q1011;
0120827980999992007112904004-07100-034867FM-15+0066SBJP V0201201N001012200019N0112651N1+02501+02301999999ADDGA1041+005401999GF104991999999999999999999MA1101021999999REMMET051METAR SBJP 290400Z 12002KT 9999 SCT018 25/23 Q1010;
0120827980999992007112905004-07100-034867FM-15+0066SBJP V0201201N001512200019N0112651N1+02501+02201999999ADDGA1041+005401999GF104991999999999999999999MA1100911999999REMMET051METAR SBJP 290500Z 12003KT 9999 SCT018 25/22 Q1009;
0120827980999992007112906004-07100-034867FM-15+0066SBJP V0201201N002112200019N0112651N1+02601+02301999999ADDGA1041+005401999GF104991999999999999999999MA1100911999999REMMET051METAR SBJP 290600Z 12004KT 9999 SCT018 26/23 Q1009;
0120827980999992007112907004-07100-034867FM-15+0066SBJP V0203201N001012200019N0112651N1+02401+02201999999ADDGA1041+005401999GF104991999999999999999999MA1101021999999REMMET051METAR SBJP 290700Z 32002KT 9999 SCT018 24/22 Q1010;
0120827980999992007112908004-07100-034867FM-15+0066SBJP V0202501N001012200019N0112651N1+02401+02201999999ADDGA1041+005401999GF104991999999999999999999MA1101021999999REMMET051METAR SBJP 290800Z 25002KT 9999 SCT018 24/22 Q1010;
0120827980999992007112909004-07100-034867FM-15+0066SBJP V0209999C000012200019N0112651N1+02501+02401999999ADDGA1041+006001999GF104991999999999999999999MA1101021999999REMMET051METAR SBJP 290900Z 00000KT 9999 SCT020 25/24 Q1010;
0120827980999992007112910004-07100-034867FM-15+0066SBJP V0201101N004112200019N0112651N1+02801+02201999999ADDGA1041+007501999GF104991999999999999999999MA1101081999999REMMET051METAR SBJP 291000Z 11008KT 9999 SCT025 28/22 Q1011;
0120827980999992007112911004-07100-034867FM-15+0066SBJP V0201001N004110075019N0112651N1+02901+02301999999ADDGA1071+007501999GF107991999999999999999999MA1101081999999REMMET051METAR SBJP 291100Z 10008KT 9999 BKN025 29/23 Q1011;
0120827980999992007112912004-07100-034867FM-15+0066SBJP V0201401N003110075019N0112651N1+02901+02201999999ADDGA1071+007501999GF107991999999999999999999MA1101081999999REMMET051METAR SBJP 291200Z 14006KT 9999 BKN025 29/22 Q1011;
0120827980999992007112913004-07100-034867FM-15+0066SBJP V0201201N003610075019N0112651N1+03001+02201999999ADDGA1071+007501999GF107991999999999999999999MA1101081999999REMMET051METAR SBJP 291300Z 12007KT 9999 BKN025 30/22 Q1011;
0120827980999992007112914004-07100-034867FM-15+0066SBJP V0201201N003110075019N0112651N1+03001+02101999999ADDGA1071+007501999GF107991999999999999999999MA1101081999999REMMET051METAR SBJP 291400Z 12006KT 9999 BKN025 30/21 Q1011;
0120827980999992007112915004-07100-034867FM-15+0066SBJP V0201101N004110090019N0112651N1+02901+02201999999ADDGA1071+009001999GF107991999999999999999999MA1101021999999REMMET051METAR SBJP 291500Z 11008KT 9999 BKN030 29/22 Q1010;
0120827980999992007112916004-07100-034867FM-15+0066SBJP V0201001N004612200019N0112651N1+03001+02101999999ADDGA1041+009001999GF104991999999999999999999MA1100911999999REMMET051METAR SBJP 291600Z 10009KT 9999 SCT030 30/21 Q1009;
0120827980999992007112917004-07100-034867FM-15+0066SBJP V0200801N004612200019N0112651N1+03001+02201999999ADDGA1041+009001999GF104991999999999999999999MA1100911999999REMMET051METAR SBJP 291700Z 08009KT 9999 SCT030 30/22 Q1009;
0120827980999992007112918004-07100-034867FM-15+0066SBJP V0200801N004112200019N0112651N1+02901+02201999999ADDGA1041+009001999GF104991999999999999999999MA1100811999999REMMET051METAR SBJP 291800Z 08008KT 9999 SCT030 29/22 Q1008;
0120827980999992007112919004-07100-034867FM-15+0066SBJP V0201001N003612200019N0112651N1+02901+02101999999ADDGA1041+009001999GF104991999999999999999999MA1100811999999REMMET051METAR SBJP 291900Z 10007KT 9999 SCT030 29/21 Q1008;
0120827980999992007112920004-07100-034867FM-15+0066SBJP V0201001N002612200019N0112651N1+02801+02201999999ADDGA1021+009001999GF102991999999999999999999MA1100911999999REMMET051METAR SBJP 292000Z 10005KT 9999 FEW030 28/22 Q1009;
0120827980999992007112921004-07100-034867FM-15+0066SBJP V0201001N003112200019N0112651N1+02701+02201999999ADDGA1041+007501999GF104991999999999999999999MA1101021999999REMMET051METAR SBJP 292100Z 10006KT 9999 SCT025 27/22 Q1010;
0120827980999992007112922004-07100-034867FM-15+0066SBJP V0201301N002612200019N0112651N1+02601+02201999999ADDGA1021+007501999GF102991999999999999999999MA1101081999999REMMET051METAR SBJP 292200Z 13005KT 9999 FEW025 26/22 Q1011;
0120827980999992007112923004-07100-034867FM-15+0066SBJP V0201301N001512200019N0112651N1+02601+02201999999ADDGA1021+006001999GF102991999999999999999999MA1101081999999REMMET051METAR SBJP 292300Z 13003KT 9999 FEW020 26/22 Q1011;
0120827980999992007113000004-07100-034867FM-15+0066SBJP V0201201N002112200019N0112651N1+02601+02201999999ADDGA1021+006001999GF102991999999999999999999MA1101191999999REMMET051METAR SBJP 300000Z 12004KT 9999 FEW020 26/22 Q1012;
0120827980999992007113001004-07100-034867FM-15+0066SBJP V0201201N002112200019N0112651N1+02601+02201999999ADDGA1021+006001999GF102991999999999999999999MA1101191999999REMMET051METAR SBJP 300100Z 12004KT 9999 FEW020 26/22 Q1012;
0120827980999992007113002004-07100-034867FM-15+0066SBJP V0201201N002112200019N0112651N1+02601+02201999999ADDGA1021+006001999GF102991999999999999999999MA1101081999999REMMET051METAR SBJP 300200Z 12004KT 9999 FEW020 26/22 Q1011;
0120827980999992007113003004-07100-034867FM-15+0066SBJP V0201301N002112200019N0112651N1+02601+02201999999ADDGA1021+006001999GF102991999999999999999999MA1101081999999REMMET051METAR SBJP 300300Z 13004KT 9999 FEW020 26/22 Q1011;
0120827980999992007113004004-07100-034867FM-15+0066SBJP V0201501N002112200019N0112651N1+02501+02201999999ADDGA1021+006001999GF102991999999999999999999MA1101021999999REMMET051METAR SBJP 300400Z 15004KT 9999 FEW020 25/22 Q1010;
0120827980999992007113005004-07100-034867FM-15+0066SBJP V0201301N001512200019N0112651N1+02501+02201999999ADDGA1021+006001999GF102991999999999999999999MA1101021999999REMMET051METAR SBJP 300500Z 13003KT 9999 FEW020 25/22 Q1010;
0120827980999992007113006004-07100-034867FM-15+0066SBJP V0201401N001512200019N0112651N1+02501+02201999999ADDGA1021+006001999GF102991999999999999999999MA1101081999999REMMET051METAR SBJP 300600Z 14003KT 9999 FEW020 25/22 Q1011;
0120827980999992007113007004-07100-034867FM-15+0066SBJP V0201401N001012200019N0112651N1+02401+02101999999ADDGA1021+006001999GF102991999999999999999999MA1101081999999REMMET051METAR SBJP 300700Z 14002KT 9999 FEW020 24/21 Q1011;
0120827980999992007113008004-07100-034867FM-15+0066SBJP V0201501N001012200019N0112651N1+02401+02201999999ADDGA1021+006001999GF102991999999999999999999MA1101081999999REMMET051METAR SBJP 300800Z 15002KT 9999 FEW020 24/22 Q1011;
0120827980999992007113009004-07100-034867FM-15+0066SBJP V0202101N000512200019N0112651N1+02501+02201999999ADDGA1021+006001999GF102991999999999999999999MA1101191999999REMMET051METAR SBJP 300900Z 21001KT 9999 FEW020 25/22 Q1012;
0120827980999992007113010004-07100-034867FM-15+0066SBJP V0201301N003112200019N0112651N1+02701+02201999999ADDGA1041+007501999GF104991999999999999999999MA1101191999999REMMET051METAR SBJP 301000Z 13006KT 9999 SCT025 27/22 Q1012;
0120827980999992007113011004-07100-034867FM-15+0066SBJP V0201301N005112200019N0112651N1+02901+02101999999ADDGA1041+007501999GF104991999999999999999999MA1101291999999REMMET051METAR SBJP 301100Z 13010KT 9999 SCT025 29/21 Q1013;
0120827980999992007113012004-07100-034867FM-15+0066SBJP V0201201N004612200019N0112651N1+03001+02101999999ADDGA1041+009001999GF104991999999999999999999MA1101191999999REMMET051METAR SBJP 301200Z 12009KT 9999 SCT030 30/21 Q1012;
0120827980999992007113013004-07100-034867FM-15+0066SBJP V0201301N003612200019N0112651N1+03101+02001999999ADDGA1041+009001999GF104991999999999999999999MA1101191999999REMMET051METAR SBJP 301300Z 13007KT 9999 SCT030 31/20 Q1012;
0120827980999992007113014004-07100-034867FM-15+0066SBJP V0201101N004112200019N0112651N1+03101+02001999999ADDGA1041+009001999GF104991999999999999999999MA1101191999999REMMET051METAR SBJP 301400Z 11008KT 9999 SCT030 31/20 Q1012;
0120827980999992007113015004-07100-034867FM-15+0066SBJP V0201301N004612200019N0112651N1+03101+02001999999ADDGA1041+009001999GF104991999999999999999999MA1101081999999REMMET051METAR SBJP 301500Z 13009KT 9999 SCT030 31/20 Q1011;
0120827980999992007113016004-07100-034867FM-15+0066SBJP V0201501N004612200019N0112651N1+03101+02001999999ADDGA1041+009001999GF104991999999999999999999MA1101021999999REMMET051METAR SBJP 301600Z 15009KT 9999 SCT030 31/20 Q1010;
0120827980999992007113017004-07100-034867FM-15+0066SBJP V0201201N003612200019N0112651N1+03001+02101999999ADDGA1041+009001999GF104991999999999999999999MA1101021999999REMMET051METAR SBJP 301700Z 12007KT 9999 SCT030 30/21 Q1010;
0120827980999992007113018004-07100-034867FM-15+0066SBJP V0201301N003612200019N0112651N1+03001+02001999999ADDGA1041+009001999GF104991999999999999999999MA1100911999999REMMET051METAR SBJP 301800Z 13007KT 9999 SCT030 30/20 Q1009;
0120827980999992007113019004-07100-034867FM-15+0066SBJP V0201501N004112200019N0112651N1+02901+02101999999ADDGA1021+009001999GF102991999999999999999999MA1100911999999REMMET051METAR SBJP 301900Z 15008KT 9999 FEW030 29/21 Q1009;
0120827980999992007113020004-07100-034867FM-15+0066SBJP V0201501N003612200019N0112651N1+02701+02101999999ADDGA1021+009001999GF102991999999999999999999MA1100911999999REMMET051METAR SBJP 302000Z 15007KT 9999 FEW030 27/21 Q1009;
0120827980999992007113021004-07100-034867FM-15+0066SBJP V0201401N003112200019N0112651N1+02601+02101999999ADDGA1021+007501999GF102991999999999999999999MA1101021999999REMMET051METAR SBJP 302100Z 14006KT 9999 FEW025 26/21 Q1010;
0120827980999992007113022004-07100-034867FM-15+0066SBJP V0201401N002112200019N0112651N1+02601+02101999999ADDGA1021+007501999GF102991999999999999999999MA1101021999999REMMET051METAR SBJP 302200Z 14004KT 9999 FEW025 26/21 Q1010;
0120827980999992007113023004-07100-034867FM-15+0066SBJP V0201401N002112200019N0112651N1+02601+02101999999ADDGA1021+007501999GF102991999999999999999999MA1101081999999REMMET051METAR SBJP 302300Z 14004KT 9999 FEW025 26/21 Q1011;
0072827980999992007120100004-07100-034867FM-15+0066SBJP V0201601N00211220001CN0099001N1+02501+02101999999ADDMA1101081999999REMMET045METAR SBJP 010000Z 16004KT CAVOK 25/21 Q1011;
0120827980999992007120101004-07100-034867FM-15+0066SBJP V0201801N001012200019N0112651N1+02501+02101999999ADDGA1021+007501999GF102991999999999999999999MA1101081999999REMMET051METAR SBJP 010100Z 18002KT 9999 FEW025 25/21 Q1011;
0120827980999992007120102004-07100-034867FM-15+0066SBJP V0201601N002112200019N0112651N1+02401+02101999999ADDGA1021+007501999GF102991999999999999999999MA1101081999999REMMET051METAR SBJP 010200Z 16004KT 9999 FEW025 24/21 Q1011;
0120827980999992007120103004-07100-034867FM-15+0066SBJP V0201501N002112200019N0112651N1+02401+02101999999ADDGA1021+007501999GF102991999999999999999999MA1101081999999REMMET051METAR SBJP 010300Z 15004KT 9999 FEW025 24/21 Q1011;
0120827980999992007120104004-07100-034867FM-15+0066SBJP V0202001N001512200019N0112651N1+02301+02001999999ADDGA1021+007501999GF102991999999999999999999MA1101081999999REMMET051METAR SBJP 010400Z 20003KT 9999 FEW025 23/20 Q1011;
0143827980999992007120105004-07100-034867FM-15+0066SBJP V0201601N001012200019N0112651N1+02301+02001999999ADDGA1021+006001999GA2041+021001999GF104991999999999999999999MA1101081999999REMMET058METAR SBJP 010500Z 16002KT 9999 FEW020 SCT070 23/20 Q1011;
0072827980999992007120106004-07100-034867FM-15+0066SBJP V0209999C00001220001CN0099001N1+02201+02001999999ADDMA1101081999999REMMET045METAR SBJP 010600Z 00000KT CAVOK 22/20 Q1011;
0072827980999992007120107004-07100-034867FM-15+0066SBJP V0201801N00101220001CN0099001N1+02201+02001999999ADDMA1101081999999REMMET045METAR SBJP 010700Z 18002KT CAVOK 22/20 Q1011;
0120827980999992007120108004-07100-034867FM-15+0066SBJP V0202101N001012200019N0112651N1+02201+02001999999ADDGA1041+006001999GF104991999999999999999999MA1101191999999REMMET051METAR SBJP 010800Z 21002KT 9999 SCT020 22/20 Q1012;
0120827980999992007120109004-07100-034867FM-15+0066SBJP V0209999C000012200019N0112651N1+02301+02101999999ADDGA1021+006001999GF102991999999999999999999MA1101191999999REMMET051METAR SBJP 010900Z 00000KT 9999 FEW020 23/21 Q1012;
0120827980999992007120110004-07100-034867FM-15+0066SBJP V0201401N003112200019N0112651N1+02601+02101999999ADDGA1041+007501999GF104991999999999999999999MA1101291999999REMMET051METAR SBJP 011000Z 14006KT 9999 SCT025 26/21 Q1013;
0120827980999992007120111004-07100-034867FM-15+0066SBJP V0201501N003612200019N0112651N1+03001+01901999999ADDGA1041+007501999GF104991999999999999999999MA1101291999999REMMET051METAR SBJP 011100Z 15007KT 9999 SCT025 30/19 Q1013;
0120827980999992007120112004-07100-034867FM-15+0066SBJP V0201201N003612200019N0112651N1+03001+01801999999ADDGA1041+009001999GF104991999999999999999999MA1101291999999REMMET051METAR SBJP 011200Z 12007KT 9999 SCT030 30/18 Q1013;
0120827980999992007120113004-07100-034867FM-15+0066SBJP V0201201N003612200019N0112651N1+03001+01801999999ADDGA1041+009001999GF104991999999999999999999MA1101291999999REMMET051METAR SBJP 011300Z 12007KT 9999 SCT030 30/18 Q1013;
0120827980999992007120114004-07100-034867FM-15+0066SBJP V0201601N003612200019N0112651N1+03101+01901999999ADDGA1041+009001999GF104991999999999999999999MA1101191999999REMMET051METAR SBJP 011400Z 16007KT 9999 SCT030 31/19 Q1012;
0120827980999992007120115004-07100-034867FM-15+0066SBJP V0201401N003612200019N0112651N1+03101+01801999999ADDGA1041+009001999GF104991999999999999999999MA1101081999999REMMET051METAR SBJP 011500Z 14007KT 9999 SCT030 31/18 Q1011;
0120827980999992007120116004-07100-034867FM-15+0066SBJP V0201501N003112200019N0112651N1+03101+01801999999ADDGA1041+009001999GF104991999999999999999999MA1101081999999REMMET051METAR SBJP 011600Z 15006KT 9999 SCT030 31/18 Q1011;
0120827980999992007120117004-07100-034867FM-15+0066SBJP V0201501N005112200019N0112651N1+03101+01801999999ADDGA1041+009001999GF104991999999999999999999MA1101081999999REMMET051METAR SBJP 011700Z 15010KT 9999 SCT030 31/18 Q1011;
0120827980999992007120118004-07100-034867FM-15+0066SBJP V0201301N003112200019N0112651N1+03001+01901999999ADDGA1041+009001999GF104991999999999999999999MA1101021999999REMMET051METAR SBJP 011800Z 13006KT 9999 SCT030 30/19 Q1010;
0120827980999992007120119004-07100-034867FM-15+0066SBJP V0201401N003112200019N0112651N1+02901+01801999999ADDGA1021+009001999GF102991999999999999999999MA1101021999999REMMET051METAR SBJP 011900Z 14006KT 9999 FEW030 29/18 Q1010;
0120827980999992007120120004-07100-034867FM-15+0066SBJP V0201401N003112200019N0112651N1+02701+01901999999ADDGA1021+009001999GF102991999999999999999999MA1101081999999REMMET051METAR SBJP 012000Z 14006KT 9999 FEW030 27/19 Q1011;
0120827980999992007120121004-07100-034867FM-15+0066SBJP V0201501N002112200019N0112651N1+02601+02001999999ADDGA1021+009001999GF102991999999999999999999MA1101191999999REMMET051METAR SBJP 012100Z 15004KT 9999 FEW030 26/20 Q1012;
0120827980999992007120122004-07100-034867FM-15+0066SBJP V0201601N002112200019N0112651N1+02601+02001999999ADDGA1021+009001999GF102991999999999999999999MA1101191999999REMMET051METAR SBJP 012200Z 16004KT 9999 FEW030 26/20 Q1012;
0120827980999992007120123004-07100-034867FM-15+0066SBJP V0201501N002112200019N0112651N1+02501+02001999999ADDGA1021+007501999GF102991999999999999999999MA1101291999999REMMET051METAR SBJP 012300Z 15004KT 9999 FEW025 25/20 Q1013;
0120827980999992007120200004-07100-034867FM-15+0066SBJP V0201401N002112200019N0112651N1+02501+02101999999ADDGA1021+006001999GF102991999999999999999999MA1101291999999REMMET051METAR SBJP 020000Z 14004KT 9999 FEW020 25/21 Q1013;
0120827980999992007120201004-07100-034867FM-15+0066SBJP V0201401N002112200019N0112651N1+02501+02101999999ADDGA1021+006001999GF102991999999999999999999MA1101291999999REMMET051METAR SBJP 020100Z 14004KT 9999 FEW020 25/21 Q1013;
0120827980999992007120202004-07100-034867FM-15+0066SBJP V0201401N002112200019N0112651N1+02601+02101999999ADDGA1021+006001999GF102991999999999999999999MA1101291999999REMMET051METAR SBJP 020200Z 14004KT 9999 FEW020 26/21 Q1013;
0120827980999992007120203004-07100-034867FM-15+0066SBJP V0201501N001512200019N0112651N1+02401+02101999999ADDGA1021+006001999GF102991999999999999999999MA1101291999999REMMET051METAR SBJP 020300Z 15003KT 9999 FEW020 24/21 Q1013;
0120827980999992007120204004-07100-034867FM-15+0066SBJP V0202001N001512200019N0112651N1+02401+02101999999ADDGA1021+006001999GF102991999999999999999999MA1101191999999REMMET051METAR SBJP 020400Z 20003KT 9999 FEW020 24/21 Q1012;
0120827980999992007120205004-07100-034867FM-15+0066SBJP V0202001N001512200019N0112651N1+02301+02101999999ADDGA1021+006001999GF102991999999999999999999MA1101191999999REMMET051METAR SBJP 020500Z 20003KT 9999 FEW020 23/21 Q1012;
0120827980999992007120206004-07100-034867FM-15+0066SBJP V0202201N001512200019N0112651N1+02201+02001999999ADDGA1021+006001999GF102991999999999999999999MA1101191999999REMMET051METAR SBJP 020600Z 22003KT 9999 FEW020 22/20 Q1012;
0120827980999992007120207004-07100-034867FM-15+0066SBJP V0202401N001512200019N0112651N1+02201+02001999999ADDGA1021+006001999GF102991999999999999999999MA1101191999999REMMET051METAR SBJP 020700Z 24003KT 9999 FEW020 22/20 Q1012;
0120827980999992007120208004-07100-034867FM-15+0066SBJP V0202501N001512200019N0112651N1+02201+02101999999ADDGA1021+006001999GF102991999999999999999999MA1101191999999REMMET051METAR SBJP 020800Z 25003KT 9999 FEW020 22/21 Q1012;
0120827980999992007120209004-07100-034867FM-15+0066SBJP V0202301N001512200019N0112651N1+02401+02101999999ADDGA1021+006001999GF102991999999999999999999MA1101291999999REMMET051METAR SBJP 020900Z 23003KT 9999 FEW020 24/21 Q1013;
0120827980999992007120210004-07100-034867FM-15+0066SBJP V0201401N003112200019N0112651N1+02701+02201999999ADDGA1021+006001999GF102991999999999999999999MA1101391999999REMMET051METAR SBJP 021000Z 14006KT 9999 FEW020 27/22 Q1014;
0120827980999992007120211004-07100-034867FM-15+0066SBJP V0201501N003112200019N0112651N1+02901+02101999999ADDGA1021+006001999GF102991999999999999999999MA1101391999999REMMET051METAR SBJP 021100Z 15006KT 9999 FEW020 29/21 Q1014;
0120827980999992007120212004-07100-034867FM-15+0066SBJP V0201501N004112200019N0112651N1+02901+02001999999ADDGA1041+009001999GF104991999999999999999999MA1101391999999REMMET051METAR SBJP 021200Z 15008KT 9999 SCT030 29/20 Q1014;
0120827980999992007120213004-07100-034867FM-15+0066SBJP V0201401N004112200019N0112651N1+03001+02001999999ADDGA1041+009001999GF104991999999999999999999MA1101291999999REMMET051METAR SBJP 021300Z 14008KT 9999 SCT030 30/20 Q1013;
0120827980999992007120214004-07100-034867FM-15+0066SBJP V0201401N004112200019N0112651N1+03101+02101999999ADDGA1041+009001999GF104991999999999999999999MA1101291999999REMMET051METAR SBJP 021400Z 14008KT 9999 SCT030 31/21 Q1013;
0120827980999992007120215004-07100-034867FM-15+0066SBJP V0201401N004112200019N0112651N1+03101+02101999999ADDGA1041+009001999GF104991999999999999999999MA1101291999999REMMET051METAR SBJP 021500Z 14008KT 9999 SCT030 31/21 Q1013;
0120827980999992007120216004-07100-034867FM-15+0066SBJP V0201501N005112200019N0112651N1+03001+02001999999ADDGA1041+009001999GF104991999999999999999999MA1101191999999REMMET051METAR SBJP 021600Z 15010KT 9999 SCT030 30/20 Q1012;
0120827980999992007120217004-07100-034867FM-15+0066SBJP V0201401N004612200019N0112651N1+02901+02101999999ADDGA1041+009001999GF104991999999999999999999MA1101191999999REMMET051METAR SBJP 021700Z 14009KT 9999 SCT030 29/21 Q1012;
0120827980999992007120218004-07100-034867FM-15+0066SBJP V0201501N005112200019N0112651N1+03001+02101999999ADDGA1041+009001999GF104991999999999999999999MA1101081999999REMMET051METAR SBJP 021800Z 15010KT 9999 SCT030 30/21 Q1011;
0120827980999992007120219004-07100-034867FM-15+0066SBJP V0201601N004612200019N0112651N1+02901+02001999999ADDGA1041+009001999GF104991999999999999999999MA1101191999999REMMET051METAR SBJP 021900Z 16009KT 9999 SCT030 29/20 Q1012;
0120827980999992007120220004-07100-034867FM-15+0066SBJP V0201501N004112200019N0112651N1+02701+02101999999ADDGA1021+009001999GF102991999999999999999999MA1101191999999REMMET051METAR SBJP 022000Z 15008KT 9999 FEW030 27/21 Q1012;
0072827980999992007120221004-07100-034867FM-15+0066SBJP V0201501N00311220001CN0099001N1+02601+02101999999ADDMA1101191999999REMMET045METAR SBJP 022100Z 15006KT CAVOK 26/21 Q1012;
0072827980999992007120222004-07100-034867FM-15+0066SBJP V0201601N00311220001CN0099001N1+02601+02101999999ADDMA1101291999999REMMET045METAR SBJP 022200Z 16006KT CAVOK 26/21 Q1013;
0072827980999992007120223004-07100-034867FM-15+0066SBJP V0201601N00261220001CN0099001N1+02501+02101999999ADDMA1101291999999REMMET045METAR SBJP 022300Z 16005KT CAVOK 25/21 Q1013;
0072827980999992007120300004-07100-034867FM-15+0066SBJP V0201801N00151220001CN0099001N1+02501+02201999999ADDMA1101391999999REMMET045METAR SBJP 030000Z 18003KT CAVOK 25/22 Q1014;
0120827980999992007120301004-07100-034867FM-15+0066SBJP V0202001N001512200019N0112651N1+02501+02201999999ADDGA1021+006001999GF102991999999999999999999MA1101291999999REMMET051METAR SBJP 030100Z 20003KT 9999 FEW020 25/22 Q1013;
0120827980999992007120302004-07100-034867FM-15+0066SBJP V0202001N000512200019N0112651N1+02401+02101999999ADDGA1021+006001999GF102991999999999999999999MA1101291999999REMMET051METAR SBJP 030200Z 20001KT 9999 FEW020 24/21 Q1013;
0120827980999992007120303004-07100-034867FM-15+0066SBJP V0201901N001512200019N0112651N1+02401+02101999999ADDGA1021+006001999GF102991999999999999999999MA1101191999999REMMET051METAR SBJP 030300Z 19003KT 9999 FEW020 24/21 Q1012;
0072827980999992007120304004-07100-034867FM-15+0066SBJP V0202201N00211220001CN0099001N1+02401+02201999999ADDMA1101081999999REMMET045METAR SBJP 030400Z 22004KT CAVOK 24/22 Q1011;
0072827980999992007120305004-07100-034867FM-15+0066SBJP V0202201N00101220001CN0099001N1+02401+02201999999ADDMA1101081999999REMMET045METAR SBJP 030500Z 22002KT CAVOK 24/22 Q1011;
0072827980999992007120306004-07100-034867FM-15+0066SBJP V0203001N00101220001CN0099001N1+02301+02101999999ADDMA1101191999999REMMET045METAR SBJP 030600Z 30002KT CAVOK 23/21 Q1012;
0072827980999992007120307004-07100-034867FM-15+0066SBJP V0209999C00001220001CN0099001N1+02301+02101999999ADDMA1101191999999REMMET045METAR SBJP 030700Z 00000KT CAVOK 23/21 Q1012;
0120827980999992007120308004-07100-034867FM-15+0066SBJP V0209999C000012200019N0112651N1+02201+02101999999ADDGA1021+006001999GF102991999999999999999999MA1101191999999REMMET051METAR SBJP 030800Z 00000KT 9999 FEW020 22/21 Q1012;
0120827980999992007120309004-07100-034867FM-15+0066SBJP V0209999C000012200019N0112651N1+02301+02101999999ADDGA1021+009001999GF102991999999999999999999MA1101191999999REMMET051METAR SBJP 030900Z 00000KT 9999 FEW030 23/21 Q1012;
0120827980999992007120310004-07100-034867FM-15+0066SBJP V0202001N002110060019N0112651N1+02601+02201999999ADDGA1071+006001999GF107991999999999999999999MA1101291999999REMMET051METAR SBJP 031000Z 20004KT 9999 BKN020 26/22 Q1013;
0120827980999992007120311004-07100-034867FM-15+0066SBJP V0201501N004110075019N0112651N1+02901+02101999999ADDGA1071+007501999GF107991999999999999999999MA1101291999999REMMET051METAR SBJP 031100Z 15008KT 9999 BKN025 29/21 Q1013;
0120827980999992007120312004-07100-034867FM-15+0066SBJP V0201701N003110075019N0112651N1+02901+02001999999ADDGA1071+007501999GF107991999999999999999999MA1101391999999REMMET051METAR SBJP 031200Z 17006KT 9999 BKN025 29/20 Q1014;
0120827980999992007120313004-07100-034867FM-15+0066SBJP V0201301N002612200019N0112651N1+03101+02001999999ADDGA1041+009001999GF104991999999999999999999MA1101291999999REMMET051METAR SBJP 031300Z 13005KT 9999 SCT030 31/20 Q1013;
0120827980999992007120314004-07100-034867FM-15+0066SBJP V0201401N003112200019N0112651N1+03001+02101999999ADDGA1041+009001999GF104991999999999999999999MA1101291999999REMMET051METAR SBJP 031400Z 14006KT 9999 SCT030 30/21 Q1013;
0120827980999992007120315004-07100-034867FM-15+0066SBJP V0201201N004112200019N0112651N1+03001+02101999999ADDGA1041+009001999GF104991999999999999999999MA1101191999999REMMET051METAR SBJP 031500Z 12008KT 9999 SCT030 30/21 Q1012;
0120827980999992007120316004-07100-034867FM-15+0066SBJP V0201401N004612200019N0112651N1+03001+02101999999ADDGA1041+009001999GF104991999999999999999999MA1101081999999REMMET051METAR SBJP 031600Z 14009KT 9999 SCT030 30/21 Q1011;
0120827980999992007120317004-07100-034867FM-15+0066SBJP V0201601N004612200019N0112651N1+02901+02001999999ADDGA1041+009001999GF104991999999999999999999MA1101081999999REMMET051METAR SBJP 031700Z 16009KT 9999 SCT030 29/20 Q1011;
0120827980999992007120318004-07100-034867FM-15+0066SBJP V0201401N004612200019N0112651N1+03001+02001999999ADDGA1041+009001999GF104991999999999999999999MA1101021999999REMMET051METAR SBJP 031800Z 14009KT 9999 SCT030 30/20 Q1010;
0120827980999992007120319004-07100-034867FM-15+0066SBJP V0201401N003612200019N0112651N1+02901+02001999999ADDGA1041+009001999GF104991999999999999999999MA1101081999999REMMET051METAR SBJP 031900Z 14007KT 9999 SCT030 29/20 Q1011;
0120827980999992007120320004-07100-034867FM-15+0066SBJP V0201501N004112200019N0112651N1+02701+02101999999ADDGA1021+009001999GF102991999999999999999999MA1101081999999REMMET051METAR SBJP 032000Z 15008KT 9999 FEW030 27/21 Q1011;
0120827980999992007120321004-07100-034867FM-15+0066SBJP V0201501N003112200019N0112651N1+02701+02101999999ADDGA1021+009001999GF102991999999999999999999MA1101191999999REMMET051METAR SBJP 032100Z 15006KT 9999 FEW030 27/21 Q1012;
0072827980999992007120322004-07100-034867FM-15+0066SBJP V0201201N00261220001CN0099001N1+02601+02101999999ADDMA1101191999999REMMET045METAR SBJP 032200Z 12005KT CAVOK 26/21 Q1012;
0072827980999992007120323004-07100-034867FM-15+0066SBJP V0201301N00261220001CN0099001N1+02501+02101999999ADDMA1101291999999REMMET045METAR SBJP 032300Z 13005KT CAVOK 25/21 Q1013;
0072827980999992007120400004-07100-034867FM-15+0066SBJP V0201401N00211220001CN0099001N1+02501+02101999999ADDMA1101291999999REMMET045METAR SBJP 040000Z 14004KT CAVOK 25/21 Q1013;
0072827980999992007120401004-07100-034867FM-15+0066SBJP V0201301N00211220001CN0099001N1+02501+02101999999ADDMA1101291999999REMMET045METAR SBJP 040100Z 13004KT CAVOK 25/21 Q1013;
0120827980999992007120402004-07100-034867FM-15+0066SBJP V0201201N001512200019N0112651N1+02401+02101999999ADDGA1021+006001999GF102991999999999999999999MA1101291999999REMMET051METAR SBJP 040200Z 12003KT 9999 FEW020 24/21 Q1013;
0072827980999992007120403004-07100-034867FM-15+0066SBJP V0201601N00101220001CN0099001N1+02401+02101999999ADDMA1101191999999REMMET045METAR SBJP 040300Z 16002KT CAVOK 24/21 Q1012;
0120827980999992007120404004-07100-034867FM-15+0066SBJP V0202201N001012200019N0112651N1+02301+02001999999ADDGA1021+006001999GF102991999999999999999999MA1101081999999REMMET051METAR SBJP 040400Z 22002KT 9999 FEW020 23/20 Q1011;
0120827980999992007120405004-07100-034867FM-15+0066SBJP V0202301N001512200019N0112651N1+02301+02101999999ADDGA1021+006001999GF102991999999999999999999MA1101081999999REMMET051METAR SBJP 040500Z 23003KT 9999 FEW020 23/21 Q1011;
0120827980999992007120406004-07100-034867FM-15+0066SBJP V0209999C000012200019N0112651N1+02301+02101999999ADDGA1021+006001999GF102991999999999999999999MA1101081999999REMMET051METAR SBJP 040600Z 00000KT 9999 FEW020 23/21 Q1011;
0120827980999992007120407004-07100-034867FM-15+0066SBJP V0209999C000012200019N0112651N1+02201+02001999999ADDGA1021+006001999GF102991999999999999999999MA1101081999999REMMET051METAR SBJP 040700Z 00000KT 9999 FEW020 22/20 Q1011;
0120827980999992007120408004-07100-034867FM-15+0066SBJP V0209999C000012200019N0112651N1+02201+02001999999ADDGA1021+006001999GF102991999999999999999999MA1101081999999REMMET051METAR SBJP 040800Z 00000KT 9999 FEW020 22/20 Q1011;
0120827980999992007120409004-07100-034867FM-15+0066SBJP V0209999C000012200019N0112651N1+02201+02001999999ADDGA1021+006001999GF102991999999999999999999MA1101081999999REMMET051METAR SBJP 040900Z 00000KT 9999 FEW020 22/20 Q1011;
0120827980999992007120410004-07100-034867FM-15+0066SBJP V0201801N001512200019N0112651N1+02701+02201999999ADDGA1021+006001999GF102991999999999999999999MA1101291999999REMMET051METAR SBJP 041000Z 18003KT 9999 FEW020 27/22 Q1013;
0120827980999992007120411004-07100-034867FM-15+0066SBJP V0201701N002612200019N0112651N1+02801+02201999999ADDGA1041+007501999GF104991999999999999999999MA1101291999999REMMET051METAR SBJP 041100Z 17005KT 9999 SCT025 28/22 Q1013;
0120827980999992007120412004-07100-034867FM-15+0066SBJP V0201601N002110075019N0112651N1+03001+02101999999ADDGA1071+007501999GF107991999999999999999999MA1101291999999REMMET051METAR SBJP 041200Z 16004KT 9999 BKN025 30/21 Q1013;
0120827980999992007120413004-07100-034867FM-15+0066SBJP V0201501N003110090019N0112651N1+03101+02201999999ADDGA1071+009001999GF107991999999999999999999MA1101291999999REMMET051METAR SBJP 041300Z 15006KT 9999 BKN030 31/22 Q1013;
0120827980999992007120414004-07100-034867FM-15+0066SBJP V0201501N003610090019N0112651N1+03101+02101999999ADDGA1071+009001999GF107991999999999999999999MA1101191999999REMMET051METAR SBJP 041400Z 15007KT 9999 BKN030 31/21 Q1012;
0120827980999992007120415004-07100-034867FM-15+0066SBJP V0201301N003612200019N0112651N1+03101+02101999999ADDGA1041+009001999GF104991999999999999999999MA1101191999999REMMET051METAR SBJP 041500Z 13007KT 9999 SCT030 31/21 Q1012;
0120827980999992007120416004-07100-034867FM-15+0066SBJP V0201101N003612200019N0112651N1+03101+02101999999ADDGA1041+009001999GF104991999999999999999999MA1101081999999REMMET051METAR SBJP 041600Z 11007KT 9999 SCT030 31/21 Q1011;
0120827980999992007120417004-07100-034867FM-15+0066SBJP V0201201N003612200019N0112651N1+03101+02101999999ADDGA1041+009001999GF104991999999999999999999MA1101021999999REMMET051METAR SBJP 041700Z 12007KT 9999 SCT030 31/21 Q1010;
0120827980999992007120418004-07100-034867FM-15+0066SBJP V0201001N003612200019N0112651N1+03001+02101999999ADDGA1041+009001999GF104991999999999999999999MA1101021999999REMMET051METAR SBJP 041800Z 10007KT 9999 SCT030 30/21 Q1010;
0120827980999992007120419004-07100-034867FM-15+0066SBJP V0201201N004112200019N0112651N1+02901+02201999999ADDGA1041+009001999GF104991999999999999999999MA1101021999999REMMET051METAR SBJP 041900Z 12008KT 9999 SCT030 29/22 Q1010;
0072827980999992007120420004-07100-034867FM-15+0066SBJP V0201101N00361220001CN0099001N1+02801+02201999999ADDMA1101081999999REMMET045METAR SBJP 042000Z 11007KT CAVOK 28/22 Q1011;
0072827980999992007120421004-07100-034867FM-15+0066SBJP V0201201N00361220001CN0099001N1+02701+02201999999ADDMA1101081999999REMMET045METAR SBJP 042100Z 12007KT CAVOK 27/22 Q1011;
0072827980999992007120422004-07100-034867FM-15+0066SBJP V0201401N00261220001CN0099001N1+02701+02301999999ADDMA1101191999999REMMET045METAR SBJP 042200Z 14005KT CAVOK 27/23 Q1012;
0143827980999992007120423004-07100-034867FM-15+0066SBJP V0201401N003110900019N0112651N1+02701+02301999999ADDGA1021+006001999GA2071+090001999GF107991999999999999999999MA1101191999999REMMET058METAR SBJP 042300Z 14006KT 9999 FEW020 BKN300 27/23 Q1012;
0143827980999992007120500004-07100-034867FM-15+0066SBJP V0201201N003612200019N0112651N1+02601+02301999999ADDGA1021+006001999GA2041+090001999GF104991999999999999999999MA1101191999999REMMET058METAR SBJP 050000Z 12007KT 9999 FEW020 SCT300 26/23 Q1012;
0120827980999992007120501004-07100-034867FM-15+0066SBJP V0201301N003612200019N0112651N1+02601+02301999999ADDGA1021+006001999GF102991999999999999999999MA1101191999999REMMET051METAR SBJP 050100Z 13007KT 9999 FEW020 26/23 Q1012;
0120827980999992007120502004-07100-034867FM-15+0066SBJP V0201301N003612200019N0112651N1+02601+02301999999ADDGA1021+006001999GF102991999999999999999999MA1101191999999REMMET051METAR SBJP 050200Z 13007KT 9999 FEW020 26/23 Q1012;
0120827980999992007120503004-07100-034867FM-15+0066SBJP V0201301N002612200019N0112651N1+02601+02301999999ADDGA1041+006001999GF104991999999999999999999MA1101081999999REMMET051METAR SBJP 050300Z 13005KT 9999 SCT020 26/23 Q1011;
0120827980999992007120504004-07100-034867FM-15+0066SBJP V0201501N002112200019N0112651N1+02601+02301999999ADDGA1021+006001999GF102991999999999999999999MA1101081999999REMMET051METAR SBJP 050400Z 15004KT 9999 FEW020 26/23 Q1011;
0120827980999992007120505004-07100-034867FM-15+0066SBJP V0201801N001012200019N0112651N1+02601+02301999999ADDGA1021+006001999GF102991999999999999999999MA1101081999999REMMET051METAR SBJP 050500Z 18002KT 9999 FEW020 26/23 Q1011;
0120827980999992007120506004-07100-034867FM-15+0066SBJP V0201801N001012200019N0112651N1+02501+02301999999ADDGA1041+006001999GF104991999999999999999999MA1101081999999REMMET051METAR SBJP 050600Z 18002KT 9999 SCT020 25/23 Q1011;
0120827980999992007120507004-07100-034867FM-15+0066SBJP V0201301N001512200019N0112651N1+02601+02301999999ADDGA1041+006001999GF104991999999999999999999MA1101081999999REMMET051METAR SBJP 050700Z 13003KT 9999 SCT020 26/23 Q1011;
0120827980999992007120508004-07100-034867FM-15+0066SBJP V0201501N001012200019N0112651N1+02601+02301999999ADDGA1041+006001999GF104991999999999999999999MA1101191999999REMMET051METAR SBJP 050800Z 15002KT 9999 SCT020 26/23 Q1012;
0120827980999992007120509004-07100-034867FM-15+0066SBJP V0201401N001512200019N0112651N1+02601+02301999999ADDGA1041+006001999GF104991999999999999999999MA1101291999999REMMET051METAR SBJP 050900Z 14003KT 9999 SCT020 26/23 Q1013;
0120827980999992007120510004-07100-034867FM-15+0066SBJP V0201101N002610048019N0112651N1+02801+02301999999ADDGA1071+004801999GF107991999999999999999999MA1101391999999REMMET051METAR SBJP 051000Z 11005KT 9999 BKN016 28/23 Q1014;
0120827980999992007120511004-07100-034867FM-15+0066SBJP V0200901N003110060019N0112651N1+03001+02301999999ADDGA1071+006001999GF107991999999999999999999MA1101391999999REMMET051METAR SBJP 051100Z 09006KT 9999 BKN020 30/23 Q1014;
0120827980999992007120512004-07100-034867FM-15+0066SBJP V0201001N003110075019N0112651N1+03001+02201999999ADDGA1071+007501999GF107991999999999999999999MA1101391999999REMMET051METAR SBJP 051200Z 10006KT 9999 BKN025 30/22 Q1014;
0120827980999992007120513004-07100-034867FM-15+0066SBJP V0201101N003610075019N0112651N1+03001+02301999999ADDGA1071+007501999GF107991999999999999999999MA1101391999999REMMET051METAR SBJP 051300Z 11007KT 9999 BKN025 30/23 Q1014;
0120827980999992007120514004-07100-034867FM-15+0066SBJP V0200901N003610090019N0112651N1+03101+02201999999ADDGA1071+009001999GF107991999999999999999999MA1101391999999REMMET051METAR SBJP 051400Z 09007KT 9999 BKN030 31/22 Q1014;
0143827980999992007120515004-07100-034867FM-15+0066SBJP V0200901N003610900019N0112651N1+03101+02201999999ADDGA1041+009001999GA2071+090001999GF107991999999999999999999MA1101291999999REMMET058METAR SBJP 051500Z 09007KT 9999 SCT030 BKN300 31/22 Q1013;
0143827980999992007120516004-07100-034867FM-15+0066SBJP V0201101N004110900019N0112651N1+03101+02201999999ADDGA1021+009001999GA2071+090001999GF107991999999999999999999MA1101191999999REMMET058METAR SBJP 051600Z 11008KT 9999 FEW030 BKN300 31/22 Q1012;
0143827980999992007120517004-07100-034867FM-15+0066SBJP V0201001N003610900019N0112651N1+03001+02101999999ADDGA1021+009001999GA2071+090001999GF107991999999999999999999MA1101191999999REMMET058METAR SBJP 051700Z 10007KT 9999 FEW030 BKN300 30/21 Q1012;
0143827980999992007120518004-07100-034867FM-15+0066SBJP V0201401N003610900019N0112651N1+03001+02201999999ADDGA1041+009001999GA2071+090001999GF107991999999999999999999MA1101081999999REMMET058METAR SBJP 051800Z 14007KT 9999 SCT030 BKN300 30/22 Q1011;
0143827980999992007120519004-07100-034867FM-15+0066SBJP V0201301N004110900019N0112651N1+02901+02201999999ADDGA1021+009001999GA2071+090001999GF107991999999999999999999MA1101081999999REMMET058METAR SBJP 051900Z 13008KT 9999 FEW030 BKN300 29/22 Q1011;
0143827980999992007120520004-07100-034867FM-15+0066SBJP V0201301N003612200019N0112651N1+02801+02301999999ADDGA1021+009001999GA2041+090001999GF104991999999999999999999MA1101081999999REMMET058METAR SBJP 052000Z 13007KT 9999 FEW030 SCT300 28/23 Q1011;
0143827980999992007120521004-07100-034867FM-15+0066SBJP V0201401N003612200019N0112651N1+02701+02301999999ADDGA1021+007501999GA2041+090001999GF104991999999999999999999MA1101191999999REMMET058METAR SBJP 052100Z 14007KT 9999 FEW025 SCT300 27/23 Q1012;
0143827980999992007120522004-07100-034867FM-15+0066SBJP V0201401N003112200019N0112651N1+02701+02301999999ADDGA1021+007501999GA2041+090001999GF104991999999999999999999MA1101291999999REMMET058METAR SBJP 052200Z 14006KT 9999 FEW025 SCT300 27/23 Q1013;
0072827980999992007120523004-07100-034867FM-15+0066SBJP V0201301N00311220001CN0099001N1+02701+02301999999ADDMA1101291999999REMMET045METAR SBJP 052300Z 13006KT CAVOK 27/23 Q1013;
0072827980999992007120600004-07100-034867FM-15+0066SBJP V0201301N00211220001CN0099001N1+02701+02301999999ADDMA1101391999999REMMET045METAR SBJP 060000Z 13004KT CAVOK 27/23 Q1014;
0072827980999992007120601004-07100-034867FM-15+0066SBJP V0201301N00211220001CN0099001N1+02601+02301999999ADDMA1101391999999REMMET045METAR SBJP 060100Z 13004KT CAVOK 26/23 Q1014;
0072827980999992007120602004-07100-034867FM-15+0066SBJP V0201101N00101220001CN0099001N1+02601+02201999999ADDMA1101291999999REMMET045METAR SBJP 060200Z 11002KT CAVOK 26/22 Q1013;
0072827980999992007120603004-07100-034867FM-15+0066SBJP V0201301N00101220001CN0099001N1+02601+02201999999ADDMA1101291999999REMMET045METAR SBJP 060300Z 13002KT CAVOK 26/22 Q1013;
0120827980999992007120604004-07100-034867FM-15+0066SBJP V0201701N001512200019N0112651N1+02501+02201999999ADDGA1021+006001999GF102991999999999999999999MA1101291999999REMMET051METAR SBJP 060400Z 17003KT 9999 FEW020 25/22 Q1013;
0120827980999992007120605004-07100-034867FM-15+0066SBJP V0202101N001012200019N0112651N1+02401+02201999999ADDGA1041+006001999GF104991999999999999999999MA1101191999999REMMET051METAR SBJP 060500Z 21002KT 9999 SCT020 24/22 Q1012;
0143827980999992007120606004-07100-034867FM-15+0066SBJP V0202301N001010210019N0112651N1+02401+02301999999ADDGA1041+004801999GA2071+021001999GF107991999999999999999999MA1101191999999REMMET058METAR SBJP 060600Z 23002KT 9999 SCT016 BKN070 24/23 Q1012;
0143827980999992007120607004-07100-034867FM-15+0066SBJP V0209999C000012200019N0112651N1+02401+02201999999ADDGA1021+004801999GA2041+021001999GF104991999999999999999999MA1101191999999REMMET058METAR SBJP 060700Z 00000KT 9999 FEW016 SCT070 24/22 Q1012;
0143827980999992007120608004-07100-034867FM-15+0066SBJP V0209999C000012200019N0112651N1+02401+02301999999ADDGA1041+004801999GA2041+090001999GF104991999999999999999999MA1101291999999REMMET058METAR SBJP 060800Z 00000KT 9999 SCT016 SCT300 24/23 Q1013;
0143827980999992007120609004-07100-034867FM-15+0066SBJP V0209999C000010900019N0112651N1+02501+02301999999ADDGA1021+004801999GA2071+090001999GF107991999999999999999999MA1101391999999REMMET058METAR SBJP 060900Z 00000KT 9999 FEW016 BKN300 25/23 Q1014;
0143827980999992007120610004-07100-034867FM-15+0066SBJP V0201501N002610900019N0112651N1+02801+02301999999ADDGA1041+006001999GA2071+090001999GF107991999999999999999999MA1101391999999REMMET058METAR SBJP 061000Z 15005KT 9999 SCT020 BKN300 28/23 Q1014;
0143827980999992007120611004-07100-034867FM-15+0066SBJP V0201301N002610900019N0112651N1+02801+02201999999ADDGA1041+007501999GA2071+090001999GF107991999999999999999999MA1101491999999REMMET058METAR SBJP 061100Z 13005KT 9999 SCT025 BKN300 28/22 Q1015;
0143827980999992007120612004-07100-034867FM-15+0066SBJP V0201001N003112200019N0112651N1+03001+02201999999ADDGA1041+007501999GA2041+021001999GF104991999999999999999999MA1101491999999REMMET058METAR SBJP 061200Z 10006KT 9999 SCT025 SCT070 30/22 Q1015;
0120827980999992007120613004-07100-034867FM-15+0066SBJP V0201001N003112200019N0112651N1+03001+02201999999ADDGA1041+009001999GF104991999999999999999999MA1101491999999REMMET051METAR SBJP 061300Z 10006KT 9999 SCT030 30/22 Q1015;
0120827980999992007120614004-07100-034867FM-15+0066SBJP V0201201N003612200019N0112651N1+03001+02201999999ADDGA1041+009001999GF104991999999999999999999MA1101391999999REMMET051METAR SBJP 061400Z 12007KT 9999 SCT030 30/22 Q1014;
0120827980999992007120615004-07100-034867FM-15+0066SBJP V0201301N004112200019N0112651N1+03101+02201999999ADDGA1041+009001999GF104991999999999999999999MA1101291999999REMMET051METAR SBJP 061500Z 13008KT 9999 SCT030 31/22 Q1013;
0120827980999992007120616004-07100-034867FM-15+0066SBJP V0201401N004112200019N0112651N1+03101+02201999999ADDGA1041+009001999GF104991999999999999999999MA1101291999999REMMET051METAR SBJP 061600Z 14008KT 9999 SCT030 31/22 Q1013;
0120827980999992007120617004-07100-034867FM-15+0066SBJP V0201001N003112200019N0112651N1+03101+02101999999ADDGA1041+009001999GF104991999999999999999999MA1101191999999REMMET051METAR SBJP 061700Z 10006KT 9999 SCT030 31/21 Q1012;
0120827980999992007120618004-07100-034867FM-15+0066SBJP V0201201N004112200019N0112651N1+03001+02201999999ADDGA1041+009001999GF104991999999999999999999MA1101081999999REMMET051METAR SBJP 061800Z 12008KT 9999 SCT030 30/22 Q1011;
0120827980999992007120619004-07100-034867FM-15+0066SBJP V0201201N004112200019N0112651N1+02901+02201999999ADDGA1041+009001999GF104991999999999999999999MA1101081999999REMMET051METAR SBJP 061900Z 12008KT 9999 SCT030 29/22 Q1011;
0120827980999992007120620004-07100-034867FM-15+0066SBJP V0201501N004112200019N0112651N1+02801+02201999999ADDGA1021+009001999GF102991999999999999999999MA1101081999999REMMET051METAR SBJP 062000Z 15008KT 9999 FEW030 28/22 Q1011;
0120827980999992007120621004-07100-034867FM-15+0066SBJP V0201401N004112200019N0112651N1+02701+02201999999ADDGA1021+009001999GF102991999999999999999999MA1101191999999REMMET051METAR SBJP 062100Z 14008KT 9999 FEW030 27/22 Q1012;
0120827980999992007120622004-07100-034867FM-15+0066SBJP V0201301N003112200019N0112651N1+02701+02201999999ADDGA1041+006001999GF104991999999999999999999MA1101191999999REMMET051METAR SBJP 062200Z 13006KT 9999 SCT020 27/22 Q1012;
0120827980999992007120623004-07100-034867FM-15+0066SBJP V0201301N002112200019N0112651N1+02601+02201999999ADDGA1041+006001999GF104991999999999999999999MA1101191999999REMMET051METAR SBJP 062300Z 13004KT 9999 SCT020 26/22 Q1012;
0120827980999992007120700004-07100-034867FM-15+0066SBJP V0201301N002112200019N0112651N1+02601+02201999999ADDGA1041+006001999GF104991999999999999999999MA1101291999999REMMET051METAR SBJP 070000Z 13004KT 9999 SCT020 26/22 Q1013;
0120827980999992007120701004-07100-034867FM-15+0066SBJP V0201301N002112200019N0112651N1+02601+02201999999ADDGA1041+006001999GF104991999999999999999999MA1101291999999REMMET051METAR SBJP 070100Z 13004KT 9999 SCT020 26/22 Q1013;
0120827980999992007120702004-07100-034867FM-15+0066SBJP V0201301N001512200019N0112651N1+02601+02201999999ADDGA1041+006001999GF104991999999999999999999MA1101191999999REMMET051METAR SBJP 070200Z 13003KT 9999 SCT020 26/22 Q1012;
0120827980999992007120703004-07100-034867FM-15+0066SBJP V0201301N001012200019N0112651N1+02601+02201999999ADDGA1041+006001999GF104991999999999999999999MA1101191999999REMMET051METAR SBJP 070300Z 13002KT 9999 SCT020 26/22 Q1012;
0120827980999992007120704004-07100-034867FM-15+0066SBJP V0201301N001512200019N0112651N1+02501+02201999999ADDGA1021+006001999GF102991999999999999999999MA1101081999999REMMET051METAR SBJP 070400Z 13003KT 9999 FEW020 25/22 Q1011;
0120827980999992007120705004-07100-034867FM-15+0066SBJP V0201201N001012200019N0112651N1+02501+02201999999ADDGA1041+005401999GF104991999999999999999999MA1101081999999REMMET051METAR SBJP 070500Z 12002KT 9999 SCT018 25/22 Q1011;
0120827980999992007120706004-07100-034867FM-15+0066SBJP V0201201N001012200019N0112651N1+02501+02201999999ADDGA1041+006001999GF104991999999999999999999MA1101081999999REMMET051METAR SBJP 070600Z 12002KT 9999 SCT020 25/22 Q1011;
0120827980999992007120707004-07100-034867FM-15+0066SBJP V0203201N001012200019N0112651N1+02401+02201999999ADDGA1041+006001999GF104991999999999999999999MA1101191999999REMMET051METAR SBJP 070700Z 32002KT 9999 SCT020 24/22 Q1012;
0120827980999992007120708004-07100-034867FM-15+0066SBJP V0209999C000012200019N0112651N1+02401+02201999999ADDGA1021+006001999GF102991999999999999999999MA1101191999999REMMET051METAR SBJP 070800Z 00000KT 9999 FEW020 24/22 Q1012;
0143827980999992007120709004-07100-034867FM-15+0066SBJP V0202701N000512200019N0112651N1+02401+02201999999ADDGA1021+006001999GA2041+024001999GF104991999999999999999999MA1101291999999REMMET058METAR SBJP 070900Z 27001KT 9999 FEW020 SCT080 24/22 Q1013;
0143827980999992007120710004-07100-034867FM-15+0066SBJP V0200601N001012200019N0112651N1+02701+02201999999ADDGA1041+006001999GA2041+024001999GF104991999999999999999999MA1101291999999REMMET058METAR SBJP 071000Z 06002KT 9999 SCT020 SCT080 27/22 Q1013;
0120827980999992007120711004-07100-034867FM-15+0066SBJP V0200601N002112200019N0112651N1+02801+02201999999ADDGA1041+006001999GF104991999999999999999999MA1101391999999REMMET051METAR SBJP 071100Z 06004KT 9999 SCT020 28/22 Q1014;
0120827980999992007120712004-07100-034867FM-15+0066SBJP V0201001N003110090019N0112651N1+03001+02101999999ADDGA1071+009001999GF107991999999999999999999MA1101391999999REMMET051METAR SBJP 071200Z 10006KT 9999 BKN030 30/21 Q1014;
0120827980999992007120713004-07100-034867FM-15+0066SBJP V0200901N003112200019N0112651N1+03001+02101999999ADDGA1041+009001999GF104991999999999999999999MA1101291999999REMMET051METAR SBJP 071300Z 09006KT 9999 SCT030 30/21 Q1013;
0120827980999992007120714004-07100-034867FM-15+0066SBJP V0200601N002112200019N0112651N1+03101+02101999999ADDGA1041+009001999GF104991999999999999999999MA1101291999999REMMET051METAR SBJP 071400Z 06004KT 9999 SCT030 31/21 Q1013;
0120827980999992007120715004-07100-034867FM-15+0066SBJP V0200901N003112200019N0112651N1+03101+02101999999ADDGA1041+009001999GF104991999999999999999999MA1101191999999REMMET051METAR SBJP 071500Z 09006KT 9999 SCT030 31/21 Q1012;
0120827980999992007120716004-07100-034867FM-15+0066SBJP V0200801N003112200019N0112651N1+03101+02101999999ADDGA1041+009001999GF104991999999999999999999MA1101191999999REMMET051METAR SBJP 071600Z 08006KT 9999 SCT030 31/21 Q1012;
0120827980999992007120717004-07100-034867FM-15+0066SBJP V0201101N003612200019N0112651N1+03101+02201999999ADDGA1041+009001999GF104991999999999999999999MA1101081999999REMMET051METAR SBJP 071700Z 11007KT 9999 SCT030 31/22 Q1011;
0120827980999992007120718004-07100-034867FM-15+0066SBJP V0201201N003612200019N0112651N1+03001+02201999999ADDGA1021+009001999GF102991999999999999999999MA1101021999999REMMET051METAR SBJP 071800Z 12007KT 9999 FEW030 30/22 Q1010;
0120827980999992007120719004-07100-034867FM-15+0066SBJP V0200901N003112200019N0112651N1+02901+02201999999ADDGA1021+009001999GF102991999999999999999999MA1101081999999REMMET051METAR SBJP 071900Z 09006KT 9999 FEW030 29/22 Q1011;
0120827980999992007120720004-07100-034867FM-15+0066SBJP V0201101N003112200019N0112651N1+02801+02201999999ADDGA1021+007501999GF102991999999999999999999MA1101021999999REMMET051METAR SBJP 072000Z 11006KT 9999 FEW025 28/22 Q1010;
0120827980999992007120721004-07100-034867FM-15+0066SBJP V0201001N002612200019N0112651N1+02701+02201999999ADDGA1041+006001999GF104991999999999999999999MA1101081999999REMMET051METAR SBJP 072100Z 10005KT 9999 SCT020 27/22 Q1011;
0120827980999992007120722004-07100-034867FM-15+0066SBJP V0201101N002612200019N0112651N1+02701+02201999999ADDGA1041+006001999GF104991999999999999999999MA1101081999999REMMET051METAR SBJP 072200Z 11005KT 9999 SCT020 27/22 Q1011;
0120827980999992007120723004-07100-034867FM-15+0066SBJP V0201001N002112200019N0112651N1+02701+02301999999ADDGA1041+006001999GF104991999999999999999999MA1101081999999REMMET051METAR SBJP 072300Z 10004KT 9999 SCT020 27/23 Q1011;
0120827980999992007120800004-07100-034867FM-15+0066SBJP V0201001N002612200019N0112651N1+02701+02301999999ADDGA1041+006001999GF104991999999999999999999MA1101191999999REMMET051METAR SBJP 080000Z 10005KT 9999 SCT020 27/23 Q1012;
0120827980999992007120801004-07100-034867FM-15+0066SBJP V0201001N002612200019N0112651N1+02701+02301999999ADDGA1041+006001999GF104991999999999999999999MA1101191999999REMMET051METAR SBJP 080100Z 10005KT 9999 SCT020 27/23 Q1012;
0120827980999992007120802004-07100-034867FM-15+0066SBJP V0201101N002112200019N0112651N1+02701+02301999999ADDGA1041+006001999GF104991999999999999999999MA1101191999999REMMET051METAR SBJP 080200Z 11004KT 9999 SCT020 27/23 Q1012;
0120827980999992007120803004-07100-034867FM-15+0066SBJP V0200901N002112200019N0112651N1+02701+02301999999ADDGA1041+006001999GF104991999999999999999999MA1101081999999REMMET051METAR SBJP 080300Z 09004KT 9999 SCT020 27/23 Q1011;
0120827980999992007120804004-07100-034867FM-15+0066SBJP V0201101N002112200019N0112651N1+02601+02301999999ADDGA1041+006001999GF104991999999999999999999MA1101081999999REMMET051METAR SBJP 080400Z 11004KT 9999 SCT020 26/23 Q1011;
0120827980999992007120805004-07100-034867FM-15+0066SBJP V0201101N002112200019N0112651N1+02601+02301999999ADDGA1041+006001999GF104991999999999999999999MA1101081999999REMMET051METAR SBJP 080500Z 11004KT 9999 SCT020 26/23 Q1011;
0120827980999992007120806004-07100-034867FM-15+0066SBJP V0201001N001012200019N0112651N1+02601+02301999999ADDGA1041+006001999GF104991999999999999999999MA1101081999999REMMET051METAR SBJP 080600Z 10002KT 9999 SCT020 26/23 Q1011;
0120827980999992007120807004-07100-034867FM-15+0066SBJP V0201101N001012200019N0112651N1+02601+02301999999ADDGA1041+006001999GF104991999999999999999999MA1101191999999REMMET051METAR SBJP 080700Z 11002KT 9999 SCT020 26/23 Q1012;
0120827980999992007120808004-07100-034867FM-15+0066SBJP V0201001N002112200019N0112651N1+02601+02301999999ADDGA1041+006001999GF104991999999999999999999MA1101081999999REMMET051METAR SBJP 080800Z 10004KT 9999 SCT020 26/23 Q1011;
0120827980999992007120809004-07100-034867FM-15+0066SBJP V0200701N002112200019N0112651N1+02601+02301999999ADDGA1041+006001999GF104991999999999999999999MA1101191999999REMMET051METAR SBJP 080900Z 07004KT 9999 SCT020 26/23 Q1012;
0120827980999992007120810004-07100-034867FM-15+0066SBJP V0200801N004112200019N0112651N1+02701+02301999999ADDGA1041+006001999GF104991999999999999999999MA1101191999999REMMET051METAR SBJP 081000Z 08008KT 9999 SCT020 27/23 Q1012;
0120827980999992007120811004-07100-034867FM-15+0066SBJP V0200701N003112200019N0112651N1+02901+02301999999ADDGA1041+006001999GF104991999999999999999999MA1101291999999REMMET051METAR SBJP 081100Z 07006KT 9999 SCT020 29/23 Q1013;
0120827980999992007120812004-07100-034867FM-15+0066SBJP V0200901N003612200019N0112651N1+03001+02201999999ADDGA1041+006001999GF104991999999999999999999MA1101291999999REMMET051METAR SBJP 081200Z 09007KT 9999 SCT020 30/22 Q1013;
0120827980999992007120813004-07100-034867FM-15+0066SBJP V0200801N004112200019N0112651N1+03001+02201999999ADDGA1041+007501999GF104991999999999999999999MA1101191999999REMMET051METAR SBJP 081300Z 08008KT 9999 SCT025 30/22 Q1012;
0120827980999992007120814004-07100-034867FM-15+0066SBJP V0200801N005112200019N0112651N1+03101+02201999999ADDGA1041+009001999GF104991999999999999999999MA1101191999999REMMET051METAR SBJP 081400Z 08010KT 9999 SCT030 31/22 Q1012;
0120827980999992007120815004-07100-034867FM-15+0066SBJP V0201001N005112200019N0112651N1+03001+02201999999ADDGA1041+009001999GF104991999999999999999999MA1101081999999REMMET051METAR SBJP 081500Z 10010KT 9999 SCT030 30/22 Q1011;
0120827980999992007120816004-07100-034867FM-15+0066SBJP V0200901N004112200019N0112651N1+03101+02201999999ADDGA1041+009001999GF104991999999999999999999MA1101021999999REMMET051METAR SBJP 081600Z 09008KT 9999 SCT030 31/22 Q1010;
0120827980999992007120817004-07100-034867FM-15+0066SBJP V0200901N004112200019N0112651N1+03001+02201999999ADDGA1041+009001999GF104991999999999999999999MA1101021999999REMMET051METAR SBJP 081700Z 09008KT 9999 SCT030 30/22 Q1010;
0120827980999992007120818004-07100-034867FM-15+0066SBJP V0201001N004112200019N0112651N1+03001+02201999999ADDGA1041+009001999GF104991999999999999999999MA1101021999999REMMET051METAR SBJP 081800Z 10008KT 9999 SCT030 30/22 Q1010;
0120827980999992007120819004-07100-034867FM-15+0066SBJP V0201001N003112200019N0112651N1+03001+02201999999ADDGA1041+009001999GF104991999999999999999999MA1101021999999REMMET051METAR SBJP 081900Z 10006KT 9999 SCT030 30/22 Q1010;
0120827980999992007120820004-07100-034867FM-15+0066SBJP V0200901N003612200019N0112651N1+02901+02201999999ADDGA1021+009001999GF102991999999999999999999MA1101021999999REMMET051METAR SBJP 082000Z 09007KT 9999 FEW030 29/22 Q1010;
0120827980999992007120821004-07100-034867FM-15+0066SBJP V0201001N003612200019N0112651N1+02701+02301999999ADDGA1021+006001999GF102991999999999999999999MA1101021999999REMMET051METAR SBJP 082100Z 10007KT 9999 FEW020 27/23 Q1010;
0120827980999992007120822004-07100-034867FM-15+0066SBJP V0200801N002612200019N0112651N1+02701+02301999999ADDGA1021+006001999GF102991999999999999999999MA1101081999999REMMET051METAR SBJP 082200Z 08005KT 9999 FEW020 27/23 Q1011;
0120827980999992007120823004-07100-034867FM-15+0066SBJP V0201001N002612200019N0112651N1+02701+02301999999ADDGA1021+006001999GF102991999999999999999999MA1101191999999REMMET051METAR SBJP 082300Z 10005KT 9999 FEW020 27/23 Q1012;
0120827980999992007120900004-07100-034867FM-15+0066SBJP V0201001N002612200019N0112651N1+02701+02301999999ADDGA1021+006001999GF102991999999999999999999MA1101191999999REMMET051METAR SBJP 090000Z 10005KT 9999 FEW020 27/23 Q1012;
0120827980999992007120901004-07100-034867FM-15+0066SBJP V0201001N002112200019N0112651N1+02601+02301999999ADDGA1021+004801999GF102991999999999999999999MA1101191999999REMMET051METAR SBJP 090100Z 10004KT 9999 FEW016 26/23 Q1012;
0120827980999992007120902004-07100-034867FM-15+0066SBJP V0201001N002112200019N0112651N1+02601+02301999999ADDGA1021+006001999GF102991999999999999999999MA1101191999999REMMET051METAR SBJP 090200Z 10004KT 9999 FEW020 26/23 Q1012;
0072827980999992007120903004-07100-034867FM-15+0066SBJP V0200901N00211220001CN0099001N1+02601+02301999999ADDMA1101081999999REMMET045METAR SBJP 090300Z 09004KT CAVOK 26/23 Q1011;
0120827980999992007120904004-07100-034867FM-15+0066SBJP V0201201N001512200019N0112651N1+02601+02301999999ADDGA1041+006001999GF104991999999999999999999MA1101081999999REMMET051METAR SBJP 090400Z 12003KT 9999 SCT020 26/23 Q1011;
0120827980999992007120905004-07100-034867FM-15+0066SBJP V0201201N002112200019N0112651N1+02601+02301999999ADDGA1041+006001999GF104991999999999999999999MA1101081999999REMMET051METAR SBJP 090500Z 12004KT 9999 SCT020 26/23 Q1011;
0120827980999992007120906004-07100-034867FM-15+0066SBJP V0201301N001512200019N0112651N1+02601+02301999999ADDGA1041+006001999GF104991999999999999999999MA1101081999999REMMET051METAR SBJP 090600Z 13003KT 9999 SCT020 26/23 Q1011;
0120827980999992007120907004-07100-034867FM-15+0066SBJP V0201501N002112200019N0112651N1+02501+02301999999ADDGA1041+006001999GF104991999999999999999999MA1101081999999REMMET051METAR SBJP 090700Z 15004KT 9999 SCT020 25/23 Q1011;
0120827980999992007120908004-07100-034867FM-15+0066SBJP V0202101N001012200019N0112651N1+02401+02201999999ADDGA1041+006001999GF104991999999999999999999MA1101191999999REMMET051METAR SBJP 090800Z 21002KT 9999 SCT020 24/22 Q1012;
0120827980999992007120909004-07100-034867FM-15+0066SBJP V0209999C000012200019N0112651N1+02501+02301999999ADDGA1021+006001999GF102991999999999999999999MA1101191999999REMMET051METAR SBJP 090900Z 00000KT 9999 FEW020 25/23 Q1012;
0120827980999992007120910004-07100-034867FM-15+0066SBJP V0201201N003112200019N0112651N1+02801+02301999999ADDGA1041+007501999GF104991999999999999999999MA1101291999999REMMET051METAR SBJP 091000Z 12006KT 9999 SCT025 28/23 Q1013;
0120827980999992007120911004-07100-034867FM-15+0066SBJP V0201201N004112200019N0112651N1+02901+02201999999ADDGA1041+007501999GF104991999999999999999999MA1101391999999REMMET051METAR SBJP 091100Z 12008KT 9999 SCT025 29/22 Q1014;
0120827980999992007120912004-07100-034867FM-15+0066SBJP V0201401N004110090019N0112651N1+03001+02201999999ADDGA1071+009001999GF107991999999999999999999MA1101391999999REMMET051METAR SBJP 091200Z 14008KT 9999 BKN030 30/22 Q1014;
0120827980999992007120913004-07100-034867FM-15+0066SBJP V0201401N003610075019N0112651N1+03101+02201999999ADDGA1071+007501999GF107991999999999999999999MA1101291999999REMMET051METAR SBJP 091300Z 14007KT 9999 BKN025 31/22 Q1013;
0120827980999992007120914004-07100-034867FM-15+0066SBJP V0201501N004610075019N0112651N1+02901+02301999999ADDGA1071+007501999GF107991999999999999999999MA1101291999999REMMET051METAR SBJP 091400Z 15009KT 9999 BKN025 29/23 Q1013;
0153827980999992007120915004-07100-034867FM-15+0066SBJP V0201501N002610045019N0090001N1+02701+02401999999ADDGA1041+002401999GA2071+004501999GF107991999999999999999999MA1101291999999MW1611REMMET062METAR SBJP 091500Z 15005KT 9000 -RA SCT008 BKN015 27/24 Q1013;
0120827980999992007120916004-07100-034867FM-15+0066SBJP V0201101N004610060019N0112651N1+02901+02301999999ADDGA1071+006001999GF107991999999999999999999MA1101191999999REMMET051METAR SBJP 091600Z 11009KT 9999 BKN020 29/23 Q1012;
0120827980999992007120917004-07100-034867FM-15+0066SBJP V0201201N005710060019N0112651N1+02901+02301999999ADDGA1071+006001999GF107991999999999999999999MA1101191999999REMMET051METAR SBJP 091700Z 12011KT 9999 BKN020 29/23 Q1012;
0120827980999992007120918004-07100-034867FM-15+0066SBJP V0201201N005112200019N0112651N1+02901+02201999999ADDGA1041+006001999GF104991999999999999999999MA1101081999999REMMET051METAR SBJP 091800Z 12010KT 9999 SCT020 29/22 Q1011;
0120827980999992007120919004-07100-034867FM-15+0066SBJP V0201201N004110060019N0112651N1+02801+02201999999ADDGA1071+006001999GF107991999999999999999999MA1101191999999REMMET051METAR SBJP 091900Z 12008KT 9999 BKN020 28/22 Q1012;
0143827980999992007120920004-07100-034867FM-15+0066SBJP V0201101N003612200019N0112651N1+02701+02301999999ADDGA1041+006001999GA2041+090001999GF104991999999999999999999MA1101191999999REMMET058METAR SBJP 092000Z 11007KT 9999 SCT020 SCT300 27/23 Q1012;
0143827980999992007120921004-07100-034867FM-15+0066SBJP V0201101N004112200019N0112651N1+02701+02201999999ADDGA1041+006001999GA2041+090001999GF104991999999999999999999MA1101191999999REMMET058METAR SBJP 092100Z 11008KT 9999 SCT020 SCT300 27/22 Q1012;
0120827980999992007120922004-07100-034867FM-15+0066SBJP V0201401N004112200019N0112651N1+02701+02301999999ADDGA1041+005401999GF104991999999999999999999MA1101191999999REMMET051METAR SBJP 092200Z 14008KT 9999 SCT018 27/23 Q1012;
0120827980999992007120923004-07100-034867FM-15+0066SBJP V0201401N003112200019N0112651N1+02601+02301999999ADDGA1041+005401999GF104991999999999999999999MA1101291999999REMMET051METAR SBJP 092300Z 14006KT 9999 SCT018 26/23 Q1013;
0120827980999992007121000004-07100-034867FM-15+0066SBJP V0201401N003612200019N0112651N1+02601+02201999999ADDGA1041+005401999GF104991999999999999999999MA1101291999999REMMET051METAR SBJP 100000Z 14007KT 9999 SCT018 26/22 Q1013;
0143827980999992007121001004-07100-034867FM-15+0066SBJP V0201201N002612200019N0112651N1+02601+02301999999ADDGA1041+006001999GA2041+024001999GF104991999999999999999999MA1101291999999REMMET058METAR SBJP 100100Z 12005KT 9999 SCT020 SCT080 26/23 Q1013;
0120827980999992007121002004-07100-034867FM-15+0066SBJP V0201401N002612200019N0112651N1+02601+02201999999ADDGA1021+006001999GF102991999999999999999999MA1101291999999REMMET051METAR SBJP 100200Z 14005KT 9999 FEW020 26/22 Q1013;
0120827980999992007121003004-07100-034867FM-15+0066SBJP V0201301N002112200019N0112651N1+02601+02201999999ADDGA1021+006001999GF102991999999999999999999MA1101191999999REMMET051METAR SBJP 100300Z 13004KT 9999 FEW020 26/22 Q1012;
0120827980999992007121004004-07100-034867FM-15+0066SBJP V0201401N002612200019N0112651N1+02601+02201999999ADDGA1041+006001999GF104991999999999999999999MA1101191999999REMMET051METAR SBJP 100400Z 14005KT 9999 SCT020 26/22 Q1012;
0120827980999992007121005004-07100-034867FM-15+0066SBJP V0201301N001512200019N0112651N1+02601+02201999999ADDGA1041+006001999GF104991999999999999999999MA1101081999999REMMET051METAR SBJP 100500Z 13003KT 9999 SCT020 26/22 Q1011;
0120827980999992007121006004-07100-034867FM-15+0066SBJP V0201501N001512200019N0112651N1+02501+02201999999ADDGA1041+006001999GF104991999999999999999999MA1101081999999REMMET051METAR SBJP 100600Z 15003KT 9999 SCT020 25/22 Q1011;
0120827980999992007121007004-07100-034867FM-15+0066SBJP V0201501N002612200019N0112651N1+02601+02201999999ADDGA1021+006001999GF102991999999999999999999MA1101081999999REMMET051METAR SBJP 100700Z 15005KT 9999 FEW020 26/22 Q1011;
0120827980999992007121008004-07100-034867FM-15+0066SBJP V0201601N001512200019N0112651N1+02401+02201999999ADDGA1021+006001999GF102991999999999999999999MA1101081999999REMMET051METAR SBJP 100800Z 16003KT 9999 FEW020 24/22 Q1011;
0120827980999992007121009004-07100-034867FM-15+0066SBJP V0201701N002112200019N0112651N1+02601+02301999999ADDGA1021+006001999GF102991999999999999999999MA1101191999999REMMET051METAR SBJP 100900Z 17004KT 9999 FEW020 26/23 Q1012;
0120827980999992007121010004-07100-034867FM-15+0066SBJP V0201301N004612200019N0112651N1+02801+02201999999ADDGA1041+006001999GF104991999999999999999999MA1101191999999REMMET051METAR SBJP 101000Z 13009KT 9999 SCT020 28/22 Q1012;
0120827980999992007121011004-07100-034867FM-15+0066SBJP V0201301N004610060019N0112651N1+02901+02201999999ADDGA1071+006001999GF107991999999999999999999MA1101291999999REMMET051METAR SBJP 101100Z 13009KT 9999 BKN020 29/22 Q1013;
0120827980999992007121012004-07100-034867FM-15+0066SBJP V0201301N005110075019N0112651N1+02901+02201999999ADDGA1071+007501999GF107991999999999999999999MA1101291999999REMMET051METAR SBJP 101200Z 13010KT 9999 BKN025 29/22 Q1013;
0120827980999992007121013004-07100-034867FM-15+0066SBJP V0201201N004612200019N0112651N1+03101+02101999999ADDGA1041+009001999GF104991999999999999999999MA1101291999999REMMET051METAR SBJP 101300Z 12009KT 9999 SCT030 31/21 Q1013;
0120827980999992007121014004-07100-034867FM-15+0066SBJP V0201301N005110090019N0112651N1+03101+02001999999ADDGA1071+009001999GF107991999999999999999999MA1101291999999REMMET051METAR SBJP 101400Z 13010KT 9999 BKN030 31/20 Q1013;
0120827980999992007121015004-07100-034867FM-15+0066SBJP V0201301N005110090019N0112651N1+03001+02101999999ADDGA1071+009001999GF107991999999999999999999MA1101291999999REMMET051METAR SBJP 101500Z 13010KT 9999 BKN030 30/21 Q1013;
0120827980999992007121016004-07100-034867FM-15+0066SBJP V0201501N005112200019N0112651N1+03001+02001999999ADDGA1041+009001999GF104991999999999999999999MA1101191999999REMMET051METAR SBJP 101600Z 15010KT 9999 SCT030 30/20 Q1012;
0143827980999992007121017004-07100-034867FM-15+0066SBJP V0201401N004612200019N0112651N1+03101+02101999999ADDGA1041+009001999GA2041+090001999GF104991999999999999999999MA1101081999999REMMET058METAR SBJP 101700Z 14009KT 9999 SCT030 SCT300 31/21 Q1011;
0143827980999992007121018004-07100-034867FM-15+0066SBJP V0201501N005112200019N0112651N1+02901+02001999999ADDGA1021+009001999GA2041+090001999GF104991999999999999999999MA1101081999999REMMET058METAR SBJP 101800Z 15010KT 9999 FEW030 SCT300 29/20 Q1011;
0143827980999992007121019004-07100-034867FM-15+0066SBJP V0201501N005112200019N0112651N1+02901+01901999999ADDGA1021+009001999GA2041+090001999GF104991999999999999999999MA1101191999999REMMET058METAR SBJP 101900Z 15010KT 9999 FEW030 SCT300 29/19 Q1012;
0120827980999992007121020004-07100-034867FM-15+0066SBJP V0201601N005112200019N0112651N1+02801+02101999999ADDGA1021+009001999GF102991999999999999999999MA1101191999999REMMET051METAR SBJP 102000Z 16010KT 9999 FEW030 28/21 Q1012;
0120827980999992007121021004-07100-034867FM-15+0066SBJP V0201601N003612200019N0112651N1+02601+02101999999ADDGA1021+009001999GF102991999999999999999999MA1101191999999REMMET051METAR SBJP 102100Z 16007KT 9999 FEW030 26/21 Q1012;
0072827980999992007121022004-07100-034867FM-15+0066SBJP V0201401N00261220001CN0099001N1+02601+02101999999ADDMA1101291999999REMMET045METAR SBJP 102200Z 14005KT CAVOK 26/21 Q1013;
0072827980999992007121023004-07100-034867FM-15+0066SBJP V0201301N00261220001CN0099001N1+02601+02101999999ADDMA1101291999999REMMET045METAR SBJP 102300Z 13005KT CAVOK 26/21 Q1013;
0072827980999992007121100004-07100-034867FM-15+0066SBJP V0201401N00311220001CN0099001N1+02501+02101999999ADDMA1101391999999REMMET045METAR SBJP 110000Z 14006KT CAVOK 25/21 Q1014;
0120827980999992007121101004-07100-034867FM-15+0066SBJP V0201401N002612200019N0112651N1+02501+02101999999ADDGA1021+006001999GF102991999999999999999999MA1101291999999REMMET051METAR SBJP 110100Z 14005KT 9999 FEW020 25/21 Q1013;
0120827980999992007121102004-07100-034867FM-15+0066SBJP V0201501N002112200019N0112651N1+02501+02101999999ADDGA1021+006001999GF102991999999999999999999MA1101291999999REMMET051METAR SBJP 110200Z 15004KT 9999 FEW020 25/21 Q1013;
0143827980999992007121103004-07100-034867FM-15+0066SBJP V0201401N003112200019N0112651N1+02501+02201999999ADDGA1021+006001999GA2041+021001999GF104991999999999999999999MA1101291999999REMMET058METAR SBJP 110300Z 14006KT 9999 FEW020 SCT070 25/22 Q1013;
0120827980999992007121104004-07100-034867FM-15+0066SBJP V0201601N001510060019N0112651N1+02501+02201999999ADDGA1071+006001999GF107991999999999999999999MA1101191999999REMMET051METAR SBJP 110400Z 16003KT 9999 BKN020 25/22 Q1012;
0120827980999992007121105004-07100-034867FM-15+0066SBJP V0201601N002110060019N0112651N1+02501+02201999999ADDGA1071+006001999GF107991999999999999999999MA1101191999999REMMET051METAR SBJP 110500Z 16004KT 9999 BKN020 25/22 Q1012;
0120827980999992007121106004-07100-034867FM-15+0066SBJP V0201501N002110060019N0112651N1+02501+02201999999ADDGA1071+006001999GF107991999999999999999999MA1101191999999REMMET051METAR SBJP 110600Z 15004KT 9999 BKN020 25/22 Q1012;
0120827980999992007121107004-07100-034867FM-15+0066SBJP V0201701N001510060019N0112651N1+02401+02201999999ADDGA1071+006001999GF107991999999999999999999MA1101191999999REMMET051METAR SBJP 110700Z 17003KT 9999 BKN020 24/22 Q1012;
0143827980999992007121108004-07100-034867FM-15+0066SBJP V0201501N002112200019N0112651N1+02401+02201999999ADDGA1041+006001999GA2041+021001999GF104991999999999999999999MA1101191999999REMMET058METAR SBJP 110800Z 15004KT 9999 SCT020 SCT070 24/22 Q1012;
0120827980999992007121109004-07100-034867FM-15+0066SBJP V0202101N001010060019N0112651N1+02401+02201999999ADDGA1071+006001999GF107991999999999999999999MA1101191999999REMMET051METAR SBJP 110900Z 21002KT 9999 BKN020 24/22 Q1012;
0143827980999992007121110004-07100-034867FM-15+0066SBJP V0202201N002112200019N0112651N1+02601+02301999999ADDGA1021+006001999GA2041+027001999GF104991999999999999999999MA1101291999999REMMET058METAR SBJP 111000Z 22004KT 9999 FEW020 SCT090 26/23 Q1013;
0120827980999992007121111004-07100-034867FM-15+0066SBJP V0201601N005112200019N0112651N1+02801+02101999999ADDGA1041+007501999GF104991999999999999999999MA1101291999999REMMET051METAR SBJP 111100Z 16010KT 9999 SCT025 28/21 Q1013;
0120827980999992007121112004-07100-034867FM-15+0066SBJP V0201601N005112200019N0112651N1+03001+02001999999ADDGA1041+007501999GF104991999999999999999999MA1101291999999REMMET051METAR SBJP 111200Z 16010KT 9999 SCT025 30/20 Q1013;
0120827980999992007121113004-07100-034867FM-15+0066SBJP V0201601N005112200019N0112651N1+03001+02001999999ADDGA1041+009001999GF104991999999999999999999MA1101291999999REMMET051METAR SBJP 111300Z 16010KT 9999 SCT030 30/20 Q1013;
0120827980999992007121114004-07100-034867FM-15+0066SBJP V0201601N006212200019N0112651N1+03101+01901999999ADDGA1041+009001999GF104991999999999999999999MA1101191999999REMMET051METAR SBJP 111400Z 16012KT 9999 SCT030 31/19 Q1012;
0120827980999992007121115004-07100-034867FM-15+0066SBJP V0201801N006212200019N0112651N1+03101+01801999999ADDGA1041+009001999GF104991999999999999999999MA1101191999999REMMET051METAR SBJP 111500Z 18012KT 9999 SCT030 31/18 Q1012;
0120827980999992007121116004-07100-034867FM-15+0066SBJP V0201401N005112200019N0112651N1+03001+01901999999ADDGA1041+009001999GF104991999999999999999999MA1101081999999REMMET051METAR SBJP 111600Z 14010KT 9999 SCT030 30/19 Q1011;
0120827980999992007121117004-07100-034867FM-15+0066SBJP V0201501N005112200019N0112651N1+03001+02001999999ADDGA1041+009001999GF104991999999999999999999MA1101021999999REMMET051METAR SBJP 111700Z 15010KT 9999 SCT030 30/20 Q1010;
0120827980999992007121118004-07100-034867FM-15+0066SBJP V0201401N005112200019N0112651N1+03001+02101999999ADDGA1041+009001999GF104991999999999999999999MA1101021999999REMMET051METAR SBJP 111800Z 14010KT 9999 SCT030 30/21 Q1010;
0143827980999992007121119004-07100-034867FM-15+0066SBJP V0201501N005110210019N0112651N1+02801+02001999999ADDGA1021+009001999GA2071+021001999GF107991999999999999999999MA1101081999999REMMET058METAR SBJP 111900Z 15010KT 9999 FEW030 BKN070 28/20 Q1011;
0143827980999992007121120004-07100-034867FM-15+0066SBJP V0201501N005110210019N0112651N1+02801+01901999999ADDGA1021+009001999GA2071+021001999GF107991999999999999999999MA1101081999999REMMET058METAR SBJP 112000Z 15010KT 9999 FEW030 BKN070 28/19 Q1011;
0072827980999992007121121004-07100-034867FM-15+0066SBJP V0201501N00361220001CN0099001N1+02601+02001999999ADDMA1101081999999REMMET045METAR SBJP 112100Z 15007KT CAVOK 26/20 Q1011;
0072827980999992007121122004-07100-034867FM-15+0066SBJP V0201801N00311220001CN0099001N1+02601+02101999999ADDMA1101191999999REMMET045METAR SBJP 112200Z 18006KT CAVOK 26/21 Q1012;
0072827980999992007121123004-07100-034867FM-15+0066SBJP V0201801N00261220001CN0099001N1+02501+02101999999ADDMA1101191999999REMMET045METAR SBJP 112300Z 18005KT CAVOK 25/21 Q1012;
0072827980999992007121200004-07100-034867FM-15+0066SBJP V0201901N00211220001CN0099001N1+02501+02101999999ADDMA1101191999999REMMET045METAR SBJP 120000Z 19004KT CAVOK 25/21 Q1012;
0143827980999992007121201004-07100-034867FM-15+0066SBJP V0201801N001512200019N0112651N1+02401+02101999999ADDGA1021+007501999GA2041+021001999GF104991999999999999999999MA1101291999999REMMET058METAR SBJP 120100Z 18003KT 9999 FEW025 SCT070 24/21 Q1013;
0120827980999992007121202004-07100-034867FM-15+0066SBJP V0201901N001512200019N0112651N1+02401+02101999999ADDGA1041+007501999GF104991999999999999999999MA1101191999999REMMET051METAR SBJP 120200Z 19003KT 9999 SCT025 24/21 Q1012;
0120827980999992007121203004-07100-034867FM-15+0066SBJP V0202401N001012200019N0112651N1+02401+02101999999ADDGA1041+007501999GF104991999999999999999999MA1101191999999REMMET051METAR SBJP 120300Z 24002KT 9999 SCT025 24/21 Q1012;
0120827980999992007121204004-07100-034867FM-15+0066SBJP V0202201N001012200019N0112651N1+02401+02201999999ADDGA1021+007501999GF102991999999999999999999MA1101081999999REMMET051METAR SBJP 120400Z 22002KT 9999 FEW025 24/22 Q1011;
0120827980999992007121205004-07100-034867FM-15+0066SBJP V0202001N001512200019N0112651N1+02301+02201999999ADDGA1041+005401999GF104991999999999999999999MA1101081999999REMMET051METAR SBJP 120500Z 20003KT 9999 SCT018 23/22 Q1011;
0120827980999992007121206004-07100-034867FM-15+0066SBJP V0202001N001012200019N0112651N1+02301+02201999999ADDGA1041+005401999GF104991999999999999999999MA1101081999999REMMET051METAR SBJP 120600Z 20002KT 9999 SCT018 23/22 Q1011;
0120827980999992007121207004-07100-034867FM-15+0066SBJP V0202401N001012200019N0112651N1+02301+02201999999ADDGA1041+005401999GF104991999999999999999999MA1101081999999REMMET051METAR SBJP 120700Z 24002KT 9999 SCT018 23/22 Q1011;
0120827980999992007121208004-07100-034867FM-15+0066SBJP V0202401N001512200019N0112651N1+02301+02201999999ADDGA1041+005401999GF104991999999999999999999MA1101081999999REMMET051METAR SBJP 120800Z 24003KT 9999 SCT018 23/22 Q1011;
0130827980999992007121209004-07100-034867FM-15+0066SBJP V0202101N002110054019N0030001N1+02301+02201999999ADDGA1071+005401999GF107991999999999999999999MA1101191999999MW1611REMMET055METAR SBJP 120900Z 21004KT 3000 -RA BKN018 23/22 Q1012;
0143827980999992007121210004-07100-034867FM-15+0066SBJP V0202001N002610210019N0112651N1+02401+02201999999ADDGA1041+006001999GA2071+021001999GF107991999999999999999999MA1101191999999REMMET058METAR SBJP 121000Z 20005KT 9999 SCT020 BKN070 24/22 Q1012;
0143827980999992007121211004-07100-034867FM-15+0066SBJP V0202101N002110210019N0112651N1+02501+02301999999ADDGA1041+006001999GA2071+021001999GF107991999999999999999999MA1101191999999REMMET058METAR SBJP 121100Z 21004KT 9999 SCT020 BKN070 25/23 Q1012;
0166827980999992007121212004-07100-034867FM-15+0066SBJP V0201901N00261004201CN0112651N1+02501+02301999999ADDGA1021+001801999GA2041+004201999GA3071+021001999GF107991999999999999999999MA1101291999999REMMET065METAR SBJP 121200Z 19005KT 9999 FEW006 SCT014 BKN070 25/23 Q1013;
0143827980999992007121213004-07100-034867FM-15+0066SBJP V0201601N005110054019N0112651N1+02701+02201999999ADDGA1071+005401999GA2071+021001999GF107991999999999999999999MA1101191999999REMMET058METAR SBJP 121300Z 16010KT 9999 BKN018 BKN070 27/22 Q1012;
0192827980999992007121214004-07100-034867FM-15+0066SBJP V0201101N00361006001CN0112651N1+02701+02201999999ADDGA1021+001801999GA2041+006001999GA3021+009001021GA4071+021001999GF107991999999999999999999MA1101191999999REMMET075METAR SBJP 121400Z 11007KT 9999 FEW006 SCT020 FEW030TCU BKN070 27/22 Q1012;
0202827980999992007121215004-07100-034867FM-15+0066SBJP V0200901N002610054019N0050001N1+02501+02201999999ADDGA1021+001801999GA2071+005401999GA3021+009001021GA4071+021001999GF107991999999999999999999MA1101191999999MW1611REMMET079METAR SBJP 121500Z 09005KT 5000 -RA FEW006 BKN018 FEW030TCU BKN070 25/22 Q1012;
0172827980999992007121216004-07100-034867FM-15+0066SBJP V0201201N00311220001CN0060001N1+02701+02201999999ADDGA1071+005401999GA2021+009001021GA3041+021001999MA1101081999999MW1611REMMET072METAR SBJP 121600Z 12006KT 6000 -RA BKN018 FEW030TCU SCT070 27/22 Q1011;EQDQ01+000042SCOTCV
0120827980999992007121217004-07100-034867FM-15+0066SBJP V0201201N004610060019N0112651N1+02901+02101999999ADDGA1071+006001999GF107991999999999999999999MA1101081999999REMMET051METAR SBJP 121700Z 12009KT 9999 BKN020 29/21 Q1011;
0120827980999992007121218004-07100-034867FM-15+0066SBJP V0201401N003610060019N0112651N1+02801+02001999999ADDGA1071+006001999GF107991999999999999999999MA1101081999999REMMET051METAR SBJP 121800Z 14007KT 9999 BKN020 28/20 Q1011;
0120827980999992007121219004-07100-034867FM-15+0066SBJP V0201301N002610060019N0112651N1+02701+02101999999ADDGA1071+006001999GF107991999999999999999999MA1101081999999REMMET051METAR SBJP 121900Z 13005KT 9999 BKN020 27/21 Q1011;
0143827980999992007121220004-07100-034867FM-15+0066SBJP V0201301N003610210019N0112651N1+02701+02001999999ADDGA1041+006001999GA2071+021001999GF107991999999999999999999MA1101081999999REMMET058METAR SBJP 122000Z 13007KT 9999 SCT020 BKN070 27/20 Q1011;
0143827980999992007121221004-07100-034867FM-15+0066SBJP V0201501N003112200019N0112651N1+02601+02101999999ADDGA1021+006001999GA2041+021001999GF104991999999999999999999MA1101081999999REMMET058METAR SBJP 122100Z 15006KT 9999 FEW020 SCT070 26/21 Q1011;
0072827980999992007121222004-07100-034867FM-15+0066SBJP V0201501N00211220001CN0099001N1+02501+02201999999ADDMA1101191999999REMMET045METAR SBJP 122200Z 15004KT CAVOK 25/22 Q1012;
0072827980999992007121223004-07100-034867FM-15+0066SBJP V0201501N00101220001CN0099001N1+02501+02201999999ADDMA1101191999999REMMET045METAR SBJP 122300Z 15002KT CAVOK 25/22 Q1012;
0072827980999992007121300004-07100-034867FM-15+0066SBJP V0201801N00151220001CN0099001N1+02401+02201999999ADDMA1101191999999REMMET045METAR SBJP 130000Z 18003KT CAVOK 24/22 Q1012;
0120827980999992007121301004-07100-034867FM-15+0066SBJP V0201901N001512200019N0112651N1+02401+02201999999ADDGA1021+006001999GF102991999999999999999999MA1101191999999REMMET051METAR SBJP 130100Z 19003KT 9999 FEW020 24/22 Q1012;
0120827980999992007121302004-07100-034867FM-15+0066SBJP V0202001N001012200019N0112651N1+02401+02201999999ADDGA1041+006001999GF104991999999999999999999MA1101191999999REMMET051METAR SBJP 130200Z 20002KT 9999 SCT020 24/22 Q1012;
0120827980999992007121303004-07100-034867FM-15+0066SBJP V0201301N001512200019N0112651N1+02501+02101999999ADDGA1041+006001999GF104991999999999999999999MA1101081999999REMMET051METAR SBJP 130300Z 13003KT 9999 SCT020 25/21 Q1011;
0120827980999992007121304004-07100-034867FM-15+0066SBJP V0201201N001012200019N0112651N1+02401+02101999999ADDGA1041+006001999GF104991999999999999999999MA1101081999999REMMET051METAR SBJP 130400Z 12002KT 9999 SCT020 24/21 Q1011;
0120827980999992007121305004-07100-034867FM-15+0066SBJP V0201601N001012200019N0112651N1+02301+02101999999ADDGA1041+006001999GF104991999999999999999999MA1101021999999REMMET051METAR SBJP 130500Z 16002KT 9999 SCT020 23/21 Q1010;
0143827980999992007121306004-07100-034867FM-15+0066SBJP V0201701N001012200019N0112651N1+02301+02101999999ADDGA1041+006001999GA2041+021001999GF104991999999999999999999MA1101021999999REMMET058METAR SBJP 130600Z 17002KT 9999 SCT020 SCT070 23/21 Q1010;
0120827980999992007121307004-07100-034867FM-15+0066SBJP V0202301N001012200019N0112651N1+02301+02101999999ADDGA1021+006001999GF102991999999999999999999MA1101021999999REMMET051METAR SBJP 130700Z 23002KT 9999 FEW020 23/21 Q1010;
0120827980999992007121308004-07100-034867FM-15+0066SBJP V0202401N001512200019N0112651N1+02201+02101999999ADDGA1041+006001999GF104991999999999999999999MA1101021999999REMMET051METAR SBJP 130800Z 24003KT 9999 SCT020 22/21 Q1010;
0120827980999992007121309004-07100-034867FM-15+0066SBJP V0202401N001012200019N0112651N1+02401+02201999999ADDGA1021+006001999GF102991999999999999999999MA1101081999999REMMET051METAR SBJP 130900Z 24002KT 9999 FEW020 24/22 Q1011;
0120827980999992007121310004-07100-034867FM-15+0066SBJP V0202101N001012200019N0112651N1+02601+02201999999ADDGA1041+007501999GF104991999999999999999999MA1101081999999REMMET051METAR SBJP 131000Z 21002KT 9999 SCT025 26/22 Q1011;
0120827980999992007121311004-07100-034867FM-15+0066SBJP V0201201N003110075019N0112651N1+02701+02201999999ADDGA1071+007501999GF107991999999999999999999MA1101191999999REMMET051METAR SBJP 131100Z 12006KT 9999 BKN025 27/22 Q1012;
0130827980999992007121312004-07100-034867FM-15+0066SBJP V0201001N003110075019N0050001N1+02601+02201999999ADDGA1071+007501999GF107991999999999999999999MA1101291999999MW1611REMMET055METAR SBJP 131200Z 10006KT 5000 -RA BKN025 26/22 Q1013;
0120827980999992007121313004-07100-034867FM-15+0066SBJP V0201001N004110090019N0112651N1+02801+02101999999ADDGA1071+009001999GF107991999999999999999999MA1101291999999REMMET051METAR SBJP 131300Z 10008KT 9999 BKN030 28/21 Q1013;
0120827980999992007121314004-07100-034867FM-15+0066SBJP V0201201N003612200019N0112651N1+03001+02101999999ADDGA1041+009001999GF104991999999999999999999MA1101191999999REMMET051METAR SBJP 131400Z 12007KT 9999 SCT030 30/21 Q1012;
0120827980999992007121315004-07100-034867FM-15+0066SBJP V0201101N005112200019N0112651N1+02901+02101999999ADDGA1041+009001999GF104991999999999999999999MA1101191999999REMMET051METAR SBJP 131500Z 11010KT 9999 SCT030 29/21 Q1012;
0120827980999992007121316004-07100-034867FM-15+0066SBJP V0201201N003612200019N0112651N1+03001+02101999999ADDGA1041+009001999GF104991999999999999999999MA1101191999999REMMET051METAR SBJP 131600Z 12007KT 9999 SCT030 30/21 Q1012;
0120827980999992007121317004-07100-034867FM-15+0066SBJP V0201201N003612200019N0112651N1+03001+02101999999ADDGA1041+009001999GF104991999999999999999999MA1101191999999REMMET051METAR SBJP 131700Z 12007KT 9999 SCT030 30/21 Q1012;
0120827980999992007121318004-07100-034867FM-15+0066SBJP V0201201N003612200019N0112651N1+03001+02101999999ADDGA1041+009001999GF104991999999999999999999MA1101021999999REMMET051METAR SBJP 131800Z 12007KT 9999 SCT030 30/21 Q1010;
0120827980999992007121319004-07100-034867FM-15+0066SBJP V0201101N002112200019N0112651N1+02901+02201999999ADDGA1041+009001999GF104991999999999999999999MA1101081999999REMMET051METAR SBJP 131900Z 11004KT 9999 SCT030 29/22 Q1011;
0120827980999992007121320004-07100-034867FM-15+0066SBJP V0201301N003612200019N0112651N1+02801+02201999999ADDGA1041+009001999GF104991999999999999999999MA1101081999999REMMET051METAR SBJP 132000Z 13007KT 9999 SCT030 28/22 Q1011;
0120827980999992007121321004-07100-034867FM-15+0066SBJP V0201201N002612200019N0112651N1+02701+02201999999ADDGA1041+006001999GF104991999999999999999999MA1101081999999REMMET051METAR SBJP 132100Z 12005KT 9999 SCT020 27/22 Q1011;
0120827980999992007121322004-07100-034867FM-15+0066SBJP V0201101N001512200019N0112651N1+02601+02201999999ADDGA1041+006001999GF104991999999999999999999MA1101081999999REMMET051METAR SBJP 132200Z 11003KT 9999 SCT020 26/22 Q1011;
0120827980999992007121323004-07100-034867FM-15+0066SBJP V0201101N001512200019N0112651N1+02601+02201999999ADDGA1021+006001999GF102991999999999999999999MA1101191999999REMMET051METAR SBJP 132300Z 11003KT 9999 FEW020 26/22 Q1012;
0120827980999992007121400004-07100-034867FM-15+0066SBJP V0201101N001512200019N0112651N1+02601+02301999999ADDGA1021+006001999GF102991999999999999999999MA1101191999999REMMET051METAR SBJP 140000Z 11003KT 9999 FEW020 26/23 Q1012;
0120827980999992007121401004-07100-034867FM-15+0066SBJP V0201101N001512200019N0112651N1+02601+02201999999ADDGA1041+006001999GF104991999999999999999999MA1101291999999REMMET051METAR SBJP 140100Z 11003KT 9999 SCT020 26/22 Q1013;
0120827980999992007121402004-07100-034867FM-15+0066SBJP V0201101N001012200019N0112651N1+02601+02301999999ADDGA1021+006001999GF102991999999999999999999MA1101191999999REMMET051METAR SBJP 140200Z 11002KT 9999 FEW020 26/23 Q1012;
0120827980999992007121403004-07100-034867FM-15+0066SBJP V0201501N001512200019N0112651N1+02501+02201999999ADDGA1021+006001999GF102991999999999999999999MA1101191999999REMMET051METAR SBJP 140300Z 15003KT 9999 FEW020 25/22 Q1012;
0120827980999992007121404004-07100-034867FM-15+0066SBJP V0202001N001012200019N0112651N1+02401+02201999999ADDGA1041+006001999GF104991999999999999999999MA1101081999999REMMET051METAR SBJP 140400Z 20002KT 9999 SCT020 24/22 Q1011;
0120827980999992007121405004-07100-034867FM-15+0066SBJP V0202001N001012200019N0112651N1+02401+02201999999ADDGA1041+005401999GF104991999999999999999999MA1101021999999REMMET051METAR SBJP 140500Z 20002KT 9999 SCT018 24/22 Q1010;
0120827980999992007121406004-07100-034867FM-15+0066SBJP V0209999C000012200019N0112651N1+02301+02201999999ADDGA1041+005401999GF104991999999999999999999MA1101021999999REMMET051METAR SBJP 140600Z 00000KT 9999 SCT018 23/22 Q1010;
0120827980999992007121407004-07100-034867FM-15+0066SBJP V0209999C000012200019N0112651N1+02301+02201999999ADDGA1041+005401999GF104991999999999999999999MA1101021999999REMMET051METAR SBJP 140700Z 00000KT 9999 SCT018 23/22 Q1010;
0120827980999992007121408004-07100-034867FM-15+0066SBJP V0209999C000012200019N0112651N1+02301+02101999999ADDGA1041+005401999GF104991999999999999999999MA1101081999999REMMET051METAR SBJP 140800Z 00000KT 9999 SCT018 23/21 Q1011;
0120827980999992007121409004-07100-034867FM-15+0066SBJP V0202701N001012200019N0112651N1+02401+02201999999ADDGA1041+005401999GF104991999999999999999999MA1101081999999REMMET051METAR SBJP 140900Z 27002KT 9999 SCT018 24/22 Q1011;
0120827980999992007121410004-07100-034867FM-15+0066SBJP V0202201N001512200019N0112651N1+02701+02401999999ADDGA1021+007501999GF102991999999999999999999MA1101191999999REMMET051METAR SBJP 141000Z 22003KT 9999 FEW025 27/24 Q1012;
0120827980999992007121411004-07100-034867FM-15+0066SBJP V0201501N002612200019N0112651N1+02901+02201999999ADDGA1041+007501999GF104991999999999999999999MA1101191999999REMMET051METAR SBJP 141100Z 15005KT 9999 SCT025 29/22 Q1012;
0120827980999992007121412004-07100-034867FM-15+0066SBJP V0201301N003112200019N0112651N1+03001+02101999999ADDGA1041+007501999GF104991999999999999999999MA1101291999999REMMET051METAR SBJP 141200Z 13006KT 9999 SCT025 30/21 Q1013;
0120827980999992007121413004-07100-034867FM-15+0066SBJP V0201701N004612200019N0112651N1+03001+02201999999ADDGA1041+009001999GF104991999999999999999999MA1101191999999REMMET051METAR SBJP 141300Z 17009KT 9999 SCT030 30/22 Q1012;
0120827980999992007121414004-07100-034867FM-15+0066SBJP V0201401N004610090019N0112651N1+03101+02201999999ADDGA1071+009001999GF107991999999999999999999MA1101191999999REMMET051METAR SBJP 141400Z 14009KT 9999 BKN030 31/22 Q1012;
0120827980999992007121415004-07100-034867FM-15+0066SBJP V0201501N004112200019N0112651N1+03101+02201999999ADDGA1041+009001999GF104991999999999999999999MA1101081999999REMMET051METAR SBJP 141500Z 15008KT 9999 SCT030 31/22 Q1011;
0120827980999992007121416004-07100-034867FM-15+0066SBJP V0201001N004610075019N0112651N1+03001+02201999999ADDGA1071+007501999GF107991999999999999999999MA1101081999999REMMET051METAR SBJP 141600Z 10009KT 9999 BKN025 30/22 Q1011;
0143827980999992007121417004-07100-034867FM-15+0066SBJP V0201301N005710060019N0112651N1+02901+02301999999ADDGA1071+006001999GA2071+090001999GF107991999999999999999999MA1101021999999REMMET058METAR SBJP 141700Z 13011KT 9999 BKN020 BKN300 29/23 Q1010;
0143827980999992007121418004-07100-034867FM-15+0066SBJP V0201301N005112200019N0112651N1+02901+02301999999ADDGA1041+004501999GA2041+090001999GF104991999999999999999999MA1100911999999REMMET058METAR SBJP 141800Z 13010KT 9999 SCT015 SCT300 29/23 Q1009;
0143827980999992007121419004-07100-034867FM-15+0066SBJP V0201201N004112200019N0112651N1+02801+02301999999ADDGA1041+006001999GA2041+021001999GF104991999999999999999999MA1101021999999REMMET058METAR SBJP 141900Z 12008KT 9999 SCT020 SCT070 28/23 Q1010;
0136827980999992007121420004-07100-034867FM-15+0066SBJP V0201101N00311220001CN0112651N1+02701+02301999999ADDGA1071+004501999GA2041+021001999MA1101021999999REMMET058METAR SBJP 142000Z 11006KT 9999 BKN015 SCT070 27/23 Q1010;EQDQ01+000042SCOTCV
0166827980999992007121421004-07100-034867FM-15+0066SBJP V0201301N00311021001CN0112651N1+02701+02301999999ADDGA1041+004501999GA2041+021001999GA3071+090001999GF107991999999999999999999MA1101021999999REMMET065METAR SBJP 142100Z 13006KT 9999 SCT015 SCT070 BKN300 27/23 Q1010;
0143827980999992007121422004-07100-034867FM-15+0066SBJP V0201601N002612200019N0112651N1+02601+02301999999ADDGA1041+004501999GA2041+024001999GF104991999999999999999999MA1101081999999REMMET058METAR SBJP 142200Z 16005KT 9999 SCT015 SCT080 26/23 Q1011;
0143827980999992007121423004-07100-034867FM-15+0066SBJP V0201501N003112200019N0112651N1+02601+02301999999ADDGA1041+005101999GA2041+024001999GF104991999999999999999999MA1101081999999REMMET058METAR SBJP 142300Z 15006KT 9999 SCT017 SCT080 26/23 Q1011;
0143827980999992007121500004-07100-034867FM-15+0066SBJP V0201401N003112200019N0112651N1+02701+02301999999ADDGA1041+005101999GA2041+024001999GF104991999999999999999999MA1101191999999REMMET058METAR SBJP 150000Z 14006KT 9999 SCT017 SCT080 27/23 Q1012;
0143827980999992007121501004-07100-034867FM-15+0066SBJP V0201501N003112200019N0112651N1+02601+02301999999ADDGA1021+005401999GA2041+024001999GF104991999999999999999999MA1101191999999REMMET058METAR SBJP 150100Z 15006KT 9999 FEW018 SCT080 26/23 Q1012;
0143827980999992007121502004-07100-034867FM-15+0066SBJP V0201401N003612200019N0112651N1+02601+02301999999ADDGA1021+006001999GA2041+024001999GF104991999999999999999999MA1101081999999REMMET058METAR SBJP 150200Z 14007KT 9999 FEW020 SCT080 26/23 Q1011;
0143827980999992007121503004-07100-034867FM-15+0066SBJP V0201401N003612200019N0112651N1+02601+02301999999ADDGA1041+005101999GA2041+024001999GF104991999999999999999999MA1101081999999REMMET058METAR SBJP 150300Z 14007KT 9999 SCT017 SCT080 26/23 Q1011;
0143827980999992007121504004-07100-034867FM-15+0066SBJP V0201301N002612200019N0112651N1+02601+02301999999ADDGA1041+005101999GA2041+024001999GF104991999999999999999999MA1101021999999REMMET058METAR SBJP 150400Z 13005KT 9999 SCT017 SCT080 26/23 Q1010;
0143827980999992007121505004-07100-034867FM-15+0066SBJP V0201401N001512200019N0112651N1+02601+02401999999ADDGA1041+005101999GA2041+024001999GF104991999999999999999999MA1101021999999REMMET058METAR SBJP 150500Z 14003KT 9999 SCT017 SCT080 26/24 Q1010;
0120827980999992007121506004-07100-034867FM-15+0066SBJP V0201501N002612200019N0112651N1+02601+02301999999ADDGA1021+005101999GF102991999999999999999999MA1101021999999REMMET051METAR SBJP 150600Z 15005KT 9999 FEW017 26/23 Q1010;
0120827980999992007121507004-07100-034867FM-15+0066SBJP V0201401N003112200019N0112651N1+02601+02301999999ADDGA1021+005101999GF102991999999999999999999MA1101021999999REMMET051METAR SBJP 150700Z 14006KT 9999 FEW017 26/23 Q1010;
0143827980999992007121508004-07100-034867FM-15+0066SBJP V0201501N002112200019N0112651N1+02601+02301999999ADDGA1021+005101999GA2041+021001999GF104991999999999999999999MA1101021999999REMMET058METAR SBJP 150800Z 15004KT 9999 FEW017 SCT070 26/23 Q1010;
0143827980999992007121509004-07100-034867FM-15+0066SBJP V0201601N002112200019N0112651N1+02701+02301999999ADDGA1021+006001999GA2041+024001999GF104991999999999999999999MA1101021999999REMMET058METAR SBJP 150900Z 16004KT 9999 FEW020 SCT080 27/23 Q1010;
0143827980999992007121510004-07100-034867FM-15+0066SBJP V0201201N004112200019N0112651N1+02901+02301999999ADDGA1041+006001999GA2041+021001999GF104991999999999999999999MA1101081999999REMMET058METAR SBJP 151000Z 12008KT 9999 SCT020 SCT070 29/23 Q1011;
0120827980999992007121511004-07100-034867FM-15+0066SBJP V0201101N004110051019N0112651N1+02901+02301999999ADDGA1071+005101999GF107991999999999999999999MA1101081999999REMMET051METAR SBJP 151100Z 11008KT 9999 BKN017 29/23 Q1011;
0120827980999992007121512004-07100-034867FM-15+0066SBJP V0201101N004110060019N0112651N1+03001+02201999999ADDGA1071+006001999GF107991999999999999999999MA1101081999999REMMET051METAR SBJP 151200Z 11008KT 9999 BKN020 30/22 Q1011;
0120827980999992007121513004-07100-034867FM-15+0066SBJP V0201101N004110075019N0112651N1+03001+02301999999ADDGA1071+007501999GF107991999999999999999999MA1101081999999REMMET051METAR SBJP 151300Z 11008KT 9999 BKN025 30/23 Q1011;
0120827980999992007121514004-07100-034867FM-15+0066SBJP V0201301N004610075019N0112651N1+03101+02301999999ADDGA1071+007501999GF107991999999999999999999MA1101021999999REMMET051METAR SBJP 151400Z 13009KT 9999 BKN025 31/23 Q1010;
0120827980999992007121515004-07100-034867FM-15+0066SBJP V0201201N004610090019N0112651N1+03101+02201999999ADDGA1071+009001999GF107991999999999999999999MA1101021999999REMMET051METAR SBJP 151500Z 12009KT 9999 BKN030 31/22 Q1010;
0120827980999992007121516004-07100-034867FM-15+0066SBJP V0201501N003612200019N0112651N1+03001+02201999999ADDGA1041+009001999GF104991999999999999999999MA1100911999999REMMET051METAR SBJP 151600Z 15007KT 9999 SCT030 30/22 Q1009;
0120827980999992007121517004-07100-034867FM-15+0066SBJP V0201201N004612200019N0112651N1+03001+02201999999ADDGA1041+009001999GF104991999999999999999999MA1100911999999REMMET051METAR SBJP 151700Z 12009KT 9999 SCT030 30/22 Q1009;
0120827980999992007121518004-07100-034867FM-15+0066SBJP V0201001N003612200019N0112651N1+02901+02201999999ADDGA1041+009001999GF104991999999999999999999MA1100811999999REMMET051METAR SBJP 151800Z 10007KT 9999 SCT030 29/22 Q1008;
0120827980999992007121519004-07100-034867FM-15+0066SBJP V0201401N004112200019N0112651N1+02901+02201999999ADDGA1041+009001999GF104991999999999999999999MA1100811999999REMMET051METAR SBJP 151900Z 14008KT 9999 SCT030 29/22 Q1008;
0143827980999992007121520004-07100-034867FM-15+0066SBJP V0201001N003612200019N0112651N1+02801+02201999999ADDGA1041+009001999GA2041+090001999GF104991999999999999999999MA1100811999999REMMET058METAR SBJP 152000Z 10007KT 9999 SCT030 SCT300 28/22 Q1008;
0143827980999992007121521004-07100-034867FM-15+0066SBJP V0201101N003112200019N0112651N1+02701+02201999999ADDGA1041+007501999GA2041+090001999GF104991999999999999999999MA1100911999999REMMET058METAR SBJP 152100Z 11006KT 9999 SCT025 SCT300 27/22 Q1009;
0120827980999992007121522004-07100-034867FM-15+0066SBJP V0201001N003112200019N0112651N1+02701+02301999999ADDGA1041+006001999GF104991999999999999999999MA1100911999999REMMET051METAR SBJP 152200Z 10006KT 9999 SCT020 27/23 Q1009;
0120827980999992007121523004-07100-034867FM-15+0066SBJP V0201001N002612200019N0112651N1+02701+02301999999ADDGA1041+006001999GF104991999999999999999999MA1100911999999REMMET051METAR SBJP 152300Z 10005KT 9999 SCT020 27/23 Q1009;
0120827980999992007121600004-07100-034867FM-15+0066SBJP V0201001N002112200019N0112651N1+02701+02301999999ADDGA1041+006001999GF104991999999999999999999MA1101021999999REMMET051METAR SBJP 160000Z 10004KT 9999 SCT020 27/23 Q1010;
0120827980999992007121601004-07100-034867FM-15+0066SBJP V0201001N002610060019N0112651N1+02701+02301999999ADDGA1071+006001999GF107991999999999999999999MA1101021999999REMMET051METAR SBJP 160100Z 10005KT 9999 BKN020 27/23 Q1010;
0120827980999992007121602004-07100-034867FM-15+0066SBJP V0201001N001010060019N0112651N1+02701+02301999999ADDGA1071+006001999GF107991999999999999999999MA1101021999999REMMET051METAR SBJP 160200Z 10002KT 9999 BKN020 27/23 Q1010;
0120827980999992007121603004-07100-034867FM-15+0066SBJP V0201001N002110060019N0112651N1+02601+02301999999ADDGA1071+006001999GF107991999999999999999999MA1101021999999REMMET051METAR SBJP 160300Z 10004KT 9999 BKN020 26/23 Q1010;
0120827980999992007121604004-07100-034867FM-15+0066SBJP V0201001N001512200019N0112651N1+02601+02201999999ADDGA1041+005401999GF104991999999999999999999MA1100911999999REMMET051METAR SBJP 160400Z 10003KT 9999 SCT018 26/22 Q1009;
0120827980999992007121605004-07100-034867FM-15+0066SBJP V0201101N001012200019N0112651N1+02301+02201999999ADDGA1021+006001999GF102991999999999999999999MA1100811999999REMMET051METAR SBJP 160500Z 11002KT 9999 FEW020 23/22 Q1008;
0120827980999992007121606004-07100-034867FM-15+0066SBJP V0201101N001012200019N0112651N1+02501+02201999999ADDGA1021+006001999GF102991999999999999999999MA1100911999999REMMET051METAR SBJP 160600Z 11002KT 9999 FEW020 25/22 Q1009;
0120827980999992007121607004-07100-034867FM-15+0066SBJP V0209999C000012200019N0112651N1+02501+02201999999ADDGA1041+005401999GF104991999999999999999999MA1100811999999REMMET051METAR SBJP 160700Z 00000KT 9999 SCT018 25/22 Q1008;
0120827980999992007121608004-07100-034867FM-15+0066SBJP V0200201N001012200019N0112651N1+02501+02301999999ADDGA1041+006001999GF104991999999999999999999MA1101021999999REMMET051METAR SBJP 160800Z 02002KT 9999 SCT020 25/23 Q1010;
0143827980999992007121609004-07100-034867FM-15+0066SBJP V0209999C000012200019N0112651N1+02601+02401999999ADDGA1021+006001999GA2041+090001999GF104991999999999999999999MA1101021999999REMMET058METAR SBJP 160900Z 00000KT 9999 FEW020 SCT300 26/24 Q1010;
0120827980999992007121610004-07100-034867FM-15+0066SBJP V0200901N002612200019N0112651N1+02701+02301999999ADDGA1041+006001999GF104991999999999999999999MA1101021999999REMMET051METAR SBJP 161000Z 09005KT 9999 SCT020 27/23 Q1010;
0120827980999992007121611004-07100-034867FM-15+0066SBJP V0201001N003610075019N0112651N1+02901+02201999999ADDGA1071+007501999GF107991999999999999999999MA1101021999999REMMET051METAR SBJP 161100Z 10007KT 9999 BKN025 29/22 Q1010;
0120827980999992007121612004-07100-034867FM-15+0066SBJP V0201101N003610075019N0112651N1+03001+02201999999ADDGA1071+007501999GF107991999999999999999999MA1101081999999REMMET051METAR SBJP 161200Z 11007KT 9999 BKN025 30/22 Q1011;
0120827980999992007121613004-07100-034867FM-15+0066SBJP V0201201N004610075019N0112651N1+03001+02201999999ADDGA1071+007501999GF107991999999999999999999MA1101191999999REMMET051METAR SBJP 161300Z 12009KT 9999 BKN025 30/22 Q1012;
0120827980999992007121614004-07100-034867FM-15+0066SBJP V0200701N005110090019N0112651N1+03101+02201999999ADDGA1071+009001999GF107991999999999999999999MA1101081999999REMMET051METAR SBJP 161400Z 07010KT 9999 BKN030 31/22 Q1011;
0120827980999992007121615004-07100-034867FM-15+0066SBJP V0200901N003610090019N0112651N1+03101+02201999999ADDGA1071+009001999GF107991999999999999999999MA1101081999999REMMET051METAR SBJP 161500Z 09007KT 9999 BKN030 31/22 Q1011;
0120827980999992007121616004-07100-034867FM-15+0066SBJP V0200701N002612200019N0112651N1+03101+02201999999ADDGA1041+009001999GF104991999999999999999999MA1101021999999REMMET051METAR SBJP 161600Z 07005KT 9999 SCT030 31/22 Q1010;
0120827980999992007121617004-07100-034867FM-15+0066SBJP V0200601N004112200019N0112651N1+03101+02101999999ADDGA1041+009001999GF104991999999999999999999MA1100911999999REMMET051METAR SBJP 161700Z 06008KT 9999 SCT030 31/21 Q1009;
0143827980999992007121618004-07100-034867FM-15+0066SBJP V0200601N003112200019N0112651N1+03001+02201999999ADDGA1041+009001999GA2041+027001999GF104991999999999999999999MA1100911999999REMMET058METAR SBJP 161800Z 06006KT 9999 SCT030 SCT090 30/22 Q1009;
0143827980999992007121619004-07100-034867FM-15+0066SBJP V0200401N003110270019N0112651N1+02901+02201999999ADDGA1041+009001999GA2071+027001999GF107991999999999999999999MA1100911999999REMMET058METAR SBJP 161900Z 04006KT 9999 SCT030 BKN090 29/22 Q1009;
0143827980999992007121620004-07100-034867FM-15+0066SBJP V0200401N002610270019N0112651N1+02801+02201999999ADDGA1021+009001999GA2071+027001999GF107991999999999999999999MA1101021999999REMMET058METAR SBJP 162000Z 04005KT 9999 FEW030 BKN090 28/22 Q1010;
0143827980999992007121621004-07100-034867FM-15+0066SBJP V0200401N002110270019N0112651N1+02701+02201999999ADDGA1021+007501999GA2071+027001999GF107991999999999999999999MA1101021999999REMMET058METAR SBJP 162100Z 04004KT 9999 FEW025 BKN090 27/22 Q1010;
0120827980999992007121622004-07100-034867FM-15+0066SBJP V0200701N001512200019N0112651N1+02701+02201999999ADDGA1021+007501999GF102991999999999999999999MA1101021999999REMMET051METAR SBJP 162200Z 07003KT 9999 FEW025 27/22 Q1010;
0120827980999992007121623004-07100-034867FM-15+0066SBJP V0200701N001512200019N0112651N1+02601+02201999999ADDGA1021+007501999GF102991999999999999999999MA1101081999999REMMET051METAR SBJP 162300Z 07003KT 9999 FEW025 26/22 Q1011;
0120827980999992007121700004-07100-034867FM-15+0066SBJP V0200701N001512200019N0112651N1+02601+02201999999ADDGA1021+007501999GF102991999999999999999999MA1101081999999REMMET051METAR SBJP 170000Z 07003KT 9999 FEW025 26/22 Q1011;
0120827980999992007121701004-07100-034867FM-15+0066SBJP V0200601N001012200019N0112651N1+02601+02201999999ADDGA1041+006001999GF104991999999999999999999MA1101081999999REMMET051METAR SBJP 170100Z 06002KT 9999 SCT020 26/22 Q1011;
0120827980999992007121702004-07100-034867FM-15+0066SBJP V0200401N001012200019N0112651N1+02601+02201999999ADDGA1041+006001999GF104991999999999999999999MA1101081999999REMMET051METAR SBJP 170200Z 04002KT 9999 SCT020 26/22 Q1011;
0120827980999992007121703004-07100-034867FM-15+0066SBJP V0209999C000012200019N0112651N1+02401+02201999999ADDGA1041+006001999GF104991999999999999999999MA1101021999999REMMET051METAR SBJP 170300Z 00000KT 9999 SCT020 24/22 Q1010;
0120827980999992007121704004-07100-034867FM-15+0066SBJP V0203001N001012200019N0112651N1+02401+02201999999ADDGA1041+005401999GF104991999999999999999999MA1101021999999REMMET051METAR SBJP 170400Z 30002KT 9999 SCT018 24/22 Q1010;
0120827980999992007121705004-07100-034867FM-15+0066SBJP V0203001N001012200019N0112651N1+02401+02201999999ADDGA1041+005401999GF104991999999999999999999MA1101021999999REMMET051METAR SBJP 170500Z 30002KT 9999 SCT018 24/22 Q1010;
0120827980999992007121706004-07100-034867FM-15+0066SBJP V0209999C000012200019N0112651N1+02401+02201999999ADDGA1041+005401999GF104991999999999999999999MA1101021999999REMMET051METAR SBJP 170600Z 00000KT 9999 SCT018 24/22 Q1010;
0120827980999992007121707004-07100-034867FM-15+0066SBJP V0209999C000012200019N0112651N1+02301+02201999999ADDGA1041+005401999GF104991999999999999999999MA1101021999999REMMET051METAR SBJP 170700Z 00000KT 9999 SCT018 23/22 Q1010;
0120827980999992007121708004-07100-034867FM-15+0066SBJP V0209999C000012200019N0112651N1+02301+02101999999ADDGA1021+006001999GF102991999999999999999999MA1101081999999REMMET051METAR SBJP 170800Z 00000KT 9999 FEW020 23/21 Q1011;
0166827980999992007121709004-07100-034867FM-15+0066SBJP V0202901N00101024001CN0112651N1+02401+02201999999ADDGA1021+006001999GA2041+024001999GA3071+090001999GF107991999999999999999999MA1101081999999REMMET065METAR SBJP 170900Z 29002KT 9999 FEW020 SCT080 BKN300 24/22 Q1011;
0143827980999992007121710004-07100-034867FM-15+0066SBJP V0203201N001010210019N0112651N1+02601+02301999999ADDGA1021+006001999GA2071+021001999GF107991999999999999999999MA1101191999999REMMET058METAR SBJP 171000Z 32002KT 9999 FEW020 BKN070 26/23 Q1012;
0120827980999992007121711004-07100-034867FM-15+0066SBJP V0200301N003110075019N0112651N1+02801+02201999999ADDGA1071+007501999GF107991999999999999999999MA1101191999999REMMET051METAR SBJP 171100Z 03006KT 9999 BKN025 28/22 Q1012;
0120827980999992007121712004-07100-034867FM-15+0066SBJP V0200501N003110090019N0112651N1+02901+02201999999ADDGA1071+009001999GF107991999999999999999999MA1101291999999REMMET051METAR SBJP 171200Z 05006KT 9999 BKN030 29/22 Q1013;
0120827980999992007121713004-07100-034867FM-15+0066SBJP V0200501N004610090019N0112651N1+03001+02101999999ADDGA1071+009001999GF107991999999999999999999MA1101291999999REMMET051METAR SBJP 171300Z 05009KT 9999 BKN030 30/21 Q1013;
0143827980999992007121714004-07100-034867FM-15+0066SBJP V0200701N004610210019N0112651N1+03001+02101999999ADDGA1041+009001999GA2071+021001999GF107991999999999999999999MA1101191999999REMMET058METAR SBJP 171400Z 07009KT 9999 SCT030 BKN070 30/21 Q1012;
0143827980999992007121715004-07100-034867FM-15+0066SBJP V0200801N004110210019N0112651N1+03001+02201999999ADDGA1041+009001999GA2071+021001999GF107991999999999999999999MA1101191999999REMMET058METAR SBJP 171500Z 08008KT 9999 SCT030 BKN070 30/22 Q1012;
0143827980999992007121716004-07100-034867FM-15+0066SBJP V0200701N004110210019N0112651N1+03001+02201999999ADDGA1021+009001999GA2071+021001999GF107991999999999999999999MA1101191999999REMMET058METAR SBJP 171600Z 07008KT 9999 FEW030 BKN070 30/22 Q1012;
0143827980999992007121717004-07100-034867FM-15+0066SBJP V0200801N003112200019N0112651N1+03001+02101999999ADDGA1021+009001999GA2041+021001999GF104991999999999999999999MA1101081999999REMMET058METAR SBJP 171700Z 08006KT 9999 FEW030 SCT070 30/21 Q1011;
0143827980999992007121718004-07100-034867FM-15+0066SBJP V0200801N003612200019N0112651N1+03001+02101999999ADDGA1021+009001999GA2041+021001999GF104991999999999999999999MA1101081999999REMMET058METAR SBJP 171800Z 08007KT 9999 FEW030 SCT070 30/21 Q1011;
0143827980999992007121719004-07100-034867FM-15+0066SBJP V0200801N004112200019N0112651N1+02901+02101999999ADDGA1021+009001999GA2041+021001999GF104991999999999999999999MA1101081999999REMMET058METAR SBJP 171900Z 08008KT 9999 FEW030 SCT070 29/21 Q1011;
0143827980999992007121720004-07100-034867FM-15+0066SBJP V0200801N002612200019N0112651N1+02901+02101999999ADDGA1021+009001999GA2041+021001999GF104991999999999999999999MA1101081999999REMMET058METAR SBJP 172000Z 08005KT 9999 FEW030 SCT070 29/21 Q1011;
0143827980999992007121721004-07100-034867FM-15+0066SBJP V0200701N002112200019N0112651N1+02701+02201999999ADDGA1021+009001999GA2041+021001999GF104991999999999999999999MA1101081999999REMMET058METAR SBJP 172100Z 07004KT 9999 FEW030 SCT070 27/22 Q1011;
0072827980999992007121722004-07100-034867FM-15+0066SBJP V0200801N00151220001CN0099001N1+02601+02201999999ADDMA1101191999999REMMET045METAR SBJP 172200Z 08003KT CAVOK 26/22 Q1012;
0072827980999992007121723004-07100-034867FM-15+0066SBJP V0200801N00151220001CN0099001N1+02601+02201999999ADDMA1101191999999REMMET045METAR SBJP 172300Z 08003KT CAVOK 26/22 Q1012;
0072827980999992007121800004-07100-034867FM-15+0066SBJP V0200601N00101220001CN0099001N1+02601+02201999999ADDMA1101291999999REMMET045METAR SBJP 180000Z 06002KT CAVOK 26/22 Q1013;
0072827980999992007121801004-07100-034867FM-15+0066SBJP V0200901N00051220001CN0099001N1+02601+02201999999ADDMA1101291999999REMMET045METAR SBJP 180100Z 09001KT CAVOK 26/22 Q1013;
0072827980999992007121802004-07100-034867FM-15+0066SBJP V0209999C00001220001CN0099001N1+02601+02201999999ADDMA1101191999999REMMET045METAR SBJP 180200Z 00000KT CAVOK 26/22 Q1012;
0120827980999992007121803004-07100-034867FM-15+0066SBJP V0209999C000012200019N0112651N1+02501+02201999999ADDGA1041+006001999GF104991999999999999999999MA1101191999999REMMET051METAR SBJP 180300Z 00000KT 9999 SCT020 25/22 Q1012;
0120827980999992007121804004-07100-034867FM-15+0066SBJP V0209999C000012200019N0112651N1+02401+02201999999ADDGA1041+006001999GF104991999999999999999999MA1101081999999REMMET051METAR SBJP 180400Z 00000KT 9999 SCT020 24/22 Q1011;
0143827980999992007121805004-07100-034867FM-15+0066SBJP V0202501N001012200019N0112651N1+02401+02201999999ADDGA1041+006001999GA2041+021001999GF104991999999999999999999MA1101081999999REMMET058METAR SBJP 180500Z 25002KT 9999 SCT020 SCT070 24/22 Q1011;
0120827980999992007121806004-07100-034867FM-15+0066SBJP V0202401N000512200019N0112651N1+02301+02101999999ADDGA1041+006001999GF104991999999999999999999MA1101081999999REMMET051METAR SBJP 180600Z 24001KT 9999 SCT020 23/21 Q1011;
0120827980999992007121807004-07100-034867FM-15+0066SBJP V0209999C000012200019N0112651N1+02301+02101999999ADDGA1021+006001999GF102991999999999999999999MA1101081999999REMMET051METAR SBJP 180700Z 00000KT 9999 FEW020 23/21 Q1011;
0120827980999992007121808004-07100-034867FM-15+0066SBJP V0209999C000012200019N0112651N1+02301+02101999999ADDGA1021+006001999GF102991999999999999999999MA1101081999999REMMET051METAR SBJP 180800Z 00000KT 9999 FEW020 23/21 Q1011;
0120827980999992007121809004-07100-034867FM-15+0066SBJP V0202501N001012200019N0112651N1+02401+02201999999ADDGA1021+006001999GF102991999999999999999999MA1101191999999REMMET051METAR SBJP 180900Z 25002KT 9999 FEW020 24/22 Q1012;
0130827980999992007121810004-07100-034867FM-15+0066SBJP V0202101N001010060019N0040001N1+02501+02201999999ADDGA1071+006001999GF107991999999999999999999MA1101291999999MW1611REMMET055METAR SBJP 181000Z 21002KT 4000 -RA BKN020 25/22 Q1013;
0143827980999992007121811004-07100-034867FM-15+0066SBJP V0201501N001512200019N0112651N1+02601+02401999999ADDGA1041+007501999GA2041+021001999GF104991999999999999999999MA1101291999999REMMET058METAR SBJP 181100Z 15003KT 9999 SCT025 SCT070 26/24 Q1013;
0143827980999992007121812004-07100-034867FM-15+0066SBJP V0200801N002612200019N0112651N1+02801+02201999999ADDGA1041+006001999GA2041+021001999GF104991999999999999999999MA1101391999999REMMET058METAR SBJP 181200Z 08005KT 9999 SCT020 SCT070 28/22 Q1014;
0120827980999992007121813004-07100-034867FM-15+0066SBJP V0201001N002610075019N0112651N1+03001+02201999999ADDGA1071+007501999GF107991999999999999999999MA1101391999999REMMET051METAR SBJP 181300Z 10005KT 9999 BKN025 30/22 Q1014;
0120827980999992007121814004-07100-034867FM-15+0066SBJP V0201101N003110075019N0112651N1+02901+02201999999ADDGA1071+007501999GF107991999999999999999999MA1101291999999REMMET051METAR SBJP 181400Z 11006KT 9999 BKN025 29/22 Q1013;
0120827980999992007121815004-07100-034867FM-15+0066SBJP V0201201N003612200019N0112651N1+03001+02201999999ADDGA1041+009001999GF104991999999999999999999MA1101291999999REMMET051METAR SBJP 181500Z 12007KT 9999 SCT030 30/22 Q1013;
0120827980999992007121816004-07100-034867FM-15+0066SBJP V0201101N003112200019N0112651N1+03201+02101999999ADDGA1041+009001999GF104991999999999999999999MA1101191999999REMMET051METAR SBJP 181600Z 11006KT 9999 SCT030 32/21 Q1012;
0120827980999992007121817004-07100-034867FM-15+0066SBJP V0201501N004112200019N0112651N1+03001+02101999999ADDGA1041+009001999GF104991999999999999999999MA1101191999999REMMET051METAR SBJP 181700Z 15008KT 9999 SCT030 30/21 Q1012;
0120827980999992007121818004-07100-034867FM-15+0066SBJP V0201501N003612200019N0112651N1+03001+02101999999ADDGA1041+009001999GF104991999999999999999999MA1101081999999REMMET051METAR SBJP 181800Z 15007KT 9999 SCT030 30/21 Q1011;
0120827980999992007121819004-07100-034867FM-15+0066SBJP V0201501N003612200019N0112651N1+02901+02201999999ADDGA1041+009001999GF104991999999999999999999MA1101081999999REMMET051METAR SBJP 181900Z 15007KT 9999 SCT030 29/22 Q1011;
0120827980999992007121820004-07100-034867FM-15+0066SBJP V0201501N003112200019N0112651N1+02801+02201999999ADDGA1021+009001999GF102991999999999999999999MA1101081999999REMMET051METAR SBJP 182000Z 15006KT 9999 FEW030 28/22 Q1011;
0072827980999992007121821004-07100-034867FM-15+0066SBJP V0201401N00311220001CN0099001N1+02701+02201999999ADDMA1101191999999REMMET045METAR SBJP 182100Z 14006KT CAVOK 27/22 Q1012;
0120827980999992007121822004-07100-034867FM-15+0066SBJP V0201401N002112200019N0112651N1+02601+02201999999ADDGA1021+009001999GF102991999999999999999999MA1101291999999REMMET051METAR SBJP 182200Z 14004KT 9999 FEW030 26/22 Q1013;
0072827980999992007121823004-07100-034867FM-15+0066SBJP V0201401N00311220001CN0099001N1+02601+02301999999ADDMA1101291999999REMMET045METAR SBJP 182300Z 14006KT CAVOK 26/23 Q1013;
0072827980999992007121900004-07100-034867FM-15+0066SBJP V0201301N00211220001CN0099001N1+02601+02301999999ADDMA1101291999999REMMET045METAR SBJP 190000Z 13004KT CAVOK 26/23 Q1013;
0120827980999992007121901004-07100-034867FM-15+0066SBJP V0201301N001012200019N0112651N1+02601+02301999999ADDGA1021+005401999GF102991999999999999999999MA1101291999999REMMET051METAR SBJP 190100Z 13002KT 9999 FEW018 26/23 Q1013;
0120827980999992007121902004-07100-034867FM-15+0066SBJP V0201501N002112200019N0112651N1+02501+02201999999ADDGA1021+006001999GF102991999999999999999999MA1101291999999REMMET051METAR SBJP 190200Z 15004KT 9999 FEW020 25/22 Q1013;
0120827980999992007121903004-07100-034867FM-15+0066SBJP V0201501N001012200019N0112651N1+02501+02201999999ADDGA1021+006001999GF102991999999999999999999MA1101191999999REMMET051METAR SBJP 190300Z 15002KT 9999 FEW020 25/22 Q1012;
0120827980999992007121904004-07100-034867FM-15+0066SBJP V0201801N001012200019N0112651N1+02501+02201999999ADDGA1041+005401999GF104991999999999999999999MA1101191999999REMMET051METAR SBJP 190400Z 18002KT 9999 SCT018 25/22 Q1012;
0120827980999992007121905004-07100-034867FM-15+0066SBJP V0201801N001012200019N0112651N1+02501+02201999999ADDGA1041+005401999GF104991999999999999999999MA1101191999999REMMET051METAR SBJP 190500Z 18002KT 9999 SCT018 25/22 Q1012;
0120827980999992007121906004-07100-034867FM-15+0066SBJP V0201701N001010054019N0112651N1+02501+02201999999ADDGA1071+005401999GF107991999999999999999999MA1101081999999REMMET051METAR SBJP 190600Z 17002KT 9999 BKN018 25/22 Q1011;
0120827980999992007121907004-07100-034867FM-15+0066SBJP V0201301N001512200019N0112651N1+02401+02201999999ADDGA1041+005401999GF104991999999999999999999MA1101081999999REMMET051METAR SBJP 190700Z 13003KT 9999 SCT018 24/22 Q1011;
0120827980999992007121908004-07100-034867FM-15+0066SBJP V0201201N002112200019N0112651N1+02501+02201999999ADDGA1041+005401999GF104991999999999999999999MA1101081999999REMMET051METAR SBJP 190800Z 12004KT 9999 SCT018 25/22 Q1011;
0120827980999992007121909004-07100-034867FM-15+0066SBJP V0201301N002112200019N0112651N1+02601+02301999999ADDGA1041+006001999GF104991999999999999999999MA1101191999999REMMET051METAR SBJP 190900Z 13004KT 9999 SCT020 26/23 Q1012;
0120827980999992007121910004-07100-034867FM-15+0066SBJP V0201401N002612200019N0112651N1+02701+02301999999ADDGA1041+006001999GF104991999999999999999999MA1101291999999REMMET051METAR SBJP 191000Z 14005KT 9999 SCT020 27/23 Q1013;
0120827980999992007121911004-07100-034867FM-15+0066SBJP V0201301N002612200019N0112651N1+02801+02201999999ADDGA1041+007501999GF104991999999999999999999MA1101291999999REMMET051METAR SBJP 191100Z 13005KT 9999 SCT025 28/22 Q1013;
0120827980999992007121912004-07100-034867FM-15+0066SBJP V0201301N003112200019N0112651N1+03001+02101999999ADDGA1041+009001999GF104991999999999999999999MA1101391999999REMMET051METAR SBJP 191200Z 13006KT 9999 SCT030 30/21 Q1014;
0120827980999992007121913004-07100-034867FM-15+0066SBJP V0201301N003610090019N0112651N1+03001+02001999999ADDGA1071+009001999GF107991999999999999999999MA1101391999999REMMET051METAR SBJP 191300Z 13007KT 9999 BKN030 30/20 Q1014;
0120827980999992007121914004-07100-034867FM-15+0066SBJP V0201601N004112200019N0112651N1+03101+02101999999ADDGA1041+009001999GF104991999999999999999999MA1101291999999REMMET051METAR SBJP 191400Z 16008KT 9999 SCT030 31/21 Q1013;
0120827980999992007121915004-07100-034867FM-15+0066SBJP V0201301N003612200019N0112651N1+03101+02101999999ADDGA1041+009001999GF104991999999999999999999MA1101291999999REMMET051METAR SBJP 191500Z 13007KT 9999 SCT030 31/21 Q1013;
0120827980999992007121916004-07100-034867FM-15+0066SBJP V0201401N004112200019N0112651N1+03001+02201999999ADDGA1041+009001999GF104991999999999999999999MA1101191999999REMMET051METAR SBJP 191600Z 14008KT 9999 SCT030 30/22 Q1012;
0120827980999992007121917004-07100-034867FM-15+0066SBJP V0201401N004112200019N0112651N1+03101+02101999999ADDGA1041+009001999GF104991999999999999999999MA1101081999999REMMET051METAR SBJP 191700Z 14008KT 9999 SCT030 31/21 Q1011;
0120827980999992007121918004-07100-034867FM-15+0066SBJP V0201401N004112200019N0112651N1+03001+02101999999ADDGA1041+006001999GF104991999999999999999999MA1101081999999REMMET051METAR SBJP 191800Z 14008KT 9999 SCT020 30/21 Q1011;
0120827980999992007121919004-07100-034867FM-15+0066SBJP V0201301N004112200019N0112651N1+02901+02101999999ADDGA1041+006001999GF104991999999999999999999MA1101081999999REMMET051METAR SBJP 191900Z 13008KT 9999 SCT020 29/21 Q1011;
0120827980999992007121920004-07100-034867FM-15+0066SBJP V0201501N004112200019N0112651N1+02801+02201999999ADDGA1041+006001999GF104991999999999999999999MA1101081999999REMMET051METAR SBJP 192000Z 15008KT 9999 SCT020 28/22 Q1011;
0120827980999992007121921004-07100-034867FM-15+0066SBJP V0201301N003112200019N0112651N1+02701+02201999999ADDGA1041+006001999GF104991999999999999999999MA1101191999999REMMET051METAR SBJP 192100Z 13006KT 9999 SCT020 27/22 Q1012;
0120827980999992007121922004-07100-034867FM-15+0066SBJP V0201401N002612200019N0112651N1+02701+02201999999ADDGA1021+006001999GF102991999999999999999999MA1101191999999REMMET051METAR SBJP 192200Z 14005KT 9999 FEW020 27/22 Q1012;
0120827980999992007121923004-07100-034867FM-15+0066SBJP V0201401N002112200019N0112651N1+02601+02201999999ADDGA1021+006001999GF102991999999999999999999MA1101291999999REMMET051METAR SBJP 192300Z 14004KT 9999 FEW020 26/22 Q1013;
0120827980999992007122000004-07100-034867FM-15+0066SBJP V0201401N002612200019N0112651N1+02601+02201999999ADDGA1021+006001999GF102991999999999999999999MA1101291999999REMMET051METAR SBJP 200000Z 14005KT 9999 FEW020 26/22 Q1013;
0120827980999992007122001004-07100-034867FM-15+0066SBJP V0201301N002112200019N0112651N1+02601+02201999999ADDGA1021+006001999GF102991999999999999999999MA1101291999999REMMET051METAR SBJP 200100Z 13004KT 9999 FEW020 26/22 Q1013;
0120827980999992007122002004-07100-034867FM-15+0066SBJP V0201301N002112200019N0112651N1+02601+02201999999ADDGA1021+006001999GF102991999999999999999999MA1101191999999REMMET051METAR SBJP 200200Z 13004KT 9999 FEW020 26/22 Q1012;
0120827980999992007122003004-07100-034867FM-15+0066SBJP V0201401N002112200019N0112651N1+02501+02201999999ADDGA1021+006001999GF102991999999999999999999MA1101191999999REMMET051METAR SBJP 200300Z 14004KT 9999 FEW020 25/22 Q1012;
0120827980999992007122004004-07100-034867FM-15+0066SBJP V0201501N001512200019N0112651N1+02501+02201999999ADDGA1021+006001999GF102991999999999999999999MA1101081999999REMMET051METAR SBJP 200400Z 15003KT 9999 FEW020 25/22 Q1011;
0120827980999992007122005004-07100-034867FM-15+0066SBJP V0201301N002112200019N0112651N1+02601+02201999999ADDGA1021+006001999GF102991999999999999999999MA1101021999999REMMET051METAR SBJP 200500Z 13004KT 9999 FEW020 26/22 Q1010;
0072827980999992007122006004-07100-034867FM-15+0066SBJP V0201601N00151220001CN0099001N1+02401+02101999999ADDMA1101021999999REMMET045METAR SBJP 200600Z 16003KT CAVOK 24/21 Q1010;
0072827980999992007122007004-07100-034867FM-15+0066SBJP V0201801N00051220001CN0099001N1+02301+02101999999ADDMA1101081999999REMMET045METAR SBJP 200700Z 18001KT CAVOK 23/21 Q1011;
0072827980999992007122008004-07100-034867FM-15+0066SBJP V0201501N00151220001CN0099001N1+02401+02101999999ADDMA1101081999999REMMET045METAR SBJP 200800Z 15003KT CAVOK 24/21 Q1011;
0120827980999992007122009004-07100-034867FM-15+0066SBJP V0201701N001012200019N0112651N1+02501+02201999999ADDGA1021+006001999GF102991999999999999999999MA1101191999999REMMET051METAR SBJP 200900Z 17002KT 9999 FEW020 25/22 Q1012;
0120827980999992007122010004-07100-034867FM-15+0066SBJP V0201501N003112200019N0112651N1+02801+02201999999ADDGA1041+006001999GF104991999999999999999999MA1101191999999REMMET051METAR SBJP 201000Z 15006KT 9999 SCT020 28/22 Q1012;
0120827980999992007122011004-07100-034867FM-15+0066SBJP V0201401N003112200019N0112651N1+02801+02101999999ADDGA1041+006001999GF104991999999999999999999MA1101291999999REMMET051METAR SBJP 201100Z 14006KT 9999 SCT020 28/21 Q1013;
0120827980999992007122012004-07100-034867FM-15+0066SBJP V0201301N002112200019N0112651N1+02901+02001999999ADDGA1041+006001999GF104991999999999999999999MA1101291999999REMMET051METAR SBJP 201200Z 13004KT 9999 SCT020 29/20 Q1013;
0120827980999992007122013004-07100-034867FM-15+0066SBJP V0201201N005112200019N0112651N1+03001+02001999999ADDGA1041+006001999GF104991999999999999999999MA1101291999999REMMET051METAR SBJP 201300Z 12010KT 9999 SCT020 30/20 Q1013;
0120827980999992007122014004-07100-034867FM-15+0066SBJP V0200901N005112200019N0112651N1+03101+02101999999ADDGA1041+006001999GF104991999999999999999999MA1101191999999REMMET051METAR SBJP 201400Z 09010KT 9999 SCT020 31/21 Q1012;
0120827980999992007122015004-07100-034867FM-15+0066SBJP V0201501N004112200019N0112651N1+03101+02201999999ADDGA1041+006001999GF104991999999999999999999MA1101191999999REMMET051METAR SBJP 201500Z 15008KT 9999 SCT020 31/22 Q1012;
0120827980999992007122016004-07100-034867FM-15+0066SBJP V0201301N003612200019N0112651N1+03001+02101999999ADDGA1041+007501999GF104991999999999999999999MA1101081999999REMMET051METAR SBJP 201600Z 13007KT 9999 SCT025 30/21 Q1011;
0120827980999992007122017004-07100-034867FM-15+0066SBJP V0201301N003612200019N0112651N1+03001+02101999999ADDGA1041+009001999GF104991999999999999999999MA1101021999999REMMET051METAR SBJP 201700Z 13007KT 9999 SCT030 30/21 Q1010;
0120827980999992007122018004-07100-034867FM-15+0066SBJP V0201301N003612200019N0112651N1+03001+02001999999ADDGA1021+009001999GF102991999999999999999999MA1101021999999REMMET051METAR SBJP 201800Z 13007KT 9999 FEW030 30/20 Q1010;
0120827980999992007122019004-07100-034867FM-15+0066SBJP V0201301N003112200019N0112651N1+03001+02101999999ADDGA1021+009001999GF102991999999999999999999MA1101021999999REMMET051METAR SBJP 201900Z 13006KT 9999 FEW030 30/21 Q1010;
0120827980999992007122020004-07100-034867FM-15+0066SBJP V0201301N003112200019N0112651N1+02901+02101999999ADDGA1021+009001999GF102991999999999999999999MA1101021999999REMMET051METAR SBJP 202000Z 13006KT 9999 FEW030 29/21 Q1010;
0120827980999992007122021004-07100-034867FM-15+0066SBJP V0201401N003112200019N0112651N1+02701+02201999999ADDGA1021+007501999GF102991999999999999999999MA1101021999999REMMET051METAR SBJP 202100Z 14006KT 9999 FEW025 27/22 Q1010;
0072827980999992007122022004-07100-034867FM-15+0066SBJP V0201201N00211220001CN0099001N1+02701+02201999999ADDMA1101081999999REMMET045METAR SBJP 202200Z 12004KT CAVOK 27/22 Q1011;
0120827980999992007122023004-07100-034867FM-15+0066SBJP V0201101N001512200019N0112651N1+02701+02301999999ADDGA1021+006001999GF102991999999999999999999MA1101191999999REMMET051METAR SBJP 202300Z 11003KT 9999 FEW020 27/23 Q1012;
0143827980999992007122100004-07100-034867FM-15+0066SBJP V0201201N002112200019N0112651N1+02601+02201999999ADDGA1021+006001999GA2041+021001999GF104991999999999999999999MA1101191999999REMMET058METAR SBJP 210000Z 12004KT 9999 FEW020 SCT070 26/22 Q1012;
0120827980999992007122101004-07100-034867FM-15+0066SBJP V0201401N001012200019N0112651N1+02501+02201999999ADDGA1021+006001999GF102991999999999999999999MA1101191999999REMMET051METAR SBJP 210100Z 14002KT 9999 FEW020 25/22 Q1012;
0120827980999992007122102004-07100-034867FM-15+0066SBJP V0201101N001512200019N0112651N1+02601+02201999999ADDGA1021+006001999GF102991999999999999999999MA1101191999999REMMET051METAR SBJP 210200Z 11003KT 9999 FEW020 26/22 Q1012;
0120827980999992007122103004-07100-034867FM-15+0066SBJP V0201001N001012200019N0112651N1+02601+02201999999ADDGA1021+006001999GF102991999999999999999999MA1101191999999REMMET051METAR SBJP 210300Z 10002KT 9999 FEW020 26/22 Q1012;
0120827980999992007122104004-07100-034867FM-15+0066SBJP V0209999C000012200019N0112651N1+02501+02201999999ADDGA1021+006001999GF102991999999999999999999MA1101081999999REMMET051METAR SBJP 210400Z 00000KT 9999 FEW020 25/22 Q1011;
0120827980999992007122105004-07100-034867FM-15+0066SBJP V0209999C000012200019N0112651N1+02401+02201999999ADDGA1021+006001999GF102991999999999999999999MA1101081999999REMMET051METAR SBJP 210500Z 00000KT 9999 FEW020 24/22 Q1011;
0120827980999992007122106004-07100-034867FM-15+0066SBJP V0202301N002112200019N0112651N1+02401+02201999999ADDGA1021+006001999GF102991999999999999999999MA1101081999999REMMET051METAR SBJP 210600Z 23004KT 9999 FEW020 24/22 Q1011;
0120827980999992007122107004-07100-034867FM-15+0066SBJP V0202301N001012200019N0112651N1+02401+02201999999ADDGA1021+006001999GF102991999999999999999999MA1101081999999REMMET051METAR SBJP 210700Z 23002KT 9999 FEW020 24/22 Q1011;
0120827980999992007122108004-07100-034867FM-15+0066SBJP V0202001N001012200019N0112651N1+02401+02201999999ADDGA1021+006001999GF102991999999999999999999MA1101191999999REMMET051METAR SBJP 210800Z 20002KT 9999 FEW020 24/22 Q1012;
0120827980999992007122109004-07100-034867FM-15+0066SBJP V0202101N001012200019N0112651N1+02501+02301999999ADDGA1021+006001999GF102991999999999999999999MA1101291999999REMMET051METAR SBJP 210900Z 21002KT 9999 FEW020 25/23 Q1013;
0120827980999992007122110004-07100-034867FM-15+0066SBJP V0201301N003112200019N0112651N1+02801+02201999999ADDGA1041+007501999GF104991999999999999999999MA1101291999999REMMET051METAR SBJP 211000Z 13006KT 9999 SCT025 28/22 Q1013;
0120827980999992007122111004-07100-034867FM-15+0066SBJP V0201401N003610075019N0112651N1+02901+02001999999ADDGA1071+007501999GF107991999999999999999999MA1101391999999REMMET051METAR SBJP 211100Z 14007KT 9999 BKN025 29/20 Q1014;
0143827980999992007122112004-07100-034867FM-15+0066SBJP V0201301N004110900019N0112651N1+03001+01901999999ADDGA1041+009001999GA2071+090001999GF107991999999999999999999MA1101391999999REMMET058METAR SBJP 211200Z 13008KT 9999 SCT030 BKN300 30/19 Q1014;
0143827980999992007122113004-07100-034867FM-15+0066SBJP V0201301N004112200019N0112651N1+03101+01901999999ADDGA1021+009001999GA2041+090001999GF104991999999999999999999MA1101291999999REMMET058METAR SBJP 211300Z 13008KT 9999 FEW030 SCT300 31/19 Q1013;
0143827980999992007122114004-07100-034867FM-15+0066SBJP V0201401N004112200019N0112651N1+03201+01901999999ADDGA1021+009001999GA2041+090001999GF104991999999999999999999MA1101291999999REMMET058METAR SBJP 211400Z 14008KT 9999 FEW030 SCT300 32/19 Q1013;
0120827980999992007122115004-07100-034867FM-15+0066SBJP V0201401N004112200019N0112651N1+03201+01901999999ADDGA1021+009001999GF102991999999999999999999MA1101191999999REMMET051METAR SBJP 211500Z 14008KT 9999 FEW030 32/19 Q1012;
0120827980999992007122116004-07100-034867FM-15+0066SBJP V0201201N004612200019N0112651N1+03201+02001999999ADDGA1021+009001999GF102991999999999999999999MA1101081999999REMMET051METAR SBJP 211600Z 12009KT 9999 FEW030 32/20 Q1011;
0120827980999992007122117004-07100-034867FM-15+0066SBJP V0201101N004112200019N0112651N1+03101+02001999999ADDGA1021+009001999GF102991999999999999999999MA1101021999999REMMET051METAR SBJP 211700Z 11008KT 9999 FEW030 31/20 Q1010;
0120827980999992007122118004-07100-034867FM-15+0066SBJP V0201301N004612200019N0112651N1+03001+02101999999ADDGA1021+009001999GF102991999999999999999999MA1101021999999REMMET051METAR SBJP 211800Z 13009KT 9999 FEW030 30/21 Q1010;
0072827980999992007122119004-07100-034867FM-15+0066SBJP V0201101N00411220001CN0099001N1+03001+02201999999ADDMA1101021999999REMMET045METAR SBJP 211900Z 11008KT CAVOK 30/22 Q1010;
0143827980999992007122120004-07100-034867FM-15+0066SBJP V0201301N004112200019N0112651N1+02801+02201999999ADDGA1021+009001999GA2041+090001999GF104991999999999999999999MA1101081999999REMMET058METAR SBJP 212000Z 13008KT 9999 FEW030 SCT300 28/22 Q1011;
0072827980999992007122121004-07100-034867FM-15+0066SBJP V0201101N00361220001CN0099001N1+02801+02201999999ADDMA1101081999999REMMET045METAR SBJP 212100Z 11007KT CAVOK 28/22 Q1011;
0120827980999992007122122004-07100-034867FM-15+0066SBJP V0201401N002612200019N0112651N1+02701+02201999999ADDGA1021+007501999GF102991999999999999999999MA1101191999999REMMET051METAR SBJP 212200Z 14005KT 9999 FEW025 27/22 Q1012;
0120827980999992007122123004-07100-034867FM-15+0066SBJP V0201401N002112200019N0112651N1+02701+02201999999ADDGA1021+007501999GF102991999999999999999999MA1101291999999REMMET051METAR SBJP 212300Z 14004KT 9999 FEW025 27/22 Q1013;
0120827980999992007122200004-07100-034867FM-15+0066SBJP V0201401N002612200019N0112651N1+02701+02201999999ADDGA1021+007501999GF102991999999999999999999MA1101291999999REMMET051METAR SBJP 220000Z 14005KT 9999 FEW025 27/22 Q1013;
0120827980999992007122201004-07100-034867FM-15+0066SBJP V0201501N002612200019N0112651N1+02701+02201999999ADDGA1041+007501999GF104991999999999999999999MA1101291999999REMMET051METAR SBJP 220100Z 15005KT 9999 SCT025 27/22 Q1013;
0120827980999992007122202004-07100-034867FM-15+0066SBJP V0201401N002612200019N0112651N1+02701+02201999999ADDGA1041+006001999GF104991999999999999999999MA1101291999999REMMET051METAR SBJP 220200Z 14005KT 9999 SCT020 27/22 Q1013;
0120827980999992007122203004-07100-034867FM-15+0066SBJP V0201401N002112200019N0112651N1+02601+02301999999ADDGA1041+006001999GF104991999999999999999999MA1101191999999REMMET051METAR SBJP 220300Z 14004KT 9999 SCT020 26/23 Q1012;
0120827980999992007122204004-07100-034867FM-15+0066SBJP V0201501N002112200019N0112651N1+02601+02301999999ADDGA1041+005401999GF104991999999999999999999MA1101081999999REMMET051METAR SBJP 220400Z 15004KT 9999 SCT018 26/23 Q1011;
0120827980999992007122205004-07100-034867FM-15+0066SBJP V0201501N001512200019N0112651N1+02601+02301999999ADDGA1041+005401999GF104991999999999999999999MA1101081999999REMMET051METAR SBJP 220500Z 15003KT 9999 SCT018 26/23 Q1011;
0120827980999992007122206004-07100-034867FM-15+0066SBJP V0201601N002612200019N0112651N1+02501+02301999999ADDGA1041+005401999GF104991999999999999999999MA1101081999999REMMET051METAR SBJP 220600Z 16005KT 9999 SCT018 25/23 Q1011;
0120827980999992007122207004-07100-034867FM-15+0066SBJP V0201401N001012200019N0112651N1+02501+02201999999ADDGA1041+005401999GF104991999999999999999999MA1101081999999REMMET051METAR SBJP 220700Z 14002KT 9999 SCT018 25/22 Q1011;
0120827980999992007122208004-07100-034867FM-15+0066SBJP V0201601N001512200019N0112651N1+02501+02301999999ADDGA1041+006001999GF104991999999999999999999MA1101191999999REMMET051METAR SBJP 220800Z 16003KT 9999 SCT020 25/23 Q1012;
0120827980999992007122209004-07100-034867FM-15+0066SBJP V0201401N002612200019N0112651N1+02601+02301999999ADDGA1021+006001999GF102991999999999999999999MA1101291999999REMMET051METAR SBJP 220900Z 14005KT 9999 FEW020 26/23 Q1013;
0120827980999992007122210004-07100-034867FM-15+0066SBJP V0201301N003612200019N0112651N1+02801+02201999999ADDGA1021+007501999GF102991999999999999999999MA1101291999999REMMET051METAR SBJP 221000Z 13007KT 9999 FEW025 28/22 Q1013;
0120827980999992007122211004-07100-034867FM-15+0066SBJP V0201201N003612200019N0112651N1+02901+02201999999ADDGA1041+009001999GF104991999999999999999999MA1101391999999REMMET051METAR SBJP 221100Z 12007KT 9999 SCT030 29/22 Q1014;
0120827980999992007122212004-07100-034867FM-15+0066SBJP V0201401N004112200019N0112651N1+02901+02201999999ADDGA1041+009001999GF104991999999999999999999MA1101391999999REMMET051METAR SBJP 221200Z 14008KT 9999 SCT030 29/22 Q1014;
0120827980999992007122213004-07100-034867FM-15+0066SBJP V0201201N005110090019N0112651N1+03001+02201999999ADDGA1071+009001999GF107991999999999999999999MA1101291999999REMMET051METAR SBJP 221300Z 12010KT 9999 BKN030 30/22 Q1013;
0120827980999992007122214004-07100-034867FM-15+0066SBJP V0201101N004112200019N0112651N1+03001+02101999999ADDGA1041+009001999GF104991999999999999999999MA1101291999999REMMET051METAR SBJP 221400Z 11008KT 9999 SCT030 30/21 Q1013;
0120827980999992007122215004-07100-034867FM-15+0066SBJP V0201201N004612200019N0112651N1+03101+02101999999ADDGA1041+009001999GF104991999999999999999999MA1101191999999REMMET051METAR SBJP 221500Z 12009KT 9999 SCT030 31/21 Q1012;
0120827980999992007122216004-07100-034867FM-15+0066SBJP V0201301N005112200019N0112651N1+03101+02101999999ADDGA1041+009001999GF104991999999999999999999MA1101191999999REMMET051METAR SBJP 221600Z 13010KT 9999 SCT030 31/21 Q1012;
0120827980999992007122217004-07100-034867FM-15+0066SBJP V0201301N003612200019N0112651N1+03101+02101999999ADDGA1041+009001999GF104991999999999999999999MA1101081999999REMMET051METAR SBJP 221700Z 13007KT 9999 SCT030 31/21 Q1011;
0120827980999992007122218004-07100-034867FM-15+0066SBJP V0201301N003612200019N0112651N1+03101+02101999999ADDGA1041+009001999GF104991999999999999999999MA1101081999999REMMET051METAR SBJP 221800Z 13007KT 9999 SCT030 31/21 Q1011;
0120827980999992007122219004-07100-034867FM-15+0066SBJP V0201401N003612200019N0112651N1+02801+02201999999ADDGA1041+007501999GF104991999999999999999999MA1101081999999REMMET051METAR SBJP 221900Z 14007KT 9999 SCT025 28/22 Q1011;
0120827980999992007122220004-07100-034867FM-15+0066SBJP V0201501N003612200019N0112651N1+02801+02201999999ADDGA1041+007501999GF104991999999999999999999MA1101081999999REMMET051METAR SBJP 222000Z 15007KT 9999 SCT025 28/22 Q1011;
0120827980999992007122221004-07100-034867FM-15+0066SBJP V0201401N002112200019N0112651N1+02701+02201999999ADDGA1021+006001999GF102991999999999999999999MA1101191999999REMMET051METAR SBJP 222100Z 14004KT 9999 FEW020 27/22 Q1012;
0120827980999992007122222004-07100-034867FM-15+0066SBJP V0201401N002612200019N0112651N1+02701+02201999999ADDGA1021+006001999GF102991999999999999999999MA1101191999999REMMET051METAR SBJP 222200Z 14005KT 9999 FEW020 27/22 Q1012;
0120827980999992007122223004-07100-034867FM-15+0066SBJP V0201301N002612200019N0112651N1+02701+02201999999ADDGA1021+006001999GF102991999999999999999999MA1101291999999REMMET051METAR SBJP 222300Z 13005KT 9999 FEW020 27/22 Q1013;
0120827980999992007122300004-07100-034867FM-15+0066SBJP V0201401N003612200019N0112651N1+02601+02201999999ADDGA1021+006001999GF102991999999999999999999MA1101291999999REMMET051METAR SBJP 230000Z 14007KT 9999 FEW020 26/22 Q1013;
0072827980999992007122301004-07100-034867FM-15+0066SBJP V0201401N00261220001CN0099001N1+02601+02201999999ADDMA1101291999999REMMET045METAR SBJP 230100Z 14005KT CAVOK 26/22 Q1013;
0072827980999992007122302004-07100-034867FM-15+0066SBJP V0201501N00211220001CN0099001N1+02601+02301999999ADDMA1101291999999REMMET045METAR SBJP 230200Z 15004KT CAVOK 26/23 Q1013;
0120827980999992007122303004-07100-034867FM-15+0066SBJP V0201401N001512200019N0112651N1+02601+02301999999ADDGA1021+006001999GF102991999999999999999999MA1101191999999REMMET051METAR SBJP 230300Z 14003KT 9999 FEW020 26/23 Q1012;
0120827980999992007122304004-07100-034867FM-15+0066SBJP V0201501N002112200019N0112651N1+02501+02201999999ADDGA1021+006001999GF102991999999999999999999MA1101081999999REMMET051METAR SBJP 230400Z 15004KT 9999 FEW020 25/22 Q1011;
0120827980999992007122305004-07100-034867FM-15+0066SBJP V0201401N002112200019N0112651N1+02601+02201999999ADDGA1041+006001999GF104991999999999999999999MA1101081999999REMMET051METAR SBJP 230500Z 14004KT 9999 SCT020 26/22 Q1011;
0120827980999992007122306004-07100-034867FM-15+0066SBJP V0201301N002612200019N0112651N1+02601+02201999999ADDGA1041+006001999GF104991999999999999999999MA1101081999999REMMET051METAR SBJP 230600Z 13005KT 9999 SCT020 26/22 Q1011;
0120827980999992007122307004-07100-034867FM-15+0066SBJP V0201501N002112200019N0112651N1+02501+02201999999ADDGA1021+006001999GF102991999999999999999999MA1101081999999REMMET051METAR SBJP 230700Z 15004KT 9999 FEW020 25/22 Q1011;
0120827980999992007122308004-07100-034867FM-15+0066SBJP V0201501N002112200019N0112651N1+02501+02201999999ADDGA1041+006001999GF104991999999999999999999MA1101191999999REMMET051METAR SBJP 230800Z 15004KT 9999 SCT020 25/22 Q1012;
0120827980999992007122309004-07100-034867FM-15+0066SBJP V0201501N001512200019N0112651N1+02601+02201999999ADDGA1021+006001999GF102991999999999999999999MA1101191999999REMMET051METAR SBJP 230900Z 15003KT 9999 FEW020 26/22 Q1012;
0120827980999992007122310004-07100-034867FM-15+0066SBJP V0201401N003612200019N0112651N1+02801+02101999999ADDGA1021+006001999GF102991999999999999999999MA1101291999999REMMET051METAR SBJP 231000Z 14007KT 9999 FEW020 28/21 Q1013;
0120827980999992007122311004-07100-034867FM-15+0066SBJP V0201501N003112200019N0112651N1+02901+02101999999ADDGA1041+007501999GF104991999999999999999999MA1101291999999REMMET051METAR SBJP 231100Z 15006KT 9999 SCT025 29/21 Q1013;
0120827980999992007122312004-07100-034867FM-15+0066SBJP V0201501N003612200019N0112651N1+03001+02001999999ADDGA1041+007501999GF104991999999999999999999MA1101391999999REMMET051METAR SBJP 231200Z 15007KT 9999 SCT025 30/20 Q1014;
0120827980999992007122313004-07100-034867FM-15+0066SBJP V0201301N003112200019N0112651N1+03101+02001999999ADDGA1041+009001999GF104991999999999999999999MA1101291999999REMMET051METAR SBJP 231300Z 13006KT 9999 SCT030 31/20 Q1013;
0120827980999992007122314004-07100-034867FM-15+0066SBJP V0201501N003112200019N0112651N1+03101+02001999999ADDGA1041+009001999GF104991999999999999999999MA1101291999999REMMET051METAR SBJP 231400Z 15006KT 9999 SCT030 31/20 Q1013;
0120827980999992007122315004-07100-034867FM-15+0066SBJP V0201401N003612200019N0112651N1+03101+02101999999ADDGA1041+009001999GF104991999999999999999999MA1101191999999REMMET051METAR SBJP 231500Z 14007KT 9999 SCT030 31/21 Q1012;
0120827980999992007122316004-07100-034867FM-15+0066SBJP V0201401N004112200019N0112651N1+03001+02001999999ADDGA1041+009001999GF104991999999999999999999MA1101191999999REMMET051METAR SBJP 231600Z 14008KT 9999 SCT030 30/20 Q1012;
0120827980999992007122317004-07100-034867FM-15+0066SBJP V0201301N003112200019N0112651N1+03101+01901999999ADDGA1041+009001999GF104991999999999999999999MA1101081999999REMMET051METAR SBJP 231700Z 13006KT 9999 SCT030 31/19 Q1011;
0120827980999992007122318004-07100-034867FM-15+0066SBJP V0201501N004112200019N0112651N1+03001+02001999999ADDGA1041+009001999GF104991999999999999999999MA1101081999999REMMET051METAR SBJP 231800Z 15008KT 9999 SCT030 30/20 Q1011;
0120827980999992007122319004-07100-034867FM-15+0066SBJP V0201401N004612200019N0112651N1+02901+02101999999ADDGA1021+009001999GF102991999999999999999999MA1101081999999REMMET051METAR SBJP 231900Z 14009KT 9999 FEW030 29/21 Q1011;
0120827980999992007122320004-07100-034867FM-15+0066SBJP V0201501N003612200019N0112651N1+02801+02101999999ADDGA1021+009001999GF102991999999999999999999MA1101081999999REMMET051METAR SBJP 232000Z 15007KT 9999 FEW030 28/21 Q1011;
0120827980999992007122321004-07100-034867FM-15+0066SBJP V0201501N003612200019N0112651N1+02701+02101999999ADDGA1021+009001999GF102991999999999999999999MA1101191999999REMMET051METAR SBJP 232100Z 15007KT 9999 FEW030 27/21 Q1012;
0120827980999992007122322004-07100-034867FM-15+0066SBJP V0201501N003112200019N0112651N1+02601+02101999999ADDGA1021+009001999GF102991999999999999999999MA1101291999999REMMET051METAR SBJP 232200Z 15006KT 9999 FEW030 26/21 Q1013;
0072827980999992007122323004-07100-034867FM-15+0066SBJP V0201601N00211220001CN0099001N1+02601+02101999999ADDMA1101291999999REMMET045METAR SBJP 232300Z 16004KT CAVOK 26/21 Q1013;
0072827980999992007122400004-07100-034867FM-15+0066SBJP V0201501N00211220001CN0099001N1+02501+02101999999ADDMA1101291999999REMMET045METAR SBJP 240000Z 15004KT CAVOK 25/21 Q1013;
0072827980999992007122401004-07100-034867FM-15+0066SBJP V0201601N00311220001CN0099001N1+02501+02101999999ADDMA1101291999999REMMET045METAR SBJP 240100Z 16006KT CAVOK 25/21 Q1013;
0072827980999992007122402004-07100-034867FM-15+0066SBJP V0201801N00211220001CN0099001N1+02401+02101999999ADDMA1101291999999REMMET045METAR SBJP 240200Z 18004KT CAVOK 24/21 Q1013;
0072827980999992007122403004-07100-034867FM-15+0066SBJP V0202001N00101220001CN0099001N1+02401+02101999999ADDMA1101191999999REMMET045METAR SBJP 240300Z 20002KT CAVOK 24/21 Q1012;
0120827980999992007122404004-07100-034867FM-15+0066SBJP V0202301N001012200019N0112651N1+02301+02101999999ADDGA1041+009001999GF104991999999999999999999MA1101191999999REMMET051METAR SBJP 240400Z 23002KT 9999 SCT030 23/21 Q1012;
0120827980999992007122405004-07100-034867FM-15+0066SBJP V0202401N001512200019N0112651N1+02301+02001999999ADDGA1041+009001999GF104991999999999999999999MA1101191999999REMMET051METAR SBJP 240500Z 24003KT 9999 SCT030 23/20 Q1012;
0120827980999992007122406004-07100-034867FM-15+0066SBJP V0202401N001512200019N0112651N1+02201+02001999999ADDGA1041+006001999GF104991999999999999999999MA1101081999999REMMET051METAR SBJP 240600Z 24003KT 9999 SCT020 22/20 Q1011;
0120827980999992007122407004-07100-034867FM-15+0066SBJP V0202301N001512200019N0112651N1+02201+02001999999ADDGA1041+006001999GF104991999999999999999999MA1101081999999REMMET051METAR SBJP 240700Z 23003KT 9999 SCT020 22/20 Q1011;
0120827980999992007122408004-07100-034867FM-15+0066SBJP V0202301N001512200019N0112651N1+02201+02001999999ADDGA1041+006001999GF104991999999999999999999MA1101191999999REMMET051METAR SBJP 240800Z 23003KT 9999 SCT020 22/20 Q1012;
0120827980999992007122409004-07100-034867FM-15+0066SBJP V0202201N002112200019N0112651N1+02301+02101999999ADDGA1041+006001999GF104991999999999999999999MA1101191999999REMMET051METAR SBJP 240900Z 22004KT 9999 SCT020 23/21 Q1012;
0120827980999992007122410004-07100-034867FM-15+0066SBJP V0202101N003112200019N0112651N1+02601+02101999999ADDGA1021+007501999GF102991999999999999999999MA1101291999999REMMET051METAR SBJP 241000Z 21006KT 9999 FEW025 26/21 Q1013;
0120827980999992007122411004-07100-034867FM-15+0066SBJP V0201901N003110075019N0112651N1+02601+02201999999ADDGA1071+007501999GF107991999999999999999999MA1101391999999REMMET051METAR SBJP 241100Z 19006KT 9999 BKN025 26/22 Q1014;
0120827980999992007122412004-07100-034867FM-15+0066SBJP V0201801N003110075019N0112651N1+02801+02201999999ADDGA1071+007501999GF107991999999999999999999MA1101391999999REMMET051METAR SBJP 241200Z 18006KT 9999 BKN025 28/22 Q1014;
0120827980999992007122413004-07100-034867FM-15+0066SBJP V0202001N003610075019N0112651N1+02901+02101999999ADDGA1071+007501999GF107991999999999999999999MA1101391999999REMMET051METAR SBJP 241300Z 20007KT 9999 BKN025 29/21 Q1014;
0120827980999992007122414004-07100-034867FM-15+0066SBJP V0201501N004610075019N0112651N1+03001+02001999999ADDGA1071+007501999GF107991999999999999999999MA1101291999999REMMET051METAR SBJP 241400Z 15009KT 9999 BKN025 30/20 Q1013;
0120827980999992007122415004-07100-034867FM-15+0066SBJP V0201701N005112200019N0112651N1+03101+01901999999ADDGA1041+009001999GF104991999999999999999999MA1101291999999REMMET051METAR SBJP 241500Z 17010KT 9999 SCT030 31/19 Q1013;
0120827980999992007122416004-07100-034867FM-15+0066SBJP V0201201N005112200019N0112651N1+03101+02101999999ADDGA1041+009001999GF104991999999999999999999MA1101191999999REMMET051METAR SBJP 241600Z 12010KT 9999 SCT030 31/21 Q1012;
0120827980999992007122417004-07100-034867FM-15+0066SBJP V0201601N005112200019N0112651N1+03101+02001999999ADDGA1041+009001999GF104991999999999999999999MA1101081999999REMMET051METAR SBJP 241700Z 16010KT 9999 SCT030 31/20 Q1011;
0120827980999992007122418004-07100-034867FM-15+0066SBJP V0201501N005112200019N0112651N1+03001+02001999999ADDGA1041+006001999GF104991999999999999999999MA1101021999999REMMET051METAR SBJP 241800Z 15010KT 9999 SCT020 30/20 Q1010;
0120827980999992007122419004-07100-034867FM-15+0066SBJP V0201601N004112200019N0112651N1+02901+02001999999ADDGA1041+006001999GF104991999999999999999999MA1101021999999REMMET051METAR SBJP 241900Z 16008KT 9999 SCT020 29/20 Q1010;
0120827980999992007122420004-07100-034867FM-15+0066SBJP V0201601N004112200019N0112651N1+02701+02101999999ADDGA1041+006001999GF104991999999999999999999MA1101021999999REMMET051METAR SBJP 242000Z 16008KT 9999 SCT020 27/21 Q1010;
0120827980999992007122421004-07100-034867FM-15+0066SBJP V0201601N005112200019N0112651N1+02601+02101999999ADDGA1021+006001999GF102991999999999999999999MA1101081999999REMMET051METAR SBJP 242100Z 16010KT 9999 FEW020 26/21 Q1011;
0120827980999992007122422004-07100-034867FM-15+0066SBJP V0201601N004112200019N0112651N1+02601+02101999999ADDGA1021+006001999GF102991999999999999999999MA1101081999999REMMET051METAR SBJP 242200Z 16008KT 9999 FEW020 26/21 Q1011;
0120827980999992007122423004-07100-034867FM-15+0066SBJP V0201501N003112200019N0112651N1+02601+02101999999ADDGA1021+006001999GF102991999999999999999999MA1101191999999REMMET051METAR SBJP 242300Z 15006KT 9999 FEW020 26/21 Q1012;
0120827980999992007122500004-07100-034867FM-15+0066SBJP V0201801N001012200019N0112651N1+02501+02101999999ADDGA1021+006001999GF102991999999999999999999MA1101191999999REMMET051METAR SBJP 250000Z 18002KT 9999 FEW020 25/21 Q1012;
0120827980999992007122501004-07100-034867FM-15+0066SBJP V0202001N001012200019N0112651N1+02601+02101999999ADDGA1021+006001999GF102991999999999999999999MA1101191999999REMMET051METAR SBJP 250100Z 20002KT 9999 FEW020 26/21 Q1012;
0072827980999992007122502004-07100-034867FM-15+0066SBJP V0201601N00101220001CN0099001N1+02601+02101999999ADDMA1101191999999REMMET045METAR SBJP 250200Z 16002KT CAVOK 26/21 Q1012;
0072827980999992007122503004-07100-034867FM-15+0066SBJP V0201201N00101220001CN0099001N1+02601+02101999999ADDMA1101191999999REMMET045METAR SBJP 250300Z 12002KT CAVOK 26/21 Q1012;
0072827980999992007122504004-07100-034867FM-15+0066SBJP V0201401N00151220001CN0099001N1+02601+02201999999ADDMA1101081999999REMMET045METAR SBJP 250400Z 14003KT CAVOK 26/22 Q1011;
0072827980999992007122505004-07100-034867FM-15+0066SBJP V0202601N00101220001CN0099001N1+02401+02101999999ADDMA1101081999999REMMET045METAR SBJP 250500Z 26002KT CAVOK 24/21 Q1011;
0143827980999992007122506004-07100-034867FM-15+0066SBJP V0202601N001010210019N0112651N1+02401+02201999999ADDGA1041+002401999GA2071+021001999GF107991999999999999999999MA1101081999999REMMET058METAR SBJP 250600Z 26002KT 9999 SCT008 BKN070 24/22 Q1011;
0143827980999992007122507004-07100-034867FM-15+0066SBJP V0202601N001012200019N0112651N1+02401+02201999999ADDGA1041+006001999GA2041+021001999GF104991999999999999999999MA1101081999999REMMET058METAR SBJP 250700Z 26002KT 9999 SCT020 SCT070 24/22 Q1011;
0143827980999992007122508004-07100-034867FM-15+0066SBJP V0202401N001512200019N0112651N1+02301+02101999999ADDGA1021+006001999GA2041+021001999GF104991999999999999999999MA1101191999999REMMET058METAR SBJP 250800Z 24003KT 9999 FEW020 SCT070 23/21 Q1012;
0143827980999992007122509004-07100-034867FM-15+0066SBJP V0202401N002112200019N0112651N1+02301+02201999999ADDGA1021+006001999GA2041+027001999GF104991999999999999999999MA1101191999999REMMET058METAR SBJP 250900Z 24004KT 9999 FEW020 SCT090 23/22 Q1012;
0143827980999992007122510004-07100-034867FM-15+0066SBJP V0202401N002112200019N0112651N1+02601+02301999999ADDGA1021+006001999GA2041+027001999GF104991999999999999999999MA1101291999999REMMET058METAR SBJP 251000Z 24004KT 9999 FEW020 SCT090 26/23 Q1013;
0143827980999992007122511004-07100-034867FM-15+0066SBJP V0201501N003112200019N0112651N1+02701+02201999999ADDGA1041+006001999GA2041+027001999GF104991999999999999999999MA1101291999999REMMET058METAR SBJP 251100Z 15006KT 9999 SCT020 SCT090 27/22 Q1013;
0143827980999992007122512004-07100-034867FM-15+0066SBJP V0201401N003112200019N0112651N1+02901+02201999999ADDGA1041+006001999GA2041+027001999GF104991999999999999999999MA1101291999999REMMET058METAR SBJP 251200Z 14006KT 9999 SCT020 SCT093 29/22 Q1013;
0143827980999992007122513004-07100-034867FM-15+0066SBJP V0202001N003112200019N0112651N1+02901+02101999999ADDGA1041+006001999GA2041+030001999GF104991999999999999999999MA1101291999999REMMET058METAR SBJP 251300Z 20006KT 9999 SCT020 SCT100 29/21 Q1013;
0120827980999992007122514004-07100-034867FM-15+0066SBJP V0201501N004112200019N0112651N1+03001+02101999999ADDGA1041+006001999GF104991999999999999999999MA1101191999999REMMET051METAR SBJP 251400Z 15008KT 9999 SCT020 30/21 Q1012;
0120827980999992007122515004-07100-034867FM-15+0066SBJP V0201401N004112200019N0112651N1+03101+02101999999ADDGA1041+006001999GF104991999999999999999999MA1101191999999REMMET051METAR SBJP 251500Z 14008KT 9999 SCT020 31/21 Q1012;
0120827980999992007122516004-07100-034867FM-15+0066SBJP V0201501N005112200019N0112651N1+03101+02001999999ADDGA1041+006001999GF104991999999999999999999MA1101191999999REMMET051METAR SBJP 251600Z 15010KT 9999 SCT020 31/20 Q1012;
0120827980999992007122517004-07100-034867FM-15+0066SBJP V0201301N004112200019N0112651N1+03101+02001999999ADDGA1041+006001999GF104991999999999999999999MA1101191999999REMMET051METAR SBJP 251700Z 13008KT 9999 SCT020 31/20 Q1012;
0120827980999992007122518004-07100-034867FM-15+0066SBJP V0201401N005112200019N0112651N1+02901+02201999999ADDGA1041+006001999GF104991999999999999999999MA1101021999999REMMET051METAR SBJP 251800Z 14010KT 9999 SCT020 29/22 Q1010;
0120827980999992007122519004-07100-034867FM-15+0066SBJP V0201601N005112200019N0112651N1+02901+02201999999ADDGA1041+006001999GF104991999999999999999999MA1101021999999REMMET051METAR SBJP 251900Z 16010KT 9999 SCT020 29/22 Q1010;
0120827980999992007122520004-07100-034867FM-15+0066SBJP V0201401N005112200019N0112651N1+02801+02101999999ADDGA1021+006001999GF102991999999999999999999MA1101021999999REMMET051METAR SBJP 252000Z 14010KT 9999 FEW020 28/21 Q1010;
0120827980999992007122521004-07100-034867FM-15+0066SBJP V0201401N004112200019N0112651N1+02701+02101999999ADDGA1021+006001999GF102991999999999999999999MA1101081999999REMMET051METAR SBJP 252100Z 14008KT 9999 FEW020 27/21 Q1011;
0120827980999992007122522004-07100-034867FM-15+0066SBJP V0201401N003612200019N0112651N1+02601+02101999999ADDGA1021+006001999GF102991999999999999999999MA1101191999999REMMET051METAR SBJP 252200Z 14007KT 9999 FEW020 26/21 Q1012;
0120827980999992007122523004-07100-034867FM-15+0066SBJP V0201401N002112200019N0112651N1+02601+02201999999ADDGA1021+006001999GF102991999999999999999999MA1101191999999REMMET051METAR SBJP 252300Z 14004KT 9999 FEW020 26/22 Q1012;
0120827980999992007122600004-07100-034867FM-15+0066SBJP V0201501N002112200019N0112651N1+02601+02201999999ADDGA1041+007501999GF104991999999999999999999MA1101191999999REMMET051METAR SBJP 260000Z 15004KT 9999 SCT025 26/22 Q1012;
0120827980999992007122601004-07100-034867FM-15+0066SBJP V0201301N002112200019N0112651N1+02601+02201999999ADDGA1041+007501999GF104991999999999999999999MA1101291999999REMMET051METAR SBJP 260100Z 13004KT 9999 SCT025 26/22 Q1013;
0120827980999992007122602004-07100-034867FM-15+0066SBJP V0201301N002112200019N0112651N1+02501+02201999999ADDGA1041+007501999GF104991999999999999999999MA1101291999999REMMET051METAR SBJP 260200Z 13004KT 9999 SCT025 25/22 Q1013;
0120827980999992007122603004-07100-034867FM-15+0066SBJP V0201301N002612200019N0112651N1+02601+02201999999ADDGA1041+007501999GF104991999999999999999999MA1101191999999REMMET051METAR SBJP 260300Z 13005KT 9999 SCT025 26/22 Q1012;
0072827980999992007122604004-07100-034867FM-15+0066SBJP V0201601N00211220001CN0099001N1+02401+02101999999ADDMA1101081999999REMMET045METAR SBJP 260400Z 16004KT CAVOK 24/21 Q1011;
0072827980999992007122605004-07100-034867FM-15+0066SBJP V0201601N00101220001CN0099001N1+02401+02101999999ADDMA1101081999999REMMET045METAR SBJP 260500Z 16002KT CAVOK 24/21 Q1011;
0072827980999992007122606004-07100-034867FM-15+0066SBJP V0201801N00211220001CN0099001N1+02401+02201999999ADDMA1101081999999REMMET045METAR SBJP 260600Z 18004KT CAVOK 24/22 Q1011;
0072827980999992007122607004-07100-034867FM-15+0066SBJP V0201801N00211220001CN0099001N1+02401+02201999999ADDMA1101081999999REMMET045METAR SBJP 260700Z 18004KT CAVOK 24/22 Q1011;
0120827980999992007122608004-07100-034867FM-15+0066SBJP V0202401N002112200019N0112651N1+02401+02201999999ADDGA1041+006001999GF104991999999999999999999MA1101081999999REMMET051METAR SBJP 260800Z 24004KT 9999 SCT020 24/22 Q1011;
0120827980999992007122609004-07100-034867FM-15+0066SBJP V0201701N002112200019N0112651N1+02501+02301999999ADDGA1041+006001999GF104991999999999999999999MA1101191999999REMMET051METAR SBJP 260900Z 17004KT 9999 SCT020 25/23 Q1012;
0120827980999992007122610004-07100-034867FM-15+0066SBJP V0201601N004610060019N0112651N1+02801+02301999999ADDGA1071+006001999GF107991999999999999999999MA1101191999999REMMET051METAR SBJP 261000Z 16009KT 9999 BKN020 28/23 Q1012;
0143827980999992007122611004-07100-034867FM-15+0066SBJP V0201301N004612200019N0112651N1+02901+02201999999ADDGA1041+007501999GA2041+024001999GF104991999999999999999999MA1101291999999REMMET058METAR SBJP 261100Z 13009KT 9999 SCT025 SCT080 29/22 Q1013;
0136827980999992007122612004-07100-034867FM-15+0066SBJP V0201401N00461220001CN0112651N1+02901+02201999999ADDGA1071+007501999GA2041+024001999MA1101291999999REMMET058METAR SBJP 261200Z 14009KT 9999 BKN025 SCT080 29/22 Q1013;EQDQ01+000042SCOTCV
0143827980999992007122613004-07100-034867FM-15+0066SBJP V0201601N005112200019N0112651N1+03001+02101999999ADDGA1041+007501999GA2041+024001999GF104991999999999999999999MA1101291999999REMMET058METAR SBJP 261300Z 16010KT 9999 SCT025 SCT080 30/21 Q1013;
0146827980999992007122614004-07100-034867FM-15+0066SBJP V0201101N00461220001CN0050001N1+02701+02301999999ADDGA1071+006001999GA2041+024001999MA1101291999999MW1611REMMET062METAR SBJP 261400Z 11009KT 5000 -RA BKN020 SCT080 27/23 Q1013;EQDQ01+000042SCOTCV
0148827980999992007122615004-07100-034867FM-15+0066SBJP V0200901N003610060019N0112651N1+02401+02301999999ADDGA1041+003601999GA2071+006001999GF107991999999999999999999MA1101291999999REMMET063METAR SBJP 261500Z 09007KT 9999 SCT012 BKN020 24/23 Q1013 RERA;
0176827980999992007122616004-07100-034867FM-15+0066SBJP V0201101N003110060019N0030001N1+02701+02401999999ADDGA1041+003601999GA2071+006001999GA3071+021001999GF107991999999999999999999MA1101191999999MW1611REMMET069METAR SBJP 261600Z 11006KT 3000 -RA SCT012 BKN020 BKN070 27/24 Q1012;
0143827980999992007122617004-07100-034867FM-15+0066SBJP V0201201N003610060019N0112651N1+02801+02201999999ADDGA1071+006001999GA2071+021001999GF107991999999999999999999MA1101081999999REMMET058METAR SBJP 261700Z 12007KT 9999 BKN020 BKN070 28/22 Q1011;
0169827980999992007122618004-07100-034867FM-15+0066SBJP V0201001N003612200019N0112651N1+02901+02301999999ADDGA1041+006001999GA2021+007501021GA3041+021001999GF104991999999999999999999MA1101081999999REMMET068METAR SBJP 261800Z 10007KT 9999 SCT020 FEW025TCU SCT070 29/23 Q1011;
0169827980999992007122619004-07100-034867FM-15+0066SBJP V0201301N004612200019N0112651N1+02801+02101999999ADDGA1041+006001999GA2021+007501021GA3041+021001999GF104991999999999999999999MA1101081999999REMMET068METAR SBJP 261900Z 13009KT 9999 SCT020 FEW025TCU SCT070 28/21 Q1011;
0143827980999992007122620004-07100-034867FM-15+0066SBJP V0201301N003610210019N0112651N1+02701+02201999999ADDGA1021+007501999GA2071+021001999GF107991999999999999999999MA1101081999999REMMET058METAR SBJP 262000Z 13007KT 9999 FEW025 BKN070 27/22 Q1011;
0143827980999992007122621004-07100-034867FM-15+0066SBJP V0201401N002612200019N0112651N1+02601+02301999999ADDGA1021+006001999GA2041+021001999GF104991999999999999999999MA1101081999999REMMET058METAR SBJP 262100Z 14005KT 9999 FEW020 SCT070 26/23 Q1011;
0120827980999992007122622004-07100-034867FM-15+0066SBJP V0201501N003112200019N0112651N1+02601+02301999999ADDGA1041+006001999GF104991999999999999999999MA1101081999999REMMET051METAR SBJP 262200Z 15006KT 9999 SCT020 26/23 Q1011;
0120827980999992007122623004-07100-034867FM-15+0066SBJP V0201501N002112200019N0112651N1+02601+02301999999ADDGA1041+006001999GF104991999999999999999999MA1101191999999REMMET051METAR SBJP 262300Z 15004KT 9999 SCT020 26/23 Q1012;
0120827980999992007122700004-07100-034867FM-15+0066SBJP V0201601N002112200019N0112651N1+02501+02201999999ADDGA1041+006001999GF104991999999999999999999MA1101191999999REMMET051METAR SBJP 270000Z 16004KT 9999 SCT020 25/22 Q1012;
0120827980999992007122701004-07100-034867FM-15+0066SBJP V0201501N002112200019N0112651N1+02501+02301999999ADDGA1041+006001999GF104991999999999999999999MA1101191999999REMMET051METAR SBJP 270100Z 15004KT 9999 SCT020 25/23 Q1012;
0120827980999992007122702004-07100-034867FM-15+0066SBJP V0201401N002610060019N0112651N1+02501+02301999999ADDGA1071+006001999GF107991999999999999999999MA1101191999999REMMET051METAR SBJP 270200Z 14005KT 9999 BKN020 25/23 Q1012;
0120827980999992007122703004-07100-034867FM-15+0066SBJP V0201701N001010060019N0112651N1+02401+02201999999ADDGA1071+006001999GF107991999999999999999999MA1101191999999REMMET051METAR SBJP 270300Z 17002KT 9999 BKN020 24/22 Q1012;
0143827980999992007122704004-07100-034867FM-15+0066SBJP V0201401N002112200019N0112651N1+02401+02301999999ADDGA1041+005401999GA2041+021001999GF104991999999999999999999MA1101081999999REMMET058METAR SBJP 270400Z 14004KT 9999 SCT018 SCT070 24/23 Q1011;
0143827980999992007122705004-07100-034867FM-15+0066SBJP V0201301N002110210019N0112651N1+02501+02301999999ADDGA1021+005401999GA2071+021001999GF107991999999999999999999MA1101021999999REMMET058METAR SBJP 270500Z 13004KT 9999 FEW018 BKN070 25/23 Q1010;
0143827980999992007122706004-07100-034867FM-15+0066SBJP V0201401N001510210019N0112651N1+02501+02301999999ADDGA1021+005401999GA2071+021001999GF107991999999999999999999MA1101021999999REMMET058METAR SBJP 270600Z 14003KT 9999 FEW018 BKN070 25/23 Q1010;
0143827980999992007122707004-07100-034867FM-15+0066SBJP V0201501N001512200019N0112651N1+02501+02201999999ADDGA1041+005401999GA2041+021001999GF104991999999999999999999MA1101021999999REMMET058METAR SBJP 270700Z 15003KT 9999 SCT018 SCT070 25/22 Q1010;
0143827980999992007122708004-07100-034867FM-15+0066SBJP V0201301N001012200019N0112651N1+02401+02301999999ADDGA1021+005401999GA2041+021001999GF104991999999999999999999MA1101021999999REMMET058METAR SBJP 270800Z 13002KT 9999 FEW018 SCT070 24/23 Q1010;
0143827980999992007122709004-07100-034867FM-15+0066SBJP V0201001N001512200019N0112651N1+02601+02301999999ADDGA1041+006001999GA2041+021001999GF104991999999999999999999MA1101081999999REMMET058METAR SBJP 270900Z 10003KT 9999 SCT020 SCT070 26/23 Q1011;
0120827980999992007122710004-07100-034867FM-15+0066SBJP V0201101N003612200019N0112651N1+02701+02301999999ADDGA1041+006001999GF104991999999999999999999MA1101081999999REMMET051METAR SBJP 271000Z 11007KT 9999 SCT020 27/23 Q1011;
0120827980999992007122711004-07100-034867FM-15+0066SBJP V0201201N004612200019N0112651N1+02801+02201999999ADDGA1041+007501999GF104991999999999999999999MA1101191999999REMMET051METAR SBJP 271100Z 12009KT 9999 SCT025 28/22 Q1012;
0120827980999992007122712004-07100-034867FM-15+0066SBJP V0201101N004112200019N0112651N1+02901+02201999999ADDGA1041+009001999GF104991999999999999999999MA1101191999999REMMET051METAR SBJP 271200Z 11008KT 9999 SCT030 29/22 Q1012;
0120827980999992007122713004-07100-034867FM-15+0066SBJP V0201101N004612200019N0112651N1+02901+02201999999ADDGA1041+009001999GF104991999999999999999999MA1101191999999REMMET051METAR SBJP 271300Z 11009KT 9999 SCT030 29/22 Q1012;
0120827980999992007122714004-07100-034867FM-15+0066SBJP V0201301N005112200019N0112651N1+02901+02301999999ADDGA1041+009001999GF104991999999999999999999MA1101081999999REMMET051METAR SBJP 271400Z 13010KT 9999 SCT030 29/23 Q1011;
0120827980999992007122715004-07100-034867FM-15+0066SBJP V0201301N005712200019N0112651N1+03001+02201999999ADDGA1041+009001999GF104991999999999999999999MA1101081999999REMMET051METAR SBJP 271500Z 13011KT 9999 SCT030 30/22 Q1011;
0120827980999992007122716004-07100-034867FM-15+0066SBJP V0201501N005112200019N0112651N1+03001+02201999999ADDGA1041+009001999GF104991999999999999999999MA1101021999999REMMET051METAR SBJP 271600Z 15010KT 9999 SCT030 30/22 Q1010;
0120827980999992007122717004-07100-034867FM-15+0066SBJP V0201401N004112200019N0112651N1+03001+02201999999ADDGA1041+009001999GF104991999999999999999999MA1101021999999REMMET051METAR SBJP 271700Z 14008KT 9999 SCT030 30/22 Q1010;
0120827980999992007122718004-07100-034867FM-15+0066SBJP V0201401N005112200019N0112651N1+02901+02101999999ADDGA1041+009001999GF104991999999999999999999MA1101021999999REMMET051METAR SBJP 271800Z 14010KT 9999 SCT030 29/21 Q1010;
0120827980999992007122719004-07100-034867FM-15+0066SBJP V0201401N005112200019N0112651N1+02901+02101999999ADDGA1041+009001999GF104991999999999999999999MA1101021999999REMMET051METAR SBJP 271900Z 14010KT 9999 SCT030 29/21 Q1010;
0120827980999992007122720004-07100-034867FM-15+0066SBJP V0201401N004112200019N0112651N1+02801+02101999999ADDGA1041+009001999GF104991999999999999999999MA1101021999999REMMET051METAR SBJP 272000Z 14008KT 9999 SCT030 28/21 Q1010;
0120827980999992007122721004-07100-034867FM-15+0066SBJP V0201401N003112200019N0112651N1+02701+02101999999ADDGA1041+009001999GF104991999999999999999999MA1101021999999REMMET051METAR SBJP 272100Z 14006KT 9999 SCT030 27/21 Q1010;
0120827980999992007122722004-07100-034867FM-15+0066SBJP V0201501N002612200019N0112651N1+02701+02201999999ADDGA1021+009001999GF102991999999999999999999MA1101081999999REMMET051METAR SBJP 272200Z 15005KT 9999 FEW030 27/22 Q1011;
0120827980999992007122723004-07100-034867FM-15+0066SBJP V0201501N002612200019N0112651N1+02601+02201999999ADDGA1021+009001999GF102991999999999999999999MA1101191999999REMMET051METAR SBJP 272300Z 15005KT 9999 FEW030 26/22 Q1012;
0120827980999992007122800004-07100-034867FM-15+0066SBJP V0201401N003112200019N0112651N1+02601+02101999999ADDGA1021+009001999GF102991999999999999999999MA1101191999999REMMET051METAR SBJP 280000Z 14006KT 9999 FEW030 26/21 Q1012;
0120827980999992007122801004-07100-034867FM-15+0066SBJP V0201501N002612200019N0112651N1+02601+02201999999ADDGA1021+009001999GF102991999999999999999999MA1101191999999REMMET051METAR SBJP 280100Z 15005KT 9999 FEW030 26/22 Q1012;
0120827980999992007122802004-07100-034867FM-15+0066SBJP V0201501N002112200019N0112651N1+02601+02101999999ADDGA1021+009001999GF102991999999999999999999MA1101191999999REMMET051METAR SBJP 280200Z 15004KT 9999 FEW030 26/21 Q1012;
0120827980999992007122803004-07100-034867FM-15+0066SBJP V0201501N002112200019N0112651N1+02601+02101999999ADDGA1041+009001999GF104991999999999999999999MA1101081999999REMMET051METAR SBJP 280300Z 15004KT 9999 SCT030 26/21 Q1011;
0120827980999992007122804004-07100-034867FM-15+0066SBJP V0201301N002112200019N0112651N1+02501+02101999999ADDGA1041+006001999GF104991999999999999999999MA1101081999999REMMET051METAR SBJP 280400Z 13004KT 9999 SCT020 25/21 Q1011;
0120827980999992007122805004-07100-034867FM-15+0066SBJP V0201801N001512200019N0112651N1+02401+02101999999ADDGA1021+006001999GF102991999999999999999999MA1101081999999REMMET051METAR SBJP 280500Z 18003KT 9999 FEW020 24/21 Q1011;
0072827980999992007122806004-07100-034867FM-15+0066SBJP V0201401N00211220001CN0099001N1+02401+02101999999ADDMA1101021999999REMMET045METAR SBJP 280600Z 14004KT CAVOK 24/21 Q1010;
0072827980999992007122807004-07100-034867FM-15+0066SBJP V0201601N00101220001CN0099001N1+02401+02101999999ADDMA1101021999999REMMET045METAR SBJP 280700Z 16002KT CAVOK 24/21 Q1010;
0072827980999992007122808004-07100-034867FM-15+0066SBJP V0201801N00101220001CN0099001N1+02301+02101999999ADDMA1101081999999REMMET045METAR SBJP 280800Z 18002KT CAVOK 23/21 Q1011;
0120827980999992007122809004-07100-034867FM-15+0066SBJP V0202001N001012200019N0112651N1+02301+02101999999ADDGA1021+006001999GF102991999999999999999999MA1101081999999REMMET051METAR SBJP 280900Z 20002KT 9999 FEW020 23/21 Q1011;
0120827980999992007122810004-07100-034867FM-15+0066SBJP V0201601N002612200019N0112651N1+02601+02201999999ADDGA1041+006001999GF104991999999999999999999MA1101191999999REMMET051METAR SBJP 281000Z 16005KT 9999 SCT020 26/22 Q1012;
0120827980999992007122811004-07100-034867FM-15+0066SBJP V0201501N004612200019N0112651N1+02801+02101999999ADDGA1041+007501999GF104991999999999999999999MA1101291999999REMMET051METAR SBJP 281100Z 15009KT 9999 SCT025 28/21 Q1013;
0120827980999992007122812004-07100-034867FM-15+0066SBJP V0201601N004112200019N0112651N1+02901+01901999999ADDGA1041+009001999GF104991999999999999999999MA1101291999999REMMET051METAR SBJP 281200Z 16008KT 9999 SCT030 29/19 Q1013;
0120827980999992007122813004-07100-034867FM-15+0066SBJP V0201601N004612200019N0112651N1+02901+02001999999ADDGA1041+009001999GF104991999999999999999999MA1101291999999REMMET051METAR SBJP 281300Z 16009KT 9999 SCT030 29/20 Q1013;
0120827980999992007122814004-07100-034867FM-15+0066SBJP V0201601N004112200019N0112651N1+03001+02001999999ADDGA1041+009601999GF104991999999999999999999MA1101291999999REMMET051METAR SBJP 281400Z 16008KT 9999 SCT032 30/20 Q1013;
0120827980999992007122815004-07100-034867FM-15+0066SBJP V0201501N004612200019N0112651N1+03001+02001999999ADDGA1041+009601999GF104991999999999999999999MA1101191999999REMMET051METAR SBJP 281500Z 15009KT 9999 SCT032 30/20 Q1012;
0120827980999992007122816004-07100-034867FM-15+0066SBJP V0201601N005712200019N0112651N1+03001+02001999999ADDGA1041+009001999GF104991999999999999999999MA1101191999999REMMET051METAR SBJP 281600Z 16011KT 9999 SCT030 30/20 Q1012;
0120827980999992007122817004-07100-034867FM-15+0066SBJP V0201601N006212200019N0112651N1+03001+02001999999ADDGA1041+009001999GF104991999999999999999999MA1101081999999REMMET051METAR SBJP 281700Z 16012KT 9999 SCT030 30/20 Q1011;
0120827980999992007122818004-07100-034867FM-15+0066SBJP V0201401N005112200019N0112651N1+03001+02001999999ADDGA1041+009001999GF104991999999999999999999MA1101081999999REMMET051METAR SBJP 281800Z 14010KT 9999 SCT030 30/20 Q1011;
0120827980999992007122819004-07100-034867FM-15+0066SBJP V0201501N004612200019N0112651N1+02901+02101999999ADDGA1041+009001999GF104991999999999999999999MA1101081999999REMMET051METAR SBJP 281900Z 15009KT 9999 SCT030 29/21 Q1011;
0120827980999992007122820004-07100-034867FM-15+0066SBJP V0201501N004612200019N0112651N1+02801+02101999999ADDGA1041+009001999GF104991999999999999999999MA1101081999999REMMET051METAR SBJP 282000Z 15009KT 9999 SCT030 28/21 Q1011;
0120827980999992007122821004-07100-034867FM-15+0066SBJP V0201501N004112200019N0112651N1+02701+02101999999ADDGA1021+009001999GF102991999999999999999999MA1101081999999REMMET051METAR SBJP 282100Z 15008KT 9999 FEW030 27/21 Q1011;
0120827980999992007122822004-07100-034867FM-15+0066SBJP V0201501N003112200019N0112651N1+02601+02101999999ADDGA1021+009001999GF102991999999999999999999MA1101191999999REMMET051METAR SBJP 282200Z 15006KT 9999 FEW030 26/21 Q1012;
0120827980999992007122823004-07100-034867FM-15+0066SBJP V0201401N003112200019N0112651N1+02601+02101999999ADDGA1021+009001999GF102991999999999999999999MA1101191999999REMMET051METAR SBJP 282300Z 14006KT 9999 FEW030 26/21 Q1012;
0120827980999992007122900004-07100-034867FM-15+0066SBJP V0201501N003112200019N0112651N1+02601+02201999999ADDGA1021+006001999GF102991999999999999999999MA1101291999999REMMET051METAR SBJP 290000Z 15006KT 9999 FEW020 26/22 Q1013;
0120827980999992007122901004-07100-034867FM-15+0066SBJP V0201401N003112200019N0112651N1+02601+02101999999ADDGA1021+006001999GF102991999999999999999999MA1101191999999REMMET051METAR SBJP 290100Z 14006KT 9999 FEW020 26/21 Q1012;
0120827980999992007122902004-07100-034867FM-15+0066SBJP V0201501N003112200019N0112651N1+02601+02201999999ADDGA1021+006001999GF102991999999999999999999MA1101191999999REMMET051METAR SBJP 290200Z 15006KT 9999 FEW020 26/22 Q1012;
0120827980999992007122903004-07100-034867FM-15+0066SBJP V0201601N002112200019N0112651N1+02501+02101999999ADDGA1021+006001999GF102991999999999999999999MA1101191999999REMMET051METAR SBJP 290300Z 16004KT 9999 FEW020 25/21 Q1012;
0120827980999992007122904004-07100-034867FM-15+0066SBJP V0201501N002112200019N0112651N1+02501+02101999999ADDGA1021+006001999GF102991999999999999999999MA1101081999999REMMET051METAR SBJP 290400Z 15004KT 9999 FEW020 25/21 Q1011;
0120827980999992007122905004-07100-034867FM-15+0066SBJP V0201601N002112200019N0112651N1+02501+02201999999ADDGA1041+006001999GF104991999999999999999999MA1101081999999REMMET051METAR SBJP 290500Z 16004KT 9999 SCT020 25/22 Q1011;
0120827980999992007122906004-07100-034867FM-15+0066SBJP V0201701N001012200019N0112651N1+02501+02101999999ADDGA1041+006001999GF104991999999999999999999MA1101081999999REMMET051METAR SBJP 290600Z 17002KT 9999 SCT020 25/21 Q1011;
0120827980999992007122907004-07100-034867FM-15+0066SBJP V0202101N001012200019N0112651N1+02401+02101999999ADDGA1041+006001999GF104991999999999999999999MA1101081999999REMMET051METAR SBJP 290700Z 21002KT 9999 SCT020 24/21 Q1011;
0120827980999992007122908004-07100-034867FM-15+0066SBJP V0202001N001012200019N0112651N1+02401+02101999999ADDGA1021+006001999GF102991999999999999999999MA1101081999999REMMET051METAR SBJP 290800Z 20002KT 9999 FEW020 24/21 Q1011;
0120827980999992007122909004-07100-034867FM-15+0066SBJP V0202201N001012200019N0112651N1+02401+02201999999ADDGA1021+006001999GF102991999999999999999999MA1101191999999REMMET051METAR SBJP 290900Z 22002KT 9999 FEW020 24/22 Q1012;
0120827980999992007122910004-07100-034867FM-15+0066SBJP V0201901N001512200019N0112651N1+02701+02201999999ADDGA1041+007501999GF104991999999999999999999MA1101291999999REMMET051METAR SBJP 291000Z 19003KT 9999 SCT025 27/22 Q1013;
0120827980999992007122911004-07100-034867FM-15+0066SBJP V0201501N003612200019N0112651N1+02901+02001999999ADDGA1041+007501999GF104991999999999999999999MA1101291999999REMMET051METAR SBJP 291100Z 15007KT 9999 SCT025 29/20 Q1013;
0120827980999992007122912004-07100-034867FM-15+0066SBJP V0201401N003612200019N0112651N1+02901+02101999999ADDGA1041+009001999GF104991999999999999999999MA1101291999999REMMET051METAR SBJP 291200Z 14007KT 9999 SCT030 29/21 Q1013;
0120827980999992007122913004-07100-034867FM-15+0066SBJP V0201501N003610090019N0112651N1+02901+02101999999ADDGA1071+009001999GF107991999999999999999999MA1101291999999REMMET051METAR SBJP 291300Z 15007KT 9999 BKN030 29/21 Q1013;
0120827980999992007122914004-07100-034867FM-15+0066SBJP V0201401N004610090019N0112651N1+03101+02001999999ADDGA1071+009001999GF107991999999999999999999MA1101291999999REMMET051METAR SBJP 291400Z 14009KT 9999 BKN030 31/20 Q1013;
0120827980999992007122915004-07100-034867FM-15+0066SBJP V0201401N004112200019N0112651N1+03101+01901999999ADDGA1041+009001999GF104991999999999999999999MA1101191999999REMMET051METAR SBJP 291500Z 14008KT 9999 SCT030 31/19 Q1012;
0120827980999992007122916004-07100-034867FM-15+0066SBJP V0201401N004112200019N0112651N1+03101+01901999999ADDGA1041+009001999GF104991999999999999999999MA1101081999999REMMET051METAR SBJP 291600Z 14008KT 9999 SCT030 31/19 Q1011;
0120827980999992007122917004-07100-034867FM-15+0066SBJP V0201401N004112200019N0112651N1+03001+02001999999ADDGA1041+009001999GF104991999999999999999999MA1101081999999REMMET051METAR SBJP 291700Z 14008KT 9999 SCT030 30/20 Q1011;
0120827980999992007122918004-07100-034867FM-15+0066SBJP V0201401N004112200019N0112651N1+03001+02101999999ADDGA1041+009001999GF104991999999999999999999MA1101021999999REMMET051METAR SBJP 291800Z 14008KT 9999 SCT030 30/21 Q1010;
0120827980999992007122919004-07100-034867FM-15+0066SBJP V0201401N003112200019N0112651N1+02901+02201999999ADDGA1021+009001999GF102991999999999999999999MA1101021999999REMMET051METAR SBJP 291900Z 14006KT 9999 FEW030 29/22 Q1010;
0120827980999992007122920004-07100-034867FM-15+0066SBJP V0201501N004112200019N0112651N1+02801+02201999999ADDGA1021+009001999GF102991999999999999999999MA1101081999999REMMET051METAR SBJP 292000Z 15008KT 9999 FEW030 28/22 Q1011;
0120827980999992007122921004-07100-034867FM-15+0066SBJP V0201401N003112200019N0112651N1+02701+02201999999ADDGA1021+006001999GF102991999999999999999999MA1101081999999REMMET051METAR SBJP 292100Z 14006KT 9999 FEW020 27/22 Q1011;
0120827980999992007122922004-07100-034867FM-15+0066SBJP V0201401N002612200019N0112651N1+02701+02201999999ADDGA1021+006001999GF102991999999999999999999MA1101191999999REMMET051METAR SBJP 292200Z 14005KT 9999 FEW020 27/22 Q1012;
0120827980999992007122923004-07100-034867FM-15+0066SBJP V0201501N003112200019N0112651N1+02601+02201999999ADDGA1041+006001999GF104991999999999999999999MA1101191999999REMMET051METAR SBJP 292300Z 15006KT 9999 SCT020 26/22 Q1012;
0120827980999992007123000004-07100-034867FM-15+0066SBJP V0201301N002112200019N0112651N1+02601+02201999999ADDGA1041+006001999GF104991999999999999999999MA1101291999999REMMET051METAR SBJP 300000Z 13004KT 9999 SCT020 26/22 Q1013;
0120827980999992007123001004-07100-034867FM-15+0066SBJP V0201401N003112200019N0112651N1+02701+02201999999ADDGA1021+006001999GF102991999999999999999999MA1101291999999REMMET051METAR SBJP 300100Z 14006KT 9999 FEW020 27/22 Q1013;
0120827980999992007123002004-07100-034867FM-15+0066SBJP V0201401N002112200019N0112651N1+02601+02201999999ADDGA1021+006001999GF102991999999999999999999MA1101291999999REMMET051METAR SBJP 300200Z 14004KT 9999 FEW020 26/22 Q1013;
0120827980999992007123003004-07100-034867FM-15+0066SBJP V0201401N002612200019N0112651N1+02601+02201999999ADDGA1021+006001999GF102991999999999999999999MA1101191999999REMMET051METAR SBJP 300300Z 14005KT 9999 FEW020 26/22 Q1012;
0120827980999992007123004004-07100-034867FM-15+0066SBJP V0201601N002612200019N0112651N1+02601+02201999999ADDGA1041+006001999GF104991999999999999999999MA1101081999999REMMET051METAR SBJP 300400Z 16005KT 9999 SCT020 26/22 Q1011;
0120827980999992007123005004-07100-034867FM-15+0066SBJP V0201401N003112200019N0112651N1+02601+02101999999ADDGA1041+006001999GF104991999999999999999999MA1101081999999REMMET051METAR SBJP 300500Z 14006KT 9999 SCT020 26/21 Q1011;
0120827980999992007123006004-07100-034867FM-15+0066SBJP V0201501N002112200019N0112651N1+02601+02101999999ADDGA1041+006001999GF104991999999999999999999MA1101081999999REMMET051METAR SBJP 300600Z 15004KT 9999 SCT020 26/21 Q1011;
0143827980999992007123007004-07100-034867FM-15+0066SBJP V0201701N003112200019N0112651N1+02501+02201999999ADDGA1041+004501999GA2041+021001999GF104991999999999999999999MA1101081999999REMMET058METAR SBJP 300700Z 17006KT 9999 SCT015 SCT070 25/22 Q1011;
0143827980999992007123008004-07100-034867FM-15+0066SBJP V0201501N002612200019N0112651N1+02501+02201999999ADDGA1041+004501999GA2041+021001999GF104991999999999999999999MA1101081999999REMMET058METAR SBJP 300800Z 15005KT 9999 SCT015 SCT070 25/22 Q1011;
0143827980999992007123009004-07100-034867FM-15+0066SBJP V0201701N001512200019N0112651N1+02501+02301999999ADDGA1041+006001999GA2041+027001999GF104991999999999999999999MA1101191999999REMMET058METAR SBJP 300900Z 17003KT 9999 SCT020 SCT090 25/23 Q1012;
0120827980999992007123010004-07100-034867FM-15+0066SBJP V0201501N003112200019N0112651N1+02701+02301999999ADDGA1041+006001999GF104991999999999999999999MA1101191999999REMMET051METAR SBJP 301000Z 15006KT 9999 SCT020 27/23 Q1012;
0120827980999992007123011004-07100-034867FM-15+0066SBJP V0201301N004112200019N0112651N1+02901+02201999999ADDGA1041+006001999GF104991999999999999999999MA1101291999999REMMET051METAR SBJP 301100Z 13008KT 9999 SCT020 29/22 Q1013;
0120827980999992007123012004-07100-034867FM-15+0066SBJP V0201401N004112200019N0112651N1+02901+02201999999ADDGA1041+009001999GF104991999999999999999999MA1101291999999REMMET051METAR SBJP 301200Z 14008KT 9999 SCT030 29/22 Q1013;
0120827980999992007123013004-07100-034867FM-15+0066SBJP V0201301N003110060019N0112651N1+02901+02101999999ADDGA1071+006001999GF107991999999999999999999MA1101291999999REMMET051METAR SBJP 301300Z 13006KT 9999 BKN020 29/21 Q1013;
0120827980999992007123014004-07100-034867FM-15+0066SBJP V0201401N005110060019N0112651N1+03001+02201999999ADDGA1071+006001999GF107991999999999999999999MA1101191999999REMMET051METAR SBJP 301400Z 14010KT 9999 BKN020 30/22 Q1012;
0120827980999992007123015004-07100-034867FM-15+0066SBJP V0201401N005110060019N0112651N1+03101+02201999999ADDGA1071+006001999GF107991999999999999999999MA1101191999999REMMET051METAR SBJP 301500Z 14010KT 9999 BKN020 31/22 Q1012;
0120827980999992007123016004-07100-034867FM-15+0066SBJP V0201301N005112200019N0112651N1+02901+02201999999ADDGA1041+009001999GF104991999999999999999999MA1101081999999REMMET051METAR SBJP 301600Z 13010KT 9999 SCT030 29/22 Q1011;
0136827980999992007123017004-07100-034867FM-15+0066SBJP V0201201N00411220001CN0112651N1+02901+02201999999ADDGA1071+009001999GA2041+021001999MA1101021999999REMMET058METAR SBJP 301700Z 12008KT 9999 BKN030 SCT070 29/22 Q1010;EQDQ01+000042SCOTCV
0136827980999992007123018004-07100-034867FM-15+0066SBJP V0201201N00461220001CN0112651N1+02901+02201999999ADDGA1071+009001999GA2041+021001999MA1101021999999REMMET058METAR SBJP 301800Z 12009KT 9999 BKN030 SCT070 29/22 Q1010;EQDQ01+000042SCOTCV
0136827980999992007123019004-07100-034867FM-15+0066SBJP V0201401N00511220001CN0112651N1+02901+02101999999ADDGA1071+009001999GA2041+021001999MA1101021999999REMMET058METAR SBJP 301900Z 14010KT 9999 BKN030 SCT070 29/21 Q1010;EQDQ01+000042SCOTCV
0143827980999992007123020004-07100-034867FM-15+0066SBJP V0201301N005112200019N0112651N1+02801+02101999999ADDGA1041+009001999GA2041+021001999GF104991999999999999999999MA1101021999999REMMET058METAR SBJP 302000Z 13010KT 9999 SCT030 SCT070 28/21 Q1010;
0120827980999992007123021004-07100-034867FM-15+0066SBJP V0201401N006212200019N0112651N1+02701+02201999999ADDGA1021+009001999GF102991999999999999999999MA1101081999999REMMET051METAR SBJP 302100Z 14012KT 9999 FEW030 27/22 Q1011;
0143827980999992007123022004-07100-034867FM-15+0066SBJP V0201601N003612200019N0112651N1+02601+02201999999ADDGA1021+006001999GA2041+021001999GF104991999999999999999999MA1101081999999REMMET058METAR SBJP 302200Z 16007KT 9999 FEW020 SCT070 26/22 Q1011;
0143827980999992007123023004-07100-034867FM-15+0066SBJP V0201601N003112200019N0112651N1+02601+02201999999ADDGA1021+006001999GA2041+021001999GF104991999999999999999999MA1101191999999REMMET058METAR SBJP 302300Z 16006KT 9999 FEW020 SCT070 26/22 Q1012;
0143827980999992007123100004-07100-034867FM-15+0066SBJP V0201601N003612200019N0112651N1+02601+02301999999ADDGA1021+006001999GA2041+021001999GF104991999999999999999999MA1101191999999REMMET058METAR SBJP 310000Z 16007KT 9999 FEW020 SCT070 26/23 Q1012;
0143827980999992007123101004-07100-034867FM-15+0066SBJP V0201501N003612200019N0112651N1+02601+02201999999ADDGA1021+006001999GA2041+021001999GF104991999999999999999999MA1101191999999REMMET058METAR SBJP 310100Z 15007KT 9999 FEW020 SCT070 26/22 Q1012;
0143827980999992007123102004-07100-034867FM-15+0066SBJP V0201501N002610210019N0112651N1+02601+02201999999ADDGA1021+006001999GA2071+021001999GF107991999999999999999999MA1101191999999REMMET058METAR SBJP 310200Z 15005KT 9999 FEW020 BKN070 26/22 Q1012;
0143827980999992007123103004-07100-034867FM-15+0066SBJP V0201601N002110210019N0112651N1+02601+02201999999ADDGA1021+006001999GA2071+021001999GF107991999999999999999999MA1101081999999REMMET058METAR SBJP 310300Z 16004KT 9999 FEW020 BKN070 26/22 Q1011;
0143827980999992007123104004-07100-034867FM-15+0066SBJP V0201301N001010210019N0112651N1+02601+02401999999ADDGA1021+006001999GA2071+021001999GF107991999999999999999999MA1101081999999REMMET058METAR SBJP 310400Z 13002KT 9999 FEW020 BKN070 26/24 Q1011;
0143827980999992007123105004-07100-034867FM-15+0066SBJP V0201401N003110210019N0112651N1+02701+02101999999ADDGA1021+006001999GA2071+021001999GF107991999999999999999999MA1101021999999REMMET058METAR SBJP 310500Z 14006KT 9999 FEW020 BKN070 27/21 Q1010;
0120827980999992007123106004-07100-034867FM-15+0066SBJP V0201401N002110060019N0112651N1+02601+02101999999ADDGA1071+006001999GF107991999999999999999999MA1101021999999REMMET051METAR SBJP 310600Z 14004KT 9999 BKN020 26/21 Q1010;
0143827980999992007123107004-07100-034867FM-15+0066SBJP V0201501N002112200019N0112651N1+02601+02101999999ADDGA1041+006001999GA2041+027001999GF104991999999999999999999MA1101081999999REMMET058METAR SBJP 310700Z 15004KT 9999 SCT020 SCT090 26/21 Q1011;
0143827980999992007123108004-07100-034867FM-15+0066SBJP V0201601N002112200019N0112651N1+02601+02101999999ADDGA1041+006001999GA2041+027001999GF104991999999999999999999MA1101081999999REMMET058METAR SBJP 310800Z 16004KT 9999 SCT020 SCT090 26/21 Q1011;
0143827980999992007123109004-07100-034867FM-15+0066SBJP V0201401N001010270019N0112651N1+02601+02101999999ADDGA1041+006001999GA2071+027001999GF107991999999999999999999MA1101191999999REMMET058METAR SBJP 310900Z 14002KT 9999 SCT020 BKN090 26/21 Q1012;
0143827980999992007123110004-07100-034867FM-15+0066SBJP V0201501N004612200019N0112651N1+02701+02101999999ADDGA1041+006001999GA2041+021001999GF104991999999999999999999MA1101291999999REMMET058METAR SBJP 311000Z 15009KT 9999 SCT020 SCT070 27/21 Q1013;
0143827980999992007123111004-07100-034867FM-15+0066SBJP V0201301N003612200019N0112651N1+02801+02101999999ADDGA1041+007501999GA2041+024001999GF104991999999999999999999MA1101291999999REMMET058METAR SBJP 311100Z 13007KT 9999 SCT025 SCT080 28/21 Q1013;
0143827980999992007123112004-07100-034867FM-15+0066SBJP V0201501N004112200019N0112651N1+02901+02001999999ADDGA1041+007501999GA2041+024001999GF104991999999999999999999MA1101291999999REMMET058METAR SBJP 311200Z 15008KT 9999 SCT025 SCT080 29/20 Q1013;
0120827980999992007123113004-07100-034867FM-15+0066SBJP V0201401N003612200019N0112651N1+03001+02001999999ADDGA1041+009001999GF104991999999999999999999MA1101291999999REMMET051METAR SBJP 311300Z 14007KT 9999 SCT030 30/20 Q1013;
0120827980999992007123114004-07100-034867FM-15+0066SBJP V0201201N003612200019N0112651N1+03001+02001999999ADDGA1041+009001999GF104991999999999999999999MA1101291999999REMMET051METAR SBJP 311400Z 12007KT 9999 SCT030 30/20 Q1013;
0120827980999992007123115004-07100-034867FM-15+0066SBJP V0201501N003612200019N0112651N1+03101+02001999999ADDGA1041+009001999GF104991999999999999999999MA1101191999999REMMET051METAR SBJP 311500Z 15007KT 9999 SCT030 31/20 Q1012;
0120827980999992007123116004-07100-034867FM-15+0066SBJP V0201401N006212200019N0112651N1+03101+01901999999ADDGA1041+009001999GF104991999999999999999999MA1101081999999REMMET051METAR SBJP 311600Z 14012KT 9999 SCT030 31/19 Q1011;
0120827980999992007123117004-07100-034867FM-15+0066SBJP V0201201N004612200019N0112651N1+03001+01901999999ADDGA1041+009001999GF104991999999999999999999MA1101081999999REMMET051METAR SBJP 311700Z 12009KT 9999 SCT030 30/19 Q1011;
0120827980999992007123118004-07100-034867FM-15+0066SBJP V0201401N005112200019N0112651N1+03001+01801999999ADDGA1021+009001999GF102991999999999999999999MA1101081999999REMMET051METAR SBJP 311800Z 14010KT 9999 FEW030 30/18 Q1011;
0120827980999992007123119004-07100-034867FM-15+0066SBJP V0201401N005112200019N0112651N1+03001+01801999999ADDGA1021+009001999GF102991999999999999999999MA1101021999999REMMET051METAR SBJP 311900Z 14010KT 9999 FEW030 30/18 Q1010;
0072827980999992007123120004-07100-034867FM-15+0066SBJP V0201401N00411220001CN0099001N1+02801+01901999999ADDMA1101081999999REMMET045METAR SBJP 312000Z 14008KT CAVOK 28/19 Q1011;
0072827980999992007123121004-07100-034867FM-15+0066SBJP V0201301N00411220001CN0099001N1+02701+02101999999ADDMA1101081999999REMMET045METAR SBJP 312100Z 13008KT CAVOK 27/21 Q1011;
0120827980999992007123122004-07100-034867FM-15+0066SBJP V0201701N002612200019N0112651N1+02601+02101999999ADDGA1041+009001999GF104991999999999999999999MA1101081999999REMMET051METAR SBJP 312200Z 17005KT 9999 SCT030 26/21 Q1011;
0072827980999992007123123004-07100-034867FM-15+0066SBJP V0201601N00361220001CN0099001N1+02501+02101999999ADDMA1101191999999REMMET045METAR SBJP 312300Z 16007KT CAVOK 25/21 Q1012;
