0178829860999992007010100004-09400-038217FM-12+0253SBUF V0201401N007712200019N0020001N1+02741+01701101271ADDGA1001+999999999GF100991001001999999001001KA1240M+03421MA1999999098451MD1999999-0051REMSYN082AAXX  01004 82986 32995 01415 10274 20170 39845 40127 333 10342 29051 55102 59005;
0156829860999992007010112004-09400-038217FM-12+0253SBUF V0200901N004610075019N0100001N1+02771+02041101431ADDGF105991051021008001001001KA1240N+02321MA1999999098601MD1999999+0001REMSYN076AAXX  01124 82986 32597 50909 10277 20204 39860 40143 85200 333 20232 58000;
0137829860999992007010118004-09400-038217FM-12+0253SBUF V0201401N002610075019N0200001N1+03511+01681100911ADDGF105991051011008001001001MA1999999098121MD1999999-0071REMSYN070AAXX  01184 82986 32598 51405 10351 20168 39812 40091 85100 333 59007;
0178829860999992007010200004-09400-038217FM-12+0253SBUF V0200901N006212200019N0020001N1+02781+02091101211ADDGA1001+999999999GF100991001001999999001001KA1240M+03591MA1999999098391MD1999999-0061REMSYN082AAXX  02004 82986 32995 00912 10278 20209 39839 40121 333 10359 29058 55102 59006;
0156829860999992007010212004-09400-038217FM-12+0253SBUF V0201801N004110075019N0100001N1+02891+02131101431ADDGF106991061021008001001001KA1240N+02381MA1999999098611MD1999999+0011REMSYN076AAXX  02124 82986 32597 61808 10289 20213 39861 40143 86200 333 20238 58001;
0137829860999992007010218004-09400-038217FM-12+0253SBUF V0201401N009811050019N0200001N1+03341+01871100871ADDGF106991021021008001031041MA1999999098161MD1999999+0041REMSYN070AAXX  02184 82986 32598 61419 10334 20187 39816 40087 82234 333 58004;
0168829860999992007010300004-09400-038217FM-12+0253SBUF V0200901N006210075019N0020001N1+02621+02161101371ADDGF105991051011008001001001KA1240M+03541MA1999999098541MD1999999+0151REMSYN088AAXX  03004 82986 32595 50912 10262 20216 39854 40137 85100 333 10354 29065 55096 58015;
0220829860999992007010312004-09400-038217FM-12+0253SBUF V0201801N003610120019N0040001N1+02701+02171101371ADDAA124000091AY151061AY221061GF107991061081008001081001KA1240N+02281MA1999999098531MD1999999-0081MW1151REMSYN088AAXX  03124 82986 21596 71807 10270 20217 39853 40137 71552 86880 333 20228 59008 69924;EQDQ01  00002PRCP24
0137829860999992007010318004-09400-038217FM-12+0253SBUF V0201401N005710075019N0200001N1+03311+01551101021ADDGF106991051021008001031001MA1999999098211MD1999999+0051REMSYN070AAXX  03184 82986 32598 61411 10331 20155 39821 40102 85230 333 58005;
0178829860999992007010400004-09400-038217FM-12+0253SBUF V0201801N007212200019N0020001N1+02681+01921101241ADDGA1001+999999999GF100991001001999999001001KA1240M+03351MA1999999098411MD1999999-0131REMSYN082AAXX  04004 82986 32995 01814 10268 20192 39841 40124 333 10335 29058 55052 59013;
0156829860999992007010412004-09400-038217FM-12+0253SBUF V0201401N003110042019N0100001N1+02741+02001101321ADDGF107991071071004501999999KA1240N+02281MA1999999098491MD1999999-0041REMSYN076AAXX  04124 82986 32497 71406 10274 20200 39849 40132 877// 333 20228 59004;
0165829860999992007010418004-09400-038217FM-12+0253SBUF V0200901N005110042019N0100001N1+02981+02091100971ADDAY121061AY221061GF106991061071004501999999MA1999999098141MD1999999-0071MW1151REMSYN076AAXX  04184 82986 31497 60910 10298 20209 39814 40097 71522 867// 333 59007;
0168829860999992007010500004-09400-038217FM-12+0253SBUF V0201801N003619999999N0020001N1+02591+02121101241ADDGF106991061001012501071001KA1240M+03411MA1999999098401MD1999999-0011REMSYN088AAXX  05004 82986 32695 61807 10259 20212 39840 40124 86070 333 10341 29069 55068 59001;
0156829860999992007010512004-09400-038217FM-12+0253SBUF V0201401N002610075019N0100001N1+02881+01801101261ADDGF105991051011008001001001KA1240N+02261MA1999999098431MD1999999-0061REMSYN076AAXX  05124 82986 32597 51405 10288 20180 39843 40126 85100 333 20226 59006;
0137829860999992007010518004-09400-038217FM-12+0253SBUF V0201401N002612200019N0200001N1+03571+01251100751ADDGF104991041021008001001001MA1999999097961MD1999999-0181REMSYN070AAXX  05184 82986 32598 41405 10357 20125 39796 40075 84200 333 59018;
0178829860999992007010600004-09400-038217FM-12+0253SBUF V0200901N006712200019N0020001N1+02791+01701101101ADDGA1001+999999999GF100991001001999999001001KA1240M+03591MA1999999098301MD1999999-0101REMSYN082AAXX  06004 82986 32995 00913 10279 20170 39830 40110 333 10359 29045 55108 59010;
0156829860999992007010612004-09400-038217FM-12+0253SBUF V0200901N003110090019N0100001N1+02791+01821101241ADDGF106991061081004501001001KA1240N+02161MA1999999098421MD1999999-0011REMSYN076AAXX  06124 82986 32497 60906 10279 20182 39842 40124 86800 333 20216 59001;
0137829860999992007010618004-09400-038217FM-12+0253SBUF V0200901N002611050019N0200001N1+03531+01451100751ADDGF106991031011008001001081MA1999999097951MD1999999-0011REMSYN070AAXX  06184 82986 32598 60905 10353 20145 39795 40075 83108 333 59001;
0156829860999992007010712004-09400-038217FM-12+0253SBUF V0200901N003612200019N0200001N1+02891+01801101321ADDGF104991041011008001001001KA1240N+02251MA1999999098501MD1999999+0081REMSYN076AAXX  07124 82986 32598 40907 10289 20180 39850 40132 84100 333 20225 58008;
0137829860999992007010718004-09400-038217FM-12+0253SBUF V0201401N003610075019N0200001N1+03471+01501100921ADDGF105991051011008001001001MA1999999098121MD1999999+0171REMSYN070AAXX  07184 82986 32598 51407 10347 20150 39812 40092 85100 333 58017;
0156829860999992007010812004-09400-038217FM-12+0253SBUF V0201401N004610450019N0100001N1+02801+02031101271ADDGF106991041021008001081001KA1240N+02361MA1999999098451MD1999999-0081REMSYN076AAXX  08124 82986 32597 61409 10280 20203 39845 40127 84280 333 20236 59008;
0137829860999992007010818004-09400-038217FM-12+0253SBUF V0201401N005110450019N0200001N1+03301+01641100891ADDGF108991031041008001071081MA1999999098091MD1999999-0031REMSYN070AAXX  08184 82986 32598 81410 10330 20164 39809 40089 83478 333 59003;
0178829860999992007010900004-09400-038217FM-12+0253SBUF V0201801N003612200019N0020001N1+02661+02141101201ADDGA1001+999999999GF100991001001999999001001KA1240M+03351MA1999999098371MD1999999+0001REMSYN082AAXX  09004 82986 32995 01807 10266 20214 39837 40120 333 10335 29062 55058 58000;
0156829860999992007010912004-09400-038217FM-12+0253SBUF V0200901N004111050019N0100001N1+02781+01931101231ADDGF106991011001017501041081KA1240N+02281MA1999999098401MD1999999-0051REMSYN076AAXX  09124 82986 32797 60908 10278 20193 39840 40123 81048 333 20228 59005;
0137829860999992007010918004-09400-038217FM-12+0253SBUF V0201401N003611050019N0200001N1+03571+00921100761ADDGF108991021011008001001071MA1999999097971MD1999999-0121REMSYN070AAXX  09184 82986 32598 81407 10357 20092 39797 40076 82107 333 59012;
0178829860999992007011000004-09400-038217FM-12+0253SBUF V0200901N006712200019N0020001N1+02781+02091101081ADDGA1001+999999999GF100991001001999999001001KA1240M+03601MA1999999098261MD1999999-0111REMSYN082AAXX  10004 82986 32995 00913 10278 20209 39826 40108 333 10360 29053 55082 59011;
0156829860999992007011012004-09400-038217FM-12+0253SBUF V0201401N004110042019N0100001N1+02741+02141101231ADDGF108991081071004501999999KA1240N+02381MA1999999098401MD1999999+0001REMSYN076AAXX  10124 82986 32497 81408 10274 20214 39840 40123 887// 333 20238 58000;
0137829860999992007011018004-09400-038217FM-12+0253SBUF V0200901N001512200019N0200001N1+03541+01241100691ADDGF105991031011008001001061MA1999999097901MD1999999-0071REMSYN070AAXX  10184 82986 32598 50903 10354 20124 39790 40069 83106 333 59007;
0178829860999992007011100004-09400-038217FM-12+0253SBUF V0201401N004612200019N0020001N1+02871+02011101011ADDGA1001+999999999GF100991001001999999001001KA1240M+03601MA1999999098201MD1999999-0061REMSYN082AAXX  11004 82986 32995 01409 10287 20201 39820 40101 333 10360 29054 55074 59006;
0156829860999992007011112004-09400-038217FM-12+0253SBUF V0201801N002111050019N0100001N1+02861+02091101171ADDGF106991021011008001001081KA1240N+02361MA1999999098361MD1999999-0041REMSYN076AAXX  11124 82986 32597 61804 10286 20209 39836 40117 82108 333 20236 59004;
0137829860999992007011118004-09400-038217FM-12+0253SBUF V0201401N002610450019N0200001N1+03691+01351100641ADDGF105991031021008001041001MA1999999097861MD1999999-0041REMSYN070AAXX  11184 82986 32598 51405 10369 20135 39786 40064 83240 333 59004;
0178829860999992007011200004-09400-038217FM-12+0253SBUF V0200901N003112200019N0020001N1+03001+02081100931ADDGA1001+999999999GF100991001001999999001001KA1240M+03731MA1999999098141MD1999999-0061REMSYN082AAXX  12004 82986 32995 00906 10300 20208 39814 40093 333 10373 29051 55095 59006;
0156829860999992007011212004-09400-038217FM-12+0253SBUF V0202701N001510450019N0100001N1+02761+02251101121ADDGF106991021021008001051081KA1240N+02451MA1999999098321MD1999999-0041REMSYN076AAXX  12124 82986 32597 62703 10276 20225 39832 40112 82258 333 20245 59004;
0137829860999992007011218004-09400-038217FM-12+0253SBUF V0203201N001011050019N0200001N1+03321+01971100641ADDGF108991021011008001001081MA1999999097851MD1999999-0011REMSYN070AAXX  12184 82986 32598 83202 10332 20197 39785 40064 82108 333 59001;
0168829860999992007011300004-09400-038217FM-12+0253SBUF V0200901N004119999999N0020001N1+02921+02191100771ADDGF106991001001999999001081KA1240M+03381MA1999999097971MD1999999-0171REMSYN088AAXX  13004 82986 32995 60908 10292 20219 39797 40077 80008 333 10338 29062 55055 59017;
0156829860999992007011312004-09400-038217FM-12+0253SBUF V0200901N001510450019N0100001N1+02911+01991101041ADDGF106991031051008001051001KA1240N+02531MA1999999098241MD1999999-0081REMSYN076AAXX  13124 82986 32597 60903 10291 20199 39824 40104 83550 333 20253 59008;
0137829860999992007011318004-09400-038217FM-12+0253SBUF V0202701N001010450019N0200001N1+03391+01911100591ADDGF106991031021008001041081MA1999999097811MD1999999-0041REMSYN070AAXX  13184 82986 32598 62702 10339 20191 39781 40059 83248 333 59004;
0184829860999992007011412004-09400-038217FM-12+0253SBUF V0203201N003111050019N0040001N1+03041+01911101091ADDAY141061AY211061GF106991021001017501031081KA1240N+02511MA1999999098301MD1999999+0061MW1051REMSYN082AAXX  14124 82986 31796 63206 10304 20191 39830 40109 70541 82038 333 20251 58006;
0137829860999992007011418004-09400-038217FM-12+0253SBUF V0201401N003110450019N0200001N1+03671+01141100621ADDGF106991011011008001031051MA1999999097851MD1999999+0041REMSYN070AAXX  14184 82986 32598 61406 10367 20114 39785 40062 81135 333 58004;
0178829860999992007011500004-09400-038217FM-12+0253SBUF V0200901N003612200019N0020001N1+03181+01731100761ADDGA1001+999999999GF100991001001999999001001KA1240M+03741MA1999999097991MD1999999-0041REMSYN082AAXX  15004 82986 32995 00907 10318 20173 39799 40076 333 10374 29039 55099 59004;
0184829860999992007011512004-09400-038217FM-12+0253SBUF V0203201N001512200019N0040001N1+02871+02141101161ADDAY141061AY211061GF104991041011008001001001KA1240N+02401MA1999999098361MD1999999+0061MW1051REMSYN082AAXX  15124 82986 31596 43203 10287 20214 39836 40116 70541 84100 333 20240 58006;
0175829860999992007011518004-09400-038217FM-12+0253SBUF V0201401N003612200019N0040001N1+03711+00961100691ADDAY141061AY201061GA1001+999999999GF100991001001999999001001MA1999999097911MD1999999+0061MW1051REMSYN070AAXX  15184 82986 31996 01407 10371 20096 39791 40069 70540 333 58006;
0178829860999992007011600004-09400-038217FM-12+0253SBUF V0201801N006712200019N0020001N1+02961+01931101001ADDGA1001+999999999GF100991001001999999001001KA1240M+03761MA1999999098201MD1999999+0211REMSYN082AAXX  16004 82986 32995 01813 10296 20193 39820 40100 333 10376 29048 55104 58021;
0184829860999992007011612004-09400-038217FM-12+0253SBUF V0201401N003612200019N0040001N1+02821+01941101191ADDAY141061AY201061GF104991041011008001001001KA1240N+02321MA1999999098381MD1999999+0021MW1051REMSYN082AAXX  16124 82986 31596 41407 10282 20194 39838 40119 70540 84100 333 20232 58002;
0137829860999992007011618004-09400-038217FM-12+0253SBUF V0200901N004612200019N0200001N1+03611+01291100721ADDGF104991041011008001001001MA1999999097941MD1999999+0031REMSYN070AAXX  16184 82986 32598 40909 10361 20129 39794 40072 84100 333 58003;
0178829860999992007011700004-09400-038217FM-12+0253SBUF V0200901N007712200019N0020001N1+02831+01971101081ADDGA1001+999999999GF100991001001999999001001KA1240M+03621MA1999999098261MD1999999+0061REMSYN082AAXX  17004 82986 32995 00915 10283 20197 39826 40108 333 10362 29051 55109 58006;
0156829860999992007011712004-09400-038217FM-12+0253SBUF V0200901N004610075019N0100001N1+02881+01941101281ADDGF106991061021008001001001KA1240N+02421MA1999999098461MD1999999+0081REMSYN076AAXX  17124 82986 32597 60909 10288 20194 39846 40128 86200 333 20242 58008;
0137829860999992007011718004-09400-038217FM-12+0253SBUF V0200901N005110075019N0200001N1+03561+01191100751ADDGF105991051021008001001001MA1999999097971MD1999999+0031REMSYN070AAXX  17184 82986 32598 50910 10356 20119 39797 40075 85200 333 58003;
0178829860999992007011800004-09400-038217FM-12+0253SBUF V0201801N006712200019N0020001N1+02821+01891101211ADDGA1001+999999999GF100991001001999999001001KA1240M+03621MA1999999098401MD1999999+0141REMSYN082AAXX  18004 82986 32995 01813 10282 20189 39840 40121 333 10362 29049 55099 58014;
0156829860999992007011812004-09400-038217FM-12+0253SBUF V0201801N005110075019N0100001N1+02791+01881101321ADDGF106991061021008001001001KA1240N+02321MA1999999098501MD1999999+0041REMSYN076AAXX  18124 82986 32597 61810 10279 20188 39850 40132 86200 333 20232 58004;
0137829860999992007011818004-09400-038217FM-12+0253SBUF V0201401N005112200019N0200001N1+03591+01211100801ADDGF104991041011008001001001MA1999999098021MD1999999+0051REMSYN070AAXX  18184 82986 32598 41410 10359 20121 39802 40080 84100 333 58005;
0178829860999992007011900004-09400-038217FM-12+0253SBUF V0201801N005112200019N0020001N1+02741+01671101251ADDGA1001+999999999GF100991001001999999001001KA1240M+03621MA1999999098421MD1999999+0021REMSYN082AAXX  19004 82986 32995 01810 10274 20167 39842 40125 333 10362 29046 55098 58002;
0156829860999992007011912004-09400-038217FM-12+0253SBUF V0200901N003610042019N0100001N1+02271+01861101421ADDGF106991061071004501001001KA1240N+02161MA1999999098581MD1999999+0081REMSYN076AAXX  19124 82986 32497 60907 10227 20186 39858 40142 86700 333 20216 58008;
0137829860999992007011918004-09400-038217FM-12+0253SBUF V0201801N001512200019N0200001N1+03471+01451100861ADDGF104991041011008001001001MA1999999098061MD1999999+0041REMSYN070AAXX  19184 82986 32598 41803 10347 20145 39806 40086 84100 333 58004;
0178829860999992007012000004-09400-038217FM-12+0253SBUF V0201801N007212200019N0020001N1+02811+02031101201ADDGA1001+999999999GF100991001001999999001001KA1240M+03581MA1999999098371MD1999999-0051REMSYN082AAXX  20004 82986 32995 01814 10281 20203 39837 40120 333 10358 29054 55111 59005;
0156829860999992007012012004-09400-038217FM-12+0253SBUF V0203201N002110075019N0200001N1+02851+01991101371ADDGF105991051011008001001001KA1240N+02321MA1999999098551MD1999999-0031REMSYN076AAXX  20124 82986 32598 53204 10285 20199 39855 40137 85100 333 20232 59003;
0165829860999992007012018004-09400-038217FM-12+0253SBUF V0200501N001010075019N0040001N1+03611+01221100931ADDAY121061AY211061GF106991051021008001071001MA1999999098141MD1999999+0081MW1151REMSYN076AAXX  20184 82986 31596 60502 10361 20122 39814 40093 71521 85270 333 58008;
0213829860999992007012100004-09400-038217FM-12+0253SBUF V0201801N004112200019N0020001N1+02621+02161101321ADDAA106002091AY161061AY221061GF101991011001012501021001KA1240M+02661MA1999999098491MD1999999+0121MW1011REMSYN100AAXX  21004 82986 21695 11808 10262 20216 39849 40132 70162 81020 333 10266 29059 55088 58012 60021;
0173829860999992007012112004-09400-038217FM-12+0253SBUF V0200901N003110075019N0100001N1+02801+02061101451ADDAA124002091GF105991051011008001001001KA1240N+02341MA1999999098611MD1999999+0061REMSYN082AAXX  21124 82986 22597 50906 10280 20206 39861 40145 85100 333 20234 58006 60024;
0137829860999992007012118004-09400-038217FM-12+0253SBUF V0200901N004112200019N0200001N1+03691+01021100891ADDGF101991011011008001001001MA1999999098111MD1999999-0031REMSYN070AAXX  21184 82986 32598 10908 10369 20102 39811 40089 81100 333 59003;
0194829860999992007012212004-09400-038217FM-12+0253SBUF V0203201N002112200019N0100001N1+02701+01911101231ADDAY141061AY201061GA1001+999999999GF100991001001999999001001KA1240N+02141MA1999999098411MD1999999-0201MW1051REMSYN076AAXX  22124 82986 31997 03204 10270 20191 39841 40123 70540 333 20214 59020;
0147829860999992007012218004-09400-038217FM-12+0253SBUF V0201801N001512200019N0200001N1+03691+00591100721ADDGA1001+999999999GF100991001001999999001001MA1999999097931MD1999999-0181REMSYN064AAXX  22184 82986 32998 01803 10369 20059 39793 40072 333 59018;
0178829860999992007012300004-09400-038217FM-12+0253SBUF V0200901N005112200019N0020001N1+03081+01751100891ADDGA1001+999999999GF100991001001999999001001KA1240M+03741MA1999999098091MD1999999-0211REMSYN082AAXX  23004 82986 32995 00910 10308 20175 39809 40089 333 10374 29042 55112 59021;
0166829860999992007012312004-09400-038217FM-12+0253SBUF V0200901N001512200019N0200001N1+02761+01861101161ADDGA1001+999999999GF100991001001999999001001KA1240N+02241MA1999999098351MD1999999-0061REMSYN070AAXX  23124 82986 32998 00903 10276 20186 39835 40116 333 20224 59006;
0147829860999992007012318004-09400-038217FM-12+0253SBUF V0201801N003112200019N0200001N1+03691+01021100671ADDGA1001+999999999GF100991001001999999001001MA1999999097891MD1999999-0041REMSYN064AAXX  23184 82986 32998 01806 10369 20102 39789 40067 333 59004;
0178829860999992007012400004-09400-038217FM-12+0253SBUF V0200901N005112200019N0020001N1+02931+01831100941ADDGA1001+999999999GF100991001001999999001001KA1240M+03701MA1999999098141MD1999999+0051REMSYN082AAXX  24004 82986 32995 00910 10293 20183 39814 40094 333 10370 29046 55110 58005;
0184829860999992007012412004-09400-038217FM-12+0253SBUF V0202701N001512200019N0100001N1+02871+01921101341ADDAY141061AY211061GF102991021021008001001001KA1240N+02351MA1999999098531MD1999999+0181MW1051REMSYN082AAXX  24124 82986 31597 22703 10287 20192 39853 40134 70541 82200 333 20235 58018;
0137829860999992007012418004-09400-038217FM-12+0253SBUF V0201401N003112200019N0200001N1+03571+01311100811ADDGF103991031011008001001001MA1999999098031MD1999999+0141REMSYN070AAXX  24184 82986 32598 31406 10357 20131 39803 40081 83100 333 58014;
0178829860999992007012500004-09400-038217FM-12+0253SBUF V0201401N008212200019N0020001N1+02911+01781101141ADDGA1001+999999999GF100991001001999999001001KA1240M+03641MA1999999098331MD1999999+0191REMSYN082AAXX  25004 82986 32995 01416 10291 20178 39833 40114 333 10364 29048 55109 58019;
0166829860999992007012512004-09400-038217FM-12+0253SBUF V0200901N001512200019N0200001N1+02821+01941101321ADDGA1001+999999999GF100991001001999999001001KA1240N+02281MA1999999098501MD1999999-0031REMSYN070AAXX  25124 82986 32998 00903 10282 20194 39850 40132 333 20228 59003;
0137829860999992007012518004-09400-038217FM-12+0253SBUF V0201401N003112200019N0200001N1+03671+01271100771ADDGF103991031011008001001001MA1999999097991MD1999999-0041REMSYN070AAXX  25184 82986 32598 31406 10367 20127 39799 40077 83100 333 59004;
0178829860999992007012600004-09400-038217FM-12+0253SBUF V0201801N008212200019N0020001N1+02861+02161101041ADDGA1001+999999999GF100991001001999999001001KA1240M+03701MA1999999098231MD1999999-0101REMSYN082AAXX  26004 82986 32995 01816 10286 20216 39823 40104 333 10370 29054 55112 59010;
0156829860999992007012612004-09400-038217FM-12+0253SBUF V0200901N003110075019N0100001N1+02821+02121101321ADDGF106991051021008001081001KA1240N+02421MA1999999098501MD1999999+0001REMSYN076AAXX  26124 82986 32597 60906 10282 20212 39850 40132 85280 333 20242 58000;
0137829860999992007012618004-09400-038217FM-12+0253SBUF V0201401N003111050019N0200001N1+03651+01191100811ADDGF105991041021008001001021MA1999999098031MD1999999+0041REMSYN070AAXX  26184 82986 32598 51406 10365 20119 39803 40081 84202 333 58004;
0178829860999992007012700004-09400-038217FM-12+0253SBUF V0201401N007712200019N0020001N1+02901+01931101061ADDGA1001+999999999GF100991001001999999001001KA1240M+03681MA1999999098251MD1999999+0021REMSYN082AAXX  27004 82986 32995 01415 10290 20193 39825 40106 333 10368 29050 55106 58002;
0184829860999992007012712004-09400-038217FM-12+0253SBUF V0201401N005110075019N0100001N1+02741+02021101331ADDAY141061AY221061GF106991061021008001001001KA1240N+02401MA1999999098511MD1999999+0011MW1051REMSYN082AAXX  27124 82986 31597 61410 10274 20202 39851 40133 70542 86200 333 20240 58001;
0137829860999992007012718004-09400-038217FM-12+0253SBUF V0200901N005712200019N0200001N1+03591+01081100811ADDGF101991011011008001001001MA1999999098031MD1999999+0001REMSYN070AAXX  27184 82986 32598 10911 10359 20108 39803 40081 81100 333 58000;
0156829860999992007012812004-09400-038217FM-12+0253SBUF V0200901N002112200019N0100001N1+02761+01831101431ADDGF103991011011008001001011KA1240N+02221MA1999999098611MD1999999+0101REMSYN076AAXX  28124 82986 32597 30904 10276 20183 39861 40143 81101 333 20222 58010;
0137829860999992007012818004-09400-038217FM-12+0253SBUF V0200901N003112200019N0200001N1+03691+01351100841ADDGF105991021011008001001041MA1999999098061MD1999999+0031REMSYN070AAXX  28184 82986 32598 50906 10369 20135 39806 40084 82104 333 58003;
0168829860999992007012900004-09400-038217FM-12+0253SBUF V0200901N005112200019N0020001N1+02921+01801101161ADDGF103991001001999999001071KA1240M+03711MA1999999098351MD1999999+0001REMSYN088AAXX  29004 82986 32995 30910 10292 20180 39835 40116 80007 333 10371 29046 55103 58000;
0156829860999992007012912004-09400-038217FM-12+0253SBUF V0200901N003112200019N0100001N1+02921+01711101431ADDGF105991011011008001001041KA1240N+02341MA1999999098621MD1999999+0011REMSYN076AAXX  29124 82986 32597 50906 10292 20171 39862 40143 81104 333 20234 58001;
0137829860999992007012918004-09400-038217FM-12+0253SBUF V0201401N004610450019N0100001N1+03351+01451100991ADDGF106991031051008001051001MA1999999098191MD1999999+0131REMSYN070AAXX  29184 82986 32597 61409 10335 20145 39819 40099 83550 333 58013;
0168829860999992007013000004-09400-038217FM-12+0253SBUF V0200901N006212200019N0020001N1+02851+01991101171ADDGF104991041001012501041001KA1240M+03551MA1999999098361MD1999999+0011REMSYN088AAXX  30004 82986 32695 40912 10285 20199 39836 40117 84040 333 10355 29050 55088 58001;
0156829860999992007013012004-09400-038217FM-12+0253SBUF V0200901N003110075019N0100001N1+02791+02061101421ADDGF105991051021008001001001KA1240N+02341MA1999999098601MD1999999-0021REMSYN076AAXX  30124 82986 32597 50906 10279 20206 39860 40142 85200 333 20234 59002;
0137829860999992007013018004-09400-038217FM-12+0253SBUF V0201401N004612200019N0200001N1+03631+01421100851ADDGF103991031011008001001001MA1999999098061MD1999999-0131REMSYN070AAXX  30184 82986 32598 31409 10363 20142 39806 40085 83100 333 59013;
0178829860999992007013100004-09400-038217FM-12+0253SBUF V0201801N006212200019N0020001N1+02871+02031101101ADDGA1001+999999999GF100991001001999999001001KA1240M+03651MA1999999098291MD1999999-0071REMSYN082AAXX  31004 82986 32995 01812 10287 20203 39829 40110 333 10365 29054 55096 59007;
0156829860999992007013112004-09400-038217FM-12+0253SBUF V0201801N005110075019N0100001N1+02791+02061101211ADDGF106991061051008001001001KA1240N+02411MA1999999098401MD1999999-0201REMSYN076AAXX  31124 82986 32597 61810 10279 20206 39840 40121 86500 333 20241 59020;
0137829860999992007013118004-09400-038217FM-12+0253SBUF V0200901N004612200019N0200001N1+03651+01321100621ADDGF102991021011008001001001MA1999999097851MD1999999-0211REMSYN070AAXX  31184 82986 32598 20909 10365 20132 39785 40062 82100 333 59021;
0178829860999992007020100004-09400-038217FM-12+0253SBUF V0201801N007212200019N0020001N1+02261+01951101041ADDGA1001+999999999GF100991001001999999001001KA1240M+03681MA1999999098231MD1999999-0061REMSYN082AAXX  01004 82986 32995 01814 10226 20195 39823 40104 333 10368 29052 55100 59006;
0156829860999992007020112004-09400-038217FM-12+0253SBUF V0201801N001511050019N0100001N1+02671+02141101321ADDGF106991011041008001001081KA1240N+02381MA1999999098491MD1999999+0091REMSYN076AAXX  01124 82986 32597 61803 10267 20214 39849 40132 81408 333 20238 58009;
0137829860999992007020118004-09400-038217FM-12+0253SBUF V0200901N005111050019N0200001N1+03631+01111100751ADDGF106991021011008001001081MA1999999097971MD1999999+0121REMSYN070AAXX  01184 82986 32598 60910 10363 20111 39797 40075 82108 333 58012;
0178829860999992007020200004-09400-038217FM-12+0253SBUF V0201801N007212200019N0020001N1+02841+01991101111ADDGA1001+999999999GF100991001001999999001001KA1240M+03661MA1999999098291MD1999999+0051REMSYN082AAXX  02004 82986 32995 01814 10284 20199 39829 40111 333 10366 29054 55082 58005;
0184829860999992007020212004-09400-038217FM-12+0253SBUF V0201401N001010075019N0040001N1+02781+02211101351ADDAY141061AY221061GF106991061051008001001001KA1240N+02381MA1999999098531MD1999999+0041MW1051REMSYN082AAXX  02124 82986 31596 61402 10278 20221 39853 40135 70542 86500 333 20238 58004;
0137829860999992007020218004-09400-038217FM-12+0253SBUF V0201401N003110075019N0200001N1+03651+01441100791ADDGF106991051021008001001011MA1999999098011MD1999999+0041REMSYN070AAXX  02184 82986 32598 61406 10365 20144 39801 40079 85201 333 58004;
0168829860999992007020300004-09400-038217FM-12+0253SBUF V0201401N005112200019N0020001N1+02941+02111101011ADDGF102991021001017501051001KA1240M+03701MA1999999098201MD1999999-0091REMSYN088AAXX  03004 82986 32795 21410 10294 20211 39820 40101 82050 333 10370 29055 55101 59009;
0156829860999992007020312004-09400-038217FM-12+0253SBUF V0201801N000510042019N0040001N1+02801+02251101291ADDGF108991081071004501999999KA1240N+02481MA1999999098471MD1999999-0061REMSYN076AAXX  03124 82986 32496 81801 10280 20225 39847 40129 887// 333 20248 59006;
0137829860999992007020318004-09400-038217FM-12+0253SBUF V0202301N001512200019N0200001N1+03681+01471100591ADDGF104991031021008001001031MA1999999097831MD1999999-0181REMSYN070AAXX  03184 82986 32598 42303 10368 20147 39783 40059 83203 333 59018;
0196829860999992007020400004-09400-038217FM-12+0253SBUF V0201801N005719999999N0020001N1+02941+02211101041ADDAY101061AY201061GF106991061001012501071001KA1240M+03761MA1999999098231MD1999999+0031MW1131REMSYN094AAXX  04004 82986 31695 61811 10294 20221 39823 40104 71300 86070 333 10376 29057 55078 58003;
0201829860999992007020412004-09400-038217FM-12+0253SBUF V0203601N001510450019N0100001N1+02601+02351101341ADDAA124024991AY161061AY221061GF106991021021008001051001KA1240N+02241MA1999999098511MD1999999+0041MW1011REMSYN088AAXX  04124 82986 21597 63603 10260 20235 39851 40134 70162 82250 333 20224 58004 60254;
0137829860999992007020418004-09400-038217FM-12+0253SBUF V0203601N001510450019N0100001N1+03201+01961100821ADDGF106991031021008001051001MA1999999098011MD1999999+0181REMSYN070AAXX  04184 82986 32597 63603 10320 20196 39801 40082 83250 333 58018;
0196829860999992007020500004-09400-038217FM-12+0253SBUF V0201801N001519999999N0020001N1+02801+02081101191ADDAY101061AY201061GF105991051001012501071001KA1240M+03241MA1999999098361MD1999999+0131MW1131REMSYN094AAXX  05004 82986 31695 51803 10280 20208 39836 40119 71300 85070 333 10324 29066 55041 58013;
0156829860999992007020512004-09400-038217FM-12+0253SBUF V0201801N002110075019N0100001N1+02901+02041101321ADDGF106991061051008001001001KA1240N+02561MA1999999098501MD1999999-0011REMSYN076AAXX  05124 82986 32597 61804 10290 20204 39850 40132 86500 333 20256 59001;
0137829860999992007020518004-09400-038217FM-12+0253SBUF V0201401N004110075019N0200001N1+03431+01361100771ADDGF105991051021008001001001MA1999999097991MD1999999-0021REMSYN070AAXX  05184 82986 32598 51408 10343 20136 39799 40077 85200 333 59002;
0156829860999992007020612004-09400-038217FM-12+0253SBUF V0201801N001511050019N0100001N1+02701+02111101281ADDGF106991041021008001001021KA1240N+02341MA1999999098451MD1999999-0051REMSYN076AAXX  06124 82986 32597 61803 10270 20211 39845 40128 84202 333 20234 59005;
0137829860999992007020618004-09400-038217FM-12+0253SBUF V0201401N003612200019N0200001N1+03401+01351100711ADDGF106991031011008001001061MA1999999097961MD1999999-0031REMSYN070AAXX  06184 82986 32598 61407 10340 20135 39796 40071 83106 333 59003;
0178829860999992007020700004-09400-038217FM-12+0253SBUF V0201801N005712200019N0020001N1+02781+01931101101ADDGA1001+999999999GF100991001001999999001001KA1240M+03491MA1999999098281MD1999999-0091REMSYN082AAXX  07004 82986 32995 01811 10278 20193 39828 40110 333 10349 29055 55082 59009;
0156829860999992007020712004-09400-038217FM-12+0253SBUF V0201801N003610075019N0100001N1+02681+01971101201ADDGF106991061021008001001001KA1240N+02341MA1999999098371MD1999999-0081REMSYN076AAXX  07124 82986 32597 61807 10268 20197 39837 40120 86200 333 20234 59008;
0137829860999992007020718004-09400-038217FM-12+0253SBUF V0201401N001510075019N0200001N1+03411+00991100771ADDGF106991061011008001001001MA1999999097971MD1999999+0051REMSYN070AAXX  07184 82986 32598 61403 10341 20099 39797 40077 86100 333 58005;
0178829860999992007020800004-09400-038217FM-12+0253SBUF V0201801N006712200019N0020001N1+02861+01211101081ADDGA1001+999999999GF100991001001999999001001KA1240M+03481MA1999999098261MD1999999-0021REMSYN082AAXX  08004 82986 32995 01813 10286 20121 39826 40108 333 10348 29040 55104 59002;
0156829860999992007020812004-09400-038217FM-12+0253SBUF V0201401N003610075019N0100001N1+02781+02011101331ADDGF106991061021008001071001KA1240N+02281MA1999999098511MD1999999+0141REMSYN076AAXX  08124 82986 32597 61407 10278 20201 39851 40133 86270 333 20228 58014;
0137829860999992007020818004-09400-038217FM-12+0253SBUF V0200901N002612200019N0200001N1+03461+01341100821ADDGF104991041021008001001001MA1999999098031MD1999999+0061REMSYN070AAXX  08184 82986 32598 40905 10346 20134 39803 40082 84200 333 58006;
0168829860999992007020900004-09400-038217FM-12+0253SBUF V0201801N005112200019N0020001N1+02811+02001101231ADDGF101991011011008001001001KA1240M+03541MA1999999098411MD1999999+0151REMSYN088AAXX  09004 82986 32595 11810 10281 20200 39841 40123 81100 333 10354 29054 55112 58015;
0156829860999992007020912004-09400-038217FM-12+0253SBUF V0200901N004110075019N0100001N1+02821+02021101451ADDGF106991061041008001001001KA1240N+02381MA1999999098631MD1999999+0121REMSYN076AAXX  09124 82986 32597 60908 10282 20202 39863 40145 86400 333 20238 58012;
0137829860999992007020918004-09400-038217FM-12+0253SBUF V0201401N002612200019N0200001N1+03541+01351100971ADDGF104991041021008001001001MA1999999098181MD1999999+0151REMSYN070AAXX  09184 82986 32598 41405 10354 20135 39818 40097 84200 333 58015;
0178829860999992007021000004-09400-038217FM-12+0253SBUF V0201801N005112200019N0020001N1+02811+01721101371ADDGA1001+999999999GF100991001001999999001001KA1240M+03571MA1999999098551MD1999999+0141REMSYN082AAXX  10004 82986 32995 01810 10281 20172 39855 40137 333 10357 29048 55102 58014;
0156829860999992007021012004-09400-038217FM-12+0253SBUF V0201801N004610450019N0100001N1+02681+02021101551ADDGF106991041041008001031001KA1240N+02321MA1999999098721MD1999999+0091REMSYN076AAXX  10124 82986 32597 61809 10268 20202 39872 40155 84430 333 20232 58009;
0137829860999992007021018004-09400-038217FM-12+0253SBUF V0200901N003112200019N0200001N1+03591+01141100951ADDGF104991041021008001001021MA1999999098161MD1999999-0021REMSYN070AAXX  10184 82986 32598 40906 10359 20114 39816 40095 84202 333 59002;
0178829860999992007021100004-09400-038217FM-12+0253SBUF V0201401N005112200019N0020001N1+02881+01861101251ADDGA1001+999999999GF100991001001999999001001KA1240M+03621MA1999999098431MD1999999-0121REMSYN082AAXX  11004 82986 32995 01410 10288 20186 39843 40125 333 10362 29050 55102 59012;
0156829860999992007021112004-09400-038217FM-12+0253SBUF V0201401N003612200019N0200001N1+02831+01861101421ADDGF102991021011008001001001KA1240N+02321MA1999999098601MD1999999-0121REMSYN076AAXX  11124 82986 32598 21407 10283 20186 39860 40142 82100 333 20232 59012;
0137829860999992007021118004-09400-038217FM-12+0253SBUF V0202301N001012200019N0200001N1+03541+01171100821ADDGF102991021011008001001001MA1999999098041MD1999999-0121REMSYN070AAXX  11184 82986 32598 22302 10354 20117 39804 40082 82100 333 59012;
0203829860999992007021200004-09400-038217FM-12+0253SBUF V0201801N004112200019N0020001N1+02981+01891101101ADDGF102991021011008001001001KA1240M+03591MA1999999999999MD1999999-0131REMSYN088AAXX  12004 82986 32595 21808 10298 20189 39130 40110 82100 333 10359 29046 55113 59013;EQDQ01+091303APOSP Q02 091303APOSP 
0156829860999992007021212004-09400-038217FM-12+0253SBUF V0203201N003112200019N0200001N1+02931+02061101251ADDGF101991011001012501041001KA1240N+02401MA1999999098451MD1999999-0151REMSYN076AAXX  12124 82986 32698 13206 10293 20206 39845 40125 81040 333 20240 59015;
0137829860999992007021218004-09400-038217FM-12+0253SBUF V0202301N005110042019N0200001N1+03251+01541100621ADDGF106991051031004501001061MA1999999097821MD1999999-0221REMSYN070AAXX  12184 82986 32498 62310 10325 20154 39782 40062 85306 333 59022;
0196829860999992007021300004-09400-038217FM-12+0253SBUF V0201401N002110090019N0020001N1+03011+01911100931ADDAY121061AY221061GF106991061081004501001001KA1240M+03601MA1999999098141MD1999999-0161MW1131REMSYN094AAXX  13004 82986 31495 61404 10301 20191 39814 40093 71322 86800 333 10360 29050 55096 59016;
0156829860999992007021312004-09400-038217FM-12+0253SBUF V0203201N003110450019N0100001N1+02861+02161101121ADDGF107991021041008001091001KA1240N+02531MA1999999098321MD1999999-0131REMSYN076AAXX  13124 82986 32597 73206 10286 20216 39832 40112 82490 333 20253 59013;
0137829860999992007021318004-09400-038217FM-12+0253SBUF V0200501N001510450019N0200001N1+03241+01891100661ADDGF106991041041008001091011MA1999999097871MD1999999+0051REMSYN070AAXX  13184 82986 32598 60503 10324 20189 39787 40066 84491 333 58005;
0196829860999992007021400004-09400-038217FM-12+0253SBUF V0201801N005112200019N0020001N1+02821+02021101031ADDAY101061AY201061GF104991041001017501041001KA1240M+03331MA1999999098221MD1999999+0081MW1131REMSYN094AAXX  14004 82986 31795 41810 10282 20202 39822 40103 71300 84040 333 10333 29059 55022 58008;
0201829860999992007021412004-09400-038217FM-12+0253SBUF V0203601N001010150019N0100001N1+02561+02151101151ADDAA124004191AY191061AY261061GF106991061001017501051001KA1240N+02261MA1999999098321MD1999999+0001MW1021REMSYN088AAXX  14124 82986 21797 63602 10256 20215 39832 40115 70296 86050 333 20226 58000 60044;
0137829860999992007021418004-09400-038217FM-12+0253SBUF V0203601N003112200019N0200001N1+03331+01821100601ADDGF106991031021008001001041MA1999999097801MD1999999-0071REMSYN070AAXX  14184 82986 32598 63606 10333 20182 39780 40060 83204 333 59007;
0213829860999992007021500004-09400-038217FM-12+0253SBUF V0201801N002110150019N0010001N1+02361+02291101201ADDAA106013091AY161061AY221061GF106991061001017501021001KA1240M+03391MA1999999098341MD1999999+0121MW1211REMSYN100AAXX  15004 82986 21794 61804 10236 20229 39834 40120 72162 86020 333 10339 29078 55080 58012 60131;
0201829860999992007021512004-09400-038217FM-12+0253SBUF V0203201N001510450019N0100001N1+02641+02271101191ADDAA124019191AY161061AY221061GF106991031041008001051011KA1240N+02321MA1999999098341MD1999999+0021MW1011REMSYN088AAXX  15124 82986 21597 63203 10264 20227 39834 40119 70162 83451 333 20232 58002 60194;
0168829860999992007021600004-09400-038217FM-12+0253SBUF V0201801N001010450019N0020001N1+02421+02281101151ADDGF105991021021008001051001KA1240M+03351MA1999999098301MD1999999-0041REMSYN088AAXX  16004 82986 32595 51802 10242 20228 39830 40115 82250 333 10335 29076 55088 59004;
0201829860999992007021612004-09400-038217FM-12+0253SBUF V0203201N001010450019N0100001N1+02641+02251101131ADDAA124000391AY151061AY221061GF107991021021008001031081KA1240N+02341MA1999999098281MD1999999-0061MW1031REMSYN088AAXX  16124 82986 21597 73202 10264 20225 39828 40113 70352 82238 333 20234 59006 69934;
0137829860999992007021618004-09400-038217FM-12+0253SBUF V0203201N001510450019N0100001N1+03161+01631100631ADDGF108991041081008001051999MA1999999097831MD1999999-0011REMSYN070AAXX  16184 82986 32597 83203 10316 20163 39783 40063 8485/ 333 59001;
0156829860999992007021712004-09400-038217FM-12+0253SBUF V0201401N001510450019N0100001N1+02681+02221101051ADDGF106991031021008001031001KA1240N+02401MA1999999098221MD1999999-0061REMSYN076AAXX  17124 82986 32597 61403 10268 20222 39822 40105 83230 333 20240 59006;
0137829860999992007021718004-09400-038217FM-12+0253SBUF V0201801N002610075019N0100001N1+03261+01981100531ADDGF107991051021008001091061MA1999999097741MD1999999-0091REMSYN070AAXX  17184 82986 32597 71805 10326 20198 39774 40053 85296 333 59009;
0232829860999992007021800004-09400-038217FM-12+0253SBUF V0201801N002110120019N0020001N1+02581+02351100931ADDAA106000091AY191061AY251061GF108991081081008001999999KA1240M+03351MA1999999098101MD1999999-0101MW1131REMSYN100AAXX  18004 82986 21595 81804 10258 20235 39810 40093 71395 888// 333 10335 29074 55038 59010 69901;EQDQ01  00002PRCP06
0220829860999992007021812004-09400-038217FM-12+0253SBUF V0203201N001510075019N0100001N1+02561+02331101131ADDAA124000091AY151061AY221061GF107991061071008001001011KA1240N+02401MA1999999098281MD1999999+0061MW1031REMSYN088AAXX  18124 82986 21597 73203 10256 20233 39828 40113 70352 86701 333 20240 58006 69924;EQDQ01  00002PRCP24
0137829860999992007021818004-09400-038217FM-12+0253SBUF V0203201N003110450019N0200001N1+03161+02121100761ADDGF106991041021008001091001MA1999999097961MD1999999+0221REMSYN070AAXX  18184 82986 32598 63206 10316 20212 39796 40076 84290 333 58022;
0220829860999992007021912004-09400-038217FM-12+0253SBUF V0202301N000510090019N0100001N1+02621+02351101061ADDAA124000091AY151061AY221061GF107991061081004501081001KA1240N+02361MA1999999098221MD1999999-0061MW1021REMSYN088AAXX  19124 82986 21497 72301 10262 20235 39822 40106 70252 86880 333 20236 59006 69924;EQDQ01  00002PRCP24
0182829860999992007021918004-09400-038217FM-12+0253SBUF V0200501N006710060019N0040001N1+03141+02071100691ADDAA106000021AY121061AY221061GF107991051081002501071001MA1999999097891MD1999999-0071MW1501REMSYN082AAXX  19184 82986 21396 70513 10314 20207 39789 40069 75022 85870 333 59007 69901;
0173829860999992007022012004-09400-038217FM-12+0253SBUF V0203601N003110450019N0100001N1+02701+02131101221ADDAA124000891GF106991021041008001031081KA1240N+02301MA1999999098371MD1999999+0151REMSYN082AAXX  20124 82986 22597 63606 10270 20213 39837 40122 82438 333 20230 58015 69974;
0137829860999992007022018004-09400-038217FM-12+0253SBUF V0200501N004110450019N0200001N1+03041+01881100811ADDGF107991021041008001041041MA1999999097991MD1999999+0101REMSYN070AAXX  20184 82986 32598 70508 10304 20188 39799 40081 82444 333 58010;
0201829860999992007022112004-09400-038217FM-12+0253SBUF V0200901N001511050019N0100001N1+02481+02191101361ADDAA124007191AY161061AY221061GF106991021011008001051041KA1240N+02181MA1999999098511MD1999999+0141MW1031REMSYN088AAXX  21124 82986 21597 60903 10248 20219 39851 40136 70362 82154 333 20218 58014 60074;
0137829860999992007022118004-09400-038217FM-12+0253SBUF V0200901N003112200019N0200001N1+03201+01671100841ADDGF104991031021008001001021MA1999999098021MD1999999+0031REMSYN070AAXX  21184 82986 32598 40906 10320 20167 39802 40084 83202 333 58003;
0168829860999992007022200004-09400-038217FM-12+0253SBUF V0200901N005110075019N0020001N1+02601+02311101351ADDGF106991061071008001001001KA1240M+03201MA1999999098501MD1999999+0151REMSYN088AAXX  22004 82986 32595 60910 10260 20231 39850 40135 86700 333 10320 29072 55081 58015;
0201829860999992007022212004-09400-038217FM-12+0253SBUF V0201401N003110450019N0100001N1+02601+02121101481ADDAA124002091AY161061AY221061GF107991031021008001031041KA1240N+02301MA1999999098631MD1999999+0121MW1031REMSYN088AAXX  22124 82986 21597 71406 10260 20212 39863 40148 70362 83234 333 20230 58012 60024;
0165829860999992007022218004-09400-038217FM-12+0253SBUF V0201801N003110075019N0100001N1+03111+01771100991ADDAY121061AY221061GF106991051041008001001021MA1999999098161MD1999999+0141MW1151REMSYN076AAXX  22184 82986 31597 61806 10311 20177 39816 40099 71522 85402 333 58014;
0223829860999992007022300004-09400-038217FM-12+0253SBUF V0201801N005112200019N0020001N1+02581+01991101411ADDAA106000591AY161061AY211061GA1001+999999999GF100991001001999999001001KA1240M+03271MA1999999098561MD1999999+0061MW1001REMSYN094AAXX  23004 82986 21995 01810 10258 20199 39856 40141 70061 333 10327 29065 55052 58006 69951;
0201829860999992007022312004-09400-038217FM-12+0253SBUF V0201801N003110042019N0100001N1+02451+02271101501ADDAA124001091AY161061AY251061GF108991081071004501999999KA1240N+02231MA1999999098651MD1999999+0021MW1031REMSYN088AAXX  23124 82986 21497 81806 10245 20227 39865 40150 70365 887// 333 20223 58002 60014;
0182829860999992007022318004-09400-038217FM-12+0253SBUF V0201801N003610090019N0020001N1+02681+02411101231ADDAA106006191AY161061AY261061GF108991081081004501999999MA1999999098371MD1999999+0211MW1161REMSYN082AAXX  23184 82986 21495 81807 10268 20241 39837 40123 71666 888// 333 58021 60061;
0213829860999992007022400004-09400-038217FM-12+0253SBUF V0201801N001510450019N0020001N1+02281+02251101601ADDAA106008991AY161061AY221061GF108991031081004501071999KA1240M+02701MA1999999098721MD1999999+0161MW1021REMSYN100AAXX  24004 82986 21495 81803 10228 20225 39872 40160 70262 8387/ 333 10270 29093 55000 58016 60091;
0201829860999992007022412004-09400-038217FM-12+0253SBUF V0201401N001510042019N0100001N1+02611+02251101521ADDAA124015091AY161061AY251061GF106991061071004501001001KA1240N+02201MA1999999098651MD1999999+0001MW1031REMSYN088AAXX  24124 82986 21497 61403 10261 20225 39865 40152 70365 86700 333 20220 58000 60154;
0137829860999992007022418004-09400-038217FM-12+0253SBUF V0201401N001510075019N0200001N1+03071+01901101121ADDGF106991061021008001001001MA1999999098291MD1999999-0081REMSYN070AAXX  24184 82986 32598 61403 10307 20190 39829 40112 86200 333 59008;
0196829860999992007022500004-09400-038217FM-12+0253SBUF V0201801N003610090019N0020001N1+02471+02371101491ADDAY121061AY221061GF107991061081004501071999KA1240M+03171MA1999999098641MD1999999-0081MW1131REMSYN094AAXX  25004 82986 31495 71807 10247 20237 39864 40149 71322 8687/ 333 10317 29080 55085 59008;
0178829860999992007022518004-09400-038217FM-12+0253SBUF V0201801N005110450019N0200001N1+03061+02221101051ADDAY121061AY211061GF106991021021008001041021MA1999999098221MD1999999-0071REMSYN076AAXX  25184 82986 31598 61810 10306 20222 39822 40105 77121 82242 333 59007;EQDQ01+000712PRSWM1
0178829860999992007022600004-09400-038217FM-12+0253SBUF V0201401N003612200019N0020001N1+02661+02161101291ADDGA1001+999999999GF100991001001999999001001KA1240M+03211MA1999999098451MD1999999-0191REMSYN082AAXX  26004 82986 32995 01407 10266 20216 39845 40129 333 10321 29072 55076 59019;
0156829860999992007022612004-09400-038217FM-12+0253SBUF V0201801N004610075019N0100001N1+02701+02221101371ADDGF106991061021008001001001KA1240N+02301MA1999999098541MD1999999+0011REMSYN076AAXX  26124 82986 32597 61809 10270 20222 39854 40137 86200 333 20230 58001;
0137829860999992007022618004-09400-038217FM-12+0253SBUF V0201401N002611050019N0200001N1+03201+01671101021ADDGF105991031021008001001021MA1999999098211MD1999999-0011REMSYN070AAXX  26184 82986 32598 51405 10320 20167 39821 40102 83202 333 59001;
0168829860999992007022700004-09400-038217FM-12+0253SBUF V0201401N004611050019N0020001N1+02741+02071101181ADDGF105991021001017501021031KA1240M+03231MA1999999098351MD1999999-0101REMSYN088AAXX  27004 82986 32795 51409 10274 20207 39835 40118 82023 333 10323 29062 55086 59010;
0156829860999992007022712004-09400-038217FM-12+0253SBUF V0201401N005710450019N0100001N1+02741+01951101431ADDGF105991031041008001031011KA1240N+02361MA1999999098601MD1999999+0061REMSYN076AAXX  27124 82986 32597 51411 10274 20195 39860 40143 83431 333 20236 58006;
0137829860999992007022718004-09400-038217FM-12+0253SBUF V0201401N004110075019N0200001N1+03201+01671100961ADDGF105991051041008001001001MA1999999098151MD1999999-0061REMSYN070AAXX  27184 82986 32598 51408 10320 20167 39815 40096 85400 333 59006;
0168829860999992007022800004-09400-038217FM-12+0253SBUF V0201401N004612200019N0020001N1+02591+02171101251ADDGF104991041021008001001001KA1240M+03241MA1999999098411MD1999999+0061REMSYN088AAXX  28004 82986 32595 41409 10259 20217 39841 40125 84200 333 10324 29064 55095 58006;
0182829860999992007022818004-09400-038217FM-12+0253SBUF V0201801N003110450019N0200001N1+02531+02431101011ADDAA106005191AY161061AY221061GF106991031041008001051011MA1999999098151MD1999999+0001MW1021REMSYN082AAXX  28184 82986 21598 61806 10253 20243 39815 40101 70262 83451 333 58000 60051;
0168829860999992007030100004-09400-038217FM-12+0253SBUF V0201801N003110450019N0020001N1+02401+02231101251ADDGF108991041081008001071999KA1240M+03131MA1999999098401MD1999999-0011REMSYN088AAXX  01004 82986 32595 81806 10240 20223 39840 40125 8487/ 333 10313 29086 55064 59001;
0201829860999992007030112004-09400-038217FM-12+0253SBUF V0201401N004610042019N0100001N1+02601+02211101311ADDAA124005191AY161061AY221061GF106991061071004501001001KA1240N+02221MA1999999098451MD1999999-0031MW1031REMSYN088AAXX  01124 82986 21497 61409 10260 20221 39845 40131 70362 86700 333 20222 59003 60054;
0137829860999992007030118004-09400-038217FM-12+0253SBUF V0201401N005110075019N0200001N1+03061+01901100831ADDGF106991051021008001051001MA1999999098011MD1999999-0141REMSYN070AAXX  01184 82986 32598 61410 10306 20190 39801 40083 85250 333 59014;
0156829860999992007030212004-09400-038217FM-12+0253SBUF V0201401N003110075019N0100001N1+02551+01861101301ADDGF105991051021008001001001KA1240N+01961MA1999999098451MD1999999+0001REMSYN076AAXX  02124 82986 32597 51406 10255 20186 39845 40130 85200 333 20196 58000;
0137829860999992007030218004-09400-038217FM-12+0253SBUF V0200901N004110075019N0200001N1+03091+01951100931ADDGF106991061021008001001001MA1999999098091MD1999999+0081REMSYN070AAXX  02184 82986 32598 60908 10309 20195 39809 40093 86200 333 58008;
0156829860999992007030312004-09400-038217FM-12+0253SBUF V0201401N002610075019N0100001N1+02581+02081101221ADDGF106991061051008001001001KA1240N+02081MA1999999098461MD1999999+0011REMSYN076AAXX  03124 82986 32597 61405 10258 20208 39846 40122 86500 333 20208 58001;
0182829860999992007030318004-09400-038217FM-12+0253SBUF V0200901N002610021019N0020001N1+02601+02311101051ADDAA106001091AY111061AY201061GF108991081071002501999999MA1999999098181MD1999999+0091MW1011REMSYN082AAXX  03184 82986 21395 80905 10260 20231 39818 40105 70110 887// 333 58009 60011;
0213829860999992007030400004-09400-038217FM-12+0253SBUF V0201801N002610021019N0020001N1+02281+02211101281ADDAA106008991AY161061AY221061GF108991081071002501999999KA1240M+03151MA1999999098421MD1999999+0071MW1601REMSYN100AAXX  04004 82986 21395 81805 10228 20221 39842 40128 76062 887// 333 10315 29088 55071 58007 60091;
0201829860999992007030412004-09400-038217FM-12+0253SBUF V0200901N002610075019N0100001N1+02511+02211101321ADDAA124019191AY161061AY221061GF106991051021008001051001KA1240N+02111MA1999999098451MD1999999-0011MW1021REMSYN088AAXX  04124 82986 21597 60905 10251 20221 39845 40132 70262 85250 333 20211 59001 60194;
0182829860999992007030418004-09400-038217FM-12+0253SBUF V0201401N005110060019N0020001N1+02341+02271101131ADDAA106007191AY161061AY221061GF108991081081002501999999MA1999999098251MD1999999+0071MW1651REMSYN082AAXX  04184 82986 21395 81410 10234 20227 39825 40113 76562 888// 333 58007 60071;
0213829860999992007030500004-09400-038217FM-12+0253SBUF V0201801N001510042019N0020001N1+02301+02231101331ADDAA106005191AY161061AY221061GF106991061071004501001001KA1240M+03011MA1999999098461MD1999999+0041MW1011REMSYN100AAXX  05004 82986 21495 61803 10230 20223 39846 40133 70162 86700 333 10301 29093 55064 58004 60051;
0173829860999992007030512004-09400-038217FM-12+0253SBUF V0201401N003110075019N0100001N1+02481+02171101401ADDAA124011991GF106991061041008001001001KA1240N+02221MA1999999098531MD1999999+0081REMSYN082AAXX  05124 82986 22597 61406 10248 20217 39853 40140 86400 333 20222 58008 60124;
0137829860999992007030518004-09400-038217FM-12+0253SBUF V0200901N003112200019N0200001N1+03051+01711101031ADDGF104991031021008001001051MA1999999098201MD1999999-0051REMSYN070AAXX  05184 82986 32598 40906 10305 20171 39820 40103 83205 333 59005;
0168829860999992007030600004-09400-038217FM-12+0253SBUF V0200901N003110075019N0020001N1+02511+02111101311ADDGF106991061051008001001001KA1240M+03061MA1999999098451MD1999999-0011REMSYN088AAXX  06004 82986 32595 60906 10251 20211 39845 40131 86500 333 10306 29072 55097 59001;
0156829860999992007030612004-09400-038217FM-12+0253SBUF V0200901N003110075019N0100001N1+02661+02091101501ADDGF106991051041008001001021KA1240N+02241MA1999999098651MD1999999+0121REMSYN076AAXX  06124 82986 32597 60906 10266 20209 39865 40150 85402 333 20224 58012;
0178829860999992007030700004-09400-038217FM-12+0253SBUF V0200901N005112200019N0020001N1+02641+02091101441ADDGA1001+999999999GF100991001001999999001001KA1240M+03071MA1999999098601MD1999999+0151REMSYN082AAXX  07004 82986 32995 00910 10264 20209 39860 40144 333 10307 29066 55089 58015;
0137829860999992007030718004-09400-038217FM-12+0253SBUF V0200901N003110075019N0200001N1+03081+01821101181ADDGF105991051021008001001001MA1999999098351MD1999999+0011REMSYN070AAXX  07184 82986 32598 50906 10308 20182 39835 40118 85200 333 58001;
0168829860999992007030800004-09400-038217FM-12+0253SBUF V0201801N004112200019N0020001N1+02621+02071101381ADDGF101991011001017501041001KA1240M+02641MA1999999098531MD1999999-0071REMSYN088AAXX  08004 82986 32795 11808 10262 20207 39853 40138 81040 333 10264 29066 55097 59007;
0203829860999992007030812004-09400-038217FM-12+0253SBUF V0200901N003119999999N0100001N1+02541+02271101431ADDAY121061AY221061GF106991999071004501999999KA1240N+02261MA1999999098581MD1999999-0141MW1151REMSYN082AAXX  08124 82986 31497 60906 10254 20227 39858 40143 71522 887// 333 20226 59014;EQDQ01+000082SCOTLC
0182829860999992007030818004-09400-038217FM-12+0253SBUF V0201401N004112200019N0100001N1+02961+02101101001ADDAA106001091AY161061AY221061GF106991031021008001001061MA1999999098171MD1999999-0181MW1011REMSYN082AAXX  08184 82986 21597 61408 10296 20210 39817 40100 70162 83206 333 59018 60011;
0168829860999992007030900004-09400-038217FM-12+0253SBUF V0201801N005110450019N0020001N1+02541+02211101281ADDGF106991021041008001071001KA1240M+03031MA1999999098431MD1999999-0101REMSYN088AAXX  09004 82986 32595 61810 10254 20221 39843 40128 82470 333 10303 29077 55038 59010;
0201829860999992007030912004-09400-038217FM-12+0253SBUF V0201401N003610042019N0100001N1+02501+02091101341ADDAA124001091AY151061AY221061GF108991081071004501999999KA1240N+02201MA1999999098481MD1999999-0101MW1021REMSYN088AAXX  09124 82986 21497 81407 10250 20209 39848 40134 70252 887// 333 20220 59010 60014;
0201829860999992007030918004-09400-038217FM-12+0253SBUF V0201401N002610450019N0100001N1+02661+01971101041ADDAA106000091AY161061AY221061GF107991041071004501041011MA1999999098181MD1999999+0011MW1031REMSYN082AAXX  09184 82986 21497 71405 10266 20197 39818 40104 70362 84741 333 58001 69921;EQDQ01  00002PRCP06
0213829860999992007031000004-09400-038217FM-12+0253SBUF V0201801N002612200019N0020001N1+02221+02141101341ADDAA106004191AY161061AY221061GF103991031001017501021001KA1240M+02811MA1999999098461MD1999999+0031MW1011REMSYN100AAXX  10004 82986 21795 31805 10222 20214 39846 40134 70162 83020 333 10281 29084 55028 58003 60041;
0137829860999992007031018004-09400-038217FM-12+0253SBUF V0201401N004110450019N0200001N1+03061+01701100921ADDGF106991031021008001041021MA1999999098101MD1999999-0081REMSYN070AAXX  10184 82986 32598 61408 10306 20170 39810 40092 83242 333 59008;
0178829860999992007031100004-09400-038217FM-12+0253SBUF V0200901N005712200019N0020001N1+02501+02251101191ADDGA1001+999999999GF100991001001999999001001KA1240M+03071MA1999999098341MD1999999-0121REMSYN082AAXX  11004 82986 32995 00911 10250 20225 39834 40119 333 10307 29075 55074 59012;
0220829860999992007031112004-09400-038217FM-12+0253SBUF V0201801N001010042019N0100001N1+02401+02241101451ADDAA124000091AY151061AY221061GF108991081071004501999999KA1240N+02181MA1999999098581MD1999999+0101MW1031REMSYN088AAXX  11124 82986 21497 81802 10240 20224 39858 40145 70352 887// 333 20218 58010 69924;EQDQ01  00002PRCP24
0137829860999992007031118004-09400-038217FM-12+0253SBUF V0201401N001010450019N0200001N1+03021+01801100931ADDGF106991021031008001051021MA1999999098101MD1999999+0001REMSYN070AAXX  11184 82986 32598 61402 10302 20180 39810 40093 82352 333 58000;
0168829860999992007031200004-09400-038217FM-12+0253SBUF V0201801N003110075019N0020001N1+02371+02221101401ADDGF105991051021008001001001KA1240M+03041MA1999999098531MD1999999+0191REMSYN088AAXX  12004 82986 32595 51806 10237 20222 39853 40140 85200 333 10304 29081 55020 58019;
0156829860999992007031212004-09400-038217FM-12+0253SBUF V0201801N002610075019N0100001N1+02621+02211101411ADDGF106991061041008001001001KA1240N+02301MA1999999098551MD1999999-0031REMSYN076AAXX  12124 82986 32597 61805 10262 20221 39855 40141 86400 333 20230 59003;
0137829860999992007031218004-09400-038217FM-12+0253SBUF V0200901N003610450019N0100001N1+03161+01991100981ADDGF106991021021008001051081MA1999999098161MD1999999+0061REMSYN070AAXX  12184 82986 32597 60907 10316 20199 39816 40098 82258 333 58006;
0178829860999992007031300004-09400-038217FM-12+0253SBUF V0201801N002112200019N0020001N1+02481+02211101361ADDGA1001+999999999GF100991001001999999001001KA1240M+03201MA1999999098511MD1999999-0021REMSYN082AAXX  13004 82986 32995 01804 10248 20221 39851 40136 333 10320 29074 55075 59002;
0156829860999992007031312004-09400-038217FM-12+0253SBUF V0201401N003110450019N0100001N1+02621+02161101391ADDGF106991041021008001031001KA1240N+02261MA1999999098541MD1999999-0011REMSYN076AAXX  13124 82986 32597 61406 10262 20216 39854 40139 84230 333 20226 59001;
0137829860999992007031318004-09400-038217FM-12+0253SBUF V0200901N004612200019N0200001N1+03101+01971100991ADDGF106991041021008001001061MA1999999098161MD1999999+0001REMSYN070AAXX  13184 82986 32598 60909 10310 20197 39816 40099 84206 333 58000;
0168829860999992007031400004-09400-038217FM-12+0253SBUF V0201801N002610120019N0020001N1+02421+02251101271ADDGF106991061081008001001001KA1240M+03171MA1999999098411MD1999999-0101REMSYN088AAXX  14004 82986 32595 61805 10242 20225 39841 40127 86800 333 10317 29077 55076 59010;
0156829860999992007031412004-09400-038217FM-12+0253SBUF V0200901N003110075019N0100001N1+02731+02121101291ADDGF106991061041008001001001KA1240N+02341MA1999999098451MD1999999-0091REMSYN076AAXX  14124 82986 32597 60906 10273 20212 39845 40129 86400 333 20234 59009;
0137829860999992007031418004-09400-038217FM-12+0253SBUF V0200901N004110450019N0200001N1+02931+01921100911ADDGF106991041091008001031061MA1999999098081MD1999999-0081REMSYN070AAXX  14184 82986 32598 60908 10293 20192 39808 40091 84936 333 59008;
0156829860999992007031512004-09400-038217FM-12+0253SBUF V0201401N004610075019N0100001N1+02701+02151101311ADDGF106991061021008001001001KA1240N+02261MA1999999098471MD1999999+0021REMSYN076AAXX  15124 82986 32597 61409 10270 20215 39847 40131 86200 333 20226 58002;
0137829860999992007031518004-09400-038217FM-12+0253SBUF V0200901N005710450019N0200001N1+03221+01611100961ADDGF106991031021008001041041MA1999999098541MD1999999+0061REMSYN070AAXX  15184 82986 32598 60911 10322 20161 39854 40096 83244 333 58006;
0178829860999992007031600004-09400-038217FM-12+0253SBUF V0201401N005112200019N0020001N1+02641+02001101211ADDGA1001+999999999GF100991001001999999001001KA1240M+03251MA1999999098371MD1999999-0041REMSYN082AAXX  16004 82986 32995 01410 10264 20200 39837 40121 333 10325 29062 55092 59004;
0156829860999992007031612004-09400-038217FM-12+0253SBUF V0200901N003110075019N0100001N1+02741+02121101371ADDGF106991051021008001001041KA1240N+02231MA1999999098541MD1999999+0071REMSYN076AAXX  16124 82986 32597 60906 10274 20212 39854 40137 85204 333 20223 58007;
0137829860999992007031618004-09400-038217FM-12+0253SBUF V0201401N003611050019N0200001N1+03181+01731101001ADDGF107991031021008001001071MA1999999098171MD1999999+0031REMSYN070AAXX  16184 82986 32598 71407 10318 20173 39817 40100 83207 333 58003;
0213829860999992007031700004-09400-038217FM-12+0253SBUF V0201401N001510150019N0020001N1+02381+02331101291ADDAA106006191AY191061AY221061GF105991051001017501021001KA1240M+03251MA1999999098441MD1999999+0071MW1011REMSYN100AAXX  17004 82986 21795 51403 10238 20233 39844 40129 70192 85020 333 10325 29073 55092 58007 60061;
0173829860999992007031712004-09400-038217FM-12+0253SBUF V0201401N003110042019N0100001N1+02621+02371101371ADDAA124006191GF108991081071004501999999KA1240N+02261MA1999999098511MD1999999-0031REMSYN082AAXX  17124 82986 22497 81406 10262 20237 39851 40137 887// 333 20226 59003 60064;
0156829860999992007031812004-09400-038217FM-12+0253SBUF V0200901N002110042019N0100001N1+02701+02151101431ADDGF108991081071004501999999KA1240N+02341MA1999999098591MD1999999+0081REMSYN076AAXX  18124 82986 32497 80904 10270 20215 39859 40143 887// 333 20234 58008;
0156829860999992007031912004-09400-038217FM-12+0253SBUF V0201401N003110450019N0100001N1+02731+02081101421ADDGF106991031021008001031011KA1240N+02331MA1999999098581MD1999999-0011REMSYN076AAXX  19124 82986 32597 61406 10273 20208 39858 40142 83231 333 20233 59001;
0137829860999992007031918004-09400-038217FM-12+0253SBUF V0200901N002611050019N0200001N1+03301+01911100941ADDGF106991021021008001001081MA1999999098141MD1999999+0041REMSYN070AAXX  19184 82986 32598 60905 10330 20191 39814 40094 82208 333 58004;
0168829860999992007032000004-09400-038217FM-12+0253SBUF V0201401N002612200019N0020001N1+02721+02281101251ADDGF102991021001012501031001KA1240M+03331MA1999999098421MD1999999+0071REMSYN088AAXX  20004 82986 32695 21405 10272 20228 39842 40125 82030 333 10333 29066 55073 58007;
0156829860999992007032012004-09400-038217FM-12+0253SBUF V0200901N001510075019N0100001N1+02741+02261101361ADDGF106991061041008001001001KA1240N+02421MA1999999098531MD1999999-0051REMSYN076AAXX  20124 82986 32597 60903 10274 20226 39853 40136 86400 333 20242 59005;
0137829860999992007032018004-09400-038217FM-12+0253SBUF V0201401N002612200019N0200001N1+03421+01781100821ADDGF102991011021008001001061MA1999999098031MD1999999-0111REMSYN070AAXX  20184 82986 32598 21405 10342 20178 39803 40082 81206 333 59011;
0178829860999992007032100004-09400-038217FM-12+0253SBUF V0201401N005112200019N0020001N1+02721+02371101071ADDGA1001+999999999GF100991001001999999001001KA1240M+03421MA1999999098251MD1999999-0171REMSYN082AAXX  21004 82986 32995 01410 10272 20237 39825 40107 333 10342 29069 55092 59017;
0156829860999992007032112004-09400-038217FM-12+0253SBUF V0201401N002610075019N0100001N1+02761+02191101251ADDGF106991061021008001001001KA1240N+02341MA1999999098421MD1999999-0111REMSYN076AAXX  21124 82986 32597 61405 10276 20219 39842 40125 86200 333 20234 59011;
0182829860999992007032118004-09400-038217FM-12+0253SBUF V0201401N002612200019N0200001N1+03101+01941100771ADDAA106002091AY161061AY221061GF106991021021008001001061MA1999999097961MD1999999-0071MW1011REMSYN082AAXX  21184 82986 21598 61405 10310 20194 39796 40077 70162 82206 333 59007 60021;
0168829860999992007032200004-09400-038217FM-12+0253SBUF V0200901N004112200019N0020001N1+02621+02391101081ADDGF103991031001017501021001KA1240M+03311MA1999999098251MD1999999+0001REMSYN088AAXX  22004 82986 32795 30908 10262 20239 39825 40108 83020 333 10331 29074 55077 58000;
0201829860999992007032212004-09400-038217FM-12+0253SBUF V0201801N004110021019N0010001N1+02331+02321101341ADDAA124009991AY121061AY221061GF108991081071002501999999KA1240N+02301MA1999999098481MD1999999+0061MW1631REMSYN088AAXX  22124 82986 21394 81808 10233 20232 39848 40134 76322 887// 333 20230 58006 60104;
0182829860999992007032218004-09400-038217FM-12+0253SBUF V0201801N004111050019N0200001N1+02861+02061100871ADDAA106008991AY161061AY221061GF106991021021008001031041MA1999999098041MD1999999+0081MW1011REMSYN082AAXX  22184 82986 21598 61808 10286 20206 39804 40087 70162 82234 333 58008 60091;
0178829860999992007032300004-09400-038217FM-12+0253SBUF V0201801N003112200019N0020001N1+02461+02281101091ADDGA1001+999999999GF100991001001999999001001KA1240M+02971MA1999999098231MD1999999-0021REMSYN082AAXX  23004 82986 32995 01806 10246 20228 39823 40109 333 10297 29086 55041 59002;
0173829860999992007032312004-09400-038217FM-12+0253SBUF V0201401N005110450019N0100001N1+02721+02101101371ADDAA124008991GF106991041021008001051021KA1240N+02261MA1999999098521MD1999999+0041REMSYN082AAXX  23124 82986 22597 61410 10272 20210 39852 40137 84252 333 20226 58004 60094;
0137829860999992007032318004-09400-038217FM-12+0253SBUF V0200901N003111050019N0200001N1+03121+01791101021ADDGF106991021021008001001081MA1999999098201MD1999999+0161REMSYN070AAXX  23184 82986 32598 60906 10312 20179 39820 40102 82208 333 58016;
0156829860999992007032412004-09400-038217FM-12+0253SBUF V0200901N004110042019N0100001N1+02551+02271101441ADDGF108991081071004501999999KA1240N+02261MA1999999098591MD1999999+0071REMSYN076AAXX  24124 82986 32497 80908 10255 20227 39859 40144 887// 333 20226 58007;
0137829860999992007032418004-09400-038217FM-12+0253SBUF V0201401N005112200019N0200001N1+03161+01631100951ADDGF106991031021008001001041MA1999999098141MD1999999-0061REMSYN070AAXX  24184 82986 32598 61410 10316 20163 39814 40095 83204 333 59006;
0178829860999992007032500004-09400-038217FM-12+0253SBUF V0200901N005112200019N0020001N1+02681+02181101261ADDGA1001+999999999GF100991001001999999001001KA1240M+03211MA1999999098421MD1999999-0051REMSYN082AAXX  25004 82986 32995 00910 10268 20218 39842 40126 333 10321 29068 55060 59005;
0167829860999992007032512004-09400-038217FM-12+0253SBUF V0201801N003119999999N0040001N1+02531+02341101351ADDGF108991999999004501999999KA1240N+02341MA1999999098501MD1999999-0091REMSYN087AAXX  25124 82986 21496 81806 10253 20234 39850 40135 5052 888// 333 20234 59009 69914;
0182829860999992007032518004-09400-038217FM-12+0253SBUF V0201801N003110090019N0040001N1+02741+02521100981ADDAA106007991AY161061AY221061GF107991051081004501091999MA1999999098141MD1999999+0001MW1601REMSYN082AAXX  25184 82986 21496 71806 10274 20252 39814 40098 76062 8589/ 333 58000 60081;
0213829860999992007032600004-09400-038217FM-12+0253SBUF V0201401N003110021019N0020001N1+02461+02391101151ADDAA106003091AY161061AY221061GF108991061071002501091999KA1240M+02961MA1999999098301MD1999999-0121MW1021REMSYN100AAXX  26004 82986 21395 81406 10246 20239 39830 40115 70262 8679/ 333 10296 29092 55028 59012 60031;
0201829860999992007032612004-09400-038217FM-12+0253SBUF V0200901N004610075019N0100001N1+02641+02161101261ADDAA124011991AY161061AY221061GF106991061021008001001001KA1240N+02251MA1999999098411MD1999999-0091MW1021REMSYN088AAXX  26124 82986 21597 60909 10264 20216 39841 40126 70262 86200 333 20225 59009 60124;
0137829860999992007032618004-09400-038217FM-12+0253SBUF V0200901N004610075019N0200001N1+03081+01921100881ADDGF105991051021008001001001MA1999999098061MD1999999-0081REMSYN070AAXX  26184 82986 32598 50909 10308 20192 39806 40088 85200 333 59008;
0178829860999992007032700004-09400-038217FM-12+0253SBUF V0201401N004612200019N0020001N1+02561+02291101171ADDGA1001+999999999GF100991001001999999001001KA1240M+03111MA1999999098331MD1999999+0031REMSYN082AAXX  27004 82986 32995 01409 10256 20229 39833 40117 333 10311 29074 55101 58003;
0156829860999992007032712004-09400-038217FM-12+0253SBUF V0200901N003610042019N0100001N1+02641+02271101321ADDGF107991071071004501001001KA1240N+02281MA1999999098471MD1999999+0061REMSYN076AAXX  27124 82986 32497 70907 10264 20227 39847 40132 87700 333 20228 58006;
0137829860999992007032718004-09400-038217FM-12+0253SBUF V0200901N003111050019N0200001N1+03161+01711100931ADDGF105991031021008001001021MA1999999098111MD1999999+0051REMSYN070AAXX  27184 82986 32598 50906 10316 20171 39811 40093 83202 333 58005;
0168829860999992007032800004-09400-038217FM-12+0253SBUF V0201801N004112200019N0020001N1+02601+02121101271ADDGF104991041001017501021001KA1240M+03191MA1999999098431MD1999999+0101REMSYN088AAXX  28004 82986 32795 41808 10260 20212 39843 40127 84020 333 10319 29068 55086 58010;
0156829860999992007032812004-09400-038217FM-12+0253SBUF V0201801N003610042019N0100001N1+02621+02181101361ADDGF107991061051004501081001KA1240N+02241MA1999999098511MD1999999+0041REMSYN076AAXX  28124 82986 32497 71807 10262 20218 39851 40136 86580 333 20224 58004;
0165829860999992007032818004-09400-038217FM-12+0253SBUF V0201801N005110450019N0200001N1+03121+01951100941ADDAY111061AY201061GF106991041021008001041021MA1999999098121MD1999999+0011MW1151REMSYN076AAXX  28184 82986 31598 61810 10312 20195 39812 40094 71510 84242 333 58001;
0213829860999992007032900004-09400-038217FM-12+0253SBUF V0201801N003110042019N0020001N1+02361+02291101321ADDAA106004191AY161061AY221061GF106991061071004501001001KA1240M+03151MA1999999098461MD1999999+0031MW1011REMSYN100AAXX  29004 82986 21495 61806 10236 20229 39846 40132 70162 86700 333 10315 29080 55066 58003 60041;
0201829860999992007032912004-09400-038217FM-12+0253SBUF V0201401N002110042019N0100001N1+02421+02301101301ADDAA124004191AY161061AY221061GF108991081071004501999999KA1240N+02161MA1999999098431MD1999999-0081MW1021REMSYN088AAXX  29124 82986 21497 81404 10242 20230 39843 40130 70262 887// 333 20216 59008 60044;
0137829860999992007032918004-09400-038217FM-12+0253SBUF V0201401N003110075019N0200001N1+03031+01511100881ADDGF105991051021008001001001MA1999999098051MD1999999-0071REMSYN070AAXX  29184 82986 32598 51406 10303 20151 39805 40088 85200 333 59007;
0178829860999992007033000004-09400-038217FM-12+0253SBUF V0201801N001512200019N0020001N1+02411+01821101231ADDGA1001+999999999GF100991001001999999001001KA1240M+03041MA1999999098361MD1999999-0101REMSYN082AAXX  30004 82986 32995 01803 10241 20182 39836 40123 333 10304 29068 55075 59010;
0156829860999992007033012004-09400-038217FM-12+0253SBUF V0200901N004610450019N0100001N1+02561+02151101261ADDGF106991041071004501031011KA1240N+02081MA1999999098401MD1999999-0031REMSYN076AAXX  30124 82986 32497 60909 10256 20215 39840 40126 84731 333 20208 59003;
0137829860999992007033018004-09400-038217FM-12+0253SBUF V0201801N002111050019N0200001N1+03061+01771100831ADDGF105991021021008001031021MA1999999098001MD1999999-0051REMSYN070AAXX  30184 82986 32598 51804 10306 20177 39800 40083 82232 333 59005;
0156829860999992007033112004-09400-038217FM-12+0253SBUF V0201401N003110075019N0100001N1+02601+02121101191ADDGF106991061041008001001001KA1240N+02191MA1999999098341MD1999999-0061REMSYN076AAXX  31124 82986 32597 61406 10260 20212 39834 40119 86400 333 20219 59006;
0137829860999992007033118004-09400-038217FM-12+0253SBUF V0201401N002612200019N0200001N1+03181+01571100831ADDGF105991041021008001001041MA1999999098021MD1999999+0021REMSYN070AAXX  31184 82986 32598 51405 10318 20157 39802 40083 84204 333 58002;
0178829860999992007040100004-09400-038217FM-12+0253SBUF V0201401N003612200019N0020001N1+02621+02101101251ADDGA1001+999999999GF100991001001999999001001KA1240M+03211MA1999999098311MD1999999+0011REMSYN082AAXX  01004 82986 32995 01407 10262 20210 39831 40125 333 10321 29065 55098 58001;
0156829860999992007040112004-09400-038217FM-12+0253SBUF V0201401N003610075019N0100001N1+02701+01861101341ADDGF105991051011008001001001KA1240N+02201MA1999999098501MD1999999+0161REMSYN076AAXX  01124 82986 32597 51407 10270 20186 39850 40134 85100 333 20220 58016;
0137829860999992007040118004-09400-038217FM-12+0253SBUF V0201401N003612200019N0200001N1+03231+01691100851ADDGF104991031011008001001021MA1999999098041MD1999999+0021REMSYN070AAXX  01184 82986 32598 41407 10323 20169 39804 40085 83102 333 58002;
0178829860999992007040200004-09400-038217FM-12+0253SBUF V0200901N004112200019N0020001N1+02661+01951101161ADDGA1001+999999999GF100991001001999999001001KA1240M+03361MA1999999098241MD1999999+0031REMSYN082AAXX  02004 82986 32995 00908 10266 20195 39824 40116 333 10336 29058 55101 58003;
0156829860999992007040212004-09400-038217FM-12+0253SBUF V0200901N003610075019N0100001N1+02681+01991101311ADDGF106991051011008001001021KA1240N+02201MA1999999098471MD1999999-0031REMSYN076AAXX  02124 82986 32597 60907 10268 20199 39847 40131 85102 333 20220 59003;
0137829860999992007040218004-09400-038217FM-12+0253SBUF V0200901N003111050019N0200001N1+03181+01531100811ADDGF107991021011008001001081MA1999999098001MD1999999-0041REMSYN070AAXX  02184 82986 32598 70906 10318 20153 39800 40081 82108 333 59004;
0168829860999992007040300004-09400-038217FM-12+0253SBUF V0201801N003119999999N0020001N1+02661+02141101151ADDGF106991001001999999001061KA1240M+03251MA1999999098321MD1999999-0021REMSYN088AAXX  03004 82986 32995 61806 10266 20214 39832 40115 80006 333 10325 29062 55081 59002;
0156829860999992007040312004-09400-038217FM-12+0253SBUF V0201401N004110075019N0100001N1+02621+02101101361ADDGF106991051021008001001011KA1240N+02221MA1999999098521MD1999999+0051REMSYN076AAXX  03124 82986 32597 61408 10262 20210 39852 40136 85201 333 20222 58005;
0137829860999992007040318004-09400-038217FM-12+0253SBUF V0200901N002611050019N0200001N1+03141+01171100851ADDGF108991011011008001001071MA1999999098031MD1999999+0031REMSYN070AAXX  03184 82986 32598 80905 10314 20117 39803 40085 81107 333 58003;
0168829860999992007040400004-09400-038217FM-12+0253SBUF V0201401N004112200019N0020001N1+02621+02031101061ADDGF104991001001999999001031KA1240M+03191MA1999999098221MD1999999-0101REMSYN088AAXX  04004 82986 32995 41408 10262 20203 39822 40106 80003 333 10319 29061 55051 59010;
0156829860999992007040412004-09400-038217FM-12+0253SBUF V0200901N003112200019N0100001N1+02701+01861101381ADDGF106991041041008001001011KA1240N+02201MA1999999098541MD1999999+0021REMSYN076AAXX  04124 82986 32597 60906 10270 20186 39854 40138 84401 333 20220 58002;
0137829860999992007040418004-09400-038217FM-12+0253SBUF V0201801N002112200019N0200001N1+03271+01281100901ADDGF105991021021008001001061MA1999999098081MD1999999+0051REMSYN070AAXX  04184 82986 32598 51804 10327 20128 39808 40090 82206 333 58005;
0168829860999992007040500004-09400-038217FM-12+0253SBUF V0201401N003112200019N0020001N1+02631+01781101111ADDGF103991031001012501021001KA1240M+03321MA1999999098281MD1999999+0061REMSYN088AAXX  05004 82986 32695 31406 10263 20178 39828 40111 83020 333 10332 29052 55074 58006;
0156829860999992007040512004-09400-038217FM-12+0253SBUF V0200901N005110075019N0100001N1+02681+01941101371ADDGF105991051011008001001001KA1240N+02041MA1999999098531MD1999999-0011REMSYN076AAXX  05124 82986 32597 50910 10268 20194 39853 40137 85100 333 20204 59001;
0137829860999992007040518004-09400-038217FM-12+0253SBUF V0200901N003110075019N0200001N1+03221+01341101001ADDGF105991051011008001001001MA1999999098171MD1999999+0091REMSYN070AAXX  05184 82986 32598 50906 10322 20134 39817 40100 85100 333 58009;
0156829860999992007040612004-09400-038217FM-12+0253SBUF V0201401N001512200019N0100001N1+02641+01951101411ADDGF104991041011008001001001KA1240N+02061MA1999999098571MD1999999+0041REMSYN076AAXX  06124 82986 32597 41403 10264 20195 39857 40141 84100 333 20206 58004;
0137829860999992007040618004-09400-038217FM-12+0253SBUF V0201401N002612200019N0200001N1+03491+01531100881ADDGF102991011011008001001051MA1999999098071MD1999999-0101REMSYN070AAXX  06184 82986 32598 21405 10349 20153 39807 40088 81105 333 59010;
0178829860999992007040700004-09400-038217FM-12+0253SBUF V0201401N005112200019N0020001N1+02721+02081101181ADDGA1001+999999999GF100991001001999999001001KA1240M+03491MA1999999098351MD1999999-0131REMSYN082AAXX  07004 82986 32995 01410 10272 20208 39835 40118 333 10349 29058 55107 59013;
0156829860999992007040712004-09400-038217FM-12+0253SBUF V0201401N005712200019N0100001N1+02631+01931101461ADDGF106991041021008001001011KA1240N+02161MA1999999098621MD1999999+0051REMSYN076AAXX  07124 82986 32597 61411 10263 20193 39862 40146 84201 333 20216 58005;
0137829860999992007040718004-09400-038217FM-12+0253SBUF V0201401N005112200019N0200001N1+03321+01611101011ADDGF102991011011008001001011MA1999999098191MD1999999+0121REMSYN070AAXX  07184 82986 32598 21410 10332 20161 39819 40101 81101 333 58012;
0178829860999992007040800004-09400-038217FM-12+0253SBUF V0201401N005712200019N0020001N1+02681+01841101321ADDGA1001+999999999GF100991001001999999001001KA1240M+03341MA1999999098481MD1999999+0131REMSYN082AAXX  08004 82986 32995 01411 10268 20184 39848 40132 333 10334 29056 55105 58013;
0156829860999992007040812004-09400-038217FM-12+0253SBUF V0201401N003612200019N0100001N1+02701+02011101251ADDGF106991031041008001001061KA1240N+02361MA1999999098611MD1999999-0011REMSYN076AAXX  08124 82986 32597 61407 10270 20201 39861 40125 83406 333 20236 59001;
0137829860999992007040818004-09400-038217FM-12+0253SBUF V0201401N001519999999N0200001N1+03311+01411100931ADDGF105991001001999999001081MA1999999098131MD1999999-0061REMSYN070AAXX  08184 82986 32998 51403 10331 20141 39813 40093 80008 333 59006;
0178829860999992007040900004-09400-038217FM-12+0253SBUF V0201801N003612200019N0020001N1+02641+02051101201ADDGA1001+999999999GF100991001001999999001001KA1240M+03351MA1999999098361MD1999999-0121REMSYN082AAXX  09004 82986 32995 01807 10264 20205 39836 40120 333 10335 29060 55082 59012;
0137829860999992007040918004-09400-038217FM-12+0253SBUF V0201401N002612200019N0200001N1+03591+01271100721ADDGF102991021011008001001001MA1999999097931MD1999999-0201REMSYN070AAXX  09184 82986 32598 21405 10359 20127 39793 40072 82100 333 59020;
0178829860999992007041000004-09400-038217FM-12+0253SBUF V0201401N003612200019N0020001N1+02841+01701101011ADDGA1001+999999999GF100991001001999999001001KA1240M+03581MA1999999098201MD1999999-0161REMSYN082AAXX  10004 82986 32995 01407 10284 20170 39820 40101 333 10358 29047 55089 59016;
0156829860999992007041012004-09400-038217FM-12+0253SBUF V0201801N001512200019N0100001N1+02801+01951101181ADDGF102991011011008001001011KA1240N+02281MA1999999098361MD1999999-0131REMSYN076AAXX  10124 82986 32597 21803 10280 20195 39836 40118 81101 333 20228 59013;
0137829860999992007041018004-09400-038217FM-12+0253SBUF V0201401N002612200019N0200001N1+03511+01481100751ADDGF104991031011008001001011MA1999999097961MD1999999+0031REMSYN070AAXX  10184 82986 32598 41405 10351 20148 39796 40075 83101 333 58003;
0178829860999992007041100004-09400-038217FM-12+0253SBUF V0200901N004112200019N0020001N1+02851+02041101171ADDGA1001+999999999GF100991001001999999001001KA1240M+03551MA1999999098351MD1999999+0151REMSYN082AAXX  11004 82986 32995 00908 10285 20204 39835 40117 333 10355 29054 55103 58015;
0156829860999992007041112004-09400-038217FM-12+0253SBUF V0201801N003610042019N0100001N1+02821+01971101411ADDGF106991061071004501001001KA1240N+02341MA1999999098591MD1999999+0231REMSYN076AAXX  11124 82986 32497 61807 10282 20197 39859 40141 86700 333 20234 58023;
0137829860999992007041118004-09400-038217FM-12+0253SBUF V0200901N003110042019N0100001N1+03241+01261101001ADDGF106991061051004501001001MA1999999098191MD1999999+0231REMSYN070AAXX  11184 82986 32497 60906 10324 20126 39819 40100 86500 333 58023;
0178829860999992007041200004-09400-038217FM-12+0253SBUF V0201401N005112200019N0020001N1+02661+01871101361ADDGA1001+999999999GF100991001001999999001001KA1240M+03351MA1999999098531MD1999999+0181REMSYN082AAXX  12004 82986 32995 01410 10266 20187 39853 40136 333 10335 29054 55045 58018;
0156829860999992007041212004-09400-038217FM-12+0253SBUF V0200901N003110075019N0100001N1+02691+02091101541ADDGF105991051041008001001001KA1240N+02221MA1999999098701MD1999999+0111REMSYN076AAXX  12124 82986 32597 50906 10269 20209 39870 40154 85400 333 20222 58011;
0137829860999992007041218004-09400-038217FM-12+0253SBUF V0201401N004110450019N0200001N1+03451+01481101061ADDGF105991031021008001031001MA1999999098261MD1999999+0071REMSYN070AAXX  12184 82986 32598 51408 10345 20148 39826 40106 83230 333 58007;
0168829860999992007041300004-09400-038217FM-12+0253SBUF V0201401N006212200019N0020001N1+02761+02231101351ADDGF104991041021008001001001KA1240M+03501MA1999999098521MD1999999-0011REMSYN088AAXX  13004 82986 32595 41412 10276 20223 39852 40135 84200 333 10350 29062 55091 59001;
0156829860999992007041312004-09400-038217FM-12+0253SBUF V0201801N003110075019N0100001N1+02841+01991101461ADDGF105991051021008001001001KA1240N+02261MA1999999098641MD1999999-0061REMSYN076AAXX  13124 82986 32597 51806 10284 20199 39864 40146 85200 333 20226 59006;
0137829860999992007041318004-09400-038217FM-12+0253SBUF V0201401N003610075019N0200001N1+03451+01581100971ADDGF105991051021008001001001MA1999999098171MD1999999-0091REMSYN070AAXX  13184 82986 32598 51407 10345 20158 39817 40097 85200 333 59009;
0168829860999992007041400004-09400-038217FM-12+0253SBUF V0201801N005110075019N0020001N1+02651+02161101351ADDGF106991061051008001001001KA1240M+03461MA1999999098521MD1999999+0001REMSYN088AAXX  14004 82986 32595 61810 10265 20216 39852 40135 86500 333 10346 29061 55101 58000;
0156829860999992007041412004-09400-038217FM-12+0253SBUF V0201401N003110075019N0100001N1+02721+02101101491ADDGF106991061021008001001001KA1240N+02301MA1999999098651MD1999999+0011REMSYN076AAXX  14124 82986 32597 61406 10272 20210 39865 40149 86200 333 20230 58001;
0137829860999992007041418004-09400-038217FM-12+0253SBUF V0201401N004110075019N0200001N1+03301+01911100961ADDGF106991061021008001001001MA1999999098151MD1999999-0021REMSYN070AAXX  14184 82986 32598 61408 10330 20191 39815 40096 86200 333 59002;
0178829860999992007041500004-09400-038217FM-12+0253SBUF V0201401N004112200019N0020001N1+02551+02111101451ADDGA1001+999999999GF100991001001999999001001KA1240M+03351MA1999999098611MD1999999+0091REMSYN082AAXX  15004 82986 32995 01408 10255 20211 39861 40145 333 10335 29067 55085 58009;
0156829860999992007041512004-09400-038217FM-12+0253SBUF V0201401N003110075019N0100001N1+02701+02061101521ADDGF105991051021008001001001KA1240N+02271MA1999999098671MD1999999+0021REMSYN076AAXX  15124 82986 32597 51406 10270 20206 39867 40152 85200 333 20227 58002;
0137829860999992007041518004-09400-038217FM-12+0253SBUF V0201401N002612200019N0200001N1+03311+01411101001ADDGF104991041011008001001001MA1999999098181MD1999999+0031REMSYN070AAXX  15184 82986 32598 41405 10331 20141 39818 40100 84100 333 58003;
0156829860999992007041612004-09400-038217FM-12+0253SBUF V0200901N005710075019N0100001N1+02821+01831101451ADDGF105991051041008001001001KA1240N+02221MA1999999098621MD1999999-0051REMSYN076AAXX  16124 82986 32597 50911 10282 20183 39862 40145 85400 333 20222 59005;
0137829860999992007041618004-09400-038217FM-12+0253SBUF V0201401N003110075019N0200001N1+03281+01241100921ADDGF106991061021008001001001MA1999999098111MD1999999-0071REMSYN070AAXX  16184 82986 32598 61406 10328 20124 39811 40092 86200 333 59007;
0168829860999992007041700004-09400-038217FM-12+0253SBUF V0201801N006212200019N0020001N1+02681+01891101221ADDGF104991041001017501021001KA1240M+03391MA1999999098391MD1999999-0161REMSYN088AAXX  17004 82986 32795 41812 10268 20189 39839 40122 84020 333 10339 29052 55086 59016;
0156829860999992007041712004-09400-038217FM-12+0253SBUF V0201401N004610042019N0100001N1+02681+02091101321ADDGF108991081071004501999999KA1240N+02221MA1999999098491MD1999999-0131REMSYN076AAXX  17124 82986 32497 81409 10268 20209 39849 40132 887// 333 20222 59013;
0137829860999992007041718004-09400-038217FM-12+0253SBUF V0201801N001511050019N0200001N1+03281+01531100861ADDGF106991041021008001001021MA1999999098051MD1999999-0061REMSYN070AAXX  17184 82986 32598 61803 10328 20153 39805 40086 84202 333 59006;
0178829860999992007041800004-09400-038217FM-12+0253SBUF V0201801N003112200019N0020001N1+02641+02071101171ADDGA1001+999999999GF100991001001999999001001KA1240M+03281MA1999999098341MD1999999-0051REMSYN082AAXX  18004 82986 32995 01806 10264 20207 39834 40117 333 10328 29062 55039 59005;
0156829860999992007041812004-09400-038217FM-12+0253SBUF V0201401N003610450019N0100001N1+02721+02081101241ADDGF106991041021008001021001KA1240N+02301MA1999999098411MD1999999-0081REMSYN076AAXX  18124 82986 32597 61407 10272 20208 39841 40124 84220 333 20230 59008;
0137829860999992007041818004-09400-038217FM-12+0253SBUF V0200901N003111050019N0200001N1+03141+01971100881ADDGF106991031021008001001081MA1999999098061MD1999999+0011REMSYN070AAXX  18184 82986 32598 60906 10314 20197 39806 40088 83208 333 58001;
0168829860999992007041900004-09400-038217FM-12+0253SBUF V0201401N003612200019N0020001N1+02721+02191101201ADDGF102991021021008001001001KA1240M+03271MA1999999098731MD1999999+0031REMSYN088AAXX  19004 82986 32595 21407 10272 20219 39873 40120 82200 333 10327 29066 55030 58003;
0201829860999992007041912004-09400-038217FM-12+0253SBUF V0200901N003110060019N0010001N1+02271+02211101341ADDAA124006191AY161061AY261061GF108991081081002501999999KA1240N+02261MA1999999098481MD1999999+0071MW1631REMSYN088AAXX  19124 82986 21394 80906 10227 20221 39848 40134 76366 888// 333 20226 58007 60064;
0182829860999992007041918004-09400-038217FM-12+0253SBUF V0201801N003110090019N0100001N1+02881+02351100901ADDAA106000021AY151061AY221061GF107991051081004501091999MA1999999098071MD1999999+0011MW1151REMSYN082AAXX  19184 82986 21497 71806 10288 20235 39807 40090 71552 8589/ 333 58001 69911;
0178829860999992007042000004-09400-038217FM-12+0253SBUF V0201801N004112200019N0020001N1+02531+02211101281ADDGA1001+999999999GF100991001001999999001001KA1240M+03211MA1999999098411MD1999999+0041REMSYN082AAXX  20004 82986 32995 01808 10253 20221 39841 40128 333 10321 29084 55025 58004;
0173829860999992007042012004-09400-038217FM-12+0253SBUF V0201401N004610075019N0100001N1+02671+02071101241ADDAA124000021GF106991051021008001031001KA1240N+02241MA1999999098491MD1999999+0011REMSYN082AAXX  20124 82986 22597 61409 10267 20207 39849 40124 85230 333 20224 58001 69914;
0137829860999992007042018004-09400-038217FM-12+0253SBUF V0200901N005710450019N0200001N1+03241+01211100841ADDGF106991031011008001031001MA1999999098031MD1999999-0041REMSYN070AAXX  20184 82986 32598 60911 10324 20121 39803 40084 83130 333 59004;
0178829860999992007042100004-09400-038217FM-12+0253SBUF V0201801N005112200019N0020001N1+02621+01731101191ADDGA1001+999999999GF100991001001999999001001KA1240M+03311MA1999999098351MD1999999-0061REMSYN082AAXX  21004 82986 32995 01810 10262 20173 39835 40119 333 10331 29054 55072 59006;
0220829860999992007042112004-09400-038217FM-12+0253SBUF V0201801N004610090019N0040001N1+02711+02431101281ADDAA124000091AY151061AY221061GF108991081081004501999999KA1240N+02261MA1999999098441MD1999999-0051MW1151REMSYN088AAXX  21124 82986 21496 81809 10271 20243 39844 40128 71552 888// 333 20226 59005 69904;EQDQ01  00002PRCP24
0182829860999992007042118004-09400-038217FM-12+0253SBUF V0201801N003610060019N0020001N1+02581+02551100971ADDAA106014091AY161061AY221061GF108991081081002501999999MA1999999098121MD1999999+0091MW1601REMSYN082AAXX  21184 82986 21395 81807 10258 20255 39812 40097 76062 888// 333 58009 60141;
0213829860999992007042200004-09400-038217FM-12+0253SBUF V0201801N002610042019N0020001N1+02241+02221101321ADDAA106006191AY161061AY221061GF106991061071004501001001KA1240M+02711MA1999999098461MD1999999+0111MW1011REMSYN100AAXX  22004 82986 21495 61805 10224 20222 39846 40132 70162 86700 333 10271 29095 55025 58011 60061;
0173829860999992007042212004-09400-038217FM-12+0253SBUF V0201401N002610450019N0100001N1+02521+02271101351ADDAA124020191GF108991041021008001021021KA1240N+02221MA1999999098481MD1999999+0041REMSYN082AAXX  22124 82986 22597 81405 10252 20227 39848 40135 84222 333 20222 58004 60204;
0137829860999992007042218004-09400-038217FM-12+0253SBUF V0200901N001510450019N0200001N1+03071+01771100931ADDGF106991031021008001021001MA1999999098111MD1999999-0011REMSYN070AAXX  22184 82986 32598 60903 10307 20177 39811 40093 83220 333 59001;
0178829860999992007042300004-09400-038217FM-12+0253SBUF V0200901N002612200019N0020001N1+02531+02271101361ADDGA1001+999999999GF100991001001999999001001KA1240M+03071MA1999999098501MD1999999+0041REMSYN082AAXX  23004 82986 32995 00905 10253 20227 39850 40136 333 10307 29076 55047 58004;
0156829860999992007042312004-09400-038217FM-12+0253SBUF V0201801N001510042019N0100001N1+02481+02271101431ADDGF108991081071004501999999KA1240N+02181MA1999999098571MD1999999+0091REMSYN076AAXX  23124 82986 32497 81803 10248 20227 39857 40143 887// 333 20218 58009;
0182829860999992007042318004-09400-038217FM-12+0253SBUF V0200901N002610450019N0200001N1+02641+02161101081ADDAA106003091AY161061AY221061GF106991021021008001041011MA1999999098221MD1999999+0111MW1021REMSYN082AAXX  23184 82986 21598 60905 10264 20216 39822 40108 70262 82241 333 58011 60031;
0178829860999992007042400004-09400-038217FM-12+0253SBUF V0201801N002112200019N0020001N1+02441+02281101341ADDGA1001+999999999GF100991001001999999001001KA1240M+02901MA1999999098481MD1999999-0021REMSYN082AAXX  24004 82986 32995 01804 10244 20228 39848 40134 333 10290 29086 55013 59002;
0173829860999992007042412004-09400-038217FM-12+0253SBUF V0200901N003610075019N0100001N1+02681+02201101421ADDAA124003091GF106991051041008001001011KA1240N+02221MA1999999098571MD1999999+0001REMSYN082AAXX  24124 82986 22597 60907 10268 20220 39857 40142 85401 333 20222 58000 60034;
0137829860999992007042418004-09400-038217FM-12+0253SBUF V0201401N005110075019N0200001N1+03151+02211100941ADDGF106991051021008001041001MA1999999098121MD1999999-0101REMSYN070AAXX  24184 82986 32598 61410 10315 20221 39812 40094 85240 333 59010;
0232829860999992007042500004-09400-038217FM-12+0253SBUF V0201801N002610450019N0020001N1+02501+02291101241ADDAA106000091AY151061AY221061GF105991021021008001051001KA1240M+03201MA1999999098401MD1999999-0081MW1021REMSYN100AAXX  25004 82986 21595 51805 10250 20229 39840 40124 70252 82250 333 10320 29077 55067 59008 69901;EQDQ01  00002PRCP06
0201829860999992007042512004-09400-038217FM-12+0253SBUF V0201401N002110042019N0100001N1+02551+02211101401ADDAA124001091AY161061AY251061GF106991061071004501001001KA1240N+02281MA1999999098541MD1999999-0031MW1031REMSYN088AAXX  25124 82986 21497 61404 10255 20221 39854 40140 70365 86700 333 20228 59003 60014;
0137829860999992007042518004-09400-038217FM-12+0253SBUF V0201401N005110450019N0200001N1+02901+02171100961ADDGF106991031021008001091001MA1999999098131MD1999999+0011REMSYN070AAXX  25184 82986 32598 61410 10290 20217 39813 40096 83290 333 58001;
0168829860999992007042600004-09400-038217FM-12+0253SBUF V0200901N003112200019N0020001N1+02461+02281101241ADDGF104991041001012501051001KA1240M+02911MA1999999098381MD1999999-0021REMSYN088AAXX  26004 82986 32695 40906 10246 20228 39838 40124 84050 333 10291 29082 55016 59002;
0156829860999992007042612004-09400-038217FM-12+0253SBUF V0201401N004110075019N0100001N1+02661+02021101261ADDGF105991051011008001001001KA1240N+02181MA1999999098411MD1999999-0131REMSYN076AAXX  26124 82986 32597 51408 10266 20202 39841 40126 85100 333 20218 59013;
0137829860999992007042618004-09400-038217FM-12+0253SBUF V0201401N003112200019N0200001N1+03201+01711100771ADDGF103991031011008001001001MA1999999098951MD1999999-0191REMSYN070AAXX  26184 82986 32598 31406 10320 20171 39895 40077 83100 333 59019;
0178829860999992007042700004-09400-038217FM-12+0253SBUF V0201401N005112200019N0020001N1+02621+02251101141ADDGA1001+999999999GF100991001001999999001001KA1240M+03251MA1999999098311MD1999999-0071REMSYN082AAXX  27004 82986 32995 01410 10262 20225 39831 40114 333 10325 29067 55107 59007;
0184829860999992007042712004-09400-038217FM-12+0253SBUF V0201401N004610090019N0100001N1+02731+02301101391ADDAY121061AY221061GF107991071081004501999999KA1240N+02341MA1999999098551MD1999999+0141MW1151REMSYN082AAXX  27124 82986 31497 71409 10273 20230 39855 40139 71522 878// 333 20234 58014;
0137829860999992007042718004-09400-038217FM-12+0253SBUF V0201401N003110450019N0200001N1+02981+01951100911ADDGF106991031071004501071041MA1999999098091MD1999999+0141REMSYN070AAXX  27184 82986 32498 61406 10298 20195 39809 40091 83774 333 58014;
0178829860999992007042800004-09400-038217FM-12+0253SBUF V0201801N003112200019N0020001N1+02621+02051101191ADDGA1001+999999999GF100991001001999999001001KA1240M+03131MA1999999098361MD1999999+0051REMSYN082AAXX  28004 82986 32995 01806 10262 20205 39836 40119 333 10313 29068 55042 58005;
0156829860999992007042812004-09400-038217FM-12+0253SBUF V0201401N004112200019N0100001N1+02721+02241101531ADDGF106991041041008001001011KA1240N+02241MA1999999098681MD1999999+0131REMSYN076AAXX  28124 82986 32597 61408 10272 20224 39868 40153 84401 333 20224 58013;
0201829860999992007042818004-09400-038217FM-12+0253SBUF V0201401N005112200019N0200001N1+02741+02241101181ADDAA106000091AY151061AY221061GF106991041051008001001011MA1999999098331MD1999999+0241MW1021REMSYN082AAXX  28184 82986 21598 61410 10274 20224 39833 40118 70252 84501 333 58024 69911;EQDQ01  00002PRCP06
0168829860999992007042900004-09400-038217FM-12+0253SBUF V0201801N003110075019N0020001N1+02471+02321101521ADDGF108991081061008001999999KA1240M+03281MA1999999098671MD1999999+0311REMSYN088AAXX  29004 82986 32595 81806 10247 20232 39867 40152 886// 333 10328 29083 55085 58031;
0201829860999992007042912004-09400-038217FM-12+0253SBUF V0201401N003610042019N0100001N1+02521+02401101571ADDAA124009991AY161061AY221061GF107991071071004501999999KA1240N+02161MA1999999098711MD1999999+0031MW1031REMSYN088AAXX  29124 82986 21497 71407 10252 20240 39871 40157 70362 877// 333 20216 58003 60104;
0165829860999992007042918004-09400-038217FM-12+0253SBUF V0201401N003110450019N0200001N1+02781+02181101141ADDAY121061AY211061GF106991031071004501021041MA1999999098291MD1999999-0041MW1511REMSYN076AAXX  29184 82986 31498 61406 10278 20218 39829 40114 75121 83724 333 59004;
0213829860999992007043000004-09400-038217FM-12+0253SBUF V0201801N001510042019N0020001N1+02441+02411101431ADDAA106000591AY161061AY221061GF106991061071004501001001KA1240M+02871MA1999999098571MD1999999-0101MW1011REMSYN100AAXX  30004 82986 21495 61803 10244 20241 39857 40143 70162 86700 333 10287 29090 55027 59010 69961;
0173829860999992007043012004-09400-038217FM-12+0253SBUF V0201401N003110450019N0100001N1+02731+02081101471ADDAA124000591GF106991031021008001051001KA1240N+02261MA1999999098621MD1999999-0091REMSYN082AAXX  30124 82986 22597 61406 10273 20208 39862 40147 83250 333 20226 59009 69964;
0182829860999992007043018004-09400-038217FM-12+0253SBUF V0201801N001510450019N0100001N1+02361+02331101131ADDAA106017091AY101061AY261061GF107991031021008001091001MA1999999098261MD1999999-0031MW1211REMSYN082AAXX  30184 82986 21597 71803 10236 20233 39826 40113 72106 83290 333 59003 60171;
0168829860999992007050100004-09400-038217FM-12+0253SBUF V0201801N000510450019N0020001N1+02371+02331101321ADDGF108991031041008001021999KA1240M+02871MA1999999098471MD1999999-0101REMSYN088AAXX  01004 82986 32595 81801 10237 20233 39847 40132 8342/ 333 10287 29066 55029 59010;
0201829860999992007050112004-09400-038217FM-12+0253SBUF V0201801N002110450019N0040001N1+02521+02381101451ADDAA124017091AY121061AY221061GF108991041071004501071999KA1240N+02261MA1999999098581MD1999999-0041MW1151REMSYN088AAXX  01124 82986 21496 81804 10252 20238 39858 40145 71522 8477/ 333 20226 59004 60174;
0137829860999992007050118004-09400-038217FM-12+0253SBUF V0201401N003110450019N0200001N1+02981+02121100871ADDGF105991031021008001031001MA1999999098041MD1999999-0221REMSYN070AAXX  01184 82986 32598 51406 10298 20212 39804 40087 83230 333 59022;
0168829860999992007050200004-09400-038217FM-12+0253SBUF V0201401N004610450019N0020001N1+02541+02331101301ADDGF106991021041008001051001KA1240M+03011MA1999999098451MD1999999-0021REMSYN088AAXX  02004 82986 32595 61409 10254 20233 39845 40130 82450 333 10301 29082 55049 59002;
0156829860999992007050212004-09400-038217FM-12+0253SBUF V0201801N003110075019N0100001N1+02531+02291101471ADDGF107991061071008001021999KA1240N+02291MA1999999098621MD1999999+0041REMSYN076AAXX  02124 82986 32597 71806 10253 20229 39862 40147 8672/ 333 20229 58004;
0137829860999992007050218004-09400-038217FM-12+0253SBUF V0200901N003610450019N0200001N1+03101+01841101031ADDGF106991031021008001041011MA1999999098201MD1999999+0161REMSYN070AAXX  02184 82986 32598 60907 10310 20184 39820 40103 83241 333 58016;
0178829860999992007050300004-09400-038217FM-12+025399999V0201801N002612200019N0020001N1+02481+02211101301ADDGA1001+999999999GF100991001001999999001001KA1240M+03111MA1999999098441MD1999999-0011REMSYN082AAXX  03004 82986 32995 01805 10248 20221 39844 40130 333 10311 29076 55056 59001;
0156829860999992007050312004-09400-038217FM-12+025399999V0200901N003610075019N0100001N1+02651+02091101471ADDGF106991051021008001001021KA1240N+02301MA1999999098621MD1999999+0001REMSYN076AAXX  03124 82986 32597 60907 10265 20209 39862 40147 85202 333 20230 58000;
0137829860999992007050318004-09400-038217FM-12+0253SBUF V0201401N005110042019N0200001N1+03001+01531101071ADDGF106991061071004501001001MA1999999098241MD1999999+0041REMSYN070AAXX  03184 82986 32498 61410 10300 20153 39824 40107 86700 333 58004;
0178829860999992007050400004-09400-038217FM-12+0253SBUF V0200901N003612200019N0020001N1+02441+01881101311ADDGA1001+999999999GF100991001001999999001001KA1240M+03111MA1999999098461MD1999999+0021REMSYN082AAXX  04004 82986 32995 00907 10244 20188 39846 40131 333 10311 29064 55091 58002;
0175829860999992007050412004-09400-038217FM-12+0253SBUF V0201401N003110120019N0020001N1+02841+02221101541ADDGF105991051021012501001001KA1240N+02281MA1999999999999MD1999999+0071REMSYN076AAXX  04124 82986 32695 51406 10284 20222 30147 40154 85200 333 20228 58007;EQDQ01 101473APOSP 
0156829860999992007050418004-09400-038217FM-12+0253SBUF V0201401N003112200019N0200001N1+02891+01731101121ADDGF105991031041008001001011MA1999999098272MD1999999+0031REMSYN070AAXX  04184 82986 32598 51406 10289 20173 39827 40112 83401 333 58003;EQDQ01+098273APOSP 
0168829860999992007050500004-09400-038217FM-12+0253SBUF V0201401N003110450019N0020001N1+02451+02011101471ADDGF106991031051008001051001KA1240M+03001MA1999999098621MD1999999+0161REMSYN088AAXX  05004 82986 32595 61406 10245 20201 39862 40147 83550 333 10300 29071 55060 58016;
0156829860999992007050512004-09400-038217FM-12+0253SBUF V0201801N004110075019N0100001N1+02481+02091101441ADDGF106991051021008001031001KA1240N+02141MA1999999098571MD1999999+0001REMSYN076AAXX  05124 82986 32597 61808 10248 20209 39857 40144 85230 333 20214 58000;
0159829860999992007050518004-09400-038217FM-12+0253SBUF V0201801N001519999999N0100001N1+02811+02131100991ADDAY121061AY221061GF106991999999008001999999MA1999999098141MD1999999-0131MW1151REMSYN070AAXX  05184 82986 31597 61803 10281 20213 39814 40099 71522 333 59013;
0213829860999992007050600004-09400-038217FM-12+0253SBUF V0201801N001510075019N0020001N1+02361+02331101321ADDAA106004191AY161061AY251061GF105991051051008001001001KA1240M+02821MA1999999098451MD1999999-0171MW1031REMSYN100AAXX  06004 82986 21595 51803 10236 20233 39845 40132 70365 85500 333 10282 29086 55051 59017 60041;
0201829860999992007050612004-09400-038217FM-12+0253SBUF V0201401N003610075019N0100001N1+02351+02311101311ADDAA124007991AY161061AY221061GF106991061041008001001001KA1240N+02201MA1999999098441MD1999999-0131MW1021REMSYN088AAXX  06124 82986 21597 61407 10235 20231 39844 40131 70262 86400 333 20220 59013 60084;
0137829860999992007050618004-09400-038217FM-12+0253SBUF V0200901N003110450019N0200001N1+02901+02041100941ADDGF106991041021008001081001MA1999999098111MD1999999-0031REMSYN070AAXX  06184 82986 32598 60906 10290 20204 39811 40094 84280 333 59003;
0168829860999992007050700004-09400-038217FM-12+0253SBUF V0201401N004112200019N0020001N1+02491+02231101231ADDGF103991031021008001001001KA1240M+03111MA1999999098361MD1999999-0091REMSYN088AAXX  07004 82986 32595 31408 10249 20223 39836 40123 83200 333 10311 29082 55047 59009;
0156829860999992007050712004-09400-038217FM-12+0253SBUF V0200901N004610075019N0100001N1+02641+02071101291ADDGF105991051021008001001001KA1240N+02171MA1999999098441MD1999999+0001REMSYN076AAXX  07124 82986 32597 50909 10264 20207 39844 40129 85200 333 20217 58000;
0137829860999992007050718004-09400-038217FM-12+0253SBUF V0201401N005110075019N0200001N1+03121+01561100851ADDGF105991051011008001001001MA1999999098031MD1999999-0081REMSYN070AAXX  07184 82986 32598 51410 10312 20156 39803 40085 85100 333 59008;
0178829860999992007050800004-09400-038217FM-12+0253SBUF V0201401N003112200019N0020001N1+02481+02051101181ADDGA1001+999999999GF100991001001999999001001KA1240M+03141MA1999999098331MD1999999-0031REMSYN082AAXX  08004 82986 32995 01406 10248 20205 39833 40118 333 10314 29066 55105 59003;
0156829860999992007050812004-09400-038217FM-12+0253SBUF V0201401N002110075019N0100001N1+02541+02151101361ADDGF106991061021008001001001KA1240N+02181MA1999999098501MD1999999+0061REMSYN076AAXX  08124 82986 32597 61404 10254 20215 39850 40136 86200 333 20218 58006;
0137829860999992007050818004-09400-038217FM-12+0253SBUF V0200901N005112200019N0200001N1+03101+01621100961ADDGF103991021011008001001011MA1999999098131MD1999999+0101REMSYN070AAXX  08184 82986 32598 30910 10310 20162 39813 40096 82101 333 58010;
0178829860999992007050900004-09400-038217FM-12+0253SBUF V0200901N003112200019N0020001N1+02541+02061101221ADDGA1001+999999999GF100991001001999999001001KA1240M+03151MA1999999098371MD1999999+0041REMSYN082AAXX  09004 82986 32995 00906 10254 20206 39837 40122 333 10315 29068 55104 58004;
0156829860999992007050912004-09400-038217FM-12+0253SBUF V0201401N003111050019N0100001N1+02661+02001101401ADDGF105991031011008001001051KA1240N+02201MA1999999098551MD1999999+0051REMSYN076AAXX  09124 82986 32597 51406 10266 20200 39855 40140 83105 333 20220 58005;
0137829860999992007050918004-09400-038217FM-12+0253SBUF V0200901N006210450019N0200001N1+03101+01661100981ADDGF106991021041008001051001MA1999999098151MD1999999+0021REMSYN070AAXX  09184 82986 32598 60912 10310 20166 39815 40098 82450 333 58002;
0168829860999992007051000004-09400-038217FM-12+0253SBUF V0201801N001512200019N0020001N1+02541+02171101351ADDGF104991041051008001001001KA1240M+03171MA1999999098571MD1999999+0131REMSYN088AAXX  10004 82986 32595 41803 10254 20217 39857 40135 84500 333 10317 29067 55093 58013;
0156829860999992007051012004-09400-038217FM-12+0253SBUF V0200901N004110042019N0100001N1+02501+02171101491ADDGF108991081071004501999999KA1240N+02181MA1999999098631MD1999999+0081REMSYN076AAXX  10124 82986 32497 80908 10250 20217 39863 40149 887// 333 20218 58008;
0137829860999992007051018004-09400-038217FM-12+0253SBUF V0201401N004612200019N0200001N1+03131+01601101091ADDGF106991031021008001001061MA1999999098261MD1999999+0111REMSYN070AAXX  10184 82986 32598 61409 10313 20160 39826 40109 83206 333 58011;
0178829860999992007051100004-09400-038217FM-12+0253SBUF V0200901N001512200019N0020001N1+02451+02071101571ADDGA1001+999999999GF100991001001999999001001KA1240M+03131MA1999999098711MD1999999+0211REMSYN082AAXX  11004 82986 32995 00903 10245 20207 39871 40157 333 10313 29070 55018 58021;
0156829860999992007051112004-09400-038217FM-12+0253SBUF V0201801N006210042019N0100001N1+02501+02071101761ADDGF107991071071004501999999KA1240N+02181MA1999999098891MD1999999+0261REMSYN076AAXX  11124 82986 32497 71812 10250 20207 39889 40176 877// 333 20218 58026;
0182829860999992007051118004-09400-038217FM-12+0253SBUF V0201801N005110450019N0100001N1+02571+02271101421ADDAA106000591AY161061AY221061GF106991031071004501071001MA1999999098551MD1999999-0071MW1031REMSYN082AAXX  11184 82986 21497 61810 10257 20227 39855 40142 70362 83770 333 59007 69941;
0213829860999992007051200004-09400-038217FM-12+0253SBUF V0201801N002110090019N0020001N1+02271+02241101811ADDAA106000021AY151061AY221061GF108991081081004501999999KA1240M+02811MA1999999098931MD1999999+0221MW1201REMSYN100AAXX  12004 82986 21495 81804 10227 20224 39893 40181 72052 888// 333 10281 29090 55032 58022 69911;
0201829860999992007051212004-09400-038217FM-12+0253SBUF V0201801N003110090019N0040001N1+02321+02151101901ADDAA124002091AY161061AY251061GF108991081081004501999999KA1240N+02141MA1999999099001MD1999999+0011MW1031REMSYN088AAXX  12124 82986 21496 81806 10232 20215 39900 40190 70365 888// 333 20214 58001 60024;
0201829860999992007051218004-09400-038217FM-12+0253SBUF V0201801N001510042019N0040001N1+02501+02241101471ADDAA106000091AY151061AY221061GF108991081061004501999999MA1999999098591MD1999999+0041MW1021REMSYN082AAXX  12184 82986 21496 81803 10250 20224 39859 40147 70252 886// 333 58004 69921;EQDQ01  00002PRCP06
0213829860999992007051300004-09400-038217FM-12+0253SBUF V0201801N001010120019N0020001N1+02261+02261101791ADDAA106002091AY161061AY251061GF106991061081008001001001KA1240M+02671MA1999999098901MD1999999-0031MW1021REMSYN100AAXX  13004 82986 21595 61802 10226 20226 39890 40179 70265 86800 333 10267 29096 55002 59003 60021;
0201829860999992007051312004-09400-038217FM-12+0253SBUF V0201801N003110090019N0040001N1+02361+02311101791ADDAA124002091AY121061AY221061GF108991081081004501999999KA1240N+02131MA1999999098901MD1999999-0101MW1151REMSYN088AAXX  13124 82986 21496 81806 10236 20231 39890 40179 71522 888// 333 20213 59010 60024;
0182829860999992007051318004-09400-038217FM-12+0253SBUF V0201801N002610120019N0040001N1+02561+02531101421ADDAA106005191AY161061AY251061GF108991051081008001081999MA1999999098541MD1999999+0051MW1211REMSYN082AAXX  13184 82986 21596 81805 10256 20253 39854 40142 72165 8588/ 333 58005 60051;
0168829860999992007051400004-09400-038217FM-12+0253SBUF V0201801N004610120019N0020001N1+02281+02211101681ADDGF108991081081008001999999KA1240M+02641MA1999999098791MD1999999+0111REMSYN088AAXX  14004 82986 32595 81809 10228 20221 39879 40168 888// 333 10264 29097 55000 58011;
0173829860999992007051412004-09400-038217FM-12+0253SBUF V0201401N004111050019N0100001N1+02521+02091101621ADDAA124005191GF107991031071008001001081KA1240N+02161MA1999999098741MD1999999-0161REMSYN082AAXX  14124 82986 22597 71408 10252 20209 39874 40162 83708 333 20216 59016 60054;
0137829860999992007051418004-09400-038217FM-12+0253SBUF V0201401N003110042019N0200001N1+02741+02021101251ADDGF108991081071004501999999MA1999999098391MD1999999-0151REMSYN070AAXX  14184 82986 32498 81406 10274 20202 39839 40125 887// 333 59015;
0213829860999992007051500004-09400-038217FM-12+0253SBUF V0201801N003110042019N0020001N1+02401+02371101521ADDAA106000021AY151061AY221061GF108991081071004501999999KA1240M+02851MA1999999098651MD1999999-0141MW1511REMSYN100AAXX  15004 82986 21495 81806 10240 20237 39865 40152 75152 887// 333 10285 29084 55032 59014 69901;
0201829860999992007051512004-09400-038217FM-12+0253SBUF V0201401N002110075019N0100001N1+02511+02471101541ADDAA124018091AY161061AY251061GF106991061021008001001001KA1240N+02251MA1999999098671MD1999999-0071MW1011REMSYN088AAXX  15124 82986 21597 61404 10251 20247 39867 40154 70165 86200 333 20225 59007 60184;
0137829860999992007051518004-09400-038217FM-12+0253SBUF V0200901N001510075019N0200001N1+03041+02031101061ADDGF106991051021008001041001MA1999999098231MD1999999-0161REMSYN070AAXX  15184 82986 32598 60903 10304 20203 39823 40106 85240 333 59016;
0178829860999992007051600004-09400-038217FM-12+0253SBUF V0201801N003112200019N0020001N1+02421+02391101431ADDGA1001+999999999GF100991001001999999001001KA1240M+03071MA1999999098561MD1999999-0091REMSYN082AAXX  16004 82986 32995 01806 10242 20239 39856 40143 333 10307 29087 55070 59009;
0201829860999992007051612004-09400-038217FM-12+0253SBUF V0200901N002610042019N0040001N1+02521+02401101531ADDAA124002091AY161061AY221061GF108991081071004501999999KA1240N+02281MA1999999098701MD1999999+0031MW1511REMSYN088AAXX  16124 82986 21496 80905 10252 20240 39870 40153 75162 887// 333 20228 58003 60024;
0182829860999992007051618004-09400-038217FM-12+0253SBUF V0200901N002610450019N0100001N1+02831+02071101131ADDAA106000021AY151061AY221061GF106991021021008001071001MA1999999098281MD1999999+0051MW1151REMSYN082AAXX  16184 82986 21597 60905 10283 20207 39828 40113 71552 82270 333 58005 69911;
0122829860999992007051700004-09400-038217FM-12+0253SBUF V0201801N002619999999N0020001N1+02341+02321999999ADDGF106991999999008001999999REMSYN084AAXX  17004 82986 32595 61805 10234 20232 10298 29089 39863 40150 55028 58007 86070;
0201829860999992007051712004-09400-038217FM-12+0253SBUF V0201401N003110075019N0100001N1+02481+02301101581ADDAA124000021AY151061AY221061GF106991061021008001001001KA1240N+02221MA1999999098701MD1999999+0001MW1011REMSYN088AAXX  17124 82986 21597 61406 10248 20230 39870 40158 70152 86200 333 20222 58000 69924;
0201829860999992007051718004-09400-038217FM-12+0253SBUF V0201401N003112200019N0200001N1+02921+01981101161ADDAA106000091AY151061AY221061GF104991041021008001001001MA1999999098321MD1999999+0041MW1011REMSYN082AAXX  17184 82986 21598 41406 10292 20198 39832 40116 70152 84200 333 58004 69911;EQDQ01  00002PRCP06
0178829860999992007051800004-09400-038217FM-12+0253SBUF V0201801N001512200019N0020001N1+02331+02151101441ADDGA1001+999999999GF100991001001999999001001KA1240M+02941MA1999999098571MD1999999-0061REMSYN082AAXX  18004 82986 32995 01803 10233 20215 39857 40144 333 10294 29082 55078 59006;
0201829860999992007051812004-09400-038217FM-12+0253SBUF V0200901N003610042019N0040001N1+02481+02391101551ADDAA124007991AY161061AY251061GF106991061071004501001001KA1240N+02141MA1999999098671MD1999999-0031MW1031REMSYN088AAXX  18124 82986 21496 60907 10248 20239 39867 40155 70365 86700 333 20214 59003 60084;
0165829860999992007051818004-09400-038217FM-12+0253SBUF V0201401N003110042019N0100001N1+02941+02001101081ADDAY121061AY221061GF106991051071004501061001MA1999999098241MD1999999-0081MW1151REMSYN076AAXX  18184 82986 31497 61406 10294 20200 39824 40108 71522 85760 333 59008;
0213829860999992007051900004-09400-038217FM-12+0253SBUF V0201801N004610450019N0020001N1+02361+02291101451ADDAA106000391AY161061AY221061GF106991031041004501061001KA1240M+02951MA1999999098581MD1999999+0011MW1021REMSYN100AAXX  19004 82986 21495 61809 10236 20229 39858 40145 70262 83460 333 10295 29086 55047 58001 69931;
0201829860999992007051912004-09400-038217FM-12+0253SBUF V0201801N001510450019N0100001N1+02421+02351101521ADDAA124000591AY161061AY251061GF106991031021004501081001KA1240N+02191MA1999999098651MD1999999-0021MW1031REMSYN088AAXX  19124 82986 21497 61803 10242 20235 39865 40152 70365 83280 333 20219 59002 69964;
0182829860999992007051918004-09400-038217FM-12+0253SBUF V0200901N004110450019N0200001N1+02671+02071101091ADDAA106000591AY161061AY221061GF106991031021008001071001MA1999999098241MD1999999+0001MW1021REMSYN082AAXX  19184 82986 21598 60908 10267 20207 39824 40109 70262 83270 333 58000 69941;
0213829860999992007052000004-09400-038217FM-12+0253SBUF V0201801N002110450019N0020001N1+02381+02311101381ADDAA106000891AY161061AY261061GF106991021071008001051001KA1240M+02791MA1999999098511MD1999999-0071MW1021REMSYN100AAXX  20004 82986 21595 61804 10238 20231 39851 40138 70266 82750 333 10279 29090 55031 59007 69981;
0201829860999992007052012004-09400-038217FM-12+0253SBUF V0201401N004110042019N0040001N1+02431+02211101601ADDAA124002091AY161061AY261061GF107991051071004501081001KA1240N+02101MA1999999098721MD1999999+0071MW1151REMSYN088AAXX  20124 82986 21496 71408 10243 20221 39872 40160 71566 85780 333 20210 58007 60024;
0182829860999992007052018004-09400-038217FM-12+0253SBUF V0201801N003610075019N0200001N1+02661+02181101221ADDAA106000391AY151061AY221061GF106991051021008001001011MA1999999098351MD1999999+0111MW1021REMSYN082AAXX  20184 82986 21598 61807 10266 20218 39835 40122 70252 85201 333 58011 69931;
0232829860999992007052100004-09400-038217FM-12+0253SBUF V0201801N003612200019N0020001N1+02321+02321101431ADDAA106000091AY151061AY221061GF104991041001017501021001KA1240M+02671MA1999999098561MD1999999+0051MW1011REMSYN100AAXX  21004 82986 21795 41807 10232 20232 39856 40143 70152 84020 333 10267 29091 55035 58005 69921;EQDQ01  00002PRCP06
0173829860999992007052112004-09400-038217FM-12+0253SBUF V0200901N004610120019N0100001N1+02421+02211101551ADDAA124000591GF106991061081008001001001KA1240N+02141MA1999999098671MD1999999-0051REMSYN082AAXX  21124 82986 22597 60909 10242 20221 39867 40155 86800 333 20214 59005 69964;
0137829860999992007052118004-09400-038217FM-12+0253SBUF V0200901N003112200019N0200001N1+02901+01551101161ADDGF103991031011008001001001MA1999999098311MD1999999-0041REMSYN070AAXX  21184 82986 32598 30906 10290 20155 39831 40116 83100 333 59004;
0178829860999992007052200004-09400-038217FM-12+0253SBUF V0201401N004112200019N0020001N1+02281+01811101381ADDGA1001+999999999GF100991001001999999001001KA1240M+02911MA1999999098501MD1999999-0061REMSYN082AAXX  22004 82986 32995 01408 10228 20181 39850 40138 333 10291 29070 55099 59006;
0220829860999992007052212004-09400-038217FM-12+0253SBUF V0201801N003610042019N0100001N1+02381+02191101491ADDAA124000091AY151061AY221061GF108991081071004501999999KA1240N+02051MA1999999098611MD1999999-0061MW1021REMSYN088AAXX  22124 82986 21497 81807 10238 20219 39861 40149 70252 887// 333 20205 59006 69914;EQDQ01  00002PRCP24
0182829860999992007052218004-09400-038217FM-12+0253SBUF V0201801N001010042019N0100001N1+02461+02371101091ADDAA106000391AY151061AY221061GF106991061071004501001001MA1999999098211MD1999999-0101MW1151REMSYN082AAXX  22184 82986 21497 61802 10246 20237 39821 40109 71552 86700 333 59010 69931;
0213829860999992007052300004-09400-038217FM-12+0253SBUF V0201801N001510075019N0020001N1+02211+02201101321ADDAA106000591AY161061AY221061GF106991061041008001001001KA1240M+02731MA1999999098441MD1999999-0061MW1021REMSYN100AAXX  23004 82986 21595 61803 10221 20220 39844 40132 70262 86400 333 10273 29096 55028 59006 69951;
0173829860999992007052312004-09400-038217FM-12+0253SBUF V0201801N001010075019N0100001N1+02421+02211101361ADDAA124000891GF106991061021008001001001KA1240N+02081MA1999999098481MD1999999-0131REMSYN082AAXX  23124 82986 22597 61802 10242 20221 39848 40136 86200 333 20208 59013 69984;
0137829860999992007052318004-09400-038217FM-12+0253SBUF V0200901N003110075019N0200001N1+02861+02011100971ADDGF106991061041008001001001MA1999999098121MD1999999-0091REMSYN070AAXX  23184 82986 32598 60906 10286 20201 39812 40097 86400 333 59009;
0168829860999992007052400004-09400-038217FM-12+0253SBUF V0200901N001512200019N0020001N1+02401+02301101221ADDGF102991021001999999051001KA1240M+02911MA1999999098351MD1999999-0091REMSYN088AAXX  24004 82986 32995 20903 10240 20230 39835 40122 82050 333 10291 29084 55063 59009;
0156829860999992007052412004-09400-038217FM-12+0253SBUF V0201401N001512200019N0100001N1+02501+02271101441ADDGF104991021021008001031021KA1240N+02181MA1999999098571MD1999999+0091REMSYN076AAXX  24124 82986 32597 41403 10250 20227 39857 40144 82232 333 20218 58009;
0137829860999992007052418004-09400-038217FM-12+0253SBUF V0200901N002612200019N0200001N1+03041+02031101021ADDGF104991031011008001001051MA1999999098181MD1999999+0061REMSYN070AAXX  24184 82986 32598 40905 10304 20203 39818 40102 83105 333 58006;
0178829860999992007052500004-09400-038217FM-12+0253SBUF V0200901N001512200019N0020001N1+02451+02271101221ADDGA1001+999999999GF100991001001999999001001KA1240M+03061MA1999999098361MD1999999+0011REMSYN082AAXX  25004 82986 32995 00903 10245 20227 39836 40122 333 10306 29080 55087 58001;
0156829860999992007052512004-09400-038217FM-12+0253SBUF V0200901N001510042019N0100001N1+02361+02291101511ADDGF106991061071004501001001KA1240N+02121MA1999999098641MD1999999+0071REMSYN076AAXX  25124 82986 32497 60903 10236 20229 39864 40151 86700 333 20212 58007;
0137829860999992007052518004-09400-038217FM-12+0253SBUF V0200901N003112200019N0200001N1+03101+01621100941ADDGF102991011011008001001041MA1999999098111MD1999999-0071REMSYN070AAXX  25184 82986 32598 20906 10310 20162 39811 40094 81104 333 59007;
0168829860999992007052600004-09400-038217FM-12+0253SBUF V0201401N004612200019N0020001N1+02581+02311101331ADDGF104991021041008001051001KA1240M+03131MA1999999098461MD1999999+0101REMSYN088AAXX  26004 82986 32595 41409 10258 20231 39846 40133 82450 333 10313 29078 55073 58010;
0201829860999992007052612004-09400-038217FM-12+0253SBUF V0200901N003110075019N0100001N1+02631+02251101421ADDAA124000591AY161061AY261061GF106991061021008001001001KA1240N+02221MA1999999098571MD1999999-0071MW1021REMSYN088AAXX  26124 82986 21597 60906 10263 20225 39857 40142 70266 86200 333 20222 59007 69964;
0137829860999992007052618004-09400-038217FM-12+0253SBUF V0200901N004610450019N0200001N1+03001+01911101021ADDGF106991041021008001041001MA1999999098181MD1999999+0071REMSYN070AAXX  26184 82986 32598 60909 10300 20191 39818 40102 84240 333 58007;
0232829860999992007052700004-09400-038217FM-12+0253SBUF V0201401N002110150019N0020001N1+02481+02301101371ADDAA106000091AY151061AY221061GF105991051001017501021001KA1240M+03051MA1999999098521MD1999999+0061MW1011REMSYN100AAXX  27004 82986 21795 51404 10248 20230 39852 40137 70152 85020 333 10305 29078 55072 58006 69911;EQDQ01  00002PRCP06
0201829860999992007052712004-09400-038217FM-12+0253SBUF V0201801N001510021019N0040001N1+02291+02281101561ADDAA124008991AY161061AY261061GF108991081071002501999999KA1240N+02221MA1999999098681MD1999999+0111MW1601REMSYN088AAXX  27124 82986 21396 81803 10229 20228 39868 40156 76066 887// 333 20222 58011 60094;
0182829860999992007052718004-09400-038217FM-12+0253SBUF V0201801N001510450019N0200001N1+02721+02411101091ADDAA106000021AY151061AY221061GF106991031021008001031001MA1999999098241MD1999999+0061MW1021REMSYN082AAXX  27184 82986 21598 61803 10272 20241 39824 40109 70252 83230 333 58006 69921;
0168829860999992007052800004-09400-038217FM-12+0253SBUF V0200901N001510150019N0020001N1+02381+02331101451ADDGF105991051001017501021001KA1240M+02931MA1999999098571MD1999999+0051REMSYN088AAXX  28004 82986 32795 50903 10238 20233 39857 40145 85020 333 10293 29094 55015 58005;
0201829860999992007052812004-09400-038217FM-12+0253SBUF V0201801N002610042019N0100001N1+02381+02291101601ADDAA124000591AY151061AY221061GF108991081071004501999999KA1240N+02241MA1999999098721MD1999999+0041MW1021REMSYN088AAXX  28124 82986 21497 81805 10238 20229 39872 40160 70252 887// 333 20224 58004 69944;
0137829860999992007052818004-09400-038217FM-12+0253SBUF V0200901N001012200019N0200001N1+02911+01751101101ADDGF103991021011008001001021MA1999999098261MD1999999+0021REMSYN070AAXX  28184 82986 32598 30902 10291 20175 39826 40110 82102 333 58002;
0168829860999992007052900004-09400-038217FM-12+0253SBUF V0200901N001510075019N0020001N1+02421+02331101491ADDGF106991061051008001001001KA1240M+02941MA1999999098621MD1999999+0051REMSYN088AAXX  29004 82986 32595 60903 10242 20233 39862 40149 86500 333 10294 29084 55035 58005;
0156829860999992007052912004-09400-038217FM-12+0253SBUF V0200901N002612200019N0100001N1+02641+02161101561ADDGF104991031041008001031001KA1240N+02281MA1999999098701MD1999999-0021REMSYN076AAXX  29124 82986 32597 40905 10264 20216 39870 40156 83430 333 20228 59002;
0137829860999992007052918004-09400-038217FM-12+0253SBUF V0200901N003112200019N0200001N1+02971+01811101071ADDGF104991041021008001001001MA1999999098241MD1999999-0021REMSYN070AAXX  29184 82986 32598 40906 10297 20181 39824 40107 84200 333 59002;
0178829860999992007053000004-09400-038217FM-12+0253SBUF V0200901N001512200019N0020001N1+02461+02301101361ADDGA1001+999999999GF100991001001999999001001KA1240M+03011MA1999999098511MD1999999-0111REMSYN082AAXX  30004 82986 32995 00903 10246 20230 39851 40136 333 10301 29077 55096 59011;
0156829860999992007053012004-09400-038217FM-12+0253SBUF V0200901N001510075019N0100001N1+02541+02111101581ADDGF105991051011008001001001KA1240N+02141MA1999999098721MD1999999+0021REMSYN076AAXX  30124 82986 32597 50903 10254 20211 39872 40158 85100 333 20214 58002;
0137829860999992007053018004-09400-038217FM-12+0253SBUF V0201401N004112200019N0200001N1+02981+01921101201ADDGF101991011011008001001001MA1999999098361MD1999999+0121REMSYN070AAXX  30184 82986 32598 11408 10298 20192 39836 40120 81100 333 58012;
0178829860999992007053100004-09400-038217FM-12+0253SBUF V0200901N002612200019N0020001N1+02281+02011101481ADDGA1001+999999999GF100991001001999999001001KA1240M+02991MA1999999098611MD1999999+0101REMSYN082AAXX  31004 82986 32995 00905 10228 20201 39861 40148 333 10299 29075 55096 58010;
0156829860999992007053112004-09400-038217FM-12+0253SBUF V0201401N002110075019N0100001N1+02491+02251101701ADDGF106991061021008001001001KA1240N+02121MA1999999098821MD1999999+0101REMSYN076AAXX  31124 82986 32597 61404 10249 20225 39882 40170 86200 333 20212 58010;
0137829860999992007053118004-09400-038217FM-12+0253SBUF V0200901N006210075019N0200001N1+02901+01931101291ADDGF106991061021008001001001MA1999999098441MD1999999+0081REMSYN070AAXX  31184 82986 32598 60912 10290 20193 39844 40129 86200 333 58008;
0178829860999992007060100004-09400-038217FM-12+0253SBUF V0201801N003112200019N0020001N1+02361+02071101641ADDGA1001+999999999GF100991001001999999001001KA1240M+02971MA1999999098761MD1999999+0151REMSYN082AAXX  01004 82986 32995 01806 10236 20207 39876 40164 333 10297 29078 55082 58015;
0201829860999992007060112004-09400-038217FM-12+0253SBUF V0202801N003110021019N0040001N1+02141+02141101841ADDAA124005191AY161061AY261061GF108991081071002501999999KA1240N+02081MA1999999098941MD1999999+0121MW1211REMSYN088AAXX  01124 82986 21396 82806 10214 20214 39894 40184 72166 887// 333 20208 58012 60054;
0182829860999992007060118004-09400-038217FM-12+0253SBUF V0201801N002110021019N0100001N1+02381+02281101501ADDAA106006191AY161061AY221061GF108991081071002501999999MA1999999098611MD1999999+0171MW1021REMSYN082AAXX  01184 82986 21397 81804 10238 20228 39861 40150 70262 887// 333 58017 60061;
0213829860999992007060200004-09400-038217FM-12+0253SBUF V0201801N003610060019N0010001N1+02141+02141101741ADDAA106015091AY161061AY261061GF108991081081002501999999KA1240M+02411MA1999999098831MD1999999+0311MW1631REMSYN100AAXX  02004 82986 21394 81807 10214 20214 39883 40174 76366 888// 333 10241 29098 55000 58031 60151;
0201829860999992007060212004-09400-038217FM-12+0253SBUF V0201801N002610042019N0100001N1+02321+02091101741ADDAA124021191AY151061AY221061GF108991061071004501081999KA1240N+02101MA1999999098841MD1999999-0101MW1021REMSYN088AAXX  02124 82986 21497 81805 10232 20209 39884 40174 70252 8678/ 333 20210 59010 60214;
0137829860999992007060218004-09400-038217FM-12+0253SBUF V0200901N003110042019N0200001N1+02561+01931101411ADDGF108991081071004501999999MA1999999098531MD1999999-0081REMSYN070AAXX  02184 82986 32498 80906 10256 20193 39853 40141 887// 333 59008;
0156829860999992007060312004-09400-038217FM-12+0253SBUF V0201401N003110075019N0100001N1+02321+02091101661ADDGF105991051041008001001001KA1240N+01901MA1999999098771MD1999999-0071REMSYN076AAXX  03124 82986 32597 51406 10232 20209 39877 40166 85400 333 20190 59007;
0137829860999992007060318004-09400-038217FM-12+0253SBUF V0200901N001512200019N0200001N1+02871+01811101281ADDGF103991021021008001031001MA1999999098411MD1999999-0121REMSYN070AAXX  03184 82986 32598 30903 10287 20181 39841 40128 82230 333 59012;
0156829860999992007060412004-09400-038217FM-12+0253SBUF V0201801N001510042019N0100001N1+02321+02221101621ADDGF108991081071004501999999KA1240N+02061MA1999999098791MD1999999+0021REMSYN076AAXX  04124 82986 32497 81803 10232 20222 39879 40162 887// 333 20206 58002;
0137829860999992007060418004-09400-038217FM-12+0253SBUF V0200901N001512200019N0200001N1+02921+01771101221ADDGF101991011011008001001001MA1999999098361MD1999999-0051REMSYN070AAXX  04184 82986 32598 10903 10292 20177 39836 40122 81100 333 59005;
0178829860999992007060500004-09400-038217FM-12+0253SBUF V0200901N000512200019N0020001N1+02311+02161101491ADDGA1001+999999999GF100991001001999999001001KA1240M+02931MA1999999098611MD1999999-0041REMSYN082AAXX  05004 82986 32995 00901 10231 20216 39861 40149 333 10293 29082 55061 59004;
0156829860999992007060512004-09400-038217FM-12+0253SBUF V0200901N002112200019N0100001N1+02481+02271101791ADDGF104991041021008001001001KA1240N+02151MA1999999098911MD1999999+0121REMSYN076AAXX  05124 82986 32597 40904 10248 20227 39891 40179 84200 333 20215 58012;
0137829860999992007060518004-09400-038217FM-12+0253SBUF V0200901N003612200019N0200001N1+02951+01761101381ADDGF102991021021008001001001MA1999999098531MD1999999+0171REMSYN070AAXX  05184 82986 32598 20907 10295 20176 39853 40138 82200 333 58017;
0178829860999992007060600004-09400-038217FM-12+0253SBUF V0201401N002112200019N0020001N1+02391+02221101661ADDGA1001+999999999GF100991001001999999001001KA1240M+02971MA1999999098791MD1999999+0181REMSYN082AAXX  06004 82986 32995 01404 10239 20222 39879 40166 333 10297 29080 55089 58018;
0156829860999992007060612004-09400-038217FM-12+0253SBUF V0201401N001510075019N0100001N1+02461+02131101801ADDGF106991061021008001001001KA1240N+02151MA1999999098921MD1999999+0011REMSYN076AAXX  06124 82986 32597 61403 10246 20213 39892 40180 86200 333 20215 58001;
0137829860999992007060618004-09400-038217FM-12+0253SBUF V0200901N005112200019N0200001N1+02901+01781101341ADDGF103991031021008001001001MA1999999098491MD1999999-0011REMSYN070AAXX  06184 82986 32598 30910 10290 20178 39849 40134 83200 333 59001;
0178829860999992007060700004-09400-038217FM-12+0253SBUF V0201801N003112200019N0020001N1+02301+02131101641ADDGA1001+999999999GF100991001001999999001001KA1240M+02931MA1999999098761MD1999999-0031REMSYN082AAXX  07004 82986 32995 01806 10230 20213 39876 40164 333 10293 29078 55094 59003;
0156829860999992007060712004-09400-038217FM-12+0253SBUF V0200901N004610450019N0100001N1+02461+02251101681ADDGF106991041071004501081001KA1240N+02101MA1999999098801MD1999999-0121REMSYN076AAXX  07124 82986 32497 60909 10246 20225 39880 40168 84780 333 20210 59012;
0201829860999992007060718004-09400-038217FM-12+0253SBUF V0200901N003610450019N0200001N1+02601+02121101391ADDAA106000091AY151061AY221061GF106991031021008001071001MA1999999098511MD1999999+0021MW1031REMSYN082AAXX  07184 82986 21598 60907 10260 20212 39851 40139 70352 83270 333 58002 69901;EQDQ01  00002PRCP06
0178829860999992007060800004-09400-038217FM-12+0253SBUF V0201801N003112200019N0020001N1+02241+02141101581ADDGA1001+999999999GF100991001001999999001001KA1240M+02811MA1999999098701MD1999999-0061REMSYN082AAXX  08004 82986 32995 01806 10224 20214 39870 40158 333 10281 29088 55056 59006;
0192829860999992007060812004-09400-038217FM-12+0253SBUF V0200901N002610075019N0100001N1+02391+02031101721ADDAA124000091GF106991061021008001001001KA1240N+02021MA1999999098831MD1999999+0031REMSYN082AAXX  08124 82986 22597 60905 10239 20203 39883 40172 86200 333 20202 58003 69904;EQDQ01  00002PRCP24
0137829860999992007060818004-09400-038217FM-12+0253SBUF V0200901N004610075019N0200001N1+02831+01481101321ADDGF106991061011008001001001MA1999999098451MD1999999-0061REMSYN070AAXX  08184 82986 32598 60909 10283 20148 39845 40132 86100 333 59006;
0168829860999992007060900004-09400-038217FM-12+0253SBUF V0201401N003112200019N0020001N1+02381+01421101621ADDGF104991041001017501021001KA1240M+02891MA1999999098741MD1999999+0041REMSYN088AAXX  09004 82986 32795 41406 10238 20142 39874 40162 84020 333 10289 29059 55077 58004;
0156829860999992007060912004-09400-038217FM-12+0253SBUF V0201801N003110450019N0100001N1+02361+01931101711ADDGF106991031051008001041001KA1240N+02021MA1999999098831MD1999999+0001REMSYN076AAXX  09124 82986 32597 61806 10236 20193 39883 40171 83540 333 20202 58000;
0137829860999992007060918004-09400-038217FM-12+0253SBUF V0201401N003110075019N0100001N1+02601+02081101381ADDGF106991061051008001001001MA1999999098501MD1999999+0051REMSYN070AAXX  09184 82986 32597 61406 10260 20208 39850 40138 86500 333 58005;
0201829860999992007061012004-09400-038217FM-12+0253SBUF V0201401N005110075019N0100001N1+02381+02171101671ADDAA124001091AY161061AY221061GF107991061041008001041999KA1240N+02081MA1999999098771MD1999999-0061MW1011REMSYN088AAXX  10124 82986 21597 71410 10238 20217 39877 40167 70162 8644/ 333 20208 59006 69994;
0137829860999992007061018004-09400-038217FM-12+0253SBUF V0200901N003110450019N0200001N1+02821+01741101231ADDGF106991031021008001041001MA1999999098371MD1999999-0131REMSYN070AAXX  10184 82986 32598 60906 10282 20174 39837 40123 83240 333 59013;
0178829860999992007061100004-09400-038217FM-12+0253SBUF V0201801N001512200019N0020001N1+02261+01991101621ADDGA1001+999999999GF100991001001999999001001KA1240M+02901MA1999999098731MD1999999-0021REMSYN082AAXX  11004 82986 32995 01803 10226 20199 39873 40162 333 10290 29078 55071 59002;
0201829860999992007061112004-09400-038217FM-12+0253SBUF V0200901N003610042019N0040001N1+02291+02141101691ADDAA124002091AY161061AY221061GF106991061071004501001001KA1240N+02071MA1999999098801MD1999999+0031MW1151REMSYN088AAXX  11124 82986 21496 60907 10229 20214 39880 40169 71562 86700 333 20207 58003 60024;
0137829860999992007061118004-09400-038217FM-12+0253SBUF V0201401N005110075019N0200001N1+02891+01671101281ADDGF105991051021008001001001MA1999999098421MD1999999+0051REMSYN070AAXX  11184 82986 32598 51410 10289 20167 39842 40128 85200 333 58005;
0178829860999992007061200004-09400-038217FM-12+0253SBUF V0201401N003112200019N0020001N1+02261+01821101691ADDGA1001+999999999GF100991001001999999001001KA1240M+02931MA1999999098801MD1999999+0071REMSYN082AAXX  12004 82986 32995 01406 10226 20182 39880 40169 333 10293 29073 55057 58007;
0201829860999992007061212004-09400-038217FM-12+0253SBUF V0201801N001510042019N0040001N1+02291+02141101651ADDAA124000591AY161061AY221061GF108991081071004501999999KA1240N+02001MA1999999098761MD1999999-0041MW1201REMSYN088AAXX  12124 82986 21496 81803 10229 20214 39876 40165 72062 887// 333 20200 59004 69964;
0137829860999992007061218004-09400-038217FM-12+0253SBUF V0201401N005710450019N0200001N1+02691+01971101321ADDGF106991041081017501051041MA1999999098451MD1999999+0031REMSYN070AAXX  12184 82986 32798 61411 10269 20197 39845 40132 84854 333 58003;
0178829860999992007061300004-09400-038217FM-12+0253SBUF V0201801N004112200019N0020001N1+02371+01871101601ADDGA1001+999999999GF100991001001999999001001KA1240M+02891MA1999999098721MD1999999-0081REMSYN082AAXX  13004 82986 32995 01808 10237 20187 39872 40160 333 10289 29076 55036 59008;
0201829860999992007061312004-09400-038217FM-12+0253SBUF V0201801N003610042019N0100001N1+02311+02161101611ADDAA124003091AY161061AY251061GF108991081071004501999999KA1240N+02061MA1999999098731MD1999999-0031MW1021REMSYN088AAXX  13124 82986 21497 81807 10231 20216 39873 40161 70265 887// 333 20206 59003 60034;
0137829860999992007061318004-09400-038217FM-12+0253SBUF V0200901N004610450019N0200001N1+02901+01591101181ADDGF106991031021008001021001MA1999999098331MD1999999-0121REMSYN070AAXX  13184 82986 32598 60909 10290 20159 39833 40118 83220 333 59012;
0178829860999992007061400004-09400-038217FM-12+0253SBUF V0201401N004112200019N0020001N1+02301+01941101541ADDGA1001+999999999GF100991001001999999001001KA1240M+02911MA1999999098671MD1999999-0051REMSYN082AAXX  14004 82986 32995 01408 10230 20194 39867 40154 333 10291 29074 55049 59005;
0220829860999992007061412004-09400-038217FM-12+0253SBUF V0200901N005110042019N0100001N1+02391+02011101591ADDAA124000091AY151061AY221061GF106991051021004501081001KA1240N+02061MA1999999098711MD1999999-0021MW1011REMSYN088AAXX  14124 82986 21497 60910 10239 20201 39871 40159 70152 85280 333 20206 59002 69914;EQDQ01  00002PRCP24
0137829860999992007061418004-09400-038217FM-12+0253SBUF V0200901N006212200019N0200001N1+02881+01311101221ADDGF103991031011008001001001MA1999999098361MD1999999+0031REMSYN070AAXX  14184 82986 32598 30912 10288 20131 39836 40122 83100 333 58003;
0168829860999992007061500004-09400-038217FM-12+0253SBUF V0201401N003112200019N0020001N1+02321+01851101491ADDGF103991031001012501021001KA1240M+02911MA1999999098611MD1999999-0061REMSYN088AAXX  15004 82986 32695 31406 10232 20185 39861 40149 83020 333 10291 29067 55092 59006;
0201829860999992007061512004-09400-038217FM-12+0253SBUF V0200901N003110042019N0100001N1+02261+02091101591ADDAA124007991AY161061AY221061GF107991071071004501999999KA1240N+02001MA1999999098701MD1999999-0011MW1031REMSYN088AAXX  15124 82986 21497 70906 10226 20209 39870 40159 70362 877// 333 20200 59001 60084;
0201829860999992007061518004-09400-038217FM-12+0253SBUF V0200901N002112200019N0200001N1+02751+01611101251ADDAA106000091AY151061AY221061GF104991041011008001001001MA1999999098381MD1999999+0021MW1021REMSYN082AAXX  15184 82986 21598 40904 10275 20161 39838 40125 70252 84100 333 58002 69901;EQDQ01  00002PRCP06
0178829860999992007061600004-09400-038217FM-12+0253SBUF V0200901N003112200019N0020001N1+02461+02091101511ADDGA1001+999999999GF100991001001999999001001KA1240M+02861MA1999999098631MD1999999+0021REMSYN082AAXX  16004 82986 32995 00906 10246 20209 39863 40151 333 10286 29075 55060 58002;
0201829860999992007061612004-09400-038217FM-12+0253SBUF V0200901N002610060019N0010001N1+02181+02131101691ADDAA124003091AY161061AY221061GF108991081081002501999999KA1240N+02141MA1999999098801MD1999999+0101MW1631REMSYN088AAXX  16124 82986 21394 80905 10218 20213 39880 40169 76362 888// 333 20214 58010 60034;
0182829860999992007061618004-09400-038217FM-12+0253SBUF V0200901N003112200019N0200001N1+02891+01831101301ADDAA106000891AY161061AY221061GF104991041021008001001001MA1999999098451MD1999999+0071MW1021REMSYN082AAXX  16184 82986 21598 40906 10289 20183 39845 40130 70262 84200 333 58007 69981;
0168829860999992007061700004-09400-038217FM-12+0253SBUF V0201801N005119999999N0020001N1+02391+02211101621ADDGF106991061001008001071001KA1240M+02901MA1999999098731MD1999999+0101REMSYN088AAXX  17004 82986 32595 61810 10239 20221 39873 40162 86070 333 10290 29082 55036 58010;
0201829860999992007061712004-09400-038217FM-12+0253SBUF V0201801N003610042019N0100001N1+02321+01181101711ADDAA124000891AY161061AY221061GF108991081071004501999999KA1240N+01151MA1999999098831MD1999999+0031MW1501REMSYN088AAXX  17124 82986 21497 81807 10232 20118 39883 40171 75062 887// 333 20115 58003 69984;
0137829860999992007061718004-09400-038217FM-12+0253SBUF V0201401N006210075019N0200001N1+02941+01551101281ADDGF105991051011008001001001MA1999999098441MD1999999-0011REMSYN070AAXX  17184 82986 32598 51412 10294 20155 39844 40128 85100 333 59001;
0201829860999992007061812004-09400-038217FM-12+0253SBUF V0201801N001510042019N0100001N1+02141+02091101841ADDAA124000021AY151061AY221061GF108991081071004501999999KA1240N+01881MA1999999098931MD1999999+0101MW1031REMSYN088AAXX  18124 82986 21497 81803 10214 20209 39893 40184 70352 887// 333 20188 58010 69914;
0182829860999992007061818004-09400-038217FM-12+0253SBUF V0200901N003110042019N0200001N1+02741+01841101471ADDAA106000891AY161061AY261061GF106991051021004501001041MA1999999098591MD1999999+0151MW1011REMSYN082AAXX  18184 82986 21498 60906 10274 20184 39859 40147 70166 85204 333 58015 69981;
0178829860999992007061900004-09400-038217FM-12+0253SBUF V0201801N003112200019N0020001N1+02201+01941101681ADDGA1001+999999999GF100991001001999999001001KA1240M+02791MA1999999098771MD1999999-0081REMSYN082AAXX  19004 82986 32995 01806 10220 20194 39877 40168 333 10279 29081 55020 59008;
0173829860999992007061912004-09400-038217FM-12+0253SBUF V0200901N003112200019N0100001N1+02311+01901101821ADDAA124000891GF105991041071008001001041KA1240N+01781MA1999999098921MD1999999-0011REMSYN082AAXX  19124 82986 22597 50906 10231 20190 39892 40182 84704 333 20178 59001 69984;
0137829860999992007061918004-09400-038217FM-12+0253SBUF V0200901N007212200019N0200001N1+02861+01291101471ADDGF106991021011008001001041MA1999999098591MD1999999+0001REMSYN070AAXX  19184 82986 32598 60914 10286 20129 39859 40147 82104 333 58000;
0168829860999992007062000004-09400-038217FM-12+0253SBUF V0201801N005110150019N0020001N1+02301+02131101771ADDGF106991061001017501021001KA1240M+02911MA1999999098881MD1999999+0111REMSYN088AAXX  20004 82986 32795 61810 10230 20213 39888 40177 86020 333 10291 29074 55099 58011;
0201829860999992007062012004-09400-038217FM-12+0253SBUF V0201401N005710090019N0100001N1+02361+01971101861ADDAA124001091AY161061AY251061GF106991061081004501001001KA1240N+02051MA1999999098971MD1999999+0051MW1021REMSYN088AAXX  20124 82986 21497 61411 10236 20197 39897 40186 70265 86800 333 20205 58005 60014;
0137829860999992007062018004-09400-038217FM-12+0253SBUF V0201401N003610090019N0200001N1+02501+02051101581ADDGF106991051081004501041001MA1999999098691MD1999999+0101REMSYN070AAXX  20184 82986 32498 61407 10250 20205 39869 40158 85840 333 58010;
0178829860999992007062100004-09400-038217FM-12+0253SBUF V0201801N002612200019N0020001N1+02241+01821101791ADDGA1001+999999999GF100991001001999999001001KA1240M+02711MA1999999098901MD1999999+0021REMSYN082AAXX  21004 82986 32995 01805 10224 20182 39890 40179 333 10271 29077 55034 58002;
0201829860999992007062112004-09400-038217FM-12+0253SBUF V0200901N006212200019N0100001N1+02441+01861101941ADDAA124003091AY161061AY221061GF103991031011008001001001KA1240N+01981MA1999999099051MD1999999+0081MW1011REMSYN088AAXX  21124 82986 21597 30912 10244 20186 39905 40194 70162 83100 333 20198 58008 60034;
0137829860999992007062118004-09400-038217FM-12+0253SBUF V0200901N005110075019N0200001N1+02881+01461101521ADDGF105991051021008001001001MA1999999098651MD1999999-0041REMSYN070AAXX  21184 82986 32598 50910 10288 20146 39865 40152 85200 333 59004;
0213829860999992007062200004-09400-038217FM-12+0253SBUF V0200901N003112200019N0020001N1+02331+01911101721ADDAA106000391AY161061AY221061GF104991041001012501021001KA1240M+02901MA1999999098841MD1999999-0061MW1021REMSYN100AAXX  22004 82986 21695 40906 10233 20191 39884 40172 70262 84020 333 10290 29067 55073 59006 69931;
0201829860999992007062212004-09400-038217FM-12+0253SBUF V0201401N005110042019N0100001N1+02241+02051101771ADDAA124003091AY161061AY221061GF108991081071004501999999KA1240N+02081MA1999999098881MD1999999-0171MW1021REMSYN088AAXX  22124 82986 21497 81410 10224 20205 39888 40177 70262 887// 333 20208 59017 60034;
0137829860999992007062218004-09400-038217FM-12+0253SBUF V0200901N005110075019N0200001N1+02811+01111101341ADDGF105991051011008001001001MA1999999098481MD1999999-0171REMSYN070AAXX  22184 82986 32598 50910 10281 20111 39848 40134 85100 333 59017;
0168829860999992007062300004-09400-038217FM-12+0253SBUF V0200901N003119999999N0020001N1+02121+01861101561ADDGF106991061001012501051001KA1240M+02851MA1999999098661MD1999999-0181REMSYN088AAXX  23004 82986 32695 60906 10212 20186 39866 40156 86050 333 10285 29074 55058 59018;
0156829860999992007062312004-09400-038217FM-12+0253SBUF V0201801N003110075019N0100001N1+02341+01931101591ADDGF106991061051008001001001KA1240N+01951MA1999999098701MD1999999-0181REMSYN076AAXX  23124 82986 32597 61806 10234 20193 39870 40159 86500 333 20195 59018;
0137829860999992007062318004-09400-038217FM-12+0253SBUF V0200901N003110075019N0200001N1+02861+01651101201ADDGF106991051051008001031001MA1999999098341MD1999999-0141REMSYN070AAXX  23184 82986 32598 60906 10286 20165 39834 40120 85530 333 59014;
0156829860999992007062412004-09400-038217FM-12+0253SBUF V0201401N002110450019N0100001N1+02361+02071101761ADDGF106991041021008001031001KA1240N+02051MA1999999098871MD1999999+0171REMSYN076AAXX  24124 82986 32597 61404 10236 20207 39887 40176 84230 333 20205 58017;
0137829860999992007062418004-09400-038217FM-12+0253SBUF V0201401N004110075019N0200001N1+02851+01601101331ADDGF106991061021008001001001MA1999999098471MD1999999+0131REMSYN070AAXX  24184 82986 32598 61408 10285 20160 39847 40133 86200 333 58013;
0232829860999992007062500004-09400-038217FM-12+0253SBUF V0201801N003112200019N0020001N1+02341+01851101761ADDAA106000091AY151061AY221061GF102991021001008001031001KA1240M+02991MA1999999098871MD1999999+0161MW1011REMSYN100AAXX  25004 82986 21595 21806 10234 20185 39887 40176 70152 82030 333 10299 29070 55073 58016 69901;EQDQ01  00002PRCP06
0192829860999992007062512004-09400-038217FM-12+0253SBUF V0201401N002610120019N0100001N1+02381+01911101941ADDAA124000091GF106991051081008001001041KA1240N+01921MA1999999099051MD1999999+0181REMSYN082AAXX  25124 82986 22597 61405 10238 20191 39905 40194 85804 333 20192 58018 69904;EQDQ01  00002PRCP24
0137829860999992007062518004-09400-038217FM-12+0253SBUF V0200901N004610042019N0200001N1+02461+01851101601ADDGF108991081071004501999999MA1999999098701MD1999999+0231REMSYN070AAXX  25184 82986 32498 80909 10246 20185 39870 40160 887// 333 58023;
0213829860999992007062600004-09400-038217FM-12+0253SBUF V0200901N001512200019N0020001N1+02101+02071101851ADDAA106002091AY161061AY221061GF104991041001017501021001KA1240M+02651MA1999999098751MD1999999+0081MW1011REMSYN100AAXX  26004 82986 21795 40903 10210 20207 39875 40185 70162 84020 333 10265 29085 55032 58008 60021;
0201829860999992007062612004-09400-038217FM-12+0253SBUF V0200901N005710120019N0040001N1+02341+02051101941ADDAA124002091AY141061AY221061GF106991051081008001001041KA1240N+01981MA1999999099031MD1999999-0021MW1101REMSYN088AAXX  26124 82986 21596 60911 10234 20205 39903 40194 71042 85804 333 20198 59002 60024;
0137829860999992007062618004-09400-038217FM-12+0253SBUF V0201401N004610075019N0200001N1+02841+01601101511ADDGF106991051021008001001021MA1999999098601MD1999999-0061REMSYN070AAXX  26184 82986 32598 61409 10284 20160 39860 40151 85202 333 59006;
0178829860999992007062700004-09400-038217FM-12+0253SBUF V0201801N004612200019N0020001N1+02321+01851101781ADDGA1001+999999999GF100991001001999999001001KA1240M+02871MA1999999098891MD1999999-0041REMSYN082AAXX  27004 82986 32995 01809 10232 20185 39889 40178 333 10287 29070 55078 59004;
0156829860999992007062712004-09400-038217FM-12+0253SBUF V0201401N006210042019N0100001N1+02441+01841101821ADDGF108991081071004501999999KA1240N+02061MA1999999098941MD1999999-0091REMSYN076AAXX  27124 82986 32497 81412 10244 20184 39894 40182 887// 333 20206 59009;
0137829860999992007062718004-09400-038217FM-12+0253SBUF V0201401N004610075019N0100001N1+02591+01661101481ADDGF106991061051008001001001MA1999999098601MD1999999-0041REMSYN070AAXX  27184 82986 32597 61409 10259 20166 39860 40148 86500 333 59004;
0178829860999992007062800004-09400-038217FM-12+0253SBUF V0201801N003112200019N0020001N1+02241+01961101751ADDGA1001+999999999GF100991001001999999001001KA1240M+02721MA1999999098861MD1999999-0031REMSYN082AAXX  28004 82986 32995 01806 10224 20196 39886 40175 333 10272 29074 55018 59003;
0156829860999992007062812004-09400-038217FM-12+0253SBUF V0201401N003610075019N0100001N1+02441+01901101771ADDGF106991061041008001001001KA1240N+02061MA1999999098881MD1999999-0061REMSYN076AAXX  28124 82986 32597 61407 10244 20190 39888 40177 86400 333 20206 59006;
0201829860999992007062818004-09400-038217FM-12+0253SBUF V0200901N003110450019N0100001N1+02701+01571101371ADDAA106000091AY151061AY221061GF106991031051008001051001MA1999999098501MD1999999-0101MW1021REMSYN082AAXX  28184 82986 21597 60906 10270 20157 39850 40137 70252 83550 333 59010 69901;EQDQ01  00002PRCP06
0178829860999992007062900004-09400-038217FM-12+0253SBUF V0201801N001512200019N0020001N1+02211+01741101761ADDGA1001+999999999GF100991001001999999001001KA1240M+02871MA1999999098871MD1999999+0011REMSYN082AAXX  29004 82986 32995 01803 10221 20174 39887 40176 333 10287 29068 55043 58001;
0201829860999992007062912004-09400-038217FM-12+0253SBUF V0201801N001510090019N0100001N1+02161+02141101921ADDAA124002091AY161061AY251061GF108991081081004501999999KA1240N+02011MA1999999099011MD1999999+0131MW1031REMSYN088AAXX  29124 82986 21497 81803 10216 20214 39901 40192 70365 888// 333 20201 58013 60024;
0201829860999992007062918004-09400-038217FM-12+0253SBUF V0200901N001510120019N0200001N1+02661+01871101511ADDAA106000091AY151061AY221061GF106991051081008001031001MA1999999098631MD1999999+0131MW1151REMSYN082AAXX  29184 82986 21598 60903 10266 20187 39863 40151 71552 85830 333 58013 69911;EQDQ01  00002PRCP06
0143829860999992007062919004-09400-038217FM-15+0253SBUF V0201601N003110210019N0112651N1+02701+02201999999ADDGA1041+004501999GA2071+021001999GF107991999999999999999999MA1101591999999REMMET058METAR SBUF 291900Z 16006KT 9999 SCT015 BKN070 27/22 Q1016;
0143829860999992007062920004-09400-038217FM-15+0253SBUF V0201401N004610210019N0112651N1+02401+02201999999ADDGA1021+003901999GA2071+021001999GF107991999999999999999999MA1101691999999REMMET058METAR SBUF 292000Z 14009KT 9999 FEW013 BKN070 24/22 Q1017;
0143829860999992007062921004-09400-038217FM-15+0253SBUF V0201601N002610210019N0112651N1+02401+02201999999ADDGA1041+003901999GA2071+021001999GF107991999999999999999999MA1101691999999REMMET058METAR SBUF 292100Z 16005KT 9999 SCT013 BKN070 24/22 Q1017;
0143829860999992007062922004-09400-038217FM-15+0253SBUF V0201401N003110210019N0112651N1+02401+02201999999ADDGA1041+003901999GA2071+021001999GF107991999999999999999999MA1101801999999REMMET058METAR SBUF 292200Z 14006KT 9999 SCT013 BKN070 24/22 Q1018;
0143829860999992007062923004-09400-038217FM-15+0253SBUF V0201601N003110210019N0112651N1+02301+02201999999ADDGA1041+003901999GA2071+021001999GF107991999999999999999999MA1101901999999REMMET058METAR SBUF 292300Z 16006KT 9999 SCT013 BKN070 23/22 Q1019;
0313829860999992007063000004-09400-038217SY-MT+0253SBUF V0201801N00511021001CN0020001N1+02241+02171101851ADDAA106000891AY161061AY261061GA1041+003901999GA2071+021001999GF108991061071004501071999KA1240M+02771MA1102001098941MD1999999+0071MW1031REMSYN100AAXX  30004 82986 21495 81810 10224 20217 39894 40185 70366 8677/ 333 10277 29088 55016 58007 69981;MET062METAR SBUF 300000Z 15011KT 9000 -RA SCT013 BKN070 23/22 Q1020;
0162829860999992007063001004-09400-038217FM-15+0253SBUF V0201301N004110036019N0050001N1+02201+02201999999ADDGA1071+003601999GA2071+021001999GF107991999999999999999999MA1102001999999MW1101MW2611REMMET065METAR SBUF 300100Z 13008KT 5000 -RA BR BKN012 BKN070 22/22 Q1020;
0175829860999992007063002004-09400-038217FM-15+0253SBUF V0201601N003110036019N0050001N1+02101+02101999999ADDGA1021+001801999GA2071+003601999GA3071+021001999GF107991999999999999999999MA1102001999999MW1101REMMET068METAR SBUF 300200Z 16006KT 5000 BR FEW006 BKN012 BKN070 21/21 Q1020;
0166829860999992007063003004-09400-038217FM-15+0253SBUF V0201601N004110036019N0112651N1+02101+02101999999ADDGA1021+001801999GA2071+003601999GA3071+021001999GF107991999999999999999999MA1102001999999REMMET065METAR SBUF 300300Z 16008KT 9999 FEW006 BKN012 BKN070 21/21 Q1020;
0177829860999992007063004004-09400-038217FM-15+0253SBUF V0201701N003110036019N0080001N1+02101+02101999999ADDGA1021+002101999GA2071+003601999GA3071+021001999GF107991999999999999999999MA1102001999999MW1161REMMET070METAR SBUF 300400Z 17006KT 8000 VCSH FEW007 BKN012 BKN070 21/21 Q1020;
0152829860999992007063005004-09400-038217FM-15+0253SBUF V0201701N003110030019N0050001N1+02101+02101999999ADDGA1071+003001999GA2071+021001999GF107991999999999999999999MA1102001999999MW1101REMMET061METAR SBUF 300500Z 17006KT 5000 BR BKN010 BKN070 21/21 Q1020;
0143829860999992007063006004-09400-038217FM-15+0253SBUF V0201801N002610033019N0112651N1+02001+02001999999ADDGA1071+003301999GA2071+021001999GF107991999999999999999999MA1101901999999REMMET058METAR SBUF 300600Z 18005KT 9999 BKN011 BKN070 20/20 Q1019;
0143829860999992007063007004-09400-038217FM-15+0253SBUF V0201701N002110039019N0112651N1+02001+02001999999ADDGA1071+003901999GA2071+021001999GF107991999999999999999999MA1101901999999REMMET058METAR SBUF 300700Z 17004KT 9999 BKN013 BKN070 20/20 Q1019;
0143829860999992007063009004-09400-038217FM-15+0253SBUF V0201701N002110210019N0112651N1+02101+02101999999ADDGA1041+003601999GA2071+021001999GF107991999999999999999999MA1102001999999REMMET058METAR SBUF 300900Z 17004KT 9999 SCT012 BKN070 21/21 Q1020;
0143829860999992007063010004-09400-038217FM-15+0253SBUF V0201801N002610210019N0112651N1+02101+02101999999ADDGA1021+003601999GA2071+021001999GF107991999999999999999999MA1102101999999REMMET058METAR SBUF 301000Z 18005KT 9999 FEW012 BKN070 21/21 Q1021;
0143829860999992007063011004-09400-038217FM-15+0253SBUF V0201601N002610210019N0112651N1+02201+02101999999ADDGA1041+003901999GA2071+021001999GF107991999999999999999999MA1102201999999REMMET058METAR SBUF 301100Z 16005KT 9999 SCT013 BKN070 22/21 Q1022;
0297829860999992007063012004-09400-038217SY-MT+0253SBUF V0201801N00151021001CN0100001N1+02181+02101102081ADDAA124003091AY161061AY251061GA1021+004501999GA2071+021001999GF108991081071004501999999KA1240N+01991MA1102201099171MD1999999+0161MW1031REMSYN088AAXX  30124 82986 21497 81803 10218 20210 39917 40208 70365 887// 333 20199 58016 60034;MET058METAR SBUF 301200Z 14004KT 9999 FEW015 BKN070 24/21 Q1022;
0143829860999992007063013004-09400-038217FM-15+0253SBUF V0201001N002610210019N0112651N1+02501+02201999999ADDGA1041+005101999GA2071+021001999GF107991999999999999999999MA1102201999999REMMET058METAR SBUF 301300Z 10005KT 9999 SCT017 BKN070 25/22 Q1022;
0143829860999992007063014004-09400-038217FM-15+0253SBUF V0201001N003112200019N0112651N1+02701+02201999999ADDGA1021+005401999GA2041+021001999GF104991999999999999999999MA1102201999999REMMET058METAR SBUF 301400Z 10006KT 9999 FEW018 SCT070 27/22 Q1022;
0137829860999992007063018004-09400-038217FM-12+0253SBUF V0200901N001510450019N0200001N1+02711+01721101721ADDGF106991041021008001061001MA1999999098841MD1999999+0211REMSYN070AAXX  30184 82986 32598 60903 10271 20172 39884 40172 84260 333 58021;
0120829860999992007063019004-09400-038217FM-15+0253SBUF V0201101N002110060019N0112651N1+03001+01901999999ADDGA1071+006001999GF107991999999999999999999MA1101901999999REMMET051METAR SBUF 301900Z 11004KT 9999 BKN020 30/19 Q1019;
0120829860999992007063020004-09400-038217FM-15+0253SBUF V0201601N003112200019N0112651N1+02701+02001999999ADDGA1041+006001999GF104991999999999999999999MA1101901999999REMMET051METAR SBUF 302000Z 16006KT 9999 SCT020 27/20 Q1019;
0120829860999992007063021004-09400-038217FM-15+0253SBUF V0201501N002612200019N0112651N1+02501+02001999999ADDGA1021+006001999GF102991999999999999999999MA1101901999999REMMET051METAR SBUF 302100Z 15005KT 9999 FEW020 25/20 Q1019;
0072829860999992007063022004-09400-038217FM-15+0253SBUF V0201801N00151220001CN0099001N1+02401+02001999999ADDMA1102001999999REMMET045METAR SBUF 302200Z 18003KT CAVOK 24/20 Q1020;
0184829860999992007070112004-09400-038217FM-12+0253SBUF V0201801N001510450019N0100001N1+02181+01971102071ADDAY141061AY221061GF106991041071008001051001KA1240N+01841MA1999999099181MD1999999+0041MW1101REMSYN082AAXX  01124 82986 31597 61803 10218 20197 39918 40207 71042 84750 333 20184 58004;
0137829860999992007070118004-09400-038217FM-12+0253SBUF V0200901N003110075019N0200001N1+02921+01501101711ADDGF106991061021008001001001MA1999999098831MD1999999-0011REMSYN070AAXX  01184 82986 32598 60906 10292 20150 39883 40171 86200 333 59001;
0168829860999992007070200004-09400-038217FM-12+0253SBUF V0201801N003612200019N0020001N1+02351+01981102041ADDGF102991021001012501041001KA1240M+02981MA1999999099131MD1999999+0041REMSYN088AAXX  02004 82986 32695 21807 10235 20198 39913 40204 82040 333 10298 29072 55080 58004;
0120829860999992007070211004-09400-038217FM-15+0253SBUF V0201401N003112200019N0112651N1+02401+02101999999ADDGA1021+004501999GF102991999999999999999999MA1102101999999REMMET051METAR SBUF 021100Z 14006KT 9999 FEW015 24/21 Q1021;
0229829860999992007070212004-09400-038217SY-MT+0253SBUF V0201401N004110051019N0100001N1+02411+01931101981ADDGA1071+005101999GF107991071051008001999999KA1240N+02021MA1102101099091MD1999999-0091REMSYN076AAXX  02124 82986 32597 71408 10241 20193 39909 40198 875// 333 20202 59009;MET051METAR SBUF 021200Z 14007KT 9999 BKN017 26/21 Q1021;
0120829860999992007070213004-09400-038217FM-15+0253SBUF V0201401N004112200019N0112651N1+02801+02101999999ADDGA1041+006001999GF104991999999999999999999MA1102101999999REMMET051METAR SBUF 021300Z 14008KT 9999 SCT020 28/21 Q1021;
0120829860999992007070214004-09400-038217FM-15+0253SBUF V0201301N004612200019N0112651N1+02901+02101999999ADDGA1041+006001999GF104991999999999999999999MA1102001999999REMMET051METAR SBUF 021400Z 13009KT 9999 SCT020 29/21 Q1020;
0120829860999992007070216004-09400-038217FM-15+0253SBUF V0201601N004110060019N0112651N1+03201+01901999999ADDGA1071+006001999GF107991999999999999999999MA1101801999999REMMET051METAR SBUF 021600Z 16008KT 9999 BKN020 32/19 Q1018;
0120829860999992007070217004-09400-038217FM-15+0253SBUF V0201401N005112200019N0112651N1+03201+01901999999ADDGA1041+006001999GF104991999999999999999999MA1101691999999REMMET051METAR SBUF 021700Z 14010KT 9999 SCT020 32/19 Q1017;
0137829860999992007070218004-09400-038217FM-12+0253SBUF V0200901N004112200019N0200001N1+02961+01461101541ADDGF104991041021008001001001MA1999999098681MD1999999-0151REMSYN070AAXX  02184 82986 32598 40908 10296 20146 39868 40154 84200 333 59015;
0120829860999992007070219004-09400-038217FM-15+0253SBUF V0201401N005112200019N0112651N1+03101+01901999999ADDGA1041+006001999GF104991999999999999999999MA1101691999999REMMET051METAR SBUF 021900Z 14010KT 9999 SCT020 31/19 Q1017;
0143829860999992007070220004-09400-038217FM-15+0253SBUF V0201501N004612200019N0112651N1+02901+01901999999ADDGA1041+005401999GA2041+024001999GF104991999999999999999999MA1101691999999REMMET058METAR SBUF 022000Z 15009KT 9999 SCT018 SCT080 29/19 Q1017;
0120829860999992007070221004-09400-038217FM-15+0253SBUF V0201501N006712200019N0112651N1+02701+02001999999ADDGA1041+005101999GF104991999999999999999999MA1101691999999REMMET051METAR SBUF 022100Z 15013KT 9999 SCT017 27/20 Q1017;
0120829860999992007070222004-09400-038217FM-15+0253SBUF V0201201N005112200019N0112651N1+02601+02001999999ADDGA1041+004801999GF104991999999999999999999MA1101901999999REMMET051METAR SBUF 022200Z 12010KT 9999 SCT016 26/20 Q1019;
0120829860999992007070223004-09400-038217FM-15+0253SBUF V0201401N005712200019N0112651N1+02501+02001999999ADDGA1041+004801999GF104991999999999999999999MA1101901999999REMMET051METAR SBUF 022300Z 14011KT 9999 SCT016 25/20 Q1019;
0264829860999992007070300004-09400-038217SY-MT+0253SBUF V0201801N00361021001CN0020001N1+02381+01991101871ADDGA1041+004501999GA2041+021001999GF106991061001012501021001KA1240M+03051MA1102001098991MD1999999-0141REMSYN088AAXX  03004 82986 32695 61807 10238 20199 39899 40187 86020 333 10305 29068 55085 59014;MET058METAR SBUF 030000Z 14008KT 9999 SCT015 SCT070 24/21 Q1020;
0143829860999992007070301004-09400-038217FM-15+0253SBUF V0201401N003612200019N0112651N1+02301+02101999999ADDGA1041+004501999GA2041+021001999GF104991999999999999999999MA1102001999999REMMET058METAR SBUF 030100Z 14007KT 9999 SCT015 SCT070 23/21 Q1020;
0136829860999992007070302004-09400-038217FM-15+0253SBUF V0201501N00311220001CN0112651N1+02301+02101999999ADDGA1071+003601999GA2041+021001999MA1102001999999REMMET058METAR SBUF 030200Z 15006KT 9999 BKN012 SCT070 23/21 Q1020;EQDQ01+000042SCOTCV
0120829860999992007070303004-09400-038217FM-15+0253SBUF V0201501N003112200019N0112651N1+02201+02101999999ADDGA1041+003601999GF104991999999999999999999MA1102001999999REMMET051METAR SBUF 030300Z 15006KT 9999 SCT012 22/21 Q1020;
0120829860999992007070304004-09400-038217FM-15+0253SBUF V0201501N002612200019N0112651N1+02201+02101999999ADDGA1041+003601999GF104991999999999999999999MA1102001999999REMMET051METAR SBUF 030400Z 15005KT 9999 SCT012 22/21 Q1020;
0120829860999992007070305004-09400-038217FM-15+0253SBUF V0201501N001512200019N0112651N1+02101+02101999999ADDGA1041+003601999GF104991999999999999999999MA1101901999999REMMET051METAR SBUF 030500Z 15003KT 9999 SCT012 21/21 Q1019;
0120829860999992007070309004-09400-038217FM-15+0253SBUF V0202001N001012200019N0112651N1+02101+02101999999ADDGA1041+003001999GF104991999999999999999999MA1102001999999REMMET051METAR SBUF 030900Z 20002KT 9999 SCT010 21/21 Q1020;
0120829860999992007070310004-09400-038217FM-15+0253SBUF V0201801N001512200019N0112651N1+02201+02101999999ADDGA1041+003601999GF104991999999999999999999MA1102001999999REMMET051METAR SBUF 031000Z 18003KT 9999 SCT012 22/21 Q1020;
0120829860999992007070311004-09400-038217FM-15+0253SBUF V0201801N002612200019N0112651N1+02301+02101999999ADDGA1041+004501999GF104991999999999999999999MA1102101999999REMMET051METAR SBUF 031100Z 18005KT 9999 SCT015 23/21 Q1021;
0248829860999992007070312004-09400-038217SY-MT+0253SBUF V0201401N00571005101CN0100001N1+02341+02071101991ADDGA1071+005101999GF199999051021008001001011KA1240N+02041MA1102101099101MD1999999+0011REMSYN076AAXX  03124 82986 32597 61411 10234 20207 39910 40199 85201 333 20204 58001;MET051METAR SBUF 031200Z 15010KT 9999 BKN017 26/21 Q1021;EQDQ01+000062SCOTCV
0120829860999992007070313004-09400-038217FM-15+0253SBUF V0201401N004610054019N0112651N1+02901+02101999999ADDGA1071+005401999GF107991999999999999999999MA1102101999999REMMET051METAR SBUF 031300Z 14009KT 9999 BKN018 29/21 Q1021;
0120829860999992007070314004-09400-038217FM-15+0253SBUF V0201601N007210054019N0112651N1+03001+02001999999ADDGA1071+005401999GF107991999999999999999999MA1102001999999REMMET051METAR SBUF 031400Z 16014KT 9999 BKN018 30/20 Q1020;
0137829860999992007070318004-09400-038217FM-12+0253SBUF V0200901N005110450019N0200001N1+02921+01711101641ADDGF106991031021008001041001MA1999999098771MD1999999+0091REMSYN070AAXX  03184 82986 32598 60910 10292 20171 39877 40164 83240 333 58009;
0143829860999992007070319004-09400-038217FM-15+0253SBUF V0201201N005712200019N0112651N1+02801+02101999999ADDGA1041+006001999GA2041+021001999GF104991999999999999999999MA1101801999999REMMET058METAR SBUF 031900Z 12011KT 9999 SCT020 SCT070 28/21 Q1018;
0143829860999992007070320004-09400-038217FM-15+0253SBUF V0201301N006212200019N0112651N1+02501+02001999999ADDGA1041+006001999GA2041+021001999GF104991999999999999999999MA1101901999999REMMET058METAR SBUF 032000Z 13012KT 9999 SCT020 SCT070 25/20 Q1019;
0117829860999992007070321004-09400-038217FM-15+0253SBUF V0201301N00461220001CN0112651N1+02501+02001999999ADDGA1071+006001999GA2041+021001999MA1101901999999REMMET058METAR SBUF 032100Z 13009KT 9999 BKN020 SCT070 25/20 Q1019;
0143829860999992007070322004-09400-038217FM-15+0253SBUF V0201201N004612200019N0112651N1+02401+01901999999ADDGA1041+005401999GA2041+021001999GF104991999999999999999999MA1101901999999REMMET058METAR SBUF 032200Z 12009KT 9999 SCT018 SCT070 24/19 Q1019;
0143829860999992007070323004-09400-038217FM-15+0253SBUF V0201301N003612200019N0112651N1+02401+02001999999ADDGA1041+005401999GA2041+021001999GF104991999999999999999999MA1102001999999REMMET058METAR SBUF 032300Z 13007KT 9999 SCT018 SCT070 24/20 Q1020;
0143829860999992007070400004-09400-038217FM-15+0253SBUF V0201401N003612200019N0112651N1+02301+02001999999ADDGA1021+005401999GA2041+021001999GF104991999999999999999999MA1102001999999REMMET058METAR SBUF 040000Z 14007KT 9999 FEW018 SCT070 23/20 Q1020;
0072829860999992007070401004-09400-038217FM-15+0253SBUF V0201401N00411220001CN0099001N1+02201+02001999999ADDMA1102101999999REMMET045METAR SBUF 040100Z 14008KT CAVOK 22/20 Q1021;
0072829860999992007070402004-09400-038217FM-15+0253SBUF V0201301N00261220001CN0099001N1+02101+02101999999ADDMA1102101999999REMMET045METAR SBUF 040200Z 13005KT CAVOK 21/21 Q1021;
0120829860999992007070403004-09400-038217FM-15+0253SBUF V0201901N001512200019N0112651N1+02101+02101999999ADDGA1021+003601999GF102991999999999999999999MA1102101999999REMMET051METAR SBUF 040300Z 19003KT 9999 FEW012 21/21 Q1021;
0143829860999992007070409004-09400-038217FM-15+0253SBUF V0201701N002612200019N0112651N1+02101+02101999999ADDGA1041+003601999GA2041+005101999GF104991999999999999999999MA1102001999999REMMET058METAR SBUF 040900Z 17005KT 9999 SCT012 SCT017 21/21 Q1020;
0143829860999992007070410004-09400-038217FM-15+0253SBUF V0201301N002112200019N0112651N1+02101+02101999999ADDGA1041+002401999GA2041+005101999GF104991999999999999999999MA1102001999999REMMET058METAR SBUF 041000Z 13004KT 9999 SCT008 SCT017 21/21 Q1020;
0220829860999992007070412004-09400-038217FM-12+0253SBUF V0200901N001510021019N0020001N1+02121+02071102051ADDAA124000091AY151061AY221061GF108991081071002501999999KA1240N+01901MA1999999099131MD1999999+0031MW1151REMSYN088AAXX  04124 82986 21395 80903 10212 20207 39913 40205 71552 887// 333 20190 58003 69904;EQDQ01  00002PRCP24
0162829860999992007070413004-09400-038217FM-15+0253SBUF V0201501N003610048019N0045001N1+02301+02201999999ADDGA1041+003601999GA2071+004801999GF107991999999999999999999MA1102101999999MW1101MW2611REMMET065METAR SBUF 041300Z 15007KT 4500 -RA BR SCT012 BKN016 23/22 Q1021;
0166829860999992007070414004-09400-038217FM-15+0253SBUF V0201601N00361005101CN0112651N1+02401+02301999999ADDGA1021+004501999GA2041+005101999GA3071+021001999GF107991999999999999999999MA1102101999999REMMET065METAR SBUF 041400Z 16007KT 9999 FEW015 SCT017 BKN070 24/23 Q1021;
0182829860999992007070418004-09400-038217FM-12+0253SBUF V0200901N002110042019N0100001N1+02731+01741101641ADDAA106001091AY161061AY221061GF106991061071004501001001MA1999999098761MD1999999-0011MW1021REMSYN082AAXX  04184 82986 21497 60904 10273 20174 39876 40164 70262 86700 333 59001 69991;
0169829860999992007070419004-09400-038217FM-15+0253SBUF V0200601N004610060019N0112651N1+02701+02101999999ADDGA1071+006001999GA2021+007501021GA3071+021001999GF107991999999999999999999MA1101801999999REMMET068METAR SBUF 041900Z 06009KT 9999 BKN020 FEW025TCU BKN070 27/21 Q1018;
0177829860999992007070420004-09400-038217FM-15+0253SBUF V0201301N005710060019N0080001N1+02401+02101999999ADDGA1041+003601999GA2071+006001999GA3071+021001999GF107991999999999999999999MA1101801999999MW1161REMMET070METAR SBUF 042000Z 13011KT 8000 VCSH SCT012 BKN020 BKN070 24/21 Q1018;
0177829860999992007070421004-09400-038217FM-15+0253SBUF V0201501N005110030019N0080001N1+02301+02201999999ADDGA1071+003001999GA2071+004801999GA3071+021001999GF107991999999999999999999MA1101901999999MW1161REMMET070METAR SBUF 042100Z 15010KT 8000 VCSH BKN010 BKN016 BKN070 23/22 Q1019;
0143829860999992007070422004-09400-038217FM-15+0253SBUF V0201601N002110210019N0112651N1+02301+02201999999ADDGA1041+003601999GA2071+021001999GF107991999999999999999999MA1102001999999REMMET058METAR SBUF 042200Z 16004KT 9999 SCT012 BKN070 23/22 Q1020;
0143829860999992007070423004-09400-038217FM-15+0253SBUF V0201401N003110210019N0112651N1+02301+02201999999ADDGA1041+003001999GA2071+021001999GF107991999999999999999999MA1102001999999REMMET058METAR SBUF 042300Z 14006KT 9999 SCT010 BKN070 23/22 Q1020;
0264829860999992007070500004-09400-038217SY-MT+0253SBUF V0201801N006212200019N0020001N1+02201+02101102021ADDGA1041+003001999GA2041+021001999GF104991041001012501031001KA1240M+02821MA1102101099101MD1999999+0071REMSYN088AAXX  05004 82986 32695 41812 10220 20210 39910 40202 84030 333 10282 29085 55024 58007;MET058METAR SBUF 050000Z 13009KT 9999 SCT010 SCT070 23/21 Q1021;
0143829860999992007070501004-09400-038217FM-15+0253SBUF V0201301N003610210019N0112651N1+02201+02101999999ADDGA1041+003001999GA2071+021001999GF107991999999999999999999MA1102101999999REMMET058METAR SBUF 050100Z 13007KT 9999 SCT010 BKN070 22/21 Q1021;
0143829860999992007070504004-09400-038217FM-15+0253SBUF V0201401N002610210019N0112651N1+02101+02101999999ADDGA1041+002401999GA2071+021001999GF107991999999999999999999MA1102101999999REMMET058METAR SBUF 050400Z 14005KT 9999 SCT008 BKN070 21/21 Q1021;
0143829860999992007070509004-09400-038217FM-15+0253SBUF V0201501N003110036019N0112651N1+02001+02001999999ADDGA1041+003001999GA2071+003601999GF107991999999999999999999MA1102001999999REMMET058METAR SBUF 050900Z 15006KT 9999 SCT010 BKN012 20/20 Q1020;
0143829860999992007070510004-09400-038217FM-15+0253SBUF V0201601N003110036019N0112651N1+02101+02101999999ADDGA1041+003001999GA2071+003601999GF107991999999999999999999MA1102101999999REMMET058METAR SBUF 051000Z 16006KT 9999 SCT010 BKN012 21/21 Q1021;
0143829860999992007070511004-09400-038217FM-15+0253SBUF V0201301N004110036019N0112651N1+02201+02201999999ADDGA1041+003001999GA2071+003601999GF107991999999999999999999MA1102101999999REMMET058METAR SBUF 051100Z 13008KT 9999 SCT010 BKN012 22/22 Q1021;
0316829860999992007070512004-09400-038217SY-MT+0253SBUF V0201401N00511004501CN0100001N1+02231+01901102021ADDAA124001091AY161061AY221061GA1021+003601999GA2071+004501999GF199999051021008001001011KA1240N+01951MA1102101099111MD1999999-0021MW1021REMSYN088AAXX  05124 82986 21597 61410 10223 20190 39911 40202 70262 85201 333 20195 59002 60014;MET058METAR SBUF 051200Z 13008KT 9999 FEW012 BKN015 25/21 Q1021;EQDQ01+000062SCOTCV
0120829860999992007070513004-09400-038217FM-15+0253SBUF V0201201N006210048019N0112651N1+02801+01901999999ADDGA1071+004801999GF107991999999999999999999MA1102101999999REMMET051METAR SBUF 051300Z 12012KT 9999 BKN016 28/19 Q1021;
0120829860999992007070514004-09400-038217FM-15+0253SBUF V0201401N006210048019N0112651N1+02901+01901999999ADDGA1071+004801999GF107991999999999999999999MA1102101999999REMMET051METAR SBUF 051400Z 14012KT 9999 BKN016 29/19 Q1021;
0137829860999992007070518004-09400-038217FM-12+0253SBUF V0201401N005110075019N0200001N1+02771+01461101661ADDGF106991051021008001001091MA1999999098781MD1999999+0021REMSYN070AAXX  05184 82986 32598 61410 10277 20146 39878 40166 85209 333 58002;
0143829860999992007070519004-09400-038217FM-15+0253SBUF V0201101N006212200019N0112651N1+02801+01901999999ADDGA1041+006001999GA2041+024001999GF104991999999999999999999MA1101801999999REMMET058METAR SBUF 051900Z 11012KT 9999 SCT020 SCT080 28/19 Q1018;
0143829860999992007070520004-09400-038217FM-15+0253SBUF V0201101N005110054019N0112651N1+02701+01901999999ADDGA1071+005401999GA2071+021001999GF107991999999999999999999MA1101801999999REMMET058METAR SBUF 052000Z 11010KT 9999 BKN018 BKN070 27/19 Q1018;
0120829860999992007070521004-09400-038217FM-15+0253SBUF V0201201N005710045019N0112651N1+02601+02001999999ADDGA1071+004501999GF107991999999999999999999MA1101901999999REMMET051METAR SBUF 052100Z 12011KT 9999 BKN015 26/20 Q1019;
0120829860999992007070522004-09400-038217FM-15+0253SBUF V0201401N004112200019N0112651N1+02501+02001999999ADDGA1041+003601999GF104991999999999999999999MA1101901999999REMMET051METAR SBUF 052200Z 14008KT 9999 SCT012 25/20 Q1019;
0120829860999992007070523004-09400-038217FM-15+0253SBUF V0201601N007212200019N0112651N1+02401+02001999999ADDGA1041+003001999GF104991999999999999999999MA1102001999999REMMET051METAR SBUF 052300Z 16014KT 9999 SCT010 24/20 Q1020;
0241829860999992007070600004-09400-038217SY-MT+0253SBUF V0201401N003110075019N0020001N1+02311+02031101901ADDGA1041+002401999GF106991061051008001001001KA1240M+02931MA1102001099001MD1999999-0101REMSYN088AAXX  06004 82986 32595 61406 10231 20203 39900 40190 86500 333 10293 29075 55074 59010;MET051METAR SBUF 060000Z 16009KT 9999 SCT008 24/21 Q1020;
0120829860999992007070601004-09400-038217FM-15+0253SBUF V0201801N002612200019N0112651N1+02301+02101999999ADDGA1041+002101999GF104991999999999999999999MA1102001999999REMMET051METAR SBUF 060100Z 18005KT 9999 SCT007 23/21 Q1020;
0120829860999992007070602004-09400-038217FM-15+0253SBUF V0201901N002112200019N0112651N1+02201+02101999999ADDGA1041+001801999GF104991999999999999999999MA1102001999999REMMET051METAR SBUF 060200Z 19004KT 9999 SCT006 22/21 Q1020;
0120829860999992007070603004-09400-038217FM-15+0253SBUF V0201801N002612200019N0112651N1+02201+02101999999ADDGA1041+001801999GF104991999999999999999999MA1102001999999REMMET051METAR SBUF 060300Z 18005KT 9999 SCT006 22/21 Q1020;
0120829860999992007070604004-09400-038217FM-15+0253SBUF V0202201N002612200019N0112651N1+02201+02001999999ADDGA1041+001801999GF104991999999999999999999MA1101901999999REMMET051METAR SBUF 060400Z 22005KT 9999 SCT006 22/20 Q1019;
0120829860999992007070605004-09400-038217FM-15+0253SBUF V0201501N002112200019N0112651N1+02101+02101999999ADDGA1041+002101999GF104991999999999999999999MA1101901999999REMMET051METAR SBUF 060500Z 15004KT 9999 SCT007 21/21 Q1019;
0143829860999992007070609004-09400-038217FM-15+0253SBUF V0202301N000512200019N0112651N1+01901+01901999999ADDGA1021+002401999GA2041+090001999GF104991999999999999999999MA1101801999999REMMET058METAR SBUF 060900Z 23001KT 9999 FEW008 SCT300 19/19 Q1018;
0143829860999992007070610004-09400-038217FM-15+0253SBUF V0202401N001012200019N0112651N1+02001+02001999999ADDGA1041+003001999GA2041+090001999GF104991999999999999999999MA1101901999999REMMET058METAR SBUF 061000Z 24002KT 9999 SCT010 SCT300 20/20 Q1019;
0143829860999992007070611004-09400-038217FM-15+0253SBUF V0201701N003610900019N0112651N1+02401+02101999999ADDGA1021+003001999GA2071+090001999GF107991999999999999999999MA1101901999999REMMET058METAR SBUF 061100Z 17007KT 9999 FEW010 BKN300 24/21 Q1019;
0280829860999992007070612004-09400-038217SY-MT+0253SBUF V0201401N00311090001CN0100001N1+02381+01911101831ADDAY121061AY221061GA1041+004501999GA2071+090001999GF108991081071004501999999KA1240N+01961MA1101901098941MD1999999-0171MW1151REMSYN082AAXX  06124 82986 31497 81406 10238 20191 39894 40183 71522 887// 333 20196 59017;MET058METAR SBUF 061200Z 15008KT 9999 SCT015 BKN300 25/21 Q1019;
0154829860999992007070613004-09400-038217FM-15+0253SBUF V0201001N003110045019N0080001N1+02501+02101999999ADDGA1071+004501999GA2071+021001999GF107991999999999999999999MA1101901999999MW1161REMMET063METAR SBUF 061300Z 10006KT 8000 VCSH BKN015 BKN070 25/21 Q1019;
0152829860999992007070614004-09400-038217FM-15+0253SBUF V0201401N003110210019N0035001N1+02401+02301999999ADDGA1041+003001999GA2071+021001999GF107991999999999999999999MA1101901999999MW1101REMMET061METAR SBUF 061400Z 14006KT 3500 BR SCT010 BKN070 24/23 Q1019;
0217829860999992007070618004-09400-038217FM-12+0253SBUF V0201401N999990042019N0040001N1+02571+02081101511ADDAA106000091AY151061AY221061GF107991061071004501071999MA1999999098621MD1999999-0161MW1151REMSYN082AAXX  06184 82986 21496 71471 10257 20208 39862 40151 71552 8677/ 333 59016 69901;EQDQ01+003653WOSPD Q02  00002PRCP06
0143829860999992007070619004-09400-038217FM-15+0253SBUF V0201501N004610024019N0112651N1+02301+02301999999ADDGA1071+002401999GA2071+021001999GF107991999999999999999999MA1101691999999REMMET058METAR SBUF 061900Z 15009KT 9999 BKN008 BKN070 23/23 Q1017;
0143829860999992007070620004-09400-038217FM-15+0253SBUF V0201401N007210021019N0112651N1+02301+02201999999ADDGA1071+002101999GA2071+021001999GF107991999999999999999999MA1101691999999REMMET058METAR SBUF 062000Z 14014KT 9999 BKN007 BKN070 23/22 Q1017;
0153829860999992007070621004-09400-038217FM-15+0253SBUF V0201601N007710018019N0040001N1+02201+02201999999ADDGA1071+001801999GA2071+021001999GF107991999999999999999999MA1101801999999MW1611REMMET062METAR SBUF 062100Z 16015KT 4000 -RA BKN006 BKN070 22/22 Q1018;
0166829860999992007070622004-09400-038217FM-15+0253SBUF V0201301N00461004801CN0112651N1+02201+02201999999ADDGA1021+001801999GA2041+004801999GA3071+021001999GF107991999999999999999999MA1101801999999REMMET065METAR SBUF 062200Z 13009KT 9999 FEW006 SCT016 BKN070 22/22 Q1018;
0166829860999992007070623004-09400-038217FM-15+0253SBUF V0201301N00361004801CN0112651N1+02201+02201999999ADDGA1021+001801999GA2041+004801999GA3071+021001999GF107991999999999999999999MA1101801999999REMMET065METAR SBUF 062300Z 13007KT 9999 FEW006 SCT016 BKN070 22/22 Q1018;
0309829860999992007070700004-09400-038217SY-MT+0253SBUF V0201801N00211021001CN0020001N1+02101+02071101751ADDAA106002091AY161061AY251061GA1041+006001999GA2071+021001999GF108991081081002501999999KA1240M+02631MA1101901098851MD1999999-0151MW1021REMSYN100AAXX  07004 82986 21395 81804 10210 20207 39885 40175 70265 888// 333 10263 29087 55029 59015 60021;MET058METAR SBUF 070000Z 15004KT 9999 SCT020 BKN070 22/21 Q1019;
0143829860999992007070701004-09400-038217FM-15+0253SBUF V0201701N002112200019N0112651N1+02201+02201999999ADDGA1021+006001999GA2041+021001999GF104991999999999999999999MA1101901999999REMMET058METAR SBUF 070100Z 17004KT 9999 FEW020 SCT070 22/22 Q1019;
0143829860999992007070702004-09400-038217FM-15+0253SBUF V0201401N002112200019N0112651N1+02201+02201999999ADDGA1021+006001999GA2041+021001999GF104991999999999999999999MA1101901999999REMMET058METAR SBUF 070200Z 14004KT 9999 FEW020 SCT070 22/22 Q1019;
0120829860999992007070703004-09400-038217FM-15+0253SBUF V0201301N001512200019N0112651N1+02101+02101999999ADDGA1021+006001999GF102991999999999999999999MA1101801999999REMMET051METAR SBUF 070300Z 13003KT 9999 FEW020 21/21 Q1018;
0120829860999992007070704004-09400-038217FM-15+0253SBUF V0201401N002112200019N0112651N1+02101+02101999999ADDGA1021+005101999GF102991999999999999999999MA1101801999999REMMET051METAR SBUF 070400Z 14004KT 9999 FEW017 21/21 Q1018;
0120829860999992007070709004-09400-038217FM-15+0253SBUF V0202301N000512200019N0112651N1+02001+02001999999ADDGA1041+002101999GF104991999999999999999999MA1101691999999REMMET051METAR SBUF 070900Z 23001KT 9999 SCT007 20/20 Q1017;
0120829860999992007070710004-09400-038217FM-15+0253SBUF V0202501N001512200019N0112651N1+02101+02101999999ADDGA1041+002401999GF104991999999999999999999MA1101801999999REMMET051METAR SBUF 071000Z 25003KT 9999 SCT008 21/21 Q1018;
0120829860999992007070711004-09400-038217FM-15+0253SBUF V0201501N002612200019N0112651N1+02301+02101999999ADDGA1041+003001999GF104991999999999999999999MA1101801999999REMMET051METAR SBUF 071100Z 15005KT 9999 SCT010 23/21 Q1018;
0274829860999992007070712004-09400-038217SY-MT+0253SBUF V0201401N003110042019N0100001N1+02261+01991101801ADDAA124002091AY141061AY221061GA1041+003601999GF106991061051004501001001KA1240N+01901MA1101901098891MD1999999-0051MW1101REMSYN088AAXX  07124 82986 21497 61406 10226 20199 39889 40180 71042 86500 333 20190 59005 60024;MET051METAR SBUF 071200Z 14007KT 9999 SCT012 25/21 Q1019;
0120829860999992007070713004-09400-038217FM-15+0253SBUF V0201201N004112200019N0112651N1+02701+02001999999ADDGA1041+004501999GF104991999999999999999999MA1101901999999REMMET051METAR SBUF 071300Z 12008KT 9999 SCT015 27/20 Q1019;
0120829860999992007070714004-09400-038217FM-15+0253SBUF V0201101N004612200019N0112651N1+02901+01901999999ADDGA1041+005101999GF104991999999999999999999MA1101801999999REMMET051METAR SBUF 071400Z 11009KT 9999 SCT017 29/19 Q1018;
0137829860999992007070718004-09400-038217FM-12+0253SBUF V0200901N005111050019N0200001N1+02921+01221101331ADDGF106991031011008001001021MA1999999098471MD1999999-0151REMSYN070AAXX  07184 82986 32598 60910 10292 20122 39847 40133 83102 333 59015;
0143829860999992007070719004-09400-038217FM-15+0253SBUF V0201301N005112200019N0112651N1+03101+01701999999ADDGA1021+006001999GA2041+021001999GF104991999999999999999999MA1101491999999REMMET058METAR SBUF 071900Z 13010KT 9999 FEW020 SCT070 31/17 Q1015;
0143829860999992007070720004-09400-038217FM-15+0253SBUF V0201501N005112200019N0112651N1+02901+02101999999ADDGA1021+006001999GA2041+024001999GF104991999999999999999999MA1101491999999REMMET058METAR SBUF 072000Z 15010KT 9999 FEW020 SCT080 29/21 Q1015;
0143829860999992007070721004-09400-038217FM-15+0253SBUF V0201101N003612200019N0112651N1+02601+01901999999ADDGA1021+006001999GA2041+024001999GF104991999999999999999999MA1101591999999REMMET058METAR SBUF 072100Z 11007KT 9999 FEW020 SCT080 26/19 Q1016;
0143829860999992007070722004-09400-038217FM-15+0253SBUF V0201401N004612200019N0112651N1+02601+02001999999ADDGA1021+006001999GA2041+024001999GF104991999999999999999999MA1101591999999REMMET058METAR SBUF 072200Z 14009KT 9999 FEW020 SCT080 26/20 Q1016;
0072829860999992007070723004-09400-038217FM-15+0253SBUF V0201301N00671220001CN0099001N1+02401+02101999999ADDMA1101691999999REMMET045METAR SBUF 072300Z 13013KT CAVOK 24/21 Q1017;
0213829860999992007070800004-09400-038217SY-MT+0253SBUF V0200901N004112200019N0020001N1+02301+02031101641ADDGF100991001001999999001001KA1240M+02911MA1101801098751MD1999999-0101REMSYN082AAXX  08004 82986 32995 00908 10230 20203 39875 40164 333 10291 29072 55094 59010;MET045METAR SBUF 080000Z 13009KT CAVOK 23/21 Q1018;
0072829860999992007070802004-09400-038217FM-15+0253SBUF V0201401N00361220001CN0099001N1+02201+02101999999ADDMA1101801999999REMMET045METAR SBUF 080200Z 14007KT CAVOK 22/21 Q1018;
0120829860999992007070803004-09400-038217FM-15+0253SBUF V0201301N004112200019N0112651N1+02201+02101999999ADDGA1021+003601999GF102991999999999999999999MA1101691999999REMMET051METAR SBUF 080300Z 13008KT 9999 FEW012 22/21 Q1017;
0120829860999992007070809004-09400-038217FM-15+0253SBUF V0201701N002612200019N0112651N1+02101+02101999999ADDGA1041+002101999GF104991999999999999999999MA1101691999999REMMET051METAR SBUF 080900Z 17005KT 9999 SCT007 21/21 Q1017;
0143829860999992007070813004-09400-038217FM-15+0253SBUF V0201301N006712200019N0112651N1+02601+02101999999ADDGA1021+003601999GA2041+004501999GF104991999999999999999999MA1101801999999REMMET058METAR SBUF 081300Z 13013KT 9999 FEW012 SCT015 26/21 Q1018;
0120829860999992007070814004-09400-038217FM-15+0253SBUF V0201501N004110051019N0112651N1+02801+02001999999ADDGA1071+005101999GF107991999999999999999999MA1101691999999REMMET051METAR SBUF 081400Z 15008KT 9999 BKN017 28/20 Q1017;
0137829860999992007070818004-09400-038217FM-12+0253SBUF V0201401N005110450019N0200001N1+02801+01391101321ADDGF106991031021002501041001MA1999999098461MD1999999-0011REMSYN070AAXX  08184 82986 32398 61410 10280 20139 39846 40132 83240 333 59001;
0120829860999992007070819004-09400-038217FM-15+0253SBUF V0201201N005712200019N0112651N1+02901+01901999999ADDGA1041+006001999GF104991999999999999999999MA1101491999999REMMET051METAR SBUF 081900Z 12011KT 9999 SCT020 29/19 Q1015;
0120829860999992007070820004-09400-038217FM-15+0253SBUF V0201201N005112200019N0112651N1+02701+01901999999ADDGA1041+006001999GF104991999999999999999999MA1101591999999REMMET051METAR SBUF 082000Z 12010KT 9999 SCT020 27/19 Q1016;
0120829860999992007070821004-09400-038217FM-15+0253SBUF V0201301N005110060019N0112651N1+02701+01901999999ADDGA1071+006001999GF107991999999999999999999MA1101591999999REMMET051METAR SBUF 082100Z 13010KT 9999 BKN020 27/19 Q1016;
0120829860999992007070822004-09400-038217FM-15+0253SBUF V0201201N004610051019N0112651N1+02601+01901999999ADDGA1071+005101999GF107991999999999999999999MA1101691999999REMMET051METAR SBUF 082200Z 12009KT 9999 BKN017 26/19 Q1017;
0120829860999992007070823004-09400-038217FM-15+0253SBUF V0201301N004612200019N0112651N1+02501+01901999999ADDGA1041+005101999GF104991999999999999999999MA1101801999999REMMET051METAR SBUF 082300Z 13009KT 9999 SCT017 25/19 Q1018;
0254829860999992007070900004-09400-038217SY-MT+0253SBUF V0201801N003112200019N0020001N1+02341+01671101681ADDGA1041+005101999GF199999001001999999001001KA1240M+02911MA1101801098801MD1999999+0051REMSYN082AAXX  09004 82986 32995 01806 10234 20167 39880 40168 333 10291 29065 55049 58005;MET051METAR SBUF 090000Z 14006KT 9999 SCT017 23/19 Q1018;EQDQ01+000002SCOTCV
0120829860999992007070901004-09400-038217FM-15+0253SBUF V0201501N002612200019N0112651N1+02201+01901999999ADDGA1021+005101999GF102991999999999999999999MA1101801999999REMMET051METAR SBUF 090100Z 15005KT 9999 FEW017 22/19 Q1018;
0120829860999992007070902004-09400-038217FM-15+0253SBUF V0201701N002612200019N0112651N1+02101+02001999999ADDGA1021+003601999GF102991999999999999999999MA1101801999999REMMET051METAR SBUF 090200Z 17005KT 9999 FEW012 21/20 Q1018;
0072829860999992007070903004-09400-038217FM-15+0253SBUF V0201701N00211220001CN0099001N1+02101+02001999999ADDMA1101801999999REMMET045METAR SBUF 090300Z 17004KT CAVOK 21/20 Q1018;
0143829860999992007070904004-09400-038217FM-15+0253SBUF V0201701N002612200019N0112651N1+02001+02001999999ADDGA1021+003601999GA2041+024001999GF104991999999999999999999MA1101691999999REMMET058METAR SBUF 090400Z 17005KT 9999 FEW012 SCT080 20/20 Q1017;
0153829860999992007070909004-09400-038217FM-15+0253SBUF V0201701N002110018019N0030001N1+02001+02001999999ADDGA1071+001801999GA2071+003601999GF107991999999999999999999MA1101691999999MW1611REMMET062METAR SBUF 090900Z 17004KT 3000 -RA BKN006 BKN012 20/20 Q1017;
0152829860999992007070910004-09400-038217FM-15+0253SBUF V0201401N001510036019N0050001N1+02101+02101999999ADDGA1041+001801999GA2071+003601999GF107991999999999999999999MA1101801999999MW1101REMMET061METAR SBUF 091000Z 14003KT 5000 BR SCT006 BKN012 21/21 Q1018;
0143829860999992007070911004-09400-038217FM-15+0253SBUF V0201401N002110045019N0112651N1+02301+02101999999ADDGA1021+002401999GA2071+004501999GF107991999999999999999999MA1101801999999REMMET058METAR SBUF 091100Z 14004KT 9999 FEW008 BKN015 23/21 Q1018;
0248829860999992007070912004-09400-038217SY-MT+0253SBUF V0201801N00261004501CN0100001N1+02341+01981101691ADDGA1071+004501999GF199999041041008001011001KA1240N+01821MA1101801098811MD1999999+0001REMSYN076AAXX  09124 82986 32597 61805 10234 20198 39881 40169 84410 333 20182 58000;MET051METAR SBUF 091200Z 15007KT 9999 BKN015 25/21 Q1018;EQDQ01+000062SCOTCV
0120829860999992007070913004-09400-038217FM-15+0253SBUF V0201501N003610045019N0112651N1+02601+02101999999ADDGA1071+004501999GF107991999999999999999999MA1101801999999REMMET051METAR SBUF 091300Z 15007KT 9999 BKN015 26/21 Q1018;
0143829860999992007070914004-09400-038217FM-15+0253SBUF V0201501N003610045019N0112651N1+02701+02101999999ADDGA1071+004501999GA2071+021001999GF107991999999999999999999MA1101691999999REMMET058METAR SBUF 091400Z 15007KT 9999 BKN015 BKN070 27/21 Q1017;
0182829860999992007070918004-09400-038217FM-12+0253SBUF V0201801N003110090019N0040001N1+02611+02061101391ADDAA106000021AY121061AY221061GF108991081081004501999999MA1999999098511MD1999999+0051MW1501REMSYN082AAXX  09184 82986 21496 81806 10261 20206 39851 40139 75022 888// 333 58005 69901;
0185829860999992007070919004-09400-038217FM-15+0253SBUF V0201301N00721003601CN0050001N1+02301+02301999999ADDGA1041+002401999GA2041+003601999GA3081+021001999GF108991999999999999999999MA1101591999999MW1101MW2611REMMET072METAR SBUF 091900Z 13014KT 5000 -RA BR SCT008 SCT012 OVC070 23/23 Q1016;
0176829860999992007070920004-09400-038217FM-15+0253SBUF V0201301N00461003601CN0080001N1+02201+02201999999ADDGA1041+001801999GA2041+003601999GA3081+021001999GF108991999999999999999999MA1101591999999MW1511REMMET069METAR SBUF 092000Z 13009KT 8000 -DZ SCT006 SCT012 OVC070 22/22 Q1016;
0176829860999992007070921004-09400-038217FM-15+0253SBUF V0201201N00311003601CN0090001N1+02201+02201999999ADDGA1021+001801999GA2041+003601999GA3081+021001999GF108991999999999999999999MA1101691999999MW1611REMMET069METAR SBUF 092100Z 12006KT 9000 -RA FEW006 SCT012 OVC070 22/22 Q1017;
0166829860999992007070922004-09400-038217FM-15+0253SBUF V0201301N00361003601CN0112651N1+02301+02301999999ADDGA1041+001801999GA2041+003601999GA3081+021001999GF108991999999999999999999MA1101691999999REMMET065METAR SBUF 092200Z 13007KT 9999 SCT006 SCT012 OVC070 23/23 Q1017;
0143829860999992007070923004-09400-038217FM-15+0253SBUF V0201201N004110210019N0112651N1+02201+02201999999ADDGA1041+001801999GA2081+021001999GF108991999999999999999999MA1101801999999REMMET058METAR SBUF 092300Z 12008KT 9999 SCT006 OVC070 22/22 Q1018;
0314829860999992007071000004-09400-038217SY-MT+0253SBUF V0200901N00151021001CN0020001N1+02221+02171101651ADDAA106010991AY161061AY261061GA1041+001801999GA2081+021001999GF108991081081002501999999KA1240M+02721MA1101801098761MD1999999-0041MW1621REMSYN100AAXX  10004 82986 21395 80903 10222 20217 39876 40165 76266 888// 333 10272 29088 55009 59004 60111;MET063METAR SBUF 100000Z 13008KT 8000 VCSH SCT006 OVC070 23/23 Q1018;
0143829860999992007071001004-09400-038217FM-15+0253SBUF V0201401N004110210019N0112651N1+02301+02301999999ADDGA1041+001801999GA2071+021001999GF107991999999999999999999MA1101801999999REMMET058METAR SBUF 100100Z 14008KT 9999 SCT006 BKN070 23/23 Q1018;
0143829860999992007071002004-09400-038217FM-15+0253SBUF V0201401N004610210019N0112651N1+02201+02201999999ADDGA1041+001501999GA2071+021001999GF107991999999999999999999MA1101801999999REMMET058METAR SBUF 100200Z 14009KT 9999 SCT005 BKN070 22/22 Q1018;
0143829860999992007071003004-09400-038217FM-15+0253SBUF V0201401N003112200019N0112651N1+02201+02201999999ADDGA1041+001801999GA2041+021001999GF104991999999999999999999MA1101801999999REMMET058METAR SBUF 100300Z 14006KT 9999 SCT006 SCT070 22/22 Q1018;
0143829860999992007071004004-09400-038217FM-15+0253SBUF V0201601N002110018019N0112651N1+02201+02201999999ADDGA1071+001801999GA2071+021001999GF107991999999999999999999MA1101691999999REMMET058METAR SBUF 100400Z 16004KT 9999 BKN006 BKN070 22/22 Q1017;
0120829860999992007071009004-09400-038217FM-15+0253SBUF V0201301N002112200019N0112651N1+02001+02001999999ADDGA1041+004501999GF104991999999999999999999MA1101691999999REMMET051METAR SBUF 100900Z 13004KT 9999 SCT015 20/20 Q1017;
0120829860999992007071010004-09400-038217FM-15+0253SBUF V0201901N001510045019N0112651N1+02101+02101999999ADDGA1071+004501999GF107991999999999999999999MA1101691999999REMMET051METAR SBUF 101000Z 19003KT 9999 BKN015 21/21 Q1017;
0120829860999992007071011004-09400-038217FM-15+0253SBUF V0201501N002610045019N0112651N1+02301+02201999999ADDGA1071+004501999GF107991999999999999999999MA1101801999999REMMET051METAR SBUF 101100Z 15005KT 9999 BKN015 23/22 Q1018;
0293829860999992007071012004-09400-038217SY-MT+0253SBUF V0201801N00311004501CN0100001N1+02241+02141101711ADDAA124011991AY161061AY221061GA1071+004501999GF199999061071004501001001KA1240N+02001MA1101801098811MD1999999+0001MW1031REMSYN088AAXX  10124 82986 21497 61806 10224 20214 39881 40171 70362 86700 333 20200 58000 60124;MET051METAR SBUF 101200Z 14009KT 9999 BKN015 25/22 Q1018;EQDQ01+000062SCOTCV
0120829860999992007071013004-09400-038217FM-15+0253SBUF V0201401N005710048019N0112651N1+02701+02201999999ADDGA1071+004801999GF107991999999999999999999MA1101801999999REMMET051METAR SBUF 101300Z 14011KT 9999 BKN016 27/22 Q1018;
0120829860999992007071014004-09400-038217FM-15+0253SBUF V0201501N004610048019N0112651N1+02701+02101999999ADDGA1071+004801999GF107991999999999999999999MA1101691999999REMMET051METAR SBUF 101400Z 15009KT 9999 BKN016 27/21 Q1017;
0201829860999992007071018004-09400-038217FM-12+0253SBUF V0201401N003110450019N0100001N1+02301+02091101361ADDAA106000091AY151061AY221061GF108991041081004501071999MA1999999098471MD1999999-0041MW1031REMSYN082AAXX  10184 82986 21497 81406 10230 20209 39847 40136 70352 8487/ 333 59004 69901;EQDQ01  00002PRCP06
0166829860999992007071019004-09400-038217FM-15+0253SBUF V0201601N003110045019N0112651N1+02501+02101999999ADDGA1041+003601999GA2071+004501999GA3071+021001999GF107991999999999999999999MA1101491999999REMMET065METAR SBUF 101900Z 16006KT 9999 SCT012 BKN015 BKN070 25/21 Q1015;
0166829860999992007071020004-09400-038217FM-15+0253SBUF V0201601N00411004501CN0112651N1+02401+02101999999ADDGA1021+003001999GA2041+004501999GA3071+021001999GF107991999999999999999999MA1101491999999REMMET065METAR SBUF 102000Z 16008KT 9999 FEW010 SCT015 BKN070 24/21 Q1015;
0143829860999992007071021004-09400-038217FM-15+0253SBUF V0201601N004110210019N0112651N1+02301+02101999999ADDGA1041+004501999GA2071+021001999GF107991999999999999999999MA1101591999999REMMET058METAR SBUF 102100Z 16008KT 9999 SCT015 BKN070 23/21 Q1016;
0143829860999992007071022004-09400-038217FM-15+0253SBUF V0201801N003110036019N0112651N1+02301+02101999999ADDGA1071+003601999GA2071+021001999GF107991999999999999999999MA1101591999999REMMET058METAR SBUF 102200Z 18006KT 9999 BKN012 BKN070 23/21 Q1016;
0313829860999992007071100004-09400-038217SY-MT+0253SBUF V0200901N00361002401CN0020001N1+02131+02041101651ADDAA106000021AY121061AY221061GA1071+002401999GA2071+021001999GF108991081081004501999999KA1240M+02751MA1101801098751MD1999999-0011MW1501REMSYN100AAXX  11004 82986 21495 80907 10213 20204 39875 40165 75022 888// 333 10275 29093 55016 59001 69901;MET062METAR SBUF 110000Z 17008KT 5000 -DZ BKN008 BKN070 22/21 Q1018;
0153829860999992007071101004-09400-038217FM-15+0253SBUF V0201601N003610021019N0045001N1+02101+02101999999ADDGA1071+002101999GA2071+021001999GF107991999999999999999999MA1101801999999MW1511REMMET062METAR SBUF 110100Z 16007KT 4500 -DZ BKN007 BKN070 21/21 Q1018;
0153829860999992007071102004-09400-038217FM-15+0253SBUF V0201901N005710018019N0050001N1+02101+02101999999ADDGA1071+001801999GA2071+021001999GF107991999999999999999999MA1101801999999MW1611REMMET062METAR SBUF 110200Z 19011KT 5000 -RA BKN006 BKN070 21/21 Q1018;
0143829860999992007071103004-09400-038217FM-15+0253SBUF V0201901N003610018019N0112651N1+02101+02101999999ADDGA1071+001801999GA2071+021001999GF107991999999999999999999MA1101691999999REMMET058METAR SBUF 110300Z 19007KT 9999 BKN006 BKN070 21/21 Q1017;
0153829860999992007071104004-09400-038217FM-15+0253SBUF V0201701N004110018019N0060001N1+02101+02101999999ADDGA1071+001801999GA2071+021001999GF107991999999999999999999MA1101691999999MW1511REMMET062METAR SBUF 110400Z 17008KT 6000 -DZ BKN006 BKN070 21/21 Q1017;
0153829860999992007071105004-09400-038217FM-15+0253SBUF V0201901N003610018019N0040001N1+02101+02101999999ADDGA1071+001801999GA2071+021001999GF107991999999999999999999MA1101591999999MW1511REMMET062METAR SBUF 110500Z 19007KT 4000 -DZ BKN006 BKN070 21/21 Q1016;
0175829860999992007071109004-09400-038217FM-15+0253SBUF V0201301N003610036019N0050001N1+02001+02001999999ADDGA1041+002101999GA2071+003601999GA3071+021001999GF107991999999999999999999MA1101691999999MW1101REMMET068METAR SBUF 110900Z 13007KT 5000 BR SCT007 BKN012 BKN070 20/20 Q1017;
0166829860999992007071110004-09400-038217FM-15+0253SBUF V0201301N001510036019N0112651N1+02101+02101999999ADDGA1021+002101999GA2071+003601999GA3071+021001999GF107991999999999999999999MA1101801999999REMMET065METAR SBUF 111000Z 13003KT 9999 FEW007 BKN012 BKN070 21/21 Q1018;
0143829860999992007071111004-09400-038217FM-15+0253SBUF V0201501N002610210019N0112651N1+02201+02201999999ADDGA1041+003601999GA2071+021001999GF107991999999999999999999MA1101901999999REMMET058METAR SBUF 111100Z 15005KT 9999 SCT012 BKN070 22/22 Q1019;
0297829860999992007071112004-09400-038217SY-MT+0253SBUF V0200901N00311021001CN0100001N1+02221+02141101781ADDAA124004191AY161061AY221061GA1041+004501999GA2041+021001999GF106991061071004501001001KA1240N+01931MA1101901098871MD1999999+0061MW1021REMSYN088AAXX  11124 82986 21497 60906 10222 20214 39887 40178 70262 86700 333 20193 58006 60044;MET058METAR SBUF 111200Z 13008KT 9999 SCT015 SCT070 24/22 Q1019;
0143829860999992007071113004-09400-038217FM-15+0253SBUF V0201101N005112200019N0112651N1+02801+02101999999ADDGA1021+004501999GA2041+005101999GF104991999999999999999999MA1101901999999REMMET058METAR SBUF 111300Z 11010KT 9999 FEW015 SCT017 28/21 Q1019;
0120829860999992007071114004-09400-038217FM-15+0253SBUF V0201201N005110054019N0112651N1+02701+02001999999ADDGA1071+005401999GF107991999999999999999999MA1101801999999REMMET051METAR SBUF 111400Z 12010KT 9999 BKN018 27/20 Q1018;
0137829860999992007071118004-09400-038217FM-12+0253SBUF V0200901N003610075019N0200001N1+02621+01591101381ADDGF106991061021008001001001MA1999999098501MD1999999+0031REMSYN070AAXX  11184 82986 32598 60907 10262 20159 39850 40138 86200 333 58003;
0120829860999992007071119004-09400-038217FM-15+0253SBUF V0201001N003112200019N0112651N1+02801+01901999999ADDGA1041+006001999GF104991999999999999999999MA1101491999999REMMET051METAR SBUF 111900Z 10006KT 9999 SCT020 28/19 Q1015;
0120829860999992007071120004-09400-038217FM-15+0253SBUF V0201001N002112200019N0112651N1+02601+01801999999ADDGA1041+006001999GF104991999999999999999999MA1101491999999REMMET051METAR SBUF 112000Z 10004KT 9999 SCT020 26/18 Q1015;
0120829860999992007071121004-09400-038217FM-15+0253SBUF V0201101N002612200019N0112651N1+02501+01901999999ADDGA1041+006001999GF104991999999999999999999MA1101591999999REMMET051METAR SBUF 112100Z 11005KT 9999 SCT020 25/19 Q1016;
0120829860999992007071122004-09400-038217FM-15+0253SBUF V0201501N003112200019N0112651N1+02401+01901999999ADDGA1021+005401999GF102991999999999999999999MA1101591999999REMMET051METAR SBUF 112200Z 15006KT 9999 FEW018 24/19 Q1016;
0120829860999992007071123004-09400-038217FM-15+0253SBUF V0201501N002112200019N0112651N1+02201+01901999999ADDGA1021+005101999GF102991999999999999999999MA1101691999999REMMET051METAR SBUF 112300Z 15004KT 9999 FEW017 22/19 Q1017;
0254829860999992007071200004-09400-038217SY-MT+0253SBUF V0201401N003112200019N0020001N1+02121+01761101661ADDGA1021+004501999GF199999001001999999001001KA1240M+02731MA1101801098751MD1999999+0001REMSYN082AAXX  12004 82986 32995 01406 10212 20176 39875 40166 333 10273 29077 55024 58000;MET051METAR SBUF 120000Z 15005KT 9999 FEW015 21/19 Q1018;EQDQ01+000002SCOTCV
0072829860999992007071201004-09400-038217FM-15+0253SBUF V0201601N00261220001CN0099001N1+02001+01901999999ADDMA1101691999999REMMET045METAR SBUF 120100Z 16005KT CAVOK 20/19 Q1017;
0072829860999992007071202004-09400-038217FM-15+0253SBUF V0201501N00261220001CN0099001N1+02001+02001999999ADDMA1101801999999REMMET045METAR SBUF 120200Z 15005KT CAVOK 20/20 Q1018;
0072829860999992007071203004-09400-038217FM-15+0253SBUF V0201701N00151220001CN0099001N1+02001+02001999999ADDMA1101801999999REMMET045METAR SBUF 120300Z 17003KT CAVOK 20/20 Q1018;
0129829860999992007071209004-09400-038217FM-15+0253SBUF V0201201N002610018019N0045001N1+02001+02001999999ADDGA1081+001801999GF108991999999999999999999MA1101801999999MW1101REMMET054METAR SBUF 120900Z 12005KT 4500 BR OVC006 20/20 Q1018;
0120829860999992007071210004-09400-038217FM-15+0253SBUF V0201401N003110018019N0070001N1+02101+02101999999ADDGA1071+001801999GF107991999999999999999999MA1101901999999REMMET051METAR SBUF 121000Z 14006KT 7000 BKN006 21/21 Q1019;
0120829860999992007071211004-09400-038217FM-15+0253SBUF V0201001N002610036019N0112651N1+02201+02201999999ADDGA1071+003601999GF107991999999999999999999MA1101901999999REMMET051METAR SBUF 121100Z 10005KT 9999 BKN012 22/22 Q1019;
0252829860999992007071212004-09400-038217SY-MT+0253SBUF V0200901N00311005101CN0100001N1+02211+02061101911ADDGA1021+004501999GA2041+005101999GF106991061021008001001001KA1240N+01861MA1102001099001MD1999999+0131REMSYN076AAXX  12124 82986 32597 60906 10221 20206 39900 40191 86200 333 20186 58013;MET058METAR SBUF 121200Z 10007KT 9999 FEW015 SCT017 25/21 Q1020;
0120829860999992007071213004-09400-038217FM-15+0253SBUF V0201101N004612200019N0112651N1+02701+02101999999ADDGA1041+006001999GF104991999999999999999999MA1102001999999REMMET051METAR SBUF 121300Z 11009KT 9999 SCT020 27/21 Q1020;
0120829860999992007071214004-09400-038217FM-15+0253SBUF V0201501N004612200019N0112651N1+02801+02001999999ADDGA1041+006001999GF104991999999999999999999MA1101901999999REMMET051METAR SBUF 121400Z 15009KT 9999 SCT020 28/20 Q1019;
0137829860999992007071218004-09400-038217FM-12+0253SBUF V0200901N003110075019N0200001N1+02851+01631101441ADDGF105991051021008001001001MA1999999098571MD1999999+0071REMSYN070AAXX  12184 82986 32598 50906 10285 20163 39857 40144 85200 333 58007;
0120829860999992007071219004-09400-038217FM-15+0253SBUF V0201101N003112200019N0112651N1+02901+01901999999ADDGA1041+006001999GF104991999999999999999999MA1101591999999REMMET051METAR SBUF 121900Z 11006KT 9999 SCT020 29/19 Q1016;
0120829860999992007071220004-09400-038217FM-15+0253SBUF V0201401N005112200019N0112651N1+02701+01901999999ADDGA1041+005401999GF104991999999999999999999MA1101591999999REMMET051METAR SBUF 122000Z 14010KT 9999 SCT018 27/19 Q1016;
0120829860999992007071221004-09400-038217FM-15+0253SBUF V0201301N003112200019N0112651N1+02601+02001999999ADDGA1041+005401999GF104991999999999999999999MA1101691999999REMMET051METAR SBUF 122100Z 13006KT 9999 SCT018 26/20 Q1017;
0120829860999992007071222004-09400-038217FM-15+0253SBUF V0201201N004112200019N0112651N1+02501+02001999999ADDGA1041+005401999GF104991999999999999999999MA1101691999999REMMET051METAR SBUF 122200Z 12008KT 9999 SCT018 25/20 Q1017;
0120829860999992007071223004-09400-038217FM-15+0253SBUF V0201201N004612200019N0112651N1+02401+02001999999ADDGA1041+005401999GF104991999999999999999999MA1101801999999REMMET051METAR SBUF 122300Z 12009KT 9999 SCT018 24/20 Q1018;
0254829860999992007071300004-09400-038217SY-MT+0253SBUF V0201401N005112200019N0020001N1+02261+01981101771ADDGA1041+005401999GF199999001001999999001001KA1240M+02891MA1101901098871MD1999999+0121REMSYN082AAXX  13004 82986 32995 01410 10226 20198 39887 40177 333 10289 29077 55073 58012;MET051METAR SBUF 130000Z 13008KT 9999 SCT018 23/21 Q1019;EQDQ01+000002SCOTCV
0120829860999992007071301004-09400-038217FM-15+0253SBUF V0201301N003612200019N0112651N1+02201+02101999999ADDGA1041+005401999GF104991999999999999999999MA1101901999999REMMET051METAR SBUF 130100Z 13007KT 9999 SCT018 22/21 Q1019;
0072829860999992007071302004-09400-038217FM-15+0253SBUF V0201401N00311220001CN0099001N1+02101+02101999999ADDMA1101901999999REMMET045METAR SBUF 130200Z 14006KT CAVOK 21/21 Q1019;
0120829860999992007071303004-09400-038217FM-15+0253SBUF V0201501N002112200019N0112651N1+02001+02001999999ADDGA1021+003601999GF102991999999999999999999MA1101901999999REMMET051METAR SBUF 130300Z 15004KT 9999 FEW012 20/20 Q1019;
0120829860999992007071304004-09400-038217FM-15+0253SBUF V0201501N002612200019N0112651N1+02101+02101999999ADDGA1041+003601999GF104991999999999999999999MA1101801999999REMMET051METAR SBUF 130400Z 15005KT 9999 SCT012 21/21 Q1018;
0143829860999992007071309004-09400-038217FM-15+0253SBUF V0201901N002112200019N0112651N1+02101+02101999999ADDGA1041+001801999GA2041+021001999GF104991999999999999999999MA1101801999999REMMET058METAR SBUF 130900Z 19004KT 9999 SCT006 SCT070 21/21 Q1018;
0143829860999992007071310004-09400-038217FM-15+0253SBUF V0202101N002112200019N0112651N1+02201+02201999999ADDGA1021+002401999GA2041+021001999GF104991999999999999999999MA1101901999999REMMET058METAR SBUF 131000Z 21004KT 9999 FEW008 SCT070 22/22 Q1019;
0143829860999992007071311004-09400-038217FM-15+0253SBUF V0201701N003612200019N0112651N1+02301+02201999999ADDGA1041+003001999GA2041+021001999GF104991999999999999999999MA1101901999999REMMET058METAR SBUF 131100Z 17007KT 9999 SCT010 SCT070 23/22 Q1019;
0252829860999992007071312004-09400-038217SY-MT+0253SBUF V0201401N00411021001CN0100001N1+02281+02001101821ADDGA1041+003601999GA2041+021001999GF107991061071004501081999KA1240N+01981MA1102001098441MD1999999-0061REMSYN076AAXX  13124 82986 32497 71408 10228 20200 39844 40182 8678/ 333 20198 59006;MET058METAR SBUF 131200Z 17008KT 9999 SCT012 SCT070 25/21 Q1020;
0143829860999992007071313004-09400-038217FM-15+0253SBUF V0201501N005112200019N0112651N1+02601+02101999999ADDGA1041+003601999GA2041+021001999GF104991999999999999999999MA1102001999999REMMET058METAR SBUF 131300Z 15010KT 9999 SCT012 SCT070 26/21 Q1020;
0143829860999992007071314004-09400-038217FM-15+0253SBUF V0201501N003610045019N0112651N1+02301+02201999999ADDGA1071+004501999GA2071+021001999GF107991999999999999999999MA1101901999999REMMET058METAR SBUF 131400Z 15007KT 9999 BKN015 BKN070 23/22 Q1019;
0201829860999992007071318004-09400-038217FM-12+0253SBUF V0201801N004110060019N0100001N1+02461+02111101531ADDAA106000091AY151061AY221061GF108991081081002501999999MA1999999098641MD1999999+0071MW1151REMSYN082AAXX  13184 82986 21397 81808 10246 20211 39864 40153 71552 888// 333 58007 69911;EQDQ01  00002PRCP06
0166829860999992007071319004-09400-038217FM-15+0253SBUF V0201401N004110048019N0112651N1+02601+02201999999ADDGA1041+003601999GA2071+004801999GA3071+021001999GF107991999999999999999999MA1101591999999REMMET065METAR SBUF 131900Z 14008KT 9999 SCT012 BKN016 BKN070 26/22 Q1016;
0166829860999992007071320004-09400-038217FM-15+0253SBUF V0201101N003110048019N0112651N1+02501+02201999999ADDGA1041+003601999GA2071+004801999GA3071+021001999GF107991999999999999999999MA1101691999999REMMET065METAR SBUF 132000Z 11006KT 9999 SCT012 BKN016 BKN070 25/22 Q1017;
0166829860999992007071321004-09400-038217FM-15+0253SBUF V0201201N004610048019N0112651N1+02301+02201999999ADDGA1041+003601999GA2071+004801999GA3071+021001999GF107991999999999999999999MA1101691999999REMMET065METAR SBUF 132100Z 12009KT 9999 SCT012 BKN016 BKN070 23/22 Q1017;
0143829860999992007071322004-09400-038217FM-15+0253SBUF V0201401N004610210019N0112651N1+02201+02201999999ADDGA1041+003601999GA2071+021001999GF107991999999999999999999MA1101691999999REMMET058METAR SBUF 132200Z 14009KT 9999 SCT012 BKN070 22/22 Q1017;
0143829860999992007071323004-09400-038217FM-15+0253SBUF V0201501N004110210019N0112651N1+02201+02201999999ADDGA1041+003601999GA2071+021001999GF107991999999999999999999MA1101801999999REMMET058METAR SBUF 132300Z 15008KT 9999 SCT012 BKN070 22/22 Q1018;
0232829860999992007071400004-09400-038217FM-12+0253SBUF V0201401N004610150019N0020001N1+02121+02091101761ADDAA106000091AY151061AY221061GF105991051001017501021001KA1240M+02631MA1999999098841MD1999999-0031MW1011REMSYN100AAXX  14004 82986 21795 51409 10212 20209 39884 40176 70152 85020 333 10263 29090 55025 59003 69901;EQDQ01  00002PRCP06
0143829860999992007071401004-09400-038217FM-15+0253SBUF V0201301N004110210019N0112651N1+02201+02201999999ADDGA1041+002401999GA2071+021001999GF107991999999999999999999MA1101901999999REMMET058METAR SBUF 140100Z 13008KT 9999 SCT008 BKN070 22/22 Q1019;
0143829860999992007071402004-09400-038217FM-15+0253SBUF V0201301N003610210019N0112651N1+02201+02201999999ADDGA1041+002101999GA2071+021001999GF107991999999999999999999MA1101801999999REMMET058METAR SBUF 140200Z 13007KT 9999 SCT007 BKN070 22/22 Q1018;
0143829860999992007071403004-09400-038217FM-15+0253SBUF V0201401N002110210019N0112651N1+02201+02201999999ADDGA1041+002101999GA2071+021001999GF107991999999999999999999MA1101801999999REMMET058METAR SBUF 140300Z 14004KT 9999 SCT007 BKN070 22/22 Q1018;
0143829860999992007071404004-09400-038217FM-15+0253SBUF V0201501N002610018019N0112651N1+02201+02201999999ADDGA1071+001801999GA2071+021001999GF107991999999999999999999MA1101801999999REMMET058METAR SBUF 140400Z 15005KT 9999 BKN006 BKN070 22/22 Q1018;
0143829860999992007071405004-09400-038217FM-15+0253SBUF V0201501N002610018019N0112651N1+02201+02201999999ADDGA1071+001801999GA2071+021001999GF107991999999999999999999MA1101691999999REMMET058METAR SBUF 140500Z 15005KT 9999 BKN006 BKN070 22/22 Q1017;
0143829860999992007071409004-09400-038217FM-15+0253SBUF V0201401N003110036019N0112651N1+02101+02101999999ADDGA1041+003001999GA2071+003601999GF107991999999999999999999MA1101801999999REMMET058METAR SBUF 140900Z 14006KT 9999 SCT010 BKN012 21/21 Q1018;
0143829860999992007071410004-09400-038217FM-15+0253SBUF V0201101N002610036019N0112651N1+02201+02201999999ADDGA1041+003001999GA2071+003601999GF107991999999999999999999MA1101801999999REMMET058METAR SBUF 141000Z 11005KT 9999 SCT010 BKN012 22/22 Q1018;
0143829860999992007071411004-09400-038217FM-15+0253SBUF V0201601N003110045019N0112651N1+02301+02201999999ADDGA1021+003001999GA2071+004501999GF107991999999999999999999MA1101901999999REMMET058METAR SBUF 141100Z 16006KT 9999 FEW010 BKN015 23/22 Q1019;
0309829860999992007071412004-09400-038217SY-MT+0253SBUF V0201401N00461004501CN0100001N1+02341+01951101791ADDAA124000091AY151061AY221061GA1071+004501999GF199999061021008001001001KA1240N+02021MA1101901098891MD1999999-0051MW1021REMSYN088AAXX  14124 82986 21597 61409 10234 20195 39889 40179 70252 86200 333 20202 59005 69924;MET051METAR SBUF 141200Z 13009KT 9999 BKN015 26/21 Q1019;EQDQ01+000062SCOTCVQ02  00002PRCP24
0120829860999992007071413004-09400-038217FM-15+0253SBUF V0201201N003110045019N0112651N1+02601+02101999999ADDGA1071+004501999GF107991999999999999999999MA1101901999999REMMET051METAR SBUF 141300Z 12006KT 9999 BKN015 26/21 Q1019;
0120829860999992007071414004-09400-038217FM-15+0253SBUF V0201501N004110045019N0112651N1+02601+02101999999ADDGA1071+004501999GF107991999999999999999999MA1101901999999REMMET051METAR SBUF 141400Z 15008KT 9999 BKN015 26/21 Q1019;
0137829860999992007071418004-09400-038217FM-12+0253SBUF V0200901N003110450019N0200001N1+02701+01861101451ADDGF106991031021008001071001MA1999999098581MD1999999-0061REMSYN070AAXX  14184 82986 32598 60906 10270 20186 39858 40145 83270 333 59006;
0120829860999992007071419004-09400-038217FM-15+0253SBUF V0201301N004612200019N0112651N1+02801+02001999999ADDGA1041+006001999GF104991999999999999999999MA1101491999999REMMET051METAR SBUF 141900Z 13009KT 9999 SCT020 28/20 Q1015;
0120829860999992007071420004-09400-038217FM-15+0253SBUF V0201201N004612200019N0112651N1+02601+02001999999ADDGA1021+006001999GF102991999999999999999999MA1101491999999REMMET051METAR SBUF 142000Z 12009KT 9999 FEW020 26/20 Q1015;
0120829860999992007071421004-09400-038217FM-15+0253SBUF V0201101N004612200019N0112651N1+02401+02101999999ADDGA1021+006001999GF102991999999999999999999MA1101591999999REMMET051METAR SBUF 142100Z 11009KT 9999 FEW020 24/21 Q1016;
0120829860999992007071422004-09400-038217FM-15+0253SBUF V0201201N003112200019N0112651N1+02401+02101999999ADDGA1041+005401999GF104991999999999999999999MA1101591999999REMMET051METAR SBUF 142200Z 12006KT 9999 SCT018 24/21 Q1016;
0120829860999992007071423004-09400-038217FM-15+0253SBUF V0201301N003112200019N0112651N1+02301+02101999999ADDGA1021+005101999GF102991999999999999999999MA1101691999999REMMET051METAR SBUF 142300Z 13006KT 9999 FEW017 23/21 Q1017;
0213829860999992007071500004-09400-038217SY-MT+0253SBUF V0200901N002112200019N0020001N1+02161+02081101611ADDGF100991001001999999001001KA1240M+02811MA1101691098721MD1999999-0121REMSYN082AAXX  15004 82986 32995 00904 10216 20208 39872 40161 333 10281 29082 55055 59012;MET045METAR SBUF 150000Z 12005KT CAVOK 22/22 Q1017;
0072829860999992007071501004-09400-038217FM-15+0253SBUF V0201301N00261220001CN0099001N1+02201+02101999999ADDMA1101691999999REMMET045METAR SBUF 150100Z 13005KT CAVOK 22/21 Q1017;
0072829860999992007071502004-09400-038217FM-15+0253SBUF V0201301N00151220001CN0099001N1+02101+02101999999ADDMA1101691999999REMMET045METAR SBUF 150200Z 13003KT CAVOK 21/21 Q1017;
0072829860999992007071503004-09400-038217FM-15+0253SBUF V0201601N00101220001CN0099001N1+02101+02101999999ADDMA1101691999999REMMET045METAR SBUF 150300Z 16002KT CAVOK 21/21 Q1017;
0120829860999992007071508154-09400-038217FM-15+0253SBUF V0201901N001012200019N0112651N1+01901+01901999999ADDGA1041+002401999GF104991999999999999999999MA1101691999999REMMET051METAR SBUF 150815Z 19002KT 9999 SCT008 19/19 Q1017;
0120829860999992007071509004-09400-038217FM-15+0253SBUF V0202301N000512200019N0112651N1+02001+02001999999ADDGA1041+003001999GF104991999999999999999999MA1101691999999REMMET051METAR SBUF 150900Z 23001KT 9999 SCT010 20/20 Q1017;
0120829860999992007071510004-09400-038217FM-15+0253SBUF V0201901N001510036019N0112651N1+02001+02001999999ADDGA1071+003601999GF107991999999999999999999MA1101691999999REMMET051METAR SBUF 151000Z 19003KT 9999 BKN012 20/20 Q1017;
0120829860999992007071511004-09400-038217FM-15+0253SBUF V0201601N002110045019N0112651N1+02301+02201999999ADDGA1071+004501999GF107991999999999999999999MA1101801999999REMMET051METAR SBUF 151100Z 16004KT 9999 BKN015 23/22 Q1018;
0229829860999992007071512004-09400-038217SY-MT+0253SBUF V0200901N002610075019N0100001N1+02241+01991101721ADDGA1041+005101999GF105991051021008001001001KA1240N+01861MA1101801098821MD1999999-0071REMSYN076AAXX  15124 82986 32597 50905 10224 20199 39882 40172 85200 333 20186 59007;MET051METAR SBUF 151200Z 14008KT 9999 SCT017 24/21 Q1018;
0143829860999992007071513004-09400-038217FM-15+0253SBUF V0201201N004112200019N0112651N1+02701+02001999999ADDGA1021+004501999GA2041+005401999GF104991999999999999999999MA1101801999999REMMET058METAR SBUF 151300Z 12008KT 9999 FEW015 SCT018 27/20 Q1018;
0120829860999992007071514004-09400-038217FM-15+0253SBUF V0201501N002610060019N0112651N1+02801+02001999999ADDGA1071+006001999GF107991999999999999999999MA1101691999999REMMET051METAR SBUF 151400Z 15005KT 9999 BKN020 28/20 Q1017;
0137829860999992007071518004-09400-038217FM-12+0253SBUF V0201401N003612200019N0200001N1+02961+01351101261ADDGF102991021011008001001001MA1999999098401MD1999999-0181REMSYN070AAXX  15184 82986 32598 21407 10296 20135 39840 40126 82100 333 59018;
0120829860999992007071519004-09400-038217FM-15+0253SBUF V0201701N003612200019N0112651N1+03001+01801999999ADDGA1041+007501999GF104991999999999999999999MA1101391999999REMMET051METAR SBUF 151900Z 17007KT 9999 SCT025 30/18 Q1014;
0120829860999992007071520004-09400-038217FM-15+0253SBUF V0201701N003612200019N0112651N1+02901+01801999999ADDGA1021+006001999GF102991999999999999999999MA1101391999999REMMET051METAR SBUF 152000Z 17007KT 9999 FEW020 29/18 Q1014;
0072829860999992007071521004-09400-038217FM-15+0253SBUF V0201601N00311220001CN0099001N1+02701+01901999999ADDMA1101391999999REMMET045METAR SBUF 152100Z 16006KT CAVOK 27/19 Q1014;
0072829860999992007071522004-09400-038217FM-15+0253SBUF V0201601N00211220001CN0099001N1+02501+02001999999ADDMA1101491999999REMMET045METAR SBUF 152200Z 16004KT CAVOK 25/20 Q1015;
0072829860999992007071523004-09400-038217FM-15+0253SBUF V0201301N00261220001CN0099001N1+02401+01901999999ADDMA1101591999999REMMET045METAR SBUF 152300Z 13005KT CAVOK 24/19 Q1016;
0213829860999992007071600004-09400-038217SY-MT+0253SBUF V0200901N003112200019N0020001N1+02261+01981101541ADDGF100991001001999999001001KA1240M+02991MA1101691098651MD1999999-0071REMSYN082AAXX  16004 82986 32995 00906 10226 20198 39865 40154 333 10299 29073 55089 59007;MET045METAR SBUF 160000Z 13008KT CAVOK 23/21 Q1017;
0072829860999992007071601004-09400-038217FM-15+0253SBUF V0201301N00361220001CN0099001N1+02201+02101999999ADDMA1101691999999REMMET045METAR SBUF 160100Z 13007KT CAVOK 22/21 Q1017;
0072829860999992007071602004-09400-038217FM-15+0253SBUF V0201501N00261220001CN0099001N1+02101+02101999999ADDMA1101691999999REMMET045METAR SBUF 160200Z 15005KT CAVOK 21/21 Q1017;
0072829860999992007071603004-09400-038217FM-15+0253SBUF V0201901N00101220001CN0099001N1+02101+02101999999ADDMA1101691999999REMMET045METAR SBUF 160300Z 19002KT CAVOK 21/21 Q1017;
0143829860999992007071609004-09400-038217FM-15+0253SBUF V0201401N002610024019N0112651N1+02101+02101999999ADDGA1071+002401999GA2071+021001999GF107991999999999999999999MA1101591999999REMMET058METAR SBUF 160900Z 14005KT 9999 BKN008 BKN070 21/21 Q1016;
0143829860999992007071610004-09400-038217FM-15+0253SBUF V0201501N002610030019N0112651N1+02201+02201999999ADDGA1071+003001999GA2071+021001999GF107991999999999999999999MA1101691999999REMMET058METAR SBUF 161000Z 15005KT 9999 BKN010 BKN070 22/22 Q1017;
0143829860999992007071611004-09400-038217FM-15+0253SBUF V0201301N003610036019N0112651N1+02301+02201999999ADDGA1071+003601999GA2071+021001999GF107991999999999999999999MA1101691999999REMMET058METAR SBUF 161100Z 13007KT 9999 BKN012 BKN070 23/22 Q1017;
0271829860999992007071612004-09400-038217SY-MT+0253SBUF V0201401N00211004501CN0100001N1+02341+02071101631ADDGA1041+003601999GA2071+004501999GF199999061041008001001001KA1240N+02041MA1101801098741MD1999999-0081REMSYN076AAXX  16124 82986 32597 61404 10234 20207 39874 40163 86400 333 20204 59008;MET058METAR SBUF 161200Z 11008KT 9999 SCT012 BKN015 25/21 Q1018;EQDQ01+000062SCOTCV
0143829860999992007071613004-09400-038217FM-15+0253SBUF V0201101N004612200019N0112651N1+02801+02001999999ADDGA1021+003601999GA2041+005401999GF104991999999999999999999MA1101691999999REMMET058METAR SBUF 161300Z 11009KT 9999 FEW012 SCT018 28/20 Q1017;
0120829860999992007071614004-09400-038217FM-15+0253SBUF V0201201N005112200019N0112651N1+02901+02001999999ADDGA1041+006001999GF104991999999999999999999MA1101691999999REMMET051METAR SBUF 161400Z 12010KT 9999 SCT020 29/20 Q1017;
0137829860999992007071618004-09400-038217FM-12+0253SBUF V0201401N003112200019N0200001N1+02971+01341101171ADDGF104991041011008001001001MA1999999098321MD1999999-0081REMSYN070AAXX  16184 82986 32598 41406 10297 20134 39832 40117 84100 333 59008;
0178829860999992007071700004-09400-038217FM-12+0253SBUF V0200901N005112200019N0020001N1+02401+02031101481ADDGA1001+999999999GF100991001001999999001001KA1240M+02991MA1999999098601MD1999999-0051REMSYN082AAXX  17004 82986 32995 00910 10240 20203 39860 40148 333 10299 29070 55083 59005;
0120829860999992007071703004-09400-038217FM-15+0253SBUF V0201401N003112200019N0112651N1+02301+02301999999ADDGA1041+006001999GF104991999999999999999999MA1101691999999REMMET051METAR SBUF 170300Z 14006KT 9999 SCT020 23/23 Q1017;
0120829860999992007071705004-09400-038217FM-15+0253SBUF V0201701N002110060019N0112651N1+02201+02201999999ADDGA1071+006001999GF107991999999999999999999MA1101591999999REMMET051METAR SBUF 170500Z 17004KT 9999 BKN020 22/22 Q1016;
0120829860999992007071709004-09400-038217FM-15+0253SBUF V0201301N003110036019N0112651N1+02201+02201999999ADDGA1071+003601999GF107991999999999999999999MA1101591999999REMMET051METAR SBUF 170900Z 13006KT 9999 BKN012 22/22 Q1016;
0120829860999992007071710004-09400-038217FM-15+0253SBUF V0201201N002110036019N0112651N1+02201+02201999999ADDGA1071+003601999GF107991999999999999999999MA1101691999999REMMET051METAR SBUF 171000Z 12004KT 9999 BKN012 22/22 Q1017;
0120829860999992007071711004-09400-038217FM-15+0253SBUF V0201501N003612200019N0112651N1+02401+02201999999ADDGA1041+003901999GF104991999999999999999999MA1101801999999REMMET051METAR SBUF 171100Z 15007KT 9999 SCT013 24/22 Q1018;
0229829860999992007071712004-09400-038217SY-MT+0253SBUF V0200901N003612200019N0100001N1+02381+01911101701ADDGA1041+005101999GF104991041011008001001001KA1240N+02101MA1101901098821MD1999999+0081REMSYN076AAXX  17124 82986 32597 40907 10238 20191 39882 40170 84100 333 20210 58008;MET051METAR SBUF 171200Z 12006KT 9999 SCT017 26/21 Q1019;
0120829860999992007071713004-09400-038217FM-15+0253SBUF V0201101N004112200019N0112651N1+02901+02001999999ADDGA1041+005401999GF104991999999999999999999MA1101801999999REMMET051METAR SBUF 171300Z 11008KT 9999 SCT018 29/20 Q1018;
0120829860999992007071714004-09400-038217FM-15+0253SBUF V0201101N004612200019N0112651N1+03101+02001999999ADDGA1041+006001999GF104991999999999999999999MA1101801999999REMMET051METAR SBUF 171400Z 11009KT 9999 SCT020 31/20 Q1018;
0120829860999992007071715004-09400-038217FM-15+0253SBUF V0201001N005712200019N0112651N1+03201+01801999999ADDGA1041+006001999GF104991999999999999999999MA1101801999999REMMET051METAR SBUF 171500Z 10011KT 9999 SCT020 32/18 Q1018;
0120829860999992007071716004-09400-038217FM-15+0253SBUF V0200901N004112200019N0112651N1+03201+01801999999ADDGA1041+007501999GF104991999999999999999999MA1101591999999REMMET051METAR SBUF 171600Z 09008KT 9999 SCT025 32/18 Q1016;
0120829860999992007071717004-09400-038217FM-15+0253SBUF V0201201N004612200019N0112651N1+03201+01901999999ADDGA1041+007501999GF104991999999999999999999MA1101491999999REMMET051METAR SBUF 171700Z 12009KT 9999 SCT025 32/19 Q1015;
0210829860999992007071718004-09400-038217SY-MT+0253SBUF V0200901N003112200019N0200001N1+02971+01291101281ADDGA1041+007501999GF104991041011008001001001MA1101391098431MD1999999+0111REMSYN070AAXX  17184 82986 32598 40906 10297 20129 39843 40128 84100 333 58011;MET051METAR SBUF 171800Z 11011KT 9999 SCT025 32/18 Q1014;
0120829860999992007071719004-09400-038217FM-15+0253SBUF V0201301N005712200019N0112651N1+03201+01801999999ADDGA1041+007501999GF104991999999999999999999MA1101391999999REMMET051METAR SBUF 171900Z 13011KT 9999 SCT025 32/18 Q1014;
0120829860999992007071720004-09400-038217FM-15+0253SBUF V0201101N004112200019N0112651N1+02901+01801999999ADDGA1021+007501999GF102991999999999999999999MA1101391999999REMMET051METAR SBUF 172000Z 11008KT 9999 FEW025 29/18 Q1014;
0072829860999992007071721004-09400-038217FM-15+0253SBUF V0201101N00361220001CN0099001N1+02801+01801999999ADDMA1101491999999REMMET045METAR SBUF 172100Z 11007KT CAVOK 28/18 Q1015;
0072829860999992007071722004-09400-038217FM-15+0253SBUF V0201301N00261220001CN0099001N1+02601+01901999999ADDMA1101491999999REMMET045METAR SBUF 172200Z 13005KT CAVOK 26/19 Q1015;
0072829860999992007071723004-09400-038217FM-15+0253SBUF V0201301N00361220001CN0099001N1+02501+02001999999ADDMA1101591999999REMMET045METAR SBUF 172300Z 13007KT CAVOK 25/20 Q1016;
0213829860999992007071800004-09400-038217SY-MT+0253SBUF V0200901N003112200019N0020001N1+02361+01911101541ADDGF100991001001999999001001KA1240M+03051MA1101691098661MD1999999+0061REMSYN082AAXX  18004 82986 32995 00906 10236 20191 39866 40154 333 10305 29066 55091 58006;MET045METAR SBUF 180000Z 13009KT CAVOK 25/21 Q1017;
0072829860999992007071801004-09400-038217FM-15+0253SBUF V0201201N00361220001CN0099001N1+02301+02101999999ADDMA1101691999999REMMET045METAR SBUF 180100Z 12007KT CAVOK 23/21 Q1017;
0072829860999992007071802004-09400-038217FM-15+0253SBUF V0201301N00361220001CN0099001N1+02301+02101999999ADDMA1101691999999REMMET045METAR SBUF 180200Z 13007KT CAVOK 23/21 Q1017;
0072829860999992007071803004-09400-038217FM-15+0253SBUF V0201401N00211220001CN0099001N1+02101+02101999999ADDMA1101691999999REMMET045METAR SBUF 180300Z 14004KT CAVOK 21/21 Q1017;
0072829860999992007071804004-09400-038217FM-15+0253SBUF V0201401N00261220001CN0099001N1+02101+02101999999ADDMA1101591999999REMMET045METAR SBUF 180400Z 14005KT CAVOK 21/21 Q1016;
0120829860999992007071805004-09400-038217FM-15+0253SBUF V0201501N002612200019N0112651N1+02101+02101999999ADDGA1021+003001999GF102991999999999999999999MA1101491999999REMMET051METAR SBUF 180500Z 15005KT 9999 FEW010 21/21 Q1015;
0143829860999992007071806004-09400-038217FM-15+0253SBUF V0201401N003110036019N0112651N1+02101+02101999999ADDGA1041+002401999GA2071+003601999GF107991999999999999999999MA1101491999999REMMET058METAR SBUF 180600Z 14006KT 9999 SCT008 BKN012 21/21 Q1015;
0143829860999992007071807004-09400-038217FM-15+0253SBUF V0201301N002610036019N0112651N1+02201+02201999999ADDGA1041+002401999GA2071+003601999GF107991999999999999999999MA1101491999999REMMET058METAR SBUF 180700Z 13005KT 9999 SCT008 BKN012 22/22 Q1015;
0143829860999992007071808004-09400-038217FM-15+0253SBUF V0201501N003110036019N0112651N1+02101+02101999999ADDGA1041+002401999GA2071+003601999GF107991999999999999999999MA1101591999999REMMET058METAR SBUF 180800Z 15006KT 9999 SCT008 BKN012 21/21 Q1016;
0143829860999992007071809004-09400-038217FM-15+0253SBUF V0201401N003110210019N0112651N1+02101+02101999999ADDGA1041+002401999GA2071+021001999GF107991999999999999999999MA1101591999999REMMET058METAR SBUF 180900Z 14006KT 9999 SCT008 BKN070 21/21 Q1016;
0143829860999992007071810004-09400-038217FM-15+0253SBUF V0201001N003110210019N0112651N1+02201+02201999999ADDGA1041+002401999GA2071+021001999GF107991999999999999999999MA1101691999999REMMET058METAR SBUF 181000Z 10006KT 9999 SCT008 BKN070 22/22 Q1017;
0229829860999992007071812004-09400-038217SY-MT+0253SBUF V0200901N003110075019N0100001N1+02441+01951101611ADDGA1041+005101999GF106991061021008001001001KA1240N+01911MA1101801098731MD1999999-0091REMSYN076AAXX  18124 82986 32597 60906 10244 20195 39873 40161 86200 333 20191 59009;MET051METAR SBUF 181200Z 11006KT 9999 SCT017 27/21 Q1018;
0120829860999992007071813004-09400-038217FM-15+0253SBUF V0201101N004612200019N0112651N1+02801+02001999999ADDGA1041+005401999GF104991999999999999999999MA1101691999999REMMET051METAR SBUF 181300Z 11009KT 9999 SCT018 28/20 Q1017;
0120829860999992007071814004-09400-038217FM-15+0253SBUF V0201201N005112200019N0112651N1+02901+01901999999ADDGA1041+005401999GF104991999999999999999999MA1101691999999REMMET051METAR SBUF 181400Z 12010KT 9999 SCT018 29/19 Q1017;
0120829860999992007071815004-09400-038217FM-15+0253SBUF V0201301N004112200019N0112651N1+03101+01901999999ADDGA1041+006001999GF104991999999999999999999MA1101591999999REMMET051METAR SBUF 181500Z 13008KT 9999 SCT020 31/19 Q1016;
0120829860999992007071816004-09400-038217FM-15+0253SBUF V0201101N004612200019N0112651N1+03201+01801999999ADDGA1041+006001999GF104991999999999999999999MA1101491999999REMMET051METAR SBUF 181600Z 11009KT 9999 SCT020 32/18 Q1015;
0120829860999992007071817004-09400-038217FM-15+0253SBUF V0201001N003112200019N0112651N1+03201+01801999999ADDGA1021+007501999GF102991999999999999999999MA1101391999999REMMET051METAR SBUF 181700Z 10006KT 9999 FEW025 32/18 Q1014;
0137829860999992007071818004-09400-038217FM-12+0253SBUF V0200901N004612200019N0200001N1+03041+01491101191ADDGF103991031011008001001001MA1999999098341MD1999999-0091REMSYN070AAXX  18184 82986 32598 30909 10304 20149 39834 40119 83100 333 59009;
0120829860999992007071819004-09400-038217FM-15+0253SBUF V0201101N003612200019N0112651N1+03101+01701999999ADDGA1021+007501999GF102991999999999999999999MA1101291999999REMMET051METAR SBUF 181900Z 11007KT 9999 FEW025 31/17 Q1013;
0072829860999992007071822004-09400-038217FM-15+0253SBUF V0201201N00311220001CN0099001N1+02601+01801999999ADDMA1101491999999REMMET045METAR SBUF 182200Z 12006KT CAVOK 26/18 Q1015;
0072829860999992007071823004-09400-038217FM-15+0253SBUF V0201301N00311220001CN0099001N1+02501+02001999999ADDMA1101591999999REMMET045METAR SBUF 182300Z 13006KT CAVOK 25/20 Q1016;
0213829860999992007071900004-09400-038217SY-MT+0253SBUF V0200901N003112200019N0020001N1+02381+02011101471ADDGF100991001001999999001001KA1240M+03061MA1101591098601MD1999999-0061REMSYN082AAXX  19004 82986 32995 00906 10238 20201 39860 40147 333 10306 29068 55089 59006;MET045METAR SBUF 190000Z 12008KT CAVOK 24/22 Q1016;
0072829860999992007071901004-09400-038217FM-15+0253SBUF V0201401N00311220001CN0099001N1+02301+02201999999ADDMA1101591999999REMMET045METAR SBUF 190100Z 14006KT CAVOK 23/22 Q1016;
0072829860999992007071902004-09400-038217FM-15+0253SBUF V0201301N00261220001CN0099001N1+02201+02201999999ADDMA1101691999999REMMET045METAR SBUF 190200Z 13005KT CAVOK 22/22 Q1017;
0072829860999992007071903004-09400-038217FM-15+0253SBUF V0201401N00211220001CN0099001N1+02101+02101999999ADDMA1101591999999REMMET045METAR SBUF 190300Z 14004KT CAVOK 21/21 Q1016;
0072829860999992007071904004-09400-038217FM-15+0253SBUF V0201801N00101220001CN0099001N1+02101+02101999999ADDMA1101591999999REMMET045METAR SBUF 190400Z 18002KT CAVOK 21/21 Q1016;
0120829860999992007071905004-09400-038217FM-15+0253SBUF V0202001N001512200019N0112651N1+02001+02001999999ADDGA1021+006001999GF102991999999999999999999MA1101491999999REMMET051METAR SBUF 190500Z 20003KT 9999 FEW020 20/20 Q1015;
0120829860999992007071906004-09400-038217FM-15+0253SBUF V0201801N001012200019N0112651N1+02001+02001999999ADDGA1021+005101999GF102991999999999999999999MA1101491999999REMMET051METAR SBUF 190600Z 18002KT 9999 FEW017 20/20 Q1015;
0120829860999992007071907004-09400-038217FM-15+0253SBUF V0201301N002610024019N0112651N1+02001+02001999999ADDGA1071+002401999GF107991999999999999999999MA1101491999999REMMET051METAR SBUF 190700Z 13005KT 9999 BKN008 20/20 Q1015;
0152829860999992007071909004-09400-038217FM-15+0253SBUF V0201401N002610018019N0045001N1+02001+02001999999ADDGA1071+001801999GA2071+003001999GF107991999999999999999999MA1101591999999MW1101REMMET061METAR SBUF 190900Z 14005KT 4500 BR BKN006 BKN010 20/20 Q1016;
0152829860999992007071910004-09400-038217FM-15+0253SBUF V0201601N002610018019N0045001N1+02101+02101999999ADDGA1071+001801999GA2071+003001999GF107991999999999999999999MA1101591999999MW1101REMMET061METAR SBUF 191000Z 16005KT 4500 BR BKN006 BKN010 21/21 Q1016;
0143829860999992007071911004-09400-038217FM-15+0253SBUF V0201401N002110030019N0112651N1+02201+02201999999ADDGA1021+001801999GA2071+003001999GF107991999999999999999999MA1101691999999REMMET058METAR SBUF 191100Z 14004KT 9999 FEW006 BKN010 22/22 Q1017;
0229829860999992007071912004-09400-038217SY-MT+0253SBUF V0200901N002112200019N0100001N1+02321+01831101531ADDGA1021+003001999GF102991021071008001001001KA1240N+01951MA1101691098651MD1999999-0081REMSYN076AAXX  19124 82986 32597 20904 10232 20183 39865 40153 82700 333 20195 59008;MET051METAR SBUF 191200Z 14004KT 9999 FEW010 26/20 Q1017;
0120829860999992007071913004-09400-038217FM-15+0253SBUF V0201201N004112200019N0112651N1+02801+01901999999ADDGA1021+004501999GF102991999999999999999999MA1101691999999REMMET051METAR SBUF 191300Z 12008KT 9999 FEW015 28/19 Q1017;
0072829860999992007071914004-09400-038217FM-15+0253SBUF V0201001N00361220001CN0099001N1+02901+01801999999ADDMA1101491999999REMMET045METAR SBUF 191400Z 10007KT CAVOK 29/18 Q1015;
0072829860999992007071915004-09400-038217FM-15+0253SBUF V0201201N00261220001CN0099001N1+03101+01801999999ADDMA1101391999999REMMET045METAR SBUF 191500Z 12005KT CAVOK 31/18 Q1014;
0072829860999992007071916004-09400-038217FM-15+0253SBUF V0201301N00311220001CN0099001N1+03201+01801999999ADDMA1101291999999REMMET045METAR SBUF 191600Z 13006KT CAVOK 32/18 Q1013;
0072829860999992007071917004-09400-038217FM-15+0253SBUF V0201401N00411220001CN0099001N1+03301+01901999999ADDMA1101191999999REMMET045METAR SBUF 191700Z 14008KT CAVOK 33/19 Q1012;
0147829860999992007071918004-09400-038217FM-12+0253SBUF V0200901N003612200019N0200001N1+03121+01002100991ADDGA1001+999999999GF100991001001999999001001MA1999999098551MD1999999-0191REMSYN064AAXX  19184 82986 32998 00907 10312 20100 39855 40099 333 59019;
0072829860999992007071919004-09400-038217FM-15+0253SBUF V0201201N00411220001CN0099001N1+03301+01601999999ADDMA1101191999999REMMET045METAR SBUF 191900Z 12008KT CAVOK 33/16 Q1012;
0072829860999992007071920004-09400-038217FM-15+0253SBUF V0201401N00511220001CN0099001N1+03101+01701999999ADDMA1101191999999REMMET045METAR SBUF 192000Z 14010KT CAVOK 31/17 Q1012;
0072829860999992007071921004-09400-038217FM-15+0253SBUF V0201001N00361220001CN0099001N1+02801+01801999999ADDMA1101291999999REMMET045METAR SBUF 192100Z 10007KT CAVOK 28/18 Q1013;
0072829860999992007071922004-09400-038217FM-15+0253SBUF V0201101N00411220001CN0099001N1+02701+01801999999ADDMA1101291999999REMMET045METAR SBUF 192200Z 11008KT CAVOK 27/18 Q1013;
0072829860999992007071923004-09400-038217FM-15+0253SBUF V0201301N00311220001CN0099001N1+02501+01901999999ADDMA1101391999999REMMET045METAR SBUF 192300Z 13006KT CAVOK 25/19 Q1014;
0213829860999992007072000004-09400-038217SY-MT+0253SBUF V0201401N002112200019N0020001N1+02341+01691101321ADDGF100991001001999999001001KA1240M+03151MA1101491098451MD1999999-0151REMSYN082AAXX  20004 82986 32995 01404 10234 20169 39845 40132 333 10315 29059 55091 59015;MET045METAR SBUF 200000Z 13007KT CAVOK 24/19 Q1015;
0072829860999992007072001004-09400-038217FM-15+0253SBUF V0201301N00411220001CN0099001N1+02301+02101999999ADDMA1101491999999REMMET045METAR SBUF 200100Z 13008KT CAVOK 23/21 Q1015;
0072829860999992007072002004-09400-038217FM-15+0253SBUF V0201301N00311220001CN0099001N1+02201+02201999999ADDMA1101491999999REMMET045METAR SBUF 200200Z 13006KT CAVOK 22/22 Q1015;
0120829860999992007072009004-09400-038217FM-15+0253SBUF V0201401N002112200019N0112651N1+01901+01901999999ADDGA1021+003001999GF102991999999999999999999MA1101691999999REMMET051METAR SBUF 200900Z 14004KT 9999 FEW010 19/19 Q1017;
0120829860999992007072010004-09400-038217FM-15+0253SBUF V0201301N002612200019N0112651N1+02001+02001999999ADDGA1041+003601999GF104991999999999999999999MA1101801999999REMMET051METAR SBUF 201000Z 13005KT 9999 SCT012 20/20 Q1018;
0120829860999992007072011004-09400-038217FM-15+0253SBUF V0201201N002612200019N0112651N1+02301+02001999999ADDGA1041+003601999GF104991999999999999999999MA1101801999999REMMET051METAR SBUF 201100Z 12005KT 9999 SCT012 23/20 Q1018;
0229829860999992007072012004-09400-038217SY-MT+0253SBUF V0201401N004112200019N0100001N1+02341+01811101701ADDGA1041+004501999GF104991041041008001001001KA1240N+01781MA1101801098821MD1999999+0171REMSYN076AAXX  20124 82986 32597 41408 10234 20181 39882 40170 84400 333 20178 58017;MET051METAR SBUF 201200Z 15008KT 9999 SCT015 25/21 Q1018;
0120829860999992007072013004-09400-038217FM-15+0253SBUF V0201201N004112200019N0112651N1+02801+01901999999ADDGA1041+004501999GF104991999999999999999999MA1101801999999REMMET051METAR SBUF 201300Z 12008KT 9999 SCT015 28/19 Q1018;
0120829860999992007072014004-09400-038217FM-15+0253SBUF V0201401N004112200019N0112651N1+03001+01801999999ADDGA1041+006001999GF104991999999999999999999MA1101801999999REMMET051METAR SBUF 201400Z 14008KT 9999 SCT020 30/18 Q1018;
0120829860999992007072015004-09400-038217FM-15+0253SBUF V0201301N005712200019N0112651N1+03001+01801999999ADDGA1041+006001999GF104991999999999999999999MA1101691999999REMMET051METAR SBUF 201500Z 13011KT 9999 SCT020 30/18 Q1017;
0120829860999992007072016004-09400-038217FM-15+0253SBUF V0201301N004110060019N0112651N1+03001+01801999999ADDGA1071+006001999GF107991999999999999999999MA1101591999999REMMET051METAR SBUF 201600Z 13008KT 9999 BKN020 30/18 Q1016;
0120829860999992007072017004-09400-038217FM-15+0253SBUF V0201501N006710060019N0112651N1+02801+02001999999ADDGA1071+006001999GF107991999999999999999999MA1101591999999REMMET051METAR SBUF 201700Z 15013KT 9999 BKN020 28/20 Q1016;
0233829860999992007072018004-09400-038217SY-MT+0253SBUF V0201801N00511021001CN0200001N1+02521+01821101511ADDGA1041+006001999GA2041+021001999GF106991051071004501041001MA1101591098611MD1999999+0461REMSYN070AAXX  20184 82986 32498 61810 10252 20182 39861 40151 85740 333 58046;MET058METAR SBUF 201800Z 16011KT 9999 SCT020 SCT070 26/20 Q1016;
0143829860999992007072019004-09400-038217FM-15+0253SBUF V0201701N004110210019N0112651N1+02601+02001999999ADDGA1041+005101999GA2071+021001999GF107991999999999999999999MA1101591999999REMMET058METAR SBUF 201900Z 17008KT 9999 SCT017 BKN070 26/20 Q1016;
0166829860999992007072020004-09400-038217FM-15+0253SBUF V0201701N00411001801CN0112651N1+02201+02101999999ADDGA1021+001201999GA2041+001801999GA3071+021001999GF107991999999999999999999MA1101691999999REMMET065METAR SBUF 202000Z 17008KT 9999 FEW004 SCT006 BKN070 22/21 Q1017;
0153829860999992007072021004-09400-038217FM-15+0253SBUF V0201401N004610210019N0070001N1+02201+02201999999ADDGA1041+002401999GA2071+021001999GF107991999999999999999999MA1101801999999MW1511REMMET062METAR SBUF 202100Z 14009KT 7000 -DZ SCT008 BKN070 22/22 Q1018;
0143829860999992007072022004-09400-038217FM-15+0253SBUF V0201801N002612200019N0112651N1+02201+02201999999ADDGA1041+002101999GA2041+021001999GF104991999999999999999999MA1101801999999REMMET058METAR SBUF 202200Z 18005KT 9999 SCT007 SCT070 22/22 Q1018;
0120829860999992007072023004-09400-038217FM-15+0253SBUF V0201701N001512200019N0112651N1+02101+02101999999ADDGA1021+002101999GF102991999999999999999999MA1101801999999REMMET051METAR SBUF 202300Z 17003KT 9999 FEW007 21/21 Q1018;
0072829860999992007072101004-09400-038217FM-15+0253SBUF V0201601N00211220001CN0099001N1+02101+02101999999ADDMA1101801999999REMMET045METAR SBUF 210100Z 16004KT CAVOK 21/21 Q1018;
0072829860999992007072102004-09400-038217FM-15+0253SBUF V0201901N00261220001CN0099001N1+02101+02101999999ADDMA1101801999999REMMET045METAR SBUF 210200Z 19005KT CAVOK 21/21 Q1018;
0143829860999992007072109004-09400-038217FM-15+0253SBUF V0202701N001010210019N0112651N1+01901+01901999999ADDGA1041+004501999GA2071+021001999GF107991999999999999999999MA1101801999999REMMET058METAR SBUF 210900Z 27002KT 9999 SCT015 BKN070 19/19 Q1018;
0143829860999992007072110004-09400-038217FM-15+0253SBUF V0201901N002112200019N0112651N1+01901+01801999999ADDGA1041+006001999GA2041+021001999GF104991999999999999999999MA1101901999999REMMET058METAR SBUF 211000Z 19004KT 9999 SCT020 SCT070 19/18 Q1019;
0143829860999992007072111004-09400-038217FM-15+0253SBUF V0201401N001512200019N0112651N1+02101+02001999999ADDGA1041+006001999GA2041+021001999GF104991999999999999999999MA1101901999999REMMET058METAR SBUF 211100Z 14003KT 9999 SCT020 SCT070 21/20 Q1019;
0274829860999992007072112004-09400-038217SY-MT+0253SBUF V0201801N001510090019N0100001N1+02241+01961101821ADDAA124000021AY151061AY221061GA1041+006001999GF106991061081004501001001KA1240N+01761MA1102001098911MD1999999+0091MW1021REMSYN088AAXX  21124 82986 21497 61803 10224 20196 39891 40182 70252 86800 333 20176 58009 69924;MET051METAR SBUF 211200Z 16006KT 9999 SCT020 24/22 Q1020;
0120829860999992007072113004-09400-038217FM-15+0253SBUF V0201301N002110060019N0112651N1+02601+02101999999ADDGA1071+006001999GF107991999999999999999999MA1101901999999REMMET051METAR SBUF 211300Z 13004KT 9999 BKN020 26/21 Q1019;
0120829860999992007072114004-09400-038217FM-15+0253SBUF V0201901N002610060019N0112651N1+02801+02101999999ADDGA1071+006001999GF107991999999999999999999MA1101801999999REMMET051METAR SBUF 211400Z 19005KT 9999 BKN020 28/21 Q1018;
0120829860999992007072116004-09400-038217FM-15+0253SBUF V0201501N003110060019N0112651N1+03101+01101999999ADDGA1071+006001999GF107991999999999999999999MA1101691999999REMMET051METAR SBUF 211600Z 15006KT 9999 BKN020 31/11 Q1017;
0120829860999992007072117004-09400-038217FM-15+0253SBUF V0201201N004110060019N0112651N1+03101+01801999999ADDGA1071+006001999GF107991999999999999999999MA1101491999999REMMET051METAR SBUF 211700Z 12008KT 9999 BKN020 31/18 Q1015;
0210829860999992007072118004-09400-038217SY-MT+0253SBUF V0200901N002110450019N0200001N1+02921+01421101351ADDGA1041+006001999GF105991031021008001031001MA1101491098481MD1999999-0131REMSYN070AAXX  21184 82986 32598 50904 10292 20142 39848 40135 83230 333 59013;MET051METAR SBUF 211800Z 15007KT 9999 SCT020 29/18 Q1015;
0120829860999992007072119004-09400-038217FM-15+0253SBUF V0201201N002612200019N0112651N1+03001+01901999999ADDGA1041+006001999GF104991999999999999999999MA1101491999999REMMET051METAR SBUF 211900Z 12005KT 9999 SCT020 30/19 Q1015;
0120829860999992007072120004-09400-038217FM-15+0253SBUF V0201101N004612200019N0112651N1+02901+01901999999ADDGA1041+006001999GF104991999999999999999999MA1101491999999REMMET051METAR SBUF 212000Z 11009KT 9999 SCT020 29/19 Q1015;
0120829860999992007072121004-09400-038217FM-15+0253SBUF V0200801N002612200019N0112651N1+02701+01901999999ADDGA1041+005401999GF104991999999999999999999MA1101491999999REMMET051METAR SBUF 212100Z 08005KT 9999 SCT018 27/19 Q1015;
0120829860999992007072122004-09400-038217FM-15+0253SBUF V0201101N004612200019N0112651N1+02601+02101999999ADDGA1021+005401999GF102991999999999999999999MA1101591999999REMMET051METAR SBUF 212200Z 11009KT 9999 FEW018 26/21 Q1016;
0120829860999992007072123004-09400-038217FM-15+0253SBUF V0201201N004112200019N0112651N1+02501+02201999999ADDGA1041+005401999GF104991999999999999999999MA1101691999999REMMET051METAR SBUF 212300Z 12008KT 9999 SCT018 25/22 Q1017;
0254829860999992007072200004-09400-038217SY-MT+0253SBUF V0200901N002112200019N0020001N1+02371+01991101591ADDGA1041+005401999GF199999001001999999001001KA1240M+03011MA1101691098701MD1999999-0141REMSYN082AAXX  22004 82986 32995 00904 10237 20199 39870 40159 333 10301 29071 55080 59014;MET051METAR SBUF 220000Z 13010KT 9999 SCT018 25/22 Q1017;EQDQ01+000002SCOTCV
0143829860999992007072201004-09400-038217FM-15+0253SBUF V0201301N004610051019N0112651N1+02401+02301999999ADDGA1021+004501999GA2071+005101999GF107991999999999999999999MA1101691999999REMMET058METAR SBUF 220100Z 13009KT 9999 FEW015 BKN017 24/23 Q1017;
0143829860999992007072202004-09400-038217FM-15+0253SBUF V0201301N004110051019N0112651N1+02401+02301999999ADDGA1021+004501999GA2071+005101999GF107991999999999999999999MA1101691999999REMMET058METAR SBUF 220200Z 13008KT 9999 FEW015 BKN017 24/23 Q1017;
0143829860999992007072209004-09400-038217FM-15+0253SBUF V0201501N003112200019N0112651N1+02201+02201999999ADDGA1041+002101999GA2041+021001999GF104991999999999999999999MA1101591999999REMMET058METAR SBUF 220900Z 15006KT 9999 SCT007 SCT070 22/22 Q1016;
0143829860999992007072210004-09400-038217FM-15+0253SBUF V0201801N004112200019N0112651N1+02201+02201999999ADDGA1041+002101999GA2041+021001999GF104991999999999999999999MA1101591999999REMMET058METAR SBUF 221000Z 18008KT 9999 SCT007 SCT070 22/22 Q1016;
0143829860999992007072211004-09400-038217FM-15+0253SBUF V0202101N003110021019N0112651N1+02201+02201999999ADDGA1071+002101999GA2071+021001999GF107991999999999999999999MA1101691999999REMMET058METAR SBUF 221100Z 21006KT 9999 BKN007 BKN070 22/22 Q1017;
0301829860999992007072212004-09400-038217SY-MT+0253SBUF V0201801N003110021019N0020001N1+02201+02131101641ADDAA124000391AY151061AY221061GA1071+002101999GA2071+021001999GF108991081071002501999999KA1240N+02081MA1101801098751MD1999999-0161MW1511REMSYN088AAXX  22124 82986 21395 81806 10220 20213 39875 40164 75152 887// 333 20208 59016 69934;MET062METAR SBUF 221200Z 17007KT 7000 -RA BKN007 BKN070 23/23 Q1018;
0153829860999992007072213004-09400-038217FM-15+0253SBUF V0201301N006710021019N0060001N1+02401+02301999999ADDGA1071+002101999GA2071+021001999GF107991999999999999999999MA1101801999999MW1611REMMET062METAR SBUF 221300Z 13013KT 6000 -RA BKN007 BKN070 24/23 Q1018;
0143829860999992007072214004-09400-038217FM-15+0253SBUF V0202101N002612200019N0112651N1+02601+02101999999ADDGA1041+003001999GA2041+021001999GF104991999999999999999999MA1101691999999REMMET058METAR SBUF 221400Z 21005KT 9999 SCT010 SCT070 26/21 Q1017;
0143829860999992007072215004-09400-038217FM-15+0253SBUF V0201701N004110210019N0112651N1+02301+02301999999ADDGA1041+003601999GA2071+021001999GF107991999999999999999999MA1101691999999REMMET058METAR SBUF 221500Z 17008KT 9999 SCT012 BKN070 23/23 Q1017;
0143829860999992007072216004-09400-038217FM-15+0253SBUF V0201301N004610210019N0112651N1+02701+02101999999ADDGA1041+004501999GA2071+021001999GF107991999999999999999999MA1101591999999REMMET058METAR SBUF 221600Z 13009KT 9999 SCT015 BKN070 27/21 Q1016;
0143829860999992007072217004-09400-038217FM-15+0253SBUF V0201801N004110210019N0112651N1+02901+02001999999ADDGA1041+005101999GA2071+021001999GF107991999999999999999999MA1101491999999REMMET058METAR SBUF 221700Z 18008KT 9999 SCT017 BKN070 29/20 Q1015;
0278829860999992007072218004-09400-038217SY-MT+0253SBUF V0201801N00151021001CN0040001N1+02471+01971101311ADDAA106000891AY161061AY251061GA1021+004501999GA2071+021001999GF108991041071004501071999MA1101391098431MD1999999-0051MW1031REMSYN082AAXX  22184 82986 21496 81803 10247 20197 39843 40131 70365 8477/ 333 59005 69981;MET058METAR SBUF 221800Z 16008KT 9999 FEW015 BKN070 25/22 Q1014;
0143829860999992007072219004-09400-038217FM-15+0253SBUF V0201501N004610210019N0112651N1+02701+02001999999ADDGA1021+005101999GA2071+021001999GF107991999999999999999999MA1101391999999REMMET058METAR SBUF 221900Z 15009KT 9999 FEW017 BKN070 27/20 Q1014;
0143829860999992007072220004-09400-038217FM-15+0253SBUF V0201401N003610210019N0112651N1+02601+01901999999ADDGA1021+005101999GA2071+021001999GF107991999999999999999999MA1101391999999REMMET058METAR SBUF 222000Z 14007KT 9999 FEW017 BKN070 26/19 Q1014;
0143829860999992007072221004-09400-038217FM-15+0253SBUF V0201401N003610210019N0112651N1+02601+02001999999ADDGA1021+005101999GA2071+021001999GF107991999999999999999999MA1101491999999REMMET058METAR SBUF 222100Z 14007KT 9999 FEW017 BKN070 26/20 Q1015;
0166829860999992007072222004-09400-038217FM-15+0253SBUF V0201001N00261005401CN0112651N1+02501+02101999999ADDGA1021+004801999GA2041+005401999GA3071+021001999GF107991999999999999999999MA1101491999999REMMET065METAR SBUF 222200Z 10005KT 9999 FEW016 SCT018 BKN070 25/21 Q1015;
0166829860999992007072223004-09400-038217FM-15+0253SBUF V0201001N00311005401CN0112651N1+02301+02201999999ADDGA1021+004801999GA2041+005401999GA3071+021001999GF107991999999999999999999MA1101591999999REMMET065METAR SBUF 222300Z 10006KT 9999 FEW016 SCT018 BKN070 23/22 Q1016;
0283829860999992007072300004-09400-038217SY-MT+0253SBUF V0200901N001512200019N0020001N1+02151+02001101531ADDGA1041+005401999GA2071+021001999GF199999041001012501051001KA1240M+02641MA1101591098631MD1999999-0071REMSYN088AAXX  23004 82986 32695 40903 10215 20200 39863 40153 84050 333 10264 29088 55000 59007;MET058METAR SBUF 230000Z 12007KT 9999 SCT018 BKN070 22/22 Q1016;EQDQ01+000042SCOTCV
0166829860999992007072301004-09400-038217FM-15+0253SBUF V0201201N00411005401CN0112651N1+02201+02201999999ADDGA1041+003601999GA2041+005401999GA3071+021001999GF107991999999999999999999MA1101691999999REMMET065METAR SBUF 230100Z 12008KT 9999 SCT012 SCT018 BKN070 22/22 Q1017;
0166829860999992007072302004-09400-038217FM-15+0253SBUF V0201301N00261005401CN0112651N1+02201+02201999999ADDGA1041+003601999GA2041+005401999GA3071+021001999GF107991999999999999999999MA1101691999999REMMET065METAR SBUF 230200Z 13005KT 9999 SCT012 SCT018 BKN070 22/22 Q1017;
0166829860999992007072303004-09400-038217FM-15+0253SBUF V0201301N00261005401CN0112651N1+02101+02101999999ADDGA1041+003601999GA2041+005401999GA3071+021001999GF107991999999999999999999MA1101691999999REMMET065METAR SBUF 230300Z 13005KT 9999 SCT012 SCT018 BKN070 21/21 Q1017;
0143829860999992007072309004-09400-038217FM-15+0253SBUF V0201901N000510270019N0112651N1+02001+02001999999ADDGA1021+003901999GA2071+027001999GF107991999999999999999999MA1101591999999REMMET058METAR SBUF 230900Z 19001KT 9999 FEW013 BKN090 20/20 Q1016;
0143829860999992007072310004-09400-038217FM-15+0253SBUF V0201501N002112200019N0112651N1+02101+02101999999ADDGA1021+003901999GA2041+027001999GF104991999999999999999999MA1101591999999REMMET058METAR SBUF 231000Z 15004KT 9999 FEW013 SCT090 21/21 Q1016;
0143829860999992007072311004-09400-038217FM-15+0253SBUF V0201501N002612200019N0112651N1+02301+02201999999ADDGA1021+004501999GA2041+027001999GF104991999999999999999999MA1101691999999REMMET058METAR SBUF 231100Z 15005KT 9999 FEW015 SCT090 23/22 Q1017;
0269829860999992007072312004-09400-038217SY-MT+0253SBUF V0201401N00411027001CN0100001N1+02381+01911101601ADDAA124000891GA1021+005101999GA2041+027001999GF106991061071008001001001KA1240N+01961MA1101801098711MD1999999-0041REMSYN082AAXX  23124 82986 22597 61408 10238 20191 39871 40160 86700 333 20196 59004 69984;MET058METAR SBUF 231200Z 16003KT 9999 FEW017 SCT090 25/21 Q1018;
0143829860999992007072313004-09400-038217FM-15+0253SBUF V0201101N003110270019N0112651N1+02601+02101999999ADDGA1021+005401999GA2071+027001999GF107991999999999999999999MA1101691999999REMMET058METAR SBUF 231300Z 11006KT 9999 FEW018 BKN090 26/21 Q1017;
0143829860999992007072314004-09400-038217FM-15+0253SBUF V0201201N004110270019N0112651N1+02801+02001999999ADDGA1021+005401999GA2071+027001999GF107991999999999999999999MA1101691999999REMMET058METAR SBUF 231400Z 12008KT 9999 FEW018 BKN090 28/20 Q1017;
0143829860999992007072315004-09400-038217FM-15+0253SBUF V0201801N003610054019N0112651N1+02701+02001999999ADDGA1071+005401999GA2071+024001999GF107991999999999999999999MA1101591999999REMMET058METAR SBUF 231500Z 18007KT 9999 BKN018 BKN080 27/20 Q1016;
0143829860999992007072316004-09400-038217FM-15+0253SBUF V0200801N003610054019N0112651N1+02701+02001999999ADDGA1071+005401999GA2071+024001999GF107991999999999999999999MA1101491999999REMMET058METAR SBUF 231600Z 08007KT 9999 BKN018 BKN080 27/20 Q1015;
0143829860999992007072317004-09400-038217FM-15+0253SBUF V0201501N003610054019N0112651N1+02901+02001999999ADDGA1071+005401999GA2071+024001999GF107991999999999999999999MA1101391999999REMMET058METAR SBUF 231700Z 15007KT 9999 BKN018 BKN080 29/20 Q1014;
0233829860999992007072318004-09400-038217SY-MT+0253SBUF V0200901N00211024001CN0200001N1+02801+01661101241ADDGA1041+005401999GA2071+024001999GF107991041021004501051999MA1101391098381MD1999999-0051REMSYN070AAXX  23184 82986 32498 70904 10280 20166 39838 40124 8425/ 333 59005;MET058METAR SBUF 231800Z 16007KT 9999 SCT018 BKN080 29/20 Q1014;
0143829860999992007072319004-09400-038217FM-15+0253SBUF V0201501N004110240019N0112651N1+02901+02001999999ADDGA1041+005401999GA2071+024001999GF107991999999999999999999MA1101391999999REMMET058METAR SBUF 231900Z 15008KT 9999 SCT018 BKN080 29/20 Q1014;
0143829860999992007072320004-09400-038217FM-15+0253SBUF V0201401N003610240019N0112651N1+02801+01901999999ADDGA1021+005401999GA2071+024001999GF107991999999999999999999MA1101391999999REMMET058METAR SBUF 232000Z 14007KT 9999 FEW018 BKN080 28/19 Q1014;
0143829860999992007072321004-09400-038217FM-15+0253SBUF V0201501N002610210019N0112651N1+02701+02001999999ADDGA1021+005101999GA2071+021001999GF107991999999999999999999MA1101391999999REMMET058METAR SBUF 232100Z 15005KT 9999 FEW017 BKN070 27/20 Q1014;
0143829860999992007072322004-09400-038217FM-15+0253SBUF V0201401N003112200019N0112651N1+02601+02001999999ADDGA1021+004501999GA2041+021001999GF104991999999999999999999MA1101491999999REMMET058METAR SBUF 232200Z 14006KT 9999 FEW015 SCT070 26/20 Q1015;
0120829860999992007072323004-09400-038217FM-15+0253SBUF V0201401N002612200019N0112651N1+02401+02001999999ADDGA1021+004501999GF102991999999999999999999MA1101591999999REMMET051METAR SBUF 232300Z 14005KT 9999 FEW015 24/20 Q1016;
0213829860999992007072400004-09400-038217SY-MT+0253SBUF V0200901N002112200019N0020001N1+02301+01901101491ADDGF100991001001999999001001KA1240M+02821MA1101591098611MD1999999-0021REMSYN082AAXX  24004 82986 32995 00904 10230 20190 39861 40149 333 10282 29070 55044 59002;MET045METAR SBUF 240000Z 16008KT CAVOK 23/20 Q1016;
0072829860999992007072401004-09400-038217FM-15+0253SBUF V0202101N00151220001CN0099001N1+02201+02101999999ADDMA1101691999999REMMET045METAR SBUF 240100Z 21003KT CAVOK 22/21 Q1017;
0143829860999992007072409004-09400-038217FM-15+0253SBUF V0202001N001010210019N0112651N1+02101+02101999999ADDGA1021+003601999GA2071+021001999GF107991999999999999999999MA1101691999999REMMET058METAR SBUF 240900Z 20002KT 9999 FEW012 BKN070 21/21 Q1017;
0143829860999992007072410004-09400-038217FM-15+0253SBUF V0201601N001512200019N0112651N1+02101+02101999999ADDGA1021+003601999GA2041+021001999GF104991999999999999999999MA1101801999999REMMET058METAR SBUF 241000Z 16003KT 9999 FEW012 SCT070 21/21 Q1018;
0143829860999992007072411004-09400-038217FM-15+0253SBUF V0201501N002612200019N0112651N1+02301+02201999999ADDGA1021+003901999GA2041+021001999GF104991999999999999999999MA1101801999999REMMET058METAR SBUF 241100Z 15005KT 9999 FEW013 SCT070 23/22 Q1018;
0229829860999992007072412004-09400-038217SY-MT+0253SBUF V0200901N001512200019N0100001N1+02441+01861101711ADDGA1041+005101999GF106991031021008001071001KA1240N+01901MA1101901098831MD1999999+0121REMSYN076AAXX  24124 82986 32597 60903 10244 20186 39883 40171 83270 333 20190 58012;MET051METAR SBUF 241200Z 12006KT 9999 SCT017 25/21 Q1019;
0120829860999992007072413004-09400-038217FM-15+0253SBUF V0201001N002612200019N0112651N1+02601+02101999999ADDGA1041+005101999GF104991999999999999999999MA1101801999999REMMET051METAR SBUF 241300Z 10005KT 9999 SCT017 26/21 Q1018;
0120829860999992007072414004-09400-038217FM-15+0253SBUF V0201001N002112200019N0112651N1+02801+02101999999ADDGA1021+005401999GF102991999999999999999999MA1101691999999REMMET051METAR SBUF 241400Z 10004KT 9999 FEW018 28/21 Q1017;
0120829860999992007072415004-09400-038217FM-15+0253SBUF V0201601N004112200019N0112651N1+02901+02101999999ADDGA1021+006001999GF102991999999999999999999MA1101591999999REMMET051METAR SBUF 241500Z 16008KT 9999 FEW020 29/21 Q1016;
0120829860999992007072416004-09400-038217FM-15+0253SBUF V0200901N003112200019N0112651N1+03201+01801999999ADDGA1021+006001999GF102991999999999999999999MA1101491999999REMMET051METAR SBUF 241600Z 09006KT 9999 FEW020 32/18 Q1015;
0120829860999992007072417004-09400-038217FM-15+0253SBUF V0201201N004112200019N0112651N1+03201+01801999999ADDGA1021+006001999GF102991999999999999999999MA1101391999999REMMET051METAR SBUF 241700Z 12008KT 9999 FEW020 32/18 Q1014;
0210829860999992007072418004-09400-038217SY-MT+0253SBUF V0200901N003112200019N0200001N1+03031+01351101241ADDGA1021+006001999GF104991041011008001001001MA1101391098381MD1999999+0001REMSYN070AAXX  24184 82986 32598 40906 10303 20135 39838 40124 84100 333 58000;MET051METAR SBUF 241800Z 10008KT 9999 FEW020 32/17 Q1014;
0120829860999992007072419004-09400-038217FM-15+0253SBUF V0201001N003112200019N0112651N1+03101+01701999999ADDGA1021+006001999GF102991999999999999999999MA1101391999999REMMET051METAR SBUF 241900Z 10006KT 9999 FEW020 31/17 Q1014;
0120829860999992007072420004-09400-038217FM-15+0253SBUF V0201101N003612200019N0112651N1+03001+01801999999ADDGA1021+006001999GF102991999999999999999999MA1101391999999REMMET051METAR SBUF 242000Z 11007KT 9999 FEW020 30/18 Q1014;
0120829860999992007072421004-09400-038217FM-15+0253SBUF V0201201N004112200019N0112651N1+02701+02001999999ADDGA1021+006001999GF102991999999999999999999MA1101391999999REMMET051METAR SBUF 242100Z 12008KT 9999 FEW020 27/20 Q1014;
0072829860999992007072422004-09400-038217FM-15+0253SBUF V0201201N00571220001CN0099001N1+02601+02201999999ADDMA1101491999999REMMET045METAR SBUF 242200Z 12011KT CAVOK 26/22 Q1015;
0072829860999992007072423004-09400-038217FM-15+0253SBUF V0201301N00571220001CN0099001N1+02501+02201999999ADDMA1101591999999REMMET045METAR SBUF 242300Z 13011KT CAVOK 25/22 Q1016;
0168829860999992007072500004-09400-038217FM-12+0253SBUF V0201801N004112200019N0020001N1+02351+01871101511ADDGF104991041011008001001001KA1240M+03061MA1999999098641MD1999999+0031REMSYN088AAXX  25004 82986 32595 41808 10235 20187 39864 40151 84100 333 10306 29069 55093 58003;
0143829860999992007072501004-09400-038217FM-15+0253SBUF V0201301N004112200019N0112651N1+02401+02301999999ADDGA1041+006001999GA2041+021001999GF104991999999999999999999MA1101691999999REMMET058METAR SBUF 250100Z 13008KT 9999 SCT020 SCT070 24/23 Q1017;
0120829860999992007072502004-09400-038217FM-15+0253SBUF V0201201N005710036019N0112651N1+02401+02301999999ADDGA1071+003601999GF107991999999999999999999MA1101691999999REMMET051METAR SBUF 250200Z 12011KT 9999 BKN012 24/23 Q1017;
0143829860999992007072509004-09400-038217FM-15+0253SBUF V0201701N001510030019N0112651N1+02201+02201999999ADDGA1041+001801999GA2071+003001999GF107991999999999999999999MA1101591999999REMMET058METAR SBUF 250900Z 17003KT 9999 SCT006 BKN010 22/22 Q1016;
0143829860999992007072510004-09400-038217FM-15+0253SBUF V0201501N002110030019N0112651N1+02201+02201999999ADDGA1041+001801999GA2071+003001999GF107991999999999999999999MA1101691999999REMMET058METAR SBUF 251000Z 15004KT 9999 SCT006 BKN010 22/22 Q1017;
0143829860999992007072511004-09400-038217FM-15+0253SBUF V0201201N003110030019N0112651N1+02301+02201999999ADDGA1041+001801999GA2071+003001999GF107991999999999999999999MA1101801999999REMMET058METAR SBUF 251100Z 12006KT 9999 SCT006 BKN010 23/22 Q1018;
0229829860999992007072512004-09400-038217SY-MT+0253SBUF V0201401N002612200019N0100001N1+02421+01911101641ADDGA1041+004501999GF106991061011008001001001KA1240N+02021MA1101801098761MD1999999-0071REMSYN076AAXX  25124 82986 32597 61405 10242 20191 39876 40164 86100 333 20202 59007;MET051METAR SBUF 251200Z 12006KT 9999 SCT015 27/21 Q1018;
0120829860999992007072513004-09400-038217FM-15+0253SBUF V0201301N003612200019N0112651N1+02801+02001999999ADDGA1021+004801999GF102991999999999999999999MA1101801999999REMMET051METAR SBUF 251300Z 13007KT 9999 FEW016 28/20 Q1018;
0120829860999992007072515004-09400-038217FM-15+0253SBUF V0201201N005112200019N0112651N1+03201+01901999999ADDGA1041+006001999GF104991999999999999999999MA1101591999999REMMET051METAR SBUF 251500Z 12010KT 9999 SCT020 32/19 Q1016;
0120829860999992007072517004-09400-038217FM-15+0253SBUF V0201101N005112200019N0112651N1+03301+02001999999ADDGA1041+006001999GF104991999999999999999999MA1101391999999REMMET051METAR SBUF 251700Z 11010KT 9999 SCT020 33/20 Q1014;
0210829860999992007072518004-09400-038217SY-MT+0253SBUF V0200901N005712200019N0200001N1+03061+01341101201ADDGA1041+006001999GF104991041021008001001001MA1101391098351MD1999999-0031REMSYN070AAXX  25184 82986 32598 40911 10306 20134 39835 40120 84200 333 59003;MET051METAR SBUF 251800Z 11009KT 9999 SCT020 33/19 Q1014;
0120829860999992007072519004-09400-038217FM-15+0253SBUF V0201101N004612200019N0112651N1+03201+01901999999ADDGA1041+006001999GF104991999999999999999999MA1101391999999REMMET051METAR SBUF 251900Z 11009KT 9999 SCT020 32/19 Q1014;
0120829860999992007072520004-09400-038217FM-15+0253SBUF V0201201N004612200019N0112651N1+03001+01901999999ADDGA1021+006001999GF102991999999999999999999MA1101391999999REMMET051METAR SBUF 252000Z 12009KT 9999 FEW020 30/19 Q1014;
0120829860999992007072521004-09400-038217FM-15+0253SBUF V0201401N003612200019N0112651N1+02801+02101999999ADDGA1021+005401999GF102991999999999999999999MA1101491999999REMMET051METAR SBUF 252100Z 14007KT 9999 FEW018 28/21 Q1015;
0120829860999992007072522004-09400-038217FM-15+0253SBUF V0201601N004612200019N0112651N1+02601+02201999999ADDGA1021+005101999GF102991999999999999999999MA1101591999999REMMET051METAR SBUF 252200Z 16009KT 9999 FEW017 26/22 Q1016;
0120829860999992007072523004-09400-038217FM-15+0253SBUF V0201401N005712200019N0112651N1+02601+02201999999ADDGA1021+004501999GF102991999999999999999999MA1101691999999REMMET051METAR SBUF 252300Z 14011KT 9999 FEW015 26/22 Q1017;
0120829860999992007072600004-09400-038217FM-15+0253SBUF V0201601N004112200019N0112651N1+02501+02301999999ADDGA1041+003001999GF104991999999999999999999MA1101801999999REMMET051METAR SBUF 260000Z 16008KT 9999 SCT010 25/23 Q1018;
0120829860999992007072601004-09400-038217FM-15+0253SBUF V0201601N003610021019N0112651N1+02501+02301999999ADDGA1071+002101999GF107991999999999999999999MA1101801999999REMMET051METAR SBUF 260100Z 16007KT 9999 BKN007 25/23 Q1018;
0120829860999992007072602004-09400-038217FM-15+0253SBUF V0201601N005110018019N0112651N1+02401+02301999999ADDGA1071+001801999GF107991999999999999999999MA1101801999999REMMET051METAR SBUF 260200Z 16010KT 9999 BKN006 24/23 Q1018;
0120829860999992007072603004-09400-038217FM-15+0253SBUF V0201701N004610018019N0112651N1+02301+02301999999ADDGA1071+001801999GF107991999999999999999999MA1101801999999REMMET051METAR SBUF 260300Z 17009KT 9999 BKN006 23/23 Q1018;
0143829860999992007072609004-09400-038217FM-15+0253SBUF V0201501N002110036019N0112651N1+02201+02201999999ADDGA1071+003601999GA2071+021001999GF107991999999999999999999MA1101801999999REMMET058METAR SBUF 260900Z 15004KT 9999 BKN012 BKN070 22/22 Q1018;
0143829860999992007072610004-09400-038217FM-15+0253SBUF V0201501N002110039019N0112651N1+02301+02301999999ADDGA1071+003901999GA2071+021001999GF107991999999999999999999MA1101901999999REMMET058METAR SBUF 261000Z 15004KT 9999 BKN013 BKN070 23/23 Q1019;
0143829860999992007072611004-09400-038217FM-15+0253SBUF V0201401N002610039019N0112651N1+02301+02301999999ADDGA1071+003901999GA2071+021001999GF107991999999999999999999MA1101901999999REMMET058METAR SBUF 261100Z 14005KT 9999 BKN013 BKN070 23/23 Q1019;
0252829860999992007072612004-09400-038217SY-MT+0253SBUF V0201801N00261003901CN0100001N1+02401+02151101841ADDGA1071+003901999GA2071+021001999GF108991061071004501021001KA1240N+02161MA1102001098961MD1999999+0201REMSYN076AAXX  26124 82986 32497 81805 10240 20215 39896 40184 86720 333 20216 58020;MET058METAR SBUF 261200Z 13004KT 9999 BKN013 BKN070 24/24 Q1020;
0143829860999992007072613004-09400-038217FM-15+0253SBUF V0201201N002112200019N0112651N1+02701+02201999999ADDGA1041+005101999GA2041+021001999GF104991999999999999999999MA1102001999999REMMET058METAR SBUF 261300Z 12004KT 9999 SCT017 SCT070 27/22 Q1020;
0143829860999992007072614004-09400-038217FM-15+0253SBUF V0201001N002110210019N0112651N1+02801+02201999999ADDGA1041+006001999GA2071+021001999GF107991999999999999999999MA1101901999999REMMET058METAR SBUF 261400Z 10004KT 9999 SCT020 BKN070 28/22 Q1019;
0143829860999992007072615004-09400-038217FM-15+0253SBUF V0200901N003610060019N0112651N1+03101+02201999999ADDGA1071+006001999GA2071+021001999GF107991999999999999999999MA1101801999999REMMET058METAR SBUF 261500Z 09007KT 9999 BKN020 BKN070 31/22 Q1018;
0143829860999992007072616004-09400-038217FM-15+0253SBUF V0201301N003612200019N0112651N1+03101+02201999999ADDGA1041+006001999GA2041+021001999GF104991999999999999999999MA1101691999999REMMET058METAR SBUF 261600Z 13007KT 9999 SCT020 SCT070 31/22 Q1017;
0143829860999992007072617004-09400-038217FM-15+0253SBUF V0201701N002112200019N0112651N1+03001+02201999999ADDGA1041+006001999GA2041+021001999GF104991999999999999999999MA1101591999999REMMET058METAR SBUF 261700Z 17004KT 9999 SCT020 SCT070 30/22 Q1016;
0233829860999992007072618004-09400-038217SY-MT+0253SBUF V0201801N00261021001CN0200001N1+03021+01761101331ADDGA1041+006001999GA2041+021001999GF106991061021008001001001MA1101491098481MD1999999+0131REMSYN070AAXX  26184 82986 32598 61805 10302 20176 39848 40133 86200 333 58013;MET058METAR SBUF 261800Z 18010KT 9999 SCT020 SCT070 32/22 Q1015;
0120829860999992007072619004-09400-038217FM-15+0253SBUF V0202101N002612200019N0112651N1+03101+02201999999ADDGA1041+006001999GF104991999999999999999999MA1101491999999REMMET051METAR SBUF 261900Z 21005KT 9999 SCT020 31/22 Q1015;
0120829860999992007072620004-09400-038217FM-15+0253SBUF V0201701N004112200019N0112651N1+03001+02201999999ADDGA1041+006001999GF104991999999999999999999MA1101491999999REMMET051METAR SBUF 262000Z 17008KT 9999 SCT020 30/22 Q1015;
0143829860999992007072621004-09400-038217FM-15+0253SBUF V0201701N003112200019N0112651N1+02701+02301999999ADDGA1021+004501999GA2041+005401999GF104991999999999999999999MA1101591999999REMMET058METAR SBUF 262100Z 17006KT 9999 FEW015 SCT018 27/23 Q1016;
0143829860999992007072622004-09400-038217FM-15+0253SBUF V0201001N004110210019N0112651N1+02501+02401999999ADDGA1041+004501999GA2071+021001999GF107991999999999999999999MA1101691999999REMMET058METAR SBUF 262200Z 10008KT 9999 SCT015 BKN070 25/24 Q1017;
0143829860999992007072623004-09400-038217FM-15+0253SBUF V0201201N005110210019N0112651N1+02401+02401999999ADDGA1041+003901999GA2071+021001999GF107991999999999999999999MA1101691999999REMMET058METAR SBUF 262300Z 12010KT 9999 SCT013 BKN070 24/24 Q1017;
0328829860999992007072700004-09400-038217SY-MT+0253SBUF V0201801N00361021001CN0020001N1+02301+02231101661ADDAA106002091AY161061AY221061GA1021+003601999GA2071+021001999GF199999061001017501021001KA1240M+03091MA1101801098781MD1999999+0021MW1021REMSYN100AAXX  27004 82986 21795 61807 10230 20223 39878 40166 70262 86020 333 10309 29081 55043 58002 60021;MET058METAR SBUF 270000Z 12009KT 9999 FEW012 BKN070 23/23 Q1018;EQDQ01+000062SCOTCV
0143829860999992007072701004-09400-038217FM-15+0253SBUF V0201301N005110210019N0112651N1+02301+02301999999ADDGA1021+003601999GA2071+021001999GF107991999999999999999999MA1101801999999REMMET058METAR SBUF 270100Z 13010KT 9999 FEW012 BKN070 23/23 Q1018;
0153829860999992007072702004-09400-038217FM-15+0253SBUF V0201401N004110210019N0050001N1+02301+02301999999ADDGA1041+003601999GA2071+021001999GF107991999999999999999999MA1101801999999MW1611REMMET062METAR SBUF 270200Z 14008KT 5000 -RA SCT012 BKN070 23/23 Q1018;
0143829860999992007072709004-09400-038217FM-15+0253SBUF V0201701N003610210019N0112651N1+02101+02101999999ADDGA1041+001801999GA2071+021001999GF107991999999999999999999MA1101801999999REMMET058METAR SBUF 270900Z 17007KT 9999 SCT006 BKN070 21/21 Q1018;
0143829860999992007072710004-09400-038217FM-15+0253SBUF V0201801N002610210019N0112651N1+02101+02101999999ADDGA1041+001801999GA2071+021001999GF107991999999999999999999MA1101901999999REMMET058METAR SBUF 271000Z 18005KT 9999 SCT006 BKN070 21/21 Q1019;
0143829860999992007072711004-09400-038217FM-15+0253SBUF V0201601N003610210019N0112651N1+02301+02301999999ADDGA1021+002101999GA2071+021001999GF107991999999999999999999MA1101901999999REMMET058METAR SBUF 271100Z 16007KT 9999 FEW007 BKN070 23/23 Q1019;
0297829860999992007072712004-09400-038217SY-MT+0253SBUF V0201801N00361021001CN0100001N1+02281+02181101811ADDAA124003091AY161061AY221061GA1041+002401999GA2071+021001999GF108991081071004501999999KA1240N+01981MA1102001098921MD1999999-0041MW1521REMSYN088AAXX  27124 82986 21497 81807 10228 20218 39892 40181 75262 887// 333 20198 59004 60034;MET058METAR SBUF 271200Z 14004KT 9999 SCT008 BKN070 24/23 Q1020;
0153829860999992007072713004-09400-038217FM-15+0253SBUF V0201601N005110021019N0050001N1+02601+02201999999ADDGA1071+002101999GA2071+021001999GF107991999999999999999999MA1102001999999MW1611REMMET062METAR SBUF 271300Z 16010KT 5000 -RA BKN007 BKN070 26/22 Q1020;
0153829860999992007072714004-09400-038217FM-15+0253SBUF V0201901N002610021019N0060001N1+02401+02401999999ADDGA1071+002101999GA2071+021001999GF107991999999999999999999MA1101901999999MW1611REMMET062METAR SBUF 271400Z 19005KT 6000 -RA BKN007 BKN070 24/24 Q1019;
0252829860999992007072718004-09400-038217SY-MT+0253SBUF V0200901N00151021001CN0200001N1+02241+02161101461ADDGA1021+003901999GA2071+021001999GF199999041081008001071001MA1101591098561MD1999999+0081REMSYN070AAXX  27184 82986 32598 60903 10224 20216 39856 40146 84870 333 58008;MET058METAR SBUF 271800Z 11007KT 9999 FEW013 BKN070 25/22 Q1016;EQDQ01+000062SCOTCV
0143829860999992007072719004-09400-038217FM-15+0253SBUF V0201101N003610210019N0112651N1+02501+02201999999ADDGA1021+003901999GA2071+021001999GF107991999999999999999999MA1101591999999REMMET058METAR SBUF 271900Z 11007KT 9999 FEW013 BKN070 25/22 Q1016;
0162829860999992007072720004-09400-038217FM-15+0253SBUF V0201601N005710210019N0030001N1+02201+02201999999ADDGA1041+003601999GA2071+021001999GF107991999999999999999999MA1101691999999MW1101MW2611REMMET065METAR SBUF 272000Z 16011KT 3000 -RA BR SCT012 BKN070 22/22 Q1017;
0185829860999992007072721004-09400-038217FM-15+0253SBUF V0202001N001010036019N0015001N1+02101+02101999999ADDGA1041+001501999GA2071+003601999GA3071+021001999GF107991999999999999999999MA1101591999999MW1101MW2611REMMET072METAR SBUF 272100Z 20002KT 1500 -RA BR SCT005 BKN012 BKN070 21/21 Q1016;
0185829860999992007072722004-09400-038217FM-15+0253SBUF V0202601N001010030019N0015001N1+02101+02101999999ADDGA1041+001501999GA2071+003001999GA3071+021001999GF107991999999999999999999MA1101691999999MW1101MW2611REMMET072METAR SBUF 272200Z 26002KT 1500 -RA BR SCT005 BKN010 BKN070 21/21 Q1017;
0185829860999992007072723004-09400-038217FM-15+0253SBUF V0202401N00101003601CN0040001N1+02201+02201999999ADDGA1041+001501999GA2041+003601999GA3071+021001999GF107991999999999999999999MA1101801999999MW1101MW2611REMMET072METAR SBUF 272300Z 24002KT 4000 -RA BR SCT005 SCT012 BKN070 22/22 Q1018;
0356829860999992007072800004-09400-038217SY-MT+0253SBUF V0201801N001512200019N0020001N1+02141+02111101711ADDAA106004191AY161061AY221061GA1041+002401999GA2041+003601999GA3071+021001999GF199999021001008001031001KA1240M+02721MA1101801098801MD1999999+0021MW1011REMSYN100AAXX  28004 82986 21595 21803 10214 20211 39880 40171 70162 82030 333 10272 29096 55006 58002 60041;MET070METAR SBUF 280000Z 16003KT 8000 VCSH SCT008 SCT012 BKN070 22/22 Q1018;EQDQ01+000022SCOTCV
0143829860999992007072801004-09400-038217FM-15+0253SBUF V0201501N002112200019N0112651N1+02101+02101999999ADDGA1021+003601999GA2041+021001999GF104991999999999999999999MA1101801999999REMMET058METAR SBUF 280100Z 15004KT 9999 FEW012 SCT070 21/21 Q1018;
0152829860999992007072802004-09400-038217FM-15+0253SBUF V0201401N001512200019N0040001N1+02101+02101999999ADDGA1021+003601999GA2041+021001999GF104991999999999999999999MA1101801999999MW1101REMMET061METAR SBUF 280200Z 14003KT 4000 BR FEW012 SCT070 21/21 Q1018;
0129829860999992007072803004-09400-038217FM-15+0253SBUF V0201401N001512200019N0050001N1+02101+02101999999ADDGA1021+003601999GF102991999999999999999999MA1101801999999MW1101REMMET054METAR SBUF 280300Z 14003KT 5000 BR FEW012 21/21 Q1018;
0129829860999992007072804004-09400-038217FM-15+0253SBUF V0201801N001510024019N0045001N1+02101+02101999999ADDGA1071+002401999GF107991999999999999999999MA1101801999999MW1101REMMET054METAR SBUF 280400Z 18003KT 4500 BR BKN008 21/21 Q1018;
0120829860999992007072809004-09400-038217FM-15+0253SBUF V0202201N002112200019N0112651N1+01901+01901999999ADDGA1021+002101999GF102991999999999999999999MA1101801999999REMMET051METAR SBUF 280900Z 22004KT 9999 FEW007 19/19 Q1018;
0120829860999992007072810004-09400-038217FM-15+0253SBUF V0201801N002612200019N0112651N1+02001+02001999999ADDGA1021+002401999GF102991999999999999999999MA1101901999999REMMET051METAR SBUF 281000Z 18005KT 9999 FEW008 20/20 Q1019;
0120829860999992007072811004-09400-038217FM-15+0253SBUF V0201601N002112200019N0112651N1+02201+02201999999ADDGA1041+003001999GF104991999999999999999999MA1102001999999REMMET051METAR SBUF 281100Z 16004KT 9999 SCT010 22/22 Q1020;
0246829860999992007072812004-09400-038217SY-MT+0253SBUF V0201401N003110075019N0100001N1+02301+02011101881ADDAA124004191GA1041+004501999GF106991061021008001001001KA1240N+01881MA1102001098971MD1999999+0051REMSYN082AAXX  28124 82986 22597 61406 10230 20201 39897 40188 86200 333 20188 58005 60044;MET051METAR SBUF 281200Z 19008KT 9999 SCT015 25/21 Q1020;
0120829860999992007072813004-09400-038217FM-15+0253SBUF V0201601N005112200019N0112651N1+02701+02001999999ADDGA1041+005101999GF104991999999999999999999MA1102001999999REMMET051METAR SBUF 281300Z 16010KT 9999 SCT017 27/20 Q1020;
0120829860999992007072814004-09400-038217FM-15+0253SBUF V0201901N003612200019N0112651N1+02901+01801999999ADDGA1041+005401999GF104991999999999999999999MA1101901999999REMMET051METAR SBUF 281400Z 19007KT 9999 SCT018 29/18 Q1019;
0120829860999992007072815004-09400-038217FM-15+0253SBUF V0201001N003110054019N0112651N1+02901+01801999999ADDGA1071+005401999GF107991999999999999999999MA1101801999999REMMET051METAR SBUF 281500Z 10006KT 9999 BKN018 29/18 Q1018;
0143829860999992007072816004-09400-038217FM-15+0253SBUF V0201501N004610210019N0112651N1+02801+01901999999ADDGA1041+005401999GA2071+021001999GF107991999999999999999999MA1101691999999REMMET058METAR SBUF 281600Z 15009KT 9999 SCT018 BKN070 28/19 Q1017;
0143829860999992007072817004-09400-038217FM-15+0253SBUF V0201701N004612200019N0112651N1+02901+01901999999ADDGA1021+005401999GA2041+021001999GF104991999999999999999999MA1101591999999REMMET058METAR SBUF 281700Z 17009KT 9999 FEW018 SCT070 29/19 Q1016;
0210829860999992007072818004-09400-038217SY-MT+0253SBUF V0201801N002610075019N0200001N1+02821+01411101401ADDGA1021+005401999GF105991051021008001001001MA1101491098531MD1999999-0031REMSYN070AAXX  28184 82986 32598 51805 10282 20141 39853 40140 85200 333 59003;MET051METAR SBUF 281800Z 15007KT 9999 FEW018 28/19 Q1015;
0120829860999992007072819004-09400-038217FM-15+0253SBUF V0201401N004112200019N0112651N1+02801+01901999999ADDGA1041+005401999GF104991999999999999999999MA1101491999999REMMET051METAR SBUF 281900Z 14008KT 9999 SCT018 28/19 Q1015;
0143829860999992007072820004-09400-038217FM-15+0253SBUF V0201401N006210210019N0112651N1+02601+02001999999ADDGA1021+005101999GA2071+021001999GF107991999999999999999999MA1101591999999REMMET058METAR SBUF 282000Z 14012KT 9999 FEW017 BKN070 26/20 Q1016;
0143829860999992007072821004-09400-038217FM-15+0253SBUF V0201401N003610210019N0112651N1+02501+02001999999ADDGA1021+004501999GA2071+021001999GF107991999999999999999999MA1101691999999REMMET058METAR SBUF 282100Z 14007KT 9999 FEW015 BKN070 25/20 Q1017;
0143829860999992007072822004-09400-038217FM-15+0253SBUF V0201201N005110210019N0112651N1+02301+02301999999ADDGA1041+004501999GA2071+021001999GF107991999999999999999999MA1101691999999REMMET058METAR SBUF 282200Z 12010KT 9999 SCT015 BKN070 23/23 Q1017;
0143829860999992007072823004-09400-038217FM-15+0253SBUF V0201401N005110210019N0112651N1+02301+02201999999ADDGA1041+004501999GA2071+021001999GF107991999999999999999999MA1101801999999REMMET058METAR SBUF 282300Z 14010KT 9999 SCT015 BKN070 23/22 Q1018;
0283829860999992007072900004-09400-038217SY-MT+0253SBUF V0201801N001512200019N0020001N1+02231+01961101701ADDGA1041+004501999GA2071+021001999GF199999031051008001001001KA1240M+02851MA1101801098801MD1999999+0001REMSYN088AAXX  29004 82986 32595 31803 10223 20196 39880 40170 83500 333 10285 29074 55075 58000;MET058METAR SBUF 290000Z 17006KT 9999 SCT015 BKN070 22/22 Q1018;EQDQ01+000032SCOTCV
0143829860999992007072901004-09400-038217FM-15+0253SBUF V0201701N002110210019N0112651N1+02201+02201999999ADDGA1041+004501999GA2071+021001999GF107991999999999999999999MA1101801999999REMMET058METAR SBUF 290100Z 17004KT 9999 SCT015 BKN070 22/22 Q1018;
0143829860999992007072902004-09400-038217FM-15+0253SBUF V0201701N001510210019N0112651N1+02201+02201999999ADDGA1041+004501999GA2071+021001999GF107991999999999999999999MA1101901999999REMMET058METAR SBUF 290200Z 17003KT 9999 SCT015 BKN070 22/22 Q1019;
0143829860999992007072908004-09400-038217FM-15+0253SBUF V0201501N004110210019N0112651N1+02001+02001999999ADDGA1021+003601999GA2071+021001999GF107991999999999999999999MA1101801999999REMMET058METAR SBUF 290800Z 15008KT 9999 FEW012 BKN070 20/20 Q1018;
0152829860999992007072909004-09400-038217FM-15+0253SBUF V0201801N001510210019N0050001N1+02001+02001999999ADDGA1041+003601999GA2071+021001999GF107991999999999999999999MA1101801999999MW1101REMMET061METAR SBUF 290900Z 18003KT 5000 BR SCT012 BKN070 20/20 Q1018;
0152829860999992007072910004-09400-038217FM-15+0253SBUF V0201601N002612200019N0050001N1+02101+02101999999ADDGA1021+003601999GA2041+021001999GF104991999999999999999999MA1101901999999MW1101REMMET061METAR SBUF 291000Z 16005KT 5000 BR FEW012 SCT070 21/21 Q1019;
0152829860999992007072911004-09400-038217FM-15+0253SBUF V0201301N003110210019N0050001N1+02201+02201999999ADDGA1021+003901999GA2071+021001999GF107991999999999999999999MA1101901999999MW1101REMMET061METAR SBUF 291100Z 13006KT 5000 BR FEW013 BKN070 22/22 Q1019;
0316829860999992007072912004-09400-038217SY-MT+0253SBUF V0201401N00311021001CN0100001N1+02281+01941101851ADDAA124000091AY151061AY221061GA1021+005101999GA2041+021001999GF105991041021008001031001KA1240N+01911MA1102001098951MD1999999-0021MW1021REMSYN088AAXX  29124 82986 21597 51406 10228 20194 39895 40185 70252 84230 333 20191 59002 69924;MET058METAR SBUF 291200Z 15009KT 9999 FEW017 SCT070 25/22 Q1020;EQDQ01  00002PRCP24
0120829860999992007072913004-09400-038217FM-15+0253SBUF V0201501N004612200019N0112651N1+02601+02101999999ADDGA1041+005101999GF104991999999999999999999MA1101901999999REMMET051METAR SBUF 291300Z 15009KT 9999 SCT017 26/21 Q1019;
0143829860999992007072914004-09400-038217FM-15+0253SBUF V0201301N006212200019N0112651N1+02901+02001999999ADDGA1021+005401999GA2041+021001999GF104991999999999999999999MA1101901999999REMMET058METAR SBUF 291400Z 13012KT 9999 FEW018 SCT070 29/20 Q1019;
0143829860999992007072915004-09400-038217FM-15+0253SBUF V0201301N005112200019N0112651N1+02901+02001999999ADDGA1041+005401999GA2041+021001999GF104991999999999999999999MA1101801999999REMMET058METAR SBUF 291500Z 13010KT 9999 SCT018 SCT070 29/20 Q1018;
0143829860999992007072916004-09400-038217FM-15+0253SBUF V0201501N005712200019N0112651N1+03001+01901999999ADDGA1041+006001999GA2041+021001999GF104991999999999999999999MA1101691999999REMMET058METAR SBUF 291600Z 15011KT 9999 SCT020 SCT070 30/19 Q1017;
0143829860999992007072917004-09400-038217FM-15+0253SBUF V0201601N004612200019N0112651N1+03001+02001999999ADDGA1041+006001999GA2041+021001999GF104991999999999999999999MA1101591999999REMMET058METAR SBUF 291700Z 16009KT 9999 SCT020 SCT070 30/20 Q1016;
0210829860999992007072918004-09400-038217SY-MT+0253SBUF V0201801N005110075019N0200001N1+02901+01591101341ADDGA1041+006001999GF106991061021008001001001MA1101491098481MD1999999-0051REMSYN070AAXX  29184 82986 32598 61810 10290 20159 39848 40134 86200 333 59005;MET051METAR SBUF 291800Z 15009KT 9999 SCT020 31/19 Q1015;
0120829860999992007072919004-09400-038217FM-15+0253SBUF V0201301N005112200019N0112651N1+02801+01901999999ADDGA1041+006001999GF104991999999999999999999MA1101491999999REMMET051METAR SBUF 291900Z 13010KT 9999 SCT020 28/19 Q1015;
0120829860999992007072920004-09400-038217FM-15+0253SBUF V0201501N006712200019N0112651N1+02601+02001999999ADDGA1021+006001999GF102991999999999999999999MA1101591999999REMMET051METAR SBUF 292000Z 15013KT 9999 FEW020 26/20 Q1016;
0120829860999992007072921004-09400-038217FM-15+0253SBUF V0201501N005112200019N0112651N1+02501+02101999999ADDGA1041+007501999GF104991999999999999999999MA1101591999999REMMET051METAR SBUF 292100Z 15010KT 9999 SCT025 25/21 Q1016;
0143829860999992007072922004-09400-038217FM-15+0253SBUF V0201301N005112200019N0112651N1+02401+02101999999ADDGA1021+007501999GA2041+030001999GF104991999999999999999999MA1101691999999REMMET058METAR SBUF 292200Z 13010KT 9999 FEW025 SCT100 24/21 Q1017;
0072829860999992007072923004-09400-038217FM-15+0253SBUF V0201401N00511220001CN0099001N1+02401+02101999999ADDMA1101801999999REMMET045METAR SBUF 292300Z 14010KT CAVOK 24/21 Q1018;
0219829860999992007073000004-09400-038217SY-MT+0253SBUF V0201401N005119999999Y0020001N1+02301+01811101721ADDGF106991061001008001051001KA1240M+02991MA1101901098831MD1999999+0031REMSYN088AAXX  30004 82986 32595 61410 10230 20181 39883 40172 86050 333 10299 29069 55072 58003;MET045METAR SBUF 300000Z 14010KT CAVOK 23/20 Q1019;
0072829860999992007073001004-09400-038217FM-15+0253SBUF V0201401N00511220001CN0099001N1+02301+02101999999ADDMA1101901999999REMMET045METAR SBUF 300100Z 14010KT CAVOK 23/21 Q1019;
0072829860999992007073002004-09400-038217FM-15+0253SBUF V0201501N00411220001CN0099001N1+02201+02101999999ADDMA1101901999999REMMET045METAR SBUF 300200Z 15008KT CAVOK 22/21 Q1019;
0072829860999992007073003004-09400-038217FM-15+0253SBUF V0201401N00361220001CN0099001N1+02101+02101999999ADDMA1101901999999REMMET045METAR SBUF 300300Z 14007KT CAVOK 21/21 Q1019;
0072829860999992007073006004-09400-038217FM-15+0253SBUF V0201901N00211220001CN0099001N1+01901+01901999999ADDMA1101691999999REMMET045METAR SBUF 300600Z 19004KT CAVOK 19/19 Q1017;
0072829860999992007073007004-09400-038217FM-15+0253SBUF V0201801N00211220001CN0099001N1+01901+01901999999ADDMA1101691999999REMMET045METAR SBUF 300700Z 18004KT CAVOK 19/19 Q1017;
0072829860999992007073008004-09400-038217FM-15+0253SBUF V0202001N00211220001CN0099001N1+01901+01901999999ADDMA1101801999999REMMET045METAR SBUF 300800Z 20004KT CAVOK 19/19 Q1018;
0072829860999992007073009004-09400-038217FM-15+0253SBUF V0202201N00101220001CN0099001N1+01901+01901999999ADDMA1101801999999REMMET045METAR SBUF 300900Z 22002KT CAVOK 19/19 Q1018;
0072829860999992007073010004-09400-038217FM-15+0253SBUF V0201901N00261220001CN0099001N1+02001+02001999999ADDMA1101901999999REMMET045METAR SBUF 301000Z 19005KT CAVOK 20/20 Q1019;
0120829860999992007073011004-09400-038217FM-15+0253SBUF V0201701N003612200019N0112651N1+02201+02201999999ADDGA1021+003001999GF102991999999999999999999MA1101901999999REMMET051METAR SBUF 301100Z 17007KT 9999 FEW010 22/22 Q1019;
0229829860999992007073012004-09400-038217SY-MT+0253SBUF V0201801N003110075019N0100001N1+02321+01851101801ADDGA1041+003601999GF106991061021008001001001KA1240N+01801MA1102001098911MD1999999-0041REMSYN076AAXX  30124 82986 32597 61806 10232 20185 39891 40180 86200 333 20180 59004;MET051METAR SBUF 301200Z 15009KT 9999 SCT012 25/21 Q1020;
0120829860999992007073013004-09400-038217FM-15+0253SBUF V0201401N005712200019N0112651N1+02801+02001999999ADDGA1041+003601999GF104991999999999999999999MA1101901999999REMMET051METAR SBUF 301300Z 14011KT 9999 SCT012 28/20 Q1019;
0120829860999992007073014004-09400-038217FM-15+0253SBUF V0201301N004610045019N0112651N1+02901+02001999999ADDGA1071+004501999GF107991999999999999999999MA1101901999999REMMET051METAR SBUF 301400Z 13009KT 9999 BKN015 29/20 Q1019;
0143829860999992007073015004-09400-038217FM-15+0253SBUF V0201401N005712200019N0112651N1+02901+01901999999ADDGA1041+006001999GA2041+021001999GF104991999999999999999999MA1101801999999REMMET058METAR SBUF 301500Z 14011KT 9999 SCT020 SCT070 29/19 Q1018;
0143829860999992007073016004-09400-038217FM-15+0253SBUF V0201401N006210060019N0112651N1+02801+01901999999ADDGA1071+006001999GA2071+021001999GF107991999999999999999999MA1101691999999REMMET058METAR SBUF 301600Z 14012KT 9999 BKN020 BKN070 28/19 Q1017;
0152829860999992007073017004-09400-038217FM-15+0253SBUF V0201601N007210060019N0060001N1+02301+02301999999ADDGA1071+006001999GA2071+021001999GF107991999999999999999999MA1101691999999MW1631REMMET061METAR SBUF 301700Z 16014KT 6000 RA BKN020 BKN070 23/23 Q1017;
0289829860999992007073018004-09400-038217SY-MT+0253SBUF V0201801N00511003001CN0200001N1+02141+02111101641ADDAA106002091AY161061AY221061GA1071+003001999GA2071+021001999GF108991081071004501999999MA1101691098721MD1999999+0241MW1601REMSYN082AAXX  30184 82986 21498 81810 10214 20211 39872 40164 76062 887// 333 58024 60021;MET069METAR SBUF 301800Z 11008KT 9000 4000SW -RA BKN010 BKN070 22/22 Q1017;
0166829860999992007073019004-09400-038217FM-15+0253SBUF V0201401N00621006001CN0112651N1+02201+02201999999ADDGA1041+003001999GA2041+006001999GA3071+021001999GF107991999999999999999999MA1101801999999REMMET065METAR SBUF 301900Z 14012KT 9999 SCT010 SCT020 BKN070 22/22 Q1018;
0166829860999992007073020004-09400-038217FM-15+0253SBUF V0201601N00571006001CN0112651N1+02101+02101999999ADDGA1021+003001999GA2041+006001999GA3071+021001999GF107991999999999999999999MA1101801999999REMMET065METAR SBUF 302000Z 16011KT 9999 FEW010 SCT020 BKN070 21/21 Q1018;
0143829860999992007073021004-09400-038217FM-15+0253SBUF V0201601N007210210019N0112651N1+02201+02201999999ADDGA1041+004501999GA2071+021001999GF107991999999999999999999MA1101801999999REMMET058METAR SBUF 302100Z 16014KT 9999 SCT015 BKN070 22/22 Q1018;
0143829860999992007073022004-09400-038217FM-15+0253SBUF V0201701N007210030019N0112651N1+02101+02101999999ADDGA1071+003001999GA2071+021001999GF107991999999999999999999MA1101901999999REMMET058METAR SBUF 302200Z 17014KT 9999 BKN010 BKN070 21/21 Q1019;
0143829860999992007073023004-09400-038217FM-15+0253SBUF V0201601N005110024019N0112651N1+02101+02101999999ADDGA1071+002401999GA2071+021001999GF107991999999999999999999MA1101901999999REMMET058METAR SBUF 302300Z 16010KT 9999 BKN008 BKN070 21/21 Q1019;
0309829860999992007073100004-09400-038217SY-MT+0253SBUF V0201801N00361002101CN0020001N1+02021+01811101871ADDAA106003091AY161061AY251061GA1071+002101999GA2071+021001999GF108991081071004501999999KA1240M+02831MA1102001098961MD1999999+0131MW1021REMSYN100AAXX  31004 82986 21495 81807 10202 20181 39896 40187 70265 887// 333 10283 29087 55054 58013 60031;MET058METAR SBUF 310000Z 17007KT 9999 BKN007 BKN070 21/21 Q1020;
0143829860999992007073110004-09400-038217FM-15+0253SBUF V0201501N005110210019N0112651N1+02101+02001999999ADDGA1041+006001999GA2071+021001999GF107991999999999999999999MA1101901999999REMMET058METAR SBUF 311000Z 15010KT 9999 SCT020 BKN070 21/20 Q1019;
0143829860999992007073111004-09400-038217FM-15+0253SBUF V0201801N005710210019N0112651N1+02201+02001999999ADDGA1021+006001999GA2071+021001999GF107991999999999999999999MA1101901999999REMMET058METAR SBUF 311100Z 18011KT 9999 FEW020 BKN070 22/20 Q1019;
0269829860999992007073112004-09400-038217SY-MT+0253SBUF V0201801N00621021001CN0100001N1+02221+01731101851ADDAA124004191GA1041+006001999GA2041+021001999GF108991081081004501999999KA1240N+01921MA1102001098931MD1999999+0021REMSYN082AAXX  31124 82986 22497 81812 10222 20173 39893 40185 888// 333 20192 58002 60044;MET058METAR SBUF 311200Z 17010KT 9999 SCT020 SCT070 21/20 Q1020;
0143829860999992007073113004-09400-038217FM-15+0253SBUF V0201701N005112200019N0112651N1+02401+02101999999ADDGA1041+006001999GA2041+021001999GF104991999999999999999999MA1102001999999REMMET058METAR SBUF 311300Z 17010KT 9999 SCT020 SCT070 24/21 Q1020;
0143829860999992007073114004-09400-038217FM-15+0253SBUF V0201801N005112200019N0112651N1+02501+02101999999ADDGA1041+006001999GA2041+021001999GF104991999999999999999999MA1101901999999REMMET058METAR SBUF 311400Z 18010KT 9999 SCT020 SCT070 25/21 Q1019;
0143829860999992007073115004-09400-038217FM-15+0253SBUF V0201801N005712200019N0112651N1+02601+02101999999ADDGA1041+006001999GA2041+021001999GF104991999999999999999999MA1101801999999REMMET058METAR SBUF 311500Z 18011KT 9999 SCT020 SCT070 26/21 Q1018;
0143829860999992007073116004-09400-038217FM-15+0253SBUF V0201901N007212200019N0112651N1+02701+02201999999ADDGA1041+006001999GA2041+021001999GF104991999999999999999999MA1101691999999REMMET058METAR SBUF 311600Z 19014KT 9999 SCT020 SCT070 27/22 Q1017;
0143829860999992007073117004-09400-038217FM-15+0253SBUF V0201801N006712200019N0112651N1+02801+02201999999ADDGA1041+006001999GA2041+021001999GF104991999999999999999999MA1101591999999REMMET058METAR SBUF 311700Z 18013KT 9999 SCT020 SCT070 28/22 Q1016;
0233829860999992007073118004-09400-038217SY-MT+0253SBUF V0201401N00311021001CN0200001N1+02361+01951101571ADDGA1041+006001999GA2041+021001999GF108991081071004501999999MA1101591098661MD1999999-0061REMSYN070AAXX  31184 82986 32498 81406 10236 20195 39866 40157 887// 333 59006;MET058METAR SBUF 311800Z 17012KT 9999 SCT020 SCT070 27/22 Q1016;
0143829860999992007073119004-09400-038217FM-15+0253SBUF V0201401N006210210019N0112651N1+02601+02001999999ADDGA1041+005401999GA2071+021001999GF107991999999999999999999MA1101591999999REMMET058METAR SBUF 311900Z 14012KT 9999 SCT018 BKN070 26/20 Q1016;
0143829860999992007073120004-09400-038217FM-15+0253SBUF V0201401N005110210019N0112651N1+02501+01901999999ADDGA1021+005101999GA2071+021001999GF107991999999999999999999MA1101691999999REMMET058METAR SBUF 312000Z 14010KT 9999 FEW017 BKN070 25/19 Q1017;
0072829860999992007073121004-09400-038217FM-15+0253SBUF V0201401N00461220001CN0099001N1+02401+01901999999ADDMA1101691999999REMMET045METAR SBUF 312100Z 14009KT CAVOK 24/19 Q1017;
0072829860999992007073122004-09400-038217FM-15+0253SBUF V0201501N00411220001CN0099001N1+02401+01901999999ADDMA1101691999999REMMET045METAR SBUF 312200Z 15008KT CAVOK 24/19 Q1017;
0072829860999992007073123004-09400-038217FM-15+0253SBUF V0201401N00571220001CN0099001N1+02401+02001999999ADDMA1101801999999REMMET045METAR SBUF 312300Z 14011KT CAVOK 24/20 Q1018;
0283829860999992007080100004-09400-038217SY-MT+0253SBUF V0201801N003112200019N0020001N1+02101+01661101731ADDAA106000091AY151061AY221061GF101991011001017501041001KA1240M+02651MA1101901098821MD1999999-0141MW1011REMSYN100AAXX  01004 82986 21795 11806 10210 20166 39882 40173 70152 81040 333 10265 29076 55004 59014 69901;MET045METAR SBUF 010000Z 14009KT CAVOK 21/20 Q1019;EQDQ01  00002PRCP06
0072829860999992007080101004-09400-038217FM-15+0253SBUF V0201401N00461220001CN0099001N1+02101+02001999999ADDMA1101901999999REMMET045METAR SBUF 010100Z 14009KT CAVOK 21/20 Q1019;
0072829860999992007080102004-09400-038217FM-15+0253SBUF V0201601N00211220001CN0099001N1+02001+01901999999ADDMA1101901999999REMMET045METAR SBUF 010200Z 16004KT CAVOK 20/19 Q1019;
0072829860999992007080103004-09400-038217FM-15+0253SBUF V0201601N00261220001CN0099001N1+01901+01901999999ADDMA1101901999999REMMET045METAR SBUF 010300Z 16005KT CAVOK 19/19 Q1019;
0072829860999992007080109004-09400-038217FM-15+0253SBUF V0201901N00211220001CN0099001N1+01801+01801999999ADDMA1101801999999REMMET045METAR SBUF 010900Z 19004KT CAVOK 18/18 Q1018;
0120829860999992007080110004-09400-038217FM-15+0253SBUF V0202001N003612200019N0112651N1+02001+02001999999ADDGA1021+003001999GF102991999999999999999999MA1101901999999REMMET051METAR SBUF 011000Z 20007KT 9999 FEW010 20/20 Q1019;
0120829860999992007080111004-09400-038217FM-15+0253SBUF V0201601N003112200019N0112651N1+02201+02001999999ADDGA1041+003601999GF104991999999999999999999MA1101901999999REMMET051METAR SBUF 011100Z 16006KT 9999 SCT012 22/20 Q1019;
0265829860999992007080112004-09400-038217SY-MT+0253SBUF V0201401N005710075019N0100001N1+02371+01641101831ADDAA124000091GA1041+004501999GF106991061021008001001001KA1240N+01641MA1102001098931MD1999999+0001REMSYN082AAXX  01124 82986 22597 61411 10237 20164 39893 40183 86200 333 20164 58000 69904;MET051METAR SBUF 011200Z 17013KT 9999 SCT015 25/19 Q1020;EQDQ01  00002PRCP24
0120829860999992007080113004-09400-038217FM-15+0253SBUF V0201501N005110051019N0112651N1+02601+02001999999ADDGA1071+005101999GF107991999999999999999999MA1102001999999REMMET051METAR SBUF 011300Z 15010KT 9999 BKN017 26/20 Q1020;
0143829860999992007080114004-09400-038217FM-15+0253SBUF V0201701N005712200019N0112651N1+02701+01901999999ADDGA1041+005401999GA2041+021001999GF104991999999999999999999MA1101901999999REMMET058METAR SBUF 011400Z 17011KT 9999 SCT018 SCT070 27/19 Q1019;
0143829860999992007080115004-09400-038217FM-15+0253SBUF V0201501N006210054019N0112651N1+02701+02001999999ADDGA1071+005401999GA2071+021001999GF107991999999999999999999MA1101801999999REMMET058METAR SBUF 011500Z 15012KT 9999 BKN018 BKN070 27/20 Q1018;
0143829860999992007080116004-09400-038217FM-15+0253SBUF V0201501N004110054019N0112651N1+02801+01901999999ADDGA1071+005401999GA2071+021001999GF107991999999999999999999MA1101691999999REMMET058METAR SBUF 011600Z 15008KT 9999 BKN018 BKN070 28/19 Q1017;
0143829860999992007080117004-09400-038217FM-15+0253SBUF V0201501N004610054019N0112651N1+02701+01901999999ADDGA1071+005401999GA2071+021001999GF107991999999999999999999MA1101691999999REMMET058METAR SBUF 011700Z 15009KT 9999 BKN018 BKN070 27/19 Q1017;
0233829860999992007080118004-09400-038217SY-MT+0253SBUF V0201401N00511005401CN0200001N1+02621+01561101501ADDGA1071+005401999GA2071+021001999GF108991081081004501999999MA1101591098601MD1999999-0061REMSYN070AAXX  01184 82986 32498 81410 10262 20156 39860 40150 888// 333 59006;MET058METAR SBUF 011800Z 17012KT 9999 BKN018 BKN070 26/21 Q1016;
0143829860999992007080119004-09400-038217FM-15+0253SBUF V0201601N005710048019N0112651N1+02701+01901999999ADDGA1071+004801999GA2071+021001999GF107991999999999999999999MA1101591999999REMMET058METAR SBUF 011900Z 16011KT 9999 BKN016 BKN070 27/19 Q1016;
0143829860999992007080120004-09400-038217FM-15+0253SBUF V0201501N006710048019N0112651N1+02601+01901999999ADDGA1071+004801999GA2071+021001999GF107991999999999999999999MA1101591999999REMMET058METAR SBUF 012000Z 15013KT 9999 BKN016 BKN070 26/19 Q1016;
0143829860999992007080121004-09400-038217FM-15+0253SBUF V0201501N006710210019N0112651N1+02501+01901999999ADDGA1041+004801999GA2071+021001999GF107991999999999999999999MA1101691999999REMMET058METAR SBUF 012100Z 15013KT 9999 SCT016 BKN070 25/19 Q1017;
0143829860999992007080122004-09400-038217FM-15+0253SBUF V0201401N005110210019N0112651N1+02401+02001999999ADDGA1021+004501999GA2071+021001999GF107991999999999999999999MA1101691999999REMMET058METAR SBUF 012200Z 14010KT 9999 FEW015 BKN070 24/20 Q1017;
0143829860999992007080123004-09400-038217FM-15+0253SBUF V0201401N003610210019N0112651N1+02301+01901999999ADDGA1021+004501999GA2071+021001999GF107991999999999999999999MA1101801999999REMMET058METAR SBUF 012300Z 14007KT 9999 FEW015 BKN070 23/19 Q1018;
0283829860999992007080200004-09400-038217SY-MT+0253SBUF V0201801N005112200019N0020001N1+02281+01591101791ADDGA1021+004801999GA2071+021001999GF199999031001017501021001KA1240M+02671MA1101901098901MD1999999+0081REMSYN088AAXX  02004 82986 32795 31810 10228 20159 39890 40179 83020 333 10267 29061 55036 58008;MET058METAR SBUF 020000Z 15012KT 9999 FEW016 BKN070 23/20 Q1019;EQDQ01+000032SCOTCV
0143829860999992007080201004-09400-038217FM-15+0253SBUF V0201401N003110210019N0112651N1+02301+02001999999ADDGA1041+004501999GA2071+021001999GF107991999999999999999999MA1101901999999REMMET058METAR SBUF 020100Z 14006KT 9999 SCT015 BKN070 23/20 Q1019;
0143829860999992007080202004-09400-038217FM-15+0253SBUF V0201401N003110210019N0112651N1+02201+02001999999ADDGA1041+004501999GA2071+021001999GF107991999999999999999999MA1101901999999REMMET058METAR SBUF 020200Z 14006KT 9999 SCT015 BKN070 22/20 Q1019;
0143829860999992007080209004-09400-038217FM-15+0253SBUF V0201701N004610210019N0112651N1+01901+01901999999ADDGA1021+003001999GA2071+021001999GF107991999999999999999999MA1101801999999REMMET058METAR SBUF 020900Z 17009KT 9999 FEW010 BKN070 19/19 Q1018;
0143829860999992007080210004-09400-038217FM-15+0253SBUF V0201701N005110210019N0112651N1+02001+02001999999ADDGA1021+003601999GA2071+021001999GF107991999999999999999999MA1101901999999REMMET058METAR SBUF 021000Z 17010KT 9999 FEW012 BKN070 20/20 Q1019;
0143829860999992007080211004-09400-038217FM-15+0253SBUF V0201701N005110210019N0112651N1+02101+01901999999ADDGA1041+003601999GA2071+021001999GF107991999999999999999999MA1101901999999REMMET058METAR SBUF 021100Z 17010KT 9999 SCT012 BKN070 21/19 Q1019;
0297829860999992007080212004-09400-038217SY-MT+0253SBUF V0201401N00311004501CN0020001N1+02101+02101101841ADDAA124000591AY161061AY221061GA1071+004501999GA2071+021001999GF108991081081002501999999KA1240N+01961MA1102001098931MD1999999+0001MW1201REMSYN088AAXX  02124 82986 21395 81406 10210 20210 39893 40184 72062 888// 333 20196 58000 69964;MET058METAR SBUF 021200Z 15015KT 9999 BKN015 BKN070 22/22 Q1020;
0153829860999992007080213004-09400-038217FM-15+0253SBUF V0201401N004110036019N0050001N1+02101+02101999999ADDGA1071+003601999GA2071+021001999GF107991999999999999999999MA1102001999999MW1611REMMET062METAR SBUF 021300Z 14008KT 5000 -RA BKN012 BKN070 21/21 Q1020;
0143829860999992007080214004-09400-038217FM-15+0253SBUF V0201401N004610036019N0112651N1+02101+02101999999ADDGA1071+003601999GA2071+021001999GF107991999999999999999999MA1102001999999REMMET058METAR SBUF 021400Z 14009KT 9999 BKN012 BKN070 21/21 Q1020;
0162829860999992007080215004-09400-038217FM-15+0253SBUF V0201301N006710030019N0020001N1+02001+02001999999ADDGA1071+003001999GA2071+021001999GF107991999999999999999999MA1101901999999MW1101MW2611REMMET065METAR SBUF 021500Z 13013KT 2000 -RA BR BKN010 BKN070 20/20 Q1019;
0153829860999992007080216004-09400-038217FM-15+0253SBUF V0201401N002610030019N0040001N1+02101+02101999999ADDGA1071+003001999GA2071+021001999GF107991999999999999999999MA1101801999999MW1611REMMET062METAR SBUF 021600Z 14005KT 4000 -RA BKN010 BKN070 21/21 Q1018;
0162829860999992007080217004-09400-038217FM-15+0253SBUF V0201201N002610030019N0015001N1+02001+02001999999ADDGA1071+003001999GA2071+021001999GF107991999999999999999999MA1101691999999MW1101MW2611REMMET065METAR SBUF 021700Z 12005KT 1500 -RA BR BKN010 BKN070 20/20 Q1017;
0315829860999992007080218004-09400-038217SY-MT+0253SBUF V0200901N00511003001CN0100001N1+02451+02171101561ADDAA106003091AY161061AY221061GA1041+002401999GA2071+003001999GA3071+021001999GF108991041081004501071999MA1999999098671MD1999999+0071MW1101MW2201REMSYN082AAXX  02184 82986 21497 80910 10245 20217 39867 40156 72062 8487/ 333 58007 60031;MET073METAR SBUF 021800Z 15006KT 3500 -RA BR SCT008 BKN010 BKN070 24/24 Q10 17;
0154829860999992007080219004-09400-038217FM-15+0253SBUF V0201301N004610210019N0080001N1+02401+02301999999ADDGA1041+003001999GA2071+021001999GF107991999999999999999999MA1101691999999MW1161REMMET063METAR SBUF 021900Z 13009KT 8000 VCSH SCT010 BKN070 24/23 Q1017;
0143829860999992007080220004-09400-038217FM-15+0253SBUF V0201401N005710210019N0112651N1+02401+02301999999ADDGA1041+003001999GA2071+021001999GF107991999999999999999999MA1101691999999REMMET058METAR SBUF 022000Z 14011KT 9999 SCT010 BKN070 24/23 Q1017;
0143829860999992007080221004-09400-038217FM-15+0253SBUF V0201301N005110210019N0112651N1+02301+02301999999ADDGA1041+003001999GA2071+021001999GF107991999999999999999999MA1101691999999REMMET058METAR SBUF 022100Z 13010KT 9999 SCT010 BKN070 23/23 Q1017;
0153829860999992007080222004-09400-038217FM-15+0253SBUF V0201401N004610030019N0050001N1+02301+02301999999ADDGA1071+003001999GA2071+021001999GF107991999999999999999999MA1101801999999MW1611REMMET062METAR SBUF 022200Z 14009KT 5000 -RA BKN010 BKN070 23/23 Q1018;
0153829860999992007080223004-09400-038217FM-15+0253SBUF V0201401N004110030019N0050001N1+02201+02201999999ADDGA1071+003001999GA2071+021001999GF107991999999999999999999MA1101901999999MW1611REMMET062METAR SBUF 022300Z 14008KT 5000 -RA BKN010 BKN070 22/22 Q1019;
0309829860999992007080300004-09400-038217SY-MT+0253SBUF V0201801N00311021001CN0020001N1+02131+02121101801ADDAA106000591AY161061AY251061GA1041+003001999GA2071+021001999GF108991081071004501999999KA1240M+02481MA1101901098881MD1999999-0021MW1031REMSYN100AAXX  03004 82986 21495 81806 10213 20212 39888 40180 70365 887// 333 10248 29096 55000 59002 69961;MET058METAR SBUF 030000Z 15008KT 9999 SCT010 BKN070 22/22 Q1019;
0143829860999992007080301004-09400-038217FM-15+0253SBUF V0201501N004110210019N0080001N1+02101+02101999999ADDGA1041+002401999GA2071+021001999GF107991999999999999999999MA1101901999999REMMET058METAR SBUF 030100Z 15008KT 8000 SCT008 BKN070 21/21 Q1019;
0143829860999992007080302004-09400-038217FM-15+0253SBUF V0201301N003610210019N0112651N1+02101+02101999999ADDGA1041+002401999GA2071+021001999GF107991999999999999999999MA1101901999999REMMET058METAR SBUF 030200Z 13007KT 9999 SCT008 BKN070 21/21 Q1019;
0171829860999992007080309004-09400-038217FM-15+0253SBUF V0201501N004110018019N0015001N1+02101+02101999999ADDGA1071+001801999GA2071+003001999GA3071+004801999GF107991999999999999999999MW1101MW2611REMMET073METAR SBUF 030900Z 15008KT 1500 -RA BR BKN006 BKN010 BKN016 21/21 Q10 18;
0171829860999992007080310004-09400-038217FM-15+0253SBUF V0201501N004110018019N0012001N1+02101+02101999999ADDGA1071+001801999GA2071+003001999GA3071+004801999GF107991999999999999999999MW1101MW2611REMMET073METAR SBUF 031000Z 15008KT 1200 -RA BR BKN006 BKN010 BKN016 21/21 Q10 19;
0171829860999992007080311004-09400-038217FM-15+0253SBUF V0201301N005110018019N0010001N1+02201+02201999999ADDGA1071+001801999GA2071+003001999GA3071+004801999GF107991999999999999999999MW1101MW2611REMMET073METAR SBUF 031100Z 13010KT 1000 -RA BR BKN006 BKN010 BKN016 22/22 Q10 19;
0344829860999992007080312004-09400-038217SY-MT+0253SBUF V0201801N00311003601CN0100001N1+02241+02241101881ADDAA124011991AY161061AY221061GA1021+002401999GA2041+003601999GA3071+005401999GF199999061051004501001001KA1240N+02021MA1102001098971MD1999999+0041MW1011REMSYN088AAXX  03124 82986 21497 61806 10224 20224 39897 40188 70162 86500 333 20202 58004 60124;MET070METAR SBUF 031200Z 13012KT 8000 VCSH FEW008 SCT012 BKN018 23/23 Q1020;EQDQ01+000062SCOTCV
0177829860999992007080313004-09400-038217FM-15+0253SBUF V0201101N00511003601CN0080001N1+02501+02401999999ADDGA1021+002401999GA2041+003601999GA3071+005401999GF107991999999999999999999MA1102001999999MW1161REMMET070METAR SBUF 031300Z 11010KT 8000 VCSH FEW008 SCT012 BKN018 25/24 Q1020;
0171829860999992007080314004-09400-038217FM-15+0253SBUF V0201101N004110024019N0015001N1+02501+02501999999ADDGA1071+002401999GA2071+003601999GA3071+005401999GF107991999999999999999999MW1101MW2611REMMET073METAR SBUF 031400Z 11008KT 1500 -RA BR BKN008 BKN012 BKN018 25/25 Q10 19;
0153829860999992007080315004-09400-038217FM-15+0253SBUF V0201401N005110210019N0060001N1+02501+02501999999ADDGA1041+003601999GA2071+021001999GF107991999999999999999999MA1101801999999MW1611REMMET062METAR SBUF 031500Z 14010KT 6000 -RA SCT012 BKN070 25/25 Q1018;
0185829860999992007080316004-09400-038217FM-15+0253SBUF V0201101N00511003601CN0050001N1+02401+02401999999ADDGA1021+002401999GA2041+003601999GA3071+021001999GF107991999999999999999999MA1101801999999MW1101MW2511REMMET072METAR SBUF 031600Z 11010KT 5000 -DZ BR FEW008 SCT012 BKN070 24/24 Q1018;
0185829860999992007080317004-09400-038217FM-15+0253SBUF V0201301N00621003601CN0040001N1+02301+02301999999ADDGA1021+002401999GA2041+003601999GA3071+021001999GF107991999999999999999999MA1101691999999MW1101MW2611REMMET072METAR SBUF 031700Z 13012KT 4000 -RA BR FEW008 SCT012 BKN070 23/23 Q1017;
0304829860999992007080318004-09400-038217SY-MT+0253SBUF V0201801N00311003601CN0100001N1+02251+02211101571ADDAA106003091AY161061AY221061GA1021+002401999GA2041+003601999GA3071+021001999GF108991081071004501999999MA1101691098661MD1999999-0011MW1211REMSYN082AAXX  03184 82986 21497 81806 10225 20221 39866 40157 72162 887// 333 59001 60031;MET068METAR SBUF 031800Z 14011KT 4000 BR FEW008 SCT012 BKN070 23/23 Q1017;
0177829860999992007080319004-09400-038217FM-15+0253SBUF V0201401N00461003601CN0080001N1+02401+02401999999ADDGA1021+002401999GA2041+003601999GA3071+021001999GF107991999999999999999999MA1101691999999MW1161REMMET070METAR SBUF 031900Z 14009KT 8000 VCSH FEW008 SCT012 BKN070 24/24 Q1017;
0175829860999992007080320004-09400-038217FM-15+0253SBUF V0201501N00511003601CN0050001N1+02301+02301999999ADDGA1021+002401999GA2041+003601999GA3071+021001999GF107991999999999999999999MA1101801999999MW1101REMMET068METAR SBUF 032000Z 15010KT 5000 BR FEW008 SCT012 BKN070 23/23 Q1018;
0166829860999992007080322004-09400-038217FM-15+0253SBUF V0201401N00411002401CN0112651N1+02201+02201999999ADDGA1021+001801999GA2041+002401999GA3071+021001999GF107991999999999999999999MA1101801999999REMMET065METAR SBUF 032200Z 14008KT 9999 FEW006 SCT008 BKN070 22/22 Q1018;
0176829860999992007080323004-09400-038217FM-15+0253SBUF V0201201N00411002401CN0112651N1+02201+02201999999ADDGA1041+001801999GA2041+002401999GA3071+021001999GF107991999999999999999999MA1101901999999MW1511REMMET069METAR SBUF 032300Z 12008KT 9999 -DZ SCT006 SCT008 BKN070 22/22 Q1019;
0332829860999992007080400004-09400-038217SY-MT+0253SBUF V0201801N00311002401CN0020001N1+02071+02031101841ADDAA106000391AY161061AY221061GA1041+001801999GA2041+002401999GA3071+021001999GF108991081081002501999999KA1240M+02541MA1102001098931MD1999999+0051MW1201REMSYN100AAXX  04004 82986 21395 81806 10207 20203 39893 40184 72062 888// 333 10254 29098 55000 58005 69931;MET065METAR SBUF 040000Z 15010KT 9999 SCT006 SCT008 BKN070 21/21 Q1020;
0143829860999992007080401004-09400-038217FM-15+0253SBUF V0201501N004610018019N0112651N1+02101+02101999999ADDGA1071+001801999GA2071+021001999GF107991999999999999999999MA1102001999999REMMET058METAR SBUF 040100Z 15009KT 9999 BKN006 BKN070 21/21 Q1020;
0176829860999992007080402004-09400-038217FM-15+0253SBUF V0201501N00361002401CN0060001N1+02101+02101999999ADDGA1041+001801999GA2041+002401999GA3071+021001999GF107991999999999999999999MA1102001999999MW1611REMMET069METAR SBUF 040200Z 15007KT 6000 -RA SCT006 SCT008 BKN070 21/21 Q1020;
0153829860999992007080409004-09400-038217FM-15+0253SBUF V0202001N002610210019N0050001N1+02001+02001999999ADDGA1041+001801999GA2071+021001999GF107991999999999999999999MA1101901999999MW1611REMMET062METAR SBUF 040900Z 20005KT 5000 -RA SCT006 BKN070 20/20 Q1019;
0153829860999992007080410004-09400-038217FM-15+0253SBUF V0202001N002110018019N0040001N1+02101+02101999999ADDGA1071+001801999GA2071+021001999GF107991999999999999999999MA1101901999999MW1611REMMET062METAR SBUF 041000Z 20004KT 4000 -RA BKN006 BKN070 21/21 Q1019;
0153829860999992007080411004-09400-038217FM-15+0253SBUF V0201801N003610018019N0040001N1+02101+02101999999ADDGA1071+001801999GA2071+021001999GF107991999999999999999999MA1102001999999MW1611REMMET062METAR SBUF 041100Z 18007KT 4000 -RA BKN006 BKN070 21/21 Q1020;
0301829860999992007080412004-09400-038217SY-MT+0253SBUF V0201801N00311001801CN0010001N1+02081+02051101921ADDAA124017091AY161061AY261061GA1071+001801999GA2071+021001999GF108991081081002501999999KA1240N+01971MA1102001099001MD1999999+0031MW1611REMSYN088AAXX  04124 82986 21394 81806 10208 20205 39900 40192 76166 888// 333 20197 58003 60174;MET062METAR SBUF 041200Z 19008KT 4000 -DZ BKN006 BKN070 21/21 Q1020;
0153829860999992007080413004-09400-038217FM-15+0253SBUF V0201701N004110021019N0080001N1+02301+02301999999ADDGA1071+002101999GA2071+021001999GF107991999999999999999999MA1102001999999MW1511REMMET062METAR SBUF 041300Z 17008KT 8000 -DZ BKN007 BKN070 23/23 Q1020;
0143829860999992007080414004-09400-038217FM-15+0253SBUF V0201501N005710021019N0112651N1+02401+02401999999ADDGA1071+002101999GA2071+021001999GF107991999999999999999999MA1102001999999REMMET058METAR SBUF 041400Z 15011KT 9999 BKN007 BKN070 24/24 Q1020;
0153829860999992007080415004-09400-038217FM-15+0253SBUF V0201501N004110018019N0080001N1+02301+02301999999ADDGA1071+001801999GA2081+021001999GF108991999999999999999999MA1101901999999MW1511REMMET062METAR SBUF 041500Z 15008KT 8000 -DZ BKN006 OVC070 23/23 Q1019;
0143829860999992007080416004-09400-038217FM-15+0253SBUF V0201201N003110021019N0112651N1+02401+02401999999ADDGA1071+002101999GA2071+021001999GF107991999999999999999999MA1101801999999REMMET058METAR SBUF 041600Z 12006KT 9999 BKN007 BKN070 24/24 Q1018;
0166829860999992007080417004-09400-038217FM-15+0253SBUF V0201401N00461003901CN0112651N1+02401+02401999999ADDGA1021+003001999GA2041+003901999GA3071+021001999GF107991999999999999999999MA1101691999999REMMET065METAR SBUF 041700Z 14009KT 9999 FEW010 SCT013 BKN070 24/24 Q1017;
0278829860999992007080418004-09400-038217SY-MT+0253SBUF V0201401N00311021001CN0040001N1+02331+02251101591ADDAA106005191AY161061AY261061GA1041+005101999GA2041+021001999GF108991061081004501071999MA1101691098681MD1999999+0021MW1201REMSYN082AAXX  04184 82986 21496 81406 10233 20225 39868 40159 72066 8687/ 333 58002 60051;MET058METAR SBUF 041800Z 15008KT 9999 SCT017 SCT070 25/24 Q1017;
0166829860999992007080419004-09400-038217FM-15+0253SBUF V0201401N00461002701CN0112651N1+02301+02301999999ADDGA1021+002101999GA2041+002701999GA3071+021001999GF107991999999999999999999MA1101691999999REMMET065METAR SBUF 041900Z 14009KT 9999 FEW007 SCT009 BKN070 23/23 Q1017;
0143829860999992007080420004-09400-038217FM-15+0253SBUF V0201501N004110039019N0112651N1+02301+02301999999ADDGA1071+003901999GA2071+021001999GF107991999999999999999999MA1101801999999REMMET058METAR SBUF 042000Z 15008KT 9999 BKN013 BKN070 23/23 Q1018;
0143829860999992007080421004-09400-038217FM-15+0253SBUF V0201601N004110036019N0112651N1+02301+02301999999ADDGA1071+003601999GA2071+021001999GF107991999999999999999999MA1101801999999REMMET058METAR SBUF 042100Z 16008KT 9999 BKN012 BKN070 23/23 Q1018;
0143829860999992007080423004-09400-038217FM-15+0253SBUF V0201601N003610036019N0112651N1+02101+02101999999ADDGA1071+003601999GA2071+021001999GF107991999999999999999999MA1101901999999REMMET058METAR SBUF 042300Z 16007KT 9999 BKN012 BKN070 21/21 Q1019;
0309829860999992007080500004-09400-038217SY-MT+0253SBUF V0201801N00311003601CN0020001N1+02091+02051101841ADDAA106000591AY151061AY221061GA1071+003601999GA2071+021001999GF108991051071002501071999KA1240M+02401MA1102001098921MD1999999-0011MW1021REMSYN100AAXX  05004 82986 21395 81806 10209 20205 39892 40184 70252 8577/ 333 10240 29072 55000 59001 69941;MET058METAR SBUF 050000Z 16008KT 9999 BKN012 BKN070 21/21 Q1020;
0143829860999992007080501004-09400-038217FM-15+0253SBUF V0201601N003112200019N0112651N1+02101+02101999999ADDGA1041+003001999GA2041+021001999GF104991999999999999999999MA1102001999999REMMET058METAR SBUF 050100Z 16006KT 9999 SCT010 SCT070 21/21 Q1020;
0143829860999992007080502004-09400-038217FM-15+0253SBUF V0201801N002112200019N0112651N1+02101+02101999999ADDGA1021+003001999GA2041+021001999GF104991999999999999999999MA1102001999999REMMET058METAR SBUF 050200Z 18004KT 9999 FEW010 SCT070 21/21 Q1020;
0166829860999992007080509004-09400-038217FM-15+0253SBUF V0201501N00261003601CN0112651N1+02001+02001999999ADDGA1021+002401999GA2041+003601999GA3071+021001999GF107991999999999999999999MA1102001999999REMMET065METAR SBUF 050900Z 15005KT 9999 FEW008 SCT012 BKN070 20/20 Q1020;
0120829860999992007080510004-09400-038217FM-15+0253SBUF V0201301N002112200019N0112651N1+02101+02101999999ADDGA1021+003601999GF102991999999999999999999MA1102001999999REMMET051METAR SBUF 051000Z 13004KT 9999 FEW012 21/21 Q1020;
0120829860999992007080511004-09400-038217FM-15+0253SBUF V0201301N004112200019N0112651N1+02301+02301999999ADDGA1021+003901999GF102991999999999999999999MA1102101999999REMMET051METAR SBUF 051100Z 13008KT 9999 FEW013 23/23 Q1021;
0274829860999992007080512004-09400-038217SY-MT+0253SBUF V0201401N003110075019N0100001N1+02321+01871101941ADDAA124006191AY161061AY221061GA1041+005101999GF106991061021008001001001KA1240N+01941MA1102101099031MD1999999+0031MW1021REMSYN088AAXX  05124 82986 21597 61406 10232 20187 39903 40194 70262 86200 333 20194 58003 60064;MET051METAR SBUF 051200Z 13010KT 9999 SCT017 26/21 Q1021;
0120829860999992007080513004-09400-038217FM-15+0253SBUF V0201501N004612200019N0112651N1+02701+02001999999ADDGA1041+005401999GF104991999999999999999999MA1102001999999REMMET051METAR SBUF 051300Z 15009KT 9999 SCT018 27/20 Q1020;
0120829860999992007080514004-09400-038217FM-15+0253SBUF V0201501N005712200019N0112651N1+02901+01901999999ADDGA1041+006001999GF104991999999999999999999MA1101901999999REMMET051METAR SBUF 051400Z 15011KT 9999 SCT020 29/19 Q1019;
0120829860999992007080515004-09400-038217FM-15+0253SBUF V0201701N003612200019N0112651N1+02901+01801999999ADDGA1041+006001999GF104991999999999999999999MA1101801999999REMMET051METAR SBUF 051500Z 17007KT 9999 SCT020 29/18 Q1018;
0120829860999992007080516004-09400-038217FM-15+0253SBUF V0201701N005112200019N0112651N1+03001+01701999999ADDGA1041+006001999GF104991999999999999999999MA1101691999999REMMET051METAR SBUF 051600Z 17010KT 9999 SCT020 30/17 Q1017;
0120829860999992007080517004-09400-038217FM-15+0253SBUF V0201601N006212200019N0112651N1+03001+01701999999ADDGA1041+006001999GF104991999999999999999999MA1101591999999REMMET051METAR SBUF 051700Z 16012KT 9999 SCT020 30/17 Q1016;
0210829860999992007080518004-09400-038217SY-MT+0253SBUF V0201401N004612200019N0200001N1+02781+01331101411ADDGA1041+006001999GF104991041011008001001001MA1101591098531MD1999999-0151REMSYN070AAXX  05184 82986 32598 41409 10278 20133 39853 40141 84100 333 59015;MET051METAR SBUF 051800Z 16010KT 9999 SCT020 30/18 Q1016;
0120829860999992007080519004-09400-038217FM-15+0253SBUF V0201501N005712200019N0112651N1+03001+01701999999ADDGA1041+006001999GF104991999999999999999999MA1101591999999REMMET051METAR SBUF 051900Z 15011KT 9999 SCT020 30/17 Q1016;
0120829860999992007080520004-09400-038217FM-15+0253SBUF V0201601N005112200019N0112651N1+02801+01701999999ADDGA1021+006001999GF102991999999999999999999MA1101591999999REMMET051METAR SBUF 052000Z 16010KT 9999 FEW020 28/17 Q1016;
0072829860999992007080521004-09400-038217FM-15+0253SBUF V0201401N00311220001CN0099001N1+02501+01801999999ADDMA1101591999999REMMET045METAR SBUF 052100Z 14006KT CAVOK 25/18 Q1016;
0072829860999992007080522004-09400-038217FM-15+0253SBUF V0201001N00461220001CN0099001N1+02401+02001999999ADDMA1101691999999REMMET045METAR SBUF 052200Z 10009KT CAVOK 24/20 Q1017;
0072829860999992007080523004-09400-038217FM-15+0253SBUF V0201001N00361220001CN0099001N1+02301+02201999999ADDMA1101801999999REMMET045METAR SBUF 052300Z 10007KT CAVOK 23/22 Q1018;
0219829860999992007080600004-09400-038217SY-MT+0253SBUF V0201801N002112200019N0020001N1+02201+01941101831ADDGF102991021011008001001001KA1240M+02901MA1101901098831MD1999999-0091REMSYN088AAXX  06004 82986 32595 21804 10220 20194 39883 40183 82100 333 10290 29072 55100 59009;MET045METAR SBUF 060000Z 13008KT CAVOK 22/21 Q1019;
0072829860999992007080601004-09400-038217FM-15+0253SBUF V0201501N00261220001CN0099001N1+02201+02201999999ADDMA1101901999999REMMET045METAR SBUF 060100Z 15005KT CAVOK 22/22 Q1019;
0072829860999992007080602004-09400-038217FM-15+0253SBUF V0201601N00261220001CN0099001N1+02101+02101999999ADDMA1101901999999REMMET045METAR SBUF 060200Z 16005KT CAVOK 21/21 Q1019;
0143829860999992007080609004-09400-038217FM-15+0253SBUF V0202001N001512200019N0112651N1+02001+02001999999ADDGA1021+002401999GA2041+021001999GF104991999999999999999999MA1101901999999REMMET058METAR SBUF 060900Z 20003KT 9999 FEW008 SCT070 20/20 Q1019;
0143829860999992007080610004-09400-038217FM-15+0253SBUF V0202201N002112200019N0112651N1+02001+02001999999ADDGA1021+003601999GA2041+021001999GF104991999999999999999999MA1101901999999REMMET058METAR SBUF 061000Z 22004KT 9999 FEW012 SCT070 20/20 Q1019;
0153829860999992007080611004-09400-038217FM-15+0253SBUF V0201601N004112200019N0070001N1+02101+02101999999ADDGA1041+002401999GA2041+021001999GF104991999999999999999999MA1102001999999MW1611REMMET062METAR SBUF 061100Z 16008KT 7000 -RA SCT008 SCT070 21/21 Q1020;
0297829860999992007080612004-09400-038217SY-MT+0253SBUF V0201801N00461021001CN0100001N1+02241+01981101881ADDAA124000021AY121061AY221061GA1041+003001999GA2041+021001999GF107991051071008001081001KA1240N+01921MA1102001098971MD1999999-0061MW1201REMSYN088AAXX  06124 82986 21597 71809 10224 20198 39897 40188 72022 85780 333 20192 59006 69904;MET058METAR SBUF 061200Z 16006KT 9999 SCT010 SCT070 23/23 Q1020;
0120829860999992007080613004-09400-038217FM-15+0253SBUF V0201601N007212200019N0112651N1+02601+02201999999ADDGA1041+004501999GF104991999999999999999999MA1102001999999REMMET051METAR SBUF 061300Z 16014KT 9999 SCT015 26/22 Q1020;
0143829860999992007080614004-09400-038217FM-15+0253SBUF V0201801N006712200019N0112651N1+02701+02101999999ADDGA1041+005101999GA2041+021001999GF104991999999999999999999MA1101901999999REMMET058METAR SBUF 061400Z 18013KT 9999 SCT017 SCT070 27/21 Q1019;
0143829860999992007080615004-09400-038217FM-15+0253SBUF V0201601N004610048019N0112651N1+02701+02101999999ADDGA1071+004801999GA2071+021001999GF107991999999999999999999MA1101801999999REMMET058METAR SBUF 061500Z 16009KT 9999 BKN016 BKN070 27/21 Q1018;
0143829860999992007080616004-09400-038217FM-15+0253SBUF V0201201N004610048019N0112651N1+02901+02101999999ADDGA1071+004801999GA2071+021001999GF107991999999999999999999MA1101691999999REMMET058METAR SBUF 061600Z 12009KT 9999 BKN016 BKN070 29/21 Q1017;
0143829860999992007080617004-09400-038217FM-15+0253SBUF V0201401N005110048019N0112651N1+02901+02001999999ADDGA1071+004801999GA2071+021001999GF107991999999999999999999MA1101691999999REMMET058METAR SBUF 061700Z 14010KT 9999 BKN016 BKN070 29/20 Q1017;
0233829860999992007080618004-09400-038217SY-MT+0253SBUF V0201801N00571004801CN0200001N1+02601+01651101481ADDGA1071+004801999GA2071+021001999GF108991081081004501999999MA1101591098601MD1999999+0071REMSYN070AAXX  06184 82986 32498 81811 10260 20165 39860 40148 888// 333 58007;MET058METAR SBUF 061800Z 15009KT 9999 BKN016 BKN070 28/20 Q1016;
0143829860999992007080619004-09400-038217FM-15+0253SBUF V0201401N005110048019N0112651N1+02701+02001999999ADDGA1071+004801999GA2071+021001999GF107991999999999999999999MA1101591999999REMMET058METAR SBUF 061900Z 14010KT 9999 BKN016 BKN070 27/20 Q1016;
0143829860999992007080620004-09400-038217FM-15+0253SBUF V0201501N004110048019N0112651N1+02601+02001999999ADDGA1071+004801999GA2071+021001999GF107991999999999999999999MA1101691999999REMMET058METAR SBUF 062000Z 15008KT 9999 BKN016 BKN070 26/20 Q1017;
0143829860999992007080621004-09400-038217FM-15+0253SBUF V0201401N003610210019N0112651N1+02601+02001999999ADDGA1041+005101999GA2071+021001999GF107991999999999999999999MA1101691999999REMMET058METAR SBUF 062100Z 14007KT 9999 SCT017 BKN070 26/20 Q1017;
0143829860999992007080622004-09400-038217FM-15+0253SBUF V0201201N005712200019N0112651N1+02401+02101999999ADDGA1021+004501999GA2041+021001999GF104991999999999999999999MA1101691999999REMMET058METAR SBUF 062200Z 12011KT 9999 FEW015 SCT070 24/21 Q1017;
0143829860999992007080623004-09400-038217FM-15+0253SBUF V0201101N004612200019N0112651N1+02301+02201999999ADDGA1021+004501999GA2041+021001999GF104991999999999999999999MA1101801999999REMMET058METAR SBUF 062300Z 11009KT 9999 FEW015 SCT070 23/22 Q1018;
0264829860999992007080700004-09400-038217SY-MT+0253SBUF V0201401N00261021001CN0020001N1+02241+01941101771ADDGA1021+003901999GA2041+021001999GF105991051001017501021001KA1240M+02751MA1101901098871MD1999999+0041REMSYN088AAXX  07004 82986 32795 51405 10224 20194 39887 40177 85020 333 10275 29077 55030 58004;MET058METAR SBUF 070000Z 13009KT 9999 FEW013 SCT070 23/22 Q1019;
0143829860999992007080701004-09400-038217FM-15+0253SBUF V0201301N003612200019N0112651N1+02301+02201999999ADDGA1021+003901999GA2041+021001999GF104991999999999999999999MA1101901999999REMMET058METAR SBUF 070100Z 13007KT 9999 FEW013 SCT070 23/22 Q1019;
0143829860999992007080702004-09400-038217FM-15+0253SBUF V0201401N004112200019N0112651N1+02301+02301999999ADDGA1021+003901999GA2041+021001999GF104991999999999999999999MA1101901999999REMMET058METAR SBUF 070200Z 14008KT 9999 FEW013 SCT070 23/23 Q1019;
0143829860999992007080709004-09400-038217FM-15+0253SBUF V0201301N002112200019N0112651N1+01901+01901999999ADDGA1021+003601999GA2041+021001999GF104991999999999999999999MA1101801999999REMMET058METAR SBUF 070900Z 13004KT 9999 FEW012 SCT070 19/19 Q1018;
0143829860999992007080710004-09400-038217FM-15+0253SBUF V0201101N002112200019N0112651N1+02101+02101999999ADDGA1021+003601999GA2041+021001999GF104991999999999999999999MA1102001999999REMMET058METAR SBUF 071000Z 11004KT 9999 FEW012 SCT070 21/21 Q1020;
0143829860999992007080711004-09400-038217FM-15+0253SBUF V0201301N003612200019N0112651N1+02201+02201999999ADDGA1021+003601999GA2041+021001999GF104991999999999999999999MA1102001999999REMMET058METAR SBUF 071100Z 13007KT 9999 FEW012 SCT070 22/22 Q1020;
0252829860999992007080712004-09400-038217SY-MT+0253SBUF V0201401N00411021001CN0100001N1+02371+01891101881ADDGA1021+003601999GA2041+021001999GF106991061021008001001001KA1240N+01801MA1102001098981MD1999999+0011REMSYN076AAXX  07124 82986 32597 61408 10237 20189 39898 40188 86200 333 20180 58001;MET058METAR SBUF 071200Z 14009KT 9999 FEW012 SCT070 23/21 Q1020;
0143829860999992007080713004-09400-038217FM-15+0253SBUF V0201001N004112200019N0112651N1+02601+02101999999ADDGA1041+003601999GA2041+021001999GF104991999999999999999999MA1102001999999REMMET058METAR SBUF 071300Z 10008KT 9999 SCT012 SCT070 26/21 Q1020;
0143829860999992007080714004-09400-038217FM-15+0253SBUF V0201401N005712200019N0112651N1+02701+02101999999ADDGA1041+003601999GA2041+021001999GF104991999999999999999999MA1102001999999REMMET058METAR SBUF 071400Z 14011KT 9999 SCT012 SCT070 27/21 Q1020;
0143829860999992007080715004-09400-038217FM-15+0253SBUF V0201401N004112200019N0112651N1+02801+02001999999ADDGA1021+004501999GA2041+021001999GF104991999999999999999999MA1101901999999REMMET058METAR SBUF 071500Z 14008KT 9999 FEW015 SCT070 28/20 Q1019;
0120829860999992007080716004-09400-038217FM-15+0253SBUF V0201401N003612200019N0112651N1+02901+01901999999ADDGA1041+005101999GF104991999999999999999999MA1101691999999REMMET051METAR SBUF 071600Z 14007KT 9999 SCT017 29/19 Q1017;
0120829860999992007080717004-09400-038217FM-15+0253SBUF V0201701N003612200019N0112651N1+03001+01901999999ADDGA1041+005401999GF104991999999999999999999MA1101591999999REMMET051METAR SBUF 071700Z 17007KT 9999 SCT018 30/19 Q1016;
0210829860999992007080718004-09400-038217SY-MT+0253SBUF V0201401N005110075019N0200001N1+02881+01391101471ADDGA1041+005401999GF106991061011008001001001MA1101591098591MD1999999-0011REMSYN070AAXX  07184 82986 32598 61410 10288 20139 39859 40147 86100 333 59001;MET051METAR SBUF 071800Z 15008KT 9999 SCT018 29/18 Q1016;
0120829860999992007080719004-09400-038217FM-15+0253SBUF V0201401N005712200019N0112651N1+02901+01701999999ADDGA1021+005401999GF102991999999999999999999MA1101591999999REMMET051METAR SBUF 071900Z 14011KT 9999 FEW018 29/17 Q1016;
0120829860999992007080720004-09400-038217FM-15+0253SBUF V0201301N005112200019N0112651N1+02701+01701999999ADDGA1041+005401999GF104991999999999999999999MA1101691999999REMMET051METAR SBUF 072000Z 13010KT 9999 SCT018 27/17 Q1017;
0120829860999992007080721004-09400-038217FM-15+0253SBUF V0201501N003612200019N0112651N1+02501+01801999999ADDGA1021+005101999GF102991999999999999999999MA1101691999999REMMET051METAR SBUF 072100Z 15007KT 9999 FEW017 25/18 Q1017;
0120829860999992007080722004-09400-038217FM-15+0253SBUF V0201501N006212200019N0112651N1+02401+02101999999ADDGA1021+004501999GF102991999999999999999999MA1101691999999REMMET051METAR SBUF 072200Z 15012KT 9999 FEW015 24/21 Q1017;
0120829860999992007080723004-09400-038217FM-15+0253SBUF V0201501N005112200019N0112651N1+02301+02201999999ADDGA1021+003601999GF102991999999999999999999MA1101901999999REMMET051METAR SBUF 072300Z 15010KT 9999 FEW012 23/22 Q1019;
0254829860999992007080800004-09400-038217SY-MT+0253SBUF V0201401N003612200019N0020001N1+02121+01981101801ADDGA1021+003001999GF199999001001999999001001KA1240M+02871MA1101901098901MD1999999+0031REMSYN082AAXX  08004 82986 32995 01407 10212 20198 39890 40180 333 10287 29075 55083 58003;MET051METAR SBUF 080000Z 13008KT 9999 FEW010 22/22 Q1019;EQDQ01+000002SCOTCV
0120829860999992007080801004-09400-038217FM-15+0253SBUF V0201501N004612200019N0112651N1+02201+02201999999ADDGA1041+002101999GF104991999999999999999999MA1101901999999REMMET051METAR SBUF 080100Z 15009KT 9999 SCT007 22/22 Q1019;
0120829860999992007080802004-09400-038217FM-15+0253SBUF V0201501N005110018019N0112651N1+02201+02201999999ADDGA1071+001801999GF107991999999999999999999MA1102001999999REMMET051METAR SBUF 080200Z 15010KT 9999 BKN006 22/22 Q1020;
0143829860999992007080808004-09400-038217FM-15+0253SBUF V0201501N002112200019N0112651N1+02001+02001999999ADDGA1021+003001999GA2041+003601999GF104991999999999999999999MA1101901999999REMMET058METAR SBUF 080800Z 15004KT 9999 FEW010 SCT012 20/20 Q1019;
0143829860999992007080809004-09400-038217FM-15+0253SBUF V0201401N003112200019N0112651N1+02101+02101999999ADDGA1021+003001999GA2041+003601999GF104991999999999999999999MA1101901999999REMMET058METAR SBUF 080900Z 14006KT 9999 FEW010 SCT012 21/21 Q1019;
0143829860999992007080810004-09400-038217FM-15+0253SBUF V0201301N003612200019N0112651N1+02201+02201999999ADDGA1021+003001999GA2041+003601999GF104991999999999999999999MA1102001999999REMMET058METAR SBUF 081000Z 13007KT 9999 FEW010 SCT012 22/22 Q1020;
0143829860999992007080811004-09400-038217FM-15+0253SBUF V0201501N003612200019N0112651N1+02401+02301999999ADDGA1041+003601999GA2041+021001999GF104991999999999999999999MA1102001999999REMMET058METAR SBUF 081100Z 15007KT 9999 SCT012 SCT070 24/23 Q1020;
0252829860999992007080812004-09400-038217SY-MT+0253SBUF V0201801N00511021001CN0100001N1+02341+01891101901ADDGA1041+004501999GA2041+021001999GF106991061041008001001001KA1240N+01961MA1102001099001MD1999999+0021REMSYN076AAXX  08124 82986 32597 61810 10234 20189 39900 40190 86400 333 20196 58002;MET058METAR SBUF 081200Z 13009KT 9999 SCT015 SCT070 27/22 Q1020;
0136829860999992007080813004-09400-038217FM-15+0253SBUF V0201201N00411220001CN0112651N1+02601+02101999999ADDGA1071+004501999GA2041+021001999MA1102001999999REMMET058METAR SBUF 081300Z 12008KT 9999 BKN015 SCT070 26/21 Q1020;EQDQ01+000042SCOTCV
0136829860999992007080814004-09400-038217FM-15+0253SBUF V0201101N00511220001CN0112651N1+02801+02001999999ADDGA1071+004501999GA2041+021001999MA1102001999999REMMET058METAR SBUF 081400Z 11010KT 9999 BKN015 SCT070 28/20 Q1020;EQDQ01+000042SCOTCV
0143829860999992007080815004-09400-038217FM-15+0253SBUF V0201401N005110210019N0112651N1+02801+02101999999ADDGA1041+005101999GA2071+021001999GF107991999999999999999999MA1101801999999REMMET058METAR SBUF 081500Z 14010KT 9999 SCT017 BKN070 28/21 Q1018;
0143829860999992007080816004-09400-038217FM-15+0253SBUF V0201301N005112200019N0112651N1+03001+02101999999ADDGA1021+005101999GA2041+021001999GF104991999999999999999999MA1101691999999REMMET058METAR SBUF 081600Z 13010KT 9999 FEW017 SCT070 30/21 Q1017;
0120829860999992007080817004-09400-038217FM-15+0253SBUF V0201301N006712200019N0112651N1+03101+02201999999ADDGA1041+005401999GF104991999999999999999999MA1101591999999REMMET051METAR SBUF 081700Z 13013KT 9999 SCT018 31/22 Q1016;
0210829860999992007080818004-09400-038217SY-MT+0253SBUF V0201401N005110075019N0200001N1+02711+02011101481ADDGA1041+005101999GF106991061021008001001001MA1101591098601MD1999999+0011REMSYN070AAXX  08184 82986 32598 61410 10271 20201 39860 40148 86200 333 58001;MET051METAR SBUF 081800Z 13013KT 9999 SCT017 28/22 Q1016;
0143829860999992007080819004-09400-038217FM-15+0253SBUF V0201301N006712200019N0112651N1+02801+02101999999ADDGA1021+005101999GA2041+021001999GF104991999999999999999999MA1101591999999REMMET058METAR SBUF 081900Z 13013KT 9999 FEW017 SCT070 28/21 Q1016;
0143829860999992007080820004-09400-038217FM-15+0253SBUF V0201301N006712200019N0112651N1+02601+02101999999ADDGA1021+004501999GA2041+021001999GF104991999999999999999999MA1101691999999REMMET058METAR SBUF 082000Z 13013KT 9999 FEW015 SCT070 26/21 Q1017;
0143829860999992007080821004-09400-038217FM-15+0253SBUF V0201401N006710210019N0112651N1+02501+02001999999ADDGA1041+006001999GA2071+021001999GF107991999999999999999999MA1101691999999REMMET058METAR SBUF 082100Z 14013KT 9999 SCT020 BKN070 25/20 Q1017;
0143829860999992007080822004-09400-038217FM-15+0253SBUF V0201301N006710210019N0112651N1+02401+02001999999ADDGA1041+006001999GA2071+021001999GF107991999999999999999999MA1101801999999REMMET058METAR SBUF 082200Z 13013KT 9999 SCT020 BKN070 24/20 Q1018;
0143829860999992007080823004-09400-038217FM-15+0253SBUF V0201201N006212200019N0112651N1+02401+02101999999ADDGA1021+006001999GA2041+021001999GF104991999999999999999999MA1101801999999REMMET058METAR SBUF 082300Z 12012KT 9999 FEW020 SCT070 24/21 Q1018;
0213829860999992007080900004-09400-038217SY-MT+0253SBUF V0201401N005112200019N0020001N1+02301+01831101751ADDGF100991001001999999001001KA1240M+02841MA1101901098861MD1999999-0041REMSYN082AAXX  09004 82986 32995 01410 10230 20183 39886 40175 333 10284 29073 55076 59004;MET045METAR SBUF 090000Z 12012KT CAVOK 23/20 Q1019;
0072829860999992007080901004-09400-038217FM-15+0253SBUF V0201301N00311220001CN0099001N1+02201+02101999999ADDMA1101901999999REMMET045METAR SBUF 090100Z 13006KT CAVOK 22/21 Q1019;
0072829860999992007080902004-09400-038217FM-15+0253SBUF V0201501N00311220001CN0099001N1+02101+02101999999ADDMA1101901999999REMMET045METAR SBUF 090200Z 15006KT CAVOK 21/21 Q1019;
0143829860999992007080909004-09400-038217FM-15+0253SBUF V0201401N002612200019N0112651N1+02001+02001999999ADDGA1021+003001999GA2041+090001999GF104991999999999999999999MA1101801999999REMMET058METAR SBUF 090900Z 14005KT 9999 FEW010 SCT300 20/20 Q1018;
0143829860999992007080910004-09400-038217FM-15+0253SBUF V0201201N003612200019N0112651N1+02101+02101999999ADDGA1021+003001999GA2041+090001999GF104991999999999999999999MA1101901999999REMMET058METAR SBUF 091000Z 12007KT 9999 FEW010 SCT300 21/21 Q1019;
0143829860999992007080911004-09400-038217FM-15+0253SBUF V0201301N005112200019N0112651N1+02301+02201999999ADDGA1021+003601999GA2041+090001999GF104991999999999999999999MA1101901999999REMMET058METAR SBUF 091100Z 13010KT 9999 FEW012 SCT300 23/22 Q1019;
0252829860999992007080912004-09400-038217SY-MT+0253SBUF V0200901N00571090001CN0100001N1+02461+01851101811ADDGA1041+004801999GA2041+090001999GF106991021021008001071001KA1240N+01881MA1101901098931MD1999999-0071REMSYN076AAXX  09124 82986 32597 60911 10246 20185 39893 40181 82270 333 20188 59007;MET058METAR SBUF 091200Z 11013KT 9999 SCT016 SCT300 26/21 Q1019;
0143829860999992007080913004-09400-038217FM-15+0253SBUF V0201201N006212200019N0112651N1+02701+01901999999ADDGA1041+004801999GA2041+090001999GF104991999999999999999999MA1101901999999REMMET058METAR SBUF 091300Z 12012KT 9999 SCT016 SCT300 27/19 Q1019;
0143829860999992007080914004-09400-038217FM-15+0253SBUF V0201101N006712200019N0112651N1+02901+01701999999ADDGA1041+004801999GA2041+090001999GF104991999999999999999999MA1101901999999REMMET058METAR SBUF 091400Z 11013KT 9999 SCT016 SCT300 29/17 Q1019;
0120829860999992007080915004-09400-038217FM-15+0253SBUF V0201001N007212200019N0112651N1+03001+01801999999ADDGA1041+006001999GF104991999999999999999999MA1101801999999REMMET051METAR SBUF 091500Z 10014KT 9999 SCT020 30/18 Q1018;
0120829860999992007080916004-09400-038217FM-15+0253SBUF V0201201N006712200019N0112651N1+02901+01901999999ADDGA1041+006001999GF104991999999999999999999MA1101691999999REMMET051METAR SBUF 091600Z 12013KT 9999 SCT020 29/19 Q1017;
0120829860999992007080917004-09400-038217FM-15+0253SBUF V0201301N007212200019N0112651N1+03001+01801999999ADDGA1041+006001999GF104991999999999999999999MA1101591999999REMMET051METAR SBUF 091700Z 13014KT 9999 SCT020 30/18 Q1016;
0210829860999992007080918004-09400-038217SY-MT+0253SBUF V0201401N005110450019N0200001N1+02811+01391101461ADDGA1041+006001999GF105991031021008001031001MA1101591098581MD1999999-0021REMSYN070AAXX  09184 82986 32598 51410 10281 20139 39858 40146 83230 333 59002;MET051METAR SBUF 091800Z 13013KT 9999 SCT020 29/19 Q1016;
0120829860999992007080920004-09400-038217FM-15+0253SBUF V0201401N005712200019N0112651N1+02701+01801999999ADDGA1021+006001999GF102991999999999999999999MA1101591999999REMMET051METAR SBUF 092000Z 14011KT 9999 FEW020 27/18 Q1016;
0120829860999992007080921004-09400-038217FM-15+0253SBUF V0201701N006212200019N0112651N1+02501+01801999999ADDGA1021+005101999GF102991999999999999999999MA1101691999999REMMET051METAR SBUF 092100Z 17012KT 9999 FEW017 25/18 Q1017;
0072829860999992007080922004-09400-038217FM-15+0253SBUF V0201601N00461220001CN0099001N1+02401+01801999999ADDMA1101691999999REMMET045METAR SBUF 092200Z 16009KT CAVOK 24/18 Q1017;
0120829860999992007080923004-09400-038217FM-15+0253SBUF V0201501N004612200019N0112651N1+02301+01901999999ADDGA1021+003001999GF102991999999999999999999MA1101801999999REMMET051METAR SBUF 092300Z 15009KT 9999 FEW010 23/19 Q1018;
0178829860999992007081000004-09400-038217FM-12+0253SBUF V0201801N003112200019N0020001N1+02261+01821101721ADDGA1001+999999999GF100991001001999999001001KA1240M+02881MA1999999098841MD1999999-0021REMSYN082AAXX  10004 82986 32995 01806 10226 20182 39884 40172 333 10288 29066 55101 59002;
0120829860999992007081001004-09400-038217FM-15+0253SBUF V0201601N004612200019N0112651N1+02201+02101999999ADDGA1021+002101999GF102991999999999999999999MA1101901999999REMMET051METAR SBUF 100100Z 16009KT 9999 FEW007 22/21 Q1019;
0072829860999992007081002004-09400-038217FM-15+0253SBUF V0201601N00361220001CN0099001N1+02101+02101999999ADDMA1101901999999REMMET045METAR SBUF 100200Z 16007KT CAVOK 21/21 Q1019;
0143829860999992007081009004-09400-038217FM-15+0253SBUF V0201301N005110018019N0112651N1+02001+02001999999ADDGA1071+001801999GA2071+021001999GF107991999999999999999999MA1101801999999REMMET058METAR SBUF 100900Z 13010KT 9999 BKN006 BKN070 20/20 Q1018;
0143829860999992007081010004-09400-038217FM-15+0253SBUF V0201301N004612200019N0112651N1+02101+02101999999ADDGA1041+003001999GA2041+021001999GF104991999999999999999999MA1101801999999REMMET058METAR SBUF 101000Z 13009KT 9999 SCT010 SCT070 21/21 Q1018;
0143829860999992007081011004-09400-038217FM-15+0253SBUF V0201401N005112200019N0112651N1+02201+02201999999ADDGA1041+003601999GA2041+021001999GF104991999999999999999999MA1101901999999REMMET058METAR SBUF 101100Z 14010KT 9999 SCT012 SCT070 22/22 Q1019;
0297829860999992007081012004-09400-038217SY-MT+0253SBUF V0201801N00361021001CN0100001N1+02241+01961101851ADDAA124000591AY161061AY251061GA1041+004501999GA2041+021001999GF108991081071004501999999KA1240N+01951MA1102001098951MD1999999+0021MW1031REMSYN088AAXX  10124 82986 21497 81807 10224 20196 39895 40185 70365 887// 333 20195 58002 69964;MET058METAR SBUF 101200Z 14011KT 9999 SCT015 SCT070 23/22 Q1020;
0143829860999992007081013004-09400-038217FM-15+0253SBUF V0201401N005110045019N0112651N1+02501+02301999999ADDGA1071+004501999GA2071+021001999GF107991999999999999999999MA1102001999999REMMET058METAR SBUF 101300Z 14010KT 9999 BKN015 BKN070 25/23 Q1020;
0143829860999992007081014004-09400-038217FM-15+0253SBUF V0201701N003610045019N0112651N1+02501+02301999999ADDGA1071+004501999GA2071+021001999GF107991999999999999999999MA1101901999999REMMET058METAR SBUF 101400Z 17007KT 9999 BKN015 BKN070 25/23 Q1019;
0143829860999992007081015004-09400-038217FM-15+0253SBUF V0201201N004610210019N0112651N1+02801+02201999999ADDGA1041+004501999GA2071+021001999GF107991999999999999999999MA1101801999999REMMET058METAR SBUF 101500Z 12009KT 9999 SCT015 BKN070 28/22 Q1018;
0297829860999992007081018004-09400-038217SY-MT+0253SBUF V0201801N00411021001CN0100001N1+02621+02031101471ADDAA106000891AY161061AY251061GA1021+004501999GA2071+021001999GF199999051081004501081001MA1101591098591MD1999999+0011MW1151REMSYN082AAXX  10184 82986 21497 61808 10262 20203 39859 40147 71565 85880 333 58001 69981;MET058METAR SBUF 101800Z 14008KT 9999 FEW015 BKN070 28/22 Q1016;EQDQ01+000062SCOTCV
0143829860999992007081019004-09400-038217FM-15+0253SBUF V0201301N005710210019N0112651N1+02401+02401999999ADDGA1041+003901999GA2071+021001999GF107991999999999999999999MA1101591999999REMMET058METAR SBUF 101900Z 13011KT 9999 SCT013 BKN070 24/24 Q1016;
0120829860999992007081020004-09400-038217FM-15+0253SBUF V0201501N003112200019N0112651N1+02301+02301999999ADDGA1041+003601999GF104991999999999999999999MA1101591999999REMMET051METAR SBUF 102000Z 15006KT 9999 SCT012 23/23 Q1016;
0153829860999992007081021004-09400-038217FM-15+0253SBUF V0201201N004110030019N0050001N1+02201+02201999999ADDGA1071+003001999GA2071+021001999GF107991999999999999999999MA1101691999999MW1611REMMET062METAR SBUF 102100Z 12008KT 5000 -RA BKN010 BKN070 22/22 Q1017;
0143829860999992007081022004-09400-038217FM-15+0253SBUF V0201501N005110024019N0112651N1+02201+02201999999ADDGA1071+002401999GA2071+021001999GF107991999999999999999999MA1101691999999REMMET058METAR SBUF 102200Z 15010KT 9999 BKN008 BKN070 22/22 Q1017;
0117829860999992007081023004-09400-038217FM-15+0253SBUF V0201601N00511220001CN0112651N1+02201+02201999999ADDGA1071+002101999GA2041+021001999MA1101801999999REMMET058METAR SBUF 102300Z 16010KT 9999 BKN007 SCT070 22/22 Q1018;
0286829860999992007081100004-09400-038217SY-MT+0253SBUF V0201801N00361002101CN0020001N1+02121+02121101741ADDAA106001091AY161061AY221061GA1071+002101999GF108991081071004501999999KA1240M+02761MA1101901098841MD1999999+0001MW1021REMSYN100AAXX  11004 82986 21495 81807 10212 20212 39884 40174 70262 887// 333 10276 29088 55039 58000 69991;MET051METAR SBUF 110000Z 14005KT 9999 BKN007 22/22 Q1019;
0130829860999992007081101004-09400-038217FM-15+0253SBUF V0201501N005110021019N0050001N1+02201+02201999999ADDGA1071+002101999GF107991999999999999999999MA1101901999999MW1611REMMET055METAR SBUF 110100Z 15010KT 5000 -RA BKN007 22/22 Q1019;
0120829860999992007081102004-09400-038217FM-15+0253SBUF V0201701N004110018019N0112651N1+02101+02101999999ADDGA1071+001801999GF107991999999999999999999MA1101901999999REMMET051METAR SBUF 110200Z 17008KT 9999 BKN006 21/21 Q1019;
0120829860999992007081103004-09400-038217FM-15+0253SBUF V0201601N004110018019N0112651N1+02101+02101999999ADDGA1071+001801999GF107991999999999999999999MA1101801999999REMMET051METAR SBUF 110300Z 16008KT 9999 BKN006 21/21 Q1018;
0120829860999992007081104004-09400-038217FM-15+0253SBUF V0201901N003610018019N0112651N1+02101+02101999999ADDGA1071+001801999GF107991999999999999999999MA1101801999999REMMET051METAR SBUF 110400Z 19007KT 9999 BKN006 21/21 Q1018;
0143829860999992007081109004-09400-038217FM-15+0253SBUF V0201301N003610210019N0060001N1+02101+02101999999ADDGA1041+002401999GA2071+021001999GF107991999999999999999999MA1101801999999REMMET058METAR SBUF 110900Z 13007KT 6000 SCT008 BKN070 21/21 Q1018;
0152829860999992007081110004-09400-038217FM-15+0253SBUF V0201201N003110024019N0050001N1+02101+02101999999ADDGA1071+002401999GA2071+021001999GF107991999999999999999999MA1101901999999MW1101REMMET061METAR SBUF 111000Z 12006KT 5000 BR BKN008 BKN070 21/21 Q1019;
0166829860999992007081111004-09400-038217FM-15+0253SBUF V0201301N00361003601CN0112651N1+02201+02201999999ADDGA1021+002401999GA2041+003601999GA3071+021001999GF107991999999999999999999MA1101901999999REMMET065METAR SBUF 111100Z 13007KT 9999 FEW008 SCT012 BKN070 22/22 Q1019;
0316829860999992007081112004-09400-038217SY-MT+0253SBUF V0201401N00151021001CN0100001N1+02151+02141101851ADDAA124003091AY161061AY221061GA1041+003901999GA2071+021001999GF199999061071004501001001KA1240N+01981MA1102001098941MD1999999-0011MW1031REMSYN088AAXX  11124 82986 21497 61403 10215 20214 39894 40185 70362 86700 333 20198 59001 60034;MET058METAR SBUF 111200Z 13011KT 9999 SCT013 BKN070 24/24 Q1020;EQDQ01+000062SCOTCV
0162829860999992007081113004-09400-038217FM-15+0253SBUF V0201201N005710210019N0050001N1+02401+02301999999ADDGA1041+003901999GA2071+021001999GF107991999999999999999999MA1102001999999MW1101MW2611REMMET065METAR SBUF 111300Z 12011KT 5000 -RA BR SCT013 BKN070 24/23 Q1020;
0143829860999992007081114004-09400-038217FM-15+0253SBUF V0201201N006712200019N0112651N1+02601+02301999999ADDGA1021+005101999GA2041+021001999GF104991999999999999999999MA1101901999999REMMET058METAR SBUF 111400Z 12013KT 9999 FEW017 SCT070 26/23 Q1019;
0143829860999992007081115004-09400-038217FM-15+0253SBUF V0201401N006212200019N0112651N1+02801+02301999999ADDGA1041+005401999GA2041+021001999GF104991999999999999999999MA1101801999999REMMET058METAR SBUF 111500Z 14012KT 9999 SCT018 SCT070 28/23 Q1018;
0143829860999992007081116004-09400-038217FM-15+0253SBUF V0201601N005112200019N0112651N1+02901+02201999999ADDGA1041+006001999GA2041+021001999GF104991999999999999999999MA1101691999999REMMET058METAR SBUF 111600Z 16010KT 9999 SCT020 SCT070 29/22 Q1017;
0120829860999992007081117004-09400-038217FM-15+0253SBUF V0201401N005710060019N0112651N1+02701+02101999999ADDGA1071+006001999GF107991999999999999999999MA1101691999999REMMET051METAR SBUF 111700Z 14011KT 9999 BKN020 27/21 Q1017;
0229829860999992007081118004-09400-038217SY-MT+0253SBUF V0200901N00621006001CN0200001N1+02801+01751101561ADDGA1071+006001999GF199999061021008001001001MA1101591098681MD1999999-0271REMSYN070AAXX  11184 82986 32598 60912 10280 20175 39868 40156 86200 333 59027;MET051METAR SBUF 111800Z 15013KT 9999 BKN020 29/19 Q1016;EQDQ01+000062SCOTCV
0120829860999992007081119004-09400-038217FM-15+0253SBUF V0201401N007212200019N0112651N1+02801+02001999999ADDGA1041+006001999GF104991999999999999999999MA1101591999999REMMET051METAR SBUF 111900Z 14014KT 9999 SCT020 28/20 Q1016;
0120829860999992007081120004-09400-038217FM-15+0253SBUF V0201501N005112200019N0112651N1+02701+02001999999ADDGA1041+006001999GF104991999999999999999999MA1101591999999REMMET051METAR SBUF 112000Z 15010KT 9999 SCT020 27/20 Q1016;
0120829860999992007081121004-09400-038217FM-15+0253SBUF V0201301N005712200019N0112651N1+02501+02001999999ADDGA1041+006001999GF104991999999999999999999MA1101691999999REMMET051METAR SBUF 112100Z 13011KT 9999 SCT020 25/20 Q1017;
0120829860999992007081122004-09400-038217FM-15+0253SBUF V0201401N003612200019N0112651N1+02401+02001999999ADDGA1021+006001999GF102991999999999999999999MA1101801999999REMMET051METAR SBUF 112200Z 14007KT 9999 FEW020 24/20 Q1018;
0072829860999992007081123004-09400-038217FM-15+0253SBUF V0201401N00361220001CN0099001N1+02301+02101999999ADDMA1101801999999REMMET045METAR SBUF 112300Z 14007KT CAVOK 23/21 Q1018;
0213829860999992007081200004-09400-038217SY-MT+0253SBUF V0201801N003112200019N0020001N1+02181+01821101751ADDGF100991001001999999001001KA1240M+02871MA1101901098841MD1999999+0001REMSYN082AAXX  12004 82986 32995 01806 10218 20182 39884 40175 333 10287 29078 55054 58000;MET045METAR SBUF 120000Z 17004KT CAVOK 22/22 Q1019;
0072829860999992007081201004-09400-038217FM-15+0253SBUF V0201801N00211220001CN0099001N1+02101+02101999999ADDMA1101901999999REMMET045METAR SBUF 120100Z 18004KT CAVOK 21/21 Q1019;
0072829860999992007081202004-09400-038217FM-15+0253SBUF V0201501N00211220001CN0099001N1+02001+02001999999ADDMA1101901999999REMMET045METAR SBUF 120200Z 15004KT CAVOK 20/20 Q1019;
0120829860999992007081209004-09400-038217FM-15+0253SBUF V0201201N004610021019N0112651N1+02101+02101999999ADDGA1071+002101999GF107991999999999999999999MA1101801999999REMMET051METAR SBUF 120900Z 12009KT 9999 BKN007 21/21 Q1018;
0120829860999992007081210004-09400-038217FM-15+0253SBUF V0201401N005710024019N0112651N1+02201+02201999999ADDGA1071+002401999GF107991999999999999999999MA1101901999999REMMET051METAR SBUF 121000Z 14011KT 9999 BKN008 22/22 Q1019;
0120829860999992007081211004-09400-038217FM-15+0253SBUF V0201401N005110036019N0112651N1+02301+02301999999ADDGA1071+003601999GF107991999999999999999999MA1101901999999REMMET051METAR SBUF 121100Z 14010KT 9999 BKN012 23/23 Q1019;
0293829860999992007081212004-09400-038217SY-MT+0253SBUF V0201401N00771004501CN0100001N1+02361+01851101831ADDAA124001091AY161061AY261061GA1071+004501999GF199999061021004501001001KA1240N+01911MA1102001098931MD1999999-0011MW1011REMSYN088AAXX  12124 82986 21497 61415 10236 20185 39893 40183 70166 86200 333 20191 59001 60014;MET051METAR SBUF 121200Z 14013KT 9999 BKN015 26/22 Q1020;EQDQ01+000062SCOTCV
0120829860999992007081213004-09400-038217FM-15+0253SBUF V0201501N007710045019N0112651N1+02501+02101999999ADDGA1071+004501999GF107991999999999999999999MA1102001999999REMMET051METAR SBUF 121300Z 15015KT 9999 BKN015 25/21 Q1020;
0120829860999992007081214004-09400-038217FM-15+0253SBUF V0201301N007212200019N0112651N1+02801+02101999999ADDGA1041+005101999GF104991999999999999999999MA1101901999999REMMET051METAR SBUF 121400Z 13014KT 9999 SCT017 28/21 Q1019;
0120829860999992007081215004-09400-038217FM-15+0253SBUF V0201401N007712200019N0112651N1+02901+01901999999ADDGA1041+005401999GF104991999999999999999999MA1101801999999REMMET051METAR SBUF 121500Z 14015KT 9999 SCT018 29/19 Q1018;
0120829860999992007081216004-09400-038217FM-15+0253SBUF V0201301N008212200019N0112651N1+03001+01901999999ADDGA1041+005401999GF104991999999999999999999MA1101691999999REMMET051METAR SBUF 121600Z 13016KT 9999 SCT018 30/19 Q1017;
0120829860999992007081217004-09400-038217FM-15+0253SBUF V0201601N005110054019N0112651N1+02901+01901999999ADDGA1071+005401999GF107991999999999999999999MA1101591999999REMMET051METAR SBUF 121700Z 16010KT 9999 BKN018 29/19 Q1016;
0229829860999992007081218004-09400-038217SY-MT+0253SBUF V0201401N00871006001CN0200001N1+02661+01471101401ADDGA1071+006001999GF199999021021008001041001MA1101591098521MD1999999-0161REMSYN070AAXX  12184 82986 32598 61417 10266 20147 39852 40140 82240 333 59016;MET051METAR SBUF 121800Z 14010KT 9999 BKN020 28/21 Q1016;EQDQ01+000062SCOTCV
0143829860999992007081219004-09400-038217FM-15+0253SBUF V0201201N005112200019N0112651N1+02601+02101999999ADDGA1021+005401999GA2041+021001999GF104991999999999999999999MA1101591999999REMMET058METAR SBUF 121900Z 12010KT 9999 FEW018 SCT070 26/21 Q1016;
0120829860999992007081220004-09400-038217FM-15+0253SBUF V0201301N004612200019N0112651N1+02601+01801999999ADDGA1021+005401999GF102991999999999999999999MA1101691999999REMMET051METAR SBUF 122000Z 13009KT 9999 FEW018 26/18 Q1017;
0120829860999992007081221004-09400-038217FM-15+0253SBUF V0201501N005112200019N0112651N1+02501+01901999999ADDGA1021+005401999GF102991999999999999999999MA1101691999999REMMET051METAR SBUF 122100Z 15010KT 9999 FEW018 25/19 Q1017;
0072829860999992007081222004-09400-038217FM-15+0253SBUF V0201601N00461220001CN0099001N1+02401+02001999999ADDMA1101801999999REMMET045METAR SBUF 122200Z 16009KT CAVOK 24/20 Q1018;
0072829860999992007081223004-09400-038217FM-15+0253SBUF V0201501N00511220001CN0099001N1+02201+02101999999ADDMA1101801999999REMMET045METAR SBUF 122300Z 15010KT CAVOK 22/21 Q1018;
0213829860999992007081300004-09400-038217SY-MT+0253SBUF V0201801N003112200019N0020001N1+02161+01801101771ADDGF100991001001999999001001KA1240M+02911MA1101901098871MD1999999+0031REMSYN082AAXX  13004 82986 32995 01806 10216 20180 39887 40177 333 10291 29070 55079 58003;MET045METAR SBUF 130000Z 20015KT CAVOK 21/21 Q1019;
0072829860999992007081301004-09400-038217FM-15+0253SBUF V0201801N00261220001CN0099001N1+02101+02101999999ADDMA1101901999999REMMET045METAR SBUF 130100Z 18005KT CAVOK 21/21 Q1019;
0143829860999992007081302004-09400-038217FM-15+0253SBUF V0201301N003112200019N0112651N1+02101+02101999999ADDGA1021+002401999GA2041+003001999GF104991999999999999999999MA1101901999999REMMET058METAR SBUF 130200Z 13006KT 9999 FEW008 SCT010 21/21 Q1019;
0143829860999992007081303004-09400-038217FM-15+0253SBUF V0201601N002612200019N0112651N1+02101+02101999999ADDGA1021+002401999GA2041+003001999GF104991999999999999999999MA1101901999999REMMET058METAR SBUF 130300Z 16005KT 9999 FEW008 SCT010 21/21 Q1019;
0143829860999992007081304004-09400-038217FM-15+0253SBUF V0201801N001512200019N0112651N1+02001+02001999999ADDGA1041+002401999GA2041+003001999GF104991999999999999999999MA1101801999999REMMET058METAR SBUF 130400Z 18003KT 9999 SCT008 SCT010 20/20 Q1018;
0143829860999992007081309004-09400-038217FM-15+0253SBUF V0201401N003610210019N0112651N1+02001+02001999999ADDGA1041+002401999GA2071+021001999GF107991999999999999999999MA1101801999999REMMET058METAR SBUF 130900Z 14007KT 9999 SCT008 BKN070 20/20 Q1018;
0143829860999992007081310004-09400-038217FM-15+0253SBUF V0201401N003610210019N0112651N1+02101+02101999999ADDGA1041+002401999GA2071+021001999GF107991999999999999999999MA1101901999999REMMET058METAR SBUF 131000Z 14007KT 9999 SCT008 BKN070 21/21 Q1019;
0166829860999992007081311004-09400-038217FM-15+0253SBUF V0201301N00511003901CN0112651N1+02201+02201999999ADDGA1021+003001999GA2041+003901999GA3071+021001999GF107991999999999999999999MA1102001999999REMMET065METAR SBUF 131100Z 13010KT 9999 FEW010 SCT013 BKN070 22/22 Q1020;
0274829860999992007081312004-09400-038217SY-MT+0253SBUF V0201401N005710075019N0100001N1+02501+01911101851ADDAA124000591AY161061AY221061GA1041+005101999GF106991061021008001001001KA1240N+01961MA1102001098961MD1999999+0031MW1021REMSYN088AAXX  13124 82986 21597 61411 10250 20191 39896 40185 70262 86200 333 20196 58003 69944;MET051METAR SBUF 131200Z 11011KT 9999 SCT017 26/22 Q1020;
0120829860999992007081313004-09400-038217FM-15+0253SBUF V0201301N005110051019N0112651N1+02501+02001999999ADDGA1071+005101999GF107991999999999999999999MA1102001999999REMMET051METAR SBUF 131300Z 13010KT 9999 BKN017 25/20 Q1020;
0120829860999992007081314004-09400-038217FM-15+0253SBUF V0201001N004112200019N0112651N1+02501+02301999999ADDGA1041+005101999GF104991999999999999999999MA1101901999999REMMET051METAR SBUF 131400Z 10008KT 9999 SCT017 25/23 Q1019;
0169829860999992007081315004-09400-038217FM-15+0253SBUF V0201301N004112200019N0112651N1+02601+02401999999ADDGA1041+003001999GA2041+005401999GA3041+006001021GF104991999999999999999999MA1101801999999REMMET068METAR SBUF 131500Z 13008KT 9999 SCT010 SCT018 SCT020TCU 26/24 Q1018;
0169829860999992007081316004-09400-038217FM-15+0253SBUF V0201501N005112200019N0112651N1+02501+02301999999ADDGA1041+003001999GA2041+005401999GA3041+006001021GF104991999999999999999999MA1101691999999REMMET068METAR SBUF 131600Z 15010KT 9999 SCT010 SCT018 SCT020TCU 25/23 Q1017;
0169829860999992007081317004-09400-038217FM-15+0253SBUF V0201801N004112200019N0112651N1+02601+02301999999ADDGA1041+003001999GA2041+005401999GA3041+006001021GF104991999999999999999999MA1101591999999REMMET068METAR SBUF 131700Z 18008KT 9999 SCT010 SCT018 SCT020TCU 26/23 Q1016;
0323829860999992007081318004-09400-038217SY-MT+0253SBUF V0201401N00621021001CN0200001N1+02621+01621101501ADDAA106000091AY151061AY221061GA1021+005401999GA2021+006001021GA3041+021001999GF106991031021008001041021MA1101591098621MD1999999+0101MW1011REMSYN082AAXX  13184 82986 21598 61412 10262 20162 39862 40150 70152 83242 333 58010 69911;MET068METAR SBUF 131800Z 15013KT 9999 FEW018 FEW020TCU SCT070 27/23 Q1016;EQDQ01  00002PRCP06
0169829860999992007081319004-09400-038217FM-15+0253SBUF V0201801N007712200019N0112651N1+02501+02401999999ADDGA1021+005401999GA2021+006001021GA3041+021001999GF104991999999999999999999MA1101691999999REMMET068METAR SBUF 131900Z 18015KT 9999 FEW018 FEW020TCU SCT070 25/24 Q1017;
0169829860999992007081320004-09400-038217FM-15+0253SBUF V0201801N005112200019N0112651N1+02601+02401999999ADDGA1021+005401999GA2021+006001021GA3041+021001999GF104991999999999999999999MA1101691999999REMMET068METAR SBUF 132000Z 18010KT 9999 FEW018 FEW020TCU SCT070 26/24 Q1017;
0169829860999992007081321004-09400-038217FM-15+0253SBUF V0201501N005112200019N0112651N1+02401+02301999999ADDGA1021+005401999GA2021+006001021GA3041+021001999GF104991999999999999999999MA1101691999999REMMET068METAR SBUF 132100Z 15010KT 9999 FEW018 FEW020TCU SCT070 24/23 Q1017;
0143829860999992007081322004-09400-038217FM-15+0253SBUF V0201301N005710210019N0112651N1+02401+02301999999ADDGA1041+005101999GA2071+021001999GF107991999999999999999999MA1101801999999REMMET058METAR SBUF 132200Z 13011KT 9999 SCT017 BKN070 24/23 Q1018;
0166829860999992007081323004-09400-038217FM-15+0253SBUF V0201501N00511005101CN0112651N1+02301+02201999999ADDGA1021+004501999GA2041+005101999GA3071+021001999GF107991999999999999999999MA1101901999999REMMET065METAR SBUF 132300Z 15010KT 9999 FEW015 SCT017 BKN070 23/22 Q1019;
0332829860999992007081400004-09400-038217SY-MT+0253SBUF V0201801N00571021001CN0020001N1+02161+02041101821ADDAA106001091AY161061AY221061GA1041+004501999GA2071+021001999GF199999061001017501021001KA1240M+02811MA1102001098931MD1999999+0061MW1501REMSYN100AAXX  14004 82986 21795 61811 10216 20204 39893 40182 75062 86020 333 10281 29078 55079 58006 60011;MET062METAR SBUF 140000Z 15012KT 8000 -RA SCT015 BKN070 22/22 Q1020;EQDQ01+000062SCOTCV
0154829860999992007081401004-09400-038217FM-15+0253SBUF V0201401N003610210019N0080001N1+02101+02101999999ADDGA1041+003601999GA2071+021001999GF107991999999999999999999MA1102001999999MW1161REMMET063METAR SBUF 140100Z 14007KT 8000 VCSH SCT012 BKN070 21/21 Q1020;
0143829860999992007081402004-09400-038217FM-15+0253SBUF V0201401N003110210019N0112651N1+02101+02101999999ADDGA1041+003601999GA2071+021001999GF107991999999999999999999MA1102001999999REMMET058METAR SBUF 140200Z 14006KT 9999 SCT012 BKN070 21/21 Q1020;
0166829860999992007081409004-09400-038217FM-15+0253SBUF V0201801N004112200019N0112651N1+01901+01901999999ADDGA1021+002401999GA2041+003601999GA3041+021001999GF104991999999999999999999MA1101801999999REMMET065METAR SBUF 140900Z 18008KT 9999 FEW008 SCT012 SCT070 19/19 Q1018;
0072829860999992007081410004-09400-038217FM-15+0253SBUF V0201601N00411220001CN0099001N1+02001+02001999999ADDMA1101901999999REMMET045METAR SBUF 141000Z 16008KT CAVOK 20/20 Q1019;
0120829860999992007081411004-09400-038217FM-15+0253SBUF V0201601N005712200019N0112651N1+02301+02001999999ADDGA1041+004801999GF104991999999999999999999MA1101901999999REMMET051METAR SBUF 141100Z 16011KT 9999 SCT016 23/20 Q1019;
0287829860999992007081412004-09400-038217SY-MT+0253SBUF V0201401N00931003601CN0100001N1+02281+01731101831ADDAA124001091AY151061AY221061GA1071+003601999GF107991021021008001071999KA1240N+01901MA1102001098921MD1999999-0041MW1021MW2101REMSYN088AAXX  14124 82986 21597 71418 10228 20173 39892 40183 70252 8227/ 333 20190 59004 60014;MET058METAR SBUF 141200Z 14010KT 4000 -RA BR BKN012 23/22 Q1020;
0131829860999992007081413004-09400-038217FM-15+0253SBUF V0201301N006210036019N0080001N1+02301+02301999999ADDGA1071+003601999GF107991999999999999999999MA1102001999999MW1161REMMET056METAR SBUF 141300Z 13012KT 8000 VCSH BKN012 23/23 Q1020;
0139829860999992007081414004-09400-038217FM-15+0253SBUF V0201301N003610036019N0040001N1+02101+02101999999ADDGA1071+003601999GF107991999999999999999999MA1101901999999MW1101MW2611REMMET058METAR SBUF 141400Z 13007KT 4000 -RA BR BKN012 21/21 Q1019;
0143829860999992007081415004-09400-038217FM-15+0253SBUF V0201101N004610210019N0112651N1+02401+02401999999ADDGA1041+003901999GA2071+021001999GF107991999999999999999999MA1101901999999REMMET058METAR SBUF 141500Z 11009KT 9999 SCT013 BKN070 24/24 Q1019;
0143829860999992007081416004-09400-038217FM-15+0253SBUF V0201401N007712200019N0112651N1+02701+02201999999ADDGA1021+003901999GA2041+021001999GF104991999999999999999999MA1101691999999REMMET058METAR SBUF 141600Z 14015KT 9999 FEW013 SCT070 27/22 Q1017;
0120829860999992007081417004-09400-038217FM-15+0253SBUF V0201301N007712200019N0112651N1+02801+02201999999ADDGA1041+004501999GF104991999999999999999999MA1101691999999REMMET051METAR SBUF 141700Z 13015KT 9999 SCT015 28/22 Q1017;
0274829860999992007081418004-09400-038217SY-MT+0253SBUF V0200901N005112200019N0200001N1+02811+99999101471ADDAA106000891AY161061AY221061GA1041+005401999GF104991041021008001001001MA1101591098601MD1999999-0021MW1011REMSYN082AAXX  14184 82986 21598 40910 10281 20088 39860 40147 70162 84200 333 59002 69981;MET051METAR SBUF 141800Z 12008KT 9999 SCT018 28/20 Q1016;EQDQ01+000883ATOD  
0120829860999992007081419004-09400-038217FM-15+0253SBUF V0201201N005112200019N0112651N1+02801+01901999999ADDGA1021+005401999GF102991999999999999999999MA1101691999999REMMET051METAR SBUF 141900Z 12010KT 9999 FEW018 28/19 Q1017;
0120829860999992007081420004-09400-038217FM-15+0253SBUF V0201301N006212200019N0112651N1+02601+01901999999ADDGA1021+006001999GF102991999999999999999999MA1101691999999REMMET051METAR SBUF 142000Z 13012KT 9999 FEW020 26/19 Q1017;
0120829860999992007081421004-09400-038217FM-15+0253SBUF V0201401N006212200019N0112651N1+02501+01901999999ADDGA1021+005101999GF102991999999999999999999MA1101801999999REMMET051METAR SBUF 142100Z 14012KT 9999 FEW017 25/19 Q1018;
0120829860999992007081422004-09400-038217FM-15+0253SBUF V0201401N006212200019N0112651N1+02401+02001999999ADDGA1021+004501999GF102991999999999999999999MA1101801999999REMMET051METAR SBUF 142200Z 14012KT 9999 FEW015 24/20 Q1018;
0120829860999992007081423004-09400-038217FM-15+0253SBUF V0201501N004112200019N0112651N1+02301+02001999999ADDGA1021+003601999GF102991999999999999999999MA1101901999999REMMET051METAR SBUF 142300Z 15008KT 9999 FEW012 23/20 Q1019;
0254829860999992007081500004-09400-038217SY-MT+0253SBUF V0200901N002112200019N0020001N1+02101+01461101841ADDGA1021+003001999GF199999001001999999001001KA1240M+02821MA1101901098931MD1999999+0001REMSYN082AAXX  15004 82986 32995 00904 10210 20146 39893 40184 333 10282 29059 55082 58000;MET051METAR SBUF 150000Z 13007KT 9999 FEW010 22/20 Q1019;EQDQ01+000002SCOTCV
0120829860999992007081501004-09400-038217FM-15+0253SBUF V0201301N002612200019N0112651N1+02201+02101999999ADDGA1021+002401999GF102991999999999999999999MA1102001999999REMMET051METAR SBUF 150100Z 13005KT 9999 FEW008 22/21 Q1020;
0120829860999992007081502004-09400-038217FM-15+0253SBUF V0201501N004612200019N0112651N1+02101+02101999999ADDGA1021+002101999GF102991999999999999999999MA1102001999999REMMET051METAR SBUF 150200Z 15009KT 9999 FEW007 21/21 Q1020;
0120829860999992007081503004-09400-038217FM-15+0253SBUF V0201401N003612200019N0112651N1+02001+02001999999ADDGA1041+002101999GF104991999999999999999999MA1101901999999REMMET051METAR SBUF 150300Z 14007KT 9999 SCT007 20/20 Q1019;
0120829860999992007081504004-09400-038217FM-15+0253SBUF V0201601N002612200019N0112651N1+02001+02001999999ADDGA1041+002101999GF104991999999999999999999MA1101801999999REMMET051METAR SBUF 150400Z 16005KT 9999 SCT007 20/20 Q1018;
0162829860999992007081509004-09400-038217FM-15+0253SBUF V0201501N005110021019N0035001N1+02001+02001999999ADDGA1071+002101999GA2071+021001999GF107991999999999999999999MA1101801999999MW1101MW2611REMMET065METAR SBUF 150900Z 15010KT 3500 -RA BR BKN007 BKN070 20/20 Q1018;
0154829860999992007081510004-09400-038217FM-15+0253SBUF V0201401N005110030019N0080001N1+02001+02001999999ADDGA1071+003001999GA2071+021001999GF107991999999999999999999MA1101901999999MW1161REMMET063METAR SBUF 151000Z 14010KT 8000 VCSH BKN010 BKN070 20/20 Q1019;
0162829860999992007081511004-09400-038217FM-15+0253SBUF V0201301N003610036019N0050001N1+02001+02001999999ADDGA1071+003601999GA2071+021001999GF107991999999999999999999MA1101901999999MW1101MW2611REMMET065METAR SBUF 151100Z 13007KT 5000 -RA BR BKN012 BKN070 20/20 Q1019;
0297829860999992007081512004-09400-038217SY-MT+0253SBUF V0201801N00461004501CN0100001N1+02061+01991101881ADDAA124005191AY161061AY221061GA1071+004501999GA2071+021001999GF108991081071004501999999KA1240N+01821MA1102001098961MD1999999+0041MW1021REMSYN088AAXX  15124 82986 21497 81809 10206 20199 39896 40188 70262 887// 333 20182 58004 60054;MET058METAR SBUF 151200Z 14012KT 9999 BKN015 BKN070 22/21 Q1020;
0143829860999992007081513004-09400-038217FM-15+0253SBUF V0201401N007710045019N0112651N1+02401+02101999999ADDGA1071+004501999GA2071+021001999GF107991999999999999999999MA1102001999999REMMET058METAR SBUF 151300Z 14015KT 9999 BKN015 BKN070 24/21 Q1020;
0143829860999992007081514004-09400-038217FM-15+0253SBUF V0201101N005110210019N0112651N1+02201+01901999999ADDGA1041+004501999GA2071+021001999GF107991999999999999999999MA1102001999999REMMET058METAR SBUF 151400Z 11010KT 9999 SCT015 BKN070 22/19 Q1020;
0143829860999992007081515004-09400-038217FM-15+0253SBUF V0201401N007712200019N0112651N1+02301+01901999999ADDGA1041+005101999GA2041+021001999GF104991999999999999999999MA1101901999999REMMET058METAR SBUF 151500Z 14015KT 9999 SCT017 SCT070 23/19 Q1019;
0143829860999992007081517004-09400-038217FM-15+0253SBUF V0201401N005712200019N0112651N1+02401+01901999999ADDGA1041+005401999GA2041+021001999GF104991999999999999999999MA1101691999999REMMET058METAR SBUF 151700Z 14011KT 9999 SCT018 SCT070 24/19 Q1017;
0297829860999992007081518004-09400-038217SY-MT+0253SBUF V0201401N00511021001CN0200001N1+02351+01521101611ADDAA106000091AY151061AY221061GA1041+006001999GA2041+021001999GF106991031041004501071001MA1101691098701MD1999999+0101MW1021REMSYN082AAXX  15184 82986 21498 61410 10235 20152 39870 40161 70252 83470 333 58010 69901;MET058METAR SBUF 151800Z 13013KT 9999 SCT020 SCT070 25/18 Q1017;EQDQ01  00002PRCP06
0143829860999992007081519004-09400-038217FM-15+0253SBUF V0201401N005112200019N0112651N1+02501+01801999999ADDGA1041+006001999GA2041+021001999GF104991999999999999999999MA1101691999999REMMET058METAR SBUF 151900Z 14010KT 9999 SCT020 SCT070 25/18 Q1017;
0143829860999992007081520004-09400-038217FM-15+0253SBUF V0201301N006712200019N0112651N1+02401+01801999999ADDGA1021+006001999GA2041+021001999GF104991999999999999999999MA1101691999999REMMET058METAR SBUF 152000Z 13013KT 9999 FEW020 SCT070 24/18 Q1017;
0120829860999992007081521004-09400-038217FM-15+0253SBUF V0201301N003612200019N0112651N1+02401+01501999999ADDGA1021+005401999GF102991999999999999999999MA1101801999999REMMET051METAR SBUF 152100Z 13007KT 9999 FEW018 24/15 Q1018;
0120829860999992007081522004-09400-038217FM-15+0253SBUF V0201301N003612200019N0112651N1+02301+01501999999ADDGA1021+005401999GF102991999999999999999999MA1101801999999REMMET051METAR SBUF 152200Z 13007KT 9999 FEW018 23/15 Q1018;
0072829860999992007081523004-09400-038217FM-15+0253SBUF V0201401N00571220001CN0099001N1+02201+01601999999ADDMA1101901999999REMMET045METAR SBUF 152300Z 14011KT CAVOK 22/16 Q1019;
0072829860999992007081600004-09400-038217FM-15+0253SBUF V0201401N00261220001CN0099001N1+02101+01701999999ADDMA1101901999999REMMET045METAR SBUF 160000Z 14005KT CAVOK 21/17 Q1019;
0072829860999992007081601004-09400-038217FM-15+0253SBUF V0201601N00261220001CN0099001N1+02001+01701999999ADDMA1102001999999REMMET045METAR SBUF 160100Z 16005KT CAVOK 20/17 Q1020;
0192829860999992007081612004-09400-038217FM-12+0253SBUF V0200901N005110075019N0100001N1+02391+01801101801ADDAA124000091GF106991061041008001001001KA1240N+01831MA1999999098901MD1999999-0061REMSYN082AAXX  16124 82986 22597 60910 10239 20180 39890 40180 86400 333 20183 59006 69904;EQDQ01  00002PRCP24
0120829860999992007081613004-09400-038217FM-15+0253SBUF V0201301N007710051019N0112651N1+02401+02001999999ADDGA1071+005101999GF107991999999999999999999MA1101901999999REMMET051METAR SBUF 161300Z 13015KT 9999 BKN017 24/20 Q1019;
0120829860999992007081614004-09400-038217FM-15+0253SBUF V0201501N005110054019N0112651N1+02501+01901999999ADDGA1071+005401999GF107991999999999999999999MA1101901999999REMMET051METAR SBUF 161400Z 15010KT 9999 BKN018 25/19 Q1019;
0120829860999992007081615004-09400-038217FM-15+0253SBUF V0201501N005110054019N0112651N1+02701+01901999999ADDGA1071+005401999GF107991999999999999999999MA1101691999999REMMET051METAR SBUF 161500Z 15010KT 9999 BKN018 27/19 Q1017;
0120829860999992007081616004-09400-038217FM-15+0253SBUF V0201701N004612200019N0112651N1+02801+02001999999ADDGA1041+006001999GF104991999999999999999999MA1101591999999REMMET051METAR SBUF 161600Z 17009KT 9999 SCT020 28/20 Q1016;
0120829860999992007081617004-09400-038217FM-15+0253SBUF V0201401N002612200019N0112651N1+02801+02001999999ADDGA1041+006001999GF104991999999999999999999MA1101491999999REMMET051METAR SBUF 161700Z 14005KT 9999 SCT020 28/20 Q1015;
0137829860999992007081618004-09400-038217FM-12+0253SBUF V0200901N004610075019N0200001N1+02711+01511101491ADDGF106991061021008001001001MA1999999098611MD1999999-0091REMSYN070AAXX  16184 82986 32598 60909 10271 20151 39861 40149 86200 333 59009;
0168829860999992007081700004-09400-038217FM-12+0253SBUF V0201801N003612200019N0020001N1+02201+01941101661ADDGF103991031001012501051001KA1240M+02901MA1999999098771MD1999999-0141REMSYN088AAXX  17004 82986 32695 31807 10220 20194 39877 40166 83050 333 10290 29072 55093 59014;
0201829860999992007081712004-09400-038217FM-12+0253SBUF V0201401N005110075019N0100001N1+02241+01641101701ADDAA124002091AY161061AY221061GF106991061041008001001001KA1240N+01891MA1999999098801MD1999999-0101MW1021REMSYN088AAXX  17124 82986 21597 61410 10224 20164 39880 40170 70262 86400 333 20189 59010 60024;
0137829860999992007081718004-09400-038217FM-12+0253SBUF V0201401N005710075019N0200001N1+02701+01301101381ADDGF106991061051008001001001MA1999999098501MD1999999-0111REMSYN070AAXX  17184 82986 32598 61411 10270 20130 39850 40138 86500 333 59011;
0178829860999992007081800004-09400-038217FM-12+0253SBUF V0201801N004112200019N0020001N1+02061+01541101661ADDGA1001+999999999GF100991001001999999001001KA1240M+02731MA1999999098751MD1999999-0021REMSYN082AAXX  18004 82986 32995 01808 10206 20154 39875 40166 333 10273 29064 55058 59002;
0156829860999992007081812004-09400-038217FM-12+0253SBUF V0201401N006710075019N0100001N1+02281+01641101731ADDGF106991061041008001001001KA1240N+01541MA1999999098821MD1999999+0021REMSYN076AAXX  18124 82986 32597 61413 10228 20164 39882 40173 86400 333 20154 58002;
0137829860999992007081818004-09400-038217FM-12+0253SBUF V0201401N007712200019N0200001N1+02841+00921101331ADDGF102991021011008001001001MA1999999098441MD1999999-0061REMSYN070AAXX  18184 82986 32598 21415 10284 20092 39844 40133 82100 333 59006;
0178829860999992007081900004-09400-038217FM-12+0253SBUF V0201401N004612200019N0020001N1+02141+01821101701ADDGA1001+999999999GF100991001001999999001001KA1240M+02851MA1999999098801MD1999999+0051REMSYN082AAXX  19004 82986 32995 01409 10214 20182 39880 40170 333 10285 29065 55105 58005;
0156829860999992007081912004-09400-038217FM-12+0253SBUF V0200901N003110075019N0100001N1+02281+01771101851ADDGF106991061021008001001001KA1240N+01761MA1999999098941MD1999999+0121REMSYN076AAXX  19124 82986 32597 60906 10228 20177 39894 40185 86200 333 20176 58012;
0137829860999992007081918004-09400-038217FM-12+0253SBUF V0200901N005112200019N0200001N1+02861+01331101461ADDGF104991041021008001001001MA1999999098581MD1999999+0141REMSYN070AAXX  19184 82986 32598 40910 10286 20133 39858 40146 84200 333 58014;
0178829860999992007082000004-09400-038217FM-12+0253SBUF V0201801N004112200019N0020001N1+02141+01971101801ADDGA1001+999999999GF100991001001999999001001KA1240M+02891MA1999999098891MD1999999+0091REMSYN082AAXX  20004 82986 32995 01808 10214 20197 39889 40180 333 10289 29073 55099 58009;
0220829860999992007082012004-09400-038217FM-12+0253SBUF V0201401N003110042019N0100001N1+02261+02011101911ADDAA124000091AY151061AY221061GF108991081071004501999999KA1240N+01921MA1999999099001MD1999999+0061MW1021REMSYN088AAXX  20124 82986 21497 81406 10226 20201 39900 40191 70252 887// 333 20192 58006 69914;EQDQ01  00002PRCP24
0137829860999992007082018004-09400-038217FM-12+0253SBUF V0201401N005110042019N0200001N1+02661+01771101511ADDGF106991061041004501001001MA1999999098631MD1999999+0051REMSYN070AAXX  20184 82986 32498 61410 10266 20177 39863 40151 86400 333 58005;
0168829860999992007082100004-09400-038217FM-12+0253SBUF V0201801N005119999999N0020001N1+02241+01981101761ADDGF105991051001012501071001KA1240M+02801MA1999999098861MD1999999-0031REMSYN088AAXX  21004 82986 32695 51810 10224 20198 39886 40176 85070 333 10280 29078 55024 59003;
0201829860999992007082112004-09400-038217FM-12+0253SBUF V0201401N004110042019N0040001N1+02141+02141101841ADDAA124000891AY161061AY221061GF108991081071004501999999KA1240N+02001MA1999999098931MD1999999-0071MW1201REMSYN088AAXX  21124 82986 21496 81408 10214 20214 39893 40184 72062 887// 333 20200 59007 69984;
0165829860999992007082118004-09400-038217FM-12+0253SBUF V0200901N003110042019N0100001N1+02681+01761101481ADDAY121061AY221061GF106991061051004501001001MA1999999098601MD1999999-0031MW1151REMSYN076AAXX  21184 82986 31497 60906 10268 20176 39860 40148 71522 86500 333 59003;
0178829860999992007082200004-09400-038217FM-12+0253SBUF V0200901N003112200019N0020001N1+02231+01861101701ADDGA1001+999999999GF100991001001999999001001KA1240M+02741MA1999999098801MD1999999-0061REMSYN082AAXX  22004 82986 32995 00906 10223 20186 39880 40170 333 10274 29079 55013 59006;
0156829860999992007082212004-09400-038217FM-12+0253SBUF V0201401N003610075019N0100001N1+02311+01651101851ADDGF106991061041008001001001KA1240N+01801MA1999999098951MD1999999+0021REMSYN076AAXX  22124 82986 32597 61407 10231 20165 39895 40185 86400 333 20180 58002;
0137829860999992007082218004-09400-038217FM-12+0253SBUF V0201401N004110075019N0200001N1+02961+01341101301ADDGF105991051011008001001001MA1999999098441MD1999999-0161REMSYN070AAXX  22184 82986 32598 51408 10296 20134 39844 40130 85100 333 59016;
0168829860999992007082300004-09400-038217FM-12+0253SBUF V0201801N004610075019N0020001N1+02261+01901101611ADDGF105991051051008001001001KA1240M+03011MA1999999098721MD1999999-0081REMSYN088AAXX  23004 82986 32595 51809 10226 20190 39872 40161 85500 333 10301 29066 55100 59008;
0156829860999992007082312004-09400-038217FM-12+0253SBUF V0201401N004110075019N0100001N1+02311+01611101691ADDGF106991061041008001001001KA1240N+01771MA1999999098801MD1999999-0151REMSYN076AAXX  23124 82986 32597 61408 10231 20161 39880 40169 86400 333 20177 59015;
0137829860999992007082318004-09400-038217FM-12+0253SBUF V0200901N006210075019N0200001N1+02801+01601101271ADDGF106991061021008001001001MA1999999098401MD1999999-0041REMSYN070AAXX  23184 82986 32598 60912 10280 20160 39840 40127 86200 333 59004;
0168829860999992007082400004-09400-038217FM-12+0253SBUF V0201801N002612200019N0020001N1+02181+01971101561ADDGF104991031051008001041001KA1240M+02941MA1999999098671MD1999999-0051REMSYN088AAXX  24004 82986 32595 41805 10218 20197 39867 40156 83540 333 10294 29072 55078 59005;
0156829860999992007082412004-09400-038217FM-12+0253SBUF V0200901N006210075019N0100001N1+02421+01911101591ADDGF106991061071008001001001KA1240N+02031MA1999999098701MD1999999-0101REMSYN076AAXX  24124 82986 32597 60912 10242 20191 39870 40159 86700 333 20203 59010;
0137829860999992007082418004-09400-038217FM-12+0253SBUF V0201401N006210450019N0200001N1+02901+01401101211ADDGF106991041011008001071001MA1999999098351MD1999999-0051REMSYN070AAXX  24184 82986 32598 61412 10290 20140 39835 40121 84170 333 59005;
0168829860999992007082500004-09400-038217FM-12+0253SBUF V0200901N003110075019N0020001N1+02301+01681101521ADDGF105991051051008001001001KA1240M+02991MA1999999098641MD1999999-0031REMSYN088AAXX  25004 82986 32595 50906 10230 20168 39864 40152 85500 333 10299 29062 55076 59003;
0201829860999992007082512004-09400-038217FM-12+0253SBUF V0201401N005110042019N0040001N1+02281+02281101571ADDAA124001091AY161061AY261061GF108991081071004501999999KA1240N+02001MA1999999098681MD1999999-0021MW1151REMSYN088AAXX  25124 82986 21496 81410 10228 20228 39868 40157 71566 887// 333 20200 59002 69994;
0137829860999992007082518004-09400-038217FM-12+0253SBUF V0200901N005110075019N0200001N1+03001+01451101131ADDGF105991051021008001001001MA1999999098281MD1999999-0071REMSYN070AAXX  25184 82986 32598 50910 10300 20145 39828 40113 85200 333 59007;
0178829860999992007082600004-09400-038217FM-12+0253SBUF V0201801N005112200019N0020001N1+02341+02051101461ADDGA1001+999999999GF100991001001999999001001KA1240M+03031MA1999999098581MD1999999-0061REMSYN082AAXX  26004 82986 32995 01810 10234 20205 39858 40146 333 10303 29077 55053 59006;
0156829860999992007082612004-09400-038217FM-12+0253SBUF V0201401N003610075019N0100001N1+02381+01911101641ADDGF106991061041008001001001KA1240N+02021MA1999999098761MD1999999+0081REMSYN076AAXX  26124 82986 32597 61407 10238 20191 39876 40164 86400 333 20202 58008;
0137829860999992007082618004-09400-038217FM-12+0253SBUF V0200901N003612200019N0200001N1+03021+01301101191ADDGF104991031021008001021001MA1999999098351MD1999999+0071REMSYN070AAXX  26184 82986 32598 40907 10302 20130 39835 40119 83220 333 58007;
0178829860999992007082700004-09400-038217FM-12+0253SBUF V0201801N003112200019N0020001N1+02371+01891101541ADDGA1001+999999999GF100991001001999999001001KA1240M+03061MA1999999098661MD1999999+0081REMSYN082AAXX  27004 82986 32995 01806 10237 20189 39866 40154 333 10306 29065 55082 58008;
0156829860999992007082712004-09400-038217FM-12+0253SBUF V0200901N004610075019N0100001N1+02441+01901101681ADDGF106991061021008001001001KA1240N+02021MA1999999098811MD1999999+0051REMSYN076AAXX  27124 82986 32597 60909 10244 20190 39881 40168 86200 333 20202 58005;
0147829860999992007082718004-09400-038217FM-12+0253SBUF V0200901N004112200019N0200001N1+03111+01331101161ADDGA1001+999999999GF100991001001999999001001MA1999999098321MD1999999-0031REMSYN064AAXX  27184 82986 32998 00908 10311 20133 39832 40116 333 59003;
0178829860999992007082800004-09400-038217FM-12+0253SBUF V0201401N003112200019N0020001N1+02361+01691101501ADDGA1001+999999999GF100991001001999999001001KA1240M+03121MA1999999098631MD1999999-0031REMSYN082AAXX  28004 82986 32995 01406 10236 20169 39863 40150 333 10312 29060 55098 59003;
0156829860999992007082912004-09400-038217FM-12+0253SBUF V0200901N005710075019N0100001N1+02381+01631101891ADDGF106991061021008001001001KA1240N+01891MA1999999099001MD1999999+0271REMSYN076AAXX  29124 82986 32597 60911 10238 20163 39900 40189 86200 333 20189 58027;
0137829860999992007082918004-09400-038217FM-12+0253SBUF V0200901N005710075019N0200001N1+02901+01201101381ADDGF105991051011008001001001MA1999999098511MD1999999-0221REMSYN070AAXX  29184 82986 32598 50911 10290 20120 39851 40138 85100 333 59022;
0178829860999992007083000004-09400-038217FM-12+0253SBUF V0201801N003612200019N0020001N1+02221+01731101751ADDGA1001+999999999GF100991001001999999001001KA1240M+03031MA1999999098861MD1999999+0151REMSYN082AAXX  30004 82986 32995 01807 10222 20173 39886 40175 333 10303 29062 55101 58015;
0072829860999992007083002004-09400-038217FM-15+0253SBUF V0201501N00511220001CN0099001N1+02101+01901999999ADDMA1102001999999REMMET045METAR SBUF 300200Z 15010KT CAVOK 21/19 Q1020;
0201829860999992007083012004-09400-038217FM-12+0253SBUF V0201801N006710090019N0040001N1+02241+02171101901ADDAA124000021AY121061AY221061GF108991081081004501999999KA1240N+02001MA1999999099001MD1999999+0001MW1551REMSYN088AAXX  30124 82986 21496 81813 10224 20217 39900 40190 75522 888// 333 20200 58000 69914;
0137829860999992007083018004-09400-038217FM-12+0253SBUF V0201401N004610120019N0200001N1+02681+01861101571ADDGF107991071081008001999999MA1999999098691MD1999999+0181REMSYN070AAXX  30184 82986 32598 71409 10268 20186 39869 40157 878// 333 58018;
0168829860999992007083100004-09400-038217FM-12+0253SBUF V0201801N005110450019N0020001N1+02221+01901101811ADDGF106991031081004501021001KA1240M+02801MA1999999098911MD1999999+0051REMSYN088AAXX  31004 82986 32495 61810 10222 20190 39891 40181 83820 333 10280 29080 55027 58005;
0156829860999992007083112004-09400-038217FM-12+0253SBUF V0201401N005710075019N0100001N1+02501+01721101921ADDGF106991061021008001001001KA1240N+01981MA1999999099031MD1999999+0031REMSYN076AAXX  31124 82986 32597 61411 10250 20172 39903 40192 86200 333 20198 58003;
0120829860999992007083113004-09400-038217FM-15+0253SBUF V0201501N008210051019N0112651N1+02701+01901999999ADDGA1071+005101999GF107991999999999999999999MA1102101999999REMMET051METAR SBUF 311300Z 15016KT 9999 BKN017 27/19 Q1021;
0120829860999992007083114004-09400-038217FM-15+0253SBUF V0201201N006210054019N0112651N1+02801+01801999999ADDGA1071+005401999GF107991999999999999999999MA1102001999999REMMET051METAR SBUF 311400Z 12012KT 9999 BKN018 28/18 Q1020;
0120829860999992007083115004-09400-038217FM-15+0253SBUF V0201801N006212200019N0112651N1+02801+01801999999ADDGA1041+005401999GF104991999999999999999999MA1101901999999REMMET051METAR SBUF 311500Z 18012KT 9999 SCT018 28/18 Q1019;
0137829860999992007083118004-09400-038217FM-12+0253SBUF V0200901N005110075019N0200001N1+02921+01461101561ADDGF106991051021008001041001MA1999999098691MD1999999+0001REMSYN070AAXX  31184 82986 32598 60910 10292 20146 39869 40156 85240 333 58000;
0120829860999992007083122004-09400-038217FM-15+0253SBUF V0201101N002612200019N0112651N1+02301+02001999999ADDGA1041+005101999GF104991999999999999999999MA1101901999999REMMET051METAR SBUF 312200Z 11005KT 9999 SCT017 23/20 Q1019;
0120829860999992007083123004-09400-038217FM-15+0253SBUF V0201201N004112200019N0112651N1+02301+02001999999ADDGA1041+005101999GF104991999999999999999999MA1101901999999REMMET051METAR SBUF 312300Z 12008KT 9999 SCT017 23/20 Q1019;
0321829860999992007090100004-09400-038217SY-MT+0253SBUF V0201401N004112200019N0020001N1+02181+02151101861ADDAA106000091AY151061AY221061GA1041+004501999GF199999031001017501021001KA1240M+03011MA1102001098971MD1999999+0061MW1011REMSYN100AAXX  01004 82986 21795 31408 10218 20215 39897 40186 70152 83020 333 10301 29075 55094 58006 69911;MET051METAR SBUF 010000Z 12006KT 9999 SCT015 23/20 Q1020;EQDQ01+000032SCOTCVQ02  00002PRCP06
0120829860999992007090101004-09400-038217FM-15+0253SBUF V0201401N005112200019N0112651N1+02201+01901999999ADDGA1021+004501999GF102991999999999999999999MA1102001999999REMMET051METAR SBUF 010100Z 14010KT 9999 FEW015 22/19 Q1020;
0120829860999992007090102004-09400-038217FM-15+0253SBUF V0201301N003112200019N0112651N1+02201+02001999999ADDGA1041+004501999GF104991999999999999999999MA1102001999999REMMET051METAR SBUF 010200Z 13006KT 9999 SCT015 22/20 Q1020;
0152829860999992007090109004-09400-038217FM-15+0253SBUF V0201501N002610018019N0040001N1+01901+01901999999ADDGA1071+001801999GA2071+003001999GF107991999999999999999999MA1101901999999MW1101REMMET061METAR SBUF 010900Z 15005KT 4000 BR BKN006 BKN010 19/19 Q1019;
0152829860999992007090110004-09400-038217FM-15+0253SBUF V0201701N003110030019N0050001N1+02001+01901999999ADDGA1041+001801999GA2071+003001999GF107991999999999999999999MA1102001999999MW1101REMMET061METAR SBUF 011000Z 17006KT 5000 BR SCT006 BKN010 20/19 Q1020;
0297829860999992007090112004-09400-038217SY-MT+0253SBUF V0200901N005712200019N0100001N1+02441+01941101931ADDAA124000891AY151061AY221061GA1021+003601999GA2041+004801999GF106991061021008001001001KA1240N+02001MA1102101099031MD1999999+0001MW1011REMSYN088AAXX  01124 82986 21597 60911 10244 20194 39903 40193 70152 86200 333 20200 58000 69984;MET058METAR SBUF 011200Z 13008KT 9999 FEW012 SCT016 24/19 Q1021;
0120829860999992007090113004-09400-038217FM-15+0253SBUF V0201401N005712200019N0112651N1+02601+01901999999ADDGA1041+005401999GF104991999999999999999999MA1102101999999REMMET051METAR SBUF 011300Z 14011KT 9999 SCT018 26/19 Q1021;
0120829860999992007090114004-09400-038217FM-15+0253SBUF V0201501N007712200019N0112651N1+02701+01701999999ADDGA1041+005401999GF104991999999999999999999MA1102001999999REMMET051METAR SBUF 011400Z 15015KT 9999 SCT018 27/17 Q1020;
0120829860999992007090115004-09400-038217FM-15+0253SBUF V0201401N005710060019N0112651N1+03001+01601999999ADDGA1071+006001999GF107991999999999999999999MA1101901999999REMMET051METAR SBUF 011500Z 14011KT 9999 BKN020 30/16 Q1019;
0120829860999992007090116004-09400-038217FM-15+0253SBUF V0201401N004110060019N0112651N1+03101+01601999999ADDGA1071+006001999GF107991999999999999999999MA1101801999999REMMET051METAR SBUF 011600Z 14008KT 9999 BKN020 31/16 Q1018;
0143829860999992007090117004-09400-038217FM-15+0253SBUF V0201201N006210210019N0112651N1+02901+01801999999ADDGA1041+005401999GA2071+021001999GF107991999999999999999999MA1101801999999REMMET058METAR SBUF 011700Z 12012KT 9999 SCT018 BKN070 29/18 Q1018;
0280829860999992007090118004-09400-038217SY-MT+0253SBUF V0201401N00511021001CN0100001N1+02711+01471101621ADDAY121061AY221061GA1021+005401999GA2071+021001999GF199999031031008001071001MA1101801098741MD1999999+0051MW1151REMSYN076AAXX  01184 82986 31597 61410 10271 20147 39874 40162 71522 83370 333 58005;MET058METAR SBUF 011800Z 15010KT 9999 FEW018 BKN070 27/19 Q1018;EQDQ01+000062SCOTCV
0143829860999992007090119004-09400-038217FM-15+0253SBUF V0201001N004110210019N0112651N1+02601+01901999999ADDGA1041+004501999GA2071+021001999GF107991999999999999999999MA1101801999999REMMET058METAR SBUF 011900Z 10008KT 9999 SCT015 BKN070 26/19 Q1018;
0143829860999992007090120004-09400-038217FM-15+0253SBUF V0201401N004610210019N0112651N1+02501+01901999999ADDGA1041+004501999GA2071+021001999GF107991999999999999999999MA1101801999999REMMET058METAR SBUF 012000Z 14009KT 9999 SCT015 BKN070 25/19 Q1018;
0154829860999992007090121004-09400-038217FM-15+0253SBUF V0201601N003110210019N0080001N1+02201+02101999999ADDGA1041+003901999GA2071+021001999GF107991999999999999999999MA1101901999999MW1161REMMET063METAR SBUF 012100Z 16006KT 8000 VCSH SCT013 BKN070 22/21 Q1019;
0166829860999992007090122004-09400-038217FM-15+0253SBUF V0201401N00511004501CN0112651N1+02201+02101999999ADDGA1021+003601999GA2041+004501999GA3071+021001999GF107991999999999999999999MA1101901999999REMMET065METAR SBUF 012200Z 14010KT 9999 FEW012 SCT015 BKN070 22/21 Q1019;
0143829860999992007090123004-09400-038217FM-15+0253SBUF V0201501N004110210019N0112651N1+02201+02001999999ADDGA1041+004501999GA2071+021001999GF107991999999999999999999MA1102001999999REMMET058METAR SBUF 012300Z 15008KT 9999 SCT015 BKN070 22/20 Q1020;
0328829860999992007090200004-09400-038217SY-MT+0253SBUF V0201801N003110210019N0020001N1+02151+02091101881ADDAA106000591AY161061AY221061GA1041+003601999GA2071+021001999GF199999051001012501071001KA1240M+03011MA1102001098981MD1999999+0011MW1011REMSYN100AAXX  02004 82986 21695 51806 10215 20209 39898 40188 70162 85070 333 10301 29078 55057 58001 69961;MET058METAR SBUF 020000Z 13008KT 9999 SCT012 BKN070 22/20 Q1020;EQDQ01+000052SCOTCV
0143829860999992007090201004-09400-038217FM-15+0253SBUF V0201401N004110210019N0112651N1+02101+02001999999ADDGA1041+003601999GA2071+021001999GF107991999999999999999999MA1102101999999REMMET058METAR SBUF 020100Z 14008KT 9999 SCT012 BKN070 21/20 Q1021;
0153829860999992007090202004-09400-038217FM-15+0253SBUF V0201301N005110210019N0080001N1+02001+02001999999ADDGA1041+003601999GA2071+021001999GF107991999999999999999999MA1102101999999MW1611REMMET062METAR SBUF 020200Z 13010KT 8000 -RA SCT012 BKN070 20/20 Q1021;
0143829860999992007090209004-09400-038217FM-15+0253SBUF V0201301N004112200019N0112651N1+02101+02001999999ADDGA1021+003901999GA2041+021001999GF104991999999999999999999MA1102001999999REMMET058METAR SBUF 020900Z 13008KT 9999 FEW013 SCT070 21/20 Q1020;
0143829860999992007090210004-09400-038217FM-15+0253SBUF V0201501N003610210019N0112651N1+02201+02001999999ADDGA1041+003901999GA2071+021001999GF107991999999999999999999MA1102001999999REMMET058METAR SBUF 021000Z 15007KT 9999 SCT013 BKN070 22/20 Q1020;
0166829860999992007090211004-09400-038217FM-15+0253SBUF V0201401N00511004501CN0112651N1+02201+02001999999ADDGA1021+003901999GA2041+004501999GA3071+021001999GF107991999999999999999999MA1102101999999REMMET065METAR SBUF 021100Z 14010KT 9999 FEW013 SCT015 BKN070 22/20 Q1021;
0297829860999992007090212004-09400-038217SY-MT+0253SBUF V0201801N00411021001CN0040001N1+02221+02081102001ADDAA124001091AY161061AY221061GA1041+005101999GA2071+021001999GF108991081071004501999999KA1240N+01981MA1102101099091MD1999999+0061MW1201REMSYN088AAXX  02124 82986 21496 81808 10222 20208 39909 40200 72062 887// 333 20198 58006 60014;MET058METAR SBUF 021200Z 13012KT 9999 SCT017 BKN070 24/18 Q1021;
0166829860999992007090213004-09400-038217FM-15+0253SBUF V0201301N00511005401CN0112651N1+02501+01801999999ADDGA1021+005101999GA2041+005401999GA3071+021001999GF107991999999999999999999MA1102101999999REMMET065METAR SBUF 021300Z 13010KT 9999 FEW017 SCT018 BKN070 25/18 Q1021;
0143829860999992007090214004-09400-038217FM-15+0253SBUF V0201001N003610210019N0112651N1+02501+01801999999ADDGA1041+005101999GA2071+021001999GF107991999999999999999999MA1102101999999REMMET058METAR SBUF 021400Z 10007KT 9999 SCT017 BKN070 25/18 Q1021;
0143829860999992007090215004-09400-038217FM-15+0253SBUF V0201101N005110210019N0112651N1+02601+01801999999ADDGA1041+005101999GA2071+021001999GF107991999999999999999999MA1102001999999REMMET058METAR SBUF 021500Z 11010KT 9999 SCT017 BKN070 26/18 Q1020;
0143829860999992007090216004-09400-038217FM-15+0253SBUF V0201401N005110210019N0112651N1+02801+01701999999ADDGA1041+005101999GA2071+021001999GF107991999999999999999999MA1101901999999REMMET058METAR SBUF 021600Z 14010KT 9999 SCT017 BKN070 28/17 Q1019;
0169829860999992007090217004-09400-038217FM-15+0253SBUF V0201401N004610210019N0112651N1+02901+01801999999ADDGA1021+005101999GA2021+007501021GA3071+021001999GF107991999999999999999999MA1101801999999REMMET068METAR SBUF 021700Z 14009KT 9999 FEW017 FEW025TCU BKN070 29/18 Q1018;
0233829860999992007090218004-09400-038217SY-MT+0253SBUF V0200901N00461021001CN0200001N1+02761+01621101611ADDGA1021+005101999GA2041+021001999GF105991051031008001001001MA1101801098731MD1999999-0011REMSYN070AAXX  02184 82986 32598 50909 10276 20162 39873 40161 85300 333 59001;MET058METAR SBUF 021800Z 13008KT 9999 FEW017 SCT070 27/19 Q1018;
0120829860999992007090219004-09400-038217FM-15+0253SBUF V0201101N007712200019N0112651N1+02801+01701999999ADDGA1041+005401999GF104991999999999999999999MA1101801999999REMMET051METAR SBUF 021900Z 11015KT 9999 SCT018 28/17 Q1018;
0120829860999992007090220004-09400-038217FM-15+0253SBUF V0201301N003112200019N0112651N1+02701+01701999999ADDGA1021+005401999GF102991999999999999999999MA1101801999999REMMET051METAR SBUF 022000Z 13006KT 9999 FEW018 27/17 Q1018;
0120829860999992007090221004-09400-038217FM-15+0253SBUF V0201501N004112200019N0112651N1+02601+01801999999ADDGA1021+005401999GF102991999999999999999999MA1101801999999REMMET051METAR SBUF 022100Z 15008KT 9999 FEW018 26/18 Q1018;
0072829860999992007090222004-09400-038217FM-15+0253SBUF V0201401N00571220001CN0099001N1+02501+01901999999ADDMA1101901999999REMMET045METAR SBUF 022200Z 14011KT CAVOK 25/19 Q1019;
0072829860999992007090223004-09400-038217FM-15+0253SBUF V0201501N00411220001CN0099001N1+02401+02001999999ADDMA1102001999999REMMET045METAR SBUF 022300Z 15008KT CAVOK 24/20 Q1020;
0213829860999992007090300004-09400-038217SY-MT+0253SBUF V0200901N003112200019N0020001N1+02181+01541101911ADDGF100991001001999999001001KA1240M+02901MA1102001099001MD1999999+0021REMSYN082AAXX  03004 82986 32995 00906 10218 20154 39900 40191 333 10290 29069 55041 58002;MET045METAR SBUF 030000Z 14008KT CAVOK 23/20 Q1020;
0072829860999992007090301004-09400-038217FM-15+0253SBUF V0201501N00261220001CN0099001N1+02201+02101999999ADDMA1102101999999REMMET045METAR SBUF 030100Z 15005KT CAVOK 22/21 Q1021;
0072829860999992007090302004-09400-038217FM-15+0253SBUF V0201801N00261220001CN0099001N1+02101+02101999999ADDMA1102001999999REMMET045METAR SBUF 030200Z 18005KT CAVOK 21/21 Q1020;
0120829860999992007090309004-09400-038217FM-15+0253SBUF V0201701N001510030019N0112651N1+01801+01801999999ADDGA1071+003001999GF107991999999999999999999MA1102001999999REMMET051METAR SBUF 030900Z 17003KT 9999 BKN010 18/18 Q1020;
0143829860999992007090310004-09400-038217FM-15+0253SBUF V0201001N002110045019N0112651N1+02001+01801999999ADDGA1021+003001999GA2071+004501999GF107991999999999999999999MA1102001999999REMMET058METAR SBUF 031000Z 10004KT 9999 FEW010 BKN015 20/18 Q1020;
0143829860999992007090311004-09400-038217FM-15+0253SBUF V0201401N002612200019N0112651N1+02101+01901999999ADDGA1041+004501999GA2041+021001999GF104991999999999999999999MA1102101999999REMMET058METAR SBUF 031100Z 14005KT 9999 SCT015 SCT070 21/19 Q1021;
0285829860999992007090312004-09400-038217SY-MT+0253SBUF V0200901N00311004501CN0100001N1+02361+01831101951ADDAY121061AY221061GA1071+004501999GA2071+021001999GF108991081071004501999999KA1240N+01761MA1102101099051MD1999999-0041MW1151REMSYN082AAXX  03124 82986 31497 80906 10236 20183 39905 40195 71522 887// 333 20176 59004;MET063METAR SBUF 031200Z 13008KT 8000 VCSH BKN015 BKN070 24/19 Q1021;
0150829860999992007090313004-09400-038217FM-15+0253SBUF V0201201N004112200019N0080001N1+02401+02001999999ADDGA1041+004501999GA2021+006001021MA1102101999999MW1161REMMET066METAR SBUF 031300Z 12008KT 8000 VCSH SCT015 FEW020TCU 24/20 Q1021;EQDQ01+000022SCOTCV
0143829860999992007090314004-09400-038217FM-15+0253SBUF V0201101N003612200019N0112651N1+02701+01901999999ADDGA1021+004501999GA2041+005401999GF104991999999999999999999MA1102001999999REMMET058METAR SBUF 031400Z 11007KT 9999 FEW015 SCT018 27/19 Q1020;
0143829860999992007090315004-09400-038217FM-15+0253SBUF V0201601N005112200019N0112651N1+02801+01901999999ADDGA1021+004501999GA2041+005401999GF104991999999999999999999MA1101901999999REMMET058METAR SBUF 031500Z 16010KT 9999 FEW015 SCT018 28/19 Q1019;
0143829860999992007090316004-09400-038217FM-15+0253SBUF V0201801N007210054019N0112651N1+02701+01901999999ADDGA1041+004501999GA2071+005401999GF107991999999999999999999MA1101901999999REMMET058METAR SBUF 031600Z 18014KT 9999 SCT015 BKN018 27/19 Q1019;
0143829860999992007090317004-09400-038217FM-15+0253SBUF V0202001N008212200019N0112651N1+02501+02001999999ADDGA1021+003601999GA2041+005401999GF104991999999999999999999MA1101901999999REMMET058METAR SBUF 031700Z 20016KT 9999 FEW012 SCT018 25/20 Q1019;
0278829860999992007090318004-09400-038217SY-MT+0253SBUF V0201801N00571021001CN0200001N1+02181+02131101781ADDAA106003091AY161061AY261061GA1041+005401999GA2071+021001999GF108991061081004501071999MA1101901098861MD1999999+0131MW1021REMSYN082AAXX  03184 82986 21498 81811 10218 20213 39886 40178 70266 8687/ 333 58013 60031;MET058METAR SBUF 031800Z 14012KT 9999 SCT018 BKN070 24/20 Q1019;
0176829860999992007090319004-09400-038217FM-15+0253SBUF V0201401N007210036019N0050001N1+02301+02201999999ADDGA1041+003001999GA2071+003601999GA3071+021001999GF107991999999999999999999MA1101901999999MW1611REMMET069METAR SBUF 031900Z 14014KT 5000 -RA SCT010 BKN012 BKN070 23/22 Q1019;
0177829860999992007090320004-09400-038217FM-15+0253SBUF V0201801N005110036019N0080001N1+02101+02101999999ADDGA1041+003001999GA2071+003601999GA3071+021001999GF107991999999999999999999MA1101901999999MW1161REMMET070METAR SBUF 032000Z 18010KT 8000 VCSH SCT010 BKN012 BKN070 21/21 Q1019;
0166829860999992007090321004-09400-038217FM-15+0253SBUF V0201301N00511003601CN0112651N1+02201+02001999999ADDGA1041+003001999GA2041+003601999GA3071+021001999GF107991999999999999999999MA1102001999999REMMET065METAR SBUF 032100Z 13010KT 9999 SCT010 SCT012 BKN070 22/20 Q1020;
0143829860999992007090322004-09400-038217FM-15+0253SBUF V0201201N003610210019N0112651N1+02101+02001999999ADDGA1041+002401999GA2071+021001999GF107991999999999999999999MA1102001999999REMMET058METAR SBUF 032200Z 12007KT 9999 SCT008 BKN070 21/20 Q1020;
0143829860999992007090323004-09400-038217FM-15+0253SBUF V0201301N003112200019N0112651N1+02101+02001999999ADDGA1041+002101999GA2041+021001999GF104991999999999999999999MA1102101999999REMMET058METAR SBUF 032300Z 13006KT 9999 SCT007 SCT070 21/20 Q1021;
0309829860999992007090400004-09400-038217SY-MT+0253SBUF V0201801N00461021001CN0020001N1+02101+02071101971ADDAA106000021AY151061AY221061GA1041+002101999GA2041+021001999GF108991081071004501999999KA1240M+02891MA1102101099061MD1999999+0061MW1021REMSYN100AAXX  04004 82986 21495 81809 10210 20207 39906 40197 70252 887// 333 10289 29086 55038 58006 69901;MET058METAR SBUF 040000Z 13008KT 9999 SCT007 SCT070 21/20 Q1021;
0143829860999992007090401004-09400-038217FM-15+0253SBUF V0201501N003112200019N0112651N1+02101+02001999999ADDGA1041+002101999GA2041+021001999GF104991999999999999999999MA1102101999999REMMET058METAR SBUF 040100Z 15006KT 9999 SCT007 SCT070 21/20 Q1021;
0143829860999992007090402004-09400-038217FM-15+0253SBUF V0201401N003112200019N0112651N1+02101+02001999999ADDGA1041+001801999GA2041+021001999GF104991999999999999999999MA1102101999999REMMET058METAR SBUF 040200Z 14006KT 9999 SCT006 SCT070 21/20 Q1021;
0166829860999992007090409004-09400-038217FM-15+0253SBUF V0201701N001510036019N0112651N1+02001+01901999999ADDGA1021+002101999GA2071+003601999GA3071+021001999GF107991999999999999999999MA1102001999999REMMET065METAR SBUF 040900Z 17003KT 9999 FEW007 BKN012 BKN070 20/19 Q1020;
0154829860999992007090410004-09400-038217FM-15+0253SBUF V0201501N002110030019N0080001N1+02101+02001999999ADDGA1071+003001999GA2071+021001999GF107991999999999999999999MA1102001999999MW1161REMMET063METAR SBUF 041000Z 15004KT 8000 VCSH BKN010 BKN070 21/20 Q1020;
0143829860999992007090411004-09400-038217FM-15+0253SBUF V0201801N002610210019N0112651N1+02201+02101999999ADDGA1041+003901999GA2071+021001999GF107991999999999999999999MA1102101999999REMMET058METAR SBUF 041100Z 18005KT 9999 SCT013 BKN070 22/21 Q1021;
0310829860999992007090412004-09400-038217SY-MT+0253SBUF V0201801N00311003601CN0020001N1+02251+02011102031ADDAA124003091AY161061AY251061GA1071+003601999GA2071+021001999GF108991081081004501999999KA1240N+01921MA1102101099121MD1999999+0071MW1031MW2101REMSYN088AAXX  04124 82986 21495 81806 10225 20201 39912 40203 70365 888// 333 20192 58007 60034;MET065METAR SBUF 041200Z 15009KT 4000 -RA BR BKN012 BKN070 22/21 Q1021;
0152829860999992007090413004-09400-038217FM-15+0253SBUF V0201501N005710036019N0040001N1+02401+02101999999ADDGA1071+003601999GA2071+021001999GF107991999999999999999999MA1102101999999MW1101REMMET061METAR SBUF 041300Z 15011KT 4000 BR BKN012 BKN070 24/21 Q1021;
0143829860999992007090415004-09400-038217FM-15+0253SBUF V0201501N004610030019N0112651N1+02601+02101999999ADDGA1071+003001999GA2071+021001999GF107991999999999999999999MA1102001999999REMMET058METAR SBUF 041500Z 15009KT 9999 BKN010 BKN070 26/21 Q1020;
0143829860999992007090416004-09400-038217FM-15+0253SBUF V0201501N005112200019N0112651N1+02601+02101999999ADDGA1041+003601999GA2041+021001999GF104991999999999999999999MA1101901999999REMMET058METAR SBUF 041600Z 15010KT 9999 SCT012 SCT070 26/21 Q1019;
0143829860999992007090417004-09400-038217FM-15+0253SBUF V0201501N004612200019N0112651N1+02301+02201999999ADDGA1041+003601999GA2041+021001999GF104991999999999999999999MA1101801999999REMMET058METAR SBUF 041700Z 15009KT 9999 SCT012 SCT070 23/22 Q1018;
0278829860999992007090418004-09400-038217SY-MT+0253SBUF V0201401N00621021001CN0100001N1+02531+02051101661ADDAA106000891AY161061AY261061GA1041+003001999GA2041+021001999GF107991061081004501081001MA1101801098761MD1999999-0101MW1151REMSYN082AAXX  04184 82986 21497 71412 10253 20205 39876 40166 71566 86880 333 59010 69971;MET058METAR SBUF 041800Z 15010KT 9999 SCT010 SCT070 23/21 Q1018;
0153829860999992007090419004-09400-038217FM-15+0253SBUF V0201601N004112200019N0070001N1+02301+02101999999ADDGA1041+002401999GA2041+021001999GF104991999999999999999999MA1101801999999MW1611REMMET062METAR SBUF 041900Z 16008KT 7000 -RA SCT008 SCT070 23/21 Q1018;
0143829860999992007090420004-09400-038217FM-15+0253SBUF V0201501N004110210019N0112651N1+02201+02101999999ADDGA1041+003001999GA2071+021001999GF107991999999999999999999MA1101901999999REMMET058METAR SBUF 042000Z 15008KT 9999 SCT010 BKN070 22/21 Q1019;
0143829860999992007090421004-09400-038217FM-15+0253SBUF V0201201N004110210019N0112651N1+02201+02101999999ADDGA1041+003001999GA2071+021001999GF107991999999999999999999MA1101901999999REMMET058METAR SBUF 042100Z 12008KT 9999 SCT010 BKN070 22/21 Q1019;
0143829860999992007090422004-09400-038217FM-15+0253SBUF V0201401N004110210019N0112651N1+02201+02001999999ADDGA1021+003001999GA2071+021001999GF107991999999999999999999MA1102001999999REMMET058METAR SBUF 042200Z 14008KT 9999 FEW010 BKN070 22/20 Q1020;
0143829860999992007090423004-09400-038217FM-15+0253SBUF V0201501N002610210019N0112651N1+02201+02001999999ADDGA1021+003001999GA2071+021001999GF107991999999999999999999MA1102101999999REMMET058METAR SBUF 042300Z 15005KT 9999 FEW010 BKN070 22/20 Q1021;
0309829860999992007090500004-09400-038217SY-MT+0253SBUF V0201801N003110210019N0020001N1+02181+02151101951ADDAA106001091AY161061AY261061GA1021+003001999GA2071+021001999GF108991081071002501999999KA1240M+02791MA1102101099041MD1999999-0021MW1021REMSYN100AAXX  05004 82986 21395 81806 10218 20215 39904 40195 70266 887// 333 10279 29090 55025 59002 60011;MET058METAR SBUF 050000Z 15008KT 9999 FEW010 BKN070 22/20 Q1021;
0143829860999992007090501004-09400-038217FM-15+0253SBUF V0201501N005110210019N0112651N1+02201+02001999999ADDGA1021+003001999GA2071+021001999GF107991999999999999999999MA1102101999999REMMET058METAR SBUF 050100Z 15010KT 9999 FEW010 BKN070 22/20 Q1021;
0166829860999992007090502004-09400-038217FM-15+0253SBUF V0201301N00311003001CN0112651N1+02201+02001999999ADDGA1021+002701999GA2041+003001999GA3071+021001999GF107991999999999999999999MA1102101999999REMMET065METAR SBUF 050200Z 13006KT 9999 FEW009 SCT010 BKN070 22/20 Q1021;
0201829860999992007090512004-09400-038217FM-12+0253SBUF V0201401N005110042019N0100001N1+02451+01901102001ADDAA124002091AY151061AY221061GF106991061021004501001001KA1240N+02061MA1999999099101MD1999999-0021MW1021REMSYN088AAXX  05124 82986 21497 61410 10245 20190 39910 40200 70252 86200 333 20206 59002 60024;
0137829860999992007090518004-09400-038217FM-12+0253SBUF V0201401N006710450019N0200001N1+02821+01331101631ADDGF106991031011008001071001MA1999999098761MD1999999+0001REMSYN070AAXX  05184 82986 32598 61413 10282 20133 39876 40163 83170 333 58000;
0178829860999992007090600004-09400-038217FM-12+0253SBUF V0201801N004112200019N0020001N1+02181+01921101981ADDGA1001+999999999GF100991001001999999001001KA1240M+02951MA1999999099081MD1999999+0041REMSYN082AAXX  06004 82986 32995 01808 10218 20192 39908 40198 333 10295 29070 55077 58004;
0153829860999992007090602004-09400-038217FM-15+0253SBUF V0201201N002610210019N0060001N1+02101+02001999999ADDGA1041+003601999GA2071+021001999GF107991999999999999999999MA1102101999999MW1611REMMET062METAR SBUF 060200Z 12005KT 6000 -RA SCT012 BKN070 21/20 Q1021;
0146829860999992007090609004-09400-038217FM-15+0253SBUF V0201401N00411220001CN0050001N1+02101+01901999999ADDGA1071+002101999GA2041+021001999MA1102101999999MW1611REMMET062METAR SBUF 060900Z 14008KT 5000 -RA BKN007 SCT070 21/19 Q1021;EQDQ01+000042SCOTCV
0143829860999992007090610004-09400-038217FM-15+0253SBUF V0201401N006210021019N0112651N1+02101+02001999999ADDGA1071+002101999GA2071+021001999GF107991999999999999999999MA1102101999999REMMET058METAR SBUF 061000Z 14012KT 9999 BKN007 BKN070 21/20 Q1021;
0143829860999992007090611004-09400-038217FM-15+0253SBUF V0201501N004610021019N0112651N1+02101+02001999999ADDGA1071+002101999GA2071+021001999GF107991999999999999999999MA1102101999999REMMET058METAR SBUF 061100Z 15009KT 9999 BKN007 BKN070 21/20 Q1021;
0201829860999992007090612004-09400-038217FM-12+0253SBUF V0200901N005710021019N0020001N1+02261+02181102011ADDAA124001091AY161061AY261061GF108991081071002501999999KA1240N+01981MA1999999099101MD1999999+0001MW1501REMSYN088AAXX  06124 82986 21395 80911 10226 20218 39910 40201 75066 887// 333 20198 58000 60014;
0153829860999992007090613004-09400-038217FM-15+0253SBUF V0201401N006210024019N0080001N1+02301+02001999999ADDGA1071+002401999GA2071+021001999GF107991999999999999999999MA1102101999999MW1611REMMET062METAR SBUF 061300Z 14012KT 8000 -RA BKN008 BKN070 23/20 Q1021;
0143829860999992007090614004-09400-038217FM-15+0253SBUF V0201501N005110024019N0112651N1+02401+02101999999ADDGA1071+002401999GA2071+021001999GF107991999999999999999999MA1102101999999REMMET058METAR SBUF 061400Z 15010KT 9999 BKN008 BKN070 24/21 Q1021;
0143829860999992007090615004-09400-038217FM-15+0253SBUF V0201401N006210024019N0112651N1+02501+02101999999ADDGA1071+002401999GA2071+021001999GF107991999999999999999999MA1102001999999REMMET058METAR SBUF 061500Z 14012KT 9999 BKN008 BKN070 25/21 Q1020;
0143829860999992007090616004-09400-038217FM-15+0253SBUF V0201301N004110024019N0112651N1+02401+02201999999ADDGA1071+002401999GA2071+021001999GF107991999999999999999999MA1101901999999REMMET058METAR SBUF 061600Z 13008KT 9999 BKN008 BKN070 24/22 Q1019;
0143829860999992007090617004-09400-038217FM-15+0253SBUF V0201501N005712200019N0112651N1+02601+02001999999ADDGA1041+003001999GA2041+021001999GF104991999999999999999999MA1101801999999REMMET058METAR SBUF 061700Z 15011KT 9999 SCT010 SCT070 26/20 Q1018;
0255829860999992007090618004-09400-038217SY-MT+0253SBUF V0201401N005710075019N0200001N1+02881+01182101571ADDAA106000021AY151061AY221061GA1021+003601999GF105991051011008001001001MA1101691098711MD1999999-0051MW1011REMSYN082AAXX  06184 82986 21598 51411 10288 20118 39871 40157 70152 85100 333 59005 69911;MET051METAR SBUF 061800Z 12015KT 9999 FEW012 29/16 Q1017;
0120829860999992007090619004-09400-038217FM-15+0253SBUF V0201401N007212200019N0112651N1+02901+01501999999ADDGA1021+003601999GF102991999999999999999999MA1101691999999REMMET051METAR SBUF 061900Z 14014KT 9999 FEW012 29/15 Q1017;
0120829860999992007090620004-09400-038217FM-15+0253SBUF V0201501N005112200019N0112651N1+02701+01601999999ADDGA1021+003601999GF102991999999999999999999MA1101801999999REMMET051METAR SBUF 062000Z 15010KT 9999 FEW012 27/16 Q1018;
0120829860999992007090621004-09400-038217FM-15+0253SBUF V0201501N005112200019N0112651N1+02601+01701999999ADDGA1021+004501999GF102991999999999999999999MA1101801999999REMMET051METAR SBUF 062100Z 15010KT 9999 FEW015 26/17 Q1018;
0072829860999992007090622004-09400-038217FM-15+0253SBUF V0201401N00311220001CN0099001N1+02401+01701999999ADDMA1101901999999REMMET045METAR SBUF 062200Z 14006KT CAVOK 24/17 Q1019;
0072829860999992007090623004-09400-038217FM-15+0253SBUF V0201401N00211220001CN0099001N1+02201+01701999999ADDMA1102001999999REMMET045METAR SBUF 062300Z 14004KT CAVOK 22/17 Q1020;
0213829860999992007090700004-09400-038217SY-MT+0253SBUF V0201801N003112200019N0020001N1+02181+01591101911ADDGF100991001001999999001001KA1240M+02911MA1102001099001MD1999999-0081REMSYN082AAXX  07004 82986 32995 01806 10218 20159 39900 40191 333 10291 29067 55047 59008;MET045METAR SBUF 070000Z 14008KT CAVOK 22/18 Q1020;
0120829860999992007090701004-09400-038217FM-15+0253SBUF V0201501N002112200019N0112651N1+02101+01801999999ADDGA1021+004501999GF102991999999999999999999MA1102001999999REMMET051METAR SBUF 070100Z 15004KT 9999 FEW015 21/18 Q1020;
0120829860999992007090702004-09400-038217FM-15+0253SBUF V0201201N001512200019N0112651N1+02101+01901999999ADDGA1041+004501999GF104991999999999999999999MA1102001999999REMMET051METAR SBUF 070200Z 12003KT 9999 SCT015 21/19 Q1020;
0162829860999992007090709004-09400-038217FM-15+0253SBUF V0201301N004110210019N0040001N1+02101+02001999999ADDGA1041+003901999GA2071+021001999GF107991999999999999999999MA1101901999999MW1101MW2611REMMET065METAR SBUF 070900Z 13008KT 4000 -RA BR SCT013 BKN070 21/20 Q1019;
0175829860999992007090710004-09400-038217FM-15+0253SBUF V0201301N00361004501CN0050001N1+02201+02001999999ADDGA1021+003901999GA2041+004501999GA3071+021001999GF107991999999999999999999MA1101901999999MW1101REMMET068METAR SBUF 071000Z 13007KT 5000 BR FEW013 SCT015 BKN070 22/20 Q1019;
0143829860999992007090711004-09400-038217FM-15+0253SBUF V0201301N006712200019N0112651N1+02201+02001999999ADDGA1021+004501999GA2041+021001999GF104991999999999999999999MA1102001999999REMMET058METAR SBUF 071100Z 13013KT 9999 FEW015 SCT070 22/20 Q1020;
0274829860999992007090712004-09400-038217SY-MT+0253SBUF V0201401N005710450019N0040001N1+02341+02001101901ADDAA124001091AY161061AY221061GA1041+005101999GF106991021021008001071001KA1240N+01981MA1102001099001MD1999999-0101MW1031REMSYN088AAXX  07124 82986 21596 61411 10234 20200 39900 40190 70362 82270 333 20198 59010 60014;MET051METAR SBUF 071200Z 13008KT 9999 SCT017 24/21 Q1020;
0143829860999992007090713004-09400-038217FM-15+0253SBUF V0201301N007712200019N0112651N1+02501+01901999999ADDGA1021+005101999GA2041+021001999GF104991999999999999999999MA1102001999999REMMET058METAR SBUF 071300Z 13015KT 9999 FEW017 SCT070 25/19 Q1020;
0166829860999992007090714004-09400-038217FM-15+0253SBUF V0201001N00621005401CN0112651N1+02701+02001999999ADDGA1021+005101999GA2041+005401999GA3071+021001999GF107991999999999999999999MA1101901999999REMMET065METAR SBUF 071400Z 10012KT 9999 FEW017 SCT018 BKN070 27/20 Q1019;
0143829860999992007090715004-09400-038217FM-15+0253SBUF V0201401N004110210019N0112651N1+02801+01901999999ADDGA1041+005101999GA2071+021001999GF107991999999999999999999MA1101801999999REMMET058METAR SBUF 071500Z 14008KT 9999 SCT017 BKN070 28/19 Q1018;
0143829860999992007090716004-09400-038217FM-15+0253SBUF V0201501N005110210019N0112651N1+02901+01801999999ADDGA1041+005401999GA2071+021001999GF107991999999999999999999MA1101691999999REMMET058METAR SBUF 071600Z 15010KT 9999 SCT018 BKN070 29/18 Q1017;
0143829860999992007090717004-09400-038217FM-15+0253SBUF V0201301N007710210019N0112651N1+02801+01801999999ADDGA1041+005101999GA2071+021001999GF107991999999999999999999MA1101691999999REMMET058METAR SBUF 071700Z 13015KT 9999 SCT017 BKN070 28/18 Q1017;
0233829860999992007090718004-09400-038217SY-MT+0253SBUF V0201401N00621021001CN0200001N1+02871+01331101511ADDGA1021+005101999GA2071+021001999GF199999061051008001001001MA1101691098651MD1999999-0061REMSYN070AAXX  07184 82986 32598 61412 10287 20133 39865 40151 86500 333 59006;MET058METAR SBUF 071800Z 15011KT 9999 FEW017 BKN070 29/17 Q1017;
0143829860999992007090719004-09400-038217FM-15+0253SBUF V0201601N006710240019N0112651N1+02701+01701999999ADDGA1021+005101999GA2071+024001999GF107991999999999999999999MA1101691999999REMMET058METAR SBUF 071900Z 16013KT 9999 FEW017 BKN080 27/17 Q1017;
0143829860999992007090720004-09400-038217FM-15+0253SBUF V0201601N005110240019N0112651N1+02701+01601999999ADDGA1021+005101999GA2071+024001999GF107991999999999999999999MA1101691999999REMMET058METAR SBUF 072000Z 16010KT 9999 FEW017 BKN080 27/16 Q1017;
0072829860999992007090721004-09400-038217FM-15+0253SBUF V0201501N00621220001CN0099001N1+02501+01701999999ADDMA1101801999999REMMET045METAR SBUF 072100Z 15012KT CAVOK 25/17 Q1018;
0072829860999992007090722004-09400-038217FM-15+0253SBUF V0201601N00361220001CN0099001N1+02501+01701999999ADDMA1101901999999REMMET045METAR SBUF 072200Z 16007KT CAVOK 25/17 Q1019;
0072829860999992007090723004-09400-038217FM-15+0253SBUF V0201401N00461220001CN0099001N1+02401+01701999999ADDMA1101901999999REMMET045METAR SBUF 072300Z 14009KT CAVOK 24/17 Q1019;
0213829860999992007090800004-09400-038217SY-MT+0253SBUF V0201801N003112200019N0020001N1+02331+01421101831ADDGF100991001001999999001001KA1240M+02901MA1102001098941MD1999999-0061REMSYN082AAXX  08004 82986 32595 01806 10233 20142 39894 40183 333 10290 29058 55035 59006;MET045METAR SBUF 080000Z 13012KT CAVOK 23/18 Q1020;
0072829860999992007090801004-09400-038217FM-15+0253SBUF V0201501N00411220001CN0099001N1+02201+02001999999ADDMA1102001999999REMMET045METAR SBUF 080100Z 15008KT CAVOK 22/20 Q1020;
0072829860999992007090802004-09400-038217FM-15+0253SBUF V0201501N00311220001CN0099001N1+02001+02001999999ADDMA1102001999999REMMET045METAR SBUF 080200Z 15006KT CAVOK 20/20 Q1020;
0120829860999992007090809004-09400-038217FM-15+0253SBUF V0201601N001512200019N0112651N1+01901+01801999999ADDGA1041+003601999GF104991999999999999999999MA1101901999999REMMET051METAR SBUF 080900Z 16003KT 9999 SCT012 19/18 Q1019;
0120829860999992007090810004-09400-038217FM-15+0253SBUF V0201601N001512200019N0112651N1+02001+01801999999ADDGA1041+003601999GF104991999999999999999999MA1102001999999REMMET051METAR SBUF 081000Z 16003KT 9999 SCT012 20/18 Q1020;
0120829860999992007090811004-09400-038217FM-15+0253SBUF V0201601N002112200019N0112651N1+02201+01801999999ADDGA1041+004501999GF104991999999999999999999MA1102001999999REMMET051METAR SBUF 081100Z 16004KT 9999 SCT015 22/18 Q1020;
0229829860999992007090812004-09400-038217SY-MT+0253SBUF V0201801N00261005101CN0100001N1+02401+01681101891ADDGA1071+005101999GF199999061041008001001001KA1240N+01861MA1102001099001MD1999999+0001REMSYN076AAXX  08124 82986 32597 61805 10240 20168 39900 40189 86400 333 20186 58000;MET051METAR SBUF 081200Z 13005KT 9999 BKN017 24/19 Q1020;
0120829860999992007090813004-09400-038217FM-15+0253SBUF V0201501N004612200019N0112651N1+02601+01801999999ADDGA1041+005401999GF104991999999999999999999MA1102001999999REMMET051METAR SBUF 081300Z 15009KT 9999 SCT018 26/18 Q1020;
0143829860999992007090814004-09400-038217FM-15+0253SBUF V0201501N004112200019N0112651N1+02701+01801999999ADDGA1041+005401999GA2041+021001999GF104991999999999999999999MA1101901999999REMMET058METAR SBUF 081400Z 15008KT 9999 SCT018 SCT070 27/18 Q1019;
0166829860999992007090815004-09400-038217FM-15+0253SBUF V0201601N00511005401CN0112651N1+02701+01801999999ADDGA1021+004501999GA2041+005401999GA3071+021001999GF107991999999999999999999MA1101801999999REMMET065METAR SBUF 081500Z 16010KT 9999 FEW015 SCT018 BKN070 27/18 Q1018;
0143829860999992007090816004-09400-038217FM-15+0253SBUF V0201201N006712200019N0112651N1+02801+01801999999ADDGA1041+005401999GA2041+021001999GF104991999999999999999999MA1101691999999REMMET058METAR SBUF 081600Z 12013KT 9999 SCT018 SCT070 28/18 Q1017;
0143829860999992007090817004-09400-038217FM-15+0253SBUF V0201101N005112200019N0112651N1+02901+01801999999ADDGA1041+005401999GA2041+021001999GF104991999999999999999999MA1101591999999REMMET058METAR SBUF 081700Z 11010KT 9999 SCT018 SCT070 29/18 Q1016;
0233829860999992007090818004-09400-038217SY-MT+0253SBUF V0200901N00311021001CN0200001N1+02791+01511101391ADDGA1041+005401999GA2041+021001999GF106991061041008001001001MA1101491098511MD1999999-0141REMSYN070AAXX  08184 82986 32598 60906 10279 20151 39851 40139 86400 333 59014;MET058METAR SBUF 081800Z 13008KT 9999 SCT018 SCT070 28/18 Q1015;
0143829860999992007090819004-09400-038217FM-15+0253SBUF V0201701N003612200019N0112651N1+02801+01801999999ADDGA1021+005401999GA2041+021001999GF104991999999999999999999MA1101491999999REMMET058METAR SBUF 081900Z 17007KT 9999 FEW018 SCT070 28/18 Q1015;
0120829860999992007090820004-09400-038217FM-15+0253SBUF V0201501N005712200019N0112651N1+02701+01801999999ADDGA1041+005401999GF104991999999999999999999MA1101591999999REMMET051METAR SBUF 082000Z 15011KT 9999 SCT018 27/18 Q1016;
0120829860999992007090821004-09400-038217FM-15+0253SBUF V0201401N004612200019N0112651N1+02501+01901999999ADDGA1041+005401999GF104991999999999999999999MA1101591999999REMMET051METAR SBUF 082100Z 14009KT 9999 SCT018 25/19 Q1016;
0120829860999992007090822004-09400-038217FM-15+0253SBUF V0201401N005712200019N0112651N1+02301+02001999999ADDGA1021+005401999GF102991999999999999999999MA1101691999999REMMET051METAR SBUF 082200Z 14011KT 9999 FEW018 23/20 Q1017;
0120829860999992007090823004-09400-038217FM-15+0253SBUF V0201501N005112200019N0112651N1+02301+02001999999ADDGA1021+005401999GF102991999999999999999999MA1101801999999REMMET051METAR SBUF 082300Z 15010KT 9999 FEW018 23/20 Q1018;
0213829860999992007090900004-09400-038217SY-MT+0253SBUF V0201801N002612200019N0020001N1+02231+01651101741ADDGF100991001001999999001001KA1240M+02891MA1101901098851MD1999999-0041REMSYN082AAXX  09004 82986 32995 01805 10223 20165 39885 40174 333 10289 29062 55075 59004;MET045METAR SBUF 090000Z 17008KT CAVOK 22/21 Q1019;
0072829860999992007090901004-09400-038217FM-15+0253SBUF V0201501N00361220001CN0099001N1+02201+02101999999ADDMA1101901999999REMMET045METAR SBUF 090100Z 15007KT CAVOK 22/21 Q1019;
0120829860999992007090902004-09400-038217FM-15+0253SBUF V0201501N003612200019N0112651N1+01901+01901999999ADDGA1021+004501999GF102991999999999999999999MA1101901999999REMMET051METAR SBUF 090200Z 15007KT 9999 FEW015 19/19 Q1019;
0143829860999992007090909004-09400-038217FM-15+0253SBUF V0209999C000010036019N0112651N1+01901+01801999999ADDGA1071+003601999GA2071+090001999GF107991999999999999999999MA1101901999999REMMET058METAR SBUF 090900Z 00000KT 9999 BKN012 BKN300 19/18 Q1019;
0175829860999992007090910004-09400-038217FM-15+0253SBUF V0201501N001010210019N0050001N1+02001+01901999999ADDGA1041+003601999GA2071+021001999GA3071+090001999GF107991999999999999999999MA1101901999999MW1101REMMET068METAR SBUF 091000Z 15002KT 5000 BR SCT012 BKN070 BKN300 20/19 Q1019;
0143829860999992007090911004-09400-038217FM-15+0253SBUF V0201301N002610300019N0112651N1+02101+01901999999ADDGA1041+003601999GA2071+030001999GF107991999999999999999999MA1102001999999REMMET058METAR SBUF 091100Z 13005KT 9999 SCT012 BKN100 21/19 Q1020;
0316829860999992007090912004-09400-038217SY-MT+0253SBUF V0201801N00311030001CN0100001N1+02181+02011101881ADDAA124000091AY151061AY221061GA1041+003901999GA2041+030001999GF106991061071004501001001KA1240N+01821MA1102001098971MD1999999-0031MW1151REMSYN088AAXX  09124 82986 21497 61806 10218 20201 39897 40188 71552 86700 333 20182 59003 69904;MET058METAR SBUF 091200Z 13010KT 9999 SCT013 SCT100 24/18 Q1020;EQDQ01  00002PRCP24
0120829860999992007090913004-09400-038217FM-15+0253SBUF V0201601N003610045019N0112651N1+02501+01801999999ADDGA1071+004501999GF107991999999999999999999MA1102001999999REMMET051METAR SBUF 091300Z 16007KT 9999 BKN015 25/18 Q1020;
0120829860999992007090914004-09400-038217FM-15+0253SBUF V0201601N004112200019N0112651N1+02801+01701999999ADDGA1041+005401999GF104991999999999999999999MA1101901999999REMMET051METAR SBUF 091400Z 16008KT 9999 SCT018 28/17 Q1019;
0120829860999992007090915004-09400-038217FM-15+0253SBUF V0201301N004110060019N0112651N1+02901+01701999999ADDGA1071+006001999GF107991999999999999999999MA1101801999999REMMET051METAR SBUF 091500Z 13008KT 9999 BKN020 29/17 Q1018;
0120829860999992007090916004-09400-038217FM-15+0253SBUF V0201401N003610060019N0112651N1+03001+01801999999ADDGA1071+006001999GF107991999999999999999999MA1101591999999REMMET051METAR SBUF 091600Z 14007KT 9999 BKN020 30/18 Q1016;
0120829860999992007090917004-09400-038217FM-15+0253SBUF V0201301N004110060019N0112651N1+03001+01701999999ADDGA1071+006001999GF107991999999999999999999MA1101491999999REMMET051METAR SBUF 091700Z 13008KT 9999 BKN020 30/17 Q1015;
0210829860999992007090918004-09400-038217SY-MT+0253SBUF V0200901N004110075019N0200001N1+03001+01201101311ADDGA1041+006001999GF105991051021008001001001MA1101391098451MD1999999-0061REMSYN070AAXX  09184 82986 32598 50908 10300 20120 39845 40131 85200 333 59006;MET051METAR SBUF 091800Z 15008KT 9999 SCT020 30/17 Q1014;
0120829860999992007090919004-09400-038217FM-15+0253SBUF V0201501N004612200019N0112651N1+03001+01801999999ADDGA1041+006001999GF104991999999999999999999MA1101391999999REMMET051METAR SBUF 091900Z 15009KT 9999 SCT020 30/18 Q1014;
0120829860999992007090920004-09400-038217FM-15+0253SBUF V0201101N004112200019N0112651N1+02901+01901999999ADDGA1041+006001999GF104991999999999999999999MA1101491999999REMMET051METAR SBUF 092000Z 11008KT 9999 SCT020 29/19 Q1015;
0120829860999992007090921004-09400-038217FM-15+0253SBUF V0201501N005112200019N0112651N1+02501+01901999999ADDGA1041+005101999GF104991999999999999999999MA1101591999999REMMET051METAR SBUF 092100Z 15010KT 9999 SCT017 25/19 Q1016;
0120829860999992007090922004-09400-038217FM-15+0253SBUF V0201301N005112200019N0112651N1+02401+01901999999ADDGA1041+005101999GF104991999999999999999999MA1101691999999REMMET051METAR SBUF 092200Z 13010KT 9999 SCT017 24/19 Q1017;
0120829860999992007090923004-09400-038217FM-15+0253SBUF V0201301N005112200019N0112651N1+02401+01901999999ADDGA1041+005101999GF104991999999999999999999MA1101801999999REMMET051METAR SBUF 092300Z 13010KT 9999 SCT017 24/19 Q1018;
0260829860999992007091000004-09400-038217SY-MT+0253SBUF V0200901N005112200019N0020001N1+02241+02071101681ADDGA1071+005101999GF199999041001017501021001KA1240M+03071MA1101801098781MD1999999-0071REMSYN088AAXX  10004 82986 32795 40910 10224 20207 39878 40168 84020 333 10307 29076 55085 59007;MET051METAR SBUF 100000Z 13010KT 9999 BKN017 24/19 Q1018;EQDQ01+000042SCOTCV
0143829860999992007091001004-09400-038217FM-15+0253SBUF V0201301N004610045019N0112651N1+02201+02001999999ADDGA1021+003901999GA2071+004501999GF107991999999999999999999MA1101901999999REMMET058METAR SBUF 100100Z 13009KT 9999 FEW013 BKN015 22/20 Q1019;
0143829860999992007091002004-09400-038217FM-15+0253SBUF V0201301N002610045019N0112651N1+02101+02001999999ADDGA1041+003901999GA2071+004501999GF107991999999999999999999MA1101801999999REMMET058METAR SBUF 100200Z 13005KT 9999 SCT013 BKN015 21/20 Q1018;
0143829860999992007091009004-09400-038217FM-15+0253SBUF V0201301N002612200019N0112651N1+02101+02001999999ADDGA1041+002401999GA2041+021001999GF104991999999999999999999MA1101901999999REMMET058METAR SBUF 100900Z 13005KT 9999 SCT008 SCT070 21/20 Q1019;
0143829860999992007091010004-09400-038217FM-15+0253SBUF V0201301N002612200019N0112651N1+02101+02001999999ADDGA1041+002401999GA2041+021001999GF104991999999999999999999MA1101901999999REMMET058METAR SBUF 101000Z 13005KT 9999 SCT008 SCT070 21/20 Q1019;
0143829860999992007091011004-09400-038217FM-15+0253SBUF V0201401N004112200019N0112651N1+02401+01901999999ADDGA1041+003601999GA2041+021001999GF104991999999999999999999MA1102001999999REMMET058METAR SBUF 101100Z 14008KT 9999 SCT012 SCT070 24/19 Q1020;
0316829860999992007091012004-09400-038217SY-MT+0253SBUF V0200901N00461004501CN0100001N1+02421+01701101861ADDAA124000591AY161061AY221061GA1071+004501999GA2041+021001999GF199999031041008001051001KA1240N+02011MA1102001098971MD1999999+0001MW1021REMSYN088AAXX  10124 82986 21597 60909 10242 20170 39897 40186 70262 83450 333 20201 58000 69944;MET058METAR SBUF 101200Z 13009KT 9999 BKN015 SCT070 26/19 Q1020;EQDQ01+000062SCOTCV
0120829860999992007091013004-09400-038217FM-15+0253SBUF V0201401N004110051019N0112651N1+02601+01801999999ADDGA1071+005101999GF107991999999999999999999MA1102001999999REMMET051METAR SBUF 101300Z 14008KT 9999 BKN017 26/18 Q1020;
0120829860999992007091014004-09400-038217FM-15+0253SBUF V0201201N005710054019N0112651N1+02701+01801999999ADDGA1071+005401999GF107991999999999999999999MA1101901999999REMMET051METAR SBUF 101400Z 12011KT 9999 BKN018 27/18 Q1019;
0120829860999992007091015004-09400-038217FM-15+0253SBUF V0201401N005110054019N0112651N1+02801+01801999999ADDGA1071+005401999GF107991999999999999999999MA1101801999999REMMET051METAR SBUF 101500Z 14010KT 9999 BKN018 28/18 Q1018;
0120829860999992007091016004-09400-038217FM-15+0253SBUF V0201501N005710054019N0112651N1+02901+01801999999ADDGA1071+005401999GF107991999999999999999999MA1101591999999REMMET051METAR SBUF 101600Z 15011KT 9999 BKN018 29/18 Q1016;
0120829860999992007091017004-09400-038217FM-15+0253SBUF V0201301N005710054019N0112651N1+02901+01801999999ADDGA1071+005401999GF107991999999999999999999MA1101491999999REMMET051METAR SBUF 101700Z 13011KT 9999 BKN018 29/18 Q1015;
0210829860999992007091018004-09400-038217SY-MT+0253SBUF V0201401N005710075019N0200001N1+02931+01341101351ADDGA1041+006001999GF106991061021008001001001MA1101491098491MD1999999+0041REMSYN070AAXX  10184 82986 32598 61411 10293 20134 39849 40135 86200 333 58004;MET051METAR SBUF 101800Z 14014KT 9999 SCT020 30/18 Q1015;
0120829860999992007091019004-09400-038217FM-15+0253SBUF V0201201N007712200019N0112651N1+02901+01801999999ADDGA1041+006001999GF104991999999999999999999MA1101491999999REMMET051METAR SBUF 101900Z 12015KT 9999 SCT020 29/18 Q1015;
0120829860999992007091020004-09400-038217FM-15+0253SBUF V0201501N008712200019N0112651N1+02701+01601999999ADDGA1021+006001999GF102991999999999999999999MA1101591999999REMMET051METAR SBUF 102000Z 15017KT 9999 FEW020 27/16 Q1016;
0143829860999992007091021004-09400-038217FM-15+0253SBUF V0201301N005110900019N0112651N1+02601+01501999999ADDGA1021+005401999GA2071+090001999GF107991999999999999999999MA1101591999999REMMET058METAR SBUF 102100Z 13010KT 9999 FEW018 BKN300 26/15 Q1016;
0072829860999992007091022004-09400-038217FM-15+0253SBUF V0201401N00411220001CN0099001N1+02501+01501999999ADDMA1101691999999REMMET045METAR SBUF 102200Z 14008KT CAVOK 25/15 Q1017;
0072829860999992007091023004-09400-038217FM-15+0253SBUF V0201401N00311220001CN0099001N1+02401+01601999999ADDMA1101801999999REMMET045METAR SBUF 102300Z 14006KT CAVOK 24/16 Q1018;
0213829860999992007091100004-09400-038217SY-MT+0253SBUF V0201801N003112200019N0020001N1+02221+01531101701ADDGF100991001001999999001001KA1240M+03021MA1101901098821MD1999999+0041REMSYN082AAXX  11004 82986 32995 01806 10222 20153 39882 40170 333 10302 29058 55075 58004;MET045METAR SBUF 110000Z 16005KT CAVOK 22/16 Q1019;
0072829860999992007091101004-09400-038217FM-15+0253SBUF V0201501N00411220001CN0099001N1+02201+01701999999ADDMA1101901999999REMMET045METAR SBUF 110100Z 15008KT CAVOK 22/17 Q1019;
0072829860999992007091102004-09400-038217FM-15+0253SBUF V0201601N00411220001CN0099001N1+02101+01801999999ADDMA1101901999999REMMET045METAR SBUF 110200Z 16008KT CAVOK 21/18 Q1019;
0143829860999992007091109004-09400-038217FM-15+0253SBUF V0201501N001512200019N0112651N1+01901+01801999999ADDGA1041+002401999GA2041+021001999GF104991999999999999999999MA1101901999999REMMET058METAR SBUF 110900Z 15003KT 9999 SCT008 SCT070 19/18 Q1019;
0143829860999992007091110004-09400-038217FM-15+0253SBUF V0201501N002112200019N0112651N1+02001+01801999999ADDGA1041+003001999GA2041+021001999GF104991999999999999999999MA1101901999999REMMET058METAR SBUF 111000Z 15004KT 9999 SCT010 SCT070 20/18 Q1019;
0120829860999992007091111004-09400-038217FM-15+0253SBUF V0201701N003112200019N0112651N1+02301+01801999999ADDGA1041+003601999GF104991999999999999999999MA1102001999999REMMET051METAR SBUF 111100Z 17006KT 9999 SCT012 23/18 Q1020;
0248829860999992007091112004-09400-038217SY-MT+0253SBUF V0201401N00511004501CN0100001N1+02421+01721101871ADDGA1071+004501999GF199999051021008001061001KA1240N+01761MA1102001098971MD1999999+0001REMSYN076AAXX  11124 82986 32597 61410 10242 20172 39897 40187 85260 333 20176 58000;MET051METAR SBUF 111200Z 13010KT 9999 BKN015 26/18 Q1020;EQDQ01+000062SCOTCV
0120829860999992007091113004-09400-038217FM-15+0253SBUF V0201301N003610051019N0112651N1+02501+01801999999ADDGA1071+005101999GF107991999999999999999999MA1102001999999REMMET051METAR SBUF 111300Z 13007KT 9999 BKN017 25/18 Q1020;
0120829860999992007091114004-09400-038217FM-15+0253SBUF V0201001N005110054019N0112651N1+02801+01701999999ADDGA1071+005401999GF107991999999999999999999MA1101901999999REMMET051METAR SBUF 111400Z 10010KT 9999 BKN018 28/17 Q1019;
0120829860999992007091115004-09400-038217FM-15+0253SBUF V0201301N003112200019N0112651N1+02901+01501999999ADDGA1041+005401999GF104991999999999999999999MA1101801999999REMMET051METAR SBUF 111500Z 13006KT 9999 SCT018 29/15 Q1018;
0120829860999992007091116004-09400-038217FM-15+0253SBUF V0201301N004612200019N0112651N1+03001+01501999999ADDGA1041+006001999GF104991999999999999999999MA1101691999999REMMET051METAR SBUF 111600Z 13009KT 9999 SCT020 30/15 Q1017;
0120829860999992007091117004-09400-038217FM-15+0253SBUF V0201401N005112200019N0112651N1+03001+01501999999ADDGA1041+006001999GF104991999999999999999999MA1101591999999REMMET051METAR SBUF 111700Z 14010KT 9999 SCT020 30/15 Q1016;
0238829860999992007091118004-09400-038217SY-MT+0253SBUF V0201401N006710075019N0100001N1+03021+01301101351ADDAY121061AY221061GA1021+006001999GF106991051021008001001051MA1101491098481MD1999999-0011MW1051REMSYN076AAXX  11184 82986 31597 61413 10302 20130 39848 40135 70522 85205 333 59001;MET051METAR SBUF 111800Z 13010KT 9999 FEW020 30/16 Q1015;
0120829860999992007091119004-09400-038217FM-15+0253SBUF V0201301N005712200019N0112651N1+03001+01501999999ADDGA1021+006001999GF102991999999999999999999MA1101491999999REMMET051METAR SBUF 111900Z 13011KT 9999 FEW020 30/15 Q1015;
0143829860999992007091120004-09400-038217FM-15+0253SBUF V0201201N005112200019N0112651N1+02801+01701999999ADDGA1021+006001999GA2041+090001999GF104991999999999999999999MA1101491999999REMMET058METAR SBUF 112000Z 12010KT 9999 FEW020 SCT300 28/17 Q1015;
0169829860999992007091121004-09400-038217FM-15+0253SBUF V0201301N010812200019N0112651N1+02601+01901999999ADDGA1021+005101999GA2021+006001021GA3041+090001999GF104991999999999999999999MA1101591999999REMMET068METAR SBUF 112100Z 13021KT 9999 FEW017 FEW020TCU SCT300 26/19 Q1016;
0120829860999992007091122004-09400-038217FM-15+0253SBUF V0201401N005112200019N0112651N1+02401+01901999999ADDGA1021+005101999GF102991999999999999999999MA1101691999999REMMET051METAR SBUF 112200Z 14010KT 9999 FEW017 24/19 Q1017;
0143829860999992007091123004-09400-038217FM-15+0253SBUF V0201201N006212200019N0112651N1+02301+01901999999ADDGA1021+003601999GA2041+005101999GF104991999999999999999999MA1101801999999REMMET058METAR SBUF 112300Z 12012KT 9999 FEW012 SCT017 23/19 Q1018;
0275829860999992007091200004-09400-038217SY-MT+0253SBUF V0201401N00511021001CN0020001N1+02241+01941101751ADDGA1041+003601999GA2071+021001999GF108991081081004501999999KA1240M+03061MA1101901098861MD1999999+0041MW1161REMSYN088AAXX  12004 82986 32495 81410 10224 20194 39886 40175 888// 333 10306 29066 55079 58004;MET063METAR SBUF 120000Z 12015KT 8000 VCSH SCT012 BKN070 22/19 Q1019;
0153829860999992007091201004-09400-038217FM-15+0253SBUF V0201501N004110210019N0070001N1+02101+02001999999ADDGA1041+003601999GA2071+021001999GF107991999999999999999999MA1102001999999MW1611REMMET062METAR SBUF 120100Z 15008KT 7000 -RA SCT012 BKN070 21/20 Q1020;
0143829860999992007091202004-09400-038217FM-15+0253SBUF V0201301N003610210019N0112651N1+02101+02001999999ADDGA1041+003001999GA2071+021001999GF107991999999999999999999MA1102001999999REMMET058METAR SBUF 120200Z 13007KT 9999 SCT010 BKN070 21/20 Q1020;
0129829860999992007091209004-09400-038217FM-15+0253SBUF V0201601N004110036019N0040001N1+02101+02101999999ADDGA1071+003601999GF107991999999999999999999MA1101901999999MW1101REMMET054METAR SBUF 120900Z 16008KT 4000 BR BKN012 21/21 Q1019;
0129829860999992007091210004-09400-038217FM-15+0253SBUF V0201501N005110036019N0050001N1+02101+01901999999ADDGA1071+003601999GF107991999999999999999999MA1101901999999MW1101REMMET054METAR SBUF 121000Z 15010KT 5000 BR BKN012 21/19 Q1019;
0129829860999992007091211004-09400-038217FM-15+0253SBUF V0201401N007210036019N0050001N1+02201+01801999999ADDGA1071+003601999GF107991999999999999999999MA1102001999999MW1101REMMET054METAR SBUF 121100Z 14014KT 5000 BR BKN012 22/18 Q1020;
0274829860999992007091212004-09400-038217SY-MT+0253SBUF V0201401N007210075019N0100001N1+02461+01761101831ADDAA124000391AY151061AY221061GA1041+004501999GF107991051021008001051001KA1240N+02041MA1102001098941MD1999999-0031MW1011REMSYN088AAXX  12124 82986 21597 71414 10246 20176 39894 40183 70152 85250 333 20204 59003 69934;MET051METAR SBUF 121200Z 15012KT 9999 SCT015 22/18 Q1020;
0143829860999992007091213004-09400-038217FM-15+0253SBUF V0201401N005712200019N0112651N1+02501+01901999999ADDGA1041+004501999GA2041+021001999GF104991999999999999999999MA1101901999999REMMET058METAR SBUF 121300Z 14011KT 9999 SCT015 SCT070 25/19 Q1019;
0143829860999992007091214004-09400-038217FM-15+0253SBUF V0201701N006210045019N0112651N1+02801+01901999999ADDGA1071+004501999GA2071+021001999GF107991999999999999999999MA1101901999999REMMET058METAR SBUF 121400Z 17012KT 9999 BKN015 BKN070 28/19 Q1019;
0143829860999992007091215004-09400-038217FM-15+0253SBUF V0201501N002110210019N0112651N1+02801+01601999999ADDGA1041+003901999GA2071+021001999GF107991999999999999999999MA1101801999999REMMET058METAR SBUF 121500Z 15004KT 9999 SCT013 BKN070 28/16 Q1018;
0143829860999992007091216004-09400-038217FM-15+0253SBUF V0201401N002110210019N0112651N1+02701+01701999999ADDGA1041+003901999GA2071+021001999GF107991999999999999999999MA1101691999999REMMET058METAR SBUF 121600Z 14004KT 9999 SCT013 BKN070 27/17 Q1017;
0166829860999992007091217004-09400-038217FM-15+0253SBUF V0201401N00511003901CN0112651N1+02801+01601999999ADDGA1021+003601999GA2041+003901999GA3071+021001999GF107991999999999999999999MA1101591999999REMMET065METAR SBUF 121700Z 14010KT 9999 FEW012 SCT013 BKN070 28/16 Q1016;
0233829860999992007091218004-09400-038217SY-MT+0253SBUF V0201401N00671003901CN0100001N1+02701+01261101471ADDGA1021+003601999GA2071+003901999GF108991081071004501999999MA1101591098601MD1999999+0121REMSYN070AAXX  12184 82986 32497 81413 10270 20126 39860 40147 887// 333 58012;MET058METAR SBUF 121800Z 16007KT 9999 FEW012 BKN013 26/18 Q1016;
0143829860999992007091219004-09400-038217FM-15+0253SBUF V0201601N004610210019N0112651N1+02701+01601999999ADDGA1041+003601999GA2071+021001999GF107991999999999999999999MA1101591999999REMMET058METAR SBUF 121900Z 16009KT 9999 SCT012 BKN070 27/16 Q1016;
0143829860999992007091220004-09400-038217FM-15+0253SBUF V0201301N005110210019N0112651N1+02601+01701999999ADDGA1041+003601999GA2071+021001999GF107991999999999999999999MA1101591999999REMMET058METAR SBUF 122000Z 13010KT 9999 SCT012 BKN070 26/17 Q1016;
0143829860999992007091221004-09400-038217FM-15+0253SBUF V0201301N006710210019N0112651N1+02501+01801999999ADDGA1041+003601999GA2071+021001999GF107991999999999999999999MA1101691999999REMMET058METAR SBUF 122100Z 13013KT 9999 SCT012 BKN070 25/18 Q1017;
0143829860999992007091222004-09400-038217FM-15+0253SBUF V0201301N006210210019N0112651N1+02401+01801999999ADDGA1041+003601999GA2071+021001999GF107991999999999999999999MA1101801999999REMMET058METAR SBUF 122200Z 13012KT 9999 SCT012 BKN070 24/18 Q1018;
0143829860999992007091223004-09400-038217FM-15+0253SBUF V0201301N006210210019N0112651N1+02401+01801999999ADDGA1041+003601999GA2071+021001999GF107991999999999999999999MA1101801999999REMMET058METAR SBUF 122300Z 13012KT 9999 SCT012 BKN070 24/18 Q1018;
0283829860999992007091300004-09400-038217SY-MT+0253SBUF V0201801N004119999999N0020001N1+02321+01551101731ADDGA1021+003001999GA2071+021001999GF103991031001017501021001KA1240M+02871MA1101901098851MD1999999-0021REMSYN088AAXX  13004 82986 32795 31808 10232 20155 39885 40173 83020 333 10287 29058 55009 59002;MET058METAR SBUF 130000Z 14011KT 9999 FEW010 BKN070 23/17 Q1019;EQDQ01 021003SCOCIG
0143829860999992007091301004-09400-038217FM-15+0253SBUF V0201401N004112200019N0112651N1+02201+01701999999ADDGA1041+003001999GA2041+021001999GF104991999999999999999999MA1101901999999REMMET058METAR SBUF 130100Z 14008KT 9999 SCT010 SCT070 22/17 Q1019;
0143829860999992007091302004-09400-038217FM-15+0253SBUF V0201501N003610210019N0112651N1+02201+01801999999ADDGA1041+003001999GA2071+021001999GF107991999999999999999999MA1101901999999REMMET058METAR SBUF 130200Z 15007KT 9999 SCT010 BKN070 22/18 Q1019;
0120829860999992007091308004-09400-038217FM-15+0253SBUF V0201501N002610036019N0112651N1+01801+01701999999ADDGA1071+003601999GF107991999999999999999999MA1101691999999REMMET051METAR SBUF 130800Z 15005KT 9999 BKN012 18/17 Q1017;
0120829860999992007091309004-09400-038217FM-15+0253SBUF V0201501N002610036019N0112651N1+01901+01701999999ADDGA1071+003601999GF107991999999999999999999MA1101691999999REMMET051METAR SBUF 130900Z 15005KT 9999 BKN012 19/17 Q1017;
0120829860999992007091310004-09400-038217FM-15+0253SBUF V0201701N002612200019N0112651N1+02001+01801999999ADDGA1041+003601999GF104991999999999999999999MA1101801999999REMMET051METAR SBUF 131000Z 17005KT 9999 SCT012 20/18 Q1018;
0120829860999992007091311004-09400-038217FM-15+0253SBUF V0201501N003612200019N0112651N1+02201+02001999999ADDGA1041+004501999GF104991999999999999999999MA1101801999999REMMET051METAR SBUF 131100Z 15007KT 9999 SCT015 22/20 Q1018;
0252829860999992007091312004-09400-038217SY-MT+0253SBUF V0201401N00671021001CN0100001N1+02521+01631101751ADDGA1041+004501999GA2041+021001999GF106991061041008001001001KA1240N+01921MA1101901098871MD1999999-0071REMSYN076AAXX  13124 82986 32597 61413 10252 20163 39887 40175 86400 333 20192 59007;MET058METAR SBUF 131200Z 13013KT 9999 SCT015 SCT070 25/18 Q1019;
0143829860999992007091313004-09400-038217FM-15+0253SBUF V0201201N005112200019N0112651N1+02701+01801999999ADDGA1041+004501999GA2041+021001999GF104991999999999999999999MA1101901999999REMMET058METAR SBUF 131300Z 12010KT 9999 SCT015 SCT070 27/18 Q1019;
0143829860999992007091314004-09400-038217FM-15+0253SBUF V0201401N007210210019N0112651N1+02701+01701999999ADDGA1041+004501999GA2071+021001999GF107991999999999999999999MA1101801999999REMMET058METAR SBUF 131400Z 14014KT 9999 SCT015 BKN070 27/17 Q1018;
0143829860999992007091315004-09400-038217FM-15+0253SBUF V0201201N004610048019N0112651N1+02801+01801999999ADDGA1071+004801999GA2071+021001999GF107991999999999999999999MA1101691999999REMMET058METAR SBUF 131500Z 12009KT 9999 BKN016 BKN070 28/18 Q1017;
0166829860999992007091316004-09400-038217FM-15+0253SBUF V0201401N00621004801CN0112651N1+02801+01801999999ADDGA1021+003901999GA2041+004801999GA3071+021001999GF107991999999999999999999MA1101591999999REMMET065METAR SBUF 131600Z 14012KT 9999 FEW013 SCT016 BKN070 28/18 Q1016;
0166829860999992007091317004-09400-038217FM-15+0253SBUF V0201401N00211004801CN0112651N1+02801+01801999999ADDGA1021+003901999GA2041+004801999GA3071+021001999GF107991999999999999999999MA1101491999999REMMET065METAR SBUF 131700Z 14004KT 9999 FEW013 SCT016 BKN070 28/18 Q1015;
0233829860999992007091318004-09400-038217SY-MT+0253SBUF V0201801N00261021001CN0200001N1+02901+01401101261ADDGA1021+005401999GA2041+021001999GF106991061041008001001001MA1101391098401MD1999999-0201REMSYN070AAXX  13184 82986 32598 61805 10290 20140 39840 40126 86400 333 59020;MET058METAR SBUF 131800Z 14007KT 9999 FEW018 SCT070 29/18 Q1014;
0169829860999992007091319004-09400-038217FM-15+0253SBUF V0201701N005112200019N0112651N1+02701+02001999999ADDGA1021+003901999GA2021+006001021GA3041+021001999GF104991999999999999999999MA1101491999999REMMET068METAR SBUF 131900Z 17010KT 9999 FEW013 FEW020TCU SCT070 27/20 Q1015;
0143829860999992007091320004-09400-038217FM-15+0253SBUF V0201401N006210210019N0112651N1+02601+01901999999ADDGA1021+003901999GA2071+021001999GF107991999999999999999999MA1101491999999REMMET058METAR SBUF 132000Z 14012KT 9999 FEW013 BKN070 26/19 Q1015;
0169829860999992007091321004-09400-038217FM-15+0253SBUF V0201601N00461006001CN0112651N1+02301+02001999999ADDGA1041+004501999GA2021+006001021GA3071+021001999GF107991999999999999999999MA1101591999999REMMET068METAR SBUF 132100Z 16009KT 9999 SCT015 FEW020TCU BKN070 23/20 Q1016;
0177829860999992007091322004-09400-038217FM-15+0253SBUF V0201401N004110036019N0080001N1+02101+02101999999ADDGA1021+002101999GA2071+003601999GA3071+021001999GF107991999999999999999999MA1101691999999MW1161REMMET070METAR SBUF 132200Z 14008KT 8000 VCSH FEW007 BKN012 BKN070 21/21 Q1017;
0162829860999992007091323004-09400-038217FM-15+0253SBUF V0201401N005110030019N0040001N1+02101+02101999999ADDGA1071+003001999GA2071+021001999GF107991999999999999999999MA1101691999999MW1101MW2611REMMET065METAR SBUF 132300Z 14010KT 4000 -RA BR BKN010 BKN070 21/21 Q1017;
0313829860999992007091400004-09400-038217SY-MT+0253SBUF V0201801N00151003001CN0020001N1+02061+02041101661ADDAA106002091AY161061AY261061GA1071+003001999GA2071+021001999GF108991081081002501999999KA1240M+02961MA1101801098771MD1999999-0081MW1611REMSYN100AAXX  14004 82986 21395 81803 10206 20204 39877 40166 76166 888// 333 10296 29074 55057 59008 60021;MET062METAR SBUF 140000Z 13004KT 8000 -RA BKN010 BKN070 21/21 Q1018;
0154829860999992007091401004-09400-038217FM-15+0253SBUF V0201501N004610030019N0080001N1+02101+02101999999ADDGA1071+003001999GA2071+021001999GF107991999999999999999999MA1101801999999MW1161REMMET063METAR SBUF 140100Z 15009KT 8000 VCSH BKN010 BKN070 21/21 Q1018;
0143829860999992007091402004-09400-038217FM-15+0253SBUF V0201801N003110030019N0112651N1+02101+02101999999ADDGA1071+003001999GA2071+021001999GF107991999999999999999999MA1101801999999REMMET058METAR SBUF 140200Z 18006KT 9999 BKN010 BKN070 21/21 Q1018;
0162829860999992007091408004-09400-038217FM-15+0253SBUF V0201401N002610210019N0050001N1+02001+01901999999ADDGA1041+003901999GA2071+021001999GF107991999999999999999999MA1101591999999MW1101MW2611REMMET065METAR SBUF 140800Z 14005KT 5000 -RA BR SCT013 BKN070 20/19 Q1016;
0152829860999992007091409004-09400-038217FM-15+0253SBUF V0201401N002610210019N0050001N1+02001+01901999999ADDGA1041+003901999GA2071+021001999GF107991999999999999999999MA1101691999999MW1101REMMET061METAR SBUF 140900Z 14005KT 5000 BR SCT013 BKN070 20/19 Q1017;
0152829860999992007091410004-09400-038217FM-15+0253SBUF V0201301N002610210019N0050001N1+02101+01901999999ADDGA1041+003901999GA2071+021001999GF107991999999999999999999MA1101691999999MW1101REMMET061METAR SBUF 141000Z 13005KT 5000 BR SCT013 BKN070 21/19 Q1017;
0152829860999992007091411004-09400-038217FM-15+0253SBUF V0201401N003610210019N0050001N1+02201+02201999999ADDGA1041+003901999GA2071+021001999GF107991999999999999999999MA1101801999999MW1101REMMET061METAR SBUF 141100Z 14007KT 5000 BR SCT013 BKN070 22/22 Q1018;
0320829860999992007091412004-09400-038217SY-MT+0253SBUF V0201801N00411005101CN0040001N1+02121+02041101761ADDAA124005191AY161061AY251061GA1021+003901999GA2041+005101999GA3071+021001999GF108991081071004501999999KA1240N+01921MA1101901098851MD1999999-0021MW1501REMSYN088AAXX  14124 82986 21496 81808 10212 20204 39885 40176 75065 887// 333 20192 59002 60054;MET065METAR SBUF 141200Z 14012KT 9999 FEW013 SCT017 BKN070 24/24 Q1019;
0166829860999992007091413004-09400-038217FM-15+0253SBUF V0201301N00361005101CN0112651N1+02501+01901999999ADDGA1021+004501999GA2041+005101999GA3071+021001999GF107991999999999999999999MA1101801999999REMMET065METAR SBUF 141300Z 13007KT 9999 FEW015 SCT017 BKN070 25/19 Q1018;
0143829860999992007091414004-09400-038217FM-15+0253SBUF V0201201N004610210019N0112651N1+02601+01801999999ADDGA1041+004501999GA2071+021001999GF107991999999999999999999MA1101801999999REMMET058METAR SBUF 141400Z 12009KT 9999 SCT015 BKN070 26/18 Q1018;
0143829860999992007091415004-09400-038217FM-15+0253SBUF V0201401N004110210019N0112651N1+02801+01901999999ADDGA1021+004801999GA2071+021001999GF107991999999999999999999MA1101691999999REMMET058METAR SBUF 141500Z 14008KT 9999 FEW016 BKN070 28/19 Q1017;
0166829860999992007091416004-09400-038217FM-15+0253SBUF V0201501N00411004801CN0112651N1+02801+02201999999ADDGA1021+003901999GA2041+004801999GA3071+021001999GF107991999999999999999999MA1101591999999REMMET065METAR SBUF 141600Z 15008KT 9999 FEW013 SCT016 BKN070 28/22 Q1016;
0143829860999992007091417004-09400-038217FM-15+0253SBUF V0201301N004112200019N0112651N1+03001+02001999999ADDGA1041+004801999GA2041+021001999GF104991999999999999999999MA1101491999999REMMET058METAR SBUF 141700Z 13008KT 9999 SCT016 SCT070 30/20 Q1015;
0252829860999992007091418004-09400-038217SY-MT+0253SBUF V0201801N00211021001CN0200001N1+02851+01431101331ADDGA1041+004801999GA2071+021001999GF199999051041008001001021MA1101491098461MD1999999+0061REMSYN070AAXX  14184 82986 32598 61804 10285 20143 39846 40133 85402 333 58006;MET058METAR SBUF 141800Z 13007KT 9999 SCT016 BKN070 30/19 Q1015;EQDQ01+000062SCOTCV
0120829860999992007091419004-09400-038217FM-15+0253SBUF V0201401N004612200019N0112651N1+02901+01901999999ADDGA1021+004801999GF102991999999999999999999MA1101391999999REMMET051METAR SBUF 141900Z 14009KT 9999 FEW016 29/19 Q1014;
0143829860999992007091420004-09400-038217FM-15+0253SBUF V0201401N004110210019N0112651N1+02701+02001999999ADDGA1021+004501999GA2071+021001999GF107991999999999999999999MA1101491999999REMMET058METAR SBUF 142000Z 14008KT 9999 FEW015 BKN070 27/20 Q1015;
0143829860999992007091421004-09400-038217FM-15+0253SBUF V0201201N004612200019N0112651N1+02501+02001999999ADDGA1021+005101999GA2041+030001999GF104991999999999999999999MA1101591999999REMMET058METAR SBUF 142100Z 12009KT 9999 FEW017 SCT100 25/20 Q1016;
0143829860999992007091422004-09400-038217FM-15+0253SBUF V0201301N004612200019N0112651N1+02401+02201999999ADDGA1021+005101999GA2041+030001999GF104991999999999999999999MA1101691999999REMMET058METAR SBUF 142200Z 13009KT 9999 FEW017 SCT100 24/22 Q1017;
0143829860999992007091423004-09400-038217FM-15+0253SBUF V0201401N005712200019N0112651N1+02401+02201999999ADDGA1021+005101999GA2041+090001999GF104991999999999999999999MA1101691999999REMMET058METAR SBUF 142300Z 14011KT 9999 FEW017 SCT300 24/22 Q1017;
0254829860999992007091500004-09400-038217SY-MT+0253SBUF V0201801N005112200019N0020001N1+02271+01791101661ADDGA1021+005101999GF199999001001999999001001KA1240M+02921MA1101801098761MD1999999-0011REMSYN082AAXX  15004 82986 32995 01810 10227 20179 39876 40166 333 10292 29072 55048 59001;MET051METAR SBUF 150000Z 15009KT 9999 FEW017 23/23 Q1018;EQDQ01+000002SCOTCV
0120829860999992007091501004-09400-038217FM-15+0253SBUF V0201501N004612200019N0112651N1+02201+02201999999ADDGA1021+004501999GF102991999999999999999999MA1101801999999REMMET051METAR SBUF 150100Z 15009KT 9999 FEW015 22/22 Q1018;
0143829860999992007091502004-09400-038217FM-15+0253SBUF V0201301N004112200019N0112651N1+02201+02201999999ADDGA1021+003901999GA2041+024001999GF104991999999999999999999MA1101801999999REMMET058METAR SBUF 150200Z 13008KT 9999 FEW013 SCT080 22/22 Q1018;
0143829860999992007091509004-09400-038217FM-15+0253SBUF V0201401N002612200019N0112651N1+02101+02101999999ADDGA1041+003301999GA2041+021001999GF104991999999999999999999MA1101691999999REMMET058METAR SBUF 150900Z 14005KT 9999 SCT011 SCT070 21/21 Q1017;
0143829860999992007091510004-09400-038217FM-15+0253SBUF V0201401N004110210019N0112651N1+02201+02201999999ADDGA1041+003301999GA2071+021001999GF107991999999999999999999MA1101801999999REMMET058METAR SBUF 151000Z 14008KT 9999 SCT011 BKN070 22/22 Q1018;
0143829860999992007091511004-09400-038217FM-15+0253SBUF V0201501N003610210019N0112651N1+02201+02001999999ADDGA1041+003301999GA2071+021001999GF107991999999999999999999MA1101801999999REMMET058METAR SBUF 151100Z 15007KT 9999 SCT011 BKN070 22/20 Q1018;
0339829860999992007091512004-09400-038217SY-MT+0253SBUF V0201801N00261004501CN0100001N1+02331+02001101691ADDAA124000391AY151061AY221061GA1021+003901999GA2041+004501999GA3071+021001999GF199999061071004501001001KA1240N+02001MA1101801098801MD1999999-0051MW1021REMSYN088AAXX  15124 82986 21497 61805 10233 20200 39880 40169 70252 86700 333 20200 59005 69934;MET065METAR SBUF 151200Z 14008KT 9999 FEW013 SCT015 BKN070 25/19 Q1018;EQDQ01+000062SCOTCV
0143829860999992007091513004-09400-038217FM-15+0253SBUF V0201401N003110048019N0112651N1+02701+02301999999ADDGA1071+004801999GA2071+021001999GF107991999999999999999999MA1101801999999REMMET058METAR SBUF 151300Z 14006KT 9999 BKN016 BKN070 27/23 Q1018;
0143829860999992007091514004-09400-038217FM-15+0253SBUF V0201101N002110048019N0112651N1+03001+02101999999ADDGA1071+004801999GA2071+021001999GF107991999999999999999999MA1101691999999REMMET058METAR SBUF 151400Z 11004KT 9999 BKN016 BKN070 30/21 Q1017;
0143829860999992007091515004-09400-038217FM-15+0253SBUF V0201801N003110048019N0112651N1+02901+02001999999ADDGA1071+004801999GA2071+021001999GF107991999999999999999999MA1101591999999REMMET058METAR SBUF 151500Z 18006KT 9999 BKN016 BKN070 29/20 Q1016;
0143829860999992007091516004-09400-038217FM-15+0253SBUF V0201501N004110048019N0112651N1+03001+02001999999ADDGA1071+004801999GA2071+021001999GF107991999999999999999999MA1101491999999REMMET058METAR SBUF 151600Z 15008KT 9999 BKN016 BKN070 30/20 Q1015;
0143829860999992007091517004-09400-038217FM-15+0253SBUF V0201401N004110048019N0112651N1+03001+01901999999ADDGA1071+004801999GA2071+021001999GF107991999999999999999999MA1101391999999REMMET058METAR SBUF 151700Z 14008KT 9999 BKN016 BKN070 30/19 Q1014;
0252829860999992007091518004-09400-038217SY-MT+0253SBUF V0200901N00571004801CN0200001N1+02971+01611101181ADDGA1071+004801999GA2071+021001999GF199999041021008001051001MA1101291098331MD1999999-0131REMSYN070AAXX  15184 82986 32598 60911 10297 20161 39833 40118 84250 333 59013;MET058METAR SBUF 151800Z 12010KT 9999 BKN016 BKN070 31/19 Q1013;EQDQ01+000062SCOTCV
0143829860999992007091519004-09400-038217FM-15+0253SBUF V0201301N004610048019N0112651N1+02901+01901999999ADDGA1071+004801999GA2071+021001999GF107991999999999999999999MA1101391999999REMMET058METAR SBUF 151900Z 13009KT 9999 BKN016 BKN070 29/19 Q1014;
0143829860999992007091520004-09400-038217FM-15+0253SBUF V0201201N006210048019N0112651N1+02801+02001999999ADDGA1071+004801999GA2071+021001999GF107991999999999999999999MA1101391999999REMMET058METAR SBUF 152000Z 12012KT 9999 BKN016 BKN070 28/20 Q1014;
0143829860999992007091521004-09400-038217FM-15+0253SBUF V0201401N005712200019N0112651N1+02601+02101999999ADDGA1021+004801999GA2041+021001999GF104991999999999999999999MA1101391999999REMMET058METAR SBUF 152100Z 14011KT 9999 FEW016 SCT070 26/21 Q1014;
0072829860999992007091522004-09400-038217FM-15+0253SBUF V0201401N00511220001CN0099001N1+02501+02201999999ADDMA1101591999999REMMET045METAR SBUF 152200Z 14010KT CAVOK 25/22 Q1016;
0072829860999992007091523004-09400-038217FM-15+0253SBUF V0201301N00571220001CN0099001N1+02401+02201999999ADDMA1101591999999REMMET045METAR SBUF 152300Z 13011KT CAVOK 24/22 Q1016;
0213829860999992007091600004-09400-038217SY-MT+0253SBUF V0201801N004112200019N0020001N1+02281+01811101561ADDGF100991001001999999001001KA1240M+03011MA1101691098671MD1999999-0091REMSYN082AAXX  16004 82986 32995 01808 10228 20181 39867 40156 333 10301 29070 55049 59009;MET045METAR SBUF 160000Z 13011KT CAVOK 23/23 Q1017;
0072829860999992007091601004-09400-038217FM-15+0253SBUF V0201401N00461220001CN0099001N1+02201+02201999999ADDMA1101691999999REMMET045METAR SBUF 160100Z 14009KT CAVOK 22/22 Q1017;
0072829860999992007091602004-09400-038217FM-15+0253SBUF V0201601N00261220001CN0099001N1+02101+02101999999ADDMA1101691999999REMMET045METAR SBUF 160200Z 16005KT CAVOK 21/21 Q1017;
0129829860999992007091609004-09400-038217FM-15+0253SBUF V0201601N001512200019N0050001N1+01901+01901999999ADDGA1041+003001999GF104991999999999999999999MA1101691999999MW1101REMMET054METAR SBUF 160900Z 16003KT 5000 BR SCT010 19/19 Q1017;
0129829860999992007091610004-09400-038217FM-15+0253SBUF V0201601N002610030019N0050001N1+02001+02001999999ADDGA1071+003001999GF107991999999999999999999MA1101691999999MW1101REMMET054METAR SBUF 161000Z 16005KT 5000 BR BKN010 20/20 Q1017;
0120829860999992007091611004-09400-038217FM-15+0253SBUF V0201401N003112200019N0112651N1+02401+02401999999ADDGA1041+003601999GF104991999999999999999999MA1101801999999REMMET051METAR SBUF 161100Z 14006KT 9999 SCT012 24/24 Q1018;
0229829860999992007091612004-09400-038217SY-MT+0253SBUF V0201801N002110075019N0100001N1+02451+01741101681ADDGA1041+003601999GF106991061021008001001001KA1240N+01801MA1101801098801MD1999999+0001REMSYN076AAXX  16124 82986 32597 61804 10245 20174 39880 40168 86200 333 20180 58000;MET051METAR SBUF 161200Z 16006KT 9999 SCT012 26/22 Q1018;
0120829860999992007091613004-09400-038217FM-15+0253SBUF V0201401N004112200019N0112651N1+03001+01901999999ADDGA1021+004501999GF102991999999999999999999MA1101691999999REMMET051METAR SBUF 161300Z 14008KT 9999 FEW015 30/19 Q1017;
0120829860999992007091614004-09400-038217FM-15+0253SBUF V0201401N003612200019N0112651N1+03101+01901999999ADDGA1021+004501999GF102991999999999999999999MA1101591999999REMMET051METAR SBUF 161400Z 14007KT 9999 FEW015 31/19 Q1016;
0120829860999992007091615004-09400-038217FM-15+0253SBUF V0201601N003112200019N0112651N1+03201+01801999999ADDGA1021+005401999GF102991999999999999999999MA1101491999999REMMET051METAR SBUF 161500Z 16006KT 9999 FEW018 32/18 Q1015;
0120829860999992007091616004-09400-038217FM-15+0253SBUF V0201401N003612200019N0112651N1+03301+01801999999ADDGA1021+006001999GF102991999999999999999999MA1101391999999REMMET051METAR SBUF 161600Z 14007KT 9999 FEW020 33/18 Q1014;
0120829860999992007091617004-09400-038217FM-15+0253SBUF V0201001N004112200019N0112651N1+03201+01601999999ADDGA1021+006001999GF102991999999999999999999MA1101291999999REMMET051METAR SBUF 161700Z 10008KT 9999 FEW020 32/16 Q1013;
0210829860999992007091618004-09400-038217SY-MT+0253SBUF V0201401N003110075019N0200001N1+03121+01391101091ADDGA1021+006001999GF105991051011008001001001MA1101191098241MD1999999-0091REMSYN070AAXX  16184 82986 32598 51406 10312 20139 39824 40109 85100 333 59009;MET051METAR SBUF 161800Z 13005KT 9999 FEW020 32/16 Q1012;
0120829860999992007091619004-09400-038217FM-15+0253SBUF V0201101N003112200019N0112651N1+03101+01601999999ADDGA1021+006001999GF102991999999999999999999MA1101191999999REMMET051METAR SBUF 161900Z 11006KT 9999 FEW020 31/16 Q1012;
0120829860999992007091620004-09400-038217FM-15+0253SBUF V0201001N004112200019N0112651N1+03101+01701999999ADDGA1021+006001999GF102991999999999999999999MA1101291999999REMMET051METAR SBUF 162000Z 10008KT 9999 FEW020 31/17 Q1013;
0120829860999992007091621004-09400-038217FM-15+0253SBUF V0201001N003112200019N0112651N1+02901+01901999999ADDGA1021+006001999GF102991999999999999999999MA1101291999999REMMET051METAR SBUF 162100Z 10006KT 9999 FEW020 29/19 Q1013;
0072829860999992007091622004-09400-038217FM-15+0253SBUF V0201101N00571220001CN0099001N1+02701+02201999999ADDMA1101391999999REMMET045METAR SBUF 162200Z 11011KT CAVOK 27/22 Q1014;
0120829860999992007091623004-09400-038217FM-15+0253SBUF V0201201N005712200019N0112651N1+02501+02501999999ADDGA1021+006001999GF102991999999999999999999MA1101491999999REMMET051METAR SBUF 162300Z 12011KT 9999 FEW020 25/25 Q1015;
0241829860999992007091700004-09400-038217SY-MT+0253SBUF V0201401N005710075019N0020001N1+02381+02091101481ADDGA1041+005401999GF106991061051008001001001KA1240M+03191MA1101591098611MD1999999-0061REMSYN088AAXX  17004 82986 32595 61411 10238 20209 39861 40148 86500 333 10319 29067 55096 59006;MET051METAR SBUF 170000Z 13016KT 9999 SCT018 24/24 Q1016;
0143829860999992007091701004-09400-038217FM-15+0253SBUF V0201401N006212200019N0112651N1+02401+02401999999ADDGA1021+004501999GA2041+030001999GF104991999999999999999999MA1101691999999REMMET058METAR SBUF 170100Z 14012KT 9999 FEW015 SCT100 24/24 Q1017;
0143829860999992007091702004-09400-038217FM-15+0253SBUF V0201301N004112200019N0112651N1+02301+02301999999ADDGA1021+004501999GA2041+030001999GF104991999999999999999999MA1101691999999REMMET058METAR SBUF 170200Z 13008KT 9999 FEW015 SCT100 23/23 Q1017;
0152829860999992007091709004-09400-038217FM-15+0253SBUF V0201401N003110030019N0040001N1+02201+02201999999ADDGA1071+003001999GA2071+003601999GF107991999999999999999999MA1101591999999MW1101REMMET061METAR SBUF 170900Z 14006KT 4000 BR BKN010 BKN012 22/22 Q1016;
0152829860999992007091710004-09400-038217FM-15+0253SBUF V0201501N003110030019N0040001N1+02201+02201999999ADDGA1071+003001999GA2071+003601999GF107991999999999999999999MA1101691999999MW1101REMMET061METAR SBUF 171000Z 15006KT 4000 BR BKN010 BKN012 22/22 Q1017;
0152829860999992007091711004-09400-038217FM-15+0253SBUF V0201101N002110030019N0050001N1+02301+02301999999ADDGA1071+003001999GA2071+003601999GF107991999999999999999999MA1101691999999MW1101REMMET061METAR SBUF 171100Z 11004KT 5000 BR BKN010 BKN012 23/23 Q1017;
0252829860999992007091712004-09400-038217SY-MT+0253SBUF V0200901N00261003601CN0200001N1+02381+01971101561ADDGA1071+003601999GA2071+004801999GF108991081051008001999999KA1240N+02101MA1101691098681MD1999999-0121REMSYN076AAXX  17124 82986 32598 80905 10238 20197 39868 40156 885// 333 20210 59012;MET058METAR SBUF 171200Z 14004KT 9999 BKN012 BKN016 24/24 Q1017;
0143829860999992007091713004-09400-038217FM-15+0253SBUF V0201401N003610036019N0112651N1+02601+02401999999ADDGA1071+003601999GA2071+004801999GF107991999999999999999999MA1101691999999REMMET058METAR SBUF 171300Z 14007KT 9999 BKN012 BKN016 26/24 Q1017;
0143829860999992007091714004-09400-038217FM-15+0253SBUF V0201601N003110036019N0112651N1+02901+02201999999ADDGA1071+003601999GA2071+004801999GF107991999999999999999999MA1101591999999REMMET058METAR SBUF 171400Z 16006KT 9999 BKN012 BKN016 29/22 Q1016;
0143829860999992007091715004-09400-038217FM-15+0253SBUF V0201901N002112200019N0112651N1+03001+02101999999ADDGA1041+004501999GA2041+005401999GF104991999999999999999999MA1101491999999REMMET058METAR SBUF 171500Z 19004KT 9999 SCT015 SCT018 30/21 Q1015;
0120829860999992007091716004-09400-038217FM-15+0253SBUF V0201501N002612200019N0112651N1+03201+02101999999ADDGA1021+006001999GF102991999999999999999999MA1101291999999REMMET051METAR SBUF 171600Z 15005KT 9999 FEW020 32/21 Q1013;
0120829860999992007091717004-09400-038217FM-15+0253SBUF V0201801N004112200019N0112651N1+03201+02001999999ADDGA1021+006001999GF102991999999999999999999MA1101191999999REMMET051METAR SBUF 171700Z 18008KT 9999 FEW020 32/20 Q1012;
0188829860999992007091718004-09400-038217SY-MT+0253SBUF V0200901N003612200019N0200001N1+03241+01501101031ADDGF101991011011008001001001MA1101191098201MD1999999-0041REMSYN070AAXX  17184 82986 32598 10907 10324 20150 39820 40103 81100 333 59004;MET045METAR SBUF 171800Z 14005KT CAVOK 33/19 Q1012;
0072829860999992007091719004-09400-038217FM-15+0253SBUF V0200901N00461220001CN0099001N1+03301+02001999999ADDMA1101191999999REMMET045METAR SBUF 171900Z 09009KT CAVOK 33/20 Q1012;
0072829860999992007091720004-09400-038217FM-15+0253SBUF V0201401N00411220001CN0099001N1+03201+02001999999ADDMA1101191999999REMMET045METAR SBUF 172000Z 14008KT CAVOK 32/20 Q1012;
0120829860999992007091721004-09400-038217FM-15+0253SBUF V0201201N003612200019N0112651N1+02901+02001999999ADDGA1021+003901999GF102991999999999999999999MA1101291999999REMMET051METAR SBUF 172100Z 12007KT 9999 FEW013 29/20 Q1013;
0072829860999992007091722004-09400-038217FM-15+0253SBUF V0201201N00411220001CN0099001N1+02801+02201999999ADDMA1101391999999REMMET045METAR SBUF 172200Z 12008KT CAVOK 28/22 Q1014;
0072829860999992007091723004-09400-038217FM-15+0253SBUF V0201301N00511220001CN0099001N1+02701+02401999999ADDMA1101391999999REMMET045METAR SBUF 172300Z 13010KT CAVOK 27/24 Q1014;
0241829860999992007091800004-09400-038217SY-MT+0253SBUF V0201401N003612200019N0020001N1+02501+02191101401ADDGA1021+003901999GF102991021001017501021001KA1240M+03271MA1101491098541MD1999999-0071REMSYN088AAXX  18004 82986 32795 21407 10250 20219 39854 40140 82020 333 10327 29070 55065 59007;MET051METAR SBUF 180000Z 11010KT 9999 FEW013 26/25 Q1015;
0120829860999992007091801004-09400-038217FM-15+0253SBUF V0201101N005112200019N0112651N1+02501+02501999999ADDGA1021+003901999GF102991999999999999999999MA1101591999999REMMET051METAR SBUF 180100Z 11010KT 9999 FEW013 25/25 Q1016;
0120829860999992007091802004-09400-038217FM-15+0253SBUF V0201201N004112200019N0112651N1+02401+02401999999ADDGA1021+003601999GF102991999999999999999999MA1101591999999REMMET051METAR SBUF 180200Z 12008KT 9999 FEW012 24/24 Q1016;
0152829860999992007091809004-09400-038217FM-15+0253SBUF V0201301N004610030019N0050001N1+02301+02301999999ADDGA1071+003001999GA2071+003601999GF107991999999999999999999MA1101801999999MW1101REMMET061METAR SBUF 180900Z 13009KT 5000 BR BKN010 BKN012 23/23 Q1018;
0143829860999992007091810004-09400-038217FM-15+0253SBUF V0201301N005110045019N0112651N1+02401+02401999999ADDGA1041+003601999GA2071+004501999GF107991999999999999999999MA1101901999999REMMET058METAR SBUF 181000Z 13010KT 9999 SCT012 BKN015 24/24 Q1019;
0143829860999992007091811004-09400-038217FM-15+0253SBUF V0201501N005112200019N0112651N1+02501+02501999999ADDGA1021+003601999GA2041+004501999GF104991999999999999999999MA1101901999999REMMET058METAR SBUF 181100Z 15010KT 9999 FEW012 SCT015 25/25 Q1019;
0229829860999992007091812004-09400-038217SY-MT+0253SBUF V0201401N004610075019N0100001N1+02541+01861101751ADDGA1041+004501999GF107991051021008001081001KA1240N+02201MA1101901098901MD1999999+0221REMSYN076AAXX  18124 82986 32597 71409 10254 20186 39890 40175 85280 333 20220 58022;MET051METAR SBUF 181200Z 15010KT 9999 SCT015 27/23 Q1019;
0120829860999992007091813004-09400-038217FM-15+0253SBUF V0201501N006212200019N0112651N1+02701+02201999999ADDGA1041+004501999GF104991999999999999999999MA1101901999999REMMET051METAR SBUF 181300Z 15012KT 9999 SCT015 27/22 Q1019;
0120829860999992007091814004-09400-038217FM-15+0253SBUF V0201601N004610048019N0112651N1+03001+02101999999ADDGA1071+004801999GF107991999999999999999999MA1101901999999REMMET051METAR SBUF 181400Z 16009KT 9999 BKN016 30/21 Q1019;
0143829860999992007091815004-09400-038217FM-15+0253SBUF V0201301N004110210019N0112651N1+03001+01901999999ADDGA1041+004801999GA2071+021001999GF107991999999999999999999MA1101801999999REMMET058METAR SBUF 181500Z 13008KT 9999 SCT016 BKN070 30/19 Q1018;
0143829860999992007091816004-09400-038217FM-15+0253SBUF V0201201N004610210019N0112651N1+03001+01801999999ADDGA1041+004801999GA2071+021001999GF107991999999999999999999MA1101591999999REMMET058METAR SBUF 181600Z 12009KT 9999 SCT016 BKN070 30/18 Q1016;
0143829860999992007091817004-09400-038217FM-15+0253SBUF V0201301N003612200019N0112651N1+03101+01801999999ADDGA1041+005401999GA2041+021001999GF104991999999999999999999MA1101491999999REMMET058METAR SBUF 181700Z 13007KT 9999 SCT018 SCT070 31/18 Q1015;
0120829860999992007091818004-09400-038217FM-15+0253SBUF V0201301N002612200019N0112651N1+03101+01801999999ADDGA1041+005401999GF104991999999999999999999MA1101491999999REMMET051METAR SBUF 181800Z 13005KT 9999 SCT018 31/18 Q1015;
0120829860999992007091819004-09400-038217FM-15+0253SBUF V0201101N003612200019N0112651N1+03101+01801999999ADDGA1041+005401999GF104991999999999999999999MA1101491999999REMMET051METAR SBUF 181900Z 11007KT 9999 SCT018 31/18 Q1015;
0120829860999992007091820004-09400-038217FM-15+0253SBUF V0201201N005712200019N0112651N1+02901+01801999999ADDGA1021+004801999GF102991999999999999999999MA1101491999999REMMET051METAR SBUF 182000Z 12011KT 9999 FEW016 29/18 Q1015;
0120829860999992007091821004-09400-038217FM-15+0253SBUF V0201301N006212200019N0112651N1+02801+01901999999ADDGA1021+005101999GF102991999999999999999999MA1101591999999REMMET051METAR SBUF 182100Z 13012KT 9999 FEW017 28/19 Q1016;
0120829860999992007091822004-09400-038217FM-15+0253SBUF V0201301N006212200019N0112651N1+02701+02001999999ADDGA1021+005101999GF102991999999999999999999MA1101691999999REMMET051METAR SBUF 182200Z 13012KT 9999 FEW017 27/20 Q1017;
0072829860999992007091823004-09400-038217FM-15+0253SBUF V0201401N00511220001CN0099001N1+02501+02001999999ADDMA1101801999999REMMET045METAR SBUF 182300Z 14010KT CAVOK 25/20 Q1018;
0213829860999992007091900004-09400-038217SY-MT+0253SBUF V0201401N005712200019N0020001N1+02361+01851101711ADDGF100991001001999999001001KA1240M+03151MA1101901098841MD1999999+0301REMSYN082AAXX  19004 82986 32995 01411 10236 20185 39884 40171 333 10315 29062 55046 58030;MET045METAR SBUF 190000Z 14010KT CAVOK 24/23 Q1019;
0072829860999992007091901004-09400-038217FM-15+0253SBUF V0201401N00511220001CN0099001N1+02301+02301999999ADDMA1101901999999REMMET045METAR SBUF 190100Z 14010KT CAVOK 23/23 Q1019;
0120829860999992007091902004-09400-038217FM-15+0253SBUF V0201401N004612200019N0112651N1+02301+02301999999ADDGA1021+003001999GF102991999999999999999999MA1101901999999REMMET051METAR SBUF 190200Z 14009KT 9999 FEW010 23/23 Q1019;
0120829860999992007091909004-09400-038217FM-15+0253SBUF V0201501N002612200019N0112651N1+02101+02001999999ADDGA1021+003601999GF102991999999999999999999MA1101901999999REMMET051METAR SBUF 190900Z 15005KT 9999 FEW012 21/20 Q1019;
0120829860999992007091910004-09400-038217FM-15+0253SBUF V0201601N002612200019N0112651N1+02201+01901999999ADDGA1021+003901999GF102991999999999999999999MA1102001999999REMMET051METAR SBUF 191000Z 16005KT 9999 FEW013 22/19 Q1020;
0120829860999992007091911004-09400-038217FM-15+0253SBUF V0201301N003610048019N0112651N1+02401+01901999999ADDGA1071+004801999GF107991999999999999999999MA1102001999999REMMET051METAR SBUF 191100Z 13007KT 9999 BKN016 24/19 Q1020;
0248829860999992007091912004-09400-038217SY-MT+0253SBUF V0201101N00511004801CN0100001N1+02421+01721101861ADDGA1071+004801999GF199999041021008001081001KA1240N+02001MA1102001098981MD1999999+0081REMSYN076AAXX  19124 82986 32597 6//// 10242 20172 39898 40186 84280 333 20200 58008;MET051METAR SBUF 191200Z 11010KT 9999 BKN016 27/18 Q1020;EQDQ01+000062SCOTCV
0120829860999992007091913004-09400-038217FM-15+0253SBUF V0201201N004610054019N0112651N1+02801+01801999999ADDGA1071+005401999GF107991999999999999999999MA1102001999999REMMET051METAR SBUF 191300Z 12009KT 9999 BKN018 28/18 Q1020;
0120829860999992007091914004-09400-038217FM-15+0253SBUF V0201301N004112200019N0112651N1+02901+01601999999ADDGA1041+005401999GF104991999999999999999999MA1101901999999REMMET051METAR SBUF 191400Z 13008KT 9999 SCT018 29/16 Q1019;
0120829860999992007091915004-09400-038217FM-15+0253SBUF V0201301N003612200019N0112651N1+02901+01701999999ADDGA1041+005401999GF104991999999999999999999MA1101691999999REMMET051METAR SBUF 191500Z 13007KT 9999 SCT018 29/17 Q1017;
0120829860999992007091916004-09400-038217FM-15+0253SBUF V0201201N005112200019N0112651N1+03101+01601999999ADDGA1041+006001999GF104991999999999999999999MA1101591999999REMMET051METAR SBUF 191600Z 12010KT 9999 SCT020 31/16 Q1016;
0120829860999992007091917004-09400-038217FM-15+0253SBUF V0201201N005110060019N0112651N1+03101+01601999999ADDGA1071+006001999GF107991999999999999999999MA1101491999999REMMET051METAR SBUF 191700Z 12010KT 9999 BKN020 31/16 Q1015;
0210829860999992007091918004-09400-038217SY-MT+0253SBUF V0201201N003610450019N0200001N1+03081+01121101301ADDGA1041+006001999GF106991031021008001031021MA1101391098451MD1999999-0031REMSYN070AAXX  19184 82986 32598 6//// 10308 20112 39845 40130 83232 333 59003;MET051METAR SBUF 191800Z 12007KT 9999 SCT020 31/15 Q1014;
0120829860999992007091919004-09400-038217FM-15+0253SBUF V0201101N003612200019N0112651N1+03101+01501999999ADDGA1021+006001999GF102991999999999999999999MA1101391999999REMMET051METAR SBUF 191900Z 11007KT 9999 FEW020 31/15 Q1014;
0120829860999992007091920004-09400-038217FM-15+0253SBUF V0201101N005112200019N0112651N1+02901+01601999999ADDGA1021+006001999GF102991999999999999999999MA1101491999999REMMET051METAR SBUF 192000Z 11010KT 9999 FEW020 29/16 Q1015;
0120829860999992007091921004-09400-038217FM-15+0253SBUF V0201401N006712200019N0112651N1+02801+01901999999ADDGA1041+005101999GF104991999999999999999999MA1101591999999REMMET051METAR SBUF 192100Z 14013KT 9999 SCT017 28/19 Q1016;
0120829860999992007091922004-09400-038217FM-15+0253SBUF V0201501N006212200019N0112651N1+02501+02201999999ADDGA1041+005101999GF104991999999999999999999MA1101691999999REMMET051METAR SBUF 192200Z 15012KT 9999 SCT017 25/22 Q1017;
0143829860999992007091923004-09400-038217FM-15+0253SBUF V0201501N006212200019N0112651N1+02401+02201999999ADDGA1021+004501999GA2041+024001999GF104991999999999999999999MA1101801999999REMMET058METAR SBUF 192300Z 15012KT 9999 FEW015 SCT080 24/22 Q1018;
0277829860999992007092000004-09400-038217SY-MT+0253SBUF V0201401N006712200019N0020001N1+02241+01881101701ADDGA1021+004501999GA2041+027001999GF199999001001999999001001KA1240M+03121MA1101801098821MD1999999-0021REMSYN082AAXX  20004 82986 32995 0//// 10224 20188 39882 40170 333 10312 29064 55088 59002;MET058METAR SBUF 200000Z 14013KT 9999 FEW015 SCT090 23/23 Q1018;EQDQ01+000002SCOTCV
0120829860999992007092001004-09400-038217FM-15+0253SBUF V0201301N005112200019N0112651N1+02301+02301999999ADDGA1041+004501999GF104991999999999999999999MA1101901999999REMMET051METAR SBUF 200100Z 13010KT 9999 SCT015 23/23 Q1019;
0129829860999992007092009004-09400-038217FM-15+0253SBUF V0201301N002610024019N0020001N1+02101+02101999999ADDGA1071+002401999GF107991999999999999999999MA1101691999999MW1101REMMET054METAR SBUF 200900Z 13005KT 2000 BR BKN008 21/21 Q1017;
0129829860999992007092010004-09400-038217FM-15+0253SBUF V0201301N003110030019N0040001N1+02401+02401999999ADDGA1071+003001999GF107991999999999999999999MA1101691999999MW1101REMMET054METAR SBUF 201000Z 13006KT 4000 BR BKN010 24/24 Q1017;
0120829860999992007092011004-09400-038217FM-15+0253SBUF V0201401N003112200019N0112651N1+02701+02301999999ADDGA1041+003601999GF104991999999999999999999MA1101691999999REMMET051METAR SBUF 201100Z 14006KT 9999 SCT012 27/23 Q1017;
0229829860999992007092012004-09400-038217SY-MT+0253SBUF V0201301N003610075019N0100001N1+02421+01721101641ADDGA1041+003601999GF106991061021008001001001KA1240N+01881MA1101801098761MD1999999+0221REMSYN076AAXX  20124 82986 32597 6//// 10242 20172 39876 40164 86200 333 20188 58022;MET051METAR SBUF 201200Z 13007KT 9999 SCT012 29/22 Q1018;
0120829860999992007092013004-09400-038217FM-15+0253SBUF V0201201N004112200019N0112651N1+03001+02201999999ADDGA1041+004501999GF104991999999999999999999MA1101691999999REMMET051METAR SBUF 201300Z 12008KT 9999 SCT015 30/22 Q1017;
0120829860999992007092014004-09400-038217FM-15+0253SBUF V0201401N005112200019N0112651N1+03001+02101999999ADDGA1041+004501999GF104991999999999999999999MA1101691999999REMMET051METAR SBUF 201400Z 14010KT 9999 SCT015 30/21 Q1017;
0120829860999992007092015004-09400-038217FM-15+0253SBUF V0201201N005112200019N0112651N1+03001+02101999999ADDGA1041+006001999GF104991999999999999999999MA1101491999999REMMET051METAR SBUF 201500Z 12010KT 9999 SCT020 30/21 Q1015;
0120829860999992007092016004-09400-038217FM-15+0253SBUF V0201001N002612200019N0112651N1+03101+01601999999ADDGA1041+006001999GF104991999999999999999999MA1101391999999REMMET051METAR SBUF 201600Z 10005KT 9999 SCT020 31/16 Q1014;
0120829860999992007092017004-09400-038217FM-15+0253SBUF V0201301N004112200019N0112651N1+03201+01601999999ADDGA1041+007501999GF104991999999999999999999MA1101291999999REMMET051METAR SBUF 201700Z 13008KT 9999 SCT025 32/16 Q1013;
0137829860999992007092018004-09400-038217FM-12+0253SBUF V02099999999992200019N0200001N1+03061+00952101131ADDGF104991041021008001001001MA1999999098281MD1999999-0171REMSYN070AAXX  20184 82986 32598 4//// 10306 20095 39828 40113 84200 333 59017;
0120829860999992007092019004-09400-038217FM-15+0253SBUF V0201101N002112200019N0112651N1+03201+01501999999ADDGA1041+007501999GF104991999999999999999999MA1101291999999REMMET051METAR SBUF 201900Z 11004KT 9999 SCT025 32/15 Q1013;
0120829860999992007092020004-09400-038217FM-15+0253SBUF V0201301N005112200019N0112651N1+03001+01601999999ADDGA1021+006001999GF102991999999999999999999MA1101291999999REMMET051METAR SBUF 202000Z 13010KT 9999 FEW020 30/16 Q1013;
0120829860999992007092021004-09400-038217FM-15+0253SBUF V0201201N003112200019N0112651N1+02901+01601999999ADDGA1021+006001999GF102991999999999999999999MA1101291999999REMMET051METAR SBUF 202100Z 12006KT 9999 FEW020 29/16 Q1013;
0072829860999992007092022004-09400-038217FM-15+0253SBUF V0201401N00511220001CN0099001N1+02701+01901999999ADDMA1101491999999REMMET045METAR SBUF 202200Z 14010KT CAVOK 27/19 Q1015;
0072829860999992007092023004-09400-038217FM-15+0253SBUF V0201401N00411220001CN0099001N1+02501+01901999999ADDMA1101591999999REMMET045METAR SBUF 202300Z 14008KT CAVOK 25/19 Q1016;
0213829860999992007092100004-09400-038217SY-MT+0253SBUF V0201501N004612200019N0020001N1+02421+01951101481ADDGF100991001001999999001001KA1240M+03201MA1101591098611MD1999999-0211REMSYN082AAXX  21004 82986 32995 0//// 10242 20195 39861 40148 333 10320 29060 55105 59021;MET045METAR SBUF 210000Z 15009KT CAVOK 24/20 Q1016;
0072829860999992007092101004-09400-038217FM-15+0253SBUF V0201401N00511220001CN0099001N1+02301+01901999999ADDMA1101591999999REMMET045METAR SBUF 210100Z 14010KT CAVOK 23/19 Q1016;
0072829860999992007092102004-09400-038217FM-15+0253SBUF V0201301N00361220001CN0099001N1+02301+01901999999ADDMA1101591999999REMMET045METAR SBUF 210200Z 13007KT CAVOK 23/19 Q1016;
0129829860999992007092109004-09400-038217FM-15+0253SBUF V0201201N003112200019N0040001N1+02201+02201999999ADDGA1041+001801999GF104991999999999999999999MA1101591999999MW1101REMMET054METAR SBUF 210900Z 12006KT 4000 BR SCT006 22/22 Q1016;
0120829860999992007092110004-09400-038217FM-15+0253SBUF V0201201N003112200019N0112651N1+02301+02301999999ADDGA1041+002401999GF104991999999999999999999MA1101691999999REMMET051METAR SBUF 211000Z 12006KT 9999 SCT008 23/23 Q1017;
0120829860999992007092111004-09400-038217FM-15+0253SBUF V0201201N003112200019N0112651N1+02501+02301999999ADDGA1041+002401999GF104991999999999999999999MA1101691999999REMMET051METAR SBUF 211100Z 12006KT 9999 SCT008 25/23 Q1017;
0229829860999992007092112004-09400-038217SY-MT+0253SBUF V0201401N006210450019N0100001N1+02611+01571101591ADDGA1041+004501999GF106991031011008001061001KA1240N+02001MA1101801098731MD1999999-0031REMSYN076AAXX  21124 82986 32597 6//// 10261 20157 39873 40159 83160 333 20200 59003;MET051METAR SBUF 211200Z 14012KT 9999 SCT015 29/20 Q1018;
0120829860999992007092113004-09400-038217FM-15+0253SBUF V0201101N005712200019N0112651N1+03001+01801999999ADDGA1041+004501999GF104991999999999999999999MA1101691999999REMMET051METAR SBUF 211300Z 11011KT 9999 SCT015 30/18 Q1017;
0120829860999992007092114004-09400-038217FM-15+0253SBUF V0201101N006212200019N0112651N1+03201+01801999999ADDGA1041+004501999GF104991999999999999999999MA1101691999999REMMET051METAR SBUF 211400Z 11012KT 9999 SCT015 32/18 Q1017;
0120829860999992007092115004-09400-038217FM-15+0253SBUF V0201301N005112200019N0112651N1+03301+01701999999ADDGA1021+005401999GF102991999999999999999999MA1101491999999REMMET051METAR SBUF 211500Z 13010KT 9999 FEW018 33/17 Q1015;
0120829860999992007092116004-09400-038217FM-15+0253SBUF V0201301N005112200019N0112651N1+03401+01501999999ADDGA1021+006001999GF102991999999999999999999MA1101391999999REMMET051METAR SBUF 211600Z 13010KT 9999 FEW020 34/15 Q1014;
0120829860999992007092117004-09400-038217FM-15+0253SBUF V0201201N004112200019N0112651N1+03501+01601999999ADDGA1021+006001999GF102991999999999999999999MA1101291999999REMMET051METAR SBUF 211700Z 12008KT 9999 FEW020 35/16 Q1013;
0229829860999992007092118004-09400-038217SY-MT+0253SBUF V0201201N005712200019N0200001N1+03261+01471101121ADDGA1021+006001999GF104991999011008001001001MA1101291098291MD1999999+0011REMSYN070AAXX  21184 82986 32598 4//// 10326 20147 39829 40112 85100 333 58001;MET051METAR SBUF 211800Z 12011KT 9999 FEW020 34/16 Q1013;EQDQ01+000052SCOTLC
0120829860999992007092119004-09400-038217FM-15+0253SBUF V0201301N005712200019N0112651N1+03401+01601999999ADDGA1021+006001999GF102991999999999999999999MA1101291999999REMMET051METAR SBUF 211900Z 13011KT 9999 FEW020 34/16 Q1013;
0120829860999992007092120004-09400-038217FM-15+0253SBUF V0201201N005712200019N0112651N1+03201+01701999999ADDGA1021+006001999GF102991999999999999999999MA1101391999999REMMET051METAR SBUF 212000Z 12011KT 9999 FEW020 32/17 Q1014;
0120829860999992007092121004-09400-038217FM-15+0253SBUF V0201201N006212200019N0112651N1+02901+01801999999ADDGA1021+006001999GF102991999999999999999999MA1101391999999REMMET051METAR SBUF 212100Z 12012KT 9999 FEW020 29/18 Q1014;
0072829860999992007092122004-09400-038217FM-15+0253SBUF V0201301N00771220001CN0099001N1+02801+02101999999ADDMA1101491999999REMMET045METAR SBUF 212200Z 13015KT CAVOK 28/21 Q1015;
0072829860999992007092123004-09400-038217FM-15+0253SBUF V0201301N00821220001CN0099001N1+02601+02201999999ADDMA1101691999999REMMET045METAR SBUF 212300Z 13016KT CAVOK 26/22 Q1017;
0241829860999992007092200004-09400-038217SY-MT+0253SBUF V0201401N007212200019N0020001N1+02441+01971101561ADDGA1021+004501999GF105991051021008001001001KA1240M+03261MA1101691098701MD1999999+0091REMSYN088AAXX  22004 82986 32595 5//// 10244 20197 39870 40156 85200 333 10326 29059 55097 58009;MET051METAR SBUF 220000Z 14014KT 9999 FEW015 25/24 Q1017;
0120829860999992007092201004-09400-038217FM-15+0253SBUF V0201401N006212200019N0112651N1+02401+02401999999ADDGA1021+005101999GF102991999999999999999999MA1101801999999REMMET051METAR SBUF 220100Z 14012KT 9999 FEW017 24/24 Q1018;
0120829860999992007092202004-09400-038217FM-15+0253SBUF V0201401N006212200019N0112651N1+02401+02401999999ADDGA1041+005101999GF104991999999999999999999MA1101801999999REMMET051METAR SBUF 220200Z 14012KT 9999 SCT017 24/24 Q1018;
0129829860999992007092209004-09400-038217FM-15+0253SBUF V0201301N003112200019N0040001N1+02201+02201999999ADDGA1041+002401999GF104991999999999999999999MA1101901999999MW1101REMMET054METAR SBUF 220900Z 13006KT 4000 BR SCT008 22/22 Q1019;
0129829860999992007092210004-09400-038217FM-15+0253SBUF V0201201N004110024019N0050001N1+02501+02501999999ADDGA1071+002401999GF107991999999999999999999MA1101901999999MW1101REMMET054METAR SBUF 221000Z 12008KT 5000 BR BKN008 25/25 Q1019;
0120829860999992007092211004-09400-038217FM-15+0253SBUF V0201101N006210036019N0112651N1+02701+02301999999ADDGA1071+003601999GF107991999999999999999999MA1102001999999REMMET051METAR SBUF 221100Z 11012KT 9999 BKN012 27/23 Q1020;
0229829860999992007092212004-09400-038217SY-MT+0253SBUF V0201101N005712200019N0100001N1+02571+01641101781ADDGA1041+004501999GF105991041021008001001021KA1240N+02021MA1101901098911MD1999999+0181REMSYN076AAXX  22124 82986 32597 5//// 10257 20164 39891 40178 84202 333 20202 58018;MET051METAR SBUF 221200Z 11011KT 9999 SCT015 29/19 Q1019;
0120829860999992007092213004-09400-038217FM-15+0253SBUF V0201201N005712200019N0112651N1+03101+01801999999ADDGA1041+004501999GF104991999999999999999999MA1101901999999REMMET051METAR SBUF 221300Z 12011KT 9999 SCT015 31/18 Q1019;
0120829860999992007092214004-09400-038217FM-15+0253SBUF V0201101N005712200019N0112651N1+03301+01701999999ADDGA1041+005401999GF104991999999999999999999MA1101801999999REMMET051METAR SBUF 221400Z 11011KT 9999 SCT018 33/17 Q1018;
0120829860999992007092215004-09400-038217FM-15+0253SBUF V0201101N005112200019N0112651N1+03301+01601999999ADDGA1041+006001999GF104991999999999999999999MA1101691999999REMMET051METAR SBUF 221500Z 11010KT 9999 SCT020 33/16 Q1017;
0120829860999992007092216004-09400-038217FM-15+0253SBUF V0201401N006212200019N0112651N1+03301+01501999999ADDGA1041+006001999GF104991999999999999999999MA1101491999999REMMET051METAR SBUF 221600Z 14012KT 9999 SCT020 33/15 Q1015;
0120829860999992007092217004-09400-038217FM-15+0253SBUF V0201601N005112200019N0112651N1+03401+01501999999ADDGA1021+007501999GF102991999999999999999999MA1101391999999REMMET051METAR SBUF 221700Z 16010KT 9999 FEW025 34/15 Q1014;
0210829860999992007092218004-09400-038217SY-MT+0253SBUF V0201301N006212200019N0200001N1+03161+01341101171ADDGA1021+007501999GF103991031011008001001001MA1101391098341MD1999999+0051REMSYN070AAXX  22184 82986 32598 3//// 10316 20134 39834 40117 83100 333 58005;MET051METAR SBUF 221800Z 13012KT 9999 FEW025 34/14 Q1014;
0120829860999992007092219004-09400-038217FM-15+0253SBUF V0201101N005112200019N0112651N1+03301+01501999999ADDGA1021+007501999GF102991999999999999999999MA1101391999999REMMET051METAR SBUF 221900Z 11010KT 9999 FEW025 33/15 Q1014;
0120829860999992007092220004-09400-038217FM-15+0253SBUF V0201201N006212200019N0112651N1+03101+01601999999ADDGA1021+007501999GF102991999999999999999999MA1101391999999REMMET051METAR SBUF 222000Z 12012KT 9999 FEW025 31/16 Q1014;
0120829860999992007092221004-09400-038217FM-15+0253SBUF V0201101N004612200019N0112651N1+02801+01601999999ADDGA1021+006001999GF102991999999999999999999MA1101491999999REMMET051METAR SBUF 222100Z 11009KT 9999 FEW020 28/16 Q1015;
0072829860999992007092222004-09400-038217FM-15+0253SBUF V0201301N00361220001CN0099001N1+02601+01701999999ADDMA1101591999999REMMET045METAR SBUF 222200Z 13007KT CAVOK 26/17 Q1016;
0072829860999992007092223004-09400-038217FM-15+0253SBUF V0201201N00511220001CN0099001N1+02501+01601999999ADDMA1101691999999REMMET045METAR SBUF 222300Z 12010KT CAVOK 25/16 Q1017;
0213829860999992007092300004-09400-038217SY-MT+0253SBUF V0201401N005112200019N0020001N1+02361+01731101601ADDGF100991001001999999001001KA1240M+03211MA1101691098731MD1999999+0031REMSYN082AAXX  23004 82986 32995 0//// 10236 20173 39873 40160 333 10321 29056 55099 58003;MET045METAR SBUF 230000Z 14010KT CAVOK 24/18 Q1017;
0072829860999992007092301004-09400-038217FM-15+0253SBUF V0201301N00511220001CN0099001N1+02301+01801999999ADDMA1101801999999REMMET045METAR SBUF 230100Z 13010KT CAVOK 23/18 Q1018;
0072829860999992007092302004-09400-038217FM-15+0253SBUF V0201301N00311220001CN0099001N1+02201+01801999999ADDMA1101801999999REMMET045METAR SBUF 230200Z 13006KT CAVOK 22/18 Q1018;
0129829860999992007092309004-09400-038217FM-15+0253SBUF V0201501N003112200019N0040001N1+02101+02101999999ADDGA1021+001801999GF102991999999999999999999MA1101801999999MW1101REMMET054METAR SBUF 230900Z 15006KT 4000 BR FEW006 21/21 Q1018;
0152829860999992007092310004-09400-038217FM-15+0253SBUF V0201601N003112200019N0050001N1+02201+02201999999ADDGA1041+001801999GA2041+003001999GF104991999999999999999999MA1101801999999MW1101REMMET061METAR SBUF 231000Z 16006KT 5000 BR SCT006 SCT010 22/22 Q1018;
0152829860999992007092311004-09400-038217FM-15+0253SBUF V0201201N005110030019N0050001N1+02601+02401999999ADDGA1021+001801999GA2071+003001999GF107991999999999999999999MA1101901999999MW1101REMMET061METAR SBUF 231100Z 12010KT 5000 BR FEW006 BKN010 26/24 Q1019;
0248829860999992007092312004-09400-038217SY-MT+0253SBUF V0201201N00671003001CN0100001N1+02501+01801101751ADDGA1071+003001999GF199999061041008001001001KA1240N+01881MA1101901098871MD1999999-0041REMSYN076AAXX  23124 82986 32597 6//// 10250 20180 39887 40175 86400 333 20188 59004;MET051METAR SBUF 231200Z 12013KT 9999 BKN010 29/20 Q1019;EQDQ01+000062SCOTCV
0120829860999992007092313004-09400-038217FM-15+0253SBUF V0201201N005110045019N0112651N1+03101+01901999999ADDGA1071+004501999GF107991999999999999999999MA1101801999999REMMET051METAR SBUF 231300Z 12010KT 9999 BKN015 31/19 Q1018;
0120829860999992007092314004-09400-038217FM-15+0253SBUF V0201301N005710045019N0112651N1+03001+01801999999ADDGA1071+004501999GF107991999999999999999999MA1101691999999REMMET051METAR SBUF 231400Z 13011KT 9999 BKN015 30/18 Q1017;
0120829860999992007092315004-09400-038217FM-15+0253SBUF V0201201N005710060019N0112651N1+03201+01801999999ADDGA1071+006001999GF107991999999999999999999MA1101591999999REMMET051METAR SBUF 231500Z 12011KT 9999 BKN020 32/18 Q1016;
0120829860999992007092316004-09400-038217FM-15+0253SBUF V0201201N005712200019N0112651N1+03401+01701999999ADDGA1041+007501999GF104991999999999999999999MA1101491999999REMMET051METAR SBUF 231600Z 12011KT 9999 SCT025 34/17 Q1015;
0120829860999992007092317004-09400-038217FM-15+0253SBUF V0201101N006212200019N0112651N1+03301+01601999999ADDGA1041+007501999GF104991999999999999999999MA1101391999999REMMET051METAR SBUF 231700Z 11012KT 9999 SCT025 33/16 Q1014;
0229829860999992007092318004-09400-038217SY-MT+0253SBUF V0201301N006712200019N0200001N1+03081+01021101151ADDGA1041+007501999GF199999031041008001001001MA1101291098301MD1999999-0041REMSYN070AAXX  23184 82986 32598 30000 10308 20102 39830 40115 83400 333 59004;MET051METAR SBUF 231800Z 13013KT 9999 SCT025 32/17 Q1013;EQDQ01+000032SCOTCV
0120829860999992007092319004-09400-038217FM-15+0253SBUF V0201101N007212200019N0112651N1+03201+01701999999ADDGA1041+007501999GF104991999999999999999999MA1101291999999REMMET051METAR SBUF 231900Z 11014KT 9999 SCT025 32/17 Q1013;
0120829860999992007092320004-09400-038217FM-15+0253SBUF V0201101N006212200019N0112651N1+03001+01701999999ADDGA1021+006001999GF102991999999999999999999MA1101391999999REMMET051METAR SBUF 232000Z 11012KT 9999 FEW020 30/17 Q1014;
0072829860999992007092321004-09400-038217FM-15+0253SBUF V0201101N00571220001CN0099001N1+02801+01801999999ADDMA1101391999999REMMET045METAR SBUF 232100Z 11011KT CAVOK 28/18 Q1014;
0072829860999992007092322004-09400-038217FM-15+0253SBUF V0201201N00461220001CN0099001N1+02701+02001999999ADDMA1101491999999REMMET045METAR SBUF 232200Z 12009KT CAVOK 27/20 Q1015;
0072829860999992007092323004-09400-038217FM-15+0253SBUF V0201301N00621220001CN0099001N1+02601+02101999999ADDMA1101591999999REMMET045METAR SBUF 232300Z 13012KT CAVOK 26/21 Q1016;
0213829860999992007092400004-09400-038217SY-MT+0253SBUF V0201301N005712200019N0020001N1+02421+01721101561ADDGF100991001001999999001001KA1240M+03211MA1101691098691MD1999999-0041REMSYN082AAXX  24004 82986 32995 0//// 10242 20172 39869 40156 333 10321 29056 55092 59004;MET045METAR SBUF 240000Z 13011KT CAVOK 25/23 Q1017;
0072829860999992007092401004-09400-038217FM-15+0253SBUF V0201301N00461220001CN0099001N1+02401+02401999999ADDMA1101801999999REMMET045METAR SBUF 240100Z 13009KT CAVOK 24/24 Q1018;
0053829860999992007092402004-09400-038217FM-15+0253SBUF V0201401N00361220001CN0099001N1+02301+02301999999REMMET044METAR SBUF 240200Z 14007KT CAVOK 23/23 1018;
0143829860999992007092409004-09400-038217FM-15+0253SBUF V0201301N002610036019N0112651N1+02201+02201999999ADDGA1041+002101999GA2071+003601999GF107991999999999999999999MA1101691999999REMMET058METAR SBUF 240900Z 13005KT 9999 SCT007 BKN012 22/22 Q1017;
0143829860999992007092410004-09400-038217FM-15+0253SBUF V0201301N003112200019N0112651N1+02301+02301999999ADDGA1021+002701999GA2041+003601999GF104991999999999999999999MA1101801999999REMMET058METAR SBUF 241000Z 13006KT 9999 FEW009 SCT012 23/23 Q1018;
0120829860999992007092411004-09400-038217FM-15+0253SBUF V0201201N004112200019N0112651N1+02701+02401999999ADDGA1041+004501999GF104991999999999999999999MA1101801999999REMMET051METAR SBUF 241100Z 12008KT 9999 SCT015 27/24 Q1018;
0229829860999992007092412004-09400-038217SY-MT+0253SBUF V0201201N004610450019N0100001N1+02521+01691101711ADDGA1021+005101999GF106991041021008001011001KA1240N+02021MA1101901098141MD1999999-0031REMSYN076AAXX  24124 82986 32597 6//// 10252 20169 39814 40171 84210 333 20202 59003;MET051METAR SBUF 241200Z 12009KT 9999 FEW017 29/21 Q1019;
0120829860999992007092413004-09400-038217FM-15+0253SBUF V0201101N004112200019N0112651N1+03001+01901999999ADDGA1041+006001999GF104991999999999999999999MA1101901999999REMMET051METAR SBUF 241300Z 11008KT 9999 SCT020 30/19 Q1019;
0120829860999992007092414004-09400-038217FM-15+0253SBUF V0201101N004612200019N0112651N1+03101+01801999999ADDGA1041+007501999GF104991999999999999999999MA1101801999999REMMET051METAR SBUF 241400Z 11009KT 9999 SCT025 31/18 Q1018;
0120829860999992007092415004-09400-038217FM-15+0253SBUF V0201201N004612200019N0112651N1+03301+01901999999ADDGA1041+007501999GF104991999999999999999999MA1101691999999REMMET051METAR SBUF 241500Z 12009KT 9999 SCT025 33/19 Q1017;
0120829860999992007092416004-09400-038217FM-15+0253SBUF V0201101N005112200019N0112651N1+03301+01801999999ADDGA1041+007501999GF104991999999999999999999MA1101491999999REMMET051METAR SBUF 241600Z 11010KT 9999 SCT025 33/18 Q1015;
0120829860999992007092417004-09400-038217FM-15+0253SBUF V0201101N004112200019N0112651N1+03301+01801999999ADDGA1021+007501999GF102991999999999999999999MA1101391999999REMMET051METAR SBUF 241700Z 11008KT 9999 FEW025 33/18 Q1014;
0229829860999992007092418004-09400-038217SY-MT+0253SBUF V0201301N004612200019N0200001N1+03061+01111101181ADDGA1021+007501999GF199999011011008001001001MA1101391098341MD1999999+0041REMSYN070AAXX  24184 82986 32598 1//// 10306 20111 39834 40118 81100 333 58004;MET051METAR SBUF 241800Z 13009KT 9999 FEW025 33/17 Q1014;EQDQ01+000012SCOTCV
0072829860999992007092419004-09400-038217FM-15+0253SBUF V0201301N00461220001CN0099001N1+03401+01801999999ADDMA1101291999999REMMET045METAR SBUF 241900Z 13009KT CAVOK 34/18 Q1013;
0072829860999992007092420004-09400-038217FM-15+0253SBUF V0201101N00311220001CN0099001N1+03201+01801999999ADDMA1101391999999REMMET045METAR SBUF 242000Z 11006KT CAVOK 32/18 Q1014;
0072829860999992007092421004-09400-038217FM-15+0253SBUF V0201001N00411220001CN0099001N1+02901+01901999999ADDMA1101391999999REMMET045METAR SBUF 242100Z 10008KT CAVOK 29/19 Q1014;
0072829860999992007092422004-09400-038217FM-15+0253SBUF V0201001N00311220001CN0099001N1+02801+01901999999ADDMA1101391999999REMMET045METAR SBUF 242200Z 10006KT CAVOK 28/19 Q1014;
0072829860999992007092423004-09400-038217FM-15+0253SBUF V0201001N00311220001CN0099001N1+02701+02001999999ADDMA1101491999999REMMET045METAR SBUF 242300Z 10006KT CAVOK 27/20 Q1015;
0213829860999992007092500004-09400-038217SY-MT+0253SBUF V0201101N003112200019N0020001N1+02441+01691101411ADDGF100991001001999999001001KA1240M+03131MA1101491098551MD1999999+0141REMSYN082AAXX  25004 82986 32995 0//// 10244 20169 39855 40141 333 10313 29054 55092 58014;MET045METAR SBUF 250000Z 11006KT CAVOK 26/21 Q1015;
0072829860999992007092501004-09400-038217FM-15+0253SBUF V0201401N00511220001CN0099001N1+02501+02301999999ADDMA1101591999999REMMET045METAR SBUF 250100Z 14010KT CAVOK 25/23 Q1016;
0072829860999992007092502004-09400-038217FM-15+0253SBUF V0201401N00361220001CN0099001N1+02401+02401999999ADDMA1101591999999REMMET045METAR SBUF 250200Z 14007KT CAVOK 24/24 Q1016;
0152829860999992007092509004-09400-038217FM-15+0253SBUF V0201401N003110036019N0025001N1+02101+02101999999ADDGA1041+002401999GA2071+003601999GF107991999999999999999999MA1101591999999MW1101REMMET061METAR SBUF 250900Z 14006KT 2500 BR SCT008 BKN012 21/21 Q1016;
0152829860999992007092510004-09400-038217FM-15+0253SBUF V0201201N003110036019N0035001N1+02201+02201999999ADDGA1041+002401999GA2071+003601999GF107991999999999999999999MA1101691999999MW1101REMMET061METAR SBUF 251000Z 12006KT 3500 BR SCT008 BKN012 22/22 Q1017;
0152829860999992007092511004-09400-038217FM-15+0253SBUF V0201201N004110045019N0050001N1+02401+02401999999ADDGA1021+003001999GA2071+004501999GF107991999999999999999999MA1101691999999MW1101REMMET061METAR SBUF 251100Z 12008KT 5000 BR FEW010 BKN015 24/24 Q1017;
0248829860999992007092512004-09400-038217SY-MT+0253SBUF V0200801N004112200019N0200001N1+02501+01591101581ADDGA1021+004501999GF199999011011008001001001KA1240N+01981MA1101691098711MD1999999-0131REMSYN076AAXX  25124 82986 32598 1//// 10250 20159 39871 40158 81100 333 20198 59013;MET051METAR SBUF 251200Z 08008KT 9999 FEW015 28/20 Q1017;EQDQ01+000012SCOTCV
0120829860999992007092513004-09400-038217FM-15+0253SBUF V0201401N005112200019N0112651N1+03001+01801999999ADDGA1021+004501999GF102991999999999999999999MA1101691999999REMMET051METAR SBUF 251300Z 14010KT 9999 FEW015 30/18 Q1017;
0072829860999992007092514004-09400-038217FM-15+0253SBUF V0201301N00511220001CN0099001N1+03201+01701999999ADDMA1101591999999REMMET045METAR SBUF 251400Z 13010KT CAVOK 32/17 Q1016;
0072829860999992007092515004-09400-038217FM-15+0253SBUF V0201101N00511220001CN0099001N1+03401+01701999999ADDMA1101591999999REMMET045METAR SBUF 251500Z 11010KT CAVOK 34/17 Q1016;
0072829860999992007092516004-09400-038217FM-15+0253SBUF V0201301N00511220001CN0099001N1+03401+01601999999ADDMA1101491999999REMMET045METAR SBUF 251600Z 13010KT CAVOK 34/16 Q1015;
0120829860999992007092517004-09400-038217FM-15+0253SBUF V0201201N004612200019N0112651N1+03301+01501999999ADDGA1021+007501999GF102991999999999999999999MA1101291999999REMMET051METAR SBUF 251700Z 12009KT 9999 FEW025 33/15 Q1013;
0120829860999992007092518004-09400-038217FM-15+0253SBUF V0201301N003612200019N0112651N1+03301+01401999999ADDGA1021+007501999GF102991999999999999999999MA1101291999999REMMET051METAR SBUF 251800Z 13007KT 9999 FEW025 33/14 Q1013;
0120829860999992007092520004-09400-038217FM-15+0253SBUF V0201401N005112200019N0112651N1+03101+01501999999ADDGA1021+006001999GF102991999999999999999999MA1101391999999REMMET051METAR SBUF 252000Z 14010KT 9999 FEW020 31/15 Q1014;
0072829860999992007092521004-09400-038217FM-15+0253SBUF V0201401N00721220001CN0099001N1+02901+01701999999ADDMA1101491999999REMMET045METAR SBUF 252100Z 14014KT CAVOK 29/17 Q1015;
0072829860999992007092522004-09400-038217FM-15+0253SBUF V0201401N00721220001CN0099001N1+02801+01801999999ADDMA1101691999999REMMET045METAR SBUF 252200Z 14014KT CAVOK 28/18 Q1017;
0072829860999992007092523004-09400-038217FM-15+0253SBUF V0201401N00871220001CN0099001N1+02601+02001999999ADDMA1101801999999REMMET045METAR SBUF 252300Z 14017KT CAVOK 26/20 Q1018;
0213829860999992007092600004-09400-038217SY-MT+0253SBUF V0201301N006712200019N0020001N1+02391+01581101741ADDGF100991001001999999001001KA1240M+03241MA1101901098861MD1999999+0311REMSYN082AAXX  26004 82986 32995 0//// 10239 20158 39886 40174 333 10324 29051 55096 58031;MET045METAR SBUF 260000Z 13013KT CAVOK 24/20 Q1019;
0072829860999992007092601004-09400-038217FM-15+0253SBUF V0201401N00511220001CN0099001N1+02301+02201999999ADDMA1101901999999REMMET045METAR SBUF 260100Z 14010KT CAVOK 23/22 Q1019;
0072829860999992007092602004-09400-038217FM-15+0253SBUF V0201501N00571220001CN0099001N1+02301+02301999999ADDMA1101901999999REMMET045METAR SBUF 260200Z 15011KT CAVOK 23/23 Q1019;
0129829860999992007092609004-09400-038217FM-15+0253SBUF V0201401N003612200019N0040001N1+02101+02101999999ADDGA1041+002401999GF104991999999999999999999MA1101901999999MW1101REMMET054METAR SBUF 260900Z 14007KT 4000 BR SCT008 21/21 Q1019;
0129829860999992007092610004-09400-038217FM-15+0253SBUF V0201301N004112200019N0050001N1+02301+02301999999ADDGA1041+003601999GF104991999999999999999999MA1102001999999MW1101REMMET054METAR SBUF 261000Z 13008KT 5000 BR SCT012 23/23 Q1020;
0120829860999992007092611004-09400-038217FM-15+0253SBUF V0201301N004112200019N0112651N1+02701+02301999999ADDGA1041+004501999GF104991999999999999999999MA1102001999999REMMET051METAR SBUF 261100Z 13008KT 9999 SCT015 27/23 Q1020;
0240829860999992007092612004-09400-038217SY-MT+0253SBUF V0201501N005710075019N0100001N1+02521+01551101891ADDGA1041+004501999GF106991061021008001001001KA1240N+01941MA1102001099011MD1999999+0301OC101081REMSYN076AAXX  26124 82986 32597 6//// 10252 20155 39901 40189 86200 333 20194 58030;MET054METAR SBUF 261200Z 15011G21KT 9999 SCT015 29/19 Q1020;
0120829860999992007092613004-09400-038217FM-15+0253SBUF V0201101N007212200019N0112651N1+03101+01801999999ADDGA1041+004501999GF104991999999999999999999MA1102001999999REMMET051METAR SBUF 261300Z 11014KT 9999 SCT015 31/18 Q1020;
0120829860999992007092614004-09400-038217FM-15+0253SBUF V0201101N007212200019N0112651N1+03101+01801999999ADDGA1041+004501999GF104991999999999999999999MA1102001999999REMMET051METAR SBUF 261400Z 11014KT 9999 SCT015 31/18 Q1020;
0120829860999992007092615004-09400-038217FM-15+0253SBUF V0201301N007212200019N0112651N1+03301+01701999999ADDGA1041+006001999GF104991999999999999999999MA1101801999999REMMET051METAR SBUF 261500Z 13014KT 9999 SCT020 33/17 Q1018;
0120829860999992007092616004-09400-038217FM-15+0253SBUF V0201401N006712200019N0112651N1+03401+01701999999ADDGA1041+007501999GF104991999999999999999999MA1101591999999REMMET051METAR SBUF 261600Z 14013KT 9999 SCT025 34/17 Q1016;
0120829860999992007092617004-09400-038217FM-15+0253SBUF V0201201N005712200019N0112651N1+03401+01701999999ADDGA1041+007501999GF104991999999999999999999MA1101491999999REMMET051METAR SBUF 261700Z 12011KT 9999 SCT025 34/17 Q1015;
0210829860999992007092618004-09400-038217SY-MT+0253SBUF V0201301N006710075019N0200001N1+03171+00921101281ADDGA1041+007501999GF105991051021008001001001MA1101391098441MD1999999+0121REMSYN070AAXX  26184 82986 32598 5//// 10317 20092 39844 40128 85200 333 58012;MET051METAR SBUF 261800Z 13013KT 9999 SCT025 34/17 Q1014;
0120829860999992007092619004-09400-038217FM-15+0253SBUF V0201301N006712200019N0112651N1+03201+01801999999ADDGA1041+007501999GF104991999999999999999999MA1101491999999REMMET051METAR SBUF 261900Z 13013KT 9999 SCT025 32/18 Q1015;
0120829860999992007092620004-09400-038217FM-15+0253SBUF V0201301N007712200019N0112651N1+02901+01901999999ADDGA1021+007501999GF102991999999999999999999MA1101591999999REMMET051METAR SBUF 262000Z 13015KT 9999 FEW025 29/19 Q1016;
0168829860999992007092700004-09400-038217FM-12+0253SBUF V02099999999990075019N0020001N1+02361+01831101831ADDGF106991061051008001001001KA1240M+03201MA1999999098951MD1999999+0091REMSYN088AAXX  27004 82986 32595 6//// 10236 20183 39895 40183 86500 333 10320 29056 55092 58009;
0120829860999992007092711004-09400-038217FM-15+0253SBUF V0201301N006212200019N0112651N1+02401+02401999999ADDGA1041+004501999GF104991999999999999999999MA1102101999999REMMET051METAR SBUF 271100Z 13012KT 9999 SCT015 24/24 Q1021;
0274829860999992007092712004-09400-038217SY-MT+0253SBUF V0201301N006710042019N0100001N1+02511+02031101941ADDAA124003091AY161061AY221061GA1041+004501999GF106991061071004501001001KA1240N+02021MA1102101099061MD1999999+0051MW1151REMSYN088AAXX  27124 82986 21497 6//// 10251 20203 39906 40194 71562 86700 333 20202 58005 60034;MET051METAR SBUF 271200Z 13013KT 9999 SCT015 26/24 Q1021;
0120829860999992007092713004-09400-038217FM-15+0253SBUF V0201201N007212200019N0112651N1+02901+02301999999ADDGA1041+004801999GF104991999999999999999999MA1102101999999REMMET051METAR SBUF 271300Z 12014KT 9999 SCT016 29/23 Q1021;
0131829860999992007092714004-09400-038217FM-15+0253SBUF V0201401N005710048019N0112651N1+02901+02101999999ADDGA1071+004801999GF107991999999999999999999MA1102001999999OC101081REMMET054METAR SBUF 271400Z 14011G21KT 9999 BKN016 29/21 Q1020;
0143829860999992007092715004-09400-038217FM-15+0253SBUF V0201401N006710210019N0112651N1+03101+01801999999ADDGA1041+005101999GA2071+021001999GF107991999999999999999999MA1101901999999REMMET058METAR SBUF 271500Z 14013KT 9999 SCT017 BKN070 31/18 Q1019;
0143829860999992007092716004-09400-038217FM-15+0253SBUF V0201301N005712200019N0112651N1+03101+01901999999ADDGA1041+005401999GA2041+021001999GF104991999999999999999999MA1101801999999REMMET058METAR SBUF 271600Z 13011KT 9999 SCT018 SCT070 31/19 Q1018;
0143829860999992007092717004-09400-038217FM-15+0253SBUF V0201201N006212200019N0112651N1+03101+01801999999ADDGA1041+005401999GA2041+021001999GF104991999999999999999999MA1101691999999REMMET058METAR SBUF 271700Z 12012KT 9999 SCT018 SCT070 31/18 Q1017;
0210829860999992007092718004-09400-038217SY-MT+0253SBUF V0201301N006712200019N0200001N1+02961+01611101441ADDGA1021+005401999GF104991041021008001001001MA1101591098571MD1999999+0131REMSYN070AAXX  27184 82986 32598 4//// 10296 20161 39857 40144 84200 333 58013;MET051METAR SBUF 271800Z 13013KT 9999 FEW018 31/18 Q1016;
0120829860999992007092719004-09400-038217FM-15+0253SBUF V0201101N006212200019N0112651N1+03101+01801999999ADDGA1021+006001999GF102991999999999999999999MA1101591999999REMMET051METAR SBUF 271900Z 11012KT 9999 FEW020 31/18 Q1016;
0120829860999992007092720004-09400-038217FM-15+0253SBUF V0201301N007212200019N0112651N1+02901+01701999999ADDGA1021+006001999GF102991999999999999999999MA1101591999999REMMET051METAR SBUF 272000Z 13014KT 9999 FEW020 29/17 Q1016;
0072829860999992007092721004-09400-038217FM-15+0253SBUF V0201301N00671220001CN0099001N1+02701+01901999999ADDMA1101691999999REMMET045METAR SBUF 272100Z 13013KT CAVOK 27/19 Q1017;
0072829860999992007092722004-09400-038217FM-15+0253SBUF V0201301N00771220001CN0099001N1+02601+02001999999ADDMA1101801999999REMMET045METAR SBUF 272200Z 13015KT CAVOK 26/20 Q1018;
0072829860999992007092723004-09400-038217FM-15+0253SBUF V0201401N00771220001CN0099001N1+02501+02201999999ADDMA1101901999999REMMET045METAR SBUF 272300Z 14015KT CAVOK 25/22 Q1019;
0219829860999992007092800004-09400-038217SY-MT+0253SBUF V0201301N006212200019N0020001N1+02281+02001101851ADDGF103991031021008001001001KA1240M+03091MA1102001098971MD1999999+0021REMSYN088AAXX  28004 82986 32595 3//// 10228 20200 39897 40185 83200 333 10309 29072 55070 58002;MET045METAR SBUF 280000Z 13012KT CAVOK 24/24 Q1020;
0072829860999992007092801004-09400-038217FM-15+0253SBUF V0201301N00571220001CN0099001N1+02301+02301999999ADDMA1102001999999REMMET045METAR SBUF 280100Z 13011KT CAVOK 23/23 Q1020;
0072829860999992007092802004-09400-038217FM-15+0253SBUF V0201401N00411220001CN0099001N1+02201+02201999999ADDMA1102001999999REMMET045METAR SBUF 280200Z 14008KT CAVOK 22/22 Q1020;
0129829860999992007092809004-09400-038217FM-15+0253SBUF V0201501N004112200019N0045001N1+02101+02101999999ADDGA1041+003601999GF104991999999999999999999MA1101901999999MW1101REMMET054METAR SBUF 280900Z 15008KT 4500 BR SCT012 21/21 Q1019;
0129829860999992007092810004-09400-038217FM-15+0253SBUF V0201301N004612200019N0050001N1+02401+02401999999ADDGA1041+004501999GF104991999999999999999999MA1102001999999MW1101REMMET054METAR SBUF 281000Z 13009KT 5000 BR SCT015 24/24 Q1020;
0120829860999992007092811004-09400-038217FM-15+0253SBUF V0201301N006712200019N0112651N1+02701+02201999999ADDGA1041+004501999GF104991999999999999999999MA1102101999999REMMET051METAR SBUF 281100Z 13013KT 9999 SCT015 27/22 Q1021;
0229829860999992007092812004-09400-038217SY-MT+0253SBUF V0201301N006712200019N0100001N1+02571+01501101881ADDGA1041+004501999GF105991051021008001001001KA1240N+01941MA1102101099001MD1999999-0061REMSYN076AAXX  28124 82986 32597 5//// 10257 20150 39900 40188 85200 333 20194 59006;MET051METAR SBUF 281200Z 13013KT 9999 SCT015 27/22 Q1021;
0120829860999992007092813004-09400-038217FM-15+0253SBUF V0201301N006712200019N0112651N1+03001+01801999999ADDGA1041+006001999GF104991999999999999999999MA1102001999999REMMET051METAR SBUF 281300Z 13013KT 9999 SCT020 30/18 Q1020;
0120829860999992007092814004-09400-038217FM-15+0253SBUF V0201401N008212200019N0112651N1+03101+01801999999ADDGA1041+006001999GF104991999999999999999999MA1101901999999REMMET051METAR SBUF 281400Z 14016KT 9999 SCT020 31/18 Q1019;
0120829860999992007092815004-09400-038217FM-15+0253SBUF V0201101N006212200019N0112651N1+03201+01701999999ADDGA1041+006001999GF104991999999999999999999MA1101801999999REMMET051METAR SBUF 281500Z 11012KT 9999 SCT020 32/17 Q1018;
0120829860999992007092816004-09400-038217FM-15+0253SBUF V0201101N006212200019N0112651N1+03201+01701999999ADDGA1041+006001999GF104991999999999999999999MA1101691999999REMMET051METAR SBUF 281600Z 11012KT 9999 SCT020 32/17 Q1017;
0120829860999992007092817004-09400-038217FM-15+0253SBUF V0201101N005112200019N0112651N1+03301+01601999999ADDGA1041+006001999GF104991999999999999999999MA1101591999999REMMET051METAR SBUF 281700Z 11010KT 9999 SCT020 33/16 Q1016;
0210829860999992007092818004-09400-038217SY-MT+0253SBUF V0201201N006212200019N0200001N1+03141+01271101401ADDGA1041+006001999GF104991041021008001001001MA1101591098551MD1999999-0021REMSYN070AAXX  28184 82986 32598 4//// 10314 20127 39855 40140 84200 333 59002;MET051METAR SBUF 281800Z 12012KT 9999 SCT020 33/17 Q1016;
0120829860999992007092819004-09400-038217FM-15+0253SBUF V0201301N007712200019N0112651N1+03201+01901999999ADDGA1041+007501999GF104991999999999999999999MA1101591999999REMMET051METAR SBUF 281900Z 13015KT 9999 SCT025 32/19 Q1016;
0143829860999992007092820004-09400-038217FM-15+0253SBUF V0201401N006212200019N0112651N1+03001+01901999999ADDGA1021+007501999GA2041+030001999GF104991999999999999999999MA1101591999999REMMET058METAR SBUF 282000Z 14012KT 9999 FEW025 SCT100 30/19 Q1016;
0120829860999992007092821004-09400-038217FM-15+0253SBUF V0201301N007712200019N0112651N1+02801+02001999999ADDGA1021+006001999GF102991999999999999999999MA1101691999999REMMET051METAR SBUF 282100Z 13015KT 9999 FEW020 28/20 Q1017;
0120829860999992007092822004-09400-038217FM-15+0253SBUF V0201301N006712200019N0112651N1+02601+02101999999ADDGA1021+006001999GF102991999999999999999999MA1101801999999REMMET051METAR SBUF 282200Z 13013KT 9999 FEW020 26/21 Q1018;
0120829860999992007092823004-09400-038217FM-15+0253SBUF V0201301N006212200019N0112651N1+02501+02101999999ADDGA1021+006001999GF102991999999999999999999MA1101901999999REMMET051METAR SBUF 282300Z 13012KT 9999 FEW020 25/21 Q1019;
0241829860999992007092900004-09400-038217SY-MT+0253SBUF V0201401N005112200019N0020001N1+02361+01891101821ADDGA1021+005401999GF102991021011008001001001KA1240M+03171MA1102001098941MD1999999-0031REMSYN088AAXX  29004 82986 32595 2//// 10236 20189 39894 40182 82100 333 10317 29058 55103 59003;MET051METAR SBUF 290000Z 14010KT 9999 FEW018 24/23 Q1020;
0120829860999992007092901004-09400-038217FM-15+0253SBUF V0201401N004612200019N0112651N1+02301+02301999999ADDGA1021+005401999GF102991999999999999999999MA1102001999999REMMET051METAR SBUF 290100Z 14009KT 9999 FEW018 23/23 Q1020;
0120829860999992007092902004-09400-038217FM-15+0253SBUF V0201301N004612200019N0112651N1+02301+02301999999ADDGA1041+005101999GF104991999999999999999999MA1101901999999REMMET051METAR SBUF 290200Z 13009KT 9999 SCT017 23/23 Q1019;
0120829860999992007092909004-09400-038217FM-15+0253SBUF V0201201N004110045019N0112651N1+02201+02201999999ADDGA1071+004501999GF107991999999999999999999MA1101901999999REMMET051METAR SBUF 290900Z 12008KT 9999 BKN015 22/22 Q1019;
0120829860999992007092910004-09400-038217FM-15+0253SBUF V0201201N003610039019N0112651N1+02501+02501999999ADDGA1071+003901999GF107991999999999999999999MA1101901999999REMMET051METAR SBUF 291000Z 12007KT 9999 BKN013 25/25 Q1019;
0120829860999992007092911004-09400-038217FM-15+0253SBUF V0201201N004610045019N0112651N1+02501+02501999999ADDGA1071+004501999GF107991999999999999999999MA1102001999999REMMET051METAR SBUF 291100Z 12009KT 9999 BKN015 25/25 Q1020;
0276829860999992007092912004-09400-038217SY-MT+0253SBUF V0201101N00511006001CN0100001N1+02521+01771101871ADDAY141061AY241061GA1071+006001999GF199999031021008001051001KA1240N+02021MA1102001098991MD1999999-0011MW1051REMSYN082AAXX  29124 82986 31597 6//// 10252 20177 39899 40187 70544 83250 333 20202 59001;MET051METAR SBUF 291200Z 11010KT 9999 BKN020 28/23 Q1020;EQDQ01+000062SCOTCV
0120829860999992007092913004-09400-038217FM-15+0253SBUF V0201101N005712200019N0112651N1+03101+01901999999ADDGA1041+006001999GF104991999999999999999999MA1102001999999REMMET051METAR SBUF 291300Z 11011KT 9999 SCT020 31/19 Q1020;
0120829860999992007092914004-09400-038217FM-15+0253SBUF V0201501N005712200019N0112651N1+03101+01901999999ADDGA1041+006001999GF104991999999999999999999MA1101901999999REMMET051METAR SBUF 291400Z 15011KT 9999 SCT020 31/19 Q1019;
0120829860999992007092915004-09400-038217FM-15+0253SBUF V0201501N005112200019N0112651N1+03201+01901999999ADDGA1041+007501999GF104991999999999999999999MA1101801999999REMMET051METAR SBUF 291500Z 15010KT 9999 SCT025 32/19 Q1018;
0120829860999992007092916004-09400-038217FM-15+0253SBUF V0201301N004612200019N0112651N1+03301+01801999999ADDGA1041+007501999GF104991999999999999999999MA1101591999999REMMET051METAR SBUF 291600Z 13009KT 9999 SCT025 33/18 Q1016;
0120829860999992007092917004-09400-038217FM-15+0253SBUF V0201301N005112200019N0112651N1+03401+01701999999ADDGA1041+007501999GF104991999999999999999999MA1101491999999REMMET051METAR SBUF 291700Z 13010KT 9999 SCT025 34/17 Q1015;
0229829860999992007092918004-09400-038217SY-MT+0253SBUF V0201301N006212200019N0200001N1+03121+00881101351ADDGA1041+007501999GF199999031011008001001001MA1101491098501MD1999999-0051REMSYN070AAXX  29184 82986 32598 3//// 10312 20088 39850 40135 83100 333 59005;MET051METAR SBUF 291800Z 13012KT 9999 SCT025 34/16 Q1015;EQDQ01+000032SCOTCV
0120829860999992007092919004-09400-038217FM-15+0253SBUF V0201401N005112200019N0112651N1+03301+01601999999ADDGA1021+007501999GF102991999999999999999999MA1101491999999REMMET051METAR SBUF 291900Z 14010KT 9999 FEW025 33/16 Q1015;
0120829860999992007092920004-09400-038217FM-15+0253SBUF V0201301N005712200019N0112651N1+03101+01801999999ADDGA1021+007501999GF102991999999999999999999MA1101491999999REMMET051METAR SBUF 292000Z 13011KT 9999 FEW025 31/18 Q1015;
0072829860999992007092921004-09400-038217FM-15+0253SBUF V0201201N00571220001CN0099001N1+02901+01901999999ADDMA1101591999999REMMET045METAR SBUF 292100Z 12011KT CAVOK 29/19 Q1016;
0072829860999992007092922004-09400-038217FM-15+0253SBUF V0201301N00721220001CN0099001N1+02701+02001999999ADDMA1101691999999REMMET045METAR SBUF 292200Z 13014KT CAVOK 27/20 Q1017;
0072829860999992007092923004-09400-038217FM-15+0253SBUF V0201401N00771220001CN0099001N1+02501+02101999999ADDMA1101801999999REMMET045METAR SBUF 292300Z 14015KT CAVOK 25/21 Q1018;
0213829860999992007093000004-09400-038217SY-MT+0253SBUF V0201401N007212200019N0020001N1+02341+01961101761ADDGF100991001001999999001001KA1240M+03251MA1101901098881MD1999999-0061REMSYN082AAXX  30004 82986 32995 0//// 10234 20196 39888 40176 333 10325 29057 55086 59006;MET045METAR SBUF 300000Z 14014KT CAVOK 24/22 Q1019;
0072829860999992007093001004-09400-038217FM-15+0253SBUF V0201401N00571220001CN0099001N1+02301+02301999999ADDMA1102001999999REMMET045METAR SBUF 300100Z 14011KT CAVOK 23/23 Q1020;
0072829860999992007093002004-09400-038217FM-15+0253SBUF V0201401N00461220001CN0099001N1+02301+02301999999ADDMA1102001999999REMMET045METAR SBUF 300200Z 14009KT CAVOK 23/23 Q1020;
0120829860999992007093011004-09400-038217FM-15+0253SBUF V0201101N006712200019N0112651N1+02501+02301999999ADDGA1041+004501999GF104991999999999999999999MA1102001999999REMMET051METAR SBUF 301100Z 11013KT 9999 SCT015 25/23 Q1020;
0257829860999992007093012004-09400-038217SY-MT+0253SBUF V0201001N005110075019N0040001N1+02411+01631101831ADDAY141061AY241061GA1041+004501999GF105991051021008001001001KA1240N+02011MA1102001098951MD1999999-0041MW1051REMSYN082AAXX  30124 82986 31596 5//// 10241 20163 39895 40183 70544 85200 333 20201 59004;MET051METAR SBUF 301200Z 10010KT 9999 SCT015 28/20 Q1020;
0120829860999992007093013004-09400-038217FM-15+0253SBUF V0201201N005112200019N0112651N1+03001+01801999999ADDGA1041+004501999GF104991999999999999999999MA1102001999999REMMET051METAR SBUF 301300Z 12010KT 9999 SCT015 30/18 Q1020;
0120829860999992007093014004-09400-038217FM-15+0253SBUF V0201101N004612200019N0112651N1+03201+01701999999ADDGA1021+005401999GF102991999999999999999999MA1101901999999REMMET051METAR SBUF 301400Z 11009KT 9999 FEW018 32/17 Q1019;
0120829860999992007093015004-09400-038217FM-15+0253SBUF V0201401N005712200019N0112651N1+03301+01501999999ADDGA1021+006001999GF102991999999999999999999MA1101691999999REMMET051METAR SBUF 301500Z 14011KT 9999 FEW020 33/15 Q1017;
0072829860999992007093016004-09400-038217FM-15+0253SBUF V0201501N00621220001CN0099001N1+03301+01401999999ADDMA1101591999999REMMET045METAR SBUF 301600Z 15012KT CAVOK 33/14 Q1016;
0120829860999992007093017004-09400-038217FM-15+0253SBUF V0201401N005712200019N0112651N1+03401+01301999999ADDGA1021+006001999GF102991999999999999999999MA1101491999999REMMET051METAR SBUF 301700Z 14011KT 9999 FEW020 34/13 Q1015;
0210829860999992007093018004-09400-038217SY-MT+0253SBUF V0201401N005712200019N0200001N1+03201+00621101311ADDGA1021+006001999GF102991021011008001001001MA1101491098471MD1999999-0031REMSYN070AAXX  30184 82986 32598 2//// 10320 20062 39847 40131 82100 333 59003;MET051METAR SBUF 301800Z 14011KT 9999 FEW020 34/14 Q1015;
0120829860999992007093019004-09400-038217FM-15+0253SBUF V0201301N006212200019N0112651N1+03301+01501999999ADDGA1021+006001999GF102991999999999999999999MA1101491999999REMMET051METAR SBUF 301900Z 13012KT 9999 FEW020 33/15 Q1015;
0120829860999992007093020004-09400-038217FM-15+0253SBUF V0201401N006212200019N0112651N1+03101+01401999999ADDGA1021+006001999GF102991999999999999999999MA1101491999999REMMET051METAR SBUF 302000Z 14012KT 9999 FEW020 31/14 Q1015;
0072829860999992007093021004-09400-038217FM-15+0253SBUF V0201401N00721220001CN0099001N1+02801+01601999999ADDMA1101591999999REMMET045METAR SBUF 302100Z 14014KT CAVOK 28/16 Q1016;
0072829860999992007093022004-09400-038217FM-15+0253SBUF V0201401N00821220001CN0099001N1+02701+01701999999ADDMA1101691999999REMMET045METAR SBUF 302200Z 14016KT CAVOK 27/17 Q1017;
0072829860999992007093023004-09400-038217FM-15+0253SBUF V0201301N00671220001CN0099001N1+02601+01801999999ADDMA1101801999999REMMET045METAR SBUF 302300Z 13013KT CAVOK 26/18 Q1018;
0178829860999992007100100004-09400-038217FM-12+0253SBUF V02099999999992200019N0020001N1+02361+01491101781ADDGA1001+999999999GF100991001001999999001001KA1240M+03231MA1999999098901MD1999999+0021REMSYN082AAXX  01004 82986 32995 0//// 10236 20149 39890 40178 333 10323 29070 55102 58002;
0120829860999992007100111004-09400-038217FM-15+0253SBUF V0201001N005712200019N0112651N1+02701+02301999999ADDGA1041+004501999GF104991999999999999999999MA1102001999999REMMET051METAR SBUF 011100Z 10011KT 9999 SCT015 27/23 Q1020;
0229829860999992007100112004-09400-038217SY-MT+0253SBUF V0201401N006710075019N0100001N1+02541+01601101901ADDGA1041+004801999GF106991061021008001001001KA1240N+01961MA1102001099021MD1999999-0031REMSYN076AAXX  01124 82986 32597 6//// 10254 20160 39902 40190 86200 333 20196 59003;MET051METAR SBUF 011200Z 14013KT 9999 SCT016 28/20 Q1020;
0120829860999992007100113004-09400-038217FM-15+0253SBUF V0201301N006712200019N0112651N1+03001+01901999999ADDGA1041+005401999GF104991999999999999999999MA1102001999999REMMET051METAR SBUF 011300Z 13013KT 9999 SCT018 30/19 Q1020;
0120829860999992007100114004-09400-038217FM-15+0253SBUF V0201201N005712200019N0112651N1+03101+01801999999ADDGA1041+006001999GF104991999999999999999999MA1101901999999REMMET051METAR SBUF 011400Z 12011KT 9999 SCT020 31/18 Q1019;
0120829860999992007100115004-09400-038217FM-15+0253SBUF V0201301N006212200019N0112651N1+03401+01901999999ADDGA1041+006001999GF104991999999999999999999MA1101801999999REMMET051METAR SBUF 011500Z 13012KT 9999 SCT020 34/19 Q1018;
0120829860999992007100116004-09400-038217FM-15+0253SBUF V0201201N005712200019N0112651N1+03401+01701999999ADDGA1021+006001999GF102991999999999999999999MA1101591999999REMMET051METAR SBUF 011600Z 12011KT 9999 FEW020 34/17 Q1016;
0120829860999992007100117004-09400-038217FM-15+0253SBUF V0201301N005712200019N0112651N1+03401+01701999999ADDGA1021+006001999GF102991999999999999999999MA1101591999999REMMET051METAR SBUF 011700Z 13011KT 9999 FEW020 34/17 Q1016;
0210829860999992007100118004-09400-038217SY-MT+0253SBUF V0201201N005712200019N0200001N1+03171+01141101331ADDGA1021+006001999GF104991041021008001001001MA1101491098491MD1999999+0021REMSYN070AAXX  01184 82986 32598 4//// 10317 20114 39849 40133 84200 333 58002;MET051METAR SBUF 011800Z 12011KT 9999 FEW020 34/18 Q1015;
0120829860999992007100119004-09400-038217FM-15+0253SBUF V0201201N006212200019N0112651N1+03301+01801999999ADDGA1021+007501999GF102991999999999999999999MA1101491999999REMMET051METAR SBUF 011900Z 12012KT 9999 FEW025 33/18 Q1015;
0120829860999992007100120004-09400-038217FM-15+0253SBUF V0201301N007212200019N0112651N1+03101+01701999999ADDGA1021+006001999GF102991999999999999999999MA1101591999999REMMET051METAR SBUF 012000Z 13014KT 9999 FEW020 31/17 Q1016;
0072829860999992007100121004-09400-038217FM-15+0253SBUF V0201301N00621220001CN0099001N1+02901+01601999999ADDMA1101591999999REMMET045METAR SBUF 012100Z 13012KT CAVOK 29/16 Q1016;
0072829860999992007100122004-09400-038217FM-15+0253SBUF V0201301N00621220001CN0099001N1+02701+01701999999ADDMA1101691999999REMMET045METAR SBUF 012200Z 13012KT CAVOK 27/17 Q1017;
0072829860999992007100123004-09400-038217FM-15+0253SBUF V0201401N00721220001CN0099001N1+02601+01901999999ADDMA1101801999999REMMET045METAR SBUF 012300Z 14014KT CAVOK 26/19 Q1018;
0143829860999992007100211004-09400-038217FM-15+0253SBUF V0201201N004612200019N0112651N1+02601+02501999999ADDGA1021+005101999GA2041+021001999GF104991999999999999999999MA1101901999999REMMET058METAR SBUF 021100Z 12009KT 9999 FEW017 SCT070 26/25 Q1019;
0271829860999992007100212004-09400-038217SY-MT+0253SBUF V0201301N00571021001CN0100001N1+02521+01771101821ADDGA1021+005101999GA2071+021001999GF199999021021008001071001KA1240N+02021MA1102001098941MD1999999-0081REMSYN076AAXX  02124 82986 32597 6//// 10252 20177 39894 40182 82270 333 20202 59008;MET058METAR SBUF 021200Z 13011KT 9999 FEW017 BKN070 25/24 Q1020;EQDQ01+000062SCOTCV
0143829860999992007100213004-09400-038217FM-15+0253SBUF V0201201N005712200019N0112651N1+03001+02001999999ADDGA1021+005401999GA2041+021001999GF104991999999999999999999MA1101901999999REMMET058METAR SBUF 021300Z 12011KT 9999 FEW018 SCT070 30/20 Q1019;
0143829860999992007100214004-09400-038217FM-15+0253SBUF V0201301N005712200019N0112651N1+03201+01901999999ADDGA1021+005401999GA2041+021001999GF104991999999999999999999MA1101801999999REMMET058METAR SBUF 021400Z 13011KT 9999 FEW018 SCT070 32/19 Q1018;
0143829860999992007100215004-09400-038217FM-15+0253SBUF V0201301N005712200019N0112651N1+03301+01801999999ADDGA1021+005401999GA2041+021001999GF104991999999999999999999MA1101691999999REMMET058METAR SBUF 021500Z 13011KT 9999 FEW018 SCT070 33/18 Q1017;
0143829860999992007100216004-09400-038217FM-15+0253SBUF V0201401N005712200019N0112651N1+03401+01901999999ADDGA1021+005401999GA2041+021001999GF104991999999999999999999MA1101591999999REMMET058METAR SBUF 021600Z 14011KT 9999 FEW018 SCT070 34/19 Q1016;
0143829860999992007100217004-09400-038217FM-15+0253SBUF V0201101N006212200019N0112651N1+03501+01701999999ADDGA1021+005401999GA2041+021001999GF104991999999999999999999MA1101391999999REMMET058METAR SBUF 021700Z 11012KT 9999 FEW018 SCT070 35/17 Q1014;
0252829860999992007100218004-09400-038217SY-MT+0253SBUF V0201201N005112200019N0200001N1+03241+99999101241ADDGA1021+006001999GA2041+024001999GF104991021011008001001091MA1101391098401MD1999999-0091REMSYN070AAXX  02184 82986 32598 4//// 10324 20086 39840 40124 82109 333 59009;MET058METAR SBUF 021800Z 12010KT 9999 FEW020 SCT080 35/16 Q1014;EQDQ01+000863ATOD  
0143829860999992007100219004-09400-038217FM-15+0253SBUF V0201201N006212200019N0112651N1+03401+01701999999ADDGA1021+006001999GA2041+030001999GF104991999999999999999999MA1101391999999REMMET058METAR SBUF 021900Z 12012KT 9999 FEW020 SCT100 34/17 Q1014;
0143829860999992007100220004-09400-038217FM-15+0253SBUF V0201201N007210300019N0112651N1+03101+01801999999ADDGA1021+006001999GA2071+030001999GF107991999999999999999999MA1101491999999REMMET058METAR SBUF 022000Z 12014KT 9999 FEW020 BKN100 31/18 Q1015;
0143829860999992007100221004-09400-038217FM-15+0253SBUF V0201201N007212200019N0112651N1+02801+01901999999ADDGA1021+006001999GA2041+030001999GF104991999999999999999999MA1101591999999REMMET058METAR SBUF 022100Z 12014KT 9999 FEW020 SCT100 28/19 Q1016;
0120829860999992007100222004-09400-038217FM-15+0253SBUF V0201301N006212200019N0112651N1+02701+01901999999ADDGA1021+006001999GF102991999999999999999999MA1101801999999REMMET051METAR SBUF 022200Z 13012KT 9999 FEW020 27/19 Q1018;
0072829860999992007100223004-09400-038217FM-15+0253SBUF V0201401N00671220001CN0099001N1+02601+02001999999ADDMA1101801999999REMMET045METAR SBUF 022300Z 14013KT CAVOK 26/20 Q1018;
0178829860999992007100300004-09400-038217FM-12+0253SBUF V02099999999992200019N0020001N1+02421+01621101791ADDGA1001+999999999GF100991001001999999001001KA1240M+03271MA1999999098911MD1999999+0021REMSYN082AAXX  03004 82986 32995 0//// 10242 20162 39891 40179 333 10327 29052 55089 58002;
0104829860999992007100310154-09400-038217FM-16+0253SBUF V0201301N003112200019N9999999N1+02301+02301999999ADDMA1101801999999REMMET077METAR SBUF 031015Z SPECI 13006KT 4500 BR SCT008 FEW012TCU BKN015 23/23 Q1018;
0143829860999992007100311004-09400-038217FM-15+0253SBUF V0201401N004110045019N0112651N1+02601+02301999999ADDGA1041+002401999GA2071+004501999GF107991999999999999999999MA1101901999999REMMET058METAR SBUF 031100Z 14008KT 9999 SCT008 BKN015 26/23 Q1019;
0252829860999992007100312004-09400-038217SY-MT+0253SBUF V0201001N00511004801CN0100001N1+02641+01661101671ADDGA1041+003601999GA2041+004801999GF105991031021008001001091KA1240N+01971MA1101801098811MD1999999-0131REMSYN076AAXX  03124 82986 32597 5//// 10264 20166 39881 40167 83209 333 20197 59013;MET058METAR SBUF 031200Z 10010KT 9999 SCT012 SCT016 29/21 Q1018;
0143829860999992007100313004-09400-038217FM-15+0253SBUF V0201201N005712200019N0112651N1+03101+01801999999ADDGA1021+003601999GA2041+004801999GF104991999999999999999999MA1101801999999REMMET058METAR SBUF 031300Z 12011KT 9999 FEW012 SCT016 31/18 Q1018;
0143829860999992007100314004-09400-038217FM-15+0253SBUF V0201101N005712200019N0112651N1+03201+01801999999ADDGA1041+004801999GA2041+021001999GF104991999999999999999999MA1101691999999REMMET058METAR SBUF 031400Z 11011KT 9999 SCT016 SCT070 32/18 Q1017;
0143829860999992007100315004-09400-038217FM-15+0253SBUF V0201301N003612200019N0112651N1+03301+01801999999ADDGA1041+006001999GA2041+021001999GF104991999999999999999999MA1101491999999REMMET058METAR SBUF 031500Z 13007KT 9999 SCT020 SCT070 33/18 Q1015;
0143829860999992007100316004-09400-038217FM-15+0253SBUF V0201401N004612200019N0112651N1+03401+01801999999ADDGA1021+006001999GA2041+021001999GF104991999999999999999999MA1101391999999REMMET058METAR SBUF 031600Z 14009KT 9999 FEW020 SCT070 34/18 Q1014;
0143829860999992007100317004-09400-038217FM-15+0253SBUF V0201201N005112200019N0112651N1+03501+01701999999ADDGA1041+006001999GA2041+030001999GF104991999999999999999999MA1101291999999REMMET058METAR SBUF 031700Z 12010KT 9999 SCT020 SCT100 35/17 Q1013;
0275829860999992007100318004-09400-038217SY-MT+0253SBUF V0201401N00511030001CN0200001N1+03181+01351101091ADDGA1021+006001999GA2041+030001999GA3071+090001999GF199999021011008001001081MA1101291098251MD1999999-0151REMSYN070AAXX  03184 82986 32598 5//// 10318 20135 39825 40109 82108 333 59015;MET065METAR SBUF 031800Z 14010KT 9999 FEW020 SCT100 BKN300 34/17 Q1013;EQDQ01+000052SCOTCV
0143829860999992007100319004-09400-038217FM-15+0253SBUF V0201401N006710300019N0112651N1+03301+01701999999ADDGA1021+006001999GA2071+030001999GF107991999999999999999999MA1101291999999REMMET058METAR SBUF 031900Z 14013KT 9999 FEW020 BKN100 33/17 Q1013;
0143829860999992007100320004-09400-038217FM-15+0253SBUF V0201301N006210300019N0112651N1+03101+01801999999ADDGA1021+006001999GA2071+030001999GF107991999999999999999999MA1101291999999REMMET058METAR SBUF 032000Z 13012KT 9999 FEW020 BKN100 31/18 Q1013;
0143829860999992007100321004-09400-038217FM-15+0253SBUF V0201401N006212200019N0112651N1+02901+01801999999ADDGA1021+006001999GA2041+030001999GF104991999999999999999999MA1101491999999REMMET058METAR SBUF 032100Z 14012KT 9999 FEW020 SCT100 29/18 Q1015;
0143829860999992007100322004-09400-038217FM-15+0253SBUF V0201301N008212200019N0112651N1+02701+02001999999ADDGA1021+006001999GA2041+030001999GF104991999999999999999999MA1101591999999REMMET058METAR SBUF 032200Z 13016KT 9999 FEW020 SCT100 27/20 Q1016;
0143829860999992007100323004-09400-038217FM-15+0253SBUF V0201501N005712200019N0112651N1+02601+02201999999ADDGA1021+005401999GA2041+030001999GF104991999999999999999999MA1101691999999REMMET058METAR SBUF 032300Z 15011KT 9999 FEW018 SCT100 26/22 Q1017;
0162829860999992007100400004-09400-038217FM-12+0253SBUF V02099999999992200019N0020001N1+02441+01861101551ADDGF102991999999008001999999KA1240M+03271MA1999999098691MD1999999-0221REMSYN082AAXX  04004 82986 32595 2//// 10244 20186 39869 40155 333 10327 29057 55079 59022;
0143829860999992007100411004-09400-038217FM-15+0253SBUF V0201101N004110210019N0112651N1+02601+02401999999ADDGA1021+004501999GA2071+021001999GF107991999999999999999999MA1101801999999REMMET058METAR SBUF 041100Z 11008KT 9999 FEW015 BKN070 26/24 Q1018;
0252829860999992007100412004-09400-038217SY-MT+0253SBUF V0201401N004610210019N0100001N1+02511+01821101591ADDGA1041+005101999GA2071+021001999GF108991081041008001999999KA1240N+02101MA1101691098731MD1999999-0081REMSYN076AAXX  04124 82986 32597 8//// 10251 20182 39873 40159 884// 333 20210 59008;MET058METAR SBUF 041200Z 14009KT 9999 SCT017 BKN070 27/22 Q1017;
0143829860999992007100413004-09400-038217FM-15+0253SBUF V0201301N004610240019N0112651N1+02901+02101999999ADDGA1021+005401999GA2071+024001999GF107991999999999999999999MA1101691999999REMMET058METAR SBUF 041300Z 13009KT 9999 FEW018 BKN080 29/21 Q1017;
0143829860999992007100414004-09400-038217FM-15+0253SBUF V0201201N004612200019N0112651N1+03201+02001999999ADDGA1021+006001999GA2041+027001999GF104991999999999999999999MA1101591999999REMMET058METAR SBUF 041400Z 12009KT 9999 FEW020 SCT090 32/20 Q1016;
0143829860999992007100415004-09400-038217FM-15+0253SBUF V0201201N005712200019N0112651N1+03201+01901999999ADDGA1021+006001999GA2041+027001999GF104991999999999999999999MA1101491999999REMMET058METAR SBUF 041500Z 12011KT 9999 FEW020 SCT090 32/19 Q1015;
0143829860999992007100416004-09400-038217FM-15+0253SBUF V0201301N004110270019N0112651N1+03301+01901999999ADDGA1021+006001999GA2071+027001999GF107991999999999999999999MA1101391999999REMMET058METAR SBUF 041600Z 13008KT 9999 FEW020 BKN090 33/19 Q1014;
0143829860999992007100417004-09400-038217FM-15+0253SBUF V0201501N004610270019N0112651N1+03401+01901999999ADDGA1021+006001999GA2071+027001999GF107991999999999999999999MA1101291999999REMMET058METAR SBUF 041700Z 15009KT 9999 FEW020 BKN090 34/19 Q1013;
0252829860999992007100418004-09400-038217SY-MT+0253SBUF V0201301N00511027001CN0200001N1+03121+01751101091ADDGA1021+006001999GA2071+027001999GF199999021041008001001081MA1101291098261MD1999999+0011REMSYN070AAXX  04184 82986 32598 6//// 10312 20175 39826 40109 82408 333 58001;MET058METAR SBUF 041800Z 13010KT 9999 FEW020 BKN090 34/18 Q1013;EQDQ01+000062SCOTCV
0143829860999992007100419004-09400-038217FM-15+0253SBUF V0201401N004110270019N0112651N1+03201+01901999999ADDGA1021+006001999GA2071+027001999GF107991999999999999999999MA1101291999999REMMET058METAR SBUF 041900Z 14008KT 9999 FEW020 BKN090 32/19 Q1013;
0143829860999992007100420004-09400-038217FM-15+0253SBUF V0201401N006210270019N0112651N1+03101+02001999999ADDGA1021+005401999GA2071+027001999GF107991999999999999999999MA1101391999999REMMET058METAR SBUF 042000Z 14012KT 9999 FEW018 BKN090 31/20 Q1014;
0143829860999992007100421004-09400-038217FM-15+0253SBUF V0201401N007210270019N0112651N1+02801+02101999999ADDGA1021+005401999GA2071+027001999GF107991999999999999999999MA1101491999999REMMET058METAR SBUF 042100Z 14014KT 9999 FEW018 BKN090 28/21 Q1015;
0143829860999992007100422004-09400-038217FM-15+0253SBUF V0201401N007212200019N0112651N1+02701+02101999999ADDGA1021+005401999GA2041+027001999GF104991999999999999999999MA1101491999999REMMET058METAR SBUF 042200Z 14014KT 9999 FEW018 SCT090 27/21 Q1015;
0143829860999992007100423004-09400-038217FM-15+0253SBUF V0201301N005712200019N0112651N1+02601+02301999999ADDGA1021+005401999GA2041+024001999GF104991999999999999999999MA1101591999999REMMET058METAR SBUF 042300Z 13011KT 9999 FEW018 SCT080 26/23 Q1016;
0178829860999992007100500004-09400-038217FM-12+0253SBUF V02099999999992200019N0020001N1+02411+01911101521ADDGA1001+999999999GF100991001001999999001001KA1240M+03161MA1999999098651MD1999999-0041REMSYN082AAXX  05004 82986 32995 0//// 10241 20191 39865 40152 333 10316 29064 55033 59004;
0166829860999992007100511004-09400-038217FM-15+0253SBUF V0201201N00411004501CN0112651N1+02601+02601999999ADDGA1021+003901999GA2041+004501999GA3071+021001999GF107991999999999999999999MA1101801999999REMMET065METAR SBUF 051100Z 12008KT 9999 FEW013 SCT015 BKN070 26/26 Q1018;
0320829860999992007100512004-09400-038217SY-MT+0253SBUF V0201101N00461005101CN0100001N1+02501+01981101581ADDAA124000891AY161061AY221061GA1021+004501999GA2041+005101999GA3071+021001999GF108991051021008001081999KA1240N+02141MA1101691098711MD1999999-0021MW1021REMSYN088AAXX  05124 82986 21597 8//// 10250 20198 39871 40158 70262 8528/ 333 20214 59002 69974;MET065METAR SBUF 051200Z 11009KT 9999 FEW015 SCT017 BKN070 27/24 Q1017;
0143829860999992007100513004-09400-038217FM-15+0253SBUF V0201201N004610210019N0112651N1+02901+02301999999ADDGA1041+005401999GA2071+021001999GF107991999999999999999999MA1101691999999REMMET058METAR SBUF 051300Z 12009KT 9999 SCT018 BKN070 29/23 Q1017;
0143829860999992007100514004-09400-038217FM-15+0253SBUF V0201401N004612200019N0112651N1+03101+02101999999ADDGA1021+005401999GA2041+024001999GF104991999999999999999999MA1101591999999REMMET058METAR SBUF 051400Z 14009KT 9999 FEW018 SCT080 31/21 Q1016;
0143829860999992007100515004-09400-038217FM-15+0253SBUF V0201301N006212200019N0112651N1+03201+02101999999ADDGA1021+005401999GA2041+027001999GF104991999999999999999999MA1101591999999REMMET058METAR SBUF 051500Z 13012KT 9999 FEW018 SCT090 32/21 Q1016;
0166829860999992007100516004-09400-038217FM-15+0253SBUF V0201101N00461027001CN0112651N1+03301+02001999999ADDGA1021+006001999GA2041+027001999GA3071+090001999GF107991999999999999999999MA1101391999999REMMET065METAR SBUF 051600Z 11009KT 9999 FEW020 SCT090 BKN300 33/20 Q1014;
0120829860999992007100517004-09400-038217FM-15+0253SBUF V0201201N005112200019N0112651N1+03401+02001999999ADDGA1041+006001999GF104991999999999999999999MA1101291999999REMMET051METAR SBUF 051700Z 12010KT 9999 SCT020 34/20 Q1013;
0275829860999992007100518004-09400-038217SY-MT+0253SBUF V0201101N00461024001CN0200001N1+03161+01431101131ADDGA1041+006001999GA2041+024001999GA3071+090001999GF199999031021008001001021MA1101291098301MD1999999+0041REMSYN070AAXX  05184 82986 32598 6//// 10316 20143 39830 40113 83202 333 58004;MET065METAR SBUF 051800Z 11009KT 9999 SCT020 SCT080 BKN300 34/20 Q1013;EQDQ01+000062SCOTCV
0166829860999992007100519004-09400-038217FM-15+0253SBUF V0201201N00571024001CN0112651N1+03301+02001999999ADDGA1021+006001999GA2041+024001999GA3071+090001999GF107991999999999999999999MA1101291999999REMMET065METAR SBUF 051900Z 12011KT 9999 FEW020 SCT080 BKN300 33/20 Q1013;
0166829860999992007100520004-09400-038217FM-15+0253SBUF V0201301N00621024001CN0112651N1+03001+02101999999ADDGA1021+006001999GA2041+024001999GA3071+090001999GF107991999999999999999999MA1101391999999REMMET065METAR SBUF 052000Z 13012KT 9999 FEW020 SCT080 BKN300 30/21 Q1014;
0143829860999992007100521004-09400-038217FM-15+0253SBUF V0201401N007710900019N0112651N1+02701+02201999999ADDGA1021+006001999GA2071+090001999GF107991999999999999999999MA1101491999999REMMET058METAR SBUF 052100Z 14015KT 9999 FEW020 BKN300 27/22 Q1015;
0072829860999992007100522004-09400-038217FM-15+0253SBUF V0201301N00771220001CN0099001N1+02501+02401999999ADDMA1101591999999REMMET045METAR SBUF 052200Z 13015KT CAVOK 25/24 Q1016;
0072829860999992007100523004-09400-038217FM-15+0253SBUF V0201301N00671220001CN0099001N1+02501+02401999999ADDMA1101591999999REMMET045METAR SBUF 052300Z 13013KT CAVOK 25/24 Q1016;
0178829860999992007100600004-09400-038217FM-12+0253SBUF V02099999999992200019N0020001N1+02321+01941101511ADDGA1001+999999999GF100991001001999999001001KA1240M+03171MA1999999098641MD1999999-0011REMSYN082AAXX  06004 82986 32995 0//// 10232 20194 39864 40151 333 10317 29067 55057 59001;
0166829860999992007100611004-09400-038217FM-15+0253SBUF V0201101N00461005101CN0112651N1+02701+02401999999ADDGA1021+004501999GA2041+005101999GA3071+021001999GF107991999999999999999999MA1101691999999REMMET065METAR SBUF 061100Z 11009KT 9999 FEW015 SCT017 BKN070 27/24 Q1017;
0252829860999992007100612004-09400-038217SY-MT+0253SBUF V0201101N004610240019N0100001N1+02501+02031101521ADDGA1041+005401999GA2071+024001999GF107991041021008001051001KA1240N+02101MA1101691098651MD1999999-0061REMSYN076AAXX  06124 82986 32597 7//// 10250 20203 39865 40152 84250 333 20210 59006;MET058METAR SBUF 061200Z 11009KT 9999 SCT018 BKN080 29/23 Q1017;
0143829860999992007100613004-09400-038217FM-15+0253SBUF V0201101N004112200019N0112651N1+03201+02101999999ADDGA1021+006001999GA2041+027001999GF104991999999999999999999MA1101691999999REMMET058METAR SBUF 061300Z 11008KT 9999 FEW020 SCT090 32/21 Q1017;
0143829860999992007100614004-09400-038217FM-15+0253SBUF V0201301N005112200019N0112651N1+03201+02001999999ADDGA1041+006001999GA2041+027001999GF104991999999999999999999MA1101591999999REMMET058METAR SBUF 061400Z 13010KT 9999 SCT020 SCT090 32/20 Q1016;
0143829860999992007100615004-09400-038217FM-15+0253SBUF V0201401N004112200019N0112651N1+03201+02001999999ADDGA1041+006001999GA2041+027001999GF104991999999999999999999MA1101491999999REMMET058METAR SBUF 061500Z 14008KT 9999 SCT020 SCT090 32/20 Q1015;
0143829860999992007100616004-09400-038217FM-15+0253SBUF V0201401N005712200019N0112651N1+03101+02001999999ADDGA1041+006001999GA2041+027001999GF104991999999999999999999MA1101391999999REMMET058METAR SBUF 061600Z 14011KT 9999 SCT020 SCT090 31/20 Q1014;
0143829860999992007100617004-09400-038217FM-15+0253SBUF V0201301N005112200019N0112651N1+03201+02001999999ADDGA1041+006001999GA2041+027001999GF104991999999999999999999MA1101291999999REMMET058METAR SBUF 061700Z 13010KT 9999 SCT020 SCT090 32/20 Q1013;
0233829860999992007100618004-09400-038217SY-MT+0253SBUF V0201301N00311027001CN0200001N1+02961+01461101161ADDGA1021+006001999GA2041+027001999GF107991071071004501999999MA1101291098301MD1999999+0001REMSYN070AAXX  06184 82986 32498 7//// 10296 20146 39830 40116 877// 333 58000;MET058METAR SBUF 061800Z 13006KT 9999 FEW020 SCT090 32/19 Q1013;
0143829860999992007100619004-09400-038217FM-15+0253SBUF V0201401N006210240019N0112651N1+03101+01901999999ADDGA1021+006001999GA2071+024001999GF107991999999999999999999MA1101291999999REMMET058METAR SBUF 061900Z 14012KT 9999 FEW020 BKN080 31/19 Q1013;
0143829860999992007100620004-09400-038217FM-15+0253SBUF V0201301N006712200019N0112651N1+03001+02001999999ADDGA1021+006001999GA2041+024001999GF104991999999999999999999MA1101391999999REMMET058METAR SBUF 062000Z 13013KT 9999 FEW020 SCT080 30/20 Q1014;
0143829860999992007100621004-09400-038217FM-15+0253SBUF V0201301N005112200019N0112651N1+02801+02001999999ADDGA1021+006001999GA2041+024001999GF104991999999999999999999MA1101391999999REMMET058METAR SBUF 062100Z 13010KT 9999 FEW020 SCT080 28/20 Q1014;
0120829860999992007100622004-09400-038217FM-15+0253SBUF V0201401N005112200019N0112651N1+02701+02001999999ADDGA1021+005401999GF102991999999999999999999MA1101491999999REMMET051METAR SBUF 062200Z 14010KT 9999 FEW018 27/20 Q1015;
0178829860999992007100700004-09400-038217FM-12+0253SBUF V02099999999992200019N0020001N1+02401+01701101521ADDGA1001+999999999GF100991001001999999001001KA1240M+03071MA1999999098651MD1999999+0011REMSYN082AAXX  07004 82986 32995 0//// 10240 20170 39865 40152 333 10307 29061 55047 58001;
0120829860999992007100711004-09400-038217FM-15+0253SBUF V0201301N005112200019N0112651N1+02601+02301999999ADDGA1041+004801999GF104991999999999999999999MA1101691999999REMMET051METAR SBUF 071100Z 13010KT 9999 SCT016 26/23 Q1017;
0229829860999992007100712004-09400-038217SY-MT+0253SBUF V0201301N005710075019N0100001N1+02501+01621101501ADDGA1041+004801999GF106991061021008001001001KA1240N+02061MA1101691098631MD1999999-0021REMSYN076AAXX  07124 82986 32597 6//// 10250 20162 39863 40150 86200 333 20206 59002;MET051METAR SBUF 071200Z 13011KT 9999 SCT016 29/20 Q1017;
0120829860999992007100713004-09400-038217FM-15+0253SBUF V0201301N007212200019N0112651N1+03101+01901999999ADDGA1041+005401999GF104991999999999999999999MA1101591999999REMMET051METAR SBUF 071300Z 13014KT 9999 SCT018 31/19 Q1016;
0120829860999992007100714004-09400-038217FM-15+0253SBUF V0201401N005110054019N0112651N1+03101+01801999999ADDGA1071+005401999GF107991999999999999999999MA1101491999999REMMET051METAR SBUF 071400Z 14010KT 9999 BKN018 31/18 Q1015;
0120829860999992007100715004-09400-038217FM-15+0253SBUF V0201501N007212200019N0112651N1+03201+01701999999ADDGA1041+006001999GF104991999999999999999999MA1101391999999REMMET051METAR SBUF 071500Z 15014KT 9999 SCT020 32/17 Q1014;
0120829860999992007100716004-09400-038217FM-15+0253SBUF V0201301N006712200019N0112651N1+03301+01701999999ADDGA1041+006001999GF104991999999999999999999MA1101291999999REMMET051METAR SBUF 071600Z 13013KT 9999 SCT020 33/17 Q1013;
0120829860999992007100717004-09400-038217FM-15+0253SBUF V0201401N006710060019N0112651N1+03301+01801999999ADDGA1071+006001999GF107991999999999999999999MA1101191999999REMMET051METAR SBUF 071700Z 14013KT 9999 BKN020 33/18 Q1012;
0120829860999992007100718004-09400-038217FM-15+0253SBUF V0201201N006712200019N0112651N1+03201+01801999999ADDGA1041+006001999GF104991999999999999999999MA1101191999999REMMET051METAR SBUF 071800Z 12013KT 9999 SCT020 32/18 Q1012;
0120829860999992007100719004-09400-038217FM-15+0253SBUF V0201301N006212200019N0112651N1+03101+01801999999ADDGA1041+006001999GF104991999999999999999999MA1101191999999REMMET051METAR SBUF 071900Z 13012KT 9999 SCT020 31/18 Q1012;
0120829860999992007100720004-09400-038217FM-15+0253SBUF V0201201N007212200019N0112651N1+02901+02001999999ADDGA1041+006001999GF104991999999999999999999MA1101291999999REMMET051METAR SBUF 072000Z 12014KT 9999 SCT020 29/20 Q1013;
0120829860999992007100721004-09400-038217FM-15+0253SBUF V0201201N006212200019N0112651N1+02701+01901999999ADDGA1041+006001999GF104991999999999999999999MA1101391999999REMMET051METAR SBUF 072100Z 12012KT 9999 SCT020 27/19 Q1014;
0120829860999992007100722004-09400-038217FM-15+0253SBUF V0201401N006210060019N0112651N1+02701+01901999999ADDGA1071+006001999GF107991999999999999999999MA1101391999999REMMET051METAR SBUF 072200Z 14012KT 9999 BKN020 27/19 Q1014;
0120829860999992007100811004-09400-038217FM-15+0253SBUF V0201301N005710045019N0112651N1+02501+02401999999ADDGA1071+004501999GF107991999999999999999999MA1101801999999REMMET051METAR SBUF 081100Z 13011KT 9999 BKN015 25/24 Q1018;
0229829860999992007100812004-09400-038217SY-MT+0253SBUF V0201101N005710075019N0100001N1+02461+01731101621ADDGA1041+005401999GF106991061041008001001001KA1240N+02021MA1101691098741MD1999999+0111REMSYN076AAXX  08124 82986 32597 6//// 10246 20173 39874 40162 86400 333 20202 58011;MET051METAR SBUF 081200Z 11011KT 9999 SCT018 29/20 Q1017;
0120829860999992007100813004-09400-038217FM-15+0253SBUF V0201301N005112200019N0112651N1+03101+01901999999ADDGA1041+005401999GF104991999999999999999999MA1101691999999REMMET051METAR SBUF 081300Z 13010KT 9999 SCT018 31/19 Q1017;
0120829860999992007100814004-09400-038217FM-15+0253SBUF V0201201N005112200019N0112651N1+03301+01801999999ADDGA1041+005401999GF104991999999999999999999MA1101591999999REMMET051METAR SBUF 081400Z 12010KT 9999 SCT018 33/18 Q1016;
0120829860999992007100815004-09400-038217FM-15+0253SBUF V0201201N006212200019N0112651N1+03301+01701999999ADDGA1041+005401999GF104991999999999999999999MA1101391999999REMMET051METAR SBUF 081500Z 12012KT 9999 SCT018 33/17 Q1014;
0120829860999992007100816004-09400-038217FM-15+0253SBUF V0201201N005712200019N0112651N1+03301+01701999999ADDGA1041+005401999GF104991999999999999999999MA1101291999999REMMET051METAR SBUF 081600Z 12011KT 9999 SCT018 33/17 Q1013;
0120829860999992007100817004-09400-038217FM-15+0253SBUF V0201101N004610060019N0112651N1+03401+01601999999ADDGA1071+006001999GF107991999999999999999999MA1101191999999REMMET051METAR SBUF 081700Z 11009KT 9999 BKN020 34/16 Q1012;
0120829860999992007100818004-09400-038217FM-15+0253SBUF V0201201N006210060019N0112651N1+03201+01701999999ADDGA1071+006001999GF107991999999999999999999MA1101191999999REMMET051METAR SBUF 081800Z 12012KT 9999 BKN020 32/17 Q1012;
0120829860999992007100819004-09400-038217FM-15+0253SBUF V0201501N007212200019N0112651N1+03101+01701999999ADDGA1041+006001999GF104991999999999999999999MA1101191999999REMMET051METAR SBUF 081900Z 15014KT 9999 SCT020 31/17 Q1012;
0120829860999992007100820004-09400-038217FM-15+0253SBUF V0201401N006712200019N0112651N1+03001+01701999999ADDGA1041+006001999GF104991999999999999999999MA1101291999999REMMET051METAR SBUF 082000Z 14013KT 9999 SCT020 30/17 Q1013;
0120829860999992007100821004-09400-038217FM-15+0253SBUF V0201301N007212200019N0112651N1+02801+01601999999ADDGA1041+006001999GF104991999999999999999999MA1101291999999REMMET051METAR SBUF 082100Z 13014KT 9999 SCT020 28/16 Q1013;
0120829860999992007100822004-09400-038217FM-15+0253SBUF V0201401N008212200019N0112651N1+02701+01601999999ADDGA1021+006001999GF102991999999999999999999MA1101391999999REMMET051METAR SBUF 082200Z 14016KT 9999 FEW020 27/16 Q1014;
0072829860999992007100823004-09400-038217FM-15+0253SBUF V0201401N00671220001CN0099001N1+02601+01701999999ADDMA1101491999999REMMET045METAR SBUF 082300Z 14013KT CAVOK 26/17 Q1015;
0143829860999992007100911004-09400-038217FM-15+0253SBUF V0201201N005112200019N0112651N1+02701+02201999999ADDGA1021+005101999GA2041+021001999GF104991999999999999999999MA1101801999999REMMET058METAR SBUF 091100Z 12010KT 9999 FEW017 SCT070 27/22 Q1018;
0271829860999992007100912004-09400-038217SY-MT+0253SBUF V0201201N00571024001CN0100001N1+02521+01741101621ADDGA1041+005401999GA2071+024001999GF199999061041008001001001KA1240N+02001MA1101801098751MD1999999+0011REMSYN076AAXX  09124 82986 32597 6//// 10252 20174 39875 40162 86400 333 20200 58001;MET058METAR SBUF 091200Z 12011KT 9999 SCT018 BKN080 28/21 Q1018;EQDQ01+000062SCOTCV
0143829860999992007100913004-09400-038217FM-15+0253SBUF V0201201N005712200019N0112651N1+02801+02101999999ADDGA1021+005401999GA2041+024001999GF104991999999999999999999MA1101801999999REMMET058METAR SBUF 091300Z 12011KT 9999 FEW018 SCT080 28/21 Q1018;
0120829860999992007100917004-09400-038217FM-15+0253SBUF V0201301N005712200019N0112651N1+03401+01901999999ADDGA1041+006001999GF104991999999999999999999MA1101291999999REMMET051METAR SBUF 091700Z 13011KT 9999 SCT020 34/19 Q1013;
0210829860999992007100918004-09400-038217SY-MT+0253SBUF V0201201N006712200019N0200001N1+03121+01681101101ADDGA1041+006001999GF106991061041008001001001MA1101291098261MD1999999+0081REMSYN070AAXX  09184 82986 32598 6//// 10312 20168 39826 40110 86400 333 58008;MET051METAR SBUF 091800Z 12013KT 9999 SCT020 33/19 Q1013;
0120829860999992007100919004-09400-038217FM-15+0253SBUF V0201101N006212200019N0112651N1+03101+02001999999ADDGA1041+006001999GF104991999999999999999999MA1101291999999REMMET051METAR SBUF 091900Z 11012KT 9999 SCT020 31/20 Q1013;
0120829860999992007100920004-09400-038217FM-15+0253SBUF V0201301N007212200019N0112651N1+02901+02001999999ADDGA1021+006001999GF102991999999999999999999MA1101391999999REMMET051METAR SBUF 092000Z 13014KT 9999 FEW020 29/20 Q1014;
0131829860999992007100921004-09400-038217FM-15+0253SBUF V0201201N007712200019N0112651N1+02701+02201999999ADDGA1041+006001999GF104991999999999999999999MA1101491999999OC101341REMMET054METAR SBUF 092100Z 12015G26KT 9999 SCT020 27/22 Q1015;
0168829860999992007101000004-09400-038217FM-12+0253SBUF V02099999999990075019N0020001N1+02321+01851101601ADDGF106991061051008001001001KA1240M+03161MA1999999098721MD1999999+0101REMSYN088AAXX  10004 82986 32595 6//// 10232 20185 39872 40160 86500 333 10316 29064 55067 58010;
0120829860999992007101011004-09400-038217FM-15+0253SBUF V0201301N005710060019N0112651N1+02701+02101999999ADDGA1071+006001999GF107991999999999999999999MA1101691999999REMMET051METAR SBUF 101100Z 13011KT 9999 BKN020 27/21 Q1017;
0229829860999992007101012004-09400-038217SY-MT+0253SBUF V0201201N005110060019N0100001N1+02541+01711101571ADDGA1071+006001999GF106991061041008001001001KA1240N+02091MA1101691098701MD1999999-0051REMSYN076AAXX  10124 82986 32597 6//// 10254 20171 39870 40157 86400 333 20209 59005;MET051METAR SBUF 101200Z 12010KT 9999 BKN020 28/21 Q1017;
0120829860999992007101013004-09400-038217FM-15+0253SBUF V0201301N005110060019N0112651N1+03101+01901999999ADDGA1071+006001999GF107991999999999999999999MA1101691999999REMMET051METAR SBUF 101300Z 13010KT 9999 BKN020 31/19 Q1017;
0120829860999992007101014004-09400-038217FM-15+0253SBUF V0201101N004112200019N0112651N1+03101+01901999999ADDGA1041+006001999GF104991999999999999999999MA1101591999999REMMET051METAR SBUF 101400Z 11008KT 9999 SCT020 31/19 Q1016;
0120829860999992007101016004-09400-038217FM-15+0253SBUF V0201201N005712200019N0112651N1+03401+01801999999ADDGA1041+006001999GF104991999999999999999999MA1101291999999REMMET051METAR SBUF 101600Z 12011KT 9999 SCT020 34/18 Q1013;
0120829860999992007101017004-09400-038217FM-15+0253SBUF V0201201N007212200019N0112651N1+03401+01801999999ADDGA1041+006001999GF104991999999999999999999MA1101191999999REMMET051METAR SBUF 101700Z 12014KT 9999 SCT020 34/18 Q1012;
0210829860999992007101018004-09400-038217SY-MT+0253SBUF V0201201N006210075019N0200001N1+03141+01451101021ADDGA1041+007501999GF105991051021008001001001MA1101191098191MD1999999-0071REMSYN070AAXX  10184 82986 32598 5//// 10314 20145 39819 40102 85200 333 59007;MET051METAR SBUF 101800Z 12012KT 9999 SCT025 34/18 Q1012;
0120829860999992007101020004-09400-038217FM-15+0253SBUF V0201301N007712200019N0112651N1+03001+01901999999ADDGA1041+006001999GF104991999999999999999999MA1101291999999REMMET051METAR SBUF 102000Z 13015KT 9999 SCT020 30/19 Q1013;
0120829860999992007101021004-09400-038217FM-15+0253SBUF V0201301N007712200019N0112651N1+02801+01901999999ADDGA1021+005401999GF102991999999999999999999MA1101291999999REMMET051METAR SBUF 102100Z 13015KT 9999 FEW018 28/19 Q1013;
0120829860999992007101022004-09400-038217FM-15+0253SBUF V0201301N008212200019N0112651N1+02701+01901999999ADDGA1021+005401999GF102991999999999999999999MA1101391999999REMMET051METAR SBUF 102200Z 13016KT 9999 FEW018 27/19 Q1014;
0072829860999992007101023004-09400-038217FM-15+0253SBUF V0201301N00721220001CN0099001N1+02501+02001999999ADDMA1101491999999REMMET045METAR SBUF 102300Z 13014KT CAVOK 25/20 Q1015;
0178829860999992007101100004-09400-038217FM-12+0253SBUF V02099999999992200019N0020001N1+02361+01781101451ADDGA1001+999999999GF100991001001999999001001KA1240M+03241MA1999999098581MD1999999-0141REMSYN082AAXX  11004 82986 32995 0//// 10236 20178 39858 40145 333 10324 29059 55088 59014;
0143829860999992007101111004-09400-038217FM-15+0253SBUF V0201201N004610045019N0112651N1+02701+02301999999ADDGA1041+003601999GA2071+004501999GF107991999999999999999999MA1101591999999REMMET058METAR SBUF 111100Z 12009KT 9999 SCT012 BKN015 27/23 Q1016;
0229829860999992007101112004-09400-038217SY-MT+0253SBUF V0201101N004610048019N0100001N1+02601+01821101441ADDGA1071+004801999GF106991061021008001001001KA1240N+02021MA1101591098581MD1999999-0121REMSYN076AAXX  11124 82986 32597 6//// 10260 20182 39858 40144 86200 333 20202 59012;MET051METAR SBUF 111200Z 11009KT 9999 BKN016 30/21 Q1016;
0120829860999992007101113004-09400-038217FM-15+0253SBUF V0201101N005110048019N0112651N1+03201+02001999999ADDGA1071+004801999GF107991999999999999999999MA1101491999999REMMET051METAR SBUF 111300Z 11010KT 9999 BKN016 32/20 Q1015;
0120829860999992007101114004-09400-038217FM-15+0253SBUF V0201201N004612200019N0112651N1+03301+02001999999ADDGA1041+005401999GF104991999999999999999999MA1101491999999REMMET051METAR SBUF 111400Z 12009KT 9999 SCT018 33/20 Q1015;
0120829860999992007101115004-09400-038217FM-15+0253SBUF V0201301N004112200019N0112651N1+03401+01901999999ADDGA1021+006001999GF102991999999999999999999MA1101291999999REMMET051METAR SBUF 111500Z 13008KT 9999 FEW020 34/19 Q1013;
0120829860999992007101116004-09400-038217FM-15+0253SBUF V0201501N004612200019N0112651N1+03501+01801999999ADDGA1021+006001999GF102991999999999999999999MA1101081999999REMMET051METAR SBUF 111600Z 15009KT 9999 FEW020 35/18 Q1011;
0120829860999992007101117004-09400-038217FM-15+0253SBUF V0201001N004612200019N0112651N1+03501+01801999999ADDGA1021+007501999GF102991999999999999999999MA1101021999999REMMET051METAR SBUF 111700Z 10009KT 9999 FEW025 35/18 Q1010;
0210829860999992007101118004-09400-038217SY-MT+0253SBUF V0201301N005112200019N0200001N1+03311+01091100841ADDGA1021+007501999GF103991031011008001001001MA1100911098021MD1999999-0171REMSYN070AAXX  11184 82986 32598 3//// 10331 20109 39802 40084 83100 333 59017;MET051METAR SBUF 111800Z 13010KT 9999 FEW025 34/15 Q1009;
0120829860999992007101119004-09400-038217FM-15+0253SBUF V0201101N005112200019N0112651N1+03501+01701999999ADDGA1021+007501999GF102991999999999999999999MA1100911999999REMMET051METAR SBUF 111900Z 11010KT 9999 FEW025 35/17 Q1009;
0120829860999992007101120004-09400-038217FM-15+0253SBUF V0201101N004612200019N0112651N1+03201+01701999999ADDGA1021+007501999GF102991999999999999999999MA1100911999999REMMET051METAR SBUF 112000Z 11009KT 9999 FEW025 32/17 Q1009;
0120829860999992007101121004-09400-038217FM-15+0253SBUF V0201101N005112200019N0112651N1+03001+01801999999ADDGA1021+006001999GF102991999999999999999999MA1101021999999REMMET051METAR SBUF 112100Z 11010KT 9999 FEW020 30/18 Q1010;
0072829860999992007101122004-09400-038217FM-15+0253SBUF V0201201N00671220001CN0099001N1+02901+02001999999ADDMA1101191999999REMMET045METAR SBUF 112200Z 12013KT CAVOK 29/20 Q1012;
0083829860999992007101123004-09400-038217FM-15+0253SBUF V0201201N00621220001CN0099001N1+02701+02101999999ADDMA1101291999999OC101131REMMET048METAR SBUF 112300Z 12012G22KT CAVOK 27/21 Q1013;
0178829860999992007101200004-09400-038217FM-12+0253SBUF V02099999999992200019N0020001N1+02501+01841101171ADDGA1001+999999999GF100991001001999999001001KA1240M+03331MA1999999098321MD1999999-0261REMSYN082AAXX  12004 82986 32995 0//// 10250 20184 39832 40117 333 10333 29056 55101 59026;
0120829860999992007101211004-09400-038217FM-15+0253SBUF V0201201N004612200019N0112651N1+02801+02101999999ADDGA1021+005401999GF102991999999999999999999MA1101591999999REMMET051METAR SBUF 121100Z 12009KT 9999 FEW018 28/21 Q1016;
0229829860999992007101212004-09400-038217SY-MT+0253SBUF V0201101N004612200019N0200001N1+02811+01531101421ADDGA1021+006001999GF103991031011008001001001KA1240N+02001MA1101591098581MD1999999+0001REMSYN076AAXX  12124 82986 32598 3//// 10281 20153 39858 40142 83100 333 20200 58000;MET051METAR SBUF 121200Z 11009KT 9999 FEW020 30/19 Q1016;
0120829860999992007101213004-09400-038217FM-15+0253SBUF V0201301N005712200019N0112651N1+03101+01901999999ADDGA1021+006001999GF102991999999999999999999MA1101491999999REMMET051METAR SBUF 121300Z 13011KT 9999 FEW020 31/19 Q1015;
0072829860999992007101214004-09400-038217FM-15+0253SBUF V0201101N00411220001CN0099001N1+03301+01901999999ADDMA1101391999999REMMET045METAR SBUF 121400Z 11008KT CAVOK 33/19 Q1014;
0072829860999992007101215004-09400-038217FM-15+0253SBUF V0201401N00411220001CN0099001N1+03401+01601999999ADDMA1101291999999REMMET045METAR SBUF 121500Z 14008KT CAVOK 34/16 Q1013;
0072829860999992007101216004-09400-038217FM-15+0253SBUF V0201401N00511220001CN0099001N1+03601+01801999999ADDMA1101081999999REMMET045METAR SBUF 121600Z 14010KT CAVOK 36/18 Q1011;
0072829860999992007101217004-09400-038217FM-15+0253SBUF V0201201N00511220001CN0099001N1+03701+01701999999ADDMA1101021999999REMMET045METAR SBUF 121700Z 12010KT CAVOK 37/17 Q1010;
0188829860999992007101218004-09400-038217SY-MT+0253SBUF V0201101N005112200019N0200001N1+03451+01031100791ADDGF101991011011008001001001MA1101021097981MD1999999-0041REMSYN070AAXX  12184 82986 32598 1//// 10345 20103 39798 40079 81100 333 59004;MET045METAR SBUF 121800Z 11010KT CAVOK 36/17 Q1010;
0072829860999992007101219004-09400-038217FM-15+0253SBUF V0201001N00571220001CN0099001N1+03501+01701999999ADDMA1100911999999REMMET045METAR SBUF 121900Z 10011KT CAVOK 35/17 Q1009;
0072829860999992007101220004-09400-038217FM-15+0253SBUF V0201101N00571220001CN0099001N1+03301+01701999999ADDMA1101021999999REMMET045METAR SBUF 122000Z 11011KT CAVOK 33/17 Q1010;
0072829860999992007101221004-09400-038217FM-15+0253SBUF V0201201N00671220001CN0099001N1+03001+01701999999ADDMA1101081999999REMMET045METAR SBUF 122100Z 12013KT CAVOK 30/17 Q1011;
0072829860999992007101222004-09400-038217FM-15+0253SBUF V0201201N00671220001CN0099001N1+02901+01901999999ADDMA1101191999999REMMET045METAR SBUF 122200Z 12013KT CAVOK 29/19 Q1012;
0178829860999992007101300004-09400-038217FM-12+0253SBUF V02099999999992200019N0020001N1+02481+01731101251ADDGA1001+999999999GF100991001001999999001001KA1240M+03441MA1999999098411MD1999999+0091REMSYN082AAXX  13004 82986 32995 0//// 10248 20173 39841 40125 333 10344 29049 55111 58009;
0229829860999992007101312004-09400-038217SY-MT+0253SBUF V0201201N006210075019N0100001N1+02641+01721101421ADDGA1041+004801999GF106991061021008001001001KA1240N+02001MA1101591098571MD1999999-0011REMSYN076AAXX  13124 82986 32597 6//// 10264 20172 39857 40142 86200 333 20200 59001;MET051METAR SBUF 131200Z 12012KT 9999 SCT016 29/21 Q1016;
0120829860999992007101313004-09400-038217FM-15+0253SBUF V0201201N006212200019N0112651N1+03101+01901999999ADDGA1041+004801999GF104991999999999999999999MA1101491999999REMMET051METAR SBUF 131300Z 12012KT 9999 SCT016 31/19 Q1015;
0120829860999992007101314004-09400-038217FM-15+0253SBUF V0201201N006212200019N0112651N1+03201+01901999999ADDGA1021+006001999GF102991999999999999999999MA1101491999999REMMET051METAR SBUF 131400Z 12012KT 9999 FEW020 32/19 Q1015;
0120829860999992007101315004-09400-038217FM-15+0253SBUF V0201201N005712200019N0112651N1+03301+01901999999ADDGA1021+006001999GF102991999999999999999999MA1101291999999REMMET051METAR SBUF 131500Z 12011KT 9999 FEW020 33/19 Q1013;
0072829860999992007101316004-09400-038217FM-15+0253SBUF V0201201N00571220001CN0099001N1+03501+01901999999ADDMA1101191999999REMMET045METAR SBUF 131600Z 12011KT CAVOK 35/19 Q1012;
0072829860999992007101317004-09400-038217FM-15+0253SBUF V0201201N00511220001CN0099001N1+03501+01901999999ADDMA1101081999999REMMET045METAR SBUF 131700Z 12010KT CAVOK 35/19 Q1011;
0188829860999992007101318004-09400-038217SY-MT+0253SBUF V0201201N005712200019N0200001N1+03301+01261100851ADDGF101991011011008001001001MA1101021098031MD1999999+0051REMSYN070AAXX  13184 82986 32598 1//// 10330 20126 39803 40085 81100 333 58005;MET045METAR SBUF 131800Z 12011KT CAVOK 35/19 Q1010;
0072829860999992007101319004-09400-038217FM-15+0253SBUF V0201301N00721220001CN0099001N1+03401+01901999999ADDMA1101021999999REMMET045METAR SBUF 131900Z 13014KT CAVOK 34/19 Q1010;
0120829860999992007101320004-09400-038217FM-15+0253SBUF V0201201N007212200019N0112651N1+03201+02001999999ADDGA1021+007501999GF102991999999999999999999MA1101081999999REMMET051METAR SBUF 132000Z 12014KT 9999 FEW025 32/20 Q1011;
0072829860999992007101321004-09400-038217FM-15+0253SBUF V0201301N00721220001CN0099001N1+03001+02001999999ADDMA1101191999999REMMET045METAR SBUF 132100Z 13014KT CAVOK 30/20 Q1012;
0072829860999992007101322004-09400-038217FM-15+0253SBUF V0201201N00671220001CN0099001N1+02801+02001999999ADDMA1101191999999REMMET045METAR SBUF 132200Z 12013KT CAVOK 28/20 Q1012;
0072829860999992007101323004-09400-038217FM-15+0253SBUF V0201201N00771220001CN0099001N1+02701+02001999999ADDMA1101291999999REMMET045METAR SBUF 132300Z 12015KT CAVOK 27/20 Q1013;
0254829860999992007101400004-09400-038217SY-MT+0253SBUF V0201201N006712200019N0020001N1+02461+01781101261ADDGA1021+006001999GF199999001001999999001001KA1240M+03351MA1101491098411MD1999999+0001REMSYN082AAXX  14004 82986 32995 0//// 10246 20178 39841 40126 333 10335 29054 55107 58000;MET051METAR SBUF 140000Z 12013KT 9999 FEW020 26/21 Q1015;EQDQ01+000002SCOTCV
0120829860999992007101401004-09400-038217FM-15+0253SBUF V0201401N005712200019N0112651N1+02501+02201999999ADDGA1021+006001999GF102991999999999999999999MA1101491999999REMMET051METAR SBUF 140100Z 14011KT 9999 FEW020 25/22 Q1015;
0120829860999992007101402004-09400-038217FM-15+0253SBUF V0201401N005712200019N0112651N1+02401+02301999999ADDGA1021+006001999GF102991999999999999999999MA1101491999999REMMET051METAR SBUF 140200Z 14011KT 9999 FEW020 24/23 Q1015;
0120829860999992007101403004-09400-038217FM-15+0253SBUF V0201401N005112200019N0112651N1+02301+02301999999ADDGA1021+005401999GF102991999999999999999999MA1101391999999REMMET051METAR SBUF 140300Z 14010KT 9999 FEW018 23/23 Q1014;
0120829860999992007101404004-09400-038217FM-15+0253SBUF V0201401N003612200019N0112651N1+02301+02301999999ADDGA1041+005101999GF104991999999999999999999MA1101391999999REMMET051METAR SBUF 140400Z 14007KT 9999 SCT017 23/23 Q1014;
0120829860999992007101405004-09400-038217FM-15+0253SBUF V0201401N004612200019N0112651N1+02201+02201999999ADDGA1041+004501999GF104991999999999999999999MA1101391999999REMMET051METAR SBUF 140500Z 14009KT 9999 SCT015 22/22 Q1014;
0120829860999992007101406004-09400-038217FM-15+0253SBUF V0201401N003112200019N0112651N1+02101+02101999999ADDGA1021+004501999GF102991999999999999999999MA1101291999999REMMET051METAR SBUF 140600Z 14006KT 9999 FEW015 21/21 Q1013;
0120829860999992007101407004-09400-038217FM-15+0253SBUF V0201601N002612200019N0112651N1+02101+02101999999ADDGA1021+004501999GF102991999999999999999999MA1101291999999REMMET051METAR SBUF 140700Z 16005KT 9999 FEW015 21/21 Q1013;
0143829860999992007101408004-09400-038217FM-15+0253SBUF V0201501N003110045019N0112651N1+02201+02201999999ADDGA1021+003001999GA2071+004501999GF107991999999999999999999MA1101391999999REMMET058METAR SBUF 140800Z 15006KT 9999 FEW010 BKN015 22/22 Q1014;
0120829860999992007101409004-09400-038217FM-15+0253SBUF V0201301N002610045019N0112651N1+02201+02201999999ADDGA1071+004501999GF107991999999999999999999MA1101391999999REMMET051METAR SBUF 140900Z 13005KT 9999 BKN015 22/22 Q1014;
0143829860999992007101410004-09400-038217FM-15+0253SBUF V0201201N004110210019N0112651N1+02401+02401999999ADDGA1041+005101999GA2071+021001999GF107991999999999999999999MA1101491999999REMMET058METAR SBUF 141000Z 12008KT 9999 SCT017 BKN070 24/24 Q1015;
0143829860999992007101411004-09400-038217FM-15+0253SBUF V0201201N004612200019N0112651N1+02701+02201999999ADDGA1021+005401999GA2041+024001999GF104991999999999999999999MA1101591999999REMMET058METAR SBUF 141100Z 12009KT 9999 FEW018 SCT080 27/22 Q1016;
0252829860999992007101412004-09400-038217SY-MT+0253SBUF V0201101N00571024001CN0100001N1+02441+01711101441ADDGA1021+005401999GA2041+024001999GF107991071071004501999999KA1240N+02041MA1101591098571MD1999999+0001REMSYN076AAXX  14124 82986 32497 7//// 10244 20171 39857 40144 877// 333 20204 58000;MET058METAR SBUF 141200Z 11011KT 9999 FEW018 SCT080 28/20 Q1016;
0120829860999992007101413004-09400-038217FM-15+0253SBUF V0201201N007212200019N0112651N1+03101+01901999999ADDGA1021+006001999GF102991999999999999999999MA1101491999999REMMET051METAR SBUF 141300Z 12014KT 9999 FEW020 31/19 Q1015;
0120829860999992007101414004-09400-038217FM-15+0253SBUF V0201101N005712200019N0112651N1+03201+01801999999ADDGA1021+006001999GF102991999999999999999999MA1101491999999REMMET051METAR SBUF 141400Z 11011KT 9999 FEW020 32/18 Q1015;
0072829860999992007101415004-09400-038217FM-15+0253SBUF V0201101N00671220001CN0099001N1+03401+01701999999ADDMA1101391999999REMMET045METAR SBUF 141500Z 11013KT CAVOK 34/17 Q1014;
0072829860999992007101416004-09400-038217FM-15+0253SBUF V0201101N00621220001CN0099001N1+03501+01601999999ADDMA1101191999999REMMET045METAR SBUF 141600Z 11012KT CAVOK 35/16 Q1012;
0120829860999992007101417004-09400-038217FM-15+0253SBUF V0201001N006212200019N0112651N1+03501+01601999999ADDGA1021+007501999GF102991999999999999999999MA1101191999999REMMET051METAR SBUF 141700Z 10012KT 9999 FEW025 35/16 Q1012;
0210829860999992007101418004-09400-038217SY-MT+0253SBUF V0201101N006212200019N0200001N1+03241+00921100981ADDGA1021+007501999GF103991031011008001001001MA1101081098151MD1999999+0121REMSYN070AAXX  14184 82986 32598 3//// 10324 20092 39815 40098 83100 333 58012;MET051METAR SBUF 141800Z 11012KT 9999 FEW025 35/16 Q1011;
0120829860999992007101419004-09400-038217FM-15+0253SBUF V0201201N006212200019N0112651N1+03401+01701999999ADDGA1021+007501999GF102991999999999999999999MA1101191999999REMMET051METAR SBUF 141900Z 12012KT 9999 FEW025 34/17 Q1012;
0072829860999992007101420004-09400-038217FM-15+0253SBUF V0201201N00621220001CN0099001N1+03101+01801999999ADDMA1101191999999REMMET045METAR SBUF 142000Z 12012KT CAVOK 31/18 Q1012;
0072829860999992007101421004-09400-038217FM-15+0253SBUF V0201201N00571220001CN0099001N1+02901+01701999999ADDMA1101291999999REMMET045METAR SBUF 142100Z 12011KT CAVOK 29/17 Q1013;
0072829860999992007101422004-09400-038217FM-15+0253SBUF V0201301N00821220001CN0099001N1+02701+01801999999ADDMA1101391999999REMMET045METAR SBUF 142200Z 13016KT CAVOK 27/18 Q1014;
0083829860999992007101510154-09400-038217FM-16+0253SBUF V02099999999992200019N0112651N1+02401+02401999999ADDMA1101701999999REMMET056METAR SBUF 151015Z SPECI 5006KT 9999 SCT015 24/24 Q1017;
0120829860999992007101511004-09400-038217FM-15+0253SBUF V0201201N004112200019N0112651N1+02801+02301999999ADDGA1041+004501999GF104991999999999999999999MA1101691999999REMMET051METAR SBUF 151100Z 12008KT 9999 SCT015 28/23 Q1017;
0229829860999992007101512004-09400-038217SY-MT+0253SBUF V0201101N006210075019N0100001N1+02641+01511101571ADDGA1041+004801999GF106991061041008001001001KA1240N+02411MA1101691098711MD1999999+0141REMSYN076AAXX  15124 82986 32597 6//// 10264 20151 39871 40157 86400 333 20241 58014;MET051METAR SBUF 151200Z 11012KT 9999 SCT016 29/19 Q1017;
0120829860999992007101513004-09400-038217FM-15+0253SBUF V0201101N006212200019N0112651N1+03201+01901999999ADDGA1041+004801999GF104991999999999999999999MA1101691999999REMMET051METAR SBUF 151300Z 11012KT 9999 SCT016 32/19 Q1017;
0120829860999992007101514004-09400-038217FM-15+0253SBUF V0201401N005112200019N0112651N1+03101+01801999999ADDGA1041+005401999GF104991999999999999999999MA1101691999999REMMET051METAR SBUF 151400Z 14010KT 9999 SCT018 31/18 Q1017;
0120829860999992007101515004-09400-038217FM-15+0253SBUF V0201201N005712200019N0112651N1+03301+01701999999ADDGA1041+006001999GF104991999999999999999999MA1101591999999REMMET051METAR SBUF 151500Z 12011KT 9999 SCT020 33/17 Q1016;
0120829860999992007101516004-09400-038217FM-15+0253SBUF V0201401N006212200019N0112651N1+03501+01701999999ADDGA1041+006001999GF104991999999999999999999MA1101391999999REMMET051METAR SBUF 151600Z 14012KT 9999 SCT020 35/17 Q1014;
0120829860999992007101517004-09400-038217FM-15+0253SBUF V0201301N006712200019N0112651N1+03401+01801999999ADDGA1021+006001999GF102991999999999999999999MA1101291999999REMMET051METAR SBUF 151700Z 13013KT 9999 FEW020 34/18 Q1013;
0210829860999992007101518004-09400-038217SY-MT+0253SBUF V0201301N006712200019N0200001N1+03001+01201101151ADDGA1041+006001999GF104991041021008001001001MA1101291098301MD1999999-0151REMSYN070AAXX  15184 82986 32598 4//// 10300 20120 39830 40115 84200 333 59015;MET051METAR SBUF 151800Z 13013KT 9999 SCT020 33/18 Q1013;
0120829860999992007101519004-09400-038217FM-15+0253SBUF V0201101N005712200019N0112651N1+03201+01701999999ADDGA1021+006001999GF102991999999999999999999MA1101291999999REMMET051METAR SBUF 151900Z 11011KT 9999 FEW020 32/17 Q1013;
0120829860999992007101520004-09400-038217FM-15+0253SBUF V0201201N006712200019N0112651N1+03001+01801999999ADDGA1021+006001999GF102991999999999999999999MA1101291999999REMMET051METAR SBUF 152000Z 12013KT 9999 FEW020 30/18 Q1013;
0120829860999992007101521004-09400-038217FM-15+0253SBUF V0201301N007212200019N0112651N1+02901+01701999999ADDGA1021+005401999GF102991999999999999999999MA1101391999999REMMET051METAR SBUF 152100Z 13014KT 9999 FEW018 29/17 Q1014;
0072829860999992007101522004-09400-038217FM-15+0253SBUF V0201301N00671220001CN0099001N1+02701+01901999999ADDMA1101491999999REMMET045METAR SBUF 152200Z 13013KT CAVOK 27/19 Q1015;
0072829860999992007101523004-09400-038217FM-15+0253SBUF V0201401N00721220001CN0099001N1+02601+01801999999ADDMA1101591999999REMMET045METAR SBUF 152300Z 14014KT CAVOK 26/18 Q1016;
0143829860999992007101611004-09400-038217FM-15+0253SBUF V0201201N004112200019N0112651N1+02601+02301999999ADDGA1021+003601999GA2041+004501999GF104991999999999999999999MA1101801999999REMMET058METAR SBUF 161100Z 12008KT 9999 FEW012 SCT015 26/23 Q1018;
0120829860999992007101612004-09400-038217FM-15+0253SBUF V0201201N005712200019N0112651N1+02601+02301999999ADDGA1041+004801999GF104991999999999999999999MA1101801999999REMMET051METAR SBUF 161200Z 12011KT 9999 SCT016 26/23 Q1018;
0120829860999992007101613004-09400-038217FM-15+0253SBUF V0201201N005112200019N0112651N1+02901+02001999999ADDGA1041+004801999GF104991999999999999999999MA1101801999999REMMET051METAR SBUF 161300Z 12010KT 9999 SCT016 29/20 Q1018;
0120829860999992007101614004-09400-038217FM-15+0253SBUF V0201301N004110060019N0112651N1+03101+01901999999ADDGA1071+006001999GF107991999999999999999999MA1101691999999REMMET051METAR SBUF 161400Z 13008KT 9999 BKN020 31/19 Q1017;
0120829860999992007101615004-09400-038217FM-15+0253SBUF V0201201N006212200019N0112651N1+03301+01901999999ADDGA1041+007501999GF104991999999999999999999MA1101591999999REMMET051METAR SBUF 161500Z 12012KT 9999 SCT025 33/19 Q1016;
0120829860999992007101616004-09400-038217FM-15+0253SBUF V0201301N005712200019N0112651N1+03401+01801999999ADDGA1041+007501999GF104991999999999999999999MA1101391999999REMMET051METAR SBUF 161600Z 13011KT 9999 SCT025 34/18 Q1014;
0120829860999992007101617004-09400-038217FM-15+0253SBUF V0201201N005112200019N0112651N1+03401+01701999999ADDGA1041+007501999GF104991999999999999999999MA1101291999999REMMET051METAR SBUF 161700Z 12010KT 9999 SCT025 34/17 Q1013;
0120829860999992007101618004-09400-038217FM-15+0253SBUF V0201401N005712200019N0112651N1+03301+01801999999ADDGA1041+007501999GF104991999999999999999999MA1101291999999REMMET051METAR SBUF 161800Z 14011KT 9999 SCT025 33/18 Q1013;
0120829860999992007101620004-09400-038217FM-15+0253SBUF V0201301N005712200019N0112651N1+03001+01901999999ADDGA1021+006001999GF102991999999999999999999MA1101291999999REMMET051METAR SBUF 162000Z 13011KT 9999 FEW020 30/19 Q1013;
0120829860999992007101621004-09400-038217FM-15+0253SBUF V0201401N007712200019N0112651N1+02801+02001999999ADDGA1021+005401999GF102991999999999999999999MA1101391999999REMMET051METAR SBUF 162100Z 14015KT 9999 FEW018 28/20 Q1014;
0072829860999992007101622004-09400-038217FM-15+0253SBUF V0201401N00671220001CN0099001N1+02701+01901999999ADDMA1101491999999REMMET045METAR SBUF 162200Z 14013KT CAVOK 27/19 Q1015;
0072829860999992007101623004-09400-038217FM-15+0253SBUF V0201301N00621220001CN0099001N1+02601+02001999999ADDMA1101591999999REMMET045METAR SBUF 162300Z 13012KT CAVOK 26/20 Q1016;
0120829860999992007101711004-09400-038217FM-15+0253SBUF V0201201N004612200019N0112651N1+02701+02201999999ADDGA1041+004801999GF104991999999999999999999MA1101691999999REMMET051METAR SBUF 171100Z 12009KT 9999 SCT016 27/22 Q1017;
0120829860999992007101712004-09400-038217FM-15+0253SBUF V0201301N005112200019N0112651N1+02801+02001999999ADDGA1041+004801999GF104991999999999999999999MA1101691999999REMMET051METAR SBUF 171200Z 13010KT 9999 SCT016 28/20 Q1017;
0120829860999992007101713004-09400-038217FM-15+0253SBUF V0201101N004112200019N0112651N1+03101+01901999999ADDGA1041+005401999GF104991999999999999999999MA1101591999999REMMET051METAR SBUF 171300Z 11008KT 9999 SCT018 31/19 Q1016;
0120829860999992007101714004-09400-038217FM-15+0253SBUF V0201101N004112200019N0112651N1+03201+01901999999ADDGA1021+006001999GF102991999999999999999999MA1101591999999REMMET051METAR SBUF 171400Z 11008KT 9999 FEW020 32/19 Q1016;
0120829860999992007101715004-09400-038217FM-15+0253SBUF V0201001N004112200019N0112651N1+03401+01801999999ADDGA1021+006001999GF102991999999999999999999MA1101391999999REMMET051METAR SBUF 171500Z 10008KT 9999 FEW020 34/18 Q1014;
0072829860999992007101716004-09400-038217FM-15+0253SBUF V0201101N00311220001CN0099001N1+03501+01701999999ADDMA1101291999999REMMET045METAR SBUF 171600Z 11006KT CAVOK 35/17 Q1013;
0072829860999992007101717004-09400-038217FM-15+0253SBUF V0200801N00151220001CN0099001N1+03501+01701999999ADDMA1101081999999REMMET045METAR SBUF 171700Z 08003KT CAVOK 35/17 Q1011;
0072829860999992007101718004-09400-038217FM-15+0253SBUF V0201001N00361220001CN0099001N1+03601+01701999999ADDMA1101081999999REMMET045METAR SBUF 171800Z 10007KT CAVOK 36/17 Q1011;
0072829860999992007101719004-09400-038217FM-15+0253SBUF V0201001N00361220001CN0099001N1+03501+01601999999ADDMA1101081999999REMMET045METAR SBUF 171900Z 10007KT CAVOK 35/16 Q1011;
0072829860999992007101720004-09400-038217FM-15+0253SBUF V0201201N00361220001CN0099001N1+03301+01501999999ADDMA1101081999999REMMET045METAR SBUF 172000Z 12007KT CAVOK 33/15 Q1011;
0072829860999992007101721004-09400-038217FM-15+0253SBUF V0201201N00311220001CN0099001N1+03001+01501999999ADDMA1101081999999REMMET045METAR SBUF 172100Z 12006KT CAVOK 30/15 Q1011;
0072829860999992007101722004-09400-038217FM-15+0253SBUF V0201101N00311220001CN0099001N1+02901+01401999999ADDMA1101191999999REMMET045METAR SBUF 172200Z 11006KT CAVOK 29/14 Q1012;
0072829860999992007101723004-09400-038217FM-15+0253SBUF V0201101N00511220001CN0099001N1+02801+01901999999ADDMA1101291999999REMMET045METAR SBUF 172300Z 11010KT CAVOK 28/19 Q1013;
0120829860999992007101810004-09400-038217FM-15+0253SBUF V0201201N001012200019N0112651N1+02501+02501999999ADDGA1021+004801999GF102991999999999999999999MA1101591999999REMMET051METAR SBUF 181000Z 12002KT 9999 FEW016 25/25 Q1016;
0072829860999992007101811004-09400-038217FM-15+0253SBUF V0200401N00151220001CN0099001N1+02801+02401999999ADDMA1101591999999REMMET045METAR SBUF 181100Z 04003KT CAVOK 28/24 Q1016;
0201829860999992007101812004-09400-038217SY-MT+0253SBUF V0202301N00101220001CN0200001N1+02531+01821101411ADDGF100991001001999999001001KA1240N+01981MA1101591098561MD1999999-0101REMSYN070AAXX  18124 82986 32998 0//// 10253 20182 39856 40141 333 20198 59010;MET045METAR SBUF 181200Z 23002KT CAVOK 30/23 Q1016;
0072829860999992007101813004-09400-038217FM-15+0253SBUF V0200901N00211220001CN0099001N1+03201+02101999999ADDMA1101491999999REMMET045METAR SBUF 181300Z 09004KT CAVOK 32/21 Q1015;
0072829860999992007101814004-09400-038217FM-15+0253SBUF V0202001N00151220001CN0099001N1+03301+02001999999ADDMA1101391999999REMMET045METAR SBUF 181400Z 20003KT CAVOK 33/20 Q1014;
0072829860999992007101815004-09400-038217FM-15+0253SBUF V0201501N00261220001CN0099001N1+03501+02001999999ADDMA1101191999999REMMET045METAR SBUF 181500Z 15005KT CAVOK 35/20 Q1012;
0072829860999992007101816004-09400-038217FM-15+0253SBUF V0201701N00261220001CN0099001N1+03701+01801999999ADDMA1101081999999REMMET045METAR SBUF 181600Z 17005KT CAVOK 37/18 Q1011;
0072829860999992007101817004-09400-038217FM-15+0253SBUF V0202201N00151220001CN0099001N1+03601+01801999999ADDMA1101021999999REMMET045METAR SBUF 181700Z 22003KT CAVOK 36/18 Q1010;
0188829860999992007101818004-09400-038217SY-MT+0253SBUF V0201501N003612200019N0200001N1+03611+00952100811ADDGF101991011011008001001001MA1101021098001MD1999999-0111REMSYN070AAXX  18184 82986 32598 1//// 10361 20095 39800 40081 81100 333 59011;MET045METAR SBUF 181800Z 15007KT CAVOK 37/17 Q1010;
0072829860999992007101820004-09400-038217FM-15+0253SBUF V0201301N00211220001CN0099001N1+03501+01801999999ADDMA1101021999999REMMET045METAR SBUF 182000Z 13004KT CAVOK 35/18 Q1010;
0072829860999992007101821004-09400-038217FM-15+0253SBUF V0201001N00261220001CN0099001N1+03401+01701999999ADDMA1101021999999REMMET045METAR SBUF 182100Z 10005KT CAVOK 34/17 Q1010;
0072829860999992007101822004-09400-038217FM-15+0253SBUF V0201301N00721220001CN0099001N1+03001+02001999999ADDMA1101081999999REMMET045METAR SBUF 182200Z 13014KT CAVOK 30/20 Q1011;
0072829860999992007101823004-09400-038217FM-15+0253SBUF V0201401N00621220001CN0099001N1+02801+02101999999ADDMA1101291999999REMMET045METAR SBUF 182300Z 14012KT CAVOK 28/21 Q1013;
0120829860999992007101900004-09400-038217FM-15+0253SBUF V0201301N005112200019N0112651N1+02601+02101999999ADDGA1021+005401999GF102991999999999999999999MA1101391999999REMMET051METAR SBUF 190000Z 13010KT 9999 FEW018 26/21 Q1014;
0120829860999992007101911004-09400-038217FM-15+0253SBUF V0201901N002112200019N0112651N1+02601+02001999999ADDGA1021+005101999GF102991999999999999999999MA1101491999999REMMET051METAR SBUF 191100Z 19004KT 9999 FEW017 26/20 Q1015;
0120829860999992007101912004-09400-038217FM-15+0253SBUF V0201901N001512200019N0112651N1+02801+01901999999ADDGA1021+005401999GF102991999999999999999999MA1101591999999REMMET051METAR SBUF 191200Z 19003KT 9999 FEW018 28/19 Q1016;
0120829860999992007101913004-09400-038217FM-15+0253SBUF V0201801N002612200019N0112651N1+02901+01901999999ADDGA1021+005401999GF102991999999999999999999MA1101491999999REMMET051METAR SBUF 191300Z 18005KT 9999 FEW018 29/19 Q1015;
0120829860999992007101914004-09400-038217FM-15+0253SBUF V0201301N003612200019N0112651N1+03101+01901999999ADDGA1021+006001999GF102991999999999999999999MA1101391999999REMMET051METAR SBUF 191400Z 13007KT 9999 FEW020 31/19 Q1014;
0120829860999992007101915004-09400-038217FM-15+0253SBUF V0201301N002612200019N0112651N1+03201+01801999999ADDGA1021+007501999GF102991999999999999999999MA1101291999999REMMET051METAR SBUF 191500Z 13005KT 9999 FEW025 32/18 Q1013;
0072829860999992007101916004-09400-038217FM-15+0253SBUF V0201901N00151220001CN0099001N1+03301+01701999999ADDMA1101191999999REMMET045METAR SBUF 191600Z 19003KT CAVOK 33/17 Q1012;
0072829860999992007101917004-09400-038217FM-15+0253SBUF V0201201N00261220001CN0099001N1+03401+01801999999ADDMA1101081999999REMMET045METAR SBUF 191700Z 12005KT CAVOK 34/18 Q1011;
0072829860999992007101918004-09400-038217FM-15+0253SBUF V0201201N00261220001CN0099001N1+03501+01701999999ADDMA1101021999999REMMET045METAR SBUF 191800Z 12005KT CAVOK 35/17 Q1010;
0072829860999992007101919004-09400-038217FM-15+0253SBUF V0201301N00511220001CN0099001N1+03501+01601999999ADDMA1101021999999REMMET045METAR SBUF 191900Z 13010KT CAVOK 35/16 Q1010;
0072829860999992007101920004-09400-038217FM-15+0253SBUF V0201301N00411220001CN0099001N1+03401+01901999999ADDMA1101021999999REMMET045METAR SBUF 192000Z 13008KT CAVOK 34/19 Q1010;
0145829860999992007101921004-09400-038217FM-15+0253SBUF V0201301N004612200019N0112651N1+03201+01801999999ADDGA1021+006001091GA2041+090001999GF104991999999999999999999MA1101081999999REMMET060METAR SBUF 192100Z 13009KT 9999 FEW020CB SCT300 32/18 Q1011;
0072829860999992007101922004-09400-038217FM-15+0253SBUF V0201401N00621220001CN0099001N1+03001+02001999999ADDMA1101191999999REMMET045METAR SBUF 192200Z 14012KT CAVOK 30/20 Q1012;
0084829860999992007102010154-09400-038217FM-16+0253SBUF V0201401N003112200019N0112651N1+02501+02501999999ADDMA1101501999999REMMET057METAR SBUF 201015Z SPECI 14006KT 9999 FEW016 25/25 Q1015;
0120829860999992007102011004-09400-038217FM-15+0253SBUF V0203001N001512200019N0112651N1+02601+02301999999ADDGA1021+004801999GF102991999999999999999999MA1101591999999REMMET051METAR SBUF 201100Z 30003KT 9999 FEW016 26/23 Q1016;
0120829860999992007102012004-09400-038217FM-15+0253SBUF V0202201N002612200019N0112651N1+02801+02301999999ADDGA1021+004801999GF102991999999999999999999MA1101491999999REMMET051METAR SBUF 201200Z 22005KT 9999 FEW016 28/23 Q1015;
0072829860999992007102013004-09400-038217FM-15+0253SBUF V0201501N00361220001CN0099001N1+02901+01501999999ADDMA1101491999999REMMET045METAR SBUF 201300Z 15007KT CAVOK 29/15 Q1015;
0072829860999992007102014004-09400-038217FM-15+0253SBUF V0201801N00311220001CN0099001N1+03101+01801999999ADDMA1101391999999REMMET045METAR SBUF 201400Z 18006KT CAVOK 31/18 Q1014;
0072829860999992007102015004-09400-038217FM-15+0253SBUF V0201701N00261220001CN0099001N1+03401+01401999999ADDMA1101291999999REMMET045METAR SBUF 201500Z 17005KT CAVOK 34/14 Q1013;
0072829860999992007102016004-09400-038217FM-15+0253SBUF V0201301N00411220001CN0099001N1+03401+01201999999ADDMA1101191999999REMMET045METAR SBUF 201600Z 13008KT CAVOK 34/12 Q1012;
0143829860999992007102017004-09400-038217FM-15+0253SBUF V0201901N003112200019N0112651N1+03501+01701999999ADDGA1021+007501999GA2041+090001999GF104991999999999999999999MA1101081999999REMMET058METAR SBUF 201700Z 19006KT 9999 FEW025 SCT300 35/17 Q1011;
0143829860999992007102018004-09400-038217FM-15+0253SBUF V0201401N001512200019N0112651N1+03501+01601999999ADDGA1021+007501999GA2041+090001999GF104991999999999999999999MA1101081999999REMMET058METAR SBUF 201800Z 14003KT 9999 FEW025 SCT300 35/16 Q1011;
0143829860999992007102019004-09400-038217FM-15+0253SBUF V0201501N004612200019N0112651N1+03501+01601999999ADDGA1021+007501999GA2041+090001999GF104991999999999999999999MA1101081999999REMMET058METAR SBUF 201900Z 15009KT 9999 FEW025 SCT300 35/16 Q1011;
0143829860999992007102020004-09400-038217FM-15+0253SBUF V0201301N005112200019N0112651N1+03301+01801999999ADDGA1021+007501999GA2041+090001999GF104991999999999999999999MA1101081999999REMMET058METAR SBUF 202000Z 13010KT 9999 FEW025 SCT300 33/18 Q1011;
0072829860999992007102021004-09400-038217FM-15+0253SBUF V0201401N00311220001CN0099001N1+03201+01701999999ADDMA1101191999999REMMET045METAR SBUF 202100Z 14006KT CAVOK 32/17 Q1012;
0072829860999992007102022004-09400-038217FM-15+0253SBUF V0201301N00511220001CN0099001N1+03001+01901999999ADDMA1101291999999REMMET045METAR SBUF 202200Z 13010KT CAVOK 30/19 Q1013;
0072829860999992007102023004-09400-038217FM-15+0253SBUF V0201401N00671220001CN0099001N1+02801+01901999999ADDMA1101391999999REMMET045METAR SBUF 202300Z 14013KT CAVOK 28/19 Q1014;
0072829860999992007102100004-09400-038217FM-15+0253SBUF V0201301N00621220001CN0099001N1+02601+02001999999ADDMA1101491999999REMMET045METAR SBUF 210000Z 13012KT CAVOK 26/20 Q1015;
0072829860999992007102101004-09400-038217FM-15+0253SBUF V0201301N00311220001CN0099001N1+02501+02001999999ADDMA1101491999999REMMET045METAR SBUF 210100Z 13006KT CAVOK 25/20 Q1015;
0072829860999992007102102004-09400-038217FM-15+0253SBUF V0201401N00411220001CN0099001N1+02501+01901999999ADDMA1101491999999REMMET045METAR SBUF 210200Z 14008KT CAVOK 25/19 Q1015;
0091829860999992007102110174-09400-038217FM-16+0253SBUF V0201501N004212200019N0112651N1+02501+02301999999ADDMA1101601999999REMMET064METAR SBUF 211017Z SPECI 15008KT 9999 FEW016 BKN300 25/23 Q1016;
0143829860999992007102111004-09400-038217FM-15+0253SBUF V0201301N003110900019N0112651N1+02601+02201999999ADDGA1021+004801999GA2071+090001999GF107991999999999999999999MA1101591999999REMMET058METAR SBUF 211100Z 13006KT 9999 FEW016 BKN300 26/22 Q1016;
0143829860999992007102112004-09400-038217FM-15+0253SBUF V0201401N002610900019N0112651N1+02801+02001999999ADDGA1021+005401999GA2071+090001999GF107991999999999999999999MA1101591999999REMMET058METAR SBUF 211200Z 14005KT 9999 FEW018 BKN300 28/20 Q1016;
0143829860999992007102113004-09400-038217FM-15+0253SBUF V0201501N004610900019N0112651N1+03001+02001999999ADDGA1021+005401999GA2071+090001999GF107991999999999999999999MA1101491999999REMMET058METAR SBUF 211300Z 15009KT 9999 FEW018 BKN300 30/20 Q1015;
0143829860999992007102114004-09400-038217FM-15+0253SBUF V0201401N003610900019N0112651N1+03001+01901999999ADDGA1021+006001999GA2071+090001999GF107991999999999999999999MA1101391999999REMMET058METAR SBUF 211400Z 14007KT 9999 FEW020 BKN300 30/19 Q1014;
0143829860999992007102115004-09400-038217FM-15+0253SBUF V0201201N002610900019N0112651N1+03201+01801999999ADDGA1041+006001999GA2071+090001999GF107991999999999999999999MA1101291999999REMMET058METAR SBUF 211500Z 12005KT 9999 SCT020 BKN300 32/18 Q1013;
0143829860999992007102116004-09400-038217FM-15+0253SBUF V0201401N002610900019N0112651N1+03301+01801999999ADDGA1041+006001999GA2071+090001999GF107991999999999999999999MA1101191999999REMMET058METAR SBUF 211600Z 14005KT 9999 SCT020 BKN300 33/18 Q1012;
0143829860999992007102117004-09400-038217FM-15+0253SBUF V0201201N003610900019N0112651N1+03301+01801999999ADDGA1021+006001999GA2071+090001999GF107991999999999999999999MA1101191999999REMMET058METAR SBUF 211700Z 12007KT 9999 FEW020 BKN300 33/18 Q1012;
0143829860999992007102118004-09400-038217FM-15+0253SBUF V0201501N002110900019N0112651N1+03501+01701999999ADDGA1021+006001999GA2071+090001999GF107991999999999999999999MA1101081999999REMMET058METAR SBUF 211800Z 15004KT 9999 FEW020 BKN300 35/17 Q1011;
0143829860999992007102119004-09400-038217FM-15+0253SBUF V0201601N002610900019N0112651N1+03301+01901999999ADDGA1021+006001999GA2071+090001999GF107991999999999999999999MA1101081999999REMMET058METAR SBUF 211900Z 16005KT 9999 FEW020 BKN300 33/19 Q1011;
0072829860999992007102120004-09400-038217FM-15+0253SBUF V0201401N00411220001CN0099001N1+03201+01901999999ADDMA1101081999999REMMET045METAR SBUF 212000Z 14008KT CAVOK 32/19 Q1011;
0072829860999992007102121004-09400-038217FM-15+0253SBUF V0201401N00211220001CN0099001N1+03101+01901999999ADDMA1101081999999REMMET045METAR SBUF 212100Z 14004KT CAVOK 31/19 Q1011;
0072829860999992007102122004-09400-038217FM-15+0253SBUF V0201301N00931220001CN0099001N1+03001+02001999999ADDMA1101191999999REMMET045METAR SBUF 212200Z 13018KT CAVOK 30/20 Q1012;
0123829860999992007102210164-09400-038217FM-16+0253SBUF V0201001N003119999999N0112651N1+02501+02001999999ADDKA1999M+99999MA1101701999999REMMET064METAR SBUF 221016Z SPECI 10006KT 9999 FEW017 SCT300 25/20 Q1017;EQDQ01 +00062ATMX  
0143829860999992007102211004-09400-038217FM-15+0253SBUF V0201401N005112200019N0112651N1+02601+02001999999ADDGA1021+005101999GA2041+090001999GF104991999999999999999999MA1101691999999REMMET058METAR SBUF 221100Z 14010KT 9999 FEW017 SCT300 26/20 Q1017;
0143829860999992007102212004-09400-038217FM-15+0253SBUF V0201301N005112200019N0112651N1+02801+01901999999ADDGA1021+005401999GA2041+090001999GF104991999999999999999999MA1101691999999REMMET058METAR SBUF 221200Z 13010KT 9999 FEW018 SCT300 28/19 Q1017;
0143829860999992007102213004-09400-038217FM-15+0253SBUF V0201301N005112200019N0112651N1+02901+01901999999ADDGA1021+005401999GA2041+090001999GF104991999999999999999999MA1101591999999REMMET058METAR SBUF 221300Z 13010KT 9999 FEW018 SCT300 29/19 Q1016;
0143829860999992007102214004-09400-038217FM-15+0253SBUF V0201501N005112200019N0112651N1+03301+01801999999ADDGA1021+005401999GA2041+090001999GF104991999999999999999999MA1101491999999REMMET058METAR SBUF 221400Z 15010KT 9999 FEW018 SCT300 33/18 Q1015;
0143829860999992007102215004-09400-038217FM-15+0253SBUF V0201401N004112200019N0112651N1+03501+01701999999ADDGA1021+006001999GA2041+090001999GF104991999999999999999999MA1101391999999REMMET058METAR SBUF 221500Z 14008KT 9999 FEW020 SCT300 35/17 Q1014;
0143829860999992007102216004-09400-038217FM-15+0253SBUF V0201201N003112200019N0112651N1+03401+01701999999ADDGA1021+006001999GA2041+090001999GF104991999999999999999999MA1101291999999REMMET058METAR SBUF 221600Z 12006KT 9999 FEW020 SCT300 34/17 Q1013;
0143829860999992007102217004-09400-038217FM-15+0253SBUF V0201001N003612200019N0112651N1+03401+01601999999ADDGA1021+006001999GA2041+090001999GF104991999999999999999999MA1101191999999REMMET058METAR SBUF 221700Z 10007KT 9999 FEW020 SCT300 34/16 Q1012;
0143829860999992007102218004-09400-038217FM-15+0253SBUF V0201301N005712200019N0112651N1+03501+01601999999ADDGA1021+006001999GA2041+090001999GF104991999999999999999999MA1101081999999REMMET058METAR SBUF 221800Z 13011KT 9999 FEW020 SCT300 35/16 Q1011;
0143829860999992007102219004-09400-038217FM-15+0253SBUF V0201101N005712200019N0112651N1+03401+01701999999ADDGA1021+006001999GA2041+090001999GF104991999999999999999999MA1101081999999REMMET058METAR SBUF 221900Z 11011KT 9999 FEW020 SCT300 34/17 Q1011;
0072829860999992007102220004-09400-038217FM-15+0253SBUF V0201501N00361220001CN0099001N1+03301+01801999999ADDMA1101081999999REMMET045METAR SBUF 222000Z 15007KT CAVOK 33/18 Q1011;
0072829860999992007102221004-09400-038217FM-15+0253SBUF V0201301N00511220001CN0099001N1+03101+01801999999ADDMA1101191999999REMMET045METAR SBUF 222100Z 13010KT CAVOK 31/18 Q1012;
0072829860999992007102222004-09400-038217FM-15+0253SBUF V0201201N00671220001CN0099001N1+03001+01901999999ADDMA1101291999999REMMET045METAR SBUF 222200Z 12013KT CAVOK 30/19 Q1013;
0072829860999992007102223004-09400-038217FM-15+0253SBUF V0201301N00771220001CN0099001N1+02801+02001999999ADDMA1101491999999REMMET045METAR SBUF 222300Z 13015KT CAVOK 28/20 Q1015;
0143829860999992007102311004-09400-038217FM-15+0253SBUF V0201501N006210045019N0112651N1+02601+02101999999ADDGA1071+004501999GA2071+021001999GF107991999999999999999999MA1101691999999REMMET058METAR SBUF 231100Z 15012KT 9999 BKN015 BKN070 26/21 Q1017;
0143829860999992007102312004-09400-038217FM-15+0253SBUF V0201701N006210210019N0112651N1+02801+02001999999ADDGA1041+005401999GA2071+021001999GF107991999999999999999999MA1101691999999REMMET058METAR SBUF 231200Z 17012KT 9999 SCT018 BKN070 28/20 Q1017;
0143829860999992007102313004-09400-038217FM-15+0253SBUF V0201101N007212200019N0112651N1+03101+01901999999ADDGA1041+005401999GA2041+021001999GF104991999999999999999999MA1101591999999REMMET058METAR SBUF 231300Z 11014KT 9999 SCT018 SCT070 31/19 Q1016;
0143829860999992007102314004-09400-038217FM-15+0253SBUF V0201401N006210210019N0112651N1+03201+01901999999ADDGA1041+005401999GA2071+021001999GF107991999999999999999999MA1101591999999REMMET058METAR SBUF 231400Z 14012KT 9999 SCT018 BKN070 32/19 Q1016;
0120829860999992007102316004-09400-038217FM-15+0253SBUF V0201101N006210060019N0112651N1+03501+01901999999ADDGA1071+006001999GF107991999999999999999999MA1101391999999REMMET051METAR SBUF 231600Z 11012KT 9999 BKN020 35/19 Q1014;
0120829860999992007102317004-09400-038217FM-15+0253SBUF V0201001N006212200019N0112651N1+03401+01701999999ADDGA1041+006001999GF104991999999999999999999MA1101191999999REMMET051METAR SBUF 231700Z 10012KT 9999 SCT020 34/17 Q1012;
0143829860999992007102318004-09400-038217FM-15+0253SBUF V0201301N005712200019N0112651N1+03401+01801999999ADDGA1021+007501999GA2041+090001999GF104991999999999999999999MA1101191999999REMMET058METAR SBUF 231800Z 13011KT 9999 FEW025 SCT300 34/18 Q1012;
0143829860999992007102319004-09400-038217FM-15+0253SBUF V0201101N005712200019N0112651N1+03301+01701999999ADDGA1021+007501999GA2041+090001999GF104991999999999999999999MA1101191999999REMMET058METAR SBUF 231900Z 11011KT 9999 FEW025 SCT300 33/17 Q1012;
0143829860999992007102320004-09400-038217FM-15+0253SBUF V0201101N005112200019N0112651N1+03201+01801999999ADDGA1021+007501999GA2041+090001999GF104991999999999999999999MA1101291999999REMMET058METAR SBUF 232000Z 11010KT 9999 FEW025 SCT300 32/18 Q1013;
0120829860999992007102321004-09400-038217FM-15+0253SBUF V0201301N007712200019N0112651N1+03001+02001999999ADDGA1021+007501999GF102991999999999999999999MA1101391999999REMMET051METAR SBUF 232100Z 13015KT 9999 FEW025 30/20 Q1014;
0072829860999992007102322004-09400-038217FM-15+0253SBUF V0201401N00931220001CN0099001N1+02801+02201999999ADDMA1101491999999REMMET045METAR SBUF 232200Z 14018KT CAVOK 28/22 Q1015;
0072829860999992007102323004-09400-038217FM-15+0253SBUF V0201501N00671220001CN0099001N1+02601+02401999999ADDMA1101591999999REMMET045METAR SBUF 232300Z 15013KT CAVOK 26/24 Q1016;
0120829860999992007102411004-09400-038217FM-15+0253SBUF V0201201N005710054019N0112651N1+02801+02501999999ADDGA1071+005401999GF107991999999999999999999MA1101801999999REMMET051METAR SBUF 241100Z 12011KT 9999 BKN018 28/25 Q1018;
0120829860999992007102412004-09400-038217FM-15+0253SBUF V0201101N005710060019N0112651N1+03001+02201999999ADDGA1071+006001999GF107991999999999999999999MA1101801999999REMMET051METAR SBUF 241200Z 11011KT 9999 BKN020 30/22 Q1018;
0120829860999992007102413004-09400-038217FM-15+0253SBUF V0201101N006712200019N0112651N1+03201+02001999999ADDGA1041+006001999GF104991999999999999999999MA1101801999999REMMET051METAR SBUF 241300Z 11013KT 9999 SCT020 32/20 Q1018;
0120829860999992007102414004-09400-038217FM-15+0253SBUF V0201201N006710060019N0112651N1+03101+02001999999ADDGA1071+006001999GF107991999999999999999999MA1101691999999REMMET051METAR SBUF 241400Z 12013KT 9999 BKN020 31/20 Q1017;
0120829860999992007102415004-09400-038217FM-15+0253SBUF V0201201N006712200019N0112651N1+03401+02001999999ADDGA1041+007501999GF104991999999999999999999MA1101491999999REMMET051METAR SBUF 241500Z 12013KT 9999 SCT025 34/20 Q1015;
0120829860999992007102416004-09400-038217FM-15+0253SBUF V0201101N005712200019N0112651N1+03501+01901999999ADDGA1041+007501999GF104991999999999999999999MA1101391999999REMMET051METAR SBUF 241600Z 11011KT 9999 SCT025 35/19 Q1014;
0120829860999992007102417004-09400-038217FM-15+0253SBUF V0201201N006212200019N0112651N1+03501+01801999999ADDGA1041+007501999GF104991999999999999999999MA1101291999999REMMET051METAR SBUF 241700Z 12012KT 9999 SCT025 35/18 Q1013;
0120829860999992007102418004-09400-038217FM-15+0253SBUF V0201101N006712200019N0112651N1+03501+01801999999ADDGA1021+007501999GF102991999999999999999999MA1101291999999REMMET051METAR SBUF 241800Z 11013KT 9999 FEW025 35/18 Q1013;
0120829860999992007102419004-09400-038217FM-15+0253SBUF V0201301N005712200019N0112651N1+03501+01801999999ADDGA1021+007501999GF102991999999999999999999MA1101291999999REMMET051METAR SBUF 241900Z 13011KT 9999 FEW025 35/18 Q1013;
0120829860999992007102420004-09400-038217FM-15+0253SBUF V0201201N005712200019N0112651N1+03101+01701999999ADDGA1021+006001999GF102991999999999999999999MA1101291999999REMMET051METAR SBUF 242000Z 12011KT 9999 FEW020 31/17 Q1013;
0072829860999992007102421004-09400-038217FM-15+0253SBUF V0201301N00361220001CN0099001N1+03001+02001999999ADDMA1101391999999REMMET045METAR SBUF 242100Z 13007KT CAVOK 30/20 Q1014;
0072829860999992007102422004-09400-038217FM-15+0253SBUF V0201301N00821220001CN0099001N1+02801+02201999999ADDMA1101491999999REMMET045METAR SBUF 242200Z 13016KT CAVOK 28/22 Q1015;
0072829860999992007102423004-09400-038217FM-15+0253SBUF V0201301N00621220001CN0099001N1+02701+02301999999ADDMA1101591999999REMMET045METAR SBUF 242300Z 13012KT CAVOK 27/23 Q1016;
0120829860999992007102511004-09400-038217FM-15+0253SBUF V0201301N005112200019N0112651N1+02701+02001999999ADDGA1041+005401999GF104991999999999999999999MA1101691999999REMMET051METAR SBUF 251100Z 13010KT 9999 SCT018 27/20 Q1017;
0120829860999992007102512004-09400-038217FM-15+0253SBUF V0201601N005712200019N0112651N1+02901+01901999999ADDGA1041+005401999GF104991999999999999999999MA1101591999999REMMET051METAR SBUF 251200Z 16011KT 9999 SCT018 29/19 Q1016;
0120829860999992007102513004-09400-038217FM-15+0253SBUF V0201201N006212200019N0112651N1+03101+01901999999ADDGA1041+006001999GF104991999999999999999999MA1101691999999REMMET051METAR SBUF 251300Z 12012KT 9999 SCT020 31/19 Q1017;
0120829860999992007102514004-09400-038217FM-15+0253SBUF V0201001N005710060019N0112651N1+03101+01601999999ADDGA1071+006001999GF107991999999999999999999MA1101591999999REMMET051METAR SBUF 251400Z 10011KT 9999 BKN020 31/16 Q1016;
0120829860999992007102515004-09400-038217FM-15+0253SBUF V0201301N005112200019N0112651N1+03201+01601999999ADDGA1041+006001999GF104991999999999999999999MA1101491999999REMMET051METAR SBUF 251500Z 13010KT 9999 SCT020 32/16 Q1015;
0120829860999992007102516004-09400-038217FM-15+0253SBUF V0201301N005712200019N0112651N1+03301+01601999999ADDGA1041+006001999GF104991999999999999999999MA1101291999999REMMET051METAR SBUF 251600Z 13011KT 9999 SCT020 33/16 Q1013;
0120829860999992007102517004-09400-038217FM-15+0253SBUF V0201101N007712200019N0112651N1+03201+01601999999ADDGA1041+006001999GF104991999999999999999999MA1101191999999REMMET051METAR SBUF 251700Z 11015KT 9999 SCT020 32/16 Q1012;
0120829860999992007102518004-09400-038217FM-15+0253SBUF V0201301N005712200019N0112651N1+03201+01601999999ADDGA1041+006001999GF104991999999999999999999MA1101191999999REMMET051METAR SBUF 251800Z 13011KT 9999 SCT020 32/16 Q1012;
0120829860999992007102519004-09400-038217FM-15+0253SBUF V0201301N006212200019N0112651N1+03201+01601999999ADDGA1041+007501999GF104991999999999999999999MA1101191999999REMMET051METAR SBUF 251900Z 13012KT 9999 SCT025 32/16 Q1012;
0120829860999992007102520004-09400-038217FM-15+0253SBUF V0201201N005112200019N0112651N1+03001+01601999999ADDGA1021+007501999GF102991999999999999999999MA1101191999999REMMET051METAR SBUF 252000Z 12010KT 9999 FEW025 30/16 Q1012;
0072829860999992007102523004-09400-038217FM-15+0253SBUF V0201401N00621220001CN0099001N1+02501+01801999999ADDMA1101491999999REMMET045METAR SBUF 252300Z 14012KT CAVOK 25/18 Q1015;
0166829860999992007102611004-09400-038217FM-15+0253SBUF V0201301N00261005101CN0112651N1+02501+01901999999ADDGA1021+004501999GA2041+005101999GA3071+090001999GF107991999999999999999999MA1101591999999REMMET065METAR SBUF 261100Z 13005KT 9999 FEW015 SCT017 BKN300 25/19 Q1016;
0143829860999992007102612004-09400-038217FM-15+0253SBUF V0201301N004112200019N0112651N1+02701+01801999999ADDGA1021+005401999GA2041+090001999GF104991999999999999999999MA1101591999999REMMET058METAR SBUF 261200Z 13008KT 9999 FEW018 SCT300 27/18 Q1016;
0120829860999992007102613004-09400-038217FM-15+0253SBUF V0201401N003112200019N0112651N1+02801+01701999999ADDGA1041+005401999GF104991999999999999999999MA1101591999999REMMET051METAR SBUF 261300Z 14006KT 9999 SCT018 28/17 Q1016;
0120829860999992007102614004-09400-038217FM-15+0253SBUF V0201301N004112200019N0112651N1+03001+01601999999ADDGA1041+006001999GF104991999999999999999999MA1101491999999REMMET051METAR SBUF 261400Z 13008KT 9999 SCT020 30/16 Q1015;
0120829860999992007102615004-09400-038217FM-15+0253SBUF V0201001N005112200019N0112651N1+03101+01601999999ADDGA1021+006001999GF102991999999999999999999MA1101391999999REMMET051METAR SBUF 261500Z 10010KT 9999 FEW020 31/16 Q1014;
0120829860999992007102616004-09400-038217FM-15+0253SBUF V0201301N004612200019N0112651N1+03301+01501999999ADDGA1021+007501999GF102991999999999999999999MA1101291999999REMMET051METAR SBUF 261600Z 13009KT 9999 FEW025 33/15 Q1013;
0120829860999992007102618004-09400-038217FM-15+0253SBUF V0201601N005112200019N0112651N1+03501+01401999999ADDGA1021+007501999GF102991999999999999999999MA1101081999999REMMET051METAR SBUF 261800Z 16010KT 9999 FEW025 35/14 Q1011;
0120829860999992007102619004-09400-038217FM-15+0253SBUF V0201201N005112200019N0112651N1+03401+01501999999ADDGA1021+007501999GF102991999999999999999999MA1101081999999REMMET051METAR SBUF 261900Z 12010KT 9999 FEW025 34/15 Q1011;
0120829860999992007102620004-09400-038217FM-15+0253SBUF V0201301N004112200019N0112651N1+03201+01701999999ADDGA1021+007501999GF102991999999999999999999MA1101191999999REMMET051METAR SBUF 262000Z 13008KT 9999 FEW025 32/17 Q1012;
0120829860999992007102621004-09400-038217FM-15+0253SBUF V0201301N005112200019N0112651N1+03101+01601999999ADDGA1021+006001999GF102991999999999999999999MA1101191999999REMMET051METAR SBUF 262100Z 13010KT 9999 FEW020 31/16 Q1012;
0072829860999992007102622004-09400-038217FM-15+0253SBUF V0201501N00771220001CN0099001N1+02901+01601999999ADDMA1101291999999REMMET045METAR SBUF 262200Z 15015KT CAVOK 29/16 Q1013;
0072829860999992007102623004-09400-038217FM-15+0253SBUF V0201501N00771220001CN0099001N1+02701+01701999999ADDMA1101391999999REMMET045METAR SBUF 262300Z 15015KT CAVOK 27/17 Q1014;
0143829860999992007102711004-09400-038217FM-15+0253SBUF V0201101N004110051019N0112651N1+02501+01901999999ADDGA1021+004501999GA2071+005101999GF107991999999999999999999MA1101591999999REMMET058METAR SBUF 271100Z 11008KT 9999 FEW015 BKN017 25/19 Q1016;
0120829860999992007102712004-09400-038217FM-15+0253SBUF V0200801N003612200019N0112651N1+02801+01801999999ADDGA1041+005401999GF104991999999999999999999MA1101591999999REMMET051METAR SBUF 271200Z 08007KT 9999 SCT018 28/18 Q1016;
0120829860999992007102713004-09400-038217FM-15+0253SBUF V0201101N003112200019N0112651N1+03001+01701999999ADDGA1021+006001999GF102991999999999999999999MA1101491999999REMMET051METAR SBUF 271300Z 11006KT 9999 FEW020 30/17 Q1015;
0072829860999992007102714004-09400-038217FM-15+0253SBUF V0201401N00361220001CN0099001N1+03101+01701999999ADDMA1101391999999REMMET045METAR SBUF 271400Z 14007KT CAVOK 31/17 Q1014;
0072829860999992007102715004-09400-038217FM-15+0253SBUF V0201601N00261220001CN0099001N1+03201+01601999999ADDMA1101291999999REMMET045METAR SBUF 271500Z 16005KT CAVOK 32/16 Q1013;
0072829860999992007102716004-09400-038217FM-15+0253SBUF V0201301N00261220001CN0099001N1+03401+01401999999ADDMA1101081999999REMMET045METAR SBUF 271600Z 13005KT CAVOK 34/14 Q1011;
0120829860999992007102717004-09400-038217FM-15+0253SBUF V0201601N002612200019N0112651N1+03501+01401999999ADDGA1021+007501999GF102991999999999999999999MA1101021999999REMMET051METAR SBUF 271700Z 16005KT 9999 FEW025 35/14 Q1010;
0120829860999992007102718004-09400-038217FM-15+0253SBUF V0201701N002112200019N0112651N1+03601+01301999999ADDGA1021+007501999GF102991999999999999999999MA1100911999999REMMET051METAR SBUF 271800Z 17004KT 9999 FEW025 36/13 Q1009;
0143829860999992007102719004-09400-038217FM-15+0253SBUF V0201501N002112200019N0112651N1+03501+01401999999ADDGA1021+007501999GA2041+090001999GF104991999999999999999999MA1100911999999REMMET058METAR SBUF 271900Z 15004KT 9999 FEW025 SCT300 35/14 Q1009;
0143829860999992007102720004-09400-038217FM-15+0253SBUF V0201401N003112200019N0112651N1+03401+01501999999ADDGA1021+007501999GA2041+090001999GF104991999999999999999999MA1101021999999REMMET058METAR SBUF 272000Z 14006KT 9999 FEW025 SCT300 34/15 Q1010;
0072829860999992007102721004-09400-038217FM-15+0253SBUF V0201401N00361220001CN0099001N1+03201+01701999999ADDMA1101081999999REMMET045METAR SBUF 272100Z 14007KT CAVOK 32/17 Q1011;
0072829860999992007102722004-09400-038217FM-15+0253SBUF V0201301N00211220001CN0099001N1+03101+01601999999ADDMA1101081999999REMMET045METAR SBUF 272200Z 13004KT CAVOK 31/16 Q1011;
0072829860999992007102723004-09400-038217FM-15+0253SBUF V0201301N00721220001CN0099001N1+02901+01801999999ADDMA1101291999999REMMET045METAR SBUF 272300Z 13014KT CAVOK 29/18 Q1013;
0072829860999992007102800004-09400-038217FM-15+0253SBUF V0201401N00411220001CN0099001N1+02701+02001999999ADDMA1101391999999REMMET045METAR SBUF 280000Z 14008KT CAVOK 27/20 Q1014;
0084829860999992007102810154-09400-038217FM-16+0253SBUF V0201301N004212200019N0112651N1+02401+02001999999ADDMA1101401999999REMMET057METAR SBUF 281015Z SPECI 13008KT 9999 SCT015 24/20 Q1014;
0120829860999992007102811004-09400-038217FM-15+0253SBUF V0201401N003112200019N0112651N1+02601+02001999999ADDGA1021+004801999GF102991999999999999999999MA1101391999999REMMET051METAR SBUF 281100Z 14006KT 9999 FEW016 26/20 Q1014;
0072829860999992007102812004-09400-038217FM-15+0253SBUF V0202001N00361220001CN0099001N1+02701+01901999999ADDMA1101391999999REMMET045METAR SBUF 281200Z 20007KT CAVOK 27/19 Q1014;
0072829860999992007102813004-09400-038217FM-15+0253SBUF V0201801N00411220001CN0099001N1+03001+01801999999ADDMA1101291999999REMMET045METAR SBUF 281300Z 18008KT CAVOK 30/18 Q1013;
0072829860999992007102814004-09400-038217FM-15+0253SBUF V0201201N00261220001CN0099001N1+03201+01801999999ADDMA1101191999999REMMET045METAR SBUF 281400Z 12005KT CAVOK 32/18 Q1012;
0072829860999992007102815004-09400-038217FM-15+0253SBUF V0201501N00361220001CN0099001N1+03501+01801999999ADDMA1101081999999REMMET045METAR SBUF 281500Z 15007KT CAVOK 35/18 Q1011;
0072829860999992007102816004-09400-038217FM-15+0253SBUF V0201301N00461220001CN0099001N1+03601+01601999999ADDMA1100911999999REMMET045METAR SBUF 281600Z 13009KT CAVOK 36/16 Q1009;
0072829860999992007102817004-09400-038217FM-15+0253SBUF V0201501N00361220001CN0099001N1+03601+01601999999ADDMA1100811999999REMMET045METAR SBUF 281700Z 15007KT CAVOK 36/16 Q1008;
0072829860999992007102818004-09400-038217FM-15+0253SBUF V0201301N00411220001CN0099001N1+03701+01401999999ADDMA1100811999999REMMET045METAR SBUF 281800Z 13008KT CAVOK 37/14 Q1008;
0072829860999992007102819004-09400-038217FM-15+0253SBUF V0201001N00311220001CN0099001N1+03701+01401999999ADDMA1100811999999REMMET045METAR SBUF 281900Z 10006KT CAVOK 37/14 Q1008;
0072829860999992007102820004-09400-038217FM-15+0253SBUF V0201301N00361220001CN0099001N1+03501+01601999999ADDMA1100811999999REMMET045METAR SBUF 282000Z 13007KT CAVOK 35/16 Q1008;
0072829860999992007102821004-09400-038217FM-15+0253SBUF V0201301N00461220001CN0099001N1+03301+01801999999ADDMA1100911999999REMMET045METAR SBUF 282100Z 13009KT CAVOK 33/18 Q1009;
0072829860999992007102822004-09400-038217FM-15+0253SBUF V0201301N00671220001CN0099001N1+03101+02001999999ADDMA1101021999999REMMET045METAR SBUF 282200Z 13013KT CAVOK 31/20 Q1010;
0120829860999992007102911004-09400-038217FM-15+0253SBUF V0201301N005712200019N0112651N1+02701+01801999999ADDGA1021+005401999GF102991999999999999999999MA1101391999999REMMET051METAR SBUF 291100Z 13011KT 9999 FEW018 27/18 Q1014;
0120829860999992007102912004-09400-038217FM-15+0253SBUF V0201001N005112200019N0112651N1+02901+01801999999ADDGA1041+005401999GF104991999999999999999999MA1101391999999REMMET051METAR SBUF 291200Z 10010KT 9999 SCT018 29/18 Q1014;
0143829860999992007102913004-09400-038217FM-15+0253SBUF V0201301N006212200019N0112651N1+03101+01701999999ADDGA1021+006001999GA2041+090001999GF104991999999999999999999MA1101291999999REMMET058METAR SBUF 291300Z 13012KT 9999 FEW020 SCT300 31/17 Q1013;
0143829860999992007102914004-09400-038217FM-15+0253SBUF V0201201N005112200019N0112651N1+03201+01701999999ADDGA1021+006001999GA2041+090001999GF104991999999999999999999MA1101291999999REMMET058METAR SBUF 291400Z 12010KT 9999 FEW020 SCT300 32/17 Q1013;
0143829860999992007102915004-09400-038217FM-15+0253SBUF V0201401N004612200019N0112651N1+03401+01601999999ADDGA1021+007501999GA2041+090001999GF104991999999999999999999MA1101081999999REMMET058METAR SBUF 291500Z 14009KT 9999 FEW025 SCT300 34/16 Q1011;
0143829860999992007102916004-09400-038217FM-15+0253SBUF V0201401N004112200019N0112651N1+03501+01601999999ADDGA1021+007501999GA2041+090001999GF104991999999999999999999MA1101021999999REMMET058METAR SBUF 291600Z 14008KT 9999 FEW025 SCT300 35/16 Q1010;
0143829860999992007102917004-09400-038217FM-15+0253SBUF V0201301N007212200019N0112651N1+03501+01501999999ADDGA1021+007501999GA2041+090001999GF104991999999999999999999MA1100911999999REMMET058METAR SBUF 291700Z 13014KT 9999 FEW025 SCT300 35/15 Q1009;
0072829860999992007102918004-09400-038217FM-15+0253SBUF V0201101N00511220001CN0099001N1+03501+01501999999ADDMA1100811999999REMMET045METAR SBUF 291800Z 11010KT CAVOK 35/15 Q1008;
0072829860999992007102919004-09400-038217FM-15+0253SBUF V0201401N00411220001CN0099001N1+03501+01501999999ADDMA1100811999999REMMET045METAR SBUF 291900Z 14008KT CAVOK 35/15 Q1008;
0072829860999992007102920004-09400-038217FM-15+0253SBUF V0201301N00511220001CN0099001N1+03401+01601999999ADDMA1100911999999REMMET045METAR SBUF 292000Z 13010KT CAVOK 34/16 Q1009;
0072829860999992007102921004-09400-038217FM-15+0253SBUF V0201101N00621220001CN0099001N1+03201+01901999999ADDMA1101021999999REMMET045METAR SBUF 292100Z 11012KT CAVOK 32/19 Q1010;
0072829860999992007102922004-09400-038217FM-15+0253SBUF V0201201N00511220001CN0099001N1+03001+01901999999ADDMA1101081999999REMMET045METAR SBUF 292200Z 12010KT CAVOK 30/19 Q1011;
0072829860999992007102923004-09400-038217FM-15+0253SBUF V0201301N00771220001CN0099001N1+02701+02001999999ADDMA1101191999999REMMET045METAR SBUF 292300Z 13015KT CAVOK 27/20 Q1012;
0072829860999992007103000004-09400-038217FM-15+0253SBUF V0201201N00671220001CN0099001N1+02601+02001999999ADDMA1101291999999REMMET045METAR SBUF 300000Z 12013KT CAVOK 26/20 Q1013;
0072829860999992007103001004-09400-038217FM-15+0253SBUF V0201301N00671220001CN0099001N1+02501+02001999999ADDMA1101291999999REMMET045METAR SBUF 300100Z 13013KT CAVOK 25/20 Q1013;
0072829860999992007103002004-09400-038217FM-15+0253SBUF V0201401N00511220001CN0099001N1+02401+01901999999ADDMA1101291999999REMMET045METAR SBUF 300200Z 14010KT CAVOK 24/19 Q1013;
0120829860999992007103010004-09400-038217FM-15+0253SBUF V0201501N004112200019N0112651N1+02501+02001999999ADDGA1021+004501999GF102991999999999999999999MA1101391999999REMMET051METAR SBUF 301000Z 15008KT 9999 FEW015 25/20 Q1014;
0120829860999992007103011004-09400-038217FM-15+0253SBUF V0201301N005112200019N0112651N1+02701+01801999999ADDGA1021+004501999GF102991999999999999999999MA1101391999999REMMET051METAR SBUF 301100Z 13010KT 9999 FEW015 27/18 Q1014;
0120829860999992007103012004-09400-038217FM-15+0253SBUF V0201201N006212200019N0112651N1+02901+01801999999ADDGA1041+004801999GF104991999999999999999999MA1101391999999REMMET051METAR SBUF 301200Z 12012KT 9999 SCT016 29/18 Q1014;
0120829860999992007103013004-09400-038217FM-15+0253SBUF V0201501N007712200019N0112651N1+03001+01701999999ADDGA1041+005401999GF104991999999999999999999MA1101291999999REMMET051METAR SBUF 301300Z 15015KT 9999 SCT018 30/17 Q1013;
0120829860999992007103014004-09400-038217FM-15+0253SBUF V0201401N006212200019N0112651N1+03101+01701999999ADDGA1021+005401999GF102991999999999999999999MA1101191999999REMMET051METAR SBUF 301400Z 14012KT 9999 FEW018 31/17 Q1012;
0120829860999992007103015004-09400-038217FM-15+0253SBUF V0201301N005712200019N0112651N1+03301+01701999999ADDGA1021+006001999GF102991999999999999999999MA1101021999999REMMET051METAR SBUF 301500Z 13011KT 9999 FEW020 33/17 Q1010;
0120829860999992007103016004-09400-038217FM-15+0253SBUF V0201401N004112200019N0112651N1+03501+01501999999ADDGA1021+006001999GF102991999999999999999999MA1100911999999REMMET051METAR SBUF 301600Z 14008KT 9999 FEW020 35/15 Q1009;
0120829860999992007103017004-09400-038217FM-15+0253SBUF V0201001N003112200019N0112651N1+03501+01501999999ADDGA1041+007501999GF104991999999999999999999MA1100811999999REMMET051METAR SBUF 301700Z 10006KT 9999 SCT025 35/15 Q1008;
0120829860999992007103018004-09400-038217FM-15+0253SBUF V0201301N006212200019N0112651N1+03501+01401999999ADDGA1021+007501999GF102991999999999999999999MA1100711999999REMMET051METAR SBUF 301800Z 13012KT 9999 FEW025 35/14 Q1007;
0120829860999992007103019004-09400-038217FM-15+0253SBUF V0201301N005712200019N0112651N1+03501+01301999999ADDGA1021+007501999GF102991999999999999999999MA1100711999999REMMET051METAR SBUF 301900Z 13011KT 9999 FEW025 35/13 Q1007;
0120829860999992007103020004-09400-038217FM-15+0253SBUF V0201301N004112200019N0112651N1+03301+01501999999ADDGA1021+007501999GF102991999999999999999999MA1100711999999REMMET051METAR SBUF 302000Z 13008KT 9999 FEW025 33/15 Q1007;
0072829860999992007103021004-09400-038217FM-15+0253SBUF V0201201N00511220001CN0099001N1+03101+01601999999ADDMA1100811999999REMMET045METAR SBUF 302100Z 12010KT CAVOK 31/16 Q1008;
0072829860999992007103022004-09400-038217FM-15+0253SBUF V0201201N00511220001CN0099001N1+03001+01701999999ADDMA1100811999999REMMET045METAR SBUF 302200Z 12010KT CAVOK 30/17 Q1008;
0072829860999992007103023004-09400-038217FM-15+0253SBUF V0201301N00721220001CN0099001N1+02801+01901999999ADDMA1100911999999REMMET045METAR SBUF 302300Z 13014KT CAVOK 28/19 Q1009;
0178829860999992007103100004-09400-038217FM-12+0253SBUF V02099999999992200019N0020001N1+02681+01861100831ADDGA1001+999999999GF100991001001999999001001KA1240M+03501MA1999999098011MD1999999-0251REMSYN082AAXX  31004 82986 32995 0//// 10268 20186 39801 40083 333 10350 29052 55110 59025;
0143829860999992007103111004-09400-038217FM-15+0253SBUF V0201301N004110048019N0112651N1+02601+02101999999ADDGA1071+004801999GA2071+021001999GF107991999999999999999999MA1101291999999REMMET058METAR SBUF 311100Z 13008KT 9999 BKN016 BKN070 26/21 Q1013;
0156829860999992007103112004-09400-038217FM-12+0253SBUF V02099999999990075019N0100001N1+02681+01971101151ADDGF106991061011008001001001KA1240N+02111MA1999999098321MD1999999-0051REMSYN076AAXX  31124 82986 32597 6//// 10268 20197 39832 40115 86100 333 20211 59005;
0120829860999992007103113004-09400-038217FM-15+0253SBUF V0201401N004112200019N0112651N1+02901+02001999999ADDGA1041+005401999GF104991999999999999999999MA1101291999999REMMET051METAR SBUF 311300Z 14008KT 9999 SCT018 29/20 Q1013;
0120829860999992007103114004-09400-038217FM-15+0253SBUF V0201401N004112200019N0112651N1+03101+01901999999ADDGA1021+006001999GF102991999999999999999999MA1101191999999REMMET051METAR SBUF 311400Z 14008KT 9999 FEW020 31/19 Q1012;
0120829860999992007103115004-09400-038217FM-15+0253SBUF V0201301N005712200019N0112651N1+03301+01801999999ADDGA1021+006001999GF102991999999999999999999MA1101081999999REMMET051METAR SBUF 311500Z 13011KT 9999 FEW020 33/18 Q1011;
0120829860999992007103116004-09400-038217FM-15+0253SBUF V0201701N003112200019N0112651N1+03401+01701999999ADDGA1021+006001999GF102991999999999999999999MA1100911999999REMMET051METAR SBUF 311600Z 17006KT 9999 FEW020 34/17 Q1009;
0120829860999992007103117004-09400-038217FM-15+0253SBUF V0201401N003112200019N0112651N1+03501+01601999999ADDGA1021+006001999GF102991999999999999999999MA1100811999999REMMET051METAR SBUF 311700Z 14006KT 9999 FEW020 35/16 Q1008;
0210829860999992007103118004-09400-038217SY-MT+0253SBUF V0201801N001512200019N0200001N1+03521+01651100581ADDGA1021+007501999GF104991041011008001001001MA1100811097781MD1999999+0071REMSYN070AAXX  31184 82986 32598 4//// 10352 20165 39778 40058 84100 333 58007;MET051METAR SBUF 311800Z 18003KT 9999 FEW025 35/14 Q1008;
0120829860999992007103119004-09400-038217FM-15+0253SBUF V0201301N003112200019N0112651N1+03501+01501999999ADDGA1021+007501999GF102991999999999999999999MA1100711999999REMMET051METAR SBUF 311900Z 13006KT 9999 FEW025 35/15 Q1007;
0120829860999992007103120004-09400-038217FM-15+0253SBUF V0201301N003612200019N0112651N1+03501+01601999999ADDGA1021+007501999GF102991999999999999999999MA1100811999999REMMET051METAR SBUF 312000Z 13007KT 9999 FEW025 35/16 Q1008;
0072829860999992007103121004-09400-038217FM-15+0253SBUF V0201401N00871220001CN0099001N1+03201+02101999999ADDMA1100911999999REMMET045METAR SBUF 312100Z 14017KT CAVOK 32/21 Q1009;
0072829860999992007103122004-09400-038217FM-15+0253SBUF V0201201N00771220001CN0099001N1+03001+02201999999ADDMA1100911999999REMMET045METAR SBUF 312200Z 12015KT CAVOK 30/22 Q1009;
0083829860999992007103123004-09400-038217FM-15+0253SBUF V0201101N00461220001CN0099001N1+02801+02401999999ADDMA1101021999999OC101081REMMET048METAR SBUF 312300Z 11009G21KT CAVOK 28/24 Q1010;
0178829860999992007110100004-09400-038217FM-12+0253SBUF V02099999999992200019N0020001N1+02651+01981100921ADDGA1001+999999999GF100991001001999999001001KA1240M+03561MA1999999098091MD1999999+0081REMSYN082AAXX  01004 82986 32995 0//// 10265 20198 39809 40092 333 10356 29058 55098 58008;
0120829860999992007110111004-09400-038217FM-15+0253SBUF V0201301N004112200019N0112651N1+02801+02501999999ADDGA1021+005401999GF102991999999999999999999MA1101291999999REMMET051METAR SBUF 011100Z 13008KT 9999 FEW018 28/25 Q1013;
0201829860999992007110112004-09400-038217SY-MT+0253SBUF V0201301N00311220001CN0200001N1+02841+01881101081ADDGF100991001001999999001001KA1240N+02191MA1101291098261MD1999999-0061REMSYN070AAXX  01124 82986 32998 0//// 10284 20188 39826 40108 333 20219 59006;MET045METAR SBUF 011200Z 13006KT CAVOK 31/22 Q1013;
0072829860999992007110113004-09400-038217FM-15+0253SBUF V0201301N00311220001CN0099001N1+03201+02101999999ADDMA1101191999999REMMET045METAR SBUF 011300Z 13006KT CAVOK 32/21 Q1012;
0072829860999992007110114004-09400-038217FM-15+0253SBUF V0201701N00361220001CN0099001N1+03401+01901999999ADDMA1101081999999REMMET045METAR SBUF 011400Z 17007KT CAVOK 34/19 Q1011;
0072829860999992007110115004-09400-038217FM-15+0253SBUF V0201301N00411220001CN0099001N1+03701+01801999999ADDMA1101021999999REMMET045METAR SBUF 011500Z 13008KT CAVOK 37/18 Q1010;
0072829860999992007110116004-09400-038217FM-15+0253SBUF V0201401N00461220001CN0099001N1+03701+01701999999ADDMA1100911999999REMMET045METAR SBUF 011600Z 14009KT CAVOK 37/17 Q1009;
0072829860999992007110117004-09400-038217FM-15+0253SBUF V0201301N00411220001CN0099001N1+03801+01601999999ADDMA1100811999999REMMET045METAR SBUF 011700Z 13008KT CAVOK 38/16 Q1008;
0210829860999992007110118004-09400-038217SY-MT+0253SBUF V0201401N005112200019N0200001N1+03671+01621100541ADDGA1021+009001999GF103991031011008001001001MA1100811097761MD1999999-0021REMSYN070AAXX  01184 82986 32598 3//// 10367 20162 39776 40054 83100 333 59002;MET051METAR SBUF 011800Z 14010KT 9999 FEW030 39/17 Q1008;
0120829860999992007110119004-09400-038217FM-15+0253SBUF V0201301N004112200019N0112651N1+03901+01701999999ADDGA1021+009001999GF102991999999999999999999MA1100811999999REMMET051METAR SBUF 011900Z 13008KT 9999 FEW030 39/17 Q1008;
0120829860999992007110120004-09400-038217FM-15+0253SBUF V0201301N005112200019N0112651N1+03601+01801999999ADDGA1021+007501999GF102991999999999999999999MA1100811999999REMMET051METAR SBUF 012000Z 13010KT 9999 FEW025 36/18 Q1008;
0072829860999992007110121004-09400-038217FM-15+0253SBUF V0201201N00871220001CN0099001N1+03201+02101999999ADDMA1100911999999REMMET045METAR SBUF 012100Z 12017KT CAVOK 32/21 Q1009;
0072829860999992007110122004-09400-038217FM-15+0253SBUF V0201201N00821220001CN0099001N1+03001+02201999999ADDMA1101021999999REMMET045METAR SBUF 012200Z 12016KT CAVOK 30/22 Q1010;
0072829860999992007110123004-09400-038217FM-15+0253SBUF V0201201N00671220001CN0099001N1+02901+02301999999ADDMA1101081999999REMMET045METAR SBUF 012300Z 12013KT CAVOK 29/23 Q1011;
0178829860999992007110200004-09400-038217FM-12+0253SBUF V02099999999992200019N0020001N1+02701+02011101001ADDGA1001+999999999GF100991001001999999001001KA1240M+03671MA1999999098181MD1999999+0091REMSYN082AAXX  02004 82986 32995 0//// 10270 20201 39818 40100 333 10367 29054 55106 58009;
0072829860999992007110211004-09400-038217FM-15+0253SBUF V0200501N00211220001CN0099001N1+02801+02301999999ADDMA1101491999999REMMET045METAR SBUF 021100Z 05004KT CAVOK 28/23 Q1015;
0201829860999992007110212004-09400-038217SY-MT+0253SBUF V0200601N001512200019N0200001N1+02751+01811101281ADDGF100991001001999999001001KA1240N+02121MA1101491098451MD1999999+0191REMSYN070AAXX  02124 82986 32998 0//// 10275 20181 39845 40128 333 20212 58019;MET045METAR SBUF 021200Z 06003KT CAVOK 30/20 Q1015;
0072829860999992007110213004-09400-038217FM-15+0253SBUF V0201601N00211220001CN0099001N1+03301+01901999999ADDMA1101391999999REMMET045METAR SBUF 021300Z 16004KT CAVOK 33/19 Q1014;
0072829860999992007110214004-09400-038217FM-15+0253SBUF V0201601N00211220001CN0099001N1+03501+01801999999ADDMA1101291999999REMMET045METAR SBUF 021400Z 16004KT CAVOK 35/18 Q1013;
0072829860999992007110215004-09400-038217FM-15+0253SBUF V0201601N00101220001CN0099001N1+03701+01601999999ADDMA1101191999999REMMET045METAR SBUF 021500Z 16002KT CAVOK 37/16 Q1012;
0072829860999992007110216004-09400-038217FM-15+0253SBUF V0201401N00311220001CN0099001N1+03901+01601999999ADDMA1101081999999REMMET045METAR SBUF 021600Z 14006KT CAVOK 39/16 Q1011;
0072829860999992007110217004-09400-038217FM-15+0253SBUF V0201501N00261220001CN0099001N1+03801+01501999999ADDMA1100911999999REMMET045METAR SBUF 021700Z 15005KT CAVOK 38/15 Q1009;
0188829860999992007110218004-09400-038217SY-MT+0253SBUF V0201701N002612200019N0200001N1+03751+01211101631ADDGF101991011011008001001001MA1100911097851MD1999999+0091REMSYN070AAXX  02184 82986 32598 1//// 10375 20121 39785 40163 81100 333 58009;MET045METAR SBUF 021800Z 17005KT CAVOK 37/13 Q1009;
0072829860999992007110219004-09400-038217FM-15+0253SBUF V0201701N00151220001CN0099001N1+03701+01201999999ADDMA1100811999999REMMET045METAR SBUF 021900Z 17003KT CAVOK 37/12 Q1008;
0072829860999992007110220004-09400-038217FM-15+0253SBUF V0201101N00211220001CN0099001N1+03601+01101999999ADDMA1100811999999REMMET045METAR SBUF 022000Z 11004KT CAVOK 36/11 Q1008;
0072829860999992007110221004-09400-038217FM-15+0253SBUF V0201301N00211220001CN0099001N1+03401+01401999999ADDMA1100911999999REMMET045METAR SBUF 022100Z 13004KT CAVOK 34/14 Q1009;
0072829860999992007110222004-09400-038217FM-15+0253SBUF V0201101N00361220001CN0099001N1+03201+01201999999ADDMA1100911999999REMMET045METAR SBUF 022200Z 11007KT CAVOK 32/12 Q1009;
0073829860999992007110311004-09400-038217FM-15+0253SBUF V0200901N00211220001CN0099001N1+02901+02201999999ADDMA1101391999999REMMET046METAR SBUF 031100Z 090004KT CAVOK 29/22 Q1014;
0202829860999992007110312004-09400-038217SY-MT+0253SBUF V0200601N00211220001CN0200001N1+02831+01711101231ADDGF100991001001999999001001KA1240N+02121MA1101391098421MD1999999-0031REMSYN070AAXX  03124 82986 32998 0//// 10283 20171 39842 40123 333 20212 59003;MET046METAR SBUF 031200Z 060004KT CAVOK 31/19 Q1014;
0072829860999992007110313004-09400-038217FM-15+0253SBUF V0201801N00211220001CN0099001N1+03301+01801999999ADDMA1101291999999REMMET045METAR SBUF 031300Z 18004KT CAVOK 33/18 Q1013;
0072829860999992007110314004-09400-038217FM-15+0253SBUF V0201801N00261220001CN0099001N1+03401+01701999999ADDMA1101191999999REMMET045METAR SBUF 031400Z 18005KT CAVOK 34/17 Q1012;
0072829860999992007110315004-09400-038217FM-15+0253SBUF V0201601N00311220001CN0099001N1+03601+01501999999ADDMA1101081999999REMMET045METAR SBUF 031500Z 16006KT CAVOK 36/15 Q1011;
0072829860999992007110316004-09400-038217FM-15+0253SBUF V0201701N00311220001CN0099001N1+03701+01401999999ADDMA1101021999999REMMET045METAR SBUF 031600Z 17006KT CAVOK 37/14 Q1010;
0072829860999992007110317004-09400-038217FM-15+0253SBUF V0201001N00261220001CN0099001N1+03601+01401999999ADDMA1100911999999REMMET045METAR SBUF 031700Z 10005KT CAVOK 36/14 Q1009;
0188829860999992007110318004-09400-038217SY-MT+0253SBUF V0201201N004112200019N0200001N1+03651+01261100641ADDGF101991011011008001001001MA1100911097851MD1999999+0001REMSYN070AAXX  03184 82986 32598 1//// 10365 20126 39785 40064 81100 333 58000;MET045METAR SBUF 031800Z 12008KT CAVOK 37/13 Q1009;
0072829860999992007110319004-09400-038217FM-15+0253SBUF V0201301N00411220001CN0099001N1+03601+01201999999ADDMA1100811999999REMMET045METAR SBUF 031900Z 13008KT CAVOK 36/12 Q1008;
0072829860999992007110320004-09400-038217FM-15+0253SBUF V0201301N00361220001CN0099001N1+03601+01401999999ADDMA1100911999999REMMET045METAR SBUF 032000Z 13007KT CAVOK 36/14 Q1009;
0072829860999992007110321004-09400-038217FM-15+0253SBUF V0201001N00461220001CN0099001N1+03401+01301999999ADDMA1100911999999REMMET045METAR SBUF 032100Z 10009KT CAVOK 34/13 Q1009;
0072829860999992007110322004-09400-038217FM-15+0253SBUF V0201201N00771220001CN0099001N1+03301+01601999999ADDMA1101021999999REMMET045METAR SBUF 032200Z 12015KT CAVOK 33/16 Q1010;
0072829860999992007110323004-09400-038217FM-15+0253SBUF V0201201N00771220001CN0099001N1+03001+02201999999ADDMA1101081999999REMMET045METAR SBUF 032300Z 12015KT CAVOK 30/22 Q1011;
0213829860999992007110400004-09400-038217SY-MT+0253SBUF V0201301N008212200019N0020001N1+02741+01971100951ADDGF100991001001999999001001KA1240M+03661MA1101191098141MD1999999+0031REMSYN082AAXX  04004 82986 32995 0//// 10274 20197 39814 40095 333 10366 29050 55110 58003;MET045METAR SBUF 040000Z 13016KT CAVOK 28/23 Q1012;
0072829860999992007110401004-09400-038217FM-15+0253SBUF V0201401N00511220001CN0099001N1+02701+02401999999ADDMA1101291999999REMMET045METAR SBUF 040100Z 14010KT CAVOK 27/24 Q1013;
0072829860999992007110402004-09400-038217FM-15+0253SBUF V0201301N00511220001CN0099001N1+02601+02501999999ADDMA1101191999999REMMET045METAR SBUF 040200Z 13010KT CAVOK 26/25 Q1012;
0072829860999992007110411004-09400-038217FM-15+0253SBUF V0200401N00211220001CN0099001N1+02801+02201999999ADDMA1101391999999REMMET045METAR SBUF 041100Z 04004KT CAVOK 28/22 Q1014;
0201829860999992007110412004-09400-038217SY-MT+0253SBUF V0201601N003112200019N0200001N1+02761+01751101161ADDGF100991001001999999001001KA1240N+02061MA1101391098341MD1999999-0081REMSYN070AAXX  04124 82986 32998 0//// 10276 20175 39834 40116 333 20206 59008;MET045METAR SBUF 041200Z 16006KT CAVOK 30/21 Q1014;
0072829860999992007110413004-09400-038217FM-15+0253SBUF V0202201N00211220001CN0099001N1+03101+01901999999ADDMA1101291999999REMMET045METAR SBUF 041300Z 22004KT CAVOK 31/19 Q1013;
0072829860999992007110414004-09400-038217FM-15+0253SBUF V0201801N00361220001CN0099001N1+03401+01701999999ADDMA1101191999999REMMET045METAR SBUF 041400Z 18007KT CAVOK 34/17 Q1012;
0072829860999992007110415004-09400-038217FM-15+0253SBUF V0201601N00411220001CN0099001N1+03601+01401999999ADDMA1101021999999REMMET045METAR SBUF 041500Z 16008KT CAVOK 36/14 Q1010;
0072829860999992007110416004-09400-038217FM-15+0253SBUF V0201301N00261220001CN0099001N1+03701+01401999999ADDMA1100911999999REMMET045METAR SBUF 041600Z 13005KT CAVOK 37/14 Q1009;
0072829860999992007110417004-09400-038217FM-15+0253SBUF V0201501N00411220001CN0099001N1+03701+01301999999ADDMA1100811999999REMMET045METAR SBUF 041700Z 15008KT CAVOK 37/13 Q1008;
0182829860999992007110418004-09400-038217SY-MT+0253SBUF V0201301N003612200019N0200001N1+03571+00921100551ADDGF100991001001999999001001MA1100711097751MD1999999-0101REMSYN064AAXX  04184 82986 32998 0//// 10357 20092 39775 40055 333 59010;MET045METAR SBUF 041800Z 13007KT CAVOK 38/12 Q1007;
0072829860999992007110419004-09400-038217FM-15+0253SBUF V0201501N00511220001CN0099001N1+03701+01201999999ADDMA1100711999999REMMET045METAR SBUF 041900Z 15010KT CAVOK 37/12 Q1007;
0072829860999992007110420004-09400-038217FM-15+0253SBUF V0201001N00411220001CN0099001N1+03501+01101999999ADDMA1100711999999REMMET045METAR SBUF 042000Z 10008KT CAVOK 35/11 Q1007;
0072829860999992007110421004-09400-038217FM-15+0253SBUF V0201201N00311220001CN0099001N1+03301+01201999999ADDMA1100811999999REMMET045METAR SBUF 042100Z 12006KT CAVOK 33/12 Q1008;
0072829860999992007110422004-09400-038217FM-15+0253SBUF V0201101N00671220001CN0099001N1+03101+02101999999ADDMA1100911999999REMMET045METAR SBUF 042200Z 11013KT CAVOK 31/21 Q1009;
0178829860999992007110500004-09400-038217FM-12+0253SBUF V02099999999992200019N0020001N1+02641+02051100851ADDGA1001+999999999GF100991001001999999001001KA1240M+03601MA1999999098031MD1999999-0111REMSYN082AAXX  05004 82986 32995 0//// 10264 20205 39803 40085 333 10360 29054 55111 59011;
0120829860999992007110511004-09400-038217FM-15+0253SBUF V0201201N003612200019N0112651N1+02901+02201999999ADDGA1021+005401999GF102991999999999999999999MA1101391999999REMMET051METAR SBUF 051100Z 12007KT 9999 FEW018 29/22 Q1014;
0257829860999992007110512004-09400-038217SY-MT+0253SBUF V0200901N003612200019N0100001N1+02861+01751101161ADDAY141061AY201061GA1021+006001999GF102991021011008001001001KA1240N+02161MA1101391098341MD1999999+0001MW1051REMSYN082AAXX  05124 82986 31597 2//// 10286 20175 39834 40116 70540 82100 333 20216 58000;MET051METAR SBUF 051200Z 09007KT 9999 FEW020 31/20 Q1014;
0120829860999992007110513004-09400-038217FM-15+0253SBUF V0201401N003612200019N0112651N1+03201+02001999999ADDGA1021+006001999GF102991999999999999999999MA1101291999999REMMET051METAR SBUF 051300Z 14007KT 9999 FEW020 32/20 Q1013;
0120829860999992007110514004-09400-038217FM-15+0253SBUF V0201401N003612200019N0112651N1+03201+02001999999ADDGA1021+006001999GF102991999999999999999999MA1101291999999REMMET051METAR SBUF 051400Z 14007KT 9999 FEW020 32/20 Q1013;
0120829860999992007110515004-09400-038217FM-15+0253SBUF V0201301N004112200019N0112651N1+03501+01801999999ADDGA1021+007501999GF102991999999999999999999MA1101081999999REMMET051METAR SBUF 051500Z 13008KT 9999 FEW025 35/18 Q1011;
0120829860999992007110516004-09400-038217FM-15+0253SBUF V0201401N004112200019N0112651N1+03601+01701999999ADDGA1021+007501999GF102991999999999999999999MA1101021999999REMMET051METAR SBUF 051600Z 14008KT 9999 FEW025 36/17 Q1010;
0120829860999992007110517004-09400-038217FM-15+0253SBUF V0201501N002612200019N0112651N1+03701+01701999999ADDGA1021+007501999GF102991999999999999999999MA1100911999999REMMET051METAR SBUF 051700Z 15005KT 9999 FEW025 37/17 Q1009;
0229829860999992007110518004-09400-038217SY-MT+0253SBUF V0201601N003112200019N0200001N1+03491+01471100651ADDGA1041+007501999GF199999031011008001001001MA1100811097851MD1999999-0181REMSYN070AAXX  05184 82986 32598 3//// 10349 20147 39785 40065 83100 333 59018;MET051METAR SBUF 051800Z 16006KT 9999 SCT025 37/16 Q1008;EQDQ01+000032SCOTCV
0120829860999992007110519004-09400-038217FM-15+0253SBUF V0201301N004612200019N0112651N1+03601+01601999999ADDGA1021+007501999GF102991999999999999999999MA1100811999999REMMET051METAR SBUF 051900Z 13009KT 9999 FEW025 36/16 Q1008;
0120829860999992007110520004-09400-038217FM-15+0253SBUF V0201201N006212200019N0112651N1+03401+01801999999ADDGA1021+007501999GF102991999999999999999999MA1100911999999REMMET051METAR SBUF 052000Z 12012KT 9999 FEW025 34/18 Q1009;
0072829860999992007110521004-09400-038217FM-15+0253SBUF V0201301N00771220001CN0099001N1+03101+02101999999ADDMA1101021999999REMMET045METAR SBUF 052100Z 13015KT CAVOK 31/21 Q1010;
0083829860999992007110522004-09400-038217FM-15+0253SBUF V0201201N00721220001CN0099001N1+02901+02201999999ADDMA1101081999999OC101341REMMET048METAR SBUF 052200Z 12014G26KT CAVOK 29/22 Q1011;
0072829860999992007110523004-09400-038217FM-15+0253SBUF V0201401N00821220001CN0099001N1+02801+02301999999ADDMA1101191999999REMMET045METAR SBUF 052300Z 14016KT CAVOK 28/23 Q1012;
0178829860999992007110600004-09400-038217FM-12+0253SBUF V02099999999992200019N0020001N1+02601+01891101111ADDGA1001+999999999GF100991001001999999001001KA1240M+03521MA1999999098291MD1999999+0261REMSYN082AAXX  06004 82986 32995 0//// 10260 20189 39829 40111 333 10352 29053 55110 58026;
0116829860999992007110610154-09400-038217FM-16+0253SBUF V0201101N005119999999N0112651N1+02601+02401999999ADDKA1999M+99999MA1101601999999REMMET057METAR SBUF 061015Z SPECI 11010KT 9999 SCT016 26/24 Q1016;EQDQ01 -00102ATMX  
0120829860999992007110611004-09400-038217FM-15+0253SBUF V0201201N006712200019N0112651N1+02901+02101999999ADDGA1041+004801999GF104991999999999999999999MA1101591999999REMMET051METAR SBUF 061100Z 12013KT 9999 SCT016 29/21 Q1016;
0120829860999992007110612004-09400-038217FM-15+0253SBUF V0201101N006712200019N0112651N1+03001+01901999999ADDGA1021+005401999GF102991999999999999999999MA1101591999999REMMET051METAR SBUF 061200Z 11013KT 9999 FEW018 30/19 Q1016;
0120829860999992007110613004-09400-038217FM-15+0253SBUF V0201401N006212200019N0112651N1+03201+01801999999ADDGA1021+005401999GF102991999999999999999999MA1101491999999REMMET051METAR SBUF 061300Z 14012KT 9999 FEW018 32/18 Q1015;
0120829860999992007110614004-09400-038217FM-15+0253SBUF V0201201N006212200019N0112651N1+03401+01801999999ADDGA1021+005401999GF102991999999999999999999MA1101491999999REMMET051METAR SBUF 061400Z 12012KT 9999 FEW018 34/18 Q1015;
0120829860999992007110615004-09400-038217FM-15+0253SBUF V0201301N006212200019N0112651N1+03501+01801999999ADDGA1021+006001999GF102991999999999999999999MA1101391999999REMMET051METAR SBUF 061500Z 13012KT 9999 FEW020 35/18 Q1014;
0120829860999992007110616004-09400-038217FM-15+0253SBUF V0201201N006212200019N0112651N1+03501+01801999999ADDGA1041+006001999GF104991999999999999999999MA1101291999999REMMET051METAR SBUF 061600Z 12012KT 9999 SCT020 35/18 Q1013;
0120829860999992007110617004-09400-038217FM-15+0253SBUF V0201101N006712200019N0112651N1+03601+01601999999ADDGA1021+007501999GF102991999999999999999999MA1101191999999REMMET051METAR SBUF 061700Z 11013KT 9999 FEW025 36/16 Q1012;
0210829860999992007110618004-09400-038217SY-MT+0253SBUF V0201201N006710450019N0200001N1+03281+01581100951ADDGA1041+007501999GF105991031011008001061001MA1101081098131MD1999999+0281REMSYN070AAXX  06184 82986 32598 5//// 10328 20158 39813 40095 83160 333 58028;MET051METAR SBUF 061800Z 12013KT 9999 SCT025 35/17 Q1011;
0120829860999992007110619004-09400-038217FM-15+0253SBUF V0201201N006712200019N0112651N1+03401+01601999999ADDGA1041+007501999GF104991999999999999999999MA1101081999999REMMET051METAR SBUF 061900Z 12013KT 9999 SCT025 34/16 Q1011;
0120829860999992007110620004-09400-038217FM-15+0253SBUF V0201201N006712200019N0112651N1+03301+01501999999ADDGA1021+007501999GF102991999999999999999999MA1101191999999REMMET051METAR SBUF 062000Z 12013KT 9999 FEW025 33/15 Q1012;
0072829860999992007110621004-09400-038217FM-15+0253SBUF V0201301N00821220001CN0099001N1+03001+01901999999ADDMA1101191999999REMMET045METAR SBUF 062100Z 13016KT CAVOK 30/19 Q1012;
0072829860999992007110622004-09400-038217FM-15+0253SBUF V0201301N00871220001CN0099001N1+02701+02201999999ADDMA1101391999999REMMET045METAR SBUF 062200Z 13017KT CAVOK 27/22 Q1014;
0072829860999992007110623004-09400-038217FM-15+0253SBUF V0201301N00871220001CN0099001N1+02601+02101999999ADDMA1101491999999REMMET045METAR SBUF 062300Z 13017KT CAVOK 26/21 Q1015;
0178829860999992007110700004-09400-038217FM-12+0269SBUF V02099999999992200019N0020001N1+02441+01711101421ADDGA1001+999999999GF100991001001999999001001KA1240M+03391MA1999999098571MD1999999+0281REMSYN082AAXX  07004 82986 32995 0//// 10244 20171 39857 40142 333 10339 29054 55107 58028;
0120829860999992007110710004-09400-038217FM-15+0269SBUF V0201301N004112200019N0112651N1+02501+02501999999ADDGA1041+004801999GF104991999999999999999999MA1101691999999REMMET051METAR SBUF 071000Z 13008KT 9999 SCT016 25/25 Q1017;
0120829860999992007110711004-09400-038217FM-15+0269SBUF V0201201N004612200019N0112651N1+02701+02401999999ADDGA1041+004801999GF104991999999999999999999MA1101691999999REMMET051METAR SBUF 071100Z 12009KT 9999 SCT016 27/24 Q1017;
0229829860999992007110712004-09400-038217SY-MT+0269SBUF V0201101N006210075019N0100001N1+02641+01691101521ADDGA1041+005401999GF106991061021008001001001KA1240N+02121MA1101691098661MD1999999+0081REMSYN076AAXX  07124 82986 32597 6//// 10264 20169 39866 40152 86200 333 20212 58008;MET051METAR SBUF 071200Z 11012KT 9999 SCT018 30/19 Q1017;
0120829860999992007110713004-09400-038217FM-15+0269SBUF V0201201N005712200019N0112651N1+03101+01801999999ADDGA1021+006001999GF102991999999999999999999MA1101591999999REMMET051METAR SBUF 071300Z 12011KT 9999 FEW020 31/18 Q1016;
0120829860999992007110714004-09400-038217FM-15+0269SBUF V0201301N005712200019N0112651N1+03301+01801999999ADDGA1021+006001999GF102991999999999999999999MA1101591999999REMMET051METAR SBUF 071400Z 13011KT 9999 FEW020 33/18 Q1016;
0120829860999992007110715004-09400-038217FM-15+0269SBUF V0201201N005112200019N0112651N1+03401+01801999999ADDGA1021+006001999GF102991999999999999999999MA1101391999999REMMET051METAR SBUF 071500Z 12010KT 9999 FEW020 34/18 Q1014;
0120829860999992007110716004-09400-038217FM-15+0269SBUF V0201401N005112200019N0112651N1+03501+01701999999ADDGA1021+007501999GF102991999999999999999999MA1101291999999REMMET051METAR SBUF 071600Z 14010KT 9999 FEW025 35/17 Q1013;
0120829860999992007110717004-09400-038217FM-15+0269SBUF V0201401N006712200019N0112651N1+03601+01701999999ADDGA1021+007501999GF102991999999999999999999MA1101191999999REMMET051METAR SBUF 071700Z 14013KT 9999 FEW025 36/17 Q1012;
0210829860999992007110718004-09400-038217SY-MT+0269SBUF V0201201N007212200019N0200001N1+03361+01651100921ADDGA1021+007501999GF103991031011008001001001MA1101081098101MD1999999-0031REMSYN070AAXX  07184 82986 32598 3//// 10336 20165 39810 40092 83100 333 59003;MET051METAR SBUF 071800Z 12014KT 9999 FEW025 36/18 Q1011;
0120829860999992007110719004-09400-038217FM-15+0269SBUF V0201201N007712200019N0112651N1+03401+01901999999ADDGA1021+007501999GF102991999999999999999999MA1101081999999REMMET051METAR SBUF 071900Z 12015KT 9999 FEW025 34/19 Q1011;
0120829860999992007110720004-09400-038217FM-15+0269SBUF V0201301N008212200019N0112651N1+03201+02001999999ADDGA1021+007501999GF102991999999999999999999MA1101191999999REMMET051METAR SBUF 072000Z 13016KT 9999 FEW025 32/20 Q1012;
0120829860999992007110721004-09400-038217FM-15+0269SBUF V0201101N006712200019N0112651N1+03001+02001999999ADDGA1021+006001999GF102991999999999999999999MA1101291999999REMMET051METAR SBUF 072100Z 11013KT 9999 FEW020 30/20 Q1013;
0072829860999992007110722004-09400-038217FM-15+0269SBUF V0201301N00721220001CN0099001N1+02901+01901999999ADDMA1101291999999REMMET045METAR SBUF 072200Z 13014KT CAVOK 29/19 Q1013;
0072829860999992007110723004-09400-038217FM-15+0269SBUF V0201401N00871220001CN0099001N1+02701+02101999999ADDMA1101391999999REMMET045METAR SBUF 072300Z 14017KT CAVOK 27/21 Q1014;
0178829860999992007110800004-09400-038217FM-12+0269SBUF V02099999999992200019N0020001N1+02501+01821101321ADDGA1001+999999999GF100991001001999999001001KA1240M+03431MA1999999098471MD1999999-0101REMSYN082AAXX  08004 82986 32995 0//// 10250 20182 39847 40132 333 10343 29056 55106 59010;
0143829860999992007110811004-09400-038217FM-15+0269SBUF V0201201N006210210019N0112651N1+02501+02501999999ADDGA1021+004501999GA2071+021001999GF107991999999999999999999MA1101491999999REMMET058METAR SBUF 081100Z 12012KT 9999 FEW015 BKN070 25/25 Q1015;
0332829860999992007110812004-09400-038217SY-MT+0269SBUF V0201401N00571021001CN0100001N1+02701+01991101281ADDAA124000091AY151061AY221061GA1021+005101999GA2071+021001999GF199999061041008001001001KA1240N+02191MA1101491098441MD1999999-0221MW1021REMSYN088AAXX  08124 82986 21597 6//// 10270 20199 39844 40128 70252 86400 333 20219 59022 69904;MET058METAR SBUF 081200Z 14011KT 9999 FEW017 BKN070 28/24 Q1015;EQDQ01+000062SCOTCVQ02  00002PRCP24
0143829860999992007110813004-09400-038217FM-15+0269SBUF V0201401N006712200019N0112651N1+03201+02001999999ADDGA1021+006001999GA2041+021001999GF104991999999999999999999MA1101391999999REMMET058METAR SBUF 081300Z 14013KT 9999 FEW020 SCT070 32/20 Q1014;
0120829860999992007110814004-09400-038217FM-15+0269SBUF V0201101N005112200019N0112651N1+03401+01901999999ADDGA1021+007501999GF102991999999999999999999MA1101291999999REMMET051METAR SBUF 081400Z 11010KT 9999 FEW025 34/19 Q1013;
0120829860999992007110815004-09400-038217FM-15+0269SBUF V0201201N005712200019N0112651N1+03501+01901999999ADDGA1021+007501999GF102991999999999999999999MA1101191999999REMMET051METAR SBUF 081500Z 12011KT 9999 FEW025 35/19 Q1012;
0120829860999992007110816004-09400-038217FM-15+0269SBUF V0201101N007212200019N0112651N1+03501+01901999999ADDGA1021+007501999GF102991999999999999999999MA1101021999999REMMET051METAR SBUF 081600Z 11014KT 9999 FEW025 35/19 Q1010;
0120829860999992007110817004-09400-038217FM-15+0269SBUF V0201001N008212200019N0112651N1+03601+01701999999ADDGA1021+007501999GF102991999999999999999999MA1100911999999REMMET051METAR SBUF 081700Z 10016KT 9999 FEW025 36/17 Q1009;
0210829860999992007110818004-09400-038217SY-MT+0269SBUF V0201401N006212200019N0200001N1+03321+01521101691ADDGA1021+007501999GF102991021011008001001001MA1100911097881MD1999999-0221REMSYN070AAXX  08184 82986 32598 2//// 10332 20152 39788 40169 82100 333 59022;MET051METAR SBUF 081800Z 14012KT 9999 FEW025 36/17 Q1009;
0120829860999992007110819004-09400-038217FM-15+0269SBUF V0201201N007212200019N0112651N1+03501+01701999999ADDGA1021+007501999GF102991999999999999999999MA1100911999999REMMET051METAR SBUF 081900Z 12014KT 9999 FEW025 35/17 Q1009;
0120829860999992007110820004-09400-038217FM-15+0269SBUF V0201201N005112200019N0112651N1+03301+01701999999ADDGA1021+007501999GF102991999999999999999999MA1100911999999REMMET051METAR SBUF 082000Z 12010KT 9999 FEW025 33/17 Q1009;
0072829860999992007110821004-09400-038217FM-15+0269SBUF V0201301N00671220001CN0099001N1+03001+01801999999ADDMA1101021999999REMMET045METAR SBUF 082100Z 13013KT CAVOK 30/18 Q1010;
0072829860999992007110822004-09400-038217FM-15+0269SBUF V0201301N00721220001CN0099001N1+02901+01801999999ADDMA1101191999999REMMET045METAR SBUF 082200Z 13014KT CAVOK 29/18 Q1012;
0072829860999992007110823004-09400-038217FM-15+0269SBUF V0201301N00821220001CN0099001N1+02701+02001999999ADDMA1101291999999REMMET045METAR SBUF 082300Z 13016KT CAVOK 27/20 Q1013;
0178829860999992007110900004-09400-038217FM-12+0269SBUF V02099999999992200019N0020001N1+02521+01771101151ADDGA1001+999999999GF100991001001999999001001KA1240M+03421MA1999999098311MD1999999-0161REMSYN082AAXX  09004 82986 32995 0//// 10252 20177 39831 40115 333 10342 29056 55081 59016;
0120829860999992007110911004-09400-038217FM-15+0269SBUF V0201301N004612200019N0112651N1+02801+02101999999ADDGA1021+004801999GF102991999999999999999999MA1101391999999REMMET051METAR SBUF 091100Z 13009KT 9999 FEW016 28/21 Q1014;
0229829860999992007110912004-09400-038217SY-MT+0269SBUF V0201301N005710075019N0100001N1+02761+01721101241ADDGA1041+005401999GF106991061021008001001001KA1240N+02031MA1101391098401MD1999999-0041REMSYN076AAXX  09124 82986 32597 6//// 10276 20172 39840 40124 86200 333 20203 59004;MET051METAR SBUF 091200Z 13011KT 9999 SCT018 28/20 Q1014;
0143829860999992007110913004-09400-038217FM-15+0269SBUF V0201201N005112200019N0112651N1+03101+01901999999ADDGA1041+006001999GA2041+021001999GF104991999999999999999999MA1101391999999REMMET058METAR SBUF 091300Z 12010KT 9999 SCT020 SCT070 31/19 Q1014;
0120829860999992007110914004-09400-038217FM-15+0269SBUF V0201201N006712200019N0112651N1+03301+01801999999ADDGA1041+006001999GF104991999999999999999999MA1101291999999REMMET051METAR SBUF 091400Z 12013KT 9999 SCT020 33/18 Q1013;
0143829860999992007110915004-09400-038217FM-15+0269SBUF V0201301N004612200019N0112651N1+03401+01801999999ADDGA1041+006001999GA2041+021001999GF104991999999999999999999MA1101191999999REMMET058METAR SBUF 091500Z 13009KT 9999 SCT020 SCT070 34/18 Q1012;
0143829860999992007110916004-09400-038217FM-15+0269SBUF V0201101N005112200019N0112651N1+03501+01701999999ADDGA1021+006001999GA2041+090001999GF104991999999999999999999MA1101021999999REMMET058METAR SBUF 091600Z 11010KT 9999 FEW020 SCT300 35/17 Q1010;
0143829860999992007110917004-09400-038217FM-15+0269SBUF V0201301N004612200019N0112651N1+03501+01701999999ADDGA1021+006001999GA2041+090001999GF104991999999999999999999MA1100911999999REMMET058METAR SBUF 091700Z 13009KT 9999 FEW020 SCT300 35/17 Q1009;
0207829860999992007110918004-09400-038217SY-MT+0269SBUF V0201101N004612200019N0200001N1+03341+01451100641ADDGF103991001001999999001061MA1100811097831MD1999999-0051REMSYN070AAXX  09184 82986 32598 3//// 10334 20145 39783 40064 80006 333 59005;MET045METAR SBUF 091800Z 11009KT CAVOK 36/16 Q1008;EQDQ01+008002SCOLCB
0072829860999992007110919004-09400-038217FM-15+0269SBUF V0201101N00511220001CN0099001N1+03501+01601999999ADDMA1100811999999REMMET045METAR SBUF 091900Z 11010KT CAVOK 35/16 Q1008;
0072829860999992007110920004-09400-038217FM-15+0269SBUF V0201101N00571220001CN0099001N1+03301+01601999999ADDMA1100811999999REMMET045METAR SBUF 092000Z 11011KT CAVOK 33/16 Q1008;
0072829860999992007110921004-09400-038217FM-15+0269SBUF V0201101N00621220001CN0099001N1+03101+01701999999ADDMA1100911999999REMMET045METAR SBUF 092100Z 11012KT CAVOK 31/17 Q1009;
0072829860999992007110922004-09400-038217FM-15+0269SBUF V0201301N00821220001CN0099001N1+03001+01701999999ADDMA1101021999999REMMET045METAR SBUF 092200Z 13016KT CAVOK 30/17 Q1010;
0072829860999992007110923004-09400-038217FM-15+0269SBUF V0201301N00771220001CN0099001N1+02801+01801999999ADDMA1101081999999REMMET045METAR SBUF 092300Z 13015KT CAVOK 28/18 Q1011;
0178829860999992007111000004-09400-038217FM-12+0269SBUF V02099999999992200019N0020001N1+02561+01851101051ADDGA1001+999999999GF100991001001999999001001KA1240M+03381MA1999999098221MD1999999-0091REMSYN082AAXX  10004 82986 32995 0//// 10256 20185 39822 40105 333 10338 29054 55113 59009;
0120829860999992007111011004-09400-038217FM-15+0269SBUF V0201101N004612200019N0112651N1+02701+02301999999ADDGA1041+004501999GF104991999999999999999999MA1101291999999REMMET051METAR SBUF 101100Z 11009KT 9999 SCT015 27/23 Q1013;
0229829860999992007111012004-09400-038217SY-MT+0269SBUF V0201201N005110075019N0100001N1+02681+01761101231ADDGA1041+005401999GF106991051021008001001051KA1240N+02021MA1101291098391MD1999999-0011REMSYN076AAXX  10124 82986 32597 6//// 10268 20176 39839 40123 85205 333 20202 59001;MET051METAR SBUF 101200Z 12010KT 9999 SCT018 29/21 Q1013;
0120829860999992007111013004-09400-038217FM-15+0269SBUF V0201101N005112200019N0112651N1+03101+01901999999ADDGA1041+005401999GF104991999999999999999999MA1101291999999REMMET051METAR SBUF 101300Z 11010KT 9999 SCT018 31/19 Q1013;
0143829860999992007111014004-09400-038217FM-15+0269SBUF V0201101N005112200019N0112651N1+03201+01801999999ADDGA1021+006001999GA2041+090001999GF104991999999999999999999MA1101191999999REMMET058METAR SBUF 101400Z 11010KT 9999 FEW020 SCT300 32/18 Q1012;
0072829860999992007111015004-09400-038217FM-15+0269SBUF V0201401N00461220001CN0099001N1+03201+01801999999ADDMA1101081999999REMMET045METAR SBUF 101500Z 14009KT CAVOK 32/18 Q1011;
0072829860999992007111017004-09400-038217FM-15+0269SBUF V0201001N00461220001CN0099001N1+03501+01601999999ADDMA1100811999999REMMET045METAR SBUF 101700Z 10009KT CAVOK 35/16 Q1008;
0188829860999992007111018004-09400-038217SY-MT+0269SBUF V0201201N003110075019N0200001N1+03261+01421100541ADDGF106991051011008001001041MA1100711097721MD1999999-0111REMSYN070AAXX  10184 82986 32598 6//// 10326 20142 39772 40054 85104 333 59011;MET045METAR SBUF 101800Z 12006KT CAVOK 35/14 Q1007;
0072829860999992007111019004-09400-038217FM-15+0269SBUF V0201201N00461220001CN0099001N1+03401+01501999999ADDMA1100711999999REMMET045METAR SBUF 101900Z 12009KT CAVOK 34/15 Q1007;
0072829860999992007111020004-09400-038217FM-15+0269SBUF V0201301N00361220001CN0099001N1+03401+01501999999ADDMA1100711999999REMMET045METAR SBUF 102000Z 13007KT CAVOK 34/15 Q1007;
0072829860999992007111021004-09400-038217FM-15+0269SBUF V0201201N00311220001CN0099001N1+03201+01601999999ADDMA1100811999999REMMET045METAR SBUF 102100Z 12006KT CAVOK 32/16 Q1008;
0072829860999992007111022004-09400-038217FM-15+0269SBUF V0201301N00671220001CN0099001N1+03101+02001999999ADDMA1100911999999REMMET045METAR SBUF 102200Z 13013KT CAVOK 31/20 Q1009;
0178829860999992007111100004-09400-038217FM-12+0269SBUF V02099999999992200019N0020001N1+02661+01871100871ADDGA1001+999999999GF100991001001999999001001KA1240M+03391MA1999999098041MD1999999-0181REMSYN082AAXX  11004 82986 32995 0//// 10266 20187 39804 40087 333 10339 29054 55074 59018;
0120829860999992007111111004-09400-038217FM-15+0269SBUF V0201101N003112200019N0112651N1+02801+02201999999ADDGA1021+004501999GF102991999999999999999999MA1101291999999REMMET051METAR SBUF 111100Z 11006KT 9999 FEW015 28/22 Q1013;
0207829860999992007111112004-09400-038217SY-MT+0269SBUF V0201001N003612200019N0200001N1+02811+01721101081ADDGF101991001001999999001011KA1240N+02001MA1101291098261MD1999999-0131REMSYN076AAXX  11124 82986 32998 1//// 10281 20172 39826 40108 80001 333 20200 59013;MET045METAR SBUF 111200Z 10007KT CAVOK 30/18 Q1013;
0072829860999992007111113004-09400-038217FM-15+0269SBUF V0201701N00311220001CN0099001N1+03101+01701999999ADDMA1101291999999REMMET045METAR SBUF 111300Z 17006KT CAVOK 31/17 Q1013;
0072829860999992007111114004-09400-038217FM-15+0269SBUF V0201501N00361220001CN0099001N1+03301+01601999999ADDMA1101191999999REMMET045METAR SBUF 111400Z 15007KT CAVOK 33/16 Q1012;
0072829860999992007111115004-09400-038217FM-15+0269SBUF V0201301N00361220001CN0099001N1+03501+01601999999ADDMA1101081999999REMMET045METAR SBUF 111500Z 13007KT CAVOK 35/16 Q1011;
0080829860999992007111116004-09400-038217FM-15+0269SBUF V0201501N003112200019N9999999N1+03601+01501999999ADDMA1101001999999REMMET053METAR SBUF 111600Z 15006KT FEW025 SCT300 36/15 Q1010;
0072829860999992007111117004-09400-038217FM-15+0269SBUF V0201901N00311220001CN0099001N1+03601+01401999999ADDMA1100911999999REMMET045METAR SBUF 111700Z 19006KT CAVOK 36/14 Q1009;
0188829860999992007111118004-09400-038217SY-MT+0269SBUF V0201601N002111050019N0200001N1+03551+01301100631ADDGF105991011011008001001021MA1100811097821MD1999999+0101REMSYN070AAXX  11184 82986 32598 5//// 10355 20130 39782 40063 81102 333 58010;MET045METAR SBUF 111800Z 16004KT CAVOK 37/13 Q1008;
0072829860999992007111119004-09400-038217FM-15+0269SBUF V0202001N00261220001CN0099001N1+03601+01301999999ADDMA1100811999999REMMET045METAR SBUF 111900Z 20005KT CAVOK 36/13 Q1008;
0072829860999992007111120004-09400-038217FM-15+0269SBUF V0201601N00261220001CN0099001N1+03501+01301999999ADDMA1100811999999REMMET045METAR SBUF 112000Z 16005KT CAVOK 35/13 Q1008;
0072829860999992007111121004-09400-038217FM-15+0269SBUF V0201201N00261220001CN0099001N1+03301+01501999999ADDMA1100811999999REMMET045METAR SBUF 112100Z 12005KT CAVOK 33/15 Q1008;
0072829860999992007111122004-09400-038217FM-15+0269SBUF V0201301N00311220001CN0099001N1+03201+01601999999ADDMA1100911999999REMMET045METAR SBUF 112200Z 13006KT CAVOK 32/16 Q1009;
0178829860999992007111200004-09400-038217FM-12+0269SBUF V02099999999992200019N0020001N1+02701+01911100941ADDGA1001+999999999GF100991001001999999001001KA1240M+03591MA1999999098121MD1999999+0081REMSYN082AAXX  12004 82986 32995 0//// 10270 20191 39812 40094 333 10359 29050 55113 58008;
0078829860999992007111210154-09400-038217FM-16+0269SBUF V0201501N002612200019N0099001N1+02601+02501999999ADDMA1101401999999REMMET051METAR SBUF 121015Z SPECI 15005KT CAVOK 26/25 Q1014;
0077829860999992007111211004-09400-038217FM-15+0269SBUF V0201401N002612200019N0112651N1+02801+02301999999ADDMA1101401999999REMMET050METAR SBUF 121100Z 14005KT 9999 CAVOK 28/23 Q1014;
0229829860999992007111212004-09400-038217SY-MT+0269SBUF V0201201N002112200019N0200001N1+02781+01821101161ADDAY141061AY201061GF100991001001999999001001KA1240N+02101MA1101391098341MD1999999+0081MW1051REMSYN076AAXX  12124 82986 31998 0//// 10278 20182 39834 40116 70540 333 20210 58008;MET045METAR SBUF 121200Z 12004KT CAVOK 30/20 Q1014;
0072829860999992007111213004-09400-038217FM-15+0269SBUF V0201701N00261220001CN0099001N1+03101+01801999999ADDMA1101291999999REMMET045METAR SBUF 121300Z 17005KT CAVOK 31/18 Q1013;
0072829860999992007111214004-09400-038217FM-15+0269SBUF V0201601N00311220001CN0099001N1+03401+01701999999ADDMA1101291999999REMMET045METAR SBUF 121400Z 16006KT CAVOK 34/17 Q1013;
0072829860999992007111215004-09400-038217FM-15+0269SBUF V0201701N00411220001CN0099001N1+03601+01501999999ADDMA1101191999999REMMET045METAR SBUF 121500Z 17008KT CAVOK 36/15 Q1012;
0072829860999992007111216004-09400-038217FM-15+0269SBUF V0201101N00311220001CN0099001N1+03701+01501999999ADDMA1101021999999REMMET045METAR SBUF 121600Z 11006KT CAVOK 37/15 Q1010;
0072829860999992007111217004-09400-038217FM-15+0269SBUF V0201001N00211220001CN0099001N1+03801+01401999999ADDMA1100911999999REMMET045METAR SBUF 121700Z 10004KT CAVOK 38/14 Q1009;
0188829860999992007111218004-09400-038217SY-MT+0269SBUF V0201201N002612200019N0200001N1+03551+01351100661ADDGF103991021011008001001041MA1100911097861MD1999999+0041REMSYN070AAXX  12184 82986 32598 3//// 10355 20135 39786 40066 82104 333 58004;MET045METAR SBUF 121800Z 12005KT CAVOK 38/14 Q1009;
0080829860999992007111219004-09400-038217FM-15+0269SBUF V0201301N004112200019N9999999N1+03701+01301999999ADDMA1100801999999REMMET053METAR SBUF 121900Z 13008KT FEW025 SCT300 37/13 Q1008;
0120829860999992007111220004-09400-038217FM-15+0269SBUF V0201201N003612200019N0112651N1+03601+01301999999ADDGA1021+007501999GF102991999999999999999999MA1100911999999REMMET051METAR SBUF 122000Z 12007KT 9999 FEW025 36/13 Q1009;
0072829860999992007111221004-09400-038217FM-15+0269SBUF V0201101N00461220001CN0099001N1+03401+01601999999ADDMA1100911999999REMMET045METAR SBUF 122100Z 11009KT CAVOK 34/16 Q1009;
0072829860999992007111222004-09400-038217FM-15+0269SBUF V0201301N00871220001CN0099001N1+03201+02001999999ADDMA1101021999999REMMET045METAR SBUF 122200Z 13017KT CAVOK 32/20 Q1010;
0072829860999992007111223004-09400-038217FM-15+0269SBUF V0201301N00871220001CN0099001N1+02901+02301999999ADDMA1101081999999REMMET045METAR SBUF 122300Z 13017KT CAVOK 29/23 Q1011;
0120829860999992007111311004-09400-038217FM-15+0269SBUF V0201101N003112200019N0112651N1+02801+02301999999ADDGA1041+005401999GF104991999999999999999999MA1101391999999REMMET051METAR SBUF 131100Z 11006KT 9999 SCT018 28/23 Q1014;
0229829860999992007111312004-09400-038217SY-MT+0269SBUF V0200901N00311005401CN0100001N1+02681+01951101221ADDGA1071+005401999GF107991071041008001999999KA1240N+02161MA1101391098391MD1999999+0051REMSYN076AAXX  13124 82986 32597 7//// 10268 20195 39839 40122 874// 333 20216 58005;MET051METAR SBUF 131200Z 09006KT 9999 BKN018 29/22 Q1014;
0077829860999992007111313004-09400-038217FM-15+0269SBUF V02099999999992200019N0010081N1+03201+02101999999ADDMA1101401999999REMMET050METAR SBUF 131300Z 1008KT 9999 BKN020 32/21 Q1014;
0120829860999992007111314004-09400-038217FM-15+0269SBUF V0201201N005712200019N0112651N1+03501+01901999999ADDGA1041+007501999GF104991999999999999999999MA1101291999999REMMET051METAR SBUF 131400Z 12011KT 9999 SCT025 35/19 Q1013;
0120829860999992007111315004-09400-038217FM-15+0269SBUF V0201401N005112200019N0112651N1+03401+01801999999ADDGA1041+007501999GF104991999999999999999999MA1101191999999REMMET051METAR SBUF 131500Z 14010KT 9999 SCT025 34/18 Q1012;
0120829860999992007111316004-09400-038217FM-15+0269SBUF V0201301N006212200019N0112651N1+03801+01701999999ADDGA1041+007501999GF104991999999999999999999MA1101081999999REMMET051METAR SBUF 131600Z 13012KT 9999 SCT025 38/17 Q1011;
0120829860999992007111317004-09400-038217FM-15+0269SBUF V0201301N006212200019N0112651N1+03701+01701999999ADDGA1041+007501999GF104991999999999999999999MA1101021999999REMMET051METAR SBUF 131700Z 13012KT 9999 SCT025 37/17 Q1010;
0233829860999992007111318004-09400-038217SY-MT+0269SBUF V0201201N005712200019N0200001N1+03461+01451100681ADDGA1021+007501999GA2041+090001999GF104991021011008001001041MA1100911097881MD1999999+0021REMSYN070AAXX  13184 82986 32598 4//// 10346 20145 39788 40068 82104 333 58002;MET058METAR SBUF 131800Z 12011KT 9999 FEW025 SCT300 37/15 Q1009;
0143829860999992007111319004-09400-038217FM-15+0269SBUF V0201201N006212200019N0112651N1+03601+01501999999ADDGA1021+007501999GA2041+090001999GF104991999999999999999999MA1100911999999REMMET058METAR SBUF 131900Z 12012KT 9999 FEW025 SCT300 36/15 Q1009;
0143829860999992007111320004-09400-038217FM-15+0269SBUF V0201101N007710900019N0112651N1+03301+01701999999ADDGA1021+006001999GA2071+090001999GF107991999999999999999999MA1101021999999REMMET058METAR SBUF 132000Z 11015KT 9999 FEW020 BKN300 33/17 Q1010;
0072829860999992007111321004-09400-038217FM-15+0269SBUF V0201101N00821220001CN0099001N1+03101+01801999999ADDMA1101081999999REMMET045METAR SBUF 132100Z 11016KT CAVOK 31/18 Q1011;
0072829860999992007111322004-09400-038217FM-15+0269SBUF V0201301N00981220001CN0099001N1+03001+01801999999ADDMA1101191999999REMMET045METAR SBUF 132200Z 13019KT CAVOK 30/18 Q1012;
0072829860999992007111323004-09400-038217FM-15+0269SBUF V0201301N00721220001CN0099001N1+02801+02001999999ADDMA1101391999999REMMET045METAR SBUF 132300Z 13014KT CAVOK 28/20 Q1014;
0178829860999992007111400004-09400-038217FM-12+0269SBUF V02099999999992200019N0020001N1+02581+01741101311ADDGA1001+999999999GF100991001001999999001001KA1240M+03491MA1999999098471MD1999999+0301REMSYN082AAXX  14004 82986 32995 0//// 10258 20174 39847 40131 333 10349 29052 55103 58030;
0084829860999992007111410154-09400-038217FM-16+0269SBUF V0201201N004112200019N0112651N1+02601+02601999999ADDMA1101601999999REMMET057METAR SBUF 141015Z SPECI 12008KT 9999 SCT016 26/26 Q1016;
0120829860999992007111411004-09400-038217FM-15+0269SBUF V0201101N004112200019N0112651N1+02901+02401999999ADDGA1041+004801999GF104991999999999999999999MA1101591999999REMMET051METAR SBUF 141100Z 11008KT 9999 SCT016 29/24 Q1016;
0229829860999992007111412004-09400-038217SY-MT+0269SBUF V0201101N004610075019N0100001N1+02651+01851101451ADDGA1041+005401999GF106991061041008001001001KA1240N+02141MA1101591098601MD1999999+0211REMSYN076AAXX  14124 82986 32597 6//// 10265 20185 39860 40145 86400 333 20214 58021;MET051METAR SBUF 141200Z 11009KT 9999 SCT018 29/22 Q1016;
0120829860999992007111413004-09400-038217FM-15+0269SBUF V0201101N004612200019N0112651N1+03301+02001999999ADDGA1041+005401999GF104991999999999999999999MA1101591999999REMMET051METAR SBUF 141300Z 11009KT 9999 SCT018 33/20 Q1016;
0120829860999992007111414004-09400-038217FM-15+0269SBUF V0201201N004112200019N0112651N1+03401+01901999999ADDGA1041+006001999GF104991999999999999999999MA1101491999999REMMET051METAR SBUF 141400Z 12008KT 9999 SCT020 34/19 Q1015;
0120829860999992007111415004-09400-038217FM-15+0269SBUF V0201201N004112200019N0112651N1+03601+01701999999ADDGA1041+006001999GF104991999999999999999999MA1101291999999REMMET051METAR SBUF 141500Z 12008KT 9999 SCT020 36/17 Q1013;
0120829860999992007111416004-09400-038217FM-15+0269SBUF V0201101N005112200019N0112651N1+03801+01701999999ADDGA1041+006001999GF104991999999999999999999MA1101191999999REMMET051METAR SBUF 141600Z 11010KT 9999 SCT020 38/17 Q1012;
0120829860999992007111417004-09400-038217FM-15+0269SBUF V0201201N006712200019N0112651N1+03601+01701999999ADDGA1041+006001999GF104991999999999999999999MA1101081999999REMMET051METAR SBUF 141700Z 12013KT 9999 SCT020 36/17 Q1011;
0210829860999992007111418004-09400-038217SY-MT+0269SBUF V0201201N005712200019N0200001N1+03411+01351100981ADDGA1021+006001999GF103991031021008001001001MA1101021098161MD1999999+0281REMSYN070AAXX  14184 82986 32598 3//// 10341 20135 39816 40098 83200 333 58028;MET051METAR SBUF 141800Z 12011KT 9999 FEW020 37/17 Q1010;
0120829860999992007111419004-09400-038217FM-15+0269SBUF V0201201N007712200019N0112651N1+03501+01701999999ADDGA1041+006001999GF104991999999999999999999MA1101021999999REMMET051METAR SBUF 141900Z 12015KT 9999 SCT020 35/17 Q1010;
0120829860999992007111420004-09400-038217FM-15+0269SBUF V0201401N007212200019N0112651N1+03301+01701999999ADDGA1041+006001999GF104991999999999999999999MA1101021999999REMMET051METAR SBUF 142000Z 14014KT 9999 SCT020 33/17 Q1010;
0120829860999992007111421004-09400-038217FM-15+0269SBUF V0201301N008712200019N0112651N1+03101+01701999999ADDGA1021+006001999GF102991999999999999999999MA1101081999999REMMET051METAR SBUF 142100Z 13017KT 9999 FEW020 31/17 Q1011;
0120829860999992007111422004-09400-038217FM-15+0269SBUF V0201301N007712200019N0112651N1+02901+01901999999ADDGA1021+006001999GF102991999999999999999999MA1101191999999REMMET051METAR SBUF 142200Z 13015KT 9999 FEW020 29/19 Q1012;
0072829860999992007111423004-09400-038217FM-15+0269SBUF V0201401N00771220001CN0099001N1+02801+02001999999ADDMA1101391999999REMMET045METAR SBUF 142300Z 14015KT CAVOK 28/20 Q1014;
0178829860999992007111500004-09400-038217FM-12+0269SBUF V02099999999992200019N0020001N1+02621+01671101251ADDGA1001+999999999GF100991001001999999001001KA1240M+03461MA1999999098411MD1999999-0061REMSYN082AAXX  15004 82986 32995 0//// 10262 20167 39841 40125 333 10346 29051 55100 59006;
0143829860999992007111511004-09400-038217FM-15+0269SBUF V0201201N005112200019N0112651N1+02801+02401999999ADDGA1041+004801999GA2041+021001999GF104991999999999999999999MA1101591999999REMMET058METAR SBUF 151100Z 12010KT 9999 SCT016 SCT070 28/24 Q1016;
0252829860999992007111512004-09400-038217SY-MT+0269SBUF V0201101N00461021001CN0100001N1+02641+01881101441ADDGA1041+004801999GA2041+021001999GF106991061041008001001001KA1240N+02141MA1101591098601MD1999999+0001REMSYN076AAXX  15124 82986 32597 6//// 10264 20188 39860 40144 86400 333 20214 58000;MET058METAR SBUF 151200Z 11009KT 9999 SCT016 SCT070 29/23 Q1016;
0143829860999992007111513004-09400-038217FM-15+0269SBUF V0201201N005712200019N0112651N1+03201+02001999999ADDGA1041+004801999GA2041+021001999GF104991999999999999999999MA1101591999999REMMET058METAR SBUF 151300Z 12011KT 9999 SCT016 SCT070 32/20 Q1016;
0120829860999992007111514004-09400-038217FM-15+0269SBUF V0201301N005112200019N0112651N1+03301+02001999999ADDGA1041+006001999GF104991999999999999999999MA1101491999999REMMET051METAR SBUF 151400Z 13010KT 9999 SCT020 33/20 Q1015;
0120829860999992007111515004-09400-038217FM-15+0269SBUF V0201301N004612200019N0112651N1+03401+02001999999ADDGA1021+006001999GF102991999999999999999999MA1101391999999REMMET051METAR SBUF 151500Z 13009KT 9999 FEW020 34/20 Q1014;
0120829860999992007111516004-09400-038217FM-15+0269SBUF V0201301N004612200019N0112651N1+03601+01801999999ADDGA1021+007501999GF102991999999999999999999MA1101291999999REMMET051METAR SBUF 151600Z 13009KT 9999 FEW025 36/18 Q1013;
0120829860999992007111517004-09400-038217FM-15+0269SBUF V0201101N004112200019N0112651N1+03601+01601999999ADDGA1021+007501999GF102991999999999999999999MA1101191999999REMMET051METAR SBUF 151700Z 11008KT 9999 FEW025 36/16 Q1012;
0210829860999992007111518004-09400-038217SY-MT+0269SBUF V0201201N004112200019N0200001N1+03411+01451100911ADDGA1021+007501999GF103991031021008001001001MA1101081098091MD1999999-0071REMSYN070AAXX  15184 82986 32598 3//// 10341 20145 39809 40091 83200 333 59007;MET051METAR SBUF 151800Z 12008KT 9999 FEW025 36/14 Q1011;
0120829860999992007111519004-09400-038217FM-15+0269SBUF V0201401N005112200019N0112651N1+03601+01601999999ADDGA1021+007501999GF102991999999999999999999MA1101021999999REMMET051METAR SBUF 151900Z 14010KT 9999 FEW025 36/16 Q1010;
0120829860999992007111520004-09400-038217FM-15+0269SBUF V0201301N007212200019N0112651N1+03301+01801999999ADDGA1021+007501999GF102991999999999999999999MA1101081999999REMMET051METAR SBUF 152000Z 13014KT 9999 FEW025 33/18 Q1011;
0072829860999992007111521004-09400-038217FM-15+0269SBUF V0201301N00771220001CN0099001N1+03101+02101999999ADDMA1101191999999REMMET045METAR SBUF 152100Z 13015KT CAVOK 31/21 Q1012;
0072829860999992007111522004-09400-038217FM-15+0269SBUF V0201401N00821220001CN0099001N1+02901+02301999999ADDMA1101291999999REMMET045METAR SBUF 152200Z 14016KT CAVOK 29/23 Q1013;
0168829860999992007111600004-09400-038217FM-12+0269SBUF V02099999999992200019N0020001N1+02541+01981101201ADDGF104991041021008001001001KA1240M+03461MA1999999098361MD1999999-0051REMSYN088AAXX  16004 82986 32595 4//// 10254 20198 39836 40120 84200 333 10346 29059 55090 59005;
0116829860999992007111610154-09400-038217FM-16+0269SBUF V0201101N005719999999N0112651N1+02601+02501999999ADDKA1999M+99999MA1101601999999REMMET057METAR SBUF 161015Z SPECI 11011KT 9999 SCT017 26/25 Q1016;EQDQ01 -00112ATMX  
0120829860999992007111611004-09400-038217FM-15+0269SBUF V0201301N005710054019N0112651N1+02701+02301999999ADDGA1071+005401999GF107991999999999999999999MA1101691999999REMMET051METAR SBUF 161100Z 13011KT 9999 BKN018 27/23 Q1017;
0229829860999992007111612004-09400-038217SY-MT+0269SBUF V0201201N006210075019N0100001N1+02791+01791101441ADDGA1041+005401999GF106991061021008001001001KA1240N+02281MA1101691098001MD1999999+0001REMSYN076AAXX  16124 82986 32597 6//// 10279 20179 39800 40144 86200 333 20228 58000;MET051METAR SBUF 161200Z 12012KT 9999 SCT018 30/20 Q1017;
0120829860999992007111613004-09400-038217FM-15+0269SBUF V0201201N005712200019N0112651N1+03201+02001999999ADDGA1021+006001999GF102991999999999999999999MA1101591999999REMMET051METAR SBUF 161300Z 12011KT 9999 FEW020 32/20 Q1016;
0120829860999992007111614004-09400-038217FM-15+0269SBUF V0201201N006212200019N0112651N1+03301+01901999999ADDGA1021+007501999GF102991999999999999999999MA1101591999999REMMET051METAR SBUF 161400Z 12012KT 9999 FEW025 33/19 Q1016;
0120829860999992007111615004-09400-038217FM-15+0269SBUF V0201301N007712200019N0112651N1+03501+01801999999ADDGA1021+007501999GF102991999999999999999999MA1101491999999REMMET051METAR SBUF 161500Z 13015KT 9999 FEW025 35/18 Q1015;
0120829860999992007111616004-09400-038217FM-15+0269SBUF V0201101N006212200019N0112651N1+03501+01801999999ADDGA1021+007501999GF102991999999999999999999MA1101291999999REMMET051METAR SBUF 161600Z 11012KT 9999 FEW025 35/18 Q1013;
0120829860999992007111617004-09400-038217FM-15+0269SBUF V0201301N006212200019N0112651N1+03601+01801999999ADDGA1021+007501999GF102991999999999999999999MA1101291999999REMMET051METAR SBUF 161700Z 13012KT 9999 FEW025 36/18 Q1013;
0210829860999992007111618004-09400-038217SY-MT+0269SBUF V0201301N007212200019N0200001N1+03391+01531101011ADDGA1041+007501999GF104991041021008001001001MA1101191098201MD1999999+0111REMSYN070AAXX  16184 82986 32598 4//// 10339 20153 39820 40101 84200 333 58011;MET051METAR SBUF 161800Z 13014KT 9999 SCT025 37/17 Q1012;
0131829860999992007111619004-09400-038217FM-15+0269SBUF V0201301N006212200019N0112651N1+03501+01801999999ADDGA1021+007501999GF102991999999999999999999MA1101191999999OC101131REMMET054METAR SBUF 161900Z 13012G22KT 9999 FEW025 35/18 Q1012;
0131829860999992007111620004-09400-038217FM-15+0269SBUF V0201301N008212200019N0112651N1+03301+01901999999ADDGA1021+007501999GF102991999999999999999999MA1101291999999OC101341REMMET054METAR SBUF 162000Z 13016G26KT 9999 FEW025 33/19 Q1013;
0072829860999992007111621004-09400-038217FM-15+0269SBUF V0201301N00931220001CN0099001N1+03001+01901999999ADDMA1101391999999REMMET045METAR SBUF 162100Z 13018KT CAVOK 30/19 Q1014;
0072829860999992007111622004-09400-038217FM-15+0269SBUF V0201401N00821220001CN0099001N1+02901+02001999999ADDMA1101491999999REMMET045METAR SBUF 162200Z 14016KT CAVOK 29/20 Q1015;
0072829860999992007111623004-09400-038217FM-15+0269SBUF V0201401N00821220001CN0099001N1+02801+02001999999ADDMA1101591999999REMMET045METAR SBUF 162300Z 14016KT CAVOK 28/20 Q1016;
0178829860999992007111700004-09400-038217FM-12+0269SBUF V02099999999992200019N0020001N1+02601+01761101451ADDGA1001+999999999GF100991001001999999001001KA1240M+03461MA1999999098611MD1999999+0151REMSYN082AAXX  17004 82986 32995 0//// 10260 20176 39861 40145 333 10346 29052 55107 58015;
0120829860999992007111711004-09400-038217FM-15+0269SBUF V0201101N005710054019N0112651N1+02801+02301999999ADDGA1071+005401999GF107991999999999999999999MA1101591999999REMMET051METAR SBUF 171100Z 11011KT 9999 BKN018 28/23 Q1016;
0248829860999992007111712004-09400-038217SY-MT+0269SBUF V0201301N00721006001CN0100001N1+02821+01911101401ADDGA1071+006001999GF199999061021008001001001KA1240N+02201MA1101591098561MD1999999-0041REMSYN076AAXX  17124 82986 32597 6//// 10282 20191 39856 40140 86200 333 20220 59004;MET051METAR SBUF 171200Z 13014KT 9999 BKN020 31/21 Q1016;EQDQ01+000062SCOTCV
0120829860999992007111713004-09400-038217FM-15+0269SBUF V0201301N007210060019N0112651N1+03101+01901999999ADDGA1071+006001999GF107991999999999999999999MA1101591999999REMMET051METAR SBUF 171300Z 13014KT 9999 BKN020 31/19 Q1016;
0143829860999992007111714004-09400-038217FM-15+0269SBUF V0201301N009310240019N0112651N1+03001+02101999999ADDGA1041+006001999GA2071+024001999GF107991999999999999999999MA1101591999999REMMET058METAR SBUF 171400Z 13018KT 9999 SCT020 BKN080 30/21 Q1016;
0143829860999992007111715004-09400-038217FM-15+0269SBUF V0201301N005712200019N0112651N1+03301+02001999999ADDGA1041+007501999GA2041+024001999GF104991999999999999999999MA1101491999999REMMET058METAR SBUF 171500Z 13011KT 9999 SCT025 SCT080 33/20 Q1015;
0120829860999992007111716004-09400-038217FM-15+0269SBUF V0201501N005710075019N0112651N1+03401+01801999999ADDGA1071+007501999GF107991999999999999999999MA1101291999999REMMET051METAR SBUF 171600Z 15011KT 9999 BKN025 34/18 Q1013;
0120829860999992007111717004-09400-038217FM-15+0269SBUF V0201201N006710075019N0112651N1+03401+01701999999ADDGA1071+007501999GF107991999999999999999999MA1101191999999REMMET051METAR SBUF 171700Z 12013KT 9999 BKN025 34/17 Q1012;
0210829860999992007111718004-09400-038217SY-MT+0269SBUF V0201101N007710075019N0200001N1+03261+01601101011ADDGA1041+007501999GF105991051021008001001001MA1101191098181MD1999999-0021REMSYN070AAXX  17184 82986 32598 5//// 10326 20160 39818 40101 85200 333 59002;MET051METAR SBUF 171800Z 11015KT 9999 SCT025 35/18 Q1012;
0120829860999992007111719004-09400-038217FM-15+0269SBUF V0201201N007212200019N0112651N1+03301+01701999999ADDGA1041+007501999GF104991999999999999999999MA1101191999999REMMET051METAR SBUF 171900Z 12014KT 9999 SCT025 33/17 Q1012;
0120829860999992007111720004-09400-038217FM-15+0269SBUF V0201201N007712200019N0112651N1+03201+01701999999ADDGA1041+007501999GF104991999999999999999999MA1101291999999REMMET051METAR SBUF 172000Z 12015KT 9999 SCT025 32/17 Q1013;
0120829860999992007111721004-09400-038217FM-15+0269SBUF V0201301N007212200019N0112651N1+03001+01701999999ADDGA1021+006001999GF102991999999999999999999MA1101391999999REMMET051METAR SBUF 172100Z 13014KT 9999 FEW020 30/17 Q1014;
0072829860999992007111722004-09400-038217FM-15+0269SBUF V0201501N00771220001CN0099001N1+02801+02101999999ADDMA1101491999999REMMET045METAR SBUF 172200Z 15015KT CAVOK 28/21 Q1015;
0143829860999992007111811004-09400-038217FM-15+0269SBUF V0201501N004610240019N0112651N1+02601+02601999999ADDGA1041+005401999GA2071+024001999GF107991999999999999999999MA1101591999999REMMET058METAR SBUF 181100Z 15009KT 9999 SCT018 BKN080 26/26 Q1016;
0252829860999992007111812004-09400-038217SY-MT+0269SBUF V0201501N00511005401CN0100001N1+02581+01771101411ADDGA1071+005401999GA2071+024001999GF107991071071004501999999KA1240N+02101MA1101591098561MD1999999+0001REMSYN076AAXX  18124 82986 32497 7//// 10258 20177 39856 40141 877// 333 20210 58000;MET058METAR SBUF 181200Z 15010KT 9999 BKN018 BKN080 26/25 Q1016;
0143829860999992007111813004-09400-038217FM-15+0269SBUF V0201501N005710054019N0112651N1+02701+02101999999ADDGA1071+005401999GA2071+024001999GF107991999999999999999999MA1101491999999REMMET058METAR SBUF 181300Z 15011KT 9999 BKN018 BKN080 27/21 Q1015;
0143829860999992007111814004-09400-038217FM-15+0269SBUF V0201601N004610210019N0112651N1+03001+01901999999ADDGA1041+006001999GA2071+021001999GF107991999999999999999999MA1101391999999REMMET058METAR SBUF 181400Z 16009KT 9999 SCT020 BKN070 30/19 Q1014;
0143829860999992007111815004-09400-038217FM-15+0269SBUF V0201501N005110210019N0112651N1+03201+01901999999ADDGA1041+006001999GA2071+021001999GF107991999999999999999999MA1101291999999REMMET058METAR SBUF 181500Z 15010KT 9999 SCT020 BKN070 32/19 Q1013;
0143829860999992007111816004-09400-038217FM-15+0269SBUF V0201501N004610210019N0112651N1+03301+01801999999ADDGA1041+006001999GA2071+021001999GF107991999999999999999999MA1101191999999REMMET058METAR SBUF 181600Z 15009KT 9999 SCT020 BKN070 33/18 Q1012;
0120829860999992007111817004-09400-038217FM-15+0269SBUF V0201501N003612200019N0112651N1+03401+01801999999ADDGA1041+006001999GF104991999999999999999999MA1101081999999REMMET051METAR SBUF 181700Z 15007KT 9999 SCT020 34/18 Q1011;
0210829860999992007111818004-09400-038217SY-MT+0269SBUF V0201601N003112200019N0200001N1+03241+01631100831ADDGA1041+006001999GF104991041021008001001001MA1101021098011MD1999999-0171REMSYN070AAXX  18184 82986 32598 4//// 10324 20163 39801 40083 84200 333 59017;MET051METAR SBUF 181800Z 16006KT 9999 SCT020 34/18 Q1010;
0120829860999992007111819004-09400-038217FM-15+0269SBUF V0201301N003112200019N0112651N1+03401+01601999999ADDGA1021+006001999GF102991999999999999999999MA1101021999999REMMET051METAR SBUF 181900Z 13006KT 9999 FEW020 34/16 Q1010;
0120829860999992007111820004-09400-038217FM-15+0269SBUF V0201401N005112200019N0112651N1+03301+01601999999ADDGA1021+006001999GF102991999999999999999999MA1101021999999REMMET051METAR SBUF 182000Z 14010KT 9999 FEW020 33/16 Q1010;
0072829860999992007111821004-09400-038217FM-15+0269SBUF V0201501N00621220001CN0099001N1+03001+01801999999ADDMA1101081999999REMMET045METAR SBUF 182100Z 15012KT CAVOK 30/18 Q1011;
0072829860999992007111822004-09400-038217FM-15+0269SBUF V0201301N00721220001CN0099001N1+02901+01801999999ADDMA1101191999999REMMET045METAR SBUF 182200Z 13014KT CAVOK 29/18 Q1012;
0156829860999992007111912004-09400-038217FM-12+0269SBUF V02099999999990075019N0100001N1+02621+01621101511ADDGF105991051021008001001001KA1240N+02061MA1999999098661MD1999999+0101REMSYN076AAXX  19124 82986 32597 5//// 10262 20162 39866 40151 85200 333 20206 58010;
0120829860999992007111913004-09400-038217FM-15+0269SBUF V0201101N005112200019N0112651N1+03101+01801999999ADDGA1021+007501999GF102991999999999999999999MA1101491999999REMMET051METAR SBUF 191300Z 11010KT 9999 FEW025 31/18 Q1015;
0120829860999992007111914004-09400-038217FM-15+0269SBUF V0201301N003112200019N0112651N1+03301+01801999999ADDGA1021+007501999GF102991999999999999999999MA1101391999999REMMET051METAR SBUF 191400Z 13006KT 9999 FEW025 33/18 Q1014;
0120829860999992007111915004-09400-038217FM-15+0269SBUF V0201201N003612200019N0112651N1+03401+01701999999ADDGA1021+007501999GF102991999999999999999999MA1101291999999REMMET051METAR SBUF 191500Z 12007KT 9999 FEW025 34/17 Q1013;
0120829860999992007111916004-09400-038217FM-15+0269SBUF V0201001N002612200019N0112651N1+03601+01701999999ADDGA1021+007501999GF102991999999999999999999MA1101081999999REMMET051METAR SBUF 191600Z 10005KT 9999 FEW025 36/17 Q1011;
0120829860999992007111917004-09400-038217FM-15+0269SBUF V0201401N003112200019N0112651N1+03601+01601999999ADDGA1021+007501999GF102991999999999999999999MA1101021999999REMMET051METAR SBUF 191700Z 14006KT 9999 FEW025 36/16 Q1010;
0210829860999992007111918004-09400-038217SY-MT+0269SBUF V0201001N003612200019N0200001N1+03451+01531100731ADDGA1021+007501999GF103991031011008001001001MA1100911097931MD1999999-0081REMSYN070AAXX  19184 82986 32598 3//// 10345 20153 39793 40073 83100 333 59008;MET051METAR SBUF 191800Z 10007KT 9999 FEW025 36/15 Q1009;
0120829860999992007111919004-09400-038217FM-15+0269SBUF V0201201N003612200019N0112651N1+03601+01401999999ADDGA1021+007501999GF102991999999999999999999MA1100911999999REMMET051METAR SBUF 191900Z 12007KT 9999 FEW025 36/14 Q1009;
0120829860999992007111920004-09400-038217FM-15+0269SBUF V0201301N002112200019N0112651N1+03401+01401999999ADDGA1021+006001999GF102991999999999999999999MA1100911999999REMMET051METAR SBUF 192000Z 13004KT 9999 FEW020 34/14 Q1009;
0120829860999992007111921004-09400-038217FM-15+0269SBUF V0201101N004112200019N0112651N1+03201+01301999999ADDGA1021+006001999GF102991999999999999999999MA1101021999999REMMET051METAR SBUF 192100Z 11008KT 9999 FEW020 32/13 Q1010;
0072829860999992007111922004-09400-038217FM-15+0269SBUF V0201301N00871220001CN0099001N1+03001+01801999999ADDMA1101081999999REMMET045METAR SBUF 192200Z 13017KT CAVOK 30/18 Q1011;
0072829860999992007111923004-09400-038217FM-15+0269SBUF V0201201N00821220001CN0099001N1+02801+01901999999ADDMA1101191999999REMMET045METAR SBUF 192300Z 12016KT CAVOK 28/19 Q1012;
0178829860999992007112000004-09400-038217FM-12+0269SBUF V02099999999992200019N0020001N1+02561+01781101141ADDGA1001+999999999GF100991001001999999001001KA1240M+03451MA1999999098301MD1999999-0161REMSYN082AAXX  20004 82986 32995 0//// 10256 20178 39830 40114 333 10345 29052 55109 59016;
0120829860999992007112011004-09400-038217FM-15+0269SBUF V0201201N005712200019N0112651N1+02701+02301999999ADDGA1041+005401999GF104991999999999999999999MA1101491999999REMMET051METAR SBUF 201100Z 12011KT 9999 SCT018 27/23 Q1015;
0252829860999992007112012004-09400-038217SY-MT+0269SBUF V0201201N005112200019N0100001N1+02721+01821101311ADDGA1021+005401999GA2041+090001999GF104991011011008001001041KA1240N+02051MA1101491098471MD1999999-0191REMSYN076AAXX  20124 82986 32597 4//// 10272 20182 39847 40131 81104 333 20205 59019;MET058METAR SBUF 201200Z 12010KT 9999 FEW018 SCT300 30/21 Q1015;
0143829860999992007112013004-09400-038217FM-15+0269SBUF V0201401N005710900019N0112651N1+03101+02001999999ADDGA1021+005401999GA2071+090001999GF107991999999999999999999MA1101391999999REMMET058METAR SBUF 201300Z 14011KT 9999 FEW018 BKN300 31/20 Q1014;
0072829860999992007112014004-09400-038217FM-15+0269SBUF V0201301N00571220001CN0099001N1+03301+01801999999ADDMA1101291999999REMMET045METAR SBUF 201400Z 13011KT CAVOK 33/18 Q1013;
0072829860999992007112015004-09400-038217FM-15+0269SBUF V0201301N00461220001CN0099001N1+03501+01801999999ADDMA1101191999999REMMET045METAR SBUF 201500Z 13009KT CAVOK 35/18 Q1012;
0072829860999992007112016004-09400-038217FM-15+0269SBUF V0201201N00461220001CN0099001N1+03601+01701999999ADDMA1101081999999REMMET045METAR SBUF 201600Z 12009KT CAVOK 36/17 Q1011;
0072829860999992007112017004-09400-038217FM-15+0269SBUF V0201201N00411220001CN0099001N1+03701+01701999999ADDMA1101021999999REMMET045METAR SBUF 201700Z 12008KT CAVOK 37/17 Q1010;
0188829860999992007112018004-09400-038217SY-MT+0269SBUF V0201201N003612200019N0200001N1+03471+01551100751ADDGF104991001001999999001081MA1100911097941MD1999999+0011REMSYN070AAXX  20184 82986 32998 4//// 10347 20155 39794 40075 80008 333 58001;MET045METAR SBUF 201800Z 12007KT CAVOK 37/16 Q1009;
0072829860999992007112019004-09400-038217FM-15+0269SBUF V0201101N00411220001CN0099001N1+03701+01501999999ADDMA1100911999999REMMET045METAR SBUF 201900Z 11008KT CAVOK 37/15 Q1009;
0072829860999992007112020004-09400-038217FM-15+0269SBUF V0201401N00361220001CN0099001N1+03501+01601999999ADDMA1101021999999REMMET045METAR SBUF 202000Z 14007KT CAVOK 35/16 Q1010;
0072829860999992007112021004-09400-038217FM-15+0269SBUF V0201201N00411220001CN0099001N1+03301+01601999999ADDMA1101081999999REMMET045METAR SBUF 202100Z 12008KT CAVOK 33/16 Q1011;
0072829860999992007112022004-09400-038217FM-15+0269SBUF V0201301N00511220001CN0099001N1+03201+01701999999ADDMA1101081999999REMMET045METAR SBUF 202200Z 13010KT CAVOK 32/17 Q1011;
0072829860999992007112023004-09400-038217FM-15+0269SBUF V0201301N00671220001CN0099001N1+03001+02101999999ADDMA1101291999999REMMET045METAR SBUF 202300Z 13013KT CAVOK 30/21 Q1013;
0178829860999992007112100004-09400-038217FM-12+0269SBUF V02099999999992200019N0020001N1+02801+01921101131ADDGA1001+999999999GF100991001001999999001001KA1240M+03501MA1999999098311MD1999999-0151REMSYN082AAXX  21004 82986 32995 0//// 10280 20192 39831 40113 333 10350 29052 55106 59015;
0120829860999992007112111004-09400-038217FM-15+0269SBUF V0201401N003112200019N0112651N1+02801+02501999999ADDGA1041+005401999GF104991999999999999999999MA1101491999999REMMET051METAR SBUF 211100Z 14006KT 9999 SCT018 28/25 Q1015;
0229829860999992007112112004-09400-038217SY-MT+0269SBUF V0201301N004112200019N0100001N1+02771+01941101291ADDGA1021+006001999GF104991041011008001001001KA1240N+02331MA1101491098471MD1999999+0001REMSYN076AAXX  21124 82986 32597 4//// 10277 20194 39847 40129 84100 333 20233 58000;MET051METAR SBUF 211200Z 13008KT 9999 FEW020 31/22 Q1015;
0120829860999992007112113004-09400-038217FM-15+0269SBUF V0201301N004612200019N0112651N1+03301+02101999999ADDGA1021+006001999GF102991999999999999999999MA1101391999999REMMET051METAR SBUF 211300Z 13009KT 9999 FEW020 33/21 Q1014;
0072829860999992007112114004-09400-038217FM-15+0269SBUF V0201301N00361220001CN0099001N1+03501+01901999999ADDMA1101391999999REMMET045METAR SBUF 211400Z 13007KT CAVOK 35/19 Q1014;
0072829860999992007112115004-09400-038217FM-15+0269SBUF V0201201N00361220001CN0099001N1+03601+01801999999ADDMA1101291999999REMMET045METAR SBUF 211500Z 12007KT CAVOK 36/18 Q1013;
0072829860999992007112116004-09400-038217FM-15+0269SBUF V0201201N00461220001CN0099001N1+03701+01601999999ADDMA1101081999999REMMET045METAR SBUF 211600Z 12009KT CAVOK 37/16 Q1011;
0072829860999992007112117004-09400-038217FM-15+0269SBUF V0201001N00361220001CN0099001N1+03801+01701999999ADDMA1101081999999REMMET045METAR SBUF 211700Z 10007KT CAVOK 38/17 Q1011;
0182829860999992007112118004-09400-038217SY-MT+0269SBUF V0201301N003612200019N0200001N1+03551+01571100781ADDGF100991001001999999001001MA1101021097981MD1999999+0041REMSYN064AAXX  21184 82986 32998 0//// 10355 20157 39798 40078 333 58004;MET045METAR SBUF 211800Z 13007KT CAVOK 38/16 Q1010;
0072829860999992007112119004-09400-038217FM-15+0269SBUF V0201001N00411220001CN0099001N1+03701+01501999999ADDMA1101021999999REMMET045METAR SBUF 211900Z 10008KT CAVOK 37/15 Q1010;
0072829860999992007112120004-09400-038217FM-15+0269SBUF V0201301N00311220001CN0099001N1+03501+01601999999ADDMA1101021999999REMMET045METAR SBUF 212000Z 13006KT CAVOK 35/16 Q1010;
0072829860999992007112121004-09400-038217FM-15+0269SBUF V0201301N00511220001CN0099001N1+03301+01501999999ADDMA1101081999999REMMET045METAR SBUF 212100Z 13010KT CAVOK 33/15 Q1011;
0072829860999992007112123004-09400-038217FM-15+0269SBUF V0201201N00871220001CN0099001N1+02901+02301999999ADDMA1101391999999REMMET045METAR SBUF 212300Z 12017KT CAVOK 29/23 Q1014;
0072829860999992007112205004-09400-038217FM-15+0269SBUF V0201401N00361220001CN0099001N1+02501+02501999999ADDMA1101291999999REMMET045METAR SBUF 220500Z 14007KT CAVOK 25/25 Q1013;
0072829860999992007112206004-09400-038217FM-15+0269SBUF V0201301N00361220001CN0099001N1+02401+02401999999ADDMA1101291999999REMMET045METAR SBUF 220600Z 13007KT CAVOK 24/24 Q1013;
0072829860999992007112207004-09400-038217FM-15+0269SBUF V0201301N00311220001CN0099001N1+02401+02401999999ADDMA1101291999999REMMET045METAR SBUF 220700Z 13006KT CAVOK 24/24 Q1013;
0120829860999992007112211004-09400-038217FM-15+0269SBUF V0201201N003612200019N0112651N1+02801+02301999999ADDGA1041+004801999GF104991999999999999999999MA1101491999999REMMET051METAR SBUF 221100Z 12007KT 9999 SCT016 28/23 Q1015;
0229829860999992007112212004-09400-038217SY-MT+0269SBUF V0201101N003110450019N0100001N1+02681+01921101341ADDGA1041+005401999GF106991041021008001081001KA1240N+02221MA1101491098501MD1999999+0031REMSYN076AAXX  22124 82986 32597 6//// 10268 20192 39850 40134 84280 333 20222 58003;MET051METAR SBUF 221200Z 11006KT 9999 SCT018 31/21 Q1015;
0143829860999992007112213004-09400-038217FM-15+0269SBUF V0200701N002112200019N0112651N1+03101+02001999999ADDGA1041+005401999GA2041+090001999GF104991999999999999999999MA1101491999999REMMET058METAR SBUF 221300Z 07004KT 9999 SCT018 SCT300 31/20 Q1015;
0143829860999992007112214004-09400-038217FM-15+0269SBUF V0201201N002112200019N0112651N1+03201+02001999999ADDGA1041+005401999GA2041+090001999GF104991999999999999999999MA1101391999999REMMET058METAR SBUF 221400Z 12004KT 9999 SCT018 SCT300 32/20 Q1014;
0143829860999992007112216004-09400-038217FM-15+0269SBUF V0201801N002612200019N0112651N1+03501+01901999999ADDGA1041+006001999GA2041+090001999GF104991999999999999999999MA1101191999999REMMET058METAR SBUF 221600Z 18005KT 9999 SCT020 SCT300 35/19 Q1012;
0120829860999992007112217004-09400-038217FM-15+0269SBUF V0201601N002612200019N0112651N1+03601+01801999999ADDGA1041+007501999GF104991999999999999999999MA1101081999999REMMET051METAR SBUF 221700Z 16005KT 9999 SCT025 36/18 Q1011;
0229829860999992007112218004-09400-038217SY-MT+0269SBUF V0201901N002612200019N0200001N1+03491+01711100761ADDGA1041+007501999GF199999031011008001001001MA1101021097961MD1999999-0021REMSYN070AAXX  22184 82986 32598 3//// 10349 20171 39796 40076 83100 333 59002;MET051METAR SBUF 221800Z 19005KT 9999 SCT025 36/18 Q1010;EQDQ01+000032SCOTCV
0120829860999992007112219004-09400-038217FM-15+0269SBUF V0201601N001512200019N0112651N1+03401+01801999999ADDGA1021+007501999GF102991999999999999999999MA1100911999999REMMET051METAR SBUF 221900Z 16003KT 9999 FEW025 34/18 Q1009;
0120829860999992007112220004-09400-038217FM-15+0269SBUF V0201701N002612200019N0112651N1+03501+01701999999ADDGA1021+007501999GF102991999999999999999999MA1100911999999REMMET051METAR SBUF 222000Z 17005KT 9999 FEW025 35/17 Q1009;
0120829860999992007112221004-09400-038217FM-15+0269SBUF V0201401N002612200019N0112651N1+03301+01801999999ADDGA1021+007501999GF102991999999999999999999MA1101021999999REMMET051METAR SBUF 222100Z 14005KT 9999 FEW025 33/18 Q1010;
0072829860999992007112222004-09400-038217FM-15+0269SBUF V0201301N00931220001CN0099001N1+03101+02301999999ADDMA1101081999999REMMET045METAR SBUF 222200Z 13018KT CAVOK 31/23 Q1011;
0072829860999992007112223004-09400-038217FM-15+0269SBUF V0201201N00871220001CN0099001N1+02901+02401999999ADDMA1101291999999REMMET045METAR SBUF 222300Z 12017KT CAVOK 29/24 Q1013;
0178829860999992007112300004-09400-038217FM-12+0269SBUF V02099999999992200019N0020001N1+02681+02021101181ADDGA1001+999999999GF100991001001999999001001KA1240M+03501MA1999999098351MD1999999-0091REMSYN082AAXX  23004 82986 32995 0//// 10268 20202 39835 40118 333 10350 29058 55093 59009;
0143829860999992007112311004-09400-038217FM-15+0269SBUF V0201501N003110300019N0112651N1+02901+02601999999ADDGA1041+006001999GA2071+030001999GF107991999999999999999999MA1101391999999REMMET058METAR SBUF 231100Z 15006KT 9999 SCT020 BKN100 29/26 Q1014;
0299829860999992007112312004-09400-038217SY-MT+0269SBUF V0201801N00311030001CN0100001N1+02801+02081101221ADDAY141061AY221061GA1041+006001999GA2071+030001999GF199999021011008001051061KA1240N+02361MA1101391098391MD1999999-0111MW1051REMSYN082AAXX  23124 82986 31597 6//// 10280 20208 39839 40122 70542 82156 333 20236 59011;MET058METAR SBUF 231200Z 18006KT 9999 SCT020 BKN100 29/25 Q1014;EQDQ01+000062SCOTCV
0143829860999992007112313004-09400-038217FM-15+0269SBUF V0201901N002112200019N0112651N1+03201+02301999999ADDGA1041+006001999GA2041+030001999GF104991999999999999999999MA1101391999999REMMET058METAR SBUF 231300Z 19004KT 9999 SCT020 SCT100 32/23 Q1014;
0143829860999992007112314004-09400-038217FM-15+0269SBUF V0201601N003612200019N0112651N1+03401+02201999999ADDGA1021+006001999GA2041+090001999GF104991999999999999999999MA1101291999999REMMET058METAR SBUF 231400Z 16007KT 9999 FEW020 SCT300 34/22 Q1013;
0143829860999992007112315004-09400-038217FM-15+0269SBUF V0201701N002612200019N0112651N1+03501+02001999999ADDGA1021+006001999GA2041+090001999GF104991999999999999999999MA1101191999999REMMET058METAR SBUF 231500Z 17005KT 9999 FEW020 SCT300 35/20 Q1012;
0143829860999992007112316004-09400-038217FM-15+0269SBUF V0201701N002612200019N0112651N1+03601+02001999999ADDGA1021+006001999GA2041+090001999GF104991999999999999999999MA1101081999999REMMET058METAR SBUF 231600Z 17005KT 9999 FEW020 SCT300 36/20 Q1011;
0143829860999992007112317004-09400-038217FM-15+0269SBUF V0201601N003110900019N0112651N1+03601+01901999999ADDGA1021+006001999GA2071+090001999GF107991999999999999999999MA1101021999999REMMET058METAR SBUF 231700Z 16006KT 9999 FEW020 BKN300 36/19 Q1010;
0252829860999992007112318004-09400-038217SY-MT+0269SBUF V0201301N00311090001CN0200001N1+03551+01761100671ADDGA1021+006001999GA2071+090001999GF199999021021008001001081MA1100911097881MD1999999-0081REMSYN070AAXX  23184 82986 32598 6//// 10355 20176 39788 40067 82208 333 59008;MET058METAR SBUF 231800Z 13006KT 9999 FEW020 BKN300 36/16 Q1009;EQDQ01+000062SCOTCV
0143829860999992007112319004-09400-038217FM-15+0269SBUF V0201501N005110900019N0112651N1+03601+01801999999ADDGA1021+007501999GA2071+090001999GF107991999999999999999999MA1100911999999REMMET058METAR SBUF 231900Z 15010KT 9999 FEW025 BKN300 36/18 Q1009;
0143829860999992007112320004-09400-038217FM-15+0269SBUF V0201201N004110900019N0112651N1+03501+01801999999ADDGA1021+007501999GA2071+090001999GF107991999999999999999999MA1100911999999REMMET058METAR SBUF 232000Z 12008KT 9999 FEW025 BKN300 35/18 Q1009;
0143829860999992007112322004-09400-038217FM-15+0269SBUF V0201101N008712200019N0112651N1+03201+02301999999ADDGA1041+006001999GA2041+090001999GF104991999999999999999999MA1101081999999REMMET058METAR SBUF 232200Z 11017KT 9999 SCT020 SCT300 32/23 Q1011;
0143829860999992007112323004-09400-038217FM-15+0269SBUF V0201201N007710900019N0112651N1+03001+02401999999ADDGA1041+006001999GA2071+090001999GF107991999999999999999999MA1101191999999REMMET058METAR SBUF 232300Z 12015KT 9999 SCT020 BKN300 30/24 Q1012;
0168829860999992007112400004-09400-038217FM-12+0269SBUF V02099999999990150019N0020001N1+02741+02101101121ADDGF106991061001017501051001KA1240M+03561MA1999999098301MD1999999-0051REMSYN088AAXX  24004 82986 32795 6//// 10274 20210 39830 40112 86050 333 10356 29056 55064 59005;
0143829860999992007112411004-09400-038217FM-15+0269SBUF V0201401N003110240019N0112651N1+02901+02601999999ADDGA1021+005401999GA2071+024001999GF107991999999999999999999MA1101391999999REMMET058METAR SBUF 241100Z 14006KT 9999 FEW018 BKN080 29/26 Q1014;
0252829860999992007112412004-09400-038217SY-MT+0269SBUF V0201301N00311024001CN0100001N1+02851+02041101181ADDGA1021+005401999GA2071+024001999GF107991071091022501999999KA1240N+02431MA1101391098361MD1999999-0031REMSYN076AAXX  24124 82986 32897 7//// 10285 20204 39836 40118 879// 333 20243 59003;MET058METAR SBUF 241200Z 13006KT 9999 FEW018 BKN080 31/24 Q1014;
0143829860999992007112413004-09400-038217FM-15+0269SBUF V0201201N003610270019N0112651N1+03201+02201999999ADDGA1041+006001999GA2071+027001999GF107991999999999999999999MA1101391999999REMMET058METAR SBUF 241300Z 12007KT 9999 SCT020 BKN090 32/22 Q1014;
0143829860999992007112414004-09400-038217FM-15+0269SBUF V0201301N005110270019N0112651N1+03301+02101999999ADDGA1021+006001999GA2071+027001999GF107991999999999999999999MA1101291999999REMMET058METAR SBUF 241400Z 13010KT 9999 FEW020 BKN090 33/21 Q1013;
0143829860999992007112415004-09400-038217FM-15+0269SBUF V0201401N004610270019N0112651N1+03501+02101999999ADDGA1021+006001999GA2071+027001999GF107991999999999999999999MA1101191999999REMMET058METAR SBUF 241500Z 14009KT 9999 FEW020 BKN090 35/21 Q1012;
0143829860999992007112416004-09400-038217FM-15+0269SBUF V0201201N004110270019N0112651N1+03501+02001999999ADDGA1021+006001999GA2071+027001999GF107991999999999999999999MA1101081999999REMMET058METAR SBUF 241600Z 12008KT 9999 FEW020 BKN090 35/20 Q1011;
0143829860999992007112417004-09400-038217FM-15+0269SBUF V0201201N004110270019N0112651N1+03601+01901999999ADDGA1021+006001999GA2071+027001999GF107991999999999999999999MA1101021999999REMMET058METAR SBUF 241700Z 12008KT 9999 FEW020 BKN090 36/19 Q1010;
0252829860999992007112418004-09400-038217SY-MT+0269SBUF V0201101N00361027001CN0200001N1+03301+01761100681ADDGA1021+006001999GA2071+027001999GF199999021021008001051011MA1100911097881MD1999999+0001REMSYN070AAXX  24184 82986 32598 6//// 10330 20176 39788 40068 82251 333 58000;MET058METAR SBUF 241800Z 11007KT 9999 FEW020 BKN090 35/19 Q1009;EQDQ01+000062SCOTCV
0143829860999992007112419004-09400-038217FM-15+0269SBUF V0201101N003610270019N0112651N1+03501+01901999999ADDGA1021+006001999GA2071+027001999GF107991999999999999999999MA1100911999999REMMET058METAR SBUF 241900Z 11007KT 9999 FEW020 BKN090 35/19 Q1009;
0166829860999992007112420004-09400-038217FM-15+0269SBUF V0201301N00461021001CN0112651N1+03401+01901999999ADDGA1021+006001999GA2041+021001999GA3071+090001999GF107991999999999999999999MA1100911999999REMMET065METAR SBUF 242000Z 13009KT 9999 FEW020 SCT070 BKN300 34/19 Q1009;
0166829860999992007112421004-09400-038217FM-15+0269SBUF V0201201N00411021001CN0112651N1+03301+01901999999ADDGA1021+006001999GA2041+021001999GA3071+090001999GF107991999999999999999999MA1100911999999REMMET065METAR SBUF 242100Z 12008KT 9999 FEW020 SCT070 BKN300 33/19 Q1009;
0166829860999992007112422004-09400-038217FM-15+0269SBUF V0201201N00511021001CN0112651N1+03201+02001999999ADDGA1021+006001999GA2041+021001999GA3071+090001999GF107991999999999999999999MA1101021999999REMMET065METAR SBUF 242200Z 12010KT 9999 FEW020 SCT070 BKN300 32/20 Q1010;
0143829860999992007112511004-09400-038217FM-15+0269SBUF V0201101N003112200019N0112651N1+03001+02401999999ADDGA1021+005401999GA2041+030001999GF104991999999999999999999MA1101291999999REMMET058METAR SBUF 251100Z 11006KT 9999 FEW018 SCT100 30/24 Q1013;
0229829860999992007112512004-09400-038217SY-MT+0269SBUF V0201001N003612200019N0200001N1+02841+01851101141ADDGA1021+006001999GF103991011011008001031041KA1240N+02261MA1101291098321MD1999999-0041REMSYN076AAXX  25124 82986 32598 3//// 10284 20185 39832 40114 81134 333 20226 59004;MET051METAR SBUF 251200Z 10007KT 9999 FEW020 31/21 Q1013;
0120829860999992007112513004-09400-038217FM-15+0269SBUF V0201401N003612200019N0112651N1+03301+02101999999ADDGA1021+006001999GF102991999999999999999999MA1101291999999REMMET051METAR SBUF 251300Z 14007KT 9999 FEW020 33/21 Q1013;
0072829860999992007112514004-09400-038217FM-15+0269SBUF V0201701N00361220001CN0099001N1+03401+01901999999ADDMA1101191999999REMMET045METAR SBUF 251400Z 17007KT CAVOK 34/19 Q1012;
0072829860999992007112515004-09400-038217FM-15+0269SBUF V0201501N00361220001CN0099001N1+03701+01801999999ADDMA1101081999999REMMET045METAR SBUF 251500Z 15007KT CAVOK 37/18 Q1011;
0072829860999992007112516004-09400-038217FM-15+0269SBUF V0201201N00311220001CN0099001N1+03501+01801999999ADDMA1101021999999REMMET045METAR SBUF 251600Z 12006KT CAVOK 35/18 Q1010;
0143829860999992007112517004-09400-038217FM-15+0269SBUF V0201601N005112200019N0112651N1+03801+01701999999ADDGA1021+007501999GA2041+030001999GF104991999999999999999999MA1100911999999REMMET058METAR SBUF 251700Z 16010KT 9999 FEW025 SCT100 38/17 Q1009;
0233829860999992007112518004-09400-038217SY-MT+0269SBUF V0201401N003612200019N0200001N1+03591+01651100621ADDGA1021+007501999GA2041+030001999GF104991011011008001041011MA1100811097841MD1999999-0041REMSYN070AAXX  25184 82986 32598 3//// 10359 20165 39784 40062 81141 333 59004;MET058METAR SBUF 251800Z 14007KT 9999 FEW025 SCT100 38/17 Q1008;
0120829860999992007112519004-09400-038217FM-15+0269SBUF V0201301N004112200019N0112651N1+03701+01701999999ADDGA1021+007501999GF102991999999999999999999MA1100811999999REMMET051METAR SBUF 251900Z 13008KT 9999 FEW025 37/17 Q1008;
0120829860999992007112520004-09400-038217FM-15+0269SBUF V0201201N004112200019N0112651N1+03601+01801999999ADDGA1021+007501999GF102991999999999999999999MA1100811999999REMMET051METAR SBUF 252000Z 12008KT 9999 FEW025 36/18 Q1008;
0072829860999992007112521004-09400-038217FM-15+0269SBUF V0201201N00571220001CN0099001N1+03401+01801999999ADDMA1100811999999REMMET045METAR SBUF 252100Z 12011KT CAVOK 34/18 Q1008;
0072829860999992007112522004-09400-038217FM-15+0269SBUF V0201201N00621220001CN0099001N1+03301+01801999999ADDMA1100911999999REMMET045METAR SBUF 252200Z 12012KT CAVOK 33/18 Q1009;
0143829860999992007112611004-09400-038217FM-15+0269SBUF V0201301N001510270019N0112651N1+02801+02401999999ADDGA1041+005401999GA2071+027001999GF107991999999999999999999MA1101291999999REMMET058METAR SBUF 261100Z 13003KT 9999 SCT018 BKN090 28/24 Q1013;
0280829860999992007112612004-09400-038217SY-MT+0269SBUF V0201101N001012200019N0100001N1+02771+02021101131ADDAY141061AY211061GA1041+006001999GA2041+027001999GF104991031011008001001011KA1240N+02281MA1101291098311MD1999999-0011MW1051REMSYN082AAXX  26124 82986 31597 4//// 10277 20202 39831 40113 70541 83101 333 20228 59001;MET058METAR SBUF 261200Z 11002KT 9999 SCT020 SCT090 31/22 Q1013;
0143829860999992007112613004-09400-038217FM-15+0269SBUF V0201901N003112200019N0112651N1+03201+02201999999ADDGA1021+006001999GA2041+030001999GF104991999999999999999999MA1101291999999REMMET058METAR SBUF 261300Z 19006KT 9999 FEW020 SCT100 32/22 Q1013;
0143829860999992007112614004-09400-038217FM-15+0269SBUF V0201701N003112200019N0112651N1+03301+02101999999ADDGA1021+006001999GA2041+030001999GF104991999999999999999999MA1101191999999REMMET058METAR SBUF 261400Z 17006KT 9999 FEW020 SCT100 33/21 Q1012;
0166829860999992007112615004-09400-038217FM-15+0269SBUF V0202101N00211030001CN0112651N1+03501+02001999999ADDGA1021+006001999GA2041+030001999GA3071+090001999GF107991999999999999999999MA1101081999999REMMET065METAR SBUF 261500Z 21004KT 9999 FEW020 SCT100 BKN300 35/20 Q1011;
0166829860999992007112616004-09400-038217FM-15+0269SBUF V0201701N00151030001CN0112651N1+03401+02001999999ADDGA1021+006001999GA2041+030001999GA3071+090001999GF107991999999999999999999MA1101021999999REMMET065METAR SBUF 261600Z 17003KT 9999 FEW020 SCT100 BKN300 34/20 Q1010;
0166829860999992007112617004-09400-038217FM-15+0269SBUF V0201801N00261030001CN0112651N1+03701+01901999999ADDGA1021+006001999GA2041+030001999GA3071+090001999GF107991999999999999999999MA1100811999999REMMET065METAR SBUF 261700Z 18005KT 9999 FEW020 SCT100 BKN300 37/19 Q1008;
0256829860999992007112618004-09400-038217SY-MT+0269SBUF V0201801N002612200019N0200001N1+03521+01741100721ADDGA1021+007501999GA2041+030001999GA3071+090001999GF199999021041008001041061MA1100711097931MD1999999+0091REMSYN070AAXX  26184 82986 32598 4//// 10352 20174 39793 40072 82446 333 58009;MET065METAR SBUF 261800Z 18005KT 9999 FEW025 SCT100 BKN300 38/19 Q1007;
0143829860999992007112619004-09400-038217FM-15+0269SBUF V0201401N002612200019N0112651N1+03601+01501999999ADDGA1021+006001999GA2041+090001999GF104991999999999999999999MA1100711999999REMMET058METAR SBUF 261900Z 14005KT 9999 FEW020 SCT300 36/15 Q1007;
0143829860999992007112620004-09400-038217FM-15+0269SBUF V0201301N003612200019N0112651N1+03601+01701999999ADDGA1021+006001999GA2041+090001999GF104991999999999999999999MA1100711999999REMMET058METAR SBUF 262000Z 13007KT 9999 FEW020 SCT300 36/17 Q1007;
0120829860999992007112621004-09400-038217FM-15+0269SBUF V0201301N002112200019N0112651N1+03401+01601999999ADDGA1021+006001999GF102991999999999999999999MA1100711999999REMMET051METAR SBUF 262100Z 13004KT 9999 FEW020 34/16 Q1007;
0072829860999992007112622004-09400-038217FM-15+0269SBUF V0201201N00671220001CN0099001N1+03201+01601999999ADDMA1100911999999REMMET045METAR SBUF 262200Z 12013KT CAVOK 32/16 Q1009;
0091829860999992007112623004-09400-038217FM-15+0269SBUF V0201201N00771220001CN0099001N1+03001+02402999999ADDMA1101021999999REMMET045METAR SBUF 262300Z 12015KT CAVOK 30/24 Q1010;EQDQ01+002403ATOD  
0143829860999992007112710154-09400-038217FM-15+0269SBUF V0203501N001012200019N0112651N1+02901+02401999999ADDGA1021+004801999GA2041+024001999GF104991999999999999999999MA1101191999999REMMET058METAR SBUF 271015Z 35002KT 9999 FEW016 SCT080 29/24 Q1012;
0143829860999992007112711004-09400-038217FM-15+0269SBUF V0200101N002112200019N0112651N1+02901+02201999999ADDGA1021+004801999GA2041+024001999GF104991999999999999999999MA1101191999999REMMET058METAR SBUF 271100Z 01004KT 9999 FEW016 SCT080 29/22 Q1012;
0294829860999992007112712004-09400-038217SY-MT+0269SBUF V0200401N002112200019N0200001N1+02901+01961100991ADDGA1021+005401999GA2041+024001999GA3071+090001999GF199999031011008001001011KA1240N+02341MA1101191098181MD1999999-0131REMSYN076AAXX  27124 82986 32598 4//// 10290 20196 39818 40099 83101 333 20234 59013;MET065METAR SBUF 271200Z 04004KT 9999 FEW018 SCT080 BKN300 32/21 Q1012;EQDQ01+000042SCOTCV
0166829860999992007112713004-09400-038217FM-15+0269SBUF V0200501N00211024001CN0112651N1+03301+02101999999ADDGA1021+005401999GA2041+024001999GA3071+090001999GF107991999999999999999999MA1101081999999REMMET065METAR SBUF 271300Z 05004KT 9999 FEW018 SCT080 BKN300 33/21 Q1011;
0143829860999992007112715004-09400-038217FM-15+0269SBUF V0200201N003612200019N0112651N1+03601+01901999999ADDGA1021+007501999GA2041+090001999GF104991999999999999999999MA1100911999999REMMET058METAR SBUF 271500Z 02007KT 9999 FEW025 SCT300 36/19 Q1009;
0143829860999992007112716004-09400-038217FM-15+0269SBUF V0201801N002612200019N0112651N1+03701+01601999999ADDGA1021+007501999GA2041+090001999GF104991999999999999999999MA1100811999999REMMET058METAR SBUF 271600Z 18005KT 9999 FEW025 SCT300 37/16 Q1008;
0143829860999992007112717004-09400-038217FM-15+0269SBUF V0201901N001512200019N0112651N1+03601+01601999999ADDGA1021+007501999GA2041+090001999GF104991999999999999999999MA1100711999999REMMET058METAR SBUF 271700Z 19003KT 9999 FEW025 SCT300 36/16 Q1007;
0233829860999992007112718004-09400-038217SY-MT+0269SBUF V0201901N00151090001CN0200001N1+03591+01701100401ADDGA1021+007501999GA2041+090001999GF106991041021008001001081MA1100611097621MD1999999-0311REMSYN070AAXX  27184 82986 32598 6//// 10359 20170 39762 40040 84208 333 59031;MET058METAR SBUF 271800Z 19003KT 9999 FEW025 SCT300 37/16 Q1006;
0143829860999992007112719004-09400-038217FM-15+0269SBUF V0201901N002112200019N0112651N1+03701+01601999999ADDGA1021+007501999GA2041+090001999GF104991999999999999999999MA1100511999999REMMET058METAR SBUF 271900Z 19004KT 9999 FEW025 SCT300 37/16 Q1005;
0072829860999992007112720004-09400-038217FM-15+0269SBUF V0201501N00261220001CN0099001N1+03701+01701999999ADDMA1100511999999REMMET045METAR SBUF 272000Z 15005KT CAVOK 37/17 Q1005;
0143829860999992007112721004-09400-038217FM-15+0269SBUF V0201101N003110900019N0112651N1+03601+01601999999ADDGA1021+007501999GA2071+090001999GF107991999999999999999999MA1100611999999REMMET058METAR SBUF 272100Z 11006KT 9999 FEW025 BKN300 36/16 Q1006;
0143829860999992007112722004-09400-038217FM-15+0269SBUF V0201201N003610900019N0112651N1+03401+01801999999ADDGA1021+006001999GA2071+090001999GF107991999999999999999999MA1100711999999REMMET058METAR SBUF 272200Z 12007KT 9999 FEW020 BKN300 34/18 Q1007;
0143829860999992007112723004-09400-038217FM-15+0269SBUF V0201301N006710900019N0112651N1+03201+02301999999ADDGA1041+006001999GA2071+090001999GF107991999999999999999999MA1100811999999REMMET058METAR SBUF 272300Z 13013KT 9999 SCT020 BKN300 32/23 Q1008;
0178829860999992007112800004-09400-038217FM-12+0269SBUF V02099999999992200019N0020001N1+02881+02101100711ADDGA1001+999999999GF100991001001999999001001KA1240M+03681MA1999999097921MD1999999-0171REMSYN082AAXX  28004 82986 32995 0//// 10288 20210 39792 40071 333 10368 29054 55105 59017;
0143829860999992007112811004-09400-038217FM-15+0269SBUF V0200201N003612200019N0112651N1+03101+02101999999ADDGA1021+006001999GA2041+090001999GF104991999999999999999999MA1101081999999REMMET058METAR SBUF 281100Z 02007KT 9999 FEW020 SCT300 31/21 Q1011;
0252829860999992007112812004-09400-038217SY-MT+0269SBUF V0200301N00361090001CN0200001N1+03081+01981100861ADDGA1021+006001999GA2071+090001999GF199999001001999999001081KA1240N+02401MA1101081098071MD1999999-0111REMSYN076AAXX  28124 82986 32998 6//// 10308 20198 39807 40086 80008 333 20240 59011;MET058METAR SBUF 281200Z 03007KT 9999 FEW020 BKN300 33/19 Q1011;
0143829860999992007112813004-09400-038217FM-15+0269SBUF V0200101N003610900019N0112651N1+03501+01901999999ADDGA1041+006001999GA2071+090001999GF107991999999999999999999MA1101021999999REMMET058METAR SBUF 281300Z 01007KT 9999 SCT020 BKN300 35/19 Q1010;
0143829860999992007112814004-09400-038217FM-15+0269SBUF V0203601N003110900019N0112651N1+03501+01901999999ADDGA1021+007501999GA2071+090001999GF107991999999999999999999MA1101021999999REMMET058METAR SBUF 281400Z 36006KT 9999 FEW025 BKN300 35/19 Q1010;
0143829860999992007112815004-09400-038217FM-15+0269SBUF V0203101N001010900019N0112651N1+03701+01901999999ADDGA1021+007501999GA2071+090001999GF107991999999999999999999MA1100911999999REMMET058METAR SBUF 281500Z 31002KT 9999 FEW025 BKN300 37/19 Q1009;
0143829860999992007112816004-09400-038217FM-15+0269SBUF V0203401N004112200019N0112651N1+03701+01901999999ADDGA1021+007501999GA2041+090001999GF104991999999999999999999MA1100811999999REMMET058METAR SBUF 281600Z 34008KT 9999 FEW025 SCT300 37/19 Q1008;
0143829860999992007112817004-09400-038217FM-15+0269SBUF V0200501N001510900019N0112651N1+03701+01701999999ADDGA1021+007501999GA2071+090001999GF107991999999999999999999MA1100711999999REMMET058METAR SBUF 281700Z 05003KT 9999 FEW025 BKN300 37/17 Q1007;
0252829860999992007112818004-09400-038217SY-MT+0269SBUF V0200101N00361090001CN0200001N1+03411+01961100471ADDGA1021+007501999GA2071+090001999GF199999021021008001001081MA1100611097681MD1999999+0061REMSYN070AAXX  28184 82986 32598 6//// 10341 20196 39768 40047 82208 333 58006;MET058METAR SBUF 281800Z 01007KT 9999 FEW025 BKN300 37/17 Q1006;EQDQ01+000062SCOTCV
0143829860999992007112819004-09400-038217FM-15+0269SBUF V0200701N001510900019N0112651N1+03701+01501999999ADDGA1021+006001999GA2071+090001999GF107991999999999999999999MA1100611999999REMMET058METAR SBUF 281900Z 07003KT 9999 FEW020 BKN300 37/15 Q1006;
0143829860999992007112820004-09400-038217FM-15+0269SBUF V0200601N002610900019N0112651N1+03601+01701999999ADDGA1021+006001999GA2071+090001999GF107991999999999999999999MA1100611999999REMMET058METAR SBUF 282000Z 06005KT 9999 FEW020 BKN300 36/17 Q1006;
0143829860999992007112821004-09400-038217FM-15+0269SBUF V0200401N001010900019N0112651N1+03401+01701999999ADDGA1021+006001999GA2071+090001999GF107991999999999999999999MA1100711999999REMMET058METAR SBUF 282100Z 04002KT 9999 FEW020 BKN300 34/17 Q1007;
0143829860999992007112822004-09400-038217FM-15+0269SBUF V0201101N000510900019N0112651N1+03301+01701999999ADDGA1021+006001999GA2071+090001999GF107991999999999999999999MA1100811999999REMMET058METAR SBUF 282200Z 11001KT 9999 FEW020 BKN300 33/17 Q1008;
0143829860999992007112823004-09400-038217FM-15+0269SBUF V0201501N001012200019N0112651N1+03301+01801999999ADDGA1021+006001999GA2041+090001999GF104991999999999999999999MA1100911999999REMMET058METAR SBUF 282300Z 15002KT 9999 FEW020 SCT300 33/18 Q1009;
0264829860999992007112900004-09400-038217SY-MT+0269SBUF V0201401N005712200019N0020001N1+03041+02121100751ADDGA1021+006001999GA2041+090001999GF104991041001017501021001KA1240M+03541MA1101021097971MD1999999+0051REMSYN088AAXX  29004 82986 32795 4//// 10304 20212 39797 40075 84020 333 10354 29053 55094 58005;MET058METAR SBUF 290000Z 14011KT 9999 FEW020 SCT300 31/24 Q1010;
0143829860999992007112901004-09400-038217FM-15+0269SBUF V0201401N004612200019N0112651N1+03001+02401999999ADDGA1021+006001999GA2041+090001999GF104991999999999999999999MA1101081999999REMMET058METAR SBUF 290100Z 14009KT 9999 FEW020 SCT300 30/24 Q1011;
0143829860999992007112902004-09400-038217FM-15+0269SBUF V0201601N004612200019N0112651N1+02901+02501999999ADDGA1021+005401999GA2041+090001999GF104991999999999999999999MA1101021999999REMMET058METAR SBUF 290200Z 16009KT 9999 FEW018 SCT300 29/25 Q1010;
0143829860999992007112903004-09400-038217FM-15+0269SBUF V0201601N004612200019N0112651N1+02901+02601999999ADDGA1021+005401999GA2041+090001999GF104991999999999999999999MA1101021999999REMMET058METAR SBUF 290300Z 16009KT 9999 FEW018 SCT300 29/26 Q1010;
0143829860999992007112904004-09400-038217FM-15+0269SBUF V0201301N004112200019N0112651N1+02801+02601999999ADDGA1021+005401999GA2041+090001999GF104991999999999999999999MA1101021999999REMMET058METAR SBUF 290400Z 13008KT 9999 FEW018 SCT300 28/26 Q1010;
0166829860999992007112911004-09400-038217FM-15+0269SBUF V0200601N00151021001CN0112651N1+02901+02501999999ADDGA1021+004801999GA2041+021001999GA3071+090001999GF107991999999999999999999MA1101191999999REMMET065METAR SBUF 291100Z 06003KT 9999 FEW016 SCT070 BKN300 29/25 Q1012;
0271829860999992007112912004-09400-038217SY-MT+0269SBUF V0201001N002112200019N0200001N1+02861+01951100931ADDGA1021+004801999GA2071+090001999GF199999011011008001001081KA1240N+02421MA1101081098141MD1999999+0071REMSYN076AAXX  29124 82986 32598 4//// 10286 20195 39814 40093 81108 333 20242 58007;MET058METAR SBUF 291200Z 10004KT 9999 FEW016 BKN300 32/21 Q1011;EQDQ01+000042SCOTCV
0143829860999992007112913004-09400-038217FM-15+0269SBUF V0200101N002610900019N0112651N1+03401+02001999999ADDGA1021+004801999GA2071+090001999GF107991999999999999999999MA1101081999999REMMET058METAR SBUF 291300Z 01005KT 9999 FEW016 BKN300 34/20 Q1011;
0143829860999992007112914004-09400-038217FM-15+0269SBUF V0201901N002110900019N0112651N1+03401+02001999999ADDGA1021+006001999GA2071+090001999GF107991999999999999999999MA1101021999999REMMET058METAR SBUF 291400Z 19004KT 9999 FEW020 BKN300 34/20 Q1010;
0143829860999992007112915004-09400-038217FM-15+0269SBUF V0201901N002610900019N0112651N1+03701+01901999999ADDGA1021+007501999GA2071+090001999GF107991999999999999999999MA1100911999999REMMET058METAR SBUF 291500Z 19005KT 9999 FEW025 BKN300 37/19 Q1009;
0143829860999992007112916004-09400-038217FM-15+0269SBUF V0201501N002610900019N0112651N1+03601+01901999999ADDGA1021+007501999GA2071+090001999GF107991999999999999999999MA1100811999999REMMET058METAR SBUF 291600Z 15005KT 9999 FEW025 BKN300 36/19 Q1008;
0143829860999992007112917004-09400-038217FM-15+0269SBUF V0201701N001010900019N0112651N1+03801+01901999999ADDGA1041+007501999GA2071+090001999GF107991999999999999999999MA1100711999999REMMET058METAR SBUF 291700Z 17002KT 9999 SCT025 BKN300 38/19 Q1007;
0252829860999992007112918004-09400-038217SY-MT+0269SBUF V0201501N00151090001CN0200001N1+03631+01781100451ADDGA1021+006001999GA2071+090001999GF199999021021008001001081MA1100611097681MD1999999+0001REMSYN070AAXX  29184 82986 32598 6//// 10363 20178 39768 40045 82208 333 58000;MET058METAR SBUF 291800Z 15003KT 9999 FEW020 BKN300 37/16 Q1006;EQDQ01+000062SCOTCV
0143829860999992007112919004-09400-038217FM-15+0269SBUF V0201301N003110900019N0112651N1+03601+01701999999ADDGA1021+006001999GA2071+090001999GF107991999999999999999999MA1100611999999REMMET058METAR SBUF 291900Z 13006KT 9999 FEW020 BKN300 36/17 Q1006;
0143829860999992007112920004-09400-038217FM-15+0269SBUF V0201201N001512200019N0112651N1+03501+01501999999ADDGA1021+006001999GA2041+090001999GF104991999999999999999999MA1100711999999REMMET058METAR SBUF 292000Z 12003KT 9999 FEW020 SCT300 35/15 Q1007;
0143829860999992007112921004-09400-038217FM-15+0269SBUF V0201201N001510900019N0112651N1+03401+01701999999ADDGA1021+006001999GA2071+090001999GF107991999999999999999999MA1100711999999REMMET058METAR SBUF 292100Z 12003KT 9999 FEW020 BKN300 34/17 Q1007;
0143829860999992007112922004-09400-038217FM-15+0269SBUF V0201201N006710900019N0112651N1+03301+02201999999ADDGA1021+006001999GA2071+090001999GF107991999999999999999999MA1100911999999REMMET058METAR SBUF 292200Z 12013KT 9999 FEW020 BKN300 33/22 Q1009;
0143829860999992007112923004-09400-038217FM-15+0269SBUF V0201301N007210900019N0112651N1+03101+02401999999ADDGA1021+006001999GA2071+090001999GF107991999999999999999999MA1101021999999REMMET058METAR SBUF 292300Z 13014KT 9999 FEW020 BKN300 31/24 Q1010;
0178829860999992007113000004-09400-038217FM-12+0269SBUF V02099999999992200019N0020001N1+02881+02081100891ADDGA1001+999999999GF100991001001999999001001KA1240M+03641MA1999999098091MD1999999+0121REMSYN082AAXX  30004 82986 32995 0//// 10288 20208 39809 40089 333 10364 29054 55081 58012;
0130829860999992007113010154-09400-038217FM-16+0269SBUF V0201101N003619999999N0112651N1+02701+02501999999ADDKA1999M+99999MA1101301999999REMMET071METAR SBUF 301015Z SPECI 11007KT 9999 SCT016 SCT070 BKN300 27/25 Q1013;EQDQ01 -00072ATMX  
0166829860999992007113011004-09400-038217FM-15+0269SBUF V0201001N00411021001CN0112651N1+02801+02401999999ADDGA1041+004801999GA2041+021001999GA3071+090001999GF107991999999999999999999MA1101291999999REMMET065METAR SBUF 301100Z 10008KT 9999 SCT016 SCT070 BKN300 28/24 Q1013;
0322829860999992007113012004-09400-038217SY-MT+0269SBUF V0201301N004112200019N0200001N1+02821+01911101091ADDAY141061AY201061GA1041+004801999GA2041+021001999GA3071+090001999GF199999031011008001001001KA1240N+02361MA1101291098281MD1999999+0141MW1051REMSYN082AAXX  30124 82986 31598 3//// 10282 20191 39828 40109 70540 83100 333 20236 58014;MET065METAR SBUF 301200Z 13008KT 9999 SCT016 SCT070 BKN300 31/21 Q1013;EQDQ01+000032SCOTCV
0143829860999992007113013004-09400-038217FM-15+0269SBUF V0201201N005112200019N0112651N1+03301+01901999999ADDGA1021+006001999GA2041+090001999GF104991999999999999999999MA1101191999999REMMET058METAR SBUF 301300Z 12010KT 9999 FEW020 SCT300 33/19 Q1012;
0120829860999992007113014004-09400-038217FM-15+0269SBUF V0201301N005112200019N0112651N1+03501+01901999999ADDGA1021+007501999GF102991999999999999999999MA1101191999999REMMET051METAR SBUF 301400Z 13010KT 9999 FEW025 35/19 Q1012;
0072829860999992007113015004-09400-038217FM-15+0269SBUF V0201201N00511220001CN0099001N1+03601+01901999999ADDMA1101081999999REMMET045METAR SBUF 301500Z 12010KT CAVOK 36/19 Q1011;
0120829860999992007113016004-09400-038217FM-15+0269SBUF V0201201N005112200019N0112651N1+03701+01801999999ADDGA1021+007501999GF102991999999999999999999MA1101021999999REMMET051METAR SBUF 301600Z 12010KT 9999 FEW025 37/18 Q1010;
0120829860999992007113017004-09400-038217FM-15+0269SBUF V0201201N005712200019N0112651N1+03801+01601999999ADDGA1021+007501999GF102991999999999999999999MA1100811999999REMMET051METAR SBUF 301700Z 12011KT 9999 FEW025 38/16 Q1008;
0210829860999992007113018004-09400-038217SY-MT+0269SBUF V0201201N004612200019N0200001N1+03551+01711100541ADDGA1021+007501999GF102991021011008001001001MA1100811097761MD1999999+0081REMSYN070AAXX  30184 82986 32598 2//// 10355 20171 39776 40054 82100 333 58008;MET051METAR SBUF 301800Z 12009KT 9999 FEW025 38/15 Q1008;
0120829860999992007113019004-09400-038217FM-15+0269SBUF V0201101N004112200019N0112651N1+03701+01601999999ADDGA1021+007501999GF102991999999999999999999MA1100711999999REMMET051METAR SBUF 301900Z 11008KT 9999 FEW025 37/16 Q1007;
0120829860999992007113020004-09400-038217FM-15+0269SBUF V0201201N005112200019N0112651N1+03601+01601999999ADDGA1021+007501999GF102991999999999999999999MA1100711999999REMMET051METAR SBUF 302000Z 12010KT 9999 FEW025 36/16 Q1007;
0120829860999992007113021004-09400-038217FM-15+0269SBUF V0201301N004112200019N0112651N1+03401+01701999999ADDGA1021+007501999GF102991999999999999999999MA1100811999999REMMET051METAR SBUF 302100Z 13008KT 9999 FEW025 34/17 Q1008;
0120829860999992007113022004-09400-038217FM-15+0269SBUF V0201201N008712200019N0112651N1+03201+01801999999ADDGA1021+006001999GF102991999999999999999999MA1100911999999REMMET051METAR SBUF 302200Z 12017KT 9999 FEW020 32/18 Q1009;
0072829860999992007113023004-09400-038217FM-15+0269SBUF V0201001N00821220001CN0099001N1+03001+02001999999ADDMA1101021999999REMMET045METAR SBUF 302300Z 10016KT CAVOK 30/20 Q1010;
0178829860999992007120100004-09400-038217FM-12+0269SBUF V02099999999992200019N0020001N1+02771+01971100871ADDGA1001+999999999GF100991001001999999001001KA1240M+03591MA1999999098061MD1999999-0031REMSYN082AAXX  01004 82986 32995 0//// 10277 20197 39806 40087 333 10359 29054 55097 59003;
0120829860999992007120111004-09400-038217FM-15+0269SBUF V0201101N004612200019N0112651N1+02801+02101999999ADDGA1041+005401999GF104991999999999999999999MA1101391999999REMMET051METAR SBUF 011100Z 11009KT 9999 SCT018 28/21 Q1014;
0229829860999992007120112004-09400-038217SY-MT+0269SBUF V0201001N005712200019N0200001N1+02681+01701101231ADDGA1041+006001999GF106991041041008001031001KA1240N+02181MA1101391098401MD1999999+0121REMSYN076AAXX  01124 82986 32598 6//// 10268 20170 39840 40123 84430 333 20218 58012;MET051METAR SBUF 011200Z 10011KT 9999 SCT020 30/19 Q1014;
0120829860999992007120113004-09400-038217FM-15+0269SBUF V0201301N005712200019N0112651N1+03201+01801999999ADDGA1021+006001999GF102991999999999999999999MA1101391999999REMMET051METAR SBUF 011300Z 13011KT 9999 FEW020 32/18 Q1014;
0120829860999992007120114004-09400-038217FM-15+0269SBUF V0201201N004112200019N0112651N1+03401+01701999999ADDGA1021+006001999GF102991999999999999999999MA1101291999999REMMET051METAR SBUF 011400Z 12008KT 9999 FEW020 34/17 Q1013;
0072829860999992007120115004-09400-038217FM-15+0269SBUF V0201301N00511220001CN0099001N1+03501+01601999999ADDMA1101191999999REMMET045METAR SBUF 011500Z 13010KT CAVOK 35/16 Q1012;
0072829860999992007120116004-09400-038217FM-15+0269SBUF V0201401N00511220001CN0099001N1+03601+01501999999ADDMA1101081999999REMMET045METAR SBUF 011600Z 14010KT CAVOK 36/15 Q1011;
0072829860999992007120117004-09400-038217FM-15+0269SBUF V0201401N00461220001CN0099001N1+03701+01301999999ADDMA1101021999999REMMET045METAR SBUF 011700Z 14009KT CAVOK 37/13 Q1010;
0207829860999992007120118004-09400-038217SY-MT+0269SBUF V0201201N003612200019N0200001N1+03461+01551100721ADDGF103991001001999999001051MA1100911097921MD1999999+0161REMSYN070AAXX  01184 82986 32998 3//// 10346 20155 39792 40072 83005 333 58016;MET045METAR SBUF 011800Z 12007KT CAVOK 37/13 Q1009;EQDQ01+000032SCOTLC
0072829860999992007120119004-09400-038217FM-15+0269SBUF V0201001N00411220001CN0099001N1+03601+01301999999ADDMA1100911999999REMMET045METAR SBUF 011900Z 10008KT CAVOK 36/13 Q1009;
0072829860999992007120120004-09400-038217FM-15+0269SBUF V0201301N00261220001CN0099001N1+03501+01201999999ADDMA1100911999999REMMET045METAR SBUF 012000Z 13005KT CAVOK 35/12 Q1009;
0072829860999992007120121004-09400-038217FM-15+0269SBUF V0201201N00461220001CN0099001N1+03401+01401999999ADDMA1101021999999REMMET045METAR SBUF 012100Z 12009KT CAVOK 34/14 Q1010;
0072829860999992007120122004-09400-038217FM-15+0269SBUF V0201201N00261220001CN0099001N1+03201+01601999999ADDMA1101021999999REMMET045METAR SBUF 012200Z 12005KT CAVOK 32/16 Q1010;
0178829860999992007120200004-09400-038217FM-12+0269SBUF V02099999999992200019N0020001N1+02771+01771101051ADDGA1001+999999999GF100991001001999999001001KA1240M+03501MA1999999098251MD1999999+0191REMSYN082AAXX  02004 82986 32995 0//// 10277 20177 39825 40105 333 10350 29049 55110 58019;
0143829860999992007120211004-09400-038217FM-15+0269SBUF V0201101N006710048019N0112651N1+02801+02101999999ADDGA1071+004801999GA2071+021001999GF107991999999999999999999MA1101591999999REMMET058METAR SBUF 021100Z 11013KT 9999 BKN016 BKN070 28/21 Q1016;
0252829860999992007120212004-09400-038217SY-MT+0269SBUF V0201301N00511021001CN0100001N1+02721+01881101361ADDGA1041+005401999GA2041+021001999GF105991041021008001001011KA1240N+02221MA1101591098531MD1999999+0131REMSYN076AAXX  02124 82986 32597 5//// 10272 20188 39853 40136 84201 333 20222 58013;MET058METAR SBUF 021200Z 13010KT 9999 SCT018 SCT070 30/21 Q1016;
0143829860999992007120213004-09400-038217FM-15+0269SBUF V0201201N005712200019N0112651N1+03301+02001999999ADDGA1021+005401999GA2041+021001999GF104991999999999999999999MA1101491999999REMMET058METAR SBUF 021300Z 12011KT 9999 FEW018 SCT070 33/20 Q1015;
0143829860999992007120214004-09400-038217FM-15+0269SBUF V0201501N005712200019N0112651N1+03201+02001999999ADDGA1041+005401999GA2041+021001999GF104991999999999999999999MA1101391999999REMMET058METAR SBUF 021400Z 15011KT 9999 SCT018 SCT070 32/20 Q1014;
0143829860999992007120215004-09400-038217FM-15+0269SBUF V0201701N004612200019N0112651N1+03501+01701999999ADDGA1021+006001999GA2041+090001999GF104991999999999999999999MA1101291999999REMMET058METAR SBUF 021500Z 17009KT 9999 FEW020 SCT300 35/17 Q1013;
0143829860999992007120216004-09400-038217FM-15+0269SBUF V0201701N004612200019N0112651N1+03501+01701999999ADDGA1021+006001999GA2041+090001999GF104991999999999999999999MA1101291999999REMMET058METAR SBUF 021600Z 17009KT 9999 FEW020 SCT300 35/17 Q1013;
0143829860999992007120217004-09400-038217FM-15+0269SBUF V0201101N004610900019N0112651N1+03701+01501999999ADDGA1021+007501999GA2071+090001999GF107991999999999999999999MA1101081999999REMMET058METAR SBUF 021700Z 11009KT 9999 FEW025 BKN300 37/15 Q1011;
0252829860999992007120218004-09400-038217SY-MT+0269SBUF V0201401N00461090001CN0200001N1+03371+01461100871ADDGA1021+007501999GA2071+090001999GF199999021011008001001081MA1101081098061MD1999999+0141REMSYN070AAXX  02184 82986 32598 6//// 10337 20146 39806 40087 82108 333 58014;MET058METAR SBUF 021800Z 14009KT 9999 FEW025 BKN300 36/15 Q1011;EQDQ01+000062SCOTCV
0143829860999992007120219004-09400-038217FM-15+0269SBUF V0201301N003610900019N0112651N1+03601+01401999999ADDGA1021+007501999GA2071+090001999GF107991999999999999999999MA1101081999999REMMET058METAR SBUF 021900Z 13007KT 9999 FEW025 BKN300 36/14 Q1011;
0143829860999992007120220004-09400-038217FM-15+0269SBUF V0201301N005110900019N0112651N1+03501+01601999999ADDGA1021+007501999GA2071+090001999GF107991999999999999999999MA1101081999999REMMET058METAR SBUF 022000Z 13010KT 9999 FEW025 BKN300 35/16 Q1011;
0143829860999992007120221004-09400-038217FM-15+0269SBUF V0201201N004612200019N0112651N1+03401+01701999999ADDGA1021+007501999GA2041+090001999GF104991999999999999999999MA1101081999999REMMET058METAR SBUF 022100Z 12009KT 9999 FEW025 SCT300 34/17 Q1011;
0143829860999992007120222004-09400-038217FM-15+0269SBUF V0201301N007212200019N0112651N1+03101+01901999999ADDGA1021+006001999GA2041+030001999GF104991999999999999999999MA1101191999999REMMET058METAR SBUF 022200Z 13014KT 9999 FEW020 SCT100 31/19 Q1012;
0178829860999992007120300004-09400-038217FM-12+0269SBUF V02099999999992200019N0020001N1+02661+02001101191ADDGA1001+999999999GF100991001001999999001001KA1240M+03421MA1999999098361MD1999999+0111REMSYN082AAXX  03004 82986 32995 0//// 10266 20200 39836 40119 333 10342 29056 55100 58011;
0091829860999992007120310164-09400-038217FM-16+0269SBUF V0201301N004112200019N0112651N1+02601+02501999999ADDMA1101501999999REMMET064METAR SBUF 031016Z SPECI 13008KT 9999 FEW017 BKN080 26/25 Q1015;
0143829860999992007120311004-09400-038217FM-15+0269SBUF V0201101N004110270019N0112651N1+02801+02401999999ADDGA1041+005401999GA2071+027001999GF107991999999999999999999MA1101491999999REMMET058METAR SBUF 031100Z 11008KT 9999 SCT018 BKN090 28/24 Q1015;
0252829860999992007120312004-09400-038217SY-MT+0269SBUF V0201101N00461027001CN0100001N1+02721+01931101331ADDGA1041+005401999GA2041+027001999GF106991031041008001031011KA1240N+02271MA1101491098501MD1999999-0031REMSYN076AAXX  03124 82986 32597 6//// 10272 20193 39850 40133 83431 333 20227 59003;MET058METAR SBUF 031200Z 11009KT 9999 SCT018 SCT090 30/21 Q1015;
0120829860999992007120313004-09400-038217FM-15+0269SBUF V0201101N004612200019N0112651N1+03101+02101999999ADDGA1041+006001999GF104991999999999999999999MA1101491999999REMMET051METAR SBUF 031300Z 11009KT 9999 SCT020 31/21 Q1015;
0120829860999992007120314004-09400-038217FM-15+0269SBUF V0201601N002112200019N0112651N1+03101+01901999999ADDGA1041+006001999GF104991999999999999999999MA1101391999999REMMET051METAR SBUF 031400Z 16004KT 9999 SCT020 31/19 Q1014;
0120829860999992007120315004-09400-038217FM-15+0269SBUF V0201601N004112200019N0112651N1+03301+01701999999ADDGA1021+006001999GF102991999999999999999999MA1101191999999REMMET051METAR SBUF 031500Z 16008KT 9999 FEW020 33/17 Q1012;
0120829860999992007120316004-09400-038217FM-15+0269SBUF V0201301N003112200019N0112651N1+03401+01701999999ADDGA1021+007501999GF102991999999999999999999MA1101191999999REMMET051METAR SBUF 031600Z 13006KT 9999 FEW025 34/17 Q1012;
0120829860999992007120317004-09400-038217FM-15+0269SBUF V0201101N004112200019N0112651N1+03701+01801999999ADDGA1041+007501999GF104991999999999999999999MA1101021999999REMMET051METAR SBUF 031700Z 11008KT 9999 SCT025 37/18 Q1010;
0210829860999992007120318004-09400-038217SY-MT+0269SBUF V0200901N003612200019N0200001N1+03461+01781100781ADDGA1041+007501999GF104991021011008001001061MA1101021097981MD1999999-0061REMSYN070AAXX  03184 82986 32598 4//// 10346 20178 39798 40078 82106 333 59006;MET051METAR SBUF 031800Z 09007KT 9999 SCT025 37/18 Q1010;
0120829860999992007120319004-09400-038217FM-15+0269SBUF V0201201N005112200019N0112651N1+03701+01701999999ADDGA1041+007501999GF104991999999999999999999MA1101021999999REMMET051METAR SBUF 031900Z 12010KT 9999 SCT025 37/17 Q1010;
0120829860999992007120320004-09400-038217FM-15+0269SBUF V0201101N005112200019N0112651N1+03601+01701999999ADDGA1021+007501999GF102991999999999999999999MA1101021999999REMMET051METAR SBUF 032000Z 11010KT 9999 FEW025 36/17 Q1010;
0120829860999992007120321004-09400-038217FM-15+0269SBUF V0201301N003112200019N0112651N1+03401+01801999999ADDGA1021+007501999GF102991999999999999999999MA1101021999999REMMET051METAR SBUF 032100Z 13006KT 9999 FEW025 34/18 Q1010;
0072829860999992007120322004-09400-038217FM-15+0269SBUF V0201201N00721220001CN0099001N1+03101+01901999999ADDMA1101081999999REMMET045METAR SBUF 032200Z 12014KT CAVOK 31/19 Q1011;
0072829860999992007120323004-09400-038217FM-15+0269SBUF V0201201N00871220001CN0099001N1+02901+02101999999ADDMA1101191999999REMMET045METAR SBUF 032300Z 12017KT CAVOK 29/21 Q1012;
0178829860999992007120400004-09400-038217FM-12+0269SBUF V02099999999992200019N0020001N1+02701+01861101101ADDGA1001+999999999GF100991001001999999001001KA1240M+03471MA1999999098271MD1999999-0091REMSYN082AAXX  04004 82986 32995 0//// 10270 20186 39827 40110 333 10347 29055 55089 59009;
0120829860999992007120411004-09400-038217FM-15+0269SBUF V0201101N003112200019N0112651N1+02701+02401999999ADDGA1041+005401999GF104991999999999999999999MA1101391999999REMMET051METAR SBUF 041100Z 11006KT 9999 SCT018 27/24 Q1014;
0229829860999992007120412004-09400-038217SY-MT+0269SBUF V0201201N003112200019N0100001N1+02761+01941101201ADDGA1021+006001999GF104991041011008001001001KA1240N+02181MA1101391098371MD1999999-0131REMSYN076AAXX  04124 82986 32597 4//// 10276 20194 39837 40120 84100 333 20218 59013;MET051METAR SBUF 041200Z 12006KT 9999 FEW020 29/23 Q1014;
0072829860999992007120413004-09400-038217FM-15+0269SBUF V0201301N00411220001CN0099001N1+03201+02301999999ADDMA1101291999999REMMET045METAR SBUF 041300Z 13008KT CAVOK 32/23 Q1013;
0072829860999992007120414004-09400-038217FM-15+0269SBUF V0201301N00361220001CN0099001N1+03301+02001999999ADDMA1101191999999REMMET045METAR SBUF 041400Z 13007KT CAVOK 33/20 Q1012;
0120829860999992007120416004-09400-038217FM-15+0269SBUF V0201301N002112200019N0112651N1+03801+01601999999ADDGA1021+007501999GF102991999999999999999999MA1101021999999REMMET051METAR SBUF 041600Z 13004KT 9999 FEW025 38/16 Q1010;
0120829860999992007120417004-09400-038217FM-15+0269SBUF V0201701N001512200019N0112651N1+03601+01501999999ADDGA1021+007501999GF102991999999999999999999MA1100911999999REMMET051METAR SBUF 041700Z 17003KT 9999 FEW025 36/15 Q1009;
0210829860999992007120418004-09400-038217SY-MT+0269SBUF V0201501N001512200019N0200001N1+03631+01641100631ADDGA1021+007501999GF102991021011008001001001MA1100811097841MD1999999-0141REMSYN070AAXX  04184 82986 32598 2//// 10363 20164 39784 40063 82100 333 59014;MET051METAR SBUF 041800Z 15003KT 9999 FEW025 36/14 Q1008;
0120829860999992007120419004-09400-038217FM-15+0269SBUF V0201901N001512200019N0112651N1+03601+01301999999ADDGA1041+007501999GF104991999999999999999999MA1100811999999REMMET051METAR SBUF 041900Z 19003KT 9999 SCT025 36/13 Q1008;
0120829860999992007120421004-09400-038217FM-15+0269SBUF V0201401N002612200019N0112651N1+03401+01501999999ADDGA1021+007501999GF102991999999999999999999MA1100811999999REMMET051METAR SBUF 042100Z 14005KT 9999 FEW025 34/15 Q1008;
0120829860999992007120422004-09400-038217FM-15+0269SBUF V0201301N006212200019N0112651N1+03101+01801999999ADDGA1021+007501999GF102991999999999999999999MA1101021999999REMMET051METAR SBUF 042200Z 13012KT 9999 FEW025 31/18 Q1010;
0072829860999992007120423004-09400-038217FM-15+0269SBUF V0201201N00871220001CN0099001N1+02901+02201999999ADDMA1101081999999REMMET045METAR SBUF 042300Z 12017KT CAVOK 29/22 Q1011;
0098829860999992007120510154-09400-038217FM-16+0269SBUF V0201501N003112200019N0112651N1+02601+02501999999ADDMA1101501999999REMMET071METAR SBUF 051015Z SPECI 15006KT 9999 SCT016 SCT070 BKN300 26/25 Q1015;
0166829860999992007120511004-09400-038217FM-15+0269SBUF V0201601N00261021001CN0112651N1+02801+02501999999ADDGA1041+004801999GA2041+021001999GA3071+090001999GF107991999999999999999999MA1101591999999REMMET065METAR SBUF 051100Z 16005KT 9999 SCT016 SCT070 BKN300 28/25 Q1016;
0143829860999992007120512004-09400-038217FM-15+0269SBUF V0201701N004112200019N0112651N1+03001+02401999999ADDGA1041+005401999GA2041+090001999GF104991999999999999999999MA1101591999999REMMET058METAR SBUF 051200Z 17008KT 9999 SCT018 SCT300 30/24 Q1016;
0143829860999992007120513004-09400-038217FM-15+0269SBUF V0201401N003612200019N0112651N1+03101+02301999999ADDGA1041+005401999GA2041+090001999GF104991999999999999999999MA1101491999999REMMET058METAR SBUF 051300Z 14007KT 9999 SCT018 SCT300 31/23 Q1015;
0143829860999992007120514004-09400-038217FM-15+0269SBUF V0201901N002612200019N0112651N1+03201+01801999999ADDGA1021+006001999GA2041+090001999GF104991999999999999999999MA1101391999999REMMET058METAR SBUF 051400Z 19005KT 9999 FEW020 SCT300 32/18 Q1014;
0143829860999992007120515004-09400-038217FM-15+0269SBUF V0201601N002110900019N0112651N1+03301+01701999999ADDGA1021+006001999GA2071+090001999GF107991999999999999999999MA1101291999999REMMET058METAR SBUF 051500Z 16004KT 9999 FEW020 BKN300 33/17 Q1013;
0143829860999992007120516004-09400-038217FM-15+0269SBUF V0201301N002110900019N0112651N1+03401+01701999999ADDGA1021+006001999GA2071+090001999GF107991999999999999999999MA1101191999999REMMET058METAR SBUF 051600Z 13004KT 9999 FEW020 BKN300 34/17 Q1012;
0143829860999992007120517004-09400-038217FM-15+0269SBUF V0201801N001510900019N0112651N1+03601+01701999999ADDGA1021+007501999GA2071+090001999GF107991999999999999999999MA1101081999999REMMET058METAR SBUF 051700Z 18003KT 9999 FEW025 BKN300 36/17 Q1011;
0072829860999992007120520004-09400-038217FM-15+0269SBUF V0201201N00211220001CN0099001N1+03501+01701999999ADDMA1101021999999REMMET045METAR SBUF 052000Z 12004KT CAVOK 35/17 Q1010;
0072829860999992007120522004-09400-038217FM-15+0269SBUF V0201301N00931220001CN0099001N1+03201+01901999999ADDMA1101081999999REMMET045METAR SBUF 052200Z 13018KT CAVOK 32/19 Q1011;
0072829860999992007120523004-09400-038217FM-15+0269SBUF V0201301N00771220001CN0099001N1+03001+02401999999ADDMA1101191999999REMMET045METAR SBUF 052300Z 13015KT CAVOK 30/24 Q1012;
0178829860999992007120600004-09400-038217FM-12+0269SBUF V02099999999992200019N0020001N1+02741+02101100891ADDGA1001+999999999GF100991001001999999001001KA1240M+03501MA1999999098311MD1999999+0131REMSYN082AAXX  06004 82986 32995 0//// 10274 20210 39831 40089 333 10350 29060 55099 58013;
0143829860999992007120611004-09400-038217FM-15+0269SBUF V0200501N001510900019N0112651N1+02901+02501999999ADDGA1021+005401999GA2071+090001999GF107991999999999999999999MA1101591999999REMMET058METAR SBUF 061100Z 05003KT 9999 FEW018 BKN300 29/25 Q1016;
0280829860999992007120612004-09400-038217SY-MT+0269SBUF V0200401N00211090001CN0100001N1+02761+02161101421ADDAY141061AY211061GA1021+006001999GA2071+090001999GF107991031041008001001081KA1240N+02381MA1101591098591MD1999999+0051MW1051REMSYN082AAXX  06124 82986 31597 7//// 10276 20216 39859 40142 70541 83408 333 20238 58005;MET058METAR SBUF 061200Z 04004KT 9999 FEW020 BKN300 30/20 Q1016;
0143829860999992007120614004-09400-038217FM-15+0269SBUF V0201201N002610900019N0112651N1+03501+02101999999ADDGA1021+006001999GA2071+090001999GF107991999999999999999999MA1101391999999REMMET058METAR SBUF 061400Z 12005KT 9999 FEW020 BKN300 35/21 Q1014;
0143829860999992007120615004-09400-038217FM-15+0269SBUF V0201401N002610900019N0112651N1+03701+01701999999ADDGA1021+006001999GA2071+090001999GF107991999999999999999999MA1101291999999REMMET058METAR SBUF 061500Z 14005KT 9999 FEW020 BKN300 37/17 Q1013;
0143829860999992007120616004-09400-038217FM-15+0269SBUF V0201301N002110900019N0112651N1+03701+01701999999ADDGA1021+006001999GA2071+090001999GF107991999999999999999999MA1101081999999REMMET058METAR SBUF 061600Z 13004KT 9999 FEW020 BKN300 37/17 Q1011;
0143829860999992007120617004-09400-038217FM-15+0269SBUF V0201301N002610900019N0112651N1+03801+01701999999ADDGA1021+006001999GA2071+090001999GF107991999999999999999999MA1101021999999REMMET058METAR SBUF 061700Z 13005KT 9999 FEW020 BKN300 38/17 Q1010;
0233829860999992007120618004-09400-038217SY-MT+0269SBUF V0201401N003112200019N0200001N1+03561+01781100731ADDGA1021+006001999GA2071+090001999GF199999021011008001001081MA1100911097951MD1999999-0101REMSYN070AAXX  06184 82986 32598 4//// 10356 20178 39795 40073 82108 333 59010;MET058METAR SBUF 061800Z 14006KT 9999 FEW020 BKN300 38/17 Q1009;
0143829860999992007120619004-09400-038217FM-15+0269SBUF V0201101N004110900019N0112651N1+03601+01601999999ADDGA1021+007501999GA2071+090001999GF107991999999999999999999MA1100911999999REMMET058METAR SBUF 061900Z 11008KT 9999 FEW025 BKN300 36/16 Q1009;
0072829860999992007120620004-09400-038217FM-15+0269SBUF V0201101N00261220001CN0099001N1+03601+01601999999ADDMA1100911999999REMMET045METAR SBUF 062000Z 11005KT CAVOK 36/16 Q1009;
0072829860999992007120621004-09400-038217FM-15+0269SBUF V0201101N00361220001CN0099001N1+03501+01701999999ADDMA1100911999999REMMET045METAR SBUF 062100Z 11007KT CAVOK 35/17 Q1009;
0072829860999992007120622004-09400-038217FM-15+0269SBUF V0201201N00311220001CN0099001N1+03301+01501999999ADDMA1101021999999REMMET045METAR SBUF 062200Z 12006KT CAVOK 33/15 Q1010;
0072829860999992007120623004-09400-038217FM-15+0269SBUF V0201301N00821220001CN0099001N1+03101+02201999999ADDMA1101081999999REMMET045METAR SBUF 062300Z 13016KT CAVOK 31/22 Q1011;
0178829860999992007120700004-09400-038217FM-12+0269SBUF V02099999999992200019N0020001N1+02791+02041100961ADDGA1001+999999999GF100991001001999999001001KA1240M+03611MA1999999098151MD1999999-0161REMSYN082AAXX  07004 82986 32995 0//// 10279 20204 39815 40096 333 10361 29058 55101 59016;
0143829860999992007120711004-09400-038217FM-15+0269SBUF V0201701N001512200019N0112651N1+02801+02601999999ADDGA1021+004801999GA2041+021001999GF104991999999999999999999MA1101391999999REMMET058METAR SBUF 071100Z 17003KT 9999 FEW016 SCT070 28/26 Q1014;
0156829860999992007120712004-09400-038217FM-12+0269SBUF V02099999999992200019N0200001N1+02841+02141101191ADDGF103991011021008001051001KA1240N+02241MA1999999098371MD1999999-0221REMSYN076AAXX  07124 82986 32598 3//// 10284 20214 39837 40119 81250 333 20224 59022;
0143829860999992007120713004-09400-038217FM-15+0269SBUF V0201801N004112200019N0112651N1+03101+02401999999ADDGA1021+006001999GA2041+090001999GF104991999999999999999999MA1101291999999REMMET058METAR SBUF 071300Z 18008KT 9999 FEW020 SCT300 31/24 Q1013;
0120829860999992007120714004-09400-038217FM-15+0269SBUF V0200101N002112200019N0112651N1+03301+02101999999ADDGA1041+006001999GF104991999999999999999999MA1101191999999REMMET051METAR SBUF 071400Z 01004KT 9999 SCT020 33/21 Q1012;
0120829860999992007120715004-09400-038217FM-15+0269SBUF V0200601N002612200019N0112651N1+03401+02101999999ADDGA1041+007501999GF104991999999999999999999MA1101081999999REMMET051METAR SBUF 071500Z 06005KT 9999 SCT025 34/21 Q1011;
0120829860999992007120716004-09400-038217FM-15+0269SBUF V0201701N001512200019N0112651N1+03501+01901999999ADDGA1021+007501999GF102991999999999999999999MA1101021999999REMMET051METAR SBUF 071600Z 17003KT 9999 FEW025 35/19 Q1010;
0120829860999992007120717004-09400-038217FM-15+0269SBUF V0201001N001012200019N0112651N1+03701+01701999999ADDGA1021+007501999GF102991999999999999999999MA1100911999999REMMET051METAR SBUF 071700Z 10002KT 9999 FEW025 37/17 Q1009;
0137829860999992007120718004-09400-038217FM-12+0269SBUF V02099999999992200019N0200001N1+03671+02001100581ADDGF103991031011008001001001MA1999999097801MD1999999-0151REMSYN070AAXX  07184 82986 32598 3//// 10367 20200 39780 40058 83100 333 59015;
0120829860999992007120719004-09400-038217FM-15+0269SBUF V0201201N002112200019N0112651N1+03701+01301999999ADDGA1021+007501999GF102991999999999999999999MA1100711999999REMMET051METAR SBUF 071900Z 12004KT 9999 FEW025 37/13 Q1007;
0120829860999992007120721004-09400-038217FM-15+0269SBUF V0201001N002612200019N0112651N1+03501+01501999999ADDGA1021+007501999GF102991999999999999999999MA1100811999999REMMET051METAR SBUF 072100Z 10005KT 9999 FEW025 35/15 Q1008;
0120829860999992007120722004-09400-038217FM-15+0269SBUF V0201201N002612200019N0112651N1+03401+01601999999ADDGA1021+007501999GF102991999999999999999999MA1100811999999REMMET051METAR SBUF 072200Z 12005KT 9999 FEW025 34/16 Q1008;
0072829860999992007120723004-09400-038217FM-15+0269SBUF V0201301N00621220001CN0099001N1+03101+02101999999ADDMA1100911999999REMMET045METAR SBUF 072300Z 13012KT CAVOK 31/21 Q1009;
0178829860999992007120800004-09400-038217FM-12+0269SBUF V02099999999992200019N0020001N1+02911+02101100851ADDGA1001+999999999GF100991001001999999001001KA1240M+03701MA1999999098051MD1999999-0101REMSYN082AAXX  08004 82986 32995 0//// 10291 20210 39805 40085 333 10370 29057 55109 59010;
0072829860999992007120811004-09400-038217FM-15+0269SBUF V0200401N00211220001CN0099001N1+02901+02001999999ADDMA1101191999999REMMET045METAR SBUF 081100Z 04004KT CAVOK 29/20 Q1012;
0072829860999992007120812004-09400-038217FM-15+0269SBUF V0200101N00261220001CN0099001N1+03001+01901999999ADDMA1101191999999REMMET045METAR SBUF 081200Z 01005KT CAVOK 30/19 Q1012;
0072829860999992007120813004-09400-038217FM-15+0269SBUF V0200301N00151220001CN0099001N1+03201+02001999999ADDMA1101081999999REMMET045METAR SBUF 081300Z 03003KT CAVOK 32/20 Q1011;
0143829860999992007120814004-09400-038217FM-15+0269SBUF V0200201N003110900019N0112651N1+03401+01901999999ADDGA1021+007501999GA2071+090001999GF107991999999999999999999MA1101081999999REMMET058METAR SBUF 081400Z 02006KT 9999 FEW025 BKN300 34/19 Q1011;
0143829860999992007120815004-09400-038217FM-15+0269SBUF V0200201N001510900019N0112651N1+03501+01801999999ADDGA1041+007501999GA2071+090001999GF107991999999999999999999MA1101021999999REMMET058METAR SBUF 081500Z 02003KT 9999 SCT025 BKN300 35/18 Q1010;
0143829860999992007120816004-09400-038217FM-15+0269SBUF V0201701N001012200019N0112651N1+03601+01801999999ADDGA1041+007501999GA2041+090001999GF104991999999999999999999MA1100911999999REMMET058METAR SBUF 081600Z 17002KT 9999 SCT025 SCT300 36/18 Q1009;
0143829860999992007120817004-09400-038217FM-15+0269SBUF V0201601N002610900019N0112651N1+03701+01501999999ADDGA1021+007501999GA2071+090001999GF107991999999999999999999MA1100811999999REMMET058METAR SBUF 081700Z 16005KT 9999 FEW025 BKN300 37/15 Q1008;
0252829860999992007120818004-09400-038217SY-MT+0269SBUF V0201301N00151090001CN0200001N1+03611+01861100471ADDGA1021+007501999GA2071+090001999GF199999041021008001001081MA1100711097691MD1999999-0111REMSYN070AAXX  08184 82986 32598 6//// 10361 20186 39769 40047 84208 333 59011;MET058METAR SBUF 081800Z 13003KT 9999 FEW025 BKN300 36/15 Q1007;EQDQ01+000062SCOTCV
0143829860999992007120819004-09400-038217FM-15+0269SBUF V0201101N002610900019N0112651N1+03501+01601999999ADDGA1021+007501999GA2071+090001999GF107991999999999999999999MA1100711999999REMMET058METAR SBUF 081900Z 11005KT 9999 FEW025 BKN300 35/16 Q1007;
0143829860999992007120820004-09400-038217FM-15+0269SBUF V0201201N002610900019N0112651N1+03601+01301999999ADDGA1021+007501999GA2071+090001999GF107991999999999999999999MA1100711999999REMMET058METAR SBUF 082000Z 12005KT 9999 FEW025 BKN300 36/13 Q1007;
0072829860999992007120821004-09400-038217FM-15+0269SBUF V0201301N00361220001CN0099001N1+03501+01401999999ADDMA1100711999999REMMET045METAR SBUF 082100Z 13007KT CAVOK 35/14 Q1007;
0072829860999992007120822004-09400-038217FM-15+0269SBUF V0201301N00571220001CN0099001N1+03301+01701999999ADDMA1100811999999REMMET045METAR SBUF 082200Z 13011KT CAVOK 33/17 Q1008;
0168829860999992007120900004-09400-038217FM-12+0269SBUF V02099999999991050019N0020001N1+02861+02161100951ADDGF106991041021008001001081KA1240M+03641MA1999999098151MD1999999+0101REMSYN088AAXX  09004 82986 32595 6//// 10286 20216 39815 40095 84208 333 10364 29055 55101 58010;
0166829860999992007120911004-09400-038217FM-15+0269SBUF V0201201N00311021001CN0112651N1+02901+02301999999ADDGA1021+004801999GA2041+021001999GA3071+090001999GF107991999999999999999999MA1101491999999REMMET065METAR SBUF 091100Z 12006KT 9999 FEW016 SCT070 BKN300 29/23 Q1015;
0294829860999992007120912004-09400-038217SY-MT+0269SBUF V0201401N00411021001CN0100001N1+02791+02041101201ADDGA1021+005401999GA2041+021001999GA3071+090001999GF199999031021008001001081KA1240N+02411MA1101391098401MD1999999+0201REMSYN076AAXX  09124 82986 32597 6//// 10279 20204 39840 40120 83208 333 20241 58020;MET065METAR SBUF 091200Z 14008KT 9999 FEW018 SCT070 BKN300 30/22 Q1014;EQDQ01+000062SCOTCV
0166829860999992007120913004-09400-038217FM-15+0269SBUF V0201201N00261021001CN0112651N1+03201+02201999999ADDGA1021+005401999GA2041+021001999GA3071+090001999GF107991999999999999999999MA1101391999999REMMET065METAR SBUF 091300Z 12005KT 9999 FEW018 SCT070 BKN300 32/22 Q1014;
0166829860999992007120914004-09400-038217FM-15+0269SBUF V0201401N00461021001CN0112651N1+03301+02201999999ADDGA1021+005401999GA2041+021001999GA3071+090001999GF107991999999999999999999MA1101291999999REMMET065METAR SBUF 091400Z 14009KT 9999 FEW018 SCT070 BKN300 33/22 Q1013;
0166829860999992007120915004-09400-038217FM-15+0269SBUF V0201501N00511021001CN0112651N1+03501+02101999999ADDGA1021+006001999GA2041+021001999GA3071+090001999GF107991999999999999999999MA1101191999999REMMET065METAR SBUF 091500Z 15010KT 9999 FEW020 SCT070 BKN300 35/21 Q1012;
0166829860999992007120916004-09400-038217FM-15+0269SBUF V0201501N00361021001CN0112651N1+03501+02001999999ADDGA1021+006001999GA2041+021001999GA3071+090001999GF107991999999999999999999MA1101081999999REMMET065METAR SBUF 091600Z 15007KT 9999 FEW020 SCT070 BKN300 35/20 Q1011;
0143829860999992007120917004-09400-038217FM-15+0269SBUF V0201601N004110900019N0112651N1+03501+01601999999ADDGA1041+006001999GA2071+090001999GF107991999999999999999999MA1101081999999REMMET058METAR SBUF 091700Z 16008KT 9999 SCT020 BKN300 35/16 Q1011;
0252829860999992007120918004-09400-038217SY-MT+0269SBUF V0201401N00361090001CN0200001N1+03431+01781100721ADDGA1021+006001999GA2071+090001999GF199999031021008001001081MA1101021097931MD1999999+0241REMSYN070AAXX  09184 82986 32598 5//// 10343 20178 39793 40072 83208 333 58024;MET058METAR SBUF 091800Z 14007KT 9999 FEW020 BKN300 35/15 Q1010;EQDQ01+000052SCOTCV
0143829860999992007120919004-09400-038217FM-15+0269SBUF V0201301N003112200019N0112651N1+03601+01401999999ADDGA1021+006001999GA2041+090001999GF104991999999999999999999MA1100911999999REMMET058METAR SBUF 091900Z 13006KT 9999 FEW020 SCT300 36/14 Q1009;
0143829860999992007120920004-09400-038217FM-15+0269SBUF V0201301N004112200019N0112651N1+03501+01401999999ADDGA1021+006001999GA2041+090001999GF104991999999999999999999MA1100911999999REMMET058METAR SBUF 092000Z 13008KT 9999 FEW020 SCT300 35/14 Q1009;
0072829860999992007120921004-09400-038217FM-15+0269SBUF V0201301N00771220001CN0099001N1+03001+02001999999ADDMA1101021999999REMMET045METAR SBUF 092100Z 13015KT CAVOK 30/20 Q1010;
0072829860999992007120922004-09400-038217FM-15+0269SBUF V0201401N01031220001CN0099001N1+03001+02301999999ADDMA1101081999999REMMET045METAR SBUF 092200Z 14020KT CAVOK 30/23 Q1011;
0166829860999992007121011004-09400-038217FM-15+0269SBUF V0201301N003610048019N0112651N1+02701+02401999999ADDGA1071+004801999GA2071+021001999GA3071+090001999GF107991999999999999999999MA1101491999999REMMET065METAR SBUF 101100Z 13007KT 9999 BKN016 BKN070 BKN300 27/24 Q1015;
0166829860999992007121012004-09400-038217FM-15+0269SBUF V0201301N002610054019N0112651N1+02901+02201999999ADDGA1071+005401999GA2071+021001999GA3071+090001999GF107991999999999999999999MA1101491999999REMMET065METAR SBUF 101200Z 13005KT 9999 BKN018 BKN070 BKN300 29/22 Q1015;
0143829860999992007121013004-09400-038217FM-15+0269SBUF V0201201N005110900019N0112651N1+03201+02001999999ADDGA1041+006001999GA2071+090001999GF107991999999999999999999MA1101391999999REMMET058METAR SBUF 101300Z 12010KT 9999 SCT020 BKN300 32/20 Q1014;
0143829860999992007121014004-09400-038217FM-15+0269SBUF V0201101N003110900019N0112651N1+03101+01701999999ADDGA1041+006001999GA2071+090001999GF107991999999999999999999MA1101391999999REMMET058METAR SBUF 101400Z 11006KT 9999 SCT020 BKN300 31/17 Q1014;
0143829860999992007121015004-09400-038217FM-15+0269SBUF V0201201N004110900019N0112651N1+03201+01601999999ADDGA1041+006001999GA2071+090001999GF107991999999999999999999MA1101291999999REMMET058METAR SBUF 101500Z 12008KT 9999 SCT020 BKN300 32/16 Q1013;
0143829860999992007121017004-09400-038217FM-15+0269SBUF V0201301N004610240019N0112651N1+03501+01901999999ADDGA1021+006001999GA2071+024001999GF107991999999999999999999MA1101191999999REMMET058METAR SBUF 101700Z 13009KT 9999 FEW020 BKN080 35/19 Q1012;
0137829860999992007121018004-09400-038217FM-12+0269SBUF V02099999999990450019N0200001N1+03221+01771100971ADDGF107991021021008001071999MA1999999098151MD1999999+0221REMSYN070AAXX  10184 82986 32598 7//// 10322 20177 39815 40097 8227/ 333 58022;
0143829860999992007121019004-09400-038217FM-15+0269SBUF V0201201N001510210019N0112651N1+03301+01801999999ADDGA1021+007501999GA2071+021001999GF107991999999999999999999MA1101081999999REMMET058METAR SBUF 101900Z 12003KT 9999 FEW025 BKN070 33/18 Q1011;
0072829860999992007121021004-09400-038217FM-15+0269SBUF V0201301N00411220001CN0099001N1+03201+01601999999ADDMA1101081999999REMMET045METAR SBUF 102100Z 13008KT CAVOK 32/16 Q1011;
0072829860999992007121022004-09400-038217FM-15+0269SBUF V0201301N00771220001CN0099001N1+03001+02001999999ADDMA1101191999999REMMET045METAR SBUF 102200Z 13015KT CAVOK 30/20 Q1012;
0072829860999992007121023004-09400-038217FM-15+0269SBUF V0201201N00871220001CN0099001N1+02901+02001999999ADDMA1101291999999REMMET045METAR SBUF 102300Z 12017KT CAVOK 29/20 Q1013;
0178829860999992007121100004-09400-038217FM-12+0269SBUF V02099999999992200019N0020001N1+02681+01841101201ADDGA1001+999999999GF100991001001999999001001KA1240M+03311MA1999999098371MD1999999+0141REMSYN082AAXX  11004 82986 32995 0//// 10268 20184 39837 40120 333 10331 29054 55057 58014;
0143829860999992007121111004-09400-038217FM-15+0269SBUF V0201101N005110210019N0112651N1+02701+02401999999ADDGA1041+005401999GA2071+021001999GF107991999999999999999999MA1101491999999REMMET058METAR SBUF 111100Z 11010KT 9999 SCT018 BKN070 27/24 Q1015;
0264829860999992007121112004-09400-038217SY-MT+0269SBUF V0201301N00671006001CN0100001N1+02681+01941101291ADDGA1071+006001999GF199999061021008001001001KA1240N+02221MA1101491999999MD1999999+0011REMSYN076AAXX  11124 82986 32597 6//// 10268 20194 39146 40129 86200 333 20222 58001;MET051METAR SBUF 111200Z 13013KT 9999 BKN020 30/22 Q1015;EQDQ01+000062SCOTCVQ02 091463APOSP 
0120829860999992007121115004-09400-038217FM-15+0269SBUF V0201401N005110060019N0112651N1+03201+01801999999ADDGA1071+006001999GF107991999999999999999999MA1101291999999REMMET051METAR SBUF 111500Z 14010KT 9999 BKN020 32/18 Q1013;
0120829860999992007121116004-09400-038217FM-15+0269SBUF V0201301N004110075019N0112651N1+03301+01701999999ADDGA1071+007501999GF107991999999999999999999MA1101191999999REMMET051METAR SBUF 111600Z 13008KT 9999 BKN025 33/17 Q1012;
0120829860999992007121117004-09400-038217FM-15+0269SBUF V0201201N005710075019N0112651N1+03401+01701999999ADDGA1071+007501999GF107991999999999999999999MA1101081999999REMMET051METAR SBUF 111700Z 12011KT 9999 BKN025 34/17 Q1011;
0229829860999992007121118004-09400-038217SY-MT+0269SBUF V0201101N005710075019N0200001N1+03351+01671100791ADDGA1041+007501999GF105991051011008001001001MA1101021097982MD1999999-0071REMSYN070AAXX  11184 82986 32598 5//// 10335 20167 39798 40079 85100 333 59007;MET051METAR SBUF 111800Z 11011KT 9999 SCT025 35/16 Q1010;EQDQ01+097983APOSP 
0120829860999992007121119004-09400-038217FM-15+0269SBUF V0201401N004612200019N0112651N1+03401+01601999999ADDGA1021+007501999GF102991999999999999999999MA1100911999999REMMET051METAR SBUF 111900Z 14009KT 9999 FEW025 34/16 Q1009;
0120829860999992007121120004-09400-038217FM-15+0269SBUF V0201501N007712200019N0112651N1+03301+01601999999ADDGA1021+007501999GF102991999999999999999999MA1101021999999REMMET051METAR SBUF 112000Z 15015KT 9999 FEW025 33/16 Q1010;
0120829860999992007121121004-09400-038217FM-15+0269SBUF V0201401N008212200019N0112651N1+03201+01801999999ADDGA1021+006001999GF102991999999999999999999MA1101081999999REMMET051METAR SBUF 112100Z 14016KT 9999 FEW020 32/18 Q1011;
0072829860999992007121122004-09400-038217FM-15+0269SBUF V0201301N00931220001CN0099001N1+02901+01701999999ADDMA1101191999999REMMET045METAR SBUF 112200Z 13018KT CAVOK 29/17 Q1012;
0072829860999992007121123004-09400-038217FM-15+0269SBUF V0201301N00821220001CN0099001N1+02801+01801999999ADDMA1101291999999REMMET045METAR SBUF 112300Z 13016KT CAVOK 28/18 Q1013;
0213829860999992007121200004-09400-038217SY-MT+0269SBUF V0201301N007712200019N0020001N1+02581+01641101201ADDGF100991001001999999001001KA1240M+03411MA1101391098361MD1999999-0011REMSYN082AAXX  12004 82986 32995 0//// 10258 20164 39836 40120 333 10341 29053 55108 59001;MET045METAR SBUF 120000Z 13015KT CAVOK 27/20 Q1014;
0072829860999992007121201004-09400-038217FM-15+0269SBUF V0201401N00511220001CN0099001N1+02601+02101999999ADDMA1101491999999REMMET045METAR SBUF 120100Z 14010KT CAVOK 26/21 Q1015;
0120829860999992007121211004-09400-038217FM-15+0269SBUF V0201301N004110051019N0112651N1+02601+02401999999ADDGA1071+005101999GF107991999999999999999999MA1101491999999REMMET051METAR SBUF 121100Z 13008KT 9999 BKN017 26/24 Q1015;
0248829860999992007121212004-09400-038217SY-MT+0269SBUF V0201301N00361005401CN0200001N1+02641+01881101251ADDGA1071+005401999GF199999061021008001001001KA1240N+02141MA1101491098411MD1999999-0051REMSYN076AAXX  12124 82986 32598 6//// 10264 20188 39841 40125 86200 333 20214 59005;MET051METAR SBUF 121200Z 13007KT 9999 BKN018 29/22 Q1015;EQDQ01+000062SCOTCV
0120829860999992007121213004-09400-038217FM-15+0269SBUF V0201201N003112200019N0112651N1+02901+02001999999ADDGA1041+006001999GF104991999999999999999999MA1101391999999REMMET051METAR SBUF 121300Z 12006KT 9999 SCT020 29/20 Q1014;
0120829860999992007121215004-09400-038217FM-15+0269SBUF V0201301N003112200019N0112651N1+03101+01801999999ADDGA1041+007501999GF104991999999999999999999MA1101191999999REMMET051METAR SBUF 121500Z 13006KT 9999 SCT025 31/18 Q1012;
0120829860999992007121216004-09400-038217FM-15+0269SBUF V0201201N006210075019N0112651N1+03201+01701999999ADDGA1071+007501999GF107991999999999999999999MA1101081999999REMMET051METAR SBUF 121600Z 12012KT 9999 BKN025 32/17 Q1011;
0210829860999992007121218004-09400-038217SY-MT+0269SBUF V0201301N00411007501CN0100001N1+03061+01931100881ADDGA1071+007501999GF107991031041008001071999MA1101021098051MD1999999+0071REMSYN070AAXX  12184 82986 32597 7//// 10306 20193 39805 40088 8347/ 333 58007;MET051METAR SBUF 121800Z 13008KT 9999 BKN025 33/18 Q1010;
0120829860999992007121219004-09400-038217FM-15+0269SBUF V0201401N005110075019N0112651N1+03101+01801999999ADDGA1071+007501999GF107991999999999999999999MA1101021999999REMMET051METAR SBUF 121900Z 14010KT 9999 BKN025 31/18 Q1010;
0120829860999992007121220004-09400-038217FM-15+0269SBUF V0201201N006210075019N0112651N1+02901+01701999999ADDGA1071+007501999GF107991999999999999999999MA1101081999999REMMET051METAR SBUF 122000Z 12012KT 9999 BKN025 29/17 Q1011;
0120829860999992007121221004-09400-038217FM-15+0269SBUF V0201401N007210060019N0112651N1+02801+01801999999ADDGA1071+006001999GF107991999999999999999999MA1101081999999REMMET051METAR SBUF 122100Z 14014KT 9999 BKN020 28/18 Q1011;
0120829860999992007121222004-09400-038217FM-15+0269SBUF V0201201N007710060019N0112651N1+02701+02001999999ADDGA1071+006001999GF107991999999999999999999MA1101191999999REMMET051METAR SBUF 122200Z 12015KT 9999 BKN020 27/20 Q1012;
0120829860999992007121223004-09400-038217FM-15+0269SBUF V0201101N005712200019N0112651N1+02701+02201999999ADDGA1041+006001999GF104991999999999999999999MA1101291999999REMMET051METAR SBUF 122300Z 11011KT 9999 SCT020 27/22 Q1013;
0178829860999992007121300004-09400-038217FM-12+0269SBUF V02099999999992200019N0020001N1+02471+01971101151ADDGA1001+999999999GF100991001001999999001001KA1240M+03201MA1999999098301MD1999999-0061REMSYN082AAXX  13004 82986 32995 0//// 10247 20197 39830 40115 333 10320 29066 55073 59006;
0143829860999992007121311004-09400-038217FM-15+0269SBUF V0201101N003612200019N0112651N1+02801+02101999999ADDGA1021+005401999GA2041+021001999GF104991999999999999999999MA1101391999999REMMET058METAR SBUF 131100Z 11007KT 9999 FEW018 SCT070 28/21 Q1014;
0156829860999992007121312004-09400-038217FM-12+0269SBUF V02099999999992200019N0200001N1+02721+01711101171ADDGF103991011011008001031001KA1240N+02181MA1999999098331MD1999999-0081REMSYN076AAXX  13124 82986 32598 3//// 10272 20171 39833 40117 81130 333 20218 59008;
0120829860999992007121313004-09400-038217FM-15+0269SBUF V0201401N005112200019N0112651N1+03001+01601999999ADDGA1021+006001999GF102991999999999999999999MA1101291999999REMMET051METAR SBUF 131300Z 14010KT 9999 FEW020 30/16 Q1013;
0120829860999992007121314004-09400-038217FM-15+0269SBUF V0201101N005112200019N0112651N1+03201+01501999999ADDGA1021+006001999GF102991999999999999999999MA1101291999999REMMET051METAR SBUF 131400Z 11010KT 9999 FEW020 32/15 Q1013;
0120829860999992007121315004-09400-038217FM-15+0269SBUF V0201201N002612200019N0112651N1+03301+01401999999ADDGA1021+006001999GF102991999999999999999999MA1101191999999REMMET051METAR SBUF 131500Z 12005KT 9999 FEW020 33/14 Q1012;
0120829860999992007121316004-09400-038217FM-15+0269SBUF V0201601N003612200019N0112651N1+03401+01101999999ADDGA1041+006001999GF104991999999999999999999MA1101081999999REMMET051METAR SBUF 131600Z 16007KT 9999 SCT020 34/11 Q1011;
0143829860999992007121317004-09400-038217FM-15+0269SBUF V0201501N003112200019N0112651N1+03501+01201999999ADDGA1021+007501999GA2041+090001999GF104991999999999999999999MA1101021999999REMMET058METAR SBUF 131700Z 15006KT 9999 FEW025 SCT300 35/12 Q1010;
0252829860999992007121318004-09400-038217SY-MT+0269SBUF V0201301N001012200019N0200001N1+03361+01511100721ADDGA1021+007501999GA2041+090001999GF199999021011008001001021MA1100911097921MD1999999-0131REMSYN070AAXX  13184 82986 32598 3//// 10336 20151 39792 40072 82102 333 59013;MET058METAR SBUF 131800Z 13002KT 9999 FEW025 SCT300 35/11 Q1009;EQDQ01+000032SCOTCV
0143829860999992007121319004-09400-038217FM-15+0269SBUF V0201701N003112200019N0112651N1+03401+01401999999ADDGA1021+007501999GA2041+090001999GF104991999999999999999999MA1100911999999REMMET058METAR SBUF 131900Z 17006KT 9999 FEW025 SCT300 34/14 Q1009;
0143829860999992007121320004-09400-038217FM-15+0269SBUF V0201301N005712200019N0112651N1+03201+01601999999ADDGA1021+007501999GA2041+090001999GF104991999999999999999999MA1100911999999REMMET058METAR SBUF 132000Z 13011KT 9999 FEW025 SCT300 32/16 Q1009;
0072829860999992007121321004-09400-038217FM-15+0269SBUF V0201301N00361220001CN0099001N1+03101+01701999999ADDMA1101021999999REMMET045METAR SBUF 132100Z 13007KT CAVOK 31/17 Q1010;
0072829860999992007121322004-09400-038217FM-15+0269SBUF V0201201N00311220001CN0099001N1+03001+01701999999ADDMA1101021999999REMMET045METAR SBUF 132200Z 12006KT CAVOK 30/17 Q1010;
0072829860999992007121323004-09400-038217FM-15+0269SBUF V0201301N00571220001CN0099001N1+03001+01601999999ADDMA1101081999999REMMET045METAR SBUF 132300Z 13011KT CAVOK 30/16 Q1011;
0178829860999992007121400004-09400-038217FM-12+0269SBUF V02099999999992200019N0020001N1+02791+01671101001ADDGA1001+999999999GF100991001001999999001001KA1240M+03421MA1999999098181MD1999999-0121REMSYN082AAXX  14004 82986 32995 0//// 10279 20167 39818 40100 333 10342 29047 55091 59012;
0120829860999992007121411004-09400-038217FM-15+0269SBUF V0201401N002112200019N0112651N1+02801+02401999999ADDGA1021+006001999GF102991999999999999999999MA1101391999999REMMET051METAR SBUF 141100Z 14004KT 9999 FEW020 28/24 Q1014;
0248829860999992007121412004-09400-038217SY-MT+0269SBUF V0201901N002612200019N0200001N1+02731+02101101181ADDGA1021+007501999GF199999011011008001001001KA1240N+02171MA1101391098351MD1999999+0021REMSYN076AAXX  14124 82986 32598 1//// 10273 20210 39835 40118 81100 333 20217 58002;MET051METAR SBUF 141200Z 19005KT 9999 FEW025 30/20 Q1014;EQDQ01+000012SCOTCV
0120829860999992007121413004-09400-038217FM-15+0269SBUF V0202101N002112200019N0112651N1+03001+01901999999ADDGA1021+007501999GF102991999999999999999999MA1101291999999REMMET051METAR SBUF 141300Z 21004KT 9999 FEW025 30/19 Q1013;
0120829860999992007121414004-09400-038217FM-15+0269SBUF V0201901N001512200019N0112651N1+03101+01801999999ADDGA1041+007501999GF104991999999999999999999MA1101191999999REMMET051METAR SBUF 141400Z 19003KT 9999 SCT025 31/18 Q1012;
0120829860999992007121415004-09400-038217FM-15+0269SBUF V0201701N002612200019N0112651N1+03401+01601999999ADDGA1041+007501999GF104991999999999999999999MA1101081999999REMMET051METAR SBUF 141500Z 17005KT 9999 SCT025 34/16 Q1011;
0120829860999992007121416004-09400-038217FM-15+0269SBUF V0202201N002112200019N0112651N1+03401+01501999999ADDGA1041+007501999GF104991999999999999999999MA1101021999999REMMET051METAR SBUF 141600Z 22004KT 9999 SCT025 34/15 Q1010;
0120829860999992007121417004-09400-038217FM-15+0269SBUF V0209999C000012200019N0112651N1+03601+01401999999ADDGA1041+007501999GF104991999999999999999999MA1100911999999REMMET051METAR SBUF 141700Z 00000KT 9999 SCT025 36/14 Q1009;
0210829860999992007121418004-09400-038217SY-MT+0269SBUF V0201801N003112200019N0200001N1+03591+01651100641ADDGA1041+007501999GF104991041011008001001001MA1100811097851MD1999999-0071REMSYN070AAXX  14184 82986 32598 4//// 10359 20165 39785 40064 84100 333 59007;MET051METAR SBUF 141800Z 18006KT 9999 SCT025 37/14 Q1008;
0143829860999992007121419004-09400-038217FM-15+0269SBUF V0202001N002112200019N0112651N1+03701+01401999999ADDGA1041+007501999GA2041+090001999GF104991999999999999999999MA1100811999999REMMET058METAR SBUF 141900Z 20004KT 9999 SCT025 SCT300 37/14 Q1008;
0143829860999992007121420004-09400-038217FM-15+0269SBUF V0203601N001512200019N0112651N1+03601+01401999999ADDGA1041+007501999GA2041+090001999GF104991999999999999999999MA1100811999999REMMET058METAR SBUF 142000Z 36003KT 9999 SCT025 SCT300 36/14 Q1008;
0143829860999992007121421004-09400-038217FM-15+0269SBUF V0201101N003112200019N0112651N1+03401+01401999999ADDGA1041+007501999GA2041+090001999GF104991999999999999999999MA1100811999999REMMET058METAR SBUF 142100Z 11006KT 9999 SCT025 SCT300 34/14 Q1008;
0143829860999992007121422004-09400-038217FM-15+0269SBUF V0201101N008212200019N0112651N1+03101+02201999999ADDGA1021+006001999GA2041+090001999GF104991999999999999999999MA1100911999999REMMET058METAR SBUF 142200Z 11016KT 9999 FEW020 SCT300 31/22 Q1009;
0142829860999992007121423004-09400-038217FM-15+0269SBUF V0201401N008712200019N0112651N1+03201+02301999999ADDGA1021+006001999GA2041+090001999GF104991999999999999999999MA1101021999999REMMET057METAR SBUF 142300Z 14017KT 9999 FEW020 SCT300 0/23 Q1010;
0213829860999992007121500004-09400-038217SY-MT+0269SBUF V0201301N006212200019N0020001N1+02761+02071100911ADDGF100991001001999999001001KA1240M+03601MA1101081098091MD1999999-0091REMSYN082AAXX  15004 82986 32995 0//// 10276 20207 39809 40091 333 10360 29058 55105 59009;MET045METAR SBUF 150000Z 13012KT CAVOK 28/24 Q1011;
0072829860999992007121501004-09400-038217FM-15+0269SBUF V0201201N00621220001CN0099001N1+02701+02501999999ADDMA1101191999999REMMET045METAR SBUF 150100Z 12012KT CAVOK 27/25 Q1012;
0072829860999992007121511004-09400-038217FM-15+0269SBUF V0200801N00151220001CN0099001N1+02901+02401999999ADDMA1101191999999REMMET045METAR SBUF 151100Z 08003KT CAVOK 29/24 Q1012;
0207829860999992007121512004-09400-038217SY-MT+0269SBUF V0200701N001512200019N0200001N1+02891+02081100971ADDGF104991011011008001031011KA1240N+02351MA1101191098161MD1999999-0191REMSYN076AAXX  15124 82986 32598 4//// 10289 20208 39816 40097 81131 333 20235 59019;MET045METAR SBUF 151200Z 07003KT CAVOK 31/22 Q1012;
0072829860999992007121513004-09400-038217FM-15+0269SBUF V0201701N00261220001CN0099001N1+03301+02101999999ADDMA1101081999999REMMET045METAR SBUF 151300Z 17005KT CAVOK 33/21 Q1011;
0072829860999992007121514004-09400-038217FM-15+0269SBUF V0201701N00211220001CN0099001N1+03501+01901999999ADDMA1101021999999REMMET045METAR SBUF 151400Z 17004KT CAVOK 35/19 Q1010;
0143829860999992007121515004-09400-038217FM-15+0269SBUF V0201701N002112200019N0112651N1+03701+01801999999ADDGA1021+007501999GA2041+090001999GF104991999999999999999999MA1100911999999REMMET058METAR SBUF 151500Z 17004KT 9999 FEW025 SCT300 37/18 Q1009;
0143829860999992007121516004-09400-038217FM-15+0269SBUF V0201401N002612200019N0112651N1+03801+01801999999ADDGA1021+007501999GA2041+090001999GF104991999999999999999999MA1100811999999REMMET058METAR SBUF 151600Z 14005KT 9999 FEW025 SCT300 38/18 Q1008;
0143829860999992007121517004-09400-038217FM-15+0269SBUF V0201201N003112200019N0112651N1+03901+01701999999ADDGA1021+007501999GA2041+090001999GF104991999999999999999999MA1100711999999REMMET058METAR SBUF 151700Z 12006KT 9999 FEW025 SCT300 39/17 Q1007;
0233829860999992007121518004-09400-038217SY-MT+0269SBUF V0201001N00211090001CN0200001N1+03621+01961100351ADDGA1021+007501999GA2041+090001999GF105991041021008001001061MA1100511097581MD1999999-0271REMSYN070AAXX  15184 82986 32598 5//// 10362 20196 39758 40035 84206 333 59027;MET058METAR SBUF 151800Z 10004KT 9999 FEW025 SCT300 40/16 Q1005;
0143829860999992007121519004-09400-038217FM-15+0269SBUF V0201201N004110900019N0112651N1+04001+01601999999ADDGA1021+007501999GA2071+090001999GF107991999999999999999999MA1100511999999REMMET058METAR SBUF 151900Z 12008KT 9999 FEW025 BKN300 40/16 Q1005;
0143829860999992007121520004-09400-038217FM-15+0269SBUF V0201401N002610900019N0112651N1+03901+01701999999ADDGA1021+007501999GA2071+090001999GF107991999999999999999999MA1100511999999REMMET058METAR SBUF 152000Z 14005KT 9999 FEW025 BKN300 39/17 Q1005;
0143829860999992007121521004-09400-038217FM-15+0269SBUF V0201301N003610900019N0112651N1+03501+01601999999ADDGA1041+006001999GA2071+090001999GF107991999999999999999999MA1100511999999REMMET058METAR SBUF 152100Z 13007KT 9999 SCT020 BKN300 35/16 Q1005;
0072829860999992007121522004-09400-038217FM-15+0269SBUF V0201201N00411220001CN0099001N1+03401+01701999999ADDMA1100611999999REMMET045METAR SBUF 152200Z 12008KT CAVOK 34/17 Q1006;
0178829860999992007121600004-09400-038217FM-12+0269SBUF V02099999999992200019N0020001N1+02901+02121100601ADDGA1001+999999999GF100991001001999999001001KA1240M+03681MA1999999097811MD1999999-0181REMSYN082AAXX  16004 82986 32995 0//// 10290 20212 39781 40060 333 10368 29056 55105 59018;
0072829860999992007121611004-09400-038217FM-15+0269SBUF V0200201N00261220001CN0099001N1+03001+02201999999ADDMA1101021999999REMMET045METAR SBUF 161100Z 02005KT CAVOK 30/22 Q1010;
0226829860999992007121612004-09400-038217SY-MT+0269SBUF V0200401N003112200019N0200001N1+03061+02021100791ADDGF102991001001999999001061KA1240N+02381MA1101021098011MD1999999-0151REMSYN076AAXX  16124 82986 32598 2//// 10306 20202 39801 40079 80006 333 20238 59015;MET045METAR SBUF 161200Z 04006KT CAVOK 33/21 Q1010;EQDQ01+008002SCOLCB
0072829860999992007121613004-09400-038217FM-15+0269SBUF V0203401N00211220001CN0099001N1+03501+02001999999ADDMA1101021999999REMMET045METAR SBUF 161300Z 34004KT CAVOK 35/20 Q1010;
0143829860999992007121614004-09400-038217FM-15+0269SBUF V0203601N003610900019N0112651N1+03601+02001999999ADDGA1021+007501999GA2071+090001999GF107991999999999999999999MA1100911999999REMMET058METAR SBUF 161400Z 36007KT 9999 FEW025 BKN300 36/20 Q1009;
0166829860999992007121615004-09400-038217FM-15+0269SBUF V0203501N00151030001CN0112651N1+03701+01901999999ADDGA1021+007501999GA2041+030001999GA3071+090001999GF107991999999999999999999MA1100811999999REMMET065METAR SBUF 161500Z 35003KT 9999 FEW025 SCT100 BKN300 37/19 Q1008;
0166829860999992007121616004-09400-038217FM-15+0269SBUF V0200101N00311030001CN0112651N1+03801+01801999999ADDGA1021+007501999GA2041+030001999GA3071+090001999GF107991999999999999999999MA1100711999999REMMET065METAR SBUF 161600Z 01006KT 9999 FEW025 SCT100 BKN300 38/18 Q1007;
0143829860999992007121617004-09400-038217FM-15+0269SBUF V0203401N002610900019N0112651N1+03901+01501999999ADDGA1021+007501999GA2071+090001999GF107991999999999999999999MA1100611999999REMMET058METAR SBUF 161700Z 34005KT 9999 FEW025 BKN300 39/15 Q1006;
0233829860999992007121618004-09400-038217SY-MT+0269SBUF V0203601N00511090001CN0200001N1+03391+02291100421ADDGA1021+007501999GA2071+090001999GF108991021021008001001071MA1100511097631MD1999999-0051REMSYN070AAXX  16184 82986 32598 8//// 10339 20229 39763 40042 82207 333 59005;MET058METAR SBUF 161800Z 36010KT 9999 FEW025 BKN300 38/16 Q1005;
0143829860999992007121619004-09400-038217FM-15+0269SBUF V0203201N003610900019N0112651N1+03701+01601999999ADDGA1021+007501999GA2071+090001999GF107991999999999999999999MA1100511999999REMMET058METAR SBUF 161900Z 32007KT 9999 FEW025 BKN300 37/16 Q1005;
0166829860999992007121620004-09400-038217FM-15+0269SBUF V0203101N00721030001CN0112651N1+03601+01601999999ADDGA1021+007501999GA2041+030001999GA3071+090001999GF107991999999999999999999MA1100611999999REMMET065METAR SBUF 162000Z 31014KT 9999 FEW025 SCT100 BKN300 36/16 Q1006;
0072829860999992007121621004-09400-038217FM-15+0269SBUF V0203201N00261220001CN0099001N1+03501+01701999999ADDMA1100611999999REMMET045METAR SBUF 162100Z 32005KT CAVOK 35/17 Q1006;
0072829860999992007121622004-09400-038217FM-15+0269SBUF V0200301N00311220001CN0099001N1+03301+01801999999ADDMA1100711999999REMMET045METAR SBUF 162200Z 03006KT CAVOK 33/18 Q1007;
0168829860999992007121700004-09400-038217FM-12+0269SBUF V02099999999990150019N0020001N1+03081+02131100621ADDGF106991061001017501071001KA1240M+03561MA1999999097851MD1999999+0041REMSYN088AAXX  17004 82986 32795 6//// 10308 20213 39785 40062 86070 333 10356 29055 55092 58004;
0143829860999992007121711004-09400-038217FM-15+0269SBUF V0201401N001010210019N0112651N1+02301+02301999999ADDGA1041+006001999GA2071+021001999GF107991999999999999999999MA1101291999999REMMET058METAR SBUF 171100Z 14002KT 9999 SCT020 BKN070 23/23 Q1013;
0316829860999992007121712004-09400-038217SY-MT+0269SBUF V0209999C00001021001CN0200001N1+02321+02161101121ADDAA124039991AY191061AY221061GA1021+006001999GA2071+021001999GF108991011041008001091999KA1240N+02181MA1101291098291MD1999999+0281MW1021REMSYN088AAXX  17124 82986 21598 8//// 10232 20216 39829 40112 70292 8149/ 333 20218 58028 60404;MET058METAR SBUF 171200Z 00000KT 9999 FEW020 BKN070 24/24 Q1013;EQDQ01+000001WODIR 
0143829860999992007121713004-09400-038217FM-15+0269SBUF V0209999C000010210019N0112651N1+02601+02201999999ADDGA1021+006001999GA2071+021001999GF107991999999999999999999MA1101191999999REMMET058METAR SBUF 171300Z 00000KT 9999 FEW020 BKN070 26/22 Q1012;
0143829860999992007121714004-09400-038217FM-15+0269SBUF V0209999C000010210019N0112651N1+02601+02201999999ADDGA1021+006001999GA2071+021001999GF107991999999999999999999MA1101191999999REMMET058METAR SBUF 171400Z 00000KT 9999 FEW020 BKN070 26/22 Q1012;
0143829860999992007121715004-09400-038217FM-15+0269SBUF V0201001N001512200019N0112651N1+02901+02001999999ADDGA1021+006001999GA2041+021001999GF104991999999999999999999MA1101081999999REMMET058METAR SBUF 171500Z 10003KT 9999 FEW020 SCT070 29/20 Q1011;
0143829860999992007121716004-09400-038217FM-15+0269SBUF V0200201N002612200019N0112651N1+02901+02001999999ADDGA1021+006001999GA2041+021001999GF104991999999999999999999MA1101021999999REMMET058METAR SBUF 171600Z 02005KT 9999 FEW020 SCT070 29/20 Q1010;
0143829860999992007121717004-09400-038217FM-15+0269SBUF V0200301N002112200019N0112651N1+03401+01701999999ADDGA1021+006001999GA2041+021001999GF104991999999999999999999MA1100911999999REMMET058METAR SBUF 171700Z 03004KT 9999 FEW020 SCT070 34/17 Q1009;
0252829860999992007121718004-09400-038217SY-MT+0269SBUF V0203201N00101021001CN0200001N1+03351+01981100591ADDGA1021+006001999GA2071+021001999GF199999021021008001051001MA1100811097791MD1999999+0161REMSYN070AAXX  17184 82986 32598 6//// 10335 20198 39779 40059 82250 333 58016;MET058METAR SBUF 171800Z 32002KT 9999 FEW020 BKN070 33/18 Q1008;EQDQ01+000062SCOTCV
0143829860999992007121719004-09400-038217FM-15+0269SBUF V0201701N001510210019N0112651N1+03301+02001999999ADDGA1021+006001999GA2071+021001999GF107991999999999999999999MA1100811999999REMMET058METAR SBUF 171900Z 17003KT 9999 FEW020 BKN070 33/20 Q1008;
0166829860999992007121720004-09400-038217FM-15+0269SBUF V0201801N00151021001CN0112651N1+03301+02001999999ADDGA1021+006001999GA2041+021001999GA3071+090001999GF107991999999999999999999MA1100811999999REMMET065METAR SBUF 172000Z 18003KT 9999 FEW020 SCT070 BKN300 33/20 Q1008;
0143829860999992007121721004-09400-038217FM-15+0269SBUF V0201601N001512200019N0112651N1+03101+02101999999ADDGA1021+006001999GA2041+090001999GF104991999999999999999999MA1100811999999REMMET058METAR SBUF 172100Z 16003KT 9999 FEW020 SCT300 31/21 Q1008;
0072829860999992007121722004-09400-038217FM-15+0269SBUF V0201901N00151220001CN0099001N1+03001+02301999999ADDMA1100911999999REMMET045METAR SBUF 172200Z 19003KT CAVOK 30/23 Q1009;
0072829860999992007121723004-09400-038217FM-15+0269SBUF V0201701N00051220001CN0099001N1+02901+02301999999ADDMA1100911999999REMMET045METAR SBUF 172300Z 17001KT CAVOK 29/23 Q1009;
0168829860999992007121800004-09400-038217FM-12+0269SBUF V02099999999992200019N0020001N1+02921+01951100791ADDGF104991041001017501071001KA1240M+03411MA1999999097961MD1999999+0111REMSYN088AAXX  18004 82986 32795 4//// 10292 20195 39796 40079 84070 333 10341 29062 55045 58011;
0143829860999992007121811004-09400-038217FM-15+0269SBUF V0200401N003112200019N0112651N1+02901+01801999999ADDGA1021+006001999GA2041+021001999GF104991999999999999999999MA1101391999999REMMET058METAR SBUF 181100Z 04006KT 9999 FEW020 SCT070 29/18 Q1014;
0271829860999992007121812004-09400-038217SY-MT+0269SBUF V0200501N002112200019N0200001N1+02921+01891101191ADDGA1021+006001999GA2041+021001999GF199999011011008001001011KA1240N+02301MA1101391098381MD1999999+0091REMSYN076AAXX  18124 82986 32598 2//// 10292 20189 39838 40119 81101 333 20230 58009;MET058METAR SBUF 181200Z 05004KT 9999 FEW020 SCT070 30/18 Q1014;EQDQ01+000022SCOTCV
0120829860999992007121813004-09400-038217FM-15+0269SBUF V0209999C000012200019N0112651N1+03101+01801999999ADDGA1021+006001999GF102991999999999999999999MA1101391999999REMMET051METAR SBUF 181300Z 00000KT 9999 FEW020 31/18 Q1014;
0120829860999992007121814004-09400-038217FM-15+0269SBUF V0202801N001512200019N0112651N1+03201+01701999999ADDGA1021+006001999GF102991999999999999999999MA1101291999999REMMET051METAR SBUF 181400Z 28003KT 9999 FEW020 32/17 Q1013;
0120829860999992007121815004-09400-038217FM-15+0269SBUF V0200601N001512200019N0112651N1+03401+01501999999ADDGA1021+006001999GF102991999999999999999999MA1101191999999REMMET051METAR SBUF 181500Z 06003KT 9999 FEW020 34/15 Q1012;
0120829860999992007121816004-09400-038217FM-15+0269SBUF V0202201N002112200019N0112651N1+03501+01401999999ADDGA1021+006001999GF102991999999999999999999MA1101081999999REMMET051METAR SBUF 181600Z 22004KT 9999 FEW020 35/14 Q1011;
0120829860999992007121817004-09400-038217FM-15+0269SBUF V0202201N002112200019N0112651N1+03501+01501999999ADDGA1021+007501999GF102991999999999999999999MA1101021999999REMMET051METAR SBUF 181700Z 22004KT 9999 FEW025 35/15 Q1010;
0120829860999992007121818004-09400-038217FM-15+0269SBUF V0201901N002112200019N0112651N1+03501+01401999999ADDGA1021+007501999GF102991999999999999999999MA1100911999999REMMET051METAR SBUF 181800Z 19004KT 9999 FEW025 35/14 Q1009;
0143829860999992007121819004-09400-038217FM-15+0269SBUF V0201701N001512200019N0112651N1+03601+01401999999ADDGA1021+007501999GA2041+090001999GF104991999999999999999999MA1100811999999REMMET058METAR SBUF 181900Z 17003KT 9999 FEW025 SCT300 36/14 Q1008;
0143829860999992007121820004-09400-038217FM-15+0269SBUF V0201601N002612200019N0112651N1+03501+01501999999ADDGA1021+007501999GA2041+090001999GF104991999999999999999999MA1100911999999REMMET058METAR SBUF 182000Z 16005KT 9999 FEW025 SCT300 35/15 Q1009;
0072829860999992007121821004-09400-038217FM-15+0269SBUF V0201401N00151220001CN0099001N1+03301+01701999999ADDMA1100911999999REMMET045METAR SBUF 182100Z 14003KT CAVOK 33/17 Q1009;
0072829860999992007121822004-09400-038217FM-15+0269SBUF V0201801N00211220001CN0099001N1+03201+01801999999ADDMA1101021999999REMMET045METAR SBUF 182200Z 18004KT CAVOK 32/18 Q1010;
0072829860999992007121823004-09400-038217FM-15+0269SBUF V0201501N00771220001CN0099001N1+03101+02001999999ADDMA1101081999999REMMET045METAR SBUF 182300Z 15015KT CAVOK 31/20 Q1011;
0178829860999992007121900004-09400-038217FM-12+0269SBUF V02099999999992200019N0020001N1+02941+02081100981ADDGA1001+999999999GF100991001001999999001001KA1240M+03571MA1999999098181MD1999999+0221REMSYN082AAXX  19004 82986 32995 0//// 10294 20208 39818 40098 333 10357 29053 55106 58022;
0120829860999992007121911004-09400-038217FM-15+0269SBUF V0200801N001512200019N0112651N1+02701+01901999999ADDGA1021+005101999GF102991999999999999999999MA1101391999999REMMET051METAR SBUF 191100Z 08003KT 9999 FEW017 27/19 Q1014;
0207829860999992007121912004-09400-038217SY-MT+0269SBUF V0201301N001012200019N0200001N1+02761+02091101191ADDGF101991011011008001001001KA1240N+02301MA1101391098381MD1999999+0001REMSYN076AAXX  19124 82986 32598 1//// 10276 20209 39838 40119 81100 333 20230 58000;MET045METAR SBUF 191200Z 13002KT CAVOK 29/18 Q1014;
0072829860999992007121913004-09400-038217FM-15+0269SBUF V0201601N00151220001CN0099001N1+03101+01801999999ADDMA1101391999999REMMET045METAR SBUF 191300Z 16003KT CAVOK 31/18 Q1014;
0072829860999992007121914004-09400-038217FM-15+0269SBUF V0200801N00151220001CN0099001N1+03301+01701999999ADDMA1101291999999REMMET045METAR SBUF 191400Z 08003KT CAVOK 33/17 Q1013;
0072829860999992007121915004-09400-038217FM-15+0269SBUF V0201701N00311220001CN0099001N1+03501+01901999999ADDMA1101191999999REMMET045METAR SBUF 191500Z 17006KT CAVOK 35/19 Q1012;
0120829860999992007121916004-09400-038217FM-15+0269SBUF V0201301N002612200019N0112651N1+03601+01601999999ADDGA1021+006001999GF102991999999999999999999MA1101081999999REMMET051METAR SBUF 191600Z 13005KT 9999 FEW020 36/16 Q1011;
0120829860999992007121917004-09400-038217FM-15+0269SBUF V0201301N002612200019N0112651N1+03601+01601999999ADDGA1041+006001999GF104991999999999999999999MA1101021999999REMMET051METAR SBUF 191700Z 13005KT 9999 SCT020 36/16 Q1010;
0120829860999992007121918004-09400-038217FM-15+0269SBUF V0201301N004112200019N0112651N1+03601+01601999999ADDGA1041+007501999GF104991999999999999999999MA1100911999999REMMET051METAR SBUF 191800Z 13008KT 9999 SCT025 36/16 Q1009;
0120829860999992007121920004-09400-038217FM-15+0269SBUF V0201401N004112200019N0112651N1+03701+01501999999ADDGA1041+007501999GF104991999999999999999999MA1100811999999REMMET051METAR SBUF 192000Z 14008KT 9999 SCT025 37/15 Q1008;
0120829860999992007121921004-09400-038217FM-15+0269SBUF V0201301N007212200019N0112651N1+03401+01901999999ADDGA1041+007501999GF104991999999999999999999MA1100911999999REMMET051METAR SBUF 192100Z 13014KT 9999 SCT025 34/19 Q1009;
0120829860999992007121922004-09400-038217FM-15+0269SBUF V0201401N009312200019N0112651N1+03101+02101999999ADDGA1041+007501999GF104991999999999999999999MA1101021999999REMMET051METAR SBUF 192200Z 14018KT 9999 SCT025 31/21 Q1010;
0120829860999992007121923004-09400-038217FM-15+0269SBUF V0201401N009312200019N0112651N1+03001+02201999999ADDGA1021+006001999GF102991999999999999999999MA1101081999999REMMET051METAR SBUF 192300Z 14018KT 9999 FEW020 30/22 Q1011;
0213829860999992007122000004-09400-038217SY-MT+0269SBUF V0201401N006712200019N0020001N1+02731+02031100991ADDGF100991001001999999001001KA1240M+03571MA1101191098171MD1999999-0011REMSYN082AAXX  20004 82986 32995 0//// 10273 20203 39817 40099 333 10357 29059 55112 59001;MET045METAR SBUF 200000Z 14013KT CAVOK 28/23 Q1012;
0084829860999992007122010154-09400-038217FM-16+0269SBUF V0201301N003112200019N0112651N1+02601+02601999999ADDMA1101301999999REMMET057METAR SBUF 201015Z SPECI 13006KT 9999 FEW017 26/26 Q1013;
0120829860999992007122011004-09400-038217FM-15+0269SBUF V0201401N003612200019N0112651N1+02701+02701999999ADDGA1021+005401999GF102991999999999999999999MA1101291999999REMMET051METAR SBUF 201100Z 14007KT 9999 FEW018 27/27 Q1013;
0201829860999992007122012004-09400-038217SY-MT+0269SBUF V0201201N003612200019N0200001N1+02701+01991101151ADDGF100991001001999999001001KA1240N+02191MA1101291098321MD1999999-0061REMSYN070AAXX  20124 82986 32998 0//// 10270 20199 39832 40115 333 20219 59006;MET045METAR SBUF 201200Z 12007KT CAVOK 30/21 Q1013;
0072829860999992007122013004-09400-038217FM-15+0269SBUF V0201301N00361220001CN0099001N1+03201+02001999999ADDMA1101291999999REMMET045METAR SBUF 201300Z 13007KT CAVOK 32/20 Q1013;
0072829860999992007122014004-09400-038217FM-15+0269SBUF V0201401N00311220001CN0099001N1+03301+02001999999ADDMA1101191999999REMMET045METAR SBUF 201400Z 14006KT CAVOK 33/20 Q1012;
0072829860999992007122015004-09400-038217FM-15+0269SBUF V0201501N00411220001CN0099001N1+03501+01801999999ADDMA1101081999999REMMET045METAR SBUF 201500Z 15008KT CAVOK 35/18 Q1011;
0072829860999992007122016004-09400-038217FM-15+0269SBUF V0201501N00361220001CN0099001N1+03701+01701999999ADDMA1101021999999REMMET045METAR SBUF 201600Z 15007KT CAVOK 37/17 Q1010;
0092829860999992007122017004-09400-038217FM-15+0269SBUF V0201501N99999220001CN0099001N1+03701+01601999999ADDMA1100811999999REMMET046METAR SBUF 201700Z 150107KT CAVOK 37/16 Q1008;EQDQ01+005503WOSPD 
0147829860999992007122018004-09400-038217FM-12+0269SBUF V02099999999992200019N0200001N1+03531+01711100531ADDGA1001+999999999GF100991001001999999001001MA1999999097741MD1999999-0161REMSYN064AAXX  20184 82986 32998 0//// 10353 20171 39774 40053 333 59016;
0120829860999992007122019004-09400-038217FM-15+0269SBUF V0201401N004112200019N0112651N1+03701+01601999999ADDGA1021+007501999GF102991999999999999999999MA1100711999999REMMET051METAR SBUF 201900Z 14008KT 9999 FEW025 37/16 Q1007;
0120829860999992007122020004-09400-038217FM-15+0269SBUF V0201301N005112200019N0112651N1+03601+01601999999ADDGA1021+007501999GF102991999999999999999999MA1100711999999REMMET051METAR SBUF 202000Z 13010KT 9999 FEW025 36/16 Q1007;
0120829860999992007122021004-09400-038217FM-15+0269SBUF V0201201N004112200019N0112651N1+03401+01601999999ADDGA1021+007501999GF102991999999999999999999MA1100811999999REMMET051METAR SBUF 202100Z 12008KT 9999 FEW025 34/16 Q1008;
0072829860999992007122022004-09400-038217FM-15+0269SBUF V0201301N00771220001CN0099001N1+03301+02101999999ADDMA1100911999999REMMET045METAR SBUF 202200Z 13015KT CAVOK 33/21 Q1009;
0072829860999992007122023004-09400-038217FM-15+0269SBUF V0201301N00771220001CN0099001N1+03001+02301999999ADDMA1101021999999REMMET045METAR SBUF 202300Z 13015KT CAVOK 30/23 Q1010;
0178829860999992007122100004-09400-038217FM-12+0269SBUF V02099999999992200019N0200001N1+02721+02001100911ADDGA1001+999999999GF100991001001999999001001KA1240M+03581MA1999999098091MD1999999-0081REMSYN082AAXX  21004 82986 32998 0//// 10272 20200 39809 40091 333 10358 29058 55112 59008;
0072829860999992007122111074-09400-038217FM-15+0269SBUF V0201101N00211220001CN0099001N1+02901+02401999999ADDMA1101391999999REMMET045METAR SBUF 211107Z 11004KT CAVOK 29/24 Q1014;
0207829860999992007122112004-09400-038217SY-MT+0269SBUF V0200301N002612200019N0200001N1+02761+02091101231ADDGF102991021011008001001001KA1240N+02221MA1101391098401MD1999999+0081REMSYN076AAXX  21124 82986 32598 2//// 10276 20209 39840 40123 82100 333 20222 58008;MET045METAR SBUF 211200Z 03005KT CAVOK 30/22 Q1014;
0072829860999992007122113004-09400-038217FM-15+0269SBUF V0201801N00361220001CN0099001N1+03101+02001999999ADDMA1101391999999REMMET045METAR SBUF 211300Z 18007KT CAVOK 31/20 Q1014;
0072829860999992007122114004-09400-038217FM-15+0269SBUF V0201801N00361220001CN0099001N1+03101+02001999999ADDMA1101391999999REMMET045METAR SBUF 211400Z 18007KT CAVOK 31/20 Q1014;
0072829860999992007122115004-09400-038217FM-15+0269SBUF V0201301N00361220001CN0099001N1+03601+01601999999ADDMA1101191999999REMMET045METAR SBUF 211500Z 13007KT CAVOK 36/16 Q1012;
0072829860999992007122116004-09400-038217FM-15+0269SBUF V0201201N00361220001CN0099001N1+03801+01401999999ADDMA1101021999999REMMET045METAR SBUF 211600Z 12007KT CAVOK 38/14 Q1010;
0072829860999992007122117004-09400-038217FM-15+0269SBUF V0201501N00361220001CN0099001N1+03801+01501999999ADDMA1100911999999REMMET045METAR SBUF 211700Z 15007KT CAVOK 38/15 Q1009;
0188829860999992007122118004-09400-038217SY-MT+0269SBUF V0201501N003112200019N0200001N1+03531+01601100651ADDGF102991021011008001001001MA1100811097851MD1999999+0111REMSYN070AAXX  21184 82986 32598 2//// 10353 20160 39785 40065 82100 333 58011;MET045METAR SBUF 211800Z 15006KT CAVOK 38/15 Q1008;
0120829860999992007122119004-09400-038217FM-15+0269SBUF V0201301N004112200019N0112651N1+03901+01301999999ADDGA1021+007501999GF102991999999999999999999MA1100811999999REMMET051METAR SBUF 211900Z 13008KT 9999 FEW025 39/13 Q1008;
0120829860999992007122120004-09400-038217FM-15+0269SBUF V0201201N002612200019N0112651N1+03801+01401999999ADDGA1021+007501999GF102991999999999999999999MA1100811999999REMMET051METAR SBUF 212000Z 12005KT 9999 FEW025 38/14 Q1008;
0120829860999992007122121004-09400-038217FM-15+0269SBUF V0201401N003612200019N0112651N1+03401+01501999999ADDGA1021+007501999GF102991999999999999999999MA1100911999999REMMET051METAR SBUF 212100Z 14007KT 9999 FEW025 34/15 Q1009;
0072829860999992007122122004-09400-038217FM-15+0269SBUF V0201301N00771220001CN0099001N1+03301+01901999999ADDMA1100911999999REMMET045METAR SBUF 212200Z 13015KT CAVOK 33/19 Q1009;
0072829860999992007122123004-09400-038217FM-15+0269SBUF V0201301N00821220001CN0099001N1+03101+02101999999ADDMA1101021999999REMMET045METAR SBUF 212300Z 13016KT CAVOK 31/21 Q1010;
0178829860999992007122200004-09400-038217FM-12+0269SBUF V02099999999992200019N0020001N1+02801+02001100991ADDGA1001+999999999GF100991001001999999001001KA1240M+03571MA1999999098181MD1999999+0091REMSYN082AAXX  22004 82986 32995 0//// 10280 20200 39818 40099 333 10357 29056 55107 58009;
0143829860999992007122211004-09400-038217FM-15+0269SBUF V0201101N002610900019N0112651N1+02701+02601999999ADDGA1041+005401999GA2071+090001999GF107991999999999999999999MA1101391999999REMMET058METAR SBUF 221100Z 11005KT 9999 SCT018 BKN300 27/26 Q1014;
0143829860999992007122212004-09400-038217FM-15+0269SBUF V0200901N002610900019N0112651N1+03001+02301999999ADDGA1041+006001999GA2071+090001999GF107991999999999999999999MA1101391999999REMMET058METAR SBUF 221200Z 09005KT 9999 SCT020 BKN300 30/23 Q1014;
0143829860999992007122213004-09400-038217FM-15+0269SBUF V0201101N002610900019N0112651N1+03201+02101999999ADDGA1021+007501999GA2071+090001999GF107991999999999999999999MA1101391999999REMMET058METAR SBUF 221300Z 11005KT 9999 FEW025 BKN300 32/21 Q1014;
0072829860999992007122214004-09400-038217FM-15+0269SBUF V0201201N00261220001CN0099001N1+03201+01901999999ADDMA1101291999999REMMET045METAR SBUF 221400Z 12005KT CAVOK 32/19 Q1013;
0072829860999992007122215004-09400-038217FM-15+0269SBUF V0201501N00511220001CN0099001N1+03501+01801999999ADDMA1101191999999REMMET045METAR SBUF 221500Z 15010KT CAVOK 35/18 Q1012;
0072829860999992007122216004-09400-038217FM-15+0269SBUF V0201201N00361220001CN0099001N1+03601+01701999999ADDMA1101081999999REMMET045METAR SBUF 221600Z 12007KT CAVOK 36/17 Q1011;
0072829860999992007122217004-09400-038217FM-15+0269SBUF V0201401N00261220001CN0099001N1+03601+01701999999ADDMA1101021999999REMMET045METAR SBUF 221700Z 14005KT CAVOK 36/17 Q1010;
0188829860999992007122218004-09400-038217SY-MT+0269SBUF V0201601N003111050019N0200001N1+03371+01851100761ADDGF107991021011008001001081MA1101021097961MD1999999+0111REMSYN070AAXX  22184 82986 32598 7//// 10337 20185 39796 40076 82108 333 58011;MET045METAR SBUF 221800Z 16006KT CAVOK 36/17 Q1010;
0072829860999992007122219004-09400-038217FM-15+0269SBUF V0201401N00311220001CN0099001N1+03601+01701999999ADDMA1100911999999REMMET045METAR SBUF 221900Z 14006KT CAVOK 36/17 Q1009;
0072829860999992007122220004-09400-038217FM-15+0269SBUF V0201401N00361220001CN0099001N1+03501+01701999999ADDMA1100911999999REMMET045METAR SBUF 222000Z 14007KT CAVOK 35/17 Q1009;
0072829860999992007122221004-09400-038217FM-15+0269SBUF V0201401N00461220001CN0099001N1+03301+01801999999ADDMA1101021999999REMMET045METAR SBUF 222100Z 14009KT CAVOK 33/18 Q1010;
0083829860999992007122222004-09400-038217FM-15+0269SBUF V0201401N00671220001CN0099001N1+03101+02101999999ADDMA1101081999999OC101181REMMET048METAR SBUF 222200Z 14013G23KT CAVOK 31/21 Q1011;
0143829860999992007122311004-09400-038217FM-15+0269SBUF V0201301N004610051019N0112651N1+02701+02601999999ADDGA1071+005101999GA2071+021001999GF107991999999999999999999MA1101491999999REMMET058METAR SBUF 231100Z 13009KT 9999 BKN017 BKN070 27/26 Q1015;
0252829860999992007122312004-09400-038217SY-MT+0269SBUF V0201201N00461021001CN0040001N1+02601+02061101301ADDGA1041+005401999GA2071+021001999GF108991061021008001051999KA1240N+02321MA1101491098461MD1999999+0031REMSYN076AAXX  23124 82986 32596 8//// 10260 20206 39846 40130 8625/ 333 20232 58003;MET058METAR SBUF 231200Z 12009KT 9999 SCT018 BKN070 28/25 Q1015;
0143829860999992007122313004-09400-038217FM-15+0269SBUF V0201101N003610210019N0112651N1+03101+02201999999ADDGA1041+005401999GA2071+021001999GF107991999999999999999999MA1101391999999REMMET058METAR SBUF 231300Z 11007KT 9999 SCT018 BKN070 31/22 Q1014;
0143829860999992007122314004-09400-038217FM-15+0269SBUF V0201201N004110210019N0112651N1+03201+01901999999ADDGA1041+006001999GA2071+021001999GF107991999999999999999999MA1101391999999REMMET058METAR SBUF 231400Z 12008KT 9999 SCT020 BKN070 32/19 Q1014;
0143829860999992007122315004-09400-038217FM-15+0269SBUF V0201401N003610210019N0112651N1+03201+01901999999ADDGA1041+006001999GA2071+021001999GF107991999999999999999999MA1101291999999REMMET058METAR SBUF 231500Z 14007KT 9999 SCT020 BKN070 32/19 Q1013;
0143829860999992007122316004-09400-038217FM-15+0269SBUF V0201401N003612200019N0112651N1+03401+01901999999ADDGA1041+007501999GA2041+021001999GF104991999999999999999999MA1101191999999REMMET058METAR SBUF 231600Z 14007KT 9999 SCT025 SCT070 34/19 Q1012;
0143829860999992007122317004-09400-038217FM-15+0269SBUF V0201301N004612200019N0112651N1+03501+01901999999ADDGA1021+007501999GA2041+021001999GF104991999999999999999999MA1101191999999REMMET058METAR SBUF 231700Z 13009KT 9999 FEW025 SCT070 35/19 Q1012;
0210829860999992007122318004-09400-038217SY-MT+0269SBUF V0201201N004112200019N0200001N1+03241+01751100901ADDGA1021+007501999GF104991031011008001041001MA1101081098091MD1999999+0131REMSYN070AAXX  23184 82986 32598 4//// 10324 20175 39809 40090 83140 333 58013;MET051METAR SBUF 231800Z 12008KT 9999 FEW025 35/19 Q1011;
0120829860999992007122319004-09400-038217FM-15+0269SBUF V0201301N005712200019N0112651N1+03501+01801999999ADDGA1021+007501999GF102991999999999999999999MA1101021999999REMMET051METAR SBUF 231900Z 13011KT 9999 FEW025 35/18 Q1010;
0120829860999992007122320004-09400-038217FM-15+0269SBUF V0201601N005712200019N0112651N1+03501+01801999999ADDGA1021+007501999GF102991999999999999999999MA1101021999999REMMET051METAR SBUF 232000Z 16011KT 9999 FEW025 35/18 Q1010;
0120829860999992007122321004-09400-038217FM-15+0269SBUF V0201201N003612200019N0112651N1+03201+01701999999ADDGA1021+006001999GF102991999999999999999999MA1101081999999REMMET051METAR SBUF 232100Z 12007KT 9999 FEW020 32/17 Q1011;
0072829860999992007122322004-09400-038217FM-15+0269SBUF V0201301N00821220001CN0099001N1+03001+01801999999ADDMA1101191999999REMMET045METAR SBUF 232200Z 13016KT CAVOK 30/18 Q1012;
0178829860999992007122400004-09400-038217FM-12+0269SBUF V02099999999992200019N0020001N1+02621+01671101201ADDGA1001+999999999GF100991001001999999001001KA1240M+03271MA1999999098361MD1999999+0051REMSYN082AAXX  24004 82986 32995 0//// 10262 20167 39836 40120 333 10327 29059 55058 58005;
0120829860999992007122411004-09400-038217FM-15+0269SBUF V0201301N004112200019N0112651N1+02801+02401999999ADDGA1021+005401999GF102991999999999999999999MA1101591999999REMMET051METAR SBUF 241100Z 13008KT 9999 FEW018 28/24 Q1016;
0229829860999992007122412004-09400-038217SY-MT+0269SBUF V0201401N006210450019N0100001N1+02601+01921101391ADDGA1041+006001999GF106991021021008001071001KA1240N+02141MA1101591098541MD1999999+0081REMSYN076AAXX  24124 82986 32597 6//// 10260 20192 39854 40139 82270 333 20214 58008;MET051METAR SBUF 241200Z 14012KT 9999 SCT020 29/23 Q1016;
0143829860999992007122413004-09400-038217FM-15+0269SBUF V0201201N005112200019N0112651N1+03001+02101999999ADDGA1041+006001999GA2041+021001999GF104991999999999999999999MA1101591999999REMMET058METAR SBUF 241300Z 12010KT 9999 SCT020 SCT070 30/21 Q1016;
0143829860999992007122414004-09400-038217FM-15+0269SBUF V0201201N004612200019N0112651N1+03201+01901999999ADDGA1041+006001999GA2041+021001999GF104991999999999999999999MA1101491999999REMMET058METAR SBUF 241400Z 12009KT 9999 SCT020 SCT070 32/19 Q1015;
0143829860999992007122415004-09400-038217FM-15+0269SBUF V0201101N004612200019N0112651N1+03501+01801999999ADDGA1041+006001999GA2041+021001999GF104991999999999999999999MA1101391999999REMMET058METAR SBUF 241500Z 11009KT 9999 SCT020 SCT070 35/18 Q1014;
0143829860999992007122416004-09400-038217FM-15+0269SBUF V0201301N005712200019N0112651N1+03601+01801999999ADDGA1041+006001999GA2041+021001999GF104991999999999999999999MA1101191999999REMMET058METAR SBUF 241600Z 13011KT 9999 SCT020 SCT070 36/18 Q1012;
0120829860999992007122417004-09400-038217FM-15+0269SBUF V0201301N006712200019N0112651N1+03601+01701999999ADDGA1041+007501999GF104991999999999999999999MA1101081999999REMMET051METAR SBUF 241700Z 13013KT 9999 SCT025 36/17 Q1011;
0120829860999992007122418004-09400-038217FM-15+0269SBUF V0201301N005112200019N0112651N1+03601+01701999999ADDGA1041+007501999GF104991999999999999999999MA1101021999999REMMET051METAR SBUF 241800Z 13010KT 9999 SCT025 36/17 Q1010;
0120829860999992007122419004-09400-038217FM-15+0269SBUF V0201401N006212200019N0112651N1+03401+01601999999ADDGA1041+007501999GF104991999999999999999999MA1101021999999REMMET051METAR SBUF 241900Z 14012KT 9999 SCT025 34/16 Q1010;
0120829860999992007122420004-09400-038217FM-15+0269SBUF V0201301N007212200019N0112651N1+03301+01601999999ADDGA1021+007501999GF102991999999999999999999MA1101021999999REMMET051METAR SBUF 242000Z 13014KT 9999 FEW025 33/16 Q1010;
0120829860999992007122421004-09400-038217FM-15+0269SBUF V0201301N007212200019N0112651N1+03101+01601999999ADDGA1021+006001999GF102991999999999999999999MA1101081999999REMMET051METAR SBUF 242100Z 13014KT 9999 FEW020 31/16 Q1011;
0072829860999992007122422004-09400-038217FM-15+0269SBUF V0201301N00721220001CN0099001N1+03001+01601999999ADDMA1101081999999REMMET045METAR SBUF 242200Z 13014KT CAVOK 30/16 Q1011;
0120829860999992007122510154-09400-038217FM-15+0269SBUF V0201501N003110048019N0112651N1+02501+02501999999ADDGA1071+004801999GF107991999999999999999999MA1101491999999REMMET051METAR SBUF 251015Z 15006KT 9999 BKN016 25/25 Q1015;
0229829860999992007122512004-09400-038217SY-MT+0269SBUF V0201201N004610075019N0100001N1+02721+01881101251ADDGA1041+005401999GF106991061041008001001001KA1240N+02201MA1101491098411MD1999999-0131REMSYN076AAXX  25124 82986 32597 6//// 10272 20188 39841 40125 86400 333 20220 59013;MET051METAR SBUF 251200Z 12009KT 9999 SCT018 29/22 Q1015;
0120829860999992007122513004-09400-038217FM-15+0269SBUF V0201201N003112200019N0112651N1+03201+02101999999ADDGA1041+006001999GF104991999999999999999999MA1101391999999REMMET051METAR SBUF 251300Z 12006KT 9999 SCT020 32/21 Q1014;
0120829860999992007122514004-09400-038217FM-15+0269SBUF V0201501N004612200019N0112651N1+03301+01901999999ADDGA1041+006001999GF104991999999999999999999MA1101391999999REMMET051METAR SBUF 251400Z 15009KT 9999 SCT020 33/19 Q1014;
0120829860999992007122515004-09400-038217FM-15+0269SBUF V0201401N004612200019N0112651N1+03501+01801999999ADDGA1041+006001999GF104991999999999999999999MA1101191999999REMMET051METAR SBUF 251500Z 14009KT 9999 SCT020 35/18 Q1012;
0120829860999992007122516004-09400-038217FM-15+0269SBUF V0201301N006212200019N0112651N1+03501+01801999999ADDGA1021+007501999GF102991999999999999999999MA1101081999999REMMET051METAR SBUF 251600Z 13012KT 9999 FEW025 35/18 Q1011;
0120829860999992007122517004-09400-038217FM-15+0269SBUF V0201301N004112200019N0112651N1+03701+01701999999ADDGA1021+007501999GF102991999999999999999999MA1101021999999REMMET051METAR SBUF 251700Z 13008KT 9999 FEW025 37/17 Q1010;
0210829860999992007122518004-09400-038217SY-MT+0269SBUF V0201201N003112200019N0200001N1+03341+01911100771ADDGA1041+007501999GF104991041021008001001001MA1101021097961MD1999999-0051REMSYN070AAXX  25184 82986 32598 4//// 10334 20191 39796 40077 84200 333 59005;MET051METAR SBUF 251800Z 12006KT 9999 SCT025 37/15 Q1010;
0120829860999992007122519004-09400-038217FM-15+0269SBUF V0201001N007212200019N0112651N1+03601+01501999999ADDGA1021+007501999GF102991999999999999999999MA1101021999999REMMET051METAR SBUF 251900Z 10014KT 9999 FEW025 36/15 Q1010;
0120829860999992007122520004-09400-038217FM-15+0269SBUF V0201401N004612200019N0112651N1+03401+01601999999ADDGA1041+006001999GF104991999999999999999999MA1101021999999REMMET051METAR SBUF 252000Z 14009KT 9999 SCT020 34/16 Q1010;
0120829860999992007122521004-09400-038217FM-15+0269SBUF V0201401N007712200019N0112651N1+03201+01701999999ADDGA1021+006001999GF102991999999999999999999MA1101081999999REMMET051METAR SBUF 252100Z 14015KT 9999 FEW020 32/17 Q1011;
0072829860999992007122522004-09400-038217FM-15+0269SBUF V0201301N00771220001CN0099001N1+02901+02001999999ADDMA1101191999999REMMET045METAR SBUF 252200Z 13015KT CAVOK 29/20 Q1012;
0178829860999992007122600004-09400-038217FM-12+0269SBUF V02099999999992200019N0020001N1+02641+01931101161ADDGA1001+999999999GF100991001001999999001001KA1240M+03401MA1999999098331MD1999999-0031REMSYN082AAXX  26004 82986 32995 0//// 10264 20193 39833 40116 333 10340 29058 55109 59003;
0143829860999992007122611004-09400-038217FM-15+0269SBUF V0201101N006212200019N0112651N1+02801+02501999999ADDGA1041+005401999GA2041+021001999GF104991999999999999999999MA1101491999999REMMET058METAR SBUF 261100Z 11012KT 9999 SCT018 SCT070 28/25 Q1015;
0252829860999992007122612004-09400-038217SY-MT+0269SBUF V0201401N00621021001CN0100001N1+02661+01971101271ADDGA1041+005401999GA2041+021001999GF106991061041008001001001KA1240N+02241MA1101391098431MD1999999+0021REMSYN076AAXX  26124 82986 32597 6//// 10266 20197 39843 40127 86400 333 20224 58002;MET058METAR SBUF 261200Z 14012KT 9999 SCT018 SCT070 29/21 Q1014;
0143829860999992007122613004-09400-038217FM-15+0269SBUF V0201401N007712200019N0112651N1+03001+01901999999ADDGA1041+005401999GA2041+021001999GF104991999999999999999999MA1101391999999REMMET058METAR SBUF 261300Z 14015KT 9999 SCT018 SCT070 30/19 Q1014;
0143829860999992007122614004-09400-038217FM-15+0269SBUF V0201701N005712200019N0112651N1+03101+01801999999ADDGA1041+005401999GA2041+021001999GF104991999999999999999999MA1101391999999REMMET058METAR SBUF 261400Z 17011KT 9999 SCT018 SCT070 31/18 Q1014;
0143829860999992007122615004-09400-038217FM-15+0269SBUF V0201201N003112200019N0112651N1+03301+01701999999ADDGA1041+006001999GA2041+021001999GF104991999999999999999999MA1101291999999REMMET058METAR SBUF 261500Z 12006KT 9999 SCT020 SCT070 33/17 Q1013;
0143829860999992007122616004-09400-038217FM-15+0269SBUF V0201801N004110060019N0112651N1+03201+01701999999ADDGA1071+006001999GA2071+021001999GF107991999999999999999999MA1101191999999REMMET058METAR SBUF 261600Z 18008KT 9999 BKN020 BKN070 32/17 Q1012;
0143829860999992007122617004-09400-038217FM-15+0269SBUF V0201801N003112200019N0112651N1+03601+01801999999ADDGA1041+006001999GA2041+021001999GF104991999999999999999999MA1101081999999REMMET058METAR SBUF 261700Z 18006KT 9999 SCT020 SCT070 36/18 Q1011;
0210829860999992007122618004-09400-038217SY-MT+0269SBUF V0201601N003110075019N0200001N1+03301+01871100851ADDGA1041+006001999GF106991051021008001051001MA1101021098041MD1999999+0081REMSYN070AAXX  26184 82986 32598 6//// 10330 20187 39804 40085 85250 333 58008;MET051METAR SBUF 261800Z 16006KT 9999 SCT020 34/19 Q1010;
0143829860999992007122619004-09400-038217FM-15+0269SBUF V0201301N004110210019N0112651N1+03301+01801999999ADDGA1021+006001999GA2071+021001999GF107991999999999999999999MA1101021999999REMMET058METAR SBUF 261900Z 13008KT 9999 FEW020 BKN070 33/18 Q1010;
0120829860999992007122620004-09400-038217FM-15+0269SBUF V0200801N002612200019N0112651N1+03001+01901999999ADDGA1041+005101999GF104991999999999999999999MA1101021999999REMMET051METAR SBUF 262000Z 08005KT 9999 SCT017 30/19 Q1010;
0120829860999992007122621004-09400-038217FM-15+0269SBUF V0201101N005112200019N0112651N1+02901+01901999999ADDGA1041+005101999GF104991999999999999999999MA1101081999999REMMET051METAR SBUF 262100Z 11010KT 9999 SCT017 29/19 Q1011;
0120829860999992007122622004-09400-038217FM-15+0269SBUF V0201301N003612200019N0112651N1+02701+02001999999ADDGA1041+005101999GF104991999999999999999999MA1101081999999REMMET051METAR SBUF 262200Z 13007KT 9999 SCT017 27/20 Q1011;
0120829860999992007122623004-09400-038217FM-15+0269SBUF V0201201N005112200019N0112651N1+02601+02001999999ADDGA1021+005101999GF102991999999999999999999MA1101191999999REMMET051METAR SBUF 262300Z 12010KT 9999 FEW017 26/20 Q1012;
0223829860999992007122700004-09400-038217FM-12+0269SBUF V02099999999992200019N0020001N1+02581+01851101251ADDAA106000591AY161061AY221061GA1001+999999999GF100991001001999999001001KA1240M+03351MA1999999098411MD1999999+0081MW1011REMSYN094AAXX  27004 82986 21995 0//// 10258 20185 39841 40125 70162 333 10335 29059 55070 58008 69951;
0120829860999992007122711004-09400-038217FM-15+0269SBUF V0201401N003110048019N0112651N1+02701+02501999999ADDGA1071+004801999GF107991999999999999999999MA1101391999999REMMET051METAR SBUF 271100Z 14006KT 9999 BKN016 27/25 Q1014;
0265829860999992007122712004-09400-038217SY-MT+0269SBUF V0201401N00311004801CN0100001N1+02601+01941101191ADDAA124000591GA1071+004801999GF199999061041004501001001KA1240N+02101MA1101391098351MD1999999+0081REMSYN082AAXX  27124 82986 22497 6//// 10260 20194 39835 40119 86400 333 20210 58008 69954;MET051METAR SBUF 271200Z 14006KT 9999 BKN016 27/25 Q1014;EQDQ01+000062SCOTCV
0120829860999992007122713004-09400-038217FM-15+0269SBUF V0201101N004110060019N0112651N1+03101+02001999999ADDGA1071+006001999GF107991999999999999999999MA1101391999999REMMET051METAR SBUF 271300Z 11008KT 9999 BKN020 31/20 Q1014;
0120829860999992007122714004-09400-038217FM-15+0269SBUF V0201201N005110060019N0112651N1+03201+02001999999ADDGA1071+006001999GF107991999999999999999999MA1101291999999REMMET051METAR SBUF 271400Z 12010KT 9999 BKN020 32/20 Q1013;
0120829860999992007122715004-09400-038217FM-15+0269SBUF V0201001N003112200019N0112651N1+03401+02001999999ADDGA1041+006001999GF104991999999999999999999MA1101191999999REMMET051METAR SBUF 271500Z 10006KT 9999 SCT020 34/20 Q1012;
0120829860999992007122716004-09400-038217FM-15+0269SBUF V0201301N003612200019N0112651N1+03401+01901999999ADDGA1041+006001999GF104991999999999999999999MA1101081999999REMMET051METAR SBUF 271600Z 13007KT 9999 SCT020 34/19 Q1011;
0120829860999992007122717004-09400-038217FM-15+0269SBUF V0201501N002112200019N0112651N1+03501+01601999999ADDGA1041+006001999GF104991999999999999999999MA1101021999999REMMET051METAR SBUF 271700Z 15004KT 9999 SCT020 35/16 Q1010;
0210829860999992007122718004-09400-038217SY-MT+0269SBUF V0201401N004110075019N0200001N1+03311+01801100761ADDGA1041+006001999GF105991051021008001001001MA1100811097941MD1999999-0101REMSYN070AAXX  27184 82986 32598 5//// 10331 20180 39794 40076 85200 333 59010;MET051METAR SBUF 271800Z 14008KT 9999 SCT020 35/18 Q1008;
0120829860999992007122719004-09400-038217FM-15+0269SBUF V0201101N002612200019N0112651N1+03501+01801999999ADDGA1041+006001999GF104991999999999999999999MA1100911999999REMMET051METAR SBUF 271900Z 11005KT 9999 SCT020 35/18 Q1009;
0120829860999992007122720004-09400-038217FM-15+0269SBUF V0201401N007712200019N0112651N1+03201+02001999999ADDGA1021+007501999GF102991999999999999999999MA1100911999999REMMET051METAR SBUF 272000Z 14015KT 9999 FEW025 32/20 Q1009;
0120829860999992007122721004-09400-038217FM-15+0269SBUF V0201301N007712200019N0112651N1+03201+02101999999ADDGA1021+007501999GF102991999999999999999999MA1101021999999REMMET051METAR SBUF 272100Z 13015KT 9999 FEW025 32/21 Q1010;
0120829860999992007122722004-09400-038217FM-15+0269SBUF V0201301N008212200019N0112651N1+02901+02101999999ADDGA1021+007501999GF102991999999999999999999MA1101081999999REMMET051METAR SBUF 272200Z 13016KT 9999 FEW025 29/21 Q1011;
0072829860999992007122723004-09400-038217FM-15+0269SBUF V0201301N00411220001CN0099001N1+02801+01801999999ADDMA1101191999999REMMET045METAR SBUF 272300Z 13008KT CAVOK 28/18 Q1012;
0197829860999992007122800004-09400-038217FM-12+0269SBUF V02099999999992200019N0020001N1+02631+01961102812ADDGA1001+999999999GF100991001001999999001001KA1240M+03351MA1999999098231MD1999999-0181REMSYN082AAXX  28004 82986 32995 0//// 10263 20196 39823 40281 333 10335 29060 55086 59018;EQDQ01+102813APOSLP
0120829860999992007122811004-09400-038217FM-15+0269SBUF V0201201N004610060019N0112651N1+02801+01901999999ADDGA1071+006001999GF107991999999999999999999MA1101391999999REMMET051METAR SBUF 281100Z 12009KT 9999 BKN020 28/19 Q1014;
0248829860999992007122812004-09400-038217SY-MT+0269SBUF V0201401N00511006001CN0100001N1+02681+01891101281ADDGA1071+006001999GF199999041021008001081001KA1240N+02361MA1101491098441MD1999999+0091REMSYN076AAXX  28124 82986 32597 6//// 10268 20189 39844 40128 84280 333 20236 58009;MET051METAR SBUF 281200Z 14010KT 9999 BKN020 28/19 Q1015;EQDQ01+000062SCOTCV
0143829860999992007122813004-09400-038217FM-15+0269SBUF V0201401N004110210019N0112651N1+02901+01901999999ADDGA1041+006001999GA2071+021001999GF107991999999999999999999MA1101491999999REMMET058METAR SBUF 281300Z 14008KT 9999 SCT020 BKN070 29/19 Q1015;
0143829860999992007122814004-09400-038217FM-15+0269SBUF V0201201N004112200019N0112651N1+03001+01901999999ADDGA1041+006001999GA2041+021001999GF104991999999999999999999MA1101391999999REMMET058METAR SBUF 281400Z 12008KT 9999 SCT020 SCT070 30/19 Q1014;
0120829860999992007122815004-09400-038217FM-15+0269SBUF V0201301N003612200019N0112651N1+03501+01801999999ADDGA1041+006001999GF104991999999999999999999MA1101291999999REMMET051METAR SBUF 281500Z 13007KT 9999 SCT020 35/18 Q1013;
0120829860999992007122816004-09400-038217FM-15+0269SBUF V0201101N003612200019N0112651N1+03501+01801999999ADDGA1041+006001999GF104991999999999999999999MA1101191999999REMMET051METAR SBUF 281600Z 11007KT 9999 SCT020 35/18 Q1012;
0120829860999992007122817004-09400-038217FM-15+0269SBUF V0201401N003112200019N0112651N1+03501+01601999999ADDGA1021+006001999GF102991999999999999999999MA1101081999999REMMET051METAR SBUF 281700Z 14006KT 9999 FEW020 35/16 Q1011;
0210829860999992007122818004-09400-038217SY-MT+0269SBUF V0201201N004112200019N0200001N1+03391+01431100831ADDGA1021+007501999GF103991031011008001001001MA1101021098031MD1999999+0091REMSYN070AAXX  28184 82986 32598 3//// 10339 20143 39803 40083 83100 333 58009;MET051METAR SBUF 281800Z 12008KT 9999 FEW025 37/12 Q1010;
0120829860999992007122819004-09400-038217FM-15+0269SBUF V0201601N003112200019N0112651N1+03601+01101999999ADDGA1021+007501999GF102991999999999999999999MA1101021999999REMMET051METAR SBUF 281900Z 16006KT 9999 FEW025 36/11 Q1010;
0120829860999992007122820004-09400-038217FM-15+0269SBUF V0201201N005112200019N0112651N1+03501+01101999999ADDGA1021+007501999GF102991999999999999999999MA1101021999999REMMET051METAR SBUF 282000Z 12010KT 9999 FEW025 35/11 Q1010;
0072829860999992007122821004-09400-038217FM-15+0269SBUF V0201301N00311220001CN0099001N1+03401+01201999999ADDMA1101021999999REMMET045METAR SBUF 282100Z 13006KT CAVOK 34/12 Q1010;
0072829860999992007122822004-09400-038217FM-15+0269SBUF V0201201N00511220001CN0099001N1+03101+01501999999ADDMA1101081999999REMMET045METAR SBUF 282200Z 12010KT CAVOK 31/15 Q1011;
0072829860999992007122823004-09400-038217FM-15+0269SBUF V0201301N00621220001CN0099001N1+02901+01701999999ADDMA1101191999999REMMET045METAR SBUF 282300Z 13012KT CAVOK 29/17 Q1012;
0178829860999992007122900004-09400-038217FM-12+0269SBUF V02099999999992200019N0020001N1+02761+01431101081ADDGA1001+999999999GF100991001001999999001001KA1240M+03411MA1999999098251MD1999999+0021REMSYN082AAXX  29004 82986 32995 0//// 10276 20143 39825 40108 333 10341 29045 55103 58002;
0120829860999992007122911004-09400-038217FM-15+0269SBUF V0201401N004112200019N0112651N1+02801+02001999999ADDGA1041+005401999GF104991999999999999999999MA1101391999999REMMET051METAR SBUF 291100Z 14008KT 9999 SCT018 28/20 Q1014;
0229829860999992007122912004-09400-038217SY-MT+0269SBUF V0201101N005112200019N0200001N1+02751+01731101241ADDGA1021+006001999GF102991021011008001001001KA1240N+02121MA1101391098411MD1999999-0031REMSYN076AAXX  29124 82986 32598 2//// 10275 20173 39841 40124 82100 333 20212 59003;MET051METAR SBUF 291200Z 11010KT 9999 FEW020 31/18 Q1014;
0120829860999992007122913004-09400-038217FM-15+0269SBUF V0201201N005712200019N0112651N1+03301+01801999999ADDGA1021+006001999GF102991999999999999999999MA1101391999999REMMET051METAR SBUF 291300Z 12011KT 9999 FEW020 33/18 Q1014;
0120829860999992007122914004-09400-038217FM-15+0269SBUF V0201201N006212200019N0112651N1+03301+01801999999ADDGA1021+006001999GF102991999999999999999999MA1101291999999REMMET051METAR SBUF 291400Z 12012KT 9999 FEW020 33/18 Q1013;
0120829860999992007122916004-09400-038217FM-15+0269SBUF V0201401N004112200019N0112651N1+03701+01301999999ADDGA1021+006001999GF102991999999999999999999MA1101081999999REMMET051METAR SBUF 291600Z 14008KT 9999 FEW020 37/13 Q1011;
0120829860999992007122917004-09400-038217FM-15+0269SBUF V0201201N004612200019N0112651N1+03701+01301999999ADDGA1021+007501999GF102991999999999999999999MA1101021999999REMMET051METAR SBUF 291700Z 12009KT 9999 FEW025 37/13 Q1010;
0210829860999992007122918004-09400-038217SY-MT+0269SBUF V0201601N003112200019N0200001N1+03451+01431100751ADDGA1021+007501999GF104991021011008001001011MA1101021097981MD1999999-0051REMSYN070AAXX  29184 82986 32598 4//// 10345 20143 39798 40075 82101 333 59005;MET051METAR SBUF 291800Z 16006KT 9999 FEW025 38/12 Q1010;
0120829860999992007122919004-09400-038217FM-15+0269SBUF V0201601N005112200019N0112651N1+03601+01401999999ADDGA1021+007501999GF102991999999999999999999MA1101021999999REMMET051METAR SBUF 291900Z 16010KT 9999 FEW025 36/14 Q1010;
0120829860999992007122920004-09400-038217FM-15+0269SBUF V0201501N003612200019N0112651N1+03501+01501999999ADDGA1021+007501999GF102991999999999999999999MA1101021999999REMMET051METAR SBUF 292000Z 15007KT 9999 FEW025 35/15 Q1010;
0072829860999992007122921004-09400-038217FM-15+0269SBUF V0201601N00261220001CN0099001N1+03301+01201999999ADDMA1101021999999REMMET045METAR SBUF 292100Z 16005KT CAVOK 33/12 Q1010;
0072829860999992007122922004-09400-038217FM-15+0269SBUF V0201301N00771220001CN0099001N1+03101+01401999999ADDMA1101081999999REMMET045METAR SBUF 292200Z 13015KT CAVOK 31/14 Q1011;
0178829860999992007123000004-09400-038217FM-12+0269SBUF V02099999999992200019N0020001N1+02681+01731101141ADDGA1001+999999999GF100991001001999999001001KA1240M+03441MA1999999098311MD1999999+0061REMSYN082AAXX  30004 82986 32995 0//// 10268 20173 39831 40114 333 10344 29049 55114 58006;
0166829860999992007123011004-09400-038217FM-15+0269SBUF V0201401N00411021001CN0112651N1+02701+02401999999ADDGA1041+004801999GA2041+021001999GA3071+090001999GF107991999999999999999999MA1101491999999REMMET065METAR SBUF 301100Z 14008KT 9999 SCT016 SCT070 BKN300 27/24 Q1015;
0294829860999992007123012004-09400-038217SY-MT+0269SBUF V0201501N00571024001CN0100001N1+02741+02021101241ADDGA1041+005401999GA2041+024001999GA3071+090001999GF199999041021008001001021KA1240N+02261MA1101391098411MD1999999+0001REMSYN076AAXX  30124 82986 32597 6//// 10274 20202 39841 40124 84202 333 20226 58000;MET065METAR SBUF 301200Z 15011KT 9999 SCT018 SCT080 BKN300 28/24 Q1014;EQDQ01+000062SCOTCV
0143829860999992007123013004-09400-038217FM-15+0269SBUF V0201401N004610900019N0112651N1+03101+02201999999ADDGA1041+005401999GA2071+090001999GF107991999999999999999999MA1101391999999REMMET058METAR SBUF 301300Z 14009KT 9999 SCT018 BKN300 31/22 Q1014;
0143829860999992007123014004-09400-038217FM-15+0269SBUF V0201201N005110900019N0112651N1+03201+01302999999ADDGA1041+005401999GA2071+090001999GF107991999999999999999999MA1101291999999REMMET058METAR SBUF 301400Z 12010KT 9999 SCT018 BKN300 32/13 Q1013;
0143829860999992007123015004-09400-038217FM-15+0269SBUF V0201301N003110900019N0112651N1+03501+01401999999ADDGA1041+006001999GA2071+090001999GF107991999999999999999999MA1101191999999REMMET058METAR SBUF 301500Z 13006KT 9999 SCT020 BKN300 35/14 Q1012;
0143829860999992007123016004-09400-038217FM-15+0269SBUF V0201401N004110900019N0112651N1+03601+01301999999ADDGA1041+006001999GA2071+090001999GF107991999999999999999999MA1101081999999REMMET058METAR SBUF 301600Z 14008KT 9999 SCT020 BKN300 36/13 Q1011;
0143829860999992007123017004-09400-038217FM-15+0269SBUF V0201001N002610900019N0112651N1+03501+01301999999ADDGA1021+006001999GA2071+090001999GF107991999999999999999999MA1101021999999REMMET058METAR SBUF 301700Z 10005KT 9999 FEW020 BKN300 35/13 Q1010;
0252829860999992007123018004-09400-038217SY-MT+0269SBUF V0201501N00361090001CN0200001N1+03351+01801100771ADDGA1021+006001999GA2071+090001999GF199999031021008001001081MA1100911097961MD1999999-0021REMSYN070AAXX  30184 82986 32598 6//// 10335 20180 39796 40077 83208 333 59002;MET058METAR SBUF 301800Z 15007KT 9999 FEW020 BKN300 34/16 Q1009;EQDQ01+000062SCOTCV
0143829860999992007123019004-09400-038217FM-15+0269SBUF V0201601N004110900019N0112651N1+03501+01801999999ADDGA1021+006001999GA2071+090001999GF107991999999999999999999MA1100911999999REMMET058METAR SBUF 301900Z 16008KT 9999 FEW020 BKN300 35/18 Q1009;
0143829860999992007123020004-09400-038217FM-15+0269SBUF V0201301N005110900019N0112651N1+03401+01801999999ADDGA1021+006001999GA2071+090001999GF107991999999999999999999MA1101021999999REMMET058METAR SBUF 302000Z 13010KT 9999 FEW020 BKN300 34/18 Q1010;
0143829860999992007123021004-09400-038217FM-15+0269SBUF V0201301N005110900019N0112651N1+03101+01901999999ADDGA1021+006001999GA2071+090001999GF107991999999999999999999MA1101021999999REMMET058METAR SBUF 302100Z 13010KT 9999 FEW020 BKN300 31/19 Q1010;
0072829860999992007123022004-09400-038217FM-15+0269SBUF V0201301N00621220001CN0099001N1+03001+01901999999ADDMA1101081999999REMMET045METAR SBUF 302200Z 13012KT CAVOK 30/19 Q1011;
0178829860999992007123100004-09400-038217FM-12+0269SBUF V02099999999992200019N0020001N1+02651+01981101061ADDGA1001+999999999GF100991001001999999001001KA1240M+03401MA1999999098231MD1999999-0081REMSYN082AAXX  31004 82986 32995 0//// 10265 20198 39823 40106 333 10340 29060 55077 59008;
0143829860999992007123111004-09400-038217FM-15+0269SBUF V0201101N005112200019N0112651N1+02601+02001999999ADDGA1041+006001999GA2041+021001999GF104991999999999999999999MA1101391999999REMMET058METAR SBUF 311100Z 11010KT 9999 SCT020 SCT070 26/20 Q1014;
0143829860999992007123112004-09400-038217FM-15+0269SBUF V0201401N004112200019N0112651N1+02801+02001999999ADDGA1041+006001999GA2041+021001999GF104991999999999999999999MA1101491999999REMMET058METAR SBUF 311200Z 14008KT 9999 SCT020 SCT070 28/20 Q1015;
0143829860999992007123113004-09400-038217FM-15+0269SBUF V0201301N004112200019N0112651N1+02901+01901999999ADDGA1041+006001999GA2041+021001999GF104991999999999999999999MA1101391999999REMMET058METAR SBUF 311300Z 13008KT 9999 SCT020 SCT070 29/19 Q1014;
0143829860999992007123114004-09400-038217FM-15+0269SBUF V0201001N004112200019N0112651N1+02901+01901999999ADDGA1041+006001999GA2041+021001999GF104991999999999999999999MA1101391999999REMMET058METAR SBUF 311400Z 10008KT 9999 SCT020 SCT070 29/19 Q1014;
0143829860999992007123115004-09400-038217FM-15+0269SBUF V0201501N004110270019N0112651N1+03101+01801999999ADDGA1041+006001999GA2071+027001999GF107991999999999999999999MA1101291999999REMMET058METAR SBUF 311500Z 15008KT 9999 SCT020 BKN090 31/18 Q1013;
0143829860999992007123116004-09400-038217FM-15+0269SBUF V0201401N004110270019N0112651N1+03201+01701999999ADDGA1041+006001999GA2071+027001999GF107991999999999999999999MA1101191999999REMMET058METAR SBUF 311600Z 14008KT 9999 SCT020 BKN090 32/17 Q1012;
0143829860999992007123117004-09400-038217FM-15+0269SBUF V0201501N003110270019N0112651N1+03301+01701999999ADDGA1041+006001999GA2071+027001999GF107991999999999999999999MA1101081999999REMMET058METAR SBUF 311700Z 15006KT 9999 SCT020 BKN090 33/17 Q1011;
0252829860999992007123118004-09400-038217SY-MT+0269SBUF V0201401N00311027001CN0200001N1+03191+01911100851ADDGA1041+006001999GA2071+027001999GF199999041041008001001011MA1101021098041MD1999999+0081REMSYN070AAXX  31184 82986 32598 6//// 10319 20191 39804 40085 84401 333 58008;MET058METAR SBUF 311800Z 14006KT 9999 SCT020 BKN090 34/17 Q1010;EQDQ01+000062SCOTCV
0166829860999992007123119004-09400-038217FM-15+0269SBUF V0201401N00511027001CN0112651N1+03401+01801999999ADDGA1041+006001999GA2041+027001999GA3071+090001999GF107991999999999999999999MA1101021999999REMMET065METAR SBUF 311900Z 14010KT 9999 SCT020 SCT090 BKN300 34/18 Q1010;
0166829860999992007123120004-09400-038217FM-15+0269SBUF V0201301N00411024001CN0112651N1+03201+01801999999ADDGA1021+006001999GA2041+024001999GA3071+090001999GF107991999999999999999999MA1101021999999REMMET065METAR SBUF 312000Z 13008KT 9999 FEW020 SCT080 BKN300 32/18 Q1010;
0143829860999992007123121004-09400-038217FM-15+0269SBUF V0201501N005112200019N0112651N1+03101+01901999999ADDGA1021+006001999GA2041+090001999GF104991999999999999999999MA1101021999999REMMET058METAR SBUF 312100Z 15010KT 9999 FEW020 SCT300 31/19 Q1010;
0143829860999992007123122004-09400-038217FM-15+0269SBUF V0201201N006212200019N0112651N1+03101+01901999999ADDGA1021+006001999GA2041+090001999GF104991999999999999999999MA1101021999999REMMET058METAR SBUF 312200Z 12012KT 9999 FEW020 SCT300 31/19 Q1010;
