0168831820999992007010100004-11300-041867FM-12+074799999V0201401N002119999999N0010001N1+02281+01541101261ADDGF108991001001999999001011KA1240M+02991MA1999999093091MD1999999-0071REMSYN088AAXX  01004 83182 32994 81404 10228 20154 39309 40126 80001 333 10299 29058 55081 59007;
0156831820999992007010112004-11300-041867FM-12+074799999V0201401N003110450019N0100001N1+02501+01621101431ADDGF108991011021008001051011KA1240N+01631MA1999999093251MD1999999+0011REMSYN076AAXX  01124 83182 32597 81406 10250 20162 39325 40143 81251 333 20163 58001;
0156831820999992007010118004-11300-041867FM-12+074799999V0201401N003619999999N0100001N1+03181+01611100921ADDGF108991999021008001001001MA1999999092831MD1999999-0101REMSYN070AAXX  01184 83182 32597 81407 10318 20161 39283 40092 84200 333 59010;EQDQ01+000042SCOTLC
0168831820999992007010200004-11300-041867FM-12+074799999V0201001N020610450019N0010001N1+02511+01571101141ADDGF108991011021008001041011KA1240M+03291MA1999999093011MD1999999-0081REMSYN088AAXX  02004 83182 32594 81040 10251 20157 39301 40114 81241 333 10329 29052 55107 59008;
0156831820999992007010212004-11300-041867FM-12+074799999V0200901N003610075019N0100001N1+02601+01791101411ADDGF106991061021008001021001KA1240N+01851MA1999999093321MD1999999+0031REMSYN076AAXX  02124 83182 32597 60907 10260 20179 39332 40141 86220 333 20185 58003;
0137831820999992007010218004-11300-041867FM-12+074799999V0200901N002612200019N0100001N1+03241+01541100901ADDGF103991031021008001001001MA1999999092861MD1999999+0031REMSYN070AAXX  02184 83182 32597 30905 10324 20154 39286 40090 83200 333 58003;
0168831820999992007010300004-11300-041867FM-12+074799999V0201401N002619999999N0010001N1+02561+01831101141ADDGF108991001001999999001011KA1240M+03311MA1999999093051MD1999999+0041REMSYN088AAXX  03004 83182 32994 81405 10256 20183 39305 40114 80001 333 10331 29056 55118 58004;
0156831820999992007010312004-11300-041867FM-12+074799999V0201401N004110075019N0100001N1+02641+01801101301ADDGF106991061021008001001001KA1240N+01951MA1999999093191MD1999999-0091REMSYN076AAXX  03124 83182 32597 61408 10264 20180 39319 40130 86200 333 20195 59009;
0137831820999992007010318004-11300-041867FM-12+074799999V0200901N005110450019N0100001N1+03031+01671100971ADDGF108991031021008001041011MA1999999092911MD1999999+0051REMSYN070AAXX  03184 83182 32597 80910 10303 20167 39291 40097 83241 333 58005;
0168831820999992007010400004-11300-041867FM-12+074799999V0201401N003610450019N0010001N1+02401+01771101141ADDGF108991011021008001041011KA1240M+03071MA1999999092991MD1999999-0061REMSYN088AAXX  04004 83182 32594 81407 10240 20177 39299 40114 81241 333 10307 29060 55107 59006;
0156831820999992007010412004-11300-041867FM-12+074799999V0200901N005112200019N0100001N1+02601+01651101271ADDGF108991011021008001001011KA1240N+01731MA1999999093141MD1999999-0051REMSYN076AAXX  04124 83182 32597 80910 10260 20165 39314 40127 81201 333 20173 59005;
0137831820999992007010418004-11300-041867FM-12+074799999V0201401N003112200019N0100001N1+03301+01311100701ADDGF108991021021008001001011MA1999999092671MD1999999-0241REMSYN070AAXX  04184 83182 32597 81406 10330 20131 39267 40070 82201 333 59024;
0168831820999992007010500004-11300-041867FM-12+074799999V0200901N003112200019N0010001N1+02511+01391100971ADDGF108991021001017501041011KA1240M+03351MA1999999092871MD1999999-0121REMSYN088AAXX  05004 83182 32794 80906 10251 20139 39287 40097 82041 333 10335 29046 55107 59012;
0156831820999992007010512004-11300-041867FM-12+074799999V0200901N003110075019N0100001N1+02571+01541101151ADDGF108991081051008001999999KA1240N+02001MA1999999093041MD1999999-0101REMSYN076AAXX  05124 83182 32597 80906 10257 20154 39304 40115 885// 333 20200 59010;
0137831820999992007010518004-11300-041867FM-12+074799999V0200901N002612200019N0100001N1+03221+01651100671ADDGF108991041021008001001011MA1999999092661MD1999999-0011REMSYN070AAXX  05184 83182 32597 80905 10322 20165 39266 40067 84201 333 59001;
0168831820999992007010600004-11300-041867FM-12+074799999V0201401N002112200019N0010001N1+02481+01731100981ADDGF108991021001017501041011KA1240M+03251MA1999999092861MD1999999-0011REMSYN088AAXX  06004 83182 32794 81404 10248 20173 39286 40098 82041 333 10325 29057 55077 59001;
0156831820999992007010612004-11300-041867FM-12+074799999V0200901N004112200019N0100001N1+02641+01771101231ADDGF108991021011012501001011KA1240N+01891MA1999999093111MD1999999+0071REMSYN076AAXX  06124 83182 32697 80908 10264 20177 39311 40123 82101 333 20189 58007;
0137831820999992007010618004-11300-041867FM-12+074799999V0201401N004612200019N0100001N1+03281+01531100611ADDGF108991021021008001001011MA1999999092611MD1999999-0051REMSYN070AAXX  06184 83182 32597 81409 10328 20153 39261 40061 82201 333 59005;
0156831820999992007010712004-11300-041867FM-12+074799999V0200901N003610075019N0100001N1+02541+01911101351ADDGF108991051021008001001011KA1240N+01731MA1999999093211MD1999999+0101REMSYN076AAXX  07124 83182 32597 80907 10254 20191 39321 40135 85201 333 20173 58010;
0137831820999992007010718004-11300-041867FM-12+074799999V0201401N002111050019N0100001N1+03001+01681100981ADDGF108991021021008001001021MA1999999092881MD1999999+0271REMSYN070AAXX  07184 83182 32597 81404 10300 20168 39288 40098 82202 333 58027;
0156831820999992007010812004-11300-041867FM-12+074799999V0201401N003612200019N0100001N1+02591+01671101231ADDGF108991011021008001001011KA1240N+01801MA1999999093101MD1999999-0111REMSYN076AAXX  08124 83182 32597 81407 10259 20167 39310 40123 81201 333 20180 59011;
0137831820999992007010818004-11300-041867FM-12+074799999V0200901N001512200019N0100001N1+03331+01571100721ADDGF108991041021008001001011MA1999999092711MD1999999-0171REMSYN070AAXX  08184 83182 32597 80903 10333 20157 39271 40072 84201 333 59017;
0168831820999992007010900004-11300-041867FM-12+074799999V0200901N003612200019N0010001N1+02601+01651100981ADDGF108991021001017501041011KA1240M+03391MA1999999092901MD1999999-0091REMSYN088AAXX  09004 83182 32794 80907 10260 20165 39290 40098 82041 333 10339 29051 55113 59009;
0175831820999992007010912004-11300-041867FM-12+074799999V0200901N003119999999N0100001N1+02661+02071101121ADDGF108991001001999999001011KA1240N+01861MA1999999093051MD1999999-0051REMSYN076AAXX  09124 83182 32597 80906 10266 20207 39305 40112 80001 333 20186 59005;EQDQ01+008002SCOLCB
0137831820999992007010918004-11300-041867FM-12+074799999V0200901N003110075019N0100001N1+03431+01711100531ADDGF108991051021008001001011MA1999999092571MD1999999-0141REMSYN070AAXX  09184 83182 32597 80906 10343 20171 39257 40053 85201 333 59014;
0187831820999992007011000004-11300-041867FM-12+074799999V0200901N005719999999N0010001N1+02601+01961100861ADDGF108991001001999999001011KA1240M+03431MA1999999092811MD1999999-0091REMSYN088AAXX  10004 83182 32594 80911 10260 20196 39281 40086 80001 333 10343 29060 55115 59009;EQDQ01+008002SCOLCB
0156831820999992007011012004-11300-041867FM-12+074799999V0200901N002112200019N0100001N1+02751+02111101101ADDGF108991031021008001001011KA1240N+01921MA1999999093051MD1999999+0001REMSYN076AAXX  10124 83182 32597 80904 10275 20211 39305 40110 83201 333 20192 58000;
0137831820999992007011018004-11300-041867FM-12+074799999V0202701N001012200019N0100001N1+03321+01821100531ADDGF108991031021008001001011MA1999999092551MD1999999-0021REMSYN070AAXX  10184 83182 32597 82702 10332 20182 39255 40053 83201 333 59002;
0168831820999992007011100004-11300-041867FM-12+074799999V0201401N003619999999N0100001N1+02731+02091100781ADDGF108991001001999999001011KA1240M+03431MA1999999092761MD1999999-0011REMSYN088AAXX  11004 83182 32997 81407 10273 20209 39276 40078 80001 333 10343 29061 55083 59001;
0156831820999992007011112004-11300-041867FM-12+074799999V0200901N003612200019N0100001N1+02781+02091101051ADDGF108991021021008001001011KA1240N+01951MA1999999093021MD1999999-0031REMSYN076AAXX  11124 83182 32597 80907 10278 20209 39302 40105 82201 333 20195 59003;
0137831820999992007011118004-11300-041867FM-12+074799999V0203201N002110075019N0100001N1+03431+01911100501ADDGF108991051021008001001011MA1999999092561MD1999999+0011REMSYN070AAXX  11184 83182 32597 83204 10343 20191 39256 40050 85201 333 58001;
0196831820999992007011200004-11300-041867FM-12+074799999V0201401N002110450019N0010001N1+02251+02081100851ADDAY121061AY221061GF108991031031004501021999KA1240M+03511MA1999999092881MD1999999+0121MW1131REMSYN094AAXX  12004 83182 31494 81404 10225 20208 39288 40085 71322 8332/ 333 10351 29072 55096 58012;
0173831820999992007011212004-11300-041867FM-12+074799999V0200901N002110075019N0100001N1+02631+02111101121ADDAA124001091GF108991071021008001001011KA1240N+02061MA1999999092981MD1999999-0041REMSYN082AAXX  12124 83182 22597 80904 10263 20211 39298 40112 87201 333 20206 59004 69994;
0182831820999992007011218004-11300-041867FM-12+074799999V0200501N003110450019N0100001N1+02251+02081101001ADDAA106007191AY161061AY221061GF108991041031004501021999MA1999999092781MD1999999+0221MW1021REMSYN082AAXX  12184 83182 21497 80506 10225 20208 39278 40100 70262 8432/ 333 58022 60071;
0168831820999992007011300004-11300-041867FM-12+074799999V0202701N001012200019N0010001N1+02131+02051100841ADDGF108991021021008001001011KA1240M+02971MA1999999092701MD1999999-0181REMSYN088AAXX  13004 83182 32594 82702 10213 20205 39270 40084 82201 333 10297 29089 55017 59018;
0173831820999992007011312004-11300-041867FM-12+074799999V0202701N001010450019N0100001N1+02631+02191100991ADDAA124007191GF108991021021008001031011KA1240N+01831MA1999999092851MD1999999-0131REMSYN082AAXX  13124 83182 22597 82702 10263 20219 39285 40099 82231 333 20183 59013 60074;
0182831820999992007011318004-11300-041867FM-12+074799999V0203601N001510450019N0100001N1+02391+02141100791ADDAA106007191AY161061AY221061GF108991021031008001021999MA1999999092591MD1999999-0191MW1021REMSYN082AAXX  13184 83182 21597 83603 10239 20214 39259 40079 70262 8232/ 333 59019 60071;
0173831820999992007011412004-11300-041867FM-12+074799999V0201401N001512200019N0100001N1+02501+02071101171ADDAA124009991GF108991031001017501031011KA1240N+01901MA1999999092971MD1999999+0121REMSYN082AAXX  14124 83182 22797 81403 10250 20207 39297 40117 83031 333 20190 58012 60104;
0137831820999992007011418004-11300-041867FM-12+074799999V0203601N003112200019N0100001N1+03041+01911100651ADDGF108991041021008001001011MA1999999092581MD1999999-0011REMSYN070AAXX  14184 83182 32597 83606 10304 20191 39258 40065 84201 333 59001;
0168831820999992007011500004-11300-041867FM-12+074799999V0202701N001011050019N0010001N1+02631+02061100921ADDGF108991021021008001001021KA1240M+03191MA1999999092831MD1999999-0071REMSYN088AAXX  15004 83182 32594 82702 10263 20206 39283 40092 82202 333 10319 29068 55072 59007;
0156831820999992007011512004-11300-041867FM-12+074799999V0201401N001512200019N0100001N1+02761+02121101071ADDGF108991021021008001001011KA1240N+02051MA1999999093021MD1999999+0051REMSYN076AAXX  15124 83182 32597 81403 10276 20212 39302 40107 82201 333 20205 58005;
0137831820999992007011518004-11300-041867FM-12+074799999V0200901N003112200019N0100001N1+03361+01651100591ADDGF108991041021008001001011MA1999999092631MD1999999+0051REMSYN070AAXX  15184 83182 32597 80906 10336 20165 39263 40059 84201 333 58005;
0168831820999992007011600004-11300-041867FM-12+074799999V0200901N003119999999N0010001N1+02541+01911100931ADDGF108991001001999999001011KA1240M+03401MA1999999092871MD1999999+0041REMSYN088AAXX  16004 83182 32994 80906 10254 20191 39287 40093 80001 333 10340 29060 55100 58004;
0156831820999992007011612004-11300-041867FM-12+074799999V0200901N003112200019N0100001N1+02461+01851101151ADDGF108991021021008001001011KA1240N+01841MA1999999093021MD1999999+0001REMSYN076AAXX  16124 83182 32597 80906 10246 20185 39302 40115 82201 333 20184 58000;
0137831820999992007011618004-11300-041867FM-12+074799999V0201401N003612200019N0100001N1+03301+01761100711ADDGF108991021021008001001011MA1999999092701MD1999999+0071REMSYN070AAXX  16184 83182 32597 81407 10330 20176 39270 40071 82201 333 58007;
0168831820999992007011700004-11300-041867FM-12+074799999V0201401N003119999999N0010001N1+02521+01861100991ADDGF108991001001999999001011KA1240M+03331MA1999999092871MD1999999+0001REMSYN088AAXX  17004 83182 32994 81406 10252 20186 39287 40099 80001 333 10333 29061 55114 58000;
0156831820999992007011712004-11300-041867FM-12+074799999V0200901N005110075019N0100001N1+02481+01851101311ADDGF108991051021008001001011KA1240N+01921MA1999999093171MD1999999+0151REMSYN076AAXX  17124 83182 32597 80910 10248 20185 39317 40131 85201 333 20192 58015;
0137831820999992007011718004-11300-041867FM-12+074799999V0201401N001510075019N0100001N1+03191+01851100781ADDGF108991051021008001001011MA1999999092751MD1999999+0051REMSYN070AAXX  17184 83182 32597 81403 10319 20185 39275 40078 85201 333 58005;
0168831820999992007011800004-11300-041867FM-12+074799999V0201401N003119999999N0010001N1+02571+01861101021ADDGF108991001001999999001011KA1240M+03251MA1999999092901MD1999999+0031REMSYN088AAXX  18004 83182 32994 81406 10257 20186 39290 40102 80001 333 10325 29061 55096 58003;
0156831820999992007011812004-11300-041867FM-12+074799999V0201401N004612200019N0100001N1+02551+01341101361ADDGF108991041021008001001011KA1240N+01831MA1999999093241MD1999999+0071REMSYN076AAXX  18124 83182 32597 81409 10255 20134 39324 40136 84201 333 20183 58007;
0137831820999992007011818004-11300-041867FM-12+074799999V0200901N003612200019N0100001N1+03281+01621100811ADDGF108991041021008001001011MA1999999092791MD1999999+0041REMSYN070AAXX  18184 83182 32597 80907 10328 20162 39279 40081 84201 333 58004;
0168831820999992007011900004-11300-041867FM-12+074799999V0200901N003119999999N0010001N1+02551+01291101011ADDGF108991001001999999001011KA1240M+03231MA1999999092911MD1999999+0011REMSYN088AAXX  19004 83182 32994 80906 10255 20129 39291 40101 80001 333 10323 29049 55114 58001;
0166831820999992007011912004-11300-041867FM-12+074799999V0201401N004112200019N0100001N1+02561+01381101291ADDGA1001+999999999GF100991001001999999001001KA1240N+01681MA1999999093171MD1999999-0071REMSYN070AAXX  19124 83182 32997 01408 10256 20138 39317 40129 333 20168 59007;
0147831820999992007011918004-11300-041867FM-12+074799999V0200901N001512200019N0100001N1+03321+01171100791ADDGA1001+999999999GF100991001001999999001001MA1999999092761MD1999999-0031REMSYN064AAXX  19184 83182 32997 00903 10332 20117 39276 40079 333 59003;
0178831820999992007012000004-11300-041867FM-12+074799999V0200901N003612200019N0010001N1+02511+01331101081ADDGA1001+999999999GF100991001001999999001001KA1240M+03331MA1999999092971MD1999999+0061REMSYN082AAXX  20004 83182 32994 00907 10251 20133 39297 40108 333 10333 29043 55115 58006;
0156831820999992007012012004-11300-041867FM-12+074799999V0200901N004112200019N0100001N1+02591+01781101351ADDGF108991031021008001001011KA1240N+01741MA1999999093231MD1999999+0061REMSYN076AAXX  20124 83182 32597 80908 10259 20178 39323 40135 83201 333 20174 58006;
0137831820999992007012018004-11300-041867FM-12+074799999V0200901N003610450019N0100001N1+03021+01731101011ADDGF108991031031008001031011MA1999999092911MD1999999+0151REMSYN070AAXX  20184 83182 32597 80907 10302 20173 39291 40101 83331 333 58015;
0168831820999992007012100004-11300-041867FM-12+074799999V0200901N002112200019N0100001N1+02531+01701101121ADDGF108991011021008001001011KA1240M+03281MA1999999093011MD1999999+0041REMSYN088AAXX  21004 83182 32597 80904 10253 20170 39301 40112 81201 333 10328 29057 55089 58004;
0156831820999992007012112004-11300-041867FM-12+074799999V0200901N003110450019N0100001N1+02681+01971101361ADDGF108991021021008001031011KA1240N+01871MA1999999093251MD1999999+0021REMSYN076AAXX  21124 83182 32597 80906 10268 20197 39325 40136 82231 333 20187 58002;
0137831820999992007012118004-11300-041867FM-12+074799999V0200901N003110450019N0100001N1+03251+01791100841ADDGF108991041031008001031011MA1999999092811MD1999999-0101REMSYN070AAXX  21184 83182 32597 80906 10325 20179 39281 40084 84331 333 59010;
0173831820999992007012212004-11300-041867FM-12+074799999V0203201N002112200019N0100001N1+02831+01621101231ADDAA124000591GF108991021021008001001011KA1240N+01811MA1999999093101MD1999999-0151REMSYN082AAXX  22124 83182 22597 83204 10283 20162 39310 40123 82201 333 20181 59015 69964;
0137831820999992007012218004-11300-041867FM-12+074799999V0201401N002612200019N0100001N1+03531+01291100561ADDGF102991021021008001001011MA1999999092581MD1999999-0231REMSYN070AAXX  22184 83182 32597 21405 10353 20129 39258 40056 82201 333 59023;
0196831820999992007012300004-11300-041867FM-12+074799999V0201401N004610450019N0010001N1+02501+01821100891ADDAY121061AY221061GF108991041031004501021999KA1240M+03591MA1999999092841MD1999999-0071MW1131REMSYN094AAXX  23004 83182 31494 81409 10250 20182 39284 40089 71322 8432/ 333 10359 29052 55112 59007;
0201831820999992007012312004-11300-041867FM-12+074799999V0201401N005110450019N0100001N1+02761+01971101071ADDAA124003091AY161061AY221061GF108991021011012501031011KA1240N+01931MA1999999093001MD1999999-0101MW1021REMSYN088AAXX  23124 83182 21697 81410 10276 20197 39300 40107 70262 82131 333 20193 59010 60034;
0137831820999992007012318004-11300-041867FM-12+074799999V0202701N001510075019N0100001N1+03001+02001100681ADDGF108991051021008001031011MA1999999092631MD1999999+0051REMSYN070AAXX  23184 83182 32597 82703 10300 20200 39263 40068 85231 333 58005;
0213831820999992007012400004-11300-041867FM-12+074799999V0200501N002110450019N0010001N1+02501+01721100971ADDAA106003091AY161061AY221061GF108991041031004501021999KA1240M+03261MA1999999092921MD1999999+0081MW1131REMSYN100AAXX  24004 83182 21494 80504 10250 20172 39292 40097 71362 8432/ 333 10326 29061 55082 58008 60031;
0201831820999992007012412004-11300-041867FM-12+074799999V0200901N006712200019N0100001N1+02571+01841101251ADDAA124004191AY161061AY221061GF108991021011012501001011KA1240N+01941MA1999999093131MD1999999+0131MW1011REMSYN088AAXX  24124 83182 21697 80913 10257 20184 39313 40125 70162 82101 333 20194 58013 60044;
0137831820999992007012418004-11300-041867FM-12+074799999V0200901N002110075019N0100001N1+03241+01821100711ADDGF108991071021008001001011MA1999999092701MD1999999+0071REMSYN070AAXX  24184 83182 32597 80904 10324 20182 39270 40071 87201 333 58007;
0213831820999992007012500004-11300-041867FM-12+074799999V0201401N002110450019N0100001N1+02431+01851101011ADDAA106008991AY161061AY221061GF108991031031004501031011KA1240M+03311MA1999999092911MD1999999-0011MW1131REMSYN100AAXX  25004 83182 21497 81404 10243 20185 39291 40101 71362 83331 333 10331 29062 55094 59001 60091;
0173831820999992007012512004-11300-041867FM-12+074799999V0200901N002619999999N0100001N1+02581+01821101271ADDAA124008991GF108991001001999999001011KA1240N+01821MA1999999093141MD1999999+0011REMSYN082AAXX  25124 83182 22997 80905 10258 20182 39314 40127 80001 333 20182 58001 60094;
0137831820999992007012518004-11300-041867FM-12+074799999V0200901N002112200019N0010001N1+03241+01821100731ADDGF108991041021008001001011MA1999999092701MD1999999+0001REMSYN070AAXX  25184 83182 32594 80904 10324 20182 39270 40073 84201 333 58000;
0168831820999992007012600004-11300-041867FM-12+074799999V0200901N003119999999N0010001N1+02591+01671100921ADDGF108991001001999999001011KA1240M+03291MA1999999092851MD1999999-0061REMSYN088AAXX  26004 83182 32994 80906 10259 20167 39285 40092 80001 333 10329 29055 55110 59006;
0156831820999992007012612004-11300-041867FM-12+074799999V0200901N002612200019N0100001N1+02561+01851101221ADDGF108991021011012501001011KA1240N+01851MA1999999093121MD1999999-0021REMSYN076AAXX  26124 83182 32697 80905 10256 20185 39312 40122 82101 333 20185 59002;
0137831820999992007012618004-11300-041867FM-12+074799999V0201401N002112200019N0100001N1+03171+01861100791ADDGF108991041021008001001011MA1999999092761MD1999999+0061REMSYN070AAXX  26184 83182 32597 81404 10317 20186 39276 40079 84201 333 58006;
0168831820999992007012700004-11300-041867FM-12+074799999V0200901N003119999999N0010001N1+02621+01881100961ADDGF108991001001999999001011KA1240M+03311MA1999999092881MD1999999+0031REMSYN088AAXX  27004 83182 32994 80906 10262 20188 39288 40096 80001 333 10331 29060 55113 58003;
0156831820999992007012712004-11300-041867FM-12+074799999V0201401N003119999999N0100001N1+02661+02071101191ADDGF108991001001999999001011KA1240N+01841MA1999999093111MD1999999-0011REMSYN076AAXX  27124 83182 32997 81406 10266 20207 39311 40119 80001 333 20184 59001;
0137831820999992007012718004-11300-041867FM-12+074799999V0200501N001012200019N0100001N1+03481+01791100651ADDGF108991031021008001001011MA1999999092681MD1999999-0061REMSYN070AAXX  27184 83182 32597 80502 10348 20179 39268 40065 83201 333 59006;
0156831820999992007012812004-11300-041867FM-12+074799999V0200901N002119999999N0100001N1+02541+01911101361ADDGF108991001001999999001011KA1240N+01871MA1999999093281MD1999999+0171REMSYN076AAXX  28124 83182 32997 80904 10254 20191 39328 40136 80001 333 20187 58017;
0137831820999992007012818004-11300-041867FM-12+074799999V0200501N003112200019N0100001N1+03381+01661100691ADDGF108991041021008001001011MA1999999092771MD1999999+0091REMSYN070AAXX  28184 83182 32597 80506 10338 20166 39277 40069 84201 333 58009;
0168831820999992007012900004-11300-041867FM-12+074799999V0200901N003619999999N0010001N1+02701+01881101011ADDGF108991001001999999001011KA1240M+03401MA1999999092931MD1999999-0061REMSYN088AAXX  29004 83182 32994 80907 10270 20188 39293 40101 80001 333 10340 29056 55080 59006;
0156831820999992007012912004-11300-041867FM-12+074799999V0200901N003112200019N0100001N1+02621+01811101371ADDGF108991031021008001001011KA1240N+01931MA1999999093271MD1999999-0061REMSYN076AAXX  29124 83182 32597 80906 10262 20181 39327 40137 83201 333 20193 59006;
0137831820999992007012918004-11300-041867FM-12+074799999V0200901N003110450019N0100001N1+03321+01611100821ADDGF108991031021008001031011MA1999999092821MD1999999+0051REMSYN070AAXX  29184 83182 32597 80906 10332 20161 39282 40082 83231 333 58005;
0168831820999992007013000004-11300-041867FM-12+074799999V0200901N003612200019N0010001N1+02781+01551100891ADDGF108991031001017501031011KA1240M+03391MA1999999092941MD1999999+0011REMSYN088AAXX  30004 83182 32794 80907 10278 20155 39294 40089 83031 333 10339 29048 55107 58001;
0156831820999992007013012004-11300-041867FM-12+074799999V0201401N001510075019N0100001N1+02541+01981101361ADDGF108991071051008001001011KA1240N+01991MA1999999093261MD1999999-0011REMSYN076AAXX  30124 83182 32597 81403 10254 20198 39326 40136 87501 333 20199 59001;
0137831820999992007013018004-11300-041867FM-12+074799999V0200501N001012200019N0100001N1+03251+01711100971ADDGF108991021021008001001011MA1999999092961MD1999999+0141REMSYN070AAXX  30184 83182 32597 80502 10325 20171 39296 40097 82201 333 58014;
0168831820999992007013100004-11300-041867FM-12+074799999V0200901N003119999999N0010001N1+02621+01811100971ADDGF108991001001999999001021KA1240M+03341MA1999999092891MD1999999-0051REMSYN088AAXX  31004 83182 32994 80906 10262 20181 39289 40097 80002 333 10334 29058 55089 59005;
0156831820999992007013112004-11300-041867FM-12+074799999V0201401N002610450019N0100001N1+02721+01931101151ADDGF108991021021008001031011KA1240N+01881MA1999999093071MD1999999-0191REMSYN076AAXX  31124 83182 32597 81405 10272 20193 39307 40115 82231 333 20188 59019;
0137831820999992007013118004-11300-041867FM-12+074799999V0200501N001510450019N0100001N1+03431+01871100601ADDGF108991031021008001011011MA1999999092641MD1999999-0321REMSYN070AAXX  31184 83182 32597 80503 10343 20187 39264 40060 83211 333 59032;
0168831820999992007020100004-11300-041867FM-12+074799999V0200901N003110450019N0010001N1+02741+01841100871ADDGF108991021021008001011011KA1240M+03451MA1999999092851MD1999999-0041REMSYN088AAXX  01004 83182 32594 80906 10274 20184 39285 40087 82211 333 10345 29054 55094 59004;
0156831820999992007020112004-11300-041867FM-12+074799999V0200901N003110150019N0100001N1+02631+01651101241ADDGF108991071001017501031011KA1240N+02111MA1999999093171MD1999999+0101REMSYN076AAXX  01124 83182 32797 80906 10263 20165 39317 40124 87031 333 20211 58010;
0137831820999992007020118004-11300-041867FM-12+074799999V0200901N003110450019N0100001N1+03361+01411100641ADDGF108991021021008001041011MA1999999092691MD1999999+0051REMSYN070AAXX  01184 83182 32597 80906 10336 20141 39269 40064 82241 333 58005;
0168831820999992007020200004-11300-041867FM-12+074799999V0200501N001510150019N0010001N1+02771+01811100941ADDGF108991071001017501031011KA1240M+03371MA1999999092901MD1999999+0051REMSYN088AAXX  02004 83182 32794 80503 10277 20181 39290 40094 87031 333 10337 29050 55060 58005;
0156831820999992007020212004-11300-041867FM-12+074799999V0201401N003110450019N0100001N1+02721+01931101261ADDGF108991021021008001031011KA1240N+02061MA1999999093211MD1999999+0041REMSYN076AAXX  02124 83182 32597 81406 10272 20193 39321 40126 82231 333 20206 58004;
0137831820999992007020218004-11300-041867FM-12+074799999V0200501N002610450019N0100001N1+03321+01651100681ADDGF108991031031008001041011MA1999999092711MD1999999+0021REMSYN070AAXX  02184 83182 32597 80505 10332 20165 39271 40068 83341 333 58002;
0168831820999992007020300004-11300-041867FM-12+074799999V0203201N001510450019N0010001N1+02501+01891101071ADDGF108991041021008001031011KA1240M+03361MA1999999092981MD1999999+0081REMSYN088AAXX  03004 83182 32594 83203 10250 20189 39298 40107 84231 333 10336 29059 55088 58008;
0156831820999992007020312004-11300-041867FM-12+074799999V0200901N001510150019N0100001N1+02731+02011101161ADDGF108991071001017501011011KA1240N+02121MA1999999093061MD1999999-0151REMSYN076AAXX  03124 83182 32797 80903 10273 20201 39306 40116 87011 333 20212 59015;
0137831820999992007020318004-11300-041867FM-12+074799999V0200501N002110450019N0100001N1+02611+02171100731ADDGF108991031031008001041011MA1999999092731MD1999999+0021REMSYN070AAXX  03184 83182 32597 80504 10261 20217 39273 40073 83341 333 58002;
0213831820999992007020400004-11300-041867FM-12+074799999V0203201N000510450019N0010001N1+02231+02151101141ADDAA106002091AY161061AY221061GF108991041031004501021999KA1240M+02911MA1999999093011MD1999999+0031MW1211REMSYN100AAXX  04004 83182 21494 83201 10223 20215 39301 40114 72162 8432/ 333 10291 29083 55012 58003 60021;
0201831820999992007020412004-11300-041867FM-12+074799999V0201401N002110450019N0010001N1+02221+02081101411ADDAA124009991AY161061AY261061GF108991041031004501021999KA1240N+01991MA1999999093161MD1999999+0101MW1601REMSYN088AAXX  04124 83182 21494 81404 10222 20208 39316 40141 76066 8432/ 333 20199 58010 60104;
0182831820999992007020418004-11300-041867FM-12+074799999V0203201N001510450019N0100001N1+02251+02061101151ADDAA106000591AY161061AY221061GF108991041031004501021999MA1999999092921MD1999999+0191MW1161REMSYN082AAXX  04184 83182 21497 83203 10225 20206 39292 40115 71662 8432/ 333 58019 69951;
0213831820999992007020500004-11300-041867FM-12+074799999V0201801N001010450019N0010001N1+01921+01801101461ADDAA106020191AY161061AY221061GF108991041031004501021999KA1240M+02621MA1999999093101MD1999999+0091MW1021REMSYN100AAXX  05004 83182 21494 81802 10192 20180 39310 40146 70262 8432/ 333 10262 29092 55003 58009 60201;
0173831820999992007020512004-11300-041867FM-12+074799999V0200901N002610450019N0100001N1+02221+01861101561ADDAA124021191GF108991021031008001021999KA1240N+01721MA1999999093251MD1999999+0091REMSYN082AAXX  05124 83182 22597 80905 10222 20186 39325 40156 8232/ 333 20172 58009 60214;
0201831820999992007020518004-11300-041867FM-12+074799999V0201801N002610042019N0100001N1+02071+01991101371ADDAA106004191AY161061AY261061GF108991999041004501031021MA1999999093041MD1999999+0121MW1611REMSYN082AAXX  05184 83182 21497 81805 10207 20199 39304 40137 76166 88432 333 58012 60041;EQDQ01+000082SCOTLC
0213831820999992007020600004-11300-041867FM-12+074799999V0201401N000510450019N0010001N1+02091+02051101331ADDAA106001091AY161061AY221061GF108991021031008001021999KA1240M+02231MA1999999093071MD1999999-0031MW1021REMSYN100AAXX  06004 83182 21594 81401 10209 20205 39307 40133 70262 8232/ 333 10223 29092 55000 59003 60011;
0173831820999992007020612004-11300-041867FM-12+074799999V0200901N005110450019N0100001N1+02361+01891101341ADDAA124005191GF108991031051008001021999KA1240N+01911MA1999999093101MD1999999-0151REMSYN082AAXX  06124 83182 22597 80910 10236 20189 39310 40134 8352/ 333 20191 59015 60054;
0137831820999992007020618004-11300-041867FM-12+074799999V0200901N003110450019N0100001N1+02921+01861100841ADDGF108991041021008001031011MA1999999092791MD1999999-0251REMSYN070AAXX  06184 83182 32597 80906 10292 20186 39279 40084 84231 333 59025;
0168831820999992007020700004-11300-041867FM-12+074799999V0200901N001510450019N0010001N1+02271+01821101131ADDGF108991021021008001011011KA1240M+02981MA1999999092941MD1999999-0131REMSYN088AAXX  07004 83182 32594 80903 10227 20182 39294 40113 82211 333 10298 29070 55044 59013;
0156831820999992007020712004-11300-041867FM-12+074799999V0200901N005112200019N0100001N1+02511+01901101261ADDGF108991031021008001001011KA1240N+01751MA1999999093091MD1999999-0011REMSYN076AAXX  07124 83182 32597 80910 10251 20190 39309 40126 83201 333 20175 59001;
0137831820999992007020718004-11300-041867FM-12+074799999V0201401N004112200019N0100001N1+03151+01781100821ADDGF108991031021008001001011MA1999999092751MD1999999-0041REMSYN070AAXX  07184 83182 32597 81408 10315 20178 39275 40082 83201 333 59004;
0168831820999992007020800004-11300-041867FM-12+074799999V0200901N002619999999N0010001N1+02341+01891101141ADDGF108991001001999999001011KA1240M+03171MA1999999093001MD1999999+0061REMSYN088AAXX  08004 83182 32994 80905 10234 20189 39300 40114 80001 333 10317 29066 55113 58006;
0156831820999992007020812004-11300-041867FM-12+074799999V0200901N004610075019N0100001N1+02491+01881101361ADDGF108991071051008001001011KA1240N+01811MA1999999093181MD1999999+0091REMSYN076AAXX  08124 83182 32597 80909 10249 20188 39318 40136 87501 333 20181 58009;
0137831820999992007020818004-11300-041867FM-12+074799999V0200901N002110075019N0100001N1+03071+01941100921ADDGF108991051021008001001011MA1999999092851MD1999999+0101REMSYN070AAXX  08184 83182 32597 80904 10307 20194 39285 40092 85201 333 58010;
0168831820999992007020900004-11300-041867FM-12+074799999V0200901N003119999999N0010001N1+02441+02011101181ADDGF108991001001999999001011KA1240M+03151MA1999999093041MD1999999+0041REMSYN088AAXX  09004 83182 32994 80906 10244 20201 39304 40118 80001 333 10315 29068 55098 58004;
0156831820999992007020912004-11300-041867FM-12+074799999V0201401N005110075019N0100001N1+02491+01991101491ADDGF108991071051008001001011KA1240N+01761MA1999999093321MD1999999+0141REMSYN076AAXX  09124 83182 32597 81410 10249 20199 39332 40149 87501 333 20176 58014;
0137831820999992007020918004-11300-041867FM-12+074799999V0201401N002612200019N0100001N1+03171+02121101041ADDGF108991041021008001001011MA1999999092971MD1999999+0121REMSYN070AAXX  09184 83182 32597 81405 10317 20212 39297 40104 84201 333 58012;
0168831820999992007021000004-11300-041867FM-12+074799999V0201401N004619999999N0010001N1+02421+01971101321ADDGF108991001001999999001011KA1240M+03221MA1999999093161MD1999999+0121REMSYN088AAXX  10004 83182 32994 81409 10242 20197 39316 40132 80001 333 10322 29070 55102 58012;
0156831820999992007021012004-11300-041867FM-12+074799999V0201401N005112200019N0100001N1+02641+01691101451ADDGF104991041021008001001001KA1240N+01931MA1999999093321MD1999999+0001REMSYN076AAXX  10124 83182 32597 41410 10264 20169 39332 40145 84200 333 20193 58000;
0137831820999992007021018004-11300-041867FM-12+074799999V0200901N003110075019N0100001N1+03161+01671101031ADDGF108991051021008001001011MA1999999092961MD1999999-0011REMSYN070AAXX  10184 83182 32597 80906 10316 20167 39296 40103 85201 333 59001;
0178831820999992007021100004-11300-041867FM-12+074799999V0200901N003112200019N0010001N1+02461+01581101221ADDGA1001+999999999GF100991001001999999001001KA1240M+03201MA1999999093101MD1999999-0061REMSYN082AAXX  11004 83182 32994 00906 10246 20158 39310 40122 333 10320 29053 55104 59006;
0175831820999992007021112004-11300-041867FM-12+074799999V0201401N001519999999N0100001N1+02531+01901101411ADDGF107991999071008001001001KA1240N+02181MA1999999093251MD1999999-0071REMSYN076AAXX  11124 83182 32597 71403 10253 20190 39325 40141 88700 333 20218 59007;EQDQ01+000082SCOTLC
0137831820999992007021118004-11300-041867FM-12+074799999V0200901N001510450019N0100001N1+03321+01571100751ADDGF108991041021008001041001MA1999999092721MD1999999-0241REMSYN070AAXX  11184 83182 32597 80903 10332 20157 39272 40075 84240 333 59024;
0168831820999992007021200004-11300-041867FM-12+074799999V0203601N001512200019N0010001N1+02611+01851101071ADDGF108991021021008001001011KA1240M+03351MA1999999092961MD1999999-0141REMSYN088AAXX  12004 83182 32594 83603 10261 20185 39296 40107 82201 333 10335 29058 55108 59014;
0201831820999992007021212004-11300-041867FM-12+074799999V0202701N002612200019N0100001N1+02741+01921101131ADDAA124000591AY161061AY221061GF108991031021008001001011KA1240N+01981MA1999999093071MD1999999-0181MW1031REMSYN088AAXX  12124 83182 21597 82705 10274 20192 39307 40113 70362 83201 333 20198 59018 69944;
0182831820999992007021218004-11300-041867FM-12+074799999V0201801N004112200019N0100001N1+02701+01941100611ADDAA106002091AY121061AY221061GF108991031031008001001011MA1999999092531MD1999999-0191MW1211REMSYN082AAXX  12184 83182 21597 81808 10270 20194 39253 40061 72122 83301 333 59019 60021;
0196831820999992007021300004-11300-041867FM-12+074799999V0201401N001510450019N0010001N1+02441+01921100891ADDAY121061AY221061GF108991041031008001021011KA1240M+03161MA1999999092861MD1999999-0141MW1131REMSYN094AAXX  13004 83182 31594 81403 10244 20192 39286 40089 71322 84321 333 10316 29068 55068 59014;
0173831820999992007021312004-11300-041867FM-12+074799999V0203601N002610075019N0100001N1+02351+02041101161ADDAA124002091GF108991081051008001999999KA1240N+01901MA1999999093001MD1999999-0071REMSYN082AAXX  13124 83182 22597 83605 10235 20204 39300 40116 885// 333 20190 59007 60024;
0182831820999992007021318004-11300-041867FM-12+074799999V0203601N003110042019N0100001N1+02161+02111100891ADDAA106032091AY161061AY261061GF108991051031004501021999MA1999999092661MD1999999+0131MW1611REMSYN082AAXX  13184 83182 21497 83606 10216 20211 39266 40089 76166 8532/ 333 58013 60321;
0213831820999992007021400004-11300-041867FM-12+074799999V0200901N000510450019N0010001N1+02171+02071101181ADDAA106005191AY161061AY221061GF108991041031004501021999KA1240M+02781MA1999999092961MD1999999+0121MW1131REMSYN100AAXX  14004 83182 21494 80901 10217 20207 39296 40118 71362 8432/ 333 10278 29092 55009 58012 60051;
0173831820999992007021412004-11300-041867FM-12+074799999V0203601N001010450019N0100001N1+02521+02051101101ADDAA124037191GF108991021021008001041011KA1240N+01941MA1999999092931MD1999999-0071REMSYN082AAXX  14124 83182 22597 83602 10252 20205 39293 40110 82241 333 20194 59007 60374;
0182831820999992007021418004-11300-041867FM-12+074799999V0202701N001510450019N0100001N1+02521+02151100661ADDAA106002091AY161061AY261061GF108991031031004501021999MA1999999092501MD1999999-0161MW1161REMSYN082AAXX  14184 83182 21497 82703 10252 20215 39250 40066 71666 8332/ 333 59016 60021;
0213831820999992007021500004-11300-041867FM-12+074799999V0203601N001510042019N0010001N1+02041+01971101201ADDAA106031091AY121061AY221061GF108991061071004501021999KA1240M+02821MA1999999093001MD1999999+0041MW1611REMSYN100AAXX  15004 83182 21494 83603 10204 20197 39300 40120 76122 8672/ 333 10282 29087 55050 58004 60311;
0201831820999992007021512004-11300-041867FM-12+074799999V0203601N002110042019N0100001N1+02301+02011101231ADDAA124035191AY161061AY221061GF108991081051004501999999KA1240N+01811MA1999999092981MD1999999+0051MW1021REMSYN088AAXX  15124 83182 21497 83604 10230 20201 39298 40123 70262 885// 333 20181 58005 60354;
0196831820999992007021600004-11300-041867FM-12+074799999V0200501N001510450019N0010001N1+02331+02141100971ADDAY121061AY221061GF108991031031008001021999KA1240M+02931MA1999999092791MD1999999-0211MW1131REMSYN094AAXX  16004 83182 31594 80503 10233 20214 39279 40097 71322 8332/ 333 10293 29080 55061 59021;
0201831820999992007021612004-11300-041867FM-12+074799999V0200901N002610042019N0100001N1+02061+01991101311ADDAA124010991AY161061AY261061GF108991061071004501021999KA1240N+01801MA1999999093071MD1999999-0091MW1611REMSYN088AAXX  16124 83182 21497 80905 10206 20199 39307 40131 76166 8672/ 333 20180 59009 60114;
0182831820999992007021618004-11300-041867FM-12+074799999V0203201N003110075019N0100001N1+02341+02001100931ADDAA106002091AY161061AY221061GF108991051051008001021999MA1999999092721MD1999999+0181MW1021REMSYN082AAXX  16184 83182 21597 83206 10234 20200 39272 40093 70262 8552/ 333 58018 60021;
0201831820999992007021712004-11300-041867FM-12+074799999V0202701N001510450019N0100001N1+02421+02111101141ADDAA124004191AY161061AY221061GF108991041051008001021999KA1240N+01911MA1999999092931MD1999999-0141MW1021REMSYN088AAXX  17124 83182 21597 82703 10242 20211 39293 40114 70262 8452/ 333 20191 59014 60044;
0137831820999992007021718004-11300-041867FM-12+074799999V0202701N003110075019N0100001N1+02801+02181100611ADDGF108991051021008001011011MA1999999092481MD1999999-0231REMSYN070AAXX  17184 83182 32597 82706 10280 20218 39248 40061 85211 333 59023;
0213831820999992007021800004-11300-041867FM-12+074799999V0200501N001010450019N0010001N1+02301+02161100981ADDAA106001091AY161061AY221061GF108991031031004501021999KA1240M+02861MA1999999092821MD1999999-0061MW1131REMSYN100AAXX  18004 83182 21494 80502 10230 20216 39282 40098 71362 8332/ 333 10286 29084 55053 59006 69991;
0201831820999992007021812004-11300-041867FM-12+074799999V0203601N002610042019N0100001N1+02241+02121101101ADDAA124010991AY161061AY261061GF108991061071004501021999KA1240N+01941MA1999999092871MD1999999-0061MW1611REMSYN088AAXX  18124 83182 21497 83605 10224 20212 39287 40110 76166 8672/ 333 20194 59006 60114;
0182831820999992007021818004-11300-041867FM-12+074799999V0203601N001510042019N0100001N1+02241+01171100801ADDAA106000021AY161061AY221061GF108991051071004501021999MA1999999092621MD1999999+0011MW1021REMSYN082AAXX  18184 83182 21497 83603 10224 20117 39262 40080 70262 8572/ 333 58001 69911;
0173831820999992007021912004-11300-041867FM-12+074799999V0200901N002610075019N0100001N1+02461+01971101081ADDAA124000391GF108991071051008001001011KA1240N+01881MA1999999092891MD1999999+0021REMSYN082AAXX  19124 83182 22597 80905 10246 20197 39289 40108 87501 333 20188 58002 69934;
0137831820999992007021918004-11300-041867FM-12+074799999V0200501N002610075019N0100001N1+02881+01771100561ADDGF108991061021008001001011MA1999999092461MD1999999-0161REMSYN070AAXX  19184 83182 32597 80505 10288 20177 39246 40056 86201 333 59016;
0201831820999992007022012004-11300-041867FM-12+074799999V0203601N003110042019N0100001N1+01991+01911101411ADDAA124038191AY161061AY261061GF108991061031004501021999KA1240N+01791MA1999999093091MD1999999+0201MW1611REMSYN088AAXX  20124 83182 21497 83606 10199 20191 39309 40141 76166 8632/ 333 20179 58020 60384;
0137831820999992007022018004-11300-041867FM-12+074799999V0201801N002610075019N0100001N1+02531+02101100931ADDGF108991051051008001011011MA1999999092721MD1999999+0261REMSYN070AAXX  20184 83182 32597 81805 10253 20210 39272 40093 85511 333 58026;
0201831820999992007022112004-11300-041867FM-12+074799999V0201401N002610075019N0100001N1+02221+01901101341ADDAA124004191AY161061AY261061GF108991081051008001999999KA1240N+01871MA1999999093061MD1999999-0031MW1021REMSYN088AAXX  21124 83182 21597 81405 10222 20190 39306 40134 70266 885// 333 20187 59003 60044;
0137831820999992007022118004-11300-041867FM-12+074799999V0200901N003610450019N0100001N1+02501+01941101001ADDGF108991021031008001021999MA1999999092781MD1999999+0061REMSYN070AAXX  21184 83182 32597 80907 10250 20194 39278 40100 8232/ 333 58006;
0168831820999992007022200004-11300-041867FM-12+074799999V0201401N004110075019N0010001N1+02201+01971101311ADDGF108991081051008001999999KA1240M+02881MA1999999093071MD1999999+0081REMSYN088AAXX  22004 83182 32594 81408 10220 20197 39307 40131 885// 333 10288 29082 55028 58008;
0156831820999992007022212004-11300-041867FM-12+074799999V0201401N003610075019N0100001N1+02401+01971101531ADDGF108991071051008001001011KA1240N+01751MA1999999093301MD1999999+0241REMSYN076AAXX  22124 83182 32597 81407 10240 20197 39330 40153 87501 333 20175 58024;
0137831820999992007022218004-11300-041867FM-12+074799999V0201401N003110075019N0100001N1+02911+02081101051ADDGF108991061051008001001011MA1999999092941MD1999999+0161REMSYN070AAXX  22184 83182 32597 81406 10291 20208 39294 40105 86501 333 58016;
0213831820999992007022300004-11300-041867FM-12+074799999V0200901N002610042019N0100001N1+02101+02001101461ADDAA106000891AY161061AY221061GF108991081071004501999999KA1240M+02971MA1999999093211MD1999999+0141MW1021REMSYN100AAXX  23004 83182 21497 80905 10210 20200 39321 40146 70262 887// 333 10297 29082 55110 58014 69981;
0173831820999992007022312004-11300-041867FM-12+074799999V0201401N005110075019N0100001N1+02301+01851101641ADDAA124000891GF108991081051008001999999KA1240N+01811MA1999999093371MD1999999+0071REMSYN082AAXX  23124 83182 22597 81410 10230 20185 39337 40164 885// 333 20181 58007 69984;
0151831820999992007022318004-11300-041867FM-12+074799999V0201401N002119999999N0100001N1+02851+01771999999ADDGF108991999011008001011061MD1999999+0061REMSYN064AAXX  23184 83182 32597 81404 10285 20177 49300 80116 333 58006;EQDQ01+000002SCOTLCQ02+093003APOSLP
0168831820999992007022400004-11300-041867FM-12+074799999V0201401N003110450019N0010001N1+02341+01871101431ADDGF108991041051008001051011KA1240M+02931MA1999999093521MD1999999+0041REMSYN088AAXX  24004 83182 32594 81406 10234 20187 39352 40143 84551 333 10293 29070 55100 58004;
0156831820999992007022412004-11300-041867FM-12+074799999V0201401N003610075019N0100001N1+02431+01941101511ADDGF108991061051008001001011KA1240N+01731MA1999999093321MD1999999-0071REMSYN076AAXX  24124 83182 32597 81407 10243 20194 39332 40151 86501 333 20173 59007;
0182831820999992007022418004-11300-041867FM-12+074799999V0201401N003112200019N0100001N1+02611+02061101201ADDAA106001091AY161061AY221061GF108991031031008001001011MA1999999093001MD1999999+0001MW1021REMSYN082AAXX  24184 83182 21597 81406 10261 20206 39300 40120 70262 83301 333 58000 60011;
0168831820999992007022500004-11300-041867FM-12+074799999V0201401N002612200019N0100001N1+02241+02091101381ADDGF108991031021008001001011KA1240M+02851MA1999999093201MD1999999-0051REMSYN088AAXX  25004 83182 32597 81405 10224 20209 39320 40138 83201 333 10285 29082 55068 59005;
0137831820999992007022518004-11300-041867FM-12+074799999V0201401N003112200019N0100001N1+02971+02021101001ADDGF108991041031008001001011MA1999999092881MD1999999-0121REMSYN070AAXX  25184 83182 32597 81406 10297 20202 39288 40100 84301 333 59012;
0168831820999992007022600004-11300-041867FM-12+074799999V0201801N001012200019N0010001N1+02331+02111101231ADDGF108991031021008001001011KA1240M+03081MA1999999093081MD1999999-0121REMSYN088AAXX  26004 83182 32594 81802 10233 20211 39308 40123 83201 333 10308 29077 55083 59012;
0156831820999992007022612004-11300-041867FM-12+074799999V0201401N003610075019N0100001N1+02531+01851101331ADDGF107991071021008001001001KA1240N+01931MA1999999093171MD1999999-0051REMSYN076AAXX  26124 83182 32597 71407 10253 20185 39317 40133 87200 333 20193 59005;
0137831820999992007022618004-11300-041867FM-12+074799999V0200901N003112200019N0100001N1+02901+01901100871ADDGF103991031021008001001001MA1999999092761MD1999999-0121REMSYN070AAXX  26184 83182 32597 30906 10290 20190 39276 40087 83200 333 59012;
0168831820999992007022700004-11300-041867FM-12+074799999V0201401N003119999999N0010001N1+02281+01881101251ADDGF108991001001999999001011KA1240M+03051MA1999999093081MD1999999+0001REMSYN088AAXX  27004 83182 32994 81406 10228 20188 39308 40125 80001 333 10305 29069 55107 58000;
0156831820999992007022712004-11300-041867FM-12+074799999V0201401N004110075019N0100001N1+02471+01971101501ADDGF108991071051008001001011KA1240N+01871MA1999999093311MD1999999+0141REMSYN076AAXX  27124 83182 32597 81408 10247 20197 39331 40150 87501 333 20187 58014;
0182831820999992007022718004-11300-041867FM-12+074799999V0200501N005110450019N0100001N1+02501+02191101051ADDAA106000391AY161061AY221061GF108991031031008001021999MA1999999092861MD1999999+0101MW1211REMSYN082AAXX  27184 83182 21597 80510 10250 20219 39286 40105 72162 8332/ 333 58010 69931;
0168831820999992007022800004-11300-041867FM-12+074799999V0201401N003110075019N0010001N1+02211+01981101271ADDGF108991081071008001999999KA1240M+03011MA1999999093081MD1999999+0001REMSYN088AAXX  28004 83182 32594 81406 10221 20198 39308 40127 887// 333 10301 29083 55094 58000;
0137831820999992007022818004-11300-041867FM-12+074799999V0200901N003112200019N0100001N1+02901+01551100951ADDGF108991021021008001001011MA1999999092821MD1999999-0041REMSYN070AAXX  28184 83182 32597 80906 10290 20155 39282 40095 82201 333 59004;
0168831820999992007030100004-11300-041867FM-12+074799999V0201401N004119999999N0010001N1+02151+01651101091ADDGF108991001001999999001011KA1240M+02951MA1999999092901MD1999999-0181REMSYN088AAXX  01004 83182 32994 81408 10215 20165 39290 40109 80001 333 10295 29065 55110 59018;
0156831820999992007030112004-11300-041867FM-12+074799999V0200901N005110075019N0100001N1+02201+01901101401ADDGF108991081071008001001001KA1240N+01701MA1999999093151MD1999999-0051REMSYN076AAXX  01124 83182 32597 80910 10220 20190 39315 40140 88700 333 20170 59005;
0137831820999992007030118004-11300-041867FM-12+074799999V0200901N005112200019N0100001N1+02901+01751100921ADDGF108991041021008001001011MA1999999092781MD1999999-0041REMSYN070AAXX  01184 83182 32597 80910 10290 20175 39278 40092 84201 333 59004;
0156831820999992007030212004-11300-041867FM-12+074799999V0201401N004112200019N0100001N1+02441+01691101311ADDGF102991021021008001001001KA1240N+01491MA1999999093101MD1999999-0051REMSYN076AAXX  02124 83182 32597 21408 10244 20169 39310 40131 82200 333 20149 59005;
0137831820999992007030218004-11300-041867FM-12+074799999V0201401N003112200019N0100001N1+02731+01861101051ADDGF104991041021008001001001MA1999999092851MD1999999+0071REMSYN070AAXX  02184 83182 32597 41406 10273 20186 39285 40105 84200 333 58007;
0168831820999992007030300004-11300-041867FM-12+074799999V0201401N003112200019N0010001N1+02181+01821101171ADDGF102991021001000751041001KA1240M+02841MA1999999092971MD1999999+0041REMSYN088AAXX  03004 83182 32194 21406 10218 20182 39297 40117 82040 333 10284 29070 55067 58004;
0156831820999992007030312004-11300-041867FM-12+074799999V0200901N002110075019N0100001N1+02121+01821101421ADDGF108991081051008001999999KA1240N+01671MA1999999093171MD1999999+0071REMSYN076AAXX  03124 83182 32597 80904 10212 20182 39317 40142 885// 333 20167 58007;
0137831820999992007030318004-11300-041867FM-12+074799999V0200901N005112200019N0100001N1+02831+01901101081ADDGF108991041021008001001011MA1999999092931MD1999999+0081REMSYN070AAXX  03184 83182 32597 80910 10283 20190 39293 40108 84201 333 58008;
0168831820999992007030400004-11300-041867FM-12+074799999V0201401N003119999999N0010001N1+02111+01881101241ADDGF108991001001999999001011KA1240M+02941MA1999999092971MD1999999+0001REMSYN088AAXX  04004 83182 32994 81406 10211 20188 39297 40124 80001 333 10294 29078 55085 58000;
0175831820999992007030412004-11300-041867FM-12+074799999V0201401N005110075019N0100001N1+02401+01771101411ADDGF107991999021008001001001KA1240N+01761MA1999999093171MD1999999+0001REMSYN076AAXX  04124 83182 32597 71410 10240 20177 39317 40141 86200 333 20176 58000;EQDQ01+000062SCOTLC
0137831820999992007030418004-11300-041867FM-12+074799999V0201401N004612200019N0100001N1+02901+01551101061ADDGF108991021021008001001011MA1999999092911MD1999999-0021REMSYN070AAXX  04184 83182 32597 81409 10290 20155 39291 40106 82201 333 59002;
0168831820999992007030500004-11300-041867FM-12+074799999V0201401N003111050019N0010001N1+02151+01691101241ADDGF108991021001017501041021KA1240M+02931MA1999999093041MD1999999+0041REMSYN088AAXX  05004 83182 32794 81406 10215 20169 39304 40124 82042 333 10293 29068 55091 58004;
0156831820999992007030512004-11300-041867FM-12+074799999V0201401N004610075019N0100001N1+02351+01701101461ADDGF108991061051008001001021KA1240N+01581MA1999999093221MD1999999+0051REMSYN076AAXX  05124 83182 32597 81409 10235 20170 39322 40146 86502 333 20158 58005;
0137831820999992007030518004-11300-041867FM-12+074799999V0200901N003110075019N0100001N1+02731+01991101121ADDGF108991071051008001001011MA1999999092931MD1999999+0021REMSYN070AAXX  05184 83182 32597 80906 10273 20199 39293 40112 87501 333 58002;
0213831820999992007030600004-11300-041867FM-12+074799999V0201401N004612200019N0010001N1+02101+01891101161ADDAA106000591AY161061AY221061GF108991021051008001001011KA1240M+02781MA1999999092931MD1999999-0111MW1011REMSYN100AAXX  06004 83182 21594 81409 10210 20189 39293 40116 70162 82501 333 10278 29077 55074 59011 69951;
0173831820999992007030612004-11300-041867FM-12+074799999V0200901N003112200019N0100001N1+02431+01911101541ADDAA124000591GF108991041051008001001011KA1240N+01751MA1999999093301MD1999999+0081REMSYN082AAXX  06124 83182 22597 80906 10243 20191 39330 40154 84501 333 20175 58008 69954;
0168831820999992007030700004-11300-041867FM-12+074799999V0200901N003119999999N0010001N1+02261+01981101421ADDGF108991001001999999001021KA1240M+02991MA1999999093221MD1999999+0291REMSYN088AAXX  07004 83182 32994 80906 10226 20198 39322 40142 80002 333 10299 29072 55096 58029;
0137831820999992007030718004-11300-041867FM-12+074799999V0200901N003610075019N0100001N1+02881+01941101241ADDGF108991061021008001001021MA1999999093071MD1999999-0091REMSYN070AAXX  07184 83182 32597 80907 10288 20194 39307 40124 86202 333 59009;
0168831820999992007030800004-11300-041867FM-12+074799999V0201401N002610450019N0010001N1+02161+02041101461ADDGF108991021051008001051011KA1240M+02951MA1999999093221MD1999999+0001REMSYN088AAXX  08004 83182 32594 81405 10216 20204 39322 40146 82551 333 10295 29078 55090 58000;
0156831820999992007030812004-11300-041867FM-12+074799999V0201401N004110075019N0100001N1+02411+01981101491ADDGF108991081051008001999999KA1240N+01741MA1999999093261MD1999999-0151REMSYN076AAXX  08124 83182 32597 81408 10241 20198 39326 40149 885// 333 20174 59015;
0137831820999992007030818004-11300-041867FM-12+074799999V0201401N005112200019N0100001N1+02881+02211101091ADDGF108991041051008001001011MA1999999092941MD1999999-0131REMSYN070AAXX  08184 83182 32597 81410 10288 20221 39294 40109 84501 333 59013;
0168831820999992007030900004-11300-041867FM-12+074799999V0201401N004119999999N0010001N1+02161+01931101231ADDGF108991001001999999001021KA1240M+02901MA1999999093031MD1999999-0191REMSYN088AAXX  09004 83182 32994 81408 10216 20193 39303 40123 80002 333 10290 29088 55103 59019;
0156831820999992007030912004-11300-041867FM-12+074799999V0201401N005110075019N0100001N1+02431+01631101381ADDGF106991061051008001001001KA1240N+01711MA1999999093161MD1999999-0101REMSYN076AAXX  09124 83182 32597 61410 10243 20163 39316 40138 86500 333 20171 59010;
0137831820999992007030918004-11300-041867FM-12+074799999V0201401N004110075019N0100001N1+02751+01821100991ADDGF106991051021008001001011MA1999999092831MD1999999-0111REMSYN070AAXX  09184 83182 32597 61408 10275 20182 39283 40099 85201 333 59011;
0168831820999992007031000004-11300-041867FM-12+074799999V0201401N003619999999N0010001N1+02111+01771101231ADDGF108991001001999999001011KA1240M+02931MA1999999093011MD1999999-0021REMSYN088AAXX  10004 83182 32994 81407 10211 20177 39301 40123 80001 333 10293 29070 55100 59002;
0137831820999992007031018004-11300-041867FM-12+074799999V0200901N001510075019N0100001N1+02991+01831100861ADDGF108991051021008001001011MA1999999092741MD1999999-0091REMSYN070AAXX  10184 83182 32597 80903 10299 20183 39274 40086 85201 333 59009;
0168831820999992007031100004-11300-041867FM-12+074799999V0200901N003119999999N0010001N1+02221+01691101091ADDGF108991001001999999001011KA1240M+03031MA1999999092921MD1999999-0091REMSYN088AAXX  11004 83182 32994 80906 10222 20169 39292 40109 80001 333 10303 29066 55109 59009;
0156831820999992007031112004-11300-041867FM-12+074799999V0200901N002612200019N0100001N1+02491+01861101391ADDGF108991021021008001001011KA1240N+01631MA1999999093191MD1999999+0011REMSYN076AAXX  11124 83182 32597 80905 10249 20186 39319 40139 82201 333 20163 58001;
0137831820999992007031118004-11300-041867FM-12+074799999V0201401N002112200019N0100001N1+02981+01761100881ADDGF108991041021008001001011MA1999999092751MD1999999+0011REMSYN070AAXX  11184 83182 32597 81404 10298 20176 39275 40088 84201 333 58001;
0168831820999992007031200004-11300-041867FM-12+074799999V0200901N002119999999N0010001N1+02241+01801101151ADDGF108991001001999999001011KA1240M+03051MA1999999092971MD1999999+0051REMSYN088AAXX  12004 83182 32994 80904 10224 20180 39297 40115 80001 333 10305 29067 55108 58005;
0156831820999992007031212004-11300-041867FM-12+074799999V0201401N003610450019N0100001N1+02491+01761101401ADDGF108991011021008001051011KA1240N+01751MA1999999093201MD1999999+0011REMSYN076AAXX  12124 83182 32597 81407 10249 20176 39320 40140 81251 333 20175 58001;
0137831820999992007031218004-11300-041867FM-12+074799999V0200901N003110450019N0100001N1+02821+01941100981ADDGF108991041051008001011011MA1999999092841MD1999999+0091REMSYN070AAXX  12184 83182 32597 80906 10282 20194 39284 40098 84511 333 58009;
0168831820999992007031300004-11300-041867FM-12+074799999V0200901N003610075019N0010001N1+02291+01891101291ADDGF108991081071008001999999KA1240M+02891MA1999999093101MD1999999+0131REMSYN088AAXX  13004 83182 32594 80907 10229 20189 39310 40129 887// 333 10289 29071 55040 58013;
0156831820999992007031312004-11300-041867FM-12+074799999V0201401N003110075019N0100001N1+02441+01921101481ADDGF108991081051008001999999KA1240N+01871MA1999999093271MD1999999+0071REMSYN076AAXX  13124 83182 32597 81406 10244 20192 39327 40148 885// 333 20187 58007;
0137831820999992007031318004-11300-041867FM-12+074799999V0201401N004610450019N0100001N1+02811+02061100961ADDGF108991031031008001011011MA1999999092831MD1999999-0011REMSYN070AAXX  13184 83182 32597 81409 10281 20206 39283 40096 83311 333 59001;
0168831820999992007031400004-11300-041867FM-12+074799999V0200901N004119999999N0010001N1+02251+01951101281ADDGF108991001001999999001011KA1240M+02931MA1999999093091MD1999999-0011REMSYN088AAXX  14004 83182 32994 80908 10225 20195 39309 40128 80001 333 10293 29076 55035 59001;
0156831820999992007031412004-11300-041867FM-12+074799999V0201401N004610075019N0100001N1+02431+01961101331ADDGF108991081051008001999999KA1240N+01761MA1999999093141MD1999999+0041REMSYN076AAXX  14124 83182 32597 81409 10243 20196 39314 40133 885// 333 20176 58004;
0137831820999992007031418004-11300-041867FM-12+074799999V0200901N003110450019N0100001N1+02931+01711100861ADDGF105991041021008001051001MA1999999092741MD1999999-0091REMSYN070AAXX  14184 83182 32597 50906 10293 20171 39274 40086 84250 333 59009;
0156831820999992007031512004-11300-041867FM-12+074799999V0200901N005712200019N0100001N1+02531+01921101281ADDGF108991041021008001001011KA1240N+01871MA1999999093111MD1999999-0031REMSYN076AAXX  15124 83182 32597 80911 10253 20192 39311 40128 84201 333 20187 59003;
0156831820999992007031518004-11300-041867FM-12+074799999V0200501N003119999999N0100001N1+03081+01481100821ADDGF108991999021008001001001MA1999999092741MD1999999+0001REMSYN070AAXX  15184 83182 32597 80506 10308 20148 39274 40082 84200 333 58000;EQDQ01+000042SCOTLC
0168831820999992007031600004-11300-041867FM-12+074799999V0200901N002619999999N0010001N1+02211+01771101191ADDGF108991001001999999001011KA1240M+03101MA1999999093011MD1999999+0001REMSYN088AAXX  16004 83182 32994 80905 10221 20177 39301 40119 80001 333 10310 29065 55105 58000;
0156831820999992007031612004-11300-041867FM-12+074799999V0200901N002111050019N0100001N1+02561+01831101421ADDGF108991021021008001001021KA1240N+01701MA1999999093241MD1999999+0131REMSYN076AAXX  16124 83182 32597 80904 10256 20183 39324 40142 82202 333 20170 58013;
0137831820999992007031618004-11300-041867FM-12+074799999V0201401N002112200019N0100001N1+03081+01681100901ADDGF108991041021008001001011MA1999999092791MD1999999+0051REMSYN070AAXX  16184 83182 32597 81404 10308 20168 39279 40090 84201 333 58005;
0168831820999992007031700004-11300-041867FM-12+074799999V0200901N003119999999N0010001N1+02231+01681101271ADDGF108991001001999999001011KA1240M+03241MA1999999093101MD1999999+0091REMSYN088AAXX  17004 83182 32994 80906 10223 20168 39310 40127 80001 333 10324 29062 55087 58009;
0156831820999992007031712004-11300-041867FM-12+074799999V0200901N002110075019N0100001N1+02601+01871101391ADDGF108991061021008001031011KA1240N+01581MA1999999093211MD1999999-0031REMSYN076AAXX  17124 83182 32597 80904 10260 20187 39321 40139 86231 333 20158 59003;
0156831820999992007031812004-11300-041867FM-12+074799999V0201401N003610450019N0100001N1+02691+01851101351ADDGF108991021021008001041021KA1240N+01651MA1999999093211MD1999999+0001REMSYN076AAXX  18124 83182 32597 81407 10269 20185 39321 40135 82242 333 20165 58000;
0156831820999992007031912004-11300-041867FM-12+074799999V0201401N003110450019N0100001N1+02311+01801101471ADDGF108991011021008001011999KA1240N+01771MA1999999093251MD1999999+0041REMSYN076AAXX  19124 83182 32597 81406 10231 20180 39325 40147 8121/ 333 20177 58004;
0137831820999992007031918004-11300-041867FM-12+074799999V0201401N002610450019N0100001N1+02921+01531101041ADDGF108991011021008001041021MA1999999092901MD1999999+0051REMSYN070AAXX  19184 83182 32597 81405 10292 20153 39290 40104 81242 333 58005;
0156831820999992007032012004-11300-041867FM-12+074799999V0201401N002119999999N0100001N1+02481+01901101441ADDGF108991001001999999001021KA1240N+01651MA1999999093201MD1999999-0051REMSYN076AAXX  20124 83182 32997 81404 10248 20190 39320 40144 80002 333 20165 59005;
0137831820999992007032018004-11300-041867FM-12+074799999V0200501N001511050019N0100001N1+03111+01881100821ADDGF108991021021008001001021MA1999999092721MD1999999-0181REMSYN070AAXX  20184 83182 32597 80503 10311 20188 39272 40082 82202 333 59018;
0168831820999992007032100004-11300-041867FM-12+074799999V0200901N002619999999N0010001N1+02591+01961101061ADDGF108991001001999999001011KA1240M+03211MA1999999092951MD1999999-0201REMSYN088AAXX  21004 83182 32994 80905 10259 20196 39295 40106 80001 333 10321 29064 55082 59020;
0156831820999992007032112004-11300-041867FM-12+074799999V0200901N003112200019N0100001N1+02641+01881101141ADDGF108991021021008001001011KA1240N+01731MA1999999093051MD1999999+0151REMSYN076AAXX  21124 83182 32597 80906 10264 20188 39305 40114 82201 333 20173 58015;
0137831820999992007032118004-11300-041867FM-12+074799999V0200901N001511050019N0100001N1+03001+01641100741ADDGF108991021021008001001021MA1999999092681MD1999999-0041REMSYN070AAXX  21184 83182 32597 80903 10300 20164 39268 40074 82202 333 59004;
0168831820999992007032200004-11300-041867FM-12+074799999V0201401N001519999999N0010001N1+02271+01741101041ADDGF108991001001999999001021KA1240M+03081MA1999999092901MD1999999-0051REMSYN088AAXX  22004 83182 32994 81403 10227 20174 39290 40104 80002 333 10308 29063 55049 59005;
0156831820999992007032212004-11300-041867FM-12+074799999V0201401N005112200019N0100001N1+02551+01871101291ADDGF108991021021008001001011KA1240N+01741MA1999999093121MD1999999+0071REMSYN076AAXX  22124 83182 32597 81410 10255 20187 39312 40129 82201 333 20174 58007;
0137831820999992007032218004-11300-041867FM-12+074799999V0200901N004112200019N0100001N1+03141+01621100721ADDGF108991041021008001001011MA1999999092651MD1999999-0031REMSYN070AAXX  22184 83182 32597 80908 10314 20162 39265 40072 84201 333 59003;
0168831820999992007032300004-11300-041867FM-12+074799999V0200901N002619999999N0010001N1+02271+01851101011ADDGF108991001001999999001011KA1240M+03231MA1999999092861MD1999999-0041REMSYN088AAXX  23004 83182 32994 80905 10227 20185 39286 40101 80001 333 10323 29064 55104 59004;
0156831820999992007032312004-11300-041867FM-12+074799999V0201401N005112200019N0100001N1+02541+01811101401ADDGF103991031021008001001001KA1240N+01641MA1999999093221MD1999999+0101REMSYN076AAXX  23124 83182 32597 31410 10254 20181 39322 40140 83200 333 20164 58010;
0137831820999992007032318004-11300-041867FM-12+074799999V0201401N003112200019N0100001N1+02981+01621101001ADDGF102991021021008001001001MA1999999092861MD1999999+0211REMSYN070AAXX  23184 83182 32597 21406 10298 20162 39286 40100 82200 333 58021;
0178831820999992007032400004-11300-041867FM-12+074799999V0200901N003112200019N0100001N1+02211+01701101251ADDGA1001+999999999GF100991001001999999001001KA1240M+03111MA1999999093081MD1999999+0221REMSYN082AAXX  24004 83182 32997 00906 10221 20170 39308 40125 333 10311 29064 55108 58022;
0156831820999992007032412004-11300-041867FM-12+074799999V0201401N004110075019N0100001N1+02441+01831101461ADDGF108991061021008001001021KA1240N+01671MA1999999093241MD1999999+0021REMSYN076AAXX  24124 83182 32597 81408 10244 20183 39324 40146 86202 333 20167 58002;
0137831820999992007032418004-11300-041867FM-12+074799999V0200901N005110075019N0100001N1+03081+01781100981ADDGF108991051021008001001011MA1999999092861MD1999999+0001REMSYN070AAXX  24184 83182 32597 80910 10308 20178 39286 40098 85201 333 58000;
0168831820999992007032500004-11300-041867FM-12+074799999V0200901N003119999999N0010001N1+02271+02021101251ADDGF108991001001999999001011KA1240M+03141MA1999999093061MD1999999-0021REMSYN088AAXX  25004 83182 32994 80906 10227 20202 39306 40125 80001 333 10314 29072 55092 59002;
0156831820999992007032512004-11300-041867FM-12+074799999V0201401N004610075019N0100001N1+02451+01981101391ADDGF108991061021008001001011KA1240N+01811MA1999999093191MD1999999-0051REMSYN076AAXX  25124 83182 32597 81409 10245 20198 39319 40139 86201 333 20181 59005;
0122831820999992007032518004-11300-041867FM-12+074799999V0201401N004610075019N0100001N1+02901+01991100961ADDGF108991071051008001001011MA1999999092831REMSYN069AAXX  25184 83182 32597 81409 10290 20199 39283 40096 87501 333 5903;
0168831820999992007032600004-11300-041867FM-12+074799999V0201401N003119999999N0010001N1+02181+01761101171ADDGF108991001001999999001011KA1240M+03001MA1999999092971MD1999999-0091REMSYN088AAXX  26004 83182 32994 81406 10218 20176 39297 40117 80001 333 10300 29072 55072 59009;
0156831820999992007032612004-11300-041867FM-12+074799999V0201401N005110075019N0100001N1+02421+01821101381ADDGF106991061051008001001001KA1240N+01601MA1999999093161MD1999999-0031REMSYN076AAXX  26124 83182 32597 61410 10242 20182 39316 40138 86500 333 20160 59003;
0137831820999992007032618004-11300-041867FM-12+074799999V0201401N005112200019N0100001N1+03001+01811100901ADDGF103991021021008001001011MA1999999092771MD1999999-0061REMSYN070AAXX  26184 83182 32597 31410 10300 20181 39277 40090 82201 333 59006;
0168831820999992007032700004-11300-041867FM-12+074799999V0200901N004119999999N0010001N1+02281+01901101181ADDGF108991001001999999001011KA1240M+03051MA1999999093001MD1999999+0031REMSYN088AAXX  27004 83182 32994 80908 10228 20190 39300 40118 80001 333 10305 29069 55093 58003;
0156831820999992007032712004-11300-041867FM-12+074799999V0200901N005110075019N0100001N1+02531+01901101331ADDGF108991071051008001001011KA1240N+01791MA1999999093151MD1999999-0011REMSYN076AAXX  27124 83182 32597 80910 10253 20190 39315 40133 87501 333 20179 59001;
0137831820999992007032718004-11300-041867FM-12+074799999V0201401N005110075019N0100001N1+02891+02061100941ADDGF108991051051008001001011MA1999999092811MD1999999+0041REMSYN070AAXX  27184 83182 32597 81410 10289 20206 39281 40094 85501 333 58004;
0168831820999992007032800004-11300-041867FM-12+074799999V0200901N003119999999N0010001N1+02281+01831101291ADDGF108991001001999999001011KA1240M+02971MA1999999093121MD1999999+0121REMSYN088AAXX  28004 83182 32994 80906 10228 20183 39312 40129 80001 333 10297 29070 55081 58012;
0156831820999992007032812004-11300-041867FM-12+074799999V0201401N006212200019N0100001N1+02501+01841101371ADDGF108991031051008001001011KA1240N+01691MA1999999093191MD1999999+0051REMSYN076AAXX  28124 83182 32597 81412 10250 20184 39319 40137 83501 333 20169 58005;
0137831820999992007032818004-11300-041867FM-12+074799999V0200901N005112200019N0100001N1+02861+01901101051ADDGF108991041051008001001011MA1999999092901MD1999999+0091REMSYN070AAXX  28184 83182 32597 80910 10286 20190 39290 40105 84501 333 58009;
0168831820999992007032900004-11300-041867FM-12+074799999V0201401N003119999999N0010001N1+02221+01841101411ADDGF108991001001999999001021KA1240M+03051MA1999999093211MD1999999+0091REMSYN088AAXX  29004 83182 32994 81406 10222 20184 39321 40141 80002 333 10305 29071 55092 58009;
0156831820999992007032912004-11300-041867FM-12+074799999V0201401N004610075019N0100001N1+02441+01761101371ADDGF108991071021008001001011KA1240N+01491MA1999999093171MD1999999-0021REMSYN076AAXX  29124 83182 32597 81409 10244 20176 39317 40137 87201 333 20149 59002;
0137831820999992007032918004-11300-041867FM-12+074799999V0200901N004119999999N0100001N1+03091+01651100831ADDGF108991001001999999001011MA1999999092711MD1999999-0191REMSYN070AAXX  29184 83182 32997 80908 10309 20165 39271 40083 80001 333 59019;
0168831820999992007033000004-11300-041867FM-12+074799999V0200901N001519999999N0010001N1+02171+01601101121ADDGF108991001001999999001021KA1240M+03111MA1999999092931MD1999999-0281REMSYN088AAXX  30004 83182 32994 80903 10217 20160 39293 40112 80002 333 10311 29062 55107 59028;
0156831820999992007033012004-11300-041867FM-12+074799999V0201401N004612200019N0100001N1+02501+01771101291ADDGF108991021011012501001011KA1240N+01601MA1999999093101MD1999999-0071REMSYN076AAXX  30124 83182 32697 81409 10250 20177 39310 40129 82101 333 20160 59007;
0137831820999992007033018004-11300-041867FM-12+074799999V0200901N004611050019N0100001N1+03171+01861100721ADDGF108991021021008001001021MA1999999092651MD1999999-0061REMSYN070AAXX  30184 83182 32597 80909 10317 20186 39265 40072 82202 333 59006;
0168831820999992007033100004-11300-041867FM-12+074799999V0200901N002619999999N0010001N1+02241+01691101071ADDGF108991001001999999001021KA1240M+03231MA1999999092901MD1999999-0031REMSYN088AAXX  31004 83182 32994 80905 10224 20169 39290 40107 80002 333 10323 29063 55097 59003;
0156831820999992007033112004-11300-041867FM-12+074799999V0201401N005112200019N0100001N1+02501+01481101251ADDGF108991021021008001001011KA1240N+01561MA1999999093061MD1999999-0041REMSYN076AAXX  31124 83182 32597 81410 10250 20148 39306 40125 82201 333 20156 59004;
0137831820999992007033118004-11300-041867FM-12+074799999V0201801N002112200019N0100001N1+03211+01941100721ADDGF108991041021008001001011MA1999999092651MD1999999+0001REMSYN070AAXX  31184 83182 32597 81804 10321 20194 39265 40072 84201 333 58000;
0168831820999992007040100004-11300-041867FM-12+074799999V0200901N002619999999N0010001N1+02301+01851101071ADDGF108991001001999999001011KA1240M+03251MA1999999092921MD1999999+0021REMSYN088AAXX  01004 83182 32994 80905 10230 20185 39292 40107 80001 333 10325 29063 55106 58002;
0156831820999992007040112004-11300-041867FM-12+074799999V0200901N003619999999N0100001N1+02661+01791101241ADDGF108991001001999999001011KA1240N+01531MA1999999093111MD1999999+0051REMSYN076AAXX  01124 83182 32997 80907 10266 20179 39311 40124 80001 333 20153 58005;
0137831820999992007040118004-11300-041867FM-12+074799999V0201801N002612200019N0100001N1+03301+01551101361ADDGF108991041021008001001011MA1999999092661MD1999999+0011REMSYN070AAXX  01184 83182 32597 81805 10330 20155 39266 40136 84201 333 58001;
0168831820999992007040200004-11300-041867FM-12+074799999V0200901N002112200019N0010001N1+02401+01801101031ADDGF108991021001017501031011KA1240M+03341MA1999999092931MD1999999+0011REMSYN088AAXX  02004 83182 32794 80904 10240 20180 39293 40103 82031 333 10334 29058 55109 58001;
0156831820999992007040212004-11300-041867FM-12+074799999V0201401N004619999999N0100001N1+02581+01641101261ADDGF108991001001999999001011KA1240N+01641MA1999999093131MD1999999+0021REMSYN076AAXX  02124 83182 32997 81409 10258 20164 39313 40126 80001 333 20164 58002;
0137831820999992007040218004-11300-041867FM-12+074799999V0201401N003111050019N0100001N1+03101+01541100801ADDGF108991021021008001001021MA1999999092721MD1999999+0061REMSYN070AAXX  02184 83182 32597 81406 10310 20154 39272 40080 82202 333 58006;
0168831820999992007040300004-11300-041867FM-12+074799999V0200901N001519999999N0010001N1+02301+01791101101ADDGF108991001001999999001011KA1240M+03201MA1999999092961MD1999999+0031REMSYN088AAXX  03004 83182 32994 80903 10230 20179 39296 40110 80001 333 10320 29060 55084 58003;
0156831820999992007040312004-11300-041867FM-12+074799999V0201401N003111050019N0100001N1+02501+01771101331ADDGF108991021021008001001021KA1240N+01571MA1999999093151MD1999999+0021REMSYN076AAXX  03124 83182 32597 81406 10250 20177 39315 40133 82202 333 20157 58002;
0137831820999992007040318004-11300-041867FM-12+074799999V0201401N003111050019N0100001N1+03111+01701100771ADDGF108991021021008001001021MA1999999092671MD1999999-0051REMSYN070AAXX  03184 83182 32597 81406 10311 20170 39267 40077 82202 333 59005;
0168831820999992007040400004-11300-041867FM-12+074799999V0200901N003111050019N0010001N1+02321+01811101021ADDGF108991041021008001001021KA1240M+03201MA1999999092871MD1999999-0091REMSYN088AAXX  04004 83182 32594 80906 10232 20181 39287 40102 84202 333 10320 29063 55057 59009;
0156831820999992007040412004-11300-041867FM-12+074799999V0201401N003119999999N0100001N1+02641+01661101271ADDGF108991001001999999001011KA1240N+01511MA1999999093141MD1999999-0011REMSYN076AAXX  04124 83182 32997 81406 10264 20166 39314 40127 80001 333 20151 59001;
0137831820999992007040418004-11300-041867FM-12+074799999V0200501N003112200019N0100001N1+03111+01431100771ADDGF108991021021008001001011MA1999999092671MD1999999+0001REMSYN070AAXX  04184 83182 32597 80506 10311 20143 39267 40077 82201 333 58000;
0168831820999992007040500004-11300-041867FM-12+074799999V0200501N004119999999N0010001N1+02291+01441101091ADDGF108991001001999999001011KA1240M+03231MA1999999092951MD1999999+0081REMSYN088AAXX  05004 83182 32994 80508 10229 20144 39295 40109 80001 333 10323 29051 55098 58008;
0156831820999992007040512004-11300-041867FM-12+074799999V0201401N001512200019N0100001N1+02601+01791101271ADDGF108991031001017501031011KA1240N+01471MA1999999093121MD1999999-0021REMSYN076AAXX  05124 83182 32797 81403 10260 20179 39312 40127 83031 333 20147 59002;
0137831820999992007040518004-11300-041867FM-12+074799999V0201801N002612200019N0100001N1+03241+01711100821ADDGF108991031021008001001011MA1999999092741MD1999999+0071REMSYN070AAXX  05184 83182 32597 81805 10324 20171 39274 40082 83201 333 58007;
0168831820999992007040600004-11300-041867FM-12+074799999V0200901N003119999999N0010001N1+02361+01561101081ADDGF108991001001999999001011KA1240M+03351MA1999999092951MD1999999+0001REMSYN088AAXX  06004 83182 32994 80906 10236 20156 39295 40108 80001 333 10335 29056 55108 58000;
0175831820999992007040612004-11300-041867FM-12+074799999V0201401N003119999999N0100001N1+02621+01531101341ADDGF108991001001999999001011KA1240N+01531MA1999999093201MD1999999+0081REMSYN076AAXX  06124 83182 32597 81406 10262 20153 39320 40134 80001 333 20153 58008;EQDQ01+008002SCOLCB
0137831820999992007040618004-11300-041867FM-12+074799999V0200501N001512200019N0100001N1+03301+01311100781ADDGF108991021021008001001011MA1999999092721MD1999999-0021REMSYN070AAXX  06184 83182 32597 80503 10330 20131 39272 40078 82201 333 59002;
0168831820999992007040700004-11300-041867FM-12+074799999V0201401N003112200019N0010001N1+02361+01461101081ADDGF108991021001017501041011KA1240M+03381MA1999999092941MD1999999-0011REMSYN088AAXX  07004 83182 32794 81406 10236 20146 39294 40108 82041 333 10338 29049 55102 59001;
0156831820999992007040712004-11300-041867FM-12+074799999V0201401N004619999999N0100001N1+02571+01761101431ADDGF108991001001999999001011KA1240N+01701MA1999999093261MD1999999+0061REMSYN076AAXX  07124 83182 32997 81409 10257 20176 39326 40143 80001 333 20170 58006;
0137831820999992007040718004-11300-041867FM-12+074799999V0200901N002612200019N0100001N1+03211+01901100861ADDGF108991041021008001001011MA1999999092791MD1999999+0071REMSYN070AAXX  07184 83182 32597 80905 10321 20190 39279 40086 84201 333 58007;
0168831820999992007040800004-11300-041867FM-12+074799999V0200901N002119999999N0010001N1+02381+01711101201ADDGF108991001001999999001011KA1240M+03201MA1999999093071MD1999999+0131REMSYN088AAXX  08004 83182 32994 80904 10238 20171 39307 40120 80001 333 10320 29060 55081 58013;
0156831820999992007040812004-11300-041867FM-12+074799999V0201401N003112200019N0100001N1+02541+01811101411ADDGF108991031001017501041011KA1240N+01681MA1999999093251MD1999999-0011REMSYN076AAXX  08124 83182 32797 81406 10254 20181 39325 40141 83041 333 20168 59001;
0137831820999992007040818004-11300-041867FM-12+074799999V0201401N003110450019N0100001N1+03271+01731100821ADDGF108991041021008001031011MA1999999092741MD1999999-0051REMSYN070AAXX  08184 83182 32597 81406 10327 20173 39274 40082 84231 333 59005;
0168831820999992007040900004-11300-041867FM-12+074799999V0200901N003119999999N0010001N1+02461+01881101131ADDGF108991001001999999001011KA1240M+03291MA1999999093001MD1999999-0071REMSYN088AAXX  09004 83182 32994 80906 10246 20188 39300 40113 80001 333 10329 29061 55105 59007;
0156831820999992007040912004-11300-041867FM-12+074799999V0200501N000512200019N0100001N1+02781+01481101171ADDGF108991011001017501041011KA1240N+01721MA1999999093071MD1999999-0181REMSYN076AAXX  09124 83182 32797 80501 10278 20148 39307 40117 81041 333 20172 59018;
0137831820999992007040918004-11300-041867FM-12+074799999V0201401N001010450019N0100001N1+03341+01451100581ADDGF108991021021008001041011MA1999999092561MD1999999-0181REMSYN070AAXX  09184 83182 32597 81402 10334 20145 39256 40058 82241 333 59018;
0168831820999992007041000004-11300-041867FM-12+074799999V0203601N003112200019N0010001N1+02851+01891100861ADDGF108991041051008001001011KA1240M+03381MA1999999092881MD1999999-0121REMSYN088AAXX  10004 83182 32594 83606 10285 20189 39288 40086 84501 333 10338 29047 55091 59012;
0156831820999992007041012004-11300-041867FM-12+074799999V0201401N003110075019N0100001N1+02471+01971101121ADDGF108991051051008001001011KA1240N+02111MA1999999093051MD1999999-0021REMSYN076AAXX  10124 83182 32597 81406 10247 20197 39305 40112 85501 333 20211 59002;
0137831820999992007041018004-11300-041867FM-12+074799999V0200901N001510075019N0100001N1+03141+01841100631ADDGF108991051051008001001021MA1999999092651MD1999999+0091REMSYN070AAXX  10184 83182 32597 80903 10314 20184 39265 40063 85502 333 58009;
0213831820999992007041100004-11300-041867FM-12+074799999V0201801N001510042019N0010001N1+02221+02141101221ADDAA106007191AY161061AY261061GF108991051031004501021999KA1240M+03151MA1999999093041MD1999999+0161MW1211REMSYN100AAXX  11004 83182 21494 81803 10222 20214 39304 40122 72166 8532/ 333 10315 29078 55024 58016 60071;
0201831820999992007041112004-11300-041867FM-12+074799999V0201401N002110042019N0100001N1+02261+02031101511ADDAA124014091AY161061AY221061GF108991071071004501021999KA1240N+01901MA1999999093271MD1999999+0221MW1021REMSYN088AAXX  11124 83182 21497 81404 10226 20203 39327 40151 70262 8772/ 333 20190 58022 60144;
0182831820999992007041118004-11300-041867FM-12+074799999V0200901N003110450019N0100001N1+02351+01941101251ADDAA106001091AY161061AY221061GF108991021051008001021999MA1999999093011MD1999999+0361MW1021REMSYN082AAXX  11184 83182 21597 80906 10235 20194 39301 40125 70262 8252/ 333 58036 60011;
0168831820999992007041200004-11300-041867FM-12+074799999V0201401N002110450019N0010001N1+02171+01891101571ADDGF108991021051008001021999KA1240M+02481MA1999999093311MD1999999+0271REMSYN088AAXX  12004 83182 32594 81404 10217 20189 39331 40157 8252/ 333 10248 29084 55008 58027;
0173831820999992007041212004-11300-041867FM-12+074799999V0201401N005110450019N0100001N1+02461+01881101621ADDAA124001091GF108991021021008001031011KA1240N+01751MA1999999093391MD1999999+0121REMSYN082AAXX  12124 83182 22597 81410 10246 20188 39339 40162 82231 333 20175 58012 60014;
0137831820999992007041218004-11300-041867FM-12+074799999V0200901N004610075019N0100001N1+02851+01711101201ADDGF108991081051008001999999MA1999999093041MD1999999+0031REMSYN070AAXX  12184 83182 32597 80909 10285 20171 39304 40120 885// 333 58003;
0168831820999992007041300004-11300-041867FM-12+074799999V0200901N003119999999N0010001N1+02201+01951101481ADDGF108991001001999999001011KA1240M+02971MA1999999093271MD1999999-0041REMSYN088AAXX  13004 83182 32994 80906 10220 20195 39327 40148 80001 333 10297 29073 55066 59004;
0156831820999992007041312004-11300-041867FM-12+074799999V0200901N003110075019N0100001N1+02471+01851101571ADDGF106991061051008001001001KA1240N+01731MA1999999093351MD1999999-0041REMSYN076AAXX  13124 83182 32597 60906 10247 20185 39335 40157 86500 333 20173 59004;
0137831820999992007041318004-11300-041867FM-12+074799999V0200901N004110075019N0100001N1+03001+01781101061ADDGF106991061021008001001001MA1999999092941MD1999999+0101REMSYN070AAXX  13184 83182 32597 60908 10300 20178 39294 40106 86200 333 58010;
0168831820999992007041400004-11300-041867FM-12+074799999V0201401N003612200019N0010001N1+02231+01711101351ADDGF102991021001017501041001KA1240M+03051MA1999999093151MD1999999-0121REMSYN088AAXX  14004 83182 32794 21407 10223 20171 39315 40135 82040 333 10305 29066 55077 59012;
0156831820999992007041412004-11300-041867FM-12+074799999V0201401N003110075019N0100001N1+02351+01981101581ADDGF108991081051008001999999KA1240N+01681MA1999999093351MD1999999+0001REMSYN076AAXX  14124 83182 32597 81406 10235 20198 39335 40158 885// 333 20168 58000;
0156831820999992007041418004-11300-041867FM-12+074799999V0200901N003110075019N0100001N1+02921+01741101071ADDGF108991999021008001001001MA1999999092931MD1999999-0011REMSYN070AAXX  14184 83182 32597 80906 10292 20174 39293 40107 87200 333 59001;EQDQ01+000072SCOTLC
0178831820999992007041500004-11300-041867FM-12+074799999V0200901N003612200019N0010001N1+02271+01871101431ADDGA1001+999999999GF100991001001999999001001KA1240M+02951MA1999999093211MD1999999+0061REMSYN082AAXX  15004 83182 32994 00907 10227 20187 39321 40143 333 10295 29071 55/// 58006;
0156831820999992007041512004-11300-041867FM-12+074799999V0201401N005712200019N0100001N1+02531+01691101531ADDGF102991021021008001001001KA1240N+01631MA1999999093341MD1999999-0011REMSYN076AAXX  15124 83182 32597 21411 10253 20169 39334 40153 82200 333 20163 59001;
0137831820999992007041518004-11300-041867FM-12+074799999V0201401N005112200019N0100001N1+03031+01561100981ADDGF102991021021008001001001MA1999999092861MD1999999-0071REMSYN070AAXX  15184 83182 32597 21410 10303 20156 39286 40098 82200 333 59007;
0156831820999992007041612004-11300-041867FM-12+074799999V0200901N004112200019N0100001N1+02541+01811101491ADDGF102991021021008001001001KA1240N+01711MA1999999093281MD1999999-0071REMSYN076AAXX  16124 83182 32597 20908 10254 20181 39328 40149 82200 333 20171 59007;
0137831820999992007041618004-11300-041867FM-12+074799999V0201401N004112200019N0100001N1+02941+01601100931ADDGF103991031021008001001001MA1999999092801MD1999999-0061REMSYN070AAXX  16184 83182 32597 31408 10294 20160 39280 40093 83200 333 59006;
0178831820999992007041700004-11300-041867FM-12+074799999V0201401N002612200019N0010001N1+02251+02001101151ADDGA1001+999999999GF100991001001999999001001KA1240M+03071MA1999999092991MD1999999-0191REMSYN082AAXX  17004 83182 32994 01405 10225 20200 39299 40115 333 10307 29071 55084 59019;
0156831820999992007041712004-11300-041867FM-12+074799999V0200901N003119999999N0100001N1+02441+01811101331ADDGF108991001001999999001021KA1240N+01671MA1999999093141MD1999999-0141REMSYN076AAXX  17124 83182 32997 80906 10244 20181 39314 40133 80002 333 20167 59014;
0137831820999992007041718004-11300-041867FM-12+074799999V0200901N002610075019N0100001N1+02991+01671100841ADDGF108991071051008001001011MA1999999092741MD1999999-0061REMSYN070AAXX  17184 83182 32597 80905 10299 20167 39274 40084 87501 333 59006;
0168831820999992007041800004-11300-041867FM-12+074799999V0201401N001519999999N0010001N1+02271+01781101111ADDGF108991001001999999001011KA1240M+03051MA1999999092941MD1999999-0061REMSYN088AAXX  18004 83182 32994 81403 10227 20178 39294 40111 80001 333 10305 29065 55068 59006;
0156831820999992007041812004-11300-041867FM-12+074799999V0201401N004110450019N0100001N1+02441+01861101301ADDGF108991031051008001041011KA1240N+01851MA1999999093111MD1999999-0031REMSYN076AAXX  18124 83182 32597 81408 10244 20186 39311 40130 83541 333 20185 59003;
0137831820999992007041818004-11300-041867FM-12+074799999V0201401N004110450019N0100001N1+02801+01751100921ADDGF108991031051008001041011MA1999999092791MD1999999+0051REMSYN070AAXX  18184 83182 32597 81408 10280 20175 39279 40092 83541 333 58005;
0168831820999992007041900004-11300-041867FM-12+074799999V0201401N003110075019N0010001N1+02281+01721101261ADDGF108991051051008001041011KA1240M+02931MA1999999093071MD1999999+0131REMSYN088AAXX  19004 83182 32594 81406 10228 20172 39307 40126 85541 333 10293 29066 55040 58013;
0156831820999992007041912004-11300-041867FM-12+074799999V0201401N005110075019N0100001N1+02491+02021101291ADDGF108991081051008001999999KA1240N+01901MA1999999093121MD1999999+0011REMSYN076AAXX  19124 83182 32597 81410 10249 20202 39312 40129 885// 333 20190 58001;
0137831820999992007041918004-11300-041867FM-12+074799999V0201401N004110075019N0100001N1+02891+01861100931ADDGF108991081051008001999999MA1999999092821MD1999999+0031REMSYN070AAXX  19184 83182 32597 81408 10289 20186 39282 40093 885// 333 58003;
0168831820999992007042000004-11300-041867FM-12+074799999V0200901N002610075019N0010001N1+02321+02051101211ADDGF108991081051008001999999KA1240M+02901MA1999999093051MD1999999-0021REMSYN088AAXX  20004 83182 32594 80905 10232 20205 39305 40121 885// 333 10290 29075 55019 59002;
0156831820999992007042012004-11300-041867FM-12+074799999V0201401N006710075019N0100001N1+02501+01771101291ADDGF108991061051008001051011KA1240N+01881MA1999999093121MD1999999+0001REMSYN076AAXX  20124 83182 32597 81413 10250 20177 39312 40129 86551 333 20188 58000;
0182831820999992007042018004-11300-041867FM-12+074799999V0201401N005110042019N0100001N1+02541+01911101091ADDAA106000591AY161061AY221061GF108991061071004501021999MA1999999092901MD1999999+0081MW1021REMSYN082AAXX  20184 83182 21497 81410 10254 20191 39290 40109 70262 8672/ 333 58008 69941;
0168831820999992007042100004-11300-041867FM-12+074799999V0201401N003612200019N0010001N1+02101+01891101281ADDGF108991041051008001001011KA1240M+02721MA1999999093071MD1999999+0021REMSYN088AAXX  21004 83182 32594 81407 10210 20189 39307 40128 84501 333 10272 29078 55035 58002;
0173831820999992007042112004-11300-041867FM-12+074799999V0201401N005110075019N0100001N1+02351+01851101411ADDAA124000591GF108991081051008001999999KA1240N+01491MA1999999093161MD1999999+0041REMSYN082AAXX  21124 83182 22597 81410 10235 20185 39316 40141 885// 333 20149 58004 69944;
0137831820999992007042118004-11300-041867FM-12+074799999V0200901N003110075019N0100001N1+02881+01641100961ADDGF108991081051008001999999MA1999999092801MD1999999-0101REMSYN070AAXX  21184 83182 32597 80906 10288 20164 39280 40096 885// 333 59010;
0168831820999992007042200004-11300-041867FM-12+074799999V0200901N003119999999N0010001N1+02271+01851101221ADDGF108991001001999999001011KA1240M+02981MA1999999093021MD1999999-0051REMSYN088AAXX  22004 83182 32994 80906 10227 20185 39302 40122 80001 333 10298 29069 55082 59005;
0156831820999992007042212004-11300-041867FM-12+074799999V0200901N003110075019N0100001N1+02451+01871101401ADDGF108991081051008001999999KA1240N+01631MA1999999093201MD1999999+0041REMSYN076AAXX  22124 83182 32597 80906 10245 20187 39320 40140 885// 333 20163 58004;
0137831820999992007042218004-11300-041867FM-12+074799999V0200901N003110075019N0100001N1+02881+01891101021ADDGF108991081051008001999999MA1999999092841MD1999999+0041REMSYN070AAXX  22184 83182 32597 80906 10288 20189 39284 40102 885// 333 58004;
0168831820999992007042300004-11300-041867FM-12+074799999V0200901N003119999999N0010001N1+02251+01951101251ADDGF108991001001999999001011KA1240M+02951MA1999999093061MD1999999+0041REMSYN088AAXX  23004 83182 32994 80906 10225 20195 39306 40125 80001 333 10295 29073 55066 58004;
0156831820999992007042312004-11300-041867FM-12+074799999V0201401N005110075019N0100001N1+02321+01701101461ADDGF108991081051008001999999KA1240N+01691MA1999999093241MD1999999+0041REMSYN076AAXX  23124 83182 32597 81410 10232 20170 39324 40146 885// 333 20169 58004;
0137831820999992007042318004-11300-041867FM-12+074799999V0201401N004612200019N0100001N1+02821+01651101071ADDGF108991041021008001001011MA1999999092921MD1999999+0081REMSYN070AAXX  23184 83182 32597 81409 10282 20165 39292 40107 84201 333 58008;
0168831820999992007042400004-11300-041867FM-12+074799999V0201401N002619999999N0010001N1+02231+01891101291ADDGF108991001001999999001021KA1240M+02891MA1999999093081MD1999999+0021REMSYN088AAXX  24004 83182 32994 81405 10223 20189 39308 40129 80002 333 10289 29070 55050 58002;
0156831820999992007042412004-11300-041867FM-12+074799999V0200901N003612200019N0100001N1+02501+01911101421ADDGF108991021021008001001011KA1240N+01741MA1999999093221MD1999999-0021REMSYN076AAXX  24124 83182 32597 80907 10250 20191 39322 40142 82201 333 20174 59002;
0137831820999992007042418004-11300-041867FM-12+074799999V0201401N004112200019N0100001N1+03071+01941100901ADDGF108991041021008001001011MA1999999092791MD1999999-0131REMSYN070AAXX  24184 83182 32597 81408 10307 20194 39279 40090 84201 333 59013;
0168831820999992007042500004-11300-041867FM-12+074799999V0200901N003119999999N0010001N1+02251+02021101191ADDGF108991001001999999001011KA1240M+03111MA1999999093031MD1999999-0051REMSYN088AAXX  25004 83182 32994 80906 10225 20202 39303 40119 80001 333 10311 29074 55079 59005;
0156831820999992007042512004-11300-041867FM-12+074799999V0200901N003110450019N0100001N1+02511+02011101421ADDGF108991031051008001031011KA1240N+01721MA1999999093241MD1999999+0021REMSYN076AAXX  25124 83182 32597 80906 10251 20201 39324 40142 83531 333 20172 58002;
0137831820999992007042518004-11300-041867FM-12+074799999V0200901N004110450019N0100001N1+02911+02081100891ADDGF108991031031008001041011MA1999999092761MD1999999-0031REMSYN070AAXX  25184 83182 32597 80908 10291 20208 39276 40089 83341 333 59003;
0168831820999992007042600004-11300-041867FM-12+074799999V0201401N002619999999N0010001N1+02261+01821101081ADDGF108991001001999999001011KA1240M+03061MA1999999092931MD1999999-0101REMSYN088AAXX  26004 83182 32994 81405 10226 20182 39293 40108 80001 333 10306 29072 55109 59010;
0156831820999992007042612004-11300-041867FM-12+074799999V0200901N003112200019N0100001N1+02621+01931101221ADDGF108991031021008001001011KA1240N+01701MA1999999093071MD1999999-0171REMSYN076AAXX  26124 83182 32597 80906 10262 20193 39307 40122 83201 333 20170 59017;
0137831820999992007042618004-11300-041867FM-12+074799999V0201401N003110075019N0100001N1+03081+02131100721ADDGF107991071021008001001001MA1999999092651MD1999999-0111REMSYN070AAXX  26184 83182 32597 71406 10308 20213 39265 40072 87200 333 59011;
0178831820999992007042700004-11300-041867FM-12+074799999V0201401N002112200019N0010001N1+02271+01821101051ADDGA1001+999999999GF100991001001999999001001KA1240M+03151MA1999999092911MD1999999-0021REMSYN082AAXX  27004 83182 32994 01404 10227 20182 39291 40105 333 10315 29069 55105 59002;
0156831820999992007042712004-11300-041867FM-12+074799999V0201401N004112200019N0100001N1+02481+01781101341ADDGF101991011011012501001001KA1240N+01621MA1999999093161MD1999999+0091REMSYN076AAXX  27124 83182 32697 11408 10248 20178 39316 40134 81100 333 20162 58009;
0137831820999992007042718004-11300-041867FM-12+074799999V0200901N004612200019N0100001N1+03081+01641100831ADDGF102991021011008001001001MA1999999092731MD1999999+0081REMSYN070AAXX  27184 83182 32597 20909 10308 20164 39273 40083 82100 333 58008;
0178831820999992007042800004-11300-041867FM-12+074799999V0201401N003112200019N0010001N1+02201+01761101251ADDGA1001+999999999GF100991001001999999001001KA1240M+03151MA1999999093061MD1999999+0151REMSYN082AAXX  28004 83182 32994 01406 10220 20176 39306 40125 333 10315 29065 55104 58015;
0156831820999992007042812004-11300-041867FM-12+074799999V0201401N004119999999N0100001N1+02701+01801101441ADDGF108991001001999999001011KA1240N+01721MA1999999093271MD1999999+0111REMSYN076AAXX  28124 83182 32997 81408 10270 20180 39327 40144 80001 333 20172 58011;
0137831820999992007042818004-11300-041867FM-12+074799999V0200901N003110075019N0100001N1+03091+02141101011ADDGF106991061021008001001001MA1999999092891MD1999999+0161REMSYN070AAXX  28184 83182 32597 60906 10309 20214 39289 40101 86200 333 58016;
0178831820999992007042900004-11300-041867FM-12+074799999V0200901N005112200019N0010001N1+02321+01981101451ADDGA1001+999999999GF100991001001999999001001KA1240M+03211MA1999999093301MD1999999+0241REMSYN082AAXX  29004 83182 32994 00910 10232 20198 39330 40145 333 10321 29068 55104 58024;
0156831820999992007042912004-11300-041867FM-12+074799999V0201401N006210075019N0100001N1+02501+01721101601ADDGF107991071051008001001001KA1240N+01831MA1999999093401MD1999999+0131REMSYN076AAXX  29124 83182 32597 71412 10250 20172 39340 40160 87500 333 20183 58013;
0137831820999992007042918004-11300-041867FM-12+074799999V0201401N005112200019N0100001N1+02861+01681101071ADDGF103991031021008001001001MA1999999092931MD1999999+0041REMSYN070AAXX  29184 83182 32597 31410 10286 20168 39293 40107 83200 333 58004;
0178831820999992007043000004-11300-041867FM-12+074799999V0201401N003612200019N0010001N1+02261+01841101351ADDGA1001+999999999GF100991001001999999001001KA1240M+02931MA1999999093171MD1999999-0131REMSYN082AAXX  30004 83182 32994 01407 10226 20184 39317 40135 333 10293 29074 55089 59013;
0156831820999992007043012004-11300-041867FM-12+074799999V0201401N004112200019N0100001N1+02641+01691101451ADDGF101991011021008001001001KA1240N+01621MA1999999093281MD1999999-0121REMSYN076AAXX  30124 83182 32597 11408 10264 20169 39328 40145 81200 333 20162 59012;
0137831820999992007043018004-11300-041867FM-12+074799999V0201401N003110075019N0100001N1+03031+01841100931ADDGF108991071051008001001011MA1999999092821MD1999999-0111REMSYN070AAXX  30184 83182 32597 81406 10303 20184 39282 40093 87501 333 59011;
0168831820999992007050100004-11300-041867FM-12+074799999V0200901N003112200019N0010001N1+02481+02011101191ADDGF108991031001017501031011KA1240M+03171MA1999999093071MD1999999-0101REMSYN088AAXX  01004 83182 32794 80906 10248 20201 39307 40119 83031 333 10317 29064 55075 59010;
0156831820999992007050112004-11300-041867FM-12+074799999V0200901N003110075019N0100001N1+02361+01891101401ADDGF108991081051008001999999KA1240N+01701MA1999999093221MD1999999-0061REMSYN076AAXX  01124 83182 32597 80906 10236 20189 39322 40140 885// 333 20170 59006;
0137831820999992007050118004-11300-041867FM-12+074799999V0201401N004110075019N0100001N1+02881+01571100871ADDGF105991051021008001001001MA1999999092761MD1999999-0061REMSYN070AAXX  01184 83182 32597 51408 10288 20157 39276 40087 85200 333 59006;
0178831820999992007050200004-11300-041867FM-12+074799999V0201401N002112200019N0010001N1+02191+01891101281ADDGA1001+999999999GF100991001001999999001001KA1240M+03031MA1999999093071MD1999999+0001REMSYN082AAXX  02004 83182 32994 01404 10219 20189 39307 40128 333 10303 29072 55056 58000;
0156831820999992007050212004-11300-041867FM-12+074799999V0201401N004110075019N0100001N1+02541+01761101481ADDGF108991051021008001001011KA1240N+01631MA1999999093281MD1999999+0061REMSYN076AAXX  02124 83182 32597 81408 10254 20176 39328 40148 85201 333 20163 58006;
0137831820999992007050218004-11300-041867FM-12+074799999V0201401N003612200019N0100001N1+03041+01601101041ADDGF108991041021008001001011MA1999999092921MD1999999+0161REMSYN070AAXX  02184 83182 32597 81407 10304 20160 39292 40104 84201 333 58016;
0168831820999992007050300004-11300-041867FM-12+074799999V0201401N003119999999N0010001N1+02261+01821101261ADDGF108991011001017501041011KA1240M+03081MA1999999093091MD1999999+0021REMSYN088AAXX  03004 83182 32794 81406 10226 20182 39309 40126 81041 333 10308 29064 55082 58002;
0156831820999992007050312004-11300-041867FM-12+074799999V0201401N004610075019N0100001N1+02571+01911101491ADDGF108991051021008001001011KA1240N+01711MA1999999093301MD1999999+0021REMSYN076AAXX  03124 83182 32597 81409 10257 20191 39330 40149 85201 333 20171 58002;
0137831820999992007050318004-11300-041867FM-12+074799999V0200901N003112200019N0100001N1+03051+01651101001ADDGF108991041021008001001011MA1999999092881MD1999999-0041REMSYN070AAXX  03184 83182 32597 80906 10305 20165 39288 40100 84201 333 59004;
0168831820999992007050400004-11300-041867FM-12+074799999V0201401N003119999999N0010001N1+02301+01851101201ADDGF108991001001999999001011KA1240M+03081MA1999999093051MD1999999-0041REMSYN088AAXX  04004 83182 32994 81406 10230 20185 39305 40120 80001 333 10308 29066 55103 59004;
0156831820999992007050412004-11300-041867FM-12+074799999V0201401N005110075019N0100001N1+02501+01721101471ADDGF106991061021008001001001KA1240N+01571MA1999999093281MD1999999-0021REMSYN076AAXX  04124 83182 32597 61410 10250 20172 39328 40147 86200 333 20157 59002;
0137831820999992007050418004-11300-041867FM-12+074799999V0201401N004610075019N0100001N1+02811+01471101111ADDGF105991051021008001001001MA1999999092951MD1999999+0071REMSYN070AAXX  04184 83182 32597 51409 10281 20147 39295 40111 85200 333 58007;
0178831820999992007050500004-11300-041867FM-12+074799999V0201401N003612200019N0010001N1+02161+01631101331ADDGA1001+999999999GF100991001001999999001001KA1240M+02901MA1999999093141MD1999999+0091REMSYN082AAXX  05004 83182 32994 01407 10216 20163 39314 40133 333 10290 29062 55098 58009;
0156831820999992007050512004-11300-041867FM-12+074799999V0201401N001512200019N0100001N1+02381+01531101421ADDGF108991021021008001001011KA1240N+01381MA1999999093191MD1999999-0091REMSYN076AAXX  05124 83182 32597 81403 10238 20153 39319 40142 82201 333 20138 59009;
0131831820999992007050518004-11300-041867FM-12+074799999V0201401N005119999999N0100001N1+02911+01791100961ADDGF108991999999008001999999MA1999999092801MD1999999-0151REMSYN064AAXX  05184 83182 32597 81410 10291 20179 39280 40096 333 59015;
0168831820999992007050600004-11300-041867FM-12+074799999V0201401N003119999999N0010001N1+02091+01651101311ADDGF108991001001999999001011KA1240M+02931MA1999999093081MD1999999-0061REMSYN088AAXX  06004 83182 32994 81406 10209 20165 39308 40131 80001 333 10293 29066 55108 59006;
0156831820999992007050612004-11300-041867FM-12+074799999V0201401N003110075019N0100001N1+02241+01751101471ADDGF108991081051008001999999KA1240N+01561MA1999999093201MD1999999+0011REMSYN076AAXX  06124 83182 32597 81406 10224 20175 39320 40147 885// 333 20156 58001;
0156831820999992007050618004-11300-041867FM-12+074799999V0200901N004610075019N0100001N1+02911+01851100981ADDGF108991999021008001001001MA1999999092821MD1999999+0021REMSYN070AAXX  06184 83182 32597 80909 10291 20185 39282 40098 85200 333 58002;EQDQ01+000052SCOTLC
0178831820999992007050700004-11300-041867FM-12+074799999V0201401N003112200019N0010001N1+02161+01901101231ADDGA1001+999999999GF100991001001999999001001KA1240M+03011MA1999999092991MD1999999-0091REMSYN082AAXX  07004 83182 32994 01406 10216 20190 39299 40123 333 10301 29074 55077 59009;
0156831820999992007050712004-11300-041867FM-12+074799999V0201401N006210075019N0100001N1+02341+01721101391ADDGF106991061051008001001001KA1240N+01741MA1999999093151MD1999999-0051REMSYN076AAXX  07124 83182 32597 61412 10234 20172 39315 40139 86500 333 20174 59005;
0137831820999992007050718004-11300-041867FM-12+074799999V0201401N004112200019N0100001N1+02971+01751100861ADDGF103991031021008001001001MA1999999092741MD1999999-0081REMSYN070AAXX  07184 83182 32597 31408 10297 20175 39274 40086 83200 333 59008;
0178831820999992007050800004-11300-041867FM-12+074799999V0201401N002112200019N0010001N1+02181+01821101221ADDGA1001+999999999GF100991001001999999001001KA1240M+02991MA1999999093001MD1999999+0011REMSYN082AAXX  08004 83182 32994 01404 10218 20182 39300 40122 333 10299 29069 55066 58001;
0156831820999992007050812004-11300-041867FM-12+074799999V0201401N005112200019N0100001N1+02361+01761101421ADDGF108991041051008001001011KA1240N+01541MA1999999093181MD1999999+0031REMSYN076AAXX  08124 83182 32597 81410 10236 20176 39318 40142 84501 333 20154 58003;
0137831820999992007050818004-11300-041867FM-12+074799999V0200901N003119999999N0100001N1+03181+01491100871ADDGF108991001001999999001011MA1999999092761MD1999999+0021REMSYN070AAXX  08184 83182 32997 80906 10318 20149 39276 40087 80001 333 58002;
0168831820999992007050900004-11300-041867FM-12+074799999V0200901N003119999999N0010001N1+02271+01761101251ADDGF108991001001999999001011KA1240M+03221MA1999999093051MD1999999+0051REMSYN088AAXX  09004 83182 32994 80906 10227 20176 39305 40125 80001 333 10322 29063 55100 58005;
0156831820999992007050912004-11300-041867FM-12+074799999V0201401N003110450019N0100001N1+02711+01721101291ADDGF108991011021008001041011KA1240N+01651MA1999999093151MD1999999-0031REMSYN076AAXX  09124 83182 32597 81406 10271 20172 39315 40129 81241 333 20165 59003;
0137831820999992007050918004-11300-041867FM-12+074799999V0201401N003112200019N0100001N1+03201+01511100771ADDGF108991031021008001001011MA1999999092711MD1999999-0051REMSYN070AAXX  09184 83182 32597 81406 10320 20151 39271 40077 83201 333 59005;
0168831820999992007051000004-11300-041867FM-12+074799999V0200901N003612200019N0010001N1+02321+01851101161ADDGF108991021001017501041011KA1240M+03241MA1999999093031MD1999999-0021REMSYN088AAXX  10004 83182 32794 80907 10232 20185 39303 40116 82041 333 10324 29060 55109 59002;
0156831820999992007051012004-11300-041867FM-12+074799999V0201401N004112200019N0100001N1+02641+01581101321ADDGF108991041021008001001011KA1240N+01721MA1999999093181MD1999999+0031REMSYN076AAXX  10124 83182 32597 81408 10264 20158 39318 40132 84201 333 20172 58003;
0137831820999992007051018004-11300-041867FM-12+074799999V0201401N004112200019N0100001N1+03091+01931100981ADDGF108991041021008001001011MA1999999092881MD1999999+0171REMSYN070AAXX  10184 83182 32597 81408 10309 20193 39288 40098 84201 333 58017;
0168831820999992007051100004-11300-041867FM-12+074799999V0201401N005712200019N0010001N1+02201+01901101511ADDGF108991041051008001001011KA1240M+03151MA1999999093321MD1999999+0291REMSYN088AAXX  11004 83182 32594 81411 10220 20190 39332 40151 84501 333 10315 29071 55091 58029;
0156831820999992007051112004-11300-041867FM-12+074799999V0201401N009312200019N0100001N1+02231+01601101871ADDGF108991041051008001001011KA1240N+01591MA1999999093581MD1999999+0401REMSYN076AAXX  11124 83182 32597 81418 10223 20160 39358 40187 84501 333 20159 58040;
0137831820999992007051118004-11300-041867FM-12+074799999V0201401N007210075019N0100001N1+02311+01541101641ADDGF108991081051008001999999MA1999999093341MD1999999+0461REMSYN070AAXX  11184 83182 32597 81414 10231 20154 39334 40164 885// 333 58046;
0168831820999992007051200004-11300-041867FM-12+074799999V0201401N003110075019N0010001N1+01941+01661101491ADDGF108991081051008001999999KA1240M+02441MA1999999093201MD1999999-0121REMSYN088AAXX  12004 83182 32594 81406 10194 20166 39320 40149 885// 333 10244 29074 55071 59012;
0156831820999992007051212004-11300-041867FM-12+074799999V0201401N006210450019N0100001N1+02211+01611102021ADDGF108991041051008001031011KA1240N+01581MA1999999093671MD1999999+0091REMSYN076AAXX  12124 83182 32597 81412 10221 20161 39367 40202 84531 333 20158 58009;
0137831820999992007051218004-11300-041867FM-12+074799999V0201401N004110075019N0100001N1+02521+01661101591ADDGF108991051051008001031011MA1999999093311MD1999999-0031REMSYN070AAXX  12184 83182 32597 81408 10252 20166 39331 40159 85531 333 59003;
0168831820999992007051300004-11300-041867FM-12+074799999V0201401N001519999999N0010001N1+02011+01651101891ADDGF108991001001999999001011KA1240M+02571MA1999999093561MD1999999-0031REMSYN088AAXX  13004 83182 32994 81403 10201 20165 39356 40189 80001 333 10257 29072 55058 59003;
0156831820999992007051312004-11300-041867FM-12+074799999V0201401N005112200019N0100001N1+02341+01691101901ADDGF102991011011012501041001KA1240N+01351MA1999999093611MD1999999-0061REMSYN076AAXX  13124 83182 32697 21410 10234 20169 39361 40190 81140 333 20135 59006;
0137831820999992007051318004-11300-041867FM-12+074799999V0201401N003112200019N0100001N1+02941+01691101371ADDGF103991021021008001041001MA1999999093151MD1999999-0161REMSYN070AAXX  13184 83182 32597 31406 10294 20169 39315 40137 82240 333 59016;
0178831820999992007051400004-11300-041867FM-12+074799999V0201401N004112200019N0010001N1+02051+01741101661ADDGA1001+999999999GF100991001001999999001001KA1240M+02981MA1999999093391MD1999999-0171REMSYN082AAXX  14004 83182 32994 01408 10205 20174 39339 40166 333 10298 29070 55090 59017;
0156831820999992007051412004-11300-041867FM-12+074799999V0201401N004612200019N0100001N1+02311+01331101711ADDGF101991011011012501001001KA1240N+01541MA1999999093441MD1999999-0171REMSYN076AAXX  14124 83182 32697 11409 10231 20133 39344 40171 81100 333 20154 59017;
0137831820999992007051418004-11300-041867FM-12+074799999V0201401N002112200019N0100001N1+02841+01351101221ADDGF102991021021008001001001MA1999999093021MD1999999-0131REMSYN070AAXX  14184 83182 32597 21404 10284 20135 39302 40122 82200 333 59013;
0178831820999992007051500004-11300-041867FM-12+074799999V0200901N003112200019N0010001N1+02111+01691101561ADDGA1001+999999999GF100991001001999999001001KA1240M+03041MA1999999093301MD1999999-0091REMSYN082AAXX  15004 83182 32994 00906 10211 20169 39330 40156 333 10304 29062 55097 59009;
0156831820999992007051512004-11300-041867FM-12+074799999V0201401N003612200019N0100001N1+02411+01901101651ADDGF102991021021008001001001KA1240N+01511MA1999999093401MD1999999-0041REMSYN076AAXX  15124 83182 32597 21407 10241 20190 39340 40165 82200 333 20151 59004;
0137831820999992007051518004-11300-041867FM-12+074799999V0201401N003112200019N0100001N1+03061+01661101041ADDGF104991041021008001001001MA1999999092901MD1999999-0121REMSYN070AAXX  15184 83182 32597 41406 10306 20166 39290 40104 84200 333 59012;
0178831820999992007051600004-11300-041867FM-12+074799999V0201401N004112200019N0010001N1+02211+01811101341ADDGA1001+999999999GF100991001001999999001001KA1240M+03131MA1999999093131MD1999999-0171REMSYN082AAXX  16004 83182 32994 01408 10221 20181 39313 40134 333 10313 29068 55084 59017;
0156831820999992007051612004-11300-041867FM-12+074799999V0201401N005112200019N0100001N1+02531+01641101501ADDGF101991011001017501041001KA1240N+01591MA1999999093311MD1999999-0091REMSYN076AAXX  16124 83182 32797 11410 10253 20164 39331 40150 81040 333 20159 59009;
0137831820999992007051618004-11300-041867FM-12+074799999V0201401N005112200019N0100001N1+02831+01781101081ADDGF104991041021008001001001MA1999999092911MD1999999+0011REMSYN070AAXX  16184 83182 32597 41410 10283 20178 39291 40108 84200 333 58001;
0156831820999992007051712004-11300-041867FM-12+074799999V0201401N003610075019N0100001N1+02291+01841101651ADDGF108991081051008001999999KA1240N+01751MA1999999093401MD1999999+0091REMSYN076AAXX  17124 83182 32597 81407 10229 20184 39340 40165 885// 333 20175 58009;
0137831820999992007051718004-11300-041867FM-12+074799999V0201401N003110075019N0100001N1+02631+01761101281ADDGF108991081051008001999999MA1999999093071MD1999999+0161REMSYN070AAXX  17184 83182 32597 81406 10263 20176 39307 40128 885// 333 58016;
0168831820999992007051800004-11300-041867FM-12+074799999V0201401N003119999999N0010001N1+02071+01791101451ADDGF108991001001999999001011KA1240M+02751MA1999999093201MD1999999-0101REMSYN088AAXX  18004 83182 32994 81406 10207 20179 39320 40145 80001 333 10275 29076 55021 59010;
0156831820999992007051812004-11300-041867FM-12+074799999V0201401N003610075019N0100001N1+02401+01801101601ADDGF106991061021008001001001KA1240N+01471MA1999999093381MD1999999-0021REMSYN076AAXX  18124 83182 32597 61407 10240 20180 39338 40160 86200 333 20147 59002;
0137831820999992007051818004-11300-041867FM-12+074799999V0200901N005112200019N0100001N1+02901+01521101081ADDGF102991011011012501001011MA1999999092911MD1999999-0161REMSYN070AAXX  18184 83182 32697 20910 10290 20152 39291 40108 81101 333 59016;
0168831820999992007051900004-11300-041867FM-12+074799999V0201401N001512200019N0100001N1+02061+01601101451ADDGF101991001001999999001011KA1240M+02941MA1999999093211MD1999999+0011REMSYN088AAXX  19004 83182 32997 11403 10206 20160 39321 40145 80001 333 10294 29066 55101 58001;
0156831820999992007051912004-11300-041867FM-12+074799999V0201401N005110450019N0100001N1+02481+01871101561ADDGF108991021021008001041011KA1240N+01471MA1999999093321MD1999999-0061REMSYN076AAXX  19124 83182 32597 81410 10248 20187 39332 40156 82241 333 20147 59006;
0137831820999992007051918004-11300-041867FM-12+074799999V0200901N002610075019N0100001N1+02821+01911101091ADDGF108991081051008001999999MA1999999092901MD1999999-0011REMSYN070AAXX  19184 83182 32597 80905 10282 20191 39290 40109 885// 333 59001;
0168831820999992007052000004-11300-041867FM-12+074799999V0201401N005719999999N0010001N1+02291+01841101251ADDGF108991001001999999001011KA1240M+02941MA1999999093081MD1999999-0181REMSYN088AAXX  20004 83182 32994 81411 10229 20184 39308 40125 80001 333 10294 29070 55073 59018;
0156831820999992007052012004-11300-041867FM-12+074799999V0201401N004110075019N0100001N1+02451+01801101571ADDGF108991051021008001001011KA1240N+01731MA1999999093351MD1999999+0031REMSYN076AAXX  20124 83182 32597 81408 10245 20180 39335 40157 85201 333 20173 58003;
0137831820999992007052018004-11300-041867FM-12+074799999V0200901N003112200019N0100001N1+02891+01401101081ADDGF108991031021008001001011MA1999999092941MD1999999+0041REMSYN070AAXX  20184 83182 32597 80906 10289 20140 39294 40108 83201 333 58004;
0168831820999992007052100004-11300-041867FM-12+074799999V0201401N002619999999N0010001N1+02051+01441101411ADDGF108991001001999999001011KA1240M+02971MA1999999093171MD1999999+0091REMSYN088AAXX  21004 83182 32994 81405 10205 20144 39317 40141 80001 333 10297 29061 55095 58009;
0156831820999992007052112004-11300-041867FM-12+074799999V0201401N006212200019N0100001N1+02361+01421101561ADDGF101991011011012501001001KA1240N+01421MA1999999093301MD1999999-0051REMSYN076AAXX  21124 83182 32697 11412 10236 20142 39330 40156 81100 333 20142 59005;
0137831820999992007052118004-11300-041867FM-12+074799999V0200901N005112200019N0100001N1+02771+01431101151ADDGF102991021021008001001001MA1999999092941MD1999999+0001REMSYN070AAXX  21184 83182 32597 20910 10277 20143 39294 40115 82200 333 58000;
0178831820999992007052200004-11300-041867FM-12+074799999V0201401N001512200019N0010001N1+02011+01571101401ADDGA1001+999999999GF100991001001999999001001KA1240M+02891MA1999999093171MD1999999-0021REMSYN082AAXX  22004 83182 32994 01403 10201 20157 39317 40140 333 10289 29064 55106 59002;
0156831820999992007052212004-11300-041867FM-12+074799999V0201401N003612200019N0100001N1+02291+01731101521ADDGF108991031021008001001011KA1240N+01381MA1999999093251MD1999999-0051REMSYN076AAXX  22124 83182 32597 81407 10229 20173 39325 40152 83201 333 20138 59005;
0137831820999992007052218004-11300-041867FM-12+074799999V0200501N002112200019N0100001N1+02951+01601100951ADDGF108991021021008001001011MA1999999092771MD1999999-0171REMSYN070AAXX  22184 83182 32597 80504 10295 20160 39277 40095 82201 333 59017;
0168831820999992007052300004-11300-041867FM-12+074799999V0201401N004119999999N0010001N1+02121+01481101251ADDGF108991001001999999001011KA1240M+03001MA1999999093011MD1999999-0061REMSYN088AAXX  23004 83182 32994 81408 10212 20148 39301 40125 80001 333 10300 29062 55091 59006;
0156831820999992007052312004-11300-041867FM-12+074799999V0201401N002612200019N0100001N1+02421+01671101341ADDGF108991021021008001001011KA1240N+01291MA1999999093111MD1999999-0141REMSYN076AAXX  23124 83182 32597 81405 10242 20167 39311 40134 82201 333 20129 59014;
0137831820999992007052318004-11300-041867FM-12+074799999V0202701N002112200019N0100001N1+03201+01321100881ADDGF108991011011012501001011MA1999999092751MD1999999-0021REMSYN070AAXX  23184 83182 32697 82704 10320 20132 39275 40088 81101 333 59002;
0168831820999992007052400004-11300-041867FM-12+074799999V0200901N003119999999N0010001N1+02271+01471101111ADDGF108991001001999999001011KA1240M+03261MA1999999092941MD1999999-0071REMSYN088AAXX  24004 83182 32994 80906 10227 20147 39294 40111 80001 333 10326 29054 55102 59007;
0156831820999992007052412004-11300-041867FM-12+074799999V0200501N001519999999N0100001N1+02581+01661101391ADDGF108991001001999999001011KA1240N+01441MA1999999093211MD1999999+0101REMSYN076AAXX  24124 83182 32997 80503 10258 20166 39321 40139 80001 333 20144 58010;
0137831820999992007052418004-11300-041867FM-12+074799999V0203601N001512200019N0100001N1+03301+01461100821ADDGF108991021021008001001011MA1999999092751MD1999999+0001REMSYN070AAXX  24184 83182 32597 83603 10330 20146 39275 40082 82201 333 58000;
0168831820999992007052500004-11300-041867FM-12+074799999V0203201N001019999999N0010001N1+02421+01651101091ADDGF108991001001999999001011KA1240M+03321MA1999999092961MD1999999+0021REMSYN088AAXX  25004 83182 32994 83202 10242 20165 39296 40109 80001 333 10332 29054 55106 58002;
0156831820999992007052512004-11300-041867FM-12+074799999V0200901N002119999999N0100001N1+02841+01761101331ADDGF108991001001999999001011KA1240N+01641MA1999999093241MD1999999+0031REMSYN076AAXX  25124 83182 32997 80904 10284 20176 39324 40133 80001 333 20164 58003;
0137831820999992007052518004-11300-041867FM-12+074799999V0201401N001012200019N0100001N1+03361+01651100741ADDGF102991021021008001001001MA1999999092711MD1999999-0041REMSYN070AAXX  25184 83182 32597 21402 10336 20165 39271 40074 82200 333 59004;
0178831820999992007052600004-11300-041867FM-12+074799999V0201401N004112200019N0010001N1+02401+01471101181ADDGA1001+999999999GF100991001001999999001001KA1240M+03391MA1999999093071MD1999999+0111REMSYN082AAXX  26004 83182 32994 01408 10240 20147 39307 40118 333 10339 29056 55100 58011;
0156831820999992007052612004-11300-041867FM-12+074799999V0201401N005710075019N0100001N1+02451+01961101411ADDGF108991081051008001999999KA1240N+01871MA1999999093231MD1999999-0011REMSYN076AAXX  26124 83182 32597 81411 10245 20196 39323 40141 885// 333 20187 59001;
0137831820999992007052618004-11300-041867FM-12+074799999V0201401N005110075019N0100001N1+02851+01971101181ADDGF108991051051008001001011MA1999999092931MD1999999+0221REMSYN070AAXX  26184 83182 32597 81410 10285 20197 39293 40118 85501 333 58022;
0168831820999992007052700004-11300-041867FM-12+074799999V0201401N003110075019N0010001N1+02081+01781101481ADDGF108991051051008001001011KA1240M+02951MA1999999093241MD1999999+0011REMSYN088AAXX  27004 83182 32594 81406 10208 20178 39324 40148 85501 333 10295 29075 55077 58001;
0156831820999992007052712004-11300-041867FM-12+074799999V0201401N004612200019N0100001N1+02521+01771101551ADDGF108991021021008001001011KA1240N+01671MA1999999093321MD1999999+0091REMSYN076AAXX  27124 83182 32597 81409 10252 20177 39332 40155 82201 333 20167 58009;
0137831820999992007052718004-11300-041867FM-12+074799999V0201401N004110450019N0100001N1+02881+01701101131ADDGF108991011021008001041011MA1999999092971MD1999999+0041REMSYN070AAXX  27184 83182 32597 81408 10288 20170 39297 40113 81241 333 58004;
0168831820999992007052800004-11300-041867FM-12+074799999V0201401N003112200019N0010001N1+02181+01611101401ADDGF108991011001017501041011KA1240M+03261MA1999999093201MD1999999-0041REMSYN088AAXX  28004 83182 32794 81406 10218 20161 39320 40140 81041 333 10326 29063 55094 59004;
0156831820999992007052812004-11300-041867FM-12+074799999V0201401N004610450019N0100001N1+02451+01891101521ADDGF108991041021008001051999KA1240N+01781MA1999999093291MD1999999-0031REMSYN076AAXX  28124 83182 32597 81409 10245 20189 39329 40152 8425/ 333 20178 59003;
0137831820999992007052818004-11300-041867FM-12+074799999V0201401N004610450019N0100001N1+02901+01811101051ADDGF107991041021008001041011MA1999999092911MD1999999-0061REMSYN070AAXX  28184 83182 32597 71409 10290 20181 39291 40105 84241 333 59006;
0168831820999992007052900004-11300-041867FM-12+074799999V0200901N001512200019N0010001N1+02251+01871101381ADDGF108991021001017501031011KA1240M+03021MA1999999093181MD1999999-0021REMSYN088AAXX  29004 83182 32794 80903 10225 20187 39318 40138 82031 333 10302 29070 55040 59002;
0156831820999992007052912004-11300-041867FM-12+074799999V0201401N003119999999N0100001N1+02581+02061101511ADDGF108991001001999999001011KA1240N+01641MA1999999093321MD1999999+0031REMSYN076AAXX  29124 83182 32997 81406 10258 20206 39332 40151 80001 333 20164 58003;
0137831820999992007052918004-11300-041867FM-12+074799999V0200901N002612200019N0100001N1+03181+01801100931ADDGF108991041021008001001011MA1999999092811MD1999999-0101REMSYN070AAXX  29184 83182 32597 80905 10318 20180 39281 40093 84201 333 59010;
0168831820999992007053000004-11300-041867FM-12+074799999V0200901N003119999999N0010001N1+02261+01851101281ADDGF108991001001999999001011KA1240M+03271MA1999999093111MD1999999-0071REMSYN088AAXX  30004 83182 32994 80906 10226 20185 39311 40128 80001 333 10327 29066 55097 59007;
0156831820999992007053012004-11300-041867FM-12+074799999V0201401N001512200019N0100001N1+02611+01801101491ADDGF108991011001017501041011KA1240N+01491MA1999999093321MD1999999+0001REMSYN076AAXX  30124 83182 32797 81403 10261 20180 39332 40149 81041 333 20149 58000;
0137831820999992007053018004-11300-041867FM-12+074799999V0201401N003112200019N0100001N1+03201+01511101181ADDGF103991021021008001001011MA1999999092941MD1999999+0131REMSYN070AAXX  30184 83182 32597 31406 10320 20151 39294 40118 82201 333 58013;
0168831820999992007053100004-11300-041867FM-12+074799999V0201401N004610150019N0010001N1+02401+01771101361ADDGF108991081001017501051999KA1240M+03281MA1999999093221MD1999999+0111REMSYN088AAXX  31004 83182 32794 81409 10240 20177 39322 40136 8805/ 333 10328 29058 55101 58011;
0156831820999992007053112004-11300-041867FM-12+074799999V0200901N005110450019N0100001N1+02591+01861101631ADDGF108991041021008001031011KA1240N+01791MA1999999093461MD1999999+0141REMSYN076AAXX  31124 83182 32597 80910 10259 20186 39346 40163 84231 333 20179 58014;
0137831820999992007053118004-11300-041867FM-12+074799999V0201401N005110450019N0100001N1+02791+01861101251ADDGF108991041051008001031011MA1999999093101MD1999999+0161REMSYN070AAXX  31184 83182 32597 81410 10279 20186 39310 40125 84531 333 58016;
0168831820999992007060100004-11300-041867FM-12+074799999V0201401N005110075019N0010001N1+02071+01771101651ADDGF108991081051008001999999KA1240M+03011MA1999999093431MD1999999+0211REMSYN088AAXX  01004 83182 32594 81410 10207 20177 39343 40165 885// 333 10301 29072 55085 58021;
0156831820999992007060112004-11300-041867FM-12+074799999V0200901N006710450019N0100001N1+02261+01751101891ADDGF108991031021008001051011KA1240N+01651MA1999999093581MD1999999+0121REMSYN076AAXX  01124 83182 32597 80913 10226 20175 39358 40189 83251 333 20165 58012;
0137831820999992007060118004-11300-041867FM-12+074799999V0201401N006210450019N0100001N1+02571+01731101631ADDGF108991041021008001041011MA1999999093361MD1999999+0251REMSYN070AAXX  01184 83182 32597 81412 10257 20173 39336 40163 84241 333 58025;
0187831820999992007060200004-11300-041867FM-12+074799999V0201401N002610075019N0010001N1+02941+01791101761ADDGF108991081051008001999999KA1240M+99999MA1999999093451MD1999999+0021REMSYN088AAXX  02004 83182 32594 81405 10294 20179 39345 40176 885// 333 10265 29081 55074 58002;EQDQ01 +02652ATMX  
0156831820999992007060212004-11300-041867FM-12+074799999V0201401N004612200019N0100001N1+02271+01551101831ADDGF108991021021008001001011KA1240N+01571MA1999999093511MD1999999-0071REMSYN076AAXX  02124 83182 32597 81409 10227 20155 39351 40183 82201 333 20157 59007;
0137831820999992007060218004-11300-041867FM-12+074799999V0200901N001519999999N0100001N1+02901+01481101251ADDGF108991001001999999001011MA1999999093051MD1999999-0311REMSYN070AAXX  02184 83182 32997 80903 10290 20148 39305 40125 80001 333 59031;
0156831820999992007060312004-11300-041867FM-12+074799999V0200901N003119999999N0010001N1+02371+01601101641ADDGF108991001001999999001011KA1240N+01321MA1999999093371MD1999999-0141REMSYN076AAXX  03124 83182 32994 80906 10237 20160 39337 40164 80001 333 20132 59014;
0137831820999992007060318004-11300-041867FM-12+074799999V0202301N001512200019N0100001N1+03221+01431101071ADDGF108991041021008001001011MA1999999092931MD1999999-0121REMSYN070AAXX  03184 83182 32597 82303 10322 20143 39293 40107 84201 333 59012;
0166831820999992007060412004-11300-041867FM-12+074799999V0201401N001012200019N0100001N1+02761+01461101421ADDGA1001+999999999GF100991001001999999001001KA1240N+01441MA1999999093291MD1999999+0081REMSYN070AAXX  04124 83182 32997 01402 10276 20146 39329 40142 333 20144 58008;
0137831820999992007060418004-11300-041867FM-12+074799999V0201401N002112200019N0100001N1+03331+01181101021ADDGF101991011011012501001001MA1999999092941MD1999999+0011REMSYN070AAXX  04184 83182 32697 11404 10333 20118 39294 40102 81100 333 58001;
0178831820999992007060500004-11300-041867FM-12+074799999V0200901N003112200019N0010001N1+02571+01031101161ADDGA1001+999999999GF100991001001999999001001KA1240M+03391MA1999999093081MD1999999-0151REMSYN082AAXX  05004 83182 32994 00906 10257 20103 39308 40116 333 10339 29037 55105 59015;
0156831820999992007060512004-11300-041867FM-12+074799999V0201401N004610075019N0100001N1+02401+01631101671ADDGF108991051021008001001011KA1240N+01511MA1999999093501MD1999999+0211REMSYN076AAXX  05124 83182 32597 81409 10240 20163 39350 40167 85201 333 20151 58021;
0137831820999992007060518004-11300-041867FM-12+074799999V0201401N003112200019N0100001N1+02981+01591101251ADDGF108991021021008001001011MA1999999093121MD1999999+0181REMSYN070AAXX  05184 83182 32597 81406 10298 20159 39312 40125 82201 333 58018;
0168831820999992007060600004-11300-041867FM-12+074799999V0201401N002119999999N0010001N1+02191+01731101611ADDGF108991001001999999001011KA1240M+03031MA1999999093381MD1999999+0301REMSYN088AAXX  06004 83182 32994 81404 10219 20173 39338 40161 80001 333 10303 29064 55103 58030;
0156831820999992007060612004-11300-041867FM-12+074799999V0201401N004110075019N0100001N1+02261+01691101841ADDGF108991081051008001999999KA1240N+01681MA1999999093551MD1999999+0051REMSYN076AAXX  06124 83182 32597 81408 10226 20169 39355 40184 885// 333 20168 58005;
0137831820999992007060618004-11300-041867FM-12+074799999V0200901N004112200019N0100001N1+02861+01581101271ADDGF102991021021008001001001MA1999999093151MD1999999+0031REMSYN070AAXX  06184 83182 32597 20908 10286 20158 39315 40127 82200 333 58003;
0178831820999992007060700004-11300-041867FM-12+074799999V0201401N002112200019N0010001N1+02111+01691101571ADDGA1001+999999999GF100991001001999999001001KA1240M+02931MA1999999093311MD1999999-0071REMSYN082AAXX  07004 83182 32994 01404 10211 20169 39331 40157 333 10293 29068 55067 59007;
0156831820999992007060712004-11300-041867FM-12+074799999V0201401N002110075019N0100001N1+02311+01691101761ADDGF108991081051008001999999KA1240N+01531MA1999999093461MD1999999-0091REMSYN076AAXX  07124 83182 32597 81404 10231 20169 39346 40176 885// 333 20153 59009;
0137831820999992007060718004-11300-041867FM-12+074799999V0200901N003112200019N0100001N1+02751+01761101211ADDGF108991041021008001001011MA1999999093061MD1999999-0091REMSYN070AAXX  07184 83182 32597 80906 10275 20176 39306 40121 84201 333 59009;
0168831820999992007060800004-11300-041867FM-12+074799999V0201401N002112200019N0010001N1+02091+01591101491ADDGF108991021021008001001011KA1240M+02841MA1999999093241MD1999999-0071REMSYN088AAXX  08004 83182 32594 81404 10209 20159 39324 40149 82201 333 10284 29067 55069 59007;
0156831820999992007060812004-11300-041867FM-12+074799999V0201401N004612200019N0100001N1+02271+01621101721ADDGF102991021021008001001001KA1240N+01411MA1999999093451MD1999999-0011REMSYN076AAXX  08124 83182 32597 21409 10227 20162 39345 40172 82200 333 20141 59001;
0156831820999992007060818004-11300-041867FM-12+074799999V0201401N003119999999N0100001N1+02781+01331101251ADDGF108991999011012501001001MA1999999093031MD1999999-0031REMSYN070AAXX  08184 83182 32697 81406 10278 20133 39303 40125 81100 333 59003;EQDQ01+000012SCOTLC
0178831820999992007060900004-11300-041867FM-12+074799999V0200901N002612200019N0010001N1+02001+01481101621ADDGA1001+999999999GF100991001001999999001001KA1240M+02871MA1999999093321MD1999999+0081REMSYN082AAXX  09004 83182 32994 00905 10200 20148 39332 40162 333 10287 29063 55103 58008;
0166831820999992007060912004-11300-041867FM-12+074799999V0201401N005112200019N0010001N1+02201+01511101721ADDGA1001+999999999GF100991001001999999001001KA1240N+01201MA1999999093411MD1999999-0041REMSYN070AAXX  09124 83182 32994 01410 10220 20151 39341 40172 333 20120 59004;
0137831820999992007060918004-11300-041867FM-12+074799999V0200501N002112200019N0100001N1+02911+01241101211ADDGF103991031021008001001001MA1999999092991MD1999999-0041REMSYN070AAXX  09184 83182 32597 30504 10291 20124 39299 40121 83200 333 59004;
0156831820999992007061012004-11300-041867FM-12+074799999V0201401N005712200019N0100001N1+02411+01641101701ADDGF108991041051008001001011KA1240N+01511MA1999999093431MD1999999+0021REMSYN076AAXX  10124 83182 32597 81411 10241 20164 39343 40170 84501 333 20151 58002;
0137831820999992007061018004-11300-041867FM-12+074799999V0200901N005112200019N0100001N1+02821+01681101231ADDGF108991041051008001001011MA1999999093031MD1999999+0041REMSYN070AAXX  10184 83182 32597 80910 10282 20168 39303 40123 84501 333 58004;
0156831820999992007061112004-11300-041867FM-12+074799999V0201401N005712200019N0100001N1+02311+01621101751ADDGF108991031021008001001011KA1240N+01541MA1999999093471MD1999999+0041REMSYN076AAXX  11124 83182 32597 81411 10231 20162 39347 40175 83201 333 20154 58004;
0137831820999992007061118004-11300-041867FM-12+074799999V0201401N006212200019N0100001N1+02731+01391101411ADDGF108991021021008001001011MA1999999093171MD1999999+0141REMSYN070AAXX  11184 83182 32597 81412 10273 20139 39317 40141 82201 333 58014;
0168831820999992007061200004-11300-041867FM-12+074799999V0201401N002119999999N0010001N1+02021+01721101611ADDGF108991001001999999001011KA1240M+02821MA1999999093331MD1999999-0011REMSYN088AAXX  12004 83182 32994 81404 10202 20172 39333 40161 80001 333 10282 29069 55086 59001;
0156831820999992007061212004-11300-041867FM-12+074799999V0201401N005719999999N0100001N1+02341+01601101651ADDGF108991001001999999001011KA1240N+01521MA1999999093381MD1999999-0091REMSYN076AAXX  12124 83182 32997 81411 10234 20160 39338 40165 80001 333 20152 59009;
0137831820999992007061218004-11300-041867FM-12+074799999V0200901N004112200019N0100001N1+02971+01461101161ADDGF108991021011012501001011MA1999999092981MD1999999-0191REMSYN070AAXX  12184 83182 32697 80908 10297 20146 39298 40116 82101 333 59019;
0168831820999992007061300004-11300-041867FM-12+074799999V0201401N001519999999N0010001N1+02121+01641101521ADDGF108991001001999999001011KA1240M+02991MA1999999093281MD1999999-0051REMSYN088AAXX  13004 83182 32994 81403 10212 20164 39328 40152 80001 333 10299 29063 55100 59005;
0156831820999992007061312004-11300-041867FM-12+074799999V0200901N005110450019N0100001N1+02501+01561101711ADDGF108991021021008001041011KA1240N+01471MA1999999093391MD1999999+0011REMSYN076AAXX  13124 83182 32597 80910 10250 20156 39339 40171 82241 333 20147 58001;
0137831820999992007061318004-11300-041867FM-12+074799999V0201401N004612200019N0100001N1+02861+01621101191ADDGF108991011011012501001011MA1999999093011MD1999999+0031REMSYN070AAXX  13184 83182 32697 81409 10286 20162 39301 40119 81101 333 58003;
0168831820999992007061400004-11300-041867FM-12+074799999V0201401N002119999999N0010001N1+01961+01661101511ADDGF108991001001999999001011KA1240M+02971MA1999999093271MD1999999-0011REMSYN088AAXX  14004 83182 32994 81404 10196 20166 39327 40151 80001 333 10297 29067 55096 59001;
0156831820999992007061412004-11300-041867FM-12+074799999V0201401N003610075019N0100001N1+02111+01521101721ADDGF108991081051008001999999KA1240N+01281MA1999999093391MD1999999+0001REMSYN076AAXX  14124 83182 32597 81407 10211 20152 39339 40172 885// 333 20128 58000;
0137831820999992007061418004-11300-041867FM-12+074799999V0200501N004110450019N0100001N1+02781+01481101231ADDGF108991021021008001031011MA1999999092991MD1999999-0021REMSYN070AAXX  14184 83182 32597 80508 10278 20148 39299 40123 82231 333 59002;
0168831820999992007061500004-11300-041867FM-12+074799999V0201401N002119999999N0010001N1+02001+01621101531ADDGF108991001001999999001011KA1240M+02841MA1999999093221MD1999999-0051REMSYN088AAXX  15004 83182 32994 81404 10200 20162 39322 40153 80001 333 10284 29068 55082 59005;
0156831820999992007061512004-11300-041867FM-12+074799999V0200901N006212200019N0100001N1+02351+01461101601ADDGF102991021021008001001001KA1240N+01361MA1999999093341MD1999999-0051REMSYN076AAXX  15124 83182 32597 20912 10235 20146 39334 40160 82200 333 20136 59005;
0137831820999992007061518004-11300-041867FM-12+074799999V0201401N005712200019N0100001N1+02761+01161101291ADDGF108991011021008001001011MA1999999093051MD1999999+0061REMSYN070AAXX  15184 83182 32597 81411 10276 20116 39305 40129 81201 333 58006;
0168831820999992007061600004-11300-041867FM-12+074799999V0201401N003119999999N0010001N1+02031+01541101631ADDGF108991001001999999001011KA1240M+02841MA1999999093361MD1999999+0141REMSYN088AAXX  16004 83182 32994 81406 10203 20154 39336 40163 80001 333 10284 29060 55103 58014;
0156831820999992007061612004-11300-041867FM-12+074799999V0201401N004610075019N0100001N1+02361+01711101681ADDGF108991071051008001001011KA1240N+01531MA1999999093411MD1999999+0071REMSYN076AAXX  16124 83182 32597 81409 10236 20171 39341 40168 87501 333 20153 58007;
0137831820999992007061618004-11300-041867FM-12+074799999V0201401N004110075019N0100001N1+02561+01751101451ADDGF108991061051008001051011MA1999999093181MD1999999+0131REMSYN070AAXX  16184 83182 32597 81408 10256 20175 39318 40145 86551 333 58013;
0166831820999992007061712004-11300-041867FM-12+074799999V0201401N005112200019N0100001N1+02301+01561101711ADDGA1001+999999999GF100991001001999999001001KA1240N+01441MA1999999093441MD1999999+0031REMSYN070AAXX  17124 83182 32997 01410 10230 20156 39344 40171 333 20144 58003;
0147831820999992007061718004-11300-041867FM-12+074799999V0201401N005112200019N0100001N1+02901+01241101331ADDGA1001+999999999GF100991001001999999001001MA1999999093121MD1999999-0061REMSYN064AAXX  17184 83182 32997 01410 10290 20124 39312 40133 333 59006;
0156831820999992007061812004-11300-041867FM-12+074799999V0200901N005112200019N0100001N1+02201+01251101931ADDGF101991011001017501041001KA1240N+01271MA1999999093601MD1999999+0161REMSYN076AAXX  18124 83182 32797 10910 10220 20125 39360 40193 81040 333 20127 58016;
0156831820999992007061818004-11300-041867FM-12+074799999V0201401N003112200019N0100001N1+02821+01411101461ADDGF103991001001999999001021MA1999999093221MD1999999+0101REMSYN070AAXX  18184 83182 32997 31406 10282 20141 39322 40146 83002 333 58010;EQDQ01+000032SCOTLC
0178831820999992007061900004-11300-041867FM-12+074799999V0201401N002112200019N0010001N1+01981+01481101701ADDGA1001+999999999GF100991001001999999001001KA1240M+02851MA1999999093391MD1999999-0021REMSYN082AAXX  19004 83182 32994 01404 10198 20148 39339 40170 333 10285 29061 55104 59002;
0156831820999992007061912004-11300-041867FM-12+074799999V0201401N007710075019N0100001N1+02241+01691101821ADDGF108991071051008001001011KA1240N+01611MA1999999093501MD1999999-0101REMSYN076AAXX  19124 83182 32597 81415 10224 20169 39350 40182 87501 333 20161 59010;
0137831820999992007061918004-11300-041867FM-12+074799999V0201401N005110075019N0100001N1+02671+01511101521ADDGF108991061021008001001011MA1999999093281MD1999999+0061REMSYN070AAXX  19184 83182 32597 81410 10267 20151 39328 40152 86201 333 58006;
0168831820999992007062000004-11300-041867FM-12+074799999V0201401N003619999999N0010001N1+01951+01621101831ADDGF108991001001999999001011KA1240M+02811MA1999999093501MD1999999+0121REMSYN088AAXX  20004 83182 32994 81407 10195 20162 39350 40183 80001 333 10281 29070 55077 58012;
0156831820999992007062012004-11300-041867FM-12+074799999V0201401N005110075019N0100001N1+02161+01631102021ADDGF108991081051008001999999KA1240N+01531MA1999999093671MD1999999+0171REMSYN076AAXX  20124 83182 32597 81410 10216 20163 39367 40202 885// 333 20153 58017;
0137831820999992007062018004-11300-041867FM-12+074799999V0201401N005712200019N0100001N1+02781+01331101571ADDGF101991011011012501001001MA1999999093331MD1999999+0051REMSYN070AAXX  20184 83182 32697 11411 10278 20133 39333 40157 81100 333 58005;
0168831820999992007062100004-11300-041867FM-12+074799999V0201401N003110075019N0100001N1+02141+01741101871ADDGF108991081051008001999999KA1240M+02861MA1999999093561MD1999999+0061REMSYN088AAXX  21004 83182 32597 81406 10214 20174 39356 40187 885// 333 10286 29067 55078 58006;
0156831820999992007062112004-11300-041867FM-12+074799999V0201401N006210075019N0100001N1+02151+01691101961ADDGF108991081051008001999999KA1240N+01531MA1999999093651MD1999999-0021REMSYN076AAXX  21124 83182 32597 81412 10215 20169 39365 40196 885// 333 20153 59002;
0137831820999992007062118004-11300-041867FM-12+074799999V0200901N005112200019N0100001N1+02731+01251101531ADDGF108991031021008001001011MA1999999093301MD1999999-0031REMSYN070AAXX  21184 83182 32597 80910 10273 20125 39330 40153 83201 333 59003;
0168831820999992007062200004-11300-041867FM-12+074799999V0201401N003119999999N0010001N1+02011+01731101861ADDGF108991001001999999001011KA1240M+02781MA1999999093541MD1999999-0021REMSYN088AAXX  22004 83182 32994 81406 10201 20173 39354 40186 80001 333 10278 29071 55095 59002;
0156831820999992007062212004-11300-041867FM-12+074799999V0201401N007210075019N0100001N1+01981+01591101951ADDGF108991081051008001999999KA1240N+01521MA1999999093591MD1999999-0061REMSYN076AAXX  22124 83182 32597 81414 10198 20159 39359 40195 885// 333 20152 59006;
0137831820999992007062218004-11300-041867FM-12+074799999V0201401N007712200019N0100001N1+02671+01511101411ADDGF102991021021008001001001MA1999999093161MD1999999-0141REMSYN070AAXX  22184 83182 32597 21415 10267 20151 39316 40141 82200 333 59014;
0178831820999992007062300004-11300-041867FM-12+074799999V0201401N003112200019N0010001N1+01771+01561101661ADDGA1001+999999999GF100991001001999999001001KA1240M+02741MA1999999093291MD1999999-0251REMSYN082AAXX  23004 83182 32994 01406 10177 20156 39329 40166 333 10274 29076 55074 59025;
0156831820999992007062312004-11300-041867FM-12+074799999V0201401N001510075019N0100001N1+01971+01571101791ADDGF108991081051008001999999KA1240N+01181MA1999999093391MD1999999-0201REMSYN076AAXX  23124 83182 32597 81403 10197 20157 39339 40179 885// 333 20118 59020;
0137831820999992007062318004-11300-041867FM-12+074799999V0200901N005119999999N0100001N1+02721+01351101261ADDGF108991001001999999001011MA1999999092991MD1999999-0171REMSYN070AAXX  23184 83182 32997 80910 10272 20135 39299 40126 80001 333 59017;
0166831820999992007062412004-11300-041867FM-12+074799999V0201401N004612200019N0100001N1+02251+01481101821ADDGA1001+999999999GF100991001001999999001001KA1240N+01221MA1999999093501MD1999999+0111REMSYN070AAXX  24124 83182 32997 01409 10225 20148 39350 40182 333 20122 58011;
0147831820999992007062418004-11300-041867FM-12+074799999V0200901N004112200019N0100001N1+02781+01141101421ADDGA1001+999999999GF100991001001999999001001MA1999999093151MD1999999+0161REMSYN064AAXX  24184 83182 32597 00908 10278 20114 39315 40142 333 58016;
0156831820999992007062512004-11300-041867FM-12+074799999V0201401N005712200019N0100001N1+02211+01571101971ADDGF102991021021008001001001KA1240N+01311MA1999999093631MD1999999+0131REMSYN076AAXX  25124 83182 32597 21411 10221 20157 39363 40197 82200 333 20131 58013;
0137831820999992007062518004-11300-041867FM-12+074799999V0200901N005110075019N0100001N1+02581+01641101661ADDGF106991061021008001001001MA1999999093351MD1999999+0201REMSYN070AAXX  25184 83182 32597 60910 10258 20164 39335 40166 86200 333 58020;
0168831820999992007062600004-11300-041867FM-12+074799999V0201401N002110075019N0010001N1+02041+01701101821ADDGF108991081051008001999999KA1240M+02721MA1999999093501MD1999999+0061REMSYN088AAXX  26004 83182 32594 81404 10204 20170 39350 40182 885// 333 10272 29071 55086 58006;
0156831820999992007062612004-11300-041867FM-12+074799999V0201401N005110075019N0100001N1+02041+01581102011ADDGF108991081051008001999999KA1240N+01551MA1999999093661MD1999999+0031REMSYN076AAXX  26124 83182 32597 81410 10204 20158 39366 40201 885// 333 20155 58003;
0137831820999992007062618004-11300-041867FM-12+074799999V0201401N007712200019N0100001N1+02541+01681101601ADDGF108991041021008001001011MA1999999093321MD1999999-0031REMSYN070AAXX  26184 83182 32597 81415 10254 20168 39332 40160 84201 333 59003;
0168831820999992007062700004-11300-041867FM-12+074799999V0201401N003119999999N0010001N1+01891+01671101891ADDGF108991001001999999001011KA1240M+02611MA1999999093521MD1999999+0021REMSYN088AAXX  27004 83182 32994 81406 10189 20167 39352 40189 80001 333 10261 29077 55067 58002;
0156831820999992007062712004-11300-041867FM-12+074799999V0201401N005110075019N0100001N1+02061+01601101961ADDGF108991081051008001999999KA1240N+01571MA1999999093601MD1999999-0061REMSYN076AAXX  27124 83182 32597 81410 10206 20160 39360 40196 885// 333 20157 59006;
0137831820999992007062718004-11300-041867FM-12+074799999V0201401N005710075019N0100001N1+02461+01501101571ADDGF106991061021008001001001MA1999999093271MD1999999-0051REMSYN070AAXX  27184 83182 32597 61411 10246 20150 39327 40157 86200 333 59005;
0178831820999992007062800004-11300-041867FM-12+074799999V0201401N004112200019N0010001N1+01891+01261101711ADDGA1001+999999999GF100991001001999999001001KA1240M+02521MA1999999093361MD1999999-0161REMSYN082AAXX  28004 83182 32994 01408 10189 20126 39336 40171 333 10252 29066 55034 59016;
0156831820999992007062812004-11300-041867FM-12+074799999V0201401N004610075019N0100001N1+01991+01511101951ADDGF108991081051008001999999KA1240N+01421MA1999999093571MD1999999-0031REMSYN076AAXX  28124 83182 32597 81409 10199 20151 39357 40195 885// 333 20142 59003;
0137831820999992007062818004-11300-041867FM-12+074799999V0201401N003612200019N0100001N1+02601+01541101441ADDGF108991041051008001001011MA1999999093171MD1999999-0101REMSYN070AAXX  28184 83182 32597 81407 10260 20154 39317 40144 84501 333 59010;
0168831820999992007062900004-11300-041867FM-12+074799999V0200901N003119999999N0010001N1+01971+01621101831ADDGF108991001001999999001011KA1240M+02651MA1999999093451MD1999999-0121REMSYN088AAXX  29004 83182 32994 80906 10197 20162 39345 40183 80001 333 10265 29072 55047 59012;
0166831820999992007062912004-11300-041867FM-12+074799999V0201401N004112200019N0010001N1+02281+01361102061ADDGA1001+999999999GF100991001001999999001001KA1240N+01201MA1999999093721MD1999999+0151REMSYN070AAXX  29124 83182 32994 01408 10228 20136 39372 40206 333 20120 58015;
0137831820999992007062918004-11300-041867FM-12+074799999V0200501N002112200019N0100001N1+02941+01511101441ADDGF103991031021008001001001MA1999999093201MD1999999+0031REMSYN070AAXX  29184 83182 32597 30504 10294 20151 39320 40144 83200 333 58003;
0168831820999992007063000004-11300-041867FM-12+074799999V0201401N003110075019N0010001N1+02071+01651101791ADDGF105991051051008001001001KA1240M+03021MA1999999093511MD1999999+0061REMSYN088AAXX  30004 83182 32594 51406 10207 20165 39351 40179 85500 333 10302 29063 55103 58006;
0156831820999992007063012004-11300-041867FM-12+074799999V0201401N005110075019N0100001N1+02141+01591102091ADDGF107991071051008001001001KA1240N+01571MA1999999093751MD1999999+0031REMSYN076AAXX  30124 83182 32597 71410 10214 20159 39375 40209 87500 333 20157 58003;
0137831820999992007063018004-11300-041867FM-12+074799999V0200501N004110075019N0100001N1+02591+01501101681ADDGF107991071051008001001001MA1999999093411MD1999999+0211REMSYN070AAXX  30184 83182 32597 70508 10259 20150 39341 40168 87500 333 58021;
0156831820999992007070112004-11300-041867FM-12+074799999V0201401N004619999999N0100001N1+02201+01781102111ADDGF108991001001999999001011KA1240N+01431MA1999999093771MD1999999+0021REMSYN076AAXX  01124 83182 32997 81409 10220 20178 39377 40211 80001 333 20143 58002;
0137831820999992007070118004-11300-041867FM-12+074799999V0201401N002112200019N0100001N1+02901+01441101561ADDGF108991041021008001001011MA1999999093331MD1999999-0081REMSYN070AAXX  01184 83182 32597 81404 10290 20144 39333 40156 84201 333 59008;
0168831820999992007070200004-11300-041867FM-12+074799999V0201401N002110150019N0010001N1+01921+01491102041ADDGF108991051071017501031011KA1240M+02971MA1999999093691MD1999999+0001REMSYN088AAXX  02004 83182 32794 81404 10192 20149 39369 40204 85731 333 10297 29068 55088 58000;
0156831820999992007070212004-11300-041867FM-12+074799999V0200901N004612200019N0100001N1+02211+01521102071ADDGF108991011011012501001011KA1240N+01351MA1999999093721MD1999999-0051REMSYN076AAXX  02124 83182 32697 80909 10221 20152 39372 40207 81101 333 20135 59005;
0137831820999992007070218004-11300-041867FM-12+074799999V0201401N004110075019N0100001N1+02761+01351101601ADDGF106991051021008001001011MA1999999093341MD1999999-0011REMSYN070AAXX  02184 83182 32597 61408 10276 20135 39334 40160 85201 333 59001;
0178831820999992007070300004-11300-041867FM-12+074799999V0201401N004112200019N0010001N1+02051+01371101841ADDGA1001+999999999GF100991001001999999001001KA1240M+02891MA1999999093541MD1999999-0151REMSYN082AAXX  03004 83182 32994 01408 10205 20137 39354 40184 333 10289 29064 55093 59015;
0156831820999992007070312004-11300-041867FM-12+074799999V0201401N005110075019N0100001N1+02251+01701102041ADDGF108991071051008001001011KA1240N+01521MA1999999093721MD1999999+0001REMSYN076AAXX  03124 83182 32597 81410 10225 20170 39372 40204 87501 333 20152 58000;
0137831820999992007070318004-11300-041867FM-12+074799999V0201401N004612200019N0100001N1+02571+01681101681ADDGF108991041051008001001011MA1999999093411MD1999999+0071REMSYN070AAXX  03184 83182 32597 81409 10257 20168 39341 40168 84501 333 58007;
0168831820999992007070400004-11300-041867FM-12+074799999V0201401N002119999999N0010001N1+01881+01551101951ADDGF108991001001999999001011KA1240M+02981MA1999999093611MD1999999+0071REMSYN088AAXX  04004 83182 32994 81404 10188 20155 39361 40195 80001 333 10298 29073 55059 58007;
0156831820999992007070412004-11300-041867FM-12+074799999V0201401N003119999999N0100001N1+02201+01511102061ADDGF108991001001999999001011KA1240N+01231MA1999999093711MD1999999-0011REMSYN076AAXX  04124 83182 32997 81406 10220 20151 39371 40206 80001 333 20123 59001;
0137831820999992007070418004-11300-041867FM-12+074799999V0201401N004610450019N0100001N1+02741+01441101761ADDGF108991021021008001041011MA1999999093461MD1999999+0051REMSYN070AAXX  04184 83182 32597 81409 10274 20144 39346 40176 82241 333 58005;
0168831820999992007070500004-11300-041867FM-12+074799999V0201401N005112200019N0010001N1+01961+01481102021ADDGF108991021001017501041011KA1240M+02861MA1999999093681MD1999999+0071REMSYN088AAXX  05004 83182 32794 81410 10196 20148 39368 40202 82041 333 10286 29064 55083 58007;
0156831820999992007070512004-11300-041867FM-12+074799999V0200901N006210075019N0100001N1+02171+01551102061ADDGF108991081051008001999999KA1240N+01451MA1999999093711MD1999999+0001REMSYN076AAXX  05124 83182 32597 80912 10217 20155 39371 40206 885// 333 20145 58000;
0137831820999992007070518004-11300-041867FM-12+074799999V0200901N006710075019N0100001N1+02521+01691101731ADDGF108991071051008001001011MA1999999093421MD1999999-0041REMSYN070AAXX  05184 83182 32597 80913 10252 20169 39342 40173 87501 333 59004;
0168831820999992007070600004-11300-041867FM-12+074799999V0201401N003119999999N0010001N1+01941+01591101931ADDGF108991001001999999001011KA1240M+02591MA1999999093591MD1999999-0091REMSYN088AAXX  06004 83182 32994 81406 10194 20159 39359 40193 80001 333 10259 29072 55066 59009;
0156831820999992007070612004-11300-041867FM-12+074799999V0201401N004119999999N0100001N1+02101+01371101981ADDGF108991001001999999001011KA1240N+01271MA1999999093621MD1999999-0091REMSYN076AAXX  06124 83182 32997 81408 10210 20137 39362 40198 80001 333 20127 59009;
0137831820999992007070618004-11300-041867FM-12+074799999V0201401N005110075019N0100001N1+02461+01611101601ADDGF108991081051008001999999MA1999999093291MD1999999-0131REMSYN070AAXX  06184 83182 32597 81410 10246 20161 39329 40160 885// 333 59013;
0168831820999992007070700004-11300-041867FM-12+074799999V0201401N004610075019N0010001N1+01961+01681101821ADDGF108991081051008001999999KA1240M+02591MA1999999093481MD1999999-0111REMSYN088AAXX  07004 83182 32594 81409 10196 20168 39348 40182 885// 333 10259 29072 55051 59011;
0156831820999992007070712004-11300-041867FM-12+074799999V0201401N006212200019N0100001N1+02171+01531101871ADDGF108991021021008001001011KA1240N+01401MA1999999093531MD1999999-0091REMSYN076AAXX  07124 83182 32597 81412 10217 20153 39353 40187 82201 333 20140 59009;
0137831820999992007070718004-11300-041867FM-12+074799999V0201401N003110075019N0100001N1+02481+01621101491ADDGF108991081051008001999999MA1999999093201MD1999999-0091REMSYN070AAXX  07184 83182 32597 81406 10248 20162 39320 40149 885// 333 59009;
0168831820999992007070800004-11300-041867FM-12+074799999V0201401N003119999999N0010001N1+01901+01681101641ADDGF108991001001999999001011KA1240M+02521MA1999999093321MD1999999-0161REMSYN088AAXX  08004 83182 32994 81406 10190 20168 39332 40164 80001 333 10252 29075 55058 59016;
0137831820999992007070818004-11300-041867FM-12+074799999V0201401N005112200019N0100001N1+02801+01241101331ADDGF101991011011012501001011MA1999999093091MD1999999-0111REMSYN070AAXX  08184 83182 32697 11410 10280 20124 39309 40133 81101 333 59011;
0178831820999992007070900004-11300-041867FM-12+074799999V0201401N002612200019N0010001N1+01951+01541101811ADDGA1001+999999999GF100991001001999999001001KA1240M+02881MA1999999093491MD1999999+0171REMSYN082AAXX  09004 83182 32994 01405 10195 20154 39349 40181 333 10288 29063 55101 58017;
0156831820999992007070912004-11300-041867FM-12+074799999V0201401N005112200019N0100001N1+02241+01551101851ADDGF101991011011012501001001KA1240N+01381MA1999999093531MD1999999+0021REMSYN076AAXX  09124 83182 32697 11410 10224 20155 39353 40185 81100 333 20138 58002;
0137831820999992007070918004-11300-041867FM-12+074799999V0201401N005110075019N0100001N1+02731+01521101421ADDGF107991071051008001001001MA1999999093171MD1999999+0081REMSYN070AAXX  09184 83182 32597 71410 10273 20152 39317 40142 87500 333 58008;
0168831820999992007071000004-11300-041867FM-12+074799999V0201401N003619999999N0010001N1+02131+01791101591ADDGF108991001001999999001011KA1240M+02841MA1999999093331MD1999999-0161REMSYN088AAXX  10004 83182 32994 81407 10213 20179 39333 40159 80001 333 10284 29069 55087 59016;
0156831820999992007071012004-11300-041867FM-12+074799999V0201401N005110075019N0100001N1+02171+01511101791ADDGF105991051021008001001001KA1240N+01501MA1999999093491MD1999999-0041REMSYN076AAXX  10124 83182 32597 51410 10217 20151 39349 40179 85200 333 20150 59004;
0137831820999992007071018004-11300-041867FM-12+074799999V0200901N005112200019N0100001N1+02581+01521101341ADDGF104991041021008001001001MA1999999093101MD1999999-0071REMSYN070AAXX  10184 83182 32597 40910 10258 20152 39310 40134 84200 333 59007;
0178831820999992007071100004-11300-041867FM-12+074799999V0201401N003112200019N0010001N1+01821+01331101751ADDGA1001+999999999GF100991001001999999001001KA1240M+02721MA1999999093401MD1999999+0071REMSYN082AAXX  11004 83182 32994 01406 10182 20133 39340 40175 333 10272 29066 55097 58007;
0156831820999992007071112004-11300-041867FM-12+074799999V0200901N004112200019N0100001N1+02281+01611101861ADDGF102991021011012501001001KA1240N+01491MA1999999093521MD1999999+0031REMSYN076AAXX  11124 83182 32697 20908 10228 20161 39352 40186 82100 333 20149 58003;
0137831820999992007071118004-11300-041867FM-12+074799999V0200901N004610075019N0100001N1+02581+01461101461ADDGF106991061021008001001001MA1999999093171MD1999999+0071REMSYN070AAXX  11184 83182 32597 60909 10258 20146 39317 40146 86200 333 58007;
0178831820999992007071200004-11300-041867FM-12+074799999V0201401N002112200019N0010001N1+01971+01471101621ADDGA1001+999999999GF100991001001999999001001KA1240M+02691MA1999999093321MD1999999-0081REMSYN082AAXX  12004 83182 32994 01404 10197 20147 39332 40162 333 10269 29066 55081 59008;
0156831820999992007071212004-11300-041867FM-12+074799999V0201401N005112200019N0100001N1+02171+01551101931ADDGF108991031011012501001011KA1240N+01201MA1999999093591MD1999999+0071REMSYN076AAXX  12124 83182 32697 81410 10217 20155 39359 40193 83101 333 20120 58007;
0137831820999992007071218004-11300-041867FM-12+074799999V0200901N005112200019N0100001N1+02771+01431101401ADDGF108991031011012501001011MA1999999093151MD1999999-0021REMSYN070AAXX  12184 83182 32697 80910 10277 20143 39315 40140 83101 333 59002;
0168831820999992007071300004-11300-041867FM-12+074799999V0201401N002619999999N0010001N1+01921+01581101771ADDGF108991001001999999001011KA1240M+02821MA1999999093441MD1999999+0121REMSYN088AAXX  13004 83182 32994 81405 10192 20158 39344 40177 80001 333 10282 29068 55101 58012;
0156831820999992007071312004-11300-041867FM-12+074799999V0201401N004110075019N0100001N1+02241+01501101961ADDGF107991071051008001001001KA1240N+01251MA1999999093631MD1999999+0041REMSYN076AAXX  13124 83182 32597 71408 10224 20150 39363 40196 87500 333 20125 58004;
0137831820999992007071318004-11300-041867FM-12+074799999V0200901N002612200019N0100001N1+02701+01301101391ADDGF103991031021008001001001MA1999999093131MD1999999-0021REMSYN070AAXX  13184 83182 32597 30905 10270 20130 39313 40139 83200 333 59002;
0178831820999992007071400004-11300-041867FM-12+074799999V0201401N005112200019N0010001N1+01961+01661101781ADDGA1001+999999999GF100991001001999999001001KA1240M+02781MA1999999093461MD1999999+0021REMSYN082AAXX  14004 83182 32994 01410 10196 20166 39346 40178 333 10278 29068 55095 58002;
0156831820999992007071412004-11300-041867FM-12+074799999V0201401N003612200019N0100001N1+02221+01621101821ADDGF102991021011012501001001KA1240N+01361MA1999999093501MD1999999+0061REMSYN076AAXX  14124 83182 32697 21407 10222 20162 39350 40182 82100 333 20136 58006;
0137831820999992007071418004-11300-041867FM-12+074799999V0201401N002110075019N0100001N1+02851+01431101261ADDGF106991061021008001001001MA1999999093041MD1999999-0091REMSYN070AAXX  14184 83182 32597 61404 10285 20143 39304 40126 86200 333 59009;
0178831820999992007071500004-11300-041867FM-12+074799999V0201401N002112200019N0010001N1+02031+01571101541ADDGA1001+999999999GF100991001001999999001001KA1240M+02971MA1999999093251MD1999999-0211REMSYN082AAXX  15004 83182 32994 01404 10203 20157 39325 40154 333 10297 29063 55101 59021;
0156831820999992007071512004-11300-041867FM-12+074799999V0201401N004612200019N0100001N1+02091+01591101741ADDGF102991021021008001001001KA1240N+01301MA1999999093411MD1999999-0091REMSYN076AAXX  15124 83182 32597 21409 10209 20159 39341 40174 82200 333 20130 59009;
0137831820999992007071518004-11300-041867FM-12+074799999V0203601N001512200019N0100001N1+02791+01301101241ADDGF104991041021008001001001MA1999999093001MD1999999-0041REMSYN070AAXX  15184 83182 32597 43603 10279 20130 39300 40124 84200 333 59004;
0178831820999992007071600004-11300-041867FM-12+074799999V0201401N003112200019N0010001N1+02131+01451101441ADDGA1001+999999999GF100991001001999999001001KA1240M+02871MA1999999093161MD1999999-0091REMSYN082AAXX  16004 83182 32994 01406 10213 20145 39316 40144 333 10287 29061 55084 59009;
0166831820999992007071612004-11300-041867FM-12+074799999V0201401N004612200019N0100001N1+02271+01501101551ADDGA1001+999999999GF100991001001999999001001KA1240N+01231MA1999999093291MD1999999-0121REMSYN070AAXX  16124 83182 32997 01409 10227 20150 39329 40155 333 20123 59012;
0137831820999992007071618004-11300-041867FM-12+074799999V02099999999992200019N0100001N1+02961+01341101121ADDGF102991011021008001001011MA1999999092931MD1999999-0071REMSYN070AAXX  16184 83182 32597 209// 10296 20134 39293 40112 81201 333 59007;
0178831820999992007071700004-11300-041867FM-12+074799999V0201401N003112200019N0010001N1+02101+01491101421ADDGA1001+999999999GF100991001001999999001001KA1240M+03081MA1999999093171MD1999999+0011REMSYN082AAXX  17004 83182 32994 01406 10210 20149 39317 40142 333 10308 29059 55102 58001;
0156831820999992007071712004-11300-041867FM-12+074799999V0200901N003112200019N0100001N1+02401+01771101611ADDGF108991021021008001001011KA1240N+01441MA1999999093361MD1999999+0071REMSYN076AAXX  17124 83182 32597 80906 10240 20177 39336 40161 82201 333 20144 58007;
0137831820999992007071718004-11300-041867FM-12+074799999V0201401N003110075019N0100001N1+03051+01761101131ADDGF106991061021008001001001MA1999999092971MD1999999+0041REMSYN070AAXX  17184 83182 32597 61406 10305 20176 39297 40113 86200 333 58004;
0178831820999992007071800004-11300-041867FM-12+074799999V0201401N003112200019N0010001N1+02241+01711101401ADDGA1001+999999999GF100991001001999999001001KA1240M+03111MA1999999093181MD1999999+0011REMSYN082AAXX  18004 83182 32994 01406 10224 20171 39318 40140 333 10311 29064 55093 58001;
0156831820999992007071812004-11300-041867FM-12+074799999V0201401N004612200019N0100001N1+02431+01471101511ADDGF102991011011012501001011KA1240N+01451MA1999999093301MD1999999-0061REMSYN076AAXX  18124 83182 32697 21409 10243 20147 39330 40151 81101 333 20145 59006;
0137831820999992007071818004-11300-041867FM-12+074799999V0202701N001512200019N0100001N1+03121+01151101011ADDGF104991041021008001001001MA1999999092891MD1999999-0081REMSYN070AAXX  18184 83182 32597 42703 10312 20115 39289 40101 84200 333 59008;
0168831820999992007071900004-11300-041867FM-12+074799999V0201401N003612200019N0010001N1+02341+01441101361ADDGF101991011001017501051001KA1240M+03181MA1999999093181MD1999999+0001REMSYN088AAXX  19004 83182 32794 11407 10234 20144 39318 40136 81050 333 10318 29052 55110 58000;
0156831820999992007071912004-11300-041867FM-12+074799999V0201401N002119999999N0100001N1+02451+01671101431ADDGF108991001001999999001011KA1240N+01421MA1999999093231MD1999999-0051REMSYN076AAXX  19124 83182 32997 81404 10245 20167 39323 40143 80001 333 20142 59005;
0137831820999992007071918004-11300-041867FM-12+074799999V0200501N001512200019N0100001N1+03311+01161100761ADDGF108991021011012501001011MA1999999092681MD1999999-0211REMSYN070AAXX  19184 83182 32697 80503 10331 20116 39268 40076 82101 333 59021;
0168831820999992007072000004-11300-041867FM-12+074799999V0200901N003119999999N0010001N1+02281+01641101311ADDGF108991001001999999001011KA1240M+03331MA1999999093121MD1999999-0061REMSYN088AAXX  20004 83182 32994 80906 10228 20164 39312 40131 80001 333 10333 29059 55103 59006;
0156831820999992007072012004-11300-041867FM-12+074799999V0201401N006710075019N0100001N1+02231+01471101691ADDGF108991081051008001999999KA1240N+01601MA1999999093441MD1999999+0211REMSYN076AAXX  20124 83182 32597 81413 10223 20147 39344 40169 885// 333 20160 58021;
0137831820999992007072018004-11300-041867FM-12+074799999V0201401N006212200019N0100001N1+02831+01411101311ADDGF102991021021008001001001MA1999999093141MD1999999+0461REMSYN070AAXX  20184 83182 32597 21412 10283 20141 39314 40131 82200 333 58046;
0166831820999992007072112004-11300-041867FM-12+074799999V0200901N005112200019N0100001N1+02261+01371101801ADDGA1001+999999999GF100991001001999999001001KA1240N+01241MA1999999093501MD1999999+0061REMSYN070AAXX  21124 83182 32997 00910 10226 20137 39350 40180 333 20124 58006;
0147831820999992007072118004-11300-041867FM-12+074799999V0200901N005112200019N0100001N1+02801+01241101341ADDGA1001+999999999GF100991001001999999001001MA1999999093101MD1999999-0041REMSYN064AAXX  21184 83182 32997 00910 10280 20124 39310 40134 333 59004;
0178831820999992007072200004-11300-041867FM-12+074799999V0201401N003112200019N0010001N1+02051+01031101451ADDGA1001+999999999GF100991001001999999001001KA1240M+02921MA1999999093291MD1999999-0051REMSYN082AAXX  22004 83182 32994 01406 10205 20103 39329 40145 333 10292 29053 55103 59005;
0156831820999992007072212004-11300-041867FM-12+074799999V0201401N004619999999N0100001N1+02241+01291101681ADDGF108991001001999999001011KA1240N+01321MA1999999093391MD1999999-0111REMSYN076AAXX  22124 83182 32997 81409 10224 20129 39339 40168 80001 333 20132 59011;
0137831820999992007072218004-11300-041867FM-12+074799999V0200501N002112200019N0100001N1+02951+01101101251ADDGF108991011011012501001011MA1999999093081MD1999999-0021REMSYN070AAXX  22184 83182 32697 80504 10295 20110 39308 40125 81101 333 59002;
0168831820999992007072300004-11300-041867FM-12+074799999V0201401N003119999999N0010001N1+02061+01311101441ADDGF108991001001999999001011KA1240M+03011MA1999999093171MD1999999-0121REMSYN088AAXX  23004 83182 32994 81406 10206 20131 39317 40144 80001 333 10301 29053 55102 59012;
0166831820999992007072312004-11300-041867FM-12+074799999V0201401N003612200019N0100001N1+02151+01181101711ADDGA1001+999999999GF100991001001999999001001KA1240N+01311MA1999999093401MD1999999+0011REMSYN070AAXX  23124 83182 32997 01407 10215 20118 39340 40171 333 20131 58001;
0147831820999992007072318004-11300-041867FM-12+074799999V0201401N002612200019N0100001N1+02981+01131101101ADDGA1001+999999999GF100991001001999999001001MA1999999092931MD1999999-0151REMSYN064AAXX  23184 83182 32997 01405 10298 20113 39293 40110 333 59015;
0178831820999992007072400004-11300-041867FM-12+074799999V0201401N003112200019N0100001N1+02081+01211101411ADDGA1001+999999999GF100991001001999999001001KA1240M+03031MA1999999093131MD1999999-0041REMSYN082AAXX  24004 83182 32997 01406 10208 20121 39313 40141 333 10303 29051 55105 59004;
0166831820999992007072412004-11300-041867FM-12+074799999V0201401N003112200019N0100001N1+02251+01271101691ADDGA1001+999999999GF100991001001999999001001KA1240N+01161MA1999999093401MD1999999+0001REMSYN070AAXX  24124 83182 32997 01406 10225 20127 39340 40169 333 20116 58000;
0147831820999992007072418004-11300-041867FM-12+074799999V0201401N005112200019N0100001N1+03081+00961101261ADDGA1001+999999999GF100991001001999999001001MA1999999093071MD1999999+0111REMSYN064AAXX  24184 83182 32997 01410 10308 20096 39307 40126 333 58011;
0178831820999992007072500004-11300-041867FM-12+074799999V0201401N003112200019N0010001N1+01981+01081101451ADDGA1001+999999999GF100991001001999999001001KA1240M+03131MA1999999093161MD1999999+0031REMSYN082AAXX  25004 83182 32994 01406 10198 20108 39316 40145 333 10313 29048 55105 58003;
0156831820999992007072512004-11300-041867FM-12+074799999V0200901N003112200019N0100001N1+02241+01691101721ADDGF103991031021008001001001KA1240N+01391MA1999999093411MD1999999+0011REMSYN076AAXX  25124 83182 32597 30906 10224 20169 39341 40172 83200 333 20139 58001;
0137831820999992007072518004-11300-041867FM-12+074799999V0200901N002612200019N0100001N1+02961+01161101221ADDGF102991021021008001001001MA1999999093021MD1999999-0051REMSYN070AAXX  25184 83182 32597 20905 10296 20116 39302 40122 82200 333 59005;
0166831820999992007072612004-11300-041867FM-12+074799999V0201401N003612200019N0100001N1+02471+01561101751ADDGA1001+999999999GF100991001001999999001001KA1240N+01431MA1999999093511MD1999999+0101REMSYN070AAXX  26124 83182 32997 01407 10247 20156 39351 40175 333 20143 58010;
0147831820999992007072618004-11300-041867FM-12+074799999V0201401N004112200019N0100001N1+03151+01181101351ADDGA1001+999999999GF100991001001999999001001MA1999999093021MD1999999+0001REMSYN064AAXX  26184 83182 32997 01408 10315 20118 39302 40135 333 58000;
0178831820999992007072700004-11300-041867FM-12+074799999V0201401N003612200019N0010001N1+02191+01241101621ADDGA1001+999999999GF100991001001999999001001KA1240M+03181MA1999999093391MD1999999+0061REMSYN082AAXX  27004 83182 32994 01407 10219 20124 39339 40162 333 10318 29049 55103 58006;
0156831820999992007072712004-11300-041867FM-12+074799999V0201401N001510075019N0100001N1+02511+01621101791ADDGF106991061021008001001001KA1240N+01531MA1999999093561MD1999999+0051REMSYN076AAXX  27124 83182 32597 61403 10251 20162 39356 40179 86200 333 20153 58005;
0137831820999992007072718004-11300-041867FM-12+074799999V0200901N005112200019N0100001N1+02781+01611101371ADDGF103991031021008001001001MA1999999093151MD1999999+0131REMSYN070AAXX  27184 83182 32597 30910 10278 20161 39315 40137 83200 333 58013;
0168831820999992007072800004-11300-041867FM-12+074799999V0201401N005110075019N0010001N1+02161+01631101631ADDGF108991081051008001999999KA1240M+02911MA1999999093411MD1999999+0021REMSYN088AAXX  28004 83182 32594 81410 10216 20163 39341 40163 885// 333 10291 29063 55097 58002;
0156831820999992007072812004-11300-041867FM-12+074799999V0201401N007212200019N0100001N1+02281+01211101851ADDGF101991011011012501001001KA1240N+01401MA1999999093561MD1999999+0001REMSYN076AAXX  28124 83182 32697 11414 10228 20121 39356 40185 81100 333 20140 58000;
0147831820999992007072818004-11300-041867FM-12+074799999V0201401N005112200019N0100001N1+02801+01351101521ADDGA1001+999999999GF100991001001999999001001MA1999999093291MD1999999+0141REMSYN064AAXX  28184 83182 32997 01410 10280 20135 39329 40152 333 58014;
0178831820999992007072900004-11300-041867FM-12+074799999V0201401N002612200019N0010001N1+02001+01251101791ADDGA1001+999999999GF100991001001999999001001KA1240M+02861MA1999999093491MD1999999+0081REMSYN082AAXX  29004 83182 32994 01405 10200 20125 39349 40179 333 10286 29054 55106 58008;
0156831820999992007072912004-11300-041867FM-12+074799999V0201401N004112200019N0100001N1+02301+01561101901ADDGF102991021021008001001001KA1240N+01381MA1999999093591MD1999999+0031REMSYN076AAXX  29124 83182 32597 21408 10230 20156 39359 40190 82200 333 20138 58003;
0137831820999992007072918004-11300-041867FM-12+074799999V0201401N005112200019N0100001N1+02541+01261101571ADDGF103991021021008001041001MA1999999093271MD1999999-0021REMSYN070AAXX  29184 83182 32597 31410 10254 20126 39327 40157 82240 333 59002;
0168831820999992007073000004-11300-041867FM-12+074799999V0201401N003112200019N0010001N1+02021+01391101791ADDGF101991011001017501041001KA1240M+02641MA1999999093491MD1999999+0001REMSYN088AAXX  30004 83182 32794 11406 10202 20139 39349 40179 81040 333 10264 29060 55100 58000;
0156831820999992007073012004-11300-041867FM-12+074799999V0201401N005710075019N0100001N1+02061+01311101941ADDGF106991061021008001001001KA1240N+01551MA1999999093601MD1999999+0011REMSYN076AAXX  30124 83182 32597 61411 10206 20131 39360 40194 86200 333 20155 58001;
0137831820999992007073018004-11300-041867FM-12+074799999V0201401N006712200019N0100001N1+02601+01251101501ADDGF102991021021008001001001MA1999999093251MD1999999-0021REMSYN070AAXX  30184 83182 32597 21413 10260 20125 39325 40150 82200 333 59002;
0168831820999992007073100004-11300-041867FM-12+074799999V0201401N005712200019N0010001N1+01811+01111101911ADDGF101991011001017501041001KA1240M+02731MA1999999093541MD1999999+0051REMSYN088AAXX  31004 83182 32794 11411 10181 20111 39354 40191 81040 333 10273 29058 55090 58005;
0166831820999992007073112004-11300-041867FM-12+074799999V0200901N006712200019N0100001N1+01951+01131102021ADDGA1001+999999999GF100991001001999999001001KA1240N+01121MA1999999093621MD1999999+0021REMSYN070AAXX  31124 83182 32997 00913 10195 20113 39362 40202 333 20112 58002;
0137831820999992007073118004-11300-041867FM-12+074799999V0201401N003112200019N0100001N1+02701+01111101631ADDGF101991011011012501001001MA1999999093331MD1999999+0081REMSYN070AAXX  31184 83182 32697 11406 10270 20111 39333 40163 81100 333 58008;
0178831820999992007080100004-11300-041867FM-12+074799999V0200901N004112200019N0010001N1+01831+01221101821ADDGA1001+999999999GF100991001001999999001001KA1240M+02741MA1999999093441MD1999999-0101REMSYN082AAXX  01004 83182 32994 00908 10183 20122 39344 40182 333 10274 29058 55107 59010;
0156831820999992007080112004-11300-041867FM-12+074799999V0201401N005712200019N0100001N1+02101+01371101991ADDGF104991041021008001001001KA1240N+01181MA1999999093611MD1999999-0011REMSYN076AAXX  01124 83182 32597 41411 10210 20137 39361 40199 84200 333 20118 59001;
0137831820999992007080118004-11300-041867FM-12+074799999V0201401N005712200019N0100001N1+02601+01281101551ADDGF101991011011012501001001MA1999999093241MD1999999-0011REMSYN070AAXX  01184 83182 32697 11411 10260 20128 39324 40155 81100 333 59001;
0178831820999992007080200004-11300-041867FM-12+074799999V0201401N004112200019N0100001N1+01861+01371101801ADDGA1001+999999999GF100991001001999999001001KA1240M+02651MA1999999093521MD1999999+0081REMSYN082AAXX  02004 83182 32997 01408 10186 20137 39352 40180 333 10265 29063 55106 58008;
0156831820999992007080212004-11300-041867FM-12+074799999V0201401N004610075019N0100001N1+01961+01311102031ADDGF107991071051008001001001KA1240N+01101MA1999999093631MD1999999+0021REMSYN076AAXX  02124 83182 32597 71409 10196 20131 39363 40203 87500 333 20110 58002;
0137831820999992007080218004-11300-041867FM-12+074799999V0200901N004612200019N0100001N1+02831+01101101471ADDGF101991011021008001001001MA1999999093201MD1999999-0041REMSYN070AAXX  02184 83182 32597 10909 10283 20110 39320 40147 81200 333 59004;
0178831820999992007080300004-11300-041867FM-12+074799999V0201401N004112200019N0010001N1+01941+01491101861ADDGA1001+999999999GF100991001001999999001001KA1240M+02881MA1999999093491MD1999999-0031REMSYN082AAXX  03004 83182 32994 01408 10194 20149 39349 40186 333 10288 29062 55091 59003;
0156831820999992007080312004-11300-041867FM-12+074799999V0201401N005710075019N0100001N1+02061+01601102071ADDGF108991081051008001999999KA1240N+01501MA1999999093671MD1999999+0041REMSYN076AAXX  03124 83182 32597 81411 10206 20160 39367 40207 885// 333 20150 58004;
0137831820999992007080318004-11300-041867FM-12+074799999V0200901N004110075019N0100001N1+02661+01471101591ADDGF107991051021008001051001MA1999999093331MD1999999+0131REMSYN070AAXX  03184 83182 32597 70908 10266 20147 39333 40159 85250 333 58013;
0168831820999992007080400004-11300-041867FM-12+074799999V0201401N002110075019N0010001N1+02201+01231101901ADDGF108991081051008001999999KA1240M+02731MA1999999093591MD1999999+0101REMSYN088AAXX  04004 83182 32594 81404 10220 20123 39359 40190 885// 333 10273 29063 55038 58010;
0156831820999992007080412004-11300-041867FM-12+074799999V0201401N005710075019N0100001N1+02131+01541101931ADDGF108991081051008001999999KA1240N+01521MA1999999093621MD1999999-0051REMSYN076AAXX  04124 83182 32597 81411 10213 20154 39362 40193 885// 333 20152 59005;
0137831820999992007080418004-11300-041867FM-12+074799999V0201401N004610075019N0100001N1+02531+01591101711ADDGF107991071051008001001001MA1999999093441MD1999999+0111REMSYN070AAXX  04184 83182 32597 71409 10253 20159 39344 40171 87500 333 58011;
0168831820999992007080500004-11300-041867FM-12+074799999V0201401N003612200019N0010001N1+02101+01531101961ADDGF103991021051008001051001KA1240M+02631MA1999999093631MD1999999+0041REMSYN088AAXX  05004 83182 32594 31407 10210 20153 39363 40196 82550 333 10263 29066 55034 58004;
0156831820999992007080512004-11300-041867FM-12+074799999V0201401N005112200019N0100001N1+02231+01411101911ADDGF101991011021008001001001KA1240N+01341MA1999999093601MD1999999-0021REMSYN076AAXX  05124 83182 32597 11410 10223 20141 39360 40191 81200 333 20134 59002;
0137831820999992007080518004-11300-041867FM-12+074799999V0201801N004112200019N0100001N1+02861+01621101291ADDGF102991021021008001001001MA1999999093081MD1999999-0361REMSYN070AAXX  05184 83182 32597 21808 10286 20162 39308 40129 82200 333 59036;
0178831820999992007080600004-11300-041867FM-12+074799999V0201401N005112200019N0010001N1+02031+01401101661ADDGA1001+999999999GF100991001001999999001001KA1240M+02901MA1999999093371MD1999999-0261REMSYN082AAXX  06004 83182 32994 01410 10203 20140 39337 40166 333 10290 29060 55107 59026;
0156831820999992007080612004-11300-041867FM-12+074799999V0201401N004612200019N0100001N1+02261+01371101901ADDGF101991011021008001001001KA1240N+01411MA1999999093591MD1999999-0011REMSYN076AAXX  06124 83182 32597 11409 10226 20137 39359 40190 81200 333 20141 59001;
0137831820999992007080618004-11300-041867FM-12+074799999V0201401N005112200019N0100001N1+02861+01211101391ADDGF101991011011012501001001MA1999999093171MD1999999+0091REMSYN070AAXX  06184 83182 32697 11410 10286 20121 39317 40139 81100 333 58009;
0178831820999992007080700004-11300-041867FM-12+074799999V0201401N005112200019N0010001N1+02051+01411101781ADDGA1001+999999999GF100991001001999999001001KA1240M+02941MA1999999093481MD1999999+0111REMSYN082AAXX  07004 83182 32994 01410 10205 20141 39348 40178 333 10294 29057 55107 58011;
0156831820999992007080712004-11300-041867FM-12+074799999V0201401N005112200019N0100001N1+02261+01421101931ADDGF102991021021008001001001KA1240N+01371MA1999999093621MD1999999+0031REMSYN076AAXX  07124 83182 32597 21410 10226 20142 39362 40193 82200 333 20137 58003;
0137831820999992007080718004-11300-041867FM-12+074799999V0201401N004112200019N0100001N1+02851+01151101451ADDGF103991031021008001001001MA1999999093231MD1999999+0061REMSYN070AAXX  07184 83182 32597 31408 10285 20115 39323 40145 83200 333 58006;
0178831820999992007080800004-11300-041867FM-12+074799999V0201401N004112200019N0010001N1+02041+01561101861ADDGA1001+999999999GF100991001001999999001001KA1240M+02901MA1999999093551MD1999999+0071REMSYN082AAXX  08004 83182 32994 01408 10204 20156 39355 40186 333 10290 29060 55103 58007;
0156831820999992007080812004-11300-041867FM-12+074799999V0201401N006712200019N0100001N1+02241+01321101991ADDGF102991021021008001001001KA1240N+01421MA1999999093671MD1999999+0051REMSYN076AAXX  08124 83182 32597 21413 10224 20132 39367 40199 82200 333 20142 58005;
0137831820999992007080818004-11300-041867FM-12+074799999V0200901N004112200019N0100001N1+02841+01101101461ADDGF101991011011012501001001MA1999999093241MD1999999+0011REMSYN070AAXX  08184 83182 32697 10908 10284 20110 39324 40146 81100 333 58001;
0168831820999992007080900004-11300-041867FM-12+074799999V0201401N004112200019N0010001N1+02161+01541101821ADDGF103991031051008001001001KA1240M+02881MA1999999093541MD1999999-0011REMSYN088AAXX  09004 83182 32594 31408 10216 20154 39354 40182 83500 333 10288 29056 55107 59001;
0156831820999992007080912004-11300-041867FM-12+074799999V0200901N005110075019N0100001N1+02181+01401101911ADDGF106991061021008001001001KA1240N+01281MA1999999093601MD1999999-0071REMSYN076AAXX  09124 83182 32597 60910 10218 20140 39360 40191 86200 333 20128 59007;
0137831820999992007080918004-11300-041867FM-12+074799999V0201401N008212200019N0100001N1+02731+01181101481ADDGF101991011011012501001001MA1999999093231MD1999999-0011REMSYN070AAXX  09184 83182 32697 11416 10273 20118 39323 40148 81100 333 59001;
0178831820999992007081000004-11300-041867FM-12+074799999V0201401N005112200019N0010001N1+01981+01351101741ADDGA1001+999999999GF100991001001999999001001KA1240M+02791MA1999999093431MD1999999-0111REMSYN082AAXX  10004 83182 32994 01410 10198 20135 39343 40174 333 10279 29059 55092 59011;
0175831820999992007081012004-11300-041867FM-12+074799999V0201401N007210075019N0100001N1+02061+01431102051ADDGF107991999051008001001001KA1240N+01421MA1999999093681MD1999999+0081REMSYN076AAXX  10124 83182 32597 71414 10206 20143 39368 40205 86500 333 20142 58008;EQDQ01+000062SCOTLC
0137831820999992007081018004-11300-041867FM-12+074799999V0201401N005112200019N0100001N1+02741+01101101641ADDGF101991011011012501001001MA1999999093371MD1999999+0141REMSYN070AAXX  10184 83182 32697 11410 10274 20110 39337 40164 81100 333 58014;
0168831820999992007081100004-11300-041867FM-12+074799999V0201401N003112200019N0010001N1+02001+01601101901ADDGF104991041001017501051001KA1240M+02791MA1999999093561MD1999999+0131REMSYN088AAXX  11004 83182 32794 41406 10200 20160 39356 40190 84050 333 10279 29065 55080 58013;
0156831820999992007081112004-11300-041867FM-12+074799999V02099999999990075019N0100001N1+02221+01531101891ADDGF105991051021008001001001KA1240N+01481MA1999999093561MD1999999-0121REMSYN076AAXX  11124 83182 32597 514// 10222 20153 39356 40189 85200 333 20148 59012;
0137831820999992007081118004-11300-041867FM-12+074799999V0200901N005712200019N0100001N1+02831+01291101491ADDGF102991021021008001001001MA1999999093261MD1999999-0111REMSYN070AAXX  11184 83182 32597 20911 10283 20129 39326 40149 82200 333 59011;
0178831820999992007081200004-11300-041867FM-12+074799999V0201401N004112200019N0010001N1+02111+01441101861ADDGA1001+999999999GF100991001001999999001001KA1240M+02881MA1999999093551MD1999999-0011REMSYN082AAXX  12004 83182 32994 01408 10211 20144 39355 40186 333 10288 29059 55090 59001;
0201831820999992007081212004-11300-041867FM-12+074799999V0201401N011812200019N0100001N1+02181+01421101881ADDAA124002091AY161061AY201061GF101991011011012501001001KA1240N+01501MA1999999093571MD1999999+0011MW1011REMSYN088AAXX  12124 83182 21697 11423 10218 20142 39357 40188 70160 81100 333 20150 58001 60024;
0137831820999992007081218004-11300-041867FM-12+074799999V0200901N007212200019N0100001N1+02651+01401101591ADDGF102991021021008001001001MA1999999093331MD1999999+0041REMSYN070AAXX  12184 83182 32597 20914 10265 20140 39333 40159 82200 333 58004;
0178831820999992007081300004-11300-041867FM-12+074799999V0201401N005112200019N0010001N1+01941+01291101881ADDGA1001+999999999GF100991001001999999001001KA1240M+02721MA1999999093541MD1999999-0011REMSYN082AAXX  13004 83182 32994 01410 10194 20129 39354 40188 333 10272 29060 55104 59001;
0156831820999992007081312004-11300-041867FM-12+074799999V0201401N006212200019N0100001N1+02141+01311102071ADDGF103991031021008001001001KA1240N+01481MA1999999093721MD1999999+0151REMSYN076AAXX  13124 83182 32597 31412 10214 20131 39372 40207 83200 333 20148 58015;
0137831820999992007081318004-11300-041867FM-12+074799999V0201401N006212200019N0100001N1+02681+01281101491ADDGF101991011011008001001001MA1999999093241MD1999999-0091REMSYN070AAXX  13184 83182 32597 11412 10268 20128 39324 40149 81100 333 59009;
0178831820999992007081400004-11300-041867FM-12+074799999V0201401N005112200019N0010001N1+01861+01261101891ADDGA1001+999999999GF100991001001999999001001KA1240M+02751MA1999999093541MD1999999+0001REMSYN082AAXX  14004 83182 32994 01410 10186 20126 39354 40189 333 10275 29059 55102 58000;
0156831820999992007081412004-11300-041867FM-12+074799999V0201401N002610075019N0100001N1+01891+01501101981ADDGF108991081071008001999999KA1240N+01361MA1999999093601MD1999999-0121REMSYN076AAXX  14124 83182 32597 81405 10189 20150 39360 40198 887// 333 20136 59012;
0182831820999992007081418004-11300-041867FM-12+074799999V0200901N009310450019N0100001N1+02301+01461101731ADDAA106000891AY161061AY261061GF106991031021008001051001MA1999999093381MD1999999+0141MW1011REMSYN082AAXX  14184 83182 21597 60918 10230 20146 39338 40173 70166 83250 333 58014 69981;
0168831820999992007081500004-11300-041867FM-12+074799999V0201401N005112200019N0010001N1+01761+01471102011ADDGF102991021001017501051001KA1240M+02491MA1999999093571MD1999999+0031REMSYN088AAXX  15004 83182 32794 21410 10176 20147 39357 40201 82050 333 10249 29076 55037 58003;
0173831820999992007081512004-11300-041867FM-12+074799999V0201401N007210075019N0100001N1+02001+01371102031ADDAA124000891GF108991051051008001999999KA1240N+01301MA1999999093631MD1999999+0031REMSYN082AAXX  15124 83182 22597 81414 10200 20137 39363 40203 855// 333 20130 58003 69984;
0137831820999992007081518004-11300-041867FM-12+074799999V0201401N007212200019N0100001N1+02531+01411101611ADDGF102991021021008001001001MA1999999093311MD1999999-0071REMSYN070AAXX  15184 83182 32597 21414 10253 20141 39331 40161 82200 333 59007;
0178831820999992007081600004-11300-041867FM-12+074799999V0201401N005112200019N0010001N1+01821+01291101911ADDGA1001+999999999GF100991001001999999001001KA1240M+02591MA1999999093521MD1999999-0051REMSYN082AAXX  16004 83182 32994 01410 10182 20129 39352 40191 333 10259 29065 55088 59005;
0156831820999992007081612004-11300-041867FM-12+074799999V0201401N005110075019N0100001N1+02051+01251101901ADDGF105991051021008001001001KA1240N+01241MA1999999093531MD1999999-0101REMSYN076AAXX  16124 83182 32597 51410 10205 20125 39353 40190 85200 333 20124 59010;
0137831820999992007081618004-11300-041867FM-12+074799999V0200901N006712200019N0100001N1+02541+01191101711ADDGF106991041021008001001011MA1999999093381MD1999999-0071REMSYN070AAXX  16184 83182 32597 60913 10254 20119 39338 40171 84201 333 59007;
0178831820999992007081700004-11300-041867FM-12+074799999V0200901N004112200019N0010001N1+01891+01351101851ADDGA1001+999999999GF100991001001999999001001KA1240M+02661MA1999999093481MD1999999-0041REMSYN082AAXX  17004 83182 32994 00908 10189 20135 39348 40185 333 10266 29061 55098 59004;
0156831820999992007081712004-11300-041867FM-12+074799999V0201401N008210075019N0100001N1+02141+01281101871ADDGF107991071021008001001001KA1240N+01251MA1999999093521MD1999999-0011REMSYN076AAXX  17124 83182 32597 71416 10214 20128 39352 40187 87200 333 20125 59001;
0137831820999992007081718004-11300-041867FM-12+074799999V0200901N006212200019N0100001N1+02701+01191101331ADDGF101991011011012501001001MA1999999093071MD1999999-0311REMSYN070AAXX  17184 83182 32697 10912 10270 20119 39307 40133 81100 333 59031;
0178831820999992007081800004-11300-041867FM-12+074799999V0201401N002612200019N0010001N1+01861+01411101681ADDGA1001+999999999GF100991001001999999001001KA1240M+02741MA1999999093341MD1999999-0141REMSYN082AAXX  18004 83182 32994 01405 10186 20141 39334 40168 333 10274 29062 55102 59014;
0156831820999992007081812004-11300-041867FM-12+074799999V0201401N006710075019N0100001N1+02181+01441101771ADDGF108991081051008001999999KA1240N+01461MA1999999093421MD1999999-0101REMSYN076AAXX  18124 83182 32597 81413 10218 20144 39342 40177 885// 333 20146 59010;
0137831820999992007081818004-11300-041867FM-12+074799999V0200901N005112200019N0100001N1+02681+01421101391ADDGF104991041021008001001001MA1999999093131MD1999999+0061REMSYN070AAXX  18184 83182 32597 40910 10268 20142 39313 40139 84200 333 58006;
0178831820999992007081900004-11300-041867FM-12+074799999V0201401N003112200019N0010001N1+01841+01451101741ADDGA1001+999999999GF100991001001999999001001KA1240M+02721MA1999999093391MD1999999+0051REMSYN082AAXX  19004 83182 32994 01406 10184 20145 39339 40174 333 10272 29066 55060 58005;
0156831820999992007081912004-11300-041867FM-12+074799999V0201401N005112200019N0100001N1+02231+01271101871ADDGF102991021021008001001001KA1240N+01391MA1999999093531MD1999999+0111REMSYN076AAXX  19124 83182 32597 21410 10223 20127 39353 40187 82200 333 20139 58011;
0137831820999992007081918004-11300-041867FM-12+074799999V0200901N003612200019N0100001N1+02731+01171101491ADDGF104991041021008001001001MA1999999093231MD1999999+0101REMSYN070AAXX  19184 83182 32597 40907 10273 20117 39323 40149 84200 333 58010;
0178831820999992007082000004-11300-041867FM-12+074799999V0201401N003612200019N0100001N1+01901+01391101911ADDGA1001+999999999GF100991001001999999001001KA1240M+02841MA1999999093571MD1999999+0181REMSYN082AAXX  20004 83182 32997 01407 10190 20139 39357 40191 333 10284 29059 55095 58018;
0156831820999992007082012004-11300-041867FM-12+074799999V0201401N004612200019N0100001N1+02181+01421102061ADDGF102991021021008001001001KA1240N+01271MA1999999093711MD1999999+0181REMSYN076AAXX  20124 83182 32597 21409 10218 20142 39371 40206 82200 333 20127 58018;
0137831820999992007082018004-11300-041867FM-12+074799999V0201401N002612200019N0100001N1+02861+01331101521ADDGF102991021021008001001001MA1999999093281MD1999999+0051REMSYN070AAXX  20184 83182 32597 21405 10286 20133 39328 40152 82200 333 58005;
0178831820999992007082100004-11300-041867FM-12+074799999V0200901N002612200019N0010001N1+02041+01311102061ADDGA1001+999999999GF100991001001999999001001KA1240M+02911MA1999999093431MD1999999-0141REMSYN082AAXX  21004 83182 32994 00905 10204 20131 39343 40206 333 10291 29057 55092 59014;
0156831820999992007082112004-11300-041867FM-12+074799999V0201401N005112200019N0100001N1+02231+01471101931ADDGF101991011021008001001001KA1240N+01371MA1999999093621MD1999999-0091REMSYN076AAXX  21124 83182 32597 11410 10223 20147 39362 40193 81200 333 20137 59009;
0137831820999992007082118004-11300-041867FM-12+074799999V0201401N003612200019N0100001N1+02941+01191101371ADDGF101991011021008001001001MA1999999093151MD1999999-0131REMSYN070AAXX  21184 83182 32597 11407 10294 20119 39315 40137 81200 333 59013;
0178831820999992007082200004-11300-041867FM-12+074799999V0200901N003612200019N0010001N1+02141+01281101541ADDGA1001+999999999GF100991001001999999001001KA1240M+03001MA1999999093291MD1999999-0141REMSYN082AAXX  22004 83182 32994 00907 10214 20128 39329 40154 333 10300 29053 55106 59014;
0156831820999992007082212004-11300-041867FM-12+074799999V0201401N006212200019N0100001N1+02211+01241101941ADDGF101991011011012501001001KA1240N+01201MA1999999093651MD1999999+0031REMSYN076AAXX  22124 83182 32697 11412 10221 20124 39365 40194 81100 333 20120 58003;
0137831820999992007082218004-11300-041867FM-12+074799999V0201401N004112200019N0100001N1+02881+01151101321ADDGF101991011011008001001001MA1999999093111MD1999999-0041REMSYN070AAXX  22184 83182 32597 11408 10288 20115 39311 40132 81100 333 59004;
0178831820999992007082300004-11300-041867FM-12+074799999V0200901N005112200019N0010001N1+02061+01491101591ADDGA1001+999999999GF100991001001999999001001KA1240M+02931MA1999999093371MD1999999+0081REMSYN082AAXX  23004 83182 32994 00910 10206 20149 39337 40159 333 10293 29057 55108 58008;
0156831820999992007082312004-11300-041867FM-12+074799999V0201401N006212200019N0100001N1+02261+01281101731ADDGF102991021021008001001001KA1240N+01441MA1999999093441MD1999999-0211REMSYN076AAXX  23124 83182 32597 21412 10226 20128 39344 40173 82200 333 20144 59021;
0137831820999992007082318004-11300-041867FM-12+074799999V0200901N005112200019N0100001N1+02801+01151101171ADDGF101991011021008001001001MA1999999092971MD1999999-0141REMSYN070AAXX  23184 83182 32597 10910 10280 20115 39297 40117 81200 333 59014;
0178831820999992007082400004-11300-041867FM-12+074799999V0201401N004612200019N0010001N1+01991+01141101471ADDGA1001+999999999GF100991001001999999001001KA1240M+02881MA1999999093221MD1999999-0151REMSYN082AAXX  24004 83182 32994 01409 10199 20114 39322 40147 333 10288 29052 55107 59015;
0156831820999992007082412004-11300-041867FM-12+074799999V0201401N005110075019N0100001N1+02161+01471101741ADDGF106991061051008001001001KA1240N+01301MA1999999093411MD1999999-0031REMSYN076AAXX  24124 83182 32597 61410 10216 20147 39341 40174 86500 333 20130 59003;
0137831820999992007082418004-11300-041867FM-12+074799999V0200901N004112200019N0100001N1+02761+01351101321ADDGF104991041021008001001001MA1999999093061MD1999999+0091REMSYN070AAXX  24184 83182 32597 40908 10276 20135 39306 40132 84200 333 58009;
0178831820999992007082500004-11300-041867FM-12+074799999V0200901N004112200019N0010001N1+02101+01491101571ADDGA1001+999999999GF100991001001999999001001KA1240M+02831MA1999999093291MD1999999+0071REMSYN082AAXX  25004 83182 32994 00908 10210 20149 39329 40157 333 10283 29061 55087 58007;
0166831820999992007082512004-11300-041867FM-12+074799999V0200901N003612200019N0100001N1+02381+01391101701ADDGA1001+999999999GF100991001001999999001001KA1240N+01171MA1999999093451MD1999999+0041REMSYN070AAXX  25124 83182 32997 00907 10238 20139 39345 40170 333 20117 58004;
0137831820999992007082518004-11300-041867FM-12+074799999V0200501N002612200019N0100001N1+03101+01191101101ADDGF101991011021008001001001MA1999999092931MD1999999-0131REMSYN070AAXX  25184 83182 32597 10505 10310 20119 39293 40110 81200 333 59013;
0178831820999992007082600004-11300-041867FM-12+074799999V0200901N004112200019N0010001N1+02221+01161101311ADDGA1001+999999999GF100991001001999999001001KA1240M+03151MA1999999093101MD1999999-0191REMSYN082AAXX  26004 83182 32994 00908 10222 20116 39310 40131 333 10315 29051 55106 59019;
0156831820999992007082612004-11300-041867FM-12+074799999V0200901N004112200019N0100001N1+02311+01461101641ADDGF101991011011012501001001KA1240N+01241MA1999999093391MD1999999-0061REMSYN076AAXX  26124 83182 32697 10908 10231 20146 39339 40164 81100 333 20124 59006;
0165831820999992007082618004-11300-041867FM-12+074799999V0200901N003112200019N0100001N1+03021+01351101231ADDAY101061AY201061GF101991011011012501001001MA1999999093011MD1999999+0081MW1051REMSYN076AAXX  26184 83182 31697 10906 10302 20135 39301 40123 70500 81100 333 58008;
0178831820999992007082700004-11300-041867FM-12+074799999V0200901N003112200019N0010001N1+02151+01371101481ADDGA1001+999999999GF100991001001999999001001KA1240M+03071MA1999999093241MD1999999+0141REMSYN082AAXX  27004 83182 32994 00906 10215 20137 39324 40148 333 10307 29054 55093 58014;
0194831820999992007082712004-11300-041867FM-12+074799999V0200901N003112200019N0100001N1+02321+01501101661ADDAY101061AY201061GA1001+999999999GF100991001001999999001001KA1240N+01321MA1999999093411MD1999999+0021MW1051REMSYN076AAXX  27124 83182 31997 00906 10232 20150 39341 40166 70500 333 20132 58002;
0165831820999992007082718004-11300-041867FM-12+074799999V0200901N003112200019N0100001N1+03261+01141101161ADDAY101061AY201061GF101991011021008001001001MA1999999093031MD1999999+0021MW1051REMSYN076AAXX  27184 83182 31597 10906 10326 20114 39303 40116 70500 81200 333 58002;
0168831820999992007082800004-11300-041867FM-12+074799999V0200901N004612200019N0010001N1+02361+01541101331ADDGF102991021001017501051001KA1240M+03301MA1999999093141MD1999999-0101REMSYN088AAXX  28004 83182 32794 20909 10236 20154 39314 40133 82050 333 10330 29052 55100 59010;
0156831820999992007082912004-11300-041867FM-12+074799999V0200901N005710075019N0100001N1+02301+01381101721ADDGF106991061021008001001001KA1240N+01501MA1999999093481MD1999999+0111REMSYN076AAXX  29124 83182 32597 60911 10230 20138 39348 40172 86200 333 20150 58011;
0137831820999992007082918004-11300-041867FM-12+074799999V0201401N005712200019N0100001N1+02821+01091101311ADDGF101991011011012501001001MA1999999093121MD1999999+0181REMSYN070AAXX  29184 83182 32697 11411 10282 20109 39312 40131 81100 333 58018;
0178831820999992007083000004-11300-041867FM-12+074799999V0201401N006212200019N0010001N1+01971+01441101711ADDGA1001+999999999GF100991001001999999001001KA1240M+02841MA1999999093421MD1999999+0201REMSYN082AAXX  30004 83182 32994 01412 10197 20144 39342 40171 333 10284 29058 55097 58020;
0156831820999992007083012004-11300-041867FM-12+074799999V0200901N005710075019N0100001N1+02161+01251102031ADDGF106991061021008001001001KA1240N+01281MA1999999093671MD1999999+0191REMSYN076AAXX  30124 83182 32597 60911 10216 20125 39367 40203 86200 333 20128 58019;
0137831820999992007083018004-11300-041867FM-12+074799999V0200901N006712200019N0100001N1+02741+01101101521ADDGF102991021021008001001001MA1999999093261MD1999999+0141REMSYN070AAXX  30184 83182 32597 20913 10274 20110 39326 40152 82200 333 58014;
0178831820999992007083100004-11300-041867FM-12+074799999V0201401N004112200019N0010001N1+02041+01261101841ADDGA1001+999999999GF100991001001999999001001KA1240M+02041MA1999999093521MD1999999+0101REMSYN082AAXX  31004 83182 32994 01408 10204 20126 39352 40184 333 10204 29054 55103 58010;
0156831820999992007083112004-11300-041867FM-12+074799999V0201401N007712200019N0100001N1+02221+01271101961ADDGF101991011011012501001001KA1240N+01301MA1999999093651MD1999999-0021REMSYN076AAXX  31124 83182 32697 11415 10222 20127 39365 40196 81100 333 20130 59002;
0137831820999992007083118004-11300-041867FM-12+074799999V0201401N006212200019N0100001N1+02901+01061101501ADDGF101991011021008001001001MA1999999093271MD1999999+0011REMSYN070AAXX  31184 83182 32597 11412 10290 20106 39327 40150 81200 333 58001;
0178831820999992007090100004-11300-041867FM-12+074799999V0201401N004612200019N0010001N1+02011+01521101901ADDGA1001+999999999GF100991001001999999001001KA1240M+02941MA1999999093571MD1999999+0051REMSYN082AAXX  01004 83182 32994 01409 10201 20152 39357 40190 333 10294 29059 55110 58005;
0156831820999992007090112004-11300-041867FM-12+074799999V0201401N006712200019N0100001N1+02221+01221102141ADDGF101991011011012501001001KA1240N+01441MA1999999093801MD1999999+0151REMSYN076AAXX  01124 83182 32697 11413 10222 20122 39380 40214 81100 333 20144 58015;
0137831820999992007090118004-11300-041867FM-12+074799999V0200901N003112200019N0100001N1+02881+01181101471ADDGF104991041021008001001001MA1999999093251MD1999999-0021REMSYN070AAXX  01184 83182 32597 40906 10288 20118 39325 40147 84200 333 59002;
0178831820999992007090200004-11300-041867FM-12+074799999V0200901N003612200019N0010001N1+02111+01331101821ADDGA1001+999999999GF100991001001999999001001KA1240M+02941MA1999999093521MD1999999-0051REMSYN082AAXX  02004 83182 32994 00907 10211 20133 39352 40182 333 10294 29052 55103 59005;
0156831820999992007090212004-11300-041867FM-12+074799999V0201401N005110075019N0100001N1+02251+01461101971ADDGF105991051051008001001001KA1240N+01421MA1999999093671MD1999999-0131REMSYN076AAXX  02124 83182 32597 51410 10225 20146 39367 40197 85500 333 20142 59013;
0137831820999992007090218004-11300-041867FM-12+074799999V0200901N005110075019N0100001N1+02721+01421101581ADDGF107991071021008001001001MA1999999093321MD1999999+0071REMSYN070AAXX  02184 83182 32597 70910 10272 20142 39332 40158 87200 333 58007;
0178831820999992007090300004-11300-041867FM-12+074799999V0200901N005112200019N0010001N1+02081+01301101831ADDGA1001+999999999GF100991001001999999001001KA1240M+02831MA1999999093531MD1999999+0011REMSYN082AAXX  03004 83182 32994 00910 10208 20130 39353 40183 333 10283 29057 55095 58001;
0156831820999992007090312004-11300-041867FM-12+074799999V0201401N005110120019N0100001N1+02291+01281102001ADDGF105991051011012501001001KA1240N+01261MA1999999093701MD1999999+0031REMSYN076AAXX  03124 83182 32697 51410 10229 20128 39370 40200 85100 333 20126 58003;
0137831820999992007090318004-11300-041867FM-12+074799999V0200901N005110075019N0100001N1+02861+01081101581ADDGF108991051021008001001011MA1999999093341MD1999999+0021REMSYN070AAXX  03184 83182 32597 80910 10286 20108 39334 40158 85201 333 58002;
0168831820999992007090400004-11300-041867FM-12+074799999V0201401N005719999999N0010001N1+02131+01351101871ADDGF108991001001999999001011KA1240M+02891MA1999999093581MD1999999+0051REMSYN088AAXX  04004 83182 32994 81411 10213 20135 39358 40187 80001 333 10289 29052 55107 58005;
0156831820999992007090412004-11300-041867FM-12+074799999V0201401N007710075019N0100001N1+02311+01431102021ADDGF108991061021008001001011KA1240N+01601MA1999999093721MD1999999+0021REMSYN076AAXX  04124 83182 32597 81415 10231 20143 39372 40202 86201 333 20160 58002;
0137831820999992007090418004-11300-041867FM-12+074799999V0200901N006210075019N0100001N1+02841+01231101571ADDGF108991061021008001001011MA1999999093351MD1999999+0011REMSYN070AAXX  04184 83182 32597 80912 10284 20123 39335 40157 86201 333 58001;
0168831820999992007090500004-11300-041867FM-12+074799999V0201401N005719999999N0010001N1+02121+01511101881ADDGF108991001001999999001011KA1240M+02991MA1999999093591MD1999999+0021REMSYN088AAXX  05004 83182 32994 81411 10212 20151 39359 40188 80001 333 10299 29058 55094 58002;
0156831820999992007090512004-11300-041867FM-12+074799999V0201401N006710075019N0100001N1+02251+01301102101ADDGF108991071051008001001011KA1240N+01471MA1999999093791MD1999999+0071REMSYN076AAXX  05124 83182 32597 81413 10225 20130 39379 40210 87501 333 20147 58007;
0137831820999992007090518004-11300-041867FM-12+074799999V0201401N005710075019N0100001N1+02651+01461101651ADDGF108991071051008001001011MA1999999093381MD1999999+0031REMSYN070AAXX  05184 83182 32597 81411 10265 20146 39338 40165 87501 333 58003;
0168831820999992007090600004-11300-041867FM-12+074799999V0201401N005119999999N0010001N1+02101+01491101961ADDGF108991001001999999001011KA1240M+02761MA1999999093661MD1999999+0071REMSYN088AAXX  06004 83182 32994 81410 10210 20149 39366 40196 80001 333 10276 29060 55094 58007;
0156831820999992007090612004-11300-041867FM-12+074799999V0201401N007210075019N0100001N1+02241+01261102091ADDGF108991071051008001001011KA1240N+01651MA1999999093761MD1999999-0031REMSYN076AAXX  06124 83182 32597 81414 10224 20126 39376 40209 87501 333 20165 59003;
0137831820999992007090618004-11300-041867FM-12+074799999V0201401N006210075019N0100001N1+02671+01441101581ADDGF108991051021008001001011MA1999999093351MD1999999-0031REMSYN070AAXX  06184 83182 32597 81412 10267 20144 39335 40158 85201 333 59003;
0168831820999992007090700004-11300-041867FM-12+074799999V0201401N003119999999N0010001N1+02091+01501101881ADDGF108991001001999999001011KA1240M+02711MA1999999093571MD1999999-0091REMSYN088AAXX  07004 83182 32994 81406 10209 20150 39357 40188 80001 333 10271 29060 55087 59009;
0156831820999992007090712004-11300-041867FM-12+074799999V0201401N003610075019N0100001N1+02131+01611101981ADDGF108991081051008001999999KA1240N+01591MA1999999093651MD1999999-0111REMSYN076AAXX  07124 83182 32597 81407 10213 20161 39365 40198 885// 333 20159 59011;
0137831820999992007090718004-11300-041867FM-12+074799999V0200901N003110075019N0100001N1+02591+01551101541ADDGF108991071021008001001011MA1999999093281MD1999999-0071REMSYN070AAXX  07184 83182 32597 80906 10259 20155 39328 40154 87201 333 59007;
0168831820999992007090800004-11300-041867FM-12+074799999V0201401N003619999999N0010001N1+01951+01621101821ADDGF108991001001999999001011KA1240M+02781MA1999999093481MD1999999-0181REMSYN088AAXX  08004 83182 32994 81407 10195 20162 39348 40182 80001 333 10278 29073 55067 59018;
0156831820999992007090812004-11300-041867FM-12+074799999V0201401N005110075019N0100001N1+02291+01451101921ADDGF108991071051008001001011KA1240N+01401MA1999999093591MD1999999-0061REMSYN076AAXX  08124 83182 32597 81410 10229 20145 39359 40192 87501 333 20140 59006;
0137831820999992007090818004-11300-041867FM-12+074799999V0201401N002610075019N0100001N1+02851+01201101331ADDGF108991051021008001001011MA1999999093101MD1999999-0181REMSYN070AAXX  08184 83182 32597 81405 10285 20120 39310 40133 85201 333 59018;
0168831820999992007090900004-11300-041867FM-12+074799999V0201401N004119999999N0010001N1+01891+01501101621ADDGF108991001001999999001011KA1240M+02901MA1999999093321MD1999999-0161REMSYN088AAXX  09004 83182 32994 81408 10189 20150 39332 40162 80001 333 10290 29063 55103 59016;
0156831820999992007090912004-11300-041867FM-12+074799999V0201401N005110075019N0100001N1+02191+01451101901ADDGF108991081051008001999999KA1240N+01501MA1999999093561MD1999999-0031REMSYN076AAXX  09124 83182 32597 81410 10219 20145 39356 40190 885// 333 20150 59003;
0137831820999992007090918004-11300-041867FM-12+074799999V0201401N002112200019N0100001N1+02841+01191101281ADDGF108991031021008001001011MA1999999093051MD1999999+0051REMSYN070AAXX  09184 83182 32597 81404 10284 20119 39305 40128 83201 333 58005;
0168831820999992007091000004-11300-041867FM-12+074799999V0201401N005119999999N0010001N1+02091+01571101601ADDGF108991001001999999001011KA1240M+02931MA1999999093311MD1999999-0011REMSYN088AAXX  10004 83182 32994 81410 10209 20157 39331 40160 80001 333 10293 29061 55086 59001;
0156831820999992007091012004-11300-041867FM-12+074799999V0201401N005710075019N0100001N1+02291+01571101841ADDGF108991081051008001999999KA1240N+01571MA1999999093551MD1999999-0011REMSYN076AAXX  10124 83182 32597 81411 10229 20157 39355 40184 885// 333 20157 59001;
0137831820999992007091018004-11300-041867FM-12+074799999V0201401N005710075019N0100001N1+02771+01471101301ADDGF108991051021008001001011MA1999999093091MD1999999+0041REMSYN070AAXX  10184 83182 32597 81411 10277 20147 39309 40130 85201 333 58004;
0168831820999992007091100004-11300-041867FM-12+074799999V0200901N004119999999N0010001N1+02001+01521101651ADDGF108991001001999999001011KA1240M+02811MA1999999093361MD1999999+0051REMSYN088AAXX  11004 83182 32994 80908 10200 20152 39336 40165 80001 333 10281 29064 55089 58005;
0156831820999992007091112004-11300-041867FM-12+074799999V0200901N005712200019N0100001N1+02281+01301101901ADDGF108991021021008001001011KA1240N+01471MA1999999093591MD1999999+0051REMSYN076AAXX  11124 83182 32597 80911 10228 20130 39359 40190 82201 333 20147 58005;
0137831820999992007091118004-11300-041867FM-12+074799999V0200901N006210075019N0100001N1+02791+01341101331ADDGF108991051021008001001011MA1999999093101MD1999999+0011REMSYN070AAXX  11184 83182 32597 80912 10279 20134 39310 40133 85201 333 58001;
0168831820999992007091200004-11300-041867FM-12+074799999V0201401N003119999999N0010001N1+02011+01631101721ADDGF108991001001999999001011KA1240M+02871MA1999999093431MD1999999+0071REMSYN088AAXX  12004 83182 32994 81406 10201 20163 39343 40172 80001 333 10287 29063 55103 58007;
0156831820999992007091212004-11300-041867FM-12+074799999V0201401N007719999999N0100001N1+02241+01291101961ADDGF108991001001999999001011KA1240N+01531MA1999999093631MD1999999+0041REMSYN076AAXX  12124 83182 32997 81415 10224 20129 39363 40196 80001 333 20153 58004;
0137831820999992007091218004-11300-041867FM-12+074799999V0200901N003112200019N0100001N1+02771+01171101371ADDGF108991031021008001001011MA1999999093141MD1999999+0041REMSYN070AAXX  12184 83182 32597 80906 10277 20117 39314 40137 83201 333 58004;
0168831820999992007091300004-11300-041867FM-12+074799999V0200901N005719999999N0010001N1+02031+01531101711ADDGF108991001001999999001011KA1240M+02811MA1999999093421MD1999999-0011REMSYN088AAXX  13004 83182 32994 80911 10203 20153 39342 40171 80001 333 10281 29060 55109 59001;
0156831820999992007091312004-11300-041867FM-12+074799999V0201401N003110075019N0100001N1+02061+01471101851ADDGF108991081051008001999999KA1240N+01181MA1999999093511MD1999999-0121REMSYN076AAXX  13124 83182 32597 81406 10206 20147 39351 40185 885// 333 20118 59012;
0156831820999992007091318004-11300-041867FM-12+074799999V0201401N004610075019N0100001N1+02681+01351101032ADDGF108991051021008001001011MA1999999093051MD1999999-0091REMSYN070AAXX  13184 83182 32597 81409 10268 20135 39305 40103 85201 333 59009;EQDQ01+101033APOSLP
0168831820999992007091400004-11300-041867FM-12+074799999V0201401N004619999999N0010001N1+02001+01541101641ADDGF108991001001999999001011KA1240M+02801MA1999999093321MD1999999-0101REMSYN088AAXX  14004 83182 32994 81409 10200 20154 39332 40164 80001 333 10280 29066 55079 59010;
0156831820999992007091412004-11300-041867FM-12+074799999V0201401N005110075019N0100001N1+02181+01441101791ADDGF108991081051008001999999KA1240N+01401MA1999999093471MD1999999-0041REMSYN076AAXX  14124 83182 32597 81410 10218 20144 39347 40179 885// 333 20140 59004;
0137831820999992007091418004-11300-041867FM-12+074799999V0200901N005112200019N0100001N1+02871+01211101211ADDGF108991031021008001001011MA1999999093011MD1999999-0041REMSYN070AAXX  14184 83182 32597 80910 10287 20121 39301 40121 83201 333 59004;
0168831820999992007091500004-11300-041867FM-12+074799999V0201401N003119999999N0010001N1+01991+01571101631ADDGF108991001001999999001011KA1240M+02941MA1999999093331MD1999999+0011REMSYN088AAXX  15004 83182 32994 81406 10199 20157 39333 40163 80001 333 10294 29064 55099 58001;
0156831820999992007091512004-11300-041867FM-12+074799999V0200901N003111050019N0100001N1+02301+01461101721ADDGF108991021021008001001021KA1240N+01301MA1999999093431MD1999999-0041REMSYN076AAXX  15124 83182 32597 80906 10230 20146 39343 40172 82202 333 20130 59004;
0137831820999992007091518004-11300-041867FM-12+074799999V0200501N002111050019N0100001N1+02891+01191101111ADDGF108991021021008001001021MA1999999092901MD1999999-0111REMSYN070AAXX  15184 83182 32597 80504 10289 20119 39290 40111 82202 333 59011;
0168831820999992007091600004-11300-041867FM-12+074799999V0200901N002119999999N0010001N1+02181+01421101401ADDGF108991001001999999001011KA1240M+02981MA1999999093161MD1999999-0171REMSYN088AAXX  16004 83182 32994 80904 10218 20142 39316 40140 80001 333 10298 29054 55079 59017;
0156831820999992007091612004-11300-041867FM-12+074799999V0200901N003119999999N0010001N1+02371+01571101541ADDGF108991001001999999001021KA1240N+01391MA1999999093311MD1999999-0121REMSYN076AAXX  16124 83182 32994 80906 10237 20157 39331 40154 80002 333 20139 59012;
0168831820999992007091700004-11300-041867FM-12+074799999V0201401N002119999999N0010001N1+02251+01381101331ADDGF108991001001999999001011KA1240M+03191MA1999999093121MD1999999-0041REMSYN088AAXX  17004 83182 32994 81404 10225 20138 39312 40133 80001 333 10319 29052 55101 59004;
0166831820999992007091712004-11300-041867FM-12+074799999V0201401N003112200019N0010001N1+02581+01551101421ADDGA1001+999999999GF100991001001999999001001KA1240N+01381MA1999999093241MD1999999-0071REMSYN070AAXX  17124 83182 32994 01406 10258 20155 39324 40142 333 20138 59007;
0137831820999992007091718004-11300-041867FM-12+074799999V0201401N003112200019N0100001N1+03471+01181100761ADDGF103991031021008001001001MA1999999092721MD1999999-0081REMSYN070AAXX  17184 83182 32597 31406 10347 20118 39272 40076 83200 333 59008;
0178831820999992007091800004-11300-041867FM-12+074799999V0201401N004112200019N0010001N1+02531+01411101151ADDGA1001+999999999GF100991001001999999001001KA1240M+03481MA1999999093041MD1999999-0081REMSYN082AAXX  18004 83182 32994 01408 10253 20141 39304 40115 333 10348 29045 55108 59008;
0156831820999992007091812004-11300-041867FM-12+074799999V0201401N006719999999N0100001N1+02371+01351101671ADDGF108991001001999999001011KA1240N+01571MA1999999093481MD1999999+0241REMSYN076AAXX  18124 83182 32997 81413 10237 20135 39348 40167 80001 333 20157 58024;
0168831820999992007091900004-11300-041867FM-12+074799999V0201401N004119999999N0010001N1+02181+01631101621ADDGF108991001001999999001011KA1240M+03021MA1999999093391MD1999999+0351REMSYN088AAXX  19004 83182 32994 81408 10218 20163 39339 40162 80001 333 10302 29057 55102 58035;
0156831820999992007091912004-11300-041867FM-12+074799999V0201401N005712200019N0100001N1+02411+01421101801ADDGF108991041021008001001011KA1240N+01491MA1999999093551MD1999999+0071REMSYN076AAXX  19124 83182 32597 81411 10241 20142 39355 40180 84201 333 20149 58007;
0137831820999992007091918004-11300-041867FM-12+074799999V0200901N003112200019N0100001N1+02971+01341101211ADDGF108991031021008001001011MA1999999093051MD1999999-0011REMSYN070AAXX  19184 83182 32597 80906 10297 20134 39305 40121 83201 333 59001;
0168831820999992007092000004-11300-041867FM-12+074799999V0201401N003119999999N0010001N1+02221+01271101451ADDGF108991001001999999001011KA1240M+03011MA1999999093231MD1999999-0161REMSYN088AAXX  20004 83182 32994 81406 10222 20127 39323 40145 80001 333 10301 29050 55055 59016;
0156831820999992007092012004-11300-041867FM-12+074799999V0201401N003110075019N0100001N1+02271+01291101621ADDGF108991071021008001001011KA1240N+01311MA1999999093371MD1999999+0181REMSYN076AAXX  20124 83182 32597 81406 10227 20129 39337 40162 87201 333 20131 58018;
0137831820999992007092018004-11300-041867FM-12+074799999V0201401N003119999999N0100001N1+02851+01151101181ADDGF108991001001999999001011MA1999999092981MD1999999-0071REMSYN070AAXX  20184 83182 32997 81406 10285 20115 39298 40118 80001 333 59007;
0168831820999992007092100004-11300-041867FM-12+074799999V0201401N004119999999N0010001N1+02171+01531101441ADDGF108991001001999999001011KA1240M+02891MA1999999093141MD1999999-0041REMSYN088AAXX  21004 83182 32994 81408 10217 20153 39314 40144 80001 333 10289 29056 55105 59004;
0156831820999992007092112004-11300-041867FM-12+074799999V0200901N005712200019N0100001N1+02361+01671101531ADDGF108991031021008001001011KA1240N+01531MA1999999093291MD1999999-0081REMSYN076AAXX  21124 83182 32597 80911 10236 20167 39329 40153 83201 333 20153 59008;
0137831820999992007092118004-11300-041867FM-12+074799999V0200501N004612200019N0100001N1+02851+01541101101ADDGF108991041021008001001011MA1999999092931MD1999999-0051REMSYN070AAXX  21184 83182 32597 80509 10285 20154 39293 40110 84201 333 59005;
0168831820999992007092200004-11300-041867FM-12+074799999V0201401N004119999999N0010001N1+02141+01701101441ADDGF108991001001999999001011KA1240M+02981MA1999999093201MD1999999+0011REMSYN088AAXX  22004 83182 32994 81408 10214 20170 39320 40144 80001 333 10298 29066 55094 58001;
0156831820999992007092212004-11300-041867FM-12+074799999V0201401N003110450019N0100001N1+02501+01561101731ADDGF108991021021008001031011KA1240N+01801MA1999999093491MD1999999+0291REMSYN076AAXX  22124 83182 32597 81406 10250 20156 39349 40173 82231 333 20180 58029;
0137831820999992007092218004-11300-041867FM-12+074799999V0200501N002612200019N0100001N1+03051+01331101151ADDGF108991031021008001001011MA1999999093021MD1999999+0091REMSYN070AAXX  22184 83182 32597 80505 10305 20133 39302 40115 83201 333 58009;
0168831820999992007092300004-11300-041867FM-12+074799999V0200901N003119999999N0010001N1+02381+01591101351ADDGF108991001001999999001011KA1240M+03131MA1999999093191MD1999999-0011REMSYN088AAXX  23004 83182 32994 80906 10238 20159 39319 40135 80001 333 10313 29054 55082 59001;
0156831820999992007092312004-11300-041867FM-12+074799999V0201401N003612200019N0100001N1+02421+01461101631ADDGF103991031021008001001001KA1240N+01391MA1999999093431MD1999999-0061REMSYN076AAXX  23124 83182 32597 31407 10242 20146 39343 40163 83200 333 20139 59006;
0137831820999992007092318004-11300-041867FM-12+074799999V0200901N003112200019N0100001N1+03051+01371101021ADDGF103991031021008001001001MA1999999092881MD1999999-0141REMSYN070AAXX  23184 83182 32597 30906 10305 20137 39288 40102 83200 333 59014;
0178831820999992007092400004-11300-041867FM-12+074799999V0201401N003112200019N0010001N1+02311+01351101401ADDGA1001+999999999GF100991001001999999001001KA1240M+03091MA1999999093201MD1999999+0011REMSYN082AAXX  24004 83182 32994 01406 10231 20135 39320 40140 333 10309 29051 55106 58001;
0156831820999992007092412004-11300-041867FM-12+074799999V0200901N003119999999N0010001N1+02451+01571101591ADDGF108991001001999999001011KA1240N+01411MA1999999093391MD1999999-0041REMSYN076AAXX  24124 83182 32994 80906 10245 20157 39339 40159 80001 333 20141 59004;
0137831820999992007092418004-11300-041867FM-12+074799999V0201801N002612200019N0100001N1+03461+01041100821ADDGF108991031021008001001011MA1999999092771MD1999999-0111REMSYN070AAXX  24184 83182 32597 81805 10346 20104 39277 40082 83201 333 59011;
0168831820999992007092500004-11300-041867FM-12+074799999V0201401N003112200019N0100001N1+02541+01511101191ADDGF108991021021008001001011KA1240M+03511MA1999999093061MD1999999-0141REMSYN088AAXX  25004 83182 32597 81406 10254 20151 39306 40119 82201 333 10351 29047 55104 59014;
0156831820999992007092512004-11300-041867FM-12+074799999V0201401N004119999999N0100001N1+02621+01651101321ADDGF108991001001999999001011KA1240N+01581MA1999999093211MD1999999-0181REMSYN076AAXX  25124 83182 32997 81408 10262 20165 39321 40132 80001 333 20158 59018;
0168831820999992007092600004-11300-041867FM-12+074799999V0201401N005119999999N0010001N1+02291+01391101561ADDGF108991001001999999001011KA1240M+02971MA1999999093381MD1999999+0321REMSYN088AAXX  26004 83182 32994 81410 10229 20139 39338 40156 80001 333 10297 29053 55104 58032;
0156831820999992007092612004-11300-041867FM-12+074799999V0201401N007212200019N0100001N1+02471+01201101781ADDGF108991021011012501001011KA1240N+01441MA1999999093571MD1999999+0361REMSYN076AAXX  26124 83182 32697 81414 10247 20120 39357 40178 82101 333 20144 58036;
0137831820999992007092618004-11300-041867FM-12+074799999V0200901N006712200019N0100001N1+02931+01271101261ADDGF108991021021008001001011MA1999999093091MD1999999+0081REMSYN070AAXX  26184 83182 32597 80913 10293 20127 39309 40126 82201 333 58008;
0168831820999992007092700004-11300-041867FM-12+074799999V0201401N004619999999N0010001N1+02121+01341101781ADDGF108991001001999999001011KA1240M+02961MA1999999093541MD1999999+0161REMSYN088AAXX  27004 83182 32994 81409 10212 20134 39354 40178 80001 333 10296 29051 55106 58016;
0156831820999992007092712004-11300-041867FM-12+074799999V0201401N007712200019N0100001N1+02311+01301101491ADDGF108991031021008001001011KA1240N+01531MA1999999093241MD1999999-0331REMSYN076AAXX  27124 83182 32597 81415 10231 20130 39324 40149 83201 333 20153 59033;
0137831820999992007092718004-11300-041867FM-12+074799999V0201401N003112200019N0100001N1+02941+01151101381ADDGF108991041021008001001011MA1999999093201MD1999999+0111REMSYN070AAXX  27184 83182 32597 81406 10294 20115 39320 40138 84201 333 58011;
0168831820999992007092800004-11300-041867FM-12+074799999V0200901N003119999999N0100001N1+02211+01211101711ADDGF108991001001999999001011KA1240M+02971MA1999999093461MD1999999-0081REMSYN088AAXX  28004 83182 32997 80906 10221 20121 39346 40171 80001 333 10297 29048 55107 59008;
0156831820999992007092812004-11300-041867FM-12+074799999V0201401N006212200019N0100001N1+02191+01241101981ADDGF108991041021008001001011KA1240N+01291MA1999999093681MD1999999+0441REMSYN076AAXX  28124 83182 32597 81412 10219 20124 39368 40198 84201 333 20129 58044;
0137831820999992007092818004-11300-041867FM-12+074799999V0200901N005112200019N0100001N1+02841+01311101461ADDGF108991041021008001001011MA1999999093241MD1999999+0041REMSYN070AAXX  28184 83182 32597 80910 10284 20131 39324 40146 84201 333 58004;
0168831820999992007092900004-11300-041867FM-12+074799999V0201401N002119999999N0100001N1+02151+01291101781ADDGF108991001001999999001011KA1240M+02921MA1999999093481MD1999999+0021REMSYN088AAXX  29004 83182 32997 81404 10215 20129 39348 40178 80001 333 10292 29053 55106 58002;
0156831820999992007092912004-11300-041867FM-12+074799999V0200901N003119999999N0100001N1+02401+01351101831ADDGF108991001001999999001011KA1240N+01331MA1999999093581MD1999999-0101REMSYN076AAXX  29124 83182 32997 80906 10240 20135 39358 40183 80001 333 20133 59010;
0137831820999992007092918004-11300-041867FM-12+074799999V0200901N003112200019N0100001N1+02931+01181101311ADDGF108991041021008001001011MA1999999093121MD1999999-0121REMSYN070AAXX  29184 83182 32597 80906 10293 20118 39312 40131 84201 333 59012;
0168831820999992007093000004-11300-041867FM-12+074799999V0200901N003119999999N0010001N1+02301+01871101491ADDGF108991001001999999001011KA1240M+03031MA1999999093401MD1999999-0081REMSYN088AAXX  30004 83182 32994 80906 10230 20187 39340 40149 80001 333 10303 29060 55108 59008;
0156831820999992007093012004-11300-041867FM-12+074799999V0201401N005119999999N0100001N1+02391+01371101781ADDGF108991001001999999001011KA1240N+01331MA1999999093551MD1999999-0031REMSYN076AAXX  30124 83182 32997 81410 10239 20137 39355 40178 80001 333 20133 59003;
0137831820999992007093018004-11300-041867FM-12+074799999V0201401N004112200019N0100001N1+03021+01211101271ADDGF108991021021008001001011MA1999999093101MD1999999-0021REMSYN070AAXX  30184 83182 32597 81408 10302 20121 39310 40127 82201 333 59002;
0168831820999992007100100004-11300-041867FM-12+074799999V0201401N003119999999N0010001N1+02221+01431101641ADDGF108991001001999999001011KA1240M+03071MA1999999093411MD1999999+0011REMSYN088AAXX  01004 83182 32994 81406 10222 20143 39341 40164 80001 333 10307 29052 55109 58001;
0156831820999992007100112004-11300-041867FM-12+074799999V0201401N006710075019N0100001N1+02211+01591101981ADDGF108991081051008001999999KA1240N+01671MA1999999093681MD1999999+0131REMSYN076AAXX  01124 83182 32597 81413 10221 20159 39368 40198 885// 333 20167 58013;
0137831820999992007100118004-11300-041867FM-12+074799999V0200901N005110075019N0100001N1+02981+01311101251ADDGF106991061021008001001001MA1999999093131MD1999999+0031REMSYN070AAXX  01184 83182 32597 60910 10298 20131 39313 40125 86200 333 58003;
0178831820999992007100200004-11300-041867FM-12+074799999V0201401N005112200019N0010001N1+02241+01671101631ADDGA1001+999999999GF100991001001999999001001KA1240M+03031MA1999999093361MD1999999-0051REMSYN082AAXX  02004 83182 32994 01410 10224 20167 39336 40163 333 10303 29061 55079 59005;
0156831820999992007100212004-11300-041867FM-12+074799999V0201401N005710075019N0100001N1+02321+01531101871ADDGF108991061021008001001011KA1240N+01581MA1999999093621MD1999999-0061REMSYN076AAXX  02124 83182 32597 81411 10232 20153 39362 40187 86201 333 20158 59006;
0137831820999992007100218004-11300-041867FM-12+074799999V0201401N004112200019N0100001N1+03001+01491101251ADDGF108991021021008001001011MA1999999093101MD1999999-0031REMSYN070AAXX  02184 83182 32597 81408 10300 20149 39310 40125 82201 333 59003;
0168831820999992007100300004-11300-041867FM-12+074799999V0200901N003619999999N0010001N1+02281+01301101601ADDGF108991001001999999001011KA1240M+03061MA1999999093371MD1999999+0011REMSYN088AAXX  03004 83182 32994 80907 10228 20130 39337 40160 80001 333 10306 29052 55080 58001;
0156831820999992007100312004-11300-041867FM-12+074799999V0201401N005110075019N0100001N1+02291+01671101701ADDGF108991081051008001999999KA1240N+01601MA1999999093461MD1999999-0161REMSYN076AAXX  03124 83182 32597 81410 10229 20167 39346 40170 885// 333 20160 59016;
0137831820999992007100318004-11300-041867FM-12+074799999V0201401N003110450019N0100001N1+02871+01631101061ADDGF108991031021008001021011MA1999999092941MD1999999-0161REMSYN070AAXX  03184 83182 32597 81406 10287 20163 39294 40106 83221 333 59016;
0168831820999992007100400004-11300-041867FM-12+074799999V0201401N004612200019N0010001N1+02241+01781101461ADDGF108991041001017501021011KA1240M+02911MA1999999093221MD1999999-0161REMSYN088AAXX  04004 83182 32794 81409 10224 20178 39322 40146 84021 333 10291 29066 55032 59016;
0156831820999992007100412004-11300-041867FM-12+074799999V0201401N003610075019N0100001N1+02321+01651101611ADDGF108991071051008001001011KA1240N+01671MA1999999093381MD1999999-0081REMSYN076AAXX  04124 83182 32597 81407 10232 20165 39338 40161 87501 333 20167 59008;
0137831820999992007100418004-11300-041867FM-12+074799999V0200901N004110075019N0100001N1+02761+01391101211ADDGF108991051021008001041021MA1999999093031MD1999999-0091REMSYN070AAXX  04184 83182 32597 80908 10276 20139 39303 40121 85242 333 59009;
0168831820999992007100500004-11300-041867FM-12+074799999V0201401N003612200019N0010001N1+02221+01621101411ADDGF108991031001017501051011KA1240M+02891MA1999999093171MD1999999-0051REMSYN088AAXX  05004 83182 32794 81407 10222 20162 39317 40141 83051 333 10289 29062 55025 59005;
0156831820999992007100512004-11300-041867FM-12+074799999V0201401N005110075019N0100001N1+02551+01631101481ADDGF108991051051008001031011KA1240N+01631MA1999999093291MD1999999-0091REMSYN076AAXX  05124 83182 32597 81410 10255 20163 39329 40148 85531 333 20163 59009;
0137831820999992007100518004-11300-041867FM-12+074799999V0200901N004110075019N0100001N1+02801+01661101131ADDGF107991051051008001021999MA1999999092951MD1999999-0081REMSYN070AAXX  05184 83182 32597 70908 10280 20166 39295 40113 8552/ 333 59008;
0168831820999992007100600004-11300-041867FM-12+074799999V0201401N004612200019N0010001N1+02251+01741101341ADDGF108991031001017501051011KA1240M+02931MA1999999093161MD1999999-0011REMSYN088AAXX  06004 83182 32794 81409 10225 20174 39316 40134 83051 333 10293 29063 55050 59001;
0156831820999992007100612004-11300-041867FM-12+074799999V0201401N003610075019N0100001N1+02311+01751101551ADDGF108991081051008001999999KA1240N+01561MA1999999093321MD1999999+0031REMSYN076AAXX  06124 83182 32597 81407 10231 20175 39332 40155 885// 333 20156 58003;
0137831820999992007100618004-11300-041867FM-12+074799999V0201401N004110075019N0100001N1+02851+01641101081ADDGF108991051021008001031011MA1999999092931MD1999999-0021REMSYN070AAXX  06184 83182 32597 81408 10285 20164 39293 40108 85231 333 59002;
0168831820999992007100700004-11300-041867FM-12+074799999V0201401N004112200019N0010001N1+02251+01761101381ADDGF108991021021008001001011KA1240M+02931MA1999999093161MD1999999+0001REMSYN088AAXX  07004 83182 32594 81408 10225 20176 39316 40138 82201 333 10293 29067 55067 58000;
0156831820999992007100712004-11300-041867FM-12+074799999V0201401N004112200019N0100001N1+02481+01401101511ADDGF101991011011012501001001KA1240N+01441MA1999999093301MD1999999-0021REMSYN076AAXX  07124 83182 32697 11408 10248 20140 39330 40151 81100 333 20144 59002;
0137831820999992007100718004-11300-041867FM-12+074799999V0200901N005112200019N0100001N1+02901+01361100841ADDGF104991041021008001001001MA1999999092741MD1999999-0191REMSYN070AAXX  07184 83182 32597 40910 10290 20136 39274 40084 84200 333 59019;
0178831820999992007100800004-11300-041867FM-12+074799999V0201401N005112200019N0010001N1+02241+01691101351ADDGA1001+999999999GF100991001001999999001001KA1240M+03081MA1999999093151MD1999999-0011REMSYN082AAXX  08004 83182 32994 01410 10224 20169 39315 40135 333 10308 29058 55108 59001;
0156831820999992007100812004-11300-041867FM-12+074799999V0201401N005110075019N0100001N1+02441+01391101591ADDGF105991051021008001001001KA1240N+01331MA1999999093371MD1999999+0071REMSYN076AAXX  08124 83182 32597 51410 10244 20139 39337 40159 85200 333 20133 58007;
0137831820999992007100818004-11300-041867FM-12+074799999V0201401N005112200019N0100001N1+02961+01341100991ADDGF102991021021008001001001MA1999999092831MD1999999+0091REMSYN070AAXX  08184 83182 32597 21410 10296 20134 39283 40099 82200 333 58009;
0156831820999992007100912004-11300-041867FM-12+074799999V0201401N006210075019N0100001N1+02431+01551101641ADDGF108991051021008001001011KA1240N+01481MA1999999093411MD1999999+0041REMSYN076AAXX  09124 83182 32597 81412 10243 20155 39341 40164 85201 333 20148 58004;
0137831820999992007100918004-11300-041867FM-12+074799999V0201401N005112200019N0100001N1+02801+01461101191ADDGF104991041021008001001001MA1999999092991MD1999999+0161REMSYN070AAXX  09184 83182 32597 41410 10280 20146 39299 40119 84200 333 58016;
0178831820999992007101000004-11300-041867FM-12+074799999V0200901N006212200019N0010001N1+02151+01621101491ADDGA1001+999999999GF100991001001999999001001KA1240M+02941MA1999999093261MD1999999+0061REMSYN082AAXX  10004 83182 32994 00912 10215 20162 39326 40149 333 10294 29062 55103 58006;
0156831820999992007101012004-11300-041867FM-12+074799999V0201401N005110075019N0100001N1+02361+01491101651ADDGF106991061021008001001001KA1240N+01601MA1999999093401MD1999999-0011REMSYN076AAXX  10124 83182 32597 61410 10236 20149 39340 40165 86200 333 20160 59001;
0137831820999992007101018004-11300-041867FM-12+074799999V0201401N003112200019N0100001N1+02881+01391101261ADDGF104991041021008001001001MA1999999093051MD1999999+0061REMSYN070AAXX  10184 83182 32597 41406 10288 20139 39305 40126 84200 333 58006;
0203831820999992007101100004-11300-041867FM-12+074799999V0201401N003119999999N0010001N1+02211+01571101291ADDGF108991001001999999001011KA1240M+02991MA1999999999999MD1999999-0181REMSYN088AAXX  11004 83182 32994 81406 10221 20157 39608 40129 80001 333 10299 29058 55078 59018;EQDQ01+096083APOSP Q02 096083APOSP 
0156831820999992007101112004-11300-041867FM-12+074799999V0201401N003112200019N0100001N1+02431+01521101401ADDGF102991021011012501001001KA1240N+01391MA1999999093181MD1999999-0221REMSYN076AAXX  11124 83182 32697 21406 10243 20152 39318 40140 82100 333 20139 59022;
0137831820999992007101118004-11300-041867FM-12+074799999V0200901N002112200019N0100001N1+03121+01601101071ADDGF104991041021008001001001MA1999999092931MD1999999-0121REMSYN070AAXX  11184 83182 32597 40904 10312 20160 39293 40107 84200 333 59012;
0178831820999992007101200004-11300-041867FM-12+074799999V0200901N004112200019N0010001N1+02431+01321100971ADDGA1001+999999999GF100991001001999999001001KA1240M+03191MA1999999092841MD1999999-0291REMSYN082AAXX  12004 83182 32994 00908 10243 20132 39284 40097 333 10319 29049 55102 59029;
0156831820999992007101212004-11300-041867FM-12+074799999V0201401N004112200019N0100001N1+02641+01631101421ADDGF101991011011012501001001KA1240N+01621MA1999999093211MD1999999+0031REMSYN076AAXX  12124 83182 32697 11408 10264 20163 39321 40142 81100 333 20162 58003;
0137831820999992007101218004-11300-041867FM-12+074799999V0201401N002112200019N0100001N1+03241+01631101151ADDGF104991041021008001001001MA1999999093071MD1999999+0131REMSYN070AAXX  12184 83182 32597 41404 10324 20163 39307 40115 84200 333 58013;
0178831820999992007101300004-11300-041867FM-12+074799999V0200901N004112200019N0010001N1+02541+01651101091ADDGA1001+999999999GF100991001001999999001001KA1240M+03331MA1999999093001MD1999999+0161REMSYN082AAXX  13004 83182 32994 00908 10254 20165 39300 40109 333 10333 29052 55102 58016;
0156831820999992007101312004-11300-041867FM-12+074799999V0200901N003619999999N0100001N1+02501+01621101241ADDGF108991001001999999001011KA1240N+01721MA1999999093111MD1999999-0101REMSYN076AAXX  13124 83182 32997 80907 10250 20162 39311 40124 80001 333 20172 59010;
0137831820999992007101318004-11300-041867FM-12+074799999V0200901N003112200019N0100001N1+03151+01231100721ADDGF108991021011012501001011MA1999999092681MD1999999-0391REMSYN070AAXX  13184 83182 32697 80906 10315 20123 39268 40072 82101 333 59039;
0168831820999992007101400004-11300-041867FM-12+074799999V0201401N001519999999N0010001N1+02441+01241101021ADDGF108991001001999999001011KA1240M+03211MA1999999092901MD1999999-0101REMSYN088AAXX  14004 83182 32994 81403 10244 20124 39290 40102 80001 333 10321 29046 55108 59010;
0156831820999992007101412004-11300-041867FM-12+074799999V0200901N005119999999N0100001N1+02441+01481101331ADDGF108991001001999999001011KA1240N+01671MA1999999093171MD1999999+0061REMSYN076AAXX  14124 83182 32997 80910 10244 20148 39317 40133 80001 333 20167 58006;
0137831820999992007101418004-11300-041867FM-12+074799999V0200901N004119999999N0100001N1+03181+00991100781ADDGF108991001001999999001011MA1999999092721MD1999999+0041REMSYN070AAXX  14184 83182 32997 80908 10318 20099 39272 40078 80001 333 58004;
0168831820999992007101500004-11300-041867FM-12+074799999V0200901N003119999999N0010001N1+02391+01291101231ADDGF108991001001999999001011KA1240M+03211MA1999999093061MD1999999+0161REMSYN088AAXX  15004 83182 32994 80906 10239 20129 39306 40123 80001 333 10321 29045 55087 58016;
0156831820999992007101512004-11300-041867FM-12+074799999V0201401N005112200019N0100001N1+02461+01461101611ADDGF102991011011012501001011KA1240N+01521MA1999999093411MD1999999+0041REMSYN076AAXX  15124 83182 32697 21410 10246 20146 39341 40161 81101 333 20152 58004;
0137831820999992007101518004-11300-041867FM-12+074799999V0200901N004612200019N0100001N1+03221+01341101201ADDGF102991011011008001001011MA1999999092931MD1999999+0211REMSYN070AAXX  15184 83182 32597 20909 10322 20134 39293 40120 81101 333 58021;
0156831820999992007101812004-11300-041867FM-12+074799999V0200901N003119999999N0100001N1+02861+01411101091ADDGF108991001001999999001011KA1240N+01611MA1999999093041MD1999999-0381REMSYN076AAXX  18124 83182 32997 80906 10286 20141 39304 40109 80001 333 20161 59038;
0137831820999992007101818004-11300-041867FM-12+074799999V0203601N001512200019N0100001N1+03671+01151100501ADDGF108991041021008001001011MA1999999092561MD1999999-0321REMSYN070AAXX  18184 83182 32597 83603 10367 20115 39256 40050 84201 333 59032;
0168831820999992007103100004-11300-041867FM-12+074799999V0200901N003119999999N0010001N1+02581+01231100271ADDGF108991001001999999001011KA1240M+03431MA1999999092631MD1999999-0201REMSYN088AAXX  31004 83182 32994 80906 10258 20123 39263 40027 80001 333 10343 29038 55114 59020;
0156831820999992007103112004-11300-041867FM-12+074799999V0200901N005112200019N0100001N1+02461+01711101191ADDGF101991011011012501001001KA1240N+01701MA1999999093061MD1999999+0101REMSYN076AAXX  31124 83182 32697 10910 10246 20171 39306 40119 81100 333 20170 58010;
0137831820999992007103118004-11300-041867FM-12+074799999V0200501N003112200019N0100001N1+03301+00961100571ADDGF108991011021008001001011MA1999999092551MD1999999+0181REMSYN070AAXX  31184 83182 32597 80506 10330 20096 39255 40057 81201 333 58018;
0168831820999992007110100004-11300-041867FM-12+074799999V0200901N004119999999N0010001N1+02631+01081100751ADDGF108991001001999999001011KA1240M+03481MA1999999092671MD1999999+0041REMSYN088AAXX  01004 83182 32994 80908 10263 20108 39267 40075 80001 333 10348 29043 55112 58004;
0156831820999992007110112004-11300-041867FM-12+074799999V0200501N003110075019N0100001N1+02751+01761100961ADDGF106991061021008001001001KA1240N+01711MA1999999092921MD1999999-0141REMSYN076AAXX  01124 83182 32597 60506 10275 20176 39292 40096 86200 333 20171 59014;
0137831820999992007110118004-11300-041867FM-12+074799999V0200501N001510075019N0100001N1+03391+01281100441ADDGF108991051021008001001011MA1999999092471MD1999999-0081REMSYN070AAXX  01184 83182 32597 80503 10339 20128 39247 40044 85201 333 59008;
0168831820999992007110200004-11300-041867FM-12+074799999V0200901N003119999999N0010001N1+02711+01511100731ADDGF108991001001999999001011KA1240M+03441MA1999999092721MD1999999+0051REMSYN088AAXX  02004 83182 32994 80906 10271 20151 39272 40073 80001 333 10344 29045 55113 58005;
0156831820999992007110212004-11300-041867FM-12+074799999V0200501N003112200019N0100001N1+02921+01831101111ADDGF101991011011012501001001KA1240N+01781MA1999999093091MD1999999+0171REMSYN076AAXX  02124 83182 32697 10506 10292 20183 39309 40111 81100 333 20178 58017;
0137831820999992007110218004-11300-041867FM-12+074799999V0203601N002119999999N0100001N1+03571+01131100531ADDGF108991041021999999041011MA1999999092591MD1999999+0121REMSYN070AAXX  02184 83182 32997 83604 10357 20113 39259 40053 84241 333 58012;
0156831820999992007110312004-11300-041867FM-12+074799999V0200501N003119999999N0100001N1+03121+01211100791ADDGF108991001001999999001011KA1240N+01931MA1999999092891MD1999999-0201REMSYN076AAXX  03124 83182 32997 80506 10312 20121 39289 40079 80001 333 20193 59020;
0137831820999992007110318004-11300-041867FM-12+074799999V0200501N002112200019N0100001N1+03551+01121100371ADDGF108991041021008001001011MA1999999092471MD1999999-0121REMSYN070AAXX  03184 83182 32597 80504 10355 20112 39247 40037 84201 333 59012;
0168831820999992007110400004-11300-041867FM-12+074799999V0200901N005119999999N0100001N1+02881+01391100631ADDGF108991001001999999001011KA1240M+03621MA1999999092711MD1999999-0171REMSYN088AAXX  04004 83182 32997 80910 10288 20139 39271 40063 80001 333 10362 29034 55103 59017;
0156831820999992007110412004-11300-041867FM-12+074799999V0200901N004110450019N0100001N1+02861+01411101031ADDGF108991011021008001041011KA1240N+01851MA1999999093021MD1999999+0131REMSYN076AAXX  04124 83182 32597 80908 10286 20141 39302 40103 81241 333 20185 58013;
0137831820999992007110418004-11300-041867FM-12+074799999V0200501N001510075019N0100001N1+03331+01481100371ADDGF108991071021008001001011MA1999999092431MD1999999-0041REMSYN070AAXX  04184 83182 32597 80503 10333 20148 39243 40037 87201 333 59004;
0168831820999992007110500004-11300-041867FM-12+074799999V0200901N002619999999N0010001N1+02661+01071100751ADDGF108991001001999999001011KA1240M+03371MA1999999092741MD1999999+0031REMSYN088AAXX  05004 83182 32994 80905 10266 20107 39274 40075 80001 333 10337 29037 55091 58003;
0156831820999992007110512004-11300-041867FM-12+074799999V0201401N005712200019N0100001N1+02601+01601101111ADDGF103991011001017501041011KA1240N+01761MA1999999093041MD1999999+0021REMSYN076AAXX  05124 83182 32797 31411 10260 20160 39304 40111 81041 333 20176 58002;
0137831820999992007110518004-11300-041867FM-12+074799999V0200901N005112200019N0100001N1+03341+01541100531ADDGF102991011021008001001011MA1999999092551MD1999999+0121REMSYN070AAXX  05184 83182 32597 20910 10334 20154 39255 40053 81201 333 58012;
0168831820999992007110600004-11300-041867FM-12+074799999V0200901N003119999999N0010001N1+02611+00991100851ADDGF108991001001999999001011KA1240M+03351MA1999999092781MD1999999+0041REMSYN088AAXX  06004 83182 32994 80906 10261 20099 39278 40085 80001 333 10335 29039 55110 58004;
0137831820999992007110618004-11300-041867FM-12+074799999V0200501N003112200019N0100001N1+03241+01451100771ADDGF108991041021008001001011MA1999999092731MD1999999+0181REMSYN070AAXX  06184 83182 32597 80506 10324 20145 39273 40077 84201 333 58018;
0168831820999992007110700004-11300-041867FM-12+074799999V0200901N003110075019N0010001N1+02611+01321101131ADDGF108991051051008001001011KA1240M+03251MA1999999093021MD1999999+0241REMSYN088AAXX  07004 83182 32594 80906 10261 20132 39302 40113 85501 333 10325 29044 55112 58024;
0156831820999992007110712004-11300-041867FM-12+074799999V0200901N004112200019N0100001N1+02481+01491101441ADDGF101991011011012501011001KA1240N+01741MA1999999093311MD1999999+0151REMSYN076AAXX  07124 83182 32697 10908 10248 20149 39331 40144 81110 333 20174 58015;
0137831820999992007110718004-11300-041867FM-12+074799999V0200901N004112200019N0100001N1+03261+01601100821ADDGF102991021021008001001011MA1999999092791MD1999999+0061REMSYN070AAXX  07184 83182 32597 20908 10326 20160 39279 40082 82201 333 58006;
0178831820999992007110800004-11300-041867FM-12+074799999V0200901N003112200019N0010001N1+02541+01601101081ADDGA1001+999999999GF100991001001999999001001KA1240M+03361MA1999999092951MD1999999-0071REMSYN082AAXX  08004 83182 32994 00906 10254 20160 39295 40108 333 10336 29051 55107 59007;
0166831820999992007110812004-11300-041867FM-12+074799999V0200901N004112200019N0100001N1+02671+01441101131ADDGA1001+999999999GF100991001001999999001001KA1240N+01551MA1999999093041MD1999999-0271REMSYN070AAXX  08124 83182 32997 00908 10267 20144 39304 40113 333 20155 59027;
0156831820999992007110818004-11300-041867FM-12+074799999V0200501N003110075019N0100001N1+03331+00731100531ADDGF108991999021008001001001MA1999999092521MD1999999-0271REMSYN070AAXX  08184 83182 32597 80506 10333 20073 39252 40053 85200 333 59027;EQDQ01+000052SCOTLC
0178831820999992007110900004-11300-041867FM-12+074799999V0200901N005112200019N0010001N1+02611+01291100861ADDGA1001+999999999GF100991001001999999001001KA1240M+03401MA1999999092811MD1999999-0141REMSYN082AAXX  09004 83182 32994 00910 10261 20129 39281 40086 333 10340 29039 55112 59014;
0156831820999992007110912004-11300-041867FM-12+074799999V0200901N003119999999N0100001N1+02601+01481101041ADDGF108991001001999999001011KA1240N+01541MA1999999092951MD1999999-0091REMSYN076AAXX  09124 83182 32997 80906 10260 20148 39295 40104 80001 333 20154 59009;
0137831820999992007110918004-11300-041867FM-12+074799999V0200901N004112200019N0100001N1+03361+00601100571ADDGF108991011021008001001011MA1999999092551MD1999999+0031REMSYN070AAXX  09184 83182 32597 80908 10336 20060 39255 40057 81201 333 58003;
0168831820999992007111000004-11300-041867FM-12+074799999V0200901N006219999999N0010001N1+02631+01121100881ADDGF108991001001999999001011KA1240M+03431MA1999999092811MD1999999+0001REMSYN088AAXX  10004 83182 32994 80912 10263 20112 39281 40088 80001 333 10343 29036 55112 58000;
0156831820999992007111012004-11300-041867FM-12+074799999V0200901N003119999999N0100001N1+02581+01581100861ADDGF108991001001999999001011KA1240N+01551MA1999999092881MD1999999-0071REMSYN076AAXX  10124 83182 32997 80906 10258 20158 39288 40086 80001 333 20155 59007;
0137831820999992007111018004-11300-041867FM-12+074799999V0200901N001512200019N0100001N1+03391+00921100851ADDGF108991021021008001001011MA1999999092831MD1999999+0281REMSYN070AAXX  10184 83182 32597 80903 10339 20092 39283 40085 82201 333 58028;
0168831820999992007111100004-11300-041867FM-12+074799999V0200901N004119999999N0010001N1+02671+01081100701ADDGF108991001001999999001011KA1240M+03451MA1999999092651MD1999999-0161REMSYN088AAXX  11004 83182 32994 80908 10267 20108 39265 40070 80001 333 10345 29038 55096 59016;
0156831820999992007111112004-11300-041867FM-12+074799999V0200901N003119999999N0100001N1+02721+01491100881ADDGF108991001001999999001011KA1240N+01701MA1999999092851MD1999999-0031REMSYN076AAXX  11124 83182 32997 80906 10272 20149 39285 40088 80001 333 20170 59003;
0137831820999992007111118004-11300-041867FM-12+074799999V0201401N003112200019N0100001N1+03491+01191100891ADDGF108991041021008001001011MA1999999092901MD1999999+0071REMSYN070AAXX  11184 83182 32597 81406 10349 20119 39290 40089 84201 333 58007;
0168831820999992007111200004-11300-041867FM-12+074799999V0200901N004119999999N0010001N1+02741+01061100751ADDGF108991001001999999001011KA1240M+03531MA1999999092741MD1999999+0051REMSYN088AAXX  12004 83182 32994 80908 10274 20106 39274 40075 80001 333 10353 29036 55110 58005;
0137831820999992007111218004-11300-041867FM-12+074799999V0200501N002112200019N0100001N1+03341+01541100611ADDGF108991031021008001001011MA1999999092631MD1999999-0271REMSYN070AAXX  12184 83182 32597 80504 10334 20154 39263 40061 83201 333 59027;
0156831820999992007111312004-11300-041867FM-12+074799999V0200901N004612200019N0100001N1+02771+01631100981ADDGF108991031021008001001011KA1240N+01821MA1999999092941MD1999999-0151REMSYN076AAXX  13124 83182 32597 80909 10277 20163 39294 40098 83201 333 20182 59015;
0137831820999992007111318004-11300-041867FM-12+074799999V0200901N005112200019N0100001N1+03311+01211100571ADDGF108991041021008001001011MA1999999092571MD1999999-0061REMSYN070AAXX  13184 83182 32597 80910 10331 20121 39257 40057 84201 333 59006;
0168831820999992007111400004-11300-041867FM-12+074799999V0200901N006719999999N0010001N1+02541+01721100991ADDGF108991001001999999001011KA1240M+03351MA1999999092931MD1999999-0191REMSYN088AAXX  14004 83182 32994 80913 10254 20172 39293 40099 80001 333 10335 29050 55110 59019;
0156831820999992007111412004-11300-041867FM-12+074799999V0200901N005119999999N0100001N1+02681+01521101241ADDGF108991001001999999001011KA1240N+01681MA1999999093141MD1999999+0201REMSYN076AAXX  14124 83182 32997 80910 10268 20152 39314 40124 80001 333 20168 58020;
0137831820999992007111418004-11300-041867FM-12+074799999V0200901N005112200019N0100001N1+03241+00501100761ADDGF108991011011012501001011MA1999999092731MD1999999+0161REMSYN070AAXX  14184 83182 32697 80910 10324 20050 39273 40076 81101 333 58016;
0168831820999992007111500004-11300-041867FM-12+074799999V0200901N006219999999N0010001N1+02441+01811101101ADDGF108991001001999999001011KA1240M+03321MA1999999092991MD1999999+0061REMSYN088AAXX  15004 83182 32994 80912 10244 20181 39299 40110 80001 333 10332 29051 55112 58006;
0156831820999992007111512004-11300-041867FM-12+074799999V0200901N005119999999N0100001N1+02651+01461101311ADDGF108991001001999999001011KA1240N+01751MA1999999093191MD1999999+0051REMSYN076AAXX  15124 83182 32997 80910 10265 20146 39319 40131 80001 333 20175 58005;
0137831820999992007111518004-11300-041867FM-12+074799999V0200501N002112200019N0100001N1+03341+00941100721ADDGF108991031021008001001011MA1999999092691MD1999999-0041REMSYN070AAXX  15184 83182 32597 80504 10334 20094 39269 40072 83201 333 59004;
0168831820999992007111600004-11300-041867FM-12+074799999V0200901N003119999999N0010001N1+02681+01281100981ADDGF108991001001999999001011KA1240M+03411MA1999999092921MD1999999-0071REMSYN088AAXX  16004 83182 32994 80906 10268 20128 39292 40098 80001 333 10341 29039 55113 59007;
0156831820999992007111612004-11300-041867FM-12+074799999V0200901N005712200019N0100001N1+02681+01811101321ADDGF102991021021008001001001KA1240N+01821MA1999999093251MD1999999+0061REMSYN076AAXX  16124 83182 32597 20911 10268 20181 39325 40132 82200 333 20182 58006;
0137831820999992007111618004-11300-041867FM-12+074799999V0200901N005712200019N0100001N1+03231+01251100881ADDGF101991011021008001001001MA1999999092861MD1999999+0171REMSYN070AAXX  16184 83182 32597 10911 10323 20125 39286 40088 81200 333 58017;
0178831820999992007111700004-11300-041867FM-12+074799999V0200901N004612200019N0010001N1+02491+01471101281ADDGA1001+999999999GF100991001001999999001001KA1240M+03311MA1999999093171MD1999999-0251REMSYN082AAXX  17004 83182 32994 00909 10249 20147 39317 40128 333 10331 29049 55107 59025;
0156831820999992007111712004-11300-041867FM-12+074799999V0200901N005110075019N0100001N1+02591+01751101411ADDGF108991071051008001001011KA1240N+01711MA1999999093281MD1999999-0031REMSYN076AAXX  17124 83182 32597 80910 10259 20175 39328 40141 87501 333 20171 59003;
0137831820999992007111718004-11300-041867FM-12+074799999V0200901N005710075019N0100001N1+03101+01771100971ADDGF108991051021008001001011MA1999999092891MD1999999+0031REMSYN070AAXX  17184 83182 32597 80911 10310 20177 39289 40097 85201 333 58003;
0156831820999992007111812004-11300-041867FM-12+074799999V0201401N005712200019N0100001N1+02531+01281101321ADDGF108991011021008001001011KA1240N+01601MA1999999093161MD1999999-0121REMSYN076AAXX  18124 83182 32597 81411 10253 20128 39316 40132 81201 333 20160 59012;
0137831820999992007111818004-11300-041867FM-12+074799999V0200501N004112200019N0100001N1+03161+00921100731ADDGF108991011021008001001011MA1999999092671MD1999999-0221REMSYN070AAXX  18184 83182 32597 80508 10316 20092 39267 40073 81201 333 59022;
0156831820999992007111912004-11300-041867FM-12+074799999V0200901N003612200019N0100001N1+02541+01261101421ADDGF108991011021008001001011KA1240N+01481MA1999999093271MD1999999+0111REMSYN076AAXX  19124 83182 32597 80907 10254 20126 39327 40142 81201 333 20148 58011;
0137831820999992007111918004-11300-041867FM-12+074799999V0200501N004112200019N0100001N1+03161+00921100751ADDGF108991021021008001001011MA1999999092671MD1999999+0001REMSYN070AAXX  19184 83182 32597 80508 10316 20092 39267 40075 82201 333 58000;
0168831820999992007112000004-11300-041867FM-12+074799999V0200901N003119999999N0010001N1+02671+01271100861ADDGF108991001001999999001011KA1240M+03301MA1999999092791MD1999999-0191REMSYN088AAXX  20004 83182 32994 80906 10267 20127 39279 40086 80001 333 10330 29038 55111 59019;
0156831820999992007112012004-11300-041867FM-12+074799999V0200901N003119999999N0100001N1+02721+01521101041ADDGF108991001001999999001011KA1240N+01671MA1999999092991MD1999999-0281REMSYN076AAXX  20124 83182 32997 80906 10272 20152 39299 40104 80001 333 20167 59028;
0137831820999992007112018004-11300-041867FM-12+074799999V0201801N003112200019N0100001N1+03541+01461100741ADDGF108991031021008001001011MA1999999092761MD1999999+0091REMSYN070AAXX  20184 83182 32597 81806 10354 20146 39276 40074 83201 333 58009;
0168831820999992007112100004-11300-041867FM-12+074799999V0200901N005712200019N0010001N1+02741+01641100961ADDGF108991011021008001001011KA1240M+03611MA1999999092941MD1999999+0151REMSYN088AAXX  21004 83182 32594 80911 10274 20164 39294 40096 81201 333 10361 29045 55113 58015;
0156831820999992007112112004-11300-041867FM-12+074799999V0200901N002619999999N0100001N1+02711+01611101181ADDGF108991001001999999001011KA1240N+01751MA1999999093121MD1999999+0131REMSYN076AAXX  21124 83182 32997 80905 10271 20161 39312 40118 80001 333 20175 58013;
0137831820999992007112118004-11300-041867FM-12+074799999V0200901N002112200019N0100001N1+03461+01171100661ADDGF108991021021008001001011MA1999999092691MD1999999-0071REMSYN070AAXX  21184 83182 32597 80904 10346 20117 39269 40066 82201 333 59007;
0156831820999992007112212004-11300-041867FM-12+074799999V0200901N002110075019N0100001N1+02591+01671101201ADDGF108991071051008001001011KA1240N+01851MA1999999093141MD1999999+0021REMSYN076AAXX  22124 83182 32597 80904 10259 20167 39314 40120 87501 333 20185 58002;
0137831820999992007112218004-11300-041867FM-12+074799999V0200901N002110075019N0100001N1+03251+01411100611ADDGF108991051021008001001011MA1999999092631MD1999999-0061REMSYN070AAXX  22184 83182 32597 80904 10325 20141 39263 40061 85201 333 59006;
0168831820999992007112300004-11300-041867FM-12+074799999V0200901N004612200019N0010001N1+02611+01551100991ADDGF108991041001017501031011KA1240M+03291MA1999999092911MD1999999-0041REMSYN088AAXX  23004 83182 32794 80909 10261 20155 39291 40099 84031 333 10329 29048 55072 59004;
0156831820999992007112312004-11300-041867FM-12+074799999V0200901N001510075019N0100001N1+02481+01511101351ADDGF108991081051008001999999KA1240N+01901MA1999999093231MD1999999+0091REMSYN076AAXX  23124 83182 32597 80903 10248 20151 39323 40135 885// 333 20190 58009;
0137831820999992007112318004-11300-041867FM-12+074799999V0201401N003110075019N0100001N1+02521+01691100971ADDGF108991061051008001021999MA1999999092831MD1999999+0201REMSYN070AAXX  23184 83182 32597 81406 10252 20169 39283 40097 8652/ 333 58020;
0168831820999992007112400004-11300-041867FM-12+074799999V0201401N003610450019N0010001N1+02141+01681101281ADDGF108991041071004501021999KA1240M+02811MA1999999092981MD1999999+0071REMSYN088AAXX  24004 83182 32494 81407 10214 20168 39298 40128 8472/ 333 10281 29066 55005 58007;
0156831820999992007112412004-11300-041867FM-12+074799999V0200901N003110450019N0100001N1+02621+01781101221ADDGF108991031021008001031011KA1240N+01731MA1999999093031MD1999999-0201REMSYN076AAXX  24124 83182 32597 80906 10262 20178 39303 40122 83231 333 20173 59020;
0182831820999992007112418004-11300-041867FM-12+074799999V0200901N003110450019N0100001N1+02841+01661101291ADDAA106001091AY161061AY221061GF108991031031008001061011MA1999999093121MD1999999+0291MW1021REMSYN082AAXX  24184 83182 21597 80906 10284 20166 39312 40129 70262 83361 333 58029 60011;
0173831820999992007112512004-11300-041867FM-12+074799999V0200901N005110075019N0100001N1+02701+01801101101ADDAA124001091GF108991051051008001021999KA1240N+01941MA1999999092991MD1999999-0041REMSYN082AAXX  25124 83182 22597 80910 10270 20180 39299 40110 8552/ 333 20194 59004 60014;
0182831820999992007112518004-11300-041867FM-12+074799999V0200901N003110075019N0100001N1+02371+02101100831ADDAA106019191AY161061AY261061GF108991051031008001021999MA1999999092661MD1999999-0461MW1211REMSYN082AAXX  25184 83182 21597 80906 10237 20210 39266 40083 72166 8532/ 333 59046 60191;
0201831820999992007112612004-11300-041867FM-12+074799999V0200901N003110450019N0100001N1+02481+02051101151ADDAA124042991AY161061AY261061GF108991021021008001041011KA1240N+01831MA1999999092971MD1999999+0021MW1021REMSYN088AAXX  26124 83182 21597 80906 10248 20205 39297 40115 70266 82241 333 20183 58002 60434;
0182831820999992007112618004-11300-041867FM-12+074799999V0200501N004110042019N0040001N1+02431+02101100831ADDAA106009991AY161061AY221061GF108991061031004501021999MA1999999092641MD1999999-0021MW1151REMSYN082AAXX  26184 83182 21496 80508 10243 20210 39264 40083 71562 8632/ 333 59002 60101;
0201831820999992007112712004-11300-041867FM-12+074799999V0203601N002110042019N0100001N1+02291+02001101071ADDAA124026991AY161061AY221061GF108991071051004501021999KA1240N+01731MA1999999092861MD1999999-0111MW1021REMSYN088AAXX  27124 83182 21497 83604 10229 20200 39286 40107 70262 8752/ 333 20173 59011 60274;
0137831820999992007112718004-11300-041867FM-12+074799999V0203201N003110450019N0100001N1+02851+01941101061ADDGF108991041021008001031011MA1999999092911MD1999999+0271REMSYN070AAXX  27184 83182 32597 83206 10285 20194 39291 40106 84231 333 58027;
0213831820999992007112800004-11300-041867FM-12+074799999V0203601N003110042019N0010001N1+02151+02081100971ADDAA106014091AY161061AY261061GF108991071031004501021999KA1240M+02911MA1999999092751MD1999999-0051MW1211REMSYN100AAXX  28004 83182 21494 83606 10215 20208 39275 40097 72166 8732/ 333 10291 29084 55038 59005 60141;
0201831820999992007112812004-11300-041867FM-12+074799999V0200501N002110450019N0100001N1+02261+02031101101ADDAA124016091AY161061AY261061GF108991021071004501021999KA1240N+01821MA1999999092871MD1999999+0011MW1021REMSYN088AAXX  28124 83182 21497 80504 10226 20203 39287 40110 70266 8272/ 333 20182 58001 60164;
0182831820999992007112818004-11300-041867FM-12+074799999V0202701N001510450019N0100001N1+02481+02031100731ADDAA106000591AY161061AY261061GF108991021071004501021999MA1999999092551MD1999999-0361MW1021REMSYN082AAXX  28184 83182 21497 82703 10248 20203 39255 40073 70266 8272/ 333 59036 69941;
0213831820999992007112900004-11300-041867FM-12+074799999V0203201N001510450019N0010001N1+01951+01851101281ADDAA106000891AY161061AY261061GF108991041071004501021999KA1240M+02551MA1999999093011MD1999999+0261MW1021REMSYN100AAXX  29004 83182 21494 83203 10195 20185 39301 40128 70266 8472/ 333 10255 29088 55000 58026 69971;
0173831820999992007112912004-11300-041867FM-12+074799999V0200901N001010450019N0100001N1+02571+01841101031ADDAA124001091GF108991021011008001011011KA1240N+01671MA1999999092831MD1999999-0041REMSYN082AAXX  29124 83182 22597 80902 10257 20184 39283 40103 82111 333 20167 59004 60014;
0137831820999992007112918004-11300-041867FM-12+074799999V0203601N001510450019N0100001N1+03081+01851100581ADDGF108991041021008001031011MA1999999092481MD1999999-0071REMSYN070AAXX  29184 83182 32597 83603 10308 20185 39248 40058 84231 333 59007;
0192831820999992007113012004-11300-041867FM-12+074799999V0200901N003110075019N0100001N1+02541+01911101121ADDAA124000091GF108991061021008001001011KA1240N+01851MA1999999092981MD1999999+0051REMSYN082AAXX  30124 83182 22597 80906 10254 20191 39298 40112 86201 333 20185 58005 69924;EQDQ01  00002PRCP24
0165831820999992007113018004-11300-041867FM-12+074799999V0201401N003110075019N0100001N1+02861+01871100731ADDAY121061AY221061GF108991061031008001061011MA1999999092641MD1999999+0161MW1151REMSYN076AAXX  30184 83182 31597 81406 10286 20187 39264 40073 71522 86361 333 58016;
0168831820999992007120100004-11300-041867FM-12+074799999V0201401N004110075019N0010001N1+02301+02051101051ADDGF108991081051008001999999KA1240M+03021MA1999999092901MD1999999+0101REMSYN088AAXX  01004 83182 32594 81408 10230 20205 39290 40105 885// 333 10302 29073 55037 58010;
0150831820999992007120112004-11300-041867FM-12+074799999V0201401N005119999999N0100001N1+02361+01891101211ADDGF108991999999008001999999KA1240N+01891MA1999999093031MD1999999+0051REMSYN070AAXX  01124 83182 32597 81410 10236 20189 39303 40121 333 20189 58005;
0182831820999992007120118004-11300-041867FM-12+074799999V0201801N003110042019N0100001N1+02481+02011100971ADDAA106000891AY161061AY221061GF108991061031004501021999MA1999999092751MD1999999+0051MW1511REMSYN082AAXX  01184 83182 21497 81806 10248 20201 39275 40097 75162 8632/ 333 58005 69981;
0213831820999992007120200004-11300-041867FM-12+074799999V0201401N002610075019N0010001N1+02331+01841101141ADDAA106000391AY161061AY221061GF108991081051008001999999KA1240M+02901MA1999999092961MD1999999+0061MW1021REMSYN100AAXX  02004 83182 21594 81405 10233 20184 39296 40114 70262 885// 333 10290 29074 55010 58006 69931;
0173831820999992007120212004-11300-041867FM-12+074799999V0200901N005710075019N0100001N1+02401+01651101371ADDAA124001091GF108991051021008001051011KA1240N+01771MA1999999093171MD1999999+0141REMSYN082AAXX  02124 83182 22597 80911 10240 20165 39317 40137 85251 333 20177 58014 60014;
0137831820999992007120218004-11300-041867FM-12+074799999V0200901N003110450019N0100001N1+03021+01471101031ADDGF108991021021008001041011MA1999999092931MD1999999+0181REMSYN070AAXX  02184 83182 32597 80906 10302 20147 39293 40103 82241 333 58018;
0168831820999992007120300004-11300-041867FM-12+074799999V0201401N002610450019N0010001N1+02441+01531101201ADDGF108991011021008001041011KA1240M+03071MA1999999093041MD1999999+0081REMSYN088AAXX  03004 83182 32594 81405 10244 20153 39304 40120 81241 333 10307 29054 55077 58008;
0156831820999992007120312004-11300-041867FM-12+074799999V0200901N004612200019N0100001N1+02661+01701101371ADDGF101991011011012501001001KA1240N+01701MA1999999093251MD1999999+0081REMSYN076AAXX  03124 83182 32697 10909 10266 20170 39325 40137 81100 333 20170 58008;
0137831820999992007120318004-11300-041867FM-12+074799999V02099999999992200019N0100001N1+03241+01541100731ADDGF102991021021008001001001MA1999999092691MD1999999-0241REMSYN070AAXX  03184 83182 32597 209// 10324 20154 39269 40073 82200 333 59024;
0178831820999992007120400004-11300-041867FM-12+074799999V0200901N003112200019N0100001N1+02551+01691100901ADDGA1001+999999999GF100991001001999999001001KA1240M+03351MA1999999092831MD1999999-0211REMSYN082AAXX  04004 83182 32997 00906 10255 20169 39283 40090 333 10335 29052 55117 59021;
0166831820999992007120412004-11300-041867FM-12+074799999V0201401N003112200019N0100001N1+02621+01881101061ADDGA1001+999999999GF100991001001999999001001KA1240N+01721MA1999999092971MD1999999-0281REMSYN070AAXX  04124 83182 32997 01406 10262 20188 39297 40106 333 20172 59028;
0137831820999992007120418004-11300-041867FM-12+074799999V0200501N003110075019N0100001N1+03391+01441100511ADDGF105991051021008001001001MA1999999092521MD1999999-0171REMSYN070AAXX  04184 83182 32597 50506 10339 20144 39252 40051 85200 333 59017;
0196831820999992007120600004-11300-041867FM-12+074799999V0200901N002610450019N0010001N1+02651+01761100831ADDAY121061AY221061GF108991011031008001041011KA1240M+03341MA1999999092761MD1999999-0081MW1131REMSYN094AAXX  06004 83182 31594 80905 10265 20176 39276 40083 71322 81341 333 10334 29053 55115 59008;
0156831820999992007120612004-11300-041867FM-12+074799999V0200501N001512200019N0100001N1+02761+01971101221ADDGF108991031021008001001011KA1240N+01711MA1999999093151MD1999999-0091REMSYN076AAXX  06124 83182 32597 80503 10276 20197 39315 40122 83201 333 20171 59009;
0137831820999992007120618004-11300-041867FM-12+074799999V0201801N001512200019N0100001N1+03351+01681100621ADDGF108991031031008001001011MA1999999092621MD1999999-0141REMSYN070AAXX  06184 83182 32597 81803 10335 20168 39262 40062 83301 333 59014;
0168831820999992007120700004-11300-041867FM-12+074799999V0201401N001519999999N0010001N1+02651+01891100911ADDGF108991001001999999001011KA1240M+03491MA1999999092871MD1999999+0111REMSYN088AAXX  07004 83182 32994 81403 10265 20189 39287 40091 80001 333 10349 29056 55110 58011;
0156831820999992007120712004-11300-041867FM-12+074799999V0203601N001012200019N0100001N1+03031+01591100921ADDGF108991011011012501001011KA1240N+01811MA1999999092931MD1999999-0221REMSYN076AAXX  07124 83182 32697 83602 10303 20159 39293 40092 81101 333 20181 59022;
0137831820999992007120718004-11300-041867FM-12+074799999V02099999999990450019N0100001N1+03381+01481100541ADDGF108991021021008001041011MA1999999092561MD1999999-0061REMSYN070AAXX  07184 83182 32597 805// 10338 20148 39256 40054 82241 333 59006;
0168831820999992007120800004-11300-041867FM-12+074799999V0200501N003112200019N0010001N1+02811+01851100641ADDGF108991021001017501041011KA1240M+03471MA1999999092691MD1999999-0181REMSYN088AAXX  08004 83182 32794 80506 10281 20185 39269 40064 82041 333 10347 29046 55105 59018;
0182831820999992007120818004-11300-041867FM-12+074799999V0202301N003610450019N0100001N1+02451+02221100631ADDAA106002091AY161061AY221061GF108991041031008001021011MA1999999092531MD1999999-0031MW1021REMSYN082AAXX  08184 83182 21597 82307 10245 20222 39253 40063 70262 84321 333 59003 60021;
0213831820999992007120900004-11300-041867FM-12+074799999V0202701N001010042019N0010001N1+02121+02041101081ADDAA106018091AY161061AY221061GF108991071031004501021999KA1240M+02971MA1999999092931MD1999999+0241MW1131REMSYN100AAXX  09004 83182 21494 82702 10212 20204 39293 40108 71362 8732/ 333 10297 29088 55025 58024 60181;
0173831820999992007120912004-11300-041867FM-12+074799999V0200901N005110075019N0100001N1+02411+01941101231ADDAA124020191GF108991051051008001001011KA1240N+01791MA1999999093011MD1999999+0181REMSYN082AAXX  09124 83182 22597 80910 10241 20194 39301 40123 85501 333 20179 58018 60204;
0137831820999992007120918004-11300-041867FM-12+074799999V0200901N003112200019N0100001N1+02931+01841100691ADDGF108991041021008001001011MA1999999092651MD1999999+0121REMSYN070AAXX  09184 83182 32597 80906 10293 20184 39265 40069 84201 333 58012;
0137831820999992007121018004-11300-041867FM-12+074799999V0200501N003112200019N0100001N1+02921+01801101021ADDGF108991021021008001001011MA1999999092901MD1999999+0251REMSYN070AAXX  10184 83182 32597 80506 10292 20180 39290 40102 82201 333 58025;
0168831820999992007121100004-11300-041867FM-12+074799999V0201401N004112200019N0010001N1+02411+01661101171ADDGF108991011001017501041011KA1240M+03001MA1999999093031MD1999999+0221REMSYN088AAXX  11004 83182 32794 81408 10241 20166 39303 40117 81041 333 10300 29060 55102 58022;
0156831820999992007121112004-11300-041867FM-12+074799999V0201401N006712200019N0100001N1+02501+01671101391ADDGF108991011021008001001011KA1240N+01591MA1999999093231MD1999999-0091REMSYN076AAXX  11124 83182 32597 81413 10250 20167 39323 40139 81201 333 20159 59009;
0137831820999992007121118004-11300-041867FM-12+074799999V0201401N004612200019N0100001N1+03161+01711100781ADDGF108991011021008001001011MA1999999092721MD1999999-0181REMSYN070AAXX  11184 83182 32597 81409 10316 20171 39272 40078 81201 333 59018;
0168831820999992007121200004-11300-041867FM-12+074799999V0201401N003119999999N0010001N1+02451+01601101001ADDGF108991001001999999001011KA1240M+03201MA1999999092881MD1999999-0151REMSYN088AAXX  12004 83182 32994 81406 10245 20160 39288 40100 80001 333 10320 29040 55106 59015;
0156831820999992007121212004-11300-041867FM-12+074799999V0201401N004610075019N0100001N1+02331+01551101331ADDGF107991071021008001001001KA1240N+01631MA1999999093131MD1999999-0101REMSYN076AAXX  12124 83182 32597 71409 10233 20155 39313 40133 87200 333 20163 59010;
0137831820999992007121218004-11300-041867FM-12+074799999V0200901N002612200019N0100001N1+03081+01561100721ADDGF102991021021008001001001MA1999999092721MD1999999-0071REMSYN070AAXX  12184 83182 32597 20905 10308 20156 39272 40072 82200 333 59007;
0178831820999992007121300004-11300-041867FM-12+074799999V0201401N003112200019N0010001N1+02361+01661100991ADDGA1001+999999999GF100991001001999999001001KA1240M+03141MA1999999092831MD1999999-0051REMSYN082AAXX  13004 83182 32994 01406 10236 20166 39283 40099 333 10314 29058 55084 59005;
0156831820999992007121312004-11300-041867FM-12+074799999V0201401N005110075019N0100001N1+02451+01621101191ADDGF108991051021008001001011KA1240N+01531MA1999999093031MD1999999-0101REMSYN076AAXX  13124 83182 32597 81410 10245 20162 39303 40119 85201 333 20153 59010;
0137831820999992007121318004-11300-041867FM-12+074799999V0200901N003110075019N0100001N1+03051+01371100791ADDGF108991051021008001001011MA1999999092691MD1999999-0031REMSYN070AAXX  13184 83182 32597 80906 10305 20137 39269 40079 85201 333 59003;
0168831820999992007121400004-11300-041867FM-12+074799999V0200901N002119999999N0010001N1+02381+01581100941ADDGF108991001001999999001011KA1240M+03081MA1999999092801MD1999999-0031REMSYN088AAXX  14004 83182 32994 80904 10238 20158 39280 40094 80001 333 10308 29054 55116 59003;
0156831820999992007121412004-11300-041867FM-12+074799999V0200901N003112200019N0100001N1+02551+01651101141ADDGF108991011021008001001011KA1240N+01631MA1999999093001MD1999999-0031REMSYN076AAXX  14124 83182 32597 80906 10255 20165 39300 40114 81201 333 20163 59003;
0137831820999992007121418004-11300-041867FM-12+074799999V0200501N001012200019N0100001N1+03041+01641100711ADDGF108991031021008001001011MA1999999092631MD1999999-0061REMSYN070AAXX  14184 83182 32597 80502 10304 20164 39263 40071 83201 333 59006;
0168831820999992007121500004-11300-041867FM-12+074799999V0200501N001519999999N0010001N1+02471+01591100931ADDGF108991001001999999001011KA1240M+03131MA1999999092821MD1999999+0021REMSYN088AAXX  15004 83182 32994 80503 10247 20159 39282 40093 80001 333 10313 29054 55111 58002;
0156831820999992007121512004-11300-041867FM-12+074799999V0200901N003112200019N0100001N1+02841+01971100861ADDGF102991021021008001001001KA1240N+01651MA1999999092811MD1999999-0191REMSYN076AAXX  15124 83182 32597 20906 10284 20197 39281 40086 82200 333 20165 59019;
0137831820999992007121518004-11300-041867FM-12+074799999V0203601N002612200019N0100001N1+03221+02081100911ADDGF108991031021008001001011MA1999999092861MD1999999+0231REMSYN070AAXX  15184 83182 32597 83605 10322 20208 39286 40091 83201 333 58023;
0168831820999992007121600004-11300-041867FM-12+074799999V0201401N002119999999N0010001N1+02571+01711100501ADDGF108991001001999999001011KA1240M+03271MA1999999092491MD1999999-0331REMSYN088AAXX  16004 83182 32994 81404 10257 20171 39249 40050 80001 333 10327 29057 55105 59033;
0156831820999992007121612004-11300-041867FM-12+074799999V0200901N003110450019N0100001N1+02801+01781100851ADDGF108991041021008001061011KA1240N+01731MA1999999092821MD1999999+0011REMSYN076AAXX  16124 83182 32597 80906 10280 20178 39282 40085 84261 333 20173 58001;
0201831820999992007121618004-11300-041867FM-12+074799999V0201801N005110450019N0100001N1+02461+01901100651ADDAA106000091AY161061AY221061GF108991031031008001021999MA1999999092491MD1999999-0371MW1021REMSYN082AAXX  16184 83182 21597 81810 10246 20190 39249 40065 70262 8332/ 333 59037 69911;EQDQ01  00002PRCP06
0196831820999992007121700004-11300-041867FM-12+074799999V0200901N002610075019N0010001N1+02141+01741100971ADDAY121061AY221061GF108991061031008001021999KA1240M+03181MA1999999092841MD1999999+0351MW1131REMSYN094AAXX  17004 83182 31594 80905 10214 20174 39284 40097 71322 8632/ 333 10318 29070 55062 58035;
0201831820999992007121712004-11300-041867FM-12+074799999V0203601N002610075019N0100001N1+02441+02031101031ADDAA124015091AY161061AY221061GF108991061051008001041011KA1240N+01751MA1999999092851MD1999999+0031MW1021REMSYN088AAXX  17124 83182 21597 83605 10244 20203 39285 40103 70262 86541 333 20175 58003 60154;
0137831820999992007121718004-11300-041867FM-12+074799999V02099999999990450019N0100001N1+02801+01951100621ADDGF108991031031008001061011MA1999999092481MD1999999-0011REMSYN070AAXX  17184 83182 32597 832// 10280 20195 39248 40062 83361 333 59001;
0213831820999992007121800004-11300-041867FM-12+074799999V0200501N005110042019N0010001N1+02021+01891101081ADDAA106003091AY101061AY201061GF108991061071004501021999KA1240M+02931MA1999999092871MD1999999+0031MW1611REMSYN100AAXX  18004 83182 21494 80510 10202 20189 39287 40108 76100 8672/ 333 10293 29080 55044 58003 60031;
0201831820999992007121812004-11300-041867FM-12+074799999V0203601N003110042019N0100001N1+02151+01981101351ADDAA124031091AY161061AY261061GF108991051031004501021999KA1240N+01741MA1999999093071MD1999999+0221MW1021REMSYN088AAXX  18124 83182 21497 83606 10215 20198 39307 40135 70266 8532/ 333 20174 58022 60314;
0168831820999992007121900004-11300-041867FM-12+074799999V0201401N001510075019N0010001N1+02281+02111101111ADDGF108991051051008001011999KA1240M+02661MA1999999092881MD1999999+0011REMSYN088AAXX  19004 83182 32594 81403 10228 20211 39288 40111 8551/ 333 10266 29085 55030 58001;
0156831820999992007121912004-11300-041867FM-12+074799999V0200901N004110075019N0100001N1+02601+02061101311ADDGF108991061021008001001011KA1240N+01771MA1999999093151MD1999999+0081REMSYN076AAXX  19124 83182 32597 80908 10260 20206 39315 40131 86201 333 20177 58008;
0168831820999992007122000004-11300-041867FM-12+074799999V0201401N001512200019N0010001N1+02301+01791101071ADDGF108991021001017501041011KA1240M+03031MA1999999092931MD1999999-0051REMSYN088AAXX  20004 83182 32794 81403 10230 20179 39293 40107 82041 333 10303 29069 55094 59005;
0156831820999992007122012004-11300-041867FM-12+074799999V02099999999990075019N0100001N1+02461+01811101161ADDGF108991051021008001001011KA1240N+01631MA1999999093001MD1999999-0151REMSYN076AAXX  20124 83182 32597 809// 10246 20181 39300 40116 85201 333 20163 59015;
0137831820999992007122018004-11300-041867FM-12+074799999V0200901N001010075019N0100001N1+03091+01861100651ADDGF108991051021008001001011MA1999999092561MD1999999-0181REMSYN070AAXX  20184 83182 32597 80902 10309 20186 39256 40065 85201 333 59018;
0168831820999992007122100004-11300-041867FM-12+074799999V0201401N003119999999N0010001N1+02371+01791100911ADDGF108991001001999999001011KA1240M+03141MA1999999092771MD1999999-0161REMSYN088AAXX  21004 83182 32994 81406 10237 20179 39277 40091 80001 333 10314 29064 55103 59016;
0156831820999992007122112004-11300-041867FM-12+074799999V0200901N003110075019N0100001N1+02481+01801101231ADDGF106991061051008001001001KA1240N+01681MA1999999093061MD1999999+0061REMSYN076AAXX  21124 83182 32597 60906 10248 20180 39306 40123 86500 333 20168 58006;
0137831820999992007122118004-11300-041867FM-12+074799999V02099999999992200019N0100001N1+03021+01661100791ADDGF102991021021008001001001MA1999999092691MD1999999+0131REMSYN070AAXX  21184 83182 32597 214// 10302 20166 39269 40079 82200 333 58013;
0168831820999992007122200004-11300-041867FM-12+074799999V0201401N002112200019N0010001N1+02371+01791101051ADDGF103991031001017501031001KA1240M+03171MA1999999092901MD1999999+0131REMSYN088AAXX  22004 83182 32794 31404 10237 20179 39290 40105 83030 333 10317 29062 55091 58013;
0137831820999992007122218004-11300-041867FM-12+074799999V0200901N001512200019N0100001N1+02901+01691100891ADDGF108991021021008001001011MA1999999092761MD1999999+0071REMSYN070AAXX  22184 83182 32597 80903 10290 20169 39276 40089 82201 333 58007;
0156831820999992007122312004-11300-041867FM-12+074799999V0201401N005119999999N0100001N1+02471+01741101251ADDGF108991001001999999001011KA1240N+01481MA1999999093081MD1999999+0011REMSYN076AAXX  23124 83182 32997 81410 10247 20174 39308 40125 80001 333 20148 58001;
0137831820999992007122318004-11300-041867FM-12+074799999V02099999999992200019N0100001N1+03031+01601100841ADDGF108991031021008001001011MA1999999092721MD1999999-0041REMSYN070AAXX  23184 83182 32597 809// 10303 20160 39272 40084 83201 333 59004;
0168831820999992007122400004-11300-041867FM-12+074799999V0200901N003119999999N0010001N1+02341+01571101081ADDGF108991001001999999001011KA1240M+03131MA1999999092931MD1999999+0021REMSYN088AAXX  24004 83182 32994 80906 10234 20157 39293 40108 80001 333 10313 29058 55117 58002;
0156831820999992007122412004-11300-041867FM-12+074799999V0200901N005110075019N0100001N1+02361+01731101331ADDGF108991071051008001001011KA1240N+01631MA1999999093141MD1999999+0061REMSYN076AAXX  24124 83182 32597 80910 10236 20173 39314 40133 87501 333 20163 58006;
0156831820999992007122512004-11300-041867FM-12+074799999V0200901N005710075019N0100001N1+02431+01581101361ADDGF106991061021008001001001KA1240N+01421MA1999999093161MD1999999+0021REMSYN076AAXX  25124 83182 32597 60911 10243 20158 39316 40136 86200 333 20142 58002;
0137831820999992007122518004-11300-041867FM-12+074799999V0200901N003110075019N0100001N1+02931+01631100891ADDGF105991051021008001001001MA1999999092751MD1999999-0061REMSYN070AAXX  25184 83182 32597 50906 10293 20163 39275 40089 85200 333 59006;
0156831820999992007122612004-11300-041867FM-12+074799999V0201401N005112200019N0100001N1+02441+01741101371ADDGF108991031021008001001011KA1240N+01551MA1999999093171MD1999999+0011REMSYN076AAXX  26124 83182 32597 81410 10244 20174 39317 40137 83201 333 20155 58001;
0137831820999992007122618004-11300-041867FM-12+074799999V0200901N003112200019N0100001N1+03031+01591100871ADDGF108991041021008001001011MA1999999092761MD1999999+0011REMSYN070AAXX  26184 83182 32597 80906 10303 20159 39276 40087 84201 333 58001;
0168831820999992007122700004-11300-041867FM-12+074799999V0200901N003119999999N0010001N1+02371+01491101011ADDGF108991001001999999001011KA1240M+03071MA1999999092861MD1999999-0121REMSYN088AAXX  27004 83182 32994 80906 10237 20149 39286 40101 80001 333 10307 29056 55109 59012;
0166831820999992007122712004-11300-041867FM-12+074799999V0201401N005112200019N0100001N1+02481+01541101241ADDGA1001+999999999GF100991001001999999001001KA1240N+01491MA1999999093071MD1999999-0101REMSYN070AAXX  27124 83182 32997 01410 10248 20154 39307 40124 333 20149 59010;
0137831820999992007122718004-11300-041867FM-12+074799999V0200901N003112200019N0100001N1+03081+01441100771ADDGF103991031021008001001001MA1999999092671MD1999999-0091REMSYN070AAXX  27184 83182 32597 30906 10308 20144 39267 40077 83200 333 59009;
0178831820999992007122800004-11300-041867FM-12+074799999V0201401N003112200019N0100001N1+02311+01471100981ADDGA1001+999999999GF100991001001999999001001KA1240M+03121MA1999999092841MD1999999-0021REMSYN082AAXX  28004 83182 32997 01406 10231 20147 39284 40098 333 10312 29052 55117 59002;
0156831820999992007122812004-11300-041867FM-12+074799999V0200901N006712200019N0100001N1+02441+01591101431ADDGF103991031021008001001001KA1240N+01531MA1999999093251MD1999999+0181REMSYN076AAXX  28124 83182 32597 30913 10244 20159 39325 40143 83200 333 20153 58018;
0137831820999992007122818004-11300-041867FM-12+074799999V0201401N003112200019N0100001N1+02931+01781100931ADDGF103991031021008001001001MA1999999092791MD1999999+0121REMSYN070AAXX  28184 83182 32597 31406 10293 20178 39279 40093 83200 333 58012;
0178831820999992007122900004-11300-041867FM-12+074799999V0201401N002112200019N0010001N1+02261+01281101111ADDGA1001+999999999GF100991001001999999001001KA1240M+02951MA1999999092941MD1999999+0101REMSYN082AAXX  29004 83182 32994 01404 10226 20128 39294 40111 333 10295 29054 55116 58010;
0156831820999992007122912004-11300-041867FM-12+074799999V0201401N005110075019N0100001N1+02611+01771101261ADDGF106991061021008001001001KA1240N+01591MA1999999093111MD1999999-0141REMSYN076AAXX  29124 83182 32597 61410 10261 20177 39311 40126 86200 333 20159 59014;
0137831820999992007122918004-11300-041867FM-12+074799999V0200901N004610075019N0100001N1+03111+01341100821ADDGF105991051021008001001001MA1999999092721MD1999999-0071REMSYN070AAXX  29184 83182 32597 50909 10311 20134 39272 40082 85200 333 59007;
0178831820999992007123000004-11300-041867FM-12+074799999V0201401N003112200019N0010001N1+02401+01681101041ADDGA1001+999999999GF100991001001999999001001KA1240M+03141MA1999999092921MD1999999-0041REMSYN082AAXX  30004 83182 32994 01406 10240 20168 39292 40104 333 10314 29056 55109 59004;
0156831820999992007123012004-11300-041867FM-12+074799999V0201401N004619999999N0100001N1+02651+01641101191ADDGF108991001001999999001011KA1240N+01621MA1999999093061MD1999999-0051REMSYN076AAXX  30124 83182 32997 81409 10265 20164 39306 40119 80001 333 20162 59005;
0137831820999992007123018004-11300-041867FM-12+074799999V0200901N002612200019N0100001N1+03141+01411100771ADDGF108991031021008001001011MA1999999092711MD1999999-0011REMSYN070AAXX  30184 83182 32597 80905 10314 20141 39271 40077 83201 333 59001;
0168831820999992007123100004-11300-041867FM-12+074799999V0200901N003119999999N0010001N1+02401+01501101041ADDGF108991001001999999001011KA1240M+03211MA1999999092921MD1999999+0001REMSYN088AAXX  31004 83182 32994 80906 10240 20150 39292 40104 80001 333 10321 29051 55105 58000;
0137831820999992007123118004-11300-041867FM-12+074799999V0200901N003112200019N0100001N1+03161+01431100831ADDGF108991021021008001001011MA1999999092761MD1999999+0051REMSYN070AAXX  31184 83182 32597 80906 10316 20143 39276 40083 82201 333 58005;
