0156832290999992007040212004-13017-038517FM-12+005199999V0201401N001012200019N0200001N1+02921+02361101461ADDGF102991021041008001001001KA1240N+02261MA1999999100871MD1999999+0021REMSYN076AAXX  02124 83229 32598 21402 10292 20236 30087 40146 82400 333 20226 58002;
0156832290999992007040218004-13017-038517FM-12+005199999V0201401N002112200019N0200001N1+03011+02241101201ADDGF103991001001999999001021MA1999999100621MD1999999+0011REMSYN070AAXX  02184 83229 32898 31404 10301 20224 30062 40120 80002 333 58001;EQDQ01+022502SCOLCB
0211832290999992007041712004-13017-038517FM-12+005199999V0201401N001010450019N0100001N1+02801+02501101481ADDAA124005091AY161061AY211061GF105991031031008001061001KA1240N+02321MA1100541100891MD1999999-0191MW1031REMSYN098AAXX  17124 83229 21597 51402 10280 20250 30089 40148 70361 83360 333 20232 59019 60054 555 10054;
0137832290999992007092518004-13017-038517FM-12+005199999V0200501N002112200019N0200001N1+02741+02021101671ADDGF101991011021012501001001MA1999999101081MD1999999+0271REMSYN070AAXX  25184 83229 32698 10504 10274 20202 30108 40167 81200 333 58027;
