0072832880999992007062918004-13267-043417FM-15+0440SBLP V0202101N00311220001CN0099001N1+03201+01401999999ADDMA1101691999999REMMET045METAR SBLP 291800Z 21006KT CAVOK 32/14 Q1017;
0072832880999992007062919004-13267-043417FM-15+0440SBLP V0202401N00311220001CN0099001N1+03001+01501999999ADDMA1101591999999REMMET045METAR SBLP 291900Z 24006KT CAVOK 30/15 Q1016;
0072832880999992007062920004-13267-043417FM-15+0440SBLP V0202101N00311220001CN0099001N1+03001+01501999999ADDMA1101691999999REMMET045METAR SBLP 292000Z 21006KT CAVOK 30/15 Q1017;
0072832880999992007062921004-13267-043417FM-15+0440SBLP V0202001N00311220001CN0099001N1+02801+01601999999ADDMA1101691999999REMMET045METAR SBLP 292100Z 20006KT CAVOK 28/16 Q1017;
0072832880999992007063010004-13267-043417FM-15+0440SBLP V0209999C00001220001CN0099001N1+01901+01501999999ADDMA1102101999999REMMET045METAR SBLP 301000Z 00000KT CAVOK 19/15 Q1021;
0072832880999992007063011004-13267-043417FM-15+0440SBLP V0209999C00001220001CN0099001N1+02101+01501999999ADDMA1102201999999REMMET045METAR SBLP 301100Z 00000KT CAVOK 21/15 Q1022;
0072832880999992007063012004-13267-043417FM-15+0440SBLP V0209999C00001220001CN0099001N1+02401+01401999999ADDMA1102301999999REMMET045METAR SBLP 301200Z 00000KT CAVOK 24/14 Q1023;
0072832880999992007063013004-13267-043417FM-15+0440SBLP V0209999C00001220001CN0099001N1+02601+01401999999ADDMA1102201999999REMMET045METAR SBLP 301300Z 00000KT CAVOK 26/14 Q1022;
0072832880999992007063014004-13267-043417FM-15+0440SBLP V0202701N00311220001CN0099001N1+02701+01301999999ADDMA1102201999999REMMET045METAR SBLP 301400Z 27006KT CAVOK 27/13 Q1022;
0120832880999992007063015004-13267-043417FM-15+0440SBLP V0202701N003112200019N0112651N1+02901+01401999999ADDGA1021+009001999GF102991999999999999999999MA1102101999999REMMET051METAR SBLP 301500Z 27006KT 9999 FEW030 29/14 Q1021;
0120832880999992007063016004-13267-043417FM-15+0440SBLP V0202401N003112200019N0112651N1+03001+01401999999ADDGA1021+009001999GF102991999999999999999999MA1102001999999REMMET051METAR SBLP 301600Z 24006KT 9999 FEW030 30/14 Q1020;
0120832880999992007063017004-13267-043417FM-15+0440SBLP V0202701N003112200019N0112651N1+03001+01301999999ADDGA1021+009001999GF102991999999999999999999MA1101901999999REMMET051METAR SBLP 301700Z 27006KT 9999 FEW030 30/13 Q1019;
0120832880999992007063018004-13267-043417FM-15+0440SBLP V0202701N003112200019N0112651N1+03101+01301999999ADDGA1021+009001999GF102991999999999999999999MA1101801999999REMMET051METAR SBLP 301800Z 27006KT 9999 FEW030 31/13 Q1018;
0120832880999992007063019004-13267-043417FM-15+0440SBLP V0202701N001512200019N0112651N1+03101+01001999999ADDGA1021+009001999GF102991999999999999999999MA1101801999999REMMET051METAR SBLP 301900Z 27003KT 9999 FEW030 31/10 Q1018;
0120832880999992007063020004-13267-043417FM-15+0440SBLP V0209999C000012200019N0112651N1+03101+00901999999ADDGA1021+009001999GF102991999999999999999999MA1101801999999REMMET051METAR SBLP 302000Z 00000KT 9999 FEW030 31/09 Q1018;
0072832880999992007063021004-13267-043417FM-15+0440SBLP V0209999C00001220001CN0099001N1+02801+01101999999ADDMA1101801999999REMMET045METAR SBLP 302100Z 00000KT CAVOK 28/11 Q1018;
0072832880999992007070211004-13267-043417FM-15+0440SBLP V0201801N00311220001CN0099001N1+01901+01301999999ADDMA1102201999999REMMET045METAR SBLP 021100Z 18006KT CAVOK 19/13 Q1022;
0072832880999992007070212004-13267-043417FM-15+0440SBLP V0209999C00001220001CN0099001N1+02301+01501999999ADDMA1102301999999REMMET045METAR SBLP 021200Z 00000KT CAVOK 23/15 Q1023;
0072832880999992007070213004-13267-043417FM-15+0440SBLP V0201801N00311220001CN0099001N1+02401+01401999999ADDMA1102301999999REMMET045METAR SBLP 021300Z 18006KT CAVOK 24/14 Q1023;
0072832880999992007070214004-13267-043417FM-15+0440SBLP V0201801N00311220001CN0099001N1+02701+01301999999ADDMA1102201999999REMMET045METAR SBLP 021400Z 18006KT CAVOK 27/13 Q1022;
0072832880999992007070215004-13267-043417FM-15+0440SBLP V0209999C00001220001CN0099001N1+02801+01301999999ADDMA1102101999999REMMET045METAR SBLP 021500Z 00000KT CAVOK 28/13 Q1021;
0143832880999992007070216004-13267-043417FM-15+0440SBLP V0209999C000012200019N0112651N1+02901+01301999999ADDGA1021+009001999GA2041+090001999GF104991999999999999999999MA1102001999999REMMET058METAR SBLP 021600Z 00000KT 9999 FEW030 SCT300 29/13 Q1020;
0143832880999992007070217004-13267-043417FM-15+0440SBLP V0209999C000012200019N0112651N1+03001+01301999999ADDGA1021+009001999GA2041+090001999GF104991999999999999999999MA1101801999999REMMET058METAR SBLP 021700Z 00000KT 9999 FEW030 SCT300 30/13 Q1018;
0072832880999992007070218004-13267-043417FM-15+0440SBLP V0209999C00001220001CN0099001N1+03201+01301999999ADDMA1101801999999REMMET045METAR SBLP 021800Z 00000KT CAVOK 32/13 Q1018;
0072832880999992007070219004-13267-043417FM-15+0440SBLP V0209999C00001220001CN0099001N1+03301+01301999999ADDMA1101691999999REMMET045METAR SBLP 021900Z 00000KT CAVOK 33/13 Q1017;
0072832880999992007070220004-13267-043417FM-15+0440SBLP V0209999C00001220001CN0099001N1+03101+01301999999ADDMA1101691999999REMMET045METAR SBLP 022000Z 00000KT CAVOK 31/13 Q1017;
0072832880999992007070221004-13267-043417FM-15+0440SBLP V0209999C00001220001CN0099001N1+03001+01401999999ADDMA1101801999999REMMET045METAR SBLP 022100Z 00000KT CAVOK 30/14 Q1018;
0072832880999992007070310004-13267-043417FM-15+0440SBLP V0209999C00001220001CN0099001N1+02101+01701999999ADDMA1102101999999REMMET045METAR SBLP 031000Z 00000KT CAVOK 21/17 Q1021;
0072832880999992007070311004-13267-043417FM-15+0440SBLP V0209999C00001220001CN0099001N1+02401+01601999999ADDMA1102301999999REMMET045METAR SBLP 031100Z 00000KT CAVOK 24/16 Q1023;
0072832880999992007070312004-13267-043417FM-15+0440SBLP V0200901N00311220001CN0099001N1+02601+01501999999ADDMA1102301999999REMMET045METAR SBLP 031200Z 09006KT CAVOK 26/15 Q1023;
0120832880999992007070313004-13267-043417FM-15+0440SBLP V0200901N003112200019N0112651N1+02801+01401999999ADDGA1021+009001999GF102991999999999999999999MA1102201999999REMMET051METAR SBLP 031300Z 09006KT 9999 FEW030 28/14 Q1022;
0120832880999992007070314004-13267-043417FM-15+0440SBLP V0200901N003112200019N0112651N1+02901+01301999999ADDGA1021+009001999GF102991999999999999999999MA1102101999999REMMET051METAR SBLP 031400Z 09006KT 9999 FEW030 29/13 Q1021;
0120832880999992007070315004-13267-043417FM-15+0440SBLP V0200901N003112200019N0112651N1+03001+01301999999ADDGA1041+009001999GF104991999999999999999999MA1102101999999REMMET051METAR SBLP 031500Z 09006KT 9999 SCT030 30/13 Q1021;
0120832880999992007070316004-13267-043417FM-15+0440SBLP V0200901N003112200019N0112651N1+03001+01301999999ADDGA1041+009001999GF104991999999999999999999MA1101901999999REMMET051METAR SBLP 031600Z 09006KT 9999 SCT030 30/13 Q1019;
0143832880999992007070317004-13267-043417FM-15+0440SBLP V0201501N003112200019N0112651N1+03001+01501999999ADDGA1021+009001999GA2041+090001999GF104991999999999999999999MA1101901999999REMMET058METAR SBLP 031700Z 15006KT 9999 FEW030 SCT300 30/15 Q1019;
0143832880999992007070318004-13267-043417FM-15+0440SBLP V0200901N003110900019N0112651N1+03001+01501999999ADDGA1041+009001999GA2071+090001999GF107991999999999999999999MA1101801999999REMMET058METAR SBLP 031800Z 09006KT 9999 SCT030 BKN300 30/15 Q1018;
0143832880999992007070319004-13267-043417FM-15+0440SBLP V0201201N003110900019N0112651N1+02901+01501999999ADDGA1041+009001999GA2071+090001999GF107991999999999999999999MA1101801999999REMMET058METAR SBLP 031900Z 12006KT 9999 SCT030 BKN300 29/15 Q1018;
0143832880999992007070320004-13267-043417FM-15+0440SBLP V0201201N003110900019N0112651N1+02901+01501999999ADDGA1041+009001999GA2071+090001999GF107991999999999999999999MA1101801999999REMMET058METAR SBLP 032000Z 12006KT 9999 SCT030 BKN300 29/15 Q1018;
0072832880999992007070321004-13267-043417FM-15+0440SBLP V0201201N00311220001CN0099001N1+02801+01501999999ADDMA1101901999999REMMET045METAR SBLP 032100Z 12006KT CAVOK 28/15 Q1019;
0072832880999992007070410004-13267-043417FM-15+0440SBLP V0209999C00001220001CN0099001N1+02101+01601999999ADDMA1102101999999REMMET045METAR SBLP 041000Z 00000KT CAVOK 21/16 Q1021;
0072832880999992007070413004-13267-043417FM-15+0440SBLP V0209999C00001220001CN0099001N1+02701+01301999999ADDMA1102201999999REMMET045METAR SBLP 041300Z 00000KT CAVOK 27/13 Q1022;
0072832880999992007070414004-13267-043417FM-15+0440SBLP V0209999C00001220001CN0099001N1+02801+01301999999ADDMA1102201999999REMMET045METAR SBLP 041400Z 00000KT CAVOK 28/13 Q1022;
0143832880999992007070415004-13267-043417FM-15+0440SBLP V0209999C000012200019N0112651N1+02901+01301999999ADDGA1021+009001999GA2041+090001999GF104991999999999999999999MA1102101999999REMMET058METAR SBLP 041500Z 00000KT 9999 FEW030 SCT300 29/13 Q1021;
0143832880999992007070416004-13267-043417FM-15+0440SBLP V0200901N003110900019N0112651N1+02901+01301999999ADDGA1021+009001999GA2071+090001999GF107991999999999999999999MA1101901999999REMMET058METAR SBLP 041600Z 09006KT 9999 FEW030 BKN300 29/13 Q1019;
0143832880999992007070417004-13267-043417FM-15+0440SBLP V0201801N003110900019N0112651N1+03001+01301999999ADDGA1021+009001999GA2071+090001999GF107991999999999999999999MA1101901999999REMMET058METAR SBLP 041700Z 18006KT 9999 FEW030 BKN300 30/13 Q1019;
0072832880999992007070419004-13267-043417FM-15+0440SBLP V0202101N00211220001CN0099001N1+03001+01401999999ADDMA1101801999999REMMET045METAR SBLP 041900Z 21004KT CAVOK 30/14 Q1018;
0072832880999992007070420004-13267-043417FM-15+0440SBLP V0209999C00001220001CN0099001N1+02901+01501999999ADDMA1101901999999REMMET045METAR SBLP 042000Z 00000KT CAVOK 29/15 Q1019;
0072832880999992007070421004-13267-043417FM-15+0440SBLP V0209999C00001220001CN0099001N1+02601+01701999999ADDMA1101901999999REMMET045METAR SBLP 042100Z 00000KT CAVOK 26/17 Q1019;
0072832880999992007070510004-13267-043417FM-15+0440SBLP V0209999C00001220001CN0099001N1+01801+01401999999ADDMA1102101999999REMMET045METAR SBLP 051000Z 00000KT CAVOK 18/14 Q1021;
0072832880999992007070511004-13267-043417FM-15+0440SBLP V0209999C00001220001CN0099001N1+01801+01401999999ADDMA1102101999999REMMET045METAR SBLP 051100Z 00000KT CAVOK 18/14 Q1021;
0072832880999992007070512004-13267-043417FM-15+0440SBLP V0209999C00001220001CN0099001N1+02201+01501999999ADDMA1102301999999REMMET045METAR SBLP 051200Z 00000KT CAVOK 22/15 Q1023;
0072832880999992007070513004-13267-043417FM-15+0440SBLP V0209999C00001220001CN0099001N1+02501+01601999999ADDMA1102301999999REMMET045METAR SBLP 051300Z 00000KT CAVOK 25/16 Q1023;
0072832880999992007070514004-13267-043417FM-15+0440SBLP V0202101N00311220001CN0099001N1+02701+01601999999ADDMA1102201999999REMMET045METAR SBLP 051400Z 21006KT CAVOK 27/16 Q1022;
0166832880999992007070515004-13267-043417FM-15+0440SBLP V0209999C00001030001CN0112651N1+02901+01601999999ADDGA1021+009001999GA2041+030001999GA3071+090001999GF107991999999999999999999MA1102101999999REMMET065METAR SBLP 051500Z 00000KT 9999 FEW030 SCT100 BKN300 29/16 Q1021;
0143832880999992007070516004-13267-043417FM-15+0440SBLP V0201501N002110900019N0112651N1+03001+01401999999ADDGA1041+009001999GA2071+090001999GF107991999999999999999999MA1102001999999REMMET058METAR SBLP 051600Z 15004KT 9999 SCT030 BKN300 30/14 Q1020;
0143832880999992007070517004-13267-043417FM-15+0440SBLP V0209999C000010900019N0112651N1+03001+01601999999ADDGA1041+009001999GA2071+090001999GF107991999999999999999999MA1101901999999REMMET058METAR SBLP 051700Z 00000KT 9999 SCT030 BKN300 30/16 Q1019;
0143832880999992007070518004-13267-043417FM-15+0440SBLP V0209999C000010900019N0112651N1+03001+01601999999ADDGA1041+009001999GA2071+090001999GF107991999999999999999999MA1101801999999REMMET058METAR SBLP 051800Z 00000KT 9999 SCT030 BKN300 30/16 Q1018;
0143832880999992007070519004-13267-043417FM-15+0440SBLP V0201201N003110900019N0112651N1+03101+01501999999ADDGA1041+009001999GA2071+090001999GF107991999999999999999999MA1101801999999REMMET058METAR SBLP 051900Z 12006KT 9999 SCT030 BKN300 31/15 Q1018;
0143832880999992007070520004-13267-043417FM-15+0440SBLP V02099999999990900019N0112651N1+02901+01501999999ADDGA1021+009001999GA2071+090001999GF107991999999999999999999MA1101801999999REMMET058METAR SBLP 052000Z /////KT 9999 FEW030 BKN300 29/15 Q1018;
0143832880999992007070521004-13267-043417FM-15+0440SBLP V02099999999992200019N0112651N1+02801+01601999999ADDGA1021+009001999GA2041+090001999GF104991999999999999999999MA1101901999999REMMET058METAR SBLP 052100Z /////KT 9999 FEW030 SCT300 28/16 Q1019;
0072832880999992007070610004-13267-043417FM-15+0440SBLP V0209999999999220001CN0099001N1+01701+01401999999ADDMA1102101999999REMMET045METAR SBLP 061000Z /////KT CAVOK 17/14 Q1021;
0072832880999992007070611004-13267-043417FM-15+0440SBLP V0209999999999220001CN0099001N1+01901+01501999999ADDMA1102201999999REMMET045METAR SBLP 061100Z /////KT CAVOK 19/15 Q1022;
0072832880999992007070612004-13267-043417FM-15+0440SBLP V0209999999999220001CN0099001N1+02401+01501999999ADDMA1102201999999REMMET045METAR SBLP 061200Z /////KT CAVOK 24/15 Q1022;
0072832880999992007070613004-13267-043417FM-15+0440SBLP V0209999999999220001CN0099001N1+02601+01501999999ADDMA1102201999999REMMET045METAR SBLP 061300Z /////KT CAVOK 26/15 Q1022;
0072832880999992007070614004-13267-043417FM-15+0440SBLP V0209999999999220001CN0099001N1+02801+01201999999ADDMA1102101999999REMMET045METAR SBLP 061400Z /////KT CAVOK 28/12 Q1021;
0072832880999992007070615004-13267-043417FM-15+0440SBLP V0203101N00211220001CN0099001N1+02801+01301999999ADDMA1102001999999REMMET045METAR SBLP 061500Z 31004KT CAVOK 28/13 Q1020;
0072832880999992007070616004-13267-043417FM-15+0440SBLP V0201801N00311220001CN0099001N1+03001+01201999999ADDMA1101901999999REMMET045METAR SBLP 061600Z 18006KT CAVOK 30/12 Q1019;
0072832880999992007070617004-13267-043417FM-15+0440SBLP V0203601N00311220001CN0099001N1+03201+01201999999ADDMA1101691999999REMMET045METAR SBLP 061700Z 36006KT CAVOK 32/12 Q1017;
0072832880999992007070618004-13267-043417FM-15+0440SBLP V0203601N00311220001CN0099001N1+03301+01101999999ADDMA1101691999999REMMET045METAR SBLP 061800Z 36006KT CAVOK 33/11 Q1017;
0072832880999992007070619004-13267-043417FM-15+0440SBLP V0209999C00001220001CN0099001N1+03201+01201999999ADDMA1101691999999REMMET045METAR SBLP 061900Z 00000KT CAVOK 32/12 Q1017;
0072832880999992007070620004-13267-043417FM-15+0440SBLP V0209999C00001220001CN0099001N1+03101+01201999999ADDMA1101691999999REMMET045METAR SBLP 062000Z 00000KT CAVOK 31/12 Q1017;
0072832880999992007070621004-13267-043417FM-15+0440SBLP V0209999C00001220001CN0099001N1+02901+01301999999ADDMA1101691999999REMMET045METAR SBLP 062100Z 00000KT CAVOK 29/13 Q1017;
0072832880999992007070709064-13267-043417FM-15+0440SBLP V0201501N00211220001CN0099001N1+01801+01501999999ADDMA1101901999999REMMET045METAR SBLP 070906Z 15004KT CAVOK 18/15 Q1019;
0072832880999992007070710004-13267-043417FM-15+0440SBLP V0201501N00211220001CN0099001N1+01701+01501999999ADDMA1101901999999REMMET045METAR SBLP 071000Z 15004KT CAVOK 17/15 Q1019;
0072832880999992007070711004-13267-043417FM-15+0440SBLP V0201201N00211220001CN0099001N1+01901+01501999999ADDMA1102001999999REMMET045METAR SBLP 071100Z 12004KT CAVOK 19/15 Q1020;
0072832880999992007070712004-13267-043417FM-15+0440SBLP V0201401N00211220001CN0099001N1+02301+01601999999ADDMA1102001999999REMMET045METAR SBLP 071200Z 14004KT CAVOK 23/16 Q1020;
0072832880999992007070713004-13267-043417FM-15+0440SBLP V0200301N00211220001CN0099001N1+02601+01501999999ADDMA1102001999999REMMET045METAR SBLP 071300Z 03004KT CAVOK 26/15 Q1020;
0072832880999992007070714004-13267-043417FM-15+0440SBLP V0200901N00411220001CN0099001N1+02801+01401999999ADDMA1101901999999REMMET045METAR SBLP 071400Z 09008KT CAVOK 28/14 Q1019;
0143832880999992007070715004-13267-043417FM-15+0440SBLP V0200901N005112200019N0112651N1+03001+01401999999ADDGA1021+009001999GA2041+090001999GF104991999999999999999999MA1101801999999REMMET058METAR SBLP 071500Z 09010KT 9999 FEW030 SCT300 30/14 Q1018;
0120832880999992007070716004-13267-043417FM-15+0440SBLP V0200901N003112200019N0112651N1+03101+01301999999ADDGA1021+009001999GF102991999999999999999999MA1101691999999REMMET051METAR SBLP 071600Z 09006KT 9999 FEW030 31/13 Q1017;
0120832880999992007070717004-13267-043417FM-15+0440SBLP V0200901N003112200019N0112651N1+03101+01301999999ADDGA1041+009001999GF104991999999999999999999MA1101591999999REMMET051METAR SBLP 071700Z 09006KT 9999 SCT030 31/13 Q1016;
0120832880999992007070718004-13267-043417FM-15+0440SBLP V0200901N003112200019N0112651N1+03201+01301999999ADDGA1041+009001999GF104991999999999999999999MA1101491999999REMMET051METAR SBLP 071800Z 09006KT 9999 SCT030 32/13 Q1015;
0120832880999992007070719004-13267-043417FM-15+0440SBLP V0200901N003112200019N0112651N1+03301+01301999999ADDGA1021+009001999GF102991999999999999999999MA1101491999999REMMET051METAR SBLP 071900Z 09006KT 9999 FEW030 33/13 Q1015;
0120832880999992007070720004-13267-043417FM-15+0440SBLP V0209999C000012200019N0112651N1+03201+01301999999ADDGA1021+009001999GF102991999999999999999999MA1101491999999REMMET051METAR SBLP 072000Z 00000KT 9999 FEW030 32/13 Q1015;
0072832880999992007070721004-13267-043417FM-15+0440SBLP V0209999C00001220001CN0099001N1+03001+01301999999ADDMA1101491999999REMMET045METAR SBLP 072100Z 00000KT CAVOK 30/13 Q1015;
0072832880999992007070813004-13267-043417FM-15+0440SBLP V0200901N00311220001CN0099001N1+02801+01401999999ADDMA1101901999999REMMET045METAR SBLP 081300Z 09006KT CAVOK 28/14 Q1019;
0072832880999992007070814004-13267-043417FM-15+0440SBLP V0200901N00311220001CN0099001N1+03001+01401999999ADDMA1101801999999REMMET045METAR SBLP 081400Z 09006KT CAVOK 30/14 Q1018;
0072832880999992007070815004-13267-043417FM-15+0440SBLP V0200901N00311220001CN0099001N1+03101+01301999999ADDMA1101691999999REMMET045METAR SBLP 081500Z 09006KT CAVOK 31/13 Q1017;
0072832880999992007070816004-13267-043417FM-15+0440SBLP V0200601N00311220001CN0099001N1+03201+01301999999ADDMA1101591999999REMMET045METAR SBLP 081600Z 06006KT CAVOK 32/13 Q1016;
0072832880999992007070817004-13267-043417FM-15+0440SBLP V0201801N00311220001CN0099001N1+03301+01301999999ADDMA1101391999999REMMET045METAR SBLP 081700Z 18006KT CAVOK 33/13 Q1014;
0072832880999992007070818004-13267-043417FM-15+0440SBLP V0201801N00311220001CN0099001N1+03401+01301999999ADDMA1101391999999REMMET045METAR SBLP 081800Z 18006KT CAVOK 34/13 Q1014;
0072832880999992007070819004-13267-043417FM-15+0440SBLP V0201801N00311220001CN0099001N1+03401+01201999999ADDMA1101391999999REMMET045METAR SBLP 081900Z 18006KT CAVOK 34/12 Q1014;
0072832880999992007070820004-13267-043417FM-15+0440SBLP V0201601N00311220001CN0099001N1+03201+01301999999ADDMA1101391999999REMMET045METAR SBLP 082000Z 16006KT CAVOK 32/13 Q1014;
0072832880999992007070821004-13267-043417FM-15+0440SBLP V0201601N00311220001CN0099001N1+03201+01301999999ADDMA1101391999999REMMET045METAR SBLP 082100Z 16006KT CAVOK 32/13 Q1014;
0072832880999992007070910004-13267-043417FM-15+0440SBLP V0209999C00001220001CN0099001N1+01801+01501999999ADDMA1101801999999REMMET045METAR SBLP 091000Z 00000KT CAVOK 18/15 Q1018;
0072832880999992007070911004-13267-043417FM-15+0440SBLP V0201201N00311220001CN0099001N1+02101+01501999999ADDMA1102001999999REMMET045METAR SBLP 091100Z 12006KT CAVOK 21/15 Q1020;
0072832880999992007070912004-13267-043417FM-15+0440SBLP V0209999C00001220001CN0099001N1+02501+01401999999ADDMA1102101999999REMMET045METAR SBLP 091200Z 00000KT CAVOK 25/14 Q1021;
0072832880999992007070913004-13267-043417FM-15+0440SBLP V0200401N00311220001CN0099001N1+02801+01601999999ADDMA1102001999999REMMET045METAR SBLP 091300Z 04006KT CAVOK 28/16 Q1020;
0072832880999992007070914004-13267-043417FM-15+0440SBLP V0200401N00311220001CN0099001N1+03001+01501999999ADDMA1101901999999REMMET045METAR SBLP 091400Z 04006KT CAVOK 30/15 Q1019;
0072832880999992007070915004-13267-043417FM-15+0440SBLP V0200401N00311220001CN0099001N1+03001+01501999999ADDMA1101901999999REMMET045METAR SBLP 091500Z 04006KT CAVOK 30/15 Q1019;
0072832880999992007070916004-13267-043417FM-15+0440SBLP V0200401N00311220001CN0099001N1+03001+01501999999ADDMA1101901999999REMMET045METAR SBLP 091600Z 04006KT CAVOK 30/15 Q1019;
0108832880999992007070917004-13267-043417FM-15+0440SBLP V0203601N00211220001CN0099001N1+03401+00002999999ADDMA1101492999999REMMET046METAR SBLP 091700Z 36004KT CAVOK 34/M00 Q1015;EQDQ01+000003ATOD  Q02+101493APOA  
0072832880999992007070918004-13267-043417FM-15+0440SBLP V0209999C00001220001CN0099001N1+03401+00501999999ADDMA1101391999999REMMET045METAR SBLP 091800Z 00000KT CAVOK 34/05 Q1014;
0072832880999992007070919004-13267-043417FM-15+0440SBLP V0200601N00211220001CN0099001N1+03401+00701999999ADDMA1101391999999REMMET045METAR SBLP 091900Z 06004KT CAVOK 34/07 Q1014;
0072832880999992007070920004-13267-043417FM-15+0440SBLP V0200301N00211220001CN0099001N1+03301+01001999999ADDMA1101391999999REMMET045METAR SBLP 092000Z 03004KT CAVOK 33/10 Q1014;
0072832880999992007070921004-13267-043417FM-15+0440SBLP V0209999C00001220001CN0099001N1+03001+00801999999ADDMA1101491999999REMMET045METAR SBLP 092100Z 00000KT CAVOK 30/08 Q1015;
0072832880999992007071010004-13267-043417FM-15+0440SBLP V0209999C00001220001CN0099001N1+02001+01501999999ADDMA1101801999999REMMET045METAR SBLP 101000Z 00000KT CAVOK 20/15 Q1018;
0072832880999992007071011004-13267-043417FM-15+0440SBLP V0209999C00001220001CN0099001N1+02001+01501999999ADDMA1101801999999REMMET045METAR SBLP 101100Z 00000KT CAVOK 20/15 Q1018;
0072832880999992007071012004-13267-043417FM-15+0440SBLP V0203601N00311220001CN0099001N1+02501+01701999999ADDMA1101901999999REMMET045METAR SBLP 101200Z 36006KT CAVOK 25/17 Q1019;
0072832880999992007071013004-13267-043417FM-15+0440SBLP V0200301N00311220001CN0099001N1+02901+01701999999ADDMA1101901999999REMMET045METAR SBLP 101300Z 03006KT CAVOK 29/17 Q1019;
0072832880999992007071014004-13267-043417FM-15+0440SBLP V0201201N00311220001CN0099001N1+02901+01501999999ADDMA1101801999999REMMET045METAR SBLP 101400Z 12006KT CAVOK 29/15 Q1018;
0072832880999992007071015004-13267-043417FM-15+0440SBLP V0209999C00001220001CN0099001N1+03101+01401999999ADDMA1101691999999REMMET045METAR SBLP 101500Z 00000KT CAVOK 31/14 Q1017;
0072832880999992007071016004-13267-043417FM-15+0440SBLP V0201201N00211220001CN0099001N1+03101+01301999999ADDMA1101591999999REMMET045METAR SBLP 101600Z 12004KT CAVOK 31/13 Q1016;
0072832880999992007071017004-13267-043417FM-15+0440SBLP V0201801N00411220001CN0099001N1+03101+01401999999ADDMA1101491999999REMMET045METAR SBLP 101700Z 18008KT CAVOK 31/14 Q1015;
0072832880999992007071018004-13267-043417FM-15+0440SBLP V0200301N00411220001CN0099001N1+03301+01301999999ADDMA1101391999999REMMET045METAR SBLP 101800Z 03008KT CAVOK 33/13 Q1014;
0072832880999992007071019004-13267-043417FM-15+0440SBLP V0200301N00411220001CN0099001N1+03201+01101999999ADDMA1101391999999REMMET045METAR SBLP 101900Z 03008KT CAVOK 32/11 Q1014;
0072832880999992007071020004-13267-043417FM-15+0440SBLP V0200901N00311220001CN0099001N1+03101+01001999999ADDMA1101391999999REMMET045METAR SBLP 102000Z 09006KT CAVOK 31/10 Q1014;
0072832880999992007071021004-13267-043417FM-15+0440SBLP V0200901N00211220001CN0099001N1+02801+01101999999ADDMA1101491999999REMMET045METAR SBLP 102100Z 09004KT CAVOK 28/11 Q1015;
0072832880999992007071110004-13267-043417FM-15+0440SBLP V0201601N00211220001CN0099001N1+01501+01201999999ADDMA1101801999999REMMET045METAR SBLP 111000Z 16004KT CAVOK 15/12 Q1018;
0072832880999992007071111004-13267-043417FM-15+0440SBLP V0209999C00001220001CN0099001N1+01801+01301999999ADDMA1101901999999REMMET045METAR SBLP 111100Z 00000KT CAVOK 18/13 Q1019;
0072832880999992007071112004-13267-043417FM-15+0440SBLP V0201801N00211220001CN0099001N1+02201+01401999999ADDMA1101901999999REMMET045METAR SBLP 111200Z 18004KT CAVOK 22/14 Q1019;
0072832880999992007071113004-13267-043417FM-15+0440SBLP V0200801N00311220001CN0099001N1+02801+01301999999ADDMA1101901999999REMMET045METAR SBLP 111300Z 08006KT CAVOK 28/13 Q1019;
0072832880999992007071114004-13267-043417FM-15+0440SBLP V0203401N00311220001CN0099001N1+02901+01301999999ADDMA1101801999999REMMET045METAR SBLP 111400Z 34006KT CAVOK 29/13 Q1018;
0072832880999992007071115004-13267-043417FM-15+0440SBLP V0200901N00311220001CN0099001N1+03101+01201999999ADDMA1101691999999REMMET045METAR SBLP 111500Z 09006KT CAVOK 31/12 Q1017;
0072832880999992007071116004-13267-043417FM-15+0440SBLP V0203001N00311220001CN0099001N1+03201+01301999999ADDMA1101491999999REMMET045METAR SBLP 111600Z 30006KT CAVOK 32/13 Q1015;
0072832880999992007071117004-13267-043417FM-15+0440SBLP V0209999C00001220001CN0099001N1+03301+01301999999ADDMA1101391999999REMMET045METAR SBLP 111700Z 00000KT CAVOK 33/13 Q1014;
0072832880999992007071118004-13267-043417FM-15+0440SBLP V0201201N00311220001CN0099001N1+03501+01201999999ADDMA1101391999999REMMET045METAR SBLP 111800Z 12006KT CAVOK 35/12 Q1014;
0072832880999992007071119004-13267-043417FM-15+0440SBLP V0209999C00001220001CN0099001N1+03401+01301999999ADDMA1101291999999REMMET045METAR SBLP 111900Z 00000KT CAVOK 34/13 Q1013;
0072832880999992007071120004-13267-043417FM-15+0440SBLP V0209999C00001220001CN0099001N1+03301+01301999999ADDMA1101291999999REMMET045METAR SBLP 112000Z 00000KT CAVOK 33/13 Q1013;
0072832880999992007071121004-13267-043417FM-15+0440SBLP V0209999C00001220001CN0099001N1+02901+01601999999ADDMA1101391999999REMMET045METAR SBLP 112100Z 00000KT CAVOK 29/16 Q1014;
0072832880999992007071210004-13267-043417FM-15+0440SBLP V0200601N00211220001CN0099001N1+01801+01401999999ADDMA1101901999999REMMET045METAR SBLP 121000Z 06004KT CAVOK 18/14 Q1019;
0072832880999992007071211004-13267-043417FM-15+0440SBLP V0203601N00211220001CN0099001N1+02201+01501999999ADDMA1102001999999REMMET045METAR SBLP 121100Z 36004KT CAVOK 22/15 Q1020;
0072832880999992007071212004-13267-043417FM-15+0440SBLP V0200401N00151220001CN0099001N1+02501+01501999999ADDMA1102001999999REMMET045METAR SBLP 121200Z 04003KT CAVOK 25/15 Q1020;
0072832880999992007071213004-13267-043417FM-15+0440SBLP V0200601N00311220001CN0099001N1+02701+01501999999ADDMA1102001999999REMMET045METAR SBLP 121300Z 06006KT CAVOK 27/15 Q1020;
0072832880999992007071214004-13267-043417FM-15+0440SBLP V0209999C00001220001CN0099001N1+02801+01401999999ADDMA1101901999999REMMET045METAR SBLP 121400Z 00000KT CAVOK 28/14 Q1019;
0072832880999992007071215004-13267-043417FM-15+0440SBLP V0200401N00311220001CN0099001N1+03001+01201999999ADDMA1101801999999REMMET045METAR SBLP 121500Z 04006KT CAVOK 30/12 Q1018;
0072832880999992007071217004-13267-043417FM-15+0440SBLP V0200901N00411220001CN0099001N1+03101+01101999999ADDMA1101691999999REMMET045METAR SBLP 121700Z 09008KT CAVOK 31/11 Q1017;
0072832880999992007071218004-13267-043417FM-15+0440SBLP V0200701N00311220001CN0099001N1+03301+01101999999ADDMA1101491999999REMMET045METAR SBLP 121800Z 07006KT CAVOK 33/11 Q1015;
0072832880999992007071219004-13267-043417FM-15+0440SBLP V0200901N00311220001CN0099001N1+03301+01001999999ADDMA1101491999999REMMET045METAR SBLP 121900Z 09006KT CAVOK 33/10 Q1015;
0072832880999992007071220004-13267-043417FM-15+0440SBLP V0200901N00311220001CN0099001N1+03201+01101999999ADDMA1101491999999REMMET045METAR SBLP 122000Z 09006KT CAVOK 32/11 Q1015;
0072832880999992007071221004-13267-043417FM-15+0440SBLP V0209999C00001220001CN0099001N1+02901+01301999999ADDMA1101591999999REMMET045METAR SBLP 122100Z 00000KT CAVOK 29/13 Q1016;
0072832880999992007071310004-13267-043417FM-15+0440SBLP V0209999C00001220001CN0099001N1+01701+01501999999ADDMA1102001999999REMMET045METAR SBLP 131000Z 00000KT CAVOK 17/15 Q1020;
0072832880999992007071311004-13267-043417FM-15+0440SBLP V0201101N00211220001CN0099001N1+01901+01601999999ADDMA1102101999999REMMET045METAR SBLP 131100Z 11004KT CAVOK 19/16 Q1021;
0072832880999992007071312004-13267-043417FM-15+0440SBLP V0209999C00001220001CN0099001N1+02301+01501999999ADDMA1102101999999REMMET045METAR SBLP 131200Z 00000KT CAVOK 23/15 Q1021;
0072832880999992007071313004-13267-043417FM-15+0440SBLP V0200301N00311220001CN0099001N1+02701+01301999999ADDMA1102101999999REMMET045METAR SBLP 131300Z 03006KT CAVOK 27/13 Q1021;
0120832880999992007071314004-13267-043417FM-15+0440SBLP V0200601N001512200019N0112651N1+02901+01401999999ADDGA1041+009001999GF104991999999999999999999MA1102001999999REMMET051METAR SBLP 131400Z 06003KT 9999 SCT030 29/14 Q1020;
0120832880999992007071315004-13267-043417FM-15+0440SBLP V0203601N002112200019N0112651N1+03001+01501999999ADDGA1041+009001999GF104991999999999999999999MA1101901999999REMMET051METAR SBLP 131500Z 36004KT 9999 SCT030 30/15 Q1019;
0120832880999992007071316004-13267-043417FM-15+0440SBLP V0201201N003112200019N0112651N1+03101+01401999999ADDGA1041+009001999GF104991999999999999999999MA1101801999999REMMET051METAR SBLP 131600Z 12006KT 9999 SCT030 31/14 Q1018;
0120832880999992007071317004-13267-043417FM-15+0440SBLP V0209999C000012200019N0112651N1+03201+01401999999ADDGA1041+009001999GF104991999999999999999999MA1101591999999REMMET051METAR SBLP 131700Z 00000KT 9999 SCT030 32/14 Q1016;
0120832880999992007071318004-13267-043417FM-15+0440SBLP V0201801N003112200019N0112651N1+03201+01401999999ADDGA1021+009001999GF102991999999999999999999MA1101591999999REMMET051METAR SBLP 131800Z 18006KT 9999 FEW030 32/14 Q1016;
0120832880999992007071319004-13267-043417FM-15+0440SBLP V0201801N003112200019N0112651N1+03201+01301999999ADDGA1021+009001999GF102991999999999999999999MA1101491999999REMMET051METAR SBLP 131900Z 18006KT 9999 FEW030 32/13 Q1015;
0120832880999992007071320004-13267-043417FM-15+0440SBLP V0201601N003112200019N0112651N1+03101+01401999999ADDGA1021+009001999GF102991999999999999999999MA1101591999999REMMET051METAR SBLP 132000Z 16006KT 9999 FEW030 31/14 Q1016;
0120832880999992007071321004-13267-043417FM-15+0440SBLP V0201601N003112200019N0112651N1+02901+01501999999ADDGA1021+009001999GF102991999999999999999999MA1101591999999REMMET051METAR SBLP 132100Z 16006KT 9999 FEW030 29/15 Q1016;
0072832880999992007071410004-13267-043417FM-15+0440SBLP V0209999C00001220001CN0099001N1+01801+01601999999ADDMA1101901999999REMMET045METAR SBLP 141000Z 00000KT CAVOK 18/16 Q1019;
0072832880999992007071411004-13267-043417FM-15+0440SBLP V0209999C00001220001CN0099001N1+02001+01601999999ADDMA1101901999999REMMET045METAR SBLP 141100Z 00000KT CAVOK 20/16 Q1019;
0072832880999992007071412004-13267-043417FM-15+0440SBLP V0200901N00311220001CN0099001N1+02401+01601999999ADDMA1102001999999REMMET045METAR SBLP 141200Z 09006KT CAVOK 24/16 Q1020;
0072832880999992007071413004-13267-043417FM-15+0440SBLP V0201801N00311220001CN0099001N1+02801+01401999999ADDMA1101901999999REMMET045METAR SBLP 141300Z 18006KT CAVOK 28/14 Q1019;
0143832880999992007071414004-13267-043417FM-15+0440SBLP V0201801N003112200019N0112651N1+02901+01501999999ADDGA1021+009001999GA2041+030001999GF104991999999999999999999MA1101901999999REMMET058METAR SBLP 141400Z 18006KT 9999 FEW030 SCT100 29/15 Q1019;
0143832880999992007071415004-13267-043417FM-15+0440SBLP V0202001N003112200019N0112651N1+02901+01501999999ADDGA1021+009001999GA2041+090001999GF104991999999999999999999MA1101691999999REMMET058METAR SBLP 141500Z 20006KT 9999 FEW030 SCT300 29/15 Q1017;
0143832880999992007071416004-13267-043417FM-15+0440SBLP V0201201N002112200019N0112651N1+03101+01201999999ADDGA1041+009001999GA2041+090001999GF104991999999999999999999MA1101591999999REMMET058METAR SBLP 141600Z 12004KT 9999 SCT030 SCT300 31/12 Q1016;
0120832880999992007071417004-13267-043417FM-15+0440SBLP V0201801N002112200019N0112651N1+03201+01001999999ADDGA1041+009001999GF104991999999999999999999MA1101491999999REMMET051METAR SBLP 141700Z 18004KT 9999 SCT030 32/10 Q1015;
0120832880999992007071418004-13267-043417FM-15+0440SBLP V0202001N002112200019N0112651N1+03201+00901999999ADDGA1041+009001999GF104991999999999999999999MA1101491999999REMMET051METAR SBLP 141800Z 20004KT 9999 SCT030 32/09 Q1015;
0120832880999992007071419004-13267-043417FM-15+0440SBLP V0202001N002112200019N0112651N1+03201+00901999999ADDGA1041+009001999GF104991999999999999999999MA1101491999999REMMET051METAR SBLP 141900Z 20004KT 9999 SCT030 32/09 Q1015;
0072832880999992007071420004-13267-043417FM-15+0440SBLP V0209999C00001220001CN0099001N1+03201+00901999999ADDMA1101491999999REMMET045METAR SBLP 142000Z 00000KT CAVOK 32/09 Q1015;
0120832880999992007071421004-13267-043417FM-15+0440SBLP V0209999C000012200019N0112651N1+02901+01101999999ADDGA1021+009001999GF102991999999999999999999MA1101491999999REMMET051METAR SBLP 142100Z 00000KT 9999 FEW030 29/11 Q1015;
0072832880999992007071510004-13267-043417FM-15+0440SBLP V0201501N00211220001CN0099001N1+01701+01201999999ADDMA1101691999999REMMET045METAR SBLP 151000Z 15004KT CAVOK 17/12 Q1017;
0072832880999992007071511004-13267-043417FM-15+0440SBLP V0201201N00211220001CN0099001N1+01901+01301999999ADDMA1101691999999REMMET045METAR SBLP 151100Z 12004KT CAVOK 19/13 Q1017;
0072832880999992007071512004-13267-043417FM-15+0440SBLP V0209999C00001220001CN0099001N1+02301+01501999999ADDMA1101801999999REMMET045METAR SBLP 151200Z 00000KT CAVOK 23/15 Q1018;
0072832880999992007071513004-13267-043417FM-15+0440SBLP V0201801N00211220001CN0099001N1+02601+01401999999ADDMA1101801999999REMMET045METAR SBLP 151300Z 18004KT CAVOK 26/14 Q1018;
0072832880999992007071514004-13267-043417FM-15+0440SBLP V0209999C00001220001CN0099001N1+02801+01401999999ADDMA1101691999999REMMET045METAR SBLP 151400Z 00000KT CAVOK 28/14 Q1017;
0072832880999992007071515004-13267-043417FM-15+0440SBLP V0201201N00311220001CN0099001N1+03001+01401999999ADDMA1101591999999REMMET045METAR SBLP 151500Z 12006KT CAVOK 30/14 Q1016;
0120832880999992007071516004-13267-043417FM-15+0440SBLP V0209999C000012200019N0112651N1+03101+01401999999ADDGA1021+009001999GF102991999999999999999999MA1101491999999REMMET051METAR SBLP 151600Z 00000KT 9999 FEW030 31/14 Q1015;
0120832880999992007071517004-13267-043417FM-15+0440SBLP V0201201N003112200019N0112651N1+03201+01401999999ADDGA1021+009001999GF102991999999999999999999MA1101391999999REMMET051METAR SBLP 151700Z 12006KT 9999 FEW030 32/14 Q1014;
0120832880999992007071518004-13267-043417FM-15+0440SBLP V0201801N003112200019N0112651N1+03201+01301999999ADDGA1021+009001999GF102991999999999999999999MA1101291999999REMMET051METAR SBLP 151800Z 18006KT 9999 FEW030 32/13 Q1013;
0120832880999992007071519004-13267-043417FM-15+0440SBLP V0201501N003112200019N0112651N1+03301+01301999999ADDGA1021+009001999GF102991999999999999999999MA1101291999999REMMET051METAR SBLP 151900Z 15006KT 9999 FEW030 33/13 Q1013;
0072832880999992007071520004-13267-043417FM-15+0440SBLP V0201801N00311220001CN0099001N1+03101+01401999999ADDMA1101291999999REMMET045METAR SBLP 152000Z 18006KT CAVOK 31/14 Q1013;
0072832880999992007071521004-13267-043417FM-15+0440SBLP V0201801N00311220001CN0099001N1+03101+01401999999ADDMA1101291999999REMMET045METAR SBLP 152100Z 18006KT CAVOK 31/14 Q1013;
0072832880999992007071610004-13267-043417FM-15+0440SBLP V0209999C00001220001CN0099001N1+01701+01201999999ADDMA1101591999999REMMET045METAR SBLP 161000Z 00000KT CAVOK 17/12 Q1016;
0072832880999992007071611004-13267-043417FM-15+0440SBLP V0201501N00311220001CN0099001N1+01901+01301999999ADDMA1101691999999REMMET045METAR SBLP 161100Z 15006KT CAVOK 19/13 Q1017;
0072832880999992007071612004-13267-043417FM-15+0440SBLP V0201801N00211220001CN0099001N1+02401+01401999999ADDMA1101691999999REMMET045METAR SBLP 161200Z 18004KT CAVOK 24/14 Q1017;
0072832880999992007071613004-13267-043417FM-15+0440SBLP V0201801N00311220001CN0099001N1+02601+01501999999ADDMA1101691999999REMMET045METAR SBLP 161300Z 18006KT CAVOK 26/15 Q1017;
0072832880999992007071614004-13267-043417FM-15+0440SBLP V0201501N00311220001CN0099001N1+02801+01501999999ADDMA1101691999999REMMET045METAR SBLP 161400Z 15006KT CAVOK 28/15 Q1017;
0072832880999992007071709094-13267-043417FM-15+0440SBLP V0201501N00151220001CN0099001N1+01801+01501999999ADDMA1101491999999REMMET045METAR SBLP 170909Z 15003KT CAVOK 18/15 Q1015;
0072832880999992007071710004-13267-043417FM-15+0440SBLP V0201201N00151220001CN0099001N1+01801+01401999999ADDMA1101591999999REMMET045METAR SBLP 171000Z 12003KT CAVOK 18/14 Q1016;
0072832880999992007071711004-13267-043417FM-15+0440SBLP V0209999C00001220001CN0099001N1+02001+01501999999ADDMA1101691999999REMMET045METAR SBLP 171100Z 00000KT CAVOK 20/15 Q1017;
0072832880999992007071712004-13267-043417FM-15+0440SBLP V0200301N00211220001CN0099001N1+02501+01501999999ADDMA1101801999999REMMET045METAR SBLP 171200Z 03004KT CAVOK 25/15 Q1018;
0072832880999992007071713004-13267-043417FM-15+0440SBLP V0200301N00211220001CN0099001N1+02801+01501999999ADDMA1101691999999REMMET045METAR SBLP 171300Z 03004KT CAVOK 28/15 Q1017;
0072832880999992007071714004-13267-043417FM-15+0440SBLP V0200901N00151220001CN0099001N1+03101+01401999999ADDMA1101691999999REMMET045METAR SBLP 171400Z 09003KT CAVOK 31/14 Q1017;
0072832880999992007071715004-13267-043417FM-15+0440SBLP V0200901N00151220001CN0099001N1+03101+01401999999ADDMA1101691999999REMMET045METAR SBLP 171500Z 09003KT CAVOK 31/14 Q1017;
0072832880999992007071716004-13267-043417FM-15+0440SBLP V0200901N00151220001CN0099001N1+03101+01401999999ADDMA1101691999999REMMET045METAR SBLP 171600Z 09003KT CAVOK 31/14 Q1017;
0120832880999992007071717004-13267-043417FM-15+0440SBLP V0201801N003112200019N0112651N1+03301+01301999999ADDGA1021+009001999GF102991999999999999999999MA1101391999999REMMET051METAR SBLP 171700Z 18006KT 9999 FEW030 33/13 Q1014;
0120832880999992007071718004-13267-043417FM-15+0440SBLP V0201801N003112200019N0112651N1+03401+01401999999ADDGA1041+009001999GF104991999999999999999999MA1101291999999REMMET051METAR SBLP 171800Z 18006KT 9999 SCT030 34/14 Q1013;
0120832880999992007071719004-13267-043417FM-15+0440SBLP V0201501N003112200019N0112651N1+03301+01301999999ADDGA1021+009001999GF102991999999999999999999MA1101291999999REMMET051METAR SBLP 171900Z 15006KT 9999 FEW030 33/13 Q1013;
0072832880999992007071720004-13267-043417FM-15+0440SBLP V0201501N00311220001CN0099001N1+03001+01501999999ADDMA1101291999999REMMET045METAR SBLP 172000Z 15006KT CAVOK 30/15 Q1013;
0072832880999992007071721004-13267-043417FM-15+0440SBLP V0201501N00311220001CN0099001N1+02801+01601999999ADDMA1101291999999REMMET045METAR SBLP 172100Z 15006KT CAVOK 28/16 Q1013;
0072832880999992007071810004-13267-043417FM-15+0440SBLP V0201601N00311220001CN0099001N1+01901+01801999999ADDMA1101591999999REMMET045METAR SBLP 181000Z 16006KT CAVOK 19/18 Q1016;
0072832880999992007071811004-13267-043417FM-15+0440SBLP V0201801N00211220001CN0099001N1+02101+01501999999ADDMA1101801999999REMMET045METAR SBLP 181100Z 18004KT CAVOK 21/15 Q1018;
0072832880999992007071812004-13267-043417FM-15+0440SBLP V0201801N00211220001CN0099001N1+02101+01501999999ADDMA1101801999999REMMET045METAR SBLP 181200Z 18004KT CAVOK 21/15 Q1018;
0072832880999992007071813004-13267-043417FM-15+0440SBLP V0202601N00311220001CN0099001N1+02701+01501999999ADDMA1101691999999REMMET045METAR SBLP 181300Z 26006KT CAVOK 27/15 Q1017;
0072832880999992007071814004-13267-043417FM-15+0440SBLP V0202401N00311220001CN0099001N1+03001+01401999999ADDMA1101591999999REMMET045METAR SBLP 181400Z 24006KT CAVOK 30/14 Q1016;
0072832880999992007071815004-13267-043417FM-15+0440SBLP V0202101N00311220001CN0099001N1+03001+01301999999ADDMA1101491999999REMMET045METAR SBLP 181500Z 21006KT CAVOK 30/13 Q1015;
0120832880999992007071816004-13267-043417FM-15+0440SBLP V0202701N003112200019N0112651N1+03301+01301999999ADDGA1021+009001999GF102991999999999999999999MA1101391999999REMMET051METAR SBLP 181600Z 27006KT 9999 FEW030 33/13 Q1014;
0120832880999992007071817004-13267-043417FM-15+0440SBLP V0202701N003112200019N0112651N1+03301+01301999999ADDGA1021+009001999GF102991999999999999999999MA1101391999999REMMET051METAR SBLP 181700Z 27006KT 9999 FEW030 33/13 Q1014;
0120832880999992007071819004-13267-043417FM-15+0440SBLP V0202401N003112200019N0112651N1+03501+01301999999ADDGA1021+009001999GF102991999999999999999999MA1101291999999REMMET051METAR SBLP 181900Z 24006KT 9999 FEW030 35/13 Q1013;
0072832880999992007071821004-13267-043417FM-15+0440SBLP V0209999C00001220001CN0099001N1+03101+01401999999ADDMA1101291999999REMMET045METAR SBLP 182100Z 00000KT CAVOK 31/14 Q1013;
0072832880999992007071910004-13267-043417FM-15+0440SBLP V0209999C00001220001CN0099001N1+01901+01401999999ADDMA1101391999999REMMET045METAR SBLP 191000Z 00000KT CAVOK 19/14 Q1014;
0072832880999992007071911004-13267-043417FM-15+0440SBLP V0209999C00001220001CN0099001N1+01901+01401999999ADDMA1101391999999REMMET045METAR SBLP 191100Z 00000KT CAVOK 19/14 Q1014;
0072832880999992007071912004-13267-043417FM-15+0440SBLP V0203001N00411220001CN0099001N1+02601+01501999999ADDMA1101491999999REMMET045METAR SBLP 191200Z 30008KT CAVOK 26/15 Q1015;
0073832880999992007071913004-13267-043417FM-15+0440SBLP V0202701N00311220001CN0099001N1+03001+01701999999ADDMA1101491999999REMMET046METAR SBLP 191300Z 27006KT CAVOK 30/17 Q10153;
0072832880999992007071914004-13267-043417FM-15+0440SBLP V0202701N00311220001CN0099001N1+03101+01601999999ADDMA1101391999999REMMET045METAR SBLP 191400Z 27006KT CAVOK 31/16 Q1014;
0072832880999992007071915004-13267-043417FM-15+0440SBLP V0201501N00211220001CN0099001N1+03301+01601999999ADDMA1101291999999REMMET045METAR SBLP 191500Z 15004KT CAVOK 33/16 Q1013;
0120832880999992007071916004-13267-043417FM-15+0440SBLP V0202701N003112200019N0112651N1+03301+01601999999ADDGA1021+009001999GF102991999999999999999999MA1101191999999REMMET051METAR SBLP 191600Z 27006KT 9999 FEW030 33/16 Q1012;
0120832880999992007071917004-13267-043417FM-15+0440SBLP V0202401N003112200019N0112651N1+03501+01401999999ADDGA1021+009001999GF102991999999999999999999MA1101081999999REMMET051METAR SBLP 191700Z 24006KT 9999 FEW030 35/14 Q1011;
0072832880999992007071918004-13267-043417FM-15+0440SBLP V0202401N00311220001CN0099001N1+03601+01501999999ADDMA1101081999999REMMET045METAR SBLP 191800Z 24006KT CAVOK 36/15 Q1011;
0072832880999992007071919004-13267-043417FM-15+0440SBLP V0201201N00311220001CN0099001N1+03501+01501999999ADDMA1101081999999REMMET045METAR SBLP 191900Z 12006KT CAVOK 35/15 Q1011;
0072832880999992007071920004-13267-043417FM-15+0440SBLP V0201201N00311220001CN0099001N1+03501+01501999999ADDMA1101081999999REMMET045METAR SBLP 192000Z 12006KT CAVOK 35/15 Q1011;
0072832880999992007071921004-13267-043417FM-15+0440SBLP V0209999C00001220001CN0099001N1+03301+01501999999ADDMA1101081999999REMMET045METAR SBLP 192100Z 00000KT CAVOK 33/15 Q1011;
0072832880999992007072010004-13267-043417FM-15+0440SBLP V0209999C00001220001CN0099001N1+01901+01501999999ADDMA1101491999999REMMET045METAR SBLP 201000Z 00000KT CAVOK 19/15 Q1015;
0072832880999992007072011004-13267-043417FM-15+0440SBLP V0209999C00001220001CN0099001N1+02101+01501999999ADDMA1101591999999REMMET045METAR SBLP 201100Z 00000KT CAVOK 21/15 Q1016;
0072832880999992007072012004-13267-043417FM-15+0440SBLP V0209999C00001220001CN0099001N1+02601+01501999999ADDMA1101691999999REMMET045METAR SBLP 201200Z 00000KT CAVOK 26/15 Q1017;
0072832880999992007072013004-13267-043417FM-15+0440SBLP V0200301N00311220001CN0099001N1+03101+01401999999ADDMA1101691999999REMMET045METAR SBLP 201300Z 03006KT CAVOK 31/14 Q1017;
0072832880999992007072015004-13267-043417FM-15+0440SBLP V0200301N00311220001CN0099001N1+03301+01301999999ADDMA1101591999999REMMET045METAR SBLP 201500Z 03006KT CAVOK 33/13 Q1016;
0120832880999992007072016004-13267-043417FM-15+0440SBLP V0203301N004112200019N0112651N1+03301+01601999999ADDGA1041+009001999GF104991999999999999999999MA1101491999999REMMET051METAR SBLP 201600Z 33008KT 9999 SCT030 33/16 Q1015;
0120832880999992007072017004-13267-043417FM-15+0440SBLP V0200801N003112200019N0112651N1+03401+01501999999ADDGA1041+009001999GF104991999999999999999999MA1101391999999REMMET051METAR SBLP 201700Z 08006KT 9999 SCT030 34/15 Q1014;
0120832880999992007072018004-13267-043417FM-15+0440SBLP V0200401N004112200019N0112651N1+03301+01601999999ADDGA1041+009001999GF104991999999999999999999MA1101391999999REMMET051METAR SBLP 201800Z 04008KT 9999 SCT030 33/16 Q1014;
0120832880999992007072019004-13267-043417FM-15+0440SBLP V0200401N002112200019N0112651N1+03401+01401999999ADDGA1021+009001999GF102991999999999999999999MA1101391999999REMMET051METAR SBLP 201900Z 04004KT 9999 FEW030 34/14 Q1014;
0072832880999992007072021004-13267-043417FM-15+0440SBLP V0200701N00311220001CN0099001N1+03101+01501999999ADDMA1101491999999REMMET045METAR SBLP 202100Z 07006KT CAVOK 31/15 Q1015;
0072832880999992007072110004-13267-043417FM-15+0440SBLP V0209999C00001220001CN0099001N1+01901+01701999999ADDMA1101801999999REMMET045METAR SBLP 211000Z 00000KT CAVOK 19/17 Q1018;
0072832880999992007072112004-13267-043417FM-15+0440SBLP V0200301N00311220001CN0099001N1+02601+01501999999ADDMA1101901999999REMMET045METAR SBLP 211200Z 03006KT CAVOK 26/15 Q1019;
0072832880999992007072113004-13267-043417FM-15+0440SBLP V0200301N00211220001CN0099001N1+02801+01501999999ADDMA1101901999999REMMET045METAR SBLP 211300Z 03004KT CAVOK 28/15 Q1019;
0072832880999992007072114004-13267-043417FM-15+0440SBLP V0200901N00211220001CN0099001N1+03001+01501999999ADDMA1101801999999REMMET045METAR SBLP 211400Z 09004KT CAVOK 30/15 Q1018;
0120832880999992007072116004-13267-043417FM-15+0440SBLP V0200901N003112200019N0112651N1+03301+01201999999ADDGA1021+009001999GF102991999999999999999999MA1101591999999REMMET051METAR SBLP 211600Z 09006KT 9999 FEW030 33/12 Q1016;
0120832880999992007072117004-13267-043417FM-15+0440SBLP V0200901N003112200019N0112651N1+03201+01301999999ADDGA1021+009001999GF102991999999999999999999MA1101491999999REMMET051METAR SBLP 211700Z 09006KT 9999 FEW030 32/13 Q1015;
0120832880999992007072118004-13267-043417FM-15+0440SBLP V0201801N003112200019N0112651N1+03401+01301999999ADDGA1021+009001999GF102991999999999999999999MA1101391999999REMMET051METAR SBLP 211800Z 18006KT 9999 FEW030 34/13 Q1014;
0120832880999992007072119004-13267-043417FM-15+0440SBLP V0201501N003112200019N0112651N1+03301+01301999999ADDGA1021+009001999GF102991999999999999999999MA1101391999999REMMET051METAR SBLP 211900Z 15006KT 9999 FEW030 33/13 Q1014;
0072832880999992007072120004-13267-043417FM-15+0440SBLP V0201801N00311220001CN0099001N1+03201+01401999999ADDMA1101391999999REMMET045METAR SBLP 212000Z 18006KT CAVOK 32/14 Q1014;
0072832880999992007072121004-13267-043417FM-15+0440SBLP V0201201N00311220001CN0099001N1+03001+01501999999ADDMA1101391999999REMMET045METAR SBLP 212100Z 12006KT CAVOK 30/15 Q1014;
0072832880999992007072210004-13267-043417FM-15+0440SBLP V0209999C00001220001CN0099001N1+01801+01501999999ADDMA1101691999999REMMET045METAR SBLP 221000Z 00000KT CAVOK 18/15 Q1017;
0072832880999992007072211004-13267-043417FM-15+0440SBLP V0200301N00311220001CN0099001N1+02301+01401999999ADDMA1101691999999REMMET045METAR SBLP 221100Z 03006KT CAVOK 23/14 Q1017;
0072832880999992007072212004-13267-043417FM-15+0440SBLP V0200301N00511220001CN0099001N1+02601+01401999999ADDMA1101801999999REMMET045METAR SBLP 221200Z 03010KT CAVOK 26/14 Q1018;
0072832880999992007072213004-13267-043417FM-15+0440SBLP V0203501N00311220001CN0099001N1+02901+01401999999ADDMA1101801999999REMMET045METAR SBLP 221300Z 35006KT CAVOK 29/14 Q1018;
0072832880999992007072214004-13267-043417FM-15+0440SBLP V0203201N00311220001CN0099001N1+03001+01201999999ADDMA1101691999999REMMET045METAR SBLP 221400Z 32006KT CAVOK 30/12 Q1017;
0072832880999992007072215004-13267-043417FM-15+0440SBLP V0201601N00211220001CN0099001N1+03101+01301999999ADDMA1101591999999REMMET045METAR SBLP 221500Z 16004KT CAVOK 31/13 Q1016;
0072832880999992007072216004-13267-043417FM-15+0440SBLP V0200301N00311220001CN0099001N1+03201+01301999999ADDMA1101491999999REMMET045METAR SBLP 221600Z 03006KT CAVOK 32/13 Q1015;
0072832880999992007072217004-13267-043417FM-15+0440SBLP V0209999C00001220001CN0099001N1+03301+01301999999ADDMA1101391999999REMMET045METAR SBLP 221700Z 00000KT CAVOK 33/13 Q1014;
0072832880999992007072218004-13267-043417FM-15+0440SBLP V0201501N00311220001CN0099001N1+03301+01301999999ADDMA1101291999999REMMET045METAR SBLP 221800Z 15006KT CAVOK 33/13 Q1013;
0072832880999992007072219004-13267-043417FM-15+0440SBLP V0201501N00311220001CN0099001N1+03301+01301999999ADDMA1101291999999REMMET045METAR SBLP 221900Z 15006KT CAVOK 33/13 Q1013;
0072832880999992007072220004-13267-043417FM-15+0440SBLP V0209999C00001220001CN0099001N1+03201+01301999999ADDMA1101291999999REMMET045METAR SBLP 222000Z 00000KT CAVOK 32/13 Q1013;
0072832880999992007072221004-13267-043417FM-15+0440SBLP V0209999C00001220001CN0099001N1+03001+01501999999ADDMA1101291999999REMMET045METAR SBLP 222100Z 00000KT CAVOK 30/15 Q1013;
0072832880999992007072311004-13267-043417FM-15+0440SBLP V0209999C00001220001CN0099001N1+01901+01401999999ADDMA1101691999999REMMET045METAR SBLP 231100Z 00000KT CAVOK 19/14 Q1017;
0072832880999992007072312004-13267-043417FM-15+0440SBLP V0201801N00211220001CN0099001N1+02401+01501999999ADDMA1101691999999REMMET045METAR SBLP 231200Z 18004KT CAVOK 24/15 Q1017;
0072832880999992007072313004-13267-043417FM-15+0440SBLP V0202101N00211220001CN0099001N1+02701+01401999999ADDMA1101691999999REMMET045METAR SBLP 231300Z 21004KT CAVOK 27/14 Q1017;
0072832880999992007072314004-13267-043417FM-15+0440SBLP V0209999C00001220001CN0099001N1+03001+01401999999ADDMA1101591999999REMMET045METAR SBLP 231400Z 00000KT CAVOK 30/14 Q1016;
0072832880999992007072315004-13267-043417FM-15+0440SBLP V0202701N00151220001CN0099001N1+03201+01201999999ADDMA1101491999999REMMET045METAR SBLP 231500Z 27003KT CAVOK 32/12 Q1015;
0072832880999992007072316004-13267-043417FM-15+0440SBLP V0201801N00311220001CN0099001N1+03301+01201999999ADDMA1101391999999REMMET045METAR SBLP 231600Z 18006KT CAVOK 33/12 Q1014;
0072832880999992007072317004-13267-043417FM-15+0440SBLP V0201201N00311220001CN0099001N1+03301+01201999999ADDMA1101291999999REMMET045METAR SBLP 231700Z 12006KT CAVOK 33/12 Q1013;
0072832880999992007072318004-13267-043417FM-15+0440SBLP V0201801N00311220001CN0099001N1+03401+01201999999ADDMA1101191999999REMMET045METAR SBLP 231800Z 18006KT CAVOK 34/12 Q1012;
0072832880999992007072319004-13267-043417FM-15+0440SBLP V0201801N00311220001CN0099001N1+03401+01201999999ADDMA1101191999999REMMET045METAR SBLP 231900Z 18006KT CAVOK 34/12 Q1012;
0072832880999992007072320004-13267-043417FM-15+0440SBLP V0201801N00311220001CN0099001N1+03401+01201999999ADDMA1101191999999REMMET045METAR SBLP 232000Z 18006KT CAVOK 34/12 Q1012;
0072832880999992007072321004-13267-043417FM-15+0440SBLP V0201801N00311220001CN0099001N1+03401+01201999999ADDMA1101191999999REMMET045METAR SBLP 232100Z 18006KT CAVOK 34/12 Q1012;
0072832880999992007072410004-13267-043417FM-15+0440SBLP V0209999C00001220001CN0099001N1+01801+01301999999ADDMA1101591999999REMMET045METAR SBLP 241000Z 00000KT CAVOK 18/13 Q1016;
0072832880999992007072411004-13267-043417FM-15+0440SBLP V0209999C00001220001CN0099001N1+02001+01201999999ADDMA1101691999999REMMET045METAR SBLP 241100Z 00000KT CAVOK 20/12 Q1017;
0072832880999992007072413004-13267-043417FM-15+0440SBLP V0202701N00211220001CN0099001N1+02801+01401999999ADDMA1101691999999REMMET045METAR SBLP 241300Z 27004KT CAVOK 28/14 Q1017;
0072832880999992007072414004-13267-043417FM-15+0440SBLP V0202101N00311220001CN0099001N1+03001+01501999999ADDMA1101591999999REMMET045METAR SBLP 241400Z 21006KT CAVOK 30/15 Q1016;
0072832880999992007072415004-13267-043417FM-15+0440SBLP V0202101N00311220001CN0099001N1+03001+01501999999ADDMA1101591999999REMMET045METAR SBLP 241500Z 21006KT CAVOK 30/15 Q1016;
0072832880999992007072416004-13267-043417FM-15+0440SBLP V0201801N00311220001CN0099001N1+03401+01101999999ADDMA1101391999999REMMET045METAR SBLP 241600Z 18006KT CAVOK 34/11 Q1014;
0072832880999992007072417004-13267-043417FM-15+0440SBLP V0202101N00411220001CN0099001N1+03401+00901999999ADDMA1101191999999REMMET045METAR SBLP 241700Z 21008KT CAVOK 34/09 Q1012;
0072832880999992007072418004-13267-043417FM-15+0440SBLP V0202101N00411220001CN0099001N1+03501+00801999999ADDMA1101191999999REMMET045METAR SBLP 241800Z 21008KT CAVOK 35/08 Q1012;
0072832880999992007072419004-13267-043417FM-15+0440SBLP V0201801N00311220001CN0099001N1+03501+00801999999ADDMA1101081999999REMMET045METAR SBLP 241900Z 18006KT CAVOK 35/08 Q1011;
0072832880999992007072420004-13267-043417FM-15+0440SBLP V0201301N00211220001CN0099001N1+03401+00901999999ADDMA1101191999999REMMET045METAR SBLP 242000Z 13004KT CAVOK 34/09 Q1012;
0072832880999992007072421004-13267-043417FM-15+0440SBLP V0209999C00001220001CN0099001N1+03101+01101999999ADDMA1101191999999REMMET045METAR SBLP 242100Z 00000KT CAVOK 31/11 Q1012;
0072832880999992007072510004-13267-043417FM-15+0440SBLP V0209999C00001220001CN0099001N1+01601+01201999999ADDMA1101691999999REMMET045METAR SBLP 251000Z 00000KT CAVOK 16/12 Q1017;
0072832880999992007072511004-13267-043417FM-15+0440SBLP V0209999C00001220001CN0099001N1+02001+01301999999ADDMA1101801999999REMMET045METAR SBLP 251100Z 00000KT CAVOK 20/13 Q1018;
0072832880999992007072512004-13267-043417FM-15+0440SBLP V0209999C00001220001CN0099001N1+02601+01201999999ADDMA1101801999999REMMET045METAR SBLP 251200Z 00000KT CAVOK 26/12 Q1018;
0072832880999992007072513004-13267-043417FM-15+0440SBLP V0209999C00001220001CN0099001N1+02601+01201999999ADDMA1101801999999REMMET045METAR SBLP 251300Z 00000KT CAVOK 26/12 Q1018;
0072832880999992007072515004-13267-043417FM-15+0440SBLP V0202101N00311220001CN0099001N1+03101+01401999999ADDMA1101591999999REMMET045METAR SBLP 251500Z 21006KT CAVOK 31/14 Q1016;
0072832880999992007072517004-13267-043417FM-15+0440SBLP V0201501N00411220001CN0099001N1+03401+01001999999ADDMA1101391999999REMMET045METAR SBLP 251700Z 15008KT CAVOK 34/10 Q1014;
0072832880999992007072518004-13267-043417FM-15+0440SBLP V0201401N00311220001CN0099001N1+03401+00801999999ADDMA1101391999999REMMET045METAR SBLP 251800Z 14006KT CAVOK 34/08 Q1014;
0072832880999992007072519004-13267-043417FM-15+0440SBLP V0202101N00211220001CN0099001N1+03401+00801999999ADDMA1101391999999REMMET045METAR SBLP 251900Z 21004KT CAVOK 34/08 Q1014;
0072832880999992007072520004-13267-043417FM-15+0440SBLP V0201501N00211220001CN0099001N1+03301+00901999999ADDMA1101391999999REMMET045METAR SBLP 252000Z 15004KT CAVOK 33/09 Q1014;
0072832880999992007072521004-13267-043417FM-15+0440SBLP V0209999C00001220001CN0099001N1+03001+01201999999ADDMA1101491999999REMMET045METAR SBLP 252100Z 00000KT CAVOK 30/12 Q1015;
0072832880999992007072610004-13267-043417FM-15+0440SBLP V0209999C00001220001CN0099001N1+01701+01401999999ADDMA1101691999999REMMET045METAR SBLP 261000Z 00000KT CAVOK 17/14 Q1017;
0072832880999992007072611004-13267-043417FM-15+0440SBLP V0209999C00001220001CN0099001N1+02001+01401999999ADDMA1101901999999REMMET045METAR SBLP 261100Z 00000KT CAVOK 20/14 Q1019;
0072832880999992007072612004-13267-043417FM-15+0440SBLP V0209999C00001220001CN0099001N1+02001+01401999999ADDMA1101901999999REMMET045METAR SBLP 261200Z 00000KT CAVOK 20/14 Q1019;
0072832880999992007072613004-13267-043417FM-15+0440SBLP V0201201N00211220001CN0099001N1+02701+01401999999ADDMA1101901999999REMMET045METAR SBLP 261300Z 12004KT CAVOK 27/14 Q1019;
0072832880999992007072614004-13267-043417FM-15+0440SBLP V0201201N00211220001CN0099001N1+02901+01401999999ADDMA1101901999999REMMET045METAR SBLP 261400Z 12004KT CAVOK 29/14 Q1019;
0072832880999992007072615004-13267-043417FM-15+0440SBLP V0201501N00311220001CN0099001N1+03001+01501999999ADDMA1101801999999REMMET045METAR SBLP 261500Z 15006KT CAVOK 30/15 Q1018;
0072832880999992007072616004-13267-043417FM-15+0440SBLP V0201801N00311220001CN0099001N1+03101+01401999999ADDMA1101591999999REMMET045METAR SBLP 261600Z 18006KT CAVOK 31/14 Q1016;
0072832880999992007072617004-13267-043417FM-15+0440SBLP V0202101N00311220001CN0099001N1+03201+01301999999ADDMA1101491999999REMMET045METAR SBLP 261700Z 21006KT CAVOK 32/13 Q1015;
0072832880999992007072618004-13267-043417FM-15+0440SBLP V0201801N00311220001CN0099001N1+03401+01201999999ADDMA1101391999999REMMET045METAR SBLP 261800Z 18006KT CAVOK 34/12 Q1014;
0072832880999992007072619004-13267-043417FM-15+0440SBLP V0201801N00311220001CN0099001N1+03501+01201999999ADDMA1101291999999REMMET045METAR SBLP 261900Z 18006KT CAVOK 35/12 Q1013;
0072832880999992007072620004-13267-043417FM-15+0440SBLP V0201501N00311220001CN0099001N1+03201+01301999999ADDMA1101391999999REMMET045METAR SBLP 262000Z 15006KT CAVOK 32/13 Q1014;
0072832880999992007072621004-13267-043417FM-15+0440SBLP V0209999C00001220001CN0099001N1+03001+01501999999ADDMA1101391999999REMMET045METAR SBLP 262100Z 00000KT CAVOK 30/15 Q1014;
0072832880999992007072710004-13267-043417FM-15+0440SBLP V0201501N00311220001CN0099001N1+01801+01301999999ADDMA1101801999999REMMET045METAR SBLP 271000Z 15006KT CAVOK 18/13 Q1018;
0072832880999992007072711004-13267-043417FM-15+0440SBLP V0209999C00001220001CN0099001N1+02101+01301999999ADDMA1101901999999REMMET045METAR SBLP 271100Z 00000KT CAVOK 21/13 Q1019;
0072832880999992007072712004-13267-043417FM-15+0440SBLP V0200301N00311220001CN0099001N1+02701+01501999999ADDMA1101901999999REMMET045METAR SBLP 271200Z 03006KT CAVOK 27/15 Q1019;
0072832880999992007072713004-13267-043417FM-15+0440SBLP V0203601N00311220001CN0099001N1+02901+01401999999ADDMA1101901999999REMMET045METAR SBLP 271300Z 36006KT CAVOK 29/14 Q1019;
0072832880999992007072714004-13267-043417FM-15+0440SBLP V0200301N00311220001CN0099001N1+02701+01501999999ADDMA1101901999999REMMET045METAR SBLP 271400Z 03006KT CAVOK 27/15 Q1019;
0072832880999992007072718004-13267-043417FM-15+0440SBLP V0201201N00211220001CN0099001N1+03401+01001999999ADDMA1101391999999REMMET045METAR SBLP 271800Z 12004KT CAVOK 34/10 Q1014;
0072832880999992007072719004-13267-043417FM-15+0440SBLP V0200301N00211220001CN0099001N1+03501+00701999999ADDMA1101291999999REMMET045METAR SBLP 271900Z 03004KT CAVOK 35/07 Q1013;
0072832880999992007072720004-13267-043417FM-15+0440SBLP V0200401N00311220001CN0099001N1+03401+01001999999ADDMA1101391999999REMMET045METAR SBLP 272000Z 04006KT CAVOK 34/10 Q1014;
0072832880999992007072721004-13267-043417FM-15+0440SBLP V0200801N00311220001CN0099001N1+03101+00701999999ADDMA1101391999999REMMET045METAR SBLP 272100Z 08006KT CAVOK 31/07 Q1014;
0072832880999992007072810004-13267-043417FM-15+0440SBLP V0201201N00211220001CN0099001N1+01801+01601999999ADDMA1101901999999REMMET045METAR SBLP 281000Z 12004KT CAVOK 18/16 Q1019;
0072832880999992007072811004-13267-043417FM-15+0440SBLP V0201201N00311220001CN0099001N1+02201+01601999999ADDMA1102001999999REMMET045METAR SBLP 281100Z 12006KT CAVOK 22/16 Q1020;
0072832880999992007072812004-13267-043417FM-15+0440SBLP V0200301N00511220001CN0099001N1+02601+01501999999ADDMA1102001999999REMMET045METAR SBLP 281200Z 03010KT CAVOK 26/15 Q1020;
0072832880999992007072813004-13267-043417FM-15+0440SBLP V0200601N00211220001CN0099001N1+02801+01501999999ADDMA1102001999999REMMET045METAR SBLP 281300Z 06004KT CAVOK 28/15 Q1020;
0072832880999992007072814004-13267-043417FM-15+0440SBLP V0201201N00511220001CN0099001N1+02901+01401999999ADDMA1101901999999REMMET045METAR SBLP 281400Z 12010KT CAVOK 29/14 Q1019;
0072832880999992007072815004-13267-043417FM-15+0440SBLP V0201201N00511220001CN0099001N1+03001+01201999999ADDMA1101901999999REMMET045METAR SBLP 281500Z 12010KT CAVOK 30/12 Q1019;
0072832880999992007072816004-13267-043417FM-15+0440SBLP V0200901N00311220001CN0099001N1+03201+01301999999ADDMA1101691999999REMMET045METAR SBLP 281600Z 09006KT CAVOK 32/13 Q1017;
0072832880999992007072817004-13267-043417FM-15+0440SBLP V0203601N00311220001CN0099001N1+03301+01301999999ADDMA1101591999999REMMET045METAR SBLP 281700Z 36006KT CAVOK 33/13 Q1016;
0072832880999992007072818004-13267-043417FM-15+0440SBLP V0200601N00311220001CN0099001N1+03301+01301999999ADDMA1101491999999REMMET045METAR SBLP 281800Z 06006KT CAVOK 33/13 Q1015;
0072832880999992007072819004-13267-043417FM-15+0440SBLP V0200601N00311220001CN0099001N1+03201+01301999999ADDMA1101491999999REMMET045METAR SBLP 281900Z 06006KT CAVOK 32/13 Q1015;
0072832880999992007072820004-13267-043417FM-15+0440SBLP V0200901N00411220001CN0099001N1+03001+01401999999ADDMA1101491999999REMMET045METAR SBLP 282000Z 09008KT CAVOK 30/14 Q1015;
0072832880999992007072821004-13267-043417FM-15+0440SBLP V0200901N00311220001CN0099001N1+02901+01501999999ADDMA1101591999999REMMET045METAR SBLP 282100Z 09006KT CAVOK 29/15 Q1016;
0072832880999992007072910004-13267-043417FM-15+0440SBLP V0200901N00311220001CN0099001N1+01801+01401999999ADDMA1102001999999REMMET045METAR SBLP 291000Z 09006KT CAVOK 18/14 Q1020;
0072832880999992007072911004-13267-043417FM-15+0440SBLP V0200901N00311220001CN0099001N1+01801+01401999999ADDMA1102001999999REMMET045METAR SBLP 291100Z 09006KT CAVOK 18/14 Q1020;
0072832880999992007072912004-13267-043417FM-15+0440SBLP V0200601N00411220001CN0099001N1+02501+01501999999ADDMA1102201999999REMMET045METAR SBLP 291200Z 06008KT CAVOK 25/15 Q1022;
0120832880999992007072913004-13267-043417FM-15+0440SBLP V0200901N003112200019N0112651N1+02701+01501999999ADDGA1021+009001999GF102991999999999999999999MA1102101999999REMMET051METAR SBLP 291300Z 09006KT 9999 FEW030 27/15 Q1021;
0120832880999992007072914004-13267-043417FM-15+0440SBLP V0200301N003112200019N0112651N1+02901+01501999999ADDGA1021+009001999GF102991999999999999999999MA1102001999999REMMET051METAR SBLP 291400Z 03006KT 9999 FEW030 29/15 Q1020;
0120832880999992007072915004-13267-043417FM-15+0440SBLP V0200601N003112200019N0112651N1+03101+01501999999ADDGA1021+009001999GF102991999999999999999999MA1101901999999REMMET051METAR SBLP 291500Z 06006KT 9999 FEW030 31/15 Q1019;
0120832880999992007072916004-13267-043417FM-15+0440SBLP V0200901N003112200019N0112651N1+03101+01401999999ADDGA1021+009001999GF102991999999999999999999MA1101801999999REMMET051METAR SBLP 291600Z 09006KT 9999 FEW030 31/14 Q1018;
0120832880999992007072917004-13267-043417FM-15+0440SBLP V0200901N003112200019N0112651N1+03301+01401999999ADDGA1041+009001999GF104991999999999999999999MA1101591999999REMMET051METAR SBLP 291700Z 09006KT 9999 SCT030 33/14 Q1016;
0120832880999992007072918004-13267-043417FM-15+0440SBLP V0200901N003112200019N0112651N1+03301+01301999999ADDGA1041+009001999GF104991999999999999999999MA1101491999999REMMET051METAR SBLP 291800Z 09006KT 9999 SCT030 33/13 Q1015;
0120832880999992007072919004-13267-043417FM-15+0440SBLP V0200901N003112200019N0112651N1+03301+01401999999ADDGA1041+009001999GF104991999999999999999999MA1101491999999REMMET051METAR SBLP 291900Z 09006KT 9999 SCT030 33/14 Q1015;
0120832880999992007072920004-13267-043417FM-15+0440SBLP V0200901N003112200019N0112651N1+03101+01401999999ADDGA1021+009001999GF102991999999999999999999MA1101491999999REMMET051METAR SBLP 292000Z 09006KT 9999 FEW030 31/14 Q1015;
0120832880999992007072921004-13267-043417FM-15+0440SBLP V0200901N003112200019N0112651N1+02901+01501999999ADDGA1021+009001999GF102991999999999999999999MA1101591999999REMMET051METAR SBLP 292100Z 09006KT 9999 FEW030 29/15 Q1016;
0072832880999992007073010004-13267-043417FM-15+0440SBLP V0201201N00311220001CN0099001N1+01501+01501999999ADDMA1102101999999REMMET045METAR SBLP 301000Z 12006KT CAVOK 15/15 Q1021;
0072832880999992007073011004-13267-043417FM-15+0440SBLP V0201201N00311220001CN0099001N1+02001+01401999999ADDMA1102101999999REMMET045METAR SBLP 301100Z 12006KT CAVOK 20/14 Q1021;
0072832880999992007073012004-13267-043417FM-15+0440SBLP V0201201N00311220001CN0099001N1+02301+01301999999ADDMA1102201999999REMMET045METAR SBLP 301200Z 12006KT CAVOK 23/13 Q1022;
0072832880999992007073013004-13267-043417FM-15+0440SBLP V0209999999999220001CN0099001N1+02601+01201999999ADDMA1102201999999REMMET045METAR SBLP 301300Z /////KT CAVOK 26/12 Q1022;
0072832880999992007073014004-13267-043417FM-15+0440SBLP V0209999999999220001CN0099001N1+02801+01401999999ADDMA1102101999999REMMET045METAR SBLP 301400Z /////KT CAVOK 28/14 Q1021;
0072832880999992007073015004-13267-043417FM-15+0440SBLP V0209999999999220001CN0099001N1+02801+01401999999ADDMA1102101999999REMMET045METAR SBLP 301500Z /////KT CAVOK 28/14 Q1021;
0072832880999992007073016004-13267-043417FM-15+0440SBLP V0209999999999220001CN0099001N1+03101+01401999999ADDMA1101901999999REMMET045METAR SBLP 301600Z /////KT CAVOK 31/14 Q1019;
0072832880999992007073017004-13267-043417FM-15+0440SBLP V0209999999999220001CN0099001N1+03101+01401999999ADDMA1101691999999REMMET045METAR SBLP 301700Z /////KT CAVOK 31/14 Q1017;
0072832880999992007073018004-13267-043417FM-15+0440SBLP V0209999999999220001CN0099001N1+03201+01401999999ADDMA1101691999999REMMET045METAR SBLP 301800Z /////KT CAVOK 32/14 Q1017;
0072832880999992007073019004-13267-043417FM-15+0440SBLP V0209999999999220001CN0099001N1+03201+01401999999ADDMA1101691999999REMMET045METAR SBLP 301900Z /////KT CAVOK 32/14 Q1017;
0072832880999992007073020004-13267-043417FM-15+0440SBLP V0209999999999220001CN0099001N1+03001+01501999999ADDMA1101691999999REMMET045METAR SBLP 302000Z /////KT CAVOK 30/15 Q1017;
0072832880999992007073021004-13267-043417FM-15+0440SBLP V0209999999999220001CN0099001N1+02801+01501999999ADDMA1101691999999REMMET045METAR SBLP 302100Z /////KT CAVOK 28/15 Q1017;
0072832880999992007073110004-13267-043417FM-15+0440SBLP V0201501N00311220001CN0099001N1+01701+01401999999ADDMA1102001999999REMMET045METAR SBLP 311000Z 15006KT CAVOK 17/14 Q1020;
0072832880999992007073111004-13267-043417FM-15+0440SBLP V0201501N00311220001CN0099001N1+01901+01401999999ADDMA1102101999999REMMET045METAR SBLP 311100Z 15006KT CAVOK 19/14 Q1021;
0072832880999992007073112004-13267-043417FM-15+0440SBLP V0201801N00311220001CN0099001N1+02101+01401999999ADDMA1102201999999REMMET045METAR SBLP 311200Z 18006KT CAVOK 21/14 Q1022;
0072832880999992007073113004-13267-043417FM-15+0440SBLP V0201801N00311220001CN0099001N1+02401+01401999999ADDMA1102201999999REMMET045METAR SBLP 311300Z 18006KT CAVOK 24/14 Q1022;
0072832880999992007073114004-13267-043417FM-15+0440SBLP V0201801N00311220001CN0099001N1+02701+01401999999ADDMA1102101999999REMMET045METAR SBLP 311400Z 18006KT CAVOK 27/14 Q1021;
0072832880999992007073115004-13267-043417FM-15+0440SBLP V0201801N00311220001CN0099001N1+02801+01401999999ADDMA1102001999999REMMET045METAR SBLP 311500Z 18006KT CAVOK 28/14 Q1020;
0072832880999992007073116004-13267-043417FM-15+0440SBLP V0201501N00411220001CN0099001N1+02801+00901999999ADDMA1101901999999REMMET045METAR SBLP 311600Z 15008KT CAVOK 28/09 Q1019;
0072832880999992007073117004-13267-043417FM-15+0440SBLP V0201501N00411220001CN0099001N1+02901+01001999999ADDMA1101691999999REMMET045METAR SBLP 311700Z 15008KT CAVOK 29/10 Q1017;
0072832880999992007073118004-13267-043417FM-15+0440SBLP V0201301N00511220001CN0099001N1+02901+01001999999ADDMA1101691999999REMMET045METAR SBLP 311800Z 13010KT CAVOK 29/10 Q1017;
0072832880999992007073119004-13267-043417FM-15+0440SBLP V0201101N00411220001CN0099001N1+02901+00901999999ADDMA1101591999999REMMET045METAR SBLP 311900Z 11008KT CAVOK 29/09 Q1016;
0072832880999992007073120004-13267-043417FM-15+0440SBLP V0201501N00311220001CN0099001N1+02801+00701999999ADDMA1101591999999REMMET045METAR SBLP 312000Z 15006KT CAVOK 28/07 Q1016;
0072832880999992007073121004-13267-043417FM-15+0440SBLP V0201301N00311220001CN0099001N1+02601+00901999999ADDMA1101591999999REMMET045METAR SBLP 312100Z 13006KT CAVOK 26/09 Q1016;
0072832880999992007080109094-13267-043417FM-15+0440SBLP V0201201N00211220001CN0099001N1+01401+01101999999ADDMA1101901999999REMMET045METAR SBLP 010909Z 12004KT CAVOK 14/11 Q1019;
0072832880999992007080110004-13267-043417FM-15+0440SBLP V0201201N00211220001CN0099001N1+01401+01101999999ADDMA1102001999999REMMET045METAR SBLP 011000Z 12004KT CAVOK 14/11 Q1020;
0072832880999992007080111004-13267-043417FM-15+0440SBLP V0201201N00311220001CN0099001N1+01901+01301999999ADDMA1102101999999REMMET045METAR SBLP 011100Z 12006KT CAVOK 19/13 Q1021;
0072832880999992007080112004-13267-043417FM-15+0440SBLP V0202101N00211220001CN0099001N1+02201+01201999999ADDMA1102101999999REMMET045METAR SBLP 011200Z 21004KT CAVOK 22/12 Q1021;
0072832880999992007080113004-13267-043417FM-15+0440SBLP V0201201N00311220001CN0099001N1+02401+01301999999ADDMA1102101999999REMMET045METAR SBLP 011300Z 12006KT CAVOK 24/13 Q1021;
0072832880999992007080114004-13267-043417FM-15+0440SBLP V0201301N00211220001CN0099001N1+02701+01201999999ADDMA1102101999999REMMET045METAR SBLP 011400Z 13004KT CAVOK 27/12 Q1021;
0072832880999992007080115004-13267-043417FM-15+0440SBLP V0201401N00411220001CN0099001N1+02901+01001999999ADDMA1102001999999REMMET045METAR SBLP 011500Z 14008KT CAVOK 29/10 Q1020;
0072832880999992007080116004-13267-043417FM-15+0440SBLP V0200901N00311220001CN0099001N1+03001+01001999999ADDMA1101801999999REMMET045METAR SBLP 011600Z 09006KT CAVOK 30/10 Q1018;
0072832880999992007080117004-13267-043417FM-15+0440SBLP V0200901N00211220001CN0099001N1+03101+00901999999ADDMA1101691999999REMMET045METAR SBLP 011700Z 09004KT CAVOK 31/09 Q1017;
0072832880999992007080118004-13267-043417FM-15+0440SBLP V0201801N00311220001CN0099001N1+03201+00901999999ADDMA1101591999999REMMET045METAR SBLP 011800Z 18006KT CAVOK 32/09 Q1016;
0072832880999992007080119004-13267-043417FM-15+0440SBLP V0201801N00311220001CN0099001N1+03201+00901999999ADDMA1101591999999REMMET045METAR SBLP 011900Z 18006KT CAVOK 32/09 Q1016;
0072832880999992007080120004-13267-043417FM-15+0440SBLP V0201501N00311220001CN0099001N1+03001+01101999999ADDMA1101591999999REMMET045METAR SBLP 012000Z 15006KT CAVOK 30/11 Q1016;
0072832880999992007080121004-13267-043417FM-15+0440SBLP V0201201N00311220001CN0099001N1+02601+01301999999ADDMA1101591999999REMMET045METAR SBLP 012100Z 12006KT CAVOK 26/13 Q1016;
0072832880999992007080210004-13267-043417FM-15+0440SBLP V0200901N00151220001CN0099001N1+01501+01301999999ADDMA1102001999999REMMET045METAR SBLP 021000Z 09003KT CAVOK 15/13 Q1020;
0072832880999992007080211004-13267-043417FM-15+0440SBLP V0201301N00101220001CN0099001N1+01801+01301999999ADDMA1102101999999REMMET045METAR SBLP 021100Z 13002KT CAVOK 18/13 Q1021;
0072832880999992007080212004-13267-043417FM-15+0440SBLP V0201501N00211220001CN0099001N1+02201+01201999999ADDMA1102101999999REMMET045METAR SBLP 021200Z 15004KT CAVOK 22/12 Q1021;
0072832880999992007080213004-13267-043417FM-15+0440SBLP V0202101N00411220001CN0099001N1+02501+01201999999ADDMA1102201999999REMMET045METAR SBLP 021300Z 21008KT CAVOK 25/12 Q1022;
0072832880999992007080214004-13267-043417FM-15+0440SBLP V0203301N00211220001CN0099001N1+02701+01101999999ADDMA1102101999999REMMET045METAR SBLP 021400Z 33004KT CAVOK 27/11 Q1021;
0072832880999992007080215004-13267-043417FM-15+0440SBLP V0200601N00211220001CN0099001N1+02801+01301999999ADDMA1102001999999REMMET045METAR SBLP 021500Z 06004KT CAVOK 28/13 Q1020;
0072832880999992007080216004-13267-043417FM-15+0440SBLP V0203601N00311220001CN0099001N1+02801+01301999999ADDMA1101901999999REMMET045METAR SBLP 021600Z 36006KT CAVOK 28/13 Q1019;
0072832880999992007080217004-13267-043417FM-15+0440SBLP V0200301N00311220001CN0099001N1+02901+01201999999ADDMA1101801999999REMMET045METAR SBLP 021700Z 03006KT CAVOK 29/12 Q1018;
0072832880999992007080218004-13267-043417FM-15+0440SBLP V0200601N00311220001CN0099001N1+03101+01201999999ADDMA1101691999999REMMET045METAR SBLP 021800Z 06006KT CAVOK 31/12 Q1017;
0072832880999992007080219004-13267-043417FM-15+0440SBLP V0200901N00311220001CN0099001N1+03001+01301999999ADDMA1101691999999REMMET045METAR SBLP 021900Z 09006KT CAVOK 30/13 Q1017;
0072832880999992007080220004-13267-043417FM-15+0440SBLP V0200901N00311220001CN0099001N1+02901+01301999999ADDMA1101691999999REMMET045METAR SBLP 022000Z 09006KT CAVOK 29/13 Q1017;
0072832880999992007080221004-13267-043417FM-15+0440SBLP V0209999C00001220001CN0099001N1+02601+01601999999ADDMA1101691999999REMMET045METAR SBLP 022100Z 00000KT CAVOK 26/16 Q1017;
0072832880999992007080310004-13267-043417FM-15+0440SBLP V0200901N00311220001CN0099001N1+01501+01101999999ADDMA1102001999999REMMET045METAR SBLP 031000Z 09006KT CAVOK 15/11 Q1020;
0072832880999992007080311004-13267-043417FM-15+0440SBLP V0201201N00311220001CN0099001N1+01901+01401999999ADDMA1102001999999REMMET045METAR SBLP 031100Z 12006KT CAVOK 19/14 Q1020;
0072832880999992007080312004-13267-043417FM-15+0440SBLP V0201201N00311220001CN0099001N1+02401+01401999999ADDMA1102101999999REMMET045METAR SBLP 031200Z 12006KT CAVOK 24/14 Q1021;
0072832880999992007080313004-13267-043417FM-15+0440SBLP V0202401N00311220001CN0099001N1+02701+01301999999ADDMA1102101999999REMMET045METAR SBLP 031300Z 24006KT CAVOK 27/13 Q1021;
0072832880999992007080314004-13267-043417FM-15+0440SBLP V0202401N00311220001CN0099001N1+02701+01301999999ADDMA1102101999999REMMET045METAR SBLP 031400Z 24006KT CAVOK 27/13 Q1021;
0120832880999992007080315004-13267-043417FM-15+0440SBLP V0202101N003112200019N0112651N1+03001+01301999999ADDGA1021+009001999GF102991999999999999999999MA1101901999999REMMET051METAR SBLP 031500Z 21006KT 9999 FEW030 30/13 Q1019;
0072832880999992007080316004-13267-043417FM-15+0440SBLP V0202701N00311220001CN0099001N1+03101+01301999999ADDMA1101801999999REMMET045METAR SBLP 031600Z 27006KT CAVOK 31/13 Q1018;
0072832880999992007080317004-13267-043417FM-15+0440SBLP V0202701N00311220001CN0099001N1+03201+01201999999ADDMA1101691999999REMMET045METAR SBLP 031700Z 27006KT CAVOK 32/12 Q1017;
0072832880999992007080318004-13267-043417FM-15+0440SBLP V0201801N00311220001CN0099001N1+03401+01201999999ADDMA1101591999999REMMET045METAR SBLP 031800Z 18006KT CAVOK 34/12 Q1016;
0072832880999992007080319004-13267-043417FM-15+0440SBLP V0201801N00311220001CN0099001N1+03301+01201999999ADDMA1101591999999REMMET045METAR SBLP 031900Z 18006KT CAVOK 33/12 Q1016;
0072832880999992007080320004-13267-043417FM-15+0440SBLP V0201801N00311220001CN0099001N1+03201+01301999999ADDMA1101591999999REMMET045METAR SBLP 032000Z 18006KT CAVOK 32/13 Q1016;
0072832880999992007080321004-13267-043417FM-15+0440SBLP V0209999C00001220001CN0099001N1+03101+01301999999ADDMA1101591999999REMMET045METAR SBLP 032100Z 00000KT CAVOK 31/13 Q1016;
0072832880999992007080410004-13267-043417FM-15+0440SBLP V0209999C00001220001CN0099001N1+01901+01401999999ADDMA1102001999999REMMET045METAR SBLP 041000Z 00000KT CAVOK 19/14 Q1020;
0072832880999992007080411004-13267-043417FM-15+0440SBLP V0209999C00001220001CN0099001N1+02101+01401999999ADDMA1102101999999REMMET045METAR SBLP 041100Z 00000KT CAVOK 21/14 Q1021;
0072832880999992007080412004-13267-043417FM-15+0440SBLP V0200901N00311220001CN0099001N1+02401+01301999999ADDMA1102101999999REMMET045METAR SBLP 041200Z 09006KT CAVOK 24/13 Q1021;
0072832880999992007080413004-13267-043417FM-15+0440SBLP V0200901N00311220001CN0099001N1+02701+01301999999ADDMA1102101999999REMMET045METAR SBLP 041300Z 09006KT CAVOK 27/13 Q1021;
0072832880999992007080414004-13267-043417FM-15+0440SBLP V0200901N00311220001CN0099001N1+02901+01301999999ADDMA1102001999999REMMET045METAR SBLP 041400Z 09006KT CAVOK 29/13 Q1020;
0072832880999992007080415004-13267-043417FM-15+0440SBLP V0200901N00311220001CN0099001N1+03101+01301999999ADDMA1101901999999REMMET045METAR SBLP 041500Z 09006KT CAVOK 31/13 Q1019;
0120832880999992007080416004-13267-043417FM-15+0440SBLP V0200901N004112200019N0112651N1+03101+01301999999ADDGA1021+009001999GF102991999999999999999999MA1101801999999REMMET051METAR SBLP 041600Z 09008KT 9999 FEW030 31/13 Q1018;
0120832880999992007080417004-13267-043417FM-15+0440SBLP V0200301N004112200019N0112651N1+03101+01301999999ADDGA1021+009001999GF102991999999999999999999MA1101691999999REMMET051METAR SBLP 041700Z 03008KT 9999 FEW030 31/13 Q1017;
0120832880999992007080418004-13267-043417FM-15+0440SBLP V0200901N004112200019N0112651N1+03201+01201999999ADDGA1021+009001999GF102991999999999999999999MA1101591999999REMMET051METAR SBLP 041800Z 09008KT 9999 FEW030 32/12 Q1016;
0120832880999992007080419004-13267-043417FM-15+0440SBLP V0200901N004112200019N0112651N1+03301+01101999999ADDGA1021+009001999GF102991999999999999999999MA1101591999999REMMET051METAR SBLP 041900Z 09008KT 9999 FEW030 33/11 Q1016;
0120832880999992007080420004-13267-043417FM-15+0440SBLP V0201101N003112200019N0112651N1+03201+01201999999ADDGA1021+009001999GF102991999999999999999999MA1101591999999REMMET051METAR SBLP 042000Z 11006KT 9999 FEW030 32/12 Q1016;
0120832880999992007080421004-13267-043417FM-15+0440SBLP V0201101N002112200019N0112651N1+02901+01301999999ADDGA1021+009001999GF102991999999999999999999MA1101591999999REMMET051METAR SBLP 042100Z 11004KT 9999 FEW030 29/13 Q1016;
0072832880999992007080510004-13267-043417FM-15+0440SBLP V0201201N00211220001CN0099001N1+01701+01401999999ADDMA1102001999999REMMET045METAR SBLP 051000Z 12004KT CAVOK 17/14 Q1020;
0072832880999992007080511004-13267-043417FM-15+0440SBLP V0200801N00101220001CN0099001N1+02101+01301999999ADDMA1102001999999REMMET045METAR SBLP 051100Z 08002KT CAVOK 21/13 Q1020;
0072832880999992007080512004-13267-043417FM-15+0440SBLP V0200801N00101220001CN0099001N1+02101+01301999999ADDMA1102001999999REMMET045METAR SBLP 051200Z 08002KT CAVOK 21/13 Q1020;
0072832880999992007080513004-13267-043417FM-15+0440SBLP V0200901N00311220001CN0099001N1+02801+01301999999ADDMA1102001999999REMMET045METAR SBLP 051300Z 09006KT CAVOK 28/13 Q1020;
0072832880999992007080514004-13267-043417FM-15+0440SBLP V0200301N00311220001CN0099001N1+02901+01301999999ADDMA1101901999999REMMET045METAR SBLP 051400Z 03006KT CAVOK 29/13 Q1019;
0072832880999992007080515004-13267-043417FM-15+0440SBLP V0200301N00311220001CN0099001N1+02901+01301999999ADDMA1101901999999REMMET045METAR SBLP 051500Z 03006KT CAVOK 29/13 Q1019;
0072832880999992007080516004-13267-043417FM-15+0440SBLP V0200901N00311220001CN0099001N1+03201+01201999999ADDMA1101691999999REMMET045METAR SBLP 051600Z 09006KT CAVOK 32/12 Q1017;
0072832880999992007080517004-13267-043417FM-15+0440SBLP V0200901N00311220001CN0099001N1+03301+01201999999ADDMA1101591999999REMMET045METAR SBLP 051700Z 09006KT CAVOK 33/12 Q1016;
0072832880999992007080518004-13267-043417FM-15+0440SBLP V0200901N00311220001CN0099001N1+03301+01201999999ADDMA1101491999999REMMET045METAR SBLP 051800Z 09006KT CAVOK 33/12 Q1015;
0072832880999992007080519004-13267-043417FM-15+0440SBLP V0200901N00311220001CN0099001N1+03301+01201999999ADDMA1101391999999REMMET045METAR SBLP 051900Z 09006KT CAVOK 33/12 Q1014;
0072832880999992007080520004-13267-043417FM-15+0440SBLP V0200901N00311220001CN0099001N1+03201+01201999999ADDMA1101391999999REMMET045METAR SBLP 052000Z 09006KT CAVOK 32/12 Q1014;
0072832880999992007080521004-13267-043417FM-15+0440SBLP V0209999C00001220001CN0099001N1+03101+01201999999ADDMA1101491999999REMMET045METAR SBLP 052100Z 00000KT CAVOK 31/12 Q1015;
0072832880999992007080610004-13267-043417FM-15+0440SBLP V0209999C00001220001CN0099001N1+02001+01601999999ADDMA1101901999999REMMET045METAR SBLP 061000Z 00000KT CAVOK 20/16 Q1019;
0072832880999992007080611004-13267-043417FM-15+0440SBLP V0201801N00311220001CN0099001N1+02201+01501999999ADDMA1102001999999REMMET045METAR SBLP 061100Z 18006KT CAVOK 22/15 Q1020;
0072832880999992007080612004-13267-043417FM-15+0440SBLP V0201801N00311220001CN0099001N1+02501+01501999999ADDMA1102001999999REMMET045METAR SBLP 061200Z 18006KT CAVOK 25/15 Q1020;
0072832880999992007080613004-13267-043417FM-15+0440SBLP V0201801N00311220001CN0099001N1+02801+01401999999ADDMA1102001999999REMMET045METAR SBLP 061300Z 18006KT CAVOK 28/14 Q1020;
0072832880999992007080614004-13267-043417FM-15+0440SBLP V0201801N00311220001CN0099001N1+02801+01401999999ADDMA1102001999999REMMET045METAR SBLP 061400Z 18006KT CAVOK 28/14 Q1020;
0072832880999992007080615004-13267-043417FM-15+0440SBLP V0201801N00311220001CN0099001N1+02901+01401999999ADDMA1101901999999REMMET045METAR SBLP 061500Z 18006KT CAVOK 29/14 Q1019;
0072832880999992007080616004-13267-043417FM-15+0440SBLP V0201801N00311220001CN0099001N1+03101+01301999999ADDMA1101691999999REMMET045METAR SBLP 061600Z 18006KT CAVOK 31/13 Q1017;
0072832880999992007080617004-13267-043417FM-15+0440SBLP V0202001N00311220001CN0099001N1+03201+01201999999ADDMA1101591999999REMMET045METAR SBLP 061700Z 20006KT CAVOK 32/12 Q1016;
0072832880999992007080618004-13267-043417FM-15+0440SBLP V0203601N00311220001CN0099001N1+03201+01301999999ADDMA1101491999999REMMET045METAR SBLP 061800Z 36006KT CAVOK 32/13 Q1015;
0072832880999992007080619004-13267-043417FM-15+0440SBLP V0201801N00311220001CN0099001N1+03201+01301999999ADDMA1101491999999REMMET045METAR SBLP 061900Z 18006KT CAVOK 32/13 Q1015;
0072832880999992007080620004-13267-043417FM-15+0440SBLP V0202401N00311220001CN0099001N1+03201+01301999999ADDMA1101491999999REMMET045METAR SBLP 062000Z 24006KT CAVOK 32/13 Q1015;
0072832880999992007080621004-13267-043417FM-15+0440SBLP V0202401N00311220001CN0099001N1+03201+01301999999ADDMA1101491999999REMMET045METAR SBLP 062100Z 24006KT CAVOK 32/13 Q1015;
0072832880999992007080709084-13267-043417FM-15+0440SBLP V0209999C00001220001CN0099001N1+01801+01501999999ADDMA1101901999999REMMET045METAR SBLP 070908Z 00000KT CAVOK 18/15 Q1019;
0072832880999992007080710004-13267-043417FM-15+0440SBLP V0209999C00001220001CN0099001N1+01701+01401999999ADDMA1102001999999REMMET045METAR SBLP 071000Z 00000KT CAVOK 17/14 Q1020;
0072832880999992007080711004-13267-043417FM-15+0440SBLP V0201201N00211220001CN0099001N1+02101+01501999999ADDMA1102001999999REMMET045METAR SBLP 071100Z 12004KT CAVOK 21/15 Q1020;
0072832880999992007080712004-13267-043417FM-15+0440SBLP V0201801N00411220001CN0099001N1+02501+01401999999ADDMA1102101999999REMMET045METAR SBLP 071200Z 18008KT CAVOK 25/14 Q1021;
0072832880999992007080713004-13267-043417FM-15+0440SBLP V0202101N00211220001CN0099001N1+02801+01201999999ADDMA1102101999999REMMET045METAR SBLP 071300Z 21004KT CAVOK 28/12 Q1021;
0072832880999992007080714004-13267-043417FM-15+0440SBLP V0202501N00211220001CN0099001N1+02901+01301999999ADDMA1102001999999REMMET045METAR SBLP 071400Z 25004KT CAVOK 29/13 Q1020;
0072832880999992007080715004-13267-043417FM-15+0440SBLP V0201801N00411220001CN0099001N1+03001+01201999999ADDMA1101901999999REMMET045METAR SBLP 071500Z 18008KT CAVOK 30/12 Q1019;
0072832880999992007080716004-13267-043417FM-15+0440SBLP V0200901N00211220001CN0099001N1+03101+01201999999ADDMA1101801999999REMMET045METAR SBLP 071600Z 09004KT CAVOK 31/12 Q1018;
0072832880999992007080717004-13267-043417FM-15+0440SBLP V0200901N00311220001CN0099001N1+03201+01101999999ADDMA1101691999999REMMET045METAR SBLP 071700Z 09006KT CAVOK 32/11 Q1017;
0072832880999992007080718004-13267-043417FM-15+0440SBLP V0200601N00311220001CN0099001N1+03201+01201999999ADDMA1101591999999REMMET045METAR SBLP 071800Z 06006KT CAVOK 32/12 Q1016;
0072832880999992007080719004-13267-043417FM-15+0440SBLP V0200601N00311220001CN0099001N1+03201+01201999999ADDMA1101491999999REMMET045METAR SBLP 071900Z 06006KT CAVOK 32/12 Q1015;
0072832880999992007080720004-13267-043417FM-15+0440SBLP V0209999C00001220001CN0099001N1+03001+01401999999ADDMA1101491999999REMMET045METAR SBLP 072000Z 00000KT CAVOK 30/14 Q1015;
0072832880999992007080721004-13267-043417FM-15+0440SBLP V0209999C00001220001CN0099001N1+02901+01401999999ADDMA1101491999999REMMET045METAR SBLP 072100Z 00000KT CAVOK 29/14 Q1015;
0072832880999992007080809124-13267-043417FM-15+0440SBLP V0209999C00001220001CN0099001N1+01701+01501999999ADDMA1101801999999REMMET045METAR SBLP 080912Z 00000KT CAVOK 17/15 Q1018;
0072832880999992007080810004-13267-043417FM-15+0440SBLP V0209999C00001220001CN0099001N1+01701+01601999999ADDMA1101901999999REMMET045METAR SBLP 081000Z 00000KT CAVOK 17/16 Q1019;
0072832880999992007080811004-13267-043417FM-15+0440SBLP V0200901N00311220001CN0099001N1+02001+01501999999ADDMA1102001999999REMMET045METAR SBLP 081100Z 09006KT CAVOK 20/15 Q1020;
0072832880999992007080812004-13267-043417FM-15+0440SBLP V0201401N00311220001CN0099001N1+02601+01201999999ADDMA1102001999999REMMET045METAR SBLP 081200Z 14006KT CAVOK 26/12 Q1020;
0120832880999992007080813004-13267-043417FM-15+0440SBLP V0201101N004112200019N0112651N1+02801+01401999999ADDGA1021+009001999GF102991999999999999999999MA1102001999999REMMET051METAR SBLP 081300Z 11008KT 9999 FEW030 28/14 Q1020;
0120832880999992007080814004-13267-043417FM-15+0440SBLP V0209999C000012200019N0112651N1+03001+01301999999ADDGA1021+009001999GF102991999999999999999999MA1101901999999REMMET051METAR SBLP 081400Z 00000KT 9999 FEW030 30/13 Q1019;
0120832880999992007080815004-13267-043417FM-15+0440SBLP V0201101N003112200019N0112651N1+03001+01301999999ADDGA1021+009001999GF102991999999999999999999MA1101801999999REMMET051METAR SBLP 081500Z 11006KT 9999 FEW030 30/13 Q1018;
0072832880999992007080816004-13267-043417FM-15+0440SBLP V0200901N00311220001CN0099001N1+03201+01201999999ADDMA1101691999999REMMET045METAR SBLP 081600Z 09006KT CAVOK 32/12 Q1017;
0072832880999992007080817004-13267-043417FM-15+0440SBLP V0200901N00311220001CN0099001N1+03301+01201999999ADDMA1101491999999REMMET045METAR SBLP 081700Z 09006KT CAVOK 33/12 Q1015;
0072832880999992007080818004-13267-043417FM-15+0440SBLP V0200901N00311220001CN0099001N1+03401+01101999999ADDMA1101491999999REMMET045METAR SBLP 081800Z 09006KT CAVOK 34/11 Q1015;
0072832880999992007080819004-13267-043417FM-15+0440SBLP V0200901N00311220001CN0099001N1+03401+01201999999ADDMA1101491999999REMMET045METAR SBLP 081900Z 09006KT CAVOK 34/12 Q1015;
0072832880999992007080820004-13267-043417FM-15+0440SBLP V0200901N00311220001CN0099001N1+03401+01201999999ADDMA1101491999999REMMET045METAR SBLP 082000Z 09006KT CAVOK 34/12 Q1015;
0072832880999992007080821004-13267-043417FM-15+0440SBLP V0209999999999220001CN0099001N1+03101+01301999999ADDMA1101491999999REMMET045METAR SBLP 082100Z /////KT CAVOK 31/13 Q1015;
0072832880999992007080910004-13267-043417FM-15+0440SBLP V0209999999999220001CN0099001N1+02001+01701999999ADDMA1101901999999REMMET045METAR SBLP 091000Z /////KT CAVOK 20/17 Q1019;
0072832880999992007080911004-13267-043417FM-15+0440SBLP V0209999999999220001CN0099001N1+02001+01701999999ADDMA1101901999999REMMET045METAR SBLP 091100Z /////KT CAVOK 20/17 Q1019;
0072832880999992007080912004-13267-043417FM-15+0440SBLP V0209999999999220001CN0099001N1+02501+01501999999ADDMA1102101999999REMMET045METAR SBLP 091200Z /////KT CAVOK 25/15 Q1021;
0072832880999992007080913004-13267-043417FM-15+0440SBLP V0209999999999220001CN0099001N1+02701+01301999999ADDMA1102101999999REMMET045METAR SBLP 091300Z /////KT CAVOK 27/13 Q1021;
0072832880999992007080914004-13267-043417FM-15+0440SBLP V0209999999999220001CN0099001N1+03001+01201999999ADDMA1102001999999REMMET045METAR SBLP 091400Z /////KT CAVOK 30/12 Q1020;
0072832880999992007080915004-13267-043417FM-15+0440SBLP V0209999999999220001CN0099001N1+03101+01201999999ADDMA1101901999999REMMET045METAR SBLP 091500Z /////KT CAVOK 31/12 Q1019;
0072832880999992007080916004-13267-043417FM-15+0440SBLP V0209999999999220001CN0099001N1+03101+01201999999ADDMA1101901999999REMMET045METAR SBLP 091600Z /////KT CAVOK 31/12 Q1019;
0120832880999992007080917004-13267-043417FM-15+0440SBLP V02099999999992200019N0112651N1+03201+01201999999ADDGA1021+009001999GF102991999999999999999999MA1101591999999REMMET051METAR SBLP 091700Z /////KT 9999 FEW030 32/12 Q1016;
0120832880999992007080918004-13267-043417FM-15+0440SBLP V02099999999992200019N0112651N1+03201+01201999999ADDGA1021+009001999GF102991999999999999999999MA1101591999999REMMET051METAR SBLP 091800Z /////KT 9999 FEW030 32/12 Q1016;
0120832880999992007080920004-13267-043417FM-15+0440SBLP V02099999999992200019N0112651N1+03101+01301999999ADDGA1021+009001999GF102991999999999999999999MA1101491999999REMMET051METAR SBLP 092000Z /////KT 9999 FEW030 31/13 Q1015;
0072832880999992007080921004-13267-043417FM-15+0440SBLP V0209999999999220001CN0099001N1+02901+01301999999ADDMA1101591999999REMMET045METAR SBLP 092100Z /////KT CAVOK 29/13 Q1016;
0072832880999992007081010004-13267-043417FM-15+0440SBLP V0209999999999220001CN0099001N1+02101+01701999999ADDMA1101901999999REMMET045METAR SBLP 101000Z /////KT CAVOK 21/17 Q1019;
0072832880999992007081011004-13267-043417FM-15+0440SBLP V0209999999999220001CN0099001N1+02301+01601999999ADDMA1102001999999REMMET045METAR SBLP 101100Z /////KT CAVOK 23/16 Q1020;
0120832880999992007081012004-13267-043417FM-15+0440SBLP V02099999999992200019N0112651N1+02601+01401999999ADDGA1021+009001999GF102991999999999999999999MA1102101999999REMMET051METAR SBLP 101200Z /////KT 9999 FEW030 26/14 Q1021;
0120832880999992007081013004-13267-043417FM-15+0440SBLP V02099999999992200019N0112651N1+02801+01301999999ADDGA1021+009001999GF102991999999999999999999MA1102101999999REMMET051METAR SBLP 101300Z /////KT 9999 FEW030 28/13 Q1021;
0120832880999992007081014004-13267-043417FM-15+0440SBLP V02099999999992200019N0112651N1+02901+01301999999ADDGA1041+009001999GF104991999999999999999999MA1102001999999REMMET051METAR SBLP 101400Z /////KT 9999 SCT030 29/13 Q1020;
0120832880999992007081015004-13267-043417FM-15+0440SBLP V02099999999992200019N0112651N1+03101+01201999999ADDGA1021+009001999GF102991999999999999999999MA1101901999999REMMET051METAR SBLP 101500Z /////KT 9999 FEW030 31/12 Q1019;
0072832880999992007081018004-13267-043417FM-15+0440SBLP V0209999999999220001CN0099001N1+03201+01101999999ADDMA1101591999999REMMET045METAR SBLP 101800Z /////KT CAVOK 32/11 Q1016;
0072832880999992007081019004-13267-043417FM-15+0440SBLP V0209999999999220001CN0099001N1+03201+01101999999ADDMA1101591999999REMMET045METAR SBLP 101900Z /////KT CAVOK 32/11 Q1016;
0072832880999992007081020004-13267-043417FM-15+0440SBLP V0209999999999220001CN0099001N1+03101+01101999999ADDMA1101591999999REMMET045METAR SBLP 102000Z /////KT CAVOK 31/11 Q1016;
0072832880999992007081021004-13267-043417FM-15+0440SBLP V0209999999999220001CN0099001N1+02901+01101999999ADDMA1101691999999REMMET045METAR SBLP 102100Z /////KT CAVOK 29/11 Q1017;
0072832880999992007081110004-13267-043417FM-15+0440SBLP V0209999999999220001CN0099001N1+01701+01201999999ADDMA1102001999999REMMET045METAR SBLP 111000Z /////KT CAVOK 17/12 Q1020;
0072832880999992007081111004-13267-043417FM-15+0440SBLP V0209999999999220001CN0099001N1+02201+01301999999ADDMA1102001999999REMMET045METAR SBLP 111100Z /////KT CAVOK 22/13 Q1020;
0072832880999992007081112004-13267-043417FM-15+0440SBLP V0209999999999220001CN0099001N1+02501+01201999999ADDMA1102101999999REMMET045METAR SBLP 111200Z /////KT CAVOK 25/12 Q1021;
0072832880999992007081113004-13267-043417FM-15+0440SBLP V0209999999999220001CN0099001N1+02701+01301999999ADDMA1102101999999REMMET045METAR SBLP 111300Z /////KT CAVOK 27/13 Q1021;
0072832880999992007081114004-13267-043417FM-15+0440SBLP V0209999999999220001CN0099001N1+02901+01201999999ADDMA1102001999999REMMET045METAR SBLP 111400Z /////KT CAVOK 29/12 Q1020;
0072832880999992007081115004-13267-043417FM-15+0440SBLP V0209999999999220001CN0099001N1+03001+01201999999ADDMA1101901999999REMMET045METAR SBLP 111500Z /////KT CAVOK 30/12 Q1019;
0072832880999992007081116004-13267-043417FM-15+0440SBLP V0209999999999220001CN0099001N1+03201+01201999999ADDMA1101801999999REMMET045METAR SBLP 111600Z /////KT CAVOK 32/12 Q1018;
0072832880999992007081117004-13267-043417FM-15+0440SBLP V0201601N00261220001CN0099001N1+03301+01201999999ADDMA1101691999999REMMET045METAR SBLP 111700Z 16005KT CAVOK 33/12 Q1017;
0072832880999992007081118004-13267-043417FM-15+0440SBLP V0202401N00311220001CN0099001N1+03401+01101999999ADDMA1101591999999REMMET045METAR SBLP 111800Z 24006KT CAVOK 34/11 Q1016;
0072832880999992007081119004-13267-043417FM-15+0440SBLP V0201801N00311220001CN0099001N1+03401+01101999999ADDMA1101591999999REMMET045METAR SBLP 111900Z 18006KT CAVOK 34/11 Q1016;
0072832880999992007081120004-13267-043417FM-15+0440SBLP V0201801N00311220001CN0099001N1+03401+01101999999ADDMA1101591999999REMMET045METAR SBLP 112000Z 18006KT CAVOK 34/11 Q1016;
0072832880999992007081121004-13267-043417FM-15+0440SBLP V0201801N00311220001CN0099001N1+03401+01101999999ADDMA1101591999999REMMET045METAR SBLP 112100Z 18006KT CAVOK 34/11 Q1016;
0072832880999992007081210004-13267-043417FM-15+0440SBLP V0201201N00411220001CN0099001N1+02101+01501999999ADDMA1102001999999REMMET045METAR SBLP 121000Z 12008KT CAVOK 21/15 Q1020;
0072832880999992007081211004-13267-043417FM-15+0440SBLP V0201201N00771220001CN0099001N1+02301+01401999999ADDMA1102101999999REMMET045METAR SBLP 121100Z 12015KT CAVOK 23/14 Q1021;
0072832880999992007081212004-13267-043417FM-15+0440SBLP V0201201N00771220001CN0099001N1+02301+01401999999ADDMA1102101999999REMMET045METAR SBLP 121200Z 12015KT CAVOK 23/14 Q1021;
0072832880999992007081213004-13267-043417FM-15+0440SBLP V0201501N00511220001CN0099001N1+02701+01301999999ADDMA1102201999999REMMET045METAR SBLP 121300Z 15010KT CAVOK 27/13 Q1022;
0072832880999992007081214004-13267-043417FM-15+0440SBLP V0200901N00211220001CN0099001N1+02801+01001999999ADDMA1102101999999REMMET045METAR SBLP 121400Z 09004KT CAVOK 28/10 Q1021;
0072832880999992007081215004-13267-043417FM-15+0440SBLP V0200901N00211220001CN0099001N1+03001+01101999999ADDMA1102001999999REMMET045METAR SBLP 121500Z 09004KT CAVOK 30/11 Q1020;
0072832880999992007081216004-13267-043417FM-15+0440SBLP V0201201N00311220001CN0099001N1+03101+01101999999ADDMA1101801999999REMMET045METAR SBLP 121600Z 12006KT CAVOK 31/11 Q1018;
0072832880999992007081217004-13267-043417FM-15+0440SBLP V0201601N00311220001CN0099001N1+03301+01101999999ADDMA1101691999999REMMET045METAR SBLP 121700Z 16006KT CAVOK 33/11 Q1017;
0120832880999992007081218004-13267-043417FM-15+0440SBLP V0201201N004112200019N0112651N1+03201+01301999999ADDGA1021+009001999GF102991999999999999999999MA1101691999999REMMET051METAR SBLP 121800Z 12008KT 9999 FEW030 32/13 Q1017;
0120832880999992007081219004-13267-043417FM-15+0440SBLP V0201601N003112200019N0112651N1+03101+01201999999ADDGA1021+009001999GF102991999999999999999999MA1101591999999REMMET051METAR SBLP 121900Z 16006KT 9999 FEW030 31/12 Q1016;
0072832880999992007081220004-13267-043417FM-15+0440SBLP V0201201N00411220001CN0099001N1+03001+01301999999ADDMA1101691999999REMMET045METAR SBLP 122000Z 12008KT CAVOK 30/13 Q1017;
0072832880999992007081221004-13267-043417FM-15+0440SBLP V0201201N00411220001CN0099001N1+03001+01301999999ADDMA1101691999999REMMET045METAR SBLP 122100Z 12008KT CAVOK 30/13 Q1017;
0072832880999992007081310004-13267-043417FM-15+0440SBLP V0202101N00311220001CN0099001N1+01701+01501999999ADDMA1102201999999REMMET045METAR SBLP 131000Z 21006KT CAVOK 17/15 Q1022;
0072832880999992007081311004-13267-043417FM-15+0440SBLP V0201801N00311220001CN0099001N1+02001+01301999999ADDMA1102201999999REMMET045METAR SBLP 131100Z 18006KT CAVOK 20/13 Q1022;
0120832880999992007081312004-13267-043417FM-15+0440SBLP V0201601N003112200019N0112651N1+02401+01201999999ADDGA1021+009001999GF102991999999999999999999MA1102301999999REMMET051METAR SBLP 131200Z 16006KT 9999 FEW030 24/12 Q1023;
0072832880999992007081313004-13267-043417FM-15+0440SBLP V0201801N00311220001CN0099001N1+02801+01201999999ADDMA1102201999999REMMET045METAR SBLP 131300Z 18006KT CAVOK 28/12 Q1022;
0072832880999992007081314004-13267-043417FM-15+0440SBLP V0201501N00511220001CN0099001N1+02801+01201999999ADDMA1102201999999REMMET045METAR SBLP 131400Z 15010KT CAVOK 28/12 Q1022;
0072832880999992007081315004-13267-043417FM-15+0440SBLP V0200901N00311220001CN0099001N1+03001+01301999999ADDMA1102001999999REMMET045METAR SBLP 131500Z 09006KT CAVOK 30/13 Q1020;
0072832880999992007081316004-13267-043417FM-15+0440SBLP V0201801N00311220001CN0099001N1+03101+01201999999ADDMA1101901999999REMMET045METAR SBLP 131600Z 18006KT CAVOK 31/12 Q1019;
0072832880999992007081317004-13267-043417FM-15+0440SBLP V0201801N00311220001CN0099001N1+03301+01101999999ADDMA1101691999999REMMET045METAR SBLP 131700Z 18006KT CAVOK 33/11 Q1017;
0072832880999992007081318004-13267-043417FM-15+0440SBLP V0201801N00311220001CN0099001N1+03401+01101999999ADDMA1101691999999REMMET045METAR SBLP 131800Z 18006KT CAVOK 34/11 Q1017;
0072832880999992007081319004-13267-043417FM-15+0440SBLP V0201801N00311220001CN0099001N1+03301+01101999999ADDMA1101691999999REMMET045METAR SBLP 131900Z 18006KT CAVOK 33/11 Q1017;
0072832880999992007081320004-13267-043417FM-15+0440SBLP V0200901N00621220001CN0099001N1+03201+01101999999ADDMA1101691999999REMMET045METAR SBLP 132000Z 09012KT CAVOK 32/11 Q1017;
0072832880999992007081321004-13267-043417FM-15+0440SBLP V0200901N00621220001CN0099001N1+02901+01301999999ADDMA1101801999999REMMET045METAR SBLP 132100Z 09012KT CAVOK 29/13 Q1018;
0072832880999992007081410004-13267-043417FM-15+0440SBLP V0201801N00411220001CN0099001N1+01901+01301999999ADDMA1102101999999REMMET045METAR SBLP 141000Z 18008KT CAVOK 19/13 Q1021;
0072832880999992007081411004-13267-043417FM-15+0440SBLP V0201601N00511220001CN0099001N1+02101+01401999999ADDMA1102101999999REMMET045METAR SBLP 141100Z 16010KT CAVOK 21/14 Q1021;
0072832880999992007081412004-13267-043417FM-15+0440SBLP V0201201N00311220001CN0099001N1+02401+01401999999ADDMA1102101999999REMMET045METAR SBLP 141200Z 12006KT CAVOK 24/14 Q1021;
0072832880999992007081413004-13267-043417FM-15+0440SBLP V0201801N00311220001CN0099001N1+02601+01401999999ADDMA1102201999999REMMET045METAR SBLP 141300Z 18006KT CAVOK 26/14 Q1022;
0120832880999992007081414004-13267-043417FM-15+0440SBLP V0201201N004112200019N0112651N1+02901+01301999999ADDGA1021+009001999GF102991999999999999999999MA1102101999999REMMET051METAR SBLP 141400Z 12008KT 9999 FEW030 29/13 Q1021;
0120832880999992007081415004-13267-043417FM-15+0440SBLP V0201201N003112200019N0112651N1+02901+01301999999ADDGA1041+009001999GF104991999999999999999999MA1102001999999REMMET051METAR SBLP 141500Z 12006KT 9999 SCT030 29/13 Q1020;
0120832880999992007081416004-13267-043417FM-15+0440SBLP V0201201N003112200019N0112651N1+03001+01301999999ADDGA1041+009001999GF104991999999999999999999MA1101901999999REMMET051METAR SBLP 141600Z 12006KT 9999 SCT030 30/13 Q1019;
0120832880999992007081417004-13267-043417FM-15+0440SBLP V0201201N003112200019N0112651N1+03001+01301999999ADDGA1041+009001999GF104991999999999999999999MA1101801999999REMMET051METAR SBLP 141700Z 12006KT 9999 SCT030 30/13 Q1018;
0120832880999992007081418004-13267-043417FM-15+0440SBLP V0200901N003112200019N0112651N1+03101+01301999999ADDGA1041+009001999GF104991999999999999999999MA1101801999999REMMET051METAR SBLP 141800Z 09006KT 9999 SCT030 31/13 Q1018;
0120832880999992007081419004-13267-043417FM-15+0440SBLP V0200901N003112200019N0112651N1+03101+01301999999ADDGA1041+009001999GF104991999999999999999999MA1101801999999REMMET051METAR SBLP 141900Z 09006KT 9999 SCT030 31/13 Q1018;
0120832880999992007081420004-13267-043417FM-15+0440SBLP V0200901N003112200019N0112651N1+03001+01301999999ADDGA1041+009001999GF104991999999999999999999MA1101801999999REMMET051METAR SBLP 142000Z 09006KT 9999 SCT030 30/13 Q1018;
0120832880999992007081421004-13267-043417FM-15+0440SBLP V0200901N003112200019N0112651N1+02801+01301999999ADDGA1041+009001999GF104991999999999999999999MA1101801999999REMMET051METAR SBLP 142100Z 09006KT 9999 SCT030 28/13 Q1018;
0143832880999992007081510004-13267-043417FM-15+0440SBLP V0201801N003110300019N0112651N1+02101+01801999999ADDGA1021+006001999GA2071+030001999GF107991999999999999999999MA1102101999999REMMET058METAR SBLP 151000Z 18006KT 9999 FEW020 BKN100 21/18 Q1021;
0143832880999992007081511004-13267-043417FM-15+0440SBLP V0201801N003112200019N0112651N1+02201+01701999999ADDGA1021+006001999GA2041+030001999GF104991999999999999999999MA1102201999999REMMET058METAR SBLP 151100Z 18006KT 9999 FEW020 SCT100 22/17 Q1022;
0143832880999992007081512004-13267-043417FM-15+0440SBLP V0201801N003112200019N0112651N1+02401+01601999999ADDGA1021+009001999GA2041+030001999GF104991999999999999999999MA1102201999999REMMET058METAR SBLP 151200Z 18006KT 9999 FEW030 SCT100 24/16 Q1022;
0143832880999992007081513004-13267-043417FM-15+0440SBLP V0201801N003112200019N0112651N1+02601+01501999999ADDGA1021+009001999GA2041+030001999GF104991999999999999999999MA1102201999999REMMET058METAR SBLP 151300Z 18006KT 9999 FEW030 SCT100 26/15 Q1022;
0120832880999992007081514004-13267-043417FM-15+0440SBLP V0201801N003112200019N0112651N1+02801+01401999999ADDGA1041+009001999GF104991999999999999999999MA1102201999999REMMET051METAR SBLP 151400Z 18006KT 9999 SCT030 28/14 Q1022;
0120832880999992007081515004-13267-043417FM-15+0440SBLP V0200901N003112200019N0112651N1+02801+01401999999ADDGA1041+009001999GF104991999999999999999999MA1102001999999REMMET051METAR SBLP 151500Z 09006KT 9999 SCT030 28/14 Q1020;
0120832880999992007081517004-13267-043417FM-15+0440SBLP V0201201N007710090019N0112651N1+03001+01001999999ADDGA1071+009001999GF107991999999999999999999MA1101901999999REMMET051METAR SBLP 151700Z 12015KT 9999 BKN030 30/10 Q1019;
0120832880999992007081518004-13267-043417FM-15+0440SBLP V0201501N005112200019N0112651N1+02901+01101999999ADDGA1041+009001999GF104991999999999999999999MA1101801999999REMMET051METAR SBLP 151800Z 15010KT 9999 SCT030 29/11 Q1018;
0120832880999992007081519004-13267-043417FM-15+0440SBLP V0201201N004112200019N0112651N1+02901+01101999999ADDGA1041+009001999GF104991999999999999999999MA1101801999999REMMET051METAR SBLP 151900Z 12008KT 9999 SCT030 29/11 Q1018;
0120832880999992007081520004-13267-043417FM-15+0440SBLP V0201201N005112200019N0112651N1+02801+01201999999ADDGA1041+009001999GF104991999999999999999999MA1101801999999REMMET051METAR SBLP 152000Z 12010KT 9999 SCT030 28/12 Q1018;
0120832880999992007081521004-13267-043417FM-15+0440SBLP V0201201N003112200019N0112651N1+02701+01001999999ADDGA1041+009001999GF104991999999999999999999MA1101801999999REMMET051METAR SBLP 152100Z 12006KT 9999 SCT030 27/10 Q1018;
0120832880999992007081613004-13267-043417FM-15+0440SBLP V0201801N003112200019N0112651N1+02701+01301999999ADDGA1041+009001999GF104991999999999999999999MA1102101999999REMMET051METAR SBLP 161300Z 18006KT 9999 SCT030 27/13 Q1021;
0120832880999992007081614004-13267-043417FM-15+0440SBLP V0200901N003112200019N0112651N1+02801+01201999999ADDGA1041+009001999GF104991999999999999999999MA1102001999999REMMET051METAR SBLP 161400Z 09006KT 9999 SCT030 28/12 Q1020;
0120832880999992007081615004-13267-043417FM-15+0440SBLP V0200901N003112200019N0112651N1+03001+01101999999ADDGA1041+009001999GF104991999999999999999999MA1101901999999REMMET051METAR SBLP 161500Z 09006KT 9999 SCT030 30/11 Q1019;
0120832880999992007081616004-13267-043417FM-15+0440SBLP V0200901N005112200019N0112651N1+03001+01101999999ADDGA1021+009001999GF102991999999999999999999MA1101801999999REMMET051METAR SBLP 161600Z 09010KT 9999 FEW030 30/11 Q1018;
0120832880999992007081617004-13267-043417FM-15+0440SBLP V0200601N003112200019N0112651N1+03201+00901999999ADDGA1021+009001999GF102991999999999999999999MA1101591999999REMMET051METAR SBLP 161700Z 06006KT 9999 FEW030 32/09 Q1016;
0072832880999992007083113004-13267-043417FM-15+0440SBLP V0201601N00411220001CN0099001N1+02801+01201999999ADDMA1102201999999REMMET045METAR SBLP 311300Z 16008KT CAVOK 28/12 Q1022;
0072832880999992007083114004-13267-043417FM-15+0440SBLP V0201801N00311220001CN0099001N1+02901+01101999999ADDMA1102101999999REMMET045METAR SBLP 311400Z 18006KT CAVOK 29/11 Q1021;
0072832880999992007083115004-13267-043417FM-15+0440SBLP V0201201N00411220001CN0099001N1+03101+01001999999ADDMA1102001999999REMMET045METAR SBLP 311500Z 12008KT CAVOK 31/10 Q1020;
0072832880999992007083121004-13267-043417FM-15+0440SBLP V0201501N00311220001CN0099001N1+03001+01201999999ADDMA1101591999999REMMET045METAR SBLP 312100Z 15006KT CAVOK 30/12 Q1016;
0072832880999992007090110004-13267-043417FM-15+0440SBLP V0201801N00211220001CN0099001N1+01801+01201999999ADDMA1102001999999REMMET045METAR SBLP 011000Z 18004KT CAVOK 18/12 Q1020;
0072832880999992007090111004-13267-043417FM-15+0440SBLP V0201801N00311220001CN0099001N1+02201+01101999999ADDMA1102101999999REMMET045METAR SBLP 011100Z 18006KT CAVOK 22/11 Q1021;
0072832880999992007090112004-13267-043417FM-15+0440SBLP V0201501N00211220001CN0099001N1+02501+01201999999ADDMA1102201999999REMMET045METAR SBLP 011200Z 15004KT CAVOK 25/12 Q1022;
0072832880999992007090113004-13267-043417FM-15+0440SBLP V0201201N00211220001CN0099001N1+02701+01001999999ADDMA1102201999999REMMET045METAR SBLP 011300Z 12004KT CAVOK 27/10 Q1022;
0072832880999992007090114004-13267-043417FM-15+0440SBLP V0201201N00211220001CN0099001N1+02701+01001999999ADDMA1102201999999REMMET045METAR SBLP 011400Z 12004KT CAVOK 27/10 Q1022;
0072832880999992007090115004-13267-043417FM-15+0440SBLP V0202101N00311220001CN0099001N1+03101+00801999999ADDMA1102001999999REMMET045METAR SBLP 011500Z 21006KT CAVOK 31/08 Q1020;
0072832880999992007090116004-13267-043417FM-15+0440SBLP V0202101N00311220001CN0099001N1+03201+00801999999ADDMA1101801999999REMMET045METAR SBLP 011600Z 21006KT CAVOK 32/08 Q1018;
0072832880999992007090117004-13267-043417FM-15+0440SBLP V0202601N00311220001CN0099001N1+03301+00801999999ADDMA1101691999999REMMET045METAR SBLP 011700Z 26006KT CAVOK 33/08 Q1017;
0072832880999992007090118004-13267-043417FM-15+0440SBLP V0202301N00311220001CN0099001N1+03401+00801999999ADDMA1101591999999REMMET045METAR SBLP 011800Z 23006KT CAVOK 34/08 Q1016;
0072832880999992007090119004-13267-043417FM-15+0440SBLP V0202401N00311220001CN0099001N1+03501+00801999999ADDMA1101591999999REMMET045METAR SBLP 011900Z 24006KT CAVOK 35/08 Q1016;
0072832880999992007090120004-13267-043417FM-15+0440SBLP V0202101N00311220001CN0099001N1+03201+01001999999ADDMA1101591999999REMMET045METAR SBLP 012000Z 21006KT CAVOK 32/10 Q1016;
0072832880999992007090121004-13267-043417FM-15+0440SBLP V0202101N00311220001CN0099001N1+03201+01001999999ADDMA1101591999999REMMET045METAR SBLP 012100Z 21006KT CAVOK 32/10 Q1016;
0072832880999992007090210004-13267-043417FM-15+0440SBLP V0201801N00311220001CN0099001N1+01901+01301999999ADDMA1102101999999REMMET045METAR SBLP 021000Z 18006KT CAVOK 19/13 Q1021;
0072832880999992007090211004-13267-043417FM-15+0440SBLP V0201801N00311220001CN0099001N1+01901+01301999999ADDMA1102101999999REMMET045METAR SBLP 021100Z 18006KT CAVOK 19/13 Q1021;
0072832880999992007090212004-13267-043417FM-15+0440SBLP V0201801N00311220001CN0099001N1+02601+01301999999ADDMA1102201999999REMMET045METAR SBLP 021200Z 18006KT CAVOK 26/13 Q1022;
0072832880999992007090213004-13267-043417FM-15+0440SBLP V0201801N00311220001CN0099001N1+02801+01201999999ADDMA1102201999999REMMET045METAR SBLP 021300Z 18006KT CAVOK 28/12 Q1022;
0072832880999992007090214004-13267-043417FM-15+0440SBLP V0201601N00311220001CN0099001N1+03101+01201999999ADDMA1102101999999REMMET045METAR SBLP 021400Z 16006KT CAVOK 31/12 Q1021;
0072832880999992007090215004-13267-043417FM-15+0440SBLP V0201601N00311220001CN0099001N1+03201+01001999999ADDMA1102001999999REMMET045METAR SBLP 021500Z 16006KT CAVOK 32/10 Q1020;
0072832880999992007090216004-13267-043417FM-15+0440SBLP V0201801N00311220001CN0099001N1+03301+00901999999ADDMA1101801999999REMMET045METAR SBLP 021600Z 18006KT CAVOK 33/09 Q1018;
0072832880999992007090217004-13267-043417FM-15+0440SBLP V0201801N00311220001CN0099001N1+03401+00901999999ADDMA1101691999999REMMET045METAR SBLP 021700Z 18006KT CAVOK 34/09 Q1017;
0072832880999992007090218004-13267-043417FM-15+0440SBLP V0200901N00311220001CN0099001N1+03501+00901999999ADDMA1101591999999REMMET045METAR SBLP 021800Z 09006KT CAVOK 35/09 Q1016;
0072832880999992007090219004-13267-043417FM-15+0440SBLP V0200901N00311220001CN0099001N1+03401+01001999999ADDMA1101591999999REMMET045METAR SBLP 021900Z 09006KT CAVOK 34/10 Q1016;
0072832880999992007090220004-13267-043417FM-15+0440SBLP V0209999C00001220001CN0099001N1+03301+01001999999ADDMA1101591999999REMMET045METAR SBLP 022000Z 00000KT CAVOK 33/10 Q1016;
0072832880999992007090221004-13267-043417FM-15+0440SBLP V0209999C00001220001CN0099001N1+03201+01001999999ADDMA1101591999999REMMET045METAR SBLP 022100Z 00000KT CAVOK 32/10 Q1016;
0072832880999992007090310004-13267-043417FM-15+0440SBLP V0202101N00311220001CN0099001N1+01901+01401999999ADDMA1102001999999REMMET045METAR SBLP 031000Z 21006KT CAVOK 19/14 Q1020;
0072832880999992007090311004-13267-043417FM-15+0440SBLP V0201501N00311220001CN0099001N1+02301+01301999999ADDMA1102101999999REMMET045METAR SBLP 031100Z 15006KT CAVOK 23/13 Q1021;
0072832880999992007090312004-13267-043417FM-15+0440SBLP V0200901N00311220001CN0099001N1+02701+01201999999ADDMA1102201999999REMMET045METAR SBLP 031200Z 09006KT CAVOK 27/12 Q1022;
0072832880999992007090313004-13267-043417FM-15+0440SBLP V0200901N00311220001CN0099001N1+02801+01101999999ADDMA1102201999999REMMET045METAR SBLP 031300Z 09006KT CAVOK 28/11 Q1022;
0072832880999992007090314004-13267-043417FM-15+0440SBLP V0200901N00311220001CN0099001N1+03001+01101999999ADDMA1102101999999REMMET045METAR SBLP 031400Z 09006KT CAVOK 30/11 Q1021;
0120832880999992007090315004-13267-043417FM-15+0440SBLP V0200901N003112200019N0112651N1+03201+01001999999ADDGA1021+009001999GF102991999999999999999999MA1102001999999REMMET051METAR SBLP 031500Z 09006KT 9999 FEW030 32/10 Q1020;
0120832880999992007090316004-13267-043417FM-15+0440SBLP V0200901N003112200019N0112651N1+03301+00901999999ADDGA1021+009001999GF102991999999999999999999MA1101901999999REMMET051METAR SBLP 031600Z 09006KT 9999 FEW030 33/09 Q1019;
0120832880999992007090317004-13267-043417FM-15+0440SBLP V0200901N003112200019N0112651N1+03401+00901999999ADDGA1021+009001999GF102991999999999999999999MA1101691999999REMMET051METAR SBLP 031700Z 09006KT 9999 FEW030 34/09 Q1017;
0120832880999992007090318004-13267-043417FM-15+0440SBLP V0200901N003112200019N0112651N1+03601+00901999999ADDGA1021+009001999GF102991999999999999999999MA1101691999999REMMET051METAR SBLP 031800Z 09006KT 9999 FEW030 36/09 Q1017;
0120832880999992007090319004-13267-043417FM-15+0440SBLP V0200901N003112200019N0112651N1+03501+00901999999ADDGA1021+009001999GF102991999999999999999999MA1101691999999REMMET051METAR SBLP 031900Z 09006KT 9999 FEW030 35/09 Q1017;
0072832880999992007090320004-13267-043417FM-15+0440SBLP V0200901N00311220001CN0099001N1+03401+01001999999ADDMA1101691999999REMMET045METAR SBLP 032000Z 09006KT CAVOK 34/10 Q1017;
0072832880999992007090321004-13267-043417FM-15+0440SBLP V0200901N00311220001CN0099001N1+03201+01101999999ADDMA1101691999999REMMET045METAR SBLP 032100Z 09006KT CAVOK 32/11 Q1017;
0072832880999992007090410004-13267-043417FM-15+0440SBLP V0209999C00001220001CN0099001N1+02301+01601999999ADDMA1102101999999REMMET045METAR SBLP 041000Z 00000KT CAVOK 23/16 Q1021;
0120832880999992007090411004-13267-043417FM-15+0440SBLP V0209999C000012200019N0112651N1+02501+01501999999ADDGA1021+009001999GF102991999999999999999999MA1102201999999REMMET051METAR SBLP 041100Z 00000KT 9999 FEW030 25/15 Q1022;
0120832880999992007090412004-13267-043417FM-15+0440SBLP V0200901N003112200019N0112651N1+02801+01301999999ADDGA1021+009001999GF102991999999999999999999MA1102201999999REMMET051METAR SBLP 041200Z 09006KT 9999 FEW030 28/13 Q1022;
0120832880999992007090413004-13267-043417FM-15+0440SBLP V0200901N003112200019N0112651N1+02901+01301999999ADDGA1041+009001999GF104991999999999999999999MA1102201999999REMMET051METAR SBLP 041300Z 09006KT 9999 SCT030 29/13 Q1022;
0120832880999992007090415004-13267-043417FM-15+0440SBLP V0200901N003112200019N0112651N1+03101+01301999999ADDGA1041+009001999GF104991999999999999999999MA1102001999999REMMET051METAR SBLP 041500Z 09006KT 9999 SCT030 31/13 Q1020;
0120832880999992007090416004-13267-043417FM-15+0440SBLP V0200901N003112200019N0112651N1+03301+01201999999ADDGA1041+009001999GF104991999999999999999999MA1101901999999REMMET051METAR SBLP 041600Z 09006KT 9999 SCT030 33/12 Q1019;
0120832880999992007090417004-13267-043417FM-15+0440SBLP V0200901N003112200019N0112651N1+03301+01201999999ADDGA1041+009001999GF104991999999999999999999MA1101801999999REMMET051METAR SBLP 041700Z 09006KT 9999 SCT030 33/12 Q1018;
0120832880999992007090418004-13267-043417FM-15+0440SBLP V0200901N003112200019N0112651N1+03401+01201999999ADDGA1041+009001999GF104991999999999999999999MA1101691999999REMMET051METAR SBLP 041800Z 09006KT 9999 SCT030 34/12 Q1017;
0120832880999992007090419004-13267-043417FM-15+0440SBLP V0200901N003112200019N0112651N1+03301+01201999999ADDGA1021+009001999GF102991999999999999999999MA1101691999999REMMET051METAR SBLP 041900Z 09006KT 9999 FEW030 33/12 Q1017;
0120832880999992007090420004-13267-043417FM-15+0440SBLP V0200901N003112200019N0112651N1+03201+01201999999ADDGA1021+009001999GF102991999999999999999999MA1101691999999REMMET051METAR SBLP 042000Z 09006KT 9999 FEW030 32/12 Q1017;
0072832880999992007090421004-13267-043417FM-15+0440SBLP V0200901N00311220001CN0099001N1+03101+01201999999ADDMA1101801999999REMMET045METAR SBLP 042100Z 09006KT CAVOK 31/12 Q1018;
0072832880999992007090610004-13267-043417FM-15+0440SBLP V0209999C00001220001CN0099001N1+02001+01401999999ADDMA1102201999999REMMET045METAR SBLP 061000Z 00000KT CAVOK 20/14 Q1022;
0072832880999992007090611004-13267-043417FM-15+0440SBLP V0209999C00001220001CN0099001N1+02401+01301999999ADDMA1102301999999REMMET045METAR SBLP 061100Z 00000KT CAVOK 24/13 Q1023;
0072832880999992007090613004-13267-043417FM-15+0440SBLP V0209999999999220001CN0099001N1+02801+01201999999ADDMA1102301999999REMMET045METAR SBLP 061300Z /////KT CAVOK 28/12 Q1023;
0072832880999992007090614004-13267-043417FM-15+0440SBLP V0209999999999220001CN0099001N1+03001+01201999999ADDMA1102201999999REMMET045METAR SBLP 061400Z /////KT CAVOK 30/12 Q1022;
0072832880999992007090615004-13267-043417FM-15+0440SBLP V0209999999999220001CN0099001N1+03101+01001999999ADDMA1102101999999REMMET045METAR SBLP 061500Z /////KT CAVOK 31/10 Q1021;
0072832880999992007090616004-13267-043417FM-15+0440SBLP V0209999999999220001CN0099001N1+03201+01001999999ADDMA1101901999999REMMET045METAR SBLP 061600Z /////KT CAVOK 32/10 Q1019;
0072832880999992007090617004-13267-043417FM-15+0440SBLP V0200901N00311220001CN0099001N1+03301+00901999999ADDMA1101691999999REMMET045METAR SBLP 061700Z 09006KT CAVOK 33/09 Q1017;
0072832880999992007090618004-13267-043417FM-15+0440SBLP V0209999999999220001CN0099001N1+03401+00901999999ADDMA1101691999999REMMET045METAR SBLP 061800Z /////KT CAVOK 34/09 Q1017;
0072832880999992007090619004-13267-043417FM-15+0440SBLP V0209999999999220001CN0099001N1+03301+01001999999ADDMA1101691999999REMMET045METAR SBLP 061900Z /////KT CAVOK 33/10 Q1017;
0072832880999992007090620004-13267-043417FM-15+0440SBLP V0209999999999220001CN0099001N1+03201+01001999999ADDMA1101691999999REMMET045METAR SBLP 062000Z /////KT CAVOK 32/10 Q1017;
0072832880999992007090621004-13267-043417FM-15+0440SBLP V0209999999999220001CN0099001N1+03201+01001999999ADDMA1101691999999REMMET045METAR SBLP 062100Z /////KT CAVOK 32/10 Q1017;
0072832880999992007090710004-13267-043417FM-15+0440SBLP V0202101N00311220001CN0099001N1+02101+01401999999ADDMA1102001999999REMMET045METAR SBLP 071000Z 21006KT CAVOK 21/14 Q1020;
0072832880999992007090711004-13267-043417FM-15+0440SBLP V0202101N00311220001CN0099001N1+02101+01401999999ADDMA1102001999999REMMET045METAR SBLP 071100Z 21006KT CAVOK 21/14 Q1020;
0120832880999992007090712004-13267-043417FM-15+0440SBLP V0200901N003112200019N0112651N1+02701+01301999999ADDGA1021+009001999GF102991999999999999999999MA1102101999999REMMET051METAR SBLP 071200Z 09006KT 9999 FEW030 27/13 Q1021;
0120832880999992007090713004-13267-043417FM-15+0440SBLP V0202101N003112200019N0112651N1+02801+01301999999ADDGA1041+009001999GF104991999999999999999999MA1102101999999REMMET051METAR SBLP 071300Z 21006KT 9999 SCT030 28/13 Q1021;
0143832880999992007090714004-13267-043417FM-15+0440SBLP V0209999C000012200019N0112651N1+02901+01401999999ADDGA1041+009001999GA2041+090001999GF104991999999999999999999MA1102001999999REMMET058METAR SBLP 071400Z 00000KT 9999 SCT030 SCT300 29/14 Q1020;
0143832880999992007090715004-13267-043417FM-15+0440SBLP V0202701N002110900019N0112651N1+03001+01401999999ADDGA1041+009001999GA2071+090001999GF107991999999999999999999MA1101901999999REMMET058METAR SBLP 071500Z 27004KT 9999 SCT030 BKN300 30/14 Q1019;
0143832880999992007090716004-13267-043417FM-15+0440SBLP V0201801N003112200019N0112651N1+03201+01401999999ADDGA1041+009001999GA2041+090001999GF104991999999999999999999MA1101801999999REMMET058METAR SBLP 071600Z 18006KT 9999 SCT030 SCT300 32/14 Q1018;
0120832880999992007090717004-13267-043417FM-15+0440SBLP V0201801N003112200019N0112651N1+03301+01401999999ADDGA1041+009001999GF104991999999999999999999MA1101691999999REMMET051METAR SBLP 071700Z 18006KT 9999 SCT030 33/14 Q1017;
0120832880999992007090718004-13267-043417FM-15+0440SBLP V0201801N003112200019N0112651N1+03401+01301999999ADDGA1041+009001999GF104991999999999999999999MA1101591999999REMMET051METAR SBLP 071800Z 18006KT 9999 SCT030 34/13 Q1016;
0120832880999992007090719004-13267-043417FM-15+0440SBLP V0200901N003112200019N0112651N1+03301+01301999999ADDGA1041+009001999GF104991999999999999999999MA1101591999999REMMET051METAR SBLP 071900Z 09006KT 9999 SCT030 33/13 Q1016;
0120832880999992007090720004-13267-043417FM-15+0440SBLP V0200901N003112200019N0112651N1+03201+01401999999ADDGA1021+009001999GF102991999999999999999999MA1101591999999REMMET051METAR SBLP 072000Z 09006KT 9999 FEW030 32/14 Q1016;
0120832880999992007090721004-13267-043417FM-15+0440SBLP V0200901N003112200019N0112651N1+03101+01401999999ADDGA1021+009001999GF102991999999999999999999MA1101591999999REMMET051METAR SBLP 072100Z 09006KT 9999 FEW030 31/14 Q1016;
0072832880999992007090810004-13267-043417FM-15+0440SBLP V0209999C00001220001CN0099001N1+02101+01601999999ADDMA1101901999999REMMET045METAR SBLP 081000Z 00000KT CAVOK 21/16 Q1019;
0072832880999992007090811004-13267-043417FM-15+0440SBLP V0209999C00001220001CN0099001N1+02401+01501999999ADDMA1102001999999REMMET045METAR SBLP 081100Z 00000KT CAVOK 24/15 Q1020;
0072832880999992007090812004-13267-043417FM-15+0440SBLP V0209999C00001220001CN0099001N1+02601+01301999999ADDMA1102001999999REMMET045METAR SBLP 081200Z 00000KT CAVOK 26/13 Q1020;
0072832880999992007090813004-13267-043417FM-15+0440SBLP V0209999C00001220001CN0099001N1+02801+01201999999ADDMA1102001999999REMMET045METAR SBLP 081300Z 00000KT CAVOK 28/12 Q1020;
0120832880999992007090814004-13267-043417FM-15+0440SBLP V0209999C000012200019N0112651N1+03001+01101999999ADDGA1021+009001999GF102991999999999999999999MA1102001999999REMMET051METAR SBLP 081400Z 00000KT 9999 FEW030 30/11 Q1020;
0120832880999992007090815004-13267-043417FM-15+0440SBLP V0200901N003112200019N0112651N1+03101+01101999999ADDGA1021+009001999GF102991999999999999999999MA1101801999999REMMET051METAR SBLP 081500Z 09006KT 9999 FEW030 31/11 Q1018;
0120832880999992007090816004-13267-043417FM-15+0440SBLP V0202401N002112200019N0112651N1+03201+01101999999ADDGA1041+009001999GF104991999999999999999999MA1101691999999REMMET051METAR SBLP 081600Z 24004KT 9999 SCT030 32/11 Q1017;
0120832880999992007090817004-13267-043417FM-15+0440SBLP V0202101N003112200019N0112651N1+03401+00901999999ADDGA1041+009001999GF104991999999999999999999MA1101491999999REMMET051METAR SBLP 081700Z 21006KT 9999 SCT030 34/09 Q1015;
0120832880999992007090818004-13267-043417FM-15+0440SBLP V0201801N003112200019N0112651N1+03401+01001999999ADDGA1021+009001999GF102991999999999999999999MA1101391999999REMMET051METAR SBLP 081800Z 18006KT 9999 FEW030 34/10 Q1014;
0120832880999992007090819004-13267-043417FM-15+0440SBLP V0202401N004112200019N0112651N1+03301+01001999999ADDGA1021+009001999GF102991999999999999999999MA1101391999999REMMET051METAR SBLP 081900Z 24008KT 9999 FEW030 33/10 Q1014;
0120832880999992007090820004-13267-043417FM-15+0440SBLP V0202101N004112200019N0112651N1+03201+00901999999ADDGA1021+009001999GF102991999999999999999999MA1101491999999REMMET051METAR SBLP 082000Z 21008KT 9999 FEW030 32/09 Q1015;
0072832880999992007090821004-13267-043417FM-15+0440SBLP V0202101N00311220001CN0099001N1+02901+01001999999ADDMA1101491999999REMMET045METAR SBLP 082100Z 21006KT CAVOK 29/10 Q1015;
0072832880999992007090910004-13267-043417FM-15+0440SBLP V0209999C00001220001CN0099001N1+02101+01601999999ADDMA1101901999999REMMET045METAR SBLP 091000Z 00000KT CAVOK 21/16 Q1019;
0072832880999992007090911004-13267-043417FM-15+0440SBLP V0209999C00001220001CN0099001N1+02301+01501999999ADDMA1102001999999REMMET045METAR SBLP 091100Z 00000KT CAVOK 23/15 Q1020;
0072832880999992007090912004-13267-043417FM-15+0440SBLP V0200901N00311220001CN0099001N1+02601+01301999999ADDMA1102001999999REMMET045METAR SBLP 091200Z 09006KT CAVOK 26/13 Q1020;
0072832880999992007090913004-13267-043417FM-15+0440SBLP V0200901N00311220001CN0099001N1+02801+01301999999ADDMA1102001999999REMMET045METAR SBLP 091300Z 09006KT CAVOK 28/13 Q1020;
0120832880999992007090914004-13267-043417FM-15+0440SBLP V0200901N003112200019N0112651N1+03001+01201999999ADDGA1021+009001999GF102991999999999999999999MA1101901999999REMMET051METAR SBLP 091400Z 09006KT 9999 FEW030 30/12 Q1019;
0120832880999992007090915004-13267-043417FM-15+0440SBLP V0200901N003112200019N0112651N1+03101+01101999999ADDGA1021+009001999GF102991999999999999999999MA1101691999999REMMET051METAR SBLP 091500Z 09006KT 9999 FEW030 31/11 Q1017;
0120832880999992007090916004-13267-043417FM-15+0440SBLP V0202101N002112200019N0112651N1+03201+01101999999ADDGA1041+009001999GF104991999999999999999999MA1101591999999REMMET051METAR SBLP 091600Z 21004KT 9999 SCT030 32/11 Q1016;
0120832880999992007090917004-13267-043417FM-15+0440SBLP V0209999C000012200019N0112651N1+03301+00801999999ADDGA1041+009001999GF104991999999999999999999MA1101491999999REMMET051METAR SBLP 091700Z 00000KT 9999 SCT030 33/08 Q1015;
0120832880999992007090918004-13267-043417FM-15+0440SBLP V0202501N003112200019N0112651N1+03301+00901999999ADDGA1041+009001999GF104991999999999999999999MA1101391999999REMMET051METAR SBLP 091800Z 25006KT 9999 SCT030 33/09 Q1014;
0120832880999992007090919004-13267-043417FM-15+0440SBLP V0202101N002112200019N0112651N1+03301+00901999999ADDGA1041+009001999GF104991999999999999999999MA1101391999999REMMET051METAR SBLP 091900Z 21004KT 9999 SCT030 33/09 Q1014;
0120832880999992007090920004-13267-043417FM-15+0440SBLP V0202101N002112200019N0112651N1+03101+00901999999ADDGA1041+009001999GF104991999999999999999999MA1101391999999REMMET051METAR SBLP 092000Z 21004KT 9999 SCT030 31/09 Q1014;
0120832880999992007090921004-13267-043417FM-15+0440SBLP V0202101N002112200019N0112651N1+02901+01101999999ADDGA1021+009001999GF102991999999999999999999MA1101491999999REMMET051METAR SBLP 092100Z 21004KT 9999 FEW030 29/11 Q1015;
0072832880999992007091010004-13267-043417FM-15+0440SBLP V0201801N00151220001CN0099001N1+02001+01401999999ADDMA1101801999999REMMET045METAR SBLP 101000Z 18003KT CAVOK 20/14 Q1018;
0072832880999992007091011004-13267-043417FM-15+0440SBLP V0201901N00211220001CN0099001N1+02401+01501999999ADDMA1101901999999REMMET045METAR SBLP 101100Z 19004KT CAVOK 24/15 Q1019;
0072832880999992007091012004-13267-043417FM-15+0440SBLP V0200901N00211220001CN0099001N1+02601+01501999999ADDMA1101901999999REMMET045METAR SBLP 101200Z 09004KT CAVOK 26/15 Q1019;
0072832880999992007091013004-13267-043417FM-15+0440SBLP V0200901N00311220001CN0099001N1+02901+01301999999ADDMA1101901999999REMMET045METAR SBLP 101300Z 09006KT CAVOK 29/13 Q1019;
0072832880999992007091014004-13267-043417FM-15+0440SBLP V0201201N00411220001CN0099001N1+03101+01201999999ADDMA1101801999999REMMET045METAR SBLP 101400Z 12008KT CAVOK 31/12 Q1018;
0120832880999992007091015004-13267-043417FM-15+0440SBLP V0200601N002112200019N0112651N1+03201+01201999999ADDGA1021+009001999GF102991999999999999999999MA1101691999999REMMET051METAR SBLP 101500Z 06004KT 9999 FEW030 32/12 Q1017;
0120832880999992007091016004-13267-043417FM-15+0440SBLP V0200601N003112200019N0112651N1+03301+01201999999ADDGA1041+009001999GF104991999999999999999999MA1101591999999REMMET051METAR SBLP 101600Z 06006KT 9999 SCT030 33/12 Q1016;
0120832880999992007091017004-13267-043417FM-15+0440SBLP V0202801N003112200019N0112651N1+03501+01101999999ADDGA1041+009001999GF104991999999999999999999MA1101491999999REMMET051METAR SBLP 101700Z 28006KT 9999 SCT030 35/11 Q1015;
0120832880999992007091018004-13267-043417FM-15+0440SBLP V0201401N003112200019N0112651N1+03401+01101999999ADDGA1041+009001999GF104991999999999999999999MA1101391999999REMMET051METAR SBLP 101800Z 14006KT 9999 SCT030 34/11 Q1014;
0120832880999992007091019004-13267-043417FM-15+0440SBLP V0201501N003112200019N0112651N1+03301+01101999999ADDGA1041+009001999GF104991999999999999999999MA1101391999999REMMET051METAR SBLP 101900Z 15006KT 9999 SCT030 33/11 Q1014;
0120832880999992007091020004-13267-043417FM-15+0440SBLP V0202401N003112200019N0112651N1+03301+01101999999ADDGA1021+009001999GF102991999999999999999999MA1101391999999REMMET051METAR SBLP 102000Z 24006KT 9999 FEW030 33/11 Q1014;
0120832880999992007091021004-13267-043417FM-15+0440SBLP V0202401N003112200019N0112651N1+03301+01101999999ADDGA1021+009001999GF102991999999999999999999MA1101391999999REMMET051METAR SBLP 102100Z 24006KT 9999 FEW030 33/11 Q1014;
0072832880999992007091110004-13267-043417FM-15+0440SBLP V0209999C00001220001CN0099001N1+02101+01501999999ADDMA1101901999999REMMET045METAR SBLP 111000Z 00000KT CAVOK 21/15 Q1019;
0072832880999992007091111004-13267-043417FM-15+0440SBLP V0202101N00151220001CN0099001N1+02401+01501999999ADDMA1101901999999REMMET045METAR SBLP 111100Z 21003KT CAVOK 24/15 Q1019;
0072832880999992007091112004-13267-043417FM-15+0440SBLP V0209999C00001220001CN0099001N1+02601+01301999999ADDMA1102001999999REMMET045METAR SBLP 111200Z 00000KT CAVOK 26/13 Q1020;
0072832880999992007091113004-13267-043417FM-15+0440SBLP V0203301N00211220001CN0099001N1+02901+01201999999ADDMA1101901999999REMMET045METAR SBLP 111300Z 33004KT CAVOK 29/12 Q1019;
0072832880999992007091114004-13267-043417FM-15+0440SBLP V0203301N00311220001CN0099001N1+03001+01201999999ADDMA1101901999999REMMET045METAR SBLP 111400Z 33006KT CAVOK 30/12 Q1019;
0072832880999992007091115004-13267-043417FM-15+0440SBLP V0203201N00211220001CN0099001N1+03201+01201999999ADDMA1101801999999REMMET045METAR SBLP 111500Z 32004KT CAVOK 32/12 Q1018;
0072832880999992007091116004-13267-043417FM-15+0440SBLP V0203201N00311220001CN0099001N1+03401+01001999999ADDMA1101591999999REMMET045METAR SBLP 111600Z 32006KT CAVOK 34/10 Q1016;
0072832880999992007091117004-13267-043417FM-15+0440SBLP V0202101N00211220001CN0099001N1+03501+01101999999ADDMA1101491999999REMMET045METAR SBLP 111700Z 21004KT CAVOK 35/11 Q1015;
0072832880999992007091118004-13267-043417FM-15+0440SBLP V0202701N00311220001CN0099001N1+03601+01001999999ADDMA1101391999999REMMET045METAR SBLP 111800Z 27006KT CAVOK 36/10 Q1014;
0072832880999992007091119004-13267-043417FM-15+0440SBLP V0202101N00311220001CN0099001N1+03601+01001999999ADDMA1101291999999REMMET045METAR SBLP 111900Z 21006KT CAVOK 36/10 Q1013;
0072832880999992007091120004-13267-043417FM-15+0440SBLP V0203001N00311220001CN0099001N1+03401+01001999999ADDMA1101391999999REMMET045METAR SBLP 112000Z 30006KT CAVOK 34/10 Q1014;
0072832880999992007091121004-13267-043417FM-15+0440SBLP V0203001N00311220001CN0099001N1+03001+01301999999ADDMA1101391999999REMMET045METAR SBLP 112100Z 30006KT CAVOK 30/13 Q1014;
0072832880999992007091210004-13267-043417FM-15+0440SBLP V0203001N00311220001CN0099001N1+02201+01501999999ADDMA1101901999999REMMET045METAR SBLP 121000Z 30006KT CAVOK 22/15 Q1019;
0072832880999992007091211004-13267-043417FM-15+0440SBLP V0203001N00311220001CN0099001N1+02201+01501999999ADDMA1101901999999REMMET045METAR SBLP 121100Z 30006KT CAVOK 22/15 Q1019;
0072832880999992007091212004-13267-043417FM-15+0440SBLP V0202701N00311220001CN0099001N1+02601+01301999999ADDMA1102101999999REMMET045METAR SBLP 121200Z 27006KT CAVOK 26/13 Q1021;
0072832880999992007091213004-13267-043417FM-15+0440SBLP V0202701N00311220001CN0099001N1+02901+01201999999ADDMA1102001999999REMMET045METAR SBLP 121300Z 27006KT CAVOK 29/12 Q1020;
0072832880999992007091214004-13267-043417FM-15+0440SBLP V0203601N00311220001CN0099001N1+03001+01201999999ADDMA1102001999999REMMET045METAR SBLP 121400Z 36006KT CAVOK 30/12 Q1020;
0072832880999992007091215004-13267-043417FM-15+0440SBLP V0201501N00311220001CN0099001N1+03201+01101999999ADDMA1101801999999REMMET045METAR SBLP 121500Z 15006KT CAVOK 32/11 Q1018;
0072832880999992007091216004-13267-043417FM-15+0440SBLP V0201801N00311220001CN0099001N1+03301+01101999999ADDMA1101691999999REMMET045METAR SBLP 121600Z 18006KT CAVOK 33/11 Q1017;
0072832880999992007091217004-13267-043417FM-15+0440SBLP V0201801N00311220001CN0099001N1+03501+01001999999ADDMA1101491999999REMMET045METAR SBLP 121700Z 18006KT CAVOK 35/10 Q1015;
0072832880999992007091218004-13267-043417FM-15+0440SBLP V0201801N00311220001CN0099001N1+03601+01001999999ADDMA1101391999999REMMET045METAR SBLP 121800Z 18006KT CAVOK 36/10 Q1014;
0072832880999992007091219004-13267-043417FM-15+0440SBLP V0201801N00311220001CN0099001N1+03401+01101999999ADDMA1101391999999REMMET045METAR SBLP 121900Z 18006KT CAVOK 34/11 Q1014;
0072832880999992007091220004-13267-043417FM-15+0440SBLP V0201801N00311220001CN0099001N1+03301+01101999999ADDMA1101391999999REMMET045METAR SBLP 122000Z 18006KT CAVOK 33/11 Q1014;
0072832880999992007091221004-13267-043417FM-15+0440SBLP V0201801N00311220001CN0099001N1+03101+01201999999ADDMA1101391999999REMMET045METAR SBLP 122100Z 18006KT CAVOK 31/12 Q1014;
0072832880999992007091310004-13267-043417FM-15+0440SBLP V0201801N00311220001CN0099001N1+02001+01401999999ADDMA1101901999999REMMET045METAR SBLP 131000Z 18006KT CAVOK 20/14 Q1019;
0072832880999992007091311004-13267-043417FM-15+0440SBLP V0209999C00001220001CN0099001N1+02301+01401999999ADDMA1102001999999REMMET045METAR SBLP 131100Z 00000KT CAVOK 23/14 Q1020;
0072832880999992007091312004-13267-043417FM-15+0440SBLP V0209999C00001220001CN0099001N1+02601+01301999999ADDMA1102001999999REMMET045METAR SBLP 131200Z 00000KT CAVOK 26/13 Q1020;
0072832880999992007091313004-13267-043417FM-15+0440SBLP V0200901N00311220001CN0099001N1+02901+01201999999ADDMA1101901999999REMMET045METAR SBLP 131300Z 09006KT CAVOK 29/12 Q1019;
0072832880999992007091314004-13267-043417FM-15+0440SBLP V0200901N00311220001CN0099001N1+02901+01201999999ADDMA1101901999999REMMET045METAR SBLP 131400Z 09006KT CAVOK 29/12 Q1019;
0072832880999992007091315004-13267-043417FM-15+0440SBLP V0200901N00311220001CN0099001N1+03201+01201999999ADDMA1101691999999REMMET045METAR SBLP 131500Z 09006KT CAVOK 32/12 Q1017;
0072832880999992007091316004-13267-043417FM-15+0440SBLP V0200901N00311220001CN0099001N1+03301+01101999999ADDMA1101591999999REMMET045METAR SBLP 131600Z 09006KT CAVOK 33/11 Q1016;
0120832880999992007091317004-13267-043417FM-15+0440SBLP V0200901N003112200019N0112651N1+03501+01001999999ADDGA1021+009001999GF102991999999999999999999MA1101391999999REMMET051METAR SBLP 131700Z 09006KT 9999 FEW030 35/10 Q1014;
0120832880999992007091318004-13267-043417FM-15+0440SBLP V0200901N003112200019N0112651N1+03601+01001999999ADDGA1021+009001999GF102991999999999999999999MA1101291999999REMMET051METAR SBLP 131800Z 09006KT 9999 FEW030 36/10 Q1013;
0120832880999992007091319004-13267-043417FM-15+0440SBLP V0200901N003112200019N0112651N1+03501+01001999999ADDGA1041+009001999GF104991999999999999999999MA1101291999999REMMET051METAR SBLP 131900Z 09006KT 9999 SCT030 35/10 Q1013;
0120832880999992007091320004-13267-043417FM-15+0440SBLP V0200901N003112200019N0112651N1+03301+01101999999ADDGA1041+009001999GF104991999999999999999999MA1101291999999REMMET051METAR SBLP 132000Z 09006KT 9999 SCT030 33/11 Q1013;
0120832880999992007091321004-13267-043417FM-15+0440SBLP V0200901N003112200019N0112651N1+03101+01201999999ADDGA1041+009001999GF104991999999999999999999MA1101291999999REMMET051METAR SBLP 132100Z 09006KT 9999 SCT030 31/12 Q1013;
0072832880999992007091410004-13267-043417FM-15+0440SBLP V0209999C00001220001CN0099001N1+02201+01501999999ADDMA1101801999999REMMET045METAR SBLP 141000Z 00000KT CAVOK 22/15 Q1018;
0072832880999992007091411004-13267-043417FM-15+0440SBLP V0200901N00311220001CN0099001N1+02501+01401999999ADDMA1101901999999REMMET045METAR SBLP 141100Z 09006KT CAVOK 25/14 Q1019;
0072832880999992007091412004-13267-043417FM-15+0440SBLP V0209999C00001220001CN0099001N1+02801+01201999999ADDMA1101901999999REMMET045METAR SBLP 141200Z 00000KT CAVOK 28/12 Q1019;
0072832880999992007091413004-13267-043417FM-15+0440SBLP V0200901N00311220001CN0099001N1+02901+01201999999ADDMA1101901999999REMMET045METAR SBLP 141300Z 09006KT CAVOK 29/12 Q1019;
0072832880999992007091414004-13267-043417FM-15+0440SBLP V0200901N00311220001CN0099001N1+03101+01101999999ADDMA1101801999999REMMET045METAR SBLP 141400Z 09006KT CAVOK 31/11 Q1018;
0072832880999992007091415004-13267-043417FM-15+0440SBLP V0200901N00311220001CN0099001N1+03201+01001999999ADDMA1101691999999REMMET045METAR SBLP 141500Z 09006KT CAVOK 32/10 Q1017;
0120832880999992007091416004-13267-043417FM-15+0440SBLP V0200901N002112200019N0112651N1+03301+00901999999ADDGA1021+009001999GF102991999999999999999999MA1101491999999REMMET051METAR SBLP 141600Z 09004KT 9999 FEW030 33/09 Q1015;
0120832880999992007091417004-13267-043417FM-15+0440SBLP V0202701N001512200019N0112651N1+03401+00801999999ADDGA1021+009001999GF102991999999999999999999MA1101391999999REMMET051METAR SBLP 141700Z 27003KT 9999 FEW030 34/08 Q1014;
0120832880999992007091418004-13267-043417FM-15+0440SBLP V0201801N003112200019N0112651N1+03501+00701999999ADDGA1021+009001999GF102991999999999999999999MA1101291999999REMMET051METAR SBLP 141800Z 18006KT 9999 FEW030 35/07 Q1013;
0120832880999992007091419004-13267-043417FM-15+0440SBLP V0201601N002112200019N0112651N1+03401+00801999999ADDGA1021+009001999GF102991999999999999999999MA1101291999999REMMET051METAR SBLP 141900Z 16004KT 9999 FEW030 34/08 Q1013;
0120832880999992007091420004-13267-043417FM-15+0440SBLP V0209999C000012200019N0112651N1+03301+00901999999ADDGA1021+009001999GF102991999999999999999999MA1101291999999REMMET051METAR SBLP 142000Z 00000KT 9999 FEW030 33/09 Q1013;
0072832880999992007091421004-13267-043417FM-15+0440SBLP V0209999C00001220001CN0099001N1+03101+00801999999ADDMA1101291999999REMMET045METAR SBLP 142100Z 00000KT CAVOK 31/08 Q1013;
0072832880999992007091510004-13267-043417FM-15+0440SBLP V0201401N00211220001CN0099001N1+02101+01401999999ADDMA1101691999999REMMET045METAR SBLP 151000Z 14004KT CAVOK 21/14 Q1017;
0072832880999992007091511004-13267-043417FM-15+0440SBLP V0201201N00311220001CN0099001N1+02501+01501999999ADDMA1101691999999REMMET045METAR SBLP 151100Z 12006KT CAVOK 25/15 Q1017;
0072832880999992007091512004-13267-043417FM-15+0440SBLP V0201201N00311220001CN0099001N1+02801+01301999999ADDMA1101801999999REMMET045METAR SBLP 151200Z 12006KT CAVOK 28/13 Q1018;
0072832880999992007091513004-13267-043417FM-15+0440SBLP V0201201N00311220001CN0099001N1+02901+01401999999ADDMA1101801999999REMMET045METAR SBLP 151300Z 12006KT CAVOK 29/14 Q1018;
0072832880999992007091514004-13267-043417FM-15+0440SBLP V0201501N00411220001CN0099001N1+03101+01401999999ADDMA1101691999999REMMET045METAR SBLP 151400Z 15008KT CAVOK 31/14 Q1017;
0120832880999992007091515004-13267-043417FM-15+0440SBLP V0201701N003112200019N0112651N1+03201+01401999999ADDGA1021+009001999GF102991999999999999999999MA1101591999999REMMET051METAR SBLP 151500Z 17006KT 9999 FEW030 32/14 Q1016;
0120832880999992007091516004-13267-043417FM-15+0440SBLP V0200901N003112200019N0112651N1+03401+01401999999ADDGA1021+009001999GF102991999999999999999999MA1101391999999REMMET051METAR SBLP 151600Z 09006KT 9999 FEW030 34/14 Q1014;
0120832880999992007091517004-13267-043417FM-15+0440SBLP V0202701N003112200019N0112651N1+03401+00901999999ADDGA1021+009001999GF102991999999999999999999MA1101291999999REMMET051METAR SBLP 151700Z 27006KT 9999 FEW030 34/09 Q1013;
0072832880999992007091518004-13267-043417FM-15+0440SBLP V0202401N00311220001CN0099001N1+03501+01001999999ADDMA1101191999999REMMET045METAR SBLP 151800Z 24006KT CAVOK 35/10 Q1012;
0072832880999992007091519004-13267-043417FM-15+0440SBLP V0202701N00311220001CN0099001N1+03401+00901999999ADDMA1101081999999REMMET045METAR SBLP 151900Z 27006KT CAVOK 34/09 Q1011;
0072832880999992007091520004-13267-043417FM-15+0440SBLP V0202101N00311220001CN0099001N1+03201+01201999999ADDMA1101081999999REMMET045METAR SBLP 152000Z 21006KT CAVOK 32/12 Q1011;
0072832880999992007091521004-13267-043417FM-15+0440SBLP V0202101N00311220001CN0099001N1+02901+01301999999ADDMA1101191999999REMMET045METAR SBLP 152100Z 21006KT CAVOK 29/13 Q1012;
0072832880999992007091610004-13267-043417FM-15+0440SBLP V0202101N00211220001CN0099001N1+02101+01401999999ADDMA1101591999999REMMET045METAR SBLP 161000Z 21004KT CAVOK 21/14 Q1016;
0072832880999992007091611004-13267-043417FM-15+0440SBLP V0202401N00211220001CN0099001N1+02401+01401999999ADDMA1101591999999REMMET045METAR SBLP 161100Z 24004KT CAVOK 24/14 Q1016;
0072832880999992007091612004-13267-043417FM-15+0440SBLP V0202501N00211220001CN0099001N1+02801+01401999999ADDMA1101691999999REMMET045METAR SBLP 161200Z 25004KT CAVOK 28/14 Q1017;
0072832880999992007091613004-13267-043417FM-15+0440SBLP V0202701N00211220001CN0099001N1+03001+01401999999ADDMA1101591999999REMMET045METAR SBLP 161300Z 27004KT CAVOK 30/14 Q1016;
0072832880999992007091614004-13267-043417FM-15+0440SBLP V0202701N00151220001CN0099001N1+03201+01401999999ADDMA1101491999999REMMET045METAR SBLP 161400Z 27003KT CAVOK 32/14 Q1015;
0072832880999992007091615004-13267-043417FM-15+0440SBLP V0201801N00411220001CN0099001N1+03401+00901999999ADDMA1101391999999REMMET045METAR SBLP 161500Z 18008KT CAVOK 34/09 Q1014;
0072832880999992007091616004-13267-043417FM-15+0440SBLP V0209999C00001220001CN0099001N1+03601+01001999999ADDMA1101291999999REMMET045METAR SBLP 161600Z 00000KT CAVOK 36/10 Q1013;
0072832880999992007091617004-13267-043417FM-15+0440SBLP V0202101N00311220001CN0099001N1+03501+01001999999ADDMA1101081999999REMMET045METAR SBLP 161700Z 21006KT CAVOK 35/10 Q1011;
0072832880999992007091618004-13267-043417FM-15+0440SBLP V0202701N00311220001CN0099001N1+03501+01001999999ADDMA1101081999999REMMET045METAR SBLP 161800Z 27006KT CAVOK 35/10 Q1011;
0072832880999992007091619004-13267-043417FM-15+0440SBLP V0202401N00311220001CN0099001N1+03501+01001999999ADDMA1101081999999REMMET045METAR SBLP 161900Z 24006KT CAVOK 35/10 Q1011;
0072832880999992007091620004-13267-043417FM-15+0440SBLP V0202101N00311220001CN0099001N1+03401+01001999999ADDMA1101081999999REMMET045METAR SBLP 162000Z 21006KT CAVOK 34/10 Q1011;
0072832880999992007091621004-13267-043417FM-15+0440SBLP V0202101N00211220001CN0099001N1+03201+01301999999ADDMA1101191999999REMMET045METAR SBLP 162100Z 21004KT CAVOK 32/13 Q1012;
0072832880999992007091710004-13267-043417FM-15+0440SBLP V0209999C00001220001CN0099001N1+02201+01201999999ADDMA1101491999999REMMET045METAR SBLP 171000Z 00000KT CAVOK 22/12 Q1015;
0072832880999992007091711004-13267-043417FM-15+0440SBLP V0203601N00211220001CN0099001N1+02501+01201999999ADDMA1101491999999REMMET045METAR SBLP 171100Z 36004KT CAVOK 25/12 Q1015;
0072832880999992007091712004-13267-043417FM-15+0440SBLP V0203501N00311220001CN0099001N1+02801+01301999999ADDMA1101591999999REMMET045METAR SBLP 171200Z 35006KT CAVOK 28/13 Q1016;
0072832880999992007091713004-13267-043417FM-15+0440SBLP V0203001N00311220001CN0099001N1+03101+01401999999ADDMA1101491999999REMMET045METAR SBLP 171300Z 30006KT CAVOK 31/14 Q1015;
0072832880999992007091714004-13267-043417FM-15+0440SBLP V0203601N00101220001CN0099001N1+03401+01201999999ADDMA1101391999999REMMET045METAR SBLP 171400Z 36002KT CAVOK 34/12 Q1014;
0072832880999992007091715004-13267-043417FM-15+0440SBLP V0209999C00001220001CN0099001N1+03601+01101999999ADDMA1101291999999REMMET045METAR SBLP 171500Z 00000KT CAVOK 36/11 Q1013;
0072832880999992007091716004-13267-043417FM-15+0440SBLP V0202701N00311220001CN0099001N1+03701+01101999999ADDMA1101191999999REMMET045METAR SBLP 171600Z 27006KT CAVOK 37/11 Q1012;
0072832880999992007091717004-13267-043417FM-15+0440SBLP V0202701N00311220001CN0099001N1+03801+01001999999ADDMA1101081999999REMMET045METAR SBLP 171700Z 27006KT CAVOK 38/10 Q1011;
0072832880999992007091718004-13267-043417FM-15+0440SBLP V0202701N00311220001CN0099001N1+03801+01001999999ADDMA1101021999999REMMET045METAR SBLP 171800Z 27006KT CAVOK 38/10 Q1010;
0072832880999992007091719004-13267-043417FM-15+0440SBLP V0201801N00311220001CN0099001N1+03801+01001999999ADDMA1101021999999REMMET045METAR SBLP 171900Z 18006KT CAVOK 38/10 Q1010;
0072832880999992007091720004-13267-043417FM-15+0440SBLP V0201801N00311220001CN0099001N1+03701+01001999999ADDMA1101021999999REMMET045METAR SBLP 172000Z 18006KT CAVOK 37/10 Q1010;
0072832880999992007091721004-13267-043417FM-15+0440SBLP V0201801N00311220001CN0099001N1+03501+01201999999ADDMA1101021999999REMMET045METAR SBLP 172100Z 18006KT CAVOK 35/12 Q1010;
0072832880999992007091810004-13267-043417FM-15+0440SBLP V0209999C00001220001CN0099001N1+02501+01601999999ADDMA1101691999999REMMET045METAR SBLP 181000Z 00000KT CAVOK 25/16 Q1017;
0072832880999992007091811004-13267-043417FM-15+0440SBLP V0200901N00311220001CN0099001N1+02801+01401999999ADDMA1101801999999REMMET045METAR SBLP 181100Z 09006KT CAVOK 28/14 Q1018;
0072832880999992007091812004-13267-043417FM-15+0440SBLP V0200901N00311220001CN0099001N1+03001+01301999999ADDMA1101901999999REMMET045METAR SBLP 181200Z 09006KT CAVOK 30/13 Q1019;
0072832880999992007091813004-13267-043417FM-15+0440SBLP V0200901N00311220001CN0099001N1+03101+01301999999ADDMA1101901999999REMMET045METAR SBLP 181300Z 09006KT CAVOK 31/13 Q1019;
0072832880999992007091814004-13267-043417FM-15+0440SBLP V0200901N00311220001CN0099001N1+03201+01201999999ADDMA1101691999999REMMET045METAR SBLP 181400Z 09006KT CAVOK 32/12 Q1017;
0072832880999992007091815004-13267-043417FM-15+0440SBLP V0200901N00311220001CN0099001N1+03301+01101999999ADDMA1101591999999REMMET045METAR SBLP 181500Z 09006KT CAVOK 33/11 Q1016;
0072832880999992007091816004-13267-043417FM-15+0440SBLP V0200901N00311220001CN0099001N1+03301+01101999999ADDMA1101591999999REMMET045METAR SBLP 181600Z 09006KT CAVOK 33/11 Q1016;
0072832880999992007091817004-13267-043417FM-15+0440SBLP V0201201N00511220001CN0099001N1+03401+01201999999ADDMA1101391999999REMMET045METAR SBLP 181700Z 12010KT CAVOK 34/12 Q1014;
0072832880999992007091818004-13267-043417FM-15+0440SBLP V0201801N00311220001CN0099001N1+03501+01101999999ADDMA1101291999999REMMET045METAR SBLP 181800Z 18006KT CAVOK 35/11 Q1013;
0072832880999992007091819004-13267-043417FM-15+0440SBLP V0201501N00311220001CN0099001N1+03501+01101999999ADDMA1101291999999REMMET045METAR SBLP 181900Z 15006KT CAVOK 35/11 Q1013;
0072832880999992007091820004-13267-043417FM-15+0440SBLP V0201501N00511220001CN0099001N1+03401+01201999999ADDMA1101291999999REMMET045METAR SBLP 182000Z 15010KT CAVOK 34/12 Q1013;
0072832880999992007091821004-13267-043417FM-15+0440SBLP V0201201N00311220001CN0099001N1+03201+01101999999ADDMA1101391999999REMMET045METAR SBLP 182100Z 12006KT CAVOK 32/11 Q1014;
0072832880999992007091910004-13267-043417FM-15+0440SBLP V0209999C00001220001CN0099001N1+02301+01501999999ADDMA1101901999999REMMET045METAR SBLP 191000Z 00000KT CAVOK 23/15 Q1019;
0072832880999992007091911004-13267-043417FM-15+0440SBLP V0209999C00001220001CN0099001N1+02601+01301999999ADDMA1101901999999REMMET045METAR SBLP 191100Z 00000KT CAVOK 26/13 Q1019;
0072832880999992007091912004-13267-043417FM-15+0440SBLP V0200901N00311220001CN0099001N1+02901+01201999999ADDMA1101901999999REMMET045METAR SBLP 191200Z 09006KT CAVOK 29/12 Q1019;
0072832880999992007091913004-13267-043417FM-15+0440SBLP V0200901N00311220001CN0099001N1+03101+01101999999ADDMA1101901999999REMMET045METAR SBLP 191300Z 09006KT CAVOK 31/11 Q1019;
0072832880999992007091914004-13267-043417FM-15+0440SBLP V0200901N00311220001CN0099001N1+03201+01001999999ADDMA1101801999999REMMET045METAR SBLP 191400Z 09006KT CAVOK 32/10 Q1018;
0072832880999992007091915004-13267-043417FM-15+0440SBLP V0200901N00311220001CN0099001N1+03201+01101999999ADDMA1101691999999REMMET045METAR SBLP 191500Z 09006KT CAVOK 32/11 Q1017;
0072832880999992007091916004-13267-043417FM-15+0440SBLP V0202201N00311220001CN0099001N1+03301+01401999999ADDMA1101491999999REMMET045METAR SBLP 191600Z 22006KT CAVOK 33/14 Q1015;
0072832880999992007091917004-13267-043417FM-15+0440SBLP V0202101N00411220001CN0099001N1+03501+01401999999ADDMA1101391999999REMMET045METAR SBLP 191700Z 21008KT CAVOK 35/14 Q1014;
0072832880999992007091918004-13267-043417FM-15+0440SBLP V0201501N00511220001CN0099001N1+03601+01301999999ADDMA1101291999999REMMET045METAR SBLP 191800Z 15010KT CAVOK 36/13 Q1013;
0072832880999992007091919004-13267-043417FM-15+0440SBLP V0201501N00411220001CN0099001N1+03601+01001999999ADDMA1101291999999REMMET045METAR SBLP 191900Z 15008KT CAVOK 36/10 Q1013;
0072832880999992007091920004-13267-043417FM-15+0440SBLP V0201801N00411220001CN0099001N1+03401+01101999999ADDMA1101291999999REMMET045METAR SBLP 192000Z 18008KT CAVOK 34/11 Q1013;
0072832880999992007091921004-13267-043417FM-15+0440SBLP V0201701N00311220001CN0099001N1+03201+01101999999ADDMA1101391999999REMMET045METAR SBLP 192100Z 17006KT CAVOK 32/11 Q1014;
0072832880999992007092010004-13267-043417FM-15+0440SBLP V0202201N00151220001CN0099001N1+02101+01301999999ADDMA1101691999999REMMET045METAR SBLP 201000Z 22003KT CAVOK 21/13 Q1017;
0072832880999992007092011004-13267-043417FM-15+0440SBLP V0201701N00151220001CN0099001N1+02401+01401999999ADDMA1101691999999REMMET045METAR SBLP 201100Z 17003KT CAVOK 24/14 Q1017;
0072832880999992007092012004-13267-043417FM-15+0440SBLP V0200901N00311220001CN0099001N1+02701+01301999999ADDMA1101801999999REMMET045METAR SBLP 201200Z 09006KT CAVOK 27/13 Q1018;
0072832880999992007092013004-13267-043417FM-15+0440SBLP V0200901N00311220001CN0099001N1+02901+01401999999ADDMA1101691999999REMMET045METAR SBLP 201300Z 09006KT CAVOK 29/14 Q1017;
0072832880999992007092014004-13267-043417FM-15+0440SBLP V0202201N00411220001CN0099001N1+03101+01201999999ADDMA1101691999999REMMET045METAR SBLP 201400Z 22008KT CAVOK 31/12 Q1017;
0072832880999992007092015004-13267-043417FM-15+0440SBLP V0201801N00311220001CN0099001N1+03201+01201999999ADDMA1101491999999REMMET045METAR SBLP 201500Z 18006KT CAVOK 32/12 Q1015;
0072832880999992007092016004-13267-043417FM-15+0440SBLP V0201501N00311220001CN0099001N1+03301+01201999999ADDMA1101391999999REMMET045METAR SBLP 201600Z 15006KT CAVOK 33/12 Q1014;
0072832880999992007092017004-13267-043417FM-15+0440SBLP V0201201N00311220001CN0099001N1+03501+01101999999ADDMA1101291999999REMMET045METAR SBLP 201700Z 12006KT CAVOK 35/11 Q1013;
0072832880999992007092018004-13267-043417FM-15+0440SBLP V0202101N00311220001CN0099001N1+03501+01101999999ADDMA1101191999999REMMET045METAR SBLP 201800Z 21006KT CAVOK 35/11 Q1012;
0072832880999992007092019004-13267-043417FM-15+0440SBLP V0200901N00311220001CN0099001N1+03601+01101999999ADDMA1101081999999REMMET045METAR SBLP 201900Z 09006KT CAVOK 36/11 Q1011;
0072832880999992007092020004-13267-043417FM-15+0440SBLP V0201201N00311220001CN0099001N1+03401+01201999999ADDMA1101081999999REMMET045METAR SBLP 202000Z 12006KT CAVOK 34/12 Q1011;
0072832880999992007092021004-13267-043417FM-15+0440SBLP V0201201N00311220001CN0099001N1+03201+01301999999ADDMA1101191999999REMMET045METAR SBLP 202100Z 12006KT CAVOK 32/13 Q1012;
0072832880999992007092110004-13267-043417FM-15+0440SBLP V0201801N00101220001CN0099001N1+02201+01201999999ADDMA1101691999999REMMET045METAR SBLP 211000Z 18002KT CAVOK 22/12 Q1017;
0072832880999992007092111004-13267-043417FM-15+0440SBLP V0209999C00001220001CN0099001N1+02601+01301999999ADDMA1101801999999REMMET045METAR SBLP 211100Z 00000KT CAVOK 26/13 Q1018;
0072832880999992007092112004-13267-043417FM-15+0440SBLP V0200901N00511220001CN0099001N1+02801+01301999999ADDMA1101801999999REMMET045METAR SBLP 211200Z 09010KT CAVOK 28/13 Q1018;
0072832880999992007092113004-13267-043417FM-15+0440SBLP V0200601N00771220001CN0099001N1+03001+01501999999ADDMA1101801999999REMMET045METAR SBLP 211300Z 06015KT CAVOK 30/15 Q1018;
0120832880999992007092114004-13267-043417FM-15+0440SBLP V0201501N004112200019N0112651N1+03201+01301999999ADDGA1021+009001999GF102991999999999999999999MA1101691999999REMMET051METAR SBLP 211400Z 15008KT 9999 FEW030 32/13 Q1017;
0120832880999992007092115004-13267-043417FM-15+0440SBLP V0201201N004112200019N0112651N1+03301+01401999999ADDGA1021+009001999GF102991999999999999999999MA1101491999999REMMET051METAR SBLP 211500Z 12008KT 9999 FEW030 33/14 Q1015;
0120832880999992007092116004-13267-043417FM-15+0440SBLP V0200901N003112200019N0112651N1+03501+01301999999ADDGA1021+009001999GF102991999999999999999999MA1101391999999REMMET051METAR SBLP 211600Z 09006KT 9999 FEW030 35/13 Q1014;
0120832880999992007092117004-13267-043417FM-15+0440SBLP V0200901N003112200019N0112651N1+03601+01201999999ADDGA1021+009001999GF102991999999999999999999MA1101291999999REMMET051METAR SBLP 211700Z 09006KT 9999 FEW030 36/12 Q1013;
0120832880999992007092119004-13267-043417FM-15+0440SBLP V0200901N003112200019N0112651N1+03501+01201999999ADDGA1021+009001999GF102991999999999999999999MA1101191999999REMMET051METAR SBLP 211900Z 09006KT 9999 FEW030 35/12 Q1012;
0072832880999992007092120004-13267-043417FM-15+0440SBLP V0201201N00311220001CN0099001N1+03201+01301999999ADDMA1101291999999REMMET045METAR SBLP 212000Z 12006KT CAVOK 32/13 Q1013;
0072832880999992007092121004-13267-043417FM-15+0440SBLP V0200901N00311220001CN0099001N1+03001+01501999999ADDMA1101291999999REMMET045METAR SBLP 212100Z 09006KT CAVOK 30/15 Q1013;
0072832880999992007092210004-13267-043417FM-15+0440SBLP V0200901N00311220001CN0099001N1+02301+01301999999ADDMA1101801999999REMMET045METAR SBLP 221000Z 09006KT CAVOK 23/13 Q1018;
0072832880999992007092211004-13267-043417FM-15+0440SBLP V0200901N00311220001CN0099001N1+02801+01401999999ADDMA1101901999999REMMET045METAR SBLP 221100Z 09006KT CAVOK 28/14 Q1019;
0072832880999992007092212004-13267-043417FM-15+0440SBLP V0200601N00311220001CN0099001N1+02901+01501999999ADDMA1101901999999REMMET045METAR SBLP 221200Z 06006KT CAVOK 29/15 Q1019;
0072832880999992007092213004-13267-043417FM-15+0440SBLP V0200901N00311220001CN0099001N1+03001+01501999999ADDMA1101801999999REMMET045METAR SBLP 221300Z 09006KT CAVOK 30/15 Q1018;
0120832880999992007092214004-13267-043417FM-15+0440SBLP V0201601N003112200019N0112651N1+03301+01401999999ADDGA1021+009001999GF102991999999999999999999MA1101691999999REMMET051METAR SBLP 221400Z 16006KT 9999 FEW030 33/14 Q1017;
0120832880999992007092215004-13267-043417FM-15+0440SBLP V0203601N003112200019N0112651N1+03501+01301999999ADDGA1041+009001999GF104991999999999999999999MA1101491999999REMMET051METAR SBLP 221500Z 36006KT 9999 SCT030 35/13 Q1015;
0120832880999992007092216004-13267-043417FM-15+0440SBLP V0203601N003112200019N0112651N1+03501+01301999999ADDGA1041+009001999GF104991999999999999999999MA1101391999999REMMET051METAR SBLP 221600Z 36006KT 9999 SCT030 35/13 Q1014;
0120832880999992007092217004-13267-043417FM-15+0440SBLP V0203601N003112200019N0112651N1+03601+01201999999ADDGA1041+009001999GF104991999999999999999999MA1101191999999REMMET051METAR SBLP 221700Z 36006KT 9999 SCT030 36/12 Q1012;
0120832880999992007092218004-13267-043417FM-15+0440SBLP V0200901N003112200019N0112651N1+03601+01101999999ADDGA1041+009001999GF104991999999999999999999MA1101081999999REMMET051METAR SBLP 221800Z 09006KT 9999 SCT030 36/11 Q1011;
0120832880999992007092219004-13267-043417FM-15+0440SBLP V0200901N003112200019N0112651N1+03601+01101999999ADDGA1041+009001999GF104991999999999999999999MA1101081999999REMMET051METAR SBLP 221900Z 09006KT 9999 SCT030 36/11 Q1011;
0120832880999992007092220004-13267-043417FM-15+0440SBLP V0200901N003112200019N0112651N1+03601+01101999999ADDGA1021+009001999GF102991999999999999999999MA1101081999999REMMET051METAR SBLP 222000Z 09006KT 9999 FEW030 36/11 Q1011;
0120832880999992007092221004-13267-043417FM-15+0440SBLP V0200901N003112200019N0112651N1+03401+01201999999ADDGA1021+009001999GF102991999999999999999999MA1101191999999REMMET051METAR SBLP 222100Z 09006KT 9999 FEW030 34/12 Q1012;
0072832880999992007092310004-13267-043417FM-15+0440SBLP V0209999C00001220001CN0099001N1+02401+01401999999ADDMA1101591999999REMMET045METAR SBLP 231000Z 00000KT CAVOK 24/14 Q1016;
0072832880999992007092311004-13267-043417FM-15+0440SBLP V0200901N00311220001CN0099001N1+02701+01501999999ADDMA1101591999999REMMET045METAR SBLP 231100Z 09006KT CAVOK 27/15 Q1016;
0072832880999992007092312004-13267-043417FM-15+0440SBLP V0203601N00211220001CN0099001N1+02901+01501999999ADDMA1101691999999REMMET045METAR SBLP 231200Z 36004KT CAVOK 29/15 Q1017;
0072832880999992007092313004-13267-043417FM-15+0440SBLP V0200401N00311220001CN0099001N1+03201+01401999999ADDMA1101591999999REMMET045METAR SBLP 231300Z 04006KT CAVOK 32/14 Q1016;
0072832880999992007092314004-13267-043417FM-15+0440SBLP V0200401N00311220001CN0099001N1+03401+01401999999ADDMA1101491999999REMMET045METAR SBLP 231400Z 04006KT CAVOK 34/14 Q1015;
0120832880999992007092315004-13267-043417FM-15+0440SBLP V0202101N002112200019N0112651N1+03601+01101999999ADDGA1021+009001999GF102991999999999999999999MA1101391999999REMMET051METAR SBLP 231500Z 21004KT 9999 FEW030 36/11 Q1014;
0120832880999992007092316004-13267-043417FM-15+0440SBLP V0202701N003112200019N0112651N1+03601+01101999999ADDGA1021+009001999GF102991999999999999999999MA1101191999999REMMET051METAR SBLP 231600Z 27006KT 9999 FEW030 36/11 Q1012;
0120832880999992007092317004-13267-043417FM-15+0440SBLP V0202701N003112200019N0112651N1+03701+01101999999ADDGA1021+009001999GF102991999999999999999999MA1101081999999REMMET051METAR SBLP 231700Z 27006KT 9999 FEW030 37/11 Q1011;
0120832880999992007092318004-13267-043417FM-15+0440SBLP V0202701N003112200019N0112651N1+03801+01001999999ADDGA1021+009001999GF102991999999999999999999MA1101081999999REMMET051METAR SBLP 231800Z 27006KT 9999 FEW030 38/10 Q1011;
0120832880999992007092319004-13267-043417FM-15+0440SBLP V0202701N003112200019N0112651N1+03701+01001999999ADDGA1021+009001999GF102991999999999999999999MA1101081999999REMMET051METAR SBLP 231900Z 27006KT 9999 FEW030 37/10 Q1011;
0120832880999992007092320004-13267-043417FM-15+0440SBLP V0209999C000012200019N0112651N1+03701+01101999999ADDGA1021+009001999GF102991999999999999999999MA1101081999999REMMET051METAR SBLP 232000Z 00000KT 9999 FEW030 37/11 Q1011;
0072832880999992007092321004-13267-043417FM-15+0440SBLP V0209999C00001220001CN0099001N1+03501+01201999999ADDMA1101081999999REMMET045METAR SBLP 232100Z 00000KT CAVOK 35/12 Q1011;
0072832880999992007092410004-13267-043417FM-15+0440SBLP V0209999C00001220001CN0099001N1+02501+01601999999ADDMA1101491999999REMMET045METAR SBLP 241000Z 00000KT CAVOK 25/16 Q1015;
0072832880999992007092411004-13267-043417FM-15+0440SBLP V0209999C00001220001CN0099001N1+02701+01501999999ADDMA1101591999999REMMET045METAR SBLP 241100Z 00000KT CAVOK 27/15 Q1016;
0072832880999992007092412004-13267-043417FM-15+0440SBLP V0209999C00001220001CN0099001N1+03001+01301999999ADDMA1101591999999REMMET045METAR SBLP 241200Z 00000KT CAVOK 30/13 Q1016;
0072832880999992007092413004-13267-043417FM-15+0440SBLP V0209999C00001220001CN0099001N1+03201+01201999999ADDMA1101591999999REMMET045METAR SBLP 241300Z 00000KT CAVOK 32/12 Q1016;
0072832880999992007092414004-13267-043417FM-15+0440SBLP V0209999C00001220001CN0099001N1+03401+01001999999ADDMA1101491999999REMMET045METAR SBLP 241400Z 00000KT CAVOK 34/10 Q1015;
0072832880999992007092415004-13267-043417FM-15+0440SBLP V0203601N00211220001CN0099001N1+03601+01001999999ADDMA1101391999999REMMET045METAR SBLP 241500Z 36004KT CAVOK 36/10 Q1014;
0072832880999992007092416004-13267-043417FM-15+0440SBLP V0203001N00311220001CN0099001N1+03601+01301999999ADDMA1101291999999REMMET045METAR SBLP 241600Z 30006KT CAVOK 36/13 Q1013;
0120832880999992007092417004-13267-043417FM-15+0440SBLP V0203001N003112200019N0112651N1+03801+01101999999ADDGA1021+009001999GF102991999999999999999999MA1101081999999REMMET051METAR SBLP 241700Z 30006KT 9999 FEW030 38/11 Q1011;
0120832880999992007092418004-13267-043417FM-15+0440SBLP V0201701N003112200019N0112651N1+03801+01201999999ADDGA1021+009001999GF102991999999999999999999MA1101021999999REMMET051METAR SBLP 241800Z 17006KT 9999 FEW030 38/12 Q1010;
0120832880999992007092419004-13267-043417FM-15+0440SBLP V0202001N004112200019N0112651N1+03801+01201999999ADDGA1021+009001999GF102991999999999999999999MA1101021999999REMMET051METAR SBLP 241900Z 20008KT 9999 FEW030 38/12 Q1010;
0072832880999992007092420004-13267-043417FM-15+0440SBLP V0202101N00211220001CN0099001N1+03701+01001999999ADDMA1101021999999REMMET045METAR SBLP 242000Z 21004KT CAVOK 37/10 Q1010;
0072832880999992007092421004-13267-043417FM-15+0440SBLP V0202201N00211220001CN0099001N1+03501+01001999999ADDMA1101021999999REMMET045METAR SBLP 242100Z 22004KT CAVOK 35/10 Q1010;
0072832880999992007092510004-13267-043417FM-15+0440SBLP V0209999C00001220001CN0099001N1+02601+01501999999ADDMA1101291999999REMMET045METAR SBLP 251000Z 00000KT CAVOK 26/15 Q1013;
0072832880999992007092511004-13267-043417FM-15+0440SBLP V0200901N00311220001CN0099001N1+02901+01401999999ADDMA1101491999999REMMET045METAR SBLP 251100Z 09006KT CAVOK 29/14 Q1015;
0072832880999992007092512004-13267-043417FM-15+0440SBLP V0200901N00311220001CN0099001N1+03201+01201999999ADDMA1101491999999REMMET045METAR SBLP 251200Z 09006KT CAVOK 32/12 Q1015;
0072832880999992007092513004-13267-043417FM-15+0440SBLP V0200901N00311220001CN0099001N1+03401+01101999999ADDMA1101491999999REMMET045METAR SBLP 251300Z 09006KT CAVOK 34/11 Q1015;
0072832880999992007092514004-13267-043417FM-15+0440SBLP V0200901N00311220001CN0099001N1+03501+01001999999ADDMA1101491999999REMMET045METAR SBLP 251400Z 09006KT CAVOK 35/10 Q1015;
0120832880999992007092515004-13267-043417FM-15+0440SBLP V0203601N003112200019N0112651N1+03701+01001999999ADDGA1021+009001999GF102991999999999999999999MA1101391999999REMMET051METAR SBLP 251500Z 36006KT 9999 FEW030 37/10 Q1014;
0120832880999992007092516004-13267-043417FM-15+0440SBLP V0201301N002112200019N0112651N1+03701+01301999999ADDGA1021+009001999GF102991999999999999999999MA1101191999999REMMET051METAR SBLP 251600Z 13004KT 9999 FEW030 37/13 Q1012;
0120832880999992007092517004-13267-043417FM-15+0440SBLP V0201501N004112200019N0112651N1+03801+01201999999ADDGA1021+009001999GF102991999999999999999999MA1101081999999REMMET051METAR SBLP 251700Z 15008KT 9999 FEW030 38/12 Q1011;
0120832880999992007092518004-13267-043417FM-15+0440SBLP V0201501N005112200019N0112651N1+03801+01201999999ADDGA1021+009001999GF102991999999999999999999MA1101081999999REMMET051METAR SBLP 251800Z 15010KT 9999 FEW030 38/12 Q1011;
0072832880999992007092520004-13267-043417FM-15+0440SBLP V0201201N00511220001CN0099001N1+03601+01101999999ADDMA1101191999999REMMET045METAR SBLP 252000Z 12010KT CAVOK 36/11 Q1012;
0072832880999992007092521004-13267-043417FM-15+0440SBLP V0201201N00511220001CN0099001N1+03301+01301999999ADDMA1101291999999REMMET045METAR SBLP 252100Z 12010KT CAVOK 33/13 Q1013;
0072832880999992007092610004-13267-043417FM-15+0440SBLP V0201501N00411220001CN0099001N1+02401+01501999999ADDMA1101801999999REMMET045METAR SBLP 261000Z 15008KT CAVOK 24/15 Q1018;
0072832880999992007092611004-13267-043417FM-15+0440SBLP V0201501N00311220001CN0099001N1+02601+01501999999ADDMA1101901999999REMMET045METAR SBLP 261100Z 15006KT CAVOK 26/15 Q1019;
0072832880999992007092612004-13267-043417FM-15+0440SBLP V0200901N00411220001CN0099001N1+02901+01501999999ADDMA1101901999999REMMET045METAR SBLP 261200Z 09008KT CAVOK 29/15 Q1019;
0072832880999992007092613004-13267-043417FM-15+0440SBLP V0200901N00411220001CN0099001N1+03101+01501999999ADDMA1101901999999REMMET045METAR SBLP 261300Z 09008KT CAVOK 31/15 Q1019;
0120832880999992007092614004-13267-043417FM-15+0440SBLP V0201201N004112200019N0112651N1+03201+01501999999ADDGA1021+009001999GF102991999999999999999999MA1101901999999REMMET051METAR SBLP 261400Z 12008KT 9999 FEW030 32/15 Q1019;
0120832880999992007092615004-13267-043417FM-15+0440SBLP V0201801N002112200019N0112651N1+03201+01401999999ADDGA1021+009001999GF102991999999999999999999MA1101801999999REMMET051METAR SBLP 261500Z 18004KT 9999 FEW030 32/14 Q1018;
0120832880999992007092616004-13267-043417FM-15+0440SBLP V0201501N003112200019N0112651N1+03301+01401999999ADDGA1021+009001999GF102991999999999999999999MA1101591999999REMMET051METAR SBLP 261600Z 15006KT 9999 FEW030 33/14 Q1016;
0120832880999992007092617004-13267-043417FM-15+0440SBLP V0201501N003112200019N0112651N1+03301+01401999999ADDGA1021+009001999GF102991999999999999999999MA1101591999999REMMET051METAR SBLP 261700Z 15006KT 9999 FEW030 33/14 Q1016;
0120832880999992007092618004-13267-043417FM-15+0440SBLP V0200901N003112200019N0112651N1+03501+01301999999ADDGA1041+009001999GF104991999999999999999999MA1101391999999REMMET051METAR SBLP 261800Z 09006KT 9999 SCT030 35/13 Q1014;
0120832880999992007092619004-13267-043417FM-15+0440SBLP V0201201N003112200019N0112651N1+03501+01301999999ADDGA1021+009001999GF102991999999999999999999MA1101391999999REMMET051METAR SBLP 261900Z 12006KT 9999 FEW030 35/13 Q1014;
0072832880999992007092620004-13267-043417FM-15+0440SBLP V0201501N00411220001CN0099001N1+03301+01401999999ADDMA1101491999999REMMET045METAR SBLP 262000Z 15008KT CAVOK 33/14 Q1015;
0120832880999992007092711004-13267-043417FM-15+0440SBLP V0209999C000012200019N0112651N1+02701+01601999999ADDGA1021+009001999GF102991999999999999999999MA1102301999999REMMET051METAR SBLP 271100Z 00000KT 9999 FEW030 27/16 Q1023;
0120832880999992007092712004-13267-043417FM-15+0440SBLP V0209999C000012200019N0112651N1+02901+01601999999ADDGA1041+009001999GF104991999999999999999999MA1102301999999REMMET051METAR SBLP 271200Z 00000KT 9999 SCT030 29/16 Q1023;
0120832880999992007092713004-13267-043417FM-15+0440SBLP V0209999C000012200019N0112651N1+02901+01601999999ADDGA1041+009001999GF104991999999999999999999MA1102301999999REMMET051METAR SBLP 271300Z 00000KT 9999 SCT030 29/16 Q1023;
0120832880999992007092714004-13267-043417FM-15+0440SBLP V0201801N003112200019N0112651N1+03001+01601999999ADDGA1041+009001999GF104991999999999999999999MA1102201999999REMMET051METAR SBLP 271400Z 18006KT 9999 SCT030 30/16 Q1022;
0120832880999992007092715004-13267-043417FM-15+0440SBLP V0201801N003112200019N0112651N1+03001+01601999999ADDGA1041+009001999GF104991999999999999999999MA1102101999999REMMET051METAR SBLP 271500Z 18006KT 9999 SCT030 30/16 Q1021;
0120832880999992007092716004-13267-043417FM-15+0440SBLP V0201801N003112200019N0112651N1+03001+01501999999ADDGA1041+009001999GF104991999999999999999999MA1101901999999REMMET051METAR SBLP 271600Z 18006KT 9999 SCT030 30/15 Q1019;
0120832880999992007092717004-13267-043417FM-15+0440SBLP V0202701N003112200019N0112651N1+03101+01501999999ADDGA1041+009001999GF104991999999999999999999MA1101801999999REMMET051METAR SBLP 271700Z 27006KT 9999 SCT030 31/15 Q1018;
0120832880999992007092718004-13267-043417FM-15+0440SBLP V0202701N003112200019N0112651N1+03201+01501999999ADDGA1041+009001999GF104991999999999999999999MA1101691999999REMMET051METAR SBLP 271800Z 27006KT 9999 SCT030 32/15 Q1017;
0120832880999992007092719004-13267-043417FM-15+0440SBLP V0201801N003112200019N0112651N1+03401+01401999999ADDGA1041+009001999GF104991999999999999999999MA1101591999999REMMET051METAR SBLP 271900Z 18006KT 9999 SCT030 34/14 Q1016;
0120832880999992007092720004-13267-043417FM-15+0440SBLP V0201801N003112200019N0112651N1+03401+01401999999ADDGA1021+009001999GF102991999999999999999999MA1101591999999REMMET051METAR SBLP 272000Z 18006KT 9999 FEW030 34/14 Q1016;
0120832880999992007092721004-13267-043417FM-15+0440SBLP V0201801N003112200019N0112651N1+03101+01501999999ADDGA1021+009001999GF102991999999999999999999MA1101591999999REMMET051METAR SBLP 272100Z 18006KT 9999 FEW030 31/15 Q1016;
0072832880999992007092810004-13267-043417FM-15+0440SBLP V0201201N00311220001CN0099001N1+02201+01401999999ADDMA1102101999999REMMET045METAR SBLP 281000Z 12006KT CAVOK 22/14 Q1021;
0072832880999992007092811004-13267-043417FM-15+0440SBLP V0201201N00411220001CN0099001N1+02501+01601999999ADDMA1102201999999REMMET045METAR SBLP 281100Z 12008KT CAVOK 25/16 Q1022;
0072832880999992007092812004-13267-043417FM-15+0440SBLP V0200901N00311220001CN0099001N1+02601+01501999999ADDMA1102201999999REMMET045METAR SBLP 281200Z 09006KT CAVOK 26/15 Q1022;
0120832880999992007092813004-13267-043417FM-15+0440SBLP V0200601N003112200019N0112651N1+02901+01501999999ADDGA1021+009001999GF102991999999999999999999MA1102201999999REMMET051METAR SBLP 281300Z 06006KT 9999 FEW030 29/15 Q1022;
0120832880999992007092814004-13267-043417FM-15+0440SBLP V0200901N003112200019N0112651N1+03001+01501999999ADDGA1021+009001999GF102991999999999999999999MA1102101999999REMMET051METAR SBLP 281400Z 09006KT 9999 FEW030 30/15 Q1021;
0120832880999992007092815004-13267-043417FM-15+0440SBLP V0201201N003112200019N0112651N1+03001+01501999999ADDGA1021+009001999GF102991999999999999999999MA1102001999999REMMET051METAR SBLP 281500Z 12006KT 9999 FEW030 30/15 Q1020;
0120832880999992007092816004-13267-043417FM-15+0440SBLP V0203301N003112200019N0112651N1+03301+01301999999ADDGA1021+009001999GF102991999999999999999999MA1101801999999REMMET051METAR SBLP 281600Z 33006KT 9999 FEW030 33/13 Q1018;
0120832880999992007092817004-13267-043417FM-15+0440SBLP V0200901N003112200019N0112651N1+03401+01101999999ADDGA1021+009001999GF102991999999999999999999MA1101691999999REMMET051METAR SBLP 281700Z 09006KT 9999 FEW030 34/11 Q1017;
0120832880999992007092818004-13267-043417FM-15+0440SBLP V0200901N003112200019N0112651N1+03601+01101999999ADDGA1021+009001999GF102991999999999999999999MA1101591999999REMMET051METAR SBLP 281800Z 09006KT 9999 FEW030 36/11 Q1016;
0120832880999992007092819004-13267-043417FM-15+0440SBLP V0200901N003112200019N0112651N1+03601+01101999999ADDGA1021+009001999GF102991999999999999999999MA1101491999999REMMET051METAR SBLP 281900Z 09006KT 9999 FEW030 36/11 Q1015;
0072832880999992007092820004-13267-043417FM-15+0440SBLP V0200901N00311220001CN0099001N1+03401+01201999999ADDMA1101491999999REMMET045METAR SBLP 282000Z 09006KT CAVOK 34/12 Q1015;
0072832880999992007092821004-13267-043417FM-15+0440SBLP V0200901N00311220001CN0099001N1+03201+01301999999ADDMA1101591999999REMMET045METAR SBLP 282100Z 09006KT CAVOK 32/13 Q1016;
0072832880999992007092909004-13267-043417FM-15+0440SBLP V0209999C00001220001CN0099001N1+02001+01701999999ADDMA1101901999999REMMET045METAR SBLP 290900Z 00000KT CAVOK 20/17 Q1019;
0072832880999992007092910004-13267-043417FM-15+0440SBLP V0209999C00001220001CN0099001N1+02201+01601999999ADDMA1102001999999REMMET045METAR SBLP 291000Z 00000KT CAVOK 22/16 Q1020;
0072832880999992007092911004-13267-043417FM-15+0440SBLP V0209999C00001220001CN0099001N1+02601+01401999999ADDMA1102101999999REMMET045METAR SBLP 291100Z 00000KT CAVOK 26/14 Q1021;
0072832880999992007092912004-13267-043417FM-15+0440SBLP V0209999C00001220001CN0099001N1+02901+01301999999ADDMA1102101999999REMMET045METAR SBLP 291200Z 00000KT CAVOK 29/13 Q1021;
0072832880999992007092913004-13267-043417FM-15+0440SBLP V0200901N00311220001CN0099001N1+03101+01001999999ADDMA1102001999999REMMET045METAR SBLP 291300Z 09006KT CAVOK 31/10 Q1020;
0072832880999992007092914004-13267-043417FM-15+0440SBLP V0200901N00311220001CN0099001N1+03301+00901999999ADDMA1101901999999REMMET045METAR SBLP 291400Z 09006KT CAVOK 33/09 Q1019;
0072832880999992007092915004-13267-043417FM-15+0440SBLP V0200901N00311220001CN0099001N1+03401+00901999999ADDMA1101691999999REMMET045METAR SBLP 291500Z 09006KT CAVOK 34/09 Q1017;
0072832880999992007092916004-13267-043417FM-15+0440SBLP V0201501N00311220001CN0099001N1+03501+01101999999ADDMA1101591999999REMMET045METAR SBLP 291600Z 15006KT CAVOK 35/11 Q1016;
0072832880999992007092917004-13267-043417FM-15+0440SBLP V0201501N00411220001CN0099001N1+03501+00901999999ADDMA1101491999999REMMET045METAR SBLP 291700Z 15008KT CAVOK 35/09 Q1015;
0072832880999992007092918004-13267-043417FM-15+0440SBLP V0202101N00411220001CN0099001N1+03601+00801999999ADDMA1101391999999REMMET045METAR SBLP 291800Z 21008KT CAVOK 36/08 Q1014;
0072832880999992007092919004-13267-043417FM-15+0440SBLP V0201501N00411220001CN0099001N1+03601+00701999999ADDMA1101391999999REMMET045METAR SBLP 291900Z 15008KT CAVOK 36/07 Q1014;
0072832880999992007092920004-13267-043417FM-15+0440SBLP V0201301N00311220001CN0099001N1+03501+00601999999ADDMA1101391999999REMMET045METAR SBLP 292000Z 13006KT CAVOK 35/06 Q1014;
0072832880999992007092921004-13267-043417FM-15+0440SBLP V0201301N00311220001CN0099001N1+03201+00501999999ADDMA1101491999999REMMET045METAR SBLP 292100Z 13006KT CAVOK 32/05 Q1015;
0072832880999992007093010004-13267-043417FM-15+0440SBLP V0209999C00001220001CN0099001N1+02301+01601999999ADDMA1101901999999REMMET045METAR SBLP 301000Z 00000KT CAVOK 23/16 Q1019;
0072832880999992007093011004-13267-043417FM-15+0440SBLP V0200901N00311220001CN0099001N1+02701+01401999999ADDMA1102001999999REMMET045METAR SBLP 301100Z 09006KT CAVOK 27/14 Q1020;
0072832880999992007093012004-13267-043417FM-15+0440SBLP V0200901N00311220001CN0099001N1+02901+01301999999ADDMA1102001999999REMMET045METAR SBLP 301200Z 09006KT CAVOK 29/13 Q1020;
0072832880999992007093013004-13267-043417FM-15+0440SBLP V0200901N00311220001CN0099001N1+03201+01101999999ADDMA1101901999999REMMET045METAR SBLP 301300Z 09006KT CAVOK 32/11 Q1019;
0072832880999992007093014004-13267-043417FM-15+0440SBLP V0200901N00311220001CN0099001N1+03201+01101999999ADDMA1101901999999REMMET045METAR SBLP 301400Z 09006KT CAVOK 32/11 Q1019;
0072832880999992007093015004-13267-043417FM-15+0440SBLP V0201201N00311220001CN0099001N1+03401+01001999999ADDMA1101691999999REMMET045METAR SBLP 301500Z 12006KT CAVOK 34/10 Q1017;
0078832880999992007093016004-13267-043417FM-15+0440SBLP V0201201N004112200019N0112651N1+03501+01101999999ADDMA1101501999999REMMET051METAR SBLP 301600Z 12008KT 9999 FEWO30 35/11 Q1015;
0120832880999992007093017004-13267-043417FM-15+0440SBLP V0201501N002112200019N0112651N1+03601+01001999999ADDGA1041+009001999GF104991999999999999999999MA1101391999999REMMET051METAR SBLP 301700Z 15004KT 9999 SCT030 36/10 Q1014;
0120832880999992007093018004-13267-043417FM-15+0440SBLP V0201801N003112200019N0112651N1+03801+00701999999ADDGA1041+009001999GF104991999999999999999999MA1101291999999REMMET051METAR SBLP 301800Z 18006KT 9999 SCT030 38/07 Q1013;
0120832880999992007093019004-13267-043417FM-15+0440SBLP V0201501N005112200019N0112651N1+03601+00701999999ADDGA1021+009001999GF102991999999999999999999MA1101291999999REMMET051METAR SBLP 301900Z 15010KT 9999 FEW030 36/07 Q1013;
0120832880999992007093020004-13267-043417FM-15+0440SBLP V0201501N005112200019N0112651N1+03501+00901999999ADDGA1021+009001999GF102991999999999999999999MA1101291999999REMMET051METAR SBLP 302000Z 15010KT 9999 FEW030 35/09 Q1013;
0120832880999992007093021004-13267-043417FM-15+0440SBLP V0201501N003112200019N0112651N1+03301+00801999999ADDGA1021+009001999GF102991999999999999999999MA1101391999999REMMET051METAR SBLP 302100Z 15006KT 9999 FEW030 33/08 Q1014;
0072832880999992007100110004-13267-043417FM-15+0440SBLP V0209999C00001220001CN0099001N1+02401+01401999999ADDMA1102001999999REMMET045METAR SBLP 011000Z 00000KT CAVOK 24/14 Q1020;
0072832880999992007100111004-13267-043417FM-15+0440SBLP V0201201N00311220001CN0099001N1+02701+01401999999ADDMA1102101999999REMMET045METAR SBLP 011100Z 12006KT CAVOK 27/14 Q1021;
0072832880999992007100112004-13267-043417FM-15+0440SBLP V0201401N00311220001CN0099001N1+02801+01401999999ADDMA1102101999999REMMET045METAR SBLP 011200Z 14006KT CAVOK 28/14 Q1021;
0120832880999992007100113004-13267-043417FM-15+0440SBLP V0200401N003112200019N0112651N1+03001+01401999999ADDGA1021+009001999GF102991999999999999999999MA1102001999999REMMET051METAR SBLP 011300Z 04006KT 9999 FEW030 30/14 Q1020;
0120832880999992007100114004-13267-043417FM-15+0440SBLP V0201201N003112200019N0112651N1+03201+01301999999ADDGA1021+009001999GF102991999999999999999999MA1102001999999REMMET051METAR SBLP 011400Z 12006KT 9999 FEW030 32/13 Q1020;
0120832880999992007100115004-13267-043417FM-15+0440SBLP V0200901N003112200019N0112651N1+03301+01301999999ADDGA1041+009001999GF104991999999999999999999MA1101801999999REMMET051METAR SBLP 011500Z 09006KT 9999 SCT030 33/13 Q1018;
0120832880999992007100116004-13267-043417FM-15+0440SBLP V0201801N003112200019N0112651N1+03401+01101999999ADDGA1041+009001999GF104991999999999999999999MA1101691999999REMMET051METAR SBLP 011600Z 18006KT 9999 SCT030 34/11 Q1017;
0120832880999992007100117004-13267-043417FM-15+0440SBLP V0209999C000012200019N0112651N1+03501+01101999999ADDGA1021+009001999GF102991999999999999999999MA1101491999999REMMET051METAR SBLP 011700Z 00000KT 9999 FEW030 35/11 Q1015;
0072832880999992007100118004-13267-043417FM-15+0440SBLP V0209999C00001220001CN0099001N1+03601+01101999999ADDMA1101391999999REMMET045METAR SBLP 011800Z 00000KT CAVOK 36/11 Q1014;
0120832880999992007100119004-13267-043417FM-15+0440SBLP V0202101N002112200019N0112651N1+03501+01201999999ADDGA1021+009001999GF102991999999999999999999MA1101391999999REMMET051METAR SBLP 011900Z 21004KT 9999 FEW030 35/12 Q1014;
0120832880999992007100120004-13267-043417FM-15+0440SBLP V0202101N002112200019N0112651N1+03501+01201999999ADDGA1021+009001999GF102991999999999999999999MA1101391999999REMMET051METAR SBLP 012000Z 21004KT 9999 FEW030 35/12 Q1014;
0072832880999992007100121004-13267-043417FM-15+0440SBLP V0209999C00001220001CN0099001N1+02901+01601999999ADDMA1101391999999REMMET045METAR SBLP 012100Z 00000KT CAVOK 29/16 Q1014;
0072832880999992007100210004-13267-043417FM-15+0440SBLP V0201801N00311220001CN0099001N1+02301+01401999999ADDMA1101901999999REMMET045METAR SBLP 021000Z 18006KT CAVOK 23/14 Q1019;
0072832880999992007100211004-13267-043417FM-15+0440SBLP V0201801N00311220001CN0099001N1+02501+01301999999ADDMA1102001999999REMMET045METAR SBLP 021100Z 18006KT CAVOK 25/13 Q1020;
0072832880999992007100212004-13267-043417FM-15+0440SBLP V0201201N00311220001CN0099001N1+02801+01401999999ADDMA1102001999999REMMET045METAR SBLP 021200Z 12006KT CAVOK 28/14 Q1020;
0072832880999992007100213004-13267-043417FM-15+0440SBLP V0202201N00311220001CN0099001N1+03001+01201999999ADDMA1102001999999REMMET045METAR SBLP 021300Z 22006KT CAVOK 30/12 Q1020;
0120832880999992007100214004-13267-043417FM-15+0440SBLP V0209999C000012200019N0112651N1+03201+01301999999ADDGA1021+009001999GF102991999999999999999999MA1101901999999REMMET051METAR SBLP 021400Z 00000KT 9999 FEW030 32/13 Q1019;
0120832880999992007100215004-13267-043417FM-15+0440SBLP V0201201N003112200019N0112651N1+03201+01401999999ADDGA1021+009001999GF102991999999999999999999MA1101801999999REMMET051METAR SBLP 021500Z 12006KT 9999 FEW030 32/14 Q1018;
0120832880999992007100216004-13267-043417FM-15+0440SBLP V0201801N003112200019N0112651N1+03401+01301999999ADDGA1041+009001999GF104991999999999999999999MA1101591999999REMMET051METAR SBLP 021600Z 18006KT 9999 SCT030 34/13 Q1016;
0120832880999992007100217004-13267-043417FM-15+0440SBLP V0201801N003112200019N0112651N1+03501+01301999999ADDGA1041+009001999GF104991999999999999999999MA1101491999999REMMET051METAR SBLP 021700Z 18006KT 9999 SCT030 35/13 Q1015;
0120832880999992007100218004-13267-043417FM-15+0440SBLP V0201801N003112200019N0112651N1+03601+01301999999ADDGA1041+009001999GF104991999999999999999999MA1101391999999REMMET051METAR SBLP 021800Z 18006KT 9999 SCT030 36/13 Q1014;
0120832880999992007100219004-13267-043417FM-15+0440SBLP V0201801N003112200019N0112651N1+03601+01301999999ADDGA1021+009001999GF102991999999999999999999MA1101391999999REMMET051METAR SBLP 021900Z 18006KT 9999 FEW030 36/13 Q1014;
0120832880999992007100220004-13267-043417FM-15+0440SBLP V0201801N003112200019N0112651N1+03401+01301999999ADDGA1021+009001999GF102991999999999999999999MA1101491999999REMMET051METAR SBLP 022000Z 18006KT 9999 FEW030 34/13 Q1015;
0072832880999992007100221004-13267-043417FM-15+0440SBLP V0201801N00311220001CN0099001N1+03201+01401999999ADDMA1101491999999REMMET045METAR SBLP 022100Z 18006KT CAVOK 32/14 Q1015;
0072832880999992007100310004-13267-043417FM-15+0440SBLP V0202101N00311220001CN0099001N1+02201+01601999999ADDMA1101901999999REMMET045METAR SBLP 031000Z 21006KT CAVOK 22/16 Q1019;
0072832880999992007100311004-13267-043417FM-15+0440SBLP V0202101N00311220001CN0099001N1+02201+01601999999ADDMA1101901999999REMMET045METAR SBLP 031100Z 21006KT CAVOK 22/16 Q1019;
0072832880999992007100312004-13267-043417FM-15+0440SBLP V0201501N00311220001CN0099001N1+02701+01401999999ADDMA1101901999999REMMET045METAR SBLP 031200Z 15006KT CAVOK 27/14 Q1019;
0120832880999992007100313004-13267-043417FM-15+0440SBLP V0201801N003112200019N0112651N1+03001+01601999999ADDGA1021+009001999GF102991999999999999999999MA1101901999999REMMET051METAR SBLP 031300Z 18006KT 9999 FEW030 30/16 Q1019;
0120832880999992007100314004-13267-043417FM-15+0440SBLP V0201801N003112200019N0112651N1+03101+01401999999ADDGA1021+009001999GF102991999999999999999999MA1101691999999REMMET051METAR SBLP 031400Z 18006KT 9999 FEW030 31/14 Q1017;
0120832880999992007100315004-13267-043417FM-15+0440SBLP V0201801N004112200019N0112651N1+03301+01301999999ADDGA1041+009001999GF104991999999999999999999MA1101591999999REMMET051METAR SBLP 031500Z 18008KT 9999 SCT030 33/13 Q1016;
0120832880999992007100316004-13267-043417FM-15+0440SBLP V0201801N003112200019N0112651N1+03401+01201999999ADDGA1041+009001999GF104991999999999999999999MA1101491999999REMMET051METAR SBLP 031600Z 18006KT 9999 SCT030 34/12 Q1015;
0120832880999992007100317004-13267-043417FM-15+0440SBLP V0201801N003112200019N0112651N1+03501+01201999999ADDGA1041+009001999GF104991999999999999999999MA1101291999999REMMET051METAR SBLP 031700Z 18006KT 9999 SCT030 35/12 Q1013;
0120832880999992007100318004-13267-043417FM-15+0440SBLP V0201801N003112200019N0112651N1+03601+01201999999ADDGA1041+009001999GF104991999999999999999999MA1101291999999REMMET051METAR SBLP 031800Z 18006KT 9999 SCT030 36/12 Q1013;
0120832880999992007100319004-13267-043417FM-15+0440SBLP V0201801N003112200019N0112651N1+03601+01201999999ADDGA1021+009001999GF102991999999999999999999MA1101291999999REMMET051METAR SBLP 031900Z 18006KT 9999 FEW030 36/12 Q1013;
0120832880999992007100320004-13267-043417FM-15+0440SBLP V0201801N003112200019N0112651N1+03401+01301999999ADDGA1021+009001999GF102991999999999999999999MA1101291999999REMMET051METAR SBLP 032000Z 18006KT 9999 FEW030 34/13 Q1013;
0072832880999992007100321004-13267-043417FM-15+0440SBLP V0201801N00311220001CN0099001N1+03301+01401999999ADDMA1101391999999REMMET045METAR SBLP 032100Z 18006KT CAVOK 33/14 Q1014;
0072832880999992007100410004-13267-043417FM-15+0440SBLP V0209999C00001220001CN0099001N1+02401+01601999999ADDMA1101691999999REMMET045METAR SBLP 041000Z 00000KT CAVOK 24/16 Q1017;
0072832880999992007100411004-13267-043417FM-15+0440SBLP V0200901N00311220001CN0099001N1+02701+01401999999ADDMA1101801999999REMMET045METAR SBLP 041100Z 09006KT CAVOK 27/14 Q1018;
0072832880999992007100412004-13267-043417FM-15+0440SBLP V0200901N00311220001CN0099001N1+03001+01201999999ADDMA1101801999999REMMET045METAR SBLP 041200Z 09006KT CAVOK 30/12 Q1018;
0072832880999992007100413004-13267-043417FM-15+0440SBLP V0200901N00311220001CN0099001N1+03201+01201999999ADDMA1101691999999REMMET045METAR SBLP 041300Z 09006KT CAVOK 32/12 Q1017;
0072832880999992007100414004-13267-043417FM-15+0440SBLP V0200901N00311220001CN0099001N1+03301+01101999999ADDMA1101591999999REMMET045METAR SBLP 041400Z 09006KT CAVOK 33/11 Q1016;
0120832880999992007100415004-13267-043417FM-15+0440SBLP V0201801N003112200019N0112651N1+03301+01101999999ADDGA1021+009001999GF102991999999999999999999MA1101491999999REMMET051METAR SBLP 041500Z 18006KT 9999 FEW030 33/11 Q1015;
0120832880999992007100416004-13267-043417FM-15+0440SBLP V0202101N004112200019N0112651N1+03401+00901999999ADDGA1021+009001999GF102991999999999999999999MA1101291999999REMMET051METAR SBLP 041600Z 21008KT 9999 FEW030 34/09 Q1013;
0120832880999992007100417004-13267-043417FM-15+0440SBLP V0201801N004112200019N0112651N1+03501+00601999999ADDGA1021+009001999GF102991999999999999999999MA1101191999999REMMET051METAR SBLP 041700Z 18008KT 9999 FEW030 35/06 Q1012;
0120832880999992007100418004-13267-043417FM-15+0440SBLP V0202101N004112200019N0112651N1+03501+00801999999ADDGA1021+009001999GF102991999999999999999999MA1101191999999REMMET051METAR SBLP 041800Z 21008KT 9999 FEW030 35/08 Q1012;
0120832880999992007100419004-13267-043417FM-15+0440SBLP V0201801N004112200019N0112651N1+03501+00901999999ADDGA1021+009001999GF102991999999999999999999MA1101191999999REMMET051METAR SBLP 041900Z 18008KT 9999 FEW030 35/09 Q1012;
0072832880999992007100420004-13267-043417FM-15+0440SBLP V0201801N00511220001CN0099001N1+03301+01001999999ADDMA1101191999999REMMET045METAR SBLP 042000Z 18010KT CAVOK 33/10 Q1012;
0072832880999992007100421004-13267-043417FM-15+0440SBLP V0201801N00311220001CN0099001N1+03101+01201999999ADDMA1101291999999REMMET045METAR SBLP 042100Z 18006KT CAVOK 31/12 Q1013;
0072832880999992007100510004-13267-043417FM-15+0440SBLP V0209999C00001220001CN0099001N1+02201+01601999999ADDMA1101691999999REMMET045METAR SBLP 051000Z 00000KT CAVOK 22/16 Q1017;
0072832880999992007100511004-13267-043417FM-15+0440SBLP V0209999C00001220001CN0099001N1+02501+01601999999ADDMA1101801999999REMMET045METAR SBLP 051100Z 00000KT CAVOK 25/16 Q1018;
0120832880999992007100512004-13267-043417FM-15+0440SBLP V0201401N003112200019N0112651N1+02801+01601999999ADDGA1021+009001999GF102991999999999999999999MA1101691999999REMMET051METAR SBLP 051200Z 14006KT 9999 FEW030 28/16 Q1017;
0120832880999992007100513004-13267-043417FM-15+0440SBLP V0201501N003112200019N0112651N1+03001+01501999999ADDGA1021+009001999GF102991999999999999999999MA1101691999999REMMET051METAR SBLP 051300Z 15006KT 9999 FEW030 30/15 Q1017;
0120832880999992007100514004-13267-043417FM-15+0440SBLP V0201501N003112200019N0112651N1+03001+01501999999ADDGA1021+009001999GF102991999999999999999999MA1101691999999REMMET051METAR SBLP 051400Z 15006KT 9999 FEW030 30/15 Q1017;
0120832880999992007100515004-13267-043417FM-15+0440SBLP V0203301N003112200019N0112651N1+03201+01401999999ADDGA1041+009001999GF104991999999999999999999MA1101491999999REMMET051METAR SBLP 051500Z 33006KT 9999 SCT030 32/14 Q1015;
0120832880999992007100516004-13267-043417FM-15+0440SBLP V0202701N003112200019N0112651N1+03301+01301999999ADDGA1041+009001999GF104991999999999999999999MA1101391999999REMMET051METAR SBLP 051600Z 27006KT 9999 SCT030 33/13 Q1014;
0143832880999992007100517004-13267-043417FM-15+0440SBLP V0201801N003112200019N0112651N1+03401+01201999999ADDGA1041+009001999GA2041+090001999GF104991999999999999999999MA1101291999999REMMET058METAR SBLP 051700Z 18006KT 9999 SCT030 SCT300 34/12 Q1013;
0143832880999992007100518004-13267-043417FM-15+0440SBLP V0201801N001512200019N0112651N1+03501+01101999999ADDGA1021+009001999GA2041+090001999GF104991999999999999999999MA1101191999999REMMET058METAR SBLP 051800Z 18003KT 9999 FEW030 SCT300 35/11 Q1012;
0143832880999992007100519004-13267-043417FM-15+0440SBLP V0201801N004112200019N0112651N1+03501+01101999999ADDGA1021+009001999GA2041+090001999GF104991999999999999999999MA1101191999999REMMET058METAR SBLP 051900Z 18008KT 9999 FEW030 SCT300 35/11 Q1012;
0143832880999992007100520004-13267-043417FM-15+0440SBLP V0202401N003112200019N0112651N1+03401+01001999999ADDGA1021+009001999GA2041+090001999GF104991999999999999999999MA1101191999999REMMET058METAR SBLP 052000Z 24006KT 9999 FEW030 SCT300 34/10 Q1012;
0143832880999992007100521004-13267-043417FM-15+0440SBLP V0202101N003112200019N0112651N1+03201+01001999999ADDGA1021+009001999GA2041+090001999GF104991999999999999999999MA1101191999999REMMET058METAR SBLP 052100Z 21006KT 9999 FEW030 SCT300 32/10 Q1012;
0072832880999992007100610004-13267-043417FM-15+0440SBLP V0201801N00211220001CN0099001N1+02301+01601999999ADDMA1101591999999REMMET045METAR SBLP 061000Z 18004KT CAVOK 23/16 Q1016;
0072832880999992007100611004-13267-043417FM-15+0440SBLP V0201201N00311220001CN0099001N1+02701+01501999999ADDMA1101691999999REMMET045METAR SBLP 061100Z 12006KT CAVOK 27/15 Q1017;
0072832880999992007100612004-13267-043417FM-15+0440SBLP V0201401N00411220001CN0099001N1+02901+01501999999ADDMA1101691999999REMMET045METAR SBLP 061200Z 14008KT CAVOK 29/15 Q1017;
0072832880999992007100613004-13267-043417FM-15+0440SBLP V0200901N00211220001CN0099001N1+03201+01601999999ADDMA1101591999999REMMET045METAR SBLP 061300Z 09004KT CAVOK 32/16 Q1016;
0120832880999992007100614004-13267-043417FM-15+0440SBLP V0201201N003112200019N0112651N1+03201+01301999999ADDGA1021+009001999GF102991999999999999999999MA1101491999999REMMET051METAR SBLP 061400Z 12006KT 9999 FEW030 32/13 Q1015;
0120832880999992007100615004-13267-043417FM-15+0440SBLP V0201501N004112200019N0112651N1+03401+01101999999ADDGA1021+009001999GF102991999999999999999999MA1101391999999REMMET051METAR SBLP 061500Z 15008KT 9999 FEW030 34/11 Q1014;
0120832880999992007100616004-13267-043417FM-15+0440SBLP V0201501N004112200019N0112651N1+03401+01101999999ADDGA1021+009001999GF102991999999999999999999MA1101391999999REMMET051METAR SBLP 061600Z 15008KT 9999 FEW030 34/11 Q1014;
0120832880999992007100617004-13267-043417FM-15+0440SBLP V0202701N003112200019N0112651N1+03601+01101999999ADDGA1041+009001999GF104991999999999999999999MA1101191999999REMMET051METAR SBLP 061700Z 27006KT 9999 SCT030 36/11 Q1012;
0120832880999992007100618004-13267-043417FM-15+0440SBLP V0203301N003112200019N0112651N1+03601+01201999999ADDGA1041+009001999GF104991999999999999999999MA1101081999999REMMET051METAR SBLP 061800Z 33006KT 9999 SCT030 36/12 Q1011;
0120832880999992007100619004-13267-043417FM-15+0440SBLP V0202301N003112200019N0112651N1+03601+01201999999ADDGA1021+009001999GF102991999999999999999999MA1101081999999REMMET051METAR SBLP 061900Z 23006KT 9999 FEW030 36/12 Q1011;
0120832880999992007100620004-13267-043417FM-15+0440SBLP V0202101N003112200019N0112651N1+03301+01401999999ADDGA1021+009001999GF102991999999999999999999MA1101081999999REMMET051METAR SBLP 062000Z 21006KT 9999 FEW030 33/14 Q1011;
0120832880999992007100621004-13267-043417FM-15+0440SBLP V0202101N003112200019N0112651N1+03301+01401999999ADDGA1021+009001999GF102991999999999999999999MA1101081999999REMMET051METAR SBLP 062100Z 21006KT 9999 FEW030 33/14 Q1011;
0072832880999992007100710004-13267-043417FM-15+0440SBLP V0209999C00001220001CN0099001N1+02001+01401999999ADDMA1101491999999REMMET045METAR SBLP 071000Z 00000KT CAVOK 20/14 Q1015;
0072832880999992007100711004-13267-043417FM-15+0440SBLP V0201201N00311220001CN0099001N1+02701+01401999999ADDMA1101591999999REMMET045METAR SBLP 071100Z 12006KT CAVOK 27/14 Q1016;
0072832880999992007100712004-13267-043417FM-15+0440SBLP V0201201N00211220001CN0099001N1+02901+01301999999ADDMA1101591999999REMMET045METAR SBLP 071200Z 12004KT CAVOK 29/13 Q1016;
0072832880999992007100713004-13267-043417FM-15+0440SBLP V0201201N00311220001CN0099001N1+03001+01201999999ADDMA1101491999999REMMET045METAR SBLP 071300Z 12006KT CAVOK 30/12 Q1015;
0120832880999992007100714004-13267-043417FM-15+0440SBLP V0201401N003112200019N0112651N1+03201+01201999999ADDGA1021+009001999GF102991999999999999999999MA1101391999999REMMET051METAR SBLP 071400Z 14006KT 9999 FEW030 32/12 Q1014;
0120832880999992007100715004-13267-043417FM-15+0440SBLP V0202101N003112200019N0112651N1+03401+01201999999ADDGA1041+009001999GF104991999999999999999999MA1101291999999REMMET051METAR SBLP 071500Z 21006KT 9999 SCT030 34/12 Q1013;
0120832880999992007100716004-13267-043417FM-15+0440SBLP V0201801N003112200019N0112651N1+03501+01201999999ADDGA1041+009001999GF104991999999999999999999MA1101081999999REMMET051METAR SBLP 071600Z 18006KT 9999 SCT030 35/12 Q1011;
0120832880999992007100717004-13267-043417FM-15+0440SBLP V0201801N003112200019N0112651N1+03601+01101999999ADDGA1041+009001999GF104991999999999999999999MA1101021999999REMMET051METAR SBLP 071700Z 18006KT 9999 SCT030 36/11 Q1010;
0120832880999992007100718004-13267-043417FM-15+0440SBLP V0201801N003112200019N0112651N1+03701+01101999999ADDGA1041+009001999GF104991999999999999999999MA1101021999999REMMET051METAR SBLP 071800Z 18006KT 9999 SCT030 37/11 Q1010;
0120832880999992007100719004-13267-043417FM-15+0440SBLP V0201801N003112200019N0112651N1+03601+01101999999ADDGA1041+009001999GF104991999999999999999999MA1101021999999REMMET051METAR SBLP 071900Z 18006KT 9999 SCT030 36/11 Q1010;
0120832880999992007100720004-13267-043417FM-15+0440SBLP V0201801N003112200019N0112651N1+03501+01201999999ADDGA1041+009001999GF104991999999999999999999MA1101021999999REMMET051METAR SBLP 072000Z 18006KT 9999 SCT030 35/12 Q1010;
0120832880999992007100721004-13267-043417FM-15+0440SBLP V0201801N003112200019N0112651N1+03301+01301999999ADDGA1041+009001999GF104991999999999999999999MA1101021999999REMMET051METAR SBLP 072100Z 18006KT 9999 SCT030 33/13 Q1010;
0072832880999992007100810004-13267-043417FM-15+0440SBLP V0209999C00001220001CN0099001N1+02401+01501999999ADDMA1101591999999REMMET045METAR SBLP 081000Z 00000KT CAVOK 24/15 Q1016;
0072832880999992007100811004-13267-043417FM-15+0440SBLP V0209999C00001220001CN0099001N1+02701+01301999999ADDMA1101691999999REMMET045METAR SBLP 081100Z 00000KT CAVOK 27/13 Q1017;
0072832880999992007100812004-13267-043417FM-15+0440SBLP V0201801N00311220001CN0099001N1+02901+01301999999ADDMA1101691999999REMMET045METAR SBLP 081200Z 18006KT CAVOK 29/13 Q1017;
0120832880999992007100813004-13267-043417FM-15+0440SBLP V0201801N003112200019N0112651N1+03101+01201999999ADDGA1021+009001999GF102991999999999999999999MA1101691999999REMMET051METAR SBLP 081300Z 18006KT 9999 FEW030 31/12 Q1017;
0120832880999992007100814004-13267-043417FM-15+0440SBLP V0201801N003112200019N0112651N1+03201+01201999999ADDGA1021+009001999GF102991999999999999999999MA1101591999999REMMET051METAR SBLP 081400Z 18006KT 9999 FEW030 32/12 Q1016;
0120832880999992007100815004-13267-043417FM-15+0440SBLP V0201801N003112200019N0112651N1+03301+01101999999ADDGA1041+009001999GF104991999999999999999999MA1101391999999REMMET051METAR SBLP 081500Z 18006KT 9999 SCT030 33/11 Q1014;
0120832880999992007100816004-13267-043417FM-15+0440SBLP V0200901N003112200019N0112651N1+03301+01201999999ADDGA1041+009001999GF104991999999999999999999MA1101291999999REMMET051METAR SBLP 081600Z 09006KT 9999 SCT030 33/12 Q1013;
0120832880999992007100817004-13267-043417FM-15+0440SBLP V0201301N004112200019N0112651N1+03401+01101999999ADDGA1041+009001999GF104991999999999999999999MA1101191999999REMMET051METAR SBLP 081700Z 13008KT 9999 SCT030 34/11 Q1012;
0120832880999992007100818004-13267-043417FM-15+0440SBLP V0200901N004112200019N0112651N1+03401+01101999999ADDGA1041+009001999GF104991999999999999999999MA1101081999999REMMET051METAR SBLP 081800Z 09008KT 9999 SCT030 34/11 Q1011;
0120832880999992007100819004-13267-043417FM-15+0440SBLP V0201301N005112200019N0112651N1+03401+01201999999ADDGA1021+009001999GF102991999999999999999999MA1101081999999REMMET051METAR SBLP 081900Z 13010KT 9999 FEW030 34/12 Q1011;
0072832880999992007100820004-13267-043417FM-15+0440SBLP V0201201N00511220001CN0099001N1+03401+01101999999ADDMA1101081999999REMMET045METAR SBLP 082000Z 12010KT CAVOK 34/11 Q1011;
0072832880999992007100821004-13267-043417FM-15+0440SBLP V0201401N00511220001CN0099001N1+03201+00801999999ADDMA1101081999999REMMET045METAR SBLP 082100Z 14010KT CAVOK 32/08 Q1011;
0072832880999992007100910004-13267-043417FM-15+0440SBLP V0201801N00151220001CN0099001N1+02201+01401999999ADDMA1101801999999REMMET045METAR SBLP 091000Z 18003KT CAVOK 22/14 Q1018;
0072832880999992007100911004-13267-043417FM-15+0440SBLP V0200901N00621220001CN0099001N1+02601+01401999999ADDMA1101901999999REMMET045METAR SBLP 091100Z 09012KT CAVOK 26/14 Q1019;
0072832880999992007100912004-13267-043417FM-15+0440SBLP V0200901N00211220001CN0099001N1+02701+01301999999ADDMA1101901999999REMMET045METAR SBLP 091200Z 09004KT CAVOK 27/13 Q1019;
0120832880999992007100913004-13267-043417FM-15+0440SBLP V0200901N002112200019N0112651N1+02801+01301999999ADDGA1021+009001999GF102991999999999999999999MA1101901999999REMMET051METAR SBLP 091300Z 09004KT 9999 FEW030 28/13 Q1019;
0072832880999992007100917004-13267-043417FM-15+0440SBLP V0200901N00311220001CN0099001N1+03401+00901999999ADDMA1101291999999REMMET045METAR SBLP 091700Z 09006KT CAVOK 34/09 Q1013;
0072832880999992007100918004-13267-043417FM-15+0440SBLP V0200901N00311220001CN0099001N1+03501+01101999999ADDMA1101191999999REMMET045METAR SBLP 091800Z 09006KT CAVOK 35/11 Q1012;
0072832880999992007100919004-13267-043417FM-15+0440SBLP V0200901N00311220001CN0099001N1+03601+01001999999ADDMA1101191999999REMMET045METAR SBLP 091900Z 09006KT CAVOK 36/10 Q1012;
0072832880999992007100920004-13267-043417FM-15+0440SBLP V0200901N00311220001CN0099001N1+03501+01001999999ADDMA1101191999999REMMET045METAR SBLP 092000Z 09006KT CAVOK 35/10 Q1012;
0072832880999992007100921004-13267-043417FM-15+0440SBLP V0200901N00311220001CN0099001N1+03301+01101999999ADDMA1101291999999REMMET045METAR SBLP 092100Z 09006KT CAVOK 33/11 Q1013;
0072832880999992007101010004-13267-043417FM-15+0440SBLP V0209999C00001220001CN0099001N1+02401+01501999999ADDMA1101691999999REMMET045METAR SBLP 101000Z 00000KT CAVOK 24/15 Q1017;
0072832880999992007101011004-13267-043417FM-15+0440SBLP V0200901N00311220001CN0099001N1+02701+01301999999ADDMA1101801999999REMMET045METAR SBLP 101100Z 09006KT CAVOK 27/13 Q1018;
0120832880999992007101012004-13267-043417FM-15+0440SBLP V0200901N003112200019N0112651N1+02901+01201999999ADDGA1021+009001999GF102991999999999999999999MA1101801999999REMMET051METAR SBLP 101200Z 09006KT 9999 FEW030 29/12 Q1018;
0120832880999992007101013004-13267-043417FM-15+0440SBLP V0200901N003112200019N0112651N1+03001+01101999999ADDGA1021+009001999GF102991999999999999999999MA1101801999999REMMET051METAR SBLP 101300Z 09006KT 9999 FEW030 30/11 Q1018;
0120832880999992007101014004-13267-043417FM-15+0440SBLP V0200901N003112200019N0112651N1+03001+01101999999ADDGA1041+009001999GF104991999999999999999999MA1101691999999REMMET051METAR SBLP 101400Z 09006KT 9999 SCT030 30/11 Q1017;
0120832880999992007101016004-13267-043417FM-15+0440SBLP V0201401N003112200019N0112651N1+03201+01301999999ADDGA1041+009001999GF104991999999999999999999MA1101391999999REMMET051METAR SBLP 101600Z 14006KT 9999 SCT030 32/13 Q1014;
0120832880999992007101017004-13267-043417FM-15+0440SBLP V0209999C000012200019N0112651N1+03201+01301999999ADDGA1041+009001999GF104991999999999999999999MA1101291999999REMMET051METAR SBLP 101700Z 00000KT 9999 SCT030 32/13 Q1013;
0120832880999992007101018004-13267-043417FM-15+0440SBLP V0209999C000012200019N0112651N1+03301+01301999999ADDGA1041+009001999GF104991999999999999999999MA1101191999999REMMET051METAR SBLP 101800Z 00000KT 9999 SCT030 33/13 Q1012;
0120832880999992007101020004-13267-043417FM-15+0440SBLP V0202101N003112200019N0112651N1+03301+01301999999ADDGA1021+009001999GF102991999999999999999999MA1101081999999REMMET051METAR SBLP 102000Z 21006KT 9999 FEW030 33/13 Q1011;
0120832880999992007101021004-13267-043417FM-15+0440SBLP V0202101N003112200019N0112651N1+03301+01301999999ADDGA1021+009001999GF102991999999999999999999MA1101081999999REMMET051METAR SBLP 102100Z 21006KT 9999 FEW030 33/13 Q1011;
0072832880999992007101110004-13267-043417FM-15+0440SBLP V0201801N00211220001CN0099001N1+02201+01401999999ADDMA1101591999999REMMET045METAR SBLP 111000Z 18004KT CAVOK 22/14 Q1016;
0072832880999992007101111004-13267-043417FM-15+0440SBLP V0201801N00311220001CN0099001N1+02501+01401999999ADDMA1101591999999REMMET045METAR SBLP 111100Z 18006KT CAVOK 25/14 Q1016;
0072832880999992007101112004-13267-043417FM-15+0440SBLP V0201801N00151220001CN0099001N1+02701+01501999999ADDMA1101591999999REMMET045METAR SBLP 111200Z 18003KT CAVOK 27/15 Q1016;
0072832880999992007101113004-13267-043417FM-15+0440SBLP V0202701N00101220001CN0099001N1+02901+01501999999ADDMA1101491999999REMMET045METAR SBLP 111300Z 27002KT CAVOK 29/15 Q1015;
0072832880999992007101114004-13267-043417FM-15+0440SBLP V0201501N00311220001CN0099001N1+03201+01201999999ADDMA1101391999999REMMET045METAR SBLP 111400Z 15006KT CAVOK 32/12 Q1014;
0072832880999992007101115004-13267-043417FM-15+0440SBLP V0201501N00311220001CN0099001N1+03201+01201999999ADDMA1101391999999REMMET045METAR SBLP 111500Z 15006KT CAVOK 32/12 Q1014;
0120832880999992007101116004-13267-043417FM-15+0440SBLP V0202401N003112200019N0112651N1+03401+01101999999ADDGA1041+009001999GF104991999999999999999999MA1101081999999REMMET051METAR SBLP 111600Z 24006KT 9999 SCT030 34/11 Q1011;
0120832880999992007101117004-13267-043417FM-15+0440SBLP V0209999C000012200019N0112651N1+03501+01101999999ADDGA1021+009001999GF102991999999999999999999MA1100911999999REMMET051METAR SBLP 111700Z 00000KT 9999 FEW030 35/11 Q1009;
0120832880999992007101118004-13267-043417FM-15+0440SBLP V0202401N003112200019N0112651N1+03601+01101999999ADDGA1021+009001999GF102991999999999999999999MA1100911999999REMMET051METAR SBLP 111800Z 24006KT 9999 FEW030 36/11 Q1009;
0120832880999992007101119004-13267-043417FM-15+0440SBLP V0202701N003112200019N0112651N1+03601+01001999999ADDGA1021+009001999GF102991999999999999999999MA1100811999999REMMET051METAR SBLP 111900Z 27006KT 9999 FEW030 36/10 Q1008;
0072832880999992007101120004-13267-043417FM-15+0440SBLP V0202701N00311220001CN0099001N1+03301+01201999999ADDMA1100811999999REMMET045METAR SBLP 112000Z 27006KT CAVOK 33/12 Q1008;
0072832880999992007101121004-13267-043417FM-15+0440SBLP V0202701N00311220001CN0099001N1+03301+01201999999ADDMA1100811999999REMMET045METAR SBLP 112100Z 27006KT CAVOK 33/12 Q1008;
0072832880999992007101210004-13267-043417FM-15+0440SBLP V0202101N00311220001CN0099001N1+02301+01401999999ADDMA1101391999999REMMET045METAR SBLP 121000Z 21006KT CAVOK 23/14 Q1014;
0072832880999992007101211004-13267-043417FM-15+0440SBLP V0200901N00311220001CN0099001N1+02701+01601999999ADDMA1101491999999REMMET045METAR SBLP 121100Z 09006KT CAVOK 27/16 Q1015;
0072832880999992007101212004-13267-043417FM-15+0440SBLP V0201201N00311220001CN0099001N1+03001+01401999999ADDMA1101491999999REMMET045METAR SBLP 121200Z 12006KT CAVOK 30/14 Q1015;
0072832880999992007101213004-13267-043417FM-15+0440SBLP V0203601N00311220001CN0099001N1+03201+01301999999ADDMA1101391999999REMMET045METAR SBLP 121300Z 36006KT CAVOK 32/13 Q1014;
0072832880999992007101214004-13267-043417FM-15+0440SBLP V0203601N00311220001CN0099001N1+03201+01301999999ADDMA1101391999999REMMET045METAR SBLP 121400Z 36006KT CAVOK 32/13 Q1014;
0120832880999992007101216004-13267-043417FM-15+0440SBLP V0203601N003112200019N0112651N1+03601+01101999999ADDGA1021+009001999GF102991999999999999999999MA1101021999999REMMET051METAR SBLP 121600Z 36006KT 9999 FEW030 36/11 Q1010;
0120832880999992007101217004-13267-043417FM-15+0440SBLP V0203601N003112200019N0112651N1+03701+01101999999ADDGA1021+009001999GF102991999999999999999999MA1100911999999REMMET051METAR SBLP 121700Z 36006KT 9999 FEW030 37/11 Q1009;
0120832880999992007101218004-13267-043417FM-15+0440SBLP V0202701N003112200019N0112651N1+03801+01001999999ADDGA1041+009001999GF104991999999999999999999MA1100911999999REMMET051METAR SBLP 121800Z 27006KT 9999 SCT030 38/10 Q1009;
0120832880999992007101219004-13267-043417FM-15+0440SBLP V0202701N003112200019N0112651N1+03701+01001999999ADDGA1041+009001999GF104991999999999999999999MA1100811999999REMMET051METAR SBLP 121900Z 27006KT 9999 SCT030 37/10 Q1008;
0120832880999992007101220004-13267-043417FM-15+0440SBLP V0201801N003112200019N0112651N1+03601+01101999999ADDGA1021+009001999GF102991999999999999999999MA1100811999999REMMET051METAR SBLP 122000Z 18006KT 9999 FEW030 36/11 Q1008;
0120832880999992007101221004-13267-043417FM-15+0440SBLP V0201801N003112200019N0112651N1+03401+01201999999ADDGA1021+009001999GF102991999999999999999999MA1100811999999REMMET051METAR SBLP 122100Z 18006KT 9999 FEW030 34/12 Q1008;
0072832880999992007101310004-13267-043417FM-15+0440SBLP V0209999C00001220001CN0099001N1+02601+01601999999ADDMA1101291999999REMMET045METAR SBLP 131000Z 00000KT CAVOK 26/16 Q1013;
0072832880999992007101312004-13267-043417FM-15+0440SBLP V0200901N00311220001CN0099001N1+03101+01301999999ADDMA1101391999999REMMET045METAR SBLP 131200Z 09006KT CAVOK 31/13 Q1014;
0072832880999992007101313004-13267-043417FM-15+0440SBLP V0200901N00311220001CN0099001N1+03301+01201999999ADDMA1101291999999REMMET045METAR SBLP 131300Z 09006KT CAVOK 33/12 Q1013;
0072832880999992007101314004-13267-043417FM-15+0440SBLP V0200901N00311220001CN0099001N1+03501+01201999999ADDMA1101291999999REMMET045METAR SBLP 131400Z 09006KT CAVOK 35/12 Q1013;
0120832880999992007101315004-13267-043417FM-15+0440SBLP V0200901N003112200019N0112651N1+03601+01101999999ADDGA1021+009001999GF102991999999999999999999MA1101081999999REMMET051METAR SBLP 131500Z 09006KT 9999 FEW030 36/11 Q1011;
0120832880999992007101316004-13267-043417FM-15+0440SBLP V0200901N003112200019N0112651N1+03601+01101999999ADDGA1021+009001999GF102991999999999999999999MA1101021999999REMMET051METAR SBLP 131600Z 09006KT 9999 FEW030 36/11 Q1010;
0120832880999992007101317004-13267-043417FM-15+0440SBLP V0201801N003112200019N0112651N1+03701+01101999999ADDGA1041+009001999GF104991999999999999999999MA1100911999999REMMET051METAR SBLP 131700Z 18006KT 9999 SCT030 37/11 Q1009;
0120832880999992007101318004-13267-043417FM-15+0440SBLP V0201801N003112200019N0112651N1+03901+01101999999ADDGA1041+009001999GF104991999999999999999999MA1100811999999REMMET051METAR SBLP 131800Z 18006KT 9999 SCT030 39/11 Q1008;
0120832880999992007101319004-13267-043417FM-15+0440SBLP V0200901N006212200019N0112651N1+03901+01101999999ADDGA1041+009001999GF104991999999999999999999MA1100811999999REMMET051METAR SBLP 131900Z 09012KT 9999 SCT030 39/11 Q1008;
0120832880999992007101320004-13267-043417FM-15+0440SBLP V0200901N003112200019N0112651N1+03801+01201999999ADDGA1021+009001999GF102991999999999999999999MA1100811999999REMMET051METAR SBLP 132000Z 09006KT 9999 FEW030 38/12 Q1008;
0120832880999992007101321004-13267-043417FM-15+0440SBLP V0200901N003112200019N0112651N1+03501+01301999999ADDGA1021+009001999GF102991999999999999999999MA1100811999999REMMET051METAR SBLP 132100Z 09006KT 9999 FEW030 35/13 Q1008;
0072832880999992007101410004-13267-043417FM-15+0440SBLP V0200901N00311220001CN0099001N1+02601+01401999999ADDMA1101291999999REMMET045METAR SBLP 141000Z 09006KT CAVOK 26/14 Q1013;
0072832880999992007101411004-13267-043417FM-15+0440SBLP V0201001N00311220001CN0099001N1+02801+01501999999ADDMA1101391999999REMMET045METAR SBLP 141100Z 10006KT CAVOK 28/15 Q1014;
0072832880999992007101412004-13267-043417FM-15+0440SBLP V0200901N00151220001CN0099001N1+03001+01401999999ADDMA1101491999999REMMET045METAR SBLP 141200Z 09003KT CAVOK 30/14 Q1015;
0072832880999992007101413004-13267-043417FM-15+0440SBLP V0200901N00311220001CN0099001N1+03301+01301999999ADDMA1101391999999REMMET045METAR SBLP 141300Z 09006KT CAVOK 33/13 Q1014;
0072832880999992007101414004-13267-043417FM-15+0440SBLP V0200901N00411220001CN0099001N1+03501+01201999999ADDMA1101391999999REMMET045METAR SBLP 141400Z 09008KT CAVOK 35/12 Q1014;
0120832880999992007101415004-13267-043417FM-15+0440SBLP V0201801N003112200019N0112651N1+03501+01101999999ADDGA1021+009001999GF102991999999999999999999MA1101191999999REMMET051METAR SBLP 141500Z 18006KT 9999 FEW030 35/11 Q1012;
0120832880999992007101416004-13267-043417FM-15+0440SBLP V0201501N005112200019N0112651N1+03701+01101999999ADDGA1041+009001999GF104991999999999999999999MA1101081999999REMMET051METAR SBLP 141600Z 15010KT 9999 SCT030 37/11 Q1011;
0120832880999992007101417004-13267-043417FM-15+0440SBLP V0201501N003112200019N0112651N1+03701+01001999999ADDGA1041+009001999GF104991999999999999999999MA1100911999999REMMET051METAR SBLP 141700Z 15006KT 9999 SCT030 37/10 Q1009;
0120832880999992007101418004-13267-043417FM-15+0440SBLP V0201401N003112200019N0112651N1+03701+00901999999ADDGA1041+009001999GF104991999999999999999999MA1100911999999REMMET051METAR SBLP 141800Z 14006KT 9999 SCT030 37/09 Q1009;
0120832880999992007101419004-13267-043417FM-15+0440SBLP V0201501N004112200019N0112651N1+03701+00901999999ADDGA1041+009001999GF104991999999999999999999MA1100811999999REMMET051METAR SBLP 141900Z 15008KT 9999 SCT030 37/09 Q1008;
0120832880999992007101420004-13267-043417FM-15+0440SBLP V0201201N004112200019N0112651N1+03701+00801999999ADDGA1021+009001999GF102991999999999999999999MA1100811999999REMMET051METAR SBLP 142000Z 12008KT 9999 FEW030 37/08 Q1008;
0120832880999992007101421004-13267-043417FM-15+0440SBLP V0201501N003112200019N0112651N1+03501+00801999999ADDGA1021+009001999GF102991999999999999999999MA1100911999999REMMET051METAR SBLP 142100Z 15006KT 9999 FEW030 35/08 Q1009;
0072832880999992007101510004-13267-043417FM-15+0440SBLP V0200901N00411220001CN0099001N1+02501+01401999999ADDMA1101591999999REMMET045METAR SBLP 151000Z 09008KT CAVOK 25/14 Q1016;
0072832880999992007101511004-13267-043417FM-15+0440SBLP V0200901N00511220001CN0099001N1+02701+01301999999ADDMA1101591999999REMMET045METAR SBLP 151100Z 09010KT CAVOK 27/13 Q1016;
0072832880999992007101512004-13267-043417FM-15+0440SBLP V0200901N00411220001CN0099001N1+02901+01301999999ADDMA1101591999999REMMET045METAR SBLP 151200Z 09008KT CAVOK 29/13 Q1016;
0072832880999992007101513004-13267-043417FM-15+0440SBLP V0201501N00511220001CN0099001N1+03201+01101999999ADDMA1101591999999REMMET045METAR SBLP 151300Z 15010KT CAVOK 32/11 Q1016;
0072832880999992007101514004-13267-043417FM-15+0440SBLP V0200901N00511220001CN0099001N1+03401+01101999999ADDMA1101491999999REMMET045METAR SBLP 151400Z 09010KT CAVOK 34/11 Q1015;
0072832880999992007101515004-13267-043417FM-15+0440SBLP V0209999C00001220001CN0099001N1+03401+01201999999ADDMA1101391999999REMMET045METAR SBLP 151500Z 00000KT CAVOK 34/12 Q1014;
0072832880999992007101516004-13267-043417FM-15+0440SBLP V0203001N00311220001CN0099001N1+03601+01101999999ADDMA1101191999999REMMET045METAR SBLP 151600Z 30006KT CAVOK 36/11 Q1012;
0072832880999992007101518004-13267-043417FM-15+0440SBLP V0209999C00001220001CN0099001N1+03701+01101999999ADDMA1101081999999REMMET045METAR SBLP 151800Z 00000KT CAVOK 37/11 Q1011;
0072832880999992007101519004-13267-043417FM-15+0440SBLP V0202101N00211220001CN0099001N1+03901+01001999999ADDMA1101021999999REMMET045METAR SBLP 151900Z 21004KT CAVOK 39/10 Q1010;
0072832880999992007101520004-13267-043417FM-15+0440SBLP V0200901N00311220001CN0099001N1+03701+01001999999ADDMA1101021999999REMMET045METAR SBLP 152000Z 09006KT CAVOK 37/10 Q1010;
0072832880999992007101521004-13267-043417FM-15+0440SBLP V0200901N00311220001CN0099001N1+03501+01201999999ADDMA1101081999999REMMET045METAR SBLP 152100Z 09006KT CAVOK 35/12 Q1011;
0072832880999992007101610004-13267-043417FM-15+0440SBLP V0201201N00211220001CN0099001N1+02401+01401999999ADDMA1101691999999REMMET045METAR SBLP 161000Z 12004KT CAVOK 24/14 Q1017;
0072832880999992007101611004-13267-043417FM-15+0440SBLP V0200901N00211220001CN0099001N1+02701+01401999999ADDMA1101691999999REMMET045METAR SBLP 161100Z 09004KT CAVOK 27/14 Q1017;
0072832880999992007101612004-13267-043417FM-15+0440SBLP V0201201N00211220001CN0099001N1+02901+01301999999ADDMA1101691999999REMMET045METAR SBLP 161200Z 12004KT CAVOK 29/13 Q1017;
0072832880999992007101613004-13267-043417FM-15+0440SBLP V0201201N00411220001CN0099001N1+03201+01301999999ADDMA1101691999999REMMET045METAR SBLP 161300Z 12008KT CAVOK 32/13 Q1017;
0072832880999992007101614004-13267-043417FM-15+0440SBLP V0201201N00511220001CN0099001N1+03401+01201999999ADDMA1101491999999REMMET045METAR SBLP 161400Z 12010KT CAVOK 34/12 Q1015;
0072832880999992007101615004-13267-043417FM-15+0440SBLP V0201801N00311220001CN0099001N1+03501+01101999999ADDMA1101391999999REMMET045METAR SBLP 161500Z 18006KT CAVOK 35/11 Q1014;
0072832880999992007101616004-13267-043417FM-15+0440SBLP V0201801N00311220001CN0099001N1+03701+01101999999ADDMA1101291999999REMMET045METAR SBLP 161600Z 18006KT CAVOK 37/11 Q1013;
0072832880999992007101617004-13267-043417FM-15+0440SBLP V0201801N00311220001CN0099001N1+03801+01001999999ADDMA1101081999999REMMET045METAR SBLP 161700Z 18006KT CAVOK 38/10 Q1011;
0072832880999992007101618004-13267-043417FM-15+0440SBLP V0201801N00311220001CN0099001N1+03901+01001999999ADDMA1101021999999REMMET045METAR SBLP 161800Z 18006KT CAVOK 39/10 Q1010;
0072832880999992007101620004-13267-043417FM-15+0440SBLP V0201801N00311220001CN0099001N1+03701+01101999999ADDMA1101021999999REMMET045METAR SBLP 162000Z 18006KT CAVOK 37/11 Q1010;
0072832880999992007101621004-13267-043417FM-15+0440SBLP V0201801N00311220001CN0099001N1+03501+01201999999ADDMA1101081999999REMMET045METAR SBLP 162100Z 18006KT CAVOK 35/12 Q1011;
0072832880999992007101710004-13267-043417FM-15+0440SBLP V0200601N00311220001CN0099001N1+02501+01401999999ADDMA1101491999999REMMET045METAR SBLP 171000Z 06006KT CAVOK 25/14 Q1015;
0072832880999992007101711004-13267-043417FM-15+0440SBLP V0200901N00311220001CN0099001N1+02801+01401999999ADDMA1101491999999REMMET045METAR SBLP 171100Z 09006KT CAVOK 28/14 Q1015;
0072832880999992007101712004-13267-043417FM-15+0440SBLP V0200301N00311220001CN0099001N1+03101+01301999999ADDMA1101491999999REMMET045METAR SBLP 171200Z 03006KT CAVOK 31/13 Q1015;
0072832880999992007101713004-13267-043417FM-15+0440SBLP V0203001N00311220001CN0099001N1+03201+01301999999ADDMA1101491999999REMMET045METAR SBLP 171300Z 30006KT CAVOK 32/13 Q1015;
0072832880999992007101714004-13267-043417FM-15+0440SBLP V0203001N00311220001CN0099001N1+03401+01301999999ADDMA1101391999999REMMET045METAR SBLP 171400Z 30006KT CAVOK 34/13 Q1014;
0072832880999992007101715004-13267-043417FM-15+0440SBLP V0202701N00311220001CN0099001N1+03501+01301999999ADDMA1101191999999REMMET045METAR SBLP 171500Z 27006KT CAVOK 35/13 Q1012;
0072832880999992007101716004-13267-043417FM-15+0440SBLP V0202701N00311220001CN0099001N1+03701+01101999999ADDMA1101081999999REMMET045METAR SBLP 171600Z 27006KT CAVOK 37/11 Q1011;
0072832880999992007101717004-13267-043417FM-15+0440SBLP V0202701N00311220001CN0099001N1+03801+01101999999ADDMA1101021999999REMMET045METAR SBLP 171700Z 27006KT CAVOK 38/11 Q1010;
0072832880999992007101718004-13267-043417FM-15+0440SBLP V0202701N00311220001CN0099001N1+03901+01001999999ADDMA1100911999999REMMET045METAR SBLP 171800Z 27006KT CAVOK 39/10 Q1009;
0072832880999992007101719004-13267-043417FM-15+0440SBLP V0202701N00311220001CN0099001N1+03901+01101999999ADDMA1100911999999REMMET045METAR SBLP 171900Z 27006KT CAVOK 39/11 Q1009;
0072832880999992007101720004-13267-043417FM-15+0440SBLP V0209999C00001220001CN0099001N1+03701+01101999999ADDMA1100911999999REMMET045METAR SBLP 172000Z 00000KT CAVOK 37/11 Q1009;
0072832880999992007101721004-13267-043417FM-15+0440SBLP V0209999C00001220001CN0099001N1+03501+01201999999ADDMA1100911999999REMMET045METAR SBLP 172100Z 00000KT CAVOK 35/12 Q1009;
0072832880999992007101810004-13267-043417FM-15+0440SBLP V0209999C00001220001CN0099001N1+02701+01501999999ADDMA1101191999999REMMET045METAR SBLP 181000Z 00000KT CAVOK 27/15 Q1012;
0072832880999992007101811004-13267-043417FM-15+0440SBLP V0209999C00001220001CN0099001N1+03001+01301999999ADDMA1101291999999REMMET045METAR SBLP 181100Z 00000KT CAVOK 30/13 Q1013;
0072832880999992007101812004-13267-043417FM-15+0440SBLP V0209999C00001220001CN0099001N1+03301+01101999999ADDMA1101291999999REMMET045METAR SBLP 181200Z 00000KT CAVOK 33/11 Q1013;
0072832880999992007101813004-13267-043417FM-15+0440SBLP V0209999C00001220001CN0099001N1+03501+01001999999ADDMA1101291999999REMMET045METAR SBLP 181300Z 00000KT CAVOK 35/10 Q1013;
0072832880999992007101814004-13267-043417FM-15+0440SBLP V0200901N00311220001CN0099001N1+03701+01001999999ADDMA1101191999999REMMET045METAR SBLP 181400Z 09006KT CAVOK 37/10 Q1012;
0072832880999992007101815004-13267-043417FM-15+0440SBLP V0200901N00311220001CN0099001N1+03901+01001999999ADDMA1101081999999REMMET045METAR SBLP 181500Z 09006KT CAVOK 39/10 Q1011;
0120832880999992007101816004-13267-043417FM-15+0440SBLP V0203301N002112200019N0112651N1+03901+01301999999ADDGA1021+009001999GF102991999999999999999999MA1101021999999REMMET051METAR SBLP 181600Z 33004KT 9999 FEW030 39/13 Q1010;
0120832880999992007101817004-13267-043417FM-15+0440SBLP V0203401N001512200019N0112651N1+03901+01301999999ADDGA1021+009001999GF102991999999999999999999MA1100911999999REMMET051METAR SBLP 181700Z 34003KT 9999 FEW030 39/13 Q1009;
0120832880999992007101818004-13267-043417FM-15+0440SBLP V0202701N002112200019N0112651N1+03901+01101999999ADDGA1041+009001999GF104991999999999999999999MA1100811999999REMMET051METAR SBLP 181800Z 27004KT 9999 SCT030 39/11 Q1008;
0120832880999992007101820004-13267-043417FM-15+0440SBLP V0202401N002112200019N0112651N1+03901+01101999999ADDGA1021+009001999GF102991999999999999999999MA1100811999999REMMET051METAR SBLP 182000Z 24004KT 9999 FEW030 39/11 Q1008;
0072832880999992007101821004-13267-043417FM-15+0440SBLP V0209999C00001220001CN0099001N1+03601+01001999999ADDMA1100811999999REMMET045METAR SBLP 182100Z 00000KT CAVOK 36/10 Q1008;
0072832880999992007101910004-13267-043417FM-15+0440SBLP V0209999C00001220001CN0099001N1+02601+01701999999ADDMA1101291999999REMMET045METAR SBLP 191000Z 00000KT CAVOK 26/17 Q1013;
0072832880999992007101911004-13267-043417FM-15+0440SBLP V0201501N00311220001CN0099001N1+02901+01501999999ADDMA1101391999999REMMET045METAR SBLP 191100Z 15006KT CAVOK 29/15 Q1014;
0072832880999992007101912004-13267-043417FM-15+0440SBLP V0201501N00311220001CN0099001N1+02901+01501999999ADDMA1101391999999REMMET045METAR SBLP 191200Z 15006KT CAVOK 29/15 Q1014;
0072832880999992007101913004-13267-043417FM-15+0440SBLP V0201201N00311220001CN0099001N1+03301+01401999999ADDMA1101391999999REMMET045METAR SBLP 191300Z 12006KT CAVOK 33/14 Q1014;
0072832880999992007101914004-13267-043417FM-15+0440SBLP V0201001N00311220001CN0099001N1+03501+01301999999ADDMA1101291999999REMMET045METAR SBLP 191400Z 10006KT CAVOK 35/13 Q1013;
0072832880999992007101915004-13267-043417FM-15+0440SBLP V0201601N00311220001CN0099001N1+03501+01401999999ADDMA1101291999999REMMET045METAR SBLP 191500Z 16006KT CAVOK 35/14 Q1013;
0143832880999992007101916004-13267-043417FM-15+0440SBLP V0202101N003110900019N0112651N1+03601+01401999999ADDGA1021+009001999GA2071+090001999GF107991999999999999999999MA1101081999999REMMET058METAR SBLP 191600Z 21006KT 9999 FEW030 BKN300 36/14 Q1011;
0143832880999992007101917004-13267-043417FM-15+0440SBLP V0201201N002110900019N0112651N1+03701+01701999999ADDGA1021+009001999GA2071+090001999GF107991999999999999999999MA1100911999999REMMET058METAR SBLP 191700Z 12004KT 9999 FEW030 BKN300 37/17 Q1009;
0143832880999992007101918004-13267-043417FM-15+0440SBLP V0201501N001012200019N0112651N1+03701+01701999999ADDGA1021+009001999GA2041+090001999GF104991999999999999999999MA1100811999999REMMET058METAR SBLP 191800Z 15002KT 9999 FEW030 SCT300 37/17 Q1008;
0143832880999992007101919004-13267-043417FM-15+0440SBLP V0209999C000012200019N0112651N1+03701+01601999999ADDGA1021+009001999GA2041+090001999GF104991999999999999999999MA1100811999999REMMET058METAR SBLP 191900Z 00000KT 9999 FEW030 SCT300 37/16 Q1008;
0177832880999992007101920004-13267-043417FM-15+0440SBLP V0202701N00511012001CN0112651N1+03101+02101999999ADDGA1041+009001999GA2021+012001091GA3071+090001999GF107991999999999999999999MA1101021999999MW1171REMMET070METAR SBLP 192000Z 27010KT 9999 TS SCT030 FEW040CB BKN300 31/21 Q1010;
0186832880999992007101921004-13267-043417FM-15+0440SBLP V0202701N002110090019N0112651N1+02601+01901999999ADDGA1071+009001999GA2021+012001091GA3071+030001999GF107991999999999999999999MA1101081999999MW1801MW2951REMMET073METAR SBLP 192100Z 27004KT 9999 -TSRA BKN030 FEW040CB BKN100 26/19 Q1011;
0072832880999992007102010004-13267-043417FM-15+0440SBLP V0209999C00001220001CN0099001N1+02401+02101999999ADDMA1101391999999REMMET045METAR SBLP 201000Z 00000KT CAVOK 24/21 Q1014;
0072832880999992007102011004-13267-043417FM-15+0440SBLP V0209999C00001220001CN0099001N1+02701+02101999999ADDMA1101391999999REMMET045METAR SBLP 201100Z 00000KT CAVOK 27/21 Q1014;
0072832880999992007102012004-13267-043417FM-15+0440SBLP V0202101N00151220001CN0099001N1+03101+01901999999ADDMA1101491999999REMMET045METAR SBLP 201200Z 21003KT CAVOK 31/19 Q1015;
0072832880999992007102013004-13267-043417FM-15+0440SBLP V0201801N00211220001CN0099001N1+03301+01901999999ADDMA1101391999999REMMET045METAR SBLP 201300Z 18004KT CAVOK 33/19 Q1014;
0072832880999992007102014004-13267-043417FM-15+0440SBLP V0200901N00311220001CN0099001N1+03301+01801999999ADDMA1101391999999REMMET045METAR SBLP 201400Z 09006KT CAVOK 33/18 Q1014;
0072832880999992007102015004-13267-043417FM-15+0440SBLP V0200301N00151220001CN0099001N1+03501+01801999999ADDMA1101291999999REMMET045METAR SBLP 201500Z 03003KT CAVOK 35/18 Q1013;
0143832880999992007102016004-13267-043417FM-15+0440SBLP V0201501N003110900019N0112651N1+03601+01701999999ADDGA1021+009001999GA2071+090001999GF107991999999999999999999MA1101081999999REMMET058METAR SBLP 201600Z 15006KT 9999 FEW030 BKN300 36/17 Q1011;
0143832880999992007102017004-13267-043417FM-15+0440SBLP V0209999C000010900019N0112651N1+03701+01801999999ADDGA1041+009001999GA2071+090001999GF107991999999999999999999MA1101021999999REMMET058METAR SBLP 201700Z 00000KT 9999 SCT030 BKN300 37/18 Q1010;
0143832880999992007102018004-13267-043417FM-15+0440SBLP V0200301N003112200019N0112651N1+03701+01901999999ADDGA1021+009001999GA2041+090001999GF104991999999999999999999MA1100911999999REMMET058METAR SBLP 201800Z 03006KT 9999 FEW030 SCT300 37/19 Q1009;
0143832880999992007102019004-13267-043417FM-15+0440SBLP V0203601N004110900019N0112651N1+03301+02001999999ADDGA1021+009001999GA2071+090001999GF107991999999999999999999MA1101021999999REMMET058METAR SBLP 201900Z 36008KT 9999 FEW030 BKN300 33/20 Q1010;
0143832880999992007102020004-13267-043417FM-15+0440SBLP V0203301N003112200019N0112651N1+03001+02101999999ADDGA1021+009001999GA2041+090001999GF104991999999999999999999MA1101021999999REMMET058METAR SBLP 202000Z 33006KT 9999 FEW030 SCT300 30/21 Q1010;
0143832880999992007102021004-13267-043417FM-15+0440SBLP V0202401N003110900019N0112651N1+02901+01701999999ADDGA1021+009001999GA2071+090001999GF107991999999999999999999MA1101081999999REMMET058METAR SBLP 202100Z 24006KT 9999 FEW030 BKN300 29/17 Q1011;
0072832880999992007102110004-13267-043417FM-15+0440SBLP V0203001N00211220001CN0099001N1+02601+02001999999ADDMA1101491999999REMMET045METAR SBLP 211000Z 30004KT CAVOK 26/20 Q1015;
0072832880999992007102111004-13267-043417FM-15+0440SBLP V0203601N00311220001CN0099001N1+02901+01801999999ADDMA1101491999999REMMET045METAR SBLP 211100Z 36006KT CAVOK 29/18 Q1015;
0072832880999992007102112004-13267-043417FM-15+0440SBLP V0203601N00211220001CN0099001N1+03101+01801999999ADDMA1101491999999REMMET045METAR SBLP 211200Z 36004KT CAVOK 31/18 Q1015;
0072832880999992007102113004-13267-043417FM-15+0440SBLP V0200301N00311220001CN0099001N1+03201+01801999999ADDMA1101491999999REMMET045METAR SBLP 211300Z 03006KT CAVOK 32/18 Q1015;
0120832880999992007102114004-13267-043417FM-15+0440SBLP V0200301N003112200019N0112651N1+03401+01801999999ADDGA1021+009001999GF102991999999999999999999MA1101391999999REMMET051METAR SBLP 211400Z 03006KT 9999 FEW030 34/18 Q1014;
0120832880999992007102115004-13267-043417FM-15+0440SBLP V0200301N002112200019N0112651N1+03401+01801999999ADDGA1041+009001999GF104991999999999999999999MA1101291999999REMMET051METAR SBLP 211500Z 03004KT 9999 SCT030 34/18 Q1013;
0120832880999992007102116004-13267-043417FM-15+0440SBLP V0200901N003112200019N0112651N1+03501+01901999999ADDGA1041+009001999GF104991999999999999999999MA1101081999999REMMET051METAR SBLP 211600Z 09006KT 9999 SCT030 35/19 Q1011;
0120832880999992007102117004-13267-043417FM-15+0440SBLP V0209999C000012200019N0112651N1+03701+01901999999ADDGA1041+009001999GF104991999999999999999999MA1101021999999REMMET051METAR SBLP 211700Z 00000KT 9999 SCT030 37/19 Q1010;
0143832880999992007102118004-13267-043417FM-15+0440SBLP V0203001N003112200019N0112651N1+03301+02001999999ADDGA1041+009001999GA2041+030001999GF104991999999999999999999MA1101021999999REMMET058METAR SBLP 211800Z 30006KT 9999 SCT030 SCT100 33/20 Q1010;
0153832880999992007102119004-13267-043417FM-15+0440SBLP V0203001N003110300019N0090001N1+02601+02101999999ADDGA1041+008101999GA2071+030001999GF107991999999999999999999MA1101021999999MW1611REMMET062METAR SBLP 211900Z 30006KT 9000 -RA SCT027 BKN100 26/21 Q1010;
0143832880999992007102120004-13267-043417FM-15+0440SBLP V0202401N003110300019N0112651N1+02601+02301999999ADDGA1041+009001999GA2071+030001999GF107991999999999999999999MA1101081999999REMMET058METAR SBLP 212000Z 24006KT 9999 SCT030 BKN100 26/23 Q1011;
0143832880999992007102121004-13267-043417FM-15+0440SBLP V0202101N003110300019N0112651N1+02301+02101999999ADDGA1041+009001999GA2071+030001999GF107991999999999999999999MA1101081999999REMMET058METAR SBLP 212100Z 21006KT 9999 SCT030 BKN100 23/21 Q1011;
0072832880999992007102210004-13267-043417FM-15+0440SBLP V0201801N00311220001CN0099001N1+02501+02201999999ADDMA1101391999999REMMET045METAR SBLP 221000Z 18006KT CAVOK 25/22 Q1014;
0072832880999992007102211004-13267-043417FM-15+0440SBLP V0200601N00211220001CN0099001N1+02901+02001999999ADDMA1101491999999REMMET045METAR SBLP 221100Z 06004KT CAVOK 29/20 Q1015;
0072832880999992007102212004-13267-043417FM-15+0440SBLP V0200601N00311220001CN0099001N1+03001+02101999999ADDMA1101491999999REMMET045METAR SBLP 221200Z 06006KT CAVOK 30/21 Q1015;
0072832880999992007102213004-13267-043417FM-15+0440SBLP V0200601N00311220001CN0099001N1+03301+01901999999ADDMA1101391999999REMMET045METAR SBLP 221300Z 06006KT CAVOK 33/19 Q1014;
0072832880999992007102214004-13267-043417FM-15+0440SBLP V0209999C00001220001CN0099001N1+03401+01801999999ADDMA1101291999999REMMET045METAR SBLP 221400Z 00000KT CAVOK 34/18 Q1013;
0120832880999992007102215004-13267-043417FM-15+0440SBLP V0201201N003112200019N0112651N1+03601+01901999999ADDGA1021+009001999GF102991999999999999999999MA1101191999999REMMET051METAR SBLP 221500Z 12006KT 9999 FEW030 36/19 Q1012;
0120832880999992007102216004-13267-043417FM-15+0440SBLP V0200901N003112200019N0112651N1+03701+01801999999ADDGA1041+009001999GF104991999999999999999999MA1101081999999REMMET051METAR SBLP 221600Z 09006KT 9999 SCT030 37/18 Q1011;
0120832880999992007102217004-13267-043417FM-15+0440SBLP V0200901N003112200019N0112651N1+03801+01701999999ADDGA1041+009001999GF104991999999999999999999MA1101021999999REMMET051METAR SBLP 221700Z 09006KT 9999 SCT030 38/17 Q1010;
0120832880999992007102218004-13267-043417FM-15+0440SBLP V0200901N003112200019N0112651N1+03901+01601999999ADDGA1041+009001999GF104991999999999999999999MA1100911999999REMMET051METAR SBLP 221800Z 09006KT 9999 SCT030 39/16 Q1009;
0120832880999992007102219004-13267-043417FM-15+0440SBLP V0200901N003112200019N0112651N1+03901+01601999999ADDGA1021+009001999GF102991999999999999999999MA1100911999999REMMET051METAR SBLP 221900Z 09006KT 9999 FEW030 39/16 Q1009;
0120832880999992007102220004-13267-043417FM-15+0440SBLP V0200901N003112200019N0112651N1+03801+01601999999ADDGA1021+009001999GF102991999999999999999999MA1100911999999REMMET051METAR SBLP 222000Z 09006KT 9999 FEW030 38/16 Q1009;
0072832880999992007102221004-13267-043417FM-15+0440SBLP V0200901N00311220001CN0099001N1+03501+01701999999ADDMA1100911999999REMMET045METAR SBLP 222100Z 09006KT CAVOK 35/17 Q1009;
0072832880999992007102310004-13267-043417FM-15+0440SBLP V0209999C00001220001CN0099001N1+02401+01901999999ADDMA1101591999999REMMET045METAR SBLP 231000Z 00000KT CAVOK 24/19 Q1016;
0072832880999992007102311004-13267-043417FM-15+0440SBLP V0200901N00311220001CN0099001N1+02901+01901999999ADDMA1101591999999REMMET045METAR SBLP 231100Z 09006KT CAVOK 29/19 Q1016;
0072832880999992007102312004-13267-043417FM-15+0440SBLP V0201201N00311220001CN0099001N1+03101+02201999999ADDMA1101591999999REMMET045METAR SBLP 231200Z 12006KT CAVOK 31/22 Q1016;
0072832880999992007102313004-13267-043417FM-15+0440SBLP V0200601N00411220001CN0099001N1+03401+01901999999ADDMA1101591999999REMMET045METAR SBLP 231300Z 06008KT CAVOK 34/19 Q1016;
0072832880999992007102314004-13267-043417FM-15+0440SBLP V0209999C00001220001CN0099001N1+03601+01901999999ADDMA1101491999999REMMET045METAR SBLP 231400Z 00000KT CAVOK 36/19 Q1015;
0120832880999992007102316004-13267-043417FM-15+0440SBLP V0203601N003112200019N0112651N1+03801+01501999999ADDGA1041+009001999GF104991999999999999999999MA1101191999999REMMET051METAR SBLP 231600Z 36006KT 9999 SCT030 38/15 Q1012;
0120832880999992007102317004-13267-043417FM-15+0440SBLP V0203601N003112200019N0112651N1+03801+01501999999ADDGA1041+009001999GF104991999999999999999999MA1101021999999REMMET051METAR SBLP 231700Z 36006KT 9999 SCT030 38/15 Q1010;
0120832880999992007102318004-13267-043417FM-15+0440SBLP V0203601N003112200019N0112651N1+03901+01501999999ADDGA1041+009001999GF104991999999999999999999MA1101081999999REMMET051METAR SBLP 231800Z 36006KT 9999 SCT030 39/15 Q1011;
0120832880999992007102319004-13267-043417FM-15+0440SBLP V0203601N003112200019N0112651N1+03801+01501999999ADDGA1041+009001999GF104991999999999999999999MA1101081999999REMMET051METAR SBLP 231900Z 36006KT 9999 SCT030 38/15 Q1011;
0120832880999992007102320004-13267-043417FM-15+0440SBLP V0200901N003112200019N0112651N1+03701+01601999999ADDGA1021+009001999GF102991999999999999999999MA1101081999999REMMET051METAR SBLP 232000Z 09006KT 9999 FEW030 37/16 Q1011;
0120832880999992007102321004-13267-043417FM-15+0440SBLP V0200901N003112200019N0112651N1+03501+01601999999ADDGA1021+009001999GF102991999999999999999999MA1101081999999REMMET051METAR SBLP 232100Z 09006KT 9999 FEW030 35/16 Q1011;
0072832880999992007102410004-13267-043417FM-15+0440SBLP V0209999C00001220001CN0099001N1+02701+01601999999ADDMA1101491999999REMMET045METAR SBLP 241000Z 00000KT CAVOK 27/16 Q1015;
0072832880999992007102411004-13267-043417FM-15+0440SBLP V0200901N00311220001CN0099001N1+02901+01401999999ADDMA1101591999999REMMET045METAR SBLP 241100Z 09006KT CAVOK 29/14 Q1016;
0072832880999992007102412004-13267-043417FM-15+0440SBLP V0200901N00311220001CN0099001N1+03101+01401999999ADDMA1101691999999REMMET045METAR SBLP 241200Z 09006KT CAVOK 31/14 Q1017;
0072832880999992007102413004-13267-043417FM-15+0440SBLP V0200901N00311220001CN0099001N1+03301+01401999999ADDMA1101691999999REMMET045METAR SBLP 241300Z 09006KT CAVOK 33/14 Q1017;
0072832880999992007102414004-13267-043417FM-15+0440SBLP V0200901N00311220001CN0099001N1+03401+01301999999ADDMA1101591999999REMMET045METAR SBLP 241400Z 09006KT CAVOK 34/13 Q1016;
0120832880999992007102415004-13267-043417FM-15+0440SBLP V0200901N003112200019N0112651N1+03501+01301999999ADDGA1021+009001999GF102991999999999999999999MA1101391999999REMMET051METAR SBLP 241500Z 09006KT 9999 FEW030 35/13 Q1014;
0143832880999992007102416004-13267-043417FM-15+0440SBLP V0200901N005112200019N0112651N1+03701+01201999999ADDGA1021+009001999GA2041+090001999GF104991999999999999999999MA1101291999999REMMET058METAR SBLP 241600Z 09010KT 9999 FEW030 SCT300 37/12 Q1013;
0143832880999992007102417004-13267-043417FM-15+0440SBLP V0203601N003112200019N0112651N1+03601+01401999999ADDGA1041+009001999GA2041+090001999GF104991999999999999999999MA1101191999999REMMET058METAR SBLP 241700Z 36006KT 9999 SCT030 SCT300 36/14 Q1012;
0136832880999992007102418004-13267-043417FM-15+0440SBLP V0200301N00311220001CN0112651N1+03601+01001999999ADDGA1071+009001999GA2041+090001999MA1101081999999REMMET058METAR SBLP 241800Z 03006KT 9999 BKN030 SCT300 36/10 Q1011;EQDQ01+000042SCOTCV
0143832880999992007102419004-13267-043417FM-15+0440SBLP V0200501N004112200019N0112651N1+03601+00901999999ADDGA1041+009001999GA2041+090001999GF104991999999999999999999MA1101081999999REMMET058METAR SBLP 241900Z 05008KT 9999 SCT030 SCT300 36/09 Q1011;
0143832880999992007102420004-13267-043417FM-15+0440SBLP V0200801N005112200019N0112651N1+03501+01201999999ADDGA1041+009001999GA2041+090001999GF104991999999999999999999MA1101081999999REMMET058METAR SBLP 242000Z 08010KT 9999 SCT030 SCT300 35/12 Q1011;
0072832880999992007102421004-13267-043417FM-15+0440SBLP V0200901N00411220001CN0099001N1+03301+01201999999ADDMA1101081999999REMMET045METAR SBLP 242100Z 09008KT CAVOK 33/12 Q1011;
0078832880999992007102509104-13267-043417FM-16+0440SBLP V0209999C000012200019N0099001N1+02301+01701999999ADDMA1101401999999REMMET051METAR SBLP 250910Z SPECI 00000KT CAVOK 23/17 Q1014;
0072832880999992007102510004-13267-043417FM-15+0440SBLP V0209999C00001220001CN0099001N1+02701+01501999999ADDMA1101491999999REMMET045METAR SBLP 251000Z 00000KT CAVOK 27/15 Q1015;
0072832880999992007102511004-13267-043417FM-15+0440SBLP V0200901N00311220001CN0099001N1+02901+01401999999ADDMA1101491999999REMMET045METAR SBLP 251100Z 09006KT CAVOK 29/14 Q1015;
0072832880999992007102512004-13267-043417FM-15+0440SBLP V0200901N00311220001CN0099001N1+03101+01301999999ADDMA1101491999999REMMET045METAR SBLP 251200Z 09006KT CAVOK 31/13 Q1015;
0072832880999992007102513004-13267-043417FM-15+0440SBLP V0203601N00311220001CN0099001N1+03401+01201999999ADDMA1101491999999REMMET045METAR SBLP 251300Z 36006KT CAVOK 34/12 Q1015;
0072832880999992007102514004-13267-043417FM-15+0440SBLP V0203601N00311220001CN0099001N1+03501+01201999999ADDMA1101391999999REMMET045METAR SBLP 251400Z 36006KT CAVOK 35/12 Q1014;
0072832880999992007102515004-13267-043417FM-15+0440SBLP V0200901N00311220001CN0099001N1+03501+01201999999ADDMA1101291999999REMMET045METAR SBLP 251500Z 09006KT CAVOK 35/12 Q1013;
0143832880999992007102516004-13267-043417FM-15+0440SBLP V0200601N005112200019N0112651N1+03701+00801999999ADDGA1021+009001999GA2041+090001999GF104991999999999999999999MA1101081999999REMMET058METAR SBLP 251600Z 06010KT 9999 FEW030 SCT300 37/08 Q1011;
0143832880999992007102517004-13267-043417FM-15+0440SBLP V0200401N006212200019N0112651N1+03901+00801999999ADDGA1041+009001999GA2041+090001999GF104991999999999999999999MA1101021999999REMMET058METAR SBLP 251700Z 04012KT 9999 SCT030 SCT300 39/08 Q1010;
0143832880999992007102518004-13267-043417FM-15+0440SBLP V0200901N003112200019N0112651N1+03701+01301999999ADDGA1041+009001999GA2041+090001999GF104991999999999999999999MA1101021999999REMMET058METAR SBLP 251800Z 09006KT 9999 SCT030 SCT300 37/13 Q1010;
0143832880999992007102519004-13267-043417FM-15+0440SBLP V0200401N003110900019N0112651N1+03601+00801999999ADDGA1041+009001999GA2071+090001999GF107991999999999999999999MA1100911999999REMMET058METAR SBLP 251900Z 04006KT 9999 SCT030 BKN300 36/08 Q1009;
0143832880999992007102520004-13267-043417FM-15+0440SBLP V0200601N004110900019N0112651N1+03601+00901999999ADDGA1021+009001999GA2071+090001999GF107991999999999999999999MA1101021999999REMMET058METAR SBLP 252000Z 06008KT 9999 FEW030 BKN300 36/09 Q1010;
0072832880999992007102610004-13267-043417FM-15+0440SBLP V0200601N00211220001CN0099001N1+02501+01401999999ADDMA1101491999999REMMET045METAR SBLP 261000Z 06004KT CAVOK 25/14 Q1015;
0072832880999992007102611004-13267-043417FM-15+0440SBLP V0200601N00411220001CN0099001N1+02901+01501999999ADDMA1101491999999REMMET045METAR SBLP 261100Z 06008KT CAVOK 29/15 Q1015;
0072832880999992007102612004-13267-043417FM-15+0440SBLP V0203601N00211220001CN0099001N1+03101+01401999999ADDMA1101491999999REMMET045METAR SBLP 261200Z 36004KT CAVOK 31/14 Q1015;
0072832880999992007102613004-13267-043417FM-15+0440SBLP V0200401N00411220001CN0099001N1+03301+01201999999ADDMA1101491999999REMMET045METAR SBLP 261300Z 04008KT CAVOK 33/12 Q1015;
0072832880999992007102614004-13267-043417FM-15+0440SBLP V0201501N00211220001CN0099001N1+03501+01201999999ADDMA1101391999999REMMET045METAR SBLP 261400Z 15004KT CAVOK 35/12 Q1014;
0072832880999992007102615004-13267-043417FM-15+0440SBLP V0200301N00311220001CN0099001N1+03601+01001999999ADDMA1101291999999REMMET045METAR SBLP 261500Z 03006KT CAVOK 36/10 Q1013;
0072832880999992007102616004-13267-043417FM-15+0440SBLP V0203301N00211220001CN0099001N1+03701+00901999999ADDMA1101081999999REMMET045METAR SBLP 261600Z 33004KT CAVOK 37/09 Q1011;
0072832880999992007102617004-13267-043417FM-15+0440SBLP V0200901N00311220001CN0099001N1+03801+01001999999ADDMA1101021999999REMMET045METAR SBLP 261700Z 09006KT CAVOK 38/10 Q1010;
0072832880999992007102618004-13267-043417FM-15+0440SBLP V0202701N00311220001CN0099001N1+03801+01001999999ADDMA1101021999999REMMET045METAR SBLP 261800Z 27006KT CAVOK 38/10 Q1010;
0072832880999992007102619004-13267-043417FM-15+0440SBLP V0203301N00311220001CN0099001N1+03801+01001999999ADDMA1100911999999REMMET045METAR SBLP 261900Z 33006KT CAVOK 38/10 Q1009;
0072832880999992007102620004-13267-043417FM-15+0440SBLP V0209999C00001220001CN0099001N1+03601+01201999999ADDMA1100911999999REMMET045METAR SBLP 262000Z 00000KT CAVOK 36/12 Q1009;
0072832880999992007102621004-13267-043417FM-15+0440SBLP V0209999C00001220001CN0099001N1+03401+01401999999ADDMA1101021999999REMMET045METAR SBLP 262100Z 00000KT CAVOK 34/14 Q1010;
0072832880999992007102710004-13267-043417FM-15+0440SBLP V0202101N00311220001CN0099001N1+02701+01701999999ADDMA1101291999999REMMET045METAR SBLP 271000Z 21006KT CAVOK 27/17 Q1013;
0072832880999992007102711004-13267-043417FM-15+0440SBLP V0202501N00211220001CN0099001N1+03101+01701999999ADDMA1101391999999REMMET045METAR SBLP 271100Z 25004KT CAVOK 31/17 Q1014;
0072832880999992007102712004-13267-043417FM-15+0440SBLP V0202301N00311220001CN0099001N1+03201+01501999999ADDMA1101391999999REMMET045METAR SBLP 271200Z 23006KT CAVOK 32/15 Q1014;
0072832880999992007102713004-13267-043417FM-15+0440SBLP V0202101N00311220001CN0099001N1+03401+01601999999ADDMA1101391999999REMMET045METAR SBLP 271300Z 21006KT CAVOK 34/16 Q1014;
0072832880999992007102714004-13267-043417FM-15+0440SBLP V0201801N00311220001CN0099001N1+03601+01601999999ADDMA1101291999999REMMET045METAR SBLP 271400Z 18006KT CAVOK 36/16 Q1013;
0072832880999992007102715004-13267-043417FM-15+0440SBLP V0201801N00311220001CN0099001N1+03601+01601999999ADDMA1101291999999REMMET045METAR SBLP 271500Z 18006KT CAVOK 36/16 Q1013;
0072832880999992007102716004-13267-043417FM-15+0440SBLP V0202701N00311220001CN0099001N1+03801+01301999999ADDMA1101021999999REMMET045METAR SBLP 271600Z 27006KT CAVOK 38/13 Q1010;
0072832880999992007102717004-13267-043417FM-15+0440SBLP V0203601N00311220001CN0099001N1+03901+01301999999ADDMA1100911999999REMMET045METAR SBLP 271700Z 36006KT CAVOK 39/13 Q1009;
0072832880999992007102718004-13267-043417FM-15+0440SBLP V0203601N00311220001CN0099001N1+03901+01301999999ADDMA1100811999999REMMET045METAR SBLP 271800Z 36006KT CAVOK 39/13 Q1008;
0120832880999992007102719004-13267-043417FM-15+0440SBLP V0200901N003112200019N0112651N1+03901+01401999999ADDGA1021+009001999GF102991999999999999999999MA1100811999999REMMET051METAR SBLP 271900Z 09006KT 9999 FEW030 39/14 Q1008;
0120832880999992007102720004-13267-043417FM-15+0440SBLP V0200901N003112200019N0112651N1+03801+01401999999ADDGA1021+009001999GF102991999999999999999999MA1100811999999REMMET051METAR SBLP 272000Z 09006KT 9999 FEW030 38/14 Q1008;
0120832880999992007102721004-13267-043417FM-15+0440SBLP V0200901N003112200019N0112651N1+03501+01401999999ADDGA1041+009001999GF104991999999999999999999MA1100911999999REMMET051METAR SBLP 272100Z 09006KT 9999 SCT030 35/14 Q1009;
0072832880999992007102810004-13267-043417FM-15+0440SBLP V0209999C00001220001CN0099001N1+02601+01601999999ADDMA1101191999999REMMET045METAR SBLP 281000Z 00000KT CAVOK 26/16 Q1012;
0072832880999992007102811004-13267-043417FM-15+0440SBLP V0209999C00001220001CN0099001N1+02901+01401999999ADDMA1101291999999REMMET045METAR SBLP 281100Z 00000KT CAVOK 29/14 Q1013;
0072832880999992007102812004-13267-043417FM-15+0440SBLP V0209999C00001220001CN0099001N1+03201+01201999999ADDMA1101291999999REMMET045METAR SBLP 281200Z 00000KT CAVOK 32/12 Q1013;
0072832880999992007102813004-13267-043417FM-15+0440SBLP V0209999C00001220001CN0099001N1+03401+01101999999ADDMA1101191999999REMMET045METAR SBLP 281300Z 00000KT CAVOK 34/11 Q1012;
0072832880999992007102814004-13267-043417FM-15+0440SBLP V0209999C00001220001CN0099001N1+03701+01101999999ADDMA1101081999999REMMET045METAR SBLP 281400Z 00000KT CAVOK 37/11 Q1011;
0120832880999992007102815004-13267-043417FM-15+0440SBLP V0203601N003112200019N0112651N1+03801+01101999999ADDGA1021+009001999GF102991999999999999999999MA1101021999999REMMET051METAR SBLP 281500Z 36006KT 9999 FEW030 38/11 Q1010;
0120832880999992007102816004-13267-043417FM-15+0440SBLP V0209999C000012200019N0112651N1+03801+01301999999ADDGA1041+009001999GF104991999999999999999999MA1100811999999REMMET051METAR SBLP 281600Z 00000KT 9999 SCT030 38/13 Q1008;
0120832880999992007102817004-13267-043417FM-15+0440SBLP V0202701N003112200019N0112651N1+03901+01401999999ADDGA1041+009001999GF104991999999999999999999MA1100711999999REMMET051METAR SBLP 281700Z 27006KT 9999 SCT030 39/14 Q1007;
0120832880999992007102818004-13267-043417FM-15+0440SBLP V0202101N003112200019N0112651N1+04001+01201999999ADDGA1041+009001999GF104991999999999999999999MA1100711999999REMMET051METAR SBLP 281800Z 21006KT 9999 SCT030 40/12 Q1007;
0120832880999992007102819004-13267-043417FM-15+0440SBLP V0202301N003112200019N0112651N1+03901+01301999999ADDGA1041+009001999GF104991999999999999999999MA1100611999999REMMET051METAR SBLP 281900Z 23006KT 9999 SCT030 39/13 Q1006;
0120832880999992007102820004-13267-043417FM-15+0440SBLP V0202701N003112200019N0112651N1+03801+01401999999ADDGA1021+009001999GF102991999999999999999999MA1100711999999REMMET051METAR SBLP 282000Z 27006KT 9999 FEW030 38/14 Q1007;
0120832880999992007102821004-13267-043417FM-15+0440SBLP V0209999C000012200019N0112651N1+03601+01501999999ADDGA1021+009001999GF102991999999999999999999MA1100711999999REMMET051METAR SBLP 282100Z 00000KT 9999 FEW030 36/15 Q1007;
0072832880999992007102910004-13267-043417FM-15+0440SBLP V0209999C00001220001CN0099001N1+02901+01601999999ADDMA1101081999999REMMET045METAR SBLP 291000Z 00000KT CAVOK 29/16 Q1011;
0072832880999992007102911004-13267-043417FM-15+0440SBLP V0209999C00001220001CN0099001N1+03201+01501999999ADDMA1101191999999REMMET045METAR SBLP 291100Z 00000KT CAVOK 32/15 Q1012;
0072832880999992007102912004-13267-043417FM-15+0440SBLP V0200901N00311220001CN0099001N1+03401+01301999999ADDMA1101191999999REMMET045METAR SBLP 291200Z 09006KT CAVOK 34/13 Q1012;
0072832880999992007102913004-13267-043417FM-15+0440SBLP V0200901N00311220001CN0099001N1+03501+01301999999ADDMA1101191999999REMMET045METAR SBLP 291300Z 09006KT CAVOK 35/13 Q1012;
0072832880999992007102914004-13267-043417FM-15+0440SBLP V0200901N00311220001CN0099001N1+03801+01201999999ADDMA1101081999999REMMET045METAR SBLP 291400Z 09006KT CAVOK 38/12 Q1011;
0072832880999992007102915004-13267-043417FM-15+0440SBLP V0200901N00311220001CN0099001N1+03801+01201999999ADDMA1101021999999REMMET045METAR SBLP 291500Z 09006KT CAVOK 38/12 Q1010;
0072832880999992007102916004-13267-043417FM-15+0440SBLP V0209999C00001220001CN0099001N1+03901+01101999999ADDMA1100811999999REMMET045METAR SBLP 291600Z 00000KT CAVOK 39/11 Q1008;
0120832880999992007102917004-13267-043417FM-15+0440SBLP V0201801N004112200019N0112651N1+04001+01101999999ADDGA1021+009001999GF102991999999999999999999MA1100711999999REMMET051METAR SBLP 291700Z 18008KT 9999 FEW030 40/11 Q1007;
0120832880999992007102918004-13267-043417FM-15+0440SBLP V0202401N003110090019N0112651N1+04101+01101999999ADDGA1071+009001999GF107991999999999999999999MA1100611999999REMMET051METAR SBLP 291800Z 24006KT 9999 BKN030 41/11 Q1006;
0120832880999992007102919004-13267-043417FM-15+0440SBLP V0202301N002112200019N0112651N1+03901+01301999999ADDGA1041+009001999GF104991999999999999999999MA1100611999999REMMET051METAR SBLP 291900Z 23004KT 9999 SCT030 39/13 Q1006;
0120832880999992007102920004-13267-043417FM-15+0440SBLP V0209999C000010090019N0112651N1+03801+01201999999ADDGA1071+009001999GF107991999999999999999999MA1100611999999REMMET051METAR SBLP 292000Z 00000KT 9999 BKN030 38/12 Q1006;
0120832880999992007102921004-13267-043417FM-15+0440SBLP V0201501N003112200019N0112651N1+03801+01001999999ADDGA1041+009001999GF104991999999999999999999MA1100711999999REMMET051METAR SBLP 292100Z 15006KT 9999 SCT030 38/10 Q1007;
0072832880999992007103010004-13267-043417FM-15+0440SBLP V0200901N00411220001CN0099001N1+02801+01601999999ADDMA1101191999999REMMET045METAR SBLP 301000Z 09008KT CAVOK 28/16 Q1012;
0072832880999992007103011004-13267-043417FM-15+0440SBLP V0200901N00311220001CN0099001N1+03001+01601999999ADDMA1101191999999REMMET045METAR SBLP 301100Z 09006KT CAVOK 30/16 Q1012;
0072832880999992007103012004-13267-043417FM-15+0440SBLP V0200701N00211220001CN0099001N1+03201+01501999999ADDMA1101191999999REMMET045METAR SBLP 301200Z 07004KT CAVOK 32/15 Q1012;
0072832880999992007103013004-13267-043417FM-15+0440SBLP V0200901N00311220001CN0099001N1+03401+01301999999ADDMA1101081999999REMMET045METAR SBLP 301300Z 09006KT CAVOK 34/13 Q1011;
0072832880999992007103014004-13267-043417FM-15+0440SBLP V0200901N00411220001CN0099001N1+03701+01201999999ADDMA1101021999999REMMET045METAR SBLP 301400Z 09008KT CAVOK 37/12 Q1010;
0072832880999992007103015004-13267-043417FM-15+0440SBLP V0200901N00411220001CN0099001N1+03701+01201999999ADDMA1101021999999REMMET045METAR SBLP 301500Z 09008KT CAVOK 37/12 Q1010;
0120832880999992007103016004-13267-043417FM-15+0440SBLP V0201201N002112200019N0112651N1+03901+01101999999ADDGA1021+009001999GF102991999999999999999999MA1100711999999REMMET051METAR SBLP 301600Z 12004KT 9999 FEW030 39/11 Q1007;
0120832880999992007103017004-13267-043417FM-15+0440SBLP V0201201N002112200019N0112651N1+03901+01101999999ADDGA1021+009001999GF102991999999999999999999MA1100711999999REMMET051METAR SBLP 301700Z 12004KT 9999 FEW030 39/11 Q1007;
0120832880999992007103018004-13267-043417FM-15+0440SBLP V0200901N003112200019N0112651N1+03901+01001999999ADDGA1041+009001999GF104991999999999999999999MA1100511999999REMMET051METAR SBLP 301800Z 09006KT 9999 SCT030 39/10 Q1005;
0120832880999992007103019004-13267-043417FM-15+0440SBLP V0200901N003112200019N0112651N1+04001+01001999999ADDGA1021+009001999GF102991999999999999999999MA1100411999999REMMET051METAR SBLP 301900Z 09006KT 9999 FEW030 40/10 Q1004;
0120832880999992007103020004-13267-043417FM-15+0440SBLP V0200301N003112200019N0112651N1+03901+01101999999ADDGA1021+009001999GF102991999999999999999999MA1100411999999REMMET051METAR SBLP 302000Z 03006KT 9999 FEW030 39/11 Q1004;
0120832880999992007103021004-13267-043417FM-15+0440SBLP V0200901N003112200019N0112651N1+03601+01301999999ADDGA1021+009001999GF102991999999999999999999MA1100511999999REMMET051METAR SBLP 302100Z 09006KT 9999 FEW030 36/13 Q1005;
0072832880999992007103110004-13267-043417FM-15+0440SBLP V0200901N00361220001CN0099001N1+02901+01501999999ADDMA1101081999999REMMET045METAR SBLP 311000Z 09007KT CAVOK 29/15 Q1011;
0072832880999992007103111004-13267-043417FM-15+0440SBLP V0200601N00311220001CN0099001N1+03101+01301999999ADDMA1101191999999REMMET045METAR SBLP 311100Z 06006KT CAVOK 31/13 Q1012;
0072832880999992007103113004-13267-043417FM-15+0440SBLP V0209999C00001220001CN0099001N1+03401+01401999999ADDMA1101081999999REMMET045METAR SBLP 311300Z 00000KT CAVOK 34/14 Q1011;
0072832880999992007103114004-13267-043417FM-15+0440SBLP V0200401N00311220001CN0099001N1+03601+01301999999ADDMA1101021999999REMMET045METAR SBLP 311400Z 04006KT CAVOK 36/13 Q1010;
0072832880999992007103115004-13267-043417FM-15+0440SBLP V0202001N00211220001CN0099001N1+03701+01301999999ADDMA1100911999999REMMET045METAR SBLP 311500Z 20004KT CAVOK 37/13 Q1009;
0072832880999992007103116004-13267-043417FM-15+0440SBLP V0203601N00311220001CN0099001N1+03701+01201999999ADDMA1100811999999REMMET045METAR SBLP 311600Z 36006KT CAVOK 37/12 Q1008;
0120832880999992007103117004-13267-043417FM-15+0440SBLP V0201501N003112200019N0112651N1+03901+01201999999ADDGA1021+009001999GF102991999999999999999999MA1100611999999REMMET051METAR SBLP 311700Z 15006KT 9999 FEW030 39/12 Q1006;
0120832880999992007103118004-13267-043417FM-15+0440SBLP V0203601N004112200019N0112651N1+03901+01201999999ADDGA1021+009001999GF102991999999999999999999MA1100611999999REMMET051METAR SBLP 311800Z 36008KT 9999 FEW030 39/12 Q1006;
0120832880999992007103119004-13267-043417FM-15+0440SBLP V0202701N002112200019N0112651N1+03801+01101999999ADDGA1021+009001999GF102991999999999999999999MA1100511999999REMMET051METAR SBLP 311900Z 27004KT 9999 FEW030 38/11 Q1005;
0120832880999992007103120004-13267-043417FM-15+0440SBLP V0202601N002112200019N0112651N1+03801+01001999999ADDGA1041+009001999GF104991999999999999999999MA1100511999999REMMET051METAR SBLP 312000Z 26004KT 9999 SCT030 38/10 Q1005;
0120832880999992007103121004-13267-043417FM-15+0440SBLP V0209999C000012200019N0112651N1+03601+01001999999ADDGA1041+009001999GF104991999999999999999999MA1100611999999REMMET051METAR SBLP 312100Z 00000KT 9999 SCT030 36/10 Q1006;
0072832880999992007110110004-13267-043417FM-15+0440SBLP V0203601N00311220001CN0099001N1+02701+01401999999ADDMA1101081999999REMMET045METAR SBLP 011000Z 36006KT CAVOK 27/14 Q1011;
0072832880999992007110111004-13267-043417FM-15+0440SBLP V0203601N00311220001CN0099001N1+03201+01101999999ADDMA1101191999999REMMET045METAR SBLP 011100Z 36006KT CAVOK 32/11 Q1012;
0072832880999992007110112004-13267-043417FM-15+0440SBLP V0203601N00311220001CN0099001N1+03201+01301999999ADDMA1101191999999REMMET045METAR SBLP 011200Z 36006KT CAVOK 32/13 Q1012;
0072832880999992007110113004-13267-043417FM-15+0440SBLP V0203601N00311220001CN0099001N1+03501+01301999999ADDMA1101081999999REMMET045METAR SBLP 011300Z 36006KT CAVOK 35/13 Q1011;
0072832880999992007110114004-13267-043417FM-15+0440SBLP V0200401N00311220001CN0099001N1+03601+01301999999ADDMA1101081999999REMMET045METAR SBLP 011400Z 04006KT CAVOK 36/13 Q1011;
0120832880999992007110115004-13267-043417FM-15+0440SBLP V0203601N005112200019N0112651N1+03801+01201999999ADDGA1021+009001999GF102991999999999999999999MA1100911999999REMMET051METAR SBLP 011500Z 36010KT 9999 FEW030 38/12 Q1009;
0120832880999992007110116004-13267-043417FM-15+0440SBLP V0203601N004112200019N0112651N1+03801+01301999999ADDGA1041+009001999GF104991999999999999999999MA1100811999999REMMET051METAR SBLP 011600Z 36008KT 9999 SCT030 38/13 Q1008;
0120832880999992007110117004-13267-043417FM-15+0440SBLP V0203601N003112200019N0112651N1+03901+01301999999ADDGA1041+009001999GF104991999999999999999999MA1100711999999REMMET051METAR SBLP 011700Z 36006KT 9999 SCT030 39/13 Q1007;
0120832880999992007110118004-13267-043417FM-15+0440SBLP V0203601N002112200019N0112651N1+03801+01301999999ADDGA1041+009001999GF104991999999999999999999MA1100711999999REMMET051METAR SBLP 011800Z 36004KT 9999 SCT030 38/13 Q1007;
0120832880999992007110119004-13267-043417FM-15+0440SBLP V0209999C000012200019N0112651N1+03801+01301999999ADDGA1041+009001999GF104991999999999999999999MA1100611999999REMMET051METAR SBLP 011900Z 00000KT 9999 SCT030 38/13 Q1006;
0072832880999992007110120004-13267-043417FM-15+0440SBLP V0209999C00001220001CN0099001N1+03701+01201999999ADDMA1100611999999REMMET045METAR SBLP 012000Z 00000KT CAVOK 37/12 Q1006;
0072832880999992007110121004-13267-043417FM-15+0440SBLP V0203301N00211220001CN0099001N1+03601+01201999999ADDMA1100611999999REMMET045METAR SBLP 012100Z 33004KT CAVOK 36/12 Q1006;
0072832880999992007110210004-13267-043417FM-15+0440SBLP V0209999C00001220001CN0099001N1+02901+01601999999ADDMA1101291999999REMMET045METAR SBLP 021000Z 00000KT CAVOK 29/16 Q1013;
0072832880999992007110211004-13267-043417FM-15+0440SBLP V0209999C00001220001CN0099001N1+03101+01501999999ADDMA1101291999999REMMET045METAR SBLP 021100Z 00000KT CAVOK 31/15 Q1013;
0072832880999992007110212004-13267-043417FM-15+0440SBLP V0209999C00001220001CN0099001N1+03401+01501999999ADDMA1101291999999REMMET045METAR SBLP 021200Z 00000KT CAVOK 34/15 Q1013;
0120832880999992007110213004-13267-043417FM-15+0440SBLP V0203601N003112200019N0112651N1+03501+01401999999ADDGA1021+009001999GF102991999999999999999999MA1101291999999REMMET051METAR SBLP 021300Z 36006KT 9999 FEW030 35/14 Q1013;
0120832880999992007110214004-13267-043417FM-15+0440SBLP V0203601N003112200019N0112651N1+03801+01401999999ADDGA1021+009001999GF102991999999999999999999MA1101191999999REMMET051METAR SBLP 021400Z 36006KT 9999 FEW030 38/14 Q1012;
0120832880999992007110215004-13267-043417FM-15+0440SBLP V0203601N003112200019N0112651N1+03901+01301999999ADDGA1041+009001999GF104991999999999999999999MA1101021999999REMMET051METAR SBLP 021500Z 36006KT 9999 SCT030 39/13 Q1010;
0120832880999992007110216004-13267-043417FM-15+0440SBLP V0200401N003112200019N0112651N1+03901+01201999999ADDGA1041+009001999GF104991999999999999999999MA1100911999999REMMET051METAR SBLP 021600Z 04006KT 9999 SCT030 39/12 Q1009;
0120832880999992007110217004-13267-043417FM-15+0440SBLP V0202701N003112200019N0112651N1+03901+01301999999ADDGA1041+009001999GF104991999999999999999999MA1100811999999REMMET051METAR SBLP 021700Z 27006KT 9999 SCT030 39/13 Q1008;
0120832880999992007110218004-13267-043417FM-15+0440SBLP V0203301N003112200019N0112651N1+04001+01301999999ADDGA1041+009001999GF104991999999999999999999MA1100711999999REMMET051METAR SBLP 021800Z 33006KT 9999 SCT030 40/13 Q1007;
0120832880999992007110219004-13267-043417FM-15+0440SBLP V0200301N003112200019N0112651N1+04001+01101999999ADDGA1021+009001999GF102991999999999999999999MA1100711999999REMMET051METAR SBLP 021900Z 03006KT 9999 FEW030 40/11 Q1007;
0120832880999992007110220004-13267-043417FM-15+0440SBLP V0203301N001012200019N0112651N1+03801+01101999999ADDGA1021+009001999GF102991999999999999999999MA1100611999999REMMET051METAR SBLP 022000Z 33002KT 9999 FEW030 38/11 Q1006;
0120832880999992007110221004-13267-043417FM-15+0440SBLP V0203601N003112200019N0112651N1+03701+01301999999ADDGA1021+009001999GF102991999999999999999999MA1100711999999REMMET051METAR SBLP 022100Z 36006KT 9999 FEW030 37/13 Q1007;
0072832880999992007110310004-13267-043417FM-15+0440SBLP V0200101N00311220001CN0099001N1+02701+01901999999ADDMA1101291999999REMMET045METAR SBLP 031000Z 01006KT CAVOK 27/19 Q1013;
0072832880999992007110311004-13267-043417FM-15+0440SBLP V0209999C00001220001CN0099001N1+03001+01801999999ADDMA1101291999999REMMET045METAR SBLP 031100Z 00000KT CAVOK 30/18 Q1013;
0072832880999992007110312004-13267-043417FM-15+0440SBLP V0209999C00001220001CN0099001N1+03201+01901999999ADDMA1101291999999REMMET045METAR SBLP 031200Z 00000KT CAVOK 32/19 Q1013;
0072832880999992007110313004-13267-043417FM-15+0440SBLP V0200101N00151220001CN0099001N1+03401+01801999999ADDMA1101191999999REMMET045METAR SBLP 031300Z 01003KT CAVOK 34/18 Q1012;
0120832880999992007110314004-13267-043417FM-15+0440SBLP V0200301N003112200019N0112651N1+03601+01501999999ADDGA1021+009001999GF102991999999999999999999MA1101191999999REMMET051METAR SBLP 031400Z 03006KT 9999 FEW030 36/15 Q1012;
0120832880999992007110315004-13267-043417FM-15+0440SBLP V0200101N002112200019N0112651N1+03701+01601999999ADDGA1041+009001999GF104991999999999999999999MA1101021999999REMMET051METAR SBLP 031500Z 01004KT 9999 SCT030 37/16 Q1010;
0120832880999992007110316004-13267-043417FM-15+0440SBLP V0203601N003112200019N0112651N1+03801+01601999999ADDGA1041+009001999GF104991999999999999999999MA1100911999999REMMET051METAR SBLP 031600Z 36006KT 9999 SCT030 38/16 Q1009;
0120832880999992007110317004-13267-043417FM-15+0440SBLP V0203601N003110090019N0112651N1+03901+01501999999ADDGA1071+009001999GF107991999999999999999999MA1100811999999REMMET051METAR SBLP 031700Z 36006KT 9999 BKN030 39/15 Q1008;
0120832880999992007110318004-13267-043417FM-15+0440SBLP V0203601N003110090019N0112651N1+03901+01401999999ADDGA1071+009001999GF107991999999999999999999MA1100711999999REMMET051METAR SBLP 031800Z 36006KT 9999 BKN030 39/14 Q1007;
0120832880999992007110319004-13267-043417FM-15+0440SBLP V0203601N003112200019N0112651N1+03801+01401999999ADDGA1041+009001999GF104991999999999999999999MA1100711999999REMMET051METAR SBLP 031900Z 36006KT 9999 SCT030 38/14 Q1007;
0120832880999992007110320004-13267-043417FM-15+0440SBLP V0203601N003112200019N0112651N1+03701+01501999999ADDGA1041+009001999GF104991999999999999999999MA1100711999999REMMET051METAR SBLP 032000Z 36006KT 9999 SCT030 37/15 Q1007;
0120832880999992007110321004-13267-043417FM-15+0440SBLP V0200901N003112200019N0112651N1+03601+01601999999ADDGA1021+009001999GF102991999999999999999999MA1100711999999REMMET051METAR SBLP 032100Z 09006KT 9999 FEW030 36/16 Q1007;
0120832880999992007110410004-13267-043417FM-15+0440SBLP V0200201N002112200019N0112651N1+02801+01901999999ADDGA1021+009001999GF102991999999999999999999MA1101191999999REMMET051METAR SBLP 041000Z 02004KT 9999 FEW030 28/19 Q1012;
0120832880999992007110411004-13267-043417FM-15+0440SBLP V0200101N003112200019N0112651N1+03001+01901999999ADDGA1021+009001999GF102991999999999999999999MA1101191999999REMMET051METAR SBLP 041100Z 01006KT 9999 FEW030 30/19 Q1012;
0072832880999992007110412004-13267-043417FM-15+0440SBLP V0200301N00311220001CN0099001N1+03301+01801999999ADDMA1101191999999REMMET045METAR SBLP 041200Z 03006KT CAVOK 33/18 Q1012;
0072832880999992007110413004-13267-043417FM-15+0440SBLP V0202601N00101220001CN0099001N1+03401+01701999999ADDMA1101191999999REMMET045METAR SBLP 041300Z 26002KT CAVOK 34/17 Q1012;
0143832880999992007110414004-13267-043417FM-15+0440SBLP V0200901N002112200019N0112651N1+03501+01701999999ADDGA1021+009001999GA2041+090001999GF104991999999999999999999MA1101081999999REMMET058METAR SBLP 041400Z 09004KT 9999 FEW030 SCT300 35/17 Q1011;
0143832880999992007110415004-13267-043417FM-15+0440SBLP V0201801N002112200019N0112651N1+03701+01601999999ADDGA1021+009001999GA2041+090001999GF104991999999999999999999MA1100911999999REMMET058METAR SBLP 041500Z 18004KT 9999 FEW030 SCT300 37/16 Q1009;
0120832880999992007110416004-13267-043417FM-15+0440SBLP V0202701N003112200019N0112651N1+03801+01501999999ADDGA1041+009001999GF104991999999999999999999MA1100811999999REMMET051METAR SBLP 041600Z 27006KT 9999 SCT030 38/15 Q1008;
0120832880999992007110417004-13267-043417FM-15+0440SBLP V0202701N003112200019N0112651N1+03901+01401999999ADDGA1041+009001999GF104991999999999999999999MA1100711999999REMMET051METAR SBLP 041700Z 27006KT 9999 SCT030 39/14 Q1007;
0120832880999992007110418004-13267-043417FM-15+0440SBLP V0202701N003112200019N0112651N1+03901+01401999999ADDGA1041+009001999GF104991999999999999999999MA1100611999999REMMET051METAR SBLP 041800Z 27006KT 9999 SCT030 39/14 Q1006;
0120832880999992007110419004-13267-043417FM-15+0440SBLP V0203601N003112200019N0112651N1+03901+01401999999ADDGA1041+009001999GF104991999999999999999999MA1100511999999REMMET051METAR SBLP 041900Z 36006KT 9999 SCT030 39/14 Q1005;
0120832880999992007110420004-13267-043417FM-15+0440SBLP V0200901N003112200019N0112651N1+03801+01501999999ADDGA1041+009001999GF104991999999999999999999MA1100611999999REMMET051METAR SBLP 042000Z 09006KT 9999 SCT030 38/15 Q1006;
0120832880999992007110421004-13267-043417FM-15+0440SBLP V0200901N003110090019N0112651N1+03501+01601999999ADDGA1071+009001999GF107991999999999999999999MA1100611999999REMMET051METAR SBLP 042100Z 09006KT 9999 BKN030 35/16 Q1006;
0143832880999992007110510004-13267-043417FM-15+0440SBLP V0203601N003112200019N0112651N1+02601+02001999999ADDGA1021+009001999GA2041+090001999GF104991999999999999999999MA1101081999999REMMET058METAR SBLP 051000Z 36006KT 9999 FEW030 SCT300 26/20 Q1011;
0072832880999992007110511004-13267-043417FM-15+0440SBLP V0203601N00411220001CN0099001N1+02801+02001999999ADDMA1101191999999REMMET045METAR SBLP 051100Z 36008KT CAVOK 28/20 Q1012;
0072832880999992007110512004-13267-043417FM-15+0440SBLP V0202801N00211220001CN0099001N1+03101+01801999999ADDMA1101191999999REMMET045METAR SBLP 051200Z 28004KT CAVOK 31/18 Q1012;
0143832880999992007110513004-13267-043417FM-15+0440SBLP V0200101N002112200019N0112651N1+03301+01801999999ADDGA1021+009001999GA2041+090001999GF104991999999999999999999MA1101081999999REMMET058METAR SBLP 051300Z 01004KT 9999 FEW030 SCT300 33/18 Q1011;
0143832880999992007110514004-13267-043417FM-15+0440SBLP V0202701N003112200019N0112651N1+03601+01601999999ADDGA1021+009001999GA2041+090001999GF104991999999999999999999MA1101081999999REMMET058METAR SBLP 051400Z 27006KT 9999 FEW030 SCT300 36/16 Q1011;
0143832880999992007110515004-13267-043417FM-15+0440SBLP V0202201N003112200019N0112651N1+03701+01401999999ADDGA1041+009001999GA2041+090001999GF104991999999999999999999MA1100911999999REMMET058METAR SBLP 051500Z 22006KT 9999 SCT030 SCT300 37/14 Q1009;
0143832880999992007110516004-13267-043417FM-15+0440SBLP V0200901N003112200019N0112651N1+03401+01601999999ADDGA1041+009001999GA2041+090001999GF104991999999999999999999MA1100811999999REMMET058METAR SBLP 051600Z 09006KT 9999 SCT030 SCT300 34/16 Q1008;
0143832880999992007110517004-13267-043417FM-15+0440SBLP V0200901N002112200019N0112651N1+03801+01401999999ADDGA1041+009001999GA2041+090001999GF104991999999999999999999MA1100711999999REMMET058METAR SBLP 051700Z 09004KT 9999 SCT030 SCT300 38/14 Q1007;
0143832880999992007110518004-13267-043417FM-15+0440SBLP V0202701N003112200019N0112651N1+03701+01501999999ADDGA1041+009001999GA2041+090001999GF104991999999999999999999MA1100611999999REMMET058METAR SBLP 051800Z 27006KT 9999 SCT030 SCT300 37/15 Q1006;
0120832880999992007110519004-13267-043417FM-15+0440SBLP V0203201N003112200019N0112651N1+03701+01501999999ADDGA1041+009001999GF104991999999999999999999MA1100611999999REMMET051METAR SBLP 051900Z 32006KT 9999 SCT030 37/15 Q1006;
0120832880999992007110520004-13267-043417FM-15+0440SBLP V0203001N003112200019N0112651N1+03701+01501999999ADDGA1021+009001999GF102991999999999999999999MA1100611999999REMMET051METAR SBLP 052000Z 30006KT 9999 FEW030 37/15 Q1006;
0072832880999992007110521004-13267-043417FM-15+0440SBLP V0202701N00311220001CN0099001N1+03501+01601999999ADDMA1100611999999REMMET045METAR SBLP 052100Z 27006KT CAVOK 35/16 Q1006;
0072832880999992007110610004-13267-043417FM-15+0440SBLP V0202701N00311220001CN0099001N1+02601+01601999999ADDMA1101391999999REMMET045METAR SBLP 061000Z 27006KT CAVOK 26/16 Q1014;
0072832880999992007110611004-13267-043417FM-15+0440SBLP V0202701N00311220001CN0099001N1+02701+01601999999ADDMA1101491999999REMMET045METAR SBLP 061100Z 27006KT CAVOK 27/16 Q1015;
0072832880999992007110612004-13267-043417FM-15+0440SBLP V0200901N00311220001CN0099001N1+02901+01601999999ADDMA1101491999999REMMET045METAR SBLP 061200Z 09006KT CAVOK 29/16 Q1015;
0072832880999992007110613004-13267-043417FM-15+0440SBLP V0201401N00311220001CN0099001N1+03101+01601999999ADDMA1101491999999REMMET045METAR SBLP 061300Z 14006KT CAVOK 31/16 Q1015;
0072832880999992007110614004-13267-043417FM-15+0440SBLP V0202101N00311220001CN0099001N1+03401+01401999999ADDMA1101391999999REMMET045METAR SBLP 061400Z 21006KT CAVOK 34/14 Q1014;
0072832880999992007110615004-13267-043417FM-15+0440SBLP V0203601N00311220001CN0099001N1+03601+01301999999ADDMA1101291999999REMMET045METAR SBLP 061500Z 36006KT CAVOK 36/13 Q1013;
0072832880999992007110616004-13267-043417FM-15+0440SBLP V0202701N00311220001CN0099001N1+03701+01301999999ADDMA1101191999999REMMET045METAR SBLP 061600Z 27006KT CAVOK 37/13 Q1012;
0072832880999992007110617004-13267-043417FM-15+0440SBLP V0202701N00311220001CN0099001N1+03701+01301999999ADDMA1101081999999REMMET045METAR SBLP 061700Z 27006KT CAVOK 37/13 Q1011;
0072832880999992007110618004-13267-043417FM-15+0440SBLP V0203601N00311220001CN0099001N1+03801+01301999999ADDMA1101021999999REMMET045METAR SBLP 061800Z 36006KT CAVOK 38/13 Q1010;
0072832880999992007110619004-13267-043417FM-15+0440SBLP V0203601N00311220001CN0099001N1+03801+01301999999ADDMA1100911999999REMMET045METAR SBLP 061900Z 36006KT CAVOK 38/13 Q1009;
0072832880999992007110620004-13267-043417FM-15+0440SBLP V0203601N00311220001CN0099001N1+03801+01301999999ADDMA1101021999999REMMET045METAR SBLP 062000Z 36006KT CAVOK 38/13 Q1010;
0072832880999992007110621004-13267-043417FM-15+0440SBLP V0209999C00001220001CN0099001N1+03501+01401999999ADDMA1101021999999REMMET045METAR SBLP 062100Z 00000KT CAVOK 35/14 Q1010;
0072832880999992007110710004-13267-043417FM-15+0443SBLP V0200901N00311220001CN0099001N1+02701+01501999999ADDMA1101391999999REMMET045METAR SBLP 071000Z 09006KT CAVOK 27/15 Q1014;
0072832880999992007110711004-13267-043417FM-15+0443SBLP V0200901N00311220001CN0099001N1+03001+01401999999ADDMA1101491999999REMMET045METAR SBLP 071100Z 09006KT CAVOK 30/14 Q1015;
0072832880999992007110712004-13267-043417FM-15+0443SBLP V0200901N00311220001CN0099001N1+03301+01301999999ADDMA1101491999999REMMET045METAR SBLP 071200Z 09006KT CAVOK 33/13 Q1015;
0072832880999992007110713004-13267-043417FM-15+0443SBLP V0200901N00311220001CN0099001N1+03401+01301999999ADDMA1101491999999REMMET045METAR SBLP 071300Z 09006KT CAVOK 34/13 Q1015;
0072832880999992007110714004-13267-043417FM-15+0443SBLP V0200901N00311220001CN0099001N1+03501+01301999999ADDMA1101391999999REMMET045METAR SBLP 071400Z 09006KT CAVOK 35/13 Q1014;
0120832880999992007110715004-13267-043417FM-15+0443SBLP V0203601N003112200019N0112651N1+03701+01301999999ADDGA1021+009001999GF102991999999999999999999MA1101291999999REMMET051METAR SBLP 071500Z 36006KT 9999 FEW030 37/13 Q1013;
0120832880999992007110716004-13267-043417FM-15+0443SBLP V0200601N003112200019N0112651N1+03701+01301999999ADDGA1021+009001999GF102991999999999999999999MA1101081999999REMMET051METAR SBLP 071600Z 06006KT 9999 FEW030 37/13 Q1011;
0120832880999992007110717004-13267-043417FM-15+0443SBLP V0201401N003112200019N0112651N1+03801+01201999999ADDGA1041+009001999GF104991999999999999999999MA1101021999999REMMET051METAR SBLP 071700Z 14006KT 9999 SCT030 38/12 Q1010;
0120832880999992007110718004-13267-043417FM-15+0443SBLP V0200901N003112200019N0112651N1+03801+01201999999ADDGA1021+009001999GF102991999999999999999999MA1100911999999REMMET051METAR SBLP 071800Z 09006KT 9999 FEW030 38/12 Q1009;
0120832880999992007110719004-13267-043417FM-15+0443SBLP V0200401N003112200019N0112651N1+03901+01101999999ADDGA1021+009001999GF102991999999999999999999MA1100911999999REMMET051METAR SBLP 071900Z 04006KT 9999 FEW030 39/11 Q1009;
0072832880999992007110720004-13267-043417FM-15+0443SBLP V0209999C00001220001CN0099001N1+03701+01301999999ADDMA1100911999999REMMET045METAR SBLP 072000Z 00000KT CAVOK 37/13 Q1009;
0072832880999992007110721004-13267-043417FM-15+0443SBLP V0209999C00001220001CN0099001N1+03601+01401999999ADDMA1100911999999REMMET045METAR SBLP 072100Z 00000KT CAVOK 36/14 Q1009;
0072832880999992007110811004-13267-043417FM-15+0443SBLP V0200901N00311220001CN0099001N1+03001+01501999999ADDMA1101291999999REMMET045METAR SBLP 081100Z 09006KT CAVOK 30/15 Q1013;
0072832880999992007110812004-13267-043417FM-15+0443SBLP V0200901N00311220001CN0099001N1+03201+01301999999ADDMA1101291999999REMMET045METAR SBLP 081200Z 09006KT CAVOK 32/13 Q1013;
0072832880999992007110813004-13267-043417FM-15+0443SBLP V0200901N00311220001CN0099001N1+03401+01301999999ADDMA1101291999999REMMET045METAR SBLP 081300Z 09006KT CAVOK 34/13 Q1013;
0072832880999992007110814004-13267-043417FM-15+0443SBLP V0200901N00311220001CN0099001N1+03601+01201999999ADDMA1101191999999REMMET045METAR SBLP 081400Z 09006KT CAVOK 36/12 Q1012;
0120832880999992007110815004-13267-043417FM-15+0443SBLP V0200901N003112200019N0112651N1+03801+01101999999ADDGA1021+009001999GF102991999999999999999999MA1101021999999REMMET051METAR SBLP 081500Z 09006KT 9999 FEW030 38/11 Q1010;
0120832880999992007110816004-13267-043417FM-15+0443SBLP V0200901N003112200019N0112651N1+03801+00801999999ADDGA1021+009001999GF102991999999999999999999MA1100911999999REMMET051METAR SBLP 081600Z 09006KT 9999 FEW030 38/08 Q1009;
0120832880999992007110817004-13267-043417FM-15+0443SBLP V0203101N003112200019N0112651N1+03901+00901999999ADDGA1041+009001999GF104991999999999999999999MA1100711999999REMMET051METAR SBLP 081700Z 31006KT 9999 SCT030 39/09 Q1007;
0120832880999992007110818004-13267-043417FM-15+0443SBLP V0203101N003112200019N0112651N1+03901+00901999999ADDGA1041+009001999GF104991999999999999999999MA1100711999999REMMET051METAR SBLP 081800Z 31006KT 9999 SCT030 39/09 Q1007;
0120832880999992007110819004-13267-043417FM-15+0443SBLP V0201201N002112200019N0112651N1+03801+00901999999ADDGA1041+009001999GF104991999999999999999999MA1100611999999REMMET051METAR SBLP 081900Z 12004KT 9999 SCT030 38/09 Q1006;
0120832880999992007110820004-13267-043417FM-15+0443SBLP V0209999C000012200019N0112651N1+03801+00701999999ADDGA1041+009001999GF104991999999999999999999MA1100611999999REMMET051METAR SBLP 082000Z 00000KT 9999 SCT030 38/07 Q1006;
0120832880999992007110821004-13267-043417FM-15+0443SBLP V0200901N003112200019N0112651N1+03601+00601999999ADDGA1041+009001999GF104991999999999999999999MA1100711999999REMMET051METAR SBLP 082100Z 09006KT 9999 SCT030 36/06 Q1007;
0072832880999992007110910004-13267-043417FM-15+0443SBLP V0209999C00001220001CN0099001N1+02501+01401999999ADDMA1101021999999REMMET045METAR SBLP 091000Z 00000KT CAVOK 25/14 Q1010;
0072832880999992007110911004-13267-043417FM-15+0443SBLP V0201501N00151220001CN0099001N1+03101+01301999999ADDMA1101081999999REMMET045METAR SBLP 091100Z 15003KT CAVOK 31/13 Q1011;
0072832880999992007110912004-13267-043417FM-15+0443SBLP V0200301N00151220001CN0099001N1+03301+01101999999ADDMA1101081999999REMMET045METAR SBLP 091200Z 03003KT CAVOK 33/11 Q1011;
0072832880999992007110913004-13267-043417FM-15+0443SBLP V0201201N00211220001CN0099001N1+03501+00901999999ADDMA1101081999999REMMET045METAR SBLP 091300Z 12004KT CAVOK 35/09 Q1011;
0072832880999992007110914004-13267-043417FM-15+0443SBLP V0203601N00211220001CN0099001N1+03801+00801999999ADDMA1101021999999REMMET045METAR SBLP 091400Z 36004KT CAVOK 38/08 Q1010;
0072832880999992007110915004-13267-043417FM-15+0443SBLP V0203601N00211220001CN0099001N1+03701+00601999999ADDMA1100911999999REMMET045METAR SBLP 091500Z 36004KT CAVOK 37/06 Q1009;
0072832880999992007110916004-13267-043417FM-15+0443SBLP V0203501N00151220001CN0099001N1+03901+00701999999ADDMA1100811999999REMMET045METAR SBLP 091600Z 35003KT CAVOK 39/07 Q1008;
0072832880999992007110917004-13267-043417FM-15+0443SBLP V0200601N00211220001CN0099001N1+03901+00801999999ADDMA1100711999999REMMET045METAR SBLP 091700Z 06004KT CAVOK 39/08 Q1007;
0143832880999992007110918004-13267-043417FM-15+0443SBLP V0200201N001510900019N0112651N1+03901+00701999999ADDGA1021+009001999GA2071+090001999GF107991999999999999999999MA1100611999999REMMET058METAR SBLP 091800Z 02003KT 9999 FEW030 BKN300 39/07 Q1006;
0143832880999992007110919004-13267-043417FM-15+0443SBLP V0203601N002110900019N0112651N1+03901+00701999999ADDGA1021+009001999GA2071+090001999GF107991999999999999999999MA1100511999999REMMET058METAR SBLP 091900Z 36004KT 9999 FEW030 BKN300 39/07 Q1005;
0143832880999992007110920004-13267-043417FM-15+0443SBLP V0203301N002110900019N0112651N1+03701+00601999999ADDGA1021+009001999GA2071+090001999GF107991999999999999999999MA1100611999999REMMET058METAR SBLP 092000Z 33004KT 9999 FEW030 BKN300 37/06 Q1006;
0072832880999992007110921004-13267-043417FM-15+0443SBLP V0209999C00001220001CN0099001N1+03501+01001999999ADDMA1100611999999REMMET045METAR SBLP 092100Z 00000KT CAVOK 35/10 Q1006;
0072832880999992007111009004-13267-043417FM-15+0443SBLP V0209999C00001220001CN0099001N1+02301+01501999999ADDMA1101021999999REMMET045METAR SBLP 100900Z 00000KT CAVOK 23/15 Q1010;
0072832880999992007111010004-13267-043417FM-15+0443SBLP V0209999C00001220001CN0099001N1+02401+01701999999ADDMA1101021999999REMMET045METAR SBLP 101000Z 00000KT CAVOK 24/17 Q1010;
0072832880999992007111011004-13267-043417FM-15+0443SBLP V0209999C00001220001CN0099001N1+02901+01501999999ADDMA1101081999999REMMET045METAR SBLP 101100Z 00000KT CAVOK 29/15 Q1011;
0072832880999992007111012004-13267-043417FM-15+0443SBLP V0209999C00001220001CN0099001N1+03101+01401999999ADDMA1101081999999REMMET045METAR SBLP 101200Z 00000KT CAVOK 31/14 Q1011;
0072832880999992007111013004-13267-043417FM-15+0443SBLP V0202701N00311220001CN0099001N1+03301+01501999999ADDMA1101081999999REMMET045METAR SBLP 101300Z 27006KT CAVOK 33/15 Q1011;
0072832880999992007111014004-13267-043417FM-15+0443SBLP V0202701N00311220001CN0099001N1+03501+01501999999ADDMA1101021999999REMMET045METAR SBLP 101400Z 27006KT CAVOK 35/15 Q1010;
0072832880999992007111015004-13267-043417FM-15+0443SBLP V0203401N00311220001CN0099001N1+03601+01501999999ADDMA1100911999999REMMET045METAR SBLP 101500Z 34006KT CAVOK 36/15 Q1009;
0120832880999992007111017004-13267-043417FM-15+0443SBLP V0202401N003112200019N0112651N1+03901+00801999999ADDGA1021+009001999GF102991999999999999999999MA1100611999999REMMET051METAR SBLP 101700Z 24006KT 9999 FEW030 39/08 Q1006;
0120832880999992007111018004-13267-043417FM-15+0443SBLP V0203301N001512200019N0112651N1+03901+00801999999ADDGA1021+009001999GF102991999999999999999999MA1100511999999REMMET051METAR SBLP 101800Z 33003KT 9999 FEW030 39/08 Q1005;
0120832880999992007111019004-13267-043417FM-15+0443SBLP V0202501N003112200019N0112651N1+03901+00801999999ADDGA1021+009001999GF102991999999999999999999MA1100511999999REMMET051METAR SBLP 101900Z 25006KT 9999 FEW030 39/08 Q1005;
0072832880999992007111020004-13267-043417FM-15+0443SBLP V0209999C00001220001CN0099001N1+03801+00801999999ADDMA1100511999999REMMET045METAR SBLP 102000Z 00000KT CAVOK 38/08 Q1005;
0072832880999992007111021004-13267-043417FM-15+0443SBLP V0209999C00001220001CN0099001N1+03601+00901999999ADDMA1100511999999REMMET045METAR SBLP 102100Z 00000KT CAVOK 36/09 Q1005;
0064832880999992007111110004-13267-043417FM-15+0443SBLP V02099999999992200019N0099001N1+02701+01001999999ADDMA1101081999999REMMET037METAR SBLP 111000Z CAVOK 27/10 Q1011;
0072832880999992007111111004-13267-043417FM-15+0443SBLP V0202101N00151220001CN0099001N1+03001+00901999999ADDMA1101081999999REMMET045METAR SBLP 111100Z 21003KT CAVOK 30/09 Q1011;
0072832880999992007111112004-13267-043417FM-15+0443SBLP V0202701N00151220001CN0099001N1+03201+01301999999ADDMA1101191999999REMMET045METAR SBLP 111200Z 27003KT CAVOK 32/13 Q1012;
0072832880999992007111113004-13267-043417FM-15+0443SBLP V0202701N00211220001CN0099001N1+03401+01301999999ADDMA1101191999999REMMET045METAR SBLP 111300Z 27004KT CAVOK 34/13 Q1012;
0072832880999992007111114004-13267-043417FM-15+0443SBLP V0203601N00211220001CN0099001N1+03601+01101999999ADDMA1101191999999REMMET045METAR SBLP 111400Z 36004KT CAVOK 36/11 Q1012;
0120832880999992007111115004-13267-043417FM-15+0443SBLP V0203601N002612200019N0112651N1+03701+01201999999ADDGA1021+009001999GF102991999999999999999999MA1101021999999REMMET051METAR SBLP 111500Z 36005KT 9999 FEW030 37/12 Q1010;
0143832880999992007111116004-13267-043417FM-15+0443SBLP V0202101N002112200019N0112651N1+03801+01101999999ADDGA1021+009001999GA2041+090001999GF104991999999999999999999MA1100911999999REMMET058METAR SBLP 111600Z 21004KT 9999 FEW030 SCT300 38/11 Q1009;
0120832880999992007111117004-13267-043417FM-15+0443SBLP V0209999C000012200019N0112651N1+03801+01201999999ADDGA1021+009001999GF102991999999999999999999MA1100711999999REMMET051METAR SBLP 111700Z 00000KT 9999 FEW030 38/12 Q1007;
0143832880999992007111118004-13267-043417FM-15+0443SBLP V0202401N003112200019N0112651N1+03801+01201999999ADDGA1021+009001999GA2041+090001999GF104991999999999999999999MA1100611999999REMMET058METAR SBLP 111800Z 24006KT 9999 FEW030 SCT300 38/12 Q1006;
0120832880999992007111119004-13267-043417FM-15+0443SBLP V0202401N003112200019N0112651N1+03801+01201999999ADDGA1021+009001999GF102991999999999999999999MA1100611999999REMMET051METAR SBLP 111900Z 24006KT 9999 FEW030 38/12 Q1006;
0072832880999992007111120004-13267-043417FM-15+0443SBLP V0209999C00001220001CN0099001N1+03701+01301999999ADDMA1100611999999REMMET045METAR SBLP 112000Z 00000KT CAVOK 37/13 Q1006;
0072832880999992007111121004-13267-043417FM-15+0443SBLP V0209999C00001220001CN0099001N1+03501+01501999999ADDMA1100611999999REMMET045METAR SBLP 112100Z 00000KT CAVOK 35/15 Q1006;
0078832880999992007111209134-13267-043417FM-16+0443SBLP V0200901N002112200019N0099001N1+02501+01401999999ADDMA1101101999999REMMET051METAR SBLP 120913Z SPECI 09004KT CAVOK 25/14 Q1011;
0072832880999992007111210004-13267-043417FM-15+0443SBLP V0200301N00311220001CN0099001N1+02801+01401999999ADDMA1101191999999REMMET045METAR SBLP 121000Z 03006KT CAVOK 28/14 Q1012;
0072832880999992007111211004-13267-043417FM-15+0443SBLP V0203601N00311220001CN0099001N1+03201+01101999999ADDMA1101191999999REMMET045METAR SBLP 121100Z 36006KT CAVOK 32/11 Q1012;
0072832880999992007111212004-13267-043417FM-15+0443SBLP V0203601N00411220001CN0099001N1+03401+01501999999ADDMA1101191999999REMMET045METAR SBLP 121200Z 36008KT CAVOK 34/15 Q1012;
0072832880999992007111213004-13267-043417FM-15+0443SBLP V0203601N00311220001CN0099001N1+03401+01601999999ADDMA1101191999999REMMET045METAR SBLP 121300Z 36006KT CAVOK 34/16 Q1012;
0120832880999992007111214004-13267-043417FM-15+0443SBLP V0203601N003112200019N0112651N1+03801+01301999999ADDGA1021+009001999GF102991999999999999999999MA1101081999999REMMET051METAR SBLP 121400Z 36006KT 9999 FEW030 38/13 Q1011;
0120832880999992007111215004-13267-043417FM-15+0443SBLP V0203001N003112200019N0112651N1+03801+01301999999ADDGA1041+009001999GF104991999999999999999999MA1101021999999REMMET051METAR SBLP 121500Z 30006KT 9999 SCT030 38/13 Q1010;
0120832880999992007111216004-13267-043417FM-15+0443SBLP V0203601N003112200019N0112651N1+03901+01301999999ADDGA1041+009001999GF104991999999999999999999MA1100911999999REMMET051METAR SBLP 121600Z 36006KT 9999 SCT030 39/13 Q1009;
0120832880999992007111217004-13267-043417FM-15+0443SBLP V0203601N003112200019N0112651N1+03901+01301999999ADDGA1041+009001999GF104991999999999999999999MA1100811999999REMMET051METAR SBLP 121700Z 36006KT 9999 SCT030 39/13 Q1008;
0120832880999992007111218004-13267-043417FM-15+0443SBLP V0203601N003112200019N0112651N1+04001+01301999999ADDGA1041+009001999GF104991999999999999999999MA1100711999999REMMET051METAR SBLP 121800Z 36006KT 9999 SCT030 40/13 Q1007;
0120832880999992007111219004-13267-043417FM-15+0443SBLP V0203601N003112200019N0112651N1+04001+01301999999ADDGA1041+009001999GF104991999999999999999999MA1100611999999REMMET051METAR SBLP 121900Z 36006KT 9999 SCT030 40/13 Q1006;
0120832880999992007111220004-13267-043417FM-15+0443SBLP V0209999C000012200019N0112651N1+03801+01401999999ADDGA1021+009001999GF102991999999999999999999MA1100611999999REMMET051METAR SBLP 122000Z 00000KT 9999 FEW030 38/14 Q1006;
0120832880999992007111221004-13267-043417FM-15+0443SBLP V0209999C000012200019N0112651N1+03701+01501999999ADDGA1021+009001999GF102991999999999999999999MA1100611999999REMMET051METAR SBLP 122100Z 00000KT 9999 FEW030 37/15 Q1006;
0078832880999992007111309104-13267-043417FM-16+0443SBLP V0209999C000012200019N0099001N1+02501+01501999999ADDMA1101201999999REMMET051METAR SBLP 130910Z SPECI 00000KT CAVOK 25/15 Q1012;
0072832880999992007111310004-13267-043417FM-15+0443SBLP V0200901N00311220001CN0099001N1+02801+01501999999ADDMA1101191999999REMMET045METAR SBLP 131000Z 09006KT CAVOK 28/15 Q1012;
0072832880999992007111311004-13267-043417FM-15+0443SBLP V0200901N00311220001CN0099001N1+03001+01501999999ADDMA1101291999999REMMET045METAR SBLP 131100Z 09006KT CAVOK 30/15 Q1013;
0072832880999992007111312004-13267-043417FM-15+0443SBLP V0200901N00311220001CN0099001N1+03201+01501999999ADDMA1101291999999REMMET045METAR SBLP 131200Z 09006KT CAVOK 32/15 Q1013;
0120832880999992007111313004-13267-043417FM-15+0443SBLP V0209999C000012200019N0112651N1+03401+01501999999ADDGA1021+009001999GF102991999999999999999999MA1101191999999REMMET051METAR SBLP 131300Z 00000KT 9999 FEW030 34/15 Q1012;
0072832880999992007111314004-13267-043417FM-15+0443SBLP V0201101N00311220001CN0099001N1+03501+01401999999ADDMA1101081999999REMMET045METAR SBLP 131400Z 11006KT CAVOK 35/14 Q1011;
0143832880999992007111315004-13267-043417FM-15+0443SBLP V0201701N002112200019N0112651N1+03701+01401999999ADDGA1021+009001999GA2041+090001999GF104991999999999999999999MA1101081999999REMMET058METAR SBLP 131500Z 17004KT 9999 FEW030 SCT300 37/14 Q1011;
0143832880999992007111316004-13267-043417FM-15+0443SBLP V0202101N002112200019N0112651N1+03601+01501999999ADDGA1041+009001999GA2041+090001999GF104991999999999999999999MA1100911999999REMMET058METAR SBLP 131600Z 21004KT 9999 SCT030 SCT300 36/15 Q1009;
0143832880999992007111317004-13267-043417FM-15+0443SBLP V0202901N002112200019N0112651N1+03701+01501999999ADDGA1041+009001999GA2041+090001999GF104991999999999999999999MA1100811999999REMMET058METAR SBLP 131700Z 29004KT 9999 SCT030 SCT300 37/15 Q1008;
0177832880999992007111318004-13267-043417FM-15+0443SBLP V0200601N004110090019N0112651N1+03301+02001999999ADDGA1071+009001999GA2021+012001091GA3071+090001999GF107991999999999999999999MA1100811999999MW1171REMMET070METAR SBLP 131800Z 06008KT 9999 TS BKN030 FEW040CB BKN300 33/20 Q1008;
0148832880999992007111319004-13267-043417FM-15+0443SBLP V0209999C000010900019N0112651N1+03101+02101999999ADDGA1041+009001999GA2071+090001999GF107991999999999999999999MA1100711999999REMMET063METAR SBLP 131900Z 00000KT 9999 SCT030 BKN300 31/21 Q1007 RERA;
0143832880999992007111320004-13267-043417FM-15+0443SBLP V0202401N003110900019N0112651N1+03101+01901999999ADDGA1021+009001999GA2071+090001999GF107991999999999999999999MA1100711999999REMMET058METAR SBLP 132000Z 24006KT 9999 FEW030 BKN300 31/19 Q1007;
0143832880999992007111321004-13267-043417FM-15+0443SBLP V0202801N003112200019N0112651N1+03101+01801999999ADDGA1041+009001999GA2041+090001999GF104991999999999999999999MA1100811999999REMMET058METAR SBLP 132100Z 28006KT 9999 SCT030 SCT300 31/18 Q1008;
0072832880999992007111410004-13267-043417FM-15+0443SBLP V0201201N00311220001CN0099001N1+02501+01801999999ADDMA1101491999999REMMET045METAR SBLP 141000Z 12006KT CAVOK 25/18 Q1015;
0072832880999992007111411004-13267-043417FM-15+0443SBLP V0201201N00411220001CN0099001N1+02801+01901999999ADDMA1101491999999REMMET045METAR SBLP 141100Z 12008KT CAVOK 28/19 Q1015;
0072832880999992007111412004-13267-043417FM-15+0443SBLP V0201201N00311220001CN0099001N1+03001+01601999999ADDMA1101491999999REMMET045METAR SBLP 141200Z 12006KT CAVOK 30/16 Q1015;
0072832880999992007111413004-13267-043417FM-15+0443SBLP V0201001N00211220001CN0099001N1+03201+01601999999ADDMA1101491999999REMMET045METAR SBLP 141300Z 10004KT CAVOK 32/16 Q1015;
0072832880999992007111414004-13267-043417FM-15+0443SBLP V0200901N00311220001CN0099001N1+03401+01501999999ADDMA1101291999999REMMET045METAR SBLP 141400Z 09006KT CAVOK 34/15 Q1013;
0072832880999992007111415004-13267-043417FM-15+0443SBLP V0202101N00311220001CN0099001N1+03501+01301999999ADDMA1101191999999REMMET045METAR SBLP 141500Z 21006KT CAVOK 35/13 Q1012;
0120832880999992007111416004-13267-043417FM-15+0443SBLP V0200301N002112200019N0112651N1+03701+01301999999ADDGA1021+009001999GF102991999999999999999999MA1101081999999REMMET051METAR SBLP 141600Z 03004KT 9999 FEW030 37/13 Q1011;
0120832880999992007111417004-13267-043417FM-15+0443SBLP V0202701N001512200019N0112651N1+03801+01101999999ADDGA1021+009001999GF102991999999999999999999MA1101021999999REMMET051METAR SBLP 141700Z 27003KT 9999 FEW030 38/11 Q1010;
0120832880999992007111418004-13267-043417FM-15+0443SBLP V0201501N001512200019N0112651N1+03901+00901999999ADDGA1021+009001999GF102991999999999999999999MA1100911999999REMMET051METAR SBLP 141800Z 15003KT 9999 FEW030 39/09 Q1009;
0120832880999992007111419004-13267-043417FM-15+0443SBLP V0209999C000012200019N0112651N1+03801+00901999999ADDGA1021+009001999GF102991999999999999999999MA1100811999999REMMET051METAR SBLP 141900Z 00000KT 9999 FEW030 38/09 Q1008;
0120832880999992007111420004-13267-043417FM-15+0443SBLP V0201501N002112200019N0112651N1+03801+01101999999ADDGA1021+009001999GF102991999999999999999999MA1100811999999REMMET051METAR SBLP 142000Z 15004KT 9999 FEW030 38/11 Q1008;
0072832880999992007111421004-13267-043417FM-15+0443SBLP V0201201N00211220001CN0099001N1+03701+01301999999ADDMA1100911999999REMMET045METAR SBLP 142100Z 12004KT CAVOK 37/13 Q1009;
0072832880999992007111510004-13267-043417FM-15+0443SBLP V0209999C00001220001CN0099001N1+02501+01801999999ADDMA1101391999999REMMET045METAR SBLP 151000Z 00000KT CAVOK 25/18 Q1014;
0072832880999992007111511004-13267-043417FM-15+0443SBLP V0201201N00151220001CN0099001N1+02901+01601999999ADDMA1101491999999REMMET045METAR SBLP 151100Z 12003KT CAVOK 29/16 Q1015;
0072832880999992007111512004-13267-043417FM-15+0443SBLP V0201801N00151220001CN0099001N1+03201+01501999999ADDMA1101491999999REMMET045METAR SBLP 151200Z 18003KT CAVOK 32/15 Q1015;
0072832880999992007111513004-13267-043417FM-15+0443SBLP V0209999C00001220001CN0099001N1+03301+01501999999ADDMA1101491999999REMMET045METAR SBLP 151300Z 00000KT CAVOK 33/15 Q1015;
0072832880999992007111514004-13267-043417FM-15+0443SBLP V0202101N00311220001CN0099001N1+03501+01601999999ADDMA1101391999999REMMET045METAR SBLP 151400Z 21006KT CAVOK 35/16 Q1014;
0120832880999992007111515004-13267-043417FM-15+0443SBLP V0209999C000012200019N0112651N1+03701+01401999999ADDGA1021+009001999GF102991999999999999999999MA1101291999999REMMET051METAR SBLP 151500Z 00000KT 9999 FEW030 37/14 Q1013;
0120832880999992007111516004-13267-043417FM-15+0443SBLP V0202401N003112200019N0112651N1+03701+01401999999ADDGA1041+009001999GF104991999999999999999999MA1101081999999REMMET051METAR SBLP 151600Z 24006KT 9999 SCT030 37/14 Q1011;
0120832880999992007111517004-13267-043417FM-15+0443SBLP V0202401N003112200019N0112651N1+03801+01401999999ADDGA1041+009001999GF104991999999999999999999MA1101021999999REMMET051METAR SBLP 151700Z 24006KT 9999 SCT030 38/14 Q1010;
0120832880999992007111518004-13267-043417FM-15+0443SBLP V0203001N003112200019N0112651N1+03801+01401999999ADDGA1041+009001999GF104991999999999999999999MA1100911999999REMMET051METAR SBLP 151800Z 30006KT 9999 SCT030 38/14 Q1009;
0120832880999992007111519004-13267-043417FM-15+0443SBLP V0202401N003112200019N0112651N1+03701+01401999999ADDGA1041+009001999GF104991999999999999999999MA1100911999999REMMET051METAR SBLP 151900Z 24006KT 9999 SCT030 37/14 Q1009;
0120832880999992007111520004-13267-043417FM-15+0443SBLP V0202101N003112200019N0112651N1+03701+01401999999ADDGA1021+009001999GF102991999999999999999999MA1100911999999REMMET051METAR SBLP 152000Z 21006KT 9999 FEW030 37/14 Q1009;
0120832880999992007111521004-13267-043417FM-15+0443SBLP V0202201N003112200019N0112651N1+03501+01601999999ADDGA1021+009001999GF102991999999999999999999MA1100911999999REMMET051METAR SBLP 152100Z 22006KT 9999 FEW030 35/16 Q1009;
0072832880999992007111610004-13267-043417FM-15+0443SBLP V0200901N00311220001CN0099001N1+02801+01701999999ADDMA1101391999999REMMET045METAR SBLP 161000Z 09006KT CAVOK 28/17 Q1014;
0072832880999992007111611004-13267-043417FM-15+0443SBLP V0200901N00211220001CN0099001N1+03001+01601999999ADDMA1101391999999REMMET045METAR SBLP 161100Z 09004KT CAVOK 30/16 Q1014;
0072832880999992007111612004-13267-043417FM-15+0443SBLP V0200901N00311220001CN0099001N1+03301+01501999999ADDMA1101491999999REMMET045METAR SBLP 161200Z 09006KT CAVOK 33/15 Q1015;
0072832880999992007111613004-13267-043417FM-15+0443SBLP V0201201N00311220001CN0099001N1+03501+01501999999ADDMA1101391999999REMMET045METAR SBLP 161300Z 12006KT CAVOK 35/15 Q1014;
0072832880999992007111614004-13267-043417FM-15+0443SBLP V0201201N00311220001CN0099001N1+03501+01501999999ADDMA1101391999999REMMET045METAR SBLP 161400Z 12006KT CAVOK 35/15 Q1014;
0120832880999992007111615004-13267-043417FM-15+0443SBLP V0200901N003112200019N0112651N1+03801+01401999999ADDGA1021+009001999GF102991999999999999999999MA1101291999999REMMET051METAR SBLP 161500Z 09006KT 9999 FEW030 38/14 Q1013;
0120832880999992007111616004-13267-043417FM-15+0443SBLP V0200901N003112200019N0112651N1+03901+01401999999ADDGA1021+009001999GF102991999999999999999999MA1101081999999REMMET051METAR SBLP 161600Z 09006KT 9999 FEW030 39/14 Q1011;
0120832880999992007111617004-13267-043417FM-15+0443SBLP V0200901N003112200019N0112651N1+04001+01301999999ADDGA1041+009001999GF104991999999999999999999MA1101021999999REMMET051METAR SBLP 161700Z 09006KT 9999 SCT030 40/13 Q1010;
0120832880999992007111618004-13267-043417FM-15+0443SBLP V0200901N003112200019N0112651N1+04001+01301999999ADDGA1041+009001999GF104991999999999999999999MA1100911999999REMMET051METAR SBLP 161800Z 09006KT 9999 SCT030 40/13 Q1009;
0120832880999992007111619004-13267-043417FM-15+0443SBLP V0200901N003112200019N0112651N1+03901+01301999999ADDGA1041+009001999GF104991999999999999999999MA1100911999999REMMET051METAR SBLP 161900Z 09006KT 9999 SCT030 39/13 Q1009;
0120832880999992007111620004-13267-043417FM-15+0443SBLP V0209999C000012200019N0112651N1+03801+01401999999ADDGA1041+009001999GF104991999999999999999999MA1100911999999REMMET051METAR SBLP 162000Z 00000KT 9999 SCT030 38/14 Q1009;
0120832880999992007111621004-13267-043417FM-15+0443SBLP V0209999C000012200019N0112651N1+03601+01501999999ADDGA1041+009001999GF104991999999999999999999MA1101021999999REMMET051METAR SBLP 162100Z 00000KT 9999 SCT030 36/15 Q1010;
0078832880999992007111709104-13267-043417FM-16+0443SBLP V0209999C000012200019N0099001N1+02401+01701999999ADDMA1101601999999REMMET051METAR SBLP 170910Z 00000KT SPECI CAVOK 24/17 Q1016;
0072832880999992007111710004-13267-043417FM-15+0443SBLP V0209999C00001220001CN0099001N1+02701+01901999999ADDMA1101591999999REMMET045METAR SBLP 171000Z 00000KT CAVOK 27/19 Q1016;
0072832880999992007111711004-13267-043417FM-15+0443SBLP V0201801N00311220001CN0099001N1+03001+01501999999ADDMA1101691999999REMMET045METAR SBLP 171100Z 18006KT CAVOK 30/15 Q1017;
0072832880999992007111712004-13267-043417FM-15+0443SBLP V0201801N00311220001CN0099001N1+03201+01401999999ADDMA1101691999999REMMET045METAR SBLP 171200Z 18006KT CAVOK 32/14 Q1017;
0072832880999992007111713004-13267-043417FM-15+0443SBLP V0200901N00311220001CN0099001N1+03301+01301999999ADDMA1101591999999REMMET045METAR SBLP 171300Z 09006KT CAVOK 33/13 Q1016;
0072832880999992007111714004-13267-043417FM-15+0443SBLP V0200901N00311220001CN0099001N1+03401+01301999999ADDMA1101591999999REMMET045METAR SBLP 171400Z 09006KT CAVOK 34/13 Q1016;
0120832880999992007111715004-13267-043417FM-15+0443SBLP V0200901N003112200019N0112651N1+03501+01301999999ADDGA1021+009001999GF102991999999999999999999MA1101391999999REMMET051METAR SBLP 171500Z 09006KT 9999 FEW030 35/13 Q1014;
0120832880999992007111716004-13267-043417FM-15+0443SBLP V0201201N003112200019N0112651N1+03701+01501999999ADDGA1021+009001999GF102991999999999999999999MA1101291999999REMMET051METAR SBLP 171600Z 12006KT 9999 FEW030 37/15 Q1013;
0120832880999992007111717004-13267-043417FM-15+0443SBLP V0200901N003112200019N0112651N1+03701+01401999999ADDGA1021+009001999GF102991999999999999999999MA1101191999999REMMET051METAR SBLP 171700Z 09006KT 9999 FEW030 37/14 Q1012;
0143832880999992007111718004-13267-043417FM-15+0443SBLP V0200701N002112200019N0112651N1+03701+01201999999ADDGA1041+009001999GA2041+090001999GF104991999999999999999999MA1101081999999REMMET058METAR SBLP 171800Z 07004KT 9999 SCT030 SCT300 37/12 Q1011;
0143832880999992007111719004-13267-043417FM-15+0443SBLP V0201401N002110900019N0112651N1+03701+01201999999ADDGA1041+009001999GA2071+090001999GF107991999999999999999999MA1101021999999REMMET058METAR SBLP 171900Z 14004KT 9999 SCT030 BKN300 37/12 Q1010;
0143832880999992007111720004-13267-043417FM-15+0443SBLP V0201601N006210900019N0112651N1+03601+01201999999ADDGA1021+009001999GA2071+090001999GF107991999999999999999999MA1101081999999REMMET058METAR SBLP 172000Z 16012KT 9999 FEW030 BKN300 36/12 Q1011;
0143832880999992007111721004-13267-043417FM-15+0443SBLP V0201501N005112200019N0112651N1+03401+01201999999ADDGA1021+009001999GA2041+090001999GF104991999999999999999999MA1101081999999REMMET058METAR SBLP 172100Z 15010KT 9999 FEW030 SCT300 34/12 Q1011;
0072832880999992007111810004-13267-043417FM-15+0443SBLP V0200901N00311220001CN0099001N1+02501+01601999999ADDMA1101591999999REMMET045METAR SBLP 181000Z 09006KT CAVOK 25/16 Q1016;
0072832880999992007111811004-13267-043417FM-15+0443SBLP V0200901N00311220001CN0099001N1+02701+01501999999ADDMA1101691999999REMMET045METAR SBLP 181100Z 09006KT CAVOK 27/15 Q1017;
0072832880999992007111812004-13267-043417FM-15+0443SBLP V0200901N00311220001CN0099001N1+02901+01401999999ADDMA1101691999999REMMET045METAR SBLP 181200Z 09006KT CAVOK 29/14 Q1017;
0072832880999992007111813004-13267-043417FM-15+0443SBLP V0200901N00311220001CN0099001N1+03101+01301999999ADDMA1101591999999REMMET045METAR SBLP 181300Z 09006KT CAVOK 31/13 Q1016;
0072832880999992007111814004-13267-043417FM-15+0443SBLP V0200901N00311220001CN0099001N1+03201+01201999999ADDMA1101491999999REMMET045METAR SBLP 181400Z 09006KT CAVOK 32/12 Q1015;
0072832880999992007111815004-13267-043417FM-15+0443SBLP V0201801N00311220001CN0099001N1+03401+01001999999ADDMA1101291999999REMMET045METAR SBLP 181500Z 18006KT CAVOK 34/10 Q1013;
0072832880999992007111816004-13267-043417FM-15+0443SBLP V0201201N00411220001CN0099001N1+03601+01301999999ADDMA1101191999999REMMET045METAR SBLP 181600Z 12008KT CAVOK 36/13 Q1012;
0120832880999992007111817004-13267-043417FM-15+0443SBLP V0200601N003112200019N0112651N1+03601+01101999999ADDGA1021+009001999GF102991999999999999999999MA1101021999999REMMET051METAR SBLP 181700Z 06006KT 9999 FEW030 36/11 Q1010;
0143832880999992007111818004-13267-043417FM-15+0443SBLP V0201801N004112200019N0112651N1+03601+01001999999ADDGA1021+009001999GA2041+090001999GF104991999999999999999999MA1100911999999REMMET058METAR SBLP 181800Z 18008KT 9999 FEW030 SCT300 36/10 Q1009;
0120832880999992007111819004-13267-043417FM-15+0443SBLP V0201801N004112200019N0112651N1+03601+00901999999ADDGA1021+009001999GF102991999999999999999999MA1100911999999REMMET051METAR SBLP 181900Z 18008KT 9999 FEW030 36/09 Q1009;
0120832880999992007111820004-13267-043417FM-15+0443SBLP V0201501N003112200019N0112651N1+03501+01101999999ADDGA1021+009001999GF102991999999999999999999MA1100911999999REMMET051METAR SBLP 182000Z 15006KT 9999 FEW030 35/11 Q1009;
0072832880999992007111821004-13267-043417FM-15+0443SBLP V0201501N00411220001CN0099001N1+03401+01101999999ADDMA1101021999999REMMET045METAR SBLP 182100Z 15008KT CAVOK 34/11 Q1010;
0078832880999992007111909054-13267-043417FM-16+0443SBLP V0200801N002112200019N0099001N1+02401+01601999999ADDMA1101401999999REMMET051METAR SBLP 190905Z SPECI 08004KT CAVOK 24/16 Q1014;
0072832880999992007111913004-13267-043417FM-15+0443SBLP V0201801N00311220001CN0099001N1+03301+01501999999ADDMA1101391999999REMMET045METAR SBLP 191300Z 18006KT CAVOK 33/15 Q1014;
0072832880999992007111914004-13267-043417FM-15+0443SBLP V0202101N00211220001CN0099001N1+03401+01301999999ADDMA1101291999999REMMET045METAR SBLP 191400Z 21004KT CAVOK 34/13 Q1013;
0120832880999992007111915004-13267-043417FM-15+0443SBLP V0201801N003112200019N0112651N1+03601+01401999999ADDGA1021+009001999GF102991999999999999999999MA1101191999999REMMET051METAR SBLP 191500Z 18006KT 9999 FEW030 36/14 Q1012;
0120832880999992007111916004-13267-043417FM-15+0443SBLP V0201801N002612200019N0112651N1+03501+01301999999ADDGA1041+009001999GF104991999999999999999999MA1101021999999REMMET051METAR SBLP 191600Z 18005KT 9999 SCT030 35/13 Q1010;
0120832880999992007111917004-13267-043417FM-15+0443SBLP V0202401N003112200019N0112651N1+03701+01201999999ADDGA1041+009001999GF104991999999999999999999MA1100911999999REMMET051METAR SBLP 191700Z 24006KT 9999 SCT030 37/12 Q1009;
0120832880999992007111918004-13267-043417FM-15+0443SBLP V0209999C000012200019N0112651N1+03801+01201999999ADDGA1041+009001999GF104991999999999999999999MA1100811999999REMMET051METAR SBLP 191800Z 00000KT 9999 SCT030 38/12 Q1008;
0120832880999992007111919004-13267-043417FM-15+0443SBLP V0201501N001512200019N0112651N1+03801+01101999999ADDGA1021+009001999GF102991999999999999999999MA1100811999999REMMET051METAR SBLP 191900Z 15003KT 9999 FEW030 38/11 Q1008;
0120832880999992007111920004-13267-043417FM-15+0443SBLP V0202701N002612200019N0112651N1+03701+01201999999ADDGA1021+009001999GF102991999999999999999999MA1100711999999REMMET051METAR SBLP 192000Z 27005KT 9999 FEW030 37/12 Q1007;
0120832880999992007111921004-13267-043417FM-15+0443SBLP V0202301N002112200019N0112651N1+03601+01401999999ADDGA1021+009001999GF102991999999999999999999MA1100811999999REMMET051METAR SBLP 192100Z 23004KT 9999 FEW030 36/14 Q1008;
0072832880999992007112010004-13267-043417FM-15+0443SBLP V0200601N00311220001CN0099001N1+02801+01501999999ADDMA1101191999999REMMET045METAR SBLP 201000Z 06006KT CAVOK 28/15 Q1012;
0072832880999992007112011004-13267-043417FM-15+0443SBLP V0202701N00311220001CN0099001N1+03001+01401999999ADDMA1101191999999REMMET045METAR SBLP 201100Z 27006KT CAVOK 30/14 Q1012;
0072832880999992007112012004-13267-043417FM-15+0443SBLP V0203401N00311220001CN0099001N1+03101+01501999999ADDMA1101191999999REMMET045METAR SBLP 201200Z 34006KT CAVOK 31/15 Q1012;
0072832880999992007112013004-13267-043417FM-15+0443SBLP V0203301N00311220001CN0099001N1+03301+01501999999ADDMA1101191999999REMMET045METAR SBLP 201300Z 33006KT CAVOK 33/15 Q1012;
0120832880999992007112014004-13267-043417FM-15+0443SBLP V0203601N003112200019N0112651N1+03701+01301999999ADDGA1021+009001999GF102991999999999999999999MA1101081999999REMMET051METAR SBLP 201400Z 36006KT 9999 FEW030 37/13 Q1011;
0120832880999992007112015004-13267-043417FM-15+0443SBLP V0209999C000012200019N0112651N1+03801+01301999999ADDGA1021+009001999GF102991999999999999999999MA1101081999999REMMET051METAR SBLP 201500Z 00000KT 9999 FEW030 38/13 Q1011;
0120832880999992007112016004-13267-043417FM-15+0443SBLP V0202101N002112200019N0112651N1+03901+01101999999ADDGA1041+009001999GF104991999999999999999999MA1101021999999REMMET051METAR SBLP 201600Z 21004KT 9999 SCT030 39/11 Q1010;
0120832880999992007112017004-13267-043417FM-15+0443SBLP V0202101N001512200019N0112651N1+03901+01101999999ADDGA1041+009001999GF104991999999999999999999MA1100811999999REMMET051METAR SBLP 201700Z 21003KT 9999 SCT030 39/11 Q1008;
0120832880999992007112018004-13267-043417FM-15+0443SBLP V0202401N001512200019N0112651N1+04001+01101999999ADDGA1021+009001999GF102991999999999999999999MA1100811999999REMMET051METAR SBLP 201800Z 24003KT 9999 FEW030 40/11 Q1008;
0120832880999992007112019004-13267-043417FM-15+0443SBLP V0202501N002112200019N0112651N1+04001+01101999999ADDGA1021+009001999GF102991999999999999999999MA1100711999999REMMET051METAR SBLP 201900Z 25004KT 9999 FEW030 40/11 Q1007;
0120832880999992007112020004-13267-043417FM-15+0443SBLP V0200301N002112200019N0112651N1+03901+01101999999ADDGA1021+009001999GF102991999999999999999999MA1100711999999REMMET051METAR SBLP 202000Z 03004KT 9999 FEW030 39/11 Q1007;
0120832880999992007112021004-13267-043417FM-15+0443SBLP V0209999C000012200019N0112651N1+03701+01401999999ADDGA1021+009001999GF102991999999999999999999MA1100711999999REMMET051METAR SBLP 202100Z 00000KT 9999 FEW030 37/14 Q1007;
0072832880999992007112110004-13267-043417FM-15+0443SBLP V0200901N00211220001CN0099001N1+02801+01401999999ADDMA1101291999999REMMET045METAR SBLP 211000Z 09004KT CAVOK 28/14 Q1013;
0072832880999992007112111004-13267-043417FM-15+0443SBLP V0200301N00211220001CN0099001N1+03201+01401999999ADDMA1101291999999REMMET045METAR SBLP 211100Z 03004KT CAVOK 32/14 Q1013;
0072832880999992007112112004-13267-043417FM-15+0443SBLP V0203601N00211220001CN0099001N1+03501+01401999999ADDMA1101291999999REMMET045METAR SBLP 211200Z 36004KT CAVOK 35/14 Q1013;
0072832880999992007112113004-13267-043417FM-15+0443SBLP V0203601N00261220001CN0099001N1+03601+01501999999ADDMA1101291999999REMMET045METAR SBLP 211300Z 36005KT CAVOK 36/15 Q1013;
0120832880999992007112114004-13267-043417FM-15+0443SBLP V0203601N002112200019N0112651N1+03801+01401999999ADDGA1021+009001999GF102991999999999999999999MA1101191999999REMMET051METAR SBLP 211400Z 36004KT 9999 FEW030 38/14 Q1012;
0120832880999992007112115004-13267-043417FM-15+0443SBLP V0203501N003112200019N0112651N1+04001+01301999999ADDGA1021+009001999GF102991999999999999999999MA1101081999999REMMET051METAR SBLP 211500Z 35006KT 9999 FEW030 40/13 Q1011;
0143832880999992007112116004-13267-043417FM-15+0443SBLP V0203601N003112200019N0112651N1+03901+01401999999ADDGA1041+009001999GA2041+030001999GF104991999999999999999999MA1101021999999REMMET058METAR SBLP 211600Z 36006KT 9999 SCT030 SCT100 39/14 Q1010;
0143832880999992007112117004-13267-043417FM-15+0443SBLP V0200601N003112200019N0112651N1+03801+01501999999ADDGA1041+009001999GA2041+030001999GF104991999999999999999999MA1100911999999REMMET058METAR SBLP 211700Z 06006KT 9999 SCT030 SCT100 38/15 Q1009;
0143832880999992007112118004-13267-043417FM-15+0443SBLP V0209999C000012200019N0112651N1+03801+01401999999ADDGA1041+009001999GA2041+030001999GF104991999999999999999999MA1100911999999REMMET058METAR SBLP 211800Z 00000KT 9999 SCT030 SCT100 38/14 Q1009;
0143832880999992007112119004-13267-043417FM-15+0443SBLP V0202401N003112200019N0112651N1+03801+01401999999ADDGA1021+009001999GA2041+030001999GF104991999999999999999999MA1100911999999REMMET058METAR SBLP 211900Z 24006KT 9999 FEW030 SCT100 38/14 Q1009;
0143832880999992007112120004-13267-043417FM-15+0443SBLP V0202101N003110300019N0112651N1+03701+01501999999ADDGA1041+009001999GA2071+030001999GF107991999999999999999999MA1100911999999REMMET058METAR SBLP 212000Z 21006KT 9999 SCT030 BKN100 37/15 Q1009;
0143832880999992007112121004-13267-043417FM-15+0443SBLP V0201501N003110300019N0112651N1+03501+01701999999ADDGA1041+009001999GA2071+030001999GF107991999999999999999999MA1101021999999REMMET058METAR SBLP 212100Z 15006KT 9999 SCT030 BKN100 35/17 Q1010;
0143832880999992007112210004-13267-043417FM-15+0443SBLP V0209999C000010300019N0112651N1+02601+01901999999ADDGA1021+009001999GA2071+030001999GF107991999999999999999999MA1101291999999REMMET058METAR SBLP 221000Z 00000KT 9999 FEW030 BKN100 26/19 Q1013;
0143832880999992007112211004-13267-043417FM-15+0443SBLP V0200901N003110300019N0112651N1+02801+01901999999ADDGA1021+006001999GA2071+030001999GF107991999999999999999999MA1101391999999REMMET058METAR SBLP 221100Z 09006KT 9999 FEW020 BKN100 28/19 Q1014;
0143832880999992007112212004-13267-043417FM-15+0443SBLP V0200901N003110300019N0112651N1+02901+01801999999ADDGA1021+009001999GA2071+030001999GF107991999999999999999999MA1101491999999REMMET058METAR SBLP 221200Z 09006KT 9999 FEW030 BKN100 29/18 Q1015;
0143832880999992007112213004-13267-043417FM-15+0443SBLP V0200901N003112200019N0112651N1+03201+01801999999ADDGA1021+009001999GA2041+030001999GF104991999999999999999999MA1101391999999REMMET058METAR SBLP 221300Z 09006KT 9999 FEW030 SCT100 32/18 Q1014;
0143832880999992007112214004-13267-043417FM-15+0443SBLP V0203601N003112200019N0112651N1+03301+01801999999ADDGA1041+009001999GA2041+030001999GF104991999999999999999999MA1101391999999REMMET058METAR SBLP 221400Z 36006KT 9999 SCT030 SCT100 33/18 Q1014;
0143832880999992007112215004-13267-043417FM-15+0443SBLP V0203601N003112200019N0112651N1+03301+01801999999ADDGA1041+009001999GA2041+030001999GF104991999999999999999999MA1101191999999REMMET058METAR SBLP 221500Z 36006KT 9999 SCT030 SCT100 33/18 Q1012;
0143832880999992007112216004-13267-043417FM-15+0443SBLP V0202401N004110300019N0112651N1+03301+01801999999ADDGA1041+009001999GA2071+030001999GF107991999999999999999999MA1101191999999REMMET058METAR SBLP 221600Z 24008KT 9999 SCT030 BKN100 33/18 Q1012;
0143832880999992007112217004-13267-043417FM-15+0443SBLP V0202301N005110300019N0112651N1+03101+01901999999ADDGA1041+009001999GA2071+030001999GF107991999999999999999999MA1101081999999REMMET058METAR SBLP 221700Z 23010KT 9999 SCT030 BKN100 31/19 Q1011;
0143832880999992007112218004-13267-043417FM-15+0443SBLP V0202201N004110300019N0112651N1+03101+02001999999ADDGA1021+009001999GA2071+030001999GF107991999999999999999999MA1101021999999REMMET058METAR SBLP 221800Z 22008KT 9999 FEW030 BKN100 31/20 Q1010;
0143832880999992007112219004-13267-043417FM-15+0443SBLP V0201501N004110300019N0112651N1+03101+01901999999ADDGA1021+009001999GA2071+030001999GF107991999999999999999999MA1101021999999REMMET058METAR SBLP 221900Z 15008KT 9999 FEW030 BKN100 31/19 Q1010;
0143832880999992007112220004-13267-043417FM-15+0443SBLP V0201201N002110300019N0112651N1+03001+01901999999ADDGA1041+009001999GA2071+030001999GF107991999999999999999999MA1101021999999REMMET058METAR SBLP 222000Z 12004KT 9999 SCT030 BKN100 30/19 Q1010;
0143832880999992007112221004-13267-043417FM-15+0443SBLP V0200401N003110300019N0112651N1+03001+01901999999ADDGA1041+009001999GA2071+030001999GF107991999999999999999999MA1101081999999REMMET058METAR SBLP 222100Z 04006KT 9999 SCT030 BKN100 30/19 Q1011;
0176832880999992007112310004-13267-043417FM-15+0443SBLP V0201201N003110060019N0112651N1+02201+02101999999ADDGA1041+004501999GA2071+006001999GA3081+030001999GF108991999999999999999999MA1101491999999MW1611REMMET069METAR SBLP 231000Z 12006KT 9999 -RA SCT015 BKN020 OVC100 22/21 Q1015;
0153832880999992007112311004-13267-043417FM-15+0443SBLP V0201401N001010060019N0112651N1+02201+02201999999ADDGA1071+006001999GA2081+030001999GF108991999999999999999999MA1101591999999MW1611REMMET062METAR SBLP 231100Z 14002KT 9999 -RA BKN020 OVC100 22/22 Q1016;
0148832880999992007112312004-13267-043417FM-15+0443SBLP V0209999C000010300019N0112651N1+02301+02101999999ADDGA1041+006001999GA2071+030001999GF107991999999999999999999MA1101591999999REMMET063METAR SBLP 231200Z 00000KT 9999 SCT020 BKN100 23/21 Q1016 RERA;
0148832880999992007112313004-13267-043417FM-15+0443SBLP V0202101N001510060019N0112651N1+02401+02201999999ADDGA1071+006001999GA2071+030001999GF107991999999999999999999MA1101591999999REMMET063METAR SBLP 231300Z 21003KT 9999 BKN020 BKN100 24/22 Q1016 RERA;
0143832880999992007112314004-13267-043417FM-15+0443SBLP V0209999C000010060019N0112651N1+02501+02201999999ADDGA1071+006001999GA2071+030001999GF107991999999999999999999MA1101591999999REMMET058METAR SBLP 231400Z 00000KT 9999 BKN020 BKN100 25/22 Q1016;
0143832880999992007112315004-13267-043417FM-15+0443SBLP V0209999C000010060019N0112651N1+02501+02201999999ADDGA1071+006001999GA2071+030001999GF107991999999999999999999MA1101491999999REMMET058METAR SBLP 231500Z 00000KT 9999 BKN020 BKN100 25/22 Q1015;
0143832880999992007112316004-13267-043417FM-15+0443SBLP V0209999C000010300019N0112651N1+02601+02101999999ADDGA1041+006001999GA2071+030001999GF107991999999999999999999MA1101391999999REMMET058METAR SBLP 231600Z 00000KT 9999 SCT020 BKN100 26/21 Q1014;
0143832880999992007112317004-13267-043417FM-15+0443SBLP V0209999C000010300019N0112651N1+02601+02101999999ADDGA1041+006001999GA2071+030001999GF107991999999999999999999MA1101291999999REMMET058METAR SBLP 231700Z 00000KT 9999 SCT020 BKN100 26/21 Q1013;
0143832880999992007112318004-13267-043417FM-15+0443SBLP V0209999C000010300019N0112651N1+02701+02101999999ADDGA1021+006001999GA2071+030001999GF107991999999999999999999MA1101291999999REMMET058METAR SBLP 231800Z 00000KT 9999 FEW020 BKN100 27/21 Q1013;
0143832880999992007112319004-13267-043417FM-15+0443SBLP V0209999C000010300019N0112651N1+02701+02101999999ADDGA1021+009001999GA2071+030001999GF107991999999999999999999MA1101291999999REMMET058METAR SBLP 231900Z 00000KT 9999 FEW030 BKN100 27/21 Q1013;
0143832880999992007112320004-13267-043417FM-15+0443SBLP V0209999C000010300019N0112651N1+02601+02101999999ADDGA1021+009001999GA2071+030001999GF107991999999999999999999MA1101191999999REMMET058METAR SBLP 232000Z 00000KT 9999 FEW030 BKN100 26/21 Q1012;
0143832880999992007112321004-13267-043417FM-15+0443SBLP V0209999C000010300019N0112651N1+02501+02101999999ADDGA1041+009001999GA2071+030001999GF107991999999999999999999MA1101191999999REMMET058METAR SBLP 232100Z 00000KT 9999 SCT030 BKN100 25/21 Q1012;
0136832880999992007112410004-13267-043417FM-15+0443SBLP V0209999C00001220001CN0112651N1+02301+02001999999ADDGA1071+006901999GA2041+030001999MA1101391999999REMMET058METAR SBLP 241000Z 00000KT 9999 BKN023 SCT100 23/20 Q1014;EQDQ01+000042SCOTCV
0143832880999992007112411004-13267-043417FM-15+0443SBLP V0203601N001512200019N0112651N1+02401+02101999999ADDGA1041+006901999GA2041+030001999GF104991999999999999999999MA1101491999999REMMET058METAR SBLP 241100Z 36003KT 9999 SCT023 SCT100 24/21 Q1015;
0143832880999992007112412004-13267-043417FM-15+0443SBLP V0209999C000012200019N0112651N1+02601+02101999999ADDGA1021+006901999GA2041+030001999GF104991999999999999999999MA1101391999999REMMET058METAR SBLP 241200Z 00000KT 9999 FEW023 SCT100 26/21 Q1014;
0143832880999992007112413004-13267-043417FM-15+0443SBLP V0203601N001510300019N0112651N1+02601+01901999999ADDGA1041+006901999GA2071+030001999GF107991999999999999999999MA1101391999999REMMET058METAR SBLP 241300Z 36003KT 9999 SCT023 BKN100 26/19 Q1014;
0143832880999992007112414004-13267-043417FM-15+0443SBLP V0209999C000010300019N0112651N1+02701+01901999999ADDGA1021+006901999GA2071+030001999GF107991999999999999999999MA1101391999999REMMET058METAR SBLP 241400Z 00000KT 9999 FEW023 BKN100 27/19 Q1014;
0143832880999992007112415004-13267-043417FM-15+0443SBLP V0203601N001510300019N0112651N1+02801+01901999999ADDGA1021+006901999GA2071+030001999GF107991999999999999999999MA1101291999999REMMET058METAR SBLP 241500Z 36003KT 9999 FEW023 BKN100 28/19 Q1013;
0143832880999992007112416004-13267-043417FM-15+0443SBLP V0209999C000010300019N0112651N1+03001+01801999999ADDGA1021+006901999GA2071+030001999GF107991999999999999999999MA1101081999999REMMET058METAR SBLP 241600Z 00000KT 9999 FEW023 BKN100 30/18 Q1011;
0143832880999992007112417004-13267-043417FM-15+0443SBLP V0203301N003112200019N0112651N1+03201+01801999999ADDGA1021+009001999GA2041+030001999GF104991999999999999999999MA1101021999999REMMET058METAR SBLP 241700Z 33006KT 9999 FEW030 SCT100 32/18 Q1010;
0143832880999992007112418004-13267-043417FM-15+0443SBLP V0200901N003112200019N0112651N1+03201+01801999999ADDGA1021+009001999GA2041+030001999GF104991999999999999999999MA1100911999999REMMET058METAR SBLP 241800Z 09006KT 9999 FEW030 SCT100 32/18 Q1009;
0143832880999992007112419004-13267-043417FM-15+0443SBLP V0200301N003112200019N0112651N1+03201+01801999999ADDGA1021+009001999GA2041+030001999GF104991999999999999999999MA1100911999999REMMET058METAR SBLP 241900Z 03006KT 9999 FEW030 SCT100 32/18 Q1009;
0143832880999992007112420004-13267-043417FM-15+0443SBLP V0202701N002112200019N0112651N1+03101+01801999999ADDGA1021+009001999GA2041+030001999GF104991999999999999999999MA1100911999999REMMET058METAR SBLP 242000Z 27004KT 9999 FEW030 SCT100 31/18 Q1009;
0143832880999992007112421004-13267-043417FM-15+0443SBLP V0209999C000012200019N0112651N1+02801+01901999999ADDGA1021+009001999GA2041+030001999GF104991999999999999999999MA1100911999999REMMET058METAR SBLP 242100Z 00000KT 9999 FEW030 SCT100 28/19 Q1009;
0143832880999992007112510004-13267-043417FM-15+0443SBLP V0209999C000010300019N0112651N1+02401+02101999999ADDGA1021+006001999GA2071+030001999GF107991999999999999999999MA1101291999999REMMET058METAR SBLP 251000Z 00000KT 9999 FEW020 BKN100 24/21 Q1013;
0143832880999992007112511004-13267-043417FM-15+0443SBLP V0209999C000010300019N0112651N1+02501+02101999999ADDGA1021+006001999GA2071+030001999GF107991999999999999999999MA1101391999999REMMET058METAR SBLP 251100Z 00000KT 9999 FEW020 BKN100 25/21 Q1014;
0143832880999992007112512004-13267-043417FM-15+0443SBLP V0209999C000010300019N0112651N1+02601+02101999999ADDGA1041+006001999GA2071+030001999GF107991999999999999999999MA1101391999999REMMET058METAR SBLP 251200Z 00000KT 9999 SCT020 BKN100 26/21 Q1014;
0143832880999992007112513004-13267-043417FM-15+0443SBLP V0209999C000010300019N0112651N1+02801+02001999999ADDGA1041+006001999GA2071+030001999GF107991999999999999999999MA1101391999999REMMET058METAR SBLP 251300Z 00000KT 9999 SCT020 BKN100 28/20 Q1014;
0143832880999992007112514004-13267-043417FM-15+0443SBLP V0209999C000010300019N0112651N1+03001+02001999999ADDGA1041+006001999GA2071+030001999GF107991999999999999999999MA1101291999999REMMET058METAR SBLP 251400Z 00000KT 9999 SCT020 BKN100 30/20 Q1013;
0143832880999992007112515004-13267-043417FM-15+0443SBLP V0203001N003110300019N0112651N1+03201+01901999999ADDGA1021+006901999GA2071+030001999GF107991999999999999999999MA1101191999999REMMET058METAR SBLP 251500Z 30006KT 9999 FEW023 BKN100 32/19 Q1012;
0143832880999992007112516004-13267-043417FM-15+0443SBLP V0203001N002112200019N0112651N1+03301+01901999999ADDGA1041+009001999GA2041+030001999GF104991999999999999999999MA1101081999999REMMET058METAR SBLP 251600Z 30004KT 9999 SCT030 SCT100 33/19 Q1011;
0146832880999992007112517004-13267-043417FM-15+0443SBLP V0202701N002612200019N0112651N1+03301+01901999999ADDGA1021+009001999GA2021+012001021GF102991999999999999999999MA1100911999999REMMET061METAR SBLP 251700Z 27005KT 9999 FEW030 FEW040TCU 33/19 Q1009;
0169832880999992007112518004-13267-043417FM-15+0443SBLP V0200701N002612200019N0112651N1+03301+02001999999ADDGA1021+009001999GA2021+012001021GA3041+030001999GF104991999999999999999999MA1100911999999REMMET068METAR SBLP 251800Z 07005KT 9999 FEW030 FEW040TCU SCT100 33/20 Q1009;
0179832880999992007112519004-13267-043417FM-15+0443SBLP V0200901N004110300019N0112651N1+02801+02401999999ADDGA1021+009001999GA2021+012001021GA3071+030001999GF107991999999999999999999MA1100911999999MW1611REMMET072METAR SBLP 251900Z 09008KT 9999 -RA FEW030 FEW040TCU BKN100 28/24 Q1009;
0186832880999992007112520004-13267-043417FM-15+0443SBLP V0202701N002110300019N0080001N1+02401+02401999999ADDGA1021+006901999GA2021+012001091GA3071+030001999GF107991999999999999999999MA1101021999999MW1801MW2951REMMET073METAR SBLP 252000Z 27004KT 8000 -TSRA FEW023 FEW040CB BKN100 24/24 Q1010;
0143832880999992007112521004-13267-043417FM-15+0443SBLP V0200901N003110069019N0112651N1+02401+02301999999ADDGA1071+006901999GA2071+030001999GF107991999999999999999999MA1101021999999REMMET058METAR SBLP 252100Z 09006KT 9999 BKN023 BKN100 24/23 Q1010;
0153832880999992007112610004-13267-043417FM-15+0443SBLP V0200901N002610060019N0112651N1+02301+02201999999ADDGA1071+006001999GA2081+030001999GF108991999999999999999999MA1101291999999MW1611REMMET062METAR SBLP 261000Z 09005KT 9999 -RA BKN020 OVC100 23/22 Q1013;
0143832880999992007112611004-13267-043417FM-15+0443SBLP V0201301N003110300019N0112651N1+02301+02201999999ADDGA1041+004501999GA2071+030001999GF107991999999999999999999MA1101291999999REMMET058METAR SBLP 261100Z 13006KT 9999 SCT015 BKN100 23/22 Q1013;
0153832880999992007112612004-13267-043417FM-15+0443SBLP V0201301N003110300019N0112651N1+02301+02201999999ADDGA1041+004501999GA2071+030001999GF107991999999999999999999MA1101391999999MW1611REMMET062METAR SBLP 261200Z 13006KT 9999 -RA SCT015 BKN100 23/22 Q1014;
0153832880999992007112613004-13267-043417FM-15+0443SBLP V0201201N002110300019N0112651N1+02301+02201999999ADDGA1041+004501999GA2071+030001999GF107991999999999999999999MA1101491999999MW1611REMMET062METAR SBLP 261300Z 12004KT 9999 -RA SCT015 BKN100 23/22 Q1015;
0186832880999992007112614004-13267-043417FM-15+0443SBLP V0200901N00311012001CN0060001N1+02301+02201999999ADDGA1041+003001999GA2021+012001091GA3081+030001999GF108991999999999999999999MA1101491999999MW1801MW2951REMMET073METAR SBLP 261400Z 09006KT 6000 -TSRA SCT010 FEW040CB OVC100 23/22 Q1015;
0158832880999992007112615004-13267-043417FM-15+0443SBLP V0201201N002110300019N0080001N1+02401+02201999999ADDGA1041+003001999GA2071+030001999GF107991999999999999999999MA1101391999999MW1611REMMET067METAR SBLP 261500Z 12004KT 8000 -RA SCT010 BKN100 24/22 Q1014 RETS;
0143832880999992007112616004-13267-043417FM-15+0443SBLP V0201201N003110300019N0112651N1+02501+02201999999ADDGA1041+004501999GA2071+030001999GF107991999999999999999999MA1101191999999REMMET058METAR SBLP 261600Z 12006KT 9999 SCT015 BKN100 25/22 Q1012;
0143832880999992007112617004-13267-043417FM-15+0443SBLP V0201201N002110300019N0112651N1+02701+02101999999ADDGA1041+006001999GA2071+030001999GF107991999999999999999999MA1101021999999REMMET058METAR SBLP 261700Z 12004KT 9999 SCT020 BKN100 27/21 Q1010;
0143832880999992007112618004-13267-043417FM-15+0443SBLP V0203601N002112200019N0112651N1+02801+02101999999ADDGA1021+006001999GA2041+030001999GF104991999999999999999999MA1100911999999REMMET058METAR SBLP 261800Z 36004KT 9999 FEW020 SCT100 28/21 Q1009;
0143832880999992007112619004-13267-043417FM-15+0443SBLP V0203601N003112200019N0112651N1+02801+02101999999ADDGA1021+006001999GA2041+030001999GF104991999999999999999999MA1100811999999REMMET058METAR SBLP 261900Z 36006KT 9999 FEW020 SCT100 28/21 Q1008;
0143832880999992007112620004-13267-043417FM-15+0443SBLP V0209999C000012200019N0112651N1+02701+02101999999ADDGA1021+006001999GA2041+030001999GF104991999999999999999999MA1100811999999REMMET058METAR SBLP 262000Z 00000KT 9999 FEW020 SCT100 27/21 Q1008;
0143832880999992007112621004-13267-043417FM-15+0443SBLP V0203601N003110300019N0112651N1+02601+02201999999ADDGA1021+006001999GA2071+030001999GF107991999999999999999999MA1100911999999REMMET058METAR SBLP 262100Z 36006KT 9999 FEW020 BKN100 26/22 Q1009;
0143832880999992007112710004-13267-043417FM-15+0443SBLP V0203601N003110300019N0112651N1+02301+02101999999ADDGA1041+004501999GA2071+030001999GF107991999999999999999999MA1101191999999REMMET058METAR SBLP 271000Z 36006KT 9999 SCT015 BKN100 23/21 Q1012;
0143832880999992007112711004-13267-043417FM-15+0443SBLP V0203601N003110300019N0112651N1+02401+02101999999ADDGA1021+006001999GA2071+030001999GF107991999999999999999999MA1101191999999REMMET058METAR SBLP 271100Z 36006KT 9999 FEW020 BKN100 24/21 Q1012;
0143832880999992007112712004-13267-043417FM-15+0443SBLP V0203601N003110300019N0112651N1+02601+02101999999ADDGA1041+006001999GA2071+030001999GF107991999999999999999999MA1101191999999REMMET058METAR SBLP 271200Z 36006KT 9999 SCT020 BKN100 26/21 Q1012;
0143832880999992007112713004-13267-043417FM-15+0443SBLP V0203601N003110300019N0112651N1+02701+02101999999ADDGA1041+006001999GA2071+030001999GF107991999999999999999999MA1101191999999REMMET058METAR SBLP 271300Z 36006KT 9999 SCT020 BKN100 27/21 Q1012;
0143832880999992007112715004-13267-043417FM-15+0443SBLP V0203601N003112200019N0112651N1+02901+02101999999ADDGA1041+006001999GA2041+030001999GF104991999999999999999999MA1101021999999REMMET058METAR SBLP 271500Z 36006KT 9999 SCT020 SCT100 29/21 Q1010;
0143832880999992007112716004-13267-043417FM-15+0443SBLP V0203601N005110300019N0112651N1+03101+02301999999ADDGA1041+006001999GA2071+030001999GF107991999999999999999999MA1100911999999REMMET058METAR SBLP 271600Z 36010KT 9999 SCT020 BKN100 31/23 Q1009;
0143832880999992007112717004-13267-043417FM-15+0443SBLP V0203601N005110900019N0112651N1+03101+02101999999ADDGA1041+009001999GA2071+090001999GF107991999999999999999999MA1100811999999REMMET058METAR SBLP 271700Z 36010KT 9999 SCT030 BKN300 31/21 Q1008;
0143832880999992007112718004-13267-043417FM-15+0443SBLP V0203601N005110900019N0112651N1+02901+02101999999ADDGA1021+009001999GA2071+090001999GF107991999999999999999999MA1100711999999REMMET058METAR SBLP 271800Z 36010KT 9999 FEW030 BKN300 29/21 Q1007;
0143832880999992007112719004-13267-043417FM-15+0443SBLP V0200301N003110900019N0112651N1+03001+02101999999ADDGA1041+009001999GA2071+090001999GF107991999999999999999999MA1100611999999REMMET058METAR SBLP 271900Z 03006KT 9999 SCT030 BKN300 30/21 Q1006;
0103832880999992007112719354-13267-043417FM-16+0443SBLP V0203301N003112200019N0112651N1+02801+02201999999ADDMA1100701999999REMMET076METAR SBLP 271935Z 33006KT SPECI 9999 TS SCT030 FEW040CB BKN100 28/22 Q1007;
0158832880999992007112721004-13267-043417FM-15+0443SBLP V0203601N003110060019N0080001N1+02401+02101999999ADDGA1071+006001999GA2071+030001999GF107991999999999999999999MA1100811999999MW1611REMMET067METAR SBLP 272100Z 36006KT 8000 -RA BKN020 BKN100 24/21 Q1008 RETS;
0176832880999992007112810004-13267-043417FM-15+0443SBLP V0200301N003110060019N0112651N1+02201+02101999999ADDGA1041+004501999GA2071+006001999GA3081+030001999GF108991999999999999999999MA1101081999999MW1611REMMET069METAR SBLP 281000Z 03006KT 9999 -RA SCT015 BKN020 OVC100 22/21 Q1011;
0176832880999992007112811004-13267-043417FM-15+0443SBLP V0200401N004110045019N0040001N1+02201+02201999999ADDGA1041+003001999GA2071+004501999GA3081+030001999GF108991999999999999999999MA1101191999999MW1611REMMET069METAR SBLP 281100Z 04008KT 4000 -RA SCT010 BKN015 OVC100 22/22 Q1012;
0176832880999992007112812004-13267-043417FM-15+0443SBLP V0200301N004110045019N0040001N1+02301+02201999999ADDGA1041+003001999GA2071+004501999GA3081+030001999GF108991999999999999999999MA1101191999999MW1611REMMET069METAR SBLP 281200Z 03008KT 4000 -RA SCT010 BKN015 OVC100 23/22 Q1012;
0176832880999992007112813004-13267-043417FM-15+0443SBLP V0200301N004110045019N0050001N1+02301+02201999999ADDGA1041+003001999GA2071+004501999GA3081+030001999GF108991999999999999999999MA1101191999999MW1611REMMET069METAR SBLP 281300Z 03008KT 5000 -RA SCT010 BKN015 OVC100 23/22 Q1012;
0176832880999992007112814004-13267-043417FM-15+0443SBLP V0203601N002610045019N0050001N1+02301+02201999999ADDGA1041+003001999GA2071+004501999GA3081+030001999GF108991999999999999999999MA1101191999999MW1611REMMET069METAR SBLP 281400Z 36005KT 5000 -RA SCT010 BKN015 OVC100 23/22 Q1012;
0153832880999992007112815004-13267-043417FM-15+0443SBLP V0203301N004110045019N0050001N1+02301+02201999999ADDGA1071+004501999GA2081+030001999GF108991999999999999999999MA1101191999999MW1611REMMET062METAR SBLP 281500Z 33008KT 5000 -RA BKN015 OVC100 23/22 Q1012;
0153832880999992007112816004-13267-043417FM-15+0443SBLP V0203601N003110045019N0060001N1+02301+02201999999ADDGA1071+004501999GA2081+030001999GF108991999999999999999999MA1101081999999MW1611REMMET062METAR SBLP 281600Z 36006KT 6000 -RA BKN015 OVC100 23/22 Q1011;
0143832880999992007112817004-13267-043417FM-15+0443SBLP V0203601N003110060019N0112651N1+02401+02201999999ADDGA1071+006001999GA2071+030001999GF107991999999999999999999MA1101021999999REMMET058METAR SBLP 281700Z 36006KT 9999 BKN020 BKN100 24/22 Q1010;
0143832880999992007112818004-13267-043417FM-15+0443SBLP V0203601N003110300019N0112651N1+02801+02101999999ADDGA1041+006001999GA2071+030001999GF107991999999999999999999MA1100911999999REMMET058METAR SBLP 281800Z 36006KT 9999 SCT020 BKN100 28/21 Q1009;
0143832880999992007112819004-13267-043417FM-15+0443SBLP V0203601N003110300019N0112651N1+02801+02101999999ADDGA1041+006001999GA2071+030001999GF107991999999999999999999MA1100911999999REMMET058METAR SBLP 281900Z 36006KT 9999 SCT020 BKN100 28/21 Q1009;
0143832880999992007112820004-13267-043417FM-15+0443SBLP V0203601N003110300019N0112651N1+02701+02101999999ADDGA1021+006001999GA2071+030001999GF107991999999999999999999MA1100911999999REMMET058METAR SBLP 282000Z 36006KT 9999 FEW020 BKN100 27/21 Q1009;
0143832880999992007112821004-13267-043417FM-15+0443SBLP V0203601N003110300019N0112651N1+02601+02101999999ADDGA1041+006001999GA2071+030001999GF107991999999999999999999MA1101021999999REMMET058METAR SBLP 282100Z 36006KT 9999 SCT020 BKN100 26/21 Q1010;
0091832880999992007112909134-13267-043417FM-16+0443SBLP V0200401N002112200019N0112651N1+02201+02101999999ADDMA1101201999999REMMET064METAR SBLP 290913Z SPECI 04004KT 9999 SCT020 BKN100 22/21 Q1012;
0143832880999992007112910004-13267-043417FM-15+0443SBLP V0200401N002110300019N0112651N1+02201+02101999999ADDGA1041+006001999GA2071+030001999GF107991999999999999999999MA1101191999999REMMET058METAR SBLP 291000Z 04004KT 9999 SCT020 BKN100 22/21 Q1012;
0143832880999992007112911004-13267-043417FM-15+0443SBLP V0200601N001010300019N0112651N1+02401+02001999999ADDGA1041+006001999GA2071+030001999GF107991999999999999999999MA1101291999999REMMET058METAR SBLP 291100Z 06002KT 9999 SCT020 BKN100 24/20 Q1013;
0143832880999992007112912004-13267-043417FM-15+0443SBLP V0203501N003110300019N0112651N1+02501+02101999999ADDGA1021+006001999GA2071+030001999GF107991999999999999999999MA1101291999999REMMET058METAR SBLP 291200Z 35006KT 9999 FEW020 BKN100 25/21 Q1013;
0143832880999992007112913004-13267-043417FM-15+0443SBLP V0202401N003110300019N0112651N1+02701+02101999999ADDGA1021+009001999GA2071+030001999GF107991999999999999999999MA1101291999999REMMET058METAR SBLP 291300Z 24006KT 9999 FEW030 BKN100 27/21 Q1013;
0143832880999992007112914004-13267-043417FM-15+0443SBLP V0203201N002110300019N0112651N1+02701+02101999999ADDGA1041+009001999GA2071+030001999GF107991999999999999999999MA1101291999999REMMET058METAR SBLP 291400Z 32004KT 9999 SCT030 BKN100 27/21 Q1013;
0143832880999992007112915004-13267-043417FM-15+0443SBLP V0200301N002110300019N0112651N1+02801+02101999999ADDGA1041+009001999GA2071+030001999GF107991999999999999999999MA1101081999999REMMET058METAR SBLP 291500Z 03004KT 9999 SCT030 BKN100 28/21 Q1011;
0143832880999992007112916004-13267-043417FM-15+0443SBLP V0201501N002610300019N0112651N1+03001+02001999999ADDGA1041+009001999GA2071+030001999GF107991999999999999999999MA1101021999999REMMET058METAR SBLP 291600Z 15005KT 9999 SCT030 BKN100 30/20 Q1010;
0143832880999992007112917004-13267-043417FM-15+0443SBLP V0209999C000012200019N0112651N1+03101+01901999999ADDGA1041+009001999GA2041+030001999GF104991999999999999999999MA1100911999999REMMET058METAR SBLP 291700Z 00000KT 9999 SCT030 SCT100 31/19 Q1009;
0166832880999992007112918004-13267-043417FM-15+0443SBLP V0202101N00211030001CN0112651N1+03201+01901999999ADDGA1021+009001999GA2041+030001999GA3071+090001999GF107991999999999999999999MA1100911999999REMMET065METAR SBLP 291800Z 21004KT 9999 FEW030 SCT100 BKN300 32/19 Q1009;
0166832880999992007112919004-13267-043417FM-15+0443SBLP V0200301N00211030001CN0112651N1+03101+01901999999ADDGA1021+009001999GA2041+030001999GA3071+090001999GF107991999999999999999999MA1100811999999REMMET065METAR SBLP 291900Z 03004KT 9999 FEW030 SCT100 BKN300 31/19 Q1008;
0166832880999992007112920004-13267-043417FM-15+0443SBLP V0209999C00001030001CN0112651N1+03101+01901999999ADDGA1021+009001999GA2041+030001999GA3071+090001999GF107991999999999999999999MA1100811999999REMMET065METAR SBLP 292000Z 00000KT 9999 FEW030 SCT100 BKN300 31/19 Q1008;
0166832880999992007112921004-13267-043417FM-15+0443SBLP V0200901N00151030001CN0112651N1+03001+02101999999ADDGA1021+009001999GA2041+030001999GA3071+090001999GF107991999999999999999999MA1100911999999REMMET065METAR SBLP 292100Z 09003KT 9999 FEW030 SCT100 BKN300 30/21 Q1009;
0143832880999992007113010004-13267-043417FM-15+0443SBLP V0201501N002110300019N0112651N1+02401+02201999999ADDGA1041+004501999GA2071+030001999GF107991999999999999999999MA1101291999999REMMET058METAR SBLP 301000Z 15004KT 9999 SCT015 BKN100 24/22 Q1013;
0143832880999992007113011004-13267-043417FM-15+0443SBLP V0209999C000010300019N0112651N1+02401+02201999999ADDGA1041+004501999GA2071+030001999GF107991999999999999999999MA1101391999999REMMET058METAR SBLP 301100Z 00000KT 9999 SCT015 BKN100 24/22 Q1014;
0143832880999992007113012004-13267-043417FM-15+0443SBLP V0201201N001510300019N0112651N1+02501+02301999999ADDGA1041+004501999GA2071+030001999GF107991999999999999999999MA1101391999999REMMET058METAR SBLP 301200Z 12003KT 9999 SCT015 BKN100 25/23 Q1014;
0143832880999992007113013004-13267-043417FM-15+0443SBLP V0201901N002110300019N0112651N1+02601+02201999999ADDGA1041+006001999GA2071+030001999GF107991999999999999999999MA1101391999999REMMET058METAR SBLP 301300Z 19004KT 9999 SCT020 BKN100 26/22 Q1014;
0143832880999992007113014004-13267-043417FM-15+0443SBLP V0202101N002110300019N0112651N1+02601+02301999999ADDGA1041+006001999GA2071+030001999GF107991999999999999999999MA1101391999999REMMET058METAR SBLP 301400Z 21004KT 9999 SCT020 BKN100 26/23 Q1014;
0143832880999992007113015004-13267-043417FM-15+0443SBLP V0201801N003110300019N0112651N1+02701+02201999999ADDGA1041+006001999GA2071+030001999GF107991999999999999999999MA1101291999999REMMET058METAR SBLP 301500Z 18006KT 9999 SCT020 BKN100 27/22 Q1013;
0143832880999992007113016004-13267-043417FM-15+0443SBLP V0202101N003110300019N0112651N1+02801+02201999999ADDGA1041+006001999GA2071+030001999GF107991999999999999999999MA1101081999999REMMET058METAR SBLP 301600Z 21006KT 9999 SCT020 BKN100 28/22 Q1011;
0143832880999992007113017004-13267-043417FM-15+0443SBLP V0202101N003110300019N0112651N1+02801+02201999999ADDGA1041+006001999GA2071+030001999GF107991999999999999999999MA1101081999999REMMET058METAR SBLP 301700Z 21006KT 9999 SCT020 BKN100 28/22 Q1011;
0143832880999992007113018004-13267-043417FM-15+0443SBLP V0201801N003110300019N0112651N1+03001+02101999999ADDGA1021+006001999GA2071+030001999GF107991999999999999999999MA1101021999999REMMET058METAR SBLP 301800Z 18006KT 9999 FEW020 BKN100 30/21 Q1010;
0143832880999992007113020004-13267-043417FM-15+0443SBLP V0201201N003110300019N0112651N1+02801+02201999999ADDGA1041+006001999GA2071+030001999GF107991999999999999999999MA1101021999999REMMET058METAR SBLP 302000Z 12006KT 9999 SCT020 BKN100 28/22 Q1010;
0143832880999992007113021004-13267-043417FM-15+0443SBLP V0201201N003110300019N0112651N1+02801+02201999999ADDGA1041+006001999GA2071+030001999GF107991999999999999999999MA1101021999999REMMET058METAR SBLP 302100Z 12006KT 9999 SCT020 BKN100 28/22 Q1010;
0143832880999992007120110004-13267-043417FM-15+0443SBLP V0201201N003112200019N0112651N1+02401+02201999999ADDGA1021+006001999GA2041+030001999GF104991999999999999999999MA1101291999999REMMET058METAR SBLP 011000Z 12006KT 9999 FEW020 SCT100 24/22 Q1013;
0143832880999992007120111004-13267-043417FM-15+0443SBLP V0209999C000010300019N0112651N1+02701+02101999999ADDGA1021+006001999GA2071+030001999GF107991999999999999999999MA1101391999999REMMET058METAR SBLP 011100Z 00000KT 9999 FEW020 BKN100 27/21 Q1014;
0143832880999992007120112004-13267-043417FM-15+0443SBLP V0200901N003110300019N0112651N1+02901+02101999999ADDGA1021+006001999GA2071+030001999GF107991999999999999999999MA1101391999999REMMET058METAR SBLP 011200Z 09006KT 9999 FEW020 BKN100 29/21 Q1014;
0143832880999992007120113004-13267-043417FM-15+0443SBLP V0201801N003110300019N0112651N1+02901+02101999999ADDGA1041+006001999GA2071+030001999GF107991999999999999999999MA1101391999999REMMET058METAR SBLP 011300Z 18006KT 9999 SCT020 BKN100 29/21 Q1014;
0143832880999992007120114004-13267-043417FM-15+0443SBLP V0202401N003110300019N0112651N1+02901+02201999999ADDGA1041+006001999GA2071+030001999GF107991999999999999999999MA1101291999999REMMET058METAR SBLP 011400Z 24006KT 9999 SCT020 BKN100 29/22 Q1013;
0146832880999992007120115004-13267-043417FM-15+0443SBLP V0200901N003110300019N0112651N1+03001+02101999999ADDGA1041+009001021GA2071+030001999GF107991999999999999999999MA1101191999999REMMET061METAR SBLP 011500Z 09006KT 9999 SCT030TCU BKN100 30/21 Q1012;
0143832880999992007120116004-13267-043417FM-15+0443SBLP V0200901N003110300019N0112651N1+03101+02101999999ADDGA1041+009001999GA2071+030001999GF107991999999999999999999MA1101081999999REMMET058METAR SBLP 011600Z 09006KT 9999 SCT030 BKN100 31/21 Q1011;
0143832880999992007120117004-13267-043417FM-15+0443SBLP V0203601N003110300019N0112651N1+03101+02101999999ADDGA1041+009001999GA2071+030001999GF107991999999999999999999MA1101081999999REMMET058METAR SBLP 011700Z 36006KT 9999 SCT030 BKN100 31/21 Q1011;
0177832880999992007120118004-13267-043417FM-15+0443SBLP V0203601N00311012001CN0112651N1+03001+02101999999ADDGA1041+009001999GA2021+012001091GA3071+030001999GF107991999999999999999999MA1101081999999MW1171REMMET070METAR SBLP 011800Z 36006KT 9999 TS SCT030 FEW040CB BKN100 30/21 Q1011;
0186832880999992007120119004-13267-043417FM-15+0443SBLP V0203601N00311012001CN0060001N1+02801+02101999999ADDGA1041+009001999GA2021+012001091GA3071+030001999GF107991999999999999999999MA1101081999999MW1801MW2951REMMET073METAR SBLP 011900Z 36006KT 6000 -TSRA SCT030 FEW040CB BKN100 28/21 Q1011;
0186832880999992007120120004-13267-043417FM-15+0443SBLP V0203601N00311012001CN0060001N1+02601+02101999999ADDGA1041+009001999GA2021+012001091GA3081+030001999GF108991999999999999999999MA1101191999999MW1801MW2951REMMET073METAR SBLP 012000Z 36006KT 6000 -TSRA SCT030 FEW040CB OVC100 26/21 Q1012;
0186832880999992007120121004-13267-043417FM-15+0443SBLP V0203601N00311012001CN0060001N1+02401+02101999999ADDGA1041+009001999GA2021+012001091GA3081+030001999GF108991999999999999999999MA1101291999999MW1801MW2951REMMET073METAR SBLP 012100Z 36006KT 6000 -TSRA SCT030 FEW040CB OVC100 24/21 Q1013;
0143832880999992007120210004-13267-043417FM-15+0443SBLP V0209999C000010300019N0112651N1+02301+02101999999ADDGA1041+003001999GA2071+030001999GF107991999999999999999999MA1101491999999REMMET058METAR SBLP 021000Z 00000KT 9999 SCT010 BKN100 23/21 Q1015;
0143832880999992007120211004-13267-043417FM-15+0443SBLP V0209999C000010300019N0112651N1+02401+02101999999ADDGA1041+003001999GA2071+030001999GF107991999999999999999999MA1101591999999REMMET058METAR SBLP 021100Z 00000KT 9999 SCT010 BKN100 24/21 Q1016;
0143832880999992007120212004-13267-043417FM-15+0443SBLP V0209999C000010300019N0112651N1+02501+02101999999ADDGA1041+004501999GA2071+030001999GF107991999999999999999999MA1101591999999REMMET058METAR SBLP 021200Z 00000KT 9999 SCT015 BKN100 25/21 Q1016;
0143832880999992007120213004-13267-043417FM-15+0443SBLP V0209999C000010300019N0112651N1+02701+02101999999ADDGA1041+004501999GA2071+030001999GF107991999999999999999999MA1101591999999REMMET058METAR SBLP 021300Z 00000KT 9999 SCT015 BKN100 27/21 Q1016;
0143832880999992007120214004-13267-043417FM-15+0443SBLP V0209999C000010300019N0112651N1+02801+02001999999ADDGA1021+006001999GA2071+030001999GF107991999999999999999999MA1101491999999REMMET058METAR SBLP 021400Z 00000KT 9999 FEW020 BKN100 28/20 Q1015;
0143832880999992007120215004-13267-043417FM-15+0443SBLP V0209999C000010300019N0112651N1+03001+02001999999ADDGA1041+006001999GA2071+030001999GF107991999999999999999999MA1101491999999REMMET058METAR SBLP 021500Z 00000KT 9999 SCT020 BKN100 30/20 Q1015;
0143832880999992007120216004-13267-043417FM-15+0443SBLP V0209999C000010300019N0112651N1+03101+01901999999ADDGA1041+006001999GA2071+030001999GF107991999999999999999999MA1101291999999REMMET058METAR SBLP 021600Z 00000KT 9999 SCT020 BKN100 31/19 Q1013;
0143832880999992007120217004-13267-043417FM-15+0443SBLP V0209999C000010300019N0112651N1+03201+01901999999ADDGA1041+006001999GA2071+030001999GF107991999999999999999999MA1101191999999REMMET058METAR SBLP 021700Z 00000KT 9999 SCT020 BKN100 32/19 Q1012;
0143832880999992007120218004-13267-043417FM-15+0443SBLP V0209999C000010300019N0112651N1+03301+01901999999ADDGA1041+009001999GA2071+030001999GF107991999999999999999999MA1101081999999REMMET058METAR SBLP 021800Z 00000KT 9999 SCT030 BKN100 33/19 Q1011;
0143832880999992007120219004-13267-043417FM-15+0443SBLP V0209999C000012200019N0112651N1+03401+01901999999ADDGA1041+006001999GA2041+030001999GF104991999999999999999999MA1101081999999REMMET058METAR SBLP 021900Z 00000KT 9999 SCT020 SCT100 34/19 Q1011;
0143832880999992007120220004-13267-043417FM-15+0443SBLP V0209999C000012200019N0112651N1+03301+01901999999ADDGA1041+009001999GA2041+030001999GF104991999999999999999999MA1101081999999REMMET058METAR SBLP 022000Z 00000KT 9999 SCT030 SCT100 33/19 Q1011;
0143832880999992007120221004-13267-043417FM-15+0443SBLP V0209999C000010300019N0112651N1+03201+01901999999ADDGA1041+006001999GA2071+030001999GF107991999999999999999999MA1101191999999REMMET058METAR SBLP 022100Z 00000KT 9999 SCT020 BKN100 32/19 Q1012;
0143832880999992007120310004-13267-043417FM-15+0443SBLP V0209999C000012200019N0112651N1+02601+02101999999ADDGA1021+006001999GA2041+030001999GF104991999999999999999999MA1101491999999REMMET058METAR SBLP 031000Z 00000KT 9999 FEW020 SCT100 26/21 Q1015;
0143832880999992007120311004-13267-043417FM-15+0443SBLP V0209999C000012200019N0112651N1+02901+02001999999ADDGA1021+006001999GA2041+030001999GF104991999999999999999999MA1101491999999REMMET058METAR SBLP 031100Z 00000KT 9999 FEW020 SCT100 29/20 Q1015;
0143832880999992007120312004-13267-043417FM-15+0443SBLP V0209999C000012200019N0112651N1+03101+01901999999ADDGA1021+006001999GA2041+030001999GF104991999999999999999999MA1101591999999REMMET058METAR SBLP 031200Z 00000KT 9999 FEW020 SCT100 31/19 Q1016;
0120832880999992007120313004-13267-043417FM-15+0443SBLP V0209999C000012200019N0112651N1+03201+01801999999ADDGA1021+009001999GF102991999999999999999999MA1101491999999REMMET051METAR SBLP 031300Z 00000KT 9999 FEW030 32/18 Q1015;
0120832880999992007120314004-13267-043417FM-15+0443SBLP V0209999C000012200019N0112651N1+03201+01801999999ADDGA1041+009001999GF104991999999999999999999MA1101391999999REMMET051METAR SBLP 031400Z 00000KT 9999 SCT030 32/18 Q1014;
0120832880999992007120315004-13267-043417FM-15+0443SBLP V0209999C000012200019N0112651N1+03301+01801999999ADDGA1041+009001999GF104991999999999999999999MA1101291999999REMMET051METAR SBLP 031500Z 00000KT 9999 SCT030 33/18 Q1013;
0120832880999992007120316004-13267-043417FM-15+0443SBLP V0202101N001512200019N0112651N1+03301+02001999999ADDGA1021+009001999GF102991999999999999999999MA1101191999999REMMET051METAR SBLP 031600Z 21003KT 9999 FEW030 33/20 Q1012;
0120832880999992007120317004-13267-043417FM-15+0443SBLP V0202001N004112200019N0112651N1+03401+02001999999ADDGA1041+009001999GF104991999999999999999999MA1101081999999REMMET051METAR SBLP 031700Z 20008KT 9999 SCT030 34/20 Q1011;
0120832880999992007120318004-13267-043417FM-15+0443SBLP V0202101N004112200019N0112651N1+03401+01901999999ADDGA1041+009001999GF104991999999999999999999MA1101021999999REMMET051METAR SBLP 031800Z 21008KT 9999 SCT030 34/19 Q1010;
0120832880999992007120319004-13267-043417FM-15+0443SBLP V0201801N003112200019N0112651N1+03501+01901999999ADDGA1041+009001999GF104991999999999999999999MA1100911999999REMMET051METAR SBLP 031900Z 18006KT 9999 SCT030 35/19 Q1009;
0156832880999992007120320004-13267-043417FM-15+0443SBLP V0202101N004112200019N0080001N1+02801+02201999999ADDGA1041+009001999GA2021+012001091MA1101021999999MW1801MW2951REMMET066METAR SBLP 032000Z 21008KT 8000 -TSRA SCT030 FEW040CB 28/22 Q1010;EQDQ01+000022SCOTCV
0166832880999992007120321004-13267-043417FM-15+0443SBLP V0203001N003112200019N0080001N1+02801+02201999999ADDGA1041+009001021GA2021+012001091MA1101081999999MW1161MW2171REMMET076METAR SBLP 032100Z 30006KT 8000 TS VCSH SCT030TCU FEW040CB 28/22 Q1011 RERA;EQDQ01+000022SCOTCV
0072832880999992007120410004-13267-043417FM-15+0443SBLP V0209999C00001220001CN0099001N1+02501+02201999999ADDMA1101191999999REMMET045METAR SBLP 041000Z 00000KT CAVOK 25/22 Q1012;
0072832880999992007120411004-13267-043417FM-15+0443SBLP V0209999C00001220001CN0099001N1+02901+01901999999ADDMA1101291999999REMMET045METAR SBLP 041100Z 00000KT CAVOK 29/19 Q1013;
0072832880999992007120412004-13267-043417FM-15+0443SBLP V0201801N00151220001CN0099001N1+03101+01701999999ADDMA1101291999999REMMET045METAR SBLP 041200Z 18003KT CAVOK 31/17 Q1013;
0072832880999992007120413004-13267-043417FM-15+0443SBLP V0202101N00211220001CN0099001N1+03101+01801999999ADDMA1101291999999REMMET045METAR SBLP 041300Z 21004KT CAVOK 31/18 Q1013;
0072832880999992007120414004-13267-043417FM-15+0443SBLP V0202201N00311220001CN0099001N1+03301+01801999999ADDMA1101291999999REMMET045METAR SBLP 041400Z 22006KT CAVOK 33/18 Q1013;
0120832880999992007120416004-13267-043417FM-15+0443SBLP V0209999C000012200019N0112651N1+03501+01701999999ADDGA1021+009001999GF102991999999999999999999MA1101081999999REMMET051METAR SBLP 041600Z 00000KT 9999 FEW030 35/17 Q1011;
0120832880999992007120417004-13267-043417FM-15+0443SBLP V0202301N003112200019N0112651N1+03601+01701999999ADDGA1021+009001999GF102991999999999999999999MA1100911999999REMMET051METAR SBLP 041700Z 23006KT 9999 FEW030 36/17 Q1009;
0120832880999992007120418004-13267-043417FM-15+0443SBLP V0201801N003112200019N0112651N1+03601+01601999999ADDGA1021+009001999GF102991999999999999999999MA1100811999999REMMET051METAR SBLP 041800Z 18006KT 9999 FEW030 36/16 Q1008;
0120832880999992007120419004-13267-043417FM-15+0443SBLP V0201801N002612200019N0112651N1+03601+01601999999ADDGA1021+009001999GF102991999999999999999999MA1100711999999REMMET051METAR SBLP 041900Z 18005KT 9999 FEW030 36/16 Q1007;
0143832880999992007120421004-13267-043417FM-15+0443SBLP V0201801N001512200019N0112651N1+03301+01901999999ADDGA1021+009001999GA2041+090001999GF104991999999999999999999MA1100811999999REMMET058METAR SBLP 042100Z 18003KT 9999 FEW030 SCT300 33/19 Q1008;
0072832880999992007120510004-13267-043417FM-15+0443SBLP V0200901N00101220001CN0099001N1+02701+02001999999ADDMA1101391999999REMMET045METAR SBLP 051000Z 09002KT CAVOK 27/20 Q1014;
0072832880999992007120511004-13267-043417FM-15+0443SBLP V0202701N00311220001CN0099001N1+02901+02001999999ADDMA1101491999999REMMET045METAR SBLP 051100Z 27006KT CAVOK 29/20 Q1015;
0072832880999992007120512004-13267-043417FM-15+0443SBLP V0202101N00311220001CN0099001N1+03101+01901999999ADDMA1101491999999REMMET045METAR SBLP 051200Z 21006KT CAVOK 31/19 Q1015;
0072832880999992007120513004-13267-043417FM-15+0443SBLP V0209999C00001220001CN0099001N1+03201+01901999999ADDMA1101491999999REMMET045METAR SBLP 051300Z 00000KT CAVOK 32/19 Q1015;
0120832880999992007120514004-13267-043417FM-15+0443SBLP V0202401N003112200019N0112651N1+03201+01901999999ADDGA1021+009001999GF102991999999999999999999MA1101391999999REMMET051METAR SBLP 051400Z 24006KT 9999 FEW030 32/19 Q1014;
0143832880999992007120515004-13267-043417FM-15+0443SBLP V0200901N001012200019N0112651N1+03401+01801999999ADDGA1021+009001999GA2041+030001999GF104991999999999999999999MA1101391999999REMMET058METAR SBLP 051500Z 09002KT 9999 FEW030 SCT100 34/18 Q1014;
0120832880999992007120516004-13267-043417FM-15+0443SBLP V0209999C000012200019N0112651N1+03401+01901999999ADDGA1021+009001999GF102991999999999999999999MA1101191999999REMMET051METAR SBLP 051600Z 00000KT 9999 FEW030 34/19 Q1012;
0143832880999992007120517004-13267-043417FM-15+0443SBLP V0201501N001512200019N0112651N1+03501+01901999999ADDGA1021+009001999GA2041+090001999GF104991999999999999999999MA1101081999999REMMET058METAR SBLP 051700Z 15003KT 9999 FEW030 SCT300 35/19 Q1011;
0200832880999992007120520004-13267-043417FM-15+0443SBLP V0201501N00151030001CN0112651N1+03201+02101999999ADDGA1021+009001999GA2021+012001091GA3041+030001999GA4071+090001999GF107991999999999999999999MA1101021999999MW1171REMMET077METAR SBLP 052000Z 15003KT 9999 TS FEW030 FEW040CB SCT100 BKN300 32/21 Q1010;
0171832880999992007120521004-13267-043417FM-15+0443SBLP V0209999C00001030001CN0112651N1+03001+02201999999ADDGA1021+009001999GA2041+030001999GA3071+090001999GF107991999999999999999999MA1101081999999REMMET070METAR SBLP 052100Z 00000KT 9999 FEW030 SCT100 BKN300 30/22 Q1011 RETS;
0072832880999992007120610004-13267-043417FM-15+0443SBLP V0203601N00151220001CN0099001N1+02501+02001999999ADDMA1101491999999REMMET045METAR SBLP 061000Z 36003KT CAVOK 25/20 Q1015;
0072832880999992007120611004-13267-043417FM-15+0443SBLP V0202901N00151220001CN0099001N1+02601+02101999999ADDMA1101491999999REMMET045METAR SBLP 061100Z 29003KT CAVOK 26/21 Q1015;
0072832880999992007120612004-13267-043417FM-15+0443SBLP V0202701N00151220001CN0099001N1+02801+02101999999ADDMA1101591999999REMMET045METAR SBLP 061200Z 27003KT CAVOK 28/21 Q1016;
0120832880999992007120614004-13267-043417FM-15+0443SBLP V0209999C000012200019N0112651N1+03301+02001999999ADDGA1021+009001999GF102991999999999999999999MA1101491999999REMMET051METAR SBLP 061400Z 00000KT 9999 FEW030 33/20 Q1015;
0120832880999992007120615004-13267-043417FM-15+0443SBLP V0209999C000012200019N0112651N1+03301+02001999999ADDGA1021+009001999GF102991999999999999999999MA1101391999999REMMET051METAR SBLP 061500Z 00000KT 9999 FEW030 33/20 Q1014;
0120832880999992007120616004-13267-043417FM-15+0443SBLP V0209999C000012200019N0112651N1+03301+02001999999ADDGA1021+009001999GF102991999999999999999999MA1101191999999REMMET051METAR SBLP 061600Z 00000KT 9999 FEW030 33/20 Q1012;
0143832880999992007120617004-13267-043417FM-15+0443SBLP V0209999C000012200019N0112651N1+03401+02001999999ADDGA1021+009001999GA2041+090001999GF104991999999999999999999MA1101081999999REMMET058METAR SBLP 061700Z 00000KT 9999 FEW030 SCT300 34/20 Q1011;
0143832880999992007120618004-13267-043417FM-15+0443SBLP V0209999C000010900019N0112651N1+03501+01901999999ADDGA1021+009001999GA2071+090001999GF107991999999999999999999MA1101021999999REMMET058METAR SBLP 061800Z 00000KT 9999 FEW030 BKN300 35/19 Q1010;
0143832880999992007120619004-13267-043417FM-15+0443SBLP V0202101N001010900019N0112651N1+03401+01901999999ADDGA1021+009001999GA2071+090001999GF107991999999999999999999MA1100911999999REMMET058METAR SBLP 061900Z 21002KT 9999 FEW030 BKN300 34/19 Q1009;
0072832880999992007120620004-13267-043417FM-15+0443SBLP V0209999C00001220001CN0099001N1+03301+02001999999ADDMA1100911999999REMMET045METAR SBLP 062000Z 00000KT CAVOK 33/20 Q1009;
0072832880999992007120621004-13267-043417FM-15+0443SBLP V0209999C00001220001CN0099001N1+03001+02101999999ADDMA1101021999999REMMET045METAR SBLP 062100Z 00000KT CAVOK 30/21 Q1010;
0072832880999992007120710004-13267-043417FM-15+0443SBLP V0209999C00001220001CN0099001N1+02801+02001999999ADDMA1101291999999REMMET045METAR SBLP 071000Z 00000KT CAVOK 28/20 Q1013;
0072832880999992007120711004-13267-043417FM-15+0443SBLP V0209999C00001220001CN0099001N1+02901+02001999999ADDMA1101291999999REMMET045METAR SBLP 071100Z 00000KT CAVOK 29/20 Q1013;
0072832880999992007120712004-13267-043417FM-15+0443SBLP V0209999C00001220001CN0099001N1+03101+01901999999ADDMA1101291999999REMMET045METAR SBLP 071200Z 00000KT CAVOK 31/19 Q1013;
0120832880999992007120713004-13267-043417FM-15+0443SBLP V0202701N003112200019N0112651N1+03201+01901999999ADDGA1021+009001999GF102991999999999999999999MA1101291999999REMMET051METAR SBLP 071300Z 27006KT 9999 FEW030 32/19 Q1013;
0120832880999992007120714004-13267-043417FM-15+0443SBLP V0202701N003112200019N0112651N1+03301+01801999999ADDGA1021+009001999GF102991999999999999999999MA1101191999999REMMET051METAR SBLP 071400Z 27006KT 9999 FEW030 33/18 Q1012;
0120832880999992007120715004-13267-043417FM-15+0443SBLP V0202701N003112200019N0112651N1+03501+01801999999ADDGA1041+009001999GF104991999999999999999999MA1101081999999REMMET051METAR SBLP 071500Z 27006KT 9999 SCT030 35/18 Q1011;
0120832880999992007120716004-13267-043417FM-15+0443SBLP V0209999C000012200019N0112651N1+03501+01901999999ADDGA1021+009001999GF102991999999999999999999MA1101021999999REMMET051METAR SBLP 071600Z 00000KT 9999 FEW030 35/19 Q1010;
0120832880999992007120717004-13267-043417FM-15+0443SBLP V0202301N001512200019N0112651N1+03601+01701999999ADDGA1021+009001999GF102991999999999999999999MA1100911999999REMMET051METAR SBLP 071700Z 23003KT 9999 FEW030 36/17 Q1009;
0143832880999992007120719004-13267-043417FM-15+0443SBLP V0201501N002110900019N0112651N1+03701+01701999999ADDGA1021+009001999GA2071+090001999GF107991999999999999999999MA1100711999999REMMET058METAR SBLP 071900Z 15004KT 9999 FEW030 BKN300 37/17 Q1007;
0143832880999992007120721004-13267-043417FM-15+0443SBLP V0200901N002110900019N0112651N1+03301+02101999999ADDGA1021+009001999GA2071+090001999GF107991999999999999999999MA1100711999999REMMET058METAR SBLP 072100Z 09004KT 9999 FEW030 BKN300 33/21 Q1007;
0096832880999992007120809104-13267-043417FM-16+0443SBLP V0209999C000012200019N0112651N1+02201+02101999999ADDMA1101101999999REMMET069METAR SBLP 080910Z SPECI 00000KT 9999 SCT020 BKN100 22/21 Q1011 RERA;
0143832880999992007120810004-13267-043417FM-15+0443SBLP V0202101N002110060019N0112651N1+02201+02101999999ADDGA1071+006001999GA2071+030001999GF107991999999999999999999MA1101191999999REMMET058METAR SBLP 081000Z 21004KT 9999 BKN020 BKN100 22/21 Q1012;
0143832880999992007120811004-13267-043417FM-15+0443SBLP V0209999C000010300019N0112651N1+02301+02201999999ADDGA1041+004501999GA2071+030001999GF107991999999999999999999MA1101291999999REMMET058METAR SBLP 081100Z 00000KT 9999 SCT015 BKN100 23/22 Q1013;
0143832880999992007120812004-13267-043417FM-15+0443SBLP V0201301N001510045019N0112651N1+02301+02201999999ADDGA1071+004501999GA2071+030001999GF107991999999999999999999MA1101391999999REMMET058METAR SBLP 081200Z 13003KT 9999 BKN015 BKN100 23/22 Q1014;
0143832880999992007120813004-13267-043417FM-15+0443SBLP V0201001N002110045019N0112651N1+02301+02201999999ADDGA1071+004501999GA2071+030001999GF107991999999999999999999MA1101391999999REMMET058METAR SBLP 081300Z 10004KT 9999 BKN015 BKN100 23/22 Q1014;
0153832880999992007120814004-13267-043417FM-15+0443SBLP V0201201N003110030019N0020001N1+02201+02201999999ADDGA1071+003001999GA2081+030001999GF108991999999999999999999MA1101391999999MW1611REMMET062METAR SBLP 081400Z 12006KT 2000 -RA BKN010 OVC100 22/22 Q1014;
0186832880999992007120815004-13267-043417FM-15+0443SBLP V0201201N005110030019N0010001N1+02101+02101999999ADDGA1071+003001999GA2021+009001091GA3081+030001999GF108991999999999999999999MA1101391999999MW1821MW2971REMMET073METAR SBLP 081500Z 12010KT 1000 +TSRA BKN010 FEW030CB OVC100 21/21 Q1014;
0186832880999992007120816004-13267-043417FM-15+0443SBLP V0202701N003110030019N0010001N1+02201+02101999999ADDGA1071+003001999GA2021+009001091GA3081+030001999GF108991999999999999999999MA1101391999999MW1801MW2951REMMET073METAR SBLP 081600Z 27006KT 1000 -TSRA BKN010 FEW030CB OVC100 22/21 Q1014;
0152832880999992007120817004-13267-043417FM-15+0443SBLP V0202701N003110030019N0060001N1+02101+02101999999ADDGA1071+003001999GA2081+030001999GF108991999999999999999999MA1101391999999MW1631REMMET061METAR SBLP 081700Z 27006KT 6000 RA BKN010 OVC100 21/21 Q1014;
0153832880999992007120818004-13267-043417FM-15+0443SBLP V0202001N003110030019N0060001N1+02201+02201999999ADDGA1071+003001999GA2081+027001999GF108991999999999999999999MA1101191999999MW1611REMMET062METAR SBLP 081800Z 20006KT 6000 -RA BKN010 OVC090 22/22 Q1012;
0153832880999992007120819004-13267-043417FM-15+0443SBLP V0201801N003110045019N0112651N1+02201+02201999999ADDGA1071+004501999GA2081+030001999GF108991999999999999999999MA1101081999999MW1611REMMET062METAR SBLP 081900Z 18006KT 9999 -RA BKN015 OVC100 22/22 Q1011;
0153832880999992007120820004-13267-043417FM-15+0443SBLP V0201601N003110300019N0090001N1+02201+02201999999ADDGA1041+006001999GA2071+030001999GF107991999999999999999999MA1101021999999MW1611REMMET062METAR SBLP 082000Z 16006KT 9000 -RA SCT020 BKN100 22/22 Q1010;
0143832880999992007120821004-13267-043417FM-15+0443SBLP V0200201N003110300019N0112651N1+02101+02101999999ADDGA1041+006001999GA2071+030001999GF107991999999999999999999MA1101021999999REMMET058METAR SBLP 082100Z 02006KT 9999 SCT020 BKN100 21/21 Q1010;
0072832880999992007120910004-13267-043417FM-15+0443SBLP V0209999C00001220001CN0099001N1+02301+02201999999ADDMA1101391999999REMMET045METAR SBLP 091000Z 00000KT CAVOK 23/22 Q1014;
0143832880999992007120911004-13267-043417FM-15+0443SBLP V0201101N001512200019N0112651N1+02601+02201999999ADDGA1041+006001999GA2041+090001999GF104991999999999999999999MA1101391999999REMMET058METAR SBLP 091100Z 11003KT 9999 SCT020 SCT300 26/22 Q1014;
0143832880999992007120912004-13267-043417FM-15+0443SBLP V0200901N002112200019N0112651N1+02701+02201999999ADDGA1041+009001999GA2041+090001999GF104991999999999999999999MA1101391999999REMMET058METAR SBLP 091200Z 09004KT 9999 SCT030 SCT300 27/22 Q1014;
0143832880999992007120913004-13267-043417FM-15+0443SBLP V0201501N002110300019N0112651N1+02801+02201999999ADDGA1041+009001999GA2071+030001999GF107991999999999999999999MA1101391999999REMMET058METAR SBLP 091300Z 15004KT 9999 SCT030 BKN100 28/22 Q1014;
0143832880999992007120914004-13267-043417FM-15+0443SBLP V0200901N001510300019N0112651N1+02901+02301999999ADDGA1041+009001999GA2071+030001999GF107991999999999999999999MA1101391999999REMMET058METAR SBLP 091400Z 09003KT 9999 SCT030 BKN100 29/23 Q1014;
0143832880999992007120915004-13267-043417FM-15+0443SBLP V0202501N002110900019N0112651N1+02901+02301999999ADDGA1041+009001999GA2071+090001999GF107991999999999999999999MA1101291999999REMMET058METAR SBLP 091500Z 25004KT 9999 SCT030 BKN300 29/23 Q1013;
0143832880999992007120916004-13267-043417FM-15+0443SBLP V0202701N002110900019N0112651N1+02801+02201999999ADDGA1041+009001999GA2071+090001999GF107991999999999999999999MA1101191999999REMMET058METAR SBLP 091600Z 27004KT 9999 SCT030 BKN300 28/22 Q1012;
0153832880999992007120917004-13267-043417FM-15+0443SBLP V0209999C000010900019N0112651N1+02701+02401999999ADDGA1041+009001999GA2071+090001999GF107991999999999999999999MA1101081999999MW1611REMMET062METAR SBLP 091700Z 00000KT 9999 -RA SCT030 BKN300 27/24 Q1011;
0153832880999992007120918004-13267-043417FM-15+0443SBLP V0200601N003110900019N0112651N1+02501+02401999999ADDGA1041+008101999GA2071+090001999GF107991999999999999999999MA1101081999999MW1611REMMET062METAR SBLP 091800Z 06006KT 9999 -RA SCT027 BKN300 25/24 Q1011;
0153832880999992007120919004-13267-043417FM-15+0443SBLP V0200301N004110900019N0080001N1+02401+02201999999ADDGA1041+006001999GA2071+090001999GF107991999999999999999999MA1101081999999MW1611REMMET062METAR SBLP 091900Z 03008KT 8000 -RA SCT020 BKN300 24/22 Q1011;
0153832880999992007120920004-13267-043417FM-15+0443SBLP V0203501N002112200019N0112651N1+02301+02201999999ADDGA1041+006001999GA2041+030001999GF104991999999999999999999MA1101081999999MW1611REMMET062METAR SBLP 092000Z 35004KT 9999 -RA SCT020 SCT100 23/22 Q1011;
0153832880999992007120921004-13267-043417FM-15+0443SBLP V0200901N001510300019N0112651N1+02301+02201999999ADDGA1041+006901999GA2071+030001999GF107991999999999999999999MA1101081999999MW1611REMMET062METAR SBLP 092100Z 09003KT 9999 -RA SCT023 BKN100 23/22 Q1011;
0143832880999992007121010004-13267-043417FM-15+0443SBLP V0200601N002110045019N0112651N1+02201+02101999999ADDGA1071+004501999GA2071+030001999GF107991999999999999999999MA1101391999999REMMET058METAR SBLP 101000Z 06004KT 9999 BKN015 BKN100 22/21 Q1014;
0143832880999992007121011004-13267-043417FM-15+0443SBLP V0209999C000010300019N0112651N1+02301+02201999999ADDGA1041+001501999GA2071+030001999GF107991999999999999999999MA1101491999999REMMET058METAR SBLP 101100Z 00000KT 9999 SCT005 BKN100 23/22 Q1015;
0143832880999992007121012004-13267-043417FM-15+0443SBLP V0209999C000012200019N0112651N1+02701+02201999999ADDGA1021+006901999GA2041+030001999GF104991999999999999999999MA1101591999999REMMET058METAR SBLP 101200Z 00000KT 9999 FEW023 SCT100 27/22 Q1016;
0143832880999992007121013004-13267-043417FM-15+0443SBLP V0203601N004110300019N0112651N1+02901+02101999999ADDGA1041+006901999GA2071+030001999GF107991999999999999999999MA1101591999999REMMET058METAR SBLP 101300Z 36008KT 9999 SCT023 BKN100 29/21 Q1016;
0143832880999992007121014004-13267-043417FM-15+0443SBLP V0203601N002110300019N0112651N1+02801+02101999999ADDGA1041+006901999GA2071+030001999GF107991999999999999999999MA1101591999999REMMET058METAR SBLP 101400Z 36004KT 9999 SCT023 BKN100 28/21 Q1016;
0143832880999992007121015004-13267-043417FM-15+0443SBLP V0200401N002610300019N0112651N1+02901+02001999999ADDGA1021+006901999GA2071+030001999GF107991999999999999999999MA1101491999999REMMET058METAR SBLP 101500Z 04005KT 9999 FEW023 BKN100 29/20 Q1015;
0143832880999992007121017004-13267-043417FM-15+0443SBLP V0201201N003110300019N0112651N1+02801+02001999999ADDGA1021+006901999GA2071+030001999GF107991999999999999999999MA1101391999999REMMET058METAR SBLP 101700Z 12006KT 9999 FEW023 BKN100 28/20 Q1014;
0143832880999992007121019004-13267-043417FM-15+0443SBLP V0201201N003110300019N0112651N1+02801+02101999999ADDGA1021+006901999GA2071+030001999GF107991999999999999999999MA1101291999999REMMET058METAR SBLP 101900Z 12006KT 9999 FEW023 BKN100 28/21 Q1013;
0072832880999992007121021004-13267-043417FM-15+0443SBLP V0202201N00311220001CN0099001N1+02401+02201999999ADDMA1101291999999REMMET045METAR SBLP 102100Z 22006KT CAVOK 24/22 Q1013;
0072832880999992007121110004-13267-043417FM-15+0443SBLP V0202101N00211220001CN0099001N1+02301+02101999999ADDMA1101491999999REMMET045METAR SBLP 111000Z 21004KT CAVOK 23/21 Q1015;
0072832880999992007121111004-13267-043417FM-15+0443SBLP V0202101N00211220001CN0099001N1+02501+02101999999ADDMA1101591999999REMMET045METAR SBLP 111100Z 21004KT CAVOK 25/21 Q1016;
0072832880999992007121112004-13267-043417FM-15+0443SBLP V0202101N00211220001CN0099001N1+02801+02101999999ADDMA1101591999999REMMET045METAR SBLP 111200Z 21004KT CAVOK 28/21 Q1016;
0143832880999992007121115004-13267-043417FM-15+0443SBLP V0202601N003112200019N0112651N1+03101+01901999999ADDGA1021+009001999GA2041+090001999GF104991999999999999999999MA1101491999999REMMET058METAR SBLP 111500Z 26006KT 9999 FEW030 SCT300 31/19 Q1015;
0120832880999992007121116004-13267-043417FM-15+0443SBLP V0200901N003112200019N0112651N1+03201+01901999999ADDGA1021+009001999GF102991999999999999999999MA1101291999999REMMET051METAR SBLP 111600Z 09006KT 9999 FEW030 32/19 Q1013;
0120832880999992007121117004-13267-043417FM-15+0443SBLP V0200901N003112200019N0112651N1+03301+01901999999ADDGA1041+009001999GF104991999999999999999999MA1101191999999REMMET051METAR SBLP 111700Z 09006KT 9999 SCT030 33/19 Q1012;
0120832880999992007121118004-13267-043417FM-15+0443SBLP V0202701N003112200019N0112651N1+03401+01901999999ADDGA1021+009001999GF102991999999999999999999MA1101191999999REMMET051METAR SBLP 111800Z 27006KT 9999 FEW030 34/19 Q1012;
0120832880999992007121119004-13267-043417FM-15+0443SBLP V0202701N003112200019N0112651N1+03301+01901999999ADDGA1021+009001999GF102991999999999999999999MA1101081999999REMMET051METAR SBLP 111900Z 27006KT 9999 FEW030 33/19 Q1011;
0072832880999992007121120004-13267-043417FM-15+0443SBLP V0202701N00311220001CN0099001N1+03301+01901999999ADDMA1101081999999REMMET045METAR SBLP 112000Z 27006KT CAVOK 33/19 Q1011;
0072832880999992007121121004-13267-043417FM-15+0443SBLP V0202701N00311220001CN0099001N1+03001+02001999999ADDMA1101191999999REMMET045METAR SBLP 112100Z 27006KT CAVOK 30/20 Q1012;
0072832880999992007121210004-13267-043417FM-15+0443SBLP V0209999C00001220001CN0099001N1+02601+02001999999ADDMA1101291999999REMMET045METAR SBLP 121000Z 00000KT CAVOK 26/20 Q1013;
0072832880999992007121211004-13267-043417FM-15+0443SBLP V0209999C00001220001CN0099001N1+02801+01901999999ADDMA1101391999999REMMET045METAR SBLP 121100Z 00000KT CAVOK 28/19 Q1014;
0072832880999992007121212004-13267-043417FM-15+0443SBLP V0209999C00001220001CN0099001N1+02901+01801999999ADDMA1101391999999REMMET045METAR SBLP 121200Z 00000KT CAVOK 29/18 Q1014;
0120832880999992007121213004-13267-043417FM-15+0443SBLP V0209999C000012200019N0112651N1+03001+01901999999ADDGA1021+009001999GF102991999999999999999999MA1101391999999REMMET051METAR SBLP 121300Z 00000KT 9999 FEW030 30/19 Q1014;
0120832880999992007121215004-13267-043417FM-15+0443SBLP V0202701N003112200019N0112651N1+03101+01901999999ADDGA1021+009001999GF102991999999999999999999MA1101291999999REMMET051METAR SBLP 121500Z 27006KT 9999 FEW030 31/19 Q1013;
0120832880999992007121216004-13267-043417FM-15+0443SBLP V0200901N002112200019N0112651N1+03201+01901999999ADDGA1041+009001999GF104991999999999999999999MA1101191999999REMMET051METAR SBLP 121600Z 09004KT 9999 SCT030 32/19 Q1012;
0120832880999992007121218004-13267-043417FM-15+0443SBLP V0202601N003112200019N0112651N1+03301+01901999999ADDGA1021+009001999GF102991999999999999999999MA1101021999999REMMET051METAR SBLP 121800Z 26006KT 9999 FEW030 33/19 Q1010;
0072832880999992007121219004-13267-043417FM-15+0443SBLP V0202601N00311220001CN0099001N1+03301+01901999999ADDMA1101021999999REMMET045METAR SBLP 121900Z 26006KT CAVOK 33/19 Q1010;
0072832880999992007121220004-13267-043417FM-15+0443SBLP V0202101N00311220001CN0099001N1+03301+02001999999ADDMA1100911999999REMMET045METAR SBLP 122000Z 21006KT CAVOK 33/20 Q1009;
0072832880999992007121221004-13267-043417FM-15+0443SBLP V0202101N00311220001CN0099001N1+03101+01901999999ADDMA1100911999999REMMET045METAR SBLP 122100Z 21006KT CAVOK 31/19 Q1009;
0072832880999992007121310004-13267-043417FM-15+0443SBLP V0209999C00001220001CN0099001N1+02601+02001999999ADDMA1101191999999REMMET045METAR SBLP 131000Z 00000KT CAVOK 26/20 Q1012;
0072832880999992007121311004-13267-043417FM-15+0443SBLP V0209999C00001220001CN0099001N1+02801+01901999999ADDMA1101291999999REMMET045METAR SBLP 131100Z 00000KT CAVOK 28/19 Q1013;
0072832880999992007121313004-13267-043417FM-15+0443SBLP V0209999C00001220001CN0099001N1+03101+01901999999ADDMA1101291999999REMMET045METAR SBLP 131300Z 00000KT CAVOK 31/19 Q1013;
0072832880999992007121314004-13267-043417FM-15+0443SBLP V0200901N00311220001CN0099001N1+03201+01801999999ADDMA1101291999999REMMET045METAR SBLP 131400Z 09006KT CAVOK 32/18 Q1013;
0072832880999992007121315004-13267-043417FM-15+0443SBLP V0200901N00311220001CN0099001N1+03201+01801999999ADDMA1101191999999REMMET045METAR SBLP 131500Z 09006KT CAVOK 32/18 Q1012;
0120832880999992007121316004-13267-043417FM-15+0443SBLP V0209999C000012200019N0112651N1+03301+01801999999ADDGA1021+009001999GF102991999999999999999999MA1101081999999REMMET051METAR SBLP 131600Z 00000KT 9999 FEW030 33/18 Q1011;
0120832880999992007121317004-13267-043417FM-15+0443SBLP V0202501N001512200019N0112651N1+03301+01801999999ADDGA1021+009001999GF102991999999999999999999MA1101021999999REMMET051METAR SBLP 131700Z 25003KT 9999 FEW030 33/18 Q1010;
0120832880999992007121318004-13267-043417FM-15+0443SBLP V0202501N002112200019N0112651N1+03401+01801999999ADDGA1021+009001999GF102991999999999999999999MA1100911999999REMMET051METAR SBLP 131800Z 25004KT 9999 FEW030 34/18 Q1009;
0120832880999992007121319004-13267-043417FM-15+0443SBLP V0202601N001512200019N0112651N1+03401+01701999999ADDGA1021+009001999GF102991999999999999999999MA1100911999999REMMET051METAR SBLP 131900Z 26003KT 9999 FEW030 34/17 Q1009;
0072832880999992007121320004-13267-043417FM-15+0443SBLP V0202501N00151220001CN0099001N1+03301+01801999999ADDMA1100911999999REMMET045METAR SBLP 132000Z 25003KT CAVOK 33/18 Q1009;
0072832880999992007121321004-13267-043417FM-15+0443SBLP V0209999C00001220001CN0099001N1+03201+01901999999ADDMA1100911999999REMMET045METAR SBLP 132100Z 00000KT CAVOK 32/19 Q1009;
0078832880999992007121409084-13267-043417FM-16+0443SBLP V0209999C000012200019N0099001N1+02201+01701999999ADDMA1101201999999REMMET051METAR SBLP 140908Z SPECI 00000KT CAVOK 22/17 Q1012;
0072832880999992007121410004-13267-043417FM-15+0443SBLP V0209999C00001220001CN0099001N1+02401+01701999999ADDMA1101191999999REMMET045METAR SBLP 141000Z 00000KT CAVOK 24/17 Q1012;
0072832880999992007121411004-13267-043417FM-15+0443SBLP V0202301N00211220001CN0099001N1+02701+01801999999ADDMA1101291999999REMMET045METAR SBLP 141100Z 23004KT CAVOK 27/18 Q1013;
0072832880999992007121412004-13267-043417FM-15+0443SBLP V0209999C00001220001CN0099001N1+02901+01601999999ADDMA1101291999999REMMET045METAR SBLP 141200Z 00000KT CAVOK 29/16 Q1013;
0072832880999992007121413004-13267-043417FM-15+0443SBLP V0209999C00001220001CN0099001N1+03101+01701999999ADDMA1101291999999REMMET045METAR SBLP 141300Z 00000KT CAVOK 31/17 Q1013;
0072832880999992007121414004-13267-043417FM-15+0443SBLP V0203401N00151220001CN0099001N1+03101+01701999999ADDMA1101291999999REMMET045METAR SBLP 141400Z 34003KT CAVOK 31/17 Q1013;
0072832880999992007121415004-13267-043417FM-15+0443SBLP V0200301N00211220001CN0099001N1+03201+01701999999ADDMA1101191999999REMMET045METAR SBLP 141500Z 03004KT CAVOK 32/17 Q1012;
0143832880999992007121416004-13267-043417FM-15+0443SBLP V0200201N001512200019N0112651N1+03401+01701999999ADDGA1021+009001999GA2041+090001999GF104991999999999999999999MA1101081999999REMMET058METAR SBLP 141600Z 02003KT 9999 FEW030 SCT300 34/17 Q1011;
0143832880999992007121417004-13267-043417FM-15+0443SBLP V0209999C000012200019N0112651N1+03501+01701999999ADDGA1021+009001999GA2041+090001999GF104991999999999999999999MA1101081999999REMMET058METAR SBLP 141700Z 00000KT 9999 FEW030 SCT300 35/17 Q1011;
0143832880999992007121418004-13267-043417FM-15+0443SBLP V0209999C000012200019N0112651N1+03501+01701999999ADDGA1021+009001999GA2041+090001999GF104991999999999999999999MA1101021999999REMMET058METAR SBLP 141800Z 00000KT 9999 FEW030 SCT300 35/17 Q1010;
0120832880999992007121419004-13267-043417FM-15+0443SBLP V0209999C000012200019N0112651N1+03501+01801999999ADDGA1021+009001999GF102991999999999999999999MA1100911999999REMMET051METAR SBLP 141900Z 00000KT 9999 FEW030 35/18 Q1009;
0072832880999992007121420004-13267-043417FM-15+0443SBLP V0200701N00151220001CN0099001N1+03401+01301999999ADDMA1100911999999REMMET045METAR SBLP 142000Z 07003KT CAVOK 34/13 Q1009;
0072832880999992007121421004-13267-043417FM-15+0443SBLP V0209999C00001220001CN0099001N1+03201+01701999999ADDMA1100911999999REMMET045METAR SBLP 142100Z 00000KT CAVOK 32/17 Q1009;
0072832880999992007121510004-13267-043417FM-15+0443SBLP V0209999C00001220001CN0099001N1+02601+02001999999ADDMA1101081999999REMMET045METAR SBLP 151000Z 00000KT CAVOK 26/20 Q1011;
0072832880999992007121511004-13267-043417FM-15+0443SBLP V0202501N00151220001CN0099001N1+02901+02001999999ADDMA1101081999999REMMET045METAR SBLP 151100Z 25003KT CAVOK 29/20 Q1011;
0072832880999992007121512004-13267-043417FM-15+0443SBLP V0202201N00151220001CN0099001N1+03001+02001999999ADDMA1101191999999REMMET045METAR SBLP 151200Z 22003KT CAVOK 30/20 Q1012;
0072832880999992007121513004-13267-043417FM-15+0443SBLP V0209999C00001220001CN0099001N1+03101+02001999999ADDMA1101081999999REMMET045METAR SBLP 151300Z 00000KT CAVOK 31/20 Q1011;
0072832880999992007121514004-13267-043417FM-15+0443SBLP V0202101N00261220001CN0099001N1+03201+01901999999ADDMA1101081999999REMMET045METAR SBLP 151400Z 21005KT CAVOK 32/19 Q1011;
0120832880999992007121515004-13267-043417FM-15+0443SBLP V0202501N002112200019N0112651N1+03301+01901999999ADDGA1021+009001999GF102991999999999999999999MA1101021999999REMMET051METAR SBLP 151500Z 25004KT 9999 FEW030 33/19 Q1010;
0120832880999992007121516004-13267-043417FM-15+0443SBLP V0202501N002112200019N0112651N1+03401+01901999999ADDGA1021+009001999GF102991999999999999999999MA1100911999999REMMET051METAR SBLP 151600Z 25004KT 9999 FEW030 34/19 Q1009;
0120832880999992007121517004-13267-043417FM-15+0443SBLP V0201201N002112200019N0112651N1+03501+01801999999ADDGA1021+009001999GF102991999999999999999999MA1100811999999REMMET051METAR SBLP 151700Z 12004KT 9999 FEW030 35/18 Q1008;
0120832880999992007121518004-13267-043417FM-15+0443SBLP V0209999C000012200019N0112651N1+03501+01801999999ADDGA1021+009001999GF102991999999999999999999MA1100711999999REMMET051METAR SBLP 151800Z 00000KT 9999 FEW030 35/18 Q1007;
0120832880999992007121519004-13267-043417FM-15+0443SBLP V0200901N003112200019N0112651N1+03401+01801999999ADDGA1021+009001999GF102991999999999999999999MA1100611999999REMMET051METAR SBLP 151900Z 09006KT 9999 FEW030 34/18 Q1006;
0143832880999992007121520004-13267-043417FM-15+0443SBLP V0202701N003112200019N0112651N1+03001+02001999999ADDGA1021+009001999GA2041+030001999GF104991999999999999999999MA1100711999999REMMET058METAR SBLP 152000Z 27006KT 9999 FEW030 SCT100 30/20 Q1007;
0143832880999992007121521004-13267-043417FM-15+0443SBLP V0202701N003110300019N0112651N1+02701+02201999999ADDGA1021+009001999GA2071+030001999GF107991999999999999999999MA1100711999999REMMET058METAR SBLP 152100Z 27006KT 9999 FEW030 BKN100 27/22 Q1007;
0143832880999992007121610004-13267-043417FM-15+0443SBLP V0209999C000010300019N0112651N1+02401+02101999999ADDGA1021+006901999GA2071+030001999GF107991999999999999999999MA1101081999999REMMET058METAR SBLP 161000Z 00000KT 9999 FEW023 BKN100 24/21 Q1011;
0072832880999992007121611004-13267-043417FM-15+0443SBLP V0209999C00001220001CN0099001N1+02501+02101999999ADDMA1101081999999REMMET045METAR SBLP 161100Z 00000KT CAVOK 25/21 Q1011;
0143832880999992007121612004-13267-043417FM-15+0443SBLP V0209999C000010300019N0112651N1+02601+02101999999ADDGA1021+006901999GA2071+030001999GF107991999999999999999999MA1101191999999REMMET058METAR SBLP 161200Z 00000KT 9999 FEW023 BKN100 26/21 Q1012;
0143832880999992007121613004-13267-043417FM-15+0443SBLP V0209999C000010300019N0112651N1+02701+02001999999ADDGA1021+006901999GA2071+030001999GF107991999999999999999999MA1101081999999REMMET058METAR SBLP 161300Z 00000KT 9999 FEW023 BKN100 27/20 Q1011;
0143832880999992007121614004-13267-043417FM-15+0443SBLP V0209999C000010300019N0112651N1+02801+02001999999ADDGA1021+009001999GA2071+030001999GF107991999999999999999999MA1101081999999REMMET058METAR SBLP 161400Z 00000KT 9999 FEW030 BKN100 28/20 Q1011;
0143832880999992007121615004-13267-043417FM-15+0443SBLP V0209999C000012200019N0112651N1+03001+01901999999ADDGA1021+009001999GA2041+030001999GF104991999999999999999999MA1101021999999REMMET058METAR SBLP 161500Z 00000KT 9999 FEW030 SCT100 30/19 Q1010;
0143832880999992007121616004-13267-043417FM-15+0443SBLP V0209999C000012200019N0112651N1+03101+01901999999ADDGA1041+009001999GA2041+030001999GF104991999999999999999999MA1100911999999REMMET058METAR SBLP 161600Z 00000KT 9999 SCT030 SCT100 31/19 Q1009;
0120832880999992007121617004-13267-043417FM-15+0443SBLP V0209999C000012200019N0112651N1+03201+01901999999ADDGA1041+009001999GF104991999999999999999999MA1100811999999REMMET051METAR SBLP 161700Z 00000KT 9999 SCT030 32/19 Q1008;
0120832880999992007121618004-13267-043417FM-15+0443SBLP V0209999C000012200019N0112651N1+03401+01901999999ADDGA1041+009001999GF104991999999999999999999MA1100711999999REMMET051METAR SBLP 161800Z 00000KT 9999 SCT030 34/19 Q1007;
0120832880999992007121619004-13267-043417FM-15+0443SBLP V0209999C000012200019N0112651N1+03301+01901999999ADDGA1041+009001999GF104991999999999999999999MA1100711999999REMMET051METAR SBLP 161900Z 00000KT 9999 SCT030 33/19 Q1007;
0147832880999992007121620004-13267-043417FM-15+0443SBLP V0202701N006212200019N0112651N1+03001+02001999999ADDGA1041+009001999GA2021+012001091MA1100811999999MW1171REMMET063METAR SBLP 162000Z 27012KT 9999 TS SCT030 FEW040CB 30/20 Q1008;EQDQ01+000022SCOTCV
0177832880999992007121621004-13267-043417FM-15+0443SBLP V0202701N003112200019N0112651N1+02701+02101999999ADDGA1041+009001999GA2021+012001091GA3041+030001999GF104991999999999999999999MA1100911999999MW1171REMMET070METAR SBLP 162100Z 27006KT 9999 TS SCT030 FEW040CB SCT100 27/21 Q1009;
0153832880999992007121710004-13267-043417FM-15+0443SBLP V0201201N002110300019N0090001N1+02201+02201999999ADDGA1041+004501999GA2071+030001999GF107991999999999999999999MA1101081999999MW1611REMMET062METAR SBLP 171000Z 12004KT 9000 -RA SCT015 BKN100 22/22 Q1011;
0143832880999992007121711004-13267-043417FM-15+0443SBLP V0200901N001010300019N0112651N1+02301+02201999999ADDGA1041+006001999GA2071+030001999GF107991999999999999999999MA1101191999999REMMET058METAR SBLP 171100Z 09002KT 9999 SCT020 BKN100 23/22 Q1012;
0143832880999992007121712004-13267-043417FM-15+0443SBLP V0200601N001510300019N0112651N1+02501+02201999999ADDGA1041+006001999GA2071+030001999GF107991999999999999999999MA1101191999999REMMET058METAR SBLP 171200Z 06003KT 9999 SCT020 BKN100 25/22 Q1012;
0143832880999992007121713004-13267-043417FM-15+0443SBLP V0202901N001010300019N0112651N1+02701+02201999999ADDGA1041+006001999GA2071+030001999GF107991999999999999999999MA1101191999999REMMET058METAR SBLP 171300Z 29002KT 9999 SCT020 BKN100 27/22 Q1012;
0143832880999992007121714004-13267-043417FM-15+0443SBLP V0209999C000010300019N0112651N1+02901+02401999999ADDGA1041+006901999GA2071+030001999GF107991999999999999999999MA1101191999999REMMET058METAR SBLP 171400Z 00000KT 9999 SCT023 BKN100 29/24 Q1012;
0166832880999992007121715004-13267-043417FM-15+0443SBLP V0209999C00001008101CN0112651N1+02901+02401999999ADDGA1021+006901999GA2041+008101999GA3071+030001999GF107991999999999999999999MA1101081999999REMMET065METAR SBLP 171500Z 00000KT 9999 FEW023 SCT027 BKN100 29/24 Q1011;
0143832880999992007121716004-13267-043417FM-15+0443SBLP V0209999C000012200019N0112651N1+03001+02301999999ADDGA1041+009001999GA2041+030001999GF104991999999999999999999MA1100911999999REMMET058METAR SBLP 171600Z 00000KT 9999 SCT030 SCT100 30/23 Q1009;
0120832880999992007121717004-13267-043417FM-15+0443SBLP V0209999C000012200019N0112651N1+03201+02201999999ADDGA1041+009001999GF104991999999999999999999MA1100811999999REMMET051METAR SBLP 171700Z 00000KT 9999 SCT030 32/22 Q1008;
0120832880999992007121718004-13267-043417FM-15+0443SBLP V0209999C000012200019N0112651N1+03401+02001999999ADDGA1041+009001999GF104991999999999999999999MA1100811999999REMMET051METAR SBLP 171800Z 00000KT 9999 SCT030 34/20 Q1008;
0120832880999992007121719004-13267-043417FM-15+0443SBLP V0209999C000012200019N0112651N1+03201+02001999999ADDGA1041+009001999GF104991999999999999999999MA1100811999999REMMET051METAR SBLP 171900Z 00000KT 9999 SCT030 32/20 Q1008;
0147832880999992007121720004-13267-043417FM-15+0443SBLP V0203601N006212200019N0112651N1+03001+02001999999ADDGA1041+009001999GA2021+012001091MA1100811999999MW1171REMMET063METAR SBLP 172000Z 36012KT 9999 TS SCT030 FEW040CB 30/20 Q1008;EQDQ01+000022SCOTCV
0147832880999992007121721004-13267-043417FM-15+0443SBLP V0203601N00411220001CN0112651N1+02801+02101999999ADDGA1071+009001999GA2021+012001091MA1100911999999MW1171REMMET063METAR SBLP 172100Z 36008KT 9999 TS BKN030 FEW040CB 28/21 Q1009;EQDQ01+000022SCOTCV
0143832880999992007121810004-13267-043417FM-15+0443SBLP V0209999C000010300019N0112651N1+02301+02101999999ADDGA1041+003001999GA2071+030001999GF107991999999999999999999MA1101291999999REMMET058METAR SBLP 181000Z 00000KT 9999 SCT010 BKN100 23/21 Q1013;
0143832880999992007121811004-13267-043417FM-15+0443SBLP V0209999C000010300019N0112651N1+02401+02101999999ADDGA1041+004501999GA2071+030001999GF107991999999999999999999MA1101391999999REMMET058METAR SBLP 181100Z 00000KT 9999 SCT015 BKN100 24/21 Q1014;
0143832880999992007121812004-13267-043417FM-15+0443SBLP V0209999C000010300019N0112651N1+02601+02101999999ADDGA1021+004501999GA2071+030001999GF107991999999999999999999MA1101491999999REMMET058METAR SBLP 181200Z 00000KT 9999 FEW015 BKN100 26/21 Q1015;
0143832880999992007121813004-13267-043417FM-15+0443SBLP V0209999C000010300019N0112651N1+02701+02101999999ADDGA1021+006001999GA2071+030001999GF107991999999999999999999MA1101491999999REMMET058METAR SBLP 181300Z 00000KT 9999 FEW020 BKN100 27/21 Q1015;
0143832880999992007121814004-13267-043417FM-15+0443SBLP V0203601N003112200019N0112651N1+02901+02001999999ADDGA1041+006001999GA2041+030001999GF104991999999999999999999MA1101391999999REMMET058METAR SBLP 181400Z 36006KT 9999 SCT020 SCT100 29/20 Q1014;
0143832880999992007121815004-13267-043417FM-15+0443SBLP V0203601N003112200019N0112651N1+03001+02001999999ADDGA1041+006001999GA2041+030001999GF104991999999999999999999MA1101291999999REMMET058METAR SBLP 181500Z 36006KT 9999 SCT020 SCT100 30/20 Q1013;
0143832880999992007121816004-13267-043417FM-15+0443SBLP V0200401N004110300019N0112651N1+03001+02101999999ADDGA1041+009001999GA2071+030001999GF107991999999999999999999MA1101191999999REMMET058METAR SBLP 181600Z 04008KT 9999 SCT030 BKN100 30/21 Q1012;
0143832880999992007121817004-13267-043417FM-15+0443SBLP V0200401N001512200019N0112651N1+03001+02101999999ADDGA1041+009001999GA2041+090001999GF104991999999999999999999MA1101081999999REMMET058METAR SBLP 181700Z 04003KT 9999 SCT030 SCT300 30/21 Q1011;
0143832880999992007121818004-13267-043417FM-15+0443SBLP V0200301N001012200019N0112651N1+03001+02101999999ADDGA1041+009001999GA2041+090001999GF104991999999999999999999MA1101021999999REMMET058METAR SBLP 181800Z 03002KT 9999 SCT030 SCT300 30/21 Q1010;
0143832880999992007121819004-13267-043417FM-15+0443SBLP V0203301N001012200019N0112651N1+03001+02101999999ADDGA1041+009001999GA2041+090001999GF104991999999999999999999MA1101021999999REMMET058METAR SBLP 181900Z 33002KT 9999 SCT030 SCT300 30/21 Q1010;
0169832880999992007121820004-13267-043417FM-15+0443SBLP V0200201N001512200019N0112651N1+02901+02001999999ADDGA1041+009001999GA2021+012001021GA3041+090001999GF104991999999999999999999MA1101021999999REMMET068METAR SBLP 182000Z 02003KT 9999 SCT030 FEW040TCU SCT300 29/20 Q1010;
0143832880999992007121821004-13267-043417FM-15+0443SBLP V0200401N004110090019N0112651N1+02801+02201999999ADDGA1071+009001999GA2071+090001999GF107991999999999999999999MA1101081999999REMMET058METAR SBLP 182100Z 04008KT 9999 BKN030 BKN300 28/22 Q1011;
0072832880999992007121910004-13267-043417FM-15+0443SBLP V0209999C00001220001CN0099001N1+02401+02201999999ADDMA1101391999999REMMET045METAR SBLP 191000Z 00000KT CAVOK 24/22 Q1014;
0072832880999992007121911004-13267-043417FM-15+0443SBLP V0209999C00001220001CN0099001N1+02601+02201999999ADDMA1101391999999REMMET045METAR SBLP 191100Z 00000KT CAVOK 26/22 Q1014;
0072832880999992007121912004-13267-043417FM-15+0443SBLP V0200801N00151220001CN0099001N1+02701+02201999999ADDMA1101391999999REMMET045METAR SBLP 191200Z 08003KT CAVOK 27/22 Q1014;
0143832880999992007121913004-13267-043417FM-15+0443SBLP V0200601N001510300019N0112651N1+03001+02101999999ADDGA1021+009001999GA2071+030001999GF107991999999999999999999MA1101391999999REMMET058METAR SBLP 191300Z 06003KT 9999 FEW030 BKN100 30/21 Q1014;
0120832880999992007121914004-13267-043417FM-15+0443SBLP V0202901N002112200019N0112651N1+03001+02201999999ADDGA1041+009001999GF104991999999999999999999MA1101391999999REMMET051METAR SBLP 191400Z 29004KT 9999 SCT030 30/22 Q1014;
0120832880999992007121915004-13267-043417FM-15+0443SBLP V0203001N001012200019N0112651N1+03001+02101999999ADDGA1041+009001999GF104991999999999999999999MA1101191999999REMMET051METAR SBLP 191500Z 30002KT 9999 SCT030 30/21 Q1012;
0146832880999992007121916004-13267-043417FM-15+0443SBLP V0200201N003112200019N0112651N1+03201+02101999999ADDGA1021+009001999GA2021+012001021GF102991999999999999999999MA1101081999999REMMET061METAR SBLP 191600Z 02006KT 9999 FEW030 FEW040TCU 32/21 Q1011;
0154832880999992007121917004-13267-043417FM-15+0443SBLP V0200901N004112200019N0112651N1+03001+02101999999ADDGA1021+009001999GA2021+012001091GF102991999999999999999999MA1101021999999MW1171REMMET063METAR SBLP 191700Z 09008KT 9999 TS FEW030 FEW040CB 30/21 Q1010;
0185832880999992007121918004-13267-043417FM-15+0443SBLP V0200901N001512200019N0080001N1+02901+02301999999ADDGA1021+009001999GA2021+012001021GA3041+090001999GF104991999999999999999999MA1101021999999MW1161REMMET078METAR SBLP 191800Z 09003KT 8000 VCSH FEW030 FEW040TCU SCT300 29/23 Q1010 RETS;
0072832880999992007121920004-13267-043417FM-15+0443SBLP V0202501N00151220001CN0099001N1+02701+02201999999ADDMA1101021999999REMMET045METAR SBLP 192000Z 25003KT CAVOK 27/22 Q1010;
0072832880999992007121921004-13267-043417FM-15+0443SBLP V0201501N00151220001CN0099001N1+02601+02301999999ADDMA1101021999999REMMET045METAR SBLP 192100Z 15003KT CAVOK 26/23 Q1010;
0120832880999992007122010004-13267-043417FM-15+0443SBLP V0209999C000012200019N0112651N1+02501+02301999999ADDGA1041+006001999GF104991999999999999999999MA1101291999999REMMET051METAR SBLP 201000Z 00000KT 9999 SCT020 25/23 Q1013;
0120832880999992007122011004-13267-043417FM-15+0443SBLP V0202501N001512200019N0112651N1+02601+02301999999ADDGA1021+006901999GF102991999999999999999999MA1101291999999REMMET051METAR SBLP 201100Z 25003KT 9999 FEW023 26/23 Q1013;
0120832880999992007122012004-13267-043417FM-15+0443SBLP V0209999C000012200019N0112651N1+02801+02301999999ADDGA1041+006901999GF104991999999999999999999MA1101291999999REMMET051METAR SBLP 201200Z 00000KT 9999 SCT023 28/23 Q1013;
0120832880999992007122013004-13267-043417FM-15+0443SBLP V0202001N001012200019N0112651N1+03001+02201999999ADDGA1021+009001999GF102991999999999999999999MA1101291999999REMMET051METAR SBLP 201300Z 20002KT 9999 FEW030 30/22 Q1013;
0120832880999992007122014004-13267-043417FM-15+0443SBLP V0203101N001012200019N0112651N1+03101+02001999999ADDGA1021+009001999GF102991999999999999999999MA1101291999999REMMET051METAR SBLP 201400Z 31002KT 9999 FEW030 31/20 Q1013;
0120832880999992007122015004-13267-043417FM-15+0443SBLP V0202501N001512200019N0112651N1+03201+02201999999ADDGA1021+009001999GF102991999999999999999999MA1101191999999REMMET051METAR SBLP 201500Z 25003KT 9999 FEW030 32/22 Q1012;
0120832880999992007122016004-13267-043417FM-15+0443SBLP V0200601N002112200019N0112651N1+03301+02101999999ADDGA1021+009001999GF102991999999999999999999MA1101081999999REMMET051METAR SBLP 201600Z 06004KT 9999 FEW030 33/21 Q1011;
0143832880999992007122017004-13267-043417FM-15+0443SBLP V0209999C000012200019N0112651N1+03301+02101999999ADDGA1021+009001999GA2041+090001999GF104991999999999999999999MA1101021999999REMMET058METAR SBLP 201700Z 00000KT 9999 FEW030 SCT300 33/21 Q1010;
0072832880999992007122019004-13267-043417FM-15+0443SBLP V0200901N00311220001CN0099001N1+03401+02001999999ADDMA1100811999999REMMET045METAR SBLP 201900Z 09006KT CAVOK 34/20 Q1008;
0072832880999992007122020004-13267-043417FM-15+0443SBLP V0209999C00001220001CN0099001N1+03401+02001999999ADDMA1100811999999REMMET045METAR SBLP 202000Z 00000KT CAVOK 34/20 Q1008;
0072832880999992007122021004-13267-043417FM-15+0443SBLP V0209999C00001220001CN0099001N1+03201+02001999999ADDMA1100811999999REMMET045METAR SBLP 202100Z 00000KT CAVOK 32/20 Q1008;
0072832880999992007122110004-13267-043417FM-15+0443SBLP V0209999C00001220001CN0099001N1+02501+02201999999ADDMA1101191999999REMMET045METAR SBLP 211000Z 00000KT CAVOK 25/22 Q1012;
0072832880999992007122111004-13267-043417FM-15+0443SBLP V0209999C00001220001CN0099001N1+02601+02301999999ADDMA1101291999999REMMET045METAR SBLP 211100Z 00000KT CAVOK 26/23 Q1013;
0072832880999992007122112004-13267-043417FM-15+0443SBLP V0209999C00001220001CN0099001N1+02801+02301999999ADDMA1101291999999REMMET045METAR SBLP 211200Z 00000KT CAVOK 28/23 Q1013;
0072832880999992007122113004-13267-043417FM-15+0443SBLP V0209999C00001220001CN0099001N1+03101+02201999999ADDMA1101291999999REMMET045METAR SBLP 211300Z 00000KT CAVOK 31/22 Q1013;
0120832880999992007122114004-13267-043417FM-15+0443SBLP V0209999C000012200019N0112651N1+03201+02101999999ADDGA1021+009001999GF102991999999999999999999MA1101291999999REMMET051METAR SBLP 211400Z 00000KT 9999 FEW030 32/21 Q1013;
0120832880999992007122115004-13267-043417FM-15+0443SBLP V0209999C000012200019N0112651N1+03301+02101999999ADDGA1021+009001999GF102991999999999999999999MA1101191999999REMMET051METAR SBLP 211500Z 00000KT 9999 FEW030 33/21 Q1012;
0120832880999992007122116004-13267-043417FM-15+0443SBLP V0203601N003112200019N0112651N1+03401+02001999999ADDGA1041+009001999GF104991999999999999999999MA1101081999999REMMET051METAR SBLP 211600Z 36006KT 9999 SCT030 34/20 Q1011;
0120832880999992007122118004-13267-043417FM-15+0443SBLP V0203601N003112200019N0112651N1+03601+01801999999ADDGA1041+009001999GF104991999999999999999999MA1100911999999REMMET051METAR SBLP 211800Z 36006KT 9999 SCT030 36/18 Q1009;
0120832880999992007122119004-13267-043417FM-15+0443SBLP V0203601N003112200019N0112651N1+03501+01801999999ADDGA1041+009001999GF104991999999999999999999MA1100911999999REMMET051METAR SBLP 211900Z 36006KT 9999 SCT030 35/18 Q1009;
0120832880999992007122120004-13267-043417FM-15+0443SBLP V0203601N003112200019N0112651N1+03401+01901999999ADDGA1021+009001999GF102991999999999999999999MA1100911999999REMMET051METAR SBLP 212000Z 36006KT 9999 FEW030 34/19 Q1009;
0120832880999992007122121004-13267-043417FM-15+0443SBLP V0203601N003112200019N0112651N1+03201+01901999999ADDGA1021+009001999GF102991999999999999999999MA1100911999999REMMET051METAR SBLP 212100Z 36006KT 9999 FEW030 32/19 Q1009;
0072832880999992007122210004-13267-043417FM-15+0443SBLP V0209999C00001220001CN0099001N1+02601+02101999999ADDMA1101291999999REMMET045METAR SBLP 221000Z 00000KT CAVOK 26/21 Q1013;
0072832880999992007122211004-13267-043417FM-15+0443SBLP V0209999C00001220001CN0099001N1+02701+02001999999ADDMA1101391999999REMMET045METAR SBLP 221100Z 00000KT CAVOK 27/20 Q1014;
0072832880999992007122212004-13267-043417FM-15+0443SBLP V0209999C00001220001CN0099001N1+03001+02001999999ADDMA1101391999999REMMET045METAR SBLP 221200Z 00000KT CAVOK 30/20 Q1014;
0072832880999992007122213004-13267-043417FM-15+0443SBLP V0201801N00311220001CN0099001N1+03201+02001999999ADDMA1101391999999REMMET045METAR SBLP 221300Z 18006KT CAVOK 32/20 Q1014;
0072832880999992007122214004-13267-043417FM-15+0443SBLP V0201801N00311220001CN0099001N1+03301+01901999999ADDMA1101291999999REMMET045METAR SBLP 221400Z 18006KT CAVOK 33/19 Q1013;
0120832880999992007122215004-13267-043417FM-15+0443SBLP V0201801N003112200019N0112651N1+03301+01901999999ADDGA1021+009001999GF102991999999999999999999MA1101291999999REMMET051METAR SBLP 221500Z 18006KT 9999 FEW030 33/19 Q1013;
0120832880999992007122216004-13267-043417FM-15+0443SBLP V0202501N003112200019N0112651N1+03401+02101999999ADDGA1021+009001999GF102991999999999999999999MA1101191999999REMMET051METAR SBLP 221600Z 25006KT 9999 FEW030 34/21 Q1012;
0120832880999992007122217004-13267-043417FM-15+0443SBLP V0202701N003112200019N0112651N1+03401+02101999999ADDGA1041+009001999GF104991999999999999999999MA1101081999999REMMET051METAR SBLP 221700Z 27006KT 9999 SCT030 34/21 Q1011;
0143832880999992007122218004-13267-043417FM-15+0443SBLP V0202601N004112200019N0112651N1+03401+02101999999ADDGA1041+009001999GA2041+090001999GF104991999999999999999999MA1101021999999REMMET058METAR SBLP 221800Z 26008KT 9999 SCT030 SCT300 34/21 Q1010;
0143832880999992007122219004-13267-043417FM-15+0443SBLP V0202501N004112200019N0112651N1+03401+02101999999ADDGA1021+009001999GA2041+090001999GF104991999999999999999999MA1101021999999REMMET058METAR SBLP 221900Z 25008KT 9999 FEW030 SCT300 34/21 Q1010;
0146832880999992007122220004-13267-043417FM-15+0443SBLP V0202101N004112200019N0112651N1+03301+02001999999ADDGA1021+009001021GA2041+090001999GF104991999999999999999999MA1100911999999REMMET061METAR SBLP 222000Z 21008KT 9999 FEW030TCU SCT300 33/20 Q1009;
0143832880999992007122221004-13267-043417FM-15+0443SBLP V0202101N003110900019N0112651N1+03101+02101999999ADDGA1021+009001999GA2071+090001999GF107991999999999999999999MA1101021999999REMMET058METAR SBLP 222100Z 21006KT 9999 FEW030 BKN300 31/21 Q1010;
0072832880999992007122310004-13267-043417FM-15+0443SBLP V0209999C00001220001CN0099001N1+02501+02101999999ADDMA1101291999999REMMET045METAR SBLP 231000Z 00000KT CAVOK 25/21 Q1013;
0072832880999992007122311004-13267-043417FM-15+0443SBLP V0209999C00001220001CN0099001N1+02801+02001999999ADDMA1101391999999REMMET045METAR SBLP 231100Z 00000KT CAVOK 28/20 Q1014;
0072832880999992007122312004-13267-043417FM-15+0443SBLP V0209999C00001220001CN0099001N1+02901+02001999999ADDMA1101491999999REMMET045METAR SBLP 231200Z 00000KT CAVOK 29/20 Q1015;
0072832880999992007122313004-13267-043417FM-15+0443SBLP V0209999C00001220001CN0099001N1+03101+02001999999ADDMA1101491999999REMMET045METAR SBLP 231300Z 00000KT CAVOK 31/20 Q1015;
0120832880999992007122314004-13267-043417FM-15+0443SBLP V0209999C000012200019N0112651N1+03101+02001999999ADDGA1021+009001999GF102991999999999999999999MA1101391999999REMMET051METAR SBLP 231400Z 00000KT 9999 FEW030 31/20 Q1014;
0120832880999992007122315004-13267-043417FM-15+0443SBLP V0202701N003112200019N0112651N1+03201+02001999999ADDGA1021+009001999GF102991999999999999999999MA1101391999999REMMET051METAR SBLP 231500Z 27006KT 9999 FEW030 32/20 Q1014;
0120832880999992007122316004-13267-043417FM-15+0443SBLP V0202501N002112200019N0112651N1+03201+02101999999ADDGA1021+009001999GF102991999999999999999999MA1101291999999REMMET051METAR SBLP 231600Z 25004KT 9999 FEW030 32/21 Q1013;
0120832880999992007122317004-13267-043417FM-15+0443SBLP V0202401N004112200019N0112651N1+03301+02101999999ADDGA1041+009001999GF104991999999999999999999MA1101191999999REMMET051METAR SBLP 231700Z 24008KT 9999 SCT030 33/21 Q1012;
0120832880999992007122318004-13267-043417FM-15+0443SBLP V0202501N003112200019N0112651N1+03301+02001999999ADDGA1041+009001999GF104991999999999999999999MA1101081999999REMMET051METAR SBLP 231800Z 25006KT 9999 SCT030 33/20 Q1011;
0120832880999992007122319004-13267-043417FM-15+0443SBLP V0201801N003112200019N0112651N1+03301+01801999999ADDGA1021+009001999GF102991999999999999999999MA1101021999999REMMET051METAR SBLP 231900Z 18006KT 9999 FEW030 33/18 Q1010;
0072832880999992007122320004-13267-043417FM-15+0443SBLP V0202101N00211220001CN0099001N1+03201+01901999999ADDMA1101021999999REMMET045METAR SBLP 232000Z 21004KT CAVOK 32/19 Q1010;
0072832880999992007122321004-13267-043417FM-15+0443SBLP V0202101N00211220001CN0099001N1+03001+01801999999ADDMA1101081999999REMMET045METAR SBLP 232100Z 21004KT CAVOK 30/18 Q1011;
0072832880999992007122410004-13267-043417FM-15+0443SBLP V0202101N00211220001CN0099001N1+02401+01801999999ADDMA1101391999999REMMET045METAR SBLP 241000Z 21004KT CAVOK 24/18 Q1014;
0072832880999992007122411004-13267-043417FM-15+0443SBLP V0201801N00211220001CN0099001N1+02601+01901999999ADDMA1101491999999REMMET045METAR SBLP 241100Z 18004KT CAVOK 26/19 Q1015;
0072832880999992007122412004-13267-043417FM-15+0443SBLP V0201101N00211220001CN0099001N1+02801+01801999999ADDMA1101491999999REMMET045METAR SBLP 241200Z 11004KT CAVOK 28/18 Q1015;
0072832880999992007122413004-13267-043417FM-15+0443SBLP V0201601N00411220001CN0099001N1+03001+01801999999ADDMA1101491999999REMMET045METAR SBLP 241300Z 16008KT CAVOK 30/18 Q1015;
0120832880999992007122414004-13267-043417FM-15+0443SBLP V0200901N003112200019N0112651N1+03201+01901999999ADDGA1021+009001999GF102991999999999999999999MA1101491999999REMMET051METAR SBLP 241400Z 09006KT 9999 FEW030 32/19 Q1015;
0120832880999992007122415004-13267-043417FM-15+0443SBLP V0200901N004112200019N0112651N1+03301+01801999999ADDGA1021+009001999GF102991999999999999999999MA1101391999999REMMET051METAR SBLP 241500Z 09008KT 9999 FEW030 33/18 Q1014;
0120832880999992007122416004-13267-043417FM-15+0443SBLP V0201801N002112200019N0112651N1+03401+01701999999ADDGA1021+009001999GF102991999999999999999999MA1101391999999REMMET051METAR SBLP 241600Z 18004KT 9999 FEW030 34/17 Q1014;
0120832880999992007122417004-13267-043417FM-15+0443SBLP V0201301N002112200019N0112651N1+03401+01701999999ADDGA1021+009001999GF102991999999999999999999MA1101191999999REMMET051METAR SBLP 241700Z 13004KT 9999 FEW030 34/17 Q1012;
0072832880999992007122418004-13267-043417FM-15+0443SBLP V0201601N00311220001CN0099001N1+03401+01601999999ADDMA1101081999999REMMET045METAR SBLP 241800Z 16006KT CAVOK 34/16 Q1011;
0072832880999992007122419004-13267-043417FM-15+0443SBLP V0202501N00211220001CN0099001N1+03401+01701999999ADDMA1101081999999REMMET045METAR SBLP 241900Z 25004KT CAVOK 34/17 Q1011;
0072832880999992007122420004-13267-043417FM-15+0443SBLP V0202101N00211220001CN0099001N1+03301+01901999999ADDMA1101081999999REMMET045METAR SBLP 242000Z 21004KT CAVOK 33/19 Q1011;
0072832880999992007122421004-13267-043417FM-15+0443SBLP V0202101N00151220001CN0099001N1+03101+01901999999ADDMA1101081999999REMMET045METAR SBLP 242100Z 21003KT CAVOK 31/19 Q1011;
0072832880999992007122509004-13267-043417FM-15+0443SBLP V0209999C00001220001CN0099001N1+02201+01601999999ADDMA1101391999999REMMET045METAR SBLP 250900Z 00000KT CAVOK 22/16 Q1014;
0072832880999992007122510004-13267-043417FM-15+0443SBLP V0209999C00001220001CN0099001N1+02401+01901999999ADDMA1101391999999REMMET045METAR SBLP 251000Z 00000KT CAVOK 24/19 Q1014;
0072832880999992007122511004-13267-043417FM-15+0443SBLP V0200901N00211220001CN0099001N1+02701+02001999999ADDMA1101491999999REMMET045METAR SBLP 251100Z 09004KT CAVOK 27/20 Q1015;
0072832880999992007122512004-13267-043417FM-15+0443SBLP V0201001N00211220001CN0099001N1+02801+01901999999ADDMA1101491999999REMMET045METAR SBLP 251200Z 10004KT CAVOK 28/19 Q1015;
0120832880999992007122513004-13267-043417FM-15+0443SBLP V0200901N002112200019N0112651N1+03001+01801999999ADDGA1021+009001999GF102991999999999999999999MA1101491999999REMMET051METAR SBLP 251300Z 09004KT 9999 FEW030 30/18 Q1015;
0120832880999992007122514004-13267-043417FM-15+0443SBLP V0201501N001512200019N0112651N1+03101+01701999999ADDGA1021+009001999GF102991999999999999999999MA1101491999999REMMET051METAR SBLP 251400Z 15003KT 9999 FEW030 31/17 Q1015;
0120832880999992007122515004-13267-043417FM-15+0443SBLP V0209999C000012200019N0112651N1+03301+01701999999ADDGA1021+009001999GF102991999999999999999999MA1101391999999REMMET051METAR SBLP 251500Z 00000KT 9999 FEW030 33/17 Q1014;
0120832880999992007122516004-13267-043417FM-15+0443SBLP V0209999C000012200019N0112651N1+03401+01701999999ADDGA1021+009001999GF102991999999999999999999MA1101291999999REMMET051METAR SBLP 251600Z 00000KT 9999 FEW030 34/17 Q1013;
0120832880999992007122517004-13267-043417FM-15+0443SBLP V0209999C000012200019N0112651N1+03401+01701999999ADDGA1021+009001999GF102991999999999999999999MA1101291999999REMMET051METAR SBLP 251700Z 00000KT 9999 FEW030 34/17 Q1013;
0120832880999992007122518004-13267-043417FM-15+0443SBLP V0209999C000012200019N0112651N1+03401+01701999999ADDGA1041+009001999GF104991999999999999999999MA1101191999999REMMET051METAR SBLP 251800Z 00000KT 9999 SCT030 34/17 Q1012;
0120832880999992007122519004-13267-043417FM-15+0443SBLP V0209999C000012200019N0112651N1+03501+01601999999ADDGA1021+009001999GF102991999999999999999999MA1101081999999REMMET051METAR SBLP 251900Z 00000KT 9999 FEW030 35/16 Q1011;
0120832880999992007122520004-13267-043417FM-15+0443SBLP V0209999C000012200019N0112651N1+03301+01701999999ADDGA1021+009001999GF102991999999999999999999MA1101081999999REMMET051METAR SBLP 252000Z 00000KT 9999 FEW030 33/17 Q1011;
0072832880999992007122521004-13267-043417FM-15+0443SBLP V0209999C00001220001CN0099001N1+03201+01801999999ADDMA1101081999999REMMET045METAR SBLP 252100Z 00000KT CAVOK 32/18 Q1011;
0072832880999992007122610004-13267-043417FM-15+0443SBLP V0209999C00001220001CN0099001N1+02301+01701999999ADDMA1101491999999REMMET045METAR SBLP 261000Z 00000KT CAVOK 23/17 Q1015;
0072832880999992007122611004-13267-043417FM-15+0443SBLP V0202001N00311220001CN0099001N1+02601+01701999999ADDMA1101491999999REMMET045METAR SBLP 261100Z 20006KT CAVOK 26/17 Q1015;
0072832880999992007122612004-13267-043417FM-15+0443SBLP V0209999C00001220001CN0099001N1+02801+01701999999ADDMA1101591999999REMMET045METAR SBLP 261200Z 00000KT CAVOK 28/17 Q1016;
0072832880999992007122613004-13267-043417FM-15+0443SBLP V0209999C00001220001CN0099001N1+02901+01701999999ADDMA1101591999999REMMET045METAR SBLP 261300Z 00000KT CAVOK 29/17 Q1016;
0072832880999992007122614004-13267-043417FM-15+0443SBLP V0209999C00001220001CN0099001N1+03001+01801999999ADDMA1101491999999REMMET045METAR SBLP 261400Z 00000KT CAVOK 30/18 Q1015;
0072832880999992007122615004-13267-043417FM-15+0443SBLP V0209999C00001220001CN0099001N1+03201+01701999999ADDMA1101491999999REMMET045METAR SBLP 261500Z 00000KT CAVOK 32/17 Q1015;
0072832880999992007122616004-13267-043417FM-15+0443SBLP V0200901N00311220001CN0099001N1+03201+01701999999ADDMA1101391999999REMMET045METAR SBLP 261600Z 09006KT CAVOK 32/17 Q1014;
0072832880999992007122617004-13267-043417FM-15+0443SBLP V0200901N00311220001CN0099001N1+03401+01601999999ADDMA1101291999999REMMET045METAR SBLP 261700Z 09006KT CAVOK 34/16 Q1013;
0072832880999992007122618004-13267-043417FM-15+0443SBLP V0201801N00311220001CN0099001N1+03501+01601999999ADDMA1101191999999REMMET045METAR SBLP 261800Z 18006KT CAVOK 35/16 Q1012;
0072832880999992007122619004-13267-043417FM-15+0443SBLP V0209999C00001220001CN0099001N1+03401+01701999999ADDMA1101081999999REMMET045METAR SBLP 261900Z 00000KT CAVOK 34/17 Q1011;
0072832880999992007122620004-13267-043417FM-15+0443SBLP V0209999C00001220001CN0099001N1+03301+01801999999ADDMA1101081999999REMMET045METAR SBLP 262000Z 00000KT CAVOK 33/18 Q1011;
0072832880999992007122621004-13267-043417FM-15+0443SBLP V0209999C00001220001CN0099001N1+03101+01801999999ADDMA1101081999999REMMET045METAR SBLP 262100Z 00000KT CAVOK 31/18 Q1011;
0072832880999992007122710004-13267-043417FM-15+0443SBLP V0209999C00001220001CN0099001N1+02501+02001999999ADDMA1101291999999REMMET045METAR SBLP 271000Z 00000KT CAVOK 25/20 Q1013;
0072832880999992007122711004-13267-043417FM-15+0443SBLP V0209999C00001220001CN0099001N1+02701+01901999999ADDMA1101391999999REMMET045METAR SBLP 271100Z 00000KT CAVOK 27/19 Q1014;
0072832880999992007122712004-13267-043417FM-15+0443SBLP V0209999C00001220001CN0099001N1+02901+01801999999ADDMA1101491999999REMMET045METAR SBLP 271200Z 00000KT CAVOK 29/18 Q1015;
0072832880999992007122713004-13267-043417FM-15+0443SBLP V0201801N00311220001CN0099001N1+03101+01701999999ADDMA1101391999999REMMET045METAR SBLP 271300Z 18006KT CAVOK 31/17 Q1014;
0072832880999992007122714004-13267-043417FM-15+0443SBLP V0201801N00311220001CN0099001N1+03101+01601999999ADDMA1101391999999REMMET045METAR SBLP 271400Z 18006KT CAVOK 31/16 Q1014;
0072832880999992007122715004-13267-043417FM-15+0443SBLP V0201801N00311220001CN0099001N1+03301+01501999999ADDMA1101291999999REMMET045METAR SBLP 271500Z 18006KT CAVOK 33/15 Q1013;
0072832880999992007122716004-13267-043417FM-15+0443SBLP V0201601N00311220001CN0099001N1+03401+01101999999ADDMA1101191999999REMMET045METAR SBLP 271600Z 16006KT CAVOK 34/11 Q1012;
0072832880999992007122717004-13267-043417FM-15+0443SBLP V0200901N00211220001CN0099001N1+03401+00701999999ADDMA1101081999999REMMET045METAR SBLP 271700Z 09004KT CAVOK 34/07 Q1011;
0072832880999992007122718004-13267-043417FM-15+0443SBLP V0200901N00211220001CN0099001N1+03401+00801999999ADDMA1101081999999REMMET045METAR SBLP 271800Z 09004KT CAVOK 34/08 Q1011;
0072832880999992007122719004-13267-043417FM-15+0443SBLP V0200701N00151220001CN0099001N1+03401+00801999999ADDMA1101021999999REMMET045METAR SBLP 271900Z 07003KT CAVOK 34/08 Q1010;
0072832880999992007122720004-13267-043417FM-15+0443SBLP V0200901N00211220001CN0099001N1+03401+01001999999ADDMA1101021999999REMMET045METAR SBLP 272000Z 09004KT CAVOK 34/10 Q1010;
0072832880999992007122721004-13267-043417FM-15+0443SBLP V0200901N00211220001CN0099001N1+03201+01001999999ADDMA1101021999999REMMET045METAR SBLP 272100Z 09004KT CAVOK 32/10 Q1010;
0072832880999992007122810004-13267-043417FM-15+0443SBLP V0209999C00001220001CN0099001N1+02401+01701999999ADDMA1101391999999REMMET045METAR SBLP 281000Z 00000KT CAVOK 24/17 Q1014;
0072832880999992007122812004-13267-043417FM-15+0443SBLP V0209999C00001220001CN0099001N1+02901+01501999999ADDMA1101491999999REMMET045METAR SBLP 281200Z 00000KT CAVOK 29/15 Q1015;
0072832880999992007122813004-13267-043417FM-15+0443SBLP V0209999C00001220001CN0099001N1+03001+01501999999ADDMA1101491999999REMMET045METAR SBLP 281300Z 00000KT CAVOK 30/15 Q1015;
0072832880999992007122814004-13267-043417FM-15+0443SBLP V0209999C00001220001CN0099001N1+03101+01501999999ADDMA1101491999999REMMET045METAR SBLP 281400Z 00000KT CAVOK 31/15 Q1015;
0072832880999992007122815004-13267-043417FM-15+0443SBLP V0200901N00311220001CN0099001N1+03101+01501999999ADDMA1101391999999REMMET045METAR SBLP 281500Z 09006KT CAVOK 31/15 Q1014;
0072832880999992007122816004-13267-043417FM-15+0443SBLP V0200901N00311220001CN0099001N1+03201+01401999999ADDMA1101291999999REMMET045METAR SBLP 281600Z 09006KT CAVOK 32/14 Q1013;
0072832880999992007122817004-13267-043417FM-15+0443SBLP V0200901N00211220001CN0099001N1+03401+01201999999ADDMA1101191999999REMMET045METAR SBLP 281700Z 09004KT CAVOK 34/12 Q1012;
0072832880999992007122818004-13267-043417FM-15+0443SBLP V0202501N00151220001CN0099001N1+03301+01201999999ADDMA1101081999999REMMET045METAR SBLP 281800Z 25003KT CAVOK 33/12 Q1011;
0072832880999992007122819004-13267-043417FM-15+0443SBLP V0202601N00211220001CN0099001N1+03301+01201999999ADDMA1101081999999REMMET045METAR SBLP 281900Z 26004KT CAVOK 33/12 Q1011;
0072832880999992007122820004-13267-043417FM-15+0443SBLP V0209999C00001220001CN0099001N1+03301+01201999999ADDMA1101081999999REMMET045METAR SBLP 282000Z 00000KT CAVOK 33/12 Q1011;
0072832880999992007122821004-13267-043417FM-15+0443SBLP V0201501N00311220001CN0099001N1+03201+01101999999ADDMA1101081999999REMMET045METAR SBLP 282100Z 15006KT CAVOK 32/11 Q1011;
0072832880999992007122910004-13267-043417FM-15+0443SBLP V0202101N00151220001CN0099001N1+02301+01801999999ADDMA1101491999999REMMET045METAR SBLP 291000Z 21003KT CAVOK 23/18 Q1015;
0072832880999992007122911004-13267-043417FM-15+0443SBLP V0200901N00211220001CN0099001N1+02701+01701999999ADDMA1101491999999REMMET045METAR SBLP 291100Z 09004KT CAVOK 27/17 Q1015;
0072832880999992007122912004-13267-043417FM-15+0443SBLP V0200901N00311220001CN0099001N1+02901+01601999999ADDMA1101491999999REMMET045METAR SBLP 291200Z 09006KT CAVOK 29/16 Q1015;
0072832880999992007122913004-13267-043417FM-15+0443SBLP V0200901N00311220001CN0099001N1+03001+01801999999ADDMA1101491999999REMMET045METAR SBLP 291300Z 09006KT CAVOK 30/18 Q1015;
0072832880999992007122914004-13267-043417FM-15+0443SBLP V0201201N00311220001CN0099001N1+03201+01701999999ADDMA1101391999999REMMET045METAR SBLP 291400Z 12006KT CAVOK 32/17 Q1014;
0120832880999992007122915004-13267-043417FM-15+0443SBLP V0200601N003112200019N0112651N1+03301+01701999999ADDGA1021+009001999GF102991999999999999999999MA1101291999999REMMET051METAR SBLP 291500Z 06006KT 9999 FEW030 33/17 Q1013;
0120832880999992007122916004-13267-043417FM-15+0443SBLP V0200901N002112200019N0112651N1+03401+01701999999ADDGA1021+009001999GF102991999999999999999999MA1101191999999REMMET051METAR SBLP 291600Z 09004KT 9999 FEW030 34/17 Q1012;
0120832880999992007122917004-13267-043417FM-15+0443SBLP V0201601N002612200019N0112651N1+03501+01601999999ADDGA1041+009001999GF104991999999999999999999MA1101191999999REMMET051METAR SBLP 291700Z 16005KT 9999 SCT030 35/16 Q1012;
0120832880999992007122918004-13267-043417FM-15+0443SBLP V0209999C000012200019N0112651N1+03401+01701999999ADDGA1041+009001999GF104991999999999999999999MA1101081999999REMMET051METAR SBLP 291800Z 00000KT 9999 SCT030 34/17 Q1011;
0120832880999992007122919004-13267-043417FM-15+0443SBLP V0200901N002112200019N0112651N1+03501+01701999999ADDGA1041+009001999GF104991999999999999999999MA1101081999999REMMET051METAR SBLP 291900Z 09004KT 9999 SCT030 35/17 Q1011;
0120832880999992007122920004-13267-043417FM-15+0443SBLP V0209999C000012200019N0112651N1+03401+01801999999ADDGA1041+009001999GF104991999999999999999999MA1101081999999REMMET051METAR SBLP 292000Z 00000KT 9999 SCT030 34/18 Q1011;
0120832880999992007122921004-13267-043417FM-15+0443SBLP V0202101N002112200019N0112651N1+03201+02001999999ADDGA1021+009001999GF102991999999999999999999MA1101081999999REMMET051METAR SBLP 292100Z 21004KT 9999 FEW030 32/20 Q1011;
0072832880999992007123010004-13267-043417FM-15+0443SBLP V0209999C00001220001CN0099001N1+02401+01901999999ADDMA1101391999999REMMET045METAR SBLP 301000Z 00000KT CAVOK 24/19 Q1014;
0072832880999992007123011004-13267-043417FM-15+0443SBLP V0201201N00151220001CN0099001N1+02701+01901999999ADDMA1101491999999REMMET045METAR SBLP 301100Z 12003KT CAVOK 27/19 Q1015;
0072832880999992007123012004-13267-043417FM-15+0443SBLP V0201301N00211220001CN0099001N1+02801+01701999999ADDMA1101491999999REMMET045METAR SBLP 301200Z 13004KT CAVOK 28/17 Q1015;
0072832880999992007123013004-13267-043417FM-15+0443SBLP V0201901N00151220001CN0099001N1+03001+01701999999ADDMA1101491999999REMMET045METAR SBLP 301300Z 19003KT CAVOK 30/17 Q1015;
0072832880999992007123014004-13267-043417FM-15+0443SBLP V0201001N00211220001CN0099001N1+03201+01701999999ADDMA1101391999999REMMET045METAR SBLP 301400Z 10004KT CAVOK 32/17 Q1014;
0120832880999992007123015004-13267-043417FM-15+0443SBLP V0200701N003112200019N0112651N1+03201+01801999999ADDGA1021+009001999GF102991999999999999999999MA1101291999999REMMET051METAR SBLP 301500Z 07006KT 9999 FEW030 32/18 Q1013;
0120832880999992007123016004-13267-043417FM-15+0443SBLP V0202601N003112200019N0112651N1+03301+01801999999ADDGA1021+009001999GF102991999999999999999999MA1101191999999REMMET051METAR SBLP 301600Z 26006KT 9999 FEW030 33/18 Q1012;
0120832880999992007123017004-13267-043417FM-15+0443SBLP V0202701N003112200019N0112651N1+03301+01801999999ADDGA1021+009001999GF102991999999999999999999MA1101081999999REMMET051METAR SBLP 301700Z 27006KT 9999 FEW030 33/18 Q1011;
0120832880999992007123018004-13267-043417FM-15+0443SBLP V0202801N003112200019N0112651N1+03401+01701999999ADDGA1021+009001999GF102991999999999999999999MA1101081999999REMMET051METAR SBLP 301800Z 28006KT 9999 FEW030 34/17 Q1011;
0120832880999992007123019004-13267-043417FM-15+0443SBLP V0200901N003112200019N0112651N1+03501+01701999999ADDGA1021+009001999GF102991999999999999999999MA1101021999999REMMET051METAR SBLP 301900Z 09006KT 9999 FEW030 35/17 Q1010;
0120832880999992007123020004-13267-043417FM-15+0443SBLP V0209999C000012200019N0112651N1+03301+01801999999ADDGA1021+009001999GF102991999999999999999999MA1101021999999REMMET051METAR SBLP 302000Z 00000KT 9999 FEW030 33/18 Q1010;
0120832880999992007123021004-13267-043417FM-15+0443SBLP V0209999C000012200019N0112651N1+03101+01801999999ADDGA1021+009001999GF102991999999999999999999MA1101021999999REMMET051METAR SBLP 302100Z 00000KT 9999 FEW030 31/18 Q1010;
0072832880999992007123110004-13267-043417FM-15+0443SBLP V0201901N00211220001CN0099001N1+02401+01901999999ADDMA1101391999999REMMET045METAR SBLP 311000Z 19004KT CAVOK 24/19 Q1014;
0072832880999992007123111004-13267-043417FM-15+0443SBLP V0201001N00261220001CN0099001N1+02601+01701999999ADDMA1101391999999REMMET045METAR SBLP 311100Z 10005KT CAVOK 26/17 Q1014;
0072832880999992007123112004-13267-043417FM-15+0443SBLP V0201201N00151220001CN0099001N1+02901+01901999999ADDMA1101491999999REMMET045METAR SBLP 311200Z 12003KT CAVOK 29/19 Q1015;
0072832880999992007123113004-13267-043417FM-15+0443SBLP V0201301N00261220001CN0099001N1+03001+02001999999ADDMA1101391999999REMMET045METAR SBLP 311300Z 13005KT CAVOK 30/20 Q1014;
0120832880999992007123114004-13267-043417FM-15+0443SBLP V0201601N002112200019N0112651N1+03301+02001999999ADDGA1021+009001999GF102991999999999999999999MA1101391999999REMMET051METAR SBLP 311400Z 16004KT 9999 FEW030 33/20 Q1014;
0120832880999992007123115004-13267-043417FM-15+0443SBLP V0201301N002112200019N0112651N1+03301+02001999999ADDGA1021+009001999GF102991999999999999999999MA1101291999999REMMET051METAR SBLP 311500Z 13004KT 9999 FEW030 33/20 Q1013;
0143832880999992007123116004-13267-043417FM-15+0443SBLP V0201901N003112200019N0112651N1+03401+01901999999ADDGA1021+009001999GA2041+090001999GF104991999999999999999999MA1101191999999REMMET058METAR SBLP 311600Z 19006KT 9999 FEW030 SCT300 34/19 Q1012;
0143832880999992007123117004-13267-043417FM-15+0443SBLP V0209999C000012200019N0112651N1+03501+01801999999ADDGA1021+009001999GA2041+090001999GF104991999999999999999999MA1101081999999REMMET058METAR SBLP 311700Z 00000KT 9999 FEW030 SCT300 35/18 Q1011;
0143832880999992007123118004-13267-043417FM-15+0443SBLP V0202401N003112200019N0112651N1+03401+01901999999ADDGA1041+009001999GA2041+090001999GF104991999999999999999999MA1101021999999REMMET058METAR SBLP 311800Z 24006KT 9999 SCT030 SCT300 34/19 Q1010;
0120832880999992007123119004-13267-043417FM-15+0443SBLP V0209999C000012200019N0112651N1+03301+01901999999ADDGA1021+009001999GF102991999999999999999999MA1101021999999REMMET051METAR SBLP 311900Z 00000KT 9999 FEW030 33/19 Q1010;
0120832880999992007123120004-13267-043417FM-15+0443SBLP V0209999C000012200019N0112651N1+03301+01901999999ADDGA1021+009001999GF102991999999999999999999MA1100911999999REMMET051METAR SBLP 312000Z 00000KT 9999 FEW030 33/19 Q1009;
0120832880999992007123121004-13267-043417FM-15+0443SBLP V0209999C000012200019N0112651N1+03301+01901999999ADDGA1021+009001999GF102991999999999999999999MA1100911999999REMMET051METAR SBLP 312100Z 00000KT 9999 FEW030 33/19 Q1009;
