0178833390999992007010100004-14050-042617FM-12+088299999V0209999C000012200019N0020001N1+02271+01541101041ADDGA1001+999999999GF100991001001999999001001KA1240M+02761MA1999999091451MD1999999-0081REMSYN082AAXX  01004 83339 32995 00000 10227 20154 39145 40104 333 10276 29062 55099 59008;
0156833390999992007010112004-14050-042617FM-12+088299999V0200901N003110042019N0100001N1+02261+01821101381ADDGF106991061021004501001001KA1240N+01861MA1999999091781MD1999999+0151REMSYN076AAXX  01124 83339 32497 60906 10226 20182 39178 40138 86200 333 20186 58015;
0137833390999992007010118004-14050-042617FM-12+088299999V0201401N004612200019N0100001N1+02811+01651100941ADDGF105991041021004501001011MA1999999091461MD1999999+0101REMSYN070AAXX  01184 83339 32497 51409 10281 20165 39146 40094 84201 333 58010;
0168833390999992007010200004-14050-042617FM-12+088299999V0200901N005712200019N0020001N1+02391+01681101171ADDGF103991011021004501001041KA1240M+02921MA1999999091621MD1999999+0171REMSYN088AAXX  02004 83339 32495 30911 10239 20168 39162 40117 81204 333 10292 29063 55102 58017;
0156833390999992007010212004-14050-042617FM-12+088299999V0200901N003610042019N0100001N1+02131+01841101431ADDGF106991061021004501001001KA1240N+01891MA1999999091831MD1999999+0051REMSYN076AAXX  02124 83339 32497 60907 10213 20184 39183 40143 86200 333 20189 58005;
0137833390999992007010218004-14050-042617FM-12+088299999V0200901N003612200019N0100001N1+02701+01801101011ADDGF104991021011004501001041MA1999999091511MD1999999+0051REMSYN070AAXX  02184 83339 32497 40907 10270 20180 39151 40101 82104 333 58005;
0168833390999992007010300004-14050-042617FM-12+088299999V0201401N008210450019N0020001N1+02371+01891101161ADDGF106991041021004501031001KA1240M+02861MA1999999091591MD1999999+0031REMSYN088AAXX  03004 83339 32495 61416 10237 20189 39159 40116 84230 333 10286 29072 55052 58003;
0156833390999992007010312004-14050-042617FM-12+088299999V0200501N005710042019N0100001N1+02151+01681101331ADDGF106991061021004501001001KA1240N+01971MA1999999091741MD1999999-0091REMSYN076AAXX  03124 83339 32497 60511 10215 20168 39174 40133 86200 333 20197 59009;
0137833390999992007010318004-14050-042617FM-12+088299999V0201401N004612200019N0100001N1+02671+01971101011ADDGF105991041021004501001011MA1999999091511MD1999999+0001REMSYN070AAXX  03184 83339 32497 51409 10267 20197 39151 40101 84201 333 58000;
0168833390999992007010400004-14050-042617FM-12+088299999V0200901N005112200019N0020001N1+02331+01761101051ADDGF103991011011004501001041KA1240M+02761MA1999999091491MD1999999-0101REMSYN088AAXX  04004 83339 32495 30910 10233 20176 39149 40105 81104 333 10276 29070 55049 59010;
0156833390999992007010412004-14050-042617FM-12+088299999V0201401N003110042019N0100001N1+02191+01861101291ADDGF106991061021004501001001KA1240N+01881MA1999999091701MD1999999-0041REMSYN076AAXX  04124 83339 32497 61406 10219 20186 39170 40129 86200 333 20188 59004;
0137833390999992007010418004-14050-042617FM-12+088299999V0200901N002112200019N0100001N1+02951+01611100711ADDGF103991011011004501001011MA1999999091301MD1999999-0211REMSYN070AAXX  04184 83339 32497 30904 10295 20161 39130 40071 81101 333 59021;
0168833390999992007010500004-14050-042617FM-12+088299999V0200901N003112200019N0020001N1+02501+01501100921ADDGF102991011011004501001011KA1240M+03021MA1999999091411MD1999999-0081REMSYN088AAXX  05004 83339 32495 20906 10250 20150 39141 40092 81101 333 10302 29058 55086 59008;
0156833390999992007010512004-14050-042617FM-12+088299999V0201401N003110042019N0100001N1+02381+01931101101ADDGF106991061021004501001001KA1240N+01981MA1999999091611MD1999999-0091REMSYN076AAXX  05124 83339 32497 61406 10238 20193 39161 40110 86200 333 20198 59009;
0137833390999992007010518004-14050-042617FM-12+088299999V0200901N004112200019N0100001N1+02931+01851100641ADDGF106991031021004501001011MA1999999091251MD1999999-0051REMSYN070AAXX  05184 83339 32497 60908 10293 20185 39125 40064 83201 333 59005;
0203833390999992007010600004-14050-042617FM-12+088299999V0201401N005112200019N0020001N1+02441+01691100861ADDGF103991011011004501001011KA1240M+03021MA1999999999999MD1999999-0041REMSYN088AAXX  06004 83339 32495 31410 10244 20169 39637 40086 81101 333 10302 29064 55076 59004;EQDQ01+096373APOSP Q02 096373APOSP 
0184833390999992007010612004-14050-042617FM-12+088299999V0200901N003110042019N0040001N1+02251+01901101081ADDAY101061AY201061GF106991061021004501001001KA1240N+02041MA1999999091551MD1999999-0061MW1101REMSYN082AAXX  06124 83339 31496 60906 10225 20190 39155 40108 71000 86200 333 20204 59006;
0137833390999992007010618004-14050-042617FM-12+088299999V0200501N004112200019N0100001N1+02951+01551100591ADDGF104991031021004501021001MA1999999091211MD1999999-0041REMSYN070AAXX  06184 83339 32497 40508 10295 20155 39121 40059 83220 333 59004;
0156833390999992007010712004-14050-042617FM-12+088299999V0201401N006710042019N0100001N1+02251+01711101251ADDGF106991061021004501001001KA1240N+02001MA1999999091691MD1999999+0141REMSYN076AAXX  07124 83339 32497 61413 10225 20171 39169 40125 86200 333 20200 58014;
0137833390999992007010718004-14050-042617FM-12+088299999V0200501N002612200019N0100001N1+02871+01441100841ADDGF103991021021004501021001MA1999999091431MD1999999+0221REMSYN070AAXX  07184 83339 32497 30505 10287 20144 39143 40084 82220 333 58022;
0156833390999992007010812004-14050-042617FM-12+088299999V0201801N002612200019N0100001N1+02351+01851101091ADDGF104991041021004501001001KA1240N+01861MA1999999091581MD1999999-0111REMSYN076AAXX  08124 83339 32497 41805 10235 20185 39158 40109 84200 333 20186 59011;
0137833390999992007010818004-14050-042617FM-12+088299999V0201401N004612200019N0100001N1+02951+01441100741ADDGF102991021021004501001001MA1999999091331MD1999999-0101REMSYN070AAXX  08184 83339 32497 21409 10295 20144 39133 40074 82200 333 59010;
0178833390999992007010900004-14050-042617FM-12+088299999V0202301N007712200019N0020001N1+02551+01391100911ADDGA1001+999999999GF100991001001999999001001KA1240M+03021MA1999999091441MD1999999-0051REMSYN082AAXX  09004 83339 32995 02315 10255 20139 39144 40091 333 10302 29053 55113 59005;
0156833390999992007010912004-14050-042617FM-12+088299999V0201401N002110042019N0100001N1+02231+01821101061ADDGF106991061021004501001001KA1240N+01921MA1999999091551MD1999999-0031REMSYN076AAXX  09124 83339 32497 61404 10223 20182 39155 40106 86200 333 20192 59003;
0137833390999992007010918004-14050-042617FM-12+088299999V0200901N002612200019N0100001N1+03031+01511100621ADDGF103991021021004501001021MA1999999091251MD1999999-0081REMSYN070AAXX  09184 83339 32497 30905 10303 20151 39125 40062 82202 333 59008;
0178833390999992007011000004-14050-042617FM-12+088299999V0201401N005712200019N0020001N1+02491+01701100841ADDGA1001+999999999GF100991001001999999001001KA1240M+03101MA1999999091341MD1999999-0101REMSYN082AAXX  10004 83339 32995 01411 10249 20170 39134 40084 333 10310 29060 55100 59010;
0184833390999992007011012004-14050-042617FM-12+088299999V0201401N003110042019N0100001N1+02231+01901101001ADDAY101061AY201061GF106991061021004501001001KA1240N+02001MA1999999091481MD1999999-0071MW1101REMSYN082AAXX  10124 83339 31497 61406 10223 20190 39148 40100 71000 86200 333 20200 59007;
0137833390999992007011018004-14050-042617FM-12+088299999V0203201N001510450019N0100001N1+03011+01611100591ADDGF105991041021004501021001MA1999999091211MD1999999-0041REMSYN070AAXX  10184 83339 32497 53203 10301 20161 39121 40059 84220 333 59004;
0196833390999992007011100004-14050-042617FM-12+088299999V0203601N001512200019N0020001N1+02551+01651100761ADDAY101061AY201061GF102991021021004501001001KA1240M+03001MA1999999091281MD1999999-0061MW1131REMSYN094AAXX  11004 83339 31495 23603 10255 20165 39128 40076 71300 82200 333 10300 29060 55056 59006;
0156833390999992007011112004-14050-042617FM-12+088299999V0203201N001510042019N0100001N1+02531+01711100941ADDGF106991061021004501001001KA1240N+02001MA1999999091511MD1999999+0031REMSYN076AAXX  11124 83339 32497 63203 10253 20171 39151 40094 86200 333 20200 58003;
0182833390999992007011118004-14050-042617FM-12+088299999V0209999C000010042019N0100001N1+02471+01921100781ADDAA106002091AY161061AY261061GF106991061021004501001001MA1999999091281MD1999999+0071MW1021REMSYN082AAXX  11184 83339 21497 60000 10247 20192 39128 40078 70266 86200 333 58007 60021;
0213833390999992007011200004-14050-042617FM-12+088299999V0201801N001512200019N0020001N1+02291+01831100821ADDAA106000591AY161061AY261061GF104991041021004501001001KA1240M+03061MA1999999091341MD1999999+0061MW1021REMSYN100AAXX  12004 83339 21495 41803 10229 20183 39134 40082 70266 84200 333 10306 29072 55061 58006 69941;
0201833390999992007011212004-14050-042617FM-12+088299999V0203201N000510042019N0100001N1+02511+01981100881ADDAA124003091AY161061AY261061GF106991051021004501021001KA1240N+02001MA1999999091391MD1999999-0121MW1021REMSYN088AAXX  12124 83339 21497 63201 10251 20198 39139 40088 70266 85220 333 20200 59012 60034;
0182833390999992007011218004-14050-042617FM-12+088299999V0209999C000010042019N0040001N1+02451+01831100591ADDAA106011991AY191061AY261061GF107991061021004501021999MA1999999091091MD1999999-0191MW1021REMSYN082AAXX  12184 83339 21496 70000 10245 20183 39109 40059 70296 8622/ 333 59019 60121;
0168833390999992007011300004-14050-042617FM-12+088299999V0203601N002112200019N0020001N1+02211+01761100681ADDGF104991041021004501001001KA1240M+02981MA1999999091191MD1999999-0151REMSYN088AAXX  13004 83339 32495 43604 10221 20176 39119 40068 84200 333 10298 29074 55059 59015;
0201833390999992007011312004-14050-042617FM-12+088299999V0203601N006210042019N0100001N1+02411+01911100841ADDAA124011991AY161061AY261061GF106991051021004501031001KA1240N+02081MA1999999091321MD1999999-0071MW1021REMSYN088AAXX  13124 83339 21497 63612 10241 20191 39132 40084 70266 85230 333 20208 59007 60124;
0137833390999992007011318004-14050-042617FM-12+088299999V0202301N003110042019N0100001N1+02791+01961100431ADDGF106991061021004501001001MA1999999091001MD1999999-0091REMSYN070AAXX  13184 83339 32497 62306 10279 20196 39100 40043 86200 333 59009;
0201833390999992007011412004-14050-042617FM-12+088299999V0200501N005710042019N0100001N1+02351+01931101011ADDAA124025991AY161061AY261061GF106991061021004501001001KA1240N+02001MA1999999091451MD1999999+0131MW1021REMSYN088AAXX  14124 83339 21497 60511 10235 20193 39145 40101 70266 86200 333 20200 58013 60264;
0137833390999992007011418004-14050-042617FM-12+088299999V0203201N001510450019N0100001N1+02791+01961100601ADDGF105991041021004501021001MA1999999091151MD1999999+0151REMSYN070AAXX  14184 83339 32497 53203 10279 20196 39115 40060 84220 333 58015;
0196833390999992007011500004-14050-042617FM-12+088299999V0201801N003112200019N0020001N1+02391+01951100861ADDAY101061AY201061GF102991021021004501001001KA1240M+02961MA1999999091351MD1999999+0051MW1131REMSYN094AAXX  15004 83339 31495 21806 10239 20195 39135 40086 71300 82200 333 10296 29073 55055 58005;
0220833390999992007011512004-14050-042617FM-12+088299999V0200901N000510450019N0100001N1+02371+01951101121ADDAA124000091AY161061AY261061GF105991041021004501031001KA1240N+02041MA1999999091611MD1999999+0161MW1021REMSYN088AAXX  15124 83339 21497 50901 10237 20195 39161 40112 70266 84230 333 20204 58016 69924;EQDQ01  00002PRCP24
0182833390999992007011518004-14050-042617FM-12+088299999V0209999C000010042019N0040001N1+02331+01811100881ADDAA106007191AY191061AY261061GF107991061021004501021999MA1999999091331MD1999999+0181MW1021REMSYN082AAXX  15184 83339 21496 70000 10233 20181 39133 40088 70296 8622/ 333 58018 60071;
0168833390999992007011600004-14050-042617FM-12+088299999V0209999C000012200019N0020001N1+02191+01741100961ADDGF102991021021004501001001KA1240M+03021MA1999999091431MD1999999+0081REMSYN088AAXX  16004 83339 32495 20000 10219 20174 39143 40096 82200 333 10302 29076 55057 58008;
0201833390999992007011612004-14050-042617FM-12+088299999V0201401N005710042019N0100001N1+02231+01821101131ADDAA124007191AY161061AY261061GF106991051021004501021001KA1240N+01931MA1999999091541MD1999999-0071MW1021REMSYN088AAXX  16124 83339 21497 61411 10223 20182 39154 40113 70266 85220 333 20193 59007 60074;
0137833390999992007011618004-14050-042617FM-12+088299999V0200901N006212200019N0100001N1+02911+01751100731ADDGF103991021021004501001041MA1999999091301MD1999999-0031REMSYN070AAXX  16184 83339 32497 30912 10291 20175 39130 40073 82204 333 59003;
0178833390999992007011700004-14050-042617FM-12+088299999V0201401N003112200019N0020001N1+02471+01661100941ADDGA1001+999999999GF100991001001999999001001KA1240M+02981MA1999999091431MD1999999+0001REMSYN082AAXX  17004 83339 32995 01406 10247 20166 39143 40094 333 10298 29062 55114 58000;
0184833390999992007011712004-14050-042617FM-12+088299999V0201401N003610042019N0040001N1+02091+01861101191ADDAY101061AY201061GF106991061021004501001001KA1240N+02001MA1999999091641MD1999999+0101MW1101REMSYN082AAXX  17124 83339 31496 61407 10209 20186 39164 40119 71000 86200 333 20200 58010;
0137833390999992007011718004-14050-042617FM-12+088299999V0200501N003112200019N0100001N1+02871+01651100831ADDGF102991021021004501001001MA1999999091411MD1999999+0111REMSYN070AAXX  17184 83339 32497 20506 10287 20165 39141 40083 82200 333 58011;
0178833390999992007011800004-14050-042617FM-12+088299999V0203201N002112200019N0020001N1+02431+01461100981ADDGA1001+999999999GF100991001001999999001001KA1240M+02941MA1999999091431MD1999999+0001REMSYN082AAXX  18004 83339 32995 03204 10243 20146 39143 40098 333 10294 29061 55086 58000;
0156833390999992007011812004-14050-042617FM-12+088299999V0201401N003112200019N0100001N1+02351+01831101231ADDGF102991021021004501001001KA1240N+01921MA1999999091711MD1999999+0071REMSYN076AAXX  18124 83339 32497 21406 10235 20183 39171 40123 82200 333 20192 58007;
0137833390999992007011818004-14050-042617FM-12+088299999V0203201N005112200019N0100001N1+03011+01121100811ADDGF102991021021004501001001MA1999999091411MD1999999+0001REMSYN070AAXX  18184 83339 32497 23210 10301 20112 39141 40081 82200 333 58000;
0178833390999992007011900004-14050-042617FM-12+088299999V0201801N003612200019N0020001N1+02431+00901100951ADDGA1001+999999999GF100991001001999999001001KA1240M+03251MA1999999091451MD1999999+0021REMSYN082AAXX  19004 83339 32995 01807 10243 20090 39145 40095 333 10325 29045 55118 58002;
0156833390999992007011912004-14050-042617FM-12+088299999V0203201N004612200019N0100001N1+02331+01671101101ADDGF103991021021004501021001KA1240N+01781MA1999999091591MD1999999-0121REMSYN076AAXX  19124 83339 32497 33209 10233 20167 39159 40110 82220 333 20178 59012;
0137833390999992007011918004-14050-042617FM-12+088299999V0201401N003112200019N0100001N1+03071+00951100721ADDGF102991011021004501021001MA1999999091331MD1999999-0081REMSYN070AAXX  19184 83339 32497 21406 10307 20095 39133 40072 81220 333 59008;
0178833390999992007012000004-14050-042617FM-12+088299999V0200901N002112200019N0020001N1+02511+01081100951ADDGA1001+999999999GF100991001001999999001001KA1240M+03101MA1999999091451MD1999999+0001REMSYN082AAXX  20004 83339 32995 00904 10251 20108 39145 40095 333 10310 29044 55118 58000;
0156833390999992007012012004-14050-042617FM-12+088299999V0200901N002112200019N0100001N1+02291+01681101281ADDGF102991021021004501001001KA1240N+01701MA1999999091661MD1999999+0071REMSYN076AAXX  20124 83339 32497 20904 10229 20168 39166 40128 82200 333 20170 58007;
0137833390999992007012018004-14050-042617FM-12+088299999V0201401N001512200019N0100001N1+03091+01071100841ADDGF103991021021004501021001MA1999999091441MD1999999+0111REMSYN070AAXX  20184 83339 32497 31403 10309 20107 39144 40084 82220 333 58011;
0178833390999992007012100004-14050-042617FM-12+088299999V0202301N002112200019N0020001N1+02531+01141101041ADDGA1001+999999999GF100991001001999999001001KA1240M+02941MA1999999091541MD1999999+0091REMSYN082AAXX  21004 83339 32995 02304 10253 20114 39154 40104 333 10294 29046 55115 58009;
0156833390999992007012112004-14050-042617FM-12+088299999V0200501N002612200019N0100001N1+02431+01911101181ADDGF102991021021004501001001KA1240N+01821MA1999999091701MD1999999+0041REMSYN076AAXX  21124 83339 32497 20505 10243 20191 39170 40118 82200 333 20182 58004;
0137833390999992007012118004-14050-042617FM-12+088299999V0201801N002112200019N0100001N1+03191+01531100771ADDGF104991041021004501001001MA1999999091411MD1999999-0031REMSYN070AAXX  21184 83339 32497 41804 10319 20153 39141 40077 84200 333 59003;
0156833390999992007012212004-14050-042617FM-12+088299999V0200901N001512200019N0100001N1+02651+01801100961ADDGF102991021021004501001001KA1240N+02141MA1999999091501MD1999999-0201REMSYN076AAXX  22124 83339 32497 20903 10265 20180 39150 40096 82200 333 20214 59020;
0137833390999992007012218004-14050-042617FM-12+088299999V0203201N002112200019N0100001N1+03251+01631100431ADDGF103991031021004501001001MA1999999091121MD1999999-0291REMSYN070AAXX  22184 83339 32497 33204 10325 20163 39112 40043 83200 333 59029;
0213833390999992007012300004-14050-042617FM-12+088299999V0209999C000010042019N0020001N1+02031+01831100881ADDAA106004191AY191061AY261061GF108991081051004501999999KA1240M+03041MA1999999091371MD1999999-0021MW1601REMSYN100AAXX  23004 83339 21495 80000 10203 20183 39137 40088 76096 885// 333 10304 29069 55095 59002 60041;
0201833390999992007012312004-14050-042617FM-12+088299999V0200901N000510042019N0040001N1+02171+01931101231ADDAA124005191AY161061AY261061GF108991081051004501999999KA1240N+01951MA1999999091591MD1999999+0091MW1101REMSYN088AAXX  23124 83339 21496 80901 10217 20193 39159 40123 71066 885// 333 20195 58009 60054;
0137833390999992007012318004-14050-042617FM-12+088299999V0201401N000512200019N0100001N1+02931+01801100671ADDGF104991031021004501001021MA1999999091221MD1999999+0101REMSYN070AAXX  23184 83339 32497 41401 10293 20180 39122 40067 83202 333 58010;
0213833390999992007012400004-14050-042617FM-12+088299999V0209999C000010042019N0020001N1+02091+01661101061ADDAA106010991AY191061AY261061GF105991051021004501001001KA1240M+03021MA1999999091451MD1999999+0071MW1131REMSYN100AAXX  24004 83339 21495 50000 10209 20166 39145 40106 71396 85200 333 10302 29073 55089 58007 60111;
0201833390999992007012412004-14050-042617FM-12+088299999V0200901N002112200019N0100001N1+02291+01881101261ADDAA124021191AY161061AY261061GF104991031021004501031001KA1240N+01921MA1999999091651MD1999999+0061MW1021REMSYN088AAXX  24124 83339 21497 40904 10229 20188 39165 40126 70266 83230 333 20192 58006 60214;
0137833390999992007012418004-14050-042617FM-12+088299999V0201401N003112200019N0100001N1+02831+01941100771ADDGF102991021021004501001001MA1999999091291MD1999999+0071REMSYN070AAXX  24184 83339 32497 21406 10283 20194 39129 40077 82200 333 58007;
0168833390999992007012500004-14050-042617FM-12+088299999V0202301N002612200019N0020001N1+02391+01751100921ADDGF102991021021004501001001KA1240M+02861MA1999999091411MD1999999-0041REMSYN088AAXX  25004 83339 32495 22305 10239 20175 39141 40092 82200 333 10286 29068 55086 59004;
0150833390999992007012512004-14050-042617FM-12+088299999V0201401N004612200019N0100001N1+02291+01811101141ADDGF103991999999004501999999KA1240N+01961MA1999999091611MD1999999-0041REMSYN070AAXX  25124 83339 32497 31409 10229 20181 39161 40114 333 20196 59004;
0137833390999992007012518004-14050-042617FM-12+088299999V0200901N003110042019N0100001N1+02891+01601100751ADDGF106991051021004501021001MA1999999091341MD1999999+0051REMSYN070AAXX  25184 83339 32497 60906 10289 20160 39134 40075 85220 333 58005;
0168833390999992007012600004-14050-042617FM-12+088299999V0201801N004612200019N0020001N1+02491+01751100911ADDGF102991021021004501001001KA1240M+02941MA1999999091421MD1999999+0011REMSYN088AAXX  26004 83339 32495 21809 10249 20175 39142 40091 82200 333 10294 29062 55101 58001;
0156833390999992007012612004-14050-042617FM-12+088299999V0200501N001512200019N0100001N1+02371+01851101071ADDGF102991021021004501001001KA1240N+01981MA1999999091581MD1999999-0031REMSYN076AAXX  26124 83339 32497 20503 10237 20185 39158 40107 82200 333 20198 59003;
0137833390999992007012618004-14050-042617FM-12+088299999V0203201N003612200019N0100001N1+02991+01831100731ADDGF102991021021004501001001MA1999999091341MD1999999+0001REMSYN070AAXX  26184 83339 32497 23207 10299 20183 39134 40073 82200 333 58000;
0203833390999992007012700004-14050-042617FM-12+088299999V0201401N000512200019N0020001N1+02451+01641100891ADDGF102991011021004501021001KA1240M+03041MA1999999999999MD1999999-0021REMSYN088AAXX  27004 83339 32495 21401 10245 20164 30140 40089 81220 333 10304 29060 55117 59002;EQDQ01+101403APOSP Q02 101403APOSP 
0156833390999992007012712004-14050-042617FM-12+088299999V0200501N002110450019N0100001N1+02391+01971101071ADDGF105991041021004501021001KA1240N+01901MA1999999091561MD1999999-0021REMSYN076AAXX  27124 83339 32497 50504 10239 20197 39156 40107 84220 333 20190 59002;
0137833390999992007012718004-14050-042617FM-12+088299999V0200901N002112200019N0100001N1+02951+01591100701ADDGF104991031021004501021001MA1999999091291MD1999999-0051REMSYN070AAXX  27184 83339 32497 40904 10295 20159 39129 40070 83220 333 59005;
0156833390999992007012812004-14050-042617FM-12+088299999V0200901N001010042019N0100001N1+02311+01831101221ADDGF106991051011004501021001KA1240N+02081MA1999999091701MD1999999+0141REMSYN076AAXX  28124 83339 32497 60902 10231 20183 39170 40122 85120 333 20208 58014;
0137833390999992007012818004-14050-042617FM-12+088299999V0203201N002110042019N0100001N1+02851+01821100771ADDGF106991061021004501001001MA1999999091351MD1999999+0061REMSYN070AAXX  28184 83339 32497 63204 10285 20182 39135 40077 86200 333 58006;
0168833390999992007012900004-14050-042617FM-12+088299999V0209999C000010042019N0020001N1+02331+01941101031ADDGF106991051021004501031001KA1240M+02981MA1999999091491MD1999999+0091REMSYN088AAXX  29004 83339 32495 60000 10233 20194 39149 40103 85230 333 10298 29070 55032 58009;
0156833390999992007012912004-14050-042617FM-12+088299999V0203601N002612200019N0100001N1+02491+01941101191ADDGF104991031021004501031001KA1240N+02041MA1999999091671MD1999999-0031REMSYN076AAXX  29124 83339 32497 43605 10249 20194 39167 40119 83230 333 20204 59003;
0182833390999992007012918004-14050-042617FM-12+088299999V0202301N001510042019N0040001N1+02531+02071100821ADDAA106003091AY191061AY261061GF107991061021004501021999MA1999999091321MD1999999-0031MW1171REMSYN082AAXX  29184 83339 21496 72303 10253 20207 39132 40082 71796 8622/ 333 59003 60031;
0196833390999992007013000004-14050-042617FM-12+088299999V0201401N000510042019N0020001N1+02171+01821101021ADDAY101061AY201061GF106991061021004501001001KA1240M+02941MA1999999091501MD1999999+0011MW1101REMSYN094AAXX  30004 83339 31495 61401 10217 20182 39150 40102 71000 86200 333 10294 29078 55052 58001;
0201833390999992007013012004-14050-042617FM-12+088299999V0201401N001510042019N0100001N1+02251+01901101261ADDAA124003091AY161061AY261061GF106991051021004501021001KA1240N+01981MA1999999091651MD1999999-0021MW1101REMSYN088AAXX  30124 83339 21497 61403 10225 20190 39165 40126 71066 85220 333 20198 59002 60034;
0182833390999992007013018004-14050-042617FM-12+088299999V0203601N002610450019N0100001N1+02331+01911100971ADDAA106023191AY191061AY261061GF105991041021004501021001MA1999999091391MD1999999+0071MW1601REMSYN082AAXX  30184 83339 21497 53605 10233 20191 39139 40097 76096 84220 333 58007 60231;
0213833390999992007013100004-14050-042617FM-12+088299999V0200901N000510042019N0020001N1+02151+01801101011ADDAA106000591AY161061AY261061GF108991081051004501999999KA1240M+02831MA1999999091431MD1999999-0071MW1101REMSYN100AAXX  31004 83339 21495 80901 10215 20180 39143 40101 71066 885// 333 10283 29080 55032 59007 69941;
0201833390999992007013112004-14050-042617FM-12+088299999V0201401N001510042019N0100001N1+02231+01941101131ADDAA124023991AY161061AY261061GF106991061021004501001001KA1240N+01901MA1999999091541MD1999999-0111MW1101REMSYN088AAXX  31124 83339 21497 61403 10223 20194 39154 40113 71066 86200 333 20190 59011 60244;
0137833390999992007013118004-14050-042617FM-12+088299999V0203601N002610042019N0100001N1+02891+01731100661ADDGF105991051021004501001001MA1999999091211MD1999999-0181REMSYN070AAXX  31184 83339 32497 53605 10289 20173 39121 40066 85200 333 59018;
0168833390999992007020100004-14050-042617FM-12+088299999V0201401N001510042019N0020001N1+02371+01931100841ADDGF106991061021004501001001KA1240M+03041MA1999999091321MD1999999-0111REMSYN088AAXX  01004 83339 32495 61403 10237 20193 39132 40084 86200 333 10304 29072 55058 59011;
0156833390999992007020112004-14050-042617FM-12+088299999V0200501N001510042019N0040001N1+02251+01801101141ADDGF107991061021004501021999KA1240N+02121MA1999999091591MD1999999+0011REMSYN076AAXX  01124 83339 32496 70503 10225 20180 39159 40114 8622/ 333 20212 58001;
0137833390999992007020118004-14050-042617FM-12+088299999V0201801N000510042019N0100001N1+02751+01701100731ADDGF106991061021004501001001MA1999999091301MD1999999+0091REMSYN070AAXX  01184 83339 32497 61801 10275 20170 39130 40073 86200 333 58009;
0168833390999992007020200004-14050-042617FM-12+088299999V0202301N000510042019N0020001N1+02431+01841100901ADDGF106991061021004501001001KA1240M+02901MA1999999091391MD1999999+0071REMSYN088AAXX  02004 83339 32495 62301 10243 20184 39139 40090 86200 333 10290 29067 55020 58007;
0156833390999992007020212004-14050-042617FM-12+088299999V0203201N003110042019N0100001N1+02271+01881101121ADDGF106991061021004501001001KA1240N+02161MA1999999091591MD1999999+0001REMSYN076AAXX  02124 83339 32497 63206 10227 20188 39159 40112 86200 333 20216 58000;
0182833390999992007020218004-14050-042617FM-12+088299999V0203601N002610042019N0040001N1+02091+01891101001ADDAA106005191AY161061AY261061GF108991081051004501999999MA1999999091401MD1999999+0101MW1171REMSYN082AAXX  02184 83339 21496 83605 10209 20189 39140 40100 71766 885// 333 58010 60051;
0213833390999992007020300004-14050-042617FM-12+088299999V0209999C000010042019N0020001N1+02031+01721101041ADDAA106005191AY161061AY261061GF106991051021004501031001KA1240M+02921MA1999999091441MD1999999+0051MW1101REMSYN100AAXX  03004 83339 21495 60000 10203 20172 39144 40104 71066 85230 333 10292 29085 55035 58005 60051;
0201833390999992007020312004-14050-042617FM-12+088299999V0209999C000010042019N0040001N1+02051+01911101241ADDAA124014091AY161061AY261061GF108991081051004501999999KA1240N+01921MA1999999091581MD1999999-0011MW1101REMSYN088AAXX  03124 83339 21496 80000 10205 20191 39158 40124 71066 885// 333 20192 59001 60144;
0182833390999992007020318004-14050-042617FM-12+088299999V0209999C000010042019N0040001N1+02391+01971100901ADDAA106014091AY161061AY221061GF107991061021004501021999MA1999999091331MD1999999-0071MW1021REMSYN082AAXX  03184 83339 21496 70000 10239 20197 39133 40090 70262 8622/ 333 59007 60141;
0215833390999992007020400004-14050-042617FM-12+088299999V0209999C000010042019N0020001N1+02191+01971101061ADDAY101061AY201061GF108991999021004501001001KA1240M+02421MA1999999091441MD1999999+0001MW1101REMSYN094AAXX  04004 83339 31495 80000 10219 20197 39144 40106 71000 86200 333 10242 29086 55003 58000;EQDQ01+000062SCOTLC
0201833390999992007020412004-14050-042617FM-12+088299999V0203601N002610042019N0040001N1+01991+01931101191ADDAA124022191AY161061AY221061GF108991081051004501999999KA1240N+01941MA1999999091551MD1999999-0031MW1601REMSYN088AAXX  04124 83339 21496 83605 10199 20193 39155 40119 76062 885// 333 20194 59003 60224;
0182833390999992007020418004-14050-042617FM-12+088299999V0200901N004610042019N0040001N1+02171+01971100911ADDAA106003091AY161061AY261061GF108991081051004501999999MA1999999091301MD1999999-0031MW1601REMSYN082AAXX  04184 83339 21496 80909 10217 20197 39130 40091 76066 885// 333 59003 60031;
0213833390999992007020500004-14050-042617FM-12+088299999V0209999C000010042019N0010001N1+02091+02011101171ADDAA106007191AY161061AY221061GF108991081051004501999999KA1240M+02521MA1999999091521MD1999999+0081MW1601REMSYN100AAXX  05004 83339 21494 80000 10209 20201 39152 40117 76062 885// 333 10252 29094 55002 58008 60071;
0201833390999992007020512004-14050-042617FM-12+088299999V0209999C000010450019N0020001N1+01791+01671101591ADDAA124016091AY161061AY261061GF108991041071004501021999KA1240N+01741MA1999999091851MD1999999+0301MW1601REMSYN088AAXX  05124 83339 21495 80000 10179 20167 39185 40159 76066 8472/ 333 20174 58030 60164;
0182833390999992007020518004-14050-042617FM-12+088299999V0209999C000010042019N0020001N1+01981+01831101311ADDAA106003091AY161061AY261061GF108991051021004501021999MA1999999091601MD1999999+0301MW1601REMSYN082AAXX  05184 83339 21495 80000 10198 20183 39160 40131 76066 8522/ 333 58030 60031;
0213833390999992007020600004-14050-042617FM-12+088299999V0209999C000010042019N0020001N1+01961+01891101351ADDAA106001091AY161061AY261061GF108991051021004501021999KA1240M+02161MA1999999091601MD1999999+0081MW1401REMSYN100AAXX  06004 83339 21495 80000 10196 20189 39160 40135 74066 8522/ 333 10216 29094 55000 58008 60011;
0201833390999992007020612004-14050-042617FM-12+088299999V0200901N005110042019N0020001N1+02021+01941101361ADDAA124004191AY161061AY241061GF108991051021004501021999KA1240N+01761MA1999999091661MD1999999-0091MW1401REMSYN088AAXX  06124 83339 21495 80910 10202 20194 39166 40136 74064 8522/ 333 20176 59009 60044;
0169833390999992007020618004-14050-042617FM-12+088299999V0201401N005111050019N0100001N1+02631+01801100911ADDAY141061AY221061GF105991021021004501031011MD1999999-0241MW1021REMSYN076AAXX  06184 83339 31497 51410 10263 20180 30136 40091 70242 82231 333 59024;EQDQ01+101363APOSP 
0168833390999992007020700004-14050-042617FM-12+088299999V0201401N001510042019N0020001N1+02331+01671101131ADDGF108991051021004501031999KA1240M+02701MA1999999091521MD1999999-0081REMSYN088AAXX  07004 83339 32495 81403 10233 20167 39152 40113 8523/ 333 10270 29072 55054 59008;
0156833390999992007020712004-14050-042617FM-12+088299999V0201401N003610042019N0100001N1+02221+01861101271ADDGF106991061021004501001001KA1240N+01911MA1999999091681MD1999999-0021REMSYN076AAXX  07124 83339 32497 61407 10222 20186 39168 40127 86200 333 20191 59002;
0137833390999992007020718004-14050-042617FM-12+088299999V0200901N004112200019N0100001N1+02671+01781100901ADDGF103991021021004501001011MA1999999091411MD1999999+0051REMSYN070AAXX  07184 83339 32497 30908 10267 20178 39141 40090 82201 333 58005;
0178833390999992007020800004-14050-042617FM-12+088299999V0201401N002612200019N0020001N1+02291+01651101101ADDGA1001+999999999GF100991001001999999001001KA1240M+02781MA1999999091541MD1999999+0021REMSYN082AAXX  08004 83339 32995 01405 10229 20165 39154 40110 333 10278 29068 55100 58002;
0156833390999992007020812004-14050-042617FM-12+088299999V0200901N004110042019N0100001N1+02161+01741101371ADDGF106991061021004501001001KA1240N+01901MA1999999091751MD1999999+0071REMSYN076AAXX  08124 83339 32497 60908 10216 20174 39175 40137 86200 333 20190 58007;
0137833390999992007020818004-14050-042617FM-12+088299999V0200901N003112200019N0100001N1+02711+01821100981ADDGF103991021011004501001011MA1999999091481MD1999999+0071REMSYN070AAXX  08184 83339 32497 30906 10271 20182 39148 40098 82101 333 58007;
0178833390999992007020900004-14050-042617FM-12+088299999V0201401N005112200019N0020001N1+02291+01791101191ADDGA1001+999999999GF100991001001999999001001KA1240M+02811MA1999999091621MD1999999+0081REMSYN082AAXX  09004 83339 32995 01410 10229 20179 39162 40119 333 10281 29070 55112 58008;
0156833390999992007020912004-14050-042617FM-12+088299999V0200901N004110042019N0100001N1+02131+01881101551ADDGF106991061021004501001001KA1240N+01941MA1999999091921MD1999999+0171REMSYN076AAXX  09124 83339 32497 60908 10213 20188 39192 40155 86200 333 20194 58017;
0137833390999992007020918004-14050-042617FM-12+088299999V0200901N004112200019N0100001N1+02811+01831101101ADDGF102991021011004501001001MA1999999091661MD1999999+0181REMSYN070AAXX  09184 83339 32497 20908 10281 20183 39166 40110 82100 333 58018;
0178833390999992007021000004-14050-042617FM-12+088299999V0200901N006212200019N0020001N1+02271+01961101411ADDGA1001+999999999GF100991001001999999001001KA1240M+02841MA1999999091791MD1999999+0171REMSYN082AAXX  10004 83339 32995 00912 10227 20196 39179 40141 333 10284 29076 55091 58017;
0156833390999992007021012004-14050-042617FM-12+088299999V0200501N003110042019N0100001N1+02161+01921101571ADDGF108991051021004501021999KA1240N+01941MA1999999091941MD1999999+0021REMSYN076AAXX  10124 83339 32497 80506 10216 20192 39194 40157 8522/ 333 20194 58002;
0137833390999992007021018004-14050-042617FM-12+088299999V0200901N003612200019N0100001N1+02811+01861101101ADDGF102991021021004501001001MA1999999091611MD1999999-0051REMSYN070AAXX  10184 83339 32497 20907 10281 20186 39161 40110 82200 333 59005;
0178833390999992007021100004-14050-042617FM-12+088299999V0201401N002612200019N0020001N1+02421+01791101151ADDGA1001+999999999GF100991001001999999001001KA1240M+02861MA1999999091601MD1999999-0191REMSYN082AAXX  11004 83339 32995 01405 10242 20179 39160 40115 333 10286 29069 55083 59019;
0156833390999992007021112004-14050-042617FM-12+088299999V0200901N002112200019N0100001N1+02321+01961101351ADDGF104991021021004501031001KA1240N+01921MA1999999091801MD1999999-0141REMSYN076AAXX  11124 83339 32497 40904 10232 20196 39180 40135 82230 333 20192 59014;
0137833390999992007021118004-14050-042617FM-12+088299999V0201801N002610042019N0100001N1+02871+01971100791ADDGF106991061021004501001001MA1999999091351MD1999999-0261REMSYN070AAXX  11184 83339 32497 61805 10287 20197 39135 40079 86200 333 59026;
0213833390999992007021200004-14050-042617FM-12+088299999V0201801N001512200019N0020001N1+02421+01941100911ADDAA106007991AY161061AY221061GF102991021021004501001001KA1240M+03101MA1999999091421MD1999999-0181MW1021REMSYN100AAXX  12004 83339 21495 21803 10242 20194 39142 40091 70262 82200 333 10310 29071 55074 59018 60081;
0201833390999992007021212004-14050-042617FM-12+088299999V0203601N006212200019N0100001N1+02491+01941100951ADDAA124007991AY161061AY261061GF102991021021004501001001KA1240N+02081MA1999999091551MD1999999-0251MW1021REMSYN088AAXX  12124 83339 21497 23612 10249 20194 39155 40095 70266 82200 333 20208 59025 60084;
0137833390999992007021218004-14050-042617FM-12+088299999V0203601N002610450019N0100001N1+02891+01941100551ADDGF105991041021004501031001MA1999999091151MD1999999-0201REMSYN070AAXX  12184 83339 32497 53605 10289 20194 39115 40055 84230 333 59020;
0213833390999992007021300004-14050-042617FM-12+088299999V0209999C000012200019N0020001N1+02191+01841100831ADDAA106002091AY191061AY261061GF102991021021004501001001KA1240M+02981MA1999999091331MD1999999-0091MW1101REMSYN100AAXX  13004 83339 21495 20000 10219 20184 39133 40083 71096 82200 333 10298 29073 55091 59009 60021;
0201833390999992007021312004-14050-042617FM-12+088299999V0200901N001510042019N0040001N1+01931+01871101151ADDAA124026991AY191061AY261061GF108991081051004501999999KA1240N+01861MA1999999091501MD1999999-0051MW1101REMSYN088AAXX  13124 83339 21496 80903 10193 20187 39150 40115 71096 885// 333 20186 59005 60274;
0137833390999992007021318004-14050-042617FM-12+088299999V0201401N003110042019N0100001N1+02331+01941100781ADDGF106991051021004501021001MA1999999091201MD1999999+0051REMSYN070AAXX  13184 83339 32497 61406 10233 20194 39120 40078 85220 333 58005;
0196833390999992007021400004-14050-042617FM-12+088299999V0202301N001510042019N0020001N1+02151+01741101041ADDAY101061AY201061GF108991081051004501999999KA1240M+02471MA1999999091401MD1999999+0071MW1101REMSYN094AAXX  14004 83339 31495 82303 10215 20174 39140 40104 71000 885// 333 10247 29084 55004 58007;
0201833390999992007021412004-14050-042617FM-12+088299999V0203601N000510042019N0040001N1+02091+01911101031ADDAA124036191AY191061AY261061GF108991081051004501999999KA1240N+01801MA1999999091411MD1999999-0091MW1101REMSYN088AAXX  14124 83339 21496 83601 10209 20191 39141 40103 71096 885// 333 20180 59009 60364;
0182833390999992007021418004-14050-042617FM-12+088299999V0203601N001510042019N0100001N1+02531+01741100571ADDAA106003091AY161061AY261061GF106991051021004501021001MA1999999091051MD1999999-0151MW1021REMSYN082AAXX  14184 83339 21497 63603 10253 20174 39105 40057 70266 85220 333 59015 60031;
0213833390999992007021500004-14050-042617FM-12+088299999V0200501N000510042019N0020001N1+02051+01871100991ADDAA106007991AY161061AY211061GF108991081051004501999999KA1240M+02601MA1999999091351MD1999999-0051MW1601REMSYN100AAXX  15004 83339 21495 80501 10205 20187 39135 40099 76061 885// 333 10260 29083 55010 59005 60081;
0201833390999992007021512004-14050-042617FM-12+088299999V0200501N001510042019N0040001N1+02111+01911100991ADDAA124013091AY161061AY261061GF107991061021004501031999KA1240N+01941MA1999999091371MD1999999-0041MW1101REMSYN088AAXX  15124 83339 21496 70503 10211 20191 39137 40099 71066 8623/ 333 20194 59004 60134;
0213833390999992007021600004-14050-042617FM-12+088299999V0209999C000012200019N0020001N1+02091+01911100891ADDAA106001091AY161061AY261061GF103991031021004501001001KA1240M+02521MA1999999091281MD1999999-0071MW1101REMSYN100AAXX  16004 83339 21495 30000 10209 20191 39128 40089 71066 83200 333 10252 29086 55009 59007 60011;
0201833390999992007021612004-14050-042617FM-12+088299999V0203601N000510042019N0040001N1+02091+01951101021ADDAA124008991AY161061AY261061GF108991081051004501999999KA1240N+01961MA1999999091401MD1999999+0031MW1101REMSYN088AAXX  16124 83339 21496 83601 10209 20195 39140 40102 71066 885// 333 20196 58003 60094;
0182833390999992007021618004-14050-042617FM-12+088299999V0200501N003110042019N0040001N1+02131+01971100821ADDAA106002091AY161061AY261061GF108991081051004501999999MA1999999091201MD1999999+0081MW1101REMSYN082AAXX  16184 83339 21496 80506 10213 20197 39120 40082 71066 885// 333 58008 60021;
0201833390999992007021712004-14050-042617FM-12+088299999V0200901N004110042019N0040001N1+02051+01911101011ADDAA124003091AY161061AY261061GF108991081051004501999999KA1240N+01901MA1999999091351MD1999999-0051MW1101REMSYN088AAXX  17124 83339 21496 80908 10205 20191 39135 40101 71066 885// 333 20190 59005 60034;
0182833390999992007021718004-14050-042617FM-12+088299999V0202301N003110042019N0100001N1+02571+01831100601ADDAA106000591AY161061AY261061GF105991051021004501001001MA1999999091081MD1999999-0121MW1021REMSYN082AAXX  17184 83339 21497 52306 10257 20183 39108 40060 70266 85200 333 59012 69961;
0196833390999992007021800004-14050-042617FM-12+088299999V0200501N000512200019N0020001N1+02191+01761100891ADDAY101061AY201061GF102991021021004501001001KA1240M+02701MA1999999091281MD1999999-0031MW1131REMSYN094AAXX  18004 83339 31495 20501 10219 20176 39128 40089 71300 82200 333 10270 29078 55055 59003;
0201833390999992007021812004-14050-042617FM-12+088299999V0201401N002612200019N0100001N1+02251+01861100911ADDAA124000591AY161061AY261061GF102991021021004501001001KA1240N+01831MA1999999091341MD1999999-0011MW1021REMSYN088AAXX  18124 83339 21497 21405 10225 20186 39134 40091 70266 82200 333 20183 59001 69964;
0137833390999992007021818004-14050-042617FM-12+088299999V0200901N003110042019N0100001N1+02551+01781100561ADDGF106991051021004501021001MA1999999091061MD1999999-0021REMSYN070AAXX  18184 83339 32497 60906 10255 20178 39106 40056 85220 333 59002;
0201833390999992007021912004-14050-042617FM-12+088299999V0201401N001010042019N0100001N1+02151+01021100961ADDAA124001091AY161061AY221061GF106991061021004501001001KA1240N+02041MA1999999091381MD1999999+0041MW1021REMSYN088AAXX  19124 83339 21497 61402 10215 20102 39138 40096 70262 86200 333 20204 58004 60014;
0137833390999992007021918004-14050-042617FM-12+088299999V0201401N003110042019N0100001N1+02511+02021100631ADDGF106991061021004501001001MA1999999091131MD1999999+0071REMSYN070AAXX  19184 83339 32497 61406 10251 20202 39113 40063 86200 333 58007;
0232833390999992007022000004-14050-042617FM-12+088299999V0201401N003112200019N0020001N1+02161+01991100921ADDAA106000091AY161061AY221061GF103991031021004501001001KA1240M+02641MA1999999091331MD1999999+0081MW1021REMSYN100AAXX  20004 83339 21495 31406 10216 20199 39133 40092 70262 83200 333 10264 29087 55020 58008 69921;EQDQ01  00002PRCP06
0220833390999992007022012004-14050-042617FM-12+088299999V0200901N003110042019N0100001N1+02171+01951101101ADDAA124000091AY161061AY221061GF106991061021004501001001KA1240N+01961MA1999999091481MD1999999+0111MW1021REMSYN088AAXX  20124 83339 21497 60906 10217 20195 39148 40110 70262 86200 333 20196 58011 69924;EQDQ01  00002PRCP24
0137833390999992007022018004-14050-042617FM-12+088299999V0200901N006212200019N0100001N1+02791+01751100681ADDGF105991041021004501001041MA1999999091211MD1999999+0081REMSYN070AAXX  20184 83339 32497 50912 10279 20175 39121 40068 84204 333 58008;
0196833390999992007022100004-14050-042617FM-12+088299999V0201401N002110042019N0020001N1+02171+01971101091ADDAY121061AY221061GF105991051021004501001001KA1240M+02821MA1999999091501MD1999999+0171MW1131REMSYN094AAXX  21004 83339 31495 51404 10217 20197 39150 40109 71322 85200 333 10282 29075 55069 58017;
0156833390999992007022112004-14050-042617FM-12+088299999V0201401N003610042019N0100001N1+02071+01841101331ADDGF106991061021004501001001KA1240N+01861MA1999999091681MD1999999+0191REMSYN076AAXX  21124 83339 32497 61407 10207 20184 39168 40133 86200 333 20186 58019;
0137833390999992007022118004-14050-042617FM-12+088299999V0200901N005710450019N0100001N1+02631+01881100931ADDGF105991031021004501031001MA1999999091401MD1999999+0191REMSYN070AAXX  21184 83339 32497 50911 10263 20188 39140 40093 83230 333 58019;
0187833390999992007022200004-14050-042617FM-12+088299999V0200901N004112200019N0020001N1+02051+01871101351ADDGF101991999021004501001001KA1240M+02701MA1999999091681MD1999999+0181REMSYN088AAXX  22004 83339 32495 10908 10205 20187 39168 40135 85200 333 10270 29082 55057 58018;EQDQ01+000052SCOTLC
0220833390999992007022212004-14050-042617FM-12+088299999V0200901N006710450019N0020001N1+01931+01871101631ADDAA124000091AY161061AY221061GF108991041051004501021999KA1240N+01861MA1999999091911MD1999999+0231MW1401REMSYN088AAXX  22124 83339 21495 80913 10193 20187 39191 40163 74062 8452/ 333 20186 58023 69924;EQDQ01  00002PRCP24
0182833390999992007022218004-14050-042617FM-12+088299999V0200501N004110042019N0040001N1+02091+01911101391ADDAA106002091AY191061AY261061GF108991081051004501999999MA1999999091691MD1999999+0291MW1601REMSYN082AAXX  22184 83339 21496 80508 10209 20191 39169 40139 76096 885// 333 58029 60021;
0213833390999992007022300004-14050-042617FM-12+088299999V0201401N003612200019N0020001N1+01871+01761101631ADDAA106014091AY161061AY221061GF103991031021004501001001KA1240M+02561MA1999999091871MD1999999+0191MW1021REMSYN100AAXX  23004 83339 21495 31407 10187 20176 39187 40163 70262 83200 333 10256 29093 55036 58019 60141;
0201833390999992007022312004-14050-042617FM-12+088299999V0200901N006710042019N0100001N1+01931+01811101681ADDAA124017091AY161061AY221061GF106991061021004501001001KA1240N+01781MA1999999091921MD1999999+0011MW1021REMSYN088AAXX  23124 83339 21497 60913 10193 20181 39192 40168 70262 86200 333 20178 58001 60174;
0137833390999992007022318004-14050-042617FM-12+088299999V0200901N003612200019N0100001N1+02531+01761101471ADDGF103991031021004501001001MA1999999091691MD1999999+0001REMSYN070AAXX  23184 83339 32497 30907 10253 20176 39169 40147 83200 333 58000;
0168833390999992007022400004-14050-042617FM-12+088299999V0200901N004612200019N0020001N1+02171+01761101511ADDGF104991041021004501001001KA1240M+02601MA1999999091831MD1999999-0041REMSYN088AAXX  24004 83339 32495 40909 10217 20176 39183 40151 84200 333 10260 29077 55080 59004;
0156833390999992007022412004-14050-042617FM-12+088299999V0200901N004110042019N0100001N1+02021+01781101601ADDGF106991061021004501001001KA1240N+01811MA1999999091931MD1999999+0011REMSYN076AAXX  24124 83339 32497 60908 10202 20178 39193 40160 86200 333 20181 58001;
0137833390999992007022418004-14050-042617FM-12+088299999V0200901N003112200019N0100001N1+02551+01801101241ADDGF104991041021004501001001MA1999999091651MD1999999-0041REMSYN070AAXX  24184 83339 32497 40906 10255 20180 39165 40124 84200 333 59004;
0168833390999992007022500004-14050-042617FM-12+088299999V0209999C000010450019N0020001N1+02181+01781101371ADDGF106991031021004501031001KA1240M+02621MA1999999091721MD1999999-0111REMSYN088AAXX  25004 83339 32495 60000 10218 20178 39172 40137 83230 333 10262 29076 55090 59011;
0137833390999992007022518004-14050-042617FM-12+088299999V0200901N001010042019N0100001N1+02671+01941100981ADDGF106991061021004501001001MA1999999091461MD1999999-0191REMSYN070AAXX  25184 83339 32497 60902 10267 20194 39146 40098 86200 333 59019;
0168833390999992007022600004-14050-042617FM-12+088299999V0201401N002612200019N0020001N1+02201+01901101241ADDGF106991041021004501001011KA1240M+02781MA1999999091621MD1999999-0101REMSYN088AAXX  26004 83339 32495 61405 10220 20190 39162 40124 84201 333 10278 29079 55060 59010;
0184833390999992007022612004-14050-042617FM-12+088299999V0201401N004110042019N0040001N1+02191+01321101861ADDAY101061AY201061GF106991051021004501021001KA1240N+02001MA1999999091711MD1999999-0131MW1101REMSYN082AAXX  26124 83339 31496 61408 10219 20132 39171 40186 71000 85220 333 20200 59013;
0156833390999992007022618004-14050-042617FM-12+088299999V0200901N002610450019N0100001N1+02731+01821100922ADDGF105991041021004501021001MA1999999091431MD1999999-0031REMSYN070AAXX  26184 83339 32497 50905 10273 20182 39143 40092 84220 333 59003;EQDQ01+100923APOSLP
0248833390999992007022700004-14050-042617FM-12+088299999V0200501N004610042019N0020001N1+02091+01821101241ADDAA106001091AY161061AY261061GF108991081051004501999999KA1240M+02801MA1999999999999MD1999999+0001MW1101REMSYN100AAXX  27004 83339 21495 80509 10209 20182 30162 40124 71066 885// 333 10280 29078 55078 58000 60011;EQDQ01+101623APOSP Q02 101623APOSP 
0220833390999992007022712004-14050-042617FM-12+088299999V0201401N005110042019N0100001N1+01031+99999101381ADDAA124001091AY161061AY261061GF106991061021004501001001KA1240N+99999MA1999999091731MD1999999+0021MW1101REMSYN088AAXX  27124 83339 21497 61410 10103 20174 39173 40138 71066 86200 333 20188 58002 60014;EQDQ01 +01882ATMN  
0137833390999992007022718004-14050-042617FM-12+088299999V0200901N004612200019N0100001N1+02551+01761101031ADDGF104991041021004501001001MA1999999091471MD1999999+0041REMSYN070AAXX  27184 83339 32497 40909 10255 20176 39147 40103 84200 333 58004;
0232833390999992007022800004-14050-042617FM-12+088299999V0200501N006210042019N0020001N1+02231+01651101221ADDAA106000091AY161061AY261061GF106991051021004501021001KA1240M+02701MA1999999091601MD1999999-0021MW1021REMSYN100AAXX  28004 83339 21495 60512 10223 20165 39160 40122 70266 85220 333 10270 29072 55096 59002 69921;EQDQ01  00002PRCP06
0137833390999992007022818004-14050-042617FM-12+088299999V0200501N005712200019N0100001N1+02551+01571101041ADDGF102991021021004501001001MA1999999091501MD1999999+0031REMSYN070AAXX  28184 83339 32497 20511 10255 20157 39150 40104 82200 333 58003;
0178833390999992007030100004-14050-042617FM-12+088299999V0200901N004612200019N0020001N1+02231+01731101191ADDGA1001+999999999GF100991001001999999001001KA1240M+02661MA1999999091501MD1999999-0101REMSYN082AAXX  01004 83339 32995 00909 10223 20173 39150 40119 333 10266 29074 55084 59010;
0201833390999992007030112004-14050-042617FM-12+088299999V0203201N004610042019N0100001N1+01971+01721101331ADDAA124002091AY161061AY261061GF106991061021004501001001KA1240N+01821MA1999999091681MD1999999-0051MW1101REMSYN088AAXX  01124 83339 21497 63209 10197 20172 39168 40133 71066 86200 333 20182 59005 60024;
0137833390999992007030118004-14050-042617FM-12+088299999V0200901N004612200019N0100001N1+02431+01621101081ADDGF103991031021004501001001MA1999999091491MD1999999-0011REMSYN070AAXX  01184 83339 32497 30909 10243 20162 39149 40108 83200 333 59001;
0201833390999992007030212004-14050-042617FM-12+088299999V0201401N002610042019N0040001N1+01891+01831101391ADDAA124000591AY161061AY261061GF108991081051004501999999KA1240N+01801MA1999999091691MD1999999+0011MW1501REMSYN088AAXX  02124 83339 21496 81405 10189 20183 39169 40139 75066 885// 333 20180 58001 69944;
0182833390999992007030218004-14050-042617FM-12+088299999V0200501N003112200019N0100001N1+02471+01881101061ADDAA106007991AY161061AY261061GF103991021021004501031001MA1999999091471MD1999999-0021MW1021REMSYN082AAXX  02184 83339 21497 30506 10247 20188 39147 40106 70266 82230 333 59002 60081;
0213833390999992007030300004-14050-042617FM-12+088299999V0203601N005110042019N0020001N1+02051+01781101221ADDAA106002091AY191061AY261061GF106991051021004501021001KA1240M+02561MA1999999091521MD1999999+0001MW1101REMSYN100AAXX  03004 83339 41495 63610 10205 20178 39152 40122 71096 85220 333 10256 29084 55039 58000 60021;
0201833390999992007030312004-14050-042617FM-12+088299999V0200501N003610042019N0040001N1+01851+01761101481ADDAA124010991AY161061AY261061GF108991081051004501999999KA1240N+01781MA1999999091751MD1999999+0061MW1501REMSYN088AAXX  03124 83339 21496 80507 10185 20176 39175 40148 75066 885// 333 20178 58006 60114;
0182833390999992007030318004-14050-042617FM-12+088299999V0201401N004110042019N0100001N1+02151+01821101181ADDAA106005191AY161061AY261061GF106991051021004501001021MA1999999091531MD1999999+0061MW1101REMSYN082AAXX  03184 83339 21497 61408 10215 20182 39153 40118 71066 85202 333 58006 60051;
0213833390999992007030400004-14050-042617FM-12+088299999V0200901N003110042019N0020001N1+01971+01771101331ADDAA106000591AY161061AY261061GF105991051021004501001001KA1240M+02401MA1999999091601MD1999999+0081MW1101REMSYN100AAXX  04004 83339 21495 50906 10197 20177 39160 40133 71066 85200 333 10240 29089 55026 58008 69961;
0201833390999992007030412004-14050-042617FM-12+088299999V0201401N005110042019N0040001N1+01871+01661101501ADDAA124006191AY161061AY261061GF107991061021004501021999KA1240N+01721MA1999999091751MD1999999+0001MW1101REMSYN088AAXX  04124 83339 21496 71410 10187 20166 39175 40150 71066 8622/ 333 20172 58000 60064;
0137833390999992007030418004-14050-042617FM-12+088299999V0200901N004612200019N0100001N1+02471+01471101171ADDGF103991031021004501001001MA1999999091551MD1999999+0021REMSYN070AAXX  04184 83339 32497 30909 10247 20147 39155 40117 83200 333 58002;
0168833390999992007030500004-14050-042617FM-12+088299999V0201801N006712200019N0020001N1+02031+01521101301ADDGF102991021021004501001001KA1240M+02541MA1999999091621MD1999999+0021REMSYN088AAXX  05004 83339 32495 21813 10203 20152 39162 40130 82200 333 10254 29072 55087 58002;
0156833390999992007030512004-14050-042617FM-12+088299999V0201401N006210042019N0100001N1+02121+01721101511ADDGF106991061021004501001001KA1240N+01801MA1999999091831MD1999999+0081REMSYN076AAXX  05124 83339 32497 61412 10212 20172 39183 40151 86200 333 20180 58008;
0137833390999992007030518004-14050-042617FM-12+088299999V0200901N003612200019N0100001N1+02451+01711101171ADDGF106991041021004501001041MA1999999091571MD1999999+0021REMSYN070AAXX  05184 83339 32497 60907 10245 20171 39157 40117 84204 333 58002;
0168833390999992007030600004-14050-042617FM-12+088299999V0200901N004110042019N0020001N1+02181+01881101341ADDGF106991061021004501001001KA1240M+02661MA1999999091711MD1999999+0091REMSYN088AAXX  06004 83339 32495 60908 10218 20188 39171 40134 86200 333 10266 29077 55083 58009;
0156833390999992007030612004-14050-042617FM-12+088299999V0201401N004110042019N0100001N1+02051+01871101551ADDGF108991051021004501021999KA1240N+01841MA1999999091881MD1999999+0051REMSYN076AAXX  06124 83339 32497 81408 10205 20187 39188 40155 8522/ 333 20184 58005;
0213833390999992007030700004-14050-042617FM-12+088299999V0200901N004110042019N0020001N1+02041+01871101571ADDAA106000591AY161061AY221061GF108991051021004501021999KA1240M+02591MA1999999091881MD1999999+0171MW1021REMSYN100AAXX  07004 83339 21495 80908 10204 20187 39188 40157 70262 8522/ 333 10259 29083 55040 58017 69961;
0137833390999992007030718004-14050-042617FM-12+088299999V0200501N005110450019N0100001N1+02401+01681101421ADDGF106991021021004501021001MA1999999091781MD1999999+0141REMSYN070AAXX  07184 83339 32497 60510 10240 20168 39178 40142 82220 333 58014;
0168833390999992007030800004-14050-042617FM-12+088299999V0201401N003112200019N0020001N1+02071+01741101431ADDGF102991021011004501001001KA1240M+02441MA1999999091791MD1999999-0091REMSYN088AAXX  08004 83339 32495 21406 10207 20174 39179 40143 82100 333 10244 29076 55030 59009;
0184833390999992007030812004-14050-042617FM-12+088299999V0201401N003610042019N0040001N1+01931+01721101571ADDAY101061AY201061GF106991051021004501021001KA1240N+01761MA1999999091851MD1999999-0191MW1101REMSYN082AAXX  08124 83339 31496 61407 10193 20172 39185 40157 71000 85220 333 20176 59019;
0137833390999992007030818004-14050-042617FM-12+088299999V0200901N003612200019N0100001N1+02491+01621101161ADDGF102991021021004501001001MA1999999091561MD1999999-0221REMSYN070AAXX  08184 83339 32497 20907 10249 20162 39156 40116 82200 333 59022;
0178833390999992007030900004-14050-042617FM-12+088299999V0200901N004112200019N0020001N1+02131+01781101231ADDGA1001+999999999GF100991001001999999001001KA1240M+02621MA1999999091571MD1999999-0221REMSYN082AAXX  09004 83339 32995 00908 10213 20178 39157 40123 333 10262 29077 55076 59022;
0156833390999992007030912004-14050-042617FM-12+088299999V0201401N004610042019N0100001N1+02121+01801101391ADDGF105991051021004501001001KA1240N+01811MA1999999091741MD1999999-0111REMSYN076AAXX  09124 83339 32497 51409 10212 20180 39174 40139 85200 333 20181 59011;
0137833390999992007030918004-14050-042617FM-12+088299999V0201401N005112200019N0100001N1+02531+01801100991ADDGF106991031021004501001011MA1999999091441MD1999999-0131REMSYN070AAXX  09184 83339 32497 61410 10253 20180 39144 40099 83201 333 59013;
0178833390999992007031000004-14050-042617FM-12+088299999V0200901N001512200019N0020001N1+02111+01641101161ADDGA1001+999999999GF100991001001999999001001KA1240M+02641MA1999999091531MD1999999-0041REMSYN082AAXX  10004 83339 32995 00903 10211 20164 39153 40116 333 10264 29074 55070 59004;
0156833390999992007031012004-14050-042617FM-12+088299999V0200901N004110042019N0100001N1+02131+01721101371ADDGF105991051021004501001001KA1240N+01781MA1999999091721MD1999999-0021REMSYN076AAXX  10124 83339 32497 50908 10213 20172 39172 40137 85200 333 20178 59002;
0137833390999992007031018004-14050-042617FM-12+088299999V0200901N004112200019N0100001N1+02631+01481100921ADDGF102991021011004501001001MA1999999091391MD1999999-0051REMSYN070AAXX  10184 83339 32497 20908 10263 20148 39139 40092 82100 333 59005;
0178833390999992007031100004-14050-042617FM-12+088299999V0201401N006712200019N0020001N1+02091+01701101111ADDGA1001+999999999GF100991001001999999001001KA1240M+02711MA1999999091481MD1999999-0051REMSYN082AAXX  11004 83339 32995 01413 10209 20170 39148 40111 333 10271 29071 55109 59005;
0156833390999992007031112004-14050-042617FM-12+088299999V0201401N004610042019N0100001N1+02131+01781101411ADDGF105991051021004501001001KA1240N+01821MA1999999091751MD1999999+0031REMSYN076AAXX  11124 83339 32497 51409 10213 20178 39175 40141 85200 333 20182 58003;
0137833390999992007031118004-14050-042617FM-12+088299999V0201401N004112200019N0100001N1+02771+01551100841ADDGF102991011011004501001011MA1999999091341MD1999999-0051REMSYN070AAXX  11184 83339 32497 21408 10277 20155 39134 40084 81101 333 59005;
0178833390999992007031200004-14050-042617FM-12+088299999V0200901N004612200019N0020001N1+02211+01671101091ADDGA1001+999999999GF100991001001999999001001KA1240M+02791MA1999999091521MD1999999+0041REMSYN082AAXX  12004 83339 32995 00909 10221 20167 39152 40109 333 10279 29067 55103 58004;
0184833390999992007031212004-14050-042617FM-12+088299999V0201401N004110042019N0100001N1+02051+01781101401ADDAY101061AY201061GF106991061021004501001001KA1240N+01821MA1999999091761MD1999999+0011MW1101REMSYN082AAXX  12124 83339 31497 61408 10205 20178 39176 40140 71000 86200 333 20182 58001;
0137833390999992007031218004-14050-042617FM-12+088299999V0200501N004612200019N0100001N1+02611+01481101001ADDGF102991021021004501001001MA1999999091461MD1999999+0121REMSYN070AAXX  12184 83339 32497 20509 10261 20148 39146 40100 82200 333 58012;
0187833390999992007031300004-14050-042617FM-12+088299999V0201401N001019999999N0020001N1+02231+01671101221ADDGF105991999021004501001001KA1240M+02721MA1999999091601MD1999999+0081REMSYN088AAXX  13004 83339 32495 51402 10223 20167 39160 40122 84200 333 10272 29069 55089 58008;EQDQ01+000042SCOTLC
0184833390999992007031312004-14050-042617FM-12+088299999V0200901N004110042019N0040001N1+02031+01741101441ADDAY101061AY201061GF107991061021004501021999KA1240N+01881MA1999999091801MD1999999+0041MW1101REMSYN082AAXX  13124 83339 31496 70908 10203 20174 39180 40144 71000 8622/ 333 20188 58004;
0137833390999992007031318004-14050-042617FM-12+088299999V0203201N003112200019N0100001N1+02551+01601101031ADDGF102991021021004501001001MA1999999091491MD1999999+0031REMSYN070AAXX  13184 83339 32497 23206 10255 20160 39149 40103 82200 333 58003;
0168833390999992007031400004-14050-042617FM-12+088299999V0201401N004112200019N0020001N1+02151+01681101241ADDGF102991021021004501001001KA1240M+02641MA1999999091601MD1999999+0001REMSYN088AAXX  14004 83339 32495 21408 10215 20168 39160 40124 82200 333 10264 29072 55081 58000;
0184833390999992007031412004-14050-042617FM-12+088299999V0200501N004110042019N0040001N1+01971+01761101321ADDAY101061AY201061GF106991051021004501031001KA1240N+01801MA1999999091651MD1999999-0151MW1101REMSYN082AAXX  14124 83339 31496 60508 10197 20176 39165 40132 71000 85230 333 20180 59015;
0137833390999992007031418004-14050-042617FM-12+088299999V0201401N004612200019N0100001N1+02491+01621100981ADDGF103991031021004501001001MA1999999091431MD1999999-0061REMSYN070AAXX  14184 83339 32497 31409 10249 20162 39143 40098 83200 333 59006;
0156833390999992007031512004-14050-042617FM-12+088299999V0201401N003112200019N0100001N1+02171+01611101241ADDGF104991041021004501001001KA1240N+01831MA1999999091621MD1999999-0031REMSYN076AAXX  15124 83339 32497 41406 10217 20161 39162 40124 84200 333 20183 59003;
0137833390999992007031518004-14050-042617FM-12+088299999V0200901N003612200019N0100001N1+02651+01751100901ADDGF102991021021004501001001MA1999999091371MD1999999-0041REMSYN070AAXX  15184 83339 32497 20907 10265 20175 39137 40090 82200 333 59004;
0178833390999992007031600004-14050-042617FM-12+088299999V0201801N000512200019N0020001N1+02191+01631101091ADDGA1001+999999999GF100991001001999999001001KA1240M+02701MA1999999091501MD1999999+0021REMSYN082AAXX  16004 83339 32995 01801 10219 20163 39150 40109 333 10270 29068 55102 58002;
0184833390999992007031612004-14050-042617FM-12+088299999V0201801N001510042019N0100001N1+02151+01821101331ADDAY101061AY201061GF106991051021004501031001KA1240N+01901MA1999999091701MD1999999+0081MW1101REMSYN082AAXX  16124 83339 31497 61803 10215 20182 39170 40133 71000 85230 333 20190 58008;
0137833390999992007031618004-14050-042617FM-12+088299999V0203201N000512200019N0100001N1+02891+01421100741ADDGF104991041021004501001001MA1999999091281MD1999999-0091REMSYN070AAXX  16184 83339 32497 43201 10289 20142 39128 40074 84200 333 59009;
0213833390999992007031700004-14050-042617FM-12+088299999V0203601N001510042019N0020001N1+02111+01911101071ADDAA106011991AY191061AY261061GF108991081051004501999999KA1240M+02981MA1999999091461MD1999999-0041MW1101REMSYN100AAXX  17004 83339 21495 83603 10211 20191 39146 40107 71096 885// 333 10298 29075 55052 59004 60121;
0201833390999992007031712004-14050-042617FM-12+088299999V0202301N000512200019N0100001N1+02391+01911101171ADDAA124011991AY161061AY261061GF102991011021004501001021KA1240N+01821MA1999999091601MD1999999-0101MW1021REMSYN088AAXX  17124 83339 21497 22301 10239 20191 39160 40117 70266 81202 333 20182 59010 60124;
0201833390999992007031812004-14050-042617FM-12+088299999V0200501N000512200019N0100001N1+02391+01751101171ADDAA124001091AY161061AY261061GF102991011021004501001041KA1240N+01861MA1999999091641MD1999999+0041MW1021REMSYN088AAXX  18124 83339 21497 20501 10239 20175 39164 40117 70266 81204 333 20186 58004 60014;
0156833390999992007031912004-14050-042617FM-12+088299999V0200501N001512200019N0100001N1+02391+01931101311ADDGF103991011011004501031001KA1240N+01861MA1999999091761MD1999999+0121REMSYN076AAXX  19124 83339 32497 30503 10239 20193 39176 40131 81130 333 20186 58012;
0137833390999992007031918004-14050-042617FM-12+088299999V0200501N002612200019N0100001N1+02931+01481100881ADDGF106991021021004501001041MA1999999091441MD1999999+0171REMSYN070AAXX  19184 83339 32497 60505 10293 20148 39144 40088 82204 333 58017;
0168833390999992007032000004-14050-042617FM-12+088299999V0209999C000012200019N0020001N1+02311+01871101141ADDGF102991021021004501001001KA1240M+03021MA1999999091611MD1999999+0201REMSYN088AAXX  20004 83339 32495 20000 10231 20187 39161 40114 82200 333 10302 29067 55084 58020;
0156833390999992007032012004-14050-042617FM-12+088299999V0200501N002112200019N0100001N1+02331+01721101271ADDGF103991011011004501031011KA1240N+01801MA1999999091711MD1999999-0051REMSYN076AAXX  20124 83339 32497 30504 10233 20172 39171 40127 81131 333 20180 59005;
0137833390999992007032018004-14050-042617FM-12+088299999V0200501N001511050019N0100001N1+02991+01051100771ADDGF106991011011004501031041MA1999999091341MD1999999-0101REMSYN070AAXX  20184 83339 32497 60503 10299 20105 39134 40077 81134 333 59010;
0178833390999992007032100004-14050-042617FM-12+088299999V0201801N001512200019N0020001N1+02401+01521101041ADDGA1001+999999999GF100991001001999999001001KA1240M+03041MA1999999091521MD1999999-0091REMSYN082AAXX  21004 83339 32995 01803 10240 20152 39152 40104 333 10304 29054 55092 59009;
0156833390999992007032112004-14050-042617FM-12+088299999V0200501N003112200019N0100001N1+02461+01901101081ADDGF102991021011004501001001KA1240N+01911MA1999999091591MD1999999-0121REMSYN076AAXX  21124 83339 32497 20506 10246 20190 39159 40108 82100 333 20191 59012;
0137833390999992007032118004-14050-042617FM-12+088299999V0200901N004612200019N0100001N1+02911+01771100621ADDGF103991031021004501001001MA1999999091221MD1999999-0121REMSYN070AAXX  21184 83339 32497 30909 10291 20177 39122 40062 83200 333 59012;
0178833390999992007032200004-14050-042617FM-12+088299999V0201401N003612200019N0020001N1+02351+01611100971ADDGA1001+999999999GF100991001001999999001001KA1240M+02961MA1999999091441MD1999999-0081REMSYN082AAXX  22004 83339 32995 01407 10235 20161 39144 40097 333 10296 29062 55110 59008;
0156833390999992007032212004-14050-042617FM-12+088299999V0200901N003610042019N0100001N1+02101+01931101291ADDGF108991051021004501021999KA1240N+01921MA1999999091681MD1999999+0091REMSYN076AAXX  22124 83339 32497 80907 10210 20193 39168 40129 8522/ 333 20192 58009;
0137833390999992007032218004-14050-042617FM-12+088299999V0200901N005712200019N0100001N1+02821+01371100721ADDGF102991011011004501001011MA1999999091261MD1999999+0041REMSYN070AAXX  22184 83339 32497 20911 10282 20137 39126 40072 81101 333 58004;
0178833390999992007032300004-14050-042617FM-12+088299999V0201401N001512200019N0020001N1+02331+01691100971ADDGA1001+999999999GF100991001001999999001001KA1240M+02861MA1999999091391MD1999999-0051REMSYN082AAXX  23004 83339 32995 01403 10233 20169 39139 40097 333 10286 29066 55084 59005;
0156833390999992007032312004-14050-042617FM-12+088299999V0200901N003112200019N0100001N1+02251+01731101371ADDGF104991041021004501001001KA1240N+01991MA1999999091801MD1999999+0121REMSYN076AAXX  23124 83339 32497 40906 10225 20173 39180 40137 84200 333 20199 58012;
0137833390999992007032318004-14050-042617FM-12+088299999V0201401N003612200019N0100001N1+02761+01561100951ADDGF102991021011004501001001MA1999999091471MD1999999+0211REMSYN070AAXX  23184 83339 32497 21407 10276 20156 39147 40095 82100 333 58021;
0168833390999992007032400004-14050-042617FM-12+088299999V0201401N004612200019N0020001N1+02231+01601101171ADDGF102991021011004501001001KA1240M+02821MA1999999091601MD1999999+0211REMSYN088AAXX  24004 83339 32495 21409 10223 20160 39160 40117 82100 333 10282 29064 55102 58021;
0156833390999992007032412004-14050-042617FM-12+088299999V0201401N003610042019N0100001N1+02151+01741101451ADDGF106991061021004501001001KA1240N+01891MA1999999091831MD1999999+0031REMSYN076AAXX  24124 83339 32497 61407 10215 20174 39183 40145 86200 333 20189 58003;
0137833390999992007032418004-14050-042617FM-12+088299999V0200901N005112200019N0100001N1+02741+01701100981ADDGF102991011011004501001011MA1999999091481MD1999999+0011REMSYN070AAXX  24184 83339 32497 20910 10274 20170 39148 40098 81101 333 58001;
0178833390999992007032500004-14050-042617FM-12+088299999V0209999C000012200019N0020001N1+02191+01541101261ADDGA1001+999999999GF100991001001999999001001KA1240M+02781MA1999999091641MD1999999+0041REMSYN082AAXX  25004 83339 32995 00000 10219 20154 39164 40126 333 10278 29066 55100 58004;
0156833390999992007032512004-14050-042617FM-12+088299999V0200901N007212200019N0100001N1+02171+01701101391ADDGF104991041021004501001001KA1240N+01921MA1999999091771MD1999999-0061REMSYN076AAXX  25124 83339 32497 40914 10217 20170 39177 40139 84200 333 20192 59006;
0137833390999992007032518004-14050-042617FM-12+088299999V0200901N006712200019N0100001N1+02711+01681100911ADDGF102991021021004501001001MA1999999091421MD1999999-0061REMSYN070AAXX  25184 83339 32497 20913 10271 20168 39142 40091 82200 333 59006;
0178833390999992007032600004-14050-042617FM-12+088299999V0201401N003112200019N0020001N1+02291+01651101061ADDGA1001+999999999GF100991001001999999001001KA1240M+02821MA1999999091501MD1999999-0141REMSYN082AAXX  26004 83339 32995 01406 10229 20165 39150 40106 333 10282 29065 55100 59014;
0184833390999992007032612004-14050-042617FM-12+088299999V0201401N003110042019N0040001N1+02111+01801101311ADDAY101061AY201061GF106991051021004501021001KA1240N+01881MA1999999091701MD1999999-0071MW1101REMSYN082AAXX  26124 83339 31496 61406 10211 20180 39170 40131 71000 85220 333 20188 59007;
0137833390999992007032618004-14050-042617FM-12+088299999V0200901N004612200019N0100001N1+02731+01681100801ADDGF103991031021004501001001MA1999999091321MD1999999-0101REMSYN070AAXX  26184 83339 32497 30909 10273 20168 39132 40080 83200 333 59010;
0178833390999992007032700004-14050-042617FM-12+088299999V0201801N006712200019N0020001N1+02211+01821101111ADDGA1001+999999999GF100991001001999999001001KA1240M+02801MA1999999091501MD1999999+0001REMSYN082AAXX  27004 83339 32995 01813 10221 20182 39150 40111 333 10280 29074 55073 58000;
0156833390999992007032712004-14050-042617FM-12+088299999V0200901N008710042019N0100001N1+02051+01661101261ADDGF105991051021004501001001KA1240N+01781MA1999999091641MD1999999-0061REMSYN076AAXX  27124 83339 32497 50917 10205 20166 39164 40126 85200 333 20178 59006;
0137833390999992007032718004-14050-042617FM-12+088299999V0200501N004112200019N0100001N1+02711+01441100911ADDGF102991021021004501001001MA1999999091401MD1999999+0081REMSYN070AAXX  27184 83339 32497 20508 10271 20144 39140 40091 82200 333 58008;
0178833390999992007032800004-14050-042617FM-12+088299999V0201401N002112200019N0020001N1+02231+01431101121ADDGA1001+999999999GF100991001001999999001001KA1240M+02801MA1999999091511MD1999999+0011REMSYN082AAXX  28004 83339 32995 01404 10223 20143 39151 40112 333 10280 29062 55102 58001;
0156833390999992007032812004-14050-042617FM-12+088299999V0200501N005112200019N0100001N1+02231+01651101301ADDGF103991031021004501001001KA1240N+01821MA1999999091711MD1999999+0071REMSYN076AAXX  28124 83339 32497 30510 10223 20165 39171 40130 83200 333 20182 58007;
0137833390999992007032818004-14050-042617FM-12+088299999V0203201N005112200019N0100001N1+02691+01521100951ADDGF104991031021004501021001MA1999999091441MD1999999+0041REMSYN070AAXX  28184 83339 32497 43210 10269 20152 39144 40095 83220 333 58004;
0168833390999992007032900004-14050-042617FM-12+088299999V0201401N003112200019N0020001N1+02251+01401101091ADDGF102991011021004501001021KA1240M+02761MA1999999091531MD1999999+0021REMSYN088AAXX  29004 83339 32495 21406 10225 20140 39153 40109 81202 333 10276 29069 55106 58002;
0156833390999992007032912004-14050-042617FM-12+088299999V0200901N006210042019N0100001N1+02031+01641101261ADDGF106991061021004501001001KA1240N+01741MA1999999091641MD1999999-0071REMSYN076AAXX  29124 83339 32497 60912 10203 20164 39164 40126 86200 333 20174 59007;
0137833390999992007032918004-14050-042617FM-12+088299999V0201401N006212200019N0100001N1+02631+01371100851ADDGF104991031021004501001041MA1999999091331MD1999999-0111REMSYN070AAXX  29184 83339 32497 41412 10263 20137 39133 40085 83204 333 59011;
0168833390999992007033000004-14050-042617FM-12+088299999V0200901N000512200019N0020001N1+02091+01421101061ADDGF102991011021004501021001KA1240M+02721MA1999999091421MD1999999-0111REMSYN088AAXX  30004 83339 32495 20901 10209 20142 39142 40106 81220 333 10272 29064 55082 59011;
0156833390999992007033012004-14050-042617FM-12+088299999V0200901N004612200019N0100001N1+02231+01731101211ADDGF102991021021004501001001KA1240N+01761MA1999999091591MD1999999-0051REMSYN076AAXX  30124 83339 32497 20909 10223 20173 39159 40121 82200 333 20176 59005;
0137833390999992007033018004-14050-042617FM-12+088299999V0201401N005112200019N0100001N1+02771+01461100751ADDGF102991011021004501001041MA1999999091251MD1999999-0081REMSYN070AAXX  30184 83339 32497 21410 10277 20146 39125 40075 81204 333 59008;
0178833390999992007033100004-14050-042617FM-12+088299999V0201801N001512200019N0020001N1+02251+01531100961ADDGA1001+999999999GF100991001001999999001001KA1240M+02861MA1999999091411MD1999999-0011REMSYN082AAXX  31004 83339 32995 01803 10225 20153 39141 40096 333 10286 29062 55097 59001;
0156833390999992007033112004-14050-042617FM-12+088299999V0200901N003610042019N0100001N1+02351+01851101041ADDGF105991051021004501001001KA1240N+01831MA1999999091501MD1999999-0091REMSYN076AAXX  31124 83339 32497 50907 10235 20185 39150 40104 85200 333 20183 59009;
0137833390999992007033118004-14050-042617FM-12+088299999V0201401N005112200019N0100001N1+02851+01571100721ADDGF102991021021004501001001MA1999999091261MD1999999+0011REMSYN070AAXX  31184 83339 32497 21410 10285 20157 39126 40072 82200 333 58001;
0178833390999992007040100004-14050-042617FM-12+088299999V0209999C000012200019N0020001N1+02351+01551100911ADDGA1001+999999999GF100991001001999999001001KA1240M+02961MA1999999091401MD1999999-0011REMSYN082AAXX  01004 83339 32995 00000 10235 20155 39140 40091 333 10296 29060 55110 59001;
0156833390999992007040112004-14050-042617FM-12+088299999V0201401N003112200019N0100001N1+02471+01781101061ADDGF102991021021004501001001KA1240N+01781MA1999999091551MD1999999+0051REMSYN076AAXX  01124 83339 32497 21406 10247 20178 39155 40106 82200 333 20178 58005;
0137833390999992007040118004-14050-042617FM-12+088299999V0201801N004110450019N0100001N1+02991+01351100721ADDGF105991041021004501021001MA1999999091291MD1999999+0031REMSYN070AAXX  01184 83339 32497 51808 10299 20135 39129 40072 84220 333 58003;
0168833390999992007040200004-14050-042617FM-12+088299999V0200901N003612200019N0020001N1+02371+01431100881ADDGF102991011021004501001021KA1240M+02781MA1999999091391MD1999999-0011REMSYN088AAXX  02004 83339 32495 20907 10237 20143 39139 40088 81202 333 10278 29054 55105 59001;
0175833390999992007040212004-14050-042617FM-12+088299999V0200901N004112200019N0100001N1+02351+01461101221ADDGF102991001001999999001011KA1240N+01801MA1999999091681MD1999999+0131REMSYN076AAXX  02124 83339 32897 20908 10235 20146 39168 40122 80001 333 20180 58013;EQDQ01+022502SCOLCB
0137833390999992007040218004-14050-042617FM-12+088299999V0200501N004612200019N0100001N1+02901+01521100771ADDGF104991031011004501001011MA1999999091321MD1999999+0031REMSYN070AAXX  02184 83339 32497 40509 10290 20152 39132 40077 83101 333 58003;
0178833390999992007040300004-14050-042617FM-12+088299999V0201401N003112200019N0020001N1+02371+01561100991ADDGA1001+999999999GF100991001001999999001001KA1240M+02971MA1999999091471MD1999999+0081REMSYN082AAXX  03004 83339 32995 01406 10237 20156 39147 40099 333 10297 29058 55105 58008;
0156833390999992007040312004-14050-042617FM-12+088299999V0200901N006210042019N0100001N1+02141+01901101291ADDGF106991061021004501001001KA1240N+01911MA1999999091701MD1999999+0021REMSYN076AAXX  03124 83339 32497 60912 10214 20190 39170 40129 86200 333 20191 58002;
0137833390999992007040318004-14050-042617FM-12+088299999V0201401N004612200019N0100001N1+02721+01711100781ADDGF105991041021004501001011MA1999999091321MD1999999+0001REMSYN070AAXX  03184 83339 32497 51409 10272 20171 39132 40078 84201 333 58000;
0168833390999992007040400004-14050-042617FM-12+088299999V0201401N001512200019N0020001N1+02311+01551100971ADDGF104991021011004501001011KA1240M+02781MA1999999091391MD1999999-0081REMSYN088AAXX  04004 83339 32495 41403 10231 20155 39139 40097 82101 333 10278 29066 55065 59008;
0156833390999992007040412004-14050-042617FM-12+088299999V0200901N003612200019N0100001N1+02231+01821101241ADDGF104991031011004501001011KA1240N+01761MA1999999091651MD1999999-0051REMSYN076AAXX  04124 83339 32497 40907 10223 20182 39165 40124 83101 333 20176 59005;
0137833390999992007040418004-14050-042617FM-12+088299999V0201401N004611050019N0100001N1+02731+01701100741ADDGF105991021011004501071011MA1999999091311MD1999999-0011REMSYN070AAXX  04184 83339 32497 51409 10273 20170 39131 40074 82171 333 59001;
0168833390999992007040500004-14050-042617FM-12+088299999V0209999C000010450019N0020001N1+02251+01751100961ADDGF106991021011004501071011KA1240M+02801MA1999999091411MD1999999+0021REMSYN088AAXX  05004 83339 32495 60000 10225 20175 39141 40096 82171 333 10280 29065 55045 58002;
0175833390999992007040512004-14050-042617FM-12+088299999V0200501N001512200019N0100001N1+02431+01761101231ADDGF102991001001999999001041KA1240N+01791MA1999999091691MD1999999+0041REMSYN076AAXX  05124 83339 32897 20503 10243 20176 39169 40123 80004 333 20179 58004;EQDQ01+022502SCOLCB
0137833390999992007040518004-14050-042617FM-12+088299999V0201401N001512200019N0100001N1+02951+01421100791ADDGF105991041021004501001011MA1999999091351MD1999999+0041REMSYN070AAXX  05184 83339 32497 51403 10295 20142 39135 40079 84201 333 58004;
0178833390999992007040600004-14050-042617FM-12+088299999V0209999C000012200019N0020001N1+02381+01421101001ADDGA1001+999999999GF100991001001999999001001KA1240M+03121MA1999999091501MD1999999+0091REMSYN082AAXX  06004 83339 32995 00000 10238 20142 39150 40100 333 10312 29054 55091 58009;
0166833390999992007040612004-14050-042617FM-12+088299999V0200901N001512200019N0100001N1+02361+01661101241ADDGA1001+999999999GF100991001001999999001001KA1240N+01761MA1999999091701MD1999999+0011REMSYN070AAXX  06124 83339 32997 00903 10236 20166 39170 40124 333 20176 58001;
0137833390999992007040618004-14050-042617FM-12+088299999V0200901N002612200019N0100001N1+03071+01271100771ADDGF103991021021004501001011MA1999999091351MD1999999+0001REMSYN070AAXX  06184 83339 32497 30905 10307 20127 39135 40077 82201 333 58000;
0178833390999992007040700004-14050-042617FM-12+088299999V0201001N005112200019N0020001N1+02521+01401100971ADDGA1001+999999999GF100991001001999999001001KA1240M+03181MA1999999091491MD1999999-0011REMSYN082AAXX  07004 83339 32995 01010 10252 20140 39149 40097 333 10318 29051 55105 59001;
0156833390999992007040712004-14050-042617FM-12+088299999V0200901N005110042019N0100001N1+02191+01861101461ADDGF106991061021004501001001KA1240N+02001MA1999999091851MD1999999+0151REMSYN076AAXX  07124 83339 32497 60910 10219 20186 39185 40146 86200 333 20200 58015;
0137833390999992007040718004-14050-042617FM-12+088299999V0200901N004112200019N0100001N1+02891+01441100881ADDGF102991011011004501001011MA1999999091451MD1999999+0101REMSYN070AAXX  07184 83339 32497 20908 10289 20144 39145 40088 81101 333 58010;
0178833390999992007040800004-14050-042617FM-12+088299999V0200901N003112200019N0020001N1+02351+01491101131ADDGA1001+999999999GF100991001001999999001001KA1240M+02941MA1999999091561MD1999999+0071REMSYN082AAXX  08004 83339 32995 00906 10235 20149 39156 40113 333 10294 29062 55080 58007;
0156833390999992007040812004-14050-042617FM-12+088299999V0200901N003612200019N0100001N1+02291+01811101371ADDGF103991031021004501001001KA1240N+01941MA1999999091741MD1999999-0061REMSYN076AAXX  08124 83339 32497 30907 10229 20181 39174 40137 83200 333 20194 59006;
0137833390999992007040818004-14050-042617FM-12+088299999V0200501N002612200019N0100001N1+02951+01531100731ADDGF103991031021004501001001MA1999999091321MD1999999-0131REMSYN070AAXX  08184 83339 32497 30505 10295 20153 39132 40073 83200 333 59013;
0178833390999992007040900004-14050-042617FM-12+088299999V0200901N002612200019N0020001N1+02381+01631101031ADDGA1001+999999999GF100991001001999999001001KA1240M+03061MA1999999091511MD1999999-0041REMSYN082AAXX  09004 83339 32995 00905 10238 20163 39151 40103 333 10306 29060 55093 59004;
0137833390999992007040918004-14050-042617FM-12+088299999V0203601N003110042019N0100001N1+02951+01591100571ADDGF106991051021004501021001MA1999999091151MD1999999-0171REMSYN070AAXX  09184 83339 32497 63606 10295 20159 39115 40057 85220 333 59017;
0168833390999992007041000004-14050-042617FM-12+088299999V0200501N001010042019N0020001N1+02391+01711100901ADDGF105991051021004501001001KA1240M+03001MA1999999091391MD1999999-0121REMSYN088AAXX  10004 83339 32495 50502 10239 20171 39139 40090 85200 333 10300 29062 55079 59012;
0201833390999992007041012004-14050-042617FM-12+088299999V0203601N000510042019N0040001N1+02111+01801101101ADDAA124000591AY161061AY261061GF107991061021004501021999KA1240N+01921MA1999999091541MD1999999-0031MW1101REMSYN088AAXX  10124 83339 21496 73601 10211 20180 39154 40110 71066 8622/ 333 20192 59003 69964;
0182833390999992007041018004-14050-042617FM-12+088299999V0201401N001510042019N0100001N1+02611+01651100801ADDAA106001091AY161061AY261061GF106991061021004501001001MA1999999091321MD1999999+0171MW1021REMSYN082AAXX  10184 83339 21497 61403 10261 20165 39132 40080 70266 86200 333 58017 60011;
0213833390999992007041100004-14050-042617FM-12+088299999V0203601N006210042019N0020001N1+01991+01641101321ADDAA106000591AY191061AY261061GF108991081051004501999999KA1240M+02701MA1999999091651MD1999999+0281MW1601REMSYN100AAXX  11004 83339 21495 83612 10199 20164 39165 40132 76096 885// 333 10270 29075 55022 58028 69961;
0201833390999992007041112004-14050-042617FM-12+088299999V0200501N004610042019N0040001N1+01891+01791101521ADDAA124011991AY161061AY261061GF108991081051004501999999KA1240N+01801MA1999999091791MD1999999+0251MW1101REMSYN088AAXX  11124 83339 21496 80509 10189 20179 39179 40152 71066 885// 333 20180 58025 60124;
0137833390999992007041118004-14050-042617FM-12+088299999V0201401N004112200019N0100001N1+02491+01751101111ADDGF104991041021004501001001MA1999999091521MD1999999+0201REMSYN070AAXX  11184 83339 32497 41408 10249 20175 39152 40111 84200 333 58020;
0187833390999992007041200004-14050-042617FM-12+088299999V0200901N006212200019N0020001N1+02051+01581101451ADDGF101991999021004501001001KA1240M+02581MA1999999091731MD1999999+0081REMSYN088AAXX  12004 83339 32495 10912 10205 20158 39173 40145 82200 333 10258 29077 55072 58008;EQDQ01+000022SCOTLC
0156833390999992007041212004-14050-042617FM-12+088299999V0203201N004610042019N0100001N1+02031+01521101581ADDGF106991061021004501001001KA1240N+01801MA1999999091891MD1999999+0101REMSYN076AAXX  12124 83339 32497 63209 10203 20152 39189 40158 86200 333 20180 58010;
0137833390999992007041218004-14050-042617FM-12+088299999V0200901N004112200019N0100001N1+02551+01451101161ADDGF102991021021004501001001MA1999999091591MD1999999+0021REMSYN070AAXX  12184 83339 32497 20908 10255 20145 39159 40116 82200 333 58002;
0178833390999992007041300004-14050-042617FM-12+088299999V0201801N005112200019N0020001N1+02091+01601101511ADDGA1001+999999999GF100991001001999999001001KA1240M+02681MA1999999091831MD1999999+0101REMSYN082AAXX  13004 83339 32995 01810 10209 20160 39183 40151 333 10268 29069 55094 58010;
0201833390999992007041312004-14050-042617FM-12+088299999V0203601N001510042019N0040001N1+01951+01871101541ADDAA124001091AY161061AY261061GF108991081051004501999999KA1240N+01821MA1999999091831MD1999999-0061MW1101REMSYN088AAXX  13124 83339 21496 83603 10195 20187 39183 40154 71066 885// 333 20182 59006 60014;
0137833390999992007041318004-14050-042617FM-12+088299999V0203201N006212200019N0100001N1+02591+01491101091ADDGF103991031021004501001001MA1999999091531MD1999999-0061REMSYN070AAXX  13184 83339 32497 33212 10259 20149 39153 40109 83200 333 59006;
0168833390999992007041400004-14050-042617FM-12+088299999V0200901N004612200019N0020001N1+02211+01721101351ADDGF102991021021004501001001KA1240M+02701MA1999999091701MD1999999-0131REMSYN088AAXX  14004 83339 32495 20909 10221 20172 39170 40135 82200 333 10270 29074 55052 59013;
0184833390999992007041412004-14050-042617FM-12+088299999V0201401N007710042019N0100001N1+01971+01771101521ADDAY101061AY201061GF106991061021004501001001KA1240N+01821MA1999999091851MD1999999+0021MW1101REMSYN082AAXX  14124 83339 31497 61415 10197 20177 39185 40152 71000 86200 333 20182 58002;
0137833390999992007041418004-14050-042617FM-12+088299999V0200501N004612200019N0100001N1+02531+01431101121ADDGF102991021021004501001001MA1999999091551MD1999999+0021REMSYN070AAXX  14184 83339 32497 20509 10253 20143 39155 40112 82200 333 58002;
0168833390999992007041500004-14050-042617FM-12+088299999V0201401N006210042019N0020001N1+02151+01721101431ADDGF105991051021004501001001KA1240M+02601MA1999999091751MD1999999+0051REMSYN088AAXX  15004 83339 32495 51412 10215 20172 39175 40143 85200 333 10260 29074 55083 58005;
0184833390999992007041512004-14050-042617FM-12+088299999V0200501N004110042019N0040001N1+01951+01771101581ADDAY101061AY201061GF108991081051004501999999KA1240N+01861MA1999999091891MD1999999+0041MW1101REMSYN082AAXX  15124 83339 31496 80508 10195 20177 39189 40158 71000 885// 333 20186 58004;
0137833390999992007041518004-14050-042617FM-12+088299999V0200901N004610042019N0100001N1+02591+01581101121ADDGF105991051021004501001001MA1999999091551MD1999999+0001REMSYN070AAXX  15184 83339 32497 50909 10259 20158 39155 40112 85200 333 58000;
0156833390999992007041612004-14050-042617FM-12+088299999V0200901N005110042019N0100001N1+02091+01781101541ADDGF106991061021004501001001KA1240N+01871MA1999999091871MD1999999-0021REMSYN076AAXX  16124 83339 32497 60910 10209 20178 39187 40154 86200 333 20187 59002;
0137833390999992007041618004-14050-042617FM-12+088299999V0200901N002612200019N0100001N1+02621+01731101021ADDGF104991031021004501031001MA1999999091481MD1999999-0071REMSYN070AAXX  16184 83339 32497 40905 10262 20173 39148 40102 83230 333 59007;
0178833390999992007041700004-14050-042617FM-12+088299999V0201401N004612200019N0020001N1+02251+01711101211ADDGA1001+999999999GF100991001001999999001001KA1240M+02661MA1999999091591MD1999999-0131REMSYN082AAXX  17004 83339 32995 01409 10225 20171 39159 40121 333 10266 29070 55079 59013;
0156833390999992007041712004-14050-042617FM-12+088299999V0200901N005110042019N0100001N1+01971+01781101381ADDGF108991051021004501021999KA1240N+01801MA1999999091731MD1999999-0141REMSYN076AAXX  17124 83339 32497 80910 10197 20178 39173 40138 8522/ 333 20180 59014;
0137833390999992007041718004-14050-042617FM-12+088299999V0201401N004612200019N0100001N1+02611+01621100851ADDGF102991011011004501001011MA1999999091331MD1999999-0151REMSYN070AAXX  17184 83339 32497 21409 10261 20162 39133 40085 81101 333 59015;
0168833390999992007041800004-14050-042617FM-12+088299999V0200901N004112200019N0020001N1+02231+01641101131ADDGF104991011011004501031001KA1240M+02711MA1999999091501MD1999999-0091REMSYN088AAXX  18004 83339 32495 40908 10223 20164 39150 40113 81130 333 10271 29070 55060 59009;
0156833390999992007041812004-14050-042617FM-12+088299999V0200901N003110042019N0100001N1+02041+01831101331ADDGF108991051021004501021999KA1240N+01921MA1999999091701MD1999999-0031REMSYN076AAXX  18124 83339 32497 80906 10204 20183 39170 40133 8522/ 333 20192 59003;
0137833390999992007041818004-14050-042617FM-12+088299999V0200901N003110450019N0100001N1+02691+01661100871ADDGF105991031011004501031011MA1999999091381MD1999999+0051REMSYN070AAXX  18184 83339 32497 50906 10269 20166 39138 40087 83131 333 58005;
0168833390999992007041900004-14050-042617FM-12+088299999V0200901N001510042019N0020001N1+02251+01821101251ADDGF108991051021004501021999KA1240M+02761MA1999999091631MD1999999+0131REMSYN088AAXX  19004 83339 32495 80903 10225 20182 39163 40125 8522/ 333 10276 29073 55036 58013;
0201833390999992007041912004-14050-042617FM-12+088299999V0201401N005110042019N0020001N1+02031+01971101371ADDAA124000021AY121061AY221061GF108991051051004501021999KA1240N+01961MA1999999091741MD1999999+0041MW1501REMSYN088AAXX  19124 83339 21495 81410 10203 20197 39174 40137 75022 8552/ 333 20196 58004 69904;
0182833390999992007041918004-14050-042617FM-12+088299999V0200901N002610042019N0100001N1+02541+01911100971ADDAA106000021AY151061AY241061GF107991051021004501031001MA1999999091441MD1999999+0061MW1021REMSYN082AAXX  19184 83339 21497 70905 10254 20191 39144 40097 70254 85230 333 58006 69901;
0168833390999992007042000004-14050-042617FM-12+088299999V0200901N005110042019N0020001N1+02281+01831101261ADDGF108991051021004501021999KA1240M+02621MA1999999091641MD1999999+0011REMSYN088AAXX  20004 83339 32495 80910 10228 20183 39164 40126 8522/ 333 10262 29079 55022 58001;
0201833390999992007042012004-14050-042617FM-12+088299999V0200901N005110042019N0020001N1+01891+01851101421ADDAA124000591AY161061AY241061GF108991051051004501021999KA1240N+01811MA1999999091761MD1999999+0021MW1401REMSYN088AAXX  20124 83339 21495 80910 10189 20185 39176 40142 74064 8552/ 333 20181 58002 69944;
0165833390999992007042018004-14050-042617FM-12+088299999V0200901N005710450019N0100001N1+02391+01521101351ADDAY141061AY221061GF106991041021004501031001MA1999999091581MD1999999+0141MW1021REMSYN076AAXX  20184 83339 31497 60911 10239 20152 39158 40135 70242 84230 333 58014;
0168833390999992007042100004-14050-042617FM-12+088299999V0201401N004610450019N0020001N1+02061+01701101401ADDGF106991041021004501031001KA1240M+02441MA1999999091681MD1999999+0041REMSYN088AAXX  21004 83339 32495 61409 10206 20170 39168 40140 84230 333 10244 29079 55005 58004;
0156833390999992007042112004-14050-042617FM-12+088299999V0201401N006210042019N0100001N1+01971+01791101531ADDGF106991061021004501001001KA1240N+01841MA1999999091821MD1999999+0061REMSYN076AAXX  21124 83339 32497 61412 10197 20179 39182 40153 86200 333 20184 58006;
0137833390999992007042118004-14050-042617FM-12+088299999V0200901N003110042019N0100001N1+02441+01811101111ADDGF106991061021004501001001MA1999999091521MD1999999-0061REMSYN070AAXX  21184 83339 32497 60906 10244 20181 39152 40111 86200 333 59006;
0168833390999992007042200004-14050-042617FM-12+088299999V0201401N003110042019N0020001N1+02131+01881101281ADDGF108991051021004501021999KA1240M+02541MA1999999091621MD1999999-0061REMSYN088AAXX  22004 83339 32495 81406 10213 20188 39162 40128 8522/ 333 10254 29082 55015 59006;
0201833390999992007042212004-14050-042617FM-12+088299999V0200901N004110450019N0020001N1+01901+01851101491ADDAA124005191AY141061AY241061GF108991041051004501021999KA1240N+01851MA1999999091781MD1999999-0041MW1061REMSYN088AAXX  22124 83339 21495 80908 10190 20185 39178 40149 70644 8452/ 333 20185 59004 60054;
0165833390999992007042218004-14050-042617FM-12+088299999V0200901N003112200019N0100001N1+02551+01781101071ADDAY141061AY221061GF104991031021004501001011MA1999999091511MD1999999-0011MW1021REMSYN076AAXX  22184 83339 31497 40906 10255 20178 39151 40107 70242 83201 333 59001;
0168833390999992007042300004-14050-042617FM-12+088299999V0200901N006712200019N0020001N1+02171+01761101341ADDGF103991011011004501031001KA1240M+02621MA1999999091671MD1999999+0051REMSYN088AAXX  23004 83339 32495 30913 10217 20176 39167 40134 81130 333 10262 29078 55042 58005;
0156833390999992007042312004-14050-042617FM-12+088299999V0201401N006710042019N0100001N1+01991+01551101521ADDGF106991061021004501001001KA1240N+01741MA1999999091851MD1999999+0071REMSYN076AAXX  23124 83339 32497 61413 10199 20155 39185 40152 86200 333 20174 58007;
0137833390999992007042318004-14050-042617FM-12+088299999V0200501N003612200019N0100001N1+02651+01391101041ADDGF102991021021004501001001MA1999999091501MD1999999-0011REMSYN070AAXX  23184 83339 32497 20507 10265 20139 39150 40104 82200 333 59001;
0178833390999992007042400004-14050-042617FM-12+088299999V0201801N001512200019N0020001N1+02121+01621101271ADDGA1001+999999999GF100991001001999999001001KA1240M+02721MA1999999091611MD1999999-0061REMSYN082AAXX  24004 83339 32995 01803 10212 20162 39161 40127 333 10272 29068 55075 59006;
0156833390999992007042412004-14050-042617FM-12+088299999V0201401N004612200019N0100001N1+02031+01561101471ADDGF104991041021004501001001KA1240N+01801MA1999999091791MD1999999-0061REMSYN076AAXX  24124 83339 32497 41409 10203 20156 39179 40147 84200 333 20180 59006;
0137833390999992007042418004-14050-042617FM-12+088299999V0203201N005112200019N0100001N1+02651+01581100961ADDGF103991031021004501001001MA1999999091431MD1999999-0071REMSYN070AAXX  24184 83339 32497 33210 10265 20158 39143 40096 83200 333 59007;
0178833390999992007042500004-14050-042617FM-12+088299999V0202301N005712200019N0020001N1+02191+01701101151ADDGA1001+999999999GF100991001001999999001001KA1240M+02761MA1999999091521MD1999999-0091REMSYN082AAXX  25004 83339 32995 02311 10219 20170 39152 40115 333 10276 29069 55090 59009;
0156833390999992007042512004-14050-042617FM-12+088299999V0201401N005712200019N0100001N1+02131+01721101351ADDGF104991041021004501001001KA1240N+01841MA1999999091721MD1999999-0071REMSYN076AAXX  25124 83339 32497 41411 10213 20172 39172 40135 84200 333 20184 59007;
0137833390999992007042518004-14050-042617FM-12+088299999V0200901N003112200019N0100001N1+02731+01591100881ADDGF102991021021004501001001MA1999999091371MD1999999-0061REMSYN070AAXX  25184 83339 32497 20906 10273 20159 39137 40088 82200 333 59006;
0178833390999992007042600004-14050-042617FM-12+088299999V0200501N000512200019N0020001N1+02191+01561101031ADDGA1001+999999999GF100991001001999999001001KA1240M+02821MA1999999091431MD1999999-0091REMSYN082AAXX  26004 83339 32995 00501 10219 20156 39143 40103 333 10282 29066 55106 59009;
0156833390999992007042612004-14050-042617FM-12+088299999V0200901N003610042019N0100001N1+02211+01821101201ADDGF106991061021004501001001KA1240N+01841MA1999999091601MD1999999-0121REMSYN076AAXX  26124 83339 32497 60907 10221 20182 39160 40120 86200 333 20184 59012;
0137833390999992007042618004-14050-042617FM-12+088299999V0201401N002112200019N0100001N1+02851+01601100721ADDGF103991031021004501001001MA1999999091261MD1999999-0111REMSYN070AAXX  26184 83339 32497 31404 10285 20160 39126 40072 83200 333 59011;
0178833390999992007042700004-14050-042617FM-12+088299999V0202301N001512200019N0020001N1+02271+01471100981ADDGA1001+999999999GF100991001001999999001001KA1240M+02901MA1999999091431MD1999999+0001REMSYN082AAXX  27004 83339 32995 02303 10227 20147 39143 40098 333 10290 29016 55090 58000;
0184833390999992007042712004-14050-042617FM-12+088299999V0200501N003110042019N0040001N1+01911+01781101281ADDAY101061AY201061GF107991061021004501021999KA1240N+01701MA1999999091641MD1999999+0041MW1101REMSYN082AAXX  27124 83339 31496 70506 10191 20178 39164 40128 71000 8622/ 333 20170 58004;
0137833390999992007042718004-14050-042617FM-12+088299999V0200901N001512200019N0100001N1+02791+01581100821ADDGF102991021021004501001001MA1999999091341MD1999999+0081REMSYN070AAXX  27184 83339 32497 20903 10279 20158 39134 40082 82200 333 58008;
0178833390999992007042800004-14050-042617FM-12+088299999V0201401N000512200019N0020001N1+02171+01661101141ADDGA1001+999999999GF100991001001999999001001KA1240M+02861MA1999999091491MD1999999+0061REMSYN082AAXX  28004 83339 32995 01401 10217 20166 39149 40114 333 10286 29072 55079 58006;
0156833390999992007042812004-14050-042617FM-12+088299999V0201401N005112200019N0100001N1+02231+01761101391ADDGF102991021021004501001001KA1240N+01741MA1999999091771MD1999999+0131REMSYN076AAXX  28124 83339 32497 21410 10223 20176 39177 40139 82200 333 20174 58013;
0137833390999992007042818004-14050-042617FM-12+088299999V0203201N004612200019N0100001N1+02811+01391101001ADDGF102991021021004501001001MA1999999091501MD1999999+0161REMSYN070AAXX  28184 83339 32497 23209 10281 20139 39150 40100 82200 333 58016;
0168833390999992007042900004-14050-042617FM-12+088299999V0201801N005712200019N0020001N1+02271+01421101351ADDGF104991031021004501031001KA1240M+02861MA1999999091751MD1999999+0261REMSYN088AAXX  29004 83339 32495 41811 10227 20142 39175 40135 83230 333 10286 29059 55108 58026;
0156833390999992007042912004-14050-042617FM-12+088299999V0201401N006710042019N0100001N1+01971+01571101601ADDGF106991061021004501001001KA1240N+01801MA1999999091931MD1999999+0161REMSYN076AAXX  29124 83339 32497 61413 10197 20157 39193 40160 86200 333 20180 58016;
0137833390999992007042918004-14050-042617FM-12+088299999V0200901N006212200019N0100001N1+02451+01511101091ADDGF102991021021004501001001MA1999999091531MD1999999+0031REMSYN070AAXX  29184 83339 32497 20912 10245 20151 39153 40109 82200 333 58003;
0178833390999992007043000004-14050-042617FM-12+088299999V0200501N001512200019N0020001N1+02091+01601101321ADDGA1001+999999999GF100991001001999999001001KA1240M+02561MA1999999091651MD1999999-0101REMSYN082AAXX  30004 83339 32995 00503 10209 20160 39165 40132 333 10256 29070 55079 59010;
0156833390999992007043012004-14050-042617FM-12+088299999V0200901N002610042019N0100001N1+02061+01821101541ADDGF106991061021004501001001KA1240N+01711MA1999999091871MD1999999-0061REMSYN076AAXX  30124 83339 32497 60905 10206 20182 39187 40154 86200 333 20171 59006;
0137833390999992007043018004-14050-042617FM-12+088299999V0200901N002612200019N0100001N1+02831+01601100931ADDGF102991021011004501001001MA1999999091421MD1999999-0111REMSYN070AAXX  30184 83339 32497 20905 10283 20160 39142 40093 82100 333 59011;
0168833390999992007050100004-14050-042617FM-12+088299999V0200901N001512200019N0020001N1+02311+01531101231ADDGF102991011011004501031001KA1240M+02881MA1999999091611MD1999999-0041REMSYN088AAXX  01004 83339 32495 20903 10231 20153 39161 40123 81130 333 10288 29065 55069 59004;
0156833390999992007050112004-14050-042617FM-12+088299999V0200901N003610450019N0100001N1+02061+01841101401ADDGF108991041051004501021999KA1240N+01841MA1999999091781MD1999999-0091REMSYN076AAXX  01124 83339 32497 80907 10206 20184 39178 40140 8452/ 333 20184 59009;
0137833390999992007050118004-14050-042617FM-12+088299999V0200501N003112200019N0100001N1+02711+01521100861ADDGF102991021011004501001001MA1999999091371MD1999999-0051REMSYN070AAXX  01184 83339 32497 20506 10271 20152 39137 40086 82100 333 59005;
0178833390999992007050200004-14050-042617FM-12+088299999V0201801N001512200019N0020001N1+02231+01291101221ADDGA1001+999999999GF100991001001999999001001KA1240M+02821MA1999999091601MD1999999-0011REMSYN082AAXX  02004 83339 32995 01803 10223 20129 39160 40122 333 10282 29061 55067 59001;
0156833390999992007050212004-14050-042617FM-12+088299999V0201401N004110042019N0100001N1+02091+01781101451ADDGF106991061021004501001001KA1240N+01911MA1999999091811MD1999999+0031REMSYN076AAXX  02124 83339 32497 61408 10209 20178 39181 40145 86200 333 20191 58003;
0137833390999992007050218004-14050-042617FM-12+088299999V0200901N003112200019N0100001N1+02751+01431100881ADDGF102991021011004501001001MA1999999091451MD1999999+0081REMSYN070AAXX  02184 83339 32497 20906 10275 20143 39145 40088 82100 333 58008;
0178833390999992007050300004-14050-042617FM-12+088299999V0209999C000012200019N0020001N1+02191+01461101241ADDGA1001+999999999GF100991001001999999001001KA1240M+02831MA1999999091621MD1999999+0021REMSYN082AAXX  03004 83339 32995 00000 10219 20146 39162 40124 333 10283 29063 55065 58002;
0184833390999992007050312004-14050-042617FM-12+088299999V0200901N00361045001CN0020001N1+01901+01711101551ADDAY121061AY221061GF108991041051004501021999KA1240N+01741MA1999999091841MD1999999+0031MW1401REMSYN082AAXX  03124 83339 31495 80907 10190 20171 39184 40155 74022 8452/ 333 20174 58003;
0165833390999992007050318004-14050-042617FM-12+088299999V0201401N003612200019N0100001N1+02661+01471101011ADDAY141061AY221061GF103991021011004501001011MA1999999091471MD1999999+0021MW1021REMSYN076AAXX  03184 83339 31497 31407 10266 20147 39147 40101 70242 82101 333 58002;
0178833390999992007050400004-14050-042617FM-12+088299999V0200901N001012200019N0020001N1+02181+01471101291ADDGA1001+999999999GF100991001001999999001001KA1240M+02771MA1999999091631MD1999999+0011REMSYN082AAXX  04004 83339 32995 00902 10218 20147 39163 40129 333 10277 29066 55072 58001;
0156833390999992007050412004-14050-042617FM-12+088299999V0201401N004112200019N0100001N1+02011+01601101551ADDGF102991021011004501001001KA1240N+01721MA1999999091881MD1999999+0041REMSYN076AAXX  04124 83339 32497 21408 10201 20160 39188 40155 82100 333 20172 58004;
0147833390999992007050418004-14050-042617FM-12+088299999V0201401N005112200019N0100001N1+02671+00871101071ADDGA1001+999999999GF100991001001999999001001MA1999999091531MD1999999+0061REMSYN064AAXX  04184 83339 32997 01410 10267 20087 39153 40107 333 58006;
0178833390999992007050500004-14050-042617FM-12+088299999V0200901N005712200019N0020001N1+02011+01341101441ADDGA1001+999999999GF100991001001999999001001KA1240M+02701MA1999999091741MD1999999+0111REMSYN082AAXX  05004 83339 32995 00911 10201 20134 39174 40144 333 10270 29060 55103 58011;
0156833390999992007050512004-14050-042617FM-12+088299999V0200901N005710042019N0100001N1+01751+01351101541ADDGF106991051021004501021001KA1240N+01661MA1999999091791MD1999999-0091REMSYN076AAXX  05124 83339 32497 60911 10175 20135 39179 40154 85220 333 20166 59009;
0137833390999992007050518004-14050-042617FM-12+088299999V0201401N007712200019N0100001N1+02391+01501101131ADDGF104991041021004501001001MA1999999091501MD1999999-0031REMSYN070AAXX  05184 83339 32497 41415 10239 20150 39150 40113 84200 333 59003;
0168833390999992007050600004-14050-042617FM-12+088299999V0201401N007712200019N0020001N1+01981+01661101431ADDGF102991021011004501001001KA1240M+02521MA1999999091671MD1999999-0071REMSYN088AAXX  06004 83339 32495 21415 10198 20166 39167 40143 82100 333 10252 29079 55074 59007;
0201833390999992007050612004-14050-042617FM-12+088299999V0200901N006710042019N0020001N1+01831+01791101471ADDAA124002091AY161061AY241061GF108991051051004501021999KA1240N+01741MA1999999091731MD1999999-0061MW1501REMSYN088AAXX  06124 83339 21495 80913 10183 20179 39173 40147 75064 8552/ 333 20174 59006 60024;
0182833390999992007050618004-14050-042617FM-12+088299999V0200901N005110042019N0100001N1+02531+01731101061ADDAA106000021AY151061AY241061GF106991061021004501001001MA1999999091441MD1999999-0061MW1021REMSYN082AAXX  06184 83339 21497 60910 10253 20173 39144 40106 70254 86200 333 59006 69921;
0213833390999992007050700004-14050-042617FM-12+088299999V0201401N004110042019N0020001N1+02031+01941101331ADDAA106000021AY121061AY221061GF108991061051004501021999KA1240M+02581MA1999999091621MD1999999-0051MW1501REMSYN100AAXX  07004 83339 21495 81408 10203 20194 39162 40133 75022 8652/ 333 10258 29087 55039 59005 69901;
0201833390999992007050712004-14050-042617FM-12+088299999V0201401N006710042019N0100001N1+01951+01591101391ADDAA124002091AY161061AY261061GF106991061021004501001001KA1240N+01721MA1999999091691MD1999999-0041MW1101REMSYN088AAXX  07124 83339 21497 61413 10195 20159 39169 40139 71066 86200 333 20172 59004 60024;
0147833390999992007050718004-14050-042617FM-12+088299999V0200901N003612200019N0100001N1+02651+01421100921ADDGA1001+999999999GF100991001001999999001001MA1999999091371MD1999999-0071REMSYN064AAXX  07184 83339 32997 00907 10265 20142 39137 40092 333 59007;
0178833390999992007050800004-14050-042617FM-12+088299999V0201801N000512200019N0020001N1+02091+01451101191ADDGA1001+999999999GF100991001001999999001001KA1240M+03001MA1999999091521MD1999999-0101REMSYN082AAXX  08004 83339 32995 01801 10209 20145 39152 40119 333 10300 29065 55095 59010;
0184833390999992007050812004-14050-042617FM-12+088299999V0200501N003610042019N0040001N1+01951+01741101371ADDAY101061AY201061GF107991061021004501021999KA1240N+01701MA1999999091671MD1999999-0021MW1101REMSYN082AAXX  08124 83339 31496 70507 10195 20174 39167 40137 71000 8622/ 333 20170 59002;
0147833390999992007050818004-14050-042617FM-12+088299999V0200901N002112200019N0100001N1+02771+01491100911ADDGA1001+999999999GF100991001001999999001001MA1999999091401MD1999999+0031REMSYN064AAXX  08184 83339 32997 00904 10277 20149 39140 40091 333 58003;
0178833390999992007050900004-14050-042617FM-12+088299999V0202301N004612200019N0020001N1+02291+01641101151ADDGA1001+999999999GF100991001001999999001001KA1240M+02841MA1999999091521MD1999999+0001REMSYN082AAXX  09004 83339 32995 02309 10229 20164 39152 40115 333 10284 29067 55081 58000;
0184833390999992007050912004-14050-042617FM-12+088299999V0200901N003110042019N0040001N1+02091+01741101311ADDAY101061AY201061GF106991051021004501021001KA1240N+01801MA1999999091701MD1999999+0031MW1101REMSYN082AAXX  09124 83339 31496 60906 10209 20174 39170 40131 71000 85220 333 20180 58003;
0137833390999992007050918004-14050-042617FM-12+088299999V0201401N002612200019N0100001N1+03051+01281100711ADDGF102991021021004501001001MA1999999091301MD1999999-0101REMSYN070AAXX  09184 83339 32497 21405 10305 20128 39130 40071 82200 333 59010;
0168833390999992007051000004-14050-042617FM-12+088299999V0200501N005712200019N0020001N1+02491+01241101051ADDGF102991021021004501001001KA1240M+03041MA1999999091511MD1999999-0011REMSYN088AAXX  10004 83339 32495 20511 10249 20124 39151 40105 82200 333 10304 29052 55079 59001;
0156833390999992007051012004-14050-042617FM-12+088299999V0203201N006210042019N0100001N1+02151+01721101291ADDGF106991061021004501001001KA1240N+01981MA1999999091731MD1999999+0031REMSYN076AAXX  10124 83339 32497 63212 10215 20172 39173 40129 86200 333 20198 58003;
0137833390999992007051018004-14050-042617FM-12+088299999V0201801N005110042019N0100001N1+02531+01611101061ADDGF106991051021004501021001MA1999999091551MD1999999+0251REMSYN070AAXX  10184 83339 32497 61810 10253 20161 39155 40106 85220 333 58025;
0196833390999992007051100004-14050-042617FM-12+088299999V0203601N008710042019N0020001N1+01871+01531101731ADDAY101061AY201061GF108991081051004501999999KA1240M+02641MA1999999092001MD1999999+0491MW1101REMSYN094AAXX  11004 83339 31495 83617 10187 20153 39200 40173 71000 885// 333 10264 29074 55072 58049;
0156833390999992007051112004-14050-042617FM-12+088299999V0200501N006710042019N0040001N1+01651+01281101731ADDGF107991061021004501021999KA1240N+01521MA1999999092091MD1999999+0361REMSYN076AAXX  11124 83339 32496 70513 10165 20128 39209 40173 8622/ 333 20152 58036;
0137833390999992007051118004-14050-042617FM-12+088299999V0201401N005710042019N0100001N1+02111+01291101551ADDGF106991051021004501031001MA1999999091801MD1999999+0251REMSYN070AAXX  11184 83339 32497 61411 10211 20129 39180 40155 85230 333 58025;
0168833390999992007051200004-14050-042617FM-12+088299999V0200901N007212200019N0020001N1+01791+01251101921ADDGF102991021021004501001001KA1240M+02201MA1999999092051MD1999999+0051REMSYN088AAXX  12004 83339 32495 20914 10179 20125 39205 40192 82200 333 10220 29070 55025 58005;
0156833390999992007051212004-14050-042617FM-12+088299999V0200901N003110042019N0100001N1+01671+01291102041ADDGF106991061021004501001001KA1240N+01501MA1999999092161MD1999999+0071REMSYN076AAXX  12124 83339 32497 60906 10167 20129 39216 40204 86200 333 20150 58007;
0147833390999992007051218004-14050-042617FM-12+088299999V0201401N004612200019N0100001N1+02331+01281101491ADDGA1001+999999999GF100991001001999999001001MA1999999091781MD1999999-0021REMSYN064AAXX  12184 83339 32997 01409 10233 20128 39178 40149 333 59002;
0178833390999992007051300004-14050-042617FM-12+088299999V0201801N004612200019N0020001N1+01871+01041101771ADDGA1001+999999999GF100991001001999999001001KA1240M+02401MA1999999091941MD1999999-0111REMSYN082AAXX  13004 83339 32995 01809 10187 20104 39194 40177 333 10240 29067 55080 59011;
0184833390999992007051312004-14050-042617FM-12+088299999V0202301N003110042019N0040001N1+01711+01501101691ADDAY101061AY201061GF108991081051004501999999KA1240N+01531MA1999999092061MD1999999-0101MW1101REMSYN082AAXX  13124 83339 31496 82306 10171 20150 39206 40169 71000 885// 333 20153 59010;
0156833390999992007051318004-14050-042617FM-12+088299999V0200501N004612200019N0100001N1+02451+01421101361ADDGF101991999021004501001001MA1999999091691MD1999999-0091REMSYN070AAXX  13184 83339 32497 10509 10245 20142 39169 40136 82200 333 59009;EQDQ01+000022SCOTLC
0178833390999992007051400004-14050-042617FM-12+088299999V0201401N004612200019N0020001N1+02091+01411101581ADDGA1001+999999999GF100991001001999999001001KA1240M+02501MA1999999091811MD1999999-0131REMSYN082AAXX  14004 83339 32995 01409 10209 20141 39181 40158 333 10250 29069 55065 59013;
0156833390999992007051412004-14050-042617FM-12+088299999V0201401N003110042019N0100001N1+01841+01601101731ADDGF108991051021004501021999KA1240N+01661MA1999999091981MD1999999-0081REMSYN076AAXX  14124 83339 32497 81406 10184 20160 39198 40173 8522/ 333 20166 59008;
0137833390999992007051418004-14050-042617FM-12+088299999V0201801N001512200019N0100001N1+02731+01411101111ADDGF102991021011004501001001MA1999999091461MD1999999-0131REMSYN070AAXX  14184 83339 32497 21803 10273 20141 39146 40111 82100 333 59013;
0178833390999992007051500004-14050-042617FM-12+088299999V0201401N002612200019N0020001N1+02161+01351101551ADDGA1001+999999999GF100991001001999999001001KA1240M+02811MA1999999091841MD1999999+0031REMSYN082AAXX  15004 83339 32995 01405 10216 20135 39184 40155 333 10281 29062 55077 58003;
0166833390999992007051512004-14050-042617FM-12+088299999V0200501N002112200019N0100001N1+02151+01591101561ADDGA1001+999999999GF100991001001999999001001KA1240N+01511MA1999999091911MD1999999-0071REMSYN070AAXX  15124 83339 32997 00504 10215 20159 39191 40156 333 20151 59007;
0147833390999992007051518004-14050-042617FM-12+088299999V0200901N005112200019N0100001N1+02831+01151101031ADDGA1001+999999999GF100991001001999999001001MA1999999091511MD1999999-0051REMSYN064AAXX  15184 83339 32997 00910 10283 20115 39151 40103 333 59005;
0213833390999992007051600004-14050-042617FM-12+088299999V0200901N004612200019N0020001N1+02201+00631101351ADDGA1001+999999999GF100991001001999999001001KA1240M+02901MA1999999999999MD1999999-0101REMSYN082AAXX  16004 83339 32995 00909 10220 20063 30174 40135 333 10290 29044 55106 59010;EQDQ01+101743APOSP Q02 101743APOSP 
0156833390999992007051612004-14050-042617FM-12+088299999V0200901N005712200019N0100001N1+01871+01551101631ADDGF104991041021004501001001KA1240N+01671MA1999999091941MD1999999+0031REMSYN076AAXX  16124 83339 32497 40911 10187 20155 39194 40163 84200 333 20167 58003;
0147833390999992007051618004-14050-042617FM-12+088299999V0200901N005112200019N0100001N1+02691+01071100981ADDGA1001+999999999GF100991001001999999001001MA1999999091501MD1999999-0011REMSYN064AAXX  16184 83339 32997 00910 10269 20107 39150 40098 333 59001;
0156833390999992007051712004-14050-042617FM-12+088299999V0200901N005112200019N0100001N1+02031+01601101591ADDGF103991031021004501001001KA1240N+01721MA1999999091921MD1999999-0021REMSYN076AAXX  17124 83339 32497 30910 10203 20160 39192 40159 83200 333 20172 59002;
0137833390999992007051718004-14050-042617FM-12+088299999V0201401N003612200019N0100001N1+02651+01391101161ADDGF102991021021004501001001MA1999999091611MD1999999+0111REMSYN070AAXX  17184 83339 32497 21407 10265 20139 39161 40116 82200 333 58011;
0178833390999992007051800004-14050-042617FM-12+088299999V0200901N004112200019N0020001N1+02251+01541101371ADDGA1001+999999999GF100991001001999999001001KA1240M+02731MA1999999091741MD1999999-0031REMSYN082AAXX  18004 83339 32995 00908 10225 20154 39174 40137 333 10273 29063 55100 59003;
0156833390999992007051812004-14050-042617FM-12+088299999V0200901N004110042019N0100001N1+02041+01661101581ADDGF106991061021004501001001KA1240N+01781MA1999999091921MD1999999+0001REMSYN076AAXX  18124 83339 32497 60908 10204 20166 39192 40158 86200 333 20178 58000;
0137833390999992007051818004-14050-042617FM-12+088299999V0200501N003612200019N0100001N1+02661+01471101061ADDGF102991021011004501001001MA1999999091541MD1999999-0071REMSYN070AAXX  18184 83339 32497 20507 10266 20147 39154 40106 82100 333 59007;
0178833390999992007051900004-14050-042617FM-12+088299999V0201401N002112200019N0020001N1+02151+01401101391ADDGA1001+999999999GF100991001001999999001001KA1240M+02731MA1999999091741MD1999999+0001REMSYN082AAXX  19004 83339 32995 01404 10215 20140 39174 40139 333 10273 29063 55082 58000;
0156833390999992007051912004-14050-042617FM-12+088299999V0201401N003112200019N0100001N1+02131+01661101521ADDGF103991011011004501001041KA1240N+01601MA1999999091871MD1999999-0051REMSYN076AAXX  19124 83339 32497 31406 10213 20166 39187 40152 81104 333 20160 59005;
0137833390999992007051918004-14050-042617FM-12+088299999V0201401N003112200019N0100001N1+02811+01211100951ADDGF102991021011004501001001MA1999999091451MD1999999-0091REMSYN070AAXX  19184 83339 32497 21406 10281 20121 39145 40095 82100 333 59009;
0178833390999992007052000004-14050-042617FM-12+088299999V0201801N003112200019N0020001N1+02191+01281101281ADDGA1001+999999999GF100991001001999999001001KA1240M+02861MA1999999091651MD1999999-0091REMSYN082AAXX  20004 83339 32995 01806 10219 20128 39165 40128 333 10286 29056 55093 59009;
0156833390999992007052012004-14050-042617FM-12+088299999V0200901N005112200019N0100001N1+02051+01741101591ADDGF104991041021004501001001KA1240N+01741MA1999999091921MD1999999+0051REMSYN076AAXX  20124 83339 32497 40910 10205 20174 39192 40159 84200 333 20174 58005;
0137833390999992007052018004-14050-042617FM-12+088299999V0201401N004612200019N0100001N1+02771+01331101021ADDGF102991021011004501001001MA1999999091511MD1999999+0061REMSYN070AAXX  20184 83339 32497 21409 10277 20133 39151 40102 82100 333 58006;
0178833390999992007052100004-14050-042617FM-12+088299999V0201401N005712200019N0020001N1+02161+01251101351ADDGA1001+999999999GF100991001001999999001001KA1240M+02811MA1999999091701MD1999999+0051REMSYN082AAXX  21004 83339 32995 01411 10216 20125 39170 40135 333 10281 29059 55092 58005;
0156833390999992007052112004-14050-042617FM-12+088299999V0200901N003610042019N0100001N1+01931+01551101471ADDGF105991051021004501001001KA1240N+01721MA1999999091791MD1999999-0131REMSYN076AAXX  21124 83339 32497 50907 10193 20155 39179 40147 85200 333 20172 59013;
0137833390999992007052118004-14050-042617FM-12+088299999V0200501N006212200019N0100001N1+02651+01011100941ADDGF102991021021004501001001MA1999999091411MD1999999-0101REMSYN070AAXX  21184 83339 32497 20512 10265 20101 39141 40094 82200 333 59010;
0178833390999992007052200004-14050-042617FM-12+088299999V0201401N003112200019N0020001N1+02091+01371101201ADDGA1001+999999999GF100991001001999999001001KA1240M+02721MA1999999091531MD1999999-0171REMSYN082AAXX  22004 83339 32995 01406 10209 20137 39153 40120 333 10272 29061 55087 59017;
0156833390999992007052212004-14050-042617FM-12+088299999V0201801N003612200019N0100001N1+01991+01521101331ADDGF102991011021004501021001KA1240N+01501MA1999999091661MD1999999-0131REMSYN076AAXX  22124 83339 32497 21807 10199 20152 39166 40133 81220 333 20150 59013;
0137833390999992007052218004-14050-042617FM-12+088299999V0201401N004112200019N0100001N1+02691+01131100791ADDGF102991021021004501001001MA1999999091251MD1999999-0161REMSYN070AAXX  22184 83339 32497 21408 10269 20113 39125 40079 82200 333 59016;
0178833390999992007052300004-14050-042617FM-12+088299999V0200901N004612200019N0020001N1+02111+01021101101ADDGA1001+999999999GF100991001001999999001001KA1240M+02831MA1999999091451MD1999999-0081REMSYN082AAXX  23004 83339 32995 00909 10211 20102 39145 40110 333 10283 29053 55106 59008;
0156833390999992007052312004-14050-042617FM-12+088299999V0200501N003112200019N0100001N1+02091+01421101141ADDGF102991011021004501021001KA1240N+01501MA1999999091511MD1999999-0151REMSYN076AAXX  23124 83339 32497 20506 10209 20142 39151 40114 81220 333 20150 59015;
0137833390999992007052318004-14050-042617FM-12+088299999V0202301N003112200019N0100001N1+03071+01001100611ADDGF102991011021004501001041MA1999999091161MD1999999-0091REMSYN070AAXX  23184 83339 32497 22306 10307 20100 39116 40061 81204 333 59009;
0178833390999992007052400004-14050-042617FM-12+088299999V0201801N001512200019N0020001N1+02191+01001100891ADDGA1001+999999999GF100991001001999999001001KA1240M+03141MA1999999091301MD1999999-0151REMSYN082AAXX  24004 83339 32995 01803 10219 20100 39130 40089 333 10314 29047 55106 59015;
0166833390999992007052412004-14050-042617FM-12+088299999V0203201N001512200019N0100001N1+02371+01431101081ADDGA1001+999999999GF100991001001999999001001KA1240N+01721MA1999999091541MD1999999+0031REMSYN070AAXX  24124 83339 32997 03203 10237 20143 39154 40108 333 20172 58003;
0137833390999992007052418004-14050-042617FM-12+088299999V0203601N003112200019N0100001N1+03091+01401100631ADDGF102991021021004501001001MA1999999091211MD1999999+0051REMSYN070AAXX  24184 83339 32497 23606 10309 20140 39121 40063 82200 333 58005;
0187833390999992007052500004-14050-042617FM-12+088299999V0202301N002619999999N0020001N1+02651+01351100841ADDGF105991999021004501001001KA1240M+03161MA1999999091401MD1999999+0101REMSYN088AAXX  25004 83339 32495 52305 10265 20135 39140 40084 84200 333 10316 29045 55105 58010;EQDQ01+000042SCOTLC
0156833390999992007052512004-14050-042617FM-12+088299999V0201401N004612200019N0100001N1+02391+01751101061ADDGF102991021021004501001001KA1240N+02201MA1999999091591MD1999999+0051REMSYN076AAXX  25124 83339 32497 21409 10239 20175 39159 40106 82200 333 20220 58005;
0137833390999992007052518004-14050-042617FM-12+088299999V0200901N001510042019N0100001N1+02991+01551100601ADDGF105991051021004501001001MA1999999091251MD1999999+0041REMSYN070AAXX  25184 83339 32497 50903 10299 20155 39125 40060 85200 333 58004;
0168833390999992007052600004-14050-042617FM-12+088299999V0200501N011310042019N0020001N1+01971+01571101111ADDGF106991061021004501001001KA1240M+03041MA1999999091521MD1999999+0121REMSYN088AAXX  26004 83339 32495 60522 10197 20157 39152 40111 86200 333 10304 29066 55079 58012;
0184833390999992007052612004-14050-042617FM-12+088299999V0200501N004610042019N0040001N1+01651+01561101541ADDAY101061AY201061GF108991081051004501999999KA1240N+01641MA1999999091751MD1999999+0161MW1501REMSYN082AAXX  26124 83339 31496 80509 10165 20156 39175 40154 75000 885// 333 20164 58016;
0165833390999992007052618004-14050-042617FM-12+088299999V0200901N004612200019N0100001N1+02251+01531101171ADDAY101061AY251061GF104991041021004501001001MA1999999091501MD1999999+0251MW1021REMSYN076AAXX  26184 83339 31497 40909 10225 20153 39150 40117 70205 84200 333 58025;
0168833390999992007052700004-14050-042617FM-12+088299999V0201401N004612200019N0020001N1+01951+01551101411ADDGF102991021021004501001001KA1240M+02341MA1999999091641MD1999999+0121REMSYN088AAXX  27004 83339 32495 21409 10195 20155 39164 40141 82200 333 10234 29079 55033 58012;
0156833390999992007052712004-14050-042617FM-12+088299999V0200901N004119999999N0100001N1+01911+01431101511ADDGF106991061001004501001001KA1240N+01661MA1999999091781MD1999999+0031REMSYN076AAXX  27124 83339 32497 60908 10191 20143 39178 40151 86000 333 20166 58003;
0137833390999992007052718004-14050-042617FM-12+088299999V0202301N002112200019N0100001N1+02651+01481100961ADDGF102991021021004501001001MA1999999091381MD1999999-0121REMSYN070AAXX  27184 83339 32497 22304 10265 20148 39138 40096 82200 333 59012;
0178833390999992007052800004-14050-042617FM-12+088299999V0201401N002112200019N0020001N1+02191+01521101231ADDGA1001+999999999GF100991001001999999001001KA1240M+02801MA1999999091571MD1999999-0071REMSYN082AAXX  28004 83339 32995 01404 10219 20152 39157 40123 333 10280 29064 55082 59007;
0156833390999992007052812004-14050-042617FM-12+088299999V0201401N002112200019N0100001N1+02041+01681101501ADDGF102991011011004501001011KA1240N+01581MA1999999091841MD1999999+0061REMSYN076AAXX  28124 83339 32497 21404 10204 20168 39184 40150 81101 333 20158 58006;
0137833390999992007052818004-14050-042617FM-12+088299999V0201801N001512200019N0100001N1+02911+01381100891ADDGF103991021011004501001011MA1999999091401MD1999999+0021REMSYN070AAXX  28184 83339 32497 31803 10291 20138 39140 40089 82101 333 58002;
0178833390999992007052900004-14050-042617FM-12+088299999V0200901N001512200019N0020001N1+02341+01441101201ADDGA1001+999999999GF100991001001999999001001KA1240M+03011MA1999999091601MD1999999+0031REMSYN082AAXX  29004 83339 32995 00903 10234 20144 39160 40120 333 10301 29058 55089 58003;
0166833390999992007052912004-14050-042617FM-12+088299999V0200501N001512200019N0100001N1+02241+01691101401ADDGA1001+999999999GF100991001001999999001001KA1240N+01741MA1999999091831MD1999999-0011REMSYN070AAXX  29124 83339 32997 00503 10224 20169 39183 40140 333 20174 59001;
0137833390999992007052918004-14050-042617FM-12+088299999V0203601N001512200019N0100001N1+03051+01501100741ADDGF102991021021004501001001MA1999999091331MD1999999-0071REMSYN070AAXX  29184 83339 32497 23603 10305 20150 39133 40074 82200 333 59007;
0178833390999992007053000004-14050-042617FM-12+088299999V0201801N002112200019N0020001N1+02451+01551101041ADDGA1001+999999999GF100991001001999999001001KA1240M+03101MA1999999091521MD1999999-0081REMSYN082AAXX  30004 83339 32995 01804 10245 20155 39152 40104 333 10310 29056 55098 59008;
0156833390999992007053012004-14050-042617FM-12+088299999V0201801N002612200019N0100001N1+02331+01721101441ADDGF102991011011004501031001KA1240N+01961MA1999999091901MD1999999+0071REMSYN076AAXX  30124 83339 32497 21805 10233 20172 39190 40144 81130 333 20196 58007;
0137833390999992007053018004-14050-042617FM-12+088299999V0201401N004112200019N0100001N1+02831+01151100951ADDGF104991041021004501001001MA1999999091491MD1999999+0161REMSYN070AAXX  30184 83339 32497 41408 10283 20115 39149 40095 84200 333 58016;
0168833390999992007053100004-14050-042617FM-12+088299999V0200901N006212200019N0020001N1+02351+01641101301ADDGF102991021021004501001001KA1240M+03021MA1999999091751MD1999999+0231REMSYN088AAXX  31004 83339 32495 20912 10235 20164 39175 40130 82200 333 10302 29058 55089 58023;
0156833390999992007053112004-14050-042617FM-12+088299999V0201401N004610042019N0100001N1+01931+01681101721ADDGF108991051051004501021999KA1240N+01861MA1999999091051MD1999999+0151REMSYN076AAXX  31124 83339 32497 81409 10193 20168 39105 40172 8552/ 333 20186 58015;
0137833390999992007053118004-14050-042617FM-12+088299999V0200901N007210042019N0100001N1+02341+01601101431ADDGF106991061021004501001001MA1999999091811MD1999999+0321REMSYN070AAXX  31184 83339 32497 60914 10234 20160 39181 40143 86200 333 58032;
0168833390999992007060100004-14050-042617FM-12+088299999V0200901N008210450019N0020001N1+01831+01491101731ADDGF106991041021004501031001KA1240M+02441MA1999999091961MD1999999+0211REMSYN088AAXX  01004 83339 32495 60916 10183 20149 39196 40173 84230 333 10244 29077 55051 58021;
0156833390999992007060112004-14050-042617FM-12+088299999V0201401N006710042019N0100001N1+01741+01371102101ADDGF108991051021004501021999KA1240N+01601MA1999999092251MD1999999+0201REMSYN076AAXX  01124 83339 32497 81413 10174 20137 39225 40210 8522/ 333 20160 58020;
0137833390999992007060118004-14050-042617FM-12+088299999V0200901N005112200019N0100001N1+02221+01411101551ADDGF104991021011004501031011MA1999999091821MD1999999+0011REMSYN070AAXX  01184 83339 32497 40910 10222 20141 39182 40155 82131 333 58001;
0178833390999992007060200004-14050-042617FM-12+088299999V0209999C000012200019N0020001N1+01841+01311101811ADDGA1001+999999999GF100991001001999999001001KA1240M+02261MA1999999091991MD1999999+0031REMSYN082AAXX  02004 83339 32995 00000 10184 20131 39199 40181 333 10226 29070 55052 58003;
0156833390999992007060212004-14050-042617FM-12+088299999V0200901N002110042019N0100001N1+01851+01581101861ADDGF106991061021004501001001KA1240N+01641MA1999999092061MD1999999-0191REMSYN076AAXX  02124 83339 32497 60904 10185 20158 39206 40186 86200 333 20164 59019;
0147833390999992007060218004-14050-042617FM-12+088299999V0200501N002112200019N0100001N1+02661+01071101211ADDGA1001+999999999GF100991001001999999001001MA1999999091611MD1999999-0211REMSYN064AAXX  02184 83339 32997 00504 10266 20107 39161 40121 333 59021;
0166833390999992007060312004-14050-042617FM-12+088299999V0203601N001012200019N0100001N1+02111+01311101581ADDGA1001+999999999GF100991001001999999001001KA1240N+01541MA1999999091911MD1999999-0151REMSYN070AAXX  03124 83339 32997 03602 10211 20131 39191 40158 333 20154 59015;
0147833390999992007060318004-14050-042617FM-12+088299999V0200501N001512200019N0100001N1+02851+00781101031ADDGA1001+999999999GF100991001001999999001001MA1999999091511MD1999999-0101REMSYN064AAXX  03184 83339 32997 00503 10285 20078 39151 40103 333 59010;
0166833390999992007060412004-14050-042617FM-12+088299999V0200501N000512200019N0100001N1+02451+01031101371ADDGA1001+999999999GF100991001001999999001001KA1240N+01801MA1999999091841MD1999999-0071REMSYN070AAXX  04124 83339 32997 00501 10245 20103 39184 40137 333 20180 59007;
0137833390999992007060418004-14050-042617FM-12+088299999V0201401N002112200019N0100001N1+02931+01131100941ADDGF102991021021004501001001MA1999999091481MD1999999-0031REMSYN070AAXX  04184 83339 32497 21404 10293 20113 39148 40094 82200 333 59003;
0178833390999992007060500004-14050-042617FM-12+088299999V0201801N008212200019N0020001N1+02391+01341101141ADDGA1001+999999999GF100991001001999999001001KA1240M+03051MA1999999091631MD1999999-0111REMSYN082AAXX  05004 83339 32995 01816 10239 20134 39163 40114 333 10305 29044 55091 59011;
0184833390999992007060512004-14050-042617FM-12+088299999V0200901N004610042019N0040001N1+01931+01591101671ADDAY101061AY201061GF106991051021004501021001KA1240N+01831MA1999999092011MD1999999+0171MW1101REMSYN082AAXX  05124 83339 31496 60909 10193 20159 39201 40167 71000 85220 333 20183 58017;
0137833390999992007060518004-14050-042617FM-12+088299999V0201401N004612200019N0100001N1+02571+01411101241ADDGF103991031021004501001001MA1999999091701MD1999999+0221REMSYN070AAXX  05184 83339 32497 31409 10257 20141 39170 40124 83200 333 58022;
0168833390999992007060600004-14050-042617FM-12+088299999V0200501N004112200019N0020001N1+02111+01441101531ADDGF102991021021004501001001KA1240M+02681MA1999999091821MD1999999+0191REMSYN088AAXX  06004 83339 32495 20508 10211 20144 39182 40153 82200 333 10268 29066 55079 58019;
0184833390999992007060612004-14050-042617FM-12+088299999V0200501N005110042019N0040001N1+01751+01571101721ADDAY101061AY201061GF108991081051004501999999KA1240N+01621MA1999999091971MD1999999-0041MW1101REMSYN082AAXX  06124 83339 31496 80510 10175 20157 39197 40172 71000 885// 333 20162 59004;
0137833390999992007060618004-14050-042617FM-12+088299999V0203201N003612200019N0100001N1+02671+01471101211ADDGF103991031021004501001001MA1999999091641MD1999999-0061REMSYN070AAXX  06184 83339 32497 33207 10267 20147 39164 40121 83200 333 59006;
0178833390999992007060700004-14050-042617FM-12+088299999V0200901N004612200019N0020001N1+02171+01401101451ADDGA1001+999999999GF100991001001999999001001KA1240M+02741MA1999999091731MD1999999-0091REMSYN082AAXX  07004 83339 32995 00909 10217 20140 39173 40145 333 10274 29066 55072 59009;
0184833390999992007060712004-14050-042617FM-12+088299999V0200901N004110042019N0040001N1+01811+01601101621ADDAY101061AY201061GF108991081051004501999999KA1240N+01661MA1999999091901MD1999999-0071MW1101REMSYN082AAXX  07124 83339 31496 80908 10181 20160 39190 40162 71000 885// 333 20166 59007;
0137833390999992007060718004-14050-042617FM-12+088299999V0201401N003112200019N0100001N1+02671+01371101101ADDGF102991021021004501001001MA1999999091571MD1999999-0071REMSYN070AAXX  07184 83339 32497 21406 10267 20137 39157 40110 82200 333 59007;
0168833390999992007060800004-14050-042617FM-12+088299999V0201801N004612200019N0020001N1+02191+01261101421ADDGF102991021021004501001001KA1240M+02761MA1999999091721MD1999999-0011REMSYN088AAXX  08004 83339 32495 21809 10219 20126 39172 40142 82200 333 10276 29060 55070 59001;
0184833390999992007060812004-14050-042617FM-12+088299999V0201401N003110042019N0040001N1+01691+01481101631ADDAY101061AY201061GF107991061021004501021999KA1240N+01601MA1999999091891MD1999999-0011MW1101REMSYN082AAXX  08124 83339 31496 71406 10169 20148 39189 40163 71000 8622/ 333 20160 59001;
0147833390999992007060818004-14050-042617FM-12+088299999V0200501N003612200019N0100001N1+02491+00951101191ADDGA1001+999999999GF100991001001999999001001MA1999999091591MD1999999+0021REMSYN064AAXX  08184 83339 32997 00507 10249 20095 39159 40119 333 58002;
0178833390999992007060900004-14050-042617FM-12+088299999V0202301N002112200019N0020001N1+01871+00991101551ADDGA1001+999999999GF100991001001999999001001KA1240M+02601MA1999999091761MD1999999+0041REMSYN082AAXX  09004 83339 32995 02304 10187 20099 39176 40155 333 10260 29060 55079 58004;
0166833390999992007060912004-14050-042617FM-12+088299999V0200901N006212200019N0100001N1+01851+01171101751ADDGA1001+999999999GF100991001001999999001001KA1240N+01441MA1999999091961MD1999999+0071REMSYN070AAXX  09124 83339 32997 00912 10185 20117 39196 40175 333 20144 58007;
0147833390999992007060918004-14050-042617FM-12+088299999V0200901N002612200019N0100001N1+02491+01051101281ADDGA1001+999999999GF100991001001999999001001MA1999999091621MD1999999+0031REMSYN064AAXX  09184 83339 32997 00905 10249 20105 39162 40128 333 58003;
0166833390999992007061012004-14050-042617FM-12+088299999V0201401N004112200019N0100001N1+01871+01341101831ADDGA1001+999999999GF100991001001999999001001KA1240N+01321MA1999999092091MD1999999+0131REMSYN070AAXX  10124 83339 32997 01408 10187 20134 39209 40183 333 20132 58013;
0147833390999992007061018004-14050-042617FM-12+088299999V0200501N002612200019N0100001N1+02731+01021101281ADDGA1001+999999999GF100991001001999999001001MA1999999091671MD1999999+0051REMSYN064AAXX  10184 83339 32997 00505 10273 20102 39167 40128 333 58005;
0178833390999992007061100004-14050-042617FM-12+088299999V0201401N003112200019N0020001N1+02151+01131101551ADDGA1001+999999999GF100991001001999999001001KA1240M+02761MA1999999091841MD1999999+0021REMSYN082AAXX  11004 83339 32995 01406 10215 20113 39184 40155 333 10276 29052 55099 58002;
0156833390999992007061112004-14050-042617FM-12+088299999V0201401N003110042019N0100001N1+01831+01561101801ADDGF106991061021004501001001KA1240N+01621MA1999999092061MD1999999-0031REMSYN076AAXX  11124 83339 32497 61406 10183 20156 39206 40180 86200 333 20162 59003;
0137833390999992007061118004-14050-042617FM-12+088299999V0200901N004612200019N0100001N1+02591+01211101251ADDGF102991011011004501001011MA1999999091661MD1999999-0011REMSYN070AAXX  11184 83339 32497 20909 10259 20121 39166 40125 81101 333 59001;
0168833390999992007061200004-14050-042617FM-12+088299999V0200901N001012200019N0020001N1+02131+01331101551ADDGF103991031011004501001001KA1240M+02681MA1999999091841MD1999999+0001REMSYN088AAXX  12004 83339 32495 30902 10213 20133 39184 40155 83100 333 10268 29062 55078 58000;
0201833390999992007061212004-14050-042617FM-12+088299999V0201401N005110042019N0100001N1+01751+01711101761ADDAA124001091AY161061AY241061GF108991051051004501021999KA1240N+01731MA1999999092011MD1999999-0051MW1401REMSYN088AAXX  12124 83339 21497 81410 10175 20171 39201 40176 74064 8552/ 333 20173 59005 60014;
0165833390999992007061218004-14050-042617FM-12+088299999V0201401N005112200019N0100001N1+02441+01641101311ADDAY141061AY221061GF103991021021004501001011MA1999999091701MD1999999+0041MW1021REMSYN076AAXX  12184 83339 31497 31410 10244 20164 39170 40131 70242 82201 333 58004;
0178833390999992007061300004-14050-042617FM-12+088299999V0201401N003112200019N0020001N1+02041+01581101621ADDGA1001+999999999GF100991001001999999001001KA1240M+02481MA1999999091861MD1999999+0021REMSYN082AAXX  13004 83339 32995 01406 10204 20158 39186 40162 333 10248 29077 55058 58002;
0201833390999992007061312004-14050-042617FM-12+088299999V0201401N003110450019N0020001N1+01861+01811101721ADDAA124001091AY161061AY241061GF108991041051004501021999KA1240N+01741MA1999999091971MD1999999-0041MW1401REMSYN088AAXX  13124 83339 21495 81406 10186 20181 39197 40172 74064 8452/ 333 20174 59004 60014;
0182833390999992007061318004-14050-042617FM-12+088299999V0200501N005112200019N0100001N1+02411+01741101261ADDAA106000591AY161061AY241061GF104991041021004501001001MA1999999091641MD1999999-0061MW1021REMSYN082AAXX  13184 83339 21497 40510 10241 20174 39164 40126 70264 84200 333 59006 69941;
0178833390999992007061400004-14050-042617FM-12+088299999V0200901N003612200019N0020001N1+02091+01601101461ADDGA1001+999999999GF100991001001999999001001KA1240M+02461MA1999999091741MD1999999-0121REMSYN082AAXX  14004 83339 32995 00907 10209 20160 39174 40146 333 10246 29077 55035 59012;
0201833390999992007061412004-14050-042617FM-12+088299999V0200901N003110042019N0020001N1+01671+01531101701ADDAA124000591AY161061AY241061GF108991051021004501021999KA1240N+01501MA1999999091941MD1999999-0031MW1401REMSYN088AAXX  14124 83339 21495 80906 10167 20153 39194 40170 74064 8522/ 333 20150 59003 69944;
0175833390999992007061418004-14050-042617FM-12+088299999V0201401N004112200019N0100001N1+02481+01031101231ADDAY141061AY221061GA1001+999999999GF100991001001999999001001MA1999999091611MD1999999-0031MW1021REMSYN070AAXX  14184 83339 31997 01408 10248 20103 39161 40123 70242 333 59003;
0213833390999992007061500004-14050-042617FM-12+088299999V0200901N003612200019N0020001N1+01991+01481101531ADDGA1001+999999999GF100991001001999999001001KA1240M+02561MA1999999999999MD1999999+0021REMSYN082AAXX  15004 83339 32995 00907 10199 20148 39476 40153 333 10256 29069 55073 58002;EQDQ01+094763APOSP Q02 094763APOSP 
0156833390999992007061512004-14050-042617FM-12+088299999V0200901N004610042019N0100001N1+01831+01531101631ADDGF106991061021004501001001KA1240N+01631MA1999999091871MD1999999-0071REMSYN076AAXX  15124 83339 32497 60909 10183 20153 39187 40163 86200 333 20163 59007;
0137833390999992007061518004-14050-042617FM-12+088299999V0200501N006212200019N0100001N1+02521+01061101231ADDGF102991021011004501001001MA1999999091611MD1999999+0001REMSYN070AAXX  15184 83339 32497 20512 10252 20106 39161 40123 82100 333 58000;
0178833390999992007061600004-14050-042617FM-12+088299999V0201401N002612200019N0020001N1+02071+01561101641ADDGA1001+999999999GF100991001001999999001001KA1240M+02571MA1999999091901MD1999999+0141REMSYN082AAXX  16004 83339 32995 01405 10207 20156 39190 40164 333 10257 29062 55078 58014;
0156833390999992007061612004-14050-042617FM-12+088299999V0201401N002612200019N0100001N1+02031+01621101771ADDGF102991021011004501001001KA1240N+01721MA1999999092051MD1999999+0181REMSYN076AAXX  16124 83339 32497 21405 10203 20162 39205 40177 82100 333 20172 58018;
0137833390999992007061618004-14050-042617FM-12+088299999V0200901N003610450019N0100001N1+02551+01471101351ADDGF106991041021004501021001MA1999999091741MD1999999+0131REMSYN070AAXX  16184 83339 32497 60907 10255 20147 39174 40135 84220 333 58013;
0178833390999992007061700004-14050-042617FM-12+088299999V0201401N001012200019N0020001N1+02211+01301101551ADDGA1001+999999999GF100991001001999999001001KA1240M+02661MA1999999091901MD1999999+0001REMSYN082AAXX  17004 83339 32995 01402 10221 20130 39190 40155 333 10266 29060 55051 58000;
0156833390999992007061712004-14050-042617FM-12+088299999V0201401N005710042019N0100001N1+01951+01661101451ADDGF105991051021004501001001KA1240N+01741MA1999999091971MD1999999-0081REMSYN076AAXX  17124 83339 32497 51411 10195 20166 39197 40145 85200 333 20174 59008;
0147833390999992007061718004-14050-042617FM-12+088299999V0200901N006712200019N0100001N1+02551+01171101321ADDGA1001+999999999GF100991001001999999001001MA1999999091731MD1999999-0011REMSYN064AAXX  17184 83339 32997 00913 10255 20117 39173 40132 333 59001;
0156833390999992007061812004-14050-042617FM-12+088299999V0201401N005712200019N0100001N1+01791+01451101941ADDGF103991031021004501001001KA1240N+01531MA1999999092171MD1999999+0201REMSYN076AAXX  18124 83339 32497 31411 10179 20145 39217 40194 83200 333 20153 58020;
0147833390999992007061818004-14050-042617FM-12+088299999V0200901N002612200019N0100001N1+02491+01161101631ADDGA1001+999999999GF100991001001999999001001MA1999999091841MD1999999+0111REMSYN064AAXX  18184 83339 32997 00905 10249 20116 39184 40163 333 58011;
0178833390999992007061900004-14050-042617FM-12+088299999V0200901N002612200019N0020001N1+01841+01141101711ADDGA1001+999999999GF100991001001999999001001KA1240M+02571MA1999999091911MD1999999-0091REMSYN082AAXX  19004 83339 32995 00905 10184 20114 39191 40171 333 10257 29065 55106 59009;
0201833390999992007061912004-14050-042617FM-12+088299999V0201401N006712200019N0100001N1+01751+01581102001ADDAA124002091AY161061AY241061GF104991041021004501001001KA1240N+01521MA1999999092161MD1999999-0011MW1021REMSYN088AAXX  19124 83339 21497 41413 10175 20158 39216 40200 70264 84200 333 20152 59001 60024;
0137833390999992007061918004-14050-042617FM-12+088299999V0201401N005712200019N0100001N1+02431+01361101581ADDGF102991021011004501001001MA1999999091891MD1999999+0051REMSYN070AAXX  19184 83339 32497 21411 10243 20136 39189 40158 82100 333 58005;
0178833390999992007062000004-14050-042617FM-12+088299999V0201401N005112200019N0020001N1+01981+01181101901ADDGA1001+999999999GF100991001001999999001001KA1240M+02481MA1999999092101MD1999999+0191REMSYN082AAXX  20004 83339 32995 01410 10198 20118 39210 40190 333 10248 29065 55080 58019;
0156833390999992007062012004-14050-042617FM-12+088299999V0200901N004612200019N0100001N1+01751+01431102051ADDGF102991021011004501001001KA1240N+01421MA1999999092241MD1999999+0081REMSYN076AAXX  20124 83339 32497 20909 10175 20143 39224 40205 82100 333 20142 58008;
0147833390999992007062018004-14050-042617FM-12+088299999V0201401N005112200019N0100001N1+02441+01071101591ADDGA1001+999999999GF100991001001999999001001MA1999999091901MD1999999+0011REMSYN064AAXX  20184 83339 32997 01410 10244 20107 39190 40159 333 58001;
0178833390999992007062100004-14050-042617FM-12+088299999V0200901N002612200019N0020001N1+02051+01331101901ADDGA1001+999999999GF100991001001999999001001KA1240M+02601MA1999999092121MD1999999+0021REMSYN082AAXX  21004 83339 32995 00905 10205 20133 39212 40190 333 10260 29062 55087 58002;
0156833390999992007062112004-14050-042617FM-12+088299999V0200501N010312200019N0100001N1+01881+01431102001ADDGF104991041021004501001001KA1240N+01181MA1999999092231MD1999999-0011REMSYN076AAXX  21124 83339 32497 40520 10188 20143 39223 40200 84200 333 20118 59001;
0137833390999992007062118004-14050-042617FM-12+088299999V0201401N006710042019N0100001N1+02321+01341101721ADDGF108991051021004501021999MA1999999091971MD1999999+0071REMSYN070AAXX  21184 83339 32497 81413 10232 20134 39197 40172 8522/ 333 58007;
0168833390999992007062200004-14050-042617FM-12+088299999V0201401N005110450019N0020001N1+01971+01481101841ADDGF106991041021004501021001KA1240M+02371MA1999999092061MD1999999-0061REMSYN088AAXX  22004 83339 32495 61410 10197 20148 39206 40184 84220 333 10237 29069 55049 59006;
0156833390999992007062212004-14050-042617FM-12+088299999V0201401N005710042019N0100001N1+01741+01311101961ADDGF106991061021004501001001KA1240N+01521MA1999999092151MD1999999-0081REMSYN076AAXX  22124 83339 32497 61411 10174 20131 39215 40196 86200 333 20152 59008;
0137833390999992007062218004-14050-042617FM-12+088299999V0201401N003112200019N0100001N1+02451+01291101471ADDGF104991041021004501001001MA1999999091761MD1999999-0291REMSYN070AAXX  22184 83339 32497 41406 10245 20129 39176 40147 84200 333 59029;
0168833390999992007062300004-14050-042617FM-12+088299999V0200901N005710042019N0020001N1+02111+01531101621ADDGF106991061021004501001001KA1240M+02501MA1999999091861MD1999999+0201REMSYN088AAXX  23004 83339 32495 60911 10211 20153 39186 40162 86200 333 10250 29066 55065 58020;
0201833390999992007062312004-14050-042617FM-12+088299999V0201401N004110042019N0020001N1+01691+01671101641ADDAA124004191AY161061AY241061GF108991051021004501021999KA1240N+01681MA1999999091881MD1999999-0271MW1501REMSYN088AAXX  23124 83339 21495 81408 10169 20167 39188 40164 75064 8522/ 333 20168 59027 60044;
0182833390999992007062318004-14050-042617FM-12+088299999V0200501N003612200019N0100001N1+02321+01531101331ADDAA106000591AY161061AY241061GF104991041021004501001001MA1999999091681MD1999999-0081MW1021REMSYN082AAXX  23184 83339 21497 40507 10232 20153 39168 40133 70264 84200 333 59008 69961;
0201833390999992007062412004-14050-042617FM-12+088299999V0200501N003112200019N0100001N1+01851+01491101961ADDAA124000591AY161061AY221061GF104991041021004501001001KA1240N+01601MA1999999092111MD1999999+0231MW1021REMSYN088AAXX  24124 83339 21497 40506 10185 20149 39211 40196 70262 84200 333 20160 58023 69964;
0156833390999992007062418004-14050-042617FM-12+088299999V0200501N003612200019N0100001N1+02431+01031101581ADDGF102991001001999999001011MA1999999091731MD1999999+0051REMSYN070AAXX  24184 83339 32497 20507 10243 20103 39173 40158 80001 333 58005;EQDQ01+004502SCOLCB
0178833390999992007062500004-14050-042617FM-12+088299999V0201401N003112200019N0020001N1+01981+00911101781ADDGA1001+999999999GF100991001001999999001001KA1240M+02501MA1999999092011MD1999999+0171REMSYN082AAXX  25004 83339 32995 01406 10198 20091 39201 40178 333 10250 29055 55101 58017;
0156833390999992007062512004-14050-042617FM-12+088299999V0200501N002610042019N0100001N1+01761+01351101981ADDGF106991061021004501001001KA1240N+01481MA1999999092171MD1999999+0061REMSYN076AAXX  25124 83339 32497 60505 10176 20135 39217 40198 86200 333 20148 58006;
0137833390999992007062518004-14050-042617FM-12+088299999V0200901N005710450019N0100001N1+02341+01521101761ADDGF106991041021004501031001MA1999999091931MD1999999+0201REMSYN070AAXX  25184 83339 32497 60911 10234 20152 39193 40176 84230 333 58020;
0213833390999992007062600004-14050-042617FM-12+088299999V0201401N008210042019N0020001N1+01711+01661102011ADDAA106002091AY161061AY221061GF108991051021004501021999KA1240M+02361MA1999999092151MD1999999+0141MW1501REMSYN100AAXX  26004 83339 21495 81416 10171 20166 39215 40201 75062 8522/ 333 10236 29082 55024 58014 60021;
0201833390999992007062612004-14050-042617FM-12+088299999V0201401N007212200019N0100001N1+01761+01521102061ADDAA124003091AY161061AY241061GF104991041021004501001001KA1240N+01581MA1999999092201MD1999999+0031MW1021REMSYN088AAXX  26124 83339 21497 41414 10176 20152 39220 40206 70264 84200 333 20158 58003 60034;
0137833390999992007062618004-14050-042617FM-12+088299999V0200901N008212200019N0100001N1+02261+01371101811ADDGF104991041021004501001001MA1999999091941MD1999999+0011REMSYN070AAXX  26184 83339 32497 40916 10226 20137 39194 40181 84200 333 58001;
0168833390999992007062700004-14050-042617FM-12+088299999V0200901N005712200019N0020001N1+01891+01271101901ADDGF102991021011004501001001KA1240M+02241MA1999999092071MD1999999-0081REMSYN088AAXX  27004 83339 32495 20911 10189 20127 39207 40190 82100 333 10224 29069 55078 59008;
0156833390999992007062712004-14050-042617FM-12+088299999V0201401N006710042019N0100001N1+01631+01461102081ADDGF106991061021004501001001KA1240N+01501MA1999999092221MD1999999+0021REMSYN076AAXX  27124 83339 32497 61413 10163 20146 39222 40208 86200 333 20150 58002;
0172833390999992007062718004-14050-042617FM-12+088299999V0200501N005112200019N0100001N1+02401+01231101431ADDGF102991021011004501001001MA1999999999999MD1999999-0191REMSYN070AAXX  27184 83339 32497 20510 10240 20123 30175 40143 82100 333 59019;EQDQ01+101753APOSP Q02 101753APOSP 
0168833390999992007062800004-14050-042617FM-12+088299999V0201401N003612200019N0020001N1+01971+01211101861ADDGF102991021011004501001001KA1240M+02461MA1999999092041MD1999999-0031REMSYN088AAXX  28004 83339 32495 21407 10197 20121 39204 40186 82100 333 10246 29065 55077 59003;
0156833390999992007062812004-14050-042617FM-12+088299999V0200901N006712200019N0100001N1+01741+01291101921ADDGF102991021011004501001001KA1240N+01481MA1999999092121MD1999999-0101REMSYN076AAXX  28124 83339 32497 20913 10174 20129 39212 40192 82100 333 20148 59010;
0147833390999992007062818004-14050-042617FM-12+088299999V0201401N004112200019N0100001N1+02381+00981101441ADDGA1001+999999999GF100991001001999999001001MA1999999091761MD1999999+0011REMSYN064AAXX  28184 83339 32997 01408 10238 20098 39176 40144 333 58001;
0178833390999992007062900004-14050-042617FM-12+088299999V0201801N002112200019N0020001N1+01871+01011101831ADDGA1001+999999999GF100991001001999999001001KA1240M+02441MA1999999092011MD1999999-0031REMSYN082AAXX  29004 83339 32995 01804 10187 20101 39201 40183 333 10244 29058 55106 59003;
0175833390999992007062912004-14050-042617FM-12+088299999V0200901N004612200019N0100001N1+01761+01291102051ADDGF102991001001999999001011KA1240N+01311MA1999999092211MD1999999+0091REMSYN076AAXX  29124 83339 32897 20909 10176 20129 39221 40205 80001 333 20131 58009;EQDQ01+022502SCOLCB
0147833390999992007062918004-14050-042617FM-12+088299999V0201801N002112200019N0100001N1+02501+00471101511ADDGA1001+999999999GF100991001001999999001001MA1999999091831MD1999999+0071REMSYN064AAXX  29184 83339 32997 01804 10250 20047 39183 40151 333 58007;
0178833390999992007063000004-14050-042617FM-12+088299999V0201401N002612200019N0020001N1+01931+01071101871ADDGA1001+999999999GF100991001001999999001001KA1240M+02541MA1999999092071MD1999999+0061REMSYN082AAXX  30004 83339 32995 01405 10193 20107 39207 40187 333 10254 29054 55103 58006;
0156833390999992007063012004-14050-042617FM-12+088299999V0200901N003112200019N0100001N1+01891+01471102091ADDGF102991021011004501001001KA1240N+01401MA1999999092291MD1999999+0081REMSYN076AAXX  30124 83339 32497 20906 10189 20147 39229 40209 82100 333 20140 58008;
0137833390999992007063018004-14050-042617FM-12+088299999V0200901N002112200019N0100001N1+02551+01101101641ADDGF102991021011004501001001MA1999999091961MD1999999+0131REMSYN070AAXX  30184 83339 32497 20904 10255 20110 39196 40164 82100 333 58013;
0156833390999992007070112004-14050-042617FM-12+088299999V0201801N001512200019N0100001N1+01831+01411102101ADDGF105991011011004501001041KA1240N+01441MA1999999092301MD1999999+0011REMSYN076AAXX  01124 83339 32497 51803 10183 20141 39230 40210 81104 333 20144 58001;
0156833390999992007070118004-14050-042617FM-12+088299999V0201801N006712200019N0100001N1+02471+00791101661ADDGF103991011011004501001011MA1999999091492MD1999999+0021REMSYN070AAXX  01184 83339 32497 31813 10247 20079 39149 40166 81101 333 58002;EQDQ01+091493APOSP 
0168833390999992007070200004-14050-042617FM-12+088299999V0201401N006712200019N0020001N1+02111+00671101981ADDGF105991021011004501001011KA1240M+02561MA1999999092211MD1999999+0021REMSYN088AAXX  02004 83339 32495 51413 10211 20067 39221 40198 82101 333 10256 29047 55063 58002;
0156833390999992007070212004-14050-042617FM-12+088299999V0200901N005112200019N0100001N1+01691+01291102091ADDGF106991041021004501001011KA1240N+01321MA1999999092291MD1999999-0011REMSYN076AAXX  02124 83339 32497 60910 10169 20129 39229 40209 84201 333 20132 59001;
0137833390999992007070218004-14050-042617FM-12+088299999V0201401N003110042019N0100001N1+02411+01251101651ADDGF108991061041004501021999MA1999999091971MD1999999-0011REMSYN070AAXX  02184 83339 32497 81406 10241 20125 39197 40165 8642/ 333 59001;
0213833390999992007070300004-14050-042617FM-12+088299999V0201401N007210042019N0020001N1+01651+01601102091ADDAA106000591AY151061AY221061GF108991051051004501021999KA1240M+02461MA1999999092191MD1999999-0021MW1501REMSYN100AAXX  03004 83339 21495 81414 10165 20160 39219 40209 75052 8552/ 333 10246 29079 55057 59002 69961;
0201833390999992007070312004-14050-042617FM-12+088299999V0200901N005712200019N0100001N1+01791+01411102201ADDAA124001091AY161061AY221061GF105991041021004501001011KA1240N+01601MA1999999092311MD1999999+0021MW1021REMSYN088AAXX  03124 83339 21497 50911 10179 20141 39231 40220 70262 84201 333 20160 58002 60014;
0137833390999992007070318004-14050-042617FM-12+088299999V0200901N005110042019N0100001N1+02151+01451101811ADDGF108991051021004501021999MA1999999092041MD1999999+0071REMSYN070AAXX  03184 83339 32497 80910 10215 20145 39204 40181 8522/ 333 58007;
0168833390999992007070400004-14050-042617FM-12+088299999V0201401N003112200019N0020001N1+01911+01491101961ADDGF102991021021004501001001KA1240M+02231MA1999999092151MD1999999-0041REMSYN088AAXX  04004 83339 32495 21406 10191 20149 39215 40196 82200 333 10223 29074 55033 59004;
0156833390999992007070412004-14050-042617FM-12+088299999V0200901N006212200019N0100001N1+01841+01411102081ADDGF104991031011004501001011KA1240N+01591MA1999999092281MD1999999-0031REMSYN076AAXX  04124 83339 32497 40912 10184 20141 39228 40208 83101 333 20159 59003;
0137833390999992007070418004-14050-042617FM-12+088299999V0200901N005110450019N0100001N1+02331+01381101691ADDGF106991021011004501021001MA1999999091991MD1999999-0051REMSYN070AAXX  04184 83339 32497 60910 10233 20138 39199 40169 82120 333 59005;
0178833390999992007070500004-14050-042617FM-12+088299999V0200901N003112200019N0020001N1+02001+01321101961ADDGA1001+999999999GF100991001001999999001001KA1240M+02381MA1999999092171MD1999999+0021REMSYN082AAXX  05004 83339 32995 00906 10200 20132 39217 40196 333 10238 29065 55030 58002;
0184833390999992007070512004-14050-042617FM-12+088299999V0201401N005110042019N0020001N1+01771+01611102121ADDAY121061AY221061GF108991061051004501021999KA1240N+01681MA1999999092321MD1999999+0041MW1401REMSYN082AAXX  05124 83339 31495 81410 10177 20161 39232 40212 74022 8652/ 333 20168 58004;
0165833390999992007070518004-14050-042617FM-12+088299999V0200901N006212200019N0100001N1+02351+01491101711ADDAY141061AY221061GF105991031021004501001011MA1999999092031MD1999999+0041MW1021REMSYN076AAXX  05184 83339 31497 50912 10235 20149 39203 40171 70242 83201 333 58004;
0213833390999992007070600004-14050-042617FM-12+088299999V0200901N004110042019N0020001N1+01701+01671102031ADDAA106000591AY121061AY221061GF108991051051004501021999KA1240M+02401MA1999999092171MD1999999+0001MW1501REMSYN100AAXX  06004 83339 21495 80908 10170 20167 39217 40203 75022 8552/ 333 10240 29086 55020 58000 69951;
0201833390999992007070612004-14050-042617FM-12+088299999V0200901N006212200019N0100001N1+01681+01331102101ADDAA124000891AY161061AY221061GF103991021011004501001011KA1240N+01401MA1999999092221MD1999999-0101MW1021REMSYN088AAXX  06124 83339 21497 30912 10168 20133 39222 40210 70262 82101 333 20140 59010 69974;
0137833390999992007070618004-14050-042617FM-12+088299999V0200501N006212200019N0100001N1+02351+01201101651ADDGF102991011011004501001011MA1999999091911MD1999999-0121REMSYN070AAXX  06184 83339 32497 20512 10235 20120 39191 40165 81101 333 59012;
0178833390999992007070700004-14050-042617FM-12+088299999V0200901N002112200019N0020001N1+02001+01321101751ADDGA1001+999999999GF100991001001999999001001KA1240M+02421MA1999999091961MD1999999-0211REMSYN082AAXX  07004 83339 32995 00904 10200 20132 39196 40175 333 10242 29064 55086 59021;
0156833390999992007070712004-14050-042617FM-12+088299999V0200901N002612200019N0100001N1+01741+01431101941ADDGF104991041021004501001001KA1240N+01561MA1999999092141MD1999999-0081REMSYN076AAXX  07124 83339 32497 40905 10174 20143 39214 40194 84200 333 20156 59008;
0137833390999992007070718004-14050-042617FM-12+088299999V0200901N004112200019N0100001N1+02471+01241101391ADDGF103991021011004501001011MA1999999091741MD1999999-0171REMSYN070AAXX  07184 83339 32497 30908 10247 20124 39174 40139 82101 333 59017;
0178833390999992007070800004-14050-042617FM-12+088299999V0200901N003112200019N0020001N1+02041+01291101641ADDGA1001+999999999GF100991001001999999001001KA1240M+02151MA1999999091861MD1999999-0101REMSYN082AAXX  08004 83339 32995 00906 10204 20129 39186 40164 333 10215 29063 55085 59010;
0137833390999992007070818004-14050-042617FM-12+088299999V0200901N003612200019N0100001N1+02531+01541101271ADDGF102991021011004501001001MA1999999091661MD1999999-0081REMSYN070AAXX  08184 83339 32497 20907 10253 20154 39166 40127 82100 333 59008;
0168833390999992007070900004-14050-042617FM-12+088299999V0201401N004112200019N0020001N1+02151+01701101651ADDGF102991021021004501001001KA1240M+02581MA1999999091911MD1999999+0051REMSYN088AAXX  09004 83339 32495 21408 10215 20170 39191 40165 82200 333 10258 29074 55084 58005;
0201833390999992007070912004-14050-042617FM-12+088299999V0201401N003112200019N0100001N1+01851+01531101881ADDAA124002091AY161061AY261061GF104991041021004501001001KA1240N+01601MA1999999091241MD1999999+0121MW1101REMSYN088AAXX  09124 83339 21497 41406 10185 20153 39124 40188 71066 84200 333 20160 58012 60024;
0137833390999992007070918004-14050-042617FM-12+088299999V0200901N004612200019N0100001N1+02411+01441101261ADDGF102991021021004501001001MA1999999091641MD1999999-0021REMSYN070AAXX  09184 83339 32497 20909 10241 20144 39164 40126 82200 333 59002;
0168833390999992007071000004-14050-042617FM-12+088299999V0200501N004112200019N0020001N1+01971+01571101581ADDGF102991021021004501001001KA1240M+02561MA1999999091831MD1999999-0081REMSYN088AAXX  10004 83339 32495 20508 10197 20157 39183 40158 82200 333 10256 29073 55098 59008;
0156833390999992007071012004-14050-042617FM-12+088299999V0200901N003610042019N0100001N1+01751+01351101661ADDGF106991061021004501001001KA1240N+01561MA1999999091881MD1999999-0261REMSYN076AAXX  10124 83339 32497 60907 10175 20135 39188 40166 86200 333 20156 59026;
0147833390999992007071018004-14050-042617FM-12+088299999V0201401N004612200019N0100001N1+02411+01071101191ADDGA1001+999999999GF100991001001999999001001MA1999999091551MD1999999-0091REMSYN064AAXX  10184 83339 32997 01409 10241 20107 39155 40119 333 59009;
0178833390999992007071100004-14050-042617FM-12+088299999V0200501N001512200019N0020001N1+01871+00911101551ADDGA1001+999999999GF100991001001999999001001KA1240M+02501MA1999999091761MD1999999-0071REMSYN082AAXX  11004 83339 32995 00503 10187 20091 39176 40155 333 10250 29057 55092 59007;
0156833390999992007071112004-14050-042617FM-12+088299999V0202301N003112200019N0100001N1+01791+01391101661ADDGF102991021021004501001001KA1240N+01261MA1999999091881MD1999999+0001REMSYN076AAXX  11124 83339 32497 22306 10179 20139 39188 40166 82200 333 20126 58000;
0137833390999992007071118004-14050-042617FM-12+088299999V0203201N004612200019N0100001N1+02451+01271101211ADDGF102991021021004501001001MA1999999091541MD1999999-0011REMSYN070AAXX  11184 83339 32497 23209 10245 20127 39154 40121 82200 333 59001;
0178833390999992007071200004-14050-042617FM-12+088299999V0201401N005712200019N0020001N1+02051+01261101391ADDGA1001+999999999GF100991001001999999001001KA1240M+02561MA1999999091651MD1999999-0111REMSYN082AAXX  12004 83339 32995 01411 10205 20126 39165 40139 333 10256 29061 55106 59011;
0156833390999992007071212004-14050-042617FM-12+088299999V0201801N004610450019N0100001N1+01831+01241101761ADDGF105991041021004501021001KA1240N+01501MA1999999092011MD1999999+0131REMSYN076AAXX  12124 83339 32497 51809 10183 20124 39201 40176 84220 333 20150 58013;
0153833390999992007071218004-14050-042617FM-12+088299999V0201401N003610024019N0100001N1+02411+00881101291ADDGA1091+999999999GF109991091999999999999999MA1999999091641MD1999999+0101REMSYN070AAXX  12184 83339 32497 91407 10241 20088 39164 40129 85202 333 58010;
0168833390999992007071300004-14050-042617FM-12+088299999V0200901N002612200019N0020001N1+01851+01391101681ADDGF104991041021004501001001KA1240M+02501MA1999999091901MD1999999+0251REMSYN088AAXX  13004 83339 32495 40905 10185 20139 39190 40168 84200 333 10250 29064 55086 58025;
0184833390999992007071312004-14050-042617FM-12+088299999V0203201N007210042019N0040001N1+01711+01451101881ADDAY101061AY201061GF107991061021004501021999KA1240N+01521MA1999999092051MD1999999+0041MW1101REMSYN082AAXX  13124 83339 31496 73214 10171 20145 39205 40188 71000 8622/ 333 20152 58004;
0137833390999992007071318004-14050-042617FM-12+088299999V0200901N006212200019N0200001N1+02251+01351101441ADDGF104991031021004501001021MA1999999091721MD1999999+0081REMSYN070AAXX  13184 83339 32498 40912 10225 20135 39172 40144 83202 333 58008;
0168833390999992007071400004-14050-042617FM-12+088299999V0201401N003612200019N0020001N1+01871+01391101651ADDGF102991021021004501001001KA1240M+02541MA1999999091831MD1999999-0071REMSYN088AAXX  14004 83339 32495 21407 10187 20139 39183 40165 82200 333 10254 29072 55052 59007;
0156833390999992007071412004-14050-042617FM-12+088299999V0202301N004610450019N0100001N1+01851+01411101701ADDGF105991041021004501031001KA1240N+01581MA1999999091921MD1999999-0131REMSYN076AAXX  14124 83339 32497 52309 10185 20141 39192 40170 84230 333 20158 59013;
0137833390999992007071418004-14050-042617FM-12+088299999V0201401N000512200019N0100001N1+02531+00821101171ADDGF103991021021004501001041MA1999999091541MD1999999-0181REMSYN070AAXX  14184 83339 32497 31401 10253 20082 39154 40117 82204 333 59018;
0168833390999992007071500004-14050-042617FM-12+088299999V0203601N001512200019N0020001N1+01931+00851101391ADDGF102991021021004501001001KA1240M+02641MA1999999091651MD1999999-0181REMSYN088AAXX  15004 83339 32495 23603 10193 20085 39165 40139 82200 333 10264 29052 55095 59018;
0184833390999992007071512004-14050-042617FM-12+088299999V0200901N003110042019N0040001N1+01611+01441101621ADDAY101061AY201061GF108991081051004501999999KA1240N+01341MA1999999091801MD1999999-0121MW1101REMSYN082AAXX  15124 83339 31496 80906 10161 20144 39180 40162 71000 885// 333 20134 59012;
0137833390999992007071518004-14050-042617FM-12+088299999V0201401N002612200019N0100001N1+02571+01021101111ADDGF103991031021004501001001MA1999999091481MD1999999-0061REMSYN070AAXX  15184 83339 32497 31405 10257 20102 39148 40111 83200 333 59006;
0178833390999992007071600004-14050-042617FM-12+088299999V0201801N003612200019N0020001N1+02071+00831101361ADDGA1001+999999999GF100991001001999999001001KA1240M+02641MA1999999091611MD1999999-0041REMSYN082AAXX  16004 83339 32995 01807 10207 20083 39161 40136 333 10264 29055 55093 59004;
0166833390999992007071612004-14050-042617FM-12+088299999V0200901N002612200019N0100001N1+01991+01501101661ADDGA1001+999999999GF100991001001999999001001KA1240N+01381MA1999999091841MD1999999+0041REMSYN070AAXX  16124 83339 32997 00905 10199 20150 39184 40166 333 20138 58004;
0137833390999992007071618004-14050-042617FM-12+088299999V0200901N001512200019N0100001N1+02671+01131101061ADDGF102991021011004501001001MA1999999091471MD1999999-0011REMSYN070AAXX  16184 83339 32497 20903 10267 20113 39147 40106 82100 333 59001;
0178833390999992007071700004-14050-042617FM-12+088299999V0200901N005112200019N0020001N1+02181+01121101311ADDGA1001+999999999GF100991001001999999001001KA1240M+02761MA1999999091661MD1999999+0051REMSYN082AAXX  17004 83339 32995 00910 10218 20112 39166 40131 333 10276 29053 55105 58005;
0156833390999992007071712004-14050-042617FM-12+088299999V0200901N002610042019N0100001N1+01811+01561101651ADDGF106991061021004501001001KA1240N+01541MA1999999091931MD1999999+0091REMSYN076AAXX  17124 83339 32497 60905 10181 20156 39193 40165 86200 333 20154 58009;
0137833390999992007071718004-14050-042617FM-12+088299999V0201401N003112200019N0100001N1+02701+01151101101ADDGF102991021011004501001001MA1999999091551MD1999999+0081REMSYN070AAXX  17184 83339 32497 21406 10270 20115 39155 40110 82100 333 58008;
0178833390999992007071800004-14050-042617FM-12+088299999V0201401N003112200019N0020001N1+02241+01241101401ADDGA1001+999999999GF100991001001999999001001KA1240M+02821MA1999999091701MD1999999+0041REMSYN082AAXX  18004 83339 32995 01406 10224 20124 39170 40140 333 10282 29057 55083 58004;
0156833390999992007071812004-14050-042617FM-12+088299999V0201401N001010042019N0100001N1+01831+01641101541ADDGF106991061021004501001001KA1240N+01581MA1999999091851MD1999999-0081REMSYN076AAXX  18124 83339 32497 61402 10183 20164 39185 40154 86200 333 20158 59008;
0137833390999992007071818004-14050-042617FM-12+088299999V0202301N001012200019N0100001N1+02851+01161100931ADDGF104991041021004501001001MA1999999091441MD1999999-0111REMSYN070AAXX  18184 83339 32497 42302 10285 20116 39144 40093 84200 333 59011;
0168833390999992007071900004-14050-042617FM-12+088299999V0202301N002112200019N0020001N1+02541+01161101241ADDGF102991021011004501001001KA1240M+02961MA1999999091641MD1999999-0061REMSYN088AAXX  19004 83339 32495 22304 10254 20116 39164 40124 82100 333 10296 29052 55063 59006;
0166833390999992007071912004-14050-042617FM-12+088299999V0203601N001012200019N0100001N1+02211+01511101171ADDGA1001+999999999GF100991001001999999001001KA1240N+01661MA1999999091641MD1999999-0211REMSYN070AAXX  19124 83339 32997 03602 10221 20151 39164 40117 333 20166 59021;
0137833390999992007071918004-14050-042617FM-12+088299999V0202301N002112200019N0100001N1+03071+01171100661ADDGF103991031021004501001001MA1999999091271MD1999999-0171REMSYN070AAXX  19184 83339 32497 32304 10307 20117 39127 40066 83200 333 59017;
0168833390999992007072000004-14050-042617FM-12+088299999V0201801N001012200019N0020001N1+02451+01191101091ADDGF102991021011004501001001KA1240M+03171MA1999999091561MD1999999-0081REMSYN088AAXX  20004 83339 32495 21802 10245 20119 39156 40109 82100 333 10317 29046 55100 59008;
0156833390999992007072012004-14050-042617FM-12+088299999V0200501N007212200019N0100001N1+02031+01641101521ADDGF102991021011004501001001KA1240N+01781MA1999999091911MD1999999+0271REMSYN076AAXX  20124 83339 32497 20514 10203 20164 39191 40152 82100 333 20178 58027;
0147833390999992007072018004-14050-042617FM-12+088299999V0200901N006712200019N0100001N1+02571+01431101201ADDGA1001+999999999GF100991001001999999001001MA1999999091661MD1999999+0391REMSYN064AAXX  20184 83339 32997 00913 10257 20143 39166 40120 333 58039;
0156833390999992007072112004-14050-042617FM-12+088299999V0200901N005110042019N0100001N1+01821+01601101731ADDGF106991061021004501001001KA1240N+01681MA1999999092031MD1999999+0121REMSYN076AAXX  21124 83339 32497 60910 10182 20160 39203 40173 86200 333 20168 58012;
0137833390999992007072118004-14050-042617FM-12+088299999V0200901N004612200019N0100001N1+02541+01451101291ADDGF102991021011004501001001MA1999999091701MD1999999+0041REMSYN070AAXX  21184 83339 32497 20909 10254 20145 39170 40129 82100 333 58004;
0178833390999992007072200004-14050-042617FM-12+088299999V0200901N004612200019N0020001N1+02131+01411101531ADDGA1001+999999999GF100991001001999999001001KA1240M+02601MA1999999091821MD1999999-0021REMSYN082AAXX  22004 83339 32995 00909 10213 20141 39182 40153 333 10260 29066 55090 59002;
0156833390999992007072212004-14050-042617FM-12+088299999V0201401N005112200019N0100001N1+01991+01371101651ADDGF102991021011004501001001KA1240N+01601MA1999999091951MD1999999-0081REMSYN076AAXX  22124 83339 32497 21410 10199 20137 39195 40165 82100 333 20160 59008;
0147833390999992007072218004-14050-042617FM-12+088299999V0200901N004112200019N0100001N1+02551+01101101181ADDGA1001+999999999GF100991001001999999001001MA1999999091581MD1999999-0121REMSYN064AAXX  22184 83339 32997 00908 10255 20110 39158 40118 333 59012;
0178833390999992007072300004-14050-042617FM-12+088299999V0201401N003112200019N0020001N1+02091+01081101351ADDGA1001+999999999GF100991001001999999001001KA1240M+02601MA1999999091681MD1999999-0141REMSYN082AAXX  23004 83339 32995 01406 10209 20108 39168 40135 333 10260 29053 55097 59014;
0156833390999992007072312004-14050-042617FM-12+088299999V0200901N000512200019N0100001N1+01891+01451101531ADDGF102991021021004501001001KA1240N+01361MA1999999091821MD1999999-0091REMSYN076AAXX  23124 83339 32497 20901 10189 20145 39182 40153 82200 333 20136 59009;
0147833390999992007072318004-14050-042617FM-12+088299999V0201401N003112200019N0100001N1+02691+00511101001ADDGA1001+999999999GF100991001001999999001001MA1999999091421MD1999999-0161REMSYN064AAXX  23184 83339 32997 01406 10269 20051 39142 40100 333 59016;
0178833390999992007072400004-14050-042617FM-12+088299999V0201801N001512200019N0020001N1+02151+00961101261ADDGA1001+999999999GF100991001001999999001001KA1240M+02861MA1999999091581MD1999999-0101REMSYN082AAXX  24004 83339 32995 01803 10215 20096 39158 40126 333 10286 29049 55107 59010;
0166833390999992007072412004-14050-042617FM-12+088299999V0201401N003112200019N0100001N1+02091+01201101431ADDGA1001+999999999GF100991001001999999001001KA1240N+01401MA1999999091751MD1999999-0071REMSYN070AAXX  24124 83339 32997 01406 10209 20120 39175 40143 333 20140 59007;
0147833390999992007072418004-14050-042617FM-12+088299999V0200501N005112200019N0100001N1+02731+00861101031ADDGA1001+999999999GF100991001001999999001001MA1999999091471MD1999999+0051REMSYN064AAXX  24184 83339 32997 00510 10273 20086 39147 40103 333 58005;
0178833390999992007072500004-14050-042617FM-12+088299999V0201401N002112200019N0020001N1+02091+00781101241ADDGA1001+999999999GF100991001001999999001001KA1240M+02821MA1999999091601MD1999999+0021REMSYN082AAXX  25004 83339 32995 01404 10209 20078 39160 40124 333 10282 29044 55106 58002;
0166833390999992007072512004-14050-042617FM-12+088299999V0202301N001512200019N0100001N1+01991+01331101541ADDGA1001+999999999GF100991001001999999001001KA1240N+01421MA1999999091851MD1999999+0101REMSYN070AAXX  25124 83339 32997 02303 10199 20133 39185 40154 333 20142 58010;
0137833390999992007072518004-14050-042617FM-12+088299999V0200501N002112200019N0100001N1+02871+00611101061ADDGF102991021011004501001001MA1999999091521MD1999999+0051REMSYN070AAXX  25184 83339 32497 20504 10287 20061 39152 40106 82100 333 58005;
0156833390999992007072612004-14050-042617FM-12+088299999V0201401N002110042019N0100001N1+02371+01351101541ADDGF106991061021004501001001KA1240N+01501MA1999999091951MD1999999+0101REMSYN076AAXX  26124 83339 32497 61404 10237 20135 39195 40154 86200 333 20150 58010;
0137833390999992007072618004-14050-042617FM-12+088299999V0200901N004612200019N0100001N1+02851+01151101121ADDGF102991021021004501001001MA1999999091591MD1999999+0071REMSYN070AAXX  26184 83339 32497 20909 10285 20115 39159 40112 82200 333 58007;
0178833390999992007072700004-14050-042617FM-12+088299999V0201401N001512200019N0020001N1+02271+00941101371ADDGA1001+999999999GF100991001001999999001001KA1240M+02981MA1999999091801MD1999999+0031REMSYN082AAXX  27004 83339 32995 01403 10227 20094 39180 40137 333 10298 29044 55083 58003;
0156833390999992007072712004-14050-042617FM-12+088299999V0200501N004612200019N0100001N1+02051+01521101631ADDGF102991021021004501001001KA1240N+01681MA1999999091971MD1999999+0021REMSYN076AAXX  27124 83339 32497 20509 10205 20152 39197 40163 82200 333 20168 58002;
0137833390999992007072718004-14050-042617FM-12+088299999V0202301N005712200019N0100001N1+02651+01131101131ADDGF102991021021004501001001MA1999999091581MD1999999-0011REMSYN070AAXX  27184 83339 32497 22311 10265 20113 39158 40113 82200 333 59001;
0178833390999992007072800004-14050-042617FM-12+088299999V0200501N006212200019N0020001N1+02211+01111101471ADDGA1001+999999999GF100991001001999999001001KA1240M+02721MA1999999091831MD1999999+0031REMSYN082AAXX  28004 83339 32995 00512 10221 20111 39183 40147 333 10272 29053 55105 58003;
0156833390999992007072812004-14050-042617FM-12+088299999V0201401N006712200019N0100001N1+01931+01321101681ADDGF102991021021004501001001KA1240N+01741MA1999999092001MD1999999+0031REMSYN076AAXX  28124 83339 32497 21413 10193 20132 39200 40168 82200 333 20174 58003;
0147833390999992007072818004-14050-042617FM-12+088299999V0200901N006712200019N0100001N1+02491+01071101291ADDGA1001+999999999GF100991001001999999001001MA1999999091701MD1999999+0121REMSYN064AAXX  28184 83339 32997 00913 10249 20107 39170 40129 333 58012;
0178833390999992007072900004-14050-042617FM-12+088299999V0203201N003112200019N0020001N1+01951+01171101621ADDGA1001+999999999GF100991001001999999001001KA1240M+02601MA1999999091881MD1999999+0051REMSYN082AAXX  29004 83339 32995 03206 10195 20117 39188 40162 333 10260 29058 55099 58005;
0156833390999992007072912004-14050-042617FM-12+088299999V0201401N006712200019N0100001N1+01891+01361101801ADDGF104991041021004501001001KA1240N+01561MA1999999092031MD1999999+0031REMSYN076AAXX  29124 83339 32497 41413 10189 20136 39203 40180 84200 333 20156 58003;
0137833390999992007072918004-14050-042617FM-12+088299999V0200901N005712200019N0100001N1+02471+01251101341ADDGF103991031021004501001001MA1999999091691MD1999999-0011REMSYN070AAXX  29184 83339 32497 30911 10247 20125 39169 40134 83200 333 59001;
0168833390999992007073000004-14050-042617FM-12+088299999V0200501N006712200019N0020001N1+01711+01291101741ADDGF102991021021004501001001KA1240M+02541MA1999999091941MD1999999+0061REMSYN088AAXX  30004 83339 32495 20513 10171 20129 39194 40174 82200 333 10254 29068 55086 58006;
0156833390999992007073012004-14050-042617FM-12+088299999V0201401N005712200019N0100001N1+01631+01031102171ADDGF102991021011004501001001KA1240N+01481MA1999999092261MD1999999+0231REMSYN076AAXX  30124 83339 32497 21411 10163 20103 39226 40217 82100 333 20148 58023;
0147833390999992007073018004-14050-042617FM-12+088299999V0201401N005112200019N0100001N1+02271+00921101611ADDGA1001+999999999GF100991001001999999001001MA1999999091871MD1999999+0181REMSYN064AAXX  30184 83339 32997 01410 10227 20092 39187 40161 333 58018;
0178833390999992007073100004-14050-042617FM-12+088299999V0200901N006212200019N0020001N1+01761+00951101941ADDGA1001+999999999GF100991001001999999001001KA1240M+02391MA1999999092071MD1999999+0131REMSYN082AAXX  31004 83339 32995 00912 10176 20095 39207 40194 333 10239 29058 55091 58013;
0156833390999992007073112004-14050-042617FM-12+088299999V0201401N006210042019N0100001N1+01331+01041102231ADDGF108991051051004501021999KA1240N+01141MA1999999092271MD1999999+0011REMSYN076AAXX  31124 83339 32497 81412 10133 20104 39227 40223 8552/ 333 20114 58001;
0147833390999992007073118004-14050-042617FM-12+088299999V0201401N004112200019N0100001N1+02271+00891101561ADDGA1001+999999999GF100991001001999999001001MA1999999091791MD1999999-0081REMSYN064AAXX  31184 83339 32997 01408 10227 20089 39179 40156 333 59008;
0178833390999992007080100004-14050-042617FM-12+088299999V0201401N006212200019N0020001N1+01791+00911101811ADDGA1001+999999999GF100991001001999999001001KA1240M+02361MA1999999091891MD1999999-0181REMSYN082AAXX  01004 83339 32995 01412 10179 20091 39189 40181 333 10236 29059 55078 59018;
0156833390999992007080112004-14050-042617FM-12+088299999V0201401N004110042019N0100001N1+01571+01081102041ADDGF106991061021004501001001KA1240N+01341MA1999999092161MD1999999-0111REMSYN076AAXX  01124 83339 32497 61408 10157 20108 39216 40204 86200 333 20134 59011;
0147833390999992007080118004-14050-042617FM-12+088299999V0200901N005112200019N0100001N1+02191+01051101771ADDGA1001+999999999GF100991001001999999001001MA1999999091851MD1999999+0061REMSYN064AAXX  01184 83339 32997 00910 10219 20105 39185 40177 333 58006;
0178833390999992007080200004-14050-042617FM-12+088299999V0200901N007712200019N0020001N1+01791+00991101861ADDGA1001+999999999GF100991001001999999001001KA1240M+02261MA1999999092001MD1999999+0111REMSYN082AAXX  02004 83339 32995 00915 10179 20099 39200 40186 333 10226 29060 55066 58011;
0156833390999992007080212004-14050-042617FM-12+088299999V0200901N008210042019N0100001N1+01511+01211102031ADDGF108991051051004501021999KA1240N+01301MA1999999092141MD1999999-0021REMSYN076AAXX  02124 83339 32497 80916 10151 20121 39214 40203 8552/ 333 20130 59002;
0147833390999992007080218004-14050-042617FM-12+088299999V0200901N005112200019N0100001N1+02331+01081101631ADDGA1001+999999999GF100991001001999999001001MA1999999091891MD1999999+0041REMSYN064AAXX  02184 83339 32497 00910 10233 20108 39189 40163 333 58004;
0178833390999992007080300004-14050-042617FM-12+088299999V0201401N003112200019N0020001N1+01931+01041101891ADDGA1001+999999999GF100991001001999999001001KA1240M+02361MA1999999092031MD1999999+0031REMSYN082AAXX  03004 83339 32995 01406 10193 20104 39203 40189 333 10236 29060 55075 58003;
0156833390999992007080312004-14050-042617FM-12+088299999V0201401N003612200019N0100001N1+01831+01311102011ADDGF102991021011004501001001KA1240N+01471MA1999999092221MD1999999+0081REMSYN076AAXX  03124 83339 32497 21407 10183 20131 39222 40201 82100 333 20147 58008;
0147833390999992007080318004-14050-042617FM-12+088299999V0201401N005112200019N0100001N1+02451+01121101671ADDGA1001+999999999GF100991001001999999001001MA1999999091831MD1999999-0061REMSYN064AAXX  03184 83339 32997 01410 10245 20112 39183 40167 333 59006;
0178833390999992007080400004-14050-042617FM-12+088299999V0201401N003112200019N0020001N1+01951+01191101861ADDGA1001+999999999GF100991001001999999001001KA1240M+02521MA1999999092061MD1999999+0051REMSYN082AAXX  04004 83339 32995 01406 10195 20119 39206 40186 333 10252 29059 55096 58005;
0156833390999992007080412004-14050-042617FM-12+088299999V0200901N004610450019N0100001N1+01721+01481102041ADDGF108991041021004501021999KA1240N+01501MA1999999092231MD1999999+0011REMSYN076AAXX  04124 83339 32497 80909 10172 20148 39223 40204 8422/ 333 20150 58001;
0137833390999992007080418004-14050-042617FM-12+088299999V0201801N002612200019N0100001N1+02521+01211101521ADDGF103991031011004501001001MA1999999091871MD1999999+0041REMSYN070AAXX  04184 83339 32497 31805 10252 20121 39187 40152 83100 333 58004;
0178833390999992007080500004-14050-042617FM-12+088299999V0201401N005112200019N0020001N1+02071+01141101751ADDGA1001+999999999GF100991001001999999001001KA1240M+02591MA1999999091981MD1999999-0101REMSYN082AAXX  05004 83339 32995 01410 10207 20114 39198 40175 333 10259 29060 55073 59010;
0156833390999992007080512004-14050-042617FM-12+088299999V0201401N004112200019N0100001N1+01881+01431101911ADDGF102991021011004501001001KA1240N+01561MA1999999092161MD1999999-0071REMSYN076AAXX  05124 83339 32497 21408 10188 20143 39216 40191 82100 333 20156 59007;
0147833390999992007080518004-14050-042617FM-12+088299999V02099999999992200019N0100001N1+02571+01001101301ADDGA1001+999999999GF100991001001999999001001MA1999999091691MD1999999-0181REMSYN064AAXX  05184 83339 32997 014// 10257 20100 39169 40130 333 59018;
0178833390999992007080600004-14050-042617FM-12+088299999V0200901N005112200019N0020001N1+02051+01211101591ADDGA1001+999999999GF100991001001999999001001KA1240M+02641MA1999999091851MD1999999-0131REMSYN082AAXX  06004 83339 32995 00910 10205 20121 39185 40159 333 10264 29057 55102 59013;
0156833390999992007080612004-14050-042617FM-12+088299999V0201401N008210042019N0100001N1+01751+01211101841ADDGF106991061021004501001001KA1240N+01501MA1999999092061MD1999999-0101REMSYN076AAXX  06124 83339 32497 61416 10175 20121 39206 40184 86200 333 20150 59010;
0137833390999992007080618004-14050-042617FM-12+088299999V0200501N006712200019N0100001N1+02491+01031101441ADDGF102991021011004501001001MA1999999091801MD1999999+0111REMSYN070AAXX  06184 83339 32497 20513 10249 20103 39180 40144 82100 333 58011;
0168833390999992007080700004-14050-042617FM-12+088299999V0200901N004612200019N0020001N1+02031+01361101721ADDGF103991031021004501001001KA1240M+02561MA1999999091951MD1999999+0101REMSYN088AAXX  07004 83339 32495 30909 10203 20136 39195 40172 83200 333 10256 29061 55090 58010;
0156833390999992007080712004-14050-042617FM-12+088299999V0203201N004612200019N0100001N1+01931+01251101881ADDGF103991031021004501001001KA1240N+01561MA1999999092141MD1999999+0081REMSYN076AAXX  07124 83339 32497 33209 10193 20125 39214 40188 83200 333 20156 58008;
0137833390999992007080718004-14050-042617FM-12+088299999V0200501N005112200019N0100001N1+02471+01221101481ADDGF103991031021004501001001MA1999999091841MD1999999+0041REMSYN070AAXX  07184 83339 32497 30510 10247 20122 39184 40148 83200 333 58004;
0178833390999992007080800004-14050-042617FM-12+088299999V0201401N006212200019N0020001N1+02071+01361101721ADDGA1001+999999999GF100991001001999999001001KA1240M+02581MA1999999091991MD1999999+0041REMSYN082AAXX  08004 83339 32995 01412 10207 20136 39199 40172 333 10258 29060 55097 58004;
0201833390999992007080812004-14050-042617FM-12+088299999V0202301N007712200019N0100001N1+01761+01431101801ADDAA124000891AY161061AY261061GF104991041021004501001001KA1240N+01501MA1999999092031MD1999999-0111MW1101REMSYN088AAXX  08124 83339 21497 42315 10176 20143 39203 40180 71066 84200 333 20150 59011 69984;
0137833390999992007080818004-14050-042617FM-12+088299999V0203201N006712200019N0100001N1+02451+01171101391ADDGF102991021011004501001001MA1999999091741MD1999999-0101REMSYN070AAXX  08184 83339 32497 23213 10245 20117 39174 40139 82100 333 59010;
0178833390999992007080900004-14050-042617FM-12+088299999V0200901N006212200019N0020001N1+02051+01381101671ADDGA1001+999999999GF100991001001999999001001KA1240M+02501MA1999999091911MD1999999-0081REMSYN082AAXX  09004 83339 32995 00912 10205 20138 39191 40167 333 10250 29064 55089 59008;
0156833390999992007080912004-14050-042617FM-12+088299999V0200501N006712200019N0100001N1+02051+01311101811ADDGF103991031021004501001001KA1240N+01631MA1999999092091MD1999999+0061REMSYN076AAXX  09124 83339 32497 30513 10205 20131 39209 40181 83200 333 20163 58006;
0137833390999992007080918004-14050-042617FM-12+088299999V0200901N005112200019N0100001N1+02411+01321101461ADDGF102991021021004501001001MA1999999091801MD1999999+0061REMSYN070AAXX  09184 83339 32497 20910 10241 20132 39180 40146 82200 333 58006;
0178833390999992007081000004-14050-042617FM-12+088299999V0201401N004112200019N0020001N1+01971+01001101721ADDGA1001+999999999GF100991001001999999001001KA1240M+02481MA1999999091991MD1999999+0081REMSYN082AAXX  10004 83339 32995 01408 10197 20100 39199 40172 333 10248 29056 55091 58008;
0220833390999992007081012004-14050-042617FM-12+088299999V0201401N005710042019N0040001N1+01591+01531101711ADDAA124000091AY161061AY261061GF108991081051004501999999KA1240N+01501MA1999999092081MD1999999-0011MW1101REMSYN088AAXX  10124 83339 21496 81411 10159 20153 39208 40171 71066 885// 333 20150 59001 69924;EQDQ01  00002PRCP24
0137833390999992007081018004-14050-042617FM-12+088299999V0200501N007212200019N0100001N1+02451+01031101501ADDGF102991021011004501001001MA1999999091841MD1999999+0041REMSYN070AAXX  10184 83339 32497 20514 10245 20103 39184 40150 82100 333 58004;
0178833390999992007081100004-14050-042617FM-12+088299999V0201801N005112200019N0020001N1+01931+01171101871ADDGA1001+999999999GF100991001001999999001001KA1240M+02521MA1999999092031MD1999999+0041REMSYN082AAXX  11004 83339 32995 01810 10193 20117 39203 40187 333 10252 29066 55071 58004;
0156833390999992007081112004-14050-042617FM-12+088299999V0200501N006212200019N0100001N1+01791+01291101861ADDGF102991011021004501031001KA1240N+01381MA1999999092061MD1999999-0021REMSYN076AAXX  11124 83339 32497 20512 10179 20129 39206 40186 81230 333 20138 59002;
0137833390999992007081118004-14050-042617FM-12+088299999V0201401N009310042019N0100001N1+02451+01301101551ADDGF106991061021004501001001MA1999999091861MD1999999+0021REMSYN070AAXX  11184 83339 32497 61418 10245 20130 39186 40155 86200 333 58002;
0213833390999992007081200004-14050-042617FM-12+088299999V0203601N005110042019N0020001N1+01721+01661101941ADDAA106001091AY161061AY261061GF108991081051004501999999KA1240M+02481MA1999999092091MD1999999+0061MW1501REMSYN100AAXX  12004 83339 21495 83610 10172 20166 39209 40194 75066 885// 333 10248 29078 55087 58006 60011;
0201833390999992007081212004-14050-042617FM-12+088299999V0201401N006710042019N0100001N1+01691+01271102011ADDAA124001091AY161061AY261061GF106991061021004501001001KA1240N+01401MA1999999092141MD1999999+0061MW1021REMSYN088AAXX  12124 83339 21497 61413 10169 20127 39214 40201 70266 86200 333 20140 58006 60014;
0137833390999992007081218004-14050-042617FM-12+088299999V0200901N009310042019N0100001N1+02331+01471101621ADDGF106991061021004501001001MA1999999091881MD1999999+0021REMSYN070AAXX  12184 83339 32497 60918 10233 20147 39188 40162 86200 333 58002;
0168833390999992007081300004-14050-042617FM-12+088299999V0202301N005112200019N0020001N1+01871+01141101901ADDGF102991021021004501001001KA1240M+02421MA1999999092071MD1999999-0021REMSYN088AAXX  13004 83339 32495 22310 10187 20114 39207 40190 82200 333 10242 29066 55055 59002;
0156833390999992007081312004-14050-042617FM-12+088299999V0200901N003110042019N0100001N1+01601+01261102171ADDGF106991061021004501001001KA1240N+01401MA1999999092301MD1999999+0161REMSYN076AAXX  13124 83339 32497 60906 10160 20126 39230 40217 86200 333 20140 58016;
0137833390999992007081318004-14050-042617FM-12+088299999V0200901N004610042019N0100001N1+02311+01141101661ADDGF106991061021004501001001MA1999999091941MD1999999+0061REMSYN070AAXX  13184 83339 32497 60909 10231 20114 39194 40166 86200 333 58006;
0168833390999992007081400004-14050-042617FM-12+088299999V0200501N004610042019N0020001N1+02021+01431101931ADDGF106991061021004501001001KA1240M+02401MA1999999092101MD1999999+0031REMSYN088AAXX  14004 83339 32495 60509 10202 20143 39210 40193 86200 333 10240 29066 55057 58003;
0156833390999992007081412004-14050-042617FM-12+088299999V0200901N005712200019N0100001N1+01741+01191101941ADDGF103991031021004501001001KA1240N+01321MA1999999092151MD1999999-0151REMSYN076AAXX  14124 83339 32497 30911 10174 20119 39215 40194 83200 333 20132 59015;
0137833390999992007081418004-14050-042617FM-12+088299999V0200901N008210042019N0100001N1+02361+01061101601ADDGF105991051021004501001001MA1999999091881MD1999999-0061REMSYN070AAXX  14184 83339 32497 50916 10236 20106 39188 40160 85200 333 59006;
0178833390999992007081500004-14050-042617FM-12+088299999V0200901N005712200019N0020001N1+01871+00981101881ADDGA1001+999999999GF100991001001999999001001KA1240M+02421MA1999999092051MD1999999-0051REMSYN082AAXX  15004 83339 32995 00911 10187 20098 39205 40188 333 10242 29057 55071 59005;
0220833390999992007081512004-14050-042617FM-12+088299999V0200901N005710042019N0100001N1+01641+01181102051ADDAA124000091AY161061AY221061GF106991061021004501001001KA1240N+01421MA1999999092191MD1999999+0041MW1021REMSYN088AAXX  15124 83339 21497 60911 10164 20118 39219 40205 70262 86200 333 20142 58004 69924;EQDQ01  00002PRCP24
0137833390999992007081518004-14050-042617FM-12+088299999V0200901N005110042019N0100001N1+02341+00901101621ADDGF105991051021004501001001MA1999999091901MD1999999+0021REMSYN070AAXX  15184 83339 32497 50910 10234 20090 39190 40162 85200 333 58002;
0168833390999992007081600004-14050-042617FM-12+088299999V0201401N006210042019N0020001N1+01851+01261101931ADDGF108991051021004501021999KA1240M+02381MA1999999092081MD1999999+0031REMSYN088AAXX  16004 83339 32495 81412 10185 20126 39208 40193 8522/ 333 10238 29063 55061 58003;
0201833390999992007081612004-14050-042617FM-12+088299999V0200901N008210042019N0100001N1+01721+01251101941ADDAA124000591AY161061AY221061GF106991061021004501001001KA1240N+01381MA1999999092111MD1999999-0081MW1021REMSYN088AAXX  16124 83339 21497 60916 10172 20125 39211 40194 70262 86200 333 20138 59008 69954;
0137833390999992007081618004-14050-042617FM-12+088299999V0200501N005112200019N0100001N1+02331+01271101491ADDGF104991041021004501001001MA1999999091781MD1999999-0121REMSYN070AAXX  16184 83339 32497 40510 10233 20127 39178 40149 84200 333 59012;
0168833390999992007081700004-14050-042617FM-12+088299999V0200901N003110042019N0020001N1+01951+01281101701ADDGF106991061021004501001001KA1240M+02401MA1999999091921MD1999999-0161REMSYN088AAXX  17004 83339 32495 60906 10195 20128 39192 40170 86200 333 10240 29064 55087 59016;
0156833390999992007081712004-14050-042617FM-12+088299999V0200901N007712200019N0100001N1+01701+01151101831ADDGF102991021011004501001001KA1240N+01441MA1999999092041MD1999999-0071REMSYN076AAXX  17124 83339 32497 20915 10170 20115 39204 40183 82100 333 20144 59007;
0137833390999992007081718004-14050-042617FM-12+088299999V0200901N006712200019N0100001N1+02331+01181101431ADDGF104991041011004501001001MA1999999091731MD1999999-0051REMSYN070AAXX  17184 83339 32497 40913 10233 20118 39173 40143 84100 333 59005;
0168833390999992007081800004-14050-042617FM-12+088299999V0201401N008710042019N0020001N1+01911+01401101661ADDGF106991061021004501001001KA1240M+02421MA1999999091861MD1999999-0061REMSYN088AAXX  18004 83339 32495 61417 10191 20140 39186 40166 86200 333 10242 29066 55094 59006;
0166833390999992007081812004-14050-042617FM-12+088299999V0200901N009812200019N0100001N1+01691+01151101781ADDGA1001+999999999GF100991001001999999001001KA1240N+01321MA1999999091961MD1999999-0081REMSYN070AAXX  18124 83339 32997 00919 10169 20115 39196 40178 333 20132 59008;
0147833390999992007081818004-14050-042617FM-12+088299999V0200901N005712200019N0100001N1+02481+01211101251ADDGA1001+999999999GF100991001001999999001001MA1999999091591MD1999999-0141REMSYN064AAXX  18184 83339 32997 00911 10248 20121 39159 40125 333 59014;
0178833390999992007081900004-14050-042617FM-12+088299999V0200501N004112200019N0020001N1+01971+01371101591ADDGA1001+999999999GF100991001001999999001001KA1240M+02521MA1999999091821MD1999999-0041REMSYN082AAXX  19004 83339 32995 00508 10197 20137 39182 40159 333 10252 29063 55102 59004;
0156833390999992007081912004-14050-042617FM-12+088299999V0201401N005110042019N0100001N1+01691+01331101971ADDGF105991051021004501001001KA1240N+01501MA1999999092161MD1999999+0201REMSYN076AAXX  19124 83339 32497 51410 10169 20133 39216 40197 85200 333 20150 58020;
0137833390999992007081918004-14050-042617FM-12+088299999V0200501N002112200019N0100001N1+02551+00941101361ADDGF104991041011004501001001MA1999999091971MD1999999+0141REMSYN070AAXX  19184 83339 32497 40504 10255 20094 39197 40136 84100 333 58014;
0178833390999992007082000004-14050-042617FM-12+088299999V0201401N004612200019N0020001N1+02061+01231101671ADDGA1001+999999999GF100991001001999999001001KA1240M+02621MA1999999091911MD1999999+0091REMSYN082AAXX  20004 83339 32995 01409 10206 20123 39191 40167 333 10262 29058 55083 58009;
0156833390999992007082012004-14050-042617FM-12+088299999V0200901N007210042019N0100001N1+01711+01291101941ADDGF106991061021004501001001KA1240N+01541MA1999999092151MD1999999-0011REMSYN076AAXX  20124 83339 32497 60914 10171 20129 39215 40194 86200 333 20154 59001;
0137833390999992007082018004-14050-042617FM-12+088299999V0200501N004112200019N0100001N1+02531+01031101361ADDGF104991041021004501001001MA1999999091731MD1999999+0001REMSYN070AAXX  20184 83339 32497 40508 10253 20103 39173 40136 84200 333 58000;
0178833390999992007082100004-14050-042617FM-12+088299999V02099999999992200019N0020001N1+02051+00961101611ADDGA1001+999999999GF100991001001999999001001KA1240M+02621MA1999999091851MD1999999-0061REMSYN082AAXX  21004 83339 32995 018// 10205 20096 39185 40161 333 10262 29054 55073 59006;
0166833390999992007082112004-14050-042617FM-12+088299999V02099999999992200019N0100001N1+02011+01391101711ADDGA1001+999999999GF100991001001999999001001KA1240N+01401MA1999999092011MD1999999-0141REMSYN070AAXX  21124 83339 32997 014// 10201 20139 39201 40171 333 20140 59014;
0147833390999992007082118004-14050-042617FM-12+088299999V0202301N003612200019N0100001N1+02751+00971101251ADDGA1001+999999999GF100991001001999999001001MA1999999091661MD1999999-0071REMSYN064AAXX  21184 83339 32997 02307 10275 20097 39166 40125 333 59007;
0178833390999992007082200004-14050-042617FM-12+088299999V0200901N004612200019N0020001N1+02211+01021101501ADDGA1001+999999999GF100991001001999999001001KA1240M+02841MA1999999091841MD1999999-0011REMSYN082AAXX  22004 83339 32995 00909 10221 20102 39184 40150 333 10284 29049 55110 59001;
0156833390999992007082212004-14050-042617FM-12+088299999V0201401N005712200019N0100001N1+01811+01161101861ADDGF102991021021004501001001KA1240N+01541MA1999999092121MD1999999+0111REMSYN076AAXX  22124 83339 32497 21411 10181 20116 39212 40186 82200 333 20154 58011;
0137833390999992007082218004-14050-042617FM-12+088299999V0200901N005712200019N0100001N1+02491+00871101301ADDGF102991021011004501001001MA1999999091691MD1999999+0031REMSYN070AAXX  22184 83339 32497 20911 10249 20087 39169 40130 82100 333 58003;
0168833390999992007082300004-14050-042617FM-12+088299999V0203201N005112200019N0020001N1+02091+01061101571ADDGF102991021011004501001001KA1240M+02631MA1999999091841MD1999999+0001REMSYN088AAXX  23004 83339 32495 23210 10209 20106 39184 40157 82100 333 10263 29052 55109 58000;
0156833390999992007082312004-14050-042617FM-12+088299999V0200501N007210042019N0100001N1+01791+01331101711ADDGF106991061021004501001001KA1240N+01601MA1999999091961MD1999999-0161REMSYN076AAXX  23124 83339 32497 60514 10179 20133 39196 40171 86200 333 20160 59016;
0137833390999992007082318004-14050-042617FM-12+088299999V0201401N007712200019N0100001N1+02471+01011101231ADDGF102991021021004501001001MA1999999091611MD1999999-0081REMSYN070AAXX  23184 83339 32497 21415 10247 20101 39161 40123 82200 333 59008;
0168833390999992007082400004-14050-042617FM-12+088299999V0201801N003612200019N0020001N1+02091+01061101441ADDGF102991021021004501001001KA1240M+02581MA1999999091721MD1999999-0121REMSYN088AAXX  24004 83339 32495 21807 10209 20106 39172 40144 82200 333 10258 29055 55089 59012;
0156833390999992007082412004-14050-042617FM-12+088299999V0200901N007710042019N0100001N1+01791+01251101641ADDGF106991061021004501001001KA1240N+01401MA1999999091901MD1999999-0061REMSYN076AAXX  24124 83339 32497 60915 10179 20125 39190 40164 86200 333 20140 59006;
0147833390999992007082418004-14050-042617FM-12+088299999V0201401N003612200019N0100001N1+02491+01101101191ADDGA1001+999999999GF100991001001999999001001MA1999999091551MD1999999-0061REMSYN064AAXX  24184 83339 32997 01407 10249 20110 39155 40119 333 59006;
0178833390999992007082500004-14050-042617FM-12+088299999V0203201N004612200019N0020001N1+02151+01091101331ADDGA1001+999999999GF100991001001999999001001KA1240M+02601MA1999999091621MD1999999-0101REMSYN082AAXX  25004 83339 32995 03209 10215 20109 39162 40133 333 10260 29052 55109 59010;
0156833390999992007082512004-14050-042617FM-12+088299999V0200501N002610042019N0100001N1+01831+01431101541ADDGF106991061021004501001001KA1240N+01501MA1999999091831MD1999999-0071REMSYN076AAXX  25124 83339 32497 60505 10183 20143 39183 40154 86200 333 20150 59007;
0137833390999992007082518004-14050-042617FM-12+088299999V0202301N003612200019N0100001N1+02771+01081100951ADDGF102991021021004501001001MA1999999091421MD1999999-0131REMSYN070AAXX  25184 83339 32497 22307 10277 20108 39142 40095 82200 333 59013;
0178833390999992007082600004-14050-042617FM-12+088299999V0201801N003112200019N0020001N1+02291+01091101261ADDGA1001+999999999GF100991001001999999001001KA1240M+02901MA1999999091601MD1999999-0021REMSYN082AAXX  26004 83339 32995 01806 10229 20109 39160 40126 333 10290 29052 55088 59002;
0166833390999992007082612004-14050-042617FM-12+088299999V0200901N004112200019N0100001N1+02131+01461101431ADDGA1001+999999999GF100991001001999999001001KA1240N+01621MA1999999091811MD1999999-0021REMSYN070AAXX  26124 83339 32997 00908 10213 20146 39181 40143 333 20162 59002;
0137833390999992007082618004-14050-042617FM-12+088299999V0203601N001512200019N0100001N1+03091+00601100881ADDGF102991021021004501001001MA1999999091441MD1999999+0021REMSYN070AAXX  26184 83339 32497 23603 10309 20060 39144 40088 82200 333 58002;
0168833390999992007082700004-14050-042617FM-12+088299999V0201401N003110042019N0020001N1+02491+01101101151ADDGF106991051021004501031001KA1240M+03201MA1999999091601MD1999999+0001REMSYN088AAXX  27004 83339 32495 61406 10249 20110 39160 40115 85230 333 10320 29043 55102 58000;
0156833390999992007082712004-14050-042617FM-12+088299999V0201401N003612200019N0100001N1+02151+01521101391ADDGF103991011011004501031001KA1240N+01721MA1999999091821MD1999999+0011REMSYN076AAXX  27124 83339 32497 31407 10215 20152 39182 40139 81130 333 20172 58001;
0137833390999992007082718004-14050-042617FM-12+088299999V0201401N002612200019N0100001N1+03071+00851100761ADDGF104991041021004501001001MA1999999091361MD1999999-0081REMSYN070AAXX  27184 83339 32497 41405 10307 20085 39136 40076 84200 333 59008;
0168833390999992007082800004-14050-042617FM-12+088299999V0201401N004110042019N0020001N1+02571+00921101161ADDGF108991061021004501031999KA1240M+03251MA1999999091631MD1999999+0031REMSYN088AAXX  28004 83339 32495 81408 10257 20092 39163 40116 8623/ 333 10325 29040 55072 58003;
0156833390999992007082912004-14050-042617FM-12+088299999V0200901N009812200019N0100001N1+01981+01231101691ADDGF103991031011004501001001KA1240N+01641MA1999999092031MD1999999+0291REMSYN076AAXX  29124 83339 32497 30919 10198 20123 39203 40169 83100 333 20164 58029;
0147833390999992007082918004-14050-042617FM-12+088299999V0200901N008712200019N0100001N1+02571+00741101241ADDGA1001+999999999GF100991001001999999001001MA1999999091681MD1999999+0251REMSYN064AAXX  29184 83339 32997 00917 10257 20074 39168 40124 333 58025;
0168833390999992007083000004-14050-042617FM-12+088299999V0201401N005112200019N0020001N1+02031+01361101661ADDGF102991021011004501001001KA1240M+02641MA1999999091941MD1999999+0171REMSYN088AAXX  30004 83339 32495 21410 10203 20136 39194 40166 82100 333 10264 29056 55106 58017;
0156833390999992007083012004-14050-042617FM-12+088299999V0201401N007210042019N0100001N1+01741+01101101951ADDGF106991061021004501001001KA1240N+01431MA1999999092161MD1999999+0131REMSYN076AAXX  30124 83339 32497 61414 10174 20110 39216 40195 86200 333 20143 58013;
0137833390999992007083018004-14050-042617FM-12+088299999V0201401N005712200019N0100001N1+02371+00961101591ADDGF102991021011004501001001MA1999999091901MD1999999+0211REMSYN070AAXX  30184 83339 32497 21411 10237 20096 39190 40159 82100 333 58021;
0178833390999992007083100004-14050-042617FM-12+088299999V0200901N004112200019N0020001N1+01961+01061101881ADDGA1001+999999999GF100991001001999999001001KA1240M+02421MA1999999092081MD1999999+0141REMSYN082AAXX  31004 83339 32995 00908 10196 20106 39208 40188 333 10242 29055 55083 58014;
0156833390999992007083112004-14050-042617FM-12+088299999V0201401N008212200019N0100001N1+01771+01251102101ADDGF104991041021004501001001KA1240N+01381MA1999999092271MD1999999+0111REMSYN076AAXX  31124 83339 32497 41416 10177 20125 39227 40210 84200 333 20138 58011;
0147833390999992007083118004-14050-042617FM-12+088299999V0200901N005112200019N0100001N1+02561+01061101531ADDGA1001+999999999GF100991001001999999001001MA1999999091861MD1999999-0041REMSYN064AAXX  31184 83339 32997 00910 10256 20106 39186 40153 333 59004;
0178833390999992007090100004-14050-042617FM-12+088299999V0201401N006712200019N0020001N1+02081+00881101891ADDGA1001+999999999GF100991001001999999001001KA1240M+02641MA1999999092131MD1999999+0051REMSYN082AAXX  01004 83339 32995 01413 10208 20088 39213 40189 333 10264 29051 55109 58005;
0156833390999992007090112004-14050-042617FM-12+088299999V0201401N006712200019N0100001N1+01831+01191101981ADDGF102991021011004501001001KA1240N+01461MA1999999092211MD1999999-0061REMSYN076AAXX  01124 83339 32497 21413 10183 20119 39221 40198 82100 333 20146 59006;
0147833390999992007090118004-14050-042617FM-12+088299999V0200901N005112200019N0100001N1+02591+00761101461ADDGA1001+999999999GF100991001001999999001001MA1999999091821MD1999999-0041REMSYN064AAXX  01184 83339 32997 00910 10259 20076 39182 40146 333 59004;
0178833390999992007090200004-14050-042617FM-12+088299999V0201401N005712200019N0020001N1+02151+00921101761ADDGA1001+999999999GF100991001001999999001001KA1240M+02681MA1999999092031MD1999999-0101REMSYN082AAXX  02004 83339 32995 01411 10215 20092 39203 40176 333 10268 29046 55108 59010;
0156833390999992007090212004-14050-042617FM-12+088299999V0200901N005112200019N0100001N1+01841+01241102021ADDGF102991021011004501001001KA1240N+01501MA1999999092261MD1999999+0051REMSYN076AAXX  02124 83339 32497 20910 10184 20124 39226 40202 82100 333 20150 58005;
0147833390999992007090218004-14050-042617FM-12+088299999V0200501N004112200019N0100001N1+02641+00931101441ADDGA1001+999999999GF100991001001999999001001MA1999999091841MD1999999+0021REMSYN064AAXX  02184 83339 32997 00508 10264 20093 39184 40144 333 58002;
0178833390999992007090300004-14050-042617FM-12+088299999V0200901N001512200019N0020001N1+02131+00871101761ADDGA1001+999999999GF100991001001999999001001KA1240M+02691MA1999999092031MD1999999+0001REMSYN082AAXX  03004 83339 32995 00903 10213 20087 39203 40176 333 10269 29048 55106 58000;
0156833390999992007090312004-14050-042617FM-12+088299999V0200501N006712200019N0100001N1+01991+01401101771ADDGF104991041021004501001001KA1240N+01501MA1999999092151MD1999999-0111REMSYN076AAXX  03124 83339 32497 40513 10199 20140 39215 40177 84200 333 20150 59011;
0137833390999992007090318004-14050-042617FM-12+088299999V0201401N007710042019N0100001N1+02511+01291101541ADDGF105991051021004501001001MA1999999091891MD1999999+0051REMSYN070AAXX  03184 83339 32497 51415 10251 20129 39189 40154 85200 333 58005;
0178833390999992007090400004-14050-042617FM-12+088299999V0200901N006212200019N0020001N1+02031+01361101821ADDGA1001+999999999GF100991001001999999001001KA1240M+02601MA1999999092081MD1999999+0051REMSYN082AAXX  04004 83339 32995 00912 10203 20136 39208 40182 333 10260 29062 55107 58005;
0156833390999992007090412004-14050-042617FM-12+088299999V0200901N006710042019N0040001N1+02491+01511101851ADDGF107991061021004501021999KA1240N+01521MA1999999092211MD1999999+0061REMSYN076AAXX  04124 83339 32496 70913 10249 20151 39221 40185 8622/ 333 20152 58006;
0137833390999992007090418004-14050-042617FM-12+088299999V0201401N006710042019N0100001N1+02511+01081101521ADDGF105991051021004501001001MA1999999091871MD1999999-0021REMSYN070AAXX  04184 83339 32497 51413 10251 20108 39187 40152 85200 333 59002;
0168833390999992007090500004-14050-042617FM-12+088299999V0201801N005112200019N0020001N1+01951+01331101781ADDGF102991021021004501001001KA1240M+02581MA1999999092131MD1999999+0051REMSYN088AAXX  05004 83339 32495 21810 10195 20133 39213 40178 82200 333 10258 29058 55064 58005;
0184833390999992007090512004-14050-042617FM-12+088299999V0200501N008710042019N0040001N1+02571+00901101931ADDAY101061AY201061GF108991081051004501999999KA1240N+01501MA1999999092281MD1999999+0071MW1501REMSYN082AAXX  05124 83339 31496 80517 10257 20090 39228 40193 75000 885// 333 20150 58007;
0184833390999992007090518004-14050-042617FM-12+088299999V0201401N006219999999N0100001N1+02551+01081101611ADDAY101061AY251061GF105991999021004501001001MA1999999091951MD1999999+0081MW1021REMSYN076AAXX  05184 83339 31497 51412 10255 20108 39195 40161 70205 86200 333 58008;EQDQ01+000062SCOTLC
0196833390999992007090600004-14050-042617FM-12+088299999V0203601N008210042019N0020001N1+01911+01661101831ADDAY101061AY201061GF107991061021004501021999KA1240M+02481MA1999999092191MD1999999+0061MW1521REMSYN094AAXX  06004 83339 31495 73616 10191 20166 39219 40183 75200 8622/ 333 10248 29062 55069 58006;
0201833390999992007090612004-14050-042617FM-12+088299999V0203201N011310042019N0100001N1+01751+01251102131ADDAA124001091AY161061AY261061GF106991051021004501021001KA1240N+01421MA1999999092301MD1999999+0021MW1021REMSYN088AAXX  06124 83339 21497 63222 10175 20125 39230 40213 70266 85220 333 20142 58002 60014;
0137833390999992007090618004-14050-042617FM-12+088299999V0202301N006712200019N0100001N1+02471+01151101581ADDGF103991021021004501001041MA1999999091891MD1999999-0061REMSYN070AAXX  06184 83339 32497 32313 10247 20115 39189 40158 82204 333 59006;
0168833390999992007090700004-14050-042617FM-12+088299999V0200901N003112200019N0020001N1+02091+01121101801ADDGF102991021021004501001001KA1240M+02541MA1999999092031MD1999999-0161REMSYN088AAXX  07004 83339 32495 20906 10209 20112 39203 40180 82200 333 10254 29056 55098 59016;
0201833390999992007090712004-14050-042617FM-12+088299999V0201401N006710042019N0040001N1+01691+01601101951ADDAA124001091AY161061AY261061GF108991081051004501999999KA1240N+01621MA1999999092161MD1999999-0141MW1501REMSYN088AAXX  07124 83339 21496 81413 10169 20160 39216 40195 75066 885// 333 20162 59014 60014;
0184833390999992007090718004-14050-042617FM-12+088299999V0201801N002612200019N0100001N1+02551+01261101421ADDAY101061AY251061GF104991999021004501001001MA1999999091801MD1999999-0091MW1021REMSYN076AAXX  07184 83339 31497 41805 10255 20126 39180 40142 70205 85200 333 59009;EQDQ01+000052SCOTLC
0168833390999992007090800004-14050-042617FM-12+088299999V0200501N007212200019N0020001N1+02091+01281101691ADDGF102991021021004501001001KA1240M+02621MA1999999091931MD1999999-0101REMSYN088AAXX  08004 83339 32495 20514 10209 20128 39193 40169 82200 333 10262 29065 55071 59010;
0156833390999992007090812004-14050-042617FM-12+088299999V0200901N006712200019N0100001N1+01891+01191101801ADDGF103991031021004501001001KA1240N+01601MA1999999092061MD1999999-0101REMSYN076AAXX  08124 83339 32497 30913 10189 20119 39206 40180 83200 333 20160 59010;
0137833390999992007090818004-14050-042617FM-12+088299999V0201401N004612200019N0100001N1+02511+00931101311ADDGF102991021021004501001001MA1999999091681MD1999999-0121REMSYN070AAXX  08184 83339 32497 21409 10251 20093 39168 40131 82200 333 59012;
0178833390999992007090900004-14050-042617FM-12+088299999V0203201N003112200019N0020001N1+02011+01101101561ADDGA1001+999999999GF100991001001999999001001KA1240M+02641MA1999999091831MD1999999-0101REMSYN082AAXX  09004 83339 32995 03206 10201 20110 39183 40156 333 10264 29053 55093 59010;
0156833390999992007090912004-14050-042617FM-12+088299999V0201401N006210042019N0100001N1+01731+01251101791ADDGF106991061021004501001001KA1240N+01541MA1999999092001MD1999999-0061REMSYN076AAXX  09124 83339 32497 61412 10173 20125 39200 40179 86200 333 20154 59006;
0137833390999992007090918004-14050-042617FM-12+088299999V0200901N004612200019N0100001N1+02491+01101101241ADDGF104991041021004501001001MA1999999091621MD1999999-0061REMSYN070AAXX  09184 83339 32497 40909 10249 20110 39162 40124 84200 333 59006;
0168833390999992007091000004-14050-042617FM-12+088299999V0202701N006712200019N0020001N1+02151+01061101501ADDGF102991021021004501001001KA1240M+02561MA1999999091771MD1999999-0061REMSYN088AAXX  10004 83339 32495 22713 10215 20106 39177 40150 82200 333 10256 29054 55077 59006;
0156833390999992007091012004-14050-042617FM-12+088299999V0201401N005710450019N0100001N1+01741+01391101871ADDGF106991041021004501021001KA1240N+01551MA1999999092111MD1999999+0111REMSYN076AAXX  10124 83339 32497 61411 10174 20139 39211 40187 84220 333 20155 58011;
0137833390999992007091018004-14050-042617FM-12+088299999V0201401N005112200019N0100001N1+02511+01281101321ADDGF103991031011004501001001MA1999999091711MD1999999+0091REMSYN070AAXX  10184 83339 32497 31410 10251 20128 39171 40132 83100 333 58009;
0178833390999992007091100004-14050-042617FM-12+088299999V0201401N004112200019N0020001N1+02161+01221101601ADDGA1001+999999999GF100991001001999999001001KA1240M+02641MA1999999091861MD1999999+0091REMSYN082AAXX  11004 83339 32995 01408 10216 20122 39186 40160 333 10264 29055 55076 58009;
0156833390999992007091112004-14050-042617FM-12+088299999V0201401N007712200019N0100001N1+01831+01311101881ADDGF104991041021004501001001KA1240N+01591MA1999999092141MD1999999+0031REMSYN076AAXX  11124 83339 32497 41415 10183 20131 39214 40188 84200 333 20159 58003;
0137833390999992007091118004-14050-042617FM-12+088299999V0200501N005712200019N0100001N1+02681+01011101231ADDGF102991021011004501001001MA1999999091681MD1999999-0031REMSYN070AAXX  11184 83339 32497 20511 10268 20101 39168 40123 82100 333 59003;
0178833390999992007091200004-14050-042617FM-12+088299999V0200901N005112200019N0020001N1+02171+01561101661ADDGA1001+999999999GF100991001001999999001001KA1240M+02761MA1999999091941MD1999999+0081REMSYN082AAXX  12004 83339 32995 00910 10217 20156 39194 40166 333 10276 29056 55094 58008;
0156833390999992007091212004-14050-042617FM-12+088299999V0200901N007212200019N0100001N1+01941+01171101901ADDGF103991031011004501001001KA1240N+01481MA1999999092171MD1999999+0031REMSYN076AAXX  12124 83339 32497 30914 10194 20117 39217 40190 83100 333 20148 58003;
0147833390999992007091218004-14050-042617FM-12+088299999V0200901N005112200019N0100001N1+02561+00941101301ADDGA1001+999999999GF100991001001999999001001MA1999999091691MD1999999+0011REMSYN064AAXX  12184 83339 32997 00910 10256 20094 39169 40130 333 58001;
0213833390999992007091300004-14050-042617FM-12+088299999V0200901N006212200019N0020001N1+02081+00971101581ADDGA1001+999999999GF100991001001999999001001KA1240M+02641MA1999999999999MD1999999-0081REMSYN082AAXX  13004 83339 32995 00912 10208 20097 30186 40158 333 10264 29049 55100 59008;EQDQ01+101863APOSP Q02 101863APOSP 
0156833390999992007091312004-14050-042617FM-12+088299999V0200901N006210042019N0100001N1+01861+01431101811ADDGF105991051021004501001001KA1240N+01511MA1999999092051MD1999999-0121REMSYN076AAXX  13124 83339 32497 50912 10186 20143 39205 40181 85200 333 20151 59012;
0137833390999992007091318004-14050-042617FM-12+088299999V0200901N007212200019N0100001N1+02391+01471101351ADDGF104991041021004501001001MA1999999091701MD1999999+0011REMSYN070AAXX  13184 83339 32497 40914 10239 20147 39170 40135 84200 333 58001;
0168833390999992007091400004-14050-042617FM-12+088299999V0200901N003612200019N0020001N1+01961+01441101581ADDGF102991021011004501001001KA1240M+02461MA1999999091831MD1999999-0031REMSYN088AAXX  14004 83339 32495 20907 10196 20144 39183 40158 82100 333 10246 29065 55084 59003;
0156833390999992007091412004-14050-042617FM-12+088299999V0201401N004110042019N0100001N1+01791+01351101841ADDGF105991051021004501001001KA1240N+01521MA1999999092061MD1999999+0011REMSYN076AAXX  14124 83339 32497 51408 10179 20135 39206 40184 85200 333 20152 58001;
0137833390999992007091418004-14050-042617FM-12+088299999V0201401N006212200019N0100001N1+02471+01211101321ADDGF102991021011004501001001MA1999999091671MD1999999-0031REMSYN070AAXX  14184 83339 32497 21412 10247 20121 39167 40132 82100 333 59003;
0178833390999992007091500004-14050-042617FM-12+088299999V0201401N006712200019N0020001N1+02101+01221101591ADDGA1001+999999999GF100991001001999999001001KA1240M+02561MA1999999091851MD1999999+0021REMSYN082AAXX  15004 83339 32995 01413 10210 20122 39185 40159 333 10256 29059 55089 58002;
0156833390999992007091512004-14050-042617FM-12+088299999V0200901N005110042019N0100001N1+01811+01471101711ADDGF106991061021004501001001KA1240N+01541MA1999999091961MD1999999-0101REMSYN076AAXX  15124 83339 32497 60910 10181 20147 39196 40171 86200 333 20154 59010;
0137833390999992007091518004-14050-042617FM-12+088299999V0200901N003112200019N0100001N1+02691+01071101051ADDGF102991021011004501001001MA1999999091491MD1999999-0181REMSYN070AAXX  15184 83339 32497 20906 10269 20107 39149 40105 82100 333 59018;
0178833390999992007091600004-14050-042617FM-12+088299999V0200901N004112200019N0020001N1+02231+00991101351ADDGA1001+999999999GF100991001001999999001001KA1240M+02741MA1999999091681MD1999999-0171REMSYN082AAXX  16004 83339 32995 00908 10223 20099 39168 40135 333 10274 29052 55077 59017;
0156833390999992007091612004-14050-042617FM-12+088299999V0200901N003612200019N0100001N1+02031+01521101521ADDGF102991021011004501001001KA1240N+01571MA1999999091871MD1999999-0091REMSYN076AAXX  16124 83339 32497 20907 10203 20152 39187 40152 82100 333 20157 59009;
0178833390999992007091700004-14050-042617FM-12+088299999V0201801N001512200019N0020001N1+02371+00981101161ADDGA1001+999999999GF100991001001999999001001KA1240M+03041MA1999999091561MD1999999-0121REMSYN082AAXX  17004 83339 32995 01803 10237 20098 39156 40116 333 10304 29045 55088 59012;
0166833390999992007091712004-14050-042617FM-12+088299999V0200901N002112200019N0100001N1+02351+01271101281ADDGA1001+999999999GF100991001001999999001001KA1240N+01641MA1999999091741MD1999999-0131REMSYN070AAXX  17124 83339 32997 00904 10235 20127 39174 40128 333 20164 59013;
0137833390999992007091718004-14050-042617FM-12+088299999V0201401N003112200019N0100001N1+03151+00961100801ADDGF102991021021004501001001MA1999999091381MD1999999+0061REMSYN070AAXX  17184 83339 32497 21406 10315 20096 39138 40080 82200 333 58006;
0178833390999992007091800004-14050-042617FM-12+088299999V0202301N004612200019N0020001N1+02531+01061101121ADDGA1001+999999999GF100991001001999999001001KA1240M+03271MA1999999091631MD1999999+0071REMSYN082AAXX  18004 83339 32995 02309 10253 20106 39163 40112 333 10327 29039 55103 58007;
0156833390999992007091812004-14050-042617FM-12+088299999V0200501N009812200019N0100001N1+01991+01461101541ADDGF104991041021004501001001KA1240N+01801MA1999999091931MD1999999+0191REMSYN076AAXX  18124 83339 32497 40519 10199 20146 39193 40154 84200 333 20180 58019;
0178833390999992007091900004-14050-042617FM-12+088299999V02099999999992200019N0020001N1+02291+01211101471ADDGA1001+999999999GF100991001001999999001001KA1240M+02831MA1999999091831MD1999999+0201REMSYN082AAXX  19004 83339 32995 009// 10229 20121 39183 40147 333 10283 29050 55099 58020;
0156833390999992007091912004-14050-042617FM-12+088299999V0201401N002610042019N0100001N1+01871+01351101661ADDGF106991061021004501001001KA1240N+01661MA1999999091981MD1999999+0051REMSYN076AAXX  19124 83339 32497 61405 10187 20135 39198 40166 86200 333 20166 58005;
0137833390999992007091918004-14050-042617FM-12+088299999V0200901N005112200019N0100001N1+02671+01151101181ADDGF102991021011004501001001MA1999999091631MD1999999+0031REMSYN070AAXX  19184 83339 32497 20910 10267 20115 39163 40118 82100 333 58003;
0178833390999992007092000004-14050-042617FM-12+088299999V0202301N001512200019N0020001N1+02191+00971101391ADDGA1001+999999999GF100991001001999999001001KA1240M+02761MA1999999091721MD1999999-0111REMSYN082AAXX  20004 83339 32995 02303 10219 20097 39172 40139 333 10276 29051 55088 59011;
0203833390999992007092012004-14050-042617FM-12+088299999V0201401N003119999999N0100001N1+01691+01391101651ADDAY101061AY201061GF106991999021004501001001KA1240N+01531MA1999999091911MD1999999-0071MW1101REMSYN082AAXX  20124 83339 31497 61406 10169 20139 39191 40165 71000 82200 333 20153 59007;EQDQ01+000022SCOTLC
0147833390999992007092018004-14050-042617FM-12+088299999V0200901N004612200019N0100001N1+02691+00921101071ADDGA1001+999999999GF100991001001999999001001MA1999999091511MD1999999-0121REMSYN064AAXX  20184 83339 32997 00909 10269 20092 39151 40107 333 59012;
0178833390999992007092100004-14050-042617FM-12+088299999V0201801N001512200019N0020001N1+02191+00721101381ADDGA1001+999999999GF100991001001999999001001KA1240M+02761MA1999999091661MD1999999-0061REMSYN082AAXX  21004 83339 32995 01803 10219 20072 39166 40138 333 10276 29048 55085 59006;
0156833390999992007092112004-14050-042617FM-12+088299999V0202301N005112200019N0100001N1+02071+01521101541ADDGF104991041021004501001001KA1240N+01561MA1999999091891MD1999999-0021REMSYN076AAXX  21124 83339 32497 42310 10207 20152 39189 40154 84200 333 20156 59002;
0137833390999992007092118004-14050-042617FM-12+088299999V0201401N003612200019N0100001N1+02711+01121101061ADDGF102991021021004501001001MA1999999091521MD1999999+0011REMSYN070AAXX  21184 83339 32497 21407 10271 20112 39152 40106 82200 333 58001;
0178833390999992007092200004-14050-042617FM-12+088299999V0203201N003112200019N0020001N1+02171+01021101371ADDGA1001+999999999GF100991001001999999001001KA1240M+02801MA1999999091721MD1999999+0061REMSYN082AAXX  22004 83339 32995 03206 10217 20102 39172 40137 333 10280 29052 55096 58006;
0156833390999992007092212004-14050-042617FM-12+088299999V0200901N003112200019N0100001N1+02091+01541101591ADDGF103991031021004501001001KA1240N+01661MA1999999091941MD1999999+0051REMSYN076AAXX  22124 83339 32497 30906 10209 20154 39194 40159 83200 333 20166 58005;
0137833390999992007092218004-14050-042617FM-12+088299999V0203601N003612200019N0100001N1+02851+01011100921ADDGF102991021011004501001001MA1999999091431MD1999999-0091REMSYN070AAXX  22184 83339 32497 23607 10285 20101 39143 40092 82100 333 59009;
0178833390999992007092300004-14050-042617FM-12+088299999V0200501N004612200019N0020001N1+02371+01131101241ADDGA1001+999999999GF100991001001999999001001KA1240M+03001MA1999999091651MD1999999-0071REMSYN082AAXX  23004 83339 32995 00509 10237 20113 39165 40124 333 10300 29049 55095 59007;
0156833390999992007092312004-14050-042617FM-12+088299999V0201401N006212200019N0100001N1+02091+01491101421ADDGF102991021021004501001001KA1240N+01641MA1999999091821MD1999999-0121REMSYN076AAXX  23124 83339 32497 21412 10209 20149 39182 40142 82200 333 20164 59012;
0137833390999992007092318004-14050-042617FM-12+088299999V0200501N003112200019N0100001N1+02971+01121100821ADDGF103991031021004501001001MA1999999091381MD1999999-0051REMSYN070AAXX  23184 83339 32497 30506 10297 20112 39138 40082 83200 333 59005;
0178833390999992007092400004-14050-042617FM-12+088299999V0201401N002112200019N0020001N1+02451+01201101171ADDGA1001+999999999GF100991001001999999001001KA1240M+03041MA1999999091601MD1999999-0051REMSYN082AAXX  24004 83339 32995 01404 10245 20120 39160 40117 333 10304 29048 55105 59005;
0166833390999992007092412004-14050-042617FM-12+088299999V0200901N003112200019N0100001N1+02391+01441101311ADDGA1001+999999999GF100991001001999999001001KA1240N+01671MA1999999091781MD1999999-0041REMSYN070AAXX  24124 83339 32997 00906 10239 20144 39178 40131 333 20167 59004;
0137833390999992007092418004-14050-042617FM-12+088299999V0201401N004612200019N0100001N1+03191+01071100661ADDGF102991021021004501001001MA1999999091271MD1999999-0111REMSYN070AAXX  24184 83339 32497 21409 10319 20107 39127 40066 82200 333 59011;
0168833390999992007092500004-14050-042617FM-12+088299999V0201401N002612200019N0020001N1+02701+01111100971ADDGF102991021011004501001001KA1240M+03391MA1999999091541MD1999999-0061REMSYN088AAXX  25004 83339 32495 21405 10270 20111 39154 40097 82100 333 10339 29039 55104 59006;
0166833390999992007092512004-14050-042617FM-12+088299999V0200901N005112200019N0100001N1+02451+01581101151ADDGA1001+999999999GF100991001001999999001001KA1240N+01901MA1999999091721MD1999999-0061REMSYN070AAXX  25124 83339 32997 00910 10245 20158 39172 40115 333 20190 59006;
0178833390999992007092600004-14050-042617FM-12+088299999V0200901N008712200019N0020001N1+02391+01231101431ADDGA1001+999999999GF100991001001999999001001KA1240M+02981MA1999999091891MD1999999+0351REMSYN082AAXX  26004 83339 32995 00917 10239 20123 39189 40143 333 10298 29047 55104 58035;
0156833390999992007092612004-14050-042617FM-12+088299999V0201401N012310042019N0100001N1+01981+01421101741ADDGF105991051021004501001001KA1240N+01721MA1999999092091MD1999999+0371REMSYN076AAXX  26124 83339 32497 51424 10198 20142 39209 40174 85200 333 20172 58037;
0137833390999992007092618004-14050-042617FM-12+088299999V0201401N005710042019N0100001N1+02281+01461101451ADDGF106991061021004501001001MA1999999091811MD1999999+0271REMSYN070AAXX  26184 83339 32497 61411 10228 20146 39181 40145 86200 333 58027;
0168833390999992007092700004-14050-042617FM-12+088299999V0201401N007210042019N0020001N1+01961+01441101831ADDGF107991071021004501001001KA1240M+02441MA1999999092081MD1999999+0191REMSYN088AAXX  27004 83339 32495 71414 10196 20144 39208 40183 87200 333 10244 29069 55051 58019;
0201833390999992007092712004-14050-042617FM-12+088299999V0200501N006210042019N0020001N1+01651+01611102131ADDAA124005191AY161061AY241061GF108991051021004501021999KA1240N+01621MA1999999092281MD1999999+0191MW1501REMSYN088AAXX  27124 83339 21495 80512 10165 20161 39228 40213 75064 8522/ 333 20162 58019 60054;
0182833390999992007092718004-14050-042617FM-12+088299999V0200501N004612200019N0100001N1+02331+01491101561ADDAA106000891AY161061AY241061GF102991021021004501001001MA1999999091871MD1999999+0061MW1021REMSYN082AAXX  27184 83339 21497 20509 10233 20149 39187 40156 70264 82200 333 58006 69981;
0168833390999992007092800004-14050-042617FM-12+088299999V0201401N004610042019N0020001N1+01871+01601101911ADDGF105991051021004501001001KA1240M+02431MA1999999092061MD1999999-0021REMSYN088AAXX  28004 83339 32495 51409 10187 20160 39206 40191 85200 333 10243 29081 55030 59002;
0201833390999992007092812004-14050-042617FM-12+088299999V0201401N005110042019N0100001N1+01871+01471102031ADDAA124000891AY161061AY221061GF106991061021004501001001KA1240N+01581MA1999999092221MD1999999-0061MW1021REMSYN088AAXX  28124 83339 21497 61410 10187 20147 39222 40203 70262 86200 333 20158 59006 69984;
0137833390999992007092818004-14050-042617FM-12+088299999V0200901N004612200019N0100001N1+02591+01281101471ADDGF103991031011004501001001MA1999999091831MD1999999-0041REMSYN070AAXX  28184 83339 32497 30909 10259 20128 39183 40147 83100 333 59004;
0178833390999992007092900004-14050-042617FM-12+088299999V0200901N002612200019N0020001N1+02111+01341101741ADDGA1001+999999999GF100991001001999999001001KA1240M+02641MA1999999091991MD1999999-0071REMSYN082AAXX  29004 83339 32995 00905 10211 20134 39199 40174 333 10264 29061 55084 59007;
0156833390999992007092912004-14050-042617FM-12+088299999V0200901N005112200019N0100001N1+02031+01431101851ADDGF102991021011004501001001KA1240N+01601MA1999999092131MD1999999-0091REMSYN076AAXX  29124 83339 32497 20910 10203 20143 39213 40185 82100 333 20160 59009;
0147833390999992007092918004-14050-042617FM-12+088299999V0200501N006212200019N0100001N1+02811+00951101231ADDGA1001+999999999GF100991001001999999001001MA1999999091691MD1999999-0141REMSYN064AAXX  29184 83339 32997 00512 10281 20095 39169 40123 333 59014;
0178833390999992007093000004-14050-042617FM-12+088299999V0201401N002112200019N0020001N1+02281+00991101561ADDGA1001+999999999GF100991001001999999001001KA1240M+02881MA1999999091911MD1999999-0081REMSYN082AAXX  30004 83339 32995 01404 10228 20099 39191 40156 333 10288 29047 55105 59008;
0156833390999992007093012004-14050-042617FM-12+088299999V0200901N005712200019N0100001N1+02171+01421101681ADDGF102991021011004501001001KA1240N+01701MA1999999092041MD1999999-0111REMSYN076AAXX  30124 83339 32497 20911 10217 20142 39204 40168 82100 333 20170 59011;
0147833390999992007093018004-14050-042617FM-12+088299999V0200501N000512200019N0100001N1+02661+01281101231ADDGA1001+999999999GF100991001001999999001001MA1999999091691MD1999999+0001REMSYN064AAXX  30184 83339 32997 00501 10266 20128 39169 40123 333 58000;
0178833390999992007100100004-14050-042617FM-12+088299999V0200901N004612200019N0020001N1+02201+01391101591ADDGA1001+999999999GF100991001001999999001001KA1240M+02741MA1999999091951MD1999999+0041REMSYN082AAXX  01004 83339 32995 00909 10220 20139 39195 40159 333 10274 29056 55109 58004;
0156833390999992007100112004-14050-042617FM-12+088299999V0201401N005710042019N0100001N1+02091+01541101801ADDGF105991051021004501001001KA1240N+01781MA1999999092131MD1999999+0091REMSYN076AAXX  01124 83339 32497 51411 10209 20154 39213 40180 85200 333 20178 58009;
0137833390999992007100118004-14050-042617FM-12+088299999V0200901N005112200019N0100001N1+02631+01121101281ADDGF103991031021004501001001MA1999999091721MD1999999+0031REMSYN070AAXX  01184 83339 32497 30910 10263 20112 39172 40128 83200 333 58003;
0168833390999992007100200004-14050-042617FM-12+088299999V0201801N005112200019N0020001N1+01991+01441101621ADDGF102991021021004501001001KA1240M+02741MA1999999091931MD1999999-0021REMSYN088AAXX  02004 83339 32495 21810 10199 20144 39193 40162 82200 333 10274 29063 55088 59002;
0156833390999992007100212004-14050-042617FM-12+088299999V0200501N006210042019N0100001N1+01951+01441101841ADDGF106991061021004501001001KA1240N+01581MA1999999092081MD1999999-0051REMSYN076AAXX  02124 83339 32497 60512 10195 20144 39208 40184 86200 333 20158 59005;
0137833390999992007100218004-14050-042617FM-12+088299999V0202301N005712200019N0100001N1+02531+01241101361ADDGF104991031021004501031001MA1999999091731MD1999999+0011REMSYN070AAXX  02184 83339 32497 42311 10253 20124 39173 40136 83230 333 58001;
0168833390999992007100300004-14050-042617FM-12+088299999V0201401N006712200019N0020001N1+02121+01441101601ADDGF102991021021004501001001KA1240M+02661MA1999999091911MD1999999-0021REMSYN088AAXX  03004 83339 32495 21413 10212 20144 39191 40160 82200 333 10266 29062 55090 59002;
0156833390999992007100312004-14050-042617FM-12+088299999V0201401N003610042019N0040001N1+01891+01471101701ADDGF107991061021004501021999KA1240N+01661MA1999999091971MD1999999-0111REMSYN076AAXX  03124 83339 32496 71407 10189 20147 39197 40170 8622/ 333 20166 59011;
0137833390999992007100318004-14050-042617FM-12+088299999V0200901N005112200019N0100001N1+02591+01121101151ADDGF104991031021004501021001MA1999999091581MD1999999-0151REMSYN070AAXX  03184 83339 32497 40910 10259 20112 39158 40115 83220 333 59015;
0178833390999992007100400004-14050-042617FM-12+088299999V0200501N004612200019N0020001N1+02211+01171101381ADDGA1001+999999999GF100991001001999999001001KA1240M+02701MA1999999091711MD1999999-0201REMSYN082AAXX  04004 83339 32995 00509 10221 20117 39171 40138 333 10270 29048 55073 59020;
0156833390999992007100412004-14050-042617FM-12+088299999V0200901N004610042019N0100001N1+01991+01441101521ADDGF106991061021004501001001KA1240N+01701MA1999999091851MD1999999-0121REMSYN076AAXX  04124 83339 32497 60909 10199 20144 39185 40152 86200 333 20170 59012;
0137833390999992007100418004-14050-042617FM-12+088299999V0200501N006212200019N0100001N1+02691+01091101051ADDGF103991031021004501001001MA1999999091511MD1999999-0071REMSYN070AAXX  04184 83339 32497 30512 10269 20109 39151 40105 83200 333 59007;
0178833390999992007100500004-14050-042617FM-12+088299999V0202301N008212200019N0020001N1+02091+01421101401ADDGA1001+999999999GF100991001001999999001001KA1240M+02781MA1999999091731MD1999999+0021REMSYN082AAXX  05004 83339 32995 02316 10209 20142 39173 40140 333 10278 29060 55098 58002;
0156833390999992007100512004-14050-042617FM-12+088299999V0203201N004610042019N0100001N1+02031+01411101511ADDGF105991051021004501001001KA1240N+01661MA1999999091831MD1999999-0021REMSYN076AAXX  05124 83339 32497 53209 10203 20141 39183 40151 85200 333 20166 59002;
0137833390999992007100518004-14050-042617FM-12+088299999V0201401N003112200019N0100001N1+02531+01241101091ADDGF103991021021004501001041MA1999999091501MD1999999-0011REMSYN070AAXX  05184 83339 32497 31406 10253 20124 39150 40109 82204 333 59001;
0168833390999992007100600004-14050-042617FM-12+088299999V0202301N005112200019N0020001N1+02151+01461101321ADDGF102991011021004501021001KA1240M+02681MA1999999091671MD1999999-0061REMSYN088AAXX  06004 83339 32495 22310 10215 20146 39167 40132 81220 333 10268 29061 55091 59006;
0156833390999992007100612004-14050-042617FM-12+088299999V0200901N005710042019N0100001N1+02091+01451101481ADDGF106991061021004501001001KA1240N+01761MA1999999091821MD1999999-0011REMSYN076AAXX  06124 83339 32497 60911 10209 20145 39182 40148 86200 333 20176 59001;
0137833390999992007100618004-14050-042617FM-12+088299999V0201401N005112200019N0100001N1+02711+01071100991ADDGF104991041021004501001001MA1999999091471MD1999999-0031REMSYN070AAXX  06184 83339 32497 41410 10271 20107 39147 40099 84200 333 59003;
0168833390999992007100700004-14050-042617FM-12+088299999V0200501N005712200019N0020001N1+02121+01461101281ADDGF102991021021004501001001KA1240M+02901MA1999999091641MD1999999-0031REMSYN088AAXX  07004 83339 32495 20511 10212 20146 39164 40128 82200 333 10290 29059 55088 59003;
0156833390999992007100712004-14050-042617FM-12+088299999V0201401N006212200019N0100001N1+02191+01501101371ADDGF103991021021004501001021KA1240N+01681MA1999999091741MD1999999-0081REMSYN076AAXX  07124 83339 32497 31412 10219 20150 39174 40137 82202 333 20168 59008;
0137833390999992007100718004-14050-042617FM-12+088299999V0200901N005712200019N0100001N1+02791+01221100861ADDGF102991011021004501021001MA1999999091351MD1999999-0121REMSYN070AAXX  07184 83339 32497 20911 10279 20122 39135 40086 81220 333 59012;
0178833390999992007100800004-14050-042617FM-12+088299999V0201801N006212200019N0020001N1+02131+01461101221ADDGA1001+999999999GF100991001001999999001001KA1240M+02861MA1999999091601MD1999999-0041REMSYN082AAXX  08004 83339 32995 01812 10213 20146 39160 40122 333 10286 29059 55097 59004;
0156833390999992007100812004-14050-042617FM-12+088299999V0200901N006210042019N0100001N1+02061+01401101541ADDGF106991061021004501001001KA1240N+01641MA1999999091871MD1999999+0131REMSYN076AAXX  08124 83339 32497 60912 10206 20140 39187 40154 86200 333 20164 58013;
0147833390999992007100818004-14050-042617FM-12+088299999V0201401N006212200019N0100001N1+02631+01051100951ADDGA1001+999999999GF100991001001999999001001MA1999999091401MD1999999+0051REMSYN064AAXX  08184 83339 32997 01412 10263 20105 39140 40095 333 58005;
0178833390999992007100900004-14050-042617FM-12+088299999V0200901N005712200019N0020001N1+02131+01251101361ADDGA1001+999999999GF100991001001999999001001KA1240M+02701MA1999999091711MD1999999+0111REMSYN082AAXX  09004 83339 32995 00911 10213 20125 39171 40136 333 10270 29054 55093 58011;
0156833390999992007100912004-14050-042617FM-12+088299999V0201401N007210042019N0100001N1+01821+01371101741ADDGF108991051021004501021999KA1240N+01521MA1999999092011MD1999999+0141REMSYN076AAXX  09124 83339 32497 81414 10182 20137 39201 40174 8522/ 333 20152 58014;
0137833390999992007100918004-14050-042617FM-12+088299999V0200901N008210042019N0100001N1+02501+01191101211ADDGF106991061021004501001001MA1999999091591MD1999999+0191REMSYN070AAXX  09184 83339 32497 60916 10250 20119 39159 40121 86200 333 58019;
0168833390999992007101000004-14050-042617FM-12+088299999V0200901N006710042019N0020001N1+01931+01591101631ADDGF106991061021004501001001KA1240M+02551MA1999999091871MD1999999+0161REMSYN088AAXX  10004 83339 32495 60913 10193 20159 39187 40163 86200 333 10255 29070 55047 58016;
0201833390999992007101012004-14050-042617FM-12+088299999V0203201N005110042019N0100001N1+01891+01451101721ADDAA124000591AY161061AY261061GF106991061021004501001001KA1240N+01641MA1999999091951MD1999999-0061MW1021REMSYN088AAXX  10124 83339 21497 63210 10189 20145 39195 40172 70266 86200 333 20164 59006 69964;
0137833390999992007101018004-14050-042617FM-12+088299999V0200901N004610042019N0100001N1+02571+01231101111ADDGF105991051021004501001001MA1999999091521MD1999999-0071REMSYN070AAXX  10184 83339 32497 50909 10257 20123 39152 40111 85200 333 59007;
0178833390999992007101100004-14050-042617FM-12+088299999V0201401N002612200019N0020001N1+02051+01331101381ADDGA1001+999999999GF100991001001999999001001KA1240M+02661MA1999999091661MD1999999-0211REMSYN082AAXX  11004 83339 32995 01405 10205 20133 39166 40138 333 10266 29061 55081 59021;
0156833390999992007101112004-14050-042617FM-12+088299999V0200901N005112200019N0100001N1+02111+01391101381ADDGF102991021011004501001001KA1240N+01671MA1999999091731MD1999999-0221REMSYN076AAXX  11124 83339 32497 20910 10211 20139 39173 40138 82100 333 20167 59022;
0137833390999992007101118004-14050-042617FM-12+088299999V0201401N003612200019N0100001N1+02791+01071100711ADDGF103991031011004501001001MA1999999091201MD1999999-0321REMSYN070AAXX  11184 83339 32497 31407 10279 20107 39120 40071 83100 333 59032;
0178833390999992007101200004-14050-042617FM-12+088299999V0201401N003612200019N0020001N1+02301+00941100991ADDGA1001+999999999GF100991001001999999001001KA1240M+02861MA1999999091411MD1999999-0251REMSYN082AAXX  12004 83339 32995 01407 10230 20094 39141 40099 333 10286 29045 55089 59025;
0156833390999992007101212004-14050-042617FM-12+088299999V0200901N004612200019N0100001N1+02231+01571101261ADDGF103991031021004501001001KA1240N+01821MA1999999091671MD1999999-0061REMSYN076AAXX  12124 83339 32497 30909 10223 20157 39167 40126 83200 333 20182 59006;
0137833390999992007101218004-14050-042617FM-12+088299999V0200901N001512200019N0100001N1+03021+01121100551ADDGF104991041021004501001001MA1999999091151MD1999999-0051REMSYN070AAXX  12184 83339 32497 40903 10302 20112 39115 40055 84200 333 59005;
0178833390999992007101300004-14050-042617FM-12+088299999V0200901N005112200019N0020001N1+02551+01311100861ADDGA1001+999999999GF100991001001999999001001KA1240M+03121MA1999999091371MD1999999-0041REMSYN082AAXX  13004 83339 32995 00910 10255 20131 39137 40086 333 10312 29047 55098 59004;
0156833390999992007101312004-14050-042617FM-12+088299999V0200901N004110042019N0100001N1+02261+01641101131ADDGF106991061021004501001001KA1240N+01861MA1999999091621MD1999999-0051REMSYN076AAXX  13124 83339 32497 60908 10226 20164 39162 40113 86200 333 20186 59005;
0137833390999992007101318004-14050-042617FM-12+088299999V0200901N003112200019N0100001N1+03021+01261100561ADDGF102991021021004501001001MA1999999091181MD1999999+0031REMSYN070AAXX  13184 83339 32497 20906 10302 20126 39118 40056 82200 333 58003;
0178833390999992007101400004-14050-042617FM-12+088299999V0201401N004112200019N0020001N1+02461+01351100881ADDGA1001+999999999GF100991001001999999001001KA1240M+03071MA1999999091381MD1999999+0011REMSYN082AAXX  14004 83339 32995 01408 10246 20135 39138 40088 333 10307 29051 55092 58001;
0156833390999992007101412004-14050-042617FM-12+088299999V0200901N005712200019N0100001N1+02301+01531101181ADDGF102991021011004501001001KA1240N+01761MA1999999091661MD1999999+0041REMSYN076AAXX  14124 83339 32497 20911 10230 20153 39166 40118 82100 333 20176 58004;
0137833390999992007101418004-14050-042617FM-12+088299999V0201401N003112200019N0100001N1+02971+01041100681ADDGF102991021011004501001001MA1999999091271MD1999999+0091REMSYN070AAXX  14184 83339 32497 21406 10297 20104 39127 40068 82100 333 58009;
0178833390999992007101500004-14050-042617FM-12+088299999V0201401N006712200019N0020001N1+02371+01361101031ADDGA1001+999999999GF100991001001999999001001KA1240M+03061MA1999999091511MD1999999+0131REMSYN082AAXX  15004 83339 32995 01413 10237 20136 39151 40103 333 10306 29050 55110 58013;
0166833390999992007101512004-14050-042617FM-12+088299999V0200901N006212200019N0100001N1+02231+01251101371ADDGA1001+999999999GF100991001001999999001001KA1240N+01641MA1999999091801MD1999999+0141REMSYN070AAXX  15124 83339 32997 00912 10223 20125 39180 40137 333 20164 58014;
0147833390999992007101518004-14050-042617FM-12+088299999V0201401N006712200019N0100001N1+02891+02161100911ADDGA1001+999999999GF100991001001999999001001MA1999999091441MD1999999+0171REMSYN064AAXX  15184 83339 32997 01413 10289 20216 39144 40091 333 58017;
0166833390999992007101812004-14050-042617FM-12+088299999V0200501N002612200019N0100001N1+02531+01311100911ADDGA1001+999999999GF100991001001999999001001KA1240N+01781MA1999999091501MD1999999-0131REMSYN070AAXX  18124 83339 32997 00505 10253 20131 39150 40091 333 20178 59013;
0137833390999992007101818004-14050-042617FM-12+088299999V0202301N002612200019N0100001N1+03371+00961100411ADDGF102991021021004501001001MA1999999091131MD1999999-0081REMSYN070AAXX  18184 83339 32497 22305 10337 20096 39113 40041 82200 333 59008;
0178833390999992007103100004-14050-042617FM-12+088299999V0201401N006212200019N0020001N1+02631+01001100451ADDGA1001+999999999GF100991001001999999001001KA1240M+03281MA1999999091061MD1999999-0251REMSYN082AAXX  31004 83339 32995 01412 10263 20100 39106 40045 333 10328 29038 55114 59025;
0156833390999992007103112004-14050-042617FM-12+088299999V0201401N003112200019N0100001N1+02471+01521100771ADDGF102991011021004501031001KA1240N+01951MA1999999091351MD1999999-0061REMSYN076AAXX  31124 83339 32497 21406 10247 20152 39135 40077 81230 333 20195 59006;
0137833390999992007103118004-14050-042617FM-12+088299999V0200901N004612200019N0100001N1+03251+00801100201ADDGF102991011021004501021001MA1999999090921MD1999999+0001REMSYN070AAXX  31184 83339 32497 20909 10325 20080 39092 40020 81220 333 58000;
0178833390999992007110100004-14050-042617FM-12+088299999V0201401N001512200019N0020001N1+02631+00731100471ADDGA1001+999999999GF100991001001999999001001KA1240M+03311MA1999999091081MD1999999+0021REMSYN082AAXX  01004 83339 32995 01403 10263 20073 39108 40047 333 10331 29034 55114 58002;
0166833390999992007110112004-14050-042617FM-12+088299999V02099999999992200019N0100001N1+02551+01541100711ADDGA1001+999999999GF100991001001999999001001KA1240N+01861MA1999999091321MD1999999-0031REMSYN070AAXX  01124 83339 32997 014// 10255 20154 39132 40071 333 20186 59003;
0137833390999992007110118004-14050-042617FM-12+088299999V02099999999990042019N0100001N1+03271+01171100211ADDGF106991061021004501001001MA1999999090931MD1999999+0011REMSYN070AAXX  01184 83339 32497 627// 10327 20117 39093 40021 86200 333 58001;
0168833390999992007110200004-14050-042617FM-12+088299999V02099999999992200019N0020001N1+02731+01241100481ADDGF102991021021004501001001KA1240M+03411MA1999999091131MD1999999+0051REMSYN088AAXX  02004 83339 32495 214// 10273 20124 39113 40048 82200 333 10341 29040 55095 58005;
0166833390999992007110212004-14050-042617FM-12+088299999V02099999999992200019N0100001N1+02831+01441100751ADDGA1001+999999999GF100991001001999999001001KA1240N+02141MA1999999091441MD1999999+0121REMSYN070AAXX  02124 83339 32997 027// 10283 20144 39144 40075 333 20214 58012;
0137833390999992007110218004-14050-042617FM-12+088299999V02099999999990042019N0100001N1+03431+01251100101ADDGF106991061021004501001001MA1999999091001MD1999999+0071REMSYN070AAXX  02184 83339 32497 623// 10343 20125 39100 40010 86200 333 58007;
0156833390999992007110312004-14050-042617FM-12+088299999V02099999999992200019N0100001N1+03011+01411100631ADDGF102991021021004501001001KA1240N+02461MA1999999091361MD1999999-0081REMSYN076AAXX  03124 83339 32497 236// 10301 20141 39136 40063 82200 333 20246 59008;
0137833390999992007110318004-14050-042617FM-12+088299999V02099999999990042019N0100001N1+03341+01411100101ADDGF106991061021004501001001MA1999999090921MD1999999-0081REMSYN070AAXX  03184 83339 32497 636// 10334 20141 39092 40010 86200 333 59008;
0232833390999992007110400004-14050-042617FM-12+088299999V02099999999990042019N0020001N1+02491+01571100441ADDAA106000091AY191061AY261061GF105991051021004501001001KA1240M+02921MA1999999091151MD1999999-0061MW1021REMSYN100AAXX  04004 83339 21495 527// 10249 20157 39115 40044 70296 85200 333 10292 29046 55080 59006 69921;EQDQ01  00002PRCP06
0220833390999992007110412004-14050-042617FM-12+088299999V02099999999990042019N0100001N1+02451+01561100851ADDAA124000091AY161061AY261061GF106991051021004501031001KA1240N+02001MA1999999091381MD1999999+0021MW1021REMSYN088AAXX  04124 83339 21497 609// 10245 20156 39138 40085 70266 85230 333 20200 58002 69924;EQDQ01  00002PRCP24
0137833390999992007110418004-14050-042617FM-12+088299999V02099999999990042019N0100001N1+03171+01421100191ADDGF106991051021004501021001MA1999999090881MD1999999-0041REMSYN070AAXX  04184 83339 32497 614// 10317 20142 39088 40019 85220 333 59004;
0168833390999992007110500004-14050-042617FM-12+088299999V02099999999992200019N0020001N1+02691+01521100501ADDGF102991021021004501001001KA1240M+03101MA1999999091111MD1999999-0041REMSYN088AAXX  05004 83339 32495 209// 10269 20152 39111 40050 82200 333 10310 29048 55065 59004;
0166833390999992007110512004-14050-042617FM-12+088299999V02099999999992200019N0100001N1+02471+01541100831ADDGA1001+999999999GF100991001001999999001001KA1240N+02041MA1999999091431MD1999999+0051REMSYN070AAXX  05124 83339 32997 009// 10247 20154 39143 40083 333 20204 58005;
0156833390999992007110518004-14050-042617FM-12+088299999V02099999999992200019N0100001N1+03161+00861100371ADDGF102991001001999999001011MA1999999091071MD1999999+0191REMSYN070AAXX  05184 83339 32897 205// 10316 20086 39107 40037 80001 333 58019;EQDQ01+022502SCOLCB
0178833390999992007110600004-14050-042617FM-12+088299999V02099999999992200019N0020001N1+02551+01171100791ADDGA1001+999999999GF100991001001999999001001KA1240M+03221MA1999999091351MD1999999+0241REMSYN082AAXX  06004 83339 32995 014// 10255 20117 39135 40079 333 10322 29041 55112 58024;
0147833390999992007110618004-14050-042617FM-12+088299999V02099999999992200019N0100001N1+02951+00921100701ADDGA1001+999999999GF100991001001999999001001MA1999999091291MD1999999+0221REMSYN064AAXX  06184 83339 32997 009// 10295 20092 39129 40070 333 58022;
0178833390999992007110700004-14050-042617FM-12+088299999V02099999999992200019N0020001N1+02551+01101101031ADDGA1001+999999999GF100991001001999999001001KA1240M+03021MA1999999091531MD1999999+0181REMSYN082AAXX  07004 83339 32995 014// 10255 20110 39153 40103 333 10302 29041 55117 58018;
0166833390999992007110712004-14050-042617FM-12+088299999V02099999999992200019N0100001N1+02411+01461101271ADDGA1001+999999999GF100991001001999999001001KA1240N+01761MA1999999091781MD1999999+0071REMSYN070AAXX  07124 83339 32997 014// 10241 20146 39178 40127 333 20176 58007;
0137833390999992007110718004-14050-042617FM-12+088299999V02099999999992200019N0100001N1+03211+01141100601ADDGF103991031021004501001001MA1999999091251MD1999999-0041REMSYN070AAXX  07184 83339 32497 309// 10321 20114 39125 40060 83200 333 59004;
0178833390999992007110800004-14050-042617FM-12+088299999V02099999999992200019N0020001N1+02671+01171100861ADDGA1001+999999999GF100991001001999999001001KA1240M+03261MA1999999091441MD1999999-0091REMSYN082AAXX  08004 83339 32995 014// 10267 20117 39144 40086 333 10326 29040 55109 59009;
0166833390999992007110812004-14050-042617FM-12+088299999V02099999999992200019N0100001N1+02351+01231101021ADDGA1001+999999999GF100991001001999999001001KA1240N+01741MA1999999091551MD1999999-0231REMSYN070AAXX  08124 83339 32997 014// 10235 20123 39155 40102 333 20174 59023;
0137833390999992007110818004-14050-042617FM-12+088299999V02099999999992200019N0100001N1+03151+01091100421ADDGF102991011011004501001011MA1999999091091MD1999999-0161REMSYN070AAXX  08184 83339 32497 214// 10315 20109 39109 40042 81101 333 59016;
0178833390999992007110900004-14050-042617FM-12+088299999V02099999999992200019N0020001N1+02581+01461100731ADDGA1001+999999999GF100991001001999999001001KA1240M+03221MA1999999091371MD1999999-0171REMSYN082AAXX  09004 83339 32995 009// 10258 20146 39137 40073 333 10322 29044 55116 59017;
0175833390999992007110912004-14050-042617FM-12+088299999V02099999999992200019N0100001N1+02351+01561100911ADDGF102991001001999999001011KA1240N+01761MA1999999091421MD1999999-0131REMSYN076AAXX  09124 83339 32897 214// 10235 20156 39142 40091 80001 333 20176 59013;EQDQ01+022502SCOLCB
0137833390999992007110918004-14050-042617FM-12+088299999V02099999999992200019N0100001N1+03181+00991100381ADDGF106991021011004501001041MA1999999091051MD1999999-0041REMSYN070AAXX  09184 83339 32497 609// 10318 20099 39105 40038 82104 333 59004;
0178833390999992007111000004-14050-042617FM-12+088299999V02099999999992200019N0020001N1+02651+00951100681ADDGA1001+999999999GF100991001001999999001001KA1240M+03221MA1999999091251MD1999999-0021REMSYN082AAXX  10004 83339 32995 014// 10265 20095 39125 40068 333 10322 29039 55089 59002;
0175833390999992007111012004-14050-042617FM-12+088299999V02099999999992200019N0100001N1+02391+01581100761ADDGF102991001001999999001011KA1240N+01741MA1999999091331MD1999999-0091REMSYN076AAXX  10124 83339 32897 214// 10239 20158 39133 40076 80001 333 20174 59009;EQDQ01+022502SCOLCB
0137833390999992007111018004-14050-042617FM-12+088299999V02099999999992200019N0100001N1+03251+01061100201ADDGF102991011011004501001011MA1999999090921MD1999999-0131REMSYN070AAXX  10184 83339 32497 214// 10325 20106 39092 40020 81101 333 59013;
0178833390999992007111100004-14050-042617FM-12+088299999V02099999999992200019N0020001N1+02671+00831100761ADDGA1001+999999999GF100991001001999999001001KA1240M+03301MA1999999091171MD1999999-0081REMSYN082AAXX  11004 83339 32995 014// 10267 20083 39117 40076 333 10330 29037 55113 59008;
0175833390999992007111112004-14050-042617FM-12+088299999V02099999999992200019N0100001N1+02651+01501100761ADDGF102991001001999999001011KA1240N+01901MA1999999091381MD1999999+0051REMSYN076AAXX  11124 83339 32897 205// 10265 20150 39138 40076 80001 333 20190 58005;EQDQ01+022502SCOLCB
0137833390999992007111118004-14050-042617FM-12+088299999V02099999999992200019N0100001N1+03291+00901100251ADDGF102991021021004501001001MA1999999090981MD1999999+0061REMSYN070AAXX  11184 83339 32497 214// 10329 20090 39098 40025 82200 333 58006;
0178833390999992007111200004-14050-042617FM-12+088299999V02099999999992200019N0020001N1+02701+01071100541ADDGA1001+999999999GF100991001001999999001001KA1240M+03381MA1999999091201MD1999999+0031REMSYN082AAXX  12004 83339 32995 014// 10270 20107 39120 40054 333 10338 29037 55116 58003;
0156833390999992007111212004-14050-042617FM-12+088299999V02099999999990042019N0100001N1+02571+01531100811ADDGF106991051021004501021001KA1240N+01981MA1999999091431MD1999999+0051REMSYN076AAXX  12124 83339 32497 609// 10257 20153 39143 40081 85220 333 20198 58005;
0137833390999992007111218004-14050-042617FM-12+088299999V02099999999992200019N0100001N1+03311+01091100341ADDGF102991021021004501001001MA1999999091061MD1999999+0081REMSYN070AAXX  12184 83339 32497 218// 10331 20109 39106 40034 82200 333 58008;
0156833390999992007111312004-14050-042617FM-12+088299999V02099999999992200019N0100001N1+02471+01551100881ADDGF103991021021004501021001KA1240N+01931MA1999999091451MD1999999+0021REMSYN076AAXX  13124 83339 32497 309// 10247 20155 39145 40088 82220 333 20193 58002;
0137833390999992007111318004-14050-042617FM-12+088299999V02099999999991050019N0100001N1+03131+01301100471ADDGF105991041021004501001021MA1999999091141MD1999999+0081REMSYN070AAXX  13184 83339 32497 505// 10313 20130 39114 40047 84202 333 58008;
0168833390999992007111400004-14050-042617FM-12+088299999V02099999999990042019N0020001N1+02271+01661101021ADDGF106991061021004501001001KA1240M+03141MA1999999091501MD1999999+0271REMSYN088AAXX  14004 83339 32495 614// 10227 20166 39150 40102 86200 333 10314 29057 55102 58027;
0201833390999992007111412004-14050-042617FM-12+088299999V02099999999992200019N0100001N1+02301+01511101211ADDAA124000591AY161061AY261061GF104991041021004501001001KA1240N+01801MA1999999091651MD1999999+0201MW1121REMSYN088AAXX  14124 83339 21497 409// 10230 20151 39165 40121 71266 84200 333 20180 58020 69944;
0137833390999992007111418004-14050-042617FM-12+088299999V02099999999992200019N0100001N1+02971+00971100711ADDGF102991011021004501021001MA1999999091281MD1999999+0141REMSYN070AAXX  14184 83339 32497 214// 10297 20097 39128 40071 81220 333 58014;
0178833390999992007111500004-14050-042617FM-12+088299999V02099999999992200019N0020001N1+02491+01101100891ADDGA1001+999999999GF100991001001999999001001KA1240M+03041MA1999999091401MD1999999-0101REMSYN082AAXX  15004 83339 32995 009// 10249 20110 39140 40089 333 10304 29044 55112 59010;
0156833390999992007111512004-14050-042617FM-12+088299999V02099999999992200019N0100001N1+02411+01471101131ADDGF102991021021004501001001KA1240N+01801MA1999999091641MD1999999-0011REMSYN076AAXX  15124 83339 32497 209// 10241 20147 39164 40113 82200 333 20180 59001;
0137833390999992007111518004-14050-042617FM-12+088299999V02099999999992200019N0100001N1+03151+00711100621ADDGF102991011021004501001021MA1999999091251MD1999999-0031REMSYN070AAXX  15184 83339 32497 214// 10315 20071 39125 40062 81202 333 59003;
0178833390999992007111600004-14050-042617FM-12+088299999V02099999999992200019N0020001N1+02711+00941100821ADDGA1001+999999999GF100991001001999999001001KA1240M+03271MA1999999091401MD1999999+0001REMSYN082AAXX  16004 83339 32995 018// 10271 20094 39140 40082 333 10327 29036 55118 58000;
0156833390999992007111612004-14050-042617FM-12+088299999V02099999999992200019N0100001N1+02491+01601101081ADDGF102991021021004501001001KA1240N+01851MA1999999091651MD1999999+0011REMSYN076AAXX  16124 83339 32497 214// 10249 20160 39165 40108 82200 333 20185 58001;
0137833390999992007111618004-14050-042617FM-12+088299999V02099999999992200019N0100001N1+03031+01211100771ADDGF102991021021004501001001MA1999999091391MD1999999+0141REMSYN070AAXX  16184 83339 32497 205// 10303 20121 39139 40077 82200 333 58014;
0178833390999992007111700004-14050-042617FM-12+088299999V02099999999992200019N0020001N1+02541+01191101081ADDGA1001+999999999GF100991001001999999001001KA1240M+03101MA1999999091611MD1999999+0211REMSYN082AAXX  17004 83339 32995 014// 10254 20119 39161 40108 333 10310 29044 55113 58021;
0156833390999992007111712004-14050-042617FM-12+088299999V02099999999990042019N0100001N1+02171+01401101351ADDGF106991061021004501001001KA1240N+01781MA1999999091801MD1999999+0151REMSYN076AAXX  17124 83339 32497 618// 10217 20140 39180 40135 86200 333 20178 58015;
0137833390999992007111718004-14050-042617FM-12+088299999V02099999999992200019N0100001N1+02891+01351100831ADDGF105991041021004501001041MA1999999091391MD1999999+0001REMSYN070AAXX  17184 83339 32497 509// 10289 20135 39139 40083 84204 333 58000;
0156833390999992007111812004-14050-042617FM-12+088299999V02099999999990042019N0100001N1+02151+01311101171ADDGF106991051021004501021001KA1240N+01681MA1999999091621MD1999999-0181REMSYN076AAXX  18124 83339 32497 627// 10215 20131 39162 40117 85220 333 20168 59018;
0137833390999992007111818004-14050-042617FM-12+088299999V02099999999992200019N0100001N1+02871+01081100691ADDGF102991011021004501001041MA1999999091241MD1999999-0151REMSYN070AAXX  18184 83339 32497 214// 10287 20108 39124 40069 81204 333 59015;
0166833390999992007111912004-14050-042617FM-12+088299999V02099999999992200019N0100001N1+02351+01431101231ADDGA1001+999999999GF100991001001999999001001KA1240N+01751MA1999999091671MD1999999+0051REMSYN070AAXX  19124 83339 32997 009// 10235 20143 39167 40123 333 20175 58005;
0137833390999992007111918004-14050-042617FM-12+088299999V02099999999992200019N0100001N1+03081+01171100561ADDGF102991021011004501001001MA1999999091161MD1999999-0071REMSYN070AAXX  19184 83339 32497 209// 10308 20117 39116 40056 82100 333 59007;
0178833390999992007112000004-14050-042617FM-12+088299999V02099999999992200019N0100001N1+02531+00971100571ADDGA1001+999999999GF100991001001999999001001KA1240M+03141MA1999999091291MD1999999-0221REMSYN082AAXX  20004 83339 32997 014// 10253 20097 39129 40057 333 10314 29040 55113 59022;
0166833390999992007112012004-14050-042617FM-12+088299999V02099999999992200019N0100001N1+02491+01591100951ADDGA1001+999999999GF100991001001999999001001KA1240N+01841MA1999999091491MD1999999-0181REMSYN070AAXX  20124 83339 32997 009// 10249 20159 39149 40095 333 20184 59018;
0137833390999992007112018004-14050-042617FM-12+088299999V02099999999990042019N0100001N1+03271+01081100311ADDGF106991061021004501001001MA1999999091111MD1999999-0051REMSYN070AAXX  20184 83339 32497 614// 10327 20108 39111 40031 86200 333 59005;
0178833390999992007112100004-14050-042617FM-12+088299999V02099999999992200019N0020001N1+02731+01221100711ADDGA1001+999999999GF100991001001999999001001KA1240M+03411MA1999999091321MD1999999+0031REMSYN082AAXX  21004 83339 32995 014// 10273 20122 39132 40071 333 10341 29040 55099 58003;
0137833390999992007112118004-14050-042617FM-12+088299999V02099999999990042019N0100001N1+03131+01451100621ADDGF106991051021004501031001MA1999999091291MD1999999+0181REMSYN070AAXX  21184 83339 32497 636// 10313 20145 39129 40062 85230 333 58018;
0201833390999992007112212004-14050-042617FM-12+088299999V02099999999990042019N0020001N1+01931+01841101211ADDAA124003091AY161061AY221061GF108991051021004501021999KA1240N+01921MA1999999091671MD1999999+0051MW1401REMSYN088AAXX  22124 83339 21495 804// 10193 20184 39167 40121 74062 8522/ 333 20192 58005 60034;
0165833390999992007112218004-14050-042617FM-12+088299999V02099999999990042019N0100001N1+02201+01821100911ADDAY141061AY221061GF108991061021004501031999MA1999999091361MD1999999+0071MW1021REMSYN076AAXX  22184 83339 31497 814// 10220 20182 39136 40091 70242 8623/ 333 58007;
0213833390999992007112300004-14050-042617FM-12+088299999V02099999999990042019N0020001N1+02051+01841101251ADDAA106001091AY161061AY221061GF108991051021004501021999KA1240M+02811MA1999999091571MD1999999+0071MW1021REMSYN100AAXX  23004 83339 21495 814// 10205 20184 39157 40125 70262 8522/ 333 10281 29087 55000 58007 60011;
0201833390999992007112312004-14050-042617FM-12+088299999V02099999999990042019N0020001N1+01841+01811101441ADDAA124020191AY161061AY261061GF108991061021004501021999KA1240N+01831MA1999999091721MD1999999+0051MW1401REMSYN088AAXX  23124 83339 21495 814// 10184 20181 39172 40144 74066 8622/ 333 20183 58005 60204;
0201833390999992007112318004-14050-042617FM-12+088299999V02099999999990042019N0100001N1+02371+01871100971ADDAA106000091AY161061AY241061GF106991061021004501001001MA1999999091371MD1999999+0011MW1021REMSYN082AAXX  23184 83339 21497 614// 10237 20187 39137 40097 70264 86200 333 58001 69921;EQDQ01  00002PRCP06
0213833390999992007112400004-14050-042617FM-12+088299999V02099999999990042019N0020001N1+02091+01781101261ADDAA106004191AY161061AY221061GF108991051021004501021999KA1240M+02401MA1999999091551MD1999999-0021MW1401REMSYN100AAXX  24004 83339 21495 832// 10209 20178 39155 40126 74062 8522/ 333 10240 29084 55003 59002 60041;
0201833390999992007112412004-14050-042617FM-12+088299999V02099999999990450019N0100001N1+02231+01921101211ADDAA124004191AY161061AY241061GF106991041021004501031001KA1240N+01831MA1999999091591MD1999999-0131MW1021REMSYN088AAXX  24124 83339 21497 605// 10223 20192 39159 40121 70264 84230 333 20183 59013 60044;
0182833390999992007112418004-14050-042617FM-12+088299999V02099999999990042019N0100001N1+02631+01831100711ADDAA106000891AY161061AY221061GF106991061021004501001001MA1999999091201MD1999999-0171MW1021REMSYN082AAXX  24184 83339 21497 627// 10263 20183 39120 40071 70262 86200 333 59017 69971;
0201833390999992007112512004-14050-042617FM-12+088299999V02099999999990042019N0100001N1+02251+02031101041ADDAA124021191AY161061AY221061GF108991051021004501021999KA1240N+01981MA1999999091521MD1999999-0071MW1021REMSYN088AAXX  25124 83339 21497 814// 10225 20203 39152 40104 70262 8522/ 333 20198 59007 60214;
0182833390999992007112518004-14050-042617FM-12+088299999V02099999999992200019N0100001N1+02571+02081100651ADDAA106000591AY161061AY221061GF106991041021004501001011MA1999999091181MD1999999-0021MW1021REMSYN082AAXX  25184 83339 21497 614// 10257 20208 39118 40065 70262 84201 333 59002 69941;
0201833390999992007112612004-14050-042617FM-12+088299999V0209999C000010042019N0040001N1+01991+01881101141ADDAA124023191AY161061AY261061GF108991081051004501999999KA1240N+01961MA1999999091511MD1999999-0011MW1611REMSYN088AAXX  26124 83339 21496 80000 10199 20188 39151 40114 76166 885// 333 20196 59001 60234;
0182833390999992007112618004-14050-042617FM-12+088299999V02099999999990042019N0100001N1+02491+01941100591ADDAA106000891AY161061AY261061GF106991051021004501021001MA1999999091091MD1999999-0091MW1021REMSYN082AAXX  26184 83339 21497 636// 10249 20194 39109 40059 70266 85220 333 59009 69981;
0201833390999992007112712004-14050-042617FM-12+088299999V02099999999990042019N0040001N1+02091+01871100921ADDAA124018091AY161061AY261061GF107991061021004501031001KA1240N+01901MA1999999091311MD1999999-0201MW1101REMSYN088AAXX  27124 83339 21496 736// 10209 20187 39131 40092 71066 86230 333 20190 59020 60184;
0137833390999992007112718004-14050-042617FM-12+088299999V02099999999990042019N0100001N1+02631+01741100391ADDGF106991061021004501001001MA1999999090911MD1999999-0181REMSYN070AAXX  27184 83339 32497 636// 10263 20174 39091 40039 86200 333 59018;
0168833390999992007112800004-14050-042617FM-12+088299999V02099999999990042019N0020001N1+02331+01911100651ADDGF107991061021004501021999KA1240M+02721MA1999999091111MD1999999-0121REMSYN088AAXX  28004 83339 32495 727// 10233 20191 39111 40065 8622/ 333 10272 29076 55039 59012;
0201833390999992007112812004-14050-042617FM-12+088299999V02099999999990042019N0040001N1+02011+01831100841ADDAA124017091AY161061AY261061GF108991081051004501999999KA1240N+01861MA1999999091251MD1999999-0061MW1101REMSYN088AAXX  28124 83339 21496 832// 10201 20183 39125 40084 71066 885// 333 20186 59006 60174;
0182833390999992007112818004-14050-042617FM-12+088299999V02099999999990042019N0040001N1+02251+01921100631ADDAA106002091AY161061AY261061GF107991061021004501021999MA1999999091061MD1999999+0151MW1101REMSYN082AAXX  28184 83339 21496 732// 10225 20192 39106 40063 71066 8622/ 333 58015 60021;
0168833390999992007112900004-14050-042617FM-12+088299999V02099999999990042019N0020001N1+02121+01741100881ADDGF106991061021004501001001KA1240M+02421MA1999999091251MD1999999+0141REMSYN088AAXX  29004 83339 32495 636// 10212 20174 39125 40088 86200 333 10242 29082 55008 58014;
0201833390999992007112912004-14050-042617FM-12+088299999V02099999999990042019N0040001N1+02071+01761101021ADDAA124002091AY161061AY261061GF108991081051004501999999KA1240N+01841MA1999999091401MD1999999+0151MW1101REMSYN088AAXX  29124 83339 21496 827// 10207 20176 39140 40102 71066 885// 333 20184 58015 60024;
0137833390999992007112918004-14050-042617FM-12+088299999V02099999999990042019N0100001N1+02561+01671100611ADDGF106991051021004501031001MA1999999091091MD1999999+0031REMSYN070AAXX  29184 83339 32497 632// 10256 20167 39109 40061 85230 333 58003;
0168833390999992007113000004-14050-042617FM-12+088299999V02099999999990042019N0020001N1+02331+01651100851ADDGF105991051021004501001001KA1240M+02641MA1999999091281MD1999999+0031REMSYN088AAXX  30004 83339 32495 518// 10233 20165 39128 40085 85200 333 10264 29068 55006 58003;
0201833390999992007113012004-14050-042617FM-12+088299999V02099999999990042019N0040001N1+02031+01951101081ADDAA124000591AY161061AY261061GF108991081051004501999999KA1240N+01981MA1999999091491MD1999999+0091MW1101REMSYN088AAXX  30124 83339 21496 818// 10203 20195 39149 40108 71066 885// 333 20198 58009 69944;
0182833390999992007113018004-14050-042617FM-12+088299999V02099999999990042019N0040001N1+02151+01931100851ADDAA106004191AY161061AY261061GF107991061021004501021999MA1999999091261MD1999999+0171MW1101REMSYN082AAXX  30184 83339 21496 714// 10215 20193 39126 40085 71066 8622/ 333 58017 60041;
0196833390999992007120100004-14050-042617FM-12+088299999V02099999999990042019N0020001N1+02041+01971101101ADDAY101061AY201061GF108991081051004501999999KA1240M+02431MA1999999091451MD1999999+0171MW1101REMSYN094AAXX  01004 83339 31495 814// 10204 20197 39145 40110 71000 885// 333 10243 29094 55000 58017;
0201833390999992007120112004-14050-042617FM-12+088299999V02099999999990042019N0040001N1+02031+01891101161ADDAA124004191AY161061AY261061GF108991081051004501999999KA1240N+01901MA1999999091511MD1999999+0021MW1101REMSYN088AAXX  01124 83339 21496 814// 10203 20189 39151 40116 71066 885// 333 20190 58002 60044;
0137833390999992007120118004-14050-042617FM-12+088299999V02099999999990042019N0100001N1+02651+01831100681ADDGF106991061021004501001001MA1999999091171MD1999999-0091REMSYN070AAXX  01184 83339 32497 618// 10265 20183 39117 40068 86200 333 59009;
0213833390999992007120200004-14050-042617FM-12+088299999V0209999C000010042019N0020001N1+01991+01911101301ADDAA106053191AY191061AY261061GF108991081051004501999999KA1240M+02751MA1999999091621MD1999999+0171MW1611REMSYN100AAXX  02004 83339 21495 80000 10199 20191 39162 40130 76196 885// 333 10275 29086 55027 58017 60531;
0201833390999992007120212004-14050-042617FM-12+088299999V02099999999990042019N0040001N1+01991+01901101351ADDAA124053191AY161061AY261061GF108991081051004501999999KA1240N+01861MA1999999091651MD1999999+0141MW1101REMSYN088AAXX  02124 83339 21496 814// 10199 20190 39165 40135 71066 885// 333 20186 58014 60534;
0137833390999992007120218004-14050-042617FM-12+088299999V02099999999990042019N0100001N1+02531+01741100981ADDGF106991061021004501001001MA1999999091401MD1999999+0231REMSYN070AAXX  02184 83339 32497 609// 10253 20174 39140 40098 86200 333 58023;
0196833390999992007120300004-14050-042617FM-12+088299999V02099999999992200019N0020001N1+02151+01861101151ADDAY101061AY201061GF104991041021004501001001KA1240M+02581MA1999999091501MD1999999-0121MW1101REMSYN094AAXX  03004 83339 31495 418// 10215 20186 39150 40115 71000 84200 333 10258 29081 55029 59012;
0156833390999992007120312004-14050-042617FM-12+088299999V02099999999990042019N0100001N1+02151+01821101361ADDGF106991061021004501001001KA1240N+01861MA1999999091711MD1999999+0061REMSYN076AAXX  03124 83339 32497 614// 10215 20182 39171 40136 86200 333 20186 58006;
0137833390999992007120318004-14050-042617FM-12+088299999V02099999999992200019N0100001N1+02821+01651100741ADDGF102991021021004501001001MA1999999091261MD1999999-0141REMSYN070AAXX  03184 83339 32497 214// 10282 20165 39126 40074 82200 333 59014;
0178833390999992007120400004-14050-042617FM-12+088299999V02099999999992200019N0020001N1+02411+01591100931ADDGA1001+999999999GF100991001001999999001001KA1240M+02881MA1999999091401MD1999999-0101REMSYN082AAXX  04004 83339 32995 014// 10241 20159 39140 40093 333 10288 29063 55071 59010;
0175833390999992007120412004-14050-042617FM-12+088299999V02099999999992200019N0100001N1+02461+01881100981ADDGF102991001001999999001011KA1240N+01781MA1999999091501MD1999999-0211REMSYN076AAXX  04124 83339 32897 214// 10246 20188 39150 40098 80001 333 20178 59021;EQDQ01+022502SCOLCB
0137833390999992007120418004-14050-042617FM-12+088299999V02099999999992200019N0100001N1+03071+01821100471ADDGF103991031021004501001001MA1999999091101MD1999999-0161REMSYN070AAXX  04184 83339 32497 323// 10307 20182 39110 40047 83200 333 59016;
0168833390999992007120600004-14050-042617FM-12+088299999V02099999999992200019N0020001N1+02371+01781101051ADDGF102991021021004501001001KA1240M+03061MA1999999091561MD1999999+0251REMSYN088AAXX  06004 83339 32495 218// 10237 20178 39156 40105 82200 333 10306 29070 55056 58025;
0220833390999992007120612004-14050-042617FM-12+088299999V02099999999992200019N0100001N1+02521+01931101121ADDAA124007191AY161061AY221061GF102991001001999999001011KA1240N+01971MA1999999091631MD1999999+0011MW1021REMSYN088AAXX  06124 83339 21897 232// 10252 20193 39163 40112 70262 80001 333 20197 58001 60074;EQDQ01+022502SCOLCB
0137833390999992007120618004-14050-042617FM-12+088299999V02099999999990042019N0100001N1+02731+01731100731ADDGF106991061021004501001001MA1999999091271MD1999999-0041REMSYN070AAXX  06184 83339 32497 632// 10273 20173 39127 40073 86200 333 59004;
0178833390999992007120700004-14050-042617FM-12+088299999V02099999999992200019N0020001N1+02381+01931100871ADDGA1001+999999999GF100991001001999999001001KA1240M+03161MA1999999091401MD1999999-0161REMSYN082AAXX  07004 83339 32995 014// 10238 20193 39140 40087 333 10316 29065 55086 59016;
0175833390999992007120712004-14050-042617FM-12+088299999V02099999999992200019N0100001N1+02751+01831100881ADDGF102991001001999999001011KA1240N+01901MA1999999091451MD1999999-0181REMSYN076AAXX  07124 83339 32897 227// 10275 20183 39145 40088 80001 333 20190 59018;EQDQ01+022502SCOLCB
0137833390999992007120718004-14050-042617FM-12+088299999V02099999999990042019N0100001N1+03071+01781100421ADDGF106991061021004501001001MA1999999091051MD1999999-0221REMSYN070AAXX  07184 83339 32497 632// 10307 20178 39105 40042 86200 333 59022;
0196833390999992007120800004-14050-042617FM-12+088299999V02099999999990042019N0020001N1+02541+01861100591ADDAY121061AY221061GF106991061021004501001001KA1240M+03251MA1999999091231MD1999999-0171MW1131REMSYN094AAXX  08004 83339 31495 614// 10254 20186 39123 40059 71322 86200 333 10325 29059 55056 59017;
0182833390999992007120818004-14050-042617FM-12+088299999V02099999999990042019N0040001N1+02231+02221100871ADDAA106003091AY161061AY261061GF108991051021004501021999MA1999999091331MD1999999+0281MW1601REMSYN082AAXX  08184 83339 21496 827// 10223 20222 39133 40087 76066 8522/ 333 58028 60031;
0213833390999992007120900004-14050-042617FM-12+088299999V02099999999990042019N0020001N1+02051+01991101071ADDAA106000021AY161061AY221061GF108991061021004501021999KA1240M+02571MA1999999091411MD1999999+0111MW1401REMSYN100AAXX  09004 83339 21495 814// 10205 20199 39141 40107 74062 8622/ 333 10257 29097 55000 58011 69921;
0201833390999992007120912004-14050-042617FM-12+088299999V02099999999990042019N0020001N1+02111+01971101151ADDAA124003091AY161061AY241061GF106991061021004501001001KA1240N+01981MA1999999091521MD1999999+0001MW1401REMSYN088AAXX  09124 83339 21495 609// 10211 20197 39152 40115 74064 86200 333 20198 58000 60034;
0165833390999992007120918004-14050-042617FM-12+088299999V02099999999990042019N0100001N1+02571+01991100751ADDAY141061AY221061GF106991061021004501001001MA1999999091241MD1999999-0091MW1021REMSYN076AAXX  09184 83339 31497 614// 10257 20199 39124 40075 70242 86200 333 59009;
0137833390999992007121018004-14050-042617FM-12+088299999V02099999999990042019N0100001N1+02291+01731101141ADDGF106991051021004501021001MA1999999091511MD1999999+0271REMSYN070AAXX  10184 83339 32497 614// 10229 20173 39151 40114 85220 333 58027;
0168833390999992007121100004-14050-042617FM-12+088299999V02099999999990042019N0020001N1+02171+01741101151ADDGF106991061021004501001001KA1240M+02401MA1999999091541MD1999999+0091REMSYN088AAXX  11004 83339 32495 614// 10217 20174 39154 40115 86200 333 10240 29077 55000 58009;
0156833390999992007121112004-14050-042617FM-12+088299999V02099999999992200019N0100001N1+02251+01741101271ADDGF103991021021004501001021KA1240N+01801MA1999999091661MD1999999-0041REMSYN076AAXX  11124 83339 32497 309// 10225 20174 39166 40127 82202 333 20180 59004;
0137833390999992007121118004-14050-042617FM-12+088299999V02099999999992200019N0100001N1+02751+01571100901ADDGF102991021021004501001001MA1999999091391MD1999999-0121REMSYN070AAXX  11184 83339 32497 218// 10275 20157 39139 40090 82200 333 59012;
0178833390999992007121200004-14050-042617FM-12+088299999V02099999999992200019N0020001N1+02291+01461100951ADDGA1001+999999999GF100991001001999999001001KA1240M+02741MA1999999091441MD1999999-0101REMSYN082AAXX  12004 83339 32995 009// 10229 20146 39144 40095 333 10274 29060 55118 59010;
0184833390999992007121212004-14050-042617FM-12+088299999V02099999999990042019N0040001N1+01991+01641101141ADDAY101061AY201061GF108991081051004501999999KA1240N+01741MA1999999091531MD1999999-0131MW1101REMSYN082AAXX  12124 83339 31496 814// 10199 20164 39153 40114 71000 885// 333 20174 59013;
0137833390999992007121218004-14050-042617FM-12+088299999V02099999999992200019N0100001N1+02771+01611100771ADDGF102991021021004501001001MA1999999091291MD1999999-0101REMSYN070AAXX  12184 83339 32497 214// 10277 20161 39129 40077 82200 333 59010;
0178833390999992007121300004-14050-042617FM-12+088299999V0209999C000012200019N0020001N1+02311+01631100881ADDGA1001+999999999GF100991001001999999001001KA1240M+02801MA1999999091291MD1999999-0151REMSYN082AAXX  13004 83339 32995 00000 10231 20163 39129 40088 333 10280 29066 55083 59015;
0156833390999992007121312004-14050-042617FM-12+088299999V02099999999992200019N0100001N1+02131+01461101021ADDGF102991021021004501001001KA1240N+01661MA1999999091441MD1999999-0091REMSYN076AAXX  13124 83339 32497 218// 10213 20146 39144 40102 82200 333 20166 59009;
0147833390999992007121318004-14050-042617FM-12+088299999V02099999999992200019N0100001N1+02741+01061100671ADDGA1001+999999999GF100991001001999999001001MA1999999091181MD1999999-0111REMSYN064AAXX  13184 83339 32997 009// 10274 20106 39118 40067 333 59011;
0178833390999992007121400004-14050-042617FM-12+088299999V02099999999992200019N0020001N1+02291+01271100791ADDGA1001+999999999GF100991001001999999001001KA1240M+02801MA1999999091231MD1999999-0061REMSYN082AAXX  14004 83339 32995 018// 10229 20127 39123 40079 333 10280 29052 55120 59006;
0156833390999992007121412004-14050-042617FM-12+088299999V02099999999990042019N0100001N1+02251+01711101041ADDGF106991051021004501021001KA1240N+01641MA1999999091481MD1999999+0041REMSYN076AAXX  14124 83339 32497 618// 10225 20171 39148 40104 85220 333 20164 58004;
0137833390999992007121418004-14050-042617FM-12+088299999V02099999999990042019N0100001N1+02871+01521100631ADDGF105991051021004501001021MA1999999091161MD1999999-0021REMSYN070AAXX  14184 83339 32497 509// 10287 20152 39116 40063 85202 333 59002;
0168833390999992007121500004-14050-042617FM-12+088299999V02099999999992200019N0020001N1+02471+01381100691ADDGF102991021021004501001001KA1240M+03041MA1999999091201MD1999999-0031REMSYN088AAXX  15004 83339 32495 227// 10247 20138 39120 40069 82200 333 10304 29054 55098 59003;
0156833390999992007121512004-14050-042617FM-12+088299999V02099999999990450019N0100001N1+02511+01721100661ADDGF105991041021004501031001KA1240N+02001MA1999999091241MD1999999-0241REMSYN076AAXX  15124 83339 32497 505// 10251 20172 39124 40066 84230 333 20200 59024;
0137833390999992007121518004-14050-042617FM-12+088299999V02099999999992200019N0100001N1+03121+01481100231ADDGF102991011021004501001041MA1999999090901MD1999999-0261REMSYN070AAXX  15184 83339 32497 227// 10312 20148 39090 40023 81204 333 59026;
0168833390999992007121600004-14050-042617FM-12+088299999V02099999999990042019N0020001N1+02511+01801100441ADDGF106991061021004501001001KA1240M+03181MA1999999091041MD1999999-0161REMSYN088AAXX  16004 83339 32495 636// 10251 20180 39104 40044 86200 333 10318 29057 55106 59016;
0201833390999992007121612004-14050-042617FM-12+088299999V0209999C000010042019N0040001N1+02151+01931100701ADDAA124001091AY161061AY261061GF107991061021004501021999KA1240N+02081MA1999999091211MD1999999-0031MW1101REMSYN088AAXX  16124 83339 21496 70000 10215 20193 39121 40070 71066 8622/ 333 20208 59003 60014;
0137833390999992007121618004-14050-042617FM-12+088299999V02099999999990042019N0100001N1+02791+01851100271ADDGF105991051021004501001001MA1999999090901MD1999999+0001REMSYN070AAXX  16184 83339 32497 536// 10279 20185 39090 40027 85200 333 58000;
0190833390999992007121700004-14050-042617FM-12+088299999V02099999999990042019N0020001N1+01971+01771999999ADDAY101061AY201061GF106991061021004501001001KA1240M+02921MA1999999091101MD1999999+0061MW1101REMSYN088AAXX  17004 83339 31495 627// 10197 20177 39110 71000 86200 333 10292 29081 55046 58006;
0201833390999992007121712004-14050-042617FM-12+088299999V0209999C000010042019N0040001N1+02071+01851101761ADDAA124003091AY161061AY261061GF108991081051004501999999KA1240N+01901MA1999999091241MD1999999+0031MW1101REMSYN088AAXX  17124 83339 21496 80000 10207 20185 39124 40176 71066 885// 333 20190 58003 60034;
0201833390999992007121718004-14050-042617FM-12+088299999V02099999999990042019N0100001N1+02491+02071100432ADDAA106018091AY161061AY211061GF106991051021004501021001MA1999999090931MD1999999+0031MW1021REMSYN082AAXX  17184 83339 21497 636// 10249 20207 39093 40043 70261 85220 333 58003 60181;EQDQ01+100433APOSLP
0196833390999992007121800004-14050-042617FM-12+088299999V02099999999992200019N0020001N1+02211+01861100691ADDAY101061AY201061GF103991031021004501001001KA1240M+02561MA1999999091121MD1999999+0021MW1101REMSYN094AAXX  18004 83339 31495 314// 10221 20186 39112 40069 71000 83200 333 10256 29082 55011 58002;
0201833390999992007121812004-14050-042617FM-12+088299999V0209999C000010450019N0100001N1+02171+01951101131ADDAA124112091AY161061AY241061GF106991041021004501021001KA1240N+01921MA1999999091541MD1999999+0301MW1021REMSYN088AAXX  18124 83339 21497 60000 10217 20195 39154 40113 70264 84220 333 20192 58030 61124;
0213833390999992007121900004-14050-042617FM-12+088299999V0209999C000010042019N0020001N1+02051+02011101121ADDAA106002091AY161061AY221061GF108991051021004501021999KA1240M+02721MA1999999091491MD1999999+0371MW1401REMSYN100AAXX  19004 83339 21495 80000 10205 20201 39149 40112 74062 8522/ 333 10272 29086 55030 58037 60021;
0201833390999992007121912004-14050-042617FM-12+088299999V0209999C000010042019N0100001N1+02311+01071101171ADDAA124003091AY161061AY241061GF105991051021004501001001KA1240N+01961MA1999999091571MD1999999+0031MW1021REMSYN088AAXX  19124 83339 21497 50000 10231 20107 39157 40117 70264 85200 333 20196 58003 60034;
0196833390999992007122000004-14050-042617FM-12+088299999V0209999C000010042019N0020001N1+02091+02051101041ADDAY121061AY221061GF106991061021004501001001KA1240M+02661MA1999999091451MD1999999-0041MW1401REMSYN094AAXX  20004 83339 31495 60000 10209 20205 39145 40104 74022 86200 333 10266 29093 55021 59004;
0201833390999992007122012004-14050-042617FM-12+088299999V02099999999992200019N0100001N1+02271+02031101041ADDAA124023191AY161061AY241061GF104991021021004501031001KA1240N+01901MA1999999091451MD1999999-0121MW1021REMSYN088AAXX  20124 83339 21497 409// 10227 20203 39145 40104 70264 82230 333 20190 59012 60234;
0165833390999992007122018004-14050-042617FM-12+088299999V02099999999990042019N0010001N1+02731+02191100681ADDAY121061AY221061GF108991061021004501021999MA1999999091191MD1999999-0031MW1161REMSYN076AAXX  20184 83339 31494 836// 10273 20219 39119 40068 71622 8622/ 333 59003;
0223833390999992007122100004-14050-042617FM-12+088299999V02099999999992200019N0020001N1+02251+01991100951ADDAA106008991AY161061AY221061GA1001+999999999GF100991001001999999001001KA1240M+02841MA1999999091341MD1999999-0111MW1021REMSYN094AAXX  21004 83339 21995 023// 10225 20199 39134 40095 70262 333 10284 29082 55/// 59011 60091;
0201833390999992007122112004-14050-042617FM-12+088299999V02099999999992200019N0100001N1+02211+02011101061ADDAA124008991AY161061AY221061GF103991031021004501001001KA1240N+01871MA1999999091501MD1999999-0051MW1021REMSYN088AAXX  21124 83339 21497 305// 10221 20201 39150 40106 70262 83200 333 20187 59005 60094;
0137833390999992007122118004-14050-042617FM-12+088299999V02099999999990042019N0100001N1+02961+01961100511ADDGF105991051011004501001001MA1999999091101MD1999999-0091REMSYN070AAXX  21184 83339 32497 514// 10296 20196 39110 40051 85100 333 59009;
0213833390999992007122200004-14050-042617FM-12+088299999V02099999999990042019N0020001N1+02291+01981101011ADDAA106020191AY191061AY261061GF108991061021004501021999KA1240M+03041MA1999999091451MD1999999+0111MW1021REMSYN100AAXX  22004 83339 21495 818// 10229 20198 39145 40101 70296 8622/ 333 10304 29077 55/// 58011 60201;
0137833390999992007122218004-14050-042617FM-12+088299999V02099999999992200019N0100001N1+02711+01421100801ADDGF102991021011004501001001MA1999999091321MD1999999+0221REMSYN070AAXX  22184 83339 32497 209// 10271 20142 39132 40080 82100 333 58022;
0156833390999992007122312004-14050-042617FM-12+088299999V02099999999992200019N0100001N1+02251+01821101191ADDGF102991011011004501001011KA1240N+01691MA1999999091621MD1999999+0031REMSYN076AAXX  23124 83339 32497 209// 10225 20182 39162 40119 81101 333 20169 58003;
0156833390999992007122318004-14050-042617FM-12+088299999V02099999999992200019N0100001N1+02681+01491100911ADDGF102991001001999999001011MA1999999091381MD1999999+0061REMSYN070AAXX  23184 83339 32897 214// 10268 20149 39138 40091 80001 333 58006;EQDQ01+022502SCOLCB
0178833390999992007122400004-14050-042617FM-12+088299999V02099999999992200019N0020001N1+02241+01351101071ADDGA1001+999999999GF100991001001999999001001KA1240M+02741MA1999999091511MD1999999+0031REMSYN082AAXX  24004 83339 32995 014// 10224 20135 39151 40107 333 10274 29060 55/// 58003;
0184833390999992007122412004-14050-042617FM-12+088299999V02099999999990042019N0100001N1+02071+01741101171ADDAY101061AY201061GF106991061021004501001001KA1240N+01731MA1999999091551MD1999999-0071MW1101REMSYN082AAXX  24124 83339 31497 614// 10207 20174 39155 40117 71000 86200 333 20173 59007;
0156833390999992007122512004-14050-042617FM-12+088299999V02099999999990042019N0040001N1+01951+01571101181ADDGF107991061021004501021999KA1240N+01721MA1999999091531MD1999999-0021REMSYN076AAXX  25124 83339 32496 727// 10195 20157 39153 40118 8622/ 333 20172 59002;
0137833390999992007122518004-14050-042617FM-12+088299999V02099999999992200019N0100001N1+02531+01521100851ADDGF104991041021004501001001MA1999999091311MD1999999+0021REMSYN070AAXX  25184 83339 32497 409// 10253 20152 39131 40085 84200 333 58002;
0168833390999992007122600004-14050-042617FM-12+088299999V02099999999992200019N0020001N1+02121+01681101041ADDGF102991021011004501001001KA1240M+02621MA1999999091401MD1999999+0031REMSYN088AAXX  26004 83339 32495 205// 10212 20168 39140 40104 82100 333 10262 29071 55/// 58003;
0156833390999992007122612004-14050-042617FM-12+088299999V02099999999990042019N0100001N1+02051+01581101191ADDGF106991061021004501001001KA1240N+01701MA1999999091551MD1999999+0021REMSYN076AAXX  26124 83339 32497 609// 10205 20158 39155 40119 86200 333 20170 58002;
0137833390999992007122618004-14050-042617FM-12+088299999V02099999999992200019N0100001N1+02571+01471100931ADDGF103991031021004501001001MA1999999091381MD1999999+0071REMSYN070AAXX  26184 83339 32497 318// 10257 20147 39138 40093 83200 333 58007;
0168833390999992007122700004-14050-042617FM-12+088299999V02099999999992200019N0020001N1+02131+01461100941ADDGF102991021021004501001001KA1240M+02621MA1999999091331MD1999999-0071REMSYN088AAXX  27004 83339 32495 209// 10213 20146 39133 40094 82200 333 10262 29064 55/// 59007;
0156833390999992007122712004-14050-042617FM-12+088299999V02099999999992200019N0100001N1+02071+01431101101ADDGF103991031021004501001001KA1240N+01701MA1999999091471MD1999999-0081REMSYN076AAXX  27124 83339 32497 314// 10207 20143 39147 40110 83200 333 20170 59008;
0137833390999992007122718004-14050-042617FM-12+088299999V02099999999992200019N0100001N1+02591+01491100761ADDGF102991021021004501001001MA1999999091231MD1999999-0151REMSYN070AAXX  27184 83339 32497 209// 10259 20149 39123 40076 82200 333 59015;
0178833390999992007122800004-14050-042617FM-12+088299999V02099999999992200019N0020001N1+02231+01621100881ADDGA1001+999999999GF100991001001999999001001KA1240M+02681MA1999999091271MD1999999-0061REMSYN082AAXX  28004 83339 32995 018// 10223 20162 39127 40088 333 10268 29064 55/// 59006;
0156833390999992007122812004-14050-042617FM-12+088299999V02099999999992200019N0100001N1+02071+01521101141ADDGF102991021021004501001001KA1240N+01681MA1999999091531MD1999999+0061REMSYN076AAXX  28124 83339 32497 214// 10207 20152 39153 40114 82200 333 20168 58006;
0147833390999992007122818004-14050-042617FM-12+088299999V02099999999992200019N0100001N1+02631+01081100791ADDGA1001+999999999GF100991001001999999001001MA1999999091271MD1999999+0041REMSYN064AAXX  28184 83339 32997 027// 10263 20108 39127 40079 333 58004;
0178833390999992007122900004-14050-042617FM-12+088299999V02099999999992200019N0020001N1+02231+01071100931ADDGA1001+999999999GF100991001001999999001001KA1240M+02701MA1999999091341MD1999999+0071REMSYN082AAXX  29004 83339 32995 023// 10223 20107 39134 40093 333 10270 29051 55/// 58007;
0156833390999992007122912004-14050-042617FM-12+088299999V02099999999990042019N0100001N1+02161+01721101111ADDGF106991061021004501001001KA1240N+01741MA1999999091521MD1999999-0011REMSYN076AAXX  29124 83339 32497 609// 10216 20172 39152 40111 86200 333 20174 59001;
0137833390999992007122918004-14050-042617FM-12+088299999V02099999999992200019N0100001N1+02651+01691100771ADDGF103991031021004501001001MA1999999091251MD1999999-0021REMSYN070AAXX  29184 83339 32497 323// 10265 20169 39125 40077 83200 333 59002;
0168833390999992007123000004-14050-042617FM-12+088299999V02099999999992200019N0020001N1+02151+01541100931ADDGF102991021021004501001001KA1240M+02741MA1999999091341MD1999999+0001REMSYN088AAXX  30004 83339 32495 214// 10215 20154 39134 40093 82200 333 10274 29067 55/// 58000;
0156833390999992007123012004-14050-042617FM-12+088299999V02099999999992200019N0100001N1+02191+01561101111ADDGF103991021021004501001041KA1240N+01801MA1999999091501MD1999999-0021REMSYN076AAXX  30124 83339 32497 327// 10219 20156 39150 40111 82204 333 20180 59002;
0137833390999992007123018004-14050-042617FM-12+088299999V02099999999992200019N0100001N1+02701+01411100691ADDGF102991021021004501001001MA1999999091201MD1999999-0051REMSYN070AAXX  30184 83339 32497 209// 10270 20141 39120 40069 82200 333 59005;
0178833390999992007123100004-14050-042617FM-12+088299999V02099999999992200019N0020001N1+02251+01621100841ADDGA1001+999999999GF100991001001999999001001KA1240M+02801MA1999999091271MD1999999-0071REMSYN082AAXX  31004 83339 32995 018// 10225 20162 39127 40084 333 10280 29062 55/// 59007;
0137833390999992007123118004-14050-042617FM-12+088299999V02099999999992200019N0100001N1+02751+01561100841ADDGF102991021021004501001001MA1999999091351MD1999999+0151REMSYN070AAXX  31184 83339 32497 214// 10275 20156 39135 40084 82200 333 58015;
