0120833440999992007062918004-14950-040883FM-15+0840SBQV V0201301N005112200019N0112651N1+02401+01401999999ADDGA1021+007501999GF102991999999999999999999MA1102201999999REMMET051METAR SBQV 291800Z 13010KT 9999 FEW025 24/14 Q1022;
0120833440999992007062919004-14950-040883FM-15+0840SBQV V0201601N006212200019N0112651N1+02201+01501999999ADDGA1021+007501999GF102991999999999999999999MA1102201999999REMMET051METAR SBQV 291900Z 16012KT 9999 FEW025 22/15 Q1022;
0120833440999992007062920004-14950-040883FM-15+0840SBQV V0201601N004112200019N0112651N1+02101+01401999999ADDGA1021+007501999GF102991999999999999999999MA1102201999999REMMET051METAR SBQV 292000Z 16008KT 9999 FEW025 21/14 Q1022;
0120833440999992007062921004-14950-040883FM-15+0840SBQV V0201301N002112200019N0112651N1+01901+01401999999ADDGA1021+005401999GF102991999999999999999999MA1102301999999REMMET051METAR SBQV 292100Z 13004KT 9999 FEW018 19/14 Q1023;
0072833440999992007062922004-14950-040883FM-15+0840SBQV V0201101N00211220001CN0099001N1+01701+01401999999ADDMA1102301999999REMMET045METAR SBQV 292200Z 11004KT CAVOK 17/14 Q1023;
0072833440999992007063000004-14950-040883FM-15+0840SBQV V0201301N00151220001CN0099001N1+01601+01401999999ADDMA1102401999999REMMET045METAR SBQV 300000Z 13003KT CAVOK 16/14 Q1024;
0072833440999992007063001004-14950-040883FM-15+0840SBQV V0201001N00261220001CN0099001N1+01601+01201999999ADDMA1102401999999REMMET045METAR SBQV 300100Z 10005KT CAVOK 16/12 Q1024;
0072833440999992007063002004-14950-040883FM-15+0840SBQV V0201001N00411220001CN0099001N1+01601+01401999999ADDMA1102401999999REMMET045METAR SBQV 300200Z 10008KT CAVOK 16/14 Q1024;
0072833440999992007063011004-14950-040883FM-15+0840SBQV V0201001N00411220001CN0099001N1+01801+01201999999ADDMA1102511999999REMMET045METAR SBQV 301100Z 10008KT CAVOK 18/12 Q1025;
0143833440999992007063012004-14950-040883FM-15+0840SBQV V0201301N005110900019N0112651N1+02001+01301999999ADDGA1021+004501999GA2071+090001999GF107991999999999999999999MA1102611999999REMMET058METAR SBQV 301200Z 13010KT 9999 FEW015 BKN300 20/13 Q1026;
0143833440999992007063013004-14950-040883FM-15+0840SBQV V0201001N005110900019N0112651N1+02101+01201999999ADDGA1021+004801999GA2071+090001999GF107991999999999999999999MA1102611999999REMMET058METAR SBQV 301300Z 10010KT 9999 FEW016 BKN300 21/12 Q1026;
0143833440999992007063014004-14950-040883FM-15+0840SBQV V0201801N004112200019N0112651N1+02201+01101999999ADDGA1021+005401999GA2041+090001999GF104991999999999999999999MA1102611999999REMMET058METAR SBQV 301400Z 18008KT 9999 FEW018 SCT300 22/11 Q1026;
0120833440999992007063015004-14950-040883FM-15+0840SBQV V0201201N004112200019N0112651N1+02201+01001999999ADDGA1021+006001999GF102991999999999999999999MA1102511999999REMMET051METAR SBQV 301500Z 12008KT 9999 FEW020 22/10 Q1025;
0120833440999992007063016004-14950-040883FM-15+0840SBQV V0201301N002112200019N0112651N1+02301+01301999999ADDGA1021+006001999GF102991999999999999999999MA1102511999999REMMET051METAR SBQV 301600Z 13004KT 9999 FEW020 23/13 Q1025;
0120833440999992007063017004-14950-040883FM-15+0840SBQV V0201301N003610060019N0112651N1+02301+01301999999ADDGA1071+006001999GF107991999999999999999999MA1102401999999REMMET051METAR SBQV 301700Z 13007KT 9999 BKN020 23/13 Q1024;
0143833440999992007063018004-14950-040883FM-15+0840SBQV V0201301N004112200019N0112651N1+02301+01401999999ADDGA1021+006001999GA2041+024001999GF104991999999999999999999MA1102301999999REMMET058METAR SBQV 301800Z 13008KT 9999 FEW020 SCT080 23/14 Q1023;
0120833440999992007063019004-14950-040883FM-15+0840SBQV V0201301N003612200019N0112651N1+02101+01401999999ADDGA1021+006001999GF102991999999999999999999MA1102401999999REMMET051METAR SBQV 301900Z 13007KT 9999 FEW020 21/14 Q1024;
0072833440999992007063020004-14950-040883FM-15+0840SBQV V0201301N00311220001CN0099001N1+02001+01401999999ADDMA1102401999999REMMET045METAR SBQV 302000Z 13006KT CAVOK 20/14 Q1024;
0072833440999992007063021004-14950-040883FM-15+0840SBQV V0201301N00261220001CN0099001N1+01901+01401999999ADDMA1102401999999REMMET045METAR SBQV 302100Z 13005KT CAVOK 19/14 Q1024;
0072833440999992007063022004-14950-040883FM-15+0840SBQV V0201101N00151220001CN0099001N1+01701+01401999999ADDMA1102511999999REMMET045METAR SBQV 302200Z 11003KT CAVOK 17/14 Q1025;
0143833440999992007070211004-14950-040883FM-15+0840SBQV V0201101N007210240019N0112651N1+01801+01501999999ADDGA1041+002701999GA2071+024001999GF107991999999999999999999MA1102611999999REMMET058METAR SBQV 021100Z 11014KT 9999 SCT009 BKN080 18/15 Q1026;
0143833440999992007070212004-14950-040883FM-15+0840SBQV V0201301N006210240019N0112651N1+01801+01601999999ADDGA1041+002701999GA2071+024001999GF107991999999999999999999MA1102611999999REMMET058METAR SBQV 021200Z 13012KT 9999 SCT009 BKN080 18/16 Q1026;
0143833440999992007070213004-14950-040883FM-15+0840SBQV V0201601N007710240019N0112651N1+02001+01601999999ADDGA1021+003901999GA2071+024001999GF107991999999999999999999MA1102611999999REMMET058METAR SBQV 021300Z 16015KT 9999 FEW013 BKN080 20/16 Q1026;
0143833440999992007070214004-14950-040883FM-15+0840SBQV V0201601N007712200019N0112651N1+02001+01501999999ADDGA1021+004501999GA2041+024001999GF104991999999999999999999MA1102611999999REMMET058METAR SBQV 021400Z 16015KT 9999 FEW015 SCT080 20/15 Q1026;
0166833440999992007070215004-14950-040883FM-15+0840SBQV V0201301N00621024001CN0112651N1+02101+01501999999ADDGA1041+004501999GA2041+024001999GA3071+090001999GF107991999999999999999999MA1102611999999REMMET065METAR SBQV 021500Z 13012KT 9999 SCT015 SCT080 BKN300 21/15 Q1026;
0166833440999992007070216004-14950-040883FM-15+0840SBQV V0201001N00771027001CN0112651N1+02201+01501999999ADDGA1021+006001999GA2041+027001999GA3071+090001999GF107991999999999999999999MA1102511999999REMMET065METAR SBQV 021600Z 10015KT 9999 FEW020 SCT090 BKN300 22/15 Q1025;
0153833440999992007070217004-14950-040883FM-15+0840SBQV V0201401N005710240019N0070001N1+01901+01601999999ADDGA1041+002701999GA2071+024001999GF107991999999999999999999MA1102401999999MW1511REMMET062METAR SBQV 021700Z 14011KT 7000 -DZ SCT009 BKN080 19/16 Q1024;
0160833440999992007070218004-14950-040883FM-15+0840SBQV V0201401N005110030019N0112651N1+01901+01501999999ADDGA1021+002101999GA2071+003001999GF107991999999999999999999MA1102401999999MW1511REMMET069METAR SBQV 021800Z 14010KT 9999 7000SE -DZ FEW007 BKN010 19/15 Q1024;
0143833440999992007070219004-14950-040883FM-15+0840SBQV V0201301N007210240019N0112651N1+01901+01501999999ADDGA1041+003301999GA2071+024001999GF107991999999999999999999MA1102401999999REMMET058METAR SBQV 021900Z 13014KT 9999 SCT011 BKN080 19/15 Q1024;
0143833440999992007070220004-14950-040883FM-15+0840SBQV V0201401N004110240019N0112651N1+01701+01501999999ADDGA1041+002701999GA2071+024001999GF107991999999999999999999MA1102401999999REMMET058METAR SBQV 022000Z 14008KT 9999 SCT009 BKN080 17/15 Q1024;
0143833440999992007070221004-14950-040883FM-15+0840SBQV V0201101N003110210019N0112651N1+01601+01401999999ADDGA1041+003001999GA2071+021001999GF107991999999999999999999MA1102401999999REMMET058METAR SBQV 022100Z 11006KT 9999 SCT010 BKN070 16/14 Q1024;
0120833440999992007070222004-14950-040883FM-15+0840SBQV V0201301N003110036019N0112651N1+01601+01401999999ADDGA1071+003601999GF107991999999999999999999MA1102511999999REMMET051METAR SBQV 022200Z 13006KT 9999 BKN012 16/14 Q1025;
0120833440999992007070223004-14950-040883FM-15+0840SBQV V0201301N003112200019N0112651N1+01601+01501999999ADDGA1021+003601999GF102991999999999999999999MA1102511999999REMMET051METAR SBQV 022300Z 13006KT 9999 FEW012 16/15 Q1025;
0143833440999992007070300004-14950-040883FM-15+0840SBQV V0201001N002112200019N0112651N1+01601+01401999999ADDGA1021+003001999GA2041+021001999GF104991999999999999999999MA1102511999999REMMET058METAR SBQV 030000Z 10004KT 9999 FEW010 SCT070 16/14 Q1025;
0136833440999992007070311004-14950-040883FM-15+0840SBQV V0201301N00361220001CN0112651N1+01601+01501999999ADDGA1071+002101999GA2041+024001999MA1102611999999REMMET058METAR SBQV 031100Z 13007KT 9999 BKN007 SCT080 16/15 Q1026;EQDQ01+000042SCOTCV
0136833440999992007070312004-14950-040883FM-15+0840SBQV V0201301N00511220001CN0112651N1+01801+01601999999ADDGA1071+002701999GA2041+024001999MA1102711999999REMMET058METAR SBQV 031200Z 13010KT 9999 BKN009 SCT080 18/16 Q1027;EQDQ01+000042SCOTCV
0136833440999992007070313004-14950-040883FM-15+0840SBQV V0201301N00511220001CN0112651N1+01901+01501999999ADDGA1071+003301999GA2041+090001999MA1102711999999REMMET058METAR SBQV 031300Z 13010KT 9999 BKN011 SCT300 19/15 Q1027;EQDQ01+000042SCOTCV
0166833440999992007070314004-14950-040883FM-15+0840SBQV V0201301N005110045019N0112651N1+02001+01401999999ADDGA1021+003901999GA2071+004501999GA3071+090001999GF107991999999999999999999MA1102711999999REMMET065METAR SBQV 031400Z 13010KT 9999 FEW013 BKN015 BKN300 20/14 Q1027;
0143833440999992007070315004-14950-040883FM-15+0840SBQV V0201301N005110900019N0112651N1+02101+01501999999ADDGA1041+004501999GA2071+090001999GF107991999999999999999999MA1102611999999REMMET058METAR SBQV 031500Z 13010KT 9999 SCT015 BKN300 21/15 Q1026;
0120833440999992007070316004-14950-040883FM-15+0840SBQV V0201101N004110045019N0112651N1+02101+01401999999ADDGA1071+004501999GF107991999999999999999999MA1102511999999REMMET051METAR SBQV 031600Z 11008KT 9999 BKN015 21/14 Q1025;
0120833440999992007070317004-14950-040883FM-15+0840SBQV V0201001N003110045019N0112651N1+02201+01401999999ADDGA1071+004501999GF107991999999999999999999MA1102401999999REMMET051METAR SBQV 031700Z 10006KT 9999 BKN015 22/14 Q1024;
0143833440999992007070318004-14950-040883FM-15+0840SBQV V0201201N004110240019N0112651N1+02201+01501999999ADDGA1021+004501999GA2071+024001999GF107991999999999999999999MA1102401999999REMMET058METAR SBQV 031800Z 12008KT 9999 FEW015 BKN080 22/15 Q1024;
0143833440999992007070319004-14950-040883FM-15+0840SBQV V0201301N006210240019N0112651N1+02101+01601999999ADDGA1021+004501999GA2071+024001999GF107991999999999999999999MA1102301999999REMMET058METAR SBQV 031900Z 13012KT 9999 FEW015 BKN080 21/16 Q1023;
0143833440999992007070320004-14950-040883FM-15+0840SBQV V0201301N004110270019N0112651N1+02001+01501999999ADDGA1021+004501999GA2071+027001999GF107991999999999999999999MA1102401999999REMMET058METAR SBQV 032000Z 13008KT 9999 FEW015 BKN090 20/15 Q1024;
0143833440999992007070321004-14950-040883FM-15+0840SBQV V0201301N003610270019N0112651N1+01901+01701999999ADDGA1021+004501999GA2071+027001999GF107991999999999999999999MA1102401999999REMMET058METAR SBQV 032100Z 13007KT 9999 FEW015 BKN090 19/17 Q1024;
0136833440999992007070322004-14950-040883FM-15+0840SBQV V0201301N00411220001CN0112651N1+01901+01601999999ADDGA1071+001801999GA2041+002401999MA1102511999999REMMET058METAR SBQV 032200Z 13008KT 9999 BKN006 SCT008 19/16 Q1025;EQDQ01+000042SCOTCV
0136833440999992007070413004-14950-040883FM-15+0840SBQV V0201001N00511220001CN0112651N1+01801+01601999999ADDGA1071+003901999GA2041+024001999MA1102711999999REMMET058METAR SBQV 041300Z 10010KT 9999 BKN013 SCT080 18/16 Q1027;EQDQ01+000042SCOTCV
0120833440999992007070414004-14950-040883FM-15+0840SBQV V0201101N005110045019N0112651N1+02001+01501999999ADDGA1071+004501999GF107991999999999999999999MA1102611999999REMMET051METAR SBQV 041400Z 11010KT 9999 BKN015 20/15 Q1026;
0120833440999992007070415004-14950-040883FM-15+0840SBQV V0201301N004110048019N0112651N1+02101+01601999999ADDGA1071+004801999GF107991999999999999999999MA1102611999999REMMET051METAR SBQV 041500Z 13008KT 9999 BKN016 21/16 Q1026;
0143833440999992007070416004-14950-040883FM-15+0840SBQV V0201301N006210900019N0112651N1+02101+01601999999ADDGA1041+004801999GA2071+090001999GF107991999999999999999999MA1102511999999REMMET058METAR SBQV 041600Z 13012KT 9999 SCT016 BKN300 21/16 Q1025;
0143833440999992007070417004-14950-040883FM-15+0840SBQV V0201001N007210900019N0112651N1+02201+01601999999ADDGA1041+006001999GA2071+090001999GF107991999999999999999999MA1102401999999REMMET058METAR SBQV 041700Z 10014KT 9999 SCT020 BKN300 22/16 Q1024;
0143833440999992007070419004-14950-040883FM-15+0840SBQV V0201301N004110900019N0112651N1+02001+01601999999ADDGA1021+003901999GA2071+090001999GF107991999999999999999999MA1102401999999REMMET058METAR SBQV 041900Z 13008KT 9999 FEW013 BKN300 20/16 Q1024;
0143833440999992007070420004-14950-040883FM-15+0840SBQV V0201301N003110900019N0112651N1+01901+01701999999ADDGA1021+003601999GA2081+090001999GF108991999999999999999999MA1102511999999REMMET058METAR SBQV 042000Z 13006KT 9999 FEW012 OVC300 19/17 Q1025;
0120833440999992007070421004-14950-040883FM-15+0840SBQV V0201301N004110012019N0112651N1+01801+01701999999ADDGA1071+001201999GF107991999999999999999999MA1102511999999REMMET051METAR SBQV 042100Z 13008KT 9999 BKN004 18/17 Q1025;
0120833440999992007070422004-14950-040883FM-15+0840SBQV V0201301N003612200019N0112651N1+01801+01701999999ADDGA1041+001201999GF104991999999999999999999MA1102511999999REMMET051METAR SBQV 042200Z 13007KT 9999 SCT004 18/17 Q1025;
0143833440999992007070511004-14950-040883FM-15+0840SBQV V0201501N004610018019N0112651N1+01701+01701999999ADDGA1071+001801999GA2071+021001999GF107991999999999999999999MA1102611999999REMMET058METAR SBQV 051100Z 15009KT 9999 BKN006 BKN070 17/17 Q1026;
0153833440999992007070512004-14950-040883FM-15+0840SBQV V0201401N004110018019N0020001N1+01801+01701999999ADDGA1021+001501999GA2071+001801999GF107991999999999999999999MA1102711999999MW1511REMMET062METAR SBQV 051200Z 14008KT 2000 -DZ FEW005 BKN006 18/17 Q1027;
0143833440999992007070513004-14950-040883FM-15+0840SBQV V0201001N007210027019N0112651N1+01801+01701999999ADDGA1021+001801999GA2071+002701999GF107991999999999999999999MA1102711999999REMMET058METAR SBQV 051300Z 10014KT 9999 FEW006 BKN009 18/17 Q1027;
0143833440999992007070514004-14950-040883FM-15+0840SBQV V0201601N005110036019N0112651N1+01801+01701999999ADDGA1021+001801999GA2071+003601999GF107991999999999999999999MA1102711999999REMMET058METAR SBQV 051400Z 16010KT 9999 FEW006 BKN012 18/17 Q1027;
0166833440999992007070515004-14950-040883FM-15+0840SBQV V0201401N00511003601CN0112651N1+01901+01701999999ADDGA1021+001801999GA2041+003601999GA3071+021001999GF107991999999999999999999MA1102611999999REMMET065METAR SBQV 051500Z 14010KT 9999 FEW006 SCT012 BKN070 19/17 Q1026;
0143833440999992007070516004-14950-040883FM-15+0840SBQV V0201301N008210210019N0112651N1+02001+01701999999ADDGA1041+003901999GA2071+021001999GF107991999999999999999999MA1102611999999REMMET058METAR SBQV 051600Z 13016KT 9999 SCT013 BKN070 20/17 Q1026;
0182833440999992007070517004-14950-040883FM-15+0840SBQV V0201301N006210039019N0112651N1+02001+01601999999ADDGA1021+001801999GA2071+003901999GA3081+021001999GF108991999999999999999999MA1102511999999MW1611REMMET075METAR SBQV 051700Z 13012KT 9999 7000S -RA FEW006 BKN013 OVC070 20/16 Q1025;
0143833440999992007070518004-14950-040883FM-15+0840SBQV V0201301N005710210019N0112651N1+01901+01601999999ADDGA1041+003301999GA2081+021001999GF108991999999999999999999MA1102511999999REMMET058METAR SBQV 051800Z 13011KT 9999 SCT011 OVC070 19/16 Q1025;
0183833440999992007070519004-14950-040883FM-15+0840SBQV V0201601N005710030019N0112651N1+01901+01701999999ADDGA1041+001801999GA2071+003001999GA3081+021001999GF108991999999999999999999MA1102511999999MW1511REMMET076METAR SBQV 051900Z 16011KT 9999 5000SE -DZ SCT006 BKN010 OVC070 19/17 Q1025;
0143833440999992007070520004-14950-040883FM-15+0840SBQV V0201301N004110024019N0112651N1+01701+01601999999ADDGA1071+002401999GA2081+021001999GF108991999999999999999999MA1102511999999REMMET058METAR SBQV 052000Z 13008KT 9999 BKN008 OVC070 17/16 Q1025;
0143833440999992007070521004-14950-040883FM-15+0840SBQV V0201301N003610024019N0112651N1+01701+01601999999ADDGA1071+002401999GA2071+021001999GF107991999999999999999999MA1102511999999REMMET058METAR SBQV 052100Z 13007KT 9999 BKN008 BKN070 17/16 Q1025;
0117833440999992007070522004-14950-040883FM-15+0840SBQV V0201301N00461220001CN0112651N1+01701+01601999999ADDGA1071+001801999GA2041+021001999MA1102511999999REMMET058METAR SBQV 052200Z 13009KT 9999 BKN006 SCT070 17/16 Q1025;
0120833440999992007070611004-14950-040883FM-15+0840SBQV V0201301N003610024019N0112651N1+01501+01401999999ADDGA1071+002401999GF107991999999999999999999MA1102511999999REMMET051METAR SBQV 061100Z 13007KT 9999 BKN008 15/14 Q1025;
0120833440999992007070612004-14950-040883FM-15+0840SBQV V0201401N005110030019N0112651N1+01601+01501999999ADDGA1071+003001999GF107991999999999999999999MA1102611999999REMMET051METAR SBQV 061200Z 14010KT 9999 BKN010 16/15 Q1026;
0120833440999992007070613004-14950-040883FM-15+0840SBQV V0201101N004612200019N0112651N1+01901+01501999999ADDGA1041+003901999GF104991999999999999999999MA1102611999999REMMET051METAR SBQV 061300Z 11009KT 9999 SCT013 19/15 Q1026;
0120833440999992007070614004-14950-040883FM-15+0840SBQV V0201101N007212200019N0112651N1+02001+01401999999ADDGA1041+004501999GF104991999999999999999999MA1102511999999REMMET051METAR SBQV 061400Z 11014KT 9999 SCT015 20/14 Q1025;
0120833440999992007070615004-14950-040883FM-15+0840SBQV V0201301N006712200019N0112651N1+02101+01401999999ADDGA1041+005401999GF104991999999999999999999MA1102511999999REMMET051METAR SBQV 061500Z 13013KT 9999 SCT018 21/14 Q1025;
0143833440999992007070616004-14950-040883FM-15+0840SBQV V0201001N004612200019N0112651N1+02201+01401999999ADDGA1021+006001999GA2041+090001999GF104991999999999999999999MA1102401999999REMMET058METAR SBQV 061600Z 10009KT 9999 FEW020 SCT300 22/14 Q1024;
0120833440999992007070617004-14950-040883FM-15+0840SBQV V0201301N004612200019N0112651N1+02101+01601999999ADDGA1021+006001999GF102991999999999999999999MA1102301999999REMMET051METAR SBQV 061700Z 13009KT 9999 FEW020 21/16 Q1023;
0143833440999992007070618004-14950-040883FM-15+0840SBQV V0201301N006212200019N0112651N1+02301+01401999999ADDGA1021+006001999GA2041+024001999GF104991999999999999999999MA1102301999999REMMET058METAR SBQV 061800Z 13012KT 9999 FEW020 SCT080 23/14 Q1023;
0143833440999992007070619004-14950-040883FM-15+0840SBQV V0201501N005712200019N0112651N1+02001+01401999999ADDGA1021+006001999GA2041+024001999GF104991999999999999999999MA1102301999999REMMET058METAR SBQV 061900Z 15011KT 9999 FEW020 SCT080 20/14 Q1023;
0143833440999992007070620004-14950-040883FM-15+0840SBQV V0201001N005110240019N0112651N1+02001+01501999999ADDGA1021+006001999GA2071+024001999GF107991999999999999999999MA1102301999999REMMET058METAR SBQV 062000Z 10010KT 9999 FEW020 BKN080 20/15 Q1023;
0143833440999992007070621004-14950-040883FM-15+0840SBQV V0201001N003610240019N0112651N1+01801+01501999999ADDGA1021+004801999GA2071+024001999GF107991999999999999999999MA1102301999999REMMET058METAR SBQV 062100Z 10007KT 9999 FEW016 BKN080 18/15 Q1023;
0120833440999992007070622004-14950-040883FM-15+0840SBQV V0201301N003112200019N0112651N1+01801+01501999999ADDGA1021+004801999GF102991999999999999999999MA1102401999999REMMET051METAR SBQV 062200Z 13006KT 9999 FEW016 18/15 Q1024;
0072833440999992007070711004-14950-040883FM-15+0840SBQV V0201001N00311220001CN0099001N1+01701+01301999999ADDMA1102401999999REMMET045METAR SBQV 071100Z 10006KT CAVOK 17/13 Q1024;
0143833440999992007070712004-14950-040883FM-15+0840SBQV V0201001N003110900019N0112651N1+01901+01401999999ADDGA1021+004501999GA2071+090001999GF107991999999999999999999MA1102401999999REMMET058METAR SBQV 071200Z 10006KT 9999 FEW015 BKN300 19/14 Q1024;
0143833440999992007070713004-14950-040883FM-15+0840SBQV V0201001N001010900019N0112651N1+02101+01401999999ADDGA1021+004501999GA2071+090001999GF107991999999999999999999MA1102401999999REMMET058METAR SBQV 071300Z 10002KT 9999 FEW015 BKN300 21/14 Q1024;
0143833440999992007070714004-14950-040883FM-15+0840SBQV V0201501N003112200019N0112651N1+02201+01401999999ADDGA1021+004801999GA2041+090001999GF104991999999999999999999MA1102401999999REMMET058METAR SBQV 071400Z 15006KT 9999 FEW016 SCT300 22/14 Q1024;
0143833440999992007070715004-14950-040883FM-15+0840SBQV V0201001N001010900019N0112651N1+02301+01301999999ADDGA1021+005401999GA2071+090001999GF107991999999999999999999MA1102301999999REMMET058METAR SBQV 071500Z 10002KT 9999 FEW018 BKN300 23/13 Q1023;
0143833440999992007070716004-14950-040883FM-15+0840SBQV V0201001N005110900019N0112651N1+02301+01401999999ADDGA1021+005401999GA2071+090001999GF107991999999999999999999MA1102201999999REMMET058METAR SBQV 071600Z 10010KT 9999 FEW018 BKN300 23/14 Q1022;
0143833440999992007070717004-14950-040883FM-15+0840SBQV V0201301N005110240019N0112651N1+02401+01401999999ADDGA1021+006001999GA2071+024001999GF107991999999999999999999MA1102101999999REMMET058METAR SBQV 071700Z 13010KT 9999 FEW020 BKN080 24/14 Q1021;
0143833440999992007070718004-14950-040883FM-15+0840SBQV V0201001N006710240019N0112651N1+02301+01401999999ADDGA1021+006001999GA2071+024001999GF107991999999999999999999MA1102101999999REMMET058METAR SBQV 071800Z 10013KT 9999 FEW020 BKN080 23/14 Q1021;
0143833440999992007070719004-14950-040883FM-15+0840SBQV V0201301N003610240019N0112651N1+02201+01401999999ADDGA1021+006001999GA2071+024001999GF107991999999999999999999MA1102101999999REMMET058METAR SBQV 071900Z 13007KT 9999 FEW020 BKN080 22/14 Q1021;
0072833440999992007070720004-14950-040883FM-15+0840SBQV V0201301N00511220001CN0099001N1+02101+01501999999ADDMA1102201999999REMMET045METAR SBQV 072000Z 13010KT CAVOK 21/15 Q1022;
0072833440999992007070721004-14950-040883FM-15+0840SBQV V0201101N00511220001CN0099001N1+02001+01501999999ADDMA1102201999999REMMET045METAR SBQV 072100Z 11010KT CAVOK 20/15 Q1022;
0143833440999992007070722004-14950-040883FM-15+0840SBQV V0201301N002612200019N0112651N1+01901+01501999999ADDGA1041+004501999GA2041+024001999GF104991999999999999999999MA1102201999999REMMET058METAR SBQV 072200Z 13005KT 9999 SCT015 SCT080 19/15 Q1022;
0120833440999992007070813004-14950-040883FM-15+0840SBQV V0201301N004610018019N0112651N1+01901+01801999999ADDGA1071+001801999GF107991999999999999999999MA1102401999999REMMET051METAR SBQV 081300Z 13009KT 9999 BKN006 19/18 Q1024;
0120833440999992007070814004-14950-040883FM-15+0840SBQV V0201401N005110021019N0112651N1+02001+01801999999ADDGA1081+002101999GF108991999999999999999999MA1102301999999REMMET051METAR SBQV 081400Z 14010KT 9999 OVC007 20/18 Q1023;
0153833440999992007070815004-14950-040883FM-15+0840SBQV V0201301N004110018019N0070001N1+02101+01801999999ADDGA1071+001801999GA2071+003001999GF107991999999999999999999MA1102201999999MW1511REMMET062METAR SBQV 081500Z 13008KT 7000 -DZ BKN006 BKN010 21/18 Q1022;
0143833440999992007070816004-14950-040883FM-15+0840SBQV V0201301N003110027019N0112651N1+02001+01901999999ADDGA1041+001801999GA2071+002701999GF107991999999999999999999MA1102101999999REMMET058METAR SBQV 081600Z 13006KT 9999 SCT006 BKN009 20/19 Q1021;
0160833440999992007070817004-14950-040883FM-15+0840SBQV V0201601N003610027019N0112651N1+02001+01901999999ADDGA1021+001501999GA2071+002701999GF107991999999999999999999MA1102101999999MW1611REMMET069METAR SBQV 081700Z 16007KT 9999 8000SE -RA FEW005 BKN009 20/19 Q1021;
0160833440999992007070819004-14950-040883FM-15+0840SBQV V0201401N003610018019N0112651N1+02001+01901999999ADDGA1071+001801999GA2071+021001999GF107991999999999999999999MA1102101999999MW1511REMMET069METAR SBQV 081900Z 14007KT 9999 5000SE -DZ BKN006 BKN070 20/19 Q1021;
0120833440999992007070820004-14950-040883FM-15+0840SBQV V0201001N003610021019N0112651N1+02001+01901999999ADDGA1071+002101999GF107991999999999999999999MA1102101999999REMMET051METAR SBQV 082000Z 10007KT 9999 BKN007 20/19 Q1021;
0120833440999992007070821004-14950-040883FM-15+0840SBQV V0201101N004610015019N0112651N1+01901+01801999999ADDGA1071+001501999GF107991999999999999999999MA1102101999999REMMET051METAR SBQV 082100Z 11009KT 9999 BKN005 19/18 Q1021;
0120833440999992007070822004-14950-040883FM-15+0840SBQV V0201101N004110012019N0112651N1+01901+01801999999ADDGA1071+001201999GF107991999999999999999999MA1102201999999REMMET051METAR SBQV 082200Z 11008KT 9999 BKN004 19/18 Q1022;
0143833440999992007070911004-14950-040883FM-15+0840SBQV V0201601N005710210019N0112651N1+01701+01501999999ADDGA1041+001501999GA2071+021001999GF107991999999999999999999MA1102401999999REMMET058METAR SBQV 091100Z 16011KT 9999 SCT005 BKN070 17/15 Q1024;
0166833440999992007070912004-14950-040883FM-15+0840SBQV V0201401N00571004501CN0112651N1+01801+01501999999ADDGA1021+001801999GA2041+004501999GA3071+021001999GF107991999999999999999999MA1102511999999REMMET065METAR SBQV 091200Z 14011KT 9999 FEW006 SCT015 BKN070 18/15 Q1025;
0143833440999992007070913004-14950-040883FM-15+0840SBQV V0201501N004110210019N0112651N1+02001+01501999999ADDGA1021+004501999GA2071+021001999GF107991999999999999999999MA1102511999999REMMET058METAR SBQV 091300Z 15008KT 9999 FEW015 BKN070 20/15 Q1025;
0143833440999992007070914004-14950-040883FM-15+0840SBQV V0201201N006210210019N0112651N1+02101+01501999999ADDGA1021+004801999GA2071+021001999GF107991999999999999999999MA1102401999999REMMET058METAR SBQV 091400Z 12012KT 9999 FEW016 BKN070 21/15 Q1024;
0143833440999992007070915004-14950-040883FM-15+0840SBQV V0201601N005112200019N0112651N1+02301+01501999999ADDGA1021+005401999GA2041+021001999GF104991999999999999999999MA1102301999999REMMET058METAR SBQV 091500Z 16010KT 9999 FEW018 SCT070 23/15 Q1023;
0120833440999992007070916004-14950-040883FM-15+0840SBQV V0201301N005110054019N0112651N1+02201+01501999999ADDGA1071+005401999GF107991999999999999999999MA1102201999999REMMET051METAR SBQV 091600Z 13010KT 9999 BKN018 22/15 Q1022;
0120833440999992007070917004-14950-040883FM-15+0840SBQV V0201501N005710054019N0112651N1+02201+01601999999ADDGA1071+005401999GF107991999999999999999999MA1102201999999REMMET051METAR SBQV 091700Z 15011KT 9999 BKN018 22/16 Q1022;
0120833440999992007070918004-14950-040883FM-15+0840SBQV V0201401N006712200019N0112651N1+02201+01601999999ADDGA1041+005401999GF104991999999999999999999MA1102201999999REMMET051METAR SBQV 091800Z 14013KT 9999 SCT018 22/16 Q1022;
0153833440999992007070919004-14950-040883FM-15+0840SBQV V0201401N00571220001CN0112651N1+02101+01601999999ADDGA1071+004501999GA2041+004801999MA1102201999999MW1611REMMET069METAR SBQV 091900Z 14011KT 9999 7000SW -RA BKN015 SCT016 21/16 Q1022;EQDQ01+000042SCOTCV
0143833440999992007070920004-14950-040883FM-15+0840SBQV V0201501N004610045019N0112651N1+02001+01601999999ADDGA1071+004501999GA2071+024001999GF107991999999999999999999MA1102201999999REMMET058METAR SBQV 092000Z 15009KT 9999 BKN015 BKN080 20/16 Q1022;
0153833440999992007070921004-14950-040883FM-15+0840SBQV V0201401N004610027019N0090001N1+01801+01701999999ADDGA1041+001501999GA2071+002701999GF107991999999999999999999MA1102201999999MW1511REMMET062METAR SBQV 092100Z 14009KT 9000 -DZ SCT005 BKN009 18/17 Q1022;
0120833440999992007070922004-14950-040883FM-15+0840SBQV V0201501N004610015019N0112651N1+01801+01601999999ADDGA1071+001501999GF107991999999999999999999MA1102201999999REMMET051METAR SBQV 092200Z 15009KT 9999 BKN005 18/16 Q1022;
0120833440999992007071011004-14950-040883FM-15+0840SBQV V0201201N003112200019N0112651N1+01601+01501999999ADDGA1041+001801999GF104991999999999999999999MA1102401999999REMMET051METAR SBQV 101100Z 12006KT 9999 SCT006 16/15 Q1024;
0120833440999992007071012004-14950-040883FM-15+0840SBQV V0201001N005712200019N0112651N1+01801+01501999999ADDGA1021+004501999GF102991999999999999999999MA1102401999999REMMET051METAR SBQV 101200Z 10011KT 9999 FEW015 18/15 Q1024;
0120833440999992007071013004-14950-040883FM-15+0840SBQV V0201101N005112200019N0112651N1+02001+01301999999ADDGA1041+004801999GF104991999999999999999999MA1102401999999REMMET051METAR SBQV 101300Z 11010KT 9999 SCT016 20/13 Q1024;
0120833440999992007071014004-14950-040883FM-15+0840SBQV V0201001N004112200019N0112651N1+02101+01101999999ADDGA1021+005401999GF102991999999999999999999MA1102301999999REMMET051METAR SBQV 101400Z 10008KT 9999 FEW018 21/11 Q1023;
0120833440999992007071015004-14950-040883FM-15+0840SBQV V0200901N005112200019N0112651N1+02201+01001999999ADDGA1041+006001999GF104991999999999999999999MA1102201999999REMMET051METAR SBQV 101500Z 09010KT 9999 SCT020 22/10 Q1022;
0120833440999992007071016004-14950-040883FM-15+0840SBQV V0201101N005112200019N0112651N1+02301+01401999999ADDGA1041+006001999GF104991999999999999999999MA1102201999999REMMET051METAR SBQV 101600Z 11010KT 9999 SCT020 23/14 Q1022;
0120833440999992007071017004-14950-040883FM-15+0840SBQV V0201001N003612200019N0112651N1+02301+01501999999ADDGA1021+006001999GF102991999999999999999999MA1102101999999REMMET051METAR SBQV 101700Z 10007KT 9999 FEW020 23/15 Q1021;
0120833440999992007071018004-14950-040883FM-15+0840SBQV V0201001N005112200019N0112651N1+02201+01301999999ADDGA1021+006001999GF102991999999999999999999MA1102001999999REMMET051METAR SBQV 101800Z 10010KT 9999 FEW020 22/13 Q1020;
0120833440999992007071019004-14950-040883FM-15+0840SBQV V0201301N003612200019N0112651N1+02201+01301999999ADDGA1021+006001999GF102991999999999999999999MA1102001999999REMMET051METAR SBQV 101900Z 13007KT 9999 FEW020 22/13 Q1020;
0120833440999992007071020004-14950-040883FM-15+0840SBQV V0201301N005112200019N0112651N1+02001+01501999999ADDGA1021+006001999GF102991999999999999999999MA1102101999999REMMET051METAR SBQV 102000Z 13010KT 9999 FEW020 20/15 Q1021;
0072833440999992007071021004-14950-040883FM-15+0840SBQV V0201301N00261220001CN0099001N1+01901+01401999999ADDMA1102101999999REMMET045METAR SBQV 102100Z 13005KT CAVOK 19/14 Q1021;
0072833440999992007071022004-14950-040883FM-15+0840SBQV V0201301N00101220001CN0099001N1+01701+01301999999ADDMA1102101999999REMMET045METAR SBQV 102200Z 13002KT CAVOK 17/13 Q1021;
0120833440999992007071111004-14950-040883FM-15+0840SBQV V0201101N003612200019N0112651N1+01801+01401999999ADDGA1021+004501999GF102991999999999999999999MA1102301999999REMMET051METAR SBQV 111100Z 11007KT 9999 FEW015 18/14 Q1023;
0120833440999992007071112004-14950-040883FM-15+0840SBQV V0200901N006712200019N0112651N1+02001+01501999999ADDGA1021+005401999GF102991999999999999999999MA1102301999999REMMET051METAR SBQV 111200Z 09013KT 9999 FEW018 20/15 Q1023;
0120833440999992007071113004-14950-040883FM-15+0840SBQV V0201201N004112200019N0112651N1+02201+01401999999ADDGA1021+006001999GF102991999999999999999999MA1102301999999REMMET051METAR SBQV 111300Z 12008KT 9999 FEW020 22/14 Q1023;
0120833440999992007071114004-14950-040883FM-15+0840SBQV V0200601N002612200019N0112651N1+02401+01401999999ADDGA1041+006001999GF104991999999999999999999MA1102301999999REMMET051METAR SBQV 111400Z 06005KT 9999 SCT020 24/14 Q1023;
0120833440999992007071115004-14950-040883FM-15+0840SBQV V0201001N005712200019N0112651N1+02401+01401999999ADDGA1041+007501999GF104991999999999999999999MA1102201999999REMMET051METAR SBQV 111500Z 10011KT 9999 SCT025 24/14 Q1022;
0120833440999992007071116004-14950-040883FM-15+0840SBQV V0201101N004612200019N0112651N1+02501+01401999999ADDGA1021+007501999GF102991999999999999999999MA1102101999999REMMET051METAR SBQV 111600Z 11009KT 9999 FEW025 25/14 Q1021;
0120833440999992007071117004-14950-040883FM-15+0840SBQV V0201301N006212200019N0112651N1+02501+01401999999ADDGA1021+007501999GF102991999999999999999999MA1102001999999REMMET051METAR SBQV 111700Z 13012KT 9999 FEW025 25/14 Q1020;
0120833440999992007071118004-14950-040883FM-15+0840SBQV V0201001N004112200019N0112651N1+02401+01501999999ADDGA1021+007501999GF102991999999999999999999MA1102001999999REMMET051METAR SBQV 111800Z 10008KT 9999 FEW025 24/15 Q1020;
0120833440999992007071119004-14950-040883FM-15+0840SBQV V0201001N007712200019N0112651N1+02301+01501999999ADDGA1021+007501999GF102991999999999999999999MA1102001999999REMMET051METAR SBQV 111900Z 10015KT 9999 FEW025 23/15 Q1020;
0120833440999992007071120004-14950-040883FM-15+0840SBQV V0201001N005712200019N0112651N1+02101+01401999999ADDGA1021+006001999GF102991999999999999999999MA1102001999999REMMET051METAR SBQV 112000Z 10011KT 9999 FEW020 21/14 Q1020;
0072833440999992007071121004-14950-040883FM-15+0840SBQV V0201001N00411220001CN0099001N1+01901+01501999999ADDMA1102001999999REMMET045METAR SBQV 112100Z 10008KT CAVOK 19/15 Q1020;
0072833440999992007071122004-14950-040883FM-15+0840SBQV V0201001N00411220001CN0099001N1+01801+01501999999ADDMA1102101999999REMMET045METAR SBQV 112200Z 10008KT CAVOK 18/15 Q1021;
0128833440999992007071211004-14950-040883FM-15+0840SBQV V0201001N002610003019N0009001N1+01501+01401999999ADDGA1091+000301999GF109991999999000251999999MA1102511999999MW1451REMMET053METAR SBQV 121100Z 10005KT 0900 FG VV001 15/14 Q1025;
0143833440999992007071212004-14950-040883FM-15+0840SBQV V0201301N002112200019N0112651N1+01801+01501999999ADDGA1021+006001999GA2041+090001999GF104991999999999999999999MA1102511999999REMMET058METAR SBQV 121200Z 13004KT 9999 FEW020 SCT300 18/15 Q1025;
0136833440999992007071213004-14950-040883FM-15+0840SBQV V0201001N00261220001CN0112651N1+02101+01501999999ADDGA1071+006001999GA2041+090001999MA1102511999999REMMET058METAR SBQV 121300Z 10005KT 9999 BKN020 SCT300 21/15 Q1025;EQDQ01+000042SCOTCV
0136833440999992007071214004-14950-040883FM-15+0840SBQV V0201001N00671220001CN0112651N1+02201+01401999999ADDGA1071+006001999GA2041+090001999MA1102401999999REMMET058METAR SBQV 121400Z 10013KT 9999 BKN020 SCT300 22/14 Q1024;EQDQ01+000042SCOTCV
0120833440999992007071215004-14950-040883FM-15+0840SBQV V0201001N003610060019N0112651N1+02101+01401999999ADDGA1071+006001999GF107991999999999999999999MA1102401999999REMMET051METAR SBQV 121500Z 10007KT 9999 BKN020 21/14 Q1024;
0143833440999992007071217004-14950-040883FM-15+0840SBQV V0200701N004110045019N0090001N1+01701+01601999999ADDGA1021+002401999GA2071+004501999GF107991999999999999999999MA1102301999999REMMET058METAR SBQV 121700Z 07008KT 9000 FEW008 BKN015 17/16 Q1023;
0166833440999992007071218004-14950-040883FM-15+0840SBQV V0200901N00411006001CN0112651N1+02001+01501999999ADDGA1021+004501999GA2041+006001999GA3071+090001999GF107991999999999999999999MA1102201999999REMMET065METAR SBQV 121800Z 09008KT 9999 FEW015 SCT020 BKN300 20/15 Q1022;
0143833440999992007071219004-14950-040883FM-15+0840SBQV V0201301N004110900019N0112651N1+02101+01501999999ADDGA1021+006001999GA2071+090001999GF107991999999999999999999MA1102201999999REMMET058METAR SBQV 121900Z 13008KT 9999 FEW020 BKN300 21/15 Q1022;
0166833440999992007071220004-14950-040883FM-15+0840SBQV V0201301N00511005401CN0112651N1+01901+01601999999ADDGA1021+003601999GA2041+005401999GA3071+090001999GF107991999999999999999999MA1102201999999REMMET065METAR SBQV 122000Z 13010KT 9999 FEW012 SCT018 BKN300 19/16 Q1022;
0130833440999992007071221004-14950-040883FM-15+0840SBQV V0201301N003110018019N0070001N1+01801+01701999999ADDGA1071+001801999GF107991999999999999999999MA1102301999999MW1511REMMET055METAR SBQV 122100Z 13006KT 7000 -DZ BKN006 18/17 Q1023;
0120833440999992007071222004-14950-040883FM-15+0840SBQV V0201301N003112200019N0112651N1+01701+01601999999ADDGA1021+001501999GF102991999999999999999999MA1102301999999REMMET051METAR SBQV 122200Z 13006KT 9999 FEW005 17/16 Q1023;
0130833440999992007071311004-14950-040883FM-15+0840SBQV V0201301N005710012019N0020001N1+01601+01501999999ADDGA1081+001201999GF108991999999999999999999MA1102401999999MW1511REMMET055METAR SBQV 131100Z 13011KT 2000 -DZ OVC004 16/15 Q1024;
0130833440999992007071312004-14950-040883FM-15+0840SBQV V0201301N005110012019N0020001N1+01601+01601999999ADDGA1081+001201999GF108991999999999999999999MA1102511999999MW1511REMMET055METAR SBQV 131200Z 13010KT 2000 -DZ OVC004 16/16 Q1025;
0136833440999992007071313004-14950-040883FM-15+0840SBQV V0201301N00511220001CN0112651N1+01601+01601999999ADDGA1071+001801999GA2041+021001999MA1102511999999REMMET058METAR SBQV 131300Z 13010KT 9999 BKN006 SCT070 16/16 Q1025;EQDQ01+000042SCOTCV
0143833440999992007071314004-14950-040883FM-15+0840SBQV V0201301N006210240019N0112651N1+01901+01601999999ADDGA1021+004501999GA2071+024001999GF107991999999999999999999MA1102511999999REMMET058METAR SBQV 131400Z 13012KT 9999 FEW015 BKN080 19/16 Q1025;
0143833440999992007071315004-14950-040883FM-15+0840SBQV V0201601N007210240019N0112651N1+02101+01201999999ADDGA1021+007501999GA2071+024001999GF107991999999999999999999MA1102401999999REMMET058METAR SBQV 131500Z 16014KT 9999 FEW025 BKN080 21/12 Q1024;
0143833440999992007071316004-14950-040883FM-15+0840SBQV V0201301N004110240019N0112651N1+02101+01501999999ADDGA1021+007501999GA2071+024001999GF107991999999999999999999MA1102301999999REMMET058METAR SBQV 131600Z 13008KT 9999 FEW025 BKN080 21/15 Q1023;
0143833440999992007071317004-14950-040883FM-15+0840SBQV V0201301N005110240019N0112651N1+02201+01501999999ADDGA1021+007501999GA2071+024001999GF107991999999999999999999MA1102201999999REMMET058METAR SBQV 131700Z 13010KT 9999 FEW025 BKN080 22/15 Q1022;
0143833440999992007071318004-14950-040883FM-15+0840SBQV V0201401N006710240019N0112651N1+02101+01601999999ADDGA1021+021001999GA2071+024001999GF107991999999999999999999MA1102201999999REMMET058METAR SBQV 131800Z 14013KT 9999 FEW075 BKN080 21/16 Q1022;
0143833440999992007071319004-14950-040883FM-15+0840SBQV V0201301N005110240019N0112651N1+02001+01501999999ADDGA1021+004801999GA2071+024001999GF107991999999999999999999MA1102201999999REMMET058METAR SBQV 131900Z 13010KT 9999 FEW016 BKN080 20/15 Q1022;
0143833440999992007071320004-14950-040883FM-15+0840SBQV V0201101N002610210019N0112651N1+01901+01501999999ADDGA1021+004501999GA2071+021001999GF107991999999999999999999MA1102201999999REMMET058METAR SBQV 132000Z 11005KT 9999 FEW015 BKN070 19/15 Q1022;
0120833440999992007071321004-14950-040883FM-15+0840SBQV V0201201N002612200019N0112651N1+01801+01501999999ADDGA1041+004501999GF104991999999999999999999MA1102201999999REMMET051METAR SBQV 132100Z 12005KT 9999 SCT015 18/15 Q1022;
0072833440999992007071322004-14950-040883FM-15+0840SBQV V0201201N00261220001CN0099001N1+01801+01501999999ADDMA1102201999999REMMET045METAR SBQV 132200Z 12005KT CAVOK 18/15 Q1022;
0120833440999992007071411004-14950-040883FM-15+0840SBQV V0201301N001512200019N0112651N1+01701+01401999999ADDGA1021+003901999GF102991999999999999999999MA1102301999999REMMET051METAR SBQV 141100Z 13003KT 9999 FEW013 17/14 Q1023;
0120833440999992007071412004-14950-040883FM-15+0840SBQV V0201301N002612200019N0112651N1+01801+01401999999ADDGA1021+004501999GF102991999999999999999999MA1102301999999REMMET051METAR SBQV 141200Z 13005KT 9999 FEW015 18/14 Q1023;
0120833440999992007071413004-14950-040883FM-15+0840SBQV V0201701N001512200019N0112651N1+02101+01501999999ADDGA1021+006001999GF102991999999999999999999MA1102401999999REMMET051METAR SBQV 141300Z 17003KT 9999 FEW020 21/15 Q1024;
0120833440999992007071414004-14950-040883FM-15+0840SBQV V0201601N005712200019N0112651N1+02201+01501999999ADDGA1021+007501999GF102991999999999999999999MA1102301999999REMMET051METAR SBQV 141400Z 16011KT 9999 FEW025 22/15 Q1023;
0120833440999992007071415004-14950-040883FM-15+0840SBQV V0201601N004612200019N0112651N1+02301+01601999999ADDGA1021+007501999GF102991999999999999999999MA1102201999999REMMET051METAR SBQV 141500Z 16009KT 9999 FEW025 23/16 Q1022;
0120833440999992007071416004-14950-040883FM-15+0840SBQV V0201501N006712200019N0112651N1+02401+01401999999ADDGA1021+007501999GF102991999999999999999999MA1102101999999REMMET051METAR SBQV 141600Z 15013KT 9999 FEW025 24/14 Q1021;
0120833440999992007071417004-14950-040883FM-15+0840SBQV V0201501N003112200019N0112651N1+02401+01201999999ADDGA1021+007501999GF102991999999999999999999MA1102001999999REMMET051METAR SBQV 141700Z 15006KT 9999 FEW025 24/12 Q1020;
0120833440999992007071418004-14950-040883FM-15+0840SBQV V0201501N006212200019N0112651N1+02401+01301999999ADDGA1021+007501999GF102991999999999999999999MA1102001999999REMMET051METAR SBQV 141800Z 15012KT 9999 FEW025 24/13 Q1020;
0120833440999992007071419004-14950-040883FM-15+0840SBQV V0201301N006212200019N0112651N1+02301+01401999999ADDGA1021+007501999GF102991999999999999999999MA1102001999999REMMET051METAR SBQV 141900Z 13012KT 9999 FEW025 23/14 Q1020;
0120833440999992007071420004-14950-040883FM-15+0840SBQV V0201401N004112200019N0112651N1+02101+01301999999ADDGA1021+006001999GF102991999999999999999999MA1102001999999REMMET051METAR SBQV 142000Z 14008KT 9999 FEW020 21/13 Q1020;
0120833440999992007071421004-14950-040883FM-15+0840SBQV V0201001N002112200019N0112651N1+01901+01301999999ADDGA1021+005401999GF102991999999999999999999MA1102001999999REMMET051METAR SBQV 142100Z 10004KT 9999 FEW018 19/13 Q1020;
0072833440999992007071422004-14950-040883FM-15+0840SBQV V0200901N00211220001CN0099001N1+01701+01401999999ADDMA1102101999999REMMET045METAR SBQV 142200Z 09004KT CAVOK 17/14 Q1021;
0120833440999992007071511004-14950-040883FM-15+0840SBQV V0200701N001012200019N0112651N1+01801+01501999999ADDGA1021+003301999GF102991999999999999999999MA1102201999999REMMET051METAR SBQV 151100Z 07002KT 9999 FEW011 18/15 Q1022;
0120833440999992007071512004-14950-040883FM-15+0840SBQV V0209999C000012200019N0112651N1+02001+01601999999ADDGA1041+004801999GF104991999999999999999999MA1102201999999REMMET051METAR SBQV 151200Z 00000KT 9999 SCT016 20/16 Q1022;
0120833440999992007071513004-14950-040883FM-15+0840SBQV V0200701N002110054019N0112651N1+02201+01501999999ADDGA1071+005401999GF107991999999999999999999MA1102201999999REMMET051METAR SBQV 151300Z 07004KT 9999 BKN018 22/15 Q1022;
0120833440999992007071514004-14950-040883FM-15+0840SBQV V0201001N004110060019N0112651N1+02301+01401999999ADDGA1071+006001999GF107991999999999999999999MA1102201999999REMMET051METAR SBQV 151400Z 10008KT 9999 BKN020 23/14 Q1022;
0120833440999992007071515004-14950-040883FM-15+0840SBQV V0201301N003112200019N0112651N1+02301+01501999999ADDGA1041+006001999GF104991999999999999999999MA1102101999999REMMET051METAR SBQV 151500Z 13006KT 9999 SCT020 23/15 Q1021;
0143833440999992007071516004-14950-040883FM-15+0840SBQV V0201601N003112200019N0112651N1+02401+01401999999ADDGA1041+007501999GA2041+024001999GF104991999999999999999999MA1102001999999REMMET058METAR SBQV 151600Z 16006KT 9999 SCT025 SCT080 24/14 Q1020;
0143833440999992007071517004-14950-040883FM-15+0840SBQV V0201601N003610240019N0112651N1+02301+01501999999ADDGA1021+006001999GA2071+024001999GF107991999999999999999999MA1101901999999REMMET058METAR SBQV 151700Z 16007KT 9999 FEW020 BKN080 23/15 Q1019;
0143833440999992007071518004-14950-040883FM-15+0840SBQV V0201301N005710240019N0112651N1+02401+01501999999ADDGA1021+006001999GA2071+024001999GF107991999999999999999999MA1101901999999REMMET058METAR SBQV 151800Z 13011KT 9999 FEW020 BKN080 24/15 Q1019;
0143833440999992007071519004-14950-040883FM-15+0840SBQV V0201301N005710240019N0112651N1+02301+01601999999ADDGA1021+006001999GA2071+024001999GF107991999999999999999999MA1101901999999REMMET058METAR SBQV 151900Z 13011KT 9999 FEW020 BKN080 23/16 Q1019;
0072833440999992007071520004-14950-040883FM-15+0840SBQV V0201301N00411220001CN0099001N1+02201+01401999999ADDMA1101901999999REMMET045METAR SBQV 152000Z 13008KT CAVOK 22/14 Q1019;
0072833440999992007071521004-14950-040883FM-15+0840SBQV V0201101N00411220001CN0099001N1+02101+01601999999ADDMA1101901999999REMMET045METAR SBQV 152100Z 11008KT CAVOK 21/16 Q1019;
0072833440999992007071522004-14950-040883FM-15+0840SBQV V0201001N00361220001CN0099001N1+02001+01601999999ADDMA1101901999999REMMET045METAR SBQV 152200Z 10007KT CAVOK 20/16 Q1019;
0120833440999992007071611004-14950-040883FM-15+0840SBQV V0200901N002612200019N0112651N1+01901+01501999999ADDGA1021+003301999GF102991999999999999999999MA1102101999999REMMET051METAR SBQV 161100Z 09005KT 9999 FEW011 19/15 Q1021;
0120833440999992007071612004-14950-040883FM-15+0840SBQV V0201001N001512200019N0112651N1+02101+01601999999ADDGA1021+004501999GF102991999999999999999999MA1102101999999REMMET051METAR SBQV 161200Z 10003KT 9999 FEW015 21/16 Q1021;
0120833440999992007071613004-14950-040883FM-15+0840SBQV V0201001N002612200019N0112651N1+02301+01501999999ADDGA1021+005401999GF102991999999999999999999MA1102101999999REMMET051METAR SBQV 161300Z 10005KT 9999 FEW018 23/15 Q1021;
0120833440999992007071614004-14950-040883FM-15+0840SBQV V0200701N002110060019N0112651N1+02501+01301999999ADDGA1071+006001999GF107991999999999999999999MA1102101999999REMMET051METAR SBQV 161400Z 07004KT 9999 BKN020 25/13 Q1021;
0143833440999992007071711004-14950-040883FM-15+0840SBQV V0201001N003612200019N0112651N1+01701+01701999999ADDGA1041+001801999GA2041+004501999GF104991999999999999999999MA1102201999999REMMET058METAR SBQV 171100Z 10007KT 9999 SCT006 SCT015 17/17 Q1022;
0143833440999992007071712004-14950-040883FM-15+0840SBQV V0200401N001510045019N0112651N1+01801+01501999999ADDGA1021+002701999GA2071+004501999GF107991999999999999999999MA1102301999999REMMET058METAR SBQV 171200Z 04003KT 9999 FEW009 BKN015 18/15 Q1023;
0120833440999992007071713004-14950-040883FM-15+0840SBQV V0201001N003110060019N0112651N1+02101+01601999999ADDGA1071+006001999GF107991999999999999999999MA1102201999999REMMET051METAR SBQV 171300Z 10006KT 9999 BKN020 21/16 Q1022;
0120833440999992007071714004-14950-040883FM-15+0840SBQV V0200401N001012200019N0112651N1+02301+01401999999ADDGA1041+007501999GF104991999999999999999999MA1102201999999REMMET051METAR SBQV 171400Z 04002KT 9999 SCT025 23/14 Q1022;
0120833440999992007071715004-14950-040883FM-15+0840SBQV V0201001N002612200019N0112651N1+02401+01501999999ADDGA1041+007501999GF104991999999999999999999MA1102101999999REMMET051METAR SBQV 171500Z 10005KT 9999 SCT025 24/15 Q1021;
0120833440999992007071716004-14950-040883FM-15+0840SBQV V0201001N001512200019N0112651N1+02501+01401999999ADDGA1041+009001999GF104991999999999999999999MA1102001999999REMMET051METAR SBQV 171600Z 10003KT 9999 SCT030 25/14 Q1020;
0120833440999992007071717004-14950-040883FM-15+0840SBQV V0201601N003110090019N0112651N1+02501+01401999999ADDGA1071+009001999GF107991999999999999999999MA1101901999999REMMET051METAR SBQV 171700Z 16006KT 9999 BKN030 25/14 Q1019;
0120833440999992007071718004-14950-040883FM-15+0840SBQV V0201301N005112200019N0112651N1+02501+01501999999ADDGA1021+009001999GF102991999999999999999999MA1101901999999REMMET051METAR SBQV 171800Z 13010KT 9999 FEW030 25/15 Q1019;
0120833440999992007071719004-14950-040883FM-15+0840SBQV V0201101N005112200019N0112651N1+02401+01501999999ADDGA1021+009001999GF102991999999999999999999MA1101901999999REMMET051METAR SBQV 171900Z 11010KT 9999 FEW030 24/15 Q1019;
0120833440999992007071720004-14950-040883FM-15+0840SBQV V0201301N004112200019N0112651N1+02301+01501999999ADDGA1021+007501999GF102991999999999999999999MA1101901999999REMMET051METAR SBQV 172000Z 13008KT 9999 FEW025 23/15 Q1019;
0120833440999992007071721004-14950-040883FM-15+0840SBQV V0201201N004112200019N0112651N1+02101+01601999999ADDGA1021+006001999GF102991999999999999999999MA1101901999999REMMET051METAR SBQV 172100Z 12008KT 9999 FEW020 21/16 Q1019;
0072833440999992007071722004-14950-040883FM-15+0840SBQV V0201001N00411220001CN0099001N1+01901+01701999999ADDMA1101901999999REMMET045METAR SBQV 172200Z 10008KT CAVOK 19/17 Q1019;
0143833440999992007071811004-14950-040883FM-15+0840SBQV V0200701N002610045019N0112651N1+01801+01601999999ADDGA1021+002101999GA2071+004501999GF107991999999999999999999MA1102101999999REMMET058METAR SBQV 181100Z 07005KT 9999 FEW007 BKN015 18/16 Q1021;
0120833440999992007071812004-14950-040883FM-15+0840SBQV V0200701N001510048019N0112651N1+01901+01601999999ADDGA1071+004801999GF107991999999999999999999MA1102101999999REMMET051METAR SBQV 181200Z 07003KT 9999 BKN016 19/16 Q1021;
0120833440999992007071813004-14950-040883FM-15+0840SBQV V0200601N000510060019N0112651N1+02001+01601999999ADDGA1071+006001999GF107991999999999999999999MA1102201999999REMMET051METAR SBQV 181300Z 06001KT 9999 BKN020 20/16 Q1022;
0120833440999992007071814004-14950-040883FM-15+0840SBQV V0200401N003112200019N0112651N1+02301+01601999999ADDGA1021+007501999GF102991999999999999999999MA1102101999999REMMET051METAR SBQV 181400Z 04006KT 9999 FEW025 23/16 Q1021;
0120833440999992007071815004-14950-040883FM-15+0840SBQV V0200701N002612200019N0112651N1+02401+01601999999ADDGA1021+007501999GF102991999999999999999999MA1102001999999REMMET051METAR SBQV 181500Z 07005KT 9999 FEW025 24/16 Q1020;
0120833440999992007071816004-14950-040883FM-15+0840SBQV V0203101N003112200019N0112651N1+02601+01401999999ADDGA1021+009001999GF102991999999999999999999MA1101901999999REMMET051METAR SBQV 181600Z 31006KT 9999 FEW030 26/14 Q1019;
0120833440999992007071817004-14950-040883FM-15+0840SBQV V0200201N001512200019N0112651N1+02701+01501999999ADDGA1021+009001999GF102991999999999999999999MA1101801999999REMMET051METAR SBQV 181700Z 02003KT 9999 FEW030 27/15 Q1018;
0120833440999992007071819004-14950-040883FM-15+0840SBQV V0203201N002612200019N0112651N1+02701+01401999999ADDGA1021+009001999GF102991999999999999999999MA1101691999999REMMET051METAR SBQV 181900Z 32005KT 9999 FEW030 27/14 Q1017;
0120833440999992007071822004-14950-040883FM-15+0840SBQV V0201101N003612200019N0112651N1+02201+01701999999ADDGA1021+005401999GF102991999999999999999999MA1101901999999REMMET051METAR SBQV 182200Z 11007KT 9999 FEW018 22/17 Q1019;
0120833440999992007071911004-14950-040883FM-15+0840SBQV V0200301N005712200019N0112651N1+02001+01701999999ADDGA1021+003001999GF102991999999999999999999MA1101801999999REMMET051METAR SBQV 191100Z 03011KT 9999 FEW010 20/17 Q1018;
0120833440999992007071912004-14950-040883FM-15+0840SBQV V0200101N007212200019N0112651N1+02101+01701999999ADDGA1021+003301999GF102991999999999999999999MA1101901999999REMMET051METAR SBQV 191200Z 01014KT 9999 FEW011 21/17 Q1019;
0072833440999992007071913004-14950-040883FM-15+0840SBQV V0200401N00411220001CN0099001N1+02201+01701999999ADDMA1101901999999REMMET045METAR SBQV 191300Z 04008KT CAVOK 22/17 Q1019;
0072833440999992007071914004-14950-040883FM-15+0840SBQV V0200301N00261220001CN0099001N1+02501+01601999999ADDMA1101901999999REMMET045METAR SBQV 191400Z 03005KT CAVOK 25/16 Q1019;
0072833440999992007071915004-14950-040883FM-15+0840SBQV V0200401N00261220001CN0099001N1+02701+01501999999ADDMA1101801999999REMMET045METAR SBQV 191500Z 04005KT CAVOK 27/15 Q1018;
0120833440999992007071916004-14950-040883FM-15+0840SBQV V0200601N002612200019N0112651N1+02801+01501999999ADDGA1021+009001999GF102991999999999999999999MA1101691999999REMMET051METAR SBQV 191600Z 06005KT 9999 FEW030 28/15 Q1017;
0120833440999992007071917004-14950-040883FM-15+0840SBQV V0203101N002112200019N0112651N1+02801+01501999999ADDGA1021+009001999GF102991999999999999999999MA1101591999999REMMET051METAR SBQV 191700Z 31004KT 9999 FEW030 28/15 Q1016;
0120833440999992007071919004-14950-040883FM-15+0840SBQV V0201601N004612200019N0112651N1+02701+01801999999ADDGA1021+007501999GF102991999999999999999999MA1101591999999REMMET051METAR SBQV 191900Z 16009KT 9999 FEW025 27/18 Q1016;
0120833440999992007071920004-14950-040883FM-15+0840SBQV V0201501N005112200019N0112651N1+02601+01801999999ADDGA1021+007501999GF102991999999999999999999MA1101691999999REMMET051METAR SBQV 192000Z 15010KT 9999 FEW025 26/18 Q1017;
0120833440999992007071921004-14950-040883FM-15+0840SBQV V0201301N004112200019N0112651N1+02301+01801999999ADDGA1021+006001999GF102991999999999999999999MA1101691999999REMMET051METAR SBQV 192100Z 13008KT 9999 FEW020 23/18 Q1017;
0120833440999992007071922004-14950-040883FM-15+0840SBQV V0201001N002112200019N0112651N1+02201+01701999999ADDGA1021+005401999GF102991999999999999999999MA1101801999999REMMET051METAR SBQV 192200Z 10004KT 9999 FEW018 22/17 Q1018;
0143833440999992007072011004-14950-040883FM-15+0840SBQV V0200901N005110210019N0112651N1+02001+01701999999ADDGA1021+003901999GA2071+021001999GF107991999999999999999999MA1102201999999REMMET058METAR SBQV 201100Z 09010KT 9999 FEW013 BKN070 20/17 Q1022;
0143833440999992007072012004-14950-040883FM-15+0840SBQV V0201001N003110030019N0112651N1+02001+01601999999ADDGA1071+003001999GA2081+021001999GF108991999999999999999999MA1102201999999REMMET058METAR SBQV 201200Z 10006KT 9999 BKN010 OVC070 20/16 Q1022;
0143833440999992007072013004-14950-040883FM-15+0840SBQV V0201001N003110240019N0112651N1+02101+01601999999ADDGA1041+004501999GA2071+024001999GF107991999999999999999999MA1102301999999REMMET058METAR SBQV 201300Z 10006KT 9999 SCT015 BKN080 21/16 Q1023;
0143833440999992007072014004-14950-040883FM-15+0840SBQV V0200701N004110054019N0112651N1+02301+01501999999ADDGA1071+005401999GA2071+024001999GF107991999999999999999999MA1102301999999REMMET058METAR SBQV 201400Z 07008KT 9999 BKN018 BKN080 23/15 Q1023;
0120833440999992007072015004-14950-040883FM-15+0840SBQV V0200701N004110060019N0112651N1+02301+01401999999ADDGA1071+006001999GF107991999999999999999999MA1102201999999REMMET051METAR SBQV 201500Z 07008KT 9999 BKN020 23/14 Q1022;
0143833440999992007072016004-14950-040883FM-15+0840SBQV V0201101N003610240019N0112651N1+02401+01501999999ADDGA1041+006001999GA2071+024001999GF107991999999999999999999MA1102201999999REMMET058METAR SBQV 201600Z 11007KT 9999 SCT020 BKN080 24/15 Q1022;
0143833440999992007072017004-14950-040883FM-15+0840SBQV V0201001N004110240019N0112651N1+02401+01601999999ADDGA1041+006001999GA2071+024001999GF107991999999999999999999MA1102101999999REMMET058METAR SBQV 201700Z 10008KT 9999 SCT020 BKN080 24/16 Q1021;
0143833440999992007072018004-14950-040883FM-15+0840SBQV V0201001N005110240019N0112651N1+02401+01501999999ADDGA1041+006001999GA2071+024001999GF107991999999999999999999MA1102101999999REMMET058METAR SBQV 201800Z 10010KT 9999 SCT020 BKN080 24/15 Q1021;
0143833440999992007072019004-14950-040883FM-15+0840SBQV V0201001N003610240019N0112651N1+02301+01601999999ADDGA1021+006001999GA2071+024001999GF107991999999999999999999MA1102101999999REMMET058METAR SBQV 201900Z 10007KT 9999 FEW020 BKN080 23/16 Q1021;
0143833440999992007072020004-14950-040883FM-15+0840SBQV V0201101N004612200019N0112651N1+02201+01601999999ADDGA1021+004801999GA2041+024001999GF104991999999999999999999MA1102101999999REMMET058METAR SBQV 202000Z 11009KT 9999 FEW016 SCT080 22/16 Q1021;
0143833440999992007072021004-14950-040883FM-15+0840SBQV V0201301N004610240019N0112651N1+02001+01801999999ADDGA1021+002401999GA2071+024001999GF107991999999999999999999MA1102201999999REMMET058METAR SBQV 202100Z 13009KT 9999 FEW008 BKN080 20/18 Q1022;
0143833440999992007072022004-14950-040883FM-15+0840SBQV V0201301N003612200019N0112651N1+01901+01801999999ADDGA1041+001801999GA2041+024001999GF104991999999999999999999MA1102201999999REMMET058METAR SBQV 202200Z 13007KT 9999 SCT006 SCT080 19/18 Q1022;
0143833440999992007072023004-14950-040883FM-15+0840SBQV V0201301N003612200019N0112651N1+01801+01701999999ADDGA1041+001801999GA2041+024001999GF104991999999999999999999MA1102201999999REMMET058METAR SBQV 202300Z 13007KT 9999 SCT006 SCT080 18/17 Q1022;
0136833440999992007072111004-14950-040883FM-15+0840SBQV V0200801N00511220001CN0112651N1+01901+01601999999ADDGA1071+002701999GA2041+021001999MA1102301999999REMMET058METAR SBQV 211100Z 08010KT 9999 BKN009 SCT070 19/16 Q1023;EQDQ01+000042SCOTCV
0136833440999992007072112004-14950-040883FM-15+0840SBQV V0201001N00411220001CN0112651N1+02001+01601999999ADDGA1071+003901999GA2041+004501999MA1102401999999REMMET058METAR SBQV 211200Z 10008KT 9999 BKN013 SCT015 20/16 Q1024;EQDQ01+000042SCOTCV
0120833440999992007072113004-14950-040883FM-15+0840SBQV V0201101N003610045019N0112651N1+02101+01601999999ADDGA1071+004501999GF107991999999999999999999MA1102401999999REMMET051METAR SBQV 211300Z 11007KT 9999 BKN015 21/16 Q1024;
0120833440999992007072114004-14950-040883FM-15+0840SBQV V0201001N004110060019N0112651N1+02401+01501999999ADDGA1071+006001999GF107991999999999999999999MA1102301999999REMMET051METAR SBQV 211400Z 10008KT 9999 BKN020 24/15 Q1023;
0120833440999992007072116004-14950-040883FM-15+0840SBQV V0201301N003612200019N0112651N1+02501+01501999999ADDGA1041+006001999GF104991999999999999999999MA1102201999999REMMET051METAR SBQV 211600Z 13007KT 9999 SCT020 25/15 Q1022;
0120833440999992007072117004-14950-040883FM-15+0840SBQV V0201001N005112200019N0112651N1+02501+01401999999ADDGA1021+006001999GF102991999999999999999999MA1102101999999REMMET051METAR SBQV 211700Z 10010KT 9999 FEW020 25/14 Q1021;
0120833440999992007072118004-14950-040883FM-15+0840SBQV V0201001N005712200019N0112651N1+02501+01401999999ADDGA1021+006001999GF102991999999999999999999MA1102101999999REMMET051METAR SBQV 211800Z 10011KT 9999 FEW020 25/14 Q1021;
0120833440999992007072119004-14950-040883FM-15+0840SBQV V0201301N004612200019N0112651N1+02401+01501999999ADDGA1021+006001999GF102991999999999999999999MA1102101999999REMMET051METAR SBQV 211900Z 13009KT 9999 FEW020 24/15 Q1021;
0120833440999992007072120004-14950-040883FM-15+0840SBQV V0201001N005112200019N0112651N1+02301+01501999999ADDGA1021+004801999GF102991999999999999999999MA1102101999999REMMET051METAR SBQV 212000Z 10010KT 9999 FEW016 23/15 Q1021;
0120833440999992007072121004-14950-040883FM-15+0840SBQV V0201001N002612200019N0112651N1+02101+01401999999ADDGA1021+004801999GF102991999999999999999999MA1102101999999REMMET051METAR SBQV 212100Z 10005KT 9999 FEW016 21/14 Q1021;
0120833440999992007072122004-14950-040883FM-15+0840SBQV V0201001N002112200019N0112651N1+01901+01501999999ADDGA1021+004501999GF102991999999999999999999MA1102101999999REMMET051METAR SBQV 212200Z 10004KT 9999 FEW015 19/15 Q1021;
0120833440999992007072211004-14950-040883FM-15+0840SBQV V0201001N003112200019N0112651N1+01801+01601999999ADDGA1021+004501999GF102991999999999999999999MA1102201999999REMMET051METAR SBQV 221100Z 10006KT 9999 FEW015 18/16 Q1022;
0120833440999992007072212004-14950-040883FM-15+0840SBQV V0201001N004612200019N0112651N1+02001+01501999999ADDGA1021+006001999GF102991999999999999999999MA1102201999999REMMET051METAR SBQV 221200Z 10009KT 9999 FEW020 20/15 Q1022;
0120833440999992007072213004-14950-040883FM-15+0840SBQV V0201001N006210060019N0112651N1+02101+01401999999ADDGA1071+006001999GF107991999999999999999999MA1102301999999REMMET051METAR SBQV 221300Z 10012KT 9999 BKN020 21/14 Q1023;
0120833440999992007072214004-14950-040883FM-15+0840SBQV V0201001N001010075019N0112651N1+02401+01401999999ADDGA1071+007501999GF107991999999999999999999MA1102201999999REMMET051METAR SBQV 221400Z 10002KT 9999 BKN025 24/14 Q1022;
0120833440999992007072215004-14950-040883FM-15+0840SBQV V0201001N002112200019N0112651N1+02301+01601999999ADDGA1041+007501999GF104991999999999999999999MA1102201999999REMMET051METAR SBQV 221500Z 10004KT 9999 SCT025 23/16 Q1022;
0120833440999992007072216004-14950-040883FM-15+0840SBQV V0201001N001512200019N0112651N1+02401+01501999999ADDGA1041+007501999GF104991999999999999999999MA1102101999999REMMET051METAR SBQV 221600Z 10003KT 9999 SCT025 24/15 Q1021;
0120833440999992007072217004-14950-040883FM-15+0840SBQV V0200901N003112200019N0112651N1+02401+01201999999ADDGA1041+007501999GF104991999999999999999999MA1101901999999REMMET051METAR SBQV 221700Z 09006KT 9999 SCT025 24/12 Q1019;
0120833440999992007072218004-14950-040883FM-15+0840SBQV V0209999C000012200019N0112651N1+02401+01301999999ADDGA1041+007501999GF104991999999999999999999MA1101901999999REMMET051METAR SBQV 221800Z 00000KT 9999 SCT025 24/13 Q1019;
0120833440999992007072219004-14950-040883FM-15+0840SBQV V0201301N002112200019N0112651N1+02301+01301999999ADDGA1021+007501999GF102991999999999999999999MA1101901999999REMMET051METAR SBQV 221900Z 13004KT 9999 FEW025 23/13 Q1019;
0120833440999992007072220004-14950-040883FM-15+0840SBQV V0201301N004112200019N0112651N1+02201+01301999999ADDGA1021+006001999GF102991999999999999999999MA1101901999999REMMET051METAR SBQV 222000Z 13008KT 9999 FEW020 22/13 Q1019;
0120833440999992007072221004-14950-040883FM-15+0840SBQV V0201301N001012200019N0112651N1+02001+01401999999ADDGA1021+004801999GF102991999999999999999999MA1101901999999REMMET051METAR SBQV 222100Z 13002KT 9999 FEW016 20/14 Q1019;
0072833440999992007072222004-14950-040883FM-15+0840SBQV V0209999C00001220001CN0099001N1+01801+01401999999ADDMA1101901999999REMMET045METAR SBQV 222200Z 00000KT CAVOK 18/14 Q1019;
0072833440999992007072223004-14950-040883FM-15+0840SBQV V0201001N00101220001CN0099001N1+01901+01501999999ADDMA1102001999999REMMET045METAR SBQV 222300Z 10002KT CAVOK 19/15 Q1020;
0072833440999992007072300004-14950-040883FM-15+0840SBQV V0209999C00001220001CN0099001N1+01801+01501999999ADDMA1102001999999REMMET045METAR SBQV 230000Z 00000KT CAVOK 18/15 Q1020;
0072833440999992007072301004-14950-040883FM-15+0840SBQV V0201001N00211220001CN0099001N1+01701+01501999999ADDMA1102101999999REMMET045METAR SBQV 230100Z 10004KT CAVOK 17/15 Q1021;
0072833440999992007072302004-14950-040883FM-15+0840SBQV V0201001N00211220001CN0099001N1+01701+01501999999ADDMA1102101999999REMMET045METAR SBQV 230200Z 10004KT CAVOK 17/15 Q1021;
0120833440999992007072311004-14950-040883FM-15+0840SBQV V0209999C000012200019N0060001N1+01701+01501999999ADDGA1041+001501999GF104991999999999999999999MA1102101999999REMMET051METAR SBQV 231100Z 00000KT 6000 SCT005 17/15 Q1021;
0120833440999992007072312004-14950-040883FM-15+0840SBQV V0209999C000012200019N0112651N1+01801+01401999999ADDGA1021+006001999GF102991999999999999999999MA1102201999999REMMET051METAR SBQV 231200Z 00000KT 9999 FEW020 18/14 Q1022;
0120833440999992007072313004-14950-040883FM-15+0840SBQV V0201001N001012200019N0112651N1+02201+01401999999ADDGA1021+007501999GF102991999999999999999999MA1102201999999REMMET051METAR SBQV 231300Z 10002KT 9999 FEW025 22/14 Q1022;
0120833440999992007072314004-14950-040883FM-15+0840SBQV V0201301N000512200019N0112651N1+02401+01401999999ADDGA1021+007501999GF102991999999999999999999MA1102101999999REMMET051METAR SBQV 231400Z 13001KT 9999 FEW025 24/14 Q1021;
0120833440999992007072315004-14950-040883FM-15+0840SBQV V0201001N000512200019N0112651N1+02401+01401999999ADDGA1021+007501999GF102991999999999999999999MA1102001999999REMMET051METAR SBQV 231500Z 10001KT 9999 FEW025 24/14 Q1020;
0120833440999992007072316004-14950-040883FM-15+0840SBQV V0209999C000012200019N0112651N1+02501+01001999999ADDGA1021+009001999GF102991999999999999999999MA1101901999999REMMET051METAR SBQV 231600Z 00000KT 9999 FEW030 25/10 Q1019;
0120833440999992007072317004-14950-040883FM-15+0840SBQV V0209999C000012200019N0112651N1+02601+01201999999ADDGA1021+009001999GF102991999999999999999999MA1101801999999REMMET051METAR SBQV 231700Z 00000KT 9999 FEW030 26/12 Q1018;
0120833440999992007072318004-14950-040883FM-15+0840SBQV V0201101N004612200019N0112651N1+02601+01301999999ADDGA1021+009001999GF102991999999999999999999MA1101691999999REMMET051METAR SBQV 231800Z 11009KT 9999 FEW030 26/13 Q1017;
0120833440999992007072319004-14950-040883FM-15+0840SBQV V0201301N004612200019N0112651N1+02501+01601999999ADDGA1021+009001999GF102991999999999999999999MA1101691999999REMMET051METAR SBQV 231900Z 13009KT 9999 FEW030 25/16 Q1017;
0072833440999992007072320004-14950-040883FM-15+0840SBQV V0201201N00511220001CN0099001N1+02301+01501999999ADDMA1101801999999REMMET045METAR SBQV 232000Z 12010KT CAVOK 23/15 Q1018;
0072833440999992007072321004-14950-040883FM-15+0840SBQV V0201201N00461220001CN0099001N1+02101+01401999999ADDMA1101801999999REMMET045METAR SBQV 232100Z 12009KT CAVOK 21/14 Q1018;
0072833440999992007072322004-14950-040883FM-15+0840SBQV V0201201N00151220001CN0099001N1+02001+01401999999ADDMA1101901999999REMMET045METAR SBQV 232200Z 12003KT CAVOK 20/14 Q1019;
0072833440999992007072411004-14950-040883FM-15+0840SBQV V0200601N00411220001CN0099001N1+02101+00901999999ADDMA1102101999999REMMET045METAR SBQV 241100Z 06008KT CAVOK 21/09 Q1021;
0072833440999992007072412004-14950-040883FM-15+0840SBQV V0200401N00571220001CN0099001N1+02201+01101999999ADDMA1102101999999REMMET045METAR SBQV 241200Z 04011KT CAVOK 22/11 Q1021;
0072833440999992007072413004-14950-040883FM-15+0840SBQV V0200101N00151220001CN0099001N1+02401+01101999999ADDMA1102201999999REMMET045METAR SBQV 241300Z 01003KT CAVOK 24/11 Q1022;
0072833440999992007072414004-14950-040883FM-15+0840SBQV V0200401N00261220001CN0099001N1+02501+01001999999ADDMA1102101999999REMMET045METAR SBQV 241400Z 04005KT CAVOK 25/10 Q1021;
0072833440999992007072415004-14950-040883FM-15+0840SBQV V0201601N00411220001CN0099001N1+02601+01201999999ADDMA1102101999999REMMET045METAR SBQV 241500Z 16008KT CAVOK 26/12 Q1021;
0072833440999992007072416004-14950-040883FM-15+0840SBQV V0200601N00051220001CN0099001N1+02701+01101999999ADDMA1101901999999REMMET045METAR SBQV 241600Z 06001KT CAVOK 27/11 Q1019;
0072833440999992007072417004-14950-040883FM-15+0840SBQV V0201601N00101220001CN0099001N1+02701+00801999999ADDMA1101901999999REMMET045METAR SBQV 241700Z 16002KT CAVOK 27/08 Q1019;
0072833440999992007072418004-14950-040883FM-15+0840SBQV V0201501N00511220001CN0099001N1+02601+01101999999ADDMA1101801999999REMMET045METAR SBQV 241800Z 15010KT CAVOK 26/11 Q1018;
0072833440999992007072419004-14950-040883FM-15+0840SBQV V0201001N00511220001CN0099001N1+02601+01001999999ADDMA1101801999999REMMET045METAR SBQV 241900Z 10010KT CAVOK 26/10 Q1018;
0072833440999992007072420004-14950-040883FM-15+0840SBQV V0201001N00511220001CN0099001N1+02301+01001999999ADDMA1101901999999REMMET045METAR SBQV 242000Z 10010KT CAVOK 23/10 Q1019;
0072833440999992007072421004-14950-040883FM-15+0840SBQV V0201001N00311220001CN0099001N1+02001+01101999999ADDMA1102001999999REMMET045METAR SBQV 242100Z 10006KT CAVOK 20/11 Q1020;
0072833440999992007072422004-14950-040883FM-15+0840SBQV V0200901N00511220001CN0099001N1+01901+01401999999ADDMA1102001999999REMMET045METAR SBQV 242200Z 09010KT CAVOK 19/14 Q1020;
0153833440999992007072511004-14950-040883FM-15+0840SBQV V0200401N001010018019N0070001N1+01801+01701999999ADDGA1071+001801999GA2071+021001999GF107991999999999999999999MA1102101999999MW1511REMMET062METAR SBQV 251100Z 04002KT 7000 -DZ BKN006 BKN070 18/17 Q1021;
0166833440999992007072512004-14950-040883FM-15+0840SBQV V0200101N00101003001CN0112651N1+01901+01701999999ADDGA1041+001801999GA2041+003001999GA3071+021001999GF107991999999999999999999MA1102201999999REMMET065METAR SBQV 251200Z 01002KT 9999 SCT006 SCT010 BKN070 19/17 Q1022;
0176833440999992007072513004-14950-040883FM-15+0840SBQV V0203001N002110030019N0070001N1+01901+01801999999ADDGA1021+001801999GA2071+003001999GA3081+021001999GF108991999999999999999999MA1102201999999MW1511REMMET069METAR SBQV 251300Z 30004KT 7000 -DZ FEW006 BKN010 OVC070 19/18 Q1022;
0143833440999992007072515004-14950-040883FM-15+0840SBQV V0200101N001012200019N0112651N1+02101+01801999999ADDGA1021+003301999GA2041+004501999GF104991999999999999999999MA1102101999999REMMET058METAR SBQV 251500Z 01002KT 9999 FEW011 SCT015 21/18 Q1021;
0120833440999992007072517004-14950-040883FM-15+0840SBQV V0203401N003110060019N0112651N1+02501+01801999999ADDGA1071+006001999GF107991999999999999999999MA1102001999999REMMET051METAR SBQV 251700Z 34006KT 9999 BKN020 25/18 Q1020;
0120833440999992007072518004-14950-040883FM-15+0840SBQV V0200101N004612200019N0112651N1+02501+01801999999ADDGA1041+006001999GF104991999999999999999999MA1101901999999REMMET051METAR SBQV 251800Z 01009KT 9999 SCT020 25/18 Q1019;
0120833440999992007072519004-14950-040883FM-15+0840SBQV V0200201N002112200019N0112651N1+02401+01601999999ADDGA1021+006001999GF102991999999999999999999MA1101901999999REMMET051METAR SBQV 251900Z 02004KT 9999 FEW020 24/16 Q1019;
0120833440999992007072520004-14950-040883FM-15+0840SBQV V0209999C000012200019N0112651N1+02301+01801999999ADDGA1021+006001999GF102991999999999999999999MA1102001999999REMMET051METAR SBQV 252000Z 00000KT 9999 FEW020 23/18 Q1020;
0120833440999992007072521004-14950-040883FM-15+0840SBQV V0201301N002612200019N0112651N1+02101+01801999999ADDGA1021+004801999GF102991999999999999999999MA1102001999999REMMET051METAR SBQV 252100Z 13005KT 9999 FEW016 21/18 Q1020;
0072833440999992007072522004-14950-040883FM-15+0840SBQV V0200701N00211220001CN0099001N1+02001+01801999999ADDMA1102101999999REMMET045METAR SBQV 252200Z 07004KT CAVOK 20/18 Q1021;
0120833440999992007072611004-14950-040883FM-15+0840SBQV V0200501N005710021019N0080001N1+01901+01701999999ADDGA1071+002101999GF107991999999999999999999MA1102301999999REMMET051METAR SBQV 261100Z 05011KT 8000 BKN007 19/17 Q1023;
0120833440999992007072612004-14950-040883FM-15+0840SBQV V0200801N001012200019N0112651N1+02101+01801999999ADDGA1021+004501999GF102991999999999999999999MA1102301999999REMMET051METAR SBQV 261200Z 08002KT 9999 FEW015 21/18 Q1023;
0120833440999992007072613004-14950-040883FM-15+0840SBQV V0200701N005712200019N0112651N1+02201+01601999999ADDGA1021+004801999GF102991999999999999999999MA1102401999999REMMET051METAR SBQV 261300Z 07011KT 9999 FEW016 22/16 Q1024;
0072833440999992007072614004-14950-040883FM-15+0840SBQV V0200501N00361220001CN0099001N1+02401+01501999999ADDMA1102301999999REMMET045METAR SBQV 261400Z 05007KT CAVOK 24/15 Q1023;
0120833440999992007072615004-14950-040883FM-15+0840SBQV V0200101N002612200019N0112651N1+02601+01401999999ADDGA1021+007501999GF102991999999999999999999MA1102201999999REMMET051METAR SBQV 261500Z 01005KT 9999 FEW025 26/14 Q1022;
0120833440999992007072616004-14950-040883FM-15+0840SBQV V0200901N001512200019N0112651N1+02701+01301999999ADDGA1021+007501999GF102991999999999999999999MA1102101999999REMMET051METAR SBQV 261600Z 09003KT 9999 FEW025 27/13 Q1021;
0120833440999992007072617004-14950-040883FM-15+0840SBQV V0201001N005112200019N0112651N1+02801+00801999999ADDGA1021+009001999GF102991999999999999999999MA1102001999999REMMET051METAR SBQV 261700Z 10010KT 9999 FEW030 28/08 Q1020;
0072833440999992007072618004-14950-040883FM-15+0840SBQV V0201001N00461220001CN0099001N1+02801+01001999999ADDMA1102001999999REMMET045METAR SBQV 261800Z 10009KT CAVOK 28/10 Q1020;
0072833440999992007072619004-14950-040883FM-15+0840SBQV V0201301N00511220001CN0099001N1+02701+00801999999ADDMA1102001999999REMMET045METAR SBQV 261900Z 13010KT CAVOK 27/08 Q1020;
0072833440999992007072620004-14950-040883FM-15+0840SBQV V0201101N00511220001CN0099001N1+02601+01001999999ADDMA1102001999999REMMET045METAR SBQV 262000Z 11010KT CAVOK 26/10 Q1020;
0072833440999992007072621004-14950-040883FM-15+0840SBQV V0201001N00361220001CN0099001N1+02201+01001999999ADDMA1102101999999REMMET045METAR SBQV 262100Z 10007KT CAVOK 22/10 Q1021;
0072833440999992007072622004-14950-040883FM-15+0840SBQV V0201201N00211220001CN0099001N1+02001+01301999999ADDMA1102101999999REMMET045METAR SBQV 262200Z 12004KT CAVOK 20/13 Q1021;
0120833440999992007072711004-14950-040883FM-15+0840SBQV V0201001N006212200019N0112651N1+01901+01701999999ADDGA1021+004801999GF102991999999999999999999MA1102401999999REMMET051METAR SBQV 271100Z 10012KT 9999 FEW016 19/17 Q1024;
0120833440999992007072712004-14950-040883FM-15+0840SBQV V0201201N007212200019N0112651N1+02101+01601999999ADDGA1021+006001999GF102991999999999999999999MA1102401999999REMMET051METAR SBQV 271200Z 12014KT 9999 FEW020 21/16 Q1024;
0120833440999992007072713004-14950-040883FM-15+0840SBQV V0201301N007212200019N0112651N1+02301+01501999999ADDGA1021+007501999GF102991999999999999999999MA1102401999999REMMET051METAR SBQV 271300Z 13014KT 9999 FEW025 23/15 Q1024;
0120833440999992007072714004-14950-040883FM-15+0840SBQV V0201001N003612200019N0112651N1+02401+01601999999ADDGA1021+007501999GF102991999999999999999999MA1102401999999REMMET051METAR SBQV 271400Z 10007KT 9999 FEW025 24/16 Q1024;
0120833440999992007072718004-14950-040883FM-15+0840SBQV V0201001N006212200019N0112651N1+02501+01401999999ADDGA1021+007501999GF102991999999999999999999MA1102101999999REMMET051METAR SBQV 271800Z 10012KT 9999 FEW025 25/14 Q1021;
0120833440999992007072719004-14950-040883FM-15+0840SBQV V0201601N005112200019N0112651N1+02401+01401999999ADDGA1021+007501999GF102991999999999999999999MA1102101999999REMMET051METAR SBQV 271900Z 16010KT 9999 FEW025 24/14 Q1021;
0104833440999992007072720004-14950-040883FM-15+0840SBQV V0201301N004112200019N0112651N1+02301+01701999999ADDGA1021+006001999GF102991999999999999999999REMMET050METAR SBQV 272000Z 13008KT 9999 FEW020 23/17 1021;
0072833440999992007072721004-14950-040883FM-15+0840SBQV V0201501N00411220001CN0099001N1+02101+01701999999ADDMA1102101999999REMMET045METAR SBQV 272100Z 15008KT CAVOK 21/17 Q1021;
0072833440999992007072722004-14950-040883FM-15+0840SBQV V0201201N00311220001CN0099001N1+01901+01701999999ADDMA1102201999999REMMET045METAR SBQV 272200Z 12006KT CAVOK 19/17 Q1022;
0120833440999992007072811004-14950-040883FM-15+0840SBQV V0201301N003110045019N0112651N1+01701+01601999999ADDGA1071+004501999GF107991999999999999999999MA1102401999999REMMET051METAR SBQV 281100Z 13006KT 9999 BKN015 17/16 Q1024;
0120833440999992007072812004-14950-040883FM-15+0840SBQV V0201301N004112200019N0112651N1+01901+01501999999ADDGA1041+006001999GF104991999999999999999999MA1102511999999REMMET051METAR SBQV 281200Z 13008KT 9999 SCT020 19/15 Q1025;
0120833440999992007072813004-14950-040883FM-15+0840SBQV V0201001N004112200019N0112651N1+02101+01401999999ADDGA1041+006001999GF104991999999999999999999MA1102511999999REMMET051METAR SBQV 281300Z 10008KT 9999 SCT020 21/14 Q1025;
0120833440999992007072814004-14950-040883FM-15+0840SBQV V0201301N006212200019N0112651N1+02201+01401999999ADDGA1041+007501999GF104991999999999999999999MA1102511999999REMMET051METAR SBQV 281400Z 13012KT 9999 SCT025 22/14 Q1025;
0120833440999992007072815004-14950-040883FM-15+0840SBQV V0201001N003110075019N0112651N1+02201+01401999999ADDGA1071+007501999GF107991999999999999999999MA1102401999999REMMET051METAR SBQV 281500Z 10006KT 9999 BKN025 22/14 Q1024;
0120833440999992007072816004-14950-040883FM-15+0840SBQV V0201301N004110075019N0112651N1+02201+01401999999ADDGA1071+007501999GF107991999999999999999999MA1102301999999REMMET051METAR SBQV 281600Z 13008KT 9999 BKN025 22/14 Q1023;
0120833440999992007072817004-14950-040883FM-15+0840SBQV V0201601N004110075019N0112651N1+02201+01401999999ADDGA1071+007501999GF107991999999999999999999MA1102201999999REMMET051METAR SBQV 281700Z 16008KT 9999 BKN025 22/14 Q1022;
0120833440999992007072818004-14950-040883FM-15+0840SBQV V0201501N006212200019N0112651N1+02201+01401999999ADDGA1041+007501999GF104991999999999999999999MA1102201999999REMMET051METAR SBQV 281800Z 15012KT 9999 SCT025 22/14 Q1022;
0120833440999992007072819004-14950-040883FM-15+0840SBQV V0201401N003612200019N0112651N1+02201+01401999999ADDGA1041+006001999GF104991999999999999999999MA1102201999999REMMET051METAR SBQV 281900Z 14007KT 9999 SCT020 22/14 Q1022;
0120833440999992007072820004-14950-040883FM-15+0840SBQV V0201401N004112200019N0112651N1+02101+01501999999ADDGA1041+006001999GF104991999999999999999999MA1102201999999REMMET051METAR SBQV 282000Z 14008KT 9999 SCT020 21/15 Q1022;
0120833440999992007072821004-14950-040883FM-15+0840SBQV V0201401N003612200019N0112651N1+02001+01501999999ADDGA1021+006001999GF102991999999999999999999MA1102201999999REMMET051METAR SBQV 282100Z 14007KT 9999 FEW020 20/15 Q1022;
0120833440999992007072822004-14950-040883FM-15+0840SBQV V0201601N003112200019N0112651N1+01801+01601999999ADDGA1021+005401999GF102991999999999999999999MA1102201999999REMMET051METAR SBQV 282200Z 16006KT 9999 FEW018 18/16 Q1022;
0136833440999992007072911004-14950-040883FM-15+0840SBQV V0201401N00571220001CN0112651N1+01801+01501999999ADDGA1071+003301999GA2041+021001999MA1102401999999REMMET058METAR SBQV 291100Z 14011KT 9999 BKN011 SCT070 18/15 Q1024;EQDQ01+000042SCOTCV
0143833440999992007072912004-14950-040883FM-15+0840SBQV V0201501N005710030019N0112651N1+01701+01501999999ADDGA1021+001501999GA2071+003001999GF107991999999999999999999MA1102511999999REMMET058METAR SBQV 291200Z 15011KT 9999 FEW005 BKN010 17/15 Q1025;
0120833440999992007072913004-14950-040883FM-15+0840SBQV V0201401N004612200019N0112651N1+02101+01401999999ADDGA1041+004801999GF104991999999999999999999MA1102511999999REMMET051METAR SBQV 291300Z 14009KT 9999 SCT016 21/14 Q1025;
0120833440999992007072914004-14950-040883FM-15+0840SBQV V0201401N007710048019N0112651N1+02001+01401999999ADDGA1071+004801999GF107991999999999999999999MA1102511999999REMMET051METAR SBQV 291400Z 14015KT 9999 BKN016 20/14 Q1025;
0143833440999992007072915004-14950-040883FM-15+0840SBQV V0201401N004610210019N0112651N1+01901+01501999999ADDGA1041+003901999GA2071+021001999GF107991999999999999999999MA1102401999999REMMET058METAR SBQV 291500Z 14009KT 9999 SCT013 BKN070 19/15 Q1024;
0161833440999992007072916004-14950-040883FM-15+0840SBQV V0201501N006710039019N0112651N1+01901+01501999999ADDGA1071+003901999GA2071+021001999GF107991999999999999999999MA1102401999999MW1161REMMET070METAR SBQV 291600Z 15013KT 9999 8000SW VCSH BKN013 BKN070 19/15 Q1024;
0153833440999992007072917004-14950-040883FM-15+0840SBQV V0201401N010310039019N0090001N1+01801+01501999999ADDGA1071+003901999GA2071+021001999GF107991999999999999999999MA1102301999999MW1611REMMET062METAR SBQV 291700Z 14020KT 9000 -RA BKN013 BKN070 18/15 Q1023;
0143833440999992007072918004-14950-040883FM-15+0840SBQV V0201501N007210210019N0112651N1+01801+01401999999ADDGA1041+003601999GA2071+021001999GF107991999999999999999999MA1102201999999REMMET058METAR SBQV 291800Z 15014KT 9999 SCT012 BKN070 18/14 Q1022;
0143833440999992007072919004-14950-040883FM-15+0840SBQV V0201501N006210210019N0112651N1+01801+01401999999ADDGA1021+003601999GA2081+021001999GF108991999999999999999999MA1102201999999REMMET058METAR SBQV 291900Z 15012KT 9999 FEW012 OVC070 18/14 Q1022;
0143833440999992007072920004-14950-040883FM-15+0840SBQV V0201601N005110210019N0112651N1+01601+01501999999ADDGA1021+003901999GA2081+021001999GF108991999999999999999999MA1102301999999REMMET058METAR SBQV 292000Z 16010KT 9999 FEW013 OVC070 16/15 Q1023;
0143833440999992007072921004-14950-040883FM-15+0840SBQV V0201401N004110210019N0112651N1+01601+01501999999ADDGA1021+001801999GA2071+021001999GF107991999999999999999999MA1102301999999REMMET058METAR SBQV 292100Z 14008KT 9999 FEW006 BKN070 16/15 Q1023;
0072833440999992007072922004-14950-040883FM-15+0840SBQV V0201501N00211220001CN0099001N1+01601+01501999999ADDMA1102301999999REMMET045METAR SBQV 292200Z 15004KT CAVOK 16/15 Q1023;
0143833440999992007073011004-14950-040883FM-15+0840SBQV V0201601N005110036019N0112651N1+01401+00901999999ADDGA1071+003601999GA2081+021001999GF108991999999999999999999MA1102611999999REMMET058METAR SBQV 301100Z 16010KT 9999 BKN012 OVC070 14/09 Q1026;
0143833440999992007073012004-14950-040883FM-15+0840SBQV V0201501N009310036019N0112651N1+01301+01001999999ADDGA1071+003601999GA2081+021001999GF108991999999999999999999MA1102711999999REMMET058METAR SBQV 301200Z 15018KT 9999 BKN012 OVC070 13/10 Q1027;
0120833440999992007073013004-14950-040883FM-15+0840SBQV V0201601N006212200019N0112651N1+01501+01001999999ADDGA1041+004501999GF104991999999999999999999MA1102611999999REMMET051METAR SBQV 301300Z 16012KT 9999 SCT015 15/10 Q1026;
0120833440999992007073014004-14950-040883FM-15+0840SBQV V0201601N005112200019N0112651N1+01701+01001999999ADDGA1021+004801999GF102991999999999999999999MA1102611999999REMMET051METAR SBQV 301400Z 16010KT 9999 FEW016 17/10 Q1026;
0120833440999992007073015004-14950-040883FM-15+0840SBQV V0201301N007212200019N0112651N1+01901+00901999999ADDGA1021+005401999GF102991999999999999999999MA1102511999999REMMET051METAR SBQV 301500Z 13014KT 9999 FEW018 19/09 Q1025;
0120833440999992007073016004-14950-040883FM-15+0840SBQV V0201301N007712200019N0112651N1+02001+01001999999ADDGA1021+007501999GF102991999999999999999999MA1102401999999REMMET051METAR SBQV 301600Z 13015KT 9999 FEW025 20/10 Q1024;
0120833440999992007073017004-14950-040883FM-15+0840SBQV V0201601N007212200019N0112651N1+02001+01101999999ADDGA1021+007501999GF102991999999999999999999MA1102301999999REMMET051METAR SBQV 301700Z 16014KT 9999 FEW025 20/11 Q1023;
0120833440999992007073018004-14950-040883FM-15+0840SBQV V0201401N009312200019N0112651N1+02001+01001999999ADDGA1021+007501999GF102991999999999999999999MA1102301999999REMMET051METAR SBQV 301800Z 14018KT 9999 FEW025 20/10 Q1023;
0120833440999992007073019004-14950-040883FM-15+0840SBQV V0201401N007712200019N0112651N1+01901+01001999999ADDGA1021+006001999GF102991999999999999999999MA1102301999999REMMET051METAR SBQV 301900Z 14015KT 9999 FEW020 19/10 Q1023;
0120833440999992007073020004-14950-040883FM-15+0840SBQV V0201501N005712200019N0112651N1+01801+01001999999ADDGA1021+005401999GF102991999999999999999999MA1102301999999REMMET051METAR SBQV 302000Z 15011KT 9999 FEW018 18/10 Q1023;
0120833440999992007073021004-14950-040883FM-15+0840SBQV V0201401N004112200019N0112651N1+01601+01001999999ADDGA1021+004801999GF102991999999999999999999MA1102301999999REMMET051METAR SBQV 302100Z 14008KT 9999 FEW016 16/10 Q1023;
0072833440999992007073022004-14950-040883FM-15+0840SBQV V0201401N00461220001CN0099001N1+01501+01001999999ADDMA1102401999999REMMET045METAR SBQV 302200Z 14009KT CAVOK 15/10 Q1024;
0143833440999992007073111004-14950-040883FM-15+0840SBQV V0201401N007712200019N0112651N1+01401+01101999999ADDGA1041+003901999GA2041+090001999GF104991999999999999999999MA1102511999999REMMET058METAR SBQV 311100Z 14015KT 9999 SCT013 SCT300 14/11 Q1025;
0120833440999992007073112004-14950-040883FM-15+0840SBQV V0201601N007712200019N0112651N1+01601+01001999999ADDGA1021+004501999GF102991999999999999999999MA1102511999999REMMET051METAR SBQV 311200Z 16015KT 9999 FEW015 16/10 Q1025;
0120833440999992007073113004-14950-040883FM-15+0840SBQV V0201401N005712200019N0112651N1+01801+01001999999ADDGA1021+005401999GF102991999999999999999999MA1102511999999REMMET051METAR SBQV 311300Z 14011KT 9999 FEW018 18/10 Q1025;
0120833440999992007073114004-14950-040883FM-15+0840SBQV V0201401N006712200019N0112651N1+01901+01201999999ADDGA1021+006001999GF102991999999999999999999MA1102511999999REMMET051METAR SBQV 311400Z 14013KT 9999 FEW020 19/12 Q1025;
0120833440999992007073115004-14950-040883FM-15+0840SBQV V0201401N006212200019N0112651N1+01901+01001999999ADDGA1021+006001999GF102991999999999999999999MA1102401999999REMMET051METAR SBQV 311500Z 14012KT 9999 FEW020 19/10 Q1024;
0120833440999992007073116004-14950-040883FM-15+0840SBQV V0201401N006712200019N0112651N1+02001+01101999999ADDGA1041+006001999GF104991999999999999999999MA1102401999999REMMET051METAR SBQV 311600Z 14013KT 9999 SCT020 20/11 Q1024;
0120833440999992007073117004-14950-040883FM-15+0840SBQV V0201601N007712200019N0112651N1+02001+01101999999ADDGA1041+006001999GF104991999999999999999999MA1102301999999REMMET051METAR SBQV 311700Z 16015KT 9999 SCT020 20/11 Q1023;
0120833440999992007073118004-14950-040883FM-15+0840SBQV V0201401N007212200019N0112651N1+02001+01101999999ADDGA1021+006001999GF102991999999999999999999MA1102201999999REMMET051METAR SBQV 311800Z 14014KT 9999 FEW020 20/11 Q1022;
0120833440999992007073119004-14950-040883FM-15+0840SBQV V0201601N005712200019N0112651N1+02001+01101999999ADDGA1021+006001999GF102991999999999999999999MA1102201999999REMMET051METAR SBQV 311900Z 16011KT 9999 FEW020 20/11 Q1022;
0120833440999992007073120004-14950-040883FM-15+0840SBQV V0201401N007712200019N0112651N1+01801+01201999999ADDGA1021+006001999GF102991999999999999999999MA1102201999999REMMET051METAR SBQV 312000Z 14015KT 9999 FEW020 18/12 Q1022;
0120833440999992007073121004-14950-040883FM-15+0840SBQV V0201401N004612200019N0112651N1+01701+01201999999ADDGA1021+004801999GF102991999999999999999999MA1102201999999REMMET051METAR SBQV 312100Z 14009KT 9999 FEW016 17/12 Q1022;
0072833440999992007073122004-14950-040883FM-15+0840SBQV V0201201N00511220001CN0099001N1+01501+01201999999ADDMA1102301999999REMMET045METAR SBQV 312200Z 12010KT CAVOK 15/12 Q1023;
0120833440999992007080111004-14950-040883FM-15+0840SBQV V0201001N004612200019N0112651N1+01501+01301999999ADDGA1041+002401999GF104991999999999999999999MA1102401999999REMMET051METAR SBQV 011100Z 10009KT 9999 SCT008 15/13 Q1024;
0120833440999992007080112004-14950-040883FM-15+0840SBQV V0201301N006210045019N0112651N1+01601+01301999999ADDGA1071+004501999GF107991999999999999999999MA1102511999999REMMET051METAR SBQV 011200Z 13012KT 9999 BKN015 16/13 Q1025;
0120833440999992007080113004-14950-040883FM-15+0840SBQV V0201001N006712200019N0112651N1+01901+01001999999ADDGA1041+007501999GF104991999999999999999999MA1102511999999REMMET051METAR SBQV 011300Z 10013KT 9999 SCT025 19/10 Q1025;
0120833440999992007080114004-14950-040883FM-15+0840SBQV V0201301N005110075019N0112651N1+01901+01101999999ADDGA1071+007501999GF107991999999999999999999MA1102511999999REMMET051METAR SBQV 011400Z 13010KT 9999 BKN025 19/11 Q1025;
0120833440999992007080115004-14950-040883FM-15+0840SBQV V0201301N007710075019N0112651N1+01901+01201999999ADDGA1071+007501999GF107991999999999999999999MA1102511999999REMMET051METAR SBQV 011500Z 13015KT 9999 BKN025 19/12 Q1025;
0120833440999992007080116004-14950-040883FM-15+0840SBQV V0201301N006710075019N0112651N1+02001+01001999999ADDGA1071+007501999GF107991999999999999999999MA1102401999999REMMET051METAR SBQV 011600Z 13013KT 9999 BKN025 20/10 Q1024;
0120833440999992007080117004-14950-040883FM-15+0840SBQV V0201601N004110075019N0112651N1+02101+01101999999ADDGA1071+007501999GF107991999999999999999999MA1102301999999REMMET051METAR SBQV 011700Z 16008KT 9999 BKN025 21/11 Q1023;
0120833440999992007080118004-14950-040883FM-15+0840SBQV V0201301N008210075019N0112651N1+02101+01001999999ADDGA1071+007501999GF107991999999999999999999MA1102301999999REMMET051METAR SBQV 011800Z 13016KT 9999 BKN025 21/10 Q1023;
0120833440999992007080119004-14950-040883FM-15+0840SBQV V0201401N007212200019N0112651N1+02001+01201999999ADDGA1041+007501999GF104991999999999999999999MA1102301999999REMMET051METAR SBQV 011900Z 14014KT 9999 SCT025 20/12 Q1023;
0120833440999992007080120004-14950-040883FM-15+0840SBQV V0201501N007212200019N0112651N1+01901+01201999999ADDGA1021+006001999GF102991999999999999999999MA1102301999999REMMET051METAR SBQV 012000Z 15014KT 9999 FEW020 19/12 Q1023;
0120833440999992007080121004-14950-040883FM-15+0840SBQV V0201501N004112200019N0112651N1+01701+01201999999ADDGA1021+005401999GF102991999999999999999999MA1102301999999REMMET051METAR SBQV 012100Z 15008KT 9999 FEW018 17/12 Q1023;
0072833440999992007080122004-14950-040883FM-15+0840SBQV V0201001N00411220001CN0099001N1+01501+01201999999ADDMA1102301999999REMMET045METAR SBQV 012200Z 10008KT CAVOK 15/12 Q1023;
0120833440999992007080211004-14950-040883FM-15+0840SBQV V0201301N005710024019N0112651N1+01501+01301999999ADDGA1071+002401999GF107991999999999999999999MA1102401999999REMMET051METAR SBQV 021100Z 13011KT 9999 BKN008 15/13 Q1024;
0143833440999992007080212004-14950-040883FM-15+0840SBQV V0201301N005710039019N0112651N1+01701+01301999999ADDGA1021+002701999GA2071+003901999GF107991999999999999999999MA1102511999999REMMET058METAR SBQV 021200Z 13011KT 9999 FEW009 BKN013 17/13 Q1025;
0120833440999992007080213004-14950-040883FM-15+0840SBQV V0201001N006210039019N0112651N1+01701+01401999999ADDGA1071+003901999GF107991999999999999999999MA1102511999999REMMET051METAR SBQV 021300Z 10012KT 9999 BKN013 17/14 Q1025;
0143833440999992007080214004-14950-040883FM-15+0840SBQV V0201301N007210060019N0112651N1+01901+01301999999ADDGA1041+004501999GA2071+006001999GF107991999999999999999999MA1102511999999REMMET058METAR SBQV 021400Z 13014KT 9999 SCT015 BKN020 19/13 Q1025;
0120833440999992007080215004-14950-040883FM-15+0840SBQV V0201001N005710060019N0112651N1+02101+01301999999ADDGA1071+006001999GF107991999999999999999999MA1102401999999REMMET051METAR SBQV 021500Z 10011KT 9999 BKN020 21/13 Q1024;
0120833440999992007080216004-14950-040883FM-15+0840SBQV V0201301N005110060019N0112651N1+02101+01401999999ADDGA1071+006001999GF107991999999999999999999MA1102401999999REMMET051METAR SBQV 021600Z 13010KT 9999 BKN020 21/14 Q1024;
0120833440999992007080217004-14950-040883FM-15+0840SBQV V0201001N006210060019N0112651N1+02101+01301999999ADDGA1071+006001999GF107991999999999999999999MA1102301999999REMMET051METAR SBQV 021700Z 10012KT 9999 BKN020 21/13 Q1023;
0143833440999992007080218004-14950-040883FM-15+0840SBQV V0201601N003612200019N0112651N1+02101+01401999999ADDGA1021+006001999GA2041+024001999GF104991999999999999999999MA1102301999999REMMET058METAR SBQV 021800Z 16007KT 9999 FEW020 SCT080 21/14 Q1023;
0143833440999992007080219004-14950-040883FM-15+0840SBQV V0201601N003612200019N0112651N1+02201+01301999999ADDGA1021+006001999GA2041+024001999GF104991999999999999999999MA1102301999999REMMET058METAR SBQV 021900Z 16007KT 9999 FEW020 SCT080 22/13 Q1023;
0143833440999992007080220004-14950-040883FM-15+0840SBQV V0201101N006212200019N0112651N1+02101+01201999999ADDGA1021+005401999GA2041+021001999GF104991999999999999999999MA1102301999999REMMET058METAR SBQV 022000Z 11012KT 9999 FEW018 SCT070 21/12 Q1023;
0143833440999992007080221004-14950-040883FM-15+0840SBQV V0201301N004110210019N0112651N1+01901+01401999999ADDGA1021+004801999GA2071+021001999GF107991999999999999999999MA1102301999999REMMET058METAR SBQV 022100Z 13008KT 9999 FEW016 BKN070 19/14 Q1023;
0072833440999992007080222004-14950-040883FM-15+0840SBQV V0201501N00411220001CN0099001N1+01901+01501999999ADDMA1102301999999REMMET045METAR SBQV 022200Z 15008KT CAVOK 19/15 Q1023;
0136833440999992007080311004-14950-040883FM-15+0840SBQV V0201201N00311220001CN0112651N1+01601+01501999999ADDGA1071+002701999GA2041+021001999MA1102611999999REMMET058METAR SBQV 031100Z 12006KT 9999 BKN009 SCT070 16/15 Q1026;EQDQ01+000042SCOTCV
0143833440999992007080312004-14950-040883FM-15+0840SBQV V0201401N004610210019N0112651N1+01701+01501999999ADDGA1041+003901999GA2071+021001999GF107991999999999999999999MA1102611999999REMMET058METAR SBQV 031200Z 14009KT 9999 SCT013 BKN070 17/15 Q1026;
0143833440999992007080313004-14950-040883FM-15+0840SBQV V0201501N004610240019N0112651N1+01801+01401999999ADDGA1041+004501999GA2071+024001999GF107991999999999999999999MA1102611999999REMMET058METAR SBQV 031300Z 15009KT 9999 SCT015 BKN080 18/14 Q1026;
0143833440999992007080314004-14950-040883FM-15+0840SBQV V0201401N004610240019N0112651N1+02001+01301999999ADDGA1021+004801999GA2071+024001999GF107991999999999999999999MA1102511999999REMMET058METAR SBQV 031400Z 14009KT 9999 FEW016 BKN080 20/13 Q1025;
0120833440999992007080315004-14950-040883FM-15+0840SBQV V0201501N003610060019N0112651N1+02201+01301999999ADDGA1071+006001999GF107991999999999999999999MA1102401999999REMMET051METAR SBQV 031500Z 15007KT 9999 BKN020 22/13 Q1024;
0120833440999992007080316004-14950-040883FM-15+0840SBQV V0201401N006210060019N0112651N1+02201+01301999999ADDGA1071+006001999GF107991999999999999999999MA1102401999999REMMET051METAR SBQV 031600Z 14012KT 9999 BKN020 22/13 Q1024;
0120833440999992007080317004-14950-040883FM-15+0840SBQV V0201001N007210060019N0112651N1+02201+01301999999ADDGA1071+006001999GF107991999999999999999999MA1102301999999REMMET051METAR SBQV 031700Z 10014KT 9999 BKN020 22/13 Q1023;
0120833440999992007080318004-14950-040883FM-15+0840SBQV V0201001N004110060019N0112651N1+02101+01401999999ADDGA1071+006001999GF107991999999999999999999MA1102301999999REMMET051METAR SBQV 031800Z 10008KT 9999 BKN020 21/14 Q1023;
0120833440999992007080319004-14950-040883FM-15+0840SBQV V0201501N005110060019N0112651N1+02101+01401999999ADDGA1071+006001999GF107991999999999999999999MA1102301999999REMMET051METAR SBQV 031900Z 15010KT 9999 BKN020 21/14 Q1023;
0143833440999992007080320004-14950-040883FM-15+0840SBQV V0201001N004110054019N0112651N1+02001+01401999999ADDGA1021+003001999GA2071+005401999GF107991999999999999999999MA1102301999999REMMET058METAR SBQV 032000Z 10008KT 9999 FEW010 BKN018 20/14 Q1023;
0120833440999992007080322004-14950-040883FM-15+0840SBQV V0201001N004110045019N0112651N1+01801+01401999999ADDGA1071+004501999GF107991999999999999999999MA1102401999999REMMET051METAR SBQV 032200Z 10008KT 9999 BKN015 18/14 Q1024;
0130833440999992007080404004-14950-040883FM-15+0840SBQV V0201401N003610012019N0020001N1+01601+01601999999ADDGA1081+001201999GF108991999999999999999999MA1102401999999MW1511REMMET055METAR SBQV 040400Z 14007KT 2000 -DZ OVC004 16/16 Q1024;
0143833440999992007080411004-14950-040883FM-15+0840SBQV V0201301N005112200019N0112651N1+01601+01501999999ADDGA1041+001801999GA2041+002701999GF104991999999999999999999MA1102511999999REMMET058METAR SBQV 041100Z 13010KT 9999 SCT006 SCT009 16/15 Q1025;
0143833440999992007080412004-14950-040883FM-15+0840SBQV V0201301N004110045019N0112651N1+01701+01501999999ADDGA1021+002701999GA2071+004501999GF107991999999999999999999MA1102611999999REMMET058METAR SBQV 041200Z 13008KT 9999 FEW009 BKN015 17/15 Q1026;
0120833440999992007080413004-14950-040883FM-15+0840SBQV V0201301N004110048019N0112651N1+01901+01501999999ADDGA1071+004801999GF107991999999999999999999MA1102611999999REMMET051METAR SBQV 041300Z 13008KT 9999 BKN016 19/15 Q1026;
0120833440999992007080414004-14950-040883FM-15+0840SBQV V0201301N007212200019N0112651N1+02001+01501999999ADDGA1041+005401999GF104991999999999999999999MA1102511999999REMMET051METAR SBQV 041400Z 13014KT 9999 SCT018 20/15 Q1025;
0120833440999992007080415004-14950-040883FM-15+0840SBQV V0201301N008210060019N0112651N1+02001+01401999999ADDGA1071+006001999GF107991999999999999999999MA1102511999999REMMET051METAR SBQV 041500Z 13016KT 9999 BKN020 20/14 Q1025;
0120833440999992007080416004-14950-040883FM-15+0840SBQV V0201001N007710060019N0112651N1+02101+01401999999ADDGA1071+006001999GF107991999999999999999999MA1102401999999REMMET051METAR SBQV 041600Z 10015KT 9999 BKN020 21/14 Q1024;
0120833440999992007080417004-14950-040883FM-15+0840SBQV V0201001N004612200019N0112651N1+02201+01201999999ADDGA1021+006001999GF102991999999999999999999MA1102301999999REMMET051METAR SBQV 041700Z 10009KT 9999 FEW020 22/12 Q1023;
0120833440999992007080418004-14950-040883FM-15+0840SBQV V0201001N001512200019N0112651N1+02201+01001999999ADDGA1021+006001999GF102991999999999999999999MA1102301999999REMMET051METAR SBQV 041800Z 10003KT 9999 FEW020 22/10 Q1023;
0120833440999992007080419004-14950-040883FM-15+0840SBQV V0201301N006212200019N0112651N1+02201+01301999999ADDGA1021+006001999GF102991999999999999999999MA1102301999999REMMET051METAR SBQV 041900Z 13012KT 9999 FEW020 22/13 Q1023;
0120833440999992007080420004-14950-040883FM-15+0840SBQV V0201301N004612200019N0112651N1+02101+01201999999ADDGA1021+006001999GF102991999999999999999999MA1102301999999REMMET051METAR SBQV 042000Z 13009KT 9999 FEW020 21/12 Q1023;
0120833440999992007080421004-14950-040883FM-15+0840SBQV V0201301N003612200019N0112651N1+02001+01301999999ADDGA1021+005401999GF102991999999999999999999MA1102301999999REMMET051METAR SBQV 042100Z 13007KT 9999 FEW018 20/13 Q1023;
0072833440999992007080422004-14950-040883FM-15+0840SBQV V0201201N00361220001CN0099001N1+01801+01401999999ADDMA1102401999999REMMET045METAR SBQV 042200Z 12007KT CAVOK 18/14 Q1024;
0143833440999992007080511004-14950-040883FM-15+0840SBQV V0201001N003610021019N0112651N1+01701+01501999999ADDGA1021+001501999GA2071+002101999GF107991999999999999999999MA1102401999999REMMET058METAR SBQV 051100Z 10007KT 9999 FEW005 BKN007 17/15 Q1024;
0120833440999992007080512004-14950-040883FM-15+0840SBQV V0201101N004612200019N0112651N1+02001+01501999999ADDGA1021+004501999GF102991999999999999999999MA1102511999999REMMET051METAR SBQV 051200Z 11009KT 9999 FEW015 20/15 Q1025;
0120833440999992007080513004-14950-040883FM-15+0840SBQV V0201001N005710048019N0112651N1+02101+01401999999ADDGA1071+004801999GF107991999999999999999999MA1102511999999REMMET051METAR SBQV 051300Z 10011KT 9999 BKN016 21/14 Q1025;
0120833440999992007080514004-14950-040883FM-15+0840SBQV V0201101N005710054019N0112651N1+02201+01401999999ADDGA1071+005401999GF107991999999999999999999MA1102401999999REMMET051METAR SBQV 051400Z 11011KT 9999 BKN018 22/14 Q1024;
0120833440999992007080515004-14950-040883FM-15+0840SBQV V0201401N005710060019N0112651N1+02301+01401999999ADDGA1071+006001999GF107991999999999999999999MA1102301999999REMMET051METAR SBQV 051500Z 14011KT 9999 BKN020 23/14 Q1023;
0120833440999992007080516004-14950-040883FM-15+0840SBQV V0201001N004110060019N0112651N1+02301+01401999999ADDGA1071+006001999GF107991999999999999999999MA1102301999999REMMET051METAR SBQV 051600Z 10008KT 9999 BKN020 23/14 Q1023;
0120833440999992007080517004-14950-040883FM-15+0840SBQV V0201301N006712200019N0112651N1+02301+01401999999ADDGA1041+006001999GF104991999999999999999999MA1102201999999REMMET051METAR SBQV 051700Z 13013KT 9999 SCT020 23/14 Q1022;
0120833440999992007080518004-14950-040883FM-15+0840SBQV V0201601N002612200019N0112651N1+02401+01201999999ADDGA1021+006001999GF102991999999999999999999MA1102101999999REMMET051METAR SBQV 051800Z 16005KT 9999 FEW020 24/12 Q1021;
0120833440999992007080519004-14950-040883FM-15+0840SBQV V0201001N003612200019N0112651N1+02201+01501999999ADDGA1021+006001999GF102991999999999999999999MA1102101999999REMMET051METAR SBQV 051900Z 10007KT 9999 FEW020 22/15 Q1021;
0120833440999992007080520004-14950-040883FM-15+0840SBQV V0201001N005112200019N0112651N1+02101+01501999999ADDGA1021+006001999GF102991999999999999999999MA1102101999999REMMET051METAR SBQV 052000Z 10010KT 9999 FEW020 21/15 Q1021;
0072833440999992007080521004-14950-040883FM-15+0840SBQV V0201001N00311220001CN0099001N1+01901+01401999999ADDMA1102101999999REMMET045METAR SBQV 052100Z 10006KT CAVOK 19/14 Q1021;
0072833440999992007080522004-14950-040883FM-15+0840SBQV V0201201N00211220001CN0099001N1+01701+01601999999ADDMA1102201999999REMMET045METAR SBQV 052200Z 12004KT CAVOK 17/16 Q1022;
0120833440999992007080611004-14950-040883FM-15+0840SBQV V0201001N007212200019N0112651N1+01501+01401999999ADDGA1041+002701999GF104991999999999999999999MA1102401999999REMMET051METAR SBQV 061100Z 10014KT 9999 SCT009 15/14 Q1024;
0120833440999992007080612004-14950-040883FM-15+0840SBQV V0201301N006712200019N0112651N1+01901+01401999999ADDGA1021+006001999GF102991999999999999999999MA1102511999999REMMET051METAR SBQV 061200Z 13013KT 9999 FEW020 19/14 Q1025;
0120833440999992007080613004-14950-040883FM-15+0840SBQV V0201301N008710060019N0112651N1+02101+01301999999ADDGA1071+006001999GF107991999999999999999999MA1102511999999REMMET051METAR SBQV 061300Z 13017KT 9999 BKN020 21/13 Q1025;
0120833440999992007080614004-14950-040883FM-15+0840SBQV V0201301N008210060019N0112651N1+02001+01401999999ADDGA1071+006001999GF107991999999999999999999MA1102511999999REMMET051METAR SBQV 061400Z 13016KT 9999 BKN020 20/14 Q1025;
0120833440999992007080615004-14950-040883FM-15+0840SBQV V0201001N007710060019N0112651N1+02101+01501999999ADDGA1071+006001999GF107991999999999999999999MA1102401999999REMMET051METAR SBQV 061500Z 10015KT 9999 BKN020 21/15 Q1024;
0120833440999992007080616004-14950-040883FM-15+0840SBQV V0201201N009310075019N0112651N1+02201+01501999999ADDGA1071+007501999GF107991999999999999999999MA1102301999999REMMET051METAR SBQV 061600Z 12018KT 9999 BKN025 22/15 Q1023;
0120833440999992007080617004-14950-040883FM-15+0840SBQV V0201301N006210075019N0112651N1+01901+01501999999ADDGA1071+007501999GF107991999999999999999999MA1102301999999REMMET051METAR SBQV 061700Z 13012KT 9999 BKN025 19/15 Q1023;
0120833440999992007080618004-14950-040883FM-15+0840SBQV V0201301N005110075019N0112651N1+02101+01401999999ADDGA1071+007501999GF107991999999999999999999MA1102201999999REMMET051METAR SBQV 061800Z 13010KT 9999 BKN025 21/14 Q1022;
0120833440999992007080619004-14950-040883FM-15+0840SBQV V0201001N006212200019N0112651N1+02201+01401999999ADDGA1041+007501999GF104991999999999999999999MA1102201999999REMMET051METAR SBQV 061900Z 10012KT 9999 SCT025 22/14 Q1022;
0120833440999992007080620004-14950-040883FM-15+0840SBQV V0201001N003112200019N0112651N1+02001+01301999999ADDGA1021+007501999GF102991999999999999999999MA1102201999999REMMET051METAR SBQV 062000Z 10006KT 9999 FEW025 20/13 Q1022;
0120833440999992007080621004-14950-040883FM-15+0840SBQV V0201001N004112200019N0112651N1+01901+01401999999ADDGA1021+006001999GF102991999999999999999999MA1102201999999REMMET051METAR SBQV 062100Z 10008KT 9999 FEW020 19/14 Q1022;
0072833440999992007080622004-14950-040883FM-15+0840SBQV V0201001N00411220001CN0099001N1+01701+01401999999ADDMA1102201999999REMMET045METAR SBQV 062200Z 10008KT CAVOK 17/14 Q1022;
0120833440999992007080711004-14950-040883FM-15+0840SBQV V0201801N003610018019N0112651N1+01501+01401999999ADDGA1071+001801999GF107991999999999999999999MA1102511999999REMMET051METAR SBQV 071100Z 18007KT 9999 BKN006 15/14 Q1025;
0143833440999992007080712004-14950-040883FM-15+0840SBQV V0201501N002612200019N0112651N1+01801+01301999999ADDGA1021+002701999GA2041+004501999GF104991999999999999999999MA1102511999999REMMET058METAR SBQV 071200Z 15005KT 9999 FEW009 SCT015 18/13 Q1025;
0143833440999992007080713004-14950-040883FM-15+0840SBQV V0201401N003610045019N0112651N1+01801+01501999999ADDGA1021+002701999GA2071+004501999GF107991999999999999999999MA1102511999999REMMET058METAR SBQV 071300Z 14007KT 9999 FEW009 BKN015 18/15 Q1025;
0153833440999992007080714004-14950-040883FM-15+0840SBQV V0201601N003610060019N0060001N1+01801+01401999999ADDGA1041+002401999GA2071+006001999GF107991999999999999999999MA1102511999999MW1511REMMET062METAR SBQV 071400Z 16007KT 6000 -DZ SCT008 BKN020 18/14 Q1025;
0166833440999992007080715004-14950-040883FM-15+0840SBQV V0201601N00511004501CN0112651N1+02001+01501999999ADDGA1041+002401999GA2041+004501999GA3071+006001999GF107991999999999999999999MA1102401999999REMMET065METAR SBQV 071500Z 16010KT 9999 SCT008 SCT015 BKN020 20/15 Q1024;
0143833440999992007080716004-14950-040883FM-15+0840SBQV V0201501N004110060019N0112651N1+02001+01601999999ADDGA1021+002401999GA2071+006001999GF107991999999999999999999MA1102301999999REMMET058METAR SBQV 071600Z 15008KT 9999 FEW008 BKN020 20/16 Q1023;
0120833440999992007080717004-14950-040883FM-15+0840SBQV V0201101N004110060019N0112651N1+02001+01501999999ADDGA1071+006001999GF107991999999999999999999MA1102301999999REMMET051METAR SBQV 071700Z 11008KT 9999 BKN020 20/15 Q1023;
0120833440999992007080718004-14950-040883FM-15+0840SBQV V0201401N004610060019N0112651N1+02201+01501999999ADDGA1071+006001999GF107991999999999999999999MA1102201999999REMMET051METAR SBQV 071800Z 14009KT 9999 BKN020 22/15 Q1022;
0143833440999992007080719004-14950-040883FM-15+0840SBQV V0201501N004110060019N0112651N1+02101+01601999999ADDGA1041+004501999GA2071+006001999GF107991999999999999999999MA1102201999999REMMET058METAR SBQV 071900Z 15008KT 9999 SCT015 BKN020 21/16 Q1022;
0160833440999992007080720004-14950-040883FM-15+0840SBQV V0201501N006210240019N0112651N1+02001+01601999999ADDGA1041+003901999GA2071+024001999GF107991999999999999999999MA1102301999999MW1611REMMET069METAR SBQV 072000Z 15012KT 9999 3000SE -RA SCT013 BKN080 20/16 Q1023;
0176833440999992007080721004-14950-040883FM-15+0840SBQV V0201501N003610033019N0050001N1+01801+01701999999ADDGA1021+001801999GA2071+003301999GA3071+024001999GF107991999999999999999999MA1102301999999MW1511REMMET069METAR SBQV 072100Z 15007KT 5000 -DZ FEW006 BKN011 BKN080 18/17 Q1023;
0184833440999992007080722004-14950-040883FM-15+0840SBQV V0201601N003110024019N0020001N1+01801+01701999999ADDGA1041+001501999GA2071+002401999GA3081+021001999GF108991999999999999999999MA1102401999999MW1511MW2611REMMET071METAR SBQV 072200Z 16006KT 2000 -RADZ SCT005 BKN008 OVC070 18/17 Q1024;
0143833440999992007080811004-14950-040883FM-15+0840SBQV V0201301N004610210019N0112651N1+01601+01501999999ADDGA1041+003001999GA2071+021001999GF107991999999999999999999MA1102401999999REMMET058METAR SBQV 081100Z 13009KT 9999 SCT010 BKN070 16/15 Q1024;
0120833440999992007080812004-14950-040883FM-15+0840SBQV V0201001N005110045019N0112651N1+01801+01401999999ADDGA1071+004501999GF107991999999999999999999MA1102511999999REMMET051METAR SBQV 081200Z 10010KT 9999 BKN015 18/14 Q1025;
0120833440999992007080813004-14950-040883FM-15+0840SBQV V0201001N007710048019N0112651N1+01901+01401999999ADDGA1071+004801999GF107991999999999999999999MA1102511999999REMMET051METAR SBQV 081300Z 10015KT 9999 BKN016 19/14 Q1025;
0136833440999992007080814004-14950-040883FM-15+0840SBQV V0201101N00721220001CN0112651N1+02001+01501999999ADDGA1071+004801999GA2041+006001999MA1102511999999REMMET058METAR SBQV 081400Z 11014KT 9999 BKN016 SCT020 20/15 Q1025;EQDQ01+000042SCOTCV
0120833440999992007080815004-14950-040883FM-15+0840SBQV V0201101N006710060019N0112651N1+02301+01501999999ADDGA1071+006001999GF107991999999999999999999MA1102401999999REMMET051METAR SBQV 081500Z 11013KT 9999 BKN020 23/15 Q1024;
0120833440999992007080816004-14950-040883FM-15+0840SBQV V0201101N006710060019N0112651N1+02301+01401999999ADDGA1071+006001999GF107991999999999999999999MA1102301999999REMMET051METAR SBQV 081600Z 11013KT 9999 BKN020 23/14 Q1023;
0120833440999992007080817004-14950-040883FM-15+0840SBQV V0201001N008210060019N0112651N1+02301+01401999999ADDGA1071+006001999GF107991999999999999999999MA1102201999999REMMET051METAR SBQV 081700Z 10016KT 9999 BKN020 23/14 Q1022;
0120833440999992007080818004-14950-040883FM-15+0840SBQV V0201001N006212200019N0112651N1+02401+01301999999ADDGA1041+007501999GF104991999999999999999999MA1102201999999REMMET051METAR SBQV 081800Z 10012KT 9999 SCT025 24/13 Q1022;
0120833440999992007080819004-14950-040883FM-15+0840SBQV V0201101N007212200019N0112651N1+02301+01501999999ADDGA1021+007501999GF102991999999999999999999MA1102201999999REMMET051METAR SBQV 081900Z 11014KT 9999 FEW025 23/15 Q1022;
0120833440999992007080820004-14950-040883FM-15+0840SBQV V0201301N006212200019N0112651N1+02101+01501999999ADDGA1021+006001999GF102991999999999999999999MA1102201999999REMMET051METAR SBQV 082000Z 13012KT 9999 FEW020 21/15 Q1022;
0120833440999992007080821004-14950-040883FM-15+0840SBQV V0201001N003112200019N0112651N1+01901+01501999999ADDGA1021+005401999GF102991999999999999999999MA1102201999999REMMET051METAR SBQV 082100Z 10006KT 9999 FEW018 19/15 Q1022;
0120833440999992007080822004-14950-040883FM-15+0840SBQV V0201001N004112200019N0112651N1+01801+01601999999ADDGA1021+003601999GF102991999999999999999999MA1102301999999REMMET051METAR SBQV 082200Z 10008KT 9999 FEW012 18/16 Q1023;
0120833440999992007080911004-14950-040883FM-15+0840SBQV V0201001N006210024019N0112651N1+01701+01501999999ADDGA1071+002401999GF107991999999999999999999MA1102511999999REMMET051METAR SBQV 091100Z 10012KT 9999 BKN008 17/15 Q1025;
0130833440999992007080912004-14950-040883FM-15+0840SBQV V0201301N008210018019N0112651N1+01801+01601999999ADDGA1071+001801999GF107991999999999999999999MA1102511999999MW1511REMMET055METAR SBQV 091200Z 13016KT 9999 -DZ BKN006 18/16 Q1025;
0153833440999992007080913004-14950-040883FM-15+0840SBQV V0201301N005710033019N0112651N1+01901+01701999999ADDGA1041+001801999GA2071+003301999GF107991999999999999999999MA1102611999999MW1511REMMET062METAR SBQV 091300Z 13011KT 9999 -DZ SCT006 BKN011 19/17 Q1026;
0120833440999992007080914004-14950-040883FM-15+0840SBQV V0201301N008210039019N0112651N1+02001+01601999999ADDGA1071+003901999GF107991999999999999999999MA1102511999999REMMET051METAR SBQV 091400Z 13016KT 9999 BKN013 20/16 Q1025;
0160833440999992007080915004-14950-040883FM-15+0840SBQV V0201001N008210045019N0112651N1+02201+01601999999ADDGA1041+002401999GA2071+004501999GF107991999999999999999999MA1102401999999MW1511REMMET069METAR SBQV 091500Z 10016KT 9999 3000SW -DZ SCT008 BKN015 22/16 Q1024;
0143833440999992007080916004-14950-040883FM-15+0840SBQV V0201001N010310045019N0112651N1+01901+01701999999ADDGA1021+002401999GA2071+004501999GF107991999999999999999999MA1102401999999REMMET058METAR SBQV 091600Z 10020KT 9999 FEW008 BKN015 19/17 Q1024;
0120833440999992007080917004-14950-040883FM-15+0840SBQV V0201101N009812200019N0112651N1+02201+01301999999ADDGA1041+004801999GF104991999999999999999999MA1102301999999REMMET051METAR SBQV 091700Z 11019KT 9999 SCT016 22/13 Q1023;
0120833440999992007080918004-14950-040883FM-15+0840SBQV V0201001N008212200019N0112651N1+02301+01501999999ADDGA1041+005401999GF104991999999999999999999MA1102301999999REMMET051METAR SBQV 091800Z 10016KT 9999 SCT018 23/15 Q1023;
0120833440999992007080920004-14950-040883FM-15+0840SBQV V0201301N007712200019N0112651N1+02101+01301999999ADDGA1021+004801999GF102991999999999999999999MA1102301999999REMMET051METAR SBQV 092000Z 13015KT 9999 FEW016 21/13 Q1023;
0120833440999992007080921004-14950-040883FM-15+0840SBQV V0201201N003612200019N0112651N1+01901+01201999999ADDGA1021+004801999GF102991999999999999999999MA1102301999999REMMET051METAR SBQV 092100Z 12007KT 9999 FEW016 19/12 Q1023;
0072833440999992007080922004-14950-040883FM-15+0840SBQV V0201001N00261220001CN0099001N1+01701+01301999999ADDMA1102301999999REMMET045METAR SBQV 092200Z 10005KT CAVOK 17/13 Q1023;
0072833440999992007080923004-14950-040883FM-15+0840SBQV V0201201N00261220001CN0099001N1+01701+01201999999ADDMA1102401999999REMMET045METAR SBQV 092300Z 12005KT CAVOK 17/12 Q1024;
0072833440999992007081000004-14950-040883FM-15+0840SBQV V0201101N00261220001CN0099001N1+01701+01301999999ADDMA1102401999999REMMET045METAR SBQV 100000Z 11005KT CAVOK 17/13 Q1024;
0153833440999992007081011004-14950-040883FM-15+0840SBQV V0201301N006710015019N0020001N1+01601+01601999999ADDGA1071+001501999GA2081+002101999GF108991999999999999999999MA1102401999999MW1511REMMET062METAR SBQV 101100Z 13013KT 2000 -DZ BKN005 OVC007 16/16 Q1024;
0120833440999992007081012004-14950-040883FM-15+0840SBQV V0201101N007710027019N0112651N1+01701+01501999999ADDGA1071+002701999GF107991999999999999999999MA1102511999999REMMET051METAR SBQV 101200Z 11015KT 9999 BKN009 17/15 Q1025;
0120833440999992007081013004-14950-040883FM-15+0840SBQV V0201101N008212200019N0112651N1+01901+01301999999ADDGA1041+004501999GF104991999999999999999999MA1102611999999REMMET051METAR SBQV 101300Z 11016KT 9999 SCT015 19/13 Q1026;
0120833440999992007081014004-14950-040883FM-15+0840SBQV V0201001N007210048019N0112651N1+02101+01401999999ADDGA1071+004801999GF107991999999999999999999MA1102511999999REMMET051METAR SBQV 101400Z 10014KT 9999 BKN016 21/14 Q1025;
0120833440999992007081015004-14950-040883FM-15+0840SBQV V0201101N007710048019N0112651N1+02101+01401999999ADDGA1071+004801999GF107991999999999999999999MA1102511999999REMMET051METAR SBQV 101500Z 11015KT 9999 BKN016 21/14 Q1025;
0120833440999992007081018004-14950-040883FM-15+0840SBQV V0201001N007212200019N0112651N1+02301+01301999999ADDGA1041+006001999GF104991999999999999999999MA1102301999999REMMET051METAR SBQV 101800Z 10014KT 9999 SCT020 23/13 Q1023;
0120833440999992007081019004-14950-040883FM-15+0840SBQV V0201301N008712200019N0112651N1+02201+01201999999ADDGA1021+006001999GF102991999999999999999999MA1102201999999REMMET051METAR SBQV 101900Z 13017KT 9999 FEW020 22/12 Q1022;
0120833440999992007081020004-14950-040883FM-15+0840SBQV V0201201N004112200019N0112651N1+02001+01501999999ADDGA1021+004801999GF102991999999999999999999MA1102301999999REMMET051METAR SBQV 102000Z 12008KT 9999 FEW016 20/15 Q1023;
0120833440999992007081021004-14950-040883FM-15+0840SBQV V0201301N002612200019N0112651N1+01901+01401999999ADDGA1021+004801999GF102991999999999999999999MA1102301999999REMMET051METAR SBQV 102100Z 13005KT 9999 FEW016 19/14 Q1023;
0072833440999992007081022004-14950-040883FM-15+0840SBQV V0201401N00211220001CN0099001N1+01801+01401999999ADDMA1102301999999REMMET045METAR SBQV 102200Z 14004KT CAVOK 18/14 Q1023;
0120833440999992007081111004-14950-040883FM-15+0840SBQV V0201001N003610024019N0112651N1+01701+01601999999ADDGA1071+002401999GF107991999999999999999999MA1102401999999REMMET051METAR SBQV 111100Z 10007KT 9999 BKN008 17/16 Q1024;
0120833440999992007081112004-14950-040883FM-15+0840SBQV V0201301N003110027019N0112651N1+01701+01701999999ADDGA1071+002701999GF107991999999999999999999MA1102511999999REMMET051METAR SBQV 111200Z 13006KT 9999 BKN009 17/17 Q1025;
0130833440999992007081113004-14950-040883FM-15+0840SBQV V0201301N005110024019N0050001N1+01901+01701999999ADDGA1081+002401999GF108991999999999999999999MA1102511999999MW1511REMMET055METAR SBQV 111300Z 13010KT 5000 -DZ OVC008 19/17 Q1025;
0143833440999992007081114004-14950-040883FM-15+0840SBQV V0201301N005110039019N0112651N1+02001+01601999999ADDGA1041+002701999GA2071+003901999GF107991999999999999999999MA1102511999999REMMET058METAR SBQV 111400Z 13010KT 9999 SCT009 BKN013 20/16 Q1025;
0143833440999992007081115004-14950-040883FM-15+0840SBQV V0201501N007212200019N0112651N1+02101+01801999999ADDGA1041+003901999GA2041+004801999GF104991999999999999999999MA1102401999999REMMET058METAR SBQV 111500Z 15014KT 9999 SCT013 SCT016 21/18 Q1024;
0143833440999992007081116004-14950-040883FM-15+0840SBQV V0201601N007210048019N0112651N1+02101+01801999999ADDGA1041+003901999GA2071+004801999GF107991999999999999999999MA1102401999999REMMET058METAR SBQV 111600Z 16014KT 9999 SCT013 BKN016 21/18 Q1024;
0153833440999992007081117004-14950-040883FM-15+0840SBQV V0201301N005110048019N0112651N1+01901+01801999999ADDGA1041+003901999GA2071+004801999GF107991999999999999999999MA1102301999999MW1511REMMET062METAR SBQV 111700Z 13010KT 9999 -DZ SCT013 BKN016 19/18 Q1023;
0120833440999992007081118004-14950-040883FM-15+0840SBQV V0201301N005712200019N0112651N1+01701+01501999999ADDGA1041+005401999GF104991999999999999999999MA1102301999999REMMET051METAR SBQV 111800Z 13011KT 9999 SCT018 17/15 Q1023;
0143833440999992007081119004-14950-040883FM-15+0840SBQV V0201301N005112200019N0112651N1+02001+01701999999ADDGA1041+005401999GA2041+021001999GF104991999999999999999999MA1102301999999REMMET058METAR SBQV 111900Z 13010KT 9999 SCT018 SCT070 20/17 Q1023;
0143833440999992007081120004-14950-040883FM-15+0840SBQV V0201301N006212200019N0112651N1+01801+01601999999ADDGA1021+002401999GA2041+004801999GF104991999999999999999999MA1102301999999REMMET058METAR SBQV 112000Z 13012KT 9999 FEW008 SCT016 18/16 Q1023;
0143833440999992007081121004-14950-040883FM-15+0840SBQV V0201301N007210210019N0112651N1+01701+01601999999ADDGA1041+002101999GA2071+021001999GF107991999999999999999999MA1102401999999REMMET058METAR SBQV 112100Z 13014KT 9999 SCT007 BKN070 17/16 Q1024;
0143833440999992007081122004-14950-040883FM-15+0840SBQV V0201301N006212200019N0112651N1+01701+01601999999ADDGA1021+001501999GA2041+021001999GF104991999999999999999999MA1102401999999REMMET058METAR SBQV 112200Z 13012KT 9999 FEW005 SCT070 17/16 Q1024;
0120833440999992007081211004-14950-040883FM-15+0840SBQV V0201301N006212200019N0112651N1+01701+01601999999ADDGA1041+002401999GF104991999999999999999999MA1102511999999REMMET051METAR SBQV 121100Z 13012KT 9999 SCT008 17/16 Q1025;
0143833440999992007081212004-14950-040883FM-15+0840SBQV V0201301N005110045019N0112651N1+01801+01601999999ADDGA1041+002701999GA2071+004501999GF107991999999999999999999MA1102611999999REMMET058METAR SBQV 121200Z 13010KT 9999 SCT009 BKN015 18/16 Q1026;
0166833440999992007081213004-14950-040883FM-15+0840SBQV V0201001N00621004501CN0112651N1+01801+01601999999ADDGA1041+003001999GA2041+004501999GA3071+006001999GF107991999999999999999999MA1102611999999REMMET065METAR SBQV 121300Z 10012KT 9999 SCT010 SCT015 BKN020 18/16 Q1026;
0176833440999992007081214004-14950-040883FM-15+0840SBQV V0201001N00621004501CN0112651N1+01901+01701999999ADDGA1021+002701999GA2041+004501999GA3071+005401999GF107991999999999999999999MA1102611999999MW1511REMMET069METAR SBQV 121400Z 10012KT 9999 -DZ FEW009 SCT015 BKN018 19/17 Q1026;
0153833440999992007081215004-14950-040883FM-15+0840SBQV V0201001N005110039019N0030001N1+01801+01701999999ADDGA1041+001801999GA2081+003901999GF108991999999999999999999MA1102511999999MW1511REMMET062METAR SBQV 121500Z 10010KT 3000 -DZ SCT006 OVC013 18/17 Q1025;
0120833440999992007081216004-14950-040883FM-15+0840SBQV V0201001N008212200019N0112651N1+02101+01501999999ADDGA1041+006001999GF104991999999999999999999MA1102401999999REMMET051METAR SBQV 121600Z 10016KT 9999 SCT020 21/15 Q1024;
0120833440999992007081217004-14950-040883FM-15+0840SBQV V0201301N007212200019N0112651N1+02201+01401999999ADDGA1041+006001999GF104991999999999999999999MA1102301999999REMMET051METAR SBQV 121700Z 13014KT 9999 SCT020 22/14 Q1023;
0120833440999992007081218004-14950-040883FM-15+0840SBQV V0201101N009312200019N0112651N1+02301+01501999999ADDGA1021+006001999GF102991999999999999999999MA1102301999999REMMET051METAR SBQV 121800Z 11018KT 9999 FEW020 23/15 Q1023;
0120833440999992007081219004-14950-040883FM-15+0840SBQV V0201301N006212200019N0112651N1+02201+01201999999ADDGA1021+006001999GF102991999999999999999999MA1102301999999REMMET051METAR SBQV 121900Z 13012KT 9999 FEW020 22/12 Q1023;
0120833440999992007081220004-14950-040883FM-15+0840SBQV V0201301N004612200019N0112651N1+02101+01201999999ADDGA1021+006001999GF102991999999999999999999MA1102301999999REMMET051METAR SBQV 122000Z 13009KT 9999 FEW020 21/12 Q1023;
0120833440999992007081221004-14950-040883FM-15+0840SBQV V0201101N002612200019N0112651N1+01801+01201999999ADDGA1021+005401999GF102991999999999999999999MA1102401999999REMMET051METAR SBQV 122100Z 11005KT 9999 FEW018 18/12 Q1024;
0072833440999992007081222004-14950-040883FM-15+0840SBQV V0201201N00261220001CN0099001N1+01701+01301999999ADDMA1102401999999REMMET045METAR SBQV 122200Z 12005KT CAVOK 17/13 Q1024;
0120833440999992007081223004-14950-040883FM-15+0840SBQV V0201301N003112200019N0112651N1+01601+01301999999ADDGA1021+002701999GF102991999999999999999999MA1102511999999REMMET051METAR SBQV 122300Z 13006KT 9999 FEW009 16/13 Q1025;
0120833440999992007081311004-14950-040883FM-15+0840SBQV V0201301N007712200019N0112651N1+01601+01301999999ADDGA1041+002701999GF104991999999999999999999MA1102511999999REMMET051METAR SBQV 131100Z 13015KT 9999 SCT009 16/13 Q1025;
0120833440999992007081312004-14950-040883FM-15+0840SBQV V0201401N007712200019N0112651N1+01801+01401999999ADDGA1041+004501999GF104991999999999999999999MA1102611999999REMMET051METAR SBQV 131200Z 14015KT 9999 SCT015 18/14 Q1026;
0120833440999992007081313004-14950-040883FM-15+0840SBQV V0201301N006712200019N0112651N1+02101+01201999999ADDGA1041+005401999GF104991999999999999999999MA1102611999999REMMET051METAR SBQV 131300Z 13013KT 9999 SCT018 21/12 Q1026;
0120833440999992007081314004-14950-040883FM-15+0840SBQV V0201201N010312200019N0112651N1+02201+01101999999ADDGA1021+006001999GF102991999999999999999999MA1102611999999REMMET051METAR SBQV 131400Z 12020KT 9999 FEW020 22/11 Q1026;
0120833440999992007081315004-14950-040883FM-15+0840SBQV V0201301N009312200019N0112651N1+02201+01301999999ADDGA1021+006001999GF102991999999999999999999MA1102511999999REMMET051METAR SBQV 131500Z 13018KT 9999 FEW020 22/13 Q1025;
0120833440999992007081316004-14950-040883FM-15+0840SBQV V0201301N007712200019N0112651N1+02301+01301999999ADDGA1021+006001999GF102991999999999999999999MA1102401999999REMMET051METAR SBQV 131600Z 13015KT 9999 FEW020 23/13 Q1024;
0120833440999992007081317004-14950-040883FM-15+0840SBQV V0201601N005112200019N0112651N1+02301+01101999999ADDGA1021+006001999GF102991999999999999999999MA1102301999999REMMET051METAR SBQV 131700Z 16010KT 9999 FEW020 23/11 Q1023;
0120833440999992007081318004-14950-040883FM-15+0840SBQV V0201001N006712200019N0112651N1+02301+01101999999ADDGA1041+006001999GF104991999999999999999999MA1102301999999REMMET051METAR SBQV 131800Z 10013KT 9999 SCT020 23/11 Q1023;
0120833440999992007081319004-14950-040883FM-15+0840SBQV V0201001N008212200019N0112651N1+02201+01001999999ADDGA1021+006001999GF102991999999999999999999MA1102301999999REMMET051METAR SBQV 131900Z 10016KT 9999 FEW020 22/10 Q1023;
0120833440999992007081320004-14950-040883FM-15+0840SBQV V0201301N006212200019N0112651N1+02101+01201999999ADDGA1021+006001999GF102991999999999999999999MA1102401999999REMMET051METAR SBQV 132000Z 13012KT 9999 FEW020 21/12 Q1024;
0120833440999992007081321004-14950-040883FM-15+0840SBQV V0201301N005112200019N0112651N1+01901+01201999999ADDGA1021+004801999GF102991999999999999999999MA1102401999999REMMET051METAR SBQV 132100Z 13010KT 9999 FEW016 19/12 Q1024;
0120833440999992007081322004-14950-040883FM-15+0840SBQV V0201301N005112200019N0112651N1+01701+01201999999ADDGA1021+003601999GF102991999999999999999999MA1102401999999REMMET051METAR SBQV 132200Z 13010KT 9999 FEW012 17/12 Q1024;
0120833440999992007081411004-14950-040883FM-15+0840SBQV V0201301N007212200019N0112651N1+01601+01301999999ADDGA1041+002701999GF104991999999999999999999MA1102401999999REMMET051METAR SBQV 141100Z 13014KT 9999 SCT009 16/13 Q1024;
0137833440999992007081412004-14950-040883FM-15+0840SBQV V0201401N009312200019N0112651N1+01701+01401999999ADDGA1041+002701999GF104991999999999999999999MA1102611999999MW1511REMMET062METAR SBQV 141200Z 14018KT 9999 7000SE -DZ SCT009 17/14 Q1026;
0143833440999992007081413004-14950-040883FM-15+0840SBQV V0201301N010312200019N0112651N1+01901+01301999999ADDGA1021+002701999GA2041+004501999GF104991999999999999999999MA1102611999999REMMET058METAR SBQV 141300Z 13020KT 9999 FEW009 SCT015 19/13 Q1026;
0143833440999992007081414004-14950-040883FM-15+0840SBQV V0201301N007212200019N0112651N1+01801+01501999999ADDGA1021+001801999GA2041+004801999GF104991999999999999999999MA1102611999999REMMET058METAR SBQV 141400Z 13014KT 9999 FEW006 SCT016 18/15 Q1026;
0166833440999992007081415004-14950-040883FM-15+0840SBQV V0201301N00821004501CN0112651N1+02001+01501999999ADDGA1021+002401999GA2041+004501999GA3071+006001999GF107991999999999999999999MA1102511999999REMMET065METAR SBQV 141500Z 13016KT 9999 FEW008 SCT015 BKN020 20/15 Q1025;
0143833440999992007081416004-14950-040883FM-15+0840SBQV V0201001N007212200019N0112651N1+01801+01601999999ADDGA1021+002401999GA2041+006001999GF104991999999999999999999MA1102511999999REMMET058METAR SBQV 141600Z 10014KT 9999 FEW008 SCT020 18/16 Q1025;
0120833440999992007081417004-14950-040883FM-15+0840SBQV V0201201N011812200019N0112651N1+02201+01201999999ADDGA1021+007501999GF102991999999999999999999MA1102401999999REMMET051METAR SBQV 141700Z 12023KT 9999 FEW025 22/12 Q1024;
0120833440999992007081418004-14950-040883FM-15+0840SBQV V0201301N009812200019N0112651N1+02201+01101999999ADDGA1041+007501999GF104991999999999999999999MA1102301999999REMMET051METAR SBQV 141800Z 13019KT 9999 SCT025 22/11 Q1023;
0120833440999992007081419004-14950-040883FM-15+0840SBQV V0201301N008212200019N0112651N1+02201+01201999999ADDGA1041+007501999GF104991999999999999999999MA1102301999999REMMET051METAR SBQV 141900Z 13016KT 9999 SCT025 22/12 Q1023;
0120833440999992007081420004-14950-040883FM-15+0840SBQV V0201101N004612200019N0112651N1+02101+01301999999ADDGA1021+006001999GF102991999999999999999999MA1102301999999REMMET051METAR SBQV 142000Z 11009KT 9999 FEW020 21/13 Q1023;
0120833440999992007081421004-14950-040883FM-15+0840SBQV V0201001N004612200019N0112651N1+01901+01201999999ADDGA1021+005401999GF102991999999999999999999MA1102401999999REMMET051METAR SBQV 142100Z 10009KT 9999 FEW018 19/12 Q1024;
0072833440999992007081422004-14950-040883FM-15+0840SBQV V0201101N00411220001CN0099001N1+01701+01101999999ADDMA1102401999999REMMET045METAR SBQV 142200Z 11008KT CAVOK 17/11 Q1024;
0120833440999992007081423004-14950-040883FM-15+0840SBQV V0201101N002612200019N0112651N1+01701+01101999999ADDGA1021+004501999GF102991999999999999999999MA1102511999999REMMET051METAR SBQV 142300Z 11005KT 9999 FEW015 17/11 Q1025;
0120833440999992007081511004-14950-040883FM-15+0840SBQV V0201301N006212200019N0112651N1+01601+01401999999ADDGA1041+002701999GF104991999999999999999999MA1102511999999REMMET051METAR SBQV 151100Z 13012KT 9999 SCT009 16/14 Q1025;
0120833440999992007081512004-14950-040883FM-15+0840SBQV V0201301N007710033019N0112651N1+01701+01501999999ADDGA1071+003301999GF107991999999999999999999MA1102611999999REMMET051METAR SBQV 151200Z 13015KT 9999 BKN011 17/15 Q1026;
0120833440999992007081513004-14950-040883FM-15+0840SBQV V0201401N006712200019N0112651N1+01801+01301999999ADDGA1041+004501999GF104991999999999999999999MA1102611999999REMMET051METAR SBQV 151300Z 14013KT 9999 SCT015 18/13 Q1026;
0166833440999992007081514004-14950-040883FM-15+0840SBQV V0201301N00771003901CN0112651N1+01701+01501999999ADDGA1021+002401999GA2041+003901999GA3071+021001999GF107991999999999999999999MA1102611999999REMMET065METAR SBQV 151400Z 13015KT 9999 FEW008 SCT013 BKN070 17/15 Q1026;
0120833440999992007081515004-14950-040883FM-15+0840SBQV V0201301N007212200019N0112651N1+02001+01101999999ADDGA1041+005401999GF104991999999999999999999MA1102611999999REMMET051METAR SBQV 151500Z 13014KT 9999 SCT018 20/11 Q1026;
0143833440999992007081517004-14950-040883FM-15+0840SBQV V0201301N008710045019N0112651N1+01901+01401999999ADDGA1071+004501999GA2071+021001999GF107991999999999999999999MA1102401999999REMMET058METAR SBQV 151700Z 13017KT 9999 BKN015 BKN070 19/14 Q1024;
0143833440999992007081518004-14950-040883FM-15+0840SBQV V0201301N009310045019N0112651N1+01901+01401999999ADDGA1071+004501999GA2071+021001999GF107991999999999999999999MA1102401999999REMMET058METAR SBQV 151800Z 13018KT 9999 BKN015 BKN070 19/14 Q1024;
0176833440999992007081519004-14950-040883FM-15+0840SBQV V0201301N00821004501CN0080001N1+01701+01501999999ADDGA1041+002401999GA2041+004501999GA3081+021001999GF108991999999999999999999MA1102401999999MW1511REMMET069METAR SBQV 151900Z 13016KT 8000 -DZ SCT008 SCT015 OVC070 17/15 Q1024;
0153833440999992007081520004-14950-040883FM-15+0840SBQV V0201601N008210018019N0060001N1+01601+01601999999ADDGA1071+001801999GA2071+021001999GF107991999999999999999999MA1102401999999MW1511REMMET062METAR SBQV 152000Z 16016KT 6000 -DZ BKN006 BKN070 16/16 Q1024;
0153833440999992007081521004-14950-040883FM-15+0840SBQV V0201301N004610015019N0020001N1+01501+01501999999ADDGA1071+001501999GA2081+021001999GF108991999999999999999999MA1102401999999MW1511REMMET062METAR SBQV 152100Z 13009KT 2000 -DZ BKN005 OVC070 15/15 Q1024;
0143833440999992007081522004-14950-040883FM-15+0840SBQV V0201301N006710018019N0112651N1+01501+01401999999ADDGA1071+001801999GA2071+021001999GF107991999999999999999999MA1102401999999REMMET058METAR SBQV 152200Z 13013KT 9999 BKN006 BKN070 15/14 Q1024;
0143833440999992007081523004-14950-040883FM-15+0840SBQV V0201501N004112200019N0112651N1+01501+01401999999ADDGA1041+001801999GA2041+021001999GF104991999999999999999999MA1102511999999REMMET058METAR SBQV 152300Z 15008KT 9999 SCT006 SCT070 15/14 Q1025;
0143833440999992007081613004-14950-040883FM-15+0840SBQV V0201301N006212200019N0112651N1+01701+01701999999ADDGA1021+001801999GA2041+003001999GF104991999999999999999999MA1102511999999REMMET058METAR SBQV 161300Z 13012KT 9999 FEW006 SCT010 17/17 Q1025;
0153833440999992007081614004-14950-040883FM-15+0840SBQV V0201301N005110030019N0090001N1+01801+01701999999ADDGA1021+001801999GA2071+003001999GF107991999999999999999999MA1102401999999MW1511REMMET062METAR SBQV 161400Z 13010KT 9000 -DZ FEW006 BKN010 18/17 Q1024;
0143833440999992007081615004-14950-040883FM-15+0840SBQV V0201001N007210045019N0112651N1+02001+01601999999ADDGA1021+003601999GA2071+004501999GF107991999999999999999999MA1102401999999REMMET058METAR SBQV 161500Z 10014KT 9999 FEW012 BKN015 20/16 Q1024;
0120833440999992007081616004-14950-040883FM-15+0840SBQV V0201301N007710045019N0112651N1+02101+01501999999ADDGA1071+004501999GF107991999999999999999999MA1102301999999REMMET051METAR SBQV 161600Z 13015KT 9999 BKN015 21/15 Q1023;
0120833440999992007081617004-14950-040883FM-15+0840SBQV V0201001N007710048019N0112651N1+02201+01401999999ADDGA1071+004801999GF107991999999999999999999MA1102201999999REMMET051METAR SBQV 161700Z 10015KT 9999 BKN016 22/14 Q1022;
0084833440999992007083110444-14950-040883FM-16+0840SBQV V0201301N007312200019N0112651N1+01601+01501999999ADDMA1102601999999REMMET057METAR SBQV 311044Z SPECI 13014KT 9999 BKN007 16/15 Q1026;
0120833440999992007083113004-14950-040883FM-15+0840SBQV V0201601N010310060019N0112651N1+02001+01301999999ADDGA1071+006001999GF107991999999999999999999MA1102711999999REMMET051METAR SBQV 311300Z 16020KT 9999 BKN020 20/13 Q1027;
0120833440999992007083114004-14950-040883FM-15+0840SBQV V0201301N006710060019N0112651N1+02101+01201999999ADDGA1071+006001999GF107991999999999999999999MA1102711999999REMMET051METAR SBQV 311400Z 13013KT 9999 BKN020 21/12 Q1027;
0120833440999992007083115004-14950-040883FM-15+0840SBQV V0201001N009812200019N0112651N1+02301+01201999999ADDGA1041+007501999GF104991999999999999999999MA1102611999999REMMET051METAR SBQV 311500Z 10019KT 9999 SCT025 23/12 Q1026;
0072833440999992007083122004-14950-040883FM-15+0840SBQV V0201301N00311220001CN0099001N1+01801+01001999999ADDMA1102401999999REMMET045METAR SBQV 312200Z 13006KT CAVOK 18/10 Q1024;
0072833440999992007090104004-14950-040883FM-15+0840SBQV V0201001N00511220001CN0099001N1+01501+01301999999ADDMA1102511999999REMMET045METAR SBQV 010400Z 10010KT CAVOK 15/13 Q1025;
0072833440999992007090105004-14950-040883FM-15+0840SBQV V0201301N00411220001CN0099001N1+01401+01301999999ADDMA1102401999999REMMET045METAR SBQV 010500Z 13008KT CAVOK 14/13 Q1024;
0120833440999992007090106004-14950-040883FM-15+0840SBQV V0201001N002112200019N0112651N1+01401+01301999999ADDGA1021+001801999GF102991999999999999999999MA1102401999999REMMET051METAR SBQV 010600Z 10004KT 9999 FEW006 14/13 Q1024;
0120833440999992007090107004-14950-040883FM-15+0840SBQV V0201301N005110018019N0112651N1+01401+01301999999ADDGA1071+001801999GF107991999999999999999999MA1102401999999REMMET051METAR SBQV 010700Z 13010KT 9999 BKN006 14/13 Q1024;
0120833440999992007090111004-14950-040883FM-15+0840SBQV V0201301N006210045019N0112651N1+01801+01301999999ADDGA1071+004501999GF107991999999999999999999MA1102511999999REMMET051METAR SBQV 011100Z 13012KT 9999 BKN015 18/13 Q1025;
0120833440999992007090112004-14950-040883FM-15+0840SBQV V0201001N006710060019N0112651N1+02001+01301999999ADDGA1071+006001999GF107991999999999999999999MA1102611999999REMMET051METAR SBQV 011200Z 10013KT 9999 BKN020 20/13 Q1026;
0120833440999992007090113004-14950-040883FM-15+0840SBQV V0201001N010312200019N0112651N1+02201+01401999999ADDGA1041+006001999GF104991999999999999999999MA1102611999999REMMET051METAR SBQV 011300Z 10020KT 9999 SCT020 22/14 Q1026;
0120833440999992007090114004-14950-040883FM-15+0840SBQV V0201201N007712200019N0112651N1+02301+01201999999ADDGA1021+006001999GF102991999999999999999999MA1102611999999REMMET051METAR SBQV 011400Z 12015KT 9999 FEW020 23/12 Q1026;
0120833440999992007090115004-14950-040883FM-15+0840SBQV V0201001N009310060019N0112651N1+02401+01301999999ADDGA1071+006001999GF107991999999999999999999MA1102511999999REMMET051METAR SBQV 011500Z 10018KT 9999 BKN020 24/13 Q1025;
0120833440999992007090116004-14950-040883FM-15+0840SBQV V0200901N008210060019N0112651N1+02301+01301999999ADDGA1071+006001999GF107991999999999999999999MA1102401999999REMMET051METAR SBQV 011600Z 09016KT 9999 BKN020 23/13 Q1024;
0120833440999992007090117004-14950-040883FM-15+0840SBQV V0201001N006212200019N0112651N1+02401+01401999999ADDGA1021+006001999GF102991999999999999999999MA1102301999999REMMET051METAR SBQV 011700Z 10012KT 9999 FEW020 24/14 Q1023;
0120833440999992007090118004-14950-040883FM-15+0840SBQV V0201501N006212200019N0112651N1+02501+01201999999ADDGA1021+007501999GF102991999999999999999999MA1102301999999REMMET051METAR SBQV 011800Z 15012KT 9999 FEW025 25/12 Q1023;
0120833440999992007090119004-14950-040883FM-15+0840SBQV V0201301N005112200019N0112651N1+02401+01201999999ADDGA1021+007501999GF102991999999999999999999MA1102201999999REMMET051METAR SBQV 011900Z 13010KT 9999 FEW025 24/12 Q1022;
0120833440999992007090120004-14950-040883FM-15+0840SBQV V0201301N005112200019N0112651N1+02201+01301999999ADDGA1021+007501999GF102991999999999999999999MA1102301999999REMMET051METAR SBQV 012000Z 13010KT 9999 FEW025 22/13 Q1023;
0120833440999992007090121004-14950-040883FM-15+0840SBQV V0201301N002112200019N0112651N1+02001+01201999999ADDGA1021+005401999GF102991999999999999999999MA1102301999999REMMET051METAR SBQV 012100Z 13004KT 9999 FEW018 20/12 Q1023;
0072833440999992007090122004-14950-040883FM-15+0840SBQV V0201301N00101220001CN0099001N1+01901+01201999999ADDMA1102301999999REMMET045METAR SBQV 012200Z 13002KT CAVOK 19/12 Q1023;
0120833440999992007090211004-14950-040883FM-15+0840SBQV V0201101N005112200019N0112651N1+01701+01401999999ADDGA1021+004501999GF102991999999999999999999MA1102611999999REMMET051METAR SBQV 021100Z 11010KT 9999 FEW015 17/14 Q1026;
0120833440999992007090212004-14950-040883FM-15+0840SBQV V0201001N006212200019N0112651N1+02001+01301999999ADDGA1021+005401999GF102991999999999999999999MA1102611999999REMMET051METAR SBQV 021200Z 10012KT 9999 FEW018 20/13 Q1026;
0120833440999992007090213004-14950-040883FM-15+0840SBQV V0201201N006712200019N0112651N1+02201+01301999999ADDGA1021+006001999GF102991999999999999999999MA1102611999999REMMET051METAR SBQV 021300Z 12013KT 9999 FEW020 22/13 Q1026;
0120833440999992007090214004-14950-040883FM-15+0840SBQV V0200801N005712200019N0112651N1+02401+01201999999ADDGA1021+006001999GF102991999999999999999999MA1102611999999REMMET051METAR SBQV 021400Z 08011KT 9999 FEW020 24/12 Q1026;
0120833440999992007090215004-14950-040883FM-15+0840SBQV V0201201N003112200019N0112651N1+02501+01301999999ADDGA1021+007501999GF102991999999999999999999MA1102511999999REMMET051METAR SBQV 021500Z 12006KT 9999 FEW025 25/13 Q1025;
0120833440999992007090216004-14950-040883FM-15+0840SBQV V0201201N006712200019N0112651N1+02601+01201999999ADDGA1021+007501999GF102991999999999999999999MA1102401999999REMMET051METAR SBQV 021600Z 12013KT 9999 FEW025 26/12 Q1024;
0120833440999992007090217004-14950-040883FM-15+0840SBQV V0201301N006212200019N0112651N1+02501+01101999999ADDGA1021+007501999GF102991999999999999999999MA1102301999999REMMET051METAR SBQV 021700Z 13012KT 9999 FEW025 25/11 Q1023;
0120833440999992007090218004-14950-040883FM-15+0840SBQV V0201301N005112200019N0112651N1+02601+01101999999ADDGA1021+009001999GF102991999999999999999999MA1102201999999REMMET051METAR SBQV 021800Z 13010KT 9999 FEW030 26/11 Q1022;
0120833440999992007090219004-14950-040883FM-15+0840SBQV V0201301N006212200019N0112651N1+02501+01101999999ADDGA1021+007501999GF102991999999999999999999MA1102301999999REMMET051METAR SBQV 021900Z 13012KT 9999 FEW025 25/11 Q1023;
0120833440999992007090220004-14950-040883FM-15+0840SBQV V0201001N004112200019N0112651N1+02301+01101999999ADDGA1021+007501999GF102991999999999999999999MA1102301999999REMMET051METAR SBQV 022000Z 10008KT 9999 FEW025 23/11 Q1023;
0120833440999992007090221004-14950-040883FM-15+0840SBQV V0200901N003112200019N0112651N1+02101+01201999999ADDGA1021+006001999GF102991999999999999999999MA1102301999999REMMET051METAR SBQV 022100Z 09006KT 9999 FEW020 21/12 Q1023;
0072833440999992007090222004-14950-040883FM-15+0840SBQV V0201001N00411220001CN0099001N1+02001+01201999999ADDMA1102301999999REMMET045METAR SBQV 022200Z 10008KT CAVOK 20/12 Q1023;
0120833440999992007090311004-14950-040883FM-15+0840SBQV V0201301N003110036019N0112651N1+01701+01501999999ADDGA1071+003601999GF107991999999999999999999MA1102611999999REMMET051METAR SBQV 031100Z 13006KT 9999 BKN012 17/15 Q1026;
0143833440999992007090312004-14950-040883FM-15+0840SBQV V0201301N004612200019N0112651N1+01901+01601999999ADDGA1041+003901999GA2041+004801999GF104991999999999999999999MA1102611999999REMMET058METAR SBQV 031200Z 13009KT 9999 SCT013 SCT016 19/16 Q1026;
0120833440999992007090313004-14950-040883FM-15+0840SBQV V0201601N005110054019N0112651N1+02101+01501999999ADDGA1071+005401999GF107991999999999999999999MA1102711999999REMMET051METAR SBQV 031300Z 16010KT 9999 BKN018 21/15 Q1027;
0143833440999992007090314004-14950-040883FM-15+0840SBQV V0201001N006210054019N0112651N1+02201+01501999999ADDGA1021+003901999GA2071+005401999GF107991999999999999999999MA1102611999999REMMET058METAR SBQV 031400Z 10012KT 9999 FEW013 BKN018 22/15 Q1026;
0120833440999992007090315004-14950-040883FM-15+0840SBQV V0201301N006210060019N0112651N1+02201+01501999999ADDGA1071+006001999GF107991999999999999999999MA1102611999999REMMET051METAR SBQV 031500Z 13012KT 9999 BKN020 22/15 Q1026;
0120833440999992007090316004-14950-040883FM-15+0840SBQV V0201301N007710060019N0112651N1+02301+01601999999ADDGA1071+006001999GF107991999999999999999999MA1102511999999REMMET051METAR SBQV 031600Z 13015KT 9999 BKN020 23/16 Q1025;
0120833440999992007090317004-14950-040883FM-15+0840SBQV V0201301N006710060019N0112651N1+02301+01601999999ADDGA1071+006001999GF107991999999999999999999MA1102401999999REMMET051METAR SBQV 031700Z 13013KT 9999 BKN020 23/16 Q1024;
0143833440999992007090318004-14950-040883FM-15+0840SBQV V0201001N005712200019N0112651N1+02001+01701999999ADDGA1041+005401999GA2041+027001999GF104991999999999999999999MA1102401999999REMMET058METAR SBQV 031800Z 10011KT 9999 SCT018 SCT090 20/17 Q1024;
0120833440999992007090319004-14950-040883FM-15+0840SBQV V0201101N005712200019N0112651N1+02201+01701999999ADDGA1041+006001999GF104991999999999999999999MA1102401999999REMMET051METAR SBQV 031900Z 11011KT 9999 SCT020 22/17 Q1024;
0153833440999992007090320004-14950-040883FM-15+0840SBQV V0201601N007210048019N0090001N1+02101+01801999999ADDGA1041+002101999GA2071+004801999GF107991999999999999999999MA1102401999999MW1511REMMET062METAR SBQV 032000Z 16014KT 9000 -DZ SCT007 BKN016 21/18 Q1024;
0161833440999992007090321004-14950-040883FM-15+0840SBQV V0201301N003610039019N0040001N1+01801+01701999999ADDGA1041+001501999GA2071+003901999GF107991999999999999999999MA1102511999999MW1511MW2611REMMET064METAR SBQV 032100Z 13007KT 4000 -RADZ SCT005 BKN013 18/17 Q1025;
0120833440999992007090322004-14950-040883FM-15+0840SBQV V0201301N004110018019N0112651N1+01801+01701999999ADDGA1071+001801999GF107991999999999999999999MA1102511999999REMMET051METAR SBQV 032200Z 13008KT 9999 BKN006 18/17 Q1025;
0120833440999992007090323004-14950-040883FM-15+0840SBQV V0201101N005110018019N0112651N1+01701+01701999999ADDGA1071+001801999GF107991999999999999999999MA1102511999999REMMET051METAR SBQV 032300Z 11010KT 9999 BKN006 17/17 Q1025;
0166833440999992007090411004-14950-040883FM-15+0840SBQV V0201501N005710024019N0112651N1+01601+01501999999ADDGA1021+001801999GA2071+002401999GA3071+021001999GF107991999999999999999999MA1102711999999REMMET065METAR SBQV 041100Z 15011KT 9999 FEW006 BKN008 BKN070 16/15 Q1027;
0143833440999992007090412004-14950-040883FM-15+0840SBQV V0201401N007712200019N0112651N1+01801+01401999999ADDGA1041+003901999GA2041+004501999GF104991999999999999999999MA1102811999999REMMET058METAR SBQV 041200Z 14015KT 9999 SCT013 SCT015 18/14 Q1028;
0120833440999992007090413004-14950-040883FM-15+0840SBQV V0201401N008710054019N0112651N1+02101+01501999999ADDGA1071+005401999GF107991999999999999999999MA1102711999999REMMET051METAR SBQV 041300Z 14017KT 9999 BKN018 21/15 Q1027;
0120833440999992007090415004-14950-040883FM-15+0840SBQV V0201001N007712200019N0112651N1+02201+01301999999ADDGA1041+006001999GF104991999999999999999999MA1102611999999REMMET051METAR SBQV 041500Z 10015KT 9999 SCT020 22/13 Q1026;
0143833440999992007090416004-14950-040883FM-15+0840SBQV V0201401N006710210019N0112651N1+02201+01401999999ADDGA1041+006001999GA2071+021001999GF107991999999999999999999MA1102611999999REMMET058METAR SBQV 041600Z 14013KT 9999 SCT020 BKN070 22/14 Q1026;
0184833440999992007090417004-14950-040883FM-15+0840SBQV V0201301N006710045019N0050001N1+02001+01601999999ADDGA1041+002701999GA2071+004501999GA3071+021001999GF107991999999999999999999MA1102511999999MW1511MW2611REMMET071METAR SBQV 041700Z 13013KT 5000 -RADZ SCT009 BKN015 BKN070 20/16 Q1025;
0166833440999992007090418004-14950-040883FM-15+0840SBQV V0201001N00461004501CN0112651N1+02001+01501999999ADDGA1021+002401999GA2041+004501999GA3071+004801999GF107991999999999999999999MA1102511999999REMMET065METAR SBQV 041800Z 10009KT 9999 FEW008 SCT015 BKN016 20/15 Q1025;
0143833440999992007090419004-14950-040883FM-15+0840SBQV V0201301N005712200019N0112651N1+02101+01501999999ADDGA1041+004501999GA2041+021001999GF104991999999999999999999MA1102401999999REMMET058METAR SBQV 041900Z 13011KT 9999 SCT015 SCT070 21/15 Q1024;
0143833440999992007090420004-14950-040883FM-15+0840SBQV V0201301N003112200019N0112651N1+02001+01601999999ADDGA1041+004501999GA2041+021001999GF104991999999999999999999MA1102401999999REMMET058METAR SBQV 042000Z 13006KT 9999 SCT015 SCT070 20/16 Q1024;
0143833440999992007090421004-14950-040883FM-15+0840SBQV V0201301N003110210019N0112651N1+01701+01601999999ADDGA1021+002101999GA2071+021001999GF107991999999999999999999MA1102511999999REMMET058METAR SBQV 042100Z 13006KT 9999 FEW007 BKN070 17/16 Q1025;
0143833440999992007090422004-14950-040883FM-15+0840SBQV V0201201N005110021019N0112651N1+01701+01601999999ADDGA1071+002101999GA2071+021001999GF107991999999999999999999MA1102511999999REMMET058METAR SBQV 042200Z 12010KT 9999 BKN007 BKN070 17/16 Q1025;
0143833440999992007090611004-14950-040883FM-15+0840SBQV V0201301N005112200019N0112651N1+01601+01501999999ADDGA1021+003001999GA2041+004501999GF104991999999999999999999MA1102711999999REMMET058METAR SBQV 061100Z 13010KT 9999 FEW010 SCT015 16/15 Q1027;
0143833440999992007090613004-14950-040883FM-15+0840SBQV V0201301N007710060019N0112651N1+02001+01401999999ADDGA1021+004801999GA2071+006001999GF107991999999999999999999MA1102811999999REMMET058METAR SBQV 061300Z 13015KT 9999 FEW016 BKN020 20/14 Q1028;
0120833440999992007090614004-14950-040883FM-15+0840SBQV V0201301N007210060019N0112651N1+02101+01401999999ADDGA1071+006001999GF107991999999999999999999MA1102711999999REMMET051METAR SBQV 061400Z 13014KT 9999 BKN020 21/14 Q1027;
0120833440999992007090615004-14950-040883FM-15+0840SBQV V0201301N007710060019N0112651N1+02201+01401999999ADDGA1071+006001999GF107991999999999999999999MA1102611999999REMMET051METAR SBQV 061500Z 13015KT 9999 BKN020 22/14 Q1026;
0120833440999992007090616004-14950-040883FM-15+0840SBQV V0201201N005112200019N0112651N1+02301+01401999999ADDGA1041+007501999GF104991999999999999999999MA1102511999999REMMET051METAR SBQV 061600Z 12010KT 9999 SCT025 23/14 Q1025;
0120833440999992007090617004-14950-040883FM-15+0840SBQV V0201001N005112200019N0112651N1+02201+01301999999ADDGA1041+007501999GF104991999999999999999999MA1102401999999REMMET051METAR SBQV 061700Z 10010KT 9999 SCT025 22/13 Q1024;
0120833440999992007090618004-14950-040883FM-15+0840SBQV V0201001N004612200019N0112651N1+02401+01401999999ADDGA1041+007501999GF104991999999999999999999MA1102301999999REMMET051METAR SBQV 061800Z 10009KT 9999 SCT025 24/14 Q1023;
0120833440999992007090619004-14950-040883FM-15+0840SBQV V0201101N005112200019N0112651N1+02401+01501999999ADDGA1041+007501999GF104991999999999999999999MA1102301999999REMMET051METAR SBQV 061900Z 11010KT 9999 SCT025 24/15 Q1023;
0120833440999992007090620004-14950-040883FM-15+0840SBQV V0201301N005712200019N0112651N1+02201+01501999999ADDGA1021+006001999GF102991999999999999999999MA1102401999999REMMET051METAR SBQV 062000Z 13011KT 9999 FEW020 22/15 Q1024;
0120833440999992007090621004-14950-040883FM-15+0840SBQV V0201301N004612200019N0112651N1+02001+01601999999ADDGA1021+005401999GF102991999999999999999999MA1102401999999REMMET051METAR SBQV 062100Z 13009KT 9999 FEW018 20/16 Q1024;
0120833440999992007090622004-14950-040883FM-15+0840SBQV V0201001N006712200019N0112651N1+01901+01601999999ADDGA1021+004801999GF102991999999999999999999MA1102511999999REMMET051METAR SBQV 062200Z 10013KT 9999 FEW016 19/16 Q1025;
0137833440999992007090711004-14950-040883FM-15+0840SBQV V0201701N006710015019N0080001N1+01701+01601999999ADDGA1081+001501999GF108991999999999999999999MA1102511999999MW1511REMMET062METAR SBQV 071100Z 17013KT 8000 3000SE -DZ OVC005 17/16 Q1025;
0120833440999992007090712004-14950-040883FM-15+0840SBQV V0201601N007210027019N0112651N1+01701+01501999999ADDGA1071+002701999GF107991999999999999999999MA1102611999999REMMET051METAR SBQV 071200Z 16014KT 9999 BKN009 17/15 Q1026;
0136833440999992007090713004-14950-040883FM-15+0840SBQV V0201501N005710033019N0112651N1+01901+01501999999ADDGA1071+003301999GF107991999999999999999999MA1102611999999MW1611REMMET061METAR SBQV 071300Z 15011KT 9999 4000S -RA BKN011 19/15 Q1026;
0120833440999992007090714004-14950-040883FM-15+0840SBQV V0201801N005710033019N0112651N1+01901+01601999999ADDGA1071+003301999GF107991999999999999999999MA1102611999999REMMET051METAR SBQV 071400Z 18011KT 9999 BKN011 19/16 Q1026;
0143833440999992007090715004-14950-040883FM-15+0840SBQV V0201501N005712200019N0112651N1+02001+01601999999ADDGA1041+003901999GA2041+004801999GF104991999999999999999999MA1102511999999REMMET058METAR SBQV 071500Z 15011KT 9999 SCT013 SCT016 20/16 Q1025;
0143833440999992007090716004-14950-040883FM-15+0840SBQV V0201801N005112200019N0112651N1+02001+01601999999ADDGA1021+004501999GA2041+004801999GF104991999999999999999999MA1102401999999REMMET058METAR SBQV 071600Z 18010KT 9999 FEW015 SCT016 20/16 Q1024;
0143833440999992007090717004-14950-040883FM-15+0840SBQV V0201301N006212200019N0112651N1+02101+01601999999ADDGA1021+004501999GA2041+005401999GF104991999999999999999999MA1102301999999REMMET058METAR SBQV 071700Z 13012KT 9999 FEW015 SCT018 21/16 Q1023;
0120833440999992007090718004-14950-040883FM-15+0840SBQV V0201301N007212200019N0112651N1+02201+01501999999ADDGA1041+005401999GF104991999999999999999999MA1102301999999REMMET051METAR SBQV 071800Z 13014KT 9999 SCT018 22/15 Q1023;
0120833440999992007090719004-14950-040883FM-15+0840SBQV V0201301N008212200019N0112651N1+02101+01501999999ADDGA1021+005401999GF102991999999999999999999MA1102301999999REMMET051METAR SBQV 071900Z 13016KT 9999 FEW018 21/15 Q1023;
0120833440999992007090720004-14950-040883FM-15+0840SBQV V0201301N006212200019N0112651N1+02001+01401999999ADDGA1021+003901999GF102991999999999999999999MA1102301999999REMMET051METAR SBQV 072000Z 13012KT 9999 FEW013 20/14 Q1023;
0120833440999992007090721004-14950-040883FM-15+0840SBQV V0201301N004112200019N0112651N1+01901+01501999999ADDGA1021+004501999GF102991999999999999999999MA1102301999999REMMET051METAR SBQV 072100Z 13008KT 9999 FEW015 19/15 Q1023;
0072833440999992007090722004-14950-040883FM-15+0840SBQV V0201501N00311220001CN0099001N1+01801+01401999999ADDMA1102301999999REMMET045METAR SBQV 072200Z 15006KT CAVOK 18/14 Q1023;
0072833440999992007090723004-14950-040883FM-15+0840SBQV V0201301N00511220001CN0099001N1+01701+01501999999ADDMA1102401999999REMMET045METAR SBQV 072300Z 13010KT CAVOK 17/15 Q1024;
0120833440999992007090811004-14950-040883FM-15+0840SBQV V0201001N007210021019N0112651N1+01701+01401999999ADDGA1071+002101999GF107991999999999999999999MA1102401999999REMMET051METAR SBQV 081100Z 10014KT 9999 BKN007 17/14 Q1024;
0143833440999992007090812004-14950-040883FM-15+0840SBQV V0201001N005110033019N0112651N1+01701+01601999999ADDGA1041+002101999GA2071+003301999GF107991999999999999999999MA1102511999999REMMET058METAR SBQV 081200Z 10010KT 9999 SCT007 BKN011 17/16 Q1025;
0120833440999992007090813004-14950-040883FM-15+0840SBQV V0201301N007210033019N0112651N1+01701+01501999999ADDGA1071+003301999GF107991999999999999999999MA1102511999999REMMET051METAR SBQV 081300Z 13014KT 9999 BKN011 17/15 Q1025;
0120833440999992007090814004-14950-040883FM-15+0840SBQV V0201301N007712200019N0112651N1+01901+01401999999ADDGA1041+003901999GF104991999999999999999999MA1102511999999REMMET051METAR SBQV 081400Z 13015KT 9999 SCT013 19/14 Q1025;
0120833440999992007090815004-14950-040883FM-15+0840SBQV V0201301N006210048019N0112651N1+02101+01501999999ADDGA1071+004801999GF107991999999999999999999MA1102401999999REMMET051METAR SBQV 081500Z 13012KT 9999 BKN016 21/15 Q1024;
0143833440999992007090816004-14950-040883FM-15+0840SBQV V0201601N005112200019N0112651N1+02201+01301999999ADDGA1021+007501999GA2041+027001999GF104991999999999999999999MA1102301999999REMMET058METAR SBQV 081600Z 16010KT 9999 FEW025 SCT090 22/13 Q1023;
0143833440999992007090817004-14950-040883FM-15+0840SBQV V0201801N007210270019N0112651N1+02201+01301999999ADDGA1021+007501999GA2071+027001999GF107991999999999999999999MA1102201999999REMMET058METAR SBQV 081700Z 18014KT 9999 FEW025 BKN090 22/13 Q1022;
0143833440999992007090818004-14950-040883FM-15+0840SBQV V0201401N005110270019N0112651N1+02201+01301999999ADDGA1021+007501999GA2071+027001999GF107991999999999999999999MA1102101999999REMMET058METAR SBQV 081800Z 14010KT 9999 FEW025 BKN090 22/13 Q1021;
0143833440999992007090819004-14950-040883FM-15+0840SBQV V0201301N006210240019N0112651N1+02201+01301999999ADDGA1021+007501999GA2071+024001999GF107991999999999999999999MA1102101999999REMMET058METAR SBQV 081900Z 13012KT 9999 FEW025 BKN080 22/13 Q1021;
0143833440999992007090820004-14950-040883FM-15+0840SBQV V0201001N004110240019N0112651N1+02101+01301999999ADDGA1021+006001999GA2071+024001999GF107991999999999999999999MA1102101999999REMMET058METAR SBQV 082000Z 10008KT 9999 FEW020 BKN080 21/13 Q1021;
0072833440999992007090821004-14950-040883FM-15+0840SBQV V0201301N00411220001CN0099001N1+02001+01301999999ADDMA1102201999999REMMET045METAR SBQV 082100Z 13008KT CAVOK 20/13 Q1022;
0072833440999992007090822004-14950-040883FM-15+0840SBQV V0201001N00511220001CN0099001N1+01901+01401999999ADDMA1102201999999REMMET045METAR SBQV 082200Z 10010KT CAVOK 19/14 Q1022;
0143833440999992007090911004-14950-040883FM-15+0840SBQV V0201101N003110045019N0112651N1+01701+01401999999ADDGA1041+002701999GA2071+004501999GF107991999999999999999999MA1102401999999REMMET058METAR SBQV 091100Z 11006KT 9999 SCT009 BKN015 17/14 Q1024;
0120833440999992007090912004-14950-040883FM-15+0840SBQV V0201301N005710048019N0112651N1+01901+01401999999ADDGA1071+004801999GF107991999999999999999999MA1102401999999REMMET051METAR SBQV 091200Z 13011KT 9999 BKN016 19/14 Q1024;
0120833440999992007090913004-14950-040883FM-15+0840SBQV V0201101N007710060019N0112651N1+02001+01401999999ADDGA1071+006001999GF107991999999999999999999MA1102401999999REMMET051METAR SBQV 091300Z 11015KT 9999 BKN020 20/14 Q1024;
0120833440999992007090914004-14950-040883FM-15+0840SBQV V0201301N005112200019N0112651N1+02201+01401999999ADDGA1041+007501999GF104991999999999999999999MA1102401999999REMMET051METAR SBQV 091400Z 13010KT 9999 SCT025 22/14 Q1024;
0120833440999992007090915004-14950-040883FM-15+0840SBQV V0201001N005110075019N0112651N1+02201+01401999999ADDGA1071+007501999GF107991999999999999999999MA1102301999999REMMET051METAR SBQV 091500Z 10010KT 9999 BKN025 22/14 Q1023;
0120833440999992007090916004-14950-040883FM-15+0840SBQV V0201501N005110075019N0112651N1+02201+01401999999ADDGA1071+007501999GF107991999999999999999999MA1102201999999REMMET051METAR SBQV 091600Z 15010KT 9999 BKN025 22/14 Q1022;
0136833440999992007090917004-14950-040883FM-15+0840SBQV V0201701N00511220001CN0112651N1+02201+01401999999ADDGA1071+007501999GA2041+027001999MA1102101999999REMMET058METAR SBQV 091700Z 17010KT 9999 BKN025 SCT090 22/14 Q1021;EQDQ01+000042SCOTCV
0143833440999992007090918004-14950-040883FM-15+0840SBQV V0201601N005710270019N0112651N1+02201+01401999999ADDGA1041+007501999GA2071+027001999GF107991999999999999999999MA1102101999999REMMET058METAR SBQV 091800Z 16011KT 9999 SCT025 BKN090 22/14 Q1021;
0143833440999992007090919004-14950-040883FM-15+0840SBQV V0201401N005710270019N0112651N1+02201+01401999999ADDGA1021+007501999GA2071+027001999GF107991999999999999999999MA1102001999999REMMET058METAR SBQV 091900Z 14011KT 9999 FEW025 BKN090 22/14 Q1020;
0143833440999992007090920004-14950-040883FM-15+0840SBQV V0201401N006710270019N0112651N1+02101+01301999999ADDGA1021+004801999GA2071+027001999GF107991999999999999999999MA1102101999999REMMET058METAR SBQV 092000Z 14013KT 9999 FEW016 BKN090 21/13 Q1021;
0143833440999992007090921004-14950-040883FM-15+0840SBQV V0201501N006212200019N0112651N1+01901+01401999999ADDGA1021+004801999GA2041+027001999GF104991999999999999999999MA1102101999999REMMET058METAR SBQV 092100Z 15012KT 9999 FEW016 SCT090 19/14 Q1021;
0120833440999992007090922004-14950-040883FM-15+0840SBQV V0201501N006712200019N0112651N1+01801+01401999999ADDGA1021+004501999GF102991999999999999999999MA1102201999999REMMET051METAR SBQV 092200Z 15013KT 9999 FEW015 18/14 Q1022;
0120833440999992007090923004-14950-040883FM-15+0840SBQV V0201501N005712200019N0112651N1+01701+01401999999ADDGA1021+003001999GF102991999999999999999999MA1102301999999REMMET051METAR SBQV 092300Z 15011KT 9999 FEW010 17/14 Q1023;
0143833440999992007091011004-14950-040883FM-15+0840SBQV V0201501N005112200019N0112651N1+01601+01601999999ADDGA1041+001801999GA2041+002701999GF104991999999999999999999MA1102401999999REMMET058METAR SBQV 101100Z 15010KT 9999 SCT006 SCT009 16/16 Q1024;
0143833440999992007091012004-14950-040883FM-15+0840SBQV V0201501N006212200019N0112651N1+01701+01601999999ADDGA1021+002101999GA2041+003001999GF104991999999999999999999MA1102511999999REMMET058METAR SBQV 101200Z 15012KT 9999 FEW007 SCT010 17/16 Q1025;
0143833440999992007091013004-14950-040883FM-15+0840SBQV V0201301N004110048019N0112651N1+01801+01501999999ADDGA1041+003601999GA2071+004801999GF107991999999999999999999MA1102511999999REMMET058METAR SBQV 101300Z 13008KT 9999 SCT012 BKN016 18/15 Q1025;
0120833440999992007091014004-14950-040883FM-15+0840SBQV V0201501N005110054019N0112651N1+02001+01501999999ADDGA1071+005401999GF107991999999999999999999MA1102511999999REMMET051METAR SBQV 101400Z 15010KT 9999 BKN018 20/15 Q1025;
0130833440999992007091015004-14950-040883FM-15+0840SBQV V0201601N005110054019N0112651N1+02001+01601999999ADDGA1071+005401999GF107991999999999999999999MA1102401999999MW1611REMMET055METAR SBQV 101500Z 16010KT 9999 -RA BKN018 20/16 Q1024;
0120833440999992007091016004-14950-040883FM-15+0840SBQV V0201601N006212200019N0112651N1+02201+01501999999ADDGA1041+005401999GF104991999999999999999999MA1102301999999REMMET051METAR SBQV 101600Z 16012KT 9999 SCT018 22/15 Q1023;
0120833440999992007091017004-14950-040883FM-15+0840SBQV V0201601N006212200019N0112651N1+02301+01601999999ADDGA1041+006001999GF104991999999999999999999MA1102201999999REMMET051METAR SBQV 101700Z 16012KT 9999 SCT020 23/16 Q1022;
0120833440999992007091018004-14950-040883FM-15+0840SBQV V0201401N006212200019N0112651N1+02401+01101999999ADDGA1021+006001999GF102991999999999999999999MA1102101999999REMMET051METAR SBQV 101800Z 14012KT 9999 FEW020 24/11 Q1021;
0120833440999992007091019004-14950-040883FM-15+0840SBQV V0201401N007712200019N0112651N1+02301+01101999999ADDGA1021+006001999GF102991999999999999999999MA1102101999999REMMET051METAR SBQV 101900Z 14015KT 9999 FEW020 23/11 Q1021;
0120833440999992007091020004-14950-040883FM-15+0840SBQV V0201601N006212200019N0112651N1+02101+01701999999ADDGA1021+006001999GF102991999999999999999999MA1102101999999REMMET051METAR SBQV 102000Z 16012KT 9999 FEW020 21/17 Q1021;
0143833440999992007091021004-14950-040883FM-15+0840SBQV V0201601N003110045019N0112651N1+01901+01701999999ADDGA1041+002701999GA2071+004501999GF107991999999999999999999MA1102201999999REMMET058METAR SBQV 102100Z 16006KT 9999 SCT009 BKN015 19/17 Q1022;
0120833440999992007091022004-14950-040883FM-15+0840SBQV V0201401N007212200019N0112651N1+01801+01501999999ADDGA1041+002401999GF104991999999999999999999MA1102301999999REMMET051METAR SBQV 102200Z 14014KT 9999 SCT008 18/15 Q1023;
0143833440999992007091111004-14950-040883FM-15+0840SBQV V0201301N007210045019N0112651N1+01701+01401999999ADDGA1041+002701999GA2071+004501999GF107991999999999999999999MA1102511999999REMMET058METAR SBQV 111100Z 13014KT 9999 SCT009 BKN015 17/14 Q1025;
0120833440999992007091112004-14950-040883FM-15+0840SBQV V0201301N008212200019N0112651N1+02001+01301999999ADDGA1021+007501999GF102991999999999999999999MA1102511999999REMMET051METAR SBQV 111200Z 13016KT 9999 FEW025 20/13 Q1025;
0120833440999992007091113004-14950-040883FM-15+0840SBQV V0201001N008712200019N0112651N1+02101+01401999999ADDGA1021+007501999GF102991999999999999999999MA1102511999999REMMET051METAR SBQV 111300Z 10017KT 9999 FEW025 21/14 Q1025;
0120833440999992007091114004-14950-040883FM-15+0840SBQV V0201001N005112200019N0112651N1+02301+01301999999ADDGA1021+009001999GF102991999999999999999999MA1102401999999REMMET051METAR SBQV 111400Z 10010KT 9999 FEW030 23/13 Q1024;
0120833440999992007091115004-14950-040883FM-15+0840SBQV V0201301N007212200019N0112651N1+02401+01201999999ADDGA1021+009001999GF102991999999999999999999MA1102401999999REMMET051METAR SBQV 111500Z 13014KT 9999 FEW030 24/12 Q1024;
0120833440999992007091116004-14950-040883FM-15+0840SBQV V0201401N005712200019N0112651N1+02401+01301999999ADDGA1041+009001999GF104991999999999999999999MA1102301999999REMMET051METAR SBQV 111600Z 14011KT 9999 SCT030 24/13 Q1023;
0120833440999992007091117004-14950-040883FM-15+0840SBQV V0201001N006212200019N0112651N1+02401+01301999999ADDGA1041+009001999GF104991999999999999999999MA1102201999999REMMET051METAR SBQV 111700Z 10012KT 9999 SCT030 24/13 Q1022;
0120833440999992007091118004-14950-040883FM-15+0840SBQV V0201601N005112200019N0112651N1+02301+01301999999ADDGA1041+009001999GF104991999999999999999999MA1102101999999REMMET051METAR SBQV 111800Z 16010KT 9999 SCT030 23/13 Q1021;
0120833440999992007091119004-14950-040883FM-15+0840SBQV V0201301N006212200019N0112651N1+02401+01201999999ADDGA1021+007501999GF102991999999999999999999MA1102101999999REMMET051METAR SBQV 111900Z 13012KT 9999 FEW025 24/12 Q1021;
0120833440999992007091120004-14950-040883FM-15+0840SBQV V0201301N005712200019N0112651N1+02201+01301999999ADDGA1021+007501999GF102991999999999999999999MA1102201999999REMMET051METAR SBQV 112000Z 13011KT 9999 FEW025 22/13 Q1022;
0120833440999992007091121004-14950-040883FM-15+0840SBQV V0201301N009312200019N0112651N1+02001+01401999999ADDGA1021+006001999GF102991999999999999999999MA1102301999999REMMET051METAR SBQV 112100Z 13018KT 9999 FEW020 20/14 Q1023;
0120833440999992007091122004-14950-040883FM-15+0840SBQV V0201301N005112200019N0112651N1+01801+01501999999ADDGA1021+003601999GF102991999999999999999999MA1102301999999REMMET051METAR SBQV 112200Z 13010KT 9999 FEW012 18/15 Q1023;
0120833440999992007091211004-14950-040883FM-15+0840SBQV V0201501N004612200019N0112651N1+01801+01201999999ADDGA1021+004801999GF102991999999999999999999MA1102611999999REMMET051METAR SBQV 121100Z 15009KT 9999 FEW016 18/12 Q1026;
0120833440999992007091212004-14950-040883FM-15+0840SBQV V0201401N005112200019N0112651N1+01801+01001999999ADDGA1041+004801999GF104991999999999999999999MA1102611999999REMMET051METAR SBQV 121200Z 14010KT 9999 SCT016 18/10 Q1026;
0120833440999992007091213004-14950-040883FM-15+0840SBQV V0201301N006712200019N0112651N1+02101+01001999999ADDGA1041+006001999GF104991999999999999999999MA1102611999999REMMET051METAR SBQV 121300Z 13013KT 9999 SCT020 21/10 Q1026;
0120833440999992007091214004-14950-040883FM-15+0840SBQV V0201401N006712200019N0112651N1+02101+01101999999ADDGA1041+006001999GF104991999999999999999999MA1102511999999REMMET051METAR SBQV 121400Z 14013KT 9999 SCT020 21/11 Q1025;
0120833440999992007091215004-14950-040883FM-15+0840SBQV V0201201N006212200019N0112651N1+02301+01101999999ADDGA1041+006001999GF104991999999999999999999MA1102401999999REMMET051METAR SBQV 121500Z 12012KT 9999 SCT020 23/11 Q1024;
0120833440999992007091216004-14950-040883FM-15+0840SBQV V0201401N006710060019N0112651N1+02201+01101999999ADDGA1071+006001999GF107991999999999999999999MA1102301999999REMMET051METAR SBQV 121600Z 14013KT 9999 BKN020 22/11 Q1023;
0120833440999992007091217004-14950-040883FM-15+0840SBQV V0201001N008210075019N0112651N1+02301+00901999999ADDGA1071+007501999GF107991999999999999999999MA1102201999999REMMET051METAR SBQV 121700Z 10016KT 9999 BKN025 23/09 Q1022;
0120833440999992007091218004-14950-040883FM-15+0840SBQV V0201301N004112200019N0112651N1+02301+01001999999ADDGA1041+009001999GF104991999999999999999999MA1102201999999REMMET051METAR SBQV 121800Z 13008KT 9999 SCT030 23/10 Q1022;
0120833440999992007091219004-14950-040883FM-15+0840SBQV V0201301N007212200019N0112651N1+02201+01101999999ADDGA1041+009001999GF104991999999999999999999MA1102201999999REMMET051METAR SBQV 121900Z 13014KT 9999 SCT030 22/11 Q1022;
0120833440999992007091220004-14950-040883FM-15+0840SBQV V0201001N007212200019N0112651N1+02201+01001999999ADDGA1021+007501999GF102991999999999999999999MA1102201999999REMMET051METAR SBQV 122000Z 10014KT 9999 FEW025 22/10 Q1022;
0120833440999992007091221004-14950-040883FM-15+0840SBQV V0201001N003112200019N0112651N1+02001+01201999999ADDGA1021+006001999GF102991999999999999999999MA1102201999999REMMET051METAR SBQV 122100Z 10006KT 9999 FEW020 20/12 Q1022;
0072833440999992007091222004-14950-040883FM-15+0840SBQV V0200901N00621220001CN0099001N1+01901+01201999999ADDMA1102201999999REMMET045METAR SBQV 122200Z 09012KT CAVOK 19/12 Q1022;
0143833440999992007091311004-14950-040883FM-15+0840SBQV V0201301N007210021019N0112651N1+01701+01601999999ADDGA1021+001501999GA2071+002101999GF107991999999999999999999MA1102301999999REMMET058METAR SBQV 131100Z 13014KT 9999 FEW005 BKN007 17/16 Q1023;
0143833440999992007091312004-14950-040883FM-15+0840SBQV V0201401N007212200019N0112651N1+01701+01601999999ADDGA1041+002101999GA2041+004501999GF104991999999999999999999MA1102401999999REMMET058METAR SBQV 131200Z 14014KT 9999 SCT007 SCT015 17/16 Q1024;
0143833440999992007091313004-14950-040883FM-15+0840SBQV V0201401N008210048019N0112651N1+02001+01501999999ADDGA1021+003001999GA2071+004801999GF107991999999999999999999MA1102401999999REMMET058METAR SBQV 131300Z 14016KT 9999 FEW010 BKN016 20/15 Q1024;
0143833440999992007091314004-14950-040883FM-15+0840SBQV V0201501N005110048019N0112651N1+01901+01601999999ADDGA1021+003001999GA2071+004801999GF107991999999999999999999MA1102401999999REMMET058METAR SBQV 131400Z 15010KT 9999 FEW010 BKN016 19/16 Q1024;
0136833440999992007091315004-14950-040883FM-15+0840SBQV V0201401N00411220001CN0112651N1+02101+01601999999ADDGA1071+005401999GA2041+024001999MA1102301999999REMMET058METAR SBQV 131500Z 14008KT 9999 BKN018 SCT080 21/16 Q1023;EQDQ01+000042SCOTCV
0162833440999992007091316004-14950-040883FM-15+0840SBQV V0201501N006210240019N0112651N1+02001+01601999999ADDGA1041+003001999GA2071+024001999GF107991999999999999999999MA1102301999999MW1801REMMET071METAR SBQV 131600Z 15012KT 9999 3000SE -SHRA SCT010 BKN080 20/16 Q1023;
0143833440999992007091317004-14950-040883FM-15+0840SBQV V0201301N003610060019N0112651N1+02101+01501999999ADDGA1071+006001999GA2071+024001999GF107991999999999999999999MA1102201999999REMMET058METAR SBQV 131700Z 13007KT 9999 BKN020 BKN080 21/15 Q1022;
0143833440999992007091318004-14950-040883FM-15+0840SBQV V0201301N003110240019N0112651N1+02101+01501999999ADDGA1021+004501999GA2071+024001999GF107991999999999999999999MA1102101999999REMMET058METAR SBQV 131800Z 13006KT 9999 FEW015 BKN080 21/15 Q1021;
0143833440999992007091319004-14950-040883FM-15+0840SBQV V0201301N006210240019N0112651N1+02101+01501999999ADDGA1021+006001999GA2071+024001999GF107991999999999999999999MA1102101999999REMMET058METAR SBQV 131900Z 13012KT 9999 FEW020 BKN080 21/15 Q1021;
0143833440999992007091320004-14950-040883FM-15+0840SBQV V0201301N001010240019N0112651N1+02001+01501999999ADDGA1021+006001999GA2071+024001999GF107991999999999999999999MA1102101999999REMMET058METAR SBQV 132000Z 13002KT 9999 FEW020 BKN080 20/15 Q1021;
0143833440999992007091321004-14950-040883FM-15+0840SBQV V0201301N006710240019N0112651N1+01901+01401999999ADDGA1021+004801999GA2071+024001999GF107991999999999999999999MA1102101999999REMMET058METAR SBQV 132100Z 13013KT 9999 FEW016 BKN080 19/14 Q1021;
0072833440999992007091322004-14950-040883FM-15+0840SBQV V0201201N00151220001CN0099001N1+01801+01501999999ADDMA1102101999999REMMET045METAR SBQV 132200Z 12003KT CAVOK 18/15 Q1021;
0072833440999992007091323004-14950-040883FM-15+0840SBQV V0201101N00511220001CN0099001N1+01701+01401999999ADDMA1102201999999REMMET045METAR SBQV 132300Z 11010KT CAVOK 17/14 Q1022;
0072833440999992007091400004-14950-040883FM-15+0840SBQV V0201301N00311220001CN0099001N1+01601+01301999999ADDMA1102201999999REMMET045METAR SBQV 140000Z 13006KT CAVOK 16/13 Q1022;
0120833440999992007091411004-14950-040883FM-15+0840SBQV V0201301N005110045019N0112651N1+01701+01201999999ADDGA1071+004501999GF107991999999999999999999MA1102301999999REMMET051METAR SBQV 141100Z 13010KT 9999 BKN015 17/12 Q1023;
0143833440999992007091412004-14950-040883FM-15+0840SBQV V0201301N004110045019N0112651N1+01701+01301999999ADDGA1021+002701999GA2071+004501999GF107991999999999999999999MA1102401999999REMMET058METAR SBQV 141200Z 13008KT 9999 FEW009 BKN015 17/13 Q1024;
0120833440999992007091413004-14950-040883FM-15+0840SBQV V0201201N005710060019N0112651N1+01901+01301999999ADDGA1071+006001999GF107991999999999999999999MA1102401999999REMMET051METAR SBQV 141300Z 12011KT 9999 BKN020 19/13 Q1024;
0120833440999992007091414004-14950-040883FM-15+0840SBQV V0201301N005110060019N0112651N1+01901+01301999999ADDGA1071+006001999GF107991999999999999999999MA1102401999999REMMET051METAR SBQV 141400Z 13010KT 9999 BKN020 19/13 Q1024;
0120833440999992007091415004-14950-040883FM-15+0840SBQV V0201301N005710075019N0112651N1+02101+01401999999ADDGA1071+007501999GF107991999999999999999999MA1102301999999REMMET051METAR SBQV 141500Z 13011KT 9999 BKN025 21/14 Q1023;
0120833440999992007091416004-14950-040883FM-15+0840SBQV V0201401N004110075019N0112651N1+02201+01301999999ADDGA1071+007501999GF107991999999999999999999MA1102201999999REMMET051METAR SBQV 141600Z 14008KT 9999 BKN025 22/13 Q1022;
0143833440999992007091417004-14950-040883FM-15+0840SBQV V0201601N004610240019N0112651N1+02201+01301999999ADDGA1041+007501999GA2071+024001999GF107991999999999999999999MA1102101999999REMMET058METAR SBQV 141700Z 16009KT 9999 SCT025 BKN080 22/13 Q1021;
0143833440999992007091418004-14950-040883FM-15+0840SBQV V0201701N005110240019N0112651N1+02201+01301999999ADDGA1021+007501999GA2071+024001999GF107991999999999999999999MA1102001999999REMMET058METAR SBQV 141800Z 17010KT 9999 FEW025 BKN080 22/13 Q1020;
0143833440999992007091419004-14950-040883FM-15+0840SBQV V0201601N005110240019N0112651N1+02201+01201999999ADDGA1021+007501999GA2071+024001999GF107991999999999999999999MA1102001999999REMMET058METAR SBQV 141900Z 16010KT 9999 FEW025 BKN080 22/12 Q1020;
0143833440999992007091420004-14950-040883FM-15+0840SBQV V0201501N005110240019N0112651N1+02101+01301999999ADDGA1021+006001999GA2071+024001999GF107991999999999999999999MA1102001999999REMMET058METAR SBQV 142000Z 15010KT 9999 FEW020 BKN080 21/13 Q1020;
0143833440999992007091421004-14950-040883FM-15+0840SBQV V0201401N003110240019N0112651N1+02001+01201999999ADDGA1021+006001999GA2071+024001999GF107991999999999999999999MA1102101999999REMMET058METAR SBQV 142100Z 14006KT 9999 FEW020 BKN080 20/12 Q1021;
0072833440999992007091422004-14950-040883FM-15+0840SBQV V0201401N00311220001CN0099001N1+01901+01201999999ADDMA1102101999999REMMET045METAR SBQV 142200Z 14006KT CAVOK 19/12 Q1021;
0120833440999992007091511004-14950-040883FM-15+0840SBQV V0201001N003110048019N0112651N1+01701+01301999999ADDGA1071+004801999GF107991999999999999999999MA1102201999999REMMET051METAR SBQV 151100Z 10006KT 9999 BKN016 17/13 Q1022;
0120833440999992007091512004-14950-040883FM-15+0840SBQV V0201001N000510060019N0112651N1+01801+01301999999ADDGA1071+006001999GF107991999999999999999999MA1102301999999REMMET051METAR SBQV 151200Z 10001KT 9999 BKN020 18/13 Q1023;
0120833440999992007091513004-14950-040883FM-15+0840SBQV V0201601N002610060019N0112651N1+01901+01301999999ADDGA1071+006001999GF107991999999999999999999MA1102301999999REMMET051METAR SBQV 151300Z 16005KT 9999 BKN020 19/13 Q1023;
0120833440999992007091514004-14950-040883FM-15+0840SBQV V0201301N001010075019N0112651N1+02101+01301999999ADDGA1071+007501999GF107991999999999999999999MA1102201999999REMMET051METAR SBQV 151400Z 13002KT 9999 BKN025 21/13 Q1022;
0120833440999992007091515004-14950-040883FM-15+0840SBQV V0201501N003112200019N0112651N1+02301+01301999999ADDGA1041+007501999GF104991999999999999999999MA1102101999999REMMET051METAR SBQV 151500Z 15006KT 9999 SCT025 23/13 Q1021;
0120833440999992007091516004-14950-040883FM-15+0840SBQV V0209999C000012200019N0112651N1+02401+01301999999ADDGA1041+007501999GF104991999999999999999999MA1102001999999REMMET051METAR SBQV 151600Z 00000KT 9999 SCT025 24/13 Q1020;
0120833440999992007091517004-14950-040883FM-15+0840SBQV V0209999C000012200019N0112651N1+02501+01101999999ADDGA1021+009001999GF102991999999999999999999MA1101901999999REMMET051METAR SBQV 151700Z 00000KT 9999 FEW030 25/11 Q1019;
0120833440999992007091518004-14950-040883FM-15+0840SBQV V0201301N004112200019N0112651N1+02501+01201999999ADDGA1021+009001999GF102991999999999999999999MA1101801999999REMMET051METAR SBQV 151800Z 13008KT 9999 FEW030 25/12 Q1018;
0120833440999992007091519004-14950-040883FM-15+0840SBQV V0201301N004112200019N0112651N1+02501+01301999999ADDGA1021+009001999GF102991999999999999999999MA1101801999999REMMET051METAR SBQV 151900Z 13008KT 9999 FEW030 25/13 Q1018;
0120833440999992007091520004-14950-040883FM-15+0840SBQV V0201401N008212200019N0112651N1+02301+01301999999ADDGA1021+007501999GF102991999999999999999999MA1101801999999REMMET051METAR SBQV 152000Z 14016KT 9999 FEW025 23/13 Q1018;
0120833440999992007091521004-14950-040883FM-15+0840SBQV V0201301N003112200019N0112651N1+02101+01301999999ADDGA1021+006001999GF102991999999999999999999MA1101901999999REMMET051METAR SBQV 152100Z 13006KT 9999 FEW020 21/13 Q1019;
0072833440999992007091522004-14950-040883FM-15+0840SBQV V0201301N00311220001CN0099001N1+02001+01301999999ADDMA1101901999999REMMET045METAR SBQV 152200Z 13006KT CAVOK 20/13 Q1019;
0120833440999992007091611004-14950-040883FM-15+0840SBQV V0200701N001012200019N0112651N1+01901+01601999999ADDGA1021+004801999GF102991999999999999999999MA1102101999999REMMET051METAR SBQV 161100Z 07002KT 9999 FEW016 19/16 Q1021;
0120833440999992007091612004-14950-040883FM-15+0840SBQV V0209999C000012200019N0112651N1+02101+01401999999ADDGA1041+005401999GF104991999999999999999999MA1102101999999REMMET051METAR SBQV 161200Z 00000KT 9999 SCT018 21/14 Q1021;
0120833440999992007091613004-14950-040883FM-15+0840SBQV V0200101N001012200019N0112651N1+02301+01401999999ADDGA1041+006001999GF104991999999999999999999MA1102101999999REMMET051METAR SBQV 161300Z 01002KT 9999 SCT020 23/14 Q1021;
0143833440999992007091614004-14950-040883FM-15+0840SBQV V0202901N001010900019N0112651N1+02401+01301999999ADDGA1041+007501999GA2071+090001999GF107991999999999999999999MA1102001999999REMMET058METAR SBQV 161400Z 29002KT 9999 SCT025 BKN300 24/13 Q1020;
0120833440999992007091615004-14950-040883FM-15+0840SBQV V0201501N001012200019N0112651N1+02501+01301999999ADDGA1021+007501999GF102991999999999999999999MA1101901999999REMMET051METAR SBQV 161500Z 15002KT 9999 FEW025 25/13 Q1019;
0120833440999992007091616004-14950-040883FM-15+0840SBQV V0201701N001012200019N0112651N1+02601+01201999999ADDGA1021+009001999GF102991999999999999999999MA1101801999999REMMET051METAR SBQV 161600Z 17002KT 9999 FEW030 26/12 Q1018;
0120833440999992007091617004-14950-040883FM-15+0840SBQV V0201601N002112200019N0112651N1+02801+01201999999ADDGA1021+009001999GF102991999999999999999999MA1101691999999REMMET051METAR SBQV 161700Z 16004KT 9999 FEW030 28/12 Q1017;
0143833440999992007091618004-14950-040883FM-15+0840SBQV V0201301N002612200019N0112651N1+02901+01301999999ADDGA1021+010501999GA2041+090001999GF104991999999999999999999MA1101591999999REMMET058METAR SBQV 161800Z 13005KT 9999 FEW035 SCT300 29/13 Q1016;
0143833440999992007091619004-14950-040883FM-15+0840SBQV V0201601N005712200019N0112651N1+02701+01501999999ADDGA1021+010501999GA2041+090001999GF104991999999999999999999MA1101591999999REMMET058METAR SBQV 161900Z 16011KT 9999 FEW035 SCT300 27/15 Q1016;
0120833440999992007091620004-14950-040883FM-15+0840SBQV V0201301N004112200019N0112651N1+02601+01501999999ADDGA1021+009001999GF102991999999999999999999MA1101691999999REMMET051METAR SBQV 162000Z 13008KT 9999 FEW030 26/15 Q1017;
0120833440999992007091621004-14950-040883FM-15+0840SBQV V0201601N003612200019N0112651N1+02401+01501999999ADDGA1021+006001999GF102991999999999999999999MA1101691999999REMMET051METAR SBQV 162100Z 16007KT 9999 FEW020 24/15 Q1017;
0072833440999992007091622004-14950-040883FM-15+0840SBQV V0201001N00261220001CN0099001N1+02201+01501999999ADDMA1101801999999REMMET045METAR SBQV 162200Z 10005KT CAVOK 22/15 Q1018;
0072833440999992007091711004-14950-040883FM-15+0840SBQV V0209999C00001220001CN0099001N1+02201+01701999999ADDMA1102001999999REMMET045METAR SBQV 171100Z 00000KT CAVOK 22/17 Q1020;
0072833440999992007091712004-14950-040883FM-15+0840SBQV V0209999C00001220001CN0099001N1+02401+01601999999ADDMA1102101999999REMMET045METAR SBQV 171200Z 00000KT CAVOK 24/16 Q1021;
0072833440999992007091713004-14950-040883FM-15+0840SBQV V0209999C00001220001CN0099001N1+02701+01501999999ADDMA1102001999999REMMET045METAR SBQV 171300Z 00000KT CAVOK 27/15 Q1020;
0120833440999992007091714004-14950-040883FM-15+0840SBQV V0201601N004612200019N0112651N1+02901+01001999999ADDGA1021+007501999GF102991999999999999999999MA1102001999999REMMET051METAR SBQV 171400Z 16009KT 9999 FEW025 29/10 Q1020;
0120833440999992007091715004-14950-040883FM-15+0840SBQV V0201501N006712200019N0112651N1+03001+01301999999ADDGA1021+007501999GF102991999999999999999999MA1101901999999REMMET051METAR SBQV 171500Z 15013KT 9999 FEW025 30/13 Q1019;
0120833440999992007091716004-14950-040883FM-15+0840SBQV V0201601N005112200019N0112651N1+02901+01201999999ADDGA1021+009001999GF102991999999999999999999MA1101801999999REMMET051METAR SBQV 171600Z 16010KT 9999 FEW030 29/12 Q1018;
0120833440999992007091717004-14950-040883FM-15+0840SBQV V0201601N006212200019N0112651N1+02901+01101999999ADDGA1021+009001999GF102991999999999999999999MA1101801999999REMMET051METAR SBQV 171700Z 16012KT 9999 FEW030 29/11 Q1018;
0120833440999992007091718004-14950-040883FM-15+0840SBQV V0201401N005712200019N0112651N1+02901+01201999999ADDGA1021+009001999GF102991999999999999999999MA1101691999999REMMET051METAR SBQV 171800Z 14011KT 9999 FEW030 29/12 Q1017;
0120833440999992007091719004-14950-040883FM-15+0840SBQV V0201401N006212200019N0112651N1+02801+01301999999ADDGA1021+009001999GF102991999999999999999999MA1101801999999REMMET051METAR SBQV 171900Z 14012KT 9999 FEW030 28/13 Q1018;
0120833440999992007091720004-14950-040883FM-15+0840SBQV V0201301N007212200019N0112651N1+02601+01401999999ADDGA1021+007501999GF102991999999999999999999MA1101801999999REMMET051METAR SBQV 172000Z 13014KT 9999 FEW025 26/14 Q1018;
0072833440999992007091721004-14950-040883FM-15+0840SBQV V0201301N00511220001CN0099001N1+02401+01401999999ADDMA1101801999999REMMET045METAR SBQV 172100Z 13010KT CAVOK 24/14 Q1018;
0072833440999992007091722004-14950-040883FM-15+0840SBQV V0201301N00621220001CN0099001N1+02301+01301999999ADDMA1101901999999REMMET045METAR SBQV 172200Z 13012KT CAVOK 23/13 Q1019;
0072833440999992007091723004-14950-040883FM-15+0840SBQV V0201301N00571220001CN0099001N1+02201+01401999999ADDMA1102001999999REMMET045METAR SBQV 172300Z 13011KT CAVOK 22/14 Q1020;
0143833440999992007091811004-14950-040883FM-15+0840SBQV V0201401N006210045019N0112651N1+01901+01401999999ADDGA1041+003001999GA2071+004501999GF107991999999999999999999MA1102401999999REMMET058METAR SBQV 181100Z 14012KT 9999 SCT010 BKN015 19/14 Q1024;
0143833440999992007091812004-14950-040883FM-15+0840SBQV V0201301N009310045019N0112651N1+02001+01401999999ADDGA1041+003301999GA2071+004501999GF107991999999999999999999MA1102511999999REMMET058METAR SBQV 181200Z 13018KT 9999 SCT011 BKN015 20/14 Q1025;
0120833440999992007091813004-14950-040883FM-15+0840SBQV V0201501N006210048019N0112651N1+02201+01401999999ADDGA1071+004801999GF107991999999999999999999MA1102511999999REMMET051METAR SBQV 181300Z 15012KT 9999 BKN016 22/14 Q1025;
0120833440999992007091814004-14950-040883FM-15+0840SBQV V0201301N006212200019N0112651N1+02401+01301999999ADDGA1041+005401999GF104991999999999999999999MA1102401999999REMMET051METAR SBQV 181400Z 13012KT 9999 SCT018 24/13 Q1024;
0120833440999992007091815004-14950-040883FM-15+0840SBQV V0201501N006210060019N0112651N1+02501+01401999999ADDGA1071+006001999GF107991999999999999999999MA1102301999999REMMET051METAR SBQV 181500Z 15012KT 9999 BKN020 25/14 Q1023;
0143833440999992007091816004-14950-040883FM-15+0840SBQV V0201001N006212200019N0112651N1+02501+01401999999ADDGA1041+006001999GA2041+090001999GF104991999999999999999999MA1102201999999REMMET058METAR SBQV 181600Z 10012KT 9999 SCT020 SCT300 25/14 Q1022;
0143833440999992007091817004-14950-040883FM-15+0840SBQV V0201301N005712200019N0112651N1+02601+01401999999ADDGA1041+007501999GA2041+090001999GF104991999999999999999999MA1102101999999REMMET058METAR SBQV 181700Z 13011KT 9999 SCT025 SCT300 26/14 Q1021;
0143833440999992007091818004-14950-040883FM-15+0840SBQV V0201301N007212200019N0112651N1+02601+01501999999ADDGA1041+007501999GA2041+090001999GF104991999999999999999999MA1102001999999REMMET058METAR SBQV 181800Z 13014KT 9999 SCT025 SCT300 26/15 Q1020;
0143833440999992007091819004-14950-040883FM-15+0840SBQV V0201301N007210900019N0112651N1+02501+01501999999ADDGA1021+006001999GA2071+090001999GF107991999999999999999999MA1102001999999REMMET058METAR SBQV 181900Z 13014KT 9999 FEW020 BKN300 25/15 Q1020;
0143833440999992007091820004-14950-040883FM-15+0840SBQV V0201301N006710900019N0112651N1+02401+01401999999ADDGA1021+006001999GA2071+090001999GF107991999999999999999999MA1102101999999REMMET058METAR SBQV 182000Z 13013KT 9999 FEW020 BKN300 24/14 Q1021;
0143833440999992007091821004-14950-040883FM-15+0840SBQV V0201201N004612200019N0112651N1+02201+01501999999ADDGA1021+005401999GA2041+090001999GF104991999999999999999999MA1102101999999REMMET058METAR SBQV 182100Z 12009KT 9999 FEW018 SCT300 22/15 Q1021;
0143833440999992007091822004-14950-040883FM-15+0840SBQV V0201301N005712200019N0112651N1+02001+01601999999ADDGA1021+004801999GA2041+090001999GF104991999999999999999999MA1102201999999REMMET058METAR SBQV 182200Z 13011KT 9999 FEW016 SCT300 20/16 Q1022;
0120833440999992007091823004-14950-040883FM-15+0840SBQV V0201301N007712200019N0112651N1+01901+01501999999ADDGA1021+002401999GF102991999999999999999999MA1102301999999REMMET051METAR SBQV 182300Z 13015KT 9999 FEW008 19/15 Q1023;
0136833440999992007091911004-14950-040883FM-15+0840SBQV V0201401N00361220001CN0112651N1+01701+01401999999ADDGA1071+003001999GA2041+021001999MA1102401999999REMMET058METAR SBQV 191100Z 14007KT 9999 BKN010 SCT070 17/14 Q1024;EQDQ01+000042SCOTCV
0143833440999992007091912004-14950-040883FM-15+0840SBQV V0201401N005112200019N0112651N1+01801+01401999999ADDGA1021+003901999GA2041+004501999GF104991999999999999999999MA1102401999999REMMET058METAR SBQV 191200Z 14010KT 9999 FEW013 SCT015 18/14 Q1024;
0143833440999992007091913004-14950-040883FM-15+0840SBQV V0201701N004610240019N0112651N1+02001+01401999999ADDGA1021+005401999GA2071+024001999GF107991999999999999999999MA1102401999999REMMET058METAR SBQV 191300Z 17009KT 9999 FEW018 BKN080 20/14 Q1024;
0143833440999992007091914004-14950-040883FM-15+0840SBQV V0201401N004610240019N0112651N1+02101+01401999999ADDGA1021+006001999GA2071+024001999GF107991999999999999999999MA1102401999999REMMET058METAR SBQV 191400Z 14009KT 9999 FEW020 BKN080 21/14 Q1024;
0120833440999992007091915004-14950-040883FM-15+0840SBQV V0201101N002610060019N0112651N1+02201+01301999999ADDGA1071+006001999GF107991999999999999999999MA1102301999999REMMET051METAR SBQV 191500Z 11005KT 9999 BKN020 22/13 Q1023;
0120833440999992007091916004-14950-040883FM-15+0840SBQV V0201301N005110060019N0112651N1+02401+01201999999ADDGA1071+006001999GF107991999999999999999999MA1102201999999REMMET051METAR SBQV 191600Z 13010KT 9999 BKN020 24/12 Q1022;
0120833440999992007091917004-14950-040883FM-15+0840SBQV V0201201N005112200019N0112651N1+02401+01101999999ADDGA1041+006001999GF104991999999999999999999MA1102101999999REMMET051METAR SBQV 191700Z 12010KT 9999 SCT020 24/11 Q1021;
0120833440999992007091918004-14950-040883FM-15+0840SBQV V0201101N006712200019N0112651N1+02401+01301999999ADDGA1021+006001999GF102991999999999999999999MA1102001999999REMMET051METAR SBQV 191800Z 11013KT 9999 FEW020 24/13 Q1020;
0120833440999992007091919004-14950-040883FM-15+0840SBQV V0201301N005112200019N0112651N1+02401+01401999999ADDGA1021+006001999GF102991999999999999999999MA1102001999999REMMET051METAR SBQV 191900Z 13010KT 9999 FEW020 24/14 Q1020;
0072833440999992007091920004-14950-040883FM-15+0840SBQV V0201301N00621220001CN0099001N1+02301+01201999999ADDMA1102101999999REMMET045METAR SBQV 192000Z 13012KT CAVOK 23/12 Q1021;
0072833440999992007091921004-14950-040883FM-15+0840SBQV V0201001N00511220001CN0099001N1+02101+01101999999ADDMA1102101999999REMMET045METAR SBQV 192100Z 10010KT CAVOK 21/11 Q1021;
0072833440999992007091922004-14950-040883FM-15+0840SBQV V0201001N00261220001CN0099001N1+02001+01101999999ADDMA1102101999999REMMET045METAR SBQV 192200Z 10005KT CAVOK 20/11 Q1021;
0072833440999992007091923004-14950-040883FM-15+0840SBQV V0201301N00461220001CN0099001N1+01801+01101999999ADDMA1102201999999REMMET045METAR SBQV 192300Z 13009KT CAVOK 18/11 Q1022;
0120833440999992007092011004-14950-040883FM-15+0840SBQV V0201101N004612200019N0112651N1+01901+01101999999ADDGA1021+004501999GF102991999999999999999999MA1102201999999REMMET051METAR SBQV 201100Z 11009KT 9999 FEW015 19/11 Q1022;
0120833440999992007092012004-14950-040883FM-15+0840SBQV V0201201N005112200019N0112651N1+02101+01001999999ADDGA1021+004801999GF102991999999999999999999MA1102201999999REMMET051METAR SBQV 201200Z 12010KT 9999 FEW016 21/10 Q1022;
0120833440999992007092013004-14950-040883FM-15+0840SBQV V0200801N004612200019N0112651N1+02201+01201999999ADDGA1021+005401999GF102991999999999999999999MA1102201999999REMMET051METAR SBQV 201300Z 08009KT 9999 FEW018 22/12 Q1022;
0120833440999992007092014004-14950-040883FM-15+0840SBQV V0200801N004112200019N0112651N1+02301+01101999999ADDGA1021+006001999GF102991999999999999999999MA1102201999999REMMET051METAR SBQV 201400Z 08008KT 9999 FEW020 23/11 Q1022;
0120833440999992007092015004-14950-040883FM-15+0840SBQV V0201501N004112200019N0112651N1+02501+01001999999ADDGA1021+006001999GF102991999999999999999999MA1102101999999REMMET051METAR SBQV 201500Z 15008KT 9999 FEW020 25/10 Q1021;
0120833440999992007092016004-14950-040883FM-15+0840SBQV V0201001N003612200019N0112651N1+02501+01201999999ADDGA1021+007501999GF102991999999999999999999MA1102001999999REMMET051METAR SBQV 201600Z 10007KT 9999 FEW025 25/12 Q1020;
0072833440999992007092017004-14950-040883FM-15+0840SBQV V0201001N00571220001CN0099001N1+02601+01201999999ADDMA1101901999999REMMET045METAR SBQV 201700Z 10011KT CAVOK 26/12 Q1019;
0072833440999992007092018004-14950-040883FM-15+0840SBQV V0201001N00411220001CN0099001N1+02501+00901999999ADDMA1101901999999REMMET045METAR SBQV 201800Z 10008KT CAVOK 25/09 Q1019;
0072833440999992007092019004-14950-040883FM-15+0840SBQV V0201201N00721220001CN0099001N1+02501+01001999999ADDMA1101901999999REMMET045METAR SBQV 201900Z 12014KT CAVOK 25/10 Q1019;
0072833440999992007092020004-14950-040883FM-15+0840SBQV V0201001N00511220001CN0099001N1+02301+01001999999ADDMA1101901999999REMMET045METAR SBQV 202000Z 10010KT CAVOK 23/10 Q1019;
0072833440999992007092021004-14950-040883FM-15+0840SBQV V0201301N00411220001CN0099001N1+02101+01101999999ADDMA1102001999999REMMET045METAR SBQV 202100Z 13008KT CAVOK 21/11 Q1020;
0072833440999992007092022004-14950-040883FM-15+0840SBQV V0201301N00311220001CN0099001N1+02101+01201999999ADDMA1102001999999REMMET045METAR SBQV 202200Z 13006KT CAVOK 21/12 Q1020;
0072833440999992007092023004-14950-040883FM-15+0840SBQV V0201301N00311220001CN0099001N1+01901+01001999999ADDMA1102001999999REMMET045METAR SBQV 202300Z 13006KT CAVOK 19/10 Q1020;
0072833440999992007092100004-14950-040883FM-15+0840SBQV V0201001N00311220001CN0099001N1+01701+01101999999ADDMA1102101999999REMMET045METAR SBQV 210000Z 10006KT CAVOK 17/11 Q1021;
0072833440999992007092101004-14950-040883FM-15+0840SBQV V0201301N00411220001CN0099001N1+01701+01301999999ADDMA1102101999999REMMET045METAR SBQV 210100Z 13008KT CAVOK 17/13 Q1021;
0143833440999992007092111004-14950-040883FM-15+0840SBQV V0201001N003610045019N0112651N1+01701+01401999999ADDGA1041+002701999GA2071+004501999GF107991999999999999999999MA1102201999999REMMET058METAR SBQV 211100Z 10007KT 9999 SCT009 BKN015 17/14 Q1022;
0120833440999992007092112004-14950-040883FM-15+0840SBQV V0201001N003110048019N0112651N1+01801+01401999999ADDGA1071+004801999GF107991999999999999999999MA1102301999999REMMET051METAR SBQV 211200Z 10006KT 9999 BKN016 18/14 Q1023;
0120833440999992007092113004-14950-040883FM-15+0840SBQV V0201201N002610060019N0112651N1+02001+01401999999ADDGA1071+006001999GF107991999999999999999999MA1102301999999REMMET051METAR SBQV 211300Z 12005KT 9999 BKN020 20/14 Q1023;
0120833440999992007092114004-14950-040883FM-15+0840SBQV V0201001N002612200019N0112651N1+02301+01301999999ADDGA1041+007501999GF104991999999999999999999MA1102201999999REMMET051METAR SBQV 211400Z 10005KT 9999 SCT025 23/13 Q1022;
0120833440999992007092115004-14950-040883FM-15+0840SBQV V0209999C000012200019N0112651N1+02601+01301999999ADDGA1021+010501999GF102991999999999999999999MA1102101999999REMMET051METAR SBQV 211500Z 00000KT 9999 FEW035 26/13 Q1021;
0120833440999992007092116004-14950-040883FM-15+0840SBQV V0201601N003110105019N0112651N1+02601+01301999999ADDGA1071+010501999GF107991999999999999999999MA1102001999999REMMET051METAR SBQV 211600Z 16006KT 9999 BKN035 26/13 Q1020;
0143833440999992007092117004-14950-040883FM-15+0840SBQV V0201601N004112200019N0112651N1+02701+01401999999ADDGA1041+010501999GA2041+090001999GF104991999999999999999999MA1101901999999REMMET058METAR SBQV 211700Z 16008KT 9999 SCT035 SCT300 27/14 Q1019;
0143833440999992007092118004-14950-040883FM-15+0840SBQV V0201601N005712200019N0112651N1+02601+01401999999ADDGA1021+010501999GA2041+090001999GF104991999999999999999999MA1101901999999REMMET058METAR SBQV 211800Z 16011KT 9999 FEW035 SCT300 26/14 Q1019;
0143833440999992007092119004-14950-040883FM-15+0840SBQV V0201501N006212200019N0112651N1+02601+01301999999ADDGA1021+010501999GA2041+090001999GF104991999999999999999999MA1101901999999REMMET058METAR SBQV 211900Z 15012KT 9999 FEW035 SCT300 26/13 Q1019;
0143833440999992007092120004-14950-040883FM-15+0840SBQV V0201001N006712200019N0112651N1+02401+01301999999ADDGA1021+007501999GA2041+090001999GF104991999999999999999999MA1102001999999REMMET058METAR SBQV 212000Z 10013KT 9999 FEW025 SCT300 24/13 Q1020;
0120833440999992007092121004-14950-040883FM-15+0840SBQV V0201101N002612200019N0112651N1+02201+01301999999ADDGA1021+006001999GF102991999999999999999999MA1102001999999REMMET051METAR SBQV 212100Z 11005KT 9999 FEW020 22/13 Q1020;
0072833440999992007092122004-14950-040883FM-15+0840SBQV V0201101N00311220001CN0099001N1+02001+01401999999ADDMA1102101999999REMMET045METAR SBQV 212200Z 11006KT CAVOK 20/14 Q1021;
0072833440999992007092123004-14950-040883FM-15+0840SBQV V0201201N00261220001CN0099001N1+02001+01301999999ADDMA1102101999999REMMET045METAR SBQV 212300Z 12005KT CAVOK 20/13 Q1021;
0120833440999992007092211004-14950-040883FM-15+0840SBQV V0200801N004612200019N0112651N1+01901+01401999999ADDGA1041+003901999GF104991999999999999999999MA1102401999999REMMET051METAR SBQV 221100Z 08009KT 9999 SCT013 19/14 Q1024;
0120833440999992007092212004-14950-040883FM-15+0840SBQV V0201001N003112200019N0112651N1+02101+01401999999ADDGA1041+004501999GF104991999999999999999999MA1102401999999REMMET051METAR SBQV 221200Z 10006KT 9999 SCT015 21/14 Q1024;
0120833440999992007092213004-14950-040883FM-15+0840SBQV V0201001N001012200019N0112651N1+02301+01301999999ADDGA1041+004801999GF104991999999999999999999MA1102301999999REMMET051METAR SBQV 221300Z 10002KT 9999 SCT016 23/13 Q1023;
0120833440999992007092214004-14950-040883FM-15+0840SBQV V0201001N001512200019N0112651N1+02501+01201999999ADDGA1041+005401999GF104991999999999999999999MA1102201999999REMMET051METAR SBQV 221400Z 10003KT 9999 SCT018 25/12 Q1022;
0120833440999992007092215004-14950-040883FM-15+0840SBQV V0200701N004112200019N0112651N1+02601+01001999999ADDGA1041+006001999GF104991999999999999999999MA1102101999999REMMET051METAR SBQV 221500Z 07008KT 9999 SCT020 26/10 Q1021;
0120833440999992007092216004-14950-040883FM-15+0840SBQV V0200901N001012200019N0112651N1+02801+00901999999ADDGA1021+007501999GF102991999999999999999999MA1102001999999REMMET051METAR SBQV 221600Z 09002KT 9999 FEW025 28/09 Q1020;
0120833440999992007092217004-14950-040883FM-15+0840SBQV V0200701N003112200019N0112651N1+02801+00601999999ADDGA1021+009001999GF102991999999999999999999MA1101901999999REMMET051METAR SBQV 221700Z 07006KT 9999 FEW030 28/06 Q1019;
0120833440999992007092218004-14950-040883FM-15+0840SBQV V0201501N004612200019N0112651N1+02801+01401999999ADDGA1021+007501999GF102991999999999999999999MA1101801999999REMMET051METAR SBQV 221800Z 15009KT 9999 FEW025 28/14 Q1018;
0120833440999992007092219004-14950-040883FM-15+0840SBQV V0201201N004612200019N0112651N1+02701+01501999999ADDGA1021+007501999GF102991999999999999999999MA1101801999999REMMET051METAR SBQV 221900Z 12009KT 9999 FEW025 27/15 Q1018;
0120833440999992007092220004-14950-040883FM-15+0840SBQV V0201001N005712200019N0112651N1+02501+01501999999ADDGA1021+006001999GF102991999999999999999999MA1101801999999REMMET051METAR SBQV 222000Z 10011KT 9999 FEW020 25/15 Q1018;
0120833440999992007092221004-14950-040883FM-15+0840SBQV V0201201N003612200019N0112651N1+02301+01301999999ADDGA1021+005401999GF102991999999999999999999MA1101901999999REMMET051METAR SBQV 222100Z 12007KT 9999 FEW018 23/13 Q1019;
0120833440999992007092222004-14950-040883FM-15+0840SBQV V0201001N002612200019N0112651N1+02101+01401999999ADDGA1021+004501999GF102991999999999999999999MA1102001999999REMMET051METAR SBQV 222200Z 10005KT 9999 FEW015 21/14 Q1020;
0072833440999992007092223004-14950-040883FM-15+0840SBQV V0201001N00771220001CN0099001N1+02101+01501999999ADDMA1102001999999REMMET045METAR SBQV 222300Z 10015KT CAVOK 21/15 Q1020;
0072833440999992007092300004-14950-040883FM-15+0840SBQV V0201001N00571220001CN0099001N1+01901+01701999999ADDMA1102101999999REMMET045METAR SBQV 230000Z 10011KT CAVOK 19/17 Q1021;
0143833440999992007092311004-14950-040883FM-15+0840SBQV V0200701N006210045019N0112651N1+02001+01301999999ADDGA1041+003601999GA2071+004501999GF107991999999999999999999MA1102201999999REMMET058METAR SBQV 231100Z 07012KT 9999 SCT012 BKN015 20/13 Q1022;
0143833440999992007092312004-14950-040883FM-15+0840SBQV V0200701N005110045019N0112651N1+02001+01301999999ADDGA1041+003601999GA2071+004501999GF107991999999999999999999MA1102301999999REMMET058METAR SBQV 231200Z 07010KT 9999 SCT012 BKN015 20/13 Q1023;
0120833440999992007092313004-14950-040883FM-15+0840SBQV V0200601N007710054019N0112651N1+02301+01301999999ADDGA1071+005401999GF107991999999999999999999MA1102201999999REMMET051METAR SBQV 231300Z 06015KT 9999 BKN018 23/13 Q1022;
0120833440999992007092314004-14950-040883FM-15+0840SBQV V0200701N006210060019N0112651N1+02501+01101999999ADDGA1071+006001999GF107991999999999999999999MA1102101999999REMMET051METAR SBQV 231400Z 07012KT 9999 BKN020 25/11 Q1021;
0120833440999992007092315004-14950-040883FM-15+0840SBQV V0200501N001012200019N0112651N1+02501+01201999999ADDGA1041+007501999GF104991999999999999999999MA1102001999999REMMET051METAR SBQV 231500Z 05002KT 9999 SCT025 25/12 Q1020;
0120833440999992007092316004-14950-040883FM-15+0840SBQV V0200701N001012200019N0112651N1+02701+01301999999ADDGA1021+007501999GF102991999999999999999999MA1101901999999REMMET051METAR SBQV 231600Z 07002KT 9999 FEW025 27/13 Q1019;
0120833440999992007092317004-14950-040883FM-15+0840SBQV V0200401N003112200019N0112651N1+02801+01201999999ADDGA1041+007501999GF104991999999999999999999MA1101691999999REMMET051METAR SBQV 231700Z 04006KT 9999 SCT025 28/12 Q1017;
0120833440999992007092318004-14950-040883FM-15+0840SBQV V0201101N004612200019N0112651N1+02801+01301999999ADDGA1041+009001999GF104991999999999999999999MA1101691999999REMMET051METAR SBQV 231800Z 11009KT 9999 SCT030 28/13 Q1017;
0120833440999992007092319004-14950-040883FM-15+0840SBQV V0201501N005712200019N0112651N1+02601+01401999999ADDGA1041+007501999GF104991999999999999999999MA1101691999999REMMET051METAR SBQV 231900Z 15011KT 9999 SCT025 26/14 Q1017;
0120833440999992007092320004-14950-040883FM-15+0840SBQV V0201001N005112200019N0112651N1+02501+01401999999ADDGA1021+006001999GF102991999999999999999999MA1101801999999REMMET051METAR SBQV 232000Z 10010KT 9999 FEW020 25/14 Q1018;
0120833440999992007092321004-14950-040883FM-15+0840SBQV V0201001N001512200019N0112651N1+02301+01401999999ADDGA1021+005401999GF102991999999999999999999MA1101801999999REMMET051METAR SBQV 232100Z 10003KT 9999 FEW018 23/14 Q1018;
0072833440999992007092322004-14950-040883FM-15+0840SBQV V0201001N00461220001CN0099001N1+02201+01501999999ADDMA1101901999999REMMET045METAR SBQV 232200Z 10009KT CAVOK 22/15 Q1019;
0120833440999992007092411004-14950-040883FM-15+0840SBQV V0200301N009812200019N0112651N1+02001+01501999999ADDGA1021+004501999GF102991999999999999999999MA1102101999999REMMET051METAR SBQV 241100Z 03019KT 9999 FEW015 20/15 Q1021;
0072833440999992007092412004-14950-040883FM-15+0840SBQV V0200401N00461220001CN0099001N1+02401+01501999999ADDMA1102101999999REMMET045METAR SBQV 241200Z 04009KT CAVOK 24/15 Q1021;
0072833440999992007092413004-14950-040883FM-15+0840SBQV V0200201N00511220001CN0099001N1+02601+01501999999ADDMA1102101999999REMMET045METAR SBQV 241300Z 02010KT CAVOK 26/15 Q1021;
0072833440999992007092414004-14950-040883FM-15+0840SBQV V0200401N00361220001CN0099001N1+02701+01501999999ADDMA1102001999999REMMET045METAR SBQV 241400Z 04007KT CAVOK 27/15 Q1020;
0072833440999992007092415004-14950-040883FM-15+0840SBQV V0200501N00311220001CN0099001N1+02901+01401999999ADDMA1101901999999REMMET045METAR SBQV 241500Z 05006KT CAVOK 29/14 Q1019;
0072833440999992007092416004-14950-040883FM-15+0840SBQV V0209999C00001220001CN0099001N1+02901+01301999999ADDMA1101801999999REMMET045METAR SBQV 241600Z 00000KT CAVOK 29/13 Q1018;
0120833440999992007092417004-14950-040883FM-15+0840SBQV V0209999C000012200019N0112651N1+03001+01301999999ADDGA1021+009001999GF102991999999999999999999MA1101691999999REMMET051METAR SBQV 241700Z 00000KT 9999 FEW030 30/13 Q1017;
0120833440999992007092418004-14950-040883FM-15+0840SBQV V0209999C000012200019N0112651N1+03101+01401999999ADDGA1021+009001999GF102991999999999999999999MA1101591999999REMMET051METAR SBQV 241800Z 00000KT 9999 FEW030 31/14 Q1016;
0120833440999992007092419004-14950-040883FM-15+0840SBQV V0209999C000012200019N0112651N1+03101+01501999999ADDGA1021+009001999GF102991999999999999999999MA1101591999999REMMET051METAR SBQV 241900Z 00000KT 9999 FEW030 31/15 Q1016;
0120833440999992007092420004-14950-040883FM-15+0840SBQV V0201301N006212200019N0112651N1+02901+01601999999ADDGA1021+009001999GF102991999999999999999999MA1101591999999REMMET051METAR SBQV 242000Z 13012KT 9999 FEW030 29/16 Q1016;
0072833440999992007092421004-14950-040883FM-15+0840SBQV V0200701N00411220001CN0099001N1+02601+01701999999ADDMA1101691999999REMMET045METAR SBQV 242100Z 07008KT CAVOK 26/17 Q1017;
0072833440999992007092422004-14950-040883FM-15+0840SBQV V0201001N00151220001CN0099001N1+02401+01801999999ADDMA1101801999999REMMET045METAR SBQV 242200Z 10003KT CAVOK 24/18 Q1018;
0072833440999992007092423004-14950-040883FM-15+0840SBQV V0200701N00411220001CN0099001N1+02301+01701999999ADDMA1101801999999REMMET045METAR SBQV 242300Z 07008KT CAVOK 23/17 Q1018;
0120833440999992007092511004-14950-040883FM-15+0840SBQV V0201501N003610045019N0112651N1+02001+01601999999ADDGA1071+004501999GF107991999999999999999999MA1102101999999REMMET051METAR SBQV 251100Z 15007KT 9999 BKN015 20/16 Q1021;
0120833440999992007092512004-14950-040883FM-15+0840SBQV V0201701N004112200019N0112651N1+02101+01601999999ADDGA1041+004801999GF104991999999999999999999MA1102201999999REMMET051METAR SBQV 251200Z 17008KT 9999 SCT016 21/16 Q1022;
0120833440999992007092513004-14950-040883FM-15+0840SBQV V0201701N005712200019N0112651N1+02201+01601999999ADDGA1041+006001999GF104991999999999999999999MA1102301999999REMMET051METAR SBQV 251300Z 17011KT 9999 SCT020 22/16 Q1023;
0120833440999992007092514004-14950-040883FM-15+0840SBQV V0201501N008210060019N0112651N1+02501+01501999999ADDGA1071+006001999GF107991999999999999999999MA1102201999999REMMET051METAR SBQV 251400Z 15016KT 9999 BKN020 25/15 Q1022;
0120833440999992007092515004-14950-040883FM-15+0840SBQV V0201401N005710060019N0112651N1+02501+01401999999ADDGA1071+006001999GF107991999999999999999999MA1102201999999REMMET051METAR SBQV 251500Z 14011KT 9999 BKN020 25/14 Q1022;
0120833440999992007092516004-14950-040883FM-15+0840SBQV V0201401N007210060019N0112651N1+02601+01401999999ADDGA1071+006001999GF107991999999999999999999MA1102101999999REMMET051METAR SBQV 251600Z 14014KT 9999 BKN020 26/14 Q1021;
0120833440999992007092517004-14950-040883FM-15+0840SBQV V0201601N007712200019N0112651N1+02701+01501999999ADDGA1041+007501999GF104991999999999999999999MA1102001999999REMMET051METAR SBQV 251700Z 16015KT 9999 SCT025 27/15 Q1020;
0136833440999992007092518004-14950-040883FM-15+0840SBQV V0201001N006210075019N0112651N1+02601+01301999999ADDGA1071+007501999GF107991999999999999999999MA1102001999999MW1041REMMET061METAR SBQV 251800Z 10012KT 9999 1000NW FU BKN025 26/13 Q1020;
0136833440999992007092520004-14950-040883FM-15+0840SBQV V0201301N006212200019N0112651N1+02501+01301999999ADDGA1021+006001999GF102991999999999999999999MA1102001999999MW1041REMMET061METAR SBQV 252000Z 13012KT 9999 1000NW FU FEW020 25/13 Q1020;
0120833440999992007092521004-14950-040883FM-15+0840SBQV V0201401N008210054019N0112651N1+02301+01601999999ADDGA1071+005401999GF107991999999999999999999MA1102101999999REMMET051METAR SBQV 252100Z 14016KT 9999 BKN018 23/16 Q1021;
0120833440999992007092522004-14950-040883FM-15+0840SBQV V0201301N008210036019N0112651N1+02001+01601999999ADDGA1071+003601999GF107991999999999999999999MA1102301999999REMMET051METAR SBQV 252200Z 13016KT 9999 BKN012 20/16 Q1023;
0120833440999992007092523004-14950-040883FM-15+0840SBQV V0201501N009310021019N0112651N1+01901+01601999999ADDGA1071+002101999GF107991999999999999999999MA1102401999999REMMET051METAR SBQV 252300Z 15018KT 9999 BKN007 19/16 Q1024;
0129833440999992007092611004-14950-040883FM-15+0840SBQV V0201501N009310015019N0030001N1+01601+01601999999ADDGA1071+001501999GF107991999999999999999999MA1102511999999MW1101REMMET054METAR SBQV 261100Z 15018KT 3000 BR BKN005 16/16 Q1025;
0152833440999992007092612004-14950-040883FM-15+0840SBQV V0201501N006210015019N0040001N1+01701+01601999999ADDGA1071+001501999GA2071+003001999GF107991999999999999999999MA1102511999999MW1101REMMET061METAR SBQV 261200Z 15012KT 4000 BR BKN005 BKN010 17/16 Q1025;
0153833440999992007092613004-14950-040883FM-15+0840SBQV V0201401N006710018019N0030001N1+01801+01701999999ADDGA1071+001801999GA2071+003001999GF107991999999999999999999MA1102611999999MW1511REMMET062METAR SBQV 261300Z 14013KT 3000 -DZ BKN006 BKN010 18/17 Q1026;
0143833440999992007092614004-14950-040883FM-15+0840SBQV V0201401N007210018019N0112651N1+01801+01701999999ADDGA1071+001801999GA2071+003001999GF107991999999999999999999MA1102611999999REMMET058METAR SBQV 261400Z 14014KT 9999 BKN006 BKN010 18/17 Q1026;
0143833440999992007092615004-14950-040883FM-15+0840SBQV V0201501N008210033019N0112651N1+01901+01701999999ADDGA1041+002101999GA2071+003301999GF107991999999999999999999MA1102511999999REMMET058METAR SBQV 261500Z 15016KT 9999 SCT007 BKN011 19/17 Q1025;
0143833440999992007092616004-14950-040883FM-15+0840SBQV V0201401N007210033019N0112651N1+02001+01601999999ADDGA1021+002101999GA2071+003301999GF107991999999999999999999MA1102401999999REMMET058METAR SBQV 261600Z 14014KT 9999 FEW007 BKN011 20/16 Q1024;
0143833440999992007092617004-14950-040883FM-15+0840SBQV V0201601N004110030019N0112651N1+01801+01701999999ADDGA1041+001801999GA2081+003001999GF108991999999999999999999MA1102301999999REMMET058METAR SBQV 261700Z 16008KT 9999 SCT006 OVC010 18/17 Q1023;
0120833440999992007092618004-14950-040883FM-15+0840SBQV V0201401N006710045019N0112651N1+02001+01701999999ADDGA1071+004501999GF107991999999999999999999MA1102201999999REMMET051METAR SBQV 261800Z 14013KT 9999 BKN015 20/17 Q1022;
0160833440999992007092619004-14950-040883FM-15+0840SBQV V0201501N007210039019N0112651N1+02001+01701999999ADDGA1021+002101999GA2071+003901999GF107991999999999999999999MA1102201999999MW1511REMMET069METAR SBQV 261900Z 15014KT 9999 6000SE -DZ FEW007 BKN013 20/17 Q1022;
0143833440999992007092620004-14950-040883FM-15+0840SBQV V0201401N005112200019N0112651N1+01901+01601999999ADDGA1041+003901999GA2041+004501999GF104991999999999999999999MA1102301999999REMMET058METAR SBQV 262000Z 14010KT 9999 SCT013 SCT015 19/16 Q1023;
0143833440999992007092711004-14950-040883FM-15+0840SBQV V0201401N005112200019N0112651N1+01701+01601999999ADDGA1021+002101999GA2041+003001999GF104991999999999999999999MA1102611999999REMMET058METAR SBQV 271100Z 14010KT 9999 FEW007 SCT010 17/16 Q1026;
0143833440999992007092712004-14950-040883FM-15+0840SBQV V0201401N006210045019N0112651N1+01901+01601999999ADDGA1041+003301999GA2071+004501999GF107991999999999999999999MA1102711999999REMMET058METAR SBQV 271200Z 14012KT 9999 SCT011 BKN015 19/16 Q1027;
0143833440999992007092713004-14950-040883FM-15+0840SBQV V0201301N007210045019N0112651N1+01901+01501999999ADDGA1021+003601999GA2071+004501999GF107991999999999999999999MA1102711999999REMMET058METAR SBQV 271300Z 13014KT 9999 FEW012 BKN015 19/15 Q1027;
0143833440999992007092714004-14950-040883FM-15+0840SBQV V0201501N007210045019N0112651N1+02001+01501999999ADDGA1021+003601999GA2071+004501999GF107991999999999999999999MA1102611999999REMMET058METAR SBQV 271400Z 15014KT 9999 FEW012 BKN015 20/15 Q1026;
0143833440999992007092715004-14950-040883FM-15+0840SBQV V0201501N006210048019N0112651N1+02101+01601999999ADDGA1021+003601999GA2071+004801999GF107991999999999999999999MA1102511999999REMMET058METAR SBQV 271500Z 15012KT 9999 FEW012 BKN016 21/16 Q1025;
0120833440999992007092716004-14950-040883FM-15+0840SBQV V0201501N006712200019N0112651N1+02101+01601999999ADDGA1041+004801999GF104991999999999999999999MA1102401999999REMMET051METAR SBQV 271600Z 15013KT 9999 SCT016 21/16 Q1024;
0120833440999992007092717004-14950-040883FM-15+0840SBQV V0201401N004610054019N0112651N1+02301+01501999999ADDGA1071+005401999GF107991999999999999999999MA1102301999999REMMET051METAR SBQV 271700Z 14009KT 9999 BKN018 23/15 Q1023;
0143833440999992007092718004-14950-040883FM-15+0840SBQV V0201001N005112200019N0112651N1+02001+01601999999ADDGA1041+003301999GA2041+005101999GF104991999999999999999999MA1102301999999REMMET058METAR SBQV 271800Z 10010KT 9999 SCT011 SCT017 20/16 Q1023;
0120833440999992007092719004-14950-040883FM-15+0840SBQV V0201101N005712200019N0112651N1+02001+01601999999ADDGA1041+003301999GF104991999999999999999999MA1102301999999REMMET051METAR SBQV 271900Z 11011KT 9999 SCT011 20/16 Q1023;
0143833440999992007092720004-14950-040883FM-15+0840SBQV V0201301N004612200019N0112651N1+02001+01501999999ADDGA1021+003301999GA2041+021001999GF104991999999999999999999MA1102301999999REMMET058METAR SBQV 272000Z 13009KT 9999 FEW011 SCT070 20/15 Q1023;
0143833440999992007092721004-14950-040883FM-15+0840SBQV V0201301N004612200019N0112651N1+01901+01501999999ADDGA1021+003001999GA2041+021001999GF104991999999999999999999MA1102301999999REMMET058METAR SBQV 272100Z 13009KT 9999 FEW010 SCT070 19/15 Q1023;
0143833440999992007092722004-14950-040883FM-15+0840SBQV V0201001N004112200019N0112651N1+01801+01501999999ADDGA1021+002401999GA2041+021001999GF104991999999999999999999MA1102301999999REMMET058METAR SBQV 272200Z 10008KT 9999 FEW008 SCT070 18/15 Q1023;
0143833440999992007092723004-14950-040883FM-15+0840SBQV V0201201N004612200019N0112651N1+01701+01501999999ADDGA1021+002101999GA2041+021001999GF104991999999999999999999MA1102401999999REMMET058METAR SBQV 272300Z 12009KT 9999 FEW007 SCT070 17/15 Q1024;
0166833440999992007092811004-14950-040883FM-15+0840SBQV V0201001N00311004501CN0112651N1+01701+01601999999ADDGA1041+002701999GA2041+004501999GA3071+024001999GF107991999999999999999999MA1102511999999REMMET065METAR SBQV 281100Z 10006KT 9999 SCT009 SCT015 BKN080 17/16 Q1025;
0176833440999992007092812004-14950-040883FM-15+0840SBQV V0201001N00411004501CN0080001N1+01701+01701999999ADDGA1041+002401999GA2041+004501999GA3071+024001999GF107991999999999999999999MA1102611999999MW1511REMMET069METAR SBQV 281200Z 10008KT 8000 -DZ SCT008 SCT015 BKN080 17/17 Q1026;
0143833440999992007092813004-14950-040883FM-15+0840SBQV V0201001N006210060019N0112651N1+02101+01701999999ADDGA1021+004801999GA2071+006001999GF107991999999999999999999MA1102611999999REMMET058METAR SBQV 281300Z 10012KT 9999 FEW016 BKN020 21/17 Q1026;
0143833440999992007092814004-14950-040883FM-15+0840SBQV V0201001N004112200019N0112651N1+02301+01601999999ADDGA1041+006001999GA2041+027001999GF104991999999999999999999MA1102511999999REMMET058METAR SBQV 281400Z 10008KT 9999 SCT020 SCT090 23/16 Q1025;
0120833440999992007092815004-14950-040883FM-15+0840SBQV V0200701N003110075019N0112651N1+02401+01401999999ADDGA1071+007501999GF107991999999999999999999MA1102401999999REMMET051METAR SBQV 281500Z 07006KT 9999 BKN025 24/14 Q1024;
0120833440999992007092816004-14950-040883FM-15+0840SBQV V0200601N002610075019N0112651N1+02501+01301999999ADDGA1071+007501999GF107991999999999999999999MA1102301999999REMMET051METAR SBQV 281600Z 06005KT 9999 BKN025 25/13 Q1023;
0120833440999992007092817004-14950-040883FM-15+0840SBQV V0201201N005110075019N0112651N1+02501+01401999999ADDGA1071+007501999GF107991999999999999999999MA1102201999999REMMET051METAR SBQV 281700Z 12010KT 9999 BKN025 25/14 Q1022;
0120833440999992007092818004-14950-040883FM-15+0840SBQV V0201301N005712200019N0112651N1+02601+01501999999ADDGA1041+007501999GF104991999999999999999999MA1102201999999REMMET051METAR SBQV 281800Z 13011KT 9999 SCT025 26/15 Q1022;
0120833440999992007092819004-14950-040883FM-15+0840SBQV V0201301N005110075019N0112651N1+02501+01501999999ADDGA1071+007501999GF107991999999999999999999MA1102201999999REMMET051METAR SBQV 281900Z 13010KT 9999 BKN025 25/15 Q1022;
0120833440999992007092820004-14950-040883FM-15+0840SBQV V0201301N003612200019N0112651N1+02301+01701999999ADDGA1041+006001999GF104991999999999999999999MA1102201999999REMMET051METAR SBQV 282000Z 13007KT 9999 SCT020 23/17 Q1022;
0120833440999992007092821004-14950-040883FM-15+0840SBQV V0201301N004612200019N0112651N1+02101+01701999999ADDGA1021+005401999GF102991999999999999999999MA1102201999999REMMET051METAR SBQV 282100Z 13009KT 9999 FEW018 21/17 Q1022;
0072833440999992007092822004-14950-040883FM-15+0840SBQV V0201101N00411220001CN0099001N1+02101+01701999999ADDMA1102301999999REMMET045METAR SBQV 282200Z 11008KT CAVOK 21/17 Q1023;
0072833440999992007092823004-14950-040883FM-15+0840SBQV V0201001N00261220001CN0099001N1+01901+01701999999ADDMA1102301999999REMMET045METAR SBQV 282300Z 10005KT CAVOK 19/17 Q1023;
0072833440999992007092911004-14950-040883FM-15+0840SBQV V0200701N00571220001CN0099001N1+02101+01501999999ADDMA1102511999999REMMET045METAR SBQV 291100Z 07011KT CAVOK 21/15 Q1025;
0120833440999992007092912004-14950-040883FM-15+0840SBQV V0201001N002612200019N0112651N1+02201+01501999999ADDGA1021+006001999GF102991999999999999999999MA1102511999999REMMET051METAR SBQV 291200Z 10005KT 9999 FEW020 22/15 Q1025;
0120833440999992007092913004-14950-040883FM-15+0840SBQV V0201201N003612200019N0112651N1+02401+01401999999ADDGA1021+007501999GF102991999999999999999999MA1102511999999REMMET051METAR SBQV 291300Z 12007KT 9999 FEW025 24/14 Q1025;
0120833440999992007092914004-14950-040883FM-15+0840SBQV V0201301N002612200019N0112651N1+02601+01501999999ADDGA1021+007501999GF102991999999999999999999MA1102401999999REMMET051METAR SBQV 291400Z 13005KT 9999 FEW025 26/15 Q1024;
0120833440999992007092915004-14950-040883FM-15+0840SBQV V0201101N006212200019N0112651N1+02601+01301999999ADDGA1021+007501999GF102991999999999999999999MA1102301999999REMMET051METAR SBQV 291500Z 11012KT 9999 FEW025 26/13 Q1023;
0120833440999992007092916004-14950-040883FM-15+0840SBQV V0201001N002612200019N0112651N1+02601+01501999999ADDGA1021+007501999GF102991999999999999999999MA1102201999999REMMET051METAR SBQV 291600Z 10005KT 9999 FEW025 26/15 Q1022;
0120833440999992007092917004-14950-040883FM-15+0840SBQV V0201301N006712200019N0112651N1+02601+01501999999ADDGA1041+007501999GF104991999999999999999999MA1102101999999REMMET051METAR SBQV 291700Z 13013KT 9999 SCT025 26/15 Q1021;
0120833440999992007092918004-14950-040883FM-15+0840SBQV V0201301N005712200019N0112651N1+02601+01401999999ADDGA1021+007501999GF102991999999999999999999MA1102101999999REMMET051METAR SBQV 291800Z 13011KT 9999 FEW025 26/14 Q1021;
0120833440999992007092919004-14950-040883FM-15+0840SBQV V0201001N006212200019N0112651N1+02601+01301999999ADDGA1021+007501999GF102991999999999999999999MA1102101999999REMMET051METAR SBQV 291900Z 10012KT 9999 FEW025 26/13 Q1021;
0072833440999992007092920004-14950-040883FM-15+0840SBQV V0201401N00461220001CN0099001N1+02401+01301999999ADDMA1102101999999REMMET045METAR SBQV 292000Z 14009KT CAVOK 24/13 Q1021;
0072833440999992007092921004-14950-040883FM-15+0840SBQV V0201201N00411220001CN0099001N1+02201+01401999999ADDMA1102201999999REMMET045METAR SBQV 292100Z 12008KT CAVOK 22/14 Q1022;
0072833440999992007092922004-14950-040883FM-15+0840SBQV V0201001N00311220001CN0099001N1+02101+01501999999ADDMA1102201999999REMMET045METAR SBQV 292200Z 10006KT CAVOK 21/15 Q1022;
0072833440999992007092923004-14950-040883FM-15+0840SBQV V0201001N00411220001CN0099001N1+02001+01501999999ADDMA1102201999999REMMET045METAR SBQV 292300Z 10008KT CAVOK 20/15 Q1022;
0072833440999992007093000004-14950-040883FM-15+0840SBQV V0201001N00511220001CN0099001N1+02001+01501999999ADDMA1102301999999REMMET045METAR SBQV 300000Z 10010KT CAVOK 20/15 Q1023;
0072833440999992007093001004-14950-040883FM-15+0840SBQV V0201101N00411220001CN0099001N1+01801+01501999999ADDMA1102401999999REMMET045METAR SBQV 300100Z 11008KT CAVOK 18/15 Q1024;
0072833440999992007093002004-14950-040883FM-15+0840SBQV V0201201N00361220001CN0099001N1+01701+01501999999ADDMA1102401999999REMMET045METAR SBQV 300200Z 12007KT CAVOK 17/15 Q1024;
0143833440999992007093011004-14950-040883FM-15+0840SBQV V0201301N004112200019N0112651N1+01901+01601999999ADDGA1041+003901999GA2041+021001999GF104991999999999999999999MA1102401999999REMMET058METAR SBQV 301100Z 13008KT 9999 SCT013 SCT070 19/16 Q1024;
0120833440999992007093012004-14950-040883FM-15+0840SBQV V0201001N005110045019N0112651N1+02101+01501999999ADDGA1071+004501999GF107991999999999999999999MA1102511999999REMMET051METAR SBQV 301200Z 10010KT 9999 BKN015 21/15 Q1025;
0120833440999992007093013004-14950-040883FM-15+0840SBQV V0201001N005110045019N0112651N1+02101+01401999999ADDGA1071+004501999GF107991999999999999999999MA1102511999999REMMET051METAR SBQV 301300Z 10010KT 9999 BKN015 21/14 Q1025;
0120833440999992007093014004-14950-040883FM-15+0840SBQV V0201301N006710048019N0112651N1+02201+01501999999ADDGA1071+004801999GF107991999999999999999999MA1102401999999REMMET051METAR SBQV 301400Z 13013KT 9999 BKN016 22/15 Q1024;
0120833440999992007093015004-14950-040883FM-15+0840SBQV V0201301N005110054019N0112651N1+02201+01501999999ADDGA1071+005401999GF107991999999999999999999MA1102301999999REMMET051METAR SBQV 301500Z 13010KT 9999 BKN018 22/15 Q1023;
0120833440999992007093016004-14950-040883FM-15+0840SBQV V0201301N006710060019N0112651N1+02401+01501999999ADDGA1071+006001999GF107991999999999999999999MA1102301999999REMMET051METAR SBQV 301600Z 13013KT 9999 BKN020 24/15 Q1023;
0143833440999992007093017004-14950-040883FM-15+0840SBQV V0201301N003110060019N0112651N1+02401+01301999999ADDGA1021+003601999GA2071+006001999GF107991999999999999999999MA1102201999999REMMET058METAR SBQV 301700Z 13006KT 9999 FEW012 BKN020 24/13 Q1022;
0143833440999992007093018004-14950-040883FM-15+0840SBQV V0201201N004110240019N0112651N1+02401+01401999999ADDGA1041+006001999GA2071+024001999GF107991999999999999999999MA1102201999999REMMET058METAR SBQV 301800Z 12008KT 9999 SCT020 BKN080 24/14 Q1022;
0143833440999992007093019004-14950-040883FM-15+0840SBQV V0201301N004610240019N0112651N1+02401+01601999999ADDGA1041+006001999GA2071+024001999GF107991999999999999999999MA1102101999999REMMET058METAR SBQV 301900Z 13009KT 9999 SCT020 BKN080 24/16 Q1021;
0143833440999992007093020004-14950-040883FM-15+0840SBQV V0201301N007210240019N0112651N1+02201+01601999999ADDGA1021+006001999GA2071+024001999GF107991999999999999999999MA1102201999999REMMET058METAR SBQV 302000Z 13014KT 9999 FEW020 BKN080 22/16 Q1022;
0143833440999992007093021004-14950-040883FM-15+0840SBQV V0201301N005112200019N0112651N1+02101+01601999999ADDGA1021+004801999GA2041+024001999GF104991999999999999999999MA1102201999999REMMET058METAR SBQV 302100Z 13010KT 9999 FEW016 SCT080 21/16 Q1022;
0072833440999992007093022004-14950-040883FM-15+0840SBQV V0201301N00571220001CN0099001N1+02001+01501999999ADDMA1102301999999REMMET045METAR SBQV 302200Z 13011KT CAVOK 20/15 Q1023;
0120833440999992007100111004-14950-040883FM-15+0840SBQV V0201301N006210018019N0112651N1+01701+01601999999ADDGA1071+001801999GF107991999999999999999999MA1102511999999REMMET051METAR SBQV 011100Z 13012KT 9999 BKN006 17/16 Q1025;
0143833440999992007100112004-14950-040883FM-15+0840SBQV V0201301N005110024019N0112651N1+01801+01501999999ADDGA1071+002401999GA2071+003301999GF107991999999999999999999MA1102511999999REMMET058METAR SBQV 011200Z 13010KT 9999 BKN008 BKN011 18/15 Q1025;
0143833440999992007100113004-14950-040883FM-15+0840SBQV V0201301N003610033019N0112651N1+01801+01701999999ADDGA1071+003301999GA2071+024001999GF107991999999999999999999MA1102611999999REMMET058METAR SBQV 011300Z 13007KT 9999 BKN011 BKN080 18/17 Q1026;
0143833440999992007100114004-14950-040883FM-15+0840SBQV V0201301N004610033019N0112651N1+01901+01601999999ADDGA1071+003301999GA2071+024001999GF107991999999999999999999MA1102611999999REMMET058METAR SBQV 011400Z 13009KT 9999 BKN011 BKN080 19/16 Q1026;
0166833440999992007100115004-14950-040883FM-15+0840SBQV V0202001N004110033019N0112651N1+01901+01601999999ADDGA1021+002701999GA2071+003301999GA3071+024001999GF107991999999999999999999MA1102511999999REMMET065METAR SBQV 011500Z 20008KT 9999 FEW009 BKN011 BKN080 19/16 Q1025;
0143833440999992007100116004-14950-040883FM-15+0840SBQV V0201501N004610039019N0112651N1+02101+01601999999ADDGA1071+003901999GA2071+024001999GF107991999999999999999999MA1102401999999REMMET058METAR SBQV 011600Z 15009KT 9999 BKN013 BKN080 21/16 Q1024;
0143833440999992007100117004-14950-040883FM-15+0840SBQV V0201601N005712200019N0112651N1+02001+01601999999ADDGA1041+003901999GA2041+004501999GF104991999999999999999999MA1102301999999REMMET058METAR SBQV 011700Z 16011KT 9999 SCT013 SCT015 20/16 Q1023;
0143833440999992007100118004-14950-040883FM-15+0840SBQV V0201501N005710045019N0112651N1+02001+01601999999ADDGA1021+002101999GA2071+004501999GF107991999999999999999999MA1102301999999REMMET058METAR SBQV 011800Z 15011KT 9999 FEW007 BKN015 20/16 Q1023;
0143833440999992007100119004-14950-040883FM-15+0840SBQV V0201301N005110045019N0112651N1+01901+01601999999ADDGA1041+002101999GA2071+004501999GF107991999999999999999999MA1102301999999REMMET058METAR SBQV 011900Z 13010KT 9999 SCT007 BKN015 19/16 Q1023;
0143833440999992007100120004-14950-040883FM-15+0840SBQV V0201301N006212200019N0112651N1+01901+01501999999ADDGA1021+002101999GA2041+004501999GF104991999999999999999999MA1102301999999REMMET058METAR SBQV 012000Z 13012KT 9999 FEW007 SCT015 19/15 Q1023;
0120833440999992007100121004-14950-040883FM-15+0840SBQV V0201301N008210018019N0112651N1+01801+01601999999ADDGA1071+001801999GF107991999999999999999999MA1102301999999REMMET051METAR SBQV 012100Z 13016KT 9999 BKN006 18/16 Q1023;
0120833440999992007100122004-14950-040883FM-15+0840SBQV V0201501N007210015019N0112651N1+01701+01601999999ADDGA1071+001501999GF107991999999999999999999MA1102301999999REMMET051METAR SBQV 012200Z 15014KT 9999 BKN005 17/16 Q1023;
0120833440999992007100123004-14950-040883FM-15+0840SBQV V0201401N008210012019N0112651N1+01701+01501999999ADDGA1071+001201999GF107991999999999999999999MA1102401999999REMMET051METAR SBQV 012300Z 14016KT 9999 BKN004 17/15 Q1024;
0137833440999992007100211004-14950-040883FM-15+0840SBQV V0201601N004110015019N0090001N1+01601+01501999999ADDGA1081+001501999GF108991999999999999999999MA1102511999999MW1511REMMET062METAR SBQV 021100Z 16008KT 9000 3000SE -DZ OVC005 16/15 Q1025;
0130833440999992007100212004-14950-040883FM-15+0840SBQV V0201601N003610015019N0030001N1+01701+01601999999ADDGA1081+001501999GF108991999999999999999999MA1102511999999MW1511REMMET055METAR SBQV 021200Z 16007KT 3000 -DZ OVC005 17/16 Q1025;
0120833440999992007100213004-14950-040883FM-15+0840SBQV V0201601N004110015019N0112651N1+01801+01601999999ADDGA1081+001501999GF108991999999999999999999MA1102511999999REMMET051METAR SBQV 021300Z 16008KT 9999 OVC005 18/16 Q1025;
0138833440999992007100214004-14950-040883FM-15+0840SBQV V0201901N003610021019N0112651N1+01901+01601999999ADDGA1081+002101999GF108991999999999999999999MA1102511999999MW1161REMMET063METAR SBQV 021400Z 19007KT 9999 8000SE VCSH OVC007 19/16 Q1025;
0120833440999992007100215004-14950-040883FM-15+0840SBQV V0201901N003610030019N0112651N1+02001+01601999999ADDGA1071+003001999GF107991999999999999999999MA1102401999999REMMET051METAR SBQV 021500Z 19007KT 9999 BKN010 20/16 Q1024;
0137833440999992007100216004-14950-040883FM-15+0840SBQV V0201401N004110030019N0112651N1+02001+01601999999ADDGA1071+003001999GF107991999999999999999999MA1102301999999MW1161REMMET062METAR SBQV 021600Z 14008KT 9999 6000W VCSH BKN010 20/16 Q1023;
0136833440999992007100217004-14950-040883FM-15+0840SBQV V0201401N00101220001CN0112651N1+02001+01701999999ADDGA1071+004501999GA2041+024001999MA1102301999999REMMET058METAR SBQV 021700Z 14002KT 9999 BKN015 SCT080 20/17 Q1023;EQDQ01+000042SCOTCV
0143833440999992007100218004-14950-040883FM-15+0840SBQV V0201401N005112200019N0112651N1+02101+01601999999ADDGA1041+004801999GA2041+024001999GF104991999999999999999999MA1102201999999REMMET058METAR SBQV 021800Z 14010KT 9999 SCT016 SCT080 21/16 Q1022;
0143833440999992007100219004-14950-040883FM-15+0840SBQV V0201601N004612200019N0112651N1+02001+01601999999ADDGA1021+004801999GA2041+024001999GF104991999999999999999999MA1102201999999REMMET058METAR SBQV 021900Z 16009KT 9999 FEW016 SCT080 20/16 Q1022;
0120833440999992007100220004-14950-040883FM-15+0840SBQV V0201501N004612200019N0112651N1+01801+01601999999ADDGA1041+002101999GF104991999999999999999999MA1102201999999REMMET051METAR SBQV 022000Z 15009KT 9999 SCT007 18/16 Q1022;
0130833440999992007100221004-14950-040883FM-15+0840SBQV V0201401N004610018019N0070001N1+01701+01601999999ADDGA1071+001801999GF107991999999999999999999MA1102301999999MW1511REMMET055METAR SBQV 022100Z 14009KT 7000 -DZ BKN006 17/16 Q1023;
0120833440999992007100222004-14950-040883FM-15+0840SBQV V0201401N005110015019N0112651N1+01701+01601999999ADDGA1071+001501999GF107991999999999999999999MA1102301999999REMMET051METAR SBQV 022200Z 14010KT 9999 BKN005 17/16 Q1023;
0120833440999992007100223004-14950-040883FM-15+0840SBQV V0201301N005110015019N0112651N1+01701+01601999999ADDGA1071+001501999GF107991999999999999999999MA1102301999999REMMET051METAR SBQV 022300Z 13010KT 9999 BKN005 17/16 Q1023;
0084833440999992007100310154-14950-040883FM-16+0840SBQV V0201301N003112200019N0112651N1+01601+01501999999ADDMA1102301999999REMMET057METAR SBQV 031015Z SPECI 13006KT 9999 BKN006 16/15 Q1023;
0143833440999992007100311004-14950-040883FM-15+0840SBQV V0201601N004110021019N0112651N1+01701+01501999999ADDGA1071+002101999GA2081+021001999GF108991999999999999999999MA1102401999999REMMET058METAR SBQV 031100Z 16008KT 9999 BKN007 OVC070 17/15 Q1024;
0143833440999992007100312004-14950-040883FM-15+0840SBQV V0201401N003110030019N0112651N1+01801+01501999999ADDGA1071+003001999GA2081+021001999GF108991999999999999999999MA1102401999999REMMET058METAR SBQV 031200Z 14006KT 9999 BKN010 OVC070 18/15 Q1024;
0143833440999992007100313004-14950-040883FM-15+0840SBQV V0201401N003110240019N0112651N1+01901+01501999999ADDGA1041+003001999GA2081+024001999GF108991999999999999999999MA1102401999999REMMET058METAR SBQV 031300Z 14006KT 9999 SCT010 OVC080 19/15 Q1024;
0143833440999992007100314004-14950-040883FM-15+0840SBQV V0201301N006210045019N0112651N1+02201+01501999999ADDGA1071+004501999GA2071+024001999GF107991999999999999999999MA1102301999999REMMET058METAR SBQV 031400Z 13012KT 9999 BKN015 BKN080 22/15 Q1023;
0136833440999992007100315004-14950-040883FM-15+0840SBQV V0201601N00721220001CN0112651N1+02201+01601999999ADDGA1071+004801999GA2041+024001999MA1102201999999REMMET058METAR SBQV 031500Z 16014KT 9999 BKN016 SCT080 22/16 Q1022;EQDQ01+000042SCOTCV
0136833440999992007100316004-14950-040883FM-15+0840SBQV V0201301N00671220001CN0112651N1+02201+01601999999ADDGA1071+004801999GA2041+024001999MA1102101999999REMMET058METAR SBQV 031600Z 13013KT 9999 BKN016 SCT080 22/16 Q1021;EQDQ01+000042SCOTCV
0143833440999992007100317004-14950-040883FM-15+0840SBQV V0201301N005112200019N0112651N1+02401+01601999999ADDGA1021+006001999GA2041+024001999GF104991999999999999999999MA1102001999999REMMET058METAR SBQV 031700Z 13010KT 9999 FEW020 SCT080 24/16 Q1020;
0143833440999992007100318004-14950-040883FM-15+0840SBQV V0201301N005112200019N0112651N1+02301+01301999999ADDGA1041+006001999GA2041+024001999GF104991999999999999999999MA1102001999999REMMET058METAR SBQV 031800Z 13010KT 9999 SCT020 SCT080 23/13 Q1020;
0120833440999992007100319004-14950-040883FM-15+0840SBQV V0201501N006712200019N0112651N1+02401+01501999999ADDGA1021+006001999GF102991999999999999999999MA1101901999999REMMET051METAR SBQV 031900Z 15013KT 9999 FEW020 24/15 Q1019;
0120833440999992007100320004-14950-040883FM-15+0840SBQV V0201301N003612200019N0112651N1+02201+01501999999ADDGA1021+005401999GF102991999999999999999999MA1102001999999REMMET051METAR SBQV 032000Z 13007KT 9999 FEW018 22/15 Q1020;
0120833440999992007100321004-14950-040883FM-15+0840SBQV V0201301N005712200019N0112651N1+02001+01501999999ADDGA1021+004801999GF102991999999999999999999MA1102001999999REMMET051METAR SBQV 032100Z 13011KT 9999 FEW016 20/15 Q1020;
0072833440999992007100322004-14950-040883FM-15+0840SBQV V0201201N00411220001CN0099001N1+02001+01501999999ADDMA1102101999999REMMET045METAR SBQV 032200Z 12008KT CAVOK 20/15 Q1021;
0120833440999992007100323004-14950-040883FM-15+0840SBQV V0201301N005112200019N0112651N1+01801+01501999999ADDGA1021+003301999GF102991999999999999999999MA1102101999999REMMET051METAR SBQV 032300Z 13010KT 9999 FEW011 18/15 Q1021;
0160833440999992007100411004-14950-040883FM-15+0840SBQV V0201301N005710030019N0112651N1+01801+01701999999ADDGA1041+001801999GA2071+003001999GF107991999999999999999999MA1102201999999MW1511REMMET069METAR SBQV 041100Z 13011KT 9999 4000SE -DZ SCT006 BKN010 18/17 Q1022;
0143833440999992007100412004-14950-040883FM-15+0840SBQV V0201301N005110033019N0112651N1+02001+01601999999ADDGA1021+002101999GA2071+003301999GF107991999999999999999999MA1102201999999REMMET058METAR SBQV 041200Z 13010KT 9999 FEW007 BKN011 20/16 Q1022;
0143833440999992007100413004-14950-040883FM-15+0840SBQV V0201601N004612200019N0112651N1+02001+01601999999ADDGA1041+003901999GA2041+021001999GF104991999999999999999999MA1102301999999REMMET058METAR SBQV 041300Z 16009KT 9999 SCT013 SCT070 20/16 Q1023;
0143833440999992007100414004-14950-040883FM-15+0840SBQV V0201501N007712200019N0112651N1+02101+01601999999ADDGA1041+003901999GA2041+004501999GF104991999999999999999999MA1102201999999REMMET058METAR SBQV 041400Z 15015KT 9999 SCT013 SCT015 21/16 Q1022;
0120833440999992007100415004-14950-040883FM-15+0840SBQV V0201301N008212200019N0112651N1+02301+01601999999ADDGA1041+004801999GF104991999999999999999999MA1102101999999REMMET051METAR SBQV 041500Z 13016KT 9999 SCT016 23/16 Q1021;
0120833440999992007100416004-14950-040883FM-15+0840SBQV V0201401N005112200019N0112651N1+02301+01601999999ADDGA1041+004801999GF104991999999999999999999MA1102001999999REMMET051METAR SBQV 041600Z 14010KT 9999 SCT016 23/16 Q1020;
0143833440999992007100417004-14950-040883FM-15+0840SBQV V0201301N006212200019N0112651N1+02301+01601999999ADDGA1041+004801999GA2041+021001999GF104991999999999999999999MA1102001999999REMMET058METAR SBQV 041700Z 13012KT 9999 SCT016 SCT070 23/16 Q1020;
0120833440999992007100418004-14950-040883FM-15+0840SBQV V0201301N006212200019N0112651N1+02201+01601999999ADDGA1041+004801999GF104991999999999999999999MA1101901999999REMMET051METAR SBQV 041800Z 13012KT 9999 SCT016 22/16 Q1019;
0120833440999992007100419004-14950-040883FM-15+0840SBQV V0201301N009310048019N0112651N1+02101+01601999999ADDGA1071+004801999GF107991999999999999999999MA1101901999999REMMET051METAR SBQV 041900Z 13018KT 9999 BKN016 21/16 Q1019;
0143833440999992007100420004-14950-040883FM-15+0840SBQV V0201201N006710039019N0112651N1+01801+01701999999ADDGA1021+002401999GA2071+003901999GF107991999999999999999999MA1102001999999REMMET058METAR SBQV 042000Z 12013KT 9999 FEW008 BKN013 18/17 Q1020;
0143833440999992007100421004-14950-040883FM-15+0840SBQV V0201301N007210018019N0112651N1+01701+01601999999ADDGA1071+001801999GA2071+003001999GF107991999999999999999999MA1102101999999REMMET058METAR SBQV 042100Z 13014KT 9999 BKN006 BKN010 17/16 Q1021;
0120833440999992007100422004-14950-040883FM-15+0840SBQV V0201301N007710018019N0112651N1+01601+01601999999ADDGA1071+001801999GF107991999999999999999999MA1102101999999REMMET051METAR SBQV 042200Z 13015KT 9999 BKN006 16/16 Q1021;
0120833440999992007100423004-14950-040883FM-15+0840SBQV V0201301N011310018019N0112651N1+01601+01501999999ADDGA1071+001801999GF107991999999999999999999MA1102101999999REMMET051METAR SBQV 042300Z 13022KT 9999 BKN006 16/15 Q1021;
0130833440999992007100511004-14950-040883FM-15+0840SBQV V0201301N004610018019N0060001N1+01601+01501999999ADDGA1071+001801999GF107991999999999999999999MA1102201999999MW1511REMMET055METAR SBQV 051100Z 13009KT 6000 -DZ BKN006 16/15 Q1022;
0130833440999992007100512004-14950-040883FM-15+0840SBQV V0201401N004110018019N0050001N1+01701+01601999999ADDGA1081+001801999GF108991999999999999999999MA1102301999999MW1511REMMET055METAR SBQV 051200Z 14008KT 5000 -DZ OVC006 17/16 Q1023;
0120833440999992007100513004-14950-040883FM-15+0840SBQV V0201301N005110018019N0112651N1+01701+01601999999ADDGA1081+001801999GF108991999999999999999999MA1102201999999REMMET051METAR SBQV 051300Z 13010KT 9999 OVC006 17/16 Q1022;
0120833440999992007100514004-14950-040883FM-15+0840SBQV V0201301N005110030019N0112651N1+01901+01601999999ADDGA1071+003001999GF107991999999999999999999MA1102201999999REMMET051METAR SBQV 051400Z 13010KT 9999 BKN010 19/16 Q1022;
0120833440999992007100515004-14950-040883FM-15+0840SBQV V0201101N005110039019N0112651N1+01901+01601999999ADDGA1071+003901999GF107991999999999999999999MA1102101999999REMMET051METAR SBQV 051500Z 11010KT 9999 BKN013 19/16 Q1021;
0120833440999992007100516004-14950-040883FM-15+0840SBQV V0201501N005710045019N0112651N1+02201+01601999999ADDGA1071+004501999GF107991999999999999999999MA1102001999999REMMET051METAR SBQV 051600Z 15011KT 9999 BKN015 22/16 Q1020;
0143833440999992007100517004-14950-040883FM-15+0840SBQV V0201301N004112200019N0112651N1+02201+01701999999ADDGA1041+006001999GA2041+024001999GF104991999999999999999999MA1102001999999REMMET058METAR SBQV 051700Z 13008KT 9999 SCT020 SCT080 22/17 Q1020;
0143833440999992007100518004-14950-040883FM-15+0840SBQV V0201501N007212200019N0112651N1+02201+01601999999ADDGA1041+006001999GA2041+024001999GF104991999999999999999999MA1101901999999REMMET058METAR SBQV 051800Z 15014KT 9999 SCT020 SCT080 22/16 Q1019;
0143833440999992007100519004-14950-040883FM-15+0840SBQV V0201301N006212200019N0112651N1+02201+01601999999ADDGA1021+003001999GA2041+006001999GF104991999999999999999999MA1101901999999REMMET058METAR SBQV 051900Z 13012KT 9999 FEW010 SCT020 22/16 Q1019;
0143833440999992007100520004-14950-040883FM-15+0840SBQV V0201301N005112200019N0112651N1+01901+01601999999ADDGA1021+002701999GA2041+005401999GF104991999999999999999999MA1102001999999REMMET058METAR SBQV 052000Z 13010KT 9999 FEW009 SCT018 19/16 Q1020;
0143833440999992007100521004-14950-040883FM-15+0840SBQV V0201101N003110030019N0112651N1+01801+01701999999ADDGA1021+001801999GA2071+003001999GF107991999999999999999999MA1102101999999REMMET058METAR SBQV 052100Z 11006KT 9999 FEW006 BKN010 18/17 Q1021;
0120833440999992007100522004-14950-040883FM-15+0840SBQV V0201301N004110018019N0112651N1+01701+01701999999ADDGA1071+001801999GF107991999999999999999999MA1102101999999REMMET051METAR SBQV 052200Z 13008KT 9999 BKN006 17/17 Q1021;
0120833440999992007100523004-14950-040883FM-15+0840SBQV V0201001N004110018019N0112651N1+01701+01701999999ADDGA1071+001801999GF107991999999999999999999MA1102101999999REMMET051METAR SBQV 052300Z 10008KT 9999 BKN006 17/17 Q1021;
0130833440999992007100600004-14950-040883FM-15+0840SBQV V0201001N005110015019N0112651N1+01701+01701999999ADDGA1071+001501999GF107991999999999999999999MA1102201999999MW1611REMMET055METAR SBQV 060000Z 10010KT 9999 -RA BKN005 17/17 Q1022;
0120833440999992007100601004-14950-040883FM-15+0840SBQV V0201001N007212200019N0112651N1+01701+01601999999ADDGA1041+001501999GF104991999999999999999999MA1102101999999REMMET051METAR SBQV 060100Z 10014KT 9999 SCT005 17/16 Q1021;
0143833440999992007100611004-14950-040883FM-15+0840SBQV V0201001N004110240019N0112651N1+01901+01601999999ADDGA1021+004501999GA2071+024001999GF107991999999999999999999MA1102201999999REMMET058METAR SBQV 061100Z 10008KT 9999 FEW015 BKN080 19/16 Q1022;
0143833440999992007100612004-14950-040883FM-15+0840SBQV V0201001N004612200019N0112651N1+02001+01501999999ADDGA1041+004801999GA2041+006001999GF104991999999999999999999MA1102201999999REMMET058METAR SBQV 061200Z 10009KT 9999 SCT016 SCT020 20/15 Q1022;
0120833440999992007100613004-14950-040883FM-15+0840SBQV V0201201N004610060019N0112651N1+02101+01501999999ADDGA1071+006001999GF107991999999999999999999MA1102201999999REMMET051METAR SBQV 061300Z 12009KT 9999 BKN020 21/15 Q1022;
0120833440999992007100614004-14950-040883FM-15+0840SBQV V0201301N005710075019N0112651N1+02301+01301999999ADDGA1071+007501999GF107991999999999999999999MA1102201999999REMMET051METAR SBQV 061400Z 13011KT 9999 BKN025 23/13 Q1022;
0120833440999992007100615004-14950-040883FM-15+0840SBQV V0201201N004110075019N0112651N1+02201+01501999999ADDGA1071+007501999GF107991999999999999999999MA1102101999999REMMET051METAR SBQV 061500Z 12008KT 9999 BKN025 22/15 Q1021;
0120833440999992007100616004-14950-040883FM-15+0840SBQV V0201301N002110075019N0112651N1+02301+01601999999ADDGA1071+007501999GF107991999999999999999999MA1102001999999REMMET051METAR SBQV 061600Z 13004KT 9999 BKN025 23/16 Q1020;
0120833440999992007100617004-14950-040883FM-15+0840SBQV V0201101N004610075019N0112651N1+02401+01701999999ADDGA1071+007501999GF107991999999999999999999MA1101901999999REMMET051METAR SBQV 061700Z 11009KT 9999 BKN025 24/17 Q1019;
0143833440999992007100618004-14950-040883FM-15+0840SBQV V0201301N005710900019N0112651N1+02301+01601999999ADDGA1021+006001999GA2071+090001999GF107991999999999999999999MA1101901999999REMMET058METAR SBQV 061800Z 13011KT 9999 FEW020 BKN300 23/16 Q1019;
0143833440999992007100619004-14950-040883FM-15+0840SBQV V0201001N005710900019N0112651N1+02401+01701999999ADDGA1021+004501999GA2071+090001999GF107991999999999999999999MA1101901999999REMMET058METAR SBQV 061900Z 10011KT 9999 FEW015 BKN300 24/17 Q1019;
0143833440999992007100620004-14950-040883FM-15+0840SBQV V0201201N007710240019N0112651N1+02001+01801999999ADDGA1021+003901999GA2071+024001999GF107991999999999999999999MA1102001999999REMMET058METAR SBQV 062000Z 12015KT 9999 FEW013 BKN080 20/18 Q1020;
0143833440999992007100621004-14950-040883FM-15+0840SBQV V0201101N005112200019N0112651N1+01901+01701999999ADDGA1021+002701999GA2041+003301999GF104991999999999999999999MA1102001999999REMMET058METAR SBQV 062100Z 11010KT 9999 FEW009 SCT011 19/17 Q1020;
0143833440999992007100622004-14950-040883FM-15+0840SBQV V0201001N005712200019N0112651N1+01801+01601999999ADDGA1021+002401999GA2041+003301999GF104991999999999999999999MA1102101999999REMMET058METAR SBQV 062200Z 10011KT 9999 FEW008 SCT011 18/16 Q1021;
0143833440999992007100711004-14950-040883FM-15+0840SBQV V0200701N004610210019N0112651N1+01901+01501999999ADDGA1041+003001999GA2071+021001999GF107991999999999999999999MA1102201999999REMMET058METAR SBQV 071100Z 07009KT 9999 SCT010 BKN070 19/15 Q1022;
0143833440999992007100712004-14950-040883FM-15+0840SBQV V0201001N005110210019N0112651N1+02001+01601999999ADDGA1041+003901999GA2071+021001999GF107991999999999999999999MA1102101999999REMMET058METAR SBQV 071200Z 10010KT 9999 SCT013 BKN070 20/16 Q1021;
0120833440999992007100713004-14950-040883FM-15+0840SBQV V0201201N004610045019N0112651N1+02201+01601999999ADDGA1071+004501999GF107991999999999999999999MA1102101999999REMMET051METAR SBQV 071300Z 12009KT 9999 BKN015 22/16 Q1021;
0120833440999992007100714004-14950-040883FM-15+0840SBQV V0201001N004610045019N0112651N1+02301+01601999999ADDGA1071+004501999GF107991999999999999999999MA1102101999999REMMET051METAR SBQV 071400Z 10009KT 9999 BKN015 23/16 Q1021;
0120833440999992007100715004-14950-040883FM-15+0840SBQV V0201301N005110048019N0112651N1+02501+01601999999ADDGA1071+004801999GF107991999999999999999999MA1102001999999REMMET051METAR SBQV 071500Z 13010KT 9999 BKN016 25/16 Q1020;
0120833440999992007100716004-14950-040883FM-15+0840SBQV V0201201N003612200019N0112651N1+02601+01501999999ADDGA1041+006001999GF104991999999999999999999MA1101901999999REMMET051METAR SBQV 071600Z 12007KT 9999 SCT020 26/15 Q1019;
0143833440999992007100717004-14950-040883FM-15+0840SBQV V0201301N006212200019N0112651N1+02501+01701999999ADDGA1021+007501999GA2041+024001999GF104991999999999999999999MA1101801999999REMMET058METAR SBQV 071700Z 13012KT 9999 FEW025 SCT080 25/17 Q1018;
0143833440999992007100718004-14950-040883FM-15+0840SBQV V0201501N006212200019N0112651N1+02301+01701999999ADDGA1021+007501999GA2041+024001999GF104991999999999999999999MA1101801999999REMMET058METAR SBQV 071800Z 15012KT 9999 FEW025 SCT080 23/17 Q1018;
0143833440999992007100719004-14950-040883FM-15+0840SBQV V0201301N007710210019N0112651N1+02201+01601999999ADDGA1021+005401999GA2071+021001999GF107991999999999999999999MA1101801999999REMMET058METAR SBQV 071900Z 13015KT 9999 FEW018 BKN070 22/16 Q1018;
0143833440999992007100720004-14950-040883FM-15+0840SBQV V0201001N005110210019N0112651N1+02001+01701999999ADDGA1021+003601999GA2071+021001999GF107991999999999999999999MA1101901999999REMMET058METAR SBQV 072000Z 10010KT 9999 FEW012 BKN070 20/17 Q1019;
0143833440999992007100721004-14950-040883FM-15+0840SBQV V0200701N005110210019N0112651N1+01901+01701999999ADDGA1021+004501999GA2071+021001999GF107991999999999999999999MA1101901999999REMMET058METAR SBQV 072100Z 07010KT 9999 FEW015 BKN070 19/17 Q1019;
0120833440999992007100722004-14950-040883FM-15+0840SBQV V0200701N009312200019N0112651N1+01901+01601999999ADDGA1021+003601999GF102991999999999999999999MA1101901999999REMMET051METAR SBQV 072200Z 07018KT 9999 FEW012 19/16 Q1019;
0120833440999992007100811004-14950-040883FM-15+0840SBQV V0201101N005112200019N0112651N1+02001+01401999999ADDGA1021+003601999GF102991999999999999999999MA1102201999999REMMET051METAR SBQV 081100Z 11010KT 9999 FEW012 20/14 Q1022;
0120833440999992007100812004-14950-040883FM-15+0840SBQV V0201301N006212200019N0112651N1+02201+01201999999ADDGA1041+004501999GF104991999999999999999999MA1102201999999REMMET051METAR SBQV 081200Z 13012KT 9999 SCT015 22/12 Q1022;
0120833440999992007100813004-14950-040883FM-15+0840SBQV V0201301N008210054019N0112651N1+02201+01201999999ADDGA1071+005401999GF107991999999999999999999MA1102301999999REMMET051METAR SBQV 081300Z 13016KT 9999 BKN018 22/12 Q1023;
0120833440999992007100814004-14950-040883FM-15+0840SBQV V0201301N007210060019N0112651N1+02301+01201999999ADDGA1071+006001999GF107991999999999999999999MA1102201999999REMMET051METAR SBQV 081400Z 13014KT 9999 BKN020 23/12 Q1022;
0120833440999992007100815004-14950-040883FM-15+0840SBQV V0201401N006212200019N0112651N1+02401+01101999999ADDGA1041+006001999GF104991999999999999999999MA1102101999999REMMET051METAR SBQV 081500Z 14012KT 9999 SCT020 24/11 Q1021;
0120833440999992007100816004-14950-040883FM-15+0840SBQV V0201101N007712200019N0112651N1+02601+01301999999ADDGA1041+007501999GF104991999999999999999999MA1102001999999REMMET051METAR SBQV 081600Z 11015KT 9999 SCT025 26/13 Q1020;
0120833440999992007100817004-14950-040883FM-15+0840SBQV V0201001N007212200019N0112651N1+02501+01401999999ADDGA1041+007501999GF104991999999999999999999MA1101901999999REMMET051METAR SBQV 081700Z 10014KT 9999 SCT025 25/14 Q1019;
0120833440999992007100818004-14950-040883FM-15+0840SBQV V0201001N005112200019N0112651N1+02401+01501999999ADDGA1041+007501999GF104991999999999999999999MA1101801999999REMMET051METAR SBQV 081800Z 10010KT 9999 SCT025 24/15 Q1018;
0120833440999992007100819004-14950-040883FM-15+0840SBQV V0201301N005112200019N0112651N1+02401+01301999999ADDGA1041+007501999GF104991999999999999999999MA1101801999999REMMET051METAR SBQV 081900Z 13010KT 9999 SCT025 24/13 Q1018;
0120833440999992007100820004-14950-040883FM-15+0840SBQV V0201001N005112200019N0112651N1+02201+01301999999ADDGA1021+006001999GF102991999999999999999999MA1101901999999REMMET051METAR SBQV 082000Z 10010KT 9999 FEW020 22/13 Q1019;
0120833440999992007100821004-14950-040883FM-15+0840SBQV V0201301N004612200019N0112651N1+02001+01601999999ADDGA1021+004801999GF102991999999999999999999MA1101901999999REMMET051METAR SBQV 082100Z 13009KT 9999 FEW016 20/16 Q1019;
0120833440999992007100822004-14950-040883FM-15+0840SBQV V0201001N004612200019N0112651N1+01901+01601999999ADDGA1021+004501999GF102991999999999999999999MA1102001999999REMMET051METAR SBQV 082200Z 10009KT 9999 FEW015 19/16 Q1020;
0072833440999992007100823004-14950-040883FM-15+0840SBQV V0201301N00411220001CN0099001N1+01801+01601999999ADDMA1102001999999REMMET045METAR SBQV 082300Z 13008KT CAVOK 18/16 Q1020;
0120833440999992007100911004-14950-040883FM-15+0840SBQV V0201301N005710045019N0112651N1+01801+01301999999ADDGA1071+004501999GF107991999999999999999999MA1102301999999REMMET051METAR SBQV 091100Z 13011KT 9999 BKN015 18/13 Q1023;
0143833440999992007100912004-14950-040883FM-15+0840SBQV V0201301N006710240019N0112651N1+01901+01401999999ADDGA1041+004801999GA2071+024001999GF107991999999999999999999MA1102401999999REMMET058METAR SBQV 091200Z 13013KT 9999 SCT016 BKN080 19/14 Q1024;
0136833440999992007100913004-14950-040883FM-15+0840SBQV V0201401N00671220001CN0112651N1+02001+01401999999ADDGA1071+005401999GA2041+024001999MA1102401999999REMMET058METAR SBQV 091300Z 14013KT 9999 BKN018 SCT080 20/14 Q1024;EQDQ01+000042SCOTCV
0120833440999992007100917004-14950-040883FM-15+0840SBQV V0201501N006710060019N0112651N1+02201+01501999999ADDGA1071+006001999GF107991999999999999999999MA1102101999999REMMET051METAR SBQV 091700Z 15013KT 9999 BKN020 22/15 Q1021;
0143833440999992007100918004-14950-040883FM-15+0840SBQV V0201301N008712200019N0112651N1+02201+01401999999ADDGA1041+006001999GA2041+024001999GF104991999999999999999999MA1102001999999REMMET058METAR SBQV 091800Z 13017KT 9999 SCT020 SCT080 22/14 Q1020;
0143833440999992007100919004-14950-040883FM-15+0840SBQV V0201301N006210240019N0112651N1+02201+01501999999ADDGA1041+006001999GA2071+024001999GF107991999999999999999999MA1102001999999REMMET058METAR SBQV 091900Z 13012KT 9999 SCT020 BKN080 22/15 Q1020;
0143833440999992007100920004-14950-040883FM-15+0840SBQV V0201301N006212200019N0112651N1+02101+01601999999ADDGA1041+002701999GA2041+004801999GF104991999999999999999999MA1102001999999REMMET058METAR SBQV 092000Z 13012KT 9999 SCT009 SCT016 21/16 Q1020;
0166833440999992007100921004-14950-040883FM-15+0840SBQV V0201301N00671004501CN0112651N1+01901+01601999999ADDGA1021+002701999GA2041+004501999GA3071+004801999GF107991999999999999999999MA1102101999999REMMET065METAR SBQV 092100Z 13013KT 9999 FEW009 SCT015 BKN016 19/16 Q1021;
0120833440999992007100922004-14950-040883FM-15+0840SBQV V0201301N008212200019N0112651N1+01901+01601999999ADDGA1041+002401999GF104991999999999999999999MA1102101999999REMMET051METAR SBQV 092200Z 13016KT 9999 SCT008 19/16 Q1021;
0120833440999992007101011004-14950-040883FM-15+0840SBQV V0201301N006212200019N0112651N1+01901+01401999999ADDGA1041+003901999GF104991999999999999999999MA1102301999999REMMET051METAR SBQV 101100Z 13012KT 9999 SCT013 19/14 Q1023;
0120833440999992007101012004-14950-040883FM-15+0840SBQV V0201001N006210045019N0112651N1+02001+01401999999ADDGA1071+004501999GF107991999999999999999999MA1102301999999REMMET051METAR SBQV 101200Z 10012KT 9999 BKN015 20/14 Q1023;
0120833440999992007101013004-14950-040883FM-15+0840SBQV V0201401N006710045019N0112651N1+02101+01301999999ADDGA1071+004501999GF107991999999999999999999MA1102301999999REMMET051METAR SBQV 101300Z 14013KT 9999 BKN015 21/13 Q1023;
0120833440999992007101014004-14950-040883FM-15+0840SBQV V0201301N005110048019N0112651N1+02301+01301999999ADDGA1071+004801999GF107991999999999999999999MA1102201999999REMMET051METAR SBQV 101400Z 13010KT 9999 BKN016 23/13 Q1022;
0120833440999992007101016004-14950-040883FM-15+0840SBQV V0201301N005110060019N0112651N1+02301+01301999999ADDGA1071+006001999GF107991999999999999999999MA1102101999999REMMET051METAR SBQV 101600Z 13010KT 9999 BKN020 23/13 Q1021;
0143833440999992007101017004-14950-040883FM-15+0840SBQV V0201401N004112200019N0112651N1+02501+01201999999ADDGA1041+007501999GA2041+027001999GF104991999999999999999999MA1101901999999REMMET058METAR SBQV 101700Z 14008KT 9999 SCT025 SCT090 25/12 Q1019;
0143833440999992007101018004-14950-040883FM-15+0840SBQV V0201101N006710270019N0112651N1+02501+01201999999ADDGA1041+007501999GA2071+027001999GF107991999999999999999999MA1101901999999REMMET058METAR SBQV 101800Z 11013KT 9999 SCT025 BKN090 25/12 Q1019;
0143833440999992007101020004-14950-040883FM-15+0840SBQV V0201301N005110240019N0112651N1+02301+01301999999ADDGA1021+006001999GA2071+024001999GF107991999999999999999999MA1101901999999REMMET058METAR SBQV 102000Z 13010KT 9999 FEW020 BKN080 23/13 Q1019;
0143833440999992007101021004-14950-040883FM-15+0840SBQV V0201301N005112200019N0112651N1+02101+01301999999ADDGA1021+005401999GA2041+021001999GF104991999999999999999999MA1101901999999REMMET058METAR SBQV 102100Z 13010KT 9999 FEW018 SCT070 21/13 Q1019;
0120833440999992007101022004-14950-040883FM-15+0840SBQV V0201301N006212200019N0112651N1+01901+01501999999ADDGA1021+003901999GF102991999999999999999999MA1102001999999REMMET051METAR SBQV 102200Z 13012KT 9999 FEW013 19/15 Q1020;
0120833440999992007101023004-14950-040883FM-15+0840SBQV V0201301N004112200019N0112651N1+01801+01501999999ADDGA1021+003601999GF102991999999999999999999MA1102001999999REMMET051METAR SBQV 102300Z 13008KT 9999 FEW012 18/15 Q1020;
0130833440999992007101111004-14950-040883FM-15+0840SBQV V0201301N002110018019N0030001N1+01601+01601999999ADDGA1081+001801999GF108991999999999999999999MA1102101999999MW1511REMMET055METAR SBQV 111100Z 13004KT 3000 -DZ OVC006 16/16 Q1021;
0143833440999992007101112004-14950-040883FM-15+0840SBQV V0201301N004110039019N0112651N1+02001+01501999999ADDGA1041+002101999GA2071+003901999GF107991999999999999999999MA1102101999999REMMET058METAR SBQV 111200Z 13008KT 9999 SCT007 BKN013 20/15 Q1021;
0143833440999992007101113004-14950-040883FM-15+0840SBQV V0201001N005110048019N0112651N1+02001+01501999999ADDGA1041+004501999GA2071+004801999GF107991999999999999999999MA1102001999999REMMET058METAR SBQV 111300Z 10010KT 9999 SCT015 BKN016 20/15 Q1020;
0120833440999992007101114004-14950-040883FM-15+0840SBQV V0201301N004110075019N0112651N1+02301+01501999999ADDGA1071+007501999GF107991999999999999999999MA1102001999999REMMET051METAR SBQV 111400Z 13008KT 9999 BKN025 23/15 Q1020;
0120833440999992007101115004-14950-040883FM-15+0840SBQV V0201001N004110075019N0112651N1+02401+01401999999ADDGA1071+007501999GF107991999999999999999999MA1101801999999REMMET051METAR SBQV 111500Z 10008KT 9999 BKN025 24/14 Q1018;
0120833440999992007101116004-14950-040883FM-15+0840SBQV V0200701N003110075019N0112651N1+02301+01301999999ADDGA1071+007501999GF107991999999999999999999MA1101691999999REMMET051METAR SBQV 111600Z 07006KT 9999 BKN025 23/13 Q1017;
0120833440999992007101117004-14950-040883FM-15+0840SBQV V0200901N004110075019N0112651N1+02501+01301999999ADDGA1071+007501999GF107991999999999999999999MA1101591999999REMMET051METAR SBQV 111700Z 09008KT 9999 BKN025 25/13 Q1016;
0143833440999992007101118004-14950-040883FM-15+0840SBQV V0201001N004610240019N0112651N1+02501+01301999999ADDGA1041+007501999GA2071+024001999GF107991999999999999999999MA1101491999999REMMET058METAR SBQV 111800Z 10009KT 9999 SCT025 BKN080 25/13 Q1015;
0143833440999992007101119004-14950-040883FM-15+0840SBQV V0201101N005110240019N0112651N1+02501+01401999999ADDGA1021+007501999GA2071+024001999GF107991999999999999999999MA1101491999999REMMET058METAR SBQV 111900Z 11010KT 9999 FEW025 BKN080 25/14 Q1015;
0143833440999992007101120004-14950-040883FM-15+0840SBQV V0201001N003612200019N0112651N1+02301+01401999999ADDGA1021+006001999GA2041+024001999GF104991999999999999999999MA1101491999999REMMET058METAR SBQV 112000Z 10007KT 9999 FEW020 SCT080 23/14 Q1015;
0143833440999992007101121004-14950-040883FM-15+0840SBQV V0201201N005112200019N0112651N1+02201+01601999999ADDGA1021+005401999GA2041+024001999GF104991999999999999999999MA1101591999999REMMET058METAR SBQV 112100Z 12010KT 9999 FEW018 SCT080 22/16 Q1016;
0120833440999992007101122004-14950-040883FM-15+0840SBQV V0201101N005112200019N0112651N1+02001+01601999999ADDGA1021+004501999GF102991999999999999999999MA1101691999999REMMET051METAR SBQV 112200Z 11010KT 9999 FEW015 20/16 Q1017;
0120833440999992007101123004-14950-040883FM-15+0840SBQV V0201201N006712200019N0112651N1+02001+01601999999ADDGA1021+002701999GF102991999999999999999999MA1101801999999REMMET051METAR SBQV 112300Z 12013KT 9999 FEW009 20/16 Q1018;
0143833440999992007101211004-14950-040883FM-15+0840SBQV V0200501N004610045019N0112651N1+02001+01501999999ADDGA1041+003901999GA2071+004501999GF107991999999999999999999MA1102001999999REMMET058METAR SBQV 121100Z 05009KT 9999 SCT013 BKN015 20/15 Q1020;
0143833440999992007101212004-14950-040883FM-15+0840SBQV V0200401N003610048019N0112651N1+02101+01701999999ADDGA1021+003901999GA2071+004801999GF107991999999999999999999MA1102001999999REMMET058METAR SBQV 121200Z 04007KT 9999 FEW013 BKN016 21/17 Q1020;
0136833440999992007101213004-14950-040883FM-15+0840SBQV V0200501N00261220001CN0112651N1+02301+01601999999ADDGA1071+004801999GA2041+021001999MA1102001999999REMMET058METAR SBQV 121300Z 05005KT 9999 BKN016 SCT070 23/16 Q1020;EQDQ01+000042SCOTCV
0120833440999992007101214004-14950-040883FM-15+0840SBQV V0200101N004110060019N0112651N1+02501+01401999999ADDGA1071+006001999GF107991999999999999999999MA1101901999999REMMET051METAR SBQV 121400Z 01008KT 9999 BKN020 25/14 Q1019;
0120833440999992007101215004-14950-040883FM-15+0840SBQV V0200101N004110060019N0112651N1+02601+01401999999ADDGA1071+006001999GF107991999999999999999999MA1101801999999REMMET051METAR SBQV 121500Z 01008KT 9999 BKN020 26/14 Q1018;
0120833440999992007101216004-14950-040883FM-15+0840SBQV V0200201N001510075019N0112651N1+02701+01401999999ADDGA1071+007501999GF107991999999999999999999MA1101591999999REMMET051METAR SBQV 121600Z 02003KT 9999 BKN025 27/14 Q1016;
0120833440999992007101217004-14950-040883FM-15+0840SBQV V0201201N005110075019N0112651N1+02701+01401999999ADDGA1071+007501999GF107991999999999999999999MA1101591999999REMMET051METAR SBQV 121700Z 12010KT 9999 BKN025 27/14 Q1016;
0120833440999992007101218004-14950-040883FM-15+0840SBQV V0201101N004610075019N0112651N1+02601+01501999999ADDGA1071+007501999GF107991999999999999999999MA1101491999999REMMET051METAR SBQV 121800Z 11009KT 9999 BKN025 26/15 Q1015;
0120833440999992007101219004-14950-040883FM-15+0840SBQV V0201001N004112200019N0112651N1+02701+01601999999ADDGA1041+006001999GF104991999999999999999999MA1101491999999REMMET051METAR SBQV 121900Z 10008KT 9999 SCT020 27/16 Q1015;
0120833440999992007101220004-14950-040883FM-15+0840SBQV V0201201N005112200019N0112651N1+02501+01701999999ADDGA1041+004801999GF104991999999999999999999MA1101491999999REMMET051METAR SBQV 122000Z 12010KT 9999 SCT016 25/17 Q1015;
0120833440999992007101221004-14950-040883FM-15+0840SBQV V0201001N004612200019N0112651N1+02201+01701999999ADDGA1021+004501999GF102991999999999999999999MA1101591999999REMMET051METAR SBQV 122100Z 10009KT 9999 FEW015 22/17 Q1016;
0120833440999992007101222004-14950-040883FM-15+0840SBQV V0201101N005112200019N0112651N1+02101+01801999999ADDGA1021+004501999GF102991999999999999999999MA1101591999999REMMET051METAR SBQV 122200Z 11010KT 9999 FEW015 21/18 Q1016;
0120833440999992007101312004-14950-040883FM-15+0840SBQV V0200601N004610048019N0112651N1+02201+01501999999ADDGA1071+004801999GF107991999999999999999999MA1102001999999REMMET051METAR SBQV 131200Z 06009KT 9999 BKN016 22/15 Q1020;
0120833440999992007101313004-14950-040883FM-15+0840SBQV V0200801N003610048019N0112651N1+02401+01501999999ADDGA1071+004801999GF107991999999999999999999MA1102001999999REMMET051METAR SBQV 131300Z 08007KT 9999 BKN016 24/15 Q1020;
0120833440999992007101314004-14950-040883FM-15+0840SBQV V0200401N002610060019N0112651N1+02601+01501999999ADDGA1071+006001999GF107991999999999999999999MA1101901999999REMMET051METAR SBQV 131400Z 04005KT 9999 BKN020 26/15 Q1019;
0120833440999992007101315004-14950-040883FM-15+0840SBQV V0200301N002610060019N0112651N1+02701+01401999999ADDGA1071+006001999GF107991999999999999999999MA1101801999999REMMET051METAR SBQV 131500Z 03005KT 9999 BKN020 27/14 Q1018;
0120833440999992007101316004-14950-040883FM-15+0840SBQV V0201001N002110075019N0112651N1+02801+01301999999ADDGA1071+007501999GF107991999999999999999999MA1101691999999REMMET051METAR SBQV 131600Z 10004KT 9999 BKN025 28/13 Q1017;
0120833440999992007101317004-14950-040883FM-15+0840SBQV V0200801N004612200019N0112651N1+02901+01501999999ADDGA1041+007501999GF104991999999999999999999MA1101591999999REMMET051METAR SBQV 131700Z 08009KT 9999 SCT025 29/15 Q1016;
0120833440999992007101318004-14950-040883FM-15+0840SBQV V0200801N005712200019N0112651N1+02801+01601999999ADDGA1021+007501999GF102991999999999999999999MA1101591999999REMMET051METAR SBQV 131800Z 08011KT 9999 FEW025 28/16 Q1016;
0120833440999992007101319004-14950-040883FM-15+0840SBQV V0201301N007712200019N0112651N1+02701+01601999999ADDGA1021+007501999GF102991999999999999999999MA1101591999999REMMET051METAR SBQV 131900Z 13015KT 9999 FEW025 27/16 Q1016;
0120833440999992007101320004-14950-040883FM-15+0840SBQV V0201201N007712200019N0112651N1+02501+01601999999ADDGA1021+006001999GF102991999999999999999999MA1101591999999REMMET051METAR SBQV 132000Z 12015KT 9999 FEW020 25/16 Q1016;
0120833440999992007101321004-14950-040883FM-15+0840SBQV V0201101N003612200019N0112651N1+02301+01601999999ADDGA1021+005401999GF102991999999999999999999MA1101691999999REMMET051METAR SBQV 132100Z 11007KT 9999 FEW018 23/16 Q1017;
0072833440999992007101322004-14950-040883FM-15+0840SBQV V0201201N00361220001CN0099001N1+02201+01701999999ADDMA1101691999999REMMET045METAR SBQV 132200Z 12007KT CAVOK 22/17 Q1017;
0120833440999992007101411004-14950-040883FM-15+0840SBQV V0201001N006212200019N0112651N1+02101+01301999999ADDGA1021+004801999GF102991999999999999999999MA1102001999999REMMET051METAR SBQV 141100Z 10012KT 9999 FEW016 21/13 Q1020;
0120833440999992007101412004-14950-040883FM-15+0840SBQV V0200701N002612200019N0112651N1+02301+01301999999ADDGA1021+006001999GF102991999999999999999999MA1102101999999REMMET051METAR SBQV 141200Z 07005KT 9999 FEW020 23/13 Q1021;
0120833440999992007101413004-14950-040883FM-15+0840SBQV V0200701N005112200019N0112651N1+02501+01301999999ADDGA1021+006001999GF102991999999999999999999MA1102101999999REMMET051METAR SBQV 141300Z 07010KT 9999 FEW020 25/13 Q1021;
0120833440999992007101414004-14950-040883FM-15+0840SBQV V0200701N002112200019N0112651N1+02701+01301999999ADDGA1021+007501999GF102991999999999999999999MA1102001999999REMMET051METAR SBQV 141400Z 07004KT 9999 FEW025 27/13 Q1020;
0120833440999992007101415004-14950-040883FM-15+0840SBQV V0200701N007212200019N0112651N1+02701+01301999999ADDGA1021+007501999GF102991999999999999999999MA1101901999999REMMET051METAR SBQV 141500Z 07014KT 9999 FEW025 27/13 Q1019;
0120833440999992007101416004-14950-040883FM-15+0840SBQV V0200801N004612200019N0112651N1+02701+01301999999ADDGA1021+007501999GF102991999999999999999999MA1101901999999REMMET051METAR SBQV 141600Z 08009KT 9999 FEW025 27/13 Q1019;
0120833440999992007101417004-14950-040883FM-15+0840SBQV V0200901N005112200019N0112651N1+02701+01301999999ADDGA1041+007501999GF104991999999999999999999MA1101801999999REMMET051METAR SBQV 141700Z 09010KT 9999 SCT025 27/13 Q1018;
0120833440999992007101418004-14950-040883FM-15+0840SBQV V0201001N004612200019N0112651N1+02701+01401999999ADDGA1041+007501999GF104991999999999999999999MA1101691999999REMMET051METAR SBQV 141800Z 10009KT 9999 SCT025 27/14 Q1017;
0120833440999992007101419004-14950-040883FM-15+0840SBQV V0201201N005712200019N0112651N1+02601+01401999999ADDGA1041+006001999GF104991999999999999999999MA1101691999999REMMET051METAR SBQV 141900Z 12011KT 9999 SCT020 26/14 Q1017;
0120833440999992007101420004-14950-040883FM-15+0840SBQV V0201201N005712200019N0112651N1+02401+01501999999ADDGA1021+006001999GF102991999999999999999999MA1101801999999REMMET051METAR SBQV 142000Z 12011KT 9999 FEW020 24/15 Q1018;
0120833440999992007101421004-14950-040883FM-15+0840SBQV V0201101N005112200019N0112651N1+02201+01601999999ADDGA1021+004801999GF102991999999999999999999MA1101801999999REMMET051METAR SBQV 142100Z 11010KT 9999 FEW016 22/16 Q1018;
0072833440999992007101422004-14950-040883FM-15+0840SBQV V0201001N00411220001CN0099001N1+02101+01701999999ADDMA1101901999999REMMET045METAR SBQV 142200Z 10008KT CAVOK 21/17 Q1019;
0072833440999992007101500004-14950-040883FM-15+0840SBQV V0201001N00871220001CN0099001N1+01901+01501999999ADDMA1102001999999REMMET045METAR SBQV 150000Z 10017KT CAVOK 19/15 Q1020;
0072833440999992007101501004-14950-040883FM-15+0840SBQV V0201101N00571220001CN0099001N1+01901+01501999999ADDMA1102001999999REMMET045METAR SBQV 150100Z 11011KT CAVOK 19/15 Q1020;
0072833440999992007101502004-14950-040883FM-15+0840SBQV V0200901N00571220001CN0099001N1+01801+01601999999ADDMA1102101999999REMMET045METAR SBQV 150200Z 09011KT CAVOK 18/16 Q1021;
0120833440999992007101510154-14950-040883FM-16+0840SBQV V0201001N001119999999N9999999N1+01601+01501999999ADDKA1999M+99999MA1102201999999REMMET061METAR SBQV 151015Z SPECI 10002KT 4000 -DZ OVC007 16/15 Q1022;EQDQ01 +00022ATMX  
0120833440999992007101511004-14950-040883FM-15+0840SBQV V0201001N002110024019N0112651N1+01701+01701999999ADDGA1071+002401999GF107991999999999999999999MA1102201999999REMMET051METAR SBQV 151100Z 10004KT 9999 BKN008 17/17 Q1022;
0120833440999992007101512004-14950-040883FM-15+0840SBQV V0200701N004612200019N0112651N1+02101+01501999999ADDGA1041+003901999GF104991999999999999999999MA1102301999999REMMET051METAR SBQV 151200Z 07009KT 9999 SCT013 21/15 Q1023;
0120833440999992007101513004-14950-040883FM-15+0840SBQV V0201201N006710048019N0112651N1+02301+01401999999ADDGA1071+004801999GF107991999999999999999999MA1102201999999REMMET051METAR SBQV 151300Z 12013KT 9999 BKN016 23/14 Q1022;
0120833440999992007101514004-14950-040883FM-15+0840SBQV V0201101N006210048019N0112651N1+02401+01401999999ADDGA1071+004801999GF107991999999999999999999MA1102201999999REMMET051METAR SBQV 151400Z 11012KT 9999 BKN016 24/14 Q1022;
0120833440999992007101515004-14950-040883FM-15+0840SBQV V0201001N005110060019N0112651N1+02501+01401999999ADDGA1071+006001999GF107991999999999999999999MA1102101999999REMMET051METAR SBQV 151500Z 10010KT 9999 BKN020 25/14 Q1021;
0120833440999992007101516004-14950-040883FM-15+0840SBQV V0201001N007210090019N0112651N1+02701+01401999999ADDGA1071+009001999GF107991999999999999999999MA1102001999999REMMET051METAR SBQV 151600Z 10014KT 9999 BKN030 27/14 Q1020;
0120833440999992007101517004-14950-040883FM-15+0840SBQV V0201301N006210090019N0112651N1+02601+01401999999ADDGA1071+009001999GF107991999999999999999999MA1102001999999REMMET051METAR SBQV 151700Z 13012KT 9999 BKN030 26/14 Q1020;
0120833440999992007101518004-14950-040883FM-15+0840SBQV V0201501N006212200019N0112651N1+02601+01301999999ADDGA1041+009001999GF104991999999999999999999MA1101901999999REMMET051METAR SBQV 151800Z 15012KT 9999 SCT030 26/13 Q1019;
0120833440999992007101519004-14950-040883FM-15+0840SBQV V0201301N006212200019N0112651N1+02501+01301999999ADDGA1041+007501999GF104991999999999999999999MA1101901999999REMMET051METAR SBQV 151900Z 13012KT 9999 SCT025 25/13 Q1019;
0120833440999992007101520004-14950-040883FM-15+0840SBQV V0201101N006712200019N0112651N1+02401+01301999999ADDGA1021+007501999GF102991999999999999999999MA1101901999999REMMET051METAR SBQV 152000Z 11013KT 9999 FEW025 24/13 Q1019;
0120833440999992007101521004-14950-040883FM-15+0840SBQV V0201101N004612200019N0112651N1+02201+01501999999ADDGA1021+006001999GF102991999999999999999999MA1102001999999REMMET051METAR SBQV 152100Z 11009KT 9999 FEW020 22/15 Q1020;
0072833440999992007101522004-14950-040883FM-15+0840SBQV V0201001N00311220001CN0099001N1+02001+01501999999ADDMA1102001999999REMMET045METAR SBQV 152200Z 10006KT CAVOK 20/15 Q1020;
0120833440999992007101611004-14950-040883FM-15+0840SBQV V0201001N006212200019N0112651N1+02001+01401999999ADDGA1021+007501999GF102991999999999999999999MA1102301999999REMMET051METAR SBQV 161100Z 10012KT 9999 FEW025 20/14 Q1023;
0120833440999992007101612004-14950-040883FM-15+0840SBQV V0201001N006212200019N0112651N1+02201+01201999999ADDGA1021+009001999GF102991999999999999999999MA1102301999999REMMET051METAR SBQV 161200Z 10012KT 9999 FEW030 22/12 Q1023;
0120833440999992007101613004-14950-040883FM-15+0840SBQV V0201001N004112200019N0112651N1+02401+01001999999ADDGA1021+010501999GF102991999999999999999999MA1102301999999REMMET051METAR SBQV 161300Z 10008KT 9999 FEW035 24/10 Q1023;
0120833440999992007101614004-14950-040883FM-15+0840SBQV V0201201N004612200019N0112651N1+02501+01101999999ADDGA1021+012001999GF102991999999999999999999MA1102201999999REMMET051METAR SBQV 161400Z 12009KT 9999 FEW040 25/11 Q1022;
0072833440999992007101615004-14950-040883FM-15+0840SBQV V0201301N00821220001CN0099001N1+02701+01001999999ADDMA1102101999999REMMET045METAR SBQV 161500Z 13016KT CAVOK 27/10 Q1021;
0072833440999992007101616004-14950-040883FM-15+0840SBQV V0201301N00461220001CN0099001N1+02801+01001999999ADDMA1101901999999REMMET045METAR SBQV 161600Z 13009KT CAVOK 28/10 Q1019;
0143833440999992007101617004-14950-040883FM-15+0840SBQV V0201501N009312200019N0112651N1+02901+01101999999ADDGA1021+012001999GA2041+090001999GF104991999999999999999999MA1101801999999REMMET058METAR SBQV 161700Z 15018KT 9999 FEW040 SCT300 29/11 Q1018;
0143833440999992007101618004-14950-040883FM-15+0840SBQV V0201401N007712200019N0112651N1+02801+01101999999ADDGA1021+012001999GA2041+090001999GF104991999999999999999999MA1101801999999REMMET058METAR SBQV 161800Z 14015KT 9999 FEW040 SCT300 28/11 Q1018;
0072833440999992007101620004-14950-040883FM-15+0840SBQV V0201301N00511220001CN0099001N1+02501+01101999999ADDMA1101801999999REMMET045METAR SBQV 162000Z 13010KT CAVOK 25/11 Q1018;
0072833440999992007101621004-14950-040883FM-15+0840SBQV V0201001N00511220001CN0099001N1+02301+01201999999ADDMA1101801999999REMMET045METAR SBQV 162100Z 10010KT CAVOK 23/12 Q1018;
0072833440999992007101622004-14950-040883FM-15+0840SBQV V0201001N00511220001CN0099001N1+02201+01301999999ADDMA1101901999999REMMET045METAR SBQV 162200Z 10010KT CAVOK 22/13 Q1019;
0072833440999992007101700004-14950-040883FM-15+0840SBQV V0200801N00571220001CN0099001N1+01901+01701999999ADDMA1102001999999REMMET045METAR SBQV 170000Z 08011KT CAVOK 19/17 Q1020;
0072833440999992007101701004-14950-040883FM-15+0840SBQV V0200801N00571220001CN0099001N1+01801+01601999999ADDMA1102001999999REMMET045METAR SBQV 170100Z 08011KT CAVOK 18/16 Q1020;
0072833440999992007101702004-14950-040883FM-15+0840SBQV V0201001N00511220001CN0099001N1+01701+01501999999ADDMA1102001999999REMMET045METAR SBQV 170200Z 10010KT CAVOK 17/15 Q1020;
0072833440999992007101703004-14950-040883FM-15+0840SBQV V0201001N00361220001CN0099001N1+01701+01501999999ADDMA1102001999999REMMET045METAR SBQV 170300Z 10007KT CAVOK 17/15 Q1020;
0143833440999992007101711004-14950-040883FM-15+0840SBQV V0200501N008212200019N0112651N1+02001+01401999999ADDGA1021+004801999GA2041+090001999GF104991999999999999999999MA1102001999999REMMET058METAR SBQV 171100Z 05016KT 9999 FEW016 SCT300 20/14 Q1020;
0143833440999992007101712004-14950-040883FM-15+0840SBQV V0200501N005712200019N0112651N1+02301+01401999999ADDGA1021+005401999GA2041+090001999GF104991999999999999999999MA1102001999999REMMET058METAR SBQV 171200Z 05011KT 9999 FEW018 SCT300 23/14 Q1020;
0072833440999992007101713004-14950-040883FM-15+0840SBQV V0200701N00261220001CN0099001N1+02501+01301999999ADDMA1102001999999REMMET045METAR SBQV 171300Z 07005KT CAVOK 25/13 Q1020;
0072833440999992007101714004-14950-040883FM-15+0840SBQV V0200801N00261220001CN0099001N1+02701+01501999999ADDMA1101901999999REMMET045METAR SBQV 171400Z 08005KT CAVOK 27/15 Q1019;
0072833440999992007101715004-14950-040883FM-15+0840SBQV V0200201N00411220001CN0099001N1+02901+01401999999ADDMA1101801999999REMMET045METAR SBQV 171500Z 02008KT CAVOK 29/14 Q1018;
0072833440999992007101716004-14950-040883FM-15+0840SBQV V0201001N00311220001CN0099001N1+03001+01001999999ADDMA1101591999999REMMET045METAR SBQV 171600Z 10006KT CAVOK 30/10 Q1016;
0072833440999992007101717004-14950-040883FM-15+0840SBQV V0202201N00101220001CN0099001N1+03001+01101999999ADDMA1101491999999REMMET045METAR SBQV 171700Z 22002KT CAVOK 30/11 Q1015;
0072833440999992007101718004-14950-040883FM-15+0840SBQV V0201301N00261220001CN0099001N1+03201+01001999999ADDMA1101491999999REMMET045METAR SBQV 171800Z 13005KT CAVOK 32/10 Q1015;
0072833440999992007101719004-14950-040883FM-15+0840SBQV V0201601N00511220001CN0099001N1+03101+01201999999ADDMA1101391999999REMMET045METAR SBQV 171900Z 16010KT CAVOK 31/12 Q1014;
0072833440999992007101720004-14950-040883FM-15+0840SBQV V0201301N00511220001CN0099001N1+02801+01401999999ADDMA1101491999999REMMET045METAR SBQV 172000Z 13010KT CAVOK 28/14 Q1015;
0072833440999992007101721004-14950-040883FM-15+0840SBQV V0201001N00411220001CN0099001N1+02601+01501999999ADDMA1101491999999REMMET045METAR SBQV 172100Z 10008KT CAVOK 26/15 Q1015;
0072833440999992007101722004-14950-040883FM-15+0840SBQV V0201101N00361220001CN0099001N1+02401+01601999999ADDMA1101591999999REMMET045METAR SBQV 172200Z 11007KT CAVOK 24/16 Q1016;
0072833440999992007101811004-14950-040883FM-15+0840SBQV V0200101N00511220001CN0099001N1+02201+01501999999ADDMA1101801999999REMMET045METAR SBQV 181100Z 01010KT CAVOK 22/15 Q1018;
0072833440999992007101812004-14950-040883FM-15+0840SBQV V0200301N00211220001CN0099001N1+02401+01401999999ADDMA1101901999999REMMET045METAR SBQV 181200Z 03004KT CAVOK 24/14 Q1019;
0072833440999992007101813004-14950-040883FM-15+0840SBQV V0201001N00051220001CN0099001N1+02701+01501999999ADDMA1101901999999REMMET045METAR SBQV 181300Z 10001KT CAVOK 27/15 Q1019;
0072833440999992007101814004-14950-040883FM-15+0840SBQV V0200201N00211220001CN0099001N1+02901+01301999999ADDMA1101801999999REMMET045METAR SBQV 181400Z 02004KT CAVOK 29/13 Q1018;
0120833440999992007101815004-14950-040883FM-15+0840SBQV V0209999C000012200019N0112651N1+03001+01201999999ADDGA1021+009001999GF102991999999999999999999MA1101691999999REMMET051METAR SBQV 181500Z 00000KT 9999 FEW030 30/12 Q1017;
0120833440999992007101816004-14950-040883FM-15+0840SBQV V0200801N002612200019N0112651N1+03201+01501999999ADDGA1021+010501999GF102991999999999999999999MA1101591999999REMMET051METAR SBQV 181600Z 08005KT 9999 FEW035 32/15 Q1016;
0120833440999992007101817004-14950-040883FM-15+0840SBQV V0201301N006212200019N0112651N1+03201+01601999999ADDGA1021+010501999GF102991999999999999999999MA1101491999999REMMET051METAR SBQV 181700Z 13012KT 9999 FEW035 32/16 Q1015;
0120833440999992007101818004-14950-040883FM-15+0840SBQV V0201601N003112200019N0090001N1+03101+01601999999ADDGA1021+010501999GF102991999999999999999999MA1101491999999REMMET051METAR SBQV 181800Z 16006KT 9000 FEW035 31/16 Q1015;
0072833440999992007101820004-14950-040883FM-15+0840SBQV V0201301N00511220001CN0099001N1+02801+01401999999ADDMA1101491999999REMMET045METAR SBQV 182000Z 13010KT CAVOK 28/14 Q1015;
0072833440999992007101821004-14950-040883FM-15+0840SBQV V0201001N00671220001CN0099001N1+02601+01701999999ADDMA1101591999999REMMET045METAR SBQV 182100Z 10013KT CAVOK 26/17 Q1016;
0120833440999992007101822004-14950-040883FM-15+0840SBQV V0201101N005112200019N0070001N1+02301+01701999999ADDGF100991999999999999999999MA1101591999999REMMET048METAR SBQV 182200Z 11010KT 7000 SKC 23/17 Q1016;EQDQ01    003SCCGA1
0120833440999992007101911004-14950-040883FM-15+0840SBQV V0200701N003612200019N0112651N1+02201+01601999999ADDGA1021+006001999GF102991999999999999999999MA1101901999999REMMET051METAR SBQV 191100Z 07007KT 9999 FEW020 22/16 Q1019;
0120833440999992007101912004-14950-040883FM-15+0840SBQV V0200901N003612200019N0112651N1+02401+01501999999ADDGA1021+007501999GF102991999999999999999999MA1102001999999REMMET051METAR SBQV 191200Z 09007KT 9999 FEW025 24/15 Q1020;
0120833440999992007101913004-14950-040883FM-15+0840SBQV V0200701N004612200019N0112651N1+02601+01501999999ADDGA1021+007501999GF102991999999999999999999MA1101901999999REMMET051METAR SBQV 191300Z 07009KT 9999 FEW025 26/15 Q1019;
0120833440999992007101914004-14950-040883FM-15+0840SBQV V0200901N003112200019N0112651N1+02801+01401999999ADDGA1021+009001999GF102991999999999999999999MA1101901999999REMMET051METAR SBQV 191400Z 09006KT 9999 FEW030 28/14 Q1019;
0120833440999992007101915004-14950-040883FM-15+0840SBQV V0200801N001012200019N0112651N1+02901+01401999999ADDGA1021+009001999GF102991999999999999999999MA1101801999999REMMET051METAR SBQV 191500Z 08002KT 9999 FEW030 29/14 Q1018;
0120833440999992007101916004-14950-040883FM-15+0840SBQV V0200401N001512200019N0112651N1+03001+01401999999ADDGA1021+012001999GF102991999999999999999999MA1101691999999REMMET051METAR SBQV 191600Z 04003KT 9999 FEW040 30/14 Q1017;
0143833440999992007101917004-14950-040883FM-15+0840SBQV V0201101N005712200019N0112651N1+03101+01401999999ADDGA1021+012001999GA2041+090001999GF104991999999999999999999MA1101591999999REMMET058METAR SBQV 191700Z 11011KT 9999 FEW040 SCT300 31/14 Q1016;
0143833440999992007101918004-14950-040883FM-15+0840SBQV V0201301N005112200019N0112651N1+02901+01501999999ADDGA1021+012001999GA2041+090001999GF104991999999999999999999MA1101491999999REMMET058METAR SBQV 191800Z 13010KT 9999 FEW040 SCT300 29/15 Q1015;
0143833440999992007101919004-14950-040883FM-15+0840SBQV V0201301N005112200019N0112651N1+02801+01501999999ADDGA1021+007501999GA2041+090001999GF104991999999999999999999MA1101591999999REMMET058METAR SBQV 191900Z 13010KT 9999 FEW025 SCT300 28/15 Q1016;
0143833440999992007101920004-14950-040883FM-15+0840SBQV V0201101N005110900019N0112651N1+02601+01501999999ADDGA1021+006001999GA2071+090001999GF107991999999999999999999MA1101591999999REMMET058METAR SBQV 192000Z 11010KT 9999 FEW020 BKN300 26/15 Q1016;
0072833440999992007101921004-14950-040883FM-15+0840SBQV V0201001N00511220001CN0099001N1+02401+01601999999ADDMA1101591999999REMMET045METAR SBQV 192100Z 10010KT CAVOK 24/16 Q1016;
0072833440999992007101922004-14950-040883FM-15+0840SBQV V0201001N00411220001CN0099001N1+02301+01601999999ADDMA1101691999999REMMET045METAR SBQV 192200Z 10008KT CAVOK 23/16 Q1017;
0143833440999992007102011004-14950-040883FM-15+0840SBQV V0200601N004612200019N0112651N1+02201+01601999999ADDGA1021+004501999GA2041+090001999GF104991999999999999999999MA1102001999999REMMET058METAR SBQV 201100Z 06009KT 9999 FEW015 SCT300 22/16 Q1020;
0143833440999992007102012004-14950-040883FM-15+0840SBQV V0200701N004112200019N0112651N1+02401+01601999999ADDGA1041+004501999GA2041+090001999GF104991999999999999999999MA1102001999999REMMET058METAR SBQV 201200Z 07008KT 9999 SCT015 SCT300 24/16 Q1020;
0136833440999992007102013004-14950-040883FM-15+0840SBQV V0200701N00151220001CN0112651N1+02501+01501999999ADDGA1071+004801999GA2041+090001999MA1102001999999REMMET058METAR SBQV 201300Z 07003KT 9999 BKN016 SCT300 25/15 Q1020;EQDQ01+000042SCOTCV
0120833440999992007102014004-14950-040883FM-15+0840SBQV V0200701N005110060019N0112651N1+02701+01501999999ADDGA1071+006001999GF107991999999999999999999MA1101901999999REMMET051METAR SBQV 201400Z 07010KT 9999 BKN020 27/15 Q1019;
0120833440999992007102015004-14950-040883FM-15+0840SBQV V0200701N004110075019N0112651N1+02701+01501999999ADDGA1071+007501999GF107991999999999999999999MA1101901999999REMMET051METAR SBQV 201500Z 07008KT 9999 BKN025 27/15 Q1019;
0143833440999992007102016004-14950-040883FM-15+0840SBQV V0200301N002112200019N0112651N1+02701+01501999999ADDGA1041+009001999GA2041+090001999GF104991999999999999999999MA1101801999999REMMET058METAR SBQV 201600Z 03004KT 9999 SCT030 SCT300 27/15 Q1018;
0120833440999992007102017004-14950-040883FM-15+0840SBQV V0209999C000010105019N0112651N1+02801+01601999999ADDGA1071+010501999GF107991999999999999999999MA1101691999999REMMET051METAR SBQV 201700Z 00000KT 9999 BKN035 28/16 Q1017;
0136833440999992007102018004-14950-040883FM-15+0840SBQV V0209999C00001220001CN0112651N1+02801+01601999999ADDGA1071+010501999GA2041+030001999MA1101691999999REMMET058METAR SBQV 201800Z 00000KT 9999 BKN035 SCT100 28/16 Q1017;EQDQ01+000042SCOTCV
0143833440999992007102019004-14950-040883FM-15+0840SBQV V0200401N002610300019N0112651N1+02701+01601999999ADDGA1041+010501999GA2071+030001999GF107991999999999999999999MA1101691999999REMMET058METAR SBQV 201900Z 04005KT 9999 SCT035 BKN100 27/16 Q1017;
0143833440999992007102020004-14950-040883FM-15+0840SBQV V0200701N006210300019N0112651N1+02601+01701999999ADDGA1021+009001999GA2071+030001999GF107991999999999999999999MA1101691999999REMMET058METAR SBQV 202000Z 07012KT 9999 FEW030 BKN100 26/17 Q1017;
0072833440999992007102021004-14950-040883FM-15+0840SBQV V0201001N00311220001CN0099001N1+02501+01701999999ADDMA1101691999999REMMET045METAR SBQV 202100Z 10006KT CAVOK 25/17 Q1017;
0072833440999992007102022004-14950-040883FM-15+0840SBQV V0201001N00311220001CN0099001N1+02401+01701999999ADDMA1101691999999REMMET045METAR SBQV 202200Z 10006KT CAVOK 24/17 Q1017;
0143833440999992007102110154-14950-040883FM-15+0840SBQV V0200701N003110270019N0112651N1+02101+01701999999ADDGA1021+006001999GA2071+027001999GF107991999999999999999999MA1101901999999REMMET058METAR SBQV 211015Z 07006KT 9999 FEW020 BKN090 21/17 Q1019;
0143833440999992007102111004-14950-040883FM-15+0840SBQV V0200701N000510270019N0112651N1+02201+01701999999ADDGA1041+006001999GA2071+027001999GF107991999999999999999999MA1102001999999REMMET058METAR SBQV 211100Z 07001KT 9999 SCT020 BKN090 22/17 Q1020;
0143833440999992007102112004-14950-040883FM-15+0840SBQV V0200801N000510075019N0112651N1+02201+01701999999ADDGA1071+007501999GA2071+027001999GF107991999999999999999999MA1102101999999REMMET058METAR SBQV 211200Z 08001KT 9999 BKN025 BKN090 22/17 Q1021;
0143833440999992007102113004-14950-040883FM-15+0840SBQV V0200701N000510075019N0112651N1+02301+01701999999ADDGA1071+007501999GA2081+027001999GF108991999999999999999999MA1102101999999REMMET058METAR SBQV 211300Z 07001KT 9999 BKN025 OVC090 23/17 Q1021;
0143833440999992007102114004-14950-040883FM-15+0840SBQV V0201301N004110270019N0112651N1+02301+01701999999ADDGA1021+007501999GA2081+027001999GF108991999999999999999999MA1102001999999REMMET058METAR SBQV 211400Z 13008KT 9999 FEW025 OVC090 23/17 Q1020;
0143833440999992007102115004-14950-040883FM-15+0840SBQV V0200801N002610270019N0112651N1+02301+01701999999ADDGA1021+007501999GA2081+027001999GF108991999999999999999999MA1101901999999REMMET058METAR SBQV 211500Z 08005KT 9999 FEW025 OVC090 23/17 Q1019;
0143833440999992007102116004-14950-040883FM-15+0840SBQV V0200701N004110270019N0112651N1+02401+01701999999ADDGA1041+007501999GA2071+027001999GF107991999999999999999999MA1101801999999REMMET058METAR SBQV 211600Z 07008KT 9999 SCT025 BKN090 24/17 Q1018;
0143833440999992007102117004-14950-040883FM-15+0840SBQV V0201001N002110090019N0112651N1+02601+01601999999ADDGA1071+009001999GA2071+090001999GF107991999999999999999999MA1101691999999REMMET058METAR SBQV 211700Z 10004KT 9999 BKN030 BKN300 26/16 Q1017;
0143833440999992007102118004-14950-040883FM-15+0840SBQV V0201301N004110090019N0112651N1+02701+01701999999ADDGA1071+009001999GA2071+090001999GF107991999999999999999999MA1101691999999REMMET058METAR SBQV 211800Z 13008KT 9999 BKN030 BKN300 27/17 Q1017;
0143833440999992007102119004-14950-040883FM-15+0840SBQV V0201001N003110900019N0112651N1+02601+01601999999ADDGA1041+007501999GA2071+090001999GF107991999999999999999999MA1101691999999REMMET058METAR SBQV 211900Z 10006KT 9999 SCT025 BKN300 26/16 Q1017;
0072833440999992007102120004-14950-040883FM-15+0840SBQV V0201401N00411220001CN0099001N1+02501+01501999999ADDMA1101691999999REMMET045METAR SBQV 212000Z 14008KT CAVOK 25/15 Q1017;
0072833440999992007102121004-14950-040883FM-15+0840SBQV V0201301N00211220001CN0099001N1+02301+01601999999ADDMA1101691999999REMMET045METAR SBQV 212100Z 13004KT CAVOK 23/16 Q1017;
0072833440999992007102122004-14950-040883FM-15+0840SBQV V0200901N00211220001CN0099001N1+02201+01601999999ADDMA1101691999999REMMET045METAR SBQV 212200Z 09004KT CAVOK 22/16 Q1017;
0072833440999992007102204004-14950-040883FM-15+0840SBQV V0201001N00101220001CN0099001N1+01801+01701999999ADDMA1101801999999REMMET045METAR SBQV 220400Z 10002KT CAVOK 18/17 Q1018;
0072833440999992007102205004-14950-040883FM-15+0840SBQV V0200901N00311220001CN0099001N1+01901+01701999999ADDMA1101691999999REMMET045METAR SBQV 220500Z 09006KT CAVOK 19/17 Q1017;
0091833440999992007102210154-14950-040883FM-16+0840SBQV V0200801N003712200019N0112651N1+02001+01601999999ADDMA1102001999999REMMET064METAR SBQV 221015Z SPECI 08007KT 9999 FEW015 SCT300 20/16 Q1020;
0072833440999992007102211004-14950-040883FM-15+0840SBQV V0201301N00151220001CN0099001N1+02201+01601999999ADDMA1102001999999REMMET045METAR SBQV 221100Z 13003KT CAVOK 22/16 Q1020;
0143833440999992007102212004-14950-040883FM-15+0840SBQV V0200501N004110900019N0112651N1+02501+01601999999ADDGA1021+007501999GA2071+090001999GF107991999999999999999999MA1102001999999REMMET058METAR SBQV 221200Z 05008KT 9999 FEW025 BKN300 25/16 Q1020;
0143833440999992007102213004-14950-040883FM-15+0840SBQV V0201301N003110900019N0112651N1+02801+01401999999ADDGA1021+009001999GA2071+090001999GF107991999999999999999999MA1102001999999REMMET058METAR SBQV 221300Z 13006KT 9999 FEW030 BKN300 28/14 Q1020;
0143833440999992007102214004-14950-040883FM-15+0840SBQV V0201001N005712200019N0112651N1+02801+01401999999ADDGA1021+009001999GA2041+090001999GF104991999999999999999999MA1101901999999REMMET058METAR SBQV 221400Z 10011KT 9999 FEW030 SCT300 28/14 Q1019;
0143833440999992007102215004-14950-040883FM-15+0840SBQV V0200501N002612200019N0112651N1+02901+01501999999ADDGA1021+009001999GA2041+090001999GF104991999999999999999999MA1101801999999REMMET058METAR SBQV 221500Z 05005KT 9999 FEW030 SCT300 29/15 Q1018;
0143833440999992007102216004-14950-040883FM-15+0840SBQV V0200401N004612200019N0112651N1+02901+01401999999ADDGA1021+009001999GA2041+090001999GF104991999999999999999999MA1101801999999REMMET058METAR SBQV 221600Z 04009KT 9999 FEW030 SCT300 29/14 Q1018;
0143833440999992007102217004-14950-040883FM-15+0840SBQV V0200701N007210900019N0112651N1+02901+01301999999ADDGA1021+009001999GA2071+090001999GF107991999999999999999999MA1101801999999REMMET058METAR SBQV 221700Z 07014KT 9999 FEW030 BKN300 29/13 Q1018;
0143833440999992007102218004-14950-040883FM-15+0840SBQV V0200701N005110900019N0112651N1+02901+01201999999ADDGA1021+010501999GA2071+090001999GF107991999999999999999999MA1101691999999REMMET058METAR SBQV 221800Z 07010KT 9999 FEW035 BKN300 29/12 Q1017;
0072833440999992007102219004-14950-040883FM-15+0840SBQV V0201001N00311220001CN0099001N1+02801+01401999999ADDMA1101691999999REMMET045METAR SBQV 221900Z 10006KT CAVOK 28/14 Q1017;
0072833440999992007102220004-14950-040883FM-15+0840SBQV V0200701N00311220001CN0099001N1+02701+01501999999ADDMA1101691999999REMMET045METAR SBQV 222000Z 07006KT CAVOK 27/15 Q1017;
0072833440999992007102221004-14950-040883FM-15+0840SBQV V0200901N00411220001CN0099001N1+02501+01501999999ADDMA1101691999999REMMET045METAR SBQV 222100Z 09008KT CAVOK 25/15 Q1017;
0072833440999992007102222004-14950-040883FM-15+0840SBQV V0201001N00411220001CN0099001N1+02301+01601999999ADDMA1101801999999REMMET045METAR SBQV 222200Z 10008KT CAVOK 23/16 Q1018;
0120833440999992007102311004-14950-040883FM-15+0840SBQV V0201301N001012200019N0112651N1+02201+01501999999ADDGA1021+005401999GF102991999999999999999999MA1102301999999REMMET051METAR SBQV 231100Z 13002KT 9999 FEW018 22/15 Q1023;
0120833440999992007102312004-14950-040883FM-15+0840SBQV V0201101N005112200019N0112651N1+02401+01501999999ADDGA1021+006001999GF102991999999999999999999MA1102301999999REMMET051METAR SBQV 231200Z 11010KT 9999 FEW020 24/15 Q1023;
0120833440999992007102313004-14950-040883FM-15+0840SBQV V0200901N006212200019N0112651N1+02501+01301999999ADDGA1021+007501999GF102991999999999999999999MA1102301999999REMMET051METAR SBQV 231300Z 09012KT 9999 FEW025 25/13 Q1023;
0120833440999992007102314004-14950-040883FM-15+0840SBQV V0200901N004112200019N0112651N1+02601+01401999999ADDGA1021+007501999GF102991999999999999999999MA1102201999999REMMET051METAR SBQV 231400Z 09008KT 9999 FEW025 26/14 Q1022;
0120833440999992007102316004-14950-040883FM-15+0840SBQV V0201101N005712200019N0112651N1+02801+01401999999ADDGA1041+009001999GF104991999999999999999999MA1102001999999REMMET051METAR SBQV 231600Z 11011KT 9999 SCT030 28/14 Q1020;
0120833440999992007102317004-14950-040883FM-15+0840SBQV V0201301N009312200019N0112651N1+02701+01501999999ADDGA1041+009001999GF104991999999999999999999MA1102001999999REMMET051METAR SBQV 231700Z 13018KT 9999 SCT030 27/15 Q1020;
0120833440999992007102318004-14950-040883FM-15+0840SBQV V0201101N005712200019N0112651N1+02801+01401999999ADDGA1041+009001999GF104991999999999999999999MA1101901999999REMMET051METAR SBQV 231800Z 11011KT 9999 SCT030 28/14 Q1019;
0120833440999992007102319004-14950-040883FM-15+0840SBQV V0201001N008212200019N0112651N1+02701+01501999999ADDGA1021+009001999GF102991999999999999999999MA1101901999999REMMET051METAR SBQV 231900Z 10016KT 9999 FEW030 27/15 Q1019;
0120833440999992007102320004-14950-040883FM-15+0840SBQV V0201301N005712200019N0112651N1+02601+01501999999ADDGA1021+007501999GF102991999999999999999999MA1102001999999REMMET051METAR SBQV 232000Z 13011KT 9999 FEW025 26/15 Q1020;
0120833440999992007102321004-14950-040883FM-15+0840SBQV V0201001N007712200019N0112651N1+02301+01901999999ADDGA1021+006001999GF102991999999999999999999MA1102001999999REMMET051METAR SBQV 232100Z 10015KT 9999 FEW020 23/19 Q1020;
0072833440999992007102322004-14950-040883FM-15+0840SBQV V0201101N00621220001CN0099001N1+02201+01801999999ADDMA1102101999999REMMET045METAR SBQV 232200Z 11012KT CAVOK 22/18 Q1021;
0120833440999992007102411004-14950-040883FM-15+0840SBQV V0201001N006712200019N0112651N1+02201+01601999999ADDGA1021+005401999GF102991999999999999999999MA1102301999999REMMET051METAR SBQV 241100Z 10013KT 9999 FEW018 22/16 Q1023;
0120833440999992007102412004-14950-040883FM-15+0840SBQV V0201101N005112200019N0112651N1+02401+01501999999ADDGA1021+006001999GF102991999999999999999999MA1102401999999REMMET051METAR SBQV 241200Z 11010KT 9999 FEW020 24/15 Q1024;
0120833440999992007102413004-14950-040883FM-15+0840SBQV V0200701N003110060019N0112651N1+02501+01501999999ADDGA1071+006001999GF107991999999999999999999MA1102401999999REMMET051METAR SBQV 241300Z 07006KT 9999 BKN020 25/15 Q1024;
0120833440999992007102414004-14950-040883FM-15+0840SBQV V0201001N006710060019N0112651N1+02601+01401999999ADDGA1071+006001999GF107991999999999999999999MA1102301999999REMMET051METAR SBQV 241400Z 10013KT 9999 BKN020 26/14 Q1023;
0120833440999992007102415004-14950-040883FM-15+0840SBQV V0200901N003612200019N0112651N1+02601+01501999999ADDGA1041+006001999GF104991999999999999999999MA1102201999999REMMET051METAR SBQV 241500Z 09007KT 9999 SCT020 26/15 Q1022;
0120833440999992007102416004-14950-040883FM-15+0840SBQV V0201001N008210075019N0112651N1+02701+01501999999ADDGA1071+007501999GF107991999999999999999999MA1102101999999REMMET051METAR SBQV 241600Z 10016KT 9999 BKN025 27/15 Q1021;
0120833440999992007102417004-14950-040883FM-15+0840SBQV V0201001N005110060019N0112651N1+02801+01501999999ADDGA1071+006001999GF107991999999999999999999MA1101901999999REMMET051METAR SBQV 241700Z 10010KT 9999 BKN020 28/15 Q1019;
0120833440999992007102418004-14950-040883FM-15+0840SBQV V0200801N005710060019N0112651N1+02801+01401999999ADDGA1071+006001999GF107991999999999999999999MA1101901999999REMMET051METAR SBQV 241800Z 08011KT 9999 BKN020 28/14 Q1019;
0120833440999992007102419004-14950-040883FM-15+0840SBQV V0201101N005712200019N0112651N1+02801+01501999999ADDGA1041+006001999GF104991999999999999999999MA1101901999999REMMET051METAR SBQV 241900Z 11011KT 9999 SCT020 28/15 Q1019;
0120833440999992007102420004-14950-040883FM-15+0840SBQV V0201001N004612200019N0112651N1+02601+01601999999ADDGA1041+004801999GF104991999999999999999999MA1101901999999REMMET051METAR SBQV 242000Z 10009KT 9999 SCT016 26/16 Q1019;
0120833440999992007102421004-14950-040883FM-15+0840SBQV V0201001N004612200019N0112651N1+02401+01601999999ADDGA1021+004501999GF102991999999999999999999MA1101901999999REMMET051METAR SBQV 242100Z 10009KT 9999 FEW015 24/16 Q1019;
0072833440999992007102422004-14950-040883FM-15+0840SBQV V0201101N00411220001CN0099001N1+02301+01601999999ADDMA1101901999999REMMET045METAR SBQV 242200Z 11008KT CAVOK 23/16 Q1019;
0120833440999992007102511004-14950-040883FM-15+0840SBQV V0201001N005112200019N0112651N1+02201+01701999999ADDGA1041+003901999GF104991999999999999999999MA1102201999999REMMET051METAR SBQV 251100Z 10010KT 9999 SCT013 22/17 Q1022;
0120833440999992007102512004-14950-040883FM-15+0840SBQV V0200701N005112200019N0112651N1+02401+01601999999ADDGA1041+004501999GF104991999999999999999999MA1102201999999REMMET051METAR SBQV 251200Z 07010KT 9999 SCT015 24/16 Q1022;
0120833440999992007102513004-14950-040883FM-15+0840SBQV V0201101N004612200019N0112651N1+02601+01501999999ADDGA1041+004801999GF104991999999999999999999MA1102101999999REMMET051METAR SBQV 251300Z 11009KT 9999 SCT016 26/15 Q1021;
0120833440999992007102514004-14950-040883FM-15+0840SBQV V0200801N005712200019N0112651N1+02701+01501999999ADDGA1041+006001999GF104991999999999999999999MA1102101999999REMMET051METAR SBQV 251400Z 08011KT 9999 SCT020 27/15 Q1021;
0120833440999992007102515004-14950-040883FM-15+0840SBQV V0201001N005112200019N0112651N1+02801+01401999999ADDGA1041+006001999GF104991999999999999999999MA1102001999999REMMET051METAR SBQV 251500Z 10010KT 9999 SCT020 28/14 Q1020;
0143833440999992007102516004-14950-040883FM-15+0840SBQV V0201201N008212200019N0112651N1+02901+01401999999ADDGA1021+009001999GA2041+090001999GF104991999999999999999999MA1101901999999REMMET058METAR SBQV 251600Z 12016KT 9999 FEW030 SCT300 29/14 Q1019;
0120833440999992007102517004-14950-040883FM-15+0840SBQV V0201001N007212200019N0112651N1+02801+01601999999ADDGA1021+009001999GF102991999999999999999999MA1101801999999REMMET051METAR SBQV 251700Z 10014KT 9999 FEW030 28/16 Q1018;
0120833440999992007102518004-14950-040883FM-15+0840SBQV V0201001N006712200019N0112651N1+02801+01401999999ADDGA1021+009001999GF102991999999999999999999MA1101691999999REMMET051METAR SBQV 251800Z 10013KT 9999 FEW030 28/14 Q1017;
0120833440999992007102519004-14950-040883FM-15+0840SBQV V0201001N008212200019N0112651N1+02801+01301999999ADDGA1021+009001999GF102991999999999999999999MA1101691999999REMMET051METAR SBQV 251900Z 10016KT 9999 FEW030 28/13 Q1017;
0072833440999992007102520004-14950-040883FM-15+0840SBQV V0201301N00511220001CN0099001N1+02601+01501999999ADDMA1101801999999REMMET045METAR SBQV 252000Z 13010KT CAVOK 26/15 Q1018;
0072833440999992007102522004-14950-040883FM-15+0840SBQV V0201001N00721220001CN0099001N1+02301+01601999999ADDMA1101901999999REMMET045METAR SBQV 252200Z 10014KT CAVOK 23/16 Q1019;
0143833440999992007102611004-14950-040883FM-15+0840SBQV V0200401N004110270019N0112651N1+02101+01401999999ADDGA1021+006001999GA2071+027001999GF107991999999999999999999MA1102101999999REMMET058METAR SBQV 261100Z 04008KT 9999 FEW020 BKN090 21/14 Q1021;
0166833440999992007102612004-14950-040883FM-15+0840SBQV V0201001N00361027001CN0112651N1+02401+01401999999ADDGA1021+007501999GA2041+027001999GA3071+090001999GF107991999999999999999999MA1102101999999REMMET065METAR SBQV 261200Z 10007KT 9999 FEW025 SCT090 BKN300 24/14 Q1021;
0143833440999992007102613004-14950-040883FM-15+0840SBQV V0200401N002110900019N0112651N1+02601+01201999999ADDGA1021+010501999GA2071+090001999GF107991999999999999999999MA1102001999999REMMET058METAR SBQV 261300Z 04004KT 9999 FEW035 BKN300 26/12 Q1020;
0072833440999992007102614004-14950-040883FM-15+0840SBQV V0200801N00511220001CN0099001N1+02801+01201999999ADDMA1102001999999REMMET045METAR SBQV 261400Z 08010KT CAVOK 28/12 Q1020;
0143833440999992007102615004-14950-040883FM-15+0840SBQV V0201001N001512200019N0112651N1+03001+01101999999ADDGA1021+012001999GA2041+030001999GF104991999999999999999999MA1101901999999REMMET058METAR SBQV 261500Z 10003KT 9999 FEW040 SCT100 30/11 Q1019;
0143833440999992007102616004-14950-040883FM-15+0840SBQV V0201001N003610900019N0112651N1+03001+01401999999ADDGA1021+012001999GA2071+090001999GF107991999999999999999999MA1101801999999REMMET058METAR SBQV 261600Z 10007KT 9999 FEW040 BKN300 30/14 Q1018;
0143833440999992007102617004-14950-040883FM-15+0840SBQV V0200701N006210900019N0112651N1+03001+01201999999ADDGA1021+012001999GA2071+090001999GF107991999999999999999999MA1101691999999REMMET058METAR SBQV 261700Z 07012KT 9999 FEW040 BKN300 30/12 Q1017;
0143833440999992007102618004-14950-040883FM-15+0840SBQV V0201001N005710900019N0112651N1+02901+01501999999ADDGA1021+012001999GA2071+090001999GF107991999999999999999999MA1101591999999REMMET058METAR SBQV 261800Z 10011KT 9999 FEW040 BKN300 29/15 Q1016;
0143833440999992007102619004-14950-040883FM-15+0840SBQV V0201001N006212200019N0112651N1+02901+01501999999ADDGA1021+009001999GA2041+090001999GF104991999999999999999999MA1101591999999REMMET058METAR SBQV 261900Z 10012KT 9999 FEW030 SCT300 29/15 Q1016;
0143833440999992007102620004-14950-040883FM-15+0840SBQV V0201001N004112200019N0112651N1+02701+01401999999ADDGA1021+009001999GA2041+090001999GF104991999999999999999999MA1101691999999REMMET058METAR SBQV 262000Z 10008KT 9999 FEW030 SCT300 27/14 Q1017;
0120833440999992007102621004-14950-040883FM-15+0840SBQV V0201001N004112200019N0112651N1+02401+01501999999ADDGA1021+006001999GF102991999999999999999999MA1101691999999REMMET051METAR SBQV 262100Z 10008KT 9999 FEW020 24/15 Q1017;
0072833440999992007102622004-14950-040883FM-15+0840SBQV V0201001N00511220001CN0099001N1+02301+01401999999ADDMA1101801999999REMMET045METAR SBQV 262200Z 10010KT CAVOK 23/14 Q1018;
0072833440999992007102711004-14950-040883FM-15+0840SBQV V0200801N00151220001CN0099001N1+02101+01301999999ADDMA1101901999999REMMET045METAR SBQV 271100Z 08003KT CAVOK 21/13 Q1019;
0072833440999992007102712004-14950-040883FM-15+0840SBQV V0200101N00361220001CN0099001N1+02401+01301999999ADDMA1101901999999REMMET045METAR SBQV 271200Z 01007KT CAVOK 24/13 Q1019;
0072833440999992007102713004-14950-040883FM-15+0840SBQV V0200401N00361220001CN0099001N1+02701+01201999999ADDMA1101901999999REMMET045METAR SBQV 271300Z 04007KT CAVOK 27/12 Q1019;
0072833440999992007102714004-14950-040883FM-15+0840SBQV V0200701N00511220001CN0099001N1+02901+01001999999ADDMA1101801999999REMMET045METAR SBQV 271400Z 07010KT CAVOK 29/10 Q1018;
0072833440999992007102715004-14950-040883FM-15+0840SBQV V0200601N00361220001CN0099001N1+03001+00901999999ADDMA1101691999999REMMET045METAR SBQV 271500Z 06007KT CAVOK 30/09 Q1017;
0072833440999992007102716004-14950-040883FM-15+0840SBQV V0200401N00311220001CN0099001N1+03101+00801999999ADDMA1101591999999REMMET045METAR SBQV 271600Z 04006KT CAVOK 31/08 Q1016;
0072833440999992007102717004-14950-040883FM-15+0840SBQV V0200701N00151220001CN0099001N1+03201+00901999999ADDMA1101491999999REMMET045METAR SBQV 271700Z 07003KT CAVOK 32/09 Q1015;
0072833440999992007102718004-14950-040883FM-15+0840SBQV V0200901N00211220001CN0099001N1+03201+01101999999ADDMA1101491999999REMMET045METAR SBQV 271800Z 09004KT CAVOK 32/11 Q1015;
0072833440999992007102719004-14950-040883FM-15+0840SBQV V0201001N00261220001CN0099001N1+03201+01101999999ADDMA1101491999999REMMET045METAR SBQV 271900Z 10005KT CAVOK 32/11 Q1015;
0072833440999992007102720004-14950-040883FM-15+0840SBQV V0201101N00461220001CN0099001N1+03001+01301999999ADDMA1101491999999REMMET045METAR SBQV 272000Z 11009KT CAVOK 30/13 Q1015;
0072833440999992007102721004-14950-040883FM-15+0840SBQV V0201001N00511220001CN0099001N1+02701+01501999999ADDMA1101591999999REMMET045METAR SBQV 272100Z 10010KT CAVOK 27/15 Q1016;
0072833440999992007102722004-14950-040883FM-15+0840SBQV V0201001N00411220001CN0099001N1+02501+01701999999ADDMA1101591999999REMMET045METAR SBQV 272200Z 10008KT CAVOK 25/17 Q1016;
0078833440999992007102810154-14950-040883FM-16+0840SBQV V0200301N002612200019N0099001N1+02501+01601999999ADDMA1101701999999REMMET051METAR SBQV 281015Z SPECI 03005KT CAVOK 25/16 Q1017;
0072833440999992007102811004-14950-040883FM-15+0840SBQV V0200201N00361220001CN0099001N1+02601+01201999999ADDMA1101691999999REMMET045METAR SBQV 281100Z 02007KT CAVOK 26/12 Q1017;
0072833440999992007102812004-14950-040883FM-15+0840SBQV V0200201N00361220001CN0099001N1+02901+01101999999ADDMA1101801999999REMMET045METAR SBQV 281200Z 02007KT CAVOK 29/11 Q1018;
0072833440999992007102813004-14950-040883FM-15+0840SBQV V0200401N00261220001CN0099001N1+03001+01201999999ADDMA1101691999999REMMET045METAR SBQV 281300Z 04005KT CAVOK 30/12 Q1017;
0072833440999992007102814004-14950-040883FM-15+0840SBQV V0200701N00461220001CN0099001N1+03001+01201999999ADDMA1101691999999REMMET045METAR SBQV 281400Z 07009KT CAVOK 30/12 Q1017;
0072833440999992007102815004-14950-040883FM-15+0840SBQV V0201001N00511220001CN0099001N1+03201+01201999999ADDMA1101591999999REMMET045METAR SBQV 281500Z 10010KT CAVOK 32/12 Q1016;
0120833440999992007102816004-14950-040883FM-15+0840SBQV V0201001N005112200019N0112651N1+03201+01101999999ADDGA1021+007501999GF102991999999999999999999MA1101491999999REMMET051METAR SBQV 281600Z 10010KT 9999 FEW025 32/11 Q1015;
0120833440999992007102817004-14950-040883FM-15+0840SBQV V0200701N001012200019N0112651N1+03301+01101999999ADDGA1021+009001999GF102991999999999999999999MA1101391999999REMMET051METAR SBQV 281700Z 07002KT 9999 FEW030 33/11 Q1014;
0120833440999992007102818004-14950-040883FM-15+0840SBQV V0201001N005112200019N0112651N1+03201+01301999999ADDGA1021+009001999GF102991999999999999999999MA1101391999999REMMET051METAR SBQV 281800Z 10010KT 9999 FEW030 32/13 Q1014;
0120833440999992007102819004-14950-040883FM-15+0840SBQV V0201001N005112200019N0112651N1+03201+01501999999ADDGA1021+009001999GF102991999999999999999999MA1101391999999REMMET051METAR SBQV 281900Z 10010KT 9999 FEW030 32/15 Q1014;
0072833440999992007102820004-14950-040883FM-15+0840SBQV V0201201N00821220001CN0099001N1+02901+01301999999ADDMA1101391999999REMMET045METAR SBQV 282000Z 12016KT CAVOK 29/13 Q1014;
0077833440999992007102821004-14950-040883FM-15+0840SBQV V0201001N005112200019N0112651N1+02601+01401999999ADDMA1101501999999REMMET050METAR SBQV 282100Z 10010KT 9999 CAVOK 26/14 Q1015;
0072833440999992007102822004-14950-040883FM-15+0840SBQV V0201101N00511220001CN0099001N1+02501+01501999999ADDMA1101591999999REMMET045METAR SBQV 282200Z 11010KT CAVOK 25/15 Q1016;
0120833440999992007102911004-14950-040883FM-15+0840SBQV V0200801N008212200019N0112651N1+02301+01501999999ADDGA1021+006001999GF102991999999999999999999MA1101801999999REMMET051METAR SBQV 291100Z 08016KT 9999 FEW020 23/15 Q1018;
0120833440999992007102912004-14950-040883FM-15+0840SBQV V0200801N001512200019N0112651N1+02501+01501999999ADDGA1021+007501999GF102991999999999999999999MA1101901999999REMMET051METAR SBQV 291200Z 08003KT 9999 FEW025 25/15 Q1019;
0120833440999992007102913004-14950-040883FM-15+0840SBQV V0200501N003612200019N0112651N1+02701+01501999999ADDGA1021+007501999GF102991999999999999999999MA1101801999999REMMET051METAR SBQV 291300Z 05007KT 9999 FEW025 27/15 Q1018;
0072833440999992007102914004-14950-040883FM-15+0840SBQV V0200701N00101220001CN0099001N1+02901+01301999999ADDMA1101801999999REMMET045METAR SBQV 291400Z 07002KT CAVOK 29/13 Q1018;
0072833440999992007102915004-14950-040883FM-15+0840SBQV V0200801N00511220001CN0099001N1+03001+01201999999ADDMA1101691999999REMMET045METAR SBQV 291500Z 08010KT CAVOK 30/12 Q1017;
0120833440999992007102916004-14950-040883FM-15+0840SBQV V0200401N004612200019N0112651N1+03001+01301999999ADDGA1021+007501999GF102991999999999999999999MA1101591999999REMMET051METAR SBQV 291600Z 04009KT 9999 FEW025 30/13 Q1016;
0072833440999992007102917004-14950-040883FM-15+0840SBQV V0201001N00311220001CN0099001N1+03201+01201999999ADDMA1101491999999REMMET045METAR SBQV 291700Z 10006KT CAVOK 32/12 Q1015;
0072833440999992007102918004-14950-040883FM-15+0840SBQV V0201001N00411220001CN0099001N1+03101+01401999999ADDMA1101391999999REMMET045METAR SBQV 291800Z 10008KT CAVOK 31/14 Q1014;
0072833440999992007102919004-14950-040883FM-15+0840SBQV V0201001N00511220001CN0099001N1+03001+01401999999ADDMA1101391999999REMMET045METAR SBQV 291900Z 10010KT CAVOK 30/14 Q1014;
0072833440999992007102920004-14950-040883FM-15+0840SBQV V0201301N00621220001CN0099001N1+02801+01401999999ADDMA1101491999999REMMET045METAR SBQV 292000Z 13012KT CAVOK 28/14 Q1015;
0072833440999992007102921004-14950-040883FM-15+0840SBQV V0201301N00361220001CN0099001N1+02601+01401999999ADDMA1101491999999REMMET045METAR SBQV 292100Z 13007KT CAVOK 26/14 Q1015;
0072833440999992007102922004-14950-040883FM-15+0840SBQV V0201101N00411220001CN0099001N1+02501+01501999999ADDMA1101591999999REMMET045METAR SBQV 292200Z 11008KT CAVOK 25/15 Q1016;
0120833440999992007103011004-14950-040883FM-15+0840SBQV V0200701N005112200019N0112651N1+02201+01501999999ADDGA1041+004501999GF104991999999999999999999MA1101901999999REMMET051METAR SBQV 301100Z 07010KT 9999 SCT015 22/15 Q1019;
0120833440999992007103012004-14950-040883FM-15+0840SBQV V0200501N005112200019N0112651N1+02401+01501999999ADDGA1021+004801999GF102991999999999999999999MA1101801999999REMMET051METAR SBQV 301200Z 05010KT 9999 FEW016 24/15 Q1018;
0120833440999992007103013004-14950-040883FM-15+0840SBQV V0200901N005112200019N0112651N1+02501+01401999999ADDGA1021+006001999GF102991999999999999999999MA1101801999999REMMET051METAR SBQV 301300Z 09010KT 9999 FEW020 25/14 Q1018;
0120833440999992007103014004-14950-040883FM-15+0840SBQV V0201201N004612200019N0112651N1+02701+01501999999ADDGA1021+006001999GF102991999999999999999999MA1101691999999REMMET051METAR SBQV 301400Z 12009KT 9999 FEW020 27/15 Q1017;
0120833440999992007103015004-14950-040883FM-15+0840SBQV V0200901N005112200019N0112651N1+02901+01201999999ADDGA1021+007501999GF102991999999999999999999MA1101491999999REMMET051METAR SBQV 301500Z 09010KT 9999 FEW025 29/12 Q1015;
0120833440999992007103016004-14950-040883FM-15+0840SBQV V0200401N003112200019N0112651N1+03101+01301999999ADDGA1021+012001999GF102991999999999999999999MA1101391999999REMMET051METAR SBQV 301600Z 04006KT 9999 FEW040 31/13 Q1014;
0120833440999992007103017004-14950-040883FM-15+0840SBQV V0200701N003112200019N0112651N1+03101+01101999999ADDGA1021+012001999GF102991999999999999999999MA1101291999999REMMET051METAR SBQV 301700Z 07006KT 9999 FEW040 31/11 Q1013;
0120833440999992007103018004-14950-040883FM-15+0840SBQV V0200801N006212200019N0112651N1+03001+01401999999ADDGA1021+012001999GF102991999999999999999999MA1101191999999REMMET051METAR SBQV 301800Z 08012KT 9999 FEW040 30/14 Q1012;
0120833440999992007103019004-14950-040883FM-15+0840SBQV V0200901N007212200019N0112651N1+03001+01501999999ADDGA1021+010501999GF102991999999999999999999MA1101191999999REMMET051METAR SBQV 301900Z 09014KT 9999 FEW035 30/15 Q1012;
0120833440999992007103020004-14950-040883FM-15+0840SBQV V0201001N006212200019N0112651N1+02801+01601999999ADDGA1021+009001999GF102991999999999999999999MA1101291999999REMMET051METAR SBQV 302000Z 10012KT 9999 FEW030 28/16 Q1013;
0072833440999992007103021004-14950-040883FM-15+0840SBQV V0201001N00511220001CN0099001N1+02601+01501999999ADDMA1101291999999REMMET045METAR SBQV 302100Z 10010KT CAVOK 26/15 Q1013;
0072833440999992007103022004-14950-040883FM-15+0840SBQV V0201001N00511220001CN0099001N1+02401+01501999999ADDMA1101391999999REMMET045METAR SBQV 302200Z 10010KT CAVOK 24/15 Q1014;
0120833440999992007103111004-14950-040883FM-15+0840SBQV V0200701N002612200019N0112651N1+02301+01501999999ADDGA1021+007501999GF102991999999999999999999MA1101691999999REMMET051METAR SBQV 311100Z 07005KT 9999 FEW025 23/15 Q1017;
0143833440999992007103113004-14950-040883FM-15+0840SBQV V0200801N008210900019N0112651N1+02701+01101999999ADDGA1021+010501999GA2071+090001999GF107991999999999999999999MA1101691999999REMMET058METAR SBQV 311300Z 08016KT 9999 FEW035 BKN300 27/11 Q1017;
0143833440999992007103114004-14950-040883FM-15+0840SBQV V0200601N002610900019N0112651N1+02801+01101999999ADDGA1021+010501999GA2071+090001999GF107991999999999999999999MA1101691999999REMMET058METAR SBQV 311400Z 06005KT 9999 FEW035 BKN300 28/11 Q1017;
0143833440999992007103115004-14950-040883FM-15+0840SBQV V0201001N005710900019N0112651N1+03001+00801999999ADDGA1021+012001999GA2071+090001999GF107991999999999999999999MA1101591999999REMMET058METAR SBQV 311500Z 10011KT 9999 FEW040 BKN300 30/08 Q1016;
0143833440999992007103116004-14950-040883FM-15+0840SBQV V0201301N006210900019N0112651N1+03001+01001999999ADDGA1021+012001999GA2071+090001999GF107991999999999999999999MA1101391999999REMMET058METAR SBQV 311600Z 13012KT 9999 FEW040 BKN300 30/10 Q1014;
0143833440999992007103117004-14950-040883FM-15+0840SBQV V0201201N004610900019N0112651N1+03101+01101999999ADDGA1021+012001999GA2071+090001999GF107991999999999999999999MA1101291999999REMMET058METAR SBQV 311700Z 12009KT 9999 FEW040 BKN300 31/11 Q1013;
0143833440999992007103118004-14950-040883FM-15+0840SBQV V0201101N004612200019N0112651N1+03101+00901999999ADDGA1021+012001999GA2041+090001999GF104991999999999999999999MA1101291999999REMMET058METAR SBQV 311800Z 11009KT 9999 FEW040 SCT300 31/09 Q1013;
0143833440999992007103119004-14950-040883FM-15+0840SBQV V0201101N003612200019N0112651N1+03001+00901999999ADDGA1021+012001999GA2041+090001999GF104991999999999999999999MA1101291999999REMMET058METAR SBQV 311900Z 11007KT 9999 FEW040 SCT300 30/09 Q1013;
0072833440999992007103120004-14950-040883FM-15+0840SBQV V0201101N00671220001CN0099001N1+02901+01301999999ADDMA1101291999999REMMET045METAR SBQV 312000Z 11013KT CAVOK 29/13 Q1013;
0072833440999992007103121004-14950-040883FM-15+0840SBQV V0201101N00571220001CN0099001N1+02601+01201999999ADDMA1101291999999REMMET045METAR SBQV 312100Z 11011KT CAVOK 26/12 Q1013;
0072833440999992007103122004-14950-040883FM-15+0840SBQV V0201001N00571220001CN0099001N1+02401+01401999999ADDMA1101391999999REMMET045METAR SBQV 312200Z 10011KT CAVOK 24/14 Q1014;
0072833440999992007103123004-14950-040883FM-15+0840SBQV V0201001N00511220001CN0099001N1+02401+01501999999ADDMA1101491999999REMMET045METAR SBQV 312300Z 10010KT CAVOK 24/15 Q1015;
0072833440999992007110100004-14950-040883FM-15+0840SBQV V0201001N00461220001CN0099001N1+02201+01701999999ADDMA1101491999999REMMET045METAR SBQV 010000Z 10009KT CAVOK 22/17 Q1015;
0072833440999992007110101004-14950-040883FM-15+0840SBQV V0201001N00411220001CN0099001N1+02201+01601999999ADDMA1101491999999REMMET045METAR SBQV 010100Z 10008KT CAVOK 22/16 Q1015;
0072833440999992007110106004-14950-040883FM-15+0840SBQV V0201401N00101220001CN0099001N1+01801+01601999999ADDMA1101391999999REMMET045METAR SBQV 010600Z 14002KT CAVOK 18/16 Q1014;
0072833440999992007110107004-14950-040883FM-15+0840SBQV V0201301N00101220001CN0099001N1+01701+01601999999ADDMA1101391999999REMMET045METAR SBQV 010700Z 13002KT CAVOK 17/16 Q1014;
0120833440999992007110111004-14950-040883FM-15+0840SBQV V0200501N003612200019N0112651N1+02101+01601999999ADDGA1041+005401999GF104991999999999999999999MA1101691999999REMMET051METAR SBQV 011100Z 05007KT 9999 SCT018 21/16 Q1017;
0120833440999992007110112004-14950-040883FM-15+0840SBQV V0200401N004612200019N0112651N1+02301+01601999999ADDGA1021+006001999GF102991999999999999999999MA1101691999999REMMET051METAR SBQV 011200Z 04009KT 9999 FEW020 23/16 Q1017;
0120833440999992007110113004-14950-040883FM-15+0840SBQV V0200501N004612200019N0112651N1+02601+01601999999ADDGA1021+007501999GF102991999999999999999999MA1101691999999REMMET051METAR SBQV 011300Z 05009KT 9999 FEW025 26/16 Q1017;
0120833440999992007110114004-14950-040883FM-15+0840SBQV V0200601N003612200019N0112651N1+02801+01601999999ADDGA1021+009001999GF102991999999999999999999MA1101591999999REMMET051METAR SBQV 011400Z 06007KT 9999 FEW030 28/16 Q1016;
0120833440999992007110115004-14950-040883FM-15+0840SBQV V0200401N003612200019N0112651N1+02901+01501999999ADDGA1021+009001999GF102991999999999999999999MA1101491999999REMMET051METAR SBQV 011500Z 04007KT 9999 FEW030 29/15 Q1015;
0120833440999992007110116004-14950-040883FM-15+0840SBQV V0200401N005112200019N0112651N1+03001+01201999999ADDGA1021+010501999GF102991999999999999999999MA1101391999999REMMET051METAR SBQV 011600Z 04010KT 9999 FEW035 30/12 Q1014;
0120833440999992007110117004-14950-040883FM-15+0840SBQV V0200701N004612200019N0112651N1+03101+01301999999ADDGA1021+009001999GF102991999999999999999999MA1101291999999REMMET051METAR SBQV 011700Z 07009KT 9999 FEW030 31/13 Q1013;
0120833440999992007110118004-14950-040883FM-15+0840SBQV V0203501N002612200019N0112651N1+03001+01401999999ADDGA1021+009001999GF102991999999999999999999MA1101291999999REMMET051METAR SBQV 011800Z 35005KT 9999 FEW030 30/14 Q1013;
0120833440999992007110119004-14950-040883FM-15+0840SBQV V0200201N003612200019N0112651N1+03101+01501999999ADDGA1021+007501999GF102991999999999999999999MA1101191999999REMMET051METAR SBQV 011900Z 02007KT 9999 FEW025 31/15 Q1012;
0120833440999992007110120004-14950-040883FM-15+0840SBQV V0200201N004112200019N0112651N1+03001+01301999999ADDGA1021+006001999GF102991999999999999999999MA1101291999999REMMET051METAR SBQV 012000Z 02008KT 9999 FEW020 30/13 Q1013;
0072833440999992007110121004-14950-040883FM-15+0840SBQV V0200201N00411220001CN0099001N1+02901+01401999999ADDMA1101291999999REMMET045METAR SBQV 012100Z 02008KT CAVOK 29/14 Q1013;
0072833440999992007110122004-14950-040883FM-15+0840SBQV V0200501N00461220001CN0099001N1+02701+01501999999ADDMA1101291999999REMMET045METAR SBQV 012200Z 05009KT CAVOK 27/15 Q1013;
0072833440999992007110123004-14950-040883FM-15+0840SBQV V0200501N00511220001CN0099001N1+02501+01601999999ADDMA1101391999999REMMET045METAR SBQV 012300Z 05010KT CAVOK 25/16 Q1014;
0072833440999992007110200004-14950-040883FM-15+0840SBQV V0200901N00151220001CN0099001N1+02401+01701999999ADDMA1101491999999REMMET045METAR SBQV 020000Z 09003KT CAVOK 24/17 Q1015;
0072833440999992007110211004-14950-040883FM-15+0840SBQV V0200401N00821220001CN0099001N1+02401+01801999999ADDMA1101691999999REMMET045METAR SBQV 021100Z 04016KT CAVOK 24/18 Q1017;
0072833440999992007110212004-14950-040883FM-15+0840SBQV V0200401N00211220001CN0099001N1+02701+01701999999ADDMA1101801999999REMMET045METAR SBQV 021200Z 04004KT CAVOK 27/17 Q1018;
0143833440999992007110213004-14950-040883FM-15+0840SBQV V0200101N005110900019N0112651N1+02901+01601999999ADDGA1021+010501999GA2071+090001999GF107991999999999999999999MA1101801999999REMMET058METAR SBQV 021300Z 01010KT 9999 FEW035 BKN300 29/16 Q1018;
0072833440999992007110214004-14950-040883FM-15+0840SBQV V0200101N00311220001CN0099001N1+03101+01501999999ADDMA1101691999999REMMET045METAR SBQV 021400Z 01006KT CAVOK 31/15 Q1017;
0143833440999992007110215004-14950-040883FM-15+0840SBQV V0200101N003112200019N0112651N1+03201+01401999999ADDGA1021+012001999GA2041+090001999GF104991999999999999999999MA1101591999999REMMET058METAR SBQV 021500Z 01006KT 9999 FEW040 SCT300 32/14 Q1016;
0120833440999992007110216004-14950-040883FM-15+0840SBQV V0200501N004612200019N0112651N1+03201+01401999999ADDGA1041+012001999GF104991999999999999999999MA1101391999999REMMET051METAR SBQV 021600Z 05009KT 9999 SCT040 32/14 Q1014;
0120833440999992007110217004-14950-040883FM-15+0840SBQV V0201601N002612200019N0112651N1+03401+01401999999ADDGA1041+012001999GF104991999999999999999999MA1101291999999REMMET051METAR SBQV 021700Z 16005KT 9999 SCT040 34/14 Q1013;
0120833440999992007110218004-14950-040883FM-15+0840SBQV V0200101N005712200019N0112651N1+03301+01401999999ADDGA1021+012001999GF102991999999999999999999MA1101291999999REMMET051METAR SBQV 021800Z 01011KT 9999 FEW040 33/14 Q1013;
0120833440999992007110219004-14950-040883FM-15+0840SBQV V0200101N003112200019N0112651N1+03201+01401999999ADDGA1021+012001999GF102991999999999999999999MA1101291999999REMMET051METAR SBQV 021900Z 01006KT 9999 FEW040 32/14 Q1013;
0120833440999992007110220004-14950-040883FM-15+0840SBQV V0200801N003612200019N0112651N1+03301+01401999999ADDGA1021+012001999GF102991999999999999999999MA1101291999999REMMET051METAR SBQV 022000Z 08007KT 9999 FEW040 33/14 Q1013;
0120833440999992007110221004-14950-040883FM-15+0840SBQV V0200801N005712200019N0112651N1+02901+01701999999ADDGA1021+010501999GF102991999999999999999999MA1101291999999REMMET051METAR SBQV 022100Z 08011KT 9999 FEW035 29/17 Q1013;
0072833440999992007110222004-14950-040883FM-15+0840SBQV V0200701N00261220001CN0099001N1+02701+01701999999ADDMA1101391999999REMMET045METAR SBQV 022200Z 07005KT CAVOK 27/17 Q1014;
0120833440999992007110223004-14950-040883FM-15+0840SBQV V0200701N004112200019N0112651N1+02601+01601999999ADDGA1021+010501999GF102991999999999999999999MA1101491999999REMMET051METAR SBQV 022300Z 07008KT 9999 FEW035 26/16 Q1015;
0072833440999992007110300004-14950-040883FM-15+0840SBQV V0200601N00571220001CN0099001N1+02501+01701999999ADDMA1101491999999REMMET045METAR SBQV 030000Z 06011KT CAVOK 25/17 Q1015;
0072833440999992007110301004-14950-040883FM-15+0840SBQV V0200501N00361220001CN0099001N1+02401+01801999999ADDMA1101591999999REMMET045METAR SBQV 030100Z 05007KT CAVOK 24/18 Q1016;
0072833440999992007110302004-14950-040883FM-15+0840SBQV V0200801N00311220001CN0099001N1+02401+01901999999ADDMA1101591999999REMMET045METAR SBQV 030200Z 08006KT CAVOK 24/19 Q1016;
0120833440999992007110311004-14950-040883FM-15+0840SBQV V0200301N009312200019N0112651N1+02601+01201999999ADDGA1021+007501999GF102991999999999999999999MA1101691999999REMMET051METAR SBQV 031100Z 03018KT 9999 FEW025 26/12 Q1017;
0143833440999992007110312004-14950-040883FM-15+0840SBQV V0200401N004612200019N0112651N1+02801+01201999999ADDGA1021+009001999GA2041+090001999GF104991999999999999999999MA1101801999999REMMET058METAR SBQV 031200Z 04009KT 9999 FEW030 SCT300 28/12 Q1018;
0072833440999992007110313004-14950-040883FM-15+0840SBQV V0200201N00461220001CN0099001N1+03001+01301999999ADDMA1101691999999REMMET045METAR SBQV 031300Z 02009KT CAVOK 30/13 Q1017;
0072833440999992007110314004-14950-040883FM-15+0840SBQV V0200401N00361220001CN0099001N1+03101+01201999999ADDMA1101691999999REMMET045METAR SBQV 031400Z 04007KT CAVOK 31/12 Q1017;
0120833440999992007110315004-14950-040883FM-15+0840SBQV V0200701N001012200019N0112651N1+03301+01301999999ADDGA1021+012001999GF102991999999999999999999MA1101591999999REMMET051METAR SBQV 031500Z 07002KT 9999 FEW040 33/13 Q1016;
0120833440999992007110316004-14950-040883FM-15+0840SBQV V0200401N005110120019N0112651N1+03301+01201999999ADDGA1071+012001999GF107991999999999999999999MA1101491999999REMMET051METAR SBQV 031600Z 04010KT 9999 BKN040 33/12 Q1015;
0120833440999992007110317004-14950-040883FM-15+0840SBQV V0200201N001012200019N0112651N1+03301+01301999999ADDGA1041+012001999GF104991999999999999999999MA1101391999999REMMET051METAR SBQV 031700Z 02002KT 9999 SCT040 33/13 Q1014;
0120833440999992007110318004-14950-040883FM-15+0840SBQV V0200401N000512200019N0112651N1+03301+01301999999ADDGA1041+012001999GF104991999999999999999999MA1101291999999REMMET051METAR SBQV 031800Z 04001KT 9999 SCT040 33/13 Q1013;
0120833440999992007110319004-14950-040883FM-15+0840SBQV V0201101N005112200019N0112651N1+03101+01501999999ADDGA1021+009001999GF102991999999999999999999MA1101291999999REMMET051METAR SBQV 031900Z 11010KT 9999 FEW030 31/15 Q1013;
0120833440999992007110320004-14950-040883FM-15+0840SBQV V0201001N006212200019N0112651N1+02901+01601999999ADDGA1021+007501999GF102991999999999999999999MA1101291999999REMMET051METAR SBQV 032000Z 10012KT 9999 FEW025 29/16 Q1013;
0072833440999992007110321004-14950-040883FM-15+0840SBQV V0201001N00621220001CN0099001N1+02601+01701999999ADDMA1101391999999REMMET045METAR SBQV 032100Z 10012KT CAVOK 26/17 Q1014;
0072833440999992007110322004-14950-040883FM-15+0840SBQV V0201101N00461220001CN0099001N1+02501+01701999999ADDMA1101491999999REMMET045METAR SBQV 032200Z 11009KT CAVOK 25/17 Q1015;
0072833440999992007110411004-14950-040883FM-15+0840SBQV V0200501N00571220001CN0099001N1+02401+01501999999ADDMA1101691999999REMMET045METAR SBQV 041100Z 05011KT CAVOK 24/15 Q1017;
0072833440999992007110412004-14950-040883FM-15+0840SBQV V0200701N00511220001CN0099001N1+02601+01201999999ADDMA1101691999999REMMET045METAR SBQV 041200Z 07010KT CAVOK 26/12 Q1017;
0072833440999992007110413004-14950-040883FM-15+0840SBQV V0200401N00671220001CN0099001N1+02801+01201999999ADDMA1101691999999REMMET045METAR SBQV 041300Z 04013KT CAVOK 28/12 Q1017;
0072833440999992007110414004-14950-040883FM-15+0840SBQV V0200701N00411220001CN0099001N1+03001+01201999999ADDMA1101591999999REMMET045METAR SBQV 041400Z 07008KT CAVOK 30/12 Q1016;
0072833440999992007110415004-14950-040883FM-15+0840SBQV V0200501N00511220001CN0099001N1+03001+01101999999ADDMA1101591999999REMMET045METAR SBQV 041500Z 05010KT CAVOK 30/11 Q1016;
0120833440999992007110416004-14950-040883FM-15+0840SBQV V0201501N003112200019N0112651N1+03101+01001999999ADDGA1021+010501999GF102991999999999999999999MA1101391999999REMMET051METAR SBQV 041600Z 15006KT 9999 FEW035 31/10 Q1014;
0120833440999992007110417004-14950-040883FM-15+0840SBQV V0200701N001012200019N0112651N1+03201+00801999999ADDGA1021+012001999GF102991999999999999999999MA1101291999999REMMET051METAR SBQV 041700Z 07002KT 9999 FEW040 32/08 Q1013;
0120833440999992007110418004-14950-040883FM-15+0840SBQV V0200701N003112200019N0112651N1+03201+00801999999ADDGA1021+012001999GF102991999999999999999999MA1101191999999REMMET051METAR SBQV 041800Z 07006KT 9999 FEW040 32/08 Q1012;
0120833440999992007110419004-14950-040883FM-15+0840SBQV V0200801N005112200019N0112651N1+03201+00801999999ADDGA1021+012001999GF102991999999999999999999MA1101191999999REMMET051METAR SBQV 041900Z 08010KT 9999 FEW040 32/08 Q1012;
0072833440999992007110420004-14950-040883FM-15+0840SBQV V0201001N00821220001CN0099001N1+03101+01101999999ADDMA1101191999999REMMET045METAR SBQV 042000Z 10016KT CAVOK 31/11 Q1012;
0072833440999992007110421004-14950-040883FM-15+0840SBQV V0201001N00511220001CN0099001N1+02701+01501999999ADDMA1101291999999REMMET045METAR SBQV 042100Z 10010KT CAVOK 27/15 Q1013;
0072833440999992007110422004-14950-040883FM-15+0840SBQV V0201001N00671220001CN0099001N1+02501+01501999999ADDMA1101391999999REMMET045METAR SBQV 042200Z 10013KT CAVOK 25/15 Q1014;
0072833440999992007110423004-14950-040883FM-15+0840SBQV V0200701N00621220001CN0099001N1+02401+01501999999ADDMA1101491999999REMMET045METAR SBQV 042300Z 07012KT CAVOK 24/15 Q1015;
0072833440999992007110500004-14950-040883FM-15+0840SBQV V0200701N00511220001CN0099001N1+02301+01601999999ADDMA1101491999999REMMET045METAR SBQV 050000Z 07010KT CAVOK 23/16 Q1015;
0072833440999992007110501004-14950-040883FM-15+0840SBQV V0200701N00411220001CN0099001N1+02301+01601999999ADDMA1101591999999REMMET045METAR SBQV 050100Z 07008KT CAVOK 23/16 Q1016;
0120833440999992007110511004-14950-040883FM-15+0840SBQV V0200701N005712200019N0112651N1+02301+01501999999ADDGA1021+007501999GF102991999999999999999999MA1101801999999REMMET051METAR SBQV 051100Z 07011KT 9999 FEW025 23/15 Q1018;
0120833440999992007110512004-14950-040883FM-15+0840SBQV V0200701N004612200019N0112651N1+02501+01401999999ADDGA1021+009001999GF102991999999999999999999MA1101801999999REMMET051METAR SBQV 051200Z 07009KT 9999 FEW030 25/14 Q1018;
0120833440999992007110513004-14950-040883FM-15+0840SBQV V0200401N004112200019N0112651N1+02601+01301999999ADDGA1021+009001999GF102991999999999999999999MA1101801999999REMMET051METAR SBQV 051300Z 04008KT 9999 FEW030 26/13 Q1018;
0143833440999992007110514004-14950-040883FM-15+0840SBQV V0201301N005112200019N0112651N1+02901+01301999999ADDGA1021+012001999GA2041+090001999GF104991999999999999999999MA1101801999999REMMET058METAR SBQV 051400Z 13010KT 9999 FEW040 SCT300 29/13 Q1018;
0143833440999992007110515004-14950-040883FM-15+0840SBQV V0200601N002610900019N0112651N1+02901+01201999999ADDGA1021+012001999GA2071+090001999GF107991999999999999999999MA1101691999999REMMET058METAR SBQV 051500Z 06005KT 9999 FEW040 BKN300 29/12 Q1017;
0143833440999992007110516004-14950-040883FM-15+0840SBQV V0201301N005112200019N0112651N1+03001+01301999999ADDGA1021+012001999GA2041+090001999GF104991999999999999999999MA1101591999999REMMET058METAR SBQV 051600Z 13010KT 9999 FEW040 SCT300 30/13 Q1016;
0143833440999992007110517004-14950-040883FM-15+0840SBQV V0201301N005112200019N0112651N1+02901+01201999999ADDGA1021+012001999GA2041+090001999GF104991999999999999999999MA1101491999999REMMET058METAR SBQV 051700Z 13010KT 9999 FEW040 SCT300 29/12 Q1015;
0143833440999992007110518004-14950-040883FM-15+0840SBQV V0201001N007712200019N0112651N1+02901+01201999999ADDGA1021+012001999GA2041+090001999GF104991999999999999999999MA1101491999999REMMET058METAR SBQV 051800Z 10015KT 9999 FEW040 SCT300 29/12 Q1015;
0143833440999992007110519004-14950-040883FM-15+0840SBQV V0201001N007212200019N0112651N1+02801+01301999999ADDGA1021+010501999GA2041+090001999GF104991999999999999999999MA1101491999999REMMET058METAR SBQV 051900Z 10014KT 9999 FEW035 SCT300 28/13 Q1015;
0143833440999992007110520004-14950-040883FM-15+0840SBQV V0201301N003112200019N0112651N1+02701+01101999999ADDGA1021+009001999GA2041+090001999GF104991999999999999999999MA1101491999999REMMET058METAR SBQV 052000Z 13006KT 9999 FEW030 SCT300 27/11 Q1015;
0143833440999992007110521004-14950-040883FM-15+0840SBQV V0201201N006212200019N0112651N1+02501+01501999999ADDGA1021+007501999GA2041+090001999GF104991999999999999999999MA1101591999999REMMET058METAR SBQV 052100Z 12012KT 9999 FEW025 SCT300 25/15 Q1016;
0072833440999992007110522004-14950-040883FM-15+0840SBQV V0201301N00511220001CN0099001N1+02401+01601999999ADDMA1101591999999REMMET045METAR SBQV 052200Z 13010KT CAVOK 24/16 Q1016;
0116833440999992007110610154-14950-040883FM-16+0840SBQV V0201001N008219999999N0112651N1+02001+01501999999ADDKA1999M+99999MA1102101999999REMMET057METAR SBQV 061015Z SPECI 10016KT 9999 FEW018 20/15 Q1021;EQDQ01 +00162ATMX  
0120833440999992007110611004-14950-040883FM-15+0840SBQV V0200901N007212200019N0112651N1+02201+01401999999ADDGA1041+005401999GF104991999999999999999999MA1102101999999REMMET051METAR SBQV 061100Z 09014KT 9999 SCT018 22/14 Q1021;
0120833440999992007110612004-14950-040883FM-15+0840SBQV V0201001N008210060019N0112651N1+02301+01301999999ADDGA1071+006001999GF107991999999999999999999MA1102101999999REMMET051METAR SBQV 061200Z 10016KT 9999 BKN020 23/13 Q1021;
0120833440999992007110613004-14950-040883FM-15+0840SBQV V0201001N005112200019N0112651N1+02501+01201999999ADDGA1041+007501999GF104991999999999999999999MA1102101999999REMMET051METAR SBQV 061300Z 10010KT 9999 SCT025 25/12 Q1021;
0120833440999992007110614004-14950-040883FM-15+0840SBQV V0200901N010312200019N0112651N1+02601+01101999999ADDGA1041+007501999GF104991999999999999999999MA1102001999999REMMET051METAR SBQV 061400Z 09020KT 9999 SCT025 26/11 Q1020;
0120833440999992007110615004-14950-040883FM-15+0840SBQV V0201301N005110075019N0112651N1+02701+01201999999ADDGA1071+007501999GF107991999999999999999999MA1101901999999REMMET051METAR SBQV 061500Z 13010KT 9999 BKN025 27/12 Q1019;
0120833440999992007110616004-14950-040883FM-15+0840SBQV V0200901N004112200019N0112651N1+02801+01201999999ADDGA1041+007501999GF104991999999999999999999MA1101901999999REMMET051METAR SBQV 061600Z 09008KT 9999 SCT025 28/12 Q1019;
0120833440999992007110617004-14950-040883FM-15+0840SBQV V0200701N005112200019N0112651N1+03001+01101999999ADDGA1021+009001999GF102991999999999999999999MA1101801999999REMMET051METAR SBQV 061700Z 07010KT 9999 FEW030 30/11 Q1018;
0120833440999992007110618004-14950-040883FM-15+0840SBQV V0200801N004612200019N0112651N1+02901+01401999999ADDGA1021+009001999GF102991999999999999999999MA1101691999999REMMET051METAR SBQV 061800Z 08009KT 9999 FEW030 29/14 Q1017;
0120833440999992007110619004-14950-040883FM-15+0840SBQV V0200901N004612200019N0112651N1+02801+01301999999ADDGA1021+007501999GF102991999999999999999999MA1101691999999REMMET051METAR SBQV 061900Z 09009KT 9999 FEW025 28/13 Q1017;
0120833440999992007110620004-14950-040883FM-15+0840SBQV V0201001N005712200019N0112651N1+02701+01301999999ADDGA1021+007501999GF102991999999999999999999MA1101691999999REMMET051METAR SBQV 062000Z 10011KT 9999 FEW025 27/13 Q1017;
0072833440999992007110621004-14950-040883FM-15+0840SBQV V0201001N00671220001CN0099001N1+02501+01401999999ADDMA1101801999999REMMET045METAR SBQV 062100Z 10013KT CAVOK 25/14 Q1018;
0072833440999992007110622004-14950-040883FM-15+0840SBQV V0201001N00461220001CN0099001N1+02301+01401999999ADDMA1101801999999REMMET045METAR SBQV 062200Z 10009KT CAVOK 23/14 Q1018;
0143833440999992007110711004-14950-040883FM-15+0914SBQV V0200601N004110060019N0112651N1+02101+01501999999ADDGA1041+004801999GA2071+006001999GF107991999999999999999999MA1102201999999REMMET058METAR SBQV 071100Z 06008KT 9999 SCT016 BKN020 21/15 Q1022;
0143833440999992007110712004-14950-040883FM-15+0914SBQV V0200701N003110060019N0112651N1+02301+01601999999ADDGA1021+004801999GA2071+006001999GF107991999999999999999999MA1102201999999REMMET058METAR SBQV 071200Z 07006KT 9999 FEW016 BKN020 23/16 Q1022;
0120833440999992007110714004-14950-040883FM-15+0914SBQV V0200801N005110075019N0112651N1+02601+01601999999ADDGA1071+007501999GF107991999999999999999999MA1102101999999REMMET051METAR SBQV 071400Z 08010KT 9999 BKN025 26/16 Q1021;
0120833440999992007110715004-14950-040883FM-15+0914SBQV V0200601N005112200019N0112651N1+02701+01501999999ADDGA1041+009001999GF104991999999999999999999MA1102001999999REMMET051METAR SBQV 071500Z 06010KT 9999 SCT030 27/15 Q1020;
0120833440999992007110716004-14950-040883FM-15+0914SBQV V0200801N004612200019N0112651N1+03001+01401999999ADDGA1021+007501999GF102991999999999999999999MA1101801999999REMMET051METAR SBQV 071600Z 08009KT 9999 FEW025 30/14 Q1018;
0120833440999992007110717004-14950-040883FM-15+0914SBQV V0200601N005112200019N0112651N1+02901+01401999999ADDGA1041+007501999GF104991999999999999999999MA1101691999999REMMET051METAR SBQV 071700Z 06010KT 9999 SCT025 29/14 Q1017;
0120833440999992007110718004-14950-040883FM-15+0914SBQV V0200901N005112200019N0112651N1+03001+01501999999ADDGA1041+007501999GF104991999999999999999999MA1101691999999REMMET051METAR SBQV 071800Z 09010KT 9999 SCT025 30/15 Q1017;
0120833440999992007110719004-14950-040883FM-15+0914SBQV V0201001N004612200019N0112651N1+02901+01401999999ADDGA1021+006001999GF102991999999999999999999MA1101691999999REMMET051METAR SBQV 071900Z 10009KT 9999 FEW020 29/14 Q1017;
0120833440999992007110720004-14950-040883FM-15+0914SBQV V0201001N005712200019N0112651N1+02701+01401999999ADDGA1021+004801999GF102991999999999999999999MA1101691999999REMMET051METAR SBQV 072000Z 10011KT 9999 FEW016 27/14 Q1017;
0072833440999992007110721004-14950-040883FM-15+0914SBQV V0201201N00511220001CN0099001N1+02501+01601999999ADDMA1101691999999REMMET045METAR SBQV 072100Z 12010KT CAVOK 25/16 Q1017;
0072833440999992007110722004-14950-040883FM-15+0914SBQV V0200901N00511220001CN0099001N1+02401+01701999999ADDMA1101801999999REMMET045METAR SBQV 072200Z 09010KT CAVOK 24/17 Q1018;
0143833440999992007110811004-14950-040883FM-15+0914SBQV V0200701N003112200019N0112651N1+02201+01401999999ADDGA1021+005401999GA2041+090001999GF104991999999999999999999MA1101901999999REMMET058METAR SBQV 081100Z 07006KT 9999 FEW018 SCT300 22/14 Q1019;
0143833440999992007110812004-14950-040883FM-15+0914SBQV V0200601N006712200019N0112651N1+02501+01401999999ADDGA1021+006001999GA2041+090001999GF104991999999999999999999MA1101901999999REMMET058METAR SBQV 081200Z 06013KT 9999 FEW020 SCT300 25/14 Q1019;
0143833440999992007110813004-14950-040883FM-15+0914SBQV V0201201N006712200019N0112651N1+02601+01401999999ADDGA1021+007501999GA2041+090001999GF104991999999999999999999MA1101901999999REMMET058METAR SBQV 081300Z 12013KT 9999 FEW025 SCT300 26/14 Q1019;
0143833440999992007110814004-14950-040883FM-15+0914SBQV V0201101N004112200019N0112651N1+02701+01501999999ADDGA1021+007501999GA2041+090001999GF104991999999999999999999MA1101801999999REMMET058METAR SBQV 081400Z 11008KT 9999 FEW025 SCT300 27/15 Q1018;
0143833440999992007110815004-14950-040883FM-15+0914SBQV V0201001N003612200019N0112651N1+02901+01501999999ADDGA1021+007501999GA2041+090001999GF104991999999999999999999MA1101801999999REMMET058METAR SBQV 081500Z 10007KT 9999 FEW025 SCT300 29/15 Q1018;
0143833440999992007110816004-14950-040883FM-15+0914SBQV V0200801N005712200019N0112651N1+02801+01501999999ADDGA1041+007501999GA2041+090001999GF104991999999999999999999MA1101591999999REMMET058METAR SBQV 081600Z 08011KT 9999 SCT025 SCT300 28/15 Q1016;
0143833440999992007110817004-14950-040883FM-15+0914SBQV V0200701N004112200019N0112651N1+02901+01501999999ADDGA1041+007501999GA2041+090001999GF104991999999999999999999MA1101491999999REMMET058METAR SBQV 081700Z 07008KT 9999 SCT025 SCT300 29/15 Q1015;
0120833440999992007110818004-14950-040883FM-15+0914SBQV V0201301N006212200019N0112651N1+02901+01501999999ADDGA1021+007501999GF102991999999999999999999MA1101491999999REMMET051METAR SBQV 081800Z 13012KT 9999 FEW025 29/15 Q1015;
0120833440999992007110819004-14950-040883FM-15+0914SBQV V0201201N005112200019N0112651N1+02901+01601999999ADDGA1021+007501999GF102991999999999999999999MA1101491999999REMMET051METAR SBQV 081900Z 12010KT 9999 FEW025 29/16 Q1015;
0072833440999992007110820004-14950-040883FM-15+0914SBQV V0201001N00411220001CN0099001N1+02701+01501999999ADDMA1101491999999REMMET045METAR SBQV 082000Z 10008KT CAVOK 27/15 Q1015;
0072833440999992007110821004-14950-040883FM-15+0914SBQV V0201201N00671220001CN0099001N1+02501+01601999999ADDMA1101491999999REMMET045METAR SBQV 082100Z 12013KT CAVOK 25/16 Q1015;
0072833440999992007110822004-14950-040883FM-15+0914SBQV V0201001N00411220001CN0099001N1+02401+01601999999ADDMA1101591999999REMMET045METAR SBQV 082200Z 10008KT CAVOK 24/16 Q1016;
0143833440999992007110911004-14950-040883FM-15+0914SBQV V0200701N004112200019N0112651N1+02201+01401999999ADDGA1021+004801999GA2041+090001999GF104991999999999999999999MA1101801999999REMMET058METAR SBQV 091100Z 07008KT 9999 FEW016 SCT300 22/14 Q1018;
0143833440999992007110912004-14950-040883FM-15+0914SBQV V0200801N004112200019N0112651N1+02401+01301999999ADDGA1021+006001999GA2041+090001999GF104991999999999999999999MA1101801999999REMMET058METAR SBQV 091200Z 08008KT 9999 FEW020 SCT300 24/13 Q1018;
0143833440999992007110913004-14950-040883FM-15+0914SBQV V0200901N005712200019N0112651N1+02701+01301999999ADDGA1021+006001999GA2041+090001999GF104991999999999999999999MA1101801999999REMMET058METAR SBQV 091300Z 09011KT 9999 FEW020 SCT300 27/13 Q1018;
0143833440999992007110914004-14950-040883FM-15+0914SBQV V0200501N003612200019N0112651N1+02701+01201999999ADDGA1021+007501999GA2041+090001999GF104991999999999999999999MA1101691999999REMMET058METAR SBQV 091400Z 05007KT 9999 FEW025 SCT300 27/12 Q1017;
0143833440999992007110915004-14950-040883FM-15+0914SBQV V0201001N005712200019N0112651N1+02801+01301999999ADDGA1021+007501999GA2041+090001999GF104991999999999999999999MA1101591999999REMMET058METAR SBQV 091500Z 10011KT 9999 FEW025 SCT300 28/13 Q1016;
0143833440999992007110916004-14950-040883FM-15+0914SBQV V0200701N002110900019N0112651N1+02901+01101999999ADDGA1021+009001999GA2071+090001999GF107991999999999999999999MA1101491999999REMMET058METAR SBQV 091600Z 07004KT 9999 FEW030 BKN300 29/11 Q1015;
0143833440999992007110917004-14950-040883FM-15+0914SBQV V0200701N005110900019N0112651N1+02901+01101999999ADDGA1021+009001999GA2071+090001999GF107991999999999999999999MA1101391999999REMMET058METAR SBQV 091700Z 07010KT 9999 FEW030 BKN300 29/11 Q1014;
0143833440999992007110918004-14950-040883FM-15+0914SBQV V0200601N005110900019N0112651N1+02901+01201999999ADDGA1021+009001999GA2071+090001999GF107991999999999999999999MA1101391999999REMMET058METAR SBQV 091800Z 06010KT 9999 FEW030 BKN300 29/12 Q1014;
0143833440999992007110919004-14950-040883FM-15+0914SBQV V0200701N005110900019N0112651N1+02801+01401999999ADDGA1021+009001999GA2071+090001999GF107991999999999999999999MA1101391999999REMMET058METAR SBQV 091900Z 07010KT 9999 FEW030 BKN300 28/14 Q1014;
0072833440999992007110920004-14950-040883FM-15+0914SBQV V0201001N00821220001CN0099001N1+02701+01401999999ADDMA1101391999999REMMET045METAR SBQV 092000Z 10016KT CAVOK 27/14 Q1014;
0072833440999992007110921004-14950-040883FM-15+0914SBQV V0200801N00721220001CN0099001N1+02501+01401999999ADDMA1101391999999REMMET045METAR SBQV 092100Z 08014KT CAVOK 25/14 Q1014;
0072833440999992007110922004-14950-040883FM-15+0914SBQV V0201001N00411220001CN0099001N1+02401+01401999999ADDMA1101491999999REMMET045METAR SBQV 092200Z 10008KT CAVOK 24/14 Q1015;
0120833440999992007111011004-14950-040883FM-15+0914SBQV V0200701N005712200019N0112651N1+02201+01501999999ADDGA1021+007501999GF102991999999999999999999MA1101691999999REMMET051METAR SBQV 101100Z 07011KT 9999 FEW025 22/15 Q1017;
0072833440999992007111012004-14950-040883FM-15+0914SBQV V0200701N00511220001CN0099001N1+02501+01401999999ADDMA1101691999999REMMET045METAR SBQV 101200Z 07010KT CAVOK 25/14 Q1017;
0072833440999992007111013004-14950-040883FM-15+0914SBQV V0200601N00411220001CN0099001N1+02701+01301999999ADDMA1101591999999REMMET045METAR SBQV 101300Z 06008KT CAVOK 27/13 Q1016;
0143833440999992007111014004-14950-040883FM-15+0914SBQV V0200401N001012200019N0112651N1+02901+01201999999ADDGA1021+012001999GA2041+090001999GF104991999999999999999999MA1101591999999REMMET058METAR SBQV 101400Z 04002KT 9999 FEW040 SCT300 29/12 Q1016;
0143833440999992007111015004-14950-040883FM-15+0914SBQV V0200701N005110900019N0112651N1+03001+00901999999ADDGA1021+012001999GA2071+090001999GF107991999999999999999999MA1101491999999REMMET058METAR SBQV 101500Z 07010KT 9999 FEW040 BKN300 30/09 Q1015;
0143833440999992007111017004-14950-040883FM-15+0914SBQV V0200801N002610900019N0112651N1+03101+00901999999ADDGA1021+012001999GA2071+090001999GF107991999999999999999999MA1101291999999REMMET058METAR SBQV 101700Z 08005KT 9999 FEW040 BKN300 31/09 Q1013;
0072833440999992007111018004-14950-040883FM-15+0914SBQV V0201101N00671220001CN0099001N1+03101+01001999999ADDMA1101191999999REMMET045METAR SBQV 101800Z 11013KT CAVOK 31/10 Q1012;
0072833440999992007111019004-14950-040883FM-15+0914SBQV V0201001N00411220001CN0099001N1+03001+00801999999ADDMA1101191999999REMMET045METAR SBQV 101900Z 10008KT CAVOK 30/08 Q1012;
0072833440999992007111020004-14950-040883FM-15+0914SBQV V0201101N00621220001CN0099001N1+02801+01101999999ADDMA1101291999999REMMET045METAR SBQV 102000Z 11012KT CAVOK 28/11 Q1013;
0072833440999992007111021004-14950-040883FM-15+0914SBQV V0201001N00411220001CN0099001N1+02601+01101999999ADDMA1101291999999REMMET045METAR SBQV 102100Z 10008KT CAVOK 26/11 Q1013;
0072833440999992007111022004-14950-040883FM-15+0914SBQV V0200901N00511220001CN0099001N1+02501+01201999999ADDMA1101291999999REMMET045METAR SBQV 102200Z 09010KT CAVOK 25/12 Q1013;
0120833440999992007111111004-14950-040883FM-15+0914SBQV V0200501N005112200019N0112651N1+02301+01501999999ADDGA1021+004501999GF102991999999999999999999MA1101591999999REMMET051METAR SBQV 111100Z 05010KT 9999 FEW015 23/15 Q1016;
0120833440999992007111112004-14950-040883FM-15+0914SBQV V0200601N004612200019N0112651N1+02501+01301999999ADDGA1021+004801999GF102991999999999999999999MA1101691999999REMMET051METAR SBQV 111200Z 06009KT 9999 FEW016 25/13 Q1017;
0120833440999992007111113004-14950-040883FM-15+0914SBQV V0201001N001512200019N0112651N1+02701+01301999999ADDGA1021+006001999GF102991999999999999999999MA1101591999999REMMET051METAR SBQV 111300Z 10003KT 9999 FEW020 27/13 Q1016;
0120833440999992007111114004-14950-040883FM-15+0914SBQV V0200701N003112200019N0112651N1+02901+01201999999ADDGA1021+007501999GF102991999999999999999999MA1101591999999REMMET051METAR SBQV 111400Z 07006KT 9999 FEW025 29/12 Q1016;
0143833440999992007111115004-14950-040883FM-15+0914SBQV V0200401N002612200019N0112651N1+03001+01201999999ADDGA1021+007501999GA2041+090001999GF104991999999999999999999MA1101491999999REMMET058METAR SBQV 111500Z 04005KT 9999 FEW025 SCT300 30/12 Q1015;
0143833440999992007111116004-14950-040883FM-15+0914SBQV V0201801N001010900019N0112651N1+03101+01001999999ADDGA1021+009001999GA2071+090001999GF107991999999999999999999MA1101391999999REMMET058METAR SBQV 111600Z 18002KT 9999 FEW030 BKN300 31/10 Q1014;
0143833440999992007111117004-14950-040883FM-15+0914SBQV V0201601N002112200019N0112651N1+03201+01201999999ADDGA1021+010501999GA2041+090001999GF104991999999999999999999MA1101291999999REMMET058METAR SBQV 111700Z 16004KT 9999 FEW035 SCT300 32/12 Q1013;
0143833440999992007111118004-14950-040883FM-15+0914SBQV V0201501N005710900019N0112651N1+03301+01101999999ADDGA1021+010501999GA2071+090001999GF107991999999999999999999MA1101291999999REMMET058METAR SBQV 111800Z 15011KT 9999 FEW035 BKN300 33/11 Q1013;
0143833440999992007111119004-14950-040883FM-15+0914SBQV V0201401N007710900019N0112651N1+03201+01201999999ADDGA1021+010501999GA2071+090001999GF107991999999999999999999MA1101291999999REMMET058METAR SBQV 111900Z 14015KT 9999 FEW035 BKN300 32/12 Q1013;
0143833440999992007111120004-14950-040883FM-15+0914SBQV V0201101N005110900019N0112651N1+02901+01301999999ADDGA1021+009001999GA2071+090001999GF107991999999999999999999MA1101291999999REMMET058METAR SBQV 112000Z 11010KT 9999 FEW030 BKN300 29/13 Q1013;
0143833440999992007111121004-14950-040883FM-15+0914SBQV V0201201N005712200019N0112651N1+02701+01301999999ADDGA1021+007501999GA2041+090001999GF104991999999999999999999MA1101391999999REMMET058METAR SBQV 112100Z 12011KT 9999 FEW025 SCT300 27/13 Q1014;
0072833440999992007111122004-14950-040883FM-15+0914SBQV V0201001N00411220001CN0099001N1+02601+01501999999ADDMA1101391999999REMMET045METAR SBQV 112200Z 10008KT CAVOK 26/15 Q1014;
0143833440999992007111211004-14950-040883FM-15+0914SBQV V0200101N003112200019N0112651N1+02301+01601999999ADDGA1021+004501999GA2041+090001999GF104991999999999999999999MA1101801999999REMMET058METAR SBQV 121100Z 01006KT 9999 FEW015 SCT300 23/16 Q1018;
0120833440999992007111212004-14950-040883FM-15+0914SBQV V0200701N002112200019N0112651N1+02501+01501999999ADDGA1041+006001999GF104991999999999999999999MA1101801999999REMMET051METAR SBQV 121200Z 07004KT 9999 SCT020 25/15 Q1018;
0120833440999992007111213004-14950-040883FM-15+0914SBQV V0201001N003110075019N0112651N1+02701+01501999999ADDGA1071+007501999GF107991999999999999999999MA1101801999999REMMET051METAR SBQV 121300Z 10006KT 9999 BKN025 27/15 Q1018;
0120833440999992007111214004-14950-040883FM-15+0914SBQV V0200901N001012200019N0112651N1+02701+01401999999ADDGA1041+009001999GF104991999999999999999999MA1101801999999REMMET051METAR SBQV 121400Z 09002KT 9999 SCT030 27/14 Q1018;
0120833440999992007111215004-14950-040883FM-15+0914SBQV V0200101N006212200019N0112651N1+02901+01201999999ADDGA1041+009001999GF104991999999999999999999MA1101691999999REMMET051METAR SBQV 121500Z 01012KT 9999 SCT030 29/12 Q1017;
0120833440999992007111216004-14950-040883FM-15+0914SBQV V0200401N005112200019N0112651N1+03101+01201999999ADDGA1041+009001999GF104991999999999999999999MA1101591999999REMMET051METAR SBQV 121600Z 04010KT 9999 SCT030 31/12 Q1016;
0143833440999992007111217004-14950-040883FM-15+0914SBQV V0200701N007212200019N0112651N1+03101+01201999999ADDGA1021+009001999GA2041+090001999GF104991999999999999999999MA1101491999999REMMET058METAR SBQV 121700Z 07014KT 9999 FEW030 SCT300 31/12 Q1015;
0143833440999992007111218004-14950-040883FM-15+0914SBQV V0200701N002612200019N0112651N1+03101+01201999999ADDGA1021+009001999GA2041+090001999GF104991999999999999999999MA1101491999999REMMET058METAR SBQV 121800Z 07005KT 9999 FEW030 SCT300 31/12 Q1015;
0143833440999992007111219004-14950-040883FM-15+0914SBQV V0200801N005712200019N0112651N1+03101+01101999999ADDGA1021+009001999GA2041+090001999GF104991999999999999999999MA1101391999999REMMET058METAR SBQV 121900Z 08011KT 9999 FEW030 SCT300 31/11 Q1014;
0072833440999992007111220004-14950-040883FM-15+0914SBQV V0201001N00671220001CN0099001N1+02901+01401999999ADDMA1101491999999REMMET045METAR SBQV 122000Z 10013KT CAVOK 29/14 Q1015;
0072833440999992007111221004-14950-040883FM-15+0914SBQV V0201101N00671220001CN0099001N1+02601+01301999999ADDMA1101491999999REMMET045METAR SBQV 122100Z 11013KT CAVOK 26/13 Q1015;
0072833440999992007111222004-14950-040883FM-15+0914SBQV V0201001N00461220001CN0099001N1+02501+01501999999ADDMA1101491999999REMMET045METAR SBQV 122200Z 10009KT CAVOK 25/15 Q1015;
0120833440999992007111311004-14950-040883FM-15+0914SBQV V0201101N006212200019N0112651N1+02401+01801999999ADDGA1021+005401999GF102991999999999999999999MA1101901999999REMMET051METAR SBQV 131100Z 11012KT 9999 FEW018 24/18 Q1019;
0120833440999992007111312004-14950-040883FM-15+0914SBQV V0201101N008210060019N0112651N1+02501+01801999999ADDGA1071+006001999GF107991999999999999999999MA1101901999999REMMET051METAR SBQV 131200Z 11016KT 9999 BKN020 25/18 Q1019;
0120833440999992007111313004-14950-040883FM-15+0914SBQV V0201301N007210060019N0112651N1+02601+01801999999ADDGA1071+006001999GF107991999999999999999999MA1101901999999REMMET051METAR SBQV 131300Z 13014KT 9999 BKN020 26/18 Q1019;
0143833440999992007111314004-14950-040883FM-15+0914SBQV V0201301N006712200019N0112651N1+02601+01801999999ADDGA1041+005401999GA2041+006001999GF104991999999999999999999MA1101901999999REMMET058METAR SBQV 131400Z 13013KT 9999 SCT018 SCT020 26/18 Q1019;
0143833440999992007111315004-14950-040883FM-15+0914SBQV V0201301N006212200019N0112651N1+02301+02001999999ADDGA1041+004801999GA2041+024001999GF104991999999999999999999MA1101901999999REMMET058METAR SBQV 131500Z 13012KT 9999 SCT016 SCT080 23/20 Q1019;
0120833440999992007111316004-14950-040883FM-15+0914SBQV V0201301N006712200019N0112651N1+02201+01901999999ADDGA1041+003901999GF104991999999999999999999MA1101801999999REMMET051METAR SBQV 131600Z 13013KT 9999 SCT013 22/19 Q1018;
0143833440999992007111317004-14950-040883FM-15+0914SBQV V0201301N009312200019N0112651N1+02201+01901999999ADDGA1041+003901999GA2041+004801999GF104991999999999999999999MA1101801999999REMMET058METAR SBQV 131700Z 13018KT 9999 SCT013 SCT016 22/19 Q1018;
0143833440999992007111318004-14950-040883FM-15+0914SBQV V0201301N008212200019N0112651N1+02201+02001999999ADDGA1021+003001999GA2041+003901999GF104991999999999999999999MA1101691999999REMMET058METAR SBQV 131800Z 13016KT 9999 FEW010 SCT013 22/20 Q1017;
0153833440999992007111319004-14950-040883FM-15+0914SBQV V0201301N008212200019N0050001N1+02101+02001999999ADDGA1041+002701999GA2041+003901999GF104991999999999999999999MA1101801999999MW1511REMMET062METAR SBQV 131900Z 13016KT 5000 -DZ SCT009 SCT013 21/20 Q1018;
0143833440999992007111320004-14950-040883FM-15+0914SBQV V0201301N005112200019N0112651N1+02001+01801999999ADDGA1041+001501999GA2041+003001999GF104991999999999999999999MA1101801999999REMMET058METAR SBQV 132000Z 13010KT 9999 SCT005 SCT010 20/18 Q1018;
0162833440999992007111321004-14950-040883FM-15+0914SBQV V0201001N006210018019N0020001N1+01901+01901999999ADDGA1071+001801999GA2071+021001999GF107991999999999999999999MA1101801999999MW1101MW2511REMMET065METAR SBQV 132100Z 10012KT 2000 -DZ BR BKN006 BKN070 19/19 Q1018;
0181833440999992007111322004-14950-040883FM-15+0914SBQV V0201301N003110018019N0090001N1+01901+01801999999ADDGA1071+001801999GA2041+004501999GA3081+021001999GF108991999999999999999999MA1101901999999MW1611REMMET074METAR SBQV 132200Z 13006KT 9000 -RA BKN006 SCT015 OVC070 19/18 Q1019 RERA;
0120833440999992007111411004-14950-040883FM-15+0914SBQV V0201001N005110045019N0112651N1+02001+01601999999ADDGA1071+004501999GF107991999999999999999999MA1102101999999REMMET051METAR SBQV 141100Z 10010KT 9999 BKN015 20/16 Q1021;
0120833440999992007111412004-14950-040883FM-15+0914SBQV V0201101N005110045019N0112651N1+02101+01601999999ADDGA1071+004501999GF107991999999999999999999MA1102101999999REMMET051METAR SBQV 141200Z 11010KT 9999 BKN015 21/16 Q1021;
0120833440999992007111413004-14950-040883FM-15+0914SBQV V0201001N005710048019N0112651N1+02301+01501999999ADDGA1071+004801999GF107991999999999999999999MA1102001999999REMMET051METAR SBQV 141300Z 10011KT 9999 BKN016 23/15 Q1020;
0120833440999992007111414004-14950-040883FM-15+0914SBQV V0201001N005110048019N0112651N1+02401+01501999999ADDGA1071+004801999GF107991999999999999999999MA1102001999999REMMET051METAR SBQV 141400Z 10010KT 9999 BKN016 24/15 Q1020;
0120833440999992007111415004-14950-040883FM-15+0914SBQV V0201301N005110060019N0112651N1+02601+01401999999ADDGA1071+006001999GF107991999999999999999999MA1101901999999REMMET051METAR SBQV 141500Z 13010KT 9999 BKN020 26/14 Q1019;
0120833440999992007111416004-14950-040883FM-15+0914SBQV V0201001N006210060019N0112651N1+02501+01401999999ADDGA1071+006001999GF107991999999999999999999MA1101801999999REMMET051METAR SBQV 141600Z 10012KT 9999 BKN020 25/14 Q1018;
0120833440999992007111417004-14950-040883FM-15+0914SBQV V0201001N004610075019N0112651N1+02801+01301999999ADDGA1071+007501999GF107991999999999999999999MA1101691999999REMMET051METAR SBQV 141700Z 10009KT 9999 BKN025 28/13 Q1017;
0120833440999992007111418004-14950-040883FM-15+0914SBQV V0201201N006210075019N0112651N1+02701+01501999999ADDGA1071+007501999GF107991999999999999999999MA1101691999999REMMET051METAR SBQV 141800Z 12012KT 9999 BKN025 27/15 Q1017;
0120833440999992007111419004-14950-040883FM-15+0914SBQV V0201001N002112200019N0112651N1+02701+01301999999ADDGA1041+007501999GF104991999999999999999999MA1101691999999REMMET051METAR SBQV 141900Z 10004KT 9999 SCT025 27/13 Q1017;
0120833440999992007111420004-14950-040883FM-15+0914SBQV V0201201N002612200019N0112651N1+02701+01301999999ADDGA1021+007501999GF102991999999999999999999MA1101691999999REMMET051METAR SBQV 142000Z 12005KT 9999 FEW025 27/13 Q1017;
0143833440999992007111421004-14950-040883FM-15+0914SBQV V0201001N002612200019N0112651N1+02401+01601999999ADDGA1021+006001999GA2041+090001999GF104991999999999999999999MA1101691999999REMMET058METAR SBQV 142100Z 10005KT 9999 FEW020 SCT300 24/16 Q1017;
0072833440999992007111422004-14950-040883FM-15+0914SBQV V0201001N00461220001CN0099001N1+02301+01601999999ADDMA1101801999999REMMET045METAR SBQV 142200Z 10009KT CAVOK 23/16 Q1018;
0120833440999992007111511004-14950-040883FM-15+0914SBQV V0200401N003112200019N0112651N1+02201+01601999999ADDGA1021+007501999GF102991999999999999999999MA1102101999999REMMET051METAR SBQV 151100Z 04006KT 9999 FEW025 22/16 Q1021;
0120833440999992007111512004-14950-040883FM-15+0914SBQV V0201001N004112200019N0112651N1+02401+01501999999ADDGA1021+009001999GF102991999999999999999999MA1102101999999REMMET051METAR SBQV 151200Z 10008KT 9999 FEW030 24/15 Q1021;
0120833440999992007111513004-14950-040883FM-15+0914SBQV V0200701N006212200019N0112651N1+02601+01401999999ADDGA1021+010501999GF102991999999999999999999MA1102001999999REMMET051METAR SBQV 151300Z 07012KT 9999 FEW035 26/14 Q1020;
0120833440999992007111514004-14950-040883FM-15+0914SBQV V0201001N003612200019N0112651N1+02701+01301999999ADDGA1021+010501999GF102991999999999999999999MA1102001999999REMMET051METAR SBQV 151400Z 10007KT 9999 FEW035 27/13 Q1020;
0120833440999992007111515004-14950-040883FM-15+0914SBQV V0201201N006212200019N0112651N1+03001+00801999999ADDGA1021+012001999GF102991999999999999999999MA1101901999999REMMET051METAR SBQV 151500Z 12012KT 9999 FEW040 30/08 Q1019;
0120833440999992007111516004-14950-040883FM-15+0914SBQV V0200901N004612200019N0112651N1+02901+01101999999ADDGA1021+012001999GF102991999999999999999999MA1101801999999REMMET051METAR SBQV 151600Z 09009KT 9999 FEW040 29/11 Q1018;
0120833440999992007111517004-14950-040883FM-15+0914SBQV V0200701N004112200019N0112651N1+03001+01101999999ADDGA1021+012001999GF102991999999999999999999MA1101691999999REMMET051METAR SBQV 151700Z 07008KT 9999 FEW040 30/11 Q1017;
0120833440999992007111518004-14950-040883FM-15+0914SBQV V0201001N004112200019N0112651N1+03001+00901999999ADDGA1021+012001999GF102991999999999999999999MA1101591999999REMMET051METAR SBQV 151800Z 10008KT 9999 FEW040 30/09 Q1016;
0120833440999992007111519004-14950-040883FM-15+0914SBQV V0201201N006212200019N0112651N1+03001+01001999999ADDGA1021+012001999GF102991999999999999999999MA1101591999999REMMET051METAR SBQV 151900Z 12012KT 9999 FEW040 30/10 Q1016;
0120833440999992007111520004-14950-040883FM-15+0914SBQV V0201301N009312200019N0112651N1+02701+01301999999ADDGA1021+010501999GF102991999999999999999999MA1101591999999REMMET051METAR SBQV 152000Z 13018KT 9999 FEW035 27/13 Q1016;
0120833440999992007111521004-14950-040883FM-15+0914SBQV V0201001N005112200019N0112651N1+02501+01301999999ADDGA1021+007501999GF102991999999999999999999MA1101691999999REMMET051METAR SBQV 152100Z 10010KT 9999 FEW025 25/13 Q1017;
0072833440999992007111522004-14950-040883FM-15+0914SBQV V0200901N00511220001CN0099001N1+02401+01401999999ADDMA1101801999999REMMET045METAR SBQV 152200Z 09010KT CAVOK 24/14 Q1018;
0116833440999992007111610154-14950-040883FM-16+0914SBQV V0201001N002619999999N0112651N1+02101+01601999999ADDKA1999M+99999MA1102101999999REMMET057METAR SBQV 161015Z SPECI 10005KT 9999 SCT016 21/16 Q1021;EQDQ01 +00052ATMX  
0120833440999992007111611004-14950-040883FM-15+0914SBQV V0200701N004610054019N0112651N1+02301+01601999999ADDGA1071+005401999GF107991999999999999999999MA1102101999999REMMET051METAR SBQV 161100Z 07009KT 9999 BKN018 23/16 Q1021;
0120833440999992007111612004-14950-040883FM-15+0914SBQV V0201001N004610054019N0112651N1+02301+01601999999ADDGA1071+005401999GF107991999999999999999999MA1102201999999REMMET051METAR SBQV 161200Z 10009KT 9999 BKN018 23/16 Q1022;
0120833440999992007111613004-14950-040883FM-15+0914SBQV V0201001N004610054019N0112651N1+02301+01601999999ADDGA1071+005401999GF107991999999999999999999MA1102201999999REMMET051METAR SBQV 161300Z 10009KT 9999 BKN018 23/16 Q1022;
0120833440999992007111614004-14950-040883FM-15+0914SBQV V0201101N006710060019N0112651N1+02401+01601999999ADDGA1071+006001999GF107991999999999999999999MA1102201999999REMMET051METAR SBQV 161400Z 11013KT 9999 BKN020 24/16 Q1022;
0120833440999992007111615004-14950-040883FM-15+0914SBQV V0201301N008710075019N0112651N1+02601+01401999999ADDGA1071+007501999GF107991999999999999999999MA1102201999999REMMET051METAR SBQV 161500Z 13017KT 9999 BKN025 26/14 Q1022;
0120833440999992007111616004-14950-040883FM-15+0914SBQV V0201001N008212200019N0112651N1+02701+01501999999ADDGA1041+007501999GF104991999999999999999999MA1102001999999REMMET051METAR SBQV 161600Z 10016KT 9999 SCT025 27/15 Q1020;
0120833440999992007111617004-14950-040883FM-15+0914SBQV V0201001N005712200019N0112651N1+02701+01401999999ADDGA1041+007501999GF104991999999999999999999MA1102001999999REMMET051METAR SBQV 161700Z 10011KT 9999 SCT025 27/14 Q1020;
0120833440999992007111618004-14950-040883FM-15+0914SBQV V0200901N006212200019N0112651N1+02801+01401999999ADDGA1041+007501999GF104991999999999999999999MA1101901999999REMMET051METAR SBQV 161800Z 09012KT 9999 SCT025 28/14 Q1019;
0120833440999992007111619004-14950-040883FM-15+0914SBQV V0201001N006712200019N0112651N1+02701+01501999999ADDGA1041+007501999GF104991999999999999999999MA1101901999999REMMET051METAR SBQV 161900Z 10013KT 9999 SCT025 27/15 Q1019;
0120833440999992007111620004-14950-040883FM-15+0914SBQV V0201101N005112200019N0112651N1+02701+01601999999ADDGA1041+006001999GF104991999999999999999999MA1101901999999REMMET051METAR SBQV 162000Z 11010KT 9999 SCT020 27/16 Q1019;
0120833440999992007111621004-14950-040883FM-15+0914SBQV V0201101N005112200019N0112651N1+02501+01701999999ADDGA1021+004801999GF102991999999999999999999MA1102001999999REMMET051METAR SBQV 162100Z 11010KT 9999 FEW016 25/17 Q1020;
0120833440999992007111622004-14950-040883FM-15+0914SBQV V0201001N005712200019N0112651N1+02301+01801999999ADDGA1021+004501999GF102991999999999999999999MA1102101999999REMMET051METAR SBQV 162200Z 10011KT 9999 FEW015 23/18 Q1021;
0136833440999992007111711004-14950-040883FM-15+0914SBQV V0201301N00511220001CN0112651N1+01901+01701999999ADDGA1071+003601999GA2041+021001999MA1102201999999REMMET058METAR SBQV 171100Z 13010KT 9999 BKN012 SCT070 19/17 Q1022;EQDQ01+000042SCOTCV
0166833440999992007111712004-14950-040883FM-15+0914SBQV V0201301N006210036019N0112651N1+02001+01601999999ADDGA1021+002401999GA2071+003601999GA3071+021001999GF107991999999999999999999MA1102301999999REMMET065METAR SBQV 171200Z 13012KT 9999 FEW008 BKN012 BKN070 20/16 Q1023;
0166833440999992007111713004-14950-040883FM-15+0914SBQV V0201501N00771004501CN0112651N1+02101+01701999999ADDGA1041+003901999GA2041+004501999GA3071+021001999GF107991999999999999999999MA1102301999999REMMET065METAR SBQV 171300Z 15015KT 9999 SCT013 SCT015 BKN070 21/17 Q1023;
0136833440999992007111714004-14950-040883FM-15+0914SBQV V0201501N00511220001CN0112651N1+02201+01701999999ADDGA1071+005401999GA2041+021001999MA1102301999999REMMET058METAR SBQV 171400Z 15010KT 9999 BKN018 SCT070 22/17 Q1023;EQDQ01+000042SCOTCV
0120833440999992007111715004-14950-040883FM-15+0914SBQV V0201201N007210060019N0112651N1+02401+01601999999ADDGA1071+006001999GF107991999999999999999999MA1102201999999REMMET051METAR SBQV 171500Z 12014KT 9999 BKN020 24/16 Q1022;
0120833440999992007111716004-14950-040883FM-15+0914SBQV V0201201N005710060019N0112651N1+02601+01501999999ADDGA1071+006001999GF107991999999999999999999MA1102101999999REMMET051METAR SBQV 171600Z 12011KT 9999 BKN020 26/15 Q1021;
0120833440999992007111717004-14950-040883FM-15+0914SBQV V0201301N005712200019N0112651N1+02701+01501999999ADDGA1021+007501999GF102991999999999999999999MA1102001999999REMMET051METAR SBQV 171700Z 13011KT 9999 FEW025 27/15 Q1020;
0120833440999992007111718004-14950-040883FM-15+0914SBQV V0201301N006212200019N0112651N1+02801+01401999999ADDGA1021+007501999GF102991999999999999999999MA1101901999999REMMET051METAR SBQV 171800Z 13012KT 9999 FEW025 28/14 Q1019;
0120833440999992007111719004-14950-040883FM-15+0914SBQV V0201301N007212200019N0112651N1+02701+01401999999ADDGA1021+007501999GF102991999999999999999999MA1101901999999REMMET051METAR SBQV 171900Z 13014KT 9999 FEW025 27/14 Q1019;
0120833440999992007111720004-14950-040883FM-15+0914SBQV V0201301N007712200019N0112651N1+02501+01301999999ADDGA1021+006001999GF102991999999999999999999MA1101901999999REMMET051METAR SBQV 172000Z 13015KT 9999 FEW020 25/13 Q1019;
0120833440999992007111721004-14950-040883FM-15+0914SBQV V0201101N005112200019N0112651N1+02401+01401999999ADDGA1021+006001999GF102991999999999999999999MA1102001999999REMMET051METAR SBQV 172100Z 11010KT 9999 FEW020 24/14 Q1020;
0120833440999992007111722004-14950-040883FM-15+0914SBQV V0201201N006212200019N0112651N1+02301+01601999999ADDGA1021+005401999GF102991999999999999999999MA1102001999999REMMET051METAR SBQV 172200Z 12012KT 9999 FEW018 23/16 Q1020;
0120833440999992007111811004-14950-040883FM-15+0914SBQV V0201301N006210054019N0112651N1+02001+01501999999ADDGA1071+005401999GF107991999999999999999999MA1102101999999REMMET051METAR SBQV 181100Z 13012KT 9999 BKN018 20/15 Q1021;
0143833440999992007111812004-14950-040883FM-15+0914SBQV V0201001N002612200019N0112651N1+02301+01201999999ADDGA1021+006001999GA2041+090001999GF104991999999999999999999MA1102101999999REMMET058METAR SBQV 181200Z 10005KT 9999 FEW020 SCT300 23/12 Q1021;
0120833440999992007111813004-14950-040883FM-15+0914SBQV V0201301N003610060019N0112651N1+02401+01401999999ADDGA1071+006001999GF107991999999999999999999MA1102001999999REMMET051METAR SBQV 181300Z 13007KT 9999 BKN020 24/14 Q1020;
0120833440999992007111814004-14950-040883FM-15+0914SBQV V0201001N004610060019N0112651N1+02501+01401999999ADDGA1071+006001999GF107991999999999999999999MA1101901999999REMMET051METAR SBQV 181400Z 10009KT 9999 BKN020 25/14 Q1019;
0120833440999992007111815004-14950-040883FM-15+0914SBQV V0201301N007210060019N0112651N1+02501+01401999999ADDGA1071+006001999GF107991999999999999999999MA1101901999999REMMET051METAR SBQV 181500Z 13014KT 9999 BKN020 25/14 Q1019;
0120833440999992007111816004-14950-040883FM-15+0914SBQV V0201301N004612200019N0112651N1+02501+01401999999ADDGA1041+006001999GF104991999999999999999999MA1101801999999REMMET051METAR SBQV 181600Z 13009KT 9999 SCT020 25/14 Q1018;
0120833440999992007111817004-14950-040883FM-15+0914SBQV V0201201N003610060019N0112651N1+02501+01501999999ADDGA1071+006001999GF107991999999999999999999MA1101691999999REMMET051METAR SBQV 181700Z 12007KT 9999 BKN020 25/15 Q1017;
0120833440999992007111818004-14950-040883FM-15+0914SBQV V0201501N005710060019N0112651N1+02601+01501999999ADDGA1071+006001999GF107991999999999999999999MA1101591999999REMMET051METAR SBQV 181800Z 15011KT 9999 BKN020 26/15 Q1016;
0120833440999992007111819004-14950-040883FM-15+0914SBQV V0201001N005110060019N0112651N1+02501+01601999999ADDGA1071+006001999GF107991999999999999999999MA1101591999999REMMET051METAR SBQV 181900Z 10010KT 9999 BKN020 25/16 Q1016;
0120833440999992007111820004-14950-040883FM-15+0914SBQV V0201001N005112200019N0112651N1+02301+01701999999ADDGA1041+004801999GF104991999999999999999999MA1101691999999REMMET051METAR SBQV 182000Z 10010KT 9999 SCT016 23/17 Q1017;
0120833440999992007111821004-14950-040883FM-15+0914SBQV V0201101N004612200019N0112651N1+02201+01601999999ADDGA1021+004501999GF102991999999999999999999MA1101691999999REMMET051METAR SBQV 182100Z 11009KT 9999 FEW015 22/16 Q1017;
0072833440999992007111822004-14950-040883FM-15+0914SBQV V0201201N00411220001CN0099001N1+02001+01701999999ADDMA1101801999999REMMET045METAR SBQV 182200Z 12008KT CAVOK 20/17 Q1018;
0120833440999992007111913004-14950-040883FM-15+0914SBQV V0201001N005110048019N0112651N1+02501+01401999999ADDGA1071+004801999GF107991999999999999999999MA1102001999999REMMET051METAR SBQV 191300Z 10010KT 9999 BKN016 25/14 Q1020;
0120833440999992007111914004-14950-040883FM-15+0914SBQV V0200801N003610060019N0112651N1+02601+01301999999ADDGA1071+006001999GF107991999999999999999999MA1101901999999REMMET051METAR SBQV 191400Z 08007KT 9999 BKN020 26/13 Q1019;
0120833440999992007111915004-14950-040883FM-15+0914SBQV V0201001N002610060019N0112651N1+02601+01301999999ADDGA1071+006001999GF107991999999999999999999MA1101801999999REMMET051METAR SBQV 191500Z 10005KT 9999 BKN020 26/13 Q1018;
0120833440999992007111916004-14950-040883FM-15+0914SBQV V0201001N001010075019N0112651N1+02701+01301999999ADDGA1071+007501999GF107991999999999999999999MA1101691999999REMMET051METAR SBQV 191600Z 10002KT 9999 BKN025 27/13 Q1017;
0120833440999992007111917004-14950-040883FM-15+0914SBQV V0201301N004110075019N0112651N1+02801+01301999999ADDGA1071+007501999GF107991999999999999999999MA1101591999999REMMET051METAR SBQV 191700Z 13008KT 9999 BKN025 28/13 Q1016;
0120833440999992007111918004-14950-040883FM-15+0914SBQV V0201301N003112200019N0112651N1+02801+01401999999ADDGA1021+007501999GF102991999999999999999999MA1101491999999REMMET051METAR SBQV 191800Z 13006KT 9999 FEW025 28/14 Q1015;
0120833440999992007111919004-14950-040883FM-15+0914SBQV V0201001N004112200019N0112651N1+02701+01501999999ADDGA1021+007501999GF102991999999999999999999MA1101491999999REMMET051METAR SBQV 191900Z 10008KT 9999 FEW025 27/15 Q1015;
0120833440999992007111920004-14950-040883FM-15+0914SBQV V0201301N004612200019N0112651N1+02601+01501999999ADDGA1021+007501999GF102991999999999999999999MA1101491999999REMMET051METAR SBQV 192000Z 13009KT 9999 FEW025 26/15 Q1015;
0143833440999992007111921004-14950-040883FM-15+0914SBQV V0201301N005712200019N0112651N1+02401+01601999999ADDGA1021+006001999GA2041+090001999GF104991999999999999999999MA1101491999999REMMET058METAR SBQV 192100Z 13011KT 9999 FEW020 SCT300 24/16 Q1015;
0072833440999992007111922004-14950-040883FM-15+0914SBQV V0201001N00461220001CN0099001N1+02201+01601999999ADDMA1101591999999REMMET045METAR SBQV 192200Z 10009KT CAVOK 22/16 Q1016;
0143833440999992007112011004-14950-040883FM-15+0914SBQV V0200401N006210900019N0112651N1+02301+01601999999ADDGA1021+007501999GA2071+090001999GF107991999999999999999999MA1101801999999REMMET058METAR SBQV 201100Z 04012KT 9999 FEW025 BKN300 23/16 Q1018;
0143833440999992007112012004-14950-040883FM-15+0914SBQV V0201001N000510900019N0112651N1+02401+01501999999ADDGA1021+007501999GA2071+090001999GF107991999999999999999999MA1101801999999REMMET058METAR SBQV 201200Z 10001KT 9999 FEW025 BKN300 24/15 Q1018;
0143833440999992007112013004-14950-040883FM-15+0914SBQV V0201001N004110900019N0112651N1+02501+01601999999ADDGA1021+007501999GA2071+090001999GF107991999999999999999999MA1101801999999REMMET058METAR SBQV 201300Z 10008KT 9999 FEW025 BKN300 25/16 Q1018;
0143833440999992007112014004-14950-040883FM-15+0914SBQV V0200401N001012200019N0112651N1+02801+01601999999ADDGA1021+009001999GA2041+090001999GF104991999999999999999999MA1101801999999REMMET058METAR SBQV 201400Z 04002KT 9999 FEW030 SCT300 28/16 Q1018;
0120833440999992007112015004-14950-040883FM-15+0914SBQV V0200801N002112200019N0112651N1+02901+01601999999ADDGA1021+009001999GF102991999999999999999999MA1101691999999REMMET051METAR SBQV 201500Z 08004KT 9999 FEW030 29/16 Q1017;
0120833440999992007112016004-14950-040883FM-15+0914SBQV V0200601N001512200019N0112651N1+03001+01501999999ADDGA1021+009001999GF102991999999999999999999MA1101591999999REMMET051METAR SBQV 201600Z 06003KT 9999 FEW030 30/15 Q1016;
0120833440999992007112017004-14950-040883FM-15+0914SBQV V0200301N002112200019N0112651N1+03001+01201999999ADDGA1021+010501999GF102991999999999999999999MA1101491999999REMMET051METAR SBQV 201700Z 03004KT 9999 FEW035 30/12 Q1015;
0120833440999992007112018004-14950-040883FM-15+0914SBQV V0200201N001012200019N0112651N1+03001+01201999999ADDGA1021+010501999GF102991999999999999999999MA1101491999999REMMET051METAR SBQV 201800Z 02002KT 9999 FEW035 30/12 Q1015;
0120833440999992007112019004-14950-040883FM-15+0914SBQV V0200801N005712200019N0112651N1+03101+01301999999ADDGA1021+010501999GF102991999999999999999999MA1101391999999REMMET051METAR SBQV 201900Z 08011KT 9999 FEW035 31/13 Q1014;
0143833440999992007112020004-14950-040883FM-15+0914SBQV V0200701N003112200019N0112651N1+02901+01301999999ADDGA1021+009001999GA2041+090001999GF104991999999999999999999MA1101391999999REMMET058METAR SBQV 202000Z 07006KT 9999 FEW030 SCT300 29/13 Q1014;
0143833440999992007112021004-14950-040883FM-15+0914SBQV V0201001N005112200019N0112651N1+02601+01701999999ADDGA1021+007501999GA2041+090001999GF104991999999999999999999MA1101491999999REMMET058METAR SBQV 202100Z 10010KT 9999 FEW025 SCT300 26/17 Q1015;
0072833440999992007112022004-14950-040883FM-15+0914SBQV V0201001N00621220001CN0099001N1+02401+01601999999ADDMA1101491999999REMMET045METAR SBQV 202200Z 10012KT CAVOK 24/16 Q1015;
0072833440999992007112023004-14950-040883FM-15+0914SBQV V0201001N00411220001CN0099001N1+02401+01501999999ADDMA1101591999999REMMET045METAR SBQV 202300Z 10008KT CAVOK 24/15 Q1016;
0072833440999992007112100004-14950-040883FM-15+0914SBQV V0200701N00511220001CN0099001N1+02201+01701999999ADDMA1101691999999REMMET045METAR SBQV 210000Z 07010KT CAVOK 22/17 Q1017;
0072833440999992007112101004-14950-040883FM-15+0914SBQV V0200501N00511220001CN0099001N1+02201+01701999999ADDMA1101801999999REMMET045METAR SBQV 210100Z 05010KT CAVOK 22/17 Q1018;
0120833440999992007112111004-14950-040883FM-15+0914SBQV V0201001N003112200019N0112651N1+02201+01501999999ADDGA1021+004801999GF102991999999999999999999MA1102001999999REMMET051METAR SBQV 211100Z 10006KT 9999 FEW016 22/15 Q1020;
0120833440999992007112112004-14950-040883FM-15+0914SBQV V0200901N001012200019N0112651N1+02501+01501999999ADDGA1021+005401999GF102991999999999999999999MA1102001999999REMMET051METAR SBQV 211200Z 09002KT 9999 FEW018 25/15 Q1020;
0120833440999992007112113004-14950-040883FM-15+0914SBQV V0202001N002112200019N0112651N1+02701+01301999999ADDGA1021+007501999GF102991999999999999999999MA1102001999999REMMET051METAR SBQV 211300Z 20004KT 9999 FEW025 27/13 Q1020;
0120833440999992007112114004-14950-040883FM-15+0914SBQV V0201601N004112200019N0112651N1+02801+01501999999ADDGA1021+007501999GF102991999999999999999999MA1101901999999REMMET051METAR SBQV 211400Z 16008KT 9999 FEW025 28/15 Q1019;
0120833440999992007112115004-14950-040883FM-15+0914SBQV V0201601N005112200019N0112651N1+02801+01401999999ADDGA1021+009001999GF102991999999999999999999MA1101901999999REMMET051METAR SBQV 211500Z 16010KT 9999 FEW030 28/14 Q1019;
0120833440999992007112116004-14950-040883FM-15+0914SBQV V0201601N005712200019N0112651N1+03001+01401999999ADDGA1041+009001999GF104991999999999999999999MA1101801999999REMMET051METAR SBQV 211600Z 16011KT 9999 SCT030 30/14 Q1018;
0143833440999992007112117004-14950-040883FM-15+0914SBQV V0201601N004112200019N0112651N1+03001+01301999999ADDGA1021+009001999GA2041+090001999GF104991999999999999999999MA1101691999999REMMET058METAR SBQV 211700Z 16008KT 9999 FEW030 SCT300 30/13 Q1017;
0143833440999992007112118004-14950-040883FM-15+0914SBQV V0201101N006710900019N0112651N1+03101+01401999999ADDGA1021+010501999GA2071+090001999GF107991999999999999999999MA1101691999999REMMET058METAR SBQV 211800Z 11013KT 9999 FEW035 BKN300 31/14 Q1017;
0143833440999992007112119004-14950-040883FM-15+0914SBQV V0201301N006712200019N0112651N1+03001+01401999999ADDGA1021+010501999GA2041+090001999GF104991999999999999999999MA1101691999999REMMET058METAR SBQV 211900Z 13013KT 9999 FEW035 SCT300 30/14 Q1017;
0143833440999992007112120004-14950-040883FM-15+0914SBQV V0201101N004112200019N0112651N1+02801+01301999999ADDGA1021+009001999GA2041+090001999GF104991999999999999999999MA1101691999999REMMET058METAR SBQV 212000Z 11008KT 9999 FEW030 SCT300 28/13 Q1017;
0143833440999992007112121004-14950-040883FM-15+0914SBQV V0201201N005112200019N0112651N1+02601+01501999999ADDGA1021+007501999GA2041+090001999GF104991999999999999999999MA1101691999999REMMET058METAR SBQV 212100Z 12010KT 9999 FEW025 SCT300 26/15 Q1017;
0072833440999992007112122004-14950-040883FM-15+0914SBQV V0201001N00571220001CN0099001N1+02501+01401999999ADDMA1101801999999REMMET045METAR SBQV 212200Z 10011KT CAVOK 25/14 Q1018;
0143833440999992007112211004-14950-040883FM-15+0914SBQV V0201001N001010210019N0112651N1+02101+01701999999ADDGA1041+003601999GA2081+021001999GF108991999999999999999999MA1102001999999REMMET058METAR SBQV 221100Z 10002KT 9999 SCT012 OVC070 21/17 Q1020;
0166833440999992007112212004-14950-040883FM-15+0914SBQV V0200901N00051004501CN0112651N1+02201+01701999999ADDGA1021+003601999GA2041+004501999GA3081+021001999GF108991999999999999999999MA1102001999999REMMET065METAR SBQV 221200Z 09001KT 9999 FEW012 SCT015 OVC070 22/17 Q1020;
0143833440999992007112213004-14950-040883FM-15+0914SBQV V0209999C000010240019N0112651N1+02401+01401999999ADDGA1041+004801999GA2081+024001999GF108991999999999999999999MA1102001999999REMMET058METAR SBQV 221300Z 00000KT 9999 SCT016 OVC080 24/14 Q1020;
0143833440999992007112214004-14950-040883FM-15+0914SBQV V0209999C000010240019N0112651N1+02501+01601999999ADDGA1041+005401999GA2081+024001999GF108991999999999999999999MA1101901999999REMMET058METAR SBQV 221400Z 00000KT 9999 SCT018 OVC080 25/16 Q1019;
0143833440999992007112215004-14950-040883FM-15+0914SBQV V0201601N001010240019N0112651N1+02401+01601999999ADDGA1041+005401999GA2081+024001999GF108991999999999999999999MA1101901999999REMMET058METAR SBQV 221500Z 16002KT 9999 SCT018 OVC080 24/16 Q1019;
0153833440999992007112216004-14950-040883FM-15+0914SBQV V0201301N004610240019N0112651N1+02301+01901999999ADDGA1021+005401999GA2081+024001999GF108991999999999999999999MA1101801999999MW1611REMMET062METAR SBQV 221600Z 13009KT 9999 -RA FEW018 OVC080 23/19 Q1018;
0143833440999992007112217004-14950-040883FM-15+0914SBQV V0201301N004610240019N0112651N1+02301+01901999999ADDGA1021+004801999GA2081+024001999GF108991999999999999999999MA1101691999999REMMET058METAR SBQV 221700Z 13009KT 9999 FEW016 OVC080 23/19 Q1017;
0143833440999992007112218004-14950-040883FM-15+0914SBQV V0201601N005110240019N0112651N1+02301+01901999999ADDGA1041+004801999GA2081+024001999GF108991999999999999999999MA1101691999999REMMET058METAR SBQV 221800Z 16010KT 9999 SCT016 OVC080 23/19 Q1017;
0176833440999992007112219004-14950-040883FM-15+0914SBQV V0201301N00461004801CN0070001N1+02101+01801999999ADDGA1021+001801999GA2041+004801999GA3081+024001999GF108991999999999999999999MA1101691999999MW1511REMMET069METAR SBQV 221900Z 13009KT 7000 -DZ FEW006 SCT016 OVC080 21/18 Q1017;
0152833440999992007112220004-14950-040883FM-15+0914SBQV V0201601N007210018019N0050001N1+02101+01901999999ADDGA1071+001801999GA2081+024001999GF108991999999999999999999MA1101691999999MW1101REMMET061METAR SBQV 222000Z 16014KT 5000 BR BKN006 OVC080 21/19 Q1017;
0143833440999992007112221004-14950-040883FM-15+0914SBQV V0201201N007210015019N0112651N1+02001+01801999999ADDGA1071+001501999GA2081+024001999GF108991999999999999999999MA1101691999999REMMET058METAR SBQV 222100Z 12014KT 9999 BKN005 OVC080 20/18 Q1017;
0143833440999992007112222004-14950-040883FM-15+0914SBQV V0201301N006710012019N0112651N1+01901+01801999999ADDGA1071+001201999GA2081+021001999GF108991999999999999999999MA1101801999999REMMET058METAR SBQV 222200Z 13013KT 9999 BKN004 OVC070 19/18 Q1018;
0166833440999992007112311004-14950-040883FM-15+0914SBQV V0201201N002610039019N0112651N1+01901+01801999999ADDGA1021+002101999GA2071+003901999GA3071+024001999GF107991999999999999999999MA1102001999999REMMET065METAR SBQV 231100Z 12005KT 9999 FEW007 BKN013 BKN080 19/18 Q1020;
0176833440999992007112312004-14950-040883FM-15+0914SBQV V0201201N00261003901CN0112651N1+01901+01801999999ADDGA1021+002101999GA2041+003901999GA3081+024001999GF108991999999999999999999MA1102001999999MW1611REMMET069METAR SBQV 231200Z 12005KT 9999 -RA FEW007 SCT013 OVC080 19/18 Q1020;
0166833440999992007112313004-14950-040883FM-15+0914SBQV V0201001N00261003601CN0112651N1+01901+01801999999ADDGA1021+001801999GA2041+003601999GA3081+024001999GF108991999999999999999999MA1102001999999REMMET065METAR SBQV 231300Z 10005KT 9999 FEW006 SCT012 OVC080 19/18 Q1020;
0143833440999992007112314004-14950-040883FM-15+0914SBQV V0201101N002110240019N0112651N1+02201+01901999999ADDGA1041+004501999GA2071+024001999GF107991999999999999999999MA1101901999999REMMET058METAR SBQV 231400Z 11004KT 9999 SCT015 BKN080 22/19 Q1019;
0120833440999992007112315004-14950-040883FM-15+0914SBQV V0201301N001010048019N0112651N1+02201+01901999999ADDGA1071+004801999GF107991999999999999999999MA1101801999999REMMET051METAR SBQV 231500Z 13002KT 9999 BKN016 22/19 Q1018;
0143833440999992007112316004-14950-040883FM-15+0914SBQV V0201601N002110240019N0112651N1+02201+02001999999ADDGA1041+004801999GA2071+024001999GF107991999999999999999999MA1101801999999REMMET058METAR SBQV 231600Z 16004KT 9999 SCT016 BKN080 22/20 Q1018;
0143833440999992007112317004-14950-040883FM-15+0914SBQV V0201001N001010045019N0112651N1+02301+01801999999ADDGA1071+004501999GA2071+021001999GF107991999999999999999999MA1101691999999REMMET058METAR SBQV 231700Z 10002KT 9999 BKN015 BKN070 23/18 Q1017;
0192833440999992007112318004-14950-040883FM-15+0914SBQV V0201301N00411004501CN0112651N1+02201+02001999999ADDGA1041+003001999GA2041+004501999GA3021+004801021GA4071+021001999GF107991999999999999999999MA1101591999999REMMET075METAR SBQV 231800Z 13008KT 9999 SCT010 SCT015 FEW016TCU BKN070 22/20 Q1016;
0166833440999992007112319004-14950-040883FM-15+0914SBQV V0201101N00211003001CN0112651N1+02101+01901999999ADDGA1021+001801999GA2041+003001999GA3071+021001999GF107991999999999999999999MA1101591999999REMMET065METAR SBQV 231900Z 11004KT 9999 FEW006 SCT010 BKN070 21/19 Q1016;
0143833440999992007112320004-14950-040883FM-15+0914SBQV V0201301N004110210019N0112651N1+02101+02001999999ADDGA1041+002401999GA2071+021001999GF107991999999999999999999MA1101591999999REMMET058METAR SBQV 232000Z 13008KT 9999 SCT008 BKN070 21/20 Q1016;
0143833440999992007112322004-14950-040883FM-15+0914SBQV V0201001N004110021019N0112651N1+02001+01901999999ADDGA1071+002101999GA2071+021001999GF107991999999999999999999MA1101691999999REMMET058METAR SBQV 232200Z 10008KT 9999 BKN007 BKN070 20/19 Q1017;
0120833440999992007112411004-14950-040883FM-15+0914SBQV V0200801N003110018019N0112651N1+02001+01901999999ADDGA1071+001801999GF107991999999999999999999MA1101801999999REMMET051METAR SBQV 241100Z 08006KT 9999 BKN006 20/19 Q1018;
0117833440999992007112412004-14950-040883FM-15+0914SBQV V0200701N00211220001CN0112651N1+02101+01901999999ADDGA1071+003001999GA2041+021001999MA1101801999999REMMET058METAR SBQV 241200Z 07004KT 9999 BKN010 SCT070 21/19 Q1018;
0117833440999992007112413004-14950-040883FM-15+0914SBQV V0201301N00101220001CN0112651N1+02201+01801999999ADDGA1071+003901999GA2041+021001999MA1101801999999REMMET058METAR SBQV 241300Z 13002KT 9999 BKN013 SCT070 22/18 Q1018;
0166833440999992007112414004-14950-040883FM-15+0914SBQV V0201101N00051004501CN0112651N1+02401+01901999999ADDGA1021+003001999GA2041+004501999GA3071+021001999GF107991999999999999999999MA1101691999999REMMET065METAR SBQV 241400Z 11001KT 9999 FEW010 SCT015 BKN070 24/19 Q1017;
0176833440999992007112415004-14950-040883FM-15+0914SBQV V0209999C00001004501CN0050001N1+02101+02001999999ADDGA1041+003001999GA2041+004501999GA3071+021001999GF107991999999999999999999MA1101691999999MW1611REMMET069METAR SBQV 241500Z 00000KT 5000 -RA SCT010 SCT015 BKN070 21/20 Q1017;
0120833440999992007112416004-14950-040883FM-15+0914SBQV V0201001N003110048019N0112651N1+02301+02001999999ADDGA1071+004801999GF107991999999999999999999MA1101591999999REMMET051METAR SBQV 241600Z 10006KT 9999 BKN016 23/20 Q1016;
0169833440999992007112417004-14950-040883FM-15+0914SBQV V0201001N003612200019N0112651N1+02501+02001999999ADDGA1021+004801999GA2021+006001021GA3041+024001999GF104991999999999999999999MA1101491999999REMMET068METAR SBQV 241700Z 10007KT 9999 FEW016 FEW020TCU SCT080 25/20 Q1015;
0169833440999992007112418004-14950-040883FM-15+0914SBQV V0201101N002612200019N0112651N1+02501+02001999999ADDGA1021+004801999GA2021+006001021GA3041+024001999GF104991999999999999999999MA1101491999999REMMET068METAR SBQV 241800Z 11005KT 9999 FEW016 FEW020TCU SCT080 25/20 Q1015;
0169833440999992007112419004-14950-040883FM-15+0914SBQV V0201301N003612200019N0112651N1+02501+02001999999ADDGA1021+004801999GA2021+006001021GA3041+024001999GF104991999999999999999999MA1101391999999REMMET068METAR SBQV 241900Z 13007KT 9999 FEW016 FEW020TCU SCT080 25/20 Q1014;
0143833440999992007112420004-14950-040883FM-15+0914SBQV V0201001N004110240019N0112651N1+02401+02001999999ADDGA1021+004501999GA2071+024001999GF107991999999999999999999MA1101391999999REMMET058METAR SBQV 242000Z 10008KT 9999 FEW015 BKN080 24/20 Q1014;
0143833440999992007112421004-14950-040883FM-15+0914SBQV V0201001N003110240019N0112651N1+02301+01901999999ADDGA1041+004501999GA2081+024001999GF108991999999999999999999MA1101491999999REMMET058METAR SBQV 242100Z 10006KT 9999 SCT015 OVC080 23/19 Q1015;
0143833440999992007112422004-14950-040883FM-15+0914SBQV V0201001N002610240019N0112651N1+02201+02101999999ADDGA1041+004501999GA2081+024001999GF108991999999999999999999MA1101491999999REMMET058METAR SBQV 242200Z 10005KT 9999 SCT015 OVC080 22/21 Q1015;
0143833440999992007112511004-14950-040883FM-15+0914SBQV V0200401N001010240019N0112651N1+02101+01901999999ADDGA1041+001801999GA2081+024001999GF108991999999999999999999MA1101801999999REMMET058METAR SBQV 251100Z 04002KT 9999 SCT006 OVC080 21/19 Q1018;
0166833440999992007112512004-14950-040883FM-15+0914SBQV V0200401N00311004801CN0112651N1+02201+01901999999ADDGA1021+002401999GA2041+004801999GA3081+024001999GF108991999999999999999999MA1101801999999REMMET065METAR SBQV 251200Z 04006KT 9999 FEW008 SCT016 OVC080 22/19 Q1018;
0166833440999992007112513004-14950-040883FM-15+0914SBQV V0200401N00411004801CN0112651N1+02201+02001999999ADDGA1041+004501999GA2041+004801999GA3081+024001999GF108991999999999999999999MA1101801999999REMMET065METAR SBQV 251300Z 04008KT 9999 SCT015 SCT016 OVC080 22/20 Q1018;
0143833440999992007112514004-14950-040883FM-15+0914SBQV V0200401N002110060019N0112651N1+02301+02001999999ADDGA1071+006001999GA2071+024001999GF107991999999999999999999MA1101801999999REMMET058METAR SBQV 251400Z 04004KT 9999 BKN020 BKN080 23/20 Q1018;
0143833440999992007112515004-14950-040883FM-15+0914SBQV V0200201N005110270019N0112651N1+02501+01901999999ADDGA1041+007501999GA2071+027001999GF107991999999999999999999MA1101691999999REMMET058METAR SBQV 251500Z 02010KT 9999 SCT025 BKN090 25/19 Q1017;
0143833440999992007112516004-14950-040883FM-15+0914SBQV V0200201N003610270019N0112651N1+02601+01901999999ADDGA1041+007501999GA2071+027001999GF107991999999999999999999MA1101491999999REMMET058METAR SBQV 251600Z 02007KT 9999 SCT025 BKN090 26/19 Q1015;
0143833440999992007112517004-14950-040883FM-15+0914SBQV V0200101N002612200019N0112651N1+02601+02001999999ADDGA1041+007501999GA2041+090001999GF104991999999999999999999MA1101491999999REMMET058METAR SBQV 251700Z 01005KT 9999 SCT025 SCT300 26/20 Q1015;
0143833440999992007112518004-14950-040883FM-15+0914SBQV V0209999C000010270019N0112651N1+02601+01901999999ADDGA1021+007501999GA2071+027001999GF107991999999999999999999MA1101391999999REMMET058METAR SBQV 251800Z 00000KT 9999 FEW025 BKN090 26/19 Q1014;
0166833440999992007112519004-14950-040883FM-15+0914SBQV V0201001N00101007501CN0112651N1+02601+01901999999ADDGA1021+003601999GA2041+007501999GA3081+027001999GF108991999999999999999999MA1101291999999REMMET065METAR SBQV 251900Z 10002KT 9999 FEW012 SCT025 OVC090 26/19 Q1013;
0169833440999992007112520004-14950-040883FM-15+0914SBQV V0201301N004110036019N0112651N1+02301+02001999999ADDGA1071+003601999GA2021+004501021GA3081+024001999GF108991999999999999999999MA1101391999999REMMET068METAR SBQV 252000Z 13008KT 9999 BKN012 FEW015TCU OVC080 23/20 Q1014;
0143833440999992007112521004-14950-040883FM-15+0914SBQV V0200901N004110240019N0112651N1+02101+01901999999ADDGA1041+003601999GA2071+024001999GF107991999999999999999999MA1101491999999REMMET058METAR SBQV 252100Z 09008KT 9999 SCT012 BKN080 21/19 Q1015;
0120833440999992007112522004-14950-040883FM-15+0914SBQV V0200701N003112200019N0112651N1+02101+01901999999ADDGA1041+003301999GF104991999999999999999999MA1101591999999REMMET051METAR SBQV 252200Z 07006KT 9999 SCT011 21/19 Q1016;
0176833440999992007112611004-14950-040883FM-15+0914SBQV V0200701N001010018019N0090001N1+02001+01901999999ADDGA1071+001801999GA2041+003601999GA3081+021001999GF108991999999999999999999MA1101691999999MW1611REMMET069METAR SBQV 261100Z 07002KT 9000 -RA BKN006 SCT012 OVC070 20/19 Q1017;
0102833440999992007112611454-14950-040883FM-15+0914SBQV V0209999C000012200019N0112651N1+02001+01901999999ADDMA1101701999999REMMET075METAR SBQV 261145Z SPECI 00000KT 9999 -RA SCT005 BKN011 OVC070 20/19 Q1017;
0187833440999992007112613004-14950-040883FM-15+0914SBQV V0203601N005110033019N0025001N1+02001+01901999999ADDGA1041+001501999GA2071+003301999GA3081+021001999GF108991999999999999999999MA1101801999999MW1631REMMET080METAR SBQV 261300Z 36010KT 2500 1000SE RA SCT005 BKN011 OVC070 20/19 Q1018 RERA;
0106833440999992007112613404-14950-040883FM-16+0914SBQV V0200101N005112200019N9999999N1+02001+01901999999ADDMA1101701999999REMMET079METAR SBQV 261340Z SPECI 01010KT 8000 3000S -RA SCT005 OVC070 20/19 Q1017 RERA;
0143833440999992007112615004-14950-040883FM-15+0914SBQV V0200101N006210210019N0112651N1+02101+01901999999ADDGA1041+001801999GA2081+021001999GF108991999999999999999999MA1101591999999REMMET058METAR SBQV 261500Z 01012KT 9999 SCT006 OVC070 21/19 Q1016;
0143833440999992007112616004-14950-040883FM-15+0914SBQV V0200201N005110210019N0112651N1+02201+02001999999ADDGA1041+003901999GA2081+021001999GF108991999999999999999999MA1101491999999REMMET058METAR SBQV 261600Z 02010KT 9999 SCT013 OVC070 22/20 Q1015;
0143833440999992007112617004-14950-040883FM-15+0914SBQV V0200201N005110045019N0112651N1+02301+01901999999ADDGA1071+004501999GA2081+021001999GF108991999999999999999999MA1101391999999REMMET058METAR SBQV 261700Z 02010KT 9999 BKN015 OVC070 23/19 Q1014;
0143833440999992007112618004-14950-040883FM-15+0914SBQV V0200201N003610240019N0112651N1+02301+02001999999ADDGA1021+004801999GA2071+024001999GF107991999999999999999999MA1101291999999REMMET058METAR SBQV 261800Z 02007KT 9999 FEW016 BKN080 23/20 Q1013;
0143833440999992007112619004-14950-040883FM-15+0914SBQV V0200701N002610240019N0112651N1+02401+02001999999ADDGA1021+004801999GA2071+024001999GF107991999999999999999999MA1101291999999REMMET058METAR SBQV 261900Z 07005KT 9999 FEW016 BKN080 24/20 Q1013;
0143833440999992007112620004-14950-040883FM-15+0914SBQV V0200301N003110240019N0112651N1+02401+01901999999ADDGA1021+004801999GA2071+024001999GF107991999999999999999999MA1101291999999REMMET058METAR SBQV 262000Z 03006KT 9999 FEW016 BKN080 24/19 Q1013;
0143833440999992007112621004-14950-040883FM-15+0914SBQV V0200701N001510240019N0112651N1+02301+01901999999ADDGA1021+004501999GA2071+024001999GF107991999999999999999999MA1101291999999REMMET058METAR SBQV 262100Z 07003KT 9999 FEW015 BKN080 23/19 Q1013;
0128833440999992007112622004-14950-040883FM-15+0914SBQV V0200701N005110210019N0112651N1+02201+01901999999ADDGA1021+003901999GA2071+021001999GF107991999999999999999999REMMET058METAR SBQV 262200Z 07010KT 9999 FEW013 BKN070 22/19 Q0014;
0091833440999992007112710154-14950-040883FM-16+0914SBQV V0200401N003112200019N0112651N1+02001+01801999999ADDMA1101501999999REMMET064METAR SBQV 271015Z SPECI 04006KT 9999 BKN005 OVC070 20/18 Q1015;
0153833440999992007112711004-14950-040883FM-15+0914SBQV V0200401N005110015019N0112651N1+02001+01801999999ADDGA1071+001501999GA2081+021001999GF108991999999999999999999MA1101491999999MW1611REMMET062METAR SBQV 271100Z 04010KT 9999 -RA BKN005 OVC070 20/18 Q1015;
0095833440999992007112711454-14950-040883FM-15+0914SBQV V0200401N007212200019N9999999N1+02001+01801999999ADDMA1101501999999REMMET068METAR SBQV 271145Z SPECI 04014KT 8000 -RA BKN006 OVC070 20/18 Q1015;
0166833440999992007112713004-14950-040883FM-15+0914SBQV V0200201N008210036019N0112651N1+02201+01901999999ADDGA1021+001801999GA2071+003601999GA3081+021001999GF108991999999999999999999MA1101491999999REMMET065METAR SBQV 271300Z 02016KT 9999 FEW006 BKN012 OVC070 22/19 Q1015;
0176833440999992007112715004-14950-040883FM-15+0914SBQV V0200101N00511003601CN0090001N1+02001+01901999999ADDGA1021+001501999GA2041+003601999GA3081+021001999GF108991999999999999999999MA1101391999999MW1611REMMET069METAR SBQV 271500Z 01010KT 9000 -RA FEW005 SCT012 OVC070 20/19 Q1014;
0162833440999992007112716004-14950-040883FM-15+0914SBQV V0200201N005110210019N0112651N1+02001+01901999999ADDGA1021+001501999GA2081+021001999GF108991999999999999999999MA1101291999999MW1611REMMET071METAR SBQV 271600Z 02010KT 9999 -RA FEW005 OVC070 20/19 Q1013 WS RWY15;
0143833440999992007112717004-14950-040883FM-15+0914SBQV V0200201N004610210019N0112651N1+02101+02001999999ADDGA1021+001501999GA2071+021001999GF107991999999999999999999MA1101191999999REMMET058METAR SBQV 271700Z 02009KT 9999 FEW005 BKN070 21/20 Q1012;
0143833440999992007112718004-14950-040883FM-15+0914SBQV V0200101N004610240019N0112651N1+02301+02001999999ADDGA1021+004501999GA2071+024001999GF107991999999999999999999MA1101191999999REMMET058METAR SBQV 271800Z 01009KT 9999 FEW015 BKN080 23/20 Q1012;
0143833440999992007112719004-14950-040883FM-15+0914SBQV V0200401N004110240019N0112651N1+02401+02001999999ADDGA1021+006001999GA2081+024001999GF108991999999999999999999MA1101081999999REMMET058METAR SBQV 271900Z 04008KT 9999 FEW020 OVC080 24/20 Q1011;
0143833440999992007112720004-14950-040883FM-15+0914SBQV V0200401N000510240019N0112651N1+02301+01901999999ADDGA1021+006001999GA2081+024001999GF108991999999999999999999MA1101081999999REMMET058METAR SBQV 272000Z 04001KT 9999 FEW020 OVC080 23/19 Q1011;
0072833440999992007112721004-14950-040883FM-15+0914SBQV V0201001N00411220001CN0099001N1+02201+01901999999ADDMA1101081999999REMMET045METAR SBQV 272100Z 10008KT CAVOK 22/19 Q1011;
0143833440999992007112722004-14950-040883FM-15+0914SBQV V0200401N001010240019N0112651N1+02201+02001999999ADDGA1021+004501999GA2071+024001999GF107991999999999999999999MA1101291999999REMMET058METAR SBQV 272200Z 04002KT 9999 FEW015 BKN080 22/20 Q1013;
0153833440999992007112811004-14950-040883FM-15+0914SBQV V0200101N006710015019N0090001N1+01901+01901999999ADDGA1071+001501999GA2081+021001999GF108991999999999999999999MA1101491999999MW1611REMMET062METAR SBQV 281100Z 01013KT 9000 -RA BKN005 OVC070 19/19 Q1015;
0176833440999992007112812004-14950-040883FM-15+0914SBQV V0203301N005710030019N0112651N1+02001+01901999999ADDGA1041+001501999GA2071+003001999GA3081+021001999GF108991999999999999999999MA1101591999999MW1611REMMET069METAR SBQV 281200Z 33011KT 9999 -RA SCT005 BKN010 OVC070 20/19 Q1016;
0176833440999992007112813004-14950-040883FM-15+0914SBQV V0203301N00821003001CN0112651N1+02001+01901999999ADDGA1021+001801999GA2041+003001999GA3081+021001999GF108991999999999999999999MA1101491999999MW1611REMMET069METAR SBQV 281300Z 33016KT 9999 -RA FEW006 SCT010 OVC070 20/19 Q1015;
0176833440999992007112814004-14950-040883FM-15+0914SBQV V0200101N00621003001CN0112651N1+02001+01801999999ADDGA1041+001501999GA2041+003001999GA3081+021001999GF108991999999999999999999MA1101491999999MW1611REMMET069METAR SBQV 281400Z 01012KT 9999 -RA SCT005 SCT010 OVC070 20/18 Q1015;
0166833440999992007112815004-14950-040883FM-15+0914SBQV V0200101N005110030019N0112651N1+02001+01901999999ADDGA1041+001501999GA2071+003001999GA3081+021001999GF108991999999999999999999MA1101491999999REMMET065METAR SBQV 281500Z 01010KT 9999 SCT005 BKN010 OVC070 20/19 Q1015;
0166833440999992007112816004-14950-040883FM-15+0914SBQV V0200101N004110030019N0112651N1+02101+01901999999ADDGA1021+002101999GA2071+003001999GA3081+021001999GF108991999999999999999999MA1101391999999REMMET065METAR SBQV 281600Z 01008KT 9999 FEW007 BKN010 OVC070 21/19 Q1014;
0166833440999992007112817004-14950-040883FM-15+0914SBQV V0200101N003110030019N0112651N1+02201+01901999999ADDGA1021+002101999GA2071+003001999GA3081+021001999GF108991999999999999999999MA1101291999999REMMET065METAR SBQV 281700Z 01006KT 9999 FEW007 BKN010 OVC070 22/19 Q1013;
0143833440999992007112818004-14950-040883FM-15+0914SBQV V0203401N004610036019N0112651N1+02201+01901999999ADDGA1071+003601999GA2081+021001999GF108991999999999999999999MA1101291999999REMMET058METAR SBQV 281800Z 34009KT 9999 BKN012 OVC070 22/19 Q1013;
0143833440999992007112819004-14950-040883FM-15+0914SBQV V0203301N004610039019N0112651N1+02201+01901999999ADDGA1071+003901999GA2081+021001999GF108991999999999999999999MA1101291999999REMMET058METAR SBQV 281900Z 33009KT 9999 BKN013 OVC070 22/19 Q1013;
0143833440999992007112820004-14950-040883FM-15+0914SBQV V0203301N002610039019N0112651N1+02201+01901999999ADDGA1071+003901999GA2081+021001999GF108991999999999999999999MA1101291999999REMMET058METAR SBQV 282000Z 33005KT 9999 BKN013 OVC070 22/19 Q1013;
0143833440999992007112821004-14950-040883FM-15+0914SBQV V0203601N004110210019N0112651N1+02101+01901999999ADDGA1041+003001999GA2081+021001999GF108991999999999999999999MA1101291999999REMMET058METAR SBQV 282100Z 36008KT 9999 SCT010 OVC070 21/19 Q1013;
0143833440999992007112822004-14950-040883FM-15+0914SBQV V0203601N001010210019N0112651N1+02101+01901999999ADDGA1041+002401999GA2081+021001999GF108991999999999999999999MA1101391999999REMMET058METAR SBQV 282200Z 36002KT 9999 SCT008 OVC070 21/19 Q1014;
0143833440999992007112911004-14950-040883FM-15+0914SBQV V0203001N005710021019N0112651N1+01901+01801999999ADDGA1071+002101999GA2081+021001999GF108991999999999999999999MA1101591999999REMMET058METAR SBQV 291100Z 30011KT 9999 BKN007 OVC070 19/18 Q1016;
0143833440999992007112912004-14950-040883FM-15+0914SBQV V0202801N001510210019N0112651N1+02001+01901999999ADDGA1041+003001999GA2081+021001999GF108991999999999999999999MA1101591999999REMMET058METAR SBQV 291200Z 28003KT 9999 SCT010 OVC070 20/19 Q1016;
0143833440999992007112913004-14950-040883FM-15+0914SBQV V0203301N003610210019N0112651N1+02101+01901999999ADDGA1041+003301999GA2081+021001999GF108991999999999999999999MA1101691999999REMMET058METAR SBQV 291300Z 33007KT 9999 SCT011 OVC070 21/19 Q1017;
0143833440999992007112914004-14950-040883FM-15+0914SBQV V0203301N004110045019N0112651N1+02301+01901999999ADDGA1071+004501999GA2071+021001999GF107991999999999999999999MA1101591999999REMMET058METAR SBQV 291400Z 33008KT 9999 BKN015 BKN070 23/19 Q1016;
0143833440999992007112915004-14950-040883FM-15+0914SBQV V0203201N004610048019N0112651N1+02401+01801999999ADDGA1071+004801999GA2071+021001999GF107991999999999999999999MA1101491999999REMMET058METAR SBQV 291500Z 32009KT 9999 BKN016 BKN070 24/18 Q1015;
0143833440999992007112916004-14950-040883FM-15+0914SBQV V0203401N007210240019N0112651N1+02501+01801999999ADDGA1021+006001999GA2071+024001999GF107991999999999999999999MA1101491999999REMMET058METAR SBQV 291600Z 34014KT 9999 FEW020 BKN080 25/18 Q1015;
0143833440999992007112917004-14950-040883FM-15+0914SBQV V0203001N004110240019N0112651N1+02601+01601999999ADDGA1021+006001999GA2071+024001999GF107991999999999999999999MA1101391999999REMMET058METAR SBQV 291700Z 30008KT 9999 FEW020 BKN080 26/16 Q1014;
0143833440999992007112918004-14950-040883FM-15+0914SBQV V0203401N003110240019N0112651N1+02501+01701999999ADDGA1021+006001999GA2071+024001999GF107991999999999999999999MA1101391999999REMMET058METAR SBQV 291800Z 34006KT 9999 FEW020 BKN080 25/17 Q1014;
0143833440999992007112919004-14950-040883FM-15+0914SBQV V0203201N002110240019N0112651N1+02401+01801999999ADDGA1021+006001999GA2071+024001999GF107991999999999999999999MA1101391999999REMMET058METAR SBQV 291900Z 32004KT 9999 FEW020 BKN080 24/18 Q1014;
0143833440999992007112920004-14950-040883FM-15+0914SBQV V0209999C000010210019N0112651N1+02401+01801999999ADDGA1021+006001999GA2071+021001999GF107991999999999999999999MA1101391999999REMMET058METAR SBQV 292000Z 00000KT 9999 FEW020 BKN070 24/18 Q1014;
0143833440999992007112921004-14950-040883FM-15+0914SBQV V0201501N004110210019N0112651N1+02301+02001999999ADDGA1021+003901999GA2071+021001999GF107991999999999999999999MA1101391999999REMMET058METAR SBQV 292100Z 15008KT 9999 FEW013 BKN070 23/20 Q1014;
0120833440999992007112922004-14950-040883FM-15+0914SBQV V0201301N004110039019N0112651N1+02101+01901999999ADDGA1071+003901999GF107991999999999999999999MA1101491999999REMMET051METAR SBQV 292200Z 13008KT 9999 BKN013 21/19 Q1015;
0127833440999992007113010154-14950-040883FM-16+0914SBQV V0201001N003119999999N9999999N1+01901+01801999999ADDKA1999M+99999MA1101801999999REMMET068METAR SBQV 301015Z SPECI 10006KT 7000 -DZ BKN006 OVC080 19/18 Q1018;EQDQ01 +00062ATMX  
0143833440999992007113011004-14950-040883FM-15+0914SBQV V0201201N002610018019N0112651N1+01901+01801999999ADDGA1071+001801999GA2081+024001999GF108991999999999999999999MA1101801999999REMMET058METAR SBQV 301100Z 12005KT 9999 BKN006 OVC080 19/18 Q1018;
0143833440999992007113012004-14950-040883FM-15+0914SBQV V0201001N002110030019N0112651N1+02101+01901999999ADDGA1071+003001999GA2081+024001999GF108991999999999999999999MA1101801999999REMMET058METAR SBQV 301200Z 10004KT 9999 BKN010 OVC080 21/19 Q1018;
0143833440999992007113013004-14950-040883FM-15+0914SBQV V0201001N001010033019N0112651N1+02101+01901999999ADDGA1071+003301999GA2081+024001999GF108991999999999999999999MA1101801999999REMMET058METAR SBQV 301300Z 10002KT 9999 BKN011 OVC080 21/19 Q1018;
0143833440999992007113014004-14950-040883FM-15+0914SBQV V0201301N003110039019N0112651N1+02301+01901999999ADDGA1071+003901999GA2081+024001999GF108991999999999999999999MA1101801999999REMMET058METAR SBQV 301400Z 13006KT 9999 BKN013 OVC080 23/19 Q1018;
0166833440999992007113015004-14950-040883FM-15+0914SBQV V0201301N00411006001CN0112651N1+02401+02101999999ADDGA1021+004501999GA2041+006001999GA3081+024001999GF108991999999999999999999MA1101691999999REMMET065METAR SBQV 301500Z 13008KT 9999 FEW015 SCT020 OVC080 24/21 Q1017;
0175833440999992007113016004-14950-040883FM-15+0914SBQV V0201601N00671006001CN0050001N1+02301+02001999999ADDGA1021+001801999GA2041+006001999GA3081+024001999GF108991999999999999999999MA1101591999999MW1101REMMET068METAR SBQV 301600Z 16013KT 5000 BR FEW006 SCT020 OVC080 23/20 Q1016;
0190833440999992007113017004-14950-040883FM-15+0914SBQV V0200701N00311006001CN0030001N1+02101+02001999999ADDGA1041+001801999GA2041+006001999GA3081+024001999GF108991999999999999999999MA1101591999999MW1101MW2611REMMET077METAR SBQV 301700Z 07006KT 3000 -RA BR SCT006 SCT020 OVC080 21/20 Q1016 RERA;
0107833440999992007113017464-14950-040883FM-16+0914SBQV V0201301N002112200019N0112651N1+02101+02001999999ADDMA1101501999999REMMET080METAR SBQV 301746Z 13004KT SPECI 9999 -RA BKN005 SCT012 OVC070 21/20 Q1015 RERA;
0166833440999992007113019004-14950-040883FM-15+0914SBQV V0200901N003110018019N0112651N1+02001+01801999999ADDGA1071+001801999GA2041+003001999GA3081+021001999GF108991999999999999999999MA1101591999999REMMET065METAR SBQV 301900Z 09006KT 9999 BKN006 SCT010 OVC070 20/18 Q1016;
0185833440999992007113019094-14950-040883FM-16+0914SBQV V0201001N002110018019N0020001N1+02001+02001999999ADDGA1071+001801999GA2041+003001999GA3081+021001999GF108991999999999999999999MA1101591999999MW1101MW2611REMMET072SPECI SBQV 301909Z 10004KT 2000 -RA BR BKN006 SCT010 OVC070 20/20 Q1016;
0162833440999992007113020004-14950-040883FM-15+0914SBQV V0200701N001010210019N0020001N1+02001+02001999999ADDGA1041+001501999GA2081+021001999GF108991999999999999999999MA1101591999999MW1101MW2611REMMET065METAR SBQV 302000Z 07002KT 2000 -RA BR SCT005 OVC070 20/20 Q1016;
0153833440999992007113021004-14950-040883FM-15+0914SBQV V0201001N003110210019N0050001N1+02001+02001999999ADDGA1041+001501999GA2081+021001999GF108991999999999999999999MA1101591999999MW1611REMMET062METAR SBQV 302100Z 10006KT 5000 -RA SCT005 OVC070 20/20 Q1016;
0143833440999992007113022004-14950-040883FM-15+0914SBQV V0201001N001010210019N0112651N1+02001+01901999999ADDGA1041+001201999GA2071+021001999GF107991999999999999999999MA1101691999999REMMET058METAR SBQV 302200Z 10002KT 9999 SCT004 BKN070 20/19 Q1017;
0143833440999992007120111004-14950-040883FM-15+0914SBQV V0201301N004110024019N0112651N1+02001+01901999999ADDGA1071+002401999GA2081+021001999GF108991999999999999999999MA1101801999999REMMET058METAR SBQV 011100Z 13008KT 9999 BKN008 OVC070 20/19 Q1018;
0143833440999992007120112004-14950-040883FM-15+0914SBQV V0201001N004110033019N0112651N1+02101+01901999999ADDGA1071+003301999GA2081+021001999GF108991999999999999999999MA1101801999999REMMET058METAR SBQV 011200Z 10008KT 9999 BKN011 OVC070 21/19 Q1018;
0143833440999992007120113004-14950-040883FM-15+0914SBQV V0200901N002610039019N0112651N1+02201+01901999999ADDGA1071+003901999GA2081+021001999GF108991999999999999999999MA1101801999999REMMET058METAR SBQV 011300Z 09005KT 9999 BKN013 OVC070 22/19 Q1018;
0143833440999992007120114004-14950-040883FM-15+0914SBQV V0201001N002110039019N0112651N1+02301+01901999999ADDGA1071+003901999GA2081+021001999GF108991999999999999999999MA1101801999999REMMET058METAR SBQV 011400Z 10004KT 9999 BKN013 OVC070 23/19 Q1018;
0153833440999992007120115004-14950-040883FM-15+0914SBQV V0201501N002610030019N0070001N1+02301+02001999999ADDGA1071+003001999GA2081+021001999GF108991999999999999999999MA1101801999999MW1611REMMET062METAR SBQV 011500Z 15005KT 7000 -RA BKN010 OVC070 23/20 Q1018;
0153833440999992007120116004-14950-040883FM-15+0914SBQV V0201701N004610018019N0060001N1+02201+02101999999ADDGA1071+001801999GA2081+021001999GF108991999999999999999999MA1101691999999MW1611REMMET062METAR SBQV 011600Z 17009KT 6000 -RA BKN006 OVC070 22/21 Q1017;
0143833440999992007120117004-14950-040883FM-15+0914SBQV V0201401N004110210019N0112651N1+02201+02101999999ADDGA1041+001501999GA2071+021001999GF107991999999999999999999MA1101591999999REMMET058METAR SBQV 011700Z 14008KT 9999 SCT005 BKN070 22/21 Q1016;
0152833440999992007120118004-14950-040883FM-15+0914SBQV V0201001N004110018019N0020001N1+02201+01901999999ADDGA1071+001801999GA2081+021001999GF108991999999999999999999MA1101591999999MW1631REMMET061METAR SBQV 011800Z 10008KT 2000 RA BKN006 OVC070 22/19 Q1016;
0167833440999992007120119004-14950-040883FM-15+0914SBQV V0201001N001010210019N0040001N1+02101+02001999999ADDGA1041+001501999GA2081+021001999GF108991999999999999999999MA1101591999999MW1101MW2611REMMET070METAR SBQV 011900Z 10002KT 4000 -RA BR SCT005 OVC070 21/20 Q1016 RERA;
0153833440999992007120121004-14950-040883FM-15+0914SBQV V0201301N003110210019N0112651N1+01901+01901999999ADDGA1041+001501999GA2081+021001999GF108991999999999999999999MA1101691999999MW1611REMMET062METAR SBQV 012100Z 13006KT 9999 -RA SCT005 OVC070 19/19 Q1017;
0153833440999992007120122004-14950-040883FM-15+0914SBQV V0201301N003110015019N0112651N1+01901+01901999999ADDGA1071+001501999GA2071+021001999GF107991999999999999999999MA1101801999999MW1611REMMET062METAR SBQV 012200Z 13006KT 9999 -RA BKN005 BKN070 19/19 Q1018;
0143833440999992007120211004-14950-040883FM-15+0914SBQV V0201001N005110240019N0112651N1+01901+01801999999ADDGA1021+004501999GA2081+024001999GF108991999999999999999999MA1102001999999REMMET058METAR SBQV 021100Z 10010KT 9999 FEW015 OVC080 19/18 Q1020;
0143833440999992007120212004-14950-040883FM-15+0914SBQV V0201001N005110240019N0112651N1+02001+01801999999ADDGA1021+004501999GA2081+024001999GF108991999999999999999999MA1102101999999REMMET058METAR SBQV 021200Z 10010KT 9999 FEW015 OVC080 20/18 Q1021;
0143833440999992007120213004-14950-040883FM-15+0914SBQV V0201001N004610240019N0112651N1+02101+01701999999ADDGA1021+006001999GA2071+024001999GF107991999999999999999999MA1102001999999REMMET058METAR SBQV 021300Z 10009KT 9999 FEW020 BKN080 21/17 Q1020;
0143833440999992007120214004-14950-040883FM-15+0914SBQV V0201001N005110270019N0112651N1+02301+01701999999ADDGA1021+007501999GA2071+027001999GF107991999999999999999999MA1102001999999REMMET058METAR SBQV 021400Z 10010KT 9999 FEW025 BKN090 23/17 Q1020;
0143833440999992007120215004-14950-040883FM-15+0914SBQV V0200901N006710270019N0112651N1+02401+01801999999ADDGA1021+007501999GA2071+027001999GF107991999999999999999999MA1101901999999REMMET058METAR SBQV 021500Z 09013KT 9999 FEW025 BKN090 24/18 Q1019;
0143833440999992007120216004-14950-040883FM-15+0914SBQV V0200401N004110270019N0112651N1+02401+01501999999ADDGA1041+007501999GA2071+027001999GF107991999999999999999999MA1101801999999REMMET058METAR SBQV 021600Z 04008KT 9999 SCT025 BKN090 24/15 Q1018;
0143833440999992007120217004-14950-040883FM-15+0914SBQV V0200901N005110270019N0112651N1+02501+01601999999ADDGA1021+007501999GA2071+027001999GF107991999999999999999999MA1101801999999REMMET058METAR SBQV 021700Z 09010KT 9999 FEW025 BKN090 25/16 Q1018;
0143833440999992007120218004-14950-040883FM-15+0914SBQV V0200701N002110075019N0112651N1+02501+01701999999ADDGA1071+007501999GA2071+027001999GF107991999999999999999999MA1101691999999REMMET058METAR SBQV 021800Z 07004KT 9999 BKN025 BKN090 25/17 Q1017;
0143833440999992007120219004-14950-040883FM-15+0914SBQV V0200601N004612200019N0112651N1+02501+01701999999ADDGA1041+007501999GA2041+027001999GF104991999999999999999999MA1101691999999REMMET058METAR SBQV 021900Z 06009KT 9999 SCT025 SCT090 25/17 Q1017;
0143833440999992007120220004-14950-040883FM-15+0914SBQV V0201001N005112200019N0112651N1+02401+01801999999ADDGA1041+006001999GA2041+024001999GF104991999999999999999999MA1101691999999REMMET058METAR SBQV 022000Z 10010KT 9999 SCT020 SCT080 24/18 Q1017;
0143833440999992007120221004-14950-040883FM-15+0914SBQV V0201201N004112200019N0112651N1+02201+01901999999ADDGA1021+004801999GA2041+021001999GF104991999999999999999999MA1101801999999REMMET058METAR SBQV 022100Z 12008KT 9999 FEW016 SCT070 22/19 Q1018;
0120833440999992007120222004-14950-040883FM-15+0914SBQV V0201001N001512200019N0112651N1+02101+01901999999ADDGA1021+004501999GF102991999999999999999999MA1101801999999REMMET051METAR SBQV 022200Z 10003KT 9999 FEW015 21/19 Q1018;
0091833440999992007120310154-14950-040883FM-16+0914SBQV V0200801N005112200019N0112651N1+02001+01701999999ADDMA1101901999999REMMET064METAR SBQV 031015Z SPECI 08010KT 9999 FEW013 BKN080 20/17 Q1019;
0143833440999992007120311004-14950-040883FM-15+0914SBQV V0200601N003610240019N0112651N1+02101+01701999999ADDGA1021+003901999GA2071+024001999GF107991999999999999999999MA1102001999999REMMET058METAR SBQV 031100Z 06007KT 9999 FEW013 BKN080 21/17 Q1020;
0143833440999992007120312004-14950-040883FM-15+0914SBQV V0200501N001510240019N0112651N1+02201+01701999999ADDGA1041+004501999GA2071+024001999GF107991999999999999999999MA1102001999999REMMET058METAR SBQV 031200Z 05003KT 9999 SCT015 BKN080 22/17 Q1020;
0143833440999992007120313004-14950-040883FM-15+0914SBQV V0200701N004610240019N0112651N1+02401+01701999999ADDGA1041+006001999GA2071+024001999GF107991999999999999999999MA1102001999999REMMET058METAR SBQV 031300Z 07009KT 9999 SCT020 BKN080 24/17 Q1020;
0143833440999992007120314004-14950-040883FM-15+0914SBQV V0200701N003112200019N0112651N1+02501+01501999999ADDGA1041+006001999GA2041+024001999GF104991999999999999999999MA1102001999999REMMET058METAR SBQV 031400Z 07006KT 9999 SCT020 SCT080 25/15 Q1020;
0120833440999992007120315004-14950-040883FM-15+0914SBQV V0200701N004612200019N0112651N1+02601+01601999999ADDGA1041+006001999GF104991999999999999999999MA1101901999999REMMET051METAR SBQV 031500Z 07009KT 9999 SCT020 26/16 Q1019;
0120833440999992007120316004-14950-040883FM-15+0914SBQV V0200401N003610060019N0112651N1+02601+01701999999ADDGA1071+006001999GF107991999999999999999999MA1101801999999REMMET051METAR SBQV 031600Z 04007KT 9999 BKN020 26/17 Q1018;
0120833440999992007120317004-14950-040883FM-15+0914SBQV V0200401N003112200019N0112651N1+02701+01701999999ADDGA1041+007501999GF104991999999999999999999MA1101691999999REMMET051METAR SBQV 031700Z 04006KT 9999 SCT025 27/17 Q1017;
0120833440999992007120318004-14950-040883FM-15+0914SBQV V0200401N002112200019N0112651N1+02801+01601999999ADDGA1021+007501999GF102991999999999999999999MA1101591999999REMMET051METAR SBQV 031800Z 04004KT 9999 FEW025 28/16 Q1016;
0120833440999992007120319004-14950-040883FM-15+0914SBQV V0201301N002112200019N0112651N1+02801+01601999999ADDGA1021+007501999GF102991999999999999999999MA1101491999999REMMET051METAR SBQV 031900Z 13004KT 9999 FEW025 28/16 Q1015;
0120833440999992007120320004-14950-040883FM-15+0914SBQV V0200401N004612200019N0112651N1+02701+01501999999ADDGA1021+007501999GF102991999999999999999999MA1101491999999REMMET051METAR SBQV 032000Z 04009KT 9999 FEW025 27/15 Q1015;
0120833440999992007120321004-14950-040883FM-15+0914SBQV V0200701N005112200019N0112651N1+02501+01801999999ADDGA1021+006001999GF102991999999999999999999MA1101591999999REMMET051METAR SBQV 032100Z 07010KT 9999 FEW020 25/18 Q1016;
0072833440999992007120322004-14950-040883FM-15+0914SBQV V0201001N00311220001CN0099001N1+02301+01801999999ADDMA1101591999999REMMET045METAR SBQV 032200Z 10006KT CAVOK 23/18 Q1016;
0120833440999992007120411004-14950-040883FM-15+0914SBQV V0200201N001512200019N0112651N1+02101+01801999999ADDGA1041+002401999GF104991999999999999999999MA1101801999999REMMET051METAR SBQV 041100Z 02003KT 9999 SCT008 21/18 Q1018;
0120833440999992007120412004-14950-040883FM-15+0914SBQV V0200201N004612200019N0112651N1+02201+01801999999ADDGA1041+004501999GF104991999999999999999999MA1101801999999REMMET051METAR SBQV 041200Z 02009KT 9999 SCT015 22/18 Q1018;
0120833440999992007120413004-14950-040883FM-15+0914SBQV V0200201N004112200019N0112651N1+02401+01701999999ADDGA1021+004801999GF102991999999999999999999MA1101801999999REMMET051METAR SBQV 041300Z 02008KT 9999 FEW016 24/17 Q1018;
0120833440999992007120414004-14950-040883FM-15+0914SBQV V0209999C000012200019N0112651N1+02601+01701999999ADDGA1041+004801999GF104991999999999999999999MA1101801999999REMMET051METAR SBQV 041400Z 00000KT 9999 SCT016 26/17 Q1018;
0120833440999992007120416004-14950-040883FM-15+0914SBQV V0209999C000012200019N0112651N1+02801+01501999999ADDGA1021+007501999GF102991999999999999999999MA1101591999999REMMET051METAR SBQV 041600Z 00000KT 9999 FEW025 28/15 Q1016;
0120833440999992007120417004-14950-040883FM-15+0914SBQV V0200401N004612200019N0112651N1+03001+01401999999ADDGA1021+009001999GF102991999999999999999999MA1101491999999REMMET051METAR SBQV 041700Z 04009KT 9999 FEW030 30/14 Q1015;
0120833440999992007120418004-14950-040883FM-15+0914SBQV V0201001N004112200019N0112651N1+02901+01101999999ADDGA1021+009001999GF102991999999999999999999MA1101391999999REMMET051METAR SBQV 041800Z 10008KT 9999 FEW030 29/11 Q1014;
0120833440999992007120419004-14950-040883FM-15+0914SBQV V0200501N002112200019N0112651N1+03001+01101999999ADDGA1021+009001999GF102991999999999999999999MA1101391999999REMMET051METAR SBQV 041900Z 05004KT 9999 FEW030 30/11 Q1014;
0143833440999992007120421004-14950-040883FM-15+0914SBQV V0201201N005112200019N0112651N1+02601+01901999999ADDGA1021+007501999GA2041+090001999GF104991999999999999999999MA1101391999999REMMET058METAR SBQV 042100Z 12010KT 9999 FEW025 SCT300 26/19 Q1014;
0072833440999992007120422004-14950-040883FM-15+0914SBQV V0201201N00411220001CN0099001N1+02401+01801999999ADDMA1101491999999REMMET045METAR SBQV 042200Z 12008KT CAVOK 24/18 Q1015;
0091833440999992007120510154-14950-040883FM-16+0914SBQV V0200901N001012200019N0112651N1+02201+01701999999ADDMA1101901999999REMMET064METAR SBQV 051015Z SPECI 09002KT 9999 FEW013 SCT300 22/17 Q1019;
0143833440999992007120511004-14950-040883FM-15+0914SBQV V0200601N003112200019N0112651N1+02301+01701999999ADDGA1021+004501999GA2041+090001999GF104991999999999999999999MA1101901999999REMMET058METAR SBQV 051100Z 06006KT 9999 FEW015 SCT300 23/17 Q1019;
0143833440999992007120512004-14950-040883FM-15+0914SBQV V0200101N002612200019N0112651N1+02501+01801999999ADDGA1021+005401999GA2041+090001999GF104991999999999999999999MA1101901999999REMMET058METAR SBQV 051200Z 01005KT 9999 FEW018 SCT300 25/18 Q1019;
0143833440999992007120513004-14950-040883FM-15+0914SBQV V0200201N002612200019N0112651N1+02601+01701999999ADDGA1021+006001999GA2041+090001999GF104991999999999999999999MA1101901999999REMMET058METAR SBQV 051300Z 02005KT 9999 FEW020 SCT300 26/17 Q1019;
0143833440999992007120514004-14950-040883FM-15+0914SBQV V0200401N002110900019N0112651N1+02701+01601999999ADDGA1021+007501999GA2071+090001999GF107991999999999999999999MA1101901999999REMMET058METAR SBQV 051400Z 04004KT 9999 FEW025 BKN300 27/16 Q1019;
0143833440999992007120515004-14950-040883FM-15+0914SBQV V0200401N000510900019N0112651N1+02901+01301999999ADDGA1021+007501999GA2071+090001999GF107991999999999999999999MA1101801999999REMMET058METAR SBQV 051500Z 04001KT 9999 FEW025 BKN300 29/13 Q1018;
0143833440999992007120516004-14950-040883FM-15+0914SBQV V0201001N002610900019N0112651N1+02901+01401999999ADDGA1021+009001999GA2071+090001999GF107991999999999999999999MA1101691999999REMMET058METAR SBQV 051600Z 10005KT 9999 FEW030 BKN300 29/14 Q1017;
0143833440999992007120517004-14950-040883FM-15+0914SBQV V0201101N004112200019N0112651N1+03101+01501999999ADDGA1021+009001999GA2041+090001999GF104991999999999999999999MA1101591999999REMMET058METAR SBQV 051700Z 11008KT 9999 FEW030 SCT300 31/15 Q1016;
0143833440999992007120520004-14950-040883FM-15+0914SBQV V0201101N005110900019N0112651N1+02801+01801999999ADDGA1021+007501999GA2071+090001999GF107991999999999999999999MA1101491999999REMMET058METAR SBQV 052000Z 11010KT 9999 FEW025 BKN300 28/18 Q1015;
0143833440999992007120522004-14950-040883FM-15+0914SBQV V0200901N002612200019N0112651N1+02501+01601999999ADDGA1021+006001999GA2041+090001999GF104991999999999999999999MA1101691999999REMMET058METAR SBQV 052200Z 09005KT 9999 FEW020 SCT300 25/16 Q1017;
0143833440999992007120611004-14950-040883FM-15+0914SBQV V0200101N005712200019N0112651N1+02401+01901999999ADDGA1021+005401999GA2041+090001999GF104991999999999999999999MA1101901999999REMMET058METAR SBQV 061100Z 01011KT 9999 FEW018 SCT300 24/19 Q1019;
0143833440999992007120612004-14950-040883FM-15+0914SBQV V0200101N004112200019N0112651N1+02501+01801999999ADDGA1021+006001999GA2041+090001999GF104991999999999999999999MA1101901999999REMMET058METAR SBQV 061200Z 01008KT 9999 FEW020 SCT300 25/18 Q1019;
0143833440999992007120614004-14950-040883FM-15+0914SBQV V0203301N004610900019N0112651N1+02801+01901999999ADDGA1021+007501999GA2071+090001999GF107991999999999999999999MA1101801999999REMMET058METAR SBQV 061400Z 33009KT 9999 FEW025 BKN300 28/19 Q1018;
0143833440999992007120615004-14950-040883FM-15+0914SBQV V0200201N001510900019N0112651N1+02801+01801999999ADDGA1021+007501999GA2071+090001999GF107991999999999999999999MA1101691999999REMMET058METAR SBQV 061500Z 02003KT 9999 FEW025 BKN300 28/18 Q1017;
0143833440999992007120616004-14950-040883FM-15+0914SBQV V0200101N003612200019N0112651N1+02901+01901999999ADDGA1021+007501999GA2041+090001999GF104991999999999999999999MA1101591999999REMMET058METAR SBQV 061600Z 01007KT 9999 FEW025 SCT300 29/19 Q1016;
0120833440999992007120617004-14950-040883FM-15+0914SBQV V0203201N004112200019N0112651N1+03001+01901999999ADDGA1041+007501999GF104991999999999999999999MA1101491999999REMMET051METAR SBQV 061700Z 32008KT 9999 SCT025 30/19 Q1015;
0120833440999992007120618004-14950-040883FM-15+0914SBQV V0200301N004112200019N0112651N1+03001+01801999999ADDGA1041+007501999GF104991999999999999999999MA1101391999999REMMET051METAR SBQV 061800Z 03008KT 9999 SCT025 30/18 Q1014;
0120833440999992007120619004-14950-040883FM-15+0914SBQV V0200401N004612200019N0112651N1+03101+01901999999ADDGA1041+006001999GF104991999999999999999999MA1101391999999REMMET051METAR SBQV 061900Z 04009KT 9999 SCT020 31/19 Q1014;
0120833440999992007120620004-14950-040883FM-15+0914SBQV V0200101N004112200019N0112651N1+02901+01801999999ADDGA1041+004801999GF104991999999999999999999MA1101391999999REMMET051METAR SBQV 062000Z 01008KT 9999 SCT016 29/18 Q1014;
0120833440999992007120621004-14950-040883FM-15+0914SBQV V0200101N003612200019N0112651N1+02801+01901999999ADDGA1021+004501999GF102991999999999999999999MA1101391999999REMMET051METAR SBQV 062100Z 01007KT 9999 FEW015 28/19 Q1014;
0148833440999992007120622004-14950-040883FM-15+0914SBQV V0200901N001012200019N0112651N1+02501+02001999999ADDGA1041+004501999GA2041+021001999GF104991999999999999999999MA1101591999999REMMET063METAR SBQV 062200Z 09002KT 9999 SCT015 SCT070 25/20 Q1016 RETS;
0072833440999992007120711004-14950-040883FM-15+0914SBQV V0200401N00411220001CN0099001N1+02401+01901999999ADDMA1101591999999REMMET045METAR SBQV 071100Z 04008KT CAVOK 24/19 Q1016;
0072833440999992007120713004-14950-040883FM-15+0914SBQV V0200201N00101220001CN0099001N1+02701+01801999999ADDMA1101691999999REMMET045METAR SBQV 071300Z 02002KT CAVOK 27/18 Q1017;
0120833440999992007120714004-14950-040883FM-15+0914SBQV V0200401N003612200019N0112651N1+03001+01801999999ADDGA1021+012001999GF102991999999999999999999MA1101591999999REMMET051METAR SBQV 071400Z 04007KT 9999 FEW040 30/18 Q1016;
0120833440999992007120715004-14950-040883FM-15+0914SBQV V0200201N004112200019N0112651N1+03001+01801999999ADDGA1041+012001999GF104991999999999999999999MA1101491999999REMMET051METAR SBQV 071500Z 02008KT 9999 SCT040 30/18 Q1015;
0143833440999992007120716004-14950-040883FM-15+0914SBQV V0203001N004112200019N0112651N1+03101+01801999999ADDGA1041+012001999GA2041+090001999GF104991999999999999999999MA1101391999999REMMET058METAR SBQV 071600Z 30008KT 9999 SCT040 SCT300 31/18 Q1014;
0143833440999992007120717004-14950-040883FM-15+0914SBQV V0200301N001012200019N0112651N1+03101+01901999999ADDGA1041+012001999GA2041+090001999GF104991999999999999999999MA1101291999999REMMET058METAR SBQV 071700Z 03002KT 9999 SCT040 SCT300 31/19 Q1013;
0193833440999992007120719004-14950-040883FM-15+0914SBQV V0201701N005712200019N0112651N1+02801+02101999999ADDGA1041+007501999GA2021+009001091GA3041+027001999GF104991999999999999999999MA1101291999999MW1801MW2951REMMET080METAR SBQV 071900Z 17011KT 9999 3000SE -TSRA SCT025 FEW030CB SCT090 28/21 Q1013;
0166833440999992007120721004-14950-040883FM-15+0914SBQV V0201001N00101027001CN0112651N1+02301+02001999999ADDGA1021+006001999GA2041+027001999GA3071+090001999GF107991999999999999999999MA1101391999999REMMET065METAR SBQV 072100Z 10002KT 9999 FEW020 SCT090 BKN300 23/20 Q1014;
0154833440999992007120722004-14950-040883FM-15+0914SBQV V0201101N002610900019N0112651N1+02401+02101999999ADDGA1021+007501091GA2071+090001999GF107991999999999999999999MA1101291999999MW1171REMMET063METAR SBQV 072200Z 11005KT 9999 TS FEW025CB BKN300 24/21 Q1013;
0177833440999992007120723004-14950-040883FM-15+0914SBQV V0201201N002110900019N0112651N1+02301+02001999999ADDGA1021+004801999GA2021+007501091GA3071+090001999GF107991999999999999999999MA1101491999999MW1171REMMET070METAR SBQV 072300Z 12004KT 9999 TS FEW016 FEW025CB BKN300 23/20 Q1015;
0091833440999992007120810154-14950-040883FM-16+0914SBQV V0201301N000512200019N0112651N1+02101+01801999999ADDMA1101601999999REMMET064METAR SBQV 081015Z SPECI 13001KT 9999 FEW018 BKN300 21/18 Q1016;
0143833440999992007120811004-14950-040883FM-15+0914SBQV V0200901N001010900019N0112651N1+02101+01901999999ADDGA1021+005401999GA2071+090001999GF107991999999999999999999MA1101591999999REMMET058METAR SBQV 081100Z 09002KT 9999 FEW018 BKN300 21/19 Q1016;
0143833440999992007120812004-14950-040883FM-15+0914SBQV V0201101N000510060019N0112651N1+02301+01901999999ADDGA1071+006001999GA2071+090001999GF107991999999999999999999MA1101691999999REMMET058METAR SBQV 081200Z 11001KT 9999 BKN020 BKN300 23/19 Q1017;
0153833440999992007120813004-14950-040883FM-15+0914SBQV V0202401N001010054019N0112651N1+02201+02001999999ADDGA1071+005401999GA2071+090001999GF107991999999999999999999MA1101801999999MW1611REMMET062METAR SBQV 081300Z 24002KT 9999 -RA BKN018 BKN300 22/20 Q1018;
0186833440999992007120814004-14950-040883FM-15+0914SBQV V0202201N001010048019N0020001N1+02301+02001999999ADDGA1071+004801999GA2021+006001091GA3071+090001999GF107991999999999999999999MA1101801999999MW1801MW2951REMMET073METAR SBQV 081400Z 22002KT 2000 -TSRA BKN016 FEW020CB BKN300 23/20 Q1018;
0148833440999992007120815004-14950-040883FM-15+0914SBQV V0209999C000010900019N0112651N1+02301+02101999999ADDGA1041+004501999GA2071+090001999GF107991999999999999999999MA1101691999999REMMET063METAR SBQV 081500Z 00000KT 9999 SCT015 BKN300 23/21 Q1017 RETS;
0180833440999992007120816004-14950-040883FM-15+0914SBQV V0209999C00001220001CN0112651N1+02201+02101999999ADDGA1071+001801999GA2021+004501091GA3041+024001999MA1101591999999MW1801MW2951REMMET074METAR SBQV 081600Z 00000KT 9999 - TSRA BKN006 FEW015CB SCT080 22/21 Q1016;EQDQ01+000042SCOTCV
0183833440999992007120817004-14950-040883FM-15+0914SBQV V0209999C00001004501CN0050001N1+02101+02101999999ADDGA1041+002401999GA2041+004501999GA3071+021001999GF107991999999999999999999MA1101591999999MW1611REMMET076METAR SBQV 081700Z 00000KT 5000 -RA SCT008 SCT015 BKN070 21/21 Q1016 RETSRA;
0143833440999992007120818004-14950-040883FM-15+0914SBQV V0209999C000010240019N0112651N1+02101+02101999999ADDGA1021+001801999GA2071+024001999GF107991999999999999999999MA1101491999999REMMET058METAR SBQV 081800Z 00000KT 9999 FEW006 BKN080 21/21 Q1015;
0143833440999992007120819004-14950-040883FM-15+0914SBQV V0209999C000010240019N0112651N1+02201+02001999999ADDGA1021+001801999GA2071+024001999GF107991999999999999999999MA1101491999999REMMET058METAR SBQV 081900Z 00000KT 9999 FEW006 BKN080 22/20 Q1015;
0148833440999992007120820004-14950-040883FM-15+0914SBQV V0209999C000010210019N0112651N1+02201+02001999999ADDGA1021+001801999GA2071+021001999GF107991999999999999999999MA1101491999999REMMET063METAR SBQV 082000Z 00000KT 9999 FEW006 BKN070 22/20 Q1015 RETS;
0153833440999992007120821004-14950-040883FM-15+0914SBQV V0209999C000010210019N0080001N1+02101+02001999999ADDGA1021+001801999GA2071+021001999GF107991999999999999999999MA1101491999999MW1611REMMET062METAR SBQV 082100Z 00000KT 8000 -RA FEW006 BKN070 21/20 Q1015;
0143833440999992007120822004-14950-040883FM-15+0914SBQV V0200701N001010210019N0112651N1+02101+02001999999ADDGA1021+001501999GA2071+021001999GF107991999999999999999999MA1101491999999REMMET058METAR SBQV 082200Z 07002KT 9999 FEW005 BKN070 21/20 Q1015;
0120833440999992007120911004-14950-040883FM-15+0914SBQV V0200601N005112200019N0112651N1+02201+01801999999ADDGA1041+003301999GF104991999999999999999999MA1101801999999REMMET051METAR SBQV 091100Z 06010KT 9999 SCT011 22/18 Q1018;
0143833440999992007120912004-14950-040883FM-15+0914SBQV V0200701N005112200019N0112651N1+02301+01801999999ADDGA1041+003901999GA2041+021001999GF104991999999999999999999MA1101901999999REMMET058METAR SBQV 091200Z 07010KT 9999 SCT013 SCT070 23/18 Q1019;
0143833440999992007120913004-14950-040883FM-15+0914SBQV V0200401N005112200019N0112651N1+02301+01801999999ADDGA1041+004501999GA2041+021001999GF104991999999999999999999MA1101901999999REMMET058METAR SBQV 091300Z 04010KT 9999 SCT015 SCT070 23/18 Q1019;
0143833440999992007120914004-14950-040883FM-15+0914SBQV V0200601N004610048019N0112651N1+02501+01601999999ADDGA1071+004801999GA2071+024001999GF107991999999999999999999MA1101901999999REMMET058METAR SBQV 091400Z 06009KT 9999 BKN016 BKN080 25/16 Q1019;
0143833440999992007120915004-14950-040883FM-15+0914SBQV V0200601N004612200019N0112651N1+02501+01701999999ADDGA1041+004801999GA2041+024001999GF104991999999999999999999MA1101801999999REMMET058METAR SBQV 091500Z 06009KT 9999 SCT016 SCT080 25/17 Q1018;
0143833440999992007120916004-14950-040883FM-15+0914SBQV V0200701N004612200019N0112651N1+02601+01701999999ADDGA1041+006001999GA2041+027001999GF104991999999999999999999MA1101801999999REMMET058METAR SBQV 091600Z 07009KT 9999 SCT020 SCT090 26/17 Q1018;
0143833440999992007120917004-14950-040883FM-15+0914SBQV V0200701N008210270019N0112651N1+02601+01801999999ADDGA1041+006001999GA2071+027001999GF107991999999999999999999MA1101691999999REMMET058METAR SBQV 091700Z 07016KT 9999 SCT020 BKN090 26/18 Q1017;
0143833440999992007120918004-14950-040883FM-15+0914SBQV V0200801N007210270019N0112651N1+02601+01701999999ADDGA1021+006001999GA2071+027001999GF107991999999999999999999MA1101591999999REMMET058METAR SBQV 091800Z 08014KT 9999 FEW020 BKN090 26/17 Q1016;
0143833440999992007120919004-14950-040883FM-15+0914SBQV V0200701N004610270019N0112651N1+02601+01801999999ADDGA1021+006001999GA2071+027001999GF107991999999999999999999MA1101591999999REMMET058METAR SBQV 091900Z 07009KT 9999 FEW020 BKN090 26/18 Q1016;
0169833440999992007120920004-14950-040883FM-15+0914SBQV V0200701N005110270019N0112651N1+02301+01901999999ADDGA1021+004801999GA2021+006001021GA3071+027001999GF107991999999999999999999MA1101591999999REMMET068METAR SBQV 092000Z 07010KT 9999 FEW016 FEW020TCU BKN090 23/19 Q1016;
0072833440999992007120921004-14950-040883FM-15+0914SBQV V0200801N00621220001CN0099001N1+02201+01901999999ADDMA1101591999999REMMET045METAR SBQV 092100Z 08012KT CAVOK 22/19 Q1016;
0072833440999992007120922004-14950-040883FM-15+0914SBQV V0200701N00411220001CN0099001N1+02101+01901999999ADDMA1101691999999REMMET045METAR SBQV 092200Z 07008KT CAVOK 21/19 Q1017;
0143833440999992007121011004-14950-040883FM-15+0914SBQV V0201001N003610240019N0112651N1+02001+01701999999ADDGA1021+004501999GA2071+024001999GF107991999999999999999999MA1102001999999REMMET058METAR SBQV 101100Z 10007KT 9999 FEW015 BKN080 20/17 Q1020;
0143833440999992007121012004-14950-040883FM-15+0914SBQV V0201101N004110270019N0112651N1+02201+01901999999ADDGA1021+006001999GA2071+027001999GF107991999999999999999999MA1102101999999REMMET058METAR SBQV 101200Z 11008KT 9999 FEW020 BKN090 22/19 Q1021;
0143833440999992007121013004-14950-040883FM-15+0914SBQV V0200401N003610270019N0112651N1+02401+01801999999ADDGA1021+007501999GA2071+027001999GF107991999999999999999999MA1102101999999REMMET058METAR SBQV 101300Z 04007KT 9999 FEW025 BKN090 24/18 Q1021;
0136833440999992007121014004-14950-040883FM-15+0914SBQV V0201001N00311220001CN0112651N1+02501+01701999999ADDGA1071+007501999GA2041+027001999MA1102101999999REMMET058METAR SBQV 101400Z 10006KT 9999 BKN025 SCT090 25/17 Q1021;EQDQ01+000042SCOTCV
0143833440999992007121015004-14950-040883FM-15+0914SBQV V0200401N001510300019N0112651N1+02701+01701999999ADDGA1021+009001999GA2071+030001999GF107991999999999999999999MA1102001999999REMMET058METAR SBQV 101500Z 04003KT 9999 FEW030 BKN100 27/17 Q1020;
0143833440999992007121017004-14950-040883FM-15+0914SBQV V0201001N004112200019N0112651N1+02601+01601999999ADDGA1041+009001999GA2041+090001999GF104991999999999999999999MA1101901999999REMMET058METAR SBQV 101700Z 10008KT 9999 SCT030 SCT300 26/16 Q1019;
0143833440999992007121019004-14950-040883FM-15+0914SBQV V0200901N005112200019N0112651N1+02501+01801999999ADDGA1021+007501999GA2041+027001999GF104991999999999999999999MA1101801999999REMMET058METAR SBQV 101900Z 09010KT 9999 FEW025 SCT090 25/18 Q1018;
0143833440999992007121021004-14950-040883FM-15+0914SBQV V0201201N004110900019N0112651N1+02201+01701999999ADDGA1021+005401999GA2071+090001999GF107991999999999999999999MA1101801999999REMMET058METAR SBQV 102100Z 12008KT 9999 FEW018 BKN300 22/17 Q1018;
0072833440999992007121022004-14950-040883FM-15+0914SBQV V0201201N00311220001CN0099001N1+02101+01701999999ADDMA1101801999999REMMET045METAR SBQV 102200Z 12006KT CAVOK 21/17 Q1018;
0072833440999992007121023004-14950-040883FM-15+0914SBQV V0201201N00311220001CN0099001N1+02001+01701999999ADDMA1101901999999REMMET045METAR SBQV 102300Z 12006KT CAVOK 20/17 Q1019;
0072833440999992007121100004-14950-040883FM-15+0914SBQV V0201001N00511220001CN0099001N1+02001+01701999999ADDMA1102001999999REMMET045METAR SBQV 110000Z 10010KT CAVOK 20/17 Q1020;
0072833440999992007121101004-14950-040883FM-15+0914SBQV V0201001N00511220001CN0099001N1+02001+01801999999ADDMA1102001999999REMMET045METAR SBQV 110100Z 10010KT CAVOK 20/18 Q1020;
0120833440999992007121102004-14950-040883FM-15+0914SBQV V0201001N003612200019N0112651N1+01901+01801999999ADDGA1021+002101999GF102991999999999999999999MA1102001999999REMMET051METAR SBQV 110200Z 10007KT 9999 FEW007 19/18 Q1020;
0072833440999992007121111004-14950-040883FM-15+0914SBQV V0201201N00461220001CN0099001N1+02301+01401999999ADDMA1102001999999REMMET045METAR SBQV 111100Z 12009KT CAVOK 23/14 Q1020;
0120833440999992007121112004-14950-040883FM-15+0914SBQV V0200901N003612200019N0112651N1+02401+01401999999ADDGA1021+005401999GF102991999999999999999999MA1102001999999REMMET051METAR SBQV 111200Z 09007KT 9999 FEW018 24/14 Q1020;
0120833440999992007121115004-14950-040883FM-15+0914SBQV V0201401N002612200019N0112651N1+02601+01501999999ADDGA1021+006001999GF102991999999999999999999MA1101901999999REMMET051METAR SBQV 111500Z 14005KT 9999 FEW020 26/15 Q1019;
0120833440999992007121116004-14950-040883FM-15+0914SBQV V0201301N007212200019N0112651N1+02801+01401999999ADDGA1021+007501999GF102991999999999999999999MA1101901999999REMMET051METAR SBQV 111600Z 13014KT 9999 FEW025 28/14 Q1019;
0120833440999992007121117004-14950-040883FM-15+0914SBQV V0201501N004112200019N0112651N1+02801+01401999999ADDGA1021+007501999GF102991999999999999999999MA1101801999999REMMET051METAR SBQV 111700Z 15008KT 9999 FEW025 28/14 Q1018;
0120833440999992007121118004-14950-040883FM-15+0914SBQV V0201601N006212200019N0112651N1+02701+01501999999ADDGA1021+007501999GF102991999999999999999999MA1101691999999REMMET051METAR SBQV 111800Z 16012KT 9999 FEW025 27/15 Q1017;
0120833440999992007121119004-14950-040883FM-15+0914SBQV V0201501N006212200019N0112651N1+02701+01501999999ADDGA1021+007501999GF102991999999999999999999MA1101691999999REMMET051METAR SBQV 111900Z 15012KT 9999 FEW025 27/15 Q1017;
0120833440999992007121120004-14950-040883FM-15+0914SBQV V0201601N004112200019N0112651N1+02601+01401999999ADDGA1021+007501999GF102991999999999999999999MA1101691999999REMMET051METAR SBQV 112000Z 16008KT 9999 FEW025 26/14 Q1017;
0120833440999992007121121004-14950-040883FM-15+0914SBQV V0201001N004112200019N0112651N1+02401+01601999999ADDGA1021+006001999GF102991999999999999999999MA1101691999999REMMET051METAR SBQV 112100Z 10008KT 9999 FEW020 24/16 Q1017;
0120833440999992007121122004-14950-040883FM-15+0914SBQV V0201301N003112200019N0112651N1+02201+01701999999ADDGA1021+004501999GF102991999999999999999999MA1101801999999REMMET051METAR SBQV 112200Z 13006KT 9999 FEW015 22/17 Q1018;
0120833440999992007121123004-14950-040883FM-15+0914SBQV V0201301N002112200019N0112651N1+02101+01901999999ADDGA1021+001501999GF102991999999999999999999MA1101801999999REMMET051METAR SBQV 112300Z 13004KT 9999 FEW005 21/19 Q1018;
0120833440999992007121200004-14950-040883FM-15+0914SBQV V0201301N004110024019N0112651N1+02001+02001999999ADDGA1071+002401999GF107991999999999999999999MA1101901999999REMMET051METAR SBQV 120000Z 13008KT 9999 BKN008 20/20 Q1019;
0120833440999992007121201004-14950-040883FM-15+0914SBQV V0201101N005112200019N0112651N1+02001+01801999999ADDGA1041+002101999GF104991999999999999999999MA1101901999999REMMET051METAR SBQV 120100Z 11010KT 9999 SCT007 20/18 Q1019;
0120833440999992007121211004-14950-040883FM-15+0914SBQV V0201001N005112200019N0112651N1+02201+01501999999ADDGA1041+003601999GF104991999999999999999999MA1101801999999REMMET051METAR SBQV 121100Z 10010KT 9999 SCT012 22/15 Q1018;
0120833440999992007121212004-14950-040883FM-15+0914SBQV V0201001N004112200019N0112651N1+02401+01501999999ADDGA1041+004501999GF104991999999999999999999MA1101901999999REMMET051METAR SBQV 121200Z 10008KT 9999 SCT015 24/15 Q1019;
0120833440999992007121213004-14950-040883FM-15+0914SBQV V0201601N003112200019N0112651N1+02501+01601999999ADDGA1021+004801999GF102991999999999999999999MA1101901999999REMMET051METAR SBQV 121300Z 16006KT 9999 FEW016 25/16 Q1019;
0120833440999992007121215004-14950-040883FM-15+0914SBQV V0201301N006212200019N0112651N1+02701+01601999999ADDGA1021+006001999GF102991999999999999999999MA1101801999999REMMET051METAR SBQV 121500Z 13012KT 9999 FEW020 27/16 Q1018;
0120833440999992007121216004-14950-040883FM-15+0914SBQV V0201201N004112200019N0112651N1+02701+01501999999ADDGA1021+009001999GF102991999999999999999999MA1101691999999REMMET051METAR SBQV 121600Z 12008KT 9999 FEW030 27/15 Q1017;
0120833440999992007121218004-14950-040883FM-15+0914SBQV V0201301N006212200019N0112651N1+02701+01801999999ADDGA1021+009001999GF102991999999999999999999MA1101591999999REMMET051METAR SBQV 121800Z 13012KT 9999 FEW030 27/18 Q1016;
0120833440999992007121219004-14950-040883FM-15+0914SBQV V0201201N004112200019N0112651N1+02701+01701999999ADDGA1021+009001999GF102991999999999999999999MA1101491999999REMMET051METAR SBQV 121900Z 12008KT 9999 FEW030 27/17 Q1015;
0120833440999992007121220004-14950-040883FM-15+0914SBQV V0201301N003612200019N0112651N1+02601+01701999999ADDGA1021+009001999GF102991999999999999999999MA1101491999999REMMET051METAR SBQV 122000Z 13007KT 9999 FEW030 26/17 Q1015;
0072833440999992007121221004-14950-040883FM-15+0914SBQV V0201301N00461220001CN0099001N1+02401+01701999999ADDMA1101491999999REMMET045METAR SBQV 122100Z 13009KT CAVOK 24/17 Q1015;
0072833440999992007121222004-14950-040883FM-15+0914SBQV V0201001N00311220001CN0099001N1+02301+01701999999ADDMA1101491999999REMMET045METAR SBQV 122200Z 10006KT CAVOK 23/17 Q1015;
0072833440999992007121223004-14950-040883FM-15+0914SBQV V0200701N00101220001CN0099001N1+02201+01701999999ADDMA1101591999999REMMET045METAR SBQV 122300Z 07002KT CAVOK 22/17 Q1016;
0120833440999992007121311004-14950-040883FM-15+0914SBQV V0200701N004612200019N0112651N1+02201+01601999999ADDGA1021+005401999GF102991999999999999999999MA1101801999999REMMET051METAR SBQV 131100Z 07009KT 9999 FEW018 22/16 Q1018;
0120833440999992007121313004-14950-040883FM-15+0914SBQV V0200601N005112200019N0112651N1+02501+01501999999ADDGA1021+006001999GF102991999999999999999999MA1101801999999REMMET051METAR SBQV 131300Z 06010KT 9999 FEW020 25/15 Q1018;
0120833440999992007121314004-14950-040883FM-15+0914SBQV V0200801N002612200019N0112651N1+02701+01301999999ADDGA1021+006001999GF102991999999999999999999MA1101801999999REMMET051METAR SBQV 131400Z 08005KT 9999 FEW020 27/13 Q1018;
0120833440999992007121315004-14950-040883FM-15+0914SBQV V0200801N005712200019N0112651N1+02801+01401999999ADDGA1021+007501999GF102991999999999999999999MA1101691999999REMMET051METAR SBQV 131500Z 08011KT 9999 FEW025 28/14 Q1017;
0120833440999992007121316004-14950-040883FM-15+0914SBQV V0200601N004612200019N0112651N1+02901+01401999999ADDGA1021+007501999GF102991999999999999999999MA1101591999999REMMET051METAR SBQV 131600Z 06009KT 9999 FEW025 29/14 Q1016;
0120833440999992007121317004-14950-040883FM-15+0914SBQV V0200401N002112200019N0112651N1+02901+01301999999ADDGA1021+007501999GF102991999999999999999999MA1101491999999REMMET051METAR SBQV 131700Z 04004KT 9999 FEW025 29/13 Q1015;
0120833440999992007121318004-14950-040883FM-15+0914SBQV V0200601N001012200019N0112651N1+02901+01201999999ADDGA1021+007501999GF102991999999999999999999MA1101491999999REMMET051METAR SBQV 131800Z 06002KT 9999 FEW025 29/12 Q1015;
0120833440999992007121319004-14950-040883FM-15+0914SBQV V0209999C000012200019N0112651N1+02901+01501999999ADDGA1021+007501999GF102991999999999999999999MA1101491999999REMMET051METAR SBQV 131900Z 00000KT 9999 FEW025 29/15 Q1015;
0072833440999992007121320004-14950-040883FM-15+0914SBQV V0200701N00621220001CN0099001N1+02701+01501999999ADDMA1101391999999REMMET045METAR SBQV 132000Z 07012KT CAVOK 27/15 Q1014;
0120833440999992007121321004-14950-040883FM-15+0914SBQV V0200701N004112200019N0112651N1+02501+01601999999ADDGA1021+006001999GF102991999999999999999999MA1101491999999REMMET051METAR SBQV 132100Z 07008KT 9999 FEW020 25/16 Q1015;
0072833440999992007121322004-14950-040883FM-15+0914SBQV V0201001N00511220001CN0099001N1+02301+01601999999ADDMA1101491999999REMMET045METAR SBQV 132200Z 10010KT CAVOK 23/16 Q1015;
0143833440999992007121411004-14950-040883FM-15+0914SBQV V0200901N004110900019N0112651N1+02101+01601999999ADDGA1021+003901999GA2071+090001999GF107991999999999999999999MA1101801999999REMMET058METAR SBQV 141100Z 09008KT 9999 FEW013 BKN300 21/16 Q1018;
0143833440999992007121412004-14950-040883FM-15+0914SBQV V0200601N004110900019N0112651N1+02401+01701999999ADDGA1041+005401999GA2071+090001999GF107991999999999999999999MA1101801999999REMMET058METAR SBQV 141200Z 06008KT 9999 SCT018 BKN300 24/17 Q1018;
0143833440999992007121413004-14950-040883FM-15+0914SBQV V0200601N004112200019N0112651N1+02501+01801999999ADDGA1041+006001999GA2041+090001999GF104991999999999999999999MA1101801999999REMMET058METAR SBQV 141300Z 06008KT 9999 SCT020 SCT300 25/18 Q1018;
0143833440999992007121414004-14950-040883FM-15+0914SBQV V0200301N002112200019N0112651N1+02501+01701999999ADDGA1041+007501999GA2041+090001999GF104991999999999999999999MA1101801999999REMMET058METAR SBQV 141400Z 03004KT 9999 SCT025 SCT300 25/17 Q1018;
0143833440999992007121415004-14950-040883FM-15+0914SBQV V0200301N003112200019N0112651N1+02601+01701999999ADDGA1041+007501999GA2041+090001999GF104991999999999999999999MA1101691999999REMMET058METAR SBQV 141500Z 03006KT 9999 SCT025 SCT300 26/17 Q1017;
0136833440999992007121416004-14950-040883FM-15+0914SBQV V0203501N00151220001CN0112651N1+02701+01001999999ADDGA1071+009001999GA2041+090001999MA1101591999999REMMET058METAR SBQV 141600Z 35003KT 9999 BKN030 SCT300 27/10 Q1016;EQDQ01+000042SCOTCV
0143833440999992007121417004-14950-040883FM-15+0914SBQV V0203401N002112200019N0112651N1+02901+01601999999ADDGA1041+010501999GA2041+090001999GF104991999999999999999999MA1101491999999REMMET058METAR SBQV 141700Z 34004KT 9999 SCT035 SCT300 29/16 Q1015;
0143833440999992007121418004-14950-040883FM-15+0914SBQV V0203201N003112200019N0112651N1+02901+01601999999ADDGA1041+010501999GA2041+090001999GF104991999999999999999999MA1101391999999REMMET058METAR SBQV 141800Z 32006KT 9999 SCT035 SCT300 29/16 Q1014;
0143833440999992007121419004-14950-040883FM-15+0914SBQV V0203001N004112200019N0112651N1+02801+01601999999ADDGA1021+010501999GA2041+090001999GF104991999999999999999999MA1101391999999REMMET058METAR SBQV 141900Z 30008KT 9999 FEW035 SCT300 28/16 Q1014;
0143833440999992007121420004-14950-040883FM-15+0914SBQV V0203101N002612200019N0112651N1+02701+01601999999ADDGA1021+010501999GA2041+090001999GF104991999999999999999999MA1101391999999REMMET058METAR SBQV 142000Z 31005KT 9999 FEW035 SCT300 27/16 Q1014;
0143833440999992007121421004-14950-040883FM-15+0914SBQV V0203201N002110900019N0112651N1+02601+01601999999ADDGA1021+007501999GA2071+090001999GF107991999999999999999999MA1101391999999REMMET058METAR SBQV 142100Z 32004KT 9999 FEW025 BKN300 26/16 Q1014;
0072833440999992007121422004-14950-040883FM-15+0914SBQV V0209999C00001220001CN0099001N1+02401+01601999999ADDMA1101391999999REMMET045METAR SBQV 142200Z 00000KT CAVOK 24/16 Q1014;
0120833440999992007121511004-14950-040883FM-15+0914SBQV V0200401N006212200019N0112651N1+02301+01901999999ADDGA1021+007501999GF102991999999999999999999MA1101491999999REMMET051METAR SBQV 151100Z 04012KT 9999 FEW025 23/19 Q1015;
0143833440999992007121512004-14950-040883FM-15+0914SBQV V0200401N008212200019N0112651N1+02501+01901999999ADDGA1021+009001999GA2041+030001999GF104991999999999999999999MA1101491999999REMMET058METAR SBQV 151200Z 04016KT 9999 FEW030 SCT100 25/19 Q1015;
0072833440999992007121513004-14950-040883FM-15+0914SBQV V0200401N00571220001CN0099001N1+02601+01901999999ADDMA1101491999999REMMET045METAR SBQV 151300Z 04011KT CAVOK 26/19 Q1015;
0120833440999992007121514004-14950-040883FM-15+0914SBQV V0200101N007212200019N0112651N1+02701+01901999999ADDGA1021+010501999GF102991999999999999999999MA1101491999999REMMET051METAR SBQV 151400Z 01014KT 9999 FEW035 27/19 Q1015;
0120833440999992007121515004-14950-040883FM-15+0914SBQV V0200201N004612200019N0112651N1+02901+01801999999ADDGA1021+010501999GF102991999999999999999999MA1101391999999REMMET051METAR SBQV 151500Z 02009KT 9999 FEW035 29/18 Q1014;
0120833440999992007121516004-14950-040883FM-15+0914SBQV V0203101N005112200019N0112651N1+03001+01701999999ADDGA1021+010501999GF102991999999999999999999MA1101291999999REMMET051METAR SBQV 151600Z 31010KT 9999 FEW035 30/17 Q1013;
0120833440999992007121517004-14950-040883FM-15+0914SBQV V0203501N004612200019N0112651N1+03001+01701999999ADDGA1021+010501999GF102991999999999999999999MA1101191999999REMMET051METAR SBQV 151700Z 35009KT 9999 FEW035 30/17 Q1012;
0143833440999992007121518004-14950-040883FM-15+0914SBQV V0203401N002612200019N0112651N1+02901+01801999999ADDGA1021+009001999GA2041+027001999GF104991999999999999999999MA1101081999999REMMET058METAR SBQV 151800Z 34005KT 9999 FEW030 SCT090 29/18 Q1011;
0143833440999992007121519004-14950-040883FM-15+0914SBQV V0203301N002110270019N0112651N1+02801+01801999999ADDGA1021+007501999GA2071+027001999GF107991999999999999999999MA1101081999999REMMET058METAR SBQV 151900Z 33004KT 9999 FEW025 BKN090 28/18 Q1011;
0143833440999992007121520004-14950-040883FM-15+0914SBQV V0202301N003110240019N0112651N1+02401+01901999999ADDGA1021+006001999GA2071+024001999GF107991999999999999999999MA1101191999999REMMET058METAR SBQV 152000Z 23006KT 9999 FEW020 BKN080 24/19 Q1012;
0106833440999992007121520474-14950-040883FM-16+0914SBQV V0209999C000012200019N0112651N1+02201+02001999999ADDMA1101201999999REMMET079METAR SBQV 152047Z SPECI 00000KT 9999 -TSRA SCT015 FEW016CB BKN080 22/20 Q1012;
0148833440999992007121522004-14950-040883FM-15+0914SBQV V0209999C000010210019N0112651N1+02201+02101999999ADDGA1021+004501999GA2071+021001999GF107991999999999999999999MA1101191999999REMMET063METAR SBQV 152200Z 00000KT 9999 FEW015 BKN070 22/21 Q1012 RETS;
0143833440999992007121611004-14950-040883FM-15+0914SBQV V0202801N001010210019N0112651N1+02101+02001999999ADDGA1021+002101999GA2071+021001999GF107991999999999999999999MA1101391999999REMMET058METAR SBQV 161100Z 28002KT 9999 FEW007 BKN070 21/20 Q1014;
0143833440999992007121612004-14950-040883FM-15+0914SBQV V0203101N002110210019N0112651N1+02201+02001999999ADDGA1041+002401999GA2071+021001999GF107991999999999999999999MA1101491999999REMMET058METAR SBQV 161200Z 31004KT 9999 SCT008 BKN070 22/20 Q1015;
0143833440999992007121613004-14950-040883FM-15+0914SBQV V0203401N001510210019N0112651N1+02301+02001999999ADDGA1041+003301999GA2071+021001999GF107991999999999999999999MA1101391999999REMMET058METAR SBQV 161300Z 34003KT 9999 SCT011 BKN070 23/20 Q1014;
0143833440999992007121614004-14950-040883FM-15+0914SBQV V0203601N003110240019N0112651N1+02601+02101999999ADDGA1041+004501999GA2071+024001999GF107991999999999999999999MA1101391999999REMMET058METAR SBQV 161400Z 36006KT 9999 SCT015 BKN080 26/21 Q1014;
0143833440999992007121615004-14950-040883FM-15+0914SBQV V0203401N002610240019N0112651N1+02501+02101999999ADDGA1041+004801999GA2071+024001999GF107991999999999999999999MA1101291999999REMMET058METAR SBQV 161500Z 34005KT 9999 SCT016 BKN080 25/21 Q1013;
0143833440999992007121616004-14950-040883FM-15+0914SBQV V0203601N002610240019N0112651N1+02501+02101999999ADDGA1041+004801999GA2071+024001999GF107991999999999999999999MA1101291999999REMMET058METAR SBQV 161600Z 36005KT 9999 SCT016 BKN080 25/21 Q1013;
0143833440999992007121617004-14950-040883FM-15+0914SBQV V0203401N002610240019N0112651N1+02601+02101999999ADDGA1041+004801999GA2071+024001999GF107991999999999999999999MA1101191999999REMMET058METAR SBQV 161700Z 34005KT 9999 SCT016 BKN080 26/21 Q1012;
0143833440999992007121618004-14950-040883FM-15+0914SBQV V0200401N004610240019N0112651N1+02701+02101999999ADDGA1021+005401999GA2071+024001999GF107991999999999999999999MA1101081999999REMMET058METAR SBQV 161800Z 04009KT 9999 FEW018 BKN080 27/21 Q1011;
0143833440999992007121619004-14950-040883FM-15+0914SBQV V0203401N004610240019N0112651N1+02401+02101999999ADDGA1021+004801999GA2071+024001999GF107991999999999999999999MA1101081999999REMMET058METAR SBQV 161900Z 34009KT 9999 FEW016 BKN080 24/21 Q1011;
0153833440999992007121620004-14950-040883FM-15+0914SBQV V0203501N002610240019N0112651N1+02401+02101999999ADDGA1021+004501999GA2071+024001999GF107991999999999999999999MA1101191999999MW1611REMMET062METAR SBQV 162000Z 35005KT 9999 -RA FEW015 BKN080 24/21 Q1012;
0143833440999992007121621004-14950-040883FM-15+0914SBQV V0200101N001510210019N0112651N1+02301+02101999999ADDGA1021+004501999GA2071+021001999GF107991999999999999999999MA1101191999999REMMET058METAR SBQV 162100Z 01003KT 9999 FEW015 BKN070 23/21 Q1012;
0143833440999992007121622004-14950-040883FM-15+0914SBQV V0209999C000010210019N0112651N1+02201+02201999999ADDGA1021+004501999GA2071+021001999GF107991999999999999999999MA1101291999999REMMET058METAR SBQV 162200Z 00000KT 9999 FEW015 BKN070 22/22 Q1013;
0153833440999992007121711004-14950-040883FM-15+0914SBQV V0200101N001010015019N0040001N1+02001+02001999999ADDGA1071+001501999GA2081+021001999GF108991999999999999999999MA1101391999999MW1511REMMET062METAR SBQV 171100Z 01002KT 4000 -DZ BKN005 OVC070 20/20 Q1014;
0143833440999992007121712004-14950-040883FM-15+0914SBQV V0203501N001510018019N0112651N1+02101+02101999999ADDGA1071+001801999GA2081+021001999GF108991999999999999999999MA1101491999999REMMET058METAR SBQV 171200Z 35003KT 9999 BKN006 OVC070 21/21 Q1015;
0176833440999992007121713004-14950-040883FM-15+0914SBQV V0200101N00151003601CN0112651N1+02101+02101999999ADDGA1041+001501999GA2041+003601999GA3081+021001999GF108991999999999999999999MA1101491999999MW1611REMMET069METAR SBQV 171300Z 01003KT 9999 -RA SCT005 SCT012 OVC070 21/21 Q1015;
0098833440999992007121713304-14950-040883FM-15+0914SBQV V0203601N003112200019N0112651N1+02101+02101999999ADDMA1101501999999REMMET071METAR SBQV 171330Z SPECI 36006KT 9999 FEW005 BKN012 OVC070 21/21 Q1015;
0182833440999992007121715004-14950-040883FM-15+0914SBQV V0200101N00411003601CN0112651N1+02201+02101999999ADDGA1021+001801999GA2041+003601999GA3081+021001999GF108991999999999999999999MA1101391999999MW1611REMMET075METAR SBQV 171500Z 01008KT 9999 5000N -RA FEW006 SCT012 OVC070 22/21 Q1014;
0175833440999992007121716004-14950-040883FM-15+0914SBQV V0202201N00261003001CN0010001N1+02101+02101999999ADDGA1021+001501999GA2041+003001999GA3081+021001999GF108991999999999999999999MA1101391999999MW1631REMMET068METAR SBQV 171600Z 22005KT 1000 RA FEW005 SCT010 OVC070 21/21 Q1014;
0181833440999992007121717004-14950-040883FM-15+0914SBQV V0202401N00151002101CN0112651N1+02101+02101999999ADDGA1041+001201999GA2041+002101999GA3081+021001999GF108991999999999999999999MA1101391999999MW1611REMMET074METAR SBQV 171700Z 24003KT 9999 -RA SCT004 SCT007 OVC070 21/21 Q1014 RERA;
0166833440999992007121718004-14950-040883FM-15+0914SBQV V0202101N00151002101CN0112651N1+02301+02201999999ADDGA1021+001801999GA2041+002101999GA3071+021001999GF107991999999999999999999MA1101291999999REMMET065METAR SBQV 171800Z 21003KT 9999 FEW006 SCT007 BKN070 23/22 Q1013;
0143833440999992007121719004-14950-040883FM-15+0914SBQV V0201601N003612200019N0112651N1+02401+02201999999ADDGA1041+002401999GA2041+021001999GF104991999999999999999999MA1101191999999REMMET058METAR SBQV 171900Z 16007KT 9999 SCT008 SCT070 24/22 Q1012;
0143833440999992007121720004-14950-040883FM-15+0914SBQV V0201701N004612200019N0112651N1+02301+02101999999ADDGA1041+003001999GA2041+021001999GF104991999999999999999999MA1101291999999REMMET058METAR SBQV 172000Z 17009KT 9999 SCT010 SCT070 23/21 Q1013;
0143833440999992007121721004-14950-040883FM-15+0914SBQV V0201701N005112200019N0112651N1+02201+02101999999ADDGA1021+003001999GA2041+021001999GF104991999999999999999999MA1101291999999REMMET058METAR SBQV 172100Z 17010KT 9999 FEW010 SCT070 22/21 Q1013;
0143833440999992007121722004-14950-040883FM-15+0914SBQV V0201701N004612200019N0112651N1+02101+02101999999ADDGA1041+002401999GA2041+021001999GF104991999999999999999999MA1101391999999REMMET058METAR SBQV 172200Z 17009KT 9999 SCT008 SCT070 21/21 Q1014;
0120833440999992007121804004-14950-040883FM-15+0914SBQV V0201301N003610018019N0112651N1+02001+02001999999ADDGA1071+001801999GF107991999999999999999999MA1101491999999REMMET051METAR SBQV 180400Z 13007KT 9999 BKN006 20/20 Q1015;
0120833440999992007121805004-14950-040883FM-15+0914SBQV V0201201N003610018019N0112651N1+02001+01901999999ADDGA1071+001801999GF107991999999999999999999MA1101491999999REMMET051METAR SBQV 180500Z 12007KT 9999 BKN006 20/19 Q1015;
0166833440999992007121811004-14950-040883FM-15+0914SBQV V0201301N00261003001CN0112651N1+01901+01901999999ADDGA1021+001501999GA2041+003001999GA3081+021001999GF108991999999999999999999MA1101801999999REMMET065METAR SBQV 181100Z 13005KT 9999 FEW005 SCT010 OVC070 19/19 Q1018;
0143833440999992007121812004-14950-040883FM-15+0914SBQV V0201301N002610240019N0112651N1+02101+02001999999ADDGA1041+003901999GA2071+024001999GF107991999999999999999999MA1101801999999REMMET058METAR SBQV 181200Z 13005KT 9999 SCT013 BKN080 21/20 Q1018;
0166833440999992007121813004-14950-040883FM-15+0914SBQV V0201601N00101004501CN0112651N1+02201+02001999999ADDGA1021+003901999GA2041+004501999GA3071+024001999GF107991999999999999999999MA1101801999999REMMET065METAR SBQV 181300Z 16002KT 9999 FEW013 SCT015 BKN080 22/20 Q1018;
0143833440999992007121814004-14950-040883FM-15+0914SBQV V0200701N002610240019N0112651N1+02401+02201999999ADDGA1041+004801999GA2071+024001999GF107991999999999999999999MA1101801999999REMMET058METAR SBQV 181400Z 07005KT 9999 SCT016 BKN080 24/22 Q1018;
0143833440999992007121815004-14950-040883FM-15+0914SBQV V0203601N002112200019N0112651N1+02401+02201999999ADDGA1041+004801999GA2041+024001999GF104991999999999999999999MA1101691999999REMMET058METAR SBQV 181500Z 36004KT 9999 SCT016 SCT080 24/22 Q1017;
0143833440999992007121816004-14950-040883FM-15+0914SBQV V0203101N004112200019N0112651N1+02401+02201999999ADDGA1041+003001999GA2041+024001999GF104991999999999999999999MA1101591999999REMMET058METAR SBQV 181600Z 31008KT 9999 SCT010 SCT080 24/22 Q1016;
0214833440999992007121817004-14950-040883FM-15+0914SBQV V0200601N00411004501CN0112651N1+02201+02101999999ADDGA1021+002701999GA2041+004501999GA3021+004801091GA4071+021001999GF107991999999999999999999MA1101591999999MW1801MW2951REMMET085METAR SBQV 181700Z 06008KT 9999 -TSRA FEW009 SCT015 FEW016CB BKN070 22/21 Q1016 RERA;
0181833440999992007121818004-14950-040883FM-15+0914SBQV V0200401N00511004501CN0112651N1+02101+02001999999ADDGA1041+001501999GA2041+004501999GA3081+021001999GF108991999999999999999999MA1101491999999MW1611REMMET074METAR SBQV 181800Z 04010KT 9999 -RA SCT005 SCT015 OVC070 21/20 Q1015 RETS;
0176833440999992007121819004-14950-040883FM-15+0914SBQV V0200601N00211004501CN0112651N1+02101+02001999999ADDGA1021+001501999GA2041+004501999GA3081+021001999GF108991999999999999999999MA1101491999999MW1611REMMET069METAR SBQV 181900Z 06004KT 9999 -RA FEW005 SCT015 OVC070 21/20 Q1015;
0176833440999992007121820004-14950-040883FM-15+0914SBQV V0200501N00311004501CN0090001N1+02101+02001999999ADDGA1021+001501999GA2041+004501999GA3081+021001999GF108991999999999999999999MA1101491999999MW1611REMMET069METAR SBQV 182000Z 05006KT 9000 -RA FEW005 SCT015 OVC070 21/20 Q1015;
0153833440999992007121821004-14950-040883FM-15+0914SBQV V0200401N002610210019N0112651N1+02001+02001999999ADDGA1021+001501999GA2081+021001999GF108991999999999999999999MA1101491999999MW1611REMMET062METAR SBQV 182100Z 04005KT 9999 -RA FEW005 OVC070 20/20 Q1015;
0072833440999992007121822004-14950-040883FM-15+0914SBQV V0200601N00261220001CN0099001N1+02001+01901999999ADDMA1101591999999REMMET045METAR SBQV 182200Z 06005KT CAVOK 20/19 Q1016;
0143833440999992007121911004-14950-040883FM-15+0914SBQV V0200501N002112200019N0112651N1+02401+01901999999ADDGA1041+003001999GA2041+021001999GF104991999999999999999999MA1101801999999REMMET058METAR SBQV 191100Z 05004KT 9999 SCT010 SCT070 24/19 Q1018;
0143833440999992007121912004-14950-040883FM-15+0914SBQV V0200501N003612200019N0112651N1+02301+02101999999ADDGA1041+003001999GA2041+021001999GF104991999999999999999999MA1101901999999REMMET058METAR SBQV 191200Z 05007KT 9999 SCT010 SCT070 23/21 Q1019;
0143833440999992007121913004-14950-040883FM-15+0914SBQV V0200801N003112200019N0112651N1+02401+02101999999ADDGA1041+003901999GA2041+021001999GF104991999999999999999999MA1101801999999REMMET058METAR SBQV 191300Z 08006KT 9999 SCT013 SCT070 24/21 Q1018;
0143833440999992007121914004-14950-040883FM-15+0914SBQV V0200701N003610045019N0112651N1+02501+02101999999ADDGA1071+004501999GA2071+021001999GF107991999999999999999999MA1101801999999REMMET058METAR SBQV 191400Z 07007KT 9999 BKN015 BKN070 25/21 Q1018;
0143833440999992007121915004-14950-040883FM-15+0914SBQV V0200701N004612200019N0112651N1+02601+02101999999ADDGA1041+004801999GA2041+024001999GF104991999999999999999999MA1101691999999REMMET058METAR SBQV 191500Z 07009KT 9999 SCT016 SCT080 26/21 Q1017;
0143833440999992007121916004-14950-040883FM-15+0914SBQV V0200401N006212200019N0112651N1+02701+02201999999ADDGA1041+006001999GA2041+024001999GF104991999999999999999999MA1101591999999REMMET058METAR SBQV 191600Z 04012KT 9999 SCT020 SCT080 27/22 Q1016;
0136833440999992007121917004-14950-040883FM-15+0914SBQV V0200701N00511220001CN0112651N1+02701+02001999999ADDGA1071+006001999GA2041+090001999MA1101591999999REMMET058METAR SBQV 191700Z 07010KT 9999 BKN020 SCT300 27/20 Q1016;EQDQ01+000042SCOTCV
0143833440999992007121918004-14950-040883FM-15+0914SBQV V0200301N005110900019N0112651N1+02701+01901999999ADDGA1041+007501999GA2071+090001999GF107991999999999999999999MA1101491999999REMMET058METAR SBQV 191800Z 03010KT 9999 SCT025 BKN300 27/19 Q1015;
0143833440999992007121920004-14950-040883FM-15+0914SBQV V0200601N005110060019N0112651N1+02601+02001999999ADDGA1071+006001999GA2071+090001999GF107991999999999999999999MA1101491999999REMMET058METAR SBQV 192000Z 06010KT 9999 BKN020 BKN300 26/20 Q1015;
0166833440999992007121921004-14950-040883FM-15+0914SBQV V0200701N00411024001CN0112651N1+02401+02001999999ADDGA1021+005401999GA2041+024001999GA3071+090001999GF107991999999999999999999MA1101491999999REMMET065METAR SBQV 192100Z 07008KT 9999 FEW018 SCT080 BKN300 24/20 Q1015;
0072833440999992007121922004-14950-040883FM-15+0914SBQV V0200701N00361220001CN0099001N1+02301+01901999999ADDMA1101591999999REMMET045METAR SBQV 192200Z 07007KT CAVOK 23/19 Q1016;
0087833440999992007122010154-14950-040883FM-16+0914SBQV V0200401N003112200019N9999999N1+02001+01901999999ADDMA1101701999999REMMET060METAR SBQV 201015Z SPECI 04006KT 5000 BR SCT005 20/19 Q1017;
0143833440999992007122011004-14950-040883FM-15+0914SBQV V0200101N003110045019N0070001N1+02001+01901999999ADDGA1041+001801999GA2071+004501999GF107991999999999999999999MA1101691999999REMMET058METAR SBQV 201100Z 01006KT 7000 SCT006 BKN015 20/19 Q1017;
0143833440999992007122012004-14950-040883FM-15+0914SBQV V0200401N005110045019N0112651N1+02101+01901999999ADDGA1041+001801999GA2071+004501999GF107991999999999999999999MA1101801999999REMMET058METAR SBQV 201200Z 04010KT 9999 SCT006 BKN015 21/19 Q1018;
0143833440999992007122013004-14950-040883FM-15+0914SBQV V0200401N003612200019N0112651N1+02301+02001999999ADDGA1041+007501999GA2041+090001999GF104991999999999999999999MA1101801999999REMMET058METAR SBQV 201300Z 04007KT 9999 SCT025 SCT300 23/20 Q1018;
0143833440999992007122014004-14950-040883FM-15+0914SBQV V0200101N003112200019N0112651N1+02501+01901999999ADDGA1041+009001999GA2041+090001999GF104991999999999999999999MA1101801999999REMMET058METAR SBQV 201400Z 01006KT 9999 SCT030 SCT300 25/19 Q1018;
0143833440999992007122015004-14950-040883FM-15+0914SBQV V0209999C000010900019N0112651N1+02601+01901999999ADDGA1021+009001999GA2071+090001999GF107991999999999999999999MA1101691999999REMMET058METAR SBQV 201500Z 00000KT 9999 FEW030 BKN300 26/19 Q1017;
0143833440999992007122016004-14950-040883FM-15+0914SBQV V0201001N002610900019N0112651N1+02701+01901999999ADDGA1021+009001999GA2071+090001999GF107991999999999999999999MA1101591999999REMMET058METAR SBQV 201600Z 10005KT 9999 FEW030 BKN300 27/19 Q1016;
0143833440999992007122017004-14950-040883FM-15+0914SBQV V0200401N002110900019N0112651N1+02801+01801999999ADDGA1021+009001999GA2071+090001999GF107991999999999999999999MA1101491999999REMMET058METAR SBQV 201700Z 04004KT 9999 FEW030 BKN300 28/18 Q1015;
0143833440999992007122019004-14950-040883FM-15+0914SBQV V0200201N003612200019N0112651N1+02801+01901999999ADDGA1021+009001999GA2041+090001999GF104991999999999999999999MA1101391999999REMMET058METAR SBQV 201900Z 02007KT 9999 FEW030 SCT300 28/19 Q1014;
0143833440999992007122020004-14950-040883FM-15+0914SBQV V0200701N003612200019N0112651N1+02801+02001999999ADDGA1021+009001999GA2041+090001999GF104991999999999999999999MA1101291999999REMMET058METAR SBQV 202000Z 07007KT 9999 FEW030 SCT300 28/20 Q1013;
0143833440999992007122021004-14950-040883FM-15+0914SBQV V0200601N002612200019N0112651N1+02601+02001999999ADDGA1021+007501999GA2041+090001999GF104991999999999999999999MA1101391999999REMMET058METAR SBQV 202100Z 06005KT 9999 FEW025 SCT300 26/20 Q1014;
0143833440999992007122022004-14950-040883FM-15+0914SBQV V0201001N002112200019N0112651N1+02401+02101999999ADDGA1021+006001999GA2041+090001999GF104991999999999999999999MA1101491999999REMMET058METAR SBQV 202200Z 10004KT 9999 FEW020 SCT300 24/21 Q1015;
0136833440999992007122111004-14950-040883FM-15+0914SBQV V0200601N00211220001CN0112651N1+02101+02001999999ADDGA1071+001801999GA2041+004501999MA1101801999999REMMET058METAR SBQV 211100Z 06004KT 9999 BKN006 SCT015 21/20 Q1018;EQDQ01+000042SCOTCV
0120833440999992007122112004-14950-040883FM-15+0914SBQV V0201101N001012200019N0112651N1+02201+02001999999ADDGA1041+004801999GF104991999999999999999999MA1101801999999REMMET051METAR SBQV 211200Z 11002KT 9999 SCT016 22/20 Q1018;
0120833440999992007122113004-14950-040883FM-15+0914SBQV V0200501N002612200019N0112651N1+02501+02101999999ADDGA1041+005401999GF104991999999999999999999MA1101801999999REMMET051METAR SBQV 211300Z 05005KT 9999 SCT018 25/21 Q1018;
0120833440999992007122114004-14950-040883FM-15+0914SBQV V0201201N001512200019N0112651N1+02601+02101999999ADDGA1041+006001999GF104991999999999999999999MA1101801999999REMMET051METAR SBQV 211400Z 12003KT 9999 SCT020 26/21 Q1018;
0120833440999992007122115004-14950-040883FM-15+0914SBQV V0201201N002112200019N0112651N1+02801+02001999999ADDGA1041+007501999GF104991999999999999999999MA1101691999999REMMET051METAR SBQV 211500Z 12004KT 9999 SCT025 28/20 Q1017;
0120833440999992007122116004-14950-040883FM-15+0914SBQV V0201101N003612200019N0112651N1+02801+02001999999ADDGA1041+007501999GF104991999999999999999999MA1101591999999REMMET051METAR SBQV 211600Z 11007KT 9999 SCT025 28/20 Q1016;
0120833440999992007122117004-14950-040883FM-15+0914SBQV V0201001N004112200019N0112651N1+02901+01901999999ADDGA1041+007501999GF104991999999999999999999MA1101491999999REMMET051METAR SBQV 211700Z 10008KT 9999 SCT025 29/19 Q1015;
0120833440999992007122118004-14950-040883FM-15+0914SBQV V0200701N003612200019N0112651N1+02901+01901999999ADDGA1041+007501999GF104991999999999999999999MA1101491999999REMMET051METAR SBQV 211800Z 07007KT 9999 SCT025 29/19 Q1015;
0120833440999992007122119004-14950-040883FM-15+0914SBQV V0200901N003112200019N0112651N1+02901+01901999999ADDGA1021+007501999GF102991999999999999999999MA1101391999999REMMET051METAR SBQV 211900Z 09006KT 9999 FEW025 29/19 Q1014;
0120833440999992007122120004-14950-040883FM-15+0914SBQV V0200801N003112200019N0112651N1+02801+01801999999ADDGA1021+006001999GF102991999999999999999999MA1101491999999REMMET051METAR SBQV 212000Z 08006KT 9999 FEW020 28/18 Q1015;
0120833440999992007122121004-14950-040883FM-15+0914SBQV V0201201N003612200019N0112651N1+02601+02101999999ADDGA1021+004801999GF102991999999999999999999MA1101491999999REMMET051METAR SBQV 212100Z 12007KT 9999 FEW016 26/21 Q1015;
0072833440999992007122122004-14950-040883FM-15+0914SBQV V0201101N00461220001CN0099001N1+02401+02001999999ADDMA1101591999999REMMET045METAR SBQV 212200Z 11009KT CAVOK 24/20 Q1016;
0120833440999992007122211004-14950-040883FM-15+0914SBQV V0201001N004112200019N0112651N1+02201+01801999999ADDGA1021+005401999GF102991999999999999999999MA1101901999999REMMET051METAR SBQV 221100Z 10008KT 9999 FEW018 22/18 Q1019;
0120833440999992007122212004-14950-040883FM-15+0914SBQV V0201101N002612200019N0112651N1+02401+01801999999ADDGA1041+005401999GF104991999999999999999999MA1101901999999REMMET051METAR SBQV 221200Z 11005KT 9999 SCT018 24/18 Q1019;
0120833440999992007122213004-14950-040883FM-15+0914SBQV V0201001N001512200019N0112651N1+02401+01801999999ADDGA1041+006001999GF104991999999999999999999MA1101901999999REMMET051METAR SBQV 221300Z 10003KT 9999 SCT020 24/18 Q1019;
0120833440999992007122214004-14950-040883FM-15+0914SBQV V0201701N003110060019N0112651N1+02501+01701999999ADDGA1071+006001999GF107991999999999999999999MA1101901999999REMMET051METAR SBQV 221400Z 17006KT 9999 BKN020 25/17 Q1019;
0120833440999992007122215004-14950-040883FM-15+0914SBQV V0201801N002610060019N0112651N1+02601+01701999999ADDGA1071+006001999GF107991999999999999999999MA1101801999999REMMET051METAR SBQV 221500Z 18005KT 9999 BKN020 26/17 Q1018;
0120833440999992007122216004-14950-040883FM-15+0914SBQV V0201701N003112200019N0112651N1+02701+01701999999ADDGA1041+007501999GF104991999999999999999999MA1101801999999REMMET051METAR SBQV 221600Z 17006KT 9999 SCT025 27/17 Q1018;
0120833440999992007122217004-14950-040883FM-15+0914SBQV V0201301N006212200019N0112651N1+02801+01701999999ADDGA1021+007501999GF102991999999999999999999MA1101691999999REMMET051METAR SBQV 221700Z 13012KT 9999 FEW025 28/17 Q1017;
0120833440999992007122218004-14950-040883FM-15+0914SBQV V0201101N003112200019N0112651N1+02801+01601999999ADDGA1021+007501999GF102991999999999999999999MA1101591999999REMMET051METAR SBQV 221800Z 11006KT 9999 FEW025 28/16 Q1016;
0120833440999992007122219004-14950-040883FM-15+0914SBQV V0201201N003612200019N0112651N1+02701+01601999999ADDGA1021+007501999GF102991999999999999999999MA1101591999999REMMET051METAR SBQV 221900Z 12007KT 9999 FEW025 27/16 Q1016;
0120833440999992007122220004-14950-040883FM-15+0914SBQV V0201001N003612200019N0112651N1+02601+01601999999ADDGA1021+006001999GF102991999999999999999999MA1101591999999REMMET051METAR SBQV 222000Z 10007KT 9999 FEW020 26/16 Q1016;
0120833440999992007122221004-14950-040883FM-15+0914SBQV V0201301N004112200019N0112651N1+02501+01601999999ADDGA1021+006001999GF102991999999999999999999MA1101591999999REMMET051METAR SBQV 222100Z 13008KT 9999 FEW020 25/16 Q1016;
0072833440999992007122222004-14950-040883FM-15+0914SBQV V0201301N00311220001CN0099001N1+02301+01601999999ADDMA1101691999999REMMET045METAR SBQV 222200Z 13006KT CAVOK 23/16 Q1017;
0072833440999992007122311004-14950-040883FM-15+0914SBQV V0201001N00621220001CN0099001N1+02201+01501999999ADDMA1101901999999REMMET045METAR SBQV 231100Z 10012KT CAVOK 22/15 Q1019;
0072833440999992007122312004-14950-040883FM-15+0914SBQV V0201001N00261220001CN0099001N1+02401+01301999999ADDMA1101901999999REMMET045METAR SBQV 231200Z 10005KT CAVOK 24/13 Q1019;
0120833440999992007122313004-14950-040883FM-15+0914SBQV V0201301N002612200019N0112651N1+02501+01301999999ADDGA1021+006001999GF102991999999999999999999MA1102001999999REMMET051METAR SBQV 231300Z 13005KT 9999 FEW020 25/13 Q1020;
0120833440999992007122314004-14950-040883FM-15+0914SBQV V0201101N003612200019N0112651N1+02601+01401999999ADDGA1021+006001999GF102991999999999999999999MA1101901999999REMMET051METAR SBQV 231400Z 11007KT 9999 FEW020 26/14 Q1019;
0120833440999992007122315004-14950-040883FM-15+0914SBQV V0201001N002112200019N0112651N1+02701+01501999999ADDGA1021+007501999GF102991999999999999999999MA1101901999999REMMET051METAR SBQV 231500Z 10004KT 9999 FEW025 27/15 Q1019;
0120833440999992007122316004-14950-040883FM-15+0914SBQV V0201301N003112200019N0112651N1+02801+01501999999ADDGA1021+007501999GF102991999999999999999999MA1101801999999REMMET051METAR SBQV 231600Z 13006KT 9999 FEW025 28/15 Q1018;
0120833440999992007122317004-14950-040883FM-15+0914SBQV V0201401N004612200019N0112651N1+02801+01601999999ADDGA1041+007501999GF104991999999999999999999MA1101801999999REMMET051METAR SBQV 231700Z 14009KT 9999 SCT025 28/16 Q1018;
0120833440999992007122318004-14950-040883FM-15+0914SBQV V0201801N005112200019N0112651N1+02801+01501999999ADDGA1041+007501999GF104991999999999999999999MA1101691999999REMMET051METAR SBQV 231800Z 18010KT 9999 SCT025 28/15 Q1017;
0120833440999992007122319004-14950-040883FM-15+0914SBQV V0201601N006712200019N0112651N1+02701+01401999999ADDGA1041+007501999GF104991999999999999999999MA1101691999999REMMET051METAR SBQV 231900Z 16013KT 9999 SCT025 27/14 Q1017;
0120833440999992007122320004-14950-040883FM-15+0914SBQV V0201401N004112200019N0112651N1+02601+01401999999ADDGA1021+006001999GF102991999999999999999999MA1101591999999REMMET051METAR SBQV 232000Z 14008KT 9999 FEW020 26/14 Q1016;
0120833440999992007122321004-14950-040883FM-15+0914SBQV V0201601N004612200019N0112651N1+02501+01501999999ADDGA1021+004801999GF102991999999999999999999MA1101691999999REMMET051METAR SBQV 232100Z 16009KT 9999 FEW016 25/15 Q1017;
0120833440999992007122322004-14950-040883FM-15+0914SBQV V0201501N003112200019N0112651N1+02301+01601999999ADDGA1021+004501999GF102991999999999999999999MA1101691999999REMMET051METAR SBQV 232200Z 15006KT 9999 FEW015 23/16 Q1017;
0120833440999992007122411004-14950-040883FM-15+0914SBQV V0201501N004612200019N0112651N1+02101+01901999999ADDGA1041+003901999GF104991999999999999999999MA1102001999999REMMET051METAR SBQV 241100Z 15009KT 9999 SCT013 21/19 Q1020;
0120833440999992007122412004-14950-040883FM-15+0914SBQV V0201701N004610045019N0112651N1+02201+01901999999ADDGA1071+004501999GF107991999999999999999999MA1102001999999REMMET051METAR SBQV 241200Z 17009KT 9999 BKN015 22/19 Q1020;
0120833440999992007122413004-14950-040883FM-15+0914SBQV V0201701N004610048019N0112651N1+02401+01901999999ADDGA1071+004801999GF107991999999999999999999MA1102001999999REMMET051METAR SBQV 241300Z 17009KT 9999 BKN016 24/19 Q1020;
0120833440999992007122414004-14950-040883FM-15+0914SBQV V0201901N005110045019N0112651N1+02301+02001999999ADDGA1071+004501999GF107991999999999999999999MA1102001999999REMMET051METAR SBQV 241400Z 19010KT 9999 BKN015 23/20 Q1020;
0120833440999992007122415004-14950-040883FM-15+0914SBQV V0201801N003610045019N0112651N1+02401+02001999999ADDGA1071+004501999GF107991999999999999999999MA1102001999999REMMET051METAR SBQV 241500Z 18007KT 9999 BKN015 24/20 Q1020;
0120833440999992007122416004-14950-040883FM-15+0914SBQV V0201601N004610048019N0112651N1+02501+01801999999ADDGA1071+004801999GF107991999999999999999999MA1101901999999REMMET051METAR SBQV 241600Z 16009KT 9999 BKN016 25/18 Q1019;
0120833440999992007122417004-14950-040883FM-15+0914SBQV V0201701N006210060019N0112651N1+02601+02001999999ADDGA1071+006001999GF107991999999999999999999MA1101801999999REMMET051METAR SBQV 241700Z 17012KT 9999 BKN020 26/20 Q1018;
0120833440999992007122418004-14950-040883FM-15+0914SBQV V0201701N006712200019N0112651N1+02501+01901999999ADDGA1041+007501999GF104991999999999999999999MA1101801999999REMMET051METAR SBQV 241800Z 17013KT 9999 SCT025 25/19 Q1018;
0120833440999992007122419004-14950-040883FM-15+0914SBQV V0201301N005112200019N0112651N1+02501+02001999999ADDGA1021+007501999GF102991999999999999999999MA1101691999999REMMET051METAR SBQV 241900Z 13010KT 9999 FEW025 25/20 Q1017;
0120833440999992007122420004-14950-040883FM-15+0914SBQV V0201501N005712200019N0112651N1+02501+01901999999ADDGA1021+006001999GF102991999999999999999999MA1101691999999REMMET051METAR SBQV 242000Z 15011KT 9999 FEW020 25/19 Q1017;
0120833440999992007122421004-14950-040883FM-15+0914SBQV V0201501N005112200019N0112651N1+02301+01901999999ADDGA1021+005401999GF102991999999999999999999MA1101691999999REMMET051METAR SBQV 242100Z 15010KT 9999 FEW018 23/19 Q1017;
0120833440999992007122422004-14950-040883FM-15+0914SBQV V0201501N003612200019N0112651N1+02201+01901999999ADDGA1021+004501999GF102991999999999999999999MA1101801999999REMMET051METAR SBQV 242200Z 15007KT 9999 FEW015 22/19 Q1018;
0143833440999992007122511004-14950-040883FM-15+0914SBQV V0201401N005712200019N0112651N1+02101+01701999999ADDGA1021+001801999GA2041+003901999GF104991999999999999999999MA1102001999999REMMET058METAR SBQV 251100Z 14011KT 9999 FEW006 SCT013 21/17 Q1020;
0120833440999992007122512004-14950-040883FM-15+0914SBQV V0201401N004612200019N0112651N1+02301+01701999999ADDGA1021+003901999GF102991999999999999999999MA1102001999999REMMET051METAR SBQV 251200Z 14009KT 9999 FEW013 23/17 Q1020;
0120833440999992007122513004-14950-040883FM-15+0914SBQV V0201401N006210045019N0112651N1+02401+01801999999ADDGA1071+004501999GF107991999999999999999999MA1102001999999REMMET051METAR SBQV 251300Z 14012KT 9999 BKN015 24/18 Q1020;
0120833440999992007122514004-14950-040883FM-15+0914SBQV V0201301N005710054019N0112651N1+02501+01801999999ADDGA1071+005401999GF107991999999999999999999MA1102001999999REMMET051METAR SBQV 251400Z 13011KT 9999 BKN018 25/18 Q1020;
0143833440999992007122515004-14950-040883FM-15+0914SBQV V0201401N005710054019N0112651N1+02501+01801999999ADDGA1021+003901999GA2071+005401999GF107991999999999999999999MA1101901999999REMMET058METAR SBQV 251500Z 14011KT 9999 FEW013 BKN018 25/18 Q1019;
0143833440999992007122516004-14950-040883FM-15+0914SBQV V0201001N005110060019N0112651N1+02401+01901999999ADDGA1021+003901999GA2071+006001999GF107991999999999999999999MA1101901999999REMMET058METAR SBQV 251600Z 10010KT 9999 FEW013 BKN020 24/19 Q1019;
0120833440999992007122517004-14950-040883FM-15+0914SBQV V0201301N004112200019N0112651N1+02401+01901999999ADDGA1041+005401999GF104991999999999999999999MA1101801999999REMMET051METAR SBQV 251700Z 13008KT 9999 SCT018 24/19 Q1018;
0120833440999992007122518004-14950-040883FM-15+0914SBQV V0201201N006212200019N0112651N1+02601+01801999999ADDGA1041+006001999GF104991999999999999999999MA1101801999999REMMET051METAR SBQV 251800Z 12012KT 9999 SCT020 26/18 Q1018;
0143833440999992007122519004-14950-040883FM-15+0914SBQV V0201301N004110240019N0112651N1+02601+01801999999ADDGA1021+006001999GA2071+024001999GF107991999999999999999999MA1101691999999REMMET058METAR SBQV 251900Z 13008KT 9999 FEW020 BKN080 26/18 Q1017;
0143833440999992007122521004-14950-040883FM-15+0914SBQV V0201501N005712200019N0112651N1+02301+01901999999ADDGA1021+005401999GA2041+090001999GF104991999999999999999999MA1101801999999REMMET058METAR SBQV 252100Z 15011KT 9999 FEW018 SCT300 23/19 Q1018;
0143833440999992007122522004-14950-040883FM-15+0914SBQV V0201401N004612200019N0112651N1+02201+01901999999ADDGA1021+004801999GA2041+090001999GF104991999999999999999999MA1101801999999REMMET058METAR SBQV 252200Z 14009KT 9999 FEW016 SCT300 22/19 Q1018;
0120833440999992007122611004-14950-040883FM-15+0914SBQV V0201301N005712200019N0112651N1+02201+01601999999ADDGA1021+005401999GF102991999999999999999999MA1102001999999REMMET051METAR SBQV 261100Z 13011KT 9999 FEW018 22/16 Q1020;
0120833440999992007122612004-14950-040883FM-15+0914SBQV V0201301N006210054019N0112651N1+02301+01601999999ADDGA1071+005401999GF107991999999999999999999MA1102001999999REMMET051METAR SBQV 261200Z 13012KT 9999 BKN018 23/16 Q1020;
0120833440999992007122613004-14950-040883FM-15+0914SBQV V0201001N004610054019N0112651N1+02301+01701999999ADDGA1071+005401999GF107991999999999999999999MA1102101999999REMMET051METAR SBQV 261300Z 10009KT 9999 BKN018 23/17 Q1021;
0120833440999992007122614004-14950-040883FM-15+0914SBQV V0201501N004610054019N0112651N1+02401+01801999999ADDGA1071+005401999GF107991999999999999999999MA1102001999999REMMET051METAR SBQV 261400Z 15009KT 9999 BKN018 24/18 Q1020;
0120833440999992007122615004-14950-040883FM-15+0914SBQV V0201601N005710060019N0112651N1+02501+01901999999ADDGA1071+006001999GF107991999999999999999999MA1102001999999REMMET051METAR SBQV 261500Z 16011KT 9999 BKN020 25/19 Q1020;
0136833440999992007122616004-14950-040883FM-15+0914SBQV V0201601N00461220001CN0112651N1+02601+01801999999ADDGA1071+007501999GA2041+090001999MA1101901999999REMMET058METAR SBQV 261600Z 16009KT 9999 BKN025 SCT300 26/18 Q1019;EQDQ01+000042SCOTCV
0120833440999992007122617004-14950-040883FM-15+0914SBQV V0201001N005110075019N0112651N1+02501+01901999999ADDGA1071+007501999GF107991999999999999999999MA1101901999999REMMET051METAR SBQV 261700Z 10010KT 9999 BKN025 25/19 Q1019;
0120833440999992007122618004-14950-040883FM-15+0914SBQV V0201701N005710075019N0112651N1+02701+01501999999ADDGA1071+007501999GF107991999999999999999999MA1101801999999REMMET051METAR SBQV 261800Z 17011KT 9999 BKN025 27/15 Q1018;
0120833440999992007122619004-14950-040883FM-15+0914SBQV V0201701N006210075019N0112651N1+02501+01901999999ADDGA1071+007501999GF107991999999999999999999MA1101801999999REMMET051METAR SBQV 261900Z 17012KT 9999 BKN025 25/19 Q1018;
0120833440999992007122620004-14950-040883FM-15+0914SBQV V0201901N005710060019N0112651N1+02401+01801999999ADDGA1071+006001999GF107991999999999999999999MA1101801999999REMMET051METAR SBQV 262000Z 19011KT 9999 BKN020 24/18 Q1018;
0120833440999992007122621004-14950-040883FM-15+0914SBQV V0201801N004112200019N0112651N1+02301+01701999999ADDGA1041+004801999GF104991999999999999999999MA1101801999999REMMET051METAR SBQV 262100Z 18008KT 9999 SCT016 23/17 Q1018;
0120833440999992007122622004-14950-040883FM-15+0914SBQV V0201701N003112200019N0112651N1+02101+01701999999ADDGA1041+004501999GF104991999999999999999999MA1101801999999REMMET051METAR SBQV 262200Z 17006KT 9999 SCT015 21/17 Q1018;
0120833440999992007122711004-14950-040883FM-15+0914SBQV V0201601N003612200019N0112651N1+02001+01801999999ADDGA1041+003601999GF104991999999999999999999MA1101901999999REMMET051METAR SBQV 271100Z 16007KT 9999 SCT012 20/18 Q1019;
0143833440999992007122712004-14950-040883FM-15+0914SBQV V0201401N003612200019N0112651N1+02201+01801999999ADDGA1021+003901999GA2041+004801999GF104991999999999999999999MA1101901999999REMMET058METAR SBQV 271200Z 14007KT 9999 FEW013 SCT016 22/18 Q1019;
0143833440999992007122713004-14950-040883FM-15+0914SBQV V0201701N004112200019N0112651N1+02201+01801999999ADDGA1041+003901999GA2041+004801999GF104991999999999999999999MA1101901999999REMMET058METAR SBQV 271300Z 17008KT 9999 SCT013 SCT016 22/18 Q1019;
0184833440999992007122714004-14950-040883FM-15+0914SBQV V0201501N00261003601CN0112651N1+02201+02001999999ADDGA1021+002101999GA2041+003601999GA3071+004801999GF107991999999999999999999MA1101901999999MW1161REMMET077METAR SBQV 271400Z 15005KT 9999 8000SE VCSH FEW007 SCT012 BKN016 22/20 Q1019;
0143833440999992007122715004-14950-040883FM-15+0914SBQV V0201501N003612200019N0112651N1+02301+02101999999ADDGA1041+003901999GA2041+005401999GF104991999999999999999999MA1101901999999REMMET058METAR SBQV 271500Z 15007KT 9999 SCT013 SCT018 23/21 Q1019;
0143833440999992007122716004-14950-040883FM-15+0914SBQV V0201701N004610060019N0112651N1+02501+02101999999ADDGA1021+004501999GA2071+006001999GF107991999999999999999999MA1101801999999REMMET058METAR SBQV 271600Z 17009KT 9999 FEW015 BKN020 25/21 Q1018;
0120833440999992007122717004-14950-040883FM-15+0914SBQV V0201601N003112200019N0112651N1+02701+01901999999ADDGA1041+006001999GF104991999999999999999999MA1101691999999REMMET051METAR SBQV 271700Z 16006KT 9999 SCT020 27/19 Q1017;
0120833440999992007122718004-14950-040883FM-15+0914SBQV V0201401N004612200019N0112651N1+02701+01901999999ADDGA1041+006001999GF104991999999999999999999MA1101591999999REMMET051METAR SBQV 271800Z 14009KT 9999 SCT020 27/19 Q1016;
0120833440999992007122719004-14950-040883FM-15+0914SBQV V0201701N007212200019N0112651N1+02601+01901999999ADDGA1041+006001999GF104991999999999999999999MA1101591999999REMMET051METAR SBQV 271900Z 17014KT 9999 SCT020 26/19 Q1016;
0120833440999992007122720004-14950-040883FM-15+0914SBQV V0201601N004612200019N0112651N1+02501+02001999999ADDGA1021+005401999GF102991999999999999999999MA1101591999999REMMET051METAR SBQV 272000Z 16009KT 9999 FEW018 25/20 Q1016;
0120833440999992007122721004-14950-040883FM-15+0914SBQV V0201601N006712200019N0112651N1+02201+02101999999ADDGA1021+004501999GF102991999999999999999999MA1101591999999REMMET051METAR SBQV 272100Z 16013KT 9999 FEW015 22/21 Q1016;
0120833440999992007122722004-14950-040883FM-15+0914SBQV V0201601N006212200019N0112651N1+02101+02001999999ADDGA1021+001801999GF102991999999999999999999MA1101691999999REMMET051METAR SBQV 272200Z 16012KT 9999 FEW006 21/20 Q1017;
0120833440999992007122811004-14950-040883FM-15+0914SBQV V0201701N004112200019N0112651N1+02101+01501999999ADDGA1021+004501999GF102991999999999999999999MA1102001999999REMMET051METAR SBQV 281100Z 17008KT 9999 FEW015 21/15 Q1020;
0120833440999992007122812004-14950-040883FM-15+0914SBQV V0201501N004612200019N0112651N1+02301+01601999999ADDGA1041+004801999GF104991999999999999999999MA1102001999999REMMET051METAR SBQV 281200Z 15009KT 9999 SCT016 23/16 Q1020;
0120833440999992007122813004-14950-040883FM-15+0914SBQV V0201301N004612200019N0112651N1+02501+01401999999ADDGA1041+006001999GF104991999999999999999999MA1102001999999REMMET051METAR SBQV 281300Z 13009KT 9999 SCT020 25/14 Q1020;
0120833440999992007122814004-14950-040883FM-15+0914SBQV V0201501N005112200019N0112651N1+02601+01501999999ADDGA1041+006001999GF104991999999999999999999MA1102001999999REMMET051METAR SBQV 281400Z 15010KT 9999 SCT020 26/15 Q1020;
0120833440999992007122815004-14950-040883FM-15+0914SBQV V0201401N005712200019N0112651N1+02701+01401999999ADDGA1041+006001999GF104991999999999999999999MA1101901999999REMMET051METAR SBQV 281500Z 14011KT 9999 SCT020 27/14 Q1019;
0120833440999992007122816004-14950-040883FM-15+0914SBQV V0201501N005712200019N0112651N1+02801+01501999999ADDGA1041+007501999GF104991999999999999999999MA1101901999999REMMET051METAR SBQV 281600Z 15011KT 9999 SCT025 28/15 Q1019;
0120833440999992007122817004-14950-040883FM-15+0914SBQV V0201001N006712200019N0112651N1+02801+01601999999ADDGA1041+007501999GF104991999999999999999999MA1101801999999REMMET051METAR SBQV 281700Z 10013KT 9999 SCT025 28/16 Q1018;
0120833440999992007122818004-14950-040883FM-15+0914SBQV V0201301N005112200019N0112651N1+02701+01401999999ADDGA1021+007501999GF102991999999999999999999MA1101691999999REMMET051METAR SBQV 281800Z 13010KT 9999 FEW025 27/14 Q1017;
0120833440999992007122819004-14950-040883FM-15+0914SBQV V0201301N005712200019N0112651N1+02701+01601999999ADDGA1021+007501999GF102991999999999999999999MA1101691999999REMMET051METAR SBQV 281900Z 13011KT 9999 FEW025 27/16 Q1017;
0120833440999992007122820004-14950-040883FM-15+0914SBQV V0201201N004112200019N0112651N1+02601+01701999999ADDGA1021+006001999GF102991999999999999999999MA1101691999999REMMET051METAR SBQV 282000Z 12008KT 9999 FEW020 26/17 Q1017;
0120833440999992007122821004-14950-040883FM-15+0914SBQV V0201301N005712200019N0112651N1+02401+01701999999ADDGA1021+005401999GF102991999999999999999999MA1101691999999REMMET051METAR SBQV 282100Z 13011KT 9999 FEW018 24/17 Q1017;
0120833440999992007122822004-14950-040883FM-15+0914SBQV V0201401N003612200019N0112651N1+02201+01801999999ADDGA1021+004501999GF102991999999999999999999MA1101801999999REMMET051METAR SBQV 282200Z 14007KT 9999 FEW015 22/18 Q1018;
0120833440999992007122911004-14950-040883FM-15+0914SBQV V0201701N003112200019N0112651N1+02101+01801999999ADDGA1041+003901999GF104991999999999999999999MA1102001999999REMMET051METAR SBQV 291100Z 17006KT 9999 SCT013 21/18 Q1020;
0120833440999992007122912004-14950-040883FM-15+0914SBQV V0201701N003612200019N0112651N1+02201+01901999999ADDGA1041+003901999GF104991999999999999999999MA1102001999999REMMET051METAR SBQV 291200Z 17007KT 9999 SCT013 22/19 Q1020;
0120833440999992007122913004-14950-040883FM-15+0914SBQV V0201801N004110045019N0112651N1+02401+01901999999ADDGA1071+004501999GF107991999999999999999999MA1102001999999REMMET051METAR SBQV 291300Z 18008KT 9999 BKN015 24/19 Q1020;
0120833440999992007122914004-14950-040883FM-15+0914SBQV V0201901N003610045019N0112651N1+02401+02001999999ADDGA1071+004501999GF107991999999999999999999MA1101901999999REMMET051METAR SBQV 291400Z 19007KT 9999 BKN015 24/20 Q1019;
0153833440999992007122915004-14950-040883FM-15+0914SBQV V0201601N004112200019N0070001N1+02201+02101999999ADDGA1041+002401999GA2041+004501999GF104991999999999999999999MA1101901999999MW1611REMMET062METAR SBQV 291500Z 16008KT 7000 -RA SCT008 SCT015 22/21 Q1019;
0143833440999992007122916004-14950-040883FM-15+0914SBQV V0201601N005112200019N0112651N1+02301+02001999999ADDGA1021+003001999GA2041+004501999GF104991999999999999999999MA1101801999999REMMET058METAR SBQV 291600Z 16010KT 9999 FEW010 SCT015 23/20 Q1018;
0120833440999992007122917004-14950-040883FM-15+0914SBQV V0201401N005710054019N0112651N1+02501+02001999999ADDGA1071+005401999GF107991999999999999999999MA1101691999999REMMET051METAR SBQV 291700Z 14011KT 9999 BKN018 25/20 Q1017;
0120833440999992007122918004-14950-040883FM-15+0914SBQV V0201401N006210060019N0112651N1+02601+02001999999ADDGA1071+006001999GF107991999999999999999999MA1101691999999REMMET051METAR SBQV 291800Z 14012KT 9999 BKN020 26/20 Q1017;
0143833440999992007122919004-14950-040883FM-15+0914SBQV V0201501N005112200019N0112651N1+02601+01901999999ADDGA1041+006001999GA2041+090001999GF104991999999999999999999MA1101691999999REMMET058METAR SBQV 291900Z 15010KT 9999 SCT020 SCT300 26/19 Q1017;
0143833440999992007122920004-14950-040883FM-15+0914SBQV V0201501N005110900019N0112651N1+02201+02001999999ADDGA1041+005401999GA2071+090001999GF107991999999999999999999MA1101691999999REMMET058METAR SBQV 292000Z 15010KT 9999 SCT018 BKN300 22/20 Q1017;
0143833440999992007122921004-14950-040883FM-15+0914SBQV V0201301N004612200019N0112651N1+02101+02001999999ADDGA1021+003601999GA2041+090001999GF104991999999999999999999MA1101801999999REMMET058METAR SBQV 292100Z 13009KT 9999 FEW012 SCT300 21/20 Q1018;
0120833440999992007122922004-14950-040883FM-15+0914SBQV V0201401N004612200019N0112651N1+02101+01901999999ADDGA1041+003601999GF104991999999999999999999MA1101801999999REMMET051METAR SBQV 292200Z 14009KT 9999 SCT012 21/19 Q1018;
0120833440999992007123011004-14950-040883FM-15+0914SBQV V0201001N003110048019N0112651N1+02101+01801999999ADDGA1071+004801999GF107991999999999999999999MA1102001999999REMMET051METAR SBQV 301100Z 10006KT 9999 BKN016 21/18 Q1020;
0120833440999992007123012004-14950-040883FM-15+0914SBQV V0201301N003610060019N0112651N1+02201+01801999999ADDGA1071+006001999GF107991999999999999999999MA1102001999999REMMET051METAR SBQV 301200Z 13007KT 9999 BKN020 22/18 Q1020;
0146833440999992007123013004-14950-040883FM-15+0914SBQV V0200401N00411220001CN0090001N1+02101+01801999999ADDGA1071+004801999GA2041+024001999MA1102001999999MW1611REMMET062METAR SBQV 301300Z 04008KT 9000 -RA BKN016 SCT080 21/18 Q1020;EQDQ01+000042SCOTCV
0143833440999992007123014004-14950-040883FM-15+0914SBQV V0200401N003110060019N0112651N1+02201+01901999999ADDGA1071+006001999GA2071+027001999GF107991999999999999999999MA1101901999999REMMET058METAR SBQV 301400Z 04006KT 9999 BKN020 BKN090 22/19 Q1019;
0143833440999992007123015004-14950-040883FM-15+0914SBQV V0200101N001510270019N0112651N1+02301+01901999999ADDGA1041+006001999GA2071+027001999GF107991999999999999999999MA1101801999999REMMET058METAR SBQV 301500Z 01003KT 9999 SCT020 BKN090 23/19 Q1018;
0153833440999992007123016004-14950-040883FM-15+0914SBQV V0200401N004110048019N0080001N1+02301+01901999999ADDGA1071+004801999GA2071+024001999GF107991999999999999999999MA1101801999999MW1611REMMET062METAR SBQV 301600Z 04008KT 8000 -RA BKN016 BKN080 23/19 Q1018;
0143833440999992007123017004-14950-040883FM-15+0914SBQV V0201901N002610048019N0112651N1+02301+02001999999ADDGA1071+004801999GA2071+024001999GF107991999999999999999999MA1101691999999REMMET058METAR SBQV 301700Z 19005KT 9999 BKN016 BKN080 23/20 Q1017;
0143833440999992007123018004-14950-040883FM-15+0914SBQV V0201301N002610054019N0112651N1+02501+01901999999ADDGA1071+005401999GA2071+024001999GF107991999999999999999999MA1101691999999REMMET058METAR SBQV 301800Z 13005KT 9999 BKN018 BKN080 25/19 Q1017;
0120833440999992007123019004-14950-040883FM-15+0914SBQV V0201501N003112200019N0112651N1+02601+02001999999ADDGA1041+005401999GF104991999999999999999999MA1101591999999REMMET051METAR SBQV 301900Z 15006KT 9999 SCT018 26/20 Q1016;
0120833440999992007123020004-14950-040883FM-15+0914SBQV V0201701N004112200019N0112651N1+02501+02001999999ADDGA1041+005401999GF104991999999999999999999MA1101591999999REMMET051METAR SBQV 302000Z 17008KT 9999 SCT018 25/20 Q1016;
0120833440999992007123021004-14950-040883FM-15+0914SBQV V0201701N005112200019N0112651N1+02201+02101999999ADDGA1041+003601999GF104991999999999999999999MA1101591999999REMMET051METAR SBQV 302100Z 17010KT 9999 SCT012 22/21 Q1016;
0120833440999992007123022004-14950-040883FM-15+0914SBQV V0201301N005110036019N0112651N1+02101+02001999999ADDGA1071+003601999GF107991999999999999999999MA1101691999999REMMET051METAR SBQV 302200Z 13010KT 9999 BKN012 21/20 Q1017;
0143833440999992007123111004-14950-040883FM-15+0914SBQV V0201301N004610900019N0112651N1+02201+01701999999ADDGA1021+004501999GA2071+090001999GF107991999999999999999999MA1101901999999REMMET058METAR SBQV 311100Z 13009KT 9999 FEW015 BKN300 22/17 Q1019;
0143833440999992007123112004-14950-040883FM-15+0914SBQV V0201501N003610900019N0112651N1+02301+01801999999ADDGA1021+004801999GA2071+090001999GF107991999999999999999999MA1101901999999REMMET058METAR SBQV 311200Z 15007KT 9999 FEW016 BKN300 23/18 Q1019;
0143833440999992007123113004-14950-040883FM-15+0914SBQV V0201401N003110900019N0112651N1+02401+01801999999ADDGA1041+005401999GA2071+090001999GF107991999999999999999999MA1101901999999REMMET058METAR SBQV 311300Z 14006KT 9999 SCT018 BKN300 24/18 Q1019;
0143833440999992007123114004-14950-040883FM-15+0914SBQV V0201501N004110060019N0112651N1+02501+01701999999ADDGA1071+006001999GA2071+090001999GF107991999999999999999999MA1101901999999REMMET058METAR SBQV 311400Z 15008KT 9999 BKN020 BKN300 25/17 Q1019;
0143833440999992007123115004-14950-040883FM-15+0914SBQV V0201401N004110900019N0112651N1+02601+01801999999ADDGA1041+006001999GA2071+090001999GF107991999999999999999999MA1101801999999REMMET058METAR SBQV 311500Z 14008KT 9999 SCT020 BKN300 26/18 Q1018;
0143833440999992007123116004-14950-040883FM-15+0914SBQV V0201501N004610270019N0112651N1+02601+01801999999ADDGA1041+007501999GA2071+027001999GF107991999999999999999999MA1101801999999REMMET058METAR SBQV 311600Z 15009KT 9999 SCT025 BKN090 26/18 Q1018;
0143833440999992007123117004-14950-040883FM-15+0914SBQV V0201901N003112200019N0112651N1+02701+01601999999ADDGA1041+007501999GA2041+027001999GF104991999999999999999999MA1101691999999REMMET058METAR SBQV 311700Z 19006KT 9999 SCT025 SCT090 27/16 Q1017;
0120833440999992007123118004-14950-040883FM-15+0914SBQV V0201901N003612200019N0112651N1+02601+01601999999ADDGA1041+007501999GF104991999999999999999999MA1101591999999REMMET051METAR SBQV 311800Z 19007KT 9999 SCT025 26/16 Q1016;
0143833440999992007123119004-14950-040883FM-15+0914SBQV V0201801N004612200019N0112651N1+02501+01701999999ADDGA1041+006001999GA2041+090001999GF104991999999999999999999MA1101591999999REMMET058METAR SBQV 311900Z 18009KT 9999 SCT020 SCT300 25/17 Q1016;
0143833440999992007123120004-14950-040883FM-15+0914SBQV V0201701N004612200019N0112651N1+02501+01401999999ADDGA1041+006001999GA2041+090001999GF104991999999999999999999MA1101591999999REMMET058METAR SBQV 312000Z 17009KT 9999 SCT020 SCT300 25/14 Q1016;
0143833440999992007123121004-14950-040883FM-15+0914SBQV V0201601N004112200019N0112651N1+02401+01801999999ADDGA1021+004801999GA2041+090001999GF104991999999999999999999MA1101591999999REMMET058METAR SBQV 312100Z 16008KT 9999 FEW016 SCT300 24/18 Q1016;
0120833440999992007123122004-14950-040883FM-15+0914SBQV V0201601N003612200019N0112651N1+02201+01801999999ADDGA1021+004501999GF102991999999999999999999MA1101591999999REMMET051METAR SBQV 312200Z 16007KT 9999 FEW015 22/18 Q1016;
0072833440999992007123123004-14950-040883FM-15+0914SBQV V0201401N00361220001CN0099001N1+02101+01701999999ADDMA1101691999999REMMET045METAR SBQV 312300Z 14007KT CAVOK 21/17 Q1017;
