0168834980999992007010100004-17733-039250FM-12+000399999V0200901N001512200019N0020001N1+02701+02281101731ADDGF104991021011008001001021KA1240M+02971MA1999999101681MD1999999+0011REMSYN088AAXX  01004 83498 32595 40903 10270 20228 30168 40173 82102 333 10297 29076 55009 58001;
0201834980999992007010112004-17733-039250FM-12+000399999V0200901N001010450019N0020001N1+02441+02351101701ADDAA124008991AY161061AY261061GF106991041051008001021021KA1240N+02311MA1999999101651MD1999999-0071MW1211REMSYN088AAXX  01124 83498 21595 60902 10244 20235 30165 40170 72166 84522 333 20231 59007 60094;
0182834980999992007010118004-17733-039250FM-12+000399999V0200901N002110450019N0020001N1+02661+02521101471ADDAA106002091AY161061AY261061GF106991031051008001021001MA1999999101421MD1999999-0081MW1211REMSYN082AAXX  01184 83498 21595 60904 10266 20252 30142 40147 72166 83520 333 59008 60021;
0168834980999992007010200004-17733-039250FM-12+000399999V0209999C000011050019N0020001N1+02461+02411101671ADDGF106991011021008001001081KA1240M+02831MA1999999101621MD1999999-0061REMSYN088AAXX  02004 83498 32595 60000 10246 20241 30162 40167 81208 333 10283 29095 55008 59006;
0201834980999992007010212004-17733-039250FM-12+000399999V0200501N004110450019N0020001N1+02741+02261101791ADDAA124005191AY161061AY261061GF107991041021008001011001KA1240N+02291MA1999999101741MD1999999+0091MW1211REMSYN088AAXX  02124 83498 21595 70508 10274 20226 30174 40179 72166 84210 333 20229 58009 60054;
0137834980999992007010218004-17733-039250FM-12+000399999V0200901N003110450019N0020001N1+02901+02301101591ADDGF108991031051008001011999MA1999999101541MD1999999+0121REMSYN070AAXX  02184 83498 32595 80906 10290 20230 30154 40159 8351/ 333 58012;
0168834980999992007010300004-17733-039250FM-12+000399999V0200501N001512200019N0020001N1+02701+02281101731ADDGF104991031021008001001011KA1240M+02961MA1999999101681MD1999999+0061REMSYN088AAXX  03004 83498 32595 40503 10270 20228 30168 40173 83201 333 10296 29075 55000 58006;
0156834980999992007010312004-17733-039250FM-12+000399999V0200901N002610450019N0020001N1+02731+02341101701ADDGF108991021051008001021081KA1240N+02541MA1999999101651MD1999999-0091REMSYN076AAXX  03124 83498 32595 80905 10273 20234 30165 40170 82528 333 20254 59009;
0137834980999992007010318004-17733-039250FM-12+000399999V0200901N004111050019N0020001N1+02811+02521101511ADDGF106991041021008001001051MA1999999101461MD1999999-0081REMSYN070AAXX  03184 83498 32595 60908 10281 20252 30146 40151 84205 333 59008;
0168834980999992007010400004-17733-039250FM-12+000399999V0200901N001519999999N0020001N1+02501+02361101521ADDGF106991001001999999001081KA1240M+02931MA1999999101471MD1999999-0211REMSYN088AAXX  04004 83498 32995 60903 10250 20236 30147 40152 80008 333 10293 29087 55021 59021;
0156834980999992007010412004-17733-039250FM-12+000399999V0203601N004111050019N0020001N1+02821+02291101561ADDGF106991031011008001001021KA1240N+02191MA1999999101511MD1999999-0141REMSYN076AAXX  04124 83498 32595 63608 10282 20229 30151 40156 83102 333 20219 59014;
0137834980999992007010418004-17733-039250FM-12+000399999V0203601N003110450019N0020001N1+02941+02331101311ADDGF108991021011008001031021MA1999999101261MD1999999-0201REMSYN070AAXX  04184 83498 32595 83606 10294 20233 30126 40131 82132 333 59020;
0168834980999992007010500004-17733-039250FM-12+000399999V0203601N001511050019N0020001N1+02701+02281101431ADDGF105991021011008001001021KA1240M+02991MA1999999101381MD1999999-0091REMSYN088AAXX  05004 83498 32595 53603 10270 20228 30138 40143 82102 333 10299 29075 55000 59009;
0156834980999992007010512004-17733-039250FM-12+000399999V0200501N003110450019N0020001N1+02771+02421101481ADDGF108991021011008001021081KA1240N+02321MA1999999101431MD1999999-0081REMSYN076AAXX  05124 83498 32595 80506 10277 20242 30143 40148 82128 333 20232 59008;
0137834980999992007010518004-17733-039250FM-12+000399999V0203601N004110450019N0020001N1+02651+02551101261ADDGF108991031051008001021081MA1999999101211MD1999999-0051REMSYN070AAXX  05184 83498 32595 83608 10265 20255 30121 40126 83528 333 59005;
0168834980999992007010600004-17733-039250FM-12+000399999V0200501N001011050019N0020001N1+02471+02341101331ADDGF108991031001012501021081KA1240M+02851MA1999999101281MD1999999-0101REMSYN088AAXX  06004 83498 32695 80502 10247 20234 30128 40133 83028 333 10285 29091 55000 59010;
0201834980999992007010612004-17733-039250FM-12+000399999V0203601N001010450019N0020001N1+02581+02311101481ADDAA124006191AY161061AY221061GF108991041061008001011999KA1240N+02331MA1999999101431MD1999999+0001MW1621REMSYN088AAXX  06124 83498 21595 83602 10258 20231 30143 40148 76262 8461/ 333 20233 58000 60064;
0137834980999992007010618004-17733-039250FM-12+000399999V0203601N002110450019N0020001N1+02781+02301101281ADDGF108991031051008001011999MA1999999101231MD1999999+0021REMSYN070AAXX  06184 83498 32595 83604 10278 20230 30123 40128 8351/ 333 58002;
0201834980999992007010712004-17733-039250FM-12+000399999V0200501N003611050019N0020001N1+02871+02601101151ADDAA124000021AY161061AY221061GF106991041021008001001051KA1240N+02381MA1999999101501MD1999999+0071MW1211REMSYN088AAXX  07124 83498 21595 60507 10287 20260 30150 40115 72162 84205 333 20238 58007 69924;
0156834980999992007010718004-17733-039250FM-12+000399999V0203601N004119999999N0020001N1+02911+02541101371ADDGF105991001001999999001091MA1999999101321MD1999999+0091REMSYN070AAXX  07184 83498 32995 53608 10291 20254 30132 40137 88009 333 58009;EQDQ01+000082SCOTLC
0156834980999992007010812004-17733-039250FM-12+000399999V0202701N001010450019N0020001N1+02701+02351101481ADDGF108991041061008001011999KA1240N+02231MA1999999101431MD1999999-0071REMSYN076AAXX  08124 83498 32595 82702 10270 20235 30143 40148 8461/ 333 20223 59007;
0137834980999992007010818004-17733-039250FM-12+000399999V0200501N002110450019N0020001N1+02921+02291101301ADDGF106991021011008001051001MA1999999101251MD1999999-0071REMSYN070AAXX  08184 83498 32595 60504 10292 20229 30125 40130 82150 333 59007;
0178834980999992007010900004-17733-039250FM-12+000399999V0200501N001512200019N0020001N1+02621+02251101631ADDGA1001+999999999GF100991001001999999001001KA1240M+03001MA1999999101581MD1999999-0071REMSYN082AAXX  09004 83498 32995 00503 10262 20225 30158 40163 333 10300 29078 55019 59007;
0156834980999992007010912004-17733-039250FM-12+000399999V0200501N003111050019N0020001N1+02851+02291101411ADDGF106991041021008001001021KA1240N+02241MA1999999101361MD1999999-0071REMSYN076AAXX  09124 83498 32595 60506 10285 20229 30136 40141 84202 333 20224 59007;
0137834980999992007010918004-17733-039250FM-12+000399999V0200501N005111050019N0040001N1+02971+02491101111ADDGF105991011021008001001021MA1999999101061MD1999999-0191REMSYN070AAXX  09184 83498 32596 50510 10297 20249 30106 40111 81202 333 59019;
0178834980999992007011000004-17733-039250FM-12+000399999V0200501N001512200019N0001001N1+02521+02361101271ADDGA1001+999999999GF100991001001999999001001KA1240M+03051MA1999999101221MD1999999-0141REMSYN082AAXX  10004 83498 32991 00503 10252 20236 30122 40127 333 10305 29082 55057 59014;
0156834980999992007011012004-17733-039250FM-12+000399999V0203601N004110450019N0020001N1+02841+02351101281ADDGF106991041021008001031001KA1240N+02211MA1999999101231MD1999999-0131REMSYN076AAXX  10124 83498 32595 63608 10284 20235 30123 40128 84230 333 20221 59013;
0137834980999992007011018004-17733-039250FM-12+000399999V0200501N003611050019N0020001N1+02961+02351101081ADDGF106991021011008001001021MA1999999101031MD1999999-0031REMSYN070AAXX  10184 83498 32595 60507 10296 20235 30103 40108 82102 333 59003;
0168834980999992007011100004-17733-039250FM-12+000399999V0200501N001512200019N0020001N1+02701+02331101211ADDGF102991011011008001001011KA1240M+03311MA1999999101161MD1999999-0061REMSYN088AAXX  11004 83498 32595 20503 10270 20233 30116 40121 81101 333 10331 29076 55021 59006;
0156834980999992007011112004-17733-039250FM-12+000399999V0203601N003610450019N0020001N1+02851+02641101211ADDGF106991031021008001031011KA1240N+02361MA1999999101161MD1999999-0071REMSYN076AAXX  11124 83498 32595 63607 10285 20264 30116 40121 83231 333 20236 59007;
0137834980999992007011118004-17733-039250FM-12+000399999V0203601N005112200019N0020001N1+02981+02531100941ADDGF102991021011008001001001MA1999999100891MD1999999-0141REMSYN070AAXX  11184 83498 32595 23610 10298 20253 30089 40094 82100 333 59014;
0178834980999992007011200004-17733-039250FM-12+000399999V0203601N003112200019N0020001N1+02631+02461101221ADDGA1001+999999999GF100991001001999999001001KA1240M+03111MA1999999101171MD1999999+0011REMSYN082AAXX  12004 83498 32995 03606 10263 20246 30117 40122 333 10311 29085 55041 58001;
0156834980999992007011212004-17733-039250FM-12+000399999V0203601N004112200019N0020001N1+02851+02461101041ADDGF106991041021008001001011KA1240N+02491MA1999999100991MD1999999-0171REMSYN076AAXX  12124 83498 32595 63608 10285 20246 30099 40104 84201 333 20249 59017;
0137834980999992007011218004-17733-039250FM-12+000399999V0203601N004612200019N0020001N1+02931+02541100591ADDGF104991021011008001001011MA1999999100541MD1999999-0351REMSYN070AAXX  12184 83498 32595 43609 10293 20254 30054 40059 82101 333 59035;
0168834980999992007011300004-17733-039250FM-12+000399999V0203601N005112200019N0020001N1+02671+02441100701ADDGF106991031001012501021011KA1240M+03121MA1999999100651MD1999999-0521REMSYN088AAXX  13004 83498 32695 63610 10267 20244 30065 40070 83021 333 10312 29084 55033 59052;
0156834980999992007011312004-17733-039250FM-12+000399999V0203601N006210450019N0020001N1+02911+02461100841ADDGF107991041051008001051001KA1240N+02481MA1999999100791MD1999999-0201REMSYN076AAXX  13124 83498 32595 73612 10291 20246 30079 40084 84550 333 20248 59020;
0137834980999992007011318004-17733-039250FM-12+000399999V0203601N006211050019N0020001N1+03011+02461100451ADDGF105991011011008001001021MA1999999100401MD1999999-0141REMSYN070AAXX  13184 83498 32595 53612 10301 20246 30040 40045 81102 333 59014;
0156834980999992007011412004-17733-039250FM-12+000399999V0203601N005111050019N0020001N1+02991+02581100951ADDGF106991011011008001001021KA1240N+02541MA1999999100901MD1999999+0111REMSYN076AAXX  14124 83498 32595 63610 10299 20258 30090 40095 81102 333 20254 58011;
0137834980999992007011418004-17733-039250FM-12+000399999V0203601N007712200019N0020001N1+03051+02571100611ADDGF104991021021008001001021MA1999999100561MD1999999+0161REMSYN070AAXX  14184 83498 32595 43615 10305 20257 30056 40061 82202 333 58016;
0168834980999992007011500004-17733-039250FM-12+000399999V0203601N003612200019N0020001N1+02681+02451100931ADDGF104991001001999999001021KA1240M+03361MA1999999100881MD1999999+0151REMSYN088AAXX  15004 83498 32995 43607 10268 20245 30088 40093 80002 333 10336 29082 55033 58015;
0156834980999992007011512004-17733-039250FM-12+000399999V0203601N003112200019N0020001N1+03011+02421101191ADDGF103991011011008001001011KA1240N+02381MA1999999101141MD1999999+0241REMSYN076AAXX  15124 83498 32595 33606 10301 20242 30114 40119 81101 333 20238 58024;
0137834980999992007011518004-17733-039250FM-12+000399999V0203601N007212200019N0020001N1+03011+02441100971ADDGF104991011011008001001021MA1999999100921MD1999999+0361REMSYN070AAXX  15184 83498 32595 43614 10301 20244 30092 40097 81102 333 58036;
0168834980999992007011600004-17733-039250FM-12+000399999V0203601N003110450019N0020001N1+02611+02441101331ADDGF106991041061008001011001KA1240M+03191MA1999999101281MD1999999+0401REMSYN088AAXX  16004 83498 32595 63606 10261 20244 30128 40133 84610 333 10319 29081 55050 58040;
0156834980999992007011612004-17733-039250FM-12+000399999V0203601N004110450019N0020001N1+02831+02461101381ADDGF107991031011008001031081KA1240N+02321MA1999999101331MD1999999+0191REMSYN076AAXX  16124 83498 32595 73608 10283 20246 30133 40138 83138 333 20232 58019;
0137834980999992007011618004-17733-039250FM-12+000399999V0203601N004619999999N0020001N1+03011+02531101181ADDGF105991001001999999001031MA1999999101131MD1999999+0211REMSYN070AAXX  16184 83498 32995 53609 10301 20253 30113 40118 80003 333 58021;
0168834980999992007011700004-17733-039250FM-12+000399999V0200901N001012200019N0020001N1+02571+02431101401ADDGF103991001001999999001031KA1240M+03171MA1999999101351MD1999999+0071REMSYN088AAXX  17004 83498 32995 30902 10257 20243 30135 40140 80003 333 10317 29087 55039 58007;
0156834980999992007011712004-17733-039250FM-12+000399999V0203601N001512200019N0020001N1+02911+02391101571ADDGF104991041021008001001001KA1240N+02301MA1999999101521MD1999999+0191REMSYN076AAXX  17124 83498 32595 43603 10291 20239 30152 40157 84200 333 20230 58019;
0137834980999992007011718004-17733-039250FM-12+000399999V0200501N005112200019N0020001N1+03011+02441101241ADDGF103991011011008001001011MA1999999101191MD1999999+0061REMSYN070AAXX  17184 83498 32595 30510 10301 20244 30119 40124 81101 333 58006;
0178834980999992007011800004-17733-039250FM-12+000399999V0200501N002612200019N0020001N1+02611+02421101431ADDGA1001+999999999GF100991001001999999001001KA1240M+03131MA1999999101381MD1999999+0031REMSYN082AAXX  18004 83498 32995 00505 10261 20242 30138 40143 333 10313 29081 55061 58003;
0156834980999992007011812004-17733-039250FM-12+000399999V0203601N004110075019N0020001N1+02911+02371101511ADDGF105991051031008001001001KA1240N+02481MA1999999101461MD1999999-0061REMSYN076AAXX  18124 83498 32595 53608 10291 20237 30146 40151 85300 333 20248 59006;
0137834980999992007011818004-17733-039250FM-12+000399999V0200501N004612200019N0020001N1+03051+02451101191ADDGF102991001001999999001081MA1999999101141MD1999999-0051REMSYN070AAXX  18184 83498 32995 20509 10305 20245 30114 40119 80008 333 59005;
0178834980999992007011900004-17733-039250FM-12+000399999V0200501N003112200019N0020001N1+02571+02381101251ADDGA1001+999999999GF100991001001999999001001KA1240M+03151MA1999999101201MD1999999-0181REMSYN082AAXX  19004 83498 32995 00506 10257 20238 30120 40125 333 10315 29081 55048 59018;
0156834980999992007011912004-17733-039250FM-12+000399999V0203601N006712200019N0020001N1+02871+02331101301ADDGF103991011011008001001011KA1240N+02331MA1999999101251MD1999999-0211REMSYN076AAXX  19124 83498 32595 33613 10287 20233 30125 40130 81101 333 20233 59021;
0156834980999992007011918004-17733-039250FM-12+000399999V0203601N006712200019N0020001N1+03051+02281101161ADDGF103991001001999999001021MA1999999101111MD1999999-0031REMSYN070AAXX  19184 83498 32795 33613 10305 20228 30111 40116 80002 333 59003;EQDQ01+017502SCOLCB
0178834980999992007012000004-17733-039250FM-12+000399999V0203601N003112200019N0020001N1+02531+02311101351ADDGA1001+999999999GF100991001001999999001001KA1240M+03151MA1999999101301MD1999999+0101REMSYN082AAXX  20004 83498 32995 03606 10253 20231 30130 40135 333 10315 29078 55057 58010;
0156834980999992007012012004-17733-039250FM-12+000399999V0203601N003112200019N0020001N1+02891+02371101511ADDGF105991041021008001001011KA1240N+02281MA1999999101461MD1999999+0211REMSYN076AAXX  20124 83498 32595 53606 10289 20237 30146 40151 84201 333 20228 58021;
0137834980999992007012018004-17733-039250FM-12+000399999V0200501N004119999999N0020001N1+03031+02641101231ADDGF105991001001999999001021MA1999999101181MD1999999+0071REMSYN070AAXX  20184 83498 32995 50508 10303 20264 30118 40123 80002 333 58007;
0178834980999992007012100004-17733-039250FM-12+000399999V0200501N002112200019N0020001N1+02631+02411101521ADDGA1001+999999999GF100991001001999999001001KA1240M+03131MA1999999101471MD1999999+0171REMSYN082AAXX  21004 83498 32995 00504 10263 20241 30147 40152 333 10313 29082 55053 58017;
0156834980999992007012112004-17733-039250FM-12+000399999V0203601N004112200019N0020001N1+02831+02331101471ADDGF104991041021008001001001KA1240N+02411MA1999999101421MD1999999-0041REMSYN076AAXX  21124 83498 32595 43608 10283 20233 30142 40147 84200 333 20241 59004;
0156834980999992007012118004-17733-039250FM-12+000399999V0203601N006712200019N0020001N1+03031+02441101121ADDGF102991001001999999001011MA1999999101071MD1999999-0111REMSYN070AAXX  21184 83498 32795 23613 10303 20244 30107 40112 80001 333 59011;EQDQ01+017502SCOLCB
0156834980999992007012212004-17733-039250FM-12+000399999V0203601N002610075019N0020001N1+02891+02521101211ADDGF106991051021008001001081KA1240N+02441MA1999999101161MD1999999-0261REMSYN076AAXX  22124 83498 32595 63605 10289 20252 30116 40121 85208 333 20244 59026;
0182834980999992007012218004-17733-039250FM-12+000399999V0200901N001510075019N0020001N1+02911+02661101051ADDAA106007191AY161061AY221061GF107991051051008001031001MA1999999101001MD1999999-0071MW1291REMSYN082AAXX  22184 83498 21595 70903 10291 20266 30100 40105 72962 85530 333 59007 60071;
0213834980999992007012300004-17733-039250FM-12+000399999V0201801N004110450019N0020001N1+02691+02481101231ADDAA106000591AY191061AY261061GF108991041071008001021999KA1240M+03191MA1999999101181MD1999999+0051MW1211REMSYN100AAXX  23004 83498 21595 81808 10269 20248 30118 40123 72196 8472/ 333 10319 29086 55021 58005 69961;
0173834980999992007012312004-17733-039250FM-12+000399999V0201401N003110075019N0020001N1+02691+02431101281ADDAA124007991GF107991051051008001011001KA1240N+02481MA1999999101231MD1999999+0071REMSYN082AAXX  23124 83498 22595 71406 10269 20243 30123 40128 85510 333 20248 58007 60084;
0137834980999992007012318004-17733-039250FM-12+000399999V0201401N003610075019N0020001N1+02791+02421101121ADDGF107991051051008001011001MA1999999101071MD1999999+0071REMSYN070AAXX  23184 83498 32595 71407 10279 20242 30107 40112 85510 333 58007;
0168834980999992007012400004-17733-039250FM-12+000399999V0201401N002610450019N0020001N1+02641+02441101411ADDGF105991041051008001011001KA1240M+02891MA1999999101361MD1999999+0181REMSYN088AAXX  24004 83498 32595 51405 10264 20244 30136 40141 84510 333 10289 29086 55006 58018;
0201834980999992007012412004-17733-039250FM-12+000399999V0202301N002110450019N0020001N1+02771+02501101451ADDAA124003091AY161061AY221061GF106991041051008001021021KA1240N+02431MA1999999101401MD1999999+0171MW1211REMSYN088AAXX  24124 83498 21595 62304 10277 20250 30140 40145 72162 84522 333 20243 58017 60034;
0137834980999992007012418004-17733-039250FM-12+000399999V0200901N002610450019N0020001N1+02831+02501101221ADDGF106991011011008001021021MA1999999101171MD1999999+0101REMSYN070AAXX  24184 83498 32595 60905 10283 20250 30117 40122 81122 333 58010;
0168834980999992007012500004-17733-039250FM-12+000399999V0200901N001011050019N0020001N1+02611+02441101411ADDGF105991041021008001001021KA1240M+02991MA1999999101361MD1999999+0001REMSYN088AAXX  25004 83498 32595 50902 10261 20244 30136 40141 84202 333 10299 29088 55005 58000;
0201834980999992007012512004-17733-039250FM-12+000399999V0200901N001010450019N0020001N1+02871+02501101451ADDAA124000391AY121061AY211061GF106991041051008001041001KA1240N+02351MA1999999101401MD1999999+0001MW1031REMSYN088AAXX  25124 83498 21595 60902 10287 20250 30140 40145 70321 84540 333 20235 58000 69934;
0182834980999992007012518004-17733-039250FM-12+000399999V0200501N004110450019N0020001N1+02951+02471101221ADDAA106001091AY121061AY211061GF106991041021008001041001MA1999999101171MD1999999+0001MW1031REMSYN082AAXX  25184 83498 21595 60508 10295 20247 30117 40122 70321 84240 333 58000 60011;
0180834980999992007012600004-17733-039250FM-12+000399999V0200501N002112200019N0020001N1+02631+02411101361ADDGF102991021041008001001001KA1240M+03111MA1999999101311MD1999999-0051MW1131REMSYN094AAXX  26004 83498 31595 20504 10263 20241 30131 40136 713// 82400 333 10311 29083 55027 59005;
0173834980999992007012612004-17733-039250FM-12+000399999V0203601N002112200019N0020001N1+02911+02431101441ADDAA124001091GF105991041021008001001011KA1240N+02331MA1999999101391MD1999999-0011REMSYN082AAXX  26124 83498 22595 53604 10291 20243 30139 40144 84201 333 20233 59001 60014;
0137834980999992007012618004-17733-039250FM-12+000399999V0203601N003112200019N0020001N1+03091+02371101191ADDGF102991011021008001001051MA1999999101141MD1999999-0031REMSYN070AAXX  26184 83498 32595 23606 10309 20237 30114 40119 81205 333 59003;
0168834980999992007012700004-17733-039250FM-12+000399999V0200501N003112200019N0020001N1+02591+02371101271ADDGF104991041021008001001001KA1240M+03191MA1999999101221MD1999999-0091REMSYN088AAXX  27004 83498 32595 40506 10259 20237 30122 40127 84200 333 10319 29080 55073 59009;
0156834980999992007012712004-17733-039250FM-12+000399999V0203601N003112200019N0020001N1+02911+02371101391ADDGF105991031021008001001011KA1240N+02281MA1999999101131MD1999999-0051REMSYN076AAXX  27124 83498 32595 53606 10291 20237 30113 40139 83201 333 20228 59005;
0156834980999992007012718004-17733-039250FM-12+000399999V0200501N004112200019N0020001N1+03091+02291101211ADDGF103991001001999999001021MA1999999101161MD1999999+0021REMSYN070AAXX  27184 83498 32595 30508 10309 20229 30116 40121 80002 333 58002;EQDQ01+008002SCOLCB
0156834980999992007012812004-17733-039250FM-12+000399999V0203601N004111050019N0020001N1+02861+02461101501ADDGF106991041021008001001081KA1240N+02441MA1999999101451MD1999999+0111REMSYN076AAXX  28124 83498 32595 63608 10286 20246 30145 40150 84208 333 20244 58011;
0137834980999992007012818004-17733-039250FM-12+000399999V0203601N006219999999N0020001N1+02891+02601101171ADDGF106991041001012501031081MA1999999101121MD1999999-0041REMSYN070AAXX  28184 83498 32695 63612 10289 20260 30112 40117 84038 333 59004;
0168834980999992007012900004-17733-039250FM-12+000399999V0203601N003111050019N0020001N1+02661+02431101301ADDGF106991011011008001001021KA1240M+03031MA1999999101251MD1999999-0031REMSYN088AAXX  29004 83498 32595 63606 10266 20243 30125 40130 81102 333 10303 29085 55007 59003;
0156834980999992007012912004-17733-039250FM-12+000399999V0203601N005712200019N0020001N1+02971+02401101491ADDGF104991021021008001001021KA1240N+02511MA1999999101441MD1999999-0011REMSYN076AAXX  29124 83498 32595 43611 10297 20240 30144 40149 82202 333 20251 59001;
0137834980999992007012918004-17733-039250FM-12+000399999V0203601N007212200019N0020001N1+03011+02391101171ADDGF104991011011008001001081MA1999999101121MD1999999+0001REMSYN070AAXX  29184 83498 32595 43614 10301 20239 30112 40117 81108 333 58000;
0168834980999992007013000004-17733-039250FM-12+000399999V0203601N003119999999N0020001N1+02751+02471101401ADDGF106991031001008001031081KA1240M+03151MA1999999101351MD1999999+0101REMSYN088AAXX  30004 83498 32595 63606 10275 20247 30135 40140 83038 333 10315 29079 55065 58010;
0156834980999992007013012004-17733-039250FM-12+000399999V0203601N004110075019N0020001N1+02851+02501101441ADDGF106991051021008001001081KA1240N+02471MA1999999101391MD1999999-0051REMSYN076AAXX  30124 83498 32595 63608 10285 20250 30139 40144 85208 333 20247 59005;
0137834980999992007013018004-17733-039250FM-12+000399999V0203601N005712200019N0020001N1+03071+02431101081ADDGF104991001001999999001081MA1999999101031MD1999999-0091REMSYN070AAXX  30184 83498 32995 43611 10307 20243 30103 40108 80008 333 59009;
0168834980999992007013100004-17733-039250FM-12+000399999V0203601N003112200019N0020001N1+02671+02411101241ADDGF103991031001012501031001KA1240M+03131MA1999999101191MD1999999-0161REMSYN088AAXX  31004 83498 32695 33606 10267 20241 30119 40124 83030 333 10313 29081 55039 59016;
0156834980999992007013112004-17733-039250FM-12+000399999V0203601N004111050019N0020001N1+02971+02451101321ADDGF106991021021008001001081KA1240N+02381MA1999999101271MD1999999-0121REMSYN076AAXX  31124 83498 32595 63608 10297 20245 30127 40132 82208 333 20238 59012;
0137834980999992007013118004-17733-039250FM-12+000399999V0203601N005111050019N0020001N1+02911+02461101011ADDGF106991011011008001001081MA1999999100961MD1999999-0071REMSYN070AAXX  31184 83498 32595 63610 10291 20246 30096 40101 81108 333 59007;
0168834980999992007020100004-17733-039250FM-12+000399999V0209999C000012200019N0020001N1+02611+02421101331ADDGF102991021011008001001001KA1240M+03171MA1999999101281MD1999999+0091REMSYN088AAXX  01004 83498 32595 20000 10261 20242 30128 40133 82100 333 10317 29080 55035 58009;
0156834980999992007020112004-17733-039250FM-12+000399999V0202301N003110450019N0020001N1+02911+02481101391ADDGF106991041021008001031021KA1240N+02331MA1999999101341MD1999999+0071REMSYN076AAXX  01124 83498 32595 62306 10291 20248 30134 40139 84232 333 20233 58007;
0137834980999992007020118004-17733-039250FM-12+000399999V0200501N003112200019N0020001N1+02851+02481101121ADDGF106991031001012501021041MA1999999101071MD1999999+0111REMSYN070AAXX  01184 83498 32695 60506 10285 20248 30107 40112 83024 333 58011;
0168834980999992007020200004-17733-039250FM-12+000399999V0200501N001012200019N0020001N1+02551+02361101291ADDGF102991001001999999001091KA1240M+03231MA1999999101241MD1999999-0041REMSYN088AAXX  02004 83498 32995 20502 10255 20236 30124 40129 80009 333 10323 29085 55027 59004;
0156834980999992007020212004-17733-039250FM-12+000399999V0203601N003112200019N0020001N1+03041+02431101401ADDGF105991041021008001001011KA1240N+02281MA1999999101351MD1999999+0011REMSYN076AAXX  02124 83498 32595 53606 10304 20243 30135 40140 84201 333 20228 58001;
0137834980999992007020218004-17733-039250FM-12+000399999V0203601N003610450019N0020001N1+02851+02401101051ADDGF107991041051008001051001MA1999999101001MD1999999-0071REMSYN070AAXX  02184 83498 32595 73607 10285 20240 30100 40105 84550 333 59007;
0178834980999992007020300004-17733-039250FM-12+000399999V0200501N001010012019N0020001N1+02691+02431101251ADDGA1091+999999999GF109991091999999999999999KA1240M+03231MA1999999101201MD1999999-0041REMSYN082AAXX  03004 83498 32/95 90502 10269 20243 30120 40125 333 10323 29080 55050 59004;
0201834980999992007020312004-17733-039250FM-12+000399999V0203201N002110075019N0020001N1+02621+02231101111ADDAA124005191AY161061AY261061GF108991081001008001021999KA1240N+02321MA1999999101061MD1999999-0291MW1021REMSYN088AAXX  03124 83498 21595 83204 10262 20223 30106 40111 70266 8802/ 333 20232 59029 60054;
0137834980999992007020318004-17733-039250FM-12+000399999V0200501N004610450019N0020001N1+02891+02521100891ADDGF106991031051008001021001MA1999999100841MD1999999-0161REMSYN070AAXX  03184 83498 32595 60509 10289 20252 30084 40089 83520 333 59016;
0213834980999992007020400004-17733-039250FM-12+000399999V0200501N000510450019N0020001N1+02431+02391101141ADDAA106032091AY191061AY261061GF108991041051008001021999KA1240M+02691MA1999999101091MD1999999-0111MW1211REMSYN100AAXX  04004 83498 21595 80501 10243 20239 30109 40114 72196 8452/ 333 10269 29089 55012 59011 60321;
0201834980999992007020412004-17733-039250FM-12+000399999V0202301N001010075019N0020001N1+02521+02381101341ADDAA124045091AY121061AY211061GF108991051051008001021999KA1240N+02311MA1999999101291MD1999999+0231MW1031REMSYN088AAXX  04124 83498 21595 82302 10252 20238 30129 40134 70321 8552/ 333 20231 58023 60454;
0182834980999992007020418004-17733-039250FM-12+000399999V0200501N001010075019N0020001N1+02511+02431101081ADDAA106011991AY161061AY261061GF108991051051008001021999MA1999999101031MD1999999+0191MW1211REMSYN082AAXX  04184 83498 21595 80502 10251 20243 30103 40108 72166 8552/ 333 58019 60121;
0213834980999992007020500004-17733-039250FM-12+000399999V0209999C000010075019N0020001N1+02401+02351101421ADDAA106002091AY161061AY261061GF108991051051008001021999KA1240M+02851MA1999999101371MD1999999+0281MW1211REMSYN100AAXX  05004 83498 21595 80000 10240 20235 30137 40142 72166 8552/ 333 10285 29096 55000 58028 60021;
0201834980999992007020512004-17733-039250FM-12+000399999V0203601N003610450019N0020001N1+02871+02561101481ADDAA124014091AY161061AY261061GF107991041051008001021001KA1240N+02381MA1999999101431MD1999999+0141MW1211REMSYN088AAXX  05124 83498 21595 73607 10287 20256 30143 40148 72166 84520 333 20238 58014 60144;
0137834980999992007020518004-17733-039250FM-12+000399999V0203601N004110450019N0020001N1+02941+02381101281ADDGF107991041051008001051001MA1999999101231MD1999999+0201REMSYN070AAXX  05184 83498 32595 73608 10294 20238 30123 40128 84550 333 58020;
0168834980999992007020600004-17733-039250FM-12+000399999V0203601N001010450019N0020001N1+02611+02481101391ADDGF105991031051008001041001KA1240M+03071MA1999999101341MD1999999-0031REMSYN088AAXX  06004 83498 32595 53602 10261 20248 30134 40139 83540 333 10307 29085 55005 59003;
0156834980999992007020612004-17733-039250FM-12+000399999V0203601N003112200019N0020001N1+02891+02301101541ADDGF106991021021008001001011KA1240N+02281MA1999999101491MD1999999+0061REMSYN076AAXX  06124 83498 32595 63606 10289 20230 30149 40154 82201 333 20228 58006;
0137834980999992007020618004-17733-039250FM-12+000399999V0203601N002610450019N0020001N1+02811+02361101281ADDGF107991031051008001041011MA1999999101231MD1999999+0001REMSYN070AAXX  06184 83498 32595 73605 10281 20236 30123 40128 83541 333 58000;
0178834980999992007020700004-17733-039250FM-12+000399999V0203601N001512200019N0020001N1+02511+02291101461ADDGA1001+999999999GF100991001001999999001001KA1240M+03071MA1999999101411MD1999999+0071REMSYN082AAXX  07004 83498 32995 03603 10251 20229 30141 40146 333 10307 29081 55028 58007;
0156834980999992007020712004-17733-039250FM-12+000399999V0200501N001510450019N0020001N1+02791+02381101491ADDGF106991041051008001021001KA1240N+02211MA1999999101441MD1999999-0051REMSYN076AAXX  07124 83498 32595 60503 10279 20238 30144 40149 84520 333 20221 59005;
0137834980999992007020718004-17733-039250FM-12+000399999V0200501N003111050019N0020001N1+02971+02401101311ADDGF105991031021008001001021MA1999999101261MD1999999+0031REMSYN070AAXX  07184 83498 32595 50506 10297 20240 30126 40131 83202 333 58003;
0178834980999992007020800004-17733-039250FM-12+000399999V0200501N001012200019N0020001N1+02561+02311101491ADDGA1001+999999999GF100991001001999999001001KA1240M+03071MA1999999101441MD1999999+0031REMSYN082AAXX  08004 83498 32995 00502 10256 20231 30144 40149 333 10307 29080 55042 58003;
0201834980999992007020812004-17733-039250FM-12+000399999V0200501N003110450019N0020001N1+02951+02361101631ADDAA124001091AY121061AY211061GF105991031051008001041001KA1240N+02191MA1999999101581MD1999999+0141MW1031REMSYN088AAXX  08124 83498 21595 50506 10295 20236 30158 40163 70321 83540 333 20219 58014 60014;
0137834980999992007020818004-17733-039250FM-12+000399999V0200901N003111050019N0020001N1+02901+02411101401ADDGF106991021021008001001081MA1999999101351MD1999999+0091REMSYN070AAXX  08184 83498 32595 60906 10290 20241 30135 40140 82208 333 58009;
0178834980999992007020900004-17733-039250FM-12+000399999V0200901N002612200019N0020001N1+02591+02351101611ADDGA1001+999999999GF100991001001999999001001KA1240M+03051MA1999999101561MD1999999+0121REMSYN082AAXX  09004 83498 32995 00905 10259 20235 30156 40161 333 10305 29075 55055 58012;
0156834980999992007020912004-17733-039250FM-12+000399999V0200901N003110450019N0020001N1+02921+02431101851ADDGF105991041021008001011001KA1240N+02361MA1999999101801MD1999999+0221REMSYN076AAXX  09124 83498 32595 50906 10292 20243 30180 40185 84210 333 20236 58022;
0137834980999992007020918004-17733-039250FM-12+000399999V0200901N002612200019N0020001N1+02971+02281101621ADDGF103991011011008001041001MA1999999101571MD1999999+0251REMSYN070AAXX  09184 83498 32595 30905 10297 20228 30157 40162 81140 333 58025;
0178834980999992007021000004-17733-039250FM-12+000399999V0209999C000012200019N0020001N1+02501+02341101761ADDGA1001+999999999GF100991001001999999001001KA1240M+03071MA1999999101711MD1999999+0151REMSYN082AAXX  10004 83498 32995 00000 10250 20234 30171 40176 333 10307 29081 55078 58015;
0156834980999992007021012004-17733-039250FM-12+000399999V0203601N002110450019N0020001N1+02751+02451101771ADDGF106991041051008001041001KA1240N+02301MA1999999101721MD1999999-0081REMSYN076AAXX  10124 83498 32595 63604 10275 20245 30172 40177 84540 333 20230 59008;
0137834980999992007021018004-17733-039250FM-12+000399999V0200901N003112200019N0020001N1+02991+02401101481ADDGF102991021021008001001001MA1999999101431MD1999999-0131REMSYN070AAXX  10184 83498 32595 20906 10299 20240 30143 40148 82200 333 59013;
0178834980999992007021100004-17733-039250FM-12+000399999V0200501N001012200019N0020001N1+02501+02291101551ADDGA1001+999999999GF100991001001999999001001KA1240M+03141MA1999999101501MD1999999-0211REMSYN082AAXX  11004 83498 32995 00502 10250 20229 30150 40155 333 10314 29083 55054 59021;
0156834980999992007021112004-17733-039250FM-12+000399999V0203601N003112200019N0020001N1+02901+02321101361ADDGF102991021011008001001001KA1240N+02181MA1999999101311MD1999999-0411REMSYN076AAXX  11124 83498 32595 23606 10290 20232 30131 40136 82100 333 20218 59041;
0137834980999992007021118004-17733-039250FM-12+000399999V0203601N005112200019N0020001N1+03031+02441100881ADDGF101991011011008001001001MA1999999100831MD1999999-0631REMSYN070AAXX  11184 83498 32595 13610 10303 20244 30083 40088 81100 333 59063;
0178834980999992007021200004-17733-039250FM-12+000399999V0200501N003112200019N0020001N1+02611+02391100971ADDGA1001+999999999GF100991001001999999001001KA1240M+03251MA1999999100921MD1999999-0581REMSYN082AAXX  12004 83498 32995 00506 10261 20239 30092 40097 333 10325 29080 55086 59058;
0201834980999992007021212004-17733-039250FM-12+000399999V0203601N001010450019N0020001N1+02781+02401100991ADDAA124000591AY161061AY221061GF108991041051008001011999KA1240N+02451MA1999999100941MD1999999-0371MW1211REMSYN088AAXX  12124 83498 21595 83602 10278 20240 30094 40099 72162 8451/ 333 20245 59037 69964;
0182834980999992007021218004-17733-039250FM-12+000399999V0201401N003110075019N0020001N1+02881+02251100891ADDAA106000891AY161061AY261061GF106991051021008001031001MA1999999100841MD1999999+0011MW1211REMSYN082AAXX  12184 83498 21595 61406 10288 20225 30084 40089 72166 85230 333 58001 69981;
0213834980999992007021300004-17733-039250FM-12+000399999V0201801N002110450019N0020001N1+02601+02291101231ADDAA106003091AY161061AY261061GF108991041071008001021999KA1240M+02791MA1999999101181MD1999999+0261MW1621REMSYN100AAXX  13004 83498 21595 81804 10260 20229 30118 40123 76266 8472/ 333 10279 29082 55013 58026 60031;
0201834980999992007021312004-17733-039250FM-12+000399999V0201801N001510450019N0020001N1+02481+02361101221ADDAA124004191AY161061AY261061GF108991031071008001021999KA1240N+02251MA1999999101171MD1999999+0231MW1601REMSYN088AAXX  13124 83498 21595 81803 10248 20236 30117 40122 76066 8372/ 333 20225 58023 60044;
0182834980999992007021318004-17733-039250FM-12+000399999V0201801N003110450019N0020001N1+02551+02331101081ADDAA106000021AY161061AY261061GF108991031071008001021001MA1999999101031MD1999999+0191MW1601REMSYN082AAXX  13184 83498 21595 81806 10255 20233 30103 40108 76066 83720 333 58019 69921;
0213834980999992007021400004-17733-039250FM-12+000399999V0201401N001510450019N0020001N1+02421+02231101231ADDAA106003091AY161061AY261061GF108991021071008001021999KA1240M+02691MA1999999101181MD1999999+0001MW1601REMSYN100AAXX  14004 83498 21595 81403 10242 20223 30118 40123 76066 8272/ 333 10269 29090 55000 58000 60031;
0173834980999992007021412004-17733-039250FM-12+000399999V0201801N000510450019N0020001N1+02681+02351101231ADDAA124003091GF108991031061008001021999KA1240N+02251MA1999999101181MD1999999+0011REMSYN082AAXX  14124 83498 22595 81801 10268 20235 30118 40123 8362/ 333 20225 58001 60034;
0182834980999992007021418004-17733-039250FM-12+000399999V0200501N001510450019N0020001N1+02741+02431100951ADDAA106000591AY161061AY261061GF108991031051008001011999MA1999999100901MD1999999-0131MW1211REMSYN082AAXX  14184 83498 21595 80503 10274 20243 30090 40095 72166 8351/ 333 59013 69941;
0187834980999992007021500004-17733-039250FM-12+000399999V0209999C000010450019N0020001N1+02681+02371101101ADDGF106991021051008001011001KA1240M+99999MA1999999101051MD1999999-0131REMSYN088AAXX  15004 83498 32595 60000 10268 20237 30105 40110 82510 333 10260 29083 55000 59013;EQDQ01 +02602ATMX  
0201834980999992007021512004-17733-039250FM-12+000399999V0203601N003110450019N0020001N1+02751+02341101101ADDAA124004191AY121061AY211061GF107991041051008001041001KA1240N+02281MA1999999101051MD1999999-0131MW1031REMSYN088AAXX  15124 83498 21595 73606 10275 20234 30105 40110 70321 84540 333 20228 59013 60044;
0213834980999992007021600004-17733-039250FM-12+000399999V0200901N001010450019N0020001N1+02461+02391101041ADDAA106013091AY161061AY261061GF108991041071008001021999KA1240M+02871MA1999999100991MD1999999-0061MW1611REMSYN100AAXX  16004 83498 21595 80902 10246 20239 30099 40104 76166 8472/ 333 10287 29090 55002 59006 60131;
0173834980999992007021612004-17733-039250FM-12+000399999V0202701N001510450019N0020001N1+02801+02481101051ADDAA124014091GF108991031021008001041999KA1240N+02281MA1999999101001MD1999999-0051REMSYN082AAXX  16124 83498 22595 82703 10280 20248 30100 40105 8324/ 333 20228 59005 60144;
0182834980999992007021618004-17733-039250FM-12+000399999V0209999C000010450019N0020001N1+02701+02411100751ADDAA106013091AY191061AY291061GF108991031071008001021999MA1999999100701MD1999999-0061MW1921REMSYN082AAXX  16184 83498 21595 80000 10270 20241 30070 40075 79299 8372/ 333 59006 60131;
0173834980999992007021712004-17733-039250FM-12+000399999V0203601N002110450019N0020001N1+02891+02501101011ADDAA124021191GF106991041021008001041001KA1240N+02371MA1999999100961MD1999999-0041REMSYN082AAXX  17124 83498 22595 63604 10289 20250 30096 40101 84240 333 20237 59004 60214;
0137834980999992007021718004-17733-039250FM-12+000399999V0200501N003110450019N0020001N1+02711+02501100841ADDGF107991041051008001011001MA1999999100791MD1999999+0071REMSYN070AAXX  17184 83498 32595 70506 10271 20250 30079 40084 84510 333 58007;
0178834980999992007021800004-17733-039250FM-12+000399999V0209999C000010012019N0020001N1+02551+02421101111ADDGA1091+999999999GF109991091999999999999999KA1240M+03071MA1999999101061MD1999999+0161REMSYN082AAXX  18004 83498 32/95 90000 10255 20242 30106 40111 333 10307 29089 55013 58016;
0201834980999992007021812004-17733-039250FM-12+000399999V0202301N001010450019N0020001N1+02721+02411101091ADDAA124006191AY161061AY221061GF108991041071008001021999KA1240N+02351MA1999999101041MD1999999+0081MW1611REMSYN088AAXX  18124 83498 21595 82302 10272 20241 30104 40109 76162 8472/ 333 20235 58008 60064;
0182834980999992007021818004-17733-039250FM-12+000399999V0200501N002110450019N0020001N1+02821+02481100981ADDAA106024991AY161061AY261061GF108991021071008001021999MA1999999100931MD1999999+0141MW1631REMSYN082AAXX  18184 83498 21595 80504 10282 20248 30093 40098 76366 8272/ 333 58014 60251;
0201834980999992007021912004-17733-039250FM-12+000399999V0200501N001510450019N0020001N1+02771+02441101261ADDAA124037191AY121061AY211061GF106991041051008001041001KA1240N+02301MA1999999101211MD1999999+0171MW1031REMSYN088AAXX  19124 83498 21595 60503 10277 20244 30121 40126 70321 84540 333 20230 58017 60374;
0137834980999992007021918004-17733-039250FM-12+000399999V0200501N004111050019N0020001N1+02891+02301101081ADDGF106991021011008001001021MA1999999101031MD1999999+0101REMSYN070AAXX  19184 83498 32595 60508 10289 20230 30103 40108 82102 333 58010;
0173834980999992007022012004-17733-039250FM-12+000399999V0200501N002110450019N0020001N1+02941+02561101381ADDAA124003091GF107991021021008001041001KA1240N+02251MA1999999101331MD1999999+0121REMSYN082AAXX  20124 83498 22595 70504 10294 20256 30133 40138 82240 333 20225 58012 60034;
0137834980999992007022018004-17733-039250FM-12+000399999V0200901N003110450019N0020001N1+03021+02591101201ADDGF105991021011008001041001MA1999999101151MD1999999+0121REMSYN070AAXX  20184 83498 32595 50906 10302 20259 30115 40120 82140 333 58012;
0168834980999992007022100004-17733-039250FM-12+000399999V0200501N001012200019N0020001N1+02741+02431101351ADDGF102991021011008001001001KA1240M+03031MA1999999101301MD1999999+0041REMSYN088AAXX  21004 83498 32595 20502 10274 20243 30130 40135 82100 333 10303 29081 55036 58004;
0156834980999992007022112004-17733-039250FM-12+000399999V0200901N002110450019N0020001N1+02881+02461101571ADDGF105991041051008001041001KA1240N+02311MA1999999101521MD1999999+0191REMSYN076AAXX  21124 83498 32595 50904 10288 20246 30152 40157 84540 333 20231 58019;
0137834980999992007022118004-17733-039250FM-12+000399999V0200501N003112200019N0020001N1+02931+02361101371ADDGF104991021021008001041001MA1999999101321MD1999999+0171REMSYN070AAXX  21184 83498 32595 40506 10293 20236 30132 40137 82240 333 58017;
0178834980999992007022200004-17733-039250FM-12+000399999V0200901N001512200019N0020001N1+02551+02231101691ADDGA1001+999999999GF100991001001999999001001KA1240M+03011MA1999999101641MD1999999+0341REMSYN082AAXX  22004 83498 32995 00903 10255 20223 30164 40169 333 10301 29079 55060 58034;
0156834980999992007022212004-17733-039250FM-12+000399999V0200901N002112200019N0020001N1+03001+02461101881ADDGF103991031011008001001001KA1240N+02421MA1999999101831MD1999999+0311REMSYN076AAXX  22124 83498 32595 30904 10300 20246 30183 40188 83100 333 20242 58031;
0137834980999992007022218004-17733-039250FM-12+000399999V0200901N002612200019N0020001N1+02981+02491101731ADDGF104991021011008001031001MA1999999101681MD1999999+0361REMSYN070AAXX  22184 83498 32595 40905 10298 20249 30168 40173 82130 333 58036;
0168834980999992007022300004-17733-039250FM-12+000399999V0200901N003112200019N0020001N1+02801+02401101831ADDGF102991021011008001001001KA1240M+03001MA1999999101781MD1999999+0141REMSYN088AAXX  23004 83498 32595 20906 10280 20240 30178 40183 82100 333 10300 29078 55083 58014;
0156834980999992007022312004-17733-039250FM-12+000399999V0200901N003610075019N0020001N1+02871+02331101931ADDGF105991051021008001001001KA1240N+02451MA1999999101881MD1999999+0051REMSYN076AAXX  23124 83498 32595 50907 10287 20233 30188 40193 85200 333 20245 58005;
0137834980999992007022318004-17733-039250FM-12+000399999V0200901N004612200019N0020001N1+02801+02421101651ADDGF104991021021008001041001MA1999999101601MD1999999-0081REMSYN070AAXX  23184 83498 32595 40909 10280 20242 30160 40165 82240 333 59008;
0178834980999992007022400004-17733-039250FM-12+000399999V0200901N002612200019N0020001N1+02501+02361101771ADDGA1001+999999999GF100991001001999999001001KA1240M+03011MA1999999101721MD1999999-0061REMSYN082AAXX  24004 83498 32995 00905 10250 20236 30172 40177 333 10301 29084 55071 59006;
0201834980999992007022412004-17733-039250FM-12+000399999V0202301N000510450019N0020001N1+02741+02431101761ADDAA124000021AY161061AY221061GF108991041051008001011999KA1240N+02401MA1999999101711MD1999999-0171MW1211REMSYN088AAXX  24124 83498 21595 82301 10274 20243 30171 40176 72162 8451/ 333 20240 59017 69924;
0182834980999992007022418004-17733-039250FM-12+000399999V0200901N001510450019N0020001N1+02901+02371101591ADDAA106002091AY161061AY261061GF108991031051008001011999MA1999999101541MD1999999-0061MW1211REMSYN082AAXX  24184 83498 21595 80903 10290 20237 30154 40159 72166 8351/ 333 59006 60021;
0168834980999992007022500004-17733-039250FM-12+000399999V0200901N001010450019N0020001N1+02621+02291101671ADDGF105991021051008001031001KA1240M+02971MA1999999101621MD1999999-0101REMSYN088AAXX  25004 83498 32595 50902 10262 20229 30162 40167 82530 333 10297 29080 55015 59010;
0137834980999992007022518004-17733-039250FM-12+000399999V0200501N003112200019N0020001N1+03011+02371101321ADDGF104991021021008001041001MA1999999101271MD1999999-0271REMSYN070AAXX  25184 83498 32595 40506 10301 20237 30127 40132 82240 333 59027;
0168834980999992007022600004-17733-039250FM-12+000399999V0203601N000510450019N0020001N1+02571+02351101561ADDGF106991031051008001051001KA1240M+03091MA1999999101511MD1999999-0111REMSYN088AAXX  26004 83498 32595 63601 10257 20235 30151 40156 83550 333 10309 29081 55028 59011;
0156834980999992007022612004-17733-039250FM-12+000399999V0200501N003110075019N0020001N1+02921+02361101601ADDGF105991051021008001001001KA1240N+02291MA1999999101551MD1999999-0031REMSYN076AAXX  26124 83498 32595 50506 10292 20236 30155 40160 85200 333 20229 59003;
0137834980999992007022618004-17733-039250FM-12+000399999V0200501N002112200019N0020001N1+03041+02331101371ADDGF103991031011008001001001MA1999999101321MD1999999+0051REMSYN070AAXX  26184 83498 32595 30504 10304 20233 30132 40137 83100 333 58005;
0213834980999992007022700004-17733-039250FM-12+000399999V0200901N001512200019N0020001N1+02681+02371101511ADDAA106000591AY161061AY211061GF102991021061008001001001KA1240M+03051MA1999999101461MD1999999-0051MW1611REMSYN100AAXX  27004 83498 21595 20903 10268 20237 30146 40151 76161 82600 333 10305 29076 55074 59005 69961;
0208834980999992007022712004-17733-039250FM-12+000399999V0200501N003112200019N0020001N1+02871+02331101741ADDAA124000791AY121061AY211061GF104991031031008001041001KA1240N+02101MA1999999101691MD1999999+0141MW1031REMSYN095AAXX  27124 83498 21595 40506 10287 20233 30169 40174 70321 833400 333 20210 58014 69974 10007;
0137834980999992007022718004-17733-039250FM-12+000399999V0200901N003112200019N0020001N1+02851+02421101511ADDGF103991031021008001001001MA1999999101461MD1999999+0141REMSYN070AAXX  27184 83498 32595 30906 10285 20242 30146 40151 83200 333 58014;
0168834980999992007022800004-17733-039250FM-12+000399999V0200901N001512200019N0020001N1+02571+02251101651ADDGF102991021011008001001001KA1240M+03011MA1999999101601MD1999999+0141REMSYN088AAXX  28004 83498 32595 20903 10257 20225 30160 40165 82100 333 10301 29079 55072 58014;
0137834980999992007022818004-17733-039250FM-12+000399999V0200901N004112200019N0020001N1+02961+02531101451ADDGF102991021011008001001001MA1999999101401MD1999999-0061REMSYN070AAXX  28184 83498 32595 20908 10296 20253 30140 40145 82100 333 59006;
0168834980999992007030100004-17733-039250FM-12+000399999V0200901N002112200019N0020001N1+02741+02361101481ADDGF104991021011008001001011KA1240M+03121MA1999999101431MD1999999-0171REMSYN088AAXX  01004 83498 32595 40904 10274 20236 30143 40148 82101 333 10312 29078 55070 59017;
0201834980999992007030112004-17733-039250FM-12+000399999V0201401N001512200019N0020001N1+02871+02421101661ADDAA124003091AY121061AY211061GF104991041021008001001001KA1240N+02291MA1999999101611MD1999999-0051MW1031REMSYN088AAXX  01124 83498 21595 41403 10287 20242 30161 40166 70321 84200 333 20229 59005 60034;
0137834980999992007030118004-17733-039250FM-12+000399999V0200901N003112200019N0020001N1+02821+02291101431ADDGF105991021021008001001081MA1999999101381MD1999999-0021REMSYN070AAXX  01184 83498 32595 50906 10282 20229 30138 40143 82208 333 59002;
0201834980999992007030212004-17733-039250FM-12+000399999V0200901N002612200019N0020001N1+02941+02521101681ADDAA124005191AY161061AY261061GF104991041021008001001001KA1240N+02301MA1999999101631MD1999999+0001MW1211REMSYN088AAXX  02124 83498 21595 40905 10294 20252 30163 40168 72166 84200 333 20230 58000 60054;
0137834980999992007030218004-17733-039250FM-12+000399999V0200901N003110450019N0020001N1+02961+02531101491ADDGF105991031011008001031001MA1999999101441MD1999999+0061REMSYN070AAXX  02184 83498 32595 50906 10296 20253 30144 40149 83130 333 58006;
0168834980999992007030300004-17733-039250FM-12+000399999V0200901N001510450019N0020001N1+02801+02441101571ADDGF106991031021008001031001KA1240M+03051MA1999999101521MD1999999+0031REMSYN088AAXX  03004 83498 32595 60903 10280 20244 30152 40157 83230 333 10305 29080 55053 58003;
0201834980999992007030312004-17733-039250FM-12+000399999V0200901N001510450019N0020001N1+02671+02371101331ADDAA124002091AY161061AY261061GF106991041051008001041001KA1240N+02361MA1999999101681MD1999999+0051MW1211REMSYN088AAXX  03124 83498 21595 60903 10267 20237 30168 40133 72166 84540 333 20236 58005 60024;
0182834980999992007030318004-17733-039250FM-12+000399999V0200901N003112200019N0020001N1+02911+02371101491ADDAA106000591AY121061AY211061GF104991041011008001001001MA1999999101441MD1999999+0001MW1031REMSYN082AAXX  03184 83498 21595 40906 10291 20237 30144 40149 70321 84100 333 58000 69941;
0178834980999992007030400004-17733-039250FM-12+000399999V0200901N003112200019N0020001N1+02651+02271101611ADDGA1001+999999999GF100991001001999999001001KA1240M+02991MA1999999101561MD1999999+0041REMSYN082AAXX  04004 83498 32995 00906 10265 20227 30156 40161 333 10299 29079 55040 58004;
0201834980999992007030412004-17733-039250FM-12+000399999V0200901N003110450019N0020001N1+02941+02451101661ADDAA124000591AY161061AY221061GF105991041011008001031001KA1240N+02381MA1999999101611MD1999999-0071MW1211REMSYN088AAXX  04124 83498 21595 50906 10294 20245 30161 40166 72162 84130 333 20238 59007 69964;
0137834980999992007030418004-17733-039250FM-12+000399999V0200901N003112200019N0020001N1+03021+02481101491ADDGF104991041021008001001001MA1999999101441MD1999999+0001REMSYN070AAXX  04184 83498 32595 40906 10302 20248 30144 40149 84200 333 58000;
0168834980999992007030500004-17733-039250FM-12+000399999V0209999C000012200019N0020001N1+02821+02401101651ADDGF104991031051999999031001KA1240M+02971MA1999999101601MD1999999+0041REMSYN088AAXX  05004 83498 32995 40000 10282 20240 30160 40165 83530 333 10297 29076 55075 58004;
0201834980999992007030512004-17733-039250FM-12+000399999V0203601N000510450019N0020001N1+02671+02411101661ADDAA124003091AY121061AY211061GF105991031051008001041001KA1240N+02251MA1999999101611MD1999999+0001MW1031REMSYN088AAXX  05124 83498 21595 53601 10267 20241 30161 40166 70321 83540 333 20225 58000 60034;
0137834980999992007030518004-17733-039250FM-12+000399999V0201401N003112200019N0020001N1+02911+02431101461ADDGF103991031021008001001001MA1999999101411MD1999999-0031REMSYN070AAXX  05184 83498 32595 31406 10291 20243 30141 40146 83200 333 59003;
0213834980999992007030600004-17733-039250FM-12+000399999V0201401N001510450019N0020001N1+02481+02341101701ADDAA106002091AY161061AY261061GF108991031071008001021999KA1240M+03011MA1999999101651MD1999999+0051MW1211REMSYN100AAXX  06004 83498 21595 81403 10248 20234 30165 40170 72166 8372/ 333 10301 29087 55056 58005 60021;
0173834980999992007030612004-17733-039250FM-12+000399999V0200501N003610075019N0020001N1+02941+02381101831ADDAA124002091GF105991051021008001001001KA1240N+02331MA1999999101781MD1999999+0171REMSYN082AAXX  06124 83498 22595 50507 10294 20238 30178 40183 85200 333 20233 58017 60024;
0168834980999992007030700004-17733-039250FM-12+000399999V0209999C000010450019N0020001N1+02841+02461101811ADDGF105991021011008001051001KA1240M+03001MA1999999101761MD1999999+0111REMSYN088AAXX  07004 83498 32595 50000 10284 20246 30176 40181 82150 333 10300 29075 55070 58011;
0137834980999992007030718004-17733-039250FM-12+000399999V0200901N002612200019N0020001N1+02911+02271101661ADDGF102991021011008001001001MA1999999101611MD1999999+0051REMSYN070AAXX  07184 83498 32595 20905 10291 20227 30161 40166 82100 333 58005;
0178834980999992007030800004-17733-039250FM-12+000399999V0200901N001512200019N0020001N1+02511+02231101751ADDGA1001+999999999GF100991001001999999001001KA1240M+03001MA1999999101701MD1999999-0061REMSYN082AAXX  08004 83498 32995 00903 10251 20223 30170 40175 333 10300 29079 55076 59006;
0201834980999992007030812004-17733-039250FM-12+000399999V0202701N001510450019N0020001N1+02741+02431101731ADDAA124001091AY161061AY221061GF106991031021008001011001KA1240N+02231MA1999999101681MD1999999+0191MW1211REMSYN088AAXX  08124 83498 21595 62703 10274 20243 30168 40173 72162 83210 333 20223 58019 60014;
0137834980999992007030818004-17733-039250FM-12+000399999V0200501N002112200019N0020001N1+03081+02321101461ADDGF103991031011008001001001MA1999999101411MD1999999-0201REMSYN070AAXX  08184 83498 32595 30504 10308 20232 30141 40146 83100 333 59020;
0168834980999992007030900004-17733-039250FM-12+000399999V0200901N000512200019N0020001N1+02621+02251101501ADDGF101991011011008001001001KA1240M+02991MA1999999101451MD1999999-0251REMSYN088AAXX  09004 83498 32595 10901 10262 20225 30145 40150 81100 333 10299 29077 55069 59025;
0156834980999992007030912004-17733-039250FM-12+000399999V0201801N000512200019N0020001N1+02751+02301101581ADDGF104991041021008001001001KA1240N+02211MA1999999101531MD1999999-0151REMSYN076AAXX  09124 83498 32595 41801 10275 20230 30153 40158 84200 333 20221 59015;
0137834980999992007030918004-17733-039250FM-12+000399999V0200901N001512200019N0020001N1+02911+02251101321ADDGF102991021011008001001001MA1999999101271MD1999999-0141REMSYN070AAXX  09184 83498 32595 20903 10291 20225 30127 40132 82100 333 59014;
0178834980999992007031000004-17733-039250FM-12+000399999V0209999C000012200019N0020001N1+02501+02291101421ADDGA1001+999999999GF100991001001999999001001KA1240M+03011MA1999999101371MD1999999-0081REMSYN082AAXX  10004 83498 32995 00000 10250 20229 30137 40142 333 10301 29080 55105 59008;
0137834980999992007031018004-17733-039250FM-12+000399999V0200901N002112200019N0020001N1+03101+02411101311ADDGF104991041021008001001001MA1999999101261MD1999999-0011REMSYN070AAXX  10184 83498 32595 40904 10310 20241 30126 40131 84200 333 59001;
0178834980999992007031100004-17733-039250FM-12+000399999V0209999C000012200019N0020001N1+02741+02321101381ADDGA1001+999999999GF100991001001999999001001KA1240M+03051MA1999999101331MD1999999-0041REMSYN082AAXX  11004 83498 32995 00000 10274 20232 30133 40138 333 10305 29076 55066 59004;
0201834980999992007031112004-17733-039250FM-12+000399999V0201301N000510450019N0020001N1+02671+02351101621ADDAA124000021AY161061AY261061GF105991041051008001041001KA1240N+02261MA1999999101571MD1999999+0061MW1601REMSYN088AAXX  11124 83498 21595 51301 10267 20235 30157 40162 76066 84540 333 20226 58006 69924;
0137834980999992007031118004-17733-039250FM-12+000399999V0200901N002612200019N0020001N1+02911+02271101271ADDGF102991021021008001001001MA1999999101221MD1999999-0041REMSYN070AAXX  11184 83498 32595 20905 10291 20227 30122 40127 82200 333 59004;
0168834980999992007031200004-17733-039250FM-12+000399999V0200901N001012200019N0020001N1+02501+02291101531ADDGF101991011011008001001001KA1240M+03031MA1999999101481MD1999999+0151REMSYN088AAXX  12004 83498 32595 10902 10250 20229 30148 40153 81100 333 10303 29082 55085 58015;
0201834980999992007031212004-17733-039250FM-12+000399999V0203601N002610450019N0020001N1+02641+02271101771ADDAA124006191AY161061AY221061GF108991041061008001021999KA1240N+02191MA1999999101721MD1999999+0151MW1631REMSYN088AAXX  12124 83498 21595 83605 10264 20227 30172 40177 76362 8462/ 333 20219 58015 60064;
0182834980999992007031218004-17733-039250FM-12+000399999V0200501N002112200019N0020001N1+03001+02371101451ADDAA106021191AY161061AY261061GF104991021011008001031001MA1999999101401MD1999999+0181MW1211REMSYN082AAXX  12184 83498 21595 40504 10300 20237 30140 40145 72166 82130 333 58018 60211;
0168834980999992007031300004-17733-039250FM-12+000399999V0200901N001012200019N0020001N1+02721+02341101551ADDGF104991041021008001001001KA1240M+02991MA1999999101501MD1999999+0021REMSYN088AAXX  13004 83498 32595 40902 10272 20234 30150 40155 84200 333 10299 29077 55035 58002;
0173834980999992007031312004-17733-039250FM-12+000399999V0200901N003110450019N0020001N1+02831+02331101701ADDAA124021191GF105991031051008001041001KA1240N+02241MA1999999101651MD1999999-0071REMSYN082AAXX  13124 83498 22595 50906 10283 20233 30165 40170 83540 333 20224 59007 60214;
0137834980999992007031318004-17733-039250FM-12+000399999V0200901N003112200019N0020001N1+02891+02301101451ADDGF103991031021008001001001MA1999999101401MD1999999+0001REMSYN070AAXX  13184 83498 32595 30906 10289 20230 30140 40145 83200 333 58000;
0178834980999992007031400004-17733-039250FM-12+000399999V0200901N002112200019N0020001N1+02571+02211101601ADDGA1001+999999999GF100991001001999999001001KA1240M+02991MA1999999101551MD1999999+0051REMSYN082AAXX  14004 83498 32995 00904 10257 20221 30155 40160 333 10299 29077 55109 58005;
0156834980999992007031412004-17733-039250FM-12+000399999V0200901N002110450019N0020001N1+02881+02461101631ADDGF108991041021008001031999KA1240N+02231MA1999999101581MD1999999-0071REMSYN076AAXX  14124 83498 32595 80904 10288 20246 30158 40163 8423/ 333 20223 59007;
0137834980999992007031418004-17733-039250FM-12+000399999V0200901N002611050019N0020001N1+03041+02431101351ADDGF106991021011008001001021MA1999999101301MD1999999-0101REMSYN070AAXX  14184 83498 32595 60905 10304 20243 30130 40135 82102 333 59010;
0201834980999992007031512004-17733-039250FM-12+000399999V0209999C000010450019N0020001N1+02631+02211101571ADDAA124001091AY121061AY211061GF107991031051008001041021KA1240N+02201MA1999999101521MD1999999-0061MW1031REMSYN088AAXX  15124 83498 21595 70000 10263 20221 30152 40157 70321 83542 333 20220 59006 60014;
0137834980999992007031518004-17733-039250FM-12+000399999V0200901N004110450019N0020001N1+02901+02301101251ADDGF105991031021008001041001MA1999999101201MD1999999-0101REMSYN070AAXX  15184 83498 32595 50908 10290 20230 30120 40125 83240 333 59010;
0178834980999992007031600004-17733-039250FM-12+000399999V0209999C000012200019N0020001N1+02501+02311101391ADDGA1001+999999999GF100991001001999999001001KA1240M+02991MA1999999101341MD1999999-0041REMSYN082AAXX  16004 83498 32995 00000 10250 20231 30134 40139 333 10299 29082 55055 59004;
0156834980999992007031612004-17733-039250FM-12+000399999V0203601N003112200019N0020001N1+02921+02411101411ADDGF103991031011008001001001KA1240N+02271MA1999999101361MD1999999-0161REMSYN076AAXX  16124 83498 32595 33606 10292 20241 30136 40141 83100 333 20227 59016;
0137834980999992007031618004-17733-039250FM-12+000399999V0203601N003612200019N0020001N1+03101+02491101051ADDGF103991011011008001001011MA1999999101001MD1999999-0201REMSYN070AAXX  16184 83498 32595 33607 10310 20249 30100 40105 81101 333 59020;
0178834980999992007031700004-17733-039250FM-12+000399999V0203601N001512200019N0020001N1+02841+02461101301ADDGA1001+999999999GF100991001001999999001001KA1240M+03111MA1999999101251MD1999999-0091REMSYN082AAXX  17004 83498 32995 03603 10284 20246 30125 40130 333 10311 29076 55093 59009;
0175834980999992007031712004-17733-039250FM-12+000399999V0203601N003112200019N0020001N1+03011+02291101321ADDGF102991001001999999001011KA1240N+02341MA1999999101271MD1999999-0091REMSYN076AAXX  17124 83498 32595 23606 10301 20229 30127 40132 80001 333 20234 59009;EQDQ01+008002SCOLCB
0156834980999992007031718004-17733-039250FM-12+000399999V0200501N005112200019N0020001N1+03031+02241101051ADDGF102991001001999999001041MA1999999101001MD1999999+0001REMSYN070AAXX  17184 83498 32595 20510 10303 20224 30100 40105 80004 333 58000;EQDQ01+008002SCOLCB
0156834980999992007031812004-17733-039250FM-12+000399999V0203601N004112200019N0020001N1+02941+02521101461ADDGF104991041051008001001001KA1240N+02351MA1999999101411MD1999999+0141REMSYN076AAXX  18124 83498 32595 43608 10294 20252 30141 40146 84500 333 20235 58014;
0156834980999992007031912004-17733-039250FM-12+000399999V0203601N003612200019N0020001N1+02911+02271101441ADDGF102991011011008001001011KA1240N+02331MA1999999101391MD1999999-0021REMSYN076AAXX  19124 83498 32595 23607 10291 20227 30139 40144 81101 333 20233 59002;
0156834980999992007031918004-17733-039250FM-12+000399999V0203601N003112200019N0020001N1+03121+02191101111ADDGF102991001001999999001041MA1999999101061MD1999999+0061REMSYN070AAXX  19184 83498 32595 23606 10312 20219 30106 40111 80004 333 58006;EQDQ01+008002SCOLCB
0178834980999992007032000004-17733-039250FM-12+000399999V0200501N001012200019N0020001N1+02501+02361101281ADDGA1001+999999999GF100991001001999999001001KA1240M+03221MA1999999101231MD1999999-0011REMSYN082AAXX  20004 83498 32995 00502 10250 20236 30123 40128 333 10322 29078 55106 59001;
0156834980999992007032012004-17733-039250FM-12+000399999V0203601N004111050019N0020001N1+02801+02421101381ADDGF106991031021008001001021KA1240N+02271MA1999999101331MD1999999-0061REMSYN076AAXX  20124 83498 32595 63608 10280 20242 30133 40138 83202 333 20227 59006;
0137834980999992007032018004-17733-039250FM-12+000399999V0200501N004112200019N0020001N1+03061+02351101071ADDGF101991011011008001001001MA1999999101021MD1999999-0041REMSYN070AAXX  20184 83498 32595 10508 10306 20235 30102 40107 81100 333 59004;
0178834980999992007032100004-17733-039250FM-12+000399999V0209999C000012200019N0020001N1+02601+02331101151ADDGA1001+999999999GF100991001001999999001001KA1240M+03041MA1999999101101MD1999999-0131REMSYN082AAXX  21004 83498 32995 00000 10260 20233 30110 40115 333 10304 29090 55105 59013;
0156834980999992007032112004-17733-039250FM-12+000399999V0203601N001010075019N0020001N1+02551+02401101361ADDGF107991051051008001011001KA1240N+02381MA1999999101311MD1999999-0021REMSYN076AAXX  21124 83498 32595 73602 10255 20240 30131 40136 85510 333 20238 59002;
0137834980999992007032118004-17733-039250FM-12+000399999V0203601N003112200019N0020001N1+03131+02351100931ADDGF101991011011008001001001MA1999999100881MD1999999-0141REMSYN070AAXX  21184 83498 32595 13606 10313 20235 30088 40093 81100 333 59014;
0178834980999992007032200004-17733-039250FM-12+000399999V0209999C000012200019N0020001N1+02571+02421101181ADDGA1001+999999999GF100991001001999999001001KA1240M+03211MA1999999101131MD1999999+0051REMSYN082AAXX  22004 83498 32995 00000 10257 20242 30113 40118 333 10321 29086 55053 58005;
0156834980999992007032212004-17733-039250FM-12+000399999V0203601N003612200019N0020001N1+02841+02461101451ADDGF106991031021008001001011KA1240N+02301MA1999999101401MD1999999+0091REMSYN076AAXX  22124 83498 32595 63607 10284 20246 30140 40145 83201 333 20230 58009;
0137834980999992007032218004-17733-039250FM-12+000399999V0200501N003112200019N0020001N1+03081+02421101131ADDGF102991011011008001001011MA1999999101081MD1999999+0201REMSYN070AAXX  22184 83498 32595 20506 10308 20242 30108 40113 81101 333 58020;
0178834980999992007032300004-17733-039250FM-12+000399999V0200501N002612200019N0020001N1+02701+02391101361ADDGA1001+999999999GF100991001001999999001001KA1240M+03171MA1999999101311MD1999999+0161REMSYN082AAXX  23004 83498 32995 00505 10270 20239 30131 40136 333 10317 29078 55092 58016;
0201834980999992007032312004-17733-039250FM-12+000399999V0200901N000510450019N0020001N1+02831+02381101571ADDAA124001091AY121061AY211061GF105991041021008001041001KA1240N+02301MA1999999101521MD1999999+0121MW1031REMSYN088AAXX  23124 83498 21595 50901 10283 20238 30152 40157 70321 84240 333 20230 58012 69994;
0137834980999992007032318004-17733-039250FM-12+000399999V0200501N002612200019N0020001N1+03091+02241101331ADDGF102991021011008001001001MA1999999101281MD1999999+0201REMSYN070AAXX  23184 83498 32595 20505 10309 20224 30128 40133 82100 333 58020;
0178834980999992007032400004-17733-039250FM-12+000399999V0200901N001512200019N0020001N1+02601+02351101501ADDGA1001+999999999GF100991001001999999001001KA1240M+03141MA1999999101451MD1999999+0141REMSYN082AAXX  24004 83498 32995 00903 10260 20235 30145 40150 333 10314 29078 55063 58014;
0156834980999992007032412004-17733-039250FM-12+000399999V0200901N001510450019N0020001N1+02841+02461101631ADDGF108991041051008001011999KA1240N+02301MA1999999101581MD1999999+0061REMSYN076AAXX  24124 83498 32595 80903 10284 20246 30158 40163 8451/ 333 20230 58006;
0137834980999992007032418004-17733-039250FM-12+000399999V0200901N003612200019N0020001N1+02981+02471101291ADDGF103991031011008001001001MA1999999101341MD1999999+0061REMSYN070AAXX  24184 83498 32595 30907 10298 20247 30134 40129 83100 333 58006;
0178834980999992007032500004-17733-039250FM-12+000399999V0209999C000012200019N0020001N1+02701+02371101551ADDGA1001+999999999GF100991001001999999001001KA1240M+03161MA1999999101501MD1999999+0051REMSYN082AAXX  25004 83498 32995 00000 10270 20237 30150 40155 333 10316 29080 55066 58005;
0156834980999992007032512004-17733-039250FM-12+000399999V0200901N001510450019N0020001N1+02931+02431101671ADDGF106991041021008001041001KA1240N+02351MA1999999101621MD1999999+0041REMSYN076AAXX  25124 83498 32595 60903 10293 20243 30162 40167 84240 333 20235 58004;
0137834980999992007032518004-17733-039250FM-12+000399999V0200901N003112200019N0020001N1+03061+02301101281ADDGF101991011011008001001001MA1999999101231MD1999999-0061REMSYN070AAXX  25184 83498 32595 10906 10306 20230 30123 40128 81100 333 59006;
0178834980999992007032600004-17733-039250FM-12+000399999V0200901N001012200019N0020001N1+02611+02271101431ADDGA1001+999999999GF100991001001999999001001KA1240M+03171MA1999999101381MD1999999-0121REMSYN082AAXX  26004 83498 32995 00902 10261 20227 30138 40143 333 10317 29079 55089 59012;
0156834980999992007032612004-17733-039250FM-12+000399999V0200901N002110450019N0020001N1+02861+02441101551ADDGF106991041051008001031001KA1240N+02381MA1999999101501MD1999999-0121REMSYN076AAXX  26124 83498 32595 60904 10286 20244 30150 40155 84530 333 20238 59012;
0137834980999992007032618004-17733-039250FM-12+000399999V0200501N003112200019N0020001N1+03001+02391101281ADDGF104991041021008001001001MA1999999101231MD1999999+0001REMSYN070AAXX  26184 83498 32595 40506 10300 20239 30123 40128 84200 333 58000;
0168834980999992007032700004-17733-039250FM-12+000399999V0200901N001512200019N0020001N1+02701+02431101541ADDGF104991041021008001001001KA1240M+03151MA1999999101491MD1999999+0111REMSYN088AAXX  27004 83498 32595 40903 10270 20243 30149 40154 84200 333 10315 29080 55070 58011;
0173834980999992007032712004-17733-039250FM-12+000399999V0200901N002112200019N0020001N1+02951+02431101571ADDAA124000891GF104991041021008001001001KA1240N+02381MA1999999101521MD1999999+0021REMSYN082AAXX  27124 83498 22595 40904 10295 20243 30152 40157 84200 333 20238 58002 69974;
0137834980999992007032718004-17733-039250FM-12+000399999V0200901N003112200019N0020001N1+02991+02471101351ADDGF103991031021008001001001MA1999999101301MD1999999+0071REMSYN070AAXX  27184 83498 32595 30906 10299 20247 30130 40135 83200 333 58007;
0168834980999992007032800004-17733-039250FM-12+000399999V0200901N001012200019N0020001N1+02571+02381101541ADDGF102991021011008001001001KA1240M+03141MA1999999101491MD1999999+0001REMSYN088AAXX  28004 83498 32595 20902 10257 20238 30149 40154 82100 333 10314 29082 55101 58000;
0156834980999992007032812004-17733-039250FM-12+000399999V0201801N000510450019N0020001N1+02821+02501101651ADDGF106991041051008001031001KA1240N+02301MA1999999101601MD1999999+0081REMSYN076AAXX  28124 83498 32595 61801 10282 20250 30160 40165 84530 333 20230 58008;
0137834980999992007032818004-17733-039250FM-12+000399999V0200501N002612200019N0020001N1+02961+02351101301ADDGF103991031011008001001001MA1999999101251MD1999999-0051REMSYN070AAXX  28184 83498 32595 30505 10296 20235 30125 40130 83100 333 59005;
0178834980999992007032900004-17733-039250FM-12+000399999V0209999C000012200019N0020001N1+02701+02371101511ADDGA1001+999999999GF100991001001999999001001KA1240M+03131MA1999999101461MD1999999-0031REMSYN082AAXX  29004 83498 32995 00000 10270 20237 30146 40151 333 10313 29080 55083 59003;
0156834980999992007032912004-17733-039250FM-12+000399999V0209999C000010450019N0020001N1+02811+02401101481ADDGF105991041051008001041001KA1240N+02251MA1999999101431MD1999999-0171REMSYN076AAXX  29124 83498 32595 50000 10281 20240 30143 40148 84540 333 20225 59017;
0137834980999992007032918004-17733-039250FM-12+000399999V0200901N003112200019N0020001N1+03011+02371101101ADDGF102991011011008001001011MA1999999101051MD1999999-0201REMSYN070AAXX  29184 83498 32595 20906 10301 20237 30105 40110 81101 333 59020;
0178834980999992007033000004-17733-039250FM-12+000399999V0209999C000012200019N0020001N1+02441+02271101301ADDGA1001+999999999GF100991001001999999001001KA1240M+03111MA1999999101251MD1999999-0211REMSYN082AAXX  30004 83498 32995 00000 10244 20227 30125 40130 333 10311 29082 55100 59021;
0156834980999992007033012004-17733-039250FM-12+000399999V0202701N001010450019N0020001N1+02841+02521101531ADDGF106991021011008001041011KA1240N+02251MA1999999101481MD1999999+0051REMSYN076AAXX  30124 83498 32595 62702 10284 20252 30148 40153 82141 333 20225 58005;
0137834980999992007033018004-17733-039250FM-12+000399999V0201401N002112200019N0020001N1+03101+02411101091ADDGF103991011011008001031001MA1999999101041MD1999999-0011REMSYN070AAXX  30184 83498 32595 31404 10310 20241 30104 40109 81130 333 59001;
0168834980999992007033100004-17733-039250FM-12+000399999V0209999C000012200019N0020001N1+02701+02391101251ADDGF104991011011008001001091KA1240M+03121MA1999999101201MD1999999-0051REMSYN088AAXX  31004 83498 32595 40000 10270 20239 30120 40125 81109 333 10312 29079 55090 59005;
0156834980999992007033112004-17733-039250FM-12+000399999V0202301N001012200019N0020001N1+02901+02411101331ADDGF105991021011008001001081KA1240N+02261MA1999999101281MD1999999-0201REMSYN076AAXX  31124 83498 32595 52302 10290 20241 30128 40133 82108 333 20226 59020;
0137834980999992007033118004-17733-039250FM-12+000399999V0200901N003111050019N0020001N1+03071+02351101001ADDGF105991011011008001001021MA1999999100951MD1999999-0091REMSYN070AAXX  31184 83498 32595 50906 10307 20235 30095 40100 81102 333 59009;
0178834980999992007040100004-17733-039250FM-12+000399999V0200901N001012200019N0020001N1+02461+02321101161ADDGA1001+999999999GF100991001001999999001001KA1240M+03181MA1999999101111MD1999999-0091REMSYN082AAXX  01004 83498 32995 00902 10246 20232 30111 40116 333 10318 29081 55097 59009;
0156834980999992007040112004-17733-039250FM-12+000399999V0202701N000510450019N0020001N1+02841+02521101361ADDGF106991031051008001031001KA1240N+02241MA1999999101311MD1999999+0031REMSYN076AAXX  01124 83498 32595 62701 10284 20252 30131 40136 83530 333 20224 58003;
0137834980999992007040118004-17733-039250FM-12+000399999V0201401N001512200019N0020001N1+03101+02411101071ADDGF103991031011008001001001MA1999999101021MD1999999+0071REMSYN070AAXX  01184 83498 32595 31403 10310 20241 30102 40107 83100 333 58007;
0168834980999992007040200004-17733-039250FM-12+000399999V0209999C000012200019N0020001N1+02681+02391101301ADDGF101991011011008001001001KA1240M+03191MA1999999101251MD1999999+0141REMSYN088AAXX  02004 83498 32595 10000 10268 20239 30125 40130 81100 333 10319 29080 55048 58014;
0201834980999992007040212004-17733-039250FM-12+000399999V0200901N001510450019N0020001N1+02911+02341101461ADDAA124005191AY121061AY211061GF105991041021008001041001KA1240N+02331MA1999999101411MD1999999+0101MW1031REMSYN088AAXX  02124 83498 21595 50903 10291 20234 30141 40146 70321 84240 333 20233 58010 60054;
0137834980999992007040218004-17733-039250FM-12+000399999V0201401N003112200019N0020001N1+02991+02421101201ADDGF103991011011008001001011MA1999999101151MD1999999+0131REMSYN070AAXX  02184 83498 32595 31406 10299 20242 30115 40120 81101 333 58013;
0168834980999992007040300004-17733-039250FM-12+000399999V0200901N001512200019N0020001N1+02661+02271101351ADDGF103991011011008001001011KA1240M+03111MA1999999101301MD1999999+0051REMSYN088AAXX  03004 83498 32595 30903 10266 20227 30130 40135 81101 333 10311 29075 55086 58005;
0201834980999992007040312004-17733-039250FM-12+000399999V0202301N001010450019N0020001N1+02721+02431101451ADDAA124014091AY161061AY221061GF106991021011008001041001KA1240N+02211MA1999999101401MD1999999-0011MW1211REMSYN088AAXX  03124 83498 21595 62302 10272 20243 30140 40145 72162 82140 333 20221 59001 60144;
0137834980999992007040318004-17733-039250FM-12+000399999V0200901N002110450019N0020001N1+02901+02431101101ADDGF106991031011008001041001MA1999999101051MD1999999-0101REMSYN070AAXX  03184 83498 32595 60904 10290 20243 30105 40110 83140 333 59010;
0168834980999992007040400004-17733-039250FM-12+000399999V0200901N001512200019N0020001N1+02741+02451101251ADDGF103991011011008001001091KA1240M+03061MA1999999101201MD1999999-0101REMSYN088AAXX  04004 83498 32595 30903 10274 20245 30120 40125 81109 333 10306 29082 55074 59010;
0156834980999992007040412004-17733-039250FM-12+000399999V0202701N001510450019N0020001N1+02871+02481101331ADDGF105991041021008001041001KA1240N+02281MA1999999101281MD1999999-0121REMSYN076AAXX  04124 83498 32595 52703 10287 20248 30128 40133 84240 333 20228 59012;
0182834980999992007040418004-17733-039250FM-12+000399999V0200501N003112200019N0020001N1+03101+02311101001ADDAA106003091AY121061AY211061GF103991011011008001001011MA1999999100951MD1999999-0101MW1011REMSYN082AAXX  04184 83498 21595 30506 10310 20231 30095 40100 70121 81101 333 59010 60031;
0168834980999992007040500004-17733-039250FM-12+000399999V0209999C000012200019N0020001N1+02481+02321101251ADDGF101991011011008001001001KA1240M+03191MA1999999101201MD1999999+0001REMSYN088AAXX  05004 83498 32595 10000 10248 20232 30120 40125 81100 333 10319 29081 55088 58000;
0173834980999992007040512004-17733-039250FM-12+000399999V0202701N002112200019N0020001N1+02941+02451101351ADDAA124003091GF101991011011008001001001KA1240N+02231MA1999999101301MD1999999+0101REMSYN082AAXX  05124 83498 22595 12704 10294 20245 30130 40135 81100 333 20223 58010 60034;
0137834980999992007040518004-17733-039250FM-12+000399999V0200501N003112200019N0020001N1+03081+02291101131ADDGF102991021011008001001001MA1999999101081MD1999999+0131REMSYN070AAXX  05184 83498 32595 20506 10308 20229 30108 40113 82100 333 58013;
0178834980999992007040600004-17733-039250FM-12+000399999V0200501N001012200019N0020001N1+02621+02331101371ADDGA1001+999999999GF100991001001999999001001KA1240M+03271MA1999999101321MD1999999+0121REMSYN082AAXX  06004 83498 32995 00502 10262 20233 30132 40137 333 10327 29077 55105 58012;
0156834980999992007040612004-17733-039250FM-12+000399999V0203201N002112200019N0020001N1+02971+02451101461ADDGF103991011011008001001011KA1240N+02281MA1999999101411MD1999999+0111REMSYN076AAXX  06124 83498 32595 33204 10297 20245 30141 40146 81101 333 20228 58011;
0137834980999992007040618004-17733-039250FM-12+000399999V0201401N002612200019N0020001N1+03001+02371101261ADDGF102991021011008001001001MA1999999101211MD1999999+0131REMSYN070AAXX  06184 83498 32595 21405 10300 20237 30121 40126 82100 333 58013;
0168834980999992007040700004-17733-039250FM-12+000399999V0200901N002610450019N0020001N1+02691+02431101441ADDGF105991031051008001041001KA1240M+03281MA1999999101391MD1999999+0071REMSYN088AAXX  07004 83498 32595 50905 10269 20243 30139 40144 83540 333 10328 29079 55101 58007;
0201834980999992007040712004-17733-039250FM-12+000399999V0202301N001510450019N0020001N1+02701+02431101681ADDAA124000891AY161061AY221061GF108991041061008001021999KA1240N+02431MA1999999101631MD1999999+0221MW1911REMSYN088AAXX  07124 83498 21595 82303 10270 20243 30163 40168 79162 8462/ 333 20243 58022 69974;
0182834980999992007040718004-17733-039250FM-12+000399999V0201401N002112200019N0020001N1+03001+02521101401ADDAA106000021AY161061AY261061GF103991031011008001001001MA1999999101351MD1999999+0141MW1211REMSYN082AAXX  07184 83498 21595 31404 10300 20252 30135 40140 72166 83100 333 58014 69911;
0168834980999992007040800004-17733-039250FM-12+000399999V0201401N001512200019N0020001N1+02821+02331101551ADDGF103991031011008001001001KA1240M+03041MA1999999101501MD1999999+0111REMSYN088AAXX  08004 83498 32595 31403 10282 20233 30150 40155 83100 333 10304 29076 55062 58011;
0173834980999992007040812004-17733-039250FM-12+000399999V0201301N001012200019N0020001N1+02891+02411101501ADDAA124000021GF103991031011008001001001KA1240N+02201MA1999999101451MD1999999-0181REMSYN082AAXX  08124 83498 22595 31302 10289 20241 30145 40150 83100 333 20220 59018 69914;
0137834980999992007040818004-17733-039250FM-12+000399999V0200901N002612200019N0020001N1+02951+02541101061ADDGF102991021011008001001001MA1999999101011MD1999999-0341REMSYN070AAXX  08184 83498 32595 20905 10295 20254 30101 40106 82100 333 59034;
0178834980999992007040900004-17733-039250FM-12+000399999V0209999C000012200019N0020001N1+02501+02291101271ADDGA1001+999999999GF100991001001999999001001KA1240M+03081MA1999999101221MD1999999-0281REMSYN082AAXX  09004 83498 32995 00000 10250 20229 30122 40127 333 10308 29083 55101 59028;
0137834980999992007040918004-17733-039250FM-12+000399999V0203601N003612200019N0020001N1+03101+02261100811ADDGF105991021011008001001011MA1999999100761MD1999999-0251REMSYN070AAXX  09184 83498 32595 53607 10310 20226 30076 40081 82101 333 59025;
0168834980999992007041000004-17733-039250FM-12+000399999V0200501N001512200019N0020001N1+02801+02421101041ADDGF102991021011008001001001KA1240M+03291MA1999999100991MD1999999-0231REMSYN088AAXX  10004 83498 32595 20503 10280 20242 30099 40104 82100 333 10329 29072 55081 59023;
0156834980999992007041012004-17733-039250FM-12+000399999V0202701N001510450019N0020001N1+02591+02351101361ADDGF107991031051008001011001KA1240N+02401MA1999999101311MD1999999+0101REMSYN076AAXX  10124 83498 32595 72703 10259 20235 30131 40136 83510 333 20240 58010;
0137834980999992007041018004-17733-039250FM-12+000399999V0200501N002110075019N0020001N1+02791+02461101091ADDGF108991051051008001021999MA1999999101041MD1999999+0281REMSYN070AAXX  10184 83498 32595 80504 10279 20246 30104 40109 8552/ 333 58028;
0213834980999992007041100004-17733-039250FM-12+000399999V0201801N006710450019N0020001N1+02181+02131101741ADDAA106043991AY191061AY261061GF108991041071008001021999KA1240M+02931MA1999999101691MD1999999+0701MW1631REMSYN100AAXX  11004 83498 21595 81813 10218 20213 30169 40174 76396 8472/ 333 10293 29091 55000 58070 60441;
0201834980999992007041112004-17733-039250FM-12+000399999V0202301N002110450019N0020001N1+02401+02111101791ADDAA124058991AY161061AY261061GF108991031051008001011999KA1240N+02071MA1999999101741MD1999999+0431MW1211REMSYN088AAXX  11124 83498 21595 82304 10240 20211 30174 40179 72166 8351/ 333 20207 58043 60594;
0137834980999992007041118004-17733-039250FM-12+000399999V0201801N004610450019N0020001N1+02801+02361101541ADDGF105991021011008001041001MA1999999101491MD1999999+0451REMSYN070AAXX  11184 83498 32595 51809 10280 20236 30149 40154 82140 333 58045;
0168834980999992007041200004-17733-039250FM-12+000399999V0200901N001512200019N0020001N1+02761+02421101761ADDGF102991021011008001001001KA1240M+02891MA1999999101711MD1999999+0021REMSYN088AAXX  12004 83498 32595 20903 10276 20242 30171 40176 82100 333 10289 29081 55035 58002;
0201834980999992007041212004-17733-039250FM-12+000399999V0209999C000010450019N0020001N1+02691+02351101871ADDAA124002091AY121061AY211061GF106991041051008001041001KA1240N+02261MA1999999101821MD1999999+0081MW1031REMSYN088AAXX  12124 83498 21595 60000 10269 20235 30182 40187 70321 84540 333 20226 58008 60024;
0137834980999992007041218004-17733-039250FM-12+000399999V0200901N002112200019N0020001N1+02931+02391101551ADDGF104991011011008001031001MA1999999101501MD1999999+0011REMSYN070AAXX  12184 83498 32595 40904 10293 20239 30150 40155 81130 333 58001;
0223834980999992007041300004-17733-039250FM-12+000399999V0209999C000012200019N0020001N1+02421+02261101841ADDAA106000891AY121061AY211061GA1001+999999999GF100991001001999999001001KA1240M+03021MA1999999101791MD1999999+0081MW1001REMSYN094AAXX  13004 83498 21995 00000 10242 20226 30179 40184 70021 333 10302 29084 55082 58008 69981;
0201834980999992007041312004-17733-039250FM-12+000399999V0200901N000510450019N0020001N1+02661+02391101801ADDAA124007191AY161061AY261061GF108991041061008001021999KA1240N+02171MA1999999101751MD1999999-0071MW1631REMSYN088AAXX  13124 83498 21595 80901 10266 20239 30175 40180 76366 8462/ 333 20217 59007 60074;
0182834980999992007041318004-17733-039250FM-12+000399999V0200901N002110450019N0020001N1+02841+02381101531ADDAA106000021AY161061AY261061GF108991031061008001021999MA1999999101481MD1999999-0021MW1211REMSYN082AAXX  13184 83498 21595 80904 10284 20238 30148 40153 72166 8362/ 333 59002 69921;
0213834980999992007041400004-17733-039250FM-12+000399999V0209999C000012200019N0020001N1+02501+02231101711ADDAA106000021AY161061AY261061GF102991021011008001001001KA1240M+03001MA1999999101661MD1999999-0131MW1211REMSYN100AAXX  14004 83498 21595 20000 10250 20223 30166 40171 72166 82100 333 10300 29080 55036 59013 69911;
0173834980999992007041412004-17733-039250FM-12+000399999V0200901N003112200019N0020001N1+02851+02381101741ADDAA124000391GF104991031021008001041001KA1240N+02291MA1999999101691MD1999999-0061REMSYN082AAXX  14124 83498 22595 40906 10285 20238 30169 40174 83240 333 20229 59006 69934;
0137834980999992007041418004-17733-039250FM-12+000399999V0200901N002612200019N0020001N1+02951+02381101461ADDGF103991031011008001001001MA1999999101411MD1999999-0071REMSYN070AAXX  14184 83498 32595 30905 10295 20238 30141 40146 83100 333 59007;
0168834980999992007041500004-17733-039250FM-12+000399999V0209999C000012200019N0020001N1+02551+02421101761ADDGF102991021011008001001001KA1240M+03051MA1999999101711MD1999999+0051REMSYN088AAXX  15004 83498 32595 20000 10255 20242 30171 40176 82100 333 10305 29083 55096 58005;
0201834980999992007041512004-17733-039250FM-12+000399999V0200901N002110450019N0020001N1+02541+02231101821ADDAA124002091AY161061AY221061GF108991041061008001021999KA1240N+02391MA1999999101771MD1999999+0081MW1631REMSYN088AAXX  15124 83498 21595 80904 10254 20223 30177 40182 76362 8462/ 333 20239 58008 60024;
0182834980999992007041518004-17733-039250FM-12+000399999V0201401N001510450019N0020001N1+02841+02481101501ADDAA106000891AY161061AY261061GF108991031061008001021999MA1999999101451MD1999999+0041MW1211REMSYN082AAXX  15184 83498 21595 81403 10284 20248 30145 40150 72166 8362/ 333 58004 69981;
0201834980999992007041612004-17733-039250FM-12+000399999V0200901N001510450019N0020001N1+02681+02461101701ADDAA124005191AY161061AY261061GF107991031071008001011001KA1240N+02301MA1999999101651MD1999999-0121MW1611REMSYN088AAXX  16124 83498 21595 70903 10268 20246 30165 40170 76166 83710 333 20230 59012 60054;
0182834980999992007041618004-17733-039250FM-12+000399999V0201401N001010450019N0020001N1+02691+02351101371ADDAA106007991AY121061AY211061GF106991031051008001041001MA1999999101321MD1999999-0131MW1031REMSYN082AAXX  16184 83498 21595 61402 10269 20235 30132 40137 70321 83540 333 59013 60081;
0168834980999992007041700004-17733-039250FM-12+000399999V0209999C000012200019N0020001N1+02481+02271101551ADDGF103991031061008001001001KA1240M+02751MA1999999101501MD1999999-0191REMSYN088AAXX  17004 83498 32595 30000 10248 20227 30150 40155 83600 333 10275 29087 55000 59019;
0201834980999992007041712004-17733-039250FM-12+000399999V0201801N002110450019N0020001N1+02631+02391101511ADDAA124008991AY121061AY211061GF105991041051008001041001KA1240N+02201MA1999999101461MD1999999-0191MW1031REMSYN088AAXX  17124 83498 21595 51804 10263 20239 30146 40151 70321 84540 333 20220 59019 60094;
0182834980999992007041718004-17733-039250FM-12+000399999V0201401N003110450019N0020001N1+02791+02361101231ADDAA106000891AY121061AY211061GF105991041051008001041001MA1999999101181MD1999999-0141MW1031REMSYN082AAXX  17184 83498 21595 51406 10279 20236 30118 40123 70321 84540 333 59014 69971;
0213834980999992007041800004-17733-039250FM-12+000399999V0200901N001012200019N0020001N1+02571+02381101431ADDAA106000391AY161061AY261061GF104991041061008001001001KA1240M+02861MA1999999101381MD1999999-0121MW1211REMSYN100AAXX  18004 83498 21595 40902 10257 20238 30138 40143 72166 84600 333 10286 29086 55023 59012 69931;
0201834980999992007041812004-17733-039250FM-12+000399999V0201801N000510450019N0020001N1+02551+02251101501ADDAA124024991AY161061AY261061GF105991031051008001041001KA1240N+02251MA1999999101451MD1999999-0011MW1211REMSYN088AAXX  18124 83498 21595 51801 10255 20225 30145 40150 72166 83540 333 20225 59001 60254;
0137834980999992007041818004-17733-039250FM-12+000399999V0200901N001510075019N0020001N1+02651+02331101241ADDGF107991051051008001011001MA1999999101191MD1999999+0011REMSYN070AAXX  18184 83498 32595 70903 10265 20233 30119 40124 85510 333 58001;
0213834980999992007041900004-17733-039250FM-12+000399999V0200901N002110075019N0020001N1+02321+02201101641ADDAA106054191AY161061AY261061GF108991051071008001021999KA1240M+02841MA1999999101591MD1999999+0211MW1631REMSYN100AAXX  19004 83498 21595 80904 10232 20220 30159 40164 76366 8572/ 333 10284 29088 55006 58021 60541;
0201834980999992007041912004-17733-039250FM-12+000399999V0201801N002110450019N0020001N1+02501+02251101661ADDAA124084191AY161061AY261061GF108991041071008001021999KA1240N+02151MA1999999101611MD1999999+0161MW1211REMSYN088AAXX  19124 83498 21595 81804 10250 20225 30161 40166 72166 8472/ 333 20215 58016 60844;
0182834980999992007041918004-17733-039250FM-12+000399999V0201801N001510075019N0020001N1+02401+02151101551ADDAA106007991AY161061AY261061GF108991051071008001021999MA1999999101501MD1999999+0311MW1611REMSYN082AAXX  19184 83498 21595 81803 10240 20215 30150 40155 76166 8572/ 333 58031 60081;
0213834980999992007042000004-17733-039250FM-12+000399999V0201801N001010450019N0020001N1+02601+02351101651ADDAA106004191AY161061AY261061GF106991041051008001011001KA1240M+02851MA1999999101601MD1999999+0011MW1211REMSYN100AAXX  20004 83498 21595 61802 10260 20235 30160 40165 72166 84510 333 10285 29086 55014 58001 60041;
0173834980999992007042012004-17733-039250FM-12+000399999V0200901N001010075019N0020001N1+02691+02431101701ADDAA124010991GF107991051051008001011001KA1240N+02351MA1999999101651MD1999999+0041REMSYN082AAXX  20124 83498 22595 70902 10269 20243 30165 40170 85510 333 20235 58004 60114;
0137834980999992007042018004-17733-039250FM-12+000399999V0200901N001510075019N0020001N1+02711+02301101381ADDGF108991051051008001021999MA1999999101331MD1999999-0171REMSYN070AAXX  20184 83498 32595 80903 10271 20230 30133 40138 8552/ 333 59017;
0232834980999992007042100004-17733-039250FM-12+000399999V0209999C000010450019N0020001N1+02361+02281101601ADDAA106000091AY121061AY211061GF105991031051008001011001KA1240M+02811MA1999999101551MD1999999-0051MW1031REMSYN100AAXX  21004 83498 21595 50000 10236 20228 30155 40160 70321 83510 333 10281 29089 55000 59005 69921;EQDQ01  00002PRCP06
0201834980999992007042112004-17733-039250FM-12+000399999V0201401N000511050019N0020001N1+02721+02411101661ADDAA124006191AY161061AY261061GF106991021011008001001021KA1240N+02201MA1999999101611MD1999999-0041MW1211REMSYN088AAXX  21124 83498 21595 61401 10272 20241 30161 40166 72166 82102 333 20220 59004 60064;
0137834980999992007042118004-17733-039250FM-12+000399999V0200901N002112200019N0020001N1+02841+02421101301ADDGF104991041021008001001001MA1999999101251MD1999999-0081REMSYN070AAXX  21184 83498 32595 40904 10284 20242 30125 40130 84200 333 59008;
0213834980999992007042200004-17733-039250FM-12+000399999V0209999C000012200019N0020001N1+02541+02251101481ADDAA106002091AY161061AY211061GF103991031051008001001001KA1240M+02931MA1999999101431MD1999999-0121MW1611REMSYN100AAXX  22004 83498 21595 30000 10254 20225 30143 40148 76161 83500 333 10293 29082 55074 59012 60021;
0173834980999992007042212004-17733-039250FM-12+000399999V0200901N001510450019N0020001N1+02791+02361101591ADDAA124002091GF107991031051008001041011KA1240N+02191MA1999999101541MD1999999-0071REMSYN082AAXX  22124 83498 22595 70903 10279 20236 30154 40159 83541 333 20219 59007 60024;
0137834980999992007042218004-17733-039250FM-12+000399999V0201401N002111050019N0020001N1+02811+02291101321ADDGF105991011011008001041011MA1999999101271MD1999999+0021REMSYN070AAXX  22184 83498 32595 51404 10281 20229 30127 40132 81141 333 58002;
0178834980999992007042300004-17733-039250FM-12+000399999V0209999C000012200019N0020001N1+02441+02271101541ADDGA1001+999999999GF100991001001999999001001KA1240M+02951MA1999999101491MD1999999+0061REMSYN082AAXX  23004 83498 32995 00000 10244 20227 30149 40154 333 10295 29083 55046 58006;
0156834980999992007042312004-17733-039250FM-12+000399999V0202301N000511050019N0020001N1+02721+02391101601ADDGF106991031011008001001021KA1240N+02131MA1999999101551MD1999999+0011REMSYN076AAXX  23124 83498 32595 62301 10272 20239 30155 40160 83102 333 20213 58001;
0137834980999992007042318004-17733-039250FM-12+000399999V0200901N002112200019N0020001N1+02901+02341101381ADDGF103991031011008001001001MA1999999101331MD1999999+0061REMSYN070AAXX  23184 83498 32595 30904 10290 20234 30133 40138 83100 333 58006;
0168834980999992007042400004-17733-039250FM-12+000399999V0200901N001512200019N0020001N1+02581+02311101531ADDGF101991011011008001001001KA1240M+02941MA1999999101481MD1999999-0011REMSYN088AAXX  24004 83498 32595 10903 10258 20231 30148 40153 81100 333 10294 29081 55096 59001;
0156834980999992007042412004-17733-039250FM-12+000399999V0200901N001012200019N0020001N1+02851+02381101721ADDGF104991031021008001041001KA1240N+02221MA1999999101671MD1999999+0121REMSYN076AAXX  24124 83498 32595 40902 10285 20238 30167 40172 83240 333 20222 58012;
0137834980999992007042418004-17733-039250FM-12+000399999V0200901N002612200019N0020001N1+02851+02311101301ADDGF102991021011008001001001MA1999999101251MD1999999-0031REMSYN070AAXX  24184 83498 32595 20905 10285 20231 30125 40130 82100 333 59003;
0178834980999992007042500004-17733-039250FM-12+000399999V0209999C000012200019N0020001N1+02481+02191101491ADDGA1001+999999999GF100991001001999999001001KA1240M+03041MA1999999101441MD1999999-0041REMSYN082AAXX  25004 83498 32995 00000 10248 20219 30144 40149 333 10304 29079 55097 59004;
0156834980999992007042512004-17733-039250FM-12+000399999V0203601N000512200019N0020001N1+02701+02281101611ADDGF104991041021008001001001KA1240N+02071MA1999999101561MD1999999-0111REMSYN076AAXX  25124 83498 32595 43601 10270 20228 30156 40161 84200 333 20207 59011;
0137834980999992007042518004-17733-039250FM-12+000399999V0200901N002112200019N0020001N1+02901+02221101271ADDGF102991021011008001001001MA1999999101221MD1999999-0031REMSYN070AAXX  25184 83498 32595 20904 10290 20222 30122 40127 82100 333 59003;
0178834980999992007042600004-17733-039250FM-12+000399999V0209999C000012200019N0020001N1+02341+02071101351ADDGA1001+999999999GF100991001001999999001001KA1240M+02981MA1999999101301MD1999999-0141REMSYN082AAXX  26004 83498 32995 00000 10234 20207 30130 40135 333 10298 29079 55095 59014;
0156834980999992007042612004-17733-039250FM-12+000399999V0200501N001512200019N0020001N1+02771+02321101371ADDGF104991041021008001001001KA1240N+02021MA1999999101321MD1999999-0241REMSYN076AAXX  26124 83498 32595 40503 10277 20232 30132 40137 84200 333 20202 59024;
0137834980999992007042618004-17733-039250FM-12+000399999V0200501N003112200019N0020001N1+02891+02211101051ADDGF102991021021008001001001MA1999999101001MD1999999-0121REMSYN070AAXX  26184 83498 32595 20506 10289 20221 30100 40105 82200 333 59012;
0178834980999992007042700004-17733-039250FM-12+000399999V0209999C000012200019N0020001N1+02421+02281101271ADDGA1001+999999999GF100991001001999999001001KA1240M+03011MA1999999101221MD1999999-0081REMSYN082AAXX  27004 83498 32995 00000 10242 20228 30122 40127 333 10301 29082 55091 59008;
0156834980999992007042712004-17733-039250FM-12+000399999V0203201N002112200019N0020001N1+02721+02391101411ADDGF106991041021008001001011KA1240N+02131MA1999999101361MD1999999+0041REMSYN076AAXX  27124 83498 32595 63204 10272 20239 30136 40141 84201 333 20213 58004;
0137834980999992007042718004-17733-039250FM-12+000399999V0203601N004112200019N0020001N1+02901+02341101151ADDGF101991011011008001001001MA1999999101101MD1999999+0101REMSYN070AAXX  27184 83498 32595 13608 10290 20234 30110 40115 81100 333 58010;
0178834980999992007042800004-17733-039250FM-12+000399999V0209999C000012200019N0020001N1+02521+02211101331ADDGA1001+999999999GF100991001001999999001001KA1240M+03041MA1999999101281MD1999999+0061REMSYN082AAXX  28004 83498 32995 00000 10252 20221 30128 40133 333 10304 29080 55090 58006;
0156834980999992007042812004-17733-039250FM-12+000399999V0202301N003110075019N0020001N1+02611+02391101811ADDGF107991051051008001011001KA1240N+02101MA1999999101761MD1999999+0401REMSYN076AAXX  28124 83498 32595 72306 10261 20239 30176 40181 85510 333 20210 58040;
0182834980999992007042818004-17733-039250FM-12+000399999V0201801N005110450019N0020001N1+02781+02361101601ADDAA106000591AY121061AY211061GF105991041021008001041001MA1999999101551MD1999999+0451MW1031REMSYN082AAXX  28184 83498 21595 51810 10278 20236 30155 40160 70321 84240 333 58045 69961;
0213834980999992007042900004-17733-039250FM-12+000399999V0201801N001510075019N0020001N1+02181+02101101951ADDAA106007991AY161061AY261061GF108991061071008001021999KA1240M+02831MA1999999101901MD1999999+0621MW1611REMSYN100AAXX  29004 83498 21595 81803 10218 20210 30190 40195 76166 8672/ 333 10283 29089 55061 58062 60081;
0201834980999992007042912004-17733-039250FM-12+000399999V0201801N003112200019N0020001N1+02521+02251101881ADDAA124020191AY161061AY261061GF104991031011008001031001KA1240N+02051MA1999999101831MD1999999+0071MW1211REMSYN088AAXX  29124 83498 21595 41806 10252 20225 30183 40188 72166 83130 333 20205 58007 60204;
0137834980999992007042918004-17733-039250FM-12+000399999V0201801N002610450019N0020001N1+02721+02411101491ADDGF108991041051008001011999MA1999999101441MD1999999-0111REMSYN070AAXX  29184 83498 32595 81805 10272 20241 30144 40149 8451/ 333 59011;
0168834980999992007043000004-17733-039250FM-12+000399999V0209999C000019999999N0020001N1+02561+02251101591ADDGF108991041051999999031999KA1240M+02771MA1999999101541MD1999999-0361REMSYN088AAXX  30004 83498 32995 80000 10256 20225 30154 40159 8453/ 333 10277 29084 55035 59036;
0201834980999992007043012004-17733-039250FM-12+000399999V0201801N001510075019N0020001N1+02511+02321101601ADDAA124006191AY121061AY211061GF108991051051008001021999KA1240N+02311MA1999999101551MD1999999-0281MW1031REMSYN088AAXX  30124 83498 21595 81803 10251 20232 30155 40160 70321 8552/ 333 20231 59028 60064;
0182834980999992007043018004-17733-039250FM-12+000399999V0200901N001510450019N0020001N1+02731+02191101281ADDAA106001091AY121061AY211061GF106991041051008001041001MA1999999101231MD1999999-0211MW1031REMSYN082AAXX  30184 83498 21595 60903 10273 20219 30123 40128 70321 84540 333 59021 69991;
0168834980999992007050100004-17733-039250FM-12+000399999V0209999C000012200019N0020001N1+02361+02261101451ADDGF102991021041008001001001KA1240M+02821MA1999999101401MD1999999-0141REMSYN088AAXX  01004 83498 32595 20000 10236 20226 30140 40145 82400 333 10282 29088 55042 59014;
0201834980999992007050112004-17733-039250FM-12+000399999V0201401N004110450019N0020001N1+02661+02351101571ADDAA124008991AY161061AY221061GF106991041051008001031001KA1240N+02251MA1999999101521MD1999999-0031MW1211REMSYN088AAXX  01124 83498 21595 61408 10266 20235 30152 40157 72162 84530 333 20225 59003 60094;
0137834980999992007050118004-17733-039250FM-12+000399999V0201401N004112200019N0020001N1+02761+02321101351ADDGF104991031011008001031001MA1999999101301MD1999999+0071REMSYN070AAXX  01184 83498 32595 41408 10276 20232 30130 40135 83130 333 58007;
0168834980999992007050200004-17733-039250FM-12+000399999V0201401N004612200019N0020001N1+02541+02171101491ADDGF102991021011008001001001KA1240M+02791MA1999999101441MD1999999+0041REMSYN088AAXX  02004 83498 32595 21409 10254 20217 30144 40149 82100 333 10279 29080 55066 58004;
0156834980999992007050212004-17733-039250FM-12+000399999V0201801N003112200019N0020001N1+02551+02231101611ADDGF104991041021008001001001KA1240N+02111MA1999999101561MD1999999+0041REMSYN076AAXX  02124 83498 32595 41806 10255 20223 30156 40161 84200 333 20211 58004;
0137834980999992007050218004-17733-039250FM-12+000399999V0201401N002612200019N0020001N1+02691+02131101291ADDGF101991011011008001001001MA1999999101241MD1999999-0061REMSYN070AAXX  02184 83498 32595 11405 10269 20213 30124 40129 81100 333 59006;
0178834980999992007050300004-17733-039250FM-12+000399999V0209999C000012200019N0020001N1+02241+02091101501ADDGA1001+999999999GF100991001001999999001001KA1240M+02771MA1999999101451MD1999999+0011REMSYN082AAXX  03004 83498 32995 00000 10224 20209 30145 40150 333 10277 29084 55087 58001;
0156834980999992007050312004-17733-039250FM-12+000399999V0202701N002112200019N0020001N1+02561+02251101711ADDGF102991021011008001001001KA1240N+01931MA1999999101661MD1999999+0101REMSYN076AAXX  03124 83498 32595 22704 10256 20225 30166 40171 82100 333 20193 58010;
0137834980999992007050318004-17733-039250FM-12+000399999V0200901N001512200019N0020001N1+02761+02251101321ADDGF102991021011008001001001MA1999999101271MD1999999+0031REMSYN070AAXX  03184 83498 32595 20903 10276 20225 30127 40132 82100 333 58003;
0168834980999992007050400004-17733-039250FM-12+000399999V0200901N000512200019N0020001N1+02401+02111101581ADDGF102991011011008001001011KA1240M+02891MA1999999101531MD1999999+0081REMSYN088AAXX  04004 83498 32595 20901 10240 20211 30153 40158 81101 333 10289 29081 55088 58008;
0156834980999992007050412004-17733-039250FM-12+000399999V0201801N002110450019N0020001N1+02591+02251101701ADDGF106991041051008001041001KA1240N+01921MA1999999101651MD1999999-0101REMSYN076AAXX  04124 83498 32595 61804 10259 20225 30165 40170 84540 333 20192 59010;
0137834980999992007050418004-17733-039250FM-12+000399999V0201801N002610450019N0020001N1+02551+02171101501ADDGF108991031071008001021999MA1999999101451MD1999999+0181REMSYN070AAXX  04184 83498 32595 81805 10255 20217 30145 40150 8372/ 333 58018;
0213834980999992007050500004-17733-039250FM-12+000399999V0201801N004110450019N0020001N1+02501+02071101701ADDAA106009991AY161061AY261061GF108991021071008001021999KA1240M+02811MA1999999101651MD1999999+0121MW1211REMSYN100AAXX  05004 83498 21595 81808 10250 20207 30165 40170 72166 8272/ 333 10281 29079 55062 58012 60101;
0173834980999992007050512004-17733-039250FM-12+000399999V0201401N004610450019N0020001N1+02741+02301101761ADDAA124009991GF106991041051008001031001KA1240N+02301MA1999999101711MD1999999+0061REMSYN082AAXX  05124 83498 22595 61409 10274 20230 30171 40176 84530 333 20230 58006 60104;
0176834980999992007050518004-17733-039250FM-12+000399999V0201801N003619999999N0020001N1+02541+02271101451ADDAA106007191AY161061AY221061GF108991999999008001999999MA1999999101401MD1999999-0051MW1611REMSYN076AAXX  05184 83498 21595 81807 10254 20227 30140 40145 76162 333 59005 60071;
0213834980999992007050600004-17733-039250FM-12+000399999V0200901N003110450019N0020001N1+02481+02191101661ADDAA106000591AY161061AY261061GF108991031071008001021999KA1240M+02851MA1999999101611MD1999999-0041MW1611REMSYN100AAXX  06004 83498 21595 80906 10248 20219 30161 40166 76166 8372/ 333 10285 29082 55011 59004 69941;
0201834980999992007050612004-17733-039250FM-12+000399999V0200901N002612200019N0020001N1+02771+02141101621ADDAA124008991AY121061AY211061GF104991021021008001031001KA1240N+02351MA1999999101571MD1999999-0141MW1031REMSYN088AAXX  06124 83498 21595 40905 10277 20214 30157 40162 70321 82230 333 20235 59014 60094;
0137834980999992007050618004-17733-039250FM-12+000399999V0200901N002612200019N0020001N1+02721+02101101361ADDGF104991011011008001031001MA1999999101311MD1999999-0091REMSYN070AAXX  06184 83498 32595 40905 10272 20210 30131 40136 81130 333 59009;
0178834980999992007050700004-17733-039250FM-12+000399999V0209999C000012200019N0020001N1+02281+02051101511ADDGA1001+999999999GF100991001001999999001001KA1240M+02931MA1999999101461MD1999999-0151REMSYN082AAXX  07004 83498 32995 00000 10228 20205 30146 40151 333 10293 29078 55044 59015;
0156834980999992007050712004-17733-039250FM-12+000399999V0202301N000512200019N0020001N1+02541+02231101481ADDGF101991011011008001001001KA1240N+01981MA1999999101431MD1999999-0141REMSYN076AAXX  07124 83498 32595 12301 10254 20223 30143 40148 81100 333 20198 59014;
0137834980999992007050718004-17733-039250FM-12+000399999V0200901N003112200019N0020001N1+02841+02351101181ADDGF102991021011008001001001MA1999999101131MD1999999-0181REMSYN070AAXX  07184 83498 32595 20906 10284 20235 30113 40118 82100 333 59018;
0178834980999992007050800004-17733-039250FM-12+000399999V0209999C000012200019N0020001N1+02481+02191101381ADDGA1001+999999999GF100991001001999999001001KA1240M+02911MA1999999101331MD1999999-0131REMSYN082AAXX  08004 83498 32995 00000 10248 20219 30133 40138 333 10291 29082 55095 59013;
0156834980999992007050812004-17733-039250FM-12+000399999V0200901N001012200019N0020001N1+02721+02391101421ADDGF104991041021008001001001KA1240N+02091MA1999999101371MD1999999-0061REMSYN076AAXX  08124 83498 32595 40902 10272 20239 30137 40142 84200 333 20209 59006;
0137834980999992007050818004-17733-039250FM-12+000399999V0203601N003612200019N0020001N1+02911+02341101161ADDGF103991011011008001031001MA1999999101111MD1999999-0021REMSYN070AAXX  08184 83498 32595 33607 10291 20234 30111 40116 81130 333 59002;
0178834980999992007050900004-17733-039250FM-12+000399999V0209999C000010012019N0020001N1+02501+02361101381ADDGA1091+999999999GF109991091999999999999999KA1240M+03061MA1999999101331MD1999999+0001REMSYN082AAXX  09004 83498 32/95 90000 10250 20236 30133 40138 333 10306 29085 55053 58000;
0156834980999992007050912004-17733-039250FM-12+000399999V0203201N000510450019N0020001N1+02721+02431101441ADDGF108991041051008001011999KA1240N+02251MA1999999101391MD1999999+0021REMSYN076AAXX  09124 83498 32595 83201 10272 20243 30139 40144 8451/ 333 20225 58002;
0137834980999992007050918004-17733-039250FM-12+000399999V0200501N003110450019N0020001N1+02921+02361101091ADDGF106991031011008001031001MA1999999101041MD1999999-0071REMSYN070AAXX  09184 83498 32595 60506 10292 20236 30104 40109 83130 333 59007;
0168834980999992007051000004-17733-039250FM-12+000399999V0201801N005110450019N0020001N1+02521+02231101471ADDGF108991041061008001021999KA1240M+03051MA1999999101421MD1999999+0091REMSYN088AAXX  10004 83498 32595 81810 10252 20223 30142 40147 8462/ 333 10305 29081 55062 58009;
0201834980999992007051012004-17733-039250FM-12+000399999V0201801N004610075019N0020001N1+02301+02071101871ADDAA124039191AY161061AY261061GF108991081071008001999999KA1240N+02081MA1999999101821MD1999999+0431MW1621REMSYN088AAXX  10124 83498 21595 81809 10230 20207 30182 40187 76266 887// 333 20208 58043 60394;
0182834980999992007051018004-17733-039250FM-12+000399999V0201801N009310075019N0020001N1+02441+02011101831ADDAA106002091AY161061AY261061GF108991081071008001999999MA1999999101781MD1999999+0741MW1211REMSYN082AAXX  10184 83498 21595 81818 10244 20201 30178 40183 72166 887// 333 58074 60021;
0213834980999992007051100004-17733-039250FM-12+000399999V0201801N005110075019N0020001N1+02301+02161102181ADDAA106000021AY161061AY261061GF108991081071008001999999KA1240M+02561MA1999999102131MD1999999+0711MW1611REMSYN100AAXX  11004 83498 21595 81810 10230 20216 30213 40218 76166 887// 333 10256 29087 55000 58071 69921;
0201834980999992007051112004-17733-039250FM-12+000399999V0201401N002610450019N0020001N1+02421+01771102351ADDAA124003091AY121061AY211061GF106991031051008001041001KA1240N+01971MA1999999102301MD1999999+0481MW1031REMSYN088AAXX  11124 83498 21595 61405 10242 20177 30230 40235 70321 83540 333 20197 58048 60034;
0201834980999992007051118004-17733-039250FM-12+000399999V0200901N003110450019N0020001N1+02461+01971102041ADDAA106000091AY121061AY211061GF106991041051008001041001MA1999999101991MD1999999-0211MW1031REMSYN082AAXX  11184 83498 21595 60906 10246 20197 30199 40204 70321 84540 333 59021 69911;EQDQ01  00002PRCP06
0178834980999992007051200004-17733-039250FM-12+000399999V0200901N001512200019N0020001N1+02381+01731102201ADDGA1001+999999999GF100991001001999999001001KA1240M+02611MA1999999102151MD1999999+0021REMSYN082AAXX  12004 83498 32995 00903 10238 20173 30215 40220 333 10261 29069 55017 58002;
0201834980999992007051212004-17733-039250FM-12+000399999V0201801N002110450019N0020001N1+02311+02051102281ADDAA124004191AY161061AY261061GF107991031071008001011001KA1240N+01721MA1999999102231MD1999999-0071MW1211REMSYN088AAXX  12124 83498 21595 71804 10231 20205 30223 40228 72166 83710 333 20172 59007 60044;
0182834980999992007051218004-17733-039250FM-12+000399999V0201801N001510450019N0020001N1+02241+02011101911ADDAA106000591AY121061AY211061GF107991041051008001011001MA1999999101861MD1999999-0131MW1031REMSYN082AAXX  12184 83498 21595 71803 10224 20201 30186 40191 70321 84510 333 59013 69951;
0213834980999992007051300004-17733-039250FM-12+000399999V0209999C000010450019N0020001N1+02121+02041102091ADDAA106000591AY161061AY261061GF108991031071008001021999KA1240M+02531MA1999999102041MD1999999-0111MW1211REMSYN100AAXX  13004 83498 21595 80000 10212 20204 30204 40209 72166 8372/ 333 10253 29091 55009 59011 69951;
0201834980999992007051312004-17733-039250FM-12+000399999V0201801N000512200019N0020001N1+02341+02071102071ADDAA124002091AY161061AY261061GF102991021011008001001001KA1240N+01921MA1999999102021MD1999999+0211MW1211REMSYN088AAXX  13124 83498 21595 21801 10234 20207 30202 40207 72166 82100 333 20192 58021 60024;
0137834980999992007051318004-17733-039250FM-12+000399999V0201401N002110450019N0020001N1+02461+02171101661ADDGF105991021011008001031001MA1999999101611MD1999999-0251REMSYN070AAXX  13184 83498 32595 51404 10246 20217 30161 40166 82130 333 59025;
0178834980999992007051400004-17733-039250FM-12+000399999V0209999C000012200019N0020001N1+02341+02071101891ADDGA1001+999999999GF100991001001999999001001KA1240M+02771MA1999999101841MD1999999-0201REMSYN082AAXX  14004 83498 32595 00000 10234 20207 30184 40189 333 10277 29084 55081 59020;
0156834980999992007051412004-17733-039250FM-12+000399999V0209999C000012200019N0020001N1+02471+02111101821ADDGF101991011011008001001001KA1240N+01701MA1999999101771MD1999999-0251REMSYN076AAXX  14124 83498 32595 10000 10247 20211 30177 40182 81100 333 20170 59025;
0137834980999992007051418004-17733-039250FM-12+000399999V0200901N003612200019N0020001N1+02591+02081101461ADDGF104991021021008001001011MA1999999101411MD1999999-0201REMSYN070AAXX  14184 83498 32595 40907 10259 20208 30141 40146 82201 333 59020;
0178834980999992007051500004-17733-039250FM-12+000399999V0209999C000012200019N0020001N1+02121+02041101621ADDGA1001+999999999GF100991001001999999001001KA1240M+02671MA1999999101571MD1999999-0271REMSYN082AAXX  15004 83498 32995 00000 10212 20204 30157 40162 333 10267 29086 55069 59027;
0156834980999992007051512004-17733-039250FM-12+000399999V0203201N001512200019N0020001N1+02521+02251101751ADDGF104991021011008001001011KA1240N+01821MA1999999101701MD1999999-0071REMSYN076AAXX  15124 83498 32595 43203 10252 20225 30170 40175 82101 333 20182 59007;
0137834980999992007051518004-17733-039250FM-12+000399999V0201401N001012200019N0020001N1+02701+02281101471ADDGF102991011011008001001011MA1999999101421MD1999999+0011REMSYN070AAXX  15184 83498 32595 21402 10270 20228 30142 40147 81101 333 58001;
0178834980999992007051600004-17733-039250FM-12+000399999V0209999C000012200019N0020001N1+02241+01981101651ADDGA1001+999999999GF100991001001999999001001KA1240M+02911MA1999999101601MD1999999+0031REMSYN082AAXX  16004 83498 32995 00000 10224 20198 30160 40165 333 10291 29083 55090 58003;
0201834980999992007051612004-17733-039250FM-12+000399999V0201401N002112200019N0020001N1+02671+02221101821ADDAA124002091AY121061AY211061GF102991021011008001001001KA1240N+02131MA1999999101771MD1999999+0071MW1011REMSYN088AAXX  16124 83498 21595 21404 10267 20222 30177 40182 70121 82100 333 20213 58007 60024;
0137834980999992007051618004-17733-039250FM-12+000399999V0200901N002612200019N0020001N1+02691+02111101501ADDGF102991021011008001001001MA1999999101451MD1999999+0031REMSYN070AAXX  16184 83498 32595 20905 10269 20211 30145 40150 82100 333 58003;
0201834980999992007051712004-17733-039250FM-12+000399999V0202301N000510450019N0020001N1+02421+02191101761ADDAA124002091AY161061AY221061GF106991031051008001031001KA1240N+02031MA1999999101711MD1999999-0061MW1211REMSYN088AAXX  17124 83498 21595 62301 10242 20219 30171 40176 72162 83530 333 20203 59006 60024;
0182834980999992007051718004-17733-039250FM-12+000399999V0200501N002110450019N0020001N1+02661+02331101511ADDAA106002091AY161061AY261061GF106991031011008001031001MA1999999101461MD1999999+0011MW1211REMSYN082AAXX  17184 83498 21595 60504 10266 20233 30146 40151 72166 83130 333 58001 60021;
0178834980999992007051800004-17733-039250FM-12+000399999V0209999C000012200019N0020001N1+02261+02031101691ADDGA1001+999999999GF100991001001999999001001KA1240M+02711MA1999999101641MD1999999-0011REMSYN082AAXX  18004 83498 32995 00000 10226 20203 30164 40169 333 10271 29086 55007 59001;
0173834980999992007051812004-17733-039250FM-12+000399999V0200501N001512200019N0020001N1+02731+02171101711ADDAA124002091GF103991031011008001001001KA1240N+02001MA1999999101661MD1999999-0051REMSYN082AAXX  18124 83498 22595 30503 10273 20217 30166 40171 83100 333 20200 59005 60024;
0137834980999992007051818004-17733-039250FM-12+000399999V0200901N002612200019N0020001N1+02851+02141101401ADDGF101991011011008001001001MA1999999101351MD1999999-0111REMSYN070AAXX  18184 83498 32595 10905 10285 20214 30135 40140 81100 333 59011;
0178834980999992007051900004-17733-039250FM-12+000399999V0209999C000012200019N0020001N1+02261+02141101601ADDGA1001+999999999GF100991001001999999001001KA1240M+02971MA1999999101551MD1999999-0091REMSYN082AAXX  19004 83498 32995 00000 10226 20214 30155 40160 333 10297 29081 55082 59009;
0156834980999992007051912004-17733-039250FM-12+000399999V0202701N001510450019N0020001N1+02561+02291101611ADDGF106991031011008001051001KA1240N+01951MA1999999101561MD1999999-0101REMSYN076AAXX  19124 83498 32595 62703 10256 20229 30156 40161 83150 333 20195 59010;
0137834980999992007051918004-17733-039250FM-12+000399999V0200501N001512200019N0020001N1+02901+02201101361ADDGF103991021011008001001011MA1999999101311MD1999999-0041REMSYN070AAXX  19184 83498 32595 30503 10290 20220 30131 40136 82101 333 59004;
0168834980999992007052000004-17733-039250FM-12+000399999V0209999C000012200019N0020001N1+02361+02091101561ADDGF104991041051008001001001KA1240M+02931MA1999999101511MD1999999-0041REMSYN088AAXX  20004 83498 32595 40000 10236 20209 30151 40156 84500 333 10293 29080 55070 59004;
0156834980999992007052012004-17733-039250FM-12+000399999V0202301N001010450019N0020001N1+02471+02301101761ADDGF106991041051008001041001KA1240N+02121MA1999999101711MD1999999+0151REMSYN076AAXX  20124 83498 32595 62302 10247 20230 30171 40176 84540 333 20212 58015;
0137834980999992007052018004-17733-039250FM-12+000399999V0201401N001512200019N0020001N1+02711+02171101481ADDGF102991021011008001001001MA1999999101431MD1999999+0121REMSYN070AAXX  20184 83498 32595 21403 10271 20217 30143 40148 82100 333 58012;
0178834980999992007052100004-17733-039250FM-12+000399999V0209999C000012200019N0020001N1+02461+02211101661ADDGA1001+999999999GF100991001001999999001001KA1240M+02811MA1999999101611MD1999999+0101REMSYN082AAXX  21004 83498 32995 00000 10246 20221 30161 40166 333 10281 29084 55056 58010;
0156834980999992007052112004-17733-039250FM-12+000399999V0202301N001510450019N0020001N1+02241+02071101661ADDGF108991041051008001011999KA1240N+01931MA1999999101611MD1999999-0101REMSYN076AAXX  21124 83498 32595 82303 10224 20207 30161 40166 8451/ 333 20193 59010;
0137834980999992007052118004-17733-039250FM-12+000399999V0200901N002112200019N0020001N1+02741+02261101431ADDGF103991021011008001001011MA1999999101381MD1999999-0051REMSYN070AAXX  21184 83498 32595 30904 10274 20226 30138 40143 82101 333 59005;
0178834980999992007052200004-17733-039250FM-12+000399999V0209999C000012200019N0020001N1+02241+01991101531ADDGA1001+999999999GF100991001001999999001001KA1240M+02751MA1999999101481MD1999999-0131REMSYN082AAXX  22004 83498 32995 00000 10224 20199 30148 40153 333 10275 29084 55045 59013;
0201834980999992007052212004-17733-039250FM-12+000399999V0202701N001012200019N0020001N1+02591+02291101591ADDAA124001091AY121061AY211061GF102991021011008001001001KA1240N+02171MA1999999101541MD1999999-0071MW1031REMSYN088AAXX  22124 83498 21595 22702 10259 20229 30154 40159 70321 82100 333 20217 59007 60014;
0137834980999992007052218004-17733-039250FM-12+000399999V0200501N003112200019N0020001N1+02811+02001101201ADDGF102991011011008001041001MA1999999101151MD1999999-0231REMSYN070AAXX  22184 83498 32595 20506 10281 20200 30115 40120 81140 333 59023;
0178834980999992007052300004-17733-039250FM-12+000399999V0200901N000512200019N0020001N1+02301+02131101411ADDGA1001+999999999GF100991001001999999001001KA1240M+02901MA1999999101361MD1999999-0121REMSYN082AAXX  23004 83498 32995 00901 10230 20213 30136 40141 333 10290 29082 55080 59012;
0156834980999992007052312004-17733-039250FM-12+000399999V0203601N002610450019N0020001N1+02561+02191101331ADDGF106991031011008001031001KA1240N+01821MA1999999101281MD1999999-0261REMSYN076AAXX  23124 83498 32595 63605 10256 20219 30128 40133 83130 333 20182 59026;
0137834980999992007052318004-17733-039250FM-12+000399999V0203601N004112200019N0020001N1+02841+02191101031ADDGF102991021011008001001001MA1999999100981MD1999999-0171REMSYN070AAXX  23184 83498 32595 23608 10284 20219 30098 40103 82100 333 59017;
0168834980999992007052400004-17733-039250FM-12+000399999V0203601N001512200019N0020001N1+02361+02051101081ADDGF101991011011008001001001KA1240M+02931MA1999999101031MD1999999-0331REMSYN088AAXX  24004 83498 32595 13603 10236 20205 30103 40108 81100 333 10293 29078 55060 59033;
0156834980999992007052412004-17733-039250FM-12+000399999V0203601N006211050019N0020001N1+02661+02161101221ADDGF106991011011008001001021KA1240N+02221MA1999999101171MD1999999-0091REMSYN076AAXX  24124 83498 32595 63612 10266 20216 30117 40122 81102 333 20222 59009;
0137834980999992007052418004-17733-039250FM-12+000399999V0200901N001511050019N0020001N1+02871+02421100981ADDGF106991021021008001001021MA1999999100931MD1999999-0051REMSYN070AAXX  24184 83498 32595 60903 10287 20242 30093 40098 82202 333 59005;
0168834980999992007052500004-17733-039250FM-12+000399999V0201801N005110075019N0020001N1+02491+02191101381ADDGF108991051051008001021999KA1240M+03001MA1999999101331MD1999999+0301REMSYN088AAXX  25004 83498 32595 81810 10249 20219 30133 40138 8552/ 333 10300 29080 55035 58030;
0201834980999992007052512004-17733-039250FM-12+000399999V0201801N004110450019N0020001N1+02461+02251101751ADDAA124004191AY161061AY221061GF108991041071008001021999KA1240N+02071MA1999999101701MD1999999+0531MW1621REMSYN088AAXX  25124 83498 21595 81808 10246 20225 30170 40175 76262 8472/ 333 20207 58053 60044;
0182834980999992007052518004-17733-039250FM-12+000399999V0201801N005110075019N0020001N1+02361+02111101681ADDAA106005191AY161061AY261061GF108991051071008001021999MA1999999101631MD1999999+0701MW1621REMSYN082AAXX  25184 83498 21595 81810 10236 20211 30163 40168 76266 8572/ 333 58070 60051;
0213834980999992007052600004-17733-039250FM-12+000399999V0201801N005110450019N0020001N1+02241+01941101781ADDAA106005191AY161061AY261061GF108991031071008001021999KA1240M+02531MA1999999101731MD1999999+0401MW1621REMSYN100AAXX  26004 83498 21595 81810 10224 20194 30173 40178 76266 8372/ 333 10253 29085 55000 58040 60051;
0201834980999992007052612004-17733-039250FM-12+000399999V0201801N003110450019N0020001N1+02101+01861101881ADDAA124013091AY161061AY261061GF108991031071008001021999KA1240N+01921MA1999999101831MD1999999+0131MW1211REMSYN088AAXX  26124 83498 21595 81806 10210 20186 30183 40188 72166 8372/ 333 20192 58013 60134;
0137834980999992007052618004-17733-039250FM-12+000399999V0201801N002610075019N0020001N1+02381+01971101601ADDGF108991051051008001021999MA1999999101551MD1999999-0081REMSYN070AAXX  26184 83498 32595 81805 10238 20197 30155 40160 8552/ 333 59008;
0168834980999992007052700004-17733-039250FM-12+000399999V0209999C000012200019N0020001N1+02061+01941101741ADDGF103991031001008001031001KA1240M+02581MA1999999101691MD1999999-0041REMSYN088AAXX  27004 83498 32595 30000 10206 20194 30169 40174 83030 333 10258 29089 55003 59004;
0156834980999992007052712004-17733-039250FM-12+000399999V0202701N000512200019N0020001N1+02341+02031101771ADDGF102991021011008001001001KA1240N+01931MA1999999101721MD1999999-0111REMSYN076AAXX  27124 83498 32595 22701 10234 20203 30172 40177 82100 333 20193 59011;
0137834980999992007052718004-17733-039250FM-12+000399999V0200501N002110450019N0020001N1+02701+02171101431ADDGF106991031021008001031001MA1999999101381MD1999999-0171REMSYN070AAXX  27184 83498 32595 60504 10270 20217 30138 40143 83230 333 59017;
0178834980999992007052800004-17733-039250FM-12+000399999V0209999C000012200019N0020001N1+02201+01901101581ADDGA1001+999999999GF100991001001999999001001KA1240M+02691MA1999999101531MD1999999-0161REMSYN082AAXX  28004 83498 32995 00000 10220 20190 30153 40158 333 10269 29080 55031 59016;
0175834980999992007052812004-17733-039250FM-12+000399999V0203201N004112200019N0020001N1+02591+02121101601ADDGF103991001001999999001011KA1240N+01801MA1999999101551MD1999999-0171REMSYN076AAXX  28124 83498 32595 33208 10259 20212 30155 40160 80001 333 20180 59017;EQDQ01+008002SCOLCB
0137834980999992007052818004-17733-039250FM-12+000399999V0200501N003112200019N0020001N1+02811+02271101201ADDGF102991011011008001001011MA1999999101151MD1999999-0231REMSYN070AAXX  28184 83498 32595 20506 10281 20227 30115 40120 81101 333 59023;
0178834980999992007052900004-17733-039250FM-12+000399999V0209999C000012200019N0020001N1+02321+02201101391ADDGA1001+999999999GF100991001001999999001001KA1240M+03041MA1999999101341MD1999999-0191REMSYN082AAXX  29004 83498 32995 00000 10232 20220 30134 40139 333 10304 29084 55065 59019;
0156834980999992007052912004-17733-039250FM-12+000399999V0203201N001510450019N0020001N1+02541+02271101611ADDGF106991031011008001051001KA1240N+02061MA1999999101561MD1999999+0011REMSYN076AAXX  29124 83498 32595 63203 10254 20227 30156 40161 83150 333 20206 58001;
0137834980999992007052918004-17733-039250FM-12+000399999V0200501N002110450019N0020001N1+02821+02401101111ADDGF107991031021008001041001MA1999999101061MD1999999-0091REMSYN070AAXX  29184 83498 32595 70504 10282 20240 30106 40111 83240 333 59009;
0168834980999992007053000004-17733-039250FM-12+000399999V0203601N000510450019N0020001N1+02481+02231101341ADDGF106991031011008001051001KA1240M+02911MA1999999101291MD1999999-0051REMSYN088AAXX  30004 83498 32595 63601 10248 20223 30129 40134 83150 333 10291 29084 55027 59005;
0156834980999992007053012004-17733-039250FM-12+000399999V0201801N004110075019N0020001N1+02461+02171101731ADDGF108991051051008001021999KA1240N+02331MA1999999101681MD1999999+0121REMSYN076AAXX  30124 83498 32595 81808 10246 20217 30168 40173 8552/ 333 20233 58012;
0137834980999992007053018004-17733-039250FM-12+000399999V0201801N005710075019N0020001N1+02421+01951101641ADDGF108991051051008001021999MA1999999101591MD1999999+0531REMSYN070AAXX  30184 83498 32595 81811 10242 20195 30159 40164 8552/ 333 58053;
0168834980999992007053100004-17733-039250FM-12+000399999V0201801N005710075019N0020001N1+02361+01891101971ADDGF108991051051008001021999KA1240M+02521MA1999999101921MD1999999+0631REMSYN088AAXX  31004 83498 32595 81811 10236 20189 30192 40197 8552/ 333 10252 29075 55000 58063;
0201834980999992007053112004-17733-039250FM-12+000399999V0201801N003110450019N0020001N1+02101+01981102171ADDAA124001091AY161061AY261061GF108991031071008001021999KA1240N+02021MA1999999102121MD1999999+0441MW1211REMSYN088AAXX  31124 83498 21595 81806 10210 20198 30212 40217 72166 8372/ 333 20202 58044 69994;
0182834980999992007053118004-17733-039250FM-12+000399999V0201801N002110450019N0020001N1+02181+01951101911ADDAA106000891AY161061AY261061GF108991031071008001021999MA1999999101861MD1999999+0271MW1211REMSYN082AAXX  31184 83498 21595 81804 10218 20195 30186 40191 72166 8372/ 333 58027 69981;
0213834980999992007060100004-17733-039250FM-12+000399999V0209999C000010075019N0020001N1+02121+01911102111ADDAA106000021AY161061AY261061GF108991051051008001021999KA1240M+02391MA1999999102061MD1999999+0141MW1211REMSYN100AAXX  01004 83498 21595 80000 10212 20191 30206 40211 72166 8552/ 333 10239 29089 55000 58014 69921;
0201834980999992007060112004-17733-039250FM-12+000399999V0201801N001010450019N0020001N1+02101+02021102191ADDAA124015091AY161061AY261061GF107991041051008001041001KA1240N+01851MA1999999102141MD1999999+0021MW1211REMSYN088AAXX  01124 83498 21595 71802 10210 20202 30214 40219 72166 84540 333 20185 58002 60154;
0137834980999992007060118004-17733-039250FM-12+000399999V0200901N001010450019N0020001N1+02441+01881101841ADDGF106991041051008001041001MA1999999101791MD1999999+0071REMSYN070AAXX  01184 83498 32595 60902 10244 20188 30179 40184 84540 333 58007;
0178834980999992007060200004-17733-039250FM-12+000399999V0209999C000012200019N0020001N1+01921+01731101931ADDGA1001+999999999GF100991001001999999001001KA1240M+02501MA1999999101881MD1999999-0181REMSYN082AAXX  02004 83498 32995 00000 10192 20173 30188 40193 333 10250 29086 55001 59018;
0156834980999992007060212004-17733-039250FM-12+000399999V0202701N001512200019N0020001N1+02241+01941101851ADDGF102991021011008001001001KA1240N+01541MA1999999101801MD1999999-0341REMSYN076AAXX  02124 83498 32595 22703 10224 20194 30180 40185 82100 333 20154 59034;
0137834980999992007060218004-17733-039250FM-12+000399999V0203601N003112200019N0020001N1+02701+01941101331ADDGF102991011011008001001011MA1999999101281MD1999999-0511REMSYN070AAXX  02184 83498 32595 23606 10270 20194 30128 40133 81101 333 59051;
0175834980999992007060312004-17733-039250FM-12+000399999V0203601N001512200019N0020001N1+02381+01891101511ADDGF103991001001999999001011KA1240N+01801MA1999999101461MD1999999-0341REMSYN076AAXX  03124 83498 32595 33603 10238 20189 30146 40151 80001 333 20180 59034;EQDQ01+008002SCOLCB
0156834980999992007060318004-17733-039250FM-12+000399999V0200501N003612200019N0020001N1+02821+02201101071ADDGF103991001001999999001011MA1999999101021MD1999999-0261REMSYN070AAXX  03184 83498 32595 30507 10282 20220 30102 40107 80001 333 59026;EQDQ01+008002SCOLCB
0156834980999992007060412004-17733-039250FM-12+000399999V0201801N004110450019N0020001N1+02361+02191101701ADDGF108991041051008001011999KA1240N+02111MA1999999101651MD1999999+0191REMSYN076AAXX  04124 83498 32595 81808 10236 20219 30165 40170 8451/ 333 20211 58019;
0137834980999992007060418004-17733-039250FM-12+000399999V0201801N001010450019N0020001N1+02401+01821101671ADDGF108991031051008001011999MA1999999101621MD1999999+0601REMSYN070AAXX  04184 83498 32595 81802 10240 20182 30162 40167 8351/ 333 58060;
0168834980999992007060500004-17733-039250FM-12+000399999V0201801N003610450019N0020001N1+02341+01851101831ADDGF108991031051008001011999KA1240M+02431MA1999999101781MD1999999+0551REMSYN088AAXX  05004 83498 32595 81807 10234 20185 30178 40183 8351/ 333 10243 29077 55000 58055;
0156834980999992007060512004-17733-039250FM-12+000399999V0209999C000010075019N0020001N1+02181+01881102051ADDGF108991051051008001021999KA1240N+02101MA1999999102001MD1999999+0351REMSYN076AAXX  05124 83498 32595 80000 10218 20188 30200 40205 8552/ 333 20210 58035;
0137834980999992007060518004-17733-039250FM-12+000399999V0201401N002112200019N0020001N1+02521+01801101761ADDGF104991021051008001041001MA1999999101711MD1999999+0091REMSYN070AAXX  05184 83498 32595 41404 10252 20180 30171 40176 82540 333 58009;
0168834980999992007060600004-17733-039250FM-12+000399999V0209999C000010075019N0020001N1+02261+01981101831ADDGF108991051051008001021999KA1240M+02591MA1999999101781MD1999999+0001REMSYN088AAXX  06004 83498 32595 80000 10226 20198 30178 40183 8552/ 333 10259 29079 55006 58000;
0156834980999992007060612004-17733-039250FM-12+000399999V0200901N001510450019N0020001N1+02401+01991102011ADDGF106991041051008001051001KA1240N+01951MA1999999101961MD1999999-0041REMSYN076AAXX  06124 83498 32595 60903 10240 20199 30196 40201 84550 333 20195 59004;
0137834980999992007060618004-17733-039250FM-12+000399999V0200501N002112200019N0020001N1+02621+01981101661ADDGF102991021011008001001001MA1999999101611MD1999999-0101REMSYN070AAXX  06184 83498 32595 20504 10262 20198 30161 40166 82100 333 59010;
0178834980999992007060700004-17733-039250FM-12+000399999V0209999C000012200019N0020001N1+02161+01901101781ADDGA1001+999999999GF100991001001999999001001KA1240M+02751MA1999999101731MD1999999-0051REMSYN082AAXX  07004 83498 32995 00000 10216 20190 30173 40178 333 10275 29079 55005 59005;
0156834980999992007060712004-17733-039250FM-12+000399999V0209999C000010450019N0020001N1+02311+02141101861ADDGF106991041051008001041001KA1240N+01821MA1999999101811MD1999999-0151REMSYN076AAXX  07124 83498 32595 60000 10231 20214 30181 40186 84540 333 20182 59015;
0137834980999992007060718004-17733-039250FM-12+000399999V0200901N003112200019N0020001N1+02571+01881101591ADDGF101991011011008001001001MA1999999101541MD1999999-0071REMSYN070AAXX  07184 83498 32595 10906 10257 20188 30154 40159 81100 333 59007;
0178834980999992007060800004-17733-039250FM-12+000399999V0209999C000012200019N0020001N1+01921+01731101721ADDGA1001+999999999GF100991001001999999001001KA1240M+02651MA1999999101671MD1999999-0061REMSYN082AAXX  08004 83498 32995 00000 10192 20173 30167 40172 333 10265 29084 55026 59006;
0156834980999992007060812004-17733-039250FM-12+000399999V0202301N000512200019N0020001N1+02241+01981101921ADDGF102991021011008001001001KA1240N+01561MA1999999101871MD1999999+0061REMSYN076AAXX  08124 83498 32595 22301 10224 20198 30187 40192 82100 333 20156 58006;
0137834980999992007060818004-17733-039250FM-12+000399999V0200901N001512200019N0020001N1+02641+01981101631ADDGF102991021011008001001001MA1999999101581MD1999999+0041REMSYN070AAXX  08184 83498 32595 20903 10264 20198 30158 40163 82100 333 58004;
0178834980999992007060900004-17733-039250FM-12+000399999V0200901N001512200019N0020001N1+02241+01901101781ADDGA1001+999999999GF100991001001999999001001KA1240M+02691MA1999999101741MD1999999+0071REMSYN082AAXX  09004 83498 32995 00903 10224 20190 30174 40178 333 10269 29078 55075 58007;
0156834980999992007060912004-17733-039250FM-12+000399999V0202301N000512200019N0020001N1+02121+01951101921ADDGF102991021011008001001001KA1240N+01621MA1999999101871MD1999999+0001REMSYN076AAXX  09124 83498 32595 22301 10212 20195 30187 40192 82100 333 20162 58000;
0137834980999992007060918004-17733-039250FM-12+000399999V0201401N001012200019N0020001N1+02531+02071101661ADDGF101991011011008001001001MA1999999101611MD1999999+0031REMSYN070AAXX  09184 83498 32595 11402 10253 20207 30161 40166 81100 333 58003;
0156834980999992007061012004-17733-039250FM-12+000399999V0202301N001512200019N0020001N1+02201+01941101961ADDGF104991021011008001031001KA1240N+01661MA1999999101911MD1999999+0041REMSYN076AAXX  10124 83498 32595 42303 10220 20194 30191 40196 82130 333 20166 58004;
0137834980999992007061018004-17733-039250FM-12+000399999V0200901N001012200019N0020001N1+02601+02171101731ADDGF102991021011008001001001MA1999999101681MD1999999+0071REMSYN070AAXX  10184 83498 32595 20902 10260 20217 30168 40173 82100 333 58007;
0178834980999992007061100004-17733-039250FM-12+000399999V0209999C000012200019N0020001N1+02341+02031101891ADDGA1001+999999999GF100991001001999999001001KA1240M+02651MA1999999101841MD1999999+0031REMSYN082AAXX  11004 83498 32995 00000 10234 20203 30184 40189 333 10265 29082 55038 58003;
0156834980999992007061112004-17733-039250FM-12+000399999V0201801N001512200019N0020001N1+02281+02051102001ADDGF104991041021008001001001KA1240N+01751MA1999999101951MD1999999+0041REMSYN076AAXX  11124 83498 32595 41803 10228 20205 30195 40200 84200 333 20175 58004;
0137834980999992007061118004-17733-039250FM-12+000399999V0201401N002612200019N0020001N1+02551+02041101711ADDGF101991011011008001001001MA1999999101661MD1999999-0021REMSYN070AAXX  11184 83498 32595 11405 10255 20204 30166 40171 81100 333 59002;
0178834980999992007061200004-17733-039250FM-12+000399999V0209999C000012200019N0020001N1+02081+01841101861ADDGA1001+999999999GF100991001001999999001001KA1240M+02641MA1999999101811MD1999999-0031REMSYN082AAXX  12004 83498 32995 00000 10208 20184 30181 40186 333 10264 29083 55072 59003;
0156834980999992007061212004-17733-039250FM-12+000399999V0202301N000512200019N0020001N1+02301+02051101961ADDGF102991021011008001001001KA1240N+01681MA1999999101911MD1999999-0041REMSYN076AAXX  12124 83498 32595 22301 10230 20205 30191 40196 82100 333 20168 59004;
0137834980999992007061218004-17733-039250FM-12+000399999V0200901N001512200019N0020001N1+02601+02171101671ADDGF103991031011008001001001MA1999999101621MD1999999-0041REMSYN070AAXX  12184 83498 32595 30903 10260 20217 30162 40167 83100 333 59004;
0178834980999992007061300004-17733-039250FM-12+000399999V0209999C000012200019N0020001N1+02201+01951101871ADDGA1001+999999999GF100991001001999999001001KA1240M+02671MA1999999101821MD1999999+0011REMSYN082AAXX  13004 83498 32995 00000 10220 20195 30182 40187 333 10267 29084 55083 58001;
0156834980999992007061312004-17733-039250FM-12+000399999V0209999C000012200019N0020001N1+02261+02091101881ADDGF101991011011008001001001KA1240N+01821MA1999999101831MD1999999-0081REMSYN076AAXX  13124 83498 32595 10000 10226 20209 30183 40188 81100 333 20182 59008;
0137834980999992007061318004-17733-039250FM-12+000399999V0200501N003112200019N0020001N1+02591+02011101531ADDGF104991041021008001001001MA1999999101481MD1999999-0141REMSYN070AAXX  13184 83498 32595 40506 10259 20201 30148 40153 84200 333 59014;
0178834980999992007061400004-17733-039250FM-12+000399999V0209999C000012200019N0020001N1+01981+01791101681ADDGA1001+999999999GF100991001001999999001001KA1240M+02831MA1999999101631MD1999999-0191REMSYN082AAXX  14004 83498 32995 00000 10198 20179 30163 40168 333 10283 29080 55033 59019;
0156834980999992007061412004-17733-039250FM-12+000399999V0202301N001512200019N0020001N1+02201+01951101861ADDGF102991021011008001001001KA1240N+01641MA1999999101811MD1999999-0021REMSYN076AAXX  14124 83498 32595 22303 10220 20195 30181 40186 82100 333 20164 59002;
0137834980999992007061418004-17733-039250FM-12+000399999V0200501N002110075019N0020001N1+02701+02221101591ADDGF105991051021008001001001MA1999999101541MD1999999+0061REMSYN070AAXX  14184 83498 32595 50504 10270 20222 30154 40159 85200 333 58006;
0178834980999992007061500004-17733-039250FM-12+000399999V0200501N000512200019N0020001N1+02141+01901101751ADDGA1001+999999999GF100991001001999999001001KA1240M+02791MA1999999101701MD1999999+0071REMSYN082AAXX  15004 83498 32995 00501 10214 20190 30170 40175 333 10279 29083 55051 58007;
0156834980999992007061512004-17733-039250FM-12+000399999V0202701N000512200019N0020001N1+02361+02111101801ADDGF102991021011008001001001KA1240N+01701MA1999999101751MD1999999-0061REMSYN076AAXX  15124 83498 32595 22701 10236 20211 30175 40180 82100 333 20170 59006;
0137834980999992007061518004-17733-039250FM-12+000399999V0200501N003112200019N0020001N1+02801+02131101601ADDGF101991011011008001001001MA1999999101551MD1999999+0011REMSYN070AAXX  15184 83498 32595 10506 10280 20213 30155 40160 81100 333 58001;
0168834980999992007061600004-17733-039250FM-12+000399999V0209999C000010450019N0020001N1+02341+02051101851ADDGF108991041051008001011999KA1240M+02891MA1999999101801MD1999999+0101REMSYN088AAXX  16004 83498 32595 80000 10234 20205 30180 40185 8451/ 333 10289 29080 55072 58010;
0156834980999992007061612004-17733-039250FM-12+000399999V0202301N001010450019N0020001N1+02421+02171101891ADDGF106991021011008001031001KA1240N+02101MA1999999101841MD1999999+0091REMSYN076AAXX  16124 83498 32595 62302 10242 20217 30184 40189 82130 333 20210 58009;
0137834980999992007061618004-17733-039250FM-12+000399999V0200501N002610450019N0020001N1+02741+02341101701ADDGF105991031011008001031001MA1999999101651MD1999999+0101REMSYN070AAXX  16184 83498 32595 50505 10274 20234 30165 40170 83130 333 58010;
0178834980999992007061700004-17733-039250FM-12+000399999V0209999C000012200019N0020001N1+02201+01951101901ADDGA1001+999999999GF100991001001999999001001KA1240M+02871MA1999999101851MD1999999+0051REMSYN082AAXX  17004 83498 32995 00000 10220 20195 30185 40190 333 10287 29084 55017 58005;
0156834980999992007061712004-17733-039250FM-12+000399999V0202301N001010450019N0020001N1+02421+02231102001ADDGF106991041051008001041001KA1240N+01741MA1999999101951MD1999999+0111REMSYN076AAXX  17124 83498 32595 62302 10242 20223 30195 40200 84540 333 20174 58011;
0182834980999992007061718004-17733-039250FM-12+000399999V0200901N001510450019N0020001N1+02511+02111101831ADDAA106002091AY121061AY211061GF106991041051008001011001MA1999999101781MD1999999+0131MW1031REMSYN082AAXX  17184 83498 21595 60903 10251 20211 30178 40183 70321 84510 333 58013 60021;
0173834980999992007061812004-17733-039250FM-12+000399999V0202301N001512200019N0020001N1+02241+01991102091ADDAA124002091GF102991021011008001001001KA1240N+01821MA1999999102041MD1999999+0091REMSYN082AAXX  18124 83498 22595 22303 10224 20199 30204 40209 82100 333 20182 58009 60024;
0182834980999992007061818004-17733-039250FM-12+000399999V0201801N002610450019N0020001N1+02341+02071101871ADDAA106008991AY161061AY221061GF108991041061008001021999MA1999999101821MD1999999+0041MW1211REMSYN082AAXX  18184 83498 21595 81805 10234 20207 30182 40187 72162 8462/ 333 58004 60091;
0213834980999992007061900004-17733-039250FM-12+000399999V0209999C000012200019N0020001N1+02201+01951101971ADDAA106000591AY161061AY261061GF104991041051008001001001KA1240M+02731MA1999999101921MD1999999-0021MW1211REMSYN100AAXX  19004 83498 21595 40000 10220 20195 30192 40197 72166 84500 333 10273 29086 55028 59002 69961;
0173834980999992007061912004-17733-039250FM-12+000399999V0200501N003112200019N0020001N1+02541+01781102181ADDAA124008991GF101991011011008001001001KA1240N+01781MA1999999102131MD1999999+0091REMSYN082AAXX  19124 83498 22595 10506 10254 20178 30213 40218 81100 333 20178 58009 60094;
0137834980999992007061918004-17733-039250FM-12+000399999V0201401N002112200019N0020001N1+02611+01891102011ADDGF101991011011008001001001MA1999999101961MD1999999+0141REMSYN070AAXX  19184 83498 32595 11404 10261 20189 30196 40201 81100 333 58014;
0168834980999992007062000004-17733-039250FM-12+000399999V0200901N002610450019N0020001N1+02481+01931102201ADDGF106991041051008001011001KA1240M+02691MA1999999102151MD1999999+0231REMSYN088AAXX  20004 83498 32595 60905 10248 20193 30215 40220 84510 333 10269 29069 55075 58023;
0201834980999992007062012004-17733-039250FM-12+000399999V0201801N001510450019N0020001N1+02281+02031102331ADDAA124000591AY161061AY221061GF108991031051008001011999KA1240N+02041MA1999999102281MD1999999+0151MW1611REMSYN088AAXX  20124 83498 21595 81803 10228 20203 30228 40233 76162 8351/ 333 20204 58015 69964;
0137834980999992007062018004-17733-039250FM-12+000399999V0200901N003110075019N0020001N1+02551+02041102021ADDGF108991051051008001021999MA1999999101971MD1999999+0011REMSYN070AAXX  20184 83498 32595 80906 10255 20204 30197 40202 8552/ 333 58001;
0168834980999992007062100004-17733-039250FM-12+000399999V0200901N001010075019N0020001N1+02501+02091102291ADDGF105991051051008001001001KA1240M+02711MA1999999102241MD1999999+0091REMSYN088AAXX  21004 83498 32595 50902 10250 20209 30224 40229 85500 333 10271 29079 55000 58009;
0156834980999992007062112004-17733-039250FM-12+000399999V0200901N002610450019N0020001N1+02581+01971102361ADDGF105991021051008001021001KA1240N+02161MA1999999102311MD1999999+0031REMSYN076AAXX  21124 83498 32595 50905 10258 20197 30231 40236 82520 333 20216 58003;
0137834980999992007062118004-17733-039250FM-12+000399999V0200901N002110450019N0020001N1+02541+02021102091ADDGF105991031021008001041001MA1999999102041MD1999999+0071REMSYN070AAXX  21184 83498 32595 50904 10254 20202 30204 40209 83240 333 58007;
0168834980999992007062200004-17733-039250FM-12+000399999V0209999C000019999999N0020001N1+02261+02091102171ADDGF106991021011999999051001KA1240M+02791MA1999999102121MD1999999-0121REMSYN088AAXX  22004 83498 32995 60000 10226 20209 30212 40217 82150 333 10279 29080 55033 59012;
0201834980999992007062212004-17733-039250FM-12+000399999V0200901N003110450019N0020001N1+02541+02171102181ADDAA124000891AY161061AY221061GF106991041021008001031001KA1240N+01961MA1999999102131MD1999999-0181MW1211REMSYN088AAXX  22124 83498 21595 60906 10254 20217 30213 40218 72162 84230 333 20196 59018 69984;
0137834980999992007062218004-17733-039250FM-12+000399999V0200901N003112200019N0020001N1+02641+02161101831ADDGF104991041021008001001001MA1999999101781MD1999999-0261REMSYN070AAXX  22184 83498 32595 40906 10264 20216 30178 40183 84200 333 59026;
0178834980999992007062300004-17733-039250FM-12+000399999V0209999C000012200019N0020001N1+02141+01881101861ADDGA1001+999999999GF100991001001999999001001KA1240M+02731MA1999999101811MD1999999-0311REMSYN082AAXX  23004 83498 32995 00000 10214 20188 30181 40186 333 10273 29081 55024 59031;
0156834980999992007062312004-17733-039250FM-12+000399999V0209999C000010075019N0020001N1+02111+01981101811ADDGF107991051051008001011001KA1240N+01721MA1999999101761MD1999999-0371REMSYN076AAXX  23124 83498 32595 70000 10211 20198 30176 40181 85510 333 20172 59037;
0182834980999992007062318004-17733-039250FM-12+000399999V0200901N001512200019N0020001N1+02591+02121101591ADDAA106000891AY121061AY211061GF102991021021008001001001MA1999999101541MD1999999-0241MW1011REMSYN082AAXX  23184 83498 21595 20903 10259 20212 30154 40159 70121 82200 333 59024 69981;
0173834980999992007062412004-17733-039250FM-12+000399999V0202301N001512200019N0020001N1+02361+02111101951ADDAA124000891GF102991021011008001001001KA1240N+01801MA1999999101901MD1999999+0141REMSYN082AAXX  24124 83498 22595 22303 10236 20211 30190 40195 82100 333 20180 58014 69984;
0137834980999992007062418004-17733-039250FM-12+000399999V0200501N002612200019N0020001N1+02781+02131101711ADDGF102991011011008001001011MA1999999101661MD1999999+0121REMSYN070AAXX  24184 83498 32595 20505 10278 20213 30166 40171 81101 333 58012;
0168834980999992007062500004-17733-039250FM-12+000399999V0200901N000511050019N0020001N1+02201+01941102001ADDGF105991021011008001001021KA1240M+02801MA1999999101951MD1999999+0141REMSYN088AAXX  25004 83498 32595 50901 10220 20194 30195 40200 82102 333 10280 29081 55032 58014;
0156834980999992007062512004-17733-039250FM-12+000399999V0202301N001010450019N0020001N1+02341+02171102201ADDGF105991041021008001041001KA1240N+01821MA1999999102151MD1999999+0251REMSYN076AAXX  25124 83498 32595 52302 10234 20217 30215 40220 84240 333 20182 58025;
0137834980999992007062518004-17733-039250FM-12+000399999V0200901N002612200019N0020001N1+02571+02191102001ADDGF105991041021008001001011MA1999999101951MD1999999+0311REMSYN070AAXX  25184 83498 32595 50905 10257 20219 30195 40200 84201 333 58031;
0168834980999992007062600004-17733-039250FM-12+000399999V0200901N001512200019N0020001N1+02381+02031102241ADDGF102991021001008001031001KA1240M+02711MA1999999102191MD1999999+0241REMSYN088AAXX  26004 83498 32595 20903 10238 20203 30219 40224 82030 333 10271 29083 55030 58024;
0156834980999992007062612004-17733-039250FM-12+000399999V0200901N002112200019N0020001N1+02581+02041102311ADDGF102991021011008001001001KA1240N+02201MA1999999102261MD1999999+0111REMSYN076AAXX  26124 83498 32595 20904 10258 20204 30226 40231 82100 333 20220 58011;
0137834980999992007062618004-17733-039250FM-12+000399999V0200901N003110450019N0020001N1+02641+02031102011ADDGF105991031021008001031001MA1999999101961MD1999999-0011REMSYN070AAXX  26184 83498 32595 50906 10264 20203 30196 40201 83230 333 59001;
0213834980999992007062700004-17733-039250FM-12+000399999V0200901N000510450019N0020001N1+02281+02031102181ADDAA106001091AY161061AY221061GF108991041061008001011999KA1240M+02731MA1999999102131MD1999999-0061MW1611REMSYN100AAXX  27004 83498 21595 80901 10228 20203 30213 40218 76162 8461/ 333 10273 29078 55072 59006 60011;
0201834980999992007062712004-17733-039250FM-12+000399999V0200901N001512200019N0020001N1+02261+02091102141ADDAA124002091AY121061AY211061GF103991031021008001001001KA1240N+01871MA1999999102091MD1999999-0171MW1031REMSYN088AAXX  27124 83498 21595 30903 10226 20209 30209 40214 70321 83200 333 20187 59017 60024;
0137834980999992007062718004-17733-039250FM-12+000399999V0200901N003112200019N0020001N1+02581+01971101831ADDGF102991021011008001001001MA1999999101781MD1999999-0181REMSYN070AAXX  27184 83498 32595 20906 10258 20197 30178 40183 82100 333 59018;
0178834980999992007062800004-17733-039250FM-12+000399999V0209999C000012200019N0020001N1+02081+01871102021ADDGA1001+999999999GF100991001001999999001001KA1240M+02691MA1999999101971MD1999999-0161REMSYN082AAXX  28004 83498 32995 00000 10208 20187 30197 40202 333 10269 29084 55056 59016;
0201834980999992007062812004-17733-039250FM-12+000399999V0202301N000512200019N0020001N1+02161+01931102031ADDAA124000591AY161061AY211061GF103991031011008001001001KA1240N+01661MA1999999101981MD1999999-0111MW1211REMSYN088AAXX  28124 83498 21595 32301 10216 20193 30198 40203 72161 83100 333 20166 59011 69964;
0137834980999992007062818004-17733-039250FM-12+000399999V0200901N002112200019N0020001N1+02641+02161101791ADDGF102991021011008001001001MA1999999101741MD1999999-0041REMSYN070AAXX  28184 83498 32595 20904 10264 20216 30174 40179 82100 333 59004;
0168834980999992007062900004-17733-039250FM-12+000399999V0200501N000510450019N0020001N1+02181+01941102031ADDGF106991021011008001051001KA1240M+02691MA1999999101981MD1999999+0011REMSYN088AAXX  29004 83498 32595 60501 10218 20194 30198 40203 82150 333 10269 29084 55061 58001;
0156834980999992007062912004-17733-039250FM-12+000399999V0202301N000512200019N0020001N1+02421+02071102111ADDGF102991021011008001001001KA1240N+01921MA1999999102061MD1999999+0081REMSYN076AAXX  29124 83498 32595 22301 10242 20207 30206 40211 82100 333 20192 58008;
0137834980999992007062918004-17733-039250FM-12+000399999V0200501N003112200019N0020001N1+02651+02031101801ADDGF102991021011008001001001MA1999999101751MD1999999+0011REMSYN070AAXX  29184 83498 32595 20506 10265 20203 30175 40180 82100 333 58001;
0178834980999992007063000004-17733-039250FM-12+000399999V0209999C000012200019N0020001N1+02021+01941102031ADDGA1001+999999999GF100991001001999999001001KA1240M+02771MA1999999101981MD1999999+0001REMSYN082AAXX  30004 83498 32995 00000 10202 20194 30198 40203 333 10277 29085 55052 58000;
0156834980999992007063012004-17733-039250FM-12+000399999V0202301N001512200019N0020001N1+02181+01941102211ADDGF105991021011008001001011KA1240N+01671MA1999999102161MD1999999+0101REMSYN076AAXX  30124 83498 32595 52303 10218 20194 30216 40221 82101 333 20167 58010;
0137834980999992007063018004-17733-039250FM-12+000399999V0200901N002612200019N0020001N1+02701+02131101981ADDGF103991031011008001001001MA1999999101931MD1999999+0181REMSYN070AAXX  30184 83498 32595 30905 10270 20213 30193 40198 83100 333 58018;
0175834980999992007070112004-17733-039250FM-12+000399999V0202701N000512200019N0020001N1+02261+01991102241ADDGF102991001001999999001011KA1240N+01621MA1999999102191MD1999999+0031REMSYN076AAXX  01124 83498 32595 22701 10226 20199 30219 40224 80001 333 20162 58003;EQDQ01+008002SCOLCB
0156834980999992007070118004-17733-039250FM-12+000399999V0200901N002112200019N0020001N1+02631+01911102051ADDGF103991001001999999001011MA1999999102001MD1999999+0071REMSYN070AAXX  01184 83498 32595 30904 10263 20191 30200 40205 80001 333 58007;EQDQ01+008002SCOLCB
0187834980999992007070200004-17733-039250FM-12+000399999V0209999C000019999999N0020001N1+02141+01971102231ADDGF106991001001999999001021KA1240M+02691MA1999999102181MD1999999+0071REMSYN088AAXX  02004 83498 32595 60000 10214 20197 30218 40223 80002 333 10269 29083 55077 58007;EQDQ01+008002SCOLCB
0156834980999992007070212004-17733-039250FM-12+000399999V0202301N000510450019N0020001N1+02201+01951102261ADDGF106991021011008001031011KA1240N+01681MA1999999102211MD1999999+0021REMSYN076AAXX  02124 83498 32595 62301 10220 20195 30221 40226 82131 333 20168 58002;
0137834980999992007070218004-17733-039250FM-12+000399999V0201401N001512200019N0020001N1+02681+02111102061ADDGF103991021011008001001011MA1999999102011MD1999999+0011REMSYN070AAXX  02184 83498 32595 31403 10268 20211 30201 40206 82101 333 58001;
0168834980999992007070300004-17733-039250FM-12+000399999V0200901N001010450019N0020001N1+02401+02051102151ADDGF107991041051008001031001KA1240M+02671MA1999999102101MD1999999-0081REMSYN088AAXX  03004 83498 32595 70902 10240 20205 30210 40215 84530 333 10267 29080 55027 59008;
0201834980999992007070312004-17733-039250FM-12+000399999V0202701N000510075019N0020001N1+02061+01891102301ADDAA124000591AY121061AY211061GF108991051051008001021999KA1240N+01851MA1999999102251MD1999999+0041MW1031REMSYN088AAXX  03124 83498 21595 82701 10206 20189 30225 40230 70321 8552/ 333 20185 58004 69964;
0156834980999992007070318004-17733-039250FM-12+000399999V0200901N002119999999N0020001N1+02491+01871102051ADDGF106991999021008001001001MA1999999102001MD1999999-0011REMSYN070AAXX  03184 83498 32595 60904 10249 20187 30200 40205 84200 333 59001;EQDQ01+000042SCOTLC
0201834980999992007070412004-17733-039250FM-12+000399999V0200901N001510450019N0020001N1+02261+01961102251ADDAA124002091AY161061AY221061GF105991031051008001031011KA1240N+01851MA1999999102201MD1999999-0051MW1211REMSYN088AAXX  04124 83498 21595 50903 10226 20196 30220 40225 72162 83531 333 20185 59005 60024;
0137834980999992007070418004-17733-039250FM-12+000399999V0200901N001010450019N0020001N1+02501+02001102121ADDGF108991041051008001011999MA1999999102071MD1999999+0071REMSYN070AAXX  04184 83498 32595 80902 10250 20200 30207 40212 8451/ 333 58007;
0168834980999992007070500004-17733-039250FM-12+000399999V0200901N001010450019N0020001N1+02321+01941102291ADDGF105991031051008001011001KA1240M+02751MA1999999102241MD1999999-0161REMSYN088AAXX  05004 83498 32595 50902 10232 20194 30224 40229 83510 333 10275 29079 55000 59016;
0156834980999992007070512004-17733-039250FM-12+000399999V0200501N003110450019N0020001N1+02511+01941102381ADDGF106991031051008001041001KA1240N+02171MA1999999102331MD1999999+0131REMSYN076AAXX  05124 83498 32595 60506 10251 20194 30233 40238 83540 333 20217 58013;
0137834980999992007070518004-17733-039250FM-12+000399999V0200501N002611050019N0020001N1+02511+02001102191ADDGF106991021021008001001081MA1999999102141MD1999999+0071REMSYN070AAXX  05184 83498 32595 60505 10251 20200 30214 40219 82208 333 58007;
0168834980999992007070600004-17733-039250FM-12+000399999V0209999C000012200019N0020001N1+02001+01881102231ADDGF102991021051008001001001KA1240M+02641MA1999999102181MD1999999-0061REMSYN088AAXX  06004 83498 32595 20000 10200 20188 30218 40223 82500 333 10264 29083 55000 59006;
0201834980999992007070612004-17733-039250FM-12+000399999V0202301N000510450019N0020001N1+02201+01941102151ADDAA124002091AY161061AY221061GF106991031011008001041001KA1240N+01831MA1999999102101MD1999999-0231MW1211REMSYN088AAXX  06124 83498 21595 62301 10220 20194 30210 40215 72162 83140 333 20183 59023 60024;
0182834980999992007070618004-17733-039250FM-12+000399999V0200901N002110450019N0020001N1+02541+02111101911ADDAA106000021AY161061AY261061GF108991041051008001011999MA1999999101861MD1999999-0281MW1211REMSYN082AAXX  06184 83498 21595 80904 10254 20211 30186 40191 72166 8451/ 333 59028 69921;
0168834980999992007070700004-17733-039250FM-12+000399999V0200901N000512200019N0020001N1+02201+01941102071ADDGF102991021051008001001001KA1240M+02651MA1999999102021MD1999999-0161REMSYN088AAXX  07004 83498 32595 20901 10220 20194 30202 40207 82500 333 10265 29083 55013 59016;
0201834980999992007070712004-17733-039250FM-12+000399999V0202301N000512200019N0020001N1+02301+02091102031ADDAA124003091AY121061AY211061GF104991021041008001041001KA1240N+01871MA1999999101981MD1999999-0121MW1031REMSYN088AAXX  07124 83498 21595 42301 10230 20209 30198 40203 70321 82440 333 20187 59012 60034;
0182834980999992007070718004-17733-039250FM-12+000399999V0200901N001512200019N0020001N1+02641+01981101791ADDAA106002091AY161061AY261061GF103991011011008001041001MA1999999101741MD1999999-0121MW1211REMSYN082AAXX  07184 83498 21595 30903 10264 20198 30174 40179 72166 81140 333 59012 60021;
0178834980999992007070800004-17733-039250FM-12+000399999V0209999C000012200019N0020001N1+02021+01941101891ADDGA1001+999999999GF100991001001999999001001KA1240M+02611MA1999999101841MD1999999-0181REMSYN082AAXX  08004 83498 32995 00000 10202 20194 30184 40189 333 10261 29086 55011 59018;
0137834980999992007070818004-17733-039250FM-12+000399999V0200901N003110450019N0020001N1+02601+02121101711ADDGF108991041051008001011999MA1999999101661MD1999999-0081REMSYN070AAXX  08184 83498 32595 80906 10260 20212 30166 40171 8451/ 333 59008;
0178834980999992007070900004-17733-039250FM-12+000399999V0209999C000012200019N0020001N1+02001+01701101981ADDGA1001+999999999GF100991001001999999001001KA1240M+02691MA1999999101931MD1999999+0091REMSYN082AAXX  09004 83498 32995 00000 10200 20170 30193 40198 333 10269 29082 55011 58009;
0156834980999992007070912004-17733-039250FM-12+000399999V0202301N000512200019N0020001N1+02181+01921102061ADDGF101991011011008001001001KA1240N+01621MA1999999102011MD1999999+0061REMSYN076AAXX  09124 83498 32595 12301 10218 20192 30201 40206 81100 333 20162 58006;
0137834980999992007070918004-17733-039250FM-12+000399999V0200901N003112200019N0020001N1+02641+01951101801ADDGF102991021011008001001001MA1999999101751MD1999999+0091REMSYN070AAXX  09184 83498 32595 20906 10264 20195 30175 40180 82100 333 58009;
0178834980999992007071000004-17733-039250FM-12+000399999V0209999C000012200019N0020001N1+01981+01861101961ADDGA1001+999999999GF100991001001999999001001KA1240M+02721MA1999999101911MD1999999-0021REMSYN082AAXX  10004 83498 32995 00000 10198 20186 30191 40196 333 10272 29084 55086 59002;
0201834980999992007071012004-17733-039250FM-12+000399999V0203601N000510450019N0020001N1+02161+01931101971ADDAA124000391AY161061AY221061GF108991041061008001011999KA1240N+01671MA1999999101921MD1999999-0091MW1211REMSYN088AAXX  10124 83498 21595 83601 10216 20193 30192 40197 72162 8461/ 333 20167 59009 69934;
0137834980999992007071018004-17733-039250FM-12+000399999V0200501N002112200019N0020001N1+02701+02081101651ADDGF104991041021008001001001MA1999999101601MD1999999-0151REMSYN070AAXX  10184 83498 32595 40504 10270 20208 30160 40165 84200 333 59015;
0178834980999992007071100004-17733-039250FM-12+000399999V0209999C000012200019N0020001N1+02001+01761101771ADDGA1001+999999999GF100991001001999999001001KA1240M+02741MA1999999101721MD1999999-0191REMSYN082AAXX  11004 83498 32995 00000 10200 20176 30172 40177 333 10274 29082 55044 59019;
0156834980999992007071112004-17733-039250FM-12+000399999V0202301N002612200019N0020001N1+02421+02051101951ADDGF101991011011008001001001KA1240N+01621MA1999999101901MD1999999-0021REMSYN076AAXX  11124 83498 32595 12305 10242 20205 30190 40195 81100 333 20162 59002;
0137834980999992007071118004-17733-039250FM-12+000399999V0203601N002612200019N0020001N1+02711+01781101561ADDGF101991011011008001001001MA1999999101511MD1999999-0091REMSYN070AAXX  11184 83498 32595 13605 10271 20178 30151 40156 81100 333 59009;
0178834980999992007071200004-17733-039250FM-12+000399999V0209999C000012200019N0020001N1+01981+01911101801ADDGA1001+999999999GF100991001001999999001001KA1240M+02791MA1999999101751MD1999999+0031REMSYN082AAXX  12004 83498 32995 00000 10198 20191 30175 40180 333 10279 29082 55052 58003;
0156834980999992007071212004-17733-039250FM-12+000399999V0201801N001512200019N0020001N1+02261+02031102071ADDGF103991011011008001001011KA1240N+01651MA1999999102021MD1999999+0121REMSYN076AAXX  12124 83498 32595 31803 10226 20203 30202 40207 81101 333 20165 58012;
0137834980999992007071218004-17733-039250FM-12+000399999V0201401N003110450019N0020001N1+02641+02051101811ADDGF105991021011008001041001MA1999999101761MD1999999+0251REMSYN070AAXX  12184 83498 32595 51406 10264 20205 30176 40181 82140 333 58025;
0168834980999992007071300004-17733-039250FM-12+000399999V0200901N001512200019N0020001N1+02361+02051102011ADDGF102991021011008001001001KA1240M+02791MA1999999101961MD1999999+0211REMSYN088AAXX  13004 83498 32595 20903 10236 20205 30196 40201 82100 333 10279 29081 55069 58021;
0156834980999992007071312004-17733-039250FM-12+000399999V0202301N000510075019N0020001N1+02301+02091102111ADDGF107991051051008001011001KA1240N+01981MA1999999102061MD1999999+0041REMSYN076AAXX  13124 83498 32595 72301 10230 20209 30206 40211 85510 333 20198 58004;
0201834980999992007071318004-17733-039250FM-12+000399999V0200901N001512200019N0020001N1+02591+01901101801ADDAA106000591AY121061AY211061GF103991001001999999001011MA1999999101751MD1999999-0011MW1011REMSYN082AAXX  13184 83498 21595 30903 10259 20190 30175 40180 70121 80001 333 59001 69941;EQDQ01+008002SCOLCB
0178834980999992007071400004-17733-039250FM-12+000399999V0200901N001012200019N0020001N1+02161+01931101931ADDGA1001+999999999GF100991001001999999001001KA1240M+02711MA1999999101881MD1999999-0061REMSYN082AAXX  14004 83498 32995 00902 10216 20193 30188 40193 333 10271 29082 55040 59006;
0173834980999992007071412004-17733-039250FM-12+000399999V0201801N000512200019N0020001N1+02201+01951101951ADDAA124000591GF104991041021008001001001KA1240N+01781MA1999999101901MD1999999-0161REMSYN082AAXX  14124 83498 22595 41801 10220 20195 30190 40195 84200 333 20178 59016 69944;
0137834980999992007071418004-17733-039250FM-12+000399999V0200401N002610450019N0020001N1+02621+02141101651ADDGF106991031021008001041001MA1999999101601MD1999999-0151REMSYN070AAXX  14184 83498 32595 60405 10262 20214 30160 40165 83240 333 59015;
0213834980999992007071500004-17733-039250FM-12+000399999V0200501N001010450019N0020001N1+02201+01951101831ADDAA106001091AY161061AY221061GF108991041061008001011999KA1240M+02691MA1999999101781MD1999999+0101MW1611REMSYN100AAXX  15004 83498 21595 80502 10220 20195 30178 40183 76162 8461/ 333 10269 29083 55019 58010 60011;
0201834980999992007071512004-17733-039250FM-12+000399999V0203601N000510450019N0020001N1+02441+02031101741ADDAA124002091AY121061AY211061GF106991041051008001041001KA1240N+01941MA1999999101691MD1999999-0211MW1031REMSYN088AAXX  15124 83498 21595 63601 10244 20203 30169 40174 70321 84540 333 20194 59021 60024;
0137834980999992007071518004-17733-039250FM-12+000399999V0200501N001512200019N0020001N1+02661+02041101411ADDGF102991011011008001001011MA1999999101361MD1999999-0241REMSYN070AAXX  15184 83498 32595 20503 10266 20204 30136 40141 81101 333 59024;
0178834980999992007071600004-17733-039250FM-12+000399999V0209999C000012200019N0020001N1+02181+02031101611ADDGA1001+999999999GF100991001001999999001001KA1240M+02801MA1999999101561MD1999999-0221REMSYN082AAXX  16004 83498 32995 00000 10218 20203 30156 40161 333 10280 29082 55047 59022;
0156834980999992007071612004-17733-039250FM-12+000399999V0203601N000510075019N0020001N1+02441+02131101661ADDGF105991051021008001001001KA1240N+01721MA1999999101611MD1999999-0081REMSYN076AAXX  16124 83498 32595 53601 10244 20213 30161 40166 85200 333 20172 59008;
0137834980999992007071618004-17733-039250FM-12+000399999V0200501N003112200019N0020001N1+02741+02171101411ADDGF103991031011008001001001MA1999999101361MD1999999+0001REMSYN070AAXX  16184 83498 32595 30506 10274 20217 30136 40141 83100 333 58000;
0178834980999992007071700004-17733-039250FM-12+000399999V0209999C000012200019N0020001N1+02261+01981101651ADDGA1001+999999999GF100991001001999999001001KA1240M+02831MA1999999101601MD1999999+0041REMSYN082AAXX  17004 83498 32995 00000 10226 20198 30160 40165 333 10283 29083 55063 58004;
0156834980999992007071712004-17733-039250FM-12+000399999V0202701N001012200019N0020001N1+02401+02171101801ADDGF106991041021008001001011KA1240N+01791MA1999999101751MD1999999+0141REMSYN076AAXX  17124 83498 32595 62702 10240 20217 30175 40180 84201 333 20179 58014;
0137834980999992007071718004-17733-039250FM-12+000399999V0203601N003110450019N0020001N1+02611+02061101531ADDGF106991041051008001041001MA1999999101481MD1999999+0121REMSYN070AAXX  17184 83498 32595 63606 10261 20206 30148 40153 84540 333 58012;
0178834980999992007071800004-17733-039250FM-12+000399999V0209999C000010012019N0020001N1+02271+02091101651ADDGA1091+999999999GF109991091999999999999999KA1240M+02831MA1999999101601MD1999999+0001REMSYN082AAXX  18004 83498 32/95 90000 10227 20209 30160 40165 333 10283 29085 55032 58000;
0156834980999992007071812004-17733-039250FM-12+000399999V0203601N003112200019N0020001N1+02541+02231101591ADDGF104991031021008001031001KA1240N+01921MA1999999101541MD1999999-0211REMSYN076AAXX  18124 83498 32595 43606 10254 20223 30154 40159 83230 333 20192 59021;
0156834980999992007071818004-17733-039250FM-12+000399999V0200501N003612200019N0020001N1+02821+02241101271ADDGF103991999011008001001001MA1999999101221MD1999999-0261REMSYN070AAXX  18184 83498 32595 30507 10282 20224 30122 40127 82100 333 59026;EQDQ01+000022SCOTLC
0168834980999992007071900004-17733-039250FM-12+000399999V0200501N004112200019N0020001N1+02441+02151101401ADDGF103991031011008001001001KA1240M+02881MA1999999101351MD1999999-0251REMSYN088AAXX  19004 83498 32595 30508 10244 20215 30135 40140 83100 333 10288 29080 55046 59025;
0156834980999992007071912004-17733-039250FM-12+000399999V0203601N005112200019N0020001N1+02571+02061101381ADDGF101991011011008001001001KA1240N+02051MA1999999101331MD1999999-0211REMSYN076AAXX  19124 83498 32595 13610 10257 20206 30133 40138 81100 333 20205 59021;
0137834980999992007071918004-17733-039250FM-12+000399999V0200501N002612200019N0020001N1+02891+02231101121ADDGF103991021021008001041001MA1999999101071MD1999999-0151REMSYN070AAXX  19184 83498 32595 30505 10289 20223 30107 40112 82240 333 59015;
0168834980999992007072000004-17733-039250FM-12+000399999V0201801N005110075019N0020001N1+02461+02151101581ADDGF108991051061008001021999KA1240M+03021MA1999999101531MD1999999+0181REMSYN088AAXX  20004 83498 32595 81810 10246 20215 30153 40158 8562/ 333 10302 29077 55054 58018;
0201834980999992007072012004-17733-039250FM-12+000399999V0201401N004110450019N0020001N1+02501+02171101871ADDAA124002091AY161061AY221061GF108991041061008001011999KA1240N+02171MA1999999101821MD1999999+0491MW1211REMSYN088AAXX  20124 83498 21595 81408 10250 20217 30182 40187 72162 8461/ 333 20217 58049 60024;
0137834980999992007072018004-17733-039250FM-12+000399999V0201401N004110450019N0020001N1+02641+02161101751ADDGF106991041051008001031001MA1999999101701MD1999999+0631REMSYN070AAXX  20184 83498 32595 61408 10264 20216 30170 40175 84530 333 58063;
0156834980999992007072112004-17733-039250FM-12+000399999V0200501N001010450019N0020001N1+02501+02111101921ADDGF106991041051008001041001KA1240N+02051MA1999999101871MD1999999+0051REMSYN076AAXX  21124 83498 32595 60502 10250 20211 30187 40192 84540 333 20205 58005;
0137834980999992007072118004-17733-039250FM-12+000399999V0200501N002612200019N0020001N1+02701+02081101631ADDGF101991011011008001001001MA1999999101581MD1999999-0121REMSYN070AAXX  21184 83498 32595 10505 10270 20208 30158 40163 81100 333 59012;
0178834980999992007072200004-17733-039250FM-12+000399999V0209999C000012200019N0020001N1+02151+02001101821ADDGA1001+999999999GF100991001001999999001001KA1240M+02821MA1999999101771MD1999999-0091REMSYN082AAXX  22004 83498 32995 00000 10215 20200 30177 40182 333 10282 29083 55055 59009;
0156834980999992007072212004-17733-039250FM-12+000399999V0202301N000512200019N0020001N1+02301+02031101791ADDGF104991021011008001031001KA1240N+01771MA1999999101741MD1999999-0131REMSYN076AAXX  22124 83498 32595 42301 10230 20203 30174 40179 82130 333 20177 59013;
0137834980999992007072218004-17733-039250FM-12+000399999V0203601N003612200019N0020001N1+02761+02141101501ADDGF102991021011008001001001MA1999999101451MD1999999-0131REMSYN070AAXX  22184 83498 32595 23607 10276 20214 30145 40150 82100 333 59013;
0178834980999992007072300004-17733-039250FM-12+000399999V0209999C000012200019N0020001N1+02181+01881101611ADDGA1001+999999999GF100991001001999999001001KA1240M+02791MA1999999101561MD1999999-0211REMSYN082AAXX  23004 83498 32995 00000 10218 20188 30156 40161 333 10279 29080 55084 59021;
0156834980999992007072312004-17733-039250FM-12+000399999V0203601N003112200019N0020001N1+02511+02111101691ADDGF101991011011008001001001KA1240N+01741MA1999999101641MD1999999-0101REMSYN076AAXX  23124 83498 32595 13606 10251 20211 30164 40169 81100 333 20174 59010;
0137834980999992007072318004-17733-039250FM-12+000399999V0203601N004612200019N0020001N1+02741+02001101281ADDGF101991011011008001001001MA1999999101231MD1999999-0221REMSYN070AAXX  23184 83498 32595 13609 10274 20200 30123 40128 81100 333 59022;
0178834980999992007072400004-17733-039250FM-12+000399999V0203601N000512200019N0020001N1+02241+02031101501ADDGA1001+999999999GF100991001001999999001001KA1240M+02851MA1999999101451MD1999999-0111REMSYN082AAXX  24004 83498 32995 03601 10224 20203 30145 40150 333 10285 29079 55087 59011;
0156834980999992007072412004-17733-039250FM-12+000399999V0203601N003612200019N0020001N1+02521+02211101731ADDGF102991021011008001001001KA1240N+01801MA1999999101681MD1999999+0041REMSYN076AAXX  24124 83498 32595 23607 10252 20221 30168 40173 82100 333 20180 58004;
0137834980999992007072418004-17733-039250FM-12+000399999V0200501N004112200019N0020001N1+02761+02141101451ADDGF102991011011008001001011MA1999999101401MD1999999+0171REMSYN070AAXX  24184 83498 32595 20508 10276 20214 30140 40145 81101 333 58017;
0168834980999992007072500004-17733-039250FM-12+000399999V0200501N002610075019N0020001N1+02361+02051101701ADDGF105991051021008001001001KA1240M+02871MA1999999101651MD1999999+0201REMSYN088AAXX  25004 83498 32595 50505 10236 20205 30165 40170 85200 333 10287 29080 55092 58020;
0201834980999992007072512004-17733-039250FM-12+000399999V0202701N000510450019N0020001N1+02261+02181101821ADDAA124001091AY161061AY261061GF106991041051008001041001KA1240N+02001MA1999999101771MD1999999+0091MW1211REMSYN088AAXX  25124 83498 21595 62701 10226 20218 30177 40182 72166 84540 333 20200 58009 60014;
0137834980999992007072518004-17733-039250FM-12+000399999V0203601N003112200019N0020001N1+02721+02081101481ADDGF104991021021008001041001MA1999999101431MD1999999+0031REMSYN070AAXX  25184 83498 32595 43606 10272 20208 30143 40148 82240 333 58003;
0156834980999992007072612004-17733-039250FM-12+000399999V0203601N004110450019N0020001N1+02561+02231101851ADDGF105991041021008001031001KA1240N+01851MA1999999101801MD1999999+0031REMSYN076AAXX  26124 83498 32595 53608 10256 20223 30180 40185 84230 333 20185 58003;
0137834980999992007072618004-17733-039250FM-12+000399999V0200501N003612200019N0020001N1+02841+02221101611ADDGF102991021011008001001001MA1999999101561MD1999999+0131REMSYN070AAXX  26184 83498 32595 20507 10284 20222 30156 40161 82100 333 58013;
0168834980999992007072700004-17733-039250FM-12+000399999V0201801N005110450019N0020001N1+02361+02051102031ADDGF108991041061008001011999KA1240M+02911MA1999999101981MD1999999+0341REMSYN088AAXX  27004 83498 32595 81810 10236 20205 30198 40203 8461/ 333 10291 29079 55057 58034;
0201834980999992007072712004-17733-039250FM-12+000399999V0200901N000510450019N0020001N1+02241+02141102041ADDAA124005191AY161061AY261061GF108991031071008001021999KA1240N+02121MA1999999101991MD1999999+0191MW1211REMSYN088AAXX  27124 83498 21595 80901 10224 20214 30199 40204 72166 8372/ 333 20212 58019 60054;
0182834980999992007072718004-17733-039250FM-12+000399999V0201801N000510450019N0020001N1+02421+02251102471ADDAA106007191AY161061AY261061GF107991041051008001011001MA1999999102421MD1999999+0141MW1211REMSYN082AAXX  27184 83498 21595 71801 10242 20225 30242 40247 72166 84510 333 58014 60071;
0168834980999992007072800004-17733-039250FM-12+000399999V0209999C000010075019N0020001N1+02231+02101101961ADDGF108991051051008001021999KA1240M+02471MA1999999101911MD1999999-0071REMSYN088AAXX  28004 83498 32595 80000 10223 20210 30191 40196 8552/ 333 10247 29093 55000 59007;
0201834980999992007072812004-17733-039250FM-12+000399999V0202301N002110450019N0020001N1+02221+01971102151ADDAA124007991AY161061AY261061GF108991041051008001011999KA1240N+01941MA1999999102101MD1999999+0111MW1211REMSYN088AAXX  28124 83498 21595 82304 10222 20197 30210 40215 72166 8451/ 333 20194 58011 60084;
0137834980999992007072818004-17733-039250FM-12+000399999V0201801N002610450019N0020001N1+02381+02071101861ADDGF108991031051008001011999MA1999999101811MD1999999+0111REMSYN070AAXX  28184 83498 32595 81805 10238 20207 30181 40186 8351/ 333 58011;
0168834980999992007072900004-17733-039250FM-12+000399999V0209999C000010450019N0020001N1+02241+01981101971ADDGF108991031051008001011999KA1240M+02451MA1999999101921MD1999999+0011REMSYN088AAXX  29004 83498 32595 80000 10224 20198 30192 40197 8351/ 333 10245 29085 55000 58001;
0201834980999992007072912004-17733-039250FM-12+000399999V0201801N006210450019N0020001N1+02241+01941102151ADDAA124002091AY121061AY211061GF106991041051008001041001KA1240N+01961MA1999999102101MD1999999+0001MW1031REMSYN088AAXX  29124 83498 21595 61812 10224 20194 30210 40215 70321 84540 333 20196 58000 60024;
0182834980999992007072918004-17733-039250FM-12+000399999V0201801N007710450019N0020001N1+02101+01801101951ADDAA106000591AY161061AY261061GF108991031071008001021999MA1999999101901MD1999999+0091MW1211REMSYN082AAXX  29184 83498 21595 81815 10210 20180 30190 40195 72166 8372/ 333 58009 69961;
0213834980999992007073000004-17733-039250FM-12+000399999V0201801N007710075019N0020001N1+02131+01641102241ADDAA106000021AY121061AY211061GF108991051051008001021999KA1240M+02351MA1999999102191MD1999999+0271MW1031REMSYN100AAXX  30004 83498 21595 81815 10213 20164 30219 40224 70321 8552/ 333 10235 29079 55000 58027 69921;
0201834980999992007073012004-17733-039250FM-12+000399999V0201801N006710075019N0020001N1+02001+01701102371ADDAA124003091AY161061AY261061GF108991051071008001021999KA1240N+01801MA1999999102321MD1999999+0221MW1611REMSYN088AAXX  30124 83498 21595 81813 10200 20170 30232 40237 76166 8572/ 333 20180 58022 60034;
0182834980999992007073018004-17733-039250FM-12+000399999V0201401N005110450019N0020001N1+02241+01621102211ADDAA106004191AY161061AY261061GF106991031061008001011001MA1999999102161MD1999999+0261MW1211REMSYN082AAXX  30184 83498 21595 61410 10224 20162 30216 40221 72166 83610 333 58026 60041;
0213834980999992007073100004-17733-039250FM-12+000399999V0201401N004110075019N0020001N1+02101+01581102371ADDAA106000391AY161061AY261061GF105991051021008001001001KA1240M+02271MA1999999102321MD1999999+0131MW1211REMSYN100AAXX  31004 83498 21595 51408 10210 20158 30232 40237 72166 85200 333 10227 29074 55022 58013 69931;
0201834980999992007073112004-17733-039250FM-12+000399999V0201801N001010450019N0020001N1+01801+01701102381ADDAA124010991AY161061AY261061GF108991031071008001021999KA1240N+01551MA1999999102331MD1999999+0011MW1611REMSYN088AAXX  31124 83498 21595 81802 10180 20170 30233 40238 76166 8372/ 333 20155 58001 60114;
0182834980999992007073118004-17733-039250FM-12+000399999V0201401N001510450019N0020001N1+02141+01551102031ADDAA106004191AY161061AY261061GF107991041051008001051001MA1999999101981MD1999999+0181MW1211REMSYN082AAXX  31184 83498 21595 71403 10214 20155 30198 40203 72166 84550 333 58018 60041;
0168834980999992007080100004-17733-039250FM-12+000399999V0202301N000510075019N0020001N1+01801+01701102241ADDGF108991051051008001021999KA1240M+02171MA1999999102191MD1999999-0131REMSYN088AAXX  01004 83498 32595 82301 10180 20170 30219 40224 8552/ 333 10217 29088 55000 59013;
0201834980999992007080112004-17733-039250FM-12+000399999V0200501N002110450019N0020001N1+02161+01701102251ADDAA124005191AY161061AY261061GF106991041051008001011001KA1240N+01751MA1999999102201MD1999999-0131MW1211REMSYN088AAXX  01124 83498 21595 60504 10216 20170 30220 40225 72166 84510 333 20175 59013 60054;
0137834980999992007080118004-17733-039250FM-12+000399999V0200901N002612200019N0020001N1+02541+01711102051ADDGF102991021011008001001001MA1999999102001MD1999999+0021REMSYN070AAXX  01184 83498 32595 20905 10254 20171 30200 40205 82100 333 58002;
0168834980999992007080200004-17733-039250FM-12+000399999V0201401N001512200019N0020001N1+02121+01761102211ADDGF102991011011008001001011KA1240M+02501MA1999999102161MD1999999-0031REMSYN088AAXX  02004 83498 32595 21403 10212 20176 30216 40221 81101 333 10250 29074 55051 59003;
0201834980999992007080212004-17733-039250FM-12+000399999V0201401N000510450019N0020001N1+02181+01881102191ADDAA124001091AY121061AY211061GF106991041051008001041001KA1240N+01731MA1999999102141MD1999999-0061MW1031REMSYN088AAXX  02124 83498 21595 61401 10218 20188 30214 40219 70321 84540 333 20173 59006 69994;
0137834980999992007080218004-17733-039250FM-12+000399999V0200901N003112200019N0020001N1+02501+01841102021ADDGF102991021021008001001001MA1999999101971MD1999999-0031REMSYN070AAXX  02184 83498 32595 20906 10250 20184 30197 40202 82200 333 59003;
0178834980999992007080300004-17733-039250FM-12+000399999V0209999C000012200019N0020001N1+01981+01641102141ADDGA1001+999999999GF100991001001999999001001KA1240M+02581MA1999999102091MD1999999-0071REMSYN082AAXX  03004 83498 32995 00000 10198 20164 30209 40214 333 10258 29078 55071 59007;
0156834980999992007080312004-17733-039250FM-12+000399999V0202301N001512200019N0020001N1+02101+01821102261ADDGF102991021011008001001001KA1240N+01561MA1999999102211MD1999999+0071REMSYN076AAXX  03124 83498 32595 22303 10210 20182 30221 40226 82100 333 20156 58007;
0137834980999992007080318004-17733-039250FM-12+000399999V0200901N003112200019N0020001N1+02561+02061102051ADDGF103991031011008001001001MA1999999102001MD1999999+0031REMSYN070AAXX  03184 83498 32595 30906 10256 20206 30200 40205 83100 333 58003;
0213834980999992007080400004-17733-039250FM-12+000399999V0201801N001510450019N0020001N1+02041+01761102191ADDAA106001091AY161061AY261061GF108991041061008001021999KA1240M+02611MA1999999102141MD1999999+0051MW1611REMSYN100AAXX  04004 83498 21595 81803 10204 20176 30214 40219 76166 8462/ 333 10261 29082 55073 58005 60011;
0201834980999992007080412004-17733-039250FM-12+000399999V0200901N000510450019N0020001N1+02201+01991102211ADDAA124002091AY121061AY211061GF106991041051008001041001KA1240N+01771MA1999999102161MD1999999-0051MW1031REMSYN088AAXX  04124 83498 21595 60901 10220 20199 30216 40221 70321 84540 333 20177 59005 60024;
0137834980999992007080418004-17733-039250FM-12+000399999V0200901N002110450019N0020001N1+02531+02001101991ADDGF106991041051008001041001MA1999999101941MD1999999-0061REMSYN070AAXX  04184 83498 32595 60904 10253 20200 30194 40199 84540 333 59006;
0178834980999992007080500004-17733-039250FM-12+000399999V0209999C000010012019N0020001N1+02181+02011102101ADDGA1091+999999999GF109991091999999999999999KA1240M+02631MA1999999102051MD1999999-0091REMSYN082AAXX  05004 83498 32/95 90000 10218 20201 30205 40210 333 10263 29085 55031 59009;
0201834980999992007080512004-17733-039250FM-12+000399999V0202701N000510450019N0020001N1+02301+02031102151ADDAA124002091AY161061AY221061GF106991041051008001031001KA1240N+01861MA1999999102101MD1999999-0061MW1211REMSYN088AAXX  05124 83498 21595 62701 10230 20203 30210 40215 72162 84530 333 20186 59006 60024;
0182834980999992007080518004-17733-039250FM-12+000399999V0200501N001511050019N0020001N1+02601+02031101791ADDAA106002091AY161061AY261061GF105991031011008001001021MA1999999101741MD1999999-0201MW1211REMSYN082AAXX  05184 83498 21595 50503 10260 20203 30174 40179 72166 83102 333 59020 60021;
0168834980999992007080600004-17733-039250FM-12+000399999V0200501N001012200019N0020001N1+02261+01961101991ADDGF104991041021008001001001KA1240M+02571MA1999999101941MD1999999-0111REMSYN088AAXX  06004 83498 32595 40502 10226 20196 30194 40199 84200 333 10257 29080 55023 59011;
0173834980999992007080612004-17733-039250FM-12+000399999V0202301N001010450019N0020001N1+02301+01981102151ADDAA124002091GF106991041051008001041001KA1240N+01711MA1999999102101MD1999999+0001REMSYN082AAXX  06124 83498 22595 62302 10230 20198 30210 40215 84540 333 20171 58000 60024;
0137834980999992007080618004-17733-039250FM-12+000399999V0200901N003112200019N0020001N1+02571+01971101921ADDGF101991011011008001001001MA1999999101871MD1999999+0131REMSYN070AAXX  06184 83498 32595 10906 10257 20197 30187 40192 81100 333 58013;
0178834980999992007080700004-17733-039250FM-12+000399999V0200901N002112200019N0020001N1+02291+01941102031ADDGA1001+999999999GF100991001001999999001001KA1240M+02691MA1999999101981MD1999999+0041REMSYN082AAXX  07004 83498 32995 00904 10229 20194 30198 40203 333 10269 29079 55066 58004;
0201834980999992007080712004-17733-039250FM-12+000399999V0202301N001010450019N0020001N1+02161+01961102211ADDAA124000591AY161061AY261061GF106991031051008001011001KA1240N+01671MA1999999102161MD1999999+0061MW1211REMSYN088AAXX  07124 83498 21595 62302 10216 20196 30216 40221 72166 83510 333 20167 58006 69964;
0137834980999992007080718004-17733-039250FM-12+000399999V0200901N002612200019N0020001N1+02641+02051101961ADDGF102991021011008001001001MA1999999101911MD1999999+0041REMSYN070AAXX  07184 83498 32595 20905 10264 20205 30191 40196 82100 333 58004;
0168834980999992007080800004-17733-039250FM-12+000399999V0200901N000512200019N0020001N1+02201+01941102091ADDGF103991031011008001001001KA1240M+02641MA1999999102041MD1999999+0061REMSYN088AAXX  08004 83498 32595 30901 10220 20194 30204 40209 83100 333 10264 29081 55054 58006;
0156834980999992007080812004-17733-039250FM-12+000399999V0209999C000012200019N0020001N1+02181+02011102181ADDGF104991041051008001001001KA1240N+01671MA1999999102131MD1999999-0031REMSYN076AAXX  08124 83498 32595 40000 10218 20201 30213 40218 84500 333 20167 59003;
0137834980999992007080818004-17733-039250FM-12+000399999V0200501N003112200019N0020001N1+02631+01961101921ADDGF104991041021008001001001MA1999999101871MD1999999-0041REMSYN070AAXX  08184 83498 32595 40506 10263 20196 30187 40192 84200 333 59004;
0178834980999992007080900004-17733-039250FM-12+000399999V0200901N000510012019N0020001N1+02381+01951102121ADDGA1091+999999999GF109991091999999999999999KA1240M+02791MA1999999102071MD1999999+0031REMSYN082AAXX  09004 83498 32/95 90901 10238 20195 30207 40212 333 10279 29078 55059 58003;
0156834980999992007080912004-17733-039250FM-12+000399999V0200901N002610450019N0020001N1+02441+02071102401ADDGF108991041051008001011999KA1240N+02021MA1999999102351MD1999999+0221REMSYN076AAXX  09124 83498 32595 80905 10244 20207 30235 40240 8451/ 333 20202 58022;
0137834980999992007080918004-17733-039250FM-12+000399999V0200901N003610075019N0020001N1+02661+02071102151ADDGF105991051021008001001001MA1999999102101MD1999999+0231REMSYN070AAXX  09184 83498 32595 50907 10266 20207 30210 40215 85200 333 58023;
0213834980999992007081000004-17733-039250FM-12+000399999V0201401N002110450019N0020001N1+02261+02031102231ADDAA106002091AY161061AY221061GF108991041061008001021999KA1240M+02691MA1999999102181MD1999999+0111MW1611REMSYN100AAXX  10004 83498 21595 81404 10226 20203 30218 40223 76162 8462/ 333 10269 29081 55041 58011 60021;
0201834980999992007081012004-17733-039250FM-12+000399999V0200901N002110075019N0020001N1+02461+02011102231ADDAA124004191AY121061AY211061GF107991051051008001011001KA1240N+02071MA1999999102181MD1999999-0171MW1031REMSYN088AAXX  10124 83498 21595 70904 10246 20201 30218 40223 70321 85510 333 20207 59017 60044;
0201834980999992007081018004-17733-039250FM-12+000399999V0201401N001510450019N0020001N1+02461+02091102001ADDAA106000091AY121061AY211061GF106991041051008001041001MA1999999101951MD1999999-0151MW1031REMSYN082AAXX  10184 83498 21595 61403 10246 20209 30195 40200 70321 84540 333 59015 69921;EQDQ01  00002PRCP06
0213834980999992007081100004-17733-039250FM-12+000399999V0209999C000010450019N0020001N1+02131+02071102161ADDAA106002091AY161061AY261061GF108991031071008001021999KA1240M+02551MA1999999102111MD1999999-0071MW1211REMSYN100AAXX  11004 83498 21595 80000 10213 20207 30211 40216 72166 8372/ 333 10255 29088 55035 59007 60021;
0201834980999992007081112004-17733-039250FM-12+000399999V0200901N004112200019N0020001N1+02541+02111102251ADDAA124004191AY161061AY261061GF104991041011008001001001KA1240N+02001MA1999999102201MD1999999+0021MW1211REMSYN088AAXX  11124 83498 21595 40908 10254 20211 30220 40225 72166 84100 333 20200 58002 60044;
0137834980999992007081118004-17733-039250FM-12+000399999V0200901N003112200019N0020001N1+02641+02161102091ADDGF102991021011008001001001MA1999999102041MD1999999+0091REMSYN070AAXX  11184 83498 32595 20906 10264 20216 30204 40209 82100 333 58009;
0178834980999992007081200004-17733-039250FM-12+000399999V0209999C000012200019N0020001N1+02241+01981102261ADDGA1001+999999999GF100991001001999999001001KA1240M+02691MA1999999102211MD1999999+0101REMSYN082AAXX  12004 83498 32995 00000 10224 20198 30221 40226 333 10269 29080 55084 58010;
0201834980999992007081212004-17733-039250FM-12+000399999V0200901N004112200019N0020001N1+02531+01891102331ADDAA124001091AY121061AY211061GF101991011011008001001001KA1240N+02041MA1999999102281MD1999999+0081MW1011REMSYN088AAXX  12124 83498 21595 10908 10253 20189 30228 40233 70121 81100 333 20204 58008 69994;
0137834980999992007081218004-17733-039250FM-12+000399999V0200901N003110075019N0020001N1+02621+02121102111ADDGF105991051051008001001001MA1999999102061MD1999999+0021REMSYN070AAXX  12184 83498 32595 50906 10262 20212 30206 40211 85500 333 58002;
0197834980999992007081300004-17733-039250FM-12+000399999V0200901N001012200019N0020001N1+02241+01821101242ADDGA1001+999999999GF100991001001999999001001KA1240M+02721MA1999999102191MD1999999-0021REMSYN082AAXX  13004 83498 32995 00902 10224 20182 30219 40124 333 10272 29074 55078 59002;EQDQ01+101243APOSLP
0201834980999992007081312004-17733-039250FM-12+000399999V0200901N003612200019N0020001N1+02421+01841102321ADDAA124000591AY161061AY221061GF104991041021008001001001KA1240N+01901MA1999999102271MD1999999-0011MW1211REMSYN088AAXX  13124 83498 21595 40907 10242 20184 30227 40232 72162 84200 333 20190 59001 69944;
0137834980999992007081318004-17733-039250FM-12+000399999V0201401N002612200019N0020001N1+02641+02001102141ADDGF104991021011008001031001MA1999999102091MD1999999+0031REMSYN070AAXX  13184 83498 32595 41405 10264 20200 30209 40214 82130 333 58003;
0168834980999992007081400004-17733-039250FM-12+000399999V0200901N001512200019N0020001N1+02141+01881102371ADDGF103991031051008001001001KA1240M+02671MA1999999102321MD1999999+0131REMSYN088AAXX  14004 83498 32595 30903 10214 20188 30232 40237 83500 333 10267 29077 55075 58013;
0156834980999992007081412004-17733-039250FM-12+000399999V0200901N001510450019N0020001N1+02481+01851102341ADDGF106991041051008001041001KA1240N+01981MA1999999102291MD1999999+0021REMSYN076AAXX  14124 83498 32595 60903 10248 20185 30229 40234 84540 333 20198 58002;
0137834980999992007081418004-17733-039250FM-12+000399999V0200901N001510450019N0020001N1+02361+02011102171ADDGF106991041051008001041001MA1999999102121MD1999999+0031REMSYN070AAXX  14184 83498 32595 60903 10236 20201 30212 40217 84540 333 58003;
0232834980999992007081500004-17733-039250FM-12+000399999V0200901N001512200019N0020001N1+02231+01861102331ADDAA106002091AY121061AY211061GF102991999051008001001001KA1240M+02651MA1999999102281MD1999999-0041MW1011REMSYN100AAXX  15004 83498 21595 20903 10223 20186 30228 40233 70121 83500 333 10265 29077 55060 59004 60021;EQDQ01+000032SCOTLC
0201834980999992007081512004-17733-039250FM-12+000399999V0200901N002112200019N0020001N1+02521+01821102371ADDAA124003091AY161061AY261061GF103991031011008001001001KA1240N+01971MA1999999102321MD1999999+0031MW1211REMSYN088AAXX  15124 83498 21595 30904 10252 20182 30232 40237 72166 83100 333 20197 58003 60034;
0137834980999992007081518004-17733-039250FM-12+000399999V0200901N004112200019N0020001N1+02621+01911102181ADDGF103991031021008001001001MA1999999102131MD1999999+0011REMSYN070AAXX  15184 83498 32595 30908 10262 20191 30213 40218 83200 333 58001;
0213834980999992007081600004-17733-039250FM-12+000399999V0200901N002610450019N0020001N1+02361+01891102301ADDAA106000591AY161061AY221061GF105991041051008001011001KA1240M+02631MA1999999102251MD1999999-0031MW1211REMSYN100AAXX  16004 83498 21595 50905 10236 20189 30225 40230 72162 84510 333 10263 29070 55077 59003 69961;
0173834980999992007081612004-17733-039250FM-12+000399999V0200901N004110450019N0020001N1+02421+01821102221ADDAA124000591GF107991041051008001051001KA1240N+02071MA1999999102171MD1999999-0151REMSYN082AAXX  16124 83498 22595 70908 10242 20182 30217 40222 84550 333 20207 59015 69964;
0137834980999992007081618004-17733-039250FM-12+000399999V0200901N004612200019N0020001N1+02531+01741102121ADDGF101991011011008001001001MA1999999101971MD1999999-0161REMSYN070AAXX  16184 83498 32595 10909 10253 20174 30197 40212 81100 333 59016;
0178834980999992007081700004-17733-039250FM-12+000399999V0209999C000012200019N0020001N1+02061+01991102111ADDGA1001+999999999GF100991001001999999001001KA1240M+02651MA1999999102061MD1999999-0191REMSYN082AAXX  17004 83498 32995 00000 10206 20199 30206 40211 333 10265 29076 55053 59019;
0201834980999992007081712004-17733-039250FM-12+000399999V0200901N003610450019N0020001N1+02421+01791102111ADDAA124000591AY161061AY221061GF108991041051008001011999KA1240N+01901MA1999999102061MD1999999+0111MW1211REMSYN088AAXX  17124 83498 21595 80907 10242 20179 30206 40211 72162 8451/ 333 20190 58011 69944;
0137834980999992007081718004-17733-039250FM-12+000399999V0200901N003110450019N0020001N1+02601+01891101881ADDGF106991021011008001051001MA1999999101831MD1999999-0141REMSYN070AAXX  17184 83498 32595 60906 10260 20189 30183 40188 82150 333 59014;
0213834980999992007081800004-17733-039250FM-12+000399999V0201801N000510450019N0020001N1+02121+01861102031ADDAA106000591AY161061AY221061GF108991041061008001011999KA1240M+02601MA1999999101981MD1999999-0081MW1211REMSYN100AAXX  18004 83498 21595 81801 10212 20186 30198 40203 72162 8461/ 333 10260 29076 55048 59008 69961;
0173834980999992007081812004-17733-039250FM-12+000399999V0202301N000512200019N0020001N1+02221+01921102061ADDAA124000591GF102991021011008001001001KA1240N+01761MA1999999102011MD1999999-0051REMSYN082AAXX  18124 83498 22595 22301 10222 20192 30201 40206 82100 333 20176 59005 69964;
0137834980999992007081818004-17733-039250FM-12+000399999V0200901N003112200019N0020001N1+02521+01611101861ADDGF102991021011008001001001MA1999999101811MD1999999-0021REMSYN070AAXX  18184 83498 32595 20906 10252 20161 30181 40186 82100 333 59002;
0178834980999992007081900004-17733-039250FM-12+000399999V0200901N001512200019N0020001N1+02141+01721101981ADDGA1001+999999999GF100991001001999999001001KA1240M+02701MA1999999101931MD1999999-0051REMSYN082AAXX  19004 83498 32995 00903 10214 20172 30193 40198 333 10270 29074 55091 59005;
0201834980999992007081912004-17733-039250FM-12+000399999V0202301N000512200019N0020001N1+02301+01981102131ADDAA124002091AY161061AY211061GF103991031011008001001001KA1240N+01661MA1999999102081MD1999999+0071MW1211REMSYN088AAXX  19124 83498 21595 32301 10230 20198 30208 40213 72161 83100 333 20166 58007 60024;
0137834980999992007081918004-17733-039250FM-12+000399999V0200901N002112200019N0020001N1+02541+01931101921ADDGF104991041021008001001001MA1999999101871MD1999999+0061REMSYN070AAXX  19184 83498 32595 40904 10254 20193 30187 40192 84200 333 58006;
0168834980999992007082000004-17733-039250FM-12+000399999V0200901N000512200019N0020001N1+02161+01991102091ADDGF102991021011008001001001KA1240M+02551MA1999999102041MD1999999+0111REMSYN088AAXX  20004 83498 32595 20901 10216 20199 30204 40209 82100 333 10255 29083 55080 58011;
0156834980999992007082012004-17733-039250FM-12+000399999V0200901N000512200019N0020001N1+02501+01701102101ADDGF103991021011008001041001KA1240N+01721MA1999999102051MD1999999-0031REMSYN076AAXX  20124 83498 32595 30901 10250 20170 30205 40210 82140 333 20172 59003;
0137834980999992007082018004-17733-039250FM-12+000399999V0200901N003112200019N0020001N1+02571+01801101641ADDGF101991011011008001001001MA1999999101591MD1999999-0281REMSYN070AAXX  20184 83498 32595 10906 10257 20180 30159 40164 81100 333 59028;
0178834980999992007082100004-17733-039250FM-12+000399999V0209999C000012200019N0020001N1+01961+01881101841ADDGA1001+999999999GF100991001001999999001001KA1240M+02651MA1999999101791MD1999999-0251REMSYN082AAXX  21004 83498 32995 00000 10196 20188 30179 40184 333 10265 29078 55083 59025;
0156834980999992007082112004-17733-039250FM-12+000399999V0202301N001012200019N0020001N1+02301+02031102001ADDGF102991021011008001001001KA1240N+02051MA1999999101951MD1999999-0101REMSYN076AAXX  21124 83498 32595 22302 10230 20203 30195 40200 82100 333 20205 59010;
0137834980999992007082118004-17733-039250FM-12+000399999V0200901N002112200019N0020001N1+02661+02001101771ADDGF102991011011008001001011MA1999999101721MD1999999+0131REMSYN070AAXX  21184 83498 32595 20904 10266 20200 30172 40177 81101 333 58013;
0168834980999992007082200004-17733-039250FM-12+000399999V0201401N001512200019N0020001N1+02341+02281102001ADDGF103991021011008001041001KA1240M+02691MA1999999101951MD1999999+0161REMSYN088AAXX  22004 83498 32595 31403 10234 20228 30195 40200 82140 333 10269 29078 55093 58016;
0201834980999992007082212004-17733-039250FM-12+000399999V0201801N001010075019N0020001N1+02221+02051102131ADDAA124004191AY121061AY211061GF108991051051008001021999KA1240N+02021MA1999999102081MD1999999+0131MW1031REMSYN088AAXX  22124 83498 21595 81802 10222 20205 30208 40213 70321 8552/ 333 20202 58013 60044;
0182834980999992007082218004-17733-039250FM-12+000399999V0200901N003110450019N0020001N1+02271+02111101881ADDAA106007191AY121061AY211061GF108991031071008001021999MA1999999101831MD1999999+0111MW1031REMSYN082AAXX  22184 83498 21595 80906 10227 20211 30183 40188 70321 8372/ 333 58011 60071;
0168834980999992007082300004-17733-039250FM-12+000399999V0201401N003110075019N0020001N1+02361+02031101981ADDGF108991051051008001021999KA1240M+02541MA1999999101931MD1999999-0021REMSYN088AAXX  23004 83498 32595 81406 10236 20203 30193 40198 8552/ 333 10254 29086 55011 59002;
0173834980999992007082312004-17733-039250FM-12+000399999V0201401N001512200019N0020001N1+02441+01811102061ADDAA124007191GF102991021011008001001001KA1240N+02071MA1999999102011MD1999999-0071REMSYN082AAXX  23124 83498 22595 21403 10244 20181 30201 40206 82100 333 20207 59007 60074;
0137834980999992007082318004-17733-039250FM-12+000399999V0200901N002612200019N0020001N1+02521+01841101811ADDGF104991041021008001001001MA1999999101761MD1999999-0071REMSYN070AAXX  23184 83498 32595 40905 10252 20184 30176 40181 84200 333 59007;
0168834980999992007082400004-17733-039250FM-12+000399999V0200901N003112200019N0020001N1+02241+01801101911ADDGF101991011011008001001001KA1240M+02541MA1999999101861MD1999999-0071REMSYN088AAXX  24004 83498 32595 10906 10224 20180 30186 40191 81100 333 10254 29072 55082 59007;
0156834980999992007082412004-17733-039250FM-12+000399999V0201801N001510450019N0020001N1+02311+01901101951ADDGF106991041051008001041001KA1240N+01771MA1999999101901MD1999999-0111REMSYN076AAXX  24124 83498 32595 61803 10231 20190 30190 40195 84540 333 20177 59011;
0137834980999992007082418004-17733-039250FM-12+000399999V0203601N003112200019N0020001N1+02571+01801101531ADDGF103991011011008001041001MA1999999101481MD1999999-0281REMSYN070AAXX  24184 83498 32595 33606 10257 20180 30148 40153 81140 333 59028;
0156834980999992007082512004-17733-039250FM-12+000399999V0202301N001512200019N0020001N1+02201+01941101751ADDGF102991021011008001001001KA1240N+01541MA1999999101701MD1999999-0201REMSYN076AAXX  25124 83498 32595 22303 10220 20194 30170 40175 82100 333 20154 59020;
0137834980999992007082518004-17733-039250FM-12+000399999V0200501N004110450019N0020001N1+02701+02031101401ADDGF106991021011008001041001MA1999999101351MD1999999-0131REMSYN070AAXX  25184 83498 32595 60508 10270 20203 30135 40140 82140 333 59013;
0178834980999992007082600004-17733-039250FM-12+000399999V0209999C000012200019N0020001N1+02101+01841101561ADDGA1001+999999999GF100991001001999999001001KA1240M+02781MA1999999101511MD1999999-0161REMSYN082AAXX  26004 83498 32995 00000 10210 20184 30151 40156 333 10278 29080 55080 59016;
0156834980999992007082612004-17733-039250FM-12+000399999V0203601N001512200019N0020001N1+02501+02131101691ADDGF103991031021008001001001KA1240N+01801MA1999999101641MD1999999-0061REMSYN076AAXX  26124 83498 32595 33603 10250 20213 30164 40169 83200 333 20180 59006;
0137834980999992007082618004-17733-039250FM-12+000399999V0200501N004112200019N0020001N1+02691+02161101341ADDGF102991021011008001001001MA1999999101291MD1999999-0061REMSYN070AAXX  26184 83498 32595 20508 10269 20216 30129 40134 82100 333 59006;
0168834980999992007082700004-17733-039250FM-12+000399999V0200501N002112200019N0020001N1+02331+02111101571ADDGF102991021011008001001001KA1240M+02811MA1999999101521MD1999999+0011REMSYN088AAXX  27004 83498 32595 20504 10233 20211 30152 40157 82100 333 10281 29082 55077 58001;
0156834980999992007082712004-17733-039250FM-12+000399999V0203601N004112200019N0020001N1+02601+02141101591ADDGF102991021011008001001001KA1240N+01951MA1999999101541MD1999999-0101REMSYN076AAXX  27124 83498 32595 23608 10260 20214 30154 40159 82100 333 20195 59010;
0137834980999992007082718004-17733-039250FM-12+000399999V0203601N005712200019N0020001N1+02801+02271101251ADDGF101991011011008001001001MA1999999101201MD1999999-0091REMSYN070AAXX  27184 83498 32595 13611 10280 20227 30120 40125 81100 333 59009;
0168834980999992007082800004-17733-039250FM-12+000399999V0203601N004112200019N0020001N1+02421+02111101481ADDGF102991021011008001001001KA1240M+02921MA1999999101431MD1999999-0091REMSYN088AAXX  28004 83498 32595 23608 10242 20211 30143 40148 82100 333 10292 29079 55048 59009;
0156834980999992007082912004-17733-039250FM-12+000399999V0200501N002612200019N0020001N1+02621+01831102101ADDGF103991031011008001001001KA1240N+01771MA1999999102051MD1999999+0341REMSYN076AAXX  29124 83498 32595 30505 10262 20183 30205 40210 83100 333 20177 58034;
0137834980999992007082918004-17733-039250FM-12+000399999V0200901N002112200019N0020001N1+02721+01791101901ADDGF101991011011008001001001MA1999999101851MD1999999+0331REMSYN070AAXX  29184 83498 32595 10904 10272 20179 30185 40190 81100 333 58033;
0168834980999992007083000004-17733-039250FM-12+000399999V0200901N001012200019N0020001N1+02241+01731102191ADDGF101991011011008001001001KA1240M+02751MA1999999102141MD1999999+0291REMSYN088AAXX  30004 83498 32595 10902 10224 20173 30214 40219 81100 333 10275 29066 55071 58029;
0156834980999992007083012004-17733-039250FM-12+000399999V0200901N004112200019N0020001N1+02551+01711103241ADDGF102991021011008001001001KA1240N+02121MA1999999102291MD1999999+0241REMSYN076AAXX  30124 83498 32595 20908 10255 20171 30229 40324 82100 333 20212 58024;
0156834980999992007083018004-17733-039250FM-12+000399999V0200901N003612200019N0020001N1+02551+01881102122ADDGF103991011011008001031001MA1999999102071MD1999999+0221REMSYN070AAXX  30184 83498 32595 30907 10255 20188 30207 40212 81130 333 58022;EQDQ01+102123APOSLP
0168834980999992007083100004-17733-039250FM-12+000399999V0200901N001510075019N0020001N1+02381+01991102211ADDGF107991051061008001011001KA1240M+02691MA1999999102161MD1999999+0021REMSYN088AAXX  31004 83498 32595 70903 10238 20199 30216 40221 85610 333 10269 29071 55068 58002;
0201834980999992007083112004-17733-039250FM-12+000399999V0200901N001510450019N0020001N1+02381+02071102321ADDAA124003091AY161061AY221061GF108991041051008001011999KA1240N+02101MA1999999102281MD1999999-0011MW1611REMSYN088AAXX  31124 83498 21595 80903 10238 20207 30228 40232 76162 8451/ 333 20210 59001 60034;
0182834980999992007083118004-17733-039250FM-12+000399999V0200901N001510450019N0020001N1+02441+02091102041ADDAA106004191AY161061AY261061GF107991031051008001031001MA1999999101991MD1999999-0081MW1211REMSYN082AAXX  31184 83498 21595 70903 10244 20209 30199 40204 72166 83530 333 59008 60041;
0168834980999992007090100004-17733-039250FM-12+000399999V0201401N001010450019N0020001N1+02301+02001102191ADDGF108991041051008001011999KA1240M+02571MA1999999102141MD1999999-0021REMSYN088AAXX  01004 83498 32595 81402 10230 20200 30214 40219 8451/ 333 10257 29084 55002 59002;
0201834980999992007090112004-17733-039250FM-12+000399999V0201401N001010450019N0020001N1+02401+02111102231ADDAA124005191AY121061AY211061GF106991041021008001041001KA1240N+01871MA1999999102181MD1999999-0101MW1031REMSYN088AAXX  01124 83498 21595 61402 10240 20211 30218 40223 70321 84240 333 20187 59010 60054;
0137834980999992007090118004-17733-039250FM-12+000399999V0200501N003112200019N0020001N1+02571+02131101931ADDGF104991021011008001041001MA1999999101881MD1999999-0111REMSYN070AAXX  01184 83498 32595 40506 10257 20213 30188 40193 82140 333 59011;
0178834980999992007090200004-17733-039250FM-12+000399999V0209999C000012200019N0020001N1+02061+01961102151ADDGA1001+999999999GF100991001001999999001001KA1240M+02651MA1999999102101MD1999999-0041REMSYN082AAXX  02004 83498 32995 00000 10206 20196 30210 40215 333 10265 29088 55049 59004;
0156834980999992007090212004-17733-039250FM-12+000399999V0202301N001010450019N0020001N1+02341+02071102221ADDGF106991031051008001011001KA1240N+01721MA1999999102171MD1999999-0011REMSYN076AAXX  02124 83498 32595 62302 10234 20207 30217 40222 83510 333 20172 59001;
0137834980999992007090218004-17733-039250FM-12+000399999V0200901N002112200019N0020001N1+02721+02191101941ADDGF102991021011008001001001MA1999999101891MD1999999+0011REMSYN070AAXX  02184 83498 32595 20904 10272 20219 30189 40194 82100 333 58001;
0168834980999992007090300004-17733-039250FM-12+000399999V0200901N001512200019N0020001N1+02301+02001102151ADDGF101991011011008001001001KA1240M+02701MA1999999102101MD1999999+0001REMSYN088AAXX  03004 83498 32595 10903 10230 20200 30210 40215 81100 333 10270 29081 55052 58000;
0201834980999992007090312004-17733-039250FM-12+000399999V0200501N003110450019N0020001N1+02421+02131102321ADDAA124000891AY121061AY211061GF106991041051008001041001KA1240N+01921MA1999999102271MD1999999+0101MW1031REMSYN088AAXX  03124 83498 21595 60506 10242 20213 30227 40232 70321 84540 333 20192 58010 69984;
0137834980999992007090318004-17733-039250FM-12+000399999V0200501N004610450019N0020001N1+02591+02061102161ADDGF105991011011008001031001MA1999999102111MD1999999+0221REMSYN070AAXX  03184 83498 32595 50509 10259 20206 30211 40216 81130 333 58022;
0168834980999992007090400004-17733-039250FM-12+000399999V0200901N003112200019N0020001N1+02321+02051102401ADDGF103991031051008001001001KA1240M+02711MA1999999102351MD1999999+0251REMSYN088AAXX  04004 83498 32595 30906 10232 20205 30235 40240 83500 333 10271 29081 55049 58025;
0201834980999992007090412004-17733-039250FM-12+000399999V0200501N004110450019N0020001N1+02441+02071102481ADDAA124000591AY161061AY221061GF108991041051008001011999KA1240N+02081MA1999999102431MD1999999+0161MW1211REMSYN088AAXX  04124 83498 21595 80508 10244 20207 30243 40248 72162 8451/ 333 20208 58016 69944;
0137834980999992007090418004-17733-039250FM-12+000399999V0200501N004610075019N0020001N1+02641+02051102251ADDGF105991051021008001001001MA1999999102201MD1999999+0091REMSYN070AAXX  04184 83498 32595 50509 10264 20205 30220 40225 85200 333 58009;
0168834980999992007090500004-17733-039250FM-12+000399999V0200901N000512200019N0020001N1+02321+01911102451ADDGF102991021011008001001001KA1240M+02671MA1999999102401MD1999999+0051REMSYN088AAXX  05004 83498 32595 20901 10232 20191 30240 40245 82100 333 10267 29076 55053 58005;
0201834980999992007090512004-17733-039250FM-12+000399999V0200901N002610450019N0020001N1+02121+02041102571ADDAA124007191AY161061AY261061GF106991041051008001041001KA1240N+01951MA1999999102521MD1999999+0091MW1211REMSYN088AAXX  05124 83498 21595 60905 10212 20204 30252 40257 72166 84540 333 20195 58009 60074;
0182834980999992007090518004-17733-039250FM-12+000399999V0200901N005712200019N0020001N1+02501+02131102261ADDAA106001091AY121061AY211061GF104991021011008001041001MA1999999102211MD1999999+0011MW1031REMSYN082AAXX  05184 83498 21595 40911 10250 20213 30221 40226 70321 82140 333 58001 60011;
0213834980999992007090600004-17733-039250FM-12+000399999V0200501N001512200019N0020001N1+02141+01991102511ADDAA106000391AY121061AY211061GF103991031051008001001001KA1240M+02591MA1999999102461MD1999999+0061MW1031REMSYN100AAXX  06004 83498 21595 30503 10214 20199 30246 40251 70321 83500 333 10259 29089 55029 58006 69931;
0201834980999992007090612004-17733-039250FM-12+000399999V0200501N002610450019N0020001N1+02281+02011102471ADDAA124003091AY161061AY261061GF107991041051008001011001KA1240N+01661MA1999999102421MD1999999-0101MW1611REMSYN088AAXX  06124 83498 21595 70505 10228 20201 30242 40247 76166 84510 333 20166 59010 60034;
0182834980999992007090618004-17733-039250FM-12+000399999V0200901N002110450019N0020001N1+02541+01951102181ADDAA106000021AY161061AY261061GF108991031051008001011001MA1999999102131MD1999999-0081MW1211REMSYN082AAXX  06184 83498 21595 80904 10254 20195 30213 40218 72166 83510 333 59008 69911;
0168834980999992007090700004-17733-039250FM-12+000399999V0200901N001510450019N0020001N1+02341+01831102351ADDGF105991031051008001031001KA1240M+02551MA1999999102301MD1999999-0161REMSYN088AAXX  07004 83498 32595 50903 10234 20183 30230 40235 83530 333 10255 29075 55007 59016;
0173834980999992007090712004-17733-039250FM-12+000399999V0200901N003110450019N0020001N1+02421+01991102321ADDAA124000021GF105991041051008001041001KA1240N+02021MA1999999102271MD1999999-0171REMSYN082AAXX  07124 83498 22595 50906 10242 20199 30227 40232 84540 333 20202 59017 69914;
0137834980999992007090718004-17733-039250FM-12+000399999V0200901N003112200019N0020001N1+02531+02051102051ADDGF104991031021008001041001MA1999999102001MD1999999-0131REMSYN070AAXX  07184 83498 32595 40906 10253 20205 30200 40205 83240 333 59013;
0168834980999992007090800004-17733-039250FM-12+000399999V0200901N001510450019N0020001N1+02291+01921102191ADDGF106991041051008001011001KA1240M+02451MA1999999102141MD1999999-0161REMSYN088AAXX  08004 83498 32595 60903 10229 20192 30214 40219 84510 333 10245 29078 55087 59016;
0201834980999992007090812004-17733-039250FM-12+000399999V0200901N001512200019N0020001N1+02541+02041102231ADDAA124000591AY161061AY221061GF104991041021008001001001KA1240N+01901MA1999999102181MD1999999-0091MW1211REMSYN088AAXX  08124 83498 21595 40903 10254 20204 30218 40223 72162 84200 333 20190 59009 69944;
0137834980999992007090818004-17733-039250FM-12+000399999V0200901N003612200019N0020001N1+02601+02031101871ADDGF102991021011008001001001MA1999999101821MD1999999-0181REMSYN070AAXX  08184 83498 32595 20907 10260 20203 30182 40187 82100 333 59018;
0168834980999992007090900004-17733-039250FM-12+000399999V0200901N002612200019N0020001N1+02201+01861102121ADDGF103991031011008001001001KA1240M+02651MA1999999102071MD1999999-0071REMSYN088AAXX  09004 83498 32595 30905 10220 20186 30207 40212 83100 333 10265 29077 55089 59007;
0156834980999992007090912004-17733-039250FM-12+000399999V0200901N003112200019N0020001N1+02461+02011102101ADDGF104991041021008001001001KA1240N+01761MA1999999102051MD1999999-0131REMSYN076AAXX  09124 83498 32595 40906 10246 20201 30205 40210 84200 333 20176 59013;
0137834980999992007090918004-17733-039250FM-12+000399999V0200901N004112200019N0020001N1+02661+02041101871ADDGF103991031021008001001001MA1999999101821MD1999999+0001REMSYN070AAXX  09184 83498 32595 30908 10266 20204 30182 40187 83200 333 58000;
0178834980999992007091000004-17733-039250FM-12+000399999V0200901N001012200019N0020001N1+02201+01901102091ADDGA1001+999999999GF100991001001999999001001KA1240M+02651MA1999999102041MD1999999-0031REMSYN082AAXX  10004 83498 32995 00902 10220 20190 30204 40209 333 10265 29078 55084 59003;
0156834980999992007091012004-17733-039250FM-12+000399999V0200901N002610450019N0020001N1+02521+01981102181ADDGF106991041051008001011001KA1240N+02071MA1999999102131MD1999999+0081REMSYN076AAXX  10124 83498 32595 60905 10252 20198 30213 40218 84510 333 20207 58008;
0137834980999992007091018004-17733-039250FM-12+000399999V0200901N003110450019N0020001N1+02581+01941101961ADDGF106991031021008001031001MA1999999101911MD1999999+0091REMSYN070AAXX  10184 83498 32595 60906 10258 20194 30191 40196 83230 333 58009;
0168834980999992007091100004-17733-039250FM-12+000399999V0200901N001512200019N0020001N1+02261+01821102111ADDGF104991041021008001001001KA1240M+02651MA1999999102061MD1999999+0021REMSYN088AAXX  11004 83498 32595 40903 10226 20182 30206 40211 84200 333 10265 29073 55044 58002;
0201834980999992007091112004-17733-039250FM-12+000399999V0200901N003110075019N0020001N1+02401+01861102231ADDAA124002091AY121061AY211061GF107991051051008001011001KA1240N+01941MA1999999102181MD1999999+0051MW1031REMSYN088AAXX  11124 83498 21595 70906 10240 20186 30218 40223 70321 85510 333 20194 58005 60024;
0137834980999992007091118004-17733-039250FM-12+000399999V0200901N004112200019N0020001N1+02561+01801102001ADDGF103991031011008001001001MA1999999101951MD1999999+0051REMSYN070AAXX  11184 83498 32595 30908 10256 20180 30195 40200 83100 333 58005;
0178834980999992007091200004-17733-039250FM-12+000399999V0200901N001512200019N0020001N1+02181+01591102221ADDGA1001+999999999GF100991001001999999001001KA1240M+02631MA1999999102171MD1999999+0111REMSYN082AAXX  12004 83498 32995 00903 10218 20159 30217 40222 333 10263 29068 55053 58011;
0156834980999992007091212004-17733-039250FM-12+000399999V0200901N002110450019N0020001N1+02461+02011102231ADDGF105991021051008001031001KA1240N+01761MA1999999102181MD1999999+0001REMSYN076AAXX  12124 83498 32595 50904 10246 20201 30218 40223 82530 333 20176 58000;
0182834980999992007091218004-17733-039250FM-12+000399999V0200901N004110450019N0020001N1+02501+02051102031ADDAA106000391AY161061AY221061GF108991041051008001011999MA1999999101981MD1999999+0031MW1211REMSYN082AAXX  12184 83498 21595 80908 10250 20205 30198 40203 72162 8451/ 333 58003 69931;
0213834980999992007091300004-17733-039250FM-12+000399999V0200901N003110450019N0020001N1+02261+01941102051ADDAA106005191AY161061AY261061GF106991041061008001011001KA1240M+02551MA1999999102001MD1999999-0171MW1611REMSYN100AAXX  13004 83498 21595 60906 10226 20194 30200 40205 76166 84610 333 10255 29079 55019 59017 60051;
0173834980999992007091312004-17733-039250FM-12+000399999V0200901N003110450019N0020001N1+02551+02041102141ADDAA124005191GF105991041051008001041001KA1240N+02021MA1999999102091MD1999999-0091REMSYN082AAXX  13124 83498 22595 50906 10255 20204 30209 40214 84540 333 20202 59009 60054;
0137834980999992007091318004-17733-039250FM-12+000399999V0200901N004110450019N0020001N1+02501+02051101901ADDGF105991041051008001041001MA1999999101851MD1999999-0131REMSYN070AAXX  13184 83498 32595 50908 10250 20205 30185 40190 84540 333 59013;
0168834980999992007091400004-17733-039250FM-12+000399999V0200901N002112200019N0020001N1+02201+01881101991ADDGF104991041021008001001001KA1240M+02671MA1999999101941MD1999999-0061REMSYN088AAXX  14004 83498 32595 40904 10220 20188 30194 40199 84200 333 10267 29079 55068 59006;
0201834980999992007091412004-17733-039250FM-12+000399999V0200901N002110075019N0020001N1+02541+01831102051ADDAA124000591AY161061AY221061GF105991051021008001001001KA1240N+01871MA1999999102001MD1999999-0091MW1211REMSYN088AAXX  14124 83498 21595 50904 10254 20183 30200 40205 72162 85200 333 20187 59009 69944;
0137834980999992007091418004-17733-039250FM-12+000399999V0200901N004112200019N0020001N1+02661+01971101781ADDGF103991031011008001001001MA1999999101731MD1999999-0121REMSYN070AAXX  14184 83498 32595 30908 10266 20197 30173 40178 83100 333 59012;
0168834980999992007091500004-17733-039250FM-12+000399999V0200901N000512200019N0020001N1+02201+01841101951ADDGF102991021011008001001001KA1240M+02671MA1999999101901MD1999999-0041REMSYN088AAXX  15004 83498 32595 20901 10220 20184 30190 40195 82100 333 10267 29074 55091 59004;
0156834980999992007091512004-17733-039250FM-12+000399999V0201401N001010450019N0020001N1+02401+02051101911ADDGF107991031071008001011001KA1240N+02221MA1999999101861MD1999999-0141REMSYN076AAXX  15124 83498 32595 71402 10240 20205 30186 40191 83710 333 20222 59014;
0182834980999992007091518004-17733-039250FM-12+000399999V0200501N003612200019N0020001N1+02501+02051101561ADDAA106000391AY121061AY211061GF104991031021008001041001MA1999999101511MD1999999-0221MW1031REMSYN082AAXX  15184 83498 21595 40507 10250 20205 30151 40156 70321 83240 333 59022 69931;
0178834980999992007091600004-17733-039250FM-12+000399999V0209999C000012200019N0020001N1+01901+01681101671ADDGA1001+999999999GF100991001001999999001001KA1240M+02691MA1999999101621MD1999999-0281REMSYN082AAXX  16004 83498 32995 00000 10190 20168 30162 40167 333 10269 29084 55032 59028;
0173834980999992007091612004-17733-039250FM-12+000399999V0203601N003112200019N0020001N1+02561+02041101741ADDAA124000391GF104991041021008001001001KA1240N+01581MA1999999101691MD1999999-0171REMSYN082AAXX  16124 83498 22595 43606 10256 20204 30169 40174 84200 333 20158 59017 69934;
0178834980999992007091700004-17733-039250FM-12+000399999V0209999C000012200019N0020001N1+02261+01941101551ADDGA1001+999999999GF100991001001999999001001KA1240M+02811MA1999999101501MD1999999-0121REMSYN082AAXX  17004 83498 32995 00000 10226 20194 30150 40155 333 10281 29076 55090 59012;
0156834980999992007091712004-17733-039250FM-12+000399999V0203601N002612200019N0020001N1+02591+02151101621ADDGF102991021011008001001001KA1240N+01821MA1999999101571MD1999999-0121REMSYN076AAXX  17124 83498 32595 23605 10259 20215 30157 40162 82100 333 20182 59012;
0137834980999992007091718004-17733-039250FM-12+000399999V0201401N004112200019N0020001N1+02671+02311101481ADDGF102991021011008001001001MA1999999101431MD1999999+0221REMSYN070AAXX  17184 83498 32595 21408 10267 20231 30143 40148 82100 333 58022;
0168834980999992007091800004-17733-039250FM-12+000399999V0201401N003612200019N0020001N1+02401+02111101841ADDGF103991031061008001001001KA1240M+02901MA1999999101791MD1999999+0291REMSYN088AAXX  18004 83498 32595 31407 10240 20211 30179 40184 83600 333 10290 29082 55086 58029;
0156834980999992007091812004-17733-039250FM-12+000399999V0201401N003610450019N0020001N1+02431+01991102071ADDGF107991041051008001011001KA1240N+02271MA1999999102021MD1999999+0451REMSYN076AAXX  18124 83498 32595 71407 10243 20199 30202 40207 84510 333 20227 58045;
0168834980999992007091900004-17733-039250FM-12+000399999V0201401N002612200019N0020001N1+02261+01751102071ADDGF102991021051008001001001KA1240M+02511MA1999999102021MD1999999+0231REMSYN088AAXX  19004 83498 32595 21405 10226 20175 30202 40207 82500 333 10251 29075 55002 58023;
0156834980999992007091912004-17733-039250FM-12+000399999V0201801N000510450019N0020001N1+02301+01651102131ADDGF108991041051008001051999KA1240N+01521MA1999999102081MD1999999+0061REMSYN076AAXX  19124 83498 32595 81801 10230 20165 30208 40213 8455/ 333 20152 58006;
0137834980999992007091918004-17733-039250FM-12+000399999V0200901N004112200019N0020001N1+02721+01621101861ADDGF102991021011008001001001MA1999999101811MD1999999-0011REMSYN070AAXX  19184 83498 32595 20908 10272 20162 30181 40186 82100 333 59001;
0168834980999992007092000004-17733-039250FM-12+000399999V0200901N001512200019N0020001N1+02201+01781101901ADDGF101991011011008001001001KA1240M+02711MA1999999101851MD1999999-0171REMSYN088AAXX  20004 83498 32595 10903 10220 20178 30185 40190 81100 333 10271 29068 55076 59017;
0156834980999992007092012004-17733-039250FM-12+000399999V0202301N001010450019N0020001N1+02101+01761101971ADDGF108991041051008001051999KA1240N+01481MA1999999101921MD1999999-0161REMSYN076AAXX  20124 83498 32595 82302 10210 20176 30192 40197 8455/ 333 20148 59016;
0137834980999992007092018004-17733-039250FM-12+000399999V0200901N002612200019N0020001N1+02601+01761101671ADDGF103991031011008001001001MA1999999101621MD1999999-0191REMSYN070AAXX  20184 83498 32595 30905 10260 20176 30162 40167 83100 333 59019;
0168834980999992007092100004-17733-039250FM-12+000399999V0200501N000512200019N0020001N1+02101+01701101881ADDGF102991021011008001001001KA1240M+02621MA1999999101831MD1999999-0021REMSYN088AAXX  21004 83498 32595 20501 10210 20170 30183 40188 82100 333 10262 29074 55029 59002;
0156834980999992007092112004-17733-039250FM-12+000399999V0203601N000510450019N0020001N1+02461+01851101861ADDGF106991041051008001051001KA1240N+01791MA1999999101811MD1999999-0111REMSYN076AAXX  21124 83498 32595 63601 10246 20185 30181 40186 84550 333 20179 59011;
0137834980999992007092118004-17733-039250FM-12+000399999V0200901N003110450019N0020001N1+02521+01861101671ADDGF105991031021008001031001MA1999999101621MD1999999+0001REMSYN070AAXX  21184 83498 32595 50906 10252 20186 30162 40167 83230 333 58000;
0178834980999992007092200004-17733-039250FM-12+000399999V0200901N000512200019N0020001N1+02121+01721101891ADDGA1001+999999999GF100991001001999999001001KA1240M+02691MA1999999101841MD1999999+0011REMSYN082AAXX  22004 83498 32995 00901 10212 20172 30184 40189 333 10269 29073 55042 58001;
0156834980999992007092212004-17733-039250FM-12+000399999V0201801N001010450019N0020001N1+02401+01911101991ADDGF106991031051008001011001KA1240N+01561MA1999999101941MD1999999+0131REMSYN076AAXX  22124 83498 32595 61802 10240 20191 30194 40199 83510 333 20156 58013;
0137834980999992007092218004-17733-039250FM-12+000399999V0200501N004112200019N0020001N1+02841+01701101551ADDGF102991021011008001001001MA1999999101501MD1999999-0121REMSYN070AAXX  22184 83498 32595 20508 10284 20170 30150 40155 82100 333 59012;
0178834980999992007092300004-17733-039250FM-12+000399999V0209999C000012200019N0020001N1+02041+01641101851ADDGA1001+999999999GF100991001001999999001001KA1240M+02831MA1999999101801MD1999999-0041REMSYN082AAXX  23004 83498 32995 00000 10204 20164 30180 40185 333 10283 29070 55059 59004;
0156834980999992007092312004-17733-039250FM-12+000399999V0200501N003112200019N0020001N1+02651+02091101761ADDGF104991041021008001001001KA1240N+01571MA1999999101711MD1999999-0231REMSYN076AAXX  23124 83498 32595 40506 10265 20209 30171 40176 84200 333 20157 59023;
0137834980999992007092318004-17733-039250FM-12+000399999V0203601N005710450019N0020001N1+02631+02181101351ADDGF105991031051008001041001MA1999999101301MD1999999-0201REMSYN070AAXX  23184 83498 32595 53611 10263 20218 30130 40135 83540 333 59020;
0168834980999992007092400004-17733-039250FM-12+000399999V0203601N003612200019N0020001N1+02401+02131101551ADDGF102991021011008001001001KA1240M+02871MA1999999101501MD1999999-0301REMSYN088AAXX  24004 83498 32595 23607 10240 20213 30150 40155 82100 333 10287 29081 55081 59030;
0156834980999992007092412004-17733-039250FM-12+000399999V0203601N005110075019N0020001N1+02661+02181101601ADDGF105991051021008001001001KA1240N+01991MA1999999101551MD1999999-0161REMSYN076AAXX  24124 83498 32595 53610 10266 20218 30155 40160 85200 333 20199 59016;
0137834980999992007092418004-17733-039250FM-12+000399999V0203601N007212200019N0020001N1+02821+02221101161ADDGF102991021011008001001001MA1999999101111MD1999999-0191REMSYN070AAXX  24184 83498 32595 23614 10282 20222 30111 40116 82100 333 59019;
0168834980999992007092500004-17733-039250FM-12+000399999V0203601N004112200019N0020001N1+02481+02131101451ADDGF101991011011008001001001KA1240M+02871MA1999999101401MD1999999-0101REMSYN088AAXX  25004 83498 32595 13608 10248 20213 30140 40145 81100 333 10287 29077 55057 59010;
0201834980999992007092512004-17733-039250FM-12+000399999V0201801N003610450019N0020001N1+02281+02161101871ADDAA124011991AY161061AY261061GF108991031071008001021999KA1240N+02041MA1999999101821MD1999999+0271MW1211REMSYN088AAXX  25124 83498 21595 81807 10228 20216 30182 40187 72166 8372/ 333 20204 58027 60124;
0213834980999992007092600004-17733-039250FM-12+000399999V0201801N005710450019N0020001N1+02201+01861102281ADDAA106002091AY161061AY261061GF108991031071008001021999KA1240M+02461MA1999999102231MD1999999+0831MW1211REMSYN100AAXX  26004 83498 21595 81811 10220 20186 30223 40228 72166 8372/ 333 10246 29086 55000 58083 60021;
0201834980999992007092612004-17733-039250FM-12+000399999V0201401N005110450019N0020001N1+02381+01971102361ADDAA124003091AY161061AY261061GF108991041071008001021999KA1240N+01941MA1999999102311MD1999999+0491MW1211REMSYN088AAXX  26124 83498 21595 81410 10238 20197 30231 40236 72166 8472/ 333 20194 58049 60034;
0137834980999992007092618004-17733-039250FM-12+000399999V0201401N003610450019N0020001N1+02401+02031102061ADDGF107991031061008001011999MA1999999102011MD1999999+0191REMSYN070AAXX  26184 83498 32595 71407 10240 20203 30201 40206 8361/ 333 58019;
0213834980999992007092700004-17733-039250FM-12+000399999V0201401N003110450019N0020001N1+02261+01991102361ADDAA106002091AY161061AY261061GF108991031061008001021999KA1240M+02471MA1999999102311MD1999999+0081MW1611REMSYN100AAXX  27004 83498 21595 81406 10226 20199 30231 40236 76166 8362/ 333 10247 29082 55000 58008 60021;
0201834980999992007092712004-17733-039250FM-12+000399999V0201401N004110450019N0020001N1+02511+02051102401ADDAA124002091AY121061AY211061GF106991041051008001041001KA1240N+02021MA1999999102351MD1999999+0041MW1031REMSYN088AAXX  27124 83498 21595 61408 10251 20205 30235 40240 70321 84540 333 20202 58004 60024;
0137834980999992007092718004-17733-039250FM-12+000399999V0200901N003110450019N0020001N1+02441+01971102021ADDGF105991031021008001041001MA1999999101971MD1999999-0041REMSYN070AAXX  27184 83498 32595 50906 10244 20197 30197 40202 83240 333 59004;
0168834980999992007092800004-17733-039250FM-12+000399999V0200901N002112200019N0020001N1+02301+02071102161ADDGF103991031051008001001001KA1240M+02661MA1999999102111MD1999999-0201REMSYN088AAXX  28004 83498 32595 30904 10230 20207 30211 40216 83500 333 10266 29084 55056 59020;
0201834980999992007092812004-17733-039250FM-12+000399999V0200501N001510450019N0020001N1+02521+02071102151ADDAA124002091AY161061AY221061GF108991041051008001011999KA1240N+02021MA1999999102101MD1999999-0251MW1211REMSYN088AAXX  28124 83498 21595 80503 10252 20207 30210 40215 72162 8451/ 333 20202 59025 60024;
0182834980999992007092818004-17733-039250FM-12+000399999V0200501N002610450019N0020001N1+02741+02071101801ADDAA106000591AY161061AY261061GF106991021011008001031001MA1999999101751MD1999999-0221MW1211REMSYN082AAXX  28184 83498 21595 60505 10274 20207 30175 40180 72166 82130 333 59022 69941;
0168834980999992007092900004-17733-039250FM-12+000399999V0200501N000512200019N0020001N1+02241+01961102031ADDGF102991021011008001001001KA1240M+02771MA1999999101981MD1999999-0131REMSYN088AAXX  29004 83498 32595 20501 10224 20196 30198 40203 82100 333 10277 29078 55036 59013;
0173834980999992007092912004-17733-039250FM-12+000399999V0203601N001510450019N0020001N1+02661+02201102011ADDAA124000591GF106991031021008001031001KA1240N+01961MA1999999101961MD1999999-0141REMSYN082AAXX  29124 83498 22595 63603 10266 20220 30196 40201 83230 333 20196 59014 69944;
0137834980999992007092918004-17733-039250FM-12+000399999V0200501N002610450019N0020001N1+02711+02221101741ADDGF105991021011008001041001MA1999999101691MD1999999-0061REMSYN070AAXX  29184 83498 32595 50505 10271 20222 30169 40174 82140 333 59006;
0168834980999992007093000004-17733-039250FM-12+000399999V0200901N001010075019N0020001N1+02401+02231102041ADDGF107991051061008001011001KA1240M+02901MA1999999101991MD1999999+0011REMSYN088AAXX  30004 83498 32595 70902 10240 20223 30199 40204 85610 333 10290 29088 55052 58001;
0201834980999992007093012004-17733-039250FM-12+000399999V0202301N001510450019N0020001N1+02361+02091102071ADDAA124002091AY161061AY261061GF108991041071008001021999KA1240N+02061MA1999999102021MD1999999+0061MW1211REMSYN088AAXX  30124 83498 21595 82303 10236 20209 30202 40207 72166 8472/ 333 20206 58006 60024;
0182834980999992007093018004-17733-039250FM-12+000399999V0201801N005110075019N0020001N1+02301+02031101911ADDAA106013091AY161061AY261061GF108991051071008001021999MA1999999101861MD1999999+0171MW1211REMSYN082AAXX  30184 83498 21595 81810 10230 20203 30186 40191 72166 8572/ 333 58017 60131;
0213834980999992007100100004-17733-039250FM-12+000399999V0201801N005710075019N0020001N1+02301+02031102171ADDAA106002091AY161061AY261061GF108991081071008001999999KA1240M+02421MA1999999102121MD1999999+0131MW1211REMSYN100AAXX  01004 83498 21595 81811 10230 20203 30212 40217 72166 887// 333 10242 29085 55000 58013 60021;
0201834980999992007100112004-17733-039250FM-12+000399999V0201801N005110450019N0020001N1+02221+01991102261ADDAA124016091AY161061AY261061GF108991031071008001021999KA1240N+02041MA1999999102211MD1999999+0191MW1211REMSYN088AAXX  01124 83498 21595 81810 10222 20199 30221 40226 72166 8372/ 333 20204 58019 60164;
0182834980999992007100118004-17733-039250FM-12+000399999V0201801N005110450019N0020001N1+02051+01941102071ADDAA106002091AY161061AY261061GF108991031071008001021999MA1999999102021MD1999999+0161MW1211REMSYN082AAXX  01184 83498 21595 81810 10205 20194 30202 40207 72166 8372/ 333 58016 60021;
0213834980999992007100200004-17733-039250FM-12+000399999V0201801N005110075019N0020001N1+02001+01921102201ADDAA106017091AY161061AY261061GF108991051071008001021999KA1240M+02411MA1999999102151MD1999999+0031MW1211REMSYN100AAXX  02004 83498 21595 81810 10200 20192 30215 40220 72166 8572/ 333 10241 29092 55000 58003 60171;
0201834980999992007100212004-17733-039250FM-12+000399999V0201401N002610075019N0020001N1+02101+01891102271ADDAA124048091AY161061AY261061GF108991081071008001999999KA1240N+01551MA1999999102221MD1999999+0011MW1621REMSYN088AAXX  02124 83498 21595 81405 10210 20189 30222 40227 76266 887// 333 20155 58001 60484;
0182834980999992007100218004-17733-039250FM-12+000399999V0201401N003110075019N0020001N1+02041+01831102031ADDAA106023991AY161061AY261061GF108991081071008001999999MA1999999101981MD1999999-0041MW1621REMSYN082AAXX  02184 83498 21595 81406 10204 20183 30198 40203 76266 887// 333 59004 60241;
0213834980999992007100300004-17733-039250FM-12+000399999V0201401N001510450019N0020001N1+02201+01951102151ADDAA106000021AY161061AY261061GF108991031071008001021999KA1240M+02271MA1999999102101MD1999999-0051MW1211REMSYN100AAXX  03004 83498 21595 81403 10220 20195 30210 40215 72166 8372/ 333 10227 29087 55000 59005 69921;
0201834980999992007100312004-17733-039250FM-12+000399999V0201401N003110450019N0020001N1+02131+01981102091ADDAA124039991AY161061AY261061GF108991031071008001021999KA1240N+01671MA1999999102041MD1999999-0181MW1211REMSYN088AAXX  03124 83498 21595 81406 10213 20198 30204 40209 72166 8372/ 333 20167 59018 60404;
0137834980999992007100318004-17733-039250FM-12+000399999V0200901N002610450019N0020001N1+02401+02111101831ADDGF107991041051008001011001MA1999999101781MD1999999-0201REMSYN070AAXX  03184 83498 32595 70905 10240 20211 30178 40183 84510 333 59020;
0168834980999992007100400004-17733-039250FM-12+000399999V0200901N001510075019N0020001N1+02201+01841101961ADDGF108991051051008001021999KA1240M+02491MA1999999101911MD1999999-0191REMSYN088AAXX  04004 83498 32595 80903 10220 20184 30191 40196 8552/ 333 10249 29084 55008 59019;
0156834980999992007100412004-17733-039250FM-12+000399999V0201401N001510075019N0020001N1+02441+01811101961ADDGF106991061021008001001001KA1240N+01651MA1999999101911MD1999999-0131REMSYN076AAXX  04124 83498 32595 61403 10244 20181 30191 40196 86200 333 20165 59013;
0137834980999992007100418004-17733-039250FM-12+000399999V0201401N002612200019N0020001N1+02501+01871101731ADDGF103991031011008001001001MA1999999101651MD1999999-0101REMSYN070AAXX  04184 83498 32595 31405 10250 20187 30165 40173 83100 333 59010;
0168834980999992007100500004-17733-039250FM-12+000399999V0200901N000512200019N0020001N1+02161+01741102011ADDGF101991011011008001001001KA1240M+02551MA1999999101961MD1999999+0051REMSYN088AAXX  05004 83498 32595 10901 10216 20174 30196 40201 81100 333 10255 29072 55045 58005;
0156834980999992007100512004-17733-039250FM-12+000399999V0201401N001010450019N0020001N1+02421+01931101971ADDGF105991031021008001031001KA1240N+01591MA1999999101921MD1999999+0011REMSYN076AAXX  05124 83498 32595 51402 10242 20193 30192 40197 83230 333 20159 58001;
0137834980999992007100518004-17733-039250FM-12+000399999V0200901N001510075019N0020001N1+02351+01911101681ADDGF108991051051008001021999MA1999999101631MD1999999-0051REMSYN070AAXX  05184 83498 32595 80903 10235 20191 30163 40168 8552/ 333 59005;
0178834980999992007100600004-17733-039250FM-12+000399999V0200901N001512200019N0020001N1+02241+01781101871ADDGA1001+999999999GF100991001001999999001001KA1240M+02601MA1999999101821MD1999999-0141REMSYN082AAXX  06004 83498 32995 00903 10224 20178 30182 40187 333 10260 29075 55034 59014;
0156834980999992007100612004-17733-039250FM-12+000399999V0200901N002610450019N0020001N1+02421+01951101911ADDGF108991041051008001011999KA1240N+01711MA1999999101861MD1999999-0061REMSYN076AAXX  06124 83498 32595 80905 10242 20195 30186 40191 8451/ 333 20171 59006;
0143834980999992007100618004-17733-039250FM-12+000399999V0200901N003110450019N0020001N1+02601+02121101631ADDGF106991021011008001051001MA1999999101581MD1999999-0051REMSYN076AAXX  06184 83498 22595 60906 10260 20212 30158 40163 82150 333 59005 6////;
0178834980999992007100700004-17733-039250FM-12+000399999V0209999C000012200019N0020001N1+02261+01991101831ADDGA1001+999999999GF100991001001999999001001KA1240M+02601MA1999999101781MD1999999-0041REMSYN082AAXX  07004 83498 32995 00000 10226 20199 30178 40183 333 10260 29080 55029 59004;
0201834980999992007100712004-17733-039250FM-12+000399999V0200501N001510450019N0020001N1+02381+02151101791ADDAA124001091AY161061AY261061GF108991031071008001021999KA1240N+01891MA1999999101741MD1999999-0121MW1211REMSYN088AAXX  07124 83498 21595 80503 10238 20215 30174 40179 72166 8372/ 333 20189 59012 69994;
0182834980999992007100718004-17733-039250FM-12+000399999V0200501N001510450019N0020001N1+02691+02111101481ADDAA106000391AY121061AY211061GF105991031021008001041001MA1999999101431MD1999999-0131MW1031REMSYN082AAXX  07184 83498 21595 50503 10269 20211 30143 40148 70321 83240 333 59013 69931;
0192834980999992007100812004-17733-039250FM-12+000399999V0200501N002119999999N0020001N1+02581+02121101921ADDAA124000391GF105991999021008001001001KA1240N+01771MA1999999101871MD1999999+0131REMSYN082AAXX  08124 83498 22595 50504 10258 20212 30187 40192 86200 333 20177 58013 69934;EQDQ01+000062SCOTLC
0137834980999992007100818004-17733-039250FM-12+000399999V0200501N003610075019N0020001N1+02761+02091101601ADDGF105991051021008001001001MA1999999101551MD1999999+0121REMSYN070AAXX  08184 83498 32595 50507 10276 20209 30155 40160 85200 333 58012;
0168834980999992007100900004-17733-039250FM-12+000399999V0200901N001512200019N0020001N1+02301+01921101871ADDGF102991021011008001001001KA1240M+02781MA1999999101821MD1999999+0141REMSYN088AAXX  09004 83498 32595 20903 10230 20192 30182 40187 82100 333 10278 29075 55075 58014;
0156834980999992007100912004-17733-039250FM-12+000399999V0200901N002612200019N0020001N1+02691+02041102101ADDGF105991031021008001001011KA1240N+02151MA1999999102051MD1999999+0181REMSYN076AAXX  09124 83498 32595 50905 10269 20204 30205 40210 83201 333 20215 58018;
0137834980999992007100918004-17733-039250FM-12+000399999V0200901N001510450019N0020001N1+02561+02081101851ADDGF106991041021008001041001MA1999999101801MD1999999+0251REMSYN070AAXX  09184 83498 32595 60903 10256 20208 30180 40185 84240 333 58025;
0168834980999992007101000004-17733-039250FM-12+000399999V0200501N001512200019N0020001N1+02321+02031102001ADDGF103991031061008001001001KA1240M+02751MA1999999101951MD1999999+0131REMSYN088AAXX  10004 83498 32595 30503 10232 20203 30195 40200 83600 333 10275 29078 55049 58013;
0201834980999992007101012004-17733-039250FM-12+000399999V0200501N002610450019N0020001N1+02501+01981102031ADDAA124000591AY161061AY221061GF107991041051008001011001KA1240N+01921MA1999999101981MD1999999-0071MW1211REMSYN088AAXX  10124 83498 21595 70505 10250 20198 30198 40203 72162 84510 333 20192 59007 69944;
0137834980999992007101018004-17733-039250FM-12+000399999V0200901N003612200019N0020001N1+02741+02101101651ADDGF103991031011008001001001MA1999999101601MD1999999-0201REMSYN070AAXX  10184 83498 32595 30907 10274 20210 30160 40165 83100 333 59020;
0168834980999992007101100004-17733-039250FM-12+000399999V0200901N001512200019N0020001N1+02461+02071101831ADDGF103991031011008001001001KA1240M+02791MA1999999101781MD1999999-0171REMSYN088AAXX  11004 83498 32595 30903 10246 20207 30178 40183 83100 333 10279 29075 55049 59017;
0201834980999992007101112004-17733-039250FM-12+000399999V0201801N001010450019N0020001N1+02301+02071101691ADDAA124002091AY161061AY261061GF108991031071008001021061KA1240N+01821MA1999999101641MD1999999-0321MW1601REMSYN088AAXX  11124 83498 21595 81802 10230 20207 30164 40169 76066 83726 333 20182 59032 60024;
0182834980999992007101118004-17733-039250FM-12+000399999V0200901N002110450019N0020001N1+02571+02151101281ADDAA106001091AY121061AY211061GF105991031021008001041001MA1999999101231MD1999999-0371MW1031REMSYN082AAXX  11184 83498 21595 50904 10257 20215 30123 40128 70321 83240 333 59037 60011;
0178834980999992007101200004-17733-039250FM-12+000399999V0200501N000510012019N0020001N1+02371+02051101521ADDGA1091+999999999GF109991091999999999999999KA1240M+02641MA1999999101471MD1999999-0311REMSYN082AAXX  12004 83498 32/95 90501 10237 20205 30147 40152 333 10264 29083 55030 59031;
0201834980999992007101212004-17733-039250FM-12+000399999V0200501N001510450019N0020001N1+02301+02031101671ADDAA124003091AY161061AY261061GF108991041051008001011999KA1240N+02021MA1999999101621MD1999999-0021MW1211REMSYN088AAXX  12124 83498 21595 80503 10230 20203 30162 40167 72166 8451/ 333 20202 59002 60034;
0137834980999992007101218004-17733-039250FM-12+000399999V0200501N003110450019N0020001N1+02621+02101101281ADDGF106991031051008001031001MA1999999101231MD1999999+0001REMSYN070AAXX  12184 83498 32595 60506 10262 20210 30123 40128 83530 333 58000;
0168834980999992007101300004-17733-039250FM-12+000399999V0200501N000512200019N0020001N1+02301+02001101461ADDGF102991021011008001001001KA1240M+02671MA1999999101411MD1999999-0061REMSYN088AAXX  13004 83498 32595 20501 10230 20200 30141 40146 82100 333 10267 29081 55004 59006;
0201834980999992007101312004-17733-039250FM-12+000399999V0203601N002110450019N0020001N1+02591+02171101531ADDAA124002091AY121061AY211061GF106991041051008001021001KA1240N+02091MA1999999101481MD1999999-0141MW1031REMSYN088AAXX  13124 83498 21595 63604 10259 20217 30148 40153 70321 84520 333 20209 59014 60024;
0137834980999992007101318004-17733-039250FM-12+000399999V0200501N005110075019N0020001N1+02691+02201101251ADDGF105991051021008001001001MA1999999101201MD1999999-0031REMSYN070AAXX  13184 83498 32595 50510 10269 20220 30120 40125 85200 333 59003;
0168834980999992007101400004-17733-039250FM-12+000399999V0200501N004112200019N0020001N1+02441+02151101431ADDGF102991021021008001001001KA1240M+02851MA1999999101381MD1999999-0031REMSYN088AAXX  14004 83498 32595 20508 10244 20215 30138 40143 82200 333 10285 29080 55030 59003;
0156834980999992007101412004-17733-039250FM-12+000399999V0200501N003612200019N0020001N1+02601+02191101651ADDGF104991041021008001001001KA1240N+02221MA1999999101601MD1999999+0121REMSYN076AAXX  14124 83498 32595 40507 10260 20219 30160 40165 84200 333 20222 58012;
0137834980999992007101418004-17733-039250FM-12+000399999V0200501N004110450019N0020001N1+02801+02231101551ADDGF106991031011008001051001MA1999999101501MD1999999+0301REMSYN070AAXX  14184 83498 32595 60508 10280 20223 30150 40155 83150 333 58030;
0168834980999992007101500004-17733-039250FM-12+000399999V0200501N001512200019N0020001N1+02461+02091101651ADDGF102991021011008001001001KA1240M+02841MA1999999101601MD1999999+0221REMSYN088AAXX  15004 83498 32595 20503 10246 20209 30160 40165 82100 333 10284 29077 55031 58022;
0156834980999992007101512004-17733-039250FM-12+000399999V0200501N003110450019N0020001N1+02691+01971101891ADDGF106991041021008001041001KA1240N+01941MA1999999101841MD1999999+0241REMSYN076AAXX  15124 83498 32595 60506 10269 20197 30184 40189 84240 333 20194 58024;
0137834980999992007101518004-17733-039250FM-12+000399999V0200901N003112200019N0020001N1+02691+02021101621ADDGF104991041021008001001001MA1999999101571MD1999999+0071REMSYN070AAXX  15184 83498 32595 40906 10269 20202 30157 40162 84200 333 58007;
0156834980999992007101812004-17733-039250FM-12+000399999V0203601N003610450019N0020001N1+02581+01991101501ADDGF108991041051008001011999KA1240N+02061MA1999999101451MD1999999+0041REMSYN076AAXX  18124 83498 32595 83607 10258 20199 30145 40150 8451/ 333 20206 58004;
0137834980999992007101818004-17733-039250FM-12+000399999V0200501N004112200019N0020001N1+02861+02161101201ADDGF102991021011008001001001MA1999999101151MD1999999+0191REMSYN070AAXX  18184 83498 32595 20508 10286 20216 30115 40120 82100 333 58019;
0178834980999992007103100004-17733-039250FM-12+000399999V0209999C000012200019N0020001N1+02481+02151101011ADDGA1001+999999999GF100991001001999999001001KA1240M+02991MA1999999100961MD1999999-0331REMSYN082AAXX  31004 83498 32995 00000 10248 20215 30096 40101 333 10299 29074 55/// 59033;
0156834980999992007103112004-17733-039250FM-12+000399999V0200501N005112200019N0020001N1+02671+02241101271ADDGF106991041021008001001011KA1240N+02351MA1999999101221MD1999999-0031REMSYN076AAXX  31124 83498 32595 60510 10267 20224 30122 40127 84201 333 20235 59003;
0137834980999992007103118004-17733-039250FM-12+000399999V0200501N005112200019N0020001N1+02791+02341100841ADDGF104991021011008001001011MA1999999100791MD1999999-0061REMSYN070AAXX  31184 83498 32595 40510 10279 20234 30079 40084 82101 333 59006;
0178834980999992007110100004-17733-039250FM-12+000399999V0200501N003112200019N0020001N1+02471+02251100971ADDGA1001+999999999GF100991001001999999001001KA1240M+03011MA1999999100921MD1999999-0041REMSYN082AAXX  01004 83498 32995 00506 10247 20225 30092 40097 333 10301 29080 55/// 59004;
0156834980999992007110112004-17733-039250FM-12+000399999V0203601N005710075019N0020001N1+02881+02281101051ADDGF105991051021008001001001KA1240N+02301MA1999999101001MD1999999-0221REMSYN076AAXX  01124 83498 32595 53611 10288 20228 30100 40105 85200 333 20230 59022;
0137834980999992007110118004-17733-039250FM-12+000399999V0203601N006212200019N0020001N1+02941+02381100731ADDGF102991021011008001001001MA1999999100681MD1999999-0111REMSYN070AAXX  01184 83498 32595 23612 10294 20238 30068 40073 82100 333 59011;
0168834980999992007110200004-17733-039250FM-12+000399999V0203601N007210450019N0020001N1+02601+02271100871ADDGF106991041051008001011001KA1240M+03001MA1999999100821MD1999999-0101REMSYN088AAXX  02004 83498 32595 63614 10260 20227 30082 40087 84510 333 10300 29077 55/// 59010;
0156834980999992007110212004-17733-039250FM-12+000399999V0203601N005111050019N0020001N1+02891+02411101101ADDGF105991021021008001001051KA1240N+02481MA1999999101051MD1999999+0051REMSYN076AAXX  02124 83498 32595 53610 10289 20241 30105 40110 82205 333 20248 58005;
0156834980999992007110218004-17733-039250FM-12+000399999V0203601N006212200019N0020001N1+02901+02431100761ADDGF103991001001999999001051MA1999999100711MD1999999+0031REMSYN070AAXX  02184 83498 32595 33612 10290 20243 30071 40076 80005 333 58003;EQDQ01+008002SCOLCB
0156834980999992007110312004-17733-039250FM-12+000399999V0203601N006710450019N0020001N1+02861+02261101191ADDGF105991031021008001031001KA1240N+02271MA1999999101141MD1999999+0091REMSYN076AAXX  03124 83498 32595 53613 10286 20226 30114 40119 83230 333 20227 58009;
0137834980999992007110318004-17733-039250FM-12+000399999V0203601N008212200019N0020001N1+02961+02311100851ADDGF102991021011008001001001MA1999999100801MD1999999+0091REMSYN070AAXX  03184 83498 32595 23616 10296 20231 30080 40085 82100 333 58009;
0178834980999992007110400004-17733-039250FM-12+000399999V0203601N005712200019N0020001N1+02541+02171101051ADDGA1001+999999999GF100991001001999999001001KA1240M+03011MA1999999101001MD1999999+0051REMSYN082AAXX  04004 83498 32595 03611 10254 20217 30100 40105 333 10301 29074 55/// 58005;
0156834980999992007110412004-17733-039250FM-12+000399999V0203601N006212200019N0020001N1+02931+02291101121ADDGF102991021011008001001001KA1240N+02391MA1999999101071MD1999999-0071REMSYN076AAXX  04124 83498 32595 23612 10293 20229 30107 40112 82100 333 20239 59007;
0156834980999992007110418004-17733-039250FM-12+000399999V0200501N006212200019N0020001N1+02851+02171100791ADDGF102991001001999999001021MA1999999100741MD1999999-0061REMSYN070AAXX  04184 83498 32595 20512 10285 20217 30074 40079 80002 333 59006;EQDQ01+008002SCOLCB
0178834980999992007110500004-17733-039250FM-12+000399999V0200501N005112200019N0020001N1+02461+02171101091ADDGA1001+999999999GF100991001001999999001001KA1240M+03031MA1999999101041MD1999999+0041REMSYN082AAXX  05004 83498 32995 00510 10246 20217 30104 40109 333 10303 29081 55/// 58004;
0156834980999992007110512004-17733-039250FM-12+000399999V0203601N004112200019N0020001N1+02841+02191101451ADDGF102991021011008001001001KA1240N+02231MA1999999101401MD1999999+0331REMSYN076AAXX  05124 83498 32595 23608 10284 20219 30140 40145 82100 333 20223 58033;
0137834980999992007110518004-17733-039250FM-12+000399999V0203601N004112200019N0020001N1+02921+02181101101ADDGF102991011011008001001011MA1999999101051MD1999999+0311REMSYN070AAXX  05184 83498 32595 23608 10292 20218 30105 40110 81101 333 58031;
0168834980999992007110600004-17733-039250FM-12+000399999V0200501N001512200019N0020001N1+02541+02211101501ADDGF104991041021008001001001KA1240M+03051MA1999999101451MD1999999+0411REMSYN088AAXX  06004 83498 32595 40503 10254 20221 30145 40150 84200 333 10305 29074 55/// 58041;
0137834980999992007110618004-17733-039250FM-12+000399999V0200501N004112200019N0020001N1+02731+02101101371ADDGF102991021011008001001001MA1999999101321MD1999999+0271REMSYN070AAXX  06184 83498 32595 20508 10273 20210 30132 40137 82100 333 58027;
0168834980999992007110700004-17733-039250FM-12+000399999V0200501N001012200019N0020001N1+02441+02171101671ADDGF102991021021008001001001KA1240M+02981MA1999999101621MD1999999+0171REMSYN088AAXX  07004 83498 32595 20502 10244 20217 30162 40167 82200 333 10298 29077 55/// 58017;
0156834980999992007110712004-17733-039250FM-12+000399999V0200501N003110450019N0020001N1+02701+02131101731ADDGF106991041021008001031001KA1240N+02101MA1999999101681MD1999999+0021REMSYN076AAXX  07124 83498 32595 60506 10270 20213 30168 40173 84230 333 20210 58002;
0137834980999992007110718004-17733-039250FM-12+000399999V0200501N003612200019N0020001N1+02841+02171101381ADDGF102991021011008001001001MA1999999101331MD1999999+0081REMSYN070AAXX  07184 83498 32595 20507 10284 20217 30133 40138 82100 333 58008;
0168834980999992007110800004-17733-039250FM-12+000399999V0200501N003112200019N0020001N1+02461+02091101551ADDGF101991011011008001001001KA1240M+02991MA1999999101501MD1999999-0121REMSYN088AAXX  08004 83498 32595 10506 10246 20209 30150 40155 81100 333 10299 29074 55/// 59012;
0156834980999992007110812004-17733-039250FM-12+000399999V0203601N003112200019N0020001N1+02771+02091101491ADDGF104991041021008001001001KA1240N+02261MA1999999101441MD1999999-0241REMSYN076AAXX  08124 83498 32595 43606 10277 20209 30144 40149 84200 333 20226 59024;
0137834980999992007110818004-17733-039250FM-12+000399999V0200501N005112200019N0020001N1+02831+02171101101ADDGF102991021011008001001001MA1999999101051MD1999999-0281REMSYN070AAXX  08184 83498 32595 20510 10283 20217 30105 40110 82100 333 59028;
0178834980999992007110900004-17733-039250FM-12+000399999V0200501N001012200019N0020001N1+02411+02031101281ADDGA1001+999999999GF100991001001999999001001KA1240M+03001MA1999999101231MD1999999-0271REMSYN082AAXX  09004 83498 32995 00502 10241 20203 30123 40128 333 10300 29074 55/// 59027;
0201834980999992007110912004-17733-039250FM-12+000399999V0203601N003110450019N0020001N1+02701+02171101351ADDAA124000021AY161061AY221061GF107991041051008001031001KA1240N+02271MA1999999101301MD1999999-0141MW1211REMSYN088AAXX  09124 83498 21595 73606 10270 20217 30130 40135 72162 84530 333 20227 59014 69924;
0137834980999992007110918004-17733-039250FM-12+000399999V0203601N005111050019N0020001N1+02921+02121101051ADDGF105991021011008001001021MA1999999101001MD1999999-0051REMSYN070AAXX  09184 83498 32595 53610 10292 20212 30100 40105 82102 333 59005;
0168834980999992007111000004-17733-039250FM-12+000399999V0203601N003612200019N0020001N1+02461+02091101211ADDGF102991021011008001001001KA1240M+03031MA1999999101161MD1999999-0071REMSYN088AAXX  10004 83498 32595 23607 10246 20209 30116 40121 82100 333 10303 29074 55/// 59007;
0156834980999992007111012004-17733-039250FM-12+000399999V0203601N005112200019N0020001N1+02751+02171101181ADDGF106991041021008001001011KA1240N+02141MA1999999101131MD1999999-0171REMSYN076AAXX  10124 83498 32595 63610 10275 20217 30113 40118 84201 333 20214 59017;
0156834980999992007111018004-17733-039250FM-12+000399999V0200501N005112200019N0020001N1+02891+01911100841ADDGF102991001001999999001041MA1999999100791MD1999999-0211REMSYN070AAXX  10184 83498 32595 20510 10289 20191 30079 40084 80004 333 59021;EQDQ01+008002SCOLCB
0178834980999992007111100004-17733-039250FM-12+000399999V0200501N001512200019N0020001N1+02471+02231101071ADDGA1001+999999999GF100991001001999999001001KA1240M+03021MA1999999101021MD1999999-0141REMSYN082AAXX  11004 83498 32995 00503 10247 20223 30102 40107 333 10302 29075 55/// 59014;
0156834980999992007111112004-17733-039250FM-12+000399999V0203601N004610450019N0020001N1+02741+02141101151ADDGF106991031021008001051001KA1240N+02271MA1999999101101MD1999999-0031REMSYN076AAXX  11124 83498 32595 63609 10274 20214 30110 40115 83250 333 20227 59003;
0137834980999992007111118004-17733-039250FM-12+000399999V0203601N005112200019N0020001N1+02901+01991100891ADDGF102991021011008001001001MA1999999100841MD1999999+0051REMSYN070AAXX  11184 83498 32595 23610 10290 20199 30084 40089 82100 333 58005;
0168834980999992007111200004-17733-039250FM-12+000399999V0203601N003112200019N0020001N1+02481+02171101131ADDGF101991011011008001001001KA1240M+03061MA1999999101081MD1999999+0061REMSYN088AAXX  12004 83498 32595 13606 10248 20217 30108 40113 81100 333 10306 29074 55/// 58006;
0156834980999992007111212004-17733-039250FM-12+000399999V0203601N005112200019N0020001N1+02871+02211101281ADDGF104991041021008001001001KA1240N+02281MA1999999101231MD1999999+0131REMSYN076AAXX  12124 83498 32595 43610 10287 20221 30123 40128 84200 333 20228 58013;
0137834980999992007111218004-17733-039250FM-12+000399999V0200501N005112200019N0020001N1+02871+02211101131ADDGF102991021021008001001001MA1999999101081MD1999999+0241REMSYN070AAXX  12184 83498 32595 20510 10287 20221 30108 40113 82200 333 58024;
0201834980999992007111312004-17733-039250FM-12+000399999V0200501N001510450019N0020001N1+02461+02151101611ADDAA124001091AY161061AY221061GF108991041051008001011999KA1240N+02001MA1999999101561MD1999999+0331MW1631REMSYN088AAXX  13124 83498 21595 80503 10246 20215 30156 40161 76362 8451/ 333 20200 58033 60014;
0182834980999992007111318004-17733-039250FM-12+000399999V0200901N001510450019N0020001N1+02681+02161101471ADDAA106001091AY161061AY261061GF108991031051008001011999MA1999999101421MD1999999+0341MW1211REMSYN082AAXX  13184 83498 21595 80903 10268 20216 30142 40147 72166 8351/ 333 58034 60011;
0168834980999992007111400004-17733-039250FM-12+000399999V0200901N000512200019N0020001N1+02441+02091101741ADDGF104991041021008001001001KA1240M+02721MA1999999101691MD1999999+0401REMSYN088AAXX  14004 83498 32595 40901 10244 20209 30169 40174 84200 333 10272 29080 55/// 58040;
0201834980999992007111412004-17733-039250FM-12+000399999V0200501N003112200019N0020001N1+02811+02181101601ADDAA124001091AY121061AY211061GF105991041021008001001011KA1240N+02091MA1999999101551MD1999999-0011MW1031REMSYN088AAXX  14124 83498 21595 50506 10281 20218 30155 40160 70321 84201 333 20209 59001 60014;
0137834980999992007111418004-17733-039250FM-12+000399999V0200901N002610450019N0020001N1+02831+02221101311ADDGF106991041021008001031001MA1999999101261MD1999999-0161REMSYN070AAXX  14184 83498 32595 60905 10283 20222 30126 40131 84230 333 59016;
0178834980999992007111500004-17733-039250FM-12+000399999V0200501N003112200019N0020001N1+02421+02111101541ADDGA1001+999999999GF100991001001999999001001KA1240M+02991MA1999999101491MD1999999-0201REMSYN082AAXX  15004 83498 32995 00506 10242 20211 30149 40154 333 10299 29076 55/// 59020;
0156834980999992007111512004-17733-039250FM-12+000399999V0203601N005712200019N0020001N1+02841+02171101481ADDGF102991011011008001001011KA1240N+02181MA1999999101431MD1999999-0121REMSYN076AAXX  15124 83498 32595 23611 10284 20217 30143 40148 81101 333 20218 59012;
0137834980999992007111518004-17733-039250FM-12+000399999V0200501N005112200019N0020001N1+02961+02181101211ADDGF101991011011008001001001MA1999999101161MD1999999-0101REMSYN070AAXX  15184 83498 32595 10510 10296 20218 30116 40121 81100 333 59010;
0168834980999992007111600004-17733-039250FM-12+000399999V0200501N005112200019N0020001N1+02521+02151101461ADDGF103991031011008001001001KA1240M+03041MA1999999101411MD1999999-0081REMSYN088AAXX  16004 83498 32595 30510 10252 20215 30141 40146 83100 333 10304 29072 55/// 59008;
0156834980999992007111612004-17733-039250FM-12+000399999V0201401N003110450019N0020001N1+02831+02331101821ADDGF105991031051008001041001KA1240N+02221MA1999999101771MD1999999+0341REMSYN076AAXX  16124 83498 32595 51406 10283 20233 30177 40182 83540 333 20222 58034;
0156834980999992007111618004-17733-039250FM-12+000399999V0200901N004112200019N0020001N1+02951+02111101661ADDGF103991999011008001001001MA1999999101611MD1999999+0451REMSYN070AAXX  16184 83498 32595 30908 10295 20211 30161 40166 81100 333 58045;EQDQ01+000012SCOTLC
0178834980999992007111700004-17733-039250FM-12+000399999V0200501N001012200019N0020001N1+02401+02051101881ADDGA1001+999999999GF100991001001999999001001KA1240M+03081MA1999999101831MD1999999+0421REMSYN082AAXX  17004 83498 32995 00502 10240 20205 30183 40188 333 10308 29075 55/// 58042;
0156834980999992007111712004-17733-039250FM-12+000399999V0200901N003112200019N0020001N1+02761+01991101961ADDGF103991031011008001001001KA1240N+02241MA1999999101911MD1999999+0141REMSYN076AAXX  17124 83498 32595 30906 10276 20199 30191 40196 83100 333 20224 58014;
0137834980999992007111718004-17733-039250FM-12+000399999V0200901N004112200019N0020001N1+02981+02041101651ADDGF104991041011008001001001MA1999999101601MD1999999-0011REMSYN070AAXX  17184 83498 32595 40908 10298 20204 30160 40165 84100 333 59001;
0156834980999992007111812004-17733-039250FM-12+000399999V0200901N001510450019N0020001N1+02761+02141101621ADDGF106991031021008001031001KA1240N+02341MA1999999101571MD1999999-0341REMSYN076AAXX  18124 83498 32595 60903 10276 20214 30157 40162 83230 333 20234 59034;
0137834980999992007111818004-17733-039250FM-12+000399999V0200501N003112200019N0020001N1+02851+02071101261ADDGF103991031011008001001001MA1999999101211MD1999999-0391REMSYN070AAXX  18184 83498 32595 30506 10285 20207 30121 40126 83100 333 59039;
0201834980999992007111912004-17733-039250FM-12+000399999V0200501N004110450019N0020001N1+02701+02111101511ADDAA124000391AY161061AY221061GF106991041021008001031001KA1240N+02121MA1999999101461MD1999999-0111MW1211REMSYN088AAXX  19124 83498 21595 60508 10270 20211 30146 40151 72162 84230 333 20212 59011 69934;
0137834980999992007111918004-17733-039250FM-12+000399999V0200501N005112200019N0020001N1+02921+02061101111ADDGF104991021011008001001021MA1999999101061MD1999999-0151REMSYN070AAXX  19184 83498 32595 40510 10292 20206 30106 40111 82102 333 59015;
0168834980999992007112000004-17733-039250FM-12+000399999V0200501N004111050019N0020001N1+02461+02031101251ADDGF105991031021008001001021KA1240M+02991MA1999999101201MD1999999-0311REMSYN088AAXX  20004 83498 32595 50508 10246 20203 30120 40125 83202 333 10299 29071 55/// 59031;
0156834980999992007112012004-17733-039250FM-12+000399999V0203601N005110450019N0020001N1+02871+02161101401ADDGF106991041021008001031001KA1240N+02261MA1999999101351MD1999999-0111REMSYN076AAXX  20124 83498 32595 63610 10287 20216 30135 40140 84230 333 20226 59011;
0156834980999992007112018004-17733-039250FM-12+000399999V0200501N005112200019N0020001N1+02871+02111100991ADDGF103991001001999999001041MA1999999100941MD1999999-0121REMSYN070AAXX  20184 83498 32595 30510 10287 20211 30094 40099 80004 333 59012;EQDQ01+008002SCOLCB
0168834980999992007112100004-17733-039250FM-12+000399999V0200501N004112200019N0020001N1+02531+02191101251ADDGF103991031001008001031001KA1240M+03051MA1999999101201MD1999999+0001REMSYN088AAXX  21004 83498 32595 30508 10253 20219 30120 40125 83030 333 10305 29074 55/// 58000;
0201834980999992007112112004-17733-039250FM-12+000399999V0201401N001510450019N0020001N1+02521+02211101591ADDAA124000391AY161061AY221061GF108991041051008001011999KA1240N+02181MA1999999101541MD1999999+0191MW1211REMSYN088AAXX  21124 83498 21595 81403 10252 20221 30154 40159 72162 8451/ 333 20218 58019 69934;
0137834980999992007112118004-17733-039250FM-12+000399999V0200501N001510075019N0020001N1+02701+02221101331ADDGF108991051051008001011999MA1999999101281MD1999999+0341REMSYN070AAXX  21184 83498 32595 80503 10270 20222 30128 40133 8551/ 333 58034;
0201834980999992007112212004-17733-039250FM-12+000399999V0201401N003110450019N0020001N1+02181+02101101631ADDAA124024991AY161061AY261061GF108991031071008001021999KA1240N+02171MA1999999101581MD1999999+0041MW1611REMSYN088AAXX  22124 83498 21595 81406 10218 20210 30158 40163 76166 8372/ 333 20217 58004 60254;
0182834980999992007112218004-17733-039250FM-12+000399999V0201401N001510450019N0020001N1+02241+02161101401ADDAA106009991AY161061AY261061GF108991041071008001021999MA1999999101351MD1999999+0071MW1611REMSYN082AAXX  22184 83498 21595 81403 10224 20216 30135 40140 76166 8472/ 333 58007 60101;
0213834980999992007112300004-17733-039250FM-12+000399999V0201401N001510075019N0020001N1+02381+02071101531ADDAA106021191AY161061AY261061GF108991051051008001021999KA1240M+02531MA1999999101481MD1999999-0171MW1611REMSYN100AAXX  23004 83498 21595 81403 10238 20207 30148 40153 76166 8552/ 333 10253 29089 55/// 59017 60211;
0201834980999992007112312004-17733-039250FM-12+000399999V0202301N001010075019N0020001N1+02321+02021101471ADDAA124032091AY161061AY261061GF108991051071008001021999KA1240N+02061MA1999999101421MD1999999-0101MW1211REMSYN088AAXX  23124 83498 21595 82302 10232 20202 30142 40147 72166 8572/ 333 20206 59010 60324;
0137834980999992007112318004-17733-039250FM-12+000399999V0201801N001510450019N0020001N1+02441+02111101321ADDGF108991041051008001021999MA1999999101271MD1999999-0081REMSYN070AAXX  23184 83498 32595 81803 10244 20211 30127 40132 8452/ 333 59008;
0168834980999992007112400004-17733-039250FM-12+000399999V0200501N001510450019N0020001N1+02401+02071101451ADDGF107991031051008001031001KA1240M+02491MA1999999101401MD1999999-0081REMSYN088AAXX  24004 83498 32595 70503 10240 20207 30140 40145 83530 333 10249 29082 55/// 59008;
0156834980999992007112412004-17733-039250FM-12+000399999V0201801N001010450019N0020001N1+02611+02211101371ADDGF107991041051008001011001KA1240N+02081MA1999999101321MD1999999-0161REMSYN076AAXX  24124 83498 32595 71802 10261 20221 30132 40137 84510 333 20208 59016;
0137834980999992007112418004-17733-039250FM-12+000399999V0200901N002612200019N0020001N1+02791+02271100991ADDGF104991031021008001041001MA1999999100941MD1999999-0331REMSYN070AAXX  24184 83498 32595 40905 10279 20227 30094 40099 83240 333 59033;
0156834980999992007112512004-17733-039250FM-12+000399999V0200901N001510450019N0020001N1+02681+02351101231ADDGF107991031011008001031001KA1240N+02361MA1999999101181MD1999999-0141REMSYN076AAXX  25124 83498 32595 70903 10268 20235 30118 40123 83130 333 20236 59014;
0137834980999992007112518004-17733-039250FM-12+000399999V0200501N003110450019N0020001N1+02841+02311100891ADDGF105991021011008001031001MA1999999100841MD1999999-0101REMSYN070AAXX  25184 83498 32595 50506 10284 20231 30084 40089 82130 333 59010;
0201834980999992007112612004-17733-039250FM-12+000399999V0200501N002110450019N0020001N1+02621+02441101171ADDAA124004191AY161061AY261061GF108991031071008001021999KA1240N+02331MA1999999101121MD1999999-0071MW1211REMSYN088AAXX  26124 83498 21595 80504 10262 20244 30112 40117 72166 8372/ 333 20233 59007 60044;
0182834980999992007112618004-17733-039250FM-12+000399999V0200501N003110450019N0020001N1+02621+02351100851ADDAA106006191AY161061AY261061GF106991031051008001041001MA1999999100801MD1999999-0041MW1211REMSYN082AAXX  26184 83498 21595 60506 10262 20235 30080 40085 72166 83540 333 59004 60061;
0201834980999992007112712004-17733-039250FM-12+000399999V0203601N004110450019N0020001N1+02561+02271100861ADDAA124007191AY161061AY221061GF108991041061008001021999KA1240N+02161MA1999999100811MD1999999-0311MW1211REMSYN088AAXX  27124 83498 21595 83608 10256 20227 30081 40086 72162 8462/ 333 20216 59031 60074;
0182834980999992007112718004-17733-039250FM-12+000399999V0203601N005110450019N0020001N1+02661+02351100591ADDAA106002091AY161061AY221061GF108991031071008001021999MA1999999100541MD1999999-0261MW1211REMSYN082AAXX  27184 83498 21595 83610 10266 20235 30054 40059 72162 8372/ 333 59026 60021;
0213834980999992007112800004-17733-039250FM-12+000399999V0203601N003110075019N0020001N1+02441+02151100801ADDAA106005191AY161061AY261061GF108991051071008001021999KA1240M+02711MA1999999100751MD1999999-0171MW1621REMSYN100AAXX  28004 83498 21595 83606 10244 20215 30075 40080 76266 8572/ 333 10271 29084 55/// 59017 60051;
0201834980999992007112812004-17733-039250FM-12+000399999V0201801N003110450019N0020001N1+02491+02361100891ADDAA124122991AY161061AY261061GF108991031071008001021999KA1240N+02301MA1999999100841MD1999999+0031MW1211REMSYN088AAXX  28124 83498 21595 81806 10249 20236 30084 40089 72166 8372/ 333 20230 58003 61234;
0137834980999992007112818004-17733-039250FM-12+000399999V0201801N004110075019N0020001N1+02561+02231100801ADDGF108991051051008001021999MA1999999100751MD1999999+0211REMSYN070AAXX  28184 83498 32595 81808 10256 20223 30075 40080 8552/ 333 58021;
0213834980999992007112900004-17733-039250FM-12+000399999V0201801N003110075019N0020001N1+02501+02171101061ADDAA106000591AY121061AY211061GF108991051051008001021999KA1240M+02651MA1999999101011MD1999999+0261MW1031REMSYN100AAXX  29004 83498 21595 81806 10250 20217 30101 40106 70321 8552/ 333 10265 29085 55/// 58026 69941;
0201834980999992007112912004-17733-039250FM-12+000399999V0200901N001010075019N0020001N1+02381+02111101211ADDAA124014091AY161061AY261061GF108991051071008001021999KA1240N+02081MA1999999101161MD1999999+0321MW1611REMSYN088AAXX  29124 83498 21595 80902 10238 20211 30116 40121 76166 8572/ 333 20208 58032 60144;
0195834980999992007112918004-17733-039250FM-12+000399999V0200901N001510075019N0020001N1+02301+02001101091ADDAA106023191AY161061AY261061GF108991081071008001999999MA1999999101041MD1999999+0291REMSYN082AAXX  29184 83498 21595 80903 10230 20200 30104 40109 72666 887// 333 58029 60231;EQDQ01+000262PRSWM1
0213834980999992007113000004-17733-039250FM-12+000399999V0200901N001010075019N0020001N1+02241+01961101311ADDAA106002091AY161061AY261061GF108991051071008001021999KA1240M+02531MA1999999101261MD1999999+0251MW1611REMSYN100AAXX  30004 83498 21595 80902 10224 20196 30126 40131 76166 8572/ 333 10253 29084 55/// 58025 60021;
0173834980999992007113012004-17733-039250FM-12+000399999V0201801N001510450019N0020001N1+02511+02291101351ADDAA124024991GF107991041061008001071001KA1240N+02051MA1999999101301MD1999999+0141REMSYN082AAXX  30124 83498 22595 71803 10251 20229 30130 40135 84670 333 20205 58014 60254;
0137834980999992007113018004-17733-039250FM-12+000399999V0201401N001510450019N0020001N1+02531+02211101201ADDGF108991031051008001021999MA1999999101151MD1999999+0111REMSYN070AAXX  30184 83498 32595 81403 10253 20221 30115 40120 8352/ 333 58011;
0168834980999992007120100004-17733-039250FM-12+000399999V0200901N001510450019N0020001N1+02441+02191101371ADDGF106991041051008001011001KA1240M+02691MA1999999101321MD1999999+0061REMSYN088AAXX  01004 83498 32595 60903 10244 20219 30132 40137 84510 333 10269 29086 55/// 58006;
0156834980999992007120112004-17733-039250FM-12+000399999V0200901N001010450019N0020001N1+02541+02211101351ADDGF108991031051008001011999KA1240N+02191MA1999999101301MD1999999+0001REMSYN076AAXX  01124 83498 32595 80902 10254 20221 30130 40135 8351/ 333 20219 58000;
0182834980999992007120118004-17733-039250FM-12+000399999V0201401N001010450019N0020001N1+02601+02271101231ADDAA106002091AY161061AY221061GF108991041061008001021999MA1999999101181MD1999999+0031MW1211REMSYN082AAXX  01184 83498 21595 81402 10260 20227 30118 40123 72162 8462/ 333 58003 60021;
0213834980999992007120200004-17733-039250FM-12+000399999V0200901N001010075019N0020001N1+02401+02091101431ADDAA106000591AY161061AY261061GF108991051071008001021999KA1240M+02641MA1999999101381MD1999999+0061MW1611REMSYN100AAXX  02004 83498 21595 80902 10240 20209 30138 40143 76166 8572/ 333 10264 29082 55/// 58006 69951;
0201834980999992007120212004-17733-039250FM-12+000399999V0203201N002110450019N0020001N1+02501+02111101501ADDAA124013091AY121061AY211061GF106991031051008001041001KA1240N+02021MA1999999101451MD1999999+0151MW1031REMSYN088AAXX  02124 83498 21595 63204 10250 20211 30145 40150 70321 83540 333 20202 58015 60134;
0137834980999992007120218004-17733-039250FM-12+000399999V0200501N003110450019N0020001N1+02691+02281101271ADDGF106991031051008001041001MA1999999101221MD1999999+0041REMSYN070AAXX  02184 83498 32595 60506 10269 20228 30122 40127 83540 333 58004;
0168834980999992007120300004-17733-039250FM-12+000399999V0203601N001512200019N0020001N1+02481+02321101381ADDGF102991021061008001001001KA1240M+02941MA1999999101331MD1999999-0051REMSYN088AAXX  03004 83498 32595 23603 10248 20232 30133 40138 82600 333 10294 29085 55/// 59005;
0156834980999992007120312004-17733-039250FM-12+000399999V0203601N003610450019N0020001N1+02741+02361101411ADDGF107991031051008001031011KA1240N+02281MA1999999101361MD1999999-0091REMSYN076AAXX  03124 83498 32595 73607 10274 20236 30136 40141 83531 333 20228 59009;
0137834980999992007120318004-17733-039250FM-12+000399999V0200501N004112200019N0020001N1+02901+02341101071ADDGF102991021011008001001001MA1999999101021MD1999999-0201REMSYN070AAXX  03184 83498 32595 20508 10290 20234 30102 40107 82100 333 59020;
0168834980999992007120400004-17733-039250FM-12+000399999V0200501N001512200019N0020001N1+02481+02151101201ADDGF101991011011008001001001KA1240M+02971MA1999999101151MD1999999-0181REMSYN088AAXX  04004 83498 32595 10503 10248 20215 30115 40120 81100 333 10297 29079 55/// 59018;
0156834980999992007120412004-17733-039250FM-12+000399999V0203601N003112200019N0020001N1+02671+02201101251ADDGF103991031021008001001001KA1240N+02121MA1999999101201MD1999999-0161REMSYN076AAXX  04124 83498 32595 33606 10267 20220 30120 40125 83200 333 20212 59016;
0137834980999992007120418004-17733-039250FM-12+000399999V0203601N004112200019N0020001N1+02791+02251100991ADDGF104991011011008001001021MA1999999100941MD1999999-0081REMSYN070AAXX  04184 83498 32595 43608 10279 20225 30094 40099 81102 333 59008;
0168834980999992007120600004-17733-039250FM-12+000399999V0203601N001512200019N0020001N1+02501+02191101231ADDGF101991011011008001001001KA1240M+02961MA1999999101181MD1999999+0071REMSYN088AAXX  06004 83498 32595 13603 10250 20219 30118 40123 81100 333 10296 29078 55/// 58007;
0156834980999992007120612004-17733-039250FM-12+000399999V0203601N004112200019N0020001N1+02791+02271101341ADDGF102991021011008001001001KA1240N+02171MA1999999101291MD1999999-0091REMSYN076AAXX  06124 83498 32595 23608 10279 20227 30129 40134 82100 333 20217 59009;
0156834980999992007120618004-17733-039250FM-12+000399999V0200501N005112200019N0020001N1+02851+02401100791ADDGF102991001001999999001011MA1999999100741MD1999999-0331REMSYN070AAXX  06184 83498 32595 20510 10285 20240 30074 40079 80001 333 59033;EQDQ01+008002SCOLCB
0178834980999992007120700004-17733-039250FM-12+000399999V0200501N005112200019N0020001N1+02551+02331100931ADDGA1001+999999999GF100991001001999999001001KA1240M+02971MA1999999100881MD1999999-0301REMSYN082AAXX  07004 83498 32995 00510 10255 20233 30088 40093 333 10297 29081 55/// 59030;
0156834980999992007120712004-17733-039250FM-12+000399999V0203601N002619999999N0020001N1+02831+02381100941ADDGF106991031001008001031021KA1240N+02411MA1999999100891MD1999999-0401REMSYN076AAXX  07124 83498 32595 63605 10283 20238 30089 40094 83032 333 20241 59040;
0137834980999992007120718004-17733-039250FM-12+000399999V0203601N005711050019N0020001N1+02831+02381100631ADDGF106991011011008001001081MA1999999100581MD1999999-0161REMSYN070AAXX  07184 83498 32595 63611 10283 20238 30058 40063 81108 333 59016;
0178834980999992007120800004-17733-039250FM-12+000399999V0203601N006210012019N0020001N1+02581+02311100921ADDGA1091+999999999GF109991091999999999999999KA1240M+03001MA1999999100871MD1999999-0011REMSYN082AAXX  08004 83498 32/95 93612 10258 20231 30087 40092 333 10300 29081 55/// 59001;
0137834980999992007120818004-17733-039250FM-12+000399999V0203601N004110450019N0020001N1+02821+02331100941ADDGF106991031051008001051001MA1999999100891MD1999999+0311REMSYN070AAXX  08184 83498 32595 63608 10282 20233 30089 40094 83550 333 58031;
0168834980999992007120900004-17733-039250FM-12+000399999V0203601N002612200019N0020001N1+02531+02341101201ADDGF102991021011008001001001KA1240M+02911MA1999999101151MD1999999+0281REMSYN088AAXX  09004 83498 32595 23605 10253 20234 30115 40120 82100 333 10291 29085 55/// 58028;
0156834980999992007120912004-17733-039250FM-12+000399999V0203601N004110450019N0020001N1+02741+02341101401ADDGF108991041051008001031999KA1240N+02351MA1999999101351MD1999999+0271REMSYN076AAXX  09124 83498 32595 83608 10274 20234 30135 40140 8453/ 333 20235 58027;
0137834980999992007120918004-17733-039250FM-12+000399999V0200501N004610450019N0020001N1+02941+02311101181ADDGF106991031011008001031001MA1999999101131MD1999999+0241REMSYN070AAXX  09184 83498 32595 60509 10294 20231 30113 40118 83130 333 58024;
0137834980999992007121018004-17733-039250FM-12+000399999V0200501N003110450019N0020001N1+02941+02241101401ADDGF105991021011008001031001MA1999999101351MD1999999+0221REMSYN070AAXX  10184 83498 32595 50506 10294 20224 30135 40140 82130 333 58022;
0168834980999992007121100004-17733-039250FM-12+000399999V0200501N001512200019N0020001N1+02461+02091101481ADDGF103991021011008001001011KA1240M+02931MA1999999101431MD1999999+0071REMSYN088AAXX  11004 83498 32595 30503 10246 20209 30143 40148 82101 333 10293 29074 55/// 58007;
0201834980999992007121112004-17733-039250FM-12+000399999V0200501N001510450019N0020001N1+02781+02251101581ADDAA124000391AY161061AY221061GF108991041021008001021999KA1240N+02161MA1999999101531MD1999999-0021MW1211REMSYN088AAXX  11124 83498 21595 80503 10278 20225 30153 40158 72162 8422/ 333 20216 59002 69934;
0168834980999992007121200004-17733-039250FM-12+000399999V0203601N001012200019N0020001N1+02481+02111101361ADDGF102991021011008001001001KA1240M+02911MA1999999101311MD1999999+0051REMSYN088AAXX  12004 83498 32595 23602 10248 20211 30131 40136 82100 333 10291 29075 55111 58005;
0156834980999992007121212004-17733-039250FM-12+000399999V0200501N002110450019N0020001N1+02781+02131101341ADDGF106991031011008001051001KA1240N+02101MA1999999101291MD1999999-0241REMSYN076AAXX  12124 83498 32595 60504 10278 20213 30129 40134 83150 333 20210 59024;
0137834980999992007121218004-17733-039250FM-12+000399999V0200501N003112200019N0020001N1+02961+02211101011ADDGF103991021011008001051001MA1999999100961MD1999999-0301REMSYN070AAXX  12184 83498 32595 30506 10296 20221 30096 40101 82150 333 59030;
0168834980999992007121300004-17733-039250FM-12+000399999V0200501N001512200019N0020001N1+02481+02071101161ADDGF102991021011008001001001KA1240M+02941MA1999999101111MD1999999-0201REMSYN088AAXX  13004 83498 32595 20503 10248 20207 30111 40116 82100 333 10294 29072 55/// 59020;
0156834980999992007121312004-17733-039250FM-12+000399999V0200501N004112200019N0020001N1+02821+02221101281ADDGF104991041021008001001001KA1240N+02151MA1999999101231MD1999999-0061REMSYN076AAXX  13124 83498 32595 40508 10282 20222 30123 40128 84200 333 20215 59006;
0137834980999992007121318004-17733-039250FM-12+000399999V0200501N004612200019N0020001N1+02981+02201101001ADDGF102991021011008001001001MA1999999101951MD1999999-0011REMSYN070AAXX  13184 83498 32595 20509 10298 20220 30195 40100 82100 333 59001;
0197834980999992007121400004-17733-039250FM-12+000399999V0203601N004112200019N0020001N1+02521+02151101161ADDGA1001+999999999GF100991001001999999001001KA1240M+02991MA1999999101112MD1999999+0001REMSYN082AAXX  14004 83498 32995 03608 10252 20215 30111 40116 333 10299 29073 55/// 58000;EQDQ01+101113APOSP 
0156834980999992007121412004-17733-039250FM-12+000399999V0203601N003610450019N0020001N1+02641+02201101261ADDGF106991021011008001041011KA1240N+02301MA1999999101211MD1999999-0021REMSYN076AAXX  14124 83498 32595 63607 10264 20220 30121 40126 82141 333 20230 59002;
0213834980999992007121500004-17733-039250FM-12+000399999V0203601N002610450019N0020001N1+02501+02211101031ADDAA106002091AY161061AY221061GF108991041071008001021999KA1240M+02951MA1999999100981MD1999999-0121MW1611REMSYN100AAXX  15004 83498 21595 83605 10250 20221 30098 40103 76162 8472/ 333 10295 29078 55/// 59012 60021;
0201834980999992007121512004-17733-039250FM-12+000399999V0203201N003610450019N0020001N1+02561+02251100941ADDAA124005191AY161061AY261061GF108991031061008001021999KA1240N+02281MA1999999100891MD1999999-0321MW1211REMSYN088AAXX  15124 83498 21595 83207 10256 20225 30089 40094 72166 8362/ 333 20228 59032 60054;
0137834980999992007121518004-17733-039250FM-12+000399999V0203601N002110450019N0020001N1+02781+02251100761ADDGF108991041061008001021999MA1999999100711MD1999999-0191REMSYN070AAXX  15184 83498 32595 83604 10278 20225 30071 40076 8462/ 333 59019;
0213834980999992007121600004-17733-039250FM-12+000399999V0203201N004110450019N0020001N1+02501+02211100541ADDAA106003091AY161061AY291061GF108991041061008001021999KA1240M+02831MA1999999100491MD1999999-0491MW1211REMSYN100AAXX  16004 83498 21595 83208 10250 20221 30049 40054 72169 8462/ 333 10283 29080 55/// 59049 60031;
0201834980999992007121612004-17733-039250FM-12+000399999V0201801N002610075019N0020001N1+02621+02271100781ADDAA124061091AY161061AY261061GF106991061021008001001001KA1240N+02061MA1999999100731MD1999999-0161MW1211REMSYN088AAXX  16124 83498 21595 61805 10262 20227 30073 40078 72166 86200 333 20206 59016 60614;
0137834980999992007121618004-17733-039250FM-12+000399999V0201801N003110450019N0020001N1+02741+02281100721ADDGF105991021011008001041001MA1999999100671MD1999999-0041REMSYN070AAXX  16184 83498 32595 51806 10274 20228 30067 40072 82140 333 59004;
0168834980999992007121700004-17733-039250FM-12+000399999V0200901N001510450019N0020001N1+02521+02211100871ADDGF108991041061008001011999KA1240M+02891MA1999999100821MD1999999+0331REMSYN088AAXX  17004 83498 32595 80903 10252 20221 30082 40087 8461/ 333 10289 29081 55/// 58033;
0156834980999992007121712004-17733-039250FM-12+000399999V0201801N002610450019N0020001N1+02721+02341101011ADDGF106991031021008001041001KA1240N+02121MA1999999100961MD1999999+0231REMSYN076AAXX  17124 83498 32595 61805 10272 20234 30096 40101 83240 333 20212 58023;
0137834980999992007121718004-17733-039250FM-12+000399999V0201401N002112200019N0020001N1+02821+02271100911ADDGF104991021011008001041001MA1999999100861MD1999999+0191REMSYN070AAXX  17184 83498 32595 41404 10282 20227 30086 40091 82140 333 58019;
0168834980999992007121800004-17733-039250FM-12+000399999V0200901N001510450019N0020001N1+02601+02231101041ADDGF108991041051008001011999KA1240M+02901MA1999999100991MD1999999+0171REMSYN088AAXX  18004 83498 32595 80903 10260 20223 30099 40104 8451/ 333 10290 29078 55/// 58017;
0201834980999992007121812004-17733-039250FM-12+000399999V0200501N002610075019N0020001N1+02301+02011101211ADDAA124026991AY161061AY261061GF108991051071008001021999KA1240N+02151MA1999999101161MD1999999+0201MW1631REMSYN088AAXX  18124 83498 21595 80505 10230 20201 30116 40121 76366 8572/ 333 20215 58020 60274;
0213834980999992007121900004-17733-039250FM-12+000399999V0200501N000510450019N0020001N1+02421+02131101131ADDAA106020191AY161061AY261061GF108991041071008001021999KA1240M+02831MA1999999101081MD1999999+0091MW1631REMSYN100AAXX  19004 83498 21595 80501 10242 20213 30108 40113 76366 8472/ 333 10283 29084 55/// 58009 60201;
0173834980999992007121912004-17733-039250FM-12+000399999V0203201N004110450019N0020001N1+02741+02431101221ADDAA124033091GF107991031051008001041001KA1240N+02171MA1999999101171MD1999999+0011REMSYN082AAXX  19124 83498 22595 73208 10274 20243 30117 40122 83540 333 20217 58001 60334;
0168834980999992007122000004-17733-039250FM-12+000399999V0203601N005110450019N0020001N1+02581+02231101051ADDGF106991041021008001041001KA1240M+02981MA1999999101001MD1999999+0081REMSYN088AAXX  20004 83498 32595 63610 10258 20223 30100 40105 84240 333 10298 29082 55/// 58008;
0156834980999992007122012004-17733-039250FM-12+000399999V0203601N004612200019N0020001N1+02761+02281101141ADDGF104991021011008001041001KA1240N+02221MA1999999101091MD1999999-0081REMSYN076AAXX  20124 83498 32595 43609 10276 20228 30109 40114 82140 333 20222 59008;
0137834980999992007122018004-17733-039250FM-12+000399999V0203601N005112200019N0020001N1+02881+02321101081ADDGF104991021011008001031001MA1999999101031MD1999999-0051REMSYN070AAXX  20184 83498 32595 43610 10288 20232 30103 40108 82130 333 59005;
0168834980999992007122100004-17733-039250FM-12+000399999V0203601N003612200019N0020001N1+02521+02171101061ADDGF102991011011008001001011KA1240M+02961MA1999999101011MD1999999+0011REMSYN088AAXX  21004 83498 32595 23607 10252 20217 30101 40106 81101 333 10296 29077 55/// 58001;
0156834980999992007122112004-17733-039250FM-12+000399999V0203601N004110450019N0020001N1+02741+02301101231ADDGF105991021011008001041001KA1240N+02161MA1999999101181MD1999999+0091REMSYN076AAXX  21124 83498 32595 53608 10274 20230 30118 40123 82140 333 20216 58009;
0137834980999992007122118004-17733-039250FM-12+000399999V0203601N005112200019N0020001N1+02921+02291101201ADDGF102991021011008001001001MA1999999101151MD1999999+0121REMSYN070AAXX  21184 83498 32595 23610 10292 20229 30115 40120 82100 333 58012;
0168834980999992007122200004-17733-039250FM-12+000399999V0203601N002112200019N0020001N1+02581+02271101231ADDGF101991011011008001001001KA1240M+02991MA1999999101181MD1999999+0171REMSYN088AAXX  22004 83498 32595 13604 10258 20227 30118 40123 81100 333 10299 29078 55/// 58017;
0137834980999992007122218004-17733-039250FM-12+000399999V0203601N004612200019N0020001N1+02961+02261101271ADDGF104991021011008001031001MA1999999101221MD1999999+0071REMSYN070AAXX  22184 83498 32595 43609 10296 20226 30122 40127 82130 333 58007;
0178834980999992007122300004-17733-039250FM-12+000399999V0200501N001512200019N0020001N1+02481+02151101201ADDGA1001+999999999GF100991001001999999001001KA1240M+03111MA1999999101151MD1999999-0031REMSYN082AAXX  23004 83498 32995 00503 10248 20215 30115 40120 333 10311 29076 55/// 59003;
0156834980999992007122312004-17733-039250FM-12+000399999V0203601N003110075019N0020001N1+02741+02211101451ADDGF105991051011008001001001KA1240N+02221MA1999999101401MD1999999+0071REMSYN076AAXX  23124 83498 32595 53606 10274 20221 30140 40145 85100 333 20222 58007;
0137834980999992007122318004-17733-039250FM-12+000399999V0200501N003612200019N0020001N1+02941+02191101391ADDGF102991021011008001001001MA1999999101341MD1999999+0121REMSYN070AAXX  23184 83498 32595 20507 10294 20219 30134 40139 82100 333 58012;
0168834980999992007122400004-17733-039250FM-12+000399999V0200501N001012200019N0020001N1+02501+02131101441ADDGF102991011011008001001011KA1240M+02991MA1999999101391MD1999999+0241REMSYN088AAXX  24004 83498 32595 20502 10250 20213 30139 40144 81101 333 10299 29074 55/// 58024;
0156834980999992007122412004-17733-039250FM-12+000399999V0200501N001510450019N0020001N1+02741+02261101611ADDGF108991041051008001011999KA1240N+02131MA1999999101561MD1999999+0161REMSYN076AAXX  24124 83498 32595 80503 10274 20226 30156 40161 8451/ 333 20213 58016;
0156834980999992007122512004-17733-039250FM-12+000399999V0200901N002110450019N0020001N1+02641+02181101601ADDGF106991021011008001041011KA1240N+02171MA1999999101551MD1999999-0011REMSYN076AAXX  25124 83498 32595 60904 10264 20218 30155 40160 82141 333 20217 59001;
0137834980999992007122518004-17733-039250FM-12+000399999V0200901N002612200019N0020001N1+02761+02191101421ADDGF104991031011008001041001MA1999999101371MD1999999-0051REMSYN070AAXX  25184 83498 32595 40905 10276 20219 30137 40142 83140 333 59005;
0168834980999992007122600004-17733-039250FM-12+000399999V0200901N001512200019N0020001N1+02521+02171101481ADDGF102991021011008001001001KA1240M+02901MA1999999101431MD1999999+0041REMSYN088AAXX  26004 83498 32595 20903 10252 20217 30143 40148 82100 333 10290 29077 55/// 58004;
0220834980999992007122612004-17733-039250FM-12+000399999V0200901N002119999999N0020001N1+02741+02261101571ADDAA124000021AY161061AY221061GF105991999021008001001001KA1240N+02141MA1999999101521MD1999999-0031MW1211REMSYN088AAXX  26124 83498 21595 50904 10274 20226 30152 40157 72162 86200 333 20214 59003 69924;EQDQ01+000062SCOTLC
0137834980999992007122618004-17733-039250FM-12+000399999V0200901N003112200019N0020001N1+02861+02261101351ADDGF103991021011008001001011MA1999999101301MD1999999-0071REMSYN070AAXX  26184 83498 32595 30906 10286 20226 30130 40135 82101 333 59007;
0187834980999992007122700004-17733-039250FM-12+000399999V0200901N002110450019N0020001N1+03541+02171101411ADDGF106991031051008001011001KA1240M+99999MA1999999101361MD1999999-0071REMSYN088AAXX  27004 83498 32595 60904 10354 20217 30136 40141 83510 333 10291 29076 55/// 59007;EQDQ01 +02912ATMX  
0220834980999992007122712004-17733-039250FM-12+000399999V0200901N001510450019N0020001N1+02621+02291101481ADDAA124008991AY161061AY221061GF106991041071008001021999KA1240N+99999MA1999999101431MD1999999-0091MW1211REMSYN088AAXX  27124 83498 21595 60903 10262 20229 30143 40148 72162 8472/ 333 20269 59009 60094;EQDQ01 +02692ATMN  
0182834980999992007122718004-17733-039250FM-12+000399999V0200901N003610075019N0020001N1+02821+02391101301ADDAA106004191AY161061AY261061GF105991051021008001001001MA1999999101251MD1999999-0051MW1211REMSYN082AAXX  27184 83498 21595 50907 10282 20239 30125 40130 72166 85200 333 59005 60041;
0168834980999992007122800004-17733-039250FM-12+000399999V0200901N000512200019N0020001N1+02481+02171101351ADDGF101991011011008001001001KA1240M+02881MA1999999101301MD1999999-0061REMSYN088AAXX  28004 83498 32595 10901 10248 20217 30130 40135 81100 333 10288 29080 55/// 59006;
0201834980999992007122812004-17733-039250FM-12+000399999V0200901N002110450019N0020001N1+02741+02261101541ADDAA124007191AY161061AY221061GF106991021011008001041011KA1240N+02201MA1999999101491MD1999999+0061MW1211REMSYN088AAXX  28124 83498 21595 60904 10274 20226 30149 40154 72162 82141 333 20220 58006 60074;
0137834980999992007122818004-17733-039250FM-12+000399999V0200901N003112200019N0020001N1+02861+02261101391ADDGF104991021011008001001011MA1999999101341MD1999999+0091REMSYN070AAXX  28184 83498 32595 40906 10286 20226 30134 40139 82101 333 58009;
0168834980999992007122900004-17733-039250FM-12+000399999V0200901N001510075019N0020001N1+02541+02171101491ADDGF105991051031008001001001KA1240M+02941MA1999999101441MD1999999+0141REMSYN088AAXX  29004 83498 32595 50903 10254 20217 30144 40149 85300 333 10294 29076 55/// 58014;
0201834980999992007122912004-17733-039250FM-12+000399999V0200901N001510450019N0020001N1+02621+02251101561ADDAA124001091AY161061AY221061GF108991041051008001031999KA1240N+02171MA1999999101511MD1999999+0021MW1211REMSYN088AAXX  29124 83498 21595 80903 10262 20225 30151 40156 72162 8453/ 333 20217 58002 60014;
0137834980999992007122918004-17733-039250FM-12+000399999V0200901N003610450019N0020001N1+02881+02211101351ADDGF105991021011008001031001MA1999999101301MD1999999+0041REMSYN070AAXX  29184 83498 32595 50907 10288 20221 30130 40135 82130 333 58004;
0168834980999992007123000004-17733-039250FM-12+000399999V0200901N001510450019N0020001N1+02541+02211101421ADDGF106991041011008001031001KA1240M+02971MA1999999101371MD1999999-0071REMSYN088AAXX  30004 83498 32595 60903 10254 20221 30137 40142 84130 333 10297 29078 55/// 59007;
0201834980999992007123012004-17733-039250FM-12+000399999V0203601N004110450019N0020001N1+02641+02231101501ADDAA124001091AY161061AY221061GF108991041051008001011999KA1240N+02161MA1999999101451MD1999999-0061MW1211REMSYN088AAXX  30124 83498 21595 83608 10264 20223 30145 40150 72162 8451/ 333 20216 59006 60014;
0137834980999992007123018004-17733-039250FM-12+000399999V0200501N003610450019N0020001N1+02861+02191101271ADDGF105991031011008001031001MA1999999101221MD1999999-0081REMSYN070AAXX  30184 83498 32595 50507 10286 20219 30122 40127 83130 333 59008;
0168834980999992007123100004-17733-039250FM-12+000399999V0200501N002112200019N0020001N1+02521+02111101261ADDGF103991031011008001001001KA1240M+02951MA1999999101211MD1999999-0161REMSYN088AAXX  31004 83498 32595 30504 10252 20211 30121 40126 83100 333 10295 29075 55/// 59016;
0137834980999992007123118004-17733-039250FM-12+000399999V0200501N003112200019N0020001N1+02881+02211101281ADDGF103991031011008001001001MA1999999101231MD1999999+0011REMSYN070AAXX  31184 83498 32595 30506 10288 20221 30123 40128 83100 333 58001;
